{"type":"FeatureCollection","features":[{"type": "Feature", "id": "iAwsCZfTOlYATV5taI3Vn0KElvU=", "properties": {"ref": "184", "@spider": "99centsonly", "addr:full": "2810 W. Alhambra Rd", "addr:city": "Alhambra", "addr:state": "CA", "addr:postcode": "91801", "addr:country": "US", "name": "Alhambra at Alhambra Rd", "website": "https://99only.com/stores/alhambra-alhambra-rd-184", "opening_hours": "Mo-Su 07:00-22:00"}, "geometry": {"type": "Point", "coordinates": [-118.154628, 34.09799]}},
{"type": "Feature", "id": "5q_scbKAFj_iYsxPTRL4Hdwv2K0=", "properties": {"ref": "140", "@spider": "99centsonly", "addr:full": "312 E. Betteravia Rd", "addr:city": "Santa Maria", "addr:state": "CA", "addr:postcode": "93454", "addr:country": "US", "name": "Santa Maria at Betteravia Rd", "website": "https://99only.com/stores/santa-maria-betteravia-rd-140", "opening_hours": "Mo-Su 07:00-23:00"}, "geometry": {"type": "Point", "coordinates": [-120.431924, 34.920976]}},
{"type": "Feature", "id": "8brBg3AWKSpwMwswrAqCrz65vbQ=", "properties": {"ref": "428", "@spider": "99centsonly", "addr:full": "1516 Amar Rd", "addr:city": "West Covina", "addr:state": "CA", "addr:postcode": "91792", "addr:country": "US", "name": "West Covina at Amar Rd", "website": "https://99only.com/stores/west-covina-amar-rd-428", "opening_hours": "Mo-Su 07:00-22:00"}, "geometry": {"type": "Point", "coordinates": [-117.914103, 34.029467]}},
{"type": "Feature", "id": "7aaZ0UCBtRmqSKzx9X1l7eHVgZ8=", "properties": {"ref": "292", "@spider": "99centsonly", "addr:full": "1870 Bellevue Rd", "addr:city": "Atwater", "addr:state": "CA", "addr:postcode": "95301", "addr:country": "US", "name": "Atwater at Bellevue Rd", "website": "https://99only.com/stores/atwater-bellevue-rd-292", "opening_hours": "Mo-Su 07:00-23:00"}, "geometry": {"type": "Point", "coordinates": [-120.612874, 37.3595]}},
{"type": "Feature", "id": "61NQSsklahYuA8yNC0SPVjLU52E=", "properties": {"ref": "199", "@spider": "99centsonly", "addr:full": "15505 S. normandie Ave", "addr:city": "Gardena", "addr:state": "CA", "addr:postcode": "90247", "addr:country": "US", "name": "Gardena at  Normandie Ave", "website": "https://99only.com/stores/gardena-normandie-ave-199", "opening_hours": "Mo-Su 07:00-22:00"}, "geometry": {"type": "Point", "coordinates": [-118.300465, 33.890012]}},
{"type": "Feature", "id": "yOzNjCE1o_p1XzD4sJaDSIgg49Q=", "properties": {"ref": "53", "@spider": "99centsonly", "addr:full": "1845 W. Orangethorpe Ave", "addr:city": "Fullerton", "addr:state": "CA", "addr:postcode": "92833", "addr:country": "US", "name": "Fullerton at Orangethorpe Ave", "website": "https://99only.com/stores/fullerton-orangethorpe-ave-53", "opening_hours": "Mo-Su 07:00-23:00"}, "geometry": {"type": "Point", "coordinates": [-117.961748, 33.859812]}},
{"type": "Feature", "id": "7SgYBipEItPCgByJ-l0c9BruqEo=", "properties": {"ref": "2876", "@spider": "99centsonly", "addr:full": "3330 N. Galloway Ave.", "addr:city": "Mesquite", "addr:state": "TX", "addr:postcode": "75150", "addr:country": "US", "name": "Mesquite at Galloway Ave", "website": "https://99only.com/stores/mesquite-galloway-ave-2876", "opening_hours": "Mo-Su 07:00-23:00"}, "geometry": {"type": "Point", "coordinates": [-96.60925, 32.811492]}},
{"type": "Feature", "id": "lq7debyI6QeQ7NdHc163OtdRaqk=", "properties": {"ref": "52", "@spider": "99centsonly", "addr:full": "11114 Ramona Blvd", "addr:city": "El Monte", "addr:state": "CA", "addr:postcode": "91731", "addr:country": "US", "name": "El Monte at Ramona Blvd", "website": "https://99only.com/stores/el-monte-ramona-blvd-52", "opening_hours": "Mo-Su 07:00-22:00"}, "geometry": {"type": "Point", "coordinates": [-118.031088, 34.072676]}},
{"type": "Feature", "id": "-kNKcnOl8TaGcxmYCosQiymHOyE=", "properties": {"ref": "349", "@spider": "99centsonly", "addr:full": "580 E. Prater Way", "addr:city": "Sparks", "addr:state": "NV", "addr:postcode": "89431", "addr:country": "US", "name": "Sparks at Prater Way", "website": "https://99only.com/stores/sparks-prater-way-349", "opening_hours": "Mo-Su 07:00-22:00"}, "geometry": {"type": "Point", "coordinates": [-119.736546, 39.542807]}},
{"type": "Feature", "id": "2xQWU-qu2V3AFMShr3hG6vLnsU8=", "properties": {"ref": "377", "@spider": "99centsonly", "addr:full": "300 Richmond St.", "addr:city": "El Segundo", "addr:state": "CA", "addr:postcode": "90245", "addr:country": "US", "name": "El Segundo at Richmond St", "website": "https://99only.com/stores/el-segundo-richmond-st-377", "opening_hours": "Mo-Su 07:00-22:00"}, "geometry": {"type": "Point", "coordinates": [-118.416963, 33.919789]}},
{"type": "Feature", "id": "130A_g1pKp3OjOGoRXMtptCtkYI=", "properties": {"ref": "328", "@spider": "99centsonly", "addr:full": "4170 West Shaw Ave", "addr:city": "Fresno", "addr:state": "CA", "addr:postcode": "93722", "addr:country": "US", "name": "Fresno at West Shaw Ave", "website": "https://99only.com/stores/fresno-west-shaw-ave-328", "opening_hours": "Mo-Su 07:00-23:00"}, "geometry": {"type": "Point", "coordinates": [-119.866761, 36.808866]}},
{"type": "Feature", "id": "gF20IJb8dVcHfDheTcO8rnItJpw=", "properties": {"ref": "2852", "@spider": "99centsonly", "addr:full": "7061 Lawndale St", "addr:city": "Houston", "addr:state": "TX", "addr:postcode": "77023", "addr:country": "US", "name": "Houston at Lawndale St", "website": "https://99only.com/stores/houston-lawndale-st-2852", "opening_hours": "Mo-Su 07:00-23:00"}, "geometry": {"type": "Point", "coordinates": [-95.29571, 29.71805]}},
{"type": "Feature", "id": "yyH7DweBIii5gaGMhDH8QL_TKiE=", "properties": {"ref": "73", "@spider": "99centsonly", "addr:full": "1862 Palm Ave", "addr:city": "San Diego", "addr:state": "CA", "addr:postcode": "92154", "addr:country": "US", "name": "San Diego at Palm Ave", "website": "https://99only.com/stores/san-diego-palm-ave-73", "opening_hours": "Mo-Su 07:00-22:00"}, "geometry": {"type": "Point", "coordinates": [-117.093275, 32.584473]}},
{"type": "Feature", "id": "69bzwkHjUQ4U5SX1gq33WJZ8Y9Q=", "properties": {"ref": "192", "@spider": "99centsonly", "addr:full": "551 Peabody Rd", "addr:city": "Vacaville", "addr:state": "CA", "addr:postcode": "95687", "addr:country": "US", "name": "Vacaville at Peabody Rd", "website": "https://99only.com/stores/vacaville-peabody-rd-192", "opening_hours": "Mo-Su 07:00-22:00"}, "geometry": {"type": "Point", "coordinates": [-121.972493, 38.345442]}},
{"type": "Feature", "id": "BxySDsevxKKxGVCQwNt4T7-vT0M=", "properties": {"ref": "104", "@spider": "99centsonly", "addr:full": "3477 Arlington Ave", "addr:city": "Riverside", "addr:state": "CA", "addr:postcode": "92506", "addr:country": "US", "name": "Riverside at Arlington Ave", "website": "https://99only.com/stores/riverside-arlington-ave-104", "opening_hours": "Mo-Su 07:00-22:00"}, "geometry": {"type": "Point", "coordinates": [-117.386496, 33.946992]}},
{"type": "Feature", "id": "Zfnt53vARE8CUrCbNqf-o99MODI=", "properties": {"ref": "385", "@spider": "99centsonly", "addr:full": "10261 Fairway Dr", "addr:city": "Roseville", "addr:state": "CA", "addr:postcode": "95678", "addr:country": "US", "name": "Roseville at Fairway Dr", "website": "https://99only.com/stores/roseville-fairway-dr-385", "opening_hours": "Mo-Su 07:00-23:00"}, "geometry": {"type": "Point", "coordinates": [-121.281485, 38.787832]}},
{"type": "Feature", "id": "4M5PF7_FtJLjVh6VeK6OkTQC9TU=", "properties": {"ref": "275", "@spider": "99centsonly", "addr:full": "620 San Pablo Ave.", "addr:city": "Pinole", "addr:state": "CA", "addr:postcode": "94564", "addr:country": "US", "name": "Pinole at San Pablo Ave", "website": "https://99only.com/stores/pinole-san-pablo-ave-275", "opening_hours": "Mo-Su 07:00-22:00"}, "geometry": {"type": "Point", "coordinates": [-122.315204, 38.003535]}},
{"type": "Feature", "id": "m85nghz1A-kKzlWHsiB1A2PF3-g=", "properties": {"ref": "406", "@spider": "99centsonly", "addr:full": "15727 Downey Ave", "addr:city": "Paramount", "addr:state": "CA", "addr:postcode": "90723", "addr:country": "US", "name": "Paramount at Downey Ave", "website": "https://99only.com/stores/paramount-downey-ave-406", "opening_hours": "Mo-Su 07:00-23:00"}, "geometry": {"type": "Point", "coordinates": [-118.152905, 33.890243]}},
{"type": "Feature", "id": "fOVmaIs168yCcNAZm-gzTffKWZ8=", "properties": {"ref": "243", "@spider": "99centsonly", "addr:full": "750 W. Calle Arroyo Sur", "addr:city": "Sahuarita", "addr:state": "AZ", "addr:postcode": "85614", "addr:country": "US", "name": "Green Valley at W. Calle Arroyo Sur", "website": "https://99only.com/stores/green-valley-w-calle-arroyo-sur-243", "opening_hours": "Mo-Su 07:00-23:00"}, "geometry": {"type": "Point", "coordinates": [-110.980923, 31.913053]}},
{"type": "Feature", "id": "a7vyHMpZ4KfBmnc11Yl-pTVBcDU=", "properties": {"ref": "166", "@spider": "99centsonly", "addr:full": "2315 E. Bell Rd", "addr:city": "Phoenix", "addr:state": "AZ", "addr:postcode": "85022", "addr:country": "US", "name": "Phoenix at Bell Rd", "website": "https://99only.com/stores/phoenix-bell-rd-166", "opening_hours": "Mo-Su 07:00-22:00"}, "geometry": {"type": "Point", "coordinates": [-112.032339, 33.639208]}},
{"type": "Feature", "id": "g-EnnpaBZKJ8vY5DK4KBYzx0x3Q=", "properties": {"ref": "341", "@spider": "99centsonly", "addr:full": "789 S. Tustin St", "addr:city": "Orange", "addr:state": "CA", "addr:postcode": "92866", "addr:country": "US", "name": "Orange at  Tustin St", "website": "https://99only.com/stores/orange-tustin-st-341", "opening_hours": "Mo-Su 07:00-22:00"}, "geometry": {"type": "Point", "coordinates": [-117.83517, 33.775518]}},
{"type": "Feature", "id": "YgwUQGTTD1pUhOR2K5fgdq-yDW0=", "properties": {"ref": "391", "@spider": "99centsonly", "addr:full": "2080 E. William St", "addr:city": "Carson City", "addr:state": "NV", "addr:postcode": "89701", "addr:country": "US", "name": "Carson City at William St", "website": "https://99only.com/stores/carson-city-william-st-391", "opening_hours": "Mo-Su 07:00-22:00"}, "geometry": {"type": "Point", "coordinates": [-119.74502, 39.17432]}},
{"type": "Feature", "id": "Kxlk_55HiSKkeOau2kS7J_SKi4I=", "properties": {"ref": "2840", "@spider": "99centsonly", "addr:full": "3632 Frankford Rd.", "addr:city": "Dallas", "addr:state": "TX", "addr:postcode": "75287", "addr:country": "US", "name": "Dallas at Frankford Rd", "website": "https://99only.com/stores/dallas-frankford-rd-2840", "opening_hours": "Mo-Su 07:00-23:00"}, "geometry": {"type": "Point", "coordinates": [-96.854499, 32.995907]}},
{"type": "Feature", "id": "J4wBA3wdDitebIyur3VEM5uzuBw=", "properties": {"ref": "2806", "@spider": "99centsonly", "addr:full": "7130 FM 1960", "addr:city": "Humble", "addr:state": "TX", "addr:postcode": "77346", "addr:country": "US", "name": "Humble at FM 1960 & Atascotia", "website": "https://99only.com/stores/humble-fm-1960-atascotia-2806", "opening_hours": "Mo-Su 07:00-22:00"}, "geometry": {"type": "Point", "coordinates": [-95.169413, 29.99733]}},
{"type": "Feature", "id": "UyTPRTBe80YoskS35pokkrJvlSc=", "properties": {"ref": "2857", "@spider": "99centsonly", "addr:full": "701 N. 13th St", "addr:city": "Harlingen", "addr:state": "TX", "addr:postcode": "78550", "addr:country": "US", "name": "Harlingen at N. 13th St", "website": "https://99only.com/stores/harlingen-n-13th-st-2857", "opening_hours": "Mo-Su 07:00-23:00"}, "geometry": {"type": "Point", "coordinates": [-97.683388, 26.19879]}},
{"type": "Feature", "id": "wsrHZkiBM5Ptaw9l2WxgbV8_lIc=", "properties": {"ref": "346", "@spider": "99centsonly", "addr:full": "5695 S. Virginia St", "addr:city": "Reno", "addr:state": "NV", "addr:postcode": "89502", "addr:country": "US", "name": "Reno at Virginia St", "website": "https://99only.com/stores/reno-virginia-st-346", "opening_hours": "Mo-Su 07:00-22:00"}, "geometry": {"type": "Point", "coordinates": [-119.788213, 39.473559]}},
{"type": "Feature", "id": "U2rO-m3YXewdB8ZgJt3LJkfALkA=", "properties": {"ref": "338", "@spider": "99centsonly", "addr:full": "34660 Monterey Ave.", "addr:city": "Palm Desert", "addr:state": "CA", "addr:postcode": "92211", "addr:country": "US", "name": "Palm Desert at Monterey Ave", "website": "https://99only.com/stores/palm-desert-monterey-ave-338", "opening_hours": "Mo-Su 07:00-23:00"}, "geometry": {"type": "Point", "coordinates": [-116.387537, 33.795996]}},
{"type": "Feature", "id": "LKnkXO1MxA2VgslNpfvpmohhs-Q=", "properties": {"ref": "231", "@spider": "99centsonly", "addr:full": "13540 W. Van Buren St.", "addr:city": "Goodyear", "addr:state": "AZ", "addr:postcode": "85338", "addr:country": "US", "name": "Goodyear at Van Buren St.", "website": "https://99only.com/stores/goodyear-van-buren-st-231", "opening_hours": "Mo-Su 07:00-22:00"}, "geometry": {"type": "Point", "coordinates": [-112.350883, 33.450819]}},
{"type": "Feature", "id": "vHxJ6-thQl520_1H-ggQyBfPMn8=", "properties": {"ref": "220", "@spider": "99centsonly", "addr:full": "8375 W. Thunderbird Rd", "addr:city": "Peoria", "addr:state": "AZ", "addr:postcode": "85381", "addr:country": "US", "name": "Peoria at Thunderbird Rd", "website": "https://99only.com/stores/peoria-thunderbird-rd-220", "opening_hours": "Mo-Su 07:00-23:00"}, "geometry": {"type": "Point", "coordinates": [-112.23955, 33.608784]}},
{"type": "Feature", "id": "u_oIWxwXwpPWFYajQsjS8HnR1dQ=", "properties": {"ref": "343", "@spider": "99centsonly", "addr:full": "602 W Arrow Hwy", "addr:city": "San Dimas", "addr:state": "CA", "addr:postcode": "91773", "addr:country": "US", "name": "San Dimas at Arrow Hwy", "website": "https://99only.com/stores/san-dimas-arrow-hwy-343", "opening_hours": "Mo-Su 07:00-22:00"}, "geometry": {"type": "Point", "coordinates": [-117.818901, 34.10369]}},
{"type": "Feature", "id": "4X6dRxc99VzoqZ6QO6-qe-Sm8NQ=", "properties": {"ref": "159", "@spider": "99centsonly", "addr:full": "7470 W. Lakemead Blvd", "addr:city": "Las Vegas", "addr:state": "NV", "addr:postcode": "89128", "addr:country": "US", "name": "Las Vegas at Lakemead Blvd", "website": "https://99only.com/stores/las-vegas-lakemead-blvd-159", "opening_hours": "Mo-Su 07:00-23:00"}, "geometry": {"type": "Point", "coordinates": [-115.256988, 36.197215]}},
{"type": "Feature", "id": "kBddnt_-R2NLt7EggyXZbKG7QX0=", "properties": {"ref": "39", "@spider": "99centsonly", "addr:full": "1514 N. Main St", "addr:city": "Santa Ana", "addr:state": "CA", "addr:postcode": "92701", "addr:country": "US", "name": "Santa Ana at Main St", "website": "https://99only.com/stores/santa-ana-main-st-39", "opening_hours": "Mo-Su 07:00-22:00"}, "geometry": {"type": "Point", "coordinates": [-117.867813, 33.758474]}},
{"type": "Feature", "id": "5F6BXkRvd_WUUA7IDtEgSwS5zdM=", "properties": {"ref": "382", "@spider": "99centsonly", "addr:full": "1326 Main St.", "addr:city": "Ramona", "addr:state": "CA", "addr:postcode": "92065", "addr:country": "US", "name": "Ramona at Main St", "website": "https://99only.com/stores/ramona-main-st-382", "opening_hours": "Mo-Su 07:00-22:00"}, "geometry": {"type": "Point", "coordinates": [-116.873711, 33.038366]}},
{"type": "Feature", "id": "eFeZ88ib9DByOuAZBIFkTtdZU6w=", "properties": {"ref": "41", "@spider": "99centsonly", "addr:full": "6121 Wilshire Blvd", "addr:city": "Los Angeles", "addr:state": "CA", "addr:postcode": "90048", "addr:country": "US", "name": "Los Angeles at Wilshire Blvd", "website": "https://99only.com/stores/los-angeles-wilshire-blvd-41", "opening_hours": "Mo-Su 07:00-22:00"}, "geometry": {"type": "Point", "coordinates": [-118.362407, 34.063249]}},
{"type": "Feature", "id": "iR5kuuUrUWvkO6XNEr0m-Ddn46U=", "properties": {"ref": "359", "@spider": "99centsonly", "addr:full": "950 E. Avenida de los Arboles", "addr:city": "Thousand Oaks", "addr:state": "CA", "addr:postcode": "91360", "addr:country": "US", "name": "Thousand Oaks at Avenida de los Arboles", "website": "https://99only.com/stores/thousand-oaks-avenida-de-los-arboles-359", "opening_hours": "Mo-Su 07:00-23:00"}, "geometry": {"type": "Point", "coordinates": [-118.861254, 34.215098]}},
{"type": "Feature", "id": "q_aaMrE1M9Cz8eUYdKCxbCf3xuc=", "properties": {"ref": "186", "@spider": "99centsonly", "addr:full": "55 Via Pico Plaza", "addr:city": "San Clemente", "addr:state": "CA", "addr:postcode": "92672", "addr:country": "US", "name": "San Clemente at Via Pico Plaza", "website": "https://99only.com/stores/san-clemente-pico-plaza-186", "opening_hours": "Mo-Su 07:00-22:00"}, "geometry": {"type": "Point", "coordinates": [-117.620086, 33.435957]}},
{"type": "Feature", "id": "Gqg1bSBySDBfxQULqigojuBnAfw=", "properties": {"ref": "19", "@spider": "99centsonly", "addr:full": "11811 Hawthorne Blvd", "addr:city": "Hawthorne", "addr:state": "CA", "addr:postcode": "90250", "addr:country": "US", "name": "Hawthorne at Hawthorne Blvd & 118th Street", "website": "https://99only.com/stores/hawthorne-hawthorne-blvd-118th-street-19", "opening_hours": "Mo-Su 07:00-22:00"}, "geometry": {"type": "Point", "coordinates": [-118.353709, 33.927068]}},
{"type": "Feature", "id": "3aYlr6ikxhdOK4hGQakPvcwzecg=", "properties": {"ref": "64", "@spider": "99centsonly", "addr:full": "430 N. Mountain Ave", "addr:city": "Ontario", "addr:state": "CA", "addr:postcode": "91761", "addr:country": "US", "name": "Ontario at Mountain Ave", "website": "https://99only.com/stores/ontario-mountain-ave-64", "opening_hours": "Mo-Su 07:00-22:00"}, "geometry": {"type": "Point", "coordinates": [-117.669469, 34.067851]}},
{"type": "Feature", "id": "7IiSThq98Gl2A0RlxaTzTpy6Afg=", "properties": {"ref": "426", "@spider": "99centsonly", "addr:full": "1045 S. Gilbert Rd", "addr:city": "Mesa", "addr:state": "AZ", "addr:postcode": "85204", "addr:country": "US", "name": "Mesa at Gilbert Rd", "website": "https://99only.com/stores/mesa-gilbert-rd-426", "opening_hours": "Mo-Su 07:00-23:00"}, "geometry": {"type": "Point", "coordinates": [-111.787078, 33.395577]}},
{"type": "Feature", "id": "cr6goL-R_ZloZ9hWLsoiPKbImMI=", "properties": {"ref": "387", "@spider": "99centsonly", "addr:full": "1683 E. Florence Blvd", "addr:city": "Casa Grande", "addr:state": "AZ", "addr:postcode": "85122", "addr:country": "US", "name": "Casa Grande at Florence Blvd", "website": "https://99only.com/stores/casa-grande-florence-blvd-387", "opening_hours": "Mo-Su 07:00-23:00"}, "geometry": {"type": "Point", "coordinates": [-111.715325, 32.878417]}},
{"type": "Feature", "id": "eLx0aIDGb68lWUP4FXKadwXoH18=", "properties": {"ref": "155", "@spider": "99centsonly", "addr:full": "2701 S. Mooney Blvd", "addr:city": "Visalia", "addr:state": "CA", "addr:postcode": "93277", "addr:country": "US", "name": "Visalia at Mooney Blvd", "website": "https://99only.com/stores/visalia-mooney-blvd-155", "opening_hours": "Mo-Su 07:00-23:00"}, "geometry": {"type": "Point", "coordinates": [-119.315121, 36.306647]}},
{"type": "Feature", "id": "AUEEkLh6gS2YW9xpdM6mNIfmV7Y=", "properties": {"ref": "348", "@spider": "99centsonly", "addr:full": "2680 Jensen Ave", "addr:city": "Sanger", "addr:state": "CA", "addr:postcode": "93657", "addr:country": "US", "name": "Sanger at Jensen Ave", "website": "https://99only.com/stores/sanger-jensen-ave-348", "opening_hours": "Mo-Su 07:00-23:00"}, "geometry": {"type": "Point", "coordinates": [-119.575817, 36.707271]}},
{"type": "Feature", "id": "FSLmb3uReUoDfIlLqgqoh6HhswA=", "properties": {"ref": "127", "@spider": "99centsonly", "addr:full": "25270 Madison", "addr:city": "Murrieta", "addr:state": "CA", "addr:postcode": "92562", "addr:country": "US", "name": "Murrieta at Madison", "website": "https://99only.com/stores/murrieta-madison-127", "opening_hours": "Mo-Su 07:00-23:00"}, "geometry": {"type": "Point", "coordinates": [-117.196423, 33.555532]}},
{"type": "Feature", "id": "0SjJnScSL3aJszQQG8Dqq8ay8gA=", "properties": {"ref": "244", "@spider": "99centsonly", "addr:full": "705 E. Vista Way", "addr:city": "Vista", "addr:state": "CA", "addr:postcode": "92084", "addr:country": "US", "name": "Vista at Vista Way", "website": "https://99only.com/stores/vista-vista-way-244", "opening_hours": "Mo-Su 07:00-22:00"}, "geometry": {"type": "Point", "coordinates": [-117.235535, 33.207212]}},
{"type": "Feature", "id": "6TUWpfZWl2VJSeGWQI_Ennx-Vaw=", "properties": {"ref": "311", "@spider": "99centsonly", "addr:full": "2159-2167 Pacific Coast Highway", "addr:city": "Lomita", "addr:state": "CA", "addr:postcode": "90717", "addr:country": "US", "name": "Lomita at Pacific Coast Hwy", "website": "https://99only.com/stores/lomita-pacific-coast-hwy-311", "opening_hours": "Mo-Su 07:00-22:00"}, "geometry": {"type": "Point", "coordinates": [-118.319086, 33.790152]}},
{"type": "Feature", "id": "2RHVAtZJpVHU3kSxn_s6ikjyqPM=", "properties": {"ref": "113", "@spider": "99centsonly", "addr:full": "301 Arneil Rd", "addr:city": "Camarillo", "addr:state": "CA", "addr:postcode": "93010", "addr:country": "US", "name": "Camarillo at Arneil Rd", "website": "https://99only.com/stores/camarillo-arneil-rd-113", "opening_hours": "Mo-Su 07:00-23:00"}, "geometry": {"type": "Point", "coordinates": [-119.040641, 34.219773]}},
{"type": "Feature", "id": "GSl6zJ2cCbmMcXsZHu-Cyb27OF4=", "properties": {"ref": "101", "@spider": "99centsonly", "addr:full": "1320 Highland Ave", "addr:city": "National City", "addr:state": "CA", "addr:postcode": "91950", "addr:country": "US", "name": "National City at Highland Ave", "website": "https://99only.com/stores/national-city-highland-ave-101", "opening_hours": "Mo-Su 07:00-23:00"}, "geometry": {"type": "Point", "coordinates": [-117.097735, 32.673254]}},
{"type": "Feature", "id": "_NAfOWnL5j5zlzN0KVF6oX_rh94=", "properties": {"ref": "180", "@spider": "99centsonly", "addr:full": "699 Lewelling Blvd., #50", "addr:city": "San Leandro", "addr:state": "CA", "addr:postcode": "94579", "addr:country": "US", "name": "San Leandro at Lewelling Blvd", "website": "https://99only.com/stores/san-leandro-lewelling-blvd-180", "opening_hours": "Mo-Su 07:00-23:00"}, "geometry": {"type": "Point", "coordinates": [-122.137444, 37.687659]}},
{"type": "Feature", "id": "t-JkgAMiNsCmRJJVBhyunPSxjVE=", "properties": {"ref": "425", "@spider": "99centsonly", "addr:full": "14551 Red Hill Ave", "addr:city": "Tustin", "addr:state": "CA", "addr:postcode": "92780", "addr:country": "US", "name": "Tustin at Red Hill Ave", "website": "https://99only.com/stores/tustin-red-hill-ave-425", "opening_hours": "Mo-Su 07:00-23:00"}, "geometry": {"type": "Point", "coordinates": [-117.822534, 33.727614]}},
{"type": "Feature", "id": "xs5aUw2rvqWBaZs_bpEbvPjzKlM=", "properties": {"ref": "327", "@spider": "99centsonly", "addr:full": "26542 Towne Centre Dr", "addr:city": "Foothill Ranch", "addr:state": "CA", "addr:postcode": "92610", "addr:country": "US", "name": "Foothill Ranch at Towne Centre Dr", "website": "https://99only.com/stores/foothill-ranch-towne-centre-dr-327", "opening_hours": "Mo-Su 07:00-23:00"}, "geometry": {"type": "Point", "coordinates": [-117.66811, 33.67957]}},
{"type": "Feature", "id": "S2AMf_b3XpZO3ihi67B6ryXZNDo=", "properties": {"ref": "222", "@spider": "99centsonly", "addr:full": "4160 W. Ina Rd.", "addr:city": "Tucson", "addr:state": "AZ", "addr:postcode": "85741", "addr:country": "US", "name": "Tucson at Ina Rd", "website": "https://99only.com/stores/tucson-ina-rd-222", "opening_hours": "Mo-Su 07:00-22:00"}, "geometry": {"type": "Point", "coordinates": [-111.054389, 32.33834]}},
{"type": "Feature", "id": "t13wxwr9sAy2w9wmJHg3t_hjUUQ=", "properties": {"ref": "47", "@spider": "99centsonly", "addr:full": "18215 Sherman Way", "addr:city": "Reseda", "addr:state": "CA", "addr:postcode": "91335", "addr:country": "US", "name": "Reseda at Sherman Way", "website": "https://99only.com/stores/reseda-sherman-way-47", "opening_hours": "Mo-Su 07:00-22:00"}, "geometry": {"type": "Point", "coordinates": [-118.52996, 34.201794]}},
{"type": "Feature", "id": "pLsYrt2iAA88HjQGitw6dDAG3ZM=", "properties": {"ref": "321", "@spider": "99centsonly", "addr:full": "11732 South St", "addr:city": "Artesia", "addr:state": "CA", "addr:postcode": "90701", "addr:country": "US", "name": "Artesia at South St", "website": "https://99only.com/stores/artesia-south-st-321", "opening_hours": "Mo-Su 07:00-22:00"}, "geometry": {"type": "Point", "coordinates": [-118.083553, 33.858222]}},
{"type": "Feature", "id": "C43pnP6ZTotytOS70_EFRoVBtQQ=", "properties": {"ref": "97", "@spider": "99centsonly", "addr:full": "19050 Brookhurst St", "addr:city": "Huntington Beach", "addr:state": "CA", "addr:postcode": "92646", "addr:country": "US", "name": "Huntington Beach at Brookhurst St", "website": "https://99only.com/stores/huntington-beach-brookhurst-st-97", "opening_hours": "Mo-Su 07:00-23:00"}, "geometry": {"type": "Point", "coordinates": [-117.95299, 33.68575]}},
{"type": "Feature", "id": "2_oQMiusXh0uzOZjQ_FVV0VVdkA=", "properties": {"ref": "2860", "@spider": "99centsonly", "addr:full": "5800 Bellaire Suite 1-101", "addr:city": "Houston", "addr:state": "TX", "addr:postcode": "77081", "addr:country": "US", "name": "Houston at Bellaire", "website": "https://99only.com/stores/houston-bellaire-2860", "opening_hours": "Mo-Su 07:00-23:00"}, "geometry": {"type": "Point", "coordinates": [-95.48341, 29.70652]}},
{"type": "Feature", "id": "ZT1t9-PI3eJXKaHYHFzP1czp5HA=", "properties": {"ref": "226", "@spider": "99centsonly", "addr:full": "602 E. Arrow Hwy", "addr:city": "Pomona", "addr:state": "CA", "addr:postcode": "91767", "addr:country": "US", "name": "Pomona at Arrow Hwy", "website": "https://99only.com/stores/pomona-arrow-hwy-226", "opening_hours": "Mo-Su 07:00-22:00"}, "geometry": {"type": "Point", "coordinates": [-117.73849, 34.08966]}},
{"type": "Feature", "id": "qt-dbNsZStV5f0msSH3XlVKBFgM=", "properties": {"ref": "383", "@spider": "99centsonly", "addr:full": "6230 Van Buren Blvd", "addr:city": "Riverside", "addr:state": "CA", "addr:postcode": "92503", "addr:country": "US", "name": "Riverside at Van Buren Blvd", "website": "https://99only.com/stores/riverside-van-buren-blvd-383", "opening_hours": "Mo-Su 07:00-22:00"}, "geometry": {"type": "Point", "coordinates": [-117.455323, 33.944424]}},
{"type": "Feature", "id": "jpWeNCP5T0k6v-bllP4WBY38FS0=", "properties": {"ref": "118", "@spider": "99centsonly", "addr:full": "1855 E. Ventura Blvd", "addr:city": "Oxnard", "addr:state": "CA", "addr:postcode": "93030", "addr:country": "US", "name": "Oxnard at Ventura Blvd", "website": "https://99only.com/stores/oxnard-ventura-blvd-118", "opening_hours": "Mo-Su 07:00-23:00"}, "geometry": {"type": "Point", "coordinates": [-119.152718, 34.225802]}},
{"type": "Feature", "id": "iufsiS1eHXFwJ_oZRU302mmDEwA=", "properties": {"ref": "267", "@spider": "99centsonly", "addr:full": "2101 N. Imperial Blvd", "addr:city": "El Centro", "addr:state": "CA", "addr:postcode": "92243", "addr:country": "US", "name": "El Centro at Imperial Blvd", "website": "https://99only.com/stores/el-centro-imperial-blvd-267", "opening_hours": "Mo-Su 07:00-23:00"}, "geometry": {"type": "Point", "coordinates": [-115.567556, 32.813072]}},
{"type": "Feature", "id": "vDNHbH-B2DIMefIU0CqrdnC60jE=", "properties": {"ref": "45", "@spider": "99centsonly", "addr:full": "938 S. Gaffey St", "addr:city": "San Pedro", "addr:state": "CA", "addr:postcode": "90731", "addr:country": "US", "name": "San Pedro at Gaffey St", "website": "https://99only.com/stores/san-pedro-gaffey-st-45", "opening_hours": "Mo-Su 07:00-22:00"}, "geometry": {"type": "Point", "coordinates": [-118.29224, 33.735334]}},
{"type": "Feature", "id": "PmSiieX9Ge_D1qRoVSeDFv1wWjg=", "properties": {"ref": "435", "@spider": "99centsonly", "addr:full": "8750 Tampa Ave", "addr:city": "Northridge", "addr:state": "CA", "addr:postcode": "91324", "addr:country": "US", "name": "Northridge at Tampa Ave", "website": "https://99only.com/stores/northridge-tampa-ave-435", "opening_hours": "Mo-Su 07:00-23:00"}, "geometry": {"type": "Point", "coordinates": [-118.552966, 34.229654]}},
{"type": "Feature", "id": "KB0SCNcC33v54u4I__xHWZ-bDdU=", "properties": {"ref": "77", "@spider": "99centsonly", "addr:full": "2311 S. Bristol St", "addr:city": "Santa Ana", "addr:state": "CA", "addr:postcode": "92704", "addr:country": "US", "name": "Santa Ana at Bristol St", "website": "https://99only.com/stores/santa-ana-bristol-st-77", "opening_hours": "Mo-Su 07:00-23:00"}, "geometry": {"type": "Point", "coordinates": [-117.884402, 33.715488]}},
{"type": "Feature", "id": "5a2lLxucJE5SI_QK1DOZd_zDmAs=", "properties": {"ref": "2847", "@spider": "99centsonly", "addr:full": "9009 Bruton Rd.", "addr:city": "Dallas", "addr:state": "TX", "addr:postcode": "75217", "addr:country": "US", "name": "Dallas at Bruton Rd", "website": "https://99only.com/stores/dallas-bruton-rd-2847", "opening_hours": "Mo-Su 07:00-22:00"}, "geometry": {"type": "Point", "coordinates": [-96.66738, 32.74971]}},
{"type": "Feature", "id": "gtDOTw8yOANUVyO-t9hsYj8ZpHg=", "properties": {"ref": "325", "@spider": "99centsonly", "addr:full": "1030 E. Avenue J", "addr:city": "Lancaster", "addr:state": "CA", "addr:postcode": "93535", "addr:country": "US", "name": "Lancaster at Challenger St", "website": "https://99only.com/stores/lancaster-challenger-st-325", "opening_hours": "Mo-Su 07:00-22:00"}, "geometry": {"type": "Point", "coordinates": [-118.110969, 34.688182]}},
{"type": "Feature", "id": "dDhOE7HTHqHVkcuf0LN8dCRYmmI=", "properties": {"ref": "174", "@spider": "99centsonly", "addr:full": "2180 Harbor Blvd", "addr:city": "Costa Mesa", "addr:state": "CA", "addr:postcode": "92627", "addr:country": "US", "name": "Costa Mesa at Harbor Blvd", "website": "https://99only.com/stores/costa-mesa-harbor-blvd-174", "opening_hours": "Mo-Su 07:00-23:00"}, "geometry": {"type": "Point", "coordinates": [-117.918025, 33.653512]}},
{"type": "Feature", "id": "pQKOXCmIG9ah9vp3TQIyJqWy0oM=", "properties": {"ref": "147", "@spider": "99centsonly", "addr:full": "9230 S. Eastern Ave", "addr:city": "Henderson", "addr:state": "NV", "addr:postcode": "89052", "addr:country": "US", "name": "Henderson at Eastern Ave", "website": "https://99only.com/stores/henderson-eastern-ave-147", "opening_hours": "Mo-Su 07:00-22:00"}, "geometry": {"type": "Point", "coordinates": [-115.117125, 36.021669]}},
{"type": "Feature", "id": "RMNEwvimljasLM4WYvyDFhKM5rY=", "properties": {"ref": "412", "@spider": "99centsonly", "addr:full": "22985 Cottonwood Ave", "addr:city": "Moreno Valley", "addr:state": "CA", "addr:postcode": "92553", "addr:country": "US", "name": "Moreno Valley at Cottonwood Ave", "website": "https://99only.com/stores/moreno-valley-cottonwood-ave-412", "opening_hours": "Mo-Su 07:00-22:00"}, "geometry": {"type": "Point", "coordinates": [-117.261574, 33.923859]}},
{"type": "Feature", "id": "ag-YEMDWM3ZpM0-bNB2qtuMsYuc=", "properties": {"ref": "188", "@spider": "99centsonly", "addr:full": "701 N. Golden State Blvd.", "addr:city": "Turlock", "addr:state": "CA", "addr:postcode": "95380", "addr:country": "US", "name": "Turlock at Golden State Blvd", "website": "https://99only.com/stores/turlock-golden-state-blvd-188", "opening_hours": "Mo-Su 07:00-23:00"}, "geometry": {"type": "Point", "coordinates": [-120.851383, 37.499486]}},
{"type": "Feature", "id": "qXNbB8pthNEIadt3l6u-pRqi1mw=", "properties": {"ref": "145", "@spider": "99centsonly", "addr:full": "1120 S. Country Club Dr", "addr:city": "Mesa", "addr:state": "AZ", "addr:postcode": "85210", "addr:country": "US", "name": "Mesa at Country Club Dr", "website": "https://99only.com/stores/mesa-country-club-dr-145", "opening_hours": "Mo-Su 07:00-22:00"}, "geometry": {"type": "Point", "coordinates": [-111.841607, 33.394989]}},
{"type": "Feature", "id": "CIwl6nOIduzGwtyCKF2MkLzF1rk=", "properties": {"ref": "60", "@spider": "99centsonly", "addr:full": "24200 Lyons Ave", "addr:city": "Newhall", "addr:state": "CA", "addr:postcode": "91321", "addr:country": "US", "name": "Newhall at Lyons Ave", "website": "https://99only.com/stores/newhall-lyons-ave-60", "opening_hours": "Mo-Su 07:00-22:00"}, "geometry": {"type": "Point", "coordinates": [-118.558727, 34.378052]}},
{"type": "Feature", "id": "nEVjnAzbguwBSGwnfEKcHf2zEa4=", "properties": {"ref": "297", "@spider": "99centsonly", "addr:full": "3600 Klose Way", "addr:city": "Richmond", "addr:state": "CA", "addr:postcode": "94806", "addr:country": "US", "name": "Richmond at Klose Way", "website": "https://99only.com/stores/richmond-klose-way-297", "opening_hours": "Mo-Su 07:00-23:00"}, "geometry": {"type": "Point", "coordinates": [-122.31823, 37.98255]}},
{"type": "Feature", "id": "GxPvzn6WShJsAw8lfbNHx1HCCSw=", "properties": {"ref": "371", "@spider": "99centsonly", "addr:full": "26100 Newport Rd", "addr:city": "Menifee", "addr:state": "CA", "addr:postcode": "92586", "addr:country": "US", "name": "Menifee at Newport Rd", "website": "https://99only.com/stores/menifee-newport-rd-371", "opening_hours": "Mo-Su 07:00-23:00"}, "geometry": {"type": "Point", "coordinates": [-117.204775, 33.686037]}},
{"type": "Feature", "id": "vM--dRoUTZEhmsb-4UUZzRfRHA0=", "properties": {"ref": "416", "@spider": "99centsonly", "addr:full": "7424 Greenback Ln", "addr:city": "Citrus Heights", "addr:state": "CA", "addr:postcode": "95610", "addr:country": "US", "name": "Citrus Heights at Greenback Ln", "website": "https://99only.com/stores/citrus-heights-greenback-ln-416", "opening_hours": "Mo-Su 07:00-23:00"}, "geometry": {"type": "Point", "coordinates": [-121.291254, 38.67756]}},
{"type": "Feature", "id": "4DgzLDURHGlc7-Wuio0PF1PJtTE=", "properties": {"ref": "224", "@spider": "99centsonly", "addr:full": "260 E. 10th St", "addr:city": "Gilroy", "addr:state": "CA", "addr:postcode": "95020", "addr:country": "US", "name": "Gilroy at East 10th St", "website": "https://99only.com/stores/gilroy-east-10th-st-224", "opening_hours": "Mo-Su 07:00-23:00"}, "geometry": {"type": "Point", "coordinates": [-121.56197, 37.000198]}},
{"type": "Feature", "id": "xvrmLz5f9RAxQO9uXgRyS91CcuI=", "properties": {"ref": "75", "@spider": "99centsonly", "addr:full": "16672 Beach Blvd", "addr:city": "Huntington Beach", "addr:state": "CA", "addr:postcode": "92647", "addr:country": "US", "name": "Huntington Beach at Beach Blvd", "website": "https://99only.com/stores/huntington-beach-beach-blvd-75", "opening_hours": "Mo-Su 07:00-23:00"}, "geometry": {"type": "Point", "coordinates": [-117.98794, 33.72087]}},
{"type": "Feature", "id": "Nwwv0dHIghyMjgknnsV3CKY12MA=", "properties": {"ref": "2830", "@spider": "99centsonly", "addr:full": "10220 Almeda Genoa Rd.", "addr:city": "Houston", "addr:state": "TX", "addr:postcode": "77034", "addr:country": "US", "name": "Houston at Almeda Genoa Rd", "website": "https://99only.com/stores/houston-almeda-genoa-rd-2830", "opening_hours": "Mo-Su 07:00-22:00"}, "geometry": {"type": "Point", "coordinates": [-95.232405, 29.626913]}},
{"type": "Feature", "id": "1pxIx7NZydyLHr53AAd85H5Vuz4=", "properties": {"ref": "372", "@spider": "99centsonly", "addr:full": "11072 Magnolia St.", "addr:city": "Garden Grove", "addr:state": "CA", "addr:postcode": "92841", "addr:country": "US", "name": "Garden Grove at Magnolia St", "website": "https://99only.com/stores/garden-grove-magnolia-st-372", "opening_hours": "Mo-Su 07:00-22:00"}, "geometry": {"type": "Point", "coordinates": [-117.974506, 33.802015]}},
{"type": "Feature", "id": "fPCSCikesAEg7c8Ef7ZuLd6z4bM=", "properties": {"ref": "2875", "@spider": "99centsonly", "addr:full": "251 W Greens Rd", "addr:city": "Houston", "addr:state": "TX", "addr:postcode": "77067", "addr:country": "US", "name": "Houston at Greens Rd", "website": "https://99only.com/stores/houston-greens-rd-2875", "opening_hours": "Mo-Su 07:00-22:00"}, "geometry": {"type": "Point", "coordinates": [-95.421522, 29.948015]}},
{"type": "Feature", "id": "ltHvLX164ecl6-kj-q-pZ0HxGN8=", "properties": {"ref": "169", "@spider": "99centsonly", "addr:full": "145 S. El Camino Real", "addr:city": "Encinitas", "addr:state": "CA", "addr:postcode": "92024", "addr:country": "US", "name": "Encinitas at El Camino Real", "website": "https://99only.com/stores/encinitas-el-camino-real-169", "opening_hours": "Mo-Su 07:00-22:00"}, "geometry": {"type": "Point", "coordinates": [-117.258536, 33.044519]}},
{"type": "Feature", "id": "WJlnApFP7it8Jw79kuuIU_L5FfE=", "properties": {"ref": "93", "@spider": "99centsonly", "addr:full": "14670 Seventh St", "addr:city": "Victorville", "addr:state": "CA", "addr:postcode": "92395", "addr:country": "US", "name": "Victorville at Seventh St", "website": "https://99only.com/stores/victorville-seventh-st-93", "opening_hours": "Mo-Su 07:00-22:00"}, "geometry": {"type": "Point", "coordinates": [-117.31294, 34.51813]}},
{"type": "Feature", "id": "jyMVuHiqVzfl2kKgAo5OF1VYDkQ=", "properties": {"ref": "65", "@spider": "99centsonly", "addr:full": "5130 190th St", "addr:city": "Torrance", "addr:state": "CA", "addr:postcode": "90504", "addr:country": "US", "name": "Torrance at 190th St", "website": "https://99only.com/stores/torrance-190th-st-65", "opening_hours": "Mo-Su 07:00-22:00"}, "geometry": {"type": "Point", "coordinates": [-118.36683, 33.85781]}},
{"type": "Feature", "id": "TJGnmlEqEH-VyFw5tE_EAEddDCY=", "properties": {"ref": "107", "@spider": "99centsonly", "addr:full": "229 E. Foothill Blvd", "addr:city": "Upland", "addr:state": "CA", "addr:postcode": "91786", "addr:country": "US", "name": "Upland at Foothill Blvd", "website": "https://99only.com/stores/upland-foothill-blvd-107", "opening_hours": "Mo-Su 07:00-22:00"}, "geometry": {"type": "Point", "coordinates": [-117.648139, 34.10817]}},
{"type": "Feature", "id": "6BMfvwBO9KIL2BD5ilT4PfoQecA=", "properties": {"ref": "315", "@spider": "99centsonly", "addr:full": "6639 Laurel Canyon Blvd", "addr:city": "North Hollywood", "addr:state": "CA", "addr:postcode": "91606", "addr:country": "US", "name": "North Hollywood at Laurel Canyon Blvd", "website": "https://99only.com/stores/north-hollywood-laurel-canyon-blvd-315", "opening_hours": "Mo-Su 07:00-22:00"}, "geometry": {"type": "Point", "coordinates": [-118.39726, 34.19139]}},
{"type": "Feature", "id": "3mMtPFScblR5qpD2FY1wj9nCgoc=", "properties": {"ref": "413", "@spider": "99centsonly", "addr:full": "740 Mono Way", "addr:city": "Sonora", "addr:state": "CA", "addr:postcode": "95370", "addr:country": "US", "name": "Sonora at Mono Way", "website": "https://99only.com/stores/sonora-mono-way-413", "opening_hours": "Mo-Su 07:00-22:00"}, "geometry": {"type": "Point", "coordinates": [-120.371343, 37.974705]}},
{"type": "Feature", "id": "EppHDPwmDgi5pKbkYeAFYBsTuMI=", "properties": {"ref": "2843", "@spider": "99centsonly", "addr:full": "10702 Eastex Fwy", "addr:city": "Houston", "addr:state": "TX", "addr:postcode": "77093", "addr:country": "US", "name": "Houston at Easttex Fwy", "website": "https://99only.com/stores/houston-easttex-fwy-2843", "opening_hours": "Mo-Su 07:00-23:00"}, "geometry": {"type": "Point", "coordinates": [-95.327546, 29.868048]}},
{"type": "Feature", "id": "jp3jHbQAWxpiHePfXV22PCYoERk=", "properties": {"ref": "203", "@spider": "99centsonly", "addr:full": "12805 N. Tatum Blvd.", "addr:city": "Phoenix", "addr:state": "AZ", "addr:postcode": "85032", "addr:country": "US", "name": "Phoenix at Tatum Blvd", "website": "https://99only.com/stores/phoenix-tatum-blvd-203", "opening_hours": "Mo-Su 07:00-23:00"}, "geometry": {"type": "Point", "coordinates": [-111.976825, 33.60215]}},
{"type": "Feature", "id": "0sYpfz2JAjoY3KeP5wMPd_lPEDA=", "properties": {"ref": "318", "@spider": "99centsonly", "addr:full": "12369 Poway Rd", "addr:city": "Poway", "addr:state": "CA", "addr:postcode": "92064", "addr:country": "US", "name": "Poway at Poway Rd", "website": "https://99only.com/stores/poway-poway-rd-318", "opening_hours": "Mo-Su 07:00-23:00"}, "geometry": {"type": "Point", "coordinates": [-117.063192, 32.950936]}},
{"type": "Feature", "id": "Zur2KDrDoPvDG3qBdO_iSXDdgW8=", "properties": {"ref": "81", "@spider": "99centsonly", "addr:full": "6755 Van Nuys Blvd", "addr:city": "Van Nuys", "addr:state": "CA", "addr:postcode": "91405", "addr:country": "US", "name": "Van Nuys at Van Nuys Blvd", "website": "https://99only.com/stores/van-nuys-van-nuys-blvd-81", "opening_hours": "Mo-Su 07:00-22:00"}, "geometry": {"type": "Point", "coordinates": [-118.449142, 34.193719]}},
{"type": "Feature", "id": "Sz9r7QZFsbNMyEOvEFT-skbxncM=", "properties": {"ref": "123", "@spider": "99centsonly", "addr:full": "1321 W. Foothill Blvd", "addr:city": "Rialto", "addr:state": "CA", "addr:postcode": "92376", "addr:country": "US", "name": "Rialto at Foothill Blvd", "website": "https://99only.com/stores/rialto-foothill-blvd-123", "opening_hours": "Mo-Su 07:00-23:00"}, "geometry": {"type": "Point", "coordinates": [-117.397303, 34.105497]}},
{"type": "Feature", "id": "gxv_4k27BmkL-D0PjIt9PoRsaQ4=", "properties": {"ref": "216", "@spider": "99centsonly", "addr:full": "72845 A & B Hwy 111", "addr:city": "Palm Desert", "addr:state": "CA", "addr:postcode": "92260", "addr:country": "US", "name": "Palm Desert at A & B Hwy 111", "website": "https://99only.com/stores/palm-desert-b-hwy-111-216", "opening_hours": "Mo-Su 07:00-22:00"}, "geometry": {"type": "Point", "coordinates": [-116.39322, 33.72059]}},
{"type": "Feature", "id": "Y1K9x4idaNoitM4dVi5LQo4rdP0=", "properties": {"ref": "234", "@spider": "99centsonly", "addr:full": "18286 Collier Ave", "addr:city": "Lake Elsinore", "addr:state": "CA", "addr:postcode": "92530", "addr:country": "US", "name": "Lake Elsinore at Collier Ave", "website": "https://99only.com/stores/lake-elsinore-collier-ave-234", "opening_hours": "Mo-Su 07:00-23:00"}, "geometry": {"type": "Point", "coordinates": [-117.340016, 33.692168]}},
{"type": "Feature", "id": "dC1DcI3qJQQ0xd8KFSQMbPyt_98=", "properties": {"ref": "179", "@spider": "99centsonly", "addr:full": "12013 5th St", "addr:city": "Yucaipa", "addr:state": "CA", "addr:postcode": "92399", "addr:country": "US", "name": "Yucaipa at 5th St", "website": "https://99only.com/stores/yucaipa-5th-st-179", "opening_hours": "Mo-Su 07:00-22:00"}, "geometry": {"type": "Point", "coordinates": [-117.055475, 34.035389]}},
{"type": "Feature", "id": "Iio2ZrBTCP9JKXsyLTR6BAQ9qXs=", "properties": {"ref": "251", "@spider": "99centsonly", "addr:full": "2012 Long Beach Blvd", "addr:city": "Long Beach", "addr:state": "CA", "addr:postcode": "90806", "addr:country": "US", "name": "Long Beach at Long Beach Blvd", "website": "https://99only.com/stores/long-beach-long-beach-blvd-251", "opening_hours": "Mo-Su 07:00-22:00"}, "geometry": {"type": "Point", "coordinates": [-118.188813, 33.794417]}},
{"type": "Feature", "id": "an6hugPtQxkP88V78BNvbykKFec=", "properties": {"ref": "168", "@spider": "99centsonly", "addr:full": "4319 Elkhorn Blvd.", "addr:city": "Sacramento", "addr:state": "CA", "addr:postcode": "95842", "addr:country": "US", "name": "Sacramento at Elkhorn Blvd", "website": "https://99only.com/stores/sacramento-elkhorn-blvd-168", "opening_hours": "Mo-Su 07:00-23:00"}, "geometry": {"type": "Point", "coordinates": [-121.362702, 38.695399]}},
{"type": "Feature", "id": "GfWN9STELbL_tCQrxLFCswYNjXg=", "properties": {"ref": "240", "@spider": "99centsonly", "addr:full": "1080 S. Mount Vernon Ave", "addr:city": "Colton", "addr:state": "CA", "addr:postcode": "92324", "addr:country": "US", "name": "Colton at S. Mount Vernon Ave", "website": "https://99only.com/stores/colton-s-mount-vernon-ave-240", "opening_hours": "Mo-Su 07:00-22:00"}, "geometry": {"type": "Point", "coordinates": [-117.307251, 34.051508]}},
{"type": "Feature", "id": "MMM2giYZGohVWpZb2elUOdjvk1M=", "properties": {"ref": "314", "@spider": "99centsonly", "addr:full": "1795 Kiowa Blvd", "addr:city": "Lake Havasu", "addr:state": "AZ", "addr:postcode": "86403", "addr:country": "US", "name": "Lake Havasu City at Kiowa Blvd", "website": "https://99only.com/stores/lake-havasu-city-kiowa-blvd-314", "opening_hours": "Mo-Su 07:00-22:00"}, "geometry": {"type": "Point", "coordinates": [-114.351152, 34.503759]}},
{"type": "Feature", "id": "Ee7xhF0IahGGgufXhbZrxdSGlug=", "properties": {"ref": "2817", "@spider": "99centsonly", "addr:full": "2516 Ave H", "addr:city": "Rosenberg", "addr:state": "TX", "addr:postcode": "77471", "addr:country": "US", "name": "Rosenberg at Ave H", "website": "https://99only.com/stores/rosenberg-ave-h-2817", "opening_hours": "Mo-Su 07:00-22:00"}, "geometry": {"type": "Point", "coordinates": [-95.800547, 29.557832]}},
{"type": "Feature", "id": "6FVZB73qvqCDG0gixyZGQ_dS4dU=", "properties": {"ref": "429", "@spider": "99centsonly", "addr:full": "12301 Norwalk Blvd", "addr:city": "Norwalk", "addr:state": "CA", "addr:postcode": "90650", "addr:country": "US", "name": "Santa Fe Springs at Norwalk Blvd", "website": "https://99only.com/stores/santa-fe-springs-norwalk-blvd-429", "opening_hours": "Mo-Su 07:00-23:00"}, "geometry": {"type": "Point", "coordinates": [-118.073635, 33.919812]}},
{"type": "Feature", "id": "BWGRiVVYiKscG0x-wljgKCeJ4DM=", "properties": {"ref": "84", "@spider": "99centsonly", "addr:full": "852 N. La Brea Ave", "addr:city": "Los Angeles", "addr:state": "CA", "addr:postcode": "90038", "addr:country": "US", "name": "Los Angeles at N. La Brea Ave", "website": "https://99only.com/stores/los-angeles-n-la-brea-ave-84", "opening_hours": "Mo-Su 07:00-23:00"}, "geometry": {"type": "Point", "coordinates": [-118.343882, 34.086872]}},
{"type": "Feature", "id": "20MRoe5S2T4dHad68XivrJ0JO2I=", "properties": {"ref": "440", "@spider": "99centsonly", "addr:full": "20220 Hwy 18", "addr:city": "Apple Valley", "addr:state": "CA", "addr:postcode": "92307", "addr:country": "US", "name": "Apple Valley at Hwy. 18", "website": "https://99only.com/stores/apple-valley-hwy-18-440", "opening_hours": "Mo-Su 07:00-22:00"}, "geometry": {"type": "Point", "coordinates": [-117.221699, 34.528695]}},
{"type": "Feature", "id": "XXRkVkhoCQR_SUwkGYfavhNfnLA=", "properties": {"ref": "394", "@spider": "99centsonly", "addr:full": "3060 Crenshaw Blvd", "addr:city": "Los Angeles", "addr:state": "CA", "addr:postcode": "90018", "addr:country": "US", "name": "Los Angeles at Crenshaw Blvd", "website": "https://99only.com/stores/los-angeles-crenshaw-blvd-394", "opening_hours": "Mo-Su 07:00-22:00"}, "geometry": {"type": "Point", "coordinates": [-118.334575, 34.025981]}},
{"type": "Feature", "id": "9MPOznMqqmrw5TsZXWUljje8pvY=", "properties": {"ref": "112", "@spider": "99centsonly", "addr:full": "19033 E. Colima Rd", "addr:city": "Rowland Heights", "addr:state": "CA", "addr:postcode": "91748", "addr:country": "US", "name": "Rowland Heights at Colima Rd", "website": "https://99only.com/stores/rowland-heights-colima-rd-112", "opening_hours": "Mo-Su 07:00-22:00"}, "geometry": {"type": "Point", "coordinates": [-117.88828, 33.98826]}},
{"type": "Feature", "id": "UIBsrucrqnpZoeB6dFL8v5hK38M=", "properties": {"ref": "407", "@spider": "99centsonly", "addr:full": "2156 Pillsbury Rd", "addr:city": "Chico", "addr:state": "CA", "addr:postcode": "95926", "addr:country": "US", "name": "Chico at Pillsbury Rd", "website": "https://99only.com/stores/chico-pillsbury-rd-407", "opening_hours": "Mo-Su 07:00-23:00"}, "geometry": {"type": "Point", "coordinates": [-121.845973, 39.758462]}},
{"type": "Feature", "id": "cy1xLy9kb6LunErAE-QaNRzLSKY=", "properties": {"ref": "219", "@spider": "99centsonly", "addr:full": "3003 W. Apache Trail", "addr:city": "Apache Junction", "addr:state": "AZ", "addr:postcode": "85120", "addr:country": "US", "name": "Apache Junction at  Apache Trail", "website": "https://99only.com/stores/apache-junction-apache-trail-219", "opening_hours": "Mo-Su 07:00-22:00"}, "geometry": {"type": "Point", "coordinates": [-111.578284, 33.41399]}},
{"type": "Feature", "id": "t5jaIPO_o8hVAJ4Gv_bS0jHIHqU=", "properties": {"ref": "76", "@spider": "99centsonly", "addr:full": "15345 Whittier Blvd", "addr:city": "Whittier", "addr:state": "CA", "addr:postcode": "90603", "addr:country": "US", "name": "Whittier at Whittier Blvd", "website": "https://99only.com/stores/whittier-whittier-blvd-76", "opening_hours": "Mo-Su 07:00-23:00"}, "geometry": {"type": "Point", "coordinates": [-117.998849, 33.946647]}},
{"type": "Feature", "id": "g7AVHuB3tcwMSbvb9pp38mORo2Q=", "properties": {"ref": "395", "@spider": "99centsonly", "addr:full": "524 E. Danenberg Dr", "addr:city": "El Centro", "addr:state": "CA", "addr:postcode": "92243", "addr:country": "US", "name": "El Centro at Danenberg Dr", "website": "https://99only.com/stores/el-centro-danenberg-dr-395", "opening_hours": "Mo-Su 07:00-23:00"}, "geometry": {"type": "Point", "coordinates": [-115.533171, 32.769766]}},
{"type": "Feature", "id": "_XMjaArdmsYU45opvxgdCpxRiCY=", "properties": {"ref": "197", "@spider": "99centsonly", "addr:full": "1320 E. Alondra Blvd", "addr:city": "Compton", "addr:state": "CA", "addr:postcode": "90221", "addr:country": "US", "name": "Compton at Alondra Blvd", "website": "https://99only.com/stores/compton-alondra-blvd-197", "opening_hours": "Mo-Su 07:00-22:00"}, "geometry": {"type": "Point", "coordinates": [-118.208085, 33.887952]}},
{"type": "Feature", "id": "sTU4AS-KEYJyRdKyfQ56dz6UPxc=", "properties": {"ref": "57", "@spider": "99centsonly", "addr:full": "3220 W. Century Blvd", "addr:city": "Inglewood", "addr:state": "CA", "addr:postcode": "90303", "addr:country": "US", "name": "Inglewood at Century Blvd", "website": "https://99only.com/stores/inglewood-century-blvd-57", "opening_hours": "Mo-Su 07:00-22:00"}, "geometry": {"type": "Point", "coordinates": [-118.32696, 33.94439]}},
{"type": "Feature", "id": "nu0hem3YtqSMDMHkkwf_aGoboTs=", "properties": {"ref": "164", "@spider": "99centsonly", "addr:full": "7919 E. Thomas Rd.", "addr:city": "Scottsdale", "addr:state": "AZ", "addr:postcode": "85251", "addr:country": "US", "name": "Scottsdale at  Thomas Rd", "website": "https://99only.com/stores/scottsdale-thomas-rd-164", "opening_hours": "Mo-Su 07:00-22:00"}, "geometry": {"type": "Point", "coordinates": [-111.90991, 33.47909]}},
{"type": "Feature", "id": "7gUBeazB5pvq3VUocudk3PXiz3E=", "properties": {"ref": "198", "@spider": "99centsonly", "addr:full": "23829 El Toro Rd.", "addr:city": "Lake Forest", "addr:state": "CA", "addr:postcode": "92630", "addr:country": "US", "name": "Lake Forest at El Toro Rd", "website": "https://99only.com/stores/lake-forest-el-toro-rd-198", "opening_hours": "Mo-Su 07:00-23:00"}, "geometry": {"type": "Point", "coordinates": [-117.70621, 33.617069]}},
{"type": "Feature", "id": "FSU6sAoaZIi9GCr75uqza-Zc8Hg=", "properties": {"ref": "195", "@spider": "99centsonly", "addr:full": "1200 S. Decatur Blvd", "addr:city": "Las Vegas", "addr:state": "NV", "addr:postcode": "89102", "addr:country": "US", "name": "Las Vegas at  Decatur Blvd", "website": "https://99only.com/stores/las-vegas-decatur-blvd-195", "opening_hours": "Mo-Su 07:00-23:00"}, "geometry": {"type": "Point", "coordinates": [-115.207127, 36.157388]}},
{"type": "Feature", "id": "_PFru6iHvkiuPbXxELr4rcq8hbg=", "properties": {"ref": "14", "@spider": "99centsonly", "addr:full": "6161 Atlantic Blvd", "addr:city": "Maywood", "addr:state": "CA", "addr:postcode": "90270", "addr:country": "US", "name": "Maywood at Atlantic Blvd", "website": "https://99only.com/stores/maywood-atlantic-blvd-14", "opening_hours": "Mo-Su 07:00-23:00"}, "geometry": {"type": "Point", "coordinates": [-118.186587, 33.9818]}},
{"type": "Feature", "id": "JONnh2jeABkICgw7cKcdJF4RrfE=", "properties": {"ref": "225", "@spider": "99centsonly", "addr:full": "undefined", "addr:city": "Phoenix", "addr:state": "AZ", "addr:postcode": "85031", "addr:country": "US", "name": "Phoenix at W. Indian School Rd", "website": "https://99only.com/stores/phoenix-w-indian-school-rd-225", "opening_hours": "Mo-Su 07:00-22:00"}, "geometry": {"type": "Point", "coordinates": [-112.16685, 33.496088]}},
{"type": "Feature", "id": "EiHu-sQcKin-j8g2F51E-WA6UxA=", "properties": {"ref": "390", "@spider": "99centsonly", "addr:full": "57980 29 Palms Hwy", "addr:city": "Yucca Valley", "addr:state": "CA", "addr:postcode": "92284", "addr:country": "US", "name": "Yucca Valley at 29 Palms Hwy", "website": "https://99only.com/stores/yucca-valley-29-palms-hwy-390", "opening_hours": "Mo-Su 07:00-22:00"}, "geometry": {"type": "Point", "coordinates": [-116.399072, 34.129254]}},
{"type": "Feature", "id": "44P7x_jeRSQ6djkozKGGeh7OWVQ=", "properties": {"ref": "2872", "@spider": "99centsonly", "addr:full": "4849 FM1960 W", "addr:city": "Houston", "addr:state": "TX", "addr:postcode": "77069", "addr:country": "US", "name": "Houston at FM1960 West", "website": "https://99only.com/stores/houston-fm1960-west-2872", "opening_hours": "Mo-Su 07:00-23:00"}, "geometry": {"type": "Point", "coordinates": [-95.503457, 29.984238]}},
{"type": "Feature", "id": "FMFSLwIhkrShGF9oXkuY7fvv7L8=", "properties": {"ref": "212", "@spider": "99centsonly", "addr:full": "265 Marketplace Ave.", "addr:city": "San Diego", "addr:state": "CA", "addr:postcode": "92113", "addr:country": "US", "name": "San Diego at Marketplace Ave", "website": "https://99only.com/stores/san-diego-marketplace-ave-212", "opening_hours": "Mo-Su 07:00-22:00"}, "geometry": {"type": "Point", "coordinates": [-117.1003, 32.70306]}},
{"type": "Feature", "id": "d-nzZILVuucqyIjjGGJs2Cg-jUw=", "properties": {"ref": "334", "@spider": "99centsonly", "addr:full": "40355 Winchester Rd", "addr:city": "Temecula", "addr:state": "CA", "addr:postcode": "92591", "addr:country": "US", "name": "Temecula at Winchester Rd", "website": "https://99only.com/stores/temecula-winchester-rd-334", "opening_hours": "Mo-Su 07:00-23:00"}, "geometry": {"type": "Point", "coordinates": [-117.151633, 33.532961]}},
{"type": "Feature", "id": "w_cVOCyrmXJ0Tuz2rfit-VN8nLo=", "properties": {"ref": "353", "@spider": "99centsonly", "addr:full": "7101 El Camino Real", "addr:city": "Atascadero", "addr:state": "CA", "addr:postcode": "93422", "addr:country": "US", "name": "Atascadero at El Camino Real", "website": "https://99only.com/stores/atascadero-el-camino-real-353", "opening_hours": "Mo-Su 07:00-23:00"}, "geometry": {"type": "Point", "coordinates": [-120.663032, 35.486438]}},
{"type": "Feature", "id": "7l0zkSzoVT17Ag8HgvIbiVh2lZM=", "properties": {"ref": "132", "@spider": "99centsonly", "addr:full": "4910 Tropicana Ave", "addr:city": "Las Vegas", "addr:state": "NV", "addr:postcode": "89121", "addr:country": "US", "name": "Las Vegas at Tropicana Ave", "website": "https://99only.com/stores/las-vegas-tropicana-ave-132", "opening_hours": "Mo-Su 07:00-22:00"}, "geometry": {"type": "Point", "coordinates": [-115.065536, 36.100987]}},
{"type": "Feature", "id": "byeg9CMQ6b2xzyM-t93_Mc588Vc=", "properties": {"ref": "2804", "@spider": "99centsonly", "addr:full": "4980 N. Highway 6", "addr:city": "Houston", "addr:state": "TX", "addr:postcode": "77084", "addr:country": "US", "name": "Houston at Highway 6", "website": "https://99only.com/stores/houston-highway-6-2804", "opening_hours": "Mo-Su 07:00-22:00"}, "geometry": {"type": "Point", "coordinates": [-95.644737, 29.849885]}},
{"type": "Feature", "id": "qwSIHo_CDqWi1AZE23jTZeHguEQ=", "properties": {"ref": "433", "@spider": "99centsonly", "addr:full": "2888 W Grant Line Rd", "addr:city": "Tracy", "addr:state": "CA", "addr:postcode": "95304", "addr:country": "US", "name": "Tracy at Grant Line Rd", "website": "https://99only.com/stores/tracy-grant-line-rd-433", "opening_hours": "Mo-Su 07:00-23:00"}, "geometry": {"type": "Point", "coordinates": [-121.469733, 37.752554]}},
{"type": "Feature", "id": "CBDApnEe-r9n-Xba2ovPNBNXaqw=", "properties": {"ref": "418", "@spider": "99centsonly", "addr:full": "9937 Walker St.", "addr:city": "Cypress", "addr:state": "CA", "addr:postcode": "90630", "addr:country": "US", "name": "Cypress at Walker St", "website": "https://99only.com/stores/cypress-walker-st-418", "opening_hours": "Mo-Su 07:00-22:00"}, "geometry": {"type": "Point", "coordinates": [-118.03782, 33.81795]}},
{"type": "Feature", "id": "gyHJB-AWZGgJGZuV8bAzvm-4tBs=", "properties": {"ref": "51", "@spider": "99centsonly", "addr:full": "2606 N. Broadway", "addr:city": "Los Angeles", "addr:state": "CA", "addr:postcode": "90031", "addr:country": "US", "name": "Los Angeles at Broadway", "website": "https://99only.com/stores/los-angeles-broadway-51", "opening_hours": "Mo-Su 07:00-22:00"}, "geometry": {"type": "Point", "coordinates": [-118.215306, 34.0735]}},
{"type": "Feature", "id": "ChC5PvhEz2QdfZ2b44BWXAf7k0c=", "properties": {"ref": "363", "@spider": "99centsonly", "addr:full": "11550 Telegraph Rd", "addr:city": "Santa Fe Springs", "addr:state": "CA", "addr:postcode": "90670", "addr:country": "US", "name": "Santa Fe Springs at Telegraph Rd", "website": "https://99only.com/stores/santa-fe-springs-telegraph-rd-363", "opening_hours": "Mo-Su 07:00-22:00"}, "geometry": {"type": "Point", "coordinates": [-118.087449, 33.947356]}},
{"type": "Feature", "id": "cyDtBDb4Qr1aGdALMnLewU349Wo=", "properties": {"ref": "2815", "@spider": "99centsonly", "addr:full": "4100 Fairmont Pkwy", "addr:city": "Pasadena", "addr:state": "TX", "addr:postcode": "77504", "addr:country": "US", "name": "Pasadena at Fairmont Pkwy", "website": "https://99only.com/stores/pasadena-fairmont-pkwy-2815", "opening_hours": "Mo-Su 07:00-23:00"}, "geometry": {"type": "Point", "coordinates": [-95.18175, 29.64997]}},
{"type": "Feature", "id": "60PdAeDO70clp3UMBOeYKzXgV8Y=", "properties": {"ref": "122", "@spider": "99centsonly", "addr:full": "1260 E. Yorba Linda", "addr:city": "Placentia", "addr:state": "CA", "addr:postcode": "92870", "addr:country": "US", "name": "Placentia at Yorba Linda", "website": "https://99only.com/stores/placentia-yorba-linda-122", "opening_hours": "Mo-Su 07:00-22:00"}, "geometry": {"type": "Point", "coordinates": [-117.839885, 33.887678]}},
{"type": "Feature", "id": "iGmEw35USI2xN48tMLdRUSJx-b0=", "properties": {"ref": "2836", "@spider": "99centsonly", "addr:full": "11320 Chimney Rock Rd", "addr:city": "Houston", "addr:state": "TX", "addr:postcode": "77035", "addr:country": "US", "name": "Houston at Chimney Rock Rd", "website": "https://99only.com/stores/houston-chimney-rock-rd-2836", "opening_hours": "Mo-Su 07:00-22:00"}, "geometry": {"type": "Point", "coordinates": [-95.47795, 29.657652]}},
{"type": "Feature", "id": "XESbsmAS7Dzj3_mZbyZE1ohrP_s=", "properties": {"ref": "392", "@spider": "99centsonly", "addr:full": "8451 Crenshaw Blvd", "addr:city": "Inglewood", "addr:state": "CA", "addr:postcode": "90305", "addr:country": "US", "name": "Inglewood at Crenshaw Blvd", "website": "https://99only.com/stores/inglewood-crenshaw-blvd-392", "opening_hours": "Mo-Su 07:00-22:00"}, "geometry": {"type": "Point", "coordinates": [-118.327184, 33.961328]}},
{"type": "Feature", "id": "pRr6EIrKJkGEazAvyiFI3LCmp78=", "properties": {"ref": "110", "@spider": "99centsonly", "addr:full": "9640 Baseline Rd", "addr:city": "Rancho Cucamonga", "addr:state": "CA", "addr:postcode": "91701", "addr:country": "US", "name": "Rancho Cucamonga at Baseline Rd", "website": "https://99only.com/stores/rancho-cucamonga-baseline-rd-110", "opening_hours": "Mo-Su 07:00-22:00"}, "geometry": {"type": "Point", "coordinates": [-117.594954, 34.122346]}},
{"type": "Feature", "id": "Z2KX3a3eTcEgrKg9TAVzscbZb_s=", "properties": {"ref": "339", "@spider": "99centsonly", "addr:full": "424 State St", "addr:city": "Santa Barbara", "addr:state": "CA", "addr:postcode": "93101", "addr:country": "US", "name": "Santa Barbara at State St", "website": "https://99only.com/stores/santa-barbara-state-st-339", "opening_hours": "Mo-Su 07:00-23:00"}, "geometry": {"type": "Point", "coordinates": [-119.694879, 34.4165]}},
{"type": "Feature", "id": "TXirLb0eVyib2N4s9w8maCH0vY0=", "properties": {"ref": "32", "@spider": "99centsonly", "addr:full": "14029 Pioneer Blvd", "addr:city": "Norwalk", "addr:state": "CA", "addr:postcode": "90650", "addr:country": "US", "name": "Norwalk at Pioneer Blvd", "website": "https://99only.com/stores/norwalk-pioneer-blvd-32", "opening_hours": "Mo-Su 07:00-23:00"}, "geometry": {"type": "Point", "coordinates": [-118.083182, 33.903512]}},
{"type": "Feature", "id": "244JJYIoFHgSrf6lz9cFUZfGyEs=", "properties": {"ref": "5", "@spider": "99centsonly", "addr:full": "13061 Harbor Blvd", "addr:city": "Garden Grove", "addr:state": "CA", "addr:postcode": "92843", "addr:country": "US", "name": "Garden Grove at Harbor Blvd", "website": "https://99only.com/stores/garden-grove-harbor-blvd-5", "opening_hours": "Mo-Su 07:00-22:00"}, "geometry": {"type": "Point", "coordinates": [-117.92168, 33.7734]}},
{"type": "Feature", "id": "l-2bBO4sftGuYZ5hrgmfey5WB7w=", "properties": {"ref": "401", "@spider": "99centsonly", "addr:full": "1308 Madonna Rd.", "addr:city": "San Luis Obispo", "addr:state": "CA", "addr:postcode": "93405", "addr:country": "US", "name": "San Luis Obispo at Madonna Rd", "website": "https://99only.com/stores/san-luis-obispo-madonna-rd-401", "opening_hours": "Mo-Su 07:00-22:00"}, "geometry": {"type": "Point", "coordinates": [-120.689973, 35.258162]}},
{"type": "Feature", "id": "WNbQiAOH370iHojaJFCwNFE2V9M=", "properties": {"ref": "400", "@spider": "99centsonly", "addr:full": "6820 De Soto Ave", "addr:city": "Canoga Park", "addr:state": "CA", "addr:postcode": "91303", "addr:country": "US", "name": "Canoga Park at DeSoto Ave", "website": "https://99only.com/stores/canoga-park-desoto-ave-400", "opening_hours": "Mo-Su 07:00-23:00"}, "geometry": {"type": "Point", "coordinates": [-118.58738, 34.194425]}},
{"type": "Feature", "id": "j_MDP6r-bFfLBoR_7Tp_KYYYpHo=", "properties": {"ref": "87", "@spider": "99centsonly", "addr:full": "19836 Ventura Blvd", "addr:city": "Woodland Hills", "addr:state": "CA", "addr:postcode": "91364", "addr:country": "US", "name": "Woodland Hills at Ventura Blvd", "website": "https://99only.com/stores/woodland-hills-ventura-blvd-87", "opening_hours": "Mo-Su 07:00-22:00"}, "geometry": {"type": "Point", "coordinates": [-118.565064, 34.171689]}},
{"type": "Feature", "id": "WDkOob26OZFOiNESdjeE6GeQALk=", "properties": {"ref": "312", "@spider": "99centsonly", "addr:full": "4144 N. Oracle Rd", "addr:city": "Tucson", "addr:state": "AZ", "addr:postcode": "85705", "addr:country": "US", "name": "Tucson at  Oracle Rd", "website": "https://99only.com/stores/tucson-oracle-rd-312", "opening_hours": "Mo-Su 07:00-22:00"}, "geometry": {"type": "Point", "coordinates": [-110.977177, 32.282403]}},
{"type": "Feature", "id": "m6JeBXcYwQlsfyK8uU8gR93mpqE=", "properties": {"ref": "28", "@spider": "99centsonly", "addr:full": "9565 Las Tunas Dr", "addr:city": "Temple City", "addr:state": "CA", "addr:postcode": "91780", "addr:country": "US", "name": "Temple City at Las Tunas Dr", "website": "https://99only.com/stores/temple-city-las-tunas-dr-28", "opening_hours": "Mo-Su 07:00-22:00"}, "geometry": {"type": "Point", "coordinates": [-118.061521, 34.106766]}},
{"type": "Feature", "id": "Fre-ZDk1BlMEA_3mUs6WMW-cYFw=", "properties": {"ref": "177", "@spider": "99centsonly", "addr:full": "1120 E. Hammer Ln", "addr:city": "Stockton", "addr:state": "CA", "addr:postcode": "95210", "addr:country": "US", "name": "Stockton at Hammer Ln", "website": "https://99only.com/stores/stockton-hammer-ln-177", "opening_hours": "Mo-Su 07:00-23:00"}, "geometry": {"type": "Point", "coordinates": [-121.298085, 38.019635]}},
{"type": "Feature", "id": "6J1eUDoG3LWieo-Rvce06IhtzaQ=", "properties": {"ref": "150", "@spider": "99centsonly", "addr:full": "7908 El Cajon Blvd", "addr:city": "La Mesa", "addr:state": "CA", "addr:postcode": "91941", "addr:country": "US", "name": "La Mesa at El Cajon Blvd", "website": "https://99only.com/stores/la-mesa-el-cajon-blvd-150", "opening_hours": "Mo-Su 07:00-23:00"}, "geometry": {"type": "Point", "coordinates": [-117.026699, 32.770126]}},
{"type": "Feature", "id": "TISXbEBp3UxEj_6GtvRyZIpGh5U=", "properties": {"ref": "430", "@spider": "99centsonly", "addr:full": "3699 Highway 95", "addr:city": "Bullhead City", "addr:state": "AZ", "addr:postcode": "86442", "addr:country": "US", "name": "Bullhead City at Highway 95", "website": "https://99only.com/stores/bullhead-city-highway-95-430", "opening_hours": "Mo-Su 07:00-23:00"}, "geometry": {"type": "Point", "coordinates": [-114.59144, 35.05416]}},
{"type": "Feature", "id": "zkuCTCKydi5qChA8yfTDmy5nhto=", "properties": {"ref": "161", "@spider": "99centsonly", "addr:full": "12801 W. Bell Rd", "addr:city": "Surprise", "addr:state": "AZ", "addr:postcode": "85374", "addr:country": "US", "name": "Surprise at Bell Rd", "website": "https://99only.com/stores/surprise-bell-rd-161", "opening_hours": "Mo-Su 07:00-22:00"}, "geometry": {"type": "Point", "coordinates": [-112.335767, 33.637082]}},
{"type": "Feature", "id": "IozWoUmrq3UfMgpMYaFBZlxErO4=", "properties": {"ref": "2816", "@spider": "99centsonly", "addr:full": "8700 S. Gessner, #100", "addr:city": "Houston", "addr:state": "TX", "addr:postcode": "77074", "addr:country": "US", "name": "Houston at Gessner", "website": "https://99only.com/stores/houston-gessner-2816", "opening_hours": "Mo-Su 07:00-22:00"}, "geometry": {"type": "Point", "coordinates": [-95.52942, 29.685858]}},
{"type": "Feature", "id": "ffVXfPyVd7njey8aT4-KIW98OnU=", "properties": {"ref": "242", "@spider": "99centsonly", "addr:full": "1701 S. 4th Ave.", "addr:city": "Yuma", "addr:state": "AZ", "addr:postcode": "85364", "addr:country": "US", "name": "Yuma at South 4th Ave", "website": "https://99only.com/stores/yuma-south-4th-ave-242", "opening_hours": "Mo-Su 07:00-22:00"}, "geometry": {"type": "Point", "coordinates": [-114.624021, 32.696457]}},
{"type": "Feature", "id": "ThcbyABvb5VNOmQKJi7qizecRNc=", "properties": {"ref": "419", "@spider": "99centsonly", "addr:full": "2009 N Stapley Dr", "addr:city": "Mesa", "addr:state": "AZ", "addr:postcode": "85203", "addr:country": "US", "name": "Mesa at Stapley Dr", "website": "https://99only.com/stores/mesa-stapley-dr-419", "opening_hours": "Mo-Su 07:00-22:00"}, "geometry": {"type": "Point", "coordinates": [-111.804133, 33.451959]}},
{"type": "Feature", "id": "m9zbtJlfZcdxKNnIDPQb-g8i-xw=", "properties": {"ref": "2823", "@spider": "99centsonly", "addr:full": "6732 Camp Bowie Blvd.", "addr:city": "Fort Worth", "addr:state": "TX", "addr:postcode": "76116", "addr:country": "US", "name": "Fort Worth at Camp Bowie Blvd", "website": "https://99only.com/stores/fort-worth-camp-bowie-blvd-2823", "opening_hours": "Mo-Su 07:00-22:00"}, "geometry": {"type": "Point", "coordinates": [-97.433745, 32.722119]}},
{"type": "Feature", "id": "659CI7wkfFGhZWofIYqZEjmD4Bc=", "properties": {"ref": "405", "@spider": "99centsonly", "addr:full": "23920 Ironwood Ave", "addr:city": "Moreno Valley", "addr:state": "CA", "addr:postcode": "92557", "addr:country": "US", "name": "Moreno Valley at Ironwood Ave", "website": "https://99only.com/stores/moreno-valley-ironwood-ave-405", "opening_hours": "Mo-Su 07:00-22:00"}, "geometry": {"type": "Point", "coordinates": [-117.245301, 33.947391]}},
{"type": "Feature", "id": "jfQMyJccmzpsPZd1rLShQq_Eu8s=", "properties": {"ref": "163", "@spider": "99centsonly", "addr:full": "4433 E. Main St", "addr:city": "Mesa", "addr:state": "AZ", "addr:postcode": "85205", "addr:country": "US", "name": "Mesa at Main St", "website": "https://99only.com/stores/mesa-main-st-163", "opening_hours": "Mo-Su 07:00-22:00"}, "geometry": {"type": "Point", "coordinates": [-111.735158, 33.414343]}},
{"type": "Feature", "id": "Xa2-KEq9fns67Cc7-JQj_WxCuMg=", "properties": {"ref": "324", "@spider": "99centsonly", "addr:full": "2070 S. Power Rd", "addr:city": "Mesa", "addr:state": "AZ", "addr:postcode": "85208", "addr:country": "US", "name": "Mesa at  Power Rd", "website": "https://99only.com/stores/mesa-power-rd-324", "opening_hours": "Mo-Su 07:00-22:00"}, "geometry": {"type": "Point", "coordinates": [-111.690213, 33.378047]}},
{"type": "Feature", "id": "K1QI46vSWRtD2LOsf61tak4Np08=", "properties": {"ref": "48", "@spider": "99centsonly", "addr:full": "955 W. Sepulveda Blvd", "addr:city": "Torrance", "addr:state": "CA", "addr:postcode": "90502", "addr:country": "US", "name": "Torrance at Sepulveda Blvd", "website": "https://99only.com/stores/torrance-sepulveda-blvd-48", "opening_hours": "Mo-Su 07:00-22:00"}, "geometry": {"type": "Point", "coordinates": [-118.29115, 33.81138]}},
{"type": "Feature", "id": "foalR2GM5_73bu9LexpBS-RP-p8=", "properties": {"ref": "67", "@spider": "99centsonly", "addr:full": "11916 Paramount Blvd", "addr:city": "Downey", "addr:state": "CA", "addr:postcode": "90241", "addr:country": "US", "name": "Downey at Paramount Blvd", "website": "https://99only.com/stores/downey-paramount-blvd-67", "opening_hours": "Mo-Su 07:00-23:00"}, "geometry": {"type": "Point", "coordinates": [-118.143647, 33.934277]}},
{"type": "Feature", "id": "WWS4w-8sOBe9HB0YzYgz7dmcCjw=", "properties": {"ref": "40", "@spider": "99centsonly", "addr:full": "4304 Lankershim Blvd", "addr:city": "North Hollywood", "addr:state": "CA", "addr:postcode": "91602", "addr:country": "US", "name": "North Hollywood at Lankershim Blvd", "website": "https://99only.com/stores/north-hollywood-lankershim-blvd-40", "opening_hours": "Mo-Su 07:00-22:00"}, "geometry": {"type": "Point", "coordinates": [-118.364432, 34.148417]}},
{"type": "Feature", "id": "dj4WNUzzyAapva0c-ldscXcbfkE=", "properties": {"ref": "361", "@spider": "99centsonly", "addr:full": "11040 W Pico Blvd", "addr:city": "Los Angeles", "addr:state": "CA", "addr:postcode": "90064", "addr:country": "US", "name": "Los Angeles at West Pico Blvd", "website": "https://99only.com/stores/los-angeles-west-pico-blvd-361", "opening_hours": "Mo-Su 07:00-23:00"}, "geometry": {"type": "Point", "coordinates": [-118.43357, 34.03753]}},
{"type": "Feature", "id": "aEANwQG4mBb7jf8NsmHjVBGfaO0=", "properties": {"ref": "205", "@spider": "99centsonly", "addr:full": "1675 W. Valencia Blvd.", "addr:city": "Tucson", "addr:state": "AZ", "addr:postcode": "85746", "addr:country": "US", "name": "Tucson at Valencia Blvd", "website": "https://99only.com/stores/tucson-valencia-blvd-205", "opening_hours": "Mo-Su 07:00-23:00"}, "geometry": {"type": "Point", "coordinates": [-111.000448, 32.132462]}},
{"type": "Feature", "id": "To5O5gu5lGnMsmNhulAjccbAaOI=", "properties": {"ref": "151", "@spider": "99centsonly", "addr:full": "1111 W Olive Ave", "addr:city": "Merced", "addr:state": "CA", "addr:postcode": "95348", "addr:country": "US", "name": "Merced at Olive Ave", "website": "https://99only.com/stores/merced-olive-ave-151", "opening_hours": "Mo-Su 07:00-23:00"}, "geometry": {"type": "Point", "coordinates": [-120.487884, 37.320208]}},
{"type": "Feature", "id": "0oAatG5gCclP7E-W6-4cQAPzIPw=", "properties": {"ref": "134", "@spider": "99centsonly", "addr:full": "9915 Magnolia Ave", "addr:city": "Riverside", "addr:state": "CA", "addr:postcode": "92503", "addr:country": "US", "name": "Riverside at Magnolia Ave", "website": "https://99only.com/stores/riverside-magnolia-ave-134", "opening_hours": "Mo-Su 07:00-22:00"}, "geometry": {"type": "Point", "coordinates": [-117.455062, 33.916852]}},
{"type": "Feature", "id": "TJTgmb2Zxwdox54JbanCveV-IAE=", "properties": {"ref": "322", "@spider": "99centsonly", "addr:full": "4240 W. Bell Rd.", "addr:city": "Glendale", "addr:state": "AZ", "addr:postcode": "85308", "addr:country": "US", "name": "Glendale at Bell Rd", "website": "https://99only.com/stores/glendale-bell-rd-322", "opening_hours": "Mo-Su 07:00-22:00"}, "geometry": {"type": "Point", "coordinates": [-112.15039, 33.64057]}},
{"type": "Feature", "id": "puKFPFKcwT-Lawml-3KnJBCYmG0=", "properties": {"ref": "2878", "@spider": "99centsonly", "addr:full": "2246 W. Nolana Ave", "addr:city": "McAllen", "addr:state": "TX", "addr:postcode": "78504", "addr:country": "US", "name": "McAllen at Nolana Ave", "website": "https://99only.com/stores/mcallen-nolana-ave-2878", "opening_hours": "Mo-Su 07:00-23:00"}, "geometry": {"type": "Point", "coordinates": [-98.238705, 26.241778]}},
{"type": "Feature", "id": "7Al8fzBn4Ftg1aLZU70G4Udj3do=", "properties": {"ref": "109", "@spider": "99centsonly", "addr:full": "442 W. Ave. \"P\"", "addr:city": "Palmdale", "addr:state": "CA", "addr:postcode": "93551", "addr:country": "US", "name": "Palmdale at Avenue P", "website": "https://99only.com/stores/palmdale-avenue-p-109", "opening_hours": "Mo-Su 07:00-22:00"}, "geometry": {"type": "Point", "coordinates": [-118.13704, 34.59866]}},
{"type": "Feature", "id": "5EGQRJvzFAwXG_LDs7LimtQiV1A=", "properties": {"ref": "142", "@spider": "99centsonly", "addr:full": "4140 Clairemont Mesa Blvd", "addr:city": "San Diego", "addr:state": "CA", "addr:postcode": "92117", "addr:country": "US", "name": "San Diego at Clairemont Mesa Blvd", "website": "https://99only.com/stores/san-diego-clairemont-mesa-blvd-142", "opening_hours": "Mo-Su 07:00-23:00"}, "geometry": {"type": "Point", "coordinates": [-117.202605, 32.830483]}},
{"type": "Feature", "id": "UNIfM144dlHjsJ3fW2sIwtMNKxQ=", "properties": {"ref": "258", "@spider": "99centsonly", "addr:full": "1121 Olive Dr", "addr:city": "Bakersfield", "addr:state": "CA", "addr:postcode": "93308", "addr:country": "US", "name": "Bakersfield at Olive Dr", "website": "https://99only.com/stores/bakersfield-olive-dr-258", "opening_hours": "Mo 08:00-21:00; Tu 07:00-21:00; We 08:00-21:00; Th 07:00-21:00; Fr-Su 08:00-21:00"}, "geometry": {"type": "Point", "coordinates": [-119.04475, 35.411457]}},
{"type": "Feature", "id": "yqOa6w5chB7dAZ7Y2VoUmEaDIhk=", "properties": {"ref": "247", "@spider": "99centsonly", "addr:full": "1701 A Willow Pass Rd.", "addr:city": "Concord", "addr:state": "CA", "addr:postcode": "94520", "addr:country": "US", "name": "Concord at A Willow Pass Rd", "website": "https://99only.com/stores/concord-willow-pass-rd-247", "opening_hours": "Mo-Su 07:00-23:00"}, "geometry": {"type": "Point", "coordinates": [-122.04128, 37.973955]}},
{"type": "Feature", "id": "_VvbyiiDp6ZxNBCEnqobQ7y6gaA=", "properties": {"ref": "317", "@spider": "99centsonly", "addr:full": "12530 Day St", "addr:city": "Moreno Valley", "addr:state": "CA", "addr:postcode": "92553", "addr:country": "US", "name": "Moreno Valley at Day St", "website": "https://99only.com/stores/moreno-valley-day-st-317", "opening_hours": "Mo-Su 07:00-23:00"}, "geometry": {"type": "Point", "coordinates": [-117.278083, 33.938436]}},
{"type": "Feature", "id": "YG7mjqvf8K1eD-CwtJeQNJ7XACo=", "properties": {"ref": "3", "@spider": "99centsonly", "addr:full": "1521 Beverly Blvd", "addr:city": "Montebello", "addr:state": "CA", "addr:postcode": "90640", "addr:country": "US", "name": "Montebello at Beverly Blvd", "website": "https://99only.com/stores/montebello-beverly-blvd-3", "opening_hours": "Mo-Su 07:00-22:00"}, "geometry": {"type": "Point", "coordinates": [-118.115533, 34.019042]}},
{"type": "Feature", "id": "9zkFnChR5dj-9qhRRw9Pmcnr88c=", "properties": {"ref": "90", "@spider": "99centsonly", "addr:full": "307 N. Citrus Ave", "addr:city": "Azusa", "addr:state": "CA", "addr:postcode": "91702", "addr:country": "US", "name": "Azusa at N. Citrus Ave", "website": "https://99only.com/stores/azusa-n-citrus-ave-90", "opening_hours": "Mo-Su 07:00-22:00"}, "geometry": {"type": "Point", "coordinates": [-117.891229, 34.126942]}},
{"type": "Feature", "id": "75TLh4Q6EuP-XH0IMgCAPHESyd8=", "properties": {"ref": "333", "@spider": "99centsonly", "addr:full": "3105 - 3155 N Rancho Dr", "addr:city": "Las Vegas", "addr:state": "NV", "addr:postcode": "89130", "addr:country": "US", "name": "Las Vegas at Rancho Dr", "website": "https://99only.com/stores/las-vegas-rancho-dr-333", "opening_hours": "Mo-Su 07:00-22:00"}, "geometry": {"type": "Point", "coordinates": [-115.213211, 36.216228]}},
{"type": "Feature", "id": "_g3kQi9f8fXZeNQUkORUZKMc_1g=", "properties": {"ref": "61", "@spider": "99centsonly", "addr:full": "12711 Sherman Way", "addr:city": "North Hollywood", "addr:state": "CA", "addr:postcode": "91605", "addr:country": "US", "name": "North Hollywood at Sherman Way", "website": "https://99only.com/stores/north-hollywood-sherman-way-61", "opening_hours": "Mo-Su 07:00-22:00"}, "geometry": {"type": "Point", "coordinates": [-118.409818, 34.202164]}},
{"type": "Feature", "id": "UAwh_jTxoFNlY8m5OxNXjs94Uhs=", "properties": {"ref": "340", "@spider": "99centsonly", "addr:full": "543 N. Azusa Ave", "addr:city": "Covina", "addr:state": "CA", "addr:postcode": "91722", "addr:country": "US", "name": "Covina at Azusa Ave", "website": "https://99only.com/stores/covina-azusa-ave-340", "opening_hours": "Mo-Su 07:00-22:00"}, "geometry": {"type": "Point", "coordinates": [-117.908746, 34.089959]}},
{"type": "Feature", "id": "J_ZCfL4BF3zQnXFuhdUwPrQZ1Lg=", "properties": {"ref": "185", "@spider": "99centsonly", "addr:full": "1320 W. 11th Street", "addr:city": "Tracy", "addr:state": "CA", "addr:postcode": "95376", "addr:country": "US", "name": "Tracy at West 11th St", "website": "https://99only.com/stores/tracy-west-11th-st-185", "opening_hours": "Mo-Su 07:00-23:00"}, "geometry": {"type": "Point", "coordinates": [-121.44198, 37.739196]}},
{"type": "Feature", "id": "-8icS-9syo4CfCnH1EY-NrKKtDc=", "properties": {"ref": "94", "@spider": "99centsonly", "addr:full": "1325 E. Flamingo Rd", "addr:city": "Las Vegas", "addr:state": "NV", "addr:postcode": "89119", "addr:country": "US", "name": "Las Vegas at Flamingo Rd", "website": "https://99only.com/stores/las-vegas-flamingo-rd-94", "opening_hours": "Mo-Su 07:00-22:00"}, "geometry": {"type": "Point", "coordinates": [-115.136288, 36.114017]}},
{"type": "Feature", "id": "Pq0wwc6mZoZB4q-AUSRCv4eXKSc=", "properties": {"ref": "266", "@spider": "99centsonly", "addr:full": "1820 W. 182nd St.", "addr:city": "Torrance", "addr:state": "CA", "addr:postcode": "90504", "addr:country": "US", "name": "Torrance at West 182nd St", "website": "https://99only.com/stores/torrance-west-182nd-st-266", "opening_hours": "Mo-Su 07:00-22:00"}, "geometry": {"type": "Point", "coordinates": [-118.30998, 33.86469]}},
{"type": "Feature", "id": "LpOJmARZhPpydzFt7Ch8IAPEOfY=", "properties": {"ref": "272", "@spider": "99centsonly", "addr:full": "11005 Firestone Blvd, Suite 114", "addr:city": "Norwalk", "addr:state": "CA", "addr:postcode": "90650", "addr:country": "US", "name": "Norwalk at Firestone Blvd", "website": "https://99only.com/stores/norwalk-firestone-blvd-272", "opening_hours": "Mo-Su 07:00-22:00"}, "geometry": {"type": "Point", "coordinates": [-118.097841, 33.922259]}},
{"type": "Feature", "id": "eb1vEEdl3a8mBZppD21CHl3v3Po=", "properties": {"ref": "367", "@spider": "99centsonly", "addr:full": "44515 W. Edison Rd", "addr:city": "Maricopa", "addr:state": "AZ", "addr:postcode": "85138", "addr:country": "US", "name": "Maricopa at Edison Rd", "website": "https://99only.com/stores/maricopa-edison-rd-367", "opening_hours": "Mo-Su 07:00-22:00"}, "geometry": {"type": "Point", "coordinates": [-112.046535, 33.064379]}},
{"type": "Feature", "id": "HweQ71e7qufIbNLtF-1_W98sqZ8=", "properties": {"ref": "388", "@spider": "99centsonly", "addr:full": "8950 E. Talking Stick Way", "addr:city": "Scottsdale", "addr:state": "AZ", "addr:postcode": "85250", "addr:country": "US", "name": "Scottsdale at Talking Stick Way", "website": "https://99only.com/stores/scottsdale-talking-stick-way-388", "opening_hours": "Mo-Su 07:00-23:00"}, "geometry": {"type": "Point", "coordinates": [-111.889195, 33.540318]}},
{"type": "Feature", "id": "49Tbs_iilmSN1kFta9Nuy6aHtTM=", "properties": {"ref": "72", "@spider": "99centsonly", "addr:full": "14151 Ramona Blvd", "addr:city": "Baldwin Park", "addr:state": "CA", "addr:postcode": "91706", "addr:country": "US", "name": "Baldwin Park at Ramona Blvd", "website": "https://99only.com/stores/baldwin-park-ramona-blvd-72", "opening_hours": "Mo-Su 07:00-22:00"}, "geometry": {"type": "Point", "coordinates": [-117.965387, 34.086774]}},
{"type": "Feature", "id": "XyXzzYf0kx89MxSqeKLlvVhpYAE=", "properties": {"ref": "46", "@spider": "99centsonly", "addr:full": "12125 Carson Blvd", "addr:city": "Hawaiian Gardens", "addr:state": "CA", "addr:postcode": "90716", "addr:country": "US", "name": "Hawaiian Gardens at Carson Blvd", "website": "https://99only.com/stores/hawaiian-gardens-carson-blvd-46", "opening_hours": "Mo-Su 07:00-22:00"}, "geometry": {"type": "Point", "coordinates": [-118.073486, 33.832045]}},
{"type": "Feature", "id": "yybx3xKDTlYzjlxLShUFQXL3O6g=", "properties": {"ref": "208", "@spider": "99centsonly", "addr:full": "102 E. Laurel Dr", "addr:city": "Salinas", "addr:state": "CA", "addr:postcode": "93906", "addr:country": "US", "name": "Salinas at Laurel Dr", "website": "https://99only.com/stores/salinas-laurel-dr-208", "opening_hours": "Mo-Su 07:00-23:00"}, "geometry": {"type": "Point", "coordinates": [-121.650747, 36.698386]}},
{"type": "Feature", "id": "TlbmC968gTmu5edseVfftTNOODg=", "properties": {"ref": "2814", "@spider": "99centsonly", "addr:full": "11873 Bissonet St", "addr:city": "Houston", "addr:state": "TX", "addr:postcode": "77099", "addr:country": "US", "name": "Houston at Bissonet St", "website": "https://99only.com/stores/houston-bissonet-st-2814", "opening_hours": "Mo-Su 07:00-22:00"}, "geometry": {"type": "Point", "coordinates": [-95.586032, 29.674324]}},
{"type": "Feature", "id": "8-OE_MWEuI2jbim3Y2QFTVCXHgY=", "properties": {"ref": "393", "@spider": "99centsonly", "addr:full": "8200 Centennial Plaza Way", "addr:city": "Bakersfield", "addr:state": "CA", "addr:postcode": "93312", "addr:country": "US", "name": "Bakersfield at Centennial Plaza Way", "website": "https://99only.com/stores/bakersfield-centennial-plaza-way-393", "opening_hours": "Mo-Su 07:00-22:00"}, "geometry": {"type": "Point", "coordinates": [-119.093861, 35.402136]}},
{"type": "Feature", "id": "HlL7Kd_aAIhwG-JL3Mjo_mY0WD4=", "properties": {"ref": "31", "@spider": "99centsonly", "addr:full": "9535 Whittier Blvd", "addr:city": "Pico Rivera", "addr:state": "CA", "addr:postcode": "90660", "addr:country": "US", "name": "Pico Rivera at Whittier Blvd", "website": "https://99only.com/stores/pico-rivera-whittier-blvd-31", "opening_hours": "Mo-Su 07:00-22:00"}, "geometry": {"type": "Point", "coordinates": [-118.07492, 33.99771]}},
{"type": "Feature", "id": "RX5W556vzXLMqLPwmQg8v_v4kLg=", "properties": {"ref": "2803", "@spider": "99centsonly", "addr:full": "21961 Katy Fwy", "addr:city": "Katy", "addr:state": "TX", "addr:postcode": "77450", "addr:country": "US", "name": "Katy at Katy Fwy", "website": "https://99only.com/stores/katy-katy-fwy-2803", "opening_hours": "Mo-Su 07:00-22:00"}, "geometry": {"type": "Point", "coordinates": [-95.752908, 29.781743]}},
{"type": "Feature", "id": "OeIoigoS-1-AUnvxRR_ToEr033w=", "properties": {"ref": "2849", "@spider": "99centsonly", "addr:full": "3025 W. Ave", "addr:city": "San Antonio", "addr:state": "TX", "addr:postcode": "78201", "addr:country": "US", "name": "San Antonio at W. Ave", "website": "https://99only.com/stores/san-antonio-w-ave-2849", "opening_hours": "Mo-Su 07:00-22:00"}, "geometry": {"type": "Point", "coordinates": [-98.526719, 29.488006]}},
{"type": "Feature", "id": "VA76-6LXbePOcqTCX7ZlGIbhSEw=", "properties": {"ref": "232", "@spider": "99centsonly", "addr:full": "42 Springstowne Center", "addr:city": "Vallejo", "addr:state": "CA", "addr:postcode": "94591", "addr:country": "US", "name": "Vallejo at Springstowne Center", "website": "https://99only.com/stores/vallejo-springstowne-center-232", "opening_hours": "Mo-Su 07:00-23:00"}, "geometry": {"type": "Point", "coordinates": [-122.215869, 38.104678]}},
{"type": "Feature", "id": "ePUjkk4tJ39osIh9caT5wQldEl4=", "properties": {"ref": "152", "@spider": "99centsonly", "addr:full": "14317 Clark Ave", "addr:city": "Bellflower", "addr:state": "CA", "addr:postcode": "90706", "addr:country": "US", "name": "Bellflower at Clark Ave", "website": "https://99only.com/stores/bellflower-clark-ave-152", "opening_hours": "Mo-Su 07:00-23:00"}, "geometry": {"type": "Point", "coordinates": [-118.135074, 33.903252]}},
{"type": "Feature", "id": "Gl9Ud_UaLSYNzMWk6QTO70BnI4c=", "properties": {"ref": "116", "@spider": "99centsonly", "addr:full": "1240 E. Indian School Rd", "addr:city": "Phoenix", "addr:state": "AZ", "addr:postcode": "85014", "addr:country": "US", "name": "Phoenix at Indian School Rd", "website": "https://99only.com/stores/phoenix-indian-school-rd-116", "opening_hours": "Mo-Su 07:00-22:00"}, "geometry": {"type": "Point", "coordinates": [-112.054851, 33.495032]}},
{"type": "Feature", "id": "HZhlL6xQE0MCHQ6Dqi2oqze4WeI=", "properties": {"ref": "330", "@spider": "99centsonly", "addr:full": "23300 Valencia Blvd", "addr:city": "Valencia", "addr:state": "CA", "addr:postcode": "91355", "addr:country": "US", "name": "Valencia at Valencia Blvd", "website": "https://99only.com/stores/valencia-valencia-blvd-330", "opening_hours": "Mo-Su 07:00-22:00"}, "geometry": {"type": "Point", "coordinates": [-118.54537, 34.421844]}},
{"type": "Feature", "id": "lrRPrYmEP8B_EO2m0aXvs6D3JBM=", "properties": {"ref": "285", "@spider": "99centsonly", "addr:full": "8900 Limonite Ave.", "addr:city": "Riverside", "addr:state": "CA", "addr:postcode": "92509", "addr:country": "US", "name": "Riverside at Limonite Ave", "website": "https://99only.com/stores/riverside-limonite-ave-285", "opening_hours": "Mo-Su 07:00-23:00"}, "geometry": {"type": "Point", "coordinates": [-117.477637, 33.974767]}},
{"type": "Feature", "id": "EOkd1mtYCzsE_-tn9kra9XvRdww=", "properties": {"ref": "137", "@spider": "99centsonly", "addr:full": "12480 Amargosa Rd", "addr:city": "Victorville", "addr:state": "CA", "addr:postcode": "92392", "addr:country": "US", "name": "Victorville at Amargosa Rd", "website": "https://99only.com/stores/victorville-amargosa-rd-137", "opening_hours": "Mo-Su 07:00-22:00"}, "geometry": {"type": "Point", "coordinates": [-117.342596, 34.477849]}},
{"type": "Feature", "id": "ig4fhvewd973Wv8PgKdqO1Em4j0=", "properties": {"ref": "2879", "@spider": "99centsonly", "addr:full": "410 E.Camp Wisdom Rd", "addr:city": "Duncanville", "addr:state": "TX", "addr:postcode": "75116", "addr:country": "US", "name": "Duncanville at Camp Wisdom Rd", "website": "https://99only.com/stores/duncanville-camp-wisdom-rd-2879", "opening_hours": "Mo-Su 07:00-22:00"}, "geometry": {"type": "Point", "coordinates": [-96.902027, 32.661428]}},
{"type": "Feature", "id": "LkArnTcYBCAospgIRfx3dXq4JUo=", "properties": {"ref": "209", "@spider": "99centsonly", "addr:full": "8387 Folsom Blvd.", "addr:city": "Sacramento", "addr:state": "CA", "addr:postcode": "95826", "addr:country": "US", "name": "Sacramento at Folsom Blvd", "website": "https://99only.com/stores/sacramento-folsom-blvd-209", "opening_hours": "Mo-Su 07:00-23:00"}, "geometry": {"type": "Point", "coordinates": [-121.39535, 38.54849]}},
{"type": "Feature", "id": "s6sznLC3ofMnSFfd2klUn2N5Odc=", "properties": {"ref": "165", "@spider": "99centsonly", "addr:full": "1450 E. Hatch Rd", "addr:city": "Modesto", "addr:state": "CA", "addr:postcode": "95351", "addr:country": "US", "name": "Modesto at Hatch Rd", "website": "https://99only.com/stores/modesto-hatch-rd-165", "opening_hours": "Mo-Su 07:00-23:00"}, "geometry": {"type": "Point", "coordinates": [-120.970611, 37.608239]}},
{"type": "Feature", "id": "4_EW4dJMMCNhv0nLfVapNsag9Z4=", "properties": {"ref": "2855", "@spider": "99centsonly", "addr:full": "1864 S. WW White Rd", "addr:city": "San Antonio", "addr:state": "TX", "addr:postcode": "78220", "addr:country": "US", "name": "San Antonio at WW White Rd", "website": "https://99only.com/stores/san-antonio-ww-white-rd-2855", "opening_hours": "Mo-Su 07:00-22:00"}, "geometry": {"type": "Point", "coordinates": [-98.404356, 29.399787]}},
{"type": "Feature", "id": "08W0OH4-pNCJgxDtXWFdb418poY=", "properties": {"ref": "63", "@spider": "99centsonly", "addr:full": "5270 Sunset Blvd", "addr:city": "Los Angeles", "addr:state": "CA", "addr:postcode": "90027", "addr:country": "US", "name": "Los Angeles at Sunset Blvd", "website": "https://99only.com/stores/los-angeles-sunset-blvd-63", "opening_hours": "Mo-Su 07:00-23:00"}, "geometry": {"type": "Point", "coordinates": [-118.304952, 34.097762]}},
{"type": "Feature", "id": "xRKNVdU89Dqteeoe5imD_IJaMTo=", "properties": {"ref": "2835", "@spider": "99centsonly", "addr:full": "14310 Westheimer Rd.", "addr:city": "Houston", "addr:state": "TX", "addr:postcode": "77077", "addr:country": "US", "name": "Houston at Westheimer Rd", "website": "https://99only.com/stores/houston-westheimer-rd-2835", "opening_hours": "Mo-Su 07:00-23:00"}, "geometry": {"type": "Point", "coordinates": [-95.641071, 29.736311]}},
{"type": "Feature", "id": "pz7osfHj5KIoxwDiERkVrHP1744=", "properties": {"ref": "54", "@spider": "99centsonly", "addr:full": "6401 San Fernando Rd", "addr:city": "Glendale", "addr:state": "CA", "addr:postcode": "91201", "addr:country": "US", "name": "Glendale at San Fernando Rd", "website": "https://99only.com/stores/glendale-san-fernando-rd-54", "opening_hours": "Mo-Su 07:00-22:00"}, "geometry": {"type": "Point", "coordinates": [-118.288672, 34.166058]}},
{"type": "Feature", "id": "Xn3irEOtOzab-WCdrHA63iYnESc=", "properties": {"ref": "369", "@spider": "99centsonly", "addr:full": "10760 Camino Ruiz", "addr:city": "San Diego", "addr:state": "CA", "addr:postcode": "92126", "addr:country": "US", "name": "San Diego at Camino Ruiz Blvd", "website": "https://99only.com/stores/san-diego-camino-ruiz-blvd-369", "opening_hours": "Mo-Su 07:00-23:00"}, "geometry": {"type": "Point", "coordinates": [-117.142669, 32.914684]}},
{"type": "Feature", "id": "DCl_FjUXJa8H9XEp_bJ5SlRAqBk=", "properties": {"ref": "227", "@spider": "99centsonly", "addr:full": "8723 Sepulveda Blvd.", "addr:city": "North Hills", "addr:state": "CA", "addr:postcode": "91343", "addr:country": "US", "name": "Los Angeles at Sepulveda Blvd", "website": "https://99only.com/stores/los-angeles-sepulveda-blvd-227", "opening_hours": "Mo-Su 07:00-22:00"}, "geometry": {"type": "Point", "coordinates": [-118.468717, 34.229035]}},
{"type": "Feature", "id": "M4pnxh2d-wVTo_HxxwYAjbvCM4Q=", "properties": {"ref": "37", "@spider": "99centsonly", "addr:full": "14540 E. Leffingwell Rd", "addr:city": "La Mirada", "addr:state": "CA", "addr:postcode": "90638", "addr:country": "US", "name": "La Mirada at Leffingwell Rd", "website": "https://99only.com/stores/la-mirada-leffingwell-rd-37", "opening_hours": "Mo-Su 07:00-22:00"}, "geometry": {"type": "Point", "coordinates": [-118.021567, 33.924101]}},
{"type": "Feature", "id": "fUNdmCscci6P9zCtQd_LzoELKIQ=", "properties": {"ref": "354", "@spider": "99centsonly", "addr:full": "14731 Goldenwest St.", "addr:city": "Westminster", "addr:state": "CA", "addr:postcode": "92683", "addr:country": "US", "name": "Westminster at Goldenwest St", "website": "https://99only.com/stores/westminster-goldenwest-st-354", "opening_hours": "Mo-Su 07:00-22:00"}, "geometry": {"type": "Point", "coordinates": [-118.007541, 33.747783]}},
{"type": "Feature", "id": "2FP9M9wCvZKb0NS4gDyGTINvZxY=", "properties": {"ref": "431", "@spider": "99centsonly", "addr:full": "11160 Magnolia Ave", "addr:city": "Riverside", "addr:state": "CA", "addr:postcode": "92505", "addr:country": "US", "name": "Riverside at Magnolia Ave & La Sierra", "website": "https://99only.com/stores/riverside-magnolia-ave-la-sierra-431", "opening_hours": "Mo-Su 07:00-22:00"}, "geometry": {"type": "Point", "coordinates": [-117.476964, 33.902096]}},
{"type": "Feature", "id": "E5d8tcCRwnmf_3k100rtw5Rt-go=", "properties": {"ref": "345", "@spider": "99centsonly", "addr:full": "1481 N. La Cadena Dr", "addr:city": "Colton", "addr:state": "CA", "addr:postcode": "92324", "addr:country": "US", "name": "Colton at La Cadena Dr", "website": "https://99only.com/stores/colton-la-cadena-dr-345", "opening_hours": "Mo-Su 07:00-22:00"}, "geometry": {"type": "Point", "coordinates": [-117.315117, 34.084585]}},
{"type": "Feature", "id": "DBYEIG0ekqON5GIczpGQiUtZ-gc=", "properties": {"ref": "167", "@spider": "99centsonly", "addr:full": "1996 N. Alma School Rd", "addr:city": "Chandler", "addr:state": "AZ", "addr:postcode": "85224", "addr:country": "US", "name": "Chandler at Alma School Rd", "website": "https://99only.com/stores/chandler-alma-school-rd-167", "opening_hours": "Mo-Su 07:00-23:00"}, "geometry": {"type": "Point", "coordinates": [-111.860756, 33.334713]}},
{"type": "Feature", "id": "CHmZFfVVmyKBs_m5sSSpfb-Dafg=", "properties": {"ref": "125", "@spider": "99centsonly", "addr:full": "6235 York Blvd", "addr:city": "Los Angeles", "addr:state": "CA", "addr:postcode": "90042", "addr:country": "US", "name": "Los Angeles at York Blvd", "website": "https://99only.com/stores/los-angeles-york-blvd-125", "opening_hours": "Mo-Su 07:00-22:00"}, "geometry": {"type": "Point", "coordinates": [-118.183124, 34.11539]}},
{"type": "Feature", "id": "1lWPOtDItRn72NkCT31Qu505Ojk=", "properties": {"ref": "59", "@spider": "99centsonly", "addr:full": "3451 Whittier Blvd", "addr:city": "Los Angeles", "addr:state": "CA", "addr:postcode": "90023", "addr:country": "US", "name": "Los Angeles at Whittier Blvd", "website": "https://99only.com/stores/los-angeles-whittier-blvd-59", "opening_hours": "Mo-Su 07:00-23:00"}, "geometry": {"type": "Point", "coordinates": [-118.199292, 34.027186]}},
{"type": "Feature", "id": "eVq6zgHKatQwOWIlrePJ1opxP2M=", "properties": {"ref": "378", "@spider": "99centsonly", "addr:full": "619 E. University Dr", "addr:city": "Carson", "addr:state": "CA", "addr:postcode": "90746", "addr:country": "US", "name": "Carson at University Dr", "website": "https://99only.com/stores/carson-university-dr-378", "opening_hours": "Mo-Su 07:00-22:00"}, "geometry": {"type": "Point", "coordinates": [-118.265238, 33.859039]}},
{"type": "Feature", "id": "-Yo2gQ_Hp_oPdhLqOgT2WJMDDpI=", "properties": {"ref": "83", "@spider": "99centsonly", "addr:full": "3600 W. Sunset blvd", "addr:city": "Los Angeles", "addr:state": "CA", "addr:postcode": "90026", "addr:country": "US", "name": "Los Angeles at W. Sunset Blvd", "website": "https://99only.com/stores/los-angeles-w-sunset-blvd-83", "opening_hours": "Mo-Su 07:00-22:00"}, "geometry": {"type": "Point", "coordinates": [-118.277356, 34.089989]}},
{"type": "Feature", "id": "fckOjYjeTZvSyqOwCXeV5tRg1P4=", "properties": {"ref": "96", "@spider": "99centsonly", "addr:full": "4050 Chino Hills Pkwy", "addr:city": "Chino", "addr:state": "CA", "addr:postcode": "91710", "addr:country": "US", "name": "Chino at Chino Hills Pkwy", "website": "https://99only.com/stores/chino-chino-hills-pkwy-96", "opening_hours": "Mo-Su 07:00-22:00"}, "geometry": {"type": "Point", "coordinates": [-117.716206, 33.983601]}},
{"type": "Feature", "id": "ri38aBeAyueEKchck0drTa5hw-o=", "properties": {"ref": "271", "@spider": "99centsonly", "addr:full": "3110 N. West Ave", "addr:city": "Fresno", "addr:state": "CA", "addr:postcode": "93705", "addr:country": "US", "name": "Fresno at West Ave", "website": "https://99only.com/stores/fresno-west-ave-271", "opening_hours": "Mo-Su 07:00-22:00"}, "geometry": {"type": "Point", "coordinates": [-119.825629, 36.778721]}},
{"type": "Feature", "id": "E1hi0PBsQgkV4IQLgqmfO45wMmY=", "properties": {"ref": "223", "@spider": "99centsonly", "addr:full": "7830 N. 12th St", "addr:city": "Phoenix", "addr:state": "AZ", "addr:postcode": "85020", "addr:country": "US", "name": "Phoenix at North 12th St", "website": "https://99only.com/stores/phoenix-north-12th-st-223", "opening_hours": "Mo-Su 07:00-22:00"}, "geometry": {"type": "Point", "coordinates": [-112.058009, 33.552008]}},
{"type": "Feature", "id": "59_AWFH2Mrf_hvm80jmNpidtt9M=", "properties": {"ref": "69", "@spider": "99centsonly", "addr:full": "140 E. Duarte Rd", "addr:city": "Arcadia", "addr:state": "CA", "addr:postcode": "91006", "addr:country": "US", "name": "Arcadia at  Duarte Rd", "website": "https://99only.com/stores/arcadia-duarte-rd-69", "opening_hours": "Mo-Su 07:00-22:00"}, "geometry": {"type": "Point", "coordinates": [-118.026364, 34.129894]}},
{"type": "Feature", "id": "Zr_Y82w3ec_kPWy0L5zgBAPPiQg=", "properties": {"ref": "2818", "@spider": "99centsonly", "addr:full": "3901 Colleyville Blvd.", "addr:city": "Colleyville", "addr:state": "TX", "addr:postcode": "76034", "addr:country": "US", "name": "Colleyville at Colleyville Blvd", "website": "https://99only.com/stores/colleyville-colleyville-blvd-2818", "opening_hours": "Mo-Su 07:00-22:00"}, "geometry": {"type": "Point", "coordinates": [-97.171273, 32.866814]}},
{"type": "Feature", "id": "4dmsfWFc_WSfDJ3xfcjBR8tSOns=", "properties": {"ref": "2810", "@spider": "99centsonly", "addr:full": "5809 E. Sam Houston Pkwy", "addr:city": "Houston", "addr:state": "TX", "addr:postcode": "77049", "addr:country": "US", "name": "Houston at Sam Houston Pkwy", "website": "https://99only.com/stores/houston-sam-houston-pkwy-2810", "opening_hours": "Mo-Su 07:00-23:00"}, "geometry": {"type": "Point", "coordinates": [-95.16641, 29.81008]}},
{"type": "Feature", "id": "sEXlR5nhzY7-aG-6QZByS5P0084=", "properties": {"ref": "365", "@spider": "99centsonly", "addr:full": "10848 Foothill Blvd.", "addr:city": "Rancho Cucamonga", "addr:state": "CA", "addr:postcode": "91730", "addr:country": "US", "name": "Rancho Cucamonga at Foothill Blvd", "website": "https://99only.com/stores/rancho-cucamonga-foothill-blvd-365", "opening_hours": "Mo-Su 07:00-22:00"}, "geometry": {"type": "Point", "coordinates": [-117.568156, 34.107604]}},
{"type": "Feature", "id": "ObiFp1A_wO88Aoa374MSfn6oKQ4=", "properties": {"ref": "162", "@spider": "99centsonly", "addr:full": "825 W. Henderson Ave", "addr:city": "Porterville", "addr:state": "CA", "addr:postcode": "93257", "addr:country": "US", "name": "Porterville at  Henderson Ave", "website": "https://99only.com/stores/porterville-henderson-ave-162", "opening_hours": "Mo-Su 07:00-22:00"}, "geometry": {"type": "Point", "coordinates": [-119.035888, 36.079626]}},
{"type": "Feature", "id": "HT9cA-k-QLe2JlF8jG1061M8oMY=", "properties": {"ref": "89", "@spider": "99centsonly", "addr:full": "9255 Sierra Ave", "addr:city": "Fontana", "addr:state": "CA", "addr:postcode": "92335", "addr:country": "US", "name": "Fontana at Sierra Ave", "website": "https://99only.com/stores/fontana-sierra-ave-89", "opening_hours": "Mo-Su 07:00-22:00"}, "geometry": {"type": "Point", "coordinates": [-117.435212, 34.086199]}},
{"type": "Feature", "id": "zQwi9rIwwtbMHcqpdCePTuZeO8k=", "properties": {"ref": "100", "@spider": "99centsonly", "addr:full": "2270 E. Lincoln Ave", "addr:city": "Anaheim", "addr:state": "CA", "addr:postcode": "92806", "addr:country": "US", "name": "Anaheim at Lincoln Ave & State College", "website": "https://99only.com/stores/anaheim-lincoln-ave-state-college-100", "opening_hours": "Mo-Su 07:00-22:00"}, "geometry": {"type": "Point", "coordinates": [-117.884778, 33.838002]}},
{"type": "Feature", "id": "BvkCy1t-bePp4PgUJusD8PhZrwM=", "properties": {"ref": "336", "@spider": "99centsonly", "addr:full": "1327 E. Huntington Dr", "addr:city": "Duarte", "addr:state": "CA", "addr:postcode": "91010", "addr:country": "US", "name": "Duarte at Huntington Dr", "website": "https://99only.com/stores/duarte-huntington-dr-336", "opening_hours": "Mo-Su 07:00-22:00"}, "geometry": {"type": "Point", "coordinates": [-117.97592, 34.14053]}},
{"type": "Feature", "id": "MNEb8u2jkODCZfhRJWtAt62Dw_4=", "properties": {"ref": "283", "@spider": "99centsonly", "addr:full": "401 W Anaheim St", "addr:city": "Wilmington", "addr:state": "CA", "addr:postcode": "90744", "addr:country": "US", "name": "Wilmington at Anaheim St", "website": "https://99only.com/stores/wilmington-anaheim-st-283", "opening_hours": "Mo-Su 07:00-22:00"}, "geometry": {"type": "Point", "coordinates": [-118.267144, 33.780011]}},
{"type": "Feature", "id": "IIGwu9BalwThrd9HzyMSJ5PpAag=", "properties": {"ref": "133", "@spider": "99centsonly", "addr:full": "790 E. Southern Ave", "addr:city": "Tempe", "addr:state": "AZ", "addr:postcode": "85282", "addr:country": "US", "name": "Tempe at Southern Ave", "website": "https://99only.com/stores/tempe-southern-ave-133", "opening_hours": "Mo-Su 07:00-23:00"}, "geometry": {"type": "Point", "coordinates": [-111.92868, 33.39354]}},
{"type": "Feature", "id": "G__ujGjuy-qu1XDMDfAa6DGXFKU=", "properties": {"ref": "264", "@spider": "99centsonly", "addr:full": "1449 W. March Ln", "addr:city": "Stockton", "addr:state": "CA", "addr:postcode": "95207", "addr:country": "US", "name": "Stockton at March Ln", "website": "https://99only.com/stores/stockton-march-ln-264", "opening_hours": "Mo-Su 07:00-23:00"}, "geometry": {"type": "Point", "coordinates": [-121.323285, 37.989608]}},
{"type": "Feature", "id": "CAbqjHbZ-teZhGNwVfn1qOP-pWI=", "properties": {"ref": "58", "@spider": "99centsonly", "addr:full": "4929 Woodruff Ave", "addr:city": "Lakewood", "addr:state": "CA", "addr:postcode": "90713", "addr:country": "US", "name": "Lakewood at Woodruff Ave", "website": "https://99only.com/stores/lakewood-woodruff-ave-58", "opening_hours": "Mo-Su 07:00-22:00"}, "geometry": {"type": "Point", "coordinates": [-118.117, 33.84739]}},
{"type": "Feature", "id": "7H7SM52VCBCvr2zaokLM5oKKx3w=", "properties": {"ref": "178", "@spider": "99centsonly", "addr:full": "5340 W. Glendale Ave.", "addr:city": "Glendale", "addr:state": "AZ", "addr:postcode": "85301", "addr:country": "US", "name": "Glendale at Glendale Ave", "website": "https://99only.com/stores/glendale-glendale-ave-178", "opening_hours": "Mo-Su 07:00-22:00"}, "geometry": {"type": "Point", "coordinates": [-112.174113, 33.539173]}},
{"type": "Feature", "id": "rFGjaRBoYvkU0BeMCbjiykvGLO8=", "properties": {"ref": "2877", "@spider": "99centsonly", "addr:full": "3111 N. Fry Rd", "addr:city": "Katy", "addr:state": "TX", "addr:postcode": "77449", "addr:country": "US", "name": "Katy at Fry Rd", "website": "https://99only.com/stores/katy-fry-rd-2877", "opening_hours": "Mo-Su 07:00-22:00"}, "geometry": {"type": "Point", "coordinates": [-95.721516, 29.817269]}},
{"type": "Feature", "id": "E8NTBOa447T0Sihj_FOjSkHaRCM=", "properties": {"ref": "307", "@spider": "99centsonly", "addr:full": "155 S. Rancho Sante Fe Rd", "addr:city": "San Marcos", "addr:state": "CA", "addr:postcode": "92078", "addr:country": "US", "name": "San Marcos at Rancho Sante Fe Rd", "website": "https://99only.com/stores/san-marcos-rancho-sante-fe-rd-307", "opening_hours": "Mo-Su 07:00-22:00"}, "geometry": {"type": "Point", "coordinates": [-117.199, 33.14712]}},
{"type": "Feature", "id": "QZqzGA38yfKt6Dmime61vqvXjp8=", "properties": {"ref": "319", "@spider": "99centsonly", "addr:full": "830 Colusa Ave", "addr:city": "Yuba City", "addr:state": "CA", "addr:postcode": "95991", "addr:country": "US", "name": "Yuba City at Colusa Ave", "website": "https://99only.com/stores/yuba-city-colusa-ave-319", "opening_hours": "Mo-Su 07:00-23:00"}, "geometry": {"type": "Point", "coordinates": [-121.628163, 39.141145]}},
{"type": "Feature", "id": "dNhlGXEyw5-HiNTIrIIAinCvFaI=", "properties": {"ref": "2809", "@spider": "99centsonly", "addr:full": "10787 Jones Road", "addr:city": "Houston", "addr:state": "TX", "addr:postcode": "77065", "addr:country": "US", "name": "Houston at Jones Road", "website": "https://99only.com/stores/houston-jones-road-2809", "opening_hours": "Mo-Su 07:00-23:00"}, "geometry": {"type": "Point", "coordinates": [-95.586274, 29.930712]}},
{"type": "Feature", "id": "AqhnSz3QyKP9qL48f-KD36-CXkY=", "properties": {"ref": "2845", "@spider": "99centsonly", "addr:full": "4500 Live Oak St", "addr:city": "Dallas", "addr:state": "TX", "addr:postcode": "75204", "addr:country": "US", "name": "Dallas at Live Oak St", "website": "https://99only.com/stores/dallas-live-oak-st-2845", "opening_hours": "Mo-Su 07:00-22:00"}, "geometry": {"type": "Point", "coordinates": [-96.775712, 32.799233]}},
{"type": "Feature", "id": "q56G8q7Zmtv4FbxFYROJ7wN12AU=", "properties": {"ref": "2880", "@spider": "99centsonly", "addr:full": "5912 Bosque Blvd, Suite 323", "addr:city": "Waco", "addr:state": "TX", "addr:postcode": "76710", "addr:country": "US", "name": "Waco at Bosque Blvd", "website": "https://99only.com/stores/waco-bosque-blvd-2880", "opening_hours": "Mo-Su 07:00-23:00"}, "geometry": {"type": "Point", "coordinates": [-97.196218, 31.530063]}},
{"type": "Feature", "id": "HKSvIoVGYpaNWmYGGP3ERcCQolo=", "properties": {"ref": "128", "@spider": "99centsonly", "addr:full": "4200 Ming Ave", "addr:city": "Bakersfield", "addr:state": "CA", "addr:postcode": "93309", "addr:country": "US", "name": "Bakersfield at Ming Ave", "website": "https://99only.com/stores/bakersfield-ming-ave-128", "opening_hours": "Mo-Su 07:00-23:00"}, "geometry": {"type": "Point", "coordinates": [-119.049442, 35.34063]}},
{"type": "Feature", "id": "TZKFV-6U0-jdfjP51O0ZiDZisf8=", "properties": {"ref": "214", "@spider": "99centsonly", "addr:full": "1293B Los Angeles Ave", "addr:city": "Simi Valley", "addr:state": "CA", "addr:postcode": "93065", "addr:country": "US", "name": "Simi Valley at Los Angeles Ave", "website": "https://99only.com/stores/simi-valley-los-angeles-ave-214", "opening_hours": "Mo-Su 07:00-23:00"}, "geometry": {"type": "Point", "coordinates": [-118.775312, 34.272928]}},
{"type": "Feature", "id": "LGQfRC9hqfa5ZJ8JWbmpF_UlUnY=", "properties": {"ref": "43", "@spider": "99centsonly", "addr:full": "9920 Westminster Ave", "addr:city": "Garden Grove", "addr:state": "CA", "addr:postcode": "92844", "addr:country": "US", "name": "Garden Grove at Westminster Ave", "website": "https://99only.com/stores/garden-grove-westminster-ave-43", "opening_hours": "Mo-Su 07:00-23:00"}, "geometry": {"type": "Point", "coordinates": [-117.955602, 33.75853]}},
{"type": "Feature", "id": "RgItSrJIaBvAdIZFotVuxI-odY8=", "properties": {"ref": "409", "@spider": "99centsonly", "addr:full": "1012 Riley St", "addr:city": "Folsom", "addr:state": "CA", "addr:postcode": "95630", "addr:country": "US", "name": "Folsom at Riley St", "website": "https://99only.com/stores/folsom-riley-st-409", "opening_hours": "Mo-Su 07:00-22:00"}, "geometry": {"type": "Point", "coordinates": [-121.168727, 38.669363]}},
{"type": "Feature", "id": "JBNDoVgIJxT2joOzhBFylruXi5s=", "properties": {"ref": "262", "@spider": "99centsonly", "addr:full": "31033 Date Palm Dr", "addr:city": "Cathedral City", "addr:state": "CA", "addr:postcode": "92234", "addr:country": "US", "name": "Cathedral City at Date Palm Dr", "website": "https://99only.com/stores/cathedral-city-date-palm-dr-262", "opening_hours": "Mo-Su 07:00-22:00"}, "geometry": {"type": "Point", "coordinates": [-116.459115, 33.8222]}},
{"type": "Feature", "id": "S9IgfNOuP0GtO-7wmFCNMVXp8SQ=", "properties": {"ref": "85", "@spider": "99centsonly", "addr:full": "2551 N. Ventura Rd", "addr:city": "Port Hueneme", "addr:state": "CA", "addr:postcode": "93041", "addr:country": "US", "name": "Port Hueneme at Ventura Rd", "website": "https://99only.com/stores/port-hueneme-ventura-rd-85", "opening_hours": "Mo-Su 07:00-23:00"}, "geometry": {"type": "Point", "coordinates": [-119.19605, 34.176818]}},
{"type": "Feature", "id": "7XtBjCATGnt5CFBHAVwtLLH9oXE=", "properties": {"ref": "362", "@spider": "99centsonly", "addr:full": "17255 Main St", "addr:city": "Hesperia", "addr:state": "CA", "addr:postcode": "92345", "addr:country": "US", "name": "Hesperia at Main Street", "website": "https://99only.com/stores/hesperia-main-street-362", "opening_hours": "Mo-Su 07:00-22:00"}, "geometry": {"type": "Point", "coordinates": [-117.287171, 34.418489]}},
{"type": "Feature", "id": "3rU_XIS6gmDO3e73eM5-_bYIalI=", "properties": {"ref": "331", "@spider": "99centsonly", "addr:full": "1617 Douglas Blvd Suite 2", "addr:city": "Roseville", "addr:state": "CA", "addr:postcode": "95661", "addr:country": "US", "name": "Roseville at Douglas Blvd", "website": "https://99only.com/stores/roseville-douglas-blvd-331", "opening_hours": "Mo-Su 07:00-23:00"}, "geometry": {"type": "Point", "coordinates": [-121.263971, 38.745228]}},
{"type": "Feature", "id": "3qurk6muT0W3LPUasnQnsuF_adQ=", "properties": {"ref": "221", "@spider": "99centsonly", "addr:full": "1261 W. Central Ave.", "addr:city": "Brea", "addr:state": "CA", "addr:postcode": "92821", "addr:country": "US", "name": "Brea at  Central Ave", "website": "https://99only.com/stores/brea-central-ave-221", "opening_hours": "Mo-Su 07:00-22:00"}, "geometry": {"type": "Point", "coordinates": [-117.916828, 33.932518]}},
{"type": "Feature", "id": "BHgQOADFdB0RaFd5soC3nTrEu5w=", "properties": {"ref": "206", "@spider": "99centsonly", "addr:full": "7125 E. Golf Links Rd", "addr:city": "Tucson", "addr:state": "AZ", "addr:postcode": "85730", "addr:country": "US", "name": "Tucson at Golf Links Rd", "website": "https://99only.com/stores/tucson-golf-links-rd-206", "opening_hours": "Mo-Su 07:00-23:00"}, "geometry": {"type": "Point", "coordinates": [-110.839627, 32.193246]}},
{"type": "Feature", "id": "Ktm0bXi6v5oNIHwYyrik9dNZO7Q=", "properties": {"ref": "417", "@spider": "99centsonly", "addr:full": "415 N. Ash St", "addr:city": "Escondido", "addr:state": "CA", "addr:postcode": "92027", "addr:country": "US", "name": "Escondido at Ash St", "website": "https://99only.com/stores/escondido-ash-st-417", "opening_hours": "Mo-Su 07:00-22:00"}, "geometry": {"type": "Point", "coordinates": [-117.068112, 33.130676]}},
{"type": "Feature", "id": "QoK252UytBDl1GnFjNO5V_NhwSY=", "properties": {"ref": "2813", "@spider": "99centsonly", "addr:full": "13749 State Hwy 249", "addr:city": "Houston", "addr:state": "TX", "addr:postcode": "77086", "addr:country": "US", "name": "Houston at State Hwy 249", "website": "https://99only.com/stores/houston-state-hwy-249-2813", "opening_hours": "Mo-Su 07:00-22:00"}, "geometry": {"type": "Point", "coordinates": [-95.495395, 29.91967]}},
{"type": "Feature", "id": "qRJmQN-7kLb8pM47eMOJQOOHXEE=", "properties": {"ref": "380", "@spider": "99centsonly", "addr:full": "450 N. McKinley St", "addr:city": "Corona", "addr:state": "CA", "addr:postcode": "92879", "addr:country": "US", "name": "Corona at McKinley St", "website": "https://99only.com/stores/corona-mckinley-st-380", "opening_hours": "Mo-Su 07:00-22:00"}, "geometry": {"type": "Point", "coordinates": [-117.52252, 33.88804]}},
{"type": "Feature", "id": "estlktVj6RiDdIs8GyIfekL7skQ=", "properties": {"ref": "404", "@spider": "99centsonly", "addr:full": "800 Buchanan Blvd", "addr:city": "Boulder City", "addr:state": "NV", "addr:postcode": "89005", "addr:country": "US", "name": "Boulder City at Buchanan Blvd", "website": "https://99only.com/stores/boulder-city-buchanan-blvd-404", "opening_hours": "Mo-Su 07:00-22:00"}, "geometry": {"type": "Point", "coordinates": [-114.846527, 35.972436]}},
{"type": "Feature", "id": "tZAJDllwpVfKuRew-uKVeGOeL0U=", "properties": {"ref": "281", "@spider": "99centsonly", "addr:full": "14073 Main St. Suite 108", "addr:city": "Hesperia", "addr:state": "CA", "addr:postcode": "92345", "addr:country": "US", "name": "Hesperia at Main St & Topaz Ave", "website": "https://99only.com/stores/hesperia-main-st-topaz-ave-281", "opening_hours": "Mo-Su 07:00-22:00"}, "geometry": {"type": "Point", "coordinates": [-117.356598, 34.426188]}},
{"type": "Feature", "id": "BuEhI_0mmDlNfR5mmVEFuCd1q6w=", "properties": {"ref": "70", "@spider": "99centsonly", "addr:full": "44601 Valley Central Way", "addr:city": "Lancaster", "addr:state": "CA", "addr:postcode": "93536", "addr:country": "US", "name": "Lancaster at Valley Central Way", "website": "https://99only.com/stores/lancaster-valley-central-way-70", "opening_hours": "Mo-Su 07:00-22:00"}, "geometry": {"type": "Point", "coordinates": [-118.17338, 34.69244]}},
{"type": "Feature", "id": "0pS0h8VrfTgRmenGxCGhNFMYWgM=", "properties": {"ref": "106", "@spider": "99centsonly", "addr:full": "8966 Reseda Blvd", "addr:city": "Northridge", "addr:state": "CA", "addr:postcode": "91324", "addr:country": "US", "name": "Northridge at Reseda Blvd", "website": "https://99only.com/stores/northridge-reseda-blvd-106", "opening_hours": "Mo-Su 07:00-23:00"}, "geometry": {"type": "Point", "coordinates": [-118.53552, 34.23395]}},
{"type": "Feature", "id": "6DbQZlbTJJZWgBes4K13Y5hjrvw=", "properties": {"ref": "313", "@spider": "99centsonly", "addr:full": "2205 McHenry Ave", "addr:city": "Modesto", "addr:state": "CA", "addr:postcode": "95350", "addr:country": "US", "name": "Modesto at McHenry Ave", "website": "https://99only.com/stores/modesto-mchenry-ave-313", "opening_hours": "Mo-Su 07:00-23:00"}, "geometry": {"type": "Point", "coordinates": [-120.995252, 37.675263]}},
{"type": "Feature", "id": "bKJ9uiQRJXIRnzKFlTQL-HSebZc=", "properties": {"ref": "237", "@spider": "99centsonly", "addr:full": "5930 Stockton Blvd.", "addr:city": "Sacramento", "addr:state": "CA", "addr:postcode": "95824", "addr:country": "US", "name": "Sacramento at Stockton Blvd", "website": "https://99only.com/stores/sacramento-stockton-blvd-237", "opening_hours": "Mo-Su 07:00-23:00"}, "geometry": {"type": "Point", "coordinates": [-121.441038, 38.518419]}},
{"type": "Feature", "id": "s_jvL3mKqiLGyMMUQPQq2h1TLk0=", "properties": {"ref": "375", "@spider": "99centsonly", "addr:full": "6921 La Tijera Blvd.", "addr:city": "Los Angeles", "addr:state": "CA", "addr:postcode": "90045", "addr:country": "US", "name": "Los Angeles at La Tijera Blvd", "website": "https://99only.com/stores/los-angeles-la-tijera-blvd-375", "opening_hours": "Mo-Su 07:00-22:00"}, "geometry": {"type": "Point", "coordinates": [-118.37384, 33.97605]}},
{"type": "Feature", "id": "JclSsxJ030-W7T0lsTq3rqzMts4=", "properties": {"ref": "143", "@spider": "99centsonly", "addr:full": "1155 E. Charleston Blvd", "addr:city": "Las Vegas", "addr:state": "NV", "addr:postcode": "89104", "addr:country": "US", "name": "Las Vegas at Charleston Blvd", "website": "https://99only.com/stores/las-vegas-charleston-blvd-143", "opening_hours": "Mo-Su 07:00-22:00"}, "geometry": {"type": "Point", "coordinates": [-115.137646, 36.159355]}},
{"type": "Feature", "id": "aTiMw-Q-Eq6g4U8o8OuRtVjsqvk=", "properties": {"ref": "366", "@spider": "99centsonly", "addr:full": "11274 S Fortuna Rd", "addr:city": "Yuma", "addr:state": "AZ", "addr:postcode": "85367", "addr:country": "US", "name": "Yuma at Fortuna Rd", "website": "https://99only.com/stores/yuma-fortuna-rd-366", "opening_hours": "Mo-Su 07:00-22:00"}, "geometry": {"type": "Point", "coordinates": [-114.447474, 32.667926]}},
{"type": "Feature", "id": "-MUNBxtcGdSTJSxsONMCovuQcto=", "properties": {"ref": "119", "@spider": "99centsonly", "addr:full": "79840 Hwy. 111", "addr:city": "La Quinta", "addr:state": "CA", "addr:postcode": "92253", "addr:country": "US", "name": "La Quinta at Hwy. 111", "website": "https://99only.com/stores/la-quinta-hwy-111-119", "opening_hours": "Mo-Su 07:00-22:00"}, "geometry": {"type": "Point", "coordinates": [-116.27188, 33.70859]}},
{"type": "Feature", "id": "aPcbSL2pZ-_cbScQCVPqwihO2JQ=", "properties": {"ref": "410", "@spider": "99centsonly", "addr:full": "3684 Sonoma Blvd", "addr:city": "Vallejo", "addr:state": "CA", "addr:postcode": "94590", "addr:country": "US", "name": "Vallejo at Sonoma Blvd", "website": "https://99only.com/stores/vallejo-sonoma-blvd-410", "opening_hours": "Mo-Su 07:00-23:00"}, "geometry": {"type": "Point", "coordinates": [-122.254004, 38.12481]}},
{"type": "Feature", "id": "XfgV0xpQ1hDVmwWK_2eXkC3KnXE=", "properties": {"ref": "445", "@spider": "99centsonly", "addr:full": "2809 Via Campo", "addr:city": "Montebello", "addr:state": "CA", "addr:postcode": "90640", "addr:country": "US", "name": "Montebello at Via Campo", "website": "https://99only.com/stores/montebello-campo-445", "opening_hours": "Mo-Su 07:00-23:00"}, "geometry": {"type": "Point", "coordinates": [-118.12791, 34.03173]}},
{"type": "Feature", "id": "EUe5B2xDhxHkzRvTjGZTV09I4xk=", "properties": {"ref": "358", "@spider": "99centsonly", "addr:full": "415 Rohnert Park Expy", "addr:city": "Rohnert Park", "addr:state": "CA", "addr:postcode": "94928", "addr:country": "US", "name": "Rohnert Park at Rohnert Park Expy", "website": "https://99only.com/stores/rohnert-park-rohnert-park-expy-358", "opening_hours": "Mo-Su 07:00-23:00"}, "geometry": {"type": "Point", "coordinates": [-122.718987, 38.346649]}},
{"type": "Feature", "id": "bQuncPmWpOlmO7FbakK2gWVUBt4=", "properties": {"ref": "332", "@spider": "99centsonly", "addr:full": "626 Cecil Ave", "addr:city": "Delano", "addr:state": "CA", "addr:postcode": "93215", "addr:country": "US", "name": "Delano at Cecil Ave", "website": "https://99only.com/stores/delano-cecil-ave-332", "opening_hours": "Mo-Su 07:00-22:00"}, "geometry": {"type": "Point", "coordinates": [-119.250747, 35.775536]}},
{"type": "Feature", "id": "ckz3LVCtTG7c5aHfRONCkryz_0I=", "properties": {"ref": "236", "@spider": "99centsonly", "addr:full": "212 W. Baseline Rd.", "addr:city": "Rialto", "addr:state": "CA", "addr:postcode": "92376", "addr:country": "US", "name": "Rialto at Baseline Rd", "website": "https://99only.com/stores/rialto-baseline-rd-236", "opening_hours": "Mo-Su 07:00-22:00"}, "geometry": {"type": "Point", "coordinates": [-117.373028, 34.122585]}},
{"type": "Feature", "id": "Wr1GmeH-nSNG0EjAYelNkpB8L28=", "properties": {"ref": "310", "@spider": "99centsonly", "addr:full": "2701 Manhattan Beach Blvd", "addr:city": "Redondo Beach", "addr:state": "CA", "addr:postcode": "90278", "addr:country": "US", "name": "Redondo Beach at Manhattan Beach Blvd", "website": "https://99only.com/stores/redondo-beach-manhattan-beach-blvd-310", "opening_hours": "Mo-Su 07:00-22:00"}, "geometry": {"type": "Point", "coordinates": [-118.362391, 33.888328]}},
{"type": "Feature", "id": "bfXNNxtoQymy9SRUcJgbTFiMlsQ=", "properties": {"ref": "376", "@spider": "99centsonly", "addr:full": "2522 S. Grove Ave", "addr:city": "Ontario", "addr:state": "CA", "addr:postcode": "91761", "addr:country": "US", "name": "Ontario at Grove Ave", "website": "https://99only.com/stores/ontario-grove-ave-376", "opening_hours": "Mo-Su 07:00-22:00"}, "geometry": {"type": "Point", "coordinates": [-117.629952, 34.027615]}},
{"type": "Feature", "id": "9UDuqBDOApp_nCKgGkOj0eucw6A=", "properties": {"ref": "124", "@spider": "99centsonly", "addr:full": "2709 E. Main St", "addr:city": "Ventura", "addr:state": "CA", "addr:postcode": "93003", "addr:country": "US", "name": "Ventura at  Main St", "website": "https://99only.com/stores/ventura-main-st-124", "opening_hours": "Mo-Su 07:00-23:00"}, "geometry": {"type": "Point", "coordinates": [-119.260288, 34.274129]}},
{"type": "Feature", "id": "JyFxGhTHLax1QBSOsp8D22W7wDc=", "properties": {"ref": "373", "@spider": "99centsonly", "addr:full": "3610 W. Baseline Rd", "addr:city": "Laveen", "addr:state": "AZ", "addr:postcode": "85339", "addr:country": "US", "name": "Laveen at Baseline Rd", "website": "https://99only.com/stores/laveen-baseline-rd-373", "opening_hours": "Mo-Su 07:00-23:00"}, "geometry": {"type": "Point", "coordinates": [-112.136376, 33.378947]}},
{"type": "Feature", "id": "cWtGjrYpkJ7AulApI07Ik7aOe1A=", "properties": {"ref": "78", "@spider": "99centsonly", "addr:full": "725 S. Main St", "addr:city": "Corona", "addr:state": "CA", "addr:postcode": "92882", "addr:country": "US", "name": "Corona at  Main St", "website": "https://99only.com/stores/corona-main-st-78", "opening_hours": "Mo-Su 07:00-22:00"}, "geometry": {"type": "Point", "coordinates": [-117.566004, 33.8741]}},
{"type": "Feature", "id": "ohjzHodGVcFTlkU_nzfunkiEfYo=", "properties": {"ref": "68", "@spider": "99centsonly", "addr:full": "975-A South E. St", "addr:city": "San Bernardino", "addr:state": "CA", "addr:postcode": "92408", "addr:country": "US", "name": "San Bernardino at South E. St", "website": "https://99only.com/stores/san-bernardino-south-e-st-68", "opening_hours": "Mo-Su 07:00-22:00"}, "geometry": {"type": "Point", "coordinates": [-117.292928, 34.083423]}},
{"type": "Feature", "id": "-0kG4yRp9s7wPkN8JFrZIcHcX10=", "properties": {"ref": "42", "@spider": "99centsonly", "addr:full": "8625 Woodman Ave", "addr:city": "Arleta", "addr:state": "CA", "addr:postcode": "91331", "addr:country": "US", "name": "Pacoima at Woodman Ave", "website": "https://99only.com/stores/pacoima-woodman-ave-42", "opening_hours": "Mo-Su 07:00-22:00"}, "geometry": {"type": "Point", "coordinates": [-118.434282, 34.227119]}},
{"type": "Feature", "id": "USLR4aWLcjYNbxi1jGgSXg9Au8Q=", "properties": {"ref": "204", "@spider": "99centsonly", "addr:full": "4979 Kings Canyon Blvd", "addr:city": "Fresno", "addr:state": "CA", "addr:postcode": "93727", "addr:country": "US", "name": "Fresno at Kings Canyon Blvd", "website": "https://99only.com/stores/fresno-kings-canyon-blvd-204", "opening_hours": "Mo-Su 07:00-23:00"}, "geometry": {"type": "Point", "coordinates": [-119.728875, 36.737495]}},
{"type": "Feature", "id": "AACibrq8Y9R2xmeHDTpwFowf9sQ=", "properties": {"ref": "160", "@spider": "99centsonly", "addr:full": "2868 Zinfandel Dr", "addr:city": "Rancho Cordova", "addr:state": "CA", "addr:postcode": "95670", "addr:country": "US", "name": "Rancho Cordova at Zinfandel Dr", "website": "https://99only.com/stores/rancho-cordova-zinfandel-dr-160", "opening_hours": "Mo-Su 07:00-23:00"}, "geometry": {"type": "Point", "coordinates": [-121.289118, 38.59427]}},
{"type": "Feature", "id": "p4JNwIpaP-WcPXM-10u76xvd7J0=", "properties": {"ref": "386", "@spider": "99centsonly", "addr:full": "3258 Las Vegas Blvd N.", "addr:city": "Las Vegas", "addr:state": "NV", "addr:postcode": "89115", "addr:country": "US", "name": "Las Vegas at Las Vegas Blvd N.", "website": "https://99only.com/stores/las-vegas-las-vegas-blvd-n-386", "opening_hours": "Mo-Su 07:00-22:00"}, "geometry": {"type": "Point", "coordinates": [-115.093179, 36.216422]}},
{"type": "Feature", "id": "IHv5kgS7Z2CJuqV9s6A0Z0gr56g=", "properties": {"ref": "62", "@spider": "99centsonly", "addr:full": "422 E. Washington Blvd", "addr:city": "Los Angeles", "addr:state": "CA", "addr:postcode": "90015", "addr:country": "US", "name": "Los Angeles at Washington Blvd", "website": "https://99only.com/stores/los-angeles-washington-blvd-62", "opening_hours": "Mo-Su 07:00-23:00"}, "geometry": {"type": "Point", "coordinates": [-118.261137, 34.028842]}},
{"type": "Feature", "id": "HqgqF4kI9uWj2NKQ2sSn6IQ7MsQ=", "properties": {"ref": "403", "@spider": "99centsonly", "addr:full": "2037 Durfee Ave", "addr:city": "South El Monte", "addr:state": "CA", "addr:postcode": "91733", "addr:country": "US", "name": "South El Monte at Durfee Ave", "website": "https://99only.com/stores/south-el-monte-durfee-ave-403", "opening_hours": "Mo-Su 07:00-22:00"}, "geometry": {"type": "Point", "coordinates": [-118.029659, 34.047119]}},
{"type": "Feature", "id": "CkRq5qwRiwgbi4s-vZ8iGI1VfKA=", "properties": {"ref": "360", "@spider": "99centsonly", "addr:full": "2028 E Highland Ave", "addr:city": "San Bernardino", "addr:state": "CA", "addr:postcode": "92404", "addr:country": "US", "name": "San Bernardino at Highland Ave", "website": "https://99only.com/stores/san-bernardino-highland-ave-360", "opening_hours": "Mo-Su 07:00-22:00"}, "geometry": {"type": "Point", "coordinates": [-117.242551, 34.136832]}},
{"type": "Feature", "id": "zTmT73zeV_nVQv7iEQzFws7N-Lk=", "properties": {"ref": "389", "@spider": "99centsonly", "addr:full": "22631 Lake Forest Dr", "addr:city": "Lake Forest", "addr:state": "CA", "addr:postcode": "92630", "addr:country": "US", "name": "Lake Forest at Lake Forest Dr", "website": "https://99only.com/stores/lake-forest-lake-forest-dr-389", "opening_hours": "Mo-Su 07:00-22:00"}, "geometry": {"type": "Point", "coordinates": [-117.711006, 33.634611]}},
{"type": "Feature", "id": "a7OQT4Ce3eEf3iUOZh9TMjfFws0=", "properties": {"ref": "357", "@spider": "99centsonly", "addr:full": "2010 E. Valley Pkwy", "addr:city": "Escondido", "addr:state": "CA", "addr:postcode": "92027", "addr:country": "US", "name": "Escondido at Valley Pkwy", "website": "https://99only.com/stores/escondido-valley-pkwy-357", "opening_hours": "Mo-Su 07:00-23:00"}, "geometry": {"type": "Point", "coordinates": [-117.051696, 33.13844]}},
{"type": "Feature", "id": "7uik1ZL14iiJPXsNDVjCvMSoA0g=", "properties": {"ref": "230", "@spider": "99centsonly", "addr:full": "10911 Victory Blvd.", "addr:city": "North Hollywood", "addr:state": "CA", "addr:postcode": "91606", "addr:country": "US", "name": "Burbank at Victory Blvd.", "website": "https://99only.com/stores/burbank-victory-blvd-230", "opening_hours": "Mo-Su 07:00-22:00"}, "geometry": {"type": "Point", "coordinates": [-118.36887, 34.187045]}},
{"type": "Feature", "id": "VMAMZWyF2eKuHA-Tb8ZY90tc-JI=", "properties": {"ref": "111", "@spider": "99centsonly", "addr:full": "2407 W. Victory Blvd", "addr:city": "Burbank", "addr:state": "CA", "addr:postcode": "91506", "addr:country": "US", "name": "Burbank at Victory Blvd", "website": "https://99only.com/stores/burbank-victory-blvd-111", "opening_hours": "Mo-Su 07:00-23:00"}, "geometry": {"type": "Point", "coordinates": [-118.337474, 34.184866]}},
{"type": "Feature", "id": "lBSH5o7dX_RCOfU2G6dqRue60uE=", "properties": {"ref": "176", "@spider": "99centsonly", "addr:full": "6431 Fair Oaks Blvd.", "addr:city": "Carmichael", "addr:state": "CA", "addr:postcode": "95608", "addr:country": "US", "name": "Carmichael at Fair Oaks Blvd", "website": "https://99only.com/stores/carmichael-fair-oaks-blvd-176", "opening_hours": "Mo-Su 07:00-22:00"}, "geometry": {"type": "Point", "coordinates": [-121.329878, 38.61801]}},
{"type": "Feature", "id": "h_v5HcQlmfYqY4Dz9TikCcFn2HQ=", "properties": {"ref": "138", "@spider": "99centsonly", "addr:full": "770 W. Shaw Ave", "addr:city": "Clovis", "addr:state": "CA", "addr:postcode": "93612", "addr:country": "US", "name": "Clovis at Shaw Ave", "website": "https://99only.com/stores/clovis-shaw-ave-138", "opening_hours": "Mo-Su 07:00-23:00"}, "geometry": {"type": "Point", "coordinates": [-119.72575, 36.80725]}},
{"type": "Feature", "id": "owkwsElpADVQbyHfjHB4cke9Z2I=", "properties": {"ref": "384", "@spider": "99centsonly", "addr:full": "13721 Newport Ave", "addr:city": "Tustin", "addr:state": "CA", "addr:postcode": "92780", "addr:country": "US", "name": "Tustin at Newport Ave", "website": "https://99only.com/stores/tustin-newport-ave-384", "opening_hours": "Mo-Su 07:00-22:00"}, "geometry": {"type": "Point", "coordinates": [-117.820611, 33.741591]}},
{"type": "Feature", "id": "1KRS9QrVQgupGc0k_dkiPOnvmDI=", "properties": {"ref": "183", "@spider": "99centsonly", "addr:full": "2351 northgate Blvd.", "addr:city": "Sacramento", "addr:state": "CA", "addr:postcode": "95833", "addr:country": "US", "name": "Sacramento at Northgate Blvd", "website": "https://99only.com/stores/sacramento-northgate-blvd-183", "opening_hours": "Mo-Su 07:00-23:00"}, "geometry": {"type": "Point", "coordinates": [-121.476898, 38.609263]}},
{"type": "Feature", "id": "E4XOkX8-pMo54DRznpVWBLcO7y0=", "properties": {"ref": "115", "@spider": "99centsonly", "addr:full": "2292-96 Tapo St", "addr:city": "Simi Valley", "addr:state": "CA", "addr:postcode": "93063", "addr:country": "US", "name": "Simi Valley at Tapo St", "website": "https://99only.com/stores/simi-valley-tapo-st-115", "opening_hours": "Mo-Su 07:00-23:00"}, "geometry": {"type": "Point", "coordinates": [-118.707998, 34.27713]}},
{"type": "Feature", "id": "mvA9EhI_fFJ6nc2HD-p5xr2yLaM=", "properties": {"ref": "44", "@spider": "99centsonly", "addr:full": "2566 E. Florence Ave", "addr:city": "Huntington Park", "addr:state": "CA", "addr:postcode": "90255", "addr:country": "US", "name": "Huntington Park at Florence Ave", "website": "https://99only.com/stores/huntington-park-florence-ave-44", "opening_hours": "Mo-Su 07:00-22:00"}, "geometry": {"type": "Point", "coordinates": [-118.22596, 33.97408]}},
{"type": "Feature", "id": "LXPDAAIEUmfpjKyfTg6z0KQ5tiE=", "properties": {"ref": "16", "@spider": "99centsonly", "addr:full": "601 S. Fairfax Ave", "addr:city": "Los Angeles", "addr:state": "CA", "addr:postcode": "90036", "addr:country": "US", "name": "Los Angeles at Fairfax Ave", "website": "https://99only.com/stores/los-angeles-fairfax-ave-16", "opening_hours": "Mo-Su 07:00-22:00"}, "geometry": {"type": "Point", "coordinates": [-118.361557, 34.064804]}},
{"type": "Feature", "id": "C3-dvaST7lojXa1dNeDGIYqwI44=", "properties": {"ref": "86", "@spider": "99centsonly", "addr:full": "24899 Alessandro Blvd", "addr:city": "Moreno Valley", "addr:state": "CA", "addr:postcode": "92553", "addr:country": "US", "name": "Moreno Valley at Alessandro Blvd", "website": "https://99only.com/stores/moreno-valley-alessandro-blvd-86", "opening_hours": "Mo-Su 07:00-23:00"}, "geometry": {"type": "Point", "coordinates": [-117.228077, 33.916224]}},
{"type": "Feature", "id": "y3bwCtoy4wNq5pT9LDstw4T8yA0=", "properties": {"ref": "2859", "@spider": "99centsonly", "addr:full": "4350 Callaghan  Rd", "addr:city": "San Antonio", "addr:state": "TX", "addr:postcode": "78228", "addr:country": "US", "name": "San Antonio at Callaghan Rd", "website": "https://99only.com/stores/san-antonio-callaghan-rd-2859", "opening_hours": "Mo-Su 07:00-22:00"}, "geometry": {"type": "Point", "coordinates": [-98.6014, 29.467127]}},
{"type": "Feature", "id": "wL19EseQJEGHmTLyAP1qB1k8oms=", "properties": {"ref": "290", "@spider": "99centsonly", "addr:full": "550 N. 11th Ave", "addr:city": "Hanford", "addr:state": "CA", "addr:postcode": "93230", "addr:country": "US", "name": "Hanford at North 11th Ave", "website": "https://99only.com/stores/hanford-north-11th-ave-290", "opening_hours": "Mo-Su 07:00-23:00"}, "geometry": {"type": "Point", "coordinates": [-119.656624, 36.32968]}},
{"type": "Feature", "id": "Bw4i_TLIFcaFVHoOdkzuSjEeEJM=", "properties": {"ref": "415", "@spider": "99centsonly", "addr:full": "9751 Mission Gorge Rd", "addr:city": "Santee", "addr:state": "CA", "addr:postcode": "92071", "addr:country": "US", "name": "Santee at Mission Gorge Rd", "website": "https://99only.com/stores/santee-mission-gorge-rd-415", "opening_hours": "Mo-Su 07:00-22:00"}, "geometry": {"type": "Point", "coordinates": [-116.984915, 32.837371]}},
{"type": "Feature", "id": "2RSUlxZ5L_UgRnoj6eBuD4BY6F0=", "properties": {"ref": "207", "@spider": "99centsonly", "addr:full": "20165 N. 67th Ave", "addr:city": "Glendale", "addr:state": "AZ", "addr:postcode": "85308", "addr:country": "US", "name": "Glendale at North 67th Ave", "website": "https://99only.com/stores/glendale-north-67th-ave-207", "opening_hours": "Mo-Su 07:00-22:00"}, "geometry": {"type": "Point", "coordinates": [-112.20202, 33.66497]}},
{"type": "Feature", "id": "D8uUfKHnkVg92kKMYK59FKdjXXM=", "properties": {"ref": "246", "@spider": "99centsonly", "addr:full": "1504 Foothill Blvd", "addr:city": "La Verne", "addr:state": "CA", "addr:postcode": "91750", "addr:country": "US", "name": "La Verne at Foothill Blvd", "website": "https://99only.com/stores/la-verne-foothill-blvd-246", "opening_hours": "Mo-Su 07:00-22:00"}, "geometry": {"type": "Point", "coordinates": [-117.774634, 34.116027]}},
{"type": "Feature", "id": "ivdst3C451s_7TBRaCpiC78QRik=", "properties": {"ref": "95", "@spider": "99centsonly", "addr:full": "1036 Mission Ave", "addr:city": "Oceanside", "addr:state": "CA", "addr:postcode": "92054", "addr:country": "US", "name": "Oceanside at Mission Ave", "website": "https://99only.com/stores/oceanside-mission-ave-95", "opening_hours": "Mo-Su 07:00-23:00"}, "geometry": {"type": "Point", "coordinates": [-117.37522, 33.199629]}},
{"type": "Feature", "id": "25IgbjJjkkKTOzWw8m5HbousmVk=", "properties": {"ref": "55", "@spider": "99centsonly", "addr:full": "17040 Chatsworth St", "addr:city": "Granada Hills", "addr:state": "CA", "addr:postcode": "91344", "addr:country": "US", "name": "Granada Hills at Chatsworth St", "website": "https://99only.com/stores/granada-hills-chatsworth-st-55", "opening_hours": "Mo-Su 07:00-23:00"}, "geometry": {"type": "Point", "coordinates": [-118.503819, 34.26423]}},
{"type": "Feature", "id": "PFlpsz7eJYOD4hd82zSkjD9qyP0=", "properties": {"ref": "182", "@spider": "99centsonly", "addr:full": "7620 W. Thomas Rd.", "addr:city": "Phoenix", "addr:state": "AZ", "addr:postcode": "85033", "addr:country": "US", "name": "Phoenix at Thomas Rd", "website": "https://99only.com/stores/phoenix-thomas-rd-182", "opening_hours": "Mo-Su 07:00-23:00"}, "geometry": {"type": "Point", "coordinates": [-112.22211, 33.48131]}},
{"type": "Feature", "id": "aQ-pLG4RZVGO6a7iZmv1H-egEyc=", "properties": {"ref": "181", "@spider": "99centsonly", "addr:full": "1678 W. Redlands Blvd.", "addr:city": "Redlands", "addr:state": "CA", "addr:postcode": "92373", "addr:country": "US", "name": "Redlands at Redlands Blvd", "website": "https://99only.com/stores/redlands-redlands-blvd-181", "opening_hours": "Mo-Su 07:00-23:00"}, "geometry": {"type": "Point", "coordinates": [-117.212133, 34.063473]}},
{"type": "Feature", "id": "-lwS6_NVEum2TaoupNmaBrTmO3I=", "properties": {"ref": "33", "@spider": "99centsonly", "addr:full": "6124 Pacific Blvd", "addr:city": "Huntington Park", "addr:state": "CA", "addr:postcode": "90255", "addr:country": "US", "name": "Huntington Park at Pacific Blvd", "website": "https://99only.com/stores/huntington-park-pacific-blvd-33", "opening_hours": "Mo-Su 07:00-23:00"}, "geometry": {"type": "Point", "coordinates": [-118.224997, 33.984712]}},
{"type": "Feature", "id": "KOAS4J0NkcLNSSBGCNFMF6fiSaw=", "properties": {"ref": "193", "@spider": "99centsonly", "addr:full": "1120 Hacienda Blvd.", "addr:city": "Hacienda Heights", "addr:state": "CA", "addr:postcode": "91745", "addr:country": "US", "name": "Hacienda Heights at Hacienda Blvd", "website": "https://99only.com/stores/hacienda-heights-hacienda-blvd-193", "opening_hours": "Mo-Su 07:00-22:00"}, "geometry": {"type": "Point", "coordinates": [-117.962097, 34.009889]}},
{"type": "Feature", "id": "WKebs1-lzhXbxHCF3mU9ykQRf5g=", "properties": {"ref": "355", "@spider": "99centsonly", "addr:full": "1851 Willow St.", "addr:city": "Long Beach", "addr:state": "CA", "addr:postcode": "90755", "addr:country": "US", "name": "Signal Hill at Willow St", "website": "https://99only.com/stores/signal-hill-willow-st-355", "opening_hours": "Mo-Su 07:00-22:00"}, "geometry": {"type": "Point", "coordinates": [-118.16921, 33.805001]}},
{"type": "Feature", "id": "cQJm2t4HgiAzsfsQxBgal3HgvgE=", "properties": {"ref": "2882", "@spider": "99centsonly", "addr:full": "455 Sherry Ln", "addr:city": "Fort Worth", "addr:state": "TX", "addr:postcode": "76114", "addr:country": "US", "name": "Fort Worth at Sherry Ln", "website": "https://99only.com/stores/fort-worth-sherry-ln-2882", "opening_hours": "Mo-Su 07:00-23:00"}, "geometry": {"type": "Point", "coordinates": [-97.42868, 32.75225]}},
{"type": "Feature", "id": "oqfgYus8ZlakjK39Y46inWC0k9M=", "properties": {"ref": "261", "@spider": "99centsonly", "addr:full": "50249 Harrison St Suite J", "addr:city": "Coachella", "addr:state": "CA", "addr:postcode": "92236", "addr:country": "US", "name": "Coachella at Harrison St", "website": "https://99only.com/stores/coachella-harrison-st-261", "opening_hours": "Mo-Su 07:00-22:00"}, "geometry": {"type": "Point", "coordinates": [-116.18229, 33.68279]}},
{"type": "Feature", "id": "uQZVbzyoKw17yOurrPx68jt4w8Y=", "properties": {"ref": "291", "@spider": "99centsonly", "addr:full": "1308 E. Main St.", "addr:city": "Barstow", "addr:state": "CA", "addr:postcode": "92311", "addr:country": "US", "name": "Barstow at Main St", "website": "https://99only.com/stores/barstow-main-st-291", "opening_hours": "Mo-Su 07:00-22:00"}, "geometry": {"type": "Point", "coordinates": [-117.007349, 34.895045]}},
{"type": "Feature", "id": "4Ici_jX3Sa6XmESdaZd81db9pf8=", "properties": {"ref": "228", "@spider": "99centsonly", "addr:full": "2515 Somersville Rd", "addr:city": "Antioch", "addr:state": "CA", "addr:postcode": "94509", "addr:country": "US", "name": "Antioch at Somersville Rd", "website": "https://99only.com/stores/antioch-somersville-rd-228", "opening_hours": "Mo-Su 07:00-23:00"}, "geometry": {"type": "Point", "coordinates": [-121.838995, 38.000202]}},
{"type": "Feature", "id": "WHQ1b4aXLnmqL5HBS_uviAKyolA=", "properties": {"ref": "235", "@spider": "99centsonly", "addr:full": "1520 N. First St", "addr:city": "Fresno", "addr:state": "CA", "addr:postcode": "93703", "addr:country": "US", "name": "Fresno at North First St", "website": "https://99only.com/stores/fresno-north-first-st-235", "opening_hours": "Mo-Su 07:00-22:00"}, "geometry": {"type": "Point", "coordinates": [-119.771638, 36.763856]}},
{"type": "Feature", "id": "o7L5OFrPgVqO6kDnUzSUZLFmxs8=", "properties": {"ref": "2821", "@spider": "99centsonly", "addr:full": "950 W. Centerville Rd.", "addr:city": "Garland", "addr:state": "TX", "addr:postcode": "75041", "addr:country": "US", "name": "Garland at Centerville Rd", "website": "https://99only.com/stores/garland-centerville-rd-2821", "opening_hours": "Mo-Su 07:00-23:00"}, "geometry": {"type": "Point", "coordinates": [-96.643946, 32.858628]}},
{"type": "Feature", "id": "HKbDdqHa3Ecv5bU_7m6GDYfflXI=", "properties": {"ref": "50", "@spider": "99centsonly", "addr:full": "3420 W. Lincoln Ave", "addr:city": "Anaheim", "addr:state": "CA", "addr:postcode": "92801", "addr:country": "US", "name": "Anaheim at Lincoln Ave", "website": "https://99only.com/stores/anaheim-lincoln-ave-50", "opening_hours": "Mo-Su 07:00-22:00"}, "geometry": {"type": "Point", "coordinates": [-118.009245, 33.831237]}},
{"type": "Feature", "id": "0WVkyN4Ie3ucyi-w8gxGARzc8DE=", "properties": {"ref": "131", "@spider": "99centsonly", "addr:full": "3518 W. Peoria Ave", "addr:city": "Phoenix", "addr:state": "AZ", "addr:postcode": "85029", "addr:country": "US", "name": "Phoenix at Peoria Ave", "website": "https://99only.com/stores/phoenix-peoria-ave-131", "opening_hours": "Mo-Su 07:00-22:00"}, "geometry": {"type": "Point", "coordinates": [-112.135441, 33.583186]}},
{"type": "Feature", "id": "wRRbydmw3FSb_30jKOQyWkJ9m0U=", "properties": {"ref": "294", "@spider": "99centsonly", "addr:full": "2419 E. Tropicana Ave", "addr:city": "Las Vegas", "addr:state": "NV", "addr:postcode": "89121", "addr:country": "US", "name": "Las Vegas at Tropicana Ave & Ocotillo", "website": "https://99only.com/stores/las-vegas-tropicana-ave-ocotillo-294", "opening_hours": "Mo-Su 07:00-22:00"}, "geometry": {"type": "Point", "coordinates": [-115.118209, 36.098757]}},
{"type": "Feature", "id": "lil6daPE_QeM_tUwsDfDIfrbVwU=", "properties": {"ref": "364", "@spider": "99centsonly", "addr:full": "2762 W. Imperial Hwy", "addr:city": "Inglewood", "addr:state": "CA", "addr:postcode": "90303", "addr:country": "US", "name": "Inglewood at Imperial Hwy", "website": "https://99only.com/stores/inglewood-imperial-hwy-364", "opening_hours": "Mo-Su 07:00-22:00"}, "geometry": {"type": "Point", "coordinates": [-118.32367, 33.92965]}},
{"type": "Feature", "id": "o_ExQnGO8FI6Fph_wU_iww8HgCI=", "properties": {"ref": "175", "@spider": "99centsonly", "addr:full": "2224 El Camino Ave.", "addr:city": "Sacramento", "addr:state": "CA", "addr:postcode": "95821", "addr:country": "US", "name": "Sacramento at El Camino Ave", "website": "https://99only.com/stores/sacramento-el-camino-ave-175", "opening_hours": "Mo-Su 07:00-23:00"}, "geometry": {"type": "Point", "coordinates": [-121.413794, 38.61002]}},
{"type": "Feature", "id": "kBlFuEzF1gEScuMvxMFU-HUsmMA=", "properties": {"ref": "171", "@spider": "99centsonly", "addr:full": "520 Marks St. #C", "addr:city": "Henderson", "addr:state": "NV", "addr:postcode": "89014", "addr:country": "US", "name": "Henderson at Marks St. #C", "website": "https://99only.com/stores/henderson-marks-st-c-171", "opening_hours": "Mo-Su 07:00-23:00"}, "geometry": {"type": "Point", "coordinates": [-115.03524, 36.06007]}},
{"type": "Feature", "id": "5tU3oujclQHXPmhRK0XO1DLrcUM=", "properties": {"ref": "351", "@spider": "99centsonly", "addr:full": "1627 N. Broadway", "addr:city": "Santa Maria", "addr:state": "CA", "addr:postcode": "93458", "addr:country": "US", "name": "Santa Maria at Broadway", "website": "https://99only.com/stores/santa-maria-broadway-351", "opening_hours": "Mo-Su 07:00-23:00"}, "geometry": {"type": "Point", "coordinates": [-120.436583, 34.968732]}},
{"type": "Feature", "id": "gLHGyTd51hY8j8wYwKbjLbIw6F0=", "properties": {"ref": "2851", "@spider": "99centsonly", "addr:full": "2104 S. Texas Ave, Suite 200", "addr:city": "Bryan", "addr:state": "TX", "addr:postcode": "77802", "addr:country": "US", "name": "Bryan at Texas Ave", "website": "https://99only.com/stores/bryan-texas-ave-2851", "opening_hours": "Mo-Su 07:00-22:00"}, "geometry": {"type": "Point", "coordinates": [-96.360355, 30.647858]}},
{"type": "Feature", "id": "WFXk0wmu6Oh4kwQbxqR7-2wdqjg=", "properties": {"ref": "80", "@spider": "99centsonly", "addr:full": "1766 E. Main St", "addr:city": "El Cajon", "addr:state": "CA", "addr:postcode": "92021", "addr:country": "US", "name": "El Cajon at Main St", "website": "https://99only.com/stores/el-cajon-main-st-80", "opening_hours": "Mo-Su 07:00-23:00"}, "geometry": {"type": "Point", "coordinates": [-116.91815, 32.81433]}},
{"type": "Feature", "id": "f85Xp9oyJESOTzL4GJvuZhjX0GU=", "properties": {"ref": "99", "@spider": "99centsonly", "addr:full": "121 Louisiana Ave", "addr:city": "San Ysidro", "addr:state": "CA", "addr:postcode": "92173", "addr:country": "US", "name": "San Ysidro at Louisiana Ave", "website": "https://99only.com/stores/san-ysidro-louisiana-ave-99", "opening_hours": "Mo-Su 07:00-22:00"}, "geometry": {"type": "Point", "coordinates": [-117.038079, 32.549619]}},
{"type": "Feature", "id": "e9n1iOJwrjumTjxV2uDekwDSD58=", "properties": {"ref": "421", "@spider": "99centsonly", "addr:full": "7380 S. Eastern Ave", "addr:city": "Las Vegas", "addr:state": "NV", "addr:postcode": "89123", "addr:country": "US", "name": "Las Vegas at Eastern Ave", "website": "https://99only.com/stores/las-vegas-eastern-ave-421", "opening_hours": "Mo-Su 07:00-22:00"}, "geometry": {"type": "Point", "coordinates": [-115.116611, 36.055853]}},
{"type": "Feature", "id": "FH4x14y7DE0BwzdudJm8MDFeGgY=", "properties": {"ref": "2802", "@spider": "99centsonly", "addr:full": "7639 Westheimer", "addr:city": "Houston", "addr:state": "TX", "addr:postcode": "77063", "addr:country": "US", "name": "Houston at Westheimer", "website": "https://99only.com/stores/houston-westheimer-2802", "opening_hours": "Mo-Su 07:00-23:00"}, "geometry": {"type": "Point", "coordinates": [-95.503844, 29.736556]}},
{"type": "Feature", "id": "92dSZj-KP5ojlt9Mlo6e7n8CMNk=", "properties": {"ref": "420", "@spider": "99centsonly", "addr:full": "1788 S. Barranca Ave", "addr:city": "Glendora", "addr:state": "CA", "addr:postcode": "91740", "addr:country": "US", "name": "Glendora at Barranca Ave", "website": "https://99only.com/stores/glendora-barranca-ave-420", "opening_hours": "Mo-Su 07:00-22:00"}, "geometry": {"type": "Point", "coordinates": [-117.880593, 34.107247]}},
{"type": "Feature", "id": "57Cy_sUsYO64FtAXunEwxqsEIus=", "properties": {"ref": "238", "@spider": "99centsonly", "addr:full": "401 E. 2nd St", "addr:city": "Calexico", "addr:state": "CA", "addr:postcode": "92231", "addr:country": "US", "name": "Calexico at East 2nd St", "website": "https://99only.com/stores/calexico-east-2nd-st-238", "opening_hours": "Mo-Su 07:00-22:00"}, "geometry": {"type": "Point", "coordinates": [-115.493212, 32.666801]}},
{"type": "Feature", "id": "EUpi2fR5aJhZ9DxOzpgAcqoW6TA=", "properties": {"ref": "13", "@spider": "99centsonly", "addr:full": "1516 W. Pico Blvd", "addr:city": "Los Angeles", "addr:state": "CA", "addr:postcode": "90015", "addr:country": "US", "name": "Los Angeles at Pico Blvd", "website": "https://99only.com/stores/los-angeles-pico-blvd-13", "opening_hours": "Mo-Su 07:00-22:00"}, "geometry": {"type": "Point", "coordinates": [-118.27559, 34.0439]}},
{"type": "Feature", "id": "upmz0zwx4i_BwAw5TMR7e6aRJPk=", "properties": {"ref": "320", "@spider": "99centsonly", "addr:full": "41989 Fremont Blvd", "addr:city": "Fremont", "addr:state": "CA", "addr:postcode": "94538", "addr:country": "US", "name": "Fremont at Fremont Blvd", "website": "https://99only.com/stores/fremont-fremont-blvd-320", "opening_hours": "Mo-Su 07:00-23:00"}, "geometry": {"type": "Point", "coordinates": [-121.958213, 37.524413]}},
{"type": "Feature", "id": "8S1PUBcJTBoX-F2da_r-mJMMHIw=", "properties": {"ref": "211", "@spider": "99centsonly", "addr:full": "4920 S. Fort Apache Rd.", "addr:city": "Las Vegas", "addr:state": "NV", "addr:postcode": "89148", "addr:country": "US", "name": "Las Vegas at Fort Apache Rd", "website": "https://99only.com/stores/las-vegas-fort-apache-rd-211", "opening_hours": "Mo-Su 07:00-23:00"}, "geometry": {"type": "Point", "coordinates": [-115.29596, 36.09895]}},
{"type": "Feature", "id": "YF5RMY3ryvRmBAHn0Y1O4WpyL6o=", "properties": {"ref": "56", "@spider": "99centsonly", "addr:full": "1617 Hacienda Blvd", "addr:city": "La Puente", "addr:state": "CA", "addr:postcode": "91744", "addr:country": "US", "name": "La Puente at Hacienda Blvd", "website": "https://99only.com/stores/la-puente-hacienda-blvd-56", "opening_hours": "Mo-Su 07:00-22:00"}, "geometry": {"type": "Point", "coordinates": [-117.947315, 34.049333]}},
{"type": "Feature", "id": "5rB0v5zfTNlrcIgrwjMgg2AxOt8=", "properties": {"ref": "2839", "@spider": "99centsonly", "addr:full": "2942 Old Thousand Oaks Dr", "addr:city": "San Antonio", "addr:state": "TX", "addr:postcode": "78247", "addr:country": "US", "name": "San Antonio at Old Thousand Oaks Dr", "website": "https://99only.com/stores/san-antonio-old-thousand-oaks-dr-2839", "opening_hours": "Mo-Su 07:00-23:00"}, "geometry": {"type": "Point", "coordinates": [-98.44052, 29.57538]}},
{"type": "Feature", "id": "h51Hwoilv9A7-hqKSb6uy0jkssc=", "properties": {"ref": "253", "@spider": "99centsonly", "addr:full": "820 E. Imperial Hwy", "addr:city": "Brea", "addr:state": "CA", "addr:postcode": "92821", "addr:country": "US", "name": "Brea at Imperial Hwy", "website": "https://99only.com/stores/brea-imperial-hwy-253", "opening_hours": "Mo-Su 07:00-22:00"}, "geometry": {"type": "Point", "coordinates": [-117.892652, 33.91281]}},
{"type": "Feature", "id": "gY-18zUGZt207akFAwZdoBVauOI=", "properties": {"ref": "201", "@spider": "99centsonly", "addr:full": "4665 Clayton Rd", "addr:city": "Concord", "addr:state": "CA", "addr:postcode": "94521", "addr:country": "US", "name": "Concord at Clayton Rd", "website": "https://99only.com/stores/concord-clayton-rd-201", "opening_hours": "Mo-Su 07:00-23:00"}, "geometry": {"type": "Point", "coordinates": [-121.983484, 37.962254]}},
{"type": "Feature", "id": "QpMZos43VIC6IKTU9H_ysih8Ots=", "properties": {"ref": "289", "@spider": "99centsonly", "addr:full": "1941 San Pablo Ave", "addr:city": "Berkeley", "addr:state": "CA", "addr:postcode": "94702", "addr:country": "US", "name": "Berkeley at San Pablo Ave", "website": "https://99only.com/stores/berkeley-san-pablo-ave-289", "opening_hours": "Mo-Su 07:00-22:00"}, "geometry": {"type": "Point", "coordinates": [-122.291783, 37.869924]}},
{"type": "Feature", "id": "bzIIrKk5ias7HFEzeFiYTxrwBKo=", "properties": {"ref": "187", "@spider": "99centsonly", "addr:full": "2450 E. Chapman Ave.", "addr:city": "Fullerton", "addr:state": "CA", "addr:postcode": "92831", "addr:country": "US", "name": "Fullerton at Chapman Ave", "website": "https://99only.com/stores/fullerton-chapman-ave-187", "opening_hours": "Mo-Su 07:00-22:00"}, "geometry": {"type": "Point", "coordinates": [-117.88786, 33.87337]}},
{"type": "Feature", "id": "ah3XpqzX7zgy4nAb_DV2Po4hcms=", "properties": {"ref": "2874", "@spider": "99centsonly", "addr:full": "5550 N. Fwy", "addr:city": "Houston", "addr:state": "TX", "addr:postcode": "77076", "addr:country": "US", "name": "Houston at North Fwy", "website": "https://99only.com/stores/houston-north-fwy-2874", "opening_hours": "Mo-Su 07:00-23:00"}, "geometry": {"type": "Point", "coordinates": [-95.392616, 29.847908]}},
{"type": "Feature", "id": "HkJ37h2hSMJFAG3sAbuaguhFm8Y=", "properties": {"ref": "144", "@spider": "99centsonly", "addr:full": "5931 University Ave", "addr:city": "San Diego", "addr:state": "CA", "addr:postcode": "92115", "addr:country": "US", "name": "San Diego at University Ave", "website": "https://99only.com/stores/san-diego-university-ave-144", "opening_hours": "Mo-Su 07:00-22:00"}, "geometry": {"type": "Point", "coordinates": [-117.069435, 32.749643]}},
{"type": "Feature", "id": "F_szS1VuWXinpwhU___SQNUpbHE=", "properties": {"ref": "191", "@spider": "99centsonly", "addr:full": "1333 Country Club Dr", "addr:city": "Madera", "addr:state": "CA", "addr:postcode": "93638", "addr:country": "US", "name": "Madera at Country Club Dr", "website": "https://99only.com/stores/madera-country-club-dr-191", "opening_hours": "Mo-Su 07:00-23:00"}, "geometry": {"type": "Point", "coordinates": [-120.072458, 36.978278]}},
{"type": "Feature", "id": "MPgFzNzkAXJv9TghsomNa2Htnk4=", "properties": {"ref": "399", "@spider": "99centsonly", "addr:full": "8437 Laurel Canyon Blvd", "addr:city": "Sun Valley", "addr:state": "CA", "addr:postcode": "91352", "addr:country": "US", "name": "Sun Valley at Laurel Canyon Blvd", "website": "https://99only.com/stores/sun-valley-laurel-canyon-blvd-399", "opening_hours": "Mo-Su 07:00-22:00"}, "geometry": {"type": "Point", "coordinates": [-118.398149, 34.22429]}},
{"type": "Feature", "id": "3UYD7nRC45ZL9NSxgdvwYwnr5-Y=", "properties": {"ref": "402", "@spider": "99centsonly", "addr:full": "1304 Hwy 46", "addr:city": "Wasco", "addr:state": "CA", "addr:postcode": "93280", "addr:country": "US", "name": "Wasco at Hwy 46", "website": "https://99only.com/stores/wasco-hwy-46-402", "opening_hours": "Mo-Su 07:00-22:00"}, "geometry": {"type": "Point", "coordinates": [-119.34155, 35.60218]}},
{"type": "Feature", "id": "DiJbsWZQDYqNpKob6KF45az_06Q=", "properties": {"ref": "356", "@spider": "99centsonly", "addr:full": "1003 N. Waterman Ave.", "addr:city": "San Bernardino", "addr:state": "CA", "addr:postcode": "92410", "addr:country": "US", "name": "San Bernardino at Waterman Ave", "website": "https://99only.com/stores/san-bernardino-waterman-ave-356", "opening_hours": "Mo-Su 07:00-22:00"}, "geometry": {"type": "Point", "coordinates": [-117.276944, 34.117926]}},
{"type": "Feature", "id": "ALO2D_HaKQHGJlSKIbQ30dT5hLc=", "properties": {"ref": "7", "@spider": "99centsonly", "addr:full": "442 N. Los Robles", "addr:city": "Pasadena", "addr:state": "CA", "addr:postcode": "91101", "addr:country": "US", "name": "Pasadena at Los Robles Ave", "website": "https://99only.com/stores/pasadena-los-robles-ave-7", "opening_hours": "Mo-Su 07:00-22:00"}, "geometry": {"type": "Point", "coordinates": [-118.14069, 34.153418]}},
{"type": "Feature", "id": "sjFkh7zm7YcC-G4dXKPNPtF7iCs=", "properties": {"ref": "422", "@spider": "99centsonly", "addr:full": "13237 Gladstone Ave", "addr:city": "Sylmar", "addr:state": "CA", "addr:postcode": "91342", "addr:country": "US", "name": "Sylmar at Gladstone Ave", "website": "https://99only.com/stores/sylmar-gladstone-ave-422", "opening_hours": "Mo-Su 07:00-23:00"}, "geometry": {"type": "Point", "coordinates": [-118.429678, 34.311298]}},
{"type": "Feature", "id": "Iu0nHHgo2pdDlDnC3vlfVU3xvy4=", "properties": {"ref": "2881", "@spider": "99centsonly", "addr:full": "216 FM 1960", "addr:city": "Humble", "addr:state": "TX", "addr:postcode": "77338", "addr:country": "US", "name": "Humble at FM 1960", "website": "https://99only.com/stores/humble-fm-1960-2881", "opening_hours": "Mo-Su 07:00-23:00"}, "geometry": {"type": "Point", "coordinates": [-95.265717, 30.002986]}},
{"type": "Feature", "id": "BS4yTWgMZgdzxeAkUWh_RVAnGFQ=", "properties": {"ref": "129", "@spider": "99centsonly", "addr:full": "2682 Mt. Vernon Ave", "addr:city": "Bakersfield", "addr:state": "CA", "addr:postcode": "93306", "addr:country": "US", "name": "Bakersfield at Mt. Vernon Ave", "website": "https://99only.com/stores/bakersfield-mt-vernon-ave-129", "opening_hours": "Mo-Su 07:00-22:00"}, "geometry": {"type": "Point", "coordinates": [-118.968872, 35.396231]}},
{"type": "Feature", "id": "usQUJGbBg0BwztlMrCxv7k34FPA=", "properties": {"ref": "352", "@spider": "99centsonly", "addr:full": "4440 Florin Rd", "addr:city": "Sacramento", "addr:state": "CA", "addr:postcode": "95823", "addr:country": "US", "name": "Sacramento at Florin Rd", "website": "https://99only.com/stores/sacramento-florin-rd-352", "opening_hours": "Mo-Su 07:00-23:00"}, "geometry": {"type": "Point", "coordinates": [-121.452954, 38.494989]}},
{"type": "Feature", "id": "TjXhPGBbiNhY0pYg5ql5gL4hQhc=", "properties": {"ref": "306", "@spider": "99centsonly", "addr:full": "750 N. Gilbert Rd.", "addr:city": "Gilbert", "addr:state": "AZ", "addr:postcode": "85233", "addr:country": "US", "name": "Gilbert at Gilbert Rd", "website": "https://99only.com/stores/gilbert-gilbert-rd-306", "opening_hours": "Mo-Su 07:00-22:00"}, "geometry": {"type": "Point", "coordinates": [-111.792175, 33.363394]}},
{"type": "Feature", "id": "w41kDdmp6iHjb0uoQZiysxi2IGc=", "properties": {"ref": "408", "@spider": "99centsonly", "addr:full": "385 N. Escondido Blvd", "addr:city": "Escondido", "addr:state": "CA", "addr:postcode": "92025", "addr:country": "US", "name": "Escondido at N. Escondido Blvd", "website": "https://99only.com/stores/escondido-n-escondido-blvd-408", "opening_hours": "Mo-Su 07:00-23:00"}, "geometry": {"type": "Point", "coordinates": [-117.087278, 33.122075]}},
{"type": "Feature", "id": "fqCD9jfTzhNDXUJH3bm56q5GyWA=", "properties": {"ref": "105", "@spider": "99centsonly", "addr:full": "45 North Nellis Blvd", "addr:city": "Las Vegas", "addr:state": "NV", "addr:postcode": "89110", "addr:country": "US", "name": "Las Vegas at North Nellis Blvd", "website": "https://99only.com/stores/las-vegas-north-nellis-blvd-105", "opening_hours": "Mo-Su 07:00-23:00"}, "geometry": {"type": "Point", "coordinates": [-115.063471, 36.16062]}},
{"type": "Feature", "id": "34_5lgS-ALBrWOPlrt_OcGuZ24s=", "properties": {"ref": "148", "@spider": "99centsonly", "addr:full": "5200 Moreno St", "addr:city": "Montclair", "addr:state": "CA", "addr:postcode": "91763", "addr:country": "US", "name": "Montclair at Moreno St", "website": "https://99only.com/stores/montclair-moreno-st-148", "opening_hours": "Mo-Su 07:00-22:00"}, "geometry": {"type": "Point", "coordinates": [-117.69198, 34.089872]}},
{"type": "Feature", "id": "0Pv4Qe0VAhJatiMHKokw69Sbg0Q=", "properties": {"ref": "293", "@spider": "99centsonly", "addr:full": "2320 Fletcher Pkwy", "addr:city": "El Cajon", "addr:state": "CA", "addr:postcode": "92020", "addr:country": "US", "name": "El Cajon at Fletcher Pkwy", "website": "https://99only.com/stores/el-cajon-fletcher-pkwy-293", "opening_hours": "Mo-Su 07:00-22:00"}, "geometry": {"type": "Point", "coordinates": [-116.996347, 32.803192]}},
{"type": "Feature", "id": "O-JOkDGLRudoUsSKcLjEX6sI-rA=", "properties": {"ref": "157", "@spider": "99centsonly", "addr:full": "300 W. Kettleman Ln", "addr:city": "Lodi", "addr:state": "CA", "addr:postcode": "95240", "addr:country": "US", "name": "Lodi at Kettleman Ln", "website": "https://99only.com/stores/lodi-kettleman-ln-157", "opening_hours": "Mo-Su 07:00-23:00"}, "geometry": {"type": "Point", "coordinates": [-121.27745, 38.11441]}},
{"type": "Feature", "id": "N5GAfNM0eA6bb8ovJkPD4SLUfLk=", "properties": {"ref": "368", "@spider": "99centsonly", "addr:full": "3140 N. Stockton Hill Rd", "addr:city": "Kingman", "addr:state": "AZ", "addr:postcode": "86401", "addr:country": "US", "name": "Kingman at Stockton Hill Rd", "website": "https://99only.com/stores/kingman-stockton-hill-rd-368", "opening_hours": "Mo-Su 07:00-22:00"}, "geometry": {"type": "Point", "coordinates": [-114.034233, 35.215235]}},
{"type": "Feature", "id": "Hlw-reoX7lczUGJRlk3MU4J-vWQ=", "properties": {"ref": "414", "@spider": "99centsonly", "addr:full": "910 S. Euclid St", "addr:city": "Anaheim", "addr:state": "CA", "addr:postcode": "92802", "addr:country": "US", "name": "Anaheim at Euclid St", "website": "https://99only.com/stores/anaheim-euclid-st-414", "opening_hours": "Mo-Su 07:00-22:00"}, "geometry": {"type": "Point", "coordinates": [-117.940774, 33.819353]}},
{"type": "Feature", "id": "MHfieq8JZJmfFS319gfw-gW8u18=", "properties": {"ref": "326", "@spider": "99centsonly", "addr:full": "38360-B 20th St E", "addr:city": "Palmdale", "addr:state": "CA", "addr:postcode": "93550", "addr:country": "US", "name": "Palmdale at 20th St E", "website": "https://99only.com/stores/palmdale-20th-st-e-326", "opening_hours": "Mo-Su 07:00-22:00"}, "geometry": {"type": "Point", "coordinates": [-118.092194, 34.57922]}},
{"type": "Feature", "id": "hHc4zBc5CBc9ofultrOB4TJUgt8=", "properties": {"ref": "82", "@spider": "99centsonly", "addr:full": "606 E. Holt Ave", "addr:city": "Pomona", "addr:state": "CA", "addr:postcode": "91767", "addr:country": "US", "name": "Pomona at Holt Ave", "website": "https://99only.com/stores/pomona-holt-ave-82", "opening_hours": "Mo-Su 07:00-22:00"}, "geometry": {"type": "Point", "coordinates": [-117.738984, 34.061998]}},
{"type": "Feature", "id": "tPgu9PR2EspoHCXK9rUJwH_4JIo=", "properties": {"ref": "146", "@spider": "99centsonly", "addr:full": "1501 White Ln", "addr:city": "Bakersfield", "addr:state": "CA", "addr:postcode": "93307", "addr:country": "US", "name": "Bakersfield at White Ln", "website": "https://99only.com/stores/bakersfield-white-ln-146", "opening_hours": "Mo-Su 07:00-22:00"}, "geometry": {"type": "Point", "coordinates": [-119.019583, 35.316596]}},
{"type": "Feature", "id": "CS0vJ4oMaLdpix65CrQuzOOyKrY=", "properties": {"ref": "141", "@spider": "99centsonly", "addr:full": "12431 Valley View St", "addr:city": "Garden Grove", "addr:state": "CA", "addr:postcode": "92845", "addr:country": "US", "name": "Garden Grove at Valley View St", "website": "https://99only.com/stores/garden-grove-valley-view-st-141", "opening_hours": "Mo-Su 07:00-22:00"}, "geometry": {"type": "Point", "coordinates": [-118.030812, 33.781619]}},
{"type": "Feature", "id": "4_sdZIcVtxhVRnvdPcn6R6Zor8s=", "properties": {"ref": "117", "@spider": "99centsonly", "addr:full": "1435 W. Craig Rd., Ste 3", "addr:city": "North Las Vegas", "addr:state": "NV", "addr:postcode": "89032", "addr:country": "US", "name": "North Las Vegas at Craig Rd.", "website": "https://99only.com/stores/north-las-vegas-craig-rd-117", "opening_hours": "Mo-Su 07:00-23:00"}, "geometry": {"type": "Point", "coordinates": [-115.161177, 36.237961]}},
{"type": "Feature", "id": "mII-IC99H2ogkr9g7VQcHt6HwOU=", "properties": {"ref": "2831", "@spider": "99centsonly", "addr:full": "1420 Loop 336", "addr:city": "Conroe", "addr:state": "TX", "addr:postcode": "77304", "addr:country": "US", "name": "Conroe at Loop 336", "website": "https://99only.com/stores/conroe-loop-336-2831", "opening_hours": "Mo-Su 07:00-22:00"}, "geometry": {"type": "Point", "coordinates": [-95.482146, 30.333766]}},
{"type": "Feature", "id": "D1FKYKok_DuSw3-32dtGUAVr9u4=", "properties": {"ref": "149", "@spider": "99centsonly", "addr:full": "12170 Central Ave", "addr:city": "Chino", "addr:state": "CA", "addr:postcode": "91710", "addr:country": "US", "name": "Chino at Central Ave", "website": "https://99only.com/stores/chino-central-ave-149", "opening_hours": "Mo-Su 07:00-22:00"}, "geometry": {"type": "Point", "coordinates": [-117.690884, 34.03221]}},
{"type": "Feature", "id": "C0XbTxAEDGknDPE7aDLSJEliu5U=", "properties": {"ref": "2850", "@spider": "99centsonly", "addr:full": "8330 Broadway St", "addr:city": "Houston", "addr:state": "TX", "addr:postcode": "77061", "addr:country": "US", "name": "Houston at Broadway St", "website": "https://99only.com/stores/houston-broadway-st-2850", "opening_hours": "Mo-Su 07:00-22:00"}, "geometry": {"type": "Point", "coordinates": [-95.277917, 29.670719]}},
{"type": "Feature", "id": "bjD8e1XeN-jemFaPVhbDJZa4-hU=", "properties": {"ref": "254", "@spider": "99centsonly", "addr:full": "19201 Bear Valley Rd", "addr:city": "Apple Valley", "addr:state": "CA", "addr:postcode": "92308", "addr:country": "US", "name": "Apple Valley at Bear Valley Rd", "website": "https://99only.com/stores/apple-valley-bear-valley-rd-254", "opening_hours": "Mo-Su 07:00-23:00"}, "geometry": {"type": "Point", "coordinates": [-117.244881, 34.469013]}},
{"type": "Feature", "id": "WPRzZGxjCFgndVMxePl0WQLFP7c=", "properties": {"ref": "213", "@spider": "99centsonly", "addr:full": "1425 S. Victoria Ave", "addr:city": "Ventura", "addr:state": "CA", "addr:postcode": "93003", "addr:country": "US", "name": "Ventura at Victoria Ave", "website": "https://99only.com/stores/ventura-victoria-ave-213", "opening_hours": "Mo-Su 07:00-23:00"}, "geometry": {"type": "Point", "coordinates": [-119.213194, 34.261944]}},
{"type": "Feature", "id": "04-r9MMfHYBgXJmMcR9iTHQmM6o=", "properties": {"ref": "120", "@spider": "99centsonly", "addr:full": "7239 Spring Mountain Rd", "addr:city": "Las Vegas", "addr:state": "NV", "addr:postcode": "89117", "addr:country": "US", "name": "Las Vegas at Spring Mountain Rd", "website": "https://99only.com/stores/las-vegas-spring-mountain-rd-120", "opening_hours": "Mo-Su 07:00-23:00"}, "geometry": {"type": "Point", "coordinates": [-115.250053, 36.125305]}},
{"type": "Feature", "id": "Dwd_pi9zfxiv57FYkj-QfqdYeFA=", "properties": {"ref": "2822", "@spider": "99centsonly", "addr:full": "1445 W. Buckingham Rd", "addr:city": "Garland", "addr:state": "TX", "addr:postcode": "75040", "addr:country": "US", "name": "Garland at Buckingham Rd", "website": "https://99only.com/stores/garland-buckingham-rd-2822", "opening_hours": "Mo-Su 07:00-23:00"}, "geometry": {"type": "Point", "coordinates": [-96.649983, 32.931647]}},
{"type": "Feature", "id": "Pe8TFxNlmi6uI4McQVn0i5PpLd8=", "properties": {"ref": "108", "@spider": "99centsonly", "addr:full": "3385 W. Florida Ave", "addr:city": "Hemet", "addr:state": "CA", "addr:postcode": "92545", "addr:country": "US", "name": "Hemet at Florida Ave", "website": "https://99only.com/stores/hemet-florida-ave-108", "opening_hours": "Mo-Su 07:00-23:00"}, "geometry": {"type": "Point", "coordinates": [-117.007862, 33.745735]}},
{"type": "Feature", "id": "zzdr0RnOUyRCUhGmJek8NCfvulg=", "properties": {"ref": "2837", "@spider": "99centsonly", "addr:full": "13444 Preston Rd.", "addr:city": "Dallas", "addr:state": "TX", "addr:postcode": "75240", "addr:country": "US", "name": "Dallas at Preston Rd", "website": "https://99only.com/stores/dallas-preston-rd-2837", "opening_hours": "Mo-Su 07:00-23:00"}, "geometry": {"type": "Point", "coordinates": [-96.80279, 32.931292]}},
{"type": "Feature", "id": "dVfFfB2JvtsD8Wj0E-yx3bof-ZQ=", "properties": {"ref": "279", "@spider": "99centsonly", "addr:full": "1035 E. Prosperity Ave", "addr:city": "Tulare", "addr:state": "CA", "addr:postcode": "93274", "addr:country": "US", "name": "Tulare at Prosperity Ave", "website": "https://99only.com/stores/tulare-prosperity-ave-279", "opening_hours": "Mo-Su 07:00-23:00"}, "geometry": {"type": "Point", "coordinates": [-119.331747, 36.224393]}},
{"type": "Feature", "id": "nFI-HhlU8gJj2TG1VteO6I1lUzg=", "properties": {"ref": "381", "@spider": "99centsonly", "addr:full": "4917 S Rose Ave", "addr:city": "Oxnard", "addr:state": "CA", "addr:postcode": "93033", "addr:country": "US", "name": "Oxnard at Rose Ave", "website": "https://99only.com/stores/oxnard-rose-ave-381", "opening_hours": "Mo-Su 07:00-23:00"}, "geometry": {"type": "Point", "coordinates": [-119.160547, 34.155835]}},
{"type": "Feature", "id": "pULPb-ufce3XFVSIHEmX6kU0hI8=", "properties": {"ref": "441", "@spider": "99centsonly", "addr:full": "1209 W Pacheco Blvd", "addr:city": "Los Ba\u00f1os", "addr:state": "CA", "addr:postcode": "93635", "addr:country": "US", "name": "Los Banos at Pacheco Blvd", "website": "https://99only.com/stores/los-banos-pacheco-blvd-441", "opening_hours": "Mo-Su 07:00-22:00"}, "geometry": {"type": "Point", "coordinates": [-120.871419, 37.056263]}},
{"type": "Feature", "id": "w3w1eCl-DwS8WxeFueWCTxxUshk=", "properties": {"ref": "92", "@spider": "99centsonly", "addr:full": "201 Lincoln Blvd.", "addr:city": "Venice", "addr:state": "CA", "addr:postcode": "90291", "addr:country": "US", "name": "Venice at Lincoln Blvd", "website": "https://99only.com/stores/venice-lincoln-blvd-92", "opening_hours": "Mo-Su 07:00-22:00"}, "geometry": {"type": "Point", "coordinates": [-118.469968, 34.001635]}},
{"type": "Feature", "id": "WabDGJ9GpcKfbGWdkAVmaTaQsKI=", "properties": {"ref": "49", "@spider": "99centsonly", "addr:full": "15962 Springdale St", "addr:city": "Huntington Beach", "addr:state": "CA", "addr:postcode": "92649", "addr:country": "US", "name": "Huntington Beach at Springdale St", "website": "https://99only.com/stores/huntington-beach-springdale-st-49", "opening_hours": "Mo-Su 07:00-23:00"}, "geometry": {"type": "Point", "coordinates": [-118.022462, 33.730778]}},
{"type": "Feature", "id": "NWPzfAQoBx-zZPfMK92mqRA3sQY=", "properties": {"ref": "270", "@spider": "99centsonly", "addr:full": "1915 W. San Carlos St", "addr:city": "San Jose", "addr:state": "CA", "addr:postcode": "95128", "addr:country": "US", "name": "San Jose at San Carlos St", "website": "https://99only.com/stores/san-jose-san-carlos-st-270", "opening_hours": "Mo-Su 07:00-23:00"}, "geometry": {"type": "Point", "coordinates": [-121.929144, 37.323665]}},
{"type": "Feature", "id": "dg0wtWqFEE6_LQUWO8Lakzc1xBg=", "properties": {"ref": "287", "@spider": "99centsonly", "addr:full": "2611 Market Street", "addr:city": "San Diego", "addr:state": "CA", "addr:postcode": "92102", "addr:country": "US", "name": "San Diego at Market St", "website": "https://99only.com/stores/san-diego-market-st-287", "opening_hours": "Mo-Su 07:00-22:00"}, "geometry": {"type": "Point", "coordinates": [-117.137591, 32.711305]}},
{"type": "Feature", "id": "Z4uqrJ6hGJ4wAxOAD4X5AvhhPvY=", "properties": {"ref": "344", "@spider": "99centsonly", "addr:full": "716 S Boulder Hwy", "addr:city": "Henderson", "addr:state": "NV", "addr:postcode": "89015", "addr:country": "US", "name": "Henderson at Boulder Hwy", "website": "https://99only.com/stores/henderson-boulder-hwy-344", "opening_hours": "Mo-Su 07:00-22:00"}, "geometry": {"type": "Point", "coordinates": [-114.96964, 36.03129]}},
{"type": "Feature", "id": "q5lf97pQ0C-EQ8Jo1KphzrP8xhM=", "properties": {"ref": "130", "@spider": "99centsonly", "addr:full": "10821 Long Beach Blvd.", "addr:city": "Lynwood", "addr:state": "CA", "addr:postcode": "90262", "addr:country": "US", "name": "Lynwood at Long Beach Blvd", "website": "https://99only.com/stores/lynwood-long-beach-blvd-130", "opening_hours": "Mo-Su 07:00-23:00"}, "geometry": {"type": "Point", "coordinates": [-118.213653, 33.934767]}},
{"type": "Feature", "id": "xse-WfVzMTkM3AEMO91NlhJ0bGo=", "properties": {"ref": "139", "@spider": "99centsonly", "addr:full": "1309 N. H St", "addr:city": "Lompoc", "addr:state": "CA", "addr:postcode": "93436", "addr:country": "US", "name": "Lompoc at North H St", "website": "https://99only.com/stores/lompoc-north-h-st-139", "opening_hours": "Mo-Su 07:00-23:00"}, "geometry": {"type": "Point", "coordinates": [-120.459052, 34.65901]}},
{"type": "Feature", "id": "S7BtCYd0LLXwb_U5R485WgLdSWg=", "properties": {"ref": "447", "@spider": "99centsonly", "addr:full": "1490 Railroad Ave.", "addr:city": "Livermore", "addr:state": "CA", "addr:postcode": "94550", "addr:country": "US", "name": "Livermore at Railroad Ave.", "website": "https://99only.com/stores/livermore-railroad-ave-447", "opening_hours": "Mo-Su 07:00-22:00"}, "geometry": {"type": "Point", "coordinates": [-121.7784946, 37.68133]}},
{"type": "Feature", "id": "S5bdvBnqDvf8_oguCLtlQdT_TRI=", "properties": {"ref": "443", "@spider": "99centsonly", "addr:full": "1030 3rd. Ave", "addr:city": "Chula Vista", "addr:state": "CA", "addr:postcode": "91911", "addr:country": "US", "name": "Chula Vista at 3rd. Ave", "website": "https://99only.com/stores/chula-vista-3rd-ave-443", "opening_hours": "Mo-Su 07:00-23:00"}, "geometry": {"type": "Point", "coordinates": [-117.071197, 32.615061]}},
{"type": "Feature", "id": "CbfqX2FDzDvFadCobO14ww2QDoQ=", "properties": {"ref": "218", "@spider": "99centsonly", "addr:full": "609 Beck Ave", "addr:city": "Fairfield", "addr:state": "CA", "addr:postcode": "94533", "addr:country": "US", "name": "Fairfield at Beck Ave", "website": "https://99only.com/stores/fairfield-beck-ave-218", "opening_hours": "Mo-Su 07:00-23:00"}, "geometry": {"type": "Point", "coordinates": [-122.066965, 38.248086]}},
{"type": "Feature", "id": "EK2W0k5XkYUGmI0CdKx3VGa1yrU=", "properties": {"ref": "217", "@spider": "99centsonly", "addr:full": "20882 Mission Blvd.", "addr:city": "Hayward", "addr:state": "CA", "addr:postcode": "94541", "addr:country": "US", "name": "Hayward at Mission Blvd", "website": "https://99only.com/stores/hayward-mission-blvd-217", "opening_hours": "Mo-Su 07:00-23:00"}, "geometry": {"type": "Point", "coordinates": [-122.098275, 37.684763]}},
{"type": "Feature", "id": "T7xWmHHbxmLjEkkfQUNj0_Qe7i4=", "properties": {"ref": "154", "@spider": "99centsonly", "addr:full": "6036 N. First St", "addr:city": "Fresno", "addr:state": "CA", "addr:postcode": "93710", "addr:country": "US", "name": "Fresno at First St", "website": "https://99only.com/stores/fresno-first-st-154", "opening_hours": "Mo-Su 07:00-23:00"}, "geometry": {"type": "Point", "coordinates": [-119.770657, 36.823812]}},
{"type": "Feature", "id": "miwuIQK3trvYcU5PXJn9ASltvt0=", "properties": {"ref": "374", "@spider": "99centsonly", "addr:full": "3835 Blue Diamond Rd.", "addr:city": "Las Vegas", "addr:state": "NV", "addr:postcode": "89139", "addr:country": "US", "name": "Las Vegas at Blue Diamond Rd", "website": "https://99only.com/stores/las-vegas-blue-diamond-rd-374", "opening_hours": "Mo-Su 07:00-23:00"}, "geometry": {"type": "Point", "coordinates": [-115.190943, 36.038649]}},
{"type": "Feature", "id": "PN-4A3xYquzHX1yya4WLUErhOW0=", "properties": {"ref": "35", "@spider": "99centsonly", "addr:full": "2801 Pico Blvd", "addr:city": "Santa Monica", "addr:state": "CA", "addr:postcode": "90405", "addr:country": "US", "name": "Santa Monica at Pico Blvd", "website": "https://99only.com/stores/santa-monica-pico-blvd-35", "opening_hours": "Mo-Su 07:00-22:00"}, "geometry": {"type": "Point", "coordinates": [-118.46042, 34.0245]}},
{"type": "Feature", "id": "OCNiLZYEmwVVsCFR7zktiyRHls0=", "properties": {"ref": "173", "@spider": "99centsonly", "addr:full": "1190 E. Carson St", "addr:city": "Long Beach", "addr:state": "CA", "addr:postcode": "90807", "addr:country": "US", "name": "Long Beach at Carson St", "website": "https://99only.com/stores/long-beach-carson-st-173", "opening_hours": "Mo-Su 07:00-22:00"}, "geometry": {"type": "Point", "coordinates": [-118.176937, 33.831905]}},
{"type": "Feature", "id": "Fqna39LFVWeFk_KXEoX6m5H6nDw=", "properties": {"ref": "282", "@spider": "99centsonly", "addr:full": "6018 S. Central Ave.", "addr:city": "Phoenix", "addr:state": "AZ", "addr:postcode": "85042", "addr:country": "US", "name": "Phoenix at Central Ave", "website": "https://99only.com/stores/phoenix-central-ave-282", "opening_hours": "Mo-Su 07:00-22:00"}, "geometry": {"type": "Point", "coordinates": [-112.07463, 33.39143]}},
{"type": "Feature", "id": "WYB3VIAzaeWLjIYWI3uyUK3iPeA=", "properties": {"ref": "98", "@spider": "99centsonly", "addr:full": "1720 E. Colorado Blvd", "addr:city": "Pasadena", "addr:state": "CA", "addr:postcode": "91106", "addr:country": "US", "name": "Pasadena at Colorado Blvd", "website": "https://99only.com/stores/pasadena-colorado-blvd-98", "opening_hours": "Mo-Su 07:00-22:00"}, "geometry": {"type": "Point", "coordinates": [-118.11508, 34.14586]}},
{"type": "Feature", "id": "LiWHGQzzXeEGJs3RBSgfYuoqG24=", "properties": {"ref": "190", "@spider": "99centsonly", "addr:full": "2611 Hilltop Dr", "addr:city": "Redding", "addr:state": "CA", "addr:postcode": "96002", "addr:country": "US", "name": "Redding at Hilltop Dr", "website": "https://99only.com/stores/redding-hilltop-dr-190", "opening_hours": "Mo-Su 07:00-23:00"}, "geometry": {"type": "Point", "coordinates": [-122.357542, 40.569628]}},
{"type": "Feature", "id": "-ILBm2wGAbB3A5Xd0cygGyJsQX4=", "properties": {"ref": "2883", "@spider": "99centsonly", "addr:full": "9333 Stella Link Rd", "addr:city": "Houston", "addr:state": "TX", "addr:postcode": "77025", "addr:country": "US", "name": "Houston at Stella Link Rd", "website": "https://99only.com/stores/houston-stella-link-rd-2883", "opening_hours": "Mo-Su 07:00-22:00"}, "geometry": {"type": "Point", "coordinates": [-95.43928, 29.68054]}},
{"type": "Feature", "id": "inO1mJYJvux9YYXufBl0dvH__N0=", "properties": {"ref": "2848", "@spider": "99centsonly", "addr:full": "5464 Walzem Rd, Suite 3 Suite 3", "addr:city": "San Antonio", "addr:state": "TX", "addr:postcode": "78218", "addr:country": "US", "name": "San Antonio at Walzem Rd", "website": "https://99only.com/stores/san-antonio-walzem-rd-2848", "opening_hours": "Mo-Su 07:00-23:00"}, "geometry": {"type": "Point", "coordinates": [-98.383315, 29.508844]}}]}