{"type":"FeatureCollection","features":[{"type": "Feature", "id": "XoP1Dtnd1DmBL5HEOl5MlQetxwY=", "properties": {"ref": "store-0265", "@spider": "academy", "addr:full": "2900 Memorial Parkway S.W.", "addr:city": "Huntsville", "addr:state": "alabama", "addr:postcode": "35801", "name": "Huntsville", "phone": "(256) 539-1133", "website": "https://www.academy.com/shop/storelocator/alabama/huntsville/store-0265", "opening_hours": "Mo-Th 08:00-22:00; Fr-Sa 08:00-23:00; Su 08:00-22:00", "brand": "Academy Sports + Outdoors", "brand:wikidata": "Q4671380"}, "geometry": {"type": "Point", "coordinates": [-86.5931887, 34.7061667]}},
{"type": "Feature", "id": "GnidD0ugOuV768hHL8bmvdzIf9c=", "properties": {"ref": "store-0162", "@spider": "academy", "addr:full": "2325 Bent Creek Road", "addr:city": "Auburn", "addr:state": "alabama", "addr:postcode": "36830", "name": "Auburn", "phone": "(334) 466-5500", "website": "https://www.academy.com/shop/storelocator/alabama/auburn/store-0162", "opening_hours": "Mo-Th 08:00-22:00; Fr-Sa 08:00-23:00; Su 08:00-22:00", "brand": "Academy Sports + Outdoors", "brand:wikidata": "Q4671380"}, "geometry": {"type": "Point", "coordinates": [-85.42689, 32.60258]}},
{"type": "Feature", "id": "x2OYDvxQnLwnvLHvoP4QAlV8qAU=", "properties": {"ref": "store-0161", "@spider": "academy", "addr:full": "601 George Wallace Dr.", "addr:city": "Gadsden", "addr:state": "alabama", "addr:postcode": "35903", "name": "Gadsden", "phone": "(256) 439-6260", "website": "https://www.academy.com/shop/storelocator/alabama/gadsden/store-0161", "opening_hours": "Mo-Th 08:00-22:00; Fr-Sa 08:00-23:00; Su 08:00-22:00", "brand": "Academy Sports + Outdoors", "brand:wikidata": "Q4671380"}, "geometry": {"type": "Point", "coordinates": [-85.9947, 34.001]}},
{"type": "Feature", "id": "PQtBqGhuroJLQeE9KmSrjUBkb1M=", "properties": {"ref": "store-0153", "@spider": "academy", "addr:full": "7460 Airport Blvd", "addr:city": "Mobile", "addr:state": "alabama", "addr:postcode": "36608", "name": "Mobile - Airport", "phone": "(251) 602-7700", "website": "https://www.academy.com/shop/storelocator/alabama/mobile/store-0153", "opening_hours": "Mo-Th 08:00-22:00; Fr-Sa 08:00-23:00; Su 08:00-22:00", "brand": "Academy Sports + Outdoors", "brand:wikidata": "Q4671380"}, "geometry": {"type": "Point", "coordinates": [-88.21834, 30.68833]}},
{"type": "Feature", "id": "TfNvS8pvvUQ_uygnqYgc01yB2XU=", "properties": {"ref": "store-0279", "@spider": "academy", "addr:full": "113 Cox Creek Parkway South", "addr:city": "Florence", "addr:state": "alabama", "addr:postcode": "35630", "name": "Florence", "phone": "(256) 768-7400", "website": "https://www.academy.com/shop/storelocator/alabama/florence/store-0279", "opening_hours": "Mo-Th 08:00-22:00; Fr-Sa 08:00-23:00; Su 08:00-22:00", "brand": "Academy Sports + Outdoors", "brand:wikidata": "Q4671380"}, "geometry": {"type": "Point", "coordinates": [-87.6299022, 34.8283479]}},
{"type": "Feature", "id": "iRkZJEvve7wqXsHJwV-YHT2NfM8=", "properties": {"ref": "store-0177", "@spider": "academy", "addr:full": "7506 Highway 72 West", "addr:city": "Madison", "addr:state": "alabama", "addr:postcode": "35758", "name": "Madison", "phone": "(256) 721-6440", "website": "https://www.academy.com/shop/storelocator/alabama/madison/store-0177", "opening_hours": "Mo-Th 08:00-22:00; Fr-Sa 08:00-23:00; Su 08:00-22:00", "brand": "Academy Sports + Outdoors", "brand:wikidata": "Q4671380"}, "geometry": {"type": "Point", "coordinates": [-86.730638, 34.757946]}},
{"type": "Feature", "id": "FweJIRVjjFtc3jeu7RP72E66xEI=", "properties": {"ref": "store-0242", "@spider": "academy", "addr:full": "2410 S McKenzie St", "addr:city": "Foley", "addr:state": "alabama", "addr:postcode": "36535", "name": "Foley - Orange Beach", "phone": "(251) 952-3434", "website": "https://www.academy.com/shop/storelocator/alabama/foley/store-0242", "opening_hours": "Mo-Th 08:00-22:00; Fr-Sa 08:00-23:00; Su 08:00-22:00", "brand": "Academy Sports + Outdoors", "brand:wikidata": "Q4671380"}, "geometry": {"type": "Point", "coordinates": [-87.6833146, 30.375285]}},
{"type": "Feature", "id": "QFIiAP4sB8Q-DOjCEnDRpsZPpLI=", "properties": {"ref": "store-0064", "@spider": "academy", "addr:full": "2810 John Hawkins Pkwy", "addr:city": "Hoover", "addr:state": "alabama", "addr:postcode": "35244", "name": "Hoover", "phone": "(205) 403-6145", "website": "https://www.academy.com/shop/storelocator/alabama/hoover/store-0064", "opening_hours": "Mo-Th 08:00-22:00; Fr-Sa 08:00-23:00; Su 08:00-22:00", "brand": "Academy Sports + Outdoors", "brand:wikidata": "Q4671380"}, "geometry": {"type": "Point", "coordinates": [-86.8249, 33.3645]}},
{"type": "Feature", "id": "TSZrqqkFhnwz8srPmbMpWeZDWag=", "properties": {"ref": "store-0164", "@spider": "academy", "addr:full": "1205 Wimberly Dr.", "addr:city": "Decatur", "addr:state": "alabama", "addr:postcode": "35603", "name": "Decatur", "phone": "(256) 340-7800", "website": "https://www.academy.com/shop/storelocator/alabama/decatur/store-0164", "opening_hours": "Mo-Th 08:00-22:00; Fr-Sa 08:00-23:00; Su 08:00-22:00", "brand": "Academy Sports + Outdoors", "brand:wikidata": "Q4671380"}, "geometry": {"type": "Point", "coordinates": [-87.00723, 34.55912]}},
{"type": "Feature", "id": "ydQexTsaQX57HphulECBGChJhX8=", "properties": {"ref": "store-0182", "@spider": "academy", "addr:full": "3950 Montgomery Hwy", "addr:city": "Dothan", "addr:state": "alabama", "addr:postcode": "36303", "name": "Dothan", "phone": "(334) 673-5700", "website": "https://www.academy.com/shop/storelocator/alabama/dothan/store-0182", "opening_hours": "Mo-Th 08:00-22:00; Fr-Sa 08:00-23:00; Su 08:00-22:00", "brand": "Academy Sports + Outdoors", "brand:wikidata": "Q4671380"}, "geometry": {"type": "Point", "coordinates": [-85.436177, 31.260913]}},
{"type": "Feature", "id": "-0FT5b8eD9sqiihLq2ThHhO4yeo=", "properties": {"ref": "store-0167", "@spider": "academy", "addr:full": "1557 Cotton Exchange", "addr:city": "Prattville", "addr:state": "alabama", "addr:postcode": "36066", "name": "Prattville", "phone": "(334) 290-6600", "website": "https://www.academy.com/shop/storelocator/alabama/prattville/store-0167", "opening_hours": "Mo-Th 08:00-22:00; Fr-Sa 08:00-23:00; Su 08:00-22:00", "brand": "Academy Sports + Outdoors", "brand:wikidata": "Q4671380"}, "geometry": {"type": "Point", "coordinates": [-86.4061, 32.4539]}},
{"type": "Feature", "id": "8TkL6MWLAglWFacRYSPJ8ZWEmps=", "properties": {"ref": "store-0163", "@spider": "academy", "addr:full": "8610 Eastchase Parkway", "addr:city": "Montgomery", "addr:state": "alabama", "addr:postcode": "36117", "name": "Montgomery", "phone": "(334) 215-2800", "website": "https://www.academy.com/shop/storelocator/alabama/montgomery/store-0163", "opening_hours": "Mo-Th 08:00-22:00; Fr-Sa 08:00-23:00; Su 08:00-22:00", "brand": "Academy Sports + Outdoors", "brand:wikidata": "Q4671380"}, "geometry": {"type": "Point", "coordinates": [-86.14601, 32.36493]}},
{"type": "Feature", "id": "suaI8LuH3eDIjHuPIbwswHo5nNQ=", "properties": {"ref": "store-0227", "@spider": "academy", "addr:full": "20790 I-30 North", "addr:city": "Benton", "addr:state": "arkansas", "addr:postcode": "72019", "name": "Benton", "phone": "(501) 776-5460", "website": "https://www.academy.com/shop/storelocator/arkansas/benton/store-0227", "opening_hours": "Mo-Th 08:00-22:00; Fr-Sa 08:00-23:00; Su 08:00-22:00", "brand": "Academy Sports + Outdoors", "brand:wikidata": "Q4671380"}, "geometry": {"type": "Point", "coordinates": [-92.5494723, 34.6001263]}},
{"type": "Feature", "id": "l1lctoPF9vNN2p9lGvBU3tjG9jw=", "properties": {"ref": "store-0229", "@spider": "academy", "addr:full": "1260 S. Amity Rd", "addr:city": "Conway", "addr:state": "arkansas", "addr:postcode": "72032", "name": "Conway", "phone": "(501) 513-4710", "website": "https://www.academy.com/shop/storelocator/arkansas/conway/store-0229", "opening_hours": "Mo-Th 08:00-22:00; Fr-Sa 08:00-23:00; Su 08:00-22:00", "brand": "Academy Sports + Outdoors", "brand:wikidata": "Q4671380"}, "geometry": {"type": "Point", "coordinates": [-92.414567, 35.063797]}},
{"type": "Feature", "id": "Cv6A3-9Iy5XuxsMkXPcvJBKVUvM=", "properties": {"ref": "store-0065", "@spider": "academy", "addr:full": "3725 Airport Blvd", "addr:city": "Mobile", "addr:state": "alabama", "addr:postcode": "36608", "name": "Mobile - Festival Centre", "phone": "(251) 380-5340", "website": "https://www.academy.com/shop/storelocator/alabama/mobile/store-0065", "opening_hours": "Mo-Th 08:00-22:00; Fr-Sa 08:00-23:00; Su 08:00-22:00", "brand": "Academy Sports + Outdoors", "brand:wikidata": "Q4671380"}, "geometry": {"type": "Point", "coordinates": [-88.1355, 30.6757]}},
{"type": "Feature", "id": "Ey42J2mlBvnavXFJTA-C9hjz7us=", "properties": {"ref": "store-0136", "@spider": "academy", "addr:full": "237 Park Terrace Dr", "addr:city": "Columbia", "addr:state": "south carolina", "addr:postcode": "29212", "name": "Northwest Columbia", "phone": "(803) 749-5255", "website": "https://www.academy.com/shop/storelocator/south-carolina/columbia/store-0136", "opening_hours": "Mo-Th 08:00-22:00; Fr-Sa 08:00-23:00; Su 08:00-22:00", "brand": "Academy Sports + Outdoors", "brand:wikidata": "Q4671380"}, "geometry": {"type": "Point", "coordinates": [-81.154646, 34.071545]}},
{"type": "Feature", "id": "OHoMbtl1kTe9DEEbZZWQszxkYzA=", "properties": {"ref": "store-0160", "@spider": "academy", "addr:full": "710 Skyland Blvd", "addr:city": "Tuscaloosa", "addr:state": "alabama", "addr:postcode": "35405", "name": "Tuscaloosa", "phone": "(205) 391-6860", "website": "https://www.academy.com/shop/storelocator/alabama/tuscaloosa/store-0160", "opening_hours": "Mo-Th 08:00-22:00; Fr-Sa 08:00-23:00; Su 08:00-22:00", "brand": "Academy Sports + Outdoors", "brand:wikidata": "Q4671380"}, "geometry": {"type": "Point", "coordinates": [-87.5477, 33.1657]}},
{"type": "Feature", "id": "mu7AhzcBPyBZeV5HCXNbPYUleJs=", "properties": {"ref": "store-0142", "@spider": "academy", "addr:full": "145 Moss Grove Blvd.", "addr:city": "Knoxville", "addr:state": "tennessee", "addr:postcode": "37922", "name": "Knoxville", "phone": "(865) 357-3450", "website": "https://www.academy.com/shop/storelocator/tn/knoxville/store-0142", "opening_hours": "Mo-Th 08:00-22:00; Fr-Sa 08:00-23:00; Su 08:00-22:00", "brand": "Academy Sports + Outdoors", "brand:wikidata": "Q4671380"}, "geometry": {"type": "Point", "coordinates": [-84.0921, 35.9085]}},
{"type": "Feature", "id": "8mD-rO0JBVLQM2uwwWfg5PJwDFM=", "properties": {"ref": "store-0214", "@spider": "academy", "addr:full": "13401 Shelbyville Road, Suite 140", "addr:city": "Middletown", "addr:state": "kentucky", "addr:postcode": "40223", "name": "Middletown", "phone": "(502) 489-5770", "website": "https://www.academy.com/shop/storelocator/kentucky/middletown/store-0214", "opening_hours": "Mo-Th 08:00-22:00; Fr-Sa 08:00-23:00; Su 08:00-22:00", "brand": "Academy Sports + Outdoors", "brand:wikidata": "Q4671380"}, "geometry": {"type": "Point", "coordinates": [-85.5047431, 38.2421484]}},
{"type": "Feature", "id": "TrCwSAyiwKevj3Fb3K15GRlfMc8=", "properties": {"ref": "store-0287", "@spider": "academy", "addr:full": "5214 I-70 North Outer Rd", "addr:city": "St Peters", "addr:state": "missouri", "addr:postcode": "63376", "name": "St Peters", "phone": "(636) 278-7600", "website": "https://www.academy.com/shop/storelocator/missouri/st-peters/store-0287", "opening_hours": "Mo-Th 08:00-22:00; Fr-Sa 08:00-23:00; Su 08:00-22:00", "brand": "Academy Sports + Outdoors", "brand:wikidata": "Q4671380"}, "geometry": {"type": "Point", "coordinates": [-90.5956878662, 38.7923583984]}},
{"type": "Feature", "id": "aKytN1USZu-toApsnsAfo9iRWGU=", "properties": {"ref": "store-0181", "@spider": "academy", "addr:full": "7926 Giacosa Place", "addr:city": "Memphis", "addr:state": "tennessee", "addr:postcode": "38133", "name": "Cordova", "phone": "(901) 379-3000", "website": "https://www.academy.com/shop/storelocator/tn/memphis/store-0181", "opening_hours": "Mo-Th 08:00-22:00; Fr-Sa 08:00-23:00; Su 08:00-22:00", "brand": "Academy Sports + Outdoors", "brand:wikidata": "Q4671380"}, "geometry": {"type": "Point", "coordinates": [-89.7965029, 35.1970856]}},
{"type": "Feature", "id": "sqRO-TDxCUuePP3aRJ0s17guOfA=", "properties": {"ref": "store-0208", "@spider": "academy", "addr:full": "130 S. Hampton Pl.", "addr:city": "Clarksville", "addr:state": "tennessee", "addr:postcode": "37040", "name": "Clarksville", "phone": "(931) 645-7300", "website": "https://www.academy.com/shop/storelocator/tn/clarksville/store-0208", "opening_hours": "Mo-Th 08:00-22:00; Fr-Sa 08:00-23:00; Su 08:00-22:00", "brand": "Academy Sports + Outdoors", "brand:wikidata": "Q4671380"}, "geometry": {"type": "Point", "coordinates": [-87.2937726, 36.590307]}},
{"type": "Feature", "id": "ASghuC55qnwDftfheDAydDUK5nw=", "properties": {"ref": "store-0186", "@spider": "academy", "addr:full": "275 New Byhalia Rd.", "addr:city": "Collierville", "addr:state": "tennessee", "addr:postcode": "38017", "name": "Collierville", "phone": "(901) 850- 3650", "website": "https://www.academy.com/shop/storelocator/tn/collierville/store-0186", "opening_hours": "Mo-Th 08:00-22:00; Fr-Sa 08:00-23:00; Su 08:00-22:00", "brand": "Academy Sports + Outdoors", "brand:wikidata": "Q4671380"}, "geometry": {"type": "Point", "coordinates": [-89.69087, 35.04866]}},
{"type": "Feature", "id": "73FakN3ZnCvWvX0s7Y7AbwC3Q3g=", "properties": {"ref": "store-0255", "@spider": "academy", "addr:full": "1265 Interstate Dr", "addr:city": "Cookeville", "addr:state": "tennessee", "addr:postcode": "38501", "name": "Cookeville", "phone": "(931) 650-6112", "website": "https://www.academy.com/shop/storelocator/tn/cookeville/store-0255", "opening_hours": "Mo-Th 08:00-22:00; Fr-Sa 08:00-23:00; Su 08:00-22:00", "brand": "Academy Sports + Outdoors", "brand:wikidata": "Q4671380"}, "geometry": {"type": "Point", "coordinates": [-85.5102829, 36.1381394]}},
{"type": "Feature", "id": "WMeJ4L7gx14Igw3WtxVde3ef6UQ=", "properties": {"ref": "store-0090", "@spider": "academy", "addr:full": "1915 Mallory Ln", "addr:city": "Franklin", "addr:state": "tennessee", "addr:postcode": "37067", "name": "Franklin", "phone": "(615) 435-8341", "website": "https://www.academy.com/shop/storelocator/tennessee/franklin/store-0090", "opening_hours": "Mo-Th 08:00-22:00; Fr-Sa 08:00-23:00; Su 08:00-22:00", "brand": "Academy Sports + Outdoors", "brand:wikidata": "Q4671380"}, "geometry": {"type": "Point", "coordinates": [-86.8168, 35.9564]}},
{"type": "Feature", "id": "TTmoA-TPOttpAB5NYM2tThKV_Ac=", "properties": {"ref": "store-0092", "@spider": "academy", "addr:full": "2220 Hamilton Place Blvd, Suite 150", "addr:city": "Chattanooga", "addr:state": "tennessee", "addr:postcode": "37421", "name": "Chattanooga", "phone": "(423) 490-2300", "website": "https://www.academy.com/shop/storelocator/tennessee/chattanooga/store-0092", "opening_hours": "Mo-Th 08:00-22:00; Fr-Sa 08:00-23:00; Su 08:00-22:00", "brand": "Academy Sports + Outdoors", "brand:wikidata": "Q4671380"}, "geometry": {"type": "Point", "coordinates": [-85.155, 35.0407]}},
{"type": "Feature", "id": "iEFiHzKF7sZM4gQGAnTpiSUvvQI=", "properties": {"ref": "store-0028", "@spider": "academy", "addr:full": "5929 Highway 153", "addr:city": "Hixson", "addr:state": "tennessee", "addr:postcode": "37343", "name": "Hixson", "phone": "(423) 870-7930", "website": "https://www.academy.com/shop/storelocator/tennessee/hixson/store-0028", "opening_hours": "Mo-Th 08:00-22:00; Fr-Sa 08:00-23:00; Su 08:00-22:00", "brand": "Academy Sports + Outdoors", "brand:wikidata": "Q4671380"}, "geometry": {"type": "Point", "coordinates": [-85.2467, 35.1743]}},
{"type": "Feature", "id": "1ofiguCbzNanmE50ZPq-Hu1fHm0=", "properties": {"ref": "store-0273", "@spider": "academy", "addr:full": "193 Stonebrook Place", "addr:city": "Jackson", "addr:state": "tennessee", "addr:postcode": "38305", "name": "Jackson", "phone": "(731) 512-4000", "website": "https://www.academy.com/shop/storelocator/tennessee/jackson/store-0273", "opening_hours": "Mo-Th 08:00-22:00; Fr-Sa 08:00-23:00; Su 08:00-22:00", "brand": "Academy Sports + Outdoors", "brand:wikidata": "Q4671380"}, "geometry": {"type": "Point", "coordinates": [-88.8570406, 35.6822836]}},
{"type": "Feature", "id": "4v_fEt51Uxy3cGJOZb-JM5C7nDQ=", "properties": {"ref": "store-0123", "@spider": "academy", "addr:full": "1104 C-Bar Ranch Trail", "addr:city": "Cedar Park", "addr:state": "texas", "addr:postcode": "78613", "name": "Cedar Park", "phone": "(512) 259-6200", "website": "https://www.academy.com/shop/storelocator/texas/cedar-park/store-0123", "opening_hours": "Mo-Th 08:00-22:00; Fr-Sa 08:00-23:00; Su 08:00-22:00", "brand": "Academy Sports + Outdoors", "brand:wikidata": "Q4671380"}, "geometry": {"type": "Point", "coordinates": [-97.809644, 30.527606]}},
{"type": "Feature", "id": "ndE_HfcJlpIP_nkLwdR51i2ecp8=", "properties": {"ref": "store-0029", "@spider": "academy", "addr:full": "5001 South Padre Island Dr", "addr:city": "Corpus Christi", "addr:state": "texas", "addr:postcode": "78411", "name": "Corpus Christi", "phone": "(361) 986-7200", "website": "https://www.academy.com/shop/storelocator/texas/corpus-christi/store-0029", "opening_hours": "Mo-Th 08:00-22:00; Fr-Sa 08:00-23:00; Su 08:00-22:00", "brand": "Academy Sports + Outdoors", "brand:wikidata": "Q4671380"}, "geometry": {"type": "Point", "coordinates": [-97.3837, 27.7133]}},
{"type": "Feature", "id": "NnnkZLUp00lLnIT6InNicxnFXQY=", "properties": {"ref": "store-0020", "@spider": "academy", "addr:full": "2511 Earl Rudder Freeway", "addr:city": "College Station", "addr:state": "texas", "addr:postcode": "77845", "name": "College Station", "phone": "(979) 680-5040", "website": "https://www.academy.com/shop/storelocator/texas/college-station/store-0020", "opening_hours": "Mo-Th 08:00-22:00; Fr-Sa 08:00-23:00; Su 08:00-22:00", "brand": "Academy Sports + Outdoors", "brand:wikidata": "Q4671380"}, "geometry": {"type": "Point", "coordinates": [-96.2926887, 30.6135833]}},
{"type": "Feature", "id": "yNEy_0RHRQhFz6KMAaXKiLGHKCU=", "properties": {"ref": "store-0122", "@spider": "academy", "addr:full": "3621 Justin Rd", "addr:city": "Flower Mound", "addr:state": "texas", "addr:postcode": "75028", "name": "Flower Mound", "phone": "(214) 513-6110", "website": "https://www.academy.com/shop/storelocator/texas/flower-mound/store-0122", "opening_hours": "Mo-Th 08:00-22:00; Fr-Sa 08:00-23:00; Su 08:00-22:00", "brand": "Academy Sports + Outdoors", "brand:wikidata": "Q4671380"}, "geometry": {"type": "Point", "coordinates": [-97.08627, 33.069403]}},
{"type": "Feature", "id": "9H2Gp1eh90L3OnjaShC5F1_lNkA=", "properties": {"ref": "store-0038", "@spider": "academy", "addr:full": "1414 Loop 336 West", "addr:city": "Conroe", "addr:state": "texas", "addr:postcode": "77304", "name": "Conroe", "phone": "(936) 523-4500", "website": "https://www.academy.com/shop/storelocator/texas/conroe/store-0038", "opening_hours": "Mo-Th 08:00-22:00; Fr-Sa 08:00-23:00; Su 08:00-22:00", "brand": "Academy Sports + Outdoors", "brand:wikidata": "Q4671380"}, "geometry": {"type": "Point", "coordinates": [-95.4802, 30.3335]}},
{"type": "Feature", "id": "4UlsxM93iZH0T5ujWVYGfBWuMHc=", "properties": {"ref": "store-0141", "@spider": "academy", "addr:full": "5836 N Tarrant Pkwy", "addr:city": "Fort Worth", "addr:state": "texas", "addr:postcode": "76137", "name": "Keller", "phone": "(817) 605-4000 ", "website": "https://www.academy.com/shop/storelocator/texas/fort-worth/store-0141", "opening_hours": "Mo-Th 08:00-22:00; Fr-Sa 08:00-23:00; Su 08:00-22:00", "brand": "Academy Sports + Outdoors", "brand:wikidata": "Q4671380"}, "geometry": {"type": "Point", "coordinates": [-97.2616, 32.8942]}},
{"type": "Feature", "id": "6zLvEQQpXtclzHhBel8rKbRs_qY=", "properties": {"ref": "store-0114", "@spider": "academy", "addr:full": "2500 E. Central Expressway", "addr:city": "Killeen", "addr:state": "texas", "addr:postcode": "76543", "name": "Killeen", "phone": "(254) 501-6800", "website": "https://www.academy.com/shop/storelocator/texas/killeen/store-0114", "opening_hours": "Mo-Th 08:00-22:00; Fr-Sa 08:00-23:00; Su 08:00-22:00", "brand": "Academy Sports + Outdoors", "brand:wikidata": "Q4671380"}, "geometry": {"type": "Point", "coordinates": [-97.716, 31.087]}},
{"type": "Feature", "id": "o-qfY1ND9Wtcn2MzEVoGbR3RsZ4=", "properties": {"ref": "store-0079", "@spider": "academy", "addr:full": "3305 Dallas Pkwy, Suite 301", "addr:city": "Plano", "addr:state": "texas", "addr:postcode": "75093", "name": "Northwest Plano", "phone": "(972) 473-6400", "website": "https://www.academy.com/shop/storelocator/texas/plano/store-0079", "opening_hours": "Mo-Th 08:00-22:00; Fr-Sa 08:00-23:00; Su 08:00-22:00", "brand": "Academy Sports + Outdoors", "brand:wikidata": "Q4671380"}, "geometry": {"type": "Point", "coordinates": [-96.83, 33.0456]}},
{"type": "Feature", "id": "PwaZ63h6J1gTCJCs10bhUHTUl9o=", "properties": {"ref": "store-0082", "@spider": "academy", "addr:full": "2428 South Stemmons Frwy", "addr:city": "Lewisville", "addr:state": "texas", "addr:postcode": "75067", "name": "Lewisville", "phone": "(972) 316-5200", "website": "https://www.academy.com/shop/storelocator/texas/lewisville/store-0082", "opening_hours": "Mo-Th 08:00-22:00; Fr-Sa 08:00-23:00; Su 08:00-22:00", "brand": "Academy Sports + Outdoors", "brand:wikidata": "Q4671380"}, "geometry": {"type": "Point", "coordinates": [-96.967, 33.0045]}},
{"type": "Feature", "id": "sOHhomoc_SZBzZDhbktIAcA9wmY=", "properties": {"ref": "store-0096", "@spider": "academy", "addr:full": "5300 W Wadley Ave", "addr:city": "Midland", "addr:state": "texas", "addr:postcode": "79707", "name": "Midland", "phone": "(432) 522-6000", "website": "https://www.academy.com/shop/storelocator/texas/midland/store-0096", "opening_hours": "Mo-Th 08:00-22:00; Fr-Sa 08:00-23:00; Su 08:00-22:00", "brand": "Academy Sports + Outdoors", "brand:wikidata": "Q4671380"}, "geometry": {"type": "Point", "coordinates": [-102.156, 32.0123]}},
{"type": "Feature", "id": "12hbVJ5iw-VtQ2pJ9Pjk80hGXCI=", "properties": {"ref": "store-0033", "@spider": "academy", "addr:full": "23155 Katy Freeway", "addr:city": "Katy", "addr:state": "texas", "addr:postcode": "77450", "name": "Grand Parkway", "phone": "(281) 693-8200", "website": "https://www.academy.com/shop/storelocator/texas/katy/store-0033", "opening_hours": "Mo-Th 08:00-22:00; Fr-Sa 08:00-23:00; Su 08:00-22:00", "brand": "Academy Sports + Outdoors", "brand:wikidata": "Q4671380"}, "geometry": {"type": "Point", "coordinates": [-95.7725, 29.7846]}},
{"type": "Feature", "id": "MpoSoq0xDaWLAtBshoy-uC0j9pc=", "properties": {"ref": "store-0131", "@spider": "academy", "addr:full": "3901 Expressway 83", "addr:city": "Mcallen", "addr:state": "texas", "addr:postcode": "78501", "name": "McAllen", "phone": "(956) 217-7600", "website": "https://www.academy.com/shop/storelocator/texas/mcallen/store-0131", "opening_hours": "Mo-Th 08:00-22:00; Fr-Sa 08:00-23:00; Su 08:00-22:00", "brand": "Academy Sports + Outdoors", "brand:wikidata": "Q4671380"}, "geometry": {"type": "Point", "coordinates": [-98.2664, 26.1954]}},
{"type": "Feature", "id": "Xk_U4aijUyjGwmnvxbJr1w1p5Po=", "properties": {"ref": "store-0240", "@spider": "academy", "addr:full": "9210 Hwy 6", "addr:city": "Missouri City", "addr:state": "texas", "addr:postcode": "77459", "name": "Missouri City", "phone": "(281) 778-2281", "website": "https://www.academy.com/shop/storelocator/texas/missouri-city/store-0240", "opening_hours": "Mo-Th 08:00-22:00; Fr-Sa 08:00-23:00; Su 08:00-22:00", "brand": "Academy Sports + Outdoors", "brand:wikidata": "Q4671380"}, "geometry": {"type": "Point", "coordinates": [-95.531208, 29.538258]}},
{"type": "Feature", "id": "rJugwmR_DNZ5F_aqd-NbtUQznYQ=", "properties": {"ref": "store-0042", "@spider": "academy", "addr:full": "714 W. Loop 1604 N", "addr:city": "San Antonio", "addr:state": "texas", "addr:postcode": "78251", "name": "West San Antonio - Potranco", "phone": "(210) 767-4200", "website": "https://www.academy.com/shop/storelocator/texas/san-antonio/store-0042", "opening_hours": "Mo-Th 08:00-22:00; Fr-Sa 08:00-23:00; Su 08:00-22:00", "brand": "Academy Sports + Outdoors", "brand:wikidata": "Q4671380"}, "geometry": {"type": "Point", "coordinates": [-98.709063, 29.436701]}},
{"type": "Feature", "id": "r_qnAV_5pFw_Pq7KDpNSbEw4-PM=", "properties": {"ref": "store-0040", "@spider": "academy", "addr:full": "7903 S IH 35", "addr:city": "San Antonio", "addr:state": "texas", "addr:postcode": "78224", "name": "Southwest San Antonio", "phone": "(210) 921-5900", "website": "https://www.academy.com/shop/storelocator/texas/san-antonio/store-0040", "opening_hours": "Mo-Th 08:00-22:00; Fr-Sa 08:00-23:00; Su 08:00-22:00", "brand": "Academy Sports + Outdoors", "brand:wikidata": "Q4671380"}, "geometry": {"type": "Point", "coordinates": [-98.5382377, 29.3482078]}},
{"type": "Feature", "id": "V_uy4C5myGzOgBIPDDX2tCLmpxU=", "properties": {"ref": "store-0032", "@spider": "academy", "addr:full": "21351 Gulf Freeway", "addr:city": "Webster", "addr:state": "texas", "addr:postcode": "77598", "name": "Webster", "phone": "(281) 557-5900", "website": "https://www.academy.com/shop/storelocator/texas/webster/store-0032", "opening_hours": "Mo-Th 08:00-22:00; Fr-Sa 08:00-23:00; Su 08:00-22:00", "brand": "Academy Sports + Outdoors", "brand:wikidata": "Q4671380"}, "geometry": {"type": "Point", "coordinates": [-95.1226, 29.5196]}},
{"type": "Feature", "id": "m_c9_PedDlJF4WLLACsrmUHTGh8=", "properties": {"ref": "store-0138", "@spider": "academy", "addr:full": "3939 US HWY 75 North", "addr:city": "Sherman", "addr:state": "texas", "addr:postcode": "75090", "name": "Sherman", "phone": "(903) 813-3860", "website": "https://www.academy.com/shop/storelocator/texas/sherman/store-0138", "opening_hours": "Mo-Th 08:00-22:00; Fr-Sa 08:00-23:00; Su 08:00-22:00", "brand": "Academy Sports + Outdoors", "brand:wikidata": "Q4671380"}, "geometry": {"type": "Point", "coordinates": [-96.6068, 33.6807]}},
{"type": "Feature", "id": "6B8coCcDxMvM1VW7PfL6npe-C2A=", "properties": {"ref": "store-0250", "@spider": "academy", "addr:full": "11650 Bandera Rd, Suite 107", "addr:city": "San Antonio", "addr:state": "texas", "addr:postcode": "78250", "name": "NW San Antonio - Bandera", "phone": "(210) 767-4030", "website": "https://www.academy.com/shop/storelocator/texas/san-antonio/store-0250", "opening_hours": "Mo-Th 08:00-22:00; Fr-Sa 08:00-23:00; Su 08:00-22:00", "brand": "Academy Sports + Outdoors", "brand:wikidata": "Q4671380"}, "geometry": {"type": "Point", "coordinates": [-98.663917, 29.5531748]}},
{"type": "Feature", "id": "6TyWeqQA1iFZdKoCfgE-5yv2gqI=", "properties": {"ref": "store-0069", "@spider": "academy", "addr:full": "445 Forest Square St", "addr:city": "Longview", "addr:state": "texas", "addr:postcode": "75605", "name": "Longview", "phone": "(903) 757-1300", "website": "https://www.academy.com/shop/storelocator/texas/longview/store-0069", "opening_hours": "Mo-Th 08:00-22:00; Fr-Sa 08:00-23:00; Su 08:00-22:00", "brand": "Academy Sports + Outdoors", "brand:wikidata": "Q4671380"}, "geometry": {"type": "Point", "coordinates": [-94.7556, 32.5383]}},
{"type": "Feature", "id": "8uF58QLrtypTh58HLTvtMct9DBY=", "properties": {"ref": "store-0106", "@spider": "academy", "addr:full": "535 E. Expressway 83", "addr:city": "Weslaco", "addr:state": "texas", "addr:postcode": "78596", "name": "Weslaco", "phone": "(956) 447-5533", "website": "https://www.academy.com/shop/storelocator/texas/weslaco/store-0106", "opening_hours": "Mo-Th 08:00-22:00; Fr-Sa 08:00-23:00; Su 08:00-22:00", "brand": "Academy Sports + Outdoors", "brand:wikidata": "Q4671380"}, "geometry": {"type": "Point", "coordinates": [-97.98649, 26.1733]}},
{"type": "Feature", "id": "9CLf4tEjgojecpkZJ_yPS9gABCo=", "properties": {"ref": "store-0048", "@spider": "academy", "addr:full": "8668 South Broadway Ave.", "addr:city": "Tyler", "addr:state": "texas", "addr:postcode": "75703", "name": "Tyler", "phone": "(903) 266-3100", "website": "https://www.academy.com/shop/storelocator/texas/tyler/store-0048", "opening_hours": "Mo-Th 08:00-22:00; Fr-Sa 08:00-23:00; Su 08:00-22:00", "brand": "Academy Sports + Outdoors", "brand:wikidata": "Q4671380"}, "geometry": {"type": "Point", "coordinates": [-95.307442, 32.265012]}},
{"type": "Feature", "id": "tuHClDzRAWl2SlIMQ6vDdumF-Qk=", "properties": {"ref": "store-0283", "@spider": "academy", "addr:full": "326 W Interstate 20 Frontage Road", "addr:city": "Weatherford", "addr:state": "texas", "addr:postcode": "76086", "name": "Weatherford", "phone": "(817) 599-1960", "website": "https://www.academy.com/shop/storelocator/texas/weatherford/store-0283", "opening_hours": "Mo-Th 08:00-22:00; Fr-Sa 08:00-23:00; Su 08:00-22:00", "brand": "Academy Sports + Outdoors", "brand:wikidata": "Q4671380"}, "geometry": {"type": "Point", "coordinates": [-97.799305, 32.72802]}},
{"type": "Feature", "id": "2J37ecbxsEFPQszcV9_KtKZ8tTs=", "properties": {"ref": "store-0024", "@spider": "academy", "addr:full": "210 North New Road", "addr:city": "Waco", "addr:state": "texas", "addr:postcode": "76710", "name": "Waco", "phone": "(254) 399-2410", "website": "https://www.academy.com/shop/storelocator/texas/waco/store-0024", "opening_hours": "Mo-Th 08:00-22:00; Fr-Sa 08:00-23:00; Su 08:00-22:00", "brand": "Academy Sports + Outdoors", "brand:wikidata": "Q4671380"}, "geometry": {"type": "Point", "coordinates": [-97.1711, 31.5232]}},
{"type": "Feature", "id": "UCiyXXVoldGfMMujfl-9dOgp0b4=", "properties": {"ref": "store-0039", "@spider": "academy", "addr:full": "7523 N.W. Loop 410", "addr:city": "San Antonio", "addr:state": "texas", "addr:postcode": "78245", "name": "NW San Antonio - Military", "phone": "(210) 257-4850", "website": "https://www.academy.com/shop/storelocator/texas/san-antonio/store-0039", "opening_hours": "Mo-Th 08:00-22:00; Fr-Sa 08:00-23:00; Su 08:00-22:00", "brand": "Academy Sports + Outdoors", "brand:wikidata": "Q4671380"}, "geometry": {"type": "Point", "coordinates": [-98.6373, 29.4449]}},
{"type": "Feature", "id": "hIbhcqi6cbD4qPNtjhtgDBWcf40=", "properties": {"ref": "store-0247", "@spider": "academy", "addr:full": "1650 N. Hwy 77", "addr:city": "Waxahachie", "addr:state": "texas", "addr:postcode": "75165", "name": "Waxahachie", "phone": "(972) 923-4520", "website": "https://www.academy.com/shop/storelocator/texas/waxahachie/store-0247", "opening_hours": "Mo-Th 08:00-22:00; Fr-Sa 08:00-23:00; Su 08:00-22:00", "brand": "Academy Sports + Outdoors", "brand:wikidata": "Q4671380"}, "geometry": {"type": "Point", "coordinates": [-96.8385527, 32.4301714]}},
{"type": "Feature", "id": "lagPF0mzG9p4yPJlo85ZxPrcjnI=", "properties": {"ref": "store-0102", "@spider": "academy", "addr:full": "1101 Walton Dr", "addr:city": "Texarkana", "addr:state": "texas", "addr:postcode": "75501", "name": "Texarkana", "phone": "(903) 831-2460", "website": "https://www.academy.com/shop/storelocator/texas/texarkana/store-0102", "opening_hours": "Mo-Th 08:00-22:00; Fr-Sa 08:00-23:00; Su 08:00-22:00", "brand": "Academy Sports + Outdoors", "brand:wikidata": "Q4671380"}, "geometry": {"type": "Point", "coordinates": [-94.0984, 33.4485]}},
{"type": "Feature", "id": "BG3wAN7Dt8OvJ7Giw-DbfBj8P4s=", "properties": {"ref": "store-0128", "@spider": "academy", "addr:full": "8903 N Navarro", "addr:city": "Victoria", "addr:state": "texas", "addr:postcode": "77904", "name": "Victoria", "phone": "(361) 582-5200", "website": "https://www.academy.com/shop/storelocator/texas/victoria/store-0128", "opening_hours": "Mo-Th 08:00-22:00; Fr-Sa 08:00-23:00; Su 08:00-22:00", "brand": "Academy Sports + Outdoors", "brand:wikidata": "Q4671380"}, "geometry": {"type": "Point", "coordinates": [-96.9981, 28.8754]}},
{"type": "Feature", "id": "MszsjD4S5K3vEpSInDz-A_fUo5c=", "properties": {"ref": "store-0324", "@spider": "academy", "addr:full": "580 American Way", "addr:city": "Terrell", "addr:state": "texas", "addr:postcode": "75160", "name": "Terrell", "phone": "(972) 703-6200", "website": "https://www.academy.com/shop/storelocator/texas/terrell/store-0324", "opening_hours": "Mo-Th 08:00-22:00; Fr-Sa 08:00-23:00; Su 08:00-22:00", "brand": "Academy Sports + Outdoors", "brand:wikidata": "Q4671380"}, "geometry": {"type": "Point", "coordinates": [-96.32556, 32.721038]}},
{"type": "Feature", "id": "WL1nH_W_D2uGvBgjSRW19NaYfpg=", "properties": {"ref": "store-0045", "@spider": "academy", "addr:full": "1407 Marlandwood Rd", "addr:city": "Temple", "addr:state": "texas", "addr:postcode": "76502", "name": "Temple", "phone": "(254) 742-7350", "website": "https://www.academy.com/shop/storelocator/texas/temple/store-0045", "opening_hours": "Mo-Th 08:00-22:00; Fr-Sa 08:00-23:00; Su 08:00-22:00", "brand": "Academy Sports + Outdoors", "brand:wikidata": "Q4671380"}, "geometry": {"type": "Point", "coordinates": [-97.3707, 31.0638]}},
{"type": "Feature", "id": "KieneGw7zQbjcZgg_Z32kkJxGZY=", "properties": {"ref": "store-0072", "@spider": "academy", "addr:full": "3201 Lawrence Road", "addr:city": "Wichita Falls", "addr:state": "texas", "addr:postcode": "76308", "name": "Wichita Falls", "phone": "(940) 235-3360", "website": "https://www.academy.com/shop/storelocator/texas/wichita-falls/store-0072", "opening_hours": "Mo-Th 08:00-22:00; Fr-Sa 08:00-23:00; Su 08:00-22:00", "brand": "Academy Sports + Outdoors", "brand:wikidata": "Q4671380"}, "geometry": {"type": "Point", "coordinates": [-98.5399, 33.8758]}},
{"type": "Feature", "id": "gGGhsblxvlONCmbZPHEKLrPAusU=", "properties": {"ref": "store-0031", "@spider": "academy", "addr:full": "14221 FM 2920", "addr:city": "Tomball", "addr:state": "texas", "addr:postcode": "77373", "name": "Tomball", "phone": "(281) 516-4100", "website": "https://www.academy.com/shop/storelocator/texas/tomball/store-0031", "opening_hours": "Mo-Th 08:00-22:00; Fr-Sa 08:00-23:00; Su 08:00-22:00", "brand": "Academy Sports + Outdoors", "brand:wikidata": "Q4671380"}, "geometry": {"type": "Point", "coordinates": [-95.634411, 30.08837]}},
{"type": "Feature", "id": "yXbsUS-Lqdy24FeeMMqHAtNwJWQ=", "properties": {"ref": "store-0176", "@spider": "academy", "addr:full": "1461 Spring Cypress Rd", "addr:city": "Spring", "addr:state": "texas", "addr:postcode": "77373", "name": "Spring", "phone": "(281) 465-2400", "website": "https://www.academy.com/shop/storelocator/texas/spring/store-0176", "opening_hours": "Mo-Th 08:00-22:00; Fr-Sa 08:00-23:00; Su 08:00-22:00", "brand": "Academy Sports + Outdoors", "brand:wikidata": "Q4671380"}, "geometry": {"type": "Point", "coordinates": [-95.433619, 30.0725019]}},
{"type": "Feature", "id": "8tLHhsfiQRLi2QpX8XiQPAUovsI=", "properties": {"ref": "store-0304", "@spider": "academy", "addr:full": "920 Steger Towne Rd", "addr:city": "Rockwall", "addr:state": "texas", "addr:postcode": "75032", "name": "Rockwall", "phone": "(972) 961-5140", "website": "https://www.academy.com/shop/storelocator/texas/rockwall/store-0304", "opening_hours": "Mo-Th 08:00-22:00; Fr-Sa 08:00-23:00; Su 08:00-22:00", "brand": "Academy Sports + Outdoors", "brand:wikidata": "Q4671380"}, "geometry": {"type": "Point", "coordinates": [-96.4706667, 32.8956]}},
{"type": "Feature", "id": "Eb-kSQtO2UAIt3NB1Sp9ptQ0uj0=", "properties": {"ref": "store-0277", "@spider": "academy", "addr:full": "21650 Kuykendahl Road", "addr:city": "Spring", "addr:state": "texas", "addr:postcode": "77388", "name": "West Spring", "phone": "(346) 831-6650", "website": "https://www.academy.com/shop/storelocator/texas/spring/store-0277", "opening_hours": "Mo-Th 08:00-22:00; Fr-Sa 08:00-23:00; Su 08:00-22:00", "brand": "Academy Sports + Outdoors", "brand:wikidata": "Q4671380"}, "geometry": {"type": "Point", "coordinates": [-95.5241567, 30.083859]}},
{"type": "Feature", "id": "VytzyntLYWPKL0D2A1tzWrShPSk=", "properties": {"ref": "store-0036", "@spider": "academy", "addr:full": "2727 Northeast Loop 410", "addr:city": "San Antonio", "addr:state": "texas", "addr:postcode": "78217", "name": "NE San Antonio - Perin Beitel", "phone": "(210) 871-2630", "website": "https://www.academy.com/shop/storelocator/texas/san-antonio/store-0036", "opening_hours": "Mo-Th 08:00-22:00; Fr-Sa 08:00-23:00; Su 08:00-22:00", "brand": "Academy Sports + Outdoors", "brand:wikidata": "Q4671380"}, "geometry": {"type": "Point", "coordinates": [-98.4089, 29.5163]}},
{"type": "Feature", "id": "YFYHy47lgSQfGsM4C5ktFlDBJt4=", "properties": {"ref": "store-0046", "@spider": "academy", "addr:full": "15350 IH-35 North", "addr:city": "Selma", "addr:state": "texas", "addr:postcode": "78154", "name": "Selma", "phone": "(210) 637-2600", "website": "https://www.academy.com/shop/storelocator/texas/selma/store-0046", "opening_hours": "Mo-Th 08:00-22:00; Fr-Sa 08:00-23:00; Su 08:00-22:00", "brand": "Academy Sports + Outdoors", "brand:wikidata": "Q4671380"}, "geometry": {"type": "Point", "coordinates": [-98.3162, 29.5789]}},
{"type": "Feature", "id": "ZVTzAGIx4gZJMWQbrIRhMmqMQqU=", "properties": {"ref": "store-0105", "@spider": "academy", "addr:full": "1360 Lake Woodlands Dr", "addr:city": "The Woodlands", "addr:state": "texas", "addr:postcode": "77380", "name": "The Woodlands", "phone": "(281) 298-4400", "website": "https://www.academy.com/shop/storelocator/texas/the-woodlands/store-0105", "opening_hours": "Mo-Th 08:00-22:00; Fr-Sa 08:00-23:00; Su 08:00-22:00", "brand": "Academy Sports + Outdoors", "brand:wikidata": "Q4671380"}, "geometry": {"type": "Point", "coordinates": [-95.4553, 30.16941]}},
{"type": "Feature", "id": "_2GGM9qcDVX-CcSx2sXRVvxyu5g=", "properties": {"ref": "store-0022", "@spider": "academy", "addr:full": "1351 IH-35 South", "addr:city": "Round Rock", "addr:state": "texas", "addr:postcode": "78664", "name": "Round Rock", "phone": "(512) 246-4600", "website": "https://www.academy.com/shop/storelocator/texas/round-rock/store-0022", "opening_hours": "Mo-Th 08:00-22:00; Fr-Sa 08:00-23:00; Su 08:00-22:00", "brand": "Academy Sports + Outdoors", "brand:wikidata": "Q4671380"}, "geometry": {"type": "Point", "coordinates": [-97.6774, 30.499]}},
{"type": "Feature", "id": "1T5mEDq9j1weZTo1V7sgbrtCQDI=", "properties": {"ref": "store-0012", "@spider": "academy", "addr:full": "16610 Southwest Frwy", "addr:city": "Sugar Land", "addr:state": "texas", "addr:postcode": "77479", "name": "Sugar Land", "phone": "(281) 276-7400", "website": "https://www.academy.com/shop/storelocator/texas/sugar-land/store-0012", "opening_hours": "Mo-Th 08:00-22:00; Fr-Sa 08:00-23:00; Su 08:00-22:00", "brand": "Academy Sports + Outdoors", "brand:wikidata": "Q4671380"}, "geometry": {"type": "Point", "coordinates": [-95.6353467, 29.5934673]}},
{"type": "Feature", "id": "N-5yRYweXvocWChk7WoEr7w4VNY=", "properties": {"ref": "store-0115", "@spider": "academy", "addr:full": "23801 Brazos Town Crossing", "addr:city": "Rosenberg", "addr:state": "texas", "addr:postcode": "77471", "name": "Rosenberg", "phone": "(832) 595-6700", "website": "https://www.academy.com/shop/storelocator/texas/rosenberg/store-0115", "opening_hours": "Mo-Th 08:00-22:00; Fr-Sa 08:00-23:00; Su 08:00-22:00", "brand": "Academy Sports + Outdoors", "brand:wikidata": "Q4671380"}, "geometry": {"type": "Point", "coordinates": [-95.7490824, 29.5431]}},
{"type": "Feature", "id": "W8X1RDj0TIhx3YnTKz614z70Bfw=", "properties": {"ref": "store-0041", "@spider": "academy", "addr:full": "2024 North Loop 1604 East", "addr:city": "San Antonio", "addr:state": "texas", "addr:postcode": "78232", "name": "North San Antonio - Loop 1604", "phone": "(210) 507-4001", "website": "https://www.academy.com/shop/storelocator/texas/san-antonio/store-0041", "opening_hours": "Mo-Th 08:00-22:00; Fr-Sa 08:00-23:00; Su 08:00-22:00", "brand": "Academy Sports + Outdoors", "brand:wikidata": "Q4671380"}, "geometry": {"type": "Point", "coordinates": [-98.4592, 29.6063]}},
{"type": "Feature", "id": "OdBhHlMCfL1gNqx0Lc0FEYGmHrE=", "properties": {"ref": "store-0125", "@spider": "academy", "addr:full": "4071 North Loop 1604 West", "addr:city": "San Antonio", "addr:state": "texas", "addr:postcode": "78257", "name": "NW San Antonio - Shavano Park", "phone": "(210) 408-5400", "website": "https://www.academy.com/shop/storelocator/texas/san-antonio/store-0125", "opening_hours": "Mo-Th 08:00-22:00; Fr-Sa 08:00-23:00; Su 08:00-22:00", "brand": "Academy Sports + Outdoors", "brand:wikidata": "Q4671380"}, "geometry": {"type": "Point", "coordinates": [-98.5684, 29.59795]}},
{"type": "Feature", "id": "2m7pcO0bpfb4jfn9f8qeP9CDNQk=", "properties": {"ref": "store-0165", "@spider": "academy", "addr:full": "24970 FM 1093 Rd.", "addr:city": "Richmond", "addr:state": "texas", "addr:postcode": "77406", "name": "Cinco Ranch", "phone": "(281) 371-1700", "website": "https://www.academy.com/shop/storelocator/texas/richmond/store-0165", "opening_hours": "Mo-Th 08:00-22:00; Fr-Sa 08:00-23:00; Su 08:00-22:00", "brand": "Academy Sports + Outdoors", "brand:wikidata": "Q4671380"}, "geometry": {"type": "Point", "coordinates": [-95.81001, 29.70071]}},
{"type": "Feature", "id": "Z2Ci4WplyxDlodfCv91AhEzOKAA=", "properties": {"ref": "store-0014", "@spider": "academy", "addr:full": "8453 Memorial Blvd", "addr:city": "Port Arthur", "addr:state": "texas", "addr:postcode": "0", "name": "Port Arthur", "phone": "(409) 723-6800", "website": "https://www.academy.com/shop/storelocator/texas/port-arthur/store-0014", "opening_hours": "Mo-Th 08:00-22:00; Fr-Sa 08:00-23:00; Su 08:00-22:00", "brand": "Academy Sports + Outdoors", "brand:wikidata": "Q4671380"}, "geometry": {"type": "Point", "coordinates": [-93.9902, 29.943]}},
{"type": "Feature", "id": "-EsXsVAqC1BWTrSebqsM3-OQAPk=", "properties": {"ref": "store-0197", "@spider": "academy", "addr:full": "1900 US-181", "addr:city": "Portland", "addr:state": "texas", "addr:postcode": "78374", "name": "Portland", "phone": "(361) 777-4120", "website": "https://www.academy.com/shop/storelocator/texas/portland/store-0197", "opening_hours": "Mo-Th 08:00-22:00; Fr-Sa 08:00-23:00; Su 08:00-22:00", "brand": "Academy Sports + Outdoors", "brand:wikidata": "Q4671380"}, "geometry": {"type": "Point", "coordinates": [-97.3073052, 27.8940063]}},
{"type": "Feature", "id": "AhNiV09j3owPybWZCn0SyJUqn7E=", "properties": {"ref": "store-0047", "@spider": "academy", "addr:full": "2643 NW Loop 410", "addr:city": "San Antonio", "addr:state": "texas", "addr:postcode": "78230", "name": "NW San Antonio - Vance Jackson", "phone": "(210) 321-4600", "website": "https://www.academy.com/shop/storelocator/texas/san-antonio/store-0047", "opening_hours": "Mo-Th 08:00-22:00; Fr-Sa 08:00-23:00; Su 08:00-22:00", "brand": "Academy Sports + Outdoors", "brand:wikidata": "Q4671380"}, "geometry": {"type": "Point", "coordinates": [-98.536, 29.5117]}},
{"type": "Feature", "id": "q0JoEtHWuTJVpOVLRgfSGERcHw4=", "properties": {"ref": "store-0034", "@spider": "academy", "addr:full": "500 N. Jackson Rd.", "addr:city": "Pharr", "addr:state": "texas", "addr:postcode": "78577", "name": "Pharr", "phone": "(956) 283-3210", "website": "https://www.academy.com/shop/storelocator/texas/pharr/store-0034", "opening_hours": "Mo-Th 08:00-22:00; Fr-Sa 08:00-23:00; Su 08:00-22:00", "brand": "Academy Sports + Outdoors", "brand:wikidata": "Q4671380"}, "geometry": {"type": "Point", "coordinates": [-98.2015897, 26.2024978]}},
{"type": "Feature", "id": "XWG-rV34EgKS-7f05UXvqvsFYuc=", "properties": {"ref": "store-0013", "@spider": "academy", "addr:full": "2804 Business Center Dr.", "addr:city": "Pearland", "addr:state": "texas", "addr:postcode": "77584", "name": "West Pearland", "phone": "(713) 793-5000", "website": "https://www.academy.com/shop/storelocator/texas/pearland/store-0013", "opening_hours": "Mo-Th 08:00-22:00; Fr-Sa 08:00-23:00; Su 08:00-22:00", "brand": "Academy Sports + Outdoors", "brand:wikidata": "Q4671380"}, "geometry": {"type": "Point", "coordinates": [-95.3935, 29.5582]}},
{"type": "Feature", "id": "LC-olkN4ZW0Vp5xp4nyl6dEnpDU=", "properties": {"ref": "store-0270", "@spider": "academy", "addr:full": "2550 Pearland Pkwy Suite 100", "addr:city": "Pearland", "addr:state": "texas", "addr:postcode": "77581", "name": "East Pearland", "phone": "(281) 412-8020", "website": "https://www.academy.com/shop/storelocator/texas/pearland/store-0270", "opening_hours": "Mo-Th 08:00-22:00; Fr-Sa 08:00-23:00; Su 08:00-22:00", "brand": "Academy Sports + Outdoors", "brand:wikidata": "Q4671380"}, "geometry": {"type": "Point", "coordinates": [-95.260536, 29.56132]}},
{"type": "Feature", "id": "7mptz8OVZE98gY42Z0heQCPeBec=", "properties": {"ref": "store-0166", "@spider": "academy", "addr:full": "4627 E. Sam Houston Pkwy. S.", "addr:city": "Pasadena", "addr:state": "texas", "addr:postcode": "77505", "name": "Pasadena", "phone": "(713) 947-4000", "website": "https://www.academy.com/shop/storelocator/texas/pasadena/store-0166", "opening_hours": "Mo-Th 08:00-22:00; Fr-Sa 08:00-23:00; Su 08:00-22:00", "brand": "Academy Sports + Outdoors", "brand:wikidata": "Q4671380"}, "geometry": {"type": "Point", "coordinates": [-95.157845, 29.641487]}},
{"type": "Feature", "id": "vMYLsVnpZERKe7W0D1CBgziNjrM=", "properties": {"ref": "store-0121", "@spider": "academy", "addr:full": "550 Barnes Drive", "addr:city": "San Marcos", "addr:state": "texas", "addr:postcode": "78666", "name": "San Marcos", "phone": "(512) 558-5300", "website": "https://www.academy.com/shop/storelocator/texas/san-marcos/store-0121", "opening_hours": "Mo-Th 08:00-22:00; Fr-Sa 08:00-23:00; Su 08:00-22:00", "brand": "Academy Sports + Outdoors", "brand:wikidata": "Q4671380"}, "geometry": {"type": "Point", "coordinates": [-97.9695, 29.8435]}},
{"type": "Feature", "id": "ShYWvkXUNgu40pj3IJeij1on0zE=", "properties": {"ref": "store-0076", "@spider": "academy", "addr:full": "7441 NE Loop 820", "addr:city": "North Richland Hills", "addr:state": "texas", "addr:postcode": "76180", "name": "North Richland Hills", "phone": "(817) 514-3140", "website": "https://www.academy.com/shop/storelocator/texas/north-richland-hills/store-0076", "opening_hours": "Mo-Th 08:00-22:00; Fr-Sa 08:00-23:00; Su 08:00-22:00", "brand": "Academy Sports + Outdoors", "brand:wikidata": "Q4671380"}, "geometry": {"type": "Point", "coordinates": [-97.2222, 32.836]}},
{"type": "Feature", "id": "knCCWYZ9wdSQzOqjOFUY3zHHMvY=", "properties": {"ref": "store-0127", "@spider": "academy", "addr:full": "4351 Sunset Drive", "addr:city": "San Angelo", "addr:state": "texas", "addr:postcode": "76901", "name": "San Angelo", "phone": "(325) 223-6260", "website": "https://www.academy.com/shop/storelocator/texas/san-angelo/store-0127", "opening_hours": "Mo-Th 08:00-22:00; Fr-Sa 08:00-23:00; Su 08:00-22:00", "brand": "Academy Sports + Outdoors", "brand:wikidata": "Q4671380"}, "geometry": {"type": "Point", "coordinates": [-100.498, 31.4283]}},
{"type": "Feature", "id": "rkKcvDVZZVN4kbJMOzVD0Gg-l34=", "properties": {"ref": "store-0140", "@spider": "academy", "addr:full": "1720 West University Dr, Suite 200", "addr:city": "Mckinney", "addr:state": "texas", "addr:postcode": "75069", "name": "McKinney", "phone": "(469) 952-5700", "website": "https://www.academy.com/shop/storelocator/texas/mckinney/store-0140", "opening_hours": "Mo-Th 08:00-22:00; Fr-Sa 08:00-23:00; Su 08:00-22:00", "brand": "Academy Sports + Outdoors", "brand:wikidata": "Q4671380"}, "geometry": {"type": "Point", "coordinates": [-96.632103, 33.216667]}},
{"type": "Feature", "id": "ASx6e7JtQEd7XCV9RDNVOKUgPBU=", "properties": {"ref": "store-0080", "@spider": "academy", "addr:full": "1665 North Town East Blvd", "addr:city": "Mesquite", "addr:state": "texas", "addr:postcode": "75150", "name": "Mesquite", "phone": "(972) 682-3450", "website": "https://www.academy.com/shop/storelocator/texas/mesquite/store-0080", "opening_hours": "Mo-Th 08:00-22:00; Fr-Sa 08:00-23:00; Su 08:00-22:00", "brand": "Academy Sports + Outdoors", "brand:wikidata": "Q4671380"}, "geometry": {"type": "Point", "coordinates": [-96.6236, 32.8149]}},
{"type": "Feature", "id": "_a5kpjeHivJ6asytOtKzc5_tzC4=", "properties": {"ref": "store-0077", "@spider": "academy", "addr:full": "4045 N Central Expressway", "addr:city": "Plano", "addr:state": "texas", "addr:postcode": "75023", "name": "North Plano", "phone": "(972) 633-4100", "website": "https://www.academy.com/shop/storelocator/texas/plano/store-0077", "opening_hours": "Mo-Th 08:00-22:00; Fr-Sa 08:00-23:00; Su 08:00-22:00", "brand": "Academy Sports + Outdoors", "brand:wikidata": "Q4671380"}, "geometry": {"type": "Point", "coordinates": [-96.6999, 33.0488]}},
{"type": "Feature", "id": "8mfW9-v6E7YEbhanrj-RDblkMqk=", "properties": {"ref": "store-0268", "@spider": "academy", "addr:full": "11445 Quaker Ave", "addr:city": "Lubbock", "addr:state": "texas", "addr:postcode": "79423", "name": "Southwest Lubbock", "phone": "(806) 783-6800", "website": "https://www.academy.com/shop/storelocator/texas/lubbock/store-0268", "opening_hours": "Mo-Th 08:00-22:00; Fr-Sa 08:00-23:00; Su 08:00-22:00", "brand": "Academy Sports + Outdoors", "brand:wikidata": "Q4671380"}, "geometry": {"type": "Point", "coordinates": [-101.9071431, 33.4925974]}},
{"type": "Feature", "id": "mH8kF7h8pDG3IpDRCBjnxZJjj58=", "properties": {"ref": "store-0083", "@spider": "academy", "addr:full": "2912 Brentwood Dr", "addr:city": "Lufkin", "addr:state": "texas", "addr:postcode": "75901", "name": "Lufkin", "phone": "(936) 631-3700", "website": "https://www.academy.com/shop/storelocator/texas/lufkin/store-0083", "opening_hours": "Mo-Th 08:00-22:00; Fr-Sa 08:00-23:00; Su 08:00-22:00", "brand": "Academy Sports + Outdoors", "brand:wikidata": "Q4671380"}, "geometry": {"type": "Point", "coordinates": [-94.7271, 31.2975]}},
{"type": "Feature", "id": "8_4gRJ9ghwZ10SLucSWj9UHdcTU=", "properties": {"ref": "store-0100", "@spider": "academy", "addr:full": "6201 East Hwy 191", "addr:city": "Odessa", "addr:state": "texas", "addr:postcode": "79762", "name": "Odessa", "phone": "(432) 363-7240", "website": "https://www.academy.com/shop/storelocator/texas/odessa/store-0100", "opening_hours": "Mo-Th 08:00-22:00; Fr-Sa 08:00-23:00; Su 08:00-22:00", "brand": "Academy Sports + Outdoors", "brand:wikidata": "Q4671380"}, "geometry": {"type": "Point", "coordinates": [-102.3156, 31.8973]}},
{"type": "Feature", "id": "o9F2Ac0k9L4LKbtfBscsMdfF3Sg=", "properties": {"ref": "store-0044", "@spider": "academy", "addr:full": "120 Highway 332 West", "addr:city": "Lake Jackson", "addr:state": "texas", "addr:postcode": "77566", "name": "Lake Jackson", "phone": "(979) 373-5700", "website": "https://www.academy.com/shop/storelocator/texas/lake-jackson/store-0044", "opening_hours": "Mo-Th 08:00-22:00; Fr-Sa 08:00-23:00; Su 08:00-22:00", "brand": "Academy Sports + Outdoors", "brand:wikidata": "Q4671380"}, "geometry": {"type": "Point", "coordinates": [-95.4643, 29.0491]}},
{"type": "Feature", "id": "xqNnUqK-TtW-Ua_xG_DWSxQwvMU=", "properties": {"ref": "store-0294", "@spider": "academy", "addr:full": "1711 E Broad Street", "addr:city": "Mansfield", "addr:state": "texas", "addr:postcode": "76063", "name": "Mansfield", "phone": "(817) 779-5420", "website": "https://www.academy.com/shop/storelocator/texas/mansfield/store-0294", "opening_hours": "Mo-Th 08:00-22:00; Fr-Sa 08:00-23:00; Su 08:00-22:00", "brand": "Academy Sports + Outdoors", "brand:wikidata": "Q4671380"}, "geometry": {"type": "Point", "coordinates": [-97.1159156, 32.5695687]}},
{"type": "Feature", "id": "w7talbFaRTXSQLtTWqi2973ng5Y=", "properties": {"ref": "store-0120", "@spider": "academy", "addr:full": "10820 International Blvd.", "addr:city": "Laredo", "addr:state": "texas", "addr:postcode": "78045", "name": "North Laredo", "phone": "(956) 721-7500", "website": "https://www.academy.com/shop/storelocator/texas/laredo/store-0120", "opening_hours": "Mo-Th 08:00-22:00; Fr-Sa 08:00-23:00; Su 08:00-22:00", "brand": "Academy Sports + Outdoors", "brand:wikidata": "Q4671380"}, "geometry": {"type": "Point", "coordinates": [-99.466211, 27.616078]}},
{"type": "Feature", "id": "n5Sp8K6AXB0QQ9IMUQ0PmxhzRS0=", "properties": {"ref": "store-0266", "@spider": "academy", "addr:full": "21770 Market Place Dr", "addr:city": "New Caney", "addr:state": "texas", "addr:postcode": "77357", "name": "New Caney", "phone": "(281) 577-2300", "website": "https://www.academy.com/shop/storelocator/texas/new-caney/store-0266", "opening_hours": "Mo-Th 08:00-22:00; Fr-Sa 08:00-23:00; Su 08:00-22:00", "brand": "Academy Sports + Outdoors", "brand:wikidata": "Q4671380"}, "geometry": {"type": "Point", "coordinates": [-95.233085, 30.133296]}},
{"type": "Feature", "id": "lKhLTWt2EhtAdVlCHitnljNsM4I=", "properties": {"ref": "store-0321", "@spider": "academy", "addr:full": "19150 W. Bellfort Street", "addr:city": "Richmond", "addr:state": "texas", "addr:postcode": "77407", "name": "Aliana", "phone": "(832) 945-6788", "website": "https://www.academy.com/shop/storelocator/texas/richmond/store-0321", "opening_hours": "Mo-Th 08:00-22:00; Fr-Sa 08:00-23:00; Su 08:00-22:00", "brand": "Academy Sports + Outdoors", "brand:wikidata": "Q4671380"}, "geometry": {"type": "Point", "coordinates": [-95.715864, 29.663781]}},
{"type": "Feature", "id": "wltkrXK8XT1QhFYmdYlOCzJO0S8=", "properties": {"ref": "store-0073", "@spider": "academy", "addr:full": "5720 San Bernardo Ave.", "addr:city": "Laredo", "addr:state": "texas", "addr:postcode": "78041", "name": "Laredo", "phone": "(956) 523-8300", "website": "https://www.academy.com/shop/storelocator/texas/laredo/store-0073", "opening_hours": "Mo-Th 08:00-22:00; Fr-Sa 08:00-23:00; Su 08:00-22:00", "brand": "Academy Sports + Outdoors", "brand:wikidata": "Q4671380"}, "geometry": {"type": "Point", "coordinates": [-99.5046, 27.5558]}},
{"type": "Feature", "id": "9fP2VHYOdvEJHojlKxPu5_lx1BU=", "properties": {"ref": "store-0021", "@spider": "academy", "addr:full": "9470 FM 1960 Bypass", "addr:city": "Humble", "addr:state": "texas", "addr:postcode": "77338", "name": "Humble", "phone": "(281) 964-4760", "website": "https://www.academy.com/shop/storelocator/texas/humble/store-0021", "opening_hours": "Mo-Th 08:00-22:00; Fr-Sa 08:00-23:00; Su 08:00-22:00", "brand": "Academy Sports + Outdoors", "brand:wikidata": "Q4671380"}, "geometry": {"type": "Point", "coordinates": [-95.2749, 30.005]}},
{"type": "Feature", "id": "rzPOw-po0Ue9w-otXC7f9wraEQQ=", "properties": {"ref": "store-0049", "@spider": "academy", "addr:full": "5802 19th Street", "addr:city": "Lubbock", "addr:state": "texas", "addr:postcode": "79407", "name": "West Lubbock", "phone": "(806) 788-4820", "website": "https://www.academy.com/shop/storelocator/texas/lubbock/store-0049", "opening_hours": "Mo-Th 08:00-22:00; Fr-Sa 08:00-23:00; Su 08:00-22:00", "brand": "Academy Sports + Outdoors", "brand:wikidata": "Q4671380"}, "geometry": {"type": "Point", "coordinates": [-101.94, 33.5779]}},
{"type": "Feature", "id": "EIc3oYXZIrulYt_tKmbHEAjvGaM=", "properties": {"ref": "store-0035", "@spider": "academy", "addr:full": "11077 Northwest Frwy", "addr:city": "Houston", "addr:state": "texas", "addr:postcode": "77092", "name": "Northwest", "phone": "(713) 613-6300", "website": "https://www.academy.com/shop/storelocator/texas/houston/store-0035", "opening_hours": "Mo-Th 08:00-22:00; Fr-Sa 08:00-23:00; Su 08:00-22:00", "brand": "Academy Sports + Outdoors", "brand:wikidata": "Q4671380"}, "geometry": {"type": "Point", "coordinates": [-95.4702, 29.8188]}},
{"type": "Feature", "id": "hSLTTbw-fgok78YLy8SeZS4vA0Q=", "properties": {"ref": "store-0195", "@spider": "academy", "addr:full": "2320 Highway 6", "addr:city": "Houston", "addr:state": "texas", "addr:postcode": "77077", "name": "West Oaks", "phone": "(281) 556-3200", "website": "https://www.academy.com/shop/storelocator/texas/houston/store-0195", "opening_hours": "Mo-Th 08:00-22:00; Fr-Sa 08:00-23:00; Su 08:00-22:00", "brand": "Academy Sports + Outdoors", "brand:wikidata": "Q4671380"}, "geometry": {"type": "Point", "coordinates": [-95.646243, 29.739379]}},
{"type": "Feature", "id": "UlaiSXBLNJdFJZg5Betf6YSZ8fo=", "properties": {"ref": "store-0172", "@spider": "academy", "addr:full": "7650 FM 1960 W", "addr:city": "Houston", "addr:state": "texas", "addr:postcode": "77070", "name": "Willowbrook", "phone": "(281) 894-3700", "website": "https://www.academy.com/shop/storelocator/texas/houston/store-0172", "opening_hours": "Mo-Th 08:00-22:00; Fr-Sa 08:00-23:00; Su 08:00-22:00", "brand": "Academy Sports + Outdoors", "brand:wikidata": "Q4671380"}, "geometry": {"type": "Point", "coordinates": [-95.5428283, 29.9642098]}},
{"type": "Feature", "id": "mjCqmnjw-LtwPVyUwHAdjg45lfg=", "properties": {"ref": "store-0018", "@spider": "academy", "addr:full": "10375 North Frwy", "addr:city": "Houston", "addr:state": "texas", "addr:postcode": "77037", "name": "Aldine", "phone": "(281) 405-4300", "website": "https://www.academy.com/shop/storelocator/texas/houston/store-0018", "opening_hours": "Mo-Th 08:00-22:00; Fr-Sa 08:00-23:00; Su 08:00-22:00", "brand": "Academy Sports + Outdoors", "brand:wikidata": "Q4671380"}, "geometry": {"type": "Point", "coordinates": [-95.4137, 29.9166]}},
{"type": "Feature", "id": "uS7YgzyL0KknHfYdrLqHVigSBuM=", "properties": {"ref": "store-0116", "@spider": "academy", "addr:full": "7600 Westheimer", "addr:city": "Houston", "addr:state": "texas", "addr:postcode": "77063", "name": "Westheimer", "phone": "(713) 268-4300", "website": "https://www.academy.com/shop/storelocator/texas/houston/store-0116", "opening_hours": "Mo-Th 08:00-22:00; Fr-Sa 08:00-23:00; Su 08:00-22:00", "brand": "Academy Sports + Outdoors", "brand:wikidata": "Q4671380"}, "geometry": {"type": "Point", "coordinates": [-95.504, 29.7377]}},
{"type": "Feature", "id": "WG3jxKvsrd1O9qVL0Y4jxw6P-oo=", "properties": {"ref": "store-0213", "@spider": "academy", "addr:full": "281 IH-45 South", "addr:city": "Huntsville", "addr:state": "texas", "addr:postcode": "77340", "name": "Huntsville", "phone": "(936) 435-2500", "website": "https://www.academy.com/shop/storelocator/texas/huntsville/store-0213", "opening_hours": "Mo-Th 08:00-22:00; Fr-Sa 08:00-23:00; Su 08:00-22:00", "brand": "Academy Sports + Outdoors", "brand:wikidata": "Q4671380"}, "geometry": {"type": "Point", "coordinates": [-95.550777, 30.723526]}},
{"type": "Feature", "id": "YPtdVPQVNHpBJSfimhZNDiwilMw=", "properties": {"ref": "store-0267", "@spider": "academy", "addr:full": "3204 I-30", "addr:city": "Greenville", "addr:state": "texas", "addr:postcode": "75402", "name": "Greenville", "phone": "(903) 453-6460", "website": "https://www.academy.com/shop/storelocator/texas/greenville/store-0267", "opening_hours": "Mo-Th 08:00-22:00; Fr-Sa 08:00-23:00; Su 08:00-22:00", "brand": "Academy Sports + Outdoors", "brand:wikidata": "Q4671380"}, "geometry": {"type": "Point", "coordinates": [-96.1280891, 33.0449526]}},
{"type": "Feature", "id": "BrhnqhNpPsuQAcIg0XOLEtbnXas=", "properties": {"ref": "store-0019", "@spider": "academy", "addr:full": "2404 Southwest Frwy", "addr:city": "Houston", "addr:state": "texas", "addr:postcode": "77098", "name": "Kirby", "phone": "(713) 874-6020", "website": "https://www.academy.com/shop/storelocator/texas/houston/store-0019", "opening_hours": "Mo-Th 08:00-22:00; Fr-Sa 08:00-23:00; Su 08:00-22:00", "brand": "Academy Sports + Outdoors", "brand:wikidata": "Q4671380"}, "geometry": {"type": "Point", "coordinates": [-95.4162, 29.7311]}},
{"type": "Feature", "id": "Xx0MxKVNcOWUG3dTiWpluqE-9bs=", "properties": {"ref": "store-0319", "@spider": "academy", "addr:full": "1310 W University Ave", "addr:city": "Georgetown", "addr:state": "texas", "addr:postcode": "78628", "name": "Georgetown", "phone": "(737) 245-5300", "website": "https://www.academy.com/shop/storelocator/texas/georgetown/store-0319", "opening_hours": "Mo-Th 08:00-22:00; Fr-Sa 08:00-23:00; Su 08:00-22:00", "brand": "Academy Sports + Outdoors", "brand:wikidata": "Q4671380"}, "geometry": {"type": "Point", "coordinates": [-97.701848, 30.633976]}},
{"type": "Feature", "id": "OaNfPhYO1LZEQWyn9b4SN193q3w=", "properties": {"ref": "store-0016", "@spider": "academy", "addr:full": "10414 Gulf Frwy", "addr:city": "Houston", "addr:state": "texas", "addr:postcode": "77034", "name": "Edgebrook", "phone": "(713) 948-4100", "website": "https://www.academy.com/shop/storelocator/texas/houston/store-0016", "opening_hours": "Mo-Th 08:00-22:00; Fr-Sa 08:00-23:00; Su 08:00-22:00", "brand": "Academy Sports + Outdoors", "brand:wikidata": "Q4671380"}, "geometry": {"type": "Point", "coordinates": [-95.2447, 29.6419]}},
{"type": "Feature", "id": "BQy6xZcxWzygDTKv3bjpqfshgls=", "properties": {"ref": "store-0015", "@spider": "academy", "addr:full": "4523 Ft Crockett Blvd", "addr:city": "Galveston", "addr:state": "texas", "addr:postcode": "77550", "name": "Galveston", "phone": "(409) 941-6550", "website": "https://www.academy.com/shop/storelocator/texas/galveston/store-0015", "opening_hours": "Mo-Th 08:00-22:00; Fr-Sa 08:00-23:00; Su 08:00-22:00", "brand": "Academy Sports + Outdoors", "brand:wikidata": "Q4671380"}, "geometry": {"type": "Point", "coordinates": [-94.8113, 29.2761]}},
{"type": "Feature", "id": "woB2q8H1LZv0TcpPLsMXCEgvZzE=", "properties": {"ref": "store-0010", "@spider": "academy", "addr:full": "9734 Katy Freeway", "addr:city": "Houston", "addr:state": "texas", "addr:postcode": "77055", "name": "Bunker Hill", "phone": "(713) 827-6520", "website": "https://www.academy.com/shop/storelocator/texas/houston/store-0010", "opening_hours": "Mo-Th 08:00-22:00; Fr-Sa 08:00-23:00; Su 08:00-22:00", "brand": "Academy Sports + Outdoors", "brand:wikidata": "Q4671380"}, "geometry": {"type": "Point", "coordinates": [-95.5351, 29.7863]}},
{"type": "Feature", "id": "uGnHYK7L7pMs8zuN4sWEHCwEelU=", "properties": {"ref": "store-0081", "@spider": "academy", "addr:full": "1523 State Hwy 114 West", "addr:city": "Grapevine", "addr:state": "texas", "addr:postcode": "76051", "name": "Grapevine", "phone": "(817) 410-4200", "website": "https://www.academy.com/shop/storelocator/texas/grapevine/store-0081", "opening_hours": "Mo-Th 08:00-22:00; Fr-Sa 08:00-23:00; Su 08:00-22:00", "brand": "Academy Sports + Outdoors", "brand:wikidata": "Q4671380"}, "geometry": {"type": "Point", "coordinates": [-97.0949, 32.9314]}},
{"type": "Feature", "id": "y2ojGIE6yjWMzSgSynxvcLwal5M=", "properties": {"ref": "store-0126", "@spider": "academy", "addr:full": "4000 Preston Rd", "addr:city": "Frisco", "addr:state": "texas", "addr:postcode": "75035", "name": "Frisco", "phone": "(214) 436-5920", "website": "https://www.academy.com/shop/storelocator/tx/frisco/store-0126", "opening_hours": "Mo-Th 08:00-22:00; Fr-Sa 08:00-23:00; Su 08:00-22:00", "brand": "Academy Sports + Outdoors", "brand:wikidata": "Q4671380"}, "geometry": {"type": "Point", "coordinates": [-96.803278, 33.112711]}},
{"type": "Feature", "id": "FdQ2o-xM_EfN9R3msFfVZ8jaixc=", "properties": {"ref": "store-0009", "@spider": "academy", "addr:full": "13400 East Freeway", "addr:city": "Houston", "addr:state": "texas", "addr:postcode": "77015", "name": "Uvalde Rd", "phone": "(713) 445-4400", "website": "https://www.academy.com/shop/storelocator/texas/houston/store-0009", "opening_hours": "Mo-Th 08:00-22:00; Fr-Sa 08:00-23:00; Su 08:00-22:00", "brand": "Academy Sports + Outdoors", "brand:wikidata": "Q4671380"}, "geometry": {"type": "Point", "coordinates": [-95.186, 29.7698]}},
{"type": "Feature", "id": "ftnUYcWEi6vza7zEXgtJOVcLnEc=", "properties": {"ref": "store-0007", "@spider": "academy", "addr:full": "19720 Northwest Freeway", "addr:city": "Houston", "addr:state": "texas", "addr:postcode": "77065", "name": "Crossroads", "phone": "(281) 517-3800", "website": "https://www.academy.com/shop/storelocator/texas/houston/store-0007", "opening_hours": "Mo-Th 08:00-22:00; Fr-Sa 08:00-23:00; Su 08:00-22:00", "brand": "Academy Sports + Outdoors", "brand:wikidata": "Q4671380"}, "geometry": {"type": "Point", "coordinates": [-95.6152, 29.9164]}},
{"type": "Feature", "id": "G9ilYuWYi4APRzbvT_TEQtHweAY=", "properties": {"ref": "store-0074", "@spider": "academy", "addr:full": "6101 I-20", "addr:city": "Fort Worth", "addr:state": "texas", "addr:postcode": "76132", "name": "Southwest Fort Worth", "phone": "(817) 361-1240", "website": "https://www.academy.com/shop/storelocator/texas/fort-worth/store-0074", "opening_hours": "Mo-Th 08:00-22:00; Fr-Sa 08:00-23:00; Su 08:00-22:00", "brand": "Academy Sports + Outdoors", "brand:wikidata": "Q4671380"}, "geometry": {"type": "Point", "coordinates": [-97.4143, 32.6821]}},
{"type": "Feature", "id": "c7k34YgvaKsUsxNgutI8yLUnT-w=", "properties": {"ref": "store-0097", "@spider": "academy", "addr:full": "1701 South Cherry Ln", "addr:city": "Fort Worth", "addr:state": "texas", "addr:postcode": "76108", "name": "White Settlement", "phone": "(817) 935-2260", "website": "https://www.academy.com/shop/storelocator/texas/fort-worth/store-0097", "opening_hours": "Mo-Th 08:00-22:00; Fr-Sa 08:00-23:00; Su 08:00-22:00", "brand": "Academy Sports + Outdoors", "brand:wikidata": "Q4671380"}, "geometry": {"type": "Point", "coordinates": [-97.4518, 32.7416]}},
{"type": "Feature", "id": "ExLOwnerm5szqkIiw6i4cqOd5EQ=", "properties": {"ref": "store-0323", "@spider": "academy", "addr:full": "1725 US Hwy 380", "addr:city": "Frisco", "addr:state": "texas", "addr:postcode": "75033", "name": "North Frisco", "phone": "(469) 296-1076", "website": "https://www.academy.com/shop/storelocator/texas/frisco/store-0323", "opening_hours": "Mo-Th 08:00-22:00; Fr-Sa 08:00-23:00; Su 08:00-22:00", "brand": "Academy Sports + Outdoors", "brand:wikidata": "Q4671380"}, "geometry": {"type": "Point", "coordinates": [-96.875828, 33.217243]}},
{"type": "Feature", "id": "3w0eH6-z773ke30TDbOdP1tm6nI=", "properties": {"ref": "store-0129", "@spider": "academy", "addr:full": "801 S Mesa Hills Dr", "addr:city": "El Paso", "addr:state": "texas", "addr:postcode": "79912", "name": "Northwest El Paso", "phone": "(915) 842-1500", "website": "https://www.academy.com/shop/storelocator/texas/el-paso/store-0129", "opening_hours": "Mo-Th 08:00-22:00; Fr-Sa 08:00-23:00; Su 08:00-22:00", "brand": "Academy Sports + Outdoors", "brand:wikidata": "Q4671380"}, "geometry": {"type": "Point", "coordinates": [-106.541999, 31.8173]}},
{"type": "Feature", "id": "W8DiF7PJqfjkbZxMlMaVvCyIDVs=", "properties": {"ref": "store-0221", "@spider": "academy", "addr:full": "2083 N Veterans Blvd", "addr:city": "Eagle Pass", "addr:state": "texas", "addr:postcode": "78852", "name": "Eagle Pass", "phone": "(830) 758-8960", "website": "https://www.academy.com/shop/storelocator/texas/eagle-pass/store-0221", "opening_hours": "Mo-Th 08:00-22:00; Fr-Sa 08:00-23:00; Su 08:00-22:00", "brand": "Academy Sports + Outdoors", "brand:wikidata": "Q4671380"}, "geometry": {"type": "Point", "coordinates": [-100.480285, 28.732648]}},
{"type": "Feature", "id": "1bqtF1UrfLVdiVEkbSLKnLdvosM=", "properties": {"ref": "store-0078", "@spider": "academy", "addr:full": "6375 E. Northwest Highway", "addr:city": "Dallas", "addr:state": "texas", "addr:postcode": "75231", "name": "Dallas", "phone": "(469) 329-7901", "website": "https://www.academy.com/shop/storelocator/texas/dallas/store-0078", "opening_hours": "Mo-Th 08:00-22:00; Fr-Sa 08:00-23:00; Su 08:00-22:00", "brand": "Academy Sports + Outdoors", "brand:wikidata": "Q4671380"}, "geometry": {"type": "Point", "coordinates": [-96.7527049, 32.8579868]}},
{"type": "Feature", "id": "M-VvePQNs2KpqFL5d-jlFROn4S4=", "properties": {"ref": "store-0133", "@spider": "academy", "addr:full": "201 S Americas Ave", "addr:city": "El Paso", "addr:state": "texas", "addr:postcode": "79907", "name": "Southeast El Paso", "phone": "(915) 860-5800", "website": "https://www.academy.com/shop/storelocator/texas/el-paso/store-0133", "opening_hours": "Mo-Th 08:00-22:00; Fr-Sa 08:00-23:00; Su 08:00-22:00", "brand": "Academy Sports + Outdoors", "brand:wikidata": "Q4671380"}, "geometry": {"type": "Point", "coordinates": [-106.315635, 31.679284]}},
{"type": "Feature", "id": "Wi-3eNCUh9FTYFvbtIbTPIdQaGo=", "properties": {"ref": "store-0119", "@spider": "academy", "addr:full": "6425 Garth Rd.", "addr:city": "Baytown", "addr:state": "texas", "addr:postcode": "77521", "name": "Baytown", "phone": "(281) 421-5232", "website": "https://www.academy.com/shop/storelocator/texas/baytown/store-0119", "opening_hours": "Mo-Th 08:00-22:00; Fr-Sa 08:00-23:00; Su 08:00-22:00", "brand": "Academy Sports + Outdoors", "brand:wikidata": "Q4671380"}, "geometry": {"type": "Point", "coordinates": [-94.9814, 29.7963]}},
{"type": "Feature", "id": "UOXkM2lDIDp1HoSEpdNveqHCv8g=", "properties": {"ref": "store-0223", "@spider": "academy", "addr:full": "2600 W University Dr", "addr:city": "Denton", "addr:state": "texas", "addr:postcode": "76201", "name": "Denton", "phone": "(940) 483-4300", "website": "https://www.academy.com/shop/storelocator/texas/denton/store-0223", "opening_hours": "Mo-Th 08:00-22:00; Fr-Sa 08:00-23:00; Su 08:00-22:00", "brand": "Academy Sports + Outdoors", "brand:wikidata": "Q4671380"}, "geometry": {"type": "Point", "coordinates": [-97.1653715, 33.2299128]}},
{"type": "Feature", "id": "z_jJn-iE9mH7zSufXzKFq3JFZLQ=", "properties": {"ref": "store-0185", "@spider": "academy", "addr:full": "4920 N. Garland Ave", "addr:city": "Garland", "addr:state": "texas", "addr:postcode": "75040", "name": "Garland", "phone": "(972) 414-7600", "website": "https://www.academy.com/shop/storelocator/texas/garland/store-0185", "opening_hours": "Mo-Th 08:00-22:00; Fr-Sa 08:00-23:00; Su 08:00-22:00", "brand": "Academy Sports + Outdoors", "brand:wikidata": "Q4671380"}, "geometry": {"type": "Point", "coordinates": [-96.646775, 32.958864]}},
{"type": "Feature", "id": "ZsXu_LgVJj-4TJitZ4FKW7g1oIA=", "properties": {"ref": "store-0139", "@spider": "academy", "addr:full": "12700 South Frwy", "addr:city": "Fort Worth", "addr:state": "texas", "addr:postcode": "76028", "name": "Burleson", "phone": "(817) 426-7800", "website": "https://www.academy.com/shop/storelocator/texas/fort-worth/store-0139", "opening_hours": "Mo-Th 08:00-22:00; Fr-Sa 08:00-23:00; Su 08:00-22:00", "brand": "Academy Sports + Outdoors", "brand:wikidata": "Q4671380"}, "geometry": {"type": "Point", "coordinates": [-97.3197, 32.5734]}},
{"type": "Feature", "id": "FkGNzhBYR3Ki0xF5wML5LDhAeI0=", "properties": {"ref": "store-0025", "@spider": "academy", "addr:full": "801 East William Cannon Dr, #103", "addr:city": "Austin", "addr:state": "texas", "addr:postcode": "78745", "name": "William Cannon", "phone": "(512) 486-6000", "website": "https://www.academy.com/shop/storelocator/texas/austin/store-0025", "opening_hours": "Mo-Th 08:00-22:00; Fr-Sa 08:00-23:00; Su 08:00-22:00", "brand": "Academy Sports + Outdoors", "brand:wikidata": "Q4671380"}, "geometry": {"type": "Point", "coordinates": [-97.7719, 30.1909]}},
{"type": "Feature", "id": "MNc23ulUbEJrPVCDGbGtg4b-3ho=", "properties": {"ref": "store-0030", "@spider": "academy", "addr:full": "4305 Old Highway 77", "addr:city": "Brownsville", "addr:state": "texas", "addr:postcode": "78520", "name": "Brownsville", "phone": "(956) 554-6900", "website": "https://www.academy.com/shop/storelocator/texas/brownsville/store-0030", "opening_hours": "Mo-Th 08:00-22:00; Fr-Sa 08:00-23:00; Su 08:00-22:00", "brand": "Academy Sports + Outdoors", "brand:wikidata": "Q4671380"}, "geometry": {"type": "Point", "coordinates": [-97.5151, 25.9668]}},
{"type": "Feature", "id": "aMDruf9ofNK4itUte0mU2OAX-bA=", "properties": {"ref": "store-0026", "@spider": "academy", "addr:full": "7513 North Interstate Highway 35", "addr:city": "Austin", "addr:state": "texas", "addr:postcode": "78752", "name": "I35/St Johns", "phone": "(512) 407-6310", "website": "https://www.academy.com/shop/storelocator/texas/austin/store-0026", "opening_hours": "Mo-Th 08:00-22:00; Fr-Sa 08:00-23:00; Su 08:00-22:00", "brand": "Academy Sports + Outdoors", "brand:wikidata": "Q4671380"}, "geometry": {"type": "Point", "coordinates": [-97.6996, 30.3382]}},
{"type": "Feature", "id": "TqLayfzY12xDJtfwk0E56plnN5Y=", "properties": {"ref": "store-0239", "@spider": "academy", "addr:full": "28616 Highway 290", "addr:city": "Cypress", "addr:state": "texas", "addr:postcode": "77433", "name": "Fairfield", "phone": "(832) 773-6300", "website": "https://www.academy.com/shop/storelocator/texas/cypress/store-0239", "opening_hours": "Mo-Th 08:00-22:00; Fr-Sa 08:00-23:00; Su 08:00-22:00", "brand": "Academy Sports + Outdoors", "brand:wikidata": "Q4671380"}, "geometry": {"type": "Point", "coordinates": [-95.7504986, 29.9942437]}},
{"type": "Feature", "id": "Z5gpnBNTy6ZxDtE2v9fQcgXqgX0=", "properties": {"ref": "store-0037", "@spider": "academy", "addr:full": "7130 Eastex Frwy", "addr:city": "Beaumont", "addr:state": "texas", "addr:postcode": "77708", "name": "Beaumont", "phone": "(409) 895-4500", "website": "https://www.academy.com/shop/storelocator/texas/beaumont/store-0037", "opening_hours": "Mo-Th 08:00-22:00; Fr-Sa 08:00-23:00; Su 08:00-22:00", "brand": "Academy Sports + Outdoors", "brand:wikidata": "Q4671380"}, "geometry": {"type": "Point", "coordinates": [-94.1606, 30.1288]}},
{"type": "Feature", "id": "FGrNN17lwqK_kLhiFotRIjTWthY=", "properties": {"ref": "store-0130", "@spider": "academy", "addr:full": "651 East Trenton Road", "addr:city": "Edinburg", "addr:state": "texas", "addr:postcode": "78539", "name": "Edinburg", "phone": "(956) 316-2650", "website": "https://www.academy.com/shop/storelocator/texas/edinburg/store-0130", "opening_hours": "Mo-Th 08:00-22:00; Fr-Sa 08:00-23:00; Su 08:00-22:00", "brand": "Academy Sports + Outdoors", "brand:wikidata": "Q4671380"}, "geometry": {"type": "Point", "coordinates": [-98.166436, 26.261088]}},
{"type": "Feature", "id": "0yRkmefbi8SqoD2uaqBtRXhWsv8=", "properties": {"ref": "store-0027", "@spider": "academy", "addr:full": "12250 Research Blvd", "addr:city": "Austin", "addr:state": "texas", "addr:postcode": "78759", "name": "Research/Oak Knoll", "phone": "(512) 506-6000", "website": "https://www.academy.com/shop/storelocator/texas/austin/store-0027", "opening_hours": "Mo-Th 08:00-22:00; Fr-Sa 08:00-23:00; Su 08:00-22:00", "brand": "Academy Sports + Outdoors", "brand:wikidata": "Q4671380"}, "geometry": {"type": "Point", "coordinates": [-97.7552, 30.4268]}},
{"type": "Feature", "id": "1xjgEBUPoELYJkaGZqYGnpm7R20=", "properties": {"ref": "store-0071", "@spider": "academy", "addr:full": "4400 Soncy Rd", "addr:city": "Amarillo", "addr:state": "texas", "addr:postcode": "79119", "name": "Amarillo", "phone": "(806) 457-2460", "website": "https://www.academy.com/shop/storelocator/texas/amarillo/store-0071", "opening_hours": "Mo-Th 08:00-22:00; Fr-Sa 08:00-23:00; Su 08:00-22:00", "brand": "Academy Sports + Outdoors", "brand:wikidata": "Q4671380"}, "geometry": {"type": "Point", "coordinates": [-101.938, 35.163]}},
{"type": "Feature", "id": "1EL-Br9-_hzG9_HEL8jgYxZVBk8=", "properties": {"ref": "store-0158", "@spider": "academy", "addr:full": "1150 Genie Lane", "addr:city": "Smyrna", "addr:state": "tennessee", "addr:postcode": "37167", "name": "Smyrna", "phone": "(615) 220-5900", "website": "https://www.academy.com/shop/storelocator/tennessee/smyrna/store-0158", "opening_hours": "Mo-Th 08:00-22:00; Fr-Sa 08:00-23:00; Su 08:00-22:00", "brand": "Academy Sports + Outdoors", "brand:wikidata": "Q4671380"}, "geometry": {"type": "Point", "coordinates": [-86.55484, 35.98577]}},
{"type": "Feature", "id": "1B94okIPlQEagOYD_JcloOQTTSE=", "properties": {"ref": "store-0043", "@spider": "academy", "addr:full": "5400 Brodie Ln", "addr:city": "Austin", "addr:state": "texas", "addr:postcode": "78745", "name": "Brodie Lane", "phone": "(512) 891-4240", "website": "https://www.academy.com/shop/storelocator/texas/austin/store-0043", "opening_hours": "Mo-Th 08:00-22:00; Fr-Sa 08:00-23:00; Su 08:00-22:00", "brand": "Academy Sports + Outdoors", "brand:wikidata": "Q4671380"}, "geometry": {"type": "Point", "coordinates": [-97.821, 30.2305]}},
{"type": "Feature", "id": "0HzlsAt1FRWp8pIiY253cqB6jTY=", "properties": {"ref": "store-0075", "@spider": "academy", "addr:full": "1101 West Arbrook Blvd", "addr:city": "Arlington", "addr:state": "texas", "addr:postcode": "76015", "name": "Arlington", "phone": "(817) 375-3210", "website": "https://www.academy.com/shop/storelocator/texas/arlington/store-0075", "opening_hours": "Mo-Th 08:00-22:00; Fr-Sa 08:00-23:00; Su 08:00-22:00", "brand": "Academy Sports + Outdoors", "brand:wikidata": "Q4671380"}, "geometry": {"type": "Point", "coordinates": [-97.1239, 32.6824]}},
{"type": "Feature", "id": "AovO6x3dpkc9CvwVmRf_Cvp7RnA=", "properties": {"ref": "store-0226", "@spider": "academy", "addr:full": "749 Hwy 71 West", "addr:city": "Bastrop", "addr:state": "texas", "addr:postcode": "78602", "name": "Bastrop", "phone": "(512) 321-8200", "website": "https://www.academy.com/shop/storelocator/texas/bastrop/store-0226", "opening_hours": "Mo-Th 08:00-22:00; Fr-Sa 08:00-23:00; Su 08:00-22:00", "brand": "Academy Sports + Outdoors", "brand:wikidata": "Q4671380"}, "geometry": {"type": "Point", "coordinates": [-97.354193, 30.114335]}},
{"type": "Feature", "id": "0fEHNpQIsY3IkBmShx_MLQNlRbw=", "properties": {"ref": "store-0091", "@spider": "academy", "addr:full": "2350 Gallatin Pike North", "addr:city": "Madison", "addr:state": "tennessee", "addr:postcode": "37115", "name": "Madison", "phone": "(615) 855-6900", "website": "https://www.academy.com/shop/storelocator/tennessee/madison/store-0091", "opening_hours": "Mo-Th 08:00-22:00; Fr-Sa 08:00-23:00; Su 08:00-22:00", "brand": "Academy Sports + Outdoors", "brand:wikidata": "Q4671380"}, "geometry": {"type": "Point", "coordinates": [-86.6803, 36.309]}},
{"type": "Feature", "id": "1mkd34VRbiiHWVM9WSQrMYAF9cU=", "properties": {"ref": "store-0235", "@spider": "academy", "addr:full": "925 Hamilton Place Dr", "addr:city": "Johnson City", "addr:state": "tennessee", "addr:postcode": "37604", "name": "Johnson City", "phone": "(423) 434-1300", "website": "https://www.academy.com/shop/storelocator/tn/johnson-city/store-0235", "opening_hours": "Mo-Th 08:00-22:00; Fr-Sa 08:00-23:00; Su 08:00-22:00", "brand": "Academy Sports + Outdoors", "brand:wikidata": "Q4671380"}, "geometry": {"type": "Point", "coordinates": [-82.4047352, 36.3340607]}},
{"type": "Feature", "id": "HYZ_VY4syn7IFEmEIyPZ6TvdTKA=", "properties": {"ref": "store-0070", "@spider": "academy", "addr:full": "3518 S Clack Street", "addr:city": "Abilene", "addr:state": "texas", "addr:postcode": "79606", "name": "Abilene", "phone": "(325) 271-6950", "website": "https://www.academy.com/shop/storelocator/texas/abilene/store-0070", "opening_hours": "Mo-Th 08:00-22:00; Fr-Sa 08:00-23:00; Su 08:00-22:00", "brand": "Academy Sports + Outdoors", "brand:wikidata": "Q4671380"}, "geometry": {"type": "Point", "coordinates": [-99.7703847, 32.4087236]}},
{"type": "Feature", "id": "Y-x2o2p6XtQtahgkfVA80XUcmLI=", "properties": {"ref": "store-0134", "@spider": "academy", "addr:full": "549 Pleasant Grove Rd.", "addr:city": "Mt Juliet", "addr:state": "tennessee", "addr:postcode": "37122", "name": "Mt Juliet", "phone": "(615) 758-1060", "website": "https://www.academy.com/shop/storelocator/tn/mt-juliet/store-0134", "opening_hours": "Mo-Th 08:00-22:00; Fr-Sa 08:00-23:00; Su 08:00-22:00", "brand": "Academy Sports + Outdoors", "brand:wikidata": "Q4671380"}, "geometry": {"type": "Point", "coordinates": [-86.5203, 36.1765]}},
{"type": "Feature", "id": "zKPt0MfwyNy7lFgRTV-A-zzzWZg=", "properties": {"ref": "store-0215", "@spider": "academy", "addr:full": "100 Peachwood Centre Dr.", "addr:city": "Spartanburg", "addr:state": "south carolina", "addr:postcode": "29301", "name": "Spartanburg", "phone": "(864) 216-8960", "website": "https://www.academy.com/shop/storelocator/south-carolina/spartanburg/store-0215", "opening_hours": "Mo-Th 08:00-22:00; Fr-Sa 08:00-23:00; Su 08:00-22:00", "brand": "Academy Sports + Outdoors", "brand:wikidata": "Q4671380"}, "geometry": {"type": "Point", "coordinates": [-82.001399, 34.9346]}},
{"type": "Feature", "id": "FcYqtnQcDM0iE7JccESDAPiuGfg=", "properties": {"ref": "store-0196", "@spider": "academy", "addr:full": "120 Woody Jones Blvd.", "addr:city": "Florence", "addr:state": "south carolina", "addr:postcode": "29501", "name": "Florence", "phone": "(843) 664-3500", "website": "https://www.academy.com/shop/storelocator/south-carolina/florence/store-0196", "opening_hours": "Mo-Th 08:00-22:00; Fr-Sa 08:00-23:00; Su 08:00-22:00", "brand": "Academy Sports + Outdoors", "brand:wikidata": "Q4671380"}, "geometry": {"type": "Point", "coordinates": [-79.831892, 34.184775]}},
{"type": "Feature", "id": "j4ESX57mKmSFdeuHlR3BlOs55ao=", "properties": {"ref": "store-0103", "@spider": "academy", "addr:full": "730 Fashion Drive", "addr:city": "Columbia", "addr:state": "south carolina", "addr:postcode": "29229", "name": "Northeast Columbia", "phone": "(803) 462-6340", "website": "https://www.academy.com/shop/storelocator/south-carolina/columbia/store-0103", "opening_hours": "Mo-Th 08:00-22:00; Fr-Sa 08:00-23:00; Su 08:00-22:00", "brand": "Academy Sports + Outdoors", "brand:wikidata": "Q4671380"}, "geometry": {"type": "Point", "coordinates": [-80.8774, 34.1253]}},
{"type": "Feature", "id": "UQCBU6FN5psPDiQJQVAZ4tryBok=", "properties": {"ref": "store-0154", "@spider": "academy", "addr:full": "3423 Clemson Blvd", "addr:city": "Anderson", "addr:state": "south carolina", "addr:postcode": "29621", "name": "Anderson", "phone": "(864) 261-2400", "website": "https://www.academy.com/shop/storelocator/south-carolina/anderson/store-0154", "opening_hours": "Mo-Th 08:00-22:00; Fr-Sa 08:00-23:00; Su 08:00-22:00", "brand": "Academy Sports + Outdoors", "brand:wikidata": "Q4671380"}, "geometry": {"type": "Point", "coordinates": [-82.672736, 34.546778]}},
{"type": "Feature", "id": "02-comSRLPBS9NZEp6fUNeh3Nt0=", "properties": {"ref": "store-0148", "@spider": "academy", "addr:full": "201 Rolling Hills Cir.", "addr:city": "Easley", "addr:state": "south carolina", "addr:postcode": "29640", "name": "Easley", "phone": "(864) 850-6130", "website": "https://www.academy.com/shop/storelocator/south-carolina/easley/store-0148", "opening_hours": "Mo-Th 08:00-22:00; Fr-Sa 08:00-23:00; Su 08:00-22:00", "brand": "Academy Sports + Outdoors", "brand:wikidata": "Q4671380"}, "geometry": {"type": "Point", "coordinates": [-82.546258, 34.828623]}},
{"type": "Feature", "id": "BhUkGFmAC-0qL18v5xLiQwklYFU=", "properties": {"ref": "store-0087", "@spider": "academy", "addr:full": "6120 East 41st South", "addr:city": "Tulsa", "addr:state": "oklahoma", "addr:postcode": "74135", "name": "Midtown Tulsa", "phone": "(918) 610-4010", "website": "https://www.academy.com/shop/storelocator/oklahoma/tulsa/store-0087", "opening_hours": "Mo-Th 08:00-22:00; Fr-Sa 08:00-23:00; Su 08:00-22:00", "brand": "Academy Sports + Outdoors", "brand:wikidata": "Q4671380"}, "geometry": {"type": "Point", "coordinates": [-95.9066, 36.1044]}},
{"type": "Feature", "id": "rcBBUgTORDBO23t7qKHMS2Pcdrg=", "properties": {"ref": "store-0244", "@spider": "academy", "addr:full": "8959 N Garnett Road", "addr:city": "Owasso", "addr:state": "oklahoma", "addr:postcode": "74055", "name": "Owasso", "phone": "(918) 295-1450", "website": "https://www.academy.com/shop/storelocator/oklahoma/owasso/store-0244", "opening_hours": "Mo-Th 08:00-22:00; Fr-Sa 08:00-23:00; Su 08:00-22:00", "brand": "Academy Sports + Outdoors", "brand:wikidata": "Q4671380"}, "geometry": {"type": "Point", "coordinates": [-95.8467179, 36.2863022]}},
{"type": "Feature", "id": "X-m4p7k9X14s4R5J3dfaeHllSTQ=", "properties": {"ref": "store-0219", "@spider": "academy", "addr:full": "59 Woodruff Industrial Lane", "addr:city": "Greenville", "addr:state": "south carolina", "addr:postcode": "29607", "name": "Greenville", "phone": "(864) 254-5900", "website": "https://www.academy.com/shop/storelocator/south-carolina/greenville/store-0219", "opening_hours": "Mo-Th 08:00-22:00; Fr-Sa 08:00-23:00; Su 08:00-22:00", "brand": "Academy Sports + Outdoors", "brand:wikidata": "Q4671380"}, "geometry": {"type": "Point", "coordinates": [-82.3069, 34.8299]}},
{"type": "Feature", "id": "ofn4Tx8PGyQWqf3ovgZCkOGe0dA=", "properties": {"ref": "store-0183", "@spider": "academy", "addr:full": "321 Fabian Dr.", "addr:city": "Aiken", "addr:state": "south carolina", "addr:postcode": "29803", "name": "Aiken", "phone": "(803) 502-5100", "website": "https://www.academy.com/shop/storelocator/south-carolina/aiken/store-0183", "opening_hours": "Mo-Th 08:00-22:00; Fr-Sa 08:00-23:00; Su 08:00-22:00", "brand": "Academy Sports + Outdoors", "brand:wikidata": "Q4671380"}, "geometry": {"type": "Point", "coordinates": [-81.72331, 33.5191]}},
{"type": "Feature", "id": "yoD63vqnGPmTnimPRU10oJav7rE=", "properties": {"ref": "store-0086", "@spider": "academy", "addr:full": "4261 Northwest 63rd St", "addr:city": "Oklahoma City", "addr:state": "oklahoma", "addr:postcode": "73116", "name": "NW Expressway", "phone": "(405) 767-3720", "website": "https://www.academy.com/shop/storelocator/oklahoma/oklahoma-city/store-0086", "opening_hours": "Mo-Th 08:00-22:00; Fr-Sa 08:00-23:00; Su 08:00-22:00", "brand": "Academy Sports + Outdoors", "brand:wikidata": "Q4671380"}, "geometry": {"type": "Point", "coordinates": [-97.5956, 35.5368]}},
{"type": "Feature", "id": "okrHlV6E5iPlvL43qUvbhlSMAc4=", "properties": {"ref": "store-0246", "@spider": "academy", "addr:full": "12324 NW 10th St", "addr:city": "Oklahoma City", "addr:state": "oklahoma", "addr:postcode": "73099", "name": "West Oklahoma City", "phone": "(405) 246-1429", "website": "https://www.academy.com/shop/storelocator/oklahoma/oklahoma-city/store-0246", "opening_hours": "Mo-Th 08:00-22:00; Fr-Sa 08:00-23:00; Su 08:00-22:00", "brand": "Academy Sports + Outdoors", "brand:wikidata": "Q4671380"}, "geometry": {"type": "Point", "coordinates": [-97.7473079, 35.4789076]}},
{"type": "Feature", "id": "81lUjBQ3W3v9NPAaUenb3y7Ff4E=", "properties": {"ref": "store-0184", "@spider": "academy", "addr:full": "1732 NW 82nd St.", "addr:city": "Lawton", "addr:state": "oklahoma", "addr:postcode": "73505", "name": "Lawton", "phone": "(580) 531-3000", "website": "https://www.academy.com/shop/storelocator/oklahoma/lawton/store-0184", "opening_hours": "Mo-Th 08:00-22:00; Fr-Sa 08:00-23:00; Su 08:00-22:00", "brand": "Academy Sports + Outdoors", "brand:wikidata": "Q4671380"}, "geometry": {"type": "Point", "coordinates": [-98.4926, 34.627253]}},
{"type": "Feature", "id": "abeuGTYCVbESc-z0XgLYSuYE6mU=", "properties": {"ref": "store-0084", "@spider": "academy", "addr:full": "7850 S 107th East Ave", "addr:city": "Tulsa", "addr:state": "oklahoma", "addr:postcode": "74133", "name": "South Tulsa", "phone": "(918) 249-5700", "website": "https://www.academy.com/shop/storelocator/oklahoma/tulsa/store-0084", "opening_hours": "Mo-Th 08:00-22:00; Fr-Sa 08:00-23:00; Su 08:00-22:00", "brand": "Academy Sports + Outdoors", "brand:wikidata": "Q4671380"}, "geometry": {"type": "Point", "coordinates": [-95.8588, 36.0517]}},
{"type": "Feature", "id": "yjNp2sZ7UwRwLuDvfUZVaJdD874=", "properties": {"ref": "store-0271", "@spider": "academy", "addr:full": "4406 W. Owen K. Garriott Rd", "addr:city": "Enid", "addr:state": "oklahoma", "addr:postcode": "73703", "name": "Enid", "phone": "(580) 242-8350", "website": "https://www.academy.com/shop/storelocator/oklahoma/enid/store-0271", "opening_hours": "Mo-Th 08:00-22:00; Fr-Sa 08:00-23:00; Su 08:00-22:00", "brand": "Academy Sports + Outdoors", "brand:wikidata": "Q4671380"}, "geometry": {"type": "Point", "coordinates": [-97.9351307, 36.3923603]}},
{"type": "Feature", "id": "DM5MlJ3qUmjl7iek6No4730vGm4=", "properties": {"ref": "store-0088", "@spider": "academy", "addr:full": "7700 South Walker Ave", "addr:city": "Oklahoma City", "addr:state": "oklahoma", "addr:postcode": "73139", "name": "South Oklahoma City", "phone": "(405) 440-6660", "website": "https://www.academy.com/shop/storelocator/oklahoma/oklahoma-city/store-0088", "opening_hours": "Mo-Th 08:00-22:00; Fr-Sa 08:00-23:00; Su 08:00-22:00", "brand": "Academy Sports + Outdoors", "brand:wikidata": "Q4671380"}, "geometry": {"type": "Point", "coordinates": [-97.5213, 35.3899]}},
{"type": "Feature", "id": "8Q5Qz3mXDzxBubBowDkWV2GxShk=", "properties": {"ref": "store-0318", "@spider": "academy", "addr:full": "3467 Burke Mill Rd", "addr:city": "Winston Salem", "addr:state": "north carolina", "addr:postcode": "27103", "name": "Winston Salem", "phone": "(743) 333-5510", "website": "https://www.academy.com/shop/storelocator/north-carolina/winston-salem/store-0318", "opening_hours": "Mo-Th 08:00-22:00; Fr-Sa 08:00-23:00; Su 08:00-22:00", "brand": "Academy Sports + Outdoors", "brand:wikidata": "Q4671380"}, "geometry": {"type": "Point", "coordinates": [-80.3143585, 36.058954]}},
{"type": "Feature", "id": "DeIEWLIshrNA7fMqwdyj4hiB8YU=", "properties": {"ref": "store-0290", "@spider": "academy", "addr:full": "5309 Gingerwood Drive", "addr:city": "Wilmington", "addr:state": "north carolina", "addr:postcode": "28405", "name": "Wilmington", "phone": "(910) 530-6360", "website": "https://www.academy.com/shop/storelocator/north-carolina/wilmington/store-0290", "opening_hours": "Mo-Th 08:00-22:00; Fr-Sa 08:00-23:00; Su 08:00-22:00", "brand": "Academy Sports + Outdoors", "brand:wikidata": "Q4671380"}, "geometry": {"type": "Point", "coordinates": [-77.8769757, 34.247449]}},
{"type": "Feature", "id": "UrjGz-jWmL8xveRhPRvew8YQ-RE=", "properties": {"ref": "store-0204", "@spider": "academy", "addr:full": "2010 NW 24th Avenue", "addr:city": "Norman", "addr:state": "oklahoma", "addr:postcode": "73069", "name": "Norman", "phone": "(405) 307-4700", "website": "https://www.academy.com/shop/storelocator/oklahoma/norman/store-0204", "opening_hours": "Mo-Th 08:00-22:00; Fr-Sa 08:00-23:00; Su 08:00-22:00", "brand": "Academy Sports + Outdoors", "brand:wikidata": "Q4671380"}, "geometry": {"type": "Point", "coordinates": [-97.483, 35.235]}},
{"type": "Feature", "id": "8tO4VSv3DMP-bFUzYMRD8IDb5Ns=", "properties": {"ref": "store-0322", "@spider": "academy", "addr:full": "426 Talbert Road", "addr:city": "Mooresville", "addr:state": "north carolina", "addr:postcode": "28117", "name": "Mooresville", "phone": "(704) 360-6275", "website": "https://www.academy.com/shop/storelocator/north-carolina/mooresville/store-0322", "opening_hours": "Mo-Th 08:00-22:00; Fr-Sa 08:00-23:00; Su 08:00-22:00", "brand": "Academy Sports + Outdoors", "brand:wikidata": "Q4671380"}, "geometry": {"type": "Point", "coordinates": [-80.8551, 35.5797]}},
{"type": "Feature", "id": "iUFHCAfdTtcWcD9WO3i4HCpnklw=", "properties": {"ref": "store-0137", "@spider": "academy", "addr:full": "2468 Cross Pointe Dr.", "addr:city": "Rock Hill", "addr:state": "south carolina", "addr:postcode": "29730", "name": "Rock Hill", "phone": "(803) 323-1800", "website": "https://www.academy.com/shop/storelocator/south-carolina/rock-hill/store-0137", "opening_hours": "Mo-Th 08:00-22:00; Fr-Sa 08:00-23:00; Su 08:00-22:00", "brand": "Academy Sports + Outdoors", "brand:wikidata": "Q4671380"}, "geometry": {"type": "Point", "coordinates": [-80.9606, 34.94067]}},
{"type": "Feature", "id": "L6D_Aay-ALhEUBwO8aoTDf3XrP8=", "properties": {"ref": "store-0085", "@spider": "academy", "addr:full": "2501 South Broadway", "addr:city": "Edmond", "addr:state": "oklahoma", "addr:postcode": "73013", "name": "Edmond", "phone": "(405) 715-4530", "website": "https://www.academy.com/shop/storelocator/oklahoma/edmond/store-0085", "opening_hours": "Mo-Th 08:00-22:00; Fr-Sa 08:00-23:00; Su 08:00-22:00", "brand": "Academy Sports + Outdoors", "brand:wikidata": "Q4671380"}, "geometry": {"type": "Point", "coordinates": [-97.4852, 35.629]}},
{"type": "Feature", "id": "mpW34-zjn-6jzqZFYRgk1HQX6NA=", "properties": {"ref": "store-0276", "@spider": "academy", "addr:full": "237 Samaria Dr", "addr:city": "Jacksonville", "addr:state": "north carolina", "addr:postcode": "28546", "name": "Jacksonville", "phone": "(910) 937-3260", "website": "https://www.academy.com/shop/storelocator/north-carolina/jacksonville/store-0276", "opening_hours": "Mo-Th 08:00-22:00; Fr-Sa 08:00-23:00; Su 08:00-22:00", "brand": "Academy Sports + Outdoors", "brand:wikidata": "Q4671380"}, "geometry": {"type": "Point", "coordinates": [-77.415156, 34.796766]}},
{"type": "Feature", "id": "C_8EYCSEez_dN3NkVwyp4b3eIuM=", "properties": {"ref": "store-0149", "@spider": "academy", "addr:full": "2211 Elder Ln", "addr:city": "Kannapolis", "addr:state": "north carolina", "addr:postcode": "28083", "name": "Kannapolis", "phone": "(704) 260-4100", "website": "https://www.academy.com/shop/storelocator/north-carolina/kannapolis/store-0149", "opening_hours": "Mo-Th 08:00-22:00; Fr-Sa 08:00-23:00; Su 08:00-22:00", "brand": "Academy Sports + Outdoors", "brand:wikidata": "Q4671380"}, "geometry": {"type": "Point", "coordinates": [-80.594513, 35.46596]}},
{"type": "Feature", "id": "M8IoHZ-YYQREtyjejhHmP3g5c8I=", "properties": {"ref": "store-0280", "@spider": "academy", "addr:full": "3428 S Memorial Dr", "addr:city": "Greenville", "addr:state": "north carolina", "addr:postcode": "27834", "name": "Greenville", "phone": "(252) 329-2400", "website": "https://www.academy.com/shop/storelocator/north-carolina/greenville/store-0280", "opening_hours": "Mo-Th 08:00-22:00; Fr-Sa 08:00-23:00; Su 08:00-22:00", "brand": "Academy Sports + Outdoors", "brand:wikidata": "Q4671380"}, "geometry": {"type": "Point", "coordinates": [-77.403997, 35.5690349]}},
{"type": "Feature", "id": "9lLEfIobJTPPmr6bphGAy6E2x1g=", "properties": {"ref": "store-0272", "@spider": "academy", "addr:full": "4526 W. Wendover Ave", "addr:city": "Greensboro", "addr:state": "north carolina", "addr:postcode": "27409", "name": "Greensboro", "phone": "(336) 632-3100", "website": "https://www.academy.com/shop/storelocator/north-carolina/greensboro/store-0272", "opening_hours": "Mo-Th 08:00-22:00; Fr-Sa 08:00-23:00; Su 08:00-22:00", "brand": "Academy Sports + Outdoors", "brand:wikidata": "Q4671380"}, "geometry": {"type": "Point", "coordinates": [-79.9119857, 36.054278]}},
{"type": "Feature", "id": "uY9F_f8JvVGOsAPYO3ez_RpEXSg=", "properties": {"ref": "store-0234", "@spider": "academy", "addr:full": "2409 N. Perkins Rd", "addr:city": "Stillwater", "addr:state": "oklahoma", "addr:postcode": "74075", "name": "Stillwater", "phone": "(405) 742-6010", "website": "https://www.academy.com/shop/storelocator/oklahoma/stillwater/store-0234", "opening_hours": "Mo-Th 08:00-22:00; Fr-Sa 08:00-23:00; Su 08:00-22:00", "brand": "Academy Sports + Outdoors", "brand:wikidata": "Q4671380"}, "geometry": {"type": "Point", "coordinates": [-97.05155, 36.146211]}},
{"type": "Feature", "id": "NO6HN9nQGHKp7QOTHUJ1B2gfu7o=", "properties": {"ref": "store-0315", "@spider": "academy", "addr:full": "3580 E Franklin Blvd", "addr:city": "Gastonia", "addr:state": "north carolina", "addr:postcode": "28056", "name": "Gastonia", "phone": "(704) 478-7300", "website": "https://www.academy.com/shop/storelocator/north-carolina/gastonia/store-0315", "opening_hours": "Mo-Th 08:00-22:00; Fr-Sa 08:00-23:00; Su 08:00-22:00", "brand": "Academy Sports + Outdoors", "brand:wikidata": "Q4671380"}, "geometry": {"type": "Point", "coordinates": [-81.1186, 35.2598]}},
{"type": "Feature", "id": "-RTU_pXj_5kfMvqd56V4IshC9ic=", "properties": {"ref": "store-0251", "@spider": "academy", "addr:full": "2100 Skibo Rd", "addr:city": "Fayetteville", "addr:state": "north carolina", "addr:postcode": "28314", "name": "Fayetteville", "phone": "(910) 860-5100", "website": "https://www.academy.com/shop/storelocator/north-carolina/fayetteville/store-0251", "opening_hours": "Mo-Th 08:00-22:00; Fr-Sa 08:00-23:00; Su 08:00-22:00", "brand": "Academy Sports + Outdoors", "brand:wikidata": "Q4671380"}, "geometry": {"type": "Point", "coordinates": [-78.9738192, 35.0526171]}},
{"type": "Feature", "id": "7Vpwr4cThSlBccsL0ulifSEuHfI=", "properties": {"ref": "store-0308", "@spider": "academy", "addr:full": "655 Huffman Mill Rd", "addr:city": "Burlington", "addr:state": "north carolina", "addr:postcode": "27215", "name": "Burlington", "phone": "(336) 290-0300", "website": "https://www.academy.com/shop/storelocator/north-carolina/burlington/store-0308", "opening_hours": "Mo-Th 08:00-22:00; Fr-Sa 08:00-23:00; Su 08:00-22:00", "brand": "Academy Sports + Outdoors", "brand:wikidata": "Q4671380"}, "geometry": {"type": "Point", "coordinates": [-79.4907741, 36.0722003]}},
{"type": "Feature", "id": "pTxX45q1LRLYRpd0v1BjJjUlovU=", "properties": {"ref": "store-0313", "@spider": "academy", "addr:full": "2314 Matthews Township Pkwy", "addr:city": "Matthews", "addr:state": "north carolina", "addr:postcode": "28105", "name": "Matthews", "phone": "(980) 262-6160", "website": "https://www.academy.com/shop/storelocator/north-carolina/matthews/store-0313", "opening_hours": "Mo-Th 08:00-22:00; Fr-Sa 08:00-23:00; Su 08:00-22:00", "brand": "Academy Sports + Outdoors", "brand:wikidata": "Q4671380"}, "geometry": {"type": "Point", "coordinates": [-80.702366, 35.125439]}},
{"type": "Feature", "id": "nkDFIlRUzB4GRPYQ__P4NoVyW8s=", "properties": {"ref": "store-0288", "@spider": "academy", "addr:full": "3555 MLK Blvd", "addr:city": "New Bern", "addr:state": "north carolina", "addr:postcode": "28562", "name": "New Bern", "phone": "(252) 649-6400", "website": "https://www.academy.com/shop/storelocator/north-carolina/new-bern/store-0288", "opening_hours": "Mo-Th 08:00-22:00; Fr-Sa 08:00-23:00; Su 08:00-22:00", "brand": "Academy Sports + Outdoors", "brand:wikidata": "Q4671380"}, "geometry": {"type": "Point", "coordinates": [-77.1040355, 35.0967354]}},
{"type": "Feature", "id": "5aam3B7xXIEQmrxHAXUtt8ielSM=", "properties": {"ref": "store-0289", "@spider": "academy", "addr:full": "1151 Pine Plaza Drive", "addr:city": "Apex", "addr:state": "north carolina", "addr:postcode": "27523", "name": "Apex", "phone": "(919) 335-0545", "website": "https://www.academy.com/shop/storelocator/north-carolina/apex/store-0289", "opening_hours": "Mo-Th 08:00-22:00; Fr-Sa 08:00-23:00; Su 08:00-22:00", "brand": "Academy Sports + Outdoors", "brand:wikidata": "Q4671380"}, "geometry": {"type": "Point", "coordinates": [-78.8326787, 35.74798]}},
{"type": "Feature", "id": "LTpu5X_NKHOjiZBReinZdgrJ1Gs=", "properties": {"ref": "store-0320", "@spider": "academy", "addr:full": "1605 12th Avenue", "addr:city": "Ardmore", "addr:state": "oklahoma", "addr:postcode": "73401", "name": "Ardmore", "phone": "(580) 768-6429", "website": "https://www.academy.com/shop/storelocator/oklahoma/ardmore/store-0320", "opening_hours": "Mo-Th 08:00-22:00; Fr-Sa 08:00-23:00; Su 08:00-22:00", "brand": "Academy Sports + Outdoors", "brand:wikidata": "Q4671380"}, "geometry": {"type": "Point", "coordinates": [-97.1492772, 34.1874462]}},
{"type": "Feature", "id": "NmiSw2Ed3gqjeqOqpUrC9PYmtW8=", "properties": {"ref": "store-0258", "@spider": "academy", "addr:full": "269 S. Stewart Rd", "addr:city": "Liberty", "addr:state": "missouri", "addr:postcode": "64068", "name": "Liberty", "phone": "(816) 415-5160", "website": "https://www.academy.com/shop/storelocator/missouri/liberty/store-0258", "opening_hours": "Mo-Th 08:00-22:00; Fr-Sa 08:00-23:00; Su 08:00-22:00", "brand": "Academy Sports + Outdoors", "brand:wikidata": "Q4671380"}, "geometry": {"type": "Point", "coordinates": [-94.456226, 39.241831]}},
{"type": "Feature", "id": "NXEyqSHYASjWiOsQLoGphlrhtoU=", "properties": {"ref": "store-0297", "@spider": "academy", "addr:full": "3095 Oak Grove Road", "addr:city": "Poplar Bluff", "addr:state": "missouri", "addr:postcode": "63901", "name": "Poplar Bluff", "phone": "(573) 772-7300", "website": "https://www.academy.com/shop/storelocator/missouri/poplar-bluff/store-0297", "opening_hours": "Mo-Th 08:00-22:00; Fr-Sa 08:00-23:00; Su 08:00-22:00", "brand": "Academy Sports + Outdoors", "brand:wikidata": "Q4671380"}, "geometry": {"type": "Point", "coordinates": [-90.4456887, 36.7906667]}},
{"type": "Feature", "id": "7n7AI0pst73bNE329TeQCYkVeoA=", "properties": {"ref": "store-0168", "@spider": "academy", "addr:full": "1717 Range Line Road", "addr:city": "Joplin", "addr:state": "missouri", "addr:postcode": "64804", "name": "Joplin", "phone": "(417) 621-6000", "website": "https://www.academy.com/shop/storelocator/missouri/joplin/store-0168", "opening_hours": "Mo-Th 08:00-22:00; Fr-Sa 08:00-23:00; Su 08:00-22:00", "brand": "Academy Sports + Outdoors", "brand:wikidata": "Q4671380"}, "geometry": {"type": "Point", "coordinates": [-94.4777, 37.0718]}},
{"type": "Feature", "id": "IB7nvM0jrXiUYrMUnXNeoS5v09Y=", "properties": {"ref": "store-0145", "@spider": "academy", "addr:full": "8675 Concord Mills Blvd", "addr:city": "Concord", "addr:state": "north carolina", "addr:postcode": "28027", "name": "Concord", "phone": "(704) 808-4160", "website": "https://www.academy.com/shop/storelocator/north-carolina/concord/store-0145", "opening_hours": "Mo-Th 08:00-22:00; Fr-Sa 08:00-23:00; Su 08:00-22:00", "brand": "Academy Sports + Outdoors", "brand:wikidata": "Q4671380"}, "geometry": {"type": "Point", "coordinates": [-80.730069, 35.37399]}},
{"type": "Feature", "id": "pEmzAHNi5afAJ8gYWKdVQAdkuHQ=", "properties": {"ref": "store-0178", "@spider": "academy", "addr:full": "270 Shirley Dr.", "addr:city": "Cape Girardeau", "addr:state": "missouri", "addr:postcode": "63701", "name": "Cape Girardeau", "phone": "(573) 332-4960", "website": "https://www.academy.com/shop/storelocator/missouri/cape-girardeau/store-0178", "opening_hours": "Mo-Th 08:00-22:00; Fr-Sa 08:00-23:00; Su 08:00-22:00", "brand": "Academy Sports + Outdoors", "brand:wikidata": "Q4671380"}, "geometry": {"type": "Point", "coordinates": [-89.585908, 37.298081]}},
{"type": "Feature", "id": "7INjWh6zLqp-wQ5wnDjpnGjL0Is=", "properties": {"ref": "store-0298", "@spider": "academy", "addr:full": "1575 West Side Drive", "addr:city": "Rolla", "addr:state": "missouri", "addr:postcode": "65402", "name": "Rolla", "phone": "(573) 308-4160", "website": "https://www.academy.com/shop/storelocator/missouri/rolla/store-0298", "opening_hours": "Mo-Th 08:00-22:00; Fr-Sa 08:00-23:00; Su 08:00-22:00", "brand": "Academy Sports + Outdoors", "brand:wikidata": "Q4671380"}, "geometry": {"type": "Point", "coordinates": [-91.7948957, 37.9458458]}},
{"type": "Feature", "id": "OvcbQaEKxYmPG_F17BAukM6u_14=", "properties": {"ref": "store-0220", "@spider": "academy", "addr:full": "510 E Markey Pkwy", "addr:city": "Belton", "addr:state": "missouri", "addr:postcode": "64012", "name": "Belton", "phone": "(816) 318-2000", "website": "https://www.academy.com/shop/storelocator/missouri/belton/store-0220", "opening_hours": "Mo-Th 08:00-22:00; Fr-Sa 08:00-23:00; Su 08:00-22:00", "brand": "Academy Sports + Outdoors", "brand:wikidata": "Q4671380"}, "geometry": {"type": "Point", "coordinates": [-94.525149, 38.824717]}},
{"type": "Feature", "id": "G101EEKI2VltDvmXepeoqcqVg44=", "properties": {"ref": "store-0238", "@spider": "academy", "addr:full": "5075 Goodman Road", "addr:city": "Olive Branch", "addr:state": "mississippi", "addr:postcode": "38654", "name": "Olive Branch", "phone": "(662) 893-9400", "website": "https://www.academy.com/shop/storelocator/mississippi/olive-branch/store-0238", "opening_hours": "Mo-Th 08:00-22:00; Fr-Sa 08:00-23:00; Su 08:00-22:00", "brand": "Academy Sports + Outdoors", "brand:wikidata": "Q4671380"}, "geometry": {"type": "Point", "coordinates": [-89.898926, 34.96248]}},
{"type": "Feature", "id": "v7ygZAO_MGoPmGYrFOOo6GfF7OU=", "properties": {"ref": "store-0275", "@spider": "academy", "addr:full": "5635 SE 15th St", "addr:city": "Midwest City", "addr:state": "oklahoma", "addr:postcode": "73110", "name": "Midwest City", "phone": "(405) 869-3100", "website": "https://www.academy.com/shop/storelocator/oklahoma/midwest-city/store-0275", "opening_hours": "Mo-Th 08:00-22:00; Fr-Sa 08:00-23:00; Su 08:00-22:00", "brand": "Academy Sports + Outdoors", "brand:wikidata": "Q4671380"}, "geometry": {"type": "Point", "coordinates": [-97.4248712, 35.4496647]}},
{"type": "Feature", "id": "F-LioPRwWwl_RO3DaAJ7pyZX7d0=", "properties": {"ref": "store-0108", "@spider": "academy", "addr:full": "6173 US Hwy 98", "addr:city": "Hattiesburg", "addr:state": "mississippi", "addr:postcode": "39402", "name": "Hattiesburg", "phone": "(601) 261-2900", "website": "https://www.academy.com/shop/storelocator/mississippi/hattiesburg/store-0108", "opening_hours": "Mo-Th 08:00-22:00; Fr-Sa 08:00-23:00; Su 08:00-22:00", "brand": "Academy Sports + Outdoors", "brand:wikidata": "Q4671380"}, "geometry": {"type": "Point", "coordinates": [-89.387, 31.321]}},
{"type": "Feature", "id": "l5sEvSaZVjX3l1NsMn73qyV45UY=", "properties": {"ref": "store-0144", "@spider": "academy", "addr:full": "2162 Hwy 70 SE", "addr:city": "Hickory", "addr:state": "north carolina", "addr:postcode": "28602", "name": "Hickory", "phone": "(828) 261-2550", "website": "https://www.academy.com/shop/storelocator/north-carolina/hickory/store-0144", "opening_hours": "Mo-Th 08:00-22:00; Fr-Sa 08:00-23:00; Su 08:00-22:00", "brand": "Academy Sports + Outdoors", "brand:wikidata": "Q4671380"}, "geometry": {"type": "Point", "coordinates": [-81.300113, 35.703832]}},
{"type": "Feature", "id": "zzohIO1FOidQs_mDwl6hDr3-pDU=", "properties": {"ref": "store-0241", "@spider": "academy", "addr:full": "848 Barnes Crossing Rd", "addr:city": "Tupelo", "addr:state": "mississippi", "addr:postcode": "38804", "name": "Tupelo", "phone": "(662) 407-4000", "website": "https://www.academy.com/shop/storelocator/mississippi/tupelo/store-0241", "opening_hours": "Mo-Th 08:00-22:00; Fr-Sa 08:00-23:00; Su 08:00-22:00", "brand": "Academy Sports + Outdoors", "brand:wikidata": "Q4671380"}, "geometry": {"type": "Point", "coordinates": [-88.704827, 34.315521]}},
{"type": "Feature", "id": "ZUqFEFQboOvM5iMVCG_LYJC8_nQ=", "properties": {"ref": "store-0262", "@spider": "academy", "addr:full": "2651 Trimble Road", "addr:city": "Columbia", "addr:state": "missouri", "addr:postcode": "65201", "name": "Columbia", "phone": "(573) 256-3600", "website": "https://www.academy.com/shop/storelocator/missouri/columbia/store-0262", "opening_hours": "Mo-Th 08:00-22:00; Fr-Sa 08:00-23:00; Su 08:00-22:00", "brand": "Academy Sports + Outdoors", "brand:wikidata": "Q4671380"}, "geometry": {"type": "Point", "coordinates": [-92.296734, 38.948291]}},
{"type": "Feature", "id": "J9wLt88V53O0s6NWc9SjJxkGUVg=", "properties": {"ref": "store-0269", "@spider": "academy", "addr:full": "160 Hollywood Blvd", "addr:city": "Starkville", "addr:state": "mississippi", "addr:postcode": "39759", "name": "Starkville", "phone": "(662) 338-3350", "website": "https://www.academy.com/shop/storelocator/mississippi/starkville/store-0269", "opening_hours": "Mo-Th 08:00-22:00; Fr-Sa 08:00-23:00; Su 08:00-22:00", "brand": "Academy Sports + Outdoors", "brand:wikidata": "Q4671380"}, "geometry": {"type": "Point", "coordinates": [-88.8491702, 33.4481892]}},
{"type": "Feature", "id": "2kbwukZ29ky1goY9S01Nnd3Uvkk=", "properties": {"ref": "store-0099", "@spider": "academy", "addr:full": "1951 Main Street", "addr:city": "Madison", "addr:state": "mississippi", "addr:postcode": "39110", "name": "Madison", "phone": "(769) 231-3300", "website": "https://www.academy.com/shop/storelocator/mississippi/madison/store-0099", "opening_hours": "Mo-Th 08:00-22:00; Fr-Sa 08:00-23:00; Su 08:00-22:00", "brand": "Academy Sports + Outdoors", "brand:wikidata": "Q4671380"}, "geometry": {"type": "Point", "coordinates": [-90.1276264, 32.4677341]}},
{"type": "Feature", "id": "rU8AhYtYz93-D8CK_qxlIWuGlnc=", "properties": {"ref": "store-0254", "@spider": "academy", "addr:full": "14260 Manchester Rd.", "addr:city": "Manchester", "addr:state": "missouri", "addr:postcode": "63011", "name": "Manchester", "phone": "(636) 686-7540", "website": "https://www.academy.com/shop/storelocator/missouri/manchester/store-0254", "opening_hours": "Mo-Th 08:00-22:00; Fr-Sa 08:00-23:00; Su 08:00-22:00", "brand": "Academy Sports + Outdoors", "brand:wikidata": "Q4671380"}, "geometry": {"type": "Point", "coordinates": [-90.5054042, 38.5926249]}},
{"type": "Feature", "id": "rUma4XzJs7l04lmYSRlZyotR2JE=", "properties": {"ref": "store-0062", "@spider": "academy", "addr:full": "111 Constitution Drive", "addr:city": "W Monroe", "addr:state": "louisiana", "addr:postcode": "71292", "name": "West Monroe", "phone": "(318) 324-5720", "website": "https://www.academy.com/shop/storelocator/louisiana/w-monroe/store-0062", "opening_hours": "Mo-Th 08:00-22:00; Fr-Sa 08:00-23:00; Su 08:00-22:00", "brand": "Academy Sports + Outdoors", "brand:wikidata": "Q4671380"}, "geometry": {"type": "Point", "coordinates": [-92.157796, 32.502764]}},
{"type": "Feature", "id": "kBD9L5iS6ip8o5v-WXheEXFIF9I=", "properties": {"ref": "store-0058", "@spider": "academy", "addr:full": "15130 Crossroads Pkwy", "addr:city": "Gulfport", "addr:state": "mississippi", "addr:postcode": "39503", "name": "Gulfport", "phone": "(228) 831-5260", "website": "https://www.academy.com/shop/storelocator/mississippi/gulfport/store-0058", "opening_hours": "Mo-Th 08:00-22:00; Fr-Sa 08:00-23:00; Su 08:00-22:00", "brand": "Academy Sports + Outdoors", "brand:wikidata": "Q4671380"}, "geometry": {"type": "Point", "coordinates": [-89.0908, 30.436]}},
{"type": "Feature", "id": "xMPqXL3174zo6aF76wsQRUrfv24=", "properties": {"ref": "store-0050", "@spider": "academy", "addr:full": "61107 Airport Road", "addr:city": "Slidell", "addr:state": "louisiana", "addr:postcode": "70460", "name": "Slidell", "phone": "(985) 646-4720", "website": "https://www.academy.com/shop/storelocator/louisiana/slidell/store-0050", "opening_hours": "Mo-Th 08:00-22:00; Fr-Sa 08:00-23:00; Su 08:00-22:00", "brand": "Academy Sports + Outdoors", "brand:wikidata": "Q4671380"}, "geometry": {"type": "Point", "coordinates": [-89.8264, 30.3168]}},
{"type": "Feature", "id": "L3qTYvnIh4yx9BQtvuTrtHrjaYU=", "properties": {"ref": "store-0237", "@spider": "academy", "addr:full": "2900 Derek Dr", "addr:city": "Lake Charles", "addr:state": "louisiana", "addr:postcode": "70607", "name": "Lake Charles", "phone": "(337) 562-4000", "website": "https://www.academy.com/shop/storelocator/louisiana/lake-charles/store-0237", "opening_hours": "Mo-Th 08:00-22:00; Fr-Sa 08:00-23:00; Su 08:00-22:00", "brand": "Academy Sports + Outdoors", "brand:wikidata": "Q4671380"}, "geometry": {"type": "Point", "coordinates": [-93.1772258, 30.1937187]}},
{"type": "Feature", "id": "lRsgoWlDgLpYL4b8jZzHlEeUjHg=", "properties": {"ref": "store-0059", "@spider": "academy", "addr:full": "210 E Bert Kouns Industrial Loop", "addr:city": "Shreveport", "addr:state": "louisiana", "addr:postcode": "71106", "name": "Shreveport", "phone": "(318) 383-5900", "website": "https://www.academy.com/shop/storelocator/louisiana/shreveport/store-0059", "opening_hours": "Mo-Th 08:00-22:00; Fr-Sa 08:00-23:00; Su 08:00-22:00", "brand": "Academy Sports + Outdoors", "brand:wikidata": "Q4671380"}, "geometry": {"type": "Point", "coordinates": [-93.745254, 32.3985206]}},
{"type": "Feature", "id": "YdRFCNbFN825OaG_F3vP8Hm7S0Q=", "properties": {"ref": "store-0060", "@spider": "academy", "addr:full": "1777 Martin Luther King Blvd", "addr:city": "Houma", "addr:state": "louisiana", "addr:postcode": "70360", "name": "Houma", "phone": "(985) 858-2500", "website": "https://www.academy.com/shop/storelocator/louisiana/houma/store-0060", "opening_hours": "Mo-Th 08:00-22:00; Fr-Sa 08:00-23:00; Su 08:00-22:00", "brand": "Academy Sports + Outdoors", "brand:wikidata": "Q4671380"}, "geometry": {"type": "Point", "coordinates": [-90.7556, 29.6126]}},
{"type": "Feature", "id": "93lpgpfaBnELqKGSqF5AnI6tAXc=", "properties": {"ref": "store-0198", "@spider": "academy", "addr:full": "115 Freedom Bend", "addr:city": "Flowood", "addr:state": "mississippi", "addr:postcode": "39232", "name": "Flowood", "phone": "(601) 919-4610", "website": "https://www.academy.com/shop/storelocator/mississippi/flowood/store-0198", "opening_hours": "Mo-Th 08:00-22:00; Fr-Sa 08:00-23:00; Su 08:00-22:00", "brand": "Academy Sports + Outdoors", "brand:wikidata": "Q4671380"}, "geometry": {"type": "Point", "coordinates": [-90.0739835, 32.3369457]}},
{"type": "Feature", "id": "u_qypZ-fP3WFn780GTC9c6MKsdU=", "properties": {"ref": "store-0159", "@spider": "academy", "addr:full": "12075 Lamey Bridge Rd", "addr:city": "Diberville", "addr:state": "mississippi", "addr:postcode": "39540", "name": "DIberville", "phone": "(228) 396-8000", "website": "https://www.academy.com/shop/storelocator/mississippi/diberville/store-0159", "opening_hours": "Mo-Th 08:00-22:00; Fr-Sa 08:00-23:00; Su 08:00-22:00", "brand": "Academy Sports + Outdoors", "brand:wikidata": "Q4671380"}, "geometry": {"type": "Point", "coordinates": [-88.891755, 30.459946]}},
{"type": "Feature", "id": "qOsCfcgjrVEhOf6sPejHhMogGpE=", "properties": {"ref": "store-0117", "@spider": "academy", "addr:full": "610 W. El Camino Alto Dr.", "addr:city": "Springfield", "addr:state": "missouri", "addr:postcode": "65810", "name": "Springfield", "phone": "(417) 890-3800", "website": "https://www.academy.com/shop/storelocator/missouri/springfield/store-0117", "opening_hours": "Mo-Th 08:00-22:00; Fr-Sa 08:00-23:00; Su 08:00-22:00", "brand": "Academy Sports + Outdoors", "brand:wikidata": "Q4671380"}, "geometry": {"type": "Point", "coordinates": [-93.3008, 37.132]}},
{"type": "Feature", "id": "x20G3dx8MlyKYrriX9PrASCwR2g=", "properties": {"ref": "store-0171", "@spider": "academy", "addr:full": "8843 Veterans Memorial Blvd.", "addr:city": "Metairie", "addr:state": "louisiana", "addr:postcode": "70003", "name": "Metairie", "phone": "(504) 712-3320", "website": "https://www.academy.com/shop/storelocator/louisiana/metairie/store-0171", "opening_hours": "Mo-Th 08:00-22:00; Fr-Sa 08:00-23:00; Su 08:00-22:00", "brand": "Academy Sports + Outdoors", "brand:wikidata": "Q4671380"}, "geometry": {"type": "Point", "coordinates": [-90.225281, 30.007154]}},
{"type": "Feature", "id": "PYgDQwoisemBUjXMBE-fLwPnzU0=", "properties": {"ref": "store-0111", "@spider": "academy", "addr:full": "600 C M Fagan Dr", "addr:city": "Hammond", "addr:state": "louisiana", "addr:postcode": "70403", "name": "Hammond", "phone": "(985) 429-7860", "website": "https://www.academy.com/shop/storelocator/louisiana/hammond/store-0111", "opening_hours": "Mo-Th 08:00-22:00; Fr-Sa 08:00-23:00; Su 08:00-22:00", "brand": "Academy Sports + Outdoors", "brand:wikidata": "Q4671380"}, "geometry": {"type": "Point", "coordinates": [-90.4627, 30.4837]}},
{"type": "Feature", "id": "2eNyPCAl1s0QhA6aDFVa52osLjU=", "properties": {"ref": "store-0222", "@spider": "academy", "addr:full": "9997 Crossing Way, Suite 800", "addr:city": "Denham Springs", "addr:state": "louisiana", "addr:postcode": "70726", "name": "Denham Springs", "phone": "(225) 271-3600", "website": "https://www.academy.com/shop/storelocator/louisiana/denham-springs/store-0222", "opening_hours": "Mo-Th 08:00-22:00; Fr-Sa 08:00-23:00; Su 08:00-22:00", "brand": "Academy Sports + Outdoors", "brand:wikidata": "Q4671380"}, "geometry": {"type": "Point", "coordinates": [-90.9430484, 30.475023]}},
{"type": "Feature", "id": "Fxv-vaVAAje1VAjSqZVDJxIOSIg=", "properties": {"ref": "store-0113", "@spider": "academy", "addr:full": "3001 Louisiana Ave.", "addr:city": "Lafayette", "addr:state": "louisiana", "addr:postcode": "70501", "name": "NE. Lafayette - I10", "phone": "(337) 521-6920", "website": "https://www.academy.com/shop/storelocator/louisiana/lafayette/store-0113", "opening_hours": "Mo-Th 08:00-22:00; Fr-Sa 08:00-23:00; Su 08:00-22:00", "brand": "Academy Sports + Outdoors", "brand:wikidata": "Q4671380"}, "geometry": {"type": "Point", "coordinates": [-91.9954, 30.26198]}},
{"type": "Feature", "id": "Eq0qJWGE3poV4UHVBZ_ewW0ZezM=", "properties": {"ref": "store-0054", "@spider": "academy", "addr:full": "4232 Ambassador Caffery Pkwy", "addr:city": "Lafayette", "addr:state": "louisiana", "addr:postcode": "70508", "name": "SW Lafayette - Ambassador", "phone": "(337) 371-4750", "website": "https://www.academy.com/shop/storelocator/louisiana/lafayette/store-0054", "opening_hours": "Mo-Th 08:00-22:00; Fr-Sa 08:00-23:00; Su 08:00-22:00", "brand": "Academy Sports + Outdoors", "brand:wikidata": "Q4671380"}, "geometry": {"type": "Point", "coordinates": [-92.0539, 30.1611]}},
{"type": "Feature", "id": "j472UiEG_tTIMqvyQ_ITPAw-zd0=", "properties": {"ref": "store-0055", "@spider": "academy", "addr:full": "91 Westbank Expressway Suite 250", "addr:city": "Gretna", "addr:state": "louisiana", "addr:postcode": "70053", "name": "Gretna", "phone": "(504) 263-6000", "website": "https://www.academy.com/shop/storelocator/louisiana/gretna/store-0055", "opening_hours": "Mo-Th 08:00-22:00; Fr-Sa 08:00-23:00; Su 08:00-22:00", "brand": "Academy Sports + Outdoors", "brand:wikidata": "Q4671380"}, "geometry": {"type": "Point", "coordinates": [-90.0496, 29.9148]}},
{"type": "Feature", "id": "_i7kko0mEQGD5OyaSO11cGGO6ds=", "properties": {"ref": "store-0052", "@spider": "academy", "addr:full": "3205 S MacArthur Drive", "addr:city": "Alexandria", "addr:state": "louisiana", "addr:postcode": "71301", "name": "Alexandria", "phone": "(318) 483-3920", "website": "https://www.academy.com/shop/storelocator/louisiana/alexandria/store-0052", "opening_hours": "Mo-Th 08:00-22:00; Fr-Sa 08:00-23:00; Su 08:00-22:00", "brand": "Academy Sports + Outdoors", "brand:wikidata": "Q4671380"}, "geometry": {"type": "Point", "coordinates": [-92.4544, 31.2656]}},
{"type": "Feature", "id": "9ISyuRp91LoskYeMhjQxHzPmIjw=", "properties": {"ref": "store-0207", "@spider": "academy", "addr:full": "3051 Highland Pointe Dr", "addr:city": "Owensboro", "addr:state": "kentucky", "addr:postcode": "42303", "name": "Owensboro", "phone": "(270) 686-6000", "website": "https://www.academy.com/shop/storelocator/kentucky/owensboro/store-0207", "opening_hours": "Mo-Th 08:00-22:00; Fr-Sa 08:00-23:00; Su 08:00-22:00", "brand": "Academy Sports + Outdoors", "brand:wikidata": "Q4671380"}, "geometry": {"type": "Point", "coordinates": [-87.068668, 37.754978]}},
{"type": "Feature", "id": "VUpwZiN7enGS5TJzbfkkADBxqos=", "properties": {"ref": "store-0217", "@spider": "academy", "addr:full": "4901 Outer Loop, Suite 144", "addr:city": "Louisville", "addr:state": "kentucky", "addr:postcode": "40219", "name": "Louisville", "phone": "(502) 966-1650", "website": "https://www.academy.com/shop/storelocator/kentucky/louisville/store-0217", "opening_hours": "Mo-Th 08:00-22:00; Fr-Sa 08:00-23:00; Su 08:00-22:00", "brand": "Academy Sports + Outdoors", "brand:wikidata": "Q4671380"}, "geometry": {"type": "Point", "coordinates": [-85.6669451, 38.1378281]}},
{"type": "Feature", "id": "gRfKNLDbLoDL9AXotwelClzdKtk=", "properties": {"ref": "store-0151", "@spider": "academy", "addr:full": "7205 Pinnacle Pkwy", "addr:city": "Covington", "addr:state": "louisiana", "addr:postcode": "70433", "name": "Covington", "phone": "(985) 898-7920", "website": "https://www.academy.com/shop/storelocator/louisiana/covington/store-0151", "opening_hours": "Mo-Th 08:00-22:00; Fr-Sa 08:00-23:00; Su 08:00-22:00", "brand": "Academy Sports + Outdoors", "brand:wikidata": "Q4671380"}, "geometry": {"type": "Point", "coordinates": [-90.1303, 30.4447]}},
{"type": "Feature", "id": "tWftykl995gjdo8m_5AkSPAlyPU=", "properties": {"ref": "store-0232", "@spider": "academy", "addr:full": "1507 Ring Rd", "addr:city": "Elizabethtown", "addr:state": "kentucky", "addr:postcode": "42701", "name": "Elizabethtown", "phone": "(270) 234-2800", "website": "https://www.academy.com/shop/storelocator/kentucky/elizabethtown/store-0232", "opening_hours": "Mo-Th 08:00-22:00; Fr-Sa 08:00-23:00; Su 08:00-22:00", "brand": "Academy Sports + Outdoors", "brand:wikidata": "Q4671380"}, "geometry": {"type": "Point", "coordinates": [-85.8907759, 37.7257402]}},
{"type": "Feature", "id": "rdciKVZRY32hLV02RTyt4UOPTDw=", "properties": {"ref": "store-0056", "@spider": "academy", "addr:full": "8464 Airline Highway", "addr:city": "Baton Rouge", "addr:state": "louisiana", "addr:postcode": "70815", "name": "N. Baton Rouge - Cortana", "phone": "(225) 923-4640", "website": "https://www.academy.com/shop/storelocator/louisiana/baton-rouge/store-0056", "opening_hours": "Mo-Th 08:00-22:00; Fr-Sa 08:00-23:00; Su 08:00-22:00", "brand": "Academy Sports + Outdoors", "brand:wikidata": "Q4671380"}, "geometry": {"type": "Point", "coordinates": [-91.1001, 30.4579]}},
{"type": "Feature", "id": "he-eIiCjVsrlOupgLtMjZN6JzCs=", "properties": {"ref": "store-0051", "@spider": "academy", "addr:full": "10808 Industriplex Blvd", "addr:city": "Baton Rouge", "addr:state": "louisiana", "addr:postcode": "70809", "name": "S. Baton Rouge - Siegen", "phone": "(225) 298-6300", "website": "https://www.academy.com/shop/storelocator/louisiana/baton-rouge/store-0051", "opening_hours": "Mo-Th 08:00-22:00; Fr-Sa 08:00-23:00; Su 08:00-22:00", "brand": "Academy Sports + Outdoors", "brand:wikidata": "Q4671380"}, "geometry": {"type": "Point", "coordinates": [-91.0622, 30.3898]}},
{"type": "Feature", "id": "ixklYkTbxUijKSa9wp3rEf_xtlk=", "properties": {"ref": "store-0233", "@spider": "academy", "addr:full": "150 McBride Lane", "addr:city": "Paducah", "addr:state": "kentucky", "addr:postcode": "42001", "name": "Paducah", "phone": "(270) 415-7860", "website": "https://www.academy.com/shop/storelocator/kentucky/paducah/store-0233", "opening_hours": "Mo-Th 08:00-22:00; Fr-Sa 08:00-23:00; Su 08:00-22:00", "brand": "Academy Sports + Outdoors", "brand:wikidata": "Q4671380"}, "geometry": {"type": "Point", "coordinates": [-88.6846536, 37.0747386]}},
{"type": "Feature", "id": "inkCes0-rxFenyxLXeUXNaash3k=", "properties": {"ref": "store-0187", "@spider": "academy", "addr:full": "9781 Quivira Rd.", "addr:city": "Overland Park", "addr:state": "kansas", "addr:postcode": "66214", "name": "Overland Park", "phone": "(913) 227-1600", "website": "https://www.academy.com/shop/storelocator/kansas/overland-park/store-0187", "opening_hours": "Mo-Th 08:00-22:00; Fr-Sa 08:00-23:00; Su 08:00-22:00", "brand": "Academy Sports + Outdoors", "brand:wikidata": "Q4671380"}, "geometry": {"type": "Point", "coordinates": [-94.721339, 38.950803]}},
{"type": "Feature", "id": "YRG3PPxNbqLIj4erikP--LX6YGk=", "properties": {"ref": "store-0205", "@spider": "academy", "addr:full": "2540 N.Greenwich Rd", "addr:city": "Wichita", "addr:state": "kansas", "addr:postcode": "67226", "name": "Northeast Wichita", "phone": "(316) 315-1700", "website": "https://www.academy.com/shop/storelocator/kansas/wichita/store-0205", "opening_hours": "Mo-Th 08:00-22:00; Fr-Sa 08:00-23:00; Su 08:00-22:00", "brand": "Academy Sports + Outdoors", "brand:wikidata": "Q4671380"}, "geometry": {"type": "Point", "coordinates": [-97.2078553, 37.7292025]}},
{"type": "Feature", "id": "T85cW4JnWQo1EzI1AIFnzpC7mLY=", "properties": {"ref": "store-0243", "@spider": "academy", "addr:full": "4444 S US Hwy 41", "addr:city": "Terre Haute", "addr:state": "indiana", "addr:postcode": "47802", "name": "Terre Haute", "phone": "(812) 231-5560", "website": "https://www.academy.com/shop/storelocator/indiana/terre-haute/store-0243", "opening_hours": "Mo-Th 08:00-22:00; Fr-Sa 08:00-23:00; Su 08:00-22:00", "brand": "Academy Sports + Outdoors", "brand:wikidata": "Q4671380"}, "geometry": {"type": "Point", "coordinates": [-87.413117, 39.413172]}},
{"type": "Feature", "id": "SOdrNzvG6kYzXUY5tFhtm8kclUM=", "properties": {"ref": "store-0061", "@spider": "academy", "addr:full": "800 South Clearview Pkwy", "addr:city": "Harahan", "addr:state": "louisiana", "addr:postcode": "70123", "name": "Harahan", "phone": "(504) 729-4300", "website": "https://www.academy.com/shop/storelocator/louisiana/harahan/store-0061", "opening_hours": "Mo-Th 08:00-22:00; Fr-Sa 08:00-23:00; Su 08:00-22:00", "brand": "Academy Sports + Outdoors", "brand:wikidata": "Q4671380"}, "geometry": {"type": "Point", "coordinates": [-90.1812, 29.9537]}},
{"type": "Feature", "id": "bxfo-_CZkpfnsJ7pq6TavaOZ-kk=", "properties": {"ref": "store-0203", "@spider": "academy", "addr:full": "6700 Columbia St", "addr:city": "Evansville", "addr:state": "indiana", "addr:postcode": "47715", "name": "Evansville", "phone": "(812) 228-3040", "website": "https://www.academy.com/shop/storelocator/indiana/evansville/store-0203", "opening_hours": "Mo-Th 08:00-22:00; Fr-Sa 08:00-23:00; Su 08:00-22:00", "brand": "Academy Sports + Outdoors", "brand:wikidata": "Q4671380"}, "geometry": {"type": "Point", "coordinates": [-87.4721337, 37.9839758]}},
{"type": "Feature", "id": "NYAidQX2Yr3jes0ICLOvvtczfjk=", "properties": {"ref": "store-0132", "@spider": "academy", "addr:full": "2710 N Maize Rd", "addr:city": "Wichita", "addr:state": "kansas", "addr:postcode": "67205", "name": "Northwest Wichita", "phone": "(316) 220-2220", "website": "https://www.academy.com/shop/storelocator/kansas/wichita/store-0132", "opening_hours": "Mo-Th 08:00-22:00; Fr-Sa 08:00-23:00; Su 08:00-22:00", "brand": "Academy Sports + Outdoors", "brand:wikidata": "Q4671380"}, "geometry": {"type": "Point", "coordinates": [-97.46042, 37.7322]}},
{"type": "Feature", "id": "S2PQCZ4ZBjBA_ixbNnhe2IwYVP8=", "properties": {"ref": "store-0175", "@spider": "academy", "addr:full": "2907 Watson Blvd.", "addr:city": "Warner Robins", "addr:state": "georgia", "addr:postcode": "31093", "name": "Warner Robins", "phone": "(478) 971-6420", "website": "https://www.academy.com/shop/storelocator/georgia/warner-robins/store-0175", "opening_hours": "Mo-Th 08:00-22:00; Fr-Sa 08:00-23:00; Su 08:00-22:00", "brand": "Academy Sports + Outdoors", "brand:wikidata": "Q4671380"}, "geometry": {"type": "Point", "coordinates": [-83.684041, 32.61639]}},
{"type": "Feature", "id": "nhBfXAebFHfLfJbcg9D_A5yEsYM=", "properties": {"ref": "store-0252", "@spider": "academy", "addr:full": "140 Glenwild Dr", "addr:city": "Thibodaux", "addr:state": "louisiana", "addr:postcode": "70301", "name": "Thibodaux", "phone": "(985) 493-5780", "website": "https://www.academy.com/shop/storelocator/louisiana/thibodaux/store-0252", "opening_hours": "Mo-Th 08:00-22:00; Fr-Sa 08:00-23:00; Su 08:00-22:00", "brand": "Academy Sports + Outdoors", "brand:wikidata": "Q4671380"}, "geometry": {"type": "Point", "coordinates": [-90.8157888, 29.8130605]}},
{"type": "Feature", "id": "Z_WA9lDTny86SMmbK_jjlSxaHgI=", "properties": {"ref": "store-0253", "@spider": "academy", "addr:full": "1574 W Highway 50", "addr:city": "O Fallon", "addr:state": "illinois", "addr:postcode": "62269", "name": "O Fallon", "phone": "(618) 628-7960", "website": "https://www.academy.com/shop/storelocator/illinois/O-Fallon/store-0253", "opening_hours": "Mo-Th 08:00-22:00; Fr-Sa 08:00-23:00; Su 08:00-22:00", "brand": "Academy Sports + Outdoors", "brand:wikidata": "Q4671380"}, "geometry": {"type": "Point", "coordinates": [-89.89568, 38.571835]}},
{"type": "Feature", "id": "KFA0gamI7oAjse3KVmL41vxwURI=", "properties": {"ref": "store-0188", "@spider": "academy", "addr:full": "14405 W. 135th St.", "addr:city": "Olathe", "addr:state": "kansas", "addr:postcode": "66062", "name": "Olathe", "phone": "(913) 390-2200", "website": "https://www.academy.com/shop/storelocator/kansas/olathe/store-0188", "opening_hours": "Mo-Th 08:00-22:00; Fr-Sa 08:00-23:00; Su 08:00-22:00", "brand": "Academy Sports + Outdoors", "brand:wikidata": "Q4671380"}, "geometry": {"type": "Point", "coordinates": [-94.752961, 38.881831]}},
{"type": "Feature", "id": "z7SmYfLlMx7mJe1SKbcXVMh8uG8=", "properties": {"ref": "store-0170", "@spider": "academy", "addr:full": "455 Norman Dr.", "addr:city": "Valdosta", "addr:state": "georgia", "addr:postcode": "31601", "name": "Valdosta", "phone": "(229) 293-2700", "website": "https://www.academy.com/shop/storelocator/georgia/valdosta/store-0170", "opening_hours": "Mo-Th 08:00-22:00; Fr-Sa 08:00-23:00; Su 08:00-22:00", "brand": "Academy Sports + Outdoors", "brand:wikidata": "Q4671380"}, "geometry": {"type": "Point", "coordinates": [-83.317926, 30.829586]}},
{"type": "Feature", "id": "CoZm6KzbW1MVXbMGcmJiLvI2IJs=", "properties": {"ref": "store-0260", "@spider": "academy", "addr:full": "1580 Crater Lake Dr", "addr:city": "Kennesaw", "addr:state": "georgia", "addr:postcode": "30152", "name": "Kennesaw", "phone": "(678) 919-8900", "website": "https://www.academy.com/shop/storelocator/georgia/kennesaw/store-0260", "opening_hours": "Mo-Th 08:00-22:00; Fr-Sa 08:00-23:00; Su 08:00-22:00", "brand": "Academy Sports + Outdoors", "brand:wikidata": "Q4671380"}, "geometry": {"type": "Point", "coordinates": [-84.5920812, 33.9974651]}},
{"type": "Feature", "id": "O5xb-YqxED9KNpIEiC_vCnU3OkU=", "properties": {"ref": "store-0157", "@spider": "academy", "addr:full": "1096 Bullsboro Dr.", "addr:city": "Newnan", "addr:state": "georgia", "addr:postcode": "30265", "name": "Newnan", "phone": "(678) 423-5689", "website": "https://www.academy.com/shop/storelocator/georgia/newnan/store-0157", "opening_hours": "Mo-Th 08:00-22:00; Fr-Sa 08:00-23:00; Su 08:00-22:00", "brand": "Academy Sports + Outdoors", "brand:wikidata": "Q4671380"}, "geometry": {"type": "Point", "coordinates": [-84.743262, 33.400336]}},
{"type": "Feature", "id": "PCAfynu6oCL4zazFDoEpemKTTUs=", "properties": {"ref": "store-0124", "@spider": "academy", "addr:full": "4215 Jimmy Lee Smith Parkway", "addr:city": "Hiram", "addr:state": "georgia", "addr:postcode": "30141", "name": "Hiram", "phone": "(678) 293-3150", "website": "https://www.academy.com/shop/storelocator/georgia/hiram/store-0124", "opening_hours": "Mo-Th 08:00-22:00; Fr-Sa 08:00-23:00; Su 08:00-22:00", "brand": "Academy Sports + Outdoors", "brand:wikidata": "Q4671380"}, "geometry": {"type": "Point", "coordinates": [-84.759298, 33.894]}},
{"type": "Feature", "id": "FF9-27_c5h1gybEnfmSUHJxBeQg=", "properties": {"ref": "store-0225", "@spider": "academy", "addr:full": "1133 SW Wanamaker Rd, Suite 300", "addr:city": "Topeka", "addr:state": "kansas", "addr:postcode": "66604", "name": "Topeka", "phone": "(785) 228-4220", "website": "https://www.academy.com/shop/storelocator/kansas/topeka/store-0225", "opening_hours": "Mo-Th 08:00-22:00; Fr-Sa 08:00-23:00; Su 08:00-22:00", "brand": "Academy Sports + Outdoors", "brand:wikidata": "Q4671380"}, "geometry": {"type": "Point", "coordinates": [-95.763987, 39.046532]}},
{"type": "Feature", "id": "EszaWxE3jAsg6MpXHTSaqWVsdFw=", "properties": {"ref": "store-0191", "@spider": "academy", "addr:full": "4210 Washington Road", "addr:city": "Evans", "addr:state": "georgia", "addr:postcode": "30809", "name": "Evans", "phone": "(706) 210-6100", "website": "https://www.academy.com/shop/storelocator/georgia/evans/store-0191", "opening_hours": "Mo-Th 08:00-22:00; Fr-Sa 08:00-23:00; Su 08:00-22:00", "brand": "Academy Sports + Outdoors", "brand:wikidata": "Q4671380"}, "geometry": {"type": "Point", "coordinates": [-82.1204, 33.5253]}},
{"type": "Feature", "id": "disqI6WxgUw6Ds5JZbzQ-mj451Y=", "properties": {"ref": "store-0169", "@spider": "academy", "addr:full": "7200 Concourse Pkwy", "addr:city": "Douglasville", "addr:state": "georgia", "addr:postcode": "30134", "name": "Douglasville", "phone": "(678) 715-5020", "website": "https://www.academy.com/shop/storelocator/georgia/douglasville/store-0169", "opening_hours": "Mo-Th 08:00-22:00; Fr-Sa 08:00-23:00; Su 08:00-22:00", "brand": "Academy Sports + Outdoors", "brand:wikidata": "Q4671380"}, "geometry": {"type": "Point", "coordinates": [-84.761041, 33.730143]}},
{"type": "Feature", "id": "lAzp5xgs5YiJefgIRbxzvGNOtEA=", "properties": {"ref": "store-0150", "@spider": "academy", "addr:full": "2801 Beene Blvd.", "addr:city": "Bossier City", "addr:state": "louisiana", "addr:postcode": "71111", "name": "Bossier City", "phone": "(318) 759-1300", "website": "https://www.academy.com/shop/storelocator/louisiana/bossier-city/store-0150", "opening_hours": "Mo-Th 08:00-22:00; Fr-Sa 08:00-23:00; Su 08:00-22:00", "brand": "Academy Sports + Outdoors", "brand:wikidata": "Q4671380"}, "geometry": {"type": "Point", "coordinates": [-93.707474, 32.561636]}},
{"type": "Feature", "id": "cDyXK5wGJaRnXCjhkTtrokh8it8=", "properties": {"ref": "store-0107", "@spider": "academy", "addr:full": "1585 Scenic Hwy", "addr:city": "Snellville", "addr:state": "georgia", "addr:postcode": "30078", "name": "Snellville", "phone": "(770) 736-4009", "website": "https://www.academy.com/shop/storelocator/georgia/snellville/store-0107", "opening_hours": "Mo-Th 08:00-22:00; Fr-Sa 08:00-23:00; Su 08:00-22:00", "brand": "Academy Sports + Outdoors", "brand:wikidata": "Q4671380"}, "geometry": {"type": "Point", "coordinates": [-84.0101, 33.8866]}},
{"type": "Feature", "id": "ySPjwTV0ZybEtswOBqLbzhy2128=", "properties": {"ref": "store-0224", "@spider": "academy", "addr:full": "1140 Dawsonville Hwy", "addr:city": "Gainesville", "addr:state": "georgia", "addr:postcode": "30501", "name": "Gainesville", "phone": "(678) 989-2867", "website": "https://www.academy.com/shop/storelocator/georgia/gainesville/store-0224", "opening_hours": "Mo-Th 08:00-22:00; Fr-Sa 08:00-23:00; Su 08:00-22:00", "brand": "Academy Sports + Outdoors", "brand:wikidata": "Q4671380"}, "geometry": {"type": "Point", "coordinates": [-83.8590117, 34.3027828]}},
{"type": "Feature", "id": "nJzDoTjzVkWEHGdjTgZmzm4TCVc=", "properties": {"ref": "store-0307", "@spider": "academy", "addr:full": "6700 Whittlesey Blvd", "addr:city": "Columbus", "addr:state": "georgia", "addr:postcode": "31909", "name": "Columbus", "phone": "(706) 530-4560", "website": "https://www.academy.com/shop/storelocator/georgia/columbus/store-0307", "opening_hours": "Mo-Th 08:00-22:00; Fr-Sa 08:00-23:00; Su 08:00-22:00", "brand": "Academy Sports + Outdoors", "brand:wikidata": "Q4671380"}, "geometry": {"type": "Point", "coordinates": [-84.9367164, 32.5488891]}},
{"type": "Feature", "id": "SrGGmR7vPXWEDaYw4m_FAY2mVA4=", "properties": {"ref": "store-0190", "@spider": "academy", "addr:full": "1689 Eisenhower Parkway", "addr:city": "Macon", "addr:state": "georgia", "addr:postcode": "31206", "name": "Macon", "phone": "(478) 785-2300", "website": "https://www.academy.com/shop/storelocator/georgia/macon/store-0190", "opening_hours": "Mo-Th 08:00-22:00; Fr-Sa 08:00-23:00; Su 08:00-22:00", "brand": "Academy Sports + Outdoors", "brand:wikidata": "Q4671380"}, "geometry": {"type": "Point", "coordinates": [-83.6727, 32.8147]}},
{"type": "Feature", "id": "H1x_S-bVlbOmer5b9Xk0O8HD2bg=", "properties": {"ref": "store-0192", "@spider": "academy", "addr:full": "3505 Atlanta Highway", "addr:city": "Athens", "addr:state": "georgia", "addr:postcode": "30606", "name": "Athens", "phone": "(706) 354-5620", "website": "https://www.academy.com/shop/storelocator/georgia/athens/store-0192", "opening_hours": "Mo-Th 08:00-22:00; Fr-Sa 08:00-23:00; Su 08:00-22:00", "brand": "Academy Sports + Outdoors", "brand:wikidata": "Q4671380"}, "geometry": {"type": "Point", "coordinates": [-83.4551, 33.9388]}},
{"type": "Feature", "id": "D9OuAUGtwDEpULD0F5EZDGz0kCA=", "properties": {"ref": "store-0179", "@spider": "academy", "addr:full": "865 Shugart Rd", "addr:city": "Dalton", "addr:state": "georgia", "addr:postcode": "30720", "name": "Dalton", "phone": "(706) 270-6160", "website": "https://www.academy.com/shop/storelocator/georgia/dalton/store-0179", "opening_hours": "Mo-Th 08:00-22:00; Fr-Sa 08:00-23:00; Su 08:00-22:00", "brand": "Academy Sports + Outdoors", "brand:wikidata": "Q4671380"}, "geometry": {"type": "Point", "coordinates": [-84.99725, 34.79002]}},
{"type": "Feature", "id": "Yjzk-cGp6tnkksNrN7Jt7GPQk6c=", "properties": {"ref": "store-0112", "@spider": "academy", "addr:full": "3122-9 Mahan Dr.", "addr:city": "Tallahassee", "addr:state": "florida", "addr:postcode": "32308", "name": "Tallahassee", "phone": "(850) 216-3560", "website": "https://www.academy.com/shop/storelocator/florida/tallahassee/store-0112", "opening_hours": "Mo-Th 08:00-22:00; Fr-Sa 08:00-23:00; Su 08:00-22:00", "brand": "Academy Sports + Outdoors", "brand:wikidata": "Q4671380"}, "geometry": {"type": "Point", "coordinates": [-84.223471, 30.462904]}},
{"type": "Feature", "id": "xLv_woH259Jrfl8aweTwdxYk_WI=", "properties": {"ref": "store-0173", "@spider": "academy", "addr:full": "7171 North Davis Hwy", "addr:city": "Pensacola", "addr:state": "florida", "addr:postcode": "32504", "name": "Pensacola", "phone": "(850) 473-3800", "website": "https://www.academy.com/shop/storelocator/florida/pensacola/store-0173", "opening_hours": "Mo-Th 08:00-22:00; Fr-Sa 08:00-23:00; Su 08:00-22:00", "brand": "Academy Sports + Outdoors", "brand:wikidata": "Q4671380"}, "geometry": {"type": "Point", "coordinates": [-87.224964, 30.49965]}},
{"type": "Feature", "id": "E-F-o3bdnVFfDwZEMIPsrX7fB8M=", "properties": {"ref": "store-0110", "@spider": "academy", "addr:full": "198 South Point Blvd.", "addr:city": "Mcdonough", "addr:state": "georgia", "addr:postcode": "30253", "name": "McDonough", "phone": "(678) 432-8000", "website": "https://www.academy.com/shop/storelocator/georgia/mcdonough/store-0110", "opening_hours": "Mo-Th 08:00-22:00; Fr-Sa 08:00-23:00; Su 08:00-22:00", "brand": "Academy Sports + Outdoors", "brand:wikidata": "Q4671380"}, "geometry": {"type": "Point", "coordinates": [-84.1882, 33.42507]}},
{"type": "Feature", "id": "xS_gBagPsCv7YLgFyJBi5OIK0O8=", "properties": {"ref": "store-0199", "@spider": "academy", "addr:full": "453 E. Main St.", "addr:city": "Cartersville", "addr:state": "georgia", "addr:postcode": "30121", "name": "Cartersville", "phone": "(770) 607-6020", "website": "https://www.academy.com/shop/storelocator/georgia/cartersville/store-0199", "opening_hours": "Mo-Th 08:00-22:00; Fr-Sa 08:00-23:00; Su 08:00-22:00", "brand": "Academy Sports + Outdoors", "brand:wikidata": "Q4671380"}, "geometry": {"type": "Point", "coordinates": [-84.785526, 34.1657575]}},
{"type": "Feature", "id": "MvkAXC43Av0OANSiyT1qbKIMBn4=", "properties": {"ref": "store-0231", "@spider": "academy", "addr:full": "11955 E. Colonial Dr", "addr:city": "Orlando", "addr:state": "florida", "addr:postcode": "32826", "name": "East Colonial", "phone": "(407) 243-2000", "website": "https://www.academy.com/shop/storelocator/florida/orlando/store-0231", "opening_hours": "Mo-Th 08:00-22:00; Fr-Sa 08:00-23:00; Su 08:00-22:00", "brand": "Academy Sports + Outdoors", "brand:wikidata": "Q4671380"}, "geometry": {"type": "Point", "coordinates": [-81.2043854, 28.5665642]}},
{"type": "Feature", "id": "zAiIFFjgazO3exLCaVz3YbhkE-k=", "properties": {"ref": "store-0101", "@spider": "academy", "addr:full": "661 Blanding Blvd, Suite 700", "addr:city": "Orange Park", "addr:state": "florida", "addr:postcode": "32073", "name": "Orange Park", "phone": "(904) 213-2080", "website": "https://www.academy.com/shop/storelocator/florida/orange-park/store-0101", "opening_hours": "Mo-Th 08:00-22:00; Fr-Sa 08:00-23:00; Su 08:00-22:00", "brand": "Academy Sports + Outdoors", "brand:wikidata": "Q4671380"}, "geometry": {"type": "Point", "coordinates": [-81.7529, 30.1475]}},
{"type": "Feature", "id": "VPROWPyKC5FwMPA0nxkTPYKfNLU=", "properties": {"ref": "store-0278", "@spider": "academy", "addr:full": "10400 Canal Crossing", "addr:city": "Brunswick", "addr:state": "georgia", "addr:postcode": "31525", "name": "Brunswick", "phone": "(912) 279-2660", "website": "https://www.academy.com/shop/storelocator/georgia/brunswick/store-0278", "opening_hours": "Mo-Th 08:00-22:00; Fr-Sa 08:00-23:00; Su 08:00-22:00", "brand": "Academy Sports + Outdoors", "brand:wikidata": "Q4671380"}, "geometry": {"type": "Point", "coordinates": [-81.4988586, 31.2302057]}},
{"type": "Feature", "id": "7tvcQ75laOvCSJBU4y48KrxBzI8=", "properties": {"ref": "store-0236", "@spider": "academy", "addr:full": "4285 Norfolk Parkway", "addr:city": "West Melbourne", "addr:state": "florida", "addr:postcode": "32904", "name": "West Melbourne", "phone": "(321) 733-5000", "website": "https://www.academy.com/shop/storelocator/florida/west-melbourne/store-0236", "opening_hours": "Mo-Th 08:00-22:00; Fr-Sa 08:00-23:00; Su 08:00-22:00", "brand": "Academy Sports + Outdoors", "brand:wikidata": "Q4671380"}, "geometry": {"type": "Point", "coordinates": [-80.6625362, 28.0374128]}},
{"type": "Feature", "id": "Jw9_ERAuI7jWLKAon5OvTrWYZR8=", "properties": {"ref": "store-0257", "@spider": "academy", "addr:full": "3720 Buford Dr", "addr:city": "Buford", "addr:state": "georgia", "addr:postcode": "30519", "name": "Buford", "phone": "(470) 323-5621", "website": "https://www.academy.com/shop/storelocator/georgia/buford/store-0257", "opening_hours": "Mo-Th 08:00-22:00; Fr-Sa 08:00-23:00; Su 08:00-22:00", "brand": "Academy Sports + Outdoors", "brand:wikidata": "Q4671380"}, "geometry": {"type": "Point", "coordinates": [-83.990195, 34.082364]}},
{"type": "Feature", "id": "7K-aPq-j1qum_3gas3CGFux2UEo=", "properties": {"ref": "store-0228", "@spider": "academy", "addr:full": "621 Centerview Blvd", "addr:city": "Kissimmee", "addr:state": "florida", "addr:postcode": "34741", "name": "Kissimmee", "phone": "(321) 697-5100", "website": "https://www.academy.com/shop/storelocator/florida/kissimmee/store-0228", "opening_hours": "Mo-Th 08:00-22:00; Fr-Sa 08:00-23:00; Su 08:00-22:00", "brand": "Academy Sports + Outdoors", "brand:wikidata": "Q4671380"}, "geometry": {"type": "Point", "coordinates": [-81.4156024, 28.3384813]}},
{"type": "Feature", "id": "V289rh920CQpAB7OdP-FGTkUWlA=", "properties": {"ref": "store-0194", "@spider": "academy", "addr:full": "9041 Southside Blvd Suite 157", "addr:city": "Jacksonville", "addr:state": "florida", "addr:postcode": "32256", "name": "Southeast Jacksonville", "phone": "(904) 363-6720", "website": "https://www.academy.com/shop/storelocator/florida/jacksonville/store-0194", "opening_hours": "Mo-Th 08:00-22:00; Fr-Sa 08:00-23:00; Su 08:00-22:00", "brand": "Academy Sports + Outdoors", "brand:wikidata": "Q4671380"}, "geometry": {"type": "Point", "coordinates": [-81.550266, 30.192301]}},
{"type": "Feature", "id": "ADU8Bvkzy4GDW2tE3r0QbiTQQ5Q=", "properties": {"ref": "store-0256", "@spider": "academy", "addr:full": "3557 Gardens Ridge Way", "addr:city": "Orlando", "addr:state": "florida", "addr:postcode": "32839", "name": "Millenia", "phone": "(407) 481-5001", "website": "https://www.academy.com/shop/storelocator/florida/orlando/store-0256", "opening_hours": "Mo-Th 08:00-22:00; Fr-Sa 08:00-23:00; Su 08:00-22:00", "brand": "Academy Sports + Outdoors", "brand:wikidata": "Q4671380"}, "geometry": {"type": "Point", "coordinates": [-81.4252779, 28.4957659]}},
{"type": "Feature", "id": "MIdPy1kPN_BHFEEOf-apjZd528Q=", "properties": {"ref": "store-0104", "@spider": "academy", "addr:full": "11901 Atlantic Blvd, Bldg 300", "addr:city": "Jacksonville", "addr:state": "florida", "addr:postcode": "32225", "name": "Atlantic Blvd", "phone": "(904) 564-5010", "website": "https://www.academy.com/shop/storelocator/florida/jacksonville/store-0104", "opening_hours": "Mo-Th 08:00-22:00; Fr-Sa 08:00-23:00; Su 08:00-22:00", "brand": "Academy Sports + Outdoors", "brand:wikidata": "Q4671380"}, "geometry": {"type": "Point", "coordinates": [-81.4892, 30.3196]}},
{"type": "Feature", "id": "-gXqog0SVLWVMGa-OND3uMR4gTU=", "properties": {"ref": "store-0094", "@spider": "academy", "addr:full": "6100 Warden Rd", "addr:city": "Sherwood", "addr:state": "arkansas", "addr:postcode": "72120", "name": "Sherwood", "phone": "(501) 210-6030", "website": "https://www.academy.com/shop/storelocator/arkansas/sherwood/store-0094", "opening_hours": "Mo-Th 08:00-22:00; Fr-Sa 08:00-23:00; Su 08:00-22:00", "brand": "Academy Sports + Outdoors", "brand:wikidata": "Q4671380"}, "geometry": {"type": "Point", "coordinates": [-92.2033, 34.8147]}},
{"type": "Feature", "id": "zNPVuwxhM4DTZ2JXUpAoRu-3iDk=", "properties": {"ref": "store-0281", "@spider": "academy", "addr:full": "401 E. Poyntz Avenue", "addr:city": "Manhattan", "addr:state": "kansas", "addr:postcode": "66502", "name": "Manhattan", "phone": "(785) 323-3910", "website": "https://www.academy.com/shop/storelocator/kansas/manhattan/store-0281", "opening_hours": "Mo-Th 08:00-22:00; Fr-Sa 08:00-23:00; Su 08:00-22:00", "brand": "Academy Sports + Outdoors", "brand:wikidata": "Q4671380"}, "geometry": {"type": "Point", "coordinates": [-96.5554107, 39.1845659]}},
{"type": "Feature", "id": "ou4UJE0-M0ed_Q5ADncCicggJqw=", "properties": {"ref": "store-0093", "@spider": "academy", "addr:full": "11400 West Markham", "addr:city": "Little Rock", "addr:state": "arkansas", "addr:postcode": "72211", "name": "Markham", "phone": "(501) 217-3700", "website": "https://www.academy.com/shop/storelocator/arkansas/little-rock/store-0093", "opening_hours": "Mo-Th 08:00-22:00; Fr-Sa 08:00-23:00; Su 08:00-22:00", "brand": "Academy Sports + Outdoors", "brand:wikidata": "Q4671380"}, "geometry": {"type": "Point", "coordinates": [-92.402, 34.754]}},
{"type": "Feature", "id": "uewtixVbJnYOjQGC245ErWyJcCA=", "properties": {"ref": "store-0143", "@spider": "academy", "addr:full": "5001 Phoenix Avenue", "addr:city": "Fort Smith", "addr:state": "arkansas", "addr:postcode": "72903", "name": "Fort Smith", "phone": "(479) 494-1740", "website": "https://www.academy.com/shop/storelocator/arkansas/fort-smith/store-0143", "opening_hours": "Mo-Th 08:00-22:00; Fr-Sa 08:00-23:00; Su 08:00-22:00", "brand": "Academy Sports + Outdoors", "brand:wikidata": "Q4671380"}, "geometry": {"type": "Point", "coordinates": [-94.3807, 35.3386]}},
{"type": "Feature", "id": "nzehxHYAQi8EkN0aXhKXIrKPMxY=", "properties": {"ref": "store-0300", "@spider": "academy", "addr:full": "6640 Eagle Watch Drive", "addr:city": "Orlando", "addr:state": "florida", "addr:postcode": "32822", "name": "Lee Vista", "phone": "(407) 204-3900", "website": "https://www.academy.com/shop/storelocator/florida/orlando/store-0300", "opening_hours": "Mo-Th 08:00-22:00; Fr-Sa 08:00-23:00; Su 08:00-22:00", "brand": "Academy Sports + Outdoors", "brand:wikidata": "Q4671380"}, "geometry": {"type": "Point", "coordinates": [-81.3096887, 28.46767]}},
{"type": "Feature", "id": "gxneYP9kthC-lAZWGxoVS5_vJZc=", "properties": {"ref": "store-0230", "@spider": "academy", "addr:full": "3641 Lake Emma Rd", "addr:city": "Lake Mary", "addr:state": "florida", "addr:postcode": "32746", "name": "Lake Mary", "phone": "(407) 833-4000", "website": "https://www.academy.com/shop/storelocator/florida/lake-mary/store-0230", "opening_hours": "Mo-Th 08:00-22:00; Fr-Sa 08:00-23:00; Su 08:00-22:00", "brand": "Academy Sports + Outdoors", "brand:wikidata": "Q4671380"}, "geometry": {"type": "Point", "coordinates": [-81.3587308, 28.752375]}},
{"type": "Feature", "id": "Ss4TbHEppiay3BMYdXPYHofXKD0=", "properties": {"ref": "store-0089", "@spider": "academy", "addr:full": "3855 S 26th St", "addr:city": "Rogers", "addr:state": "arkansas", "addr:postcode": "72758", "name": "Rogers", "phone": "(479) 619-1900", "website": "https://www.academy.com/shop/storelocator/arkansas/rogers/store-0089", "opening_hours": "Mo-Th 08:00-22:00; Fr-Sa 08:00-23:00; Su 08:00-22:00", "brand": "Academy Sports + Outdoors", "brand:wikidata": "Q4671380"}, "geometry": {"type": "Point", "coordinates": [-94.1582, 36.2899]}},
{"type": "Feature", "id": "BgIXM7vLlOfbwTe_OJbGISxVmVE=", "properties": {"ref": "store-0155", "@spider": "academy", "addr:full": "2800 Parkwood Rd", "addr:city": "Jonesboro", "addr:state": "arkansas", "addr:postcode": "72401", "name": "Jonesboro", "phone": "(870) 910-6100", "website": "https://www.academy.com/shop/storelocator/arkansas/jonesboro/store-0155", "opening_hours": "Mo-Th 08:00-22:00; Fr-Sa 08:00-23:00; Su 08:00-22:00", "brand": "Academy Sports + Outdoors", "brand:wikidata": "Q4671380"}, "geometry": {"type": "Point", "coordinates": [-90.67195, 35.81868]}},
{"type": "Feature", "id": "69P8ij-IgNO28SqQfIVs7vnqJug=", "properties": {"ref": "store-0180", "@spider": "academy", "addr:full": "3864 N. Steele Blvd.", "addr:city": "Fayetteville", "addr:state": "arkansas", "addr:postcode": "72703", "name": "Fayetteville", "phone": "(479) 444-2500", "website": "https://www.academy.com/shop/storelocator/arkansas/fayetteville/store-0180", "opening_hours": "Mo-Th 08:00-22:00; Fr-Sa 08:00-23:00; Su 08:00-22:00", "brand": "Academy Sports + Outdoors", "brand:wikidata": "Q4671380"}, "geometry": {"type": "Point", "coordinates": [-94.154561, 36.121747]}},
{"type": "Feature", "id": "i8Ocf1HreTytKBA8uMO4V8KcqOs=", "properties": {"ref": "store-0118", "@spider": "academy", "addr:full": "320 Peachtree Pkwy.", "addr:city": "Cumming", "addr:state": "georgia", "addr:postcode": "30041", "name": "Cumming", "phone": "(678) 455-3320", "website": "https://www.academy.com/shop/storelocator/georgia/cumming/store-0118", "opening_hours": "Mo-Th 08:00-22:00; Fr-Sa 08:00-23:00; Su 08:00-22:00", "brand": "Academy Sports + Outdoors", "brand:wikidata": "Q4671380"}, "geometry": {"type": "Point", "coordinates": [-84.1752, 34.155]}},
{"type": "Feature", "id": "xvIiuroNMj3PTSimUMomrOWGOjc=", "properties": {"ref": "store-0302", "@spider": "academy", "addr:full": "1511 Cornerstone Blvd", "addr:city": "Daytona Beach", "addr:state": "florida", "addr:postcode": "32117", "name": "Daytona Beach", "phone": "(386) 317-3300", "website": "https://www.academy.com/shop/storelocator/florida/daytona-beach/store-0302", "opening_hours": "Mo-Th 08:00-22:00; Fr-Sa 08:00-23:00; Su 08:00-22:00", "brand": "Academy Sports + Outdoors", "brand:wikidata": "Q4671380"}, "geometry": {"type": "Point", "coordinates": [-81.0975882, 29.2198887]}},
{"type": "Feature", "id": "A3IRnGj2kS1t8j_L8-Jf9Ex0HnE=", "properties": {"ref": "store-0068", "@spider": "academy", "addr:full": "1612 Gadsden Hwy", "addr:city": "Trussville", "addr:state": "alabama", "addr:postcode": "35235", "name": "Trussville", "phone": "(205) 661-5500", "website": "https://www.academy.com/shop/storelocator/alabama/trussville/store-0068", "opening_hours": "Mo-Th 08:00-22:00; Fr-Sa 08:00-23:00; Su 08:00-22:00", "brand": "Academy Sports + Outdoors", "brand:wikidata": "Q4671380"}, "geometry": {"type": "Point", "coordinates": [-86.6397, 33.6011]}}]}