{"type":"FeatureCollection","features":[{"type": "Feature", "id": "OvzZdKOatxFfXvAoV9gKa4CIjDs=", "properties": {"ref": "498629", "@spider": "afcurgentcare", "addr:full": "3161 N. Rock Road Suite A", "addr:city": "Wichita", "addr:state": "KS", "addr:postcode": "67226", "name": "Wichita", "phone": "+13164402712", "website": "https://www.afcurgentcare.com/wichita/", "opening_hours": "Mo-Fr 08:00-20:00; Sa-Su 08:00-17:00", "brand": "AFC Urgent Care"}, "geometry": {"type": "Point", "coordinates": [-97.2452722, 37.7412902]}},
{"type": "Feature", "id": "HgQxa0yCDF6Co2bDpljhulcHpIc=", "properties": {"ref": "498498", "@spider": "afcurgentcare", "addr:full": "4004 N 132nd St #101", "addr:city": "Omaha", "addr:state": "NE", "addr:postcode": "68164", "name": "Eagle Run Omaha", "phone": "+14023022273", "website": "https://www.afcurgentcare.com/eagle-run-omaha/", "opening_hours": "Mo-Su 08:00-20:00", "brand": "AFC Urgent Care"}, "geometry": {"type": "Point", "coordinates": [-96.1201888, 41.2945683]}},
{"type": "Feature", "id": "sBCXx1zrxZ3jllSjbH12EbgNcSg=", "properties": {"ref": "498596", "@spider": "afcurgentcare", "addr:full": "115 W Broadway Blvd", "addr:city": "Sedalia", "addr:state": "MO", "addr:postcode": "65301", "name": "Sedalia", "phone": "+16609511091", "website": "https://www.afcurgentcare.com/sedalia/", "opening_hours": "Mo-Fr 08:00-20:00; Sa-Su 08:00-18:00", "brand": "AFC Urgent Care"}, "geometry": {"type": "Point", "coordinates": [-93.2291603, 38.7038573]}},
{"type": "Feature", "id": "i9_045k7wvumTigaM5oKATjIo_o=", "properties": {"ref": "512571", "@spider": "afcurgentcare", "addr:full": "7460 S Gartrell Rd", "addr:city": "Aurora", "addr:state": "CO", "addr:postcode": "80016", "name": "Aurora Saddle Rock", "phone": "+13035293300", "website": "https://www.afcurgentcare.com/aurora-saddle-rock/", "opening_hours": "Mo-Su 08:00-20:00", "brand": "AFC Urgent Care"}, "geometry": {"type": "Point", "coordinates": [-104.7242494, 39.5814138]}},
{"type": "Feature", "id": "7Xju6F7PQ0XAq-syPmh0Pw_UklQ=", "properties": {"ref": "498474", "@spider": "afcurgentcare", "addr:full": "5700 New Abbey Lane #D300", "addr:city": "Castle Rock", "addr:state": "CO", "addr:postcode": "80108", "name": "Castle Rock", "phone": "+13036609700", "website": "https://www.afcurgentcare.com/castle-rock/", "opening_hours": "Mo-Su 08:00-20:00", "brand": "AFC Urgent Care"}, "geometry": {"type": "Point", "coordinates": [-104.8798507, 39.4169802]}},
{"type": "Feature", "id": "-UETfcf7P7zooTL5qyV40mhvWks=", "properties": {"ref": "515988", "@spider": "afcurgentcare", "addr:full": "10552 E Arizona Pl", "addr:city": "Aurora", "addr:state": "CO", "addr:postcode": "80012", "name": "Aurora Havana", "phone": "Coming Soon!", "website": "https://www.afcurgentcare.com/aurora-havana/", "brand": "AFC Urgent Care"}, "geometry": {"type": "Point", "coordinates": [-104.8647905, 39.6945613]}},
{"type": "Feature", "id": "_uXSGibYtqDzHt1awfSkEdOPiew=", "properties": {"ref": "498476", "@spider": "afcurgentcare", "addr:full": "8006 E. Arapahoe Rd. Suite 100", "addr:city": "Centennial", "addr:state": "CO", "addr:postcode": "80112", "name": "Centennial", "phone": "+13032209168", "website": "https://www.afcurgentcare.com/centennial/", "opening_hours": "Mo-Fr 08:00-20:00; Sa-Su 08:00-17:00", "brand": "AFC Urgent Care"}, "geometry": {"type": "Point", "coordinates": [-104.8960303, 39.5946383]}},
{"type": "Feature", "id": "XSMBkUJTjpm2DWLnWZykrtU47yE=", "properties": {"ref": "498547", "@spider": "afcurgentcare", "addr:full": "850 S Monaco Pkwy, Suite 10", "addr:city": "Denver", "addr:state": "CO", "addr:postcode": "80224", "name": "Leetsdale", "phone": "+13039351000", "website": "https://www.afcurgentcare.com/denver-leetsdale", "opening_hours": "Mo-Fr 08:00-20:00; Sa-Su 08:00-18:00", "brand": "AFC Urgent Care"}, "geometry": {"type": "Point", "coordinates": [-104.9115209, 39.701475]}},
{"type": "Feature", "id": "AD1eeoR7Ulw-uDD2hpZAuhCdeSQ=", "properties": {"ref": "498481", "@spider": "afcurgentcare", "addr:full": "760 S. Colorado Blvd.", "addr:city": "Glendale", "addr:state": "CO", "addr:postcode": "80246", "name": "Cherry Creek", "phone": "+13036928000", "website": "https://www.afcurgentcare.com/cherry-creek", "opening_hours": "Mo-Fr 08:00-20:00; Sa-Su 08:00-18:00", "brand": "AFC Urgent Care"}, "geometry": {"type": "Point", "coordinates": [-104.9402543, 39.7028242]}},
{"type": "Feature", "id": "4wM7xDq73nMEeKuzW8slMRIN20Q=", "properties": {"ref": "498493", "@spider": "afcurgentcare", "addr:full": "1295 Colorado Blvd", "addr:city": "Denver", "addr:state": "CO", "addr:postcode": "80206", "name": "Denver Park Hill", "phone": "+13036391000", "website": "https://www.afcurgentcare.com/denver-park-hill/", "opening_hours": "Mo-Fr 08:00-20:00; Sa-Su 08:00-18:00", "brand": "AFC Urgent Care"}, "geometry": {"type": "Point", "coordinates": [-104.9410984, 39.736615]}},
{"type": "Feature", "id": "_Q4mEt-JCSAf_dO1_xRJCFm00gA=", "properties": {"ref": "498465", "@spider": "afcurgentcare", "addr:full": "5102 S. Broadway", "addr:city": "Englewood", "addr:state": "CO", "addr:postcode": "80113", "name": "Broadway", "phone": "+17204579100", "website": "https://www.afcurgentcare.com/broadway/", "opening_hours": "Mo-Fr 08:00-20:00; Sa-Su 08:00-18:00", "brand": "AFC Urgent Care"}, "geometry": {"type": "Point", "coordinates": [-104.986211, 39.623724]}},
{"type": "Feature", "id": "anAoJarE1IaQUFQpChfH12XI1NA=", "properties": {"ref": "498494", "@spider": "afcurgentcare", "addr:full": "777 E Speer Blvd. Suite 100", "addr:city": "Denver", "addr:state": "CO", "addr:postcode": "80203", "name": "Denver Speer", "phone": "+13037334000", "website": "https://www.afcurgentcare.com/denver-speer/", "opening_hours": "Mo-Fr 08:00-20:00; Sa-Su 08:00-18:00", "brand": "AFC Urgent Care"}, "geometry": {"type": "Point", "coordinates": [-104.977904, 39.720614]}},
{"type": "Feature", "id": "V4tUsTO1RaZBZw2PY9TeM7pjfZ8=", "properties": {"ref": "498613", "@spider": "afcurgentcare", "addr:full": "2616 E. 120th Ave.", "addr:city": "Thornton", "addr:state": "CO", "addr:postcode": "80233", "name": "Thornton", "phone": "+17207512910", "website": "https://www.afcurgentcare.com/thornton/", "opening_hours": "Mo-Su 08:00-20:00", "brand": "AFC Urgent Care"}, "geometry": {"type": "Point", "coordinates": [-104.9555413, 39.9134495]}},
{"type": "Feature", "id": "y2qRXSrG5ZiiHsJdbLY8uHdShEY=", "properties": {"ref": "498503", "@spider": "afcurgentcare", "addr:full": "901 W Hampden Ave #103", "addr:city": "Englewood", "addr:state": "CO", "addr:postcode": "80110", "name": "Englewood", "phone": "+13037611699", "website": "https://www.afcurgentcare.com/englewood/", "opening_hours": "Mo-Fr 08:00-20:00; Sa-Su 08:00-18:00", "brand": "AFC Urgent Care"}, "geometry": {"type": "Point", "coordinates": [-104.9986266, 39.653566]}},
{"type": "Feature", "id": "75lFR6XMaUjvFIZ6HnAM5dw75Ro=", "properties": {"ref": "498492", "@spider": "afcurgentcare", "addr:full": "3800 Irving Street", "addr:city": "Denver", "addr:state": "CO", "addr:postcode": "80211", "name": "Denver Highlands", "phone": "+13034776000", "website": "https://www.afcurgentcare.com/denver-highlands/", "opening_hours": "Mo-Fr 08:00-20:00; Sa-Su 08:00-17:00", "brand": "AFC Urgent Care"}, "geometry": {"type": "Point", "coordinates": [-105.0297602, 39.7696793]}},
{"type": "Feature", "id": "7r4gLsG9B8d5e4Be6H38lZ6Duo0=", "properties": {"ref": "499381", "@spider": "afcurgentcare", "addr:full": "9985 W Remington Pl", "addr:city": "Littleton", "addr:state": "CO", "addr:postcode": "80128", "name": "Ken Caryl", "phone": "+17208188010", "website": "https://www.afcurgentcare.com/ken-caryl/", "opening_hours": "Mo-Fr 08:00-20:00; Sa-Su 08:00-17:00", "brand": "AFC Urgent Care"}, "geometry": {"type": "Point", "coordinates": [-105.1094961, 39.5652977]}},
{"type": "Feature", "id": "hqii-NwOohg-UK8ErZhY3ovF9lA=", "properties": {"ref": "498545", "@spider": "afcurgentcare", "addr:full": "12105 W. Alameda Pkwy #100", "addr:city": "Lakewood", "addr:state": "CO", "addr:postcode": "80228", "name": "Lakewood", "phone": "+13039883600", "website": "https://www.afcurgentcare.com/lakewood/", "opening_hours": "Mo-Su 08:00-20:00", "brand": "AFC Urgent Care"}, "geometry": {"type": "Point", "coordinates": [-105.1362659, 39.7073944]}},
{"type": "Feature", "id": "FlnuP1HdT_red3qoCP7K7ZCyoRQ=", "properties": {"ref": "501951", "@spider": "afcurgentcare", "addr:full": "12105 W. Alameda Pkwy #100", "addr:city": "Lakewood", "addr:state": "CO", "addr:postcode": "80228", "name": "Lakewood", "phone": "+13039883600", "website": "https://www.afcurgentcare.com/test/", "opening_hours": "Mo-Su 08:00-20:00", "brand": "AFC Urgent Care"}, "geometry": {"type": "Point", "coordinates": [-105.1362659, 39.7073944]}},
{"type": "Feature", "id": "Qkh6OU5JynF365cxdfFTOLVQEIs=", "properties": {"ref": "498551", "@spider": "afcurgentcare", "addr:full": "1335 E. South Boulder Rd #C", "addr:city": "Louisville", "addr:state": "CO", "addr:postcode": "80027", "name": "Louisville", "phone": "+17209619700", "website": "https://www.afcurgentcare.com/louisville/", "opening_hours": "Mo-Fr 08:00-20:00; Sa-Su 08:00-17:00", "brand": "AFC Urgent Care"}, "geometry": {"type": "Point", "coordinates": [-105.1251189, 39.9873088]}},
{"type": "Feature", "id": "8H1dIdcjUROTlnfZTgIOop5Yejo=", "properties": {"ref": "501343", "@spider": "afcurgentcare", "addr:full": "2795 Pearl Street Unit #106", "addr:city": "Boulder", "addr:state": "CO", "addr:postcode": "80302", "name": "Boulder", "phone": "+17209619700", "website": "https://www.afcurgentcare.com/boulder/", "opening_hours": "Mo-Fr 08:00-20:00; Sa-Su 08:00-17:00", "brand": "AFC Urgent Care"}, "geometry": {"type": "Point", "coordinates": [-105.2588862, 40.0229076]}},
{"type": "Feature", "id": "E05Uqe53hHg0OLmXae71TOZBelI=", "properties": {"ref": "498472", "@spider": "afcurgentcare", "addr:full": "465 S. Mount Auburn Rd. Suite 103", "addr:city": "Cape Girardeau", "addr:state": "MO", "addr:postcode": "63703", "name": "Cape Girardeau", "phone": "+15733352900", "website": "https://www.afcurgentcare.com/cape-girardeau/", "opening_hours": "Mo-Fr 08:00-20:00; Sa-Su 08:00-18:00", "brand": "AFC Urgent Care"}, "geometry": {"type": "Point", "coordinates": [-89.5715591, 37.28945]}},
{"type": "Feature", "id": "oRQLppeSf9_1wEvKLEXn7RKWINU=", "properties": {"ref": "498557", "@spider": "afcurgentcare", "addr:full": "5475 Poplar Ave. Suite 106", "addr:city": "Memphis", "addr:state": "TN", "addr:postcode": "38119", "name": "Memphis", "phone": "+19012548040", "website": "https://www.afcurgentcare.com/memphis/", "opening_hours": "Mo-Fr 08:00-20:00; Sa-Su 08:00-17:00", "brand": "AFC Urgent Care"}, "geometry": {"type": "Point", "coordinates": [-89.8790455, 35.1057111]}},
{"type": "Feature", "id": "72hhG1Y7HvO4RXNF6POZX6aB0XQ=", "properties": {"ref": "498611", "@spider": "afcurgentcare", "addr:full": "3614 SW HK Dodgen Loop", "addr:city": "Temple", "addr:state": "TX", "addr:postcode": "76504", "name": "Temple", "phone": "+12542950117", "website": "https://www.afcurgentcare.com/temple/", "opening_hours": "Mo-Fr 08:00-20:00; Sa-Su 08:00-17:00", "brand": "AFC Urgent Care"}, "geometry": {"type": "Point", "coordinates": [-97.3853817, 31.0892899]}},
{"type": "Feature", "id": "pMeOMeH46ZO2KiSgQccdmuWzUBM=", "properties": {"ref": "498631", "@spider": "afcurgentcare", "addr:full": "980 Plainfield Rd.", "addr:city": "Willowbrook", "addr:state": "IL", "addr:postcode": "60527", "name": "Willowbrook", "phone": "+16305416679", "website": "https://www.afcurgentcare.com/willowbrook/", "opening_hours": "Mo-Fr 08:00-20:00; Sa-Su 08:00-17:00", "brand": "AFC Urgent Care"}, "geometry": {"type": "Point", "coordinates": [-87.9436472, 41.761671]}},
{"type": "Feature", "id": "bYMi6EkffvTryYTu-4mT7tP5lCU=", "properties": {"ref": "498507", "@spider": "afcurgentcare", "addr:full": "2930 E. Main St.", "addr:city": "Farmington", "addr:state": "NM", "addr:postcode": "87402", "name": "Farmington", "phone": "+15053266000", "website": "https://www.afcurgentcare.com/farmington/", "opening_hours": "Mo-Su 08:00-20:00", "brand": "AFC Urgent Care"}, "geometry": {"type": "Point", "coordinates": [-108.1673636, 36.7437428]}},
{"type": "Feature", "id": "cYeZHYMZTzueuI56HoF-99P_uV8=", "properties": {"ref": "498554", "@spider": "afcurgentcare", "addr:full": "1763 Madison St", "addr:city": "Clarksville", "addr:state": "TN", "addr:postcode": "37043", "name": "Madison St. Commons", "phone": "+19312788000", "website": "https://www.afcurgentcare.com/madison-st-commons/", "opening_hours": "Mo-Su 08:00-18:00", "brand": "AFC Urgent Care"}, "geometry": {"type": "Point", "coordinates": [-87.3149808, 36.5144228]}},
{"type": "Feature", "id": "zKUrNGPAs4rw0tYzsUTJ3Or6_pc=", "properties": {"ref": "516375", "@spider": "afcurgentcare", "addr:full": "6777 Woodlands Pkwy Ste.300", "addr:city": "The Woodlands", "addr:state": "TX", "addr:postcode": "77382", "name": "The Woodlands", "phone": "COMING SOON", "website": "https://www.afcurgentcare.com/the-woodlands/", "brand": "AFC Urgent Care"}, "geometry": {"type": "Point", "coordinates": [-95.5378392, 30.1795173]}},
{"type": "Feature", "id": "f7oQrtDsJYk3O8GBx_1l8z7z6y0=", "properties": {"ref": "516640", "@spider": "afcurgentcare", "addr:full": "710 Highland Colony Parkway, Suite A", "addr:city": "Ridgeland", "addr:state": "MS", "addr:postcode": "39157", "name": "Ridgeland", "phone": "COMING SOON", "website": "https://www.afcurgentcare.com/ridgeland/", "brand": "AFC Urgent Care"}, "geometry": {"type": "Point", "coordinates": [-90.1485535, 32.4232562]}},
{"type": "Feature", "id": "8GJ7eiN1gEZleRUFWBeCKzbDUYM=", "properties": {"ref": "498619", "@spider": "afcurgentcare", "addr:full": "10850 Louetta Rd. Suite 1500", "addr:city": "Houston", "addr:state": "TX", "addr:postcode": "77070", "name": "Vintage", "phone": "+12813202338", "website": "https://www.afcurgentcare.com/vintage/", "opening_hours": "Mo-Fr 08:00-20:00; Sa-Su 08:00-17:00", "brand": "AFC Urgent Care"}, "geometry": {"type": "Point", "coordinates": [-95.5757991, 29.997778]}},
{"type": "Feature", "id": "HfgYx8E-L-mS9856lAv9cTIuiY0=", "properties": {"ref": "498489", "@spider": "afcurgentcare", "addr:full": "9740 Barker Cypress Road #108", "addr:city": "Cypress", "addr:state": "TX", "addr:postcode": "77433", "name": "Cypress", "phone": "+12819448013", "website": "https://www.afcurgentcare.com/cypress/", "opening_hours": "Mo-Su 08:00-20:00", "brand": "AFC Urgent Care"}, "geometry": {"type": "Point", "coordinates": [-95.6854895, 29.9193964]}},
{"type": "Feature", "id": "ba8M1oIL8yFOuxF7Wjv3YvLkZkA=", "properties": {"ref": "528284", "@spider": "afcurgentcare", "addr:full": "9455 Sam Houston Parkway", "addr:city": "Houston", "addr:state": "TX", "addr:postcode": "77396", "name": "Humble, TX", "phone": "COMING SOON", "website": "https://www.afcurgentcare.com/humble-tx/", "brand": "AFC Urgent Care"}, "geometry": {"type": "Point", "coordinates": [-95.2502037, 29.9355656]}},
{"type": "Feature", "id": "8MihFCK_NwISetA662FkeZQxPig=", "properties": {"ref": "498607", "@spider": "afcurgentcare", "addr:full": "2070 Wall St", "addr:city": "Spring Hill", "addr:state": "TN", "addr:postcode": "37174", "name": "Spring Hill", "phone": "+16155678965", "website": "https://www.afcurgentcare.com/spring-hill/", "opening_hours": "Mo-Su 08:00-18:00", "brand": "AFC Urgent Care"}, "geometry": {"type": "Point", "coordinates": [-86.9167455, 35.771364]}},
{"type": "Feature", "id": "1gBYwF0RpwB017vIAkLo4Z_rT1E=", "properties": {"ref": "498539", "@spider": "afcurgentcare", "addr:full": "291 Indian Lake Blvd", "addr:city": "Hendersonville", "addr:state": "TN", "addr:postcode": "37075", "name": "Indian Lake", "phone": "+16152655008", "website": "https://www.afcurgentcare.com/indian-lake/", "opening_hours": "Mo-Su 08:00-18:00", "brand": "AFC Urgent Care"}, "geometry": {"type": "Point", "coordinates": [-86.5944385, 36.3287568]}},
{"type": "Feature", "id": "8wVXC68eNb9jJfz_6t2u6RezOM4=", "properties": {"ref": "498568", "@spider": "afcurgentcare", "addr:full": "5826 Nolensville Pike", "addr:city": "Nashville", "addr:state": "TN", "addr:postcode": "37211", "name": "Nashville South", "phone": "+16157601946", "website": "https://www.afcurgentcare.com/nashville-south/", "opening_hours": "Mo-Su 08:00-18:00", "brand": "AFC Urgent Care"}, "geometry": {"type": "Point", "coordinates": [-86.7118869, 36.0421665]}},
{"type": "Feature", "id": "orfTth0M13l70AWdVjvGLCcHC0s=", "properties": {"ref": "498342", "@spider": "afcurgentcare", "addr:full": "3195 Dowlen Rd Suite 105", "addr:city": "Beaumont", "addr:state": "TX", "addr:postcode": "77706", "name": "Beaumont", "phone": "+14098601888", "website": "https://www.afcurgentcare.com/beaumont/", "opening_hours": "Mo-Su 08:00-20:00", "brand": "AFC Urgent Care"}, "geometry": {"type": "Point", "coordinates": [-94.1691341, 30.1090603]}},
{"type": "Feature", "id": "zR2gRxcKAgBKbELvBAh0kn4WuV8=", "properties": {"ref": "498541", "@spider": "afcurgentcare", "addr:full": "6445 FM 1463 Ste. 230", "addr:city": "Katy", "addr:state": "TX", "addr:postcode": "77494", "name": "Katy", "phone": "+12813468370", "website": "https://www.afcurgentcare.com/katy/", "opening_hours": "Mo-Fr 08:00-20:00; Sa-Su 08:00-17:00", "brand": "AFC Urgent Care"}, "geometry": {"type": "Point", "coordinates": [-95.8451922, 29.6984747]}},
{"type": "Feature", "id": "gX1W1hUqpTXp3QX1cb4omJks6n0=", "properties": {"ref": "498622", "@spider": "afcurgentcare", "addr:full": "107 Yale Street Suite 200", "addr:city": "Houston", "addr:state": "TX", "addr:postcode": "77007", "name": "Washington Heights", "phone": "+17138616060", "website": "https://www.afcurgentcare.com/washington-heights/", "opening_hours": "Mo-Fr 08:00-20:00; Sa-Su 08:00-17:00", "brand": "AFC Urgent Care"}, "geometry": {"type": "Point", "coordinates": [-95.3988076, 29.7726962]}},
{"type": "Feature", "id": "n9Gtvj1ChM9XAgZ9BvIS2MRF9TE=", "properties": {"ref": "498478", "@spider": "afcurgentcare", "addr:full": "15236 Wallisville Rd", "addr:city": "Houston", "addr:state": "TX", "addr:postcode": "77049", "name": "Channelview", "phone": "+12818628955", "website": "https://www.afcurgentcare.com/channelview/", "opening_hours": "Mo-Su 08:00-20:00", "brand": "AFC Urgent Care"}, "geometry": {"type": "Point", "coordinates": [-95.1687252, 29.8068224]}},
{"type": "Feature", "id": "sDBEUc2n8U5qvEqh0H_NhMtNI7U=", "properties": {"ref": "498626", "@spider": "afcurgentcare", "addr:full": "5568 Weslayan St.", "addr:city": "Houston", "addr:state": "TX", "addr:postcode": "77005", "name": "West University", "phone": "+17136667050", "website": "https://www.afcurgentcare.com/west-university/", "opening_hours": "Mo-Sa 08:00-20:00; Su 08:00-17:00", "brand": "AFC Urgent Care"}, "geometry": {"type": "Point", "coordinates": [-95.4421478, 29.7221279]}},
{"type": "Feature", "id": "850VKhBLuEMf8DNFv9jY7FsaPLI=", "properties": {"ref": "529282", "@spider": "afcurgentcare", "addr:full": "2715 Bissonnet Street", "addr:city": "Houston", "addr:state": "TX", "addr:postcode": "77005", "name": "Upper Kirby, TX", "phone": "COMING SOON", "website": "https://www.afcurgentcare.com/upper-kirby-tx/", "brand": "AFC Urgent Care"}, "geometry": {"type": "Point", "coordinates": [-95.4213858, 29.7251523]}},
{"type": "Feature", "id": "OM2QPXVwDrym9ZBh-BfulVvgnwc=", "properties": {"ref": "498587", "@spider": "afcurgentcare", "addr:full": "355 Pleasant Grove Rd #1400", "addr:city": "Mount Juliet", "addr:state": "TN", "addr:postcode": "37122", "name": "Providence", "phone": "+16157737933", "website": "https://www.afcurgentcare.com/providence/", "opening_hours": "Mo-Su 08:00-18:00", "brand": "AFC Urgent Care"}, "geometry": {"type": "Point", "coordinates": [-86.5137081, 36.1760552]}},
{"type": "Feature", "id": "OuAOnVtmKz1HWLy7dnhAUkIG76M=", "properties": {"ref": "498341", "@spider": "afcurgentcare", "addr:full": "8831 TX-146 Suite 100", "addr:city": "Baytown", "addr:state": "TX", "addr:postcode": "77523", "name": "Baytown", "phone": "+12815734100", "website": "https://www.afcurgentcare.com/baytown/", "opening_hours": "Mo-Su 08:00-20:00", "brand": "AFC Urgent Care"}, "geometry": {"type": "Point", "coordinates": [-94.900626, 29.818824]}},
{"type": "Feature", "id": "JDRcD4rhIh_3nV_nHbk1A6LgFdA=", "properties": {"ref": "498588", "@spider": "afcurgentcare", "addr:full": "18310 W Airport Blvd Ste 100", "addr:city": "Richmond", "addr:state": "TX", "addr:postcode": "77407", "name": "Richmond", "phone": "+18327567772", "website": "https://www.afcurgentcare.com/richmond/", "opening_hours": "Mo-Sa 08:00-20:00; Su 08:00-17:00", "brand": "AFC Urgent Care"}, "geometry": {"type": "Point", "coordinates": [-95.7035375, 29.6519062]}},
{"type": "Feature", "id": "nEm_4WKkt93Tj-XsbWToNSuomvI=", "properties": {"ref": "513196", "@spider": "afcurgentcare", "addr:full": "6040 Garth Road, Suite 10", "addr:city": "Baytown", "addr:state": "TX", "addr:postcode": "77521", "name": "Baytown Garth", "phone": "+12815039000", "website": "https://www.afcurgentcare.com/baytown-garth/", "opening_hours": "Mo-Su 08:00-20:00", "brand": "AFC Urgent Care"}, "geometry": {"type": "Point", "coordinates": [-94.9797998, 29.7897096]}},
{"type": "Feature", "id": "f_9JLVR7K3CFIe7kcGCyfjy2nMs=", "properties": {"ref": "498601", "@spider": "afcurgentcare", "addr:full": "985 Industrial Blvd", "addr:city": "Smyrna", "addr:state": "TN", "addr:postcode": "37167", "name": "Smyrna", "phone": "+16159841000", "website": "https://www.afcurgentcare.com/smyrna/", "opening_hours": "Mo-Su 08:00-18:00", "brand": "AFC Urgent Care"}, "geometry": {"type": "Point", "coordinates": [-86.5661367, 35.9787359]}},
{"type": "Feature", "id": "xtidzNos_avj8O9N5GuntXjb_-E=", "properties": {"ref": "498546", "@spider": "afcurgentcare", "addr:full": "8850 Spencer Highway Suite 100", "addr:city": "LaPorte", "addr:state": "TX", "addr:postcode": "77571", "name": "LaPorte", "phone": "+12819469980", "website": "https://www.afcurgentcare.com/laporte/", "opening_hours": "Mo-Su 08:00-20:00", "brand": "AFC Urgent Care"}, "geometry": {"type": "Point", "coordinates": [-95.1009121, 29.6635937]}},
{"type": "Feature", "id": "4IWmngtMpHUJhNA_sEplPgftdvo=", "properties": {"ref": "498338", "@spider": "afcurgentcare", "addr:full": "1285 US Highway 72 East", "addr:city": "Athens", "addr:state": "AL", "addr:postcode": "35611", "name": "Athens", "phone": "+12562783000", "website": "https://www.afcurgentcare.com/athens/", "opening_hours": "Mo-Su 08:00-18:00", "brand": "AFC Urgent Care"}, "geometry": {"type": "Point", "coordinates": [-86.9464099, 34.7854106]}},
{"type": "Feature", "id": "FYrxL8VU083CPqG7eeYvif85gTs=", "properties": {"ref": "498491", "@spider": "afcurgentcare", "addr:full": "2604 U.S. 31", "addr:city": "Decatur", "addr:state": "AL", "addr:postcode": "35603", "name": "Decatur", "phone": "+12564453100", "website": "https://www.afcurgentcare.com/decatur/", "opening_hours": "Mo-Su 08:00-18:00", "brand": "AFC Urgent Care"}, "geometry": {"type": "Point", "coordinates": [-86.9728379, 34.5598882]}},
{"type": "Feature", "id": "D4ge5Q31RCJq1oBQaIgj4Om649Q=", "properties": {"ref": "498555", "@spider": "afcurgentcare", "addr:full": "7559 Highway 72 West", "addr:city": "Madison", "addr:state": "AL", "addr:postcode": "35758", "name": "Madison", "phone": "+12565620850", "website": "https://www.afcurgentcare.com/madison/", "opening_hours": "Mo-Su 08:00-18:00", "brand": "AFC Urgent Care"}, "geometry": {"type": "Point", "coordinates": [-86.7312641, 34.7548812]}},
{"type": "Feature", "id": "cUrM6wlukeFod4znDwfiDOFMng4=", "properties": {"ref": "519269", "@spider": "afcurgentcare", "addr:full": "2871 44th St. SW", "addr:city": "Grandville", "addr:state": "MI", "addr:postcode": "49418", "name": "Grandville, MI", "phone": "+16164107420", "website": "https://www.afcurgentcare.com/grandville-mi/", "brand": "AFC Urgent Care"}, "geometry": {"type": "Point", "coordinates": [-85.7354815, 42.8847341]}},
{"type": "Feature", "id": "CjKW-fnTFlHa6bhGvoVnAXw6RbU=", "properties": {"ref": "498522", "@spider": "afcurgentcare", "addr:full": "1740 28th Street SE", "addr:city": "Grand Rapids", "addr:state": "MI", "addr:postcode": "49508", "name": "Grand Rapids", "phone": "+16163233999", "website": "https://www.afcurgentcare.com/grand-rapids/", "opening_hours": "Mo-Su 08:00-20:00", "brand": "AFC Urgent Care"}, "geometry": {"type": "Point", "coordinates": [-85.6237199, 42.9122611]}},
{"type": "Feature", "id": "V2mVJquuQVTlgeUeJApYHMYwKNo=", "properties": {"ref": "498628", "@spider": "afcurgentcare", "addr:full": "8151 Whitesburg Drive South", "addr:city": "Huntsville", "addr:state": "AL", "addr:postcode": "35802", "name": "Whitesburg", "phone": "+12568829711", "website": "https://www.afcurgentcare.com/whitesburg/", "opening_hours": "Mo-Su 08:00-18:00", "brand": "AFC Urgent Care"}, "geometry": {"type": "Point", "coordinates": [-86.5657549, 34.6576389]}},
{"type": "Feature", "id": "JF2QtVWZqFxMnJYGzrBUUzH1uSo=", "properties": {"ref": "498488", "@spider": "afcurgentcare", "addr:full": "1841 Cherokee Ave SW", "addr:city": "Cullman", "addr:state": "AL", "addr:postcode": "35055", "name": "Cullman", "phone": "+12562972548", "website": "https://www.afcurgentcare.com/cullman/", "opening_hours": "Mo-Su 08:00-18:00", "brand": "AFC Urgent Care"}, "geometry": {"type": "Point", "coordinates": [-86.8424654, 34.1531951]}},
{"type": "Feature", "id": "bH_Pj7vQLiR3mslxermj__NZ_B4=", "properties": {"ref": "498529", "@spider": "afcurgentcare", "addr:full": "410 Sutton Rd", "addr:city": "Owens Cross Roads", "addr:state": "AL", "addr:postcode": "35763", "name": "Hampton Cove", "phone": "+12564248200", "website": "https://www.afcurgentcare.com/hampton-cove/", "opening_hours": "Mo-Su 08:00-18:00", "brand": "AFC Urgent Care"}, "geometry": {"type": "Point", "coordinates": [-86.4845704, 34.6594293]}},
{"type": "Feature", "id": "SU9Pok-_ROBYKfOlQajnNumt_X8=", "properties": {"ref": "498560", "@spider": "afcurgentcare", "addr:full": "710 15th Street East", "addr:city": "Tuscaloosa", "addr:state": "AL", "addr:postcode": "35401", "name": "Midtown", "phone": "+12055262053", "website": "https://www.afcurgentcare.com/midtown/", "opening_hours": "Mo-Su 08:00-18:00", "brand": "AFC Urgent Care"}, "geometry": {"type": "Point", "coordinates": [-87.5271053, 33.1976852]}},
{"type": "Feature", "id": "Vj_KJY4JqPX7QEbn2mpm-IBjg60=", "properties": {"ref": "498617", "@spider": "afcurgentcare", "addr:full": "9070 Alabama Hwy 69 S", "addr:city": "Tuscaloosa", "addr:state": "AL", "addr:postcode": "35405", "name": "Tuscaloosa", "phone": "+12057229500", "website": "https://www.afcurgentcare.com/tuscaloosa/", "opening_hours": "Mo-Su 08:00-18:00", "brand": "AFC Urgent Care"}, "geometry": {"type": "Point", "coordinates": [-87.5507862, 33.1225628]}},
{"type": "Feature", "id": "mB3aH1ZmGPinYS_y-ZdLDBy1zrM=", "properties": {"ref": "498511", "@spider": "afcurgentcare", "addr:full": "1664 Forestdale Blvd", "addr:city": "Birmingham", "addr:state": "AL", "addr:postcode": "35214", "name": "Forestdale", "phone": "+12057912273", "website": "https://www.afcurgentcare.com/forestdale/", "opening_hours": "Mo-Su 08:00-18:00", "brand": "AFC Urgent Care"}, "geometry": {"type": "Point", "coordinates": [-86.9004646, 33.5699599]}},
{"type": "Feature", "id": "kgG952ZKnk-kEvk6FIogZ8lmY4Q=", "properties": {"ref": "498518", "@spider": "afcurgentcare", "addr:full": "919 Odum Rd", "addr:city": "Gardendale", "addr:state": "AL", "addr:postcode": "35071", "name": "Gardendale", "phone": "+12056316834", "website": "https://www.afcurgentcare.com/gardendale/", "opening_hours": "Mo-Su 08:00-18:00", "brand": "AFC Urgent Care"}, "geometry": {"type": "Point", "coordinates": [-86.8256033, 33.6490401]}},
{"type": "Feature", "id": "q03-CBAuFZQC-ZDBi0fuPv6XWzk=", "properties": {"ref": "498510", "@spider": "afcurgentcare", "addr:full": "6554 Aaron Aronov Dr", "addr:city": "Fairfield", "addr:state": "AL", "addr:postcode": "35064", "name": "Flintridge", "phone": "+12057865022", "website": "https://www.afcurgentcare.com/flintridge/", "opening_hours": "Mo-Su 08:00-18:00", "brand": "AFC Urgent Care"}, "geometry": {"type": "Point", "coordinates": [-86.9210026, 33.4719733]}},
{"type": "Feature", "id": "LWxkd3iJ6vtTk9m1YoBVMl3d1Do=", "properties": {"ref": "499040", "@spider": "afcurgentcare", "addr:full": "5911 Harris Ln", "addr:city": "Bessemer", "addr:state": "AL", "addr:postcode": "35022", "name": "McCalla", "phone": "+12054610038", "website": "https://www.afcurgentcare.com/mccalla/", "opening_hours": "Mo-Su 08:00-18:00", "brand": "AFC Urgent Care"}, "geometry": {"type": "Point", "coordinates": [-86.9945855, 33.3354108]}},
{"type": "Feature", "id": "RFRkSvbRlLvC3zcotc0HDPyXdNY=", "properties": {"ref": "498578", "@spider": "afcurgentcare", "addr:full": "9232 Parkway East", "addr:city": "Birmingham", "addr:state": "AL", "addr:postcode": "35206", "name": "Parkway", "phone": "+12058336888", "website": "https://www.afcurgentcare.com/parkway/", "opening_hours": "Mo-Su 08:00-18:00", "brand": "AFC Urgent Care"}, "geometry": {"type": "Point", "coordinates": [-86.6998264, 33.5883046]}},
{"type": "Feature", "id": "AwapcicNjX9SGFN3-oHZVestwlM=", "properties": {"ref": "498564", "@spider": "afcurgentcare", "addr:full": "1652 Montclair Rd", "addr:city": "Birmingham", "addr:state": "AL", "addr:postcode": "35210", "name": "Montclair", "phone": "+12059569192", "website": "https://www.afcurgentcare.com/montclair/", "opening_hours": "Mo-Su 08:00-18:00", "brand": "AFC Urgent Care"}, "geometry": {"type": "Point", "coordinates": [-86.7199846, 33.5267817]}},
{"type": "Feature", "id": "2IJjb2LglHiq8J6UmqCozXVVxtw=", "properties": {"ref": "498616", "@spider": "afcurgentcare", "addr:full": "5892 Trussville Crossings Pkwy", "addr:city": "Birmingham", "addr:state": "AL", "addr:postcode": "35235", "name": "Trussville", "phone": "+12056554002", "website": "https://www.afcurgentcare.com/trussville/", "opening_hours": "Mo-Su 08:00-18:00", "brand": "AFC Urgent Care"}, "geometry": {"type": "Point", "coordinates": [-86.6261898, 33.6409846]}},
{"type": "Feature", "id": "-JG7Z4BF3mSIfg07KQG4whBawbg=", "properties": {"ref": "498612", "@spider": "afcurgentcare", "addr:full": "5569 Grove Blvd #121", "addr:city": "Hoover", "addr:state": "AL", "addr:postcode": "35226", "name": "The Grove", "phone": "+12056372600", "website": "https://www.afcurgentcare.com/the-grove/", "opening_hours": "Mo-Su 08:00-18:00", "brand": "AFC Urgent Care"}, "geometry": {"type": "Point", "coordinates": [-86.852423, 33.3599316]}},
{"type": "Feature", "id": "oC8BHDBqK9uje98z5ZEZC1_PPhY=", "properties": {"ref": "498470", "@spider": "afcurgentcare", "addr:full": "3000 Cahaba Village Plaza Suite 110", "addr:city": "Birmingham", "addr:state": "AL", "addr:postcode": "35243", "name": "Cahaba Village", "phone": "+12052637836", "website": "https://www.afcurgentcare.com/cahaba-village/", "opening_hours": "Mo-Su 08:00-18:00", "brand": "AFC Urgent Care"}, "geometry": {"type": "Point", "coordinates": [-86.7535411, 33.460517]}},
{"type": "Feature", "id": "02VXtelXVWP4BHh83b1pNG72o4I=", "properties": {"ref": "498536", "@spider": "afcurgentcare", "addr:full": "1680 Montgomery Hwy", "addr:city": "Vestavia Hills", "addr:state": "AL", "addr:postcode": "35216", "name": "Hoover", "phone": "+12059790888", "website": "https://www.afcurgentcare.com/hoover/", "opening_hours": "Mo-Su 08:00-18:00", "brand": "AFC Urgent Care"}, "geometry": {"type": "Point", "coordinates": [-86.807009, 33.3909988]}},
{"type": "Feature", "id": "ckO0ILiWdtwTg78-bbo70r4X1Mw=", "properties": {"ref": "498580", "@spider": "afcurgentcare", "addr:full": "2970 Pelham Pkwy", "addr:city": "Pelham", "addr:state": "AL", "addr:postcode": "35124", "name": "Pelham", "phone": "+12056216411", "website": "https://www.afcurgentcare.com/pelham/", "opening_hours": "Mo-Su 08:00-18:00", "brand": "AFC Urgent Care"}, "geometry": {"type": "Point", "coordinates": [-86.8112267, 33.29846]}},
{"type": "Feature", "id": "Xxera9HbmTUfgqBsxJtm2wkFcdY=", "properties": {"ref": "498526", "@spider": "afcurgentcare", "addr:full": "5410 Old Highway 280", "addr:city": "Meadowbrook", "addr:state": "AL", "addr:postcode": "35242", "name": "Greystone", "phone": "+12052017290", "website": "https://www.afcurgentcare.com/greystone/", "opening_hours": "Mo-Su 08:00-18:00", "brand": "AFC Urgent Care"}, "geometry": {"type": "Point", "coordinates": [-86.6738312, 33.4184311]}},
{"type": "Feature", "id": "68jJCdyr8HnzZ8UA1NdtQ1YYNBk=", "properties": {"ref": "498245", "@spider": "afcurgentcare", "addr:full": "120 Colonial Promenade Pkwy", "addr:city": "Alabaster", "addr:state": "AL", "addr:postcode": "35007", "name": "Alabaster", "phone": "+12056050495", "website": "https://www.afcurgentcare.com/alabaster/", "opening_hours": "Mo-Su 08:00-18:00", "brand": "AFC Urgent Care"}, "geometry": {"type": "Point", "coordinates": [-86.8025406, 33.2302054]}},
{"type": "Feature", "id": "gk6j5anw4RGT45U2va3iQkftI7g=", "properties": {"ref": "498471", "@spider": "afcurgentcare", "addr:full": "72 County Road 304", "addr:city": "Calera", "addr:state": "AL", "addr:postcode": "35040", "name": "Calera", "phone": "+12053198000", "website": "https://www.afcurgentcare.com/calera/", "opening_hours": "Mo-Su 08:00-18:00", "brand": "AFC Urgent Care"}, "geometry": {"type": "Point", "coordinates": [-86.7477267, 33.1459611]}},
{"type": "Feature", "id": "XxrecNLASyx4z5BMf71bkvB65CE=", "properties": {"ref": "498550", "@spider": "afcurgentcare", "addr:full": "3520 Cummings Hwy", "addr:city": "Chattanooga", "addr:state": "TN", "addr:postcode": "37419", "name": "Lookout Valley", "phone": "+14238225942", "website": "https://www.afcurgentcare.com/lookout-valley/", "opening_hours": "Mo-Su 08:00-18:00", "brand": "AFC Urgent Care"}, "geometry": {"type": "Point", "coordinates": [-85.3748583, 35.0182426]}},
{"type": "Feature", "id": "X3WKfv7jPAivksxTTaytq8vQA6o=", "properties": {"ref": "498516", "@spider": "afcurgentcare", "addr:full": "366 East Meighan Blvd", "addr:city": "Gadsden", "addr:state": "AL", "addr:postcode": "35903", "name": "Gadsden", "phone": "+12564850983", "website": "https://www.afcurgentcare.com/gadsden/", "opening_hours": "Mo-Su 08:00-18:00", "brand": "AFC Urgent Care"}, "geometry": {"type": "Point", "coordinates": [-85.9869182, 34.0102494]}},
{"type": "Feature", "id": "sfeAjBRdiYlMUZns3XKbOzLxCWA=", "properties": {"ref": "498581", "@spider": "afcurgentcare", "addr:full": "20 Hazelwood Dr", "addr:city": "Pell City", "addr:state": "AL", "addr:postcode": "35125", "name": "Pell City", "phone": "+12053388008", "website": "https://www.afcurgentcare.com/pell-city/", "opening_hours": "Mo-Su 08:00-18:00", "brand": "AFC Urgent Care"}, "geometry": {"type": "Point", "coordinates": [-86.2823115, 33.6114273]}},
{"type": "Feature", "id": "53zcq0cVUBhrSxlrbwIS5dYJoG8=", "properties": {"ref": "498534", "@spider": "afcurgentcare", "addr:full": "5546 Highway 153 Suite 120", "addr:city": "Hixson", "addr:state": "TN", "addr:postcode": "37343", "name": "Hixson", "phone": "+14234861911", "website": "https://www.afcurgentcare.com/hixson/", "opening_hours": "Mo-Fr 08:00-20:00; Sa-Su 08:00-17:00", "brand": "AFC Urgent Care"}, "geometry": {"type": "Point", "coordinates": [-85.2486772, 35.1467209]}},
{"type": "Feature", "id": "2-17grNkJBrWWJrl82m3HXMJgZg=", "properties": {"ref": "498512", "@spider": "afcurgentcare", "addr:full": "26 Parkway Dr", "addr:city": "Fort Oglethorpe", "addr:state": "GA", "addr:postcode": "30742", "name": "Fort Oglethorpe", "phone": "+17069562846", "website": "https://www.afcurgentcare.com/fort-oglethorpe/", "opening_hours": "Mo-Su 08:00-18:00", "brand": "AFC Urgent Care"}, "geometry": {"type": "Point", "coordinates": [-85.2182599, 34.9399386]}},
{"type": "Feature", "id": "_9zrX7ZGSRJQfyVgKIBFgOmg2EI=", "properties": {"ref": "498527", "@spider": "afcurgentcare", "addr:full": "1521 Gunbarrel Rd Suite 103", "addr:city": "Chattanooga", "addr:state": "TN", "addr:postcode": "37421", "name": "Chattanooga", "phone": "+14235310911", "website": "https://www.afcurgentcare.com/chattanooga/", "opening_hours": "Mo-Fr 08:00-20:00; Sa-Su 08:00-17:00", "brand": "AFC Urgent Care"}, "geometry": {"type": "Point", "coordinates": [-85.1628879, 35.0177352]}},
{"type": "Feature", "id": "f-pAmZ8AZzezs4gSzaopu6_pu-s=", "properties": {"ref": "498572", "@spider": "afcurgentcare", "addr:full": "9058 Old Lee Highway", "addr:city": "Ootlewah", "addr:state": "TN", "addr:postcode": "37363", "name": "Ooltewah", "phone": "+14235319110", "website": "https://www.afcurgentcare.com/ooltewah/", "opening_hours": "Mo-Fr 08:00-20:00; Sa-Su 08:00-17:00", "brand": "AFC Urgent Care"}, "geometry": {"type": "Point", "coordinates": [-85.0653534, 35.0836673]}},
{"type": "Feature", "id": "dgR3XOJsa6ruC5knlgeyBRNg1Ug=", "properties": {"ref": "498575", "@spider": "afcurgentcare", "addr:full": "30 Holmes Drive", "addr:city": "Oxford", "addr:state": "AL", "addr:postcode": "36203", "name": "Oxford/Anniston", "phone": "+12564033534", "website": "https://www.afcurgentcare.com/oxford/", "opening_hours": "Mo-Su 08:00-18:00", "brand": "AFC Urgent Care"}, "geometry": {"type": "Point", "coordinates": [-85.9226065, 33.5916562]}},
{"type": "Feature", "id": "_MzwPAJqz9TDarCY41DvdDHCMmk=", "properties": {"ref": "498487", "@spider": "afcurgentcare", "addr:full": "170 Mouse Creek Rd", "addr:city": "Cleveland", "addr:state": "TN", "addr:postcode": "37312", "name": "Cleveland", "phone": "+14234581426", "website": "https://www.afcurgentcare.com/cleveland/", "opening_hours": "Mo-Fr 08:00-20:00; Sa-Su 08:00-17:00", "brand": "AFC Urgent Care"}, "geometry": {"type": "Point", "coordinates": [-84.8507252, 35.1982741]}},
{"type": "Feature", "id": "ND268V0xQq6en3Si4A80hDFsb5I=", "properties": {"ref": "498461", "@spider": "afcurgentcare", "addr:full": "2037 S. Congress Parkway", "addr:city": "Athens", "addr:state": "TN", "addr:postcode": "37303", "name": "Athens, TN", "phone": "+14233810152", "website": "https://www.afcurgentcare.com/athens-tn/", "opening_hours": "Mo-Fr 08:00-20:00; Sa-Su 08:00-17:00", "brand": "AFC Urgent Care"}, "geometry": {"type": "Point", "coordinates": [-84.6311622, 35.444117]}},
{"type": "Feature", "id": "-7MQIbpanS1IVaI9RiU9MdxuTAg=", "properties": {"ref": "498508", "@spider": "afcurgentcare", "addr:full": "700 N Campbell Station Road", "addr:city": "Farragut", "addr:state": "TN", "addr:postcode": "37934", "name": "Farragut", "phone": "+18652880119", "website": "https://www.afcurgentcare.com/farragut/", "opening_hours": "Mo-Fr 08:00-20:00; Sa-Su 08:00-17:00", "brand": "AFC Urgent Care"}, "geometry": {"type": "Point", "coordinates": [-84.1742287, 35.8957979]}},
{"type": "Feature", "id": "9lPEjduiUI8GS03InulekmGvmvI=", "properties": {"ref": "498586", "@spider": "afcurgentcare", "addr:full": "1965 Cobbs Ford Rd", "addr:city": "Prattville", "addr:state": "AL", "addr:postcode": "36066", "name": "Prattville", "phone": "+13343617054", "website": "https://www.afcurgentcare.com/prattville/", "opening_hours": "Mo-Su 08:00-18:00", "brand": "AFC Urgent Care"}, "geometry": {"type": "Point", "coordinates": [-86.4129963, 32.4603375]}},
{"type": "Feature", "id": "9H_K36foQmtfq5bDr1MA1WIEEJA=", "properties": {"ref": "498475", "@spider": "afcurgentcare", "addr:full": "9203 Kingston Pike", "addr:city": "Knoxville", "addr:state": "TN", "addr:postcode": "37922", "name": "Cedar Bluff", "phone": "+18652996192", "website": "https://www.afcurgentcare.com/cedar-bluff/", "opening_hours": "Mo-Su 08:00-18:00", "brand": "AFC Urgent Care"}, "geometry": {"type": "Point", "coordinates": [-84.0875386, 35.9120933]}},
{"type": "Feature", "id": "St6sJHdzLqQpVh6vsuEuu9MDql0=", "properties": {"ref": "498542", "@spider": "afcurgentcare", "addr:full": "6108 Kingston Pike", "addr:city": "Knoxville", "addr:state": "TN", "addr:postcode": "37919", "name": "Knoxville", "phone": "+18655399299", "website": "https://www.afcurgentcare.com/knoxville/", "opening_hours": "Mo-Fr 08:00-20:00; Sa-Su 08:00-17:00", "brand": "AFC Urgent Care"}, "geometry": {"type": "Point", "coordinates": [-84.0030448, 35.9324699]}},
{"type": "Feature", "id": "K986z3_8NJ1BQuZUB7B8hzZVbSw=", "properties": {"ref": "498594", "@spider": "afcurgentcare", "addr:full": "1097 Industrial Pkwy", "addr:city": "Saraland", "addr:state": "AL", "addr:postcode": "36571", "name": "Saraland", "phone": "+12513752270", "website": "https://www.afcurgentcare.com/saraland/", "opening_hours": "Mo-Su 08:00-18:00", "brand": "AFC Urgent Care"}, "geometry": {"type": "Point", "coordinates": [-88.0983951, 30.801462]}},
{"type": "Feature", "id": "CQUQBUs-l6qORHWO0b9Y3Yg-obs=", "properties": {"ref": "498513", "@spider": "afcurgentcare", "addr:full": "5150 N. Broadway", "addr:city": "Knoxville", "addr:state": "TN", "addr:postcode": "37918", "name": "Fountain City", "phone": "+18655495111", "website": "https://www.afcurgentcare.com/fountain-city/", "opening_hours": "Mo-Fr 08:00-20:00; Sa-Su 08:00-17:00", "brand": "AFC Urgent Care"}, "geometry": {"type": "Point", "coordinates": [-83.9299708, 36.033108]}},
{"type": "Feature", "id": "2gBunwaUXwnDEdI5TITawbq40F4=", "properties": {"ref": "498627", "@spider": "afcurgentcare", "addr:full": "4452 U.S. 231", "addr:city": "Wetumpka", "addr:state": "AL", "addr:postcode": "36092", "name": "Wetumpka", "phone": "+13344723150", "website": "https://www.afcurgentcare.com/wetumpka/", "opening_hours": "Mo-Su 08:00-18:00", "brand": "AFC Urgent Care"}, "geometry": {"type": "Point", "coordinates": [-86.2143012, 32.5056711]}},
{"type": "Feature", "id": "oJTRrnN6ARkv6HwyEKOP9FBae64=", "properties": {"ref": "498538", "@spider": "afcurgentcare", "addr:full": "1015 Hunters Crossing", "addr:city": "Alcoa", "addr:state": "TN", "addr:postcode": "37701", "name": "Hunters Crossing", "phone": "+18652382006", "website": "https://www.afcurgentcare.com/hunters-crossing/", "opening_hours": "Mo-Su 08:00-18:00", "brand": "AFC Urgent Care"}, "geometry": {"type": "Point", "coordinates": [-83.9891833, 35.7720184]}},
{"type": "Feature", "id": "0rDZfTkXmen2TEmCaCvtu4lKooY=", "properties": {"ref": "498509", "@spider": "afcurgentcare", "addr:full": "900 Montlimar Dr", "addr:city": "Mobile", "addr:state": "AL", "addr:postcode": "36609", "name": "Festival Centre", "phone": "+12513435263", "website": "https://www.afcurgentcare.com/festival-centre/", "opening_hours": "Mo-Su 08:00-18:00", "brand": "AFC Urgent Care"}, "geometry": {"type": "Point", "coordinates": [-88.1350997, 30.6727647]}},
{"type": "Feature", "id": "IUgaTfVnF6zVzNqM0vCQ8EIMZUE=", "properties": {"ref": "498339", "@spider": "afcurgentcare", "addr:full": "4305 Atlanta Hwy", "addr:city": "Montgomery", "addr:state": "AL", "addr:postcode": "36109", "name": "Atlanta Highway", "phone": "+13343232260", "website": "https://www.afcurgentcare.com/atlanta-hwy/", "opening_hours": "Mo-Su 08:00-18:00", "brand": "AFC Urgent Care"}, "geometry": {"type": "Point", "coordinates": [-86.233277, 32.3823861]}},
{"type": "Feature", "id": "Xij1LSjbk-U4kw8z1UQPMv4rCWM=", "properties": {"ref": "498618", "@spider": "afcurgentcare", "addr:full": "2815 Eastern Blvd,", "addr:city": "Montgomery", "addr:state": "AL", "addr:postcode": "36116", "name": "Vaughn Road", "phone": "+13343232050", "website": "https://www.afcurgentcare.com/vaughn-road/", "opening_hours": "Mo-Su 08:00-18:00", "brand": "AFC Urgent Care"}, "geometry": {"type": "Point", "coordinates": [-86.2233533, 32.343014]}},
{"type": "Feature", "id": "wRiCb0k2X1DaEYspatbUtJFryCg=", "properties": {"ref": "498615", "@spider": "afcurgentcare", "addr:full": "5235 Rangeline Service Rd", "addr:city": "Mobile", "addr:state": "AL", "addr:postcode": "36619", "name": "Tillmans Corner", "phone": "+12515446449", "website": "https://www.afcurgentcare.com/tillmans-corner/", "opening_hours": "Mo-Su 08:00-18:00", "brand": "AFC Urgent Care"}, "geometry": {"type": "Point", "coordinates": [-88.1633281, 30.595627]}},
{"type": "Feature", "id": "w-jzJkJk_jTXjby5q3XNEyQ7AAA=", "properties": {"ref": "498479", "@spider": "afcurgentcare", "addr:full": "7564 Chapman Hwy", "addr:city": "Knoxville", "addr:state": "TN", "addr:postcode": "37920", "name": "Chapman Highway", "phone": "+18659511103", "website": "https://www.afcurgentcare.com/chapman-highway/", "opening_hours": "Mo-Fr 08:00-20:00; Sa-Su 08:00-17:00", "brand": "AFC Urgent Care"}, "geometry": {"type": "Point", "coordinates": [-83.8378973, 35.9075756]}},
{"type": "Feature", "id": "7xSZeXakcXiyU7eYIa8r-b6yFow=", "properties": {"ref": "498610", "@spider": "afcurgentcare", "addr:full": "34 Taylor Road North", "addr:city": "Montgomery", "addr:state": "AL", "addr:postcode": "36117", "name": "Taylor Crossing", "phone": "+13343231510", "website": "https://www.afcurgentcare.com/taylor-crossing/", "opening_hours": "Mo-Su 08:00-18:00", "brand": "AFC Urgent Care"}, "geometry": {"type": "Point", "coordinates": [-86.1729904, 32.3831399]}},
{"type": "Feature", "id": "INVy-mikPwlL26P9d5tIIXYB3lA=", "properties": {"ref": "498501", "@spider": "afcurgentcare", "addr:full": "2570 Berryhill Road", "addr:city": "Montgomery", "addr:state": "AL", "addr:postcode": "36117", "name": "Eastchase", "phone": "+13343231330", "website": "https://www.afcurgentcare.com/eastchase/", "opening_hours": "Mo-Su 08:00-18:00", "brand": "AFC Urgent Care"}, "geometry": {"type": "Point", "coordinates": [-86.162179, 32.3597361]}},
{"type": "Feature", "id": "yiioXxTFZTdpBTUjR-nM3HOIfXg=", "properties": {"ref": "498523", "@spider": "afcurgentcare", "addr:full": "101 Paul Stabler Dr", "addr:city": "Greenville", "addr:state": "AL", "addr:postcode": "36037", "name": "Greenville", "phone": "+13343820734", "website": "https://www.afcurgentcare.com/greenville-al/", "opening_hours": "Mo-Su 08:00-18:00", "brand": "AFC Urgent Care"}, "geometry": {"type": "Point", "coordinates": [-86.6436718, 31.8515079]}},
{"type": "Feature", "id": "P-ouRxg3lEaATCW-_gvtRLWUB_Q=", "properties": {"ref": "498490", "@spider": "afcurgentcare", "addr:full": "6631 Park Dr", "addr:city": "Daphne", "addr:state": "AL", "addr:postcode": "36526", "name": "Daphne", "phone": "+12516265700", "website": "https://www.afcurgentcare.com/daphne/", "opening_hours": "Mo-Su 08:00-18:00", "brand": "AFC Urgent Care"}, "geometry": {"type": "Point", "coordinates": [-87.9093838, 30.6307197]}},
{"type": "Feature", "id": "5txY4M6JFpC2BVIOPczC4r8yqaU=", "properties": {"ref": "498633", "@spider": "afcurgentcare", "addr:full": "6440 Bells Ferry Rd", "addr:city": "Woodstock", "addr:state": "GA", "addr:postcode": "30189", "name": "Woodstock", "phone": "+17702001220", "website": "https://www.afcurgentcare.com/woodstock/", "opening_hours": "Mo-Su 08:00-18:00", "brand": "AFC Urgent Care"}, "geometry": {"type": "Point", "coordinates": [-84.5821164, 34.1142012]}},
{"type": "Feature", "id": "EHDjwS3YtJwJy50kQ7VgG4RYgxI=", "properties": {"ref": "498598", "@spider": "afcurgentcare", "addr:full": "713 Winfield Dunn Parkway #9", "addr:city": "Sevierville", "addr:state": "TN", "addr:postcode": "37876", "name": "Sevierville", "phone": "+18654299110", "website": "https://www.afcurgentcare.com/sevierville/", "opening_hours": "Mo-Fr 08:00-20:00; Sa-Su 08:00-17:00", "brand": "AFC Urgent Care"}, "geometry": {"type": "Point", "coordinates": [-83.5712969, 35.8805042]}},
{"type": "Feature", "id": "xh7k7ZuBonM5NcuDpyc0dJDxeCI=", "properties": {"ref": "498556", "@spider": "afcurgentcare", "addr:full": "3481 Ernest W Barrett Parkway Southwest", "addr:city": "Marietta", "addr:state": "GA", "addr:postcode": "30064", "name": "Marietta", "phone": "+16783485119", "website": "https://www.afcurgentcare.com/marietta/", "opening_hours": "Mo-Su 08:00-18:00", "brand": "AFC Urgent Care"}, "geometry": {"type": "Point", "coordinates": [-84.6235888, 33.9445437]}},
{"type": "Feature", "id": "aZL3ckMpu9OLomKs21S9m1M0qPQ=", "properties": {"ref": "498505", "@spider": "afcurgentcare", "addr:full": "10040 County Road 48", "addr:city": "Fairhope", "addr:state": "AL", "addr:postcode": "36532", "name": "Fairhope", "phone": "+12515178055", "website": "https://www.afcurgentcare.com/fairhope/", "opening_hours": "Mo-Su 08:00-18:00", "brand": "AFC Urgent Care"}, "geometry": {"type": "Point", "coordinates": [-87.8506783, 30.5224985]}},
{"type": "Feature", "id": "NNUTEkLimtZcxrm6KX1uRlDAhhA=", "properties": {"ref": "498591", "@spider": "afcurgentcare", "addr:full": "1095 Woodstock Rd", "addr:city": "Roswell", "addr:state": "GA", "addr:postcode": "30075", "name": "Roswell", "phone": "+16783472460", "website": "https://www.afcurgentcare.com/roswell/", "opening_hours": "Mo-Su 08:00-18:00", "brand": "AFC Urgent Care"}, "geometry": {"type": "Point", "coordinates": [-84.3946559, 34.0632225]}},
{"type": "Feature", "id": "p7gEmvTuhXiTKuhQqQY6kkYI8xQ=", "properties": {"ref": "498603", "@spider": "afcurgentcare", "addr:full": "1902 South College St", "addr:city": "Auburn", "addr:state": "AL", "addr:postcode": "36830", "name": "South College St", "phone": "+13347582020", "website": "https://www.afcurgentcare.com/south-college-st/", "opening_hours": "Mo-Su 08:00-18:00", "brand": "AFC Urgent Care"}, "geometry": {"type": "Point", "coordinates": [-85.5009085, 32.5708284]}},
{"type": "Feature", "id": "t6uvzmk6OWqG8ExyhkosB76Ov5Q=", "properties": {"ref": "498614", "@spider": "afcurgentcare", "addr:full": "2544 Enterprise Dr", "addr:city": "Opelika", "addr:state": "AL", "addr:postcode": "36801", "name": "Tiger Town", "phone": "+13345289050", "website": "https://www.afcurgentcare.com/tiger-town/", "opening_hours": "Mo-Su 08:00-18:00", "brand": "AFC Urgent Care"}, "geometry": {"type": "Point", "coordinates": [-85.4092375, 32.6196085]}},
{"type": "Feature", "id": "X8MLvlPQy-GkkAOXuBI7ARhJrwE=", "properties": {"ref": "498477", "@spider": "afcurgentcare", "addr:full": "5001 Peachtree Blvd. Suite 115", "addr:city": "Chamblee", "addr:state": "GA", "addr:postcode": "30341", "name": "Chamblee-Brookhaven", "phone": "+17704588929", "website": "https://www.afcurgentcare.com/chamblee-brookhaven/", "opening_hours": "Mo-Fr 08:00-20:00; Sa-Su 08:00-17:00", "brand": "AFC Urgent Care"}, "geometry": {"type": "Point", "coordinates": [-84.315086, 33.8848826]}},
{"type": "Feature", "id": "mRQ6HCrzJZ-aZPn4MI9QrW6jSHw=", "properties": {"ref": "498573", "@spider": "afcurgentcare", "addr:full": "25775 Perdido Beach Blvd", "addr:city": "Orange Beach", "addr:state": "AL", "addr:postcode": "36561", "name": "Orange Beach", "phone": "+12519743004", "website": "https://www.afcurgentcare.com/orange-beach/", "opening_hours": "Mo-Su 08:00-18:00", "brand": "AFC Urgent Care"}, "geometry": {"type": "Point", "coordinates": [-87.587234, 30.2706958]}},
{"type": "Feature", "id": "P6B4llVO8IB2rEx_-y4PamY-Qls=", "properties": {"ref": "498576", "@spider": "afcurgentcare", "addr:full": "4713 US-90", "addr:city": "Milton", "addr:state": "FL", "addr:postcode": "35271", "name": "Pace", "phone": "+18503040694", "website": "https://www.afcurgentcare.com/pace/", "opening_hours": "Mo-Su 08:00-18:00", "brand": "AFC Urgent Care"}, "geometry": {"type": "Point", "coordinates": [-87.1268966, 30.6028286]}},
{"type": "Feature", "id": "6MGjWIqk1Fq_HeIQmUF56OorFus=", "properties": {"ref": "498582", "@spider": "afcurgentcare", "addr:full": "4850 Mobile Highway Suite 100", "addr:city": "Pensacola", "addr:state": "FL", "addr:postcode": "32506", "name": "Pensacola West", "phone": "+18505427771", "website": "https://www.afcurgentcare.com/pensacola-west/", "opening_hours": "Mo-Su 08:00-18:00", "brand": "AFC Urgent Care"}, "geometry": {"type": "Point", "coordinates": [-87.2821351, 30.4407776]}},
{"type": "Feature", "id": "cmwLOeK9nBqckcy82Opeo3w-Ofk=", "properties": {"ref": "498520", "@spider": "afcurgentcare", "addr:full": "6509 Gateway Rd", "addr:city": "Columbus", "addr:state": "GA", "addr:postcode": "31909", "name": "Gateway Road", "phone": "+17062430174", "website": "https://www.afcurgentcare.com/gateway-road/", "opening_hours": "Mo-Su 08:00-18:00", "brand": "AFC Urgent Care"}, "geometry": {"type": "Point", "coordinates": [-84.8750745, 32.5380281]}},
{"type": "Feature", "id": "5vykaC0Ak9oS5QCNglpRKvKB4fg=", "properties": {"ref": "498504", "@spider": "afcurgentcare", "addr:full": "606 Boll Weevil Cir", "addr:city": "Enterprise", "addr:state": "AL", "addr:postcode": "36330", "name": "Enterprise", "phone": "+13344752462", "website": "https://www.afcurgentcare.com/enterprise/", "opening_hours": "Mo-Su 08:00-18:00", "brand": "AFC Urgent Care"}, "geometry": {"type": "Point", "coordinates": [-85.8297259, 31.3175581]}},
{"type": "Feature", "id": "tCznYyfOktjW7U3rOu3i22IrV2g=", "properties": {"ref": "500977", "@spider": "afcurgentcare", "addr:full": "1394 John Sims Parkway E.", "addr:city": "Niceville", "addr:state": "FL", "addr:postcode": "32578", "name": "Niceville", "phone": "+18505171920", "website": "https://www.afcurgentcare.com/niceville/", "opening_hours": "Mo-Su 08:00-18:00", "brand": "AFC Urgent Care"}, "geometry": {"type": "Point", "coordinates": [-86.4585678, 30.5147184]}},
{"type": "Feature", "id": "HzyZIgW8ObmWl19fwhl9bfC-sL8=", "properties": {"ref": "498495", "@spider": "afcurgentcare", "addr:full": "2445 Murphy Mill Rd", "addr:city": "Dothan", "addr:state": "AL", "addr:postcode": "36303", "name": "Dothan", "phone": "+13346776001", "website": "https://www.afcurgentcare.com/dothan/", "opening_hours": "Mo-Su 08:00-18:00", "brand": "AFC Urgent Care"}, "geometry": {"type": "Point", "coordinates": [-85.439532, 31.264167]}},
{"type": "Feature", "id": "-iN7H2b41fhZgtIJA6DZWiedhGc=", "properties": {"ref": "498486", "@spider": "afcurgentcare", "addr:full": "13400 Clemson Blvd", "addr:city": "Seneca", "addr:state": "SC", "addr:postcode": "29678", "name": "Clemson", "phone": "+18645068990", "website": "https://www.afcurgentcare.com/clemson/", "opening_hours": "Mo-Fr 08:00-20:00; Sa-Su 08:00-17:00", "brand": "AFC Urgent Care"}, "geometry": {"type": "Point", "coordinates": [-82.8594087, 34.6912128]}},
{"type": "Feature", "id": "xxx7O8u6mffkerjaM8jZ_M6xpvU=", "properties": {"ref": "498558", "@spider": "afcurgentcare", "addr:full": "9110 Mentor Ave Unit 9 B", "addr:city": "Mentor", "addr:state": "OH", "addr:postcode": "44060", "name": "Mentor", "phone": "+14407018030", "website": "https://www.afcurgentcare.com/mentor/", "opening_hours": "Mo-Fr 08:00-20:00; Sa-Su 08:00-17:00", "brand": "AFC Urgent Care"}, "geometry": {"type": "Point", "coordinates": [-81.3131701, 41.6745459]}},
{"type": "Feature", "id": "85IhylPCYgvGsJBHB5l_kzZ-UuQ=", "properties": {"ref": "498499", "@spider": "afcurgentcare", "addr:full": "5208 Calhoun Memorial Highway", "addr:city": "Easley", "addr:state": "SC", "addr:postcode": "29640", "name": "Easley", "phone": "+18643078672", "website": "https://www.afcurgentcare.com/easley/", "opening_hours": "Mo-Fr 08:00-20:00; Sa-Su 08:00-17:00", "brand": "AFC Urgent Care"}, "geometry": {"type": "Point", "coordinates": [-82.5597941, 34.8254472]}},
{"type": "Feature", "id": "xYeQTKvH_4o5j4SS1y0jecfQ7X4=", "properties": {"ref": "498459", "@spider": "afcurgentcare", "addr:full": "3710 Clemson Blvd", "addr:city": "Anderson", "addr:state": "SC", "addr:postcode": "29621", "name": "Anderson", "phone": "+18647601050", "website": "https://www.afcurgentcare.com/anderson/", "opening_hours": "Mo-Fr 08:00-20:00; Sa-Su 08:00-17:00", "brand": "AFC Urgent Care"}, "geometry": {"type": "Point", "coordinates": [-82.68049, 34.5537738]}},
{"type": "Feature", "id": "xWOzuHwOeay-skOC_k3OAj5cLtU=", "properties": {"ref": "498585", "@spider": "afcurgentcare", "addr:full": "3613 Highway 153", "addr:city": "Powdersville", "addr:state": "SC", "addr:postcode": "29611", "name": "Powdersville", "phone": "+18643078840", "website": "https://www.afcurgentcare.com/powdersville/", "opening_hours": "Mo-Fr 08:00-20:00; Sa-Su 08:00-17:00", "brand": "AFC Urgent Care"}, "geometry": {"type": "Point", "coordinates": [-82.4890377, 34.7901506]}},
{"type": "Feature", "id": "BWjbsnabIXAUA36hcRGy-3Xok4w=", "properties": {"ref": "498482", "@spider": "afcurgentcare", "addr:full": "3213 N. Pleasantburg Dr. Ste E-2", "addr:city": "Greenville", "addr:state": "SC", "addr:postcode": "29609", "name": "Cherrydale", "phone": "+18644672005", "website": "https://www.afcurgentcare.com/cherrydale/", "opening_hours": "Mo-Fr 08:00-20:00; Sa-Su 08:00-17:00", "brand": "AFC Urgent Care"}, "geometry": {"type": "Point", "coordinates": [-82.4003955, 34.8891407]}},
{"type": "Feature", "id": "A_4XIT70Sg7nW6aqQ7jlkIXHmOQ=", "properties": {"ref": "498340", "@spider": "afcurgentcare", "addr:full": "1800 Augusta Street Ste B", "addr:city": "Greenville", "addr:state": "SC", "addr:postcode": "29605", "name": "Augusta Road", "phone": "+18644127812", "website": "https://www.afcurgentcare.com/augusta-road/", "opening_hours": "Mo-Fr 08:00-20:00; Sa-Su 08:00-17:00", "brand": "AFC Urgent Care"}, "geometry": {"type": "Point", "coordinates": [-82.3983202, 34.8270746]}},
{"type": "Feature", "id": "bUukmwWaP0MF53Yi6t46dJn3czU=", "properties": {"ref": "498620", "@spider": "afcurgentcare", "addr:full": "2310 Wade Hampton Blvd", "addr:city": "Greenville", "addr:state": "SC", "addr:postcode": "29615", "name": "Wade Hampton", "phone": "+18642925915", "website": "https://www.afcurgentcare.com/wade-hampton/", "opening_hours": "Mo-Fr 08:00-20:00; Sa-Su 08:00-17:00", "brand": "AFC Urgent Care"}, "geometry": {"type": "Point", "coordinates": [-82.3480924, 34.8894327]}},
{"type": "Feature", "id": "vaYg0KRNDizl5E0z3SDkxLZ1lR8=", "properties": {"ref": "498532", "@spider": "afcurgentcare", "addr:full": "649-A Haywood Road", "addr:city": "Greenville", "addr:state": "SC", "addr:postcode": "29607", "name": "Haywood Road", "phone": "+18645370003", "website": "https://www.afcurgentcare.com/haywood-road/", "opening_hours": "Mo-Fr 08:00-20:00; Sa-Su 08:00-17:00", "brand": "AFC Urgent Care"}, "geometry": {"type": "Point", "coordinates": [-82.3386138, 34.8493089]}},
{"type": "Feature", "id": "qOTnPqYIdzFfSmAP1XaRQf7gr_c=", "properties": {"ref": "498525", "@spider": "afcurgentcare", "addr:full": "1494 W. Wade Hampton Blvd. Suite C", "addr:city": "Greer", "addr:state": "SC", "addr:postcode": "29650", "name": "Greer", "phone": "+18648498999", "website": "https://www.afcurgentcare.com/greer/", "opening_hours": "Mo-Fr 08:00-20:00; Sa-Su 08:00-17:00", "brand": "AFC Urgent Care"}, "geometry": {"type": "Point", "coordinates": [-82.272842, 34.9379217]}},
{"type": "Feature", "id": "XudoqDazU5cLZpCz47xnP3EJH_c=", "properties": {"ref": "498579", "@spider": "afcurgentcare", "addr:full": "2709 Pelham Road Suite B", "addr:city": "Greenville", "addr:state": "SC", "addr:postcode": "29615", "name": "Pelham Road", "phone": "+18645370050", "website": "https://www.afcurgentcare.com/pelham-road/", "opening_hours": "Mo-Fr 08:00-20:00; Sa-Su 08:00-17:00", "brand": "AFC Urgent Care"}, "geometry": {"type": "Point", "coordinates": [-82.2781111, 34.8626216]}},
{"type": "Feature", "id": "76t13upKY3EU86YSodXepYfddGY=", "properties": {"ref": "498632", "@spider": "afcurgentcare", "addr:full": "1467 Woodruff Rd. Suite C", "addr:city": "Greenville", "addr:state": "SC", "addr:postcode": "29607", "name": "Woodruff Road", "phone": "+18644588126", "website": "https://www.afcurgentcare.com/woodruff-road/", "opening_hours": "Mo-Fr 08:00-20:00; Sa-Su 08:00-17:00", "brand": "AFC Urgent Care"}, "geometry": {"type": "Point", "coordinates": [-82.2798088, 34.821037]}},
{"type": "Feature", "id": "XYqTj8E1WH8xWCwta2wK_r0KtTE=", "properties": {"ref": "498577", "@spider": "afcurgentcare", "addr:full": "15415 Panama City Beach Pkwy", "addr:city": "Panama City Beach", "addr:state": "FL", "addr:postcode": "32413", "name": "Panama City Beach", "phone": "+18505883589", "website": "https://www.afcurgentcare.com/panama-city-beach/", "opening_hours": "Mo-Su 08:00-18:00", "brand": "AFC Urgent Care"}, "geometry": {"type": "Point", "coordinates": [-85.8641765, 30.2191099]}},
{"type": "Feature", "id": "QRrHi4ek7AO2pKRCi3N-0YozdFI=", "properties": {"ref": "498600", "@spider": "afcurgentcare", "addr:full": "3930 Grandview Drive Ste B", "addr:city": "Simpsonville", "addr:state": "SC", "addr:postcode": "29680", "name": "Simpsonville", "phone": "+18647575059", "website": "https://www.afcurgentcare.com/simpsonville/", "opening_hours": "Mo-Fr 08:00-20:00; Sa-Su 08:00-17:00", "brand": "AFC Urgent Care"}, "geometry": {"type": "Point", "coordinates": [-82.2520911, 34.7149237]}},
{"type": "Feature", "id": "01n92lD35mKwDyI3QLhbylZBypM=", "properties": {"ref": "498497", "@spider": "afcurgentcare", "addr:full": "1667 E. Main Street", "addr:city": "Duncan", "addr:state": "SC", "addr:postcode": "29334", "name": "Duncan", "phone": "+18644852610", "website": "https://www.afcurgentcare.com/duncan/", "opening_hours": "Mo-Fr 08:00-20:00; Sa-Su 08:00-17:00", "brand": "AFC Urgent Care"}, "geometry": {"type": "Point", "coordinates": [-82.0976279, 34.904486]}},
{"type": "Feature", "id": "ZJj2Hkv9oVE9LcvUpxq0wCLaXT0=", "properties": {"ref": "498463", "@spider": "afcurgentcare", "addr:full": "2746 Boiling Springs Road", "addr:city": "Boiling Springs", "addr:state": "SC", "addr:postcode": "29316", "name": "Boiling Springs", "phone": "+18645863923", "website": "https://www.afcurgentcare.com/boiling-springs/", "opening_hours": "Mo-Fr 08:00-20:00; Sa-Su 08:00-17:00", "brand": "AFC Urgent Care"}, "geometry": {"type": "Point", "coordinates": [-81.9711433, 35.0351451]}},
{"type": "Feature", "id": "ctHufka32wBgX3L32GK9nXJg_GA=", "properties": {"ref": "498524", "@spider": "afcurgentcare", "addr:full": "474 Bypass 72NW Suite B", "addr:city": "Greenwood", "addr:state": "SC", "addr:postcode": "29649", "name": "Greenwood", "phone": "+18642233858", "website": "https://www.afcurgentcare.com/greenwood/", "opening_hours": "Mo-Fr 08:00-20:00; Sa-Su 08:00-17:00", "brand": "AFC Urgent Care"}, "geometry": {"type": "Point", "coordinates": [-82.1387233, 34.2453437]}},
{"type": "Feature", "id": "v95Qb9U4SdR0ACT3IhTo9PJtJic=", "properties": {"ref": "498519", "@spider": "afcurgentcare", "addr:full": "1908 E. Franklin Blvd. Suite 100", "addr:city": "Gastonia", "addr:state": "NC", "addr:postcode": "28054", "name": "Gastonia", "phone": "+17042711215", "website": "https://www.afcurgentcare.com/gastonia/", "opening_hours": "Mo-Fr 08:00-20:00; Sa-Su 08:00-17:00", "brand": "AFC Urgent Care"}, "geometry": {"type": "Point", "coordinates": [-81.144351, 35.261819]}},
{"type": "Feature", "id": "vwol0HvxyIMlauoSYUkaaqR7w1Y=", "properties": {"ref": "501491", "@spider": "afcurgentcare", "addr:full": "295 Williamson Road, Suite A", "addr:city": "Mooresville", "addr:state": "NC", "addr:postcode": "28117", "name": "Mooresville", "phone": "+19804442003", "website": "https://www.afcurgentcare.com/mooresville/", "opening_hours": "Mo-Fr 08:00-20:00; Sa-Su 08:00-17:00", "brand": "AFC Urgent Care"}, "geometry": {"type": "Point", "coordinates": [-80.8735476, 35.5857353]}},
{"type": "Feature", "id": "vwiSPEmV-LaSzw5ZQoyVHyE5nLA=", "properties": {"ref": "498602", "@spider": "afcurgentcare", "addr:full": "10102 Johnston Road", "addr:city": "Charlotte", "addr:state": "NC", "addr:postcode": "28210", "name": "South Charlotte", "phone": "+17042476578", "website": "https://www.afcurgentcare.com/south-charlotte/", "opening_hours": "Mo-Fr 08:00-20:00; Sa-Su 08:00-17:00", "brand": "AFC Urgent Care"}, "geometry": {"type": "Point", "coordinates": [-80.8584276, 35.0934086]}},
{"type": "Feature", "id": "1a1TR19ULv6540kWJj168aVnkhQ=", "properties": {"ref": "498563", "@spider": "afcurgentcare", "addr:full": "4128 Monroe Rd.", "addr:city": "Charlotte", "addr:state": "NC", "addr:postcode": "28205", "name": "Monroe Rd", "phone": "+17043370133", "website": "https://www.afcurgentcare.com/monroe-rd/", "opening_hours": "Mo-Fr 08:00-20:00; Sa-Su 08:00-17:00", "brand": "AFC Urgent Care"}, "geometry": {"type": "Point", "coordinates": [-80.7902297, 35.1957882]}},
{"type": "Feature", "id": "wBzUjeKobrGhUBTq1FqPeuXlxWk=", "properties": {"ref": "501353", "@spider": "afcurgentcare", "addr:full": "16704 Hawfield Way Drive", "addr:city": "Charlotte", "addr:state": "NC", "addr:postcode": "28277", "name": "Ballantyne", "phone": "+17043370221", "website": "https://www.afcurgentcare.com/ballantyne/", "opening_hours": "Mo-Fr 08:00-20:00; Sa-Su 08:00-17:00", "brand": "AFC Urgent Care"}, "geometry": {"type": "Point", "coordinates": [-80.8457579, 35.0227599]}},
{"type": "Feature", "id": "eQ0xJ8TOIcgjeAyWTe4kUAo2bCY=", "properties": {"ref": "498590", "@spider": "afcurgentcare", "addr:full": "602 Brandon Ave. SW Suite 222", "addr:city": "Roanoke", "addr:state": "VA", "addr:postcode": "24015", "name": "Roanoke", "phone": "+15407740000", "website": "https://www.afcurgentcare.com/roanoke/", "opening_hours": "Mo-Fr 08:00-20:00; Sa-Su 08:00-17:00", "brand": "AFC Urgent Care"}, "geometry": {"type": "Point", "coordinates": [-79.9554493, 37.2565685]}},
{"type": "Feature", "id": "hSWOVFyZ6a8vG-DEAi64uUoJ728=", "properties": {"ref": "498540", "@spider": "afcurgentcare", "addr:full": "14001 E. Independence Blvd. Suite C", "addr:city": "Indian Trail", "addr:state": "NC", "addr:postcode": "28079", "name": "Indian Trail", "phone": "+17042476598", "website": "https://www.afcurgentcare.com/indian-trail/", "opening_hours": "Mo-Fr 08:00-20:00; Sa-Su 08:00-17:00", "brand": "AFC Urgent Care"}, "geometry": {"type": "Point", "coordinates": [-80.656123, 35.0803156]}},
{"type": "Feature", "id": "FOzzo-bVClmuOso2wSClKKYeYw0=", "properties": {"ref": "498517", "@spider": "afcurgentcare", "addr:full": "6965 North Glenwood Street", "addr:city": "Garden City", "addr:state": "ID", "addr:postcode": "83714", "name": "Garden City", "phone": "+12088533000", "website": "https://www.afcurgentcare.com/garden-city/", "opening_hours": "Mo-Su 08:00-20:00", "brand": "AFC Urgent Care"}, "geometry": {"type": "Point", "coordinates": [-116.2801122, 43.6674977]}},
{"type": "Feature", "id": "mWNMHgEvzSf1fMetvPsvZ6X8gdA=", "properties": {"ref": "501947", "@spider": "afcurgentcare", "addr:full": "3185 E Ustick Road", "addr:city": "Meridian", "addr:state": "ID", "addr:postcode": "83646", "name": "Meridian", "phone": "+12082967100", "website": "https://www.afcurgentcare.com/meridian/", "opening_hours": "Mo-Su 08:00-20:00", "brand": "AFC Urgent Care"}, "geometry": {"type": "Point", "coordinates": [-116.3548709, 43.6329044]}},
{"type": "Feature", "id": "6e8vgndZpZA8vodWteKgfjIrwUc=", "properties": {"ref": "498533", "@spider": "afcurgentcare", "addr:full": "2305 N Main St Suite 101", "addr:city": "High Point", "addr:state": "NC", "addr:postcode": "27262", "name": "High Point", "phone": "+13368844050", "website": "https://www.afcurgentcare.com/high-point/", "opening_hours": "Mo-Fr 08:00-20:00; Sa-Su 08:00-17:00", "brand": "AFC Urgent Care"}, "geometry": {"type": "Point", "coordinates": [-80.0249569, 35.9850335]}},
{"type": "Feature", "id": "MzvDq3LKZRm7-yqqjcL17-78Y0c=", "properties": {"ref": "499380", "@spider": "afcurgentcare", "addr:city": "Hamilton", "addr:state": "PA", "addr:postcode": "15744", "name": "Hamilton", "phone": "+16092853293", "website": "https://www.afcurgentcare.com/hamilton/", "brand": "AFC Urgent Care"}, "geometry": {"type": "Point", "coordinates": [-79.080764, 40.9241354]}},
{"type": "Feature", "id": "MLUp-sQB32o3xJu7p-3lNZZbja8=", "properties": {"ref": "498566", "@spider": "afcurgentcare", "addr:full": "1610 Caldwell Blvd.", "addr:city": "Nampa", "addr:state": "ID", "addr:postcode": "83651", "name": "Nampa", "phone": "+12082078500", "website": "https://www.afcurgentcare.com/nampa/", "opening_hours": "Mo-Su 08:00-20:00", "brand": "AFC Urgent Care"}, "geometry": {"type": "Point", "coordinates": [-116.6012674, 43.6047363]}},
{"type": "Feature", "id": "DqNWNWYEGjgcU7e50FH9YRHmfh0=", "properties": {"ref": "512588", "@spider": "afcurgentcare", "addr:full": "7851 Alexander Promenade PI #130", "addr:city": "Raleigh", "addr:state": "NC", "addr:postcode": "27617", "name": "Raleigh Brier Creek", "phone": "+19199819788", "website": "https://www.afcurgentcare.com/raleigh-brier-creek/", "brand": "AFC Urgent Care"}, "geometry": {"type": "Point", "coordinates": [-78.7798734, 35.9129712]}},
{"type": "Feature", "id": "Rwa8JffRl0f-EvI_FSsYVODDbrE=", "properties": {"ref": "498473", "@spider": "afcurgentcare", "addr:full": "101 Maynard Crossing Ct.", "addr:city": "Cary", "addr:state": "NC", "addr:postcode": "27513", "name": "Cary", "phone": "+19196519867", "website": "https://www.afcurgentcare.com/cary/", "opening_hours": "Mo-Fr 08:00-20:00; Sa-Su 08:00-17:00", "brand": "AFC Urgent Care"}, "geometry": {"type": "Point", "coordinates": [-78.8103455, 35.7859324]}},
{"type": "Feature", "id": "_MWqKqYO7xCgEqtNYOtFqkUf27s=", "properties": {"ref": "498515", "@spider": "afcurgentcare", "addr:full": "1298 N Main St.", "addr:city": "Fuquay Varina", "addr:state": "NC", "addr:postcode": "27526", "name": "Fuquay-Varina", "phone": "+19195904099", "website": "https://www.afcurgentcare.com/fuquay-varina/", "opening_hours": "Mo-Fr 08:00-20:00; Sa-Su 08:00-17:00", "brand": "AFC Urgent Care"}, "geometry": {"type": "Point", "coordinates": [-78.7794168, 35.5914166]}},
{"type": "Feature", "id": "1VN_6e99T1pzaufUTI-CnbU8WXs=", "properties": {"ref": "499470", "@spider": "afcurgentcare", "addr:full": "2913 Wake Forest Rd", "addr:city": "Raleigh", "addr:state": "NC", "addr:postcode": "27609", "name": "Raleigh Midtown", "phone": "+19198994000", "website": "https://www.afcurgentcare.com/raleigh-midtown/", "opening_hours": "Mo-Fr 08:00-20:00; Sa-Su 08:00-17:00", "brand": "AFC Urgent Care"}, "geometry": {"type": "Point", "coordinates": [-78.6239588, 35.8208021]}},
{"type": "Feature", "id": "_5cJlOm0jEk1qVj21xnVEiFS7zI=", "properties": {"ref": "498559", "@spider": "afcurgentcare", "addr:full": "12731 Stone Village Way", "addr:city": "Midlothian", "addr:state": "VA", "addr:postcode": "23113", "name": "Midlothian", "phone": "+18043791500", "website": "https://www.afcurgentcare.com/midlothian/", "opening_hours": "Mo-Fr 08:00-20:00; Sa-Su 08:00-17:00", "brand": "AFC Urgent Care"}, "geometry": {"type": "Point", "coordinates": [-77.6283076, 37.5015102]}},
{"type": "Feature", "id": "0HKGubypj-q4Svm_ZfBJWcq1i8I=", "properties": {"ref": "498599", "@spider": "afcurgentcare", "addr:full": "4101 Dominion Blvd., Suite 300", "addr:city": "Glen Allen", "addr:state": "VA", "addr:postcode": "23060", "name": "Short Pump", "phone": "+18047475555", "website": "https://www.afcurgentcare.com/short-pump/", "opening_hours": "Mo-Tu 08:00-16:00; We 08:00-20:00; Th-Fr 08:00-16:00; Sa 08:00-17:00", "brand": "AFC Urgent Care"}, "geometry": {"type": "Point", "coordinates": [-77.5856724, 37.6479542]}},
{"type": "Feature", "id": "63UZMAJHn3XIWDH3lrB786ixU4s=", "properties": {"ref": "498589", "@spider": "afcurgentcare", "addr:full": "191 E. Alessandro Blvd. Ste 9A", "addr:city": "Riverside", "addr:state": "CA", "addr:postcode": "92508", "name": "Riverside", "phone": "+19517803300", "website": "https://www.afcurgentcare.com/riverside/", "opening_hours": "Mo-Fr 08:00-20:00; Sa-Su 09:00-18:00", "brand": "AFC Urgent Care"}, "geometry": {"type": "Point", "coordinates": [-117.3242203, 33.9163731]}},
{"type": "Feature", "id": "Of0wmyBLS6NtVQ4hnGkWjdfMCT8=", "properties": {"ref": "498593", "@spider": "afcurgentcare", "addr:full": "10538 Mission Gorge Rd. Suite 100", "addr:city": "Santee", "addr:state": "CA", "addr:postcode": "92071", "name": "Santee", "phone": "+16194560033", "website": "https://www.afcurgentcare.com/santee/", "opening_hours": "Mo-Su 08:00-20:00", "brand": "AFC Urgent Care"}, "geometry": {"type": "Point", "coordinates": [-116.9677278, 32.8385924]}},
{"type": "Feature", "id": "UyS1zjTezlsOnv3Fpwt8utWxihg=", "properties": {"ref": "498561", "@spider": "afcurgentcare", "addr:full": "8260 Mira Mesa Blvd Suite A", "addr:city": "San Diego", "addr:state": "CA", "addr:postcode": "92126", "name": "Mira Mesa", "phone": "+18589003550", "website": "https://www.afcurgentcare.com/mira-mesa/", "opening_hours": "Mo-Su 08:00-20:00", "brand": "AFC Urgent Care"}, "geometry": {"type": "Point", "coordinates": [-117.146002, 32.914159]}},
{"type": "Feature", "id": "BTuSd5YTUBBpJ7hcQigZApBwTNs=", "properties": {"ref": "498464", "@spider": "afcurgentcare", "addr:full": "760 Otay Lakes Road", "addr:city": "Chula Vista", "addr:state": "CA", "addr:postcode": "91910", "name": "Chula Vista", "phone": "+16198212300", "website": "https://www.afcurgentcare.com/chula-vista/", "opening_hours": "Mo-Su 08:00-20:00", "brand": "AFC Urgent Care"}, "geometry": {"type": "Point", "coordinates": [-117.0016369, 32.6458428]}},
{"type": "Feature", "id": "x9Za4rgzWf3dM3qLezsJLffNCcU=", "properties": {"ref": "498502", "@spider": "afcurgentcare", "addr:full": "3059 Solomon's Island Rd. Suite F-2", "addr:city": "Edgewater", "addr:state": "MD", "addr:postcode": "21037", "name": "Edgewater", "phone": "+14109563394", "website": "https://www.afcurgentcare.com/edgewater/", "opening_hours": "Mo-Su 08:00-20:00", "brand": "AFC Urgent Care"}, "geometry": {"type": "Point", "coordinates": [-76.561331, 38.9418565]}},
{"type": "Feature", "id": "xmtBfxTdSicDKnPF3CdP_Jz_kzw=", "properties": {"ref": "512664", "@spider": "afcurgentcare", "addr:full": "2506 US HWY 19", "addr:city": "Holiday", "addr:state": "FL", "addr:postcode": "34691", "name": "Holiday", "phone": "+17279402274", "website": "https://www.afcurgentcare.com/holiday/", "opening_hours": "Mo-Fr 08:00-20:00; Sa-Su 08:00-17:00", "brand": "AFC Urgent Care"}, "geometry": {"type": "Point", "coordinates": [-82.7397969, 28.1953555]}},
{"type": "Feature", "id": "Hyggxts7PWZHlvNXlYOoEJsw7w0=", "properties": {"ref": "498562", "@spider": "afcurgentcare", "addr:full": "8590 Rio San Diego Drive Suite 111", "addr:city": "San Diego", "addr:state": "CA", "addr:postcode": "92108", "name": "Mission Valley", "phone": "+16197364600", "website": "https://www.afcurgentcare.com/mission-valley/", "opening_hours": "Mo-Su 08:00-20:00", "brand": "AFC Urgent Care"}, "geometry": {"type": "Point", "coordinates": [-117.1446138, 32.7757336]}},
{"type": "Feature", "id": "QbrCOit_DuRPrDFKJtEIr1LY3Io=", "properties": {"ref": "498484", "@spider": "afcurgentcare", "addr:full": "5671 Balboa Ave", "addr:city": "San Diego", "addr:state": "CA", "addr:postcode": "92111", "name": "Clairemont", "phone": "+18588002880", "website": "https://www.afcurgentcare.com/clairemont/", "opening_hours": "Mo-Su 08:00-20:00", "brand": "AFC Urgent Care"}, "geometry": {"type": "Point", "coordinates": [-117.17868, 32.8190832]}},
{"type": "Feature", "id": "OoEEmNYp1ottYNmKtDCQwME5NVg=", "properties": {"ref": "498543", "@spider": "afcurgentcare", "addr:full": "27522 Antonio Parkway Suite P3", "addr:city": "Ladera Ranch", "addr:state": "CA", "addr:postcode": "92694", "name": "Ladera Ranch", "phone": "+19492073786", "website": "https://www.afcurgentcare.com/ladera-ranch/", "opening_hours": "Mo-Su 08:00-20:00", "brand": "AFC Urgent Care"}, "geometry": {"type": "Point", "coordinates": [-117.6289531, 33.5632282]}},
{"type": "Feature", "id": "BAvIkIk2dpF25wEIClEvVErT76E=", "properties": {"ref": "501299", "@spider": "afcurgentcare", "addr:full": "1440 Main St.", "addr:city": "Dunedin", "addr:state": "FL", "addr:postcode": "34698", "name": "Dunedin", "phone": "+17272759120", "website": "https://www.afcurgentcare.com/dunedin/", "opening_hours": "Mo-Fr 08:00-20:00; Sa-Su 08:00-17:00", "brand": "AFC Urgent Care"}, "geometry": {"type": "Point", "coordinates": [-82.7661228, 28.0197296]}},
{"type": "Feature", "id": "riTlQ6PctBoskxT6MljnbkDR7lQ=", "properties": {"ref": "498485", "@spider": "afcurgentcare", "addr:full": "1500 McMullen Booth Rd. Ste. A1-A2", "addr:city": "Clearwater", "addr:state": "FL", "addr:postcode": "33759", "name": "Clearwater", "phone": "+17272661266", "website": "https://www.afcurgentcare.com/clearwater/", "opening_hours": "Mo-Fr 08:00-20:00; Sa-Su 09:00-18:00", "brand": "AFC Urgent Care"}, "geometry": {"type": "Point", "coordinates": [-82.7109979, 27.9822003]}},
{"type": "Feature", "id": "VHhoRKNvgX_ujd-S6c6l_eANgWE=", "properties": {"ref": "501209", "@spider": "afcurgentcare", "addr:full": "9040 Ulmerton Rd, Suite 200", "addr:city": "Largo", "addr:state": "FL", "addr:postcode": "33771", "name": "Largo", "phone": "+17273710660", "website": "https://www.afcurgentcare.com/largo/", "opening_hours": "Mo-Fr 08:00-20:00; Sa-Su 08:00-17:00", "brand": "AFC Urgent Care"}, "geometry": {"type": "Point", "coordinates": [-82.7644206, 27.8940363]}},
{"type": "Feature", "id": "h8w4hMHVoDyme_n3s_mn-TbkfJc=", "properties": {"ref": "498483", "@spider": "afcurgentcare", "addr:full": "6182 Gunn Hwy.", "addr:city": "Tampa", "addr:state": "FL", "addr:postcode": "33625", "name": "Tampa - Citrus Park", "phone": "+18139601100", "website": "https://www.afcurgentcare.com/citrus-park/", "opening_hours": "Mo-Fr 08:00-20:00; Sa-Su 08:00-17:00", "brand": "AFC Urgent Care"}, "geometry": {"type": "Point", "coordinates": [-82.5515963, 28.063651]}},
{"type": "Feature", "id": "NBO2NERIarnZtRP42_pmYi84G6Y=", "properties": {"ref": "498597", "@spider": "afcurgentcare", "addr:full": "11241 Park Blvd N Suite A", "addr:city": "Seminole", "addr:state": "FL", "addr:postcode": "33772", "name": "Seminole", "phone": "+17273943828", "website": "https://www.afcurgentcare.com/seminole/", "opening_hours": "Mo-Fr 08:00-20:00; Sa-Su 08:00-17:00", "brand": "AFC Urgent Care"}, "geometry": {"type": "Point", "coordinates": [-82.7946613, 27.8416201]}},
{"type": "Feature", "id": "7dOz7M2EZ0eMb0-yNg3B8RjTduU=", "properties": {"ref": "498584", "@spider": "afcurgentcare", "addr:full": "7101 US Hwy 19 N", "addr:city": "Pinellas Park", "addr:state": "FL", "addr:postcode": "33781", "name": "Pinellas Park", "phone": "+17272018585", "website": "https://www.afcurgentcare.com/pinellas-park/", "opening_hours": "Mo-Fr 08:00-20:00; Sa-Su 08:00-17:00", "brand": "AFC Urgent Care"}, "geometry": {"type": "Point", "coordinates": [-82.681716, 27.8373162]}},
{"type": "Feature", "id": "a7UlXaup7aslO4hoMSBXQe6S4A0=", "properties": {"ref": "501301", "@spider": "afcurgentcare", "addr:full": "2241 66th St N", "addr:city": "St. Petersburg", "addr:state": "FL", "addr:postcode": "33710", "name": "Tyrone St. Petersburg", "phone": "+17272731700", "website": "https://www.afcurgentcare.com/tyrone-stpetersburg/", "opening_hours": "Mo-Fr 08:00-20:00; Sa-Su 08:00-17:00", "brand": "AFC Urgent Care"}, "geometry": {"type": "Point", "coordinates": [-82.7279098, 27.7912929]}},
{"type": "Feature", "id": "Wcqtp5DkKJ8rMDfUl8snCSXu4AI=", "properties": {"ref": "498608", "@spider": "afcurgentcare", "addr:full": "1530 4th Street North", "addr:city": "St. Petersburg", "addr:state": "FL", "addr:postcode": "33704", "name": "St. Petersburg", "phone": "+17276853807", "website": "https://www.afcurgentcare.com/st-petersburg/", "opening_hours": "Mo-Su 08:00-20:00", "brand": "AFC Urgent Care"}, "geometry": {"type": "Point", "coordinates": [-82.6387506, 27.7876377]}},
{"type": "Feature", "id": "R7AX5ZYuCvSC2ZSZyQ9d4C-qkM0=", "properties": {"ref": "498592", "@spider": "afcurgentcare", "addr:full": "19042 Soledad Canyon Rd", "addr:city": "Santa Clarita", "addr:state": "CA", "addr:postcode": "91351", "name": "Santa Clarita", "phone": "+16612516300", "website": "https://www.afcurgentcare.com/santa-clarita/", "opening_hours": "Mo-Sa 08:00-20:00; Su 08:00-18:00", "brand": "AFC Urgent Care"}, "geometry": {"type": "Point", "coordinates": [-118.468794, 34.415495]}},
{"type": "Feature", "id": "gKqKYQKPZeZ6MyKOJ_0fzMFt37I=", "properties": {"ref": "499060", "@spider": "afcurgentcare", "addr:full": "27550 Newhall Ranch Road Suite 203", "addr:city": "Valencia", "addr:state": "CA", "addr:postcode": "91355", "name": "Valencia", "phone": "+16614028903", "website": "https://www.afcurgentcare.com/valencia/", "opening_hours": "Mo-Sa 08:00-20:00; Su 08:00-18:00", "brand": "AFC Urgent Care"}, "geometry": {"type": "Point", "coordinates": [-118.5634293, 34.4364514]}},
{"type": "Feature", "id": "9dGxgFZ_yumaLJYWdozS4OkyRsI=", "properties": {"ref": "498521", "@spider": "afcurgentcare", "addr:full": "16912 San Fernando Mission Blvd.", "addr:city": "Granada Hills", "addr:state": "CA", "addr:postcode": "91344", "name": "Granada Hills", "phone": "+18184886160", "website": "https://www.afcurgentcare.com/granada-hills/", "opening_hours": "Mo-Fr 08:00-20:00; Sa-Su 08:00-17:00", "brand": "AFC Urgent Care"}, "geometry": {"type": "Point", "coordinates": [-118.5004351, 34.2709742]}},
{"type": "Feature", "id": "PTbikuAMtaPzkKmfjomMGVAl0pg=", "properties": {"ref": "498609", "@spider": "afcurgentcare", "addr:full": "1013 University Blvd., Suite 270", "addr:city": "Suffolk", "addr:state": "VA", "addr:postcode": "23435", "name": "Suffolk", "phone": "+17573354755", "website": "https://www.afcurgentcare.com/suffolk/", "opening_hours": "Mo-Fr 08:00-20:00; Sa-Su 08:00-17:00", "brand": "AFC Urgent Care"}, "geometry": {"type": "Point", "coordinates": [-76.4225649, 36.8735034]}},
{"type": "Feature", "id": "VvhQ-kOisYfetOx7JdNqiQUdHgg=", "properties": {"ref": "503346", "@spider": "afcurgentcare", "addr:full": "24329 Crenshaw Blvd", "addr:city": "Torrance", "addr:state": "CA", "addr:postcode": "90505", "name": "Torrance", "phone": "COMING SOON", "website": "https://www.afcurgentcare.com/torrance/", "brand": "AFC Urgent Care"}, "geometry": {"type": "Point", "coordinates": [-118.3285701, 33.8045593]}},
{"type": "Feature", "id": "w_I_tV_8RuWAkWjamvTV8jEPGi0=", "properties": {"ref": "501210", "@spider": "afcurgentcare", "addr:city": "Riverview", "addr:state": "FL", "addr:postcode": "33511", "name": "Riverview", "phone": "+17272018585", "website": "https://www.afcurgentcare.com/riverview/", "opening_hours": "Mo-Fr 08:00-20:00; Sa-Su 08:00-17:00", "brand": "AFC Urgent Care"}, "geometry": {"type": "Point", "coordinates": [-82.2909146, 27.9082595]}},
{"type": "Feature", "id": "q9CD4ADHJjecvR0w1eyLFJBUS7U=", "properties": {"ref": "498496", "@spider": "afcurgentcare", "addr:full": "150 E. Pennsylvania Ave. Suite 140", "addr:city": "Dowingtown", "addr:state": "PA", "addr:postcode": "19335", "name": "Downingtown", "phone": "+16105181060", "website": "https://www.afcurgentcare.com/downingtown/", "opening_hours": "Mo-Fr 08:00-20:00; Sa-Su 08:00-17:00", "brand": "AFC Urgent Care"}, "geometry": {"type": "Point", "coordinates": [-75.7018932, 40.0083243]}},
{"type": "Feature", "id": "JAcQpVz3xsf8TKBOHuUrBcuBDd8=", "properties": {"ref": "503358", "@spider": "afcurgentcare", "addr:full": "715-B Route 113", "addr:city": "Souderton", "addr:state": "PA", "addr:postcode": "18964", "name": "Souderton", "phone": "+12673823220", "website": "https://www.afcurgentcare.com/souderton/", "opening_hours": "Mo-Fr 08:00-20:00; Sa-Su 08:00-17:00", "brand": "AFC Urgent Care"}, "geometry": {"type": "Point", "coordinates": [-75.6436778, 40.0689117]}},
{"type": "Feature", "id": "I7MLJZ8cVu-8wxqzjzD4olGF_3k=", "properties": {"ref": "498552", "@spider": "afcurgentcare", "addr:full": "780 N. Krocks Road Suite 101", "addr:city": "Allentown", "addr:state": "PA", "addr:postcode": "18106", "name": "Lower Macungie", "phone": "+16103653354", "website": "https://www.afcurgentcare.com/lower-macungie/", "opening_hours": "Mo-Fr 08:00-20:00; Sa-Su 08:00-17:00", "brand": "AFC Urgent Care"}, "geometry": {"type": "Point", "coordinates": [-75.5641048, 40.5640996]}},
{"type": "Feature", "id": "euz-87GMrLeWMQXVIwoQ7aUAZYI=", "properties": {"ref": "498624", "@spider": "afcurgentcare", "addr:full": "510 E. Gay Street", "addr:city": "West Chester", "addr:state": "PA", "addr:postcode": "19380", "name": "West Chester", "phone": "+14849990204", "website": "https://www.afcurgentcare.com/west-chester/", "opening_hours": "Mo-Fr 08:00-20:00; Sa-Su 08:00-17:00", "brand": "AFC Urgent Care"}, "geometry": {"type": "Point", "coordinates": [-75.5971437, 39.9638181]}},
{"type": "Feature", "id": "4562Hy1HEGrWYaZjLhL3NWR6iiI=", "properties": {"ref": "498583", "@spider": "afcurgentcare", "addr:full": "265 Schuylkill Road", "addr:city": "Pheonixville", "addr:state": "PA", "addr:postcode": "19460", "name": "Phoenixville", "phone": "+16109354740", "website": "https://www.afcurgentcare.com/phoenixville/", "opening_hours": "Mo-Fr 08:00-20:00; Sa-Su 08:00-17:00", "brand": "AFC Urgent Care"}, "geometry": {"type": "Point", "coordinates": [-75.5417078, 40.1357943]}},
{"type": "Feature", "id": "KAtyiO9wvaWETIzzpKvagS1ZZQE=", "properties": {"ref": "498228", "@spider": "afcurgentcare", "addr:full": "5825 Kanan Road Unit B", "addr:city": "Agoura Hills", "addr:state": "CA", "addr:postcode": "91301", "name": "Agoura Hills", "phone": "+18187408427", "website": "https://www.afcurgentcare.com/agoura-hills/", "opening_hours": "Mo-Fr 08:00-20:00; Sa-Su 08:00-17:00", "brand": "AFC Urgent Care"}, "geometry": {"type": "Point", "coordinates": [-118.7569256, 34.1560666]}},
{"type": "Feature", "id": "5z4SB2iMqOMKYyqPcNfo_szPg-0=", "properties": {"ref": "500995", "@spider": "afcurgentcare", "addr:full": "3656 W. Shaw Ave", "addr:city": "Fresno", "addr:state": "CA", "addr:postcode": "93711", "name": "Fresno", "phone": "+15593888430", "website": "https://www.afcurgentcare.com/fresno/", "opening_hours": "Mo-Fr 08:00-20:00; Sa-Su 08:00-17:00", "brand": "AFC Urgent Care"}, "geometry": {"type": "Point", "coordinates": [-119.859417, 36.8086757]}},
{"type": "Feature", "id": "ohRRJGmH21LbBod8bEyccuUPyXw=", "properties": {"ref": "501950", "@spider": "afcurgentcare", "addr:full": "3656 W. Shaw Ave", "addr:city": "Fresno", "addr:state": "CA", "addr:postcode": "93711", "name": "Fresno", "phone": "+15593888430", "website": "https://www.afcurgentcare.com/fresno/", "opening_hours": "Mo-Tu 08:00-19:00; We 08:00-14:00; Th-Fr 08:00-19:00; Sa-Su 08:00-16:00", "brand": "AFC Urgent Care"}, "geometry": {"type": "Point", "coordinates": [-119.859417, 36.8086757]}},
{"type": "Feature", "id": "eIvr6GfM6IES0p4q8JbWWMlt11A=", "properties": {"ref": "515991", "@spider": "afcurgentcare", "addr:full": "4520 Princess Anne Road", "addr:city": "Virginia Beach", "addr:state": "VA", "addr:postcode": "23462", "name": "Princess Anne", "phone": "+17573354755", "website": "https://www.afcurgentcare.com/princess-anne/", "brand": "AFC Urgent Care"}, "geometry": {"type": "Point", "coordinates": [-76.1337626, 36.8058025]}},
{"type": "Feature", "id": "HphExC7v9unX9gE_0XJw-uVOYqM=", "properties": {"ref": "501300", "@spider": "afcurgentcare", "addr:full": "5925 Lakewood Ranch Boulevard", "addr:city": "Bradenton", "addr:state": "FL", "addr:postcode": "34211", "name": "Lakewood Ranch", "phone": "+19413481201", "website": "https://www.afcurgentcare.com/lakewood-ranch/", "opening_hours": "Mo-Fr 08:00-20:00; Sa-Su 08:00-17:00", "brand": "AFC Urgent Care"}, "geometry": {"type": "Point", "coordinates": [-82.427832, 27.4351638]}},
{"type": "Feature", "id": "TCXBHQsPqxE3H7wUFkyF4TP8JU8=", "properties": {"ref": "498595", "@spider": "afcurgentcare", "addr:full": "2901 S. Tamiami Trail", "addr:city": "Sarasota", "addr:state": "FL", "addr:postcode": "34239", "name": "Sarasota", "phone": "+19413644379", "website": "https://www.afcurgentcare.com/sarasota/", "opening_hours": "Mo-Fr 08:00-20:00; Sa-Su 08:00-17:00", "brand": "AFC Urgent Care"}, "geometry": {"type": "Point", "coordinates": [-82.5297869, 27.3071329]}},
{"type": "Feature", "id": "Xjmfp31wHckTea7iouQHZqoyCdo=", "properties": {"ref": "498460", "@spider": "afcurgentcare", "addr:full": "5024 Pennell Road", "addr:city": "Aston", "addr:state": "PA", "addr:postcode": "19014", "name": "Aston", "phone": "+14847663502", "website": "https://www.afcurgentcare.com/aston/", "opening_hours": "Mo-Fr 08:00-20:00; Sa-Su 08:00-17:00", "brand": "AFC Urgent Care"}, "geometry": {"type": "Point", "coordinates": [-75.4277811, 39.8670094]}},
{"type": "Feature", "id": "Ei8Ve2hPVPt5ZNRfjOWHdyMeHrY=", "properties": {"ref": "498531", "@spider": "afcurgentcare", "addr:full": "115 W. Eagle Road", "addr:city": "Havertown", "addr:state": "PA", "addr:postcode": "19083", "name": "Havertown", "phone": "+14844529400", "website": "https://www.afcurgentcare.com/havertown/", "opening_hours": "Mo-Fr 08:00-20:00; Sa-Su 08:00-17:00", "brand": "AFC Urgent Care"}, "geometry": {"type": "Point", "coordinates": [-75.3141824, 39.9852728]}},
{"type": "Feature", "id": "v4ulzQzdwLsGnIsS8O9rPtgEnUM=", "properties": {"ref": "499312", "@spider": "afcurgentcare", "addr:full": "48A E Ridge Pike", "addr:city": "Conshohocken", "addr:state": "PA", "addr:postcode": "19428", "name": "Conshohocken", "phone": "+14842436735", "website": "https://www.afcurgentcare.com/conshohocken/", "opening_hours": "Mo-Fr 08:00-20:00; Sa-Su 08:00-17:00", "brand": "AFC Urgent Care"}, "geometry": {"type": "Point", "coordinates": [-75.2838956, 40.0931386]}},
{"type": "Feature", "id": "zbtvu80VCxf2hMvAGOkYCLebb3s=", "properties": {"ref": "498567", "@spider": "afcurgentcare", "addr:full": "934 Montgomery Ave.", "addr:city": "Narberth", "addr:state": "PA", "addr:postcode": "19072", "name": "Narberth", "phone": "+14842708600", "website": "https://www.afcurgentcare.com/narberth/", "opening_hours": "Mo-Fr 08:00-20:00; Sa-Su 08:00-17:00", "brand": "AFC Urgent Care"}, "geometry": {"type": "Point", "coordinates": [-75.2614416, 40.0116354]}},
{"type": "Feature", "id": "1MJZCUPPsIJYE_oF5tu_wzeBuBU=", "properties": {"ref": "498605", "@spider": "afcurgentcare", "addr:full": "1444 W. Passyunk Ave.", "addr:city": "Philadelphia", "addr:state": "PA", "addr:postcode": "19145", "name": "South Philadelphia", "phone": "+12159649250", "website": "https://www.afcurgentcare.com/south-philly/", "opening_hours": "Mo-Fr 08:00-20:00; Sa-Su 08:00-17:00", "brand": "AFC Urgent Care"}, "geometry": {"type": "Point", "coordinates": [-75.1710913, 39.9249962]}},
{"type": "Feature", "id": "WSuozuRHFMMC0lK8JnnR_Rf0_Yc=", "properties": {"ref": "498480", "@spider": "afcurgentcare", "addr:full": "2401 West Cheltenham Avenue", "addr:city": "Wyncote", "addr:state": "PA", "addr:postcode": "19095", "name": "Cheltenham", "phone": "+12159356777", "website": "https://www.afcurgentcare.com/cheltenham/", "opening_hours": "Mo-Fr 08:00-20:00; Sa-Su 08:00-17:00", "brand": "AFC Urgent Care"}, "geometry": {"type": "Point", "coordinates": [-75.1565623, 40.0747405]}},
{"type": "Feature", "id": "WXivbgeDadK3JlhcbuXBcufnkuM=", "properties": {"ref": "498621", "@spider": "afcurgentcare", "addr:full": "781 Easton Rd", "addr:city": "Warrington", "addr:state": "PA", "addr:postcode": "18976", "name": "Warrington", "phone": "+12158743209", "website": "https://www.afcurgentcare.com/warrington/", "opening_hours": "Mo-Su 08:00-20:00", "brand": "AFC Urgent Care"}, "geometry": {"type": "Point", "coordinates": [-75.136538, 40.2331023]}},
{"type": "Feature", "id": "egwmy-LmZ4qTWd1I0yb1Knq13UA=", "properties": {"ref": "498630", "@spider": "afcurgentcare", "addr:full": "2848 W Moreland Rd.", "addr:city": "Willow Grove", "addr:state": "PA", "addr:postcode": "19090", "name": "Willow Grove", "phone": "+12674955455", "website": "https://www.afcurgentcare.com/willow-grove/", "opening_hours": "Mo-Fr 08:00-20:00; Sa-Su 08:00-17:00", "brand": "AFC Urgent Care"}, "geometry": {"type": "Point", "coordinates": [-75.1282911, 40.1474391]}},
{"type": "Feature", "id": "Z0n4gXuxGFMWzYUx6GH_otEO13I=", "properties": {"ref": "498549", "@spider": "afcurgentcare", "addr:full": "180 West Girard Avenue", "addr:city": "Philadelphia", "addr:state": "PA", "addr:postcode": "19123", "name": "Northern Liberties", "phone": "+12673198047", "website": "https://www.afcurgentcare.com/northern-liberties/", "opening_hours": "Mo-Fr 08:00-20:00; Sa-Su 08:00-17:00", "brand": "AFC Urgent Care"}, "geometry": {"type": "Point", "coordinates": [-75.1390321, 39.9684394]}},
{"type": "Feature", "id": "K2DtCWw2NN3oqmGpB6SVjq9_mGw=", "properties": {"ref": "498791", "@spider": "afcurgentcare", "addr:full": "6630 S. Crescent Blvd", "addr:city": "Pennsauken", "addr:state": "NJ", "addr:postcode": "08109", "name": "Pennsauken", "phone": "+18566651010", "website": "https://www.afcurgentcare.com/pennsauken/", "opening_hours": "Mo-Su 08:00-20:00", "brand": "AFC Urgent Care"}, "geometry": {"type": "Point", "coordinates": [-75.0749521, 39.9381438]}},
{"type": "Feature", "id": "wr8cjCU5eqLx4ah9hP-iV5LzW_A=", "properties": {"ref": "498804", "@spider": "afcurgentcare", "addr:full": "475 Hurffville-Crosskeys Road Suite B", "addr:city": "Sewell", "addr:state": "NJ", "addr:postcode": "08080", "name": "Washington Township", "phone": "+18565536611", "website": "https://www.afcurgentcare.com/washington-township/", "opening_hours": "Mo-Su 08:00-20:00", "brand": "AFC Urgent Care"}, "geometry": {"type": "Point", "coordinates": [-75.0722481, 39.7395269]}},
{"type": "Feature", "id": "aS_p8ZvfzzpBiQmnvOzzh4C2Zs8=", "properties": {"ref": "498778", "@spider": "afcurgentcare", "addr:full": "2001 College Drive Suite 11", "addr:city": "Clementon", "addr:state": "NJ", "addr:postcode": "08021", "name": "Gloucester Township", "phone": "+18565663333", "website": "https://www.afcurgentcare.com/gloucester/", "opening_hours": "Mo-Su 08:00-20:00", "brand": "AFC Urgent Care"}, "geometry": {"type": "Point", "coordinates": [-75.02454, 39.802546]}},
{"type": "Feature", "id": "Mh5IcUc-KMvuX7Pymdz9q3anGp4=", "properties": {"ref": "498548", "@spider": "afcurgentcare", "addr:full": "173 Levittown Pkwy Ste 24A", "addr:city": "Levittown", "addr:state": "PA", "addr:postcode": "19055", "name": "Levittown", "phone": "+12156489000", "website": "https://www.afcurgentcare.com/levittown/", "opening_hours": "Mo-Su 08:00-17:00", "brand": "AFC Urgent Care"}, "geometry": {"type": "Point", "coordinates": [-74.8200983, 40.1427492]}},
{"type": "Feature", "id": "lCP8PrLjgKKWOwsFrj1erbI_Auo=", "properties": {"ref": "498810", "@spider": "afcurgentcare", "addr:full": "165 South Blackhorse Pike", "addr:city": "Williamstown", "addr:state": "NJ", "addr:postcode": "08094", "name": "Williamstown", "phone": "+18565164700", "website": "https://www.afcurgentcare.com/williamstown/", "opening_hours": "Mo-Su 08:00-20:00", "brand": "AFC Urgent Care"}, "geometry": {"type": "Point", "coordinates": [-74.8636226, 39.5975485]}},
{"type": "Feature", "id": "v74DgK_ZBomZ445sI7QPFK3CRBs=", "properties": {"ref": "499061", "@spider": "afcurgentcare", "addr:full": "1085 Whitehorse Avenue", "addr:city": "Hamilton", "addr:state": "NJ", "addr:postcode": "08610", "name": "Hamilton", "phone": "+16095784170", "website": "https://www.afcurgentcare.com/hamilton/", "opening_hours": "Mo-Fr 08:00-20:00; Sa-Su 08:00-17:00", "brand": "AFC Urgent Care"}, "geometry": {"type": "Point", "coordinates": [-74.6948435, 40.2067899]}},
{"type": "Feature", "id": "XN0ffHsBi3ev1otNRw4PhsdLTIU=", "properties": {"ref": "498769", "@spider": "afcurgentcare", "addr:full": "601 W Union Ave.", "addr:city": "Bound Brook", "addr:state": "NJ", "addr:postcode": "08805", "name": "Bound Brook", "phone": "+17324693627", "website": "https://www.afcurgentcare.com/bound-brook/", "opening_hours": "Mo-Fr 08:00-20:00; Sa-Su 08:00-17:00", "brand": "AFC Urgent Care"}, "geometry": {"type": "Point", "coordinates": [-74.5530665, 40.5686408]}},
{"type": "Feature", "id": "Xq51FEHUiqdqPqvapVBBTLBDiTc=", "properties": {"ref": "518469", "@spider": "afcurgentcare", "addr:full": "154 NJ-10", "addr:city": "East Hanover", "addr:state": "NJ", "addr:postcode": "07936", "name": "East Hanover", "phone": "+19739203090", "website": "https://www.afcurgentcare.com/east-hanover/", "brand": "AFC Urgent Care"}, "geometry": {"type": "Point", "coordinates": [-74.3798464, 40.810263]}},
{"type": "Feature", "id": "vO0K8KWc3PkSac-9WgCeGu2BaUg=", "properties": {"ref": "498794", "@spider": "afcurgentcare", "addr:full": "907 Oak Tree Avenue Suite H", "addr:city": "South Plainsfield", "addr:state": "NJ", "addr:postcode": "07080", "name": "South Plainfield", "phone": "+19082223500", "website": "https://www.afcurgentcare.com/south-plainfield/", "opening_hours": "Mo-Fr 08:00-20:00; Sa-Su 08:00-17:00", "brand": "AFC Urgent Care"}, "geometry": {"type": "Point", "coordinates": [-74.3897192, 40.5785848]}},
{"type": "Feature", "id": "JyMaZY_j9ojhMo8yUHsdBm3jbmg=", "properties": {"ref": "499294", "@spider": "afcurgentcare", "addr:full": "704 Morris Tpke", "addr:city": "Short Hills", "addr:state": "NJ", "addr:postcode": "07078", "name": "Short Hills", "phone": "+19736715350", "website": "https://www.afcurgentcare.com/short-hills/", "opening_hours": "Mo-Fr 08:00-20:00; Sa-Su 08:00-17:00", "brand": "AFC Urgent Care"}, "geometry": {"type": "Point", "coordinates": [-74.3292825, 40.7193702]}},
{"type": "Feature", "id": "1PF4auSPfPkRTzbC7Nl9M4PZ8uM=", "properties": {"ref": "499388", "@spider": "afcurgentcare", "addr:full": "1107 Convery Blvd", "addr:city": "Perth Amboy", "addr:state": "NJ", "addr:postcode": "08861", "name": "Perth Amboy", "phone": "+17328969962", "website": "https://www.afcurgentcare.com/perth-amboy/", "opening_hours": "Mo-Fr 08:00-20:00; Sa-Su 08:00-17:00", "brand": "AFC Urgent Care"}, "geometry": {"type": "Point", "coordinates": [-74.2780397, 40.5388835]}},
{"type": "Feature", "id": "FyTr-wai2x9Ep2TIKzPbCsAfpw0=", "properties": {"ref": "516432", "@spider": "afcurgentcare", "addr:full": "570 Avenel Route 1 North", "addr:city": "Avenel", "addr:state": "NJ", "addr:postcode": "07001", "name": "Avenel", "phone": "COMING SOON", "website": "https://www.afcurgentcare.com/avenel/", "brand": "AFC Urgent Care"}, "geometry": {"type": "Point", "coordinates": [-74.2722124, 40.5933859]}},
{"type": "Feature", "id": "cMg4Z8O6eOdGN_XVSwX2VgHSZlU=", "properties": {"ref": "498808", "@spider": "afcurgentcare", "addr:full": "464 Eagle Rock Avenue Suite C", "addr:city": "West Orange", "addr:state": "NJ", "addr:postcode": "07052", "name": "West Orange", "phone": "+19736695900", "website": "https://www.afcurgentcare.com/west-orange/", "opening_hours": "Mo-Fr 08:00-20:00; Sa-Su 08:00-17:00", "brand": "AFC Urgent Care"}, "geometry": {"type": "Point", "coordinates": [-74.2499371, 40.8033929]}},
{"type": "Feature", "id": "xLbYSPeniL8joCWT9wLHCOy3aX0=", "properties": {"ref": "498771", "@spider": "afcurgentcare", "addr:full": "480 Pompton Avenue, Suite 6", "addr:city": "Cedar Grove", "addr:state": "NJ", "addr:postcode": "07009", "name": "Cedar Grove", "phone": "+19732392300", "website": "https://www.afcurgentcare.com/cedar-grove/", "opening_hours": "Mo-Su 08:00-20:00", "brand": "AFC Urgent Care"}, "geometry": {"type": "Point", "coordinates": [-74.229442, 40.849563]}},
{"type": "Feature", "id": "XqPwQi4FH8WUyocoM488tpjxpRU=", "properties": {"ref": "512570", "@spider": "afcurgentcare", "addr:full": "400 Westfield Avenue", "addr:city": "Elizabeth", "addr:state": "NJ", "addr:postcode": "07208", "name": "Elizabeth", "phone": "+19086775900", "website": "https://www.afcurgentcare.com/elizabeth/", "opening_hours": "Mo-Fr 08:00-20:00; Sa-Su 08:00-17:00", "brand": "AFC Urgent Care"}, "geometry": {"type": "Point", "coordinates": [-74.2299922, 40.6660324]}},
{"type": "Feature", "id": "dopbrFFY22gHX6Uap_m54rmGMTc=", "properties": {"ref": "498760", "@spider": "afcurgentcare", "addr:full": "1140 State Route 34", "addr:city": "Aberdeen", "addr:state": "NJ", "addr:postcode": "07747", "name": "Aberdeen", "phone": "+17325835100", "website": "https://www.afcurgentcare.com/aberdeen/", "opening_hours": "Mo-Fr 08:00-20:00; Sa-Su 08:00-17:00", "brand": "AFC Urgent Care"}, "geometry": {"type": "Point", "coordinates": [-74.2248337, 40.3964529]}},
{"type": "Feature", "id": "dLYvhtg40cIIWHVj5x6BdeCpELE=", "properties": {"ref": "501349", "@spider": "afcurgentcare", "addr:full": "2360 Lakewood Road (Route 9)", "addr:city": "Toms River", "addr:state": "NJ", "addr:postcode": "08755", "name": "Toms River", "phone": "+17327197788", "website": "https://www.afcurgentcare.com/tomsriver/", "opening_hours": "Mo-Fr 08:00-20:00; Sa-Su 08:00-17:00", "brand": "AFC Urgent Care"}, "geometry": {"type": "Point", "coordinates": [-74.2245357, 40.0451567]}},
{"type": "Feature", "id": "4rjvP-sdjOKo0oNYu3dzDd-61Og=", "properties": {"ref": "498802", "@spider": "afcurgentcare", "addr:full": "276 Passaic Ave Unit A", "addr:city": "Kearny", "addr:state": "NJ", "addr:postcode": "07032", "name": "Kearny", "phone": "+12017199371", "website": "https://www.afcurgentcare.com/kearny/", "opening_hours": "Mo-Su 08:00-20:00", "brand": "AFC Urgent Care"}, "geometry": {"type": "Point", "coordinates": [-74.1589881, 40.7618061]}},
{"type": "Feature", "id": "44q-dwmt8Yiv6b-5EVzi2hk38HE=", "properties": {"ref": "498244", "@spider": "afcurgentcare", "addr:full": "5 N Airmont Road Suite 4", "addr:city": "Airmont", "addr:state": "NY", "addr:postcode": "10901", "name": "Airmont", "phone": "+18455470300", "website": "https://www.afcurgentcare.com/airmont/", "opening_hours": "Mo-Fr 08:00-20:00; Sa-Su 08:00-17:00", "brand": "AFC Urgent Care"}, "geometry": {"type": "Point", "coordinates": [-74.1134894, 41.1130066]}},
{"type": "Feature", "id": "xT1-Q0Ko4_wCA1_9fYth-7Bz-FA=", "properties": {"ref": "498780", "@spider": "afcurgentcare", "addr:full": "560 New York Ave.", "addr:city": "Lyndhurst", "addr:state": "NJ", "addr:postcode": "07071", "name": "Lyndhurst", "phone": "+12013453839", "website": "https://www.afcurgentcare.com/lyndhurst/", "opening_hours": "Mo-Fr 08:00-20:00; Sa-Su 08:00-17:00", "brand": "AFC Urgent Care"}, "geometry": {"type": "Point", "coordinates": [-74.1199127, 40.8133784]}},
{"type": "Feature", "id": "gCmNi92lz9YPt8-w0sBaKJBl09k=", "properties": {"ref": "498790", "@spider": "afcurgentcare", "addr:full": "67 E. Ridgewood Ave.", "addr:city": "Paramus", "addr:state": "NJ", "addr:postcode": "07652", "name": "Paramus", "phone": "+12012622010", "website": "https://www.afcurgentcare.com/paramus/", "opening_hours": "Mo-Fr 08:00-20:00; Sa-Su 09:00-18:00", "brand": "AFC Urgent Care"}, "geometry": {"type": "Point", "coordinates": [-74.073201, 40.9677932]}},
{"type": "Feature", "id": "AtELH4sQfOpdNrUvPBsE77n-nug=", "properties": {"ref": "512954", "@spider": "afcurgentcare", "addr:full": "2300 John F Kennedy Blvd.", "addr:city": "Jersey City", "addr:state": "NJ", "addr:postcode": "07304", "name": "Jersey City", "phone": "+12014995676", "website": "https://www.afcurgentcare.com/jersey-city/", "opening_hours": "Mo-Fr 10:00-19:00; Sa-Su 10:00-18:00", "brand": "AFC Urgent Care"}, "geometry": {"type": "Point", "coordinates": [-74.0805435, 40.7169654]}},
{"type": "Feature", "id": "Yv2_jacZJNdxP9x9ehZVhwmkCOI=", "properties": {"ref": "498779", "@spider": "afcurgentcare", "addr:full": "2 Broadway", "addr:city": "Hillsdale", "addr:state": "NJ", "addr:postcode": "07642", "name": "Hillsdale", "phone": "+12015239222", "website": "https://www.afcurgentcare.com/hillsdale/", "opening_hours": "Mo-Fr 08:00-20:00; Sa-Su 08:00-17:00", "brand": "AFC Urgent Care"}, "geometry": {"type": "Point", "coordinates": [-74.0381597, 40.9992295]}},
{"type": "Feature", "id": "x3PNKUD30G9foVxZ4BXfpohQZqM=", "properties": {"ref": "512955", "@spider": "afcurgentcare", "addr:full": "269 Rt 46 West", "addr:city": "Little Ferry", "addr:state": "NJ", "addr:postcode": "07643", "name": "Little Ferry", "phone": "+15518372051", "website": "https://www.afcurgentcare.com/little-ferry/", "opening_hours": "Mo-Su 08:00-20:00", "brand": "AFC Urgent Care"}, "geometry": {"type": "Point", "coordinates": [-74.042569, 40.8549787]}},
{"type": "Feature", "id": "WniRxesuzdAlqel5URw8hfo4jk8=", "properties": {"ref": "515617", "@spider": "afcurgentcare", "addr:full": "42 Rockland Plaza, Suite #22", "addr:city": "Nanuet", "addr:state": "NY", "addr:postcode": "10954", "name": "Nanuet", "phone": "COMING SOON", "website": "https://www.afcurgentcare.com/nanuet/", "brand": "AFC Urgent Care"}, "geometry": {"type": "Point", "coordinates": [-74.0124999, 41.0983177]}},
{"type": "Feature", "id": "0pjJzB6eZ7TxJq3AmKkRxrfW3y8=", "properties": {"ref": "498788", "@spider": "afcurgentcare", "addr:full": "2100 88th Street", "addr:city": "North Bergen", "addr:state": "NJ", "addr:postcode": "07047", "name": "North Bergen", "phone": "+12015881300", "website": "https://www.afcurgentcare.com/north-bergen/", "opening_hours": "Mo-Fr 08:00-20:00; Sa-Su 08:00-17:00", "brand": "AFC Urgent Care"}, "geometry": {"type": "Point", "coordinates": [-74.0134869, 40.8140446]}},
{"type": "Feature", "id": "ETgVUmZMPyv7EMmZxt1sKHteDxk=", "properties": {"ref": "498807", "@spider": "afcurgentcare", "addr:full": "214 State Highway 36", "addr:city": "West Long Branch", "addr:state": "NJ", "addr:postcode": "07764", "name": "West Long Branch", "phone": "+17322228000", "website": "https://www.afcurgentcare.com/west-long-branch/", "opening_hours": "Mo-Fr 08:00-20:00; Sa-Su 08:00-17:00", "brand": "AFC Urgent Care"}, "geometry": {"type": "Point", "coordinates": [-74.0275794, 40.2949221]}},
{"type": "Feature", "id": "v_3Ov1elJQhAWenMnJ1ncphh5H4=", "properties": {"ref": "498466", "@spider": "afcurgentcare", "addr:full": "332 E 149th Street", "addr:city": "Bronx", "addr:state": "NY", "addr:postcode": "10451", "name": "Bronx -149", "phone": "+13473294010", "website": "https://www.afcurgentcare.com/bronx-149/", "opening_hours": "Mo-Fr 08:00-20:00; Sa-Su 08:00-17:00", "brand": "AFC Urgent Care"}, "geometry": {"type": "Point", "coordinates": [-73.9202983, 40.8165456]}},
{"type": "Feature", "id": "Y1UKGh5upWPxT_v-CfQ076GS2Nk=", "properties": {"ref": "498623", "@spider": "afcurgentcare", "addr:full": "1200 Webster Avenue", "addr:city": "Bronx", "addr:state": "NY", "addr:postcode": "10456", "name": "Bronx Webster", "phone": "+16466127938", "website": "https://www.afcurgentcare.com/webster-primary-care/", "opening_hours": "Mo-Fr 08:00-17:00", "brand": "AFC Urgent Care"}, "geometry": {"type": "Point", "coordinates": [-73.9097741, 40.8319141]}},
{"type": "Feature", "id": "qWUIXTqb6ixvlNWufJUDzsg_dvs=", "properties": {"ref": "498469", "@spider": "afcurgentcare", "addr:full": "1210 Webster Ave", "addr:city": "Bronx", "addr:state": "NY", "addr:postcode": "10456", "name": "Bronx Webster Ave", "phone": "+16466127747", "website": "https://www.afcurgentcare.com/bronx-webster/", "opening_hours": "Mo-Fr 08:00-20:00; Sa-Su 08:00-17:00", "brand": "AFC Urgent Care"}, "geometry": {"type": "Point", "coordinates": [-73.9093901, 40.8318119]}},
{"type": "Feature", "id": "bE9MlWrkjV2RZ3g5UBwgd8P4Dmo=", "properties": {"ref": "498467", "@spider": "afcurgentcare", "addr:full": "5546 Broadway", "addr:city": "Bronx", "addr:state": "NY", "addr:postcode": "10463", "name": "Bronx Kingsbridge", "phone": "+19176884590", "website": "https://www.afcurgentcare.com/bronx-kingsbridge/", "opening_hours": "Mo-Sa 08:00-20:00; Su 08:00-17:00", "brand": "AFC Urgent Care"}, "geometry": {"type": "Point", "coordinates": [-73.9051644, 40.8778922]}},
{"type": "Feature", "id": "hiW_oBts5zCpG-pnA5ayhbHTn0I=", "properties": {"ref": "498634", "@spider": "afcurgentcare", "addr:full": "3379 Crompond Road (in the BJs Plaza)", "addr:city": "Yorktown Heights", "addr:state": "NY", "addr:postcode": "10598", "name": "Yorktown Heights", "phone": "+19149305550", "website": "https://www.afcurgentcare.com/yorktown-heights/", "opening_hours": "Mo-Fr 08:00-20:00; Sa-Su 08:00-17:00", "brand": "AFC Urgent Care"}, "geometry": {"type": "Point", "coordinates": [-73.8317888, 41.2902283]}},
{"type": "Feature", "id": "iRLEpq2sOohQ-EiYgeEvkUObYKI=", "properties": {"ref": "498537", "@spider": "afcurgentcare", "addr:full": "135-25 79th Street", "addr:city": "Howard Beach", "addr:state": "NY", "addr:postcode": "11414", "name": "Howard Beach", "phone": "+17189253475", "website": "https://www.afcurgentcare.com/howard-beach/", "opening_hours": "Mo-Fr 07:00-21:00; Sa-Su 08:00-19:00", "brand": "AFC Urgent Care"}, "geometry": {"type": "Point", "coordinates": [-73.8559655, 40.6712718]}},
{"type": "Feature", "id": "NWJ_7ToWsGZTFqcf12e9t3RLtqU=", "properties": {"ref": "498565", "@spider": "afcurgentcare", "addr:full": "203 Gramatan Avenue Suite A", "addr:city": "Mt. Vernon", "addr:state": "NY", "addr:postcode": "10550", "name": "Mt. Vernon", "phone": "+19142024830", "website": "https://www.afcurgentcare.com/mtvernon/", "opening_hours": "Mo-Fr 08:00-20:00; Sa-Su 08:00-17:00", "brand": "AFC Urgent Care"}, "geometry": {"type": "Point", "coordinates": [-73.8372997, 40.9158105]}},
{"type": "Feature", "id": "ZA1a8wnOlnACUjik7JoUgUMgEkM=", "properties": {"ref": "498468", "@spider": "afcurgentcare", "addr:full": "843 Hutchinson River Pkwy", "addr:city": "Bronx", "addr:state": "NY", "addr:postcode": "10465", "name": "Bronx - Throgs Neck", "phone": "+17189254400", "website": "https://www.afcurgentcare.com/bronx-throgs-neck/", "opening_hours": "Mo-Su 08:00-20:00", "brand": "AFC Urgent Care"}, "geometry": {"type": "Point", "coordinates": [-73.8366684, 40.823606]}},
{"type": "Feature", "id": "tH2fTHFyC7mhSBnFxe5WttALO9E=", "properties": {"ref": "515987", "@spider": "afcurgentcare", "addr:full": "133-37 41st Avenue", "addr:city": "Flushing", "addr:state": "NY", "addr:postcode": "11355", "name": "Flushing", "phone": "+13477836008", "website": "https://www.afcurgentcare.com/flushing/", "opening_hours": "Mo-Fr 08:00-20:00; Sa-Su 08:00-17:00", "brand": "AFC Urgent Care"}, "geometry": {"type": "Point", "coordinates": [-73.8302341, 40.7579481]}},
{"type": "Feature", "id": "9srSyXI9a35dxNhk6K8pi9_mU6c=", "properties": {"ref": "498530", "@spider": "afcurgentcare", "addr:full": "359 N. Central Avenue", "addr:city": "Hartsdale", "addr:state": "NY", "addr:postcode": "10530", "name": "Hartsdale", "phone": "+19144482273", "website": "https://www.afcurgentcare.com/hartsdale/", "opening_hours": "Mo-Fr 08:00-20:00; Sa-Su 08:00-17:00", "brand": "AFC Urgent Care"}, "geometry": {"type": "Point", "coordinates": [-73.7907205, 41.0292481]}},
{"type": "Feature", "id": "nlPg_QSA7jhX-EIXvcBM47046bA=", "properties": {"ref": "498797", "@spider": "afcurgentcare", "addr:full": "3000 Summer Street", "addr:city": "Stamford", "addr:state": "CT", "addr:postcode": "06905", "name": "Stamford", "phone": "+12039692000", "website": "https://www.afcurgentcare.com/stamford/", "opening_hours": "Mo-Fr 08:00-20:00; Sa-Su 08:00-17:00", "brand": "AFC Urgent Care"}, "geometry": {"type": "Point", "coordinates": [-73.5496161, 41.0712342]}},
{"type": "Feature", "id": "1hpj0hvGIzh2RSNIhLwR6670TUk=", "properties": {"ref": "498500", "@spider": "afcurgentcare", "addr:full": "2310 Hempstead Turnpike", "addr:city": "East Meadow", "addr:state": "NY", "addr:postcode": "11554", "name": "East Meadow", "phone": "+15163465090", "website": "https://www.afcurgentcare.com/eastmeadow/", "opening_hours": "Mo-Fr 08:00-20:00; Sa-Su 08:00-17:00", "brand": "AFC Urgent Care"}, "geometry": {"type": "Point", "coordinates": [-73.5508087, 40.7245457]}},
{"type": "Feature", "id": "X7x45xJiMy0xc2v4lbak0p620Uo=", "properties": {"ref": "498775", "@spider": "afcurgentcare", "addr:full": "100 Mill Plain Road", "addr:city": "Danbury", "addr:state": "CT", "addr:postcode": "06811", "name": "West Danbury", "phone": "+12038262600", "website": "https://www.afcurgentcare.com/west-danbury/", "opening_hours": "Mo-Fr 08:00-20:00; Sa-Su 08:00-17:00", "brand": "AFC Urgent Care"}, "geometry": {"type": "Point", "coordinates": [-73.5140876, 41.3940667]}},
{"type": "Feature", "id": "e1yRZJsJoOLEPP86SQh2ZVG5Fm8=", "properties": {"ref": "498570", "@spider": "afcurgentcare", "addr:full": "5763 Stevenson Blvd.", "addr:city": "Newark", "addr:state": "CA", "addr:postcode": "94560", "name": "Newark", "phone": "+15106565700", "website": "https://www.afcurgentcare.com/newark/", "opening_hours": "Mo-Fr 08:00-20:00; Sa-Su 08:00-17:00", "brand": "AFC Urgent Care"}, "geometry": {"type": "Point", "coordinates": [-121.990829, 37.5198374]}},
{"type": "Feature", "id": "ZqF550228OiJYxF57BohFpXSksc=", "properties": {"ref": "498773", "@spider": "afcurgentcare", "addr:full": "2 Main St.", "addr:city": "Danbury", "addr:state": "CT", "addr:postcode": "06810", "name": "Danbury", "phone": "+12038262140", "website": "https://www.afcurgentcare.com/danbury/", "opening_hours": "Mo-Fr 08:00-20:00; Sa-Su 08:00-17:00", "brand": "AFC Urgent Care"}, "geometry": {"type": "Point", "coordinates": [-73.4445696, 41.3863531]}},
{"type": "Feature", "id": "GZSBPk8m-PxIsVCdW7cuLUun4RE=", "properties": {"ref": "498774", "@spider": "afcurgentcare", "addr:full": "76c Newton Road", "addr:city": "Danbury", "addr:state": "CT", "addr:postcode": "06810", "name": "East Danbury", "phone": "+12038268434", "website": "https://www.afcurgentcare.com/east-danbury/", "opening_hours": "Mo-Fr 08:00-20:00; Sa-Su 08:00-17:00", "brand": "AFC Urgent Care"}, "geometry": {"type": "Point", "coordinates": [-73.416377, 41.4082124]}},
{"type": "Feature", "id": "lfpoGXuHXROs4NJBZBlgzXkgzDA=", "properties": {"ref": "498789", "@spider": "afcurgentcare", "addr:full": "607 Main Ave", "addr:city": "Norwalk", "addr:state": "CT", "addr:postcode": "06851", "name": "Norwalk", "phone": "+12038459100", "website": "https://www.afcurgentcare.com/norwalk/", "opening_hours": "Mo-Fr 08:00-20:00; Sa-Su 08:00-17:00", "brand": "AFC Urgent Care"}, "geometry": {"type": "Point", "coordinates": [-73.4226252, 41.1570619]}},
{"type": "Feature", "id": "zCl3CdHb4EFw1EwwgugMzqdzz5o=", "properties": {"ref": "498506", "@spider": "afcurgentcare", "addr:full": "1037 Fulton St", "addr:city": "Farmingdale", "addr:state": "NY", "addr:postcode": "11735", "name": "Farmingdale", "phone": "+16315764190", "website": "https://www.afcurgentcare.com/farmingdale/", "opening_hours": "Mo-Fr 08:00-20:00; Sa-Su 08:00-17:00", "brand": "AFC Urgent Care"}, "geometry": {"type": "Point", "coordinates": [-73.4303137, 40.7247755]}},
{"type": "Feature", "id": "mb3jp3slopvo1HIAUML6y_RBFGE=", "properties": {"ref": "498625", "@spider": "afcurgentcare", "addr:full": "125 Sunrise Highway", "addr:city": "West Islip", "addr:state": "NY", "addr:postcode": "11795", "name": "West Islip", "phone": "+16319834084", "website": "https://www.afcurgentcare.com/westislip/", "opening_hours": "Mo-Fr 08:00-20:00; Sa-Su 08:00-17:00", "brand": "AFC Urgent Care"}, "geometry": {"type": "Point", "coordinates": [-73.3089448, 40.7193571]}},
{"type": "Feature", "id": "8Bs9S44CpbHGXv9FSPfGds0fyLo=", "properties": {"ref": "498777", "@spider": "afcurgentcare", "addr:full": "1918 Blackrock Turnpike", "addr:city": "Fairfield", "addr:state": "CT", "addr:postcode": "06825", "name": "Fairfield", "phone": "+12035838400", "website": "https://www.afcurgentcare.com/fairfield/", "opening_hours": "Mo-Su 08:00-20:00", "brand": "AFC Urgent Care"}, "geometry": {"type": "Point", "coordinates": [-73.2480392, 41.1809283]}},
{"type": "Feature", "id": "Tmdo2lJHP3P83UeIlFBbg9a1E0U=", "properties": {"ref": "499382", "@spider": "afcurgentcare", "addr:full": "57 Monroe Turnpike", "addr:city": "Trumbull", "addr:state": "CT", "addr:postcode": "06611", "name": "Trumbull", "phone": "+12035906330", "website": "https://www.afcurgentcare.com/trumbull/", "opening_hours": "Mo-Su 08:00-20:00", "brand": "AFC Urgent Care"}, "geometry": {"type": "Point", "coordinates": [-73.2348674, 41.2912208]}},
{"type": "Feature", "id": "zPLBBscANo07-8Eod4B4U8FQT_M=", "properties": {"ref": "498764", "@spider": "afcurgentcare", "addr:full": "4200 Main St.", "addr:city": "Bridgeport", "addr:state": "CT", "addr:postcode": "06606", "name": "Bridgeport Main", "phone": "+12039165151", "website": "https://www.afcurgentcare.com/bridgeport-main/", "opening_hours": "Mo-Su 08:00-20:00", "brand": "AFC Urgent Care"}, "geometry": {"type": "Point", "coordinates": [-73.2140541, 41.2183015]}},
{"type": "Feature", "id": "kEHq5HSyziJ3aI3BIbYhtkpRglM=", "properties": {"ref": "498765", "@spider": "afcurgentcare", "addr:full": "161 Boston Avenue", "addr:city": "Bridgeport", "addr:state": "CT", "addr:postcode": "06610", "name": "Bridgeport", "phone": "+12033334400", "website": "https://www.afcurgentcare.com/bridgeport/", "opening_hours": "Mo-Su 08:00-20:00", "brand": "AFC Urgent Care"}, "geometry": {"type": "Point", "coordinates": [-73.1861261, 41.2025634]}},
{"type": "Feature", "id": "Wzp_UiNuVqLW2wmsYSJ_vF-F460=", "properties": {"ref": "498793", "@spider": "afcurgentcare", "addr:full": "389 Bridgeport Avenue", "addr:city": "Shelton", "addr:state": "CT", "addr:postcode": "06484", "name": "Shelton", "phone": "+12035674171", "website": "https://www.afcurgentcare.com/shelton/", "opening_hours": "Mo-Su 08:00-20:00", "brand": "AFC Urgent Care"}, "geometry": {"type": "Point", "coordinates": [-73.1108572, 41.2951281]}},
{"type": "Feature", "id": "qwEyQC6qYjcnwK9YDdX1geURY64=", "properties": {"ref": "498800", "@spider": "afcurgentcare", "addr:full": "1171 East Main Street", "addr:city": "Torrington", "addr:state": "CT", "addr:postcode": "06790", "name": "Torrington", "phone": "+18608664321", "website": "https://www.afcurgentcare.com/torrington/", "opening_hours": "Mo-Fr 08:00-20:00; Sa-Su 08:00-17:00", "brand": "AFC Urgent Care"}, "geometry": {"type": "Point", "coordinates": [-73.0952041, 41.8155429]}},
{"type": "Feature", "id": "1txT_FCMQBjiG0LBlE4JovHLd7c=", "properties": {"ref": "498574", "@spider": "afcurgentcare", "addr:full": "397 Warner Milne Rd", "addr:city": "Oregon City", "addr:state": "OR", "addr:postcode": "97045", "name": "Oregon City", "phone": "+15033056262", "website": "https://www.afcurgentcare.com/oregon-city/", "opening_hours": "Mo-Fr 08:00-20:00; Sa-Su 09:00-18:00", "brand": "AFC Urgent Care"}, "geometry": {"type": "Point", "coordinates": [-122.5913259, 45.3369392]}},
{"type": "Feature", "id": "3k-g19eG_quIuMfHYTpTBNXZdTc=", "properties": {"ref": "498569", "@spider": "afcurgentcare", "addr:full": "7033 NE Sandy Blvd", "addr:city": "Portland", "addr:state": "OR", "addr:postcode": "97213", "name": "NE Portland", "phone": "+15033056262", "website": "https://www.afcurgentcare.com/ne-portland/", "opening_hours": "Mo-Fr 08:00-20:00; Sa-Su 09:00-18:00", "brand": "AFC Urgent Care"}, "geometry": {"type": "Point", "coordinates": [-122.5904724, 45.5479284]}},
{"type": "Feature", "id": "U_DqMOmr1s5dfNJ99r1eM52r6s0=", "properties": {"ref": "498553", "@spider": "afcurgentcare", "addr:full": "15689 Southern Blvd Ste. 101", "addr:city": "Loxahatchee", "addr:state": "FL", "addr:postcode": "33470", "name": "Loxahatchee Groves", "phone": "+15616141116", "website": "https://www.afcurgentcare.com/loxahatchee-groves/", "opening_hours": "Mo-Fr 08:00-20:00; Sa-Su 08:00-17:00", "brand": "AFC Urgent Care"}, "geometry": {"type": "Point", "coordinates": [-80.2932345, 26.6837244]}},
{"type": "Feature", "id": "zNsZIxKs5qPGbbIZaYpi8bTcKvk=", "properties": {"ref": "498571", "@spider": "afcurgentcare", "addr:full": "25 NW 23rd Place", "addr:city": "Portland", "addr:state": "OR", "addr:postcode": "97210", "name": "NW Portland", "phone": "+15033056262", "website": "https://www.afcurgentcare.com/nw-portland/", "opening_hours": "Mo-Fr 08:00-20:00; Sa-Su 08:00-18:00", "brand": "AFC Urgent Care"}, "geometry": {"type": "Point", "coordinates": [-122.700221, 45.524351]}},
{"type": "Feature", "id": "xEar9GxY-oRMnCeGxI45w2oVomk=", "properties": {"ref": "498544", "@spider": "afcurgentcare", "addr:full": "17437 SW Boones Ferry Rd.", "addr:city": "Lake Oswego", "addr:state": "OR", "addr:postcode": "97035", "name": "Lake Oswego", "phone": "+15033056262", "website": "https://www.afcurgentcare.com/lake-oswego/", "opening_hours": "Mo-Fr 08:00-20:00; Sa-Su 09:00-18:00", "brand": "AFC Urgent Care"}, "geometry": {"type": "Point", "coordinates": [-122.7374524, 45.4003486]}},
{"type": "Feature", "id": "8MnpxTCyJTHSqmd9AKIg4J6P5pY=", "properties": {"ref": "498786", "@spider": "afcurgentcare", "addr:full": "135 East Main Street", "addr:city": "New Britain", "addr:state": "CT", "addr:postcode": "06051", "name": "New Britain", "phone": "+18603576899", "website": "https://www.afcurgentcare.com/new-britain/", "opening_hours": "Mo-Fr 08:00-20:00; Sa-Su 08:00-17:00", "brand": "AFC Urgent Care"}, "geometry": {"type": "Point", "coordinates": [-72.7788416, 41.6702965]}},
{"type": "Feature", "id": "mOdlBau2lM-5RV1yIjh9HGOwYKE=", "properties": {"ref": "498806", "@spider": "afcurgentcare", "addr:full": "1030 Boulevard", "addr:city": "West Hartford", "addr:state": "CT", "addr:postcode": "06119", "name": "West Hartford", "phone": "+18609866440", "website": "https://www.afcurgentcare.com/west-hartford/", "opening_hours": "Mo-Fr 08:00-20:00; Sa-Su 08:00-17:00", "brand": "AFC Urgent Care"}, "geometry": {"type": "Point", "coordinates": [-72.7158293, 41.7606185]}},
{"type": "Feature", "id": "0z6hha1bmPZf-C_zxRWsDqFWx0U=", "properties": {"ref": "498462", "@spider": "afcurgentcare", "addr:full": "14278 SW Allen Blvd.", "addr:city": "Beaverton", "addr:state": "OR", "addr:postcode": "97005", "name": "Beaverton", "phone": "+15033056262", "website": "https://www.afcurgentcare.com/beaverton/", "opening_hours": "Mo-Fr 08:00-20:00; Sa-Su 09:00-18:00", "brand": "AFC Urgent Care"}, "geometry": {"type": "Point", "coordinates": [-122.8238393, 45.4762801]}},
{"type": "Feature", "id": "IEX8V3AG_wC5MaQVtk8PIBNNvo0=", "properties": {"ref": "498809", "@spider": "afcurgentcare", "addr:full": "18 Union Street", "addr:city": "West Springfield", "addr:state": "MA", "addr:postcode": "01089", "name": "West Springfield", "phone": "+14137810100", "website": "https://www.afcurgentcare.com/west-springfield/", "opening_hours": "Mo-Fr 08:00-20:00; Sa-Su 08:00-17:00", "brand": "AFC Urgent Care"}, "geometry": {"type": "Point", "coordinates": [-72.6202219, 42.1045754]}},
{"type": "Feature", "id": "aPbPZv3Q6I6pGkdIKn9Y47AA5EY=", "properties": {"ref": "498606", "@spider": "afcurgentcare", "addr:full": "18012 68th Avenue South Suite 101", "addr:city": "Kent", "addr:state": "WA", "addr:postcode": "98032", "name": "Southcenter", "phone": "+14252913300", "website": "https://www.afcurgentcare.com/southcenter/", "opening_hours": "Mo-Fr 08:00-18:00; Sa 08:00-16:00", "brand": "AFC Urgent Care"}, "geometry": {"type": "Point", "coordinates": [-122.2478778, 47.4356512]}},
{"type": "Feature", "id": "YugbOWYgBX0ClOmy_etv_nhybFQ=", "properties": {"ref": "498796", "@spider": "afcurgentcare", "addr:full": "415 Cooley St #3", "addr:city": "Springfield", "addr:state": "MA", "addr:postcode": "01128", "name": "Springfield", "phone": "+14137824878", "website": "https://www.afcurgentcare.com/springfield/", "opening_hours": "Mo-Fr 08:00-20:00; Sa-Su 08:00-17:00", "brand": "AFC Urgent Care"}, "geometry": {"type": "Point", "coordinates": [-72.4986663, 42.0912369]}},
{"type": "Feature", "id": "Y60oWF5aDYtC_cjWotWSYNbJplQ=", "properties": {"ref": "498801", "@spider": "afcurgentcare", "addr:full": "179 Talcottville Rd", "addr:city": "Vernon", "addr:state": "CT", "addr:postcode": "06066", "name": "Vernon", "phone": "+18609867600", "website": "https://www.afcurgentcare.com/vernon/", "opening_hours": "Mo-Fr 08:00-20:00; Sa-Su 08:00-17:00", "brand": "AFC Urgent Care"}, "geometry": {"type": "Point", "coordinates": [-72.493541, 41.8331557]}},
{"type": "Feature", "id": "byFEakw9ogLgjCp702QkbBiGUu0=", "properties": {"ref": "498535", "@spider": "afcurgentcare", "addr:full": "5812 Hollywood Blvd", "addr:city": "Hollywood", "addr:state": "FL", "addr:postcode": "33021", "name": "Hollywood", "phone": "+19549819111", "website": "https://www.afcurgentcare.com/hollywood/", "opening_hours": "Mo-Fr 08:00-20:00; Sa-Su 08:00-17:00", "brand": "AFC Urgent Care"}, "geometry": {"type": "Point", "coordinates": [-80.2038731, 26.0089697]}},
{"type": "Feature", "id": "SMbrJmlLCbUDkpwlGlc_Q6kQVXI=", "properties": {"ref": "498528", "@spider": "afcurgentcare", "addr:full": "2501 E. Hallandale Beach Blvd", "addr:city": "Hallandale Beach", "addr:state": "FL", "addr:postcode": "33009", "name": "Hallandale Beach", "phone": "+19549320120", "website": "https://www.afcurgentcare.com/hallandale-beach/", "opening_hours": "Mo-Su 08:00-20:00", "brand": "AFC Urgent Care"}, "geometry": {"type": "Point", "coordinates": [-80.12492, 25.9874705]}},
{"type": "Feature", "id": "FuJ8-eoQ9Miys-Bqgebkhubgw_g=", "properties": {"ref": "498811", "@spider": "afcurgentcare", "addr:full": "115 Stafford St", "addr:city": "Worcester", "addr:state": "MA", "addr:postcode": "01603", "name": "Worcester", "phone": "+15087554010", "website": "https://www.afcurgentcare.com/worcester/", "opening_hours": "Mo-Fr 08:00-20:00; Sa-Su 08:00-17:00", "brand": "AFC Urgent Care"}, "geometry": {"type": "Point", "coordinates": [-71.8443918, 42.2385342]}},
{"type": "Feature", "id": "sZ-zWglth2Wda_qJEiMVup4CzDw=", "properties": {"ref": "498782", "@spider": "afcurgentcare", "addr:full": "38 Boston Post Road West", "addr:city": "Marlborough", "addr:state": "MA", "addr:postcode": "01752", "name": "Marlborough", "phone": "+15086580764", "website": "https://www.afcurgentcare.com/marlborough/", "opening_hours": "Mo-Fr 08:00-20:00; Sa-Su 08:00-17:00", "brand": "AFC Urgent Care"}, "geometry": {"type": "Point", "coordinates": [-71.5822939, 42.3400669]}},
{"type": "Feature", "id": "6ANQFqyVBvxxCA1goQFHXsfhdhk=", "properties": {"ref": "498784", "@spider": "afcurgentcare", "addr:full": "945 Worcester Street", "addr:city": "Natick", "addr:state": "MA", "addr:postcode": "01760", "name": "Natick", "phone": "+15086506208", "website": "https://www.afcurgentcare.com/natick/", "opening_hours": "Mo-Fr 08:00-20:00; Sa-Su 08:00-17:00", "brand": "AFC Urgent Care"}, "geometry": {"type": "Point", "coordinates": [-71.3628144, 42.2999726]}},
{"type": "Feature", "id": "nNi9JhHosOOrE3cgAtYdlc9KUa0=", "properties": {"ref": "498772", "@spider": "afcurgentcare", "addr:full": "45 Drum Hill Road", "addr:city": "Chelmsford", "addr:state": "MA", "addr:postcode": "01824", "name": "Chelmsford", "phone": "+19784467515", "website": "https://www.afcurgentcare.com/chelmsford/", "opening_hours": "Mo-Fr 08:00-20:00; Sa-Su 08:00-17:00", "brand": "AFC Urgent Care"}, "geometry": {"type": "Point", "coordinates": [-71.3617706, 42.6255333]}},
{"type": "Feature", "id": "UmiG7KWWhqMP8k0CkVdBJjiKTOI=", "properties": {"ref": "498767", "@spider": "afcurgentcare", "addr:full": "154 Great Road", "addr:city": "Bedford", "addr:state": "MA", "addr:postcode": "01730", "name": "Bedford", "phone": "+17814308161", "website": "https://www.afcurgentcare.com/bedford/", "opening_hours": "Mo-Su 08:00-20:00", "brand": "AFC Urgent Care"}, "geometry": {"type": "Point", "coordinates": [-71.2744053, 42.4914904]}},
{"type": "Feature", "id": "57hoIPJv4PcRMUqelxExYBA91kM=", "properties": {"ref": "498803", "@spider": "afcurgentcare", "addr:full": "1030 Main St.", "addr:city": "Waltham", "addr:state": "MA", "addr:postcode": "02451", "name": "Waltham", "phone": "+17818946900", "website": "https://www.afcurgentcare.com/waltham/", "opening_hours": "Mo-Su 08:00-20:00", "brand": "AFC Urgent Care"}, "geometry": {"type": "Point", "coordinates": [-71.2528935, 42.3757607]}},
{"type": "Feature", "id": "i8YNPmczx3vR-YC-67ppI3O4cFA=", "properties": {"ref": "498766", "@spider": "afcurgentcare", "addr:full": "90 Middlesex Turnpike", "addr:city": "Burlington", "addr:state": "MA", "addr:postcode": "01803", "name": "Burlington", "phone": "+17812704700", "website": "https://www.afcurgentcare.com/burlington/", "opening_hours": "Mo-Su 08:00-20:00", "brand": "AFC Urgent Care"}, "geometry": {"type": "Point", "coordinates": [-71.2162821, 42.4781962]}},
{"type": "Feature", "id": "Jg8V6mayyEtUQG42_BazRMUzml4=", "properties": {"ref": "498763", "@spider": "afcurgentcare", "addr:full": "1398 Massachusetts Ave., Unit #31", "addr:city": "Arlington", "addr:state": "MA", "addr:postcode": "02474", "name": "Arlington", "phone": "+17816484572", "website": "https://www.afcurgentcare.com/arlington/", "opening_hours": "Mo-Fr 08:00-20:00; Sa-Su 08:00-17:00", "brand": "AFC Urgent Care"}, "geometry": {"type": "Point", "coordinates": [-71.185233, 42.4243322]}},
{"type": "Feature", "id": "vKf3gEkJ_ZUDzWKFwSPG8hRkCfI=", "properties": {"ref": "498776", "@spider": "afcurgentcare", "addr:full": "370 Boston Providence Hwy", "addr:city": "Dedham", "addr:state": "MA", "addr:postcode": "02026", "name": "Dedham", "phone": "+17814610200", "website": "https://www.afcurgentcare.com/dedham/", "opening_hours": "Mo-Fr 08:00-20:00; Sa-Su 08:00-17:00", "brand": "AFC Urgent Care"}, "geometry": {"type": "Point", "coordinates": [-71.1714882, 42.2507724]}},
{"type": "Feature", "id": "aFFaoxXss-LiH7hHuuMqwHdoSK4=", "properties": {"ref": "498805", "@spider": "afcurgentcare", "addr:full": "376 Arsenal St.", "addr:city": "Watertown", "addr:state": "MA", "addr:postcode": "02472", "name": "Watertown", "phone": "+16179232273", "website": "https://www.afcurgentcare.com/watertown/", "opening_hours": "Mo-Fr 08:00-20:00; Sa-Su 08:00-17:00", "brand": "AFC Urgent Care"}, "geometry": {"type": "Point", "coordinates": [-71.1653213, 42.363918]}},
{"type": "Feature", "id": "kj1UfKAfBEj6xc6RWLTQTDJvnvw=", "properties": {"ref": "498787", "@spider": "afcurgentcare", "addr:full": "129 Turnpike St.", "addr:city": "North Andover", "addr:state": "MA", "addr:postcode": "01845", "name": "North Andover", "phone": "+19784700800", "website": "https://www.afcurgentcare.com/north-andover/", "opening_hours": "Mo-Su 08:00-18:00", "brand": "AFC Urgent Care"}, "geometry": {"type": "Point", "coordinates": [-71.1306747, 42.6755095]}},
{"type": "Feature", "id": "NmdEhz0ksDkEQ_HgCZWZq1cH6Kc=", "properties": {"ref": "498783", "@spider": "afcurgentcare", "addr:full": "380R Merrimack St.", "addr:city": "Methuen", "addr:state": "MA", "addr:postcode": "01844", "name": "Methuen", "phone": "+19789750700", "website": "https://www.afcurgentcare.com/methuen/", "opening_hours": "Mo-Su 08:00-18:00", "brand": "AFC Urgent Care"}, "geometry": {"type": "Point", "coordinates": [-71.1295799, 42.7478596]}},
{"type": "Feature", "id": "L5M36aKIBAxUx57i5uGm-LHBboM=", "properties": {"ref": "498798", "@spider": "afcurgentcare", "addr:full": "16 Main Street", "addr:city": "Stoneham", "addr:state": "MA", "addr:postcode": "02180", "name": "Stoneham", "phone": "+17812794000", "website": "https://www.afcurgentcare.com/stoneham/", "opening_hours": "Mo-Su 08:00-20:00", "brand": "AFC Urgent Care"}, "geometry": {"type": "Point", "coordinates": [-71.1005202, 42.5004483]}},
{"type": "Feature", "id": "WwymMh_-igDBdy3HxgHwidxpXi8=", "properties": {"ref": "498781", "@spider": "afcurgentcare", "addr:full": "219 Centre St.", "addr:city": "Malden", "addr:state": "MA", "addr:postcode": "02148", "name": "Malden", "phone": "+17813227300", "website": "https://www.afcurgentcare.com/malden/", "opening_hours": "Mo-Fr 08:00-20:00; Sa-Su 08:00-17:00", "brand": "AFC Urgent Care"}, "geometry": {"type": "Point", "coordinates": [-71.0662907, 42.4247537]}},
{"type": "Feature", "id": "N5Yw92b2ufOJvqIIyYdZZTapQ4Q=", "properties": {"ref": "498770", "@spider": "afcurgentcare", "addr:full": "485 Granite St.", "addr:city": "Braintree", "addr:state": "MA", "addr:postcode": "02184", "name": "Braintree", "phone": "+17818482273", "website": "https://www.afcurgentcare.com/braintree/", "opening_hours": "Mo-Fr 08:00-20:00; Sa-Su 08:00-17:00", "brand": "AFC Urgent Care"}, "geometry": {"type": "Point", "coordinates": [-71.0218258, 42.2137097]}},
{"type": "Feature", "id": "5vIMazj-J-qRrWyRYDDoMtwT3TE=", "properties": {"ref": "498792", "@spider": "afcurgentcare", "addr:full": "371 Broadway", "addr:city": "Saugus", "addr:state": "MA", "addr:postcode": "01906", "name": "Saugus", "phone": "+17812331000", "website": "https://www.afcurgentcare.com/saugus/", "opening_hours": "Mo-Fr 08:00-20:00; Sa-Su 08:00-17:00", "brand": "AFC Urgent Care"}, "geometry": {"type": "Point", "coordinates": [-71.0187148, 42.4873542]}},
{"type": "Feature", "id": "n9pfdqHj9DTEUC3qToF4Nlmlk4k=", "properties": {"ref": "498785", "@spider": "afcurgentcare", "addr:full": "119 Coggeshall St", "addr:city": "New Bedford", "addr:state": "MA", "addr:postcode": "02745", "name": "New Bedford", "phone": "+15089901900", "website": "https://www.afcurgentcare.com/new-bedford/", "opening_hours": "Mo-Fr 08:00-20:00; Sa-Su 08:00-17:00", "brand": "AFC Urgent Care"}, "geometry": {"type": "Point", "coordinates": [-70.9212889, 41.6565816]}},
{"type": "Feature", "id": "brolMpAxnHcNFW0zjx6ACFdY-RE=", "properties": {"ref": "498799", "@spider": "afcurgentcare", "addr:full": "450 Paradise Road", "addr:city": "Swampscott", "addr:state": "MA", "addr:postcode": "01907", "name": "Swampscott", "phone": "+17816919366", "website": "https://www.afcurgentcare.com/swampscott/", "opening_hours": "Mo-Su 08:00-18:00", "brand": "AFC Urgent Care"}, "geometry": {"type": "Point", "coordinates": [-70.9045227, 42.4827922]}},
{"type": "Feature", "id": "47O7Kypcg5dvFQATBwDxwxz_HUk=", "properties": {"ref": "498768", "@spider": "afcurgentcare", "addr:full": "50 Dodge St", "addr:city": "Beverly", "addr:state": "MA", "addr:postcode": "01915", "name": "Beverly", "phone": "+19789222171", "website": "https://www.afcurgentcare.com/beverly/", "opening_hours": "Mo-Su 08:00-18:00", "brand": "AFC Urgent Care"}, "geometry": {"type": "Point", "coordinates": [-70.8921218, 42.5763784]}},
{"type": "Feature", "id": "ri7prmLQqnxgv499GBryYrtRFNA=", "properties": {"ref": "498795", "@spider": "afcurgentcare", "addr:full": "230 Waterman Drive", "addr:city": "South Portland", "addr:state": "ME", "addr:postcode": "04106", "name": "South Portland", "phone": "+12073583188", "website": "https://www.afcurgentcare.com/south-portland/", "opening_hours": "Mo-Fr 08:00-20:00; Sa-Su 08:00-17:00", "brand": "AFC Urgent Care"}, "geometry": {"type": "Point", "coordinates": [-70.2555404, 43.6351995]}}]}