{"type":"FeatureCollection","features":[{"type": "Feature", "id": "MnodPbhd5ZkskBp_dwwSMJvqmGk=", "properties": {"ref": "1", "@spider": "ahern", "addr:full": "2490 S College St", "addr:city": "Auburn", "addr:state": "AL", "addr:postcode": "36832", "addr:country": "US", "name": "Alabama - Auburn", "phone": "334-591-6700", "brand": "Ahern Rentals"}, "geometry": {"type": "Point", "coordinates": [-85.5091136, 32.5563971]}},
{"type": "Feature", "id": "cdiBbkKaS9R5ZO4rC2ZSdTMYCII=", "properties": {"ref": "2", "@spider": "ahern", "addr:full": "601 Galloway Circle", "addr:city": "Alabaster", "addr:state": "AL", "addr:postcode": "35007", "addr:country": "US", "name": "Alabama - Birmingham", "phone": "205-216-6100", "brand": "Ahern Rentals"}, "geometry": {"type": "Point", "coordinates": [-86.7590936412551, 33.1847474899924]}},
{"type": "Feature", "id": "agpNG2-fso6_eCtsLJ7UrVYhnB8=", "properties": {"ref": "3", "@spider": "ahern", "addr:full": "213 Dan Tibbs RD NW", "addr:city": "Huntsville", "addr:state": "AL", "addr:postcode": "35806", "addr:country": "US", "name": "Alabama - Huntsville", "phone": "256-692-5400", "brand": "Ahern Rentals"}, "geometry": {"type": "Point", "coordinates": [-86.662165, 34.780047]}},
{"type": "Feature", "id": "Hp3k_4X6if-dsQvrOQDw4FfxKgg=", "properties": {"ref": "4", "@spider": "ahern", "addr:full": "3465 Hurricane Bay Dr", "addr:city": "Theodore", "addr:state": "AL", "addr:postcode": "36582", "addr:country": "US", "name": "Alabama - Mobile", "phone": "Phone: 251-283-7100", "brand": "Ahern Rentals"}, "geometry": {"type": "Point", "coordinates": [-88.1770978, 30.5712508]}},
{"type": "Feature", "id": "gS8B1wD459ML1BnCB-M58VJLdtc=", "properties": {"ref": "5", "@spider": "ahern", "addr:full": "1403 S Black Canyon Hwy", "addr:city": "Phoenix", "addr:state": "AZ", "addr:postcode": "85009", "addr:country": "US", "name": "Arizona - Phoenix", "phone": "602-253-5438", "brand": "Ahern Rentals"}, "geometry": {"type": "Point", "coordinates": [-112.107189, 33.434881]}},
{"type": "Feature", "id": "D309o5Q2Jyj_esZhf6oC65c-NkI=", "properties": {"ref": "6", "@spider": "ahern", "addr:full": "4995 N Casa Grande Hwy", "addr:city": "Tucson", "addr:state": "AZ", "addr:postcode": "85743", "addr:country": "US", "name": "Arizona - Tucson", "phone": "520-408-0999", "brand": "Ahern Rentals"}, "geometry": {"type": "Point", "coordinates": [-111.033925, 32.297182]}},
{"type": "Feature", "id": "OnZyWO1HuGF2RAPsPR4CaG3-udo=", "properties": {"ref": "7", "@spider": "ahern", "addr:full": "3320 E Gila Ridge Rd", "addr:city": "Yuma", "addr:state": "AZ", "addr:postcode": "85365", "addr:country": "US", "name": "Arizona - Yuma", "phone": "928-271-5800", "brand": "Ahern Rentals"}, "geometry": {"type": "Point", "coordinates": [-114.576698, 32.686315]}},
{"type": "Feature", "id": "g-nlTSKNMITJhPz11Nqh9gIsUb0=", "properties": {"ref": "8", "@spider": "ahern", "addr:full": "9110 Interstate 30", "addr:city": "Little Rock", "addr:state": "AR", "addr:postcode": "72209", "addr:country": "US", "name": "Arkansas - Little Rock", "phone": "501-246-8820", "brand": "Ahern Rentals"}, "geometry": {"type": "Point", "coordinates": [-92.311874, 34.6871955]}},
{"type": "Feature", "id": "cxp9YHYJJZ1d_4QFHLHbUHmB920=", "properties": {"ref": "9", "@spider": "ahern", "addr:full": "2113 Taft Hwy", "addr:city": "Bakersfield", "addr:state": "CA", "addr:postcode": "93313", "addr:country": "US", "name": "California - Bakersfield", "phone": "661-833-2006", "brand": "Ahern Rentals"}, "geometry": {"type": "Point", "coordinates": [-119.025894, 35.266046]}},
{"type": "Feature", "id": "f57nrZXpMFsYXNVk1XS9R9lOI6s=", "properties": {"ref": "10", "@spider": "ahern", "addr:full": "3673 Mallard Dr", "addr:city": "Benicia", "addr:state": "CA", "addr:postcode": "94510", "addr:country": "US", "name": "California - Benicia", "phone": "707-748-1990", "brand": "Ahern Rentals"}, "geometry": {"type": "Point", "coordinates": [-122.126426, 38.068091]}},
{"type": "Feature", "id": "90l5udle1WEdMGWwSx63Iftgteo=", "properties": {"ref": "11", "@spider": "ahern", "addr:full": "3591 E Date Ave", "addr:city": "Fresno", "addr:state": "CA", "addr:postcode": "93725", "addr:country": "US", "name": "California - Fresno", "phone": "559-495-4000", "brand": "Ahern Rentals"}, "geometry": {"type": "Point", "coordinates": [-119.764735, 36.701645]}},
{"type": "Feature", "id": "zYosKBqNXbXpM84HT3YYisveOng=", "properties": {"ref": "12", "@spider": "ahern", "addr:full": "7100 Monache Mountain Ave", "addr:city": "Inyokern", "addr:state": "CA", "addr:postcode": "93527", "addr:country": "US", "name": "California - Inyokern", "phone": "661-833-2000", "brand": "Ahern Rentals"}, "geometry": {"type": "Point", "coordinates": [-117.824565, 35.652869]}},
{"type": "Feature", "id": "FGbPEh_INbwrYeVP-i7LB3whyyA=", "properties": {"ref": "13", "@spider": "ahern", "addr:full": "16930 Valley View Ave", "addr:city": "La Mirada", "addr:state": "CA", "addr:postcode": "90638", "addr:country": "US", "name": "California - La Mirada", "phone": "562-697-3700", "brand": "Ahern Rentals"}, "geometry": {"type": "Point", "coordinates": [-118.027927, 33.87791]}},
{"type": "Feature", "id": "MYsnm-D7Y2nsBYS4KdzfCBx4IIQ=", "properties": {"ref": "14", "@spider": "ahern", "addr:full": "1419 S 7Th St", "addr:city": "Modesto", "addr:state": "CA", "addr:postcode": "95351", "addr:country": "US", "name": "California - Modesto", "phone": "209-571-5000", "brand": "Ahern Rentals"}, "geometry": {"type": "Point", "coordinates": [-120.980317, 37.610211]}},
{"type": "Feature", "id": "N1GaEHgGoiQAVEY8yCuuc1LTsAA=", "properties": {"ref": "15", "@spider": "ahern", "addr:full": "1020 Airport Rd", "addr:city": "Oceanside", "addr:state": "CA", "addr:postcode": "92058", "addr:country": "US", "name": "California - Oceanside", "phone": "760-297-2240", "brand": "Ahern Rentals"}, "geometry": {"type": "Point", "coordinates": [-117.362024, 33.216905]}},
{"type": "Feature", "id": "SB-rH29UtO9jBfbrnaGceIY4K0s=", "properties": {"ref": "17", "@spider": "ahern", "addr:full": "10232 Glenoaks Blvd", "addr:city": "Pacoima", "addr:state": "CA", "addr:postcode": "91331", "addr:country": "US", "name": "California - Pacoima", "phone": "818-834-7669", "brand": "Ahern Rentals"}, "geometry": {"type": "Point", "coordinates": [-118.393803, 34.256847]}},
{"type": "Feature", "id": "7m_LNDhRbMfiHO9N3RSzw7uue0k=", "properties": {"ref": "18", "@spider": "ahern", "addr:full": "28261 Hwy 74", "addr:city": "Romoland", "addr:state": "CA", "addr:postcode": "92585", "addr:country": "US", "name": "California - Romoland", "phone": "951-928-9200", "brand": "Ahern Rentals"}, "geometry": {"type": "Point", "coordinates": [-117.166814, 33.742192]}},
{"type": "Feature", "id": "JG3DtuOHP8OdbqQN8fbnOmbDY6Y=", "properties": {"ref": "19", "@spider": "ahern", "addr:full": "1655 El Camino Ave", "addr:city": "Sacramento", "addr:state": "CA", "addr:postcode": "95815", "addr:country": "US", "name": "California - Sacramento", "phone": "916-388-2390", "brand": "Ahern Rentals"}, "geometry": {"type": "Point", "coordinates": [-121.428778, 38.611597]}},
{"type": "Feature", "id": "Pgc-0rWJ7y3CK5iHe6cU_QaFS8k=", "properties": {"ref": "20", "@spider": "ahern", "addr:full": "5725 Eastgate Dr", "addr:city": "San Diego", "addr:state": "CA", "addr:postcode": "92121", "addr:country": "US", "name": "California - San Diego/Miramar", "phone": "619-938-8242", "brand": "Ahern Rentals"}, "geometry": {"type": "Point", "coordinates": [-117.195849, 32.884541]}},
{"type": "Feature", "id": "y0LN3GWh1QP12Y5xJq0yU9h4U-Y=", "properties": {"ref": "21", "@spider": "ahern", "addr:full": "218 Shaw Road #9", "addr:city": "South San Francisco", "addr:state": "CA", "addr:postcode": "94080", "addr:country": "US", "name": "California - South San Francisco", "phone": "650-453-6620", "brand": "Ahern Rentals"}, "geometry": {"type": "Point", "coordinates": [-122.406992, 37.64123]}},
{"type": "Feature", "id": "JDGvf4J9jsoRBtotj6jJnWNkEwc=", "properties": {"ref": "22", "@spider": "ahern", "addr:full": "111 Pullman Way", "addr:city": "San Jose", "addr:state": "CA", "addr:postcode": "95111", "addr:country": "US", "name": "California - San Jose", "phone": "669-333-0600", "brand": "Ahern Rentals"}, "geometry": {"type": "Point", "coordinates": [-121.850974, 37.29031]}},
{"type": "Feature", "id": "HM5dqzElYVeo7hY-miC7apfCalo=", "properties": {"ref": "23", "@spider": "ahern", "addr:full": "2091 W Ave 140th", "addr:city": "San Leandro", "addr:state": "CA", "addr:postcode": "94577", "addr:country": "US", "name": "California - San Leandro", "phone": "510-924-9000", "brand": "Ahern Rentals"}, "geometry": {"type": "Point", "coordinates": [-122.171555, 37.698861]}},
{"type": "Feature", "id": "AAUj0n7UGyI72Ej2C8dpyYHFCzk=", "properties": {"ref": "24", "@spider": "ahern", "addr:full": "1105 S Blosser Rd", "addr:city": "Santa Maria", "addr:state": "CA", "addr:postcode": "93458", "addr:country": "US", "name": "California - Santa Maria", "phone": "805-925-1869", "brand": "Ahern Rentals"}, "geometry": {"type": "Point", "coordinates": [-120.454472, 34.941032]}},
{"type": "Feature", "id": "DKQ1ROhZH5RdT-Y9cozV1Wub33c=", "properties": {"ref": "25", "@spider": "ahern", "addr:full": "11351 County DrSte A", "addr:city": "Ventura", "addr:state": "CA", "addr:postcode": "93004", "addr:country": "US", "name": "California - Ventura", "phone": "805-988-9840", "brand": "Ahern Rentals"}, "geometry": {"type": "Point", "coordinates": [-119.142509, 34.283585]}},
{"type": "Feature", "id": "MG43gff0EbcWLg7Q6NuaKpiZoQ4=", "properties": {"ref": "26", "@spider": "ahern", "addr:full": "955 Valley St", "addr:city": "Colorado Springs", "addr:state": "CO", "addr:postcode": "80915", "addr:country": "US", "name": "Colorado - Colorado Springs", "phone": "719-235-5670", "brand": "Ahern Rentals"}, "geometry": {"type": "Point", "coordinates": [-104.713334, 38.845775]}},
{"type": "Feature", "id": "rND9SN2f5MTbQMdT2GWi1O1B2P0=", "properties": {"ref": "27", "@spider": "ahern", "addr:full": "5478 Washington St", "addr:city": "Denver", "addr:state": "CO", "addr:postcode": "80216", "addr:country": "US", "name": "Colorado - Denver", "phone": "303-297-1580", "brand": "Ahern Rentals"}, "geometry": {"type": "Point", "coordinates": [-104.977151, 39.797012]}},
{"type": "Feature", "id": "Cuav6jm_TjvNm4FCgRWevwR5nes=", "properties": {"ref": "28", "@spider": "ahern", "addr:full": "9 Belden Road", "addr:city": "Bloomfield", "addr:state": "CT", "addr:postcode": "06002", "addr:country": "US", "name": "Connecticut - Hartford", "phone": "860 481 8500", "brand": "Ahern Rentals"}, "geometry": {"type": "Point", "coordinates": [-72.6949617, 41.8593167]}},
{"type": "Feature", "id": "aoxj_papj2D9tJbkQIPOMzw67KY=", "properties": {"ref": "29", "@spider": "ahern", "addr:full": "4174 Jiles Rd. NW", "addr:city": "Kennesaw", "addr:state": "GA", "addr:postcode": "30144", "addr:country": "US", "name": "Georgia - Atlanta", "phone": "404-968-8340", "brand": "Ahern Rentals"}, "geometry": {"type": "Point", "coordinates": [-84.606343, 34.04659]}},
{"type": "Feature", "id": "tPXxt6vnm_tHtBAp4Ws2pXwQCyQ=", "properties": {"ref": "30", "@spider": "ahern", "addr:full": "1363 Dean Forest Rd", "addr:city": "Savannah", "addr:state": "GA", "addr:postcode": "31405", "addr:country": "US", "name": "Georgia - Savannah", "phone": "912-666-2280", "brand": "Ahern Rentals"}, "geometry": {"type": "Point", "coordinates": [-81.192782, 32.075147]}},
{"type": "Feature", "id": "GyN92wWcGZ8YPHOIf7znS0YkglE=", "properties": {"ref": "31", "@spider": "ahern", "addr:full": "6931 Business Park Blvd N", "addr:city": "Jacksonville", "addr:state": "FL", "addr:postcode": "32256", "addr:country": "US", "name": "Florida - Jacksonville", "phone": "904-914-5400", "brand": "Ahern Rentals"}, "geometry": {"type": "Point", "coordinates": [-81.52977, 30.167341]}},
{"type": "Feature", "id": "pbus_rZgkwkahVYEwkitR0pm-TY=", "properties": {"ref": "32", "@spider": "ahern", "addr:full": "11403 Rocket Blvd", "addr:city": "Orlando", "addr:state": "FL", "addr:postcode": "32824", "addr:country": "US", "name": "Florida - Orlando", "phone": "407-459-7000", "brand": "Ahern Rentals"}, "geometry": {"type": "Point", "coordinates": [-81.390275, 28.403024]}},
{"type": "Feature", "id": "BwXWlXmp7tL1d8OTgfXogIaw6QM=", "properties": {"ref": "33", "@spider": "ahern", "addr:full": "205 NW 12th Ave", "addr:city": "Pompano Beach", "addr:state": "FL", "addr:postcode": "33069", "addr:country": "US", "name": "Florida - Pompano Beach", "phone": "239-920-4570", "brand": "Ahern Rentals"}, "geometry": {"type": "Point", "coordinates": [-80.138153, 26.232738]}},
{"type": "Feature", "id": "rGEA3Zfj85ponrFhH8H-av38Kj0=", "properties": {"ref": "34", "@spider": "ahern", "addr:full": "4310 E. Columbus Dr", "addr:city": "Tampa", "addr:state": "FL", "addr:postcode": "33605", "addr:country": "US", "name": "Florida - Tampa", "phone": "813-327-4230", "brand": "Ahern Rentals"}, "geometry": {"type": "Point", "coordinates": [-82.4098457, 27.9672738]}},
{"type": "Feature", "id": "15qUSkAPrzs0yqORB-RQYvLEj5U=", "properties": {"ref": "35", "@spider": "ahern", "addr:full": "6080 Frontage Rd", "addr:city": "Forest Park", "addr:state": "GA", "addr:postcode": "30297", "addr:country": "US", "name": "Georgia - South Atlanta", "phone": "404-968-8370", "brand": "Ahern Rentals"}, "geometry": {"type": "Point", "coordinates": [-84.381552, 33.589246]}},
{"type": "Feature", "id": "HSydM2tXM8AFyitHJ3R8kchyLfs=", "properties": {"ref": "36", "@spider": "ahern", "addr:full": "7126 W Victory Rd", "addr:city": "Boise", "addr:state": "ID", "addr:postcode": "83709", "addr:country": "US", "name": "Idaho - Boise", "phone": "208-350-6300", "brand": "Ahern Rentals"}, "geometry": {"type": "Point", "coordinates": [-116.270335, 43.576154]}},
{"type": "Feature", "id": "9QoI4MmC3VyZLtrUBuwZP4iKVkI=", "properties": {"ref": "37", "@spider": "ahern", "addr:full": "5162 S Yellowstone Hwy", "addr:city": "Idaho Falls", "addr:state": "ID", "addr:postcode": "83402", "addr:country": "US", "name": "Idaho - Idaho Falls", "phone": "208-757-5200", "brand": "Ahern Rentals"}, "geometry": {"type": "Point", "coordinates": [-112.07034, 43.45146]}},
{"type": "Feature", "id": "etuGJ2CPw6Fen0wRFWninIO04Dc=", "properties": {"ref": "38", "@spider": "ahern", "addr:full": "13275 Main St", "addr:city": "Lemont", "addr:state": "IL", "addr:postcode": "60439", "addr:country": "US", "name": "Illinois - Chicago", "phone": "630-243-9200", "brand": "Ahern Rentals"}, "geometry": {"type": "Point", "coordinates": [-87.943708, 41.691975]}},
{"type": "Feature", "id": "W40FacQup9uGGvcPpIkpQCn7Q2c=", "properties": {"ref": "39", "@spider": "ahern", "addr:full": "4027 S Wells St", "addr:city": "Chicago", "addr:state": "IL", "addr:postcode": "60609", "addr:country": "US", "name": "Illinois - Mccormick Place Convention", "phone": "702-362-6023", "brand": "Ahern Rentals"}, "geometry": {"type": "Point", "coordinates": [-87.632144, 41.8210473]}},
{"type": "Feature", "id": "kCHaqr1fXygT5e1EnMbhFXrGIDA=", "properties": {"ref": "40", "@spider": "ahern", "addr:full": "350 N James St", "addr:city": "Kansas City", "addr:state": "KS", "addr:postcode": "66118", "addr:country": "US", "name": "Kansas - Kansas City", "phone": "913-281-7555", "brand": "Ahern Rentals"}, "geometry": {"type": "Point", "coordinates": [-94.615294, 39.109622]}},
{"type": "Feature", "id": "eekg5nY7L003YDchSZ_ZSVJJI0k=", "properties": {"ref": "41", "@spider": "ahern", "addr:full": "431 Manhattan Blvd", "addr:city": "New Orleans", "addr:state": "LA", "addr:postcode": "70058", "addr:country": "US", "name": "Louisiana - New Orleans", "phone": "504-576-0500", "brand": "Ahern Rentals"}, "geometry": {"type": "Point", "coordinates": [-90.71444, 29.6072]}},
{"type": "Feature", "id": "PcwNUqeWT4VbvVtwTSdx3MO98Fo=", "properties": {"ref": "42", "@spider": "ahern", "addr:full": "3460 Industrial Drive", "addr:city": "Bossier City", "addr:state": "LA", "addr:postcode": "71112", "addr:country": "US", "name": "Louisiana - Shreveport", "phone": "318-666-4500", "brand": "Ahern Rentals"}, "geometry": {"type": "Point", "coordinates": [-93.684669, 32.5228227]}},
{"type": "Feature", "id": "cYVIAapGgZcuYpjseL5GyEJMuUo=", "properties": {"ref": "43", "@spider": "ahern", "addr:full": "3898 Highway 90", "addr:city": "Westlake", "addr:state": "LA", "addr:postcode": "70669", "addr:country": "US", "name": "Louisiana - Lake Charles", "phone": "337-476-2800", "brand": "Ahern Rentals"}, "geometry": {"type": "Point", "coordinates": [-93.307647, 30.236459]}},
{"type": "Feature", "id": "A2P3q6Ju_hCPdWs2lvqb82AgWLk=", "properties": {"ref": "44", "@spider": "ahern", "addr:full": "35190 Mark McCowan Drive", "addr:city": "Geismar", "addr:state": "LA", "addr:postcode": "70734", "addr:country": "US", "name": "Louisiana - Baton Rouge", "phone": "225-484-1200", "brand": "Ahern Rentals"}, "geometry": {"type": "Point", "coordinates": [-91.01448, 30.23135]}},
{"type": "Feature", "id": "pgDcKBS1f7M8rSP5DWZ6IanANMk=", "properties": {"ref": "45", "@spider": "ahern", "addr:full": "2031 Inverness Ave", "addr:city": "Baltimore", "addr:state": "MD", "addr:postcode": "21230", "addr:country": "US", "name": "Maryland - Baltimore", "phone": "443-320-0830", "brand": "Ahern Rentals"}, "geometry": {"type": "Point", "coordinates": [-76.656583, 39.259823]}},
{"type": "Feature", "id": "k7IjGFQDjw6iF01RMV2lK94FVi0=", "properties": {"ref": "46", "@spider": "ahern", "addr:full": "7910 Penn Randall Pl", "addr:city": "Upper Marlboro", "addr:state": "MD", "addr:postcode": "20772", "addr:country": "US", "name": "Maryland - Washington DC", "phone": "240-691-0200", "brand": "Ahern Rentals"}, "geometry": {"type": "Point", "coordinates": [-76.867908, 38.832667]}},
{"type": "Feature", "id": "jmhSmd2V5mrEAIYVGbxBMCx-Xkw=", "properties": {"ref": "47", "@spider": "ahern", "addr:full": "155 Maple St", "addr:city": "Stoughton", "addr:state": "MA", "addr:postcode": "02072", "addr:country": "US", "name": "Massachusetts - Boston", "phone": "781-318-3780", "brand": "Ahern Rentals"}, "geometry": {"type": "Point", "coordinates": [-71.0718515, 42.1443793]}},
{"type": "Feature", "id": "-zmh3lz5dy7_FeJ7RkWgOdiWSto=", "properties": {"ref": "48", "@spider": "ahern", "addr:full": "305 Walker Circle", "addr:city": "Richland", "addr:state": "MS", "addr:postcode": "39218", "addr:country": "US", "name": "Mississippi - Jackson", "phone": "601-767-1200", "brand": "Ahern Rentals"}, "geometry": {"type": "Point", "coordinates": [-90.17175, 32.24437]}},
{"type": "Feature", "id": "4aPL1mHvICY4C3l_JDeViQ6YLM8=", "properties": {"ref": "49", "@spider": "ahern", "addr:full": "15225 Industrial Rd", "addr:city": "Omaha", "addr:state": "NE", "addr:postcode": "68144", "addr:country": "US", "name": "Nebraska - Omaha", "phone": "402-571-8000", "brand": "Ahern Rentals"}, "geometry": {"type": "Point", "coordinates": [-96.152194, 41.231242]}},
{"type": "Feature", "id": "LXwtp5lNacNDc_8146zZnwI3BbM=", "properties": {"ref": "50", "@spider": "ahern", "addr:full": "1785 W Bonanza Rd", "addr:city": "Las Vegas", "addr:state": "NV", "addr:postcode": "89106", "addr:country": "US", "name": "Nevada - Bonanza General Rental", "phone": "702-648-6212", "brand": "Ahern Rentals"}, "geometry": {"type": "Point", "coordinates": [-115.163393, 36.176644]}},
{"type": "Feature", "id": "pGI_pl8O_yoAdeBDD99VVNxsdm8=", "properties": {"ref": "51", "@spider": "ahern", "addr:full": "1885 W Bonanza Rd", "addr:city": "Las Vegas", "addr:state": "NV", "addr:postcode": "89106", "addr:country": "US", "name": "Nevada - Bonanza High Reach", "phone": "702-362-1800", "brand": "Ahern Rentals"}, "geometry": {"type": "Point", "coordinates": [-115.166244, 36.176808]}},
{"type": "Feature", "id": "KFuVhqXQCNvsNxNb8ZPzUrx3Vz4=", "properties": {"ref": "52", "@spider": "ahern", "addr:full": "1611 W Bonanza Rd", "addr:city": "Las Vegas", "addr:state": "NV", "addr:postcode": "89106", "addr:country": "US", "name": "Nevada - Ahern Heavy Equipment", "phone": "702-631-8400", "brand": "Ahern Rentals"}, "geometry": {"type": "Point", "coordinates": [-115.16289, 36.176847]}},
{"type": "Feature", "id": "fzzKiBA9Iyla70lxwjhOLljkbcY=", "properties": {"ref": "53", "@spider": "ahern", "addr:full": "5915 Dean Martin Dr", "addr:city": "Las Vegas", "addr:state": "NV", "addr:postcode": "89118", "addr:country": "US", "name": "Nevada - Oquendo", "phone": "702-736-4922", "brand": "Ahern Rentals"}, "geometry": {"type": "Point", "coordinates": [-115.1820138, 36.0819847]}},
{"type": "Feature", "id": "_NDnN9DDj7I5NXTQP95vbogpugw=", "properties": {"ref": "54", "@spider": "ahern", "addr:full": "8725 S Eastern Ave", "addr:city": "Las Vegas", "addr:state": "NV", "addr:postcode": "89123", "addr:country": "US", "name": "Nevada - Eastern Star Nursery", "phone": "702-386-2100", "brand": "Ahern Rentals"}, "geometry": {"type": "Point", "coordinates": [-115.119433, 36.030764]}},
{"type": "Feature", "id": "fVkVR2o41CntxqoeLTlmv41GeCM=", "properties": {"ref": "55", "@spider": "ahern", "addr:full": "2100 W Bonanza Rd", "addr:city": "Las Vegas", "addr:state": "NV", "addr:postcode": "89106", "addr:country": "US", "name": "Nevada - Ahern Specialties", "phone": "702-866-9293", "brand": "Ahern Rentals"}, "geometry": {"type": "Point", "coordinates": [-115.17029, 36.17795]}},
{"type": "Feature", "id": "WfvRmwsHjnOz91mwZWz_fdTWbIc=", "properties": {"ref": "56", "@spider": "ahern", "addr:full": "2902 E Alexander Rd", "addr:city": "North Las Vegas", "addr:state": "NV", "addr:postcode": "89030", "addr:country": "US", "name": "Nevada - Alexander", "phone": "702-651-0055", "brand": "Ahern Rentals"}, "geometry": {"type": "Point", "coordinates": [-115.10972388020382, 36.233012978560126]}},
{"type": "Feature", "id": "iMZkAYJZeJdZecnVu9cL62xEkTU=", "properties": {"ref": "57", "@spider": "ahern", "addr:full": "777 W Sunset Rd", "addr:city": "Henderson", "addr:state": "NV", "addr:postcode": "89011", "addr:country": "US", "name": "Nevada - Sunset", "phone": "702-454-7368", "brand": "Ahern Rentals"}, "geometry": {"type": "Point", "coordinates": [-115.026322, 36.063272]}},
{"type": "Feature", "id": "pWP9XAIaxYIeybXpXqSckDbE35A=", "properties": {"ref": "58", "@spider": "ahern", "addr:full": "2075 Griffen St", "addr:city": "Carlin", "addr:state": "NV", "addr:postcode": "89822", "addr:country": "US", "name": "Nevada - Carlin", "phone": "775-754-6000", "brand": "Ahern Rentals"}, "geometry": {"type": "Point", "coordinates": [-116.1187497, 40.7296475]}},
{"type": "Feature", "id": "eE-d39ZA1DjAV819am5BCRPFUKY=", "properties": {"ref": "59", "@spider": "ahern", "addr:full": "1247 US Hwy 395 N", "addr:city": "Gardnerville", "addr:state": "NV", "addr:postcode": "89410", "addr:country": "US", "name": "Nevada - Gardnerville", "phone": "775-265-0680", "brand": "Ahern Rentals"}, "geometry": {"type": "Point", "coordinates": [-119.726486, 38.924747]}},
{"type": "Feature", "id": "6k4SwFloCiPfOv_gDTA3KNQ2hLQ=", "properties": {"ref": "60", "@spider": "ahern", "addr:full": "1777 Peru Dr", "addr:city": "McCarran", "addr:state": "NV", "addr:postcode": "89434", "addr:country": "US", "name": "Nevada - McCarran", "phone": "775-473-1850", "brand": "Ahern Rentals"}, "geometry": {"type": "Point", "coordinates": [-119.490908460735, 39.537193487432]}},
{"type": "Feature", "id": "HAjiDKl7_L7B5Znl9gJrWBqFmVI=", "properties": {"ref": "61", "@spider": "ahern", "addr:full": "4377 E Dandelion St", "addr:city": "Pahrump", "addr:state": "NV", "addr:postcode": "89048", "addr:country": "US", "name": "Nevada - Pahrump", "phone": "775-990-4260", "brand": "Ahern Rentals"}, "geometry": {"type": "Point", "coordinates": [-115.935062, 36.174582]}},
{"type": "Feature", "id": "XIR68qeqDS97mOmPHWUGczcbydI=", "properties": {"ref": "62", "@spider": "ahern", "addr:full": "3750 N Virginia St", "addr:city": "Reno", "addr:state": "NV", "addr:postcode": "89506", "addr:country": "US", "name": "Nevada - Reno", "phone": "775-322-8228", "brand": "Ahern Rentals"}, "geometry": {"type": "Point", "coordinates": [-119.823807, 39.565417]}},
{"type": "Feature", "id": "CAbBWmTBLSSTHKwMauNmIkTyQ90=", "properties": {"ref": "63", "@spider": "ahern", "addr:full": "2015 US Highway 206", "addr:city": "Bordentown", "addr:state": "NJ", "addr:postcode": "08505", "addr:country": "US", "name": "New Jersey - Bordentown", "phone": "609-456-4020", "brand": "Ahern Rentals"}, "geometry": {"type": "Point", "coordinates": [-74.705646, 40.118615]}},
{"type": "Feature", "id": "rmcJNM75yLff2XNwcDvWRLS5cnY=", "properties": {"ref": "64", "@spider": "ahern", "addr:full": "3120 Pan American Fwy NE", "addr:city": "Albuquerque", "addr:state": "NM", "addr:postcode": "87107", "addr:country": "US", "name": "New Mexico - Albuquerque", "phone": "505-247-4300", "brand": "Ahern Rentals"}, "geometry": {"type": "Point", "coordinates": [-106.622938, 35.116192]}},
{"type": "Feature", "id": "pN1lQCwZcxybN5QXFP1OkyDUeTY=", "properties": {"ref": "65", "@spider": "ahern", "addr:full": "5022 National Parks Hwy", "addr:city": "Carlsbad", "addr:state": "NM", "addr:postcode": "88220", "addr:country": "US", "name": "New Mexico - Carlsbad", "phone": "575-885-0077", "brand": "Ahern Rentals"}, "geometry": {"type": "Point", "coordinates": [-104.2427, 32.353676]}},
{"type": "Feature", "id": "DLcfnfQfjjWfSa4T2hw_4QsgJg4=", "properties": {"ref": "66", "@spider": "ahern", "addr:full": "1333 Randall Ave", "addr:city": "Bronx", "addr:state": "NY", "addr:postcode": "10474", "addr:country": "US", "name": "New York - Bronx", "phone": "718-378-9800", "brand": "Ahern Rentals"}, "geometry": {"type": "Point", "coordinates": [-73.88467, 40.812914]}},
{"type": "Feature", "id": "HvAxE5k57ZoSAw-f3h5DIK2vzH8=", "properties": {"ref": "67", "@spider": "ahern", "addr:full": "45 Brook Ave", "addr:city": "Deer Park", "addr:state": "NY", "addr:postcode": "11729", "addr:country": "US", "name": "New York - Long Island", "phone": "631-306-1100", "brand": "Ahern Rentals"}, "geometry": {"type": "Point", "coordinates": [-73.307855, 40.743772]}},
{"type": "Feature", "id": "DhNXC-M_ofS-Rzv3fTblo5LJnBM=", "properties": {"ref": "68", "@spider": "ahern", "addr:full": "2501 Westinghouse Blvd", "addr:city": "Charlotte", "addr:state": "NC", "addr:postcode": "28273", "addr:country": "US", "name": "North Carolina - Charlotte", "phone": "704-625-2180", "brand": "Ahern Rentals"}, "geometry": {"type": "Point", "coordinates": [-80.946707, 35.129992]}},
{"type": "Feature", "id": "y6QyZawkiY2DtpU2pOulzPhA5Kg=", "properties": {"ref": "69", "@spider": "ahern", "addr:full": "2506 Yonkers Rd", "addr:city": "Raleigh", "addr:state": "NC", "addr:postcode": "27604", "addr:country": "US", "name": "North Carolina - Raleigh", "phone": "919-809-6350", "brand": "Ahern Rentals"}, "geometry": {"type": "Point", "coordinates": [-78.602078, 35.808869]}},
{"type": "Feature", "id": "hEBEAmUTy6t-XX541jpiWQokt8M=", "properties": {"ref": "70", "@spider": "ahern", "addr:full": "3800 N Patterson Ave", "addr:city": "Winston Salem", "addr:state": "NC", "addr:postcode": "27105", "addr:country": "US", "name": "North Carolina - Winston Salem", "phone": "336-661-7770", "brand": "Ahern Rentals"}, "geometry": {"type": "Point", "coordinates": [-80.244789, 36.149732]}},
{"type": "Feature", "id": "6UNewPRGHvrJNPixn9aI7HjZ4C4=", "properties": {"ref": "71", "@spider": "ahern", "addr:full": "3015 Memorial Highway", "addr:city": "Mandan", "addr:state": "ND", "addr:postcode": "58554", "addr:country": "US", "name": "North Dakota - Bismarck", "phone": "701-663-2662", "brand": "Ahern Rentals"}, "geometry": {"type": "Point", "coordinates": [-100.852744, 46.818635]}},
{"type": "Feature", "id": "H5pBBOwrPi_-fIC4gCG3fBMrlzM=", "properties": {"ref": "72", "@spider": "ahern", "addr:full": "14063 Country Lane", "addr:city": "Williston", "addr:state": "ND", "addr:postcode": "58801", "addr:country": "US", "name": "North Dakota - Williston", "phone": "701-572-8270", "brand": "Ahern Rentals"}, "geometry": {"type": "Point", "coordinates": [-103.7226263, 48.1373077]}},
{"type": "Feature", "id": "R-D5S7LqqIu10LCfIHG2GAjE984=", "properties": {"ref": "73", "@spider": "ahern", "addr:full": "4701 S Rockwell Ave", "addr:city": "Oklahoma City", "addr:state": "OK", "addr:postcode": "73179", "addr:country": "US", "name": "Oklahoma - Oklahoma City", "phone": "405-745-6999", "brand": "Ahern Rentals"}, "geometry": {"type": "Point", "coordinates": [-97.637127, 35.416661]}},
{"type": "Feature", "id": "-X_01wUo_T_Tpjn3tvfvlIHZ318=", "properties": {"ref": "74", "@spider": "ahern", "addr:full": "7215 E 46th St", "addr:city": "Tulsa", "addr:state": "OK", "addr:postcode": "74145", "addr:country": "US", "name": "Oklahoma - Tulsa", "phone": "918-727-2300", "brand": "Ahern Rentals"}, "geometry": {"type": "Point", "coordinates": [-95.8713425, 36.0849105]}},
{"type": "Feature", "id": "ujWQuKEx1wDcVPpUY43_mfN6CuE=", "properties": {"ref": "75", "@spider": "ahern", "addr:full": "90053 Prairie Rd", "addr:city": "Eugene", "addr:state": "OR", "addr:postcode": "97402", "addr:country": "US", "name": "Oregon - Eugene", "phone": "541-689-2300", "brand": "Ahern Rentals"}, "geometry": {"type": "Point", "coordinates": [-123.163369, 44.106994]}},
{"type": "Feature", "id": "9MSz9WbGL0i61si3ChNuuah2cPU=", "properties": {"ref": "76", "@spider": "ahern", "addr:full": "3836 NE Columbia BlvdBuilding B", "addr:city": "Portland", "addr:state": "OR", "addr:postcode": "97211", "addr:country": "US", "name": "Oregon - Portland", "phone": "503-281-3456", "brand": "Ahern Rentals"}, "geometry": {"type": "Point", "coordinates": [-122.623853, 45.571916]}},
{"type": "Feature", "id": "zpZgY6LhyAqRHyQrt1VYPAcipBw=", "properties": {"ref": "77", "@spider": "ahern", "addr:full": "3000 Industrial Hwy", "addr:city": "Eddystone", "addr:state": "PA", "addr:postcode": "19022", "addr:country": "US", "name": "Pennsylvania - Philadelphia", "phone": "610-497-2290", "brand": "Ahern Rentals"}, "geometry": {"type": "Point", "coordinates": [-75.338279, 39.858472]}},
{"type": "Feature", "id": "luItG85_LDWePXGGi3Rf537LX5Y=", "properties": {"ref": "78", "@spider": "ahern", "addr:full": "8008 Dorchester Rd", "addr:city": "North Charleston", "addr:state": "SC", "addr:postcode": "29418", "addr:country": "US", "name": "South Carolina - Charleston", "phone": "843-647-7860", "brand": "Ahern Rentals"}, "geometry": {"type": "Point", "coordinates": [-80.09464, 32.908046]}},
{"type": "Feature", "id": "WTPbYGhPrDyc1SyjHB2SzB-Droc=", "properties": {"ref": "79", "@spider": "ahern", "addr:full": "631 Buckner Rd", "addr:city": "Columbia", "addr:state": "SC", "addr:postcode": "29203", "addr:country": "US", "name": "South Carolina - Columbia", "phone": "803-783-0170", "brand": "Ahern Rentals"}, "geometry": {"type": "Point", "coordinates": [-81.035328, 34.06572]}},
{"type": "Feature", "id": "zvvG1ucLf2YCWqbexq6MneOERYU=", "properties": {"ref": "80", "@spider": "ahern", "addr:full": "2420 S Highway 14", "addr:city": "Greer", "addr:state": "SC", "addr:postcode": "29650", "addr:country": "US", "name": "South Carolina - Greenville", "phone": "864-551-2800", "brand": "Ahern Rentals"}, "geometry": {"type": "Point", "coordinates": [-82.225816, 34.875294]}},
{"type": "Feature", "id": "UHRshfMRHgkhySR57iLcbP8OqXQ=", "properties": {"ref": "81", "@spider": "ahern", "addr:full": "1451 Corporate Ave", "addr:city": "Memphis", "addr:state": "TN", "addr:postcode": "38132", "addr:country": "US", "name": "Tennessee - Memphis", "phone": "901-666-5300", "brand": "Ahern Rentals"}, "geometry": {"type": "Point", "coordinates": [-90.01477, 35.0715128]}},
{"type": "Feature", "id": "Oaq4AtfhiU6luCDbmLFqMMfbLj0=", "properties": {"ref": "82", "@spider": "ahern", "addr:full": "181 Industrial Blvd", "addr:city": "La Vergne", "addr:state": "TN", "addr:postcode": "37086", "addr:country": "US", "name": "Tennessee - Nashville", "phone": "615-641-6440", "brand": "Ahern Rentals"}, "geometry": {"type": "Point", "coordinates": [-86.590773, 35.992691]}},
{"type": "Feature", "id": "BTNKZLalCgypaoip34XpPuy6kFs=", "properties": {"ref": "83", "@spider": "ahern", "addr:full": "3621 Silver Dollar Cir", "addr:city": "Austin", "addr:state": "TX", "addr:postcode": "78744", "addr:country": "US", "name": "Texas - Austin", "phone": "512-539-0710", "brand": "Ahern Rentals"}, "geometry": {"type": "Point", "coordinates": [-97.712272, 30.205001]}},
{"type": "Feature", "id": "R2mUJ3veBpN_zucvYStjR9QTIOs=", "properties": {"ref": "84", "@spider": "ahern", "addr:full": "4925 W Cardinal Dr", "addr:city": "Beaumont", "addr:state": "TX", "addr:postcode": "77705", "addr:country": "US", "name": "Texas - Beaumont", "phone": "409-248-1000", "brand": "Ahern Rentals"}, "geometry": {"type": "Point", "coordinates": [-94.135791, 30.042719]}},
{"type": "Feature", "id": "Bvcl8Ek4Mjy5npCIyaWDkhJcFkE=", "properties": {"ref": "85", "@spider": "ahern", "addr:full": "7925 Bearden Dr", "addr:city": "Corpus Christi", "addr:state": "TX", "addr:postcode": "78409", "addr:country": "US", "name": "Texas - Corpus Christi", "phone": "361-288-8190", "brand": "Ahern Rentals"}, "geometry": {"type": "Point", "coordinates": [-97.518385, 27.815113]}},
{"type": "Feature", "id": "Z8xhO7Wo3F6WskLkpqs1V7JMNiQ=", "properties": {"ref": "86", "@spider": "ahern", "addr:full": "1301 Gail Borden Pl", "addr:city": "El Paso", "addr:state": "TX", "addr:postcode": "79935", "addr:country": "US", "name": "Texas - El Paso", "phone": "915-875-1800", "brand": "Ahern Rentals"}, "geometry": {"type": "Point", "coordinates": [-106.325114, 31.746533]}},
{"type": "Feature", "id": "zBXfFDw4hWarunJbSe2lGDLe4EI=", "properties": {"ref": "87", "@spider": "ahern", "addr:full": "2301 SE Loop 820", "addr:city": "Fort Worth", "addr:state": "TX", "addr:postcode": "76119", "addr:country": "US", "name": "Texas - Fort Worth", "phone": "817-768-1900", "brand": "Ahern Rentals"}, "geometry": {"type": "Point", "coordinates": [-97.296887, 32.668297]}},
{"type": "Feature", "id": "FLG98Z8G4fM0EKgmmTNx1lpNAsw=", "properties": {"ref": "88", "@spider": "ahern", "addr:full": "2112 S Houston Ave", "addr:city": "Humble", "addr:state": "TX", "addr:postcode": "77396", "addr:country": "US", "name": "Texas - Houston North", "phone": "702-648-6212", "brand": "Ahern Rentals"}, "geometry": {"type": "Point", "coordinates": [-95.263321, 29.973176]}},
{"type": "Feature", "id": "z-P3rTOCRL3N_YuBhHJOUnxNceA=", "properties": {"ref": "89", "@spider": "ahern", "addr:full": "2550 S Sam Houston Pkwy W", "addr:city": "Houston", "addr:state": "TX", "addr:postcode": "77047", "addr:country": "US", "name": "Texas - Houston South", "phone": "702-362-0623", "brand": "Ahern Rentals"}, "geometry": {"type": "Point", "coordinates": [-95.42109, 29.59869]}},
{"type": "Feature", "id": "7RFwEgSgn-AQIH5HenhS5rHv7C0=", "properties": {"ref": "90", "@spider": "ahern", "addr:full": "1450 S Loop 12", "addr:city": "Irving", "addr:state": "TX", "addr:postcode": "75060", "addr:country": "US", "name": "Texas - Irving", "phone": "972-579-7700", "brand": "Ahern Rentals"}, "geometry": {"type": "Point", "coordinates": [-96.919995, 32.797405]}},
{"type": "Feature", "id": "sFG_sT9tOufUZVxhadlQupcQqWc=", "properties": {"ref": "91", "@spider": "ahern", "addr:full": "400 N Stemmons Fwy", "addr:city": "Lake Dallas", "addr:state": "TX", "addr:postcode": "75065", "addr:country": "US", "name": "Texas - Lake Dallas", "phone": "972-579-7700", "brand": "Ahern Rentals"}, "geometry": {"type": "Point", "coordinates": [-97.035758, 33.127439]}},
{"type": "Feature", "id": "dPFL3N1FHrzJz02r_YsX1kkTH1Q=", "properties": {"ref": "92", "@spider": "ahern", "addr:full": "3102 Avenue B", "addr:city": "Lubbock", "addr:state": "TX", "addr:postcode": "79404", "addr:country": "US", "name": "Texas - Lubbock", "phone": "806-589-1252", "brand": "Ahern Rentals"}, "geometry": {"type": "Point", "coordinates": [-101.83916, 33.565676]}},
{"type": "Feature", "id": "UosHuvqzluvISGFrogVVGVr0om8=", "properties": {"ref": "93", "@spider": "ahern", "addr:full": "6301 W University Dr", "addr:city": "McKinney", "addr:state": "TX", "addr:postcode": "75071", "addr:country": "US", "name": "Texas - McKinney", "phone": "214-504-1099", "brand": "Ahern Rentals"}, "geometry": {"type": "Point", "coordinates": [-96.699897, 33.217226]}},
{"type": "Feature", "id": "hNsa-EtEmasnL4_V-VF_YbN4XHM=", "properties": {"ref": "94", "@spider": "ahern", "addr:full": "3249 S County Rd W", "addr:city": "Odessa", "addr:state": "TX", "addr:postcode": "79766", "addr:country": "US", "name": "Texas - Odessa", "phone": "432-614-5810", "brand": "Ahern Rentals"}, "geometry": {"type": "Point", "coordinates": [-102.3771, 31.80486]}},
{"type": "Feature", "id": "ajy2APWv-JoH9QbRKmGV_eeFcFw=", "properties": {"ref": "95", "@spider": "ahern", "addr:full": "4100 Factory Hill St", "addr:city": "San Antonio", "addr:state": "TX", "addr:postcode": "78219", "addr:country": "US", "name": "Texas - San Antonio", "phone": "210-757-0320", "brand": "Ahern Rentals"}, "geometry": {"type": "Point", "coordinates": [-98.412876, 29.448927]}},
{"type": "Feature", "id": "fS5iGeRY_wr6rWnRteJkAGsuRzw=", "properties": {"ref": "96", "@spider": "ahern", "addr:full": "1507 Interstate 35 N", "addr:city": "Waco", "addr:state": "TX", "addr:postcode": "76705", "addr:country": "US", "name": "Texas - Waco", "phone": "254-230-9966", "brand": "Ahern Rentals"}, "geometry": {"type": "Point", "coordinates": [-97.107155, 31.598761]}},
{"type": "Feature", "id": "N9puvpQdYgU4C8LAKU5PZUJJ-JU=", "properties": {"ref": "97", "@spider": "ahern", "addr:full": "428 North 800 West", "addr:city": "Cedar City", "addr:state": "UT", "addr:postcode": "84721", "addr:country": "US", "name": "Utah - Cedar City", "phone": "435-586-4888", "brand": "Ahern Rentals"}, "geometry": {"type": "Point", "coordinates": [-113.07357, 37.684607]}},
{"type": "Feature", "id": "ulh3XGmS97b1LCvkpSgScCphM80=", "properties": {"ref": "98", "@spider": "ahern", "addr:full": "2151 W 500 N", "addr:city": "Springville", "addr:state": "UT", "addr:postcode": "84663", "addr:country": "US", "name": "Utah - Provo", "phone": "801-349-1133", "brand": "Ahern Rentals"}, "geometry": {"type": "Point", "coordinates": [-111.649273, 40.173822]}},
{"type": "Feature", "id": "HJ2OBNI43ewR-MIr5bCf_l5kVhc=", "properties": {"ref": "99", "@spider": "ahern", "addr:full": "25 East 900 North", "addr:city": "Richfield", "addr:state": "UT", "addr:postcode": "84701", "addr:country": "US", "name": "Utah - Richfield", "phone": "435-896-7368", "brand": "Ahern Rentals"}, "geometry": {"type": "Point", "coordinates": [-112.084139, 38.781167]}},
{"type": "Feature", "id": "HVHmsbAOrg5JCVrw0DeS05w_9fk=", "properties": {"ref": "100", "@spider": "ahern", "addr:full": "1890 South 500 West", "addr:city": "Salt Lake City", "addr:state": "UT", "addr:postcode": "84115", "addr:country": "US", "name": "Utah - Salt Lake City", "phone": "801-973-9969", "brand": "Ahern Rentals"}, "geometry": {"type": "Point", "coordinates": [-111.90712, 40.728969]}},
{"type": "Feature", "id": "Q7Eo3ckXhAVp1D48RluXieT0jKk=", "properties": {"ref": "101", "@spider": "ahern", "addr:full": "1280 Redledge Rd", "addr:city": "Washington", "addr:state": "UT", "addr:postcode": "84780", "addr:country": "US", "name": "Utah - St. George", "phone": "435-628-4100", "brand": "Ahern Rentals"}, "geometry": {"type": "Point", "coordinates": [-113.53015, 37.127578]}},
{"type": "Feature", "id": "AR7xCucNx3S0Vyu7meXscIE0xI0=", "properties": {"ref": "103", "@spider": "ahern", "addr:full": "7734 Richmond Rd", "addr:city": "Toano", "addr:state": "VA", "addr:postcode": "23168", "addr:country": "US", "name": "Virginia - Ashland", "phone": "757-566-4600", "brand": "Ahern Rentals"}, "geometry": {"type": "Point", "coordinates": [-76.78476, 37.378988]}},
{"type": "Feature", "id": "hijQqC1KO2zQP3R16Tt2EMA62Ys=", "properties": {"ref": "104", "@spider": "ahern", "addr:full": "1344 Taylor Farm Rd", "addr:city": "Virginia Beach", "addr:state": "VA", "addr:postcode": "23453", "addr:country": "US", "name": "Virginia - Virginia Beach", "phone": "757-974-0200", "brand": "Ahern Rentals"}, "geometry": {"type": "Point", "coordinates": [-76.06282, 36.79534]}},
{"type": "Feature", "id": "4lDo1TYCalJUy4DsMEUCy8OeN-w=", "properties": {"ref": "105", "@spider": "ahern", "addr:full": "16632 Smokey Point Blvd", "addr:city": "Arlington", "addr:state": "WA", "addr:postcode": "98223", "addr:country": "US", "name": "Washington - Arlington", "phone": "360-386-1640", "brand": "Ahern Rentals"}, "geometry": {"type": "Point", "coordinates": [-122.186487, 48.147626]}},
{"type": "Feature", "id": "80jRaGN8MtKneb97IV9dPlrGMUs=", "properties": {"ref": "106", "@spider": "ahern", "addr:full": "1108 54Th Ave E", "addr:city": "Fife", "addr:state": "WA", "addr:postcode": "98424", "addr:country": "US", "name": "Washington - Fife", "phone": "253-948-1120", "brand": "Ahern Rentals"}, "geometry": {"type": "Point", "coordinates": [-122.359019, 47.247589]}},
{"type": "Feature", "id": "Yx3hmfzF__xdok_x5dP8J1n3eg4=", "properties": {"ref": "107", "@spider": "ahern", "addr:full": "3516 Ten Point Ln", "addr:city": "Franksville", "addr:state": "WI", "addr:postcode": "53126", "addr:country": "US", "name": "Wisconsin - Racine", "phone": "262-456-3880", "brand": "Ahern Rentals"}, "geometry": {"type": "Point", "coordinates": [-87.956143, 42.782157]}},
{"type": "Feature", "id": "O4ovjxGXZLW8Oo4QsPFV48Gf1N8=", "properties": {"ref": "108", "@spider": "ahern", "addr:full": "109 Progress Cir", "addr:city": "Mills", "addr:state": "WY", "addr:postcode": "82644", "addr:country": "US", "name": "Wyoming - Casper", "phone": "307-462-0650", "brand": "Ahern Rentals"}, "geometry": {"type": "Point", "coordinates": [-106.362659, 42.849527]}},
{"type": "Feature", "id": "_E8K1-ET8gM1h3iV4dEHVnqLH2M=", "properties": {"ref": "109", "@spider": "ahern", "addr:full": "3535 N Rancho Dr", "addr:city": "Las Vegas", "addr:state": "NV", "addr:postcode": "89130", "addr:country": "US", "name": "Nevada - Ahern Hardware Las Vegas", "phone": "702-478-1390", "brand": "Ahern Rentals"}, "geometry": {"type": "Point", "coordinates": [-115.21909, 36.22383]}},
{"type": "Feature", "id": "UyhneuEuf4krC6_FxlXMhl2buBY=", "properties": {"ref": "110", "@spider": "ahern", "addr:full": "7820 Lincoln Ave", "addr:city": "Riverside", "addr:state": "CA", "addr:postcode": "92504", "addr:country": "US", "name": "California - Riverside", "phone": "909-877-0126", "brand": "Ahern Rentals"}, "geometry": {"type": "Point", "coordinates": [-117.40528, 33.92438]}},
{"type": "Feature", "id": "6dAH6MPwxQ2jT1wIvMgXVpWtzUU=", "properties": {"ref": "111", "@spider": "ahern", "addr:full": "1700 N Florida Magno Rd", "addr:city": "West Palm Beach", "addr:state": "FL", "addr:postcode": "33409", "addr:country": "US", "name": "Florida - West Palm Beach", "phone": "702-362-0623", "brand": "Ahern Rentals"}, "geometry": {"type": "Point", "coordinates": [-80.07758, 26.69901]}},
{"type": "Feature", "id": "XwjVLPNfuUx3SpY5yxpPVtFm0vs=", "properties": {"ref": "112", "@spider": "ahern", "addr:full": "6851 W Targee St", "addr:city": "Boise", "addr:state": "ID", "addr:postcode": "83709", "addr:country": "US", "name": "Idaho - Boise High Reach", "phone": "208-350-6300", "brand": "Ahern Rentals"}, "geometry": {"type": "Point", "coordinates": [-116.26721, 43.58195]}},
{"type": "Feature", "id": "5SbLsUiOuS6ok64HEOqzuPe4i-U=", "properties": {"ref": "113", "@spider": "ahern", "addr:full": "100 Kelly St", "addr:city": "Elk Grove Village", "addr:state": "IL", "addr:postcode": "60007", "addr:country": "US", "name": "Illinois - Elk Grove", "phone": "847-957-1801", "brand": "Ahern Rentals"}, "geometry": {"type": "Point", "coordinates": [-87.98364, 42.02972]}},
{"type": "Feature", "id": "2EO3U2vY-3OQPAbXqJ5O1Bu7rIQ=", "properties": {"ref": "114", "@spider": "ahern", "addr:full": "12290 US Highway 19 N", "addr:city": "Clearwater", "addr:state": "FL", "addr:postcode": "33764", "addr:country": "US", "name": "Florida - Clearwater", "phone": "727-472-1300", "brand": "Ahern Rentals"}, "geometry": {"type": "Point", "coordinates": [-82.71609, 27.88326]}},
{"type": "Feature", "id": "tSmub1t9G-wE8WkEZ3E0X03qb2k=", "properties": {"ref": "115", "@spider": "ahern", "addr:full": "5626 Enterprise Pkwy", "addr:city": "Fort Myers", "addr:state": "FL", "addr:postcode": "33905", "addr:country": "US", "name": "Florida - Fort Myers", "phone": "239-933-2500", "brand": "Ahern Rentals"}, "geometry": {"type": "Point", "coordinates": [-81.80088, 26.66513]}},
{"type": "Feature", "id": "RiqkBUhG2emZGzl-Tb6NrgnrVk8=", "properties": {"ref": "116", "@spider": "ahern", "addr:full": "100 Myrick St", "addr:city": "Pensacola", "addr:state": "FL", "addr:postcode": "32505", "addr:country": "US", "name": "Florida - Pensacola", "phone": "850-903-8100", "brand": "Ahern Rentals"}, "geometry": {"type": "Point", "coordinates": [-87.25385612553372, 30.410669013729684]}},
{"type": "Feature", "id": "CloBUNqBFFoAoNk805vh2Ma99Ao=", "properties": {"ref": "117", "@spider": "ahern", "addr:full": "4514 19th St Ct E", "addr:city": "Bradenton", "addr:state": "FL", "addr:postcode": "34203", "addr:country": "US", "name": "Florida - Bradenton", "phone": "941-267-2100", "brand": "Ahern Rentals"}, "geometry": {"type": "Point", "coordinates": [-82.54030673181336, 27.460535006381086]}}]}