{"type":"FeatureCollection","features":[{"type": "Feature", "id": "RQPGAl3_qxXr2SLi42gs8eq1Vtw=", "properties": {"ref": "MG69aKizJkNYjW-oO-wN9A==", "@spider": "aldi_si", "addr:street": "Via Flaminia 403F", "addr:city": "Rimini", "addr:postcode": "47922", "name": "ALDI", "opening_hours": "Sa 08:00-21:00; Su 08:30-20:30; Mo-Fr 08:00-21:00; ", "brand": "Aldi"}, "geometry": {"type": "Point", "coordinates": [12.61152, 44.02811]}},
{"type": "Feature", "id": "Ns8LJgG1L2LMUO_y5DSFe3GZ6qo=", "properties": {"ref": "CnZbnpPqLfwY2dCMoBvh3A==", "@spider": "aldi_si", "addr:street": "P\u00e9csi \u00fat 53.", "addr:city": "Moh\u00e1cs", "addr:postcode": "7700", "name": "ALDI", "opening_hours": "Sa 07:00-20:00; Su 07:00-19:00; Mo-Fr 07:00-20:00; ", "brand": "Aldi"}, "geometry": {"type": "Point", "coordinates": [18.66972, 45.99671]}},
{"type": "Feature", "id": "uSo1U44BFL0DVOUu2HjbMlP_Hv8=", "properties": {"ref": "hZ8d-62CU18JrHypxOwiIQ==", "@spider": "aldi_si", "addr:street": "Via Lanzo 213", "addr:city": "Borgaro Torinese", "addr:postcode": "10071", "name": "ALDI", "opening_hours": "Sa 08:30-21:00; Su 09:00-20:00; Mo-Fr 08:30-21:00; ", "brand": "Aldi"}, "geometry": {"type": "Point", "coordinates": [7.65419, 45.15854]}},
{"type": "Feature", "id": "lgLWsvC0RiiGSNAsIlaH0WIdssE=", "properties": {"ref": "NY-kPNh3y7A5oL7pASFFPg==", "@spider": "aldi_si", "addr:street": "C.so G. Marconi 28a", "addr:city": "Gravellona Toce", "addr:postcode": "28883", "name": "ALDI", "opening_hours": "Sa 08:30-20:30; Su 09:00-20:00; Mo-Fr 08:30-20:30; ", "brand": "Aldi"}, "geometry": {"type": "Point", "coordinates": [8.43461, 45.92942]}},
{"type": "Feature", "id": "DMTAuzZFW0WEfyGy2aUVefsV1oM=", "properties": {"ref": "xX39vng6Uw-hcR0X4NbGbQ==", "@spider": "aldi_si", "addr:street": "Allg\u00e4ustra\u00dfe 7 h", "addr:city": "H\u00f6rbranz", "addr:postcode": "6912", "name": "HOFER", "opening_hours": "Sa 07:15-18:00; Su closed;Mo-Fr 07:15-19:00; ", "brand": "Aldi"}, "geometry": {"type": "Point", "coordinates": [9.7496, 47.54228]}},
{"type": "Feature", "id": "Hj1YcQhyi5dVJOn7WsX3dhmK04U=", "properties": {"ref": "byUxLpPcnwR9erKAIUno2A==", "@spider": "aldi_si", "addr:street": "Via degli Alpini 25", "addr:city": "Merano", "addr:postcode": "39012", "name": "ALDI", "opening_hours": "Sa 08:30-20:30; Su 09:00-20:00; Mo-Fr 08:30-20:30; ", "brand": "Aldi"}, "geometry": {"type": "Point", "coordinates": [11.15433, 46.67242]}},
{"type": "Feature", "id": "AqOac3tCVPSHqOmXIUMGR9oKv3c=", "properties": {"ref": "d0JF9UYidI0oaUUU9SscZg==", "@spider": "aldi_si", "addr:street": "SS 10 per Alessandria 9", "addr:city": "Tortona", "addr:postcode": "15057", "name": "ALDI", "opening_hours": "Sa 08:00-20:30; Su 09:00-20:00; Mo-Fr 08:00-20:30; ", "brand": "Aldi"}, "geometry": {"type": "Point", "coordinates": [8.85041, 44.89536]}},
{"type": "Feature", "id": "17h6Etrj0XtVcK0xUQtoKBqed9M=", "properties": {"ref": "SeGTfqWwyNuZ-ZDaiDXd_Q==", "@spider": "aldi_si", "addr:street": "Via Giuseppe Stradiotti 2", "addr:city": "Piacenza", "addr:postcode": "29121", "name": "ALDI", "opening_hours": "Sa 08:30-21:00; Su 09:00-20:00; Mo-Fr 08:30-21:00; ", "brand": "Aldi"}, "geometry": {"type": "Point", "coordinates": [9.73292, 45.0331]}},
{"type": "Feature", "id": "x35NGTX0kWHelDu01x-ua_6XdE0=", "properties": {"ref": "jnhsPsy-2wb6erjQlf-WHg==", "@spider": "aldi_si", "addr:street": "Via Monsignor Pozzato 45", "addr:city": "Adria", "addr:postcode": "45011", "name": "ALDI", "opening_hours": "Sa 08:30-20:30; Su 09:00-20:00; Mo-Fr 08:30-20:30; ", "brand": "Aldi"}, "geometry": {"type": "Point", "coordinates": [12.06607, 45.05606]}},
{"type": "Feature", "id": "UPDYqpe-68oeugq4MONrhVogHeg=", "properties": {"ref": "x3cseo-zxJqrLaxHddlg2g==", "@spider": "aldi_si", "addr:street": "Via Roma 30/A", "addr:city": "Zola Predosa", "addr:postcode": "40069", "name": "ALDI", "opening_hours": "Sa 08:00-20:30; Su 09:00-20:30; Mo-Fr 08:00-20:30; ", "brand": "Aldi"}, "geometry": {"type": "Point", "coordinates": [11.23078, 44.49117]}},
{"type": "Feature", "id": "3TNElQDY0zaOrtx8RvdSSHEp6Ig=", "properties": {"ref": "4TjUSWlJ8NciR8uZiH7PTA==", "@spider": "aldi_si", "addr:street": "Kis\u00fajsz\u00e1ll\u00e1si \u00fat 90.", "addr:city": "Karcag", "addr:postcode": "5300", "name": "ALDI", "opening_hours": "Sa 07:00-20:00; Su 07:00-19:00; Mo-Fr 07:00-20:00; ", "brand": "Aldi"}, "geometry": {"type": "Point", "coordinates": [20.89904, 47.29985]}},
{"type": "Feature", "id": "fatmvLDCD0064y4NuFf_O5B8ZG0=", "properties": {"ref": "DrJNP6SEsipSpmt0CgUpiQ==", "@spider": "aldi_si", "addr:street": "V\u00e1rosmajor utca 53.", "addr:city": "Kisv\u00e1rda", "addr:postcode": "4600", "name": "ALDI", "opening_hours": "Sa 07:00-20:00; Su 07:00-19:00; Mo-Fr 07:00-20:00; ", "brand": "Aldi"}, "geometry": {"type": "Point", "coordinates": [22.06409, 48.23527]}},
{"type": "Feature", "id": "VNIAlUHX4NyOpHPW94acIOm5J_4=", "properties": {"ref": "TJa-2Ewi1JyDRCtzWDndtQ==", "@spider": "aldi_si", "addr:street": "Kazinczy u. 156.", "addr:city": "S\u00e1toralja\u00fajhely", "addr:postcode": "3980", "name": "ALDI", "opening_hours": "Sa 07:00-20:00; Su 07:00-19:00; Mo-Fr 07:00-20:00; ", "brand": "Aldi"}, "geometry": {"type": "Point", "coordinates": [21.64811, 48.41353]}},
{"type": "Feature", "id": "ww2_lY4cPxAMuaiLx0RdGzAbdE4=", "properties": {"ref": "yCymhX0_4BFXRKZdZbuxrw==", "@spider": "aldi_si", "addr:street": "\u00d6tztaler H\u00f6he 9", "addr:city": "\u00d6tztal Bahnhof", "addr:postcode": "6430", "name": "HOFER", "opening_hours": "Sa 07:15-18:00; Su closed;Mo-Fr 07:15-19:00; ", "brand": "Aldi"}, "geometry": {"type": "Point", "coordinates": [10.85617, 47.23102]}},
{"type": "Feature", "id": "psfwYJOy91Ju6mirHrrkBc84Nos=", "properties": {"ref": "MyHkLOzDkfHqW4TXPPL9Vg==", "@spider": "aldi_si", "addr:street": "Langgasse 30", "addr:city": "Imst", "addr:postcode": "6460", "name": "HOFER", "opening_hours": "Sa 07:40-18:00; Su closed;Mo-Fr 07:40-19:00; ", "brand": "Aldi"}, "geometry": {"type": "Point", "coordinates": [10.74437, 47.232]}},
{"type": "Feature", "id": "VC6CRJKhFI7YALDAMc32mzR3dOg=", "properties": {"ref": "WNWfbxsRqj0vtuFW8obGGQ==", "@spider": "aldi_si", "addr:street": "Brennbichl 56", "addr:city": "Imst", "addr:postcode": "6460", "name": "HOFER", "opening_hours": "Sa 07:15-18:00; Su closed;Mo-Fr 07:15-19:00; ", "brand": "Aldi"}, "geometry": {"type": "Point", "coordinates": [10.74512, 47.22237]}},
{"type": "Feature", "id": "ippD57yl3GG-Lvav0mwGtLCbK2k=", "properties": {"ref": "sfuvx-aOzz5DkYcV2bbG6Q==", "@spider": "aldi_si", "addr:street": "J\u00e1szi Oszk\u00e1r u. 4.", "addr:city": "\u00d3zd", "addr:postcode": "3600", "name": "ALDI", "opening_hours": "Sa 07:00-20:00; Su 07:00-19:00; Mo-Fr 07:00-20:00; ", "brand": "Aldi"}, "geometry": {"type": "Point", "coordinates": [20.2894, 48.22071]}},
{"type": "Feature", "id": "xYxNvnyCOO2zXM77ASXhuUgVT6k=", "properties": {"ref": "_vY1D0r0Dwd7kxZGfsNduA==", "@spider": "aldi_si", "addr:street": "Via Piemonte 25", "addr:city": "Pioltello", "addr:postcode": "20096", "name": "ALDI", "opening_hours": "Sa 08:30-21:00; Su 09:00-20:00; Mo-Fr 08:30-21:00; ", "brand": "Aldi"}, "geometry": {"type": "Point", "coordinates": [9.33286, 45.48917]}},
{"type": "Feature", "id": "EVaceExRS50SBPQgyo0dAeZgVm4=", "properties": {"ref": "gXyCIhf1D0-gUFAUBL9zjA==", "@spider": "aldi_si", "addr:street": "Via Orazio Pagani 1", "addr:city": "Segrate", "addr:postcode": "20090", "name": "ALDI", "opening_hours": "Sa 08:30-21:00; Su 09:00-20:00; Mo-Fr 08:30-21:00; ", "brand": "Aldi"}, "geometry": {"type": "Point", "coordinates": [9.27119, 45.49085]}},
{"type": "Feature", "id": "O3kDel1dR352OODvcAaA2bnwe0A=", "properties": {"ref": "5LRupuZFggfS9AUnz7nyWA==", "@spider": "aldi_si", "addr:street": "Viale Molise 56", "addr:city": "Milano", "addr:postcode": "20137", "name": "ALDI", "opening_hours": "Sa 08:00-21:00; Su 08:30-21:00; Mo-Fr 08:00-21:00; ", "brand": "Aldi"}, "geometry": {"type": "Point", "coordinates": [9.22439, 45.45447]}},
{"type": "Feature", "id": "PA0btsOR8WinA0lsvrea14LqSAc=", "properties": {"ref": "JwqLRni7EEtML9rN45Lxzg==", "@spider": "aldi_si", "addr:street": "Via della Pace, 26", "addr:city": "San Giuliano Milanese", "addr:postcode": "20098", "name": "ALDI", "opening_hours": "Sa 09:00-21:00; Su 09:00-21:00; Mo-Fr 09:00-20:00; ", "brand": "Aldi"}, "geometry": {"type": "Point", "coordinates": [9.30606, 45.37872]}},
{"type": "Feature", "id": "ko1nlBB9MfgVd-ayJqxP8jdntHA=", "properties": {"ref": "MKBILdkhUtfHgwYhPd78xg==", "@spider": "aldi_si", "addr:street": "Via Galvani 12", "addr:city": "Milano", "addr:postcode": "20124", "name": "ALDI", "opening_hours": "Sa 08:00-21:00; Su 08:30-20:30; Mo-Fr 08:00-21:00; ", "brand": "Aldi"}, "geometry": {"type": "Point", "coordinates": [9.20066, 45.48621]}},
{"type": "Feature", "id": "79gz0XyCmerzcinRs5_VYE21IZI=", "properties": {"ref": "eFXbnCANlpkAga296FYT5w==", "@spider": "aldi_si", "addr:street": "Barnabas-Fink-Stra\u00dfe 1", "addr:city": "Hohenems", "addr:postcode": "6845", "name": "HOFER", "opening_hours": "Sa 07:15-18:00; Su closed;Mo-Fr 07:15-19:00; ", "brand": "Aldi"}, "geometry": {"type": "Point", "coordinates": [9.67111, 47.36726]}},
{"type": "Feature", "id": "4FnrNQ50DHB5XMojd6ucBi5BC5Y=", "properties": {"ref": "eZkc6lPyAgkAc15BffPOAQ==", "@spider": "aldi_si", "addr:street": "Im Buch 40", "addr:city": "G\u00f6tzis", "addr:postcode": "6840", "name": "HOFER", "opening_hours": "Sa 07:15-18:00; Su closed;Mo-Fr 07:15-19:00; ", "brand": "Aldi"}, "geometry": {"type": "Point", "coordinates": [9.65198, 47.33945]}},
{"type": "Feature", "id": "0PUntHCFifZ5P-DrTlIQviWfJj4=", "properties": {"ref": "nqDg-7nMwdKi-CqIATVE-A==", "@spider": "aldi_si", "addr:street": "Wallenmahd 5", "addr:city": "Dornbirn", "addr:postcode": "6850", "name": "HOFER", "opening_hours": "Sa 07:15-18:00; Su closed;Mo-Fr 07:15-19:00; ", "brand": "Aldi"}, "geometry": {"type": "Point", "coordinates": [9.73111, 47.3948]}},
{"type": "Feature", "id": "Luc-KXzrqImoSznvRcDFRtgTnxk=", "properties": {"ref": "Mm8Tb_xFQRiX8twBAeauRg==", "@spider": "aldi_si", "addr:street": "Bundesstra\u00dfe 6", "addr:city": "Koblach", "addr:postcode": "6842", "name": "HOFER", "opening_hours": "Sa 07:15-18:00; Su closed;Mo-Fr 07:15-19:00; ", "brand": "Aldi"}, "geometry": {"type": "Point", "coordinates": [9.62954, 47.32595]}},
{"type": "Feature", "id": "Q4KJZGyUKM8kCI3aoCrZM1cN6v4=", "properties": {"ref": "mu_wyasqfmM6_vTWnPpKMw==", "@spider": "aldi_si", "addr:street": "Forststra\u00dfe 1", "addr:city": "Lustenau", "addr:postcode": "6890", "name": "HOFER", "opening_hours": "Sa 07:40-18:00; Su closed;Mo-Fr 07:40-19:00; ", "brand": "Aldi"}, "geometry": {"type": "Point", "coordinates": [9.66572, 47.4181]}},
{"type": "Feature", "id": "brFq1hWJCWVRrVOpMHiC_1i6FQE=", "properties": {"ref": "E3nQHbsu06nRHMxDVfNNIw==", "@spider": "aldi_si", "addr:street": "Schwefel 43", "addr:city": "Dornbirn", "addr:postcode": "6850", "name": "HOFER", "opening_hours": "Sa 07:15-18:00; Su closed;Mo-Fr 07:15-19:00; ", "brand": "Aldi"}, "geometry": {"type": "Point", "coordinates": [9.74063, 47.42547]}},
{"type": "Feature", "id": "a9MQw_nBO6KBOrYvtA5hqODmkkw=", "properties": {"ref": "MNV7sabvJEwSGcvIA9T92g==", "@spider": "aldi_si", "addr:street": "St. Anna Weg 23", "addr:city": "Rankweil", "addr:postcode": "6830", "name": "HOFER", "opening_hours": "Sa 07:15-18:00; Su closed;Mo-Fr 07:15-19:00; ", "brand": "Aldi"}, "geometry": {"type": "Point", "coordinates": [9.60794, 47.27245]}},
{"type": "Feature", "id": "sdL9PisrnXKy4wvwIC_5fCAWKTU=", "properties": {"ref": "Ajykfb0AF_kNmlL7BfAtsg==", "@spider": "aldi_si", "addr:street": "Churwaldenstra\u00dfe 6", "addr:city": "Feldkirch", "addr:postcode": "6800", "name": "HOFER", "opening_hours": "Sa 07:15-18:00; Su closed;Mo-Fr 07:15-19:00; ", "brand": "Aldi"}, "geometry": {"type": "Point", "coordinates": [9.61407, 47.26719]}},
{"type": "Feature", "id": "hFJt14n9Zjp9CFjZj9CzWTQDdKI=", "properties": {"ref": "KIsECedNhBwtzr73awZwtw==", "@spider": "aldi_si", "addr:street": "Via dei Campi 8", "addr:city": "Trecate", "addr:postcode": "28069", "name": "ALDI", "opening_hours": "Sa 08:30-21:00; Su 09:00-20:00; Mo-Fr 08:30-21:00; ", "brand": "Aldi"}, "geometry": {"type": "Point", "coordinates": [8.71482, 45.4332]}},
{"type": "Feature", "id": "Cj38xBAC7s2g-4ZB9rFhlDVaCvg=", "properties": {"ref": "K4cT1zguAFuZLZS5QD2JWg==", "@spider": "aldi_si", "addr:street": "Via Curtatone 12", "addr:city": "Novara", "addr:postcode": "28100", "name": "ALDI", "opening_hours": "Sa 08:00-21:00; Su 09:00-20:00; Mo-Fr 08:00-21:00; ", "brand": "Aldi"}, "geometry": {"type": "Point", "coordinates": [8.63052, 45.43888]}},
{"type": "Feature", "id": "19M7BRNkKzDYg1eTQ3tur6GEl0s=", "properties": {"ref": "KsBR31_W--STUvEHyIS1vw==", "@spider": "aldi_si", "addr:street": "Corso della Vittoria 64", "addr:city": "Novara", "addr:postcode": "28100", "name": "ALDI", "opening_hours": "Sa 08:00-21:00; Su 09:00-20:00; Mo-Fr 08:00-21:00; ", "brand": "Aldi"}, "geometry": {"type": "Point", "coordinates": [8.62675, 45.46516]}},
{"type": "Feature", "id": "vPnqnmh5dCJ83aGs-IVm_h8lLwA=", "properties": {"ref": "A_DUIcWL31VJviHSBNWzCQ==", "@spider": "aldi_si", "addr:street": "Viale Don Minzoni 1", "addr:city": "Castellanza", "addr:postcode": "21053", "name": "ALDI", "opening_hours": "Sa 08:30-20:30; Su 09:00-20:00; Mo-Fr 08:30-20:30; ", "brand": "Aldi"}, "geometry": {"type": "Point", "coordinates": [8.88663, 45.61371]}},
{"type": "Feature", "id": "FkqgICZs_pkLNFHk6fThcvqch_k=", "properties": {"ref": "MJfoL3ngynp4vsdM4ACVJQ==", "@spider": "aldi_si", "addr:street": "Via Italia 209", "addr:city": "Busnago", "addr:postcode": "20874", "name": "ALDI", "opening_hours": "Sa 08:30-21:00; Su 09:00-20:00; Mo-Fr 08:30-21:00; ", "brand": "Aldi"}, "geometry": {"type": "Point", "coordinates": [9.47804, 45.61949]}},
{"type": "Feature", "id": "fSUjMXeCySBur-munE-yVYEpce4=", "properties": {"ref": "d1AngWNjKDb8kmDLrqxQAQ==", "@spider": "aldi_si", "addr:street": "Via Enrico Fermi 37", "addr:city": "Curno", "addr:postcode": "24035", "name": "ALDI", "opening_hours": "Sa 08:00-20:30; Su 09:00-20:00; Mo-Fr 08:00-20:30; ", "brand": "Aldi"}, "geometry": {"type": "Point", "coordinates": [9.62318, 45.69133]}},
{"type": "Feature", "id": "hLm1tJH96s4gq42VqIRPTigbXFs=", "properties": {"ref": "V8nnRBbRL_hHBuLIMOgWnA==", "@spider": "aldi_si", "addr:street": "Via del Brennero 111", "addr:city": "Trento", "addr:postcode": "38121", "name": "ALDI", "opening_hours": "Sa 08:30-21:00; Su 09:00-20:00; Mo-Fr 08:30-21:00; ", "brand": "Aldi"}, "geometry": {"type": "Point", "coordinates": [11.11823, 46.08596]}},
{"type": "Feature", "id": "hG-6Y7micIDGTU6PTSy12O1ZqAA=", "properties": {"ref": "uwqCg_MO_Yl-FEaBeJoJvw==", "@spider": "aldi_si", "addr:street": "Moos 31", "addr:city": "Grieskirchen", "addr:postcode": "4710", "name": "HOFER", "opening_hours": "Sa 07:15-18:00; Su closed;Mo-Fr 07:15-19:00; ", "brand": "Aldi"}, "geometry": {"type": "Point", "coordinates": [13.82984, 48.23175]}},
{"type": "Feature", "id": "VPvWeNhtPU9KcMBE1nGHMe2YKM0=", "properties": {"ref": "cJ87oTiUpWe2CmKlFjFnHg==", "@spider": "aldi_si", "addr:street": "Viale Giuseppe Borri 46", "addr:city": "Busto Arsizio", "addr:postcode": "21052", "name": "ALDI", "opening_hours": "Sa 08:30-20:30; Su 09:00-20:00; Mo-Fr 08:30-20:30; ", "brand": "Aldi"}, "geometry": {"type": "Point", "coordinates": [8.86786, 45.60542]}},
{"type": "Feature", "id": "Qy-j04OiOLxhjJxVYJDcJvSP_eo=", "properties": {"ref": "i-MkuStb1AU6gVB6Ad8IbA==", "@spider": "aldi_si", "addr:street": "Via Provinciale snc", "addr:city": "Dalmine", "addr:postcode": "24047", "name": "ALDI", "opening_hours": "Sa 08:30-20:30; Su 09:00-20:00; Mo-Fr 08:30-20:30; ", "brand": "Aldi"}, "geometry": {"type": "Point", "coordinates": [9.61975, 45.65129]}},
{"type": "Feature", "id": "B9_ifmZl-tuEGPVt4zq2xEHozeA=", "properties": {"ref": "5tYwfpsfiChUlP4qLGQ9AQ==", "@spider": "aldi_si", "addr:street": "Via Trento 91/2", "addr:city": "Cles", "addr:postcode": "38023", "name": "ALDI", "opening_hours": "Sa 08:30-20:00; Su 09:00-19:00; Mo-Fr 08:30-20:00; ", "brand": "Aldi"}, "geometry": {"type": "Point", "coordinates": [11.03782, 46.3572]}},
{"type": "Feature", "id": "wT-QfjT31BOtvpwVzwbRowuXc-Y=", "properties": {"ref": "zZZIMCCTppP9vo21zdVo0A==", "@spider": "aldi_si", "addr:street": "Corso 3 Novembre snc", "addr:city": "Trento", "addr:postcode": "38122", "name": "ALDI", "opening_hours": "Sa 08:30-21:00; Su 09:00-20:00; Mo-Fr 08:30-21:00; ", "brand": "Aldi"}, "geometry": {"type": "Point", "coordinates": [11.12593, 46.06065]}},
{"type": "Feature", "id": "IhsJS6AqAJGTnO_M-iVZijauNlM=", "properties": {"ref": "yKQc9lH23x8AbicOUQ2TZw==", "@spider": "aldi_si", "addr:street": "Handelspark 1", "addr:city": "Schl\u00fc\u00dflberg", "addr:postcode": "4707", "name": "HOFER", "opening_hours": "Sa 07:15-18:00; Su closed;Mo-Fr 07:15-19:00; ", "brand": "Aldi"}, "geometry": {"type": "Point", "coordinates": [13.84922, 48.22538]}},
{"type": "Feature", "id": "-Qnj-U2uWrSAUgne-kT-Kxwaamo=", "properties": {"ref": "bQdHCeHCzYEkbiI6seagpA==", "@spider": "aldi_si", "addr:street": "Vincell\u00e9r utca 5.", "addr:city": "Debrecen", "addr:postcode": "4032", "name": "ALDI", "opening_hours": "Sa 07:00-21:00; Su 07:00-19:00; Mo-Fr 07:00-21:00; ", "brand": "Aldi"}, "geometry": {"type": "Point", "coordinates": [21.60058, 47.5146]}},
{"type": "Feature", "id": "q1ZRb9SicdRbG344kWddiOZ-XAc=", "properties": {"ref": "EhloMWVG7feyV-TlawZ8CA==", "@spider": "aldi_si", "addr:street": "Via Colombo 1", "addr:city": "Carpi", "addr:postcode": "41012", "name": "ALDI", "opening_hours": "Sa 08:30-21:00; Su 09:00-20:00; Mo-Fr 08:30-21:00; ", "brand": "Aldi"}, "geometry": {"type": "Point", "coordinates": [10.87764, 44.77684]}},
{"type": "Feature", "id": "T7UhFdGrfHkkYHx4QAAnylIoRNE=", "properties": {"ref": "-9PYW23rAf4WNIbdSrSnKw==", "@spider": "aldi_si", "addr:street": "Via Bertini 99", "addr:city": "Forl\u00ec", "addr:postcode": "47122", "name": "ALDI", "opening_hours": "Sa 08:30-21:00; Su 09:00-20:00; Mo-Fr 08:30-21:00; ", "brand": "Aldi"}, "geometry": {"type": "Point", "coordinates": [12.06405, 44.22723]}},
{"type": "Feature", "id": "yDt0Um-rClgawmXOUcJvgZ-ck94=", "properties": {"ref": "TZ4ctrNZZcZMRbfdb8z7Lw==", "@spider": "aldi_si", "addr:street": "Viale Bologna 81", "addr:city": "Forl\u00ec", "addr:postcode": "47121", "name": "ALDI", "opening_hours": "Sa 08:30-21:00; Su 09:00-20:00; Mo-Fr 08:30-21:00; ", "brand": "Aldi"}, "geometry": {"type": "Point", "coordinates": [12.02037, 44.22937]}},
{"type": "Feature", "id": "UFjCelYFvMSekH5cblZjZRjnPek=", "properties": {"ref": "zT64RX1ka_fwhDuCnd9_oA==", "@spider": "aldi_si", "addr:street": "K\u00fcls\u0151-Szoboszl\u00f3i utca 2/B", "addr:city": "Hajd\u00fab\u00f6sz\u00f6rm\u00e9ny", "addr:postcode": "4220", "name": "ALDI", "opening_hours": "Sa 07:00-20:00; Su 07:00-19:00; Mo-Fr 07:00-20:00; ", "brand": "Aldi"}, "geometry": {"type": "Point", "coordinates": [21.50138, 47.66246]}},
{"type": "Feature", "id": "VvbYE5PraAL-YeRb5l1pxoG6fz0=", "properties": {"ref": "7hrlqQhg77c1WJPO8OhAGA==", "@spider": "aldi_si", "addr:street": "Via Lucrezia Agujari 5/A", "addr:city": "Parma", "addr:postcode": "43122", "name": "ALDI", "opening_hours": "Sa 08:30-21:00; Su 09:00-20:00; Mo-Fr 08:30-21:00; ", "brand": "Aldi"}, "geometry": {"type": "Point", "coordinates": [10.33985, 44.82834]}},
{"type": "Feature", "id": "SOTjhBSgCkg6zivf2UZjynvliAY=", "properties": {"ref": "fGTKpBPLEQN-YO6pNPZylg==", "@spider": "aldi_si", "addr:street": "Via Padova 207", "addr:city": "Ferrara", "addr:postcode": "44123", "name": "ALDI", "opening_hours": "Sa 08:30-20:30; Su 09:00-20:00; Mo 08:30-21:00; Tu-Fr 08:30-20:30; ", "brand": "Aldi"}, "geometry": {"type": "Point", "coordinates": [11.60298, 44.87565]}},
{"type": "Feature", "id": "NLbgAflCojuwe5bEP5pGKmROls4=", "properties": {"ref": "J6I-WpD-wKhrbGmnY1-Bww==", "@spider": "aldi_si", "addr:street": "Ozm\u00e1n utca 1.", "addr:city": "Debrecen", "addr:postcode": "4030", "name": "ALDI", "opening_hours": "Sa 06:30-21:00; Su 07:00-19:00; Mo-Fr 06:30-21:00; ", "brand": "Aldi"}, "geometry": {"type": "Point", "coordinates": [21.63222, 47.49576]}},
{"type": "Feature", "id": "e02c6ICJEXhq7VMwibzgrKLTSXM=", "properties": {"ref": "nl6Anw-gQDS6EXYeIlJaog==", "@spider": "aldi_si", "addr:street": "Kishat\u00e1r utca 9/A", "addr:city": "Debrecen", "addr:postcode": "4031", "name": "ALDI", "opening_hours": "Sa 06:30-21:00; Su 07:00-19:00; Mo-Fr 06:30-21:00; ", "brand": "Aldi"}, "geometry": {"type": "Point", "coordinates": [21.5811, 47.54259]}},
{"type": "Feature", "id": "Rf9I9KHpzEWsulOwp7Kin8oyl6M=", "properties": {"ref": "IQfIg9n_dw3WqfomtQFG0Q==", "@spider": "aldi_si", "addr:street": "Via Emilia 265/A", "addr:city": "San Lazzaro di Savena", "addr:postcode": "40068", "name": "ALDI", "opening_hours": "Sa 08:30-20:30; Su 09:00-20:00; Mo-Fr 08:30-20:30; ", "brand": "Aldi"}, "geometry": {"type": "Point", "coordinates": [11.42416, 44.46572]}},
{"type": "Feature", "id": "OtVlU9ZAgtAJV4yjED3opNP8alQ=", "properties": {"ref": "0Jd2EevncH0dN3SvCm_9Gw==", "@spider": "aldi_si", "addr:street": "Via Larga 21", "addr:city": "Bologna", "addr:postcode": "40127", "name": "ALDI", "opening_hours": "Sa 08:30-21:00; Su 09:00-20:00; Mo-Fr 08:30-21:00; ", "brand": "Aldi"}, "geometry": {"type": "Point", "coordinates": [11.3941, 44.49733]}},
{"type": "Feature", "id": "kK3LXUglFmcfH_a851IONEXcKig=", "properties": {"ref": "58aw0uR2TKQZJMEmj9WmfA==", "@spider": "aldi_si", "addr:street": "Salzburger Siedlung 259", "addr:city": "Schladming", "addr:postcode": "8970", "name": "HOFER", "opening_hours": "Sa 07:15-18:00; Su closed;Mo-Fr 07:15-19:30; ", "brand": "Aldi"}, "geometry": {"type": "Point", "coordinates": [13.65791, 47.39073]}},
{"type": "Feature", "id": "vQYdkJCrmaoSVari2x5v528b-pM=", "properties": {"ref": "uHe4edPnLqphhxH0eQIfEA==", "@spider": "aldi_si", "addr:street": "Murtalstra\u00dfe 630", "addr:city": "St. Michael im Lungau", "addr:postcode": "5582", "name": "HOFER", "opening_hours": "Sa 07:15-18:00; Su closed;Mo-Fr 07:15-19:30; ", "brand": "Aldi"}, "geometry": {"type": "Point", "coordinates": [13.63954, 47.0948]}},
{"type": "Feature", "id": "fME_CU9rjEH-FihALIeEULW_c2M=", "properties": {"ref": "cP-g1aKp41hxnCjb6os5Rw==", "@spider": "aldi_si", "addr:street": "P\u00e9terfia utca 18.", "addr:city": "Debrecen", "addr:postcode": "4026", "name": "ALDI", "opening_hours": "Sa 07:00-21:00; Su 07:00-19:00; Mo-Fr 07:00-21:00; ", "brand": "Aldi"}, "geometry": {"type": "Point", "coordinates": [21.6256, 47.53484]}},
{"type": "Feature", "id": "ZfxmfNUFkw2mSVQ4OijpH6An2Xw=", "properties": {"ref": "YJUS-SJtxmeB3zfPm9Y8qA==", "@spider": "aldi_si", "addr:street": "Gewerbepark (Ipari Park) 24", "addr:city": "Unterwart", "addr:postcode": "7502", "name": "HOFER", "opening_hours": "Sa 07:15-18:00; Su closed;Mo-Fr 07:15-19:00; ", "brand": "Aldi"}, "geometry": {"type": "Point", "coordinates": [16.23862, 47.27055]}},
{"type": "Feature", "id": "8ze00Qeyzo7PEwE8ARr5voLFkRg=", "properties": {"ref": "rruEir4rWpMZWoaMzMHIqg==", "@spider": "aldi_si", "addr:street": "Landstra\u00dfer Hauptstra\u00dfe 26", "addr:city": "Wien", "addr:postcode": "1030", "name": "HOFER", "opening_hours": "Sa 07:40-18:00; Su closed;Mo-Fr 07:40-19:00; ", "brand": "Aldi"}, "geometry": {"type": "Point", "coordinates": [16.38928, 48.2032]}},
{"type": "Feature", "id": "x6BkRxOBNrMfM1Nnl42fG7F2W2o=", "properties": {"ref": "g-BkltkngO_c8gHEpcfMkg==", "@spider": "aldi_si", "addr:street": "M\u00f6rtelsdorf 56", "addr:city": "Tamsweg", "addr:postcode": "5580", "name": "HOFER", "opening_hours": "Sa 07:15-18:00; Su closed;Mo-Fr 07:15-19:30; ", "brand": "Aldi"}, "geometry": {"type": "Point", "coordinates": [13.80225, 47.13538]}},
{"type": "Feature", "id": "njCMZSev7F4aV4Ra_ptwzjmpWyk=", "properties": {"ref": "sNL7CsFWUOJ7ShUFCpEa8g==", "@spider": "aldi_si", "addr:street": "Forstauer Stra\u00dfe 2c", "addr:city": "Radstadt", "addr:postcode": "5550", "name": "HOFER", "opening_hours": "Sa 07:15-18:00; Su closed;Mo-Fr 07:15-19:30; ", "brand": "Aldi"}, "geometry": {"type": "Point", "coordinates": [13.47676, 47.37606]}},
{"type": "Feature", "id": "Ishllbl601B5YmaUT2VNqk8bnZY=", "properties": {"ref": "J-Yg-KLNOlMgDp0KsNyz2g==", "@spider": "aldi_si", "addr:street": "\u00d6tvenhatosok tere 5/B.", "addr:city": "Debrecen", "addr:postcode": "4032", "name": "ALDI", "opening_hours": "Sa 07:00-21:00; Su 07:00-19:00; Mo-Fr 07:00-21:00; ", "brand": "Aldi"}, "geometry": {"type": "Point", "coordinates": [21.6118, 47.547]}},
{"type": "Feature", "id": "ooZw8NNrLGVsKbBJtQ97P2H3lNI=", "properties": {"ref": "yLum8gRfIKAVGWRYumvMNw==", "@spider": "aldi_si", "addr:street": "Kabai \u00fatf\u00e9l 0348/5", "addr:city": "Hajd\u00faszoboszl\u00f3", "addr:postcode": "4200", "name": "ALDI", "opening_hours": "Sa 07:00-20:00; Su 07:00-19:00; Mo-Fr 07:00-20:00; ", "brand": "Aldi"}, "geometry": {"type": "Point", "coordinates": [21.37807, 47.43665]}},
{"type": "Feature", "id": "bqChJlqb1Yb28xN95T6bc4Yp0Vc=", "properties": {"ref": "oCMOKSBSOTHSxjBGlOAxFg==", "@spider": "aldi_si", "addr:street": "Demeter utca 2.", "addr:city": "Szombathely", "addr:postcode": "9700", "name": "ALDI", "opening_hours": "Sa 07:00-21:00; Su 07:00-19:00; Mo-Fr 07:00-21:00; ", "brand": "Aldi"}, "geometry": {"type": "Point", "coordinates": [16.61883, 47.25485]}},
{"type": "Feature", "id": "U7a-PrzTibt6iRGAF4Nl6rChPdw=", "properties": {"ref": "BXhUrWQFk1-rEkoyriInBQ==", "@spider": "aldi_si", "addr:street": "Szent Gell\u00e9rt utca 49.", "addr:city": "Szombathely", "addr:postcode": "9700", "name": "ALDI", "opening_hours": "Sa 07:00-21:00; Su 07:00-19:00; Mo-Fr 07:00-21:00; ", "brand": "Aldi"}, "geometry": {"type": "Point", "coordinates": [16.61897, 47.21473]}},
{"type": "Feature", "id": "COVAmiEXGJifF2JgPQVVJC_1kvA=", "properties": {"ref": "OWYHy0tzeJ4mcNdv_ErQiQ==", "@spider": "aldi_si", "addr:street": "Europastra\u00dfe 1a", "addr:city": "Oberwart", "addr:postcode": "7400", "name": "HOFER", "opening_hours": "Sa 07:15-18:00; Su closed;Mo-Fr 07:15-19:00; ", "brand": "Aldi"}, "geometry": {"type": "Point", "coordinates": [16.18957, 47.28564]}},
{"type": "Feature", "id": "32O_GPHFwh5LTgmEn_N9QYqJ8fk=", "properties": {"ref": "lffCznKk4Nz5mlKGRQOSvg==", "@spider": "aldi_si", "addr:street": "Zirkusgasse 24", "addr:city": "Wien", "addr:postcode": "1020", "name": "HOFER", "opening_hours": "Sa 07:40-18:00; Su closed;Mo-Fr 07:40-20:00; ", "brand": "Aldi"}, "geometry": {"type": "Point", "coordinates": [16.38428, 48.21604]}},
{"type": "Feature", "id": "ZJUkAJiciHNJao5w8rKyY55Xzn0=", "properties": {"ref": "ZMii41HchxR44dv_4tPzLA==", "@spider": "aldi_si", "addr:street": "Neutorgasse 2/Heinrichsg.1", "addr:city": "Wien 1.", "addr:postcode": "1010", "name": "HOFER", "opening_hours": "Sa 07:40-18:00; Su closed;Mo-Fr 07:40-20:00; ", "brand": "Aldi"}, "geometry": {"type": "Point", "coordinates": [16.36995, 48.21393]}},
{"type": "Feature", "id": "wTV3j-zbm8PMlZG8HPtNzFLt0qA=", "properties": {"ref": "E5yGlM1q7ZYKmYbFVujSlA==", "@spider": "aldi_si", "addr:street": "Marxergasse 29", "addr:city": "Wien", "addr:postcode": "1030", "name": "HOFER", "opening_hours": "Sa 07:40-18:00; Su closed;Mo-Fr 07:40-19:00; ", "brand": "Aldi"}, "geometry": {"type": "Point", "coordinates": [16.39347, 48.20589]}},
{"type": "Feature", "id": "P7_IZktA2oUYDvZGas1_mJUxaQY=", "properties": {"ref": "dlozGSxCLLViJSI6lOKoZQ==", "@spider": "aldi_si", "addr:street": "Wiener Stra\u00dfe 102", "addr:city": "Gloggnitz", "addr:postcode": "2640", "name": "HOFER", "opening_hours": "Sa 07:15-18:00; Su closed;Mo-Fr 07:15-19:00; ", "brand": "Aldi"}, "geometry": {"type": "Point", "coordinates": [15.95472, 47.67269]}},
{"type": "Feature", "id": "tSJ99dm0L7f84JKxATbySaaNTMY=", "properties": {"ref": "ZVAUK-mFO6UGLv8p_mkqYw==", "@spider": "aldi_si", "addr:street": "Hauptstra\u00dfe 55", "addr:city": "Ebenfurth", "addr:postcode": "2490", "name": "HOFER", "opening_hours": "Sa 07:40-18:00; Su closed;Mo-Fr 07:40-19:00; ", "brand": "Aldi"}, "geometry": {"type": "Point", "coordinates": [16.375, 47.87461]}},
{"type": "Feature", "id": "rHOzxjbmi6zXATREeJP0yTmkIeg=", "properties": {"ref": "TMH1cyN_X8PXL1kZDwatvA==", "@spider": "aldi_si", "addr:street": "Pischelsdorf 499", "addr:city": "Pischelsdorf am Kulm", "addr:postcode": "8212", "name": "HOFER", "opening_hours": "Sa 07:15-18:00; Su closed;Mo-Fr 07:15-19:00; ", "brand": "Aldi"}, "geometry": {"type": "Point", "coordinates": [15.80913, 47.17413]}},
{"type": "Feature", "id": "F_d373QErW2cUZneKwHjoZJ9HNQ=", "properties": {"ref": "FUt63eARiIX5MuWGet4pOg==", "@spider": "aldi_si", "addr:street": "Birkfelderstra\u00dfe 211", "addr:city": "Thannhausen bei Weiz", "addr:postcode": "8160", "name": "HOFER", "opening_hours": "Sa 07:15-18:00; Su closed;Mo-Fr 07:15-19:00; ", "brand": "Aldi"}, "geometry": {"type": "Point", "coordinates": [15.64782, 47.22429]}},
{"type": "Feature", "id": "E6HrOg6ik0mMZfBOjN4mt-iRHQo=", "properties": {"ref": "hFpGGvnsRONRsJNTaCzULw==", "@spider": "aldi_si", "addr:street": "Kiss Ern\u0151 utca 13/A", "addr:city": "Miskolc", "addr:postcode": "3531", "name": "ALDI", "opening_hours": "Sa 06:30-21:00; Su 07:00-19:00; Mo-Fr 06:30-21:00; ", "brand": "Aldi"}, "geometry": {"type": "Point", "coordinates": [20.74727, 48.10008]}},
{"type": "Feature", "id": "0AMWQ8z4stLnoTeT-KLp7Gn2SW0=", "properties": {"ref": "loCu8363UySiMklSfD3R2Q==", "@spider": "aldi_si", "addr:street": "Wiesenstra\u00dfe 2", "addr:city": "Stegersbach", "addr:postcode": "7551", "name": "HOFER", "opening_hours": "Sa 07:15-18:00; Su closed;Mo-Fr 07:15-19:00; ", "brand": "Aldi"}, "geometry": {"type": "Point", "coordinates": [16.16144, 47.17012]}},
{"type": "Feature", "id": "PJLb4uZBFHWWeJfhl74MHS_CSUk=", "properties": {"ref": "IgYN4s1J1m7FBtAOcc3ujg==", "@spider": "aldi_si", "addr:street": "Obere Augartenstra\u00dfe 5", "addr:city": "Wien", "addr:postcode": "1020", "name": "HOFER", "opening_hours": "Sa 07:40-18:00; Su closed;Mo-Fr 07:40-20:00; ", "brand": "Aldi"}, "geometry": {"type": "Point", "coordinates": [16.38039, 48.2192]}},
{"type": "Feature", "id": "hlXun79cuEDyb4TTU1R_xfTkYME=", "properties": {"ref": "EZbLbMmHZPpOLB2f5c_L6A==", "@spider": "aldi_si", "addr:street": "Landstra\u00dfer Hauptstr. 100", "addr:city": "Wien", "addr:postcode": "1030", "name": "HOFER", "opening_hours": "Sa 07:40-18:00; Su closed;Mo-Fr 07:40-19:00; ", "brand": "Aldi"}, "geometry": {"type": "Point", "coordinates": [16.39449, 48.1984]}},
{"type": "Feature", "id": "CY4l8NMxxv-IP4jAVf8cgsxYF_8=", "properties": {"ref": "ApyVk4NLHTJHcOQZkECFJA==", "@spider": "aldi_si", "addr:street": "Paulanergasse 13", "addr:city": "Wien", "addr:postcode": "1040", "name": "HOFER", "opening_hours": "Sa 07:40-18:00; Su closed;Mo-Fr 07:40-19:00; ", "brand": "Aldi"}, "geometry": {"type": "Point", "coordinates": [16.36574, 48.19595]}},
{"type": "Feature", "id": "8ZV0EWMBwj_oJT0KZjtDKeo9S04=", "properties": {"ref": "vRnmeq061oOkH3RevHGMCQ==", "@spider": "aldi_si", "addr:street": "Fasangasse 25", "addr:city": "Wien", "addr:postcode": "1030", "name": "HOFER", "opening_hours": "Sa 07:40-18:00; Su closed;Mo-Fr 07:40-19:00; ", "brand": "Aldi"}, "geometry": {"type": "Point", "coordinates": [16.38595, 48.19217]}},
{"type": "Feature", "id": "iWtKpCy4bBMeA8yfH3fis0c-FGA=", "properties": {"ref": "Xyd9k9UCei0F9LcY1MqOKw==", "@spider": "aldi_si", "addr:street": "Rechte Wienzeile 35", "addr:city": "Wien", "addr:postcode": "1040", "name": "HOFER", "opening_hours": "Sa 07:40-18:00; Su closed;Mo-Fr 07:40-19:00; ", "brand": "Aldi"}, "geometry": {"type": "Point", "coordinates": [16.36062, 48.19653]}},
{"type": "Feature", "id": "dZ7kpfOKioaxQ22I1FMu_-7CLHQ=", "properties": {"ref": "5-sk0VVYM1cMIQAjtAmFvQ==", "@spider": "aldi_si", "addr:street": "Werkstra\u00dfe 18", "addr:city": "Ternitz", "addr:postcode": "2630", "name": "HOFER", "opening_hours": "Sa 07:40-18:00; Su closed;Mo-Fr 07:40-19:00; ", "brand": "Aldi"}, "geometry": {"type": "Point", "coordinates": [16.04028, 47.70977]}},
{"type": "Feature", "id": "VNIx309sZavPkeB0S9KRs1BdYbA=", "properties": {"ref": "3BNOhxtyslBCg1jgsGo-xw==", "@spider": "aldi_si", "addr:street": "Sandgasse 1", "addr:city": "Neunkirchen", "addr:postcode": "2620", "name": "HOFER", "opening_hours": "Sa 07:40-18:00; Su closed;Mo-Fr 07:40-19:00; ", "brand": "Aldi"}, "geometry": {"type": "Point", "coordinates": [16.068, 47.72179]}},
{"type": "Feature", "id": "TDPDMVknGy-rUk_qHbnTV5AWNA4=", "properties": {"ref": "idX0lmCdvHblIb1C-8c5wA==", "@spider": "aldi_si", "addr:street": "Mattersburger Stra\u00dfe 35", "addr:city": "Eisenstadt", "addr:postcode": "7000", "name": "HOFER", "opening_hours": "Sa 07:15-18:00; Su closed;Mo-Fr 07:15-19:00; ", "brand": "Aldi"}, "geometry": {"type": "Point", "coordinates": [16.52391, 47.82898]}},
{"type": "Feature", "id": "dPg6Jvp_0pKTU4NJL7EyuhI_oSo=", "properties": {"ref": "lRG8saxkcjCyiDpj9CshCQ==", "@spider": "aldi_si", "addr:street": "Haid\u00e4ckerstra\u00dfe 4", "addr:city": "Eisenstadt", "addr:postcode": "7000", "name": "HOFER", "opening_hours": "Sa 07:15-18:00; Su closed;Mo-Fr 07:15-19:00; ", "brand": "Aldi"}, "geometry": {"type": "Point", "coordinates": [16.5316, 47.82536]}},
{"type": "Feature", "id": "K70Q0T0vEZUVYmKND_25nYbOJhc=", "properties": {"ref": "k6tVgp9bGgMgVh9cjQ2Erg==", "@spider": "aldi_si", "addr:street": "Intro Park EKZ 1/Top 1", "addr:city": "Siegendorf", "addr:postcode": "7011", "name": "HOFER", "opening_hours": "Sa 07:40-18:00; Su closed;Mo-Fr 07:40-19:00; ", "brand": "Aldi"}, "geometry": {"type": "Point", "coordinates": [16.52767, 47.77553]}},
{"type": "Feature", "id": "dMc8eCAyqSlYKW5Fzn3CQAvidPE=", "properties": {"ref": "aX4TXb_a8nz9YntwAbC_pg==", "@spider": "aldi_si", "addr:street": "Bahnhofstra\u00dfe 26", "addr:city": "Ybbs", "addr:postcode": "3370", "name": "HOFER", "opening_hours": "Sa 07:30-18:00; Su closed;Mo-Fr 07:30-19:30; ", "brand": "Aldi"}, "geometry": {"type": "Point", "coordinates": [15.08598, 48.16723]}},
{"type": "Feature", "id": "iDSkTe5HJipLGRlvkEami1OkfXE=", "properties": {"ref": "RcVVqsASmJl0kF56Hpg-5Q==", "@spider": "aldi_si", "addr:street": "Betriebsgebiet Holzing 1", "addr:city": "Bergland", "addr:postcode": "3254", "name": "HOFER", "opening_hours": "Sa 07:30-18:00; Su closed;Mo-Fr 07:30-19:30; ", "brand": "Aldi"}, "geometry": {"type": "Point", "coordinates": [15.13775, 48.13898]}},
{"type": "Feature", "id": "jMZfVJwtIVfhpdMXkRErEAVvVq0=", "properties": {"ref": "aSt_cqURPk5s1x-FPSgbuQ==", "@spider": "aldi_si", "addr:street": "Erlauftalstra\u00dfe 49", "addr:city": "Purgstall", "addr:postcode": "3251", "name": "HOFER", "opening_hours": "Sa 07:30-18:00; Su closed;Mo-Fr 07:30-19:30; ", "brand": "Aldi"}, "geometry": {"type": "Point", "coordinates": [15.13482, 48.06444]}},
{"type": "Feature", "id": "dx9OrwOA1dtHaWHNjo2o-8FJLWw=", "properties": {"ref": "5wE3I7pAO3ORNoiEYqIrRg==", "@spider": "aldi_si", "addr:street": "Wiener Stra\u00dfe 523", "addr:city": "Linz", "addr:postcode": "4030", "name": "HOFER", "opening_hours": "Sa 07:40-18:00; Su closed;Mo-Fr 07:40-19:00; ", "brand": "Aldi"}, "geometry": {"type": "Point", "coordinates": [14.33165, 48.24441]}},
{"type": "Feature", "id": "_fVungrG_7U4M-BdYDVKbQ-Tkd4=", "properties": {"ref": "M34lrgQxOSgl3mvxuEXTTw==", "@spider": "aldi_si", "addr:street": "Forr\u00e1s utca 5.", "addr:city": "Miskolc", "addr:postcode": "3516", "name": "ALDI", "opening_hours": "Sa 06:30-21:00; Su 07:00-19:00; Mo-Fr 06:30-21:00; ", "brand": "Aldi"}, "geometry": {"type": "Point", "coordinates": [20.80006, 48.05444]}},
{"type": "Feature", "id": "sF4bkshUPj5yMpg0bhkTZlkPwn0=", "properties": {"ref": "c_Z7wTmY5PXFn1ssVeFFqg==", "@spider": "aldi_si", "addr:street": "Lerchenfelder Stra\u00dfe 14", "addr:city": "Wien", "addr:postcode": "1080", "name": "HOFER", "opening_hours": "Sa 07:40-18:00; Su closed;Mo-Fr 07:40-19:00; ", "brand": "Aldi"}, "geometry": {"type": "Point", "coordinates": [16.3526, 48.20654]}},
{"type": "Feature", "id": "LLDLbUanDSjk69_qsGe98wJU1oA=", "properties": {"ref": "q_TXq8lnFJ_QnAOOTU5BGg==", "@spider": "aldi_si", "addr:street": "Am Tabor 42 - 44", "addr:city": "Wien", "addr:postcode": "1020", "name": "HOFER", "opening_hours": "Sa 07:40-18:00; Su closed;Mo-Fr 07:40-20:00; ", "brand": "Aldi"}, "geometry": {"type": "Point", "coordinates": [16.3929, 48.22381]}},
{"type": "Feature", "id": "RMs7MChmV-ubiaYWiKgS4B1pjYY=", "properties": {"ref": "53cK9vamezjgri_vKEH-5A==", "@spider": "aldi_si", "addr:street": "Favoritenstra\u00dfe 27, 27a", "addr:city": "Wien", "addr:postcode": "1040", "name": "HOFER", "opening_hours": "Sa 07:40-18:00; Su closed;Mo-Fr 07:40-19:00; ", "brand": "Aldi"}, "geometry": {"type": "Point", "coordinates": [16.37253, 48.18956]}},
{"type": "Feature", "id": "SSYnYhlfzSUMBbRiWupHq7mv4nc=", "properties": {"ref": "8ZpgciwSbfRSe-j_MjTPzQ==", "@spider": "aldi_si", "addr:street": "Erdberger L\u00e4nde 36-38", "addr:city": "Wien", "addr:postcode": "1030", "name": "HOFER", "opening_hours": "Sa 07:40-18:00; Su closed;Mo-Fr 07:40-19:00; ", "brand": "Aldi"}, "geometry": {"type": "Point", "coordinates": [16.40645, 48.20026]}},
{"type": "Feature", "id": "vFwvKefaw15aVcS87pUW-AxZ4Ck=", "properties": {"ref": "t184NLx9NSyPUnMil9_rRA==", "@spider": "aldi_si", "addr:street": "Karl-Popper-Stra\u00dfe 2", "addr:city": "Wien", "addr:postcode": "1100", "name": "HOFER", "opening_hours": "Sa 07:40-18:00; Su closed;Mo-Fr 07:40-19:00; ", "brand": "Aldi"}, "geometry": {"type": "Point", "coordinates": [16.37928, 48.18728]}},
{"type": "Feature", "id": "_uL12XxpT2mBqWXZ8W6tVAMSOkM=", "properties": {"ref": "HlPs37AylreUmzzbOrFMvg==", "@spider": "aldi_si", "addr:street": "Szabads\u00e1g \u00fat 21.", "addr:city": "G\u00e1rdony", "addr:postcode": "2484", "name": "ALDI", "opening_hours": "Sa 07:00-21:00; Su 07:00-19:00; Mo-Fr 07:00-21:00; ", "brand": "Aldi"}, "geometry": {"type": "Point", "coordinates": [18.61846, 47.20206]}},
{"type": "Feature", "id": "M9Kk17S8NYWKd9_IfiT0oBQ6Dzw=", "properties": {"ref": "Ui7Mc01WlAb2Lb8pBLS0hQ==", "@spider": "aldi_si", "addr:street": "Sz\u00e9kelyh\u00edd utca 23.", "addr:city": "Budapest", "addr:postcode": "1204", "name": "ALDI", "opening_hours": "Sa 07:00-21:00; Su 07:00-19:00; Mo-Fr 07:00-21:00; ", "brand": "Aldi"}, "geometry": {"type": "Point", "coordinates": [19.11875, 47.43214]}},
{"type": "Feature", "id": "hJoKxSnEjLIaIQ2HWIRYDmSnFM8=", "properties": {"ref": "xW7csbLcBZcdOh86M2vzUw==", "@spider": "aldi_si", "addr:street": "Manker Stra\u00dfe 59", "addr:city": "P\u00f6chlarn", "addr:postcode": "3380", "name": "HOFER", "opening_hours": "Sa 07:40-18:00; Su closed;Mo-Fr 07:40-20:00; ", "brand": "Aldi"}, "geometry": {"type": "Point", "coordinates": [15.2209, 48.2002]}},
{"type": "Feature", "id": "BBEeSrQNMOk6BTzSDeN-D4J_WsY=", "properties": {"ref": "Up8UJVQJSsXViH61lCi-sw==", "@spider": "aldi_si", "addr:street": "Wiener Stra\u00dfe 435a", "addr:city": "Linz", "addr:postcode": "4030", "name": "HOFER", "opening_hours": "Sa 07:40-18:00; Su closed;Mo-Fr 07:40-19:00; ", "brand": "Aldi"}, "geometry": {"type": "Point", "coordinates": [14.32312, 48.2504]}},
{"type": "Feature", "id": "ppT8S95FcxZXXBcy05yyOJW4udg=", "properties": {"ref": "ASXg1heRX1ys6BQDhdwt0Q==", "@spider": "aldi_si", "addr:street": "Im Astenfeld 2", "addr:city": "St. Florian", "addr:postcode": "4490", "name": "HOFER", "opening_hours": "Sa 07:40-18:00; Su closed;Mo-Fr 07:40-19:00; ", "brand": "Aldi"}, "geometry": {"type": "Point", "coordinates": [14.39383, 48.22663]}},
{"type": "Feature", "id": "A0dba5-6UfMRFg-Z7_df7SiYTWc=", "properties": {"ref": "Bl9JJA91DYjd2TGzgjtmgA==", "@spider": "aldi_si", "addr:street": "Dauphinestra\u00dfe 202", "addr:city": "Linz", "addr:postcode": "4030", "name": "HOFER", "opening_hours": "Sa 07:40-18:00; Su closed;Mo-Fr 07:40-19:00; ", "brand": "Aldi"}, "geometry": {"type": "Point", "coordinates": [14.29006, 48.2531]}},
{"type": "Feature", "id": "gQNhLEZHkgKCw9CqMlhZklq_Hws=", "properties": {"ref": "EKya142etzt_dQes_KiHoQ==", "@spider": "aldi_si", "addr:street": "Nordwestbahnstra\u00dfe 8", "addr:city": "Wien", "addr:postcode": "1200", "name": "HOFER", "opening_hours": "Sa 07:40-18:00; Su closed;Mo-Fr 07:40-20:00; ", "brand": "Aldi"}, "geometry": {"type": "Point", "coordinates": [16.38025, 48.22903]}},
{"type": "Feature", "id": "m-5cuUn-Xs0deF39i4l52GhBzIc=", "properties": {"ref": "pyUH1azhSzopKQiyVEHmHg==", "@spider": "aldi_si", "addr:street": "Alserbachstra\u00dfe 18", "addr:city": "Wien", "addr:postcode": "1090", "name": "HOFER", "opening_hours": "Sa 07:40-18:00; Su closed;Mo-Fr 07:40-20:00; ", "brand": "Aldi"}, "geometry": {"type": "Point", "coordinates": [16.3601, 48.22522]}},
{"type": "Feature", "id": "D6QUg5ZEqqmh4IU2NtJikJZjRHA=", "properties": {"ref": "TTqBpPMdK1HC7cHscGfTdQ==", "@spider": "aldi_si", "addr:street": "Landstra\u00dfer Hauptstra\u00dfe 167", "addr:city": "Wien", "addr:postcode": "1030", "name": "HOFER", "opening_hours": "Sa 07:40-18:00; Su closed;Mo-Fr 07:40-19:00; ", "brand": "Aldi"}, "geometry": {"type": "Point", "coordinates": [16.40099, 48.19107]}},
{"type": "Feature", "id": "2xIHZX7mVNfUze3Ubbx47QbzTwc=", "properties": {"ref": "lL8CzINI4vyZO3hTg62cJQ==", "@spider": "aldi_si", "addr:street": "Feh\u00e9rk\u0151 utca 5.", "addr:city": "F\u00f3t", "addr:postcode": "2151", "name": "ALDI", "opening_hours": "Sa 07:00-21:00; Su 07:00-19:00; Mo-Fr 07:00-21:00; ", "brand": "Aldi"}, "geometry": {"type": "Point", "coordinates": [19.15825, 47.58033]}},
{"type": "Feature", "id": "Ffk6NVIn31xH-iZcQ98mxFVj5KU=", "properties": {"ref": "T_wIVUIF77OhPYLjbO-xBA==", "@spider": "aldi_si", "addr:street": "Sul\u00e1k utca 2.", "addr:city": "\u00c9rd", "addr:postcode": "2030", "name": "ALDI", "opening_hours": "Sa 06:30-21:00; Su 07:00-19:00; Mo-Fr 06:30-21:00; ", "brand": "Aldi"}, "geometry": {"type": "Point", "coordinates": [18.93978, 47.37833]}},
{"type": "Feature", "id": "d3JY1nBXdGdV5CSnICCGdfNPMLk=", "properties": {"ref": "4qxHmIGR9ppkv7f1tWm_Hw==", "@spider": "aldi_si", "addr:street": "S\u00fcssen utca 1.", "addr:city": "T\u00f6r\u00f6kb\u00e1lint", "addr:postcode": "2045", "name": "ALDI", "opening_hours": "Sa 07:00-20:00; Su 07:00-19:00; Mo-Fr 07:00-20:00; ", "brand": "Aldi"}, "geometry": {"type": "Point", "coordinates": [18.88518, 47.44477]}},
{"type": "Feature", "id": "hHIVqoTVOHd2qxCQYlRCpV-wrdY=", "properties": {"ref": "LIvg2WQO_TW3YaDO12Yh-g==", "@spider": "aldi_si", "addr:street": "Kand\u00f3 K\u00e1lm\u00e1n utca 2.", "addr:city": "Buda\u00f6rs", "addr:postcode": "2040", "name": "ALDI", "opening_hours": "Sa 07:00-21:00; Su 07:00-19:00; Mo-Fr 07:00-21:00; ", "brand": "Aldi"}, "geometry": {"type": "Point", "coordinates": [18.89514, 47.46361]}},
{"type": "Feature", "id": "utvc9LnDBX6msOYhXvUpOtPj9rc=", "properties": {"ref": "qn4R_Y94W6_zN9QHY1BYgg==", "@spider": "aldi_si", "addr:street": "Korbuly utca 1.", "addr:city": "Hal\u00e1sztelek", "addr:postcode": "2314", "name": "ALDI", "opening_hours": "Sa 07:00-21:00; Su 07:00-19:00; Mo-Fr 07:00-21:00; ", "brand": "Aldi"}, "geometry": {"type": "Point", "coordinates": [19.00308, 47.37573]}},
{"type": "Feature", "id": "CD3r4bLjX7CZqPi9SF3QcbDJYfY=", "properties": {"ref": "CM7XpmRWn3g2BKtXdqPoNQ==", "@spider": "aldi_si", "addr:street": "Nagyt\u00e9t\u00e9nyi \u00fat 145-147.", "addr:city": "Budapest", "addr:postcode": "1225", "name": "ALDI", "opening_hours": "Sa 07:00-21:00; Su 07:00-19:00; Mo-Fr 07:00-21:00; ", "brand": "Aldi"}, "geometry": {"type": "Point", "coordinates": [19.00505, 47.39944]}},
{"type": "Feature", "id": "1bs79Pjq1v17mF4OUF7Md4g6MHE=", "properties": {"ref": "JRvUXXYNQtNoQszlcP6DXg==", "@spider": "aldi_si", "addr:street": "Hofherr Albert utca 40/a.", "addr:city": "Budapest", "addr:postcode": "1194", "name": "ALDI", "opening_hours": "Sa 06:30-21:00; Su 07:00-19:00; Mo-Fr 06:30-21:00; ", "brand": "Aldi"}, "geometry": {"type": "Point", "coordinates": [19.1471, 47.43726]}},
{"type": "Feature", "id": "1EI96zTZhiJZLgZ46lWak4REFlI=", "properties": {"ref": "8B5BV7ZKcilN_2KB3OVjew==", "@spider": "aldi_si", "addr:street": "Soroks\u00e1ri \u00fat 138-142.", "addr:city": "Budapest", "addr:postcode": "1095", "name": "ALDI", "opening_hours": "Sa 06:30-21:00; Su 07:00-19:00; Mo-Fr 06:30-21:00; ", "brand": "Aldi"}, "geometry": {"type": "Point", "coordinates": [19.08749, 47.45429]}},
{"type": "Feature", "id": "hdVEBtOycxyW78b9NjlhipmjvS8=", "properties": {"ref": "5ajGlBjDII8rQcH_hfsnZA==", "@spider": "aldi_si", "addr:street": "Szalay utca 7-17.", "addr:city": "Budapest", "addr:postcode": "1191", "name": "ALDI", "opening_hours": "Sa 07:00-21:00; Su 07:00-19:00; Mo-Fr 07:00-21:00; ", "brand": "Aldi"}, "geometry": {"type": "Point", "coordinates": [19.13137, 47.46263]}},
{"type": "Feature", "id": "fh55277pKUWhSSin6BUCQHPa8Hk=", "properties": {"ref": "dSzp5AnBjQq3SI3gl7XFNw==", "@spider": "aldi_si", "addr:street": "K\u00f6ves \u00fat 9.", "addr:city": "Budapest", "addr:postcode": "1204", "name": "ALDI", "opening_hours": "Sa 07:00-20:00; Su 07:00-19:00; Mo-Fr 07:00-20:00; ", "brand": "Aldi"}, "geometry": {"type": "Point", "coordinates": [19.14273, 47.41664]}},
{"type": "Feature", "id": "sh-JJzGBx70LXjSYVJoUcJZUcL4=", "properties": {"ref": "MMvgDOHiO0RtFkbrTkavDA==", "@spider": "aldi_si", "addr:street": "Fosenstra\u00dfe 2", "addr:city": "Freistadt", "addr:postcode": "4240", "name": "HOFER", "opening_hours": "Sa 07:15-18:00; Su closed;Mo-Fr 07:15-19:00; ", "brand": "Aldi"}, "geometry": {"type": "Point", "coordinates": [14.50508, 48.51699]}},
{"type": "Feature", "id": "dByLCCY4Pbrlnzr3uiPSiXyCr9g=", "properties": {"ref": "E4EXrrOn1VQ2Mz57orUidw==", "@spider": "aldi_si", "addr:street": "B\u00e9csi \u00fat 35-36.", "addr:city": "T\u00e1t", "addr:postcode": "2534", "name": "ALDI", "opening_hours": "Sa 07:00-20:00; Su 07:00-19:00; Mo-Fr 07:00-20:00; ", "brand": "Aldi"}, "geometry": {"type": "Point", "coordinates": [18.66064, 47.73847]}},
{"type": "Feature", "id": "SWNBd-irxvypdlG98yFAkF1AXls=", "properties": {"ref": "AV9sl339Otx7qSpIgKVUWQ==", "@spider": "aldi_si", "addr:street": "F\u0151 \u00fat 2.", "addr:city": "Piliscsaba", "addr:postcode": "2081", "name": "ALDI", "opening_hours": "Sa 07:00-21:00; Su 07:00-19:00; Mo-Fr 07:00-21:00; ", "brand": "Aldi"}, "geometry": {"type": "Point", "coordinates": [18.85223, 47.62772]}},
{"type": "Feature", "id": "R_6ZJO50K7ZdRWAwcTCi6Ms8vM0=", "properties": {"ref": "6Dt3R4A2G0dE2_TsssEPGw==", "@spider": "aldi_si", "addr:street": "Schulgasse 15", "addr:city": "Schrems", "addr:postcode": "3943", "name": "HOFER", "opening_hours": "Sa 07:15-18:00; Su closed;Mo-Fr 07:15-19:30; ", "brand": "Aldi"}, "geometry": {"type": "Point", "coordinates": [15.06774, 48.79347]}},
{"type": "Feature", "id": "DXFjB3dZ1x-VvjdS0qAVxaO-95Q=", "properties": {"ref": "4EsOrfDAHQDS7zggZhRzBg==", "@spider": "aldi_si", "addr:street": "Auweg 2", "addr:city": "Ansfelden", "addr:postcode": "4052", "name": "HOFER", "opening_hours": "Sa 07:40-18:00; Su closed;Mo-Fr 07:40-19:00; ", "brand": "Aldi"}, "geometry": {"type": "Point", "coordinates": [14.2766, 48.21458]}},
{"type": "Feature", "id": "Utt2uwYaRUt19RW-h_JEC_-2Tuc=", "properties": {"ref": "D-1CYtr7ePMwmv1K4eZO3Q==", "@spider": "aldi_si", "addr:street": "Ausstellungsstra\u00dfe 50", "addr:city": "Wien", "addr:postcode": "1020", "name": "HOFER", "opening_hours": "Sa 07:40-18:00; Su closed;Mo-Fr 07:40-20:00; ", "brand": "Aldi"}, "geometry": {"type": "Point", "coordinates": [16.40984, 48.21768]}},
{"type": "Feature", "id": "rPdfp1KamrquwoNTueKnlhUvTJE=", "properties": {"ref": "ztYdMp19lrBrjU71GWre0Q==", "@spider": "aldi_si", "addr:street": "Nussdorfer Stra\u00dfe 4-4a", "addr:city": "Wien", "addr:postcode": "1090", "name": "HOFER", "opening_hours": "Sa 07:40-18:00; Su closed;Mo-Fr 07:40-20:00; ", "brand": "Aldi"}, "geometry": {"type": "Point", "coordinates": [16.35354, 48.22235]}},
{"type": "Feature", "id": "v2dZyKoEUA0EJRqSPkj_swryeNs=", "properties": {"ref": "JiK3RoVK4Wk0P4qi2qgoIA==", "@spider": "aldi_si", "addr:street": "Mariahilferstra\u00dfe 85-87", "addr:city": "Wien", "addr:postcode": "1060", "name": "HOFER", "opening_hours": "Sa 07:40-18:00; Su closed;Mo-Fr 07:40-19:00; ", "brand": "Aldi"}, "geometry": {"type": "Point", "coordinates": [16.34859, 48.19736]}},
{"type": "Feature", "id": "gT07OzhaEOKBOOK8R_5AnyeBnGw=", "properties": {"ref": "yi1MOmw9BpMQYm66Rzxycg==", "@spider": "aldi_si", "addr:street": "Engerthstra\u00dfe 187", "addr:city": "Wien", "addr:postcode": "1020", "name": "HOFER", "opening_hours": "Sa 07:40-18:00; Su closed;Mo-Fr 07:40-20:00; ", "brand": "Aldi"}, "geometry": {"type": "Point", "coordinates": [16.40539, 48.22344]}},
{"type": "Feature", "id": "b9qkGnZ5GwCCi6NWLowCuERdYHI=", "properties": {"ref": "PjZoolFD0teyiZqw1pX7tw==", "@spider": "aldi_si", "addr:street": "\u00d3ce\u00e1n\u00e1rok utca 3-5.", "addr:city": "Budapest", "addr:postcode": "1048", "name": "ALDI", "opening_hours": "Sa 07:00-21:00; Su 07:00-19:00; Mo-Fr 07:00-21:00; ", "brand": "Aldi"}, "geometry": {"type": "Point", "coordinates": [19.11457, 47.57878]}},
{"type": "Feature", "id": "tYf00QfSfGaqOG605l_w74LT8g8=", "properties": {"ref": "vswXUgIY7KSobv-4fJjUZw==", "@spider": "aldi_si", "addr:street": "R\u00e9gi F\u00f3ti \u00fat 64.", "addr:city": "Budapest", "addr:postcode": "1152", "name": "ALDI", "opening_hours": "Sa 07:00-21:00; Su 07:00-19:00; Mo-Fr 07:00-21:00; ", "brand": "Aldi"}, "geometry": {"type": "Point", "coordinates": [19.12286, 47.56197]}},
{"type": "Feature", "id": "-y5Yj_z8wfUKN4RpwwHkG6QGyOQ=", "properties": {"ref": "QIgD45-RDa-ItJI2f7Rj9g==", "@spider": "aldi_si", "addr:street": "Pallag utca 68.", "addr:city": "Dunakeszi", "addr:postcode": "2120", "name": "ALDI", "opening_hours": "Sa 07:00-21:00; Su 07:00-19:00; Mo-Fr 07:00-21:00; ", "brand": "Aldi"}, "geometry": {"type": "Point", "coordinates": [19.12185, 47.62201]}},
{"type": "Feature", "id": "cL4BlSFMzmawoPp-_Bc5d1ENhpA=", "properties": {"ref": "a-R_91lm7IWHxuSFwemczw==", "@spider": "aldi_si", "addr:street": "Erd\u0151ker\u00fcl\u0151 u. 47.", "addr:city": "Budapest", "addr:postcode": "1157", "name": "ALDI", "opening_hours": "Sa 07:00-21:00; Su 07:00-19:00; Mo-Fr 07:00-21:00; ", "brand": "Aldi"}, "geometry": {"type": "Point", "coordinates": [19.15137, 47.54117]}},
{"type": "Feature", "id": "WDSVAUcPTQbyK2sPNh6-qiAFZHY=", "properties": {"ref": "QQZjoOQSab70CtFWIqbybw==", "@spider": "aldi_si", "addr:street": "K\u00e9sm\u00e1rk utca 10.", "addr:city": "Budapest", "addr:postcode": "1158", "name": "ALDI", "opening_hours": "Sa 07:00-21:00; Su 07:00-19:00; Mo-Fr 07:00-21:00; ", "brand": "Aldi"}, "geometry": {"type": "Point", "coordinates": [19.14225, 47.5343]}},
{"type": "Feature", "id": "H7KV2jVcj4iBxd7AxQEPzxlyVTI=", "properties": {"ref": "L52me_kOX4csV-w4YSRsOQ==", "@spider": "aldi_si", "addr:street": "Malomk\u0151 utca 3.", "addr:city": "Buda\u00f6rs", "addr:postcode": "2040", "name": "ALDI", "opening_hours": "Sa 07:00-21:00; Su 07:00-19:00; Mo-Fr 07:00-21:00; ", "brand": "Aldi"}, "geometry": {"type": "Point", "coordinates": [18.97107, 47.4533]}},
{"type": "Feature", "id": "QmslNlkFM630JwyJB4b2_iHqQwI=", "properties": {"ref": "wDuAI3QQGgl4iKDBJkF_kA==", "@spider": "aldi_si", "addr:street": "\u00dcll\u0151i \u00fat 280.", "addr:city": "Budapest", "addr:postcode": "1195", "name": "ALDI", "opening_hours": "Sa 07:00-21:00; Su 07:00-19:00; Mo-Fr 07:00-21:00; ", "brand": "Aldi"}, "geometry": {"type": "Point", "coordinates": [19.15581, 47.45283]}},
{"type": "Feature", "id": "oheH-hyg4YGA-6kdqPLRqx68kdU=", "properties": {"ref": "Lltvz-I2XAyYllF0fpPkCg==", "@spider": "aldi_si", "addr:street": "Szent Imre t\u00e9r 6-8.", "addr:city": "Budapest", "addr:postcode": "1211", "name": "ALDI", "opening_hours": "Sa 06:00-21:00; Su 07:00-19:00; Mo-Fr 06:00-21:00; ", "brand": "Aldi"}, "geometry": {"type": "Point", "coordinates": [19.0673, 47.4314]}},
{"type": "Feature", "id": "zXSc_lxX3nZouxB9yUXg3fP89Ek=", "properties": {"ref": "hIt9bF30mDeUC523fGzl3A==", "@spider": "aldi_si", "addr:street": "II. R\u00e1k\u00f3czi F. \u00fat 154-170.", "addr:city": "Budapest", "addr:postcode": "1211", "name": "ALDI", "opening_hours": "Sa 06:30-21:00; Su 07:00-19:00; Mo-Fr 06:30-21:00; ", "brand": "Aldi"}, "geometry": {"type": "Point", "coordinates": [19.06782, 47.42384]}},
{"type": "Feature", "id": "V83kgLPZ6X8xwjy-Z5eP74znBrg=", "properties": {"ref": "z7E7QCIKRD9UUs5cBOnUYQ==", "@spider": "aldi_si", "addr:street": "Pulkauerstra\u00dfe 36", "addr:city": "Eggenburg", "addr:postcode": "3730", "name": "HOFER", "opening_hours": "Sa 07:15-18:00; Su closed;Mo-Fr 07:15-19:30; ", "brand": "Aldi"}, "geometry": {"type": "Point", "coordinates": [15.82316, 48.64773]}},
{"type": "Feature", "id": "w_WDAmryxs7zQG3mP_Pg1vgikMo=", "properties": {"ref": "1p_7lfgJUGOaTbo7uD7Tyw==", "@spider": "aldi_si", "addr:street": "Mozdony u. 2.", "addr:city": "Cegl\u00e9d", "addr:postcode": "2700", "name": "ALDI", "opening_hours": "Sa 07:00-21:00; Su 07:00-19:00; Mo-Fr 07:00-21:00; ", "brand": "Aldi"}, "geometry": {"type": "Point", "coordinates": [19.80189, 47.18244]}},
{"type": "Feature", "id": "EeSyVrSG6GfM8Ez7_DnBOvt7dlE=", "properties": {"ref": "2SscgE2mU5x48WN1ysz5Vw==", "@spider": "aldi_si", "addr:street": "Pesti \u00fat 93.", "addr:city": "Cegl\u00e9d", "addr:postcode": "2700", "name": "ALDI", "opening_hours": "Sa 07:00-20:00; Su 07:00-19:00; Mo-Fr 07:00-20:00; ", "brand": "Aldi"}, "geometry": {"type": "Point", "coordinates": [19.77475, 47.17774]}},
{"type": "Feature", "id": "QVqjBBdBIYnMlJqxGMlqQiWka88=", "properties": {"ref": "u-rIEXzaWsQg7n9Iftl94Q==", "@spider": "aldi_si", "addr:street": "Sz\u00e9chenyi Istv\u00e1n k\u00f6r\u00fat 139.", "addr:city": "Szolnok", "addr:postcode": "5000", "name": "ALDI", "opening_hours": "Sa 07:00-20:00; Su 07:00-19:00; Mo-Fr 07:00-20:00; ", "brand": "Aldi"}, "geometry": {"type": "Point", "coordinates": [20.17931, 47.19392]}},
{"type": "Feature", "id": "NAO77WwhuVPlDPagCgssyxnmNoY=", "properties": {"ref": "a5rs6Z73Uj-0LT9t3H3Kgw==", "@spider": "aldi_si", "addr:street": "Fels\u0151-Szandai r\u00e9t 9.", "addr:city": "Szolnok", "addr:postcode": "5000", "name": "ALDI", "opening_hours": "Sa 07:00-20:00; Su 07:00-19:00; Mo-Fr 07:00-20:00; ", "brand": "Aldi"}, "geometry": {"type": "Point", "coordinates": [20.19815, 47.1567]}},
{"type": "Feature", "id": "4S5tNHi05yOOqx6Eba9hVy4w3A0=", "properties": {"ref": "IsCPvL0zie0NpN1lpMq37A==", "@spider": "aldi_si", "addr:street": "Maderspergerstra\u00dfe 2", "addr:city": "Freistadt", "addr:postcode": "4240", "name": "HOFER", "opening_hours": "Sa 07:15-18:00; Su closed;Mo-Fr 07:15-19:00; ", "brand": "Aldi"}, "geometry": {"type": "Point", "coordinates": [14.50452, 48.4961]}},
{"type": "Feature", "id": "h-BHzfKV_Eh1aV1ykuTccA5JbJc=", "properties": {"ref": "tNHoj4iOOXQ_DZKTPRwPHQ==", "@spider": "aldi_si", "addr:street": "B\u00f6hmer Stra\u00dfe 32", "addr:city": "Bad Leonfelden", "addr:postcode": "4190", "name": "HOFER", "opening_hours": "Sa 07:15-18:00; Su closed;Mo-Fr 07:15-19:00; ", "brand": "Aldi"}, "geometry": {"type": "Point", "coordinates": [14.29449, 48.52762]}},
{"type": "Feature", "id": "cLmCXh1XxnrcSx86csjawG-1YIo=", "properties": {"ref": "xME6o9XJ2K6mPp7k_IJB1g==", "@spider": "aldi_si", "addr:street": "Emerich-Berger-Stra\u00dfe 7", "addr:city": "Gm\u00fcnd", "addr:postcode": "3950", "name": "HOFER", "opening_hours": "Sa 07:30-18:00; Su closed;Mo-Fr 07:30-19:30; ", "brand": "Aldi"}, "geometry": {"type": "Point", "coordinates": [14.98052, 48.76575]}},
{"type": "Feature", "id": "8lYWVmdP1xg2xER49NKwILTdcLc=", "properties": {"ref": "G6IezVRPswPZXrh9GDKJ8g==", "@spider": "aldi_si", "addr:street": "St. P\u00f6ltner Stra\u00dfe 75-81", "addr:city": "Herzogenburg", "addr:postcode": "3130", "name": "HOFER", "opening_hours": "Sa 07:30-18:00; Su closed;Mo-Fr 07:30-19:30; ", "brand": "Aldi"}, "geometry": {"type": "Point", "coordinates": [15.69249, 48.27381]}},
{"type": "Feature", "id": "f-6xFJjXyVpOJZ2wVtIlgKac0p4=", "properties": {"ref": "hmU6j9qDoFER0m_FHPJHdQ==", "@spider": "aldi_si", "addr:street": "Hainfelder Stra\u00dfe 6", "addr:city": "B\u00f6heimkirchen", "addr:postcode": "3071", "name": "HOFER", "opening_hours": "Sa 07:30-18:00; Su closed;Mo-Fr 07:30-19:30; ", "brand": "Aldi"}, "geometry": {"type": "Point", "coordinates": [15.76511, 48.19587]}},
{"type": "Feature", "id": "RpACbYVA-dyMDmCltQ1EiNQd8Mc=", "properties": {"ref": "PpbPi7k4U0VQyThf_dYm5w==", "@spider": "aldi_si", "addr:street": "Gaym\u00fchlengasse 2", "addr:city": "Neulengbach", "addr:postcode": "3040", "name": "HOFER", "opening_hours": "Sa 07:40-18:00; Su closed;Mo-Fr 07:40-20:00; ", "brand": "Aldi"}, "geometry": {"type": "Point", "coordinates": [15.89979, 48.20032]}},
{"type": "Feature", "id": "Jo8DJnEWqwlzXJPkglVJgTdYpWk=", "properties": {"ref": "oJ-_6FTpOA7z9RLlsmz-Sg==", "@spider": "aldi_si", "addr:street": "Wiener Stra\u00dfe 179", "addr:city": "Linz", "addr:postcode": "4020", "name": "HOFER", "opening_hours": "Sa 07:40-18:00; Su closed;Mo-Fr 07:40-19:00; ", "brand": "Aldi"}, "geometry": {"type": "Point", "coordinates": [14.31175, 48.278]}},
{"type": "Feature", "id": "HS4G1xN0lRB3wstXh4kku4Pw1aM=", "properties": {"ref": "rgONkwhoMuIUbVFg1hHMgA==", "@spider": "aldi_si", "addr:street": "Salzburger Stra\u00dfe 337", "addr:city": "Linz", "addr:postcode": "4030", "name": "HOFER", "opening_hours": "Sa 07:40-18:00; Su closed;Mo-Fr 07:40-19:00; ", "brand": "Aldi"}, "geometry": {"type": "Point", "coordinates": [14.27176, 48.24971]}},
{"type": "Feature", "id": "5CilHZ-74UVNBRcDH9zTTT69HmU=", "properties": {"ref": "NC5TPwUhLoha_lkaisfjUQ==", "@spider": "aldi_si", "addr:street": "Linzer Stra\u00dfe 53", "addr:city": "Steyregg", "addr:postcode": "4221", "name": "HOFER", "opening_hours": "Sa 07:15-18:00; Su closed;Mo-Fr 07:15-19:00; ", "brand": "Aldi"}, "geometry": {"type": "Point", "coordinates": [14.35341, 48.28455]}},
{"type": "Feature", "id": "2g7rcT7mott4XuxlAqOVvaT2Mf8=", "properties": {"ref": "zXk2qxmOKnNbcervE5JtKQ==", "@spider": "aldi_si", "addr:street": "Unionstra\u00dfe 157", "addr:city": "Linz", "addr:postcode": "4020", "name": "HOFER", "opening_hours": "Sa 07:40-18:00; Su closed;Mo-Fr 07:40-19:00; ", "brand": "Aldi"}, "geometry": {"type": "Point", "coordinates": [14.27523, 48.27593]}},
{"type": "Feature", "id": "Y-3_jooOoSCIj2zesezQQiIBWBU=", "properties": {"ref": "xPEk5S31vO-PKshdEqKPsA==", "@spider": "aldi_si", "addr:street": "Richterstra\u00dfe 5", "addr:city": "Leonding", "addr:postcode": "4060", "name": "HOFER", "opening_hours": "Sa 07:40-18:00; Su closed;Mo-Fr 07:40-19:00; ", "brand": "Aldi"}, "geometry": {"type": "Point", "coordinates": [14.26771, 48.27164]}},
{"type": "Feature", "id": "x_T5YaZtfmQuBrM8z8qhaGJiFLc=", "properties": {"ref": "l6YpV9Q9bSvVcJLecnDXFQ==", "@spider": "aldi_si", "addr:street": "Oberhoferstra\u00dfe 150", "addr:city": "Mistelbach", "addr:postcode": "2130", "name": "HOFER", "opening_hours": "Sa 07:40-18:00; Su closed;Mo-Fr 07:40-20:00; ", "brand": "Aldi"}, "geometry": {"type": "Point", "coordinates": [16.56492, 48.5801]}},
{"type": "Feature", "id": "_B_6yH5MH4_rMh_e_CAb2ADyy5s=", "properties": {"ref": "hDiOcF5cXSF7LyAYzXH3eA==", "@spider": "aldi_si", "addr:street": "Ernstbrunnerstra\u00dfe 2", "addr:city": "Mistelbach", "addr:postcode": "2130", "name": "HOFER", "opening_hours": "Sa 07:40-18:00; Su closed;Mo-Fr 07:40-20:00; ", "brand": "Aldi"}, "geometry": {"type": "Point", "coordinates": [16.55897, 48.56048]}},
{"type": "Feature", "id": "yosrdrhYVLDsN2Sf252zB0_NsS4=", "properties": {"ref": "-vRVF3_rrF8pFrNSKmJQjg==", "@spider": "aldi_si", "addr:street": "Baumfeldstra\u00dfe 2", "addr:city": "Poysdorf", "addr:postcode": "2170", "name": "HOFER", "opening_hours": "Sa 07:15-18:00; Su closed;Mo-Fr 07:15-19:30; ", "brand": "Aldi"}, "geometry": {"type": "Point", "coordinates": [16.63158, 48.65643]}},
{"type": "Feature", "id": "gKx2Ariff3cJiXPY6PIfQsNLwHA=", "properties": {"ref": "l22xhf6-IhhRuSjf02wTiQ==", "@spider": "aldi_si", "addr:street": "Zieglergasse 58-64", "addr:city": "Wien", "addr:postcode": "1070", "name": "HOFER", "opening_hours": "Sa 07:40-18:00; Su closed;Mo-Fr 07:40-19:00; ", "brand": "Aldi"}, "geometry": {"type": "Point", "coordinates": [16.34525, 48.20357]}},
{"type": "Feature", "id": "cOS0Hqr6ayir0xBGW2Niu9unchQ=", "properties": {"ref": "U8USomUeJ2_9EqkLn4OTDw==", "@spider": "aldi_si", "addr:street": "Nikolsdorfergasse 7-11", "addr:city": "Wien", "addr:postcode": "1050", "name": "HOFER", "opening_hours": "Sa 07:40-18:00; Su closed;Mo-Fr 07:40-19:00; ", "brand": "Aldi"}, "geometry": {"type": "Point", "coordinates": [16.36287, 48.18669]}},
{"type": "Feature", "id": "6j8Gclklz3qYf7ez0IU-f7oICQQ=", "properties": {"ref": "roWn0oeKDCr1LRrLNcdu9Q==", "@spider": "aldi_si", "addr:street": "Engerthstra\u00dfe 154B", "addr:city": "Wien", "addr:postcode": "1020", "name": "HOFER", "opening_hours": "Sa 07:40-18:00; Su closed;Mo-Fr 07:40-20:00; ", "brand": "Aldi"}, "geometry": {"type": "Point", "coordinates": [16.39867, 48.22832]}},
{"type": "Feature", "id": "352ouwn6DRjr1r5BS8vZ0XDT100=", "properties": {"ref": "_2IssYRfE1ctQZ98snr-9A==", "@spider": "aldi_si", "addr:street": "Brigittenauer L\u00e4nde 50-54", "addr:city": "Wien", "addr:postcode": "1200", "name": "HOFER", "opening_hours": "Sa 07:40-18:00; Su closed;Mo-Fr 07:40-20:00; ", "brand": "Aldi"}, "geometry": {"type": "Point", "coordinates": [16.36435, 48.22999]}},
{"type": "Feature", "id": "2opGu06w50goueh4mE_mz1WArU8=", "properties": {"ref": "dA1CWCGt42oQ_mfwD0acBg==", "@spider": "aldi_si", "addr:street": "Br\u00e4uhausgasse 37", "addr:city": "Wien", "addr:postcode": "1050", "name": "HOFER", "opening_hours": "Sa 07:40-18:00; Su closed;Mo-Fr 07:40-19:00; ", "brand": "Aldi"}, "geometry": {"type": "Point", "coordinates": [16.35261, 48.18891]}},
{"type": "Feature", "id": "UhuGpVV86zM5aJWWmK4Q4f5eZCs=", "properties": {"ref": "5gonkmWMTMYNWW_Mvr_1wA==", "@spider": "aldi_si", "addr:street": "Rokolya utca 1-13.", "addr:city": "Budapest", "addr:postcode": "1131", "name": "ALDI", "opening_hours": "Sa 06:30-21:00; Su 07:00-19:00; Mo-Fr 06:30-21:00; ", "brand": "Aldi"}, "geometry": {"type": "Point", "coordinates": [19.08898, 47.54234]}},
{"type": "Feature", "id": "WtDfZy30p8xvCKgT-qYHMQqLbgs=", "properties": {"ref": "FUy0_0CkTlxtacsmKDjBrA==", "@spider": "aldi_si", "addr:street": "Omszk park 4.", "addr:city": "Budakal\u00e1sz", "addr:postcode": "2011", "name": "ALDI", "opening_hours": "Sa 07:00-21:00; Su 07:00-19:00; Mo-Fr 07:00-21:00; ", "brand": "Aldi"}, "geometry": {"type": "Point", "coordinates": [19.06158, 47.61426]}},
{"type": "Feature", "id": "Rs-Qh7CxZiqjxaJanO73DncbVxA=", "properties": {"ref": "y5rwpEwwfrw2uW23vqDq9A==", "@spider": "aldi_si", "addr:street": "R\u00e1k\u00f3czi \u00fat 38.", "addr:city": "Budapest", "addr:postcode": "1039", "name": "ALDI", "opening_hours": "Sa 07:00-22:00; Su 07:00-19:00; Mo-Fr 07:00-22:00; ", "brand": "Aldi"}, "geometry": {"type": "Point", "coordinates": [19.04991, 47.57994]}},
{"type": "Feature", "id": "q3vrTcv9zNXi0gz2gG5GDkvMD4A=", "properties": {"ref": "vo96_vagfNAjOWL4aBkUjw==", "@spider": "aldi_si", "addr:street": "Petneh\u00e1zy utca 12.", "addr:city": "Budapest", "addr:postcode": "1139", "name": "ALDI", "opening_hours": "Sa 07:00-21:00; Su 07:00-19:00; Mo-Fr 07:00-21:00; ", "brand": "Aldi"}, "geometry": {"type": "Point", "coordinates": [19.07172, 47.53473]}},
{"type": "Feature", "id": "7ufpha9maR4Uxg5SI6We5rgNUZ0=", "properties": {"ref": "sIxPpRlFQr6PIe_oz1AXLg==", "@spider": "aldi_si", "addr:street": "H\u00e1ros utca 11/B.", "addr:city": "Budapest", "addr:postcode": "1222", "name": "ALDI", "opening_hours": "Sa 07:00-21:00; Su 07:00-19:00; Mo-Fr 07:00-21:00; ", "brand": "Aldi"}, "geometry": {"type": "Point", "coordinates": [19.02527, 47.41112]}},
{"type": "Feature", "id": "d9OxVhVh_xk7MBmYhM-lsDbid9Y=", "properties": {"ref": "qU2HUfTXmQrvgcZukimqhg==", "@spider": "aldi_si", "addr:street": "R\u00e9tk\u00f6z u. 10/b.", "addr:city": "Budapest", "addr:postcode": "1118", "name": "ALDI", "opening_hours": "Sa 06:30-22:00; Su 07:00-19:00; Mo-Fr 06:30-22:00; ", "brand": "Aldi"}, "geometry": {"type": "Point", "coordinates": [19.00586, 47.46582]}},
{"type": "Feature", "id": "ymbInNWywm68I8TSEGn4JHu7jDM=", "properties": {"ref": "HfzwHHXuiX3VEdgR5uBhOQ==", "@spider": "aldi_si", "addr:street": "Szt. Fl\u00f3ri\u00e1n Krt. 11.", "addr:city": "Sz\u00e9kesfeh\u00e9rv\u00e1r", "addr:postcode": "8000", "name": "ALDI", "opening_hours": "Sa 07:00-20:00; Su 07:00-19:00; Mo-Fr 07:00-20:00; ", "brand": "Aldi"}, "geometry": {"type": "Point", "coordinates": [18.41739, 47.21313]}},
{"type": "Feature", "id": "PNxcZj8q_29FeDU_CIMdyd4Exfg=", "properties": {"ref": "dx_lTyPAg5ZVUZjTAJOxaw==", "@spider": "aldi_si", "addr:street": "Kondorosi \u00fat 7.", "addr:city": "Budapest", "addr:postcode": "1116", "name": "ALDI", "opening_hours": "Sa 06:30-21:00; Su 07:00-19:00; Mo-Fr 06:30-21:00; ", "brand": "Aldi"}, "geometry": {"type": "Point", "coordinates": [19.03785, 47.45109]}},
{"type": "Feature", "id": "6ESrO-nS0Kmwj1PLkv8dO6eYnvM=", "properties": {"ref": "JovrAjukwctCRsFwUytfjA==", "@spider": "aldi_si", "addr:street": "Cziffra Gy\u00f6rgy utca 7.", "addr:city": "Budapest", "addr:postcode": "1186", "name": "ALDI", "opening_hours": "Sa 06:30-21:00; Su 07:00-19:00; Mo-Fr 06:30-21:00; ", "brand": "Aldi"}, "geometry": {"type": "Point", "coordinates": [19.17373, 47.43225]}},
{"type": "Feature", "id": "y3bx2ZCAb-5pqzufQBaTOb0Ycq8=", "properties": {"ref": "AeobW1QYw9FE2R0tantLtA==", "@spider": "aldi_si", "addr:street": "K\u00f6nyves K\u00e1lm\u00e1n krt. 12-14.", "addr:city": "Budapest", "addr:postcode": "1097", "name": "ALDI", "opening_hours": "Sa 07:00-21:00; Su 07:00-19:00; Mo-Fr 07:00-21:00; ", "brand": "Aldi"}, "geometry": {"type": "Point", "coordinates": [19.08392, 47.47213]}},
{"type": "Feature", "id": "xXb7w7V9qaNylrLltkn_2ruQ5YM=", "properties": {"ref": "Mxf5fTq0z36auoHPtPa1pg==", "@spider": "aldi_si", "addr:street": "Hunyadi J. \u00fat 19.", "addr:city": "Budapest", "addr:postcode": "1116", "name": "ALDI", "opening_hours": "Sa 07:00-21:00; Su 07:00-19:00; Mo-Fr 07:00-21:00; ", "brand": "Aldi"}, "geometry": {"type": "Point", "coordinates": [19.04038, 47.43812]}},
{"type": "Feature", "id": "5F-WDhtazmxZCJg257kspj8qLCc=", "properties": {"ref": "sttnq6YqnHRZmKEm3hDt5Q==", "@spider": "aldi_si", "addr:street": "Orczy \u00fat 46-48.", "addr:city": "Budapest", "addr:postcode": "1089", "name": "ALDI", "opening_hours": "Sa 06:30-21:00; Su 07:00-19:00; Mo-Fr 06:30-21:00; ", "brand": "Aldi"}, "geometry": {"type": "Point", "coordinates": [19.09292, 47.48683]}},
{"type": "Feature", "id": "koh1IVt5CTIOVyj7CIasT4LEzws=", "properties": {"ref": "W-7lBTntmmyLQHIcW0AlyQ==", "@spider": "aldi_si", "addr:street": "Haraszti \u00fat 32/b", "addr:city": "Budapest", "addr:postcode": "1239", "name": "ALDI", "opening_hours": "Sa 07:00-21:00; Su 07:00-19:00; Mo-Fr 07:00-21:00; ", "brand": "Aldi"}, "geometry": {"type": "Point", "coordinates": [19.10965, 47.38623]}},
{"type": "Feature", "id": "9fC-lv3k_hLYguSp8Bxu9IttvAE=", "properties": {"ref": "OpW91VUopLnKhM-Mh_CJaw==", "@spider": "aldi_si", "addr:street": "Stattersdorfer Hauptstr. 42", "addr:city": "St. P\u00f6lten", "addr:postcode": "3100", "name": "HOFER", "opening_hours": "Sa 07:40-18:00; Su closed;Mo-Fr 07:40-20:00; ", "brand": "Aldi"}, "geometry": {"type": "Point", "coordinates": [15.64006, 48.19631]}},
{"type": "Feature", "id": "SAgSV2NWMFTTxH6sajlpWLYkKVs=", "properties": {"ref": "NEPHDYo3t7EwPIxr-SctHQ==", "@spider": "aldi_si", "addr:street": "Kornstra\u00dfe 12", "addr:city": "Leonding", "addr:postcode": "4060", "name": "HOFER", "opening_hours": "Sa 07:40-18:00; Su closed;Mo-Fr 07:40-19:00; ", "brand": "Aldi"}, "geometry": {"type": "Point", "coordinates": [14.25547, 48.25804]}},
{"type": "Feature", "id": "D94Gk6xQANP8cBsrBdy3wjmD9dc=", "properties": {"ref": "ar81QJ1y14QXoyRRNnVsUA==", "@spider": "aldi_si", "addr:street": "Hamerlingstra\u00dfe 33", "addr:city": "Linz", "addr:postcode": "4020", "name": "HOFER", "opening_hours": "Sa 07:40-18:00; Su closed;Mo-Fr 07:40-19:00; ", "brand": "Aldi"}, "geometry": {"type": "Point", "coordinates": [14.3038, 48.29243]}},
{"type": "Feature", "id": "3UKoGz_e8JKxlhrwi8g024mo6gk=", "properties": {"ref": "oFAomPatxtz8m2ZdukzL2g==", "@spider": "aldi_si", "addr:street": "Wiener Bundesstra\u00dfe 117", "addr:city": "Traun", "addr:postcode": "4050", "name": "HOFER", "opening_hours": "Sa 07:40-18:00; Su closed;Mo-Fr 07:40-19:00; ", "brand": "Aldi"}, "geometry": {"type": "Point", "coordinates": [14.23603, 48.23497]}},
{"type": "Feature", "id": "1UH7q3JYbSEbcZlJ4-_MN5F4y4g=", "properties": {"ref": "eIE9wJkBmNWhgN0DKrE1Xg==", "@spider": "aldi_si", "addr:street": "Kaiserstra\u00dfe 92", "addr:city": "Wien", "addr:postcode": "1070", "name": "HOFER", "opening_hours": "Sa 07:40-18:00; Su closed;Mo-Fr 07:40-19:00; ", "brand": "Aldi"}, "geometry": {"type": "Point", "coordinates": [16.3397, 48.20648]}},
{"type": "Feature", "id": "9r2YoGKE-yIgbtVbAdTenjYH7Mo=", "properties": {"ref": "idm_BMG7wzvOFCPRoKfCCg==", "@spider": "aldi_si", "addr:street": "Maria Lassnig Stra\u00dfe 20", "addr:city": "Wien", "addr:postcode": "1100", "name": "HOFER", "opening_hours": "Sa 07:40-18:00; Su closed;Mo-Fr 07:40-19:00; ", "brand": "Aldi"}, "geometry": {"type": "Point", "coordinates": [16.38571, 48.18115]}},
{"type": "Feature", "id": "D0VrzegBR-EimfnYgBGsw9WzCp4=", "properties": {"ref": "RPHCPlpA78zgT73Mf0sgvQ==", "@spider": "aldi_si", "addr:street": "Favoritenstra\u00dfe 81-83", "addr:city": "Wien", "addr:postcode": "1100", "name": "HOFER", "opening_hours": "Sa 07:40-18:00; Su closed;Mo-Fr 07:40-19:00; ", "brand": "Aldi"}, "geometry": {"type": "Point", "coordinates": [16.37568, 48.18063]}},
{"type": "Feature", "id": "8WkgwuWbPpXdROQfvBKMyv397os=", "properties": {"ref": "qrAqyK8gOeu6jFW6e1hcVA==", "@spider": "aldi_si", "addr:street": "Hernalser Hauptstra\u00dfe 20-22", "addr:city": "Wien", "addr:postcode": "1170", "name": "HOFER", "opening_hours": "Sa 07:40-18:00; Su closed;Mo-Fr 07:40-19:00; ", "brand": "Aldi"}, "geometry": {"type": "Point", "coordinates": [16.34001, 48.2169]}},
{"type": "Feature", "id": "agfv2fbpw-WbDCTtJ-8B4ONWvZM=", "properties": {"ref": "4FjgU1hRTzieTTMau1ft8Q==", "@spider": "aldi_si", "addr:street": "Szugl\u00f3 utca 60-62.", "addr:city": "Budapest", "addr:postcode": "1145", "name": "ALDI", "opening_hours": "Sa 07:00-21:00; Su 07:00-19:00; Mo-Fr 07:00-21:00; ", "brand": "Aldi"}, "geometry": {"type": "Point", "coordinates": [19.11302, 47.5154]}},
{"type": "Feature", "id": "DG5a8PziBIvItXzfEyhwuCBYPpk=", "properties": {"ref": "Z-Bs6-vuAbQ4iB2obJjhOQ==", "@spider": "aldi_si", "addr:street": "Kal\u00e1szi \u00fat 2/a.", "addr:city": "Szentendre", "addr:postcode": "2000", "name": "ALDI", "opening_hours": "Sa 06:30-22:00; Su 07:00-19:00; Mo-Fr 06:30-22:00; ", "brand": "Aldi"}, "geometry": {"type": "Point", "coordinates": [19.06595, 47.63928]}},
{"type": "Feature", "id": "eSwReMXzvP0SuQTb4wbe43dpsD4=", "properties": {"ref": "Zb0yB2W-l5HhB92LlyaBMQ==", "@spider": "aldi_si", "addr:street": "Huszti \u00fat 33.", "addr:city": "Budapest", "addr:postcode": "1033", "name": "ALDI", "opening_hours": "Sa 07:00-22:00; Su 07:00-19:00; Mo-Fr 07:00-22:00; ", "brand": "Aldi"}, "geometry": {"type": "Point", "coordinates": [19.04082, 47.55488]}},
{"type": "Feature", "id": "SOejYRHpfa2kcvOx_qHN52RLpzQ=", "properties": {"ref": "J-6nuKJxq9pzILllYELHmg==", "@spider": "aldi_si", "addr:street": "Szabads\u00e1g \u00fatja 1/e", "addr:city": "Kerepes", "addr:postcode": "2144", "name": "ALDI", "opening_hours": "Sa 07:00-20:00; Su 07:00-19:00; Mo-Fr 07:00-20:00; ", "brand": "Aldi"}, "geometry": {"type": "Point", "coordinates": [19.26895, 47.55249]}},
{"type": "Feature", "id": "5fDQz-Sw4Qwo-Q9eAYWH9Kf6d_E=", "properties": {"ref": "odD-kHG-5jAr5Os9Pjyg5A==", "@spider": "aldi_si", "addr:street": "Pann\u00f3nia utca 59-63.", "addr:city": "Budapest", "addr:postcode": "1133", "name": "ALDI", "opening_hours": "Sa 07:00-22:00; Su 07:00-19:00; Mo-Fr 07:00-22:00; ", "brand": "Aldi"}, "geometry": {"type": "Point", "coordinates": [19.05677, 47.52007]}},
{"type": "Feature", "id": "HsmcVRFCVq8aaAfhcTlxrn2kEGs=", "properties": {"ref": "mU9FcKcyYFlQVjQMIH-2eA==", "@spider": "aldi_si", "addr:street": "Sopron \u00fat 60.", "addr:city": "Budapest", "addr:postcode": "1116", "name": "ALDI", "opening_hours": "Sa 06:30-21:00; Su 07:00-19:00; Mo-Fr 06:30-21:00; ", "brand": "Aldi"}, "geometry": {"type": "Point", "coordinates": [19.04388, 47.46154]}},
{"type": "Feature", "id": "l6f2xFOz_OZTF3ETgpTlDx4jtQA=", "properties": {"ref": "bMjzj2_BI9GBg37pK1jfzQ==", "@spider": "aldi_si", "addr:street": "II. R\u00e1k\u00f3czi Ferenc u. 257.", "addr:city": "Budapest", "addr:postcode": "1214", "name": "ALDI", "opening_hours": "Sa 06:30-21:00; Su 07:00-19:00; Mo-Fr 06:30-21:00; ", "brand": "Aldi"}, "geometry": {"type": "Point", "coordinates": [19.05166, 47.40434]}},
{"type": "Feature", "id": "ScFqqAGc9OnAR8nRcy5M8QWB4Ms=", "properties": {"ref": "dSKPJWVmlV7lnydyjO-A9Q==", "@spider": "aldi_si", "addr:street": "T\u0171zolt\u00f3 utca 10-16.", "addr:city": "Budapest", "addr:postcode": "1094", "name": "ALDI", "opening_hours": "Sa 06:30-22:00; Su 07:00-19:00; Mo-Fr 06:30-22:00; ", "brand": "Aldi"}, "geometry": {"type": "Point", "coordinates": [19.07166, 47.48416]}},
{"type": "Feature", "id": "dDPEz50qBGrytzwsN3C-wroRK5c=", "properties": {"ref": "ptzbXFDt4dOnWEndIkIeDw==", "@spider": "aldi_si", "addr:street": "\u00dcll\u0151i \u00fat 14.", "addr:city": "Budapest", "addr:postcode": "1085", "name": "ALDI", "opening_hours": "Sa 06:30-21:00; Su 07:00-19:00; Mo-Fr 06:30-21:00; ", "brand": "Aldi"}, "geometry": {"type": "Point", "coordinates": [19.06412, 47.48865]}},
{"type": "Feature", "id": "6ZhCBiCt1TAmqV-faV8JIi1nkKQ=", "properties": {"ref": "MDHVNze8HtHH-paZS-N2lA==", "@spider": "aldi_si", "addr:street": "St\u00fcbinger Stra\u00dfe 2", "addr:city": "Peggau", "addr:postcode": "8120", "name": "HOFER", "opening_hours": "Sa 07:15-18:00; Su closed;Mo-Fr 07:15-19:00; ", "brand": "Aldi"}, "geometry": {"type": "Point", "coordinates": [15.32753, 47.17503]}},
{"type": "Feature", "id": "1Mxh9QF4ErXzjHtGUd0ew7xVZ7E=", "properties": {"ref": "9SneIfnDXJnXWJ2Tz2H-eA==", "@spider": "aldi_si", "addr:street": "Murfeldstra\u00dfe 2", "addr:city": "Gratwein-Stra\u00dfengel", "addr:postcode": "8112", "name": "HOFER", "opening_hours": "Sa 07:15-18:00; Su closed;Mo-Fr 07:15-19:00; ", "brand": "Aldi"}, "geometry": {"type": "Point", "coordinates": [15.3214, 47.13324]}},
{"type": "Feature", "id": "1hV8KyTBqIyO6EyD74SLN1_q7FM=", "properties": {"ref": "dGkIMu_C71nEkYQIRluqsA==", "@spider": "aldi_si", "addr:street": "Gleinkerseestra\u00dfe 8", "addr:city": "Windischgarsten", "addr:postcode": "4580", "name": "HOFER", "opening_hours": "Sa 07:15-18:00; Su closed;Mo-Fr 07:15-19:00; ", "brand": "Aldi"}, "geometry": {"type": "Point", "coordinates": [14.32371, 47.7218]}},
{"type": "Feature", "id": "MTHW1DaqwvBONm6oE5Xm914lLhU=", "properties": {"ref": "tZtHXlecxlFvvFGO2IP6Pg==", "@spider": "aldi_si", "addr:street": "Kaprunerstra\u00dfe 60", "addr:city": "Bruck an der Glocknerstra\u00dfe", "addr:postcode": "5671", "name": "HOFER", "opening_hours": "Sa 07:15-18:00; Su closed;Mo-Fr 07:15-19:00; ", "brand": "Aldi"}, "geometry": {"type": "Point", "coordinates": [12.80888, 47.28903]}},
{"type": "Feature", "id": "xrm06hcCA0kXrWnNe2BYP9VS1og=", "properties": {"ref": "npbL6jI5cix_KU4bjUsJig==", "@spider": "aldi_si", "addr:street": "Gletschermoosstra\u00dfe 39", "addr:city": "Zell am See", "addr:postcode": "5700", "name": "HOFER", "opening_hours": "Sa 07:15-18:00; Su closed;Mo-Fr 07:15-19:00; ", "brand": "Aldi"}, "geometry": {"type": "Point", "coordinates": [12.78773, 47.29669]}},
{"type": "Feature", "id": "QwmNGrQ5-o2vfxAnnz9OufHIXdM=", "properties": {"ref": "9aEuWWZfDsbSsrsaX8q8kw==", "@spider": "aldi_si", "addr:street": "Hugo-Wolf-Gasse 4", "addr:city": "Judenburg", "addr:postcode": "8750", "name": "HOFER", "opening_hours": "Sa 07:15-18:00; Su closed;Mo-Fr 07:15-19:30; ", "brand": "Aldi"}, "geometry": {"type": "Point", "coordinates": [14.64204, 47.17158]}},
{"type": "Feature", "id": "RKqG5tYaMHJUbjHb_JNUmbENYVQ=", "properties": {"ref": "jmlP1AfoTksBIoxpj-toHQ==", "@spider": "aldi_si", "addr:street": "Gewerbepark 2", "addr:city": "Scheifling", "addr:postcode": "8811", "name": "HOFER", "opening_hours": "Sa 07:15-18:00; Su closed;Mo-Fr 07:15-19:30; ", "brand": "Aldi"}, "geometry": {"type": "Point", "coordinates": [14.4151, 47.15485]}},
{"type": "Feature", "id": "zaiDErxb730rhVTWIThvoLluaC0=", "properties": {"ref": "Cp-F2Bx17xoVHSiQQThV8w==", "@spider": "aldi_si", "addr:street": "Schillerplatz 1", "addr:city": "Linz", "addr:postcode": "4020", "name": "HOFER", "opening_hours": "Sa 07:40-18:00; Su closed;Mo-Fr 07:40-19:00; ", "brand": "Aldi"}, "geometry": {"type": "Point", "coordinates": [14.29118, 48.29706]}},
{"type": "Feature", "id": "rlFlTdNVhN_sxy_lF7O62scpRvo=", "properties": {"ref": "RQx-aqSjQoog8xhC5TGuXg==", "@spider": "aldi_si", "addr:street": "Hopfengasse 23, 25", "addr:city": "Linz", "addr:postcode": "4020", "name": "HOFER", "opening_hours": "Sa 07:40-18:00; Su closed;Mo-Fr 07:40-19:00; ", "brand": "Aldi"}, "geometry": {"type": "Point", "coordinates": [14.2837, 48.29818]}},
{"type": "Feature", "id": "yZXQfMubFVXfCaDwQM9wrsrfckY=", "properties": {"ref": "96zizS5vTKN93tM8nWJ7zQ==", "@spider": "aldi_si", "addr:street": "Derfflingerstra\u00dfe 21", "addr:city": "Linz", "addr:postcode": "4020", "name": "HOFER", "opening_hours": "Sa 07:40-18:00; Su closed;Mo-Fr 07:40-19:00; ", "brand": "Aldi"}, "geometry": {"type": "Point", "coordinates": [14.31126, 48.30845]}},
{"type": "Feature", "id": "JgImyo-6mIqaTjK-hObBhWjqGog=", "properties": {"ref": "zcJhoLIdp74nyU1JDkDUag==", "@spider": "aldi_si", "addr:street": "Spittelwiese 6, 8", "addr:city": "Linz", "addr:postcode": "4020", "name": "HOFER", "opening_hours": "Sa 07:15-18:00; Su closed;Mo-Fr 07:15-19:00; ", "brand": "Aldi"}, "geometry": {"type": "Point", "coordinates": [14.28772, 48.30297]}},
{"type": "Feature", "id": "XNJISdZ45qtktEgjZVq-aB5iwL4=", "properties": {"ref": "pTDfqlAVYrblXEFdaeZNiQ==", "@spider": "aldi_si", "addr:street": "Dr.Karl-Renner-Stra\u00dfe 60", "addr:city": "Enns", "addr:postcode": "4470", "name": "HOFER", "opening_hours": "Sa 07:15-18:00; Su closed;Mo-Fr 07:15-19:00; ", "brand": "Aldi"}, "geometry": {"type": "Point", "coordinates": [14.45809, 48.21634]}},
{"type": "Feature", "id": "ETLsUoHyImTlc6ED9yyLObhf4XQ=", "properties": {"ref": "tfO4osjnfp1mrSaxIpWfaA==", "@spider": "aldi_si", "addr:street": "Mariahilferstra\u00dfe 123", "addr:city": "Wien", "addr:postcode": "1060", "name": "HOFER", "opening_hours": "Sa 07:40-18:00; Su closed;Mo-Fr 07:40-19:00; ", "brand": "Aldi"}, "geometry": {"type": "Point", "coordinates": [16.34097, 48.19561]}},
{"type": "Feature", "id": "fdJlUL3Oxrwj5wXqU3z2_J6xy98=", "properties": {"ref": "Ff-Nqa3d3nnMA9b_BtU0vA==", "@spider": "aldi_si", "addr:street": "Nussdorfer Stra\u00dfe 73", "addr:city": "Wien", "addr:postcode": "1090", "name": "HOFER", "opening_hours": "Sa 07:40-18:00; Su closed;Mo-Fr 07:40-20:00; ", "brand": "Aldi"}, "geometry": {"type": "Point", "coordinates": [16.35412, 48.23081]}},
{"type": "Feature", "id": "PMK04CLTUuhcOCQPZjM7vNUPmdA=", "properties": {"ref": "Z7lHfTW3VfNOHKf-evba-A==", "@spider": "aldi_si", "addr:street": "Brunnengasse 38", "addr:city": "Wien", "addr:postcode": "1160", "name": "HOFER", "opening_hours": "Sa 07:40-18:00; Su closed;Mo-Fr 07:40-19:00; ", "brand": "Aldi"}, "geometry": {"type": "Point", "coordinates": [16.33573, 48.20975]}},
{"type": "Feature", "id": "kuisHSCg3tffajx3wkLr_oKQcpA=", "properties": {"ref": "i4EGxcd0a4Vn806shbxgOw==", "@spider": "aldi_si", "addr:street": "Stromstra\u00dfe 3", "addr:city": "Wien", "addr:postcode": "1200", "name": "HOFER", "opening_hours": "Sa 07:40-18:00; Su closed;Mo-Fr 07:40-20:00; ", "brand": "Aldi"}, "geometry": {"type": "Point", "coordinates": [16.37152, 48.23687]}},
{"type": "Feature", "id": "QJwIjWyHUG8oe43NdzV7QvRBgLk=", "properties": {"ref": "i--6xLIuAeuvoELXs9ERAw==", "@spider": "aldi_si", "addr:street": "B\u00f6k\u00e9nyf\u00f6ldi \u00fat 102.", "addr:city": "Budapest", "addr:postcode": "1165", "name": "ALDI", "opening_hours": "Sa 06:30-21:00; Su 07:00-19:00; Mo-Fr 06:30-21:00; ", "brand": "Aldi"}, "geometry": {"type": "Point", "coordinates": [19.21618, 47.5036]}},
{"type": "Feature", "id": "zBX3zhKC1n__AKklYz0evHvDc6w=", "properties": {"ref": "8f1w3JUGIrJnLUtK9LfGZA==", "@spider": "aldi_si", "addr:street": "Pasar\u00e9ti \u00fat 98.", "addr:city": "Budapest", "addr:postcode": "1026", "name": "ALDI", "opening_hours": "Sa 06:30-22:00; Su 07:00-19:00; Mo-Fr 06:30-22:00; ", "brand": "Aldi"}, "geometry": {"type": "Point", "coordinates": [18.99382, 47.52366]}},
{"type": "Feature", "id": "MskUf8iTPJFzdGJ8c16_U_Buppk=", "properties": {"ref": "Pf62spKECcTOYObGWSqkMw==", "@spider": "aldi_si", "addr:street": "V\u00e1mh\u00e1z k\u00f6r\u00fat 1-3.", "addr:city": "Budapest", "addr:postcode": "1093", "name": "ALDI", "opening_hours": "Sa 06:30-21:00; Su 07:00-19:00; Mo-Fr 06:30-21:00; ", "brand": "Aldi"}, "geometry": {"type": "Point", "coordinates": [19.0582, 47.48729]}},
{"type": "Feature", "id": "W4DBYUlM5aCgIeHWgJIKb3_pVoU=", "properties": {"ref": "AwOGzK1zG-yXpizXXalRFw==", "@spider": "aldi_si", "addr:street": "R\u00e1k\u00f3czi \u00fat 65.", "addr:city": "Budapest", "addr:postcode": "1081", "name": "ALDI", "opening_hours": "Sa 06:30-21:00; Su 07:00-19:00; Mo-Fr 06:30-21:00; ", "brand": "Aldi"}, "geometry": {"type": "Point", "coordinates": [19.07669, 47.49882]}},
{"type": "Feature", "id": "jx86QJMVjycWnVrfgK9R9QCs1Jw=", "properties": {"ref": "vM0em6y6hidRMbO_RtXusw==", "@spider": "aldi_si", "addr:street": "Bundesstra\u00dfe 23", "addr:city": "St. Johann im Pongau", "addr:postcode": "5600", "name": "HOFER", "opening_hours": "Sa 07:15-18:00; Su closed;Mo-Fr 07:15-19:30; ", "brand": "Aldi"}, "geometry": {"type": "Point", "coordinates": [13.19707, 47.35705]}},
{"type": "Feature", "id": "c5HgQTwgCLOknsBS5u-FYi2PSrY=", "properties": {"ref": "O1Fc0UbnvMJFEqN7mh2yCA==", "@spider": "aldi_si", "addr:street": "Thorerstra\u00dfe 2", "addr:city": "Saalfelden", "addr:postcode": "5760", "name": "HOFER", "opening_hours": "Sa 07:15-18:00; Su closed;Mo-Fr 07:15-19:00; ", "brand": "Aldi"}, "geometry": {"type": "Point", "coordinates": [12.83924, 47.42512]}},
{"type": "Feature", "id": "xsInyKTnaO4AjzZH3czB4CtubcY=", "properties": {"ref": "YBNOQ_Qadp5pmyaiKeqldA==", "@spider": "aldi_si", "addr:street": "Lederergasse 68-70", "addr:city": "Linz", "addr:postcode": "4020", "name": "HOFER", "opening_hours": "Sa 07:40-18:00; Su closed;Mo-Fr 07:40-19:00; ", "brand": "Aldi"}, "geometry": {"type": "Point", "coordinates": [14.30417, 48.31122]}},
{"type": "Feature", "id": "UQytHJlSfl-evNVnolj-x4c6Y5E=", "properties": {"ref": "Z-ooQw6ywn-BkJcSi0X4fw==", "@spider": "aldi_si", "addr:street": "Ottakringer Stra\u00dfe 38", "addr:city": "Wien", "addr:postcode": "1170", "name": "HOFER", "opening_hours": "Sa 07:40-18:00; Su closed;Mo-Fr 07:40-19:00; ", "brand": "Aldi"}, "geometry": {"type": "Point", "coordinates": [16.33623, 48.21495]}},
{"type": "Feature", "id": "xDR0I69kgF1sfksXzR0KsMq3Ttw=", "properties": {"ref": "iFRCnQclvMLD278dpZjT9g==", "@spider": "aldi_si", "addr:street": "M\u00fchltal 51", "addr:city": "Westendorf", "addr:postcode": "6363", "name": "HOFER", "opening_hours": "Sa 07:15-18:00; Su closed;Mo-Fr 07:15-19:00; ", "brand": "Aldi"}, "geometry": {"type": "Point", "coordinates": [12.20598, 47.43416]}},
{"type": "Feature", "id": "mU9f6U9oQ2XhWUkZtMN3txHsmF8=", "properties": {"ref": "cfc0roikhjoL0nbtEq_uPA==", "@spider": "aldi_si", "addr:street": "F\u00fcrbergstra\u00dfe 29", "addr:city": "Salzburg", "addr:postcode": "5020", "name": "HOFER", "opening_hours": "Sa 07:40-18:00; Su closed;Mo-Fr 07:40-19:00; ", "brand": "Aldi"}, "geometry": {"type": "Point", "coordinates": [13.06711, 47.80732]}},
{"type": "Feature", "id": "o-8dm6_M7hj5yUz4xOSxGSoTGlI=", "properties": {"ref": "7D7yCbz-O3hJYuVLhmctYQ==", "@spider": "aldi_si", "addr:street": "Ritter-Waldauf-Stra\u00dfe 1", "addr:city": "Wattens", "addr:postcode": "6112", "name": "HOFER", "opening_hours": "Sa 07:40-18:00; Su closed;Mo-Fr 07:40-19:00; ", "brand": "Aldi"}, "geometry": {"type": "Point", "coordinates": [11.58746, 47.29767]}},
{"type": "Feature", "id": "Rxk8IPlja18zXVWw3KF2lcHjMvI=", "properties": {"ref": "1NKeMPk9G_l6AIM2CO7N7A==", "@spider": "aldi_si", "addr:street": "Nusspuite 1", "addr:city": "Weer", "addr:postcode": "6116", "name": "HOFER", "opening_hours": "Sa 07:15-18:00; Su closed;Mo-Fr 07:15-19:00; ", "brand": "Aldi"}, "geometry": {"type": "Point", "coordinates": [11.6432, 47.3064]}},
{"type": "Feature", "id": "hMm8WdLHpLt6f5boFaWia6msXoM=", "properties": {"ref": "qP90GezdIJy-peIWt3dtgg==", "@spider": "aldi_si", "addr:street": "Innsbrucker Stra\u00dfe 13", "addr:city": "Hall", "addr:postcode": "6060", "name": "HOFER", "opening_hours": "Sa 07:40-18:00; Su closed;Mo-Fr 07:40-19:00; ", "brand": "Aldi"}, "geometry": {"type": "Point", "coordinates": [11.4964, 47.27783]}},
{"type": "Feature", "id": "J5ZD6MFPOK_5H9JKTD-ujUObZXE=", "properties": {"ref": "jEggXfEf1W8uKz0pzWWoEA==", "@spider": "aldi_si", "addr:street": "Feldstra\u00dfe 6", "addr:city": "Traunkirchen", "addr:postcode": "4801", "name": "HOFER", "opening_hours": "Sa 07:15-18:00; Su closed;Mo-Fr 07:15-19:00; ", "brand": "Aldi"}, "geometry": {"type": "Point", "coordinates": [13.77908, 47.85508]}},
{"type": "Feature", "id": "HWu2L74T9D7PU0YDMtLwcxmAsms=", "properties": {"ref": "dapn0Onwppj5OOLd1iykpA==", "@spider": "aldi_si", "addr:street": "Kossuth Lajos u. 13.", "addr:city": "Budapest", "addr:postcode": "1053", "name": "ALDI", "opening_hours": "Sa 06:30-21:00; Su 07:00-19:00; Mo-Fr 06:30-21:00; ", "brand": "Aldi"}, "geometry": {"type": "Point", "coordinates": [19.0587, 47.4938]}},
{"type": "Feature", "id": "D0yrZHUINbISQ-UrQ8Q38kvWbfw=", "properties": {"ref": "ZEmlUFym6GUACiSkcJTchg==", "@spider": "aldi_si", "addr:street": "Salzburger Stra\u00dfe 69", "addr:city": "Bad Hofgastein", "addr:postcode": "5630", "name": "HOFER", "opening_hours": "Sa 07:15-18:00; Su closed;Mo-Fr 07:15-19:30; ", "brand": "Aldi"}, "geometry": {"type": "Point", "coordinates": [13.10264, 47.17925]}},
{"type": "Feature", "id": "RxMI7WD6FMXDGcZqbs_c53hn4yE=", "properties": {"ref": "-CGAxEPWUoR-CHLClJB0Zw==", "@spider": "aldi_si", "addr:street": "Gasteiner Stra\u00dfe 46", "addr:city": "Bischofshofen", "addr:postcode": "5500", "name": "HOFER", "opening_hours": "Sa 07:15-18:00; Su closed;Mo-Fr 07:15-19:30; ", "brand": "Aldi"}, "geometry": {"type": "Point", "coordinates": [13.21555, 47.41065]}},
{"type": "Feature", "id": "3vPq6_7XVwL790_PCfH37Ht5RFo=", "properties": {"ref": "AdsSHle2wY9rf8oZawEQNQ==", "@spider": "aldi_si", "addr:street": "Bl\u00fctenstra\u00dfe 13-23", "addr:city": "Linz", "addr:postcode": "4040", "name": "HOFER", "opening_hours": "Sa 07:40-18:00; Su closed;Mo-Fr 07:40-19:00; ", "brand": "Aldi"}, "geometry": {"type": "Point", "coordinates": [14.28425, 48.31437]}},
{"type": "Feature", "id": "odHDJRIp9nY6iKPbt_l8u0QOYKw=", "properties": {"ref": "FACnyxZ3zB7I_-82dLEo0g==", "@spider": "aldi_si", "addr:street": "Martinstra\u00dfe 57-61", "addr:city": "Wien", "addr:postcode": "1180", "name": "HOFER", "opening_hours": "Sa 07:40-18:00; Su closed;Mo-Fr 07:40-19:00; ", "brand": "Aldi"}, "geometry": {"type": "Point", "coordinates": [16.34148, 48.2234]}},
{"type": "Feature", "id": "YJttwWfHXeEZfrFbCwby6jEgXGs=", "properties": {"ref": "Ashvobyf5h6VzSmrWlmjiw==", "@spider": "aldi_si", "addr:street": "Gudrunstra\u00dfe 144", "addr:city": "Wien", "addr:postcode": "1100", "name": "HOFER", "opening_hours": "Sa 07:40-18:00; Su closed;Mo-Fr 07:40-19:00; ", "brand": "Aldi"}, "geometry": {"type": "Point", "coordinates": [16.37059, 48.17864]}},
{"type": "Feature", "id": "XQ6P-RdfEF_2vwaPO3ByO_n-zHY=", "properties": {"ref": "KJ4n02cZp7H6EtxUW8NN2A==", "@spider": "aldi_si", "addr:street": "Traisengasse 20-22", "addr:city": "Wien", "addr:postcode": "1200", "name": "HOFER", "opening_hours": "Sa 07:40-18:00; Su closed;Mo-Fr 07:40-20:00; ", "brand": "Aldi"}, "geometry": {"type": "Point", "coordinates": [16.39059, 48.23694]}},
{"type": "Feature", "id": "pUY_yssArBJUaua5CXkBrXPCFV0=", "properties": {"ref": "V_LvxgFru32yyZdktHfyUw==", "@spider": "aldi_si", "addr:street": "St. Johanner Stra\u00dfe 20", "addr:city": "Kitzb\u00fchel", "addr:postcode": "6370", "name": "HOFER", "opening_hours": "Sa 07:15-18:00; Su closed;Mo-Fr 07:15-19:00; ", "brand": "Aldi"}, "geometry": {"type": "Point", "coordinates": [12.38645, 47.45755]}},
{"type": "Feature", "id": "gTSNxnvHHq6XemAdOmK4f9h5T-s=", "properties": {"ref": "YodvvFDtf1KMIoGcKHbWNg==", "@spider": "aldi_si", "addr:street": "Wiener Bundesstra\u00dfe 3", "addr:city": "Hallwang", "addr:postcode": "5300", "name": "HOFER", "opening_hours": "Sa 07:40-18:00; Su closed;Mo-Fr 07:40-19:00; ", "brand": "Aldi"}, "geometry": {"type": "Point", "coordinates": [13.0827, 47.83005]}},
{"type": "Feature", "id": "KsNUkxflNR5z4zw4LBYduElYARk=", "properties": {"ref": "WA7s852nJO7uwAqn7WRH2g==", "@spider": "aldi_si", "addr:street": "Florianistra\u00dfe 2", "addr:city": "Rum", "addr:postcode": "6063", "name": "HOFER", "opening_hours": "Sa 07:15-18:00; Su closed;Mo-Fr 07:15-19:00; ", "brand": "Aldi"}, "geometry": {"type": "Point", "coordinates": [11.45062, 47.27287]}},
{"type": "Feature", "id": "FLpdNbT7QexKgXu_8IfIrRVJpKg=", "properties": {"ref": "3KmGyuWclSMBg2ZNUQ5CPg==", "@spider": "aldi_si", "addr:street": "Industriestra\u00dfe 29", "addr:city": "Vomp", "addr:postcode": "6134", "name": "HOFER", "opening_hours": "Sa 07:15-18:00; Su closed;Mo-Fr 07:15-19:00; ", "brand": "Aldi"}, "geometry": {"type": "Point", "coordinates": [11.70025, 47.3503]}},
{"type": "Feature", "id": "KDtbuK-yXBWGLVLHuxokskWRP2Y=", "properties": {"ref": "gZ4nOwDX3mA0jkfMkd01ow==", "@spider": "aldi_si", "addr:street": "Am Schlo\u00dfwald 1a", "addr:city": "Altm\u00fcnster", "addr:postcode": "4813", "name": "HOFER", "opening_hours": "Sa 07:15-18:00; Su closed;Mo-Fr 07:15-19:00; ", "brand": "Aldi"}, "geometry": {"type": "Point", "coordinates": [13.76537, 47.89351]}},
{"type": "Feature", "id": "rUafTDLpHesY45SKL311b2DMuhk=", "properties": {"ref": "7XcgJgSClgBdtsDEbLneDA==", "@spider": "aldi_si", "addr:street": "Braunauer Stra\u00dfe 27", "addr:city": "Mattighofen", "addr:postcode": "5230", "name": "HOFER", "opening_hours": "Sa 07:15-18:00; Su closed;Mo-Fr 07:15-19:00; ", "brand": "Aldi"}, "geometry": {"type": "Point", "coordinates": [13.15, 48.10377]}},
{"type": "Feature", "id": "pMqGeIdKaDoEr1geON8VXEm1LZc=", "properties": {"ref": "tdaKGu_OhlGbckLAlUXx0Q==", "@spider": "aldi_si", "addr:street": "Kerepesi \u00fat 73.", "addr:city": "Budapest", "addr:postcode": "1106", "name": "ALDI", "opening_hours": "Sa 07:00-21:00; Su 07:00-19:00; Mo-Fr 07:00-21:00; ", "brand": "Aldi"}, "geometry": {"type": "Point", "coordinates": [19.15092, 47.50336]}},
{"type": "Feature", "id": "73kfpnVJMt8lt5jwcYBxrZbQTLE=", "properties": {"ref": "XepiNpIVoXB7TyxKOEarIQ==", "@spider": "aldi_si", "addr:street": "M\u00e9sz\u00e1ros utca 56/A", "addr:city": "Budapest", "addr:postcode": "1016", "name": "ALDI", "opening_hours": "Sa 06:30-21:00; Su 07:00-19:00; Mo-Fr 06:30-21:00; ", "brand": "Aldi"}, "geometry": {"type": "Point", "coordinates": [19.0311, 47.49111]}},
{"type": "Feature", "id": "9Qlr8ZkJ85lteM8wDcndwIXGrqQ=", "properties": {"ref": "GtYpzvGSQciZuEajSV80YQ==", "@spider": "aldi_si", "addr:street": "Freist\u00e4dter Stra\u00dfe 81-83", "addr:city": "Linz", "addr:postcode": "4040", "name": "HOFER", "opening_hours": "Sa 07:40-18:00; Su closed;Mo-Fr 07:40-19:00; ", "brand": "Aldi"}, "geometry": {"type": "Point", "coordinates": [14.28939, 48.32076]}},
{"type": "Feature", "id": "_9RBS044w6k4Pu8DSM3Zvp5Oum8=", "properties": {"ref": "_mh0y9oVrFOAmfMyVWnpNg==", "@spider": "aldi_si", "addr:street": "Willy-Graf-Stra\u00dfe 6", "addr:city": "Kufstein", "addr:postcode": "6330", "name": "HOFER", "opening_hours": "Sa 07:15-18:00; Su closed;Mo-Fr 07:15-19:00; ", "brand": "Aldi"}, "geometry": {"type": "Point", "coordinates": [12.17184, 47.59204]}},
{"type": "Feature", "id": "Bj4seRsPjsFk1hJV5KBeWyn089A=", "properties": {"ref": "8UTfz9tobPG6eCSXrLBP1A==", "@spider": "aldi_si", "addr:street": "Salurner Stra\u00dfe 60", "addr:city": "Kufstein", "addr:postcode": "6330", "name": "HOFER", "opening_hours": "Sa 07:15-18:00; Su closed;Mo-Fr 07:15-19:00; ", "brand": "Aldi"}, "geometry": {"type": "Point", "coordinates": [12.1561, 47.57193]}},
{"type": "Feature", "id": "3szFpXQGj0U8wtQnUxWrhdz7cR8=", "properties": {"ref": "nEoXnrIR2q3lWk6k13l09A==", "@spider": "aldi_si", "addr:street": "Waidach 34", "addr:city": "K\u00f6ssen", "addr:postcode": "6345", "name": "HOFER", "opening_hours": "Sa 07:15-18:00; Su closed;Mo-Fr 07:15-19:00; ", "brand": "Aldi"}, "geometry": {"type": "Point", "coordinates": [12.39641, 47.66298]}},
{"type": "Feature", "id": "TjssOMrW3WimVDL9lyUQHRjrYOQ=", "properties": {"ref": "nBTogiQWKb7C8yIpkvreWw==", "@spider": "aldi_si", "addr:street": "Via Tofane 8", "addr:city": "Villafranca di Verona", "addr:postcode": "37069", "name": "ALDI", "opening_hours": "Sa 08:00-21:00; Su 08:30-20:00; Mo-Fr 08:00-21:00; ", "brand": "Aldi"}, "geometry": {"type": "Point", "coordinates": [10.85817, 45.36278]}},
{"type": "Feature", "id": "6teYjwi1gp3p3G3s5LREFNUNMG8=", "properties": {"ref": "_LbFdEtiZEdwZRU3Y8wvHA==", "@spider": "aldi_si", "addr:street": "Johannagasse 36 T\u00fcr 1A", "addr:city": "Wien", "addr:postcode": "1050", "name": "HOFER", "opening_hours": "Sa 07:40-18:00; Su closed;Mo-Fr 07:40-19:00; ", "brand": "Aldi"}, "geometry": {"type": "Point", "coordinates": [16.34666, 48.18615]}},
{"type": "Feature", "id": "KlVhIfS4bhhm1hx6MjHdKyQEXi8=", "properties": {"ref": "WFACIJ1bv5PZ-kxHJSgXMA==", "@spider": "aldi_si", "addr:street": "Bergsteiggasse 36-38", "addr:city": "Wien", "addr:postcode": "1170", "name": "HOFER", "opening_hours": "Sa 07:40-18:00; Su closed;Mo-Fr 07:40-19:00; ", "brand": "Aldi"}, "geometry": {"type": "Point", "coordinates": [16.33559, 48.21831]}},
{"type": "Feature", "id": "LvuyytULno7h88EDLQA5LwLyYnI=", "properties": {"ref": "aQOwcyD_mP6cqlCryL9PKA==", "@spider": "aldi_si", "addr:street": "Erlachgasse 134-140", "addr:city": "Wien", "addr:postcode": "1100", "name": "HOFER", "opening_hours": "Sa 07:40-18:00; Su closed;Mo-Fr 07:40-19:00; ", "brand": "Aldi"}, "geometry": {"type": "Point", "coordinates": [16.36534, 48.17777]}},
{"type": "Feature", "id": "qv_afm5LtTpWstXv7gZNkXzrni0=", "properties": {"ref": "1Z0Y-oREFlq4Wsa5l4I3vQ==", "@spider": "aldi_si", "addr:street": "D\u00f6blerhofstra\u00dfe 8", "addr:city": "Wien", "addr:postcode": "1030", "name": "HOFER", "opening_hours": "Sa 07:40-18:00; Su closed;Mo-Fr 07:40-19:00; ", "brand": "Aldi"}, "geometry": {"type": "Point", "coordinates": [16.41431, 48.1856]}},
{"type": "Feature", "id": "mNv5--qlRq-ClK-SPEPRCmXm9VA=", "properties": {"ref": "dgjOWt5X9DcwvOdXLVaIdg==", "@spider": "aldi_si", "addr:street": "Haselbach 30", "addr:city": "Altenfelden", "addr:postcode": "4121", "name": "HOFER", "opening_hours": "Sa 07:15-18:00; Su closed;Mo-Fr 07:15-19:00; ", "brand": "Aldi"}, "geometry": {"type": "Point", "coordinates": [13.96947, 48.49679]}},
{"type": "Feature", "id": "qv1s6bYt61VBUk6KZ75Uqegsi3o=", "properties": {"ref": "wDj0zY0Nd7_cUJ8wWCEa3Q==", "@spider": "aldi_si", "addr:street": "Wirtschaftszeile 2", "addr:city": "Rohrbach", "addr:postcode": "4150", "name": "HOFER", "opening_hours": "Sa 07:15-18:00; Su closed;Mo-Fr 07:15-19:00; ", "brand": "Aldi"}, "geometry": {"type": "Point", "coordinates": [13.98045, 48.56757]}},
{"type": "Feature", "id": "J3TlXsQ9eJ34xVHShkLwPZDN82o=", "properties": {"ref": "WxjftqGaO_gKNW8TYiHY-Q==", "@spider": "aldi_si", "addr:street": "Karlingerstra\u00dfe 19", "addr:city": "Hartkirchen", "addr:postcode": "4081", "name": "HOFER", "opening_hours": "Sa 07:15-18:00; Su closed;Mo-Fr 07:15-19:00; ", "brand": "Aldi"}, "geometry": {"type": "Point", "coordinates": [14.00357, 48.36067]}},
{"type": "Feature", "id": "HEUwC0w6mq3XNSscYeHXGS4G_qg=", "properties": {"ref": "RB2JLLNWpU1LVINPr97Ukg==", "@spider": "aldi_si", "addr:street": "Via Lombardia 1", "addr:city": "Bagnolo Mella", "addr:postcode": "25021", "name": "ALDI", "opening_hours": "Sa 08:30-20:30; Su 09:00-20:00; Mo-Fr 08:30-20:30; ", "brand": "Aldi"}, "geometry": {"type": "Point", "coordinates": [10.18791, 45.42778]}},
{"type": "Feature", "id": "BDvi2RGOHS0cW_gBFVao17gl_fc=", "properties": {"ref": "slUsLhYnNtGILMn4yF8m9Q==", "@spider": "aldi_si", "addr:street": "Via Giorgione 7", "addr:city": "Brescia", "addr:postcode": "25124", "name": "ALDI", "opening_hours": "Sa closed;Su closed;Mo closed;Tu closed;We closed;Th closed;Fr closed;", "brand": "Aldi"}, "geometry": {"type": "Point", "coordinates": [10.24902, 45.51372]}},
{"type": "Feature", "id": "A14GcmX9CjOd5A-HIv31-y-j7Oo=", "properties": {"ref": "yyeZgNaX1jaf4HL1KHOPNA==", "@spider": "aldi_si", "addr:street": "Bergerbr\u00e4uhofstra\u00dfe 40a", "addr:city": "Salzburg", "addr:postcode": "5020", "name": "HOFER", "opening_hours": "Sa 07:40-18:00; Su closed;Mo-Fr 07:40-19:00; ", "brand": "Aldi"}, "geometry": {"type": "Point", "coordinates": [13.05798, 47.81888]}},
{"type": "Feature", "id": "__DEMtj5rP1ORszqL-wLLEvmPZE=", "properties": {"ref": "8m4xs0APiPLKHs3ZIt6IRA==", "@spider": "aldi_si", "addr:street": "Friedensstra\u00dfe 4", "addr:city": "Salzburg", "addr:postcode": "5020", "name": "HOFER", "opening_hours": "Sa 07:40-18:00; Su closed;Mo-Fr 07:40-19:00; ", "brand": "Aldi"}, "geometry": {"type": "Point", "coordinates": [13.06588, 47.78614]}},
{"type": "Feature", "id": "lHDnnnayKgqKF6i8nTkLTs_9hro=", "properties": {"ref": "eJoz4jAaNoT01jGOg4o4YQ==", "@spider": "aldi_si", "addr:street": "Moosfeldstra\u00dfe 2b", "addr:city": "Bergheim", "addr:postcode": "5101", "name": "HOFER", "opening_hours": "Sa 07:40-18:00; Su closed;Mo-Fr 07:40-19:00; ", "brand": "Aldi"}, "geometry": {"type": "Point", "coordinates": [13.05712, 47.83818]}},
{"type": "Feature", "id": "Pd_1XDuXMKBzhKD7oP0cffVvM14=", "properties": {"ref": "6cmw4C-bbgvrQz2C5Pv2PQ==", "@spider": "aldi_si", "addr:street": "Schillerstra\u00dfe 25", "addr:city": "Salzburg", "addr:postcode": "5020", "name": "HOFER", "opening_hours": "Sa 07:40-18:00; Su closed;Mo-Fr 07:40-19:00; ", "brand": "Aldi"}, "geometry": {"type": "Point", "coordinates": [13.03945, 47.82228]}},
{"type": "Feature", "id": "PcCtgIeqF7NB1txej-upaapah-Q=", "properties": {"ref": "jZJbl__eRACYc22RPRW0sQ==", "@spider": "aldi_si", "addr:street": "Dr.-Karl-Psenner-Stra\u00dfe 56", "addr:city": "Schwaz", "addr:postcode": "6130", "name": "HOFER", "opening_hours": "Sa 07:15-18:00; Su closed;Mo-Fr 07:15-19:00; ", "brand": "Aldi"}, "geometry": {"type": "Point", "coordinates": [11.71442, 47.3564]}},
{"type": "Feature", "id": "rm2xI4RDENH1E14_345cASLwlQg=", "properties": {"ref": "VsfG-9fAR6D2-gyV0WQjWg==", "@spider": "aldi_si", "addr:street": "Bernsteinstra\u00dfe/Top E.05 2", "addr:city": "Hohenau an der March", "addr:postcode": "2273", "name": "HOFER", "opening_hours": "Sa 07:15-18:00; Su closed;Mo-Fr 07:15-19:30; ", "brand": "Aldi"}, "geometry": {"type": "Point", "coordinates": [16.90251, 48.60368]}},
{"type": "Feature", "id": "GJ4fARUON-dW9_kZ2oPnu9OxGjo=", "properties": {"ref": "E9TwOQRfUpmkLOvq_FFECA==", "@spider": "aldi_si", "addr:street": "Corso Adige 4", "addr:city": "Vercelli", "addr:postcode": "13100", "name": "ALDI", "opening_hours": "Sa 08:30-21:00; Su 09:00-20:00; Mo-Fr 08:30-21:00; ", "brand": "Aldi"}, "geometry": {"type": "Point", "coordinates": [8.39251, 45.32493]}},
{"type": "Feature", "id": "4a04ePDPSemBf5GT3X8d-ASFPuE=", "properties": {"ref": "rBqjRwhjrSNsY-UpmKZrQw==", "@spider": "aldi_si", "addr:street": "Hofer Stra\u00dfe 1", "addr:city": "Braunau", "addr:postcode": "5280", "name": "HOFER", "opening_hours": "Sa 07:15-18:00; Su closed;Mo-Fr 07:15-19:00; ", "brand": "Aldi"}, "geometry": {"type": "Point", "coordinates": [13.04918, 48.24432]}},
{"type": "Feature", "id": "HN2oosxDxX77nP2j7rputkL159A=", "properties": {"ref": "D7UBQDwn4c24HMy03heLgQ==", "@spider": "aldi_si", "addr:street": "B\u00e1thory u. 8.", "addr:city": "Budapest", "addr:postcode": "1054", "name": "ALDI", "opening_hours": "Sa 06:30-21:00; Su 07:00-19:00; Mo-Fr 06:30-21:00; ", "brand": "Aldi"}, "geometry": {"type": "Point", "coordinates": [19.0502, 47.5061]}},
{"type": "Feature", "id": "6Zr9q-d5D84EKab7x5hN_KdeUwA=", "properties": {"ref": "PAo9TBPNz-0HhWNSGFWqvQ==", "@spider": "aldi_si", "addr:street": "Csepeli \u00fat 26.", "addr:city": "Szigetszentmikl\u00f3s", "addr:postcode": "2310", "name": "ALDI", "opening_hours": "Sa 07:00-20:00; Su 07:00-19:00; Mo-Fr 07:00-20:00; ", "brand": "Aldi"}, "geometry": {"type": "Point", "coordinates": [19.04733, 47.36997]}},
{"type": "Feature", "id": "yAXF1LDk3TtOp02mpsaAyrjxdLg=", "properties": {"ref": "-kc5RRZKlCXQdOlcbCm3pQ==", "@spider": "aldi_si", "addr:street": "Viale del Lavoro 23", "addr:city": "Verona", "addr:postcode": "37135", "name": "ALDI", "opening_hours": "Sa 08:30-20:30; Su 09:00-20:00; Mo-Fr 08:30-20:30; ", "brand": "Aldi"}, "geometry": {"type": "Point", "coordinates": [10.9796, 45.41201]}},
{"type": "Feature", "id": "S7dtXWr50uEtvr2ncAglM7BENmE=", "properties": {"ref": "IrZ1KgVGgtKiWuQFfC8GAw==", "@spider": "aldi_si", "addr:street": "Piazza Cittadella 24", "addr:city": "Verona", "addr:postcode": "37122", "name": "ALDI", "opening_hours": "Sa 08:00-21:00; Su 08:30-20:30; Mo-Fr 07:30-21:00; ", "brand": "Aldi"}, "geometry": {"type": "Point", "coordinates": [10.99418, 45.43695]}},
{"type": "Feature", "id": "4zonfauyhPQzHlNfMXjt8X_05Ts=", "properties": {"ref": "Ed3lLIe3nQ8fdiwC2iQXRQ==", "@spider": "aldi_si", "addr:street": "Donaucitystra\u00dfe 9", "addr:city": "Wien", "addr:postcode": "1220", "name": "HOFER", "opening_hours": "Sa 07:40-18:00; Su closed;Mo-Fr 07:40-20:00; ", "brand": "Aldi"}, "geometry": {"type": "Point", "coordinates": [16.41229, 48.23289]}},
{"type": "Feature", "id": "A5EBcIW5woHVghqiJidX8g93N_8=", "properties": {"ref": "4-HvgFGT7v1XkH1ZlQiZQg==", "@spider": "aldi_si", "addr:street": "Wilhelm-Redl-Stra\u00dfe 4", "addr:city": "Andorf", "addr:postcode": "4770", "name": "HOFER", "opening_hours": "Sa 07:15-18:00; Su closed;Mo-Fr 07:15-19:00; ", "brand": "Aldi"}, "geometry": {"type": "Point", "coordinates": [13.56699, 48.36601]}},
{"type": "Feature", "id": "-Sqxa-NnKbFuVBCpSjg0iT7xrJg=", "properties": {"ref": "nryNa8UEVv2YsCRNNuITrg==", "@spider": "aldi_si", "addr:street": "Via del Brennero 35", "addr:city": "Rovereto", "addr:postcode": "38068", "name": "ALDI", "opening_hours": "Sa 08:30-20:30; Su-Fr 08:30-20:30; ", "brand": "Aldi"}, "geometry": {"type": "Point", "coordinates": [11.03913, 45.90519]}},
{"type": "Feature", "id": "cDeDjj3l_be9XHFpySACKis8iuw=", "properties": {"ref": "yimw870khBBv_cvyimHEYw==", "@spider": "aldi_si", "addr:street": "Via del Garda 42", "addr:city": "Rovereto", "addr:postcode": "38068", "name": "ALDI", "opening_hours": "Sa 08:30-20:30; Su 08:30-20:00; Mo-Fr 08:30-20:30; ", "brand": "Aldi"}, "geometry": {"type": "Point", "coordinates": [11.01534, 45.86839]}},
{"type": "Feature", "id": "GFfPryHtppx-WII1qI7oYECle2c=", "properties": {"ref": "2IBQmymBwTDyHDbz9n603Q==", "@spider": "aldi_si", "addr:street": "Via Bostone 36", "addr:city": "Villanuova sul Clisi", "addr:postcode": "25089", "name": "ALDI", "opening_hours": "Sa 08:30-20:30; Su 09:00-20:00; Mo-Fr 08:30-20:30; ", "brand": "Aldi"}, "geometry": {"type": "Point", "coordinates": [10.443, 45.59516]}},
{"type": "Feature", "id": "bXqMGsKkT_DPK12hlhGeJjRU4D8=", "properties": {"ref": "Dp0rOhcIlDuEp8xvpuusAg==", "@spider": "aldi_si", "addr:street": "Via Europa 13", "addr:city": "Sal\u00f2", "addr:postcode": "25087", "name": "ALDI", "opening_hours": "Sa 09:30-20:30; Su 09:00-20:00; Mo-Fr 08:30-20:30; ", "brand": "Aldi"}, "geometry": {"type": "Point", "coordinates": [10.51619, 45.58725]}},
{"type": "Feature", "id": "pZa08v2su1Dhpl4wbYD5LaqGNiY=", "properties": {"ref": "hKvw1tLyrklN0ttqU3di3w==", "@spider": "aldi_si", "addr:street": "Alpenstra\u00dfe 109", "addr:city": "Salzburg", "addr:postcode": "5020", "name": "HOFER", "opening_hours": "Sa 07:40-18:00; Su closed;Mo-Fr 07:40-19:00; ", "brand": "Aldi"}, "geometry": {"type": "Point", "coordinates": [13.06993, 47.77454]}},
{"type": "Feature", "id": "wO92ZFjUIe4-Xj2OPslvph23UBc=", "properties": {"ref": "TuWeFTFqmfJxS31Yn4ZAoA==", "@spider": "aldi_si", "addr:street": "Gewerbestra\u00dfe 1a", "addr:city": "Eugendorf", "addr:postcode": "5301", "name": "HOFER", "opening_hours": "Sa 07:40-18:00; Su closed;Mo-Fr 07:40-19:00; ", "brand": "Aldi"}, "geometry": {"type": "Point", "coordinates": [13.12938, 47.86078]}},
{"type": "Feature", "id": "IP71L-rJGUBiVSKVbb_L9SSLVGM=", "properties": {"ref": "mr6O6ghUBJ4RsEHWe_LQ1Q==", "@spider": "aldi_si", "addr:street": "Julius-Welser-Stra\u00dfe 28", "addr:city": "Salzburg", "addr:postcode": "5020", "name": "HOFER", "opening_hours": "Sa 07:40-18:00; Su closed;Mo-Fr 07:40-19:00; ", "brand": "Aldi"}, "geometry": {"type": "Point", "coordinates": [13.01488, 47.80822]}},
{"type": "Feature", "id": "Q8fOQEgDd114kVNDGj_h09WGJp8=", "properties": {"ref": "fpBEfubs-h9xZ5mm0It5WQ==", "@spider": "aldi_si", "addr:street": "Via Carso 40/e", "addr:city": "Biella", "addr:postcode": "13900", "name": "ALDI", "opening_hours": "Sa 08:30-20:30; Su 09:00-20:00; Mo-Fr 08:30-20:30; ", "brand": "Aldi"}, "geometry": {"type": "Point", "coordinates": [8.06415, 45.55817]}},
{"type": "Feature", "id": "oleaLMQkScwX2tdoyUvCO3HMej8=", "properties": {"ref": "JrWJbouHBmOywQHTCurHHg==", "@spider": "aldi_si", "addr:street": "Pirath 19", "addr:city": "Weng bei Altheim", "addr:postcode": "4952", "name": "HOFER", "opening_hours": "Sa 07:15-18:00; Su closed;Mo-Fr 07:15-19:00; ", "brand": "Aldi"}, "geometry": {"type": "Point", "coordinates": [13.21195, 48.25044]}},
{"type": "Feature", "id": "6PTWSARLZNu5IlnvpdsukW4b0c0=", "properties": {"ref": "_mvgED3vXqAl785W4a2big==", "@spider": "aldi_si", "addr:street": "Gundertshausen 114", "addr:city": "Eggelsberg", "addr:postcode": "5142", "name": "HOFER", "opening_hours": "Sa 07:15-18:00; Su closed;Mo-Fr 07:15-19:00; ", "brand": "Aldi"}, "geometry": {"type": "Point", "coordinates": [12.99277, 48.09055]}},
{"type": "Feature", "id": "6lgwS2JTwzt_YUUdiy8W-5wcKFs=", "properties": {"ref": "kAS4ftUGn6v1FFfvzL4cZQ==", "@spider": "aldi_si", "addr:street": "V\u00e1ci \u00fat 14.", "addr:city": "Budapest", "addr:postcode": "1132", "name": "ALDI", "opening_hours": "Sa 06:30-21:00; Su 07:00-19:00; Mo-Fr 06:30-21:00; ", "brand": "Aldi"}, "geometry": {"type": "Point", "coordinates": [19.05725, 47.51314]}},
{"type": "Feature", "id": "QEDQZHka9ZdnmScqbcw9LHtO8Ik=", "properties": {"ref": "3RqBT5bB6iH20Bi_Y6GN8A==", "@spider": "aldi_si", "addr:street": "Pesti \u00fat 2.", "addr:city": "Budapest", "addr:postcode": "1173", "name": "ALDI", "opening_hours": "Sa 06:30-21:00; Su 07:00-19:00; Mo-Fr 06:30-21:00; ", "brand": "Aldi"}, "geometry": {"type": "Point", "coordinates": [19.22585, 47.48529]}},
{"type": "Feature", "id": "uwwsywHWq40wjO8ToFDwhJRoPAs=", "properties": {"ref": "Ku7FCgNeouWq_Vyh8I7_4w==", "@spider": "aldi_si", "addr:street": "Via Mameli 75", "addr:city": "Verona", "addr:postcode": "37124", "name": "ALDI", "opening_hours": "Sa closed;Su closed;Mo closed;Tu closed;We closed;Th closed;Fr closed;", "brand": "Aldi"}, "geometry": {"type": "Point", "coordinates": [10.97617, 45.45798]}},
{"type": "Feature", "id": "Hwhhs6LMwsfARBYJbZbOgVyxb8U=", "properties": {"ref": "M_ZqczTQm1KgypuQH2esYQ==", "@spider": "aldi_si", "addr:street": "Corso Venezia 107", "addr:city": "Verona", "addr:postcode": "37131", "name": "ALDI", "opening_hours": "Sa 08:30-21:00; Su 09:00-20:00; Mo-Fr 08:30-21:00; ", "brand": "Aldi"}, "geometry": {"type": "Point", "coordinates": [11.0218, 45.43891]}},
{"type": "Feature", "id": "QWVDY3khe4UkiLbUjqSYbZV7xYA=", "properties": {"ref": "WRRgAd9SY0_2v0JAw5MOMw==", "@spider": "aldi_si", "addr:street": "H\u00fcttenbrennergasse 5", "addr:city": "Wien", "addr:postcode": "1030", "name": "HOFER", "opening_hours": "Sa 07:40-18:00; Su closed;Mo-Fr 07:40-19:00; ", "brand": "Aldi"}, "geometry": {"type": "Point", "coordinates": [16.39578, 48.17611]}},
{"type": "Feature", "id": "DZY67YMeM73EhqHo01yox3iCF2E=", "properties": {"ref": "XIT0V4dVda0x7A_TY5hhjQ==", "@spider": "aldi_si", "addr:street": "H\u00fctteldorfer Stra\u00dfe 39-41", "addr:city": "Wien", "addr:postcode": "1150", "name": "HOFER", "opening_hours": "Sa 07:40-18:00; Su closed;Mo-Fr 07:40-19:00; ", "brand": "Aldi"}, "geometry": {"type": "Point", "coordinates": [16.33038, 48.20008]}},
{"type": "Feature", "id": "DbVY9HHFNdwOCwfaYKpS-Igl7Q8=", "properties": {"ref": "VAS7btNH0QYaoxq_827lSg==", "@spider": "aldi_si", "addr:street": "Sch\u00f6nbrunner Stra\u00dfe 173", "addr:city": "Wien", "addr:postcode": "1120", "name": "HOFER", "opening_hours": "Sa 07:40-18:00; Su closed;Mo-Fr 07:40-19:00; ", "brand": "Aldi"}, "geometry": {"type": "Point", "coordinates": [16.34011, 48.18664]}},
{"type": "Feature", "id": "wH-LG1P8EFLVHZo3yZdwe727VYw=", "properties": {"ref": "IFUCeyL0bGoYMnO4pzsHzQ==", "@spider": "aldi_si", "addr:street": "Adalbert Stifter Stra\u00dfe 40", "addr:city": "Wien", "addr:postcode": "1200", "name": "HOFER", "opening_hours": "Sa 07:40-18:00; Su closed;Mo-Fr 07:40-20:00; ", "brand": "Aldi"}, "geometry": {"type": "Point", "coordinates": [16.37258, 48.24146]}},
{"type": "Feature", "id": "IkpRBIL7DkSGBRUCkT7urFjel04=", "properties": {"ref": "L1m7zDF6KrE3yP26kFJ-RA==", "@spider": "aldi_si", "addr:street": "Schiffm\u00fchlenstra\u00dfe 94", "addr:city": "Wien", "addr:postcode": "1220", "name": "HOFER", "opening_hours": "Sa 07:40-18:00; Su closed;Mo-Fr 07:40-20:00; ", "brand": "Aldi"}, "geometry": {"type": "Point", "coordinates": [16.42428, 48.22407]}},
{"type": "Feature", "id": "5Z12US_s_4RR0-Vuuw_gGy2HDf0=", "properties": {"ref": "rtrtWkuM97WCTdZYytLbNw==", "@spider": "aldi_si", "addr:street": "Via Triumplina 75", "addr:city": "Brescia", "addr:postcode": "25123", "name": "ALDI", "opening_hours": "Sa 08:30-20:30; Su 09:00-20:00; Mo-Fr 08:30-20:30; ", "brand": "Aldi"}, "geometry": {"type": "Point", "coordinates": [10.2302, 45.57001]}},
{"type": "Feature", "id": "WrHpaMzP0UluZGEzybVS8Jmqr8I=", "properties": {"ref": "0-jd1sLUaTAWNcKgL876Cw==", "@spider": "aldi_si", "addr:street": "Via Nicolini 5", "addr:city": "Brescia", "addr:postcode": "25126", "name": "ALDI", "opening_hours": "Sa 08:00-21:00; Su 08:30-20:00; Mo-Fr 08:00-21:00; ", "brand": "Aldi"}, "geometry": {"type": "Point", "coordinates": [10.19646, 45.54506]}},
{"type": "Feature", "id": "7Jost_yAE82HNQaeAsuXfG56fDQ=", "properties": {"ref": "bzjJDZ0jwcZvwaUj2-ef2g==", "@spider": "aldi_si", "addr:street": "Innsbrucker Bundesstr. 112", "addr:city": "Salzburg", "addr:postcode": "5020", "name": "HOFER", "opening_hours": "Sa 07:40-18:00; Su closed;Mo-Fr 07:40-19:00; ", "brand": "Aldi"}, "geometry": {"type": "Point", "coordinates": [13.01188, 47.80039]}},
{"type": "Feature", "id": "kKDB7w626LQhMz9QbPooNH9IFLs=", "properties": {"ref": "WZoYrLNvg1wN4h0mO46lbA==", "@spider": "aldi_si", "addr:street": "Marktstra\u00dfe 8", "addr:city": "Elsbethen", "addr:postcode": "5061", "name": "HOFER", "opening_hours": "Sa 07:15-18:00; Su closed;Mo-Fr 07:15-19:30; ", "brand": "Aldi"}, "geometry": {"type": "Point", "coordinates": [13.08483, 47.74891]}},
{"type": "Feature", "id": "tAOTrCKK6G9Z4bO7PC3U1hRCoIY=", "properties": {"ref": "D04s5ts-X8JuMUkaa8_P4w==", "@spider": "aldi_si", "addr:street": "M\u00fcnchner Bundesstra\u00dfe 139", "addr:city": "Salzburg", "addr:postcode": "5020", "name": "HOFER", "opening_hours": "Sa 07:40-18:00; Su closed;Mo-Fr 07:40-19:00; ", "brand": "Aldi"}, "geometry": {"type": "Point", "coordinates": [12.99744, 47.8336]}},
{"type": "Feature", "id": "QCZvh0DbggXUQvgmHob79I-U9i8=", "properties": {"ref": "Ui58yoa6pYlJQcgiE3Kutg==", "@spider": "aldi_si", "addr:street": "Sportplatzstra\u00dfe 2", "addr:city": "Hof b. Sbg.", "addr:postcode": "5322", "name": "HOFER", "opening_hours": "Sa 07:40-18:00; Su closed;Mo-Fr 07:40-19:00; ", "brand": "Aldi"}, "geometry": {"type": "Point", "coordinates": [13.20748, 47.82024]}},
{"type": "Feature", "id": "A_s1gqPA0xMtm8-NQTji3UX8d18=", "properties": {"ref": "5o2uQ16Jbl4Azkkmh2VDzQ==", "@spider": "aldi_si", "addr:street": "Franz-Br\u00f6tzner-Stra\u00dfe 3", "addr:city": "Wals", "addr:postcode": "5071", "name": "HOFER", "opening_hours": "Sa 07:40-18:00; Su closed;Mo-Fr 07:40-19:00; ", "brand": "Aldi"}, "geometry": {"type": "Point", "coordinates": [12.98516, 47.79311]}},
{"type": "Feature", "id": "-w69rWvLhT8gulOi89-Ib8zF31Y=", "properties": {"ref": "q08KRXoBRITHa5Ca1pObRQ==", "@spider": "aldi_si", "addr:street": "D\u00f3zsa Gy\u00f6rgy utca 146.", "addr:city": "Nagykanizsa", "addr:postcode": "8800", "name": "ALDI", "opening_hours": "Sa 07:00-20:00; Su 07:00-19:00; Mo-Fr 07:00-20:00; ", "brand": "Aldi"}, "geometry": {"type": "Point", "coordinates": [17.00772, 46.46271]}},
{"type": "Feature", "id": "ha_L5umhM4fwTl2vTJp44eLAzcI=", "properties": {"ref": "kHdaWsTPw8OHSQEIIQER3A==", "@spider": "aldi_si", "addr:street": "F\u0171z\u00e9r utca 1.", "addr:city": "Kiskunhalas", "addr:postcode": "6400", "name": "ALDI", "opening_hours": "Sa 07:00-20:00; Su 07:00-19:00; Mo-Fr 07:00-20:00; ", "brand": "Aldi"}, "geometry": {"type": "Point", "coordinates": [19.49578, 46.41824]}},
{"type": "Feature", "id": "wfA9T--5CvaPC_GEV_j7mTAEAeA=", "properties": {"ref": "APPaJnqb8EnKXmC71PUa-Q==", "@spider": "aldi_si", "addr:street": "Izs\u00e1ki \u00fat 69.", "addr:city": "Kecskem\u00e9t", "addr:postcode": "6000", "name": "ALDI", "opening_hours": "Sa 06:30-21:00; Su 07:00-19:00; Mo-Fr 06:30-21:00; ", "brand": "Aldi"}, "geometry": {"type": "Point", "coordinates": [19.64079, 46.88941]}},
{"type": "Feature", "id": "Dljocj8h6yKJ4uhOqrWGnoWjmRc=", "properties": {"ref": "Wtr7nMZVEy1uvXLGC_9Drw==", "@spider": "aldi_si", "addr:street": "Wass Albert utca 2.", "addr:city": "Vecs\u00e9s", "addr:postcode": "2220", "name": "ALDI", "opening_hours": "Sa 07:00-21:00; Su 07:00-19:00; Mo-Fr 07:00-21:00; ", "brand": "Aldi"}, "geometry": {"type": "Point", "coordinates": [19.24816, 47.39831]}},
{"type": "Feature", "id": "8C4bQt_UuzjdWtQ1xRlokcb3ilM=", "properties": {"ref": "1N32RngC8f6bPJ2ovbVoqw==", "@spider": "aldi_si", "addr:street": "Rotenhofgasse 3-5", "addr:city": "Wien", "addr:postcode": "1100", "name": "HOFER", "opening_hours": "Sa 07:40-18:00; Su closed;Mo-Fr 07:40-19:00; ", "brand": "Aldi"}, "geometry": {"type": "Point", "coordinates": [16.37664, 48.1738]}},
{"type": "Feature", "id": "Dtchdb4mQKBJq_YXwzmuY5i5N5M=", "properties": {"ref": "0CkX_EP6oRkYtxdROU7XyA==", "@spider": "aldi_si", "addr:street": "Marchfeldstra\u00dfe 14", "addr:city": "Wien", "addr:postcode": "1200", "name": "HOFER", "opening_hours": "Sa 07:40-18:00; Su closed;Mo-Fr 07:40-20:00; ", "brand": "Aldi"}, "geometry": {"type": "Point", "coordinates": [16.37876, 48.24239]}},
{"type": "Feature", "id": "aWM_sKfuFjqgP6UfUsIuiuqUfSQ=", "properties": {"ref": "4S1ri6XeZsi6fqFEAJX2mQ==", "@spider": "aldi_si", "addr:street": "Belokranjska cesta 24", "addr:city": "\u010crnomelj", "addr:postcode": "8340", "name": "HOFER", "opening_hours": "Sa 08:00-20:00; Su closed;Mo-Fr 08:00-20:00; ", "brand": "Aldi"}, "geometry": {"type": "Point", "coordinates": [15.19748, 45.58123]}},
{"type": "Feature", "id": "xWKFMlwJ3ZY6sRfgFHPXfzYlljM=", "properties": {"ref": "oX4h_m5uqXREx0b50PiEsw==", "@spider": "aldi_si", "addr:street": "Vilharjeva cesta 58", "addr:city": "Ilirska Bistrica", "addr:postcode": "6250", "name": "HOFER", "opening_hours": "Sa 08:00-20:00; Su closed;Mo-Fr 08:00-20:00; ", "brand": "Aldi"}, "geometry": {"type": "Point", "coordinates": [14.2293, 45.57618]}},
{"type": "Feature", "id": "ZcQV3mDUJOGLJ6C527YXqSHyrtg=", "properties": {"ref": "CuqnJ80MfoNbaNyxJlj45g==", "@spider": "aldi_si", "addr:street": "Via San Lorenzo 23/23A", "addr:city": "Brunico", "addr:postcode": "39031", "name": "ALDI", "opening_hours": "Sa 07:30-20:30; Su 08:30-19:00; Mo-Fr 07:30-20:30; ", "brand": "Aldi"}, "geometry": {"type": "Point", "coordinates": [11.93022, 46.79228]}},
{"type": "Feature", "id": "r4Fp_cQgDiELH3oD65LJrZkjjlY=", "properties": {"ref": "Am3ISiL5UW8ieIlkp9avsw==", "@spider": "aldi_si", "addr:street": "Alpenstra\u00dfe 102", "addr:city": "Anif", "addr:postcode": "5081", "name": "HOFER", "opening_hours": "Sa 07:40-18:00; Su closed;Mo-Fr 07:40-20:00; ", "brand": "Aldi"}, "geometry": {"type": "Point", "coordinates": [13.05077, 47.73828]}},
{"type": "Feature", "id": "Gi-Kak7Pp8OycaydrM432AdmKDM=", "properties": {"ref": "V9iE3hfuQ6Adqawb_4GMJQ==", "@spider": "aldi_si", "addr:street": "Via Bartolomeo Chiarini 1", "addr:city": "Fossano", "addr:postcode": "12045", "name": "ALDI", "opening_hours": "Sa 08:30-20:30; Su 09:00-20:00; Mo-Fr 08:30-20:30; ", "brand": "Aldi"}, "geometry": {"type": "Point", "coordinates": [7.71219, 44.55208]}},
{"type": "Feature", "id": "Rfa1j6R-jnMsuQtbkIc-P5IHfgk=", "properties": {"ref": "k-QqITijs_Tiu9psR2T1tg==", "@spider": "aldi_si", "addr:street": "Via Pierina Campanella 3", "addr:city": "Asti", "addr:postcode": "14100", "name": "ALDI", "opening_hours": "Sa 08:30-20:30; Su 09:00-20:00; Mo-Fr 08:30-20:30; ", "brand": "Aldi"}, "geometry": {"type": "Point", "coordinates": [8.23498, 44.90616]}},
{"type": "Feature", "id": "eyDtSm3UX109SvniaYmh2LR1CNg=", "properties": {"ref": "XJva8J_JFzyJSsb81NUCmA==", "@spider": "aldi_si", "addr:street": "Via delle Langhe 2", "addr:city": "Mondov\u00ec", "addr:postcode": "12084", "name": "ALDI", "opening_hours": "Sa 08:30-20:30; Su 09:00-20:00; Mo-Fr 08:30-20:30; ", "brand": "Aldi"}, "geometry": {"type": "Point", "coordinates": [7.82103, 44.39726]}},
{"type": "Feature", "id": "uIgImtdtItRh7WoedIm4_TTpNZE=", "properties": {"ref": "PNvRkXLebq-DVikqiF3M4g==", "@spider": "aldi_si", "addr:street": "\u00c9szak-keleti \u00fatgy\u0171r\u0171 6.", "addr:city": "Veszpr\u00e9m", "addr:postcode": "8200", "name": "ALDI", "opening_hours": "Sa 07:00-20:00; Su 07:00-19:00; Mo-Fr 07:00-20:00; ", "brand": "Aldi"}, "geometry": {"type": "Point", "coordinates": [17.92763, 47.10864]}},
{"type": "Feature", "id": "BzxWpZScQoF1PNCfaqY8eyCICA4=", "properties": {"ref": "vGzxno9FDbmv_Sa7bhbZfQ==", "@spider": "aldi_si", "addr:street": "Budapest \u00fat 20-28.", "addr:city": "Veszpr\u00e9m", "addr:postcode": "8200", "name": "ALDI", "opening_hours": "Sa 07:00-20:00; Su 07:00-19:00; Mo-Fr 07:00-20:00; ", "brand": "Aldi"}, "geometry": {"type": "Point", "coordinates": [17.9186, 47.0957]}},
{"type": "Feature", "id": "KEwPx0JGWAzlGRq8QSa4Rap7o3I=", "properties": {"ref": "5bXNimOToUzhKu6X0ZCbYg==", "@spider": "aldi_si", "addr:street": "Kist\u00f3 utca 2.", "addr:city": "Veszpr\u00e9m", "addr:postcode": "8200", "name": "ALDI", "opening_hours": "Sa 07:00-20:00; Su 07:00-19:00; Mo-Fr 07:00-20:00; ", "brand": "Aldi"}, "geometry": {"type": "Point", "coordinates": [17.8952, 47.10705]}},
{"type": "Feature", "id": "e1W_Ca3ONNdooBfsaRQcHXa4oFM=", "properties": {"ref": "IcX5vARPi-HE_xeowIudTw==", "@spider": "aldi_si", "addr:street": "Dornyai B\u00e9la utca 5.", "addr:city": "Veszpr\u00e9m", "addr:postcode": "8200", "name": "ALDI", "opening_hours": "Sa 07:00-20:00; Su 07:00-19:00; Mo-Fr 07:00-20:00; ", "brand": "Aldi"}, "geometry": {"type": "Point", "coordinates": [17.92457, 47.08199]}},
{"type": "Feature", "id": "PgtsGAkW237ogIuqa6V9WbHfCZc=", "properties": {"ref": "I_gTcxRRNLnqG5579VtC8Q==", "@spider": "aldi_si", "addr:street": "Szauter Ferenc utca 3. C.", "addr:city": "Gy\u0151r", "addr:postcode": "9024", "name": "ALDI", "opening_hours": "Sa 07:00-21:00; Su 07:00-19:00; Mo-Fr 07:00-21:00; ", "brand": "Aldi"}, "geometry": {"type": "Point", "coordinates": [17.64715, 47.66627]}},
{"type": "Feature", "id": "DCR6e3x_HmuC4LpwQp32TYeyhvI=", "properties": {"ref": "0Cbt8-1GJ-C3bEJCznTOcA==", "@spider": "aldi_si", "addr:street": "Csipkegy\u00e1ri \u00fat 11.", "addr:city": "Gy\u0151r", "addr:postcode": "9025", "name": "ALDI", "opening_hours": "Sa 07:00-21:00; Su 07:00-19:00; Mo-Fr 07:00-21:00; ", "brand": "Aldi"}, "geometry": {"type": "Point", "coordinates": [17.61512, 47.67685]}},
{"type": "Feature", "id": "ptf6VIcJiJOogp05cKjSdcEf3YQ=", "properties": {"ref": "Gshb3ISHjQYIYmOMChPcTg==", "@spider": "aldi_si", "addr:street": "Malomsz\u00e9ki utca 11.", "addr:city": "Gy\u0151r", "addr:postcode": "9012", "name": "ALDI", "opening_hours": "Sa 07:00-21:00; Su 07:00-19:00; Mo-Fr 07:00-21:00; ", "brand": "Aldi"}, "geometry": {"type": "Point", "coordinates": [17.63202, 47.65287]}},
{"type": "Feature", "id": "5jyIckVSvBrUYO5cX-n3GvRYU3I=", "properties": {"ref": "Gz2_KjdQPMecLsyqgN9ZwA==", "@spider": "aldi_si", "addr:street": "Celli \u00fat 71.", "addr:city": "P\u00e1pa", "addr:postcode": "8500", "name": "ALDI", "opening_hours": "Sa 07:00-20:00; Su 07:00-19:00; Mo-Fr 07:00-20:00; ", "brand": "Aldi"}, "geometry": {"type": "Point", "coordinates": [17.44612, 47.32255]}},
{"type": "Feature", "id": "YWHUAQgzy4_852cWqdAchue3dYI=", "properties": {"ref": "bwsnInLAx1yVRpGHJHYoFA==", "@spider": "aldi_si", "addr:street": "F\u0151 \u00fat 31.", "addr:city": "Ajka", "addr:postcode": "8400", "name": "ALDI", "opening_hours": "Sa 07:00-20:00; Su 07:00-19:00; Mo-Fr 07:00-20:00; ", "brand": "Aldi"}, "geometry": {"type": "Point", "coordinates": [17.54627, 47.11788]}},
{"type": "Feature", "id": "vart5gMmscVYNzOu9rkD42oRvdU=", "properties": {"ref": "RjmSpWRgVLxsS8HQxfdSTw==", "@spider": "aldi_si", "addr:street": "Feh\u00e9rv\u00e1ri \u00fat 5/A", "addr:city": "Gy\u0151r", "addr:postcode": "9028", "name": "ALDI", "opening_hours": "Sa 07:00-21:00; Su 07:00-19:00; Mo-Fr 07:00-21:00; ", "brand": "Aldi"}, "geometry": {"type": "Point", "coordinates": [17.6561, 47.68209]}},
{"type": "Feature", "id": "3OT_j8Quu9TC5Nr2crgnOoxJeac=", "properties": {"ref": "dzv_KuweL_ERxTbBMlDM1g==", "@spider": "aldi_si", "addr:street": "Pressburger Reichsstr 5a-11", "addr:city": "Hainburg", "addr:postcode": "2410", "name": "HOFER", "opening_hours": "Sa 07:40-18:00; Su closed;Mo-Fr 07:40-19:00; ", "brand": "Aldi"}, "geometry": {"type": "Point", "coordinates": [16.94834, 48.14768]}},
{"type": "Feature", "id": "FueJp9pbIJ0nryhd3rciO5NPQzA=", "properties": {"ref": "GK-Z-UiYLuD1xV15YwGf2A==", "@spider": "aldi_si", "addr:street": "Lang\u00e4ckergasse 1", "addr:city": "Frauenkirchen", "addr:postcode": "7132", "name": "HOFER", "opening_hours": "Sa 07:15-18:00; Su closed;Mo-Fr 07:15-19:00; ", "brand": "Aldi"}, "geometry": {"type": "Point", "coordinates": [16.93267, 47.84019]}},
{"type": "Feature", "id": "t1UqFL66BIpC45uX5Swq2lSwUOM=", "properties": {"ref": "tvzDn-do5RUomNINN09V0A==", "@spider": "aldi_si", "addr:street": "Landstra\u00dfe 118", "addr:city": "Hainburg", "addr:postcode": "2410", "name": "HOFER", "opening_hours": "Sa 07:40-18:00; Su closed;Mo-Fr 07:40-19:00; ", "brand": "Aldi"}, "geometry": {"type": "Point", "coordinates": [16.93183, 48.1433]}},
{"type": "Feature", "id": "TRcG1iZyDHKzzfBjXKvKwxhFXsg=", "properties": {"ref": "4dPNQsQywNemfTqABFE3uQ==", "@spider": "aldi_si", "addr:street": "Eisenst\u00e4dter Stra\u00dfe 29", "addr:city": "Kittsee", "addr:postcode": "2421", "name": "HOFER", "opening_hours": "Sa 07:40-18:00; Su closed;Mo-Fr 07:40-19:00; ", "brand": "Aldi"}, "geometry": {"type": "Point", "coordinates": [17.05719, 48.0915]}},
{"type": "Feature", "id": "ObUrIOvQslnjHnwXCkXMppzaQdM=", "properties": {"ref": "H1YjK0PmWZSJ0y_zJjEO4Q==", "@spider": "aldi_si", "addr:street": "Kir\u00e1lyhidai \u00fat 63.", "addr:city": "Mosonmagyar\u00f3v\u00e1r", "addr:postcode": "9200", "name": "ALDI", "opening_hours": "Sa 06:30-20:00; Su 07:00-19:00; Mo-Fr 06:30-20:00; ", "brand": "Aldi"}, "geometry": {"type": "Point", "coordinates": [17.25577, 47.87927]}},
{"type": "Feature", "id": "HxV0TQSF0v_iOmqJqYMOJpr3SnQ=", "properties": {"ref": "-1M3c5lstzhDznlfgnf2IQ==", "@spider": "aldi_si", "addr:street": "Gewerbestra\u00dfe 1", "addr:city": "Parndorf", "addr:postcode": "7111", "name": "HOFER", "opening_hours": "Sa 08:00-18:00; Su closed;Mo-Fr 08:00-19:00; ", "brand": "Aldi"}, "geometry": {"type": "Point", "coordinates": [16.85406, 47.97814]}},
{"type": "Feature", "id": "MjZv52c_YYotOe3IimsoSU93vPY=", "properties": {"ref": "FhhTu0ZvBj5BTVvo023okg==", "@spider": "aldi_si", "addr:street": "Kurzes Hirschfeld", "addr:city": "Neusiedl/See", "addr:postcode": "7100", "name": "HOFER", "opening_hours": "Sa closed;Su closed;Mo closed;Tu closed;We closed;Th closed;Fr closed;", "brand": "Aldi"}, "geometry": {"type": "Point", "coordinates": [16.83746, 47.96696]}},
{"type": "Feature", "id": "r3fe5n9tqk7d25XDDVHEGBKA4y0=", "properties": {"ref": "DknT5vlz149hoXv6dj7gRQ==", "@spider": "aldi_si", "addr:street": "Ulica padlih borcev 11a", "addr:city": "Tolmin", "addr:postcode": "5220", "name": "HOFER", "opening_hours": "Sa 08:00-20:00; Su closed;Mo-Fr 08:00-20:00; ", "brand": "Aldi"}, "geometry": {"type": "Point", "coordinates": [13.72886, 46.18114]}},
{"type": "Feature", "id": "OsjoRcB-9GxMXS7iDF9FYu76YZM=", "properties": {"ref": "j4mapTBQdnIGbxfJIjM08Q==", "@spider": "aldi_si", "addr:street": "Spodnji plav\u017e 3c", "addr:city": "Jesenice", "addr:postcode": "4270", "name": "HOFER", "opening_hours": "Sa 08:00-20:00; Su closed;Mo-Fr 08:00-20:00; ", "brand": "Aldi"}, "geometry": {"type": "Point", "coordinates": [14.03546, 46.44144]}},
{"type": "Feature", "id": "TlY_QGgvRE9Xql95hNamJM1Zsm0=", "properties": {"ref": "P8TxcDlzd_WQikfdDzFxGA==", "@spider": "aldi_si", "addr:street": "K\u00e4rntner Stra\u00dfe 57", "addr:city": "Lienz", "addr:postcode": "9900", "name": "HOFER", "opening_hours": "Sa 07:15-18:00; Su closed;Mo-Fr 07:15-19:30; ", "brand": "Aldi"}, "geometry": {"type": "Point", "coordinates": [12.77781, 46.83233]}},
{"type": "Feature", "id": "hYDaqknGSS9tEwmOA0aKGxCn8TU=", "properties": {"ref": "BIjrBIpSOw8XrZiogNXWrw==", "@spider": "aldi_si", "addr:street": "Dolomitenstra\u00dfe 49", "addr:city": "Lienz", "addr:postcode": "9900", "name": "HOFER", "opening_hours": "Sa 07:15-18:00; Su closed;Mo-Fr 07:15-19:30; ", "brand": "Aldi"}, "geometry": {"type": "Point", "coordinates": [12.75556, 46.82136]}},
{"type": "Feature", "id": "f9C1ukjaIcaUNpAdudFaHkxBIIY=", "properties": {"ref": "2Jo9YG6K5jccaZrwnBHzjg==", "@spider": "aldi_si", "addr:street": "Hermann-Gmeiner-Stra\u00dfe 14", "addr:city": "Nu\u00dfdorf-Debant", "addr:postcode": "9990", "name": "HOFER", "opening_hours": "Sa 07:15-18:00; Su closed;Mo-Fr 07:15-19:30; ", "brand": "Aldi"}, "geometry": {"type": "Point", "coordinates": [12.81513, 46.82743]}},
{"type": "Feature", "id": "UCV79EvMGU7jey6LArD4VjRNDtk=", "properties": {"ref": "SSBj9wRiEaNrDsPRrzXoFg==", "@spider": "aldi_si", "addr:street": "Via Nazionale 21/D", "addr:city": "Reana del Rojale", "addr:postcode": "33010", "name": "ALDI", "opening_hours": "Sa 08:30-20:30; Su 09:00-20:00; Mo-Fr 08:30-20:30; ", "brand": "Aldi"}, "geometry": {"type": "Point", "coordinates": [13.22304, 46.13986]}},
{"type": "Feature", "id": "Tm8V0gcPnz5JLT8EXb3qWTytFi4=", "properties": {"ref": "hjyEpaPhb4pBnIeGKT993A==", "@spider": "aldi_si", "addr:street": "Via Tricesimo 95", "addr:city": "Udine", "addr:postcode": "33100", "name": "ALDI", "opening_hours": "Sa 08:30-20:30; Su 09:00-20:00; Mo-Fr 08:30-20:30; ", "brand": "Aldi"}, "geometry": {"type": "Point", "coordinates": [13.2335, 46.08812]}},
{"type": "Feature", "id": "4-d_EVNyxj6bKclKRnTZ9hK6q74=", "properties": {"ref": "pfyPd1CkEJ0IfKu6T7Y2FA==", "@spider": "aldi_si", "addr:street": "Via XXIII Marzo 1848, 18", "addr:city": "Udine", "addr:postcode": "33100", "name": "ALDI", "opening_hours": "Sa 08:30-20:30; Su 09:00-20:00; Mo-Fr 08:30-20:00; ", "brand": "Aldi"}, "geometry": {"type": "Point", "coordinates": [13.24887, 46.05904]}},
{"type": "Feature", "id": "-6ETZ4wWjV-u-7bJGrSYif1g3x0=", "properties": {"ref": "n7KiztENdIc-PCvLAKmpug==", "@spider": "aldi_si", "addr:street": "Via Tina Anselmi 10", "addr:city": "Mestre", "addr:postcode": "30173", "name": "ALDI", "opening_hours": "Sa 08:30-20:30; Su 09:00-20:00; Mo-Fr 08:30-20:30; ", "brand": "Aldi"}, "geometry": {"type": "Point", "coordinates": [12.26063, 45.48827]}},
{"type": "Feature", "id": "A6Vo2_rxEM7AyPULVBsDR6VFL38=", "properties": {"ref": "RiSxEWrzqZjLdPJYDkkxpg==", "@spider": "aldi_si", "addr:street": "Via Don Luigi Peron 14", "addr:city": "Mestre", "addr:postcode": "30174", "name": "ALDI", "opening_hours": "Sa 08:30-20:30; Su 09:00-20:00; Mo-Fr 08:30-20:30; ", "brand": "Aldi"}, "geometry": {"type": "Point", "coordinates": [12.23284, 45.51703]}},
{"type": "Feature", "id": "qhrClhpro3Bz32rmsxkYuOC7Xi4=", "properties": {"ref": "JdMVCi_hPg1Eun7GOQrBiQ==", "@spider": "aldi_si", "addr:street": "Badstubenweg 80", "addr:city": "Villach", "addr:postcode": "9500", "name": "HOFER", "opening_hours": "Sa 07:15-18:00; Su closed;Mo-Fr 07:15-19:30; ", "brand": "Aldi"}, "geometry": {"type": "Point", "coordinates": [13.82634, 46.63182]}},
{"type": "Feature", "id": "HE2t-s40IjuLHKhNLqWGJeLxBJw=", "properties": {"ref": "hfsMUY6rPhW-0CTXTeFEog==", "@spider": "aldi_si", "addr:street": "Tiroler Stra\u00dfe 51", "addr:city": "Villach", "addr:postcode": "9500", "name": "HOFER", "opening_hours": "Sa 07:15-18:00; Su closed;Mo-Fr 07:15-19:30; ", "brand": "Aldi"}, "geometry": {"type": "Point", "coordinates": [13.83002, 46.6139]}},
{"type": "Feature", "id": "a9Hv8tgqX8jFPadLpgd9zjRdwXU=", "properties": {"ref": "CR09NeWy34hAWYbqsj7o_w==", "@spider": "aldi_si", "addr:street": "Gewerbegebiet", "addr:city": "Treffen am Ossiacher See", "addr:postcode": "9521", "name": "HOFER", "opening_hours": "Sa 07:15-18:00; Su closed;Mo-Fr 07:15-19:30; ", "brand": "Aldi"}, "geometry": {"type": "Point", "coordinates": [13.8744, 46.65194]}},
{"type": "Feature", "id": "3jlO4jtNzOt0rkcyfvbPBR6TI4Q=", "properties": {"ref": "k0L8OW1I9l6SooRDmvg0mg==", "@spider": "aldi_si", "addr:street": "Via Rossi snc", "addr:city": "Rubano", "addr:postcode": "35030", "name": "ALDI", "opening_hours": "Sa 08:30-20:30; Su 09:00-20:00; Mo-Fr 08:30-20:30; ", "brand": "Aldi"}, "geometry": {"type": "Point", "coordinates": [11.78863, 45.42605]}},
{"type": "Feature", "id": "nmBWFchgDybBaBOcO9LWEyuM8Vg=", "properties": {"ref": "dt6yx7PFYNYdRkYTsgIS7g==", "@spider": "aldi_si", "addr:street": "Viale della Repubblica,19/A", "addr:city": "Villorba", "addr:postcode": "31020", "name": "ALDI", "opening_hours": "Sa 08:00-20:30; Su 09:00-20:00; Mo-Fr 08:00-20:30; ", "brand": "Aldi"}, "geometry": {"type": "Point", "coordinates": [12.25238, 45.69291]}},
{"type": "Feature", "id": "YMsHDNxrlEyk0zEvijdYZI9xgPI=", "properties": {"ref": "o5DQSTklq9CAdMYH8o0n6Q==", "@spider": "aldi_si", "addr:street": "Via Mattei 9 / E", "addr:city": "Marcon", "addr:postcode": "30020", "name": "ALDI", "opening_hours": "Sa 08:30-20:30; Su 09:00-20:00; Mo-Fr 08:30-20:30; ", "brand": "Aldi"}, "geometry": {"type": "Point", "coordinates": [12.30745, 45.54802]}},
{"type": "Feature", "id": "t68ty-rng1EMTeF8pMLYAu_OgvU=", "properties": {"ref": "YMklSEnSb7sxVA8WtismTg==", "@spider": "aldi_si", "addr:street": "Via Romea 64", "addr:city": "Gambarare di Mira", "addr:postcode": "30034", "name": "ALDI", "opening_hours": "Sa 08:30-21:00; Su 09:00-20:00; Mo-Fr 08:30-20:30; ", "brand": "Aldi"}, "geometry": {"type": "Point", "coordinates": [12.17148, 45.42272]}},
{"type": "Feature", "id": "1MyDm1qOt8wYMYGeFXJUuUpIi1A=", "properties": {"ref": "HUhzov7Bb5A3V0F7xw6snQ==", "@spider": "aldi_si", "addr:street": "Ossiacher Zeile 56b", "addr:city": "Villach", "addr:postcode": "9500", "name": "HOFER", "opening_hours": "Sa 07:15-18:00; Su closed;Mo-Fr 07:15-19:30; ", "brand": "Aldi"}, "geometry": {"type": "Point", "coordinates": [13.85912, 46.6141]}},
{"type": "Feature", "id": "MG7UVj0smZ6Qm1Hh_HzCRa8FNGU=", "properties": {"ref": "R3ZUU1BQZfFqqfsF6BmwrQ==", "@spider": "aldi_si", "addr:street": "Ackerweg 1", "addr:city": "Villach", "addr:postcode": "9500", "name": "HOFER", "opening_hours": "Sa 07:40-18:00; Su closed;Mo-Fr 07:40-20:00; ", "brand": "Aldi"}, "geometry": {"type": "Point", "coordinates": [13.83917, 46.59677]}},
{"type": "Feature", "id": "UrQXI7j8A-kjmQwnoQFaRr_ZCZU=", "properties": {"ref": "h_M7xdeU5ipOgsYNx2D1Ig==", "@spider": "aldi_si", "addr:street": "Karawankenweg 38a", "addr:city": "Villach", "addr:postcode": "9500", "name": "HOFER", "opening_hours": "Sa 07:15-18:00; Su closed;Mo-Fr 07:15-19:30; ", "brand": "Aldi"}, "geometry": {"type": "Point", "coordinates": [13.85033, 46.59545]}},
{"type": "Feature", "id": "4kflkcWW3UlwrNDGRUtVntD7ZLk=", "properties": {"ref": "f-N7oSbYzlSrbIhFtuYV_w==", "@spider": "aldi_si", "addr:street": "Maria-Gailer-Stra\u00dfe 30", "addr:city": "Villach", "addr:postcode": "9500", "name": "HOFER", "opening_hours": "Sa 07:15-18:00; Su closed;Mo-Fr 07:15-19:30; ", "brand": "Aldi"}, "geometry": {"type": "Point", "coordinates": [13.86618, 46.60421]}},
{"type": "Feature", "id": "za_L8dqb8zFDGduhM0Pe-MoPW3w=", "properties": {"ref": "XdPFDc-7WxP3jSAnC0q2NQ==", "@spider": "aldi_si", "addr:street": "Via Valsugana 14A", "addr:city": "Cassola", "addr:postcode": "36022", "name": "ALDI", "opening_hours": "Sa 08:30-20:30; Su 09:00-20:00; Mo-Fr 08:30-20:30; ", "brand": "Aldi"}, "geometry": {"type": "Point", "coordinates": [11.75565, 45.74364]}},
{"type": "Feature", "id": "XMI8jpX-vKYgodC6gDfy3dMeHCo=", "properties": {"ref": "02x91JVK__FbqazXEZeM8g==", "@spider": "aldi_si", "addr:street": "Via Vittorio Veneto snc", "addr:city": "Thiene", "addr:postcode": "36016", "name": "ALDI", "opening_hours": "Sa 08:30-20:30; Su 09:00-20:00; Mo-Fr 08:30-20:30; ", "brand": "Aldi"}, "geometry": {"type": "Point", "coordinates": [11.47567, 45.70118]}},
{"type": "Feature", "id": "Se8Z7NiWfNaMApduSGGc_lezWw4=", "properties": {"ref": "CqOX8-R-LZVjxRsyUZYk6g==", "@spider": "aldi_si", "addr:street": "Via Galileo Galilei 12", "addr:city": "Cittadella", "addr:postcode": "35013", "name": "ALDI", "opening_hours": "Sa 08:30-20:30; Su 09:00-20:00; Mo-Fr 08:30-20:30; ", "brand": "Aldi"}, "geometry": {"type": "Point", "coordinates": [11.77382, 45.65095]}},
{"type": "Feature", "id": "sLyyJb60LgVAQHXlpCj_-BSbFgc=", "properties": {"ref": "mXAd8zMwHY1oFWS6YRNPzw==", "@spider": "aldi_si", "addr:street": "Via Mentana 2", "addr:city": "Schio", "addr:postcode": "36015", "name": "ALDI", "opening_hours": "Sa 08:00-20:30; Su 09:00-20:00; Mo-Fr 08:00-20:30; ", "brand": "Aldi"}, "geometry": {"type": "Point", "coordinates": [11.36864, 45.70736]}},
{"type": "Feature", "id": "UIn1ToV-pFPzLjcDpn3BNboySIs=", "properties": {"ref": "EAkqo4yu2yV5vEg3vFUhTQ==", "@spider": "aldi_si", "addr:street": "\u00c1rnyas utca 25.", "addr:city": "P\u00e9cs", "addr:postcode": "7632", "name": "ALDI", "opening_hours": "Sa 07:00-20:00; Su 07:00-19:00; Mo-Fr 07:00-20:00; ", "brand": "Aldi"}, "geometry": {"type": "Point", "coordinates": [18.23082, 46.05132]}},
{"type": "Feature", "id": "YJaBMcOGtGrtvVNPRiBp2ugSv4M=", "properties": {"ref": "BrMyCHKdBFaVLqr7HzEXpw==", "@spider": "aldi_si", "addr:street": "T\u00fcz\u00e9r utca 5/A", "addr:city": "P\u00e9cs", "addr:postcode": "7633", "name": "ALDI", "opening_hours": "Sa 07:00-21:00; Su 07:00-19:00; Mo-Fr 07:00-21:00; ", "brand": "Aldi"}, "geometry": {"type": "Point", "coordinates": [18.20856, 46.06948]}},
{"type": "Feature", "id": "eaVDskSdo-fBSdch-cOmZTJIRrI=", "properties": {"ref": "g391-I9P3N7U2UkXInt3RA==", "@spider": "aldi_si", "addr:street": "Nyugati Ipari \u00fat 1.", "addr:city": "P\u00e9cs", "addr:postcode": "7634", "name": "ALDI", "opening_hours": "Sa 06:30-20:00; Su 07:00-19:00; Mo-Fr 06:30-20:00; ", "brand": "Aldi"}, "geometry": {"type": "Point", "coordinates": [18.1738, 46.0647]}},
{"type": "Feature", "id": "Yu0OrG18SOZISjvZyJzAcVhXI8I=", "properties": {"ref": "epx8eacGaQGF6mhIZ64z2w==", "@spider": "aldi_si", "addr:street": "Zsolnay Vilmos utca 48.", "addr:city": "P\u00e9cs", "addr:postcode": "7630", "name": "ALDI", "opening_hours": "Sa 07:00-20:00; Su 07:00-19:00; Mo-Fr 07:00-20:00; ", "brand": "Aldi"}, "geometry": {"type": "Point", "coordinates": [18.25561, 46.07971]}},
{"type": "Feature", "id": "sKK0q_ENyq1U4MUkxfCIsa3XI7M=", "properties": {"ref": "vJU_eTOxcyEv2uclaYObbQ==", "@spider": "aldi_si", "addr:street": "Poslovna cona B 22", "addr:city": "\u0160en\u010dur", "addr:postcode": "4208", "name": "HOFER", "opening_hours": "Sa 08:00-21:00; Su closed;Mo-Fr 08:00-21:00; ", "brand": "Aldi"}, "geometry": {"type": "Point", "coordinates": [14.41434, 46.23593]}},
{"type": "Feature", "id": "0vM9yq1s80loWCuZjkJvK4zOm7U=", "properties": {"ref": "o8NZDXOaz7Beh2QWIp0IMg==", "@spider": "aldi_si", "addr:street": "Selo 7a", "addr:city": "Velenje", "addr:postcode": "3320", "name": "HOFER", "opening_hours": "Sa 08:00-21:00; Su closed;Mo-Fr 08:00-21:00; ", "brand": "Aldi"}, "geometry": {"type": "Point", "coordinates": [15.13224, 46.37012]}},
{"type": "Feature", "id": "TPb8vudoQGxGDgPe-RhaJRWx83Y=", "properties": {"ref": "J_cv6r8QLDdkrYY9sHjMmg==", "@spider": "aldi_si", "addr:street": "Smledni\u0161ka ulica 27H", "addr:city": "Kranj", "addr:postcode": "4000", "name": "HOFER", "opening_hours": "Sa 08:00-21:00; Su closed;Mo-Fr 08:00-21:00; ", "brand": "Aldi"}, "geometry": {"type": "Point", "coordinates": [14.36886, 46.22997]}},
{"type": "Feature", "id": "N9KgKilJJK-AXw0Jmf5VcZJwxAg=", "properties": {"ref": "R2Zgv2AcyY39n1xqpH3Z_Q==", "@spider": "aldi_si", "addr:street": "\u0160uceva ulica 23 a", "addr:city": "Kranj", "addr:postcode": "4000", "name": "HOFER", "opening_hours": "Sa 08:00-21:00; Su closed;Mo-Fr 08:00-21:00; ", "brand": "Aldi"}, "geometry": {"type": "Point", "coordinates": [14.37771, 46.24577]}},
{"type": "Feature", "id": "DFsC3AJ0Yro6DnegLebykQqx__Q=", "properties": {"ref": "iDezrv-sxtjhfsK7Jil1ew==", "@spider": "aldi_si", "addr:street": "Gotoveljska cesta 18", "addr:city": "\u017dalec", "addr:postcode": "3310", "name": "HOFER", "opening_hours": "Sa 08:00-21:00; Su closed;Mo-Fr 08:00-21:00; ", "brand": "Aldi"}, "geometry": {"type": "Point", "coordinates": [15.15101, 46.25481]}},
{"type": "Feature", "id": "mAJ0TzKvlnCJwJq5txZVC6V8NwE=", "properties": {"ref": "nuZ15-_WjD0VbeP4e8JXQQ==", "@spider": "aldi_si", "addr:street": "Grenc 55", "addr:city": "\u0160kofja Loka", "addr:postcode": "4220", "name": "HOFER", "opening_hours": "Sa 08:00-21:00; Su closed;Mo-Fr 08:00-21:00; ", "brand": "Aldi"}, "geometry": {"type": "Point", "coordinates": [14.3207, 46.17508]}},
{"type": "Feature", "id": "ZwvK5clgOl0D3DXWMLBMk7-yv9w=", "properties": {"ref": "xcnXC4tVDpQkU-SCMQrk8w==", "@spider": "aldi_si", "addr:street": "Bohovska cesta 6", "addr:city": "Ho\u010de pri Mariboru", "addr:postcode": "2311", "name": "HOFER", "opening_hours": "Sa 08:00-21:00; Su closed;Mo-Fr 08:00-21:00; ", "brand": "Aldi"}, "geometry": {"type": "Point", "coordinates": [15.64966, 46.50085]}},
{"type": "Feature", "id": "Pwg2qOFyFHePoOl9WXSArjm9rjc=", "properties": {"ref": "Lk9jyTh9omntuJf7a8x-6g==", "@spider": "aldi_si", "addr:street": "Pre\u0161ernova ulica 42", "addr:city": "Ljutomer", "addr:postcode": "9240", "name": "HOFER", "opening_hours": "Sa 08:00-20:00; Su closed;Mo-Fr 08:00-20:00; ", "brand": "Aldi"}, "geometry": {"type": "Point", "coordinates": [16.19431, 46.52507]}},
{"type": "Feature", "id": "RruzGbc3hW-RAq9rZigYH57QWRM=", "properties": {"ref": "c5u6abx6WkDhwhc7CHzGFw==", "@spider": "aldi_si", "addr:street": "Partizanska cesta 52b", "addr:city": "Velenje", "addr:postcode": "3320", "name": "HOFER", "opening_hours": "Sa 08:00-21:00; Su closed;Mo-Fr 08:00-21:00; ", "brand": "Aldi"}, "geometry": {"type": "Point", "coordinates": [15.08925, 46.36532]}},
{"type": "Feature", "id": "dG1kjzc11lZPFS_55vCJeu2MSBo=", "properties": {"ref": "BGPcz08JPK6brQT6qWqQCA==", "@spider": "aldi_si", "addr:street": "Ljubljanska cesta 112", "addr:city": "Celje", "addr:postcode": "3000", "name": "HOFER", "opening_hours": "Sa 08:00-21:00; Su closed;Mo-Fr 08:00-21:00; ", "brand": "Aldi"}, "geometry": {"type": "Point", "coordinates": [15.24342, 46.23829]}},
{"type": "Feature", "id": "hlrk8-V0yRXE1Vu8DZwrk0oc9t0=", "properties": {"ref": "p0J8SQ_SAk3Eum-Zb9Xsjg==", "@spider": "aldi_si", "addr:street": "K\u00e4rntner Stra\u00dfe 22", "addr:city": "Stainz", "addr:postcode": "8510", "name": "HOFER", "opening_hours": "Sa 07:15-18:00; Su closed;Mo-Fr 07:15-19:00; ", "brand": "Aldi"}, "geometry": {"type": "Point", "coordinates": [15.25859, 46.89007]}},
{"type": "Feature", "id": "qUiGwgxEb4WeOu0TmXadlkFGm-E=", "properties": {"ref": "O9hiYeFJyTAtog1PGlQKrg==", "@spider": "aldi_si", "addr:street": "St. Veiter Stra\u00dfe 141", "addr:city": "Klagenfurt am W\u00f6rthersee", "addr:postcode": "9020", "name": "HOFER", "opening_hours": "Sa 07:15-18:00; Su closed;Mo-Fr 07:15-19:30; ", "brand": "Aldi"}, "geometry": {"type": "Point", "coordinates": [14.3138, 46.64537]}},
{"type": "Feature", "id": "j4CAGu31DSTZKszOmJbmpTpRgMg=", "properties": {"ref": "1yWCgwxFrgo9COBwkz21tA==", "@spider": "aldi_si", "addr:street": "Via dei Cacciatori 86", "addr:city": "Nichelino", "addr:postcode": "10042", "name": "ALDI", "opening_hours": "Sa 08:30-20:30; Su 09:00-20:00; Mo-Fr 08:30-20:30; ", "brand": "Aldi"}, "geometry": {"type": "Point", "coordinates": [7.62606, 45.00709]}},
{"type": "Feature", "id": "tKfKG3e4U3Fu36-xySYTgijbLaM=", "properties": {"ref": "1kVYYvaT_SmjqC9pMYgQWA==", "@spider": "aldi_si", "addr:street": "Bicere utca 15/A", "addr:city": "Gyula", "addr:postcode": "5700", "name": "ALDI", "opening_hours": "Sa 07:00-20:00; Su 07:00-19:00; Mo-Fr 07:00-20:00; ", "brand": "Aldi"}, "geometry": {"type": "Point", "coordinates": [21.2372, 46.65362]}},
{"type": "Feature", "id": "Bc-lDCZCPZu5k3M87TBh5wOU94c=", "properties": {"ref": "ez87bj_4jYHmTzqt45QFeA==", "@spider": "aldi_si", "addr:street": "Ptujska cesta 194", "addr:city": "Maribor", "addr:postcode": "2000", "name": "HOFER", "opening_hours": "Sa 08:00-21:00; Su closed;Mo-Fr 08:00-21:00; ", "brand": "Aldi"}, "geometry": {"type": "Point", "coordinates": [15.6739, 46.52644]}},
{"type": "Feature", "id": "ChZGmkPC84Ufwb7-cUYAYC8YASc=", "properties": {"ref": "Ew9Rcmt4-Z5IjjQ9Hrz7nQ==", "@spider": "aldi_si", "addr:street": "C. proletarskih brigad 101", "addr:city": "Maribor", "addr:postcode": "2000", "name": "HOFER", "opening_hours": "Sa 08:00-21:00; Su closed;Mo-Fr 08:00-21:00; ", "brand": "Aldi"}, "geometry": {"type": "Point", "coordinates": [15.61774, 46.54511]}},
{"type": "Feature", "id": "ihgQlrEYSFVE0tWI8Y1hqzgexU8=", "properties": {"ref": "kqDBm-R3aRt08EPu2-AiAw==", "@spider": "aldi_si", "addr:street": "Kolodvorska ulica 41", "addr:city": "Lendava", "addr:postcode": "9220", "name": "HOFER", "opening_hours": "Sa 08:00-20:00; Su closed;Mo-Fr 08:00-20:00; ", "brand": "Aldi"}, "geometry": {"type": "Point", "coordinates": [16.44861, 46.55539]}},
{"type": "Feature", "id": "w8dLpl2FtAhoDBUDYElRBVHWHPc=", "properties": {"ref": "ehSdhxbFyMAdZ9Gy6pPWKg==", "@spider": "aldi_si", "addr:street": "Mariborska cesta 30", "addr:city": "Celje", "addr:postcode": "3000", "name": "HOFER", "opening_hours": "Sa 08:00-21:00; Su closed;Mo-Fr 08:00-21:00; ", "brand": "Aldi"}, "geometry": {"type": "Point", "coordinates": [15.27192, 46.23714]}},
{"type": "Feature", "id": "gPTbNTnEi3abv1W_3gWpV42hAbk=", "properties": {"ref": "HD-4MmkETYKyjz6zxjv_GQ==", "@spider": "aldi_si", "addr:street": "Teharje 1a", "addr:city": "Teharje", "addr:postcode": "3221", "name": "HOFER", "opening_hours": "Sa 08:00-20:00; Su closed;Mo-Fr 08:00-20:00; ", "brand": "Aldi"}, "geometry": {"type": "Point", "coordinates": [15.2973, 46.23346]}},
{"type": "Feature", "id": "UpHm6WZsXaJHlemIA6X_KNcu2wQ=", "properties": {"ref": "UCsGgvjUAyBpD0VeRUPC3Q==", "@spider": "aldi_si", "addr:street": "Frauentalerstra\u00dfe 91", "addr:city": "Deutschlandsberg", "addr:postcode": "8530", "name": "HOFER", "opening_hours": "Sa 07:15-18:00; Su closed;Mo-Fr 07:15-19:00; ", "brand": "Aldi"}, "geometry": {"type": "Point", "coordinates": [15.23165, 46.82094]}},
{"type": "Feature", "id": "CcVd4lCw_CCJs_a856WR9YVGt_U=", "properties": {"ref": "UP9ZMgVWTuDs33v-SPdG7g==", "@spider": "aldi_si", "addr:street": "Dobler Stra\u00dfe 2", "addr:city": "Lieboch", "addr:postcode": "8501", "name": "HOFER", "opening_hours": "Sa 07:15-18:00; Su closed;Mo-Fr 07:15-19:00; ", "brand": "Aldi"}, "geometry": {"type": "Point", "coordinates": [15.35241, 46.96273]}},
{"type": "Feature", "id": "17tTghk8JZkxu9hKOJqJ_hMmIn8=", "properties": {"ref": "Dub9tqLaNbFrcOP7MGNT7w==", "@spider": "aldi_si", "addr:street": "Feldkirchner Stra\u00dfe 221", "addr:city": "Klagenfurt am W\u00f6rthersee", "addr:postcode": "9020", "name": "HOFER", "opening_hours": "Sa 07:15-18:00; Su closed;Mo-Fr 07:15-19:30; ", "brand": "Aldi"}, "geometry": {"type": "Point", "coordinates": [14.28409, 46.65008]}},
{"type": "Feature", "id": "Bdup6Wx9QcSx0UlHHT9Ku7UVGAQ=", "properties": {"ref": "-9lu4axxUgoLzZ7PWFLlqQ==", "@spider": "aldi_si", "addr:street": "Turmgasse 26", "addr:city": "Klagenfurt am W\u00f6rthersee", "addr:postcode": "9010", "name": "HOFER", "opening_hours": "Sa 07:15-18:00; Su closed;Mo-Fr 07:15-19:30; ", "brand": "Aldi"}, "geometry": {"type": "Point", "coordinates": [14.29839, 46.63739]}},
{"type": "Feature", "id": "O-T5VR5RUPHJI0GvXQC4UJBZHvo=", "properties": {"ref": "OIlc9ChJEHzqIFq91qoJGw==", "@spider": "aldi_si", "addr:street": "Steingasse 209", "addr:city": "Klagenfurt am W\u00f6rthersee", "addr:postcode": "9020", "name": "HOFER", "opening_hours": "Sa 07:40-18:00; Su closed;Mo 07:40-20:00; Tu 07:40-19:30; We-Fr 07:40-20:00; ", "brand": "Aldi"}, "geometry": {"type": "Point", "coordinates": [14.35448, 46.63058]}},
{"type": "Feature", "id": "DkHfsvdXdb_5nCY_GZAqdTxJuqM=", "properties": {"ref": "rpSGEaD9qxU_aZohpjDqKQ==", "@spider": "aldi_si", "addr:street": "Schlachthofstra\u00dfe 3", "addr:city": "Klagenfurt am W\u00f6rthersee", "addr:postcode": "9010", "name": "HOFER", "opening_hours": "Sa closed;Su closed;Mo closed;Tu closed;We closed;Th closed;Fr closed;", "brand": "Aldi"}, "geometry": {"type": "Point", "coordinates": [14.31748, 46.62856]}},
{"type": "Feature", "id": "swPhghipuFOY6sjKiTYGjxHdnuE=", "properties": {"ref": "MUXOPVBu_4LkNofxJSjAaQ==", "@spider": "aldi_si", "addr:street": "Via Millio 10/e", "addr:city": "Torino", "addr:postcode": "10141", "name": "ALDI", "opening_hours": "Sa 08:00-21:00; Su 08:30-20:30; Mo-Fr 08:00-21:00; ", "brand": "Aldi"}, "geometry": {"type": "Point", "coordinates": [7.65288, 45.0576]}},
{"type": "Feature", "id": "eFWudPNgcNF23b8FKs8A2PXBZ7Y=", "properties": {"ref": "JSInn5R89LU-78tMEbUfLQ==", "@spider": "aldi_si", "addr:street": "C.so Pastrengo V. Certosa", "addr:city": "Collegno", "addr:postcode": "10093", "name": "ALDI", "opening_hours": "Sa 08:30-21:30; Su 09:00-21:00; Mo-Fr 08:30-21:30; ", "brand": "Aldi"}, "geometry": {"type": "Point", "coordinates": [7.58186, 45.0798]}},
{"type": "Feature", "id": "0ZNfqYbwL_JmZmEu0ADeV7T2Hqc=", "properties": {"ref": "f1ykkmEQUFBIeMijAHsF3w==", "@spider": "aldi_si", "addr:street": "Gyulai \u00fat 51/2.", "addr:city": "B\u00e9k\u00e9scsaba", "addr:postcode": "5600", "name": "ALDI", "opening_hours": "Sa 06:30-21:00; Su 07:00-19:00; Mo-Fr 06:30-21:00; ", "brand": "Aldi"}, "geometry": {"type": "Point", "coordinates": [21.11625, 46.68069]}},
{"type": "Feature", "id": "qPe8OQfx1Aw3DFI7F6pC-z-LNSw=", "properties": {"ref": "cVe7kOUE_TNtVD-B5d0qOw==", "@spider": "aldi_si", "addr:street": "Szt. Istv\u00e1n krt. 30.", "addr:city": "Kecskem\u00e9t", "addr:postcode": "6000", "name": "ALDI", "opening_hours": "Sa 07:00-21:00; Su 07:00-19:00; Mo-Fr 07:00-21:00; ", "brand": "Aldi"}, "geometry": {"type": "Point", "coordinates": [19.71986, 46.91144]}},
{"type": "Feature", "id": "_HoO6RkyDhPYiI0h6VrWXbnoKhQ=", "properties": {"ref": "B9_XAVKu9AscPGKhKQIGIw==", "@spider": "aldi_si", "addr:street": "Makkosh\u00e1zi k\u00f6r\u00fat 29.", "addr:city": "Szeged", "addr:postcode": "6723", "name": "ALDI", "opening_hours": "Sa 06:30-21:00; Su 07:00-19:00; Mo-Fr 06:30-21:00; ", "brand": "Aldi"}, "geometry": {"type": "Point", "coordinates": [20.14845, 46.27256]}},
{"type": "Feature", "id": "mcHyqxP1IVomMU3yAns9GH0AADY=", "properties": {"ref": "fzWZL2tyxxtRHXA1UZaoig==", "@spider": "aldi_si", "addr:street": "Ljubljanska cesta 90", "addr:city": "Slovenska Bistrica", "addr:postcode": "2310", "name": "HOFER", "opening_hours": "Sa 08:00-21:00; Su closed;Mo-Fr 08:00-21:00; ", "brand": "Aldi"}, "geometry": {"type": "Point", "coordinates": [15.56266, 46.38299]}},
{"type": "Feature", "id": "tzwOcl76mB_R9B5Z13VZd2UcMdI=", "properties": {"ref": "-McrEyfFfv-SxXUc0JCHTw==", "@spider": "aldi_si", "addr:street": "Grazer Stra\u00dfe 72", "addr:city": "Mureck", "addr:postcode": "8480", "name": "HOFER", "opening_hours": "Sa 07:15-18:00; Su closed;Mo-Fr 07:15-19:00; ", "brand": "Aldi"}, "geometry": {"type": "Point", "coordinates": [15.76029, 46.70728]}},
{"type": "Feature", "id": "VcE-dD0ElEhEE2cKHPkCSadk2hA=", "properties": {"ref": "2_Omc43Uj6v3ZmQadu0QhQ==", "@spider": "aldi_si", "addr:street": "Miegerer Stra\u00dfe 2", "addr:city": "Ebenthal in K\u00e4rnten", "addr:postcode": "9065", "name": "HOFER", "opening_hours": "Sa 07:15-18:00; Su closed;Mo-Fr 07:15-19:30; ", "brand": "Aldi"}, "geometry": {"type": "Point", "coordinates": [14.35281, 46.60847]}},
{"type": "Feature", "id": "tZJRzUh_s5ZTyoQoEEKGEn19j0g=", "properties": {"ref": "EGzSiFTqtFQZsL7T0uIuCg==", "@spider": "aldi_si", "addr:street": "T\u00fcnd\u00e9rlak \u00fat 2.", "addr:city": "Keszthely", "addr:postcode": "8360", "name": "ALDI", "opening_hours": "Sa 07:00-20:00; Su 07:00-19:00; Mo-Fr 07:00-20:00; ", "brand": "Aldi"}, "geometry": {"type": "Point", "coordinates": [17.27757, 46.77494]}},
{"type": "Feature", "id": "eOi_dYrMkxiS2qU9-Pn8nePeGLA=", "properties": {"ref": "ga6UMK0JrXXxQNV17Bce-A==", "@spider": "aldi_si", "addr:street": "Csap\u00e1s \u00fat 7-9.", "addr:city": "Keszthely", "addr:postcode": "8360", "name": "ALDI", "opening_hours": "Sa 07:00-20:00; Su 07:00-19:00; Mo-Fr 07:00-20:00; ", "brand": "Aldi"}, "geometry": {"type": "Point", "coordinates": [17.24608, 46.77742]}},
{"type": "Feature", "id": "-CxLeT1w5fVxr_6N2FY9DwTtTU8=", "properties": {"ref": "c5zr3Fu-gl-gMNceSR_v9A==", "@spider": "aldi_si", "addr:street": "Corso Libert\u00e0 25", "addr:city": "Bolzano", "addr:postcode": "39100", "name": "ALDI", "opening_hours": "Sa 08:00-20:30; Su 09:00-20:00; Mo-Fr 08:00-20:30; ", "brand": "Aldi"}, "geometry": {"type": "Point", "coordinates": [11.34112, 46.50125]}},
{"type": "Feature", "id": "f6xUOK7tjoNW2St7GfnAwWVxXrA=", "properties": {"ref": "zRbVdG6E2-nQLHdHFxWyDw==", "@spider": "aldi_si", "addr:street": "Via Carlo Maria Giulini 2", "addr:city": "Bolzano", "addr:postcode": "39100", "name": "ALDI", "opening_hours": "Sa 08:00-20:30; Su 09:00-20:00; Mo-Fr 08:00-20:30; ", "brand": "Aldi"}, "geometry": {"type": "Point", "coordinates": [11.31479, 46.49439]}},
{"type": "Feature", "id": "IVql3J0C9T4Qeq9sQn5zei9zCqU=", "properties": {"ref": "CbfneJP5XMKRD1dZtBfc1g==", "@spider": "aldi_si", "addr:street": "D\u00f3zsa Gy\u00f6rgy \u00fat 87.", "addr:city": "Baja", "addr:postcode": "6500", "name": "ALDI", "opening_hours": "Sa 07:00-20:00; Su 07:00-19:00; Mo-Fr 07:00-20:00; ", "brand": "Aldi"}, "geometry": {"type": "Point", "coordinates": [18.95183, 46.19447]}},
{"type": "Feature", "id": "p68zpwCRzSSDQu4yomapGnOKL4A=", "properties": {"ref": "0XolhVJ21iCVIIcQgeKbvA==", "@spider": "aldi_si", "addr:street": "De\u00e1k Ferenc utca 10/B", "addr:city": "Bonyh\u00e1d", "addr:postcode": "7150", "name": "ALDI", "opening_hours": "Sa 07:00-20:00; Su 07:00-19:00; Mo-Fr 07:00-20:00; ", "brand": "Aldi"}, "geometry": {"type": "Point", "coordinates": [18.53912, 46.29634]}},
{"type": "Feature", "id": "JGh9keiMHzE8KeXfdlyjXPlSO7o=", "properties": {"ref": "G3ojCNgtvvCpG_bNj4Z9kg==", "@spider": "aldi_si", "addr:street": "Kossuth Lajos sgt. 119.", "addr:city": "Szeged", "addr:postcode": "6724", "name": "ALDI", "opening_hours": "Sa 07:00-21:00; Su 07:00-19:00; Mo-Fr 07:00-21:00; ", "brand": "Aldi"}, "geometry": {"type": "Point", "coordinates": [20.12871, 46.26653]}},
{"type": "Feature", "id": "uSBqCJf6-12KCt8Ub4n1cNhPrrU=", "properties": {"ref": "p1ZU_IxeGZINcr97CwfEeg==", "@spider": "aldi_si", "addr:street": "M\u00f3rav\u00e1rosi k\u00f6r\u00fat 3.", "addr:city": "Szeged", "addr:postcode": "6725", "name": "ALDI", "opening_hours": "Sa 06:30-21:00; Su 07:00-19:00; Mo-Fr 06:30-21:00; ", "brand": "Aldi"}, "geometry": {"type": "Point", "coordinates": [20.12387, 46.24374]}},
{"type": "Feature", "id": "Wg9UEUQKkm7Q9PpcnMadrVSnHvE=", "properties": {"ref": "LoNE-2ldFRrTam79aDnAOQ==", "@spider": "aldi_si", "addr:street": "Pet\u0151fi S\u00e1ndor utca 80.", "addr:city": "Balatonf\u00fcred", "addr:postcode": "8230", "name": "ALDI", "opening_hours": "Sa 06:30-20:00; Su 07:00-19:00; Mo-Fr 06:30-20:00; ", "brand": "Aldi"}, "geometry": {"type": "Point", "coordinates": [17.897, 46.9622]}},
{"type": "Feature", "id": "tgWyvBvqPUPAg78KN2Ds0aI3QNk=", "properties": {"ref": "y3ftxNravFLEkwpUmUDTcQ==", "@spider": "aldi_si", "addr:street": "Stadlweg 51", "addr:city": "Klagenfurt am W\u00f6rthersee", "addr:postcode": "9020", "name": "HOFER", "opening_hours": "Sa 07:15-18:00; Su closed;Mo-Fr 07:15-19:30; ", "brand": "Aldi"}, "geometry": {"type": "Point", "coordinates": [14.32938, 46.60767]}},
{"type": "Feature", "id": "1qhXW5ugzhOmQ6Q9xjW67dn2wF4=", "properties": {"ref": "g7v8pnEfmu3o-cLUhOvQiQ==", "@spider": "aldi_si", "addr:street": "Villacher Stra\u00dfe 181", "addr:city": "Klagenfurt am W\u00f6rthersee", "addr:postcode": "9020", "name": "HOFER", "opening_hours": "Sa 07:40-18:00; Su closed;Mo-Fr 07:40-20:00; ", "brand": "Aldi"}, "geometry": {"type": "Point", "coordinates": [14.27678, 46.61924]}},
{"type": "Feature", "id": "gx4dbfEW_vIFfh26vzcx2QcFSaA=", "properties": {"ref": "m3U38xMZFJb4SdJbtzQFrQ==", "@spider": "aldi_si", "addr:street": "F\u00fczes sor 2-4.", "addr:city": "Dunaf\u00f6ldv\u00e1r", "addr:postcode": "7020", "name": "ALDI", "opening_hours": "Sa 07:00-20:00; Su 07:00-19:00; Mo-Fr 07:00-20:00; ", "brand": "Aldi"}, "geometry": {"type": "Point", "coordinates": [18.91043, 46.80986]}},
{"type": "Feature", "id": "fMO6MA5cKbmsHSm-5f98qMoPdlw=", "properties": {"ref": "9QVqphbIbwnmo6LfY97g7w==", "@spider": "aldi_si", "addr:street": "\u00c1rp\u00e1d u. 31.", "addr:city": "Kaposv\u00e1r", "addr:postcode": "7400", "name": "ALDI", "opening_hours": "Sa 07:00-20:00; Su 07:00-19:00; Mo-Fr 07:00-20:00; ", "brand": "Aldi"}, "geometry": {"type": "Point", "coordinates": [17.81041, 46.36461]}},
{"type": "Feature", "id": "F7Iaqk5swvwYujgeJlXCjU5yuww=", "properties": {"ref": "vbxlHxh3kb8BqK8BmC5rLA==", "@spider": "aldi_si", "addr:street": "Lendavska ulica 64", "addr:city": "Murska Sobota", "addr:postcode": "9000", "name": "HOFER", "opening_hours": "Sa 08:00-21:00; Su closed;Mo-Fr 08:00-21:00; ", "brand": "Aldi"}, "geometry": {"type": "Point", "coordinates": [16.17817, 46.66725]}},
{"type": "Feature", "id": "r2UEjFniEH7LMWrujNJ203yIiXo=", "properties": {"ref": "j6h8k6GhERFWBG0o-ZarXA==", "@spider": "aldi_si", "addr:street": "Balatoni \u00fat 13.", "addr:city": "Zalaegerszeg", "addr:postcode": "8900", "name": "ALDI", "opening_hours": "Sa 07:00-20:00; Su 07:00-19:00; Mo-Fr 07:00-20:00; ", "brand": "Aldi"}, "geometry": {"type": "Point", "coordinates": [16.86908, 46.8427]}},
{"type": "Feature", "id": "VWYwN1ntgCNZ8iM9Gs3deoYTlkY=", "properties": {"ref": "teQqFaNK5-R2n3MTKmQ0fA==", "@spider": "aldi_si", "addr:street": "Kro\u0161ka ulica 58 a", "addr:city": "Murska Sobota", "addr:postcode": "9000", "name": "HOFER", "opening_hours": "Sa 08:00-20:00; Su closed;Mo-Fr 08:00-20:00; ", "brand": "Aldi"}, "geometry": {"type": "Point", "coordinates": [16.14727, 46.64834]}},
{"type": "Feature", "id": "MBcEWIVEaVF43nhH-n7qXFMZkys=", "properties": {"ref": "NZ8h4M4z0Kat1K5K5bMi-w==", "@spider": "aldi_si", "addr:street": "Technologiepark 51", "addr:city": "Jennersdorf", "addr:postcode": "8380", "name": "HOFER", "opening_hours": "Sa 07:15-18:00; Su closed;Mo-Fr 07:15-19:00; ", "brand": "Aldi"}, "geometry": {"type": "Point", "coordinates": [16.15068, 46.93934]}},
{"type": "Feature", "id": "wdHx72lHhM_QwDcWD-lawmCV1Ec=", "properties": {"ref": "81C2ucH4IMWhu-cv9hc4eQ==", "@spider": "aldi_si", "addr:street": "F\u00fcrd\u0151 utca 31.", "addr:city": "Balatonf\u00fcred", "addr:postcode": "8230", "name": "ALDI", "opening_hours": "Sa 07:00-20:00; Su 07:00-19:00; Mo-Fr 07:00-20:00; ", "brand": "Aldi"}, "geometry": {"type": "Point", "coordinates": [17.87524, 46.95003]}},
{"type": "Feature", "id": "QH29sWSBMG9rUUKxyKzqIssNJIA=", "properties": {"ref": "duhlxT0cOODRKY0NX0cCjA==", "@spider": "aldi_si", "addr:street": "M\u00e1jus 1. utca 10.", "addr:city": "Sz\u00e1nt\u00f3d", "addr:postcode": "8622", "name": "ALDI", "opening_hours": "Sa 07:00-20:00; Su 07:00-19:00; Mo-Fr 07:00-20:00; ", "brand": "Aldi"}, "geometry": {"type": "Point", "coordinates": [17.90469, 46.86209]}},
{"type": "Feature", "id": "0t9xxo59vV74z8RGoZB5N4gFid4=", "properties": {"ref": "wcOdIBI9-AVCdWuJnkR41w==", "@spider": "aldi_si", "addr:street": "Attila utca 74.", "addr:city": "Si\u00f3fok", "addr:postcode": "8600", "name": "ALDI", "opening_hours": "Sa 06:30-20:00; Su 07:00-19:00; Mo-Fr 06:30-20:00; ", "brand": "Aldi"}, "geometry": {"type": "Point", "coordinates": [18.05812, 46.89161]}},
{"type": "Feature", "id": "wCh6MgW6NruM5CrUNKH6b2aYpsc=", "properties": {"ref": "-eUuRyS-KwG3TOT5oHweag==", "@spider": "aldi_si", "addr:street": "Lastenstra\u00dfe 7", "addr:city": "St. Veit an der Glan", "addr:postcode": "9300", "name": "HOFER", "opening_hours": "Sa 07:15-18:00; Su closed;Mo-Fr 07:15-19:30; ", "brand": "Aldi"}, "geometry": {"type": "Point", "coordinates": [14.35921, 46.76341]}},
{"type": "Feature", "id": "dNbGcEE_Zq6OI-13W2kuz6dTH60=", "properties": {"ref": "bfWCmBS1Qct2zicaIRtbSg==", "@spider": "aldi_si", "addr:street": "Pet\u0151fi utca 56.", "addr:city": "Kaposv\u00e1r", "addr:postcode": "7400", "name": "ALDI", "opening_hours": "Sa 07:00-21:00; Su 07:00-19:00; Mo-Fr 07:00-21:00; ", "brand": "Aldi"}, "geometry": {"type": "Point", "coordinates": [17.78521, 46.36469]}},
{"type": "Feature", "id": "3iMYg8fSfJrq9cfEUVl1lbUy02A=", "properties": {"ref": "RE00YjvitqP3s7_4sjEhsg==", "@spider": "aldi_si", "addr:street": "Wiener Stra\u00dfe 33", "addr:city": "G\u00fcssing", "addr:postcode": "7540", "name": "HOFER", "opening_hours": "Sa 07:15-18:00; Su closed;Mo-Fr 07:15-19:00; ", "brand": "Aldi"}, "geometry": {"type": "Point", "coordinates": [16.32114, 47.06917]}},
{"type": "Feature", "id": "TZ1f26zrrj9hZ44urNKTs-Hm5S4=", "properties": {"ref": "9yyP_EeTtuo_qcw1jWKjIA==", "@spider": "aldi_si", "addr:street": "Ljutomerska cesta 38", "addr:city": "Gornja Radgona", "addr:postcode": "9250", "name": "HOFER", "opening_hours": "Sa 08:00-20:00; Su closed;Mo-Fr 08:00-20:00; ", "brand": "Aldi"}, "geometry": {"type": "Point", "coordinates": [16.01262, 46.66114]}},
{"type": "Feature", "id": "55q73wBpXgX7v82FgtdNntURVmg=", "properties": {"ref": "XQjEoy6DJJsPwFSNVXF71g==", "@spider": "aldi_si", "addr:street": "Halbenrainerstra\u00dfe 9", "addr:city": "Bad Radkersburg", "addr:postcode": "8490", "name": "HOFER", "opening_hours": "Sa 07:15-18:00; Su closed;Mo-Fr 07:15-19:00; ", "brand": "Aldi"}, "geometry": {"type": "Point", "coordinates": [15.98328, 46.6903]}},
{"type": "Feature", "id": "swWJ_5A9WWWEEDKm8oMYAoiV5UM=", "properties": {"ref": "hA2jrwUvPpnUsWmKAJYpPg==", "@spider": "aldi_si", "addr:street": "Sillian Nr. 2h", "addr:city": "Sillian", "addr:postcode": "9920", "name": "HOFER", "opening_hours": "Sa 07:15-18:00; Su closed;Mo-Fr 07:15-19:30; ", "brand": "Aldi"}, "geometry": {"type": "Point", "coordinates": [12.4072, 46.74573]}},
{"type": "Feature", "id": "UWG4-9rw8mnFxsVKHU3vk-30ilI=", "properties": {"ref": "bvFF5Zd6Wk-5fuAtK95aGw==", "@spider": "aldi_si", "addr:street": "Panzendorf 182", "addr:city": "Heinfels", "addr:postcode": "9919", "name": "HOFER", "opening_hours": "Sa 07:15-18:00; Su closed;Mo-Fr 07:15-19:30; ", "brand": "Aldi"}, "geometry": {"type": "Point", "coordinates": [12.4539, 46.74875]}},
{"type": "Feature", "id": "4p1k7HjoHPd0R8NF083h51Wf-vc=", "properties": {"ref": "ZpiQ61dTwXNCauODuZBHsw==", "@spider": "aldi_si", "addr:street": "Waidmannsdorfer Stra\u00dfe 135", "addr:city": "Klagenfurt am W\u00f6rthersee", "addr:postcode": "9010", "name": "HOFER", "opening_hours": "Sa 07:40-18:00; Su closed;Mo-Fr 07:40-20:00; ", "brand": "Aldi"}, "geometry": {"type": "Point", "coordinates": [14.2916, 46.60769]}},
{"type": "Feature", "id": "oHuUp8-iUoirPv-jj_u3LR3NySs=", "properties": {"ref": "klxmkVeiiab0WgDlVpeOBQ==", "@spider": "aldi_si", "addr:street": "V\u00f6lkermarkter Stra\u00dfe 43", "addr:city": "St. Veit an der Glan", "addr:postcode": "9300", "name": "HOFER", "opening_hours": "Sa 07:15-18:00; Su closed;Mo-Fr 07:15-19:30; ", "brand": "Aldi"}, "geometry": {"type": "Point", "coordinates": [14.37409, 46.76683]}},
{"type": "Feature", "id": "LrPGGyhvuFOK8BslB7xlPXSbWiY=", "properties": {"ref": "JM0Ulc4dZ1QkeU0xpoz7uA==", "@spider": "aldi_si", "addr:street": "K\u00f6rmenderstra\u00dfe 25", "addr:city": "F\u00fcrstenfeld", "addr:postcode": "8280", "name": "HOFER", "opening_hours": "Sa 07:15-18:00; Su closed;Mo-Fr 07:15-19:00; ", "brand": "Aldi"}, "geometry": {"type": "Point", "coordinates": [16.0805, 47.05448]}},
{"type": "Feature", "id": "LBB0lJ0pHfo5SY6QBd2y81B42xI=", "properties": {"ref": "Dq3sPEmMXFoFoh-LwmeM1A==", "@spider": "aldi_si", "addr:street": "Via Divisione Garibaldi 7", "addr:city": "San Vito al Tagliamento", "addr:postcode": "33078", "name": "ALDI", "opening_hours": "Sa 08:30-20:30; Su 09:00-20:00; Mo-Fr 08:30-20:30; ", "brand": "Aldi"}, "geometry": {"type": "Point", "coordinates": [12.86473, 45.9112]}},
{"type": "Feature", "id": "bCLorxrdaVoGex6qRlNh78B8TYM=", "properties": {"ref": "7g9oAoah4P6QNypMV8HVyQ==", "@spider": "aldi_si", "addr:street": "Cesta kr\u0161kih \u017ertev 133", "addr:city": "Kr\u0161ko", "addr:postcode": "8270", "name": "HOFER", "opening_hours": "Sa 08:00-20:00; Su closed;Mo-Fr 08:00-20:00; ", "brand": "Aldi"}, "geometry": {"type": "Point", "coordinates": [15.48733, 45.94258]}},
{"type": "Feature", "id": "vMyh7Q-0P2pXDlR3r66l9vlTXho=", "properties": {"ref": "ayLcR902m6fNgGRJtKw-Kg==", "@spider": "aldi_si", "addr:street": "Ulica Alenke Gerlovi\u010d 9", "addr:city": "Bre\u017eice", "addr:postcode": "8250", "name": "HOFER", "opening_hours": "Sa 08:00-20:00; Su closed;Mo-Fr 08:00-20:00; ", "brand": "Aldi"}, "geometry": {"type": "Point", "coordinates": [15.5932, 45.91473]}},
{"type": "Feature", "id": "5ZbX3FCdJOtPPJHneGMi_iC2am4=", "properties": {"ref": "hFgK9BOrHqdaBsZBZsQUlQ==", "@spider": "aldi_si", "addr:street": "\u017dnidar\u010di\u010deva ulica 19 a", "addr:city": "\u0160empeter pri Gorici", "addr:postcode": "5290", "name": "HOFER", "opening_hours": "Sa 08:00-21:00; Su closed;Mo-Fr 08:00-21:00; ", "brand": "Aldi"}, "geometry": {"type": "Point", "coordinates": [13.63167, 45.92652]}},
{"type": "Feature", "id": "nwOJZjP-uF0lUMrrGxvVRjwCJEk=", "properties": {"ref": "wwL0n62K0GQDAf4x1-msWA==", "@spider": "aldi_si", "addr:street": "Gerbi\u010deva ulica 103", "addr:city": "Ljubljana", "addr:postcode": "1000", "name": "HOFER", "opening_hours": "Sa 08:00-21:00; Su closed;Mo-Fr 08:00-21:00; ", "brand": "Aldi"}, "geometry": {"type": "Point", "coordinates": [14.48011, 46.038]}},
{"type": "Feature", "id": "Q7q-XbcooSEtk_oHjhMDMyrdL0M=", "properties": {"ref": "aMthzc-qEiprhx_QHJa2Tw==", "@spider": "aldi_si", "addr:street": "Metelkova ulica 2", "addr:city": "Trebnje", "addr:postcode": "8210", "name": "HOFER", "opening_hours": "Sa 08:00-20:00; Su closed;Mo-Fr 08:00-20:00; ", "brand": "Aldi"}, "geometry": {"type": "Point", "coordinates": [15.02545, 45.90715]}},
{"type": "Feature", "id": "kIzZ7xvjwb7Ci1mFequBPgQLm5k=", "properties": {"ref": "azbDhPJ0WVgYYv7qjwQqzQ==", "@spider": "aldi_si", "addr:street": "Dolinska cesta 7", "addr:city": "Koper", "addr:postcode": "6000", "name": "HOFER", "opening_hours": "Sa 08:00-21:00; Su closed;Mo-Fr 08:00-21:00; ", "brand": "Aldi"}, "geometry": {"type": "Point", "coordinates": [13.72811, 45.53143]}},
{"type": "Feature", "id": "9JYSePz-DqDJ7PheVuY9Q-b9FMY=", "properties": {"ref": "cQwElVYORFn4QhpaG-0rYw==", "@spider": "aldi_si", "addr:street": "Ankaranska cesta 3b", "addr:city": "Koper-Capodistria", "addr:postcode": "6000", "name": "HOFER", "opening_hours": "Sa 08:00-21:00; Su closed;Mo-Fr 08:00-21:00; ", "brand": "Aldi"}, "geometry": {"type": "Point", "coordinates": [13.73846, 45.54327]}},
{"type": "Feature", "id": "tOMZKNLEZ2nl0_i_ffxR3NKp-o0=", "properties": {"ref": "X2XV-70vqUL21yO3hOXgkA==", "@spider": "aldi_si", "addr:street": "Kajuhova ulica 22", "addr:city": "Izola-Isola", "addr:postcode": "6310", "name": "HOFER", "opening_hours": "Sa 08:00-21:00; Su closed;Mo-Fr 08:00-21:00; ", "brand": "Aldi"}, "geometry": {"type": "Point", "coordinates": [13.66497, 45.53153]}},
{"type": "Feature", "id": "kgzNgfAwJlhNld_OF2JM2i8TzIg=", "properties": {"ref": "9JpHkirIzGLssJlGjZMncw==", "@spider": "aldi_si", "addr:street": "Dolenjska cesta 337", "addr:city": "Lavrica-\u0160kofljica", "addr:postcode": "1291", "name": "HOFER", "opening_hours": "Sa 08:00-21:00; Su closed;Mo-Fr 08:00-21:00; ", "brand": "Aldi"}, "geometry": {"type": "Point", "coordinates": [14.55598, 46.00014]}},
{"type": "Feature", "id": "_hVOQltsV7UUNme7MhFcaXQqWP4=", "properties": {"ref": "kJ6PrEySzXaIcsgSoNMB4w==", "@spider": "aldi_si", "addr:street": "Tr\u017ea\u0161ka cesta 429", "addr:city": "Ljubljana", "addr:postcode": "1000", "name": "HOFER", "opening_hours": "Sa 08:00-21:00; Su closed;Mo-Fr 08:00-21:00; ", "brand": "Aldi"}, "geometry": {"type": "Point", "coordinates": [14.435, 46.0272]}},
{"type": "Feature", "id": "6ziJNpZ1hkh0swIB5XBx1T_T-Zg=", "properties": {"ref": "Afy-04pCZVrBu7qmewAx-Q==", "@spider": "aldi_si", "addr:street": "Dolenjska cesta 240d", "addr:city": "Ljubljana", "addr:postcode": "1000", "name": "HOFER", "opening_hours": "Sa 08:00-21:00; Su closed;Mo-Fr 08:00-21:00; ", "brand": "Aldi"}, "geometry": {"type": "Point", "coordinates": [14.53821, 46.02508]}},
{"type": "Feature", "id": "2BC-QxbJPMOGVXQJTGJUb8KxcOM=", "properties": {"ref": "sitfkiCSkQW3bs5ERpsj7g==", "@spider": "aldi_si", "addr:street": "Cesta na Brdo 105", "addr:city": "Ljubljana", "addr:postcode": "1000", "name": "HOFER", "opening_hours": "Sa 07:30-21:00; Su closed;Mo-Fr 07:30-21:00; ", "brand": "Aldi"}, "geometry": {"type": "Point", "coordinates": [14.4621, 46.0472]}},
{"type": "Feature", "id": "sOCrEoQB1dOlTnD77rUrE_T94SA=", "properties": {"ref": "kiFxLJS0ttQqe9djskcFPQ==", "@spider": "aldi_si", "addr:street": "Mesarska cesta 13", "addr:city": "Ljubljana", "addr:postcode": "1000", "name": "HOFER", "opening_hours": "Sa 08:00-21:00; Su closed;Mo-Fr 08:00-21:00; ", "brand": "Aldi"}, "geometry": {"type": "Point", "coordinates": [14.52456, 46.04777]}},
{"type": "Feature", "id": "QuDcMeiQKQ1ilnXYF7Tn23dFM-I=", "properties": {"ref": "RLey9r1ztBhVbt-ag1zvPA==", "@spider": "aldi_si", "addr:street": "Poljanski nasip 10", "addr:city": "Ljubljana", "addr:postcode": "1000", "name": "HOFER", "opening_hours": "Sa 08:00-21:00; Su closed;Mo-Fr 08:00-21:00; ", "brand": "Aldi"}, "geometry": {"type": "Point", "coordinates": [14.51238, 46.05146]}},
{"type": "Feature", "id": "vHdbbA1VfujIv2ahieBsxgfGxI8=", "properties": {"ref": "n0_RnhAoZZvWc1fOU4lsHg==", "@spider": "aldi_si", "addr:street": "Njego\u0161eva ulica 8", "addr:city": "Ljubljana", "addr:postcode": "1000", "name": "HOFER", "opening_hours": "Sa 07:30-21:00; Su closed;Mo-Fr 07:30-21:00; ", "brand": "Aldi"}, "geometry": {"type": "Point", "coordinates": [14.5199, 46.05471]}},
{"type": "Feature", "id": "e2PpPwFxO_TVtg_FED4x_FEjZH0=", "properties": {"ref": "sXh4AWrp6Nhc5cx40TMKqQ==", "@spider": "aldi_si", "addr:street": "Dunajska cesta 20", "addr:city": "Ljubljana", "addr:postcode": "1000", "name": "HOFER", "opening_hours": "Sa 07:30-21:00; Su closed;Mo-Fr 07:30-21:00; ", "brand": "Aldi"}, "geometry": {"type": "Point", "coordinates": [14.50876, 46.06265]}},
{"type": "Feature", "id": "hWwyz21HFyatoHGcyRdS60WSwFQ=", "properties": {"ref": "eY8MZlzPEor079HosxRnLQ==", "@spider": "aldi_si", "addr:street": "Toplarni\u0161ka ulica 4", "addr:city": "Ljubljana", "addr:postcode": "1000", "name": "HOFER", "opening_hours": "Sa 08:00-21:00; Su closed;Mo-Fr 08:00-21:00; ", "brand": "Aldi"}, "geometry": {"type": "Point", "coordinates": [14.54159, 46.05651]}},
{"type": "Feature", "id": "hDVqyumntrATpFyieDaRXDLnT6k=", "properties": {"ref": "fSvQWaQqESHeQxkx6CuaAw==", "@spider": "aldi_si", "addr:street": "Chengdujska cesta 1", "addr:city": "Ljubljana", "addr:postcode": "1000", "name": "HOFER", "opening_hours": "Sa 08:00-21:00; Su closed;Mo-Fr 08:00-21:00; ", "brand": "Aldi"}, "geometry": {"type": "Point", "coordinates": [14.56708, 46.05439]}}]}