{"type":"FeatureCollection","features":[{"type": "Feature", "id": "ZFkTIUL4PfWeBL7VW1dRBA70_JA=", "properties": {"ref": "carit-etlarsvej-1", "@spider": "aldi_nord_dk", "addr:full": "Carit Etlarsvej 1", "addr:city": "Aabyh\u00f8j", "addr:postcode": "8230", "addr:country": "dk", "name": "ALDI Aabyh\u00f8j - Carit Etlarsvej", "website": "https://www.aldi.dk/find-butik/midtjylland/aabyhoj/carit-etlarsvej-1.html", "brand": "ALDI Nord", "brand:wikidata": "Q41171373"}},
{"type": "Feature", "id": "gEOmaDUn8tvJ_HPbYdhwex_KxyQ=", "properties": {"ref": "torvegade-5", "@spider": "aldi_nord_dk", "addr:full": "Torvegade 5", "addr:city": "Bjerringbro", "addr:postcode": "8850", "addr:country": "dk", "name": "ALDI Bjerringbro - Torvegade", "website": "https://www.aldi.dk/find-butik/midtjylland/bjerringbro/torvegade-5.html", "brand": "ALDI Nord", "brand:wikidata": "Q41171373"}},
{"type": "Feature", "id": "PX6RXPBaJBtGdvXftS7MkFYS408=", "properties": {"ref": "storegade-31", "@spider": "aldi_nord_dk", "addr:full": "Storegade 31", "addr:city": "Bjerringbro", "addr:postcode": "8850", "addr:country": "dk", "name": "ALDI Bjerringbro - Storegade", "website": "https://www.aldi.dk/find-butik/midtjylland/bjerringbro/storegade-31.html", "brand": "ALDI Nord", "brand:wikidata": "Q41171373"}},
{"type": "Feature", "id": "F-qg-rZ2-jxR5dL7ELHyzyeCVkc=", "properties": {"ref": "runevej-4", "@spider": "aldi_nord_dk", "addr:full": "Runevej 4", "addr:city": "Aarhus V", "addr:postcode": "8210", "addr:country": "dk", "name": "ALDI Aarhus V - Runevej 4", "website": "https://www.aldi.dk/find-butik/midtjylland/aarhus-v/runevej-4.html", "brand": "ALDI Nord", "brand:wikidata": "Q41171373"}},
{"type": "Feature", "id": "pvQQYvazZplbGIT_zkcvioRWics=", "properties": {"ref": "gronnegade-57", "@spider": "aldi_nord_dk", "addr:full": "Gr\u00f8nnegade 57", "addr:city": "Aarhus C", "addr:postcode": "8000", "addr:country": "dk", "name": "ALDI Aarhus C - Gr\u00f8nnegade", "website": "https://www.aldi.dk/find-butik/midtjylland/aarhus-c/gronnegade-57.html", "brand": "ALDI Nord", "brand:wikidata": "Q41171373"}},
{"type": "Feature", "id": "nbglnKqHZF8TT3rVs-Hg-aMOfw4=", "properties": {"ref": "maltvej-2", "@spider": "aldi_nord_dk", "addr:full": "Maltvej 2", "addr:city": "Ebeltoft", "addr:postcode": "8400", "addr:country": "dk", "name": "ALDI Ebeltoft - Maltvej", "website": "https://www.aldi.dk/find-butik/midtjylland/ebeltoft/maltvej-2.html", "brand": "ALDI Nord", "brand:wikidata": "Q41171373"}},
{"type": "Feature", "id": "OUcsHfdZ4vgry6qj9qCZvFFZ6dQ=", "properties": {"ref": "simons-bakke-70-74", "@spider": "aldi_nord_dk", "addr:full": "Simons Bakke 70-74", "addr:city": "Thisted", "addr:postcode": "7700", "addr:country": "dk", "name": "ALDI Thisted - Simons Bakke", "website": "https://www.aldi.dk/find-butik/nordjylland/thisted/simons-bakke-70-74.html", "brand": "ALDI Nord", "brand:wikidata": "Q41171373"}},
{"type": "Feature", "id": "N5I70eTeyRnN_oJvkxfGWbDlBHg=", "properties": {"ref": "rougsovej-47-b", "@spider": "aldi_nord_dk", "addr:full": "Rougs\u00f8vej 47 B", "addr:city": "Alling\u00e5bro", "addr:postcode": "8961", "addr:country": "dk", "name": "ALDI Alling\u00e5bro - Rougs\u00f8vej", "website": "https://www.aldi.dk/find-butik/midtjylland/allingabro/rougsovej-47-b.html", "brand": "ALDI Nord", "brand:wikidata": "Q41171373"}},
{"type": "Feature", "id": "_zf6OfZqYrSQzsdB82CZAPHaVfY=", "properties": {"ref": "esterhojvej-63", "@spider": "aldi_nord_dk", "addr:full": "Esterh\u00f8jvej 63", "addr:city": "Asn\u00e6s", "addr:postcode": "4550", "addr:country": "dk", "name": "ALDI Asn\u00e6s - Esterh\u00f8jvej", "website": "https://www.aldi.dk/find-butik/sjaelland-og-oer/asnaes/esterhojvej-63.html", "brand": "ALDI Nord", "brand:wikidata": "Q41171373"}},
{"type": "Feature", "id": "EYL8b8EPMWVl44NfNWporuRLbSs=", "properties": {"ref": "paludan-muellers-vej-26", "@spider": "aldi_nord_dk", "addr:full": "Paludan-M\u00fcllers Vej 26", "addr:city": "\u00c5rhus N", "addr:postcode": "8200", "addr:country": "dk", "name": "ALDI \u00c5rhus N - Paludan-M\u00fcllers Vej", "website": "https://www.aldi.dk/find-butik/midtjylland/arhus-n/paludan-muellers-vej-26.html", "brand": "ALDI Nord", "brand:wikidata": "Q41171373"}},
{"type": "Feature", "id": "STaQeb54r4JnX6ppvQRyg4ELgu4=", "properties": {"ref": "lemvigvej-11", "@spider": "aldi_nord_dk", "addr:full": "Lemvigvej 11", "addr:city": "Harbo\u00f8re", "addr:postcode": "7673", "addr:country": "dk", "name": "ALDI Harbo\u00f8re - Lemvigvej", "website": "https://www.aldi.dk/find-butik/midtjylland/harboore/lemvigvej-11.html", "brand": "ALDI Nord", "brand:wikidata": "Q41171373"}},
{"type": "Feature", "id": "1N0kviCRHjN3p0UrvntQ45QzRdI=", "properties": {"ref": "vallovej-2", "@spider": "aldi_nord_dk", "addr:full": "Vall\u00f8vej 2", "addr:city": "Herning", "addr:postcode": "7400", "addr:country": "dk", "name": "ALDI Herning - Vall\u00f8vej", "website": "https://www.aldi.dk/find-butik/midtjylland/herning/vallovej-2.html", "brand": "ALDI Nord", "brand:wikidata": "Q41171373"}},
{"type": "Feature", "id": "cRlcOy7-uFfAb5UEg0g31sJn-_o=", "properties": {"ref": "egebjergvej-1", "@spider": "aldi_nord_dk", "addr:full": "Egebjergvej 1", "addr:city": "Nyk\u00f8bing Sj.", "addr:postcode": "4500", "addr:country": "dk", "name": "ALDI Nyk\u00f8bing Sj. - Egebjergvej", "website": "https://www.aldi.dk/find-butik/sjaelland-og-oer/nykobing-sj/egebjergvej-1.html", "brand": "ALDI Nord", "brand:wikidata": "Q41171373"}},
{"type": "Feature", "id": "5RusylIgeGr3gD1zuoRcG76jd2c=", "properties": {"ref": "sct-jorgensbjerg-46", "@spider": "aldi_nord_dk", "addr:full": "Sct. J\u00f8rgensbjerg 46", "addr:city": "Kalundborg", "addr:postcode": "4400", "addr:country": "dk", "name": "ALDI Kalundborg - Sct. J\u00f8rgensbjerg 46", "website": "https://www.aldi.dk/find-butik/sjaelland-og-oer/kalundborg/sct-jorgensbjerg-46.html", "brand": "ALDI Nord", "brand:wikidata": "Q41171373"}},
{"type": "Feature", "id": "aXCdNxMcpw5AVWeuRa9TMh8dFx8=", "properties": {"ref": "sondergade-10", "@spider": "aldi_nord_dk", "addr:full": "S\u00f8ndergade 10", "addr:city": "Gren\u00e5", "addr:postcode": "8500", "addr:country": "dk", "name": "ALDI Gren\u00e5 - S\u00f8ndergade", "website": "https://www.aldi.dk/find-butik/midtjylland/grena/sondergade-10.html", "brand": "ALDI Nord", "brand:wikidata": "Q41171373"}},
{"type": "Feature", "id": "pWVtffVdyYhkm_w7pulhnKgOEo4=", "properties": {"ref": "centervej-39", "@spider": "aldi_nord_dk", "addr:full": "Centervej 39", "addr:city": "H\u00f8ng", "addr:postcode": "4270", "addr:country": "dk", "name": "ALDI H\u00f8ng - Centervej", "website": "https://www.aldi.dk/find-butik/sjaelland-og-oer/hong/centervej-39.html", "brand": "ALDI Nord", "brand:wikidata": "Q41171373"}},
{"type": "Feature", "id": "Cy2Zd5hogT3w4nmmYf-ytrIxFhM=", "properties": {"ref": "sophus-falksvej-4", "@spider": "aldi_nord_dk", "addr:full": "Sophus Falksvej 4", "addr:city": "S\u00e6by", "addr:postcode": "9300", "addr:country": "dk", "name": "ALDI S\u00e6by - Sophus Falksvej 4", "website": "https://www.aldi.dk/find-butik/nordjylland/saeby/sophus-falksvej-4.html", "brand": "ALDI Nord", "brand:wikidata": "Q41171373"}},
{"type": "Feature", "id": "vgITRsHrDgmZtjIa3662CK5kgD4=", "properties": {"ref": "daemningen-11", "@spider": "aldi_nord_dk", "addr:full": "D\u00e6mningen 11", "addr:city": "Herning", "addr:postcode": "7400", "addr:country": "dk", "name": "ALDI Herning - D\u00e6mningen", "website": "https://www.aldi.dk/find-butik/midtjylland/herning/daemningen-11.html", "brand": "ALDI Nord", "brand:wikidata": "Q41171373"}},
{"type": "Feature", "id": "tv5lVlp8tP85FcOS1L6q3H3wHQk=", "properties": {"ref": "storegade-7", "@spider": "aldi_nord_dk", "addr:full": "Storegade 7", "addr:city": "Brande", "addr:postcode": "7330", "addr:country": "dk", "name": "ALDI Brande - Storegade", "website": "https://www.aldi.dk/find-butik/midtjylland/brande/storegade-7.html", "brand": "ALDI Nord", "brand:wikidata": "Q41171373"}},
{"type": "Feature", "id": "a2YgG_ZsU06dIX2EF9kOvOM4Bxc=", "properties": {"ref": "radhuspladsen-1d", "@spider": "aldi_nord_dk", "addr:full": "R\u00e5dhuspladsen 1D", "addr:city": "Aarhus", "addr:postcode": "8000", "addr:country": "dk", "name": "ALDI Aarhus - R\u00e5dhuspladsen", "website": "https://www.aldi.dk/find-butik/midtjylland/aarhus/radhuspladsen-1d.html", "brand": "ALDI Nord", "brand:wikidata": "Q41171373"}},
{"type": "Feature", "id": "E-raJ62_q-Kk9e6yf3iQ1HMmkJY=", "properties": {"ref": "hobrovej-56", "@spider": "aldi_nord_dk", "addr:full": "Hobrovej 56", "addr:city": "St\u00f8vring", "addr:postcode": "9530", "addr:country": "dk", "name": "ALDI St\u00f8vring - Hobrovej", "website": "https://www.aldi.dk/find-butik/nordjylland/stovring/hobrovej-56.html", "brand": "ALDI Nord", "brand:wikidata": "Q41171373"}},
{"type": "Feature", "id": "2na1rHY0g7ZQ9bamu5oJzs_j7fc=", "properties": {"ref": "chr-bergsvej-2", "@spider": "aldi_nord_dk", "addr:full": "Chr Bergsvej 2", "addr:city": "Brande", "addr:postcode": "7330", "addr:country": "dk", "name": "ALDI Brande - Chr Bergsvej", "website": "https://www.aldi.dk/find-butik/midtjylland/brande/chr-bergsvej-2.html", "brand": "ALDI Nord", "brand:wikidata": "Q41171373"}},
{"type": "Feature", "id": "3xQpMFE89yf3JYrDRRBeUDBoQLs=", "properties": {"ref": "radhuspladsen-3", "@spider": "aldi_nord_dk", "addr:full": "R\u00e5dhuspladsen 3", "addr:city": "Aarhus", "addr:postcode": "8000", "addr:country": "dk", "name": "ALDI Aarhus - R\u00e5dhuspladsen", "website": "https://www.aldi.dk/find-butik/midtjylland/aarhus/radhuspladsen-3.html", "brand": "ALDI Nord", "brand:wikidata": "Q41171373"}},
{"type": "Feature", "id": "SukprBks05-8g_DP8I8sol-XSxA=", "properties": {"ref": "viaduktvej-7-9", "@spider": "aldi_nord_dk", "addr:full": "Viaduktvej 7-9", "addr:city": "N\u00f8rresundby", "addr:postcode": "9400", "addr:country": "dk", "name": "ALDI N\u00f8rresundby - Viaduktvej", "website": "https://www.aldi.dk/find-butik/nordjylland/norresundby/viaduktvej-7-9.html", "brand": "ALDI Nord", "brand:wikidata": "Q41171373"}},
{"type": "Feature", "id": "PzyCd9nbDdTE-2oVN2zt6UZaTk4=", "properties": {"ref": "hjorringvej-56", "@spider": "aldi_nord_dk", "addr:full": "Hj\u00f8rringvej 56", "addr:city": "N\u00f8rresundby", "addr:postcode": "9400", "addr:country": "dk", "name": "ALDI N\u00f8rresundby - Hj\u00f8rringvej", "website": "https://www.aldi.dk/find-butik/nordjylland/norresundby/hjorringvej-56.html", "brand": "ALDI Nord", "brand:wikidata": "Q41171373"}},
{"type": "Feature", "id": "cWjCEdWf6nM6QuKcNJk1oJJMOZs=", "properties": {"ref": "broen-2", "@spider": "aldi_nord_dk", "addr:full": "Broen 2", "addr:city": "Nyk\u00f8bing Mors", "addr:postcode": "7900", "addr:country": "dk", "name": "ALDI Nyk\u00f8bing Mors - Broen", "website": "https://www.aldi.dk/find-butik/nordjylland/nykobing-mors/broen-2.html", "brand": "ALDI Nord", "brand:wikidata": "Q41171373"}},
{"type": "Feature", "id": "BSsWmCPQkX-OKMs5ic85UhruzRw=", "properties": {"ref": "ostre-alle-1", "@spider": "aldi_nord_dk", "addr:full": "\u00d8stre All\u00e9 1", "addr:city": "Hurup Thy", "addr:postcode": "7760", "addr:country": "dk", "name": "ALDI Hurup Thy - \u00d8stre All\u00e9", "website": "https://www.aldi.dk/find-butik/nordjylland/hurup-thy/ostre-alle-1.html", "brand": "ALDI Nord", "brand:wikidata": "Q41171373"}},
{"type": "Feature", "id": "Xy1cvJDgsZ72wOAaNqFJam7GQZ4=", "properties": {"ref": "industrivej-2-4", "@spider": "aldi_nord_dk", "addr:full": "Industrivej 2-4", "addr:city": "L\u00f8kken", "addr:postcode": "9480", "addr:country": "dk", "name": "ALDI L\u00f8kken - Industrivej 2-4", "website": "https://www.aldi.dk/find-butik/nordjylland/lokken/industrivej-2-4.html", "brand": "ALDI Nord", "brand:wikidata": "Q41171373"}},
{"type": "Feature", "id": "kwXKALK_r1lTNei7KmpTsl5jENA=", "properties": {"ref": "banegardsvej-4", "@spider": "aldi_nord_dk", "addr:full": "Baneg\u00e5rdsvej 4", "addr:city": "Hobro", "addr:postcode": "9500", "addr:country": "dk", "name": "ALDI Hobro - Baneg\u00e5rdsvej", "website": "https://www.aldi.dk/find-butik/nordjylland/hobro/banegardsvej-4.html", "brand": "ALDI Nord", "brand:wikidata": "Q41171373"}},
{"type": "Feature", "id": "BaRHF3aOZ2tpQIQxaHhW-AZvPXU=", "properties": {"ref": "norregade-18", "@spider": "aldi_nord_dk", "addr:full": "N\u00f8rregade 18", "addr:city": "Hirtshals", "addr:postcode": "9850", "addr:country": "dk", "name": "ALDI Hirtshals - N\u00f8rregade", "website": "https://www.aldi.dk/find-butik/nordjylland/hirtshals/norregade-18.html", "brand": "ALDI Nord", "brand:wikidata": "Q41171373"}},
{"type": "Feature", "id": "mG9fIN_5oLHtoiLOG24rj38N6LA=", "properties": {"ref": "limfjordsvej-2", "@spider": "aldi_nord_dk", "addr:full": "Limfjordsvej 2", "addr:city": "L\u00f8gst\u00f8r", "addr:postcode": "9670", "addr:country": "dk", "name": "ALDI L\u00f8gst\u00f8r - Limfjordsvej", "website": "https://www.aldi.dk/find-butik/nordjylland/logstor/limfjordsvej-2.html", "brand": "ALDI Nord", "brand:wikidata": "Q41171373"}},
{"type": "Feature", "id": "5ziB8PiJ5BIeC0ftZnw2mAEkzdc=", "properties": {"ref": "niels-olsens-vej-2", "@spider": "aldi_nord_dk", "addr:full": "Niels Olsens Vej 2", "addr:city": "\u00d8lstykke", "addr:postcode": "3650", "addr:country": "dk", "name": "ALDI \u00d8lstykke - Niels Olsens Vej", "website": "https://www.aldi.dk/find-butik/hovedstaden/olstykke/niels-olsens-vej-2.html", "brand": "ALDI Nord", "brand:wikidata": "Q41171373"}},
{"type": "Feature", "id": "y9COcVl8stdPtrHPLynrvCFSxWY=", "properties": {"ref": "toftekaer-6", "@spider": "aldi_nord_dk", "addr:full": "Toftek\u00e6r 6", "addr:city": "S\u00f8nders\u00f8", "addr:postcode": "5471", "addr:country": "dk", "name": "ALDI S\u00f8nders\u00f8 - Toftek\u00e6r 6", "website": "https://www.aldi.dk/find-butik/fyn-og-oer/sonderso/toftekaer-6.html", "brand": "ALDI Nord", "brand:wikidata": "Q41171373"}},
{"type": "Feature", "id": "O59iEUNGvIPBYPKUlnb3M68WXwc=", "properties": {"ref": "odensevej-46-48", "@spider": "aldi_nord_dk", "addr:full": "Odensevej 46 - 48", "addr:city": "Ringe", "addr:postcode": "5750", "addr:country": "dk", "name": "ALDI Ringe - Odensevej 46 - 48", "website": "https://www.aldi.dk/find-butik/fyn-og-oer/ringe/odensevej-46-48.html", "brand": "ALDI Nord", "brand:wikidata": "Q41171373"}},
{"type": "Feature", "id": "4O9_uOLjf5obraQeU4t-gMfG_xo=", "properties": {"ref": "gronnegaarden-7", "@spider": "aldi_nord_dk", "addr:full": "Gr\u00f8nnegaarden 7", "addr:city": "Rudk\u00f8bing", "addr:postcode": "5900", "addr:country": "dk", "name": "ALDI Rudk\u00f8bing - Gr\u00f8nnegaarden", "website": "https://www.aldi.dk/find-butik/fyn-og-oer/rudkobing/gronnegaarden-7.html", "brand": "ALDI Nord", "brand:wikidata": "Q41171373"}},
{"type": "Feature", "id": "C4FoP5Z3qUFokH1Z76oZjf5K2xE=", "properties": {"ref": "risingsvej-142", "@spider": "aldi_nord_dk", "addr:full": "Risingsvej 142", "addr:city": "Odense N\u00d8", "addr:postcode": "5240", "addr:country": "dk", "name": "ALDI Odense N\u00d8 - Risingsvej", "website": "https://www.aldi.dk/find-butik/fyn-og-oer/odense-no/risingsvej-142.html", "brand": "ALDI Nord", "brand:wikidata": "Q41171373"}},
{"type": "Feature", "id": "V8ORBZOFYkYztIyvJclEAEgbL10=", "properties": {"ref": "rugardsvej-455", "@spider": "aldi_nord_dk", "addr:full": "Rug\u00e5rdsvej 455", "addr:city": "Odense NV", "addr:postcode": "5210", "addr:country": "dk", "name": "ALDI Odense NV - Rug\u00e5rdsvej 455", "website": "https://www.aldi.dk/find-butik/fyn-og-oer/odense-nv/rugardsvej-455.html", "brand": "ALDI Nord", "brand:wikidata": "Q41171373"}},
{"type": "Feature", "id": "BghknkiKEFICsxAwjKyW3Nt02Ao=", "properties": {"ref": "vestergade-115", "@spider": "aldi_nord_dk", "addr:full": "Vestergade 115", "addr:city": "Svendborg", "addr:postcode": "5700", "addr:country": "dk", "name": "ALDI Svendborg - Vestergade 115", "website": "https://www.aldi.dk/find-butik/fyn-og-oer/svendborg/vestergade-115.html", "brand": "ALDI Nord", "brand:wikidata": "Q41171373"}},
{"type": "Feature", "id": "z-jWYdxbNNy_D9jDkgSxAGDQgdg=", "properties": {"ref": "gronlokkevej-7", "@spider": "aldi_nord_dk", "addr:full": "Gr\u00f8nl\u00f8kkevej 7", "addr:city": "Odense C", "addr:postcode": "5000", "addr:country": "dk", "name": "ALDI Odense C - Gr\u00f8nl\u00f8kkevej", "website": "https://www.aldi.dk/find-butik/fyn-og-oer/odense-c/gronlokkevej-7.html", "brand": "ALDI Nord", "brand:wikidata": "Q41171373"}},
{"type": "Feature", "id": "hrKscmY8mwxFIvv8TPODZlVqPFU=", "properties": {"ref": "kochsgade-121", "@spider": "aldi_nord_dk", "addr:full": "Kochsgade 121", "addr:city": "Odense C", "addr:postcode": "5000", "addr:country": "dk", "name": "ALDI Odense C - Kochsgade 121", "website": "https://www.aldi.dk/find-butik/fyn-og-oer/odense-c/kochsgade-121.html", "brand": "ALDI Nord", "brand:wikidata": "Q41171373"}},
{"type": "Feature", "id": "_zuK5uIxaJddfgVfLJAA3zMr554=", "properties": {"ref": "snorresvej-40", "@spider": "aldi_nord_dk", "addr:full": "Snorresvej 40", "addr:city": "Odense NV", "addr:postcode": "5210", "addr:country": "dk", "name": "ALDI Odense NV - Snorresvej 40", "website": "https://www.aldi.dk/find-butik/fyn-og-oer/odense-nv/snorresvej-40.html", "brand": "ALDI Nord", "brand:wikidata": "Q41171373"}},
{"type": "Feature", "id": "zp_2HbVoVnkn1TDs5wNeLGQBrkI=", "properties": {"ref": "nyborgvej-99", "@spider": "aldi_nord_dk", "addr:full": "Nyborgvej 99", "addr:city": "Svendborg", "addr:postcode": "5700", "addr:country": "dk", "name": "ALDI Svendborg - Nyborgvej", "website": "https://www.aldi.dk/find-butik/fyn-og-oer/svendborg/nyborgvej-99.html", "brand": "ALDI Nord", "brand:wikidata": "Q41171373"}},
{"type": "Feature", "id": "lZZ8bDYrqGpyD3eJqp0Ki1FDehY=", "properties": {"ref": "skagensvej-100", "@spider": "aldi_nord_dk", "addr:full": "Skagensvej 100", "addr:city": "Hj\u00f8rring", "addr:postcode": "9800", "addr:country": "dk", "name": "ALDI Hj\u00f8rring - Skagensvej", "website": "https://www.aldi.dk/find-butik/nordjylland/hjorring/skagensvej-100.html", "brand": "ALDI Nord", "brand:wikidata": "Q41171373"}},
{"type": "Feature", "id": "nPuBfBbyP6dbVZUb4-mKWEoAchM=", "properties": {"ref": "frilandsvej-100", "@spider": "aldi_nord_dk", "addr:full": "Frilandsvej 100", "addr:city": "Hj\u00f8rring", "addr:postcode": "9800", "addr:country": "dk", "name": "ALDI Hj\u00f8rring - Frilandsvej", "website": "https://www.aldi.dk/find-butik/nordjylland/hjorring/frilandsvej-100.html", "brand": "ALDI Nord", "brand:wikidata": "Q41171373"}},
{"type": "Feature", "id": "Dh3VWCvYMYbvPIn9bwTQ6TKu1Ec=", "properties": {"ref": "hjallesevej-140", "@spider": "aldi_nord_dk", "addr:full": "Hjallesevej 140", "addr:city": "Odense M", "addr:postcode": "5230", "addr:country": "dk", "name": "ALDI Odense M - Hjallesevej 140", "website": "https://www.aldi.dk/find-butik/fyn-og-oer/odense-m/hjallesevej-140.html", "brand": "ALDI Nord", "brand:wikidata": "Q41171373"}},
{"type": "Feature", "id": "1QiGOWXGhIsfawgDz2Dh_ynEvfg=", "properties": {"ref": "baneskellet-1", "@spider": "aldi_nord_dk", "addr:full": "Baneskellet 1", "addr:city": "Vedb\u00e6k", "addr:postcode": "2950", "addr:country": "dk", "name": "ALDI Vedb\u00e6k - Baneskellet", "website": "https://www.aldi.dk/find-butik/hovedstaden/vedbaek/baneskellet-1.html", "brand": "ALDI Nord", "brand:wikidata": "Q41171373"}},
{"type": "Feature", "id": "IPuuROprf_3ytDX2qmdnel8jbYE=", "properties": {"ref": "taastrup-hovedgade-109-111", "@spider": "aldi_nord_dk", "addr:full": "Taastrup Hovedgade 109-111", "addr:city": "Taastrup", "addr:postcode": "2630", "addr:country": "dk", "name": "ALDI Taastrup - Taastrup Hovedgade", "website": "https://www.aldi.dk/find-butik/hovedstaden/taastrup/taastrup-hovedgade-109-111.html", "brand": "ALDI Nord", "brand:wikidata": "Q41171373"}},
{"type": "Feature", "id": "ZwAqdqT13fCZqJpaUEgzn6ueuxg=", "properties": {"ref": "hovedgaden-1-b", "@spider": "aldi_nord_dk", "addr:full": "Hovedgaden 1 B", "addr:city": "Skibby", "addr:postcode": "4050", "addr:country": "dk", "name": "ALDI Skibby - Hovedgaden", "website": "https://www.aldi.dk/find-butik/hovedstaden/skibby/hovedgaden-1-b.html", "brand": "ALDI Nord", "brand:wikidata": "Q41171373"}},
{"type": "Feature", "id": "AtV8DX2DcQKzuwImt2b9tqigSTM=", "properties": {"ref": "soborg-hovedgade-47", "@spider": "aldi_nord_dk", "addr:full": "S\u00f8borg Hovedgade 47", "addr:city": "S\u00f8borg", "addr:postcode": "2860", "addr:country": "dk", "name": "ALDI S\u00f8borg - S\u00f8borg Hovedgade", "website": "https://www.aldi.dk/find-butik/hovedstaden/soborg/soborg-hovedgade-47.html", "brand": "ALDI Nord", "brand:wikidata": "Q41171373"}},
{"type": "Feature", "id": "_ctAlrb28rPOLlzff0BsmMfRx10=", "properties": {"ref": "roskildevej-250", "@spider": "aldi_nord_dk", "addr:full": "Roskildevej 250", "addr:city": "R\u00f8dovre", "addr:postcode": "2610", "addr:country": "dk", "name": "ALDI R\u00f8dovre - Roskildevej", "website": "https://www.aldi.dk/find-butik/hovedstaden/rodovre/roskildevej-250.html", "brand": "ALDI Nord", "brand:wikidata": "Q41171373"}},
{"type": "Feature", "id": "-KWRIbUVIAdNwJKnmB9YCe_i2g4=", "properties": {"ref": "slotsherrens-vaenge-3-b", "@spider": "aldi_nord_dk", "addr:full": "Slotsherrens V\u00e6nge 3 B", "addr:city": "R\u00f8dovre", "addr:postcode": "2610", "addr:country": "dk", "name": "ALDI R\u00f8dovre - Slotsherrens V\u00e6nge", "website": "https://www.aldi.dk/find-butik/hovedstaden/rodovre/slotsherrens-vaenge-3-b.html", "brand": "ALDI Nord", "brand:wikidata": "Q41171373"}},
{"type": "Feature", "id": "OOip-NMOcV4nT1NtvGV5hWAmCv4=", "properties": {"ref": "rantzausgade-30", "@spider": "aldi_nord_dk", "addr:full": "Rantzausgade 30", "addr:city": "K\u00f8benhavn N", "addr:postcode": "2200", "addr:country": "dk", "name": "ALDI K\u00f8benhavn N - Rantzausgade", "website": "https://www.aldi.dk/find-butik/hovedstaden/kobenhavn-n/rantzausgade-30.html", "brand": "ALDI Nord", "brand:wikidata": "Q41171373"}},
{"type": "Feature", "id": "KUpO7dzYamwcdhewlebOTlBB10o=", "properties": {"ref": "ingerslevsgade-60", "@spider": "aldi_nord_dk", "addr:full": "Ingerslevsgade 60", "addr:city": "K\u00f8benhavn V", "addr:postcode": "1705", "addr:country": "dk", "name": "ALDI K\u00f8benhavn V - Ingerslevsgade", "website": "https://www.aldi.dk/find-butik/hovedstaden/kobenhavn-v/ingerslevsgade-60.html", "brand": "ALDI Nord", "brand:wikidata": "Q41171373"}},
{"type": "Feature", "id": "YZRfiZhgz7V5KaTLFsEftxJ4a18=", "properties": {"ref": "rejsbygade-8", "@spider": "aldi_nord_dk", "addr:full": "Rejsbygade 8", "addr:city": "K\u00f8benhavn V", "addr:postcode": "1759", "addr:country": "dk", "name": "ALDI K\u00f8benhavn V - Rejsbygade", "website": "https://www.aldi.dk/find-butik/hovedstaden/kobenhavn-v/rejsbygade-8.html", "brand": "ALDI Nord", "brand:wikidata": "Q41171373"}},
{"type": "Feature", "id": "QoJg83HCSN9qn1yOzYh2q4lcQ88=", "properties": {"ref": "jagtvej-63-65", "@spider": "aldi_nord_dk", "addr:full": "Jagtvej 63-65", "addr:city": "K\u00f8benhavn N", "addr:postcode": "2200", "addr:country": "dk", "name": "ALDI K\u00f8benhavn N - Jagtvej", "website": "https://www.aldi.dk/find-butik/hovedstaden/kobenhavn-n/jagtvej-63-65.html", "brand": "ALDI Nord", "brand:wikidata": "Q41171373"}},
{"type": "Feature", "id": "_iak3wmSFYZkbbM6ZFP9ml3ewjw=", "properties": {"ref": "gl-skagensvej-101", "@spider": "aldi_nord_dk", "addr:full": "Gl. Skagensvej 101", "addr:city": "Frederikshavn", "addr:postcode": "9900", "addr:country": "dk", "name": "ALDI Frederikshavn - Gl. Skagensvej", "website": "https://www.aldi.dk/find-butik/nordjylland/frederikshavn/gl-skagensvej-101.html", "brand": "ALDI Nord", "brand:wikidata": "Q41171373"}},
{"type": "Feature", "id": "qSqJa-Nc7qyh4AEEWX3Uy2dFhaE=", "properties": {"ref": "midtergade-23", "@spider": "aldi_nord_dk", "addr:full": "Midtergade 23", "addr:city": "Hals", "addr:postcode": "9370", "addr:country": "dk", "name": "ALDI Hals - Midtergade 23", "website": "https://www.aldi.dk/find-butik/nordjylland/hals/midtergade-23.html", "brand": "ALDI Nord", "brand:wikidata": "Q41171373"}},
{"type": "Feature", "id": "E4djERAcrWGXMip2ssVr8Ne9yks=", "properties": {"ref": "broparken-2", "@spider": "aldi_nord_dk", "addr:full": "Broparken 2", "addr:city": "Hadsund", "addr:postcode": "9560", "addr:country": "dk", "name": "ALDI Hadsund - Broparken", "website": "https://www.aldi.dk/find-butik/nordjylland/hadsund/broparken-2.html", "brand": "ALDI Nord", "brand:wikidata": "Q41171373"}},
{"type": "Feature", "id": "x8qXXkQaeCuD8oWYCCQlUEg5__o=", "properties": {"ref": "tingvej-2-4-amagerbrogade-84", "@spider": "aldi_nord_dk", "addr:full": "Tingvej 2-4/Amagerbrogade 84", "addr:city": "K\u00f8benhavn S", "addr:postcode": "2300", "addr:country": "dk", "name": "ALDI K\u00f8benhavn S - Tingvej 2-4/Amagerbrogade 84", "website": "https://www.aldi.dk/find-butik/hovedstaden/kobenhavn-s/tingvej-2-4-amagerbrogade-84.html", "brand": "ALDI Nord", "brand:wikidata": "Q41171373"}},
{"type": "Feature", "id": "cmAsKE9PnaF90_uvmzg7Z7mDCCg=", "properties": {"ref": "parkvej-3", "@spider": "aldi_nord_dk", "addr:full": "Parkvej 3", "addr:city": "Fjerritslev", "addr:postcode": "9690", "addr:country": "dk", "name": "ALDI Fjerritslev - Parkvej 3", "website": "https://www.aldi.dk/find-butik/nordjylland/fjerritslev/parkvej-3.html", "brand": "ALDI Nord", "brand:wikidata": "Q41171373"}},
{"type": "Feature", "id": "O1TxUUYvihq-KL86MA0grdfRHa0=", "properties": {"ref": "holmevej-3", "@spider": "aldi_nord_dk", "addr:full": "Holmevej 3", "addr:city": "Fars\u00f8", "addr:postcode": "9640", "addr:country": "dk", "name": "ALDI Fars\u00f8 - Holmevej", "website": "https://www.aldi.dk/find-butik/nordjylland/farso/holmevej-3.html", "brand": "ALDI Nord", "brand:wikidata": "Q41171373"}},
{"type": "Feature", "id": "65vxKgU-aOPIZbtiXHqskCZ3DbQ=", "properties": {"ref": "messinavej-2", "@spider": "aldi_nord_dk", "addr:full": "Messinavej 2", "addr:city": "K\u00f8benhavn S", "addr:postcode": "2300", "addr:country": "dk", "name": "ALDI K\u00f8benhavn S - Messinavej", "website": "https://www.aldi.dk/find-butik/hovedstaden/kobenhavn-s/messinavej-2.html", "brand": "ALDI Nord", "brand:wikidata": "Q41171373"}},
{"type": "Feature", "id": "HoaOQLddguGL-Qv08uctkyLZR-I=", "properties": {"ref": "gaerumvej-35", "@spider": "aldi_nord_dk", "addr:full": "G\u00e6rumvej 35", "addr:city": "Frederikshavn", "addr:postcode": "9900", "addr:country": "dk", "name": "ALDI Frederikshavn - G\u00e6rumvej", "website": "https://www.aldi.dk/find-butik/nordjylland/frederikshavn/gaerumvej-35.html", "brand": "ALDI Nord", "brand:wikidata": "Q41171373"}},
{"type": "Feature", "id": "xfO3NeJEGxPiYhUnvPJ8bq1jYO0=", "properties": {"ref": "vestergade-41", "@spider": "aldi_nord_dk", "addr:full": "Vestergade 41", "addr:city": "Nyborg", "addr:postcode": "5800", "addr:country": "dk", "name": "ALDI Nyborg - Vestergade 41", "website": "https://www.aldi.dk/find-butik/fyn-og-oer/nyborg/vestergade-41.html", "brand": "ALDI Nord", "brand:wikidata": "Q41171373"}},
{"type": "Feature", "id": "-s642PwM6lQgwt-UdDX7AErtvnE=", "properties": {"ref": "vestergade-35b", "@spider": "aldi_nord_dk", "addr:full": "Vestergade 35B", "addr:city": "Nyborg", "addr:postcode": "5800", "addr:country": "dk", "name": "ALDI Nyborg - Vestergade 35B", "website": "https://www.aldi.dk/find-butik/fyn-og-oer/nyborg/vestergade-35b.html", "brand": "ALDI Nord", "brand:wikidata": "Q41171373"}},
{"type": "Feature", "id": "Ho1S9Yhzay_iGwcaOXaqY1I8TmM=", "properties": {"ref": "kastrupvej-50", "@spider": "aldi_nord_dk", "addr:full": "Kastrupvej 50", "addr:city": "K\u00f8benhavn S", "addr:postcode": "2300", "addr:country": "dk", "name": "ALDI K\u00f8benhavn S - Kastrupvej", "website": "https://www.aldi.dk/find-butik/hovedstaden/kobenhavn-s/kastrupvej-50.html", "brand": "ALDI Nord", "brand:wikidata": "Q41171373"}},
{"type": "Feature", "id": "M7OGTMrujKDt9pU5X8Ig8NsKYG0=", "properties": {"ref": "havnegade-8a", "@spider": "aldi_nord_dk", "addr:full": "Havnegade 8A", "addr:city": "Odense", "addr:postcode": "5000", "addr:country": "dk", "name": "ALDI Odense - Havnegade", "website": "https://www.aldi.dk/find-butik/fyn-og-oer/odense/havnegade-8a.html", "brand": "ALDI Nord", "brand:wikidata": "Q41171373"}},
{"type": "Feature", "id": "CANeIeN5ZaGInNXw3QWUtisxvyg=", "properties": {"ref": "bytorvet-57", "@spider": "aldi_nord_dk", "addr:full": "Bytorvet 57", "addr:city": "Hanstholm", "addr:postcode": "7730", "addr:country": "dk", "name": "ALDI Hanstholm - Bytorvet", "website": "https://www.aldi.dk/find-butik/nordjylland/hanstholm/bytorvet-57.html", "brand": "ALDI Nord", "brand:wikidata": "Q41171373"}},
{"type": "Feature", "id": "0O4LrAG1ecLO1r0mc86RLYan-M8=", "properties": {"ref": "fynsvej-19", "@spider": "aldi_nord_dk", "addr:full": "Fynsvej 19", "addr:city": "Middelfart", "addr:postcode": "5500", "addr:country": "dk", "name": "ALDI Middelfart - Fynsvej 19", "website": "https://www.aldi.dk/find-butik/fyn-og-oer/middelfart/fynsvej-19.html", "brand": "ALDI Nord", "brand:wikidata": "Q41171373"}},
{"type": "Feature", "id": "tOiO6-UMb2zFbJvSA-k_KwkRkhU=", "properties": {"ref": "bolbrovej-60-62", "@spider": "aldi_nord_dk", "addr:full": "Bolbrovej 60-62", "addr:city": "Rungsted Kyst", "addr:postcode": "2960", "addr:country": "dk", "name": "ALDI Rungsted Kyst - Bolbrovej", "website": "https://www.aldi.dk/find-butik/hovedstaden/rungsted-kyst/bolbrovej-60-62.html", "brand": "ALDI Nord", "brand:wikidata": "Q41171373"}},
{"type": "Feature", "id": "pMSjy1vO66OzllSUayBxHIK91tc=", "properties": {"ref": "ostbanegade-129", "@spider": "aldi_nord_dk", "addr:full": "\u00d8stbanegade 129", "addr:city": "K\u00f8benhavn \u00d8", "addr:postcode": "2100", "addr:country": "dk", "name": "ALDI K\u00f8benhavn \u00d8 - \u00d8stbanegade", "website": "https://www.aldi.dk/find-butik/hovedstaden/kobenhavn-o/ostbanegade-129.html", "brand": "ALDI Nord", "brand:wikidata": "Q41171373"}},
{"type": "Feature", "id": "_Gt0jYRRqOmgc4a1IqZBCYp8Wng=", "properties": {"ref": "assensvej-2-4", "@spider": "aldi_nord_dk", "addr:full": "Assensvej 2 - 4", "addr:city": "Faaborg", "addr:postcode": "5600", "addr:country": "dk", "name": "ALDI Faaborg - Assensvej 2 - 4", "website": "https://www.aldi.dk/find-butik/fyn-og-oer/faaborg/assensvej-2-4.html", "brand": "ALDI Nord", "brand:wikidata": "Q41171373"}},
{"type": "Feature", "id": "8jlDdDA8agBjftEkKl63dxPjSOM=", "properties": {"ref": "nordre-ringvej-50", "@spider": "aldi_nord_dk", "addr:full": "Nordre Ringvej 50", "addr:city": "Kerteminde", "addr:postcode": "5300", "addr:country": "dk", "name": "ALDI Kerteminde - Nordre Ringvej", "website": "https://www.aldi.dk/find-butik/fyn-og-oer/kerteminde/nordre-ringvej-50.html", "brand": "ALDI Nord", "brand:wikidata": "Q41171373"}},
{"type": "Feature", "id": "Sup8OmuuY3BHURBCgmcfKtLUKyE=", "properties": {"ref": "gothersgade-52", "@spider": "aldi_nord_dk", "addr:full": "Gothersgade 52", "addr:city": "K\u00f8benhavn K", "addr:postcode": "1123", "addr:country": "dk", "name": "ALDI K\u00f8benhavn K - Gothersgade", "website": "https://www.aldi.dk/find-butik/hovedstaden/kobenhavn-k/gothersgade-52.html", "brand": "ALDI Nord", "brand:wikidata": "Q41171373"}},
{"type": "Feature", "id": "S9FP6hO8OiQrqbsqUyDrlCArsyc=", "properties": {"ref": "lundtofteparken-45", "@spider": "aldi_nord_dk", "addr:full": "Lundtofteparken 45", "addr:city": "Kgs. Lyngby", "addr:postcode": "2800", "addr:country": "dk", "name": "ALDI Kgs. Lyngby - Lundtofteparken", "website": "https://www.aldi.dk/find-butik/hovedstaden/kgs-lyngby/lundtofteparken-45.html", "brand": "ALDI Nord", "brand:wikidata": "Q41171373"}},
{"type": "Feature", "id": "D5heopu84UbtYpA_CeBVReHhY54=", "properties": {"ref": "vejlebrovej-21", "@spider": "aldi_nord_dk", "addr:full": "Vejlebrovej 21", "addr:city": "Ish\u00f8j", "addr:postcode": "2635", "addr:country": "dk", "name": "ALDI Ish\u00f8j - Vejlebrovej", "website": "https://www.aldi.dk/find-butik/hovedstaden/ishoj/vejlebrovej-21.html", "brand": "ALDI Nord", "brand:wikidata": "Q41171373"}},
{"type": "Feature", "id": "-ixiymnyKpPoGsL41IGw-2uVGA8=", "properties": {"ref": "jyllandsgade-6", "@spider": "aldi_nord_dk", "addr:full": "Jyllandsgade 6", "addr:city": "Vejle", "addr:postcode": "7100", "addr:country": "dk", "name": "ALDI Vejle - Jyllandsgade", "website": "https://www.aldi.dk/find-butik/syd-og-sonderjylland/vejle/jyllandsgade-6.html", "brand": "ALDI Nord", "brand:wikidata": "Q41171373"}},
{"type": "Feature", "id": "EnxlD5nPHf6X9U0orX8xi9R6KiU=", "properties": {"ref": "kongelundsvej-479", "@spider": "aldi_nord_dk", "addr:full": "Kongelundsvej 479", "addr:city": "Kastrup", "addr:postcode": "2770", "addr:country": "dk", "name": "ALDI Kastrup - Kongelundsvej", "website": "https://www.aldi.dk/find-butik/hovedstaden/kastrup/kongelundsvej-479.html", "brand": "ALDI Nord", "brand:wikidata": "Q41171373"}},
{"type": "Feature", "id": "jIV1Wymkm-A4Vk7IvY3vHQx9js0=", "properties": {"ref": "strandvejen-18", "@spider": "aldi_nord_dk", "addr:full": "Strandvejen 18", "addr:city": "Hundested", "addr:postcode": "3390", "addr:country": "dk", "name": "ALDI Hundested - Strandvejen", "website": "https://www.aldi.dk/find-butik/hovedstaden/hundested/strandvejen-18.html", "brand": "ALDI Nord", "brand:wikidata": "Q41171373"}},
{"type": "Feature", "id": "8sSW_SYCUddarlJQiE6JpNqlhoY=", "properties": {"ref": "industrivaenget-8-a", "@spider": "aldi_nord_dk", "addr:full": "Industriv\u00e6nget 8 A", "addr:city": "Hiller\u00f8d", "addr:postcode": "3400", "addr:country": "dk", "name": "ALDI Hiller\u00f8d - Industriv\u00e6nget", "website": "https://www.aldi.dk/find-butik/hovedstaden/hillerod/industrivaenget-8-a.html", "brand": "ALDI Nord", "brand:wikidata": "Q41171373"}},
{"type": "Feature", "id": "svIBUrR6QhFbKcTgmXih2OAMkM8=", "properties": {"ref": "hovedgaden-36", "@spider": "aldi_nord_dk", "addr:full": "Hovedgaden 36", "addr:city": "J\u00e6gerspris", "addr:postcode": "3630", "addr:country": "dk", "name": "ALDI J\u00e6gerspris - Hovedgaden", "website": "https://www.aldi.dk/find-butik/hovedstaden/jaegerspris/hovedgaden-36.html", "brand": "ALDI Nord", "brand:wikidata": "Q41171373"}},
{"type": "Feature", "id": "9wAKALgOESHFzKQvygiuAoIGTRE=", "properties": {"ref": "hvidovrevej-344-348", "@spider": "aldi_nord_dk", "addr:full": "Hvidovrevej 344 348", "addr:city": "Hvidovre", "addr:postcode": "2650", "addr:country": "dk", "name": "ALDI Hvidovre - Hvidovrevej 344", "website": "https://www.aldi.dk/find-butik/hovedstaden/hvidovre/hvidovrevej-344-348.html", "brand": "ALDI Nord", "brand:wikidata": "Q41171373"}},
{"type": "Feature", "id": "jFjQKjJjNSg7mLg6krwFUVGKqUo=", "properties": {"ref": "hovedvejen-140", "@spider": "aldi_nord_dk", "addr:full": "Hovedvejen 140", "addr:city": "Glostrup", "addr:postcode": "2600", "addr:country": "dk", "name": "ALDI Glostrup - Hovedvejen", "website": "https://www.aldi.dk/find-butik/hovedstaden/glostrup/hovedvejen-140.html", "brand": "ALDI Nord", "brand:wikidata": "Q41171373"}},
{"type": "Feature", "id": "24YwbgyQW8QLQ7SyA2COQJviEyQ=", "properties": {"ref": "ostergade-38", "@spider": "aldi_nord_dk", "addr:full": "\u00d8stergade 38", "addr:city": "Br\u00f8nderslev", "addr:postcode": "9700", "addr:country": "dk", "name": "ALDI Br\u00f8nderslev - \u00d8stergade", "website": "https://www.aldi.dk/find-butik/nordjylland/bronderslev/ostergade-38.html", "brand": "ALDI Nord", "brand:wikidata": "Q41171373"}},
{"type": "Feature", "id": "QEICxsJc2bM0pxMlYNgzGrnA5hs=", "properties": {"ref": "radhuscentret-19", "@spider": "aldi_nord_dk", "addr:full": "R\u00e5dhuscentret 19", "addr:city": "Vojens", "addr:postcode": "6500", "addr:country": "dk", "name": "ALDI Vojens - R\u00e5dhuscentret", "website": "https://www.aldi.dk/find-butik/syd-og-sonderjylland/vojens/radhuscentret-19.html", "brand": "ALDI Nord", "brand:wikidata": "Q41171373"}},
{"type": "Feature", "id": "QXiCv57HHtkltZj3hr19AtS9Qgk=", "properties": {"ref": "norre-alle-12", "@spider": "aldi_nord_dk", "addr:full": "N\u00f8rre Alle 12", "addr:city": "Assens", "addr:postcode": "5610", "addr:country": "dk", "name": "ALDI Assens - N\u00f8rre Alle", "website": "https://www.aldi.dk/find-butik/fyn-og-oer/assens/norre-alle-12.html", "brand": "ALDI Nord", "brand:wikidata": "Q41171373"}},
{"type": "Feature", "id": "-NZeVZVyKcSHVKywX_KDmiidfNg=", "properties": {"ref": "meretecentret-egevaenget-3", "@spider": "aldi_nord_dk", "addr:full": "Meretecentret, Egev\u00e6nget 3", "addr:city": "Helsing\u00f8r", "addr:postcode": "3000", "addr:country": "dk", "name": "ALDI Helsing\u00f8r - Meretecentret, Egev\u00e6nget", "website": "https://www.aldi.dk/find-butik/hovedstaden/helsingor/meretecentret-egevaenget-3.html", "brand": "ALDI Nord", "brand:wikidata": "Q41171373"}},
{"type": "Feature", "id": "6i1Pupg02LsroUb9cxBxX51vTQI=", "properties": {"ref": "hvidovrevej-90-a", "@spider": "aldi_nord_dk", "addr:full": "Hvidovrevej 90 A", "addr:city": "Hvidovre", "addr:postcode": "2650", "addr:country": "dk", "name": "ALDI Hvidovre - Hvidovrevej", "website": "https://www.aldi.dk/find-butik/hovedstaden/hvidovre/hvidovrevej-90-a.html", "brand": "ALDI Nord", "brand:wikidata": "Q41171373"}},
{"type": "Feature", "id": "kBpK4FjP-O4-zKAm9xxWYf8z8cg=", "properties": {"ref": "hovedgaden-407", "@spider": "aldi_nord_dk", "addr:full": "Hovedgaden 407", "addr:city": "Hedehusene", "addr:postcode": "2640", "addr:country": "dk", "name": "ALDI Hedehusene - Hovedgaden", "website": "https://www.aldi.dk/find-butik/hovedstaden/hedehusene/hovedgaden-407.html", "brand": "ALDI Nord", "brand:wikidata": "Q41171373"}},
{"type": "Feature", "id": "Bc4kwhZjw8f53MkO0r-h5sBqfKk=", "properties": {"ref": "bymosevej-9-b", "@spider": "aldi_nord_dk", "addr:full": "Bymosevej 9 B", "addr:city": "Helsinge", "addr:postcode": "3200", "addr:country": "dk", "name": "ALDI Helsinge - Bymosevej", "website": "https://www.aldi.dk/find-butik/hovedstaden/helsinge/bymosevej-9-b.html", "brand": "ALDI Nord", "brand:wikidata": "Q41171373"}},
{"type": "Feature", "id": "p8f_4aYxy5Pu7cjJdyGEnW_LXt0=", "properties": {"ref": "kastrupvej-326", "@spider": "aldi_nord_dk", "addr:full": "Kastrupvej 326", "addr:city": "Kastrup", "addr:postcode": "2770", "addr:country": "dk", "name": "ALDI Kastrup - Kastrupvej", "website": "https://www.aldi.dk/find-butik/hovedstaden/kastrup/kastrupvej-326.html", "brand": "ALDI Nord", "brand:wikidata": "Q41171373"}},
{"type": "Feature", "id": "i83bsVxytHdTiwRx1bcQ5wQICqo=", "properties": {"ref": "nygade-8-10", "@spider": "aldi_nord_dk", "addr:full": "Nygade 8-10", "addr:city": "Frederikssund", "addr:postcode": "3600", "addr:country": "dk", "name": "ALDI Frederikssund - Nygade", "website": "https://www.aldi.dk/find-butik/hovedstaden/frederikssund/nygade-8-10.html", "brand": "ALDI Nord", "brand:wikidata": "Q41171373"}},
{"type": "Feature", "id": "lbf7JJiwk7m_j6UZuHWVlYSBQLM=", "properties": {"ref": "frederikssundsvej-131-135", "@spider": "aldi_nord_dk", "addr:full": "Frederikssundsvej 131-135", "addr:city": "Br\u00f8nsh\u00f8j", "addr:postcode": "2700", "addr:country": "dk", "name": "ALDI Br\u00f8nsh\u00f8j - Frederikssundsvej", "website": "https://www.aldi.dk/find-butik/hovedstaden/bronshoj/frederikssundsvej-131-135.html", "brand": "ALDI Nord", "brand:wikidata": "Q41171373"}},
{"type": "Feature", "id": "DO_wW_hlg_fpbwcsx1RbSASJ4i4=", "properties": {"ref": "wendorfsvej-2", "@spider": "aldi_nord_dk", "addr:full": "Wendorfsvej 2", "addr:city": "Fredensborg", "addr:postcode": "3480", "addr:country": "dk", "name": "ALDI Fredensborg - Wendorfsvej", "website": "https://www.aldi.dk/find-butik/hovedstaden/fredensborg/wendorfsvej-2.html", "brand": "ALDI Nord", "brand:wikidata": "Q41171373"}},
{"type": "Feature", "id": "Frrp62X5Wo1P089K8y3wXX1g8nQ=", "properties": {"ref": "birkerod-kongevej-102", "@spider": "aldi_nord_dk", "addr:full": "Birker\u00f8d Kongevej 102", "addr:city": "Birker\u00f8d", "addr:postcode": "3460", "addr:country": "dk", "name": "ALDI Birker\u00f8d - Birker\u00f8d Kongevej", "website": "https://www.aldi.dk/find-butik/hovedstaden/birkerod/birkerod-kongevej-102.html", "brand": "ALDI Nord", "brand:wikidata": "Q41171373"}},
{"type": "Feature", "id": "2USncqSPzaCvFH5ynTMdjSc4H1I=", "properties": {"ref": "turpinssvinget-5", "@spider": "aldi_nord_dk", "addr:full": "Turpinssvinget 5", "addr:city": "Br\u00f8ndby", "addr:postcode": "2605", "addr:country": "dk", "name": "ALDI Br\u00f8ndby - Turpinssvinget", "website": "https://www.aldi.dk/find-butik/hovedstaden/brondby/turpinssvinget-5.html", "brand": "ALDI Nord", "brand:wikidata": "Q41171373"}},
{"type": "Feature", "id": "FogicJBIlzI08g2C3h9Xf-WETJQ=", "properties": {"ref": "bjarkesvej-1", "@spider": "aldi_nord_dk", "addr:full": "Bjarkesvej 1", "addr:city": "Aller\u00f8d", "addr:postcode": "3450", "addr:country": "dk", "name": "ALDI Aller\u00f8d - Bjarkesvej", "website": "https://www.aldi.dk/find-butik/hovedstaden/allerod/bjarkesvej-1.html", "brand": "ALDI Nord", "brand:wikidata": "Q41171373"}},
{"type": "Feature", "id": "VmpxN5OEhkE-VEqZ-8vriuWsnfI=", "properties": {"ref": "baltorpvej-22", "@spider": "aldi_nord_dk", "addr:full": "Baltorpvej 22", "addr:city": "Ballerup", "addr:postcode": "2750", "addr:country": "dk", "name": "ALDI Ballerup - Baltorpvej", "website": "https://www.aldi.dk/find-butik/hovedstaden/ballerup/baltorpvej-22.html", "brand": "ALDI Nord", "brand:wikidata": "Q41171373"}},
{"type": "Feature", "id": "rQw3wWvbVQ4We49mTtSvNxCcuKM=", "properties": {"ref": "nygards-plads-1e", "@spider": "aldi_nord_dk", "addr:full": "Nyg\u00e5rds Plads 1E", "addr:city": "Br\u00f8ndby", "addr:postcode": "2605", "addr:country": "dk", "name": "ALDI Br\u00f8ndby - Nyg\u00e5rds Plads", "website": "https://www.aldi.dk/find-butik/hovedstaden/brondby/nygards-plads-1e.html", "brand": "ALDI Nord", "brand:wikidata": "Q41171373"}},
{"type": "Feature", "id": "OWyJrZ2UFv84EWfVVLlpiguivJY=", "properties": {"ref": "roskildevej-46", "@spider": "aldi_nord_dk", "addr:full": "Roskildevej 46", "addr:city": "Frederiksberg", "addr:postcode": "2000", "addr:country": "dk", "name": "ALDI Frederiksberg - Roskildevej", "website": "https://www.aldi.dk/find-butik/hovedstaden/frederiksberg/roskildevej-46.html", "brand": "ALDI Nord", "brand:wikidata": "Q41171373"}},
{"type": "Feature", "id": "_6AekvTI0qlpWs0Gnp3GjYNGMa0=", "properties": {"ref": "borups-alle-113", "@spider": "aldi_nord_dk", "addr:full": "Borups All\u00e9 113", "addr:city": "Frederiksberg", "addr:postcode": "2000", "addr:country": "dk", "name": "ALDI Frederiksberg - Borups All\u00e9", "website": "https://www.aldi.dk/find-butik/hovedstaden/frederiksberg/borups-alle-113.html", "brand": "ALDI Nord", "brand:wikidata": "Q41171373"}},
{"type": "Feature", "id": "Tz36PGeIqyOmbIIh2hXzEZygCUg=", "properties": {"ref": "stenmarksvej-1", "@spider": "aldi_nord_dk", "addr:full": "Stenmarksvej 1", "addr:city": "Blokhus", "addr:postcode": "9492", "addr:country": "dk", "name": "ALDI Blokhus - Stenmarksvej", "website": "https://www.aldi.dk/find-butik/nordjylland/blokhus/stenmarksvej-1.html", "brand": "ALDI Nord", "brand:wikidata": "Q41171373"}},
{"type": "Feature", "id": "RYSTVHxyQWd0ysq1BeTaRWs2gFE=", "properties": {"ref": "dannebrogsgade-58-1", "@spider": "aldi_nord_dk", "addr:full": "Dannebrogsgade 58 1", "addr:city": "Aalborg", "addr:postcode": "9000", "addr:country": "dk", "name": "ALDI Aalborg - Dannebrogsgade 58", "website": "https://www.aldi.dk/find-butik/nordjylland/aalborg/dannebrogsgade-58-1.html", "brand": "ALDI Nord", "brand:wikidata": "Q41171373"}},
{"type": "Feature", "id": "D3FsxelKOm0XQix7eb4Yasj_r1Y=", "properties": {"ref": "odinsgade-7", "@spider": "aldi_nord_dk", "addr:full": "Odinsgade 7", "addr:city": "Aalborg", "addr:postcode": "9000", "addr:country": "dk", "name": "ALDI Aalborg - Odinsgade", "website": "https://www.aldi.dk/find-butik/nordjylland/aalborg/odinsgade-7.html", "brand": "ALDI Nord", "brand:wikidata": "Q41171373"}},
{"type": "Feature", "id": "Em5gU9ITvIRWhNmumkqCBqY0vNg=", "properties": {"ref": "vestergade-52", "@spider": "aldi_nord_dk", "addr:full": "Vestergade 52", "addr:city": "T\u00f8ll\u00f8se", "addr:postcode": "4340", "addr:country": "dk", "name": "ALDI T\u00f8ll\u00f8se - Vestergade", "website": "https://www.aldi.dk/find-butik/sjaelland-og-oer/tollose/vestergade-52.html", "brand": "ALDI Nord", "brand:wikidata": "Q41171373"}},
{"type": "Feature", "id": "-jFcJ7526OBeHvz1-j00R1evsY0=", "properties": {"ref": "gammelmosevej-328", "@spider": "aldi_nord_dk", "addr:full": "Gammelmosevej 328", "addr:city": "Bagsv\u00e6rd", "addr:postcode": "2880", "addr:country": "dk", "name": "ALDI Bagsv\u00e6rd - Gammelmosevej", "website": "https://www.aldi.dk/find-butik/hovedstaden/bagsvaerd/gammelmosevej-328.html", "brand": "ALDI Nord", "brand:wikidata": "Q41171373"}},
{"type": "Feature", "id": "8A_tvTaD7ZdKo0olaCHkXzW98nw=", "properties": {"ref": "prins-jorgens-alle-2", "@spider": "aldi_nord_dk", "addr:full": "Prins J\u00f8rgens All\u00e9 2", "addr:city": "Vordingborg", "addr:postcode": "4760", "addr:country": "dk", "name": "ALDI Vordingborg - Prins J\u00f8rgens All\u00e9", "website": "https://www.aldi.dk/find-butik/sjaelland-og-oer/vordingborg/prins-jorgens-alle-2.html", "brand": "ALDI Nord", "brand:wikidata": "Q41171373"}},
{"type": "Feature", "id": "9vp-A-gCLXvykiQsRslVq4QwPyU=", "properties": {"ref": "torvesvinget-3", "@spider": "aldi_nord_dk", "addr:full": "Torvesvinget 3", "addr:city": "Vig", "addr:postcode": "4560", "addr:country": "dk", "name": "ALDI Vig - Torvesvinget", "website": "https://www.aldi.dk/find-butik/sjaelland-og-oer/vig/torvesvinget-3.html", "brand": "ALDI Nord", "brand:wikidata": "Q41171373"}},
{"type": "Feature", "id": "SD-L5Rn0zN78Q9XD_gan1AWov48=", "properties": {"ref": "hovedgaden-12", "@spider": "aldi_nord_dk", "addr:full": "Hovedgaden 12", "addr:city": "Svinninge", "addr:postcode": "4520", "addr:country": "dk", "name": "ALDI Svinninge - Hovedgaden", "website": "https://www.aldi.dk/find-butik/sjaelland-og-oer/svinninge/hovedgaden-12.html", "brand": "ALDI Nord", "brand:wikidata": "Q41171373"}},
{"type": "Feature", "id": "5x6MFrniveVfWHwwl2E6Y-R3H_g=", "properties": {"ref": "bisgaardsvej-8", "@spider": "aldi_nord_dk", "addr:full": "Bisgaardsvej 8", "addr:city": "Aalborg SV", "addr:postcode": "9200", "addr:country": "dk", "name": "ALDI Aalborg SV - Bisgaardsvej", "website": "https://www.aldi.dk/find-butik/nordjylland/aalborg-sv/bisgaardsvej-8.html", "brand": "ALDI Nord", "brand:wikidata": "Q41171373"}},
{"type": "Feature", "id": "ljozkrhasxTgD8EJD6o3--Wyers=", "properties": {"ref": "stovby-ringvej-5", "@spider": "aldi_nord_dk", "addr:full": "Stovby Ringvej 5", "addr:city": "V\u00e6ggerl\u00f8se", "addr:postcode": "4873", "addr:country": "dk", "name": "ALDI V\u00e6ggerl\u00f8se - Stovby Ringvej", "website": "https://www.aldi.dk/find-butik/sjaelland-og-oer/vaeggerlose/stovby-ringvej-5.html", "brand": "ALDI Nord", "brand:wikidata": "Q41171373"}},
{"type": "Feature", "id": "SoOtQ-KqHPrWBGOf1s-sfusl1zo=", "properties": {"ref": "sondergade-31a", "@spider": "aldi_nord_dk", "addr:full": "S\u00f8ndergade 31A", "addr:city": "Aars", "addr:postcode": "9600", "addr:country": "dk", "name": "ALDI Aars - S\u00f8ndergade", "website": "https://www.aldi.dk/find-butik/nordjylland/aars/sondergade-31a.html", "brand": "ALDI Nord", "brand:wikidata": "Q41171373"}},
{"type": "Feature", "id": "QB0p2ejJ7tG6pw-98j0QEJl_S6Y=", "properties": {"ref": "jersie-center-2", "@spider": "aldi_nord_dk", "addr:full": "Jersie Center 2", "addr:city": "Solr\u00f8d", "addr:postcode": "2680", "addr:country": "dk", "name": "ALDI Solr\u00f8d - Jersie Center", "website": "https://www.aldi.dk/find-butik/sjaelland-og-oer/solrod/jersie-center-2.html", "brand": "ALDI Nord", "brand:wikidata": "Q41171373"}},
{"type": "Feature", "id": "3tONCkNNaNtqqdYGBniZx0r1GLk=", "properties": {"ref": "nykobingvej-42", "@spider": "aldi_nord_dk", "addr:full": "Nyk\u00f8bingvej 42", "addr:city": "Stubbek\u00f8bing", "addr:postcode": "4850", "addr:country": "dk", "name": "ALDI Stubbek\u00f8bing - Nyk\u00f8bingvej", "website": "https://www.aldi.dk/find-butik/sjaelland-og-oer/stubbekobing/nykobingvej-42.html", "brand": "ALDI Nord", "brand:wikidata": "Q41171373"}},
{"type": "Feature", "id": "o8fzt1IeRYAmZs7FNIzDitRi6wA=", "properties": {"ref": "rengegade-31", "@spider": "aldi_nord_dk", "addr:full": "Rengegade 31", "addr:city": "Store Heddinge", "addr:postcode": "4660", "addr:country": "dk", "name": "ALDI Store Heddinge - Rengegade", "website": "https://www.aldi.dk/find-butik/sjaelland-og-oer/store-heddinge/rengegade-31.html", "brand": "ALDI Nord", "brand:wikidata": "Q41171373"}},
{"type": "Feature", "id": "uYeT1eaGpclx3OSPXj5DJ_qB6A0=", "properties": {"ref": "vasen-2", "@spider": "aldi_nord_dk", "addr:full": "Vasen 2", "addr:city": "Stege", "addr:postcode": "4780", "addr:country": "dk", "name": "ALDI Stege - Vasen 2", "website": "https://www.aldi.dk/find-butik/sjaelland-og-oer/stege/vasen-2.html", "brand": "ALDI Nord", "brand:wikidata": "Q41171373"}},
{"type": "Feature", "id": "sOuo2H2xGwJkbkXn1gw61CJ1x48=", "properties": {"ref": "askovvej-2a", "@spider": "aldi_nord_dk", "addr:full": "Askovvej 2A", "addr:city": "Vejen", "addr:postcode": "6600", "addr:country": "dk", "name": "ALDI Vejen - Askovvej 2A", "website": "https://www.aldi.dk/find-butik/syd-og-sonderjylland/vejen/askovvej-2a.html", "brand": "ALDI Nord", "brand:wikidata": "Q41171373"}},
{"type": "Feature", "id": "oR9IpkvHlXgh3k89qqwMtkcJHXQ=", "properties": {"ref": "holberg-arkaden-4", "@spider": "aldi_nord_dk", "addr:full": "Holberg Arkaden 4", "addr:city": "Sor\u00f8", "addr:postcode": "4180", "addr:country": "dk", "name": "ALDI Sor\u00f8 - Holberg Arkaden", "website": "https://www.aldi.dk/find-butik/sjaelland-og-oer/soro/holberg-arkaden-4.html", "brand": "ALDI Nord", "brand:wikidata": "Q41171373"}},
{"type": "Feature", "id": "8h_itZbuX0t18FqsELRdQM8QJyQ=", "properties": {"ref": "bakkenborgvej-2-b", "@spider": "aldi_nord_dk", "addr:full": "Bakkenborgvej 2 B", "addr:city": "Sk\u00e6lsk\u00f8r", "addr:postcode": "4230", "addr:country": "dk", "name": "ALDI Sk\u00e6lsk\u00f8r - Bakkenborgvej", "website": "https://www.aldi.dk/find-butik/sjaelland-og-oer/skaelskor/bakkenborgvej-2-b.html", "brand": "ALDI Nord", "brand:wikidata": "Q41171373"}},
{"type": "Feature", "id": "N8JaOdKPcTG_obYqDqkbVHCNtec=", "properties": {"ref": "kongevej-1", "@spider": "aldi_nord_dk", "addr:full": "Kongevej 1", "addr:city": "T\u00f8nder", "addr:postcode": "6270", "addr:country": "dk", "name": "ALDI T\u00f8nder - Kongevej 1", "website": "https://www.aldi.dk/find-butik/syd-og-sonderjylland/tonder/kongevej-1.html", "brand": "ALDI Nord", "brand:wikidata": "Q41171373"}},
{"type": "Feature", "id": "oS22WQViNDjuVulzk6szGkn05Go=", "properties": {"ref": "ndr-ringgade-24", "@spider": "aldi_nord_dk", "addr:full": "Ndr. Ringgade 24", "addr:city": "Slagelse", "addr:postcode": "4200", "addr:country": "dk", "name": "ALDI Slagelse - Ndr. Ringgade", "website": "https://www.aldi.dk/find-butik/sjaelland-og-oer/slagelse/ndr-ringgade-24.html", "brand": "ALDI Nord", "brand:wikidata": "Q41171373"}},
{"type": "Feature", "id": "MA2FOeC030drF9iWgtuFvcWqQZU=", "properties": {"ref": "idagardsvej-7", "@spider": "aldi_nord_dk", "addr:full": "Idag\u00e5rdsvej 7", "addr:city": "Slagelse", "addr:postcode": "4200", "addr:country": "dk", "name": "ALDI Slagelse - Idag\u00e5rdsvej", "website": "https://www.aldi.dk/find-butik/sjaelland-og-oer/slagelse/idagardsvej-7.html", "brand": "ALDI Nord", "brand:wikidata": "Q41171373"}},
{"type": "Feature", "id": "O_FQU9VJbDf15I3OGbFCo3QATvc=", "properties": {"ref": "ostergade-51", "@spider": "aldi_nord_dk", "addr:full": "\u00d8stergade 51", "addr:city": "R\u00f8dekro", "addr:postcode": "6230", "addr:country": "dk", "name": "ALDI R\u00f8dekro - \u00d8stergade", "website": "https://www.aldi.dk/find-butik/syd-og-sonderjylland/rodekro/ostergade-51.html", "brand": "ALDI Nord", "brand:wikidata": "Q41171373"}},
{"type": "Feature", "id": "cBuxctAcQsTP3YucjhusUOF9Ios=", "properties": {"ref": "hovedgaden-102", "@spider": "aldi_nord_dk", "addr:full": "Hovedgaden 102", "addr:city": "Tinglev", "addr:postcode": "6360", "addr:country": "dk", "name": "ALDI Tinglev - Hovedgaden 102", "website": "https://www.aldi.dk/find-butik/syd-og-sonderjylland/tinglev/hovedgaden-102.html", "brand": "ALDI Nord", "brand:wikidata": "Q41171373"}},
{"type": "Feature", "id": "Fq9XdBaV_uPCk-5Wh8d--QRMOOs=", "properties": {"ref": "grundtvigs-plads-6", "@spider": "aldi_nord_dk", "addr:full": "Grundtvigs Plads 6", "addr:city": "S\u00f8nderborg", "addr:postcode": "6400", "addr:country": "dk", "name": "ALDI S\u00f8nderborg - Grundtvigs Plads", "website": "https://www.aldi.dk/find-butik/syd-og-sonderjylland/sonderborg/grundtvigs-plads-6.html", "brand": "ALDI Nord", "brand:wikidata": "Q41171373"}},
{"type": "Feature", "id": "liiLDrQpr8UXTdWbS42bdmsrSTg=", "properties": {"ref": "ostergade-1", "@spider": "aldi_nord_dk", "addr:full": "\u00d8stergade 1", "addr:city": "Toftlund", "addr:postcode": "6520", "addr:country": "dk", "name": "ALDI Toftlund - \u00d8stergade  1", "website": "https://www.aldi.dk/find-butik/syd-og-sonderjylland/toftlund/ostergade-1.html", "brand": "ALDI Nord", "brand:wikidata": "Q41171373"}},
{"type": "Feature", "id": "_4I-nKrYjCmpCKWTsg9jiMEmX4A=", "properties": {"ref": "mosevej-20", "@spider": "aldi_nord_dk", "addr:full": "Mosevej 20", "addr:city": "Ribe", "addr:postcode": "6760", "addr:country": "dk", "name": "ALDI Ribe - Mosevej 20", "website": "https://www.aldi.dk/find-butik/syd-og-sonderjylland/ribe/mosevej-20.html", "brand": "ALDI Nord", "brand:wikidata": "Q41171373"}},
{"type": "Feature", "id": "uNF87YL7MUw2zImL6Jw97LOIKzw=", "properties": {"ref": "vestergade-2", "@spider": "aldi_nord_dk", "addr:full": "Vestergade 2", "addr:city": "Aabybro", "addr:postcode": "9440", "addr:country": "dk", "name": "ALDI Aabybro - Vestergade 2", "website": "https://www.aldi.dk/find-butik/nordjylland/aabybro/vestergade-2.html", "brand": "ALDI Nord", "brand:wikidata": "Q41171373"}},
{"type": "Feature", "id": "PDZz21zPhFCIwGv5ATVQKI5TGRw=", "properties": {"ref": "nykobingvej-45", "@spider": "aldi_nord_dk", "addr:full": "Nyk\u00f8bingvej 45", "addr:city": "Saksk\u00f8bing", "addr:postcode": "4990", "addr:country": "dk", "name": "ALDI Saksk\u00f8bing - Nyk\u00f8bingvej", "website": "https://www.aldi.dk/find-butik/sjaelland-og-oer/sakskobing/nykobingvej-45.html", "brand": "ALDI Nord", "brand:wikidata": "Q41171373"}},
{"type": "Feature", "id": "GrRbVYXJA6_9BZoyNqHh8kD5yMo=", "properties": {"ref": "stationstorvet-3-9", "@spider": "aldi_nord_dk", "addr:full": "Stationstorvet 3-9", "addr:city": "Albertslund", "addr:postcode": "2620", "addr:country": "dk", "name": "ALDI Albertslund - Stationstorvet", "website": "https://www.aldi.dk/find-butik/hovedstaden/albertslund/stationstorvet-3-9.html", "brand": "ALDI Nord", "brand:wikidata": "Q41171373"}},
{"type": "Feature", "id": "RnKSUpFoHqra4N0WRhfXSSDhvCY=", "properties": {"ref": "egelundsvej-1", "@spider": "aldi_nord_dk", "addr:full": "Egelundsvej 1", "addr:city": "Albertslund", "addr:postcode": "2620", "addr:country": "dk", "name": "ALDI Albertslund - Egelundsvej", "website": "https://www.aldi.dk/find-butik/hovedstaden/albertslund/egelundsvej-1.html", "brand": "ALDI Nord", "brand:wikidata": "Q41171373"}},
{"type": "Feature", "id": "qjKinzpAnoSjzPRlHSmHfTtDjqo=", "properties": {"ref": "ostergade-58", "@spider": "aldi_nord_dk", "addr:full": "\u00d8stergade 58", "addr:city": "R\u00f8dby", "addr:postcode": "4970", "addr:country": "dk", "name": "ALDI R\u00f8dby - \u00d8stergade", "website": "https://www.aldi.dk/find-butik/sjaelland-og-oer/rodby/ostergade-58.html", "brand": "ALDI Nord", "brand:wikidata": "Q41171373"}},
{"type": "Feature", "id": "hbtPtKUixX45PB7zIImnmuBL2SQ=", "properties": {"ref": "sdr-ringvej-24-a", "@spider": "aldi_nord_dk", "addr:full": "Sdr. Ringvej 24 A", "addr:city": "Roskilde", "addr:postcode": "4000", "addr:country": "dk", "name": "ALDI Roskilde - Sdr. Ringvej", "website": "https://www.aldi.dk/find-butik/sjaelland-og-oer/roskilde/sdr-ringvej-24-a.html", "brand": "ALDI Nord", "brand:wikidata": "Q41171373"}},
{"type": "Feature", "id": "q6a9RXYCOu7QWrkwQCUr54XZzpo=", "properties": {"ref": "ved-asen-2", "@spider": "aldi_nord_dk", "addr:full": "Ved \u00c5sen 2", "addr:city": "N\u00e6stved", "addr:postcode": "4700", "addr:country": "dk", "name": "ALDI N\u00e6stved - Ved \u00c5sen", "website": "https://www.aldi.dk/find-butik/sjaelland-og-oer/naestved/ved-asen-2.html", "brand": "ALDI Nord", "brand:wikidata": "Q41171373"}},
{"type": "Feature", "id": "bwi8GumASUcE9wd_aCSMjKP28Vk=", "properties": {"ref": "havnbjerg-centret-17", "@spider": "aldi_nord_dk", "addr:full": "Havnbjerg Centret 17", "addr:city": "Nordborg", "addr:postcode": "6430", "addr:country": "dk", "name": "ALDI Nordborg - Havnbjerg Centret 17", "website": "https://www.aldi.dk/find-butik/syd-og-sonderjylland/nordborg/havnbjerg-centret-17.html", "brand": "ALDI Nord", "brand:wikidata": "Q41171373"}},
{"type": "Feature", "id": "Z5rDsqV79XtKI7Ci3kJEY4lTFHE=", "properties": {"ref": "apotekergade-2", "@spider": "aldi_nord_dk", "addr:full": "Apotekergade 2", "addr:city": "N\u00f8rre Alslev", "addr:postcode": "4840", "addr:country": "dk", "name": "ALDI N\u00f8rre Alslev - Apotekergade", "website": "https://www.aldi.dk/find-butik/sjaelland-og-oer/norre-alslev/apotekergade-2.html", "brand": "ALDI Nord", "brand:wikidata": "Q41171373"}},
{"type": "Feature", "id": "Y1nYC5J3vT7qXLFLDakrGI5MwpM=", "properties": {"ref": "snerlevej-2", "@spider": "aldi_nord_dk", "addr:full": "Snerlevej 2", "addr:city": "N\u00e6stved", "addr:postcode": "4700", "addr:country": "dk", "name": "ALDI N\u00e6stved - Snerlevej", "website": "https://www.aldi.dk/find-butik/sjaelland-og-oer/naestved/snerlevej-2.html", "brand": "ALDI Nord", "brand:wikidata": "Q41171373"}},
{"type": "Feature", "id": "cKI_KPDpiDbtpEn93b-Q7oYtrao=", "properties": {"ref": "lyshoj-alle-6", "@spider": "aldi_nord_dk", "addr:full": "Lysh\u00f8j All\u00e9 6", "addr:city": "Kolding", "addr:postcode": "6000", "addr:country": "dk", "name": "ALDI Kolding - Lysh\u00f8j All\u00e9 6", "website": "https://www.aldi.dk/find-butik/syd-og-sonderjylland/kolding/lyshoj-alle-6.html", "brand": "ALDI Nord", "brand:wikidata": "Q41171373"}},
{"type": "Feature", "id": "PGSoJm7rRth1R8SS96tg_Uv9Kfo=", "properties": {"ref": "hjortsvangen-29", "@spider": "aldi_nord_dk", "addr:full": "Hjortsvangen 29", "addr:city": "Give", "addr:postcode": "7323", "addr:country": "dk", "name": "ALDI Give - Hjortsvangen 29", "website": "https://www.aldi.dk/find-butik/syd-og-sonderjylland/give/hjortsvangen-29.html", "brand": "ALDI Nord", "brand:wikidata": "Q41171373"}},
{"type": "Feature", "id": "XyHtbpCn_mewG1fjsCcs2ACzemg=", "properties": {"ref": "haderslevvej-98-100", "@spider": "aldi_nord_dk", "addr:full": "Haderslevvej 98-100", "addr:city": "Kolding", "addr:postcode": "6000", "addr:country": "dk", "name": "ALDI Kolding - Haderslevvej 98-100", "website": "https://www.aldi.dk/find-butik/syd-og-sonderjylland/kolding/haderslevvej-98-100.html", "brand": "ALDI Nord", "brand:wikidata": "Q41171373"}},
{"type": "Feature", "id": "t06zQZVJqPQ09KjhVn4BFWJVZms=", "properties": {"ref": "jernbanegade-1", "@spider": "aldi_nord_dk", "addr:full": "Jernbanegade 1", "addr:city": "Gr\u00e5sten", "addr:postcode": "6300", "addr:country": "dk", "name": "ALDI Gr\u00e5sten - Jernbanegade 1", "website": "https://www.aldi.dk/find-butik/syd-og-sonderjylland/grasten/jernbanegade-1.html", "brand": "ALDI Nord", "brand:wikidata": "Q41171373"}},
{"type": "Feature", "id": "fM5QnTEWfILn50jYrgUJBKkOKhU=", "properties": {"ref": "vestre-boulevard-3-b", "@spider": "aldi_nord_dk", "addr:full": "Vestre Boulevard 3 B", "addr:city": "Grindsted", "addr:postcode": "7200", "addr:country": "dk", "name": "ALDI Grindsted - Vestre Boulevard 3 B", "website": "https://www.aldi.dk/find-butik/syd-og-sonderjylland/grindsted/vestre-boulevard-3-b.html", "brand": "ALDI Nord", "brand:wikidata": "Q41171373"}},
{"type": "Feature", "id": "Xu-djiCn2MxXv_V5HbxBFrIYL0Q=", "properties": {"ref": "strevelinsvej-3", "@spider": "aldi_nord_dk", "addr:full": "Strevelinsvej 3", "addr:city": "Fredericia", "addr:postcode": "7000", "addr:country": "dk", "name": "ALDI Fredericia - Strevelinsvej", "website": "https://www.aldi.dk/find-butik/syd-og-sonderjylland/fredericia/strevelinsvej-3.html", "brand": "ALDI Nord", "brand:wikidata": "Q41171373"}},
{"type": "Feature", "id": "caoTNSxFVesWcLcCU5n4H1JmNjM=", "properties": {"ref": "tarphagevej-11", "@spider": "aldi_nord_dk", "addr:full": "Tarphagevej 11", "addr:city": "Esbjerg V", "addr:postcode": "6710", "addr:country": "dk", "name": "ALDI Esbjerg V - Tarphagevej 11", "website": "https://www.aldi.dk/find-butik/syd-og-sonderjylland/esbjerg-v/tarphagevej-11.html", "brand": "ALDI Nord", "brand:wikidata": "Q41171373"}},
{"type": "Feature", "id": "P9tBr72vu3Fy21cz6cP_5vdAbRA=", "properties": {"ref": "ostervangsvej-1b", "@spider": "aldi_nord_dk", "addr:full": "\u00d8stervangsvej 1B", "addr:city": "Esbjerg N", "addr:postcode": "6715", "addr:country": "dk", "name": "ALDI Esbjerg N - \u00d8stervangsvej 1B", "website": "https://www.aldi.dk/find-butik/syd-og-sonderjylland/esbjerg-n/ostervangsvej-1b.html", "brand": "ALDI Nord", "brand:wikidata": "Q41171373"}},
{"type": "Feature", "id": "4G_dfgfNYtpYzVBkw6vXr8GBtVs=", "properties": {"ref": "vejlevej-32", "@spider": "aldi_nord_dk", "addr:full": "Vejlevej 32", "addr:city": "Fredericia", "addr:postcode": "7000", "addr:country": "dk", "name": "ALDI Fredericia - Vejlevej 32", "website": "https://www.aldi.dk/find-butik/syd-og-sonderjylland/fredericia/vejlevej-32.html", "brand": "ALDI Nord", "brand:wikidata": "Q41171373"}},
{"type": "Feature", "id": "ODMmHVmwltPPZLWsNaFi84thq4A=", "properties": {"ref": "treldevej-86", "@spider": "aldi_nord_dk", "addr:full": "Treldevej 86", "addr:city": "Fredericia", "addr:postcode": "7000", "addr:country": "dk", "name": "ALDI Fredericia - Treldevej 86", "website": "https://www.aldi.dk/find-butik/syd-og-sonderjylland/fredericia/treldevej-86.html", "brand": "ALDI Nord", "brand:wikidata": "Q41171373"}},
{"type": "Feature", "id": "mNUYUf64gVXGrTcex6cIf2-DGPk=", "properties": {"ref": "strandby-kirkevej-88", "@spider": "aldi_nord_dk", "addr:full": "Strandby Kirkevej 88", "addr:city": "Esbjerg \u00d8", "addr:postcode": "6705", "addr:country": "dk", "name": "ALDI Esbjerg \u00d8 - Strandby Kirkevej", "website": "https://www.aldi.dk/find-butik/syd-og-sonderjylland/esbjerg-o/strandby-kirkevej-88.html", "brand": "ALDI Nord", "brand:wikidata": "Q41171373"}},
{"type": "Feature", "id": "ibD-PrgnF75seevZibubSFs5Xn8=", "properties": {"ref": "vestervangsvej-12", "@spider": "aldi_nord_dk", "addr:full": "Vestervangsvej 12", "addr:city": "Viborg", "addr:postcode": "8800", "addr:country": "dk", "name": "ALDI Viborg - Vestervangsvej", "website": "https://www.aldi.dk/find-butik/midtjylland/viborg/vestervangsvej-12.html", "brand": "ALDI Nord", "brand:wikidata": "Q41171373"}},
{"type": "Feature", "id": "REqUSRMg52PithjIH1JSJt2K86A=", "properties": {"ref": "norregade-77", "@spider": "aldi_nord_dk", "addr:full": "N\u00f8rregade 77", "addr:city": "Br\u00f8rup", "addr:postcode": "6650", "addr:country": "dk", "name": "ALDI Br\u00f8rup - N\u00f8rregade 77", "website": "https://www.aldi.dk/find-butik/syd-og-sonderjylland/brorup/norregade-77.html", "brand": "ALDI Nord", "brand:wikidata": "Q41171373"}},
{"type": "Feature", "id": "ISjzg6LbSIun9Uphyv5z5RVHUow=", "properties": {"ref": "erlev-bjerge-60", "@spider": "aldi_nord_dk", "addr:full": "Erlev Bjerge 60", "addr:city": "Haderslev", "addr:postcode": "6100", "addr:country": "dk", "name": "ALDI Haderslev - Erlev Bjerge", "website": "https://www.aldi.dk/find-butik/syd-og-sonderjylland/haderslev/erlev-bjerge-60.html", "brand": "ALDI Nord", "brand:wikidata": "Q41171373"}},
{"type": "Feature", "id": "ifImCY3FkTL0IGhuow5DaFxpUd0=", "properties": {"ref": "nordbyvej-4", "@spider": "aldi_nord_dk", "addr:full": "Nordbyvej 4", "addr:city": "Viby", "addr:postcode": "8260", "addr:country": "dk", "name": "ALDI Viby - Nordbyvej", "website": "https://www.aldi.dk/find-butik/midtjylland/viby/nordbyvej-4.html", "brand": "ALDI Nord", "brand:wikidata": "Q41171373"}},
{"type": "Feature", "id": "eQ2pb5-t1mQtu2zOL9u7ZIunWPg=", "properties": {"ref": "storegade-53", "@spider": "aldi_nord_dk", "addr:full": "Storegade 53", "addr:city": "Bramming", "addr:postcode": "6740", "addr:country": "dk", "name": "ALDI Bramming - Storegade 53", "website": "https://www.aldi.dk/find-butik/syd-og-sonderjylland/bramming/storegade-53.html", "brand": "ALDI Nord", "brand:wikidata": "Q41171373"}},
{"type": "Feature", "id": "L75IdTCwsQcFgc3Erqdc8SqUrb0=", "properties": {"ref": "laurids-skaus-gade-19", "@spider": "aldi_nord_dk", "addr:full": "Laurids Skaus Gade 19", "addr:city": "Haderslev", "addr:postcode": "6100", "addr:country": "dk", "name": "ALDI Haderslev - Laurids Skaus Gade", "website": "https://www.aldi.dk/find-butik/syd-og-sonderjylland/haderslev/laurids-skaus-gade-19.html", "brand": "ALDI Nord", "brand:wikidata": "Q41171373"}},
{"type": "Feature", "id": "gctT4G1ve_Gt7QcP71pPUYPXMDI=", "properties": {"ref": "kogevej-38", "@spider": "aldi_nord_dk", "addr:full": "K\u00f8gevej 38", "addr:city": "Ringsted", "addr:postcode": "4100", "addr:country": "dk", "name": "ALDI Ringsted - K\u00f8gevej", "website": "https://www.aldi.dk/find-butik/sjaelland-og-oer/ringsted/kogevej-38.html", "brand": "ALDI Nord", "brand:wikidata": "Q41171373"}},
{"type": "Feature", "id": "9qYejlIs7OYDMMrfEW9Z5o3DzrU=", "properties": {"ref": "vesterbro-63", "@spider": "aldi_nord_dk", "addr:full": "Vesterbro 63", "addr:city": "Pr\u00e6st\u00f8", "addr:postcode": "4720", "addr:country": "dk", "name": "ALDI Pr\u00e6st\u00f8 - Vesterbro", "website": "https://www.aldi.dk/find-butik/sjaelland-og-oer/praesto/vesterbro-63.html", "brand": "ALDI Nord", "brand:wikidata": "Q41171373"}},
{"type": "Feature", "id": "r9dn3Qk7tn67ynheD40VknJV6S8=", "properties": {"ref": "lojtoftevej-4", "@spider": "aldi_nord_dk", "addr:full": "L\u00f8jtoftevej 4", "addr:city": "Nakskov", "addr:postcode": "4900", "addr:country": "dk", "name": "ALDI Nakskov - L\u00f8jtoftevej", "website": "https://www.aldi.dk/find-butik/sjaelland-og-oer/nakskov/lojtoftevej-4.html", "brand": "ALDI Nord", "brand:wikidata": "Q41171373"}},
{"type": "Feature", "id": "Dndat_Ba_3wu3ZUpzv4PhgIfMvE=", "properties": {"ref": "holstebrovej-21-25", "@spider": "aldi_nord_dk", "addr:full": "Holstebrovej 21-25", "addr:city": "Struer", "addr:postcode": "7600", "addr:country": "dk", "name": "ALDI Struer - Holstebrovej", "website": "https://www.aldi.dk/find-butik/midtjylland/struer/holstebrovej-21-25.html", "brand": "ALDI Nord", "brand:wikidata": "Q41171373"}},
{"type": "Feature", "id": "Tf3bDI8FiVvZaJmS6qJfuTPcy48=", "properties": {"ref": "bredgade-132a", "@spider": "aldi_nord_dk", "addr:full": "Bredgade 132A", "addr:city": "Skjern", "addr:postcode": "6900", "addr:country": "dk", "name": "ALDI Skjern - Bredgade", "website": "https://www.aldi.dk/find-butik/midtjylland/skjern/bredgade-132a.html", "brand": "ALDI Nord", "brand:wikidata": "Q41171373"}},
{"type": "Feature", "id": "Sm_yOfLJalE4_3dLSMArTCGBq7Q=", "properties": {"ref": "brovejen-30", "@spider": "aldi_nord_dk", "addr:full": "Brovejen 30", "addr:city": "Maribo", "addr:postcode": "4930", "addr:country": "dk", "name": "ALDI Maribo - Brovejen", "website": "https://www.aldi.dk/find-butik/sjaelland-og-oer/maribo/brovejen-30.html", "brand": "ALDI Nord", "brand:wikidata": "Q41171373"}},
{"type": "Feature", "id": "E1EgHlv7lbx02QvM539Tr3RpjA4=", "properties": {"ref": "mollebakken-1", "@spider": "aldi_nord_dk", "addr:full": "M\u00f8llebakken 1", "addr:city": "Nyk\u00f8bing F", "addr:postcode": "4800", "addr:country": "dk", "name": "ALDI Nyk\u00f8bing F - M\u00f8llebakken", "website": "https://www.aldi.dk/find-butik/sjaelland-og-oer/nykobing-f/mollebakken-1.html", "brand": "ALDI Nord", "brand:wikidata": "Q41171373"}},
{"type": "Feature", "id": "8a7rAIudrT2lSizdd3h6ehOdsGQ=", "properties": {"ref": "tarnborgvej-22", "@spider": "aldi_nord_dk", "addr:full": "T\u00e5rnborgvej 22", "addr:city": "Kors\u00f8r", "addr:postcode": "4220", "addr:country": "dk", "name": "ALDI Kors\u00f8r - T\u00e5rnborgvej", "website": "https://www.aldi.dk/find-butik/sjaelland-og-oer/korsor/tarnborgvej-22.html", "brand": "ALDI Nord", "brand:wikidata": "Q41171373"}},
{"type": "Feature", "id": "d6jkf1lwU9mnSvVMz4BOYKCDQqA=", "properties": {"ref": "holstebrovej-76-c", "@spider": "aldi_nord_dk", "addr:full": "Holstebrovej 76 C", "addr:city": "Skive", "addr:postcode": "7800", "addr:country": "dk", "name": "ALDI Skive - Holstebrovej", "website": "https://www.aldi.dk/find-butik/midtjylland/skive/holstebrovej-76-c.html", "brand": "ALDI Nord", "brand:wikidata": "Q41171373"}},
{"type": "Feature", "id": "LhTOXXKtEGk66ZOuaBKqKKGTjFE=", "properties": {"ref": "hojvang-centret-2", "@spider": "aldi_nord_dk", "addr:full": "H\u00f8jvang Centret 2", "addr:city": "Skanderborg", "addr:postcode": "8660", "addr:country": "dk", "name": "ALDI Skanderborg - H\u00f8jvang Centret", "website": "https://www.aldi.dk/find-butik/midtjylland/skanderborg/hojvang-centret-2.html", "brand": "ALDI Nord", "brand:wikidata": "Q41171373"}},
{"type": "Feature", "id": "WLOKP1j-QTy2XE8KNd_ldlEbxX0=", "properties": {"ref": "osterbrogade-147", "@spider": "aldi_nord_dk", "addr:full": "\u00d8sterbrogade 147", "addr:city": "Nyk\u00f8bing F", "addr:postcode": "4800", "addr:country": "dk", "name": "ALDI Nyk\u00f8bing F - \u00d8sterbrogade", "website": "https://www.aldi.dk/find-butik/sjaelland-og-oer/nykobing-f/osterbrogade-147.html", "brand": "ALDI Nord", "brand:wikidata": "Q41171373"}},
{"type": "Feature", "id": "6JCkJ2D0jBKLTKn2Gr_4OFuZeiM=", "properties": {"ref": "kamma-klitgards-gade-47", "@spider": "aldi_nord_dk", "addr:full": "Kamma Klitg\u00e5rds Gade 47", "addr:city": "Risskov", "addr:postcode": "8240", "addr:country": "dk", "name": "ALDI Risskov - Kamma Klitg\u00e5rds Gade", "website": "https://www.aldi.dk/find-butik/midtjylland/risskov/kamma-klitgards-gade-47.html", "brand": "ALDI Nord", "brand:wikidata": "Q41171373"}},
{"type": "Feature", "id": "rMXysTeNIHmUo_62yPqiKyrWT5k=", "properties": {"ref": "mariagervej-78", "@spider": "aldi_nord_dk", "addr:full": "Mariagervej 78", "addr:city": "Randers NV", "addr:postcode": "8920", "addr:country": "dk", "name": "ALDI Randers NV - Mariagervej", "website": "https://www.aldi.dk/find-butik/midtjylland/randers-nv/mariagervej-78.html", "brand": "ALDI Nord", "brand:wikidata": "Q41171373"}},
{"type": "Feature", "id": "Irp3_ueUomu9HbVoq6AOCznJS9U=", "properties": {"ref": "skolevaenget-30", "@spider": "aldi_nord_dk", "addr:full": "Skolev\u00e6nget 30", "addr:city": "Ringk\u00f8bing", "addr:postcode": "6950", "addr:country": "dk", "name": "ALDI Ringk\u00f8bing - Skolev\u00e6nget", "website": "https://www.aldi.dk/find-butik/midtjylland/ringkobing/skolevaenget-30.html", "brand": "ALDI Nord", "brand:wikidata": "Q41171373"}},
{"type": "Feature", "id": "yQVQABgfPJjPbeVZ4Gi4vfEiExk=", "properties": {"ref": "banegardsgade-14", "@spider": "aldi_nord_dk", "addr:full": "Baneg\u00e5rdsgade 14", "addr:city": "Odder", "addr:postcode": "8300", "addr:country": "dk", "name": "ALDI Odder - Baneg\u00e5rdsgade", "website": "https://www.aldi.dk/find-butik/midtjylland/odder/banegardsgade-14.html", "brand": "ALDI Nord", "brand:wikidata": "Q41171373"}},
{"type": "Feature", "id": "kIMnznH0C_8Av6HCoKZzbzqpAEY=", "properties": {"ref": "sonderskovvej-4", "@spider": "aldi_nord_dk", "addr:full": "S\u00f8nderskovvej 4", "addr:city": "Lystrup", "addr:postcode": "8520", "addr:country": "dk", "name": "ALDI Lystrup - S\u00f8nderskovvej 4", "website": "https://www.aldi.dk/find-butik/midtjylland/lystrup/sonderskovvej-4.html", "brand": "ALDI Nord", "brand:wikidata": "Q41171373"}},
{"type": "Feature", "id": "MynYFJ89OXfsqJIwShL2R7UQJV0=", "properties": {"ref": "olbycenter-3", "@spider": "aldi_nord_dk", "addr:full": "\u00d8lbycenter 3", "addr:city": "K\u00f8ge", "addr:postcode": "4600", "addr:country": "dk", "name": "ALDI K\u00f8ge - \u00d8lbycenter", "website": "https://www.aldi.dk/find-butik/sjaelland-og-oer/koge/olbycenter-3.html", "brand": "ALDI Nord", "brand:wikidata": "Q41171373"}},
{"type": "Feature", "id": "NV4p9W17Xvx_WAIb8FwaEzOVuV8=", "properties": {"ref": "tondervej-5", "@spider": "aldi_nord_dk", "addr:full": "T\u00f8ndervej 5", "addr:city": "Aabenraa", "addr:postcode": "6200", "addr:country": "dk", "name": "ALDI Aabenraa - T\u00f8ndervej 5", "website": "https://www.aldi.dk/find-butik/syd-og-sonderjylland/aabenraa/tondervej-5.html", "brand": "ALDI Nord", "brand:wikidata": "Q41171373"}},
{"type": "Feature", "id": "yC3X8zq_sTFtWMsQCIy26fhYS8E=", "properties": {"ref": "viborgvej-16-a", "@spider": "aldi_nord_dk", "addr:full": "Viborgvej 16 A", "addr:city": "Silkeborg", "addr:postcode": "8600", "addr:country": "dk", "name": "ALDI Silkeborg - Viborgvej", "website": "https://www.aldi.dk/find-butik/midtjylland/silkeborg/viborgvej-16-a.html", "brand": "ALDI Nord", "brand:wikidata": "Q41171373"}},
{"type": "Feature", "id": "_z4_uO8ll6wsOTb8Xkl6CVV0eDo=", "properties": {"ref": "borgmester-n-e-hansensvej-3", "@spider": "aldi_nord_dk", "addr:full": "Borgmester N. E. Hansensvej 3", "addr:city": "Holb\u00e6k", "addr:postcode": "4300", "addr:country": "dk", "name": "ALDI Holb\u00e6k - Borgmester N. E. Hansensvej", "website": "https://www.aldi.dk/find-butik/sjaelland-og-oer/holbaek/borgmester-n-e-hansensvej-3.html", "brand": "ALDI Nord", "brand:wikidata": "Q41171373"}},
{"type": "Feature", "id": "JmhaVZLmxEOx6e9AQzFr2_llLpg=", "properties": {"ref": "skous-gade-7", "@spider": "aldi_nord_dk", "addr:full": "Skous Gade 7", "addr:city": "Lemvig", "addr:postcode": "7620", "addr:country": "dk", "name": "ALDI Lemvig - Skous Gade", "website": "https://www.aldi.dk/find-butik/midtjylland/lemvig/skous-gade-7.html", "brand": "ALDI Nord", "brand:wikidata": "Q41171373"}},
{"type": "Feature", "id": "STctX3CmmZjWqjHAtlu4Jwll-c8=", "properties": {"ref": "lerbaek-torv-2", "@spider": "aldi_nord_dk", "addr:full": "Lerb\u00e6k Torv 2", "addr:city": "K\u00f8ge", "addr:postcode": "4600", "addr:country": "dk", "name": "ALDI K\u00f8ge - Lerb\u00e6k Torv", "website": "https://www.aldi.dk/find-butik/sjaelland-og-oer/koge/lerbaek-torv-2.html", "brand": "ALDI Nord", "brand:wikidata": "Q41171373"}},
{"type": "Feature", "id": "PC0ZcXc2eveJEyFt-3GK8UBZ7R0=", "properties": {"ref": "ravnsovej-15b", "@spider": "aldi_nord_dk", "addr:full": "Ravns\u00f8vej 15B", "addr:city": "Risskov", "addr:postcode": "8240", "addr:country": "dk", "name": "ALDI Risskov - Ravns\u00f8vej", "website": "https://www.aldi.dk/find-butik/midtjylland/risskov/ravnsovej-15b.html", "brand": "ALDI Nord", "brand:wikidata": "Q41171373"}},
{"type": "Feature", "id": "FB5Zj4jvp37xW6W787_7xiDd8kk=", "properties": {"ref": "strandvejscentret-raeveholmsvej-57", "@spider": "aldi_nord_dk", "addr:full": "Strandvejscentret, R\u00e6veholmsvej 57", "addr:city": "Karlslunde", "addr:postcode": "2690", "addr:country": "dk", "name": "ALDI Karlslunde - Strandvejscentret, R\u00e6veholmsvej", "website": "https://www.aldi.dk/find-butik/sjaelland-og-oer/karlslunde/strandvejscentret-raeveholmsvej-57.html", "brand": "ALDI Nord", "brand:wikidata": "Q41171373"}},
{"type": "Feature", "id": "kw8BOl9wpazBdM6vsRw-nJdSy3k=", "properties": {"ref": "pogebanken-2", "@spider": "aldi_nord_dk", "addr:full": "Pogebanken 2", "addr:city": "Herf\u00f8lge", "addr:postcode": "4681", "addr:country": "dk", "name": "ALDI Herf\u00f8lge - Pogebanken", "website": "https://www.aldi.dk/find-butik/sjaelland-og-oer/herfolge/pogebanken-2.html", "brand": "ALDI Nord", "brand:wikidata": "Q41171373"}},
{"type": "Feature", "id": "HBkKJzgwBaSCvs0yZr6Y7McfzL8=", "properties": {"ref": "gronlandsgade-4", "@spider": "aldi_nord_dk", "addr:full": "Gr\u00f8nlandsgade 4", "addr:city": "Haslev", "addr:postcode": "4690", "addr:country": "dk", "name": "ALDI Haslev - Gr\u00f8nlandsgade", "website": "https://www.aldi.dk/find-butik/sjaelland-og-oer/haslev/gronlandsgade-4.html", "brand": "ALDI Nord", "brand:wikidata": "Q41171373"}},
{"type": "Feature", "id": "AYHmFUbc7R94jtVQzL1GV1oP5O0=", "properties": {"ref": "herningvej-52", "@spider": "aldi_nord_dk", "addr:full": "Herningvej 52", "addr:city": "Holstebro", "addr:postcode": "7500", "addr:country": "dk", "name": "ALDI Holstebro - Herningvej", "website": "https://www.aldi.dk/find-butik/midtjylland/holstebro/herningvej-52.html", "brand": "ALDI Nord", "brand:wikidata": "Q41171373"}},
{"type": "Feature", "id": "TCIcgNZyNKbxu0Ph0wHWI_ZEEQc=", "properties": {"ref": "parallelvej-65", "@spider": "aldi_nord_dk", "addr:full": "Parallelvej 65", "addr:city": "Hvide Sande", "addr:postcode": "6960", "addr:country": "dk", "name": "ALDI Hvide Sande - Parallelvej 65", "website": "https://www.aldi.dk/find-butik/midtjylland/hvide-sande/parallelvej-65.html", "brand": "ALDI Nord", "brand:wikidata": "Q41171373"}},
{"type": "Feature", "id": "jVevU61RIre-PkteH5C2435guW0=", "properties": {"ref": "over-bolgen-35", "@spider": "aldi_nord_dk", "addr:full": "Over B\u00f8lgen 35", "addr:city": "Greve Strand", "addr:postcode": "2670", "addr:country": "dk", "name": "ALDI Greve Strand - Over B\u00f8lgen", "website": "https://www.aldi.dk/find-butik/sjaelland-og-oer/greve-strand/over-bolgen-35.html", "brand": "ALDI Nord", "brand:wikidata": "Q41171373"}},
{"type": "Feature", "id": "UAlZE5WD8Tq52ASzoMLTmwQqMAU=", "properties": {"ref": "byagervej-21", "@spider": "aldi_nord_dk", "addr:full": "Byagervej 21", "addr:city": "Fuglebjerg", "addr:postcode": "4250", "addr:country": "dk", "name": "ALDI Fuglebjerg - Byagervej", "website": "https://www.aldi.dk/find-butik/sjaelland-og-oer/fuglebjerg/byagervej-21.html", "brand": "ALDI Nord", "brand:wikidata": "Q41171373"}},
{"type": "Feature", "id": "1dxlvyToWFRgMs18BwaqpT1EvEU=", "properties": {"ref": "eli-christensensvej-1", "@spider": "aldi_nord_dk", "addr:full": "Eli Christensensvej 1", "addr:city": "Ikast", "addr:postcode": "7430", "addr:country": "dk", "name": "ALDI Ikast - Eli Christensensvej 1", "website": "https://www.aldi.dk/find-butik/midtjylland/ikast/eli-christensensvej-1.html", "brand": "ALDI Nord", "brand:wikidata": "Q41171373"}},
{"type": "Feature", "id": "dHCEHUVvbW7DCPSjpWH1x9EfElY=", "properties": {"ref": "radhusvej-85", "@spider": "aldi_nord_dk", "addr:full": "R\u00e5dhusvej 85", "addr:city": "Faxe", "addr:postcode": "4640", "addr:country": "dk", "name": "ALDI Faxe - R\u00e5dhusvej", "website": "https://www.aldi.dk/find-butik/sjaelland-og-oer/faxe/radhusvej-85.html", "brand": "ALDI Nord", "brand:wikidata": "Q41171373"}},
{"type": "Feature", "id": "nigeJvBDpSULyCQTt-UQssDSTgY=", "properties": {"ref": "banevej-3", "@spider": "aldi_nord_dk", "addr:full": "Banevej 3", "addr:city": "Hornslet", "addr:postcode": "8543", "addr:country": "dk", "name": "ALDI Hornslet - Banevej", "website": "https://www.aldi.dk/find-butik/midtjylland/hornslet/banevej-3.html", "brand": "ALDI Nord", "brand:wikidata": "Q41171373"}},
{"type": "Feature", "id": "wP9nCMXBKo7m_U-WBKtTERU9ELg=", "properties": {"ref": "vester-skolevej-2", "@spider": "aldi_nord_dk", "addr:full": "Vester Skolevej 2", "addr:city": "Holstebro", "addr:postcode": "7500", "addr:country": "dk", "name": "ALDI Holstebro - Vester Skolevej", "website": "https://www.aldi.dk/find-butik/midtjylland/holstebro/vester-skolevej-2.html", "brand": "ALDI Nord", "brand:wikidata": "Q41171373"}},
{"type": "Feature", "id": "3R6jgY1nbP4gWW5QuUxIeaox8TU=", "properties": {"ref": "sundvej-109", "@spider": "aldi_nord_dk", "addr:full": "Sundvej 109", "addr:city": "Horsens", "addr:postcode": "8700", "addr:country": "dk", "name": "ALDI Horsens - Sundvej", "website": "https://www.aldi.dk/find-butik/midtjylland/horsens/sundvej-109.html", "brand": "ALDI Nord", "brand:wikidata": "Q41171373"}},
{"type": "Feature", "id": "IG3mV63WvwYo9P-hBsOlCwg-wYY=", "properties": {"ref": "stenvej-1-3", "@spider": "aldi_nord_dk", "addr:full": "Stenvej 1-3", "addr:city": "H\u00f8jbjerg", "addr:postcode": "8270", "addr:country": "dk", "name": "ALDI H\u00f8jbjerg - Stenvej", "website": "https://www.aldi.dk/find-butik/midtjylland/hojbjerg/stenvej-1-3.html", "brand": "ALDI Nord", "brand:wikidata": "Q41171373"}},
{"type": "Feature", "id": "CZKMfSQF2VhfDCmbQ5sduex8VmU=", "properties": {"ref": "lilli-gyldenkildes-torv-8", "@spider": "aldi_nord_dk", "addr:full": "Lilli Gyldenkildes Torv 8", "addr:city": "Horsens", "addr:postcode": "8700", "addr:country": "dk", "name": "ALDI Horsens - Lilli Gyldenkildes Torv", "website": "https://www.aldi.dk/find-butik/midtjylland/horsens/lilli-gyldenkildes-torv-8.html", "brand": "ALDI Nord", "brand:wikidata": "Q41171373"}},
{"type": "Feature", "id": "VCo24bHOmzumklSO4dpB2mKfl4g=", "properties": {"ref": "fredensgade-3", "@spider": "aldi_nord_dk", "addr:full": "Fredensgade 3", "addr:city": "Hinnerup", "addr:postcode": "8382", "addr:country": "dk", "name": "ALDI Hinnerup - Fredensgade", "website": "https://www.aldi.dk/find-butik/midtjylland/hinnerup/fredensgade-3.html", "brand": "ALDI Nord", "brand:wikidata": "Q41171373"}}]}