{"type":"FeatureCollection","features":[{"type": "Feature", "id": "ee37GhsFLbL2FGbQCjB7BXuS0Mo=", "properties": {"ref": "cadiz", "@spider": "aldi_nord_es", "addr:country": "es", "name": "Tiendas ALDI en C\u00e1diz", "website": "https://www.aldi.es/supermercados/encuentra-tu-supermercado/cadiz.html", "brand": "ALDI Nord", "brand:wikidata": "Q41171373"}},
{"type": "Feature", "id": "XDeQ5QQO5wC7A39Z72LOoMekDRI=", "properties": {"ref": "ciudad-real", "@spider": "aldi_nord_es", "addr:country": "es", "name": "Tiendas ALDI en Ciudad Real", "website": "https://www.aldi.es/supermercados/encuentra-tu-supermercado/ciudad-real.html", "brand": "ALDI Nord", "brand:wikidata": "Q41171373"}},
{"type": "Feature", "id": "xCZdwRaspd06aamqsjOAxCbGdGE=", "properties": {"ref": "castellon-castello", "@spider": "aldi_nord_es", "addr:country": "es", "name": "Tiendas ALDI en Castell\u00f3n/Castell\u00f3", "website": "https://www.aldi.es/supermercados/encuentra-tu-supermercado/castellon-castello.html", "brand": "ALDI Nord", "brand:wikidata": "Q41171373"}},
{"type": "Feature", "id": "KtRHfluJQePwJK-eJwzAQF5fcLU=", "properties": {"ref": "cantabria", "@spider": "aldi_nord_es", "addr:country": "es", "name": "Tiendas ALDI en Cantabria", "website": "https://www.aldi.es/supermercados/encuentra-tu-supermercado/cantabria.html", "brand": "ALDI Nord", "brand:wikidata": "Q41171373"}},
{"type": "Feature", "id": "vhK4jHTFWKYIGDn9kfM6uVTcotE=", "properties": {"ref": "caceres", "@spider": "aldi_nord_es", "addr:country": "es", "name": "Tiendas ALDI en C\u00e1ceres", "website": "https://www.aldi.es/supermercados/encuentra-tu-supermercado/caceres.html", "brand": "ALDI Nord", "brand:wikidata": "Q41171373"}},
{"type": "Feature", "id": "8kGubeH6FkgpPsYt_RHW1GgIHjM=", "properties": {"ref": "almeria", "@spider": "aldi_nord_es", "addr:country": "es", "name": "Tiendas ALDI en Almer\u00eda", "website": "https://www.aldi.es/supermercados/encuentra-tu-supermercado/almeria.html", "brand": "ALDI Nord", "brand:wikidata": "Q41171373"}},
{"type": "Feature", "id": "QG37E6eXPPF_3X3c1JuTxDZEJ5Y=", "properties": {"ref": "barcelona", "@spider": "aldi_nord_es", "addr:country": "es", "name": "Tiendas ALDI en Barcelona", "website": "https://www.aldi.es/supermercados/encuentra-tu-supermercado/barcelona.html", "brand": "ALDI Nord", "brand:wikidata": "Q41171373"}},
{"type": "Feature", "id": "vqB1fh1PzhbVsH-QN0YTqpJvuyA=", "properties": {"ref": "badajoz", "@spider": "aldi_nord_es", "addr:country": "es", "name": "Tiendas ALDI en Badajoz", "website": "https://www.aldi.es/supermercados/encuentra-tu-supermercado/badajoz.html", "brand": "ALDI Nord", "brand:wikidata": "Q41171373"}},
{"type": "Feature", "id": "ESr7kF85zg1hayVnYx_-5iL6nUw=", "properties": {"ref": "cordoba", "@spider": "aldi_nord_es", "addr:country": "es", "name": "Tiendas ALDI en C\u00f3rdoba", "website": "https://www.aldi.es/supermercados/encuentra-tu-supermercado/cordoba.html", "brand": "ALDI Nord", "brand:wikidata": "Q41171373"}},
{"type": "Feature", "id": "80MO3ZyY1f5snFv82KE2m17gs08=", "properties": {"ref": "gipuzkoa", "@spider": "aldi_nord_es", "addr:country": "es", "name": "Tiendas ALDI en Gipuzkoa", "website": "https://www.aldi.es/supermercados/encuentra-tu-supermercado/gipuzkoa.html", "brand": "ALDI Nord", "brand:wikidata": "Q41171373"}},
{"type": "Feature", "id": "eVkIlrb0SwtozuEXTuFDWNbV-iI=", "properties": {"ref": "bizkaia-vizcaya", "@spider": "aldi_nord_es", "addr:country": "es", "name": "Tiendas ALDI en Bizkaia/Vizcaya", "website": "https://www.aldi.es/supermercados/encuentra-tu-supermercado/bizkaia-vizcaya.html", "brand": "ALDI Nord", "brand:wikidata": "Q41171373"}},
{"type": "Feature", "id": "x7kEQiKHhl15L85PQ-B1QuX-vD8=", "properties": {"ref": "albacete", "@spider": "aldi_nord_es", "addr:country": "es", "name": "Tiendas ALDI en Albacete", "website": "https://www.aldi.es/supermercados/encuentra-tu-supermercado/albacete.html", "brand": "ALDI Nord", "brand:wikidata": "Q41171373"}},
{"type": "Feature", "id": "NObxihl0mt3zrSUBTFegbBHNQtU=", "properties": {"ref": "alicante-alacant", "@spider": "aldi_nord_es", "addr:country": "es", "name": "Tiendas ALDI en Alicante/Alacant", "website": "https://www.aldi.es/supermercados/encuentra-tu-supermercado/alicante-alacant.html", "brand": "ALDI Nord", "brand:wikidata": "Q41171373"}},
{"type": "Feature", "id": "L_AjrsFzWCutXV3zOE6DYez1o0M=", "properties": {"ref": "araba-alava", "@spider": "aldi_nord_es", "addr:country": "es", "name": "Tiendas ALDI en Araba/\u00c1lava", "website": "https://www.aldi.es/supermercados/encuentra-tu-supermercado/araba-alava.html", "brand": "ALDI Nord", "brand:wikidata": "Q41171373"}},
{"type": "Feature", "id": "OBjS3YhCODTRmCHOoW-mJkMVgOw=", "properties": {"ref": "jaen", "@spider": "aldi_nord_es", "addr:country": "es", "name": "Tiendas ALDI en Ja\u00e9n", "website": "https://www.aldi.es/supermercados/encuentra-tu-supermercado/jaen.html", "brand": "ALDI Nord", "brand:wikidata": "Q41171373"}},
{"type": "Feature", "id": "LZhQ30HqsYeDZoHPjqHNAhY7FZs=", "properties": {"ref": "avila", "@spider": "aldi_nord_es", "addr:country": "es", "name": "Tiendas ALDI en \u00c1vila", "website": "https://www.aldi.es/supermercados/encuentra-tu-supermercado/avila.html", "brand": "ALDI Nord", "brand:wikidata": "Q41171373"}},
{"type": "Feature", "id": "FY6ByF1p2lMpXwHpUdzD2A-VQ4M=", "properties": {"ref": "la-rioja", "@spider": "aldi_nord_es", "addr:country": "es", "name": "Tiendas ALDI en La Rioja", "website": "https://www.aldi.es/supermercados/encuentra-tu-supermercado/la-rioja.html", "brand": "ALDI Nord", "brand:wikidata": "Q41171373"}},
{"type": "Feature", "id": "0MpNgOelnVp5NPEWvR7gRTQI4vg=", "properties": {"ref": "toledo", "@spider": "aldi_nord_es", "addr:country": "es", "name": "Tiendas ALDI en Toledo", "website": "https://www.aldi.es/supermercados/encuentra-tu-supermercado/toledo.html", "brand": "ALDI Nord", "brand:wikidata": "Q41171373"}},
{"type": "Feature", "id": "N6vzHDlWUTn7LpmLnvXBaxgTWU8=", "properties": {"ref": "zaragoza", "@spider": "aldi_nord_es", "addr:country": "es", "name": "Tiendas ALDI en Zaragoza", "website": "https://www.aldi.es/supermercados/encuentra-tu-supermercado/zaragoza.html", "brand": "ALDI Nord", "brand:wikidata": "Q41171373"}},
{"type": "Feature", "id": "r8Ap0i36KYsgzsdVFoPxKeOEIiA=", "properties": {"ref": "zamora", "@spider": "aldi_nord_es", "addr:country": "es", "name": "Tiendas ALDI en Zamora", "website": "https://www.aldi.es/supermercados/encuentra-tu-supermercado/zamora.html", "brand": "ALDI Nord", "brand:wikidata": "Q41171373"}},
{"type": "Feature", "id": "tHARw6knO9A2WygTRXc1b8xYR2Y=", "properties": {"ref": "valladolid", "@spider": "aldi_nord_es", "addr:country": "es", "name": "Tiendas ALDI en Valladolid", "website": "https://www.aldi.es/supermercados/encuentra-tu-supermercado/valladolid.html", "brand": "ALDI Nord", "brand:wikidata": "Q41171373"}},
{"type": "Feature", "id": "FWLyYgbGHVVP5DHL38wfoC5e2yc=", "properties": {"ref": "valencia-valencia", "@spider": "aldi_nord_es", "addr:country": "es", "name": "Tiendas ALDI en Valencia/Val\u00e8ncia", "website": "https://www.aldi.es/supermercados/encuentra-tu-supermercado/valencia-valencia.html", "brand": "ALDI Nord", "brand:wikidata": "Q41171373"}},
{"type": "Feature", "id": "jpBRh7zs5SprcmVyx8Oi4beyzu8=", "properties": {"ref": "teruel", "@spider": "aldi_nord_es", "addr:country": "es", "name": "Tiendas ALDI en Teruel", "website": "https://www.aldi.es/supermercados/encuentra-tu-supermercado/teruel.html", "brand": "ALDI Nord", "brand:wikidata": "Q41171373"}},
{"type": "Feature", "id": "vZ1SOI-TDN2fMDOn22Z0yLLKANI=", "properties": {"ref": "tarragona", "@spider": "aldi_nord_es", "addr:country": "es", "name": "Tiendas ALDI en Tarragona", "website": "https://www.aldi.es/supermercados/encuentra-tu-supermercado/tarragona.html", "brand": "ALDI Nord", "brand:wikidata": "Q41171373"}},
{"type": "Feature", "id": "zZ1vLS1t-EHzmxWu2LOEGncG1i0=", "properties": {"ref": "segovia", "@spider": "aldi_nord_es", "addr:country": "es", "name": "Tiendas ALDI en Segovia", "website": "https://www.aldi.es/supermercados/encuentra-tu-supermercado/segovia.html", "brand": "ALDI Nord", "brand:wikidata": "Q41171373"}},
{"type": "Feature", "id": "_tKjx5kMcn4ETF3JGpnSU1Z0cyI=", "properties": {"ref": "sevilla", "@spider": "aldi_nord_es", "addr:country": "es", "name": "Tiendas ALDI en Sevilla", "website": "https://www.aldi.es/supermercados/encuentra-tu-supermercado/sevilla.html", "brand": "ALDI Nord", "brand:wikidata": "Q41171373"}},
{"type": "Feature", "id": "u6NQyQKvaQLUKAfFacF-rwAkyHI=", "properties": {"ref": "salamanca", "@spider": "aldi_nord_es", "addr:country": "es", "name": "Tiendas ALDI en Salamanca", "website": "https://www.aldi.es/supermercados/encuentra-tu-supermercado/salamanca.html", "brand": "ALDI Nord", "brand:wikidata": "Q41171373"}},
{"type": "Feature", "id": "Yo9cMPkPdWgn0rblrMfyuVEav-4=", "properties": {"ref": "palencia", "@spider": "aldi_nord_es", "addr:country": "es", "name": "Tiendas ALDI en Palencia", "website": "https://www.aldi.es/supermercados/encuentra-tu-supermercado/palencia.html", "brand": "ALDI Nord", "brand:wikidata": "Q41171373"}},
{"type": "Feature", "id": "iv3xoGQAfFee3paazkCBO5AEJ1Q=", "properties": {"ref": "navarra", "@spider": "aldi_nord_es", "addr:country": "es", "name": "Tiendas ALDI en Navarra", "website": "https://www.aldi.es/supermercados/encuentra-tu-supermercado/navarra.html", "brand": "ALDI Nord", "brand:wikidata": "Q41171373"}},
{"type": "Feature", "id": "VrY98B9Vd7L8MpKNv2hHTgIWDHM=", "properties": {"ref": "malaga", "@spider": "aldi_nord_es", "addr:country": "es", "name": "Tiendas ALDI en M\u00e1laga", "website": "https://www.aldi.es/supermercados/encuentra-tu-supermercado/malaga.html", "brand": "ALDI Nord", "brand:wikidata": "Q41171373"}},
{"type": "Feature", "id": "iVxiwfMdcL6aeZmycQzFY4f3gk4=", "properties": {"ref": "murcia", "@spider": "aldi_nord_es", "addr:country": "es", "name": "Tiendas ALDI en Murcia", "website": "https://www.aldi.es/supermercados/encuentra-tu-supermercado/murcia.html", "brand": "ALDI Nord", "brand:wikidata": "Q41171373"}},
{"type": "Feature", "id": "Lxm1LNyIcUFsoy9HYU47ER7Kckc=", "properties": {"ref": "madrid", "@spider": "aldi_nord_es", "addr:country": "es", "name": "Tiendas ALDI en Madrid", "website": "https://www.aldi.es/supermercados/encuentra-tu-supermercado/madrid.html", "brand": "ALDI Nord", "brand:wikidata": "Q41171373"}},
{"type": "Feature", "id": "YtGw_A61G9cPcrugSzov5sDLNTw=", "properties": {"ref": "illes-balears", "@spider": "aldi_nord_es", "addr:country": "es", "name": "Tiendas ALDI en Illes Balears", "website": "https://www.aldi.es/supermercados/encuentra-tu-supermercado/illes-balears.html", "brand": "ALDI Nord", "brand:wikidata": "Q41171373"}},
{"type": "Feature", "id": "NZy-F57_QAK3KBTx0od47Tl1k9Q=", "properties": {"ref": "huesca", "@spider": "aldi_nord_es", "addr:country": "es", "name": "Tiendas ALDI en Huesca", "website": "https://www.aldi.es/supermercados/encuentra-tu-supermercado/huesca.html", "brand": "ALDI Nord", "brand:wikidata": "Q41171373"}},
{"type": "Feature", "id": "ag3gaDLBO0SW-bXUhXbW8Pz9UM8=", "properties": {"ref": "leon", "@spider": "aldi_nord_es", "addr:country": "es", "name": "Tiendas ALDI en Le\u00f3n", "website": "https://www.aldi.es/supermercados/encuentra-tu-supermercado/leon.html", "brand": "ALDI Nord", "brand:wikidata": "Q41171373"}},
{"type": "Feature", "id": "wMG6QG8ychOEgGpcNY_iuNHwy0g=", "properties": {"ref": "lleida", "@spider": "aldi_nord_es", "addr:country": "es", "name": "Tiendas ALDI en Lleida", "website": "https://www.aldi.es/supermercados/encuentra-tu-supermercado/lleida.html", "brand": "ALDI Nord", "brand:wikidata": "Q41171373"}},
{"type": "Feature", "id": "kHq8voLdhp-eRYzUiHHX_bIsNpw=", "properties": {"ref": "huelva", "@spider": "aldi_nord_es", "addr:country": "es", "name": "Tiendas ALDI en Huelva", "website": "https://www.aldi.es/supermercados/encuentra-tu-supermercado/huelva.html", "brand": "ALDI Nord", "brand:wikidata": "Q41171373"}},
{"type": "Feature", "id": "O2DlIJqo-OukveT9XWm3gpn_6D4=", "properties": {"ref": "guadalajara", "@spider": "aldi_nord_es", "addr:country": "es", "name": "Tiendas ALDI en Guadalajara", "website": "https://www.aldi.es/supermercados/encuentra-tu-supermercado/guadalajara.html", "brand": "ALDI Nord", "brand:wikidata": "Q41171373"}},
{"type": "Feature", "id": "qRp2jpA5ixg0j1jwIkUUK2wp2SM=", "properties": {"ref": "granada", "@spider": "aldi_nord_es", "addr:country": "es", "name": "Tiendas ALDI en Granada", "website": "https://www.aldi.es/supermercados/encuentra-tu-supermercado/granada.html", "brand": "ALDI Nord", "brand:wikidata": "Q41171373"}},
{"type": "Feature", "id": "FyVvrLow4SBfEVc7ZpPu9qkaQrI=", "properties": {"ref": "girona", "@spider": "aldi_nord_es", "addr:country": "es", "name": "Tiendas ALDI en Girona", "website": "https://www.aldi.es/supermercados/encuentra-tu-supermercado/girona.html", "brand": "ALDI Nord", "brand:wikidata": "Q41171373"}}]}