{"type":"FeatureCollection","features":[{"type": "Feature", "id": "eP8Nio2qJCjSy1iGRBEPpTYAllA=", "properties": {"ref": "ci2HVWk6RwrUZvzwFGW8eg==", "@spider": "aldi_au", "addr:street": "73-81 Youngman Street", "addr:city": "Kingaroy", "addr:state": "QLD", "addr:postcode": "4610", "name": "ALDI", "opening_hours": "Sa 08:00-18:00; Su 09:00-18:00; Mo-We 08:30-20:00; Th 08:30-21:00; Fr 08:30-18:00; ", "brand": "Aldi"}, "geometry": {"type": "Point", "coordinates": [151.83527, -26.54283]}},
{"type": "Feature", "id": "KA5kTt6YS2wAacdaJuMuODpvNCk=", "properties": {"ref": "9qRutaIu35Mj1UjWRCDN0A==", "@spider": "aldi_au", "addr:street": "218 - 222 Anstruther Street", "addr:city": "Echuca", "addr:state": "VIC", "addr:postcode": "3564", "name": "ALDI", "opening_hours": "Su 08:30-19:00; Mo-Fr 08:30-20:00; Sa 08:30-19:00; ", "brand": "Aldi"}, "geometry": {"type": "Point", "coordinates": [144.75062, -36.12567]}},
{"type": "Feature", "id": "OoHkbP3JfiuEpq1i_O9YMFPp2Tc=", "properties": {"ref": "NGppfwxODMVJC9bE85NrZw==", "@spider": "aldi_au", "addr:street": "NthWstCoastalHwy & Eastward", "addr:city": "Wonthella", "addr:postcode": "6530", "name": "ALDI", "opening_hours": "Sa 08:30-17:00; Su 11:00-17:00; Mo-We 08:30-20:00; Th 08:30-21:00; Fr 08:30-20:00; ", "brand": "Aldi"}, "geometry": {"type": "Point", "coordinates": [114.62674, -28.77741]}},
{"type": "Feature", "id": "4Cyb0SEgeKbqrGMmsQpau0JvUCY=", "properties": {"ref": "MkAY8aKXgPMU4f6jJRhqpQ==", "@spider": "aldi_au", "addr:street": "Campbell & Rutherford Sts", "addr:city": "Swan Hill", "addr:state": "VIC", "addr:postcode": "3585", "name": "ALDI", "opening_hours": "Su 08:30-19:00; Mo-Fr 08:30-20:00; Sa 08:30-19:00; ", "brand": "Aldi"}, "geometry": {"type": "Point", "coordinates": [143.56102, -35.34265]}},
{"type": "Feature", "id": "DQN7dT8LB17tD6ATIYEZFr5FVe0=", "properties": {"ref": "0SAXmsLPCcqJCVz9xVwr7g==", "@spider": "aldi_au", "addr:street": "4 -6 Oakes Road", "addr:city": "Griffith", "addr:postcode": "2680", "name": "ALDI", "opening_hours": "Su 08:30-19:00; Mo-Fr 08:30-20:00; Sa 08:30-19:00; ", "brand": "Aldi"}, "geometry": {"type": "Point", "coordinates": [146.05016, -34.29684]}},
{"type": "Feature", "id": "Ydgpm0Q7PM8iO4VdqdFwR_0xFJk=", "properties": {"ref": "TZUPnGJQudx8GYltzzLWYw==", "@spider": "aldi_au", "addr:street": "858 Fifteenth Street", "addr:city": "Mildura", "addr:postcode": "3500", "name": "ALDI", "opening_hours": "Su 08:30-20:00; Mo-We 08:30-20:00; Th 08:30-21:00; Fr 08:30-20:00; Sa 08:00-20:00; ", "brand": "Aldi"}, "geometry": {"type": "Point", "coordinates": [142.13561, -34.20639]}},
{"type": "Feature", "id": "LorTjPYYgTrJ6Y2dc_mkPx3ocgk=", "properties": {"ref": "s8nCoAmnXvB4ZnZVTCal5Q==", "@spider": "aldi_au", "addr:street": "105-109 Adelaide Road", "addr:city": "Murray Bridge", "addr:postcode": "5253", "name": "ALDI", "opening_hours": "Su 08:30-19:00; Mo-We 08:30-19:00; Th 08:30-20:00; Fr 08:30-19:00; Sa 08:00-19:00; ", "brand": "Aldi"}, "geometry": {"type": "Point", "coordinates": [139.264, -35.1239]}},
{"type": "Feature", "id": "wTvT-xRIc7ZIMg2PZFdOJxbuL4s=", "properties": {"ref": "BlRBpVlYQMinJo0jivTITQ==", "@spider": "aldi_au", "addr:street": "95 Barney Street", "addr:city": "Armidale", "addr:state": "NSW", "addr:postcode": "2350", "name": "ALDI", "opening_hours": "Su 09:00-19:00; Mo-Fr 08:30-20:00; Sa 08:00-19:00; ", "brand": "Aldi"}, "geometry": {"type": "Point", "coordinates": [151.66927, -30.51703]}},
{"type": "Feature", "id": "UfOeld3L-cTsrR1AgJhusUDvMN4=", "properties": {"ref": "JhJ4KpmTFJEOcRec9x8k_g==", "@spider": "aldi_au", "addr:street": "56-60 Adelaide Road", "addr:city": "Victor Harbor", "addr:postcode": "5211", "name": "ALDI", "opening_hours": "Su 08:30-19:00; Mo-Fr 08:30-20:00; Sa 08:00-19:00; ", "brand": "Aldi"}, "geometry": {"type": "Point", "coordinates": [138.63807, -35.52985]}},
{"type": "Feature", "id": "c29p5j-54Jvqu0LqwshpC_BTlTY=", "properties": {"ref": "GsaHnUrvwBj70t1Z454DXg==", "@spider": "aldi_au", "addr:street": "Frances Terrace", "addr:city": "Kadina", "addr:state": "SA", "addr:postcode": "5554", "name": "ALDI", "opening_hours": "Su 08:30-19:00; Mo-Fr 08:30-20:00; Sa 08:00-19:00; ", "brand": "Aldi"}, "geometry": {"type": "Point", "coordinates": [137.71074, -33.96427]}},
{"type": "Feature", "id": "Rgh5-INLmIxDQGUaKdd4XwxMPJw=", "properties": {"ref": "r3EGaenXZchpRqX3d8doxg==", "@spider": "aldi_au", "addr:street": "8 Wandearah Road", "addr:city": "Port Pirie", "addr:postcode": "5540", "name": "ALDI", "opening_hours": "Su 08:30-19:00; Mo-Fr 08:30-19:00; Sa 08:00-19:00; ", "brand": "Aldi"}, "geometry": {"type": "Point", "coordinates": [138.01, -33.1906]}},
{"type": "Feature", "id": "6BPaxFwy3dJexmCblAF__zPCENA=", "properties": {"ref": "yjiMsBe33SYY8M9XLy9Oyg==", "@spider": "aldi_au", "addr:street": "374 Peel Street", "addr:city": "Tamworth", "addr:state": "NSW", "addr:postcode": "2340", "name": "ALDI", "opening_hours": "Su 08:30-20:00; Mo-We 08:30-20:00; Th 08:30-21:00; Fr-Sa 08:30-20:00; ", "brand": "Aldi"}, "geometry": {"type": "Point", "coordinates": [150.92868, -31.09061]}},
{"type": "Feature", "id": "450rz7k-4WUIwKesQ5ZAjSO_Ouw=", "properties": {"ref": "_0QnxiK70VVx9FcECZ0JEA==", "@spider": "aldi_au", "addr:street": "97-99 Church Street", "addr:city": "Mudgee", "addr:state": "NSW", "addr:postcode": "2850", "name": "ALDI", "opening_hours": "Su 08:30-20:00; Mo-Sa 08:30-20:00; ", "brand": "Aldi"}, "geometry": {"type": "Point", "coordinates": [149.58746, -32.59709]}},
{"type": "Feature", "id": "KShRR_1706Rv2kMZ-Q7LMQ9hxmY=", "properties": {"ref": "9xwS3d3sLLo2SqHiu3865g==", "@spider": "aldi_au", "addr:street": "6-12 Marine Parade", "addr:city": "Lakes Entrance", "addr:state": "VIC", "addr:postcode": "3909", "name": "ALDI", "opening_hours": "Su 08:30-19:00; Mo-Sa 08:30-19:00; ", "brand": "Aldi"}, "geometry": {"type": "Point", "coordinates": [147.97422, -37.88186]}},
{"type": "Feature", "id": "h_BtIpsk9J-09O1EIGqetnkH9XQ=", "properties": {"ref": "G0LbmHieFdjIia2LkObRqw==", "@spider": "aldi_au", "addr:street": "Lot 200 Kay Avenue", "addr:city": "Berri", "addr:postcode": "5343", "name": "ALDI", "opening_hours": "Su 09:00-19:00; Mo-Fr 08:30-19:00; Sa 08:00-19:00; ", "brand": "Aldi"}, "geometry": {"type": "Point", "coordinates": [140.60942, -34.27936]}},
{"type": "Feature", "id": "PScAF8Q_W8x-ZFoWfkKgz6dbLdA=", "properties": {"ref": "TUtCD6t8doI2GnE2IZk-Sw==", "@spider": "aldi_au", "addr:street": "10-14 Ekblom Street", "addr:city": "Whyalla", "addr:postcode": "5608", "name": "ALDI", "opening_hours": "Su 08:30-19:00; Mo-Fr 08:30-19:00; Sa 08:00-19:00; ", "brand": "Aldi"}, "geometry": {"type": "Point", "coordinates": [137.53585, -33.02833]}},
{"type": "Feature", "id": "dVjbqDg46Ura0kJvLKqPpSaFfJk=", "properties": {"ref": "lgc8UOxOj0HsDMVJXZSzpA==", "@spider": "aldi_au", "addr:street": "185 Conadilly Street", "addr:city": "Gunnedah", "addr:state": "NSW", "addr:postcode": "2380", "name": "ALDI", "opening_hours": "Su 08:30-19:00; Mo-Fr 08:30-20:00; Sa 08:30-19:00; ", "brand": "Aldi"}, "geometry": {"type": "Point", "coordinates": [150.25244, -30.97737]}},
{"type": "Feature", "id": "rSro4em94gIsc_saq5JaOlSLy2Q=", "properties": {"ref": "pArgEdWt8uZK9dz1PMkgIA==", "@spider": "aldi_au", "addr:street": "34 Archibald Street", "addr:city": "Dalby", "addr:state": "QLD", "addr:postcode": "4405", "name": "ALDI", "opening_hours": "Sa 08:00-18:00; Su 09:00-18:00; Mo-We 08:30-19:00; Th 08:30-20:00; Fr 08:30-19:00; ", "brand": "Aldi"}, "geometry": {"type": "Point", "coordinates": [151.26349, -27.18126]}},
{"type": "Feature", "id": "wK9T811d6mmSr50VfAGbYvLzbx8=", "properties": {"ref": "7oDG5sSTfn3qpv2xOumMvg==", "@spider": "aldi_au", "addr:street": "176 Talbragar Street", "addr:city": "Dubbo", "addr:state": "NSW", "addr:postcode": "2830", "name": "ALDI", "opening_hours": "Su 08:30-20:00; Mo-We 08:30-20:00; Th 08:30-21:00; Fr-Sa 08:30-20:00; ", "brand": "Aldi"}, "geometry": {"type": "Point", "coordinates": [148.61315, -32.246]}},
{"type": "Feature", "id": "4lNwEWICBoJw9pOSIYHzWk3z4WY=", "properties": {"ref": "cAtlJNl6gEGe6eych4iG9A==", "@spider": "aldi_au", "addr:street": "175 Maroondah Highway", "addr:city": "Healesville", "addr:state": "VIC", "addr:postcode": "3777", "name": "ALDI", "opening_hours": "Su 08:30-19:00; Mo-Fr 08:30-20:00; Sa 08:30-19:00; ", "brand": "Aldi"}, "geometry": {"type": "Point", "coordinates": [145.51385, -37.65417]}},
{"type": "Feature", "id": "Bb2Yk6pFTO5tu8nK3Jlp-YKaV-4=", "properties": {"ref": "fNdnyjO_q7QJ1Ln7SBfXnw==", "@spider": "aldi_au", "addr:street": "68-80 Thompson Avenue", "addr:city": "Cowes", "addr:state": "VIC", "addr:postcode": "3922", "name": "ALDI", "opening_hours": "Su 08:30-20:00; Mo-Sa 08:30-20:00; ", "brand": "Aldi"}, "geometry": {"type": "Point", "coordinates": [145.2386, -38.45047]}},
{"type": "Feature", "id": "qCeRJgbFZnWNUK3Zm_uhc-tptIE=", "properties": {"ref": "kO4GgyJnA8KTxBIkkQCPzw==", "@spider": "aldi_au", "addr:street": "14 - 18  Winki Way", "addr:city": "Torquay", "addr:postcode": "3228", "name": "ALDI", "opening_hours": "Su 08:30-19:00; Mo-Fr 08:30-20:00; Sa 08:30-19:00; ", "brand": "Aldi"}, "geometry": {"type": "Point", "coordinates": [144.31844, -38.30885]}},
{"type": "Feature", "id": "Mlgpz6FU-Ih5zg7epzy-Fq7KRNU=", "properties": {"ref": "gvQ-fRIe9abVa_mGORRh0w==", "@spider": "aldi_au", "addr:street": "62 - 70 Hesse Street", "addr:city": "Colac", "addr:state": "VIC", "addr:postcode": "3250", "name": "ALDI", "opening_hours": "Su 08:30-19:00; Mo-Fr 08:30-20:00; Sa 08:30-19:00; ", "brand": "Aldi"}, "geometry": {"type": "Point", "coordinates": [143.58986, -38.34189]}},
{"type": "Feature", "id": "ZoLVx-4ZzKDXVILAHFsMbolxxqM=", "properties": {"ref": "EF5jvFpRVCAAFrF8OZrKRQ==", "@spider": "aldi_au", "addr:street": "Shop 50, 158 - 196 Main St", "addr:city": "Bacchus Marsh", "addr:state": "VIC", "addr:postcode": "3340", "name": "ALDI", "opening_hours": "Su 08:30-20:00; Mo-Sa 08:30-20:00; ", "brand": "Aldi"}, "geometry": {"type": "Point", "coordinates": [144.43917, -37.67555]}},
{"type": "Feature", "id": "wCL5ARLeKKP6pJDNulRKaqKdF0U=", "properties": {"ref": "2XVh3o94F2b_1Vw8nqhyWw==", "@spider": "aldi_au", "addr:street": "111 Burke Street", "addr:city": "Maryborough", "addr:state": "VIC", "addr:postcode": "3465", "name": "ALDI", "opening_hours": "Su 08:30-19:00; Mo-We 08:30-19:00; Th 08:30-20:00; Fr-Sa 08:30-19:00; ", "brand": "Aldi"}, "geometry": {"type": "Point", "coordinates": [143.74258, -37.04723]}},
{"type": "Feature", "id": "6-_suRgKvm7P7Ko_VDL0TK273dA=", "properties": {"ref": "liutc9nRESBXctnfb8vmfw==", "@spider": "aldi_au", "addr:street": "105-107 Main Street", "addr:city": "Merimbula", "addr:postcode": "2548", "name": "ALDI", "opening_hours": "Su 08:30-19:00; Mo-Fr 08:30-20:00; Sa 08:30-19:00; ", "brand": "Aldi"}, "geometry": {"type": "Point", "coordinates": [149.90996, -36.88637]}},
{"type": "Feature", "id": "M5aZ2_ka-yxXRE8S8GjqDn2ozME=", "properties": {"ref": "LU7z9WHVzl125Eg7tx3cGw==", "@spider": "aldi_au", "addr:street": "32 - 34Tallarook Street", "addr:city": "Seymour", "addr:state": "VIC", "addr:postcode": "3660", "name": "ALDI", "opening_hours": "Su 08:30-19:00; Mo-We 08:30-19:00; Th 08:30-20:00; Fr-Sa 08:30-19:00; ", "brand": "Aldi"}, "geometry": {"type": "Point", "coordinates": [145.13275, -37.0228]}},
{"type": "Feature", "id": "BKls294_u87ZU18NS-mfnY7pS1U=", "properties": {"ref": "P7mCAr8auAfrSBAVA21yBg==", "@spider": "aldi_au", "addr:street": "Cnr Murray & McKenzie St", "addr:city": "Wonthaggi", "addr:state": "VIC", "addr:postcode": "3995", "name": "ALDI", "opening_hours": "Su 08:30-20:00; Mo-Sa 08:30-20:00; ", "brand": "Aldi"}, "geometry": {"type": "Point", "coordinates": [145.59277, -38.60431]}},
{"type": "Feature", "id": "hTNBH7i2ECmAzhpFvpvU87cV7O0=", "properties": {"ref": "NL77kuxx9-ytQEkR4IitQw==", "@spider": "aldi_au", "addr:street": "10 Bruce St", "addr:city": "Leongatha", "addr:state": "VIC", "addr:postcode": "3953", "name": "ALDI", "opening_hours": "Su 08:30-20:00; Mo-Sa 08:30-20:00; ", "brand": "Aldi"}, "geometry": {"type": "Point", "coordinates": [145.94491, -38.47821]}},
{"type": "Feature", "id": "mYDVN0yFO8kWTabP-JbIR9khwVM=", "properties": {"ref": "v2x8kke2RMSl4492RJuU-g==", "@spider": "aldi_au", "addr:street": "29 Henty Street", "addr:city": "Portland", "addr:state": "VIC", "addr:postcode": "3305", "name": "ALDI", "opening_hours": "Su 08:30-19:00; Mo-Sa 08:30-19:00; ", "brand": "Aldi"}, "geometry": {"type": "Point", "coordinates": [141.60267, -38.34664]}},
{"type": "Feature", "id": "AxSv73W8JnhQUVJ3DKMYRNkG5Po=", "properties": {"ref": "p_XeBxfG8g6GpctG_q6sWg==", "@spider": "aldi_au", "addr:street": "9 Edward Street", "addr:city": "Bunbury", "addr:postcode": "6230", "name": "ALDI", "opening_hours": "Sa 08:30-19:00; Su-We 08:30-19:00; Th 08:30-20:00; Fr 08:30-19:00; ", "brand": "Aldi"}, "geometry": {"type": "Point", "coordinates": [115.63877, -33.32854]}},
{"type": "Feature", "id": "sQY3cSaVbZjRYHRxktKa49Comz4=", "properties": {"ref": "M9vUtGv8XS-_CH5FwLG1Cg==", "@spider": "aldi_au", "addr:street": "5 Mardo Avenue", "addr:city": "Australind", "addr:postcode": "6233", "name": "ALDI", "opening_hours": "Sa 08:30-18:00; Su 08:30-18:00; Mo-Fr 08:30-19:00; ", "brand": "Aldi"}, "geometry": {"type": "Point", "coordinates": [115.7156, -33.28109]}},
{"type": "Feature", "id": "XpA4vW_D52o-4uTgdVGtwyfYu1o=", "properties": {"ref": "9zk4zPVkXw4xuoQPpauMqw==", "@spider": "aldi_au", "addr:street": "Cnr Bussell Hwy & West St", "addr:city": "Busselton", "addr:postcode": "6280", "name": "ALDI", "opening_hours": "Sa 08:30-19:00; Su-We 08:30-19:00; Th 08:30-20:00; Fr 08:30-19:00; ", "brand": "Aldi"}, "geometry": {"type": "Point", "coordinates": [115.34114, -33.6555]}},
{"type": "Feature", "id": "NGp2FOEVNIcFRdQ1ak9xCwbJCts=", "properties": {"ref": "Pb-hosfn07Vv4JJboUDkvg==", "@spider": "aldi_au", "addr:street": "104-108 French Street", "addr:city": "Hamilton", "addr:state": "VIC", "addr:postcode": "3300", "name": "ALDI", "opening_hours": "Su 08:30-19:00; Mo-Sa 08:30-19:00; ", "brand": "Aldi"}, "geometry": {"type": "Point", "coordinates": [142.02776, -37.74434]}},
{"type": "Feature", "id": "7Xcl5agqLcl86Sw_m1Ibf1UXjIQ=", "properties": {"ref": "VseOXmcJbLjaaxBcV_Ct8w==", "@spider": "aldi_au", "addr:street": "58-74 Commercial St East", "addr:city": "Mt Gambier", "addr:postcode": "5290", "name": "ALDI", "opening_hours": "Su 08:30-19:00; Mo-We 08:30-20:00; Th 08:30-21:00; Fr 08:30-20:00; Sa 08:00-19:00; ", "brand": "Aldi"}, "geometry": {"type": "Point", "coordinates": [140.78326, -37.8294]}},
{"type": "Feature", "id": "qjFTiEBZx1dmxc05Vn9eGNUGvZ4=", "properties": {"ref": "7L5RfbsUxGk9NJ4d3hS-Jw==", "@spider": "aldi_au", "addr:street": "65-71 Fitzroy Street", "addr:city": "Warwick", "addr:state": "QLD", "addr:postcode": "4370", "name": "ALDI", "opening_hours": "Sa 08:00-18:00; Su 09:00-18:00; Mo-We 08:30-19:00; Th 08:30-20:00; Fr 08:30-19:00; ", "brand": "Aldi"}, "geometry": {"type": "Point", "coordinates": [152.03473, -28.21373]}},
{"type": "Feature", "id": "Rdrn88cCTKrPF-lUFhqyUHYAyCg=", "properties": {"ref": "DtZlipKKFrVo9oxWZKainw==", "@spider": "aldi_au", "addr:street": "14 Guava Way", "addr:city": "Halls Head", "addr:postcode": "6210", "name": "ALDI", "opening_hours": "Sa 08:30-18:00; Su 10:00-17:00; Mo-We 08:30-18:00; Th 08:30-21:00; Fr 08:30-18:00; ", "brand": "Aldi"}, "geometry": {"type": "Point", "coordinates": [115.70342, -32.5489]}},
{"type": "Feature", "id": "wV4qz9W8JJUWIRIiQ45q52kv5VU=", "properties": {"ref": "lpqWUXlkGKuv5nWs3MJ6-w==", "@spider": "aldi_au", "addr:street": "Cnr Lock and  Davadi Street", "addr:city": "Stanthorpe", "addr:state": "QLD", "addr:postcode": "4380", "name": "ALDI", "opening_hours": "Sa 08:00-18:00; Su 09:00-18:00; Mo-Fr 08:30-19:00; ", "brand": "Aldi"}, "geometry": {"type": "Point", "coordinates": [151.93687, -28.65514]}},
{"type": "Feature", "id": "yWHLfXEknnKIXIjvrSZTbP6ucxw=", "properties": {"ref": "HBy7G63393tfRQsgxbsb3A==", "@spider": "aldi_au", "addr:street": "41-47 Moore Street", "addr:city": "Ararat", "addr:state": "VIC", "addr:postcode": "3377", "name": "ALDI", "opening_hours": "Su 08:30-19:00; Mo-Fr 08:30-20:00; Sa 08:30-19:00; ", "brand": "Aldi"}, "geometry": {"type": "Point", "coordinates": [142.93386, -37.28524]}},
{"type": "Feature", "id": "Ch9or5vj2Z2mtXsLnELNTs_J-Ok=", "properties": {"ref": "nxgbzQguR8kFrPPrI-a0EQ==", "@spider": "aldi_au", "addr:street": "67 - 73 Hamilton Street", "addr:city": "Horsham", "addr:state": "VIC", "addr:postcode": "3400", "name": "ALDI", "opening_hours": "Su 08:30-20:00; Mo-Sa 08:30-20:00; ", "brand": "Aldi"}, "geometry": {"type": "Point", "coordinates": [142.19807, -36.7182]}},
{"type": "Feature", "id": "tM4mowuQPpAYQKlRRDuUALkOp8s=", "properties": {"ref": "ByqCY3hwfyb5Bxvp92N3GQ==", "@spider": "aldi_au", "addr:street": "3 Hughes Place", "addr:city": "Port Macquarie", "addr:state": "NSW", "addr:postcode": "2444", "name": "ALDI", "opening_hours": "Su 08:30-20:00; Mo-We 08:30-20:00; Th 08:30-21:00; Fr-Sa 08:30-20:00; ", "brand": "Aldi"}, "geometry": {"type": "Point", "coordinates": [152.87952, -31.42715]}},
{"type": "Feature", "id": "EQNay90_w3B2IymP_WNV_AsURDQ=", "properties": {"ref": "5WimEEbsURBlJAaNuKQ2Xw==", "@spider": "aldi_au", "addr:street": "Shop 1 Kempsey Mall S/c", "addr:city": "Kempsey", "addr:state": "NSW", "addr:postcode": "2440", "name": "ALDI", "opening_hours": "Su 08:30-19:00; Mo-Fr 08:30-20:00; Sa 08:30-19:00; ", "brand": "Aldi"}, "geometry": {"type": "Point", "coordinates": [152.84007, -31.07984]}},
{"type": "Feature", "id": "JgBcODziK8J_dPPCWQ5UCH3COIQ=", "properties": {"ref": "O6IXQvHGOoIt0ExWNGT4aA==", "@spider": "aldi_au", "addr:street": "Cnr High St and Commerce St", "addr:city": "Taree", "addr:state": "NSW", "addr:postcode": "2430", "name": "ALDI", "opening_hours": "Su 08:30-20:00; Mo-Sa 08:30-20:00; ", "brand": "Aldi"}, "geometry": {"type": "Point", "coordinates": [152.45275, -31.91104]}},
{"type": "Feature", "id": "DDWw3Re_aqLSEGAq8B_3QqLN-_A=", "properties": {"ref": "_qznbKiQagKmQwG1nfpK-Q==", "@spider": "aldi_au", "addr:street": "141-153 Bridge Street", "addr:city": "Benalla", "addr:state": "VIC", "addr:postcode": "3672", "name": "ALDI", "opening_hours": "Su 08:30-19:00; Mo-Fr 08:30-20:00; Sa 08:30-19:00; ", "brand": "Aldi"}, "geometry": {"type": "Point", "coordinates": [145.98915, -36.54987]}},
{"type": "Feature", "id": "qsRqmWJucz0RP8Eb1VHeKMBLvA8=", "properties": {"ref": "jaVlcvGu-zbq75mdTDrV_g==", "@spider": "aldi_au", "addr:street": "54 Boles Street", "addr:city": "Gladstone", "addr:state": "QLD", "addr:postcode": "4680", "name": "ALDI", "opening_hours": "Sa 08:00-18:00; Su 09:00-18:00; Mo-Fr 08:30-20:00; ", "brand": "Aldi"}, "geometry": {"type": "Point", "coordinates": [151.25311, -23.85797]}},
{"type": "Feature", "id": "yHBTmDoLU77cFkhwv4uUXLl0IBI=", "properties": {"ref": "p7ZxWJgK-qxVFam-08YpLw==", "@spider": "aldi_au", "addr:street": "167 Gladstone Road", "addr:city": "Allenstown", "addr:state": "QLD", "addr:postcode": "4700", "name": "ALDI", "opening_hours": "Sa 08:00-18:00; Su 09:00-18:00; Mo-Fr 08:30-20:00; ", "brand": "Aldi"}, "geometry": {"type": "Point", "coordinates": [150.50636, -23.39609]}},
{"type": "Feature", "id": "fmhV_LjwNS6_KecQfXjpBXXsn-g=", "properties": {"ref": "e9eJLuegjv482DNyG7VeWg==", "@spider": "aldi_au", "addr:street": "Lot 2712 Butler Boulevard", "addr:city": "Butler", "addr:postcode": "6036", "name": "ALDI", "opening_hours": "Sa 08:30-17:00; Su 11:00-17:00; Mo-We 08:30-20:00; Th 08:30-21:00; Fr 08:30-20:00; ", "brand": "Aldi"}, "geometry": {"type": "Point", "coordinates": [115.6972, -31.63773]}},
{"type": "Feature", "id": "Q3kgUbW_TfeR8s2REvIrIcqyl2Q=", "properties": {"ref": "0W4AF-nDA4kiVhtCQludzg==", "@spider": "aldi_au", "addr:street": "22-24 Hartung Street", "addr:city": "Mundaring", "addr:postcode": "6073", "name": "ALDI", "opening_hours": "Sa 08:30-17:00; Su 11:00-17:00; Mo-We 08:30-20:00; Th 08:30-21:00; Fr 08:30-20:00; ", "brand": "Aldi"}, "geometry": {"type": "Point", "coordinates": [116.16518, -31.90024]}},
{"type": "Feature", "id": "ioBbb9EB6zsM7mjF22zgQyUtDQg=", "properties": {"ref": "5QDmQ-r6bgu9JX-k7wy6oQ==", "@spider": "aldi_au", "addr:street": "2 Kakadu Road", "addr:city": "Yanchep", "addr:postcode": "6035", "name": "ALDI", "opening_hours": "Sa 08:30-17:00; Su 11:00-17:00; Mo-Fr 08:30-19:00; ", "brand": "Aldi"}, "geometry": {"type": "Point", "coordinates": [115.6405, -31.5479]}},
{"type": "Feature", "id": "wTLDuxb1DfLmLHQ4Xu-WrwTup0E=", "properties": {"ref": "nkRqUO9k7DIJOmgBaI7rZg==", "@spider": "aldi_au", "addr:street": "201 Weyba Road", "addr:city": "Noosaville", "addr:state": "QLD", "addr:postcode": "4566", "name": "ALDI", "opening_hours": "Su 09:00-18:00; Mo-Fr 08:30-20:00; Sa 08:00-19:00; ", "brand": "Aldi"}, "geometry": {"type": "Point", "coordinates": [153.0727, -26.4046]}},
{"type": "Feature", "id": "rBnkPmMpmzfYKGnfeG2EoQJGMVg=", "properties": {"ref": "5hctILaG5k5Ov3mk_MNOJQ==", "@spider": "aldi_au", "addr:street": "43-47 Hyne Street", "addr:city": "Gympie", "addr:state": "QLD", "addr:postcode": "4570", "name": "ALDI", "opening_hours": "Sa 08:00-18:00; Su 09:00-18:00; Mo-Fr 08:30-20:00; ", "brand": "Aldi"}, "geometry": {"type": "Point", "coordinates": [152.66713, -26.20114]}},
{"type": "Feature", "id": "55jzQy5SyRhKgDgATAcjCM13o7U=", "properties": {"ref": "PtLw8lw7JS3K4KiyK3_a0A==", "@spider": "aldi_au", "addr:street": "163-169 Prince Street", "addr:city": "Grafton", "addr:state": "NSW", "addr:postcode": "2460", "name": "ALDI", "opening_hours": "Su 09:00-19:00; Mo-We 08:30-19:00; Th 08:30-20:00; Fr 08:30-19:00; Sa 08:00-19:00; ", "brand": "Aldi"}, "geometry": {"type": "Point", "coordinates": [152.9365, -29.68629]}},
{"type": "Feature", "id": "opVc1QjdnZSsXnCbxSWQxbmtwxA=", "properties": {"ref": "fdJS8blWpOiybc5a95aOgw==", "@spider": "aldi_au", "addr:street": "Shop 42, 185 Princes Hwy", "addr:city": "Narooma", "addr:state": "NSW", "addr:postcode": "2546", "name": "ALDI", "opening_hours": "Su 08:30-19:00; Mo-Sa 08:30-19:00; ", "brand": "Aldi"}, "geometry": {"type": "Point", "coordinates": [150.12757, -36.22314]}},
{"type": "Feature", "id": "aKDYkldulh6NyhGlCkBvzo5KlzQ=", "properties": {"ref": "FjdOsUA2i2WU6onZ_FNs5Q==", "@spider": "aldi_au", "addr:street": "Cnr Vesper St & Beach Rd", "addr:city": "Batemans Bay", "addr:state": "NSW", "addr:postcode": "2536", "name": "ALDI", "opening_hours": "Su 08:30-19:00; Mo-We 08:30-19:00; Th-Fr 08:30-20:00; Sa 08:30-19:00; ", "brand": "Aldi"}, "geometry": {"type": "Point", "coordinates": [150.17778, -35.71]}},
{"type": "Feature", "id": "hbb4V4nRwuZiG3B-BoRFqV8eJnU=", "properties": {"ref": "wJZoTE8T5roC4EJA1_i-iw==", "@spider": "aldi_au", "addr:street": "18 Hilton Street", "addr:city": "Cooma", "addr:state": "NSW", "addr:postcode": "2630", "name": "ALDI", "opening_hours": "Su 08:30-19:00; Mo-Sa 08:30-19:00; ", "brand": "Aldi"}, "geometry": {"type": "Point", "coordinates": [149.13499, -36.23077]}},
{"type": "Feature", "id": "eY87sD46kzLxU90W6ul1B1VYijk=", "properties": {"ref": "5YFWL3DTFUP-ifPdubMwyw==", "@spider": "aldi_au", "addr:street": "699 Bargara Road", "addr:city": "Bargara", "addr:state": "QLD", "addr:postcode": "4670", "name": "ALDI", "opening_hours": "Sa 08:00-18:00; Su 09:00-18:00; Mo-Fr 08:30-19:00; ", "brand": "Aldi"}, "geometry": {"type": "Point", "coordinates": [152.45565, -24.81804]}},
{"type": "Feature", "id": "1Pt9dUQhYQ7EfHP0xWKQBgpG6Vo=", "properties": {"ref": "bHqRpMCsvj2-7v9jtEDzGQ==", "@spider": "aldi_au", "addr:street": "340 Alice Street", "addr:city": "Maryborough", "addr:state": "QLD", "addr:postcode": "4650", "name": "ALDI", "opening_hours": "Sa 08:00-18:00; Su 09:00-18:00; Mo-Fr 08:30-20:00; ", "brand": "Aldi"}, "geometry": {"type": "Point", "coordinates": [152.69453, -25.53767]}},
{"type": "Feature", "id": "TMEEl2soXhRgA7htnyFjmkA2iaY=", "properties": {"ref": "XlPwGAt-O2-kp88ZmYEzcg==", "@spider": "aldi_au", "addr:street": "8 Moona Creek Road", "addr:city": "Vincentia", "addr:state": "NSW", "addr:postcode": "2540", "name": "ALDI", "opening_hours": "Su 08:30-19:00; Mo-Sa 08:30-19:00; ", "brand": "Aldi"}, "geometry": {"type": "Point", "coordinates": [150.65679, -35.07528]}},
{"type": "Feature", "id": "w7edkEQ_nkrCDEEgR9y2S5Ix4Go=", "properties": {"ref": "KIGHOwqUPHvZ271FOQw5GQ==", "@spider": "aldi_au", "addr:street": "23 Boree Street", "addr:city": "Ulladulla", "addr:state": "NSW", "addr:postcode": "2539", "name": "ALDI", "opening_hours": "Su 08:30-19:00; Mo-Fr 08:30-20:00; Sa 08:30-19:00; ", "brand": "Aldi"}, "geometry": {"type": "Point", "coordinates": [150.47179, -35.35972]}},
{"type": "Feature", "id": "BNIVpuRxMFG2SKp7Pe0tlDfuzm4=", "properties": {"ref": "_Qx8thiYK2vZa0mLtaaOJw==", "@spider": "aldi_au", "addr:street": "10 Beamish Avenue", "addr:city": "Northam", "addr:state": "WA", "addr:postcode": "6401", "name": "ALDI", "opening_hours": "Sa 08:30-17:00; Su 08:30-17:00; Mo-Fr 08:30-19:00; ", "brand": "Aldi"}, "geometry": {"type": "Point", "coordinates": [116.67049, -31.65778]}},
{"type": "Feature", "id": "OuUYyQQAP13LIMx-Obm5fy_td9U=", "properties": {"ref": "otn9upr-pCv7-4udCnR8QQ==", "@spider": "aldi_au", "addr:street": "13 - 15 Chisholm Street", "addr:city": "Wangaratta", "addr:state": "VIC", "addr:postcode": "3677", "name": "ALDI", "opening_hours": "Su 08:30-20:00; Mo-Sa 08:30-20:00; ", "brand": "Aldi"}, "geometry": {"type": "Point", "coordinates": [146.32803, -36.35665]}},
{"type": "Feature", "id": "WRc9p0mPH0FSkHNLqbwiEYVijVY=", "properties": {"ref": "t-l1kZldA3RxOwo5ZP88Rg==", "@spider": "aldi_au", "addr:street": "12 Pioneer Street", "addr:city": "Amaroo", "addr:state": "ACT", "addr:postcode": "2914", "name": "ALDI", "opening_hours": "Su 08:30-20:00; Mo-Sa 08:30-20:00; ", "brand": "Aldi"}, "geometry": {"type": "Point", "coordinates": [149.1325, -35.16516]}},
{"type": "Feature", "id": "aExP1PR5w76RxEHAy5tFuz1zaNw=", "properties": {"ref": "s6NrSDqZCbVSPZBxQQyEvw==", "@spider": "aldi_au", "addr:street": "9-13 Clinton Lane", "addr:city": "Goulburn", "addr:state": "NSW", "addr:postcode": "2580", "name": "ALDI", "opening_hours": "Su 08:30-20:00; Mo-Sa 08:30-20:00; ", "brand": "Aldi"}, "geometry": {"type": "Point", "coordinates": [149.71618, -34.75807]}},
{"type": "Feature", "id": "WPxUWQwHGcvBf21AZwSINm48A2Q=", "properties": {"ref": "kRT0ZTh4mRUPZhJduaxifg==", "@spider": "aldi_au", "addr:street": "Acacia Avenue", "addr:city": "Leeton", "addr:state": "NSW", "addr:postcode": "2705", "name": "ALDI", "opening_hours": "Su 08:30-19:00; Mo-Sa 08:30-19:00; ", "brand": "Aldi"}, "geometry": {"type": "Point", "coordinates": [146.39765, -34.55172]}},
{"type": "Feature", "id": "JzdqkLK6FmN_tpjkfXlTFBrZaww=", "properties": {"ref": "U2NFw1eu_JPJbUg1uqx0bg==", "@spider": "aldi_au", "addr:street": "193 Comur Street", "addr:city": "Yass", "addr:state": "NSW", "addr:postcode": "2582", "name": "ALDI", "opening_hours": "Su 08:30-19:00; Mo-Sa 08:30-19:00; ", "brand": "Aldi"}, "geometry": {"type": "Point", "coordinates": [148.91315, -34.8443]}},
{"type": "Feature", "id": "91fxnFq9e7oGJztztxLHUfdFXP8=", "properties": {"ref": "v85kkc_xOEb7_ln-C4OwTA==", "@spider": "aldi_au", "addr:street": "11 Zouch St & 32 Edwards St", "addr:city": "Young", "addr:state": "NSW", "addr:postcode": "2594", "name": "ALDI", "opening_hours": "Su 08:30-19:00; Mo-Fr 08:30-20:00; Sa 08:30-19:00; ", "brand": "Aldi"}, "geometry": {"type": "Point", "coordinates": [148.3012, -34.3105]}},
{"type": "Feature", "id": "ZPS1K5tKTki8K35w6dhXgOQ5RSE=", "properties": {"ref": "Mb4GP3BXY11qU-ilXSWxuw==", "@spider": "aldi_au", "addr:street": "112 - 126 Gap Road", "addr:city": "Sunbury", "addr:state": "VIC", "addr:postcode": "3429", "name": "ALDI", "opening_hours": "Su 08:30-20:00; Mo-Sa 08:30-20:00; ", "brand": "Aldi"}, "geometry": {"type": "Point", "coordinates": [144.70444, -37.57778]}},
{"type": "Feature", "id": "v_f4gv86RVuZRRcmOwXTFjnHwOU=", "properties": {"ref": "uMGoxcHnnnXL2QDYPiZHzg==", "@spider": "aldi_au", "addr:street": "394 - 406 High Street", "addr:city": "Melton", "addr:state": "VIC", "addr:postcode": "3337", "name": "ALDI", "opening_hours": "Su 08:30-20:00; Mo-Sa 08:30-20:00; ", "brand": "Aldi"}, "geometry": {"type": "Point", "coordinates": [144.57917, -37.68345]}},
{"type": "Feature", "id": "s9HX82zHmVlZpz0rtOwo2amw_d4=", "properties": {"ref": "6drGyqVzgUdLsy0jIKe69Q==", "@spider": "aldi_au", "addr:street": "533 High St, Woodgrove S/C", "addr:city": "Melton West", "addr:state": "VIC", "addr:postcode": "3337", "name": "ALDI", "opening_hours": "Su 08:30-20:00; Mo-Sa 08:30-20:00; ", "brand": "Aldi"}, "geometry": {"type": "Point", "coordinates": [144.56555, -37.6851]}},
{"type": "Feature", "id": "ETNZlBTSzW02NQZ49MUnTMDCvbI=", "properties": {"ref": "ok96PV4tcACElCsJvpDKxg==", "@spider": "aldi_au", "addr:street": "396-420 Raymond Street", "addr:city": "Sale", "addr:state": "VIC", "addr:postcode": "3850", "name": "ALDI", "opening_hours": "Su 08:30-19:00; Mo-Fr 08:30-20:00; Sa 08:30-19:00; ", "brand": "Aldi"}, "geometry": {"type": "Point", "coordinates": [147.06573, -38.10382]}},
{"type": "Feature", "id": "iEj2LAQfm5MB2fB0mvC6rW5jJwg=", "properties": {"ref": "FcPp_ZfxflnyMwHYJDqQ2w==", "@spider": "aldi_au", "addr:street": "90-120 Nicholson Street", "addr:city": "Bairnsdale", "addr:state": "VIC", "addr:postcode": "3875", "name": "ALDI", "opening_hours": "Su 08:30-19:00; Mo-Fr 08:30-20:00; Sa 08:30-19:00; ", "brand": "Aldi"}, "geometry": {"type": "Point", "coordinates": [147.628, -37.82469]}},
{"type": "Feature", "id": "se6nvy_EsOquD3zING7KGjyD0FE=", "properties": {"ref": "_LAHHrgjhdVxfypmrtPmig==", "@spider": "aldi_au", "addr:street": "127 Evans St", "addr:city": "Toukley", "addr:state": "NSW", "addr:postcode": "2263", "name": "ALDI", "opening_hours": "Su 08:30-20:00; Mo-Sa 08:30-20:00; ", "brand": "Aldi"}, "geometry": {"type": "Point", "coordinates": [151.55002, -33.26622]}},
{"type": "Feature", "id": "y6md0Ek3zyxuZyovFmTJY8_1iew=", "properties": {"ref": "30p0SK9OO_Wz3jyqHnmC9g==", "@spider": "aldi_au", "addr:street": "120 Nepean Highway", "addr:city": "Dromana", "addr:state": "VIC", "addr:postcode": "3936", "name": "ALDI", "opening_hours": "Su 08:30-20:00; Mo-Sa 08:30-20:00; ", "brand": "Aldi"}, "geometry": {"type": "Point", "coordinates": [144.98769, -38.33]}},
{"type": "Feature", "id": "youcw7p0BOIwpE2KT01RKrvFA7I=", "properties": {"ref": "vlJqTPiaQLi6OWXIJFRL3Q==", "@spider": "aldi_au", "addr:street": "90 City Road", "addr:city": "Beenleigh", "addr:state": "QLD", "addr:postcode": "4207", "name": "ALDI", "opening_hours": "Sa 08:00-19:00; Su 09:00-18:00; Mo-Fr 08:30-20:00; ", "brand": "Aldi"}, "geometry": {"type": "Point", "coordinates": [153.20252, -27.71469]}},
{"type": "Feature", "id": "bxm-uLBc1TfIYT-v8QuORCQ51cc=", "properties": {"ref": "6ZhCDqmsmQnNgUvd46abzw==", "@spider": "aldi_au", "addr:street": "139 Centre Street", "addr:city": "Casino", "addr:state": "NSW", "addr:postcode": "2470", "name": "ALDI", "opening_hours": "Su 09:00-19:00; Mo-Fr 08:30-19:00; Sa 08:00-19:00; ", "brand": "Aldi"}, "geometry": {"type": "Point", "coordinates": [153.04586, -28.86555]}},
{"type": "Feature", "id": "vumUsi9b8JwyVlLluSp5H_dG9p8=", "properties": {"ref": "v_NIR6C8kIII480yQXU1yQ==", "@spider": "aldi_au", "addr:street": "44 Ballina Road", "addr:city": "Lismore", "addr:state": "NSW", "addr:postcode": "2480", "name": "ALDI", "opening_hours": "Su 09:00-19:00; Mo-Fr 08:30-20:00; Sa 08:00-19:00; ", "brand": "Aldi"}, "geometry": {"type": "Point", "coordinates": [153.27936, -28.81361]}},
{"type": "Feature", "id": "zF7CMJx5-Rm_pxaeMOIWwx2Sq4k=", "properties": {"ref": "eTPIVPedDpUfmQHihN2INw==", "@spider": "aldi_au", "addr:street": "15 Simeoni Drive", "addr:city": "Goonellabah", "addr:state": "NSW", "addr:postcode": "2480", "name": "ALDI", "opening_hours": "Su 09:00-19:00; Mo-We 08:30-19:00; Th 08:30-20:00; Fr 08:30-19:00; Sa 08:00-19:00; ", "brand": "Aldi"}, "geometry": {"type": "Point", "coordinates": [153.32672, -28.8212]}},
{"type": "Feature", "id": "KTOlK39bSTrxZEqXjNw09tHaEtY=", "properties": {"ref": "tlPf-tUiLUKLyD49tOs2PQ==", "@spider": "aldi_au", "addr:street": "7 Ballantine Street", "addr:city": "Gatton", "addr:state": "QLD", "addr:postcode": "4343", "name": "ALDI", "opening_hours": "Sa 08:00-19:00; Su 09:00-18:00; Mo-We 08:30-19:00; Th 08:30-20:00; Fr 08:30-19:00; ", "brand": "Aldi"}, "geometry": {"type": "Point", "coordinates": [152.28085, -27.55718]}},
{"type": "Feature", "id": "RYCn3MQ_sbxFLQLofvGFNeo6YhY=", "properties": {"ref": "R7K0Hqu74Lkxn75vhpq_3w==", "@spider": "aldi_au", "addr:street": "2 Endeavour Way", "addr:city": "Plainland", "addr:state": "QLD", "addr:postcode": "4341", "name": "ALDI", "opening_hours": "Sa 08:00-19:00; Su 09:00-18:00; Mo-We 08:30-19:00; Th 08:30-20:00; Fr 08:30-19:00; ", "brand": "Aldi"}, "geometry": {"type": "Point", "coordinates": [152.42401, -27.5622]}},
{"type": "Feature", "id": "MhfWpwL3nH-ki7Dd1KdzLKjdqaE=", "properties": {"ref": "IgE_IQVPTgLoTZ25i_50hg==", "@spider": "aldi_au", "addr:street": "405 Logan Road", "addr:city": "Stones Corner", "addr:state": "QLD", "addr:postcode": "4120", "name": "ALDI", "opening_hours": "Sa 08:00-19:00; Su 09:00-18:00; Mo-Fr 08:30-20:00; ", "brand": "Aldi"}, "geometry": {"type": "Point", "coordinates": [153.04457, -27.50023]}},
{"type": "Feature", "id": "lkSAecGZf1nv4wXrBsPtrmWyBSE=", "properties": {"ref": "dwlN5rfhcElIyltyiEgxXQ==", "@spider": "aldi_au", "addr:street": "22 South Station Road", "addr:city": "Booval", "addr:state": "QLD", "addr:postcode": "4304", "name": "ALDI", "opening_hours": "Sa 08:00-19:00; Su 09:00-18:00; Mo-Fr 08:30-20:00; ", "brand": "Aldi"}, "geometry": {"type": "Point", "coordinates": [152.78979, -27.61113]}},
{"type": "Feature", "id": "EZ30lewzu3bjFxi7gAhbk-_tXVU=", "properties": {"ref": "XO9QBVzl50xXS5uO2r9kaQ==", "@spider": "aldi_au", "addr:street": "48 North Lakes Drive", "addr:city": "North Lakes", "addr:state": "QLD", "addr:postcode": "4509", "name": "ALDI", "opening_hours": "Sa 08:00-19:00; Su 09:00-18:00; Mo-Fr 08:30-20:00; ", "brand": "Aldi"}, "geometry": {"type": "Point", "coordinates": [153.01486, -27.23953]}},
{"type": "Feature", "id": "DDKDXij4q_GR7_j7v4GkQpGvkCk=", "properties": {"ref": "V_xZ_UvryqUeCyJnW3TNjA==", "@spider": "aldi_au", "addr:street": "Westfield North Lakes Drive", "addr:city": "North Lakes Westfield", "addr:state": "QLD", "addr:postcode": "4509", "name": "ALDI", "opening_hours": "Sa 08:00-19:00; Su 09:00-18:00; Mo-We 08:30-20:00; Th 08:30-21:00; Fr 08:30-20:00; ", "brand": "Aldi"}, "geometry": {"type": "Point", "coordinates": [153.01773, -27.24244]}},
{"type": "Feature", "id": "59oO_a_SYn0ZpyKzXvVK2O-f9ok=", "properties": {"ref": "aBo1xj5M-Xgor0vOpLjEKQ==", "@spider": "aldi_au", "addr:street": "1-7 Parrot Street", "addr:city": "Harlaxton", "addr:state": "QLD", "addr:postcode": "4350", "name": "ALDI", "opening_hours": "Sa 08:00-18:00; Su 09:00-18:00; Mo-Fr 08:30-20:00; ", "brand": "Aldi"}, "geometry": {"type": "Point", "coordinates": [151.95217, -27.54072]}},
{"type": "Feature", "id": "yzktcl9NJXIWbnivvyz4zozLQKo=", "properties": {"ref": "R5sIDiIh3DrA2cvEYBAhmA==", "@spider": "aldi_au", "addr:street": "546 Bridge Street", "addr:city": "Torrington", "addr:state": "QLD", "addr:postcode": "4350", "name": "ALDI", "opening_hours": "Sa 08:00-18:00; Su 09:00-18:00; Mo-Fr 08:30-20:00; ", "brand": "Aldi"}, "geometry": {"type": "Point", "coordinates": [151.90461, -27.53596]}},
{"type": "Feature", "id": "cMNgUNCceaToDcfngMkB2jFt1ts=", "properties": {"ref": "b6h0aZnyz4kOxet58n9GIg==", "@spider": "aldi_au", "addr:street": "Cnr Hume and Stenner Street", "addr:city": "Kearneys Spring", "addr:state": "QLD", "addr:postcode": "4350", "name": "ALDI", "opening_hours": "Sa 08:00-18:00; Su 09:00-18:00; Mo-Fr 08:30-20:00; ", "brand": "Aldi"}, "geometry": {"type": "Point", "coordinates": [151.95131, -27.59373]}},
{"type": "Feature", "id": "Rx3V82rIDUNn-J5I74bf1gDvTdE=", "properties": {"ref": "KUEuI7qjdA-lCf3jbq7PqA==", "@spider": "aldi_au", "addr:street": "73 Highfields Road", "addr:city": "Highfields", "addr:state": "QLD", "addr:postcode": "4352", "name": "ALDI", "opening_hours": "Sa 08:00-18:00; Su 09:00-18:00; Mo 08:30-20:00; Tu-We 08:30-19:00; Th 08:30-20:00; Fr 08:30-19:00; ", "brand": "Aldi"}, "geometry": {"type": "Point", "coordinates": [151.94332, -27.45223]}},
{"type": "Feature", "id": "rTpuqNqzZjdUvpsWs-tvkwR9kCI=", "properties": {"ref": "odmsxwSOfppHer2UpLDiUA==", "@spider": "aldi_au", "addr:street": "180 Fairfield Road", "addr:city": "Fairfield Gardens", "addr:state": "QLD", "addr:postcode": "4103", "name": "ALDI", "opening_hours": "Sa 08:00-20:00; Su 09:00-18:00; Mo-Fr 08:30-20:00; ", "brand": "Aldi"}, "geometry": {"type": "Point", "coordinates": [153.0242, -27.50924]}},
{"type": "Feature", "id": "mZUa7MwqHbELmQGPADTmpvKhwps=", "properties": {"ref": "ioPaAmB3lKy_TR8t6ta3bw==", "@spider": "aldi_au", "addr:street": "271 Orange Grove Road", "addr:city": "Salisbury", "addr:state": "QLD", "addr:postcode": "4107", "name": "ALDI", "opening_hours": "Sa 08:00-20:00; Su 09:00-18:00; Mo-We 08:30-20:00; Th 08:30-21:00; Fr 08:30-20:00; ", "brand": "Aldi"}, "geometry": {"type": "Point", "coordinates": [153.04094, -27.55752]}},
{"type": "Feature", "id": "ttdoIaNptc4Ib1pIyOkDJF9Mz9E=", "properties": {"ref": "L2-YoEUBLgoxtAeegUfn6w==", "@spider": "aldi_au", "addr:street": "Cnr Pine St & The Terrace", "addr:city": "North Ipswich", "addr:state": "QLD", "addr:postcode": "4305", "name": "ALDI", "opening_hours": "Sa 08:00-19:00; Su 09:00-18:00; Mo-We 08:30-19:00; Th 08:30-20:00; Fr 08:30-19:00; ", "brand": "Aldi"}, "geometry": {"type": "Point", "coordinates": [152.7608, -27.60949]}},
{"type": "Feature", "id": "rbjbYX4U5coxUlJcpMJsHwjMw7M=", "properties": {"ref": "hb01Jxcr0iukqozP3UVImQ==", "@spider": "aldi_au", "addr:street": "Cnr Argyle/Redbank Plain Rd", "addr:city": "Redbank Plains", "addr:state": "QLD", "addr:postcode": "4301", "name": "ALDI", "opening_hours": "Sa 08:00-19:00; Su 09:00-18:00; Mo-Fr 08:30-20:00; ", "brand": "Aldi"}, "geometry": {"type": "Point", "coordinates": [152.86984, -27.6449]}},
{"type": "Feature", "id": "SFXof7dPp8WBtdtukAgPU2WTFnU=", "properties": {"ref": "JriD771_SwG14unesvq_ww==", "@spider": "aldi_au", "addr:street": "149 West Burleigh Road", "addr:city": "Burleigh Heads", "addr:state": "QLD", "addr:postcode": "4220", "name": "ALDI", "opening_hours": "Sa 08:00-19:00; Su 09:00-18:00; Mo-We 08:30-19:00; Th 08:30-20:00; Fr 08:30-19:00; ", "brand": "Aldi"}, "geometry": {"type": "Point", "coordinates": [153.4413, -28.09669]}},
{"type": "Feature", "id": "0G-ND_CKQFqxmBMaXDRYX1D5Ej4=", "properties": {"ref": "ud72X885qCz_-ExHogm5YQ==", "@spider": "aldi_au", "addr:street": "2023-2031 Gold Coast Hwy", "addr:city": "Miami", "addr:state": "QLD", "addr:postcode": "4220", "name": "ALDI", "opening_hours": "Sa 08:00-19:00; Su 09:00-18:00; Mo-Fr 08:30-20:00; ", "brand": "Aldi"}, "geometry": {"type": "Point", "coordinates": [153.44497, -28.07354]}},
{"type": "Feature", "id": "Jwxqd3DSdMEV_s5W2jP355IkpcA=", "properties": {"ref": "hUP-whr634swZZBoRADlZg==", "@spider": "aldi_au", "addr:street": "1-29 Millaroo Drive", "addr:city": "Helensvale", "addr:state": "QLD", "addr:postcode": "4212", "name": "ALDI", "opening_hours": "Sa 08:00-19:00; Su 09:00-18:00; Mo-We 08:30-20:00; Th 08:30-21:00; Fr 08:30-20:00; ", "brand": "Aldi"}, "geometry": {"type": "Point", "coordinates": [153.33661, -27.92602]}},
{"type": "Feature", "id": "Ho7Za2IN7OONWBDKkHYIrCkL3Fs=", "properties": {"ref": "SBFyDsnLC0syUODlKHigyQ==", "@spider": "aldi_au", "addr:street": "15-27 Goodfellows Road", "addr:city": "Kallangur", "addr:state": "QLD", "addr:postcode": "4503", "name": "ALDI", "opening_hours": "Sa 08:00-19:00; Su 09:00-18:00; Mo-Fr 08:30-20:00; ", "brand": "Aldi"}, "geometry": {"type": "Point", "coordinates": [152.99434, -27.25229]}},
{"type": "Feature", "id": "DR39dAcyW2aBPFyS-5fXQAnHUDA=", "properties": {"ref": "G68mddUWEVgdPDCILAdG0Q==", "@spider": "aldi_au", "addr:street": "424-438 Deception Bay Road", "addr:city": "Deception Bay", "addr:state": "QLD", "addr:postcode": "4508", "name": "ALDI", "opening_hours": "Sa 08:00-19:00; Su 09:00-18:00; Mo-Fr 08:30-20:00; ", "brand": "Aldi"}, "geometry": {"type": "Point", "coordinates": [153.02286, -27.19176]}},
{"type": "Feature", "id": "Um-f8lSpLW-p-uEIn-BJvjs5JTU=", "properties": {"ref": "TtFlVog6pSxIDkUaQqeudg==", "@spider": "aldi_au", "addr:street": "10-22 Hornibrook Esplanade", "addr:city": "Clontarf", "addr:state": "QLD", "addr:postcode": "4019", "name": "ALDI", "opening_hours": "Sa 08:00-19:00; Su 09:00-18:00; Mo-Fr 08:30-20:00; ", "brand": "Aldi"}, "geometry": {"type": "Point", "coordinates": [153.08056, -27.26045]}},
{"type": "Feature", "id": "9evP6KYnyhWHOP3sLziyI9GMTq0=", "properties": {"ref": "FW66tP80owc2WAzoH3icLA==", "@spider": "aldi_au", "addr:street": "212 Anzac Avenue", "addr:city": "Kippa Ring", "addr:state": "QLD", "addr:postcode": "4021", "name": "ALDI", "opening_hours": "Sa 08:00-19:00; Su 09:00-18:00; Mo-Fr 08:30-20:00; ", "brand": "Aldi"}, "geometry": {"type": "Point", "coordinates": [153.093, -27.22692]}},
{"type": "Feature", "id": "vMgVeGnBMXigwc9WKyzmCNxzHvo=", "properties": {"ref": "epeMkra4o-zdVuOes2uKCA==", "@spider": "aldi_au", "addr:street": "97 - 101 McLennan Street", "addr:city": "Mooroopna", "addr:state": "VIC", "addr:postcode": "3629", "name": "ALDI", "opening_hours": "Su 08:30-19:00; Mo-Fr 08:30-20:00; Sa 08:30-19:00; ", "brand": "Aldi"}, "geometry": {"type": "Point", "coordinates": [145.35804, -36.39538]}},
{"type": "Feature", "id": "ej9_7yOoIzUwkjoj32yTUsBBmv8=", "properties": {"ref": "Hw4EHS3SHvQ5-uspme0-3g==", "@spider": "aldi_au", "addr:street": "428 Wyndham Street", "addr:city": "Shepparton", "addr:state": "VIC", "addr:postcode": "3630", "name": "ALDI", "opening_hours": "Su 08:30-20:00; Mo-Sa 08:30-20:00; ", "brand": "Aldi"}, "geometry": {"type": "Point", "coordinates": [145.39847, -36.38345]}},
{"type": "Feature", "id": "oCL8k3J6FNvdbOcCVgsnDXlN7T0=", "properties": {"ref": "lYITgsyzUxsgKmpBaB6Fow==", "@spider": "aldi_au", "addr:street": "2 Baldwin Street", "addr:city": "Caloundra", "addr:state": "QLD", "addr:postcode": "4551", "name": "ALDI", "opening_hours": "Sa 08:00-19:00; Su 09:00-18:00; Mo-Fr 08:30-20:00; ", "brand": "Aldi"}, "geometry": {"type": "Point", "coordinates": [153.11951, -26.80383]}},
{"type": "Feature", "id": "nkSP-c6N7o2W5nuOWFjY6M6NKYw=", "properties": {"ref": "9hzATc3Np1oIJcz8fvr8-g==", "@spider": "aldi_au", "addr:street": "238 Parklands Boulevard", "addr:city": "Meridan Plains", "addr:state": "QLD", "addr:postcode": "4551", "name": "ALDI", "opening_hours": "Sa 08:00-19:00; Su 09:00-18:00; Mo-Fr 08:30-20:00; ", "brand": "Aldi"}, "geometry": {"type": "Point", "coordinates": [153.10654, -26.77247]}},
{"type": "Feature", "id": "7X2pU-Abfyo7nBvrAy3AhjHE-NM=", "properties": {"ref": "DSYcKR9PR4M5qgPw3dm98A==", "@spider": "aldi_au", "addr:street": "20 Flinders Lane", "addr:city": "Sunshine Cove", "addr:state": "QLD", "addr:postcode": "4558", "name": "ALDI", "opening_hours": "Sa 08:00-19:00; Su 09:00-18:00; Mo-Fr 08:30-20:00; ", "brand": "Aldi"}, "geometry": {"type": "Point", "coordinates": [153.0823, -26.66103]}},
{"type": "Feature", "id": "DIxYTptIVoTWiqnzdQ943keEBEo=", "properties": {"ref": "ulo3uGvRT4g7x4f-fVpbxQ==", "@spider": "aldi_au", "addr:street": "300 Old Cleveland Road", "addr:city": "Coorparoo", "addr:state": "QLD", "addr:postcode": "4151", "name": "ALDI", "opening_hours": "Sa 08:00-20:00; Su 09:00-18:00; Mo-Fr 08:30-20:00; ", "brand": "Aldi"}, "geometry": {"type": "Point", "coordinates": [153.0585, -27.4946]}},
{"type": "Feature", "id": "ukPqldgUIiGjJQ-6sUHePVRYJX8=", "properties": {"ref": "e8YbTDtGMJmSydZ7BZ4hQg==", "@spider": "aldi_au", "addr:street": "131 Westfield Road", "addr:city": "Camillo", "addr:postcode": "6111", "name": "ALDI", "opening_hours": "Sa 08:30-17:00; Su 11:00-17:00; Mo-Fr 08:30-20:00; ", "brand": "Aldi"}, "geometry": {"type": "Point", "coordinates": [116.002, -32.11939]}},
{"type": "Feature", "id": "oQiJDLozEjTwIe6N2AFExMMHmOo=", "properties": {"ref": "_EA8SlFQbV6RJMun5kc3Nw==", "@spider": "aldi_au", "addr:street": "115 Murdoch Road", "addr:city": "Thornlie", "addr:postcode": "6108", "name": "ALDI", "opening_hours": "Sa 08:30-17:00; Su 11:00-17:00; Mo-We 08:30-20:00; Th 08:30-21:00; Fr 08:30-20:00; ", "brand": "Aldi"}, "geometry": {"type": "Point", "coordinates": [115.94999, -32.06869]}},
{"type": "Feature", "id": "bAAFjJmL6euhoeSb3wARPjhs3FA=", "properties": {"ref": "whju-BrWy9rdvPZeofbsKw==", "@spider": "aldi_au", "addr:street": "1 Collingwood Drive", "addr:city": "Redbank", "addr:state": "QLD", "addr:postcode": "4031", "name": "ALDI", "opening_hours": "Sa 08:00-19:00; Su 09:00-18:00; Mo-Fr 08:30-20:00; ", "brand": "Aldi"}, "geometry": {"type": "Point", "coordinates": [152.8678, -27.60547]}},
{"type": "Feature", "id": "0OSAEr9JocOMlzokVav6pNJWZBM=", "properties": {"ref": "2z0dce350XiKrKxvmRmjjQ==", "@spider": "aldi_au", "addr:street": "68 Hunter Street", "addr:city": "Brassall", "addr:state": "QLD", "addr:postcode": "4305", "name": "ALDI", "opening_hours": "Sa 08:00-19:00; Su 09:00-18:00; Mo-Fr 08:30-20:00; ", "brand": "Aldi"}, "geometry": {"type": "Point", "coordinates": [152.7471, -27.59694]}},
{"type": "Feature", "id": "O0VWqy7Nkdot0lGfXCcGWowh81g=", "properties": {"ref": "bGSPAhPSlMiXzp-e9JdShA==", "@spider": "aldi_au", "addr:street": "475-481 Warwick Road", "addr:city": "Yamanto", "addr:state": "QLD", "addr:postcode": "4305", "name": "ALDI", "opening_hours": "Sa 08:00-19:00; Su 09:00-18:00; Mo-Fr 08:30-20:00; ", "brand": "Aldi"}, "geometry": {"type": "Point", "coordinates": [152.74163, -27.65827]}},
{"type": "Feature", "id": "s3T9nx-3DbREENRilNymNyqQOao=", "properties": {"ref": "_x4c9KDYVELtK80HYCZkCw==", "@spider": "aldi_au", "addr:street": "1 South Bay Drive", "addr:city": "Varsity Lakes", "addr:state": "QLD", "addr:postcode": "4227", "name": "ALDI", "opening_hours": "Sa 08:00-19:00; Su 09:00-18:00; Mo-Fr 08:30-20:00; ", "brand": "Aldi"}, "geometry": {"type": "Point", "coordinates": [153.40909, -28.08547]}},
{"type": "Feature", "id": "9PB9XpAf1IVDedlAHtm3FNJO1qk=", "properties": {"ref": "zAABjkcAp9cmXkOlhMAW1Q==", "@spider": "aldi_au", "addr:street": "30 Guineas Creek Rd", "addr:city": "Elanora", "addr:state": "QLD", "addr:postcode": "4221", "name": "ALDI", "opening_hours": "Sa 08:00-19:00; Su 09:00-18:00; Mo-We 08:30-20:00; Th 08:30-21:00; Fr 08:30-20:00; ", "brand": "Aldi"}, "geometry": {"type": "Point", "coordinates": [153.46768, -28.13426]}},
{"type": "Feature", "id": "lHGCx_Ln17DuKTvA5gyhsru1vEE=", "properties": {"ref": "81E4BOFVV9n6NCYE9UXAYA==", "@spider": "aldi_au", "addr:street": "99-103 Broadwater Avenue", "addr:city": "Hope Island", "addr:state": "QLD", "addr:postcode": "4212", "name": "ALDI", "opening_hours": "Sa 08:00-19:00; Su 09:00-18:00; Mo-We 08:30-19:00; Th-Fr 08:30-20:00; ", "brand": "Aldi"}, "geometry": {"type": "Point", "coordinates": [153.36396, -27.87731]}},
{"type": "Feature", "id": "hcwmJ1zSXoRouxG2tJBRPYp-GxQ=", "properties": {"ref": "2HCH9xnM_pRh_zly0vRPeg==", "@spider": "aldi_au", "addr:street": "10-12 Lae Drive", "addr:city": "Runaway Bay", "addr:state": "QLD", "addr:postcode": "4216", "name": "ALDI", "opening_hours": "Sa 08:00-19:00; Su 09:00-18:00; Mo-Fr 08:30-20:00; ", "brand": "Aldi"}, "geometry": {"type": "Point", "coordinates": [153.40117, -27.91389]}},
{"type": "Feature", "id": "nxBZaqozqpGopAxyitc3ycqeIwk=", "properties": {"ref": "21md-XKcKqyWn6B9sfbK4A==", "@spider": "aldi_au", "addr:street": "2 Global Plaza", "addr:city": "Oxenford", "addr:state": "QLD", "addr:postcode": "4210", "name": "ALDI", "opening_hours": "Sa 08:00-19:00; Su 09:00-18:00; Mo-Fr 08:30-20:00; ", "brand": "Aldi"}, "geometry": {"type": "Point", "coordinates": [153.31322, -27.88902]}},
{"type": "Feature", "id": "CG-HDQ6tjo8brTGLJEvooHFo4qA=", "properties": {"ref": "pY5XUAVOJnqcRfJjOgO9Dw==", "@spider": "aldi_au", "addr:street": "147 Central Street", "addr:city": "Labrador", "addr:state": "QLD", "addr:postcode": "4215", "name": "ALDI", "opening_hours": "Sa 08:00-19:00; Su 09:00-18:00; Mo-Fr 08:30-20:00; ", "brand": "Aldi"}, "geometry": {"type": "Point", "coordinates": [153.39546, -27.94686]}},
{"type": "Feature", "id": "_vMV9BaEsXQ-R_iq01O9_x7HtYY=", "properties": {"ref": "kJ77QrXhL8Bn3xT0b9qTQg==", "@spider": "aldi_au", "addr:street": "562 Olsen Avenue", "addr:city": "Molendinar", "addr:state": "QLD", "addr:postcode": "4214", "name": "ALDI", "opening_hours": "Sa 08:00-19:00; Su 09:00-18:00; Mo-Fr 08:30-20:00; ", "brand": "Aldi"}, "geometry": {"type": "Point", "coordinates": [153.38, -27.97602]}},
{"type": "Feature", "id": "6PlbFw6QwG2Vl5fAQh1o9WlYrgc=", "properties": {"ref": "XzRKTBDqGp3UTjnvjHh6-g==", "@spider": "aldi_au", "addr:street": "295 Gympie Road", "addr:city": "Strathpine", "addr:state": "QLD", "addr:postcode": "4500", "name": "ALDI", "opening_hours": "Sa 08:00-19:00; Su 09:00-18:00; Mo-We 08:30-20:00; Th 08:30-21:00; Fr 08:30-20:00; ", "brand": "Aldi"}, "geometry": {"type": "Point", "coordinates": [152.99124, -27.30627]}},
{"type": "Feature", "id": "RV7LQYBOEU6lDjz06wq4j1Lzeyc=", "properties": {"ref": "U8LFoKb_gQjS4fX7TEb0fA==", "@spider": "aldi_au", "addr:street": "353-355 Samsonvale Road", "addr:city": "Warner", "addr:state": "QLD", "addr:postcode": "4500", "name": "ALDI", "opening_hours": "Sa 08:00-20:00; Su 09:00-18:00; Mo-Fr 08:30-20:00; ", "brand": "Aldi"}, "geometry": {"type": "Point", "coordinates": [152.95206, -27.29226]}},
{"type": "Feature", "id": "c0LctQo2cJes_xyX6A2Ot4hkVUY=", "properties": {"ref": "AOHwHh8HmdLvVO4C0P-Z7Q==", "@spider": "aldi_au", "addr:street": "8 The Avenue", "addr:city": "Birtinya", "addr:state": "QLD", "addr:postcode": "4575", "name": "ALDI", "opening_hours": "Sa 08:00-19:00; Su 09:00-18:00; Mo-Fr 08:30-20:00; ", "brand": "Aldi"}, "geometry": {"type": "Point", "coordinates": [153.11957, -26.7429]}},
{"type": "Feature", "id": "kT374heupvRcNcf-kD-T_quAMHE=", "properties": {"ref": "E3ko8Dhql99BYMc6u33rAg==", "@spider": "aldi_au", "addr:street": "102 Aerodrome Road", "addr:city": "Maroochydore", "addr:state": "QLD", "addr:postcode": "4558", "name": "ALDI", "opening_hours": "Sa 08:00-19:00; Su 09:00-18:00; Mo 08:30-19:00; Tu-Fr 08:30-20:00; ", "brand": "Aldi"}, "geometry": {"type": "Point", "coordinates": [153.09524, -26.65846]}},
{"type": "Feature", "id": "ywxbkZF-I4kBt1MIZzwizZnx_4I=", "properties": {"ref": "squTvX_6gl7l_qjLRWz4LQ==", "@spider": "aldi_au", "addr:street": "69-79 Attenuata Drive", "addr:city": "Brightwater", "addr:state": "QLD", "addr:postcode": "4557", "name": "ALDI", "opening_hours": "Sa 08:00-19:00; Su 09:00-18:00; Mo-Fr 08:30-20:00; ", "brand": "Aldi"}, "geometry": {"type": "Point", "coordinates": [153.1089, -26.71067]}},
{"type": "Feature", "id": "3Bz9OarY6lBnaF0nG83SaOs1umE=", "properties": {"ref": "vSd2zF_U2WI7095Be3rDZg==", "@spider": "aldi_au", "addr:street": "119 Point Cartwright Drive", "addr:city": "Kawana", "addr:state": "QLD", "addr:postcode": "4575", "name": "ALDI", "opening_hours": "Sa 08:00-19:00; Su 09:00-18:00; Mo-We 08:30-19:00; Th 08:30-21:00; Fr 08:30-19:00; ", "brand": "Aldi"}, "geometry": {"type": "Point", "coordinates": [153.132, -26.7034]}},
{"type": "Feature", "id": "0mmKCLhpXu0KTdwX0xuRhG3lVkE=", "properties": {"ref": "YG7V-SON8J78PA-6-ZHpsA==", "@spider": "aldi_au", "addr:street": "489 Creek Road", "addr:city": "Mt Gravatt East", "addr:state": "QLD", "addr:postcode": "4122", "name": "ALDI", "opening_hours": "Sa 08:00-20:00; Su 09:00-18:00; Mo-We 08:30-20:00; Th 08:30-21:00; Fr 08:30-20:00; ", "brand": "Aldi"}, "geometry": {"type": "Point", "coordinates": [153.09673, -27.52697]}},
{"type": "Feature", "id": "hJJ2SmVDVQnJvtYbP0mzbf7kCOI=", "properties": {"ref": "ZFiZXVH8_HY6ekjl7hCVAg==", "@spider": "aldi_au", "addr:street": "Cnr Kessels & Logan Rds", "addr:city": "Upper Mt Gravatt", "addr:state": "QLD", "addr:postcode": "4122", "name": "ALDI", "opening_hours": "Su 09:00-18:00; Mo-We 08:30-20:00; Th 08:30-21:00; Fr 08:30-20:00; Sa 08:00-19:00; ", "brand": "Aldi"}, "geometry": {"type": "Point", "coordinates": [153.08388, -27.56451]}},
{"type": "Feature", "id": "XuNvy212oN_kz9uiJzNdZlPFqQs=", "properties": {"ref": "auYE9wYy1G4mQeY7DbD5kg==", "@spider": "aldi_au", "addr:street": "1154 Creek Road", "addr:city": "Carindale", "addr:state": "QLD", "addr:postcode": "4152", "name": "ALDI", "opening_hours": "Sa 08:00-19:00; Su 09:00-18:00; Mo-We 08:30-20:00; Th 08:30-21:00; Fr 08:30-20:00; ", "brand": "Aldi"}, "geometry": {"type": "Point", "coordinates": [153.10116, -27.5033]}},
{"type": "Feature", "id": "CcxObY-qVBCjNuYERzv5YHIxC-M=", "properties": {"ref": "ItSMIlFIyoY0CVZTwTzG_w==", "@spider": "aldi_au", "addr:street": "338 Hale Rd", "addr:city": "Wattle Grove", "addr:postcode": "6107", "name": "ALDI", "opening_hours": "Sa 08:30-17:00; Su 11:00-17:00; Mo-We 08:30-20:00; Th 08:30-21:00; Fr 08:30-20:00; ", "brand": "Aldi"}, "geometry": {"type": "Point", "coordinates": [115.98479, -31.99998]}},
{"type": "Feature", "id": "L2eJgN5z7KajXjQ9KT8GCBtWPVQ=", "properties": {"ref": "ra2wCb4plRQpfcPWlqkKwg==", "@spider": "aldi_au", "addr:street": "346 Warton Road", "addr:city": "Southern River", "addr:postcode": "6110", "name": "ALDI", "opening_hours": "Sa 08:30-17:00; Su 11:00-17:00; Mo-We 08:30-20:00; Th 08:30-21:00; Fr 08:30-20:00; ", "brand": "Aldi"}, "geometry": {"type": "Point", "coordinates": [115.94649, -32.08745]}},
{"type": "Feature", "id": "fSIG7D9cpxW_XeWP9OCHHQbG9kw=", "properties": {"ref": "XoDbk8KgSZzeWSkPKeuXTQ==", "@spider": "aldi_au", "addr:street": "1 Main Street", "addr:city": "Springfield Lakes", "addr:state": "QLD", "addr:postcode": "4300", "name": "ALDI", "opening_hours": "Sa 08:00-19:00; Su 09:00-18:00; Mo-We 08:30-20:00; Th 08:30-21:00; Fr 08:30-20:00; ", "brand": "Aldi"}, "geometry": {"type": "Point", "coordinates": [152.90316, -27.67603]}},
{"type": "Feature", "id": "1O38-utnCnRDI4spRGfTfDlku_s=", "properties": {"ref": "7_x83pk1rdxeU5QQZQqtvg==", "@spider": "aldi_au", "addr:street": "2 North Creek Rd", "addr:city": "Ballina", "addr:state": "NSW", "addr:postcode": "2478", "name": "ALDI", "opening_hours": "Su 09:00-19:00; Mo-Fr 08:30-20:00; Sa 08:00-19:00; ", "brand": "Aldi"}, "geometry": {"type": "Point", "coordinates": [153.55418, -28.84995]}},
{"type": "Feature", "id": "rzbFOhudrQP1LqwVdwBRuWRu6NM=", "properties": {"ref": "w21nlvPOa18EgZD53Zt0vQ==", "@spider": "aldi_au", "addr:street": "420 Secret Harbour Blvd", "addr:city": "Secret Harbour", "addr:postcode": "6173", "name": "ALDI", "opening_hours": "Sa 08:30-17:00; Su 11:00-17:00; Mo-We 08:30-19:00; Th 08:30-20:00; Fr 08:30-19:00; ", "brand": "Aldi"}, "geometry": {"type": "Point", "coordinates": [115.75885, -32.40767]}},
{"type": "Feature", "id": "NlIU7Riq2wsyuDf8gZWGURoTYOU=", "properties": {"ref": "yHEBKIhKCZHaLFL5ZCKrUQ==", "@spider": "aldi_au", "addr:street": "Cnr Markeri & Bermuda St", "addr:city": "Mermaid Waters", "addr:state": "QLD", "addr:postcode": "4218", "name": "ALDI", "opening_hours": "Sa 08:00-19:00; Su 09:00-18:00; Mo-Fr 08:30-20:00; ", "brand": "Aldi"}, "geometry": {"type": "Point", "coordinates": [153.40836, -28.04347]}},
{"type": "Feature", "id": "Nni9Nm9GVWBN802gdvTc7--gVpo=", "properties": {"ref": "C8kjVWMi-JvWjfxxv_AfhA==", "@spider": "aldi_au", "addr:street": "3 Robert St", "addr:city": "Mudgeeraba", "addr:state": "QLD", "addr:postcode": "4213", "name": "ALDI", "opening_hours": "Sa 08:00-19:00; Su 09:00-18:00; Mo-Fr 08:30-20:00; ", "brand": "Aldi"}, "geometry": {"type": "Point", "coordinates": [153.36267, -28.07443]}},
{"type": "Feature", "id": "NDX_cgXL0qOZKSdeZsUFUNF6jPM=", "properties": {"ref": "d7D2i2Im4dUk3l0uxIxS3Q==", "@spider": "aldi_au", "addr:street": "Coomera Grand Drive", "addr:city": "Upper Coomera", "addr:state": "QLD", "addr:postcode": "4209", "name": "ALDI", "opening_hours": "Sa 08:00-19:00; Su 09:00-18:00; Mo-Fr 08:30-20:00; ", "brand": "Aldi"}, "geometry": {"type": "Point", "coordinates": [153.29847, -27.84969]}},
{"type": "Feature", "id": "AYVvlJ3uflcJSJSRfUB-Oqs4XOc=", "properties": {"ref": "Qi7qKMLEqjvVYnqSp2hc3g==", "@spider": "aldi_au", "addr:street": "57 Station Street", "addr:city": "Nerang", "addr:state": "QLD", "addr:postcode": "4211", "name": "ALDI", "opening_hours": "Sa 08:00-19:00; Su 09:00-18:00; Mo-Fr 08:30-20:00; ", "brand": "Aldi"}, "geometry": {"type": "Point", "coordinates": [153.33823, -27.9976]}},
{"type": "Feature", "id": "-HltrjZ4wH58JzAOTSXWZDJBJj4=", "properties": {"ref": "LkvOAA4fjTnkzeFs25MJsw==", "@spider": "aldi_au", "addr:street": "Cnr Ferry Road & Benowa Rd", "addr:city": "Southport", "addr:state": "QLD", "addr:postcode": "4215", "name": "ALDI", "opening_hours": "Sa 08:00-19:00; Su 09:00-18:00; Mo-Fr 08:30-20:00; ", "brand": "Aldi"}, "geometry": {"type": "Point", "coordinates": [153.41055, -27.98542]}},
{"type": "Feature", "id": "vsmKYyPh3brTZnOHguDqwcpXjik=", "properties": {"ref": "TvazmSAEc1dxrkvvx0kJsA==", "@spider": "aldi_au", "addr:street": "172 Station Street", "addr:city": "Burpengary", "addr:state": "QLD", "addr:postcode": "4505", "name": "ALDI", "opening_hours": "Sa 08:00-19:00; Su 09:00-18:00; Mo-Fr 08:30-20:00; ", "brand": "Aldi"}, "geometry": {"type": "Point", "coordinates": [152.97444, -27.15432]}},
{"type": "Feature", "id": "WEeaEh2-LwK3eEk4-ONehQB64UY=", "properties": {"ref": "xtGTLgWenGOAOTvlL8ryhg==", "@spider": "aldi_au", "addr:street": "47 Brighton Road", "addr:city": "Sandgate", "addr:state": "QLD", "addr:postcode": "4017", "name": "ALDI", "opening_hours": "Sa 08:00-19:00; Su 09:00-18:00; Mo-Fr 08:30-20:00; ", "brand": "Aldi"}, "geometry": {"type": "Point", "coordinates": [153.06938, -27.31915]}},
{"type": "Feature", "id": "FgS7Cl3uJvIJ62EoVtOCpg8yNJM=", "properties": {"ref": "ztvZ6XHnj5yiN6umWDVnqQ==", "@spider": "aldi_au", "addr:street": "1150 Beaudesert Rd", "addr:city": "Acacia Ridge", "addr:state": "QLD", "addr:postcode": "4110", "name": "ALDI", "opening_hours": "Sa 08:00-19:00; Su 09:00-18:00; Mo-We 08:30-19:00; Th 08:30-20:00; Fr 08:30-19:00; ", "brand": "Aldi"}, "geometry": {"type": "Point", "coordinates": [153.026, -27.57468]}},
{"type": "Feature", "id": "oGyqYgw6LP05quOntptIuhjxaJk=", "properties": {"ref": "ENE4X0cNMP76SEFsvAD27g==", "@spider": "aldi_au", "addr:street": "Level 3, 99 Mount Street", "addr:city": "North Sydney", "addr:state": "NSW", "addr:postcode": "2059", "name": "ALDI", "opening_hours": "Su 08:00-20:00; Mo-Fr 07:00-21:00; Sa 08:00-20:00; ", "brand": "Aldi"}, "geometry": {"type": "Point", "coordinates": [151.20863, -33.83921]}},
{"type": "Feature", "id": "EdDkQnaKOfQoyF7UHgaO5cSi1e8=", "properties": {"ref": "IrGxiY3sYwQXTfClxg4nEw==", "@spider": "aldi_au", "addr:street": "Jull Street", "addr:city": "Armadale", "addr:postcode": "6112", "name": "ALDI", "opening_hours": "Sa 08:30-17:00; Su 11:00-17:00; Mo-We 08:30-20:00; Th 08:30-21:00; Fr 08:30-20:00; ", "brand": "Aldi"}, "geometry": {"type": "Point", "coordinates": [116.01728, -32.15067]}},
{"type": "Feature", "id": "ahh4WaznRom-HQAUxH3y5UfeWiM=", "properties": {"ref": "XTzzCHtKLQsMkGbZz-57ZQ==", "@spider": "aldi_au", "addr:street": "17 Mead Street", "addr:city": "Kalamunda", "addr:postcode": "6076", "name": "ALDI", "opening_hours": "Sa 08:30-17:00; Su 11:00-17:00; Mo-We 08:30-19:00; Th 08:30-20:00; Fr 08:30-19:00; ", "brand": "Aldi"}, "geometry": {"type": "Point", "coordinates": [116.05821, -31.97362]}},
{"type": "Feature", "id": "Hj4bS1hbs8oKq_9eZmdbif7nTpA=", "properties": {"ref": "wpISTwGKdrlcZQ0E6kOsDA==", "@spider": "aldi_au", "addr:street": "26 Safety Bay Road", "addr:city": "Baldivis", "addr:postcode": "6171", "name": "ALDI", "opening_hours": "Sa 08:30-17:00; Su 11:00-17:00; Mo-We 08:30-20:00; Th 08:30-21:00; Fr 08:30-20:00; ", "brand": "Aldi"}, "geometry": {"type": "Point", "coordinates": [115.81474, -32.33285]}},
{"type": "Feature", "id": "A152ZcnzR-cq1bQWlRIMNxeS-Kc=", "properties": {"ref": "3hTFYUmY4-zmAUdHP7FkZQ==", "@spider": "aldi_au", "addr:street": "Cnr Nicholson Rd&Yellowwood", "addr:city": "Harrisdale", "addr:postcode": "6112", "name": "ALDI", "opening_hours": "Sa 08:30-17:00; Su 11:00-17:00; Mo-We 08:30-20:00; Th 08:30-21:00; Fr 08:30-20:00; ", "brand": "Aldi"}, "geometry": {"type": "Point", "coordinates": [115.92676, -32.12663]}},
{"type": "Feature", "id": "icdwMvaI-I5NjE_aVXq6zmuRf1A=", "properties": {"ref": "YAAA6YuGfNczizV9JpjY9w==", "@spider": "aldi_au", "addr:street": "1 Manchester Road", "addr:city": "Carrara", "addr:state": "QLD", "addr:postcode": "4211", "name": "ALDI", "opening_hours": "Sa 08:00-19:00; Su 09:00-18:00; Mo-Fr 08:30-19:00; ", "brand": "Aldi"}, "geometry": {"type": "Point", "coordinates": [153.39285, -28.03107]}},
{"type": "Feature", "id": "INbpielBHt4T_gwz6geqmclNUic=", "properties": {"ref": "LfgP0JLPPfHO02xm7QSxeQ==", "@spider": "aldi_au", "addr:street": "310 Trafalgar Ave", "addr:city": "Umina Beach", "addr:state": "NSW", "addr:postcode": "2257", "name": "ALDI", "opening_hours": "Su 08:30-20:00; Mo-Sa 08:30-20:00; ", "brand": "Aldi"}, "geometry": {"type": "Point", "coordinates": [151.32079, -33.52271]}},
{"type": "Feature", "id": "98KIv963g0N__stHaBrbFMGXoHE=", "properties": {"ref": "8yr80j2br6V6LY_a4bNaNg==", "@spider": "aldi_au", "addr:street": "Cnr Gavenlock & Cobbs Rd", "addr:city": "Tuggerah", "addr:state": "NSW", "addr:postcode": "2259", "name": "ALDI", "opening_hours": "Su 08:30-19:00; Mo-We 08:30-20:00; Th 08:30-21:00; Fr 08:30-20:00; Sa 08:30-19:00; ", "brand": "Aldi"}, "geometry": {"type": "Point", "coordinates": [151.41344, -33.30719]}},
{"type": "Feature", "id": "E3tFhgovauY-N3CW5SrWuCgMAAY=", "properties": {"ref": "VqTAWX87P05E_3tUkWwRQw==", "@spider": "aldi_au", "addr:street": "10 Hezlett Road", "addr:city": "North Kellyville", "addr:state": "NSW", "addr:postcode": "2155", "name": "ALDI", "opening_hours": "Su 08:30-20:00; Mo-We 08:30-20:00; Th 08:30-21:00; Fr-Sa 08:30-20:00; ", "brand": "Aldi"}, "geometry": {"type": "Point", "coordinates": [150.95739, -33.69954]}},
{"type": "Feature", "id": "-cEc3k3Rj0-0DFN9j8HC4f0sox0=", "properties": {"ref": "jzXexwnRIO9-wWtVsW7SDg==", "@spider": "aldi_au", "addr:street": "335 Montague Road", "addr:city": "West End", "addr:state": "QLD", "addr:postcode": "4101", "name": "ALDI", "opening_hours": "Sa 08:00-20:00; Su 09:00-18:00; Mo-Fr 08:30-20:00; ", "brand": "Aldi"}, "geometry": {"type": "Point", "coordinates": [153.00354, -27.48222]}},
{"type": "Feature", "id": "svxzYKYRXITjBcVIYVJTQkxO2xY=", "properties": {"ref": "jCulWN3H1Pi6X7-QmszgcA==", "@spider": "aldi_au", "addr:street": "1145 Wynnum Road", "addr:city": "Cannon Hill", "addr:state": "QLD", "addr:postcode": "4170", "name": "ALDI", "opening_hours": "Sa 08:00-20:00; Su 09:00-18:00; Mo-We 08:30-20:00; Th 08:30-21:00; Fr 08:30-20:00; ", "brand": "Aldi"}, "geometry": {"type": "Point", "coordinates": [153.09886, -27.47304]}},
{"type": "Feature", "id": "LtxhokNKFlvGci-Z8iMga1BbXqw=", "properties": {"ref": "TrPvE-YI19O-tLaZf54bTw==", "@spider": "aldi_au", "addr:street": "1/3 Brady Street", "addr:city": "Mosman", "addr:postcode": "2088", "name": "ALDI", "opening_hours": "Su 08:30-19:00; Mo-We 08:30-20:00; Th 08:30-21:00; Fr 08:30-20:00; Sa 08:30-19:00; ", "brand": "Aldi"}, "geometry": {"type": "Point", "coordinates": [151.24055, -33.82373]}},
{"type": "Feature", "id": "_q3sKk47GuJFH0ZJoIRq8iglyjk=", "properties": {"ref": "WqOPEJQK30bpNvZ6coxcfg==", "@spider": "aldi_au", "addr:street": "203-233 New South Head Road", "addr:city": "Edgecliff", "addr:state": "NSW", "addr:postcode": "2024", "name": "ALDI", "opening_hours": "Su 08:30-20:00; Mo-Sa 08:30-20:00; ", "brand": "Aldi"}, "geometry": {"type": "Point", "coordinates": [151.23557, -33.87905]}},
{"type": "Feature", "id": "9CKc8Eki-FD-goIK9JQXWbWox3c=", "properties": {"ref": "4eb2xr24FSzO4grotz_jMA==", "@spider": "aldi_au", "addr:street": "Oxford St & Pelican St", "addr:city": "Darlinghurst", "addr:postcode": "2010", "name": "ALDI", "opening_hours": "Su 08:30-20:00; Mo-Sa 08:30-20:00; ", "brand": "Aldi"}, "geometry": {"type": "Point", "coordinates": [151.21345, -33.87888]}},
{"type": "Feature", "id": "Hg8ggbICpgiflGSqtlZEuA72Vbc=", "properties": {"ref": "_U5pO6OsKf3SStctp9XUIg==", "@spider": "aldi_au", "addr:street": "1 Bay Street", "addr:city": "Broadway", "addr:state": "NSW", "addr:postcode": "2007", "name": "ALDI", "opening_hours": "Su 08:30-20:00; Mo-Fr 08:30-21:00; Sa 08:30-20:00; ", "brand": "Aldi"}, "geometry": {"type": "Point", "coordinates": [151.194, -33.88336]}},
{"type": "Feature", "id": "8n5hiUcTtMCIvpDAH-_LCW1_W8g=", "properties": {"ref": "UFH9FI_3nRRy7q3hvg3Hag==", "@spider": "aldi_au", "addr:street": "1383 Albany Highway", "addr:city": "Cannington", "addr:postcode": "6107", "name": "ALDI", "opening_hours": "Sa 08:30-17:00; Su 11:00-17:00; Mo-We 08:30-20:00; Th 08:30-21:00; Fr 08:30-20:00; ", "brand": "Aldi"}, "geometry": {"type": "Point", "coordinates": [115.93717, -32.02155]}},
{"type": "Feature", "id": "iPa_grgY6s_X0K_oz94yCquiOvg=", "properties": {"ref": "GqaL707ojgrjQFZHt2XeoQ==", "@spider": "aldi_au", "addr:street": "Waterworth Dr & Main St", "addr:city": "Mt Annan", "addr:state": "NSW", "addr:postcode": "2567", "name": "ALDI", "opening_hours": "Su 08:30-20:00; Mo-Sa 08:30-20:00; ", "brand": "Aldi"}, "geometry": {"type": "Point", "coordinates": [150.75935, -34.05043]}},
{"type": "Feature", "id": "fFANuQ8xA0dlTFoXLp5UKMUiFw8=", "properties": {"ref": "MFnMgz-q1BwaRA2azwXf3w==", "@spider": "aldi_au", "addr:street": "6-10 Harrow Road", "addr:city": "Auburn", "addr:state": "NSW", "addr:postcode": "2144", "name": "ALDI", "opening_hours": "Su 13:15-20:00; Mo-We 08:30-20:00; Th 08:30-21:00; Fr-Sa 08:30-20:00; ", "brand": "Aldi"}, "geometry": {"type": "Point", "coordinates": [151.03119, -33.85298]}},
{"type": "Feature", "id": "J5gGxz68BI5pvLLc_wC05672vIE=", "properties": {"ref": "AUy23Ar7gSAklwvSSD46MQ==", "@spider": "aldi_au", "addr:street": "Glenmore Parkway", "addr:city": "Glenmore Park", "addr:state": "NSW", "addr:postcode": "2745", "name": "ALDI", "opening_hours": "Su 08:30-20:00; Mo-We 08:30-20:00; Th 08:30-21:00; Fr-Sa 08:30-20:00; ", "brand": "Aldi"}, "geometry": {"type": "Point", "coordinates": [150.66859, -33.78734]}},
{"type": "Feature", "id": "PSseBxtV2B8Scd-lf2IVBL1HFQU=", "properties": {"ref": "VNhQWC3H-k10NfC_mcnNAQ==", "@spider": "aldi_au", "addr:street": "509 Old Illawarra Rd", "addr:city": "Menai", "addr:state": "NSW", "addr:postcode": "2234", "name": "ALDI", "opening_hours": "Su 08:30-20:00; Mo-We 08:30-20:00; Th 08:30-21:00; Fr-Sa 08:30-20:00; ", "brand": "Aldi"}, "geometry": {"type": "Point", "coordinates": [151.01157, -34.01682]}},
{"type": "Feature", "id": "zObVSe_2ZGR4Az7aITpiYbW-6mc=", "properties": {"ref": "bx1FPeh8Rf_rR1dIT0tSPQ==", "@spider": "aldi_au", "addr:street": "Cnr Read & Gnangara Dr", "addr:city": "Waikiki", "addr:postcode": "6169", "name": "ALDI", "opening_hours": "Sa 08:30-17:00; Su 11:00-17:00; Mo-We 08:30-20:00; Th 08:30-21:00; Fr 08:30-20:00; ", "brand": "Aldi"}, "geometry": {"type": "Point", "coordinates": [115.75346, -32.31474]}},
{"type": "Feature", "id": "mLPUBWWiSqIDixqQFenAHEh2xJU=", "properties": {"ref": "q05BEDdYDlIO5xMrGkpe3Q==", "@spider": "aldi_au", "addr:street": "Cockburn Gateway Beeliar Dr", "addr:city": "Cockburn Gateway", "addr:postcode": "6164", "name": "ALDI", "opening_hours": "Sa 08:30-17:00; Su 11:00-17:00; Mo-We 08:30-20:00; Th 08:30-21:00; Fr 08:30-20:00; ", "brand": "Aldi"}, "geometry": {"type": "Point", "coordinates": [115.85727, -32.13154]}},
{"type": "Feature", "id": "yFLb5f1nr_nuiNgE--UU9BsFzQc=", "properties": {"ref": "ZWCykCQ5F7pHVfgCUC_jnw==", "@spider": "aldi_au", "addr:street": "Cnr Avoca & Bayside Drive", "addr:city": "Green Point", "addr:state": "NSW", "addr:postcode": "2251", "name": "ALDI", "opening_hours": "Su 08:30-20:00; Mo-Sa 08:30-20:00; ", "brand": "Aldi"}, "geometry": {"type": "Point", "coordinates": [151.36135, -33.45129]}},
{"type": "Feature", "id": "wOr73zmuVgUHSnEk4MpvTEMjyjk=", "properties": {"ref": "hJhsyYEs1b2dfEaern9krg==", "@spider": "aldi_au", "addr:street": "146-148 Pacific Highway", "addr:city": "Wyong", "addr:state": "NSW", "addr:postcode": "2259", "name": "ALDI", "opening_hours": "Su 08:30-20:00; Mo-Sa 08:30-20:00; ", "brand": "Aldi"}, "geometry": {"type": "Point", "coordinates": [151.42611, -33.28073]}},
{"type": "Feature", "id": "ZiwZ1LsGCzxguVpFE53Kepl-ICI=", "properties": {"ref": "khkdYNfXhBiHC3Wke_ZNPA==", "@spider": "aldi_au", "addr:street": "Shop M01 Stockland Bay Vill", "addr:city": "Bateau Bay", "addr:state": "NSW", "addr:postcode": "2261", "name": "ALDI", "opening_hours": "Su 08:30-20:00; Mo-Sa 08:30-20:00; ", "brand": "Aldi"}, "geometry": {"type": "Point", "coordinates": [151.47246, -33.37581]}},
{"type": "Feature", "id": "FnZAEDVP6gb87nSwOEC1-8vInYA=", "properties": {"ref": "QMijJrIbVn_YHutpJsFZUw==", "@spider": "aldi_au", "addr:street": "Lakehaven Drive", "addr:city": "Lakehaven", "addr:state": "NSW", "addr:postcode": "2263", "name": "ALDI", "opening_hours": "Su 08:30-20:00; Mo-Sa 08:30-20:00; ", "brand": "Aldi"}, "geometry": {"type": "Point", "coordinates": [151.5038, -33.24042]}},
{"type": "Feature", "id": "sZ1qYrZRRJAtX7GwpXCENgO13AY=", "properties": {"ref": "g9e-7pYXD_35ehlrwA55Uw==", "@spider": "aldi_au", "addr:street": "92 Wrights Road", "addr:city": "Kellyville", "addr:state": "NSW", "addr:postcode": "2155", "name": "ALDI", "opening_hours": "Su 08:30-20:00; Mo-We 08:30-20:00; Th 08:30-21:00; Fr-Sa 08:30-20:00; ", "brand": "Aldi"}, "geometry": {"type": "Point", "coordinates": [150.9735, -33.71411]}},
{"type": "Feature", "id": "y-tDB55iRfQ27evFz9shhSHJipA=", "properties": {"ref": "3BhkpLf0_YnrMw9aAiqt-A==", "@spider": "aldi_au", "addr:street": "22 Allen Way", "addr:city": "Dural", "addr:state": "NSW", "addr:postcode": "2158", "name": "ALDI", "opening_hours": "Su 08:30-20:00; Mo-Sa 08:30-20:00; ", "brand": "Aldi"}, "geometry": {"type": "Point", "coordinates": [151.01752, -33.6908]}},
{"type": "Feature", "id": "dyR4PPfzDA8oEGEztmppO01jWIU=", "properties": {"ref": "A8yMRUX1YWrtA8_RHe3LmA==", "@spider": "aldi_au", "addr:street": "322 Moggill Road", "addr:city": "Indooroopilly", "addr:state": "QLD", "addr:postcode": "4068", "name": "ALDI", "opening_hours": "Sa 08:00-20:00; Su 09:00-18:00; Mo-We 08:30-20:00; Th 08:30-21:00; Fr 08:30-20:00; ", "brand": "Aldi"}, "geometry": {"type": "Point", "coordinates": [152.97266, -27.49744]}},
{"type": "Feature", "id": "gBbwQ9Mea0uNpzCED8zQJSW1SoY=", "properties": {"ref": "FW2WKiv9kNd4SPQOZGzSEA==", "@spider": "aldi_au", "addr:street": "128 Windsor Street", "addr:city": "Richmond", "addr:state": "NSW", "addr:postcode": "2753", "name": "ALDI", "opening_hours": "Su 08:30-20:00; Mo-We 08:30-20:00; Th 08:30-21:00; Fr-Sa 08:30-20:00; ", "brand": "Aldi"}, "geometry": {"type": "Point", "coordinates": [150.75463, -33.59911]}},
{"type": "Feature", "id": "L-Z1hr8uSHkSW0kfBvJxRxXT-W0=", "properties": {"ref": "krNFrPpj_7CJjKySEJ9vlw==", "@spider": "aldi_au", "addr:street": "Shops T45-50/71 Spring St", "addr:city": "Bondi Junction", "addr:state": "NSW", "addr:postcode": "2022", "name": "ALDI", "opening_hours": "Su 08:30-20:00; Mo-We 08:30-20:00; Th 08:30-21:00; Fr-Sa 08:30-20:00; ", "brand": "Aldi"}, "geometry": {"type": "Point", "coordinates": [151.24874, -33.89282]}},
{"type": "Feature", "id": "BzVriXGnimzPgcjjdvfJoTYT9i4=", "properties": {"ref": "sdWHA5ce3UaZJKS2-kji1w==", "@spider": "aldi_au", "addr:street": "20a Danks Street", "addr:city": "Waterloo", "addr:state": "NSW", "addr:postcode": "2017", "name": "ALDI", "opening_hours": "Su 08:30-20:00; Mo-Sa 08:30-20:00; ", "brand": "Aldi"}, "geometry": {"type": "Point", "coordinates": [151.21241, -33.89798]}},
{"type": "Feature", "id": "OBD7NqVQZkWMrTPUdUtngF_Vk-0=", "properties": {"ref": "jcJMXFmHMUNWRAaPER8PZw==", "@spider": "aldi_au", "addr:street": "200 Gilchrist Drive", "addr:city": "Campbelltown", "addr:postcode": "2560", "name": "ALDI", "opening_hours": "Su 08:30-19:00; Mo-We 08:30-19:00; Th 08:30-20:00; Fr-Sa 08:30-19:00; ", "brand": "Aldi"}, "geometry": {"type": "Point", "coordinates": [150.79844, -34.07613]}},
{"type": "Feature", "id": "AnGOc-VH2z2TXDMf-GzH0LbDAgs=", "properties": {"ref": "O2vQhs7okouDlen4r-OH5Q==", "@spider": "aldi_au", "addr:street": "45 Woodhouse Drive", "addr:city": "Ambarvale", "addr:state": "NSW", "addr:postcode": "2560", "name": "ALDI", "opening_hours": "Su 08:30-19:00; Mo-Fr 08:30-20:00; Sa 08:30-19:00; ", "brand": "Aldi"}, "geometry": {"type": "Point", "coordinates": [150.80162, -34.08618]}},
{"type": "Feature", "id": "lQe0bZGnRioa-SqNO3J0DFs-2Tw=", "properties": {"ref": "tm8-4bQoaRW-UvS3Gj3euA==", "@spider": "aldi_au", "addr:street": "Queen St and Harrow Rd", "addr:city": "Auburn", "addr:postcode": "2144", "name": "ALDI", "opening_hours": "Su 08:30-20:00; Mo-We 08:30-20:00; Th 08:30-21:00; Fr-Sa 08:30-20:00; ", "brand": "Aldi"}, "geometry": {"type": "Point", "coordinates": [151.03163, -33.85015]}},
{"type": "Feature", "id": "Ivus950Pcb62Ij4gbwe9C5C8Oso=", "properties": {"ref": "mbhxYWLJhbLiEuozN429pw==", "@spider": "aldi_au", "addr:street": "280-290 Woodville Road", "addr:city": "Guildford", "addr:state": "NSW", "addr:postcode": "2161", "name": "ALDI", "opening_hours": "Su 08:30-20:00; Mo-We 08:30-20:00; Th 08:30-21:00; Fr-Sa 08:30-20:00; ", "brand": "Aldi"}, "geometry": {"type": "Point", "coordinates": [150.99684, -33.84972]}},
{"type": "Feature", "id": "nGNZ6D9EiH7kGeKB5oW5djU1kvY=", "properties": {"ref": "JFX-FvZH5rIqaVZKaGPS2A==", "@spider": "aldi_au", "addr:street": "92 Parramatta Road", "addr:city": "Lidcombe", "addr:postcode": "2141", "name": "ALDI", "opening_hours": "Su 08:30-20:00; Mo-Fr 08:30-21:00; Sa 08:30-20:00; ", "brand": "Aldi"}, "geometry": {"type": "Point", "coordinates": [151.04956, -33.8496]}},
{"type": "Feature", "id": "nZcFBu-FJMmFcBiBNDNZvaCTJRQ=", "properties": {"ref": "UW92TRrRKpx19S7CBfmXWQ==", "@spider": "aldi_au", "addr:street": "2 Villawood Road", "addr:city": "Villawood", "addr:state": "NSW", "addr:postcode": "2163", "name": "ALDI", "opening_hours": "Su 08:30-20:00; Mo-We 08:30-20:00; Th 08:30-21:00; Fr-Sa 08:30-20:00; ", "brand": "Aldi"}, "geometry": {"type": "Point", "coordinates": [150.97703, -33.88201]}},
{"type": "Feature", "id": "Vwqy-MqKUtqwbklxcUeONGmZ304=", "properties": {"ref": "bYgG1CjeQOoKTvdOQdLOMA==", "@spider": "aldi_au", "addr:street": "201 - 205 High Street", "addr:city": "Penrith", "addr:state": "NSW", "addr:postcode": "2750", "name": "ALDI", "opening_hours": "Su 08:30-20:00; Mo-We 08:30-20:00; Th 08:30-21:00; Fr-Sa 08:30-20:00; ", "brand": "Aldi"}, "geometry": {"type": "Point", "coordinates": [150.70562, -33.75554]}},
{"type": "Feature", "id": "BTpV_A46s38mk5ItKh3CA98dAz8=", "properties": {"ref": "hKZspPkuVwB62pWHfUNlkg==", "@spider": "aldi_au", "addr:street": "Shop 15, 101 Caldarra Ave", "addr:city": "Engadine", "addr:state": "NSW", "addr:postcode": "2233", "name": "ALDI", "opening_hours": "Su 08:30-19:00; Mo-We 08:30-20:00; Th 08:30-21:00; Fr 08:30-20:00; Sa 08:30-19:00; ", "brand": "Aldi"}, "geometry": {"type": "Point", "coordinates": [151.01408, -34.06556]}},
{"type": "Feature", "id": "engunbFxFOJhbk6d2qG3OreuCDg=", "properties": {"ref": "geTL3NZ40uMYOwCs-rsNBA==", "@spider": "aldi_au", "addr:street": "Mandurah Road", "addr:city": "Lakelands", "addr:postcode": "6180", "name": "ALDI", "opening_hours": "Sa 08:30-18:00; Su 10:00-17:00; Mo-We 08:30-18:00; Th 08:30-21:00; Fr 08:30-18:00; ", "brand": "Aldi"}, "geometry": {"type": "Point", "coordinates": [115.76187, -32.47248]}},
{"type": "Feature", "id": "Ex3MSkWP5cT1KmMkpT94ixuFveY=", "properties": {"ref": "eQNcxcJwgrWk5LB0j_LdVA==", "@spider": "aldi_au", "addr:street": "Cnr North Lake Rd & Omeo Rd", "addr:city": "South Lake", "addr:postcode": "6164", "name": "ALDI", "opening_hours": "Sa 08:30-17:00; Su 11:00-17:00; Mo-We 08:30-19:00; Th 08:30-20:00; Fr 08:30-19:00; ", "brand": "Aldi"}, "geometry": {"type": "Point", "coordinates": [115.82794, -32.10617]}},
{"type": "Feature", "id": "tWzAUIIwOi8U8rjY_KqZahSawp8=", "properties": {"ref": "pA2bZSELf4Ve7lLrZ-Rneg==", "@spider": "aldi_au", "addr:street": "17 South Street", "addr:city": "Kardinya", "addr:postcode": "6163", "name": "ALDI", "opening_hours": "Sa 08:30-17:00; Su 11:00-17:00; Mo-We 08:30-20:00; Th 08:30-21:00; Fr 08:30-20:00; ", "brand": "Aldi"}, "geometry": {"type": "Point", "coordinates": [115.81849, -32.06729]}},
{"type": "Feature", "id": "6HWDHuguVTerjfib0CMeolcJ06Q=", "properties": {"ref": "se0HHxYMD44bXv23sIAtOw==", "@spider": "aldi_au", "addr:street": "263-265 Princes Drive", "addr:city": "Morwell", "addr:state": "VIC", "addr:postcode": "3840", "name": "ALDI", "opening_hours": "Su 08:30-19:00; Mo-Fr 08:30-20:00; Sa 08:30-19:00; ", "brand": "Aldi"}, "geometry": {"type": "Point", "coordinates": [146.40402, -38.23767]}},
{"type": "Feature", "id": "MvUfJms6kZM8y3A3J6FI8kyz3zo=", "properties": {"ref": "ZLNbRAJyu29TD92CK546fw==", "@spider": "aldi_au", "addr:street": "Jamison Centre, Bowman St", "addr:city": "Macquarie", "addr:state": "ACT", "addr:postcode": "2614", "name": "ALDI", "opening_hours": "Su 08:30-20:00; Mo-Sa 08:30-20:00; ", "brand": "Aldi"}, "geometry": {"type": "Point", "coordinates": [149.07152, -35.25249]}},
{"type": "Feature", "id": "tJ-ns1bFKRM4O3v-q6ER1KtwU24=", "properties": {"ref": "gpp53dsiqlX9EqhEsz5U2Q==", "@spider": "aldi_au", "addr:street": "Westfield Shoppingtown", "addr:city": "Belconnen", "addr:state": "ACT", "addr:postcode": "2617", "name": "ALDI", "opening_hours": "Su 08:30-20:00; Mo-Th 08:30-20:00; Fr 08:30-21:00; Sa 08:30-20:00; ", "brand": "Aldi"}, "geometry": {"type": "Point", "coordinates": [149.06619, -35.23885]}},
{"type": "Feature", "id": "9cw_LrpYPsgJaDLvgKCcSaHgRd0=", "properties": {"ref": "szHNdt2AxhHj_wPEKGDIsw==", "@spider": "aldi_au", "addr:street": "Riverina Plaza, Berry St", "addr:city": "Wagga Wagga", "addr:state": "NSW", "addr:postcode": "2650", "name": "ALDI", "opening_hours": "Su 08:30-20:00; Mo-Sa 08:30-20:00; ", "brand": "Aldi"}, "geometry": {"type": "Point", "coordinates": [147.37284, -35.115]}},
{"type": "Feature", "id": "8fj88yY30_9-an-g-Z8yisSIO5c=", "properties": {"ref": "pB6wvHqSGiX0pfjoudjNFw==", "@spider": "aldi_au", "addr:street": "Cnr Tanda Pl & Pinaroo Dr", "addr:city": "Glenfield Park", "addr:state": "NSW", "addr:postcode": "2650", "name": "ALDI", "opening_hours": "Su 08:30-19:00; Mo-Fr 08:30-20:00; Sa 08:30-19:00; ", "brand": "Aldi"}, "geometry": {"type": "Point", "coordinates": [147.33388, -35.13725]}},
{"type": "Feature", "id": "YuWlHTEY-smq762fG0Z2KTxqVo0=", "properties": {"ref": "FEmjuLP7iA7Xfj5jIXeEtw==", "@spider": "aldi_au", "addr:street": "Canberra Cntr 148 Bunda St", "addr:city": "Canberra CBD", "addr:state": "ACT", "addr:postcode": "2601", "name": "ALDI", "opening_hours": "Su 08:30-20:00; Mo-Sa 08:30-20:00; ", "brand": "Aldi"}, "geometry": {"type": "Point", "coordinates": [149.13354, -35.27906]}},
{"type": "Feature", "id": "7Kx6C5gKeZDK2M_aLvJpYq6dS9I=", "properties": {"ref": "pPmAj0v-jr95ucuV3GxsRQ==", "@spider": "aldi_au", "addr:street": "9-15 Banyette Street", "addr:city": "Bowral", "addr:state": "NSW", "addr:postcode": "2576", "name": "ALDI", "opening_hours": "Su 08:30-19:00; Mo-Sa 08:30-19:00; ", "brand": "Aldi"}, "geometry": {"type": "Point", "coordinates": [150.41514, -34.4821]}},
{"type": "Feature", "id": "eY_yd1TDUAtPrurbWOVKuSZ6GpE=", "properties": {"ref": "rtx22bC-qD2eb8-Ey4sLlw==", "@spider": "aldi_au", "addr:street": "617 - 621 Young Street", "addr:city": "Albury", "addr:state": "NSW", "addr:postcode": "2640", "name": "ALDI", "opening_hours": "Su 08:30-20:00; Mo-Sa 08:30-20:00; ", "brand": "Aldi"}, "geometry": {"type": "Point", "coordinates": [146.92474, -36.07586]}},
{"type": "Feature", "id": "E7-ZuM8RG7Vz123l3DD_Cm1jpd4=", "properties": {"ref": "O2Oe3zw-SbPTcRfm0xJR9Q==", "@spider": "aldi_au", "addr:street": "253 Pacific Hwy", "addr:city": "Coffs Harbour", "addr:state": "NSW", "addr:postcode": "2450", "name": "ALDI", "opening_hours": "Su 09:00-19:00; Mo-Fr 08:30-20:00; Sa 08:00-20:00; ", "brand": "Aldi"}, "geometry": {"type": "Point", "coordinates": [153.13037, -30.28233]}},
{"type": "Feature", "id": "qSC5rNVumFobfchyd7vxEfyOfEU=", "properties": {"ref": "xmsgn3PWYGX_8InpgjZ1zw==", "@spider": "aldi_au", "addr:street": "Shop 200B Castle Towers S/C", "addr:city": "Castle Hill", "addr:state": "NSW", "addr:postcode": "2154", "name": "ALDI", "opening_hours": "Su 08:30-20:00; Mo-We 08:30-20:00; Th 08:30-21:00; Fr-Sa 08:30-20:00; ", "brand": "Aldi"}, "geometry": {"type": "Point", "coordinates": [150.99779, -33.73027]}},
{"type": "Feature", "id": "JgRVFlXU92LfsldmaoSDMWCYbJs=", "properties": {"ref": "ybScVAD2SOpTNNpP5uG2GQ==", "@spider": "aldi_au", "addr:street": "3 Resolution Place", "addr:city": "Rouse Hill", "addr:state": "NSW", "addr:postcode": "2155", "name": "ALDI", "opening_hours": "Su 08:30-20:00; Mo-We 08:30-20:00; Th 08:30-21:00; Fr-Sa 08:30-20:00; ", "brand": "Aldi"}, "geometry": {"type": "Point", "coordinates": [150.91823, -33.68367]}},
{"type": "Feature", "id": "yQnogcFod_i4BaUCi8FHglOKzU0=", "properties": {"ref": "6V4ihTzwbvBaZTTDc5Svzw==", "@spider": "aldi_au", "addr:street": "146 Blunder Rd", "addr:city": "Oxley", "addr:state": "QLD", "addr:postcode": "4075", "name": "ALDI", "opening_hours": "Sa 08:00-19:00; Su 09:00-18:00; Mo-Fr 08:30-20:00; ", "brand": "Aldi"}, "geometry": {"type": "Point", "coordinates": [152.98255, -27.57594]}},
{"type": "Feature", "id": "Rtob-MeLcmaTkJuie4240izEUkk=", "properties": {"ref": "V322fCeyWrveRJkH6EfRbw==", "@spider": "aldi_au", "addr:street": "650 Wickham Street", "addr:city": "Fortitude Valley", "addr:state": "QLD", "addr:postcode": "4006", "name": "ALDI", "opening_hours": "Sa 08:00-20:00; Su 09:00-18:00; Mo-Fr 08:30-20:00; ", "brand": "Aldi"}, "geometry": {"type": "Point", "coordinates": [153.04088, -27.44978]}},
{"type": "Feature", "id": "RLM_MZqlq37nr7-sv9qFazgCYVw=", "properties": {"ref": "97v0FiepspLgeqy1FbCJgw==", "@spider": "aldi_au", "addr:street": "Cnr Calam & Compton Rd", "addr:city": "Sunnybank Hills", "addr:state": "QLD", "addr:postcode": "4109", "name": "ALDI", "opening_hours": "Sa 08:00-19:00; Su 09:00-18:00; Mo-We 08:30-20:00; Th 08:30-21:00; Fr 08:30-20:00; ", "brand": "Aldi"}, "geometry": {"type": "Point", "coordinates": [153.05529, -27.61017]}},
{"type": "Feature", "id": "BujvnPgkOJOGSKA5KgecxtAaTQs=", "properties": {"ref": "AsmV0P5tgRl4hbXCfZ3Gvw==", "@spider": "aldi_au", "addr:street": "47-55 Bells Line of Road", "addr:city": "North Richmond", "addr:state": "NSW", "addr:postcode": "2754", "name": "ALDI", "opening_hours": "Su 08:30-20:00; Mo-Sa 08:30-20:00; ", "brand": "Aldi"}, "geometry": {"type": "Point", "coordinates": [150.71989, -33.58069]}},
{"type": "Feature", "id": "8aRRKEqmiXoNoJKajgllvmp-XrI=", "properties": {"ref": "j4CqDchn4R4aMfK6tfQ7gA==", "@spider": "aldi_au", "addr:street": "19A Roseby Street", "addr:city": "Drummoyne", "addr:state": "NSW", "addr:postcode": "2047", "name": "ALDI", "opening_hours": "Su 08:30-20:00; Mo-We 08:30-20:00; Th 08:30-21:00; Fr-Sa 08:30-20:00; ", "brand": "Aldi"}, "geometry": {"type": "Point", "coordinates": [151.16273, -33.85563]}},
{"type": "Feature", "id": "AgoPOQpmCy_fTJLDdJR-yiJCJuc=", "properties": {"ref": "8CS19YIE1P7aiTqwKzavRA==", "@spider": "aldi_au", "addr:street": "2 Rosenthal Avenue", "addr:city": "Lane Cove", "addr:postcode": "2066", "name": "ALDI", "opening_hours": "Su 08:30-20:00; Mo-We 08:30-20:00; Th 08:30-21:00; Fr-Sa 08:30-20:00; ", "brand": "Aldi"}, "geometry": {"type": "Point", "coordinates": [151.16881, -33.81358]}},
{"type": "Feature", "id": "Fo950kQqdOA7xnj3rRJmM4Jzk9I=", "properties": {"ref": "ukXnEEHtWlyJtiHs66EWCQ==", "@spider": "aldi_au", "addr:street": "256-260 Victoria Avenue", "addr:city": "Chatswood Place", "addr:postcode": "2067", "name": "ALDI", "opening_hours": "Su 08:30-20:00; Mo-We 08:30-20:00; Th 08:30-21:00; Fr-Sa 08:30-20:00; ", "brand": "Aldi"}, "geometry": {"type": "Point", "coordinates": [151.18839, -33.79481]}},
{"type": "Feature", "id": "qqK2I0fc24h61dS3IAYmyKU-50w=", "properties": {"ref": "gkKTNmYN9E39aC51GmOs3Q==", "@spider": "aldi_au", "addr:street": "Blaxland Rd/The Kraal Dr", "addr:city": "Blair Athol", "addr:state": "NSW", "addr:postcode": "2560", "name": "ALDI", "opening_hours": "Su 08:30-20:00; Mo-We 08:30-20:00; Th 08:30-21:00; Fr-Sa 08:30-20:00; ", "brand": "Aldi"}, "geometry": {"type": "Point", "coordinates": [150.80688, -34.06325]}},
{"type": "Feature", "id": "-sBmnhivkCDS23Uahk_6YZNw_7k=", "properties": {"ref": "EXi5ml1SuDf-3yEPwRuQXQ==", "@spider": "aldi_au", "addr:street": "271 Queen Street", "addr:city": "Campbelltown", "addr:state": "NSW", "addr:postcode": "2560", "name": "ALDI", "opening_hours": "Su 08:30-19:00; Mo-We 08:30-20:00; Th 08:30-21:00; Fr 08:30-20:00; Sa 08:30-19:00; ", "brand": "Aldi"}, "geometry": {"type": "Point", "coordinates": [150.8104, -34.06873]}},
{"type": "Feature", "id": "7FN46Ss99EFjwWyijo9sJO_1O90=", "properties": {"ref": "NQV9_xM4JSug-KPtJPGu7g==", "@spider": "aldi_au", "addr:street": "304-306 Camden Valley Way", "addr:city": "Narellan", "addr:postcode": "2567", "name": "ALDI", "opening_hours": "Su 08:30-20:00; Mo-Sa 08:30-20:00; ", "brand": "Aldi"}, "geometry": {"type": "Point", "coordinates": [150.73361, -34.04227]}},
{"type": "Feature", "id": "pgIvuU0FhgTonco2YSF3BamM-H4=", "properties": {"ref": "oNKB3SbSxPaIu_XAsGkgEQ==", "@spider": "aldi_au", "addr:street": "753 Hume Highway", "addr:city": "Bass Hill", "addr:state": "NSW", "addr:postcode": "2197", "name": "ALDI", "opening_hours": "Su 08:30-20:00; Mo-We 08:30-20:00; Th 08:30-21:00; Fr-Sa 08:30-20:00; ", "brand": "Aldi"}, "geometry": {"type": "Point", "coordinates": [150.9929, -33.90065]}},
{"type": "Feature", "id": "VAF-oY9mCR-4baItwKsmVnjhH0g=", "properties": {"ref": "gFYsvdp6ipfooEaEJSNq1Q==", "@spider": "aldi_au", "addr:street": "191-201 Pitt Street", "addr:city": "Merrylands", "addr:state": "NSW", "addr:postcode": "2160", "name": "ALDI", "opening_hours": "Su 08:30-20:00; Mo-We 08:30-20:00; Th 08:30-21:00; Fr-Sa 08:30-20:00; ", "brand": "Aldi"}, "geometry": {"type": "Point", "coordinates": [150.98926, -33.83438]}},
{"type": "Feature", "id": "fupZf50jUni1ggvrLCdzrLgCMq8=", "properties": {"ref": "okNbl50_vngGLb4PCRPp3w==", "@spider": "aldi_au", "addr:street": "410-422 Great Western Hwy", "addr:city": "St Marys", "addr:state": "NSW", "addr:postcode": "2760", "name": "ALDI", "opening_hours": "Su 08:30-20:00; Mo-We 08:30-20:00; Th 08:30-21:00; Fr-Sa 08:30-20:00; ", "brand": "Aldi"}, "geometry": {"type": "Point", "coordinates": [150.77037, -33.76973]}},
{"type": "Feature", "id": "yzhzm1uKMGyVXgwPIVyqQdK23pg=", "properties": {"ref": "JzWFDvVWieINRhbj8uFi6w==", "@spider": "aldi_au", "addr:street": "Cnr Peppertree & Swallow Dr", "addr:city": "Erskine Park", "addr:state": "NSW", "addr:postcode": "2759", "name": "ALDI", "opening_hours": "Su 08:30-20:00; Mo-We 08:30-20:00; Th 08:30-21:00; Fr-Sa 08:30-20:00; ", "brand": "Aldi"}, "geometry": {"type": "Point", "coordinates": [150.79898, -33.80417]}},
{"type": "Feature", "id": "kFBh7ayja7rRMZs_WAKM8YtzxN0=", "properties": {"ref": "W8ejR02sYRoDbvxRdlcemQ==", "@spider": "aldi_au", "addr:street": "585 High Street", "addr:city": "Penrith Westfield", "addr:state": "NSW", "addr:postcode": "2750", "name": "ALDI", "opening_hours": "Su 08:30-20:00; Mo-We 08:30-20:00; Th 08:30-21:00; Fr-Sa 08:30-20:00; ", "brand": "Aldi"}, "geometry": {"type": "Point", "coordinates": [150.68329, -33.75157]}},
{"type": "Feature", "id": "oEkpfrl0jHCelEoEj70cWExU4Yg=", "properties": {"ref": "atuyLRcNzTTT3MyZ3htKSA==", "@spider": "aldi_au", "addr:street": "Gt Wstn Hwy & Pyramid St", "addr:city": "Emu Plains", "addr:state": "NSW", "addr:postcode": "2750", "name": "ALDI", "opening_hours": "Su 08:30-20:00; Mo-We 08:30-20:00; Th 08:30-21:00; Fr-Sa 08:30-20:00; ", "brand": "Aldi"}, "geometry": {"type": "Point", "coordinates": [150.65966, -33.7529]}},
{"type": "Feature", "id": "cn5NixN89U1jwFV3VsEkpq_iFMw=", "properties": {"ref": "AlOfQVWmSmhJ83rTupcDZg==", "@spider": "aldi_au", "addr:street": "580 Princes Highway", "addr:city": "Kirrawee", "addr:postcode": "2232", "name": "ALDI", "opening_hours": "Su 08:30-21:00; Mo-Sa 08:30-21:00; ", "brand": "Aldi"}, "geometry": {"type": "Point", "coordinates": [151.07285, -34.03223]}},
{"type": "Feature", "id": "lGn7bII-5daLmLBtoXsTJuzW11E=", "properties": {"ref": "ThqorvFRnVSdZilHGjvImA==", "@spider": "aldi_au", "addr:street": "14-16 Wandella Road", "addr:city": "Miranda", "addr:state": "NSW", "addr:postcode": "2228", "name": "ALDI", "opening_hours": "Su 08:30-20:00; Mo-We 08:30-20:00; Th 08:30-21:00; Fr-Sa 08:30-20:00; ", "brand": "Aldi"}, "geometry": {"type": "Point", "coordinates": [151.09926, -34.03252]}},
{"type": "Feature", "id": "FqiyokGVrUyUFKWs-mB4yhyrZ9A=", "properties": {"ref": "zECHeWhIwXzzEIe7jhBT9g==", "@spider": "aldi_au", "addr:street": "283 Beeliar Drive", "addr:city": "Beeliar", "addr:postcode": "6164", "name": "ALDI", "opening_hours": "Sa 08:30-17:00; Su 11:00-17:00; Mo-We 08:30-19:00; Th 08:30-20:00; Fr 08:30-19:00; ", "brand": "Aldi"}, "geometry": {"type": "Point", "coordinates": [115.79831, -32.12655]}},
{"type": "Feature", "id": "48i782_gxsm_GMr_Jn9dNPVt90Q=", "properties": {"ref": "TbDYsMYrsK7fVvI2Fi8z3A==", "@spider": "aldi_au", "addr:street": "Cooleman Court, Brierly St", "addr:city": "Weston", "addr:state": "ACT", "addr:postcode": "2611", "name": "ALDI", "opening_hours": "Su 08:30-20:00; Mo-Th 08:30-20:00; Fr 08:30-21:00; Sa 08:30-20:00; ", "brand": "Aldi"}, "geometry": {"type": "Point", "coordinates": [149.05255, -35.34021]}},
{"type": "Feature", "id": "KDI4JwEOJjkcZEz15M49nyO-MOI=", "properties": {"ref": "0g6nCydTSt-gpRn-PY6s3Q==", "@spider": "aldi_au", "addr:street": "168 Wanneroo Road", "addr:city": "Madeley", "addr:postcode": "6065", "name": "ALDI", "opening_hours": "Sa 08:30-17:00; Su 11:00-17:00; Mo-We 08:30-20:00; Th 08:30-21:00; Fr 08:30-20:00; ", "brand": "Aldi"}, "geometry": {"type": "Point", "coordinates": [115.82304, -31.81755]}},
{"type": "Feature", "id": "sCn3oOyanqbkARKh3uRjbuzxOGY=", "properties": {"ref": "OifaENcncM1pPirkaBPGwQ==", "@spider": "aldi_au", "addr:street": "18-26 Spitfire Avenue", "addr:city": "Majura Park", "addr:state": "ACT", "addr:postcode": "2609", "name": "ALDI", "opening_hours": "Su 08:30-20:00; Mo-Sa 08:30-20:00; ", "brand": "Aldi"}, "geometry": {"type": "Point", "coordinates": [149.19092, -35.29931]}},
{"type": "Feature", "id": "ZsGJ3dWhYe_L696ipKnRaJhzydA=", "properties": {"ref": "kW8Ia2Eg6tGmzJOrioOB1A==", "@spider": "aldi_au", "addr:street": "181-183 Old Hume Highway", "addr:city": "Mittagong", "addr:state": "NSW", "addr:postcode": "2575", "name": "ALDI", "opening_hours": "Su 08:30-19:00; Mo-Sa 08:30-19:00; ", "brand": "Aldi"}, "geometry": {"type": "Point", "coordinates": [150.4399, -34.44765]}},
{"type": "Feature", "id": "34t8qb12b1Amy1PB3A6bkg-82wk=", "properties": {"ref": "85Rf4gA9QsgkjQ0wpSpopw==", "@spider": "aldi_au", "addr:street": "Argyle St and Roberston Rd", "addr:city": "Moss Vale", "addr:postcode": "2577", "name": "ALDI", "opening_hours": "Su 08:30-19:00; Mo-Sa 08:30-19:00; ", "brand": "Aldi"}, "geometry": {"type": "Point", "coordinates": [150.38041, -34.54619]}},
{"type": "Feature", "id": "P0Osau-fJEedsxOdiPEb1YrirGQ=", "properties": {"ref": "YAYx1iqsJI2PCpiaAM-PwQ==", "@spider": "aldi_au", "addr:street": "72 Elgin Boulevard", "addr:city": "Wodonga", "addr:state": "VIC", "addr:postcode": "3690", "name": "ALDI", "opening_hours": "Su 08:30-19:00; Mo-Fr 08:30-20:00; Sa 08:30-19:00; ", "brand": "Aldi"}, "geometry": {"type": "Point", "coordinates": [146.88167, -36.12]}},
{"type": "Feature", "id": "8CsUOLkpByNF7uzvi2HR6WQlUOs=", "properties": {"ref": "HaRzR3j2zdxQAS3GKp7xug==", "@spider": "aldi_au", "addr:street": "Victoria Cross Pde&Wark St", "addr:city": "Wodonga", "addr:state": "VIC", "addr:postcode": "3689", "name": "ALDI", "opening_hours": "Su 08:30-19:00; Mo-Fr 08:30-20:00; Sa 08:30-19:00; ", "brand": "Aldi"}, "geometry": {"type": "Point", "coordinates": [146.89428, -36.13807]}},
{"type": "Feature", "id": "fuR-w5OLmJTZI4udCzHGYe2pllU=", "properties": {"ref": "zrPCp0eDj3YeiUV2DXIN2g==", "@spider": "aldi_au", "addr:street": "385-387 Wagga Road", "addr:city": "Lavington", "addr:state": "NSW", "addr:postcode": "2641", "name": "ALDI", "opening_hours": "Su 08:30-20:00; Mo-Sa 08:30-20:00; ", "brand": "Aldi"}, "geometry": {"type": "Point", "coordinates": [146.93938, -36.04686]}},
{"type": "Feature", "id": "rBzO5_wOugfjKxxUnfyPFSUTNS4=", "properties": {"ref": "kh8dp4rVrGHKBBtiLTo4JQ==", "@spider": "aldi_au", "addr:street": "2B Moonee Beach Road", "addr:city": "Moonee Beach", "addr:state": "NSW", "addr:postcode": "2450", "name": "ALDI", "opening_hours": "Su 09:00-19:00; Mo-We 08:30-20:00; Th 08:30-21:00; Fr 08:30-20:00; Sa 08:00-20:00; ", "brand": "Aldi"}, "geometry": {"type": "Point", "coordinates": [153.15088, -30.2049]}},
{"type": "Feature", "id": "9Q-ITKMCMtMJZ7uNPHXcvWZxn2E=", "properties": {"ref": "NBbXdCfJbtp2hidCso0g1A==", "@spider": "aldi_au", "addr:street": "Cnr Sentry Dr & Stanhope Pk", "addr:city": "Stanhope Gardens", "addr:state": "NSW", "addr:postcode": "2768", "name": "ALDI", "opening_hours": "Su 08:30-20:00; Mo-We 08:30-20:00; Th 08:30-20:30; Fr-Sa 08:30-20:00; ", "brand": "Aldi"}, "geometry": {"type": "Point", "coordinates": [150.92102, -33.71793]}},
{"type": "Feature", "id": "_liSo8Lf1mTaHV4uHamscbXL8ls=", "properties": {"ref": "4iCruQWneIbA226_f4dpDA==", "@spider": "aldi_au", "addr:street": "Olive St & Old Northern Rd", "addr:city": "Baulkham Hills", "addr:state": "NSW", "addr:postcode": "2153", "name": "ALDI", "opening_hours": "Su 08:30-20:00; Mo-We 08:30-20:00; Th 08:30-21:00; Fr-Sa 08:30-20:00; ", "brand": "Aldi"}, "geometry": {"type": "Point", "coordinates": [150.99205, -33.75941]}},
{"type": "Feature", "id": "t4W_RDELbv-fN2M6UcgU6K-eOZI=", "properties": {"ref": "6gq14Lfy7Yjy7aq6jyteag==", "@spider": "aldi_au", "addr:street": "346 Galston Road", "addr:city": "Galston", "addr:state": "NSW", "addr:postcode": "2159", "name": "ALDI", "opening_hours": "Su 08:30-19:00; Mo-Fr 08:30-20:00; Sa 08:30-19:00; ", "brand": "Aldi"}, "geometry": {"type": "Point", "coordinates": [151.04646, -33.65256]}},
{"type": "Feature", "id": "bvn69FFszG3ynpSzIr05yKa0x9o=", "properties": {"ref": "PXFm-flxOGznJ93XmVCw6A==", "@spider": "aldi_au", "addr:street": "12 Bishop Street", "addr:city": "Kelvin Grove", "addr:state": "QLD", "addr:postcode": "4059", "name": "ALDI", "opening_hours": "Sa 08:00-19:00; Su 09:00-18:00; Mo-Fr 08:30-20:00; ", "brand": "Aldi"}, "geometry": {"type": "Point", "coordinates": [153.00782, -27.44403]}},
{"type": "Feature", "id": "3z8XAMhKf6r-GkuxBqaEiIJ4dww=", "properties": {"ref": "IdzDI_ISUdYzw3UOsHSsKg==", "@spider": "aldi_au", "addr:street": "80-98 Borrowdale Way", "addr:city": "Cranebrook", "addr:state": "NSW", "addr:postcode": "2749", "name": "ALDI", "opening_hours": "Su 08:30-20:00; Mo-We 08:30-20:00; Th 08:30-21:00; Fr-Sa 08:30-20:00; ", "brand": "Aldi"}, "geometry": {"type": "Point", "coordinates": [150.70972, -33.71943]}},
{"type": "Feature", "id": "L-iZS5iuQXI6Qmly8f3iZhNVmxc=", "properties": {"ref": "N4UHfkmmFOVgznm7xOiSlg==", "@spider": "aldi_au", "addr:street": "Westfield Chatswood", "addr:city": "Chatswood", "addr:state": "NSW", "addr:postcode": "2067", "name": "ALDI", "opening_hours": "Su 08:30-20:00; Mo-We 08:30-20:00; Th 08:30-21:00; Fr-Sa 08:30-20:00; ", "brand": "Aldi"}, "geometry": {"type": "Point", "coordinates": [151.18357, -33.79695]}},
{"type": "Feature", "id": "sNNxUZhlTTA2okbnasYUiqYNgRw=", "properties": {"ref": "wXO0J31O5_jiRzd8UnRkcg==", "@spider": "aldi_au", "addr:street": "Shop 24A, Manly Wharf", "addr:city": "Manly", "addr:state": "NSW", "addr:postcode": "2095", "name": "ALDI", "opening_hours": "Su 08:30-19:00; Mo-Fr 08:30-20:00; Sa 08:30-19:00; ", "brand": "Aldi"}, "geometry": {"type": "Point", "coordinates": [151.28389, -33.79972]}},
{"type": "Feature", "id": "kxXqWMtuQG1JXztnsVN5SoXwPUQ=", "properties": {"ref": "lEzIijDKNsS88DL0IAxGoQ==", "@spider": "aldi_au", "addr:street": "22-26 Roseberry Street", "addr:city": "Balgowlah", "addr:postcode": "2093", "name": "ALDI", "opening_hours": "Su 08:30-20:00; Mo-We 08:30-20:00; Th 08:30-21:00; Fr-Sa 08:30-20:00; ", "brand": "Aldi"}, "geometry": {"type": "Point", "coordinates": [151.26815, -33.78824]}},
{"type": "Feature", "id": "relZMMM3Qph4KTBvnqK9ENLRXRE=", "properties": {"ref": "qI5kpMGDQfpJXG9ZdmtaSg==", "@spider": "aldi_au", "addr:street": "Shop 21A Cnr Marion & Flood", "addr:city": "Leichhardt", "addr:state": "NSW", "addr:postcode": "2040", "name": "ALDI", "opening_hours": "Su 08:30-20:00; Mo-We 08:30-20:00; Th 08:30-21:00; Fr-Sa 08:30-20:00; ", "brand": "Aldi"}, "geometry": {"type": "Point", "coordinates": [151.14986, -33.88466]}},
{"type": "Feature", "id": "4OVq9-ct1LfaZodwp4RWe4KYEGU=", "properties": {"ref": "CJmSr5XGl6-4oQAizMfX5g==", "@spider": "aldi_au", "addr:street": "33 Village Circuit", "addr:city": "Gregory Hills", "addr:postcode": "2557", "name": "ALDI", "opening_hours": "Su 08:30-20:00; Mo-Sa 08:30-20:00; ", "brand": "Aldi"}, "geometry": {"type": "Point", "coordinates": [150.77825, -34.02662]}},
{"type": "Feature", "id": "7r4eKZj3mQzTvLEP2G4s9yJKrKo=", "properties": {"ref": "pCcgtweLXgpMv4G_C6s76Q==", "@spider": "aldi_au", "addr:street": "5 Emerald Hills Boulevarde", "addr:city": "Emerald Hills", "addr:postcode": "2179", "name": "ALDI", "opening_hours": "Su 08:30-20:00; Mo-Sa 08:30-20:00; ", "brand": "Aldi"}, "geometry": {"type": "Point", "coordinates": [150.79056, -33.99646]}},
{"type": "Feature", "id": "mrS7qOsWylfDGHOmWWGrJ0x8kd8=", "properties": {"ref": "0of3qxR6dexsaZkImpKdOQ==", "@spider": "aldi_au", "addr:street": "355-357 Waterloo Road", "addr:city": "Chullora", "addr:state": "NSW", "addr:postcode": "2190", "name": "ALDI", "opening_hours": "Su 08:30-20:00; Mo-We 08:30-20:00; Th 08:30-21:00; Fr-Sa 08:30-20:00; ", "brand": "Aldi"}, "geometry": {"type": "Point", "coordinates": [151.06117, -33.89299]}},
{"type": "Feature", "id": "XoMQfhg4nGM8mMdGzCH5L8Z_VUY=", "properties": {"ref": "6V61hROphvbrXdDT_MDZ3A==", "@spider": "aldi_au", "addr:street": "16 Zoe Place", "addr:city": "Mt Druitt", "addr:state": "NSW", "addr:postcode": "2770", "name": "ALDI", "opening_hours": "Su 08:30-20:00; Mo-We 08:30-20:00; Th 08:30-21:00; Fr-Sa 08:30-20:00; ", "brand": "Aldi"}, "geometry": {"type": "Point", "coordinates": [150.82729, -33.76584]}},
{"type": "Feature", "id": "U8V621bf2MQJSrr3inY7hQiuh1Q=", "properties": {"ref": "19e92f-DplTr5XNF4SA36Q==", "@spider": "aldi_au", "addr:street": "600 The Kingsway", "addr:city": "Miranda", "addr:state": "NSW", "addr:postcode": "2228", "name": "ALDI", "opening_hours": "Su 08:30-19:00; Mo-We 08:30-19:00; Th 08:30-21:00; Fr-Sa 08:30-19:00; ", "brand": "Aldi"}, "geometry": {"type": "Point", "coordinates": [151.10035, -34.03459]}},
{"type": "Feature", "id": "V4VesdKtBFMh04Jy0EyC4Ws-d5M=", "properties": {"ref": "tQ1PCaKXd6fqkKbYNZDymw==", "@spider": "aldi_au", "addr:street": "247-253 Belmore Road", "addr:city": "Riverwood", "addr:postcode": "2210", "name": "ALDI", "opening_hours": "Su 08:30-20:00; Mo-We 08:30-20:00; Th 08:30-21:00; Fr-Sa 08:30-20:00; ", "brand": "Aldi"}, "geometry": {"type": "Point", "coordinates": [151.05097, -33.95228]}},
{"type": "Feature", "id": "3E0amdU3N8LF5v5O1QGsc45lGUA=", "properties": {"ref": "aBqIu1lQsUCcCignlZyJAw==", "@spider": "aldi_au", "addr:street": "Shop A1, Park Road", "addr:city": "Hurstville", "addr:state": "NSW", "addr:postcode": "2220", "name": "ALDI", "opening_hours": "Su 08:30-20:00; Mo-Fr 08:30-21:00; Sa 08:30-20:00; ", "brand": "Aldi"}, "geometry": {"type": "Point", "coordinates": [151.10429, -33.96671]}},
{"type": "Feature", "id": "OXNg-1g4yyEJxaWZfloFdVmgXFA=", "properties": {"ref": "k8u7VwNN7dykeVRNaL1FTQ==", "@spider": "aldi_au", "addr:street": "76 Edward Street", "addr:city": "Carlton", "addr:postcode": "2218", "name": "ALDI", "opening_hours": "Su 08:30-20:00; Mo-We 08:30-20:00; Th 08:30-21:00; Fr-Sa 08:30-20:00; ", "brand": "Aldi"}, "geometry": {"type": "Point", "coordinates": [151.12433, -33.97686]}},
{"type": "Feature", "id": "4wWBQ3-4GubCfSnSseBvxKqTLbI=", "properties": {"ref": "9tTq-CcW652b-6tK3JJnsg==", "@spider": "aldi_au", "addr:street": "54 Narang Road", "addr:city": "Bomaderry", "addr:postcode": "2541", "name": "ALDI", "opening_hours": "Su 08:30-20:00; Mo-Sa 08:30-20:00; ", "brand": "Aldi"}, "geometry": {"type": "Point", "coordinates": [150.59383, -34.84544]}},
{"type": "Feature", "id": "I6xmAsjEWYm9vR5xuF1hFCtLGbo=", "properties": {"ref": "xgvsjB3G0pJtn-vpdgglAg==", "@spider": "aldi_au", "addr:street": "8-16 Kinghorne Street", "addr:city": "Nowra", "addr:state": "NSW", "addr:postcode": "2541", "name": "ALDI", "opening_hours": "Su 08:00-20:00; Mo-Sa 08:00-20:00; ", "brand": "Aldi"}, "geometry": {"type": "Point", "coordinates": [150.60354, -34.87362]}},
{"type": "Feature", "id": "A0Q3AhOYoAxc41pB0v8pogOnnok=", "properties": {"ref": "yISzN25_ariXqxINOAB1wg==", "@spider": "aldi_au", "addr:street": "50-60 Hardwick Crescent", "addr:city": "Kippax-Holt", "addr:state": "ACT", "addr:postcode": "2615", "name": "ALDI", "opening_hours": "Su 08:30-20:00; Mo-Sa 08:30-20:00; ", "brand": "Aldi"}, "geometry": {"type": "Point", "coordinates": [149.01909, -35.22127]}},
{"type": "Feature", "id": "41kxZJi2zgiVotajAP6zGAydsTc=", "properties": {"ref": "mtTE0LA_a482VVdXUvKanQ==", "@spider": "aldi_au", "addr:street": "45 Cowper Street", "addr:city": "Warrawong", "addr:state": "NSW", "addr:postcode": "2502", "name": "ALDI", "opening_hours": "Su 08:30-19:00; Mo-We 08:30-19:00; Th 08:30-20:00; Fr-Sa 08:30-19:00; ", "brand": "Aldi"}, "geometry": {"type": "Point", "coordinates": [150.88748, -34.48542]}},
{"type": "Feature", "id": "vmKrubiKhDsWHv65fauNMZBsY3s=", "properties": {"ref": "62FpA9pbLi96hPevW6wZsg==", "@spider": "aldi_au", "addr:street": "25 Stewart Street", "addr:city": "Wollongong", "addr:state": "NSW", "addr:postcode": "2521", "name": "ALDI", "opening_hours": "Su 08:30-20:00; Mo-Sa 08:30-20:00; ", "brand": "Aldi"}, "geometry": {"type": "Point", "coordinates": [150.89842, -34.42825]}},
{"type": "Feature", "id": "WptQS5phqYqwPmauGOstfMimPrw=", "properties": {"ref": "KNBmqNqmxoj0Nx_sU-BCwg==", "@spider": "aldi_au", "addr:street": "102-110 Princess Highway", "addr:city": "Fairy Meadow", "addr:state": "NSW", "addr:postcode": "2519", "name": "ALDI", "opening_hours": "Su 08:30-20:00; Mo-Sa 08:30-20:00; ", "brand": "Aldi"}, "geometry": {"type": "Point", "coordinates": [150.89357, -34.39383]}},
{"type": "Feature", "id": "npncIFai6vFmFPDASkri9puc7vM=", "properties": {"ref": "E_VARJiSSP1NJ_5Z5JfixQ==", "@spider": "aldi_au", "addr:street": "10 Ash Avenue", "addr:city": "Albion Park Rail", "addr:state": "NSW", "addr:postcode": "2527", "name": "ALDI", "opening_hours": "Su 08:30-20:00; Mo-Sa 08:30-20:00; ", "brand": "Aldi"}, "geometry": {"type": "Point", "coordinates": [150.80123, -34.57014]}},
{"type": "Feature", "id": "_FUyQNNr_XNrnx_GokvKpLXuS9A=", "properties": {"ref": "wVQxCVrfwRy9KB4qkgkfsw==", "@spider": "aldi_au", "addr:street": "38 Osborne Street", "addr:city": "Dapto", "addr:state": "NSW", "addr:postcode": "2530", "name": "ALDI", "opening_hours": "Su 08:30-20:00; Mo-Sa 08:30-20:00; ", "brand": "Aldi"}, "geometry": {"type": "Point", "coordinates": [150.79438, -34.49292]}},
{"type": "Feature", "id": "YgQ7qAncSepzq6gy_zxT9VqHowo=", "properties": {"ref": "SURiDcxx7mhMORKrWgwbyQ==", "@spider": "aldi_au", "addr:street": "103-115 Main Street", "addr:city": "Hervey Bay", "addr:state": "QLD", "addr:postcode": "4655", "name": "ALDI", "opening_hours": "Sa 08:00-18:00; Su 09:00-18:00; Mo-Fr 08:30-20:00; ", "brand": "Aldi"}, "geometry": {"type": "Point", "coordinates": [152.83725, -25.29019]}},
{"type": "Feature", "id": "pvTpcyhPpsyKXGwBv_h3YoBkHPs=", "properties": {"ref": "t7hzjosteUig4rPRy2dCDA==", "@spider": "aldi_au", "addr:street": "19 Cartwright Court", "addr:city": "Urangan", "addr:state": "QLD", "addr:postcode": "4655", "name": "ALDI", "opening_hours": "Sa 08:00-18:00; Su 09:00-18:00; Mo-Fr 08:30-20:00; ", "brand": "Aldi"}, "geometry": {"type": "Point", "coordinates": [152.89178, -25.29219]}},
{"type": "Feature", "id": "ww_qLylwhhDKMXskaRO8YzuTUUQ=", "properties": {"ref": "rQcfbYZtAwPdBt_Hq-WvPg==", "@spider": "aldi_au", "addr:street": "19 Maryborough Street", "addr:city": "Bundaberg", "addr:state": "QLD", "addr:postcode": "4670", "name": "ALDI", "opening_hours": "Sa 08:00-18:00; Su 09:00-18:00; Mo-Fr 08:30-20:00; ", "brand": "Aldi"}, "geometry": {"type": "Point", "coordinates": [152.34718, -24.8709]}},
{"type": "Feature", "id": "FsUAPpvb5e5r2ToJ_LSqMeJ8Oxo=", "properties": {"ref": "80Av8OvjiVizW64xFVL1Xw==", "@spider": "aldi_au", "addr:street": "Cnr Erindale & Beach Road", "addr:city": "Warwick", "addr:postcode": "6024", "name": "ALDI", "opening_hours": "Sa 08:30-17:00; Su 11:00-17:00; Mo-We 08:30-20:00; Th 08:30-21:00; Fr 08:30-20:00; ", "brand": "Aldi"}, "geometry": {"type": "Point", "coordinates": [115.81115, -31.84361]}},
{"type": "Feature", "id": "3zFLMZ5uDBsqa_nGM-LUdsqlM_I=", "properties": {"ref": "1hSdQdG-H53QsSzQ4TgHRA==", "@spider": "aldi_au", "addr:street": "43 Yirrigan Drive", "addr:city": "Mirrabooka", "addr:postcode": "6061", "name": "ALDI", "opening_hours": "Sa 08:30-17:00; Su 11:00-17:00; Mo-We 08:30-20:00; Th 08:30-21:00; Fr 08:30-20:00; ", "brand": "Aldi"}, "geometry": {"type": "Point", "coordinates": [115.86283, -31.87151]}},
{"type": "Feature", "id": "lCkfaOL-pA-OFqU91mq17S7C0mQ=", "properties": {"ref": "IMwuNhgLXDhGXWe-i6dofg==", "@spider": "aldi_au", "addr:street": "200 Karrinyup Road", "addr:city": "Karrinyup", "addr:postcode": "6018", "name": "ALDI", "opening_hours": "Sa 08:30-17:00; Su 11:00-17:00; Mo-We 08:30-20:00; Th 08:30-21:00; Fr 08:30-20:00; ", "brand": "Aldi"}, "geometry": {"type": "Point", "coordinates": [115.77884, -31.87669]}},
{"type": "Feature", "id": "Ea2CAWz2mcTMM217-2gkEtX9MV0=", "properties": {"ref": "mKS-mpGkTeu2sE3_X_2PQA==", "@spider": "aldi_au", "addr:street": "1611-1615 Sturt Street", "addr:city": "Alfredton", "addr:state": "VIC", "addr:postcode": "3350", "name": "ALDI", "opening_hours": "Su 08:30-20:00; Mo-Sa 08:30-20:00; ", "brand": "Aldi"}, "geometry": {"type": "Point", "coordinates": [143.81747, -37.55557]}},
{"type": "Feature", "id": "7D_Z1DYDRq3bC0b7qSPN8UrxXyA=", "properties": {"ref": "m5SbdgYXW5adwuolQySVww==", "@spider": "aldi_au", "addr:street": "102 -114 Creswick Road", "addr:city": "Ballarat", "addr:state": "VIC", "addr:postcode": "3350", "name": "ALDI", "opening_hours": "Su 08:30-20:00; Mo-Sa 08:30-20:00; ", "brand": "Aldi"}, "geometry": {"type": "Point", "coordinates": [143.8546, -37.55649]}},
{"type": "Feature", "id": "fYhmZ48shaSgpmc2vCzQ63LZOMY=", "properties": {"ref": "f3-m17-Wthj4VI3L0oHHLw==", "@spider": "aldi_au", "addr:street": "90 - 92 Edwards Road", "addr:city": "Strathdale", "addr:state": "VIC", "addr:postcode": "3550", "name": "ALDI", "opening_hours": "Su 08:30-20:00; Mo-Sa 08:30-20:00; ", "brand": "Aldi"}, "geometry": {"type": "Point", "coordinates": [144.30573, -36.77208]}},
{"type": "Feature", "id": "wnfUmRu4jcI6ENaphQ_jbImpLTY=", "properties": {"ref": "kqRE-0eUuCuOtH-gKujRJA==", "@spider": "aldi_au", "addr:street": "9 Ferdinand Lane", "addr:city": "Jerrabomberra", "addr:state": "NSW", "addr:postcode": "2619", "name": "ALDI", "opening_hours": "Su 08:30-20:00; Mo-Sa 08:30-20:00; ", "brand": "Aldi"}, "geometry": {"type": "Point", "coordinates": [149.19686, -35.38019]}},
{"type": "Feature", "id": "AGECCJc9aiThfCd2zIm6JLKdOSU=", "properties": {"ref": "WweFxsAFBOAnNmr8rc4w2w==", "@spider": "aldi_au", "addr:street": "134-136 Crawford Street", "addr:city": "Queanbeyan", "addr:state": "NSW", "addr:postcode": "2620", "name": "ALDI", "opening_hours": "Su 08:30-20:00; Mo-Sa 08:30-20:00; ", "brand": "Aldi"}, "geometry": {"type": "Point", "coordinates": [149.23127, -35.34828]}},
{"type": "Feature", "id": "JD98GoWNS82Wf1oXbC6oh8CEFaw=", "properties": {"ref": "RjfBwH2cCC4s0NrwsatRVw==", "@spider": "aldi_au", "addr:street": "52 Minorie Drive", "addr:city": "Toormina", "addr:state": "NSW", "addr:postcode": "2452", "name": "ALDI", "opening_hours": "Su 09:00-19:00; Mo-We 08:30-19:00; Th 08:30-20:00; Fr 08:30-19:00; Sa 08:00-19:00; ", "brand": "Aldi"}, "geometry": {"type": "Point", "coordinates": [153.09049, -30.35471]}},
{"type": "Feature", "id": "Kjws3Lb7e6N1rP31JM3RfrnBQnU=", "properties": {"ref": "i-eEvD3GryXqOr2ri6q0uA==", "@spider": "aldi_au", "addr:street": "85 Bali Dr,", "addr:city": "Quakers Hill", "addr:state": "NSW", "addr:postcode": "2763", "name": "ALDI", "opening_hours": "Su 08:30-20:00; Mo-We 08:30-20:00; Th 08:30-21:00; Fr-Sa 08:30-20:00; ", "brand": "Aldi"}, "geometry": {"type": "Point", "coordinates": [150.89196, -33.71828]}},
{"type": "Feature", "id": "upD4aFMVYMU5wyq3yPj51ohePuU=", "properties": {"ref": "vAYuGewWV3vJq7s_oJIuQg==", "@spider": "aldi_au", "addr:street": "Caroline Chisholm Drive", "addr:city": "Winston Hills", "addr:state": "NSW", "addr:postcode": "2153", "name": "ALDI", "opening_hours": "Su 08:30-20:00; Mo-We 08:30-20:00; Th 08:30-21:00; Fr-Sa 08:30-20:00; ", "brand": "Aldi"}, "geometry": {"type": "Point", "coordinates": [150.969, -33.77316]}},
{"type": "Feature", "id": "V4P4RfJI5E-mLkjy1u9ad8F3oXs=", "properties": {"ref": "WPQaYcpF2RjRNTG7t2v0NA==", "@spider": "aldi_au", "addr:street": "Cnr Duffy Ave & Eucalyptus", "addr:city": "Westleigh", "addr:state": "NSW", "addr:postcode": "2120", "name": "ALDI", "opening_hours": "Su 08:30-19:00; Mo-Fr 08:30-20:00; Sa 08:30-19:00; ", "brand": "Aldi"}, "geometry": {"type": "Point", "coordinates": [151.06894, -33.71971]}},
{"type": "Feature", "id": "jUnaRJi8BWHu_KGASvo9_sr10Nw=", "properties": {"ref": "0bBKR4VjzYH6jYnUGzAXnw==", "@spider": "aldi_au", "addr:street": "North Rocks Road", "addr:city": "North Rocks", "addr:state": "NSW", "addr:postcode": "2151", "name": "ALDI", "opening_hours": "Su 08:30-20:00; Mo-We 08:30-20:00; Th 08:30-20:30; Fr-Sa 08:30-20:00; ", "brand": "Aldi"}, "geometry": {"type": "Point", "coordinates": [151.02882, -33.76881]}},
{"type": "Feature", "id": "lk6__dX7Ro-_WQ38nbLjVcJuxFA=", "properties": {"ref": "i9GotsmLs0Cy7OuQokeJGA==", "@spider": "aldi_au", "addr:street": "166  Monier Road", "addr:city": "Darra", "addr:state": "QLD", "addr:postcode": "4076", "name": "ALDI", "opening_hours": "Sa 08:00-19:00; Su 09:00-18:00; Mo-We 08:30-20:00; Th 08:30-21:00; Fr 08:30-20:00; ", "brand": "Aldi"}, "geometry": {"type": "Point", "coordinates": [152.9515, -27.55929]}},
{"type": "Feature", "id": "vyPj_YB82T4_MHDdMOHAzVXMb1U=", "properties": {"ref": "LTISj4bA-IBpsvhzjzOX_g==", "@spider": "aldi_au", "addr:street": "21 Kingston Road", "addr:city": "Underwood", "addr:state": "QLD", "addr:postcode": "4119", "name": "ALDI", "opening_hours": "Sa 08:00-19:00; Su 09:00-18:00; Mo-Fr 08:30-20:00; ", "brand": "Aldi"}, "geometry": {"type": "Point", "coordinates": [153.11023, -27.60879]}},
{"type": "Feature", "id": "v0iCgKcm8oUZKzUvWsw0XFyPBgU=", "properties": {"ref": "XGV4-1Kcrv2q2sCynGBTvg==", "@spider": "aldi_au", "addr:street": "30 Harry Street", "addr:city": "Ashgrove", "addr:state": "QLD", "addr:postcode": "4060", "name": "ALDI", "opening_hours": "Sa 08:00-19:00; Su 09:00-18:00; Mo-Fr 08:30-20:00; ", "brand": "Aldi"}, "geometry": {"type": "Point", "coordinates": [152.99241, -27.44489]}},
{"type": "Feature", "id": "BjDGjXQ6OnLwBcN2IBXejWGa1F8=", "properties": {"ref": "T038alLWn7RbqlrEhXsuQw==", "@spider": "aldi_au", "addr:street": "Marrickville Metro S/Centre", "addr:city": "Marrickville", "addr:state": "NSW", "addr:postcode": "2204", "name": "ALDI", "opening_hours": "Su 08:30-20:00; Mo-We 08:30-20:00; Th 08:30-21:00; Fr-Sa 08:30-20:00; ", "brand": "Aldi"}, "geometry": {"type": "Point", "coordinates": [151.17102, -33.90642]}},
{"type": "Feature", "id": "mzknf9hnG30_wMyHksUcO7llu0w=", "properties": {"ref": "_8goJpLhnN3d2cbdvWxxEQ==", "@spider": "aldi_au", "addr:street": "Shop G01, 16D Evans Avenue", "addr:city": "Eastlakes", "addr:postcode": "2018", "name": "ALDI", "opening_hours": "Su 08:30-20:00; Mo-We 08:30-20:00; Th 08:30-21:00; Fr-Sa 08:30-20:00; ", "brand": "Aldi"}, "geometry": {"type": "Point", "coordinates": [151.21228, -33.92427]}},
{"type": "Feature", "id": "1fB_-fuLHpKJqfUhC3pnFn64aTk=", "properties": {"ref": "Vn00RoHf-CBUnh2Qguo3bQ==", "@spider": "aldi_au", "addr:street": "Cnr Pembroke Rd Monagham St", "addr:city": "Minto", "addr:state": "NSW", "addr:postcode": "2566", "name": "ALDI", "opening_hours": "Su 08:30-20:00; Mo-We 08:30-20:00; Th 08:30-21:00; Fr-Sa 08:30-20:00; ", "brand": "Aldi"}, "geometry": {"type": "Point", "coordinates": [150.84951, -34.028]}},
{"type": "Feature", "id": "0V2VF6S_O32wwUvJpwlGXfE0vNE=", "properties": {"ref": "zpVM16UNp63uHjgkaovcaA==", "@spider": "aldi_au", "addr:street": "440-450 Chapel Road", "addr:city": "Bankstown", "addr:state": "NSW", "addr:postcode": "2200", "name": "ALDI", "opening_hours": "Su 08:30-20:00; Mo-Fr 08:30-21:00; Sa 08:30-20:00; ", "brand": "Aldi"}, "geometry": {"type": "Point", "coordinates": [151.03477, -33.91426]}},
{"type": "Feature", "id": "KVZUPkpy-ZmpiGTkrOQv7CCvsY4=", "properties": {"ref": "juq4akNulP33xYDp-HPepg==", "@spider": "aldi_au", "addr:street": "8-36 Station Street", "addr:city": "Fairfield", "addr:postcode": "2165", "name": "ALDI", "opening_hours": "Su 08:30-20:00; Mo-We 08:30-20:00; Th 08:30-21:00; Fr-Sa 08:30-20:00; ", "brand": "Aldi"}, "geometry": {"type": "Point", "coordinates": [150.9527, -33.86769]}},
{"type": "Feature", "id": "ReozJBz_yZehlBBd93wFj8xDI18=", "properties": {"ref": "0viQoKppVleq2NDG5lV2GQ==", "@spider": "aldi_au", "addr:street": "G1 Kogarah TC 1 Railway Pde", "addr:city": "Kogarah", "addr:state": "NSW", "addr:postcode": "2217", "name": "ALDI", "opening_hours": "Su 08:30-20:00; Mo-We 08:30-20:00; Th 08:30-21:00; Fr-Sa 08:30-20:00; ", "brand": "Aldi"}, "geometry": {"type": "Point", "coordinates": [151.12326, -33.96882]}},
{"type": "Feature", "id": "uGVNqEX_V0wBAZ5sNszNuTdR_KA=", "properties": {"ref": "pbuXryynilV0jg_GQap0cg==", "@spider": "aldi_au", "addr:street": "43-57 Shellharbour Road", "addr:city": "Warilla", "addr:state": "NSW", "addr:postcode": "2528", "name": "ALDI", "opening_hours": "Su 08:30-19:00; Mo-We 08:30-19:00; Th 08:30-20:00; Fr-Sa 08:30-19:00; ", "brand": "Aldi"}, "geometry": {"type": "Point", "coordinates": [150.86281, -34.54688]}},
{"type": "Feature", "id": "CmyOCLC7fXv3UO3LTwx40c_ZlAY=", "properties": {"ref": "js-1LTgwg7snMH8cS-07VA==", "@spider": "aldi_au", "addr:street": "5 Holm Place", "addr:city": "Shellharbour", "addr:state": "NSW", "addr:postcode": "2529", "name": "ALDI", "opening_hours": "Su 08:30-20:00; Mo-Sa 08:30-20:00; ", "brand": "Aldi"}, "geometry": {"type": "Point", "coordinates": [150.83711, -34.56291]}},
{"type": "Feature", "id": "abkgFC2wuzwA2cC6ZR2gQYQaKcg=", "properties": {"ref": "gldPFqihAEy_s6aP8BIq_Q==", "@spider": "aldi_au", "addr:street": "123 Takalvan Street", "addr:city": "Avoca", "addr:state": "QLD", "addr:postcode": "4670", "name": "ALDI", "opening_hours": "Sa 08:00-18:00; Su 09:00-18:00; Mo-Fr 08:30-20:00; ", "brand": "Aldi"}, "geometry": {"type": "Point", "coordinates": [152.31839, -24.88973]}},
{"type": "Feature", "id": "mWGgwJZXVbg2hE5PCQ6ygYcox-w=", "properties": {"ref": "CYPBRvBZrFTlqG5nRzzhwg==", "@spider": "aldi_au", "addr:street": "153 Greathead Road", "addr:city": "Kepnock", "addr:state": "QLD", "addr:postcode": "4670", "name": "ALDI", "opening_hours": "Sa 08:00-18:00; Su 09:00-18:00; Mo-We 08:30-19:00; Th 08:30-20:00; Fr 08:30-19:00; ", "brand": "Aldi"}, "geometry": {"type": "Point", "coordinates": [152.38478, -24.87007]}},
{"type": "Feature", "id": "w-WodzQ9ms2oQ0XjM6uEEH0FFyU=", "properties": {"ref": "nlgsEp5oOeHyRkfHa1-egQ==", "@spider": "aldi_au", "addr:street": "6 Wanneroo Rd", "addr:city": "Yokine", "addr:postcode": "6060", "name": "ALDI", "opening_hours": "Sa 08:30-17:00; Su 11:00-17:00; Mo-We 08:30-20:00; Th 08:30-21:00; Fr 08:30-20:00; ", "brand": "Aldi"}, "geometry": {"type": "Point", "coordinates": [115.84663, -31.91063]}},
{"type": "Feature", "id": "wh9QFf7SPhXQmX1FCpad3si3xzE=", "properties": {"ref": "rl51n0LNJbo_esoSDjHPcA==", "@spider": "aldi_au", "addr:street": "Cnr Conlan Ave& Wanneroo Rd", "addr:city": "Wanneroo", "addr:postcode": "6065", "name": "ALDI", "opening_hours": "Sa 08:30-17:00; Su 11:00-17:00; Mo-We 08:30-19:00; Th 08:30-21:00; Fr 08:30-19:00; ", "brand": "Aldi"}, "geometry": {"type": "Point", "coordinates": [115.8059, -31.75227]}},
{"type": "Feature", "id": "TjnoU77QsldzHnkKuQLIEzzkmxw=", "properties": {"ref": "GJ9T5urS-cNiNWd0c0VYTg==", "@spider": "aldi_au", "addr:street": "21 Learmonth Road", "addr:city": "Wendouree", "addr:postcode": "3355", "name": "ALDI", "opening_hours": "Su 08:30-20:00; Mo-Sa 08:30-20:00; ", "brand": "Aldi"}, "geometry": {"type": "Point", "coordinates": [143.8181, -37.53504]}},
{"type": "Feature", "id": "N4Lpu0xRkKLAr9LSQ0kCd1lHhYo=", "properties": {"ref": "3-aFTog0wx3GQV1XK8Ihag==", "@spider": "aldi_au", "addr:street": "4-8 Peg Leg Road", "addr:city": "Eaglehawk", "addr:state": "VIC", "addr:postcode": "3556", "name": "ALDI", "opening_hours": "Su 08:30-20:00; Mo-Sa 08:30-20:00; ", "brand": "Aldi"}, "geometry": {"type": "Point", "coordinates": [144.24999, -36.71736]}},
{"type": "Feature", "id": "5NTeUCkQ3u1_ydGyfF7wvRHK_ns=", "properties": {"ref": "L8mP-dyVq6_N7B44twDPKA==", "@spider": "aldi_au", "addr:street": "12-22 Coastal Boulevard", "addr:city": "Ocean Grove", "addr:state": "VIC", "addr:postcode": "3226", "name": "ALDI", "opening_hours": "Su 08:30-19:00; Mo-We 08:30-19:00; Th 08:30-20:00; Fr-Sa 08:30-19:00; ", "brand": "Aldi"}, "geometry": {"type": "Point", "coordinates": [144.54205, -38.24861]}},
{"type": "Feature", "id": "KawQW7QK_Y63gwnyvKk4aI_jzLU=", "properties": {"ref": "Rey0Lp2i4HvYUd2BcfnT4w==", "@spider": "aldi_au", "addr:street": "12 - 22 Murradoc Road", "addr:city": "Drysdale", "addr:state": "VIC", "addr:postcode": "3222", "name": "ALDI", "opening_hours": "Su 08:30-19:00; Mo-Fr 08:30-20:00; Sa 08:30-19:00; ", "brand": "Aldi"}, "geometry": {"type": "Point", "coordinates": [144.57303, -38.17326]}},
{"type": "Feature", "id": "vSh-CPqGP9EHLNtQ6QNZMx9OFWs=", "properties": {"ref": "YJ53PRjN7ztzsyMicedx4g==", "@spider": "aldi_au", "addr:street": "641-659 Bellarine Hwy", "addr:city": "Leopold", "addr:postcode": "3224", "name": "ALDI", "opening_hours": "Su 08:30-19:00; Mo-Fr 08:30-20:00; Sa 08:30-19:00; ", "brand": "Aldi"}, "geometry": {"type": "Point", "coordinates": [144.45435, -38.18624]}},
{"type": "Feature", "id": "RdlzxIklYWfFUi-KXUtg3sFixD0=", "properties": {"ref": "JFDe4Mv1N_Gq3_eedJvIwQ==", "@spider": "aldi_au", "addr:street": "Prospect Hwy & Federal Rd", "addr:city": "Seven Hills", "addr:state": "NSW", "addr:postcode": "2147", "name": "ALDI", "opening_hours": "Su 08:30-20:00; Mo-We 08:30-20:00; Th 08:30-20:30; Fr-Sa 08:30-20:00; ", "brand": "Aldi"}, "geometry": {"type": "Point", "coordinates": [150.93316, -33.77547]}},
{"type": "Feature", "id": "lGX31uyOFcnFSIKxQdK0wo8AmGs=", "properties": {"ref": "QY0mEF-NLm9RP5-PadKkIQ==", "@spider": "aldi_au", "addr:street": "Cnr Inala & Corsair Ave", "addr:city": "Inala", "addr:state": "QLD", "addr:postcode": "4077", "name": "ALDI", "opening_hours": "Sa 08:00-19:00; Su 09:00-18:00; Mo-Fr 08:30-19:00; ", "brand": "Aldi"}, "geometry": {"type": "Point", "coordinates": [152.97413, -27.59812]}},
{"type": "Feature", "id": "Jkw22bEvZxFWrZfoSoquEaLvxWg=", "properties": {"ref": "8mAFhmEkjVlwN-aYyUkyHA==", "@spider": "aldi_au", "addr:street": "Cnr Wynnum Rd & Bognor St", "addr:city": "Tingalpa", "addr:state": "QLD", "addr:postcode": "4173", "name": "ALDI", "opening_hours": "Sa 08:00-19:00; Su 09:00-18:00; Mo-Fr 08:30-20:00; ", "brand": "Aldi"}, "geometry": {"type": "Point", "coordinates": [153.14203, -27.46562]}},
{"type": "Feature", "id": "wEsMMUFKfDkakUwK5PkL99pAtIc=", "properties": {"ref": "f9JzyM68TPdiQCCP7043OQ==", "@spider": "aldi_au", "addr:street": "S65 Eastlakes SC Evans Av", "addr:city": "Eastlakes", "addr:state": "NSW", "addr:postcode": "2018", "name": "ALDI", "opening_hours": "Su 08:30-19:00; Mo-Fr 08:30-20:00; Sa 08:30-19:00; ", "brand": "Aldi"}, "geometry": {"type": "Point", "coordinates": [151.21051, -33.92528]}},
{"type": "Feature", "id": "7rsTK9nDcjUgE0QdV6W2qgGTFd8=", "properties": {"ref": "k1SONx6EVmSfCToU_eqxGA==", "@spider": "aldi_au", "addr:street": "The Bakehouse Qtr,George St", "addr:city": "North Strathfield", "addr:state": "NSW", "addr:postcode": "2137", "name": "ALDI", "opening_hours": "Su 08:30-20:00; Mo-We 08:30-20:00; Th 08:30-21:00; Fr-Sa 08:30-20:00; ", "brand": "Aldi"}, "geometry": {"type": "Point", "coordinates": [151.08693, -33.8595]}},
{"type": "Feature", "id": "YQ5Htfi2XGji0BcQU1UO6JGSe8I=", "properties": {"ref": "llBxplWyMVOh2-eOtMt_mA==", "@spider": "aldi_au", "addr:street": "149 - 151 High Street", "addr:city": "Belmont", "addr:state": "VIC", "addr:postcode": "3216", "name": "ALDI", "opening_hours": "Su 08:30-20:00; Mo-Sa 08:30-20:00; ", "brand": "Aldi"}, "geometry": {"type": "Point", "coordinates": [144.34389, -38.17361]}},
{"type": "Feature", "id": "DhFXBzm2mww-nyZDuSju5iXRVQw=", "properties": {"ref": "wNa6Fr0lLrBjzkaQVyA-XQ==", "@spider": "aldi_au", "addr:street": "540 Derrimut Rd", "addr:city": "Tarneit", "addr:postcode": "3029", "name": "ALDI", "opening_hours": "Su 08:30-21:00; Mo-Sa 08:30-21:00; ", "brand": "Aldi"}, "geometry": {"type": "Point", "coordinates": [144.69048, -37.83841]}},
{"type": "Feature", "id": "JoEe8Qo25Fa_Y4MsHkZoul6dngw=", "properties": {"ref": "6xLOUyYvS5LI_mfMg2Plag==", "@spider": "aldi_au", "addr:street": "Shop M02, 241 Main St", "addr:city": "Mornington", "addr:state": "VIC", "addr:postcode": "3931", "name": "ALDI", "opening_hours": "Su 08:30-19:00; Mo-Sa 08:30-19:00; ", "brand": "Aldi"}, "geometry": {"type": "Point", "coordinates": [145.98555, -38.26078]}},
{"type": "Feature", "id": "6lBWjS9N5CKCvoGTl_eBYZ3qAfQ=", "properties": {"ref": "IQA3bSc4f7UJjEKvjPAusQ==", "@spider": "aldi_au", "addr:street": "12-28 Queen Street", "addr:city": "Warragul", "addr:state": "VIC", "addr:postcode": "3820", "name": "ALDI", "opening_hours": "Su 08:30-20:00; Mo-Sa 08:30-20:00; ", "brand": "Aldi"}, "geometry": {"type": "Point", "coordinates": [145.9272, -38.16255]}},
{"type": "Feature", "id": "DTNkSQTAhkgAwSyuUUoUb7_b9Po=", "properties": {"ref": "aSf8bCsRNDj3c21n62Q1dg==", "@spider": "aldi_au", "addr:street": "1 O'Shea Road Eden Rise SC", "addr:city": "Eden Rise", "addr:state": "VIC", "addr:postcode": "3806", "name": "ALDI", "opening_hours": "Su 08:30-20:00; Mo-Sa 08:30-20:00; ", "brand": "Aldi"}, "geometry": {"type": "Point", "coordinates": [145.32701, -38.07677]}},
{"type": "Feature", "id": "pY5qWhQVRoPi28AbQeql_c3QsCc=", "properties": {"ref": "8MIA0vd9diJqpmxgKAYpTQ==", "@spider": "aldi_au", "addr:street": "28 Beach Street", "addr:city": "Frankston", "addr:state": "VIC", "addr:postcode": "3199", "name": "ALDI", "opening_hours": "Su 08:30-20:00; Mo-Sa 08:30-20:00; ", "brand": "Aldi"}, "geometry": {"type": "Point", "coordinates": [145.1262, -38.13978]}},
{"type": "Feature", "id": "zUASE0kEGw46GMVpztyq14R5iJw=", "properties": {"ref": "ztXbwAwMF1MlCZm7mCpbiQ==", "@spider": "aldi_au", "addr:street": "10-14 High Street", "addr:city": "Bayswater", "addr:state": "VIC", "addr:postcode": "3153", "name": "ALDI", "opening_hours": "Su 08:30-20:00; Mo-Sa 08:30-20:00; ", "brand": "Aldi"}, "geometry": {"type": "Point", "coordinates": [145.26641, -37.84306]}},
{"type": "Feature", "id": "VxDs7-VoUa-wiDsCmglc_3pa6e8=", "properties": {"ref": "3y2QdmjzmX5yfA-4_fbrwQ==", "@spider": "aldi_au", "addr:street": "15-25 Station Street", "addr:city": "Camberwell", "addr:state": "VIC", "addr:postcode": "3124", "name": "ALDI", "opening_hours": "Su 08:30-20:00; Mo-Sa 08:30-20:00; ", "brand": "Aldi"}, "geometry": {"type": "Point", "coordinates": [145.05844, -37.83049]}},
{"type": "Feature", "id": "PavOVsHjBSnhB34V22TTT1pk8QM=", "properties": {"ref": "OlKRlCIriatMVXRHsff49g==", "@spider": "aldi_au", "addr:street": "4 Collier Rd", "addr:city": "Morley", "addr:postcode": "6062", "name": "ALDI", "opening_hours": "Sa 08:30-17:00; Su 11:00-17:00; Mo-We 08:30-20:00; Th 08:30-21:00; Fr 08:30-20:00; ", "brand": "Aldi"}, "geometry": {"type": "Point", "coordinates": [115.90073, -31.8999]}},
{"type": "Feature", "id": "yeOD8X9ZLl8G73QGShZR8-HB0xY=", "properties": {"ref": "CMK8v5P3uHjKs03mdNs_Og==", "@spider": "aldi_au", "addr:street": "31-35 Albert Street", "addr:city": "Sebastopol", "addr:state": "VIC", "addr:postcode": "3356", "name": "ALDI", "opening_hours": "Su 08:30-20:00; Mo-Sa 08:30-20:00; ", "brand": "Aldi"}, "geometry": {"type": "Point", "coordinates": [143.84122, -37.58491]}},
{"type": "Feature", "id": "OIBy7s2pyeOmiQ2pOtDeNho_srE=", "properties": {"ref": "omjvpok25M7ymLS6kPw5Tw==", "@spider": "aldi_au", "addr:street": "182-192 Midland Highway", "addr:city": "Epsom", "addr:postcode": "3551", "name": "ALDI", "opening_hours": "Su 08:30-20:00; Mo-Sa 08:30-20:00; ", "brand": "Aldi"}, "geometry": {"type": "Point", "coordinates": [144.31743, -36.70466]}},
{"type": "Feature", "id": "ynNRcrL5i6QuyWjob44p_Mu-tBA=", "properties": {"ref": "bfGh7xvN_VsTCjRZnhCsxg==", "@spider": "aldi_au", "addr:street": "Cnr High St & Lockwood Rd", "addr:city": "Kangaroo Flat", "addr:state": "VIC", "addr:postcode": "3555", "name": "ALDI", "opening_hours": "Su 08:30-20:00; Mo-Sa 08:30-20:00; ", "brand": "Aldi"}, "geometry": {"type": "Point", "coordinates": [144.24222, -36.80944]}},
{"type": "Feature", "id": "Ajs4OgE_JdhUlgCkAVfUUkWvJUw=", "properties": {"ref": "JmcyqhTLz4W-_J5Jo-TqRQ==", "@spider": "aldi_au", "addr:street": "275-291 Pennant Hills Road", "addr:city": "Thornleigh", "addr:state": "NSW", "addr:postcode": "2120", "name": "ALDI", "opening_hours": "Su 08:30-20:00; Mo-We 08:30-20:00; Th 08:30-21:00; Fr-Sa 08:30-20:00; ", "brand": "Aldi"}, "geometry": {"type": "Point", "coordinates": [151.0799, -33.73202]}},
{"type": "Feature", "id": "9gXVGJ52wUFC7Qgj964pG3xNu8A=", "properties": {"ref": "dvgeT2jbOokhkXU5Mv9Sqw==", "@spider": "aldi_au", "addr:street": "17 Patrick Street", "addr:city": "Blacktown", "addr:state": "NSW", "addr:postcode": "2148", "name": "ALDI", "opening_hours": "Su 08:30-20:00; Mo-We 08:30-20:00; Th 08:30-21:00; Fr-Sa 08:30-20:00; ", "brand": "Aldi"}, "geometry": {"type": "Point", "coordinates": [150.9066, -33.77114]}},
{"type": "Feature", "id": "p0XL0W6wrjAjdtxNm-YSX695rew=", "properties": {"ref": "d_dz1G9ASwJa-wreaIwC7A==", "@spider": "aldi_au", "addr:street": "3-5 Cross Street", "addr:city": "Brookvale", "addr:state": "NSW", "addr:postcode": "2100", "name": "ALDI", "opening_hours": "Su 08:30-20:00; Mo-We 08:30-20:00; Th 08:30-21:00; Fr-Sa 08:30-20:00; ", "brand": "Aldi"}, "geometry": {"type": "Point", "coordinates": [151.26735, -33.7658]}},
{"type": "Feature", "id": "gcI0JpCcrga9Af-y5SuvPLEHAVQ=", "properties": {"ref": "G6q1f69oVQRXTpdpkLxYzA==", "@spider": "aldi_au", "addr:street": "413-417 Victoria Road", "addr:city": "Gladesville", "addr:state": "NSW", "addr:postcode": "2111", "name": "ALDI", "opening_hours": "Su 08:30-20:00; Mo-We 08:30-20:00; Th 08:30-21:00; Fr-Sa 08:30-20:00; ", "brand": "Aldi"}, "geometry": {"type": "Point", "coordinates": [151.124, -33.82349]}},
{"type": "Feature", "id": "RFeeA_5ju0OT1-HPkU1VkNejbnU=", "properties": {"ref": "675LJWccbk5rCbpd5O5y6g==", "@spider": "aldi_au", "addr:street": "260A Liverpool Road", "addr:city": "Ashfield", "addr:state": "NSW", "addr:postcode": "2131", "name": "ALDI", "opening_hours": "Su 08:30-20:00; Mo-We 08:30-20:00; Th 08:30-21:00; Fr-Sa 08:30-20:00; ", "brand": "Aldi"}, "geometry": {"type": "Point", "coordinates": [151.12414, -33.88942]}},
{"type": "Feature", "id": "lF-EIO-L6jA_w34fGiWlNhcK6cs=", "properties": {"ref": "1Hy5Mdk_C6Xwptd96uvzzw==", "@spider": "aldi_au", "addr:street": "359-363 Victoria Road", "addr:city": "Rydalmere", "addr:state": "NSW", "addr:postcode": "2116", "name": "ALDI", "opening_hours": "Su 08:30-20:00; Mo-We 08:30-20:00; Th 08:30-21:00; Fr-Sa 08:30-20:00; ", "brand": "Aldi"}, "geometry": {"type": "Point", "coordinates": [151.04194, -33.81259]}},
{"type": "Feature", "id": "Z_2d6bUGsP6jXcDqr2cRjK9AQYA=", "properties": {"ref": "s0Pxy6D2GHiHk3lzne8cjA==", "@spider": "aldi_au", "addr:street": "331 - 339 Great Western Hwy", "addr:city": "Wentworthville", "addr:state": "NSW", "addr:postcode": "2145", "name": "ALDI", "opening_hours": "Su 08:30-20:00; Mo-Fr 08:30-21:00; Sa 08:30-20:00; ", "brand": "Aldi"}, "geometry": {"type": "Point", "coordinates": [150.96972, -33.81614]}},
{"type": "Feature", "id": "BKa1aqD0VIgVMwKxzD95Zg_GKT0=", "properties": {"ref": "mK7xR0tBhxSavO3g4UsHDw==", "@spider": "aldi_au", "addr:street": "1 Rider Boulevarde", "addr:city": "Rhodes", "addr:postcode": "2138", "name": "ALDI", "opening_hours": "Su 08:30-20:00; Mo-We 08:30-20:00; Th 08:30-21:00; Fr-Sa 08:30-20:00; ", "brand": "Aldi"}, "geometry": {"type": "Point", "coordinates": [151.08556, -33.83524]}},
{"type": "Feature", "id": "dbOrv9A_aotWfUKp6NFNl9S0Hio=", "properties": {"ref": "9XTKGqM9V4Zjm-JXsJaYVQ==", "@spider": "aldi_au", "addr:street": "Newcomb S/C Bellarine Hwy", "addr:city": "Newcomb", "addr:state": "VIC", "addr:postcode": "3219", "name": "ALDI", "opening_hours": "Su 08:30-19:00; Mo-Fr 08:30-20:00; Sa 08:30-19:00; ", "brand": "Aldi"}, "geometry": {"type": "Point", "coordinates": [144.39262, -38.16987]}},
{"type": "Feature", "id": "6MR97UdTpuVLE_XdIJK3pFYiLww=", "properties": {"ref": "io5JRwPrc7PPdlzJFg_I2Q==", "@spider": "aldi_au", "addr:street": "4 Main Street", "addr:city": "Point Cook", "addr:state": "VIC", "addr:postcode": "3030", "name": "ALDI", "opening_hours": "Su 08:30-20:00; Mo-Sa 08:30-20:00; ", "brand": "Aldi"}, "geometry": {"type": "Point", "coordinates": [144.73561, -37.88194]}},
{"type": "Feature", "id": "NfWZOXIUIw100nHQRlweWi3zk84=", "properties": {"ref": "wl-u4yDsqI-5g8YsvWVZJg==", "@spider": "aldi_au", "addr:street": "1 Central Avenue", "addr:city": "Altona Meadows", "addr:state": "VIC", "addr:postcode": "3028", "name": "ALDI", "opening_hours": "Su 08:30-20:00; Mo-Sa 08:30-20:00; ", "brand": "Aldi"}, "geometry": {"type": "Point", "coordinates": [144.77518, -37.87261]}},
{"type": "Feature", "id": "IJ5hZfCK5iyqawzPrMWR_HotDh4=", "properties": {"ref": "agcrlzBuJ_SMxBwS-FZReA==", "@spider": "aldi_au", "addr:street": "Cnr Derrimut & Heaths Roads", "addr:city": "Werribee", "addr:state": "VIC", "addr:postcode": "3030", "name": "ALDI", "opening_hours": "Su 08:30-20:00; Mo-We 08:30-20:00; Th-Fr 08:30-20:30; Sa 08:30-20:00; ", "brand": "Aldi"}, "geometry": {"type": "Point", "coordinates": [144.67963, -37.8752]}},
{"type": "Feature", "id": "msQgEhv_GRAXCYbHA2igQa2yjzQ=", "properties": {"ref": "FCL8p1opxWYxkdwCRAXL3A==", "@spider": "aldi_au", "addr:street": "400 Pound Road", "addr:city": "Hampton Park", "addr:state": "VIC", "addr:postcode": "3976", "name": "ALDI", "opening_hours": "Su 08:30-20:00; Mo-Sa 08:30-20:00; ", "brand": "Aldi"}, "geometry": {"type": "Point", "coordinates": [145.30503, -38.07677]}},
{"type": "Feature", "id": "sKwoTG202pLA_O7E2-mLqZwCapM=", "properties": {"ref": "_8Z_4oWL3ZkKqSvZtElCiw==", "@spider": "aldi_au", "addr:street": "400 Narre Warren-Cranbourne", "addr:city": "Narre Warren South", "addr:state": "VIC", "addr:postcode": "3805", "name": "ALDI", "opening_hours": "Su 08:30-20:00; Mo-Sa 08:30-20:00; ", "brand": "Aldi"}, "geometry": {"type": "Point", "coordinates": [145.30072, -38.06728]}},
{"type": "Feature", "id": "XUF_x9YhGOzCPFPodxMoZ6MqkeQ=", "properties": {"ref": "7TZzmkztSkh-gGrI1R4eyQ==", "@spider": "aldi_au", "addr:street": "493 Frankston-Dandenong Rd", "addr:city": "Carrum Downs", "addr:state": "VIC", "addr:postcode": "3201", "name": "ALDI", "opening_hours": "Su 08:30-20:00; Mo-Sa 08:30-20:00; ", "brand": "Aldi"}, "geometry": {"type": "Point", "coordinates": [145.16075, -38.11012]}},
{"type": "Feature", "id": "5DAVj2fd3lBzw8SNU1ydE6v7-1U=", "properties": {"ref": "dKcQ2XOzgF3rYDcEc3hoag==", "@spider": "aldi_au", "addr:street": "1009 Burwood Highway", "addr:city": "Ferntree Gully", "addr:state": "VIC", "addr:postcode": "3156", "name": "ALDI", "opening_hours": "Su 08:30-20:00; Mo-Sa 08:30-20:00; ", "brand": "Aldi"}, "geometry": {"type": "Point", "coordinates": [145.28916, -37.88829]}},
{"type": "Feature", "id": "0zk7xWrNv8vj2d7ulYY5D4Yb0A4=", "properties": {"ref": "A71gfFpP0LCLUXuSgI_5kQ==", "@spider": "aldi_au", "addr:street": "540 Mount Dandenong Road", "addr:city": "Kilsyth", "addr:state": "VIC", "addr:postcode": "3137", "name": "ALDI", "opening_hours": "Su 08:30-20:00; Mo-Sa 08:30-20:00; ", "brand": "Aldi"}, "geometry": {"type": "Point", "coordinates": [145.31133, -37.80301]}},
{"type": "Feature", "id": "LDeNcHfKHJOVQFxM-m1Ptp-HB-8=", "properties": {"ref": "sXslM8JMfqli8Rr26nJj3w==", "@spider": "aldi_au", "addr:street": "313 - 325 Victoria Street", "addr:city": "Abbotsford", "addr:state": "VIC", "addr:postcode": "3067", "name": "ALDI", "opening_hours": "Su 08:30-20:00; Mo-Sa 08:30-20:00; ", "brand": "Aldi"}, "geometry": {"type": "Point", "coordinates": [144.99546, -37.8099]}},
{"type": "Feature", "id": "BcREAkMkjNjeN85qDVZ7f5xt8WI=", "properties": {"ref": "KQGyLg-4DbvqLYgfDT9a-w==", "@spider": "aldi_au", "addr:street": "135 Inkerman Street", "addr:city": "St Kilda", "addr:state": "VIC", "addr:postcode": "3182", "name": "ALDI", "opening_hours": "Su 08:30-20:00; Mo-Sa 08:30-20:00; ", "brand": "Aldi"}, "geometry": {"type": "Point", "coordinates": [144.98747, -37.86492]}},
{"type": "Feature", "id": "P_TkgnQ-JSiLUrxJQzLoeQHRT0w=", "properties": {"ref": "A_CRTgvERLXwWfh3IPLxwA==", "@spider": "aldi_au", "addr:street": "Cnr Sydney & Mahoneys Road", "addr:city": "Campbellfield", "addr:postcode": "3061", "name": "ALDI", "opening_hours": "Su 08:30-20:00; Mo-Sa 08:30-20:00; ", "brand": "Aldi"}, "geometry": {"type": "Point", "coordinates": [144.95826, -37.6881]}},
{"type": "Feature", "id": "-nlJNFiynlm4YjESOqMdd0PrRTg=", "properties": {"ref": "HnNcPcU193w_RtRFuTpCgg==", "@spider": "aldi_au", "addr:street": "Cnr Marmion & Whitfords Ave", "addr:city": "Hillarys", "addr:postcode": "6025", "name": "ALDI", "opening_hours": "Sa 08:30-17:00; Su 11:00-17:00; Mo-We 08:30-20:00; Th 08:30-21:00; Fr 08:30-20:00; ", "brand": "Aldi"}, "geometry": {"type": "Point", "coordinates": [115.74921, -31.79638]}},
{"type": "Feature", "id": "G-_nJzqQSxdlQezLJyF_7MLDDrE=", "properties": {"ref": "0XpORT9jJeCOt5UaUN4OOQ==", "@spider": "aldi_au", "addr:street": "161 Altone Park Road", "addr:city": "Beechboro", "addr:postcode": "6063", "name": "ALDI", "opening_hours": "Sa 08:30-17:00; Su 11:00-17:00; Mo-We 08:30-20:00; Th 08:30-21:00; Fr 08:30-20:00; ", "brand": "Aldi"}, "geometry": {"type": "Point", "coordinates": [115.94558, -31.87083]}},
{"type": "Feature", "id": "r-9tndOvC8pCYjdCAEpEqUSf_So=", "properties": {"ref": "NgS4Hzt4zWkocgOfgqxn0Q==", "@spider": "aldi_au", "addr:street": "Henry Lawson & Milperra Rd", "addr:city": "Bankstown Airport", "addr:state": "NSW", "addr:postcode": "2200", "name": "ALDI", "opening_hours": "Su 08:30-20:00; Mo-We 08:30-20:00; Th 08:30-21:00; Fr-Sa 08:30-20:00; ", "brand": "Aldi"}, "geometry": {"type": "Point", "coordinates": [150.98118, -33.92828]}},
{"type": "Feature", "id": "oamNnWoU5-jupLboQM5UV5cj_YM=", "properties": {"ref": "4lBV004wmnor6GffCAahrg==", "@spider": "aldi_au", "addr:street": "212-226 Haldon Street", "addr:city": "Lakemba", "addr:state": "NSW", "addr:postcode": "2195", "name": "ALDI", "opening_hours": "Su 08:30-20:00; Mo-We 08:30-20:00; Th 08:30-21:00; Fr-Sa 08:30-20:00; ", "brand": "Aldi"}, "geometry": {"type": "Point", "coordinates": [151.07981, -33.92443]}},
{"type": "Feature", "id": "xD2WYkpJ26rqPRe8_OayJfDjQ3s=", "properties": {"ref": "N4Y33Xc08AjtEJu3GbpDWg==", "@spider": "aldi_au", "addr:street": "370 Hamilton Rd", "addr:city": "Fairfield West", "addr:state": "NSW", "addr:postcode": "2165", "name": "ALDI", "opening_hours": "Su 08:30-20:00; Mo-We 08:30-20:00; Th 08:30-21:00; Fr-Sa 08:30-20:00; ", "brand": "Aldi"}, "geometry": {"type": "Point", "coordinates": [150.92352, -33.86902]}},
{"type": "Feature", "id": "XiKP1HM9WtBj_nlz-96uoAAfSVQ=", "properties": {"ref": "GCvDW16Omm52eUbmhmGSvQ==", "@spider": "aldi_au", "addr:street": "13-17 High Street", "addr:city": "Wallan", "addr:postcode": "3756", "name": "ALDI", "opening_hours": "Su 08:30-20:00; Mo-Sa 08:30-20:00; ", "brand": "Aldi"}, "geometry": {"type": "Point", "coordinates": [144.97796, -37.41818]}},
{"type": "Feature", "id": "D40ruX_GeMCJPsP_8kK6xuEopbA=", "properties": {"ref": "_U11LE8yhp6U09aZ_iUAhw==", "@spider": "aldi_au", "addr:street": "97 Sydney Street", "addr:city": "Kilmore", "addr:postcode": "3764", "name": "ALDI", "opening_hours": "Su 08:30-20:00; Mo-Sa 08:30-20:00; ", "brand": "Aldi"}, "geometry": {"type": "Point", "coordinates": [144.94856, -37.28783]}},
{"type": "Feature", "id": "XydL-gwJrxJrCPntl7HEAd3cLQE=", "properties": {"ref": "lAZJZw1kfPgd42IgfQ8xFA==", "@spider": "aldi_au", "addr:street": "128 Russell Street", "addr:city": "Bathurst", "addr:state": "NSW", "addr:postcode": "2795", "name": "ALDI", "opening_hours": "Su 08:30-20:00; Mo-We 08:30-20:00; Th 08:30-21:00; Fr-Sa 08:30-20:00; ", "brand": "Aldi"}, "geometry": {"type": "Point", "coordinates": [149.58056, -33.42055]}},
{"type": "Feature", "id": "Y5bVjeNA_9ObY6BWMcvit_awvCc=", "properties": {"ref": "bIomG7UXHq2VCvSRmB3p5g==", "@spider": "aldi_au", "addr:street": "117 - 127 Albert Street", "addr:city": "Geelong West", "addr:state": "VIC", "addr:postcode": "3218", "name": "ALDI", "opening_hours": "Su 08:30-20:00; Mo-Sa 08:30-20:00; ", "brand": "Aldi"}, "geometry": {"type": "Point", "coordinates": [144.33726, -38.13966]}},
{"type": "Feature", "id": "zX27eMBo8iR5tmCnGw4ER6wnt-k=", "properties": {"ref": "H_FaWhwnRqlLpkCVOt91Sw==", "@spider": "aldi_au", "addr:street": "142 Torquay Road", "addr:city": "Grovedale", "addr:state": "VIC", "addr:postcode": "3216", "name": "ALDI", "opening_hours": "Su 08:30-20:00; Mo-Sa 08:30-20:00; ", "brand": "Aldi"}, "geometry": {"type": "Point", "coordinates": [144.3431, -38.19334]}},
{"type": "Feature", "id": "PEQ5lzsPtKyFsYTdHmnxPfYF2vM=", "properties": {"ref": "rAUzpOQUt2XjRkKSmaXmLA==", "@spider": "aldi_au", "addr:street": "245 - 253 South Valley Road", "addr:city": "Highton", "addr:state": "VIC", "addr:postcode": "3216", "name": "ALDI", "opening_hours": "Su 08:30-20:00; Mo-Sa 08:30-20:00; ", "brand": "Aldi"}, "geometry": {"type": "Point", "coordinates": [144.31837, -38.19615]}},
{"type": "Feature", "id": "FrFE-eD0jUTLaQz2A7_wPXrzvjQ=", "properties": {"ref": "llb15O-jH07QCnEsAsj8uw==", "@spider": "aldi_au", "addr:street": "Cnr John & Harriett Street", "addr:city": "Singleton", "addr:state": "NSW", "addr:postcode": "2330", "name": "ALDI", "opening_hours": "Su 08:30-20:00; Mo-Sa 08:30-20:00; ", "brand": "Aldi"}, "geometry": {"type": "Point", "coordinates": [151.16479, -32.56924]}},
{"type": "Feature", "id": "nQjE4y8C2sGCfz7T9GHTHnQlzoU=", "properties": {"ref": "vDwjkbQaPMALDAMwUblwQA==", "@spider": "aldi_au", "addr:street": "Cnr Fitzroy St & Railway Ln", "addr:city": "Cowra", "addr:state": "NSW", "addr:postcode": "2794", "name": "ALDI", "opening_hours": "Su 08:30-20:00; Mo-Sa 08:30-20:00; ", "brand": "Aldi"}, "geometry": {"type": "Point", "coordinates": [148.69586, -33.83685]}},
{"type": "Feature", "id": "KjyJb-jRm5XL_D7tnTfoFBoV4b8=", "properties": {"ref": "4TsO1Tr2Kx8WM29l-1ZIiw==", "@spider": "aldi_au", "addr:street": "Clarinda St & Caledonia St", "addr:city": "Parkes", "addr:state": "NSW", "addr:postcode": "2870", "name": "ALDI", "opening_hours": "Su 08:30-20:00; Mo-Sa 08:30-20:00; ", "brand": "Aldi"}, "geometry": {"type": "Point", "coordinates": [148.17553, -33.14084]}},
{"type": "Feature", "id": "heiZIB7auO3FQ50Sg5FrVv8OqQo=", "properties": {"ref": "gGDebj8v3ACt3trrLChKQA==", "@spider": "aldi_au", "addr:street": "Cnr Salamander Way & Town C", "addr:city": "Salamander Bay", "addr:state": "NSW", "addr:postcode": "2315", "name": "ALDI", "opening_hours": "Su 08:30-20:00; Mo-Sa 08:30-20:00; ", "brand": "Aldi"}, "geometry": {"type": "Point", "coordinates": [152.10801, -32.7352]}},
{"type": "Feature", "id": "i1LCbw8EaBZqHKEq6VOvgBbk0Gc=", "properties": {"ref": "nVWRUa9JoK-gLneeMOuf0w==", "@spider": "aldi_au", "addr:street": "Lot 21-22, Breese Parade", "addr:city": "Forster", "addr:state": "NSW", "addr:postcode": "2428", "name": "ALDI", "opening_hours": "Su 08:30-20:00; Mo-Sa 08:30-20:00; ", "brand": "Aldi"}, "geometry": {"type": "Point", "coordinates": [152.51935, -32.20046]}},
{"type": "Feature", "id": "M3XAfzPyOENnOgWYS1zdYCDbbTI=", "properties": {"ref": "UEkC7iT7n_oYHQhuTPsGTA==", "@spider": "aldi_au", "addr:street": "251 - 257 Lava Street", "addr:city": "Warrnambool", "addr:state": "VIC", "addr:postcode": "3280", "name": "ALDI", "opening_hours": "Su 08:30-19:00; Mo-Fr 08:30-20:00; Sa 08:30-19:00; ", "brand": "Aldi"}, "geometry": {"type": "Point", "coordinates": [142.47857, -38.37901]}},
{"type": "Feature", "id": "uMWOd0_ja8MLJNfAiBxkYSBHHu8=", "properties": {"ref": "ta-82BqS7GqW5Tx72MACmg==", "@spider": "aldi_au", "addr:street": "380 Sayers Road", "addr:city": "Tarneit", "addr:state": "VIC", "addr:postcode": "3029", "name": "ALDI", "opening_hours": "Su 08:30-20:00; Mo-Sa 08:30-20:00; ", "brand": "Aldi"}, "geometry": {"type": "Point", "coordinates": [144.65124, -37.84475]}},
{"type": "Feature", "id": "3m5FLQQRRDlXfTUCVh9RSWtU8oM=", "properties": {"ref": "cE9WVTVWH--el0A7JTqRag==", "@spider": "aldi_au", "addr:street": "300 Point Cook Rd", "addr:city": "Sanctuary Lakes", "addr:state": "VIC", "addr:postcode": "3030", "name": "ALDI", "opening_hours": "Su 08:30-20:00; Mo-Sa 08:30-20:00; ", "brand": "Aldi"}, "geometry": {"type": "Point", "coordinates": [144.75388, -37.89695]}},
{"type": "Feature", "id": "Qza_rRvUQYG__W1bV2BgL-TkJvQ=", "properties": {"ref": "58XfiopjNqJz3fxUvADheA==", "@spider": "aldi_au", "addr:street": "5 - 25 Westwood Drive", "addr:city": "Burnside", "addr:state": "VIC", "addr:postcode": "3023", "name": "ALDI", "opening_hours": "Su 08:30-20:00; Mo-Sa 08:30-20:00; ", "brand": "Aldi"}, "geometry": {"type": "Point", "coordinates": [144.75521, -37.76004]}},
{"type": "Feature", "id": "RJGpj3KdZ5PzjEGzeU8OQtwVEsk=", "properties": {"ref": "AXKSQji_roBkBlq3XPVsYw==", "@spider": "aldi_au", "addr:street": "29 - 35 Lake Street", "addr:city": "Caroline Springs", "addr:state": "VIC", "addr:postcode": "3023", "name": "ALDI", "opening_hours": "Su 08:30-20:00; Mo-Sa 08:30-20:00; ", "brand": "Aldi"}, "geometry": {"type": "Point", "coordinates": [144.73524, -37.74501]}},
{"type": "Feature", "id": "CNFYIKUc3eI_vrAf8PgZ4QrLh9o=", "properties": {"ref": "Xg0LOM85U7qORxTfXcY4Iw==", "@spider": "aldi_au", "addr:street": "680 Berwick-Cranbourne Road", "addr:city": "Clyde North", "addr:state": "VIC", "addr:postcode": "3978", "name": "ALDI", "opening_hours": "Su 08:30-20:00; Mo-Sa 08:30-20:00; ", "brand": "Aldi"}, "geometry": {"type": "Point", "coordinates": [145.33353, -38.09394]}},
{"type": "Feature", "id": "rLus_zeJG2c5M-HamVD_6Re6Wxk=", "properties": {"ref": "RugZpoiJHNDkiIOc4egHrQ==", "@spider": "aldi_au", "addr:street": "53 Old Princes Highway", "addr:city": "Beaconsfield", "addr:state": "VIC", "addr:postcode": "3807", "name": "ALDI", "opening_hours": "Su 08:30-20:00; Mo-Sa 08:30-20:00; ", "brand": "Aldi"}, "geometry": {"type": "Point", "coordinates": [145.34894, -38.0485]}},
{"type": "Feature", "id": "rlKbmlMHgX9QXix1neG3LbIQJr4=", "properties": {"ref": "fdPw_z7-eFqSUEXJiRCXeA==", "@spider": "aldi_au", "addr:street": "1S Linsell Boulevard", "addr:city": "Cranbourne East", "addr:state": "VIC", "addr:postcode": "3977", "name": "ALDI", "opening_hours": "Su 08:30-20:00; Mo-Sa 08:30-20:00; ", "brand": "Aldi"}, "geometry": {"type": "Point", "coordinates": [145.29372, -38.09998]}},
{"type": "Feature", "id": "GvU7_66t4eyuk3lR8MEwIn9r70E=", "properties": {"ref": "vKt6gEFBnaARobcqL4249Q==", "@spider": "aldi_au", "addr:street": "330 Cranbourne Road", "addr:city": "Karingal", "addr:state": "VIC", "addr:postcode": "3199", "name": "ALDI", "opening_hours": "Su 08:30-20:00; Mo-Sa 08:30-20:00; ", "brand": "Aldi"}, "geometry": {"type": "Point", "coordinates": [145.16656, -38.1519]}},
{"type": "Feature", "id": "-vJMoo0H9flzkdILVky9mbxFshU=", "properties": {"ref": "fv2pzgZePGbPyDEXzQ4xeg==", "@spider": "aldi_au", "addr:street": "516-520 Station Street", "addr:city": "Carrum", "addr:state": "VIC", "addr:postcode": "3197", "name": "ALDI", "opening_hours": "Su 08:30-20:00; Mo-Sa 08:30-20:00; ", "brand": "Aldi"}, "geometry": {"type": "Point", "coordinates": [145.12352, -38.07623]}},
{"type": "Feature", "id": "M1SGwuIyF0Ub0tG6hlXhMAb-suk=", "properties": {"ref": "gnflNCFXFrE1QneyMd82MA==", "@spider": "aldi_au", "addr:street": "1128 Nepean Highway", "addr:city": "Mornington Peninsula", "addr:state": "VIC", "addr:postcode": "3931", "name": "ALDI", "opening_hours": "Su 08:30-20:00; Mo-Sa 08:30-20:00; ", "brand": "Aldi"}, "geometry": {"type": "Point", "coordinates": [145.06064, -38.21987]}},
{"type": "Feature", "id": "F3nDWowixpjcdTOXFlMqk-KobFk=", "properties": {"ref": "aMc37RdUoxGE4BkX1v5BxA==", "@spider": "aldi_au", "addr:street": "Cnr Kimberly & El Centro St", "addr:city": "Chirnside Park", "addr:state": "VIC", "addr:postcode": "3116", "name": "ALDI", "opening_hours": "Su 08:30-20:00; Mo-Sa 08:30-20:00; ", "brand": "Aldi"}, "geometry": {"type": "Point", "coordinates": [145.31702, -37.80442]}},
{"type": "Feature", "id": "JnfqBSceuBajMuo8OCvViRz4YDg=", "properties": {"ref": "JwbPkDqZzs3kxpm9PJ8ovQ==", "@spider": "aldi_au", "addr:street": "800 Stud Road", "addr:city": "Scoresby", "addr:state": "VIC", "addr:postcode": "3179", "name": "ALDI", "opening_hours": "Su 08:30-20:00; Mo-Sa 08:30-20:00; ", "brand": "Aldi"}, "geometry": {"type": "Point", "coordinates": [145.23333, -37.90113]}},
{"type": "Feature", "id": "Jo4cA9o365Rzpm89Yz7d0yPR90A=", "properties": {"ref": "LEn6sW-xpiKOwBTy8OhGVA==", "@spider": "aldi_au", "addr:street": "5-15 Kent Avenue", "addr:city": "Croydon", "addr:state": "VIC", "addr:postcode": "3136", "name": "ALDI", "opening_hours": "Su 08:30-20:00; Mo-Sa 08:30-20:00; ", "brand": "Aldi"}, "geometry": {"type": "Point", "coordinates": [145.27826, -37.79304]}},
{"type": "Feature", "id": "ZgigPWtj-OVImFJXMHsLxtNtIEk=", "properties": {"ref": "vi8Q1SfpJpXzGzNWoNQWow==", "@spider": "aldi_au", "addr:street": "247 Johnston Street", "addr:city": "Fitzroy", "addr:postcode": "3065", "name": "ALDI", "opening_hours": "Su 08:30-20:00; Mo-Sa 08:30-20:00; ", "brand": "Aldi"}, "geometry": {"type": "Point", "coordinates": [144.98353, -37.79873]}},
{"type": "Feature", "id": "UiiJQXsSFCN2krcVSPW2Nqzxabw=", "properties": {"ref": "F71kviTWN0uZe-iyq7bLPg==", "@spider": "aldi_au", "addr:street": "1341 Dandenong Road", "addr:city": "Chadstone", "addr:state": "VIC", "addr:postcode": "3148", "name": "ALDI", "opening_hours": "Su 08:30-20:00; Mo-Sa 08:30-20:00; ", "brand": "Aldi"}, "geometry": {"type": "Point", "coordinates": [145.08393, -37.88609]}},
{"type": "Feature", "id": "sECVYYijpoj5N-pfyG_S0JZMYM4=", "properties": {"ref": "qK6-pLY6biEprvo8cAodiw==", "@spider": "aldi_au", "addr:street": "100 Market Street", "addr:city": "South Melbourne", "addr:state": "VIC", "addr:postcode": "3205", "name": "ALDI", "opening_hours": "Su 08:30-20:00; Mo-Sa 08:30-20:00; ", "brand": "Aldi"}, "geometry": {"type": "Point", "coordinates": [144.95698, -37.82982]}},
{"type": "Feature", "id": "mAYk-PUOSXcMaQVI0C-c8jIJmcA=", "properties": {"ref": "jUeJpFWBM9JJbmggMvNPNQ==", "@spider": "aldi_au", "addr:street": "Cnr Doncaster & Tannock St", "addr:city": "Balwyn North", "addr:state": "VIC", "addr:postcode": "3104", "name": "ALDI", "opening_hours": "Su 08:30-20:00; Mo-Sa 08:30-20:00; ", "brand": "Aldi"}, "geometry": {"type": "Point", "coordinates": [145.09461, -37.79132]}},
{"type": "Feature", "id": "5BhmJR-PyUAQ0txw0bJPg8d3F0I=", "properties": {"ref": "YIVfplX6806CH-DMtGv4gA==", "@spider": "aldi_au", "addr:street": "Tenancy 2, 501 Swanston St", "addr:city": "Melbourne", "addr:state": "VIC", "addr:postcode": "3000", "name": "ALDI", "opening_hours": "Su 08:30-20:00; Mo-Sa 08:30-20:00; ", "brand": "Aldi"}, "geometry": {"type": "Point", "coordinates": [144.96222, -37.80727]}},
{"type": "Feature", "id": "-tXhZIJUFPIJGdkYinhkp44f1YU=", "properties": {"ref": "g9TLHQONJGjwLwU4-ghSlA==", "@spider": "aldi_au", "addr:street": "571 - 583 High Street", "addr:city": "Epping", "addr:state": "VIC", "addr:postcode": "3076", "name": "ALDI", "opening_hours": "Su 08:30-19:00; Mo-Fr 08:30-20:00; Sa 08:30-19:00; ", "brand": "Aldi"}, "geometry": {"type": "Point", "coordinates": [145.02308, -37.652]}},
{"type": "Feature", "id": "xHPH28J-pCWsnD79DwYpAbA8m00=", "properties": {"ref": "COt9x7-_kYIWbw7LibZi9w==", "@spider": "aldi_au", "addr:street": "347-371 Dalton Road", "addr:city": "Epping", "addr:state": "VIC", "addr:postcode": "3076", "name": "ALDI", "opening_hours": "Su 08:30-20:00; Mo-Sa 08:30-20:00; ", "brand": "Aldi"}, "geometry": {"type": "Point", "coordinates": [145.02974, -37.65926]}},
{"type": "Feature", "id": "g4Qmbcrcqa2ksOydm9R7Hay7yaA=", "properties": {"ref": "QbtmJTTbP8cyTpWG2Vq8dg==", "@spider": "aldi_au", "addr:street": "Harvest Home & Edgars Roads", "addr:city": "Epping", "addr:postcode": "3076", "name": "ALDI", "opening_hours": "Su 08:30-20:00; Mo-Sa 08:30-20:00; ", "brand": "Aldi"}, "geometry": {"type": "Point", "coordinates": [145.00533, -37.62059]}},
{"type": "Feature", "id": "LqKij-dpiR-G18QHk0Oct5zr2UA=", "properties": {"ref": "Y95pzZFvfE4e7uTGPweEkA==", "@spider": "aldi_au", "addr:street": "584-604 Grimshaw Street", "addr:city": "Bundoora", "addr:state": "VIC", "addr:postcode": "3083", "name": "ALDI", "opening_hours": "Su 08:30-20:00; Mo-Sa 08:30-20:00; ", "brand": "Aldi"}, "geometry": {"type": "Point", "coordinates": [145.04446, -37.65549]}},
{"type": "Feature", "id": "D85s0bFroRtQjJLmJSZvYEWzEhs=", "properties": {"ref": "ukACf9G7Zc_u9to255-wfg==", "@spider": "aldi_au", "addr:street": "1099 - 1169 Pascoe Vale Rd", "addr:city": "Broadmeadows", "addr:state": "VIC", "addr:postcode": "3047", "name": "ALDI", "opening_hours": "Su 08:30-19:00; Mo-Fr 08:30-20:00; Sa 08:30-19:00; ", "brand": "Aldi"}, "geometry": {"type": "Point", "coordinates": [144.92185, -37.66462]}},
{"type": "Feature", "id": "-KW3Nym1xq2jv549fc1AAh7J6Fc=", "properties": {"ref": "TPvVSRUiWbyCMKyXEhE2xg==", "@spider": "aldi_au", "addr:street": "420 Joondalup Drive", "addr:city": "Joondalup", "addr:postcode": "6027", "name": "ALDI", "opening_hours": "Sa 08:30-17:00; Su 11:00-17:00; Mo-We 08:30-20:00; Th 08:30-21:00; Fr 08:30-20:00; ", "brand": "Aldi"}, "geometry": {"type": "Point", "coordinates": [115.76616, -31.74377]}},
{"type": "Feature", "id": "5W-H_6m7Qqr2ANF9ofmvVrssEK4=", "properties": {"ref": "4H5SZxVHifYY4QRlP14EJg==", "@spider": "aldi_au", "addr:street": "Roselands Drive", "addr:city": "Roselands", "addr:postcode": "2196", "name": "ALDI", "opening_hours": "Su 08:30-20:00; Mo-We 08:30-20:00; Th 08:30-21:00; Fr-Sa 08:30-20:00; ", "brand": "Aldi"}, "geometry": {"type": "Point", "coordinates": [151.06931, -33.93599]}},
{"type": "Feature", "id": "KYPrB7zMZwyOlw-LHKV4-vsyVzM=", "properties": {"ref": "cFcRHb6KIF2_uop8OHZkPg==", "@spider": "aldi_au", "addr:street": "1024 The Horsely Drive", "addr:city": "Wetherill Park", "addr:postcode": "2164", "name": "ALDI", "opening_hours": "Su 08:30-20:00; Mo-We 08:30-20:00; Th 08:30-21:00; Fr-Sa 08:30-20:00; ", "brand": "Aldi"}, "geometry": {"type": "Point", "coordinates": [150.90931, -33.8507]}},
{"type": "Feature", "id": "oaV9Ela8UggUykEQEN0-SHFTVSU=", "properties": {"ref": "uJI6NHJow5iTlzrgcHiphA==", "@spider": "aldi_au", "addr:street": "167-177 Peisley Street", "addr:city": "Orange", "addr:state": "NSW", "addr:postcode": "2800", "name": "ALDI", "opening_hours": "Su 08:30-20:00; Mo-We 08:30-20:00; Th 08:30-21:00; Fr-Sa 08:30-20:00; ", "brand": "Aldi"}, "geometry": {"type": "Point", "coordinates": [149.10267, -33.2858]}},
{"type": "Feature", "id": "aRR4QvCflZagF4CDFvqydztUs1k=", "properties": {"ref": "3Shl8HicHf_DFoxgtzXvCQ==", "@spider": "aldi_au", "addr:street": "Shop 9, 222 Anakie Road", "addr:city": "Bell Park", "addr:postcode": "3215", "name": "ALDI", "opening_hours": "Su 08:30-20:00; Mo-Sa 08:30-20:00; ", "brand": "Aldi"}, "geometry": {"type": "Point", "coordinates": [144.33443, -38.09696]}},
{"type": "Feature", "id": "v0zmQfGecQqnCm1pah8TQrxbKcI=", "properties": {"ref": "nseUAj4XNhV_2LKjW28Phg==", "@spider": "aldi_au", "addr:street": "35-43 Central Boulevard", "addr:city": "Armstrong Creek", "addr:postcode": "3217", "name": "ALDI", "opening_hours": "Su 08:30-20:00; Mo-Sa 08:30-20:00; ", "brand": "Aldi"}, "geometry": {"type": "Point", "coordinates": [144.37252, -38.22971]}},
{"type": "Feature", "id": "WhnGmdrIAJjnUdzxrLG1TAjM28k=", "properties": {"ref": "8TqK7i8v1wYtFp1oTd7Bdg==", "@spider": "aldi_au", "addr:street": "Lot 1 Rutherford Road", "addr:city": "Muswellbrook", "addr:state": "NSW", "addr:postcode": "2333", "name": "ALDI", "opening_hours": "Su 08:30-20:00; Mo-Sa 08:30-20:00; ", "brand": "Aldi"}, "geometry": {"type": "Point", "coordinates": [150.89754, -32.283]}},
{"type": "Feature", "id": "ux0rH9dRcLYcX4ny-icQhsDCnco=", "properties": {"ref": "lonhV2cGNUskUpJ2BDuunQ==", "@spider": "aldi_au", "addr:street": "154 Raglan Parade", "addr:city": "Warrnambool", "addr:postcode": "3280", "name": "ALDI", "opening_hours": "Su 08:30-19:00; Mo-Fr 08:30-20:00; Sa 08:30-19:00; ", "brand": "Aldi"}, "geometry": {"type": "Point", "coordinates": [142.5202, -38.38323]}},
{"type": "Feature", "id": "H2WXTz95nbWVeYIq2lLuw0nHZz8=", "properties": {"ref": "ImoO1cdJVUCrOjiIpQh2Rg==", "@spider": "aldi_au", "addr:street": "Neale & Station Roads", "addr:city": "Deer Park", "addr:state": "VIC", "addr:postcode": "3023", "name": "ALDI", "opening_hours": "Su 08:30-19:00; Mo-Fr 08:30-20:00; Sa 08:30-19:00; ", "brand": "Aldi"}, "geometry": {"type": "Point", "coordinates": [144.77444, -37.7505]}},
{"type": "Feature", "id": "bVAmcYRfrQDQbYWryR4S-I1QYXA=", "properties": {"ref": "Bg2AaQheHgiC3bhjILIVpw==", "@spider": "aldi_au", "addr:street": "77 - 83 Synott Street", "addr:city": "Werribee", "addr:state": "VIC", "addr:postcode": "3030", "name": "ALDI", "opening_hours": "Su 08:30-20:00; Mo-Sa 08:30-20:00; ", "brand": "Aldi"}, "geometry": {"type": "Point", "coordinates": [144.65778, -37.90445]}},
{"type": "Feature", "id": "IsVn_jH4DmeycYR0zgDN4hI0MqQ=", "properties": {"ref": "JUQPlk15hf-eNJKjVjCagA==", "@spider": "aldi_au", "addr:street": "324 - 328 Hampshire Road", "addr:city": "Sunshine", "addr:state": "VIC", "addr:postcode": "3020", "name": "ALDI", "opening_hours": "Su 08:30-20:00; Mo-Sa 08:30-20:00; ", "brand": "Aldi"}, "geometry": {"type": "Point", "coordinates": [144.83172, -37.78291]}},
{"type": "Feature", "id": "ERNzDue5kERKj5KoW_lMt-PWNIk=", "properties": {"ref": "1qS1yPReBl_HTLSpLM60OQ==", "@spider": "aldi_au", "addr:street": "Cnr Bakewell & Codrington", "addr:city": "Cranbourne", "addr:state": "VIC", "addr:postcode": "3977", "name": "ALDI", "opening_hours": "Su 08:30-20:00; Mo-Sa 08:30-20:00; ", "brand": "Aldi"}, "geometry": {"type": "Point", "coordinates": [145.28426, -38.11128]}},
{"type": "Feature", "id": "SNfWIp0wAafiXwArWO2D7yeKthk=", "properties": {"ref": "HXkV8erZ0N9UWJMSFLx0Nw==", "@spider": "aldi_au", "addr:street": "Colonnades SC Beach Road", "addr:city": "Noarlunga Centre", "addr:postcode": "5168", "name": "ALDI", "opening_hours": "Su 09:00-17:00; Mo-We 08:30-20:00; Th 08:30-21:00; Fr 08:30-20:00; Sa 08:00-17:00; ", "brand": "Aldi"}, "geometry": {"type": "Point", "coordinates": [138.49878, -35.14357]}},
{"type": "Feature", "id": "A18j5uOgEJxTmzOnC5V0Iudghm8=", "properties": {"ref": "2AoSXmrRlOQu_XZtAQ7U1g==", "@spider": "aldi_au", "addr:street": "Cnr Murray & Gawler Streets", "addr:city": "Nuriootpa", "addr:postcode": "5355", "name": "ALDI", "opening_hours": "Su 08:30-19:00; Mo-Fr 08:30-20:00; Sa 08:00-19:00; ", "brand": "Aldi"}, "geometry": {"type": "Point", "coordinates": [138.99457, -34.47364]}},
{"type": "Feature", "id": "AZY-2XIoR7ks2BV7RIn2HXY3YSc=", "properties": {"ref": "YgjH8Y1A4IE5hD7Nf1r84g==", "@spider": "aldi_au", "addr:street": "945s Thompsons Road", "addr:city": "Lyndhurst", "addr:state": "VIC", "addr:postcode": "3975", "name": "ALDI", "opening_hours": "Su 08:30-20:00; Mo-Sa 08:30-20:00; ", "brand": "Aldi"}, "geometry": {"type": "Point", "coordinates": [145.23909, -38.0476]}},
{"type": "Feature", "id": "l34WAib4WAAsAG2WQyASio6FY64=", "properties": {"ref": "bTMMwAuc-HAlHwvDjTihfg==", "@spider": "aldi_au", "addr:street": "1100 Wellington Road", "addr:city": "Rowville", "addr:state": "VIC", "addr:postcode": "3178", "name": "ALDI", "opening_hours": "Su 08:30-20:00; Mo-Sa 08:30-20:00; ", "brand": "Aldi"}, "geometry": {"type": "Point", "coordinates": [145.25148, -37.92843]}},
{"type": "Feature", "id": "nnzPffyKhLco93oLDyXBIQqhES4=", "properties": {"ref": "u_QYmFLS4PCCABuyKbU7PA==", "@spider": "aldi_au", "addr:street": "2-18 Koornang Road", "addr:city": "Carnegie", "addr:state": "VIC", "addr:postcode": "3163", "name": "ALDI", "opening_hours": "Su 08:30-20:00; Mo-Sa 08:30-20:00; ", "brand": "Aldi"}, "geometry": {"type": "Point", "coordinates": [145.06327, -37.90157]}},
{"type": "Feature", "id": "jusemTROc6PA-yPYGAStnsoRO44=", "properties": {"ref": "GFaHCR2cG_Os7wp-p2UWVg==", "@spider": "aldi_au", "addr:street": "318 Bell Street", "addr:city": "Heidelberg West", "addr:state": "VIC", "addr:postcode": "3081", "name": "ALDI", "opening_hours": "Su 08:30-20:00; Mo-Sa 08:30-20:00; ", "brand": "Aldi"}, "geometry": {"type": "Point", "coordinates": [145.04447, -37.76654]}},
{"type": "Feature", "id": "J_hlr9hJ5SzKW8VlLO1SyZwrmto=", "properties": {"ref": "E8fOmOvD5rUG3Q9YQeePdg==", "@spider": "aldi_au", "addr:street": "1099-1169  Pascoe Vale Road", "addr:city": "Broadmeadows", "addr:postcode": "3047", "name": "ALDI", "opening_hours": "Sa Closed;Su Closed;Mo Closed;Tu Closed;We Closed;Th Closed;Fr Closed;", "brand": "Aldi"}, "geometry": {"type": "Point", "coordinates": [144.92092, -37.67943]}},
{"type": "Feature", "id": "vaEgnJJaNFCZbKmyM__cnse3plw=", "properties": {"ref": "gZ91XVVQK3TWQ_jWtNqXCw==", "@spider": "aldi_au", "addr:street": "250 Somerton Road", "addr:city": "Roxburgh Park", "addr:state": "VIC", "addr:postcode": "3064", "name": "ALDI", "opening_hours": "Su 08:30-20:00; Mo-Sa 08:30-20:00; ", "brand": "Aldi"}, "geometry": {"type": "Point", "coordinates": [144.93263, -37.6225]}},
{"type": "Feature", "id": "DO1B8onnAcLm7jUVWQAWXL9x5-o=", "properties": {"ref": "9To9-aUX87cOiCK-GWFa5Q==", "@spider": "aldi_au", "addr:street": "1009-1011 Sydney Road", "addr:city": "Coburg North", "addr:postcode": "3058", "name": "ALDI", "opening_hours": "Su 08:30-20:00; Mo-Sa 08:30-20:00; ", "brand": "Aldi"}, "geometry": {"type": "Point", "coordinates": [144.96357, -37.7235]}},
{"type": "Feature", "id": "7yYkeKFPr45CfOFGa9g4-GcDCbY=", "properties": {"ref": "tuXwv8fkxZil19ovI4XZ-g==", "@spider": "aldi_au", "addr:street": "229 Princes Highway", "addr:city": "Narre Warren", "addr:state": "VIC", "addr:postcode": "3805", "name": "ALDI", "opening_hours": "Su 08:30-20:00; Mo-Sa 08:30-20:00; ", "brand": "Aldi"}, "geometry": {"type": "Point", "coordinates": [145.3009, -38.0177]}},
{"type": "Feature", "id": "FIj27P_Mxzbdh38r6yNr19Vzigs=", "properties": {"ref": "yaEilbWqLk6Alao8vJ5Ruw==", "@spider": "aldi_au", "addr:street": "Cnr Maroondah Hwy & New St", "addr:city": "Ringwood", "addr:state": "VIC", "addr:postcode": "3135", "name": "ALDI", "opening_hours": "Su 08:30-20:00; Mo-Sa 08:30-20:00; ", "brand": "Aldi"}, "geometry": {"type": "Point", "coordinates": [145.22027, -37.79924]}},
{"type": "Feature", "id": "lVQMU2zE2TxRt1gIh_WGPZpQBk0=", "properties": {"ref": "TNimtQGRaMXebTH1xnr6vw==", "@spider": "aldi_au", "addr:street": "495 Burwood Highway", "addr:city": "Vermont South", "addr:state": "VIC", "addr:postcode": "3133", "name": "ALDI", "opening_hours": "Su 08:30-20:00; Mo-Sa 08:30-20:00; ", "brand": "Aldi"}, "geometry": {"type": "Point", "coordinates": [145.18212, -37.85549]}},
{"type": "Feature", "id": "S0Ph3_g8jYVLtKB-CXZjVYRlBa8=", "properties": {"ref": "gnujCDOJdMUJrQjdUg-ATg==", "@spider": "aldi_au", "addr:street": "172-210 Burwood Huighway", "addr:city": "Burwood East", "addr:state": "VIC", "addr:postcode": "3151", "name": "ALDI", "opening_hours": "Su 08:30-20:00; Mo-Sa 08:30-20:00; ", "brand": "Aldi"}, "geometry": {"type": "Point", "coordinates": [145.17633, -37.86956]}},
{"type": "Feature", "id": "9EsCsNUUhFCq3Q3kA0GmIph5Ec8=", "properties": {"ref": "6IPcTFqfJDvWSVt-uTG4qg==", "@spider": "aldi_au", "addr:street": "391-395 Station Street", "addr:city": "Box Hill South", "addr:state": "VIC", "addr:postcode": "3128", "name": "ALDI", "opening_hours": "Su 08:30-20:00; Mo-Sa 08:30-20:00; ", "brand": "Aldi"}, "geometry": {"type": "Point", "coordinates": [145.13238, -37.84013]}},
{"type": "Feature", "id": "e8A32jOwfzwbZ2ntbWtV5Gsi5LE=", "properties": {"ref": "8sIA0d2r2e9nHX57yDr_FA==", "@spider": "aldi_au", "addr:street": "Northcote Cntrl SC, High St", "addr:city": "Northcote", "addr:state": "VIC", "addr:postcode": "3070", "name": "ALDI", "opening_hours": "Su 08:30-19:00; Mo-Fr 08:30-20:00; Sa 08:30-19:00; ", "brand": "Aldi"}, "geometry": {"type": "Point", "coordinates": [144.99925, -37.76871]}},
{"type": "Feature", "id": "UykY4JsL7FZ_xrXXf6h9vfjPxKg=", "properties": {"ref": "loL3dUbTWXN-WmBLw389hg==", "@spider": "aldi_au", "addr:street": "Shop 7, 285-305 Centre Road", "addr:city": "Bentleigh", "addr:state": "VIC", "addr:postcode": "3204", "name": "ALDI", "opening_hours": "Su 08:30-20:00; Mo-Sa 08:30-20:00; ", "brand": "Aldi"}, "geometry": {"type": "Point", "coordinates": [145.0339, -37.91761]}},
{"type": "Feature", "id": "1aOal7-Nj_tb5Y_LTRqhP9MgWlk=", "properties": {"ref": "3G7hsZMTJ4vhRjOtwOvEWQ==", "@spider": "aldi_au", "addr:street": "56 Burgundy Street", "addr:city": "Warringal", "addr:state": "VIC", "addr:postcode": "3084", "name": "ALDI", "opening_hours": "Su 08:30-20:00; Mo-Sa 08:30-20:00; ", "brand": "Aldi"}, "geometry": {"type": "Point", "coordinates": [145.06861, -37.75537]}},
{"type": "Feature", "id": "Jer-A6DOwB8FCvcZ7Vtzhymr4NI=", "properties": {"ref": "qvBQMGX4TcQoB-TK1vG5wA==", "@spider": "aldi_au", "addr:street": "400 McDonalds Rd", "addr:city": "Mill Park", "addr:state": "VIC", "addr:postcode": "3082", "name": "ALDI", "opening_hours": "Su 08:30-20:00; Mo-Sa 08:30-20:00; ", "brand": "Aldi"}, "geometry": {"type": "Point", "coordinates": [145.06844, -37.65076]}},
{"type": "Feature", "id": "gx5fVw_o0yqdlI9Lody9_3hhDiw=", "properties": {"ref": "9d53W5Issy-yDiEK_jjlGw==", "@spider": "aldi_au", "addr:street": "850 Plenty Rd", "addr:city": "Reservoir", "addr:state": "VIC", "addr:postcode": "3073", "name": "ALDI", "opening_hours": "Su 08:30-20:00; Mo-Tu 08:30-19:00; We-Sa 08:30-20:00; ", "brand": "Aldi"}, "geometry": {"type": "Point", "coordinates": [145.02894, -37.72459]}},
{"type": "Feature", "id": "Q0r7KACUIf3ZQJwwEqKUq5Cxzyg=", "properties": {"ref": "wxSEjKKyePfAjuDkiB9rNg==", "@spider": "aldi_au", "addr:street": "Cnr Cramer & High St", "addr:city": "Preston", "addr:state": "VIC", "addr:postcode": "3072", "name": "ALDI", "opening_hours": "Su 08:30-19:00; Mo-Fr 08:30-20:00; Sa 08:30-19:00; ", "brand": "Aldi"}, "geometry": {"type": "Point", "coordinates": [145.00222, -37.74024]}},
{"type": "Feature", "id": "Seo9cN-3IHFUGylDftwnRegtESU=", "properties": {"ref": "4sIlmX6chGUf7llBaLMN9A==", "@spider": "aldi_au", "addr:street": "Cnr Clow & Cleeland Streets", "addr:city": "Dandenong", "addr:state": "VIC", "addr:postcode": "3175", "name": "ALDI", "opening_hours": "Su Closed;Mo Closed;Tu Closed;We Closed;Th Closed;Fr Closed;Sa Closed;", "brand": "Aldi"}, "geometry": {"type": "Point", "coordinates": [145.21643, -37.98335]}},
{"type": "Feature", "id": "vVhc-n8e9stbhr602i__duqHFUM=", "properties": {"ref": "cueeuOs43g3ZtMMAP7Zr9w==", "@spider": "aldi_au", "addr:street": "Cnr Police & Jacksons Roads", "addr:city": "Waverley Gardens", "addr:state": "VIC", "addr:postcode": "3170", "name": "ALDI", "opening_hours": "Su 08:30-19:00; Mo-Fr 08:30-20:00; Sa 08:30-19:00; ", "brand": "Aldi"}, "geometry": {"type": "Point", "coordinates": [145.19004, -37.9355]}},
{"type": "Feature", "id": "d3MesmKjHA6aFCAEz6QU2LKUGeY=", "properties": {"ref": "gdXKq2SJHefDl9U53YnayA==", "@spider": "aldi_au", "addr:street": "299-301 Manningham Road", "addr:city": "Templestowe Lower", "addr:state": "VIC", "addr:postcode": "3107", "name": "ALDI", "opening_hours": "Su 08:30-20:00; Mo-Sa 08:30-20:00; ", "brand": "Aldi"}, "geometry": {"type": "Point", "coordinates": [145.11213, -37.77301]}},
{"type": "Feature", "id": "-BbiKGKZxzWpkuoWpqEb5d_kuNI=", "properties": {"ref": "MTtxANujDLjG6sruyfk87A==", "@spider": "aldi_au", "addr:street": "292 - 298 Sydney Road", "addr:city": "Brunswick", "addr:state": "VIC", "addr:postcode": "3056", "name": "ALDI", "opening_hours": "Su 08:30-20:00; Mo-Sa 08:30-20:00; ", "brand": "Aldi"}, "geometry": {"type": "Point", "coordinates": [144.96171, -37.77073]}},
{"type": "Feature", "id": "-7JdUblCO4yNR9wCefr_6kA37nE=", "properties": {"ref": "lD8FQPAHpeFVtfo4KFGwYw==", "@spider": "aldi_au", "addr:street": "25 Main Street", "addr:city": "Greensborough", "addr:state": "VIC", "addr:postcode": "3088", "name": "ALDI", "opening_hours": "Su 08:30-20:00; Mo-Sa 08:30-20:00; ", "brand": "Aldi"}, "geometry": {"type": "Point", "coordinates": [145.06644, -37.70973]}},
{"type": "Feature", "id": "ssHRMaONyVTJF1Z3PLo069sIZJw=", "properties": {"ref": "Ai1e8l5-LBg-nUZa6FPeBQ==", "@spider": "aldi_au", "addr:street": "2-50 Murray Road", "addr:city": "Northland", "addr:state": "VIC", "addr:postcode": "3072", "name": "ALDI", "opening_hours": "Su 08:30-19:00; Mo-We 08:30-19:00; Th-Fr 08:30-20:00; Sa 08:30-19:00; ", "brand": "Aldi"}, "geometry": {"type": "Point", "coordinates": [145.02984, -37.73786]}},
{"type": "Feature", "id": "Krtc2D7Zim_Mdh172FN70NeeBAc=", "properties": {"ref": "z7lRpw8_V8DYuc8B5wRr0g==", "@spider": "aldi_au", "addr:street": "19 Dundas St", "addr:city": "Preston South", "addr:state": "VIC", "addr:postcode": "3072", "name": "ALDI", "opening_hours": "Su 08:30-20:00; Mo-Sa 08:30-20:00; ", "brand": "Aldi"}, "geometry": {"type": "Point", "coordinates": [144.95658, -37.76788]}},
{"type": "Feature", "id": "LzeP8EeiUF569RdTkgBj7gkCA8Q=", "properties": {"ref": "oRFoCKkPsE9BzZxCdTFkWw==", "@spider": "aldi_au", "addr:street": "8-34 Gladstone Park Drive", "addr:city": "Gladstone Park", "addr:postcode": "3043", "name": "ALDI", "opening_hours": "Su 08:30-19:00; Mo-Fr 08:30-20:00; Sa 08:30-19:00; ", "brand": "Aldi"}, "geometry": {"type": "Point", "coordinates": [144.88499, -37.68803]}},
{"type": "Feature", "id": "9vU2GDm0SZmyOeM1vqKzKlLrjNI=", "properties": {"ref": "89cMfzMdxk_Q3jaIRgJosg==", "@spider": "aldi_au", "addr:street": "3-11 Mitchell Street", "addr:city": "Doncaster East", "addr:state": "VIC", "addr:postcode": "3109", "name": "ALDI", "opening_hours": "Su 08:30-20:00; Mo-Sa 08:30-20:00; ", "brand": "Aldi"}, "geometry": {"type": "Point", "coordinates": [145.14784, -37.7882]}},
{"type": "Feature", "id": "196BIXQ65OPs6L8P9LbWpyf8pgM=", "properties": {"ref": "8U_m6HT-eQrKFawoi6ekFA==", "@spider": "aldi_au", "addr:street": "340 Craigieburn Road", "addr:city": "Craigieburn", "addr:state": "VIC", "addr:postcode": "3064", "name": "ALDI", "opening_hours": "Su 08:30-20:00; Mo-Sa 08:30-20:00; ", "brand": "Aldi"}, "geometry": {"type": "Point", "coordinates": [144.91269, -37.59461]}},
{"type": "Feature", "id": "W1vr0KfitC99TtAg0ObxKH27TsY=", "properties": {"ref": "5xKPU9gZy1LkuB5mfC5RbQ==", "@spider": "aldi_au", "addr:street": "29 - 35 Louis Street", "addr:city": "Airport West", "addr:state": "VIC", "addr:postcode": "3042", "name": "ALDI", "opening_hours": "Su 08:30-20:00; Mo-Sa 08:30-20:00; ", "brand": "Aldi"}, "geometry": {"type": "Point", "coordinates": [144.88472, -37.71389]}},
{"type": "Feature", "id": "Yz3M428Tpng5GlBjHFmA0QNkEZo=", "properties": {"ref": "0PCWUEpH-tO3-hwSohQPyw==", "@spider": "aldi_au", "addr:street": "Cnr Waratah St/Katoomba St", "addr:city": "Katoomba", "addr:state": "NSW", "addr:postcode": "2780", "name": "ALDI", "opening_hours": "Su 08:30-20:00; Mo-Sa 08:30-20:00; ", "brand": "Aldi"}, "geometry": {"type": "Point", "coordinates": [150.31063, -33.71745]}},
{"type": "Feature", "id": "jFmHyCRJI_6KFzvDEeSZzkcajLU=", "properties": {"ref": "5QYFno0c4oemGgRhzg7HSw==", "@spider": "aldi_au", "addr:street": "2 Valley Drive", "addr:city": "Lithgow", "addr:state": "NSW", "addr:postcode": "2790", "name": "ALDI", "opening_hours": "Su 08:30-20:00; Mo-Sa 08:30-20:00; ", "brand": "Aldi"}, "geometry": {"type": "Point", "coordinates": [150.1525, -33.48833]}},
{"type": "Feature", "id": "Tcpbfyz_vosHmCoFXy_6-4C_G0c=", "properties": {"ref": "9i4o_Aqo8AcCjFxvTLybZw==", "@spider": "aldi_au", "addr:street": "1160 South Road", "addr:city": "Clovelly Park", "addr:postcode": "5042", "name": "ALDI", "opening_hours": "Su 09:00-17:00; Mo-We 08:30-20:00; Th 08:30-21:00; Fr 08:30-20:00; Sa 08:00-17:00; ", "brand": "Aldi"}, "geometry": {"type": "Point", "coordinates": [138.57456, -34.99549]}},
{"type": "Feature", "id": "2e3BKlWxIpdrVeAGOo2IceSi_NY=", "properties": {"ref": "yaVL70cFMf2FPGV7Mh-0AA==", "@spider": "aldi_au", "addr:street": "44 Frederick Road", "addr:city": "West Lakes", "addr:postcode": "5021", "name": "ALDI", "opening_hours": "Su 09:00-17:00; Mo-We 08:30-20:00; Th 08:30-21:00; Fr 08:30-20:00; Sa 08:00-17:00; ", "brand": "Aldi"}, "geometry": {"type": "Point", "coordinates": [138.50342, -34.88111]}},
{"type": "Feature", "id": "HKYltX72mdeieRohoAY3pYvKEZM=", "properties": {"ref": "JXG9C1YkzYPcQjG4jJydKw==", "@spider": "aldi_au", "addr:street": "1 Vista Parade", "addr:city": "Seaford Heights", "addr:postcode": "5169", "name": "ALDI", "opening_hours": "Su 09:00-17:00; Mo-Fr 08:30-20:00; Sa 08:00-17:00; ", "brand": "Aldi"}, "geometry": {"type": "Point", "coordinates": [138.4946, -35.19091]}},
{"type": "Feature", "id": "y1TSG4IW03YPgpzYro-N_oHhSwk=", "properties": {"ref": "gaOTGB91fbhr4pYpopQmFg==", "@spider": "aldi_au", "addr:street": "198-200 Main Road", "addr:city": "Blackwood", "addr:postcode": "5051", "name": "ALDI", "opening_hours": "Su 09:00-17:00; Mo-We 08:30-20:00; Th 08:30-21:00; Fr 08:30-20:00; Sa 08:00-17:00; ", "brand": "Aldi"}, "geometry": {"type": "Point", "coordinates": [138.61632, -35.01648]}},
{"type": "Feature", "id": "ua7DMOsQ4YK1vq65UNBtCj135KA=", "properties": {"ref": "bOMckUEUHbej6l1JlRFtqQ==", "@spider": "aldi_au", "addr:street": "200-220 Commercial Road", "addr:city": "Port Adelaide", "addr:postcode": "5015", "name": "ALDI", "opening_hours": "Su 09:00-17:00; Mo-We 08:30-20:00; Th 08:30-21:00; Fr 08:30-20:00; Sa 08:00-17:00; ", "brand": "Aldi"}, "geometry": {"type": "Point", "coordinates": [138.50593, -34.84857]}},
{"type": "Feature", "id": "jDPPdVyiB0Nb64f7iTY5505qMfY=", "properties": {"ref": "t4T0AVka0_7CBmTtOoLXSA==", "@spider": "aldi_au", "addr:street": "Arndale SC 470 Torrens Road", "addr:city": "Kilkenny", "addr:postcode": "5009", "name": "ALDI", "opening_hours": "Su 09:00-17:00; Mo-We 08:30-20:00; Th 08:30-21:00; Fr 08:30-20:00; Sa 08:00-17:00; ", "brand": "Aldi"}, "geometry": {"type": "Point", "coordinates": [138.55061, -34.87609]}},
{"type": "Feature", "id": "egVzpFgJp9yNOMwWkRYwieDNHPE=", "properties": {"ref": "pvdtFOeInFGeVO5d1sL1kg==", "@spider": "aldi_au", "addr:street": "165-167 Wollombi Rd", "addr:city": "Cessnock", "addr:state": "NSW", "addr:postcode": "2325", "name": "ALDI", "opening_hours": "Su 08:30-20:00; Mo-We 08:30-20:00; Th 08:30-21:00; Fr-Sa 08:30-20:00; ", "brand": "Aldi"}, "geometry": {"type": "Point", "coordinates": [151.35223, -32.83418]}},
{"type": "Feature", "id": "YFzzsG21RzUtUGszGTk-_dOY0hc=", "properties": {"ref": "KwOdtH6W_4mo-9lo62Nnqg==", "@spider": "aldi_au", "addr:street": "209 Port Road", "addr:city": "Aldinga", "addr:postcode": "5173", "name": "ALDI", "opening_hours": "Su 09:00-17:00; Mo-Fr 08:30-20:00; Sa 08:00-17:00; ", "brand": "Aldi"}, "geometry": {"type": "Point", "coordinates": [138.48341, -35.26701]}},
{"type": "Feature", "id": "CDEFgdRmhsFsVsdGaxKRfBNe0iM=", "properties": {"ref": "g9NCaW9LQ7y4Ja84zC5jfw==", "@spider": "aldi_au", "addr:street": "18-20 Garnett Road", "addr:city": "East Maitland", "addr:state": "NSW", "addr:postcode": "2323", "name": "ALDI", "opening_hours": "Su Closed;Mo Closed;Tu Closed;We Closed;Th Closed;Fr Closed;Sa Closed;", "brand": "Aldi"}, "geometry": {"type": "Point", "coordinates": [151.58838, -32.76011]}},
{"type": "Feature", "id": "t-i8TOcVLKHV_fn7S6ya-y8b_YE=", "properties": {"ref": "XQjuWhKs39k3yqW3jn9NTQ==", "@spider": "aldi_au", "addr:street": "Lot 1035 Helicon Drive", "addr:city": "Golden Grove", "addr:postcode": "5125", "name": "ALDI", "opening_hours": "Su 09:00-17:00; Mo-We 08:30-20:00; Th 08:30-21:00; Fr 08:30-20:00; Sa 08:00-17:00; ", "brand": "Aldi"}, "geometry": {"type": "Point", "coordinates": [138.69276, -34.79203]}},
{"type": "Feature", "id": "DqISOGhbAxs1hh0b73MHoW90XSI=", "properties": {"ref": "MaDMhk3y0JXGVm4IIIQ87Q==", "@spider": "aldi_au", "addr:street": "49 Harrison Street", "addr:city": "Cardiff", "addr:state": "NSW", "addr:postcode": "2285", "name": "ALDI", "opening_hours": "Su 08:30-20:00; Mo-Sa 08:30-20:00; ", "brand": "Aldi"}, "geometry": {"type": "Point", "coordinates": [151.65968, -32.94095]}},
{"type": "Feature", "id": "IycyFWkXcQRTBTes7pVVUwwmIGw=", "properties": {"ref": "XEvvbIHiuOPBV07YOCihjQ==", "@spider": "aldi_au", "addr:street": "198 Belair Road", "addr:city": "Hawthorn", "addr:state": "SA", "addr:postcode": "5062", "name": "ALDI", "opening_hours": "Su 09:00-17:00; Mo-We 08:30-20:00; Th 08:30-21:00; Fr 08:30-20:00; Sa 08:00-17:00; ", "brand": "Aldi"}, "geometry": {"type": "Point", "coordinates": [138.60887, -34.97401]}},
{"type": "Feature", "id": "AeVLPVztVgpKP8B4FG3WG3lSYE8=", "properties": {"ref": "LICt9GmwWmLcnxA4zy598g==", "@spider": "aldi_au", "addr:street": "Marion SC 297 Diagonal Road", "addr:city": "Oaklands Park", "addr:postcode": "5046", "name": "ALDI", "opening_hours": "Su 09:00-17:00; Mo-We 08:30-20:00; Th 08:30-21:00; Fr 08:30-20:00; Sa 08:00-17:00; ", "brand": "Aldi"}, "geometry": {"type": "Point", "coordinates": [138.54445, -35.01614]}},
{"type": "Feature", "id": "k6LnN-S68ZWyh2EP6dQGiYT_qdg=", "properties": {"ref": "d6fbuvXKdGrAiImiFdCQrA==", "@spider": "aldi_au", "addr:street": "263-271 Grange Road", "addr:city": "Findon", "addr:postcode": "5023", "name": "ALDI", "opening_hours": "Su 09:00-17:00; Mo-We 08:30-20:00; Th 08:30-21:00; Fr 08:30-20:00; Sa 08:00-17:00; ", "brand": "Aldi"}, "geometry": {"type": "Point", "coordinates": [138.53422, -34.90502]}},
{"type": "Feature", "id": "xtWmjacKCDoTuKdmdnT99KR-38U=", "properties": {"ref": "Cazwnv2YHVO0-rul8nnV6Q==", "@spider": "aldi_au", "addr:street": "106-112 Barton Street", "addr:city": "Kurri Kurri", "addr:state": "NSW", "addr:postcode": "2327", "name": "ALDI", "opening_hours": "Su 08:30-20:00; Mo-Sa 08:30-20:00; ", "brand": "Aldi"}, "geometry": {"type": "Point", "coordinates": [151.48282, -32.81873]}},
{"type": "Feature", "id": "bj0Zulk-3QES6lxQP-MIBWk89B8=", "properties": {"ref": "YF7AjVjPpxX74p7mMbhMkw==", "@spider": "aldi_au", "addr:street": "Shop MM01, 405 High Street", "addr:city": "Maitland", "addr:postcode": "2320", "name": "ALDI", "opening_hours": "Su 08:30-20:00; Mo-Sa 08:30-20:00; ", "brand": "Aldi"}, "geometry": {"type": "Point", "coordinates": [151.55629, -32.73391]}},
{"type": "Feature", "id": "v3VraIhk_jyLa_04ey9QDjzrJ8E=", "properties": {"ref": "uO8_TCiHBxJ8pH13EcwZIQ==", "@spider": "aldi_au", "addr:street": "3 Hillview Street", "addr:city": "Rutherford", "addr:state": "NSW", "addr:postcode": "2320", "name": "ALDI", "opening_hours": "Su 08:30-20:00; Mo-Sa 08:30-20:00; ", "brand": "Aldi"}, "geometry": {"type": "Point", "coordinates": [151.52727, -32.71707]}},
{"type": "Feature", "id": "MetAfgiDDvw6elXUu2ebNo5xTTA=", "properties": {"ref": "Y_BOflC0NNqjbFM0tD-KNQ==", "@spider": "aldi_au", "addr:street": "41-49 Park Terrace", "addr:city": "Salisbury", "addr:postcode": "5108", "name": "ALDI", "opening_hours": "Su 09:00-17:00; Mo-We 08:30-20:00; Th 08:30-21:00; Fr 08:30-20:00; Sa 08:00-17:00; ", "brand": "Aldi"}, "geometry": {"type": "Point", "coordinates": [138.64555, -34.7649]}},
{"type": "Feature", "id": "JGY17HUlNECpiXcOpNd2NIgCzLA=", "properties": {"ref": "CFDzSV06Tq79Ph65NanxPw==", "@spider": "aldi_au", "addr:street": "88-94 Lavender Drive,", "addr:city": "Parafield Gardens", "addr:state": "SA", "addr:postcode": "5107", "name": "ALDI", "opening_hours": "Su 09:00-17:00; Mo-We 08:30-20:00; Th 08:30-21:00; Fr 08:30-20:00; Sa 08:00-17:00; ", "brand": "Aldi"}, "geometry": {"type": "Point", "coordinates": [138.6192, -34.77532]}},
{"type": "Feature", "id": "a7NSUFEDUYTPfUx94RI7eBPGRIU=", "properties": {"ref": "roDnhuoJQjG4RYxEeq8CQw==", "@spider": "aldi_au", "addr:street": "30 Pearson Street", "addr:city": "Charlestown", "addr:postcode": "2290", "name": "ALDI", "opening_hours": "Su 08:30-20:00; Mo-We 08:30-20:00; Th 08:30-21:00; Fr-Sa 08:30-20:00; ", "brand": "Aldi"}, "geometry": {"type": "Point", "coordinates": [151.69531, -32.96263]}},
{"type": "Feature", "id": "xOJHj4jRvvtyC4qaQizeOgNDrOw=", "properties": {"ref": "mR_zSpHUm0desX-64FfXxA==", "@spider": "aldi_au", "addr:street": "Cnr Anzac Hwy & Marion Road", "addr:city": "Plympton", "addr:state": "SA", "addr:postcode": "5038", "name": "ALDI", "opening_hours": "Su 09:00-17:00; Mo-We 08:30-20:00; Th 08:30-21:00; Fr 08:30-20:00; Sa 08:00-17:00; ", "brand": "Aldi"}, "geometry": {"type": "Point", "coordinates": [138.55383, -34.96583]}},
{"type": "Feature", "id": "_uSAlRjaLOEqZ3HA3i2RJoj94Pc=", "properties": {"ref": "1-dAHdc_zSIKtPwgCc7Qwg==", "@spider": "aldi_au", "addr:street": "601 Anzac Highway", "addr:city": "Glenelg", "addr:postcode": "5045", "name": "ALDI", "opening_hours": "Su 09:00-17:00; Mo-We 08:30-20:00; Th 08:30-21:00; Fr 08:30-20:00; Sa 08:00-17:00; ", "brand": "Aldi"}, "geometry": {"type": "Point", "coordinates": [138.51765, -34.976]}},
{"type": "Feature", "id": "I8n3-IZiFhkPkNdsVnwTV3KciPI=", "properties": {"ref": "fIrM2i8loO-d2mn5GaEZOg==", "@spider": "aldi_au", "addr:street": "400 Churchill Road", "addr:city": "Kilburn", "addr:postcode": "5084", "name": "ALDI", "opening_hours": "Sa 08:00-17:00; Su 09:00-17:00; Mo-We 08:30-20:00; Th 08:30-21:00; Fr 08:30-20:00; ", "brand": "Aldi"}, "geometry": {"type": "Point", "coordinates": [138.58152, -34.86537]}},
{"type": "Feature", "id": "guf6uAmqfkgH_3XrqidyNjhKSGY=", "properties": {"ref": "9bunYhr4HBhew2MusL61Mw==", "@spider": "aldi_au", "addr:street": "2 Butler Boulevard", "addr:city": "Adelaide Airport", "addr:postcode": "5950", "name": "ALDI", "opening_hours": "Su 09:00-17:00; Mo-We 08:30-20:00; Th 08:30-21:00; Fr 08:30-20:00; Sa 08:00-17:00; ", "brand": "Aldi"}, "geometry": {"type": "Point", "coordinates": [138.52302, -34.93521]}},
{"type": "Feature", "id": "2956qMvvi_l-fXU-_cDraZiwrhQ=", "properties": {"ref": "V6H-cebFRfrERkilIvijaQ==", "@spider": "aldi_au", "addr:street": "237 Montague Road", "addr:city": "Ingle Farm", "addr:postcode": "5098", "name": "ALDI", "opening_hours": "Su 09:00-17:00; Mo-We 08:30-20:00; Th 08:30-21:00; Fr 08:30-20:00; Sa 08:00-17:00; ", "brand": "Aldi"}, "geometry": {"type": "Point", "coordinates": [138.64725, -34.82899]}},
{"type": "Feature", "id": "T7zlTYcPu_sSDCOwcaiLjLH9fYM=", "properties": {"ref": "krrU1jtCh22ynWR-hp4Pdw==", "@spider": "aldi_au", "addr:street": "1-7 Main Street", "addr:city": "Mawson Lakes", "addr:postcode": "5095", "name": "ALDI", "opening_hours": "Su 09:00-17:00; Mo-We 08:30-20:00; Th 08:30-21:00; Fr 08:30-20:00; Sa 08:00-17:00; ", "brand": "Aldi"}, "geometry": {"type": "Point", "coordinates": [138.61534, -34.81043]}},
{"type": "Feature", "id": "GoBps8zfsmqw6Ozuro8JDOEQaHo=", "properties": {"ref": "uN_ONxt52SNZ1QznC7RANg==", "@spider": "aldi_au", "addr:street": "30 Northcott Drive", "addr:city": "Kotara", "addr:state": "NSW", "addr:postcode": "2289", "name": "ALDI", "opening_hours": "Su 08:30-20:00; Mo-We 08:30-20:00; Th 08:30-21:00; Fr-Sa 08:30-20:00; ", "brand": "Aldi"}, "geometry": {"type": "Point", "coordinates": [151.71216, -32.94067]}},
{"type": "Feature", "id": "OHm29I2UF-MdU9WDf7U5tDXImu0=", "properties": {"ref": "sWZxn_6upwxOFDyS_2FQCA==", "@spider": "aldi_au", "addr:street": "4 Dunkley Parade", "addr:city": "Mount Hutton", "addr:state": "NSW", "addr:postcode": "2290", "name": "ALDI", "opening_hours": "Su 08:30-20:00; Mo-Sa 08:30-20:00; ", "brand": "Aldi"}, "geometry": {"type": "Point", "coordinates": [151.66861, -32.97713]}},
{"type": "Feature", "id": "7qSuqK3kBR6se1K82cdk98H_mds=", "properties": {"ref": "rPciiF4Q7D9VV8eAyDalFQ==", "@spider": "aldi_au", "addr:street": "Sh32 Wallsend Pl Kokera St", "addr:city": "Wallsend", "addr:state": "NSW", "addr:postcode": "2287", "name": "ALDI", "opening_hours": "Su 08:30-20:00; Mo-Sa 08:30-20:00; ", "brand": "Aldi"}, "geometry": {"type": "Point", "coordinates": [151.66737, -32.90368]}},
{"type": "Feature", "id": "CwuOh_hfVfRB9kEfpwvPVXGii8U=", "properties": {"ref": "wGsBR9byrNNEsl7sbbD9OA==", "@spider": "aldi_au", "addr:street": "76 Magill Road", "addr:city": "Norwood", "addr:state": "SA", "addr:postcode": "5067", "name": "ALDI", "opening_hours": "Su 09:00-17:00; Mo-We 08:30-20:00; Th 08:30-21:00; Fr 08:30-20:00; Sa 08:00-17:00; ", "brand": "Aldi"}, "geometry": {"type": "Point", "coordinates": [138.62892, -34.91554]}},
{"type": "Feature", "id": "eucuQ7oJsxngsT6acSWHQFCu1zM=", "properties": {"ref": "HdUfAv-StFMgd-a3-MgQlQ==", "@spider": "aldi_au", "addr:street": "398 Magill Road", "addr:city": "Kensington Park", "addr:postcode": "5068", "name": "ALDI", "opening_hours": "Su 09:00-17:00; Mo-We 08:30-20:00; Th 08:30-21:00; Fr 08:30-20:00; Sa 08:00-17:00; ", "brand": "Aldi"}, "geometry": {"type": "Point", "coordinates": [138.6571, -34.91424]}},
{"type": "Feature", "id": "wuKDPZzhIU4Z8YIHqTmjRAjo5oY=", "properties": {"ref": "Odg34jpwg_ZpkRGnMJflzQ==", "@spider": "aldi_au", "addr:street": "246 Lonsdale Road", "addr:city": "Hallett Cove", "addr:postcode": "5158", "name": "ALDI", "opening_hours": "Su 09:00-17:00; Mo-We 08:30-20:00; Th 08:30-21:00; Fr 08:30-20:00; Sa 08:00-17:00; ", "brand": "Aldi"}, "geometry": {"type": "Point", "coordinates": [138.51585, -35.07808]}},
{"type": "Feature", "id": "DHAU-ON5clIwqPlqb_3dZVKeip4=", "properties": {"ref": "I5P1Z630KrLwvH7Z95A66g==", "@spider": "aldi_au", "addr:street": "972-976 North East Road", "addr:city": "Modbury", "addr:postcode": "5092", "name": "ALDI", "opening_hours": "Su 09:00-17:00; Mo-We 08:30-20:00; Th 08:30-21:00; Fr 08:30-20:00; Sa 08:00-17:00; ", "brand": "Aldi"}, "geometry": {"type": "Point", "coordinates": [138.69377, -34.83072]}},
{"type": "Feature", "id": "y1ELW_9WPUBoty9YJOq4DoRxF08=", "properties": {"ref": "K2HV0nGNGKPKGMYgE9xG5w==", "@spider": "aldi_au", "addr:street": "Blue Gum Drive", "addr:city": "Jesmond", "addr:state": "NSW", "addr:postcode": "2299", "name": "ALDI", "opening_hours": "Su 08:30-19:00; Mo-Fr 08:30-20:00; Sa 08:30-19:00; ", "brand": "Aldi"}, "geometry": {"type": "Point", "coordinates": [151.68969, -32.90246]}},
{"type": "Feature", "id": "yrLEEJtFwPeDLtUp07nf3FC3z0o=", "properties": {"ref": "I0wqoQ5zVpTJPsKrCf8N9g==", "@spider": "aldi_au", "addr:street": "Cnr King & Howard Street", "addr:city": "Warners Bay", "addr:state": "NSW", "addr:postcode": "2282", "name": "ALDI", "opening_hours": "Su 08:30-20:00; Mo-Sa 08:30-20:00; ", "brand": "Aldi"}, "geometry": {"type": "Point", "coordinates": [151.64603, -32.97528]}},
{"type": "Feature", "id": "aYoKtIfwkwxBl1Ay_fg-Wo-djBk=", "properties": {"ref": "Ro99rBZUMfeMeSR2SCg81A==", "@spider": "aldi_au", "addr:street": "1244 North East Road", "addr:city": "St Agnes", "addr:postcode": "5097", "name": "ALDI", "opening_hours": "Su 09:00-17:00; Mo-We 08:30-20:00; Th 08:30-21:00; Fr 08:30-20:00; Sa 08:00-17:00; ", "brand": "Aldi"}, "geometry": {"type": "Point", "coordinates": [138.71716, -34.82176]}},
{"type": "Feature", "id": "5Rvl3Jp96LifRX33x_dc1UoXa4M=", "properties": {"ref": "wGbOOI8_OBeKn3yMr0kT-A==", "@spider": "aldi_au", "addr:street": "57 Thomas Street", "addr:city": "Edgeworth", "addr:state": "NSW", "addr:postcode": "2285", "name": "ALDI", "opening_hours": "Su 08:30-20:00; Mo-Sa 08:30-20:00; ", "brand": "Aldi"}, "geometry": {"type": "Point", "coordinates": [151.62623, -32.92514]}},
{"type": "Feature", "id": "a76oYZ_nfn_iE67P23w07oBV10g=", "properties": {"ref": "gF9MKa2n_yWv4t7RJJ1w8A==", "@spider": "aldi_au", "addr:street": "11 Swan Street", "addr:city": "Hamilton", "addr:state": "NSW", "addr:postcode": "2303", "name": "ALDI", "opening_hours": "Su 08:30-20:00; Mo-We 08:30-20:00; Th 08:30-21:00; Fr-Sa 08:30-20:00; ", "brand": "Aldi"}, "geometry": {"type": "Point", "coordinates": [151.74573, -32.91892]}},
{"type": "Feature", "id": "8eMjD-_7Nqv5UQxHbUrFKvflb28=", "properties": {"ref": "t-O8NGWXN5qzD9ZH-ON3Kg==", "@spider": "aldi_au", "addr:street": "Cnr Sudholz & North East Rd", "addr:city": "Gilles Plains", "addr:postcode": "5086", "name": "ALDI", "opening_hours": "Su 09:00-17:00; Mo-We 08:30-20:00; Th 08:30-21:00; Fr 08:30-20:00; Sa 08:00-17:00; ", "brand": "Aldi"}, "geometry": {"type": "Point", "coordinates": [138.6554, -34.85721]}},
{"type": "Feature", "id": "lydooLRIgi_gXsbVkjFvyptJFGM=", "properties": {"ref": "7SKtQbe2gM8b0XjBQSxG7g==", "@spider": "aldi_au", "addr:street": "230 Maitland Road", "addr:city": "Mayfield", "addr:state": "NSW", "addr:postcode": "2304", "name": "ALDI", "opening_hours": "Su 08:30-20:00; Mo-Sa 08:30-20:00; ", "brand": "Aldi"}, "geometry": {"type": "Point", "coordinates": [151.73794, -32.89899]}},
{"type": "Feature", "id": "bO0DjaN0R1t6lt5jtkjlpthOc8c=", "properties": {"ref": "GAfIp9pcE6k2-WMDXggWog==", "@spider": "aldi_au", "addr:street": "174-178 Gorge Road", "addr:city": "Newton", "addr:postcode": "5074", "name": "ALDI", "opening_hours": "Su 09:00-17:00; Mo-We 08:30-20:00; Th 08:30-21:00; Fr 08:30-20:00; Sa 08:00-17:00; ", "brand": "Aldi"}, "geometry": {"type": "Point", "coordinates": [138.68387, -34.87629]}},
{"type": "Feature", "id": "L3RRbLYG74cYAMT-WvjsteLBGss=", "properties": {"ref": "pqqiZtK4NMsNem75cBLCGQ==", "@spider": "aldi_au", "addr:street": "54 Union Street", "addr:city": "Newcastle CBD", "addr:state": "NSW", "addr:postcode": "2302", "name": "ALDI", "opening_hours": "Su 08:30-20:00; Mo-We 08:30-20:00; Th 08:30-21:00; Fr-Sa 08:30-20:00; ", "brand": "Aldi"}, "geometry": {"type": "Point", "coordinates": [151.76567, -32.93042]}},
{"type": "Feature", "id": "202oTIAZrc__i-6scmcrwCr9qEg=", "properties": {"ref": "_6sKFEjz3GWsiB55JwZyWw==", "@spider": "aldi_au", "addr:street": "Cnr Minmi Rd & Britannia St", "addr:city": "Fletcher", "addr:state": "NSW", "addr:postcode": "2287", "name": "ALDI", "opening_hours": "Su 08:30-20:00; Mo-Sa 08:30-20:00; ", "brand": "Aldi"}, "geometry": {"type": "Point", "coordinates": [151.6392, -32.87636]}},
{"type": "Feature", "id": "DLVX1IE3mveDAYiAzDf5HrQYlgU=", "properties": {"ref": "zqzlLDimTKaB-DG_YWMr6g==", "@spider": "aldi_au", "addr:street": "189-197 Brighton Ave", "addr:city": "Toronto", "addr:state": "NSW", "addr:postcode": "2283", "name": "ALDI", "opening_hours": "Su 08:30-20:00; Mo-We 08:30-20:00; Th 08:30-21:00; Fr-Sa 08:30-20:00; ", "brand": "Aldi"}, "geometry": {"type": "Point", "coordinates": [151.59467, -33.01384]}}]}