{"type":"FeatureCollection","features":[{"type": "Feature", "id": "XW0WKNvY_kQeVMS1DkjjI-_tBNE=", "properties": {"ref": "parc-d-activite-de-capellen-2-4", "@spider": "aldi_nord_lu", "addr:full": "Parc d'activit\u00e9 de Capellen 2-4", "addr:city": "Capellen", "addr:postcode": "8310", "addr:country": "lu", "name": "ALDI Capellen - Parc d'activit\u00e9 de Capellen", "website": "https://www.aldi.lu/fr/informations/magasins-et-heures-d-ouverture/capellen/capellen/parc-d-activite-de-capellen-2-4.html", "brand": "ALDI Nord", "brand:wikidata": "Q41171373"}},
{"type": "Feature", "id": "Ig_OOg3NhcavwpILGsFQqvOSaBw=", "properties": {"ref": "av-du-luxembourg", "@spider": "aldi_nord_lu", "addr:full": "av du Luxembourg", "addr:city": "Bascharage", "addr:postcode": "4950", "addr:country": "lu", "name": "ALDI Bascharage - av du Luxembourg", "website": "https://www.aldi.lu/fr/informations/magasins-et-heures-d-ouverture/capellen/bascharage/av-du-luxembourg.html", "brand": "ALDI Nord", "brand:wikidata": "Q41171373"}},
{"type": "Feature", "id": "HZwZs821ymO-ODKUzlHsTe2UwOo=", "properties": {"ref": "zone-artisanale", "@spider": "aldi_nord_lu", "addr:full": "zone Artisanale", "addr:city": "Junglinster", "addr:postcode": "6131", "addr:country": "lu", "name": "ALDI Junglinster - zone Artisanale", "website": "https://www.aldi.lu/fr/informations/magasins-et-heures-d-ouverture/grevenmacher/junglinster/zone-artisanale.html", "brand": "ALDI Nord", "brand:wikidata": "Q41171373"}},
{"type": "Feature", "id": "2jKP-ei5LtnZPDjA35ZcGSQCs-8=", "properties": {"ref": "zone-industrielle", "@spider": "aldi_nord_lu", "addr:full": "zone Industrielle", "addr:city": "Ingeldorf", "addr:postcode": "9099", "addr:country": "lu", "name": "ALDI Ingeldorf - zone Industrielle", "website": "https://www.aldi.lu/fr/informations/magasins-et-heures-d-ouverture/diekirch/ingeldorf/zone-industrielle.html", "brand": "ALDI Nord", "brand:wikidata": "Q41171373"}},
{"type": "Feature", "id": "djPpxGHxyZO9jKUJRgA8zQ1hut8=", "properties": {"ref": "route-de-bastogne-6", "@spider": "aldi_nord_lu", "addr:full": "route de Bastogne 6", "addr:city": "Pommerloch", "addr:postcode": "9638", "addr:country": "lu", "name": "ALDI Pommerloch - route de Bastogne 6", "website": "https://www.aldi.lu/fr/informations/magasins-et-heures-d-ouverture/wiltz/pommerloch/route-de-bastogne-6.html", "brand": "ALDI Nord", "brand:wikidata": "Q41171373"}},
{"type": "Feature", "id": "fDgWTNaqo2uaS-xryLEnNA6uMS8=", "properties": {"ref": "centre-commercial-mercado-rue-sandkaul", "@spider": "aldi_nord_lu", "addr:full": "Centre Commercial Mercado-rue Sandkaul", "addr:city": "Wasserbillig", "addr:postcode": "6677", "addr:country": "lu", "name": "ALDI Wasserbillig - Centre Commercial Mercado-rue Sandkaul", "website": "https://www.aldi.lu/fr/informations/magasins-et-heures-d-ouverture/grevenmacher/wasserbillig/centre-commercial-mercado-rue-sandkaul.html", "brand": "ALDI Nord", "brand:wikidata": "Q41171373"}},
{"type": "Feature", "id": "ZZ_g5tcE0RhCarCJWK3qhEej6dA=", "properties": {"ref": "z-i-um-mierscherbierg-5", "@spider": "aldi_nord_lu", "addr:full": "Z.I. Um Mierscherbierg 5", "addr:city": "Mersch", "addr:postcode": "7526", "addr:country": "lu", "name": "ALDI Mersch - Z.I. Um Mierscherbierg", "website": "https://www.aldi.lu/fr/informations/magasins-et-heures-d-ouverture/mersch/mersch/z-i-um-mierscherbierg-5.html", "brand": "ALDI Nord", "brand:wikidata": "Q41171373"}},
{"type": "Feature", "id": "PTqEpX-TUoKTax0e796R6-xQykE=", "properties": {"ref": "porte-de-france-7a", "@spider": "aldi_nord_lu", "addr:full": "Porte de France 7a", "addr:city": "Belval", "addr:postcode": "4360", "addr:country": "lu", "name": "ALDI Belval - Porte de France", "website": "https://www.aldi.lu/fr/informations/magasins-et-heures-d-ouverture/esch-sur-alzette/belval/porte-de-france-7a.html", "brand": "ALDI Nord", "brand:wikidata": "Q41171373"}},
{"type": "Feature", "id": "sIQ676Gx6j7MNoTuSbZFWB17T7Y=", "properties": {"ref": "rue-du-brill-zone-commerciale", "@spider": "aldi_nord_lu", "addr:full": "Rue du Brill - Zone Commerciale", "addr:city": "Foetz", "addr:postcode": "3898", "addr:country": "lu", "name": "ALDI Foetz - Rue du Brill - Zone Commerciale", "website": "https://www.aldi.lu/fr/informations/magasins-et-heures-d-ouverture/esch-sur-alzette/foetz/rue-du-brill-zone-commerciale.html", "brand": "ALDI Nord", "brand:wikidata": "Q41171373"}},
{"type": "Feature", "id": "N3Yo7bJbDbX8vBdBBlNMtq9-NMk=", "properties": {"ref": "place-des-allies-10", "@spider": "aldi_nord_lu", "addr:full": "Place des Alli\u00e9s 10", "addr:city": "Differdange", "addr:postcode": "4508", "addr:country": "lu", "name": "ALDI Differdange - Place des Alli\u00e9s", "website": "https://www.aldi.lu/fr/informations/magasins-et-heures-d-ouverture/esch-sur-alzette/differdange/place-des-allies-10.html", "brand": "ALDI Nord", "brand:wikidata": "Q41171373"}},
{"type": "Feature", "id": "dZCS5uieAexNWAt_QLUfulXPoNQ=", "properties": {"ref": "route-du-luxembourg", "@spider": "aldi_nord_lu", "addr:full": "route du Luxembourg", "addr:city": "Dudelange", "addr:postcode": "3515", "addr:country": "lu", "name": "ALDI Dudelange - route du Luxembourg", "website": "https://www.aldi.lu/fr/informations/magasins-et-heures-d-ouverture/esch-sur-alzette/dudelange/route-du-luxembourg.html", "brand": "ALDI Nord", "brand:wikidata": "Q41171373"}},
{"type": "Feature", "id": "MoH_etyNxNogbho7bmzXpmaeWCM=", "properties": {"ref": "route-de-luxembourg-121", "@spider": "aldi_nord_lu", "addr:full": "Route de Luxembourg 121", "addr:city": "Echternach", "addr:postcode": "6562", "addr:country": "lu", "name": "ALDI Echternach - Route de Luxembourg", "website": "https://www.aldi.lu/fr/informations/magasins-et-heures-d-ouverture/echternach/echternach/route-de-luxembourg-121.html", "brand": "ALDI Nord", "brand:wikidata": "Q41171373"}},
{"type": "Feature", "id": "K_ow7BiBpBMcVAos1J8VUvt0aGY=", "properties": {"ref": "route-de-luxembourg", "@spider": "aldi_nord_lu", "addr:full": "route de Luxembourg", "addr:city": "Sandweiler", "addr:postcode": "5230", "addr:country": "lu", "name": "ALDI Sandweiler - route de Luxembourg", "website": "https://www.aldi.lu/fr/informations/magasins-et-heures-d-ouverture/luxembourg/sandweiler/route-de-luxembourg.html", "brand": "ALDI Nord", "brand:wikidata": "Q41171373"}},
{"type": "Feature", "id": "WQrRTHm4twE3IMBYKpHNwWQOWhs=", "properties": {"ref": "rue-de-longwy-36", "@spider": "aldi_nord_lu", "addr:full": "rue de Longwy 36", "addr:city": "Bertrange", "addr:postcode": "8080", "addr:country": "lu", "name": "ALDI Bertrange - rue de Longwy", "website": "https://www.aldi.lu/fr/informations/magasins-et-heures-d-ouverture/luxembourg/bertrange/rue-de-longwy-36.html", "brand": "ALDI Nord", "brand:wikidata": "Q41171373"}},
{"type": "Feature", "id": "eYet0nITNajyGtRJdwGO42P2QeM=", "properties": {"ref": "rue-de-stavelot", "@spider": "aldi_nord_lu", "addr:full": "Rue de Stavelot", "addr:city": "Huldange", "addr:postcode": "9964", "addr:country": "lu", "name": "ALDI Huldange - Rue de Stavelot", "website": "https://www.aldi.lu/fr/informations/magasins-et-heures-d-ouverture/clervaux/huldange/rue-de-stavelot.html", "brand": "ALDI Nord", "brand:wikidata": "Q41171373"}},
{"type": "Feature", "id": "K-OcGnWj_-sKHvAcoFxBjdCiom8=", "properties": {"ref": "rue-christophe-plantin-9", "@spider": "aldi_nord_lu", "addr:full": "Rue Christophe Plantin 9", "addr:city": "Gasperich", "addr:postcode": "2339", "addr:country": "lu", "name": "ALDI Gasperich - Rue Christophe Plantin", "website": "https://www.aldi.lu/fr/informations/magasins-et-heures-d-ouverture/luxembourg/gasperich/rue-christophe-plantin-9.html", "brand": "ALDI Nord", "brand:wikidata": "Q41171373"}},
{"type": "Feature", "id": "41dxQP9naUBLRYl8fsN-g9ZSNrQ=", "properties": {"ref": "marbuergerstrooss-9", "@spider": "aldi_nord_lu", "addr:full": "Marbuergerstrooss 9", "addr:city": "Marnach", "addr:postcode": "9764", "addr:country": "lu", "name": "ALDI Marnach - Marbuergerstrooss 9", "website": "https://www.aldi.lu/fr/informations/magasins-et-heures-d-ouverture/clervaux/marnach/marbuergerstrooss-9.html", "brand": "ALDI Nord", "brand:wikidata": "Q41171373"}}]}