{"type":"FeatureCollection","features":[{"type": "Feature", "id": "9LE7GRwkCV4Kkmem7kDBbv_wBpg=", "properties": {"ref": "ul-orzeszkowej-1", "@spider": "aldi_nord_pl", "addr:full": "ul. Orzeszkowej 1", "addr:city": "Grodzisk Mazowiecki", "addr:postcode": "05-825", "addr:country": "pl", "name": "ALDI Grodzisk Mazowiecki - ul. Orzeszkowej", "website": "https://www.aldi.pl/informacje-dla-klienta/wyszukiwarka-sklepu/mazowieckie/grodzisk-mazowiecki/ul-orzeszkowej-1.html", "brand": "ALDI Nord", "brand:wikidata": "Q41171373"}},
{"type": "Feature", "id": "sUdnSIBHqGPVW148L5Y33MvcqxI=", "properties": {"ref": "ul-fieldorfa-11", "@spider": "aldi_nord_pl", "addr:full": "ul. Fieldorfa 11", "addr:city": "Warszawa", "addr:postcode": "03-984", "addr:country": "pl", "name": "ALDI Warszawa - ul. Fieldorfa", "website": "https://www.aldi.pl/informacje-dla-klienta/wyszukiwarka-sklepu/mazowieckie/warszawa/ul-fieldorfa-11.html", "brand": "ALDI Nord", "brand:wikidata": "Q41171373"}},
{"type": "Feature", "id": "Z_x52joeTQZgtWBEO3CO6VfxPNg=", "properties": {"ref": "ul-w_gierska-12", "@spider": "aldi_nord_pl", "addr:full": "ul. W\u0119gierska 12", "addr:city": "Gorlice", "addr:postcode": "38-300", "addr:country": "pl", "name": "ALDI Gorlice - ul. W\u0119gierska", "website": "https://www.aldi.pl/informacje-dla-klienta/wyszukiwarka-sklepu/ma_opolskie/gorlice/ul-w_gierska-12.html", "brand": "ALDI Nord", "brand:wikidata": "Q41171373"}},
{"type": "Feature", "id": "xZIaTeNPEsXKau3zErGKYFMwdrY=", "properties": {"ref": "nowa-4", "@spider": "aldi_nord_pl", "addr:full": "Nowa 4", "addr:city": "Stara Iwiczna", "addr:postcode": "05-500", "addr:country": "pl", "name": "ALDI Stara Iwiczna - Nowa", "website": "https://www.aldi.pl/informacje-dla-klienta/wyszukiwarka-sklepu/mazowieckie/stara-iwiczna/nowa-4.html", "brand": "ALDI Nord", "brand:wikidata": "Q41171373"}},
{"type": "Feature", "id": "uKYU4DIeaAsHIjHoJ8HJ9HS1Keg=", "properties": {"ref": "ul-radzymi_ska-245", "@spider": "aldi_nord_pl", "addr:full": "ul. Radzymi\u0144ska 245", "addr:city": "Warszawa", "addr:postcode": "03-643", "addr:country": "pl", "name": "ALDI Warszawa - ul. Radzymi\u0144ska", "website": "https://www.aldi.pl/informacje-dla-klienta/wyszukiwarka-sklepu/mazowieckie/warszawa/ul-radzymi_ska-245.html", "brand": "ALDI Nord", "brand:wikidata": "Q41171373"}},
{"type": "Feature", "id": "NOmOWbZJl6MZ4RRzzf14nKGJlQI=", "properties": {"ref": "al-krakowska-263", "@spider": "aldi_nord_pl", "addr:full": "Al. Krakowska 263", "addr:city": "Warszawa", "addr:postcode": "02-133", "addr:country": "pl", "name": "ALDI Warszawa - Al. Krakowska", "website": "https://www.aldi.pl/informacje-dla-klienta/wyszukiwarka-sklepu/mazowieckie/warszawa/al-krakowska-263.html", "brand": "ALDI Nord", "brand:wikidata": "Q41171373"}},
{"type": "Feature", "id": "bTislIx1-DjRbeu5pPaNlB3nzBc=", "properties": {"ref": "ul-okulickiego-10", "@spider": "aldi_nord_pl", "addr:full": "ul. Okulickiego 10", "addr:city": "Rzesz\u00f3w", "addr:postcode": "35-210", "addr:country": "pl", "name": "ALDI Rzesz\u00f3w - ul. Okulickiego", "website": "https://www.aldi.pl/informacje-dla-klienta/wyszukiwarka-sklepu/podkarpackie/rzeszow/ul-okulickiego-10.html", "brand": "ALDI Nord", "brand:wikidata": "Q41171373"}},
{"type": "Feature", "id": "FjA9JGfioa1t3_bk9Vwmw2ARQUA=", "properties": {"ref": "ulica-ignacego-daszyskiego-1-a", "@spider": "aldi_nord_pl", "addr:full": "ulica Ignacego Daszy\u0144skiego 1 A", "addr:city": "Wrze\u015bnia", "addr:postcode": "62-300", "addr:country": "pl", "name": "ALDI Wrze\u015bnia - ulica Ignacego Daszy\u0144skiego", "website": "https://www.aldi.pl/informacje-dla-klienta/wyszukiwarka-sklepu/wielkopolskie/wrze_nia/ulica-ignacego-daszyskiego-1-a.html", "brand": "ALDI Nord", "brand:wikidata": "Q41171373"}},
{"type": "Feature", "id": "M0TLUhjm0YOckVqa173DZKnGT-k=", "properties": {"ref": "al-solidarno_ci-23", "@spider": "aldi_nord_pl", "addr:full": "al. Solidarno\u015bci 23", "addr:city": "Kielce", "addr:postcode": "25-323", "addr:country": "pl", "name": "ALDI Kielce - al. Solidarno\u015bci", "website": "https://www.aldi.pl/informacje-dla-klienta/wyszukiwarka-sklepu/_wi_tokrzyskie/kielce/al-solidarno_ci-23.html", "brand": "ALDI Nord", "brand:wikidata": "Q41171373"}},
{"type": "Feature", "id": "nSasFflo4Fv8pFcx6TweAY3sHdA=", "properties": {"ref": "ul-_w-antoniego-65-69", "@spider": "aldi_nord_pl", "addr:full": "ul. \u015bw. Antoniego 65/69", "addr:city": "Tomasz\u00f3w Mazowiecki", "addr:postcode": "97-200", "addr:country": "pl", "name": "ALDI Tomasz\u00f3w Mazowiecki - ul. \u015bw. Antoniego", "website": "https://www.aldi.pl/informacje-dla-klienta/wyszukiwarka-sklepu/_odzkie/tomaszow-mazowiecki/ul-_w-antoniego-65-69.html", "brand": "ALDI Nord", "brand:wikidata": "Q41171373"}},
{"type": "Feature", "id": "0G36iwq5RD9hP6yZmzyIaN3tHTk=", "properties": {"ref": "ul-kcy_ska-20a", "@spider": "aldi_nord_pl", "addr:full": "ul. Kcy\u0144ska 20A", "addr:city": "W\u0105growiec", "addr:postcode": "62-100", "addr:country": "pl", "name": "ALDI W\u0105growiec - ul. Kcy\u0144ska", "website": "https://www.aldi.pl/informacje-dla-klienta/wyszukiwarka-sklepu/wielkopolskie/w_growiec/ul-kcy_ska-20a.html", "brand": "ALDI Nord", "brand:wikidata": "Q41171373"}},
{"type": "Feature", "id": "Y3QnbW2-ITRbQFI9I1sgBBYbRt8=", "properties": {"ref": "ul-popie_uszki-10", "@spider": "aldi_nord_pl", "addr:full": "ul. Popie\u0142uszki 10", "addr:city": "Skar\u017cysko-Kamienna", "addr:postcode": "26-110", "addr:country": "pl", "name": "ALDI Skar\u017cysko-Kamienna - ul. Popie\u0142uszki", "website": "https://www.aldi.pl/informacje-dla-klienta/wyszukiwarka-sklepu/_wi_tokrzyskie/skar_ysko-kamienna/ul-popie_uszki-10.html", "brand": "ALDI Nord", "brand:wikidata": "Q41171373"}},
{"type": "Feature", "id": "GPMtNJscMIV0XmW0mTvVabtmzI4=", "properties": {"ref": "ul-broniewskiego-1", "@spider": "aldi_nord_pl", "addr:full": "ul. Broniewskiego 1", "addr:city": "Pszczyna", "addr:postcode": "43-200", "addr:country": "pl", "name": "ALDI Pszczyna - ul. Broniewskiego", "website": "https://www.aldi.pl/informacje-dla-klienta/wyszukiwarka-sklepu/_l_skie/pszczyna/ul-broniewskiego-1.html", "brand": "ALDI Nord", "brand:wikidata": "Q41171373"}},
{"type": "Feature", "id": "C1ClaW-GoBmfONITQLCOyEjfQfI=", "properties": {"ref": "ul-w_okniarzy-148", "@spider": "aldi_nord_pl", "addr:full": "ul. W\u0142\u00f3kniarzy 148", "addr:city": "\u0141\u00f3d\u017a", "addr:postcode": "91-089", "addr:country": "pl", "name": "ALDI \u0141\u00f3d\u017a - ul. W\u0142\u00f3kniarzy", "website": "https://www.aldi.pl/informacje-dla-klienta/wyszukiwarka-sklepu/_odzkie/_od_/ul-w_okniarzy-148.html", "brand": "ALDI Nord", "brand:wikidata": "Q41171373"}},
{"type": "Feature", "id": "5VcH4fU2aoi4G2EtmQ39d0A-U8g=", "properties": {"ref": "ul-ks-roczkowskiego-1", "@spider": "aldi_nord_pl", "addr:full": "ul. Ks. Roczkowskiego 1", "addr:city": "Piekary \u015al\u0105skie", "addr:postcode": "41-904", "addr:country": "pl", "name": "ALDI Piekary \u015al\u0105skie - ul. Ks. Roczkowskiego", "website": "https://www.aldi.pl/informacje-dla-klienta/wyszukiwarka-sklepu/_l_skie/piekary-_l_skie/ul-ks-roczkowskiego-1.html", "brand": "ALDI Nord", "brand:wikidata": "Q41171373"}},
{"type": "Feature", "id": "gkbhwgQIfbT2lE30gILDr0PODTI=", "properties": {"ref": "ul-bytomska-60", "@spider": "aldi_nord_pl", "addr:full": "ul. Bytomska 60", "addr:city": "Piekary \u015al\u0105skie", "addr:postcode": "41-940", "addr:country": "pl", "name": "ALDI Piekary \u015al\u0105skie - ul. Bytomska", "website": "https://www.aldi.pl/informacje-dla-klienta/wyszukiwarka-sklepu/_l_skie/piekary-_l_skie/ul-bytomska-60.html", "brand": "ALDI Nord", "brand:wikidata": "Q41171373"}},
{"type": "Feature", "id": "7PXBoqXSLMLQr-j6Ez9DcjPh0gE=", "properties": {"ref": "ul-zo_kiewskiego-8a", "@spider": "aldi_nord_pl", "addr:full": "ul. Z\u00f3\u0142kiewskiego 8a", "addr:city": "Radom", "addr:postcode": "26-600", "addr:country": "pl", "name": "ALDI Radom - ul. Z\u00f3\u0142kiewskiego", "website": "https://www.aldi.pl/informacje-dla-klienta/wyszukiwarka-sklepu/mazowieckie/radom/ul-zo_kiewskiego-8a.html", "brand": "ALDI Nord", "brand:wikidata": "Q41171373"}},
{"type": "Feature", "id": "AZGZp5WftN5G2G4xvPRJOP9GTAE=", "properties": {"ref": "ul-rzgowska-44", "@spider": "aldi_nord_pl", "addr:full": "ul. Rzgowska 44", "addr:city": "\u0141\u00f3d\u017a", "addr:postcode": "93-172", "addr:country": "pl", "name": "ALDI \u0141\u00f3d\u017a - ul. Rzgowska", "website": "https://www.aldi.pl/informacje-dla-klienta/wyszukiwarka-sklepu/_odzkie/_od_/ul-rzgowska-44.html", "brand": "ALDI Nord", "brand:wikidata": "Q41171373"}},
{"type": "Feature", "id": "VxtTSuxnoE3Q4BFU6Cpk5wAEVP4=", "properties": {"ref": "ul-puszkina-6", "@spider": "aldi_nord_pl", "addr:full": "ul. Puszkina 6", "addr:city": "\u0141\u00f3d\u017a", "addr:postcode": "92-516", "addr:country": "pl", "name": "ALDI \u0141\u00f3d\u017a - ul. Puszkina", "website": "https://www.aldi.pl/informacje-dla-klienta/wyszukiwarka-sklepu/_odzkie/_od_/ul-puszkina-6.html", "brand": "ALDI Nord", "brand:wikidata": "Q41171373"}},
{"type": "Feature", "id": "t9A5aaTNAfh02tw-CFMCyBWwWRQ=", "properties": {"ref": "ul-grota-roweckiego-24", "@spider": "aldi_nord_pl", "addr:full": "ul. Grota Roweckiego 24", "addr:city": "Pabianice", "addr:postcode": "95-200", "addr:country": "pl", "name": "ALDI Pabianice - ul. Grota Roweckiego", "website": "https://www.aldi.pl/informacje-dla-klienta/wyszukiwarka-sklepu/_odzkie/pabianice/ul-grota-roweckiego-24.html", "brand": "ALDI Nord", "brand:wikidata": "Q41171373"}},
{"type": "Feature", "id": "PxT3V8ZClCpj3fNSaa1W8CT_gj4=", "properties": {"ref": "ul-grabieniec-25", "@spider": "aldi_nord_pl", "addr:full": "ul. Grabieniec 25", "addr:city": "\u0141\u00f3d\u017a", "addr:postcode": "91-140", "addr:country": "pl", "name": "ALDI \u0141\u00f3d\u017a - ul. Grabieniec", "website": "https://www.aldi.pl/informacje-dla-klienta/wyszukiwarka-sklepu/_odzkie/_od_/ul-grabieniec-25.html", "brand": "ALDI Nord", "brand:wikidata": "Q41171373"}},
{"type": "Feature", "id": "G0YI1JM1ew7l9sPDnryFDIeWlfk=", "properties": {"ref": "ul-obywatelska-85", "@spider": "aldi_nord_pl", "addr:full": "ul. Obywatelska 85", "addr:city": "\u0141\u00f3d\u017a", "addr:postcode": "93-562", "addr:country": "pl", "name": "ALDI \u0141\u00f3d\u017a - ul. Obywatelska", "website": "https://www.aldi.pl/informacje-dla-klienta/wyszukiwarka-sklepu/_odzkie/_od_/ul-obywatelska-85.html", "brand": "ALDI Nord", "brand:wikidata": "Q41171373"}},
{"type": "Feature", "id": "1peDPavxtPPLP_b8EnmUBSp9LSI=", "properties": {"ref": "ul-ozimska-70", "@spider": "aldi_nord_pl", "addr:full": "ul.Ozimska 70", "addr:city": "Opole", "addr:postcode": "45-310", "addr:country": "pl", "name": "ALDI Opole - ul.Ozimska", "website": "https://www.aldi.pl/informacje-dla-klienta/wyszukiwarka-sklepu/opolskie/opole/ul-ozimska-70.html", "brand": "ALDI Nord", "brand:wikidata": "Q41171373"}},
{"type": "Feature", "id": "1cugLdKM9x9cSUo6VpDVZsHrENQ=", "properties": {"ref": "ul-armii-krajowej-47", "@spider": "aldi_nord_pl", "addr:full": "ul. Armii Krajowej 47", "addr:city": "\u0141\u00f3d\u017a", "addr:postcode": "94-046", "addr:country": "pl", "name": "ALDI \u0141\u00f3d\u017a - ul. Armii Krajowej", "website": "https://www.aldi.pl/informacje-dla-klienta/wyszukiwarka-sklepu/_odzkie/_od_/ul-armii-krajowej-47.html", "brand": "ALDI Nord", "brand:wikidata": "Q41171373"}},
{"type": "Feature", "id": "WoUZvTWS27-BozoV_XGgfGZcnVM=", "properties": {"ref": "ul-rysownicza-52", "@spider": "aldi_nord_pl", "addr:full": "Ul. Rysownicza 52", "addr:city": "\u0141\u00f3d\u017a", "addr:postcode": "91-857", "addr:country": "pl", "name": "ALDI \u0141\u00f3d\u017a - Ul. Rysownicza", "website": "https://www.aldi.pl/informacje-dla-klienta/wyszukiwarka-sklepu/_odzkie/_od_/ul-rysownicza-52.html", "brand": "ALDI Nord", "brand:wikidata": "Q41171373"}},
{"type": "Feature", "id": "Rs02vvVfGNK-6gYCodJj3uVBElg=", "properties": {"ref": "ul-mireckiego-10", "@spider": "aldi_nord_pl", "addr:full": "ul. Mireckiego 10", "addr:city": "Radom", "addr:postcode": "26-610", "addr:country": "pl", "name": "ALDI Radom - ul. Mireckiego", "website": "https://www.aldi.pl/informacje-dla-klienta/wyszukiwarka-sklepu/mazowieckie/radom/ul-mireckiego-10.html", "brand": "ALDI Nord", "brand:wikidata": "Q41171373"}},
{"type": "Feature", "id": "pbtZCx4YhyAuSgHneVqNZMeTVvM=", "properties": {"ref": "ul-1905-roku-2", "@spider": "aldi_nord_pl", "addr:full": "ul. 1905 roku 2", "addr:city": "Radom", "addr:postcode": "26-610", "addr:country": "pl", "name": "ALDI Radom - ul. 1905 roku", "website": "https://www.aldi.pl/informacje-dla-klienta/wyszukiwarka-sklepu/mazowieckie/radom/ul-1905-roku-2.html", "brand": "ALDI Nord", "brand:wikidata": "Q41171373"}},
{"type": "Feature", "id": "_eES8A70GlE9S2EaDiQLCDxGr8U=", "properties": {"ref": "ul-jana-iii-sobieskiego-20", "@spider": "aldi_nord_pl", "addr:full": "ul. Jana III Sobieskiego 20", "addr:city": "K\u0119ty", "addr:postcode": "32-650", "addr:country": "pl", "name": "ALDI K\u0119ty - ul. Jana III Sobieskiego", "website": "https://www.aldi.pl/informacje-dla-klienta/wyszukiwarka-sklepu/ma_opolskie/k_ty/ul-jana-iii-sobieskiego-20.html", "brand": "ALDI Nord", "brand:wikidata": "Q41171373"}},
{"type": "Feature", "id": "h1PslM9oei_znGwjmglPP7wlabw=", "properties": {"ref": "ul-robotnicza-134", "@spider": "aldi_nord_pl", "addr:full": "ul. Robotnicza 134", "addr:city": "Elbl\u0105g", "addr:postcode": "82-300", "addr:country": "pl", "name": "ALDI Elbl\u0105g - ul. Robotnicza", "website": "https://www.aldi.pl/informacje-dla-klienta/wyszukiwarka-sklepu/warmi_sko-mazurskie/elbl_g/ul-robotnicza-134.html", "brand": "ALDI Nord", "brand:wikidata": "Q41171373"}},
{"type": "Feature", "id": "0M9viC0mETfEhApfgWowNkDuBdY=", "properties": {"ref": "ul-centralna-1", "@spider": "aldi_nord_pl", "addr:full": "ul. Centralna 1", "addr:city": "\u017bory", "addr:postcode": "44-240", "addr:country": "pl", "name": "ALDI \u017bory - ul. Centralna", "website": "https://www.aldi.pl/informacje-dla-klienta/wyszukiwarka-sklepu/_l_skie/_ory/ul-centralna-1.html", "brand": "ALDI Nord", "brand:wikidata": "Q41171373"}},
{"type": "Feature", "id": "Vh9U7vipURt7N7mnfHA7-Mb7p9s=", "properties": {"ref": "ul-_eromskiego-4a", "@spider": "aldi_nord_pl", "addr:full": "ul. \u017beromskiego 4a", "addr:city": "\u017bywiec", "addr:postcode": "34-300", "addr:country": "pl", "name": "ALDI \u017bywiec - ul. \u017beromskiego", "website": "https://www.aldi.pl/informacje-dla-klienta/wyszukiwarka-sklepu/_l_skie/_ywiec/ul-_eromskiego-4a.html", "brand": "ALDI Nord", "brand:wikidata": "Q41171373"}},
{"type": "Feature", "id": "au0usn3QygEZx9iQppW8je4kdLc=", "properties": {"ref": "ul-gda_ska-25", "@spider": "aldi_nord_pl", "addr:full": "ul. Gda\u0144ska 25", "addr:city": "Zabrze", "addr:postcode": "41-800", "addr:country": "pl", "name": "ALDI Zabrze - ul. Gda\u0144ska", "website": "https://www.aldi.pl/informacje-dla-klienta/wyszukiwarka-sklepu/_l_skie/zabrze/ul-gda_ska-25.html", "brand": "ALDI Nord", "brand:wikidata": "Q41171373"}},
{"type": "Feature", "id": "izRJN5E3crgE0c58Zqrd4C7zg9o=", "properties": {"ref": "ul-sobieskiego-3", "@spider": "aldi_nord_pl", "addr:full": "ul.Sobieskiego 3", "addr:city": "Tarnowskie G\u00f3ry", "addr:postcode": "42-600", "addr:country": "pl", "name": "ALDI Tarnowskie G\u00f3ry - ul.Sobieskiego 3", "website": "https://www.aldi.pl/informacje-dla-klienta/wyszukiwarka-sklepu/_l_skie/tarnowskie-gory/ul-sobieskiego-3.html", "brand": "ALDI Nord", "brand:wikidata": "Q41171373"}},
{"type": "Feature", "id": "YR5tcmVl8X5kNUgqtWEbLduuWTw=", "properties": {"ref": "ul-ja_kowicka-1", "@spider": "aldi_nord_pl", "addr:full": "ul. Ja\u015bkowicka 1", "addr:city": "Tychy", "addr:postcode": "43-100", "addr:country": "pl", "name": "ALDI Tychy - ul. Ja\u015bkowicka", "website": "https://www.aldi.pl/informacje-dla-klienta/wyszukiwarka-sklepu/_l_skie/tychy/ul-ja_kowicka-1.html", "brand": "ALDI Nord", "brand:wikidata": "Q41171373"}},
{"type": "Feature", "id": "i3V-6KgoErHMxROEKlExRbQI9oY=", "properties": {"ref": "ul-wolno_ci-500", "@spider": "aldi_nord_pl", "addr:full": "Ul. Wolno\u015bci 500", "addr:city": "Zabrze", "addr:postcode": "41-800", "addr:country": "pl", "name": "ALDI Zabrze - Ul. Wolno\u015bci", "website": "https://www.aldi.pl/informacje-dla-klienta/wyszukiwarka-sklepu/_l_skie/zabrze/ul-wolno_ci-500.html", "brand": "ALDI Nord", "brand:wikidata": "Q41171373"}},
{"type": "Feature", "id": "OwrKOwhUUUeVnF2IY6P9QedFb44=", "properties": {"ref": "ul-miarki-2", "@spider": "aldi_nord_pl", "addr:full": "Ul. Miarki 2", "addr:city": "Zabrze", "addr:postcode": "41-800", "addr:country": "pl", "name": "ALDI Zabrze - Ul. Miarki", "website": "https://www.aldi.pl/informacje-dla-klienta/wyszukiwarka-sklepu/_l_skie/zabrze/ul-miarki-2.html", "brand": "ALDI Nord", "brand:wikidata": "Q41171373"}},
{"type": "Feature", "id": "5T0s8ulbEY2QO0r8ilAiAwq5O0g=", "properties": {"ref": "ul-radli_ska-37", "@spider": "aldi_nord_pl", "addr:full": "ul. Radli\u0144ska 37", "addr:city": "Wodzis\u0142aw \u015al\u0105ski", "addr:postcode": "44-286", "addr:country": "pl", "name": "ALDI Wodzis\u0142aw \u015al\u0105ski - ul. Radli\u0144ska", "website": "https://www.aldi.pl/informacje-dla-klienta/wyszukiwarka-sklepu/_l_skie/wodzis_aw-_l_ski/ul-radli_ska-37.html", "brand": "ALDI Nord", "brand:wikidata": "Q41171373"}},
{"type": "Feature", "id": "_zAIuek9UNbkMtdtkQIE8Jb0mxI=", "properties": {"ref": "ul-_agiewnicka-70", "@spider": "aldi_nord_pl", "addr:full": "ul. \u0141agiewnicka 70", "addr:city": "\u015awi\u0119toch\u0142owice", "addr:postcode": "41-608", "addr:country": "pl", "name": "ALDI \u015awi\u0119toch\u0142owice - ul. \u0141agiewnicka", "website": "https://www.aldi.pl/informacje-dla-klienta/wyszukiwarka-sklepu/_l_skie/_wi_toch_owice/ul-_agiewnicka-70.html", "brand": "ALDI Nord", "brand:wikidata": "Q41171373"}},
{"type": "Feature", "id": "3Xvk5ZHnwxBMtu8KUAuKEwn6v0c=", "properties": {"ref": "ul-kapicy-7", "@spider": "aldi_nord_pl", "addr:full": "ul. Kapicy 7", "addr:city": "Siemianowice \u015al\u0105skie", "addr:postcode": "41-100", "addr:country": "pl", "name": "ALDI Siemianowice \u015al\u0105skie - ul. Kapicy", "website": "https://www.aldi.pl/informacje-dla-klienta/wyszukiwarka-sklepu/_l_skie/siemianowice-_l_skie/ul-kapicy-7.html", "brand": "ALDI Nord", "brand:wikidata": "Q41171373"}},
{"type": "Feature", "id": "0UzY3UIsninb2NiWoQeA0MrTKj8=", "properties": {"ref": "ul-nowomiejska-2", "@spider": "aldi_nord_pl", "addr:full": "ul. Nowomiejska 2", "addr:city": "Racib\u00f3rz", "addr:postcode": "47-403", "addr:country": "pl", "name": "ALDI Racib\u00f3rz - ul. Nowomiejska", "website": "https://www.aldi.pl/informacje-dla-klienta/wyszukiwarka-sklepu/_l_skie/raciborz/ul-nowomiejska-2.html", "brand": "ALDI Nord", "brand:wikidata": "Q41171373"}},
{"type": "Feature", "id": "gF_p_83pL8Fh9MpIxp6h10lwNEI=", "properties": {"ref": "ul-piastowska-3", "@spider": "aldi_nord_pl", "addr:full": "ul. Piastowska 3", "addr:city": "Ruda \u015al\u0105ska", "addr:postcode": "41-700", "addr:country": "pl", "name": "ALDI Ruda \u015al\u0105ska - ul. Piastowska", "website": "https://www.aldi.pl/informacje-dla-klienta/wyszukiwarka-sklepu/_l_skie/ruda-_l_ska/ul-piastowska-3.html", "brand": "ALDI Nord", "brand:wikidata": "Q41171373"}},
{"type": "Feature", "id": "-sU6EeABFLePNvT2bBGXJP_qKbA=", "properties": {"ref": "ul-katowicka-55", "@spider": "aldi_nord_pl", "addr:full": "ul. Katowicka 55", "addr:city": "Mys\u0142owice", "addr:postcode": "41-400", "addr:country": "pl", "name": "ALDI Mys\u0142owice - ul. Katowicka", "website": "https://www.aldi.pl/informacje-dla-klienta/wyszukiwarka-sklepu/_l_skie/mys_owice/ul-katowicka-55.html", "brand": "ALDI Nord", "brand:wikidata": "Q41171373"}},
{"type": "Feature", "id": "9UgADiFNUDbKyjs6GEvOpTxvBwU=", "properties": {"ref": "ul-1-maja-30", "@spider": "aldi_nord_pl", "addr:full": "ul. 1 Maja 30", "addr:city": "Ruda \u015al\u0105ska", "addr:postcode": "41-706", "addr:country": "pl", "name": "ALDI Ruda \u015al\u0105ska - ul. 1 Maja", "website": "https://www.aldi.pl/informacje-dla-klienta/wyszukiwarka-sklepu/_l_skie/ruda-_l_ska/ul-1-maja-30.html", "brand": "ALDI Nord", "brand:wikidata": "Q41171373"}},
{"type": "Feature", "id": "MTEPRvBXtfmqHfmgU6-Tz_Ml3Ks=", "properties": {"ref": "ul-lisowicka-21", "@spider": "aldi_nord_pl", "addr:full": "ul. Lisowicka 21", "addr:city": "Lubliniec", "addr:postcode": "42-700", "addr:country": "pl", "name": "ALDI Lubliniec - ul. Lisowicka", "website": "https://www.aldi.pl/informacje-dla-klienta/wyszukiwarka-sklepu/_l_skie/lubliniec/ul-lisowicka-21.html", "brand": "ALDI Nord", "brand:wikidata": "Q41171373"}},
{"type": "Feature", "id": "UVbur2Mav9FNocDR9094D2v-2So=", "properties": {"ref": "wyzwolenia-7", "@spider": "aldi_nord_pl", "addr:full": "Wyzwolenia 7", "addr:city": "Miko\u0142\u00f3w", "addr:postcode": "43-190", "addr:country": "pl", "name": "ALDI Miko\u0142\u00f3w - Wyzwolenia", "website": "https://www.aldi.pl/informacje-dla-klienta/wyszukiwarka-sklepu/_l_skie/miko_ow/wyzwolenia-7.html", "brand": "ALDI Nord", "brand:wikidata": "Q41171373"}},
{"type": "Feature", "id": "RT5xCZYrjPGLsLylPBg7JF781CY=", "properties": {"ref": "ul-ofiar-terroru-27-a", "@spider": "aldi_nord_pl", "addr:full": "ul. Ofiar Terroru 27 a", "addr:city": "Rydu\u0142towy", "addr:postcode": "44-280", "addr:country": "pl", "name": "ALDI Rydu\u0142towy - ul. Ofiar Terroru", "website": "https://www.aldi.pl/informacje-dla-klienta/wyszukiwarka-sklepu/_l_skie/rydu_towy/ul-ofiar-terroru-27-a.html", "brand": "ALDI Nord", "brand:wikidata": "Q41171373"}},
{"type": "Feature", "id": "_2N7IWq2tFeRkVx4S3Rp6jTAVS8=", "properties": {"ref": "ul-1-maja-49", "@spider": "aldi_nord_pl", "addr:full": "Ul. 1 Maja 49", "addr:city": "Knur\u00f3w", "addr:postcode": "44-190", "addr:country": "pl", "name": "ALDI Knur\u00f3w - Ul. 1 Maja", "website": "https://www.aldi.pl/informacje-dla-klienta/wyszukiwarka-sklepu/_l_skie/knurow/ul-1-maja-49.html", "brand": "ALDI Nord", "brand:wikidata": "Q41171373"}},
{"type": "Feature", "id": "M5m1TjM-sSDZD-ZrmrilT5Tywqo=", "properties": {"ref": "ul-1-maja-106", "@spider": "aldi_nord_pl", "addr:full": "ul. 1 Maja 106", "addr:city": "Rybnik", "addr:postcode": "44-206", "addr:country": "pl", "name": "ALDI Rybnik - ul. 1 Maja", "website": "https://www.aldi.pl/informacje-dla-klienta/wyszukiwarka-sklepu/_l_skie/rybnik/ul-1-maja-106.html", "brand": "ALDI Nord", "brand:wikidata": "Q41171373"}},
{"type": "Feature", "id": "MvDwzzy3wrC_4Is_0ygqKyIlZIw=", "properties": {"ref": "ul-wojska-polskiego-27a", "@spider": "aldi_nord_pl", "addr:full": "ul. Wojska Polskiego 27a", "addr:city": "Sosnowiec", "addr:postcode": "41-208", "addr:country": "pl", "name": "ALDI Sosnowiec - ul. Wojska Polskiego", "website": "https://www.aldi.pl/informacje-dla-klienta/wyszukiwarka-sklepu/_l_skie/sosnowiec/ul-wojska-polskiego-27a.html", "brand": "ALDI Nord", "brand:wikidata": "Q41171373"}},
{"type": "Feature", "id": "YuVlT9ZnUi_Le-vwJhKy0pAoPaw=", "properties": {"ref": "ul-ptasia-20", "@spider": "aldi_nord_pl", "addr:full": "ul. Ptasia 20", "addr:city": "Sosnowiec", "addr:postcode": "41-200", "addr:country": "pl", "name": "ALDI Sosnowiec - ul. Ptasia", "website": "https://www.aldi.pl/informacje-dla-klienta/wyszukiwarka-sklepu/_l_skie/sosnowiec/ul-ptasia-20.html", "brand": "ALDI Nord", "brand:wikidata": "Q41171373"}},
{"type": "Feature", "id": "52k1aidZW_NI1cLcjv61OfNPWd4=", "properties": {"ref": "ul-zebrzydowicka-67", "@spider": "aldi_nord_pl", "addr:full": "ul. Zebrzydowicka 67", "addr:city": "Rybnik", "addr:postcode": "44-210", "addr:country": "pl", "name": "ALDI Rybnik - ul. Zebrzydowicka", "website": "https://www.aldi.pl/informacje-dla-klienta/wyszukiwarka-sklepu/_l_skie/rybnik/ul-zebrzydowicka-67.html", "brand": "ALDI Nord", "brand:wikidata": "Q41171373"}},
{"type": "Feature", "id": "PrHF2KrctPi2BfMzBDEfkNdVw6U=", "properties": {"ref": "ul-kotucza-3", "@spider": "aldi_nord_pl", "addr:full": "ul. Kotucza 3", "addr:city": "Rybnik", "addr:postcode": "44-200", "addr:country": "pl", "name": "ALDI Rybnik - ul. Kotucza", "website": "https://www.aldi.pl/informacje-dla-klienta/wyszukiwarka-sklepu/_l_skie/rybnik/ul-kotucza-3.html", "brand": "ALDI Nord", "brand:wikidata": "Q41171373"}},
{"type": "Feature", "id": "QErhhal8Tkn0481WLkUXT9_1hLM=", "properties": {"ref": "ul-narutowicza-5", "@spider": "aldi_nord_pl", "addr:full": "ul. Narutowicza 5", "addr:city": "Sosnowiec", "addr:postcode": "41-200", "addr:country": "pl", "name": "ALDI Sosnowiec - ul. Narutowicza", "website": "https://www.aldi.pl/informacje-dla-klienta/wyszukiwarka-sklepu/_l_skie/sosnowiec/ul-narutowicza-5.html", "brand": "ALDI Nord", "brand:wikidata": "Q41171373"}},
{"type": "Feature", "id": "pzw971i8ASCWdhiULZCIY2AonMQ=", "properties": {"ref": "ul-krakowska-136a", "@spider": "aldi_nord_pl", "addr:full": "ul. Krakowska 136a", "addr:city": "Andrych\u00f3w", "addr:postcode": "34-120", "addr:country": "pl", "name": "ALDI Andrych\u00f3w - ul. Krakowska", "website": "https://www.aldi.pl/informacje-dla-klienta/wyszukiwarka-sklepu/ma_opolskie/andrychow/ul-krakowska-136a.html", "brand": "ALDI Nord", "brand:wikidata": "Q41171373"}},
{"type": "Feature", "id": "N5epr_sHxrDGYNCH8WyejKvxCoU=", "properties": {"ref": "ul-szajnowicza-iwanowa-39", "@spider": "aldi_nord_pl", "addr:full": "ul. Szajnowicza-Iwanowa 39", "addr:city": "Cz\u0119stochowa", "addr:postcode": "42-218", "addr:country": "pl", "name": "ALDI Cz\u0119stochowa - ul. Szajnowicza-Iwanowa", "website": "https://www.aldi.pl/informacje-dla-klienta/wyszukiwarka-sklepu/_l_skie/cz_stochowa/ul-szajnowicza-iwanowa-39.html", "brand": "ALDI Nord", "brand:wikidata": "Q41171373"}},
{"type": "Feature", "id": "rkHZLyLSddW85Dhgzv6cuL-5WRQ=", "properties": {"ref": "ul-wodzis_awska-2a", "@spider": "aldi_nord_pl", "addr:full": "ul. Wodzis\u0142awska 2a", "addr:city": "Jastrz\u0119bie-Zdr\u00f3j", "addr:postcode": "44-330", "addr:country": "pl", "name": "ALDI Jastrz\u0119bie-Zdr\u00f3j - ul. Wodzis\u0142awska", "website": "https://www.aldi.pl/informacje-dla-klienta/wyszukiwarka-sklepu/_l_skie/jastrz_bie-zdroj/ul-wodzis_awska-2a.html", "brand": "ALDI Nord", "brand:wikidata": "Q41171373"}},
{"type": "Feature", "id": "E9nb_OdrAEC01Igb3LMYJGtwboE=", "properties": {"ref": "ul-botaniczna-37", "@spider": "aldi_nord_pl", "addr:full": "ul. Botaniczna 37", "addr:city": "Cz\u0119stochowa", "addr:postcode": "42-216", "addr:country": "pl", "name": "ALDI Cz\u0119stochowa - ul. Botaniczna", "website": "https://www.aldi.pl/informacje-dla-klienta/wyszukiwarka-sklepu/_l_skie/cz_stochowa/ul-botaniczna-37.html", "brand": "ALDI Nord", "brand:wikidata": "Q41171373"}},
{"type": "Feature", "id": "Zo17WbQ0T7VwczjQMX2wjESf9GU=", "properties": {"ref": "ul-przybylaka-2", "@spider": "aldi_nord_pl", "addr:full": "ul. Przybylaka 2", "addr:city": "D\u0105browa G\u00f3rnicza", "addr:postcode": "41-300", "addr:country": "pl", "name": "ALDI D\u0105browa G\u00f3rnicza - ul. Przybylaka", "website": "https://www.aldi.pl/informacje-dla-klienta/wyszukiwarka-sklepu/_l_skie/d_browa-gornicza/ul-przybylaka-2.html", "brand": "ALDI Nord", "brand:wikidata": "Q41171373"}},
{"type": "Feature", "id": "3rn4RsRXrw8VAWXXQ69JIbz1wQM=", "properties": {"ref": "ul-legionow-polskich-38b", "@spider": "aldi_nord_pl", "addr:full": "ul. Legion\u00f3w Polskich 38B", "addr:city": "D\u0105browa G\u00f3rnicza", "addr:postcode": "41-300", "addr:country": "pl", "name": "ALDI D\u0105browa G\u00f3rnicza - ul. Legion\u00f3w Polskich", "website": "https://www.aldi.pl/informacje-dla-klienta/wyszukiwarka-sklepu/_l_skie/d_browa-gornicza/ul-legionow-polskich-38b.html", "brand": "ALDI Nord", "brand:wikidata": "Q41171373"}},
{"type": "Feature", "id": "z_zPp1AAUQCuCth-gKTQSYi_3Vc=", "properties": {"ref": "ul-armii-krajowej-8", "@spider": "aldi_nord_pl", "addr:full": "ul. Armii Krajowej 8", "addr:city": "Czerwionka-Leszczyny", "addr:postcode": "44-230", "addr:country": "pl", "name": "ALDI Czerwionka-Leszczyny - ul. Armii Krajowej", "website": "https://www.aldi.pl/informacje-dla-klienta/wyszukiwarka-sklepu/_l_skie/czerwionka-leszczyny/ul-armii-krajowej-8.html", "brand": "ALDI Nord", "brand:wikidata": "Q41171373"}},
{"type": "Feature", "id": "4zpJlIW4WRo-yjwXTrZLiZaz4tE=", "properties": {"ref": "ul-korfantego-23", "@spider": "aldi_nord_pl", "addr:full": "ul. Korfantego 23", "addr:city": "Cieszyn", "addr:postcode": "43-400", "addr:country": "pl", "name": "ALDI Cieszyn - ul. Korfantego", "website": "https://www.aldi.pl/informacje-dla-klienta/wyszukiwarka-sklepu/_l_skie/cieszyn/ul-korfantego-23.html", "brand": "ALDI Nord", "brand:wikidata": "Q41171373"}},
{"type": "Feature", "id": "bmDohERMBMV_ByoGNKWyp9IfJDo=", "properties": {"ref": "ul-tadeusza-ko_ciuszki-3", "@spider": "aldi_nord_pl", "addr:full": "ul. Tadeusza Ko\u015bciuszki 3", "addr:city": "Chorz\u00f3w", "addr:postcode": "41-500", "addr:country": "pl", "name": "ALDI Chorz\u00f3w - ul. Tadeusza Ko\u015bciuszki", "website": "https://www.aldi.pl/informacje-dla-klienta/wyszukiwarka-sklepu/_l_skie/chorzow/ul-tadeusza-ko_ciuszki-3.html", "brand": "ALDI Nord", "brand:wikidata": "Q41171373"}},
{"type": "Feature", "id": "X2WVqDK6DEQVaUCvdw71hZVmLWg=", "properties": {"ref": "ul-cieszy_ska-111", "@spider": "aldi_nord_pl", "addr:full": "ul. Cieszy\u0144ska 111", "addr:city": "Bielsko-Bia\u0142a", "addr:postcode": "43-300", "addr:country": "pl", "name": "ALDI Bielsko-Bia\u0142a - ul. Cieszy\u0144ska", "website": "https://www.aldi.pl/informacje-dla-klienta/wyszukiwarka-sklepu/_l_skie/bielsko-bia_a/ul-cieszy_ska-111.html", "brand": "ALDI Nord", "brand:wikidata": "Q41171373"}},
{"type": "Feature", "id": "qW6mA0r0bHkO8cbvcmxFVXgJ65c=", "properties": {"ref": "ul-_ywiecka-80", "@spider": "aldi_nord_pl", "addr:full": "ul. \u017bywiecka 80", "addr:city": "Bielsko-Bia\u0142a", "addr:postcode": "43-300", "addr:country": "pl", "name": "ALDI Bielsko-Bia\u0142a - ul. \u017bywiecka", "website": "https://www.aldi.pl/informacje-dla-klienta/wyszukiwarka-sklepu/_l_skie/bielsko-bia_a/ul-_ywiecka-80.html", "brand": "ALDI Nord", "brand:wikidata": "Q41171373"}},
{"type": "Feature", "id": "JvhC7ZhbDdSyZ-yRkPvSo5UiuFY=", "properties": {"ref": "ul-korczaka-11", "@spider": "aldi_nord_pl", "addr:full": "ul. Korczaka 11", "addr:city": "Cz\u0119stochowa", "addr:postcode": "42-219", "addr:country": "pl", "name": "ALDI Cz\u0119stochowa - ul. Korczaka", "website": "https://www.aldi.pl/informacje-dla-klienta/wyszukiwarka-sklepu/_l_skie/cz_stochowa/ul-korczaka-11.html", "brand": "ALDI Nord", "brand:wikidata": "Q41171373"}},
{"type": "Feature", "id": "BuiGKBljij1P3B7Evf6IConE2-Y=", "properties": {"ref": "ul-d_browskiego-110", "@spider": "aldi_nord_pl", "addr:full": "ul. D\u0105browskiego 110", "addr:city": "Chorz\u00f3w", "addr:postcode": "41-500", "addr:country": "pl", "name": "ALDI Chorz\u00f3w - ul. D\u0105browskiego", "website": "https://www.aldi.pl/informacje-dla-klienta/wyszukiwarka-sklepu/_l_skie/chorzow/ul-d_browskiego-110.html", "brand": "ALDI Nord", "brand:wikidata": "Q41171373"}},
{"type": "Feature", "id": "qrBs3WH_S6KAvBsSshS7fOC2X8M=", "properties": {"ref": "ul-ks-marcina-strzody-1", "@spider": "aldi_nord_pl", "addr:full": "ul. Ks. Marcina Strzody 1", "addr:city": "Gliwice", "addr:postcode": "44-100", "addr:country": "pl", "name": "ALDI Gliwice - ul. Ks. Marcina Strzody", "website": "https://www.aldi.pl/informacje-dla-klienta/wyszukiwarka-sklepu/_l_skie/gliwice/ul-ks-marcina-strzody-1.html", "brand": "ALDI Nord", "brand:wikidata": "Q41171373"}},
{"type": "Feature", "id": "Om75ADJn4neaTzSvpTknWkWvMlg=", "properties": {"ref": "ul-stefana-batorego-56", "@spider": "aldi_nord_pl", "addr:full": "ul. Stefana Batorego 56", "addr:city": "Chorz\u00f3w", "addr:postcode": "41-506", "addr:country": "pl", "name": "ALDI Chorz\u00f3w - ul. Stefana Batorego", "website": "https://www.aldi.pl/informacje-dla-klienta/wyszukiwarka-sklepu/_l_skie/chorzow/ul-stefana-batorego-56.html", "brand": "ALDI Nord", "brand:wikidata": "Q41171373"}},
{"type": "Feature", "id": "nGs83pqI-0lO-kyo8NsPavdGxGM=", "properties": {"ref": "ul-trzech-diamentow-1", "@spider": "aldi_nord_pl", "addr:full": "ul. Trzech Diament\u00f3w 1", "addr:city": "Bielsko-Bia\u0142a", "addr:postcode": "43-382", "addr:country": "pl", "name": "ALDI Bielsko-Bia\u0142a - ul. Trzech Diament\u00f3w", "website": "https://www.aldi.pl/informacje-dla-klienta/wyszukiwarka-sklepu/_l_skie/bielsko-bia_a/ul-trzech-diamentow-1.html", "brand": "ALDI Nord", "brand:wikidata": "Q41171373"}},
{"type": "Feature", "id": "Jk-NmIyWwV363lZW44wVHhfO5po=", "properties": {"ref": "al-hugo-ko_taja-110", "@spider": "aldi_nord_pl", "addr:full": "Al. Hugo Ko\u0142\u0142\u0105taja 110", "addr:city": "B\u0119dzin", "addr:postcode": "42-500", "addr:country": "pl", "name": "ALDI B\u0119dzin - Al. Hugo Ko\u0142\u0142\u0105taja", "website": "https://www.aldi.pl/informacje-dla-klienta/wyszukiwarka-sklepu/_l_skie/b_dzin/al-hugo-ko_taja-110.html", "brand": "ALDI Nord", "brand:wikidata": "Q41171373"}},
{"type": "Feature", "id": "RqUP-FYauXQoH0ZUpJR-bXjSpjk=", "properties": {"ref": "drawska-7a", "@spider": "aldi_nord_pl", "addr:full": "Drawska 7a", "addr:city": "\u015awidwin", "addr:postcode": "78-300", "addr:country": "pl", "name": "ALDI \u015awidwin - Drawska", "website": "https://www.aldi.pl/informacje-dla-klienta/wyszukiwarka-sklepu/zachodniopomorskie/_widwin/drawska-7a.html", "brand": "ALDI Nord", "brand:wikidata": "Q41171373"}},
{"type": "Feature", "id": "Z1i4_DIf_d5re3slXpGTbmitBEc=", "properties": {"ref": "ul-struga-31a", "@spider": "aldi_nord_pl", "addr:full": "ul. Struga 31A", "addr:city": "Szczecin", "addr:postcode": "70-784", "addr:country": "pl", "name": "ALDI Szczecin - ul. Struga", "website": "https://www.aldi.pl/informacje-dla-klienta/wyszukiwarka-sklepu/zachodniopomorskie/szczecin/ul-struga-31a.html", "brand": "ALDI Nord", "brand:wikidata": "Q41171373"}},
{"type": "Feature", "id": "6U1L-YYShY08tLwxzhUC1eNNv5Y=", "properties": {"ref": "ul-strzelcow-bytomskich-299", "@spider": "aldi_nord_pl", "addr:full": "ul. Strzelc\u00f3w Bytomskich 299", "addr:city": "Bytom", "addr:postcode": "41-935", "addr:country": "pl", "name": "ALDI Bytom - ul. Strzelc\u00f3w Bytomskich", "website": "https://www.aldi.pl/informacje-dla-klienta/wyszukiwarka-sklepu/_l_skie/bytom/ul-strzelcow-bytomskich-299.html", "brand": "ALDI Nord", "brand:wikidata": "Q41171373"}},
{"type": "Feature", "id": "8IzRFucFpXBTdmTMWdasxqqgsvE=", "properties": {"ref": "ul-wielicka-8", "@spider": "aldi_nord_pl", "addr:full": "ul. Wielicka 8", "addr:city": "Gliwice", "addr:postcode": "44-103", "addr:country": "pl", "name": "ALDI Gliwice - ul. Wielicka", "website": "https://www.aldi.pl/informacje-dla-klienta/wyszukiwarka-sklepu/_l_skie/gliwice/ul-wielicka-8.html", "brand": "ALDI Nord", "brand:wikidata": "Q41171373"}},
{"type": "Feature", "id": "eJ3x7UU6V5H98C68kVQO_ZpRGDY=", "properties": {"ref": "ul-wolno_ci-37", "@spider": "aldi_nord_pl", "addr:full": "ul. Wolno\u015bci 37", "addr:city": "Choszczno", "addr:postcode": "73-200", "addr:country": "pl", "name": "ALDI Choszczno - ul. Wolno\u015bci", "website": "https://www.aldi.pl/informacje-dla-klienta/wyszukiwarka-sklepu/zachodniopomorskie/choszczno/ul-wolno_ci-37.html", "brand": "ALDI Nord", "brand:wikidata": "Q41171373"}},
{"type": "Feature", "id": "BNVjeYZHdgjtindM6cinFeYvrB8=", "properties": {"ref": "ul-puszkina-4", "@spider": "aldi_nord_pl", "addr:full": "ul. Puszkina 4", "addr:city": "Bytom", "addr:postcode": "41-907", "addr:country": "pl", "name": "ALDI Bytom - ul. Puszkina", "website": "https://www.aldi.pl/informacje-dla-klienta/wyszukiwarka-sklepu/_l_skie/bytom/ul-puszkina-4.html", "brand": "ALDI Nord", "brand:wikidata": "Q41171373"}},
{"type": "Feature", "id": "akwidep2u82B60GW4kyAoo_UkY8=", "properties": {"ref": "ul-wroc_awska-10a", "@spider": "aldi_nord_pl", "addr:full": "ul. Wroc\u0142awska 10A", "addr:city": "Bytom", "addr:postcode": "41-902", "addr:country": "pl", "name": "ALDI Bytom - ul. Wroc\u0142awska", "website": "https://www.aldi.pl/informacje-dla-klienta/wyszukiwarka-sklepu/_l_skie/bytom/ul-wroc_awska-10a.html", "brand": "ALDI Nord", "brand:wikidata": "Q41171373"}},
{"type": "Feature", "id": "s9vpzdh0q2vSw-2C3Xz058vjNUk=", "properties": {"ref": "ul-frenzla-97", "@spider": "aldi_nord_pl", "addr:full": "ul. Frenzla 97", "addr:city": "Bytom", "addr:postcode": "41-923", "addr:country": "pl", "name": "ALDI Bytom - ul. Frenzla", "website": "https://www.aldi.pl/informacje-dla-klienta/wyszukiwarka-sklepu/_l_skie/bytom/ul-frenzla-97.html", "brand": "ALDI Nord", "brand:wikidata": "Q41171373"}},
{"type": "Feature", "id": "IBKe0Tp_iMV8pWrwFPqTttyz78Q=", "properties": {"ref": "ul-arki-bo_ka-1a", "@spider": "aldi_nord_pl", "addr:full": "ul. Arki Bo\u017cka 1A", "addr:city": "Jastrz\u0119bie-Zdr\u00f3j", "addr:postcode": "44-335", "addr:country": "pl", "name": "ALDI Jastrz\u0119bie-Zdr\u00f3j - ul. Arki Bo\u017cka", "website": "https://www.aldi.pl/informacje-dla-klienta/wyszukiwarka-sklepu/_l_skie/jastrz_bie-zdroj/ul-arki-bo_ka-1a.html", "brand": "ALDI Nord", "brand:wikidata": "Q41171373"}},
{"type": "Feature", "id": "TyhywY0Lu210-8bHr9NzIYYKGDQ=", "properties": {"ref": "ul-wo_niczki-15a", "@spider": "aldi_nord_pl", "addr:full": "ul. Wo\u017aniczki 15a", "addr:city": "Katowice", "addr:postcode": "40-555", "addr:country": "pl", "name": "ALDI Katowice - ul. Wo\u017aniczki", "website": "https://www.aldi.pl/informacje-dla-klienta/wyszukiwarka-sklepu/_l_skie/katowice/ul-wo_niczki-15a.html", "brand": "ALDI Nord", "brand:wikidata": "Q41171373"}},
{"type": "Feature", "id": "OMCQKWzA25jfrmaNzPNM-AO7UHs=", "properties": {"ref": "ul-toszecka-49", "@spider": "aldi_nord_pl", "addr:full": "ul. Toszecka 49", "addr:city": "Gliwice", "addr:postcode": "44-102", "addr:country": "pl", "name": "ALDI Gliwice - ul. Toszecka", "website": "https://www.aldi.pl/informacje-dla-klienta/wyszukiwarka-sklepu/_l_skie/gliwice/ul-toszecka-49.html", "brand": "ALDI Nord", "brand:wikidata": "Q41171373"}},
{"type": "Feature", "id": "MMy8ccZ9Opw9X2JBiCsiV-hqC3c=", "properties": {"ref": "ul-u_a_ska-6", "@spider": "aldi_nord_pl", "addr:full": "ul. U\u0142a\u0144ska 6", "addr:city": "Katowice", "addr:postcode": "40-887", "addr:country": "pl", "name": "ALDI Katowice - ul. U\u0142a\u0144ska", "website": "https://www.aldi.pl/informacje-dla-klienta/wyszukiwarka-sklepu/_l_skie/katowice/ul-u_a_ska-6.html", "brand": "ALDI Nord", "brand:wikidata": "Q41171373"}},
{"type": "Feature", "id": "o3cYyAkiqpjvoa2Jwbw7ToVj-dY=", "properties": {"ref": "ul-katowicka-30", "@spider": "aldi_nord_pl", "addr:full": "ul. Katowicka 30", "addr:city": "Katowice", "addr:postcode": "40-173", "addr:country": "pl", "name": "ALDI Katowice - ul. Katowicka", "website": "https://www.aldi.pl/informacje-dla-klienta/wyszukiwarka-sklepu/_l_skie/katowice/ul-katowicka-30.html", "brand": "ALDI Nord", "brand:wikidata": "Q41171373"}},
{"type": "Feature", "id": "FKnxmroy21SKHEtJ4f49nHyixBk=", "properties": {"ref": "ul-piotra-skargi-6", "@spider": "aldi_nord_pl", "addr:full": "ul. Piotra Skargi 6", "addr:city": "Katowice", "addr:postcode": "40-091", "addr:country": "pl", "name": "ALDI Katowice - ul. Piotra Skargi", "website": "https://www.aldi.pl/informacje-dla-klienta/wyszukiwarka-sklepu/_l_skie/katowice/ul-piotra-skargi-6.html", "brand": "ALDI Nord", "brand:wikidata": "Q41171373"}},
{"type": "Feature", "id": "v3l1-1BlBGxALIHxDO0vmhJ2aIE=", "properties": {"ref": "ul-piotrowicka-77", "@spider": "aldi_nord_pl", "addr:full": "ul. Piotrowicka 77", "addr:city": "Katowice", "addr:postcode": "40-724", "addr:country": "pl", "name": "ALDI Katowice - ul. Piotrowicka", "website": "https://www.aldi.pl/informacje-dla-klienta/wyszukiwarka-sklepu/_l_skie/katowice/ul-piotrowicka-77.html", "brand": "ALDI Nord", "brand:wikidata": "Q41171373"}},
{"type": "Feature", "id": "QhKeFGETA9Gn0vjkY0pBOcTAXlk=", "properties": {"ref": "ul-bo_ogrobcow-20", "@spider": "aldi_nord_pl", "addr:full": "ul. Bo\u017cogrobc\u00f3w 20", "addr:city": "Katowice", "addr:postcode": "40-115", "addr:country": "pl", "name": "ALDI Katowice - ul. Bo\u017cogrobc\u00f3w", "website": "https://www.aldi.pl/informacje-dla-klienta/wyszukiwarka-sklepu/_l_skie/katowice/ul-bo_ogrobcow-20.html", "brand": "ALDI Nord", "brand:wikidata": "Q41171373"}},
{"type": "Feature", "id": "rARO2w_vn5_fQZbwcbTVJ7-TO4o=", "properties": {"ref": "ul-matejki-29", "@spider": "aldi_nord_pl", "addr:full": "ul. Matejki 29", "addr:city": "Jaworzno", "addr:postcode": "43-603", "addr:country": "pl", "name": "ALDI Jaworzno - ul. Matejki", "website": "https://www.aldi.pl/informacje-dla-klienta/wyszukiwarka-sklepu/_l_skie/jaworzno/ul-matejki-29.html", "brand": "ALDI Nord", "brand:wikidata": "Q41171373"}},
{"type": "Feature", "id": "ImAtwN2q46D5ru8Sdvy8MOhaW8k=", "properties": {"ref": "1-maja-31", "@spider": "aldi_nord_pl", "addr:full": "1 Maja 31", "addr:city": "Katowice", "addr:postcode": "40-225", "addr:country": "pl", "name": "ALDI Katowice - 1 Maja", "website": "https://www.aldi.pl/informacje-dla-klienta/wyszukiwarka-sklepu/_l_skie/katowice/1-maja-31.html", "brand": "ALDI Nord", "brand:wikidata": "Q41171373"}},
{"type": "Feature", "id": "9G-hR1crKsDUNbRFjJsq87XlmLo=", "properties": {"ref": "ul-armii-krajowej-1-g", "@spider": "aldi_nord_pl", "addr:full": "ul. Armii Krajowej 1 g", "addr:city": "Jaworzno", "addr:postcode": "43-603", "addr:country": "pl", "name": "ALDI Jaworzno - ul. Armii Krajowej 1", "website": "https://www.aldi.pl/informacje-dla-klienta/wyszukiwarka-sklepu/_l_skie/jaworzno/ul-armii-krajowej-1-g.html", "brand": "ALDI Nord", "brand:wikidata": "Q41171373"}},
{"type": "Feature", "id": "fqpBtEMuO0PwWqnr0Rr5uOv4Uu8=", "properties": {"ref": "ul-reja-14", "@spider": "aldi_nord_pl", "addr:full": "ul. Reja 14", "addr:city": "Wo\u0142omin", "addr:postcode": "05-200", "addr:country": "pl", "name": "ALDI Wo\u0142omin - ul. Reja", "website": "https://www.aldi.pl/informacje-dla-klienta/wyszukiwarka-sklepu/mazowieckie/wo_omin/ul-reja-14.html", "brand": "ALDI Nord", "brand:wikidata": "Q41171373"}},
{"type": "Feature", "id": "jCTr0ypJ28oZ7rFND4Wdh4kQawg=", "properties": {"ref": "ul-gen-w_adys_awa-sikorskiego-5", "@spider": "aldi_nord_pl", "addr:full": "ul. gen. W\u0142adys\u0142awa Sikorskiego 5", "addr:city": "Piotrk\u00f3w Trybunalski", "addr:postcode": "97-300", "addr:country": "pl", "name": "ALDI Piotrk\u00f3w Trybunalski - ul. gen. W\u0142adys\u0142awa Sikorskiego", "website": "https://www.aldi.pl/informacje-dla-klienta/wyszukiwarka-sklepu/_odzkie/piotrkow-trybunalski/ul-gen-w_adys_awa-sikorskiego-5.html", "brand": "ALDI Nord", "brand:wikidata": "Q41171373"}},
{"type": "Feature", "id": "BwDS2npdxx0RvZPkJNwxStFMA84=", "properties": {"ref": "ul-wolborska-6a", "@spider": "aldi_nord_pl", "addr:full": "ul. Wolborska 6a", "addr:city": "Piotrk\u00f3w Trybunalski", "addr:postcode": "97-300", "addr:country": "pl", "name": "ALDI Piotrk\u00f3w Trybunalski - ul. Wolborska", "website": "https://www.aldi.pl/informacje-dla-klienta/wyszukiwarka-sklepu/_odzkie/piotrkow-trybunalski/ul-wolborska-6a.html", "brand": "ALDI Nord", "brand:wikidata": "Q41171373"}},
{"type": "Feature", "id": "AWjFW1UOGCbszfsHwh76EKsrUOk=", "properties": {"ref": "ul-wojska-polskiego-80", "@spider": "aldi_nord_pl", "addr:full": "ul. Wojska Polskiego 80", "addr:city": "Aleksandr\u00f3w \u0141\u00f3dzki", "addr:postcode": "95-070", "addr:country": "pl", "name": "ALDI Aleksandr\u00f3w \u0141\u00f3dzki - ul. Wojska Polskiego", "website": "https://www.aldi.pl/informacje-dla-klienta/wyszukiwarka-sklepu/_odzkie/aleksandrow-_odzki/ul-wojska-polskiego-80.html", "brand": "ALDI Nord", "brand:wikidata": "Q41171373"}},
{"type": "Feature", "id": "qELaGQzydlsk7Bx_-QXlh_54pks=", "properties": {"ref": "ul-pi_sudskiego-76", "@spider": "aldi_nord_pl", "addr:full": "ul. Pi\u0142sudskiego 76", "addr:city": "S\u0142upsk", "addr:postcode": "76-200", "addr:country": "pl", "name": "ALDI S\u0142upsk - ul. Pi\u0142sudskiego", "website": "https://www.aldi.pl/informacje-dla-klienta/wyszukiwarka-sklepu/pomorskie/s_upsk/ul-pi_sudskiego-76.html", "brand": "ALDI Nord", "brand:wikidata": "Q41171373"}},
{"type": "Feature", "id": "GttuZeb1PjXBmkQGFHSB2vRFJYw=", "properties": {"ref": "ul-ogrodowa-1", "@spider": "aldi_nord_pl", "addr:full": "ul. Ogrodowa 1", "addr:city": "Ustka", "addr:postcode": "76-270", "addr:country": "pl", "name": "ALDI Ustka - ul. Ogrodowa", "website": "https://www.aldi.pl/informacje-dla-klienta/wyszukiwarka-sklepu/pomorskie/ustka/ul-ogrodowa-1.html", "brand": "ALDI Nord", "brand:wikidata": "Q41171373"}},
{"type": "Feature", "id": "e5BKirSOvrkH1CXXm8_NMJ7Dvi8=", "properties": {"ref": "ul-grunwaldzka-9", "@spider": "aldi_nord_pl", "addr:full": "ul. Grunwaldzka 9", "addr:city": "Kutno", "addr:postcode": "99-300", "addr:country": "pl", "name": "ALDI Kutno - ul. Grunwaldzka", "website": "https://www.aldi.pl/informacje-dla-klienta/wyszukiwarka-sklepu/_odzkie/kutno/ul-grunwaldzka-9.html", "brand": "ALDI Nord", "brand:wikidata": "Q41171373"}},
{"type": "Feature", "id": "9BguAgdmeCaTRviqqvsi1HwL4Is=", "properties": {"ref": "ul-_aska-34", "@spider": "aldi_nord_pl", "addr:full": "ul. \u0141aska 34", "addr:city": "Zdu\u0144ska Wola", "addr:postcode": "98-220", "addr:country": "pl", "name": "ALDI Zdu\u0144ska Wola - ul. \u0141aska", "website": "https://www.aldi.pl/informacje-dla-klienta/wyszukiwarka-sklepu/_odzkie/zdu_ska-wola/ul-_aska-34.html", "brand": "ALDI Nord", "brand:wikidata": "Q41171373"}},
{"type": "Feature", "id": "unVHO7-AFbRyW7xe2ZBlqidu5fw=", "properties": {"ref": "ul-prym-stefana-wyszyskiego-14", "@spider": "aldi_nord_pl", "addr:full": "ul. prym. Stefana Wyszy\u0144skiego 14", "addr:city": "Radomsko", "addr:postcode": "97-500", "addr:country": "pl", "name": "ALDI Radomsko - ul. prym. Stefana Wyszy\u0144skiego", "website": "https://www.aldi.pl/informacje-dla-klienta/wyszukiwarka-sklepu/_odzkie/radomsko/ul-prym-stefana-wyszyskiego-14.html", "brand": "ALDI Nord", "brand:wikidata": "Q41171373"}},
{"type": "Feature", "id": "TJ01SC-eZp_QroJQNOEHDnvVhkA=", "properties": {"ref": "ul-ko_ciuszki-26a", "@spider": "aldi_nord_pl", "addr:full": "ul. Ko\u015bciuszki 26A", "addr:city": "Starogard Gda\u0144ski", "addr:postcode": "83-200", "addr:country": "pl", "name": "ALDI Starogard Gda\u0144ski - ul. Ko\u015bciuszki", "website": "https://www.aldi.pl/informacje-dla-klienta/wyszukiwarka-sklepu/pomorskie/starogard-gda_ski/ul-ko_ciuszki-26a.html", "brand": "ALDI Nord", "brand:wikidata": "Q41171373"}},
{"type": "Feature", "id": "E9lrs3vINOZhoWTeXfelgMYIbIU=", "properties": {"ref": "ulica-gen-w_adysawa-sikorskiego-8", "@spider": "aldi_nord_pl", "addr:full": "ulica gen. W\u0142adys\u0142awa Sikorskiego 8", "addr:city": "Sopot", "addr:postcode": "81-827", "addr:country": "pl", "name": "ALDI Sopot - ulica gen. W\u0142adys\u0142awa Sikorskiego", "website": "https://www.aldi.pl/informacje-dla-klienta/wyszukiwarka-sklepu/pomorskie/sopot/ulica-gen-w_adysawa-sikorskiego-8.html", "brand": "ALDI Nord", "brand:wikidata": "Q41171373"}},
{"type": "Feature", "id": "ldIy27ubWkhed1wfW_7hav_TNhA=", "properties": {"ref": "jana-paw_a-ii", "@spider": "aldi_nord_pl", "addr:full": "Jana Paw\u0142a II", "addr:city": "Starogard Gda\u0144ski", "addr:postcode": "83-200", "addr:country": "pl", "name": "ALDI Starogard Gda\u0144ski - Jana Paw\u0142a II", "website": "https://www.aldi.pl/informacje-dla-klienta/wyszukiwarka-sklepu/pomorskie/starogard-gda_ski/jana-paw_a-ii.html", "brand": "ALDI Nord", "brand:wikidata": "Q41171373"}},
{"type": "Feature", "id": "k_IIBKAm37CDCcP9ARqXNnTOAO4=", "properties": {"ref": "ul-konopnickiej-12a", "@spider": "aldi_nord_pl", "addr:full": "ul. Konopnickiej 12A", "addr:city": "Kwidzyn", "addr:postcode": "82-500", "addr:country": "pl", "name": "ALDI Kwidzyn - ul. Konopnickiej", "website": "https://www.aldi.pl/informacje-dla-klienta/wyszukiwarka-sklepu/pomorskie/kwidzyn/ul-konopnickiej-12a.html", "brand": "ALDI Nord", "brand:wikidata": "Q41171373"}},
{"type": "Feature", "id": "PH2nUXIMM-0E9EXkeWstlaJQGU4=", "properties": {"ref": "ul-obornicka-136", "@spider": "aldi_nord_pl", "addr:full": "ul. Obornicka 136", "addr:city": "Suchy Las", "addr:postcode": "62-002", "addr:country": "pl", "name": "ALDI Suchy Las - ul. Obornicka", "website": "https://www.aldi.pl/informacje-dla-klienta/wyszukiwarka-sklepu/wielkopolskie/suchy-las/ul-obornicka-136.html", "brand": "ALDI Nord", "brand:wikidata": "Q41171373"}},
{"type": "Feature", "id": "Lf56WIuXzXipak01-1thQ1u4gAk=", "properties": {"ref": "ul-tysi_clecia-38", "@spider": "aldi_nord_pl", "addr:full": "ul. Tysi\u0105clecia 38", "addr:city": "Swarz\u0119dz", "addr:postcode": "62-020", "addr:country": "pl", "name": "ALDI Swarz\u0119dz - ul. Tysi\u0105clecia", "website": "https://www.aldi.pl/informacje-dla-klienta/wyszukiwarka-sklepu/wielkopolskie/swarz_dz/ul-tysi_clecia-38.html", "brand": "ALDI Nord", "brand:wikidata": "Q41171373"}},
{"type": "Feature", "id": "eMtDCuscDbhKgSPgaIR_BgGyvg4=", "properties": {"ref": "ul-rajska-8", "@spider": "aldi_nord_pl", "addr:full": "ul. Rajska 8", "addr:city": "Gda\u0144sk", "addr:postcode": "80-850", "addr:country": "pl", "name": "ALDI Gda\u0144sk - ul. Rajska", "website": "https://www.aldi.pl/informacje-dla-klienta/wyszukiwarka-sklepu/pomorskie/gda_sk/ul-rajska-8.html", "brand": "ALDI Nord", "brand:wikidata": "Q41171373"}},
{"type": "Feature", "id": "F8OZ-NFL6fdrHMJsOlUwPvPk10s=", "properties": {"ref": "ul-zamenhofa-20a", "@spider": "aldi_nord_pl", "addr:full": "ul. Zamenhofa 20A", "addr:city": "\u015arem", "addr:postcode": "63-100", "addr:country": "pl", "name": "ALDI \u015arem - ul. Zamenhofa", "website": "https://www.aldi.pl/informacje-dla-klienta/wyszukiwarka-sklepu/wielkopolskie/_rem/ul-zamenhofa-20a.html", "brand": "ALDI Nord", "brand:wikidata": "Q41171373"}},
{"type": "Feature", "id": "ey9J93tuQuCfiz9mmQuTSDRdYao=", "properties": {"ref": "ul-noskowskiego-1", "@spider": "aldi_nord_pl", "addr:full": "ul. Noskowskiego 1", "addr:city": "Gda\u0144sk", "addr:postcode": "80-170", "addr:country": "pl", "name": "ALDI Gda\u0144sk - ul. Noskowskiego", "website": "https://www.aldi.pl/informacje-dla-klienta/wyszukiwarka-sklepu/pomorskie/gda_sk/ul-noskowskiego-1.html", "brand": "ALDI Nord", "brand:wikidata": "Q41171373"}},
{"type": "Feature", "id": "s-lkndAb3AKZF62TqsIqz0P2pdo=", "properties": {"ref": "ul-sienkiewicza-43a", "@spider": "aldi_nord_pl", "addr:full": "ul. Sienkiewicza 43A", "addr:city": "Pleszew", "addr:postcode": "63-300", "addr:country": "pl", "name": "ALDI Pleszew - ul. Sienkiewicza", "website": "https://www.aldi.pl/informacje-dla-klienta/wyszukiwarka-sklepu/wielkopolskie/pleszew/ul-sienkiewicza-43a.html", "brand": "ALDI Nord", "brand:wikidata": "Q41171373"}},
{"type": "Feature", "id": "j-IyHeDc4RL_nxsZBr-ziwfmvi4=", "properties": {"ref": "ul-limbowa-1", "@spider": "aldi_nord_pl", "addr:full": "ul. Limbowa 1", "addr:city": "Gda\u0144sk", "addr:postcode": "80-175", "addr:country": "pl", "name": "ALDI Gda\u0144sk - ul. Limbowa", "website": "https://www.aldi.pl/informacje-dla-klienta/wyszukiwarka-sklepu/pomorskie/gda_sk/ul-limbowa-1.html", "brand": "ALDI Nord", "brand:wikidata": "Q41171373"}},
{"type": "Feature", "id": "LQNDmPCuDtJesbfFsyBNc1kjcXI=", "properties": {"ref": "wilczak-19", "@spider": "aldi_nord_pl", "addr:full": "Wilczak 19", "addr:city": "Pozna\u0144", "addr:postcode": "61-623", "addr:country": "pl", "name": "ALDI Pozna\u0144 - Wilczak", "website": "https://www.aldi.pl/informacje-dla-klienta/wyszukiwarka-sklepu/wielkopolskie/pozna_/wilczak-19.html", "brand": "ALDI Nord", "brand:wikidata": "Q41171373"}},
{"type": "Feature", "id": "rcYVFdGaZszBHvghiei4_GM0AEo=", "properties": {"ref": "ul-obornicka-242", "@spider": "aldi_nord_pl", "addr:full": "ul. Obornicka 242", "addr:city": "Pozna\u0144", "addr:postcode": "60-650", "addr:country": "pl", "name": "ALDI Pozna\u0144 - ul. Obornicka", "website": "https://www.aldi.pl/informacje-dla-klienta/wyszukiwarka-sklepu/wielkopolskie/pozna_/ul-obornicka-242.html", "brand": "ALDI Nord", "brand:wikidata": "Q41171373"}},
{"type": "Feature", "id": "BHsykGszBta3sjIhsP1yJEpMeEw=", "properties": {"ref": "ul-po_wiejska-2", "@spider": "aldi_nord_pl", "addr:full": "ul. P\u00f3\u0142wiejska 2", "addr:city": "Pozna\u0144", "addr:postcode": "61-887", "addr:country": "pl", "name": "ALDI Pozna\u0144 - ul. P\u00f3\u0142wiejska", "website": "https://www.aldi.pl/informacje-dla-klienta/wyszukiwarka-sklepu/wielkopolskie/pozna_/ul-po_wiejska-2.html", "brand": "ALDI Nord", "brand:wikidata": "Q41171373"}},
{"type": "Feature", "id": "Th3v3V_p-EHHQ47IDcPeXrrLTv4=", "properties": {"ref": "ul-jugos_owia_ska-33", "@spider": "aldi_nord_pl", "addr:full": "ul. Jugos\u0142owia\u0144ska 33", "addr:city": "Pozna\u0144", "addr:postcode": "60-301", "addr:country": "pl", "name": "ALDI Pozna\u0144 - ul. Jugos\u0142owia\u0144ska", "website": "https://www.aldi.pl/informacje-dla-klienta/wyszukiwarka-sklepu/wielkopolskie/pozna_/ul-jugos_owia_ska-33.html", "brand": "ALDI Nord", "brand:wikidata": "Q41171373"}},
{"type": "Feature", "id": "CLU53EWS0fi8LUuB0t5YdXslIbU=", "properties": {"ref": "ul-raatza-2", "@spider": "aldi_nord_pl", "addr:full": "ul Raatza 2", "addr:city": "Gda\u0144sk", "addr:postcode": "80-299", "addr:country": "pl", "name": "ALDI Gda\u0144sk - ul Raatza", "website": "https://www.aldi.pl/informacje-dla-klienta/wyszukiwarka-sklepu/pomorskie/gda_sk/ul-raatza-2.html", "brand": "ALDI Nord", "brand:wikidata": "Q41171373"}},
{"type": "Feature", "id": "vf9jDcttIoxY2MvmYe8yP0_Vc0w=", "properties": {"ref": "ul-bobrza_ska-11", "@spider": "aldi_nord_pl", "addr:full": "ul. Bobrza\u0144ska 11", "addr:city": "Pozna\u0144", "addr:postcode": "61-350", "addr:country": "pl", "name": "ALDI Pozna\u0144 - ul. Bobrza\u0144ska", "website": "https://www.aldi.pl/informacje-dla-klienta/wyszukiwarka-sklepu/wielkopolskie/pozna_/ul-bobrza_ska-11.html", "brand": "ALDI Nord", "brand:wikidata": "Q41171373"}},
{"type": "Feature", "id": "8qpUNDybhUTLbufJv8kARUZs2fQ=", "properties": {"ref": "ul-obwodowa-21", "@spider": "aldi_nord_pl", "addr:full": "ul. Obwodowa 21", "addr:city": "Reda", "addr:postcode": "84-240", "addr:country": "pl", "name": "ALDI Reda - ul. Obwodowa", "website": "https://www.aldi.pl/informacje-dla-klienta/wyszukiwarka-sklepu/pomorskie/reda/ul-obwodowa-21.html", "brand": "ALDI Nord", "brand:wikidata": "Q41171373"}},
{"type": "Feature", "id": "EgAbjtKS6d-HHWu5A9-cU9Oc3h4=", "properties": {"ref": "ul-pileckiego-6", "@spider": "aldi_nord_pl", "addr:full": "ul. Pileckiego 6", "addr:city": "Be\u0142chat\u00f3w", "addr:postcode": "97-400", "addr:country": "pl", "name": "ALDI Be\u0142chat\u00f3w - ul. Pileckiego", "website": "https://www.aldi.pl/informacje-dla-klienta/wyszukiwarka-sklepu/_odzkie/be_chatow/ul-pileckiego-6.html", "brand": "ALDI Nord", "brand:wikidata": "Q41171373"}},
{"type": "Feature", "id": "h7Td7xL9FKyGb4yKJcbmu01WLB8=", "properties": {"ref": "ul-kamrowskiego-2", "@spider": "aldi_nord_pl", "addr:full": "ul. Kamrowskiego 2", "addr:city": "Gdynia", "addr:postcode": "81-577", "addr:country": "pl", "name": "ALDI Gdynia - ul. Kamrowskiego", "website": "https://www.aldi.pl/informacje-dla-klienta/wyszukiwarka-sklepu/pomorskie/gdynia/ul-kamrowskiego-2.html", "brand": "ALDI Nord", "brand:wikidata": "Q41171373"}},
{"type": "Feature", "id": "-AQRL1CPs2YmvTGT5KSKJtTDdFo=", "properties": {"ref": "ul-wyspia_skiego-29", "@spider": "aldi_nord_pl", "addr:full": "ul. Wyspia\u0144skiego 29", "addr:city": "Pi\u0142a", "addr:postcode": "64-920", "addr:country": "pl", "name": "ALDI Pi\u0142a - ul. Wyspia\u0144skiego", "website": "https://www.aldi.pl/informacje-dla-klienta/wyszukiwarka-sklepu/wielkopolskie/pi_a/ul-wyspia_skiego-29.html", "brand": "ALDI Nord", "brand:wikidata": "Q41171373"}},
{"type": "Feature", "id": "zhve5hPRo0UXkiCQwFe_1lfvoPM=", "properties": {"ref": "ul-grunwaldzka-1a", "@spider": "aldi_nord_pl", "addr:full": "ul. Grunwaldzka 1A", "addr:city": "Leszno", "addr:postcode": "64-100", "addr:country": "pl", "name": "ALDI Leszno - ul. Grunwaldzka", "website": "https://www.aldi.pl/informacje-dla-klienta/wyszukiwarka-sklepu/wielkopolskie/leszno/ul-grunwaldzka-1a.html", "brand": "ALDI Nord", "brand:wikidata": "Q41171373"}},
{"type": "Feature", "id": "vaKWnBsqeRyvNhmjfTGAJYVWAKM=", "properties": {"ref": "ul-podmiejska-24b", "@spider": "aldi_nord_pl", "addr:full": "ul. Podmiejska 24b", "addr:city": "Kalisz", "addr:postcode": "62-800", "addr:country": "pl", "name": "ALDI Kalisz - ul. Podmiejska", "website": "https://www.aldi.pl/informacje-dla-klienta/wyszukiwarka-sklepu/wielkopolskie/kalisz/ul-podmiejska-24b.html", "brand": "ALDI Nord", "brand:wikidata": "Q41171373"}},
{"type": "Feature", "id": "4hvkb9qEGP--EFvy4_Z_2163zyw=", "properties": {"ref": "ul-wojska-polskiego-47", "@spider": "aldi_nord_pl", "addr:full": "ul. Wojska Polskiego 47", "addr:city": "Jarocin", "addr:postcode": "63-200", "addr:country": "pl", "name": "ALDI Jarocin - ul. Wojska Polskiego", "website": "https://www.aldi.pl/informacje-dla-klienta/wyszukiwarka-sklepu/wielkopolskie/jarocin/ul-wojska-polskiego-47.html", "brand": "ALDI Nord", "brand:wikidata": "Q41171373"}},
{"type": "Feature", "id": "KKRMJeiP6SZf28CCDiZUDKbhdG4=", "properties": {"ref": "ul-gdy_ska-30", "@spider": "aldi_nord_pl", "addr:full": "ul. Gdy\u0144ska 30", "addr:city": "Kozieg\u0142owy k. Poznania", "addr:postcode": "62-028", "addr:country": "pl", "name": "ALDI Kozieg\u0142owy k. Poznania - ul. Gdy\u0144ska", "website": "https://www.aldi.pl/informacje-dla-klienta/wyszukiwarka-sklepu/wielkopolskie/kozieg_owy-k-poznania/ul-gdy_ska-30.html", "brand": "ALDI Nord", "brand:wikidata": "Q41171373"}},
{"type": "Feature", "id": "J2on8T8fbs8d9UakiYeAGTM5UVs=", "properties": {"ref": "ul-hallera-30", "@spider": "aldi_nord_pl", "addr:full": "ul. Hallera 30", "addr:city": "Dzia\u0142dowo", "addr:postcode": "13-200", "addr:country": "pl", "name": "ALDI Dzia\u0142dowo - ul. Hallera", "website": "https://www.aldi.pl/informacje-dla-klienta/wyszukiwarka-sklepu/warmi_sko-mazurskie/dzia_dowo/ul-hallera-30.html", "brand": "ALDI Nord", "brand:wikidata": "Q41171373"}},
{"type": "Feature", "id": "0Es-vcG6WjAmznY6qO3nRCoOXFs=", "properties": {"ref": "ulica-sandomierska-16b", "@spider": "aldi_nord_pl", "addr:full": "ulica Sandomierska 16B", "addr:city": "Nisko", "addr:postcode": "37-400", "addr:country": "pl", "name": "ALDI Nisko - ulica Sandomierska", "website": "https://www.aldi.pl/informacje-dla-klienta/wyszukiwarka-sklepu/podkarpackie/nisko/ulica-sandomierska-16b.html", "brand": "ALDI Nord", "brand:wikidata": "Q41171373"}},
{"type": "Feature", "id": "b2E_jIIImVva6UWi2c1CPma4eQQ=", "properties": {"ref": "ul-towarowa-1a", "@spider": "aldi_nord_pl", "addr:full": "ul. Towarowa 1a", "addr:city": "Nysa", "addr:postcode": "48-303", "addr:country": "pl", "name": "ALDI Nysa - ul. Towarowa 1a", "website": "https://www.aldi.pl/informacje-dla-klienta/wyszukiwarka-sklepu/opolskie/nysa/ul-towarowa-1a.html", "brand": "ALDI Nord", "brand:wikidata": "Q41171373"}},
{"type": "Feature", "id": "GfI8BiRCEIBRgrOtcX_rf7h5Zus=", "properties": {"ref": "ul-ks-koziolka-44", "@spider": "aldi_nord_pl", "addr:full": "ul. Ks. Koziolka 44", "addr:city": "Krapkowice", "addr:postcode": "47-303", "addr:country": "pl", "name": "ALDI Krapkowice - ul. Ks. Koziolka", "website": "https://www.aldi.pl/informacje-dla-klienta/wyszukiwarka-sklepu/opolskie/krapkowice/ul-ks-koziolka-44.html", "brand": "ALDI Nord", "brand:wikidata": "Q41171373"}},
{"type": "Feature", "id": "c0YDt2aZF7SFkyx5Gih5rm7iCtA=", "properties": {"ref": "ul-wroc_awska-2", "@spider": "aldi_nord_pl", "addr:full": "ul. Wroc\u0142awska 2", "addr:city": "Z\u0105bkowice \u015al\u0105skie", "addr:postcode": "57-200", "addr:country": "pl", "name": "ALDI Z\u0105bkowice \u015al\u0105skie - ul. Wroc\u0142awska", "website": "https://www.aldi.pl/informacje-dla-klienta/wyszukiwarka-sklepu/dolno_l_skie/z_bkowice-_l_skie/ul-wroc_awska-2.html", "brand": "ALDI Nord", "brand:wikidata": "Q41171373"}},
{"type": "Feature", "id": "o1IbqJcdYXq55t53Ep2gDKXZ7mo=", "properties": {"ref": "ulica-luba_ska-7", "@spider": "aldi_nord_pl", "addr:full": "ulica Luba\u0144ska 7", "addr:city": "Zgorzelec", "addr:postcode": "59-900", "addr:country": "pl", "name": "ALDI Zgorzelec - ulica Luba\u0144ska", "website": "https://www.aldi.pl/informacje-dla-klienta/wyszukiwarka-sklepu/dolno_l_skie/zgorzelec/ulica-luba_ska-7.html", "brand": "ALDI Nord", "brand:wikidata": "Q41171373"}},
{"type": "Feature", "id": "8j5apUg55xt54CjW9fL6srDZnak=", "properties": {"ref": "ulica-grabiszy_ska0", "@spider": "aldi_nord_pl", "addr:full": "ulica Grabiszy\u0144ska", "addr:city": "Wroc\u0142aw", "addr:postcode": "53-439", "addr:country": "pl", "name": "ALDI Wroc\u0142aw - ulica Grabiszy\u0144ska", "website": "https://www.aldi.pl/informacje-dla-klienta/wyszukiwarka-sklepu/dolno_l_skie/wroc_aw/ulica-grabiszy_ska0.html", "brand": "ALDI Nord", "brand:wikidata": "Q41171373"}},
{"type": "Feature", "id": "F70awWjetIJLeY_w_FTM2QUrFwo=", "properties": {"ref": "ul-ofiar-o_wi_cimskich-21", "@spider": "aldi_nord_pl", "addr:full": "ul. Ofiar O\u015bwi\u0119cimskich 21", "addr:city": "\u015awidnica", "addr:postcode": "58-100", "addr:country": "pl", "name": "ALDI \u015awidnica - ul. Ofiar O\u015bwi\u0119cimskich", "website": "https://www.aldi.pl/informacje-dla-klienta/wyszukiwarka-sklepu/dolno_l_skie/_widnica/ul-ofiar-o_wi_cimskich-21.html", "brand": "ALDI Nord", "brand:wikidata": "Q41171373"}},
{"type": "Feature", "id": "Wgn3ctoz1zes5xKl4C0vIluV6yM=", "properties": {"ref": "ulica-grabiszy_ska", "@spider": "aldi_nord_pl", "addr:full": "ulica Grabiszy\u0144ska", "addr:city": "Wroc\u0142aw", "addr:postcode": "53-439", "addr:country": "pl", "name": "ALDI Wroc\u0142aw - ulica Grabiszy\u0144ska", "website": "https://www.aldi.pl/informacje-dla-klienta/wyszukiwarka-sklepu/dolno_l_skie/wroc_aw/ulica-grabiszy_ska.html", "brand": "ALDI Nord", "brand:wikidata": "Q41171373"}},
{"type": "Feature", "id": "fC_9lgA6Be3-WIm5L1dRdsh0t6M=", "properties": {"ref": "ul-sybirakow-2", "@spider": "aldi_nord_pl", "addr:full": "ul. Sybirak\u00f3w 2", "addr:city": "O\u0142awa", "addr:postcode": "55-200", "addr:country": "pl", "name": "ALDI O\u0142awa - ul. Sybirak\u00f3w", "website": "https://www.aldi.pl/informacje-dla-klienta/wyszukiwarka-sklepu/dolno_l_skie/o_awa/ul-sybirakow-2.html", "brand": "ALDI Nord", "brand:wikidata": "Q41171373"}},
{"type": "Feature", "id": "XI1HX1eov-Z4BnAujiiOzKJ7jLg=", "properties": {"ref": "ul-zawadzka-29", "@spider": "aldi_nord_pl", "addr:full": "ul. Zawadzka 29", "addr:city": "\u0141om\u017ca", "addr:postcode": "18-400", "addr:country": "pl", "name": "ALDI \u0141om\u017ca - ul. Zawadzka", "website": "https://www.aldi.pl/informacje-dla-klienta/wyszukiwarka-sklepu/podlaskie/_om_a/ul-zawadzka-29.html", "brand": "ALDI Nord", "brand:wikidata": "Q41171373"}},
{"type": "Feature", "id": "lAsI4lTqOvHCmOuBPlu9fd9cCAY=", "properties": {"ref": "ul-k-ujejskiego-1", "@spider": "aldi_nord_pl", "addr:full": "ul. K.Ujejskiego 1", "addr:city": "Nysa", "addr:postcode": "48-300", "addr:country": "pl", "name": "ALDI Nysa - ul. K.Ujejskiego", "website": "https://www.aldi.pl/informacje-dla-klienta/wyszukiwarka-sklepu/opolskie/nysa/ul-k-ujejskiego-1.html", "brand": "ALDI Nord", "brand:wikidata": "Q41171373"}},
{"type": "Feature", "id": "FwZTnyqcXqktiQu3kfmZhX__jz0=", "properties": {"ref": "ul-strzegomska-11", "@spider": "aldi_nord_pl", "addr:full": "ul. Strzegomska 11", "addr:city": "\u015awiebodzice", "addr:postcode": "58-160", "addr:country": "pl", "name": "ALDI \u015awiebodzice - ul. Strzegomska", "website": "https://www.aldi.pl/informacje-dla-klienta/wyszukiwarka-sklepu/dolno_l_skie/_wiebodzice/ul-strzegomska-11.html", "brand": "ALDI Nord", "brand:wikidata": "Q41171373"}},
{"type": "Feature", "id": "nlzNe8xoYqgkv5lx8hWFoM5dbtc=", "properties": {"ref": "ul-_redzka-41", "@spider": "aldi_nord_pl", "addr:full": "ul. \u015aredzka 41", "addr:city": "Wroc\u0142aw", "addr:postcode": "54-001", "addr:country": "pl", "name": "ALDI Wroc\u0142aw - ul. \u015aredzka", "website": "https://www.aldi.pl/informacje-dla-klienta/wyszukiwarka-sklepu/dolno_l_skie/wroc_aw/ul-_redzka-41.html", "brand": "ALDI Nord", "brand:wikidata": "Q41171373"}},
{"type": "Feature", "id": "CuseyLPVX86cb983zRAagAoKINw=", "properties": {"ref": "ul-mi_ska-36", "@spider": "aldi_nord_pl", "addr:full": "ul. Mi\u0144ska 36", "addr:city": "Wroc\u0142aw", "addr:postcode": "54-610", "addr:country": "pl", "name": "ALDI Wroc\u0142aw - ul. Mi\u0144ska", "website": "https://www.aldi.pl/informacje-dla-klienta/wyszukiwarka-sklepu/dolno_l_skie/wroc_aw/ul-mi_ska-36.html", "brand": "ALDI Nord", "brand:wikidata": "Q41171373"}},
{"type": "Feature", "id": "zhz_AflsffL5DEEY_EzNHkt4YP8=", "properties": {"ref": "ul-rychtalska-8", "@spider": "aldi_nord_pl", "addr:full": "ul. Rychtalska 8", "addr:city": "Wroc\u0142aw", "addr:postcode": "50-304", "addr:country": "pl", "name": "ALDI Wroc\u0142aw - ul. Rychtalska", "website": "https://www.aldi.pl/informacje-dla-klienta/wyszukiwarka-sklepu/dolno_l_skie/wroc_aw/ul-rychtalska-8.html", "brand": "ALDI Nord", "brand:wikidata": "Q41171373"}},
{"type": "Feature", "id": "YHU338sxKzoFKGa1cJ7T-xI21oY=", "properties": {"ref": "ul-szybowcowa-7", "@spider": "aldi_nord_pl", "addr:full": "ul. Szybowcowa 7", "addr:city": "Wroc\u0142aw", "addr:postcode": "54-130", "addr:country": "pl", "name": "ALDI Wroc\u0142aw - ul. Szybowcowa", "website": "https://www.aldi.pl/informacje-dla-klienta/wyszukiwarka-sklepu/dolno_l_skie/wroc_aw/ul-szybowcowa-7.html", "brand": "ALDI Nord", "brand:wikidata": "Q41171373"}},
{"type": "Feature", "id": "lrQROMmMXoYPytW3_ZDA2sG2aPw=", "properties": {"ref": "ul-obornicka-72", "@spider": "aldi_nord_pl", "addr:full": "ul. Obornicka 72", "addr:city": "Wroc\u0142aw", "addr:postcode": "51-114", "addr:country": "pl", "name": "ALDI Wroc\u0142aw - ul. Obornicka 72", "website": "https://www.aldi.pl/informacje-dla-klienta/wyszukiwarka-sklepu/dolno_l_skie/wroc_aw/ul-obornicka-72.html", "brand": "ALDI Nord", "brand:wikidata": "Q41171373"}},
{"type": "Feature", "id": "JTMSogP9uagxMScag2LlY4pOYBs=", "properties": {"ref": "ul-d_ugosza-14", "@spider": "aldi_nord_pl", "addr:full": "ul. D\u0142ugosza 14", "addr:city": "Wroc\u0142aw", "addr:postcode": "51-162", "addr:country": "pl", "name": "ALDI Wroc\u0142aw - ul. D\u0142ugosza", "website": "https://www.aldi.pl/informacje-dla-klienta/wyszukiwarka-sklepu/dolno_l_skie/wroc_aw/ul-d_ugosza-14.html", "brand": "ALDI Nord", "brand:wikidata": "Q41171373"}},
{"type": "Feature", "id": "zDrGuKiYUAmo0F30n69aqW3oG5A=", "properties": {"ref": "ul-ko_ciuszki-133-a", "@spider": "aldi_nord_pl", "addr:full": "ul. Ko\u015bciuszki 133 A", "addr:city": "Wroc\u0142aw", "addr:postcode": "50-440", "addr:country": "pl", "name": "ALDI Wroc\u0142aw - ul. Ko\u015bciuszki", "website": "https://www.aldi.pl/informacje-dla-klienta/wyszukiwarka-sklepu/dolno_l_skie/wroc_aw/ul-ko_ciuszki-133-a.html", "brand": "ALDI Nord", "brand:wikidata": "Q41171373"}},
{"type": "Feature", "id": "tmBwV5rNxOjNWSaOY0asyB_VDTw=", "properties": {"ref": "powsta_cow-_l_skich-82a", "@spider": "aldi_nord_pl", "addr:full": "Powsta\u0144c\u00f3w \u015al\u0105skich 82a", "addr:city": "Wroc\u0142aw", "addr:postcode": "53-333", "addr:country": "pl", "name": "ALDI Wroc\u0142aw - Powsta\u0144c\u00f3w \u015al\u0105skich", "website": "https://www.aldi.pl/informacje-dla-klienta/wyszukiwarka-sklepu/dolno_l_skie/wroc_aw/powsta_cow-_l_skich-82a.html", "brand": "ALDI Nord", "brand:wikidata": "Q41171373"}},
{"type": "Feature", "id": "2gVRTTfY3sOnccWtVD4cVqAeH8E=", "properties": {"ref": "ul-wysockiego-5", "@spider": "aldi_nord_pl", "addr:full": "ul. Wysockiego 5", "addr:city": "Wa\u0142brzych", "addr:postcode": "58-300", "addr:country": "pl", "name": "ALDI Wa\u0142brzych - ul. Wysockiego", "website": "https://www.aldi.pl/informacje-dla-klienta/wyszukiwarka-sklepu/dolno_l_skie/wa_brzych/ul-wysockiego-5.html", "brand": "ALDI Nord", "brand:wikidata": "Q41171373"}},
{"type": "Feature", "id": "35sTD1ulS9hy4G643I6ZReA6TFs=", "properties": {"ref": "plac-sprzymierzecow-11", "@spider": "aldi_nord_pl", "addr:full": "plac Sprzymierze\u0144c\u00f3w 11", "addr:city": "Z\u0142otoryja", "addr:postcode": "59-500", "addr:country": "pl", "name": "ALDI Z\u0142otoryja - plac Sprzymierze\u0144c\u00f3w", "website": "https://www.aldi.pl/informacje-dla-klienta/wyszukiwarka-sklepu/dolno_l_skie/z_otoryja/plac-sprzymierzecow-11.html", "brand": "ALDI Nord", "brand:wikidata": "Q41171373"}},
{"type": "Feature", "id": "LY4miKCjIOowtOogmeS7S8OeDxg=", "properties": {"ref": "al-wojska-polskiego-176", "@spider": "aldi_nord_pl", "addr:full": "Al. Wojska Polskiego 176", "addr:city": "Kalisz", "addr:postcode": "62-800", "addr:country": "pl", "name": "ALDI Kalisz - Al. Wojska Polskiego", "website": "https://www.aldi.pl/informacje-dla-klienta/wyszukiwarka-sklepu/wielkopolskie/kalisz/al-wojska-polskiego-176.html", "brand": "ALDI Nord", "brand:wikidata": "Q41171373"}},
{"type": "Feature", "id": "ncC4F4941izp9HKCL9xb0VUJFdg=", "properties": {"ref": "ul-_abikowska-3", "@spider": "aldi_nord_pl", "addr:full": "ul. \u017babikowska 3", "addr:city": "\u017bary", "addr:postcode": "68-200", "addr:country": "pl", "name": "ALDI \u017bary - ul. \u017babikowska", "website": "https://www.aldi.pl/informacje-dla-klienta/wyszukiwarka-sklepu/lubuskie/_ary/ul-_abikowska-3.html", "brand": "ALDI Nord", "brand:wikidata": "Q41171373"}},
{"type": "Feature", "id": "b1JHtDOly_SQVJhiPYonRjfmnW4=", "properties": {"ref": "ul-wyszy_skiego-22", "@spider": "aldi_nord_pl", "addr:full": "ul. Wyszy\u0144skiego 22", "addr:city": "Zielona G\u00f3ra", "addr:postcode": "65-001", "addr:country": "pl", "name": "ALDI Zielona G\u00f3ra - ul. Wyszy\u0144skiego", "website": "https://www.aldi.pl/informacje-dla-klienta/wyszukiwarka-sklepu/lubuskie/zielona-gora/ul-wyszy_skiego-22.html", "brand": "ALDI Nord", "brand:wikidata": "Q41171373"}},
{"type": "Feature", "id": "n3NF2vgWiOeQ4jEGKr8l5iCxRhA=", "properties": {"ref": "aleja-konstytucji-3-maja-18", "@spider": "aldi_nord_pl", "addr:full": "Aleja Konstytucji 3 Maja 18", "addr:city": "Zielona G\u00f3ra", "addr:postcode": "65-803", "addr:country": "pl", "name": "ALDI Zielona G\u00f3ra - Aleja Konstytucji 3 Maja", "website": "https://www.aldi.pl/informacje-dla-klienta/wyszukiwarka-sklepu/lubuskie/zielona-gora/aleja-konstytucji-3-maja-18.html", "brand": "ALDI Nord", "brand:wikidata": "Q41171373"}},
{"type": "Feature", "id": "dg4sa-9aaLvZmErgEDnv1NsEl00=", "properties": {"ref": "ul-m-sk_odowskiej-curie-10", "@spider": "aldi_nord_pl", "addr:full": "ul. M. Sk\u0142odowskiej-Curie 10", "addr:city": "Lubin", "addr:postcode": "59-300", "addr:country": "pl", "name": "ALDI Lubin - ul. M. Sk\u0142odowskiej-Curie", "website": "https://www.aldi.pl/informacje-dla-klienta/wyszukiwarka-sklepu/dolno_l_skie/lubin/ul-m-sk_odowskiej-curie-10.html", "brand": "ALDI Nord", "brand:wikidata": "Q41171373"}},
{"type": "Feature", "id": "l7d1KswpTbGG5_qFleFdb5JuU-4=", "properties": {"ref": "ul-gazowa-5", "@spider": "aldi_nord_pl", "addr:full": "ul. Gazowa 5", "addr:city": "K\u0119dzierzyn Ko\u017ale", "addr:postcode": "47-200", "addr:country": "pl", "name": "ALDI K\u0119dzierzyn Ko\u017ale - ul. Gazowa", "website": "https://www.aldi.pl/informacje-dla-klienta/wyszukiwarka-sklepu/opolskie/k_dzierzyn-ko_le/ul-gazowa-5.html", "brand": "ALDI Nord", "brand:wikidata": "Q41171373"}},
{"type": "Feature", "id": "tM742TjzIN-pszat_igQjfKTdPE=", "properties": {"ref": "ul-przemys_owa-1", "@spider": "aldi_nord_pl", "addr:full": "ul. Przemys\u0142owa 1", "addr:city": "G\u0142og\u00f3w", "addr:postcode": "67-200", "addr:country": "pl", "name": "ALDI G\u0142og\u00f3w - ul. Przemys\u0142owa", "website": "https://www.aldi.pl/informacje-dla-klienta/wyszukiwarka-sklepu/dolno_l_skie/g_ogow/ul-przemys_owa-1.html", "brand": "ALDI Nord", "brand:wikidata": "Q41171373"}},
{"type": "Feature", "id": "5y_U1dfRVhGcQtcE1VVK2LfcuBs=", "properties": {"ref": "ul-7-dywizji-11", "@spider": "aldi_nord_pl", "addr:full": "ul. 7 Dywizji 11", "addr:city": "Luba\u0144", "addr:postcode": "59-800", "addr:country": "pl", "name": "ALDI Luba\u0144 - ul. 7 Dywizji", "website": "https://www.aldi.pl/informacje-dla-klienta/wyszukiwarka-sklepu/dolno_l_skie/luba_/ul-7-dywizji-11.html", "brand": "ALDI Nord", "brand:wikidata": "Q41171373"}},
{"type": "Feature", "id": "sNrgzKAVmMh3BVW-yr675AwTsCo=", "properties": {"ref": "ul-sk_odowskiej-curie-4", "@spider": "aldi_nord_pl", "addr:full": "ul. Sk\u0142odowskiej-Curie 4", "addr:city": "Ole\u015bnica", "addr:postcode": "56-400", "addr:country": "pl", "name": "ALDI Ole\u015bnica - ul. Sk\u0142odowskiej-Curie", "website": "https://www.aldi.pl/informacje-dla-klienta/wyszukiwarka-sklepu/dolno_l_skie/ole_nica/ul-sk_odowskiej-curie-4.html", "brand": "ALDI Nord", "brand:wikidata": "Q41171373"}},
{"type": "Feature", "id": "Y-z5bREoTuGGkGh8rAi9kbDS5mc=", "properties": {"ref": "ul-_cinawska-3", "@spider": "aldi_nord_pl", "addr:full": "ul. \u015acinawska 3", "addr:city": "Legnica", "addr:postcode": "59-220", "addr:country": "pl", "name": "ALDI Legnica - ul. \u015acinawska", "website": "https://www.aldi.pl/informacje-dla-klienta/wyszukiwarka-sklepu/dolno_l_skie/legnica/ul-_cinawska-3.html", "brand": "ALDI Nord", "brand:wikidata": "Q41171373"}},
{"type": "Feature", "id": "TdfyW3T16QBkfbqNAu--wWXOT6M=", "properties": {"ref": "ul-wieniecka-17", "@spider": "aldi_nord_pl", "addr:full": "ul. Wieniecka 17", "addr:city": "W\u0142oc\u0142awek", "addr:postcode": "87-100", "addr:country": "pl", "name": "ALDI W\u0142oc\u0142awek - ul. Wieniecka", "website": "https://www.aldi.pl/informacje-dla-klienta/wyszukiwarka-sklepu/kujawsko-pomorskie/w_oc_awek/ul-wieniecka-17.html", "brand": "ALDI Nord", "brand:wikidata": "Q41171373"}},
{"type": "Feature", "id": "ir98EJ3zFOvKG0yUtCUlPXGWMc4=", "properties": {"ref": "ul-jacewska-20", "@spider": "aldi_nord_pl", "addr:full": "ul. Jacewska 20", "addr:city": "Inowroc\u0142aw", "addr:postcode": "88-100", "addr:country": "pl", "name": "ALDI Inowroc\u0142aw - ul. Jacewska", "website": "https://www.aldi.pl/informacje-dla-klienta/wyszukiwarka-sklepu/kujawsko-pomorskie/inowroc_aw/ul-jacewska-20.html", "brand": "ALDI Nord", "brand:wikidata": "Q41171373"}},
{"type": "Feature", "id": "xURfJAINJLrrkoGSThpXpYDKJYY=", "properties": {"ref": "ul-kruszy_ska-13a", "@spider": "aldi_nord_pl", "addr:full": "ul. Kruszy\u0144ska 13a", "addr:city": "W\u0142oc\u0142awek", "addr:postcode": "87-800", "addr:country": "pl", "name": "ALDI W\u0142oc\u0142awek - ul. Kruszy\u0144ska", "website": "https://www.aldi.pl/informacje-dla-klienta/wyszukiwarka-sklepu/kujawsko-pomorskie/w_oc_awek/ul-kruszy_ska-13a.html", "brand": "ALDI Nord", "brand:wikidata": "Q41171373"}},
{"type": "Feature", "id": "96YrIMP3NVVnCm3S7WlMGQU8P8A=", "properties": {"ref": "ulica-tadeusza-kociuszki-55", "@spider": "aldi_nord_pl", "addr:full": "ulica Tadeusza Ko\u015bciuszki 55", "addr:city": "Toru\u0144", "addr:postcode": "87-100", "addr:country": "pl", "name": "ALDI Toru\u0144 - ulica Tadeusza Ko\u015bciuszki", "website": "https://www.aldi.pl/informacje-dla-klienta/wyszukiwarka-sklepu/kujawsko-pomorskie/toru_/ulica-tadeusza-kociuszki-55.html", "brand": "ALDI Nord", "brand:wikidata": "Q41171373"}},
{"type": "Feature", "id": "x8Hm1aL00vdmmRH91GYDw8HjUoM=", "properties": {"ref": "ul-jana-pawla-ii-48", "@spider": "aldi_nord_pl", "addr:full": "ul. Jana Pawla II 48", "addr:city": "Sulech\u00f3w", "addr:postcode": "66-100", "addr:country": "pl", "name": "ALDI Sulech\u00f3w - ul. Jana Pawla II", "website": "https://www.aldi.pl/informacje-dla-klienta/wyszukiwarka-sklepu/lubuskie/sulechow/ul-jana-pawla-ii-48.html", "brand": "ALDI Nord", "brand:wikidata": "Q41171373"}},
{"type": "Feature", "id": "YOg9oQLLaMFvswhWbSrYVQjRBGo=", "properties": {"ref": "ul-bielawska-13", "@spider": "aldi_nord_pl", "addr:full": "ul. Bielawska 13", "addr:city": "Dzier\u017coni\u00f3w", "addr:postcode": "58-200", "addr:country": "pl", "name": "ALDI Dzier\u017coni\u00f3w - ul. Bielawska", "website": "https://www.aldi.pl/informacje-dla-klienta/wyszukiwarka-sklepu/dolno_l_skie/dzier_oniow/ul-bielawska-13.html", "brand": "ALDI Nord", "brand:wikidata": "Q41171373"}},
{"type": "Feature", "id": "AahvzvfcNfIsiO9rD9X-2K-CfdQ=", "properties": {"ref": "ul-legionow-222a", "@spider": "aldi_nord_pl", "addr:full": "ul. Legion\u00f3w 222a", "addr:city": "Toru\u0144", "addr:postcode": "87-100", "addr:country": "pl", "name": "ALDI Toru\u0144 - ul. Legion\u00f3w", "website": "https://www.aldi.pl/informacje-dla-klienta/wyszukiwarka-sklepu/kujawsko-pomorskie/toru_/ul-legionow-222a.html", "brand": "ALDI Nord", "brand:wikidata": "Q41171373"}},
{"type": "Feature", "id": "ihOpB0wXdmE6Sx7FEKpi28P_tbs=", "properties": {"ref": "wyszogrodzka-137", "@spider": "aldi_nord_pl", "addr:full": "Wyszogrodzka 137", "addr:city": "P\u0142ock", "addr:postcode": "09-140", "addr:country": "pl", "name": "ALDI P\u0142ock - Wyszogrodzka", "website": "https://www.aldi.pl/informacje-dla-klienta/wyszukiwarka-sklepu/mazowieckie/p_ock/wyszogrodzka-137.html", "brand": "ALDI Nord", "brand:wikidata": "Q41171373"}},
{"type": "Feature", "id": "SI1djAXajgIm2SL4aOjGjX0e4cI=", "properties": {"ref": "ul-wapienna-1", "@spider": "aldi_nord_pl", "addr:full": "ul. Wapienna 1", "addr:city": "Toru\u0144", "addr:postcode": "87-162", "addr:country": "pl", "name": "ALDI Toru\u0144 - ul. Wapienna", "website": "https://www.aldi.pl/informacje-dla-klienta/wyszukiwarka-sklepu/kujawsko-pomorskie/toru_/ul-wapienna-1.html", "brand": "ALDI Nord", "brand:wikidata": "Q41171373"}},
{"type": "Feature", "id": "2G-7dIO9Vhvw--ClVw5mCB04klw=", "properties": {"ref": "gda_ska-133", "@spider": "aldi_nord_pl", "addr:full": "Gda\u0144ska 133", "addr:city": "Bydgoszcz", "addr:postcode": "85-022", "addr:country": "pl", "name": "ALDI Bydgoszcz - Gda\u0144ska", "website": "https://www.aldi.pl/informacje-dla-klienta/wyszukiwarka-sklepu/kujawsko-pomorskie/bydgoszcz/gda_ska-133.html", "brand": "ALDI Nord", "brand:wikidata": "Q41171373"}},
{"type": "Feature", "id": "Nx7CzWLmyWH6CF9b7jxWZT3dsko=", "properties": {"ref": "ul-pelpli_ska-39", "@spider": "aldi_nord_pl", "addr:full": "ul. Pelpli\u0144ska 39", "addr:city": "Bydgoszcz", "addr:postcode": "85-794", "addr:country": "pl", "name": "ALDI Bydgoszcz - ul. Pelpli\u0144ska", "website": "https://www.aldi.pl/informacje-dla-klienta/wyszukiwarka-sklepu/kujawsko-pomorskie/bydgoszcz/ul-pelpli_ska-39.html", "brand": "ALDI Nord", "brand:wikidata": "Q41171373"}},
{"type": "Feature", "id": "V5ergZzJsYr9but4wFDOA0aM_aE=", "properties": {"ref": "ul-wojska-polskiego-1", "@spider": "aldi_nord_pl", "addr:full": "ul. Wojska Polskiego 1", "addr:city": "Bydgoszcz", "addr:postcode": "85-171", "addr:country": "pl", "name": "ALDI Bydgoszcz - ul. Wojska Polskiego", "website": "https://www.aldi.pl/informacje-dla-klienta/wyszukiwarka-sklepu/kujawsko-pomorskie/bydgoszcz/ul-wojska-polskiego-1.html", "brand": "ALDI Nord", "brand:wikidata": "Q41171373"}},
{"type": "Feature", "id": "nfF_F6q5ZZLfuQVBG3mOcLBcE74=", "properties": {"ref": "ul-asnyka-2", "@spider": "aldi_nord_pl", "addr:full": "ul. Asnyka 2", "addr:city": "Toru\u0144", "addr:postcode": "87-100", "addr:country": "pl", "name": "ALDI Toru\u0144 - ul. Asnyka", "website": "https://www.aldi.pl/informacje-dla-klienta/wyszukiwarka-sklepu/kujawsko-pomorskie/toru_/ul-asnyka-2.html", "brand": "ALDI Nord", "brand:wikidata": "Q41171373"}},
{"type": "Feature", "id": "MIvykvfCS0J1UiX6HAIdOnNUQZk=", "properties": {"ref": "ul-jeleniogorska-6-8", "@spider": "aldi_nord_pl", "addr:full": "ul. Jeleniog\u00f3rska 6-8", "addr:city": "Kamienna G\u00f3ra", "addr:postcode": "58-400", "addr:country": "pl", "name": "ALDI Kamienna G\u00f3ra - ul. Jeleniog\u00f3rska", "website": "https://www.aldi.pl/informacje-dla-klienta/wyszukiwarka-sklepu/dolno_l_skie/kamienna-gora/ul-jeleniogorska-6-8.html", "brand": "ALDI Nord", "brand:wikidata": "Q41171373"}},
{"type": "Feature", "id": "jKVvRB-kFabIqgdFIDc42bOcmgI=", "properties": {"ref": "ul-bohaterow-kragujewca-8", "@spider": "aldi_nord_pl", "addr:full": "ul. Bohater\u00f3w Kragujewca 8", "addr:city": "Bydgoszcz", "addr:postcode": "85-863", "addr:country": "pl", "name": "ALDI Bydgoszcz - ul. Bohater\u00f3w Kragujewca", "website": "https://www.aldi.pl/informacje-dla-klienta/wyszukiwarka-sklepu/kujawsko-pomorskie/bydgoszcz/ul-bohaterow-kragujewca-8.html", "brand": "ALDI Nord", "brand:wikidata": "Q41171373"}},
{"type": "Feature", "id": "iXvPNwJVGL_VBTuMdV-PukwjTiw=", "properties": {"ref": "ul-mickiewicza-19e", "@spider": "aldi_nord_pl", "addr:full": "ul. Mickiewicza 19E", "addr:city": "Skawina", "addr:postcode": "32-050", "addr:country": "pl", "name": "ALDI Skawina - ul. Mickiewicza", "website": "https://www.aldi.pl/informacje-dla-klienta/wyszukiwarka-sklepu/ma_opolskie/skawina/ul-mickiewicza-19e.html", "brand": "ALDI Nord", "brand:wikidata": "Q41171373"}},
{"type": "Feature", "id": "ylKAlXcUBW58KAmCxtJIhfFDSvM=", "properties": {"ref": "ul-marii-sk_odowskiej-curie-60-a", "@spider": "aldi_nord_pl", "addr:full": "ul. Marii Sk\u0142odowskiej-Curie 60 a", "addr:city": "Bydgoszcz", "addr:postcode": "85-733", "addr:country": "pl", "name": "ALDI Bydgoszcz - ul. Marii Sk\u0142odowskiej-Curie", "website": "https://www.aldi.pl/informacje-dla-klienta/wyszukiwarka-sklepu/kujawsko-pomorskie/bydgoszcz/ul-marii-sk_odowskiej-curie-60-a.html", "brand": "ALDI Nord", "brand:wikidata": "Q41171373"}},
{"type": "Feature", "id": "podLeHjZyfoSJv1gq8PcAsYVTes=", "properties": {"ref": "ul-sobieskiego-37", "@spider": "aldi_nord_pl", "addr:full": "ul. Sobieskiego 37", "addr:city": "Jelenia G\u00f3ra", "addr:postcode": "58-500", "addr:country": "pl", "name": "ALDI Jelenia G\u00f3ra - ul. Sobieskiego", "website": "https://www.aldi.pl/informacje-dla-klienta/wyszukiwarka-sklepu/dolno_l_skie/jelenia-gora/ul-sobieskiego-37.html", "brand": "ALDI Nord", "brand:wikidata": "Q41171373"}},
{"type": "Feature", "id": "Wa03ynw_GfKEES_G_fiG8VitYKI=", "properties": {"ref": "ul-zaborska-26", "@spider": "aldi_nord_pl", "addr:full": "ul. Zaborska 26", "addr:city": "O\u015bwi\u0119cim", "addr:postcode": "32-600", "addr:country": "pl", "name": "ALDI O\u015bwi\u0119cim - ul. Zaborska", "website": "https://www.aldi.pl/informacje-dla-klienta/wyszukiwarka-sklepu/ma_opolskie/o_wi_cim/ul-zaborska-26.html", "brand": "ALDI Nord", "brand:wikidata": "Q41171373"}},
{"type": "Feature", "id": "8Ln17BZaoc0-2e-xuevJwLRzLAQ=", "properties": {"ref": "al-1000-lecia-12-a", "@spider": "aldi_nord_pl", "addr:full": "Al. 1000-lecia 12 a", "addr:city": "Olkusz", "addr:postcode": "32-300", "addr:country": "pl", "name": "ALDI Olkusz - Al. 1000-lecia", "website": "https://www.aldi.pl/informacje-dla-klienta/wyszukiwarka-sklepu/ma_opolskie/olkusz/al-1000-lecia-12-a.html", "brand": "ALDI Nord", "brand:wikidata": "Q41171373"}},
{"type": "Feature", "id": "ZIWdxRm1IX2oyFOpJQLxTx4L8uw=", "properties": {"ref": "ul-nawojowska-1", "@spider": "aldi_nord_pl", "addr:full": "ul. Nawojowska 1", "addr:city": "Nowy S\u0105cz", "addr:postcode": "33-300", "addr:country": "pl", "name": "ALDI Nowy S\u0105cz - ul. Nawojowska", "website": "https://www.aldi.pl/informacje-dla-klienta/wyszukiwarka-sklepu/ma_opolskie/nowy-s_cz/ul-nawojowska-1.html", "brand": "ALDI Nord", "brand:wikidata": "Q41171373"}},
{"type": "Feature", "id": "Q9kZCHTzcW22Dmvnv4HuNEVOMf8=", "properties": {"ref": "ul-sielska-4", "@spider": "aldi_nord_pl", "addr:full": "ul. Sielska 4", "addr:city": "Krak\u00f3w", "addr:postcode": "34-121", "addr:country": "pl", "name": "ALDI Krak\u00f3w - ul. Sielska", "website": "https://www.aldi.pl/informacje-dla-klienta/wyszukiwarka-sklepu/ma_opolskie/krakow/ul-sielska-4.html", "brand": "ALDI Nord", "brand:wikidata": "Q41171373"}},
{"type": "Feature", "id": "_vg-PiUmml5AbHSAl6NnbL5Osk4=", "properties": {"ref": "os-bohaterow-wrzenia-1k", "@spider": "aldi_nord_pl", "addr:full": "os. Bohater\u00f3w Wrze\u015bnia 1K", "addr:city": "Krak\u00f3w", "addr:postcode": "31-620", "addr:country": "pl", "name": "ALDI Krak\u00f3w - os. Bohater\u00f3w Wrze\u015bnia", "website": "https://www.aldi.pl/informacje-dla-klienta/wyszukiwarka-sklepu/ma_opolskie/krakow/os-bohaterow-wrzenia-1k.html", "brand": "ALDI Nord", "brand:wikidata": "Q41171373"}},
{"type": "Feature", "id": "ZWUyU1ib9yUucqc_cNo38LOb11E=", "properties": {"ref": "os-na-lotnisku-2", "@spider": "aldi_nord_pl", "addr:full": "Os. Na Lotnisku 2", "addr:city": "Krak\u00f3w", "addr:postcode": "31-801", "addr:country": "pl", "name": "ALDI Krak\u00f3w - Os. Na Lotnisku", "website": "https://www.aldi.pl/informacje-dla-klienta/wyszukiwarka-sklepu/ma_opolskie/krakow/os-na-lotnisku-2.html", "brand": "ALDI Nord", "brand:wikidata": "Q41171373"}},
{"type": "Feature", "id": "PNknVaspS7jJtIuUc1tqZgDmvVw=", "properties": {"ref": "ul-radzikowskiego-5", "@spider": "aldi_nord_pl", "addr:full": "ul. Radzikowskiego 5", "addr:city": "Krak\u00f3w", "addr:postcode": "31-305", "addr:country": "pl", "name": "ALDI Krak\u00f3w - ul. Radzikowskiego", "website": "https://www.aldi.pl/informacje-dla-klienta/wyszukiwarka-sklepu/ma_opolskie/krakow/ul-radzikowskiego-5.html", "brand": "ALDI Nord", "brand:wikidata": "Q41171373"}},
{"type": "Feature", "id": "xdxnNnaABg7rmJVebxx19csxEWw=", "properties": {"ref": "ul-d_browskiej-25", "@spider": "aldi_nord_pl", "addr:full": "ul. D\u0105browskiej 25", "addr:city": "Krak\u00f3w", "addr:postcode": "31-851", "addr:country": "pl", "name": "ALDI Krak\u00f3w - ul. D\u0105browskiej", "website": "https://www.aldi.pl/informacje-dla-klienta/wyszukiwarka-sklepu/ma_opolskie/krakow/ul-d_browskiej-25.html", "brand": "ALDI Nord", "brand:wikidata": "Q41171373"}}]}