{"type":"FeatureCollection","features":[{"type": "Feature", "id": "2R8BJNkr-NvdVdGfp5TN74_V_h0=", "properties": {"ref": "102366", "@spider": "allsups", "addr:full": "1402 North Hwy. 84", "addr:city": "Slaton", "addr:state": "TX", "addr:postcode": "79364", "addr:country": "US", "name": "Allsup's"}, "geometry": {"type": "Point", "coordinates": [-96.459317, 31.6850943]}},
{"type": "Feature", "id": "0esOXKIBO5HmL9t8gN2hRtlJWtc=", "properties": {"ref": "102376", "@spider": "allsups", "addr:full": "160 E 8th St", "addr:city": "Vaughn", "addr:state": "NM", "addr:postcode": "88353", "addr:country": "US", "name": "Allsup's", "phone": "(505) 584-2207"}, "geometry": {"type": "Point", "coordinates": [-105.2098509, 34.6011629]}},
{"type": "Feature", "id": "22L3GMT1V8Yekd52T0EFaW1Xt_o=", "properties": {"ref": "102204", "@spider": "allsups", "addr:full": "701 E Hendricks", "addr:city": "Wink", "addr:state": "TX", "addr:postcode": "79789", "addr:country": "US", "name": "Allsup's"}, "geometry": {"type": "Point", "coordinates": [-103.1580013, 31.7526943]}},
{"type": "Feature", "id": "bcLWSvAEyXgJeasFgc0r5Vt0T9c=", "properties": {"ref": "102315", "@spider": "allsups", "addr:full": "605 N Mason Street", "addr:city": "Bowie", "addr:state": "TX", "addr:postcode": "76230", "addr:country": "US", "name": "Allsup's", "phone": "(940) 872-5290"}, "geometry": {"type": "Point", "coordinates": [-97.845494, 33.562652]}},
{"type": "Feature", "id": "mTRdgHW0K_yuT0Yuf4s9yvy-yxY=", "properties": {"ref": "102302", "@spider": "allsups", "addr:full": "511 West Walker", "addr:city": "Breckenridge", "addr:state": "TX", "addr:postcode": "76424", "addr:country": "US", "name": "Allsup's", "phone": "(254) 559-2621"}, "geometry": {"type": "Point", "coordinates": [-98.908496, 32.7552]}},
{"type": "Feature", "id": "MnP_Npwh0-y963qnehNKxd2NAVA=", "properties": {"ref": "102292", "@spider": "allsups", "addr:full": "490 W. Rock Island Avenue", "addr:city": "Boyd", "addr:state": "TX", "addr:postcode": "76023", "addr:country": "US", "name": "Allsup's", "phone": "(940) 433-2185"}, "geometry": {"type": "Point", "coordinates": [-97.573521, 33.075799]}},
{"type": "Feature", "id": "H7mD2tGSIGvSYYr0tMNshULQXEc=", "properties": {"ref": "102158", "@spider": "allsups", "addr:full": "1019 Coggins", "addr:city": "Brownwood", "addr:state": "TX", "addr:postcode": "76801", "addr:country": "US", "name": "Allsup's", "phone": "(325) 643-4142"}, "geometry": {"type": "Point", "coordinates": [-98.978582, 31.709254]}},
{"type": "Feature", "id": "uydZg31YisuA77xyEOhDzHyrxyQ=", "properties": {"ref": "102084", "@spider": "allsups", "addr:full": "3480 Hwy 377S", "addr:city": "Brownwood", "addr:state": "TX", "addr:postcode": "76801", "addr:country": "US", "name": "Allsup's", "phone": "(325) 646-8900"}, "geometry": {"type": "Point", "coordinates": [-98.9988993, 31.691934]}},
{"type": "Feature", "id": "kSOv6-EEGmU00qywh7G-3MtH_uo=", "properties": {"ref": "102140", "@spider": "allsups", "addr:full": "1603 Chico Hwy", "addr:city": "Bridgeport", "addr:state": "TX", "addr:postcode": "76426", "addr:country": "US", "name": "Allsup's", "phone": "(940) 683-3113"}, "geometry": {"type": "Point", "coordinates": [-97.767753, 33.214536]}},
{"type": "Feature", "id": "6DRGcepPgc2f2RHj8DOa8KtMztY=", "properties": {"ref": "102240", "@spider": "allsups", "addr:full": "219 North 2nd Street", "addr:city": "Canadian", "addr:state": "TX", "addr:postcode": "79014", "addr:country": "US", "name": "Allsup's", "phone": "(806) 323-9448"}, "geometry": {"type": "Point", "coordinates": [-100.383018, 35.915992]}},
{"type": "Feature", "id": "1Uk_-PrHWGtkvWPqzEtcL9p-n-A=", "properties": {"ref": "102363", "@spider": "allsups", "addr:full": "800 23rd Street", "addr:city": "Canyon", "addr:state": "TX", "addr:postcode": "79015", "addr:country": "US", "name": "Allsup's", "phone": "(806) 655-7755"}, "geometry": {"type": "Point", "coordinates": [-101.919746, 34.975456]}},
{"type": "Feature", "id": "t1zP2mmEuwwCijglO9YQoj4oAgU=", "properties": {"ref": "102166", "@spider": "allsups", "addr:full": "302 North 15th Street", "addr:city": "Canyon", "addr:state": "TX", "addr:postcode": "79015", "addr:country": "US", "name": "Allsup's", "phone": "(806) 655-9633"}, "geometry": {"type": "Point", "coordinates": [-101.928277, 34.985931]}},
{"type": "Feature", "id": "_QItWH3I5a4kXfw9SsxUQmj7Y34=", "properties": {"ref": "102092", "@spider": "allsups", "addr:full": "902 8th Street", "addr:city": "Canyon", "addr:state": "TX", "addr:postcode": "79015", "addr:country": "US", "name": "Allsup's", "phone": "(806) 655-9749"}, "geometry": {"type": "Point", "coordinates": [-101.937242, 34.974461]}},
{"type": "Feature", "id": "h2WYeoSV5JXUm4BqMgFAokczbb4=", "properties": {"ref": "102062", "@spider": "allsups", "addr:full": "601 Avenue F NW", "addr:city": "Childress", "addr:state": "TX", "addr:postcode": "79201", "addr:country": "US", "name": "Allsup's", "phone": "(940) 937-3134"}, "geometry": {"type": "Point", "coordinates": [-100.210373, 34.428309]}},
{"type": "Feature", "id": "2SbhC9_5oATQd9Ml2oESo-w9Qzw=", "properties": {"ref": "102310", "@spider": "allsups", "addr:full": "106 South 101 Highway", "addr:city": "Chico", "addr:state": "TX", "addr:postcode": "76431", "addr:country": "US", "name": "Allsup's", "phone": "(940) 644-2208"}, "geometry": {"type": "Point", "coordinates": [-97.794398, 33.294483]}},
{"type": "Feature", "id": "wVwdptfAPIjM7viPBi3duCExfQw=", "properties": {"ref": "102169", "@spider": "allsups", "addr:full": "14753 US Hwy 287 S.", "addr:city": "Chillicothe", "addr:state": "TX", "addr:postcode": "79225", "addr:country": "US", "name": "Allsup's", "phone": "(940) 852-5592"}, "geometry": {"type": "Point", "coordinates": [-99.509987, 34.256357]}},
{"type": "Feature", "id": "RKDO59JCpqj5We8WXk-6IC18b9M=", "properties": {"ref": "102083", "@spider": "allsups", "addr:full": "1510 Avenue F NW", "addr:city": "Childress", "addr:state": "TX", "addr:postcode": "79201", "addr:country": "US", "name": "Allsup's", "phone": "(940) 937-3203"}, "geometry": {"type": "Point", "coordinates": [-100.220961, 34.433]}},
{"type": "Feature", "id": "U5HjIwFT5m2qdXPgg9J-UhrM3Ds=", "properties": {"ref": "102191", "@spider": "allsups", "addr:full": "913 West 8th Street", "addr:city": "Cisco", "addr:state": "TX", "addr:country": "US", "name": "Allsup's", "phone": "(254) 442-1263"}, "geometry": {"type": "Point", "coordinates": [-98.988118, 32.38362]}},
{"type": "Feature", "id": "WBGnEqpb2gZDkpNSHz0NxXoypro=", "properties": {"ref": "102105", "@spider": "allsups", "addr:full": "2205 Conrad Hilton Ave", "addr:city": "Cisco", "addr:state": "TX", "addr:postcode": "76437", "addr:country": "US", "name": "Allsup's", "phone": "(254) 442-1230"}, "geometry": {"type": "Point", "coordinates": [-98.970566, 32.375502]}},
{"type": "Feature", "id": "zxS49pCVXJJfZX9m1aOSAu0Mjis=", "properties": {"ref": "102154", "@spider": "allsups", "addr:full": "1501 Neches", "addr:city": "Coleman", "addr:state": "TX", "addr:postcode": "76834", "addr:country": "US", "name": "Allsup's", "phone": "(325) 625-3416"}, "geometry": {"type": "Point", "coordinates": [-99.427707, 31.844435]}},
{"type": "Feature", "id": "xOnQPHzMnNbMLFI1-mzQZDqQof0=", "properties": {"ref": "102128", "@spider": "allsups", "addr:full": "705 S. Access Road", "addr:city": "Clyde", "addr:state": "TX", "addr:postcode": "79510", "addr:country": "US", "name": "Allsup's", "phone": "(325) 893-2139"}, "geometry": {"type": "Point", "coordinates": [-99.48928, 32.410919]}},
{"type": "Feature", "id": "WBQCsY8RFOHNeZwPL85F73v2YIc=", "properties": {"ref": "102370", "@spider": "allsups", "addr:full": "805 W 2nd Street", "addr:city": "Clarendon", "addr:state": "TX", "addr:postcode": "79226", "addr:country": "US", "name": "Allsup's", "phone": "(806) 874-0187"}, "geometry": {"type": "Point", "coordinates": [-100.896424, 34.941749]}},
{"type": "Feature", "id": "67RIIYAwT6PLTS2qMER9-4X0GCo=", "properties": {"ref": "102247", "@spider": "allsups", "addr:full": "907 North Austin", "addr:city": "Comanche", "addr:state": "TX", "addr:postcode": "76442", "addr:country": "US", "name": "Allsup's", "phone": "(325) 356-5572"}, "geometry": {"type": "Point", "coordinates": [-98.604258, 31.90531]}},
{"type": "Feature", "id": "KC7nOwlK_Zeuanz_p2k8LDFM6b8=", "properties": {"ref": "102207", "@spider": "allsups", "addr:full": "501 E. Central", "addr:city": "Comanche", "addr:state": "TX", "addr:postcode": "76442", "addr:country": "US", "name": "Allsup's", "phone": "(325) 356-3474"}, "geometry": {"type": "Point", "coordinates": [-98.598847, 31.898031]}},
{"type": "Feature", "id": "i0upRf25NfIrpeMYZDsK2_qq0tc=", "properties": {"ref": "102290", "@spider": "allsups", "addr:full": "102 Santa Anna Ave", "addr:city": "Coleman", "addr:state": "TX", "addr:postcode": "76834", "addr:country": "US", "name": "Allsup's", "phone": "(325) 625-3424"}, "geometry": {"type": "Point", "coordinates": [-99.422786, 31.812067]}},
{"type": "Feature", "id": "VNTZ_tgfwTj3aPgvBn6UNlwDrYQ=", "properties": {"ref": "102012", "@spider": "allsups", "addr:full": "502 West Main Street", "addr:city": "Crosbyton", "addr:state": "TX", "addr:postcode": "79322", "addr:country": "US", "name": "Allsup's", "phone": "(806) 675-2076"}, "geometry": {"type": "Point", "coordinates": [-101.243479, 33.660398]}},
{"type": "Feature", "id": "tyV6dRFbrCyFMPaXx4fDj1m4C50=", "properties": {"ref": "102282", "@spider": "allsups", "addr:full": "901 Gaston", "addr:city": "Crane", "addr:state": "TX", "addr:postcode": "79731", "addr:country": "US", "name": "Allsup's", "phone": "(432) 558-2002"}, "geometry": {"type": "Point", "coordinates": [-102.348983, 31.394586]}},
{"type": "Feature", "id": "R5f-a0iO_Y0EXdpRtIZ0vMMDdu4=", "properties": {"ref": "102007", "@spider": "allsups", "addr:full": "201 N. Cates", "addr:city": "Decatur", "addr:state": "TX", "addr:postcode": "76234", "addr:country": "US", "name": "Allsup's", "phone": "(940) 627-3444"}, "geometry": {"type": "Point", "coordinates": [-97.583428, 33.235107]}},
{"type": "Feature", "id": "OnjtRfrFYPvXvBBHYX1fP2pFuB0=", "properties": {"ref": "102047", "@spider": "allsups", "addr:full": "313 Peach Avenue Dalhart", "addr:city": "Dalhart", "addr:state": "TX", "addr:postcode": "79022", "addr:country": "US", "name": "Allsup's", "phone": "(806) 249-4735"}, "geometry": {"type": "Point", "coordinates": [-102.516606, 36.062693]}},
{"type": "Feature", "id": "jVHnhnAi6PQH16yArFtfabeBUTE=", "properties": {"ref": "102075", "@spider": "allsups", "addr:full": "500 E. Commerce St", "addr:city": "Crowell", "addr:state": "TX", "addr:postcode": "79227", "addr:country": "US", "name": "Allsup's", "phone": "(940) 684-1966"}, "geometry": {"type": "Point", "coordinates": [-99.719749, 33.98408]}},
{"type": "Feature", "id": "L7bEhOX6egHpfMdMx7KbBvDGlaM=", "properties": {"ref": "102147", "@spider": "allsups", "addr:full": "900 E. Navarro", "addr:city": "DeLeon", "addr:state": "TX", "addr:postcode": "76444", "addr:country": "US", "name": "Allsup's", "phone": "(245) 893-2477"}, "geometry": {"type": "Point", "coordinates": [-98.526443, 32.114827]}},
{"type": "Feature", "id": "jmNHgqgX4BhpVXLRkHnnPJil8aw=", "properties": {"ref": "102103", "@spider": "allsups", "addr:full": "1305 S. US Hwy 81-287", "addr:city": "Decatur", "addr:state": "TX", "addr:postcode": "76234", "addr:country": "US", "name": "Allsup's", "phone": "(940) 627-1549"}, "geometry": {"type": "Point", "coordinates": [-97.60563, 33.247283]}},
{"type": "Feature", "id": "sAPU8jWSZYraYkusY-iFP01w1YE=", "properties": {"ref": "102205", "@spider": "allsups", "addr:full": "516 W. Broadway", "addr:city": "Denver City", "addr:state": "TX", "addr:postcode": "79323", "addr:country": "US", "name": "Allsup's", "phone": "(806) 592-8461"}, "geometry": {"type": "Point", "coordinates": [-102.834891, 32.965239]}},
{"type": "Feature", "id": "U9LHVLSKbC_BXj90SZboZHR9R5E=", "properties": {"ref": "102194", "@spider": "allsups", "addr:full": "214 N. Highway 214", "addr:city": "Denver City", "addr:state": "TX", "addr:postcode": "79323", "addr:country": "US", "name": "Allsup's", "phone": "(806) 592-5163"}, "geometry": {"type": "Point", "coordinates": [-102.818906, 33.04074]}},
{"type": "Feature", "id": "Pkx1yFhfbHMvheLMi3QNSkdKos4=", "properties": {"ref": "102014", "@spider": "allsups", "addr:full": "16767 County Rd 351", "addr:city": "Dublin", "addr:state": "TX", "addr:postcode": "76446", "addr:country": "US", "name": "Allsup's", "phone": "(254) 445-2731"}, "geometry": {"type": "Point", "coordinates": [-98.330328, 32.116368]}},
{"type": "Feature", "id": "GNMOrImy7NzMmjL7pjDjflliT1g=", "properties": {"ref": "102024", "@spider": "allsups", "addr:full": "501 Bedford", "addr:city": "Dimmitt", "addr:state": "TX", "addr:postcode": "79027", "addr:country": "US", "name": "Allsup's", "phone": "(806) 647-5289"}, "geometry": {"type": "Point", "coordinates": [-102.306995, 34.550864]}},
{"type": "Feature", "id": "d5oPQCDQ7NyV3-qgUZkfUBh8sYU=", "properties": {"ref": "102164", "@spider": "allsups", "addr:full": "305 West 1st Street", "addr:city": "Dumas", "addr:state": "TX", "addr:postcode": "79029", "addr:country": "US", "name": "Allsup's", "phone": "(806) 935-5362"}, "geometry": {"type": "Point", "coordinates": [-101.976367, 35.864937]}},
{"type": "Feature", "id": "30hYe02VmodqQMfVOYI0vFUFLQI=", "properties": {"ref": "102163", "@spider": "allsups", "addr:full": "208 North Dumas Ave.", "addr:city": "Dumas", "addr:state": "TX", "addr:postcode": "79029", "addr:country": "US", "name": "Allsup's", "phone": "(806) 935-9628"}, "geometry": {"type": "Point", "coordinates": [-101.972881, 35.86844]}},
{"type": "Feature", "id": "PYLje2V5AN9xoO5_2lSbrdxiFgE=", "properties": {"ref": "102099", "@spider": "allsups", "addr:full": "1024 Dumas Avenue", "addr:city": "Dumas", "addr:state": "TX", "addr:postcode": "79029", "addr:country": "US", "name": "Allsup's", "phone": "(806) 935-4608"}, "geometry": {"type": "Point", "coordinates": [-101.973906, 35.85461]}},
{"type": "Feature", "id": "p2C6yvbcJxTVXIIIeo_LYwn0kFg=", "properties": {"ref": "102098", "@spider": "allsups", "addr:full": "1001 W. Main", "addr:city": "Eastland", "addr:state": "TX", "addr:postcode": "76448", "addr:country": "US", "name": "Allsup's", "phone": "(254) 629-1396"}, "geometry": {"type": "Point", "coordinates": [-98.828422, 32.401983]}},
{"type": "Feature", "id": "AVYX-15dZUnZzPl0XYmiytdZh0A=", "properties": {"ref": "102110", "@spider": "allsups", "addr:full": "101 West Highway 70", "addr:city": "Earth", "addr:state": "TX", "addr:postcode": "79031", "addr:country": "US", "name": "Allsup's", "phone": "(806) 257-2172"}, "geometry": {"type": "Point", "coordinates": [-102.411104, 34.232773]}},
{"type": "Feature", "id": "ukDYZiV0G3nLk3JV2qIG8Afc0Ig=", "properties": {"ref": "102108", "@spider": "allsups", "addr:full": "910 Early Blvd", "addr:city": "Early", "addr:state": "TX", "addr:postcode": "76802", "addr:country": "US", "name": "Allsup's", "phone": "(325) 646-1075"}, "geometry": {"type": "Point", "coordinates": [-98.947952, 31.741798]}},
{"type": "Feature", "id": "Xsmd-0uOK07dvz8rdxONGp2_Rdg=", "properties": {"ref": "102011", "@spider": "allsups", "addr:full": "3rd & Ave A", "addr:city": "Farwell", "addr:state": "TX", "addr:postcode": "79325", "addr:country": "US", "name": "Allsup's", "phone": "(806) 481-3528"}, "geometry": {"type": "Point", "coordinates": [-103.040371, 34.388733]}},
{"type": "Feature", "id": "sCLGeRMnPZpSXuYp1vytRK_lLwU=", "properties": {"ref": "102378", "@spider": "allsups", "addr:full": "601 West Front St", "addr:city": "Electra", "addr:state": "TX", "addr:postcode": "76360", "addr:country": "US", "name": "Allsup's", "phone": "(940) 495-3305"}, "geometry": {"type": "Point", "coordinates": [-98.924233, 34.03202]}},
{"type": "Feature", "id": "zaJuMBsxUtQQVgztPlhLL2VBXPE=", "properties": {"ref": "102217", "@spider": "allsups", "addr:full": "312 East 11th Street", "addr:city": "Friona", "addr:state": "TX", "addr:postcode": "79035", "addr:country": "US", "name": "Allsup's", "phone": "(806) 247-8010"}, "geometry": {"type": "Point", "coordinates": [-102.715128, 34.641913]}},
{"type": "Feature", "id": "5_LBj3Lbb0ckr8aX1uoJAAsVgNA=", "properties": {"ref": "102050", "@spider": "allsups", "addr:full": "102 East Houston", "addr:city": "Floydada", "addr:state": "TX", "addr:postcode": "79235", "addr:country": "US", "name": "Allsup's", "phone": "(806) 983-5773"}, "geometry": {"type": "Point", "coordinates": [-101.33436, 33.978486]}},
{"type": "Feature", "id": "vsq1zjj4QHtxbECyPgwgC0eJTFY=", "properties": {"ref": "102208", "@spider": "allsups", "addr:full": "204 Elm Street", "addr:city": "Graham", "addr:state": "TX", "addr:postcode": "76450", "addr:country": "US", "name": "Allsup's", "phone": "(940) 549-2133"}, "geometry": {"type": "Point", "coordinates": [-98.589983, 33.11265]}},
{"type": "Feature", "id": "HGpEzjYtqqsVjD93z_AuBorlahU=", "properties": {"ref": "102101", "@spider": "allsups", "addr:full": "206 East Broadway", "addr:city": "Fritch", "addr:state": "TX", "addr:postcode": "79036", "addr:country": "US", "name": "Allsup's", "phone": "(806) 857-2246"}, "geometry": {"type": "Point", "coordinates": [-101.59216, 35.645604]}},
{"type": "Feature", "id": "uymiQjc3oNbYBBTVbxxKzCmeQBw=", "properties": {"ref": "102225", "@spider": "allsups", "addr:full": "1411 West Highway 60", "addr:city": "Friona", "addr:state": "TX", "addr:postcode": "79035", "addr:country": "US", "name": "Allsup's", "phone": "(806) 247-8009"}, "geometry": {"type": "Point", "coordinates": [-102.735104, 34.638485]}},
{"type": "Feature", "id": "IyOpUNtVywO1p8eG-QKfFpzbYyY=", "properties": {"ref": "102275", "@spider": "allsups", "addr:full": "230 Avenue D", "addr:city": "Grandfalls", "addr:state": "TX", "addr:postcode": "79742", "addr:country": "US", "name": "Allsup's", "phone": "(432) 547-2969"}, "geometry": {"type": "Point", "coordinates": [-102.852148, 31.344282]}},
{"type": "Feature", "id": "MFL7_xFfPP4k7rWa3025hJpTSfw=", "properties": {"ref": "102323", "@spider": "allsups", "addr:full": "2819 Hwy 16 South", "addr:city": "Graham", "addr:state": "TX", "addr:postcode": "76450", "addr:country": "US", "name": "Allsup's", "phone": "(940) 549-9963"}, "geometry": {"type": "Point", "coordinates": [-98.580142, 33.073863]}},
{"type": "Feature", "id": "CcevQHVvS-8G_HCt3Lxh_tNTdRg=", "properties": {"ref": "102074", "@spider": "allsups", "addr:full": "315 Main Street", "addr:city": "Hale Center", "addr:state": "TX", "addr:postcode": "79041", "addr:country": "US", "name": "Allsup's", "phone": "(806) 839-2288"}, "geometry": {"type": "Point", "coordinates": [-101.845761, 34.060843]}},
{"type": "Feature", "id": "u91LXrx17mulh_C5Hh5MKPxU5sQ=", "properties": {"ref": "102172", "@spider": "allsups", "addr:full": "101 North Main Street", "addr:city": "Gruver", "addr:state": "TX", "addr:postcode": "79040", "addr:country": "US", "name": "Allsup's", "phone": "(806) 733-2953"}, "geometry": {"type": "Point", "coordinates": [-101.40504, 36.268779]}},
{"type": "Feature", "id": "GsuxRot6kAGEgIppq03aq0VMGc8=", "properties": {"ref": "102079", "@spider": "allsups", "addr:full": "410 West Front Street", "addr:city": "Groom", "addr:state": "TX", "addr:postcode": "79039", "addr:country": "US", "name": "Allsup's", "phone": "(806) 248-7074"}, "geometry": {"type": "Point", "coordinates": [-101.112665, 35.201867]}},
{"type": "Feature", "id": "VClkd_LB_zclq4Wif4b9p3sCFbs=", "properties": {"ref": "102122", "@spider": "allsups", "addr:full": "444 West Lake Drive", "addr:city": "Hamlin", "addr:state": "TX", "addr:postcode": "79520", "addr:country": "US", "name": "Allsup's", "phone": "(325) 576-2721"}, "geometry": {"type": "Point", "coordinates": [-100.132219, 32.883876]}},
{"type": "Feature", "id": "_eJ89ISWdXuAH96BRLlyRMnKWjE=", "properties": {"ref": "102226", "@spider": "allsups", "addr:full": "218 South Rice", "addr:city": "Hamilton", "addr:state": "TX", "addr:postcode": "76531", "addr:country": "US", "name": "Allsup's", "phone": "(254) 386-8732"}, "geometry": {"type": "Point", "coordinates": [-98.124318, 31.702101]}},
{"type": "Feature", "id": "us6ieb2lQGoDlELtsA8jWdqtDxI=", "properties": {"ref": "102112", "@spider": "allsups", "addr:full": "316 North 25 Mile Ave", "addr:city": "Hereford", "addr:state": "TX", "addr:postcode": "79045", "addr:country": "US", "name": "Allsup's", "phone": "(806) 364-4331"}, "geometry": {"type": "Point", "coordinates": [-102.405322, 34.830074]}},
{"type": "Feature", "id": "c0KyvuQiZpp99X4QTGyyI3U8oCA=", "properties": {"ref": "102174", "@spider": "allsups", "addr:full": "301 Omega Street", "addr:city": "Henrietta", "addr:state": "TX", "addr:postcode": "76365", "addr:country": "US", "name": "Allsup's", "phone": "(940) 538-5872"}, "geometry": {"type": "Point", "coordinates": [-98.192962, 33.814516]}},
{"type": "Feature", "id": "GZjILzZ5SkP3StCUgfry9Hgh5tw=", "properties": {"ref": "102153", "@spider": "allsups", "addr:full": "1000 North Avenue E", "addr:city": "Haskell", "addr:state": "TX", "addr:postcode": "79521", "addr:country": "US", "name": "Allsup's", "phone": "(940) 864-2519"}, "geometry": {"type": "Point", "coordinates": [-99.733544, 33.166578]}},
{"type": "Feature", "id": "7_DGX4z7mTsOgyJG7erY9wcNTvU=", "properties": {"ref": "102305", "@spider": "allsups", "addr:full": "1303 East 1st Street", "addr:city": "Hereford", "addr:state": "TX", "addr:postcode": "79045", "addr:country": "US", "name": "Allsup's", "phone": "(806) 364-8008"}, "geometry": {"type": "Point", "coordinates": [-102.384942, 34.82162]}},
{"type": "Feature", "id": "4ute_0qLJNwHqD14ein9UWZw-u8=", "properties": {"ref": "102167", "@spider": "allsups", "addr:full": "515 South 25 Mile Ave", "addr:city": "Hereford", "addr:state": "TX", "addr:postcode": "79045", "addr:country": "US", "name": "Allsup's", "phone": "(806) 364-6119"}, "geometry": {"type": "Point", "coordinates": [-102.40609, 34.81684]}},
{"type": "Feature", "id": "IuF5yoR79bb6rVxym6t-I4u3d4I=", "properties": {"ref": "102113", "@spider": "allsups", "addr:full": "529 Avenue H", "addr:city": "Hereford", "addr:state": "TX", "addr:postcode": "79045", "addr:country": "US", "name": "Allsup's", "phone": "(806) 364-0837"}, "geometry": {"type": "Point", "coordinates": [-102.393442, 34.836199]}},
{"type": "Feature", "id": "z23IPxrAcrX7xr4k23hXPEoMQ58=", "properties": {"ref": "102043", "@spider": "allsups", "addr:full": "202 West 1st", "addr:city": "Idalou", "addr:state": "TX", "addr:postcode": "79329", "addr:country": "US", "name": "Allsup's", "phone": "(806) 892-3222"}, "geometry": {"type": "Point", "coordinates": [-101.682013, 33.666406]}},
{"type": "Feature", "id": "W2eX9gqM5qNd7_wJ_zEDMROJa-w=", "properties": {"ref": "102273", "@spider": "allsups", "addr:full": "300 West Olive", "addr:city": "Holliday", "addr:state": "TX", "addr:postcode": "76366", "addr:country": "US", "name": "Allsup's", "phone": "(940) 586-0285"}, "geometry": {"type": "Point", "coordinates": [-98.697819, 33.815553]}},
{"type": "Feature", "id": "vz7qsFwhu-2yBtGmZHrvhbtPEgs=", "properties": {"ref": "102276", "@spider": "allsups", "addr:full": "7452 S. Highway 84", "addr:city": "Hermleigh", "addr:state": "TX", "addr:postcode": "79526", "addr:country": "US", "name": "Allsup's", "phone": "(325) 863-2412"}, "geometry": {"type": "Point", "coordinates": [-100.76373, 32.63477]}},
{"type": "Feature", "id": "QWJOn-kBh6pcX7a1pV8m5CpQNsA=", "properties": {"ref": "102327", "@spider": "allsups", "addr:full": "311 N. Main", "addr:city": "Jacksboro", "addr:state": "TX", "addr:postcode": "76458", "addr:country": "US", "name": "Allsup's", "phone": "(940) 567-5557"}, "geometry": {"type": "Point", "coordinates": [-98.159234, 33.220712]}},
{"type": "Feature", "id": "pMd4u0s9dKyDT3huWhpF__qVog4=", "properties": {"ref": "102253", "@spider": "allsups", "addr:full": "120 E. Sixth St", "addr:city": "Iraan", "addr:state": "TX", "addr:postcode": "79744", "addr:country": "US", "name": "Allsup's", "phone": "(432) 639-2531"}, "geometry": {"type": "Point", "coordinates": [-101.899017, 30.914417]}},
{"type": "Feature", "id": "zkEFDlcorBkC_LSWjeQlvcS5SO0=", "properties": {"ref": "102279", "@spider": "allsups", "addr:full": "100 South East Ave", "addr:city": "Kermit", "addr:state": "TX", "addr:postcode": "79745", "addr:country": "US", "name": "Allsup's", "phone": "(432) 586-5555"}, "geometry": {"type": "Point", "coordinates": [-103.083202, 31.860589]}},
{"type": "Feature", "id": "RBAIVZHnGWyPC7gDqaIOAH7H1Fo=", "properties": {"ref": "102278", "@spider": "allsups", "addr:full": "Bellaire Rd & Hwy 302", "addr:city": "Kermit", "addr:state": "TX", "addr:postcode": "79745", "addr:country": "US", "name": "Allsup's", "phone": "(432) 586-5015"}, "geometry": {"type": "Point", "coordinates": [-103.090317, 31.846443]}},
{"type": "Feature", "id": "aUqfZAtpZuzuPeRtEsJ3oUn-bjc=", "properties": {"ref": "102238", "@spider": "allsups", "addr:full": "952 S. FM 156 Hwy", "addr:city": "Justin", "addr:state": "TX", "addr:postcode": "76247", "addr:country": "US", "name": "Allsup's", "phone": "(940) 648-1521"}, "geometry": {"type": "Point", "coordinates": [-97.296144, 33.070187]}},
{"type": "Feature", "id": "GX6hshPtQeHKeVMKifml6kyiAns=", "properties": {"ref": "102151", "@spider": "allsups", "addr:full": "212 S. College Ave", "addr:city": "Levelland", "addr:state": "TX", "addr:postcode": "79336", "addr:country": "US", "name": "Allsup's", "phone": "(806) 894-1234"}, "geometry": {"type": "Point", "coordinates": [-102.367511, 33.594038]}},
{"type": "Feature", "id": "3PCQw4aChWeiv1BS5DYz04pODpY=", "properties": {"ref": "102040", "@spider": "allsups", "addr:full": "102 Main Street", "addr:city": "Lake Dallas", "addr:state": "TX", "addr:postcode": "75065", "addr:country": "US", "name": "Allsup's", "phone": "(940) 497-4092"}, "geometry": {"type": "Point", "coordinates": [-97.028443, 33.118782]}},
{"type": "Feature", "id": "65x2kgnS1Z43s8Hm6GvWNE1W5oc=", "properties": {"ref": "102102", "@spider": "allsups", "addr:full": "105 South Central Ave", "addr:city": "Knox City", "addr:state": "TX", "addr:postcode": "79529", "addr:country": "US", "name": "Allsup's", "phone": "(940) 658-3481"}, "geometry": {"type": "Point", "coordinates": [-99.819249, 33.41177]}},
{"type": "Feature", "id": "vsxFwcaUbXtUmYBlj8w4HQW4Acg=", "properties": {"ref": "102085", "@spider": "allsups", "addr:full": "229 Hwy 62 & 82", "addr:city": "Lorenzo", "addr:state": "TX", "addr:postcode": "79343", "addr:country": "US", "name": "Allsup's", "phone": "(806) 634-8246"}, "geometry": {"type": "Point", "coordinates": [-101.528632, 33.666942]}},
{"type": "Feature", "id": "D5naK--SGES3NSUNXL8ZXEm2qYI=", "properties": {"ref": "102059", "@spider": "allsups", "addr:full": "209 South Main Street", "addr:city": "Lockney", "addr:state": "TX", "addr:postcode": "79241", "addr:country": "US", "name": "Allsup's", "phone": "(806) 652-3727"}, "geometry": {"type": "Point", "coordinates": [-101.441372, 34.123303]}},
{"type": "Feature", "id": "q28HCOGfMJH9wgs1bjGcPmAq4Xc=", "properties": {"ref": "102288", "@spider": "allsups", "addr:full": "1000 South Burleson", "addr:city": "McCamey", "addr:state": "TX", "addr:postcode": "79752", "addr:country": "US", "name": "Allsup's", "phone": "(432) 652-8636"}, "geometry": {"type": "Point", "coordinates": [-102.221625, 31.128369]}},
{"type": "Feature", "id": "itbhinMd9aZlCQRLr-Gr_SmoBlg=", "properties": {"ref": "102242", "@spider": "allsups", "addr:full": "1220 Bailey", "addr:city": "Matador", "addr:state": "TX", "addr:postcode": "79244", "addr:country": "US", "name": "Allsup's", "phone": "(806) 347-2373"}, "geometry": {"type": "Point", "coordinates": [-100.828657, 34.011869]}},
{"type": "Feature", "id": "cJ8LKqhe943tHj0HHvstHOPbZIo=", "properties": {"ref": "102016", "@spider": "allsups", "addr:full": "602 South Main Street", "addr:city": "Morton", "addr:state": "TX", "addr:postcode": "79346", "addr:country": "US", "name": "Allsup's", "phone": "(806) 266-5801"}, "geometry": {"type": "Point", "coordinates": [-102.759498, 33.72005]}},
{"type": "Feature", "id": "wXBNn8HAhrOeGm-2NvXhrD7RJH4=", "properties": {"ref": "102280", "@spider": "allsups", "addr:full": "200 West Sealy Ave", "addr:city": "Monahans", "addr:state": "TX", "addr:postcode": "79756", "addr:country": "US", "name": "Allsup's", "phone": "(432) 943-2255"}, "geometry": {"type": "Point", "coordinates": [-102.894363, 31.593859]}},
{"type": "Feature", "id": "5tjc1QafcRQqUx_SqD256Mc2OaQ=", "properties": {"ref": "102056", "@spider": "allsups", "addr:full": "1014 North Boykin Dr", "addr:city": "Memphis", "addr:state": "TX", "addr:postcode": "79245", "addr:country": "US", "name": "Allsup's", "phone": "(806) 259-2391"}, "geometry": {"type": "Point", "coordinates": [-100.542796, 34.733211]}},
{"type": "Feature", "id": "SJ79umbspC4c_2NkWlp0HlBJaMo=", "properties": {"ref": "102104", "@spider": "allsups", "addr:full": "120 South Birch Ave", "addr:city": "Munday", "addr:state": "TX", "addr:postcode": "76371", "addr:country": "US", "name": "Allsup's", "phone": "(940) 422-5368"}, "geometry": {"type": "Point", "coordinates": [-99.622565, 33.448841]}},
{"type": "Feature", "id": "f_dQYMmIrJIkPuUhMKwn93CPHzg=", "properties": {"ref": "102114", "@spider": "allsups", "addr:full": "1125 West American Blvd", "addr:city": "Muleshoe", "addr:state": "TX", "addr:postcode": "79347", "addr:country": "US", "name": "Allsup's", "phone": "(806) 272-7665"}, "geometry": {"type": "Point", "coordinates": [-102.735109, 34.232218]}},
{"type": "Feature", "id": "4gu201ZvPflNP9HphPYxOfsrX_Y=", "properties": {"ref": "102227", "@spider": "allsups", "addr:full": "803 East Fillmore", "addr:city": "Morton", "addr:state": "TX", "addr:postcode": "79346", "addr:country": "US", "name": "Allsup's", "phone": "(806) 266-5845"}, "geometry": {"type": "Point", "coordinates": [-102.750429, 33.722873]}},
{"type": "Feature", "id": "kYOBhlquyZynd1KicU0ZJ9_bOoI=", "properties": {"ref": "102274", "@spider": "allsups", "addr:full": "401 West Main Street", "addr:city": "Olney", "addr:state": "TX", "addr:postcode": "76374", "addr:country": "US", "name": "Allsup's", "phone": "(940) 564-2259"}, "geometry": {"type": "Point", "coordinates": [-98.75775, 33.370356]}},
{"type": "Feature", "id": "-CNF9qzrRxYB_YzYHIC0dNnicUg=", "properties": {"ref": "102100", "@spider": "allsups", "addr:full": "3037 US Hwy 87", "addr:city": "O'Donnell", "addr:state": "TX", "addr:postcode": "79351", "addr:country": "US", "name": "Allsup's", "phone": "(806) 428-3532"}, "geometry": {"type": "Point", "coordinates": [-101.835263, 32.971031]}},
{"type": "Feature", "id": "COq3DsfZQvQCJmgs8IiCaFFmaIo=", "properties": {"ref": "102055", "@spider": "allsups", "addr:full": "1900 N. Hobart Street", "addr:city": "Pampa", "addr:state": "TX", "addr:postcode": "79065", "addr:country": "US", "name": "Allsup's", "phone": "(806) 665-6137"}, "geometry": {"type": "Point", "coordinates": [-100.971715, 35.556804]}},
{"type": "Feature", "id": "ey0Sh8C8xZ2g1uSJnB_vV66BOek=", "properties": {"ref": "102060", "@spider": "allsups", "addr:full": "1602 Easly", "addr:city": "Paducah", "addr:state": "TX", "addr:postcode": "79248", "addr:country": "US", "name": "Allsup's", "phone": "(806) 492-3947"}, "geometry": {"type": "Point", "coordinates": [-100.309834, 34.012335]}},
{"type": "Feature", "id": "qPVIA5yMV067QMjyTB0R4IHya-U=", "properties": {"ref": "102115", "@spider": "allsups", "addr:full": "712 1st Street", "addr:city": "Olton", "addr:state": "TX", "addr:postcode": "79064", "addr:country": "US", "name": "Allsup's", "phone": "(806) 285-3017"}, "geometry": {"type": "Point", "coordinates": [-102.137594, 34.188273]}},
{"type": "Feature", "id": "KwMxFrr0FknScGOhhSnct9JRkOY=", "properties": {"ref": "102081", "@spider": "allsups", "addr:full": "1025 West Wilks", "addr:city": "Pampa", "addr:state": "TX", "addr:postcode": "79065", "addr:country": "US", "name": "Allsup's", "phone": "(806) 665-7931"}, "geometry": {"type": "Point", "coordinates": [-100.973812, 35.525456]}},
{"type": "Feature", "id": "U8AwqFERJyI4ZQ7fafl-7_ZgF0I=", "properties": {"ref": "102077", "@spider": "allsups", "addr:full": "140 South Starkweather", "addr:city": "Pampa", "addr:state": "TX", "addr:postcode": "79065", "addr:country": "US", "name": "Allsup's", "phone": "(806) 665-5937"}, "geometry": {"type": "Point", "coordinates": [-100.956947, 35.537564]}},
{"type": "Feature", "id": "idKQ0oyD5fk3wA7FqAe4YQ0pq8Y=", "properties": {"ref": "102026", "@spider": "allsups", "addr:full": "610 Elsie Street", "addr:city": "Panhandle", "addr:state": "TX", "addr:postcode": "79068", "addr:country": "US", "name": "Allsup's", "phone": "(806) 537-3056"}, "geometry": {"type": "Point", "coordinates": [-101.380431, 35.347729]}},
{"type": "Feature", "id": "lTti_IoOi2eUCve9c1g9unlobVk=", "properties": {"ref": "102184", "@spider": "allsups", "addr:full": "205 Alcock", "addr:city": "Pampa", "addr:state": "TX", "addr:postcode": "79065", "addr:country": "US", "name": "Allsup's", "phone": "(806) 669-0722"}, "geometry": {"type": "Point", "coordinates": [-100.99009, 35.532813]}},
{"type": "Feature", "id": "Bpys1Tt2DSpGoCRiHqzeO2B5hyU=", "properties": {"ref": "102096", "@spider": "allsups", "addr:full": "309 Hobart Street", "addr:city": "Pampa", "addr:state": "TX", "addr:postcode": "79065", "addr:country": "US", "name": "Allsup's", "phone": "(806) 669-0331"}, "geometry": {"type": "Point", "coordinates": [-100.972355, 35.533575]}},
{"type": "Feature", "id": "8JezoiNLm4IYAfS0a5V9YbJpnZk=", "properties": {"ref": "102267", "@spider": "allsups", "addr:full": "2323 South Eddy Street", "addr:city": "Pecos", "addr:state": "TX", "addr:postcode": "79772", "addr:country": "US", "name": "Allsup's", "phone": "(432) 447-4915"}, "geometry": {"type": "Point", "coordinates": [-103.504066, 31.401285]}},
{"type": "Feature", "id": "9jf2Scll-611tsNnwUzpaqTEoDQ=", "properties": {"ref": "102266", "@spider": "allsups", "addr:full": "708 South Cedar", "addr:city": "Pecos", "addr:state": "TX", "addr:postcode": "79772", "addr:country": "US", "name": "Allsup's", "phone": "(432) 445-5905"}, "geometry": {"type": "Point", "coordinates": [-103.491802, 31.421457]}},
{"type": "Feature", "id": "wkxDyQA4DlbnKy_eXMnwUPrSFUs=", "properties": {"ref": "102313", "@spider": "allsups", "addr:full": "1153 U.S. Highway 377", "addr:city": "Pilot Point", "addr:state": "TX", "addr:postcode": "76258", "addr:country": "US", "name": "Allsup's", "phone": "(940) 686-5011"}, "geometry": {"type": "Point", "coordinates": [-96.95692, 33.3848]}},
{"type": "Feature", "id": "mLVV0gOlpsVE8C0bYGGBTmvahcM=", "properties": {"ref": "102072", "@spider": "allsups", "addr:full": "1110 Main Street", "addr:city": "Petersburg", "addr:state": "TX", "addr:postcode": "79250", "addr:country": "US", "name": "Allsup's", "phone": "(806) 667-3713"}, "geometry": {"type": "Point", "coordinates": [-101.597403, 33.874593]}},
{"type": "Feature", "id": "Xvz5XB3-kK2lf-UYaDNIzq1GztA=", "properties": {"ref": "102107", "@spider": "allsups", "addr:full": "601 South Jefferson", "addr:city": "Perryton", "addr:state": "TX", "addr:postcode": "79070", "addr:country": "US", "name": "Allsup's", "phone": "(806) 435-4537"}, "geometry": {"type": "Point", "coordinates": [-100.815121, 36.394059]}},
{"type": "Feature", "id": "ota0FnkX3BAu1Ar27d5GiJB4_uY=", "properties": {"ref": "102017", "@spider": "allsups", "addr:full": "608 Broadway", "addr:city": "Plainview", "addr:state": "TX", "addr:postcode": "79072", "addr:country": "US", "name": "Allsup's", "phone": "(806) 293-0042"}, "geometry": {"type": "Point", "coordinates": [-101.702673, 34.186051]}},
{"type": "Feature", "id": "-iY7JjzbcT0NCd4QSqb0Yghs2-E=", "properties": {"ref": "102367", "@spider": "allsups", "addr:full": "404 West 5th Street", "addr:city": "Plainview", "addr:state": "TX", "addr:postcode": "79072", "addr:country": "US", "name": "Allsup's", "phone": "(806) 291-0295"}, "geometry": {"type": "Point", "coordinates": [-101.707198, 34.184669]}},
{"type": "Feature", "id": "7AtbCmtASOE_gLZHfguHvfXHBwA=", "properties": {"ref": "102365", "@spider": "allsups", "addr:full": "1489 Highway 82", "addr:city": "Plains", "addr:state": "TX", "addr:postcode": "79355", "addr:country": "US", "name": "Allsup's", "phone": "(806) 456-2023"}, "geometry": {"type": "Point", "coordinates": [-102.816769, 33.184239]}},
{"type": "Feature", "id": "ZMg_j8fS4inerhwEIMHvI4_3jgQ=", "properties": {"ref": "102214", "@spider": "allsups", "addr:full": "4001 Olton Road", "addr:city": "Plainview", "addr:state": "TX", "addr:postcode": "79072", "addr:country": "US", "name": "Allsup's", "phone": "(806) 293-9749"}, "geometry": {"type": "Point", "coordinates": [-101.750917, 34.187339]}},
{"type": "Feature", "id": "89Mjoqo8to-N3ShB0sPZJikZLuY=", "properties": {"ref": "102023", "@spider": "allsups", "addr:full": "1307 West 24th St.", "addr:city": "Plainview", "addr:state": "TX", "addr:postcode": "79072", "addr:country": "US", "name": "Allsup's", "phone": "(806) 296-6037"}, "geometry": {"type": "Point", "coordinates": [-101.719395, 34.204669]}},
{"type": "Feature", "id": "2N5lKLuMf2cOtGSAMs6Ih9BRs4E=", "properties": {"ref": "102022", "@spider": "allsups", "addr:full": "2710 Olton Road", "addr:city": "Plainview", "addr:state": "TX", "addr:postcode": "79072", "addr:country": "US", "name": "Allsup's", "phone": "(806) 293-9992"}, "geometry": {"type": "Point", "coordinates": [-101.736479, 34.185671]}},
{"type": "Feature", "id": "H5nVIHHm7e6urVBarX8JfBkisUQ=", "properties": {"ref": "102061", "@spider": "allsups", "addr:full": "409 North Broadway", "addr:city": "Post", "addr:state": "TX", "addr:postcode": "79356", "addr:country": "US", "name": "Allsup's", "phone": "(806) 495-4146"}, "geometry": {"type": "Point", "coordinates": [-101.378517, 33.195581]}},
{"type": "Feature", "id": "FYIhOTLm-7jJBfhVvZRi4uAf5as=", "properties": {"ref": "102231", "@spider": "allsups", "addr:full": "5th Street & Date", "addr:city": "Plainview", "addr:state": "TX", "addr:postcode": "79072", "addr:country": "US", "name": "Allsup's", "phone": "(806) 293-9923"}, "geometry": {"type": "Point", "coordinates": [-101.697467, 34.185019]}},
{"type": "Feature", "id": "vwpkE87gzZ942VBHWgYnq4b02yo=", "properties": {"ref": "102054", "@spider": "allsups", "addr:full": "500 West 11th Street", "addr:city": "Quanah", "addr:state": "TX", "addr:postcode": "79252", "addr:country": "US", "name": "Allsup's", "phone": "(940) 663-5192"}, "geometry": {"type": "Point", "coordinates": [-99.746489, 34.290773]}},
{"type": "Feature", "id": "gkO32IKc0-2T7GbXgOIP9jQxOpQ=", "properties": {"ref": "102318", "@spider": "allsups", "addr:full": "105 E. Princeton Dr", "addr:city": "Princeton", "addr:state": "TX", "addr:postcode": "75407", "addr:country": "US", "name": "Allsup's", "phone": "(972) 736-1812"}, "geometry": {"type": "Point", "coordinates": [-96.499374, 33.173656]}},
{"type": "Feature", "id": "JIHkZXl_caTAfZ8-g-wkjYjF5QE=", "properties": {"ref": "102351", "@spider": "allsups", "addr:full": "819 Commerce St.", "addr:city": "Robert Lee", "addr:state": "TX", "addr:postcode": "76945", "addr:country": "US", "name": "Allsup's", "phone": "(325) 453-2047"}, "geometry": {"type": "Point", "coordinates": [-100.484249, 31.894438]}},
{"type": "Feature", "id": "BnqsXDUWNX0UUP1_GGF3WPUq7HQ=", "properties": {"ref": "102057", "@spider": "allsups", "addr:full": "1001 Main St", "addr:city": "Ralls", "addr:state": "TX", "addr:postcode": "79357", "addr:country": "US", "name": "Allsup's", "phone": "(806) 253-2721"}, "geometry": {"type": "Point", "coordinates": [-101.384486, 33.681491]}},
{"type": "Feature", "id": "JVBJefZjmfkiJsdZtpNk4gOgwBw=", "properties": {"ref": "102093", "@spider": "allsups", "addr:full": "115 West Main Street", "addr:city": "Quitaque", "addr:state": "TX", "addr:postcode": "79255", "addr:country": "US", "name": "Allsup's", "phone": "(806) 455-1368"}, "geometry": {"type": "Point", "coordinates": [-101.057166, 34.365794]}},
{"type": "Feature", "id": "TFfBa07eDmOtdoRy2VxPtIXBzZE=", "properties": {"ref": "102353", "@spider": "allsups", "addr:full": "514 North Main St", "addr:city": "San Angelo", "addr:state": "TX", "addr:postcode": "76905", "addr:country": "US", "name": "Allsup's", "phone": "(325) 658-7554"}, "geometry": {"type": "Point", "coordinates": [-100.431666, 31.47364]}},
{"type": "Feature", "id": "nHcihVXxd3aj_fohIUKpMhcDpYk=", "properties": {"ref": "102316", "@spider": "allsups", "addr:full": "5920 Highway 78", "addr:city": "Sachse", "addr:state": "TX", "addr:postcode": "75048", "addr:country": "US", "name": "Allsup's", "phone": "(972) 530-2653"}, "geometry": {"type": "Point", "coordinates": [-96.595107, 32.975896]}},
{"type": "Feature", "id": "MjyEXWJNMQ5-2ibnTssvNIIaeXU=", "properties": {"ref": "102091", "@spider": "allsups", "addr:full": "508 Union Avenue", "addr:city": "Rule", "addr:state": "TX", "addr:postcode": "79547", "addr:country": "US", "name": "Allsup's", "phone": "(940) 997-2358"}, "geometry": {"type": "Point", "coordinates": [-99.894257, 33.184102]}},
{"type": "Feature", "id": "PGz3u82CRtyFp-1LdKK46_Uopjc=", "properties": {"ref": "102371", "@spider": "allsups", "addr:full": "8222 Hwy 87 North", "addr:city": "San Angelo", "addr:state": "TX", "addr:postcode": "76901", "addr:country": "US", "name": "Allsup's", "phone": "(325) 481-0966"}, "geometry": {"type": "Point", "coordinates": [-100.437038, 31.463772]}},
{"type": "Feature", "id": "P5L3Q2q1fVioDM3DQKOZ3i15_BI=", "properties": {"ref": "102357", "@spider": "allsups", "addr:full": "4301 College Hills Blvd", "addr:city": "San Angelo", "addr:state": "TX", "addr:postcode": "76904", "addr:country": "US", "name": "Allsup's", "phone": "(325) 949-9700"}, "geometry": {"type": "Point", "coordinates": [-100.485621, 31.419659]}},
{"type": "Feature", "id": "LruqPieq7toRxbzaZsD7ou9x-ow=", "properties": {"ref": "102354", "@spider": "allsups", "addr:full": "3808 Arden Road", "addr:city": "San Angelo", "addr:state": "TX", "addr:postcode": "76901", "addr:country": "US", "name": "Allsup's", "phone": "(325) 944-3323"}, "geometry": {"type": "Point", "coordinates": [-100.488664, 31.448567]}},
{"type": "Feature", "id": "LROgy7bdkOtmkxTLdxqahGHu07I=", "properties": {"ref": "102178", "@spider": "allsups", "addr:full": "1107 Railroad Avenue", "addr:city": "Seagraves", "addr:state": "TX", "addr:postcode": "79359", "addr:country": "US", "name": "Allsup's", "phone": "(806) 546-2068"}, "geometry": {"type": "Point", "coordinates": [-102.55804, 32.943978]}},
{"type": "Feature", "id": "FfTK_G8PZh4qikNCvuhX9hQS8FY=", "properties": {"ref": "102196", "@spider": "allsups", "addr:full": "1000 Wallis", "addr:city": "Santa Anna", "addr:state": "TX", "addr:postcode": "76878", "addr:country": "US", "name": "Allsup's", "phone": "(325) 348-3195"}, "geometry": {"type": "Point", "coordinates": [-99.327309, 31.742499]}},
{"type": "Feature", "id": "eZz2khAhY5JITbB9GlmnQOSBdOE=", "properties": {"ref": "102309", "@spider": "allsups", "addr:full": "310 South Main Street", "addr:city": "Seymour", "addr:state": "TX", "addr:postcode": "76380", "addr:country": "US", "name": "Allsup's", "phone": "(940) 888-5692"}, "geometry": {"type": "Point", "coordinates": [-99.260759, 33.585168]}},
{"type": "Feature", "id": "bLc34Ww_oByuiv7yLI_4Q68_a9w=", "properties": {"ref": "102264", "@spider": "allsups", "addr:full": "1101 Hobbs Hwy", "addr:city": "Seminole", "addr:state": "TX", "addr:postcode": "79360", "addr:country": "US", "name": "Allsup's", "phone": "(432) 758-6331"}, "geometry": {"type": "Point", "coordinates": [-102.657552, 32.720232]}},
{"type": "Feature", "id": "imVVlblF0cAE3mEaNX7aCxXAhhw=", "properties": {"ref": "102106", "@spider": "allsups", "addr:full": "704 South Main Street", "addr:city": "Seminole", "addr:state": "TX", "addr:postcode": "79360", "addr:country": "US", "name": "Allsup's", "phone": "(432) 758-9888"}, "geometry": {"type": "Point", "coordinates": [-102.645316, 32.710894]}},
{"type": "Feature", "id": "yKnaBG56avcW7eodO0E13GhOanE=", "properties": {"ref": "102192", "@spider": "allsups", "addr:full": "600 W. Lone Star", "addr:city": "Silverton", "addr:state": "TX", "addr:postcode": "79257", "addr:country": "US", "name": "Allsup's", "phone": "(806) 823-2564"}, "geometry": {"type": "Point", "coordinates": [-101.304472, 34.474392]}},
{"type": "Feature", "id": "ZSHFNjMsig5Hu3aonureHwxwFGI=", "properties": {"ref": "102076", "@spider": "allsups", "addr:full": "811 North Main Street", "addr:city": "Shamrock", "addr:state": "TX", "addr:postcode": "79079", "addr:country": "US", "name": "Allsup's", "phone": "(806) 256-3458"}, "geometry": {"type": "Point", "coordinates": [-100.249585, 35.222558]}},
{"type": "Feature", "id": "BC_DrKAV_H4L2CVsgu5Pm0XX28Q=", "properties": {"ref": "102159", "@spider": "allsups", "addr:full": "700 North Main Street", "addr:city": "Seymour", "addr:state": "TX", "addr:postcode": "76380", "addr:country": "US", "name": "Allsup's", "phone": "(940) 888-3552"}, "geometry": {"type": "Point", "coordinates": [-99.260166, 33.594619]}},
{"type": "Feature", "id": "JE-I-MQR6-KJKJskJpxSlrQ_L-I=", "properties": {"ref": "102019", "@spider": "allsups", "addr:full": "305 West Kenneth", "addr:city": "Spearman", "addr:state": "TX", "addr:postcode": "79081", "addr:country": "US", "name": "Allsup's", "phone": "(806) 659-3135"}, "geometry": {"type": "Point", "coordinates": [-101.196956, 36.197924]}},
{"type": "Feature", "id": "xtFPvuH9n3fXcFNP0pWzneEW7tk=", "properties": {"ref": "102180", "@spider": "allsups", "addr:full": "3200 Lamesa Highway #1", "addr:city": "Snyder", "addr:state": "TX", "addr:postcode": "79579", "addr:country": "US", "name": "Allsup's", "phone": "(325) 574-6800"}, "geometry": {"type": "Point", "coordinates": [-100.932913, 32.717009]}},
{"type": "Feature", "id": "LRLFUji9GkLR0NO1l1HXQF8bQqE=", "properties": {"ref": "102229", "@spider": "allsups", "addr:full": "150 East South Loop", "addr:city": "Stephenville", "addr:state": "AL", "addr:postcode": "76401", "addr:country": "US", "name": "Allsup's", "phone": "(254) 918-2457"}, "geometry": {"type": "Point", "coordinates": [-98.195114, 32.211558]}},
{"type": "Feature", "id": "PKtVEAZoO7NlDWhdyluJmprnPNI=", "properties": {"ref": "102212", "@spider": "allsups", "addr:full": "913 East Hamilton", "addr:city": "Stamford", "addr:state": "TX", "addr:postcode": "79553", "addr:country": "US", "name": "Allsup's", "phone": "(325) 773-5597"}, "geometry": {"type": "Point", "coordinates": [-99.789242, 32.943443]}},
{"type": "Feature", "id": "UZyoiEw5eGONX6gTFt8fx_DG6Fs=", "properties": {"ref": "102082", "@spider": "allsups", "addr:full": "322 West Hill Street", "addr:city": "Spur", "addr:state": "TX", "addr:postcode": "79370", "addr:country": "US", "name": "Allsup's", "phone": "(806) 271-4122"}, "geometry": {"type": "Point", "coordinates": [-100.85606, 33.483136]}},
{"type": "Feature", "id": "ChBcEXmxqOqxHYlh2a18gP7TsJY=", "properties": {"ref": "102360", "@spider": "allsups", "addr:full": "2025 NW Loop", "addr:city": "Stephenville", "addr:state": "TX", "addr:postcode": "76401", "addr:country": "US", "name": "Allsup's", "phone": "(254) 965-4685"}, "geometry": {"type": "Point", "coordinates": [-98.233432, 32.224515]}},
{"type": "Feature", "id": "1GMel0tGoy4_dOuSJXd--dn3yYc=", "properties": {"ref": "102359", "@spider": "allsups", "addr:full": "2725 West Washington", "addr:city": "Stephenville", "addr:state": "TX", "addr:postcode": "76401", "addr:country": "US", "name": "Allsup's", "phone": "(254) 965-8659"}, "geometry": {"type": "Point", "coordinates": [-98.232958, 32.20634]}},
{"type": "Feature", "id": "sJz3u4UtmRZ_8fOGdJdMRTwnP-w=", "properties": {"ref": "102249", "@spider": "allsups", "addr:full": "1201 E. Washington", "addr:city": "Stephenville", "addr:state": "TX", "addr:postcode": "76401", "addr:country": "US", "name": "Allsup's", "phone": "(254) 918-2158"}, "geometry": {"type": "Point", "coordinates": [-98.190547, 32.227738]}},
{"type": "Feature", "id": "uXtaJ_3gG7DgK0t_oQTwfRdq5yE=", "properties": {"ref": "102116", "@spider": "allsups", "addr:full": "711 E. Hwy 84E", "addr:city": "Sudan", "addr:state": "TX", "addr:postcode": "79371", "addr:country": "US", "name": "Allsup's", "phone": "(806) 227-2254"}, "geometry": {"type": "Point", "coordinates": [-102.517786, 34.063597]}},
{"type": "Feature", "id": "ZUraPYdXFz8Em1R1-0mpIwchHoc=", "properties": {"ref": "102361", "@spider": "allsups", "addr:full": "10 S. Maple", "addr:city": "Stratford", "addr:state": "TX", "addr:postcode": "79084", "addr:country": "US", "name": "Allsup's", "phone": "(806) 396-1180"}, "geometry": {"type": "Point", "coordinates": [-102.072633, 36.332054]}},
{"type": "Feature", "id": "RtRaGgloMaNAI-1yLAzEbT9gTvU=", "properties": {"ref": "102027", "@spider": "allsups", "addr:full": "525 South Main Street", "addr:city": "Stinnett", "addr:state": "TX", "addr:postcode": "79083", "addr:country": "US", "name": "Allsup's", "phone": "(806) 878-3746"}, "geometry": {"type": "Point", "coordinates": [-101.442951, 35.82043]}},
{"type": "Feature", "id": "rbaChjnRiNpKT1WeUdnBRUyEqzg=", "properties": {"ref": "102173", "@spider": "allsups", "addr:full": "300 E. Broadway", "addr:city": "Sweetwater", "addr:state": "TX", "addr:postcode": "79556", "addr:country": "US", "name": "Allsup's", "phone": "(325) 236-6839"}, "geometry": {"type": "Point", "coordinates": [-100.405419, 32.470898]}},
{"type": "Feature", "id": "lyobb3tkzuui2-SbVnThzS9Vht0=", "properties": {"ref": "102088", "@spider": "allsups", "addr:full": "700 Main Street", "addr:city": "Sunray", "addr:state": "TX", "addr:postcode": "79086", "addr:country": "US", "name": "Allsup's", "phone": "(806) 948-5313"}, "geometry": {"type": "Point", "coordinates": [-101.82481, 36.017679]}},
{"type": "Feature", "id": "isRJllgtRf42JG4D5TyGh2qxdjg=", "properties": {"ref": "102111", "@spider": "allsups", "addr:full": "425 Hwy 87 South", "addr:city": "Texline", "addr:state": "TX", "addr:postcode": "79087", "addr:country": "US", "name": "Allsup's", "phone": "(806) 362-4790"}, "geometry": {"type": "Point", "coordinates": [-103.018547, 36.374453]}},
{"type": "Feature", "id": "ZOn3JaE78N5UUcyp3Av6REViM_M=", "properties": {"ref": "102182", "@spider": "allsups", "addr:full": "1800 Lockwood St", "addr:city": "Tahoka", "addr:state": "TX", "addr:postcode": "79373", "addr:country": "US", "name": "Allsup's", "phone": "(806) 998-4048"}, "geometry": {"type": "Point", "coordinates": [-101.800282, 33.166851]}},
{"type": "Feature", "id": "dXgjbZFN52GgmTJ6KNJq5rp1O_U=", "properties": {"ref": "102029", "@spider": "allsups", "addr:full": "806 Northwest 6th St", "addr:city": "Tulia", "addr:state": "TX", "addr:postcode": "79088", "addr:country": "US", "name": "Allsup's", "phone": "(806) 995-2227"}, "geometry": {"type": "Point", "coordinates": [-101.774726, 34.543572]}},
{"type": "Feature", "id": "FRnkjmJk9WgBDRC67uf2YQFiT9c=", "properties": {"ref": "102028", "@spider": "allsups", "addr:full": "517 Southwest 2nd St", "addr:city": "Tulia", "addr:state": "TX", "addr:postcode": "79088", "addr:country": "US", "name": "Allsup's", "phone": "(806) 995-2213"}, "geometry": {"type": "Point", "coordinates": [-101.77072, 34.535622]}},
{"type": "Feature", "id": "GBHBWXxgknB_KzLHNIQ5eTpL7dE=", "properties": {"ref": "102221", "@spider": "allsups", "addr:full": "102 S. Minter Ave", "addr:city": "Throckmorton", "addr:state": "TX", "addr:postcode": "76483", "addr:country": "US", "name": "Allsup's", "phone": "(940) 849-3003"}, "geometry": {"type": "Point", "coordinates": [-99.176906, 33.178333]}},
{"type": "Feature", "id": "6GQX5GqRk4qQrIqJomD-yXcIWks=", "properties": {"ref": "102228", "@spider": "allsups", "addr:full": "601 Graham St.", "addr:city": "Tuscola", "addr:state": "TX", "addr:postcode": "79562", "addr:country": "US", "name": "Allsup's", "phone": "(325) 554-7523"}, "geometry": {"type": "Point", "coordinates": [-99.797936, 32.209338]}},
{"type": "Feature", "id": "JzN5vzu2NS7U-lU87K2we2XgMSY=", "properties": {"ref": "102237", "@spider": "allsups", "addr:full": "100 N. 9th", "addr:city": "Turkey", "addr:state": "TX", "addr:postcode": "79261", "addr:country": "US", "name": "Allsup's", "phone": "(806) 423-1239"}, "geometry": {"type": "Point", "coordinates": [-100.889956, 34.393835]}},
{"type": "Feature", "id": "-AjYX7OpX9qfGvbHlLqXkyqSNYU=", "properties": {"ref": "102066", "@spider": "allsups", "addr:full": "2730 South Main Street", "addr:city": "Vernon", "addr:state": "TX", "addr:postcode": "76384", "addr:country": "US", "name": "Allsup's", "phone": "(940) 552-6937"}, "geometry": {"type": "Point", "coordinates": [-99.284713, 34.143711]}},
{"type": "Feature", "id": "Goyx-quMrOhftFKX0mS9oVXFJUE=", "properties": {"ref": "102304", "@spider": "allsups", "addr:full": "1000 S. Main", "addr:city": "Vega", "addr:state": "TX", "addr:postcode": "79092", "addr:country": "US", "name": "Allsup's", "phone": "(806) 267-2551"}, "geometry": {"type": "Point", "coordinates": [-102.428748, 35.237941]}},
{"type": "Feature", "id": "UScOgwSB5p-BoTnGi9dL-9gEhn0=", "properties": {"ref": "102168", "@spider": "allsups", "addr:full": "710 N. Hwy 83", "addr:city": "Wellington", "addr:state": "TX", "addr:postcode": "79095", "addr:country": "US", "name": "Allsup's", "phone": "(806) 447-2819"}, "geometry": {"type": "Point", "coordinates": [-100.20432, 34.856532]}},
{"type": "Feature", "id": "fDdTGhiKsh4f7s19KQRqGz6iBxk=", "properties": {"ref": "102049", "@spider": "allsups", "addr:full": "1410 West Avenue", "addr:city": "Wellington", "addr:state": "TX", "addr:postcode": "79095", "addr:country": "US", "name": "Allsup's", "phone": "(806) 447-2148"}, "geometry": {"type": "Point", "coordinates": [-100.213844, 34.849445]}},
{"type": "Feature", "id": "KEivNo--BpUv10NxQBxRkgz6KQg=", "properties": {"ref": "102358", "@spider": "allsups", "addr:full": "9533 Hwy 87 South", "addr:city": "Wall", "addr:state": "TX", "addr:postcode": "76957", "addr:country": "US", "name": "Allsup's", "phone": "(325) 651-7707"}, "geometry": {"type": "Point", "coordinates": [-100.307529, 31.374045]}},
{"type": "Feature", "id": "yj1pHfTa7EKga1kHh_hTt68V1q4=", "properties": {"ref": "102148", "@spider": "allsups", "addr:full": "Hwy 377 North", "addr:city": "Whitesboro", "addr:state": "TX", "addr:postcode": "76273", "addr:country": "US", "name": "Allsup's", "phone": "(903) 564-6003"}, "geometry": {"type": "Point", "coordinates": [-96.906575, 33.672649]}},
{"type": "Feature", "id": "yNIIxqCinUTXx4U3xX0h4Zww3pY=", "properties": {"ref": "102078", "@spider": "allsups", "addr:full": "503 West 2nd Street", "addr:city": "White Deer", "addr:state": "TX", "addr:postcode": "79097", "addr:country": "US", "name": "Allsup's", "phone": "(806) 883-2048"}, "geometry": {"type": "Point", "coordinates": [-101.178357, 35.432296]}},
{"type": "Feature", "id": "ITDUQJvAQ-amlh6xsbmmRp-GD10=", "properties": {"ref": "102283", "@spider": "allsups", "addr:full": "402 South O'Brien", "addr:city": "Wickett", "addr:state": "TX", "addr:postcode": "79788", "addr:country": "US", "name": "Allsup's", "phone": "(432) 943-2445"}, "geometry": {"type": "Point", "coordinates": [-103.0015899, 31.5713454]}},
{"type": "Feature", "id": "NOWW4HT1_R6k1xWnGIjp_gaSuR4=", "properties": {"ref": "102095", "@spider": "allsups", "addr:full": "822 N. Scenic Dr", "addr:city": "Alamogordo", "addr:state": "NM", "addr:postcode": "88310", "addr:country": "US", "name": "Allsup's", "phone": "(575) 434-3499"}, "geometry": {"type": "Point", "coordinates": [-105.929837, 32.898193]}},
{"type": "Feature", "id": "rRAyRtH3FkbMqmk6mRVqLNeZr6k=", "properties": {"ref": "102009", "@spider": "allsups", "addr:full": "1300 E Indian Wells Rd", "addr:city": "Alamogordo", "addr:state": "NM", "addr:postcode": "88310", "addr:country": "US", "name": "Allsup's", "phone": "(575) 437-6203"}, "geometry": {"type": "Point", "coordinates": [-105.946396, 32.914934]}},
{"type": "Feature", "id": "pxXIvYaOi3JJQuHEoODClwPVmgI=", "properties": {"ref": "102152", "@spider": "allsups", "addr:full": "2801 Coors Blvd. SW", "addr:city": "Albuquerque", "addr:state": "NM", "addr:postcode": "87110", "addr:country": "US", "name": "Allsup's", "phone": "(505) 877-9340"}, "geometry": {"type": "Point", "coordinates": [-106.712891, 35.0363]}},
{"type": "Feature", "id": "S1YbNmzswGtMWRX0hFyzx6SV4X0=", "properties": {"ref": "102338", "@spider": "allsups", "addr:full": "100 N. White Sands Blvd", "addr:city": "Alamogordo", "addr:state": "NM", "addr:postcode": "88310", "addr:country": "US", "name": "Allsup's", "phone": "(575) 437-9309"}, "geometry": {"type": "Point", "coordinates": [-105.960042, 32.890408]}},
{"type": "Feature", "id": "TRujxDflUnq1Tifn3idpx9k0LVw=", "properties": {"ref": "102177", "@spider": "allsups", "addr:full": "2201 N. White Sands Blvd.", "addr:city": "Alamogordo", "addr:state": "NM", "addr:postcode": "88310", "addr:country": "US", "name": "Allsup's", "phone": "(575) 437-1440"}, "geometry": {"type": "Point", "coordinates": [-105.960991, 32.915862]}},
{"type": "Feature", "id": "CHAvH7jk0H4SrmSETOCO0e1VzkQ=", "properties": {"ref": "102218", "@spider": "allsups", "addr:full": "6900 Zuni Street SE", "addr:city": "Albuquerque", "addr:state": "NM", "addr:postcode": "87108", "addr:country": "US", "name": "Allsup's", "phone": "(505) 268-8122"}, "geometry": {"type": "Point", "coordinates": [-106.570503, 35.072484]}},
{"type": "Feature", "id": "4_Ke2IKlnJh9_Ebofhz_iO2Ivxo=", "properties": {"ref": "102198", "@spider": "allsups", "addr:full": "1605 Indian School NW", "addr:city": "Albuquerque", "addr:state": "NM", "addr:postcode": "87104", "addr:country": "US", "name": "Allsup's", "phone": "(505) 343-9509"}, "geometry": {"type": "Point", "coordinates": [-106.661944, 35.110951]}},
{"type": "Feature", "id": "hbwOp9oOWKNaGSVJC5w2IFU4o4E=", "properties": {"ref": "102197", "@spider": "allsups", "addr:full": "1525 Isleta Blvd SW", "addr:city": "Albuquerque", "addr:state": "NM", "addr:postcode": "87105", "addr:country": "US", "name": "Allsup's", "phone": "(505) 877-9281"}, "geometry": {"type": "Point", "coordinates": [-106.677282, 35.053907]}},
{"type": "Feature", "id": "IM9fu2HaD4Hzu6LaS-Q1mL-moZk=", "properties": {"ref": "102223", "@spider": "allsups", "addr:full": "1600 North First", "addr:city": "Artesia", "addr:state": "NM", "addr:postcode": "88210", "addr:country": "US", "name": "Allsup's", "phone": "(575) 748-3467"}, "geometry": {"type": "Point", "coordinates": [-104.399371, 32.857439]}},
{"type": "Feature", "id": "egf5vv8PRvVcWCNcR6OnqnBMYeg=", "properties": {"ref": "102245", "@spider": "allsups", "addr:full": "5601 Paradise Blvd NW", "addr:city": "Albuquerque", "addr:state": "NM", "addr:postcode": "87114", "addr:country": "US", "name": "Allsup's", "phone": "(505) 897-7710"}, "geometry": {"type": "Point", "coordinates": [-106.703769, 35.197221]}},
{"type": "Feature", "id": "i6_Wu0jhxXpyx3FsMpXVWgRPaQI=", "properties": {"ref": "102216", "@spider": "allsups", "addr:full": "712 Camino Del Pueblo", "addr:city": "Bernalillo", "addr:state": "NM", "addr:postcode": "87004", "addr:country": "US", "name": "Allsup's", "phone": "(505) 867-9677"}, "geometry": {"type": "Point", "coordinates": [-106.547872, 35.305993]}},
{"type": "Feature", "id": "qZMrxuEjRk5bApaY8ulyMWTUbDM=", "properties": {"ref": "102211", "@spider": "allsups", "addr:full": "1303 Hermosa Dr.", "addr:city": "Artesia", "addr:state": "NM", "addr:postcode": "88210", "addr:country": "US", "name": "Allsup's", "phone": "(575) 748-3470"}, "geometry": {"type": "Point", "coordinates": [-104.412975, 32.827626]}},
{"type": "Feature", "id": "G561jbJYxGI_AGNeGEtGQGQLywM=", "properties": {"ref": "102203", "@spider": "allsups", "addr:full": "1910 West Main St", "addr:city": "Artesia", "addr:state": "NM", "addr:postcode": "88210", "addr:country": "US", "name": "Allsup's", "phone": "(575) 748-3041"}, "geometry": {"type": "Point", "coordinates": [-104.421067, 32.842512]}},
{"type": "Feature", "id": "pqTs6zp0ZOVV1AyxjoiPBo0Mvlk=", "properties": {"ref": "102202", "@spider": "allsups", "addr:full": "800 South 1st Street", "addr:city": "Artesia", "addr:state": "NM", "addr:postcode": "88210", "addr:country": "US", "name": "Allsup's", "phone": "(575) 748-3035"}, "geometry": {"type": "Point", "coordinates": [-104.397169, 32.834957]}},
{"type": "Feature", "id": "f9TqPwsPfM1eIqk_UPpmKzDHvdE=", "properties": {"ref": "102195", "@spider": "allsups", "addr:full": "2417 West Pierce (Lite)", "addr:city": "Carlsbad", "addr:state": "NM", "addr:postcode": "88220", "addr:country": "US", "name": "Allsup's", "phone": "(575) 885-1168"}, "geometry": {"type": "Point", "coordinates": [-104.257911, 32.440563]}},
{"type": "Feature", "id": "Xp8NfDAQrfyjCx6Kf-A4PDhLysE=", "properties": {"ref": "102190", "@spider": "allsups", "addr:full": "1010 S. Canal", "addr:city": "Carlsbad", "addr:state": "NM", "addr:postcode": "88220", "addr:country": "US", "name": "Allsup's", "phone": "(575) 885-0724"}, "geometry": {"type": "Point", "coordinates": [-104.22815, 32.409451]}},
{"type": "Feature", "id": "hS75YbwNFelspGMToU5ntCmHjkg=", "properties": {"ref": "102243", "@spider": "allsups", "addr:full": "102 East Church", "addr:city": "Carlsbad", "addr:state": "NM", "addr:postcode": "88220", "addr:country": "US", "name": "Allsup's", "phone": "(575) 885-0283"}, "geometry": {"type": "Point", "coordinates": [-104.225923, 32.428915]}},
{"type": "Feature", "id": "t8JTxtbE8Mbxgc9JCWDyJMiqxS4=", "properties": {"ref": "102219", "@spider": "allsups", "addr:full": "920 West Mermod", "addr:city": "Carlsbad", "addr:state": "NM", "addr:postcode": "88220", "addr:country": "US", "name": "Allsup's", "phone": "(575) 885-1944"}, "geometry": {"type": "Point", "coordinates": [-104.237868, 32.420741]}},
{"type": "Feature", "id": "raMfn6X_eLdXgv3rthY8n3iLh1Q=", "properties": {"ref": "102201", "@spider": "allsups", "addr:full": "2302 West Texas", "addr:city": "Carlsbad", "addr:state": "NM", "addr:postcode": "88220", "addr:country": "US", "name": "Allsup's", "phone": "(575) 885-1425"}, "geometry": {"type": "Point", "coordinates": [-104.255038, 32.421974]}},
{"type": "Feature", "id": "dGVmlhKlXXPD1dZoBaN0XokQeUg=", "properties": {"ref": "102132", "@spider": "allsups", "addr:full": "Highway 54", "addr:city": "Carrizozo", "addr:state": "NM", "addr:postcode": "88301", "addr:country": "US", "name": "Allsup's", "phone": "(575) 648-2574"}, "geometry": {"type": "Point", "coordinates": [-105.894038, 33.629642]}},
{"type": "Feature", "id": "kCYPVuLCMjkF1o08Y6j1NtSJzLE=", "properties": {"ref": "102285", "@spider": "allsups", "addr:full": "3220 National Park Hwy", "addr:city": "Carlsbad", "addr:state": "NM", "addr:postcode": "88220", "addr:country": "US", "name": "Allsup's", "phone": "(575) 885-8635"}, "geometry": {"type": "Point", "coordinates": [-104.222561, 32.384264]}},
{"type": "Feature", "id": "VA-zUS26bUqjvdW5u0shSM17CMA=", "properties": {"ref": "102269", "@spider": "allsups", "addr:full": "2301 West Lea", "addr:city": "Carlsbad", "addr:state": "NM", "addr:postcode": "88220", "addr:country": "US", "name": "Allsup's", "phone": "(575) 885-6208"}, "geometry": {"type": "Point", "coordinates": [-104.255356, 32.414182]}},
{"type": "Feature", "id": "5xH9LFe9herCnllHrzSuHqoSfvA=", "properties": {"ref": "102002", "@spider": "allsups", "addr:full": "2600 W. 7th Street", "addr:city": "Clovis", "addr:state": "NM", "addr:postcode": "88101", "addr:country": "US", "name": "Allsup's", "phone": "(575) 762-2604"}, "geometry": {"type": "Point", "coordinates": [-103.237876, 34.405081]}},
{"type": "Feature", "id": "i59SLDgKlwb0u734ZjraQS3rQ10=", "properties": {"ref": "102143", "@spider": "allsups", "addr:full": "10 Curlew Pl", "addr:city": "Cloudcroft", "addr:state": "NM", "addr:postcode": "88317", "addr:country": "US", "name": "Allsup's", "phone": "(575) 682-3072"}, "geometry": {"type": "Point", "coordinates": [-105.744011, 32.95779]}},
{"type": "Feature", "id": "lwT_VVagLtK19wyVMv0gteFAe1I=", "properties": {"ref": "102031", "@spider": "allsups", "addr:full": "321 Main St.", "addr:city": "Clayton", "addr:state": "NM", "addr:postcode": "88415", "addr:country": "US", "name": "Allsup's", "phone": "(575) 374-8907"}, "geometry": {"type": "Point", "coordinates": [-103.181197, 36.453163]}},
{"type": "Feature", "id": "1IbEiNwBrl2N5V66QIEuSfUGxMU=", "properties": {"ref": "102044", "@spider": "allsups", "addr:full": "700 S. Prince St.", "addr:city": "Clovis", "addr:state": "NM", "addr:postcode": "88101", "addr:country": "US", "name": "Allsup's", "phone": "(575) 762-3710"}, "geometry": {"type": "Point", "coordinates": [-103.196926, 34.389658]}},
{"type": "Feature", "id": "TccKPlEDXSM2c9gmgOlJhJO_O34=", "properties": {"ref": "102005", "@spider": "allsups", "addr:full": "301 N. Prince Street", "addr:city": "Clovis", "addr:state": "NM", "addr:postcode": "88101", "addr:country": "US", "name": "Allsup's", "phone": "(575) 762-2937"}, "geometry": {"type": "Point", "coordinates": [-103.195988, 34.401077]}},
{"type": "Feature", "id": "dL0CuYAcfWxQmV2fK38Qd42ERds=", "properties": {"ref": "102004", "@spider": "allsups", "addr:full": "728 W. 21st Street", "addr:city": "Clovis", "addr:state": "NM", "addr:postcode": "88101", "addr:country": "US", "name": "Allsup's", "phone": "(575) 762-2905"}, "geometry": {"type": "Point", "coordinates": [-103.213822, 34.41961]}},
{"type": "Feature", "id": "Xk6U-MSjBQQ1XZCjfsjIgc58Gsw=", "properties": {"ref": "102053", "@spider": "allsups", "addr:full": "1320 N. Prince", "addr:city": "Clovis", "addr:state": "NM", "addr:postcode": "88101", "addr:country": "US", "name": "Allsup's", "phone": "(575) 762-3731"}, "geometry": {"type": "Point", "coordinates": [-103.196829, 34.411792]}},
{"type": "Feature", "id": "QKnIyWUH9HW-Jbj-IdlmEPms0Lc=", "properties": {"ref": "102045", "@spider": "allsups", "addr:full": "1018 State Rd 311", "addr:city": "Clovis", "addr:state": "NM", "addr:postcode": "88101", "addr:country": "US", "name": "Allsup's", "phone": "(575) 791-3205"}, "geometry": {"type": "Point", "coordinates": [-103.319131, 34.407614]}},
{"type": "Feature", "id": "jCu88sfXophbMzTT-gFkT6iibcU=", "properties": {"ref": "102170", "@spider": "allsups", "addr:full": "3500 North Prince", "addr:city": "Clovis", "addr:state": "NM", "addr:postcode": "88101", "addr:country": "US", "name": "Allsup's", "phone": "(575) 762-1323"}, "geometry": {"type": "Point", "coordinates": [-103.196972, 34.434314]}},
{"type": "Feature", "id": "_FIYhn8xPcgv0RnfwdWMZKDuXF4=", "properties": {"ref": "102123", "@spider": "allsups", "addr:full": "1401 Norris Clovis", "addr:city": "Clovis", "addr:state": "NM", "addr:postcode": "88101", "addr:country": "US", "name": "Allsup's", "phone": "(575) 762-3738"}, "geometry": {"type": "Point", "coordinates": [-103.178383, 34.412357]}},
{"type": "Feature", "id": "LWYyNpC3aawAxciFNl6aHJO0nwY=", "properties": {"ref": "102064", "@spider": "allsups", "addr:full": "1020 Mitchell", "addr:city": "Clovis", "addr:state": "NM", "addr:postcode": "88101", "addr:country": "US", "name": "Allsup's", "phone": "(575) 762-3734"}, "geometry": {"type": "Point", "coordinates": [-103.207097, 34.408585]}},
{"type": "Feature", "id": "wDnk2Dexm4RLKpvveZuoUVvHRBM=", "properties": {"ref": "102324", "@spider": "allsups", "addr:full": "1220 W. 7th", "addr:city": "Clovis", "addr:state": "NM", "addr:postcode": "88101", "addr:country": "US", "name": "Allsup's", "phone": "(575) 762-7609"}, "geometry": {"type": "Point", "coordinates": [-103.220205, 34.405063]}},
{"type": "Feature", "id": "H90d4yxQtsF0JJ1_n81w38_j2Ys=", "properties": {"ref": "102320", "@spider": "allsups", "addr:full": "2021 N Prince St", "addr:city": "Clovis", "addr:state": "NM", "addr:postcode": "88101", "addr:country": "US", "name": "Allsup's", "phone": "(575) 762-9633"}, "geometry": {"type": "Point", "coordinates": [-103.196251, 34.418898]}},
{"type": "Feature", "id": "zFXOsKLFUXr98pKdWolKJddJwvU=", "properties": {"ref": "102248", "@spider": "allsups", "addr:full": "2121 West 21st Street", "addr:city": "Clovis", "addr:state": "NM", "addr:postcode": "88101", "addr:country": "US", "name": "Allsup's", "phone": "(575) 762-3768"}, "geometry": {"type": "Point", "coordinates": [-103.231236, 34.418886]}},
{"type": "Feature", "id": "T3wW1wLnK_rS9-P55XwVzrUOnpo=", "properties": {"ref": "102171", "@spider": "allsups", "addr:full": "1500 Mabry Dr", "addr:city": "Clovis", "addr:state": "NM", "addr:postcode": "88101", "addr:country": "US", "name": "Allsup's", "phone": "(575) 762-3765"}, "geometry": {"type": "Point", "coordinates": [-103.187305, 34.397885]}},
{"type": "Feature", "id": "O_71D6RxLNlgDGcegyCcmjDP_HA=", "properties": {"ref": "102314", "@spider": "allsups", "addr:full": "444 Riverside Dr", "addr:city": "Espanola", "addr:state": "NM", "addr:postcode": "87532", "addr:country": "US", "name": "Allsup's", "phone": "(505) 753-6948"}, "geometry": {"type": "Point", "coordinates": [-106.064912, 35.996146]}},
{"type": "Feature", "id": "ecpIIjJcveQpbWfBUE7zdVomXCo=", "properties": {"ref": "102287", "@spider": "allsups", "addr:full": "301 Clark Street", "addr:city": "Elida", "addr:state": "NM", "addr:postcode": "88116", "addr:country": "US", "name": "Allsup's", "phone": "(575) 274-6446"}, "geometry": {"type": "Point", "coordinates": [-103.651919, 33.946613]}},
{"type": "Feature", "id": "hWkYRZ9nT36ZrkZDxrkxSoannBg=", "properties": {"ref": "102261", "@spider": "allsups", "addr:full": "201 West 1st", "addr:city": "Dexter", "addr:state": "NM", "addr:postcode": "88230", "addr:country": "US", "name": "Allsup's", "phone": "(575) 734-6016"}, "geometry": {"type": "Point", "coordinates": [-104.373203, 33.198009]}},
{"type": "Feature", "id": "qmVCks1V_W27SnaTymcepsz5Z30=", "properties": {"ref": "102258", "@spider": "allsups", "addr:full": "327 E. Sumner Ave.", "addr:city": "Fort Sumner", "addr:state": "NM", "addr:postcode": "88119", "addr:country": "US", "name": "Allsup's", "phone": "(575) 355-7636"}, "geometry": {"type": "Point", "coordinates": [-104.242873, 34.47065]}},
{"type": "Feature", "id": "p3U5GmFSzknIpq16tq8_tBL5AVU=", "properties": {"ref": "102001", "@spider": "allsups", "addr:full": "929 Main Street", "addr:city": "Eunice", "addr:state": "NM", "addr:postcode": "88231", "addr:country": "US", "name": "Allsup's", "phone": "(575) 394-2006"}, "geometry": {"type": "Point", "coordinates": [-103.159797, 32.437023]}},
{"type": "Feature", "id": "C5sbAWMw91IdihiMr8_ZaJXbQJc=", "properties": {"ref": "102250", "@spider": "allsups", "addr:full": "1801 South 2nd Street", "addr:city": "Gallup", "addr:state": "NM", "addr:postcode": "87301", "addr:country": "US", "name": "Allsup's", "phone": "(505) 722-6447"}, "geometry": {"type": "Point", "coordinates": [-108.737868, 35.508131]}},
{"type": "Feature", "id": "ReQiNb5XgR4oj_RrqHqCr8KuqUc=", "properties": {"ref": "102234", "@spider": "allsups", "addr:full": "2701 East Aztec Avenue", "addr:city": "Gallup", "addr:state": "NM", "addr:postcode": "87301", "addr:country": "US", "name": "Allsup's", "phone": "(505) 863-6139"}, "geometry": {"type": "Point", "coordinates": [-108.700336, 35.527747]}},
{"type": "Feature", "id": "RAaTNifUjpqbUA9tLVvUHutjir0=", "properties": {"ref": "102222", "@spider": "allsups", "addr:full": "112 Arnold", "addr:city": "Gallup", "addr:state": "NM", "addr:postcode": "87301", "addr:country": "US", "name": "Allsup's", "phone": "(505) 863-3789"}, "geometry": {"type": "Point", "coordinates": [-108.759085, 35.521155]}},
{"type": "Feature", "id": "zUnb_Ywgc3vu9vWtnVge3pWeGyY=", "properties": {"ref": "102090", "@spider": "allsups", "addr:full": "1012 Roosevelt Ave", "addr:city": "Grants", "addr:state": "NM", "addr:postcode": "87020", "addr:country": "US", "name": "Allsup's", "phone": "(505) 287-8556"}, "geometry": {"type": "Point", "coordinates": [-107.827689, 35.161396]}},
{"type": "Feature", "id": "R1Ykz-NeG4WAPl2YURIC00HRpUE=", "properties": {"ref": "102089", "@spider": "allsups", "addr:full": "103 Santa Fe", "addr:city": "Grants", "addr:state": "NM", "addr:postcode": "87020", "addr:country": "US", "name": "Allsup's", "phone": "(505) 287-8555"}, "geometry": {"type": "Point", "coordinates": [-107.849721, 35.150249]}},
{"type": "Feature", "id": "G_F6Ljl5XX5MTkqyp9PFwT5P9k0=", "properties": {"ref": "102263", "@spider": "allsups", "addr:full": "2857 West Hwy 66", "addr:city": "Gallup", "addr:state": "NM", "addr:postcode": "87301", "addr:country": "US", "name": "Allsup's", "phone": "(505) 722-9670"}, "geometry": {"type": "Point", "coordinates": [-108.80748, 35.509159]}},
{"type": "Feature", "id": "7GEy7qKmPNdbrrBT64gIPZle28o=", "properties": {"ref": "102251", "@spider": "allsups", "addr:full": "7670 Wichita Road", "addr:city": "Hagerman", "addr:state": "NM", "addr:postcode": "88232", "addr:country": "US", "name": "Allsup's", "phone": "(575) 752-3544"}, "geometry": {"type": "Point", "coordinates": [-104.335689, 33.114287]}},
{"type": "Feature", "id": "F3wR2XpS20MtJDUv9940ELEIfDI=", "properties": {"ref": "102200", "@spider": "allsups", "addr:full": "616 First Street", "addr:city": "Grants", "addr:state": "NM", "addr:postcode": "87020", "addr:country": "US", "name": "Allsup's", "phone": "(505) 287-5103"}, "geometry": {"type": "Point", "coordinates": [-107.844711, 35.155719]}},
{"type": "Feature", "id": "qVXs1pOpY5lzJrVOQmrtant5Weo=", "properties": {"ref": "102199", "@spider": "allsups", "addr:full": "342 Nimitz", "addr:city": "Grants", "addr:state": "NM", "addr:postcode": "87020", "addr:country": "US", "name": "Allsup's", "phone": "(505) 287-5022"}, "geometry": {"type": "Point", "coordinates": [-107.834461, 35.148017]}},
{"type": "Feature", "id": "ujOv3STZVOFVvsz2B_K2r5nWRPk=", "properties": {"ref": "102035", "@spider": "allsups", "addr:full": "916 W. Sanger St", "addr:city": "Hobbs", "addr:state": "NM", "addr:postcode": "88240", "addr:country": "US", "name": "Allsup's", "phone": "(575) 393-3971"}, "geometry": {"type": "Point", "coordinates": [-103.146733, 32.711388]}},
{"type": "Feature", "id": "zcmjMuctwOd-RnWSJ55bv-CsSMs=", "properties": {"ref": "102006", "@spider": "allsups", "addr:full": "1100 East Sanger", "addr:city": "Hobbs", "addr:state": "NM", "addr:postcode": "88240", "addr:country": "US", "name": "Allsup's", "phone": "(575) 393-4478"}, "geometry": {"type": "Point", "coordinates": [-103.122865, 32.711521]}},
{"type": "Feature", "id": "utz7MnBoKCubz4O2UOZC2LNzmQg=", "properties": {"ref": "102003", "@spider": "allsups", "addr:full": "105 East Main", "addr:city": "Hobbs", "addr:state": "NM", "addr:postcode": "88240", "addr:country": "US", "name": "Allsup's", "phone": "(575) 393-5271"}, "geometry": {"type": "Point", "coordinates": [-103.135772, 32.69259]}},
{"type": "Feature", "id": "gkngOrEFgSaFDsxcM6eZU5ABc9Y=", "properties": {"ref": "102138", "@spider": "allsups", "addr:full": "4308 N. Grimes", "addr:city": "Hobbs", "addr:state": "NM", "addr:postcode": "88240", "addr:country": "US", "name": "Allsup's", "phone": "(575) 392-3671"}, "geometry": {"type": "Point", "coordinates": [-103.14439, 32.747865]}},
{"type": "Feature", "id": "Vv53CIVKagvOBx1TyfCDwHGkC3s=", "properties": {"ref": "102037", "@spider": "allsups", "addr:full": "321 N. Dal Paso", "addr:city": "Hobbs", "addr:state": "NM", "addr:postcode": "88240", "addr:country": "US", "name": "Allsup's", "phone": "(575) 393-4977"}, "geometry": {"type": "Point", "coordinates": [-103.127814, 32.703686]}},
{"type": "Feature", "id": "u64wbatfJfkd8sR7O0cUqZ0PJgI=", "properties": {"ref": "102036", "@spider": "allsups", "addr:full": "2810 Lovington Hwy", "addr:city": "Hobbs", "addr:state": "NM", "addr:postcode": "88240", "addr:country": "US", "name": "Allsup's", "phone": "(575) 392-4487"}, "geometry": {"type": "Point", "coordinates": [-103.150107, 32.730042]}},
{"type": "Feature", "id": "D8r4PmJP0rC_oCDierXn9SHiN_E=", "properties": {"ref": "102144", "@spider": "allsups", "addr:full": "100 East Marland St.", "addr:city": "Hobbs", "addr:state": "NM", "addr:postcode": "88240", "addr:country": "US", "name": "Allsup's", "phone": "(575) 393-1503"}, "geometry": {"type": "Point", "coordinates": [-103.135864, 32.697044]}},
{"type": "Feature", "id": "dHaSh2mMDLXlQr88I25Owp5j0P8=", "properties": {"ref": "102142", "@spider": "allsups", "addr:full": "316 N. Marland Blvd", "addr:city": "Hobbs", "addr:state": "NM", "addr:postcode": "88240", "addr:country": "US", "name": "Allsup's", "phone": "(575) 393-0810"}, "geometry": {"type": "Point", "coordinates": [-103.117905, 32.704216]}},
{"type": "Feature", "id": "L9KQ8VtUIWCE0nsJKBAqLcA00S4=", "properties": {"ref": "102130", "@spider": "allsups", "addr:full": "Hwy 70-380 Don Pablo Road", "addr:city": "Hondo", "addr:state": "NM", "addr:postcode": "88336", "addr:country": "US", "name": "Allsup's", "phone": "(575) 653-4622"}, "geometry": {"type": "Point", "coordinates": [-105.257172, 33.380711]}},
{"type": "Feature", "id": "IbxAXStXK4trsRCG6ihNln4kDPM=", "properties": {"ref": "102146", "@spider": "allsups", "addr:full": "5312 Lovington Hwy", "addr:city": "Hobbs", "addr:state": "NM", "addr:postcode": "88240", "addr:country": "US", "name": "Allsup's", "phone": "(575) 392-4873"}, "geometry": {"type": "Point", "coordinates": [-103.179264, 32.760073]}},
{"type": "Feature", "id": "U2awMJVUhEAlhPOHakHiNWfwLKE=", "properties": {"ref": "102145", "@spider": "allsups", "addr:full": "3709 North Dal Paso", "addr:city": "Hobbs", "addr:state": "NM", "addr:postcode": "88240", "addr:country": "US", "name": "Allsup's", "phone": "(575) 392-6171"}, "geometry": {"type": "Point", "coordinates": [-103.128084, 32.74067]}},
{"type": "Feature", "id": "6qOCA3iJTCyqZus9ep3JE8xXATU=", "properties": {"ref": "102021", "@spider": "allsups", "addr:full": "423 Grand Ave", "addr:city": "Las Vegas", "addr:state": "NM", "addr:postcode": "87701", "addr:country": "US", "name": "Allsup's", "phone": "(505) 425-2608"}, "geometry": {"type": "Point", "coordinates": [-105.214873, 35.59315]}},
{"type": "Feature", "id": "xnr2Vw8zrtPxXJEtkviBvuv6iJ4=", "properties": {"ref": "102032", "@spider": "allsups", "addr:full": "501 S. 3rd St", "addr:city": "Jal", "addr:state": "NM", "addr:postcode": "88252", "addr:country": "US", "name": "Allsup's", "phone": "(575) 395-2223"}, "geometry": {"type": "Point", "coordinates": [-103.193772, 32.108864]}},
{"type": "Feature", "id": "T3l-ldQKFloOUz-cppmv8C7IOw4=", "properties": {"ref": "102308", "@spider": "allsups", "addr:full": "110 Kansas", "addr:city": "Jal", "addr:state": "NM", "addr:postcode": "88252", "addr:country": "US", "name": "Allsup's", "phone": "(575) 395-2064"}, "geometry": {"type": "Point", "coordinates": [-103.192939, 32.120488]}},
{"type": "Feature", "id": "NvyVVBWW3_OZBuKFauchgFkH5a0=", "properties": {"ref": "102259", "@spider": "allsups", "addr:full": "2603 Hot Springs Blvd", "addr:city": "Las Vegas", "addr:state": "NM", "addr:postcode": "87701", "addr:country": "US", "name": "Allsup's", "phone": "(505) 425-6099"}, "geometry": {"type": "Point", "coordinates": [-105.234428, 35.599597]}},
{"type": "Feature", "id": "Qwj1NTBVXFGYkl-uTNPyslP1jdc=", "properties": {"ref": "102255", "@spider": "allsups", "addr:full": "2195 7th Street", "addr:city": "Las Vegas", "addr:state": "NM", "addr:postcode": "87701", "addr:country": "US", "name": "Allsup's", "phone": "(505) 425-6098"}, "geometry": {"type": "Point", "coordinates": [-105.225057, 35.615182]}},
{"type": "Feature", "id": "onCvAJd4TXHfw6yObgQJYxYthFU=", "properties": {"ref": "102080", "@spider": "allsups", "addr:full": "1032 Grand Ave", "addr:city": "Las Vegas", "addr:state": "NM", "addr:postcode": "87701", "addr:country": "US", "name": "Allsup's", "phone": "(505) 454-1610"}, "geometry": {"type": "Point", "coordinates": [-105.211893, 35.602208]}},
{"type": "Feature", "id": "pvrt7n4eK1NXU6t-8ML-eYOnA_4=", "properties": {"ref": "102137", "@spider": "allsups", "addr:full": "4603 Hwy 314 SW", "addr:city": "Los Chavez", "addr:state": "NM", "addr:postcode": "87031", "addr:country": "US", "name": "Allsup's", "phone": "(505) 565-8466"}, "geometry": {"type": "Point", "coordinates": [-106.736225, 34.805925]}},
{"type": "Feature", "id": "KhnrxiVyE3xbfdTBmIChWttRM3I=", "properties": {"ref": "102038", "@spider": "allsups", "addr:full": "203 S. US Hwy 54", "addr:city": "Logan", "addr:state": "NM", "addr:postcode": "88426", "addr:country": "US", "name": "Allsup's", "phone": "(575) 487-2439"}, "geometry": {"type": "Point", "coordinates": [-103.411228, 35.363717]}},
{"type": "Feature", "id": "e8re-mYqRJLKOl7zG6wWjMyu3FE=", "properties": {"ref": "102271", "@spider": "allsups", "addr:full": "113 Grand Avenue", "addr:city": "Las Vegas", "addr:state": "NM", "addr:postcode": "87701", "addr:country": "US", "name": "Allsup's", "phone": "(505) 425-6399"}, "geometry": {"type": "Point", "coordinates": [-105.217704, 35.585095]}},
{"type": "Feature", "id": "YUzy-BlG7Znaz9klhTvo0UB2jJY=", "properties": {"ref": "102109", "@spider": "allsups", "addr:full": "503 S. Main St", "addr:city": "Lovington", "addr:state": "NM", "addr:postcode": "88260", "addr:country": "US", "name": "Allsup's", "phone": "(575) 396-3994"}, "geometry": {"type": "Point", "coordinates": [-103.348282, 32.943683]}},
{"type": "Feature", "id": "9mo0WVzGvb57nsCnNrBABRIekIk=", "properties": {"ref": "102220", "@spider": "allsups", "addr:full": "105 N. 8th", "addr:city": "Loving", "addr:state": "NM", "addr:postcode": "88256", "addr:country": "US", "name": "Allsup's", "phone": "(575) 745-2132"}, "geometry": {"type": "Point", "coordinates": [-104.101501, 32.286251]}},
{"type": "Feature", "id": "B9I8WMpBAqLa9sAXWpvPUdgVgHs=", "properties": {"ref": "102257", "@spider": "allsups", "addr:full": "351 Highway 314", "addr:city": "Los Lunas", "addr:state": "NM", "addr:postcode": "87031", "addr:country": "US", "name": "Allsup's", "phone": "(505) 865-6074"}, "geometry": {"type": "Point", "coordinates": [-106.737171, 34.804383]}},
{"type": "Feature", "id": "lMCqz2t-NWLYgwTXyJL5lLwZLxE=", "properties": {"ref": "102246", "@spider": "allsups", "addr:full": "200 East Denby Ave.", "addr:city": "Melrose", "addr:state": "NM", "addr:postcode": "88124", "addr:country": "US", "name": "Allsup's", "phone": "(575) 253-4701"}, "geometry": {"type": "Point", "coordinates": [-103.63135, 34.42452]}},
{"type": "Feature", "id": "5AdqKQDgoFju3QKg0XKO6jNJX_Y=", "properties": {"ref": "102118", "@spider": "allsups", "addr:full": "810 Ave. D", "addr:city": "Lovington", "addr:state": "NM", "addr:postcode": "88260", "addr:country": "US", "name": "Allsup's", "phone": "(575) 396-3618"}, "geometry": {"type": "Point", "coordinates": [-103.359139, 32.944264]}},
{"type": "Feature", "id": "aM-1lV5kz-Vo9T9NiSCzMl2YXpA=", "properties": {"ref": "102117", "@spider": "allsups", "addr:full": "1608 S. Main St", "addr:city": "Lovington", "addr:state": "NM", "addr:country": "US", "name": "Allsup's", "phone": "(575) 396-2983"}, "geometry": {"type": "Point", "coordinates": [-103.348799, 32.932338]}},
{"type": "Feature", "id": "x_Vb4qGSXm-0IgeJZa6hsO9bEU8=", "properties": {"ref": "102270", "@spider": "allsups", "addr:full": "421 Main Street", "addr:city": "Mora", "addr:state": "NM", "addr:postcode": "87732", "addr:country": "US", "name": "Allsup's", "phone": "(575) 387-5632"}, "geometry": {"type": "Point", "coordinates": [-105.334099, 35.975166]}},
{"type": "Feature", "id": "O_c44d5kv-m4gOuU7aatBVm8b-8=", "properties": {"ref": "102161", "@spider": "allsups", "addr:full": "507 West Highway 66", "addr:city": "Milan", "addr:state": "NM", "addr:postcode": "87021", "addr:country": "US", "name": "Allsup's", "phone": "(505) 285-5275"}, "geometry": {"type": "Point", "coordinates": [-107.888941, 35.166156]}},
{"type": "Feature", "id": "R9OuF7IIkwmL2chcOyro10qHt_g=", "properties": {"ref": "102030", "@spider": "allsups", "addr:full": "1801 South Avenue I", "addr:city": "Portales", "addr:state": "NM", "addr:postcode": "88130", "addr:country": "US", "name": "Allsup's", "phone": "(575) 356-3281"}, "geometry": {"type": "Point", "coordinates": [-103.343319, 34.17107]}},
{"type": "Feature", "id": "NULCR8gx2EBgRov3lzyv4tE0l-M=", "properties": {"ref": "102015", "@spider": "allsups", "addr:full": "120 N. Chicago", "addr:city": "Portales", "addr:state": "NM", "addr:postcode": "88130", "addr:country": "US", "name": "Allsup's", "phone": "(575) 356-3283"}, "geometry": {"type": "Point", "coordinates": [-103.330822, 34.188961]}},
{"type": "Feature", "id": "749V0mWlQVbRQh8AJDbfTcTlEMs=", "properties": {"ref": "102008", "@spider": "allsups", "addr:full": "1032 West 2nd Street", "addr:city": "Portales", "addr:state": "NM", "addr:postcode": "88130", "addr:country": "US", "name": "Allsup's", "phone": "(575) 356-3228"}, "geometry": {"type": "Point", "coordinates": [-103.344515, 34.181257]}},
{"type": "Feature", "id": "lA_jpm_3w6TttGuYDKvbHEMP8eo=", "properties": {"ref": "102165", "@spider": "allsups", "addr:full": "2348 Highway 47", "addr:city": "Rio Communities", "addr:state": "NM", "addr:postcode": "87002", "addr:country": "US", "name": "Allsup's", "phone": "(505) 864-8583"}, "geometry": {"type": "Point", "coordinates": [-106.736641, 34.653667]}},
{"type": "Feature", "id": "9FBGnpmUtqm73okpgCXW59d7S9U=", "properties": {"ref": "102127", "@spider": "allsups", "addr:full": "1325 S. Ave. D", "addr:city": "Portales", "addr:state": "NM", "addr:postcode": "88130", "addr:country": "US", "name": "Allsup's", "phone": "(575) 356-3284"}, "geometry": {"type": "Point", "coordinates": [-103.334454, 34.177592]}},
{"type": "Feature", "id": "t4DXfaEA29y60AI5NZuyhb72zgo=", "properties": {"ref": "102046", "@spider": "allsups", "addr:full": "403 North Main Street", "addr:city": "Portales", "addr:state": "NM", "addr:postcode": "88130", "addr:country": "US", "name": "Allsup's", "phone": "(575) 356-3280"}, "geometry": {"type": "Point", "coordinates": [-103.340122, 34.188936]}},
{"type": "Feature", "id": "-rq8I2f97gHBtqJNC1FFA4JFE2w=", "properties": {"ref": "102025", "@spider": "allsups", "addr:full": "1500 N. Garden", "addr:city": "Roswell", "addr:state": "NM", "addr:postcode": "88201", "addr:country": "US", "name": "Allsup's", "phone": "(575) 622-1723"}, "geometry": {"type": "Point", "coordinates": [-104.514739, 33.409055]}},
{"type": "Feature", "id": "Tt3IsK7ezrYdH81Tdqu9J9nfTqo=", "properties": {"ref": "102342", "@spider": "allsups", "addr:full": "4400 Ridgecrest Drive", "addr:city": "Rio Rancho", "addr:state": "NM", "addr:postcode": "87124", "addr:country": "US", "name": "Allsup's", "phone": "(505) 891-2320"}, "geometry": {"type": "Point", "coordinates": [-106.648784, 35.253619]}},
{"type": "Feature", "id": "xiajaffcl4ZrWp1WV_01au4uD-8=", "properties": {"ref": "102286", "@spider": "allsups", "addr:full": "501 West McGaffey", "addr:city": "Roswell", "addr:state": "NM", "addr:postcode": "88203", "addr:country": "US", "name": "Allsup's", "phone": "(575) 625-9941"}, "geometry": {"type": "Point", "coordinates": [-104.529267, 33.380113]}},
{"type": "Feature", "id": "9pAlsYdU_42OkgnDfaBsFzqkCHA=", "properties": {"ref": "102233", "@spider": "allsups", "addr:full": "6000 S. Main", "addr:city": "Roswell", "addr:state": "NM", "addr:postcode": "88203", "addr:country": "US", "name": "Allsup's", "phone": "(575) 347-9880"}, "geometry": {"type": "Point", "coordinates": [-104.523865, 33.322893]}},
{"type": "Feature", "id": "mSBIuPA-vlbWqXerjwXp3to80SQ=", "properties": {"ref": "102136", "@spider": "allsups", "addr:full": "2201 S. Sunset Ave", "addr:city": "Roswell", "addr:state": "NM", "addr:postcode": "88203", "addr:country": "US", "name": "Allsup's", "phone": "(575) 622-5375"}, "geometry": {"type": "Point", "coordinates": [-104.543697, 33.364329]}},
{"type": "Feature", "id": "LIggGwFlCqW9K2TpTztjExlpiis=", "properties": {"ref": "102160", "@spider": "allsups", "addr:full": "2515 West 2nd", "addr:city": "Roswell", "addr:state": "NM", "addr:postcode": "88201", "addr:country": "US", "name": "Allsup's", "phone": "(575) 625-9939"}, "geometry": {"type": "Point", "coordinates": [-104.558654, 33.394525]}},
{"type": "Feature", "id": "kxskj5WsG_voKRO2q1Z6TfqpjHg=", "properties": {"ref": "102121", "@spider": "allsups", "addr:full": "1618 SE Main St.", "addr:city": "Roswell", "addr:state": "NM", "addr:postcode": "88203", "addr:country": "US", "name": "Allsup's", "phone": "(575) 625-9874"}, "geometry": {"type": "Point", "coordinates": [-104.518623, 33.372966]}},
{"type": "Feature", "id": "fwNXWfKBu8dr6i1eWqbbToKQGbE=", "properties": {"ref": "102120", "@spider": "allsups", "addr:full": "1618 S. Union", "addr:city": "Roswell", "addr:state": "NM", "addr:postcode": "88203", "addr:country": "US", "name": "Allsup's", "phone": "(575) 625-9868"}, "geometry": {"type": "Point", "coordinates": [-104.536442, 33.372731]}},
{"type": "Feature", "id": "GgrJU4YSiw3tnfkbBUZ9Kw8Buds=", "properties": {"ref": "102335", "@spider": "allsups", "addr:full": "2501 N Main St", "addr:city": "Roswell", "addr:state": "NM", "addr:postcode": "88201", "addr:country": "US", "name": "Allsup's", "phone": "(575) 622-9968"}, "geometry": {"type": "Point", "coordinates": [-104.522334, 33.423549]}},
{"type": "Feature", "id": "FOI_-uqJX-sxhLZ-OvHVXFhMXFY=", "properties": {"ref": "102289", "@spider": "allsups", "addr:full": "411 West 2nd St.", "addr:city": "Roswell", "addr:state": "NM", "addr:postcode": "88201", "addr:country": "US", "name": "Allsup's", "phone": "(575) 625-9942"}, "geometry": {"type": "Point", "coordinates": [-104.528537, 33.3945]}},
{"type": "Feature", "id": "8kXm1NSa9Z_49SqiK7ZaPqBMXOA=", "properties": {"ref": "102268", "@spider": "allsups", "addr:full": "520 East 2nd", "addr:city": "Roswell", "addr:state": "NM", "addr:postcode": "88201", "addr:country": "US", "name": "Allsup's", "phone": "(575) 625-9940"}, "geometry": {"type": "Point", "coordinates": [-104.514709, 33.393751]}},
{"type": "Feature", "id": "vGHhwCTXhHcN8OyyHr6ldt_pHso=", "properties": {"ref": "102339", "@spider": "allsups", "addr:full": "2820 Sudderth", "addr:city": "Ruidoso", "addr:state": "NM", "addr:postcode": "88345", "addr:country": "US", "name": "Allsup's", "phone": "(575) 257-2991"}, "geometry": {"type": "Point", "coordinates": [-105.681121, 33.334034]}},
{"type": "Feature", "id": "TmWITSJbwY7Syv-iPGtRkqpXlYk=", "properties": {"ref": "102343", "@spider": "allsups", "addr:full": "26126 US Hwy 70  STE #1", "addr:city": "Ruidoso", "addr:state": "NM", "addr:postcode": "88345", "addr:country": "US", "name": "Allsup's", "phone": "(575) 378-4900"}, "geometry": {"type": "Point", "coordinates": [-105.625471, 33.324025]}},
{"type": "Feature", "id": "cPu3Re6tstyENKNmLf4b6MhxQLU=", "properties": {"ref": "102344", "@spider": "allsups", "addr:full": "1899 St. Michael's Dr", "addr:city": "Santa Fe", "addr:state": "NM", "addr:postcode": "87505", "addr:country": "US", "name": "Allsup's", "phone": "(505) 986-0776"}, "geometry": {"type": "Point", "coordinates": [-105.970148, 35.659694]}},
{"type": "Feature", "id": "JeujZT_tSNCv77FGFqll2fX2t14=", "properties": {"ref": "102341", "@spider": "allsups", "addr:full": "311 Sudderth", "addr:city": "Ruidoso", "addr:state": "NM", "addr:postcode": "88345", "addr:country": "US", "name": "Allsup's", "phone": "(575) 257-2069"}, "geometry": {"type": "Point", "coordinates": [-105.634256, 33.322213]}},
{"type": "Feature", "id": "NZ1OVXeuU5gSFqIH0mL8_zTJE-Y=", "properties": {"ref": "102340", "@spider": "allsups", "addr:full": "723 Mecham", "addr:city": "Ruidoso", "addr:state": "NM", "addr:postcode": "88345", "addr:country": "US", "name": "Allsup's", "phone": "(575) 257-5816"}, "geometry": {"type": "Point", "coordinates": [-105.675438, 33.348104]}},
{"type": "Feature", "id": "Gf4P96aSV8yQE2FM3KPhs78vATM=", "properties": {"ref": "102346", "@spider": "allsups", "addr:full": "#2 Vista Del Monte", "addr:city": "Santa Fe", "addr:state": "NM", "addr:postcode": "87508", "addr:country": "US", "name": "Allsup's", "phone": "(505) 471-1890"}, "geometry": {"type": "Point", "coordinates": [-106.052882, 35.587354]}},
{"type": "Feature", "id": "zNM8GHR75_AWKDcQ_yKC3wyjmp0=", "properties": {"ref": "102345", "@spider": "allsups", "addr:full": "305 N. Guadalupe", "addr:city": "Santa fe", "addr:state": "NM", "addr:postcode": "87501", "addr:country": "US", "name": "Allsup's", "phone": "(505) 988-3862"}, "geometry": {"type": "Point", "coordinates": [-105.945329, 35.691654]}},
{"type": "Feature", "id": "i2WVCXOmyVEvi3HDM4nuDxFBI7Q=", "properties": {"ref": "102296", "@spider": "allsups", "addr:full": "2640 Agua Fria St", "addr:city": "Santa Fe", "addr:state": "NM", "addr:postcode": "87505", "addr:country": "US", "name": "Allsup's", "phone": "(505) 473-0804"}, "geometry": {"type": "Point", "coordinates": [-105.988028, 35.667982]}},
{"type": "Feature", "id": "DlhUnRseOWbXLDH9DBMzbnL4Xus=", "properties": {"ref": "102254", "@spider": "allsups", "addr:full": "4200 Airport Road", "addr:city": "Santa Fe", "addr:state": "NM", "addr:postcode": "87507", "addr:country": "US", "name": "Allsup's", "phone": "(505) 473-0867"}, "geometry": {"type": "Point", "coordinates": [-106.019545, 35.638674]}},
{"type": "Feature", "id": "SAAPoapOr8lWWYfNOxlgfwD6A4Y=", "properties": {"ref": "102252", "@spider": "allsups", "addr:full": "2007 Calle Lorca", "addr:city": "Santa Fe", "addr:state": "AL", "addr:postcode": "87505", "addr:country": "US", "name": "Allsup's", "phone": "(505) 438-7125"}, "geometry": {"type": "Point", "coordinates": [-105.963837, 35.658573]}},
{"type": "Feature", "id": "f5BB3K8jhL6RHNAkxNjj_Qb4qDI=", "properties": {"ref": "102334", "@spider": "allsups", "addr:full": "3000 Cerrillos Road", "addr:city": "Santa Fe", "addr:state": "NM", "addr:postcode": "87507", "addr:country": "US", "name": "Allsup's", "phone": "(505) 471-6790"}, "geometry": {"type": "Point", "coordinates": [-105.992383, 35.654451]}},
{"type": "Feature", "id": "Q6nL2knn5bH3scM1-dBNdwa5m2M=", "properties": {"ref": "102330", "@spider": "allsups", "addr:full": "4680 Airport Rd.", "addr:city": "Santa Fe", "addr:state": "NM", "addr:postcode": "87507", "addr:country": "US", "name": "Allsup's", "phone": "(505) 473-4557"}, "geometry": {"type": "Point", "coordinates": [-106.028613, 35.637503]}},
{"type": "Feature", "id": "7GO-ImxTpILCoEXm26Uv6nDuw78=", "properties": {"ref": "102307", "@spider": "allsups", "addr:full": "5166 Agua Fria St.", "addr:city": "Santa Fe", "addr:state": "NM", "addr:postcode": "87507", "addr:country": "US", "name": "Allsup's", "phone": "(505) 471-0077"}, "geometry": {"type": "Point", "coordinates": [-106.042274, 35.645027]}},
{"type": "Feature", "id": "9y6GX-fmQxShnD3JyrRftoKSo1Q=", "properties": {"ref": "102317", "@spider": "allsups", "addr:full": "507 Paseo Del Pueblo Norte", "addr:city": "Taos", "addr:state": "NM", "addr:postcode": "87571", "addr:country": "US", "name": "Allsup's", "phone": "(575) 758-0037"}, "geometry": {"type": "Point", "coordinates": [-105.567566, 36.414663]}},
{"type": "Feature", "id": "krYvwhGoojHjw570PJ-bSm13D_8=", "properties": {"ref": "102291", "@spider": "allsups", "addr:full": "2252 Historic Route 66", "addr:city": "Santa Rosa", "addr:state": "NM", "addr:postcode": "88435", "addr:country": "US", "name": "Allsup's", "phone": "(575) 472-3041"}, "geometry": {"type": "Point", "coordinates": [-104.670458, 34.944416]}},
{"type": "Feature", "id": "N6iloSg2KLk920aTtRWp8zUECzU=", "properties": {"ref": "102336", "@spider": "allsups", "addr:full": "650 Cerrillos Road", "addr:city": "Santa Fe", "addr:state": "NM", "addr:postcode": "87501", "addr:country": "US", "name": "Allsup's", "phone": "(505) 989-7689"}, "geometry": {"type": "Point", "coordinates": [-105.948232, 35.680823]}},
{"type": "Feature", "id": "_N4jUyym_8DSFtznS811y0aGaKs=", "properties": {"ref": "102262", "@spider": "allsups", "addr:full": "160 East 8th Street", "addr:city": "Vaughn", "addr:state": "NM", "addr:postcode": "88353", "addr:country": "US", "name": "Allsup's", "phone": "(575) 584-2207"}, "geometry": {"type": "Point", "coordinates": [-105.209558, 34.60156]}},
{"type": "Feature", "id": "wc6wtFYGRtsj2N09-WKwOu8625E=", "properties": {"ref": "102058", "@spider": "allsups", "addr:full": "2301-2305 S. 1st St", "addr:city": "Tucumcari", "addr:state": "NM", "addr:postcode": "88401", "addr:country": "US", "name": "Allsup's", "phone": "(575) 461-4819"}, "geometry": {"type": "Point", "coordinates": [-103.725128, 35.15731]}},
{"type": "Feature", "id": "4urZdDm3MwUJTIVPlSaEEeVaRZ8=", "properties": {"ref": "102063", "@spider": "allsups", "addr:full": "101 W. Broadway", "addr:city": "Tatum", "addr:state": "NM", "addr:postcode": "88267", "addr:country": "US", "name": "Allsup's", "phone": "(575) 398-7040"}, "geometry": {"type": "Point", "coordinates": [-103.318033, 33.257227]}},
{"type": "Feature", "id": "-r-qqlIsON7O1TryBDla5ozwaU8=", "properties": {"ref": "102319", "@spider": "allsups", "addr:full": "1050 Paseo Del Pueblo Sur", "addr:city": "Taos", "addr:state": "NM", "addr:postcode": "87571", "addr:country": "US", "name": "Allsup's", "phone": "(575) 758-1149"}, "geometry": {"type": "Point", "coordinates": [-105.588361, 36.382879]}},
{"type": "Feature", "id": "AZFHWCUOh-PbdcSQjmKQZ-yWHX4=", "properties": {"ref": "102073", "@spider": "allsups", "addr:full": "512 Avenue D", "addr:city": "Abernathy", "addr:state": "TX", "addr:postcode": "79311", "addr:country": "US", "name": "Allsup's", "phone": "(806) 298-2753"}, "geometry": {"type": "Point", "coordinates": [-101.842755, 33.829138]}},
{"type": "Feature", "id": "lGpxM1G3-sM57hiQqVLMXUyja6g=", "properties": {"ref": "102281", "@spider": "allsups", "addr:full": "301 North Main Street", "addr:city": "Frederick", "addr:state": "OK", "addr:postcode": "73542", "addr:country": "US", "name": "Allsup's", "phone": "(580) 335-7270"}, "geometry": {"type": "Point", "coordinates": [-99.017296, 34.392268]}},
{"type": "Feature", "id": "91q4XufAoQhJkee8othB-jHSvtk=", "properties": {"ref": "102129", "@spider": "allsups", "addr:full": "301 North Judge Ely Blvd.", "addr:city": "Abilene", "addr:state": "TX", "addr:postcode": "79601", "addr:country": "US", "name": "Allsup's", "phone": "(325) 676-1346"}, "geometry": {"type": "Point", "coordinates": [-99.70559, 32.450501]}},
{"type": "Feature", "id": "haJUUK6rJEEtUVQrcbE3C7VxtLg=", "properties": {"ref": "102094", "@spider": "allsups", "addr:full": "4526 Pine Street", "addr:city": "Abilene", "addr:state": "TX", "addr:postcode": "79601", "addr:country": "US", "name": "Allsup's", "phone": "(325) 676-5891"}, "geometry": {"type": "Point", "coordinates": [-99.742952, 32.508822]}},
{"type": "Feature", "id": "dpSpwYnC9NcI4SlhPux-Ugv3AKg=", "properties": {"ref": "102347", "@spider": "allsups", "addr:full": "3401 N. 10th", "addr:city": "Abilene", "addr:state": "TX", "addr:postcode": "79603", "addr:country": "US", "name": "Allsup's", "phone": "(325) 672-3578"}, "geometry": {"type": "Point", "coordinates": [-99.764427, 32.460779]}},
{"type": "Feature", "id": "uTF8GZFKcnHDN6mmyFUbN4OMG4Q=", "properties": {"ref": "102187", "@spider": "allsups", "addr:full": "802 Grape Street", "addr:city": "Abilene", "addr:state": "TX", "addr:postcode": "79601", "addr:country": "US", "name": "Allsup's", "phone": "(325) 676-3118"}, "geometry": {"type": "Point", "coordinates": [-99.741253, 32.458378]}},
{"type": "Feature", "id": "tOuGUB11qsDFqM8oy895-WEgV4E=", "properties": {"ref": "102176", "@spider": "allsups", "addr:full": "1002 N Mockingbird Lane", "addr:city": "Abilene", "addr:state": "TX", "addr:postcode": "79603", "addr:country": "US", "name": "Allsup's", "phone": "(325) 676-2219"}, "geometry": {"type": "Point", "coordinates": [-99.758197, 32.461133]}},
{"type": "Feature", "id": "uxT49bYIiW7V8j_hIha3UpK-siA=", "properties": {"ref": "102230", "@spider": "allsups", "addr:full": "4409 North 10th Street", "addr:city": "Abilene", "addr:state": "TX", "addr:postcode": "79603", "addr:country": "US", "name": "Allsup's", "phone": "(325) 676-0736"}, "geometry": {"type": "Point", "coordinates": [-99.77911, 32.46178]}},
{"type": "Feature", "id": "w0jjYxsgsKZB4vEU9pXo3sZcEJU=", "properties": {"ref": "102224", "@spider": "allsups", "addr:full": "3023 North Pine Street", "addr:city": "Abilene", "addr:state": "TX", "addr:postcode": "79601", "addr:country": "US", "name": "Allsup's", "phone": "(325) 676-4123"}, "geometry": {"type": "Point", "coordinates": [-99.730844, 32.487434]}},
{"type": "Feature", "id": "YlVu27s3I4T9bJWsL6qY6DWnGxA=", "properties": {"ref": "102215", "@spider": "allsups", "addr:full": "2334 South 14th Street", "addr:city": "Abilene", "addr:state": "TX", "addr:postcode": "79601", "addr:country": "US", "name": "Allsup's", "phone": "(325) 676-3940"}, "geometry": {"type": "Point", "coordinates": [-99.751053, 32.432428]}},
{"type": "Feature", "id": "WTMoaIM7OvEttj2xMPsyTnJXdR0=", "properties": {"ref": "102325", "@spider": "allsups", "addr:full": "765 Veterans Drive", "addr:city": "Abilene", "addr:state": "TX", "addr:postcode": "79605", "addr:country": "US", "name": "Allsup's", "phone": "(325) 692-1435"}, "geometry": {"type": "Point", "coordinates": [-99.807945, 32.443107]}},
{"type": "Feature", "id": "nqX7ZV11UUSCQBeG5fFjVjck7lY=", "properties": {"ref": "102321", "@spider": "allsups", "addr:full": "2310 Barrow St.", "addr:city": "Abilene", "addr:state": "TX", "addr:postcode": "79605", "addr:country": "US", "name": "Allsup's", "phone": "(325) 695-5390"}, "geometry": {"type": "Point", "coordinates": [-99.760246, 32.420714]}},
{"type": "Feature", "id": "nv-BSHOI37L-ze114zegXdFBhOw=", "properties": {"ref": "102301", "@spider": "allsups", "addr:full": "2702 Ambler Avenue", "addr:city": "Abilene", "addr:state": "TX", "addr:postcode": "79603", "addr:country": "US", "name": "Allsup's", "phone": "(325) 677-9356"}, "geometry": {"type": "Point", "coordinates": [-99.754865, 32.474946]}},
{"type": "Feature", "id": "qDP2oHiCkHWLtLjcSuTi5P3Vzl4=", "properties": {"ref": "102329", "@spider": "allsups", "addr:full": "2401 S. First", "addr:city": "Abilene", "addr:state": "TX", "addr:postcode": "79605", "addr:country": "US", "name": "Allsup's", "phone": "(325) 676-7552"}, "geometry": {"type": "Point", "coordinates": [-99.751162, 32.449657]}},
{"type": "Feature", "id": "flodiKrRUXsbIxWtFk9EiLt77mA=", "properties": {"ref": "102328", "@spider": "allsups", "addr:full": "1741 Hwy 351", "addr:city": "Abilene", "addr:state": "TX", "addr:postcode": "79601", "addr:country": "US", "name": "Allsup's", "phone": "(325) 673-3462"}, "geometry": {"type": "Point", "coordinates": [-99.695708, 32.478817]}},
{"type": "Feature", "id": "I_5gLFuT6B_wuXLKu8mycpezJAk=", "properties": {"ref": "102326", "@spider": "allsups", "addr:full": "2550 S. Clack", "addr:city": "Abilene", "addr:state": "TX", "addr:postcode": "79606", "addr:country": "US", "name": "Allsup's", "phone": "(325) 695-0350"}, "geometry": {"type": "Point", "coordinates": [-99.782927, 32.419341]}},
{"type": "Feature", "id": "Wq2JDdrPxXZkm_2VPklQU1ZiPV8=", "properties": {"ref": "102350", "@spider": "allsups", "addr:full": "2101 Stamford", "addr:city": "Abilene", "addr:state": "TX", "addr:postcode": "79603", "addr:country": "US", "name": "Allsup's", "phone": "(325) 672-7162"}, "geometry": {"type": "Point", "coordinates": [-99.748157, 32.489481]}},
{"type": "Feature", "id": "Aj08taeLunG34vwTWUg9FWdRmXU=", "properties": {"ref": "102332", "@spider": "allsups", "addr:full": "4002 Ridgemont Dr", "addr:city": "Abilene", "addr:state": "TX", "addr:postcode": "79606", "addr:country": "US", "name": "Allsup's", "phone": "(325) 691-0972"}, "geometry": {"type": "Point", "coordinates": [-99.765407, 32.403029]}},
{"type": "Feature", "id": "LILxMop04oTCTK0wrqLNH3F1vQ4=", "properties": {"ref": "102331", "@spider": "allsups", "addr:full": "202 West I-20", "addr:city": "Abilene", "addr:state": "TX", "addr:postcode": "79601", "addr:country": "US", "name": "Allsup's", "phone": "(325) 676-0707"}, "geometry": {"type": "Point", "coordinates": [-99.72379, 32.491397]}},
{"type": "Feature", "id": "Hhksq8TXrkQtpeBbYJHkXY5q1zs=", "properties": {"ref": "102206", "@spider": "allsups", "addr:full": "800 N. Main", "addr:city": "Andrews", "addr:state": "TX", "addr:postcode": "79714", "addr:country": "US", "name": "Allsup's", "phone": "(432) 523-0110"}, "geometry": {"type": "Point", "coordinates": [-102.548627, 32.326396]}},
{"type": "Feature", "id": "1xWqc92qODvJ3oomNUjx-Mgj9fo=", "properties": {"ref": "102175", "@spider": "allsups", "addr:full": "427 Highway 180", "addr:city": "East Albany", "addr:state": "TX", "addr:postcode": "76430", "addr:country": "US", "name": "Allsup's", "phone": "(325) 762-3949"}, "geometry": {"type": "Point", "coordinates": [-99.287264, 32.730099]}},
{"type": "Feature", "id": "FSLmnZrMk878dwORXBGLCLgJOIo=", "properties": {"ref": "102298", "@spider": "allsups", "addr:full": "314 South Center", "addr:city": "Archer City", "addr:state": "TX", "addr:postcode": "76351", "addr:country": "US", "name": "Allsup's", "phone": "(940) 574-4019"}, "geometry": {"type": "Point", "coordinates": [-98.626172, 33.59206]}},
{"type": "Feature", "id": "q0A2MdJrtL2HdDMGj3wMF7bpryA=", "properties": {"ref": "102241", "@spider": "allsups", "addr:full": "1633 South Commercial", "addr:city": "Anson", "addr:state": "TX", "addr:postcode": "79501", "addr:country": "US", "name": "Allsup's", "phone": "(325) 823-3722"}, "geometry": {"type": "Point", "coordinates": [-99.89627, 32.751731]}},
{"type": "Feature", "id": "WAMAppjub4nIJXQkuf_Rhg8kYLo=", "properties": {"ref": "102186", "@spider": "allsups", "addr:full": "1025 Cherry Street", "addr:city": "Baird", "addr:state": "TX", "addr:postcode": "79504", "addr:country": "US", "name": "Allsup's", "phone": "(325) 854-1834"}, "geometry": {"type": "Point", "coordinates": [-99.386248, 32.400359]}},
{"type": "Feature", "id": "P54sdqkgN9Mw9sYgIVrfZjcfGzQ=", "properties": {"ref": "102311", "@spider": "allsups", "addr:full": "1600 NW Parkway  Hwy 199", "addr:city": "Azle", "addr:state": "TX", "addr:postcode": "76020", "addr:country": "US", "name": "Allsup's", "phone": "(817) 677-2899"}, "geometry": {"type": "Point", "coordinates": [-97.576485, 32.909652]}},
{"type": "Feature", "id": "v38ayoZ9VKmv7Q6gi-9mH7_4TOI=", "properties": {"ref": "102185", "@spider": "allsups", "addr:full": "829 S. Broadway", "addr:city": "Aspermont", "addr:state": "TX", "addr:postcode": "79502", "addr:country": "US", "name": "Allsup's", "phone": "(940) 989-2952"}, "geometry": {"type": "Point", "coordinates": [-100.227245, 33.136889]}},
{"type": "Feature", "id": "mTSuAXm4AfBQCdml-10hwzhrv_Y=", "properties": {"ref": "102235", "@spider": "allsups", "addr:full": "1207 Hutchins", "addr:city": "Ballinger", "addr:state": "TX", "addr:postcode": "76821", "addr:country": "US", "name": "Allsup's", "phone": "(325) 365-3158"}, "geometry": {"type": "Point", "coordinates": [-99.952668, 31.734265]}},
{"type": "Feature", "id": "hFEQ0M2hglaAws8Tna1npP9SxMA=", "properties": {"ref": "102232", "@spider": "allsups", "addr:full": "1001 Broadway", "addr:city": "Ballinger", "addr:state": "TX", "addr:postcode": "76821", "addr:country": "US", "name": "Allsup's", "phone": "(325) 365-5632"}, "geometry": {"type": "Point", "coordinates": [-99.955466, 31.746155]}},
{"type": "Feature", "id": "g5NV4P0lNY5Gb0ECXpNvBGDo32o=", "properties": {"ref": "102065", "@spider": "allsups", "addr:full": "201 West 10th Street", "addr:city": "Borger", "addr:state": "TX", "addr:postcode": "79007", "addr:country": "US", "name": "Allsup's", "phone": "(806) 274-5181"}, "geometry": {"type": "Point", "coordinates": [-101.3912, 35.676605]}},
{"type": "Feature", "id": "YOgcWIOvnSF2fbPN3cuoRkAE_fc=", "properties": {"ref": "102041", "@spider": "allsups", "addr:full": "416 West Wilson", "addr:city": "Borger", "addr:state": "TX", "addr:postcode": "79007", "addr:country": "US", "name": "Allsup's", "phone": "(806) 274-5084"}, "geometry": {"type": "Point", "coordinates": [-101.394026, 35.661287]}},
{"type": "Feature", "id": "_3BZGPFQhJXTe5hyHcWY2jfxQNg=", "properties": {"ref": "102070", "@spider": "allsups", "addr:full": "18 E. Industrial Ave.", "addr:city": "Booker", "addr:state": "TX", "addr:postcode": "79005", "addr:country": "US", "name": "Allsup's", "phone": "(806) 658-4875"}, "geometry": {"type": "Point", "coordinates": [-100.53783, 36.455153]}},
{"type": "Feature", "id": "Zko7SAE1_jQwRD-m_rIDSTstxhk=", "properties": {"ref": "102272", "@spider": "allsups", "addr:full": "506 E. Hall St", "addr:city": "Bangs", "addr:state": "TX", "addr:postcode": "76823", "addr:country": "US", "name": "Allsup's", "phone": "(325) 752-6015"}, "geometry": {"type": "Point", "coordinates": [-99.126995, 31.717187]}},
{"type": "Feature", "id": "DImVchAHSMNp729yE34PJE1ZpFk=", "properties": {"ref": "102244", "@spider": "allsups", "addr:full": "3309 Fairlanes Road", "addr:city": "Borger", "addr:state": "TX", "addr:postcode": "79007", "addr:country": "US", "name": "Allsup's", "phone": "(806) 274-2974"}, "geometry": {"type": "Point", "coordinates": [-101.447335, 35.652926]}},
{"type": "Feature", "id": "vCQLUDko6etovFxBBaf1u69kytw=", "properties": {"ref": "102210", "@spider": "allsups", "addr:full": "511 Florida", "addr:city": "Borger", "addr:state": "TX", "addr:postcode": "79007", "addr:country": "US", "name": "Allsup's", "phone": "(806) 274-2330"}, "geometry": {"type": "Point", "coordinates": [-101.381539, 35.671249]}},
{"type": "Feature", "id": "wjVBb9NU31M5uuxpZS6J6aEg4Y0=", "properties": {"ref": "102134", "@spider": "allsups", "addr:full": "500 East Wise Street", "addr:city": "Bowie", "addr:state": "TX", "addr:postcode": "76230", "addr:country": "US", "name": "Allsup's", "phone": "(940) 872-4962"}, "geometry": {"type": "Point", "coordinates": [-97.84383, 33.55638]}},
{"type": "Feature", "id": "iTnoncycwlQHcuPwuc9qMq_Qptg=", "properties": {"ref": "102018", "@spider": "allsups", "addr:full": "100 3rd Street", "addr:city": "Bovina", "addr:state": "TX", "addr:postcode": "79009", "addr:country": "US", "name": "Allsup's", "phone": "(806) 238-1519"}, "geometry": {"type": "Point", "coordinates": [-102.889328, 34.519198]}}]}