{"type":"FeatureCollection","features":[{"type": "Feature", "id": "2e-FeyQfFSEOVvZfKdagjs1ebmY=", "properties": {"ref": "8731882", "@spider": "anatomie", "addr:full": "1700 17-Mile Drive", "addr:city": "Pebble Beach", "addr:state": "CA", "addr:postcode": "93953", "name": "PEBBLE BEACH CO Heritage shop", "website": "https://stores.boldapps.net/front-end/get_surrounding_stores.php?shop=anatomie-store.myshopify.com&latitude=38.331258&longitude=-121.54841799999997&max_distance=100000&limit=10000&calc_distance=1", "brand": "Anatomie"}, "geometry": {"type": "Point", "coordinates": [-121.945147, 36.603693]}},
{"type": "Feature", "id": "rdMSlY0M5d3Ijoutvj5nz7xP27s=", "properties": {"ref": "8731881", "@spider": "anatomie", "addr:full": "1518 Cypress Drive", "addr:city": "Pebble Beach", "addr:state": "CA", "addr:postcode": "93953", "name": "PEBBLE BEACH CO Spa Boutique", "website": "https://stores.boldapps.net/front-end/get_surrounding_stores.php?shop=anatomie-store.myshopify.com&latitude=38.331258&longitude=-121.54841799999997&max_distance=100000&limit=10000&calc_distance=1", "brand": "Anatomie"}, "geometry": {"type": "Point", "coordinates": [-121.946462, 36.569777]}},
{"type": "Feature", "id": "ZgnrgAwfgFUsPNZa0NAqtl-Yn4E=", "properties": {"ref": "8731848", "@spider": "anatomie", "addr:full": "Ocean Avenue", "addr:city": "Carmel-by-the-Sea", "addr:state": "CA", "addr:postcode": "93921", "name": "Augustina's", "website": "https://stores.boldapps.net/front-end/get_surrounding_stores.php?shop=anatomie-store.myshopify.com&latitude=38.331258&longitude=-121.54841799999997&max_distance=100000&limit=10000&calc_distance=1", "brand": "Anatomie"}, "geometry": {"type": "Point", "coordinates": [-121.920177, 36.55511]}},
{"type": "Feature", "id": "5c1pLIziz8edlb1gBMBBaX15maE=", "properties": {"ref": "8731860", "@spider": "anatomie", "addr:full": "1260 Channel Dr", "addr:city": "Santa Barbara", "addr:state": "CA", "addr:postcode": "93108", "name": "Four Seasons Resort The Biltmore Santa Barbara", "website": "https://stores.boldapps.net/front-end/get_surrounding_stores.php?shop=anatomie-store.myshopify.com&latitude=38.331258&longitude=-121.54841799999997&max_distance=100000&limit=10000&calc_distance=1", "brand": "Anatomie"}, "geometry": {"type": "Point", "coordinates": [-119.641961, 34.417448]}},
{"type": "Feature", "id": "-ivIlIBpHv1MW9_D5vYE1IDtA6U=", "properties": {"ref": "11692513", "@spider": "anatomie", "addr:full": "1260 Channel Dr", "addr:city": "Santa Barbara", "addr:state": "CA", "addr:postcode": "93108", "name": "Four Seasons Resort The Biltmore Santa Barbara", "website": "https://stores.boldapps.net/front-end/get_surrounding_stores.php?shop=anatomie-store.myshopify.com&latitude=38.331258&longitude=-121.54841799999997&max_distance=100000&limit=10000&calc_distance=1", "brand": "Anatomie"}, "geometry": {"type": "Point", "coordinates": [-119.641961, 34.417448]}},
{"type": "Feature", "id": "Q9XC7cWRaGjhniPVpkkH5Vl-ZTY=", "properties": {"ref": "8731892", "@spider": "anatomie", "addr:full": "777 Deer Springs Road", "addr:city": "SAN MARCOS", "addr:state": "CA", "addr:postcode": "92069", "name": "THE GOLDEN DOOR SPA", "website": "https://stores.boldapps.net/front-end/get_surrounding_stores.php?shop=anatomie-store.myshopify.com&latitude=38.331258&longitude=-121.54841799999997&max_distance=100000&limit=10000&calc_distance=1", "brand": "Anatomie"}, "geometry": {"type": "Point", "coordinates": [-117.142705, 33.19375]}},
{"type": "Feature", "id": "NUBRhhb4py_MbLTyS9697lBSe0s=", "properties": {"ref": "11989226", "@spider": "anatomie", "addr:full": "Call 858-531-6863 Farzaneh Sani, Owner", "addr:city": "Rancho Santa Fe", "addr:state": "California", "addr:postcode": "92067", "name": "Shaneh Boutique", "website": "https://stores.boldapps.net/front-end/get_surrounding_stores.php?shop=anatomie-store.myshopify.com&latitude=38.331258&longitude=-121.54841799999997&max_distance=100000&limit=10000&calc_distance=1", "brand": "Anatomie"}, "geometry": {"type": "Point", "coordinates": [-117.173377, 32.971352]}},
{"type": "Feature", "id": "k8QfuK4rPH_Nxub5SSXQD1kSC-0=", "properties": {"ref": "11692510", "@spider": "anatomie", "addr:full": "9700 N Torrey Pines Rd", "addr:city": "La Jolla", "addr:state": "CA", "addr:postcode": "92037", "name": "Estancia La Jolla Hotel and Spa", "website": "https://stores.boldapps.net/front-end/get_surrounding_stores.php?shop=anatomie-store.myshopify.com&latitude=38.331258&longitude=-121.54841799999997&max_distance=100000&limit=10000&calc_distance=1", "brand": "Anatomie"}, "geometry": {"type": "Point", "coordinates": [-117.24454, 32.884234]}},
{"type": "Feature", "id": "PlAO_SUAVYRd4la-q_X9y5odNLo=", "properties": {"ref": "11692518", "@spider": "anatomie", "addr:full": "9100 Marsac Avenue", "addr:city": "Park city", "addr:state": "UT", "addr:postcode": "84060", "name": "Montage Deer valley", "website": "https://stores.boldapps.net/front-end/get_surrounding_stores.php?shop=anatomie-store.myshopify.com&latitude=38.331258&longitude=-121.54841799999997&max_distance=100000&limit=10000&calc_distance=1", "brand": "Anatomie"}, "geometry": {"type": "Point", "coordinates": [-111.512082, 40.616065]}},
{"type": "Feature", "id": "cV_q8DbtxtPaISVI6ohtlDUMnI4=", "properties": {"ref": "11692528", "@spider": "anatomie", "addr:full": "6902 E Greenway Pkwy", "addr:city": "Scottsdale", "addr:state": "AZ", "addr:postcode": "85254", "name": "THE WESTIN KIERLAND RESORT & SPA", "website": "https://stores.boldapps.net/front-end/get_surrounding_stores.php?shop=anatomie-store.myshopify.com&latitude=38.331258&longitude=-121.54841799999997&max_distance=100000&limit=10000&calc_distance=1", "brand": "Anatomie"}, "geometry": {"type": "Point", "coordinates": [-111.933008, 33.624802]}},
{"type": "Feature", "id": "E6epUqJPez3xd8TfkG--6gAIpw8=", "properties": {"ref": "8731896", "@spider": "anatomie", "addr:full": "6765 N Crystal Springs Road", "addr:city": "Teton Village", "addr:state": "WY", "addr:postcode": "83025", "name": "The Spa at Shooting Star", "website": "https://stores.boldapps.net/front-end/get_surrounding_stores.php?shop=anatomie-store.myshopify.com&latitude=38.331258&longitude=-121.54841799999997&max_distance=100000&limit=10000&calc_distance=1", "brand": "Anatomie"}, "geometry": {"type": "Point", "coordinates": [-110.82671, 43.577883]}},
{"type": "Feature", "id": "faOf7uw_ApQz3GQLqPAXkNzNMlk=", "properties": {"ref": "14368728", "@spider": "anatomie", "addr:full": "439 Main St", "addr:city": "Grand Junction", "addr:state": "Colorado", "addr:postcode": "81501", "name": "Zephyr of Grand Junction", "website": "https://stores.boldapps.net/front-end/get_surrounding_stores.php?shop=anatomie-store.myshopify.com&latitude=38.331258&longitude=-121.54841799999997&max_distance=100000&limit=10000&calc_distance=1", "brand": "Anatomie"}, "geometry": {"type": "Point", "coordinates": [-108.565124, 39.066987]}},
{"type": "Feature", "id": "57aP3Ix_Jgk6qGZpRfRvAFzisRk=", "properties": {"ref": "8731888", "@spider": "anatomie", "addr:full": "8600 E. ROCKCLIFF ROAD", "addr:city": "TUCSON", "addr:state": "AZ", "addr:postcode": "85750", "name": "SHOWCASE AT CANYON RANCH - AZ", "website": "https://stores.boldapps.net/front-end/get_surrounding_stores.php?shop=anatomie-store.myshopify.com&latitude=38.331258&longitude=-121.54841799999997&max_distance=100000&limit=10000&calc_distance=1", "brand": "Anatomie"}, "geometry": {"type": "Point", "coordinates": [-110.809317, 32.286946]}},
{"type": "Feature", "id": "hbKLVQ2rjAh0vqypICSZCWH7GlE=", "properties": {"ref": "14368727", "@spider": "anatomie", "addr:full": "255 Gold Rivers Ct # 160", "addr:city": "Basalt", "addr:state": "Colorado", "addr:postcode": "81621", "name": "Traffic", "website": "https://stores.boldapps.net/front-end/get_surrounding_stores.php?shop=anatomie-store.myshopify.com&latitude=38.331258&longitude=-121.54841799999997&max_distance=100000&limit=10000&calc_distance=1", "brand": "Anatomie"}, "geometry": {"type": "Point", "coordinates": [-107.034651, 39.367782]}},
{"type": "Feature", "id": "vilIz8AMfPrOkL86vbJ26xI08ek=", "properties": {"ref": "11692511", "@spider": "anatomie", "addr:full": "136 E Thomas Pl", "addr:city": "Beaver Creek", "addr:state": "CO", "addr:postcode": "81620", "name": "Exhale Spa at Park Hyatt Beaver Creek", "website": "https://stores.boldapps.net/front-end/get_surrounding_stores.php?shop=anatomie-store.myshopify.com&latitude=38.331258&longitude=-121.54841799999997&max_distance=100000&limit=10000&calc_distance=1", "brand": "Anatomie"}, "geometry": {"type": "Point", "coordinates": [-106.515598, 39.604442]}},
{"type": "Feature", "id": "vhoh9Z2RVX3tcUHSh6Ke6ikVMNI=", "properties": {"ref": "8731876", "@spider": "anatomie", "addr:full": "40 E Meadow Dr.", "addr:city": "VAIL", "addr:state": "CO", "addr:postcode": "81657", "name": "LUCA BRUNO", "website": "https://stores.boldapps.net/front-end/get_surrounding_stores.php?shop=anatomie-store.myshopify.com&latitude=38.331258&longitude=-121.54841799999997&max_distance=100000&limit=10000&calc_distance=1", "brand": "Anatomie"}, "geometry": {"type": "Point", "coordinates": [-106.378194, 39.641938]}},
{"type": "Feature", "id": "EFVHRVQ_jjkw6zOQgVu90RS0dk8=", "properties": {"ref": "11692523", "@spider": "anatomie", "addr:full": "900 Walnut St", "addr:city": "Boulder", "addr:state": "CO", "addr:postcode": "80302", "name": "St Julien Hotel & Spa", "website": "https://stores.boldapps.net/front-end/get_surrounding_stores.php?shop=anatomie-store.myshopify.com&latitude=38.331258&longitude=-121.54841799999997&max_distance=100000&limit=10000&calc_distance=1", "brand": "Anatomie"}, "geometry": {"type": "Point", "coordinates": [-105.282758, 40.015846]}},
{"type": "Feature", "id": "1snb3xzZ27Y0YJjqD7t6eljDHJI=", "properties": {"ref": "9962842", "@spider": "anatomie", "addr:full": "2500 East 2nd Avenue.| Suite 110", "addr:city": "Denver", "addr:state": "Colorado", "addr:postcode": "80206", "name": "CHERRY CREEK - ANATOMIE", "website": "https://stores.boldapps.net/front-end/get_surrounding_stores.php?shop=anatomie-store.myshopify.com&latitude=38.331258&longitude=-121.54841799999997&max_distance=100000&limit=10000&calc_distance=1", "brand": "Anatomie"}, "geometry": {"type": "Point", "coordinates": [-104.957047, 39.719061]}},
{"type": "Feature", "id": "V9Ba3fp70ZN1_vVQtDd5AjgwQXM=", "properties": {"ref": "8731873", "@spider": "anatomie", "addr:full": "2101 West Wadley, Suite 16", "addr:city": "Midland", "addr:state": "TX", "addr:postcode": "79705", "name": "Julian Gold Midland", "website": "https://stores.boldapps.net/front-end/get_surrounding_stores.php?shop=anatomie-store.myshopify.com&latitude=38.331258&longitude=-121.54841799999997&max_distance=100000&limit=10000&calc_distance=1", "brand": "Anatomie"}, "geometry": {"type": "Point", "coordinates": [-102.106431, 32.023046]}},
{"type": "Feature", "id": "Frd7JS6er80lLgak0OOjwSUzRcA=", "properties": {"ref": "8731899", "@spider": "anatomie", "addr:full": "1243 Main Street", "addr:city": "Southlake", "addr:state": "TX", "addr:postcode": "76092", "name": "Xar Clothier", "website": "https://stores.boldapps.net/front-end/get_surrounding_stores.php?shop=anatomie-store.myshopify.com&latitude=38.331258&longitude=-121.54841799999997&max_distance=100000&limit=10000&calc_distance=1", "brand": "Anatomie"}, "geometry": {"type": "Point", "coordinates": [-97.132678, 32.942393]}},
{"type": "Feature", "id": "oA5_jlaJYGm6VgNhTFwUIc14M_M=", "properties": {"ref": "11692512", "@spider": "anatomie", "addr:full": "4150 N MacArthur Blvd", "addr:city": "Irving", "addr:state": "TX", "addr:postcode": "75038", "name": "Four Seasons Resort & Club At Las Colinas", "website": "https://stores.boldapps.net/front-end/get_surrounding_stores.php?shop=anatomie-store.myshopify.com&latitude=38.331258&longitude=-121.54841799999997&max_distance=100000&limit=10000&calc_distance=1", "brand": "Anatomie"}, "geometry": {"type": "Point", "coordinates": [-96.958409, 32.862417]}},
{"type": "Feature", "id": "-nt52ppOAIKb7tndLLxtjls7rzc=", "properties": {"ref": "14368714", "@spider": "anatomie", "addr:full": "7300 Lone Star Dr", "addr:city": "Plano", "addr:state": "Texas", "addr:postcode": "75024", "name": "Joni' Boutique", "website": "https://stores.boldapps.net/front-end/get_surrounding_stores.php?shop=anatomie-store.myshopify.com&latitude=38.331258&longitude=-121.54841799999997&max_distance=100000&limit=10000&calc_distance=1", "brand": "Anatomie"}, "geometry": {"type": "Point", "coordinates": [-96.822288, 33.076114]}},
{"type": "Feature", "id": "M-WHmOuPHQVYGqXkH2E654NU72c=", "properties": {"ref": "14368716", "@spider": "anatomie", "addr:full": "7300 Lone Star Dr", "addr:city": "Plano", "addr:postcode": "75024", "name": "Joni' Boutique", "website": "https://stores.boldapps.net/front-end/get_surrounding_stores.php?shop=anatomie-store.myshopify.com&latitude=38.331258&longitude=-121.54841799999997&max_distance=100000&limit=10000&calc_distance=1", "brand": "Anatomie"}, "geometry": {"type": "Point", "coordinates": [-96.822288, 33.076114]}},
{"type": "Feature", "id": "lKjxVt4Ot5YtKrSgS262YUqDuYc=", "properties": {"ref": "8731874", "@spider": "anatomie", "addr:full": "4109 Mccullough", "addr:city": "San Antonio", "addr:state": "TX", "addr:postcode": "78212", "name": "Julian Gold San Antonio", "website": "https://stores.boldapps.net/front-end/get_surrounding_stores.php?shop=anatomie-store.myshopify.com&latitude=38.331258&longitude=-121.54841799999997&max_distance=100000&limit=10000&calc_distance=1", "brand": "Anatomie"}, "geometry": {"type": "Point", "coordinates": [-98.492221, 29.46831]}},
{"type": "Feature", "id": "XuG5BgF1KL6dxj9-wBYIViXQDho=", "properties": {"ref": "8731872", "@spider": "anatomie", "addr:full": "1214 West 6th street", "addr:city": "Austin", "addr:state": "TX", "addr:postcode": "78703", "name": "Julian Gold Austin", "website": "https://stores.boldapps.net/front-end/get_surrounding_stores.php?shop=anatomie-store.myshopify.com&latitude=38.331258&longitude=-121.54841799999997&max_distance=100000&limit=10000&calc_distance=1", "brand": "Anatomie"}, "geometry": {"type": "Point", "coordinates": [-97.758576, 30.273605]}},
{"type": "Feature", "id": "Y3NC0dw0PGx5C8Eh5QaB6w3IZCc=", "properties": {"ref": "8731851", "@spider": "anatomie", "addr:full": "256 Water Street", "addr:city": "Excelsior", "addr:state": "MN", "addr:postcode": "55331", "name": "Brightwater Clothing & Gear", "website": "https://stores.boldapps.net/front-end/get_surrounding_stores.php?shop=anatomie-store.myshopify.com&latitude=38.331258&longitude=-121.54841799999997&max_distance=100000&limit=10000&calc_distance=1", "brand": "Anatomie"}, "geometry": {"type": "Point", "coordinates": [-93.567213, 44.902803]}},
{"type": "Feature", "id": "t-ERob5s0FelOTjt8UnkA8cqYZk=", "properties": {"ref": "8731868", "@spider": "anatomie", "addr:full": "1638 E. REPUBLIC RD", "addr:city": "SPRINGFIELD", "addr:state": "MO", "addr:postcode": "65804", "name": "Harem & CO.", "website": "https://stores.boldapps.net/front-end/get_surrounding_stores.php?shop=anatomie-store.myshopify.com&latitude=38.331258&longitude=-121.54841799999997&max_distance=100000&limit=10000&calc_distance=1", "brand": "Anatomie"}, "geometry": {"type": "Point", "coordinates": [-93.266401, 37.137022]}},
{"type": "Feature", "id": "XoKc_uH1a3zzfIRGsAuHPj6wwCM=", "properties": {"ref": "14368719", "@spider": "anatomie", "addr:full": "8201 Cantrell Rd # 280", "addr:city": "Little Rock", "addr:state": "Arkansas", "addr:postcode": "72227", "name": "B. Barnett", "website": "https://stores.boldapps.net/front-end/get_surrounding_stores.php?shop=anatomie-store.myshopify.com&latitude=38.331258&longitude=-121.54841799999997&max_distance=100000&limit=10000&calc_distance=1", "brand": "Anatomie"}, "geometry": {"type": "Point", "coordinates": [-92.366247, 34.776377]}},
{"type": "Feature", "id": "B5PLmOjY_GcWoi2kPkOk91czVnA=", "properties": {"ref": "11692525", "@spider": "anatomie", "addr:full": "7036 Grand Geneva Way", "addr:city": "Lake Geneva", "addr:state": "WI", "addr:postcode": "53147", "name": "The Grand Geneva", "website": "https://stores.boldapps.net/front-end/get_surrounding_stores.php?shop=anatomie-store.myshopify.com&latitude=38.331258&longitude=-121.54841799999997&max_distance=100000&limit=10000&calc_distance=1", "brand": "Anatomie"}, "geometry": {"type": "Point", "coordinates": [-88.405118, 42.609725]}},
{"type": "Feature", "id": "OP4MggeQ88pGQTIGFffXB0eIHWA=", "properties": {"ref": "14368717", "@spider": "anatomie", "addr:full": "15 E 1st St", "addr:city": "Hinsdale", "addr:state": "Illinois", "addr:postcode": "60521", "name": "Sweet William", "website": "https://stores.boldapps.net/front-end/get_surrounding_stores.php?shop=anatomie-store.myshopify.com&latitude=38.331258&longitude=-121.54841799999997&max_distance=100000&limit=10000&calc_distance=1", "brand": "Anatomie"}, "geometry": {"type": "Point", "coordinates": [-87.928427, 41.801695]}},
{"type": "Feature", "id": "w8j7aAUY-kMofe3g8EbwepfvwWM=", "properties": {"ref": "8731878", "@spider": "anatomie", "addr:full": "601 Prestwick Drive", "addr:city": "Frankfort", "addr:state": "IL", "addr:postcode": "60423", "name": "Marcus Dekeyser Golf Shop @ Prestwick Country Club", "website": "https://stores.boldapps.net/front-end/get_surrounding_stores.php?shop=anatomie-store.myshopify.com&latitude=38.331258&longitude=-121.54841799999997&max_distance=100000&limit=10000&calc_distance=1", "brand": "Anatomie"}, "geometry": {"type": "Point", "coordinates": [-87.79474, 41.495905]}},
{"type": "Feature", "id": "mwwouDUDIgpmbl5WGgQIMWSX8js=", "properties": {"ref": "14368723", "@spider": "anatomie", "addr:full": "1 E Delaware Pl", "addr:city": "CHICAGO", "addr:state": "Illinois", "addr:postcode": "60611", "name": "Contessa Bottega", "website": "https://stores.boldapps.net/front-end/get_surrounding_stores.php?shop=anatomie-store.myshopify.com&latitude=38.331258&longitude=-121.54841799999997&max_distance=100000&limit=10000&calc_distance=1", "brand": "Anatomie"}, "geometry": {"type": "Point", "coordinates": [-87.627971, 41.898911]}},
{"type": "Feature", "id": "tjBEHgVM2AAJwBCBTVKVLhAudrk=", "properties": {"ref": "11692529", "@spider": "anatomie", "addr:full": "401 N Wabash Ave", "addr:city": "CHICAGO", "addr:state": "IL", "addr:postcode": "60611", "name": "Trump International Hotel Chicago", "website": "https://stores.boldapps.net/front-end/get_surrounding_stores.php?shop=anatomie-store.myshopify.com&latitude=38.331258&longitude=-121.54841799999997&max_distance=100000&limit=10000&calc_distance=1", "brand": "Anatomie"}, "geometry": {"type": "Point", "coordinates": [-87.626309, 41.888801]}},
{"type": "Feature", "id": "cVre6mRpUM8rssMpEnEULE1bdXE=", "properties": {"ref": "11692530", "@spider": "anatomie", "addr:full": "626 Michigan Ave", "addr:city": "Chicago", "addr:state": "IL", "addr:postcode": "60611", "name": "Woman's Athletic Club of Chicago", "website": "https://stores.boldapps.net/front-end/get_surrounding_stores.php?shop=anatomie-store.myshopify.com&latitude=38.331258&longitude=-121.54841799999997&max_distance=100000&limit=10000&calc_distance=1", "brand": "Anatomie"}, "geometry": {"type": "Point", "coordinates": [-87.624611, 41.893579]}},
{"type": "Feature", "id": "j8FzHIsUpXUdUduibXzQJntN8dY=", "properties": {"ref": "13614812", "@spider": "anatomie", "addr:full": "4114 Veterans Blvd", "addr:city": "Metairie", "addr:state": "Louisiana", "addr:postcode": "70002", "name": "Chattabox Boutique", "website": "https://stores.boldapps.net/front-end/get_surrounding_stores.php?shop=anatomie-store.myshopify.com&latitude=38.331258&longitude=-121.54841799999997&max_distance=100000&limit=10000&calc_distance=1", "brand": "Anatomie"}, "geometry": {"type": "Point", "coordinates": [-90.17734, 30.004425]}},
{"type": "Feature", "id": "rlVaeSmU5o064Zu1PumTFGUG0LA=", "properties": {"ref": "8731897", "@spider": "anatomie", "addr:full": "130 Roosevelt Way", "addr:city": "New Orleans", "addr:state": "LA", "addr:postcode": "70112", "name": "Waldorf Astoria Spa at the Roosevelt Hotel", "website": "https://stores.boldapps.net/front-end/get_surrounding_stores.php?shop=anatomie-store.myshopify.com&latitude=38.331258&longitude=-121.54841799999997&max_distance=100000&limit=10000&calc_distance=1", "brand": "Anatomie"}, "geometry": {"type": "Point", "coordinates": [-90.072377, 29.954204]}},
{"type": "Feature", "id": "lQ3QI9nfSripAz83vS1F_pC9fAQ=", "properties": {"ref": "10237883", "@spider": "anatomie", "addr:full": "3600 Village Harbor Dr", "addr:city": "Bay Harbor", "addr:state": "Michigan", "addr:postcode": "49770", "name": "The Spa at The Inn at Bay Harbor", "website": "https://stores.boldapps.net/front-end/get_surrounding_stores.php?shop=anatomie-store.myshopify.com&latitude=38.331258&longitude=-121.54841799999997&max_distance=100000&limit=10000&calc_distance=1", "brand": "Anatomie"}, "geometry": {"type": "Point", "coordinates": [-85.0156, 45.36902]}},
{"type": "Feature", "id": "64A-B3TOU5dXJlZaoXO15jaBvFs=", "properties": {"ref": "10237880", "@spider": "anatomie", "addr:full": "1 Boyne Mountain Road", "addr:city": "Boyne Falls", "addr:state": "Michigan", "addr:postcode": "49713", "name": "The Spa at Boyne Mountain", "website": "https://stores.boldapps.net/front-end/get_surrounding_stores.php?shop=anatomie-store.myshopify.com&latitude=38.331258&longitude=-121.54841799999997&max_distance=100000&limit=10000&calc_distance=1", "brand": "Anatomie"}, "geometry": {"type": "Point", "coordinates": [-84.930067, 45.162884]}},
{"type": "Feature", "id": "7g_8dlOCNu9ZIUxWILZw2u9jPRA=", "properties": {"ref": "8731885", "@spider": "anatomie", "addr:full": "The Rodes Building, 6385, 4938 Brownsboro Rd", "addr:city": "LOUISVILLE", "addr:state": "KY", "addr:postcode": "40222", "name": "Rodes For Him & For Her", "website": "https://stores.boldapps.net/front-end/get_surrounding_stores.php?shop=anatomie-store.myshopify.com&latitude=38.331258&longitude=-121.54841799999997&max_distance=100000&limit=10000&calc_distance=1", "brand": "Anatomie"}, "geometry": {"type": "Point", "coordinates": [-85.629449, 38.282408]}},
{"type": "Feature", "id": "SJTIfyOW1sbEvEWFMTQNHuuG2hU=", "properties": {"ref": "11692509", "@spider": "anatomie", "addr:full": "1000 Arlberg Ave", "addr:city": "Girdwood", "addr:state": "Alaska", "addr:postcode": "99587", "name": "Alyeska Resort", "website": "https://stores.boldapps.net/front-end/get_surrounding_stores.php?shop=anatomie-store.myshopify.com&latitude=38.331258&longitude=-121.54841799999997&max_distance=100000&limit=10000&calc_distance=1", "brand": "Anatomie"}, "geometry": {"type": "Point", "coordinates": [-149.098512, 60.970437]}},
{"type": "Feature", "id": "yEr5DFq8y9QqCMWXFRHTk30RP2Y=", "properties": {"ref": "8731865", "@spider": "anatomie", "addr:full": "Shops of Oakwood at 2501 Far Hills Avenue", "addr:city": "Dayton", "addr:state": "OH", "addr:postcode": "45419", "name": "Get Dressed! Boutique", "website": "https://stores.boldapps.net/front-end/get_surrounding_stores.php?shop=anatomie-store.myshopify.com&latitude=38.331258&longitude=-121.54841799999997&max_distance=100000&limit=10000&calc_distance=1", "brand": "Anatomie"}, "geometry": {"type": "Point", "coordinates": [-84.171495, 39.710129]}},
{"type": "Feature", "id": "u5stRhGbqSXjmamKotfQIqnwX9A=", "properties": {"ref": "8731864", "@spider": "anatomie", "addr:full": "31675 Inkster Rd", "addr:city": "Franklin", "addr:state": "MI", "addr:postcode": "48025", "name": "Franklin Hills Country Club", "website": "https://stores.boldapps.net/front-end/get_surrounding_stores.php?shop=anatomie-store.myshopify.com&latitude=38.331258&longitude=-121.54841799999997&max_distance=100000&limit=10000&calc_distance=1", "brand": "Anatomie"}, "geometry": {"type": "Point", "coordinates": [-83.322718, 42.518302]}},
{"type": "Feature", "id": "TqMC6IZpinjlS8h_LVuWb0WHWdk=", "properties": {"ref": "8731849", "@spider": "anatomie", "addr:full": "8129 VAUGHN ROAD", "addr:city": "MONTGOMERY", "addr:state": "AL", "addr:postcode": "36116", "name": "BELLA", "website": "https://stores.boldapps.net/front-end/get_surrounding_stores.php?shop=anatomie-store.myshopify.com&latitude=38.331258&longitude=-121.54841799999997&max_distance=100000&limit=10000&calc_distance=1", "brand": "Anatomie"}, "geometry": {"type": "Point", "coordinates": [-86.172772, 32.339881]}},
{"type": "Feature", "id": "4-ac7VkG9vBqQLGhhGIW5rQfLTc=", "properties": {"ref": "11692520", "@spider": "anatomie", "addr:full": "1001 Lafayette Drive", "addr:city": "FARMINGTON", "addr:state": "PA", "addr:postcode": "15437", "name": "Nemacolin Woodlands Resort", "website": "https://stores.boldapps.net/front-end/get_surrounding_stores.php?shop=anatomie-store.myshopify.com&latitude=38.331258&longitude=-121.54841799999997&max_distance=100000&limit=10000&calc_distance=1", "brand": "Anatomie"}, "geometry": {"type": "Point", "coordinates": [-79.551519, 39.806334]}},
{"type": "Feature", "id": "0VfyeyU0ZrBvnJ0pYK_RtEcbpfA=", "properties": {"ref": "11692527", "@spider": "anatomie", "addr:full": "10000 Ballantyne Commons Pkwy", "addr:city": "Charlotte", "addr:state": "NC", "addr:postcode": "28277", "name": "The Spa Ballantyne", "website": "https://stores.boldapps.net/front-end/get_surrounding_stores.php?shop=anatomie-store.myshopify.com&latitude=38.331258&longitude=-121.54841799999997&max_distance=100000&limit=10000&calc_distance=1", "brand": "Anatomie"}, "geometry": {"type": "Point", "coordinates": [-80.848194, 35.056497]}},
{"type": "Feature", "id": "iCp1qhksIvJLm93QdDF7ImvGb2E=", "properties": {"ref": "8731862", "@spider": "anatomie", "addr:full": "4235 Electric Road", "addr:city": "Roanoke", "addr:state": "VA", "addr:postcode": "24018", "name": "Frances Kahn of Roanoke", "website": "https://stores.boldapps.net/front-end/get_surrounding_stores.php?shop=anatomie-store.myshopify.com&latitude=38.331258&longitude=-121.54841799999997&max_distance=100000&limit=10000&calc_distance=1", "brand": "Anatomie"}, "geometry": {"type": "Point", "coordinates": [-79.978021, 37.227019]}},
{"type": "Feature", "id": "9iRfmOgOufVHmOriFNPdtHfxivc=", "properties": {"ref": "11692522", "@spider": "anatomie", "addr:full": "100 Cloister drive Attn: Retail", "addr:city": "Sea Island", "addr:state": "GA", "addr:postcode": "31561", "name": "Sea Island Acquisitions", "website": "https://stores.boldapps.net/front-end/get_surrounding_stores.php?shop=anatomie-store.myshopify.com&latitude=38.331258&longitude=-121.54841799999997&max_distance=100000&limit=10000&calc_distance=1", "brand": "Anatomie"}, "geometry": {"type": "Point", "coordinates": [-81.350414, 31.18078]}},
{"type": "Feature", "id": "00WXfZpvlTx3fZWI8qKOUhiYClc=", "properties": {"ref": "8731853", "@spider": "anatomie", "addr:full": "60 Colleton River Dr", "addr:city": "Bluffton", "addr:state": "SC", "addr:postcode": "29910", "name": "Colleton River Club", "website": "https://stores.boldapps.net/front-end/get_surrounding_stores.php?shop=anatomie-store.myshopify.com&latitude=38.331258&longitude=-121.54841799999997&max_distance=100000&limit=10000&calc_distance=1", "brand": "Anatomie"}, "geometry": {"type": "Point", "coordinates": [-80.798937, 32.290182]}},
{"type": "Feature", "id": "71tjCSHcA81N6KVrSx_IXV8dAdQ=", "properties": {"ref": "8731883", "@spider": "anatomie", "addr:full": "80 Carolina Vista Dr", "addr:city": "Pinehurst", "addr:state": "NC", "addr:postcode": "28374", "name": "Pinehurst Resort", "website": "https://stores.boldapps.net/front-end/get_surrounding_stores.php?shop=anatomie-store.myshopify.com&latitude=38.331258&longitude=-121.54841799999997&max_distance=100000&limit=10000&calc_distance=1", "brand": "Anatomie"}, "geometry": {"type": "Point", "coordinates": [-79.473734, 35.195671]}},
{"type": "Feature", "id": "xKWCWodd4Vw07b6IpJIzmtb4sis=", "properties": {"ref": "8731887", "@spider": "anatomie", "addr:full": "32 Office Park Rd", "addr:city": "Hilton Head Island", "addr:state": "SC", "addr:postcode": "29928", "name": "Shop! in Hilton Head Island", "website": "https://stores.boldapps.net/front-end/get_surrounding_stores.php?shop=anatomie-store.myshopify.com&latitude=38.331258&longitude=-121.54841799999997&max_distance=100000&limit=10000&calc_distance=1", "brand": "Anatomie"}, "geometry": {"type": "Point", "coordinates": [-80.765573, 32.153562]}},
{"type": "Feature", "id": "NozayEipnKxPTzSo-lSQUwgAqbg=", "properties": {"ref": "14368720", "@spider": "anatomie", "addr:full": "4120-100 Main at North Hills St", "addr:city": "Raleigh", "addr:state": "North Carolina", "addr:postcode": "27609", "name": "Marta's", "website": "https://stores.boldapps.net/front-end/get_surrounding_stores.php?shop=anatomie-store.myshopify.com&latitude=38.331258&longitude=-121.54841799999997&max_distance=100000&limit=10000&calc_distance=1", "brand": "Anatomie"}, "geometry": {"type": "Point", "coordinates": [-78.643087, 35.836367]}},
{"type": "Feature", "id": "--az4aujYmCcab9ciDhoILOR2rI=", "properties": {"ref": "14368722", "@spider": "anatomie", "addr:full": "213 Locust St", "addr:city": "Harrisburg", "addr:state": "Pennsylvania", "addr:postcode": "17101", "name": "The Plum", "website": "https://stores.boldapps.net/front-end/get_surrounding_stores.php?shop=anatomie-store.myshopify.com&latitude=38.331258&longitude=-121.54841799999997&max_distance=100000&limit=10000&calc_distance=1", "brand": "Anatomie"}, "geometry": {"type": "Point", "coordinates": [-76.883217, 40.261336]}},
{"type": "Feature", "id": "t_i-fTAhwVQktUq3woJip1X6YqQ=", "properties": {"ref": "8731894", "@spider": "anatomie", "addr:full": "35 S.BLVD OF THE PRESIDENTS", "addr:city": "SARASOTA", "addr:state": "FL", "addr:postcode": "34236", "name": "The Met Fashion House Day Spa & Salon", "website": "https://stores.boldapps.net/front-end/get_surrounding_stores.php?shop=anatomie-store.myshopify.com&latitude=38.331258&longitude=-121.54841799999997&max_distance=100000&limit=10000&calc_distance=1", "brand": "Anatomie"}, "geometry": {"type": "Point", "coordinates": [-82.576142, 27.317646]}},
{"type": "Feature", "id": "APapEZ4YdmwahszcllIm13o_Mk8=", "properties": {"ref": "8731861", "@spider": "anatomie", "addr:full": "6229-B River Road", "addr:city": "Richmond", "addr:state": "VA", "addr:postcode": "23229", "name": "Frances Kahn of Richmond", "website": "https://stores.boldapps.net/front-end/get_surrounding_stores.php?shop=anatomie-store.myshopify.com&latitude=38.331258&longitude=-121.54841799999997&max_distance=100000&limit=10000&calc_distance=1", "brand": "Anatomie"}, "geometry": {"type": "Point", "coordinates": [-77.537782, 37.568433]}},
{"type": "Feature", "id": "BqW-FwszMVnrd6Tv0apbP3PUA7o=", "properties": {"ref": "8731857", "@spider": "anatomie", "addr:full": "1802 Wisconsin Ave NW", "addr:city": "Washington", "addr:state": "DC", "addr:postcode": "20007", "name": "Everard's Clothing", "website": "https://stores.boldapps.net/front-end/get_surrounding_stores.php?shop=anatomie-store.myshopify.com&latitude=38.331258&longitude=-121.54841799999997&max_distance=100000&limit=10000&calc_distance=1", "brand": "Anatomie"}, "geometry": {"type": "Point", "coordinates": [-77.067476, 38.914818]}},
{"type": "Feature", "id": "cYNJEY_4aua0KPa6AqSGSABqGB4=", "properties": {"ref": "8731854", "@spider": "anatomie", "addr:full": "309 B Cameron Street", "addr:city": "Alexandria", "addr:state": "VA", "addr:postcode": "22314", "name": "DONNA LEWIS CLOTHIERS", "website": "https://stores.boldapps.net/front-end/get_surrounding_stores.php?shop=anatomie-store.myshopify.com&latitude=38.331258&longitude=-121.54841799999997&max_distance=100000&limit=10000&calc_distance=1", "brand": "Anatomie"}, "geometry": {"type": "Point", "coordinates": [-77.042706, 38.805848]}},
{"type": "Feature", "id": "jpIw9K7XXoUN5ciT7GnsbeZel1A=", "properties": {"ref": "8731859", "@spider": "anatomie", "addr:full": "10100 Dream Tree Boulevard", "addr:city": "ORLANDO", "addr:state": "FL", "addr:postcode": "32836", "name": "FOUR SEASONS RESORT ORLANDO", "website": "https://stores.boldapps.net/front-end/get_surrounding_stores.php?shop=anatomie-store.myshopify.com&latitude=38.331258&longitude=-121.54841799999997&max_distance=100000&limit=10000&calc_distance=1", "brand": "Anatomie"}, "geometry": {"type": "Point", "coordinates": [-81.545681, 28.402007]}},
{"type": "Feature", "id": "0LvW15tz-_X_hkZMAHo6mcY6G3A=", "properties": {"ref": "8731875", "@spider": "anatomie", "addr:full": "2000 Village Rd", "addr:city": "Lahaina", "addr:state": "HI", "addr:postcode": "96761", "name": "Kapalua Bay Course", "website": "https://stores.boldapps.net/front-end/get_surrounding_stores.php?shop=anatomie-store.myshopify.com&latitude=38.331258&longitude=-121.54841799999997&max_distance=100000&limit=10000&calc_distance=1", "brand": "Anatomie"}, "geometry": {"type": "Point", "coordinates": [-156.65351, 20.997261]}},
{"type": "Feature", "id": "OlOg2lLm5f80nWoDwdqqO4p0Bjs=", "properties": {"ref": "11692524", "@spider": "anatomie", "addr:full": "4100 Wailea Alanui Drive Wailea", "addr:city": "Wailea", "addr:state": "HI", "addr:postcode": "96753", "name": "The Fairmont Kea Lani", "website": "https://stores.boldapps.net/front-end/get_surrounding_stores.php?shop=anatomie-store.myshopify.com&latitude=38.331258&longitude=-121.54841799999997&max_distance=100000&limit=10000&calc_distance=1", "brand": "Anatomie"}, "geometry": {"type": "Point", "coordinates": [-156.440372, 20.684357]}},
{"type": "Feature", "id": "qIc4_EoIi5LGHuj6bXQ7kI4vwoc=", "properties": {"ref": "8731879", "@spider": "anatomie", "addr:full": "68-1050 Makaiwa Place", "addr:city": "Kohala Coast", "addr:state": "HI", "addr:postcode": "96743", "name": "Mauna Lani Resort", "website": "https://stores.boldapps.net/front-end/get_surrounding_stores.php?shop=anatomie-store.myshopify.com&latitude=38.331258&longitude=-121.54841799999997&max_distance=100000&limit=10000&calc_distance=1", "brand": "Anatomie"}, "geometry": {"type": "Point", "coordinates": [-155.857133, 19.941178]}},
{"type": "Feature", "id": "IBtUUYt0xQT82eDvh673ubktydo=", "properties": {"ref": "8731858", "@spider": "anatomie", "addr:full": "9765 Tamiani Trail North", "addr:city": "Naples", "addr:state": "FL", "addr:postcode": "34108", "name": "For the Love of Golf", "website": "https://stores.boldapps.net/front-end/get_surrounding_stores.php?shop=anatomie-store.myshopify.com&latitude=38.331258&longitude=-121.54841799999997&max_distance=100000&limit=10000&calc_distance=1", "brand": "Anatomie"}, "geometry": {"type": "Point", "coordinates": [-81.802153, 26.260346]}},
{"type": "Feature", "id": "VcA7-nqoS09Be3D_ROeURZonXY8=", "properties": {"ref": "8731867", "@spider": "anatomie", "addr:full": "821 West lancaster Ave First floor", "addr:city": "Bryn Mawr", "addr:state": "PA", "addr:postcode": "19010", "name": "Grove 121", "website": "https://stores.boldapps.net/front-end/get_surrounding_stores.php?shop=anatomie-store.myshopify.com&latitude=38.331258&longitude=-121.54841799999997&max_distance=100000&limit=10000&calc_distance=1", "brand": "Anatomie"}, "geometry": {"type": "Point", "coordinates": [-75.318726, 40.021902]}},
{"type": "Feature", "id": "UJi3gg0S-AgQ4sV6mpdTgXQUCvo=", "properties": {"ref": "8731871", "@spider": "anatomie", "addr:full": "4920 Old York Rd # 11", "addr:city": "BUCKINGHAM", "addr:state": "PA", "addr:postcode": "18912", "name": "Intrigue Inc", "website": "https://stores.boldapps.net/front-end/get_surrounding_stores.php?shop=anatomie-store.myshopify.com&latitude=38.331258&longitude=-121.54841799999997&max_distance=100000&limit=10000&calc_distance=1", "brand": "Anatomie"}, "geometry": {"type": "Point", "coordinates": [-75.054918, 40.329638]}},
{"type": "Feature", "id": "_ZYIbKtdX4FKQ5_z6MyiYSYtol0=", "properties": {"ref": "8731863", "@spider": "anatomie", "addr:full": "1544 Laskin Road, Ste 220", "addr:city": "Virginia Beach", "addr:state": "VA", "addr:postcode": "23451", "name": "Frances Kahn of Virginia Beach", "website": "https://stores.boldapps.net/front-end/get_surrounding_stores.php?shop=anatomie-store.myshopify.com&latitude=38.331258&longitude=-121.54841799999997&max_distance=100000&limit=10000&calc_distance=1", "brand": "Anatomie"}, "geometry": {"type": "Point", "coordinates": [-76.015185, 36.851917]}},
{"type": "Feature", "id": "as_RMNxDIbaeRcrSLCw_sux_9ws=", "properties": {"ref": "11692519", "@spider": "anatomie", "addr:full": "Tourist Corridor", "addr:city": "Bah\u00eda Santa Mar\u00eda", "addr:state": "Cabo San Lucas B.C.S.", "addr:postcode": "C.P. 23450", "name": "Montage Los Cabos", "website": "https://stores.boldapps.net/front-end/get_surrounding_stores.php?shop=anatomie-store.myshopify.com&latitude=38.331258&longitude=-121.54841799999997&max_distance=100000&limit=10000&calc_distance=1", "brand": "Anatomie"}, "geometry": {"type": "Point", "coordinates": [-75.98, 36.85]}},
{"type": "Feature", "id": "udHXvOtiwFyIau9b2OI0M_xfYW4=", "properties": {"ref": "8731886", "@spider": "anatomie", "addr:full": "231 MOUNTAIN VIEW RD", "addr:city": "WARREN", "addr:state": "NJ", "addr:postcode": "7059", "name": "SABINE'S BOUTIQUE", "website": "https://stores.boldapps.net/front-end/get_surrounding_stores.php?shop=anatomie-store.myshopify.com&latitude=38.331258&longitude=-121.54841799999997&max_distance=100000&limit=10000&calc_distance=1", "brand": "Anatomie"}, "geometry": {"type": "Point", "coordinates": [-74.515338, 40.637973]}},
{"type": "Feature", "id": "0Iw6qmv7IC4l9ASa6S-BOywAguY=", "properties": {"ref": "11692517", "@spider": "anatomie", "addr:full": "1000 Mountain Rest Road", "addr:city": "New Paltz", "addr:state": "NY", "addr:postcode": "12561", "name": "Mohonk Mountain House", "website": "https://stores.boldapps.net/front-end/get_surrounding_stores.php?shop=anatomie-store.myshopify.com&latitude=38.331258&longitude=-121.54841799999997&max_distance=100000&limit=10000&calc_distance=1", "brand": "Anatomie"}, "geometry": {"type": "Point", "coordinates": [-74.136475, 41.777637]}},
{"type": "Feature", "id": "PXTjQxMZNQD-7-C_CfRCd2PKaao=", "properties": {"ref": "14368724", "@spider": "anatomie", "addr:full": "1475 Western Ave", "addr:city": "Albany", "addr:state": "New York", "addr:postcode": "12203", "name": "Evoke Style LLC", "website": "https://stores.boldapps.net/front-end/get_surrounding_stores.php?shop=anatomie-store.myshopify.com&latitude=38.331258&longitude=-121.54841799999997&max_distance=100000&limit=10000&calc_distance=1", "brand": "Anatomie"}, "geometry": {"type": "Point", "coordinates": [-73.839631, 42.683751]}},
{"type": "Feature", "id": "L7RXcJgqxglsgesLjCwrKLkI39s=", "properties": {"ref": "8731869", "@spider": "anatomie", "addr:full": "95 Vervalen Street", "addr:city": "Closter", "addr:state": "NJ", "addr:postcode": "7624", "name": "Indigo Chic Boutique Closter", "website": "https://stores.boldapps.net/front-end/get_surrounding_stores.php?shop=anatomie-store.myshopify.com&latitude=38.331258&longitude=-121.54841799999997&max_distance=100000&limit=10000&calc_distance=1", "brand": "Anatomie"}, "geometry": {"type": "Point", "coordinates": [-73.955051, 40.969485]}},
{"type": "Feature", "id": "1Mw7QRfy8p5QtS4NE2mAgS7d6XI=", "properties": {"ref": "8731856", "@spider": "anatomie", "addr:full": "980 Madison Avenue", "addr:city": "NEW YORK", "addr:state": "NY", "addr:postcode": "10075", "name": "Exhale Upper east side", "website": "https://stores.boldapps.net/front-end/get_surrounding_stores.php?shop=anatomie-store.myshopify.com&latitude=38.331258&longitude=-121.54841799999997&max_distance=100000&limit=10000&calc_distance=1", "brand": "Anatomie"}, "geometry": {"type": "Point", "coordinates": [-73.963584, 40.774631]}},
{"type": "Feature", "id": "BAggjthtYFB_cQgaDDFQFB-9U1U=", "properties": {"ref": "14368721", "@spider": "anatomie", "addr:full": "180 Theodore Fremd Ave", "addr:city": "Rye", "addr:state": "New York", "addr:postcode": "10580", "name": "Angela's", "website": "https://stores.boldapps.net/front-end/get_surrounding_stores.php?shop=anatomie-store.myshopify.com&latitude=38.331258&longitude=-121.54841799999997&max_distance=100000&limit=10000&calc_distance=1", "brand": "Anatomie"}, "geometry": {"type": "Point", "coordinates": [-73.694154, 40.977942]}},
{"type": "Feature", "id": "lAF55rEW4s0P9Dbd2qpKpW86YIY=", "properties": {"ref": "11692515", "@spider": "anatomie", "addr:full": "294 Main St", "addr:city": "Great Barrington", "addr:state": "MA", "addr:postcode": "01230", "name": "Jane Iredale Studio", "website": "https://stores.boldapps.net/front-end/get_surrounding_stores.php?shop=anatomie-store.myshopify.com&latitude=38.331258&longitude=-121.54841799999997&max_distance=100000&limit=10000&calc_distance=1", "brand": "Anatomie"}, "geometry": {"type": "Point", "coordinates": [-73.362626, 42.194659]}},
{"type": "Feature", "id": "o8ko4-Z9C8YlZxhvPV5clLjZgVE=", "properties": {"ref": "8731889", "@spider": "anatomie", "addr:full": "165 KEMBLE STREET", "addr:city": "LENOX", "addr:state": "MA", "addr:postcode": "1240", "name": "SHOWCASE AT CANYON RANCH - MA", "website": "https://stores.boldapps.net/front-end/get_surrounding_stores.php?shop=anatomie-store.myshopify.com&latitude=38.331258&longitude=-121.54841799999997&max_distance=100000&limit=10000&calc_distance=1", "brand": "Anatomie"}, "geometry": {"type": "Point", "coordinates": [-73.278371, 42.348983]}},
{"type": "Feature", "id": "NAicJ7rkIiVpmsoXe-2ZgaeWRzY=", "properties": {"ref": "8731880", "@spider": "anatomie", "addr:full": "760 N. Ocean Blvd.", "addr:city": "Palm Beach", "addr:state": "FL", "addr:postcode": "33480", "name": "Palm Beach Country Club", "website": "https://stores.boldapps.net/front-end/get_surrounding_stores.php?shop=anatomie-store.myshopify.com&latitude=38.331258&longitude=-121.54841799999997&max_distance=100000&limit=10000&calc_distance=1", "brand": "Anatomie"}, "geometry": {"type": "Point", "coordinates": [-80.035765, 26.742319]}},
{"type": "Feature", "id": "bhJpYgz35zuoguKIBisBTohntxA=", "properties": {"ref": "11692516", "@spider": "anatomie", "addr:full": "55 Lee Rd", "addr:city": "Lenox", "addr:state": "MA", "addr:postcode": "01240", "name": "Miraval Berkshires", "website": "https://stores.boldapps.net/front-end/get_surrounding_stores.php?shop=anatomie-store.myshopify.com&latitude=38.331258&longitude=-121.54841799999997&max_distance=100000&limit=10000&calc_distance=1", "brand": "Anatomie"}, "geometry": {"type": "Point", "coordinates": [-73.262769, 42.341707]}},
{"type": "Feature", "id": "T9w0kCL-nKV9knttaxfkhI9IS2g=", "properties": {"ref": "8731890", "@spider": "anatomie", "addr:full": "17557 CLARIDGE OVAL WEST", "addr:city": "BOCA RATON", "addr:state": "FL", "addr:postcode": "33496", "name": "ST ANDREWS COUNTRY CLUB", "website": "https://stores.boldapps.net/front-end/get_surrounding_stores.php?shop=anatomie-store.myshopify.com&latitude=38.331258&longitude=-121.54841799999997&max_distance=100000&limit=10000&calc_distance=1", "brand": "Anatomie"}, "geometry": {"type": "Point", "coordinates": [-80.165652, 26.422931]}},
{"type": "Feature", "id": "0kfLGdswBFXjYMiQWmCTFWPjmmA=", "properties": {"ref": "8731895", "@spider": "anatomie", "addr:full": "5400 Champion Blvd", "addr:city": "Boca Raton", "addr:state": "FL", "addr:postcode": "33496", "name": "The Polo Club", "website": "https://stores.boldapps.net/front-end/get_surrounding_stores.php?shop=anatomie-store.myshopify.com&latitude=38.331258&longitude=-121.54841799999997&max_distance=100000&limit=10000&calc_distance=1", "brand": "Anatomie"}, "geometry": {"type": "Point", "coordinates": [-80.127946, 26.419703]}},
{"type": "Feature", "id": "jLgfTduSgUHAEKyUelu2MG_X-sc=", "properties": {"ref": "13987451", "@spider": "anatomie", "addr:full": "2240 NW 19th Street", "addr:city": "Boca Raton", "addr:state": "Florida", "addr:postcode": "33431", "name": "Barbara Katz", "website": "https://stores.boldapps.net/front-end/get_surrounding_stores.php?shop=anatomie-store.myshopify.com&latitude=38.331258&longitude=-121.54841799999997&max_distance=100000&limit=10000&calc_distance=1", "brand": "Anatomie"}, "geometry": {"type": "Point", "coordinates": [-80.128239, 26.366203]}},
{"type": "Feature", "id": "sHEecUSxxTlAGVZmhHCeP9tyA90=", "properties": {"ref": "8731850", "@spider": "anatomie", "addr:full": "501 E Camino Real", "addr:city": "Boca Raton", "addr:state": "FL", "addr:postcode": "33432", "name": "BOCA RATON RESORT & CLUB", "website": "https://stores.boldapps.net/front-end/get_surrounding_stores.php?shop=anatomie-store.myshopify.com&latitude=38.331258&longitude=-121.54841799999997&max_distance=100000&limit=10000&calc_distance=1", "brand": "Anatomie"}, "geometry": {"type": "Point", "coordinates": [-80.078112, 26.342666]}},
{"type": "Feature", "id": "Y8356hynZks3SUORiOaZUwAzwyc=", "properties": {"ref": "11692521", "@spider": "anatomie", "addr:full": "2200 North Ocean Blvd", "addr:city": "Ft. Lauderdale", "addr:state": "FL", "addr:postcode": "33305", "name": "RRH Fairwinds Spa LLC", "website": "https://stores.boldapps.net/front-end/get_surrounding_stores.php?shop=anatomie-store.myshopify.com&latitude=38.331258&longitude=-121.54841799999997&max_distance=100000&limit=10000&calc_distance=1", "brand": "Anatomie"}, "geometry": {"type": "Point", "coordinates": [-80.100612, 26.156891]}},
{"type": "Feature", "id": "MI3Wy30eKQwiMKqymMrOSCjzXlA=", "properties": {"ref": "8731898", "@spider": "anatomie", "addr:full": "5300 ISLAND BOULEVARD", "addr:city": "Aventura", "addr:state": "FL", "addr:postcode": "33160", "name": "WILLIAMS ISLAND CLUB", "website": "https://stores.boldapps.net/front-end/get_surrounding_stores.php?shop=anatomie-store.myshopify.com&latitude=38.331258&longitude=-121.54841799999997&max_distance=100000&limit=10000&calc_distance=1", "brand": "Anatomie"}, "geometry": {"type": "Point", "coordinates": [-80.137764, 25.938566]}},
{"type": "Feature", "id": "j58JsA02KV2QXboEaAdrPT2Rlj0=", "properties": {"ref": "8731846", "@spider": "anatomie", "addr:full": "6701 NE 4th Ave.", "addr:city": "Miami", "addr:state": "FL", "addr:postcode": "33138", "name": "Anatomie HQ", "website": "https://stores.boldapps.net/front-end/get_surrounding_stores.php?shop=anatomie-store.myshopify.com&latitude=38.331258&longitude=-121.54841799999997&max_distance=100000&limit=10000&calc_distance=1", "brand": "Anatomie"}, "geometry": {"type": "Point", "coordinates": [-80.188726, 25.836859]}},
{"type": "Feature", "id": "IOuKPaXz2BixTTyphg4I6L0xgAs=", "properties": {"ref": "8731877", "@spider": "anatomie", "addr:full": "500 BRICKELL KEY DRIVE", "addr:city": "MIAMI", "addr:state": "FL", "addr:postcode": "33131", "name": "MANDARIN ORIENTAL", "website": "https://stores.boldapps.net/front-end/get_surrounding_stores.php?shop=anatomie-store.myshopify.com&latitude=38.331258&longitude=-121.54841799999997&max_distance=100000&limit=10000&calc_distance=1", "brand": "Anatomie"}, "geometry": {"type": "Point", "coordinates": [-80.184978, 25.765572]}},
{"type": "Feature", "id": "eDcQecS9_HPcu-E7dwz7ASK2QRU=", "properties": {"ref": "8731852", "@spider": "anatomie", "addr:full": "6801 Collins Ave", "addr:city": "MIAMI BEACH", "addr:state": "FL", "addr:postcode": "33141", "name": "CARILLON HOTEL", "website": "https://stores.boldapps.net/front-end/get_surrounding_stores.php?shop=anatomie-store.myshopify.com&latitude=38.331258&longitude=-121.54841799999997&max_distance=100000&limit=10000&calc_distance=1", "brand": "Anatomie"}, "geometry": {"type": "Point", "coordinates": [-80.119958, 25.852854]}},
{"type": "Feature", "id": "Yd6zSU6H8qoK1qAYKU59-5wuwZs=", "properties": {"ref": "13649110", "@spider": "anatomie", "addr:full": "6801 Collins Ave", "addr:city": "Miami Beach", "addr:state": "Florida", "addr:postcode": "33141", "name": "Miami Beach Carillon Pop-Up Store", "website": "https://stores.boldapps.net/front-end/get_surrounding_stores.php?shop=anatomie-store.myshopify.com&latitude=38.331258&longitude=-121.54841799999997&max_distance=100000&limit=10000&calc_distance=1", "brand": "Anatomie"}, "geometry": {"type": "Point", "coordinates": [-80.119958, 25.852854]}},
{"type": "Feature", "id": "26TgTcwnUMhL-HzzEYMTUlMCk5Y=", "properties": {"ref": "8731855", "@spider": "anatomie", "addr:full": "2415 Main Street", "addr:city": "Bridgehampton", "addr:state": "NY", "addr:postcode": "11932", "name": "Exhale Bridgehampton", "website": "https://stores.boldapps.net/front-end/get_surrounding_stores.php?shop=anatomie-store.myshopify.com&latitude=38.331258&longitude=-121.54841799999997&max_distance=100000&limit=10000&calc_distance=1", "brand": "Anatomie"}, "geometry": {"type": "Point", "coordinates": [-72.303809, 40.93613]}},
{"type": "Feature", "id": "uNLkO8z5ubPoE7ECIo-wY0T1aEU=", "properties": {"ref": "8731893", "@spider": "anatomie", "addr:full": "1 Dock Street", "addr:city": "Edgartown", "addr:state": "MA", "addr:postcode": "2539", "name": "The Great Put On", "website": "https://stores.boldapps.net/front-end/get_surrounding_stores.php?shop=anatomie-store.myshopify.com&latitude=38.331258&longitude=-121.54841799999997&max_distance=100000&limit=10000&calc_distance=1", "brand": "Anatomie"}, "geometry": {"type": "Point", "coordinates": [-70.511363, 41.388516]}},
{"type": "Feature", "id": "QPvKhBZM1--YDyDsv_RQ0wNqVqg=", "properties": {"ref": "11692514", "@spider": "anatomie", "addr:full": "Rose Hall", "addr:city": "Montego Bay", "addr:state": "Jamaica", "name": "Half Moon Montego Bay", "website": "https://stores.boldapps.net/front-end/get_surrounding_stores.php?shop=anatomie-store.myshopify.com&latitude=38.331258&longitude=-121.54841799999997&max_distance=100000&limit=10000&calc_distance=1", "brand": "Anatomie"}, "geometry": {"type": "Point", "coordinates": [-77.89389, 18.476223]}},
{"type": "Feature", "id": "_RnHg41sLULqXMDUqlehLeYr6dg=", "properties": {"ref": "11692526", "@spider": "anatomie", "addr:full": "The Palms Turks and Caicos, Grace Bay Beach, Princess Dr, TKCA 1ZZ, Turks & Caicos Islands", "addr:city": "Grace Bay Beach Road", "addr:state": "Providenciales Turks & Caicos", "name": "The Palms Resort", "website": "https://stores.boldapps.net/front-end/get_surrounding_stores.php?shop=anatomie-store.myshopify.com&latitude=38.331258&longitude=-121.54841799999997&max_distance=100000&limit=10000&calc_distance=1", "brand": "Anatomie"}, "geometry": {"type": "Point", "coordinates": [-72.190603, 21.791449]}}]}