{"type":"FeatureCollection","features":[{"type": "Feature", "id": "CMGpB9mLCwaxme6VTny_c9Bx_J8=", "properties": {"ref": "City Centre Mall", "@spider": "ardene", "addr:full": "300 Mystery Lake Rd", "addr:city": "Thompson", "addr:state": "MB", "addr:postcode": "R8N 0M2", "addr:country": "Canada", "name": "City Centre Mall", "phone": "1-877-606-4233 ext. 364", "brand": "Ardene"}, "geometry": {"type": "Point", "coordinates": [-97.847468, 55.743708]}},
{"type": "Feature", "id": "K1ZPxClsbiKNdB4Q14n9bugOodA=", "properties": {"ref": "Gateway Mall", "@spider": "ardene", "addr:full": "1403 Central Ave", "addr:city": "Prince Albert", "addr:state": "SK", "addr:postcode": "S6V 7J4 ", "addr:country": "Canada", "name": "Gateway Mall", "phone": "1-877-606-4233 ext. 125", "brand": "Ardene"}, "geometry": {"type": "Point", "coordinates": [-105.757152, 53.200734]}},
{"type": "Feature", "id": "yOPzQj1TEoecEFB9SSkw7Th8izE=", "properties": {"ref": "Lawson Heights", "@spider": "ardene", "addr:full": "134 Primrose Dr", "addr:city": "Saskatoon", "addr:state": "SK", "addr:postcode": "S7K 5S6 ", "addr:country": "Canada", "name": "Lawson Heights", "phone": "306-667-1996", "brand": "Ardene"}, "geometry": {"type": "Point", "coordinates": [-106.638329, 52.169017]}},
{"type": "Feature", "id": "PmnYhrEfoW3kB4qyb3dXtryfnSs=", "properties": {"ref": "Dawson Creek Mall", "@spider": "ardene", "addr:full": "11000 8th Street", "addr:city": "Dawson Creek", "addr:state": "BC", "addr:postcode": "V1G 4K6 ", "addr:country": "Canada", "name": "Dawson Creek Mall", "phone": "778-595-0001", "brand": "Ardene"}, "geometry": {"type": "Point", "coordinates": [-106.600046, 52.112692]}},
{"type": "Feature", "id": "N1gXzj8FpcFKJ1GhiAjNhilYOsc=", "properties": {"ref": "The Centre Mall", "@spider": "ardene", "addr:full": "3510 - 8th Street E.", "addr:city": "Saskatoon", "addr:state": "SK", "addr:postcode": "S7H 5M3", "addr:country": "Canada", "name": "The Centre Mall", "phone": "306-667-3933", "brand": "Ardene"}, "geometry": {"type": "Point", "coordinates": [-106.600273, 52.112713]}},
{"type": "Feature", "id": "sxpK2YM9iZ34nX96eLaEQkdOjc0=", "properties": {"ref": "Midtown Plaza", "@spider": "ardene", "addr:full": "201 First Ave S", "addr:city": "Saskatoon", "addr:state": "SK", "addr:postcode": "S7K 1J9", "addr:country": "Canada", "name": "Midtown Plaza", "phone": "306-979-7772", "brand": "Ardene"}, "geometry": {"type": "Point", "coordinates": [-106.667167, 52.127169]}},
{"type": "Feature", "id": "UnrcgHclmGNuS7r9LifFbCVTdZE=", "properties": {"ref": "Tri City Mall", "@spider": "ardene", "addr:full": "6503 51st Street", "addr:city": "Cold Lake", "addr:state": "AB", "addr:postcode": "T9M 1C8", "addr:country": "Canada", "name": "Tri City Mall", "phone": "1-877-606-4233 ext. 474", "brand": "Ardene"}, "geometry": {"type": "Point", "coordinates": [-110.203885, 54.432098]}},
{"type": "Feature", "id": "EtxmMZhwSagDdbLQlcecZqRmRPQ=", "properties": {"ref": "Fontier Centre", "@spider": "ardene", "addr:full": "11430 Railway Ave E", "addr:city": "North Battleford", "addr:state": "SK", "addr:postcode": "S0M 0E0 ", "addr:country": "Canada", "name": "Fontier Centre", "phone": "306-667-4022", "brand": "Ardene"}, "geometry": {"type": "Point", "coordinates": [-108.273449, 52.760026]}},
{"type": "Feature", "id": "XwE89dbvqpnOhN6o_TVnh0AH14c=", "properties": {"ref": "Parkland Mall", "@spider": "ardene", "addr:full": "277 rue Broadway Est", "addr:city": "Yorkton", "addr:state": "SK", "addr:postcode": "S3N 3G7", "addr:country": "Canada", "name": "Parkland Mall", "phone": "1-877-606-4233 ext. 157", "brand": "Ardene"}, "geometry": {"type": "Point", "coordinates": [-102.442513, 51.212079]}},
{"type": "Feature", "id": "VXZnEeUjZ0VMnvt50XEb_zFMk80=", "properties": {"ref": "Kinsgate Mall", "@spider": "ardene", "addr:full": "370 Broadway E", "addr:city": "Vancouver", "addr:state": "BC", "addr:postcode": "V5T 4G5", "addr:country": "Canada", "name": "Kinsgate Mall", "phone": "604-676-9415", "brand": "Ardene"}, "geometry": {"type": "Point", "coordinates": [-102.442491, 51.212039]}},
{"type": "Feature", "id": "a8MvTQ5X4MhAsIs0DQsVlLSMNAk=", "properties": {"ref": "Peter Pond Mall", "@spider": "ardene", "addr:full": "9713 Hardin St", "addr:city": "Fort McMurray", "addr:state": "AB", "addr:postcode": "T9H 1L2", "addr:country": "Canada", "name": "Peter Pond Mall", "phone": "780-747-8197", "brand": "Ardene"}, "geometry": {"type": "Point", "coordinates": [-111.3781, 56.724912]}},
{"type": "Feature", "id": "ldEnuV75Ovet8au-fWVLoFsuNyc=", "properties": {"ref": "Dauphin Market Place Mall", "@spider": "ardene", "addr:full": "1450 Main St S", "addr:city": "Dauphin", "addr:state": "MB", "addr:postcode": "R7N 3H4", "addr:country": "Canada", "name": "Dauphin Market Place Mall", "phone": "1-877-606-4233 ext. 375", "brand": "Ardene"}, "geometry": {"type": "Point", "coordinates": [-100.059968, 51.136274]}},
{"type": "Feature", "id": "6_UbREXlv6fQsIDh5EmdmBdYVeU=", "properties": {"ref": "Lloyd Mall", "@spider": "ardene", "addr:full": "5211 44th Street", "addr:city": "Lloydminster", "addr:state": "AB", "addr:postcode": "T9V 0A7", "addr:country": "Canada", "name": "Lloyd Mall", "phone": "1-877-606-4233 ext. 469", "brand": "Ardene"}, "geometry": {"type": "Point", "coordinates": [-110.012794, 53.27663]}},
{"type": "Feature", "id": "CN_95Pk4tpNz7WkW42r5fFh6jhQ=", "properties": {"ref": "St. Paul Shopping Centre", "@spider": "ardene", "addr:full": "4210 50 St.Paul Ave", "addr:city": "St. Paul", "addr:state": "AB", "addr:postcode": "TOA 3A2", "addr:country": "Canada", "name": "St. Paul Shopping Centre", "phone": "1-877-606-4233 Ext. 023", "brand": "Ardene"}, "geometry": {"type": "Point", "coordinates": [-111.275419, 53.992279]}},
{"type": "Feature", "id": "Ear1mdS0QM3nA0HG4Sysj98PcBo=", "properties": {"ref": "Northgate Mall", "@spider": "ardene", "addr:full": "489 Albert St N", "addr:city": "Regina", "addr:state": "SK", "addr:postcode": "S4R 3C4", "addr:country": "Canada", "name": "Northgate Mall", "phone": "306-205-8805", "brand": "Ardene"}, "geometry": {"type": "Point", "coordinates": [-104.615735, 50.482277]}},
{"type": "Feature", "id": "0iWCScHjsksFS8C6kbA9w1gZSMQ=", "properties": {"ref": "Golden Mile Shopping Centre", "@spider": "ardene", "addr:full": "3806 Albert St S", "addr:city": "Regina", "addr:state": "SK", "addr:postcode": "S4S 3R2", "addr:country": "Canada", "name": "Golden Mile Shopping Centre", "phone": "1-877-606-4233 p. 341", "brand": "Ardene"}, "geometry": {"type": "Point", "coordinates": [-104.615201, 50.481636]}},
{"type": "Feature", "id": "KK5X5lJ8wrpJzLAHuW2hhA1KPNs=", "properties": {"ref": "Victoria Square Mall", "@spider": "ardene", "addr:full": "2223 Victoria Ave E", "addr:city": "Regina", "addr:state": "SK", "addr:postcode": "S4N 6E4", "addr:country": "Canada", "name": "Victoria Square Mall", "phone": "306-205-8115", "brand": "Ardene"}, "geometry": {"type": "Point", "coordinates": [-104.551825, 50.445031]}},
{"type": "Feature", "id": "Cqsbd2HNXdO-bG9_ARqDtu10wJQ=", "properties": {"ref": "Cornwall Centre", "@spider": "ardene", "addr:full": "2114 11th Avenue", "addr:city": "Regina", "addr:state": "SK", "addr:postcode": "S4P 0J5", "addr:country": "Canada", "name": "Cornwall Centre", "phone": "306-205-8176", "brand": "Ardene"}, "geometry": {"type": "Point", "coordinates": [-104.611049, 50.450555]}},
{"type": "Feature", "id": "gsIpS2hkBrhdOb2QetRHK0NyNs4=", "properties": {"ref": "Southland Mall", "@spider": "ardene", "addr:full": "2965 Gordon Rd", "addr:city": "Regina", "addr:state": "SK", "addr:postcode": "S4S 6H7 ", "addr:country": "Canada", "name": "Southland Mall", "phone": "306-205-8107", "brand": "Ardene"}, "geometry": {"type": "Point", "coordinates": [-104.622268, 50.402709]}},
{"type": "Feature", "id": "LqMBNUaJWH5wB635QFC72swThGA=", "properties": {"ref": "Town Country Mall", "@spider": "ardene", "addr:full": "1235 Main St N", "addr:city": "Moose Jaw", "addr:state": "SK", "addr:postcode": "S6H 1M6", "addr:country": "Canada", "name": "Town Country Mall", "phone": "1-877-606-4233 ext. 340", "brand": "Ardene"}, "geometry": {"type": "Point", "coordinates": [-105.530262, 50.404359]}},
{"type": "Feature", "id": "E_zka7OUMwjbZwI0GIjo8guwn9Y=", "properties": {"ref": "Corral Centre - LIQUIDATION", "@spider": "ardene", "addr:full": "923 18th Street N", "addr:city": "Brandon", "addr:state": "MB", "addr:postcode": "R7A 7S1", "addr:country": "Canada", "name": "Corral Centre - LIQUIDATION", "phone": "204-650-0002", "brand": "Ardene"}, "geometry": {"type": "Point", "coordinates": [-99.960773, 49.867444]}},
{"type": "Feature", "id": "arJrFzr6ox9D_B9jdWC5G5EjIUg=", "properties": {"ref": "Brandon Shoppers Mall", "@spider": "ardene", "addr:full": "1570 18 Street", "addr:city": "Brandon", "addr:state": "MB", "addr:postcode": "R7A 5C5 ", "addr:country": "Canada", "name": "Brandon Shoppers Mall", "phone": "204-650-0001", "brand": "Ardene"}, "geometry": {"type": "Point", "coordinates": [-99.964044, 49.825614]}},
{"type": "Feature", "id": "WHVt7Suc5-fM7bk1WpDi4Q6SZF0=", "properties": {"ref": "Emerald Hills", "@spider": "ardene", "addr:full": "5000 Emerald Dr", "addr:city": "Sherwood Park", "addr:state": "AB", "addr:postcode": "T8H 0P5", "addr:country": "Canada", "name": "Emerald Hills", "phone": "780-640-2191", "brand": "Ardene"}, "geometry": {"type": "Point", "coordinates": [-113.285912, 53.569163]}},
{"type": "Feature", "id": "BF827gWsQPtieslkNDiHQD99XbQ=", "properties": {"ref": "Selkirk Crossing", "@spider": "ardene", "addr:full": "1014 MB Ave", "addr:city": "Selkirk", "addr:state": "MB", "addr:postcode": "R1A 4M2", "addr:country": "Canada", "name": "Selkirk Crossing", "phone": "204-909-0002", "brand": "Ardene"}, "geometry": {"type": "Point", "coordinates": [-96.900359, 50.156615]}},
{"type": "Feature", "id": "2KshX-nBhQdKJgSVDul90q6ge_A=", "properties": {"ref": "Sherwood Park Mall", "@spider": "ardene", "addr:full": "2020 Sherwood Dr", "addr:city": "Sherwood Park", "addr:state": "AB", "addr:postcode": "T8A 3H9", "addr:country": "Canada", "name": "Sherwood Park Mall", "phone": "780-640-2189", "brand": "Ardene"}, "geometry": {"type": "Point", "coordinates": [-113.293737, 53.530756]}},
{"type": "Feature", "id": "B4OB7ynj4Zpu5Bw9X7TJkUKKAGM=", "properties": {"ref": "Duggan Mall", "@spider": "ardene", "addr:full": "6601 48th Avenue", "addr:city": "Camrose", "addr:state": "AB", "addr:postcode": "T4V 3G8 ", "addr:country": "Canada", "name": "Duggan Mall", "phone": "587-753-0003", "brand": "Ardene"}, "geometry": {"type": "Point", "coordinates": [-112.855913, 53.015745]}},
{"type": "Feature", "id": "5stW1GCwGarU9aFHknR_FZfNoxA=", "properties": {"ref": "Londonderry Mall", "@spider": "ardene", "addr:full": "137th Avenue & 66th Street", "addr:city": "Edmonton", "addr:state": "AB", "addr:postcode": "T5C 3E6", "addr:country": "Canada", "name": "Londonderry Mall", "phone": "780-665-2761", "brand": "Ardene"}, "geometry": {"type": "Point", "coordinates": [-113.446875, 53.602445]}},
{"type": "Feature", "id": "d7bfpZL_FvhzFg7JOEW7UQc7PcU=", "properties": {"ref": "Capilano Mall", "@spider": "ardene", "addr:full": "5055 -101 avenue NW", "addr:city": "Edmonton", "addr:state": "AB", "addr:postcode": "T6A 0A1", "addr:country": "Canada", "name": "Capilano Mall", "phone": "780-665-3654", "brand": "Ardene"}, "geometry": {"type": "Point", "coordinates": [-113.422858, 53.538987]}},
{"type": "Feature", "id": "24QNs4gBpCQXaBDpC6IkmNJoEk8=", "properties": {"ref": "Northgate Centre", "@spider": "ardene", "addr:full": "9499 137th Ave", "addr:city": "Edmonton", "addr:state": "AB", "addr:postcode": "T5E 5R8", "addr:country": "Canada", "name": "Northgate Centre", "phone": "780-665-3889", "brand": "Ardene"}, "geometry": {"type": "Point", "coordinates": [-113.488053, 53.598181]}},
{"type": "Feature", "id": "gmr5-FyEXv6Z7oUQdxKZU4yZ43g=", "properties": {"ref": "Bonnie Doon Shopping Centre - LIQUIDATION", "@spider": "ardene", "addr:full": "82nd Ave & 83rd St", "addr:city": "Edmonton", "addr:state": "AB", "addr:postcode": "T6C 4E3", "addr:country": "Canada", "name": "Bonnie Doon Shopping Centre - LIQUIDATION", "phone": "780-665-1793", "brand": "Ardene"}, "geometry": {"type": "Point", "coordinates": [-113.457247, 53.518953]}},
{"type": "Feature", "id": "WTKHNd5hpVKcdkOlwgA0gNRHIZg=", "properties": {"ref": "Kingsway Garden Mall", "@spider": "ardene", "addr:full": "109 st & princess Elizabeth Ave", "addr:city": "Edmonton", "addr:state": "AB", "addr:postcode": "T5G 3A6 ", "addr:country": "Canada", "name": "Kingsway Garden Mall", "phone": "780-665-4007", "brand": "Ardene"}, "geometry": {"type": "Point", "coordinates": [-113.505602, 53.562699]}},
{"type": "Feature", "id": "pvSAggHbDJdxOa9jwv2xuVIxHJM=", "properties": {"ref": "Edmonton City Centre", "@spider": "ardene", "addr:full": "102nd Avenue NW", "addr:city": "Edmonton", "addr:state": "AB", "addr:postcode": "T5J 2Z2 ", "addr:country": "Canada", "name": "Edmonton City Centre", "phone": "780-665-3808", "brand": "Ardene"}, "geometry": {"type": "Point", "coordinates": [-113.492392, 53.543533]}},
{"type": "Feature", "id": "QxVOIlouEYOl9MR-nIYKysU65vY=", "properties": {"ref": "Mill Woods Town Centre", "@spider": "ardene", "addr:full": "23rd Avenue & 66th Street", "addr:city": "Edmonton", "addr:state": "AB", "addr:postcode": "T6K 4B5 ", "addr:country": "Canada", "name": "Mill Woods Town Centre", "phone": "780-665-1776", "brand": "Ardene"}, "geometry": {"type": "Point", "coordinates": [-113.431637, 53.454796]}},
{"type": "Feature", "id": "HWz_bNPLQXcdh8_iBj3L7FXQ9iM=", "properties": {"ref": "Garden City Shopping Centre", "@spider": "ardene", "addr:full": "2305 McPhillips St", "addr:city": "Winnipeg", "addr:state": "MB", "addr:postcode": "R2V 3E1", "addr:country": "Canada", "name": "Garden City Shopping Centre", "phone": "204-330-8319", "brand": "Ardene"}, "geometry": {"type": "Point", "coordinates": [-97.14477, 49.95041]}},
{"type": "Feature", "id": "8FJpJPoB7SYv4SFGpF03Phcz_GM=", "properties": {"ref": "St. Albert Centre", "@spider": "ardene", "addr:full": "375 St. Albert Trail", "addr:city": "St. Albert", "addr:state": "AB", "addr:postcode": "T8N 3K8", "addr:country": "Canada", "name": "St. Albert Centre", "phone": "780-651-0183", "brand": "Ardene"}, "geometry": {"type": "Point", "coordinates": [-113.621805, 53.642088]}},
{"type": "Feature", "id": "KPzgcyDSoUwUeGQhCIhRaC4fjZU=", "properties": {"ref": "Unicity Mall", "@spider": "ardene", "addr:full": "3665 Portage Ave", "addr:city": "Winnipeg", "addr:state": "MB", "addr:postcode": "R3K 2G6", "addr:country": "Canada", "name": "Unicity Mall", "phone": "204-480-3352", "brand": "Ardene"}, "geometry": {"type": "Point", "coordinates": [-97.31431, 49.883413]}},
{"type": "Feature", "id": "EXUAoYPlazJvfqfPBhY4HcGUsmA=", "properties": {"ref": "South Edmonton Common", "@spider": "ardene", "addr:full": "9727 19th Avenue", "addr:city": "Edmonton", "addr:state": "AB", "addr:postcode": "T6N 1N5", "addr:country": "Canada", "name": "South Edmonton Common", "phone": "780-665-1138", "brand": "Ardene"}, "geometry": {"type": "Point", "coordinates": [-113.481154, 53.446836]}},
{"type": "Feature", "id": "gwqMcfYgH3HQqT-JveP9ptCT9wg=", "properties": {"ref": "CF Polo Park", "@spider": "ardene", "addr:full": "1485 Portage Ave", "addr:city": "Winnipeg", "addr:state": "MB", "addr:postcode": "R3G 0W4", "addr:country": "Canada", "name": "CF Polo Park", "phone": "204-272-9084", "brand": "Ardene"}, "geometry": {"type": "Point", "coordinates": [-97.198907, 49.884863]}},
{"type": "Feature", "id": "NXbw364yzR_2A6nj9SqiHqy5TPE=", "properties": {"ref": "Portage Place Mall", "@spider": "ardene", "addr:full": "393 Portage Ave", "addr:city": "Winnipeg", "addr:state": "MB", "addr:postcode": "R3B 3H6 ", "addr:country": "Canada", "name": "Portage Place Mall", "phone": "204-414-3902", "brand": "Ardene"}, "geometry": {"type": "Point", "coordinates": [-97.147684, 49.892684]}},
{"type": "Feature", "id": "fZUYe30_POCdPAQpzhEHynI6B9c=", "properties": {"ref": "West Edmonton Mall", "@spider": "ardene", "addr:full": "8882 170 St NW", "addr:city": "Edmonton", "addr:state": "AB", "addr:postcode": "T5T 3J7", "addr:country": "Canada", "name": "West Edmonton Mall", "phone": "780-665-1840", "brand": "Ardene"}, "geometry": {"type": "Point", "coordinates": [-113.622419, 53.523044]}},
{"type": "Feature", "id": "mNCTqKBA00hhqCz3ksBxN2DsiKE=", "properties": {"ref": "Kildonan Place", "@spider": "ardene", "addr:full": "1555 Regent Ave W", "addr:city": "Winnipeg", "addr:state": "MB", "addr:postcode": "R2C 4J2", "addr:country": "Canada", "name": "Kildonan Place", "phone": "204-272-3049", "brand": "Ardene"}, "geometry": {"type": "Point", "coordinates": [-97.058943, 49.898181]}},
{"type": "Feature", "id": "KkCy8qjUK1cj1T49d3h5-PJk25s=", "properties": {"ref": "Estevan Shoppers' Mall", "@spider": "ardene", "addr:full": "400 King St", "addr:city": "Estevan", "addr:state": "SK", "addr:postcode": "S4A 2B4", "addr:country": "Canada", "name": "Estevan Shoppers' Mall", "phone": "1-877-606-4233 ext. 336", "brand": "Ardene"}, "geometry": {"type": "Point", "coordinates": [-102.977599, 49.145339]}},
{"type": "Feature", "id": "YFmJE_qgLfI9cGstOvxdHnU8X2g=", "properties": {"ref": "St. Vital Centre", "@spider": "ardene", "addr:full": "1225 St. Marys Rd", "addr:city": "Winnipeg", "addr:state": "MB", "addr:postcode": "R2M 5E5", "addr:country": "Canada", "name": "St. Vital Centre", "phone": "204-414-7693", "brand": "Ardene"}, "geometry": {"type": "Point", "coordinates": [-97.110758, 49.828301]}},
{"type": "Feature", "id": "37JA9WU0L5ZsNdzWhm1AW71TU7s=", "properties": {"ref": "Leduc Commons", "@spider": "ardene", "addr:full": "5209 discovery way", "addr:city": "Leduc", "addr:state": "AB", "addr:postcode": "T9E 8N4 ", "addr:country": "Canada", "name": "Leduc Commons", "phone": "587-979-0009", "brand": "Ardene"}, "geometry": {"type": "Point", "coordinates": [-113.566914, 53.266666]}},
{"type": "Feature", "id": "sppxdJAL2WY5_8rmbCNt0MYfJI8=", "properties": {"ref": "Westland Market Mall", "@spider": "ardene", "addr:full": "70 McLeod Ave", "addr:city": "Spruce Grove", "addr:state": "AB", "addr:postcode": "T7X 3C7", "addr:country": "Canada", "name": "Westland Market Mall", "phone": "587-918-0003", "brand": "Ardene"}, "geometry": {"type": "Point", "coordinates": [-113.915112, 53.542625]}},
{"type": "Feature", "id": "OujUeO-SdSPooN1DNxKgfDgRPak=", "properties": {"ref": "Clearspring Centre", "@spider": "ardene", "addr:full": "178 MB-12", "addr:city": "Steinbach", "addr:state": "MB", "addr:postcode": "R5G 1T7", "addr:country": "Canada", "name": "Clearspring Centre", "phone": "204-912-0004", "brand": "Ardene"}, "geometry": {"type": "Point", "coordinates": [-96.691535, 49.547148]}},
{"type": "Feature", "id": "6G9xhAi36ZlTMkEei7VAXhYvmGk=", "properties": {"ref": "Bower Place", "@spider": "ardene", "addr:full": "4900 Molly Banister Dr", "addr:city": "Red Deer", "addr:state": "AB", "addr:postcode": "T4R 1N9 ", "addr:country": "Canada", "name": "Bower Place", "phone": "403-755-6703", "brand": "Ardene"}, "geometry": {"type": "Point", "coordinates": [-113.809651, 52.243724]}},
{"type": "Feature", "id": "Qwmwes9zeHYzuIgR3Xj2v_5g8O0=", "properties": {"ref": "Medicine Hat Mall", "@spider": "ardene", "addr:full": "3292Dunmore Rd SE", "addr:city": "Medicine Hat", "addr:state": "AB", "addr:postcode": "T1B 2R4", "addr:country": "Canada", "name": "Medicine Hat Mall", "phone": "403-488-8951", "brand": "Ardene"}, "geometry": {"type": "Point", "coordinates": [-110.648409, 50.004821]}},
{"type": "Feature", "id": "95fXpsjIRql_vTmwFJ254Ct2loc=", "properties": {"ref": "Cross Iron Mills", "@spider": "ardene", "addr:full": "261055 CrossIron Blvd", "addr:city": "Rocky View", "addr:state": "AB", "addr:postcode": "T4A 0G3", "addr:country": "Canada", "name": "Cross Iron Mills", "phone": "403-450-9318", "brand": "Ardene"}, "geometry": {"type": "Point", "coordinates": [-113.993162, 51.205486]}},
{"type": "Feature", "id": "7svXmZ75VtMGdPAw6pkugTX8bKU=", "properties": {"ref": "Sunridge Mall", "@spider": "ardene", "addr:full": "2525 36 St NE", "addr:city": "Calgary", "addr:state": "AB", "addr:postcode": "T15 5T4", "addr:country": "Canada", "name": "Sunridge Mall", "phone": "403-398-5657", "brand": "Ardene"}, "geometry": {"type": "Point", "coordinates": [-113.986016, 51.073486]}},
{"type": "Feature", "id": "slPjVS_QwMtxr8oiSYedl9YbGbM=", "properties": {"ref": "Marlborough Mall", "@spider": "ardene", "addr:full": "515 marlborough way NE", "addr:city": "Calgary", "addr:state": "AB", "addr:postcode": "T2A 5H5", "addr:country": "Canada", "name": "Marlborough Mall", "phone": "403-450-3596", "brand": "Ardene"}, "geometry": {"type": "Point", "coordinates": [-113.978313, 51.056322]}},
{"type": "Feature", "id": "3NFi_CH0Y0Covx9dszkVBQgiOFY=", "properties": {"ref": "109 64th Ave NE", "@spider": "ardene", "addr:full": "109 64th Ave NE", "addr:city": "Calgary", "addr:state": "AB", "addr:postcode": "T2E 7P4", "addr:country": "Canada", "name": "109 64th Ave NE", "phone": "(403) 398-3810", "brand": "Ardene"}, "geometry": {"type": "Point", "coordinates": [-114.0614782, 51.11067]}},
{"type": "Feature", "id": "2bXKebF4CJu7Q6MZEvJ2PZEvRvo=", "properties": {"ref": "Market Mall", "@spider": "ardene", "addr:full": "3625 Shaganappi Trail NW", "addr:city": "Calgary", "addr:state": "AB", "addr:postcode": "T3A 0E2", "addr:country": "Canada", "name": "Market Mall", "phone": "403-450-8930", "brand": "Ardene"}, "geometry": {"type": "Point", "coordinates": [-114.155451, 51.085901]}},
{"type": "Feature", "id": "tw-9YT9aL9qtKmYPob9u1ZPXETk=", "properties": {"ref": "CF Chinook Centre", "@spider": "ardene", "addr:full": "6455 Macleod Trail SW", "addr:city": "Calgary", "addr:state": "AB", "addr:postcode": "T2H 0K8", "addr:country": "Canada", "name": "CF Chinook Centre", "phone": "403-451-6344", "brand": "Ardene"}, "geometry": {"type": "Point", "coordinates": [-114.074551, 50.999997]}},
{"type": "Feature", "id": "DdEdSGQz8X-tZQPQg9Ly8Cm5314=", "properties": {"ref": "Southcentre Mall", "@spider": "ardene", "addr:full": "100 Anderson Rd", "addr:city": "Calgary", "addr:state": "AB", "addr:postcode": "T2J 3V1", "addr:country": "Canada", "name": "Southcentre Mall", "phone": "403-398-5368", "brand": "Ardene"}, "geometry": {"type": "Point", "coordinates": [-114.067144, 50.952858]}},
{"type": "Feature", "id": "FusIcgXNsjtUzIY_2KmaKyPC6lw=", "properties": {"ref": "Okotoks PWR", "@spider": "ardene", "addr:full": "100 southbank Blvd. Building F2", "addr:city": "Okotoks", "addr:state": "AB", "addr:postcode": "T1S 0L3", "addr:country": "Canada", "name": "Okotoks PWR", "phone": "403-995-0212", "brand": "Ardene"}, "geometry": {"type": "Point", "coordinates": [-113.948534, 50.705487]}},
{"type": "Feature", "id": "WATA8_rdTxa-xukG2_CL1UKmpx8=", "properties": {"ref": "SmartCentres Lethbridge N - LIQUIDATION", "@spider": "ardene", "addr:full": "3019 26th Avenue N", "addr:city": "Lethbridge", "addr:state": "AB", "addr:postcode": "T1H 5P4", "addr:country": "Canada", "name": "SmartCentres Lethbridge N - LIQUIDATION", "phone": "403-942-7239", "brand": "Ardene"}, "geometry": {"type": "Point", "coordinates": [-112.79816, 49.72843]}},
{"type": "Feature", "id": "_qb-7cPcV6t5MWJXFl_QxJoUeb0=", "properties": {"ref": "Park Place Mall", "@spider": "ardene", "addr:full": "501 1st Avenue S", "addr:city": "Lethbridge", "addr:state": "AB", "addr:postcode": "T1J 4L9 ", "addr:country": "Canada", "name": "Park Place Mall", "phone": "403-694-1097", "brand": "Ardene"}, "geometry": {"type": "Point", "coordinates": [-112.840649, 49.699196]}},
{"type": "Feature", "id": "w-TamF75nymEhdIjzMVzBZ3DqfU=", "properties": {"ref": "Parks West Mall", "@spider": "ardene", "addr:full": "900 Carmichael Lane", "addr:city": "Hinton", "addr:state": "AB", "addr:postcode": "T7V 1Y6", "addr:country": "Canada", "name": "Parks West Mall", "phone": "1-877-606-4233 ext. 356", "brand": "Ardene"}, "geometry": {"type": "Point", "coordinates": [-117.625071, 53.384073]}},
{"type": "Feature", "id": "DFoapyPEwJUTk3v678AC4D_s8Y8=", "properties": {"ref": "Cascade Plaza", "@spider": "ardene", "addr:full": "317 Banff Ave", "addr:city": "Banff", "addr:state": "AB", "addr:postcode": "T1L 1C1", "addr:country": "Canada", "name": "Cascade Plaza", "phone": "587-653-5012", "brand": "Ardene"}, "geometry": {"type": "Point", "coordinates": [-115.570957, 51.178789]}},
{"type": "Feature", "id": "zdMa3EkttCXqOARxZ_4GZaiTvTg=", "properties": {"ref": "Prairie Mall", "@spider": "ardene", "addr:full": "11801 100th St", "addr:city": "Grande Prairie", "addr:state": "AB", "addr:postcode": "T8V 3Y2", "addr:country": "Canada", "name": "Prairie Mall", "phone": "780-833-3063", "brand": "Ardene"}, "geometry": {"type": "Point", "coordinates": [-118.791204, 55.188091]}},
{"type": "Feature", "id": "nX9g1BlXK3XeHVaW1FRW-r5fA4U=", "properties": {"ref": "Tolem Mall", "@spider": "ardene", "addr:full": "9600 96th Ave", "addr:city": "Fort St. John", "addr:state": "BC", "addr:postcode": "V1J 5Z2", "addr:country": "Canada", "name": "Tolem Mall", "phone": "778-509-0001", "brand": "Ardene"}, "geometry": {"type": "Point", "coordinates": [-120.842901, 56.237269]}},
{"type": "Feature", "id": "crMFDaxkrRukQWx8EA6M5WUqxRY=", "properties": {"ref": "Tamarack Centre", "@spider": "ardene", "addr:full": "1500 Cranbrook St N", "addr:city": "Cranbrook", "addr:state": "BC", "addr:postcode": "V1C 3S8 ", "addr:country": "Canada", "name": "Tamarack Centre", "phone": "778-570-0031", "brand": "Ardene"}, "geometry": {"type": "Point", "coordinates": [-115.750265, 49.524541]}},
{"type": "Feature", "id": "qYfhj2CRGbDQps1GWvDeCJeBn0k=", "properties": {"ref": "Thunder Centre", "@spider": "ardene", "addr:full": "369 Main St", "addr:city": "Thunder Bay", "addr:state": "ON", "addr:postcode": "P7B 5L6", "addr:country": "Canada", "name": "Thunder Centre", "phone": "807-700-1382", "brand": "Ardene"}, "geometry": {"type": "Point", "coordinates": [-89.194561, 48.436703]}},
{"type": "Feature", "id": "2XY5T-o-pus--FXKy4lMoEynDKo=", "properties": {"ref": "Intercity Mall", "@spider": "ardene", "addr:full": "1000 Fort Williams Rd", "addr:city": "Thunder Bay", "addr:state": "ON", "addr:postcode": "P7B 6B9", "addr:country": "Canada", "name": "Intercity Mall", "phone": "807-700-0959", "brand": "Ardene"}, "geometry": {"type": "Point", "coordinates": [-89.243684, 48.403785]}},
{"type": "Feature", "id": "rRBAk3VX-nGBzU6wP0JVJaTquMo=", "properties": {"ref": "Chahko Mika Mall", "@spider": "ardene", "addr:full": "1150 Lakeside Dr", "addr:city": "Nelson", "addr:state": "BC", "addr:postcode": "V1L 5Z3", "addr:country": "Canada", "name": "Chahko Mika Mall", "phone": "604-261-4751", "brand": "Ardene"}, "geometry": {"type": "Point", "coordinates": [-117.288183, 49.499235]}},
{"type": "Feature", "id": "aeWpqnandPHGukUWd48mdBwmAxY=", "properties": {"ref": "Village Green Centre", "@spider": "ardene", "addr:full": "4900 27 St", "addr:city": "Vernon", "addr:state": "BC", "addr:postcode": "V1T 7G7 ", "addr:country": "Canada", "name": "Village Green Centre", "phone": "250-275-7976", "brand": "Ardene"}, "geometry": {"type": "Point", "coordinates": [-119.268894, 50.284334]}},
{"type": "Feature", "id": "6oacuy9U0aUwFGE_0yxnhTIYcro=", "properties": {"ref": "Pine Centre", "@spider": "ardene", "addr:full": "3177 Massey Dr", "addr:city": "Prince George", "addr:state": "BC", "addr:postcode": "V2N 2S9", "addr:country": "Canada", "name": "Pine Centre", "phone": "250-277-9623", "brand": "Ardene"}, "geometry": {"type": "Point", "coordinates": [-122.784418, 53.865511]}},
{"type": "Feature", "id": "utRXEOSq57IvDfpYTYDbl4ygV7c=", "properties": {"ref": "Northills Shopping Centre", "@spider": "ardene", "addr:full": "700 Tranquille Rd", "addr:city": "Kamloops", "addr:state": "BC", "addr:postcode": "V2B 3H9", "addr:country": "Canada", "name": "Northills Shopping Centre", "phone": "778-390-5013", "brand": "Ardene"}, "geometry": {"type": "Point", "coordinates": [-120.359317, 50.696853]}},
{"type": "Feature", "id": "pPiMaXXmlhGAMx-AfD9TTWVM3XE=", "properties": {"ref": "Centre Commercial Orchard Park", "@spider": "ardene", "addr:full": "2271 Harvey Ave", "addr:city": "Kelowna", "addr:state": "BC", "addr:postcode": "V1Y 6H2", "addr:country": "Canada", "name": "Centre Commercial Orchard Park", "phone": "250-980-3386", "brand": "Ardene"}, "geometry": {"type": "Point", "coordinates": [-119.439906, 49.878368]}},
{"type": "Feature", "id": "2tNzIViP7rVbu9fkeneVDHSz3QE=", "properties": {"ref": "Aberdeen Mall", "@spider": "ardene", "addr:full": "1230 Trans Canada Hwy", "addr:city": "Kamloops", "addr:state": "BC", "addr:postcode": "V1S 1J2", "addr:country": "Canada", "name": "Aberdeen Mall", "phone": "250-434-5812", "brand": "Ardene"}, "geometry": {"type": "Point", "coordinates": [-120.388197, 50.650124]}},
{"type": "Feature", "id": "wXFhWkYkCWSZYEohwn83_5b1E2g=", "properties": {"ref": "Cottonwood Mall", "@spider": "ardene", "addr:full": "45585 Luckakuck Way", "addr:city": "Chilliwak", "addr:state": "BC", "addr:postcode": "V2R 1A1 ", "addr:country": "Canada", "name": "Cottonwood Mall", "phone": "604-393-7678", "brand": "Ardene"}, "geometry": {"type": "Point", "coordinates": [-121.96486, 49.142226]}},
{"type": "Feature", "id": "JBVo-yV-4Ak7M-YrOP9-MHWq6LQ=", "properties": {"ref": "Sevenoaks Shopping Centre", "@spider": "ardene", "addr:full": "32900 South Fraser Way", "addr:city": "Abbotsford", "addr:state": "BC", "addr:postcode": "V2S 5A1", "addr:country": "Canada", "name": "Sevenoaks Shopping Centre", "phone": "604-864-9384", "brand": "Ardene"}, "geometry": {"type": "Point", "coordinates": [-122.311985, 49.049478]}},
{"type": "Feature", "id": "WffSBmEW7TuZ25QtaXszzo5inFM=", "properties": {"ref": "Haney Place Mall", "@spider": "ardene", "addr:full": "11900 Haney Place", "addr:city": "Maple Ridge", "addr:state": "BC", "addr:postcode": "V2X 8R9", "addr:country": "Canada", "name": "Haney Place Mall", "phone": "778-370-5756", "brand": "Ardene"}, "geometry": {"type": "Point", "coordinates": [-122.598584, 49.218112]}},
{"type": "Feature", "id": "V5-YJzC9rw9pQiPHoKWTWX3mFPA=", "properties": {"ref": "Guildford Town Centre", "@spider": "ardene", "addr:full": "10355 152nd Street", "addr:city": "Surrey", "addr:state": "BC", "addr:postcode": "V3R 7C1", "addr:country": "Canada", "name": "Guildford Town Centre", "phone": "604-676-9417", "brand": "Ardene"}, "geometry": {"type": "Point", "coordinates": [-122.80472, 49.189342]}},
{"type": "Feature", "id": "Nl7BjZM3aStOQxOuIXfjHnnwsX8=", "properties": {"ref": "Central City Shopping Centre", "@spider": "ardene", "addr:full": "2160 Surrey Place Mall", "addr:city": "Surrey", "addr:state": "BC", "addr:postcode": "V3T 2W1", "addr:country": "Canada", "name": "Central City Shopping Centre", "phone": "778-263-0327", "brand": "Ardene"}, "geometry": {"type": "Point", "coordinates": [-122.849376, 49.187095]}},
{"type": "Feature", "id": "MFAZuBHyM4KlvKoVaIG63L0gCVM=", "properties": {"ref": "Surrey West Shopping Centre", "@spider": "ardene", "addr:full": "12463 88th Ave", "addr:city": "Surrey", "addr:state": "BC", "addr:postcode": "V3W 1P8", "addr:country": "Canada", "name": "Surrey West Shopping Centre", "phone": "604-430-8597", "brand": "Ardene"}, "geometry": {"type": "Point", "coordinates": [-122.878321, 49.164059]}},
{"type": "Feature", "id": "P-ud7D34N-lXF-8mn15PSWKLhRI=", "properties": {"ref": "Grandview Corner Shopping Districts", "@spider": "ardene", "addr:full": "24th Avenue at 160th Street", "addr:city": "Surrey", "addr:state": "BC", "addr:postcode": "V3S 0M6", "addr:country": "Canada", "name": "Grandview Corner Shopping Districts", "phone": "604-909-4028", "brand": "Ardene"}, "geometry": {"type": "Point", "coordinates": [-122.77969, 49.045912]}},
{"type": "Feature", "id": "bAAHHBI9189hO5XzKG10ApudX6M=", "properties": {"ref": "Metropolis at Metrotown", "@spider": "ardene", "addr:full": "4800 Kingsway", "addr:city": "Burnaby", "addr:state": "BC", "addr:postcode": "V5H 4J2", "addr:country": "Canada", "name": "Metropolis at Metrotown", "phone": "778-786-4395", "brand": "Ardene"}, "geometry": {"type": "Point", "coordinates": [-122.999069, 49.225519]}},
{"type": "Feature", "id": "RV11G-r2hQCfIETYJAq1w9l61-A=", "properties": {"ref": "Scottsdale Centre - LIQUIDATION", "@spider": "ardene", "addr:full": "7031 120th Street", "addr:city": "Delta", "addr:state": "BC", "addr:postcode": "V4E 2A9", "addr:country": "Canada", "name": "Scottsdale Centre - LIQUIDATION", "phone": "604-596-6171", "brand": "Ardene"}, "geometry": {"type": "Point", "coordinates": [-122.892634, 49.131785]}},
{"type": "Feature", "id": "ZDKStZzRmjkFHumPEZoMJKHd85M=", "properties": {"ref": "Park Royal", "@spider": "ardene", "addr:full": "2002 Park Royal South", "addr:state": "BC", "addr:postcode": "V7T 2W4", "addr:country": "Canada", "name": "Park Royal", "phone": "778-280-8601", "brand": "Ardene"}, "geometry": {"type": "Point", "coordinates": [-123.137428, 49.32524]}},
{"type": "Feature", "id": "pai_MO-1SUajsXiM8vjezQK8bY0=", "properties": {"ref": "Granville", "@spider": "ardene", "addr:full": "968 Granville St", "addr:city": "Vancouver", "addr:state": "BC", "addr:postcode": "V6Z 1L2", "addr:country": "Canada", "name": "Granville", "phone": "778-370-2722", "brand": "Ardene"}, "geometry": {"type": "Point", "coordinates": [-123.122361, 49.279442]}},
{"type": "Feature", "id": "jvfIAhfwhgRaJfBf6JqS4Mg548k=", "properties": {"ref": "Waneta Plaza", "@spider": "ardene", "addr:full": "8100 Rock Island Hwy", "addr:city": "Trail", "addr:state": "BC", "addr:postcode": "VIR 4N7", "addr:country": "Canada", "name": "Waneta Plaza", "phone": "778-570-0030", "brand": "Ardene"}, "geometry": {"type": "Point", "coordinates": [-123.122543, 49.279203]}},
{"type": "Feature", "id": "esHTAayYKjVKFFlqEp7NyHTmOW0=", "properties": {"ref": "CF Richmond Centre", "@spider": "ardene", "addr:full": "6551 3rd Rd", "addr:city": "Richmond", "addr:state": "BC", "addr:postcode": "V6Y 2B6", "addr:country": "Canada", "name": "CF Richmond Centre", "phone": "604-304-2548", "brand": "Ardene"}, "geometry": {"type": "Point", "coordinates": [-123.139144, 49.165434]}},
{"type": "Feature", "id": "EGj7tpZ-Uredbi3NEyyOYt0UBQo=", "properties": {"ref": "Tsawwassen Mills", "@spider": "ardene", "addr:full": "5000 Canoe Pass Way", "addr:city": "Tsawwassen", "addr:state": "BC", "addr:postcode": "V4M 0B3", "addr:country": "Canada", "name": "Tsawwassen Mills", "phone": "604-946-1152", "brand": "Ardene"}, "geometry": {"type": "Point", "coordinates": [-123.088974, 49.036493]}},
{"type": "Feature", "id": "xrzaN7pDilt0JjsP-zFqvdms_Zw=", "properties": {"ref": "Station Mall", "@spider": "ardene", "addr:full": "293 Bay St", "addr:city": "Sault Ste. Marie", "addr:state": "ON", "addr:postcode": "P6A 1X3", "addr:country": "Canada", "name": "Station Mall", "phone": "705-908-3009", "brand": "Ardene"}, "geometry": {"type": "Point", "coordinates": [-84.339325, 46.512727]}},
{"type": "Feature", "id": "H5DiBsxNIcHJj_Yr5VujIEAEVQ0=", "properties": {"ref": "Nanaimo North Town Centre - LIQUIDATION", "@spider": "ardene", "addr:full": "4750 Rutherford Rd", "addr:city": "Nanaimo", "addr:state": "BC", "addr:postcode": "V9T 4K6 ", "addr:country": "Canada", "name": "Nanaimo North Town Centre - LIQUIDATION", "phone": "250-244-8431", "brand": "Ardene"}, "geometry": {"type": "Point", "coordinates": [-124.027587, 49.217449]}},
{"type": "Feature", "id": "yu8Ccr6-bHu_v6JmxRhUyk9R0oY=", "properties": {"ref": "Woodgrove Centre", "@spider": "ardene", "addr:full": "6631 Island Hwy N", "addr:city": "Nanaimo", "addr:state": "BC", "addr:postcode": "V9T 4T7", "addr:country": "Canada", "name": "Woodgrove Centre", "phone": "250-244-8417", "brand": "Ardene"}, "geometry": {"type": "Point", "coordinates": [-124.050975, 49.237178]}},
{"type": "Feature", "id": "vyQikOFZ58g9XEiMOR0GnVlGRyQ=", "properties": {"ref": "Timmins Square", "@spider": "ardene", "addr:full": "1500 Riverside Dr W", "addr:city": "Timmins", "addr:state": "ON", "addr:postcode": "P4R 1A1", "addr:country": "Canada", "name": "Timmins Square", "phone": "1-877-606-4233 ext. 160", "brand": "Ardene"}, "geometry": {"type": "Point", "coordinates": [-81.382533, 48.473763]}},
{"type": "Feature", "id": "mF9YXBlJM8oZoAZC1ET_pjodZ1c=", "properties": {"ref": "Duncan Mall", "@spider": "ardene", "addr:full": "135 transcanada Hwy", "addr:city": "Duncan", "addr:state": "BC", "addr:postcode": "V9L 3P8", "addr:country": "Canada", "name": "Duncan Mall", "phone": "778-568-0001", "brand": "Ardene"}, "geometry": {"type": "Point", "coordinates": [-123.650816, 48.684847]}},
{"type": "Feature", "id": "k6Ws9l_DeaCeMIRz9_EpWCYTza4=", "properties": {"ref": "Tillicum Mall", "@spider": "ardene", "addr:full": "3170 Tillicum Rd", "addr:city": "Victoria", "addr:state": "BC", "addr:postcode": "V9A 7C5", "addr:country": "Canada", "name": "Tillicum Mall", "phone": "250-419-4575", "brand": "Ardene"}, "geometry": {"type": "Point", "coordinates": [-123.39567, 48.454483]}},
{"type": "Feature", "id": "bOr0GyEVwX70voHF61rprdV4Abs=", "properties": {"ref": "The Bay Centre", "@spider": "ardene", "addr:full": "1150 Douglas St", "addr:city": "Victoria", "addr:state": "BC", "addr:postcode": "V8W 3M9 ", "addr:country": "Canada", "name": "The Bay Centre", "phone": "250-419-4547", "brand": "Ardene"}, "geometry": {"type": "Point", "coordinates": [-123.366639, 48.425144]}},
{"type": "Feature", "id": "f5imvfpC7wHQPBbBzqC5sTFYxBw=", "properties": {"ref": "Skeena Mall", "@spider": "ardene", "addr:full": "4741 Lakelse Ave", "addr:city": "Terrace", "addr:state": "BC", "addr:postcode": "V8G 4R9 ", "addr:country": "Canada", "name": "Skeena Mall", "phone": "1-877-606-4233 ext. 464", "brand": "Ardene"}, "geometry": {"type": "Point", "coordinates": [-128.596711, 54.516269]}},
{"type": "Feature", "id": "DAYlZthOBSaIxu1oe2aujjFRre0=", "properties": {"ref": "Westshore Town Centre", "@spider": "ardene", "addr:full": "2945 Jacklin Rd", "addr:city": "Victoria", "addr:state": "BC", "addr:postcode": "V9B 5E3 ", "addr:country": "Canada", "name": "Westshore Town Centre", "phone": "250-419-4528", "brand": "Ardene"}, "geometry": {"type": "Point", "coordinates": [-123.507956, 48.440086]}},
{"type": "Feature", "id": "dk9Esf5sqizBJkdOhC6hzmK0KbA=", "properties": {"ref": "Driftwood Mall", "@spider": "ardene", "addr:full": "2751 Cliffe Ave", "addr:city": "Courtenay", "addr:state": "BC", "addr:postcode": "V9N 2L8", "addr:country": "Canada", "name": "Driftwood Mall", "phone": "250-244-8414", "brand": "Ardene"}, "geometry": {"type": "Point", "coordinates": [-124.98343, 49.672883]}},
{"type": "Feature", "id": "k54Hg1seqaZo715ij3v65c_WZJs=", "properties": {"ref": "Cuivre", "@spider": "ardene", "addr:full": "100 du Terminus O (Centre)", "addr:city": "Rouyn-Noranda", "addr:state": "QC", "addr:postcode": "J9X 6H7", "addr:country": "Canada", "name": "Cuivre", "phone": "1-877-606-4233 ext. 188", "brand": "Ardene"}, "geometry": {"type": "Point", "coordinates": [-79.023985, 48.242078]}},
{"type": "Feature", "id": "9KN9T_KX2NQy6JFktJifUhZ5jv8=", "properties": {"ref": "Riocan New Millenium Phase 3 - LIQUIDATION", "@spider": "ardene", "addr:full": "100 Donna Dr", "addr:city": "Sudbury", "addr:state": "ON", "addr:postcode": "P3B 4K6", "addr:country": "Canada", "name": "Riocan New Millenium Phase 3 - LIQUIDATION", "phone": "705-479-6192", "brand": "Ardene"}, "geometry": {"type": "Point", "coordinates": [-80.93992, 46.503784]}},
{"type": "Feature", "id": "UNvvjBxkdFHFiLdJHpqwKl-6C88=", "properties": {"ref": "Amos", "@spider": "ardene", "addr:full": "82 1\u00e8re Avenue E.", "addr:city": "Amos", "addr:state": "QC", "addr:postcode": "J9T 4B2", "addr:country": "Canada", "name": "Amos", "phone": "1-877-606-4233 ext. 421", "brand": "Ardene"}, "geometry": {"type": "Point", "coordinates": [-78.113404, 48.571501]}},
{"type": "Feature", "id": "ROuuUgqXCAThvWm-LZtsMm9tkHQ=", "properties": {"ref": "Val D'Or", "@spider": "ardene", "addr:full": "1801 3e Avenue", "addr:city": "Val D'Or", "addr:state": "QC", "addr:postcode": "J9P 5K1", "addr:country": "Canada", "name": "Val D'Or", "phone": "1-877-606-4233 ext. 266", "brand": "Ardene"}, "geometry": {"type": "Point", "coordinates": [-77.827152, 48.0959]}},
{"type": "Feature", "id": "wLj9DgzRFBL2iqWAaog4XNV7KuU=", "properties": {"ref": "Northgate Shopping Centre", "@spider": "ardene", "addr:full": "1500 Fisher St", "addr:city": "North Bay", "addr:state": "ON", "addr:postcode": "P1B 2H3", "addr:country": "Canada", "name": "Northgate Shopping Centre", "phone": "705-316-0030", "brand": "Ardene"}, "geometry": {"type": "Point", "coordinates": [-79.439456, 46.314293]}},
{"type": "Feature", "id": "0W7ZSePmRnhwwlg9vAsrZ4pmEC8=", "properties": {"ref": "Heritage Place Shopping Centre", "@spider": "ardene", "addr:full": "1350 16 Street E", "addr:city": "Owen Sound", "addr:state": "ON", "addr:postcode": "N4K 6N7", "addr:country": "Canada", "name": "Heritage Place Shopping Centre", "phone": "226-277-0002", "brand": "Ardene"}, "geometry": {"type": "Point", "coordinates": [-80.91958, 44.576931]}},
{"type": "Feature", "id": "czFgRdmDmZ0aGZFPif--GLMUS2s=", "properties": {"ref": "Chibougamau", "@spider": "ardene", "addr:full": "466 3e Rue", "addr:city": "Chibougamau", "addr:state": "QC", "addr:postcode": "G8P 2X6", "addr:country": "Canada", "name": "Chibougamau", "phone": "1-877-606-4233 ext. 392", "brand": "Ardene"}, "geometry": {"type": "Point", "coordinates": [-74.362135, 49.913664]}},
{"type": "Feature", "id": "lBUK9VAfVPXaxaUsVOpZyOk9rkM=", "properties": {"ref": "Lambton Mall", "@spider": "ardene", "addr:full": "1380 London Rd", "addr:city": "Sarnia", "addr:state": "ON", "addr:postcode": "N7S 1P8", "addr:country": "Canada", "name": "Lambton Mall", "phone": "519-479-0711", "brand": "Ardene"}, "geometry": {"type": "Point", "coordinates": [-82.352429, 42.982636]}},
{"type": "Feature", "id": "y_YN7znsjKvww_1DdrmuMjVOzXI=", "properties": {"ref": "Orillia Square Mall", "@spider": "ardene", "addr:full": "1029 Brodie Dr", "addr:city": "Orillia", "addr:state": "ON", "addr:postcode": "L3V 6H4 ", "addr:country": "Canada", "name": "Orillia Square Mall", "phone": "705-812-7829", "brand": "Ardene"}, "geometry": {"type": "Point", "coordinates": [-79.43548, 44.632054]}},
{"type": "Feature", "id": "VwrxWwLL6X722RhrpIWHquK80Bs=", "properties": {"ref": "Georgian Mall", "@spider": "ardene", "addr:full": "509 Bayfield St N", "addr:city": "Barrie", "addr:state": "ON", "addr:postcode": "L4M 4Z8", "addr:country": "Canada", "name": "Georgian Mall", "phone": "705-812-7741", "brand": "Ardene"}, "geometry": {"type": "Point", "coordinates": [-79.707417, 44.41298]}},
{"type": "Feature", "id": "B3TPDKIwBaoVc8HiNuYKYVGjRrc=", "properties": {"ref": "Alliston Mills", "@spider": "ardene", "addr:full": "36 Young St W", "addr:city": "Alliston", "addr:state": "ON", "addr:postcode": "L9R 1P8 ", "addr:country": "Canada", "name": "Alliston Mills", "phone": "519-478-0427", "brand": "Ardene"}, "geometry": {"type": "Point", "coordinates": [-79.882509, 44.149247]}},
{"type": "Feature", "id": "AIctQip3001OZXvTZdC7j5PvtUg=", "properties": {"ref": "Devonshire Mall", "@spider": "ardene", "addr:full": "3100 Howard Ave", "addr:city": "Windsor", "addr:state": "ON", "addr:postcode": "N8X 3Y8", "addr:country": "Canada", "name": "Devonshire Mall", "phone": "519-968-1787", "brand": "Ardene"}, "geometry": {"type": "Point", "coordinates": [-83.002187, 42.275212]}},
{"type": "Feature", "id": "eKUl-zmeYlBT7UfM4zpiIl4djy4=", "properties": {"ref": "Windsor", "@spider": "ardene", "addr:full": "1555 Talbot Road", "addr:city": "Windsor", "addr:state": "ON", "addr:postcode": "N9H 2N2", "addr:country": "Canada", "name": "Windsor", "phone": "226-620-0010", "brand": "Ardene"}, "geometry": {"type": "Point", "coordinates": [-83.014044, 42.240882]}},
{"type": "Feature", "id": "Tphnj_7U8_ZTT6bLSQzr3LpUMp8=", "properties": {"ref": "Festival Marketplace Shopping Centre", "@spider": "ardene", "addr:full": "1067 Ontario St", "addr:city": "Stratford", "addr:state": "ON", "addr:postcode": "N5A 6W6", "addr:country": "Canada", "name": "Festival Marketplace Shopping Centre", "phone": "226-633-5017", "brand": "Ardene"}, "geometry": {"type": "Point", "coordinates": [-80.945431, 43.369976]}},
{"type": "Feature", "id": "Lu0gt5gnlIYsUW5Svrp-5FIo2Do=", "properties": {"ref": "Conestoga Mall", "@spider": "ardene", "addr:full": "550 King St N", "addr:city": "Waterloo", "addr:state": "ON", "addr:postcode": "N2L 5W6", "addr:country": "Canada", "name": "Conestoga Mall", "phone": "519-746-7160", "brand": "Ardene"}, "geometry": {"type": "Point", "coordinates": [-80.525935, 43.497874]}},
{"type": "Feature", "id": "hMHm6eAWn5ZO_yDHq6fYa929HrM=", "properties": {"ref": "Pembroke Mall", "@spider": "ardene", "addr:full": "1100 Pembroke St E", "addr:city": "Pembroke", "addr:state": "ON", "addr:postcode": "K8A 6Y7", "addr:country": "Canada", "name": "Pembroke Mall", "phone": "819-901-0012", "brand": "Ardene"}, "geometry": {"type": "Point", "coordinates": [-77.085301, 45.821205]}},
{"type": "Feature", "id": "JWxoVYdgjNj9ulrhxSeTUb8l82Q=", "properties": {"ref": "The Boardwalk", "@spider": "ardene", "addr:full": "210-4 The Boardwalk", "addr:city": "Kitchener", "addr:state": "ON", "addr:postcode": "N2N 0B1 ", "addr:country": "Canada", "name": "The Boardwalk", "phone": "519-895-1749", "brand": "Ardene"}, "geometry": {"type": "Point", "coordinates": [-80.559452, 43.435982]}},
{"type": "Feature", "id": "_TkxbcHYwvfhM-FjWYo3VVbeaXM=", "properties": {"ref": "Citi Plaza", "@spider": "ardene", "addr:full": "355 Wellington St", "addr:city": "London", "addr:state": "ON", "addr:postcode": "N6A 3N7 ", "addr:country": "Canada", "name": "Citi Plaza", "phone": "519-488-1475", "brand": "Ardene"}, "geometry": {"type": "Point", "coordinates": [-81.246624, 42.983318]}},
{"type": "Feature", "id": "SZmZr6B9OOLWbTbj-VECM9RFciw=", "properties": {"ref": "Upper Canada Mall", "@spider": "ardene", "addr:full": "17600 Yonge Street", "addr:city": "Newmarket", "addr:state": "ON", "addr:postcode": "L3Y 4Z1 ", "addr:country": "Canada", "name": "Upper Canada Mall", "phone": "905-898-1934", "brand": "Ardene"}, "geometry": {"type": "Point", "coordinates": [-79.4854, 44.054042]}},
{"type": "Feature", "id": "_qZrnvXYXFdmVwcr4hWWsquodZ4=", "properties": {"ref": "CF Fairview Park", "@spider": "ardene", "addr:full": "2960 Kingsway Dr", "addr:city": "Kitchener", "addr:state": "ON", "addr:postcode": "N2C 1X1", "addr:country": "Canada", "name": "CF Fairview Park", "phone": "519-954-0841", "brand": "Ardene"}, "geometry": {"type": "Point", "coordinates": [-80.437809, 43.424106]}},
{"type": "Feature", "id": "Pho9OCCYERK7K7GosZQtZ0OXFKQ=", "properties": {"ref": "Sunrise Shopping Centre", "@spider": "ardene", "addr:full": "1400 Ottawa Street South", "addr:city": "Kitchener", "addr:state": "ON", "addr:postcode": "N2E 4E2", "addr:country": "Canada", "name": "Sunrise Shopping Centre", "phone": "519-513-1467", "brand": "Ardene"}, "geometry": {"type": "Point", "coordinates": [-80.437712, 43.424106]}},
{"type": "Feature", "id": "YGf_cDs0Cr9uUVqnRuSjh6SJSbs=", "properties": {"ref": "Downtown Chatham Centre", "@spider": "ardene", "addr:full": "100 King St W", "addr:city": "Chatham", "addr:state": "ON", "addr:postcode": "N7M 6A9", "addr:country": "Canada", "name": "Downtown Chatham Centre", "phone": "519-480-0519", "brand": "Ardene"}, "geometry": {"type": "Point", "coordinates": [-82.184001, 42.405279]}},
{"type": "Feature", "id": "dpgj5JtggQ0hJqk7MuqavA2HFzk=", "properties": {"ref": "White Oaks Mall", "@spider": "ardene", "addr:full": "1105 Wellington Rd", "addr:city": "London", "addr:state": "ON", "addr:postcode": "N6E 1V4 ", "addr:country": "Canada", "name": "White Oaks Mall", "phone": "519-913-3428", "brand": "Ardene"}, "geometry": {"type": "Point", "coordinates": [-81.224601, 42.931314]}},
{"type": "Feature", "id": "tUZvGT-Vq9z49G_vZXbfJQFBJ6Y=", "properties": {"ref": "Stone Road Mall", "@spider": "ardene", "addr:full": "435 Stone Rd", "addr:city": "Guelph", "addr:state": "ON", "addr:postcode": "N1G 2X6", "addr:country": "Canada", "name": "Stone Road Mall", "phone": "519-341-1882", "brand": "Ardene"}, "geometry": {"type": "Point", "coordinates": [-80.238689, 43.518244]}},
{"type": "Feature", "id": "v82oKfqIfjzaobiCmg4B3aO6bMw=", "properties": {"ref": "Cambridge PWR", "@spider": "ardene", "addr:full": "50 Pinebush Rd.", "addr:city": "Cambridge", "addr:state": "ON", "addr:postcode": "N1R 8K5", "addr:country": "Canada", "name": "Cambridge PWR", "phone": "226-475-1022", "brand": "Ardene"}, "geometry": {"type": "Point", "coordinates": [-80.322179, 43.410371]}},
{"type": "Feature", "id": "Jpfg5Jl7s8iNKLt98FQafFKgzEc=", "properties": {"ref": "Cambridge Centre", "@spider": "ardene", "addr:full": "355 Hespeler Rd", "addr:city": "Cambridge", "addr:state": "ON", "addr:postcode": "N1R 6B3", "addr:country": "Canada", "name": "Cambridge Centre", "phone": "519-341-1115", "brand": "Ardene"}, "geometry": {"type": "Point", "coordinates": [-80.320184, 43.392225]}},
{"type": "Feature", "id": "BAWZ_AdH9wjszXdopmoe5peZAtY=", "properties": {"ref": "Georgetown Marketplace", "@spider": "ardene", "addr:full": "280 Guelph St", "addr:city": "Georgetown", "addr:state": "ON", "addr:postcode": "L7G 4B1", "addr:country": "Canada", "name": "Georgetown Marketplace", "phone": "289-344-0233", "brand": "Ardene"}, "geometry": {"type": "Point", "coordinates": [-79.897445, 43.648421]}},
{"type": "Feature", "id": "W9Crwpear0znJZxSKojbUMhUYCU=", "properties": {"ref": "Trinity Commons Brampton", "@spider": "ardene", "addr:full": "70 Great Lakes Dr", "addr:city": "Brampton", "addr:state": "ON", "addr:postcode": "L6R 2K7 ", "addr:country": "Canada", "name": "Trinity Commons Brampton", "phone": "905-487-3925", "brand": "Ardene"}, "geometry": {"type": "Point", "coordinates": [-79.766703, 43.729321]}},
{"type": "Feature", "id": "6Bkrcv1ttQD3FqAvBb0TbpLR8po=", "properties": {"ref": "Woodstock Plaza", "@spider": "ardene", "addr:full": "451 Norwich Ave", "addr:city": "Woodstock", "addr:state": "ON", "addr:postcode": "N4S 3W4", "addr:country": "Canada", "name": "Woodstock Plaza", "phone": "226-242-2608", "brand": "Ardene"}, "geometry": {"type": "Point", "coordinates": [-80.736869, 43.117906]}},
{"type": "Feature", "id": "ijHnL1Ax6qElq_aW9lamevMBUOI=", "properties": {"ref": "Lindsay Square", "@spider": "ardene", "addr:full": "401 Kent St W", "addr:city": "Lindsay", "addr:state": "ON", "addr:postcode": "K9V 4Z1", "addr:country": "Canada", "name": "Lindsay Square", "phone": "416-840-7536", "brand": "Ardene"}, "geometry": {"type": "Point", "coordinates": [-78.760528, 44.348769]}},
{"type": "Feature", "id": "5cjH16tbq_K8RxSEx1Tr0LgDGos=", "properties": {"ref": "Bramalea City Centre", "@spider": "ardene", "addr:full": "25 Peel Centre Dr", "addr:city": "Brampton", "addr:state": "ON", "addr:postcode": "L6T 3R5", "addr:country": "Canada", "name": "Bramalea City Centre", "phone": "905-796-0471", "brand": "Ardene"}, "geometry": {"type": "Point", "coordinates": [-79.722147, 43.715504]}},
{"type": "Feature", "id": "r-HvoJv_3s6lqaxUlOryi0Jkj04=", "properties": {"ref": "Leamington", "@spider": "ardene", "addr:full": "288 Erie St S", "addr:city": "Leamington", "addr:state": "ON", "addr:postcode": "N8H 3C5 ", "addr:country": "Canada", "name": "Leamington", "phone": "226-484-6031", "brand": "Ardene"}, "geometry": {"type": "Point", "coordinates": [-82.600164, 42.036225]}},
{"type": "Feature", "id": "QYhfqL6sg5V6nGcg13-H7-Bb0lM=", "properties": {"ref": "Maniwaki", "@spider": "ardene", "addr:full": "100 rue Principale S.", "addr:city": "Maniwaki", "addr:state": "QC", "addr:postcode": "J9E 1Z9", "addr:country": "Canada", "name": "Maniwaki", "phone": "819-973-0001", "brand": "Ardene"}, "geometry": {"type": "Point", "coordinates": [-75.983839, 46.376144]}},
{"type": "Feature", "id": "3bKmjrNZkZsjykUXoLu02fGGMKI=", "properties": {"ref": "Shoppers World Brampton - LIQUIDATION", "@spider": "ardene", "addr:full": "499 Main Street S", "addr:city": "Brampton", "addr:state": "ON", "addr:postcode": "L6Y 1N7", "addr:country": "Canada", "name": "Shoppers World Brampton - LIQUIDATION", "phone": "905-799-0337", "brand": "Ardene"}, "geometry": {"type": "Point", "coordinates": [-79.737098, 43.666206]}},
{"type": "Feature", "id": "1QMVntYchn-DOv7lnED_K_fDY_o=", "properties": {"ref": "Hillcrest Mall", "@spider": "ardene", "addr:full": "9350 yonge st", "addr:city": "Richmond Hill", "addr:state": "ON", "addr:postcode": "L4C 5G2", "addr:country": "Canada", "name": "Hillcrest Mall", "phone": "905-918-5108", "brand": "Ardene"}, "geometry": {"type": "Point", "coordinates": [-79.437279, 43.854499]}},
{"type": "Feature", "id": "iaVH1vXH8RyDIgyMgZIgFnEsOIU=", "properties": {"ref": "Albion Mall", "@spider": "ardene", "addr:full": "1530 Albion Rd", "addr:city": "Etobicoke", "addr:state": "ON", "addr:postcode": "M9V 1B4", "addr:country": "Canada", "name": "Albion Mall", "phone": "416-840-5089", "brand": "Ardene"}, "geometry": {"type": "Point", "coordinates": [-79.585513, 43.741786]}},
{"type": "Feature", "id": "jq7LYbz9eqfWjZhbOdqEou-0Ez0=", "properties": {"ref": "Toronto Premium Outlets", "@spider": "ardene", "addr:full": "13850 Steels Ave W", "addr:city": "Halton Hill", "addr:state": "ON", "addr:postcode": "L7G 5G2 ", "addr:country": "Canada", "name": "Toronto Premium Outlets", "phone": "905-203-1497", "brand": "Ardene"}, "geometry": {"type": "Point", "coordinates": [-79.827815, 43.577185]}},
{"type": "Feature", "id": "z0XFlKkQICq96Y1YpV_Tu9pc1hg=", "properties": {"ref": "Woodbine Shopping Centre", "@spider": "ardene", "addr:full": "500 Rexdale Blvd", "addr:city": "Rexdale", "addr:state": "ON", "addr:postcode": "M9W 6K5", "addr:country": "Canada", "name": "Woodbine Shopping Centre", "phone": "416-637-1601", "brand": "Ardene"}, "geometry": {"type": "Point", "coordinates": [-79.600711, 43.720439]}},
{"type": "Feature", "id": "y2EgpBV1s3Lnla7_zikXZ5kYR_E=", "properties": {"ref": "Yorkgate Mall - LIQUIDATION", "@spider": "ardene", "addr:full": "1 Yorkgate Blvd", "addr:city": "Toronto", "addr:state": "ON", "addr:postcode": "M3N 3A1 ", "addr:country": "Canada", "name": "Yorkgate Mall - LIQUIDATION", "phone": "416-623-7406", "brand": "Ardene"}, "geometry": {"type": "Point", "coordinates": [-79.519894, 43.75845]}},
{"type": "Feature", "id": "AGQXJEtCkg6B11_qKEdVALTyO1U=", "properties": {"ref": "Market - LIQUIDATION", "@spider": "ardene", "addr:full": "2181 Steeles Avenue W. Bldg. B", "addr:city": "Toronto", "addr:state": "ON", "addr:postcode": "M3J 3N2", "addr:country": "Canada", "name": "Market - LIQUIDATION", "phone": "416-840-6855", "brand": "Ardene"}, "geometry": {"type": "Point", "coordinates": [-79.476183, 43.784752]}},
{"type": "Feature", "id": "zUIidKX2ihiIQh2iAO5p00dCqvs=", "properties": {"ref": "Milton Mall", "@spider": "ardene", "addr:full": "55 Ontario St S", "addr:city": "Milton", "addr:state": "ON", "addr:postcode": "L9T 2M3", "addr:country": "Canada", "name": "Milton Mall", "phone": "905-203-1493", "brand": "Ardene"}, "geometry": {"type": "Point", "coordinates": [-79.87431, 43.518019]}},
{"type": "Feature", "id": "h46Wh-cxrxo3MQZBO8cr6IVVxZU=", "properties": {"ref": "Centrepoint Mall - LIQUIDATION", "@spider": "ardene", "addr:full": "6464 Yonge St", "addr:city": "Willowdale", "addr:state": "ON", "addr:postcode": "M2M 3X4", "addr:country": "Canada", "name": "Centrepoint Mall - LIQUIDATION", "phone": "416-840-4235", "brand": "Ardene"}, "geometry": {"type": "Point", "coordinates": [-79.422188, 43.796771]}},
{"type": "Feature", "id": "jg63z-Gsm-nJ4qcTeGVEf0S-w5Q=", "properties": {"ref": "Heartland Town Centre", "@spider": "ardene", "addr:full": "6075 Mavis Rd", "addr:city": "Mississauga", "addr:state": "ON", "addr:postcode": "L5R 4G6", "addr:country": "Canada", "name": "Heartland Town Centre", "phone": "905-296-5131", "brand": "Ardene"}, "geometry": {"type": "Point", "coordinates": [-79.694266, 43.61474]}},
{"type": "Feature", "id": "wlzhUFFjOTFzLcDDuS4HDtENNHU=", "properties": {"ref": "Markville Shopping Centre", "@spider": "ardene", "addr:full": "5000 Hwy 7", "addr:city": "Markham", "addr:state": "ON", "addr:postcode": "L3R 4M9", "addr:country": "Canada", "name": "Markville Shopping Centre", "phone": "905-202-4518", "brand": "Ardene"}, "geometry": {"type": "Point", "coordinates": [-79.289125, 43.867571]}},
{"type": "Feature", "id": "R8k1QcvUnzNpGcHVeb9AcTz5afU=", "properties": {"ref": "Sheridan Mall", "@spider": "ardene", "addr:full": "1700 Wilson Ave", "addr:city": "North York", "addr:state": "ON", "addr:postcode": "M3L 1B2", "addr:country": "Canada", "name": "Sheridan Mall", "phone": "416-840-3924", "brand": "Ardene"}, "geometry": {"type": "Point", "coordinates": [-79.511986, 43.721198]}},
{"type": "Feature", "id": "nsP5oBp_OtO7uILvCLnolbUEeDo=", "properties": {"ref": "Empress Walk", "@spider": "ardene", "addr:full": "5095 Yonge St", "addr:city": "Toronto", "addr:state": "ON", "addr:postcode": "M2N 6Z4", "addr:country": "Canada", "name": "Empress Walk", "phone": "416-533-8250", "brand": "Ardene"}, "geometry": {"type": "Point", "coordinates": [-79.412015, 43.768355]}},
{"type": "Feature", "id": "86kUTLDMqoKZyk3NJqBQrPnLkc8=", "properties": {"ref": "Orfus Outlet - LIQUIDATION", "@spider": "ardene", "addr:full": "88 Orfus Rd", "addr:city": "Toronto", "addr:state": "ON", "addr:postcode": "M6A 1L9", "addr:country": "Canada", "name": "Orfus Outlet - LIQUIDATION", "phone": "416-269-2819", "brand": "Ardene"}, "geometry": {"type": "Point", "coordinates": [-79.463842, 43.718858]}},
{"type": "Feature", "id": "qAXdWaxeG8CH5pa_YDezeQEkLNI=", "properties": {"ref": "Orfus Outlet 2", "@spider": "ardene", "addr:full": "55 Orfus Rd", "addr:city": "Toronto", "addr:state": "ON", "addr:postcode": "M6A 1L6 ", "addr:country": "Canada", "name": "Orfus Outlet 2", "phone": "647-430-1457", "brand": "Ardene"}, "geometry": {"type": "Point", "coordinates": [-79.46119, 43.718873]}},
{"type": "Feature", "id": "Z1bSUHK84jGAoFY1sK-PpcVzSa4=", "properties": {"ref": "Erin Mills Town Center", "@spider": "ardene", "addr:full": "5100 Erin Mills Pkwy", "addr:city": "Mississauga", "addr:state": "ON", "addr:postcode": "L5M 4Z5 ", "addr:country": "Canada", "name": "Erin Mills Town Center", "phone": "905-593-2613", "brand": "Ardene"}, "geometry": {"type": "Point", "coordinates": [-79.712423, 43.558905]}},
{"type": "Feature", "id": "f3Op09pJtuFAZMFMNXxrzSSMlWA=", "properties": {"ref": "Square One Shopping Centre", "@spider": "ardene", "addr:full": "100 City Centre Dr", "addr:city": "Mississauga", "addr:state": "ON", "addr:postcode": "L5B 2C9 ", "addr:country": "Canada", "name": "Square One Shopping Centre", "phone": "289-232-2229", "brand": "Ardene"}, "geometry": {"type": "Point", "coordinates": [-79.644886, 43.592478]}},
{"type": "Feature", "id": "ZPTavIo_kmACGv_5lH_P3KMoMbs=", "properties": {"ref": "Cedarbrae Mall", "@spider": "ardene", "addr:full": "3495 Lawrence Ave E", "addr:city": "Scarborough", "addr:state": "ON", "addr:postcode": "M1H 1B3 ", "addr:country": "Canada", "name": "Cedarbrae Mall", "phone": "416-224-2680", "brand": "Ardene"}, "geometry": {"type": "Point", "coordinates": [-79.447258, 43.71661]}},
{"type": "Feature", "id": "N2YkkvuYNxM9eol2XiZohKC6ikI=", "properties": {"ref": "Lawrence Square Mall", "@spider": "ardene", "addr:full": "700 Lawrence Ave W", "addr:city": "Toronto", "addr:state": "ON", "addr:postcode": "M6A 3B4", "addr:country": "Canada", "name": "Lawrence Square Mall", "phone": "416-640-1389", "brand": "Ardene"}, "geometry": {"type": "Point", "coordinates": [-79.44726, 43.716354]}},
{"type": "Feature", "id": "8sDVTdg8GBo2rn-DnaQYt6YRXJA=", "properties": {"ref": "The Stockyards", "@spider": "ardene", "addr:full": "1980 St Clair Ave W", "addr:city": "Toronto", "addr:state": "ON", "addr:postcode": "M6N 0A3", "addr:country": "Canada", "name": "The Stockyards", "phone": "416-730-0561", "brand": "Ardene"}, "geometry": {"type": "Point", "coordinates": [-79.469998, 43.67263]}},
{"type": "Feature", "id": "_JOME_NKBF0E7i7npEVWOs-DmQ4=", "properties": {"ref": "Mont-Laurier", "@spider": "ardene", "addr:full": "939 Boulevard Paquette", "addr:city": "Mont-Laurier", "addr:state": "QC", "addr:postcode": "J9L 3J1", "addr:country": "Canada", "name": "Mont-Laurier", "phone": "819-906-0001", "brand": "Ardene"}, "geometry": {"type": "Point", "coordinates": [-75.486436, 46.552233]}},
{"type": "Feature", "id": "HjNZe9ntfzXtcQolUE7gy6LAbeY=", "properties": {"ref": "Dixie Outlet Mall - LIQUIDATION", "@spider": "ardene", "addr:full": "1250 South Service Rd", "addr:city": "Mississauga", "addr:state": "ON", "addr:postcode": "L5E 1V4", "addr:country": "Canada", "name": "Dixie Outlet Mall - LIQUIDATION", "phone": "905-306-8852", "brand": "Ardene"}, "geometry": {"type": "Point", "coordinates": [-79.570583, 43.592947]}},
{"type": "Feature", "id": "rXRizXf3Lpciva6Hy85_QsOilDI=", "properties": {"ref": "Lynden Park Mall", "@spider": "ardene", "addr:full": "84 Lynden Rd", "addr:city": "Brantford", "addr:state": "ON", "addr:postcode": "N3R 6B8 ", "addr:country": "Canada", "name": "Lynden Park Mall", "phone": "519-512-2672", "brand": "Ardene"}, "geometry": {"type": "Point", "coordinates": [-80.23963, 43.17168]}},
{"type": "Feature", "id": "wM9Rof2_VVmLJM_-2kG-qS0KEHg=", "properties": {"ref": "Scarborough Town Centre", "@spider": "ardene", "addr:full": "300 Borough Drive", "addr:city": "Scarborough", "addr:state": "ON", "addr:postcode": "M1P 4P5", "addr:country": "Canada", "name": "Scarborough Town Centre", "phone": "416-840-9169", "brand": "Ardene"}, "geometry": {"type": "Point", "coordinates": [-79.258676, 43.77663]}},
{"type": "Feature", "id": "MgxcCTnmyiHbF5xytxvgKQHZLdw=", "properties": {"ref": "Tillsonburg Town Center", "@spider": "ardene", "addr:full": "200 Broadway St", "addr:city": "Tillsonburg", "addr:state": "ON", "addr:postcode": "N4G 5A7 ", "addr:country": "Canada", "name": "Tillsonburg Town Center", "phone": "519-858-2903", "brand": "Ardene"}, "geometry": {"type": "Point", "coordinates": [-80.728491, 42.862953]}},
{"type": "Feature", "id": "ayLWwVpgO49EmIXVFJcDPQooaN8=", "properties": {"ref": "Dufferin Mall", "@spider": "ardene", "addr:full": "900 Dufferin St", "addr:city": "Toronto", "addr:state": "ON", "addr:postcode": "M6H 4B1 ", "addr:country": "Canada", "name": "Dufferin Mall", "phone": "647-427-9980", "brand": "Ardene"}, "geometry": {"type": "Point", "coordinates": [-79.434579, 43.654621]}},
{"type": "Feature", "id": "8_yZbxwVOrdSsex2EHGFdQPagok=", "properties": {"ref": "White Shield Plaza - LIQUIDATION", "@spider": "ardene", "addr:full": "2300 Lawrence Ave E", "addr:city": "Scarborough", "addr:state": "ON", "addr:postcode": "M1P 2R2", "addr:country": "Canada", "name": "White Shield Plaza - LIQUIDATION", "phone": "416-623-6856", "brand": "Ardene"}, "geometry": {"type": "Point", "coordinates": [-79.276225, 43.750996]}},
{"type": "Feature", "id": "Ipw8bpH0AtCj_lx58h2ziq--h5M=", "properties": {"ref": "East York Town Centre - LIQUIDATION", "@spider": "ardene", "addr:full": "45 Overlea Boulevard", "addr:city": "Toronto", "addr:state": "ON", "addr:postcode": "M4H 1C3", "addr:country": "Canada", "name": "East York Town Centre - LIQUIDATION", "phone": "416-840-6163", "brand": "Ardene"}, "geometry": {"type": "Point", "coordinates": [-79.346326, 43.705366]}},
{"type": "Feature", "id": "Qo-9JTpt5WyO8nXrKjul67ixenU=", "properties": {"ref": "Hudsons Bay Centre", "@spider": "ardene", "addr:full": "2 Bloor St E", "addr:city": "Toronto", "addr:state": "ON", "addr:postcode": "M4W 1A8", "addr:country": "Canada", "name": "Hudsons Bay Centre", "phone": "416-840-9230", "brand": "Ardene"}, "geometry": {"type": "Point", "coordinates": [-79.386381, 43.670626]}},
{"type": "Feature", "id": "8s4hi3HHMAb0kiRyrEWyqZdDVd4=", "properties": {"ref": "Pickering Town Centre", "@spider": "ardene", "addr:full": "1355 Kingston Rd", "addr:city": "Pickering", "addr:state": "ON", "addr:postcode": "L1V 1B8 ", "addr:country": "Canada", "name": "Pickering Town Centre", "phone": "905-239-2476", "brand": "Ardene"}, "geometry": {"type": "Point", "coordinates": [-79.087164, 43.835569]}},
{"type": "Feature", "id": "fykOlta1bD8HSviWS3Qf_yeAJmo=", "properties": {"ref": "Gerrad Square Shopping Centre", "@spider": "ardene", "addr:full": "1000 Gerrard St E", "addr:city": "Toronto", "addr:state": "ON", "addr:postcode": "M4M 3G6", "addr:country": "Canada", "name": "Gerrad Square Shopping Centre", "phone": "416-492-6657", "brand": "Ardene"}, "geometry": {"type": "Point", "coordinates": [-79.338849, 43.668765]}},
{"type": "Feature", "id": "4EagTWOvhqXo-8jzTJ4x8h3HA-A=", "properties": {"ref": "Durham Power Centre", "@spider": "ardene", "addr:full": "125 Harwood Ave N", "addr:city": "Ajax", "addr:state": "ON", "addr:postcode": "L1Z 1E8", "addr:country": "Canada", "name": "Durham Power Centre", "phone": "905-231-0214", "brand": "Ardene"}, "geometry": {"type": "Point", "coordinates": [-79.02519, 43.862805]}},
{"type": "Feature", "id": "hmreNAq8Zp9-25ZE_oG2BnrZtCg=", "properties": {"ref": "Burloak Riocan Centre", "@spider": "ardene", "addr:full": "3527 Wyecroft Rd", "addr:city": "Oakville", "addr:state": "ON", "addr:postcode": "L6L 0B6", "addr:country": "Canada", "name": "Burloak Riocan Centre", "phone": "905-901-4952", "brand": "Ardene"}, "geometry": {"type": "Point", "coordinates": [-79.752358, 43.397545]}},
{"type": "Feature", "id": "InH9VGdwb-O5QvJqunROUMgB1Kw=", "properties": {"ref": "Burlington Mall", "@spider": "ardene", "addr:full": "777 Guelph Line", "addr:state": "ON", "addr:postcode": "L7R 3N2", "addr:country": "Canada", "name": "Burlington Mall", "phone": "905-336-2647", "brand": "Ardene"}, "geometry": {"type": "Point", "coordinates": [-79.820504, 43.326973]}},
{"type": "Feature", "id": "5qdHt2RrtCtOfos2VI-fWuutqYk=", "properties": {"ref": "Mapleview", "@spider": "ardene", "addr:full": "900 Maple Ave", "addr:city": "Burlington", "addr:state": "ON", "addr:postcode": "L7S 2J8 ", "addr:country": "Canada", "name": "Mapleview", "phone": "905-631-1292", "brand": "Ardene"}, "geometry": {"type": "Point", "coordinates": [-79.820429, 43.326791]}},
{"type": "Feature", "id": "CT23U9XM4xYGimtvsVuOsC5dmHI=", "properties": {"ref": "SmartCentres Oshawa", "@spider": "ardene", "addr:full": "991 Taunton Rd E", "addr:city": "Oshawa", "addr:state": "ON", "addr:postcode": "L1H 7K5", "addr:country": "Canada", "name": "SmartCentres Oshawa", "phone": "905-448-5308", "brand": "Ardene"}, "geometry": {"type": "Point", "coordinates": [-78.843512, 43.939656]}},
{"type": "Feature", "id": "H39ctr1dbsDWYFcCabOZV15Fbp4=", "properties": {"ref": "Oshawa Centre", "@spider": "ardene", "addr:full": "419 King St W", "addr:city": "Oshawa", "addr:state": "ON", "addr:postcode": "L1J 2K5", "addr:country": "Canada", "name": "Oshawa Centre", "phone": "905-448-5310", "brand": "Ardene"}, "geometry": {"type": "Point", "coordinates": [-78.881525, 43.892149]}},
{"type": "Feature", "id": "yNX80H2ugqcDaD3tATVz_ltj4pA=", "properties": {"ref": "Jackson Square", "@spider": "ardene", "addr:full": "2 King St W", "addr:city": "Hamilton", "addr:state": "ON", "addr:postcode": "L8P 1A1", "addr:country": "Canada", "name": "Jackson Square", "phone": "905-538-0359", "brand": "Ardene"}, "geometry": {"type": "Point", "coordinates": [-79.869185, 43.257347]}},
{"type": "Feature", "id": "cyjAuKu2msslh1co5OUDEOSuWz8=", "properties": {"ref": "CF Limeridge", "@spider": "ardene", "addr:full": "999 Upper Wentworth St", "addr:city": "Hamilton", "addr:state": "ON", "addr:postcode": "L9A 4X5 ", "addr:country": "Canada", "name": "CF Limeridge", "phone": "289-860-0031", "brand": "Ardene"}, "geometry": {"type": "Point", "coordinates": [-79.86121, 43.218745]}},
{"type": "Feature", "id": "l3N4invDOBFoOkgorZ7DKBQTGzg=", "properties": {"ref": "The Centre on Barton", "@spider": "ardene", "addr:full": "1259 Barton street", "addr:city": "Hamilton", "addr:state": "ON", "addr:postcode": "L8H 2V4", "addr:country": "Canada", "name": "The Centre on Barton", "phone": "905-296-0472", "brand": "Ardene"}, "geometry": {"type": "Point", "coordinates": [-79.808384, 43.250783]}},
{"type": "Feature", "id": "G0sG9BLtvalqcvglvJ9F916BsV0=", "properties": {"ref": "Eastgate", "@spider": "ardene", "addr:full": "75 Centennial Parkway N.", "addr:city": "Stoney Creek", "addr:state": "ON", "addr:postcode": "L8E 2P2", "addr:country": "Canada", "name": "Eastgate", "phone": "289-860-0038", "brand": "Ardene"}, "geometry": {"type": "Point", "coordinates": [-79.766416, 43.230084]}},
{"type": "Feature", "id": "KtvqkjUVLTriLu6hu8m1MzRVxRE=", "properties": {"ref": "Bowmanville Mall", "@spider": "ardene", "addr:full": "243 King St E", "addr:city": "Bowmanville", "addr:state": "ON", "addr:postcode": "L1C 3X1", "addr:country": "Canada", "name": "Bowmanville Mall", "phone": "905-448-5324", "brand": "Ardene"}, "geometry": {"type": "Point", "coordinates": [-78.672994, 43.911312]}},
{"type": "Feature", "id": "loxMkWzf-eIFhse6aHpE18kxPm8=", "properties": {"ref": "Simcoe Town Centre", "@spider": "ardene", "addr:full": "150 West St", "addr:city": "Simcoe", "addr:state": "ON", "addr:postcode": "N3Y 5C1", "addr:country": "Canada", "name": "Simcoe Town Centre", "phone": "519-512-2541", "brand": "Ardene"}, "geometry": {"type": "Point", "coordinates": [-80.307095, 42.833703]}},
{"type": "Feature", "id": "BVFSPOOn2_o-4gDMaCC7CUWvVcU=", "properties": {"ref": "Wallberg", "@spider": "ardene", "addr:full": "1300 boul. Wallberg", "addr:city": "Dolbeau-Mistassini", "addr:state": "QC", "addr:postcode": "G8L 3L8", "addr:country": "Canada", "name": "Wallberg", "phone": "581-536-0002", "brand": "Ardene"}, "geometry": {"type": "Point", "coordinates": [-72.227803, 48.877704]}},
{"type": "Feature", "id": "q7y97oVMwhandZm4BsdI7ESsijM=", "properties": {"ref": "Fairview Mall", "@spider": "ardene", "addr:full": "285 Geneva St", "addr:city": "St. Catharines", "addr:state": "ON", "addr:postcode": "L2N 2G1", "addr:country": "Canada", "name": "Fairview Mall", "phone": "289-606-0046", "brand": "Ardene"}, "geometry": {"type": "Point", "coordinates": [-79.244163, 43.177637]}},
{"type": "Feature", "id": "5DponC5a41hpQ1SXg9L4lh9c7Ok=", "properties": {"ref": "Pen Centre", "@spider": "ardene", "addr:full": "221 Glendale Ave", "addr:city": "St. Catharines", "addr:state": "ON", "addr:postcode": "L2T 2K9 ", "addr:country": "Canada", "name": "Pen Centre", "phone": "905-228-9877", "brand": "Ardene"}, "geometry": {"type": "Point", "coordinates": [-79.224353, 43.137295]}},
{"type": "Feature", "id": "hmNmBjodtjkgJqbFtFz_NrZ9yfE=", "properties": {"ref": "Carrefour Jeannois", "@spider": "ardene", "addr:full": "1221 boul. Marcotte", "addr:city": "Roberval", "addr:state": "QC", "addr:postcode": "G8H 3B8", "addr:country": "Canada", "name": "Carrefour Jeannois", "phone": "581-536-0001", "brand": "Ardene"}, "geometry": {"type": "Point", "coordinates": [-72.235572, 48.523229]}},
{"type": "Feature", "id": "hj2hvLglhTOMXio-Cv2KkHBF1eQ=", "properties": {"ref": "Aylmer", "@spider": "ardene", "addr:full": "181 rue Principale", "addr:city": "Gatineau", "addr:state": "QC", "addr:postcode": "J9H 6H6", "addr:country": "Canada", "name": "Aylmer", "phone": "819-483-0226", "brand": "Ardene"}, "geometry": {"type": "Point", "coordinates": [-75.836222, 45.397385]}},
{"type": "Feature", "id": "_6C8Rs-TSQWCjRhKRknx0E8T38c=", "properties": {"ref": "Riocan Niagara Falls", "@spider": "ardene", "addr:full": "7190 Morrison St", "addr:city": "Niagara Falls", "addr:state": "ON", "addr:postcode": "L2E 7K5", "addr:country": "Canada", "name": "Riocan Niagara Falls", "phone": "289-341-0447", "brand": "Ardene"}, "geometry": {"type": "Point", "coordinates": [-79.116297, 43.103243]}},
{"type": "Feature", "id": "oT0DDEWQFVnxgxQxBl2EM5jjrQk=", "properties": {"ref": "Tanger Outlet Ottawa", "@spider": "ardene", "addr:full": "8555 Campeau Dr", "addr:city": "Ottawa", "addr:state": "ON", "addr:postcode": "K2T 0K5", "addr:country": "Canada", "name": "Tanger Outlet Ottawa", "phone": "613-667-2084", "brand": "Ardene"}, "geometry": {"type": "Point", "coordinates": [-75.937704, 45.298181]}},
{"type": "Feature", "id": "aVzFKNcODSIWxfl_iNHSBLMoNyI=", "properties": {"ref": "Seaway Mall", "@spider": "ardene", "addr:full": "800 Niagara St N", "addr:city": "Welland", "addr:state": "ON", "addr:postcode": "L3C 5Z4", "addr:country": "Canada", "name": "Seaway Mall", "phone": "289-607-0014", "brand": "Ardene"}, "geometry": {"type": "Point", "coordinates": [-79.248409, 43.015514]}},
{"type": "Feature", "id": "eDy-5dexiKUMBpVg8S34SqtoX9s=", "properties": {"ref": "Gatineau II", "@spider": "ardene", "addr:full": "1100 boul. Maloney O", "addr:city": "Gatineau", "addr:state": "QC", "addr:postcode": "J8T 6G3", "addr:country": "Canada", "name": "Gatineau II", "phone": "819-483-0224", "brand": "Ardene"}, "geometry": {"type": "Point", "coordinates": [-75.697043, 45.475358]}},
{"type": "Feature", "id": "G2pMsziHyGfKKDaMlbnkRCm49nA=", "properties": {"ref": "Quinte Mall", "@spider": "ardene", "addr:full": "390 North Front St", "addr:city": "Belleville", "addr:state": "ON", "addr:postcode": "K8P 3E1", "addr:country": "Canada", "name": "Quinte Mall", "phone": "613-210-9943", "brand": "Ardene"}, "geometry": {"type": "Point", "coordinates": [-77.400566, 44.189343]}},
{"type": "Feature", "id": "nkoq5H2P-DT7k_5mEEJsq6S8Kbs=", "properties": {"ref": "Carlingwood Mall", "@spider": "ardene", "addr:full": "2121 Carling Ave", "addr:city": "Ottawa", "addr:state": "ON", "addr:postcode": "K2A 1H2", "addr:country": "Canada", "name": "Carlingwood Mall", "phone": "613-216-1057", "brand": "Ardene"}, "geometry": {"type": "Point", "coordinates": [-75.769634, 45.373043]}},
{"type": "Feature", "id": "wVQO6XjFezr3owNR80dp6qBy2MU=", "properties": {"ref": "St. Laurent Centre", "@spider": "ardene", "addr:full": "1200 St. Laurent Blvd", "addr:city": "Ottawa", "addr:state": "ON", "addr:postcode": "K1K 3B8 ", "addr:country": "Canada", "name": "St. Laurent Centre", "phone": "613-216-7825", "brand": "Ardene"}, "geometry": {"type": "Point", "coordinates": [-75.640312, 45.422073]}},
{"type": "Feature", "id": "1er9pdNsbgYnx9vvFfIPB9c-w70=", "properties": {"ref": "Riocan Merivale Place", "@spider": "ardene", "addr:full": "1651 Merivale Rd", "addr:city": "Ottawa", "addr:state": "ON", "addr:postcode": "K2G 3K2", "addr:country": "Canada", "name": "Riocan Merivale Place", "phone": "613-693-1571", "brand": "Ardene"}, "geometry": {"type": "Point", "coordinates": [-75.731847, 45.350386]}},
{"type": "Feature", "id": "oY4D8LGajNGjo4XAW_ENVOcoMVo=", "properties": {"ref": "Ottawa Train Yards", "@spider": "ardene", "addr:full": "550 Terminal Ave", "addr:city": "Ottawa", "addr:state": "ON", "addr:postcode": "K1G 0Z3", "addr:country": "Canada", "name": "Ottawa Train Yards", "phone": "613-216-1462", "brand": "Ardene"}, "geometry": {"type": "Point", "coordinates": [-75.644815, 45.414262]}},
{"type": "Feature", "id": "QmIhmuzK3tUYBwMPyGLH5cO2Jls=", "properties": {"ref": "Place D'Orl\u017dans", "@spider": "ardene", "addr:full": "110 Place d'Orleans Dr", "addr:city": "Orleans", "addr:state": "ON", "addr:postcode": "K1C 2L9", "addr:country": "Canada", "name": "Place D'Orl\u017dans", "phone": "613-845-0878", "brand": "Ardene"}, "geometry": {"type": "Point", "coordinates": [-75.515365, 45.47824]}},
{"type": "Feature", "id": "6ErOrzZz8PFIjTGKyNjw9hzQu8Y=", "properties": {"ref": "Alma", "@spider": "ardene", "addr:full": "705 Avenue du Pont Nord", "addr:city": "Alma", "addr:state": "QC", "addr:postcode": "G8B 6T5", "addr:country": "Canada", "name": "Alma", "phone": "418-480-5832", "brand": "Ardene"}, "geometry": {"type": "Point", "coordinates": [-71.638279, 48.561615]}},
{"type": "Feature", "id": "z_LnRNYp2dRffSkdOhs4bNrZ3xQ=", "properties": {"ref": "Walden Galleria", "@spider": "ardene", "addr:full": "1 Walden Galleria (A205)", "addr:city": "Buffalo", "addr:state": "NY", "addr:postcode": "14225", "addr:country": "United States", "name": "Walden Galleria", "phone": "(716) 220-7517", "brand": "Ardene"}, "geometry": {"type": "Point", "coordinates": [-78.76289, 42.913151]}},
{"type": "Feature", "id": "oLnSFBTpPgeMyrFwaio8jl0nLEw=", "properties": {"ref": "Cataraqui Centre", "@spider": "ardene", "addr:full": "945 Gardiners Rd", "addr:city": "Kingston", "addr:state": "ON", "addr:postcode": "K7M 7H4", "addr:country": "Canada", "name": "Cataraqui Centre", "phone": "613-344-1409", "brand": "Ardene"}, "geometry": {"type": "Point", "coordinates": [-76.57215, 44.256306]}},
{"type": "Feature", "id": "yyymbxpWaPMKmaFVsaw80k55cIM=", "properties": {"ref": "Hawkesbury Plaza", "@spider": "ardene", "addr:full": "454 County Rd", "addr:city": "Hawkesbury", "addr:state": "ON", "addr:postcode": "K6A 2R2 ", "addr:country": "Canada", "name": "Hawkesbury Plaza", "phone": "343-500-1747", "brand": "Ardene"}, "geometry": {"type": "Point", "coordinates": [-74.595008, 45.591418]}},
{"type": "Feature", "id": "e-Z-rVOixGVrHTB3HxmXLFbM8KM=", "properties": {"ref": "St-Sauveur", "@spider": "ardene", "addr:full": "191 Chemin Lac Millette", "addr:city": "Saint-Sauveur", "addr:state": "QC", "addr:postcode": "J0R 1R6", "addr:country": "Canada", "name": "St-Sauveur", "phone": "450-327-6125", "brand": "Ardene"}, "geometry": {"type": "Point", "coordinates": [-74.151951, 45.892933]}},
{"type": "Feature", "id": "p9Qf67h61-LBxtZmns6cf9sV0ik=", "properties": {"ref": "Jonquiere", "@spider": "ardene", "addr:full": "3880 boul. Harvey", "addr:city": "Jonqui\u00e8re", "addr:state": "QC", "addr:postcode": "G7X 8R6", "addr:country": "Canada", "name": "Jonquiere", "phone": "418-480-5824", "brand": "Ardene"}, "geometry": {"type": "Point", "coordinates": [-71.251758, 48.413898]}},
{"type": "Feature", "id": "BQKI0D4w5p_eIT9LzcqZJZN9wJY=", "properties": {"ref": "The Mall at Greece Ridge", "@spider": "ardene", "addr:full": "271 Greece Ridge Center Dr. LB8", "addr:city": "Rochester", "addr:state": "NY", "addr:postcode": "14626", "addr:country": "United States", "name": "The Mall at Greece Ridge", "phone": "(585) 360-0369", "brand": "Ardene"}, "geometry": {"type": "Point", "coordinates": [-77.688856, 43.206201]}},
{"type": "Feature", "id": "HocvvurKBofuDmM5GbtLcOEJ8eY=", "properties": {"ref": "Carrefour Argenteuil", "@spider": "ardene", "addr:full": "505, avenue Bethany", "addr:city": "Lachute", "addr:state": "QC", "addr:postcode": "J8H 4A6", "addr:country": "Canada", "name": "Carrefour Argenteuil", "phone": "438-288-9379", "brand": "Ardene"}, "geometry": {"type": "Point", "coordinates": [-74.325803, 45.638486]}},
{"type": "Feature", "id": "UblrF-20-PLaxZsnyFVaBENMEDs=", "properties": {"ref": "St-J\u00e9r\u00f4me", "@spider": "ardene", "addr:full": "900 boul. Grignon", "addr:city": "St J\u00e9rome", "addr:state": "QC", "addr:postcode": "J7Y 3S7", "addr:country": "Canada", "name": "St-J\u00e9r\u00f4me", "phone": "450-327-6102", "brand": "Ardene"}, "geometry": {"type": "Point", "coordinates": [-74.018824, 45.792794]}},
{"type": "Feature", "id": "46VaJEUCLdWHqZ84-OOHj0JQqqg=", "properties": {"ref": "Chicoutimi", "@spider": "ardene", "addr:full": "1401 boul. Talbot", "addr:city": "Chicoutimi", "addr:state": "QC", "addr:postcode": "G7H 4C1", "addr:country": "Canada", "name": "Chicoutimi", "phone": "581-532-0008", "brand": "Ardene"}, "geometry": {"type": "Point", "coordinates": [-71.05441, 48.40523]}},
{"type": "Feature", "id": "vSXrTOTsDSyRa8_7e-6Z6QwJpAg=", "properties": {"ref": "East Court Mall", "@spider": "ardene", "addr:full": "1380 Second St E", "addr:city": "Cornwall", "addr:state": "ON", "addr:postcode": "K6H 2B8", "addr:country": "Canada", "name": "East Court Mall", "phone": "343-330-0053", "brand": "Ardene"}, "geometry": {"type": "Point", "coordinates": [-74.703544, 45.0278]}},
{"type": "Feature", "id": "Nr0zthci7VchSX-EK7bOl7Zme1g=", "properties": {"ref": "Joliette", "@spider": "ardene", "addr:full": "1075 boul. Firestone", "addr:city": "Joliette", "addr:state": "QC", "addr:postcode": "J6E 6X6", "addr:country": "Canada", "name": "Joliette", "phone": "450-271-7513", "brand": "Ardene"}, "geometry": {"type": "Point", "coordinates": [-73.424117, 46.03261]}},
{"type": "Feature", "id": "0UhbPO6I8TpWYIX_9jvuH6onvNs=", "properties": {"ref": "Shawinigan", "@spider": "ardene", "addr:full": "1 Plaza de la Mauricie", "addr:city": "Shawinigan", "addr:state": "QC", "addr:postcode": "G9N 7C1", "addr:country": "Canada", "name": "Shawinigan", "phone": "1-877-606-4233 ext. 093", "brand": "Ardene"}, "geometry": {"type": "Point", "coordinates": [-72.738983, 46.563269]}},
{"type": "Feature", "id": "NPfNKMgQv9_Z3boMmuhq0lGFrDI=", "properties": {"ref": "St-Eustache", "@spider": "ardene", "addr:full": "367 boul. Arthur-Sauv\u00e9", "addr:city": "St-Eustache", "addr:state": "QC", "addr:postcode": "J7P 2B1", "addr:country": "Canada", "name": "St-Eustache", "phone": "514-285-0793", "brand": "Ardene"}, "geometry": {"type": "Point", "coordinates": [-73.917999, 45.577809]}},
{"type": "Feature", "id": "MwKcIgPnRlMOMcA_5Avzq2ulHD4=", "properties": {"ref": "Rosem\u00e8re", "@spider": "ardene", "addr:full": "401 boul. Labelle", "addr:city": "Rosem\u00e8re", "addr:state": "QC", "addr:postcode": "J7A 3T2", "addr:country": "Canada", "name": "Rosem\u00e8re", "phone": "450-970-1489", "brand": "Ardene"}, "geometry": {"type": "Point", "coordinates": [-73.82134, 45.630606]}},
{"type": "Feature", "id": "5xbX7Gor8WV6EKAQhL4yLif9ATQ=", "properties": {"ref": "Vaudreuil", "@spider": "ardene", "addr:full": "3150 boul. de la Gare", "addr:city": "Vaudreuil-Dorion", "addr:state": "QC", "addr:postcode": "J7V 8W5", "addr:country": "Canada", "name": "Vaudreuil", "phone": "450-319-6117", "brand": "Ardene"}, "geometry": {"type": "Point", "coordinates": [-74.048099, 45.403733]}},
{"type": "Feature", "id": "RmLY8IZBWIMV40ZOjK_BLsP4O-o=", "properties": {"ref": "Terrebonne", "@spider": "ardene", "addr:full": "1185 Boul. Moody", "addr:city": "Terrebonne", "addr:state": "QC", "addr:postcode": "J6W 3Z5", "addr:country": "Canada", "name": "Terrebonne", "phone": "1-877-606-4233 ext. 051", "brand": "Ardene"}, "geometry": {"type": "Point", "coordinates": [-73.646437, 45.702301]}},
{"type": "Feature", "id": "yTiaOclJkaYc76aQBoEAeSAABJ8=", "properties": {"ref": "Projets Mascouche", "@spider": "ardene", "addr:full": "163 Mont\u00e9e Masson", "addr:state": "QC", "addr:postcode": "J7K 3B4", "addr:country": "Canada", "name": "Projets Mascouche", "phone": "514-543-7242", "brand": "Ardene"}, "geometry": {"type": "Point", "coordinates": [-73.61547, 45.724285]}},
{"type": "Feature", "id": "v2Yf-MGQbRjwY5z9gzwR3dPd52U=", "properties": {"ref": "Carrefour Laval", "@spider": "ardene", "addr:full": "3003 boul. Le Carrefour", "addr:city": "Laval", "addr:state": "QC", "addr:postcode": "H7T 1C8", "addr:country": "Canada", "name": "Carrefour Laval", "phone": "579-939-0008", "brand": "Ardene"}, "geometry": {"type": "Point", "coordinates": [-73.752742, 45.56937]}},
{"type": "Feature", "id": "-t9o-FevIe3hu-GgPWo38Z_OgqA=", "properties": {"ref": "Laval Est", "@spider": "ardene", "addr:full": "5360 boul. Robert-Bourassa", "addr:city": "Laval Est", "addr:state": "QC", "addr:postcode": "H7E 0A5", "addr:country": "Canada", "name": "Laval Est", "phone": "450-239-6210", "brand": "Ardene"}, "geometry": {"type": "Point", "coordinates": [-73.699883, 45.60981]}},
{"type": "Feature", "id": "-uHnMpfCkvnQF44ztvpUI3t1jwA=", "properties": {"ref": "Laval PWR", "@spider": "ardene", "addr:full": "2472 Dessertes Ouest", "addr:city": "Laval", "addr:state": "QC", "addr:postcode": "H7X 4G8", "addr:country": "Canada", "name": "Laval PWR", "phone": "450-241-6274", "brand": "Ardene"}, "geometry": {"type": "Point", "coordinates": [-73.792743, 45.534977]}},
{"type": "Feature", "id": "CvKDGmj2JIZqx51FaWCL5egH47U=", "properties": {"ref": "CF Fairview Pointe Claire", "@spider": "ardene", "addr:full": "6801 Transcanada Hwy", "addr:city": "Pointe-Claire", "addr:state": "QC", "addr:postcode": "H9R 5J2", "addr:country": "Canada", "name": "CF Fairview Pointe Claire", "phone": "514-671-0026", "brand": "Ardene"}, "geometry": {"type": "Point", "coordinates": [-73.831564, 45.464478]}},
{"type": "Feature", "id": "THxN052lEddUnrOXjOGmmvZpkpA=", "properties": {"ref": "Lanaudi\u00e8re", "@spider": "ardene", "addr:full": "552 Mont\u00e9e des Pionniers", "addr:city": "Lachenaie", "addr:state": "QC", "addr:postcode": "J6V 1N9", "addr:country": "Canada", "name": "Lanaudi\u00e8re", "phone": "450-416-4351", "brand": "Ardene"}, "geometry": {"type": "Point", "coordinates": [-73.509633, 45.715629]}},
{"type": "Feature", "id": "iPrxgCEfNVC_TOZZMu3J3Bo-8ns=", "properties": {"ref": "Rive-Nord", "@spider": "ardene", "addr:full": "100 Boul. Brien C.P. 128", "addr:city": "Repentigny", "addr:state": "QC", "addr:postcode": "J6A 5N4", "addr:country": "Canada", "name": "Rive-Nord", "phone": "579-808-0003", "brand": "Ardene"}, "geometry": {"type": "Point", "coordinates": [-73.457863, 45.742698]}},
{"type": "Feature", "id": "47JJoL-B_Vamd355bRSUIUofwpw=", "properties": {"ref": "Sorel", "@spider": "ardene", "addr:full": "450 boul. Piloquin", "addr:city": "Sorel", "addr:state": "QC", "addr:postcode": "J3P 7R5", "addr:country": "Canada", "name": "Sorel", "phone": "579-269-0003", "brand": "Ardene"}, "geometry": {"type": "Point", "coordinates": [-73.103521, 46.023672]}},
{"type": "Feature", "id": "0ucZNG08mMelRyBjgXoUjk2vurs=", "properties": {"ref": "P.A.T", "@spider": "ardene", "addr:full": "12675 Sherbrooke E.", "addr:city": "Pointe-Aux-Trembles", "addr:state": "QC", "addr:postcode": "H1A 3W7", "addr:country": "Canada", "name": "P.A.T", "phone": "514-357-1189", "brand": "Ardene"}, "geometry": {"type": "Point", "coordinates": [-73.513024, 45.654585]}},
{"type": "Feature", "id": "rK7czLLxUShk3YQraDDVv3GUGqY=", "properties": {"ref": "Vertu", "@spider": "ardene", "addr:full": "3131 boul. C\u00f4te-Vertu", "addr:city": "St-Laurent", "addr:state": "QC", "addr:postcode": "H4R 1Y8", "addr:country": "Canada", "name": "Vertu", "phone": "514-357-3305", "brand": "Ardene"}, "geometry": {"type": "Point", "coordinates": [-73.706084, 45.498135]}},
{"type": "Feature", "id": "yhTftzTDL8zVDTiA-xhNRmuAhKc=", "properties": {"ref": "Anjou", "@spider": "ardene", "addr:full": "7999 boul. Les Galeries D'Anjou", "addr:city": "Anjou", "addr:state": "QC", "addr:postcode": "H1M 1W9", "addr:country": "Canada", "name": "Anjou", "phone": "514-461-2117", "brand": "Ardene"}, "geometry": {"type": "Point", "coordinates": [-73.56398, 45.599562]}},
{"type": "Feature", "id": "mRWKIJ968g9ooc_irWYuF_24Rrg=", "properties": {"ref": "Langelier - LIQUIDATION", "@spider": "ardene", "addr:full": "7373 Langelier", "addr:city": "St L\u00e9onard", "addr:state": "QC", "addr:postcode": "H1S 1V7", "addr:country": "Canada", "name": "Langelier - LIQUIDATION", "phone": "438-266-0021", "brand": "Ardene"}, "geometry": {"type": "Point", "coordinates": [-73.571005, 45.592244]}},
{"type": "Feature", "id": "dYTNDDH-JMvJva8DWOWIJwHk4Lk=", "properties": {"ref": "Rockland", "@spider": "ardene", "addr:full": "2305 rue Rockland", "addr:city": "Ville de Mont-Royal", "addr:state": "QC", "addr:postcode": "H3P 3E9", "addr:country": "Canada", "name": "Rockland", "phone": "438-266-0061", "brand": "Ardene"}, "geometry": {"type": "Point", "coordinates": [-73.647799, 45.527723]}},
{"type": "Feature", "id": "CYznS22yifEncCeimTr5JQjoEdY=", "properties": {"ref": "Le Boulevard", "@spider": "ardene", "addr:full": "4258 Jean-Talon E.", "addr:city": "St-L\u00e9onard", "addr:state": "QC", "addr:postcode": "H1S 1J7", "addr:country": "Canada", "name": "Le Boulevard", "phone": "438-266-0125", "brand": "Ardene"}, "geometry": {"type": "Point", "coordinates": [-73.588082, 45.567509]}},
{"type": "Feature", "id": "6MJ1qHVvc9S-9v7s0UJoV5ilBWg=", "properties": {"ref": "Place Versailles", "@spider": "ardene", "addr:full": "7275 Sherbrooke E.", "addr:city": "Montreal", "addr:state": "QC", "addr:postcode": "H1N 1E9", "addr:country": "Canada", "name": "Place Versailles", "phone": "514-357-2078", "brand": "Ardene"}, "geometry": {"type": "Point", "coordinates": [-73.543806, 45.592343]}},
{"type": "Feature", "id": "daFA1j5Ld104eBhhjQ1QFnjXhw8=", "properties": {"ref": "St-Hubert", "@spider": "ardene", "addr:full": "6554-6556 St-Hubert", "addr:city": "Montr\u00e9al", "addr:state": "QC", "addr:postcode": "H2S 2M5", "addr:country": "Canada", "name": "St-Hubert", "phone": "514-223-4971", "brand": "Ardene"}, "geometry": {"type": "Point", "coordinates": [-73.603516, 45.536619]}},
{"type": "Feature", "id": "K7GfCyeDEUrBgzEooai0OYTY0yg=", "properties": {"ref": "D\u00e9carie - LIQUIDATION", "@spider": "ardene", "addr:full": "5455 rue des Jockeys", "addr:city": "Montr\u00e9al", "addr:state": "QC", "addr:postcode": "H4P 2T5", "addr:country": "Canada", "name": "D\u00e9carie - LIQUIDATION", "phone": "514-357-2014", "brand": "Ardene"}, "geometry": {"type": "Point", "coordinates": [-73.656812, 45.493464]}},
{"type": "Feature", "id": "klsXnLNDUxePeVmlXRRADG1fNZs=", "properties": {"ref": "C\u00f4te-des-Neiges - LIQUIDATION", "@spider": "ardene", "addr:full": "6700 C\u00f4te-des-Neiges", "addr:city": "Montreal", "addr:state": "QC", "addr:postcode": "H3B 2B2", "addr:country": "Canada", "name": "C\u00f4te-des-Neiges - LIQUIDATION", "phone": "514-357-2012", "brand": "Ardene"}, "geometry": {"type": "Point", "coordinates": [-73.637872, 45.502469]}},
{"type": "Feature", "id": "VwRJBLeOYWCzh9rzeZJtwiQQekw=", "properties": {"ref": "Trois-Rivi\u00e8res", "@spider": "ardene", "addr:full": "4125 boul. des Forges", "addr:city": "Trois-Rivi\u00e8res", "addr:state": "QC", "addr:postcode": "G8Y 1W1", "addr:country": "Canada", "name": "Trois-Rivi\u00e8res", "phone": "819-862-2273", "brand": "Ardene"}, "geometry": {"type": "Point", "coordinates": [-72.588343, 46.355756]}},
{"type": "Feature", "id": "hyqPPigPuE6O31i53mgGoOMrMQA=", "properties": {"ref": "Mont-Royal II", "@spider": "ardene", "addr:full": "1563 Mont-Royal E.", "addr:city": "Montreal", "addr:state": "QC", "addr:postcode": "H2J 1Z3", "addr:country": "Canada", "name": "Mont-Royal II", "phone": "514-225-6794", "brand": "Ardene"}, "geometry": {"type": "Point", "coordinates": [-73.575845, 45.531813]}},
{"type": "Feature", "id": "m1qCkoJYtZoxUtuSfBjK7_G5GqU=", "properties": {"ref": "Galeries Cap.", "@spider": "ardene", "addr:full": "300 Rue Barkoff", "addr:city": "Cap de la Madelaine", "addr:state": "QC", "addr:postcode": "G8T 2A3", "addr:country": "Canada", "name": "Galeries Cap.", "phone": "819-862-2272", "brand": "Ardene"}, "geometry": {"type": "Point", "coordinates": [-72.559362, 46.372731]}},
{"type": "Feature", "id": "u-Xsiybxi99mFnpvvvyJ3B06gn0=", "properties": {"ref": "Montreal Trust", "@spider": "ardene", "addr:full": "1500 Ave. Mcgill Coll\u00e8ge", "addr:city": "Montreal", "addr:state": "QC", "addr:postcode": "H3A 3J5", "addr:country": "Canada", "name": "Montreal Trust", "phone": "514-893-1210", "brand": "Ardene"}, "geometry": {"type": "Point", "coordinates": [-73.572682, 45.502035]}},
{"type": "Feature", "id": "ZCeeneQnKsmuYjQiz8PVZM1m8zg=", "properties": {"ref": "Berri", "@spider": "ardene", "addr:full": "505 St-Catherine E.", "addr:city": "Montreal", "addr:state": "QC", "addr:postcode": "H2L 2C9", "addr:country": "Canada", "name": "Berri", "phone": "514-357-2018", "brand": "Ardene"}, "geometry": {"type": "Point", "coordinates": [-73.572626, 45.501606]}},
{"type": "Feature", "id": "klmOxAeaJai0prsoM_3cepshVdQ=", "properties": {"ref": "Atwater III", "@spider": "ardene", "addr:full": "1500 rue Atwater", "addr:city": "Montreal", "addr:state": "QC", "addr:postcode": "H3Z 1X5", "addr:country": "Canada", "name": "Atwater III", "phone": "514-461-2246", "brand": "Ardene"}, "geometry": {"type": "Point", "coordinates": [-73.585319, 45.489424]}},
{"type": "Feature", "id": "DfRdQl_a7ZyUa8mpchrd4ht5pwU=", "properties": {"ref": "Trois-Rivi\u00e8res O.", "@spider": "ardene", "addr:full": "4520 boul. des R\u00e9collets", "addr:city": "Trois-Rivi\u00e8res", "addr:state": "QC", "addr:postcode": "G9A 4N2", "addr:country": "Canada", "name": "Trois-Rivi\u00e8res O.", "phone": "819-862-2274", "brand": "Ardene"}, "geometry": {"type": "Point", "coordinates": [-72.566907, 46.32495]}},
{"type": "Feature", "id": "4cb6WgkuJCTy62tfnAZbzwI2vqk=", "properties": {"ref": "Newman Place - LIQUIDATION", "@spider": "ardene", "addr:full": "2101 Dollard Ave", "addr:city": "Lasalle", "addr:state": "QC", "addr:postcode": "H8N 1S2", "addr:country": "Canada", "name": "Newman Place - LIQUIDATION", "phone": "514-767-8353", "brand": "Ardene"}, "geometry": {"type": "Point", "coordinates": [-73.635127, 45.432835]}},
{"type": "Feature", "id": "QmE5Phncx2RhcpMSj_SxUJ_KAQU=", "properties": {"ref": "Longueuil", "@spider": "ardene", "addr:full": "825 St-Laurent O", "addr:city": "Longueuil", "addr:state": "QC", "addr:postcode": "J4K 2V1", "addr:country": "Canada", "name": "Longueuil", "phone": "450-321-2515", "brand": "Ardene"}, "geometry": {"type": "Point", "coordinates": [-73.516048, 45.527919]}},
{"type": "Feature", "id": "5Wq9mciXdfmbCOfThHn4iAQJXsM=", "properties": {"ref": "Angrignon", "@spider": "ardene", "addr:full": "7077 boul. Newman", "addr:city": "Montreal, Lasalle", "addr:state": "QC", "addr:postcode": "H8N 1X1", "addr:country": "Canada", "name": "Angrignon", "phone": "514-335-4997", "brand": "Ardene"}, "geometry": {"type": "Point", "coordinates": [-73.614414, 45.447603]}},
{"type": "Feature", "id": "61zHowi9KKZJao5qp0jIdp9g2vo=", "properties": {"ref": "Ch\u00e2teauguay", "@spider": "ardene", "addr:full": "200 boul. D'Anjou", "addr:city": "Ch\u00e2teauguay", "addr:state": "QC", "addr:postcode": "J6K 1C5", "addr:country": "Canada", "name": "Ch\u00e2teauguay", "phone": "450-287-6050", "brand": "Ardene"}, "geometry": {"type": "Point", "coordinates": [-73.724769, 45.358325]}},
{"type": "Feature", "id": "Rl15yuknSbtgsccF3JVrG3ZLBAI=", "properties": {"ref": "Jacques Cartier - LIQUIDATION", "@spider": "ardene", "addr:full": "1401 Chemin de Chambly", "addr:city": "Longueuil", "addr:state": "QC", "addr:postcode": "J4J 3X6", "addr:country": "Canada", "name": "Jacques Cartier - LIQUIDATION", "phone": "450-321-1281", "brand": "Ardene"}, "geometry": {"type": "Point", "coordinates": [-73.514942, 45.524765]}},
{"type": "Feature", "id": "JNJtxW7AdzGp9fGjF4mS_wVAlI0=", "properties": {"ref": "Montarville", "@spider": "ardene", "addr:full": "1001 boul. Montarville", "addr:city": "Boucherville", "addr:state": "QC", "addr:postcode": "J4B 6P5", "addr:country": "Canada", "name": "Montarville", "phone": "450-274-6092", "brand": "Ardene"}, "geometry": {"type": "Point", "coordinates": [-73.432797, 45.590248]}},
{"type": "Feature", "id": "ZHIp3ZQY_VoQU3PzMGzAUjvTbMM=", "properties": {"ref": "Wellington", "@spider": "ardene", "addr:full": "4100 Wellington Street", "addr:city": "Verdun", "addr:state": "QC", "addr:postcode": "H4G 1V7", "addr:country": "Canada", "name": "Wellington", "phone": "514-315-7599", "brand": "Ardene"}, "geometry": {"type": "Point", "coordinates": [-73.566928, 45.462687]}},
{"type": "Feature", "id": "Hya7GYsVSN1PFlLg6UC8G-A32EE=", "properties": {"ref": "Galeries Taschereau - LIQUIDATION", "@spider": "ardene", "addr:full": "3848 boul. Taschereau", "addr:city": "Greenfield Park", "addr:state": "QC", "addr:postcode": "J4V 2H9", "addr:country": "Canada", "name": "Galeries Taschereau - LIQUIDATION", "phone": "450-651-7312", "brand": "Ardene"}, "geometry": {"type": "Point", "coordinates": [-73.470198, 45.486197]}},
{"type": "Feature", "id": "0otDuVjFnMsLnB9eHPQEmmPfVyA=", "properties": {"ref": "Saint-Constant", "@spider": "ardene", "addr:full": "500 Voie de la Desserte", "addr:city": "Saint-Constant", "addr:state": "QC", "addr:postcode": "J5A 2S5 ", "addr:country": "Canada", "name": "Saint-Constant", "phone": "450-290-6161", "brand": "Ardene"}, "geometry": {"type": "Point", "coordinates": [-73.586188, 45.392036]}},
{"type": "Feature", "id": "_rtANL2rABUt_oCQvU_NWF8p_f8=", "properties": {"ref": "Champlain", "@spider": "ardene", "addr:full": "2151 Boul. Lapini\u00e8re", "addr:city": "Brossard", "addr:state": "QC", "addr:postcode": "J4W 2T5", "addr:country": "Canada", "name": "Champlain", "phone": "450-672-1588", "brand": "Ardene"}, "geometry": {"type": "Point", "coordinates": [-73.471264, 45.472386]}},
{"type": "Feature", "id": "w3tms9-L0JmHpoNmoubIMGVyqd8=", "properties": {"ref": "St-Bruno", "@spider": "ardene", "addr:full": "1 boul. des Promenades", "addr:city": "St. Bruno-de-Montarville", "addr:state": "QC", "addr:postcode": "J3V 5J5", "addr:country": "Canada", "name": "St-Bruno", "phone": "514-357-2019", "brand": "Ardene"}, "geometry": {"type": "Point", "coordinates": [-73.378495, 45.504891]}},
{"type": "Feature", "id": "SAoB0wpVGC-YoBqlecHipf0QRdU=", "properties": {"ref": "Brossard", "@spider": "ardene", "addr:full": "9415 boul leduc suite 40", "addr:city": "Brossard", "addr:state": "QC", "addr:postcode": "J4Y 0A5", "addr:country": "Canada", "name": "Brossard", "phone": "514-357-2984", "brand": "Ardene"}, "geometry": {"type": "Point", "coordinates": [-73.437416, 45.443697]}},
{"type": "Feature", "id": "4ZkEzghlsR9N1-STJNHANAVXuWs=", "properties": {"ref": "Beloeil", "@spider": "ardene", "addr:full": "600 boul. Laurier", "addr:city": "Beloeil", "addr:state": "QC", "addr:postcode": "J3G 4J2", "addr:country": "Canada", "name": "Beloeil", "phone": "579-949-0001", "brand": "Ardene"}, "geometry": {"type": "Point", "coordinates": [-73.209319, 45.562592]}},
{"type": "Feature", "id": "qEt6oruOMe6F450QJXjXY7xSHBM=", "properties": {"ref": "St-Hyacinthe", "@spider": "ardene", "addr:full": "3200 boul. Laframboise", "addr:city": "St-Hyacinthe", "addr:state": "QC", "addr:postcode": "J2S 4X5", "addr:country": "Canada", "name": "St-Hyacinthe", "phone": "450-771-5000", "brand": "Ardene"}, "geometry": {"type": "Point", "coordinates": [-72.964853, 45.637858]}},
{"type": "Feature", "id": "zkqokPQ1jiyEcDtU7s0C_haV__A=", "properties": {"ref": "St-Jean", "@spider": "ardene", "addr:full": "600 Pierre Caisse", "addr:city": "St-Jean", "addr:state": "QC", "addr:postcode": "J3A 1M1", "addr:country": "Canada", "name": "St-Jean", "phone": "450-390-0862", "brand": "Ardene"}, "geometry": {"type": "Point", "coordinates": [-73.280977, 45.329101]}},
{"type": "Feature", "id": "MrfcJhGvtp1oTAs6YIasu9m1pFc=", "properties": {"ref": "Drummond", "@spider": "ardene", "addr:full": "755 boul. Ren\u00e9-L\u00e9vesque", "addr:city": "Drummondville", "addr:state": "QC", "addr:postcode": "J2C 6Y7", "addr:country": "Canada", "name": "Drummond", "phone": "819-473-7376", "brand": "Ardene"}, "geometry": {"type": "Point", "coordinates": [-72.516753, 45.899519]}},
{"type": "Feature", "id": "JqowYghGQwDoFIEhKvFfu2G63xs=", "properties": {"ref": "Neufchatel - LIQUIDATION", "@spider": "ardene", "addr:full": "4605 boul. de L'Auvergne", "addr:city": "Neufchatel", "addr:state": "QC", "addr:postcode": "G2C 1H7", "addr:country": "Canada", "name": "Neufchatel - LIQUIDATION", "phone": "418-263-7281", "brand": "Ardene"}, "geometry": {"type": "Point", "coordinates": [-71.353176, 46.826972]}},
{"type": "Feature", "id": "qYPjPWtoSq5-Ofe0wRgDVJnpu88=", "properties": {"ref": "Destiny mall", "@spider": "ardene", "addr:full": "9090 Destiny USA Drive", "addr:city": "Syracuse", "addr:state": "NY", "addr:postcode": "13290", "addr:country": "United States", "name": "Destiny mall", "phone": "315-466-6000", "brand": "Ardene"}, "geometry": {"type": "Point", "coordinates": [-76.1728432021626, 43.0695609461575]}},
{"type": "Feature", "id": "-HRDqbZxdVH1IcVHnn3msQksifk=", "properties": {"ref": "Charlesbourg", "@spider": "ardene", "addr:full": "8500 boul. Henri-Bourassa", "addr:city": "Charlesbourg", "addr:state": "QC", "addr:postcode": "G1G 5X1", "addr:country": "Canada", "name": "Charlesbourg", "phone": "418-263-7290", "brand": "Ardene"}, "geometry": {"type": "Point", "coordinates": [-71.270088, 46.865171]}},
{"type": "Feature", "id": "PRCrmn0Pcip0w06sdLrHwMRYkDE=", "properties": {"ref": "Galeries de la Capitale", "@spider": "ardene", "addr:full": "5401 boul. des Galeries", "addr:city": "Qu\u00e9bec", "addr:state": "QC", "addr:postcode": "G2K 1N4", "addr:country": "Canada", "name": "Galeries de la Capitale", "phone": "418-476-5326", "brand": "Ardene"}, "geometry": {"type": "Point", "coordinates": [-71.297905, 46.830235]}},
{"type": "Feature", "id": "BBguIOgIzBh5pF-ztLK1tV8hlPY=", "properties": {"ref": "Charlesbourg II - LIQUIDATION", "@spider": "ardene", "addr:full": "4250 1\u00e8re Avenue", "addr:city": "Charlesbourg", "addr:state": "QC", "addr:postcode": "G1H 2S5", "addr:country": "Canada", "name": "Charlesbourg II - LIQUIDATION", "phone": "418-780-4004", "brand": "Ardene"}, "geometry": {"type": "Point", "coordinates": [-71.247993, 46.84367]}},
{"type": "Feature", "id": "i1yFgbcRAD4bIN0YmMcIDWSgrTk=", "properties": {"ref": "Beauport", "@spider": "ardene", "addr:full": "3333 Du Carrefour", "addr:city": "Beauport", "addr:state": "QC", "addr:postcode": "G1C 5R9", "addr:country": "Canada", "name": "Beauport", "phone": "418-263-7286", "brand": "Ardene"}, "geometry": {"type": "Point", "coordinates": [-71.215835, 46.861952]}},
{"type": "Feature", "id": "A9c9CzQ4-nSD15a3-mzyXMhS5ig=", "properties": {"ref": "Fleur de Lys", "@spider": "ardene", "addr:full": "552 boul.  Wilfrid-Hamel", "addr:city": "Qu\u00e9bec", "addr:state": "QC", "addr:postcode": "G1M 3E5", "addr:country": "Canada", "name": "Fleur de Lys", "phone": "418-210-0229", "brand": "Ardene"}, "geometry": {"type": "Point", "coordinates": [-71.250962, 46.822941]}},
{"type": "Feature", "id": "_7kaHE7rrMzWPunqTnPeIFLQY0g=", "properties": {"ref": "Laurier", "@spider": "ardene", "addr:full": "2700 boul. Laurier", "addr:city": "Qu\u00e9bec", "addr:state": "QC", "addr:postcode": "G1V 4J9", "addr:country": "Canada", "name": "Laurier", "phone": "418-263-7303", "brand": "Ardene"}, "geometry": {"type": "Point", "coordinates": [-71.28347, 46.771157]}},
{"type": "Feature", "id": "TZ_J4GHFxbILS5ZloVXmVU5bOM8=", "properties": {"ref": "South Shore", "@spider": "ardene", "addr:full": "625 rue De La Concorde", "addr:city": "St - Romuald", "addr:state": "QC", "addr:postcode": "G6W 0A9", "addr:country": "Canada", "name": "South Shore", "phone": "418-830-3423", "brand": "Ardene"}, "geometry": {"type": "Point", "coordinates": [-71.27316, 46.730142]}},
{"type": "Feature", "id": "HV_ZAwglg71ts1ti3LkBG85BeSM=", "properties": {"ref": "L\u00e9vis", "@spider": "ardene", "addr:full": "1200 boul. Alfonse-Desjardins", "addr:city": "Levis", "addr:state": "QC", "addr:postcode": "G6V 6Y8", "addr:country": "Canada", "name": "L\u00e9vis", "phone": "418-830-3424", "brand": "Ardene"}, "geometry": {"type": "Point", "coordinates": [-71.169772, 46.796236]}},
{"type": "Feature", "id": "J5e42gxlpWW21FHU_EUN0wloJAs=", "properties": {"ref": "Granby", "@spider": "ardene", "addr:full": "40 Evangeline", "addr:city": "Granby", "addr:state": "QC", "addr:postcode": "J2G 8K1", "addr:country": "Canada", "name": "Granby", "phone": "450-305-6282", "brand": "Ardene"}, "geometry": {"type": "Point", "coordinates": [-72.749444, 45.414613]}},
{"type": "Feature", "id": "ik0KdGAh64yL1OZ-bSyigZw2cmo=", "properties": {"ref": "Victoria", "@spider": "ardene", "addr:full": "1111 Jutras Est", "addr:city": "Victoriaville", "addr:state": "QC", "addr:postcode": "G6S 1C1", "addr:country": "Canada", "name": "Victoria", "phone": "873-303-0007", "brand": "Ardene"}, "geometry": {"type": "Point", "coordinates": [-71.927316, 46.060125]}},
{"type": "Feature", "id": "UQEATTvvgbp6W9i_adY0Xxdm-Rk=", "properties": {"ref": "Bromont", "@spider": "ardene", "addr:full": "575 Carrefour Champ\u00ea\u0090tre", "addr:state": "QC", "addr:postcode": "J2L 3L1", "addr:country": "Canada", "name": "Bromont", "phone": "450-306-6092", "brand": "Ardene"}, "geometry": {"type": "Point", "coordinates": [-72.65255, 45.335907]}},
{"type": "Feature", "id": "imfjgu6kUeRNu7o6A5PY_M1s6eE=", "properties": {"ref": "Chaudi\u00e8re", "@spider": "ardene", "addr:full": "1116 boul. Vachon Nord", "addr:city": "Ste-Marie-de-Beauce", "addr:state": "QC", "addr:postcode": "G6E 1N7", "addr:country": "Canada", "name": "Chaudi\u00e8re", "phone": "418-210-0009", "brand": "Ardene"}, "geometry": {"type": "Point", "coordinates": [-71.035714, 46.45625]}},
{"type": "Feature", "id": "3KBBsCqc_8N09Vf9r4qPBLAF7fQ=", "properties": {"ref": "Thetford II", "@spider": "ardene", "addr:full": "805 boul. Frontenac Est", "addr:city": "Thetford Mines", "addr:state": "QC", "addr:postcode": "G6G 6L5", "addr:country": "Canada", "name": "Thetford II", "phone": "418-332-5260", "brand": "Ardene"}, "geometry": {"type": "Point", "coordinates": [-71.300918, 46.113259]}},
{"type": "Feature", "id": "JuyKS-cGsVXiqIFD8o_x5t6guT0=", "properties": {"ref": "Sherbrooke", "@spider": "ardene", "addr:full": "3050 boul. Portland", "addr:city": "Sherbrooke", "addr:state": "QC", "addr:postcode": "J1L 1K1", "addr:country": "Canada", "name": "Sherbrooke", "phone": "819-780-8674", "brand": "Ardene"}, "geometry": {"type": "Point", "coordinates": [-71.949723, 45.40177]}},
{"type": "Feature", "id": "qWoo7CV98J2Z3GdWtbvh3W3pg4Y=", "properties": {"ref": "4 Saisons", "@spider": "ardene", "addr:full": "930 13e Avenue N.", "addr:city": "Sherbrooke", "addr:state": "QC", "addr:postcode": "J1E 3J7", "addr:country": "Canada", "name": "4 Saisons", "phone": "819-340-1074", "brand": "Ardene"}, "geometry": {"type": "Point", "coordinates": [-71.870623, 45.421443]}},
{"type": "Feature", "id": "8m7jbnln2dH0CE8o9dwORm9IJ6M=", "properties": {"ref": "Belv\u00e9d\u00e8re - LIQUIDATION", "@spider": "ardene", "addr:full": "340 rue Belv\u00e9d\u00e8re S.", "addr:city": "Sherbrooke", "addr:state": "QC", "addr:postcode": "J1H 4B5", "addr:country": "Canada", "name": "Belv\u00e9d\u00e8re - LIQUIDATION", "phone": "819-340-3076", "brand": "Ardene"}, "geometry": {"type": "Point", "coordinates": [-71.894813, 45.395743]}},
{"type": "Feature", "id": "-UKBpbkGF1rDBlcCmpYNtLoOZRo=", "properties": {"ref": "Rimouski", "@spider": "ardene", "addr:full": "419 boul. Jessop", "addr:city": "Rimouski Est", "addr:state": "QC", "addr:postcode": "G5L 7Y5", "addr:country": "Canada", "name": "Rimouski", "phone": "418-730-7895", "brand": "Ardene"}, "geometry": {"type": "Point", "coordinates": [-68.51272, 48.467465]}},
{"type": "Feature", "id": "_uK0YpV7pdpEl0DXj4AjLdJcLpg=", "properties": {"ref": "St-George", "@spider": "ardene", "addr:full": "8585 boul. Lacroix", "addr:city": "St-George de Beauce", "addr:state": "QC", "addr:postcode": "G5Y 5L6", "addr:country": "Canada", "name": "St-George", "phone": "418-221-8005", "brand": "Ardene"}, "geometry": {"type": "Point", "coordinates": [-70.699712, 46.134592]}},
{"type": "Feature", "id": "AorFLqxKAbogx6P2LsFYsCULoVE=", "properties": {"ref": "Matane", "@spider": "ardene", "addr:full": "597 avenue du Phare E.", "addr:city": "Matane", "addr:state": "QC", "addr:postcode": "G4W 4L6", "addr:country": "Canada", "name": "Matane", "phone": "1-877-606-4233 ext. 324", "brand": "Ardene"}, "geometry": {"type": "Point", "coordinates": [-67.50779, 48.851574]}},
{"type": "Feature", "id": "9micyNZ6JqB_MBmm0NiHir6LsEk=", "properties": {"ref": "Crossgates Mall", "@spider": "ardene", "addr:full": "1 Crossgates Mall Road (L211)", "addr:city": "Albany", "addr:state": "NY", "addr:postcode": "12203", "addr:country": "United States", "name": "Crossgates Mall", "phone": "(716) 328-0401", "brand": "Ardene"}, "geometry": {"type": "Point", "coordinates": [-73.85144, 42.68955]}},
{"type": "Feature", "id": "3OJkfC-oKR8lXpzAyXKd3fbfxlc=", "properties": {"ref": "Sugarloaf Mall", "@spider": "ardene", "addr:full": "312 Val-d'Amour Rd", "addr:city": "Atholville", "addr:state": "NB", "addr:postcode": "E3N 2H3", "addr:country": "Canada", "name": "Sugarloaf Mall", "phone": "416-840-9540", "brand": "Ardene"}, "geometry": {"type": "Point", "coordinates": [-66.699736, 47.993496]}},
{"type": "Feature", "id": "oKxtBQkdUMmZ3ZsnkEYPI_FMZvQ=", "properties": {"ref": "Lehigh Valley Mall", "@spider": "ardene", "addr:full": "250 Lehigh Valley Mall", "addr:city": "Whitehall", "addr:state": "PA", "addr:postcode": "18052", "addr:country": "United States", "name": "Lehigh Valley Mall", "phone": "610-264-5511", "brand": "Ardene"}, "geometry": {"type": "Point", "coordinates": [-75.481324702247, 40.6309804529808]}},
{"type": "Feature", "id": "nE0Z-eLOziRy2P-A5bVavCEKxZk=", "properties": {"ref": "Park City Center", "@spider": "ardene", "addr:full": "142 Park City Center (G0775)", "addr:city": "Lancaster", "addr:state": "PA", "addr:postcode": "17601", "addr:country": "United States", "name": "Park City Center", "phone": "717-803-3445", "brand": "Ardene"}, "geometry": {"type": "Point", "coordinates": [-76.3392526884859, 40.0674853029968]}},
{"type": "Feature", "id": "BGOkQ6NiNzmD9hkEsO5j34qu9Qg=", "properties": {"ref": "Baie-Chaleurs", "@spider": "ardene", "addr:full": "122 Boulevard P\u00e9rron", "addr:city": "New Richmond", "addr:state": "QC", "addr:postcode": "G0C 2B0", "addr:country": "Canada", "name": "Baie-Chaleurs", "phone": "1-877-606-4233 ext. 361", "brand": "Ardene"}, "geometry": {"type": "Point", "coordinates": [-65.895207, 48.152144]}},
{"type": "Feature", "id": "_PwI3wJGG2DM-8GlPBYSPZVuuE8=", "properties": {"ref": "Rockaway Townsquare", "@spider": "ardene", "addr:full": "301 Mt Hope Ave (1087)", "addr:city": "Rockaway", "addr:state": "NJ", "addr:postcode": "7866", "addr:country": "United States", "name": "Rockaway Townsquare", "phone": "973-554-8288", "brand": "Ardene"}, "geometry": {"type": "Point", "coordinates": [-74.5538353731266, 40.9073780841566]}},
{"type": "Feature", "id": "QOfw5TFH28EwDxCH2Lo8e-w3hHw=", "properties": {"ref": "Palisades Mall", "@spider": "ardene", "addr:full": "1000 Palisades Center Dr (B213)", "addr:city": "West Nyack", "addr:state": "NY", "addr:postcode": "10994", "addr:country": "United States", "name": "Palisades Mall", "phone": "(845) 512-6961", "brand": "Ardene"}, "geometry": {"type": "Point", "coordinates": [-73.956402, 41.097069]}},
{"type": "Feature", "id": "DY8WvYG5L_Tm4gqqxe_hmnku2AA=", "properties": {"ref": "Willowbrook Mall", "@spider": "ardene", "addr:full": "1400 Willowbrook Blvd.", "addr:city": "Wayne", "addr:state": "NJ", "addr:postcode": "7470", "addr:country": "United States", "name": "Willowbrook Mall", "phone": "973-785-1616", "brand": "Ardene"}, "geometry": {"type": "Point", "coordinates": [-74.2598548734021, 40.8899422354579]}},
{"type": "Feature", "id": "EDtC9joJcTMUGv3LbaiWF0ivOiM=", "properties": {"ref": "Bathurst Mall", "@spider": "ardene", "addr:full": "1300 St. Peter's Ave", "addr:city": "Bathurst", "addr:state": "NB", "addr:postcode": "E2A 3A6", "addr:country": "Canada", "name": "Bathurst Mall", "phone": "506-265-4009", "brand": "Ardene"}, "geometry": {"type": "Point", "coordinates": [-65.678105, 47.640099]}},
{"type": "Feature", "id": "9lSSmXdUfJSh23aOEuKJOkA5wDk=", "properties": {"ref": "Gaspe", "@spider": "ardene", "addr:full": "167 de la Reine", "addr:city": "Gasp\u00e9", "addr:state": "QC", "addr:postcode": "G4X 2W6", "addr:country": "Canada", "name": "Gaspe", "phone": "1-877-606-4233 ext. 360", "brand": "Ardene"}, "geometry": {"type": "Point", "coordinates": [-64.484658, 48.828666]}},
{"type": "Feature", "id": "hLehggtJW6wvCLcagxvuCPH8j4E=", "properties": {"ref": "American Dream", "@spider": "ardene", "addr:full": "50 NJ-120", "addr:city": "East Rutherford", "addr:state": "NJ", "addr:postcode": "07073", "addr:country": "United States", "name": "American Dream", "phone": "TBD", "brand": "Ardene"}, "geometry": {"type": "Point", "coordinates": [-74.09707, 40.830158]}},
{"type": "Feature", "id": "6Mcm8ecBLYOPQmlvFlAJVCF3uNo=", "properties": {"ref": "Westfield Wheaton", "@spider": "ardene", "addr:full": "11160 Veirs Mill Rd (space 167)", "addr:city": "Wheaton", "addr:state": "MD", "addr:postcode": "20902", "addr:country": "United States", "name": "Westfield Wheaton", "phone": "(301) 945-4122", "brand": "Ardene"}, "geometry": {"type": "Point", "coordinates": [-77.0551, 39.036434]}},
{"type": "Feature", "id": "oaOplXVRZ9UNod1VBuTPcsMVS4M=", "properties": {"ref": "Tysons Corner Center", "@spider": "ardene", "addr:full": "1961 Chain Bridge Road (N9U)", "addr:city": "Tysons", "addr:state": "VA", "addr:postcode": "22102", "addr:country": "United States", "name": "Tysons Corner Center", "phone": "571-388-3960", "brand": "Ardene"}, "geometry": {"type": "Point", "coordinates": [-77.222257502005, 38.9173183747727]}},
{"type": "Feature", "id": "A-n8YeaWabFuev5gsOmzMB55QZI=", "properties": {"ref": "Willow Grove Park", "@spider": "ardene", "addr:full": "2500 W. Moreland Rd. (unit 2062)", "addr:city": "Willow Grove", "addr:state": "PA", "addr:postcode": "19090", "addr:country": "United States", "name": "Willow Grove Park", "phone": "(215) 987-5625", "brand": "Ardene"}, "geometry": {"type": "Point", "coordinates": [-75.122949, 40.139956]}},
{"type": "Feature", "id": "EWVYHK_hqjDdsw30E0xiTfonofQ=", "properties": {"ref": "The Mills at Jersey gardens", "@spider": "ardene", "addr:full": "651 Kapkowski Road", "addr:city": "Elizabeth", "addr:state": "NJ", "addr:postcode": "7201", "addr:country": "United States", "name": "The Mills at Jersey gardens", "phone": "908-354-5900", "brand": "Ardene"}, "geometry": {"type": "Point", "coordinates": [-74.171488117308, 40.6602129934186]}},
{"type": "Feature", "id": "eJ6DnrBAeXpdH8JdrZN2W3KuJnA=", "properties": {"ref": "Springfield Mall", "@spider": "ardene", "addr:full": "1250 Baltimore Pike (U123)", "addr:city": "Springfield", "addr:state": "PA", "addr:postcode": "19064", "addr:country": "United States", "name": "Springfield Mall", "phone": "484-679-5894", "brand": "Ardene"}, "geometry": {"type": "Point", "coordinates": [-75.3519519443132, 39.915225916786]}},
{"type": "Feature", "id": "KQ8ZeyLQY9RXZde7lsAevijg47E=", "properties": {"ref": "Woodbridge Center", "@spider": "ardene", "addr:full": "474 (250) Woodbridge Center Dr (2320)", "addr:city": "Woodbridge", "addr:state": "NJ", "addr:postcode": "07095", "addr:country": "United States", "name": "Woodbridge Center", "phone": "(848) 999-0805", "brand": "Ardene"}, "geometry": {"type": "Point", "coordinates": [-74.299121, 40.556342]}},
{"type": "Feature", "id": "lai-KGxF-z5XjHj14QBt3qoqBjY=", "properties": {"ref": "Westfield Trumbull Mall", "@spider": "ardene", "addr:full": "5065 Main Street, Unit #220", "addr:city": "Trumbull", "addr:state": "CT", "addr:postcode": "06611", "addr:country": "United States", "name": "Westfield Trumbull Mall", "phone": "(203) 590-2026", "brand": "Ardene"}, "geometry": {"type": "Point", "coordinates": [-73.227608, 41.229143]}},
{"type": "Feature", "id": "Zc18_X_jp8ql0WAETjeKCErmpZU=", "properties": {"ref": "Staten Island Mall", "@spider": "ardene", "addr:full": "2655 Richmond Avenue (1322)", "addr:city": "Staten Island", "addr:state": "NY", "addr:postcode": "10314", "addr:country": "United States", "name": "Staten Island Mall", "phone": "(718) 989-0176", "brand": "Ardene"}, "geometry": {"type": "Point", "coordinates": [-74.166182, 40.581397]}},
{"type": "Feature", "id": "wa_AoNhqgEKTnjXdXdpQd1xhLNc=", "properties": {"ref": "Fashion District Philadelphia", "@spider": "ardene", "addr:full": "9th & Market Street (C190)", "addr:city": "Philadelphia", "addr:state": "PA", "addr:postcode": "19107", "addr:country": "United States", "name": "Fashion District Philadelphia", "phone": "(267) 388-0001", "brand": "Ardene"}, "geometry": {"type": "Point", "coordinates": [-75.155807, 39.951797]}},
{"type": "Feature", "id": "b7yEobXm146_GvzEzE63e_opCf0=", "properties": {"ref": "Cherry Hill Mall", "@spider": "ardene", "addr:full": "2000 Rt.38 (1445)", "addr:city": "Cherry Hill", "addr:state": "NJ", "addr:postcode": "08002", "addr:country": "United States", "name": "Cherry Hill Mall", "phone": "(201) 685-8586", "brand": "Ardene"}, "geometry": {"type": "Point", "coordinates": [-75.025946, 39.942436]}},
{"type": "Feature", "id": "CpcEpojBN9AmtW6oUx7ipPVgruY=", "properties": {"ref": "Kings Plaza", "@spider": "ardene", "addr:full": "5100 Kings Plaza (2232A)", "addr:city": "Brooklyn", "addr:state": "NY", "addr:postcode": "11234", "addr:country": "United States", "name": "Kings Plaza", "phone": "347-569-6986", "brand": "Ardene"}, "geometry": {"type": "Point", "coordinates": [-73.9200520019684, 40.6103064109555]}},
{"type": "Feature", "id": "GmOnH5pZ1hdVauWZa23_VI3YHoY=", "properties": {"ref": "Westfield Annapolis", "@spider": "ardene", "addr:full": "2002 Annapolis Mall (Space 175)", "addr:city": "Annapolis", "addr:state": "MD", "addr:postcode": "21401", "addr:country": "United States", "name": "Westfield Annapolis", "phone": "(410) 266-5432", "brand": "Ardene"}, "geometry": {"type": "Point", "coordinates": [-76.546805, 38.988005]}},
{"type": "Feature", "id": "ni0o0mtXfIn8KjmfQQij6Szjxa4=", "properties": {"ref": "Deptford Mall", "@spider": "ardene", "addr:full": "1750 Deptford Center Road, Unit 2000", "addr:city": "Deptford", "addr:state": "NJ", "addr:postcode": "08096", "addr:country": "United States", "name": "Deptford Mall", "phone": "(856) 272-7040 ext. 1012", "brand": "Ardene"}, "geometry": {"type": "Point", "coordinates": [-75.098033, 39.830537]}},
{"type": "Feature", "id": "-gbvBx6raYJvhqOVvYrWH8NuqGM=", "properties": {"ref": "Roosevelt Field", "@spider": "ardene", "addr:full": "630 Old Country Rd (2040)", "addr:city": "Garden City", "addr:state": "NY", "addr:postcode": "11530", "addr:country": "United States", "name": "Roosevelt Field", "phone": "516-373-6568", "brand": "Ardene"}, "geometry": {"type": "Point", "coordinates": [-73.6129238596359, 40.7381348350809]}},
{"type": "Feature", "id": "STI3aLGUIx2N1fWWCvXnYm3n0Vc=", "properties": {"ref": "Freehold Raceway Mall", "@spider": "ardene", "addr:full": "3710 US Highway 9, Unit H112", "addr:city": "Freehold", "addr:state": "NJ", "addr:postcode": "07728", "addr:country": "United States", "name": "Freehold Raceway Mall", "phone": "(732) 358-7175 ext. 1013", "brand": "Ardene"}, "geometry": {"type": "Point", "coordinates": [-74.299862, 40.254538]}},
{"type": "Feature", "id": "6VQnKFKBIyUegKkdeqLVT8I0uvA=", "properties": {"ref": "Northumberland Square Mall", "@spider": "ardene", "addr:full": "2441 King George Hwy", "addr:city": "Miramichi", "addr:state": "NB", "addr:postcode": "E1V 6W2", "addr:country": "Canada", "name": "Northumberland Square Mall", "phone": "506-502-4345", "brand": "Ardene"}, "geometry": {"type": "Point", "coordinates": [-65.493642, 47.030802]}},
{"type": "Feature", "id": "Baco6MqhRTWhaGwtdHak51yH6Vc=", "properties": {"ref": "Regent Mall", "@spider": "ardene", "addr:full": "1381 Regent St", "addr:city": "Fredericton", "addr:state": "NB", "addr:postcode": "E3C 1A2 ", "addr:country": "Canada", "name": "Regent Mall", "phone": "506-442-9050", "brand": "Ardene"}, "geometry": {"type": "Point", "coordinates": [-66.665168, 45.935241]}},
{"type": "Feature", "id": "So_RH60THibSPTEytCcUDXu1UAE=", "properties": {"ref": "Round Point Mall", "@spider": "ardene", "addr:full": "3409 Principale St", "addr:city": "Tracadie-Sheila", "addr:state": "NB", "addr:postcode": "E1X 1C7 ", "addr:country": "Canada", "name": "Round Point Mall", "phone": "506-716-0302", "brand": "Ardene"}, "geometry": {"type": "Point", "coordinates": [-64.912054, 47.52109]}},
{"type": "Feature", "id": "hExQhtjvASm7TbZw_tyNnBJUcWI=", "properties": {"ref": "Smith Haven", "@spider": "ardene", "addr:full": "313 Smith Haven Mall (D07)", "addr:city": "Lake Grove", "addr:state": "NY", "addr:postcode": "11755", "addr:country": "United States", "name": "Smith Haven", "phone": "631-542-2062", "brand": "Ardene"}, "geometry": {"type": "Point", "coordinates": [-73.1299640884683, 40.8650891222907]}},
{"type": "Feature", "id": "mjoOgy3m-lRtxhvFMKphqzroRS4=", "properties": {"ref": "Westfield South Shore Mall", "@spider": "ardene", "addr:full": "1701 Sunrise Highway (D3)", "addr:city": "Bay Shore", "addr:state": "NY", "addr:postcode": "11706", "addr:country": "United States", "name": "Westfield South Shore Mall", "phone": "(631) 518-6071", "brand": "Ardene"}, "geometry": {"type": "Point", "coordinates": [-73.246537, 40.739443]}},
{"type": "Feature", "id": "u4p9I8_2RQtTLwSLdcvsDXUun5s=", "properties": {"ref": "McAllister Place", "@spider": "ardene", "addr:full": "515 Westmorland Rd", "addr:city": "Saint John", "addr:state": "NB", "addr:postcode": "E2J 3W9", "addr:country": "Canada", "name": "McAllister Place", "phone": "506-631-8129", "brand": "Ardene"}, "geometry": {"type": "Point", "coordinates": [-66.015731, 45.306843]}},
{"type": "Feature", "id": "CKi45w2Sv7TTlwcTT03J1ulAVWw=", "properties": {"ref": "Wheeler Park Power Centre", "@spider": "ardene", "addr:full": "117 trinity drive", "addr:city": "Moncton", "addr:state": "NB", "addr:postcode": "E1G 2J7", "addr:country": "Canada", "name": "Wheeler Park Power Centre", "phone": "506-864-8855", "brand": "Ardene"}, "geometry": {"type": "Point", "coordinates": [-64.834059, 46.117017]}},
{"type": "Feature", "id": "O067ouFo9pcsug2Mt8K_E79hcOc=", "properties": {"ref": "CF Champlain", "@spider": "ardene", "addr:full": "477 paul street", "addr:city": "Dieppe", "addr:state": "NB", "addr:postcode": "E1A 4X5", "addr:country": "Canada", "name": "CF Champlain", "phone": "506-864-8831", "brand": "Ardene"}, "geometry": {"type": "Point", "coordinates": [-64.761744, 46.095608]}},
{"type": "Feature", "id": "Ed_vmuCe8KaJmSWRqGg38Gc7Sho=", "properties": {"ref": "County Fair Mall", "@spider": "ardene", "addr:full": "475 Granville St N", "addr:city": "Summerside", "addr:state": "PE", "addr:postcode": "C1N 4P7", "addr:country": "Canada", "name": "County Fair Mall", "phone": "1-877-606-4233 ext. 320", "brand": "Ardene"}, "geometry": {"type": "Point", "coordinates": [-63.780589, 46.412441]}},
{"type": "Feature", "id": "2_unFAgyfzDGoXGobmH3RM-N4Ls=", "properties": {"ref": "Charlottetown Mall", "@spider": "ardene", "addr:full": "670 University Ave", "addr:city": "Charlottetown", "addr:state": "PE", "addr:postcode": "C1E 1H6", "addr:country": "Canada", "name": "Charlottetown Mall", "phone": "902-620-0734", "brand": "Ardene"}, "geometry": {"type": "Point", "coordinates": [-63.143944, 46.266343]}},
{"type": "Feature", "id": "bpl-d6Sw2g0P_1C38N_nqBfYM48=", "properties": {"ref": "Bridgewater Mall & Eastside Plaza", "@spider": "ardene", "addr:full": "421 LaHave Street", "addr:city": "Bridgewater", "addr:state": "NS", "addr:postcode": "B4V 3A2", "addr:country": "Canada", "name": "Bridgewater Mall & Eastside Plaza", "phone": "1-877-606-4233 ext. 007", "brand": "Ardene"}, "geometry": {"type": "Point", "coordinates": [-64.515418, 44.377295]}},
{"type": "Feature", "id": "hDMlDz9lStws6TLZKrtWG4ukVc8=", "properties": {"ref": "Truro Mall", "@spider": "ardene", "addr:full": "245 Robie St", "addr:city": "Truro", "addr:state": "NS", "addr:postcode": "B2N 5N6 ", "addr:country": "Canada", "name": "Truro Mall", "phone": "902-920-0613", "brand": "Ardene"}, "geometry": {"type": "Point", "coordinates": [-63.303671, 45.371345]}},
{"type": "Feature", "id": "qbitLqeksvKj224-u-Y8tz4IoYk=", "properties": {"ref": "Highland Square", "@spider": "ardene", "addr:full": "689 Westville Rd", "addr:city": "New Glasgow", "addr:state": "NS", "addr:postcode": "B2H 2J6", "addr:country": "Canada", "name": "Highland Square", "phone": "902-967-4011", "brand": "Ardene"}, "geometry": {"type": "Point", "coordinates": [-62.666753, 45.579875]}},
{"type": "Feature", "id": "eUp8p77_lzM5hHUSBlQZRC17fvg=", "properties": {"ref": "Mic Mac Mall", "@spider": "ardene", "addr:full": "21 Micmac Blvd", "addr:city": "Dartmouth", "addr:state": "NS", "addr:postcode": "B3A 4N3", "addr:country": "Canada", "name": "Mic Mac Mall", "phone": "902-482-0866", "brand": "Ardene"}, "geometry": {"type": "Point", "coordinates": [-63.559397, 44.687093]}},
{"type": "Feature", "id": "e_7mGCNkliDwMg1ff4ZD99HKcaM=", "properties": {"ref": "Stephenville Mall", "@spider": "ardene", "addr:full": "42 Queen St", "addr:city": "Stephenville", "addr:state": "NF", "addr:postcode": "A2N 3A7", "addr:country": "Canada", "name": "Stephenville Mall", "phone": "1-877-606-4233 ext. 281", "brand": "Ardene"}, "geometry": {"type": "Point", "coordinates": [-58.573433, 48.549274]}},
{"type": "Feature", "id": "5Uq1WiLjpd2ToHkKEEguJlgWTTc=", "properties": {"ref": "Corner Brook Plaza", "@spider": "ardene", "addr:full": "44 Maple Valley Rd", "addr:city": "Corner Brook", "addr:state": "NF", "addr:postcode": "A2H 6L8", "addr:country": "Canada", "name": "Corner Brook Plaza", "phone": "709-383-0497", "brand": "Ardene"}, "geometry": {"type": "Point", "coordinates": [-57.916706, 48.947899]}},
{"type": "Feature", "id": "ypyoJ9NztHMCvSKeTvHVi1W9tpA=", "properties": {"ref": "Mayflower Mall", "@spider": "ardene", "addr:full": "800 Grandlake Rd", "addr:city": "Sydney", "addr:state": "NS", "addr:postcode": "B1P 6S9 ", "addr:country": "Canada", "name": "Mayflower Mall", "phone": "902-595-2090", "brand": "Ardene"}, "geometry": {"type": "Point", "coordinates": [-60.138174, 46.145789]}},
{"type": "Feature", "id": "BDLsUSLgksqNhwNUOg9lWIBJSOE=", "properties": {"ref": "Exploits Valley Mall", "@spider": "ardene", "addr:full": "19 Cromer Ave", "addr:city": "Windsor", "addr:state": "NF", "addr:postcode": "A2A 2K5 ", "addr:country": "Canada", "name": "Exploits Valley Mall", "phone": "1-877-606-4233 ext. 349", "brand": "Ardene"}, "geometry": {"type": "Point", "coordinates": [-55.650237, 48.947701]}},
{"type": "Feature", "id": "hIUhSyUuQrguNkIhoXsagAdkaT0=", "properties": {"ref": "Gander Mall", "@spider": "ardene", "addr:full": "132 Bennett Dr", "addr:city": "Gander", "addr:state": "NF", "addr:postcode": "A1V 2H2", "addr:country": "Canada", "name": "Gander Mall", "phone": "1-877-606-4233 ext. 299", "brand": "Ardene"}, "geometry": {"type": "Point", "coordinates": [-54.603144, 48.951329]}},
{"type": "Feature", "id": "SsH6qaFGNQOA6lE6vGM40vhMGDA=", "properties": {"ref": "Avalon Mall", "@spider": "ardene", "addr:full": "48 Kenmount Rd", "addr:city": "St-John, NF", "addr:state": "NL", "addr:postcode": "A1B 1W3", "addr:country": "Canada", "name": "Avalon Mall", "phone": "709-383-0420", "brand": "Ardene"}, "geometry": {"type": "Point", "coordinates": [-52.753944, 47.561132]}},
{"type": "Feature", "id": "wEj0c__Eu7cRcmr9fWNP2viLSB4=", "properties": {"ref": "Village Shopping Centre", "@spider": "ardene", "addr:full": "430 Topsail Rd", "addr:city": "St. John's", "addr:state": "NF", "addr:postcode": "A1E 4N1 ", "addr:country": "Canada", "name": "Village Shopping Centre", "phone": "709-383-0360", "brand": "Ardene"}, "geometry": {"type": "Point", "coordinates": [-52.751634, 47.535303]}},
{"type": "Feature", "id": "XgwFcVxx-dVNTySD0v_1outwBn0=", "properties": {"ref": "Tala Mall", "@spider": "ardene", "addr:full": "Central, King Abdul Aziz Road", "addr:city": "Riyadh", "addr:state": "ME", "addr:postcode": "13312", "addr:country": "Saudi Arabia", "name": "Tala Mall", "phone": "966-12-616-2222", "brand": "Ardene"}, "geometry": {"type": "Point", "coordinates": [46.6669173, 24.771353]}},
{"type": "Feature", "id": "UCuwzKIVPJKGRSu6Y0V2hmA62E0=", "properties": {"ref": "Mall of Qatar", "@spider": "ardene", "addr:full": "Al Rayyan", "addr:city": "Doha", "addr:state": "ME", "addr:postcode": "GF-001E1", "addr:country": "QA", "name": "Mall of Qatar", "phone": "974-4034-6000", "brand": "Ardene"}, "geometry": {"type": "Point", "coordinates": [39.233685, 21.601541]}},
{"type": "Feature", "id": "ZKT5jaAm5Ki8B4wD0SoY38Y7zfs=", "properties": {"ref": "Alandalus Mall", "@spider": "ardene", "addr:full": "Prince Majid Rd, Al-Fayha'a, Unit # G-X07", "addr:city": "Jeddah", "addr:state": "ME", "addr:postcode": "22245", "addr:country": "Saudi Arabia", "name": "Alandalus Mall", "phone": "966-12-630-4444", "brand": "Ardene"}, "geometry": {"type": "Point", "coordinates": [39.233663, 21.601461]}},
{"type": "Feature", "id": "aRCkKt41kGTa5wb1Urg3x9j4aSM=", "properties": {"ref": "Al Yasmin Mall", "@spider": "ardene", "addr:full": "Alharameen High road with Ankara road", "addr:city": "Al-Manar, Jeddah", "addr:state": "ME", "addr:postcode": "23462", "addr:country": "Saudi Arabia", "name": "Al Yasmin Mall", "phone": "966-59-660-0044", "brand": "Ardene"}, "geometry": {"type": "Point", "coordinates": [39.233685, 21.601431]}},
{"type": "Feature", "id": "Lfpdf4gmTvb01_ep5FRezKMSI20=", "properties": {"ref": "Dareen Mall", "@spider": "ardene", "addr:full": "Khaleej road", "addr:city": "Damman, Eastern province", "addr:state": "EP", "addr:postcode": "32424", "addr:country": "Saudi Arabia", "name": "Dareen Mall", "phone": "966-13-6678702", "brand": "Ardene"}, "geometry": {"type": "Point", "coordinates": [55.302207, 25.253369]}},
{"type": "Feature", "id": "UnliCIIPPUwzM5Z1BHIysz5mrN0=", "properties": {"ref": "Burjuman Mall", "@spider": "ardene", "addr:full": "22700 Khalid bin walid street", "addr:city": "Dubai, Dubai", "addr:state": "ME", "addr:postcode": "0", "addr:country": "United Arab Emirates", "name": "Burjuman Mall", "phone": "971-4-352-0222", "brand": "Ardene"}, "geometry": {"type": "Point", "coordinates": [55.302207, 25.25333]}},
{"type": "Feature", "id": "v-itQIEHFpAxhjcQR7UlGYngvww=", "properties": {"ref": "Muscat City Center", "@spider": "ardene", "addr:full": "Al Mawaleh", "addr:city": "Muscat, Muscat", "addr:state": "ME", "addr:postcode": "0", "addr:country": "Oman", "name": "Muscat City Center", "phone": "968-24-558888", "brand": "Ardene"}, "geometry": {"type": "Point", "coordinates": [58.229827, 23.606847]}}]}