{"type":"FeatureCollection","features":[{"type": "Feature", "id": "qAgTx4ZkLWWLrAR-eZLpO5wZ7bk=", "properties": {"ref": "auburn-university", "@spider": "aubonpain", "addr:full": "120 PO Davis Drive", "addr:city": "Auburn", "addr:state": "AL", "addr:postcode": "36849", "phone": "334-224-1027", "website": "https://www.aubonpain.com/stores/auburn-university", "opening_hours": "Mo-Fr 07:30-16:00", "brand": "Au Bon Pain"}, "geometry": {"type": "Point", "coordinates": [-85.4868, 32.6019]}},
{"type": "Feature", "id": "YHVORA1dSh1_kf1jhlDko7vOXbE=", "properties": {"ref": "au-bon-pain-jackson-towers", "@spider": "aubonpain", "addr:full": "1500 NW 12TH Ave. Suite 100", "addr:city": "Miami", "addr:state": "FL", "addr:postcode": "33136", "phone": "786-456-7826", "website": "https://www.aubonpain.com/stores/au-bon-pain-jackson-towers", "opening_hours": "Mo-Fr 06:30-16:30", "brand": "Au Bon Pain"}, "geometry": {"type": "Point", "coordinates": [-80.2161, 25.7895]}},
{"type": "Feature", "id": "zVAdoloIwIlNm0GKr_K7rx_AFR8=", "properties": {"ref": "jackson-memoria-east", "@spider": "aubonpain", "addr:full": "901 NW 17th Str. Suit B", "addr:city": "Miami", "addr:state": "FL", "addr:postcode": "33126", "phone": "305-545-9999", "website": "https://www.aubonpain.com/stores/jackson-memoria-east", "opening_hours": "Mo-Fr 00:00-00:00; Sa-Su 06:00-20:00", "brand": "Au Bon Pain"}, "geometry": {"type": "Point", "coordinates": [-80.2131, 25.7919]}},
{"type": "Feature", "id": "3pbSrpCE6B85Z7nQx1-AURuan0U=", "properties": {"ref": "brickell-bay-tower", "@spider": "aubonpain", "addr:full": "1001 Brickell Bay Drive", "addr:city": "Miami", "addr:state": "FL", "addr:postcode": "33131", "phone": "305-375-0332", "website": "https://www.aubonpain.com/stores/brickell-bay-tower", "opening_hours": "Mo-Fr 07:00-15:00", "brand": "Au Bon Pain"}, "geometry": {"type": "Point", "coordinates": [-80.1895, 25.7637]}},
{"type": "Feature", "id": "zmzxnivsGathmg5iLsCO7Nir-1U=", "properties": {"ref": "baptist-hospital", "@spider": "aubonpain", "addr:full": "8950 North Kendall Drive", "addr:city": "Miami", "addr:state": "FL", "addr:postcode": "33176", "phone": "305-273-7031", "website": "https://www.aubonpain.com/stores/baptist-hospital", "opening_hours": "Mo-Fr 07:00-17:00", "brand": "Au Bon Pain"}, "geometry": {"type": "Point", "coordinates": [-80.3387, 25.6841]}},
{"type": "Feature", "id": "yRhKvm7yaXaQVUJQRTYDkZOfhLw=", "properties": {"ref": "bank-america-0", "@spider": "aubonpain", "addr:full": "100 SE 2nd Street, Suite 150", "addr:city": "Miami", "addr:state": "FL", "addr:postcode": "33131", "phone": "305-347-6495", "website": "https://www.aubonpain.com/stores/bank-america-0", "opening_hours": "Mo-Fr 07:00-15:00", "brand": "Au Bon Pain"}, "geometry": {"type": "Point", "coordinates": [-80.1912, 25.7722]}},
{"type": "Feature", "id": "cPDIShTqi8aTge_52a5ysJddXSQ=", "properties": {"ref": "navy-yard", "@spider": "aubonpain", "addr:full": "1244 Patterson Ave  Building 22", "addr:city": "Washington Navy Yard", "addr:state": "DC", "addr:postcode": "20374", "phone": "202-678-4738", "website": "https://www.aubonpain.com/stores/navy-yard", "brand": "Au Bon Pain"}, "geometry": {"type": "Point", "coordinates": [-76.996, 38.8752]}},
{"type": "Feature", "id": "A1vkwS3ix7ja0MJBv6duVGqC8qQ=", "properties": {"ref": "house-of-representatives", "@spider": "aubonpain", "addr:full": "Cannon House Office Building      27 Independence Ave   Room 192", "addr:city": "Washington ", "addr:state": "DC", "addr:postcode": "20515", "phone": "301-523-7142", "website": "https://www.aubonpain.com/stores/house-of-representatives", "opening_hours": "Mo-Fr 07:30-14:30", "brand": "Au Bon Pain"}, "geometry": {"type": "Point", "coordinates": [-77.0068733, 38.8867705]}},
{"type": "Feature", "id": "h8MIQ34Q0eTocVEprvehbn3jP8Q=", "properties": {"ref": "union-station-dc", "@spider": "aubonpain", "addr:full": "50 Massachusetts Ave, NE - Union Station", "addr:city": "Washington", "addr:state": "DC", "addr:postcode": "20001", "phone": "202-898-0299", "website": "https://www.aubonpain.com/stores/union-station-dc", "opening_hours": "Mo-Fr 07:00-15:00; Sa-Su 08:00-14:00", "brand": "Au Bon Pain"}, "geometry": {"type": "Point", "coordinates": [-77.0069, 38.8982]}},
{"type": "Feature", "id": "G1KQ2d10JZfnvoG_W1msCWEyM8s=", "properties": {"ref": "metro-center", "@spider": "aubonpain", "addr:full": "700 13th St. NW", "addr:city": "Washington", "addr:state": "DC", "addr:postcode": "20005", "phone": "202-639-0846", "website": "https://www.aubonpain.com/stores/metro-center", "opening_hours": "Mo-Fr 07:00-15:00", "brand": "Au Bon Pain"}, "geometry": {"type": "Point", "coordinates": [-77.0299742, 38.8987486]}},
{"type": "Feature", "id": "_D4k-uX6oF23MJTulsIg55LCOvo=", "properties": {"ref": "1100-13th-st-dc-catering", "@spider": "aubonpain", "addr:full": "1100 13th St., NW, Ste 100", "addr:city": "Washington", "addr:state": "DC", "addr:postcode": "20005", "phone": "202-289-7809", "website": "https://www.aubonpain.com/stores/1100-13th-st-dc-catering", "opening_hours": "Mo-Fr 07:00-15:00", "brand": "Au Bon Pain"}, "geometry": {"type": "Point", "coordinates": [-77.0299, 38.9039]}},
{"type": "Feature", "id": "If2k5T3QZNYOsQxPOs8pYOPcrV4=", "properties": {"ref": "1001-penn-ave", "@spider": "aubonpain", "addr:full": "406 10th St., NW", "addr:city": "Washington", "addr:state": "DC", "addr:postcode": "20004", "phone": "202-393-8809", "website": "https://www.aubonpain.com/stores/1001-penn-ave", "opening_hours": "Mo-Fr 06:00-15:00", "brand": "Au Bon Pain"}, "geometry": {"type": "Point", "coordinates": [-77.0261, 38.8952]}},
{"type": "Feature", "id": "18Gwiy6xuGFmi5LZ2bQ5Azrx30E=", "properties": {"ref": "wilmington-hospital", "@spider": "aubonpain", "addr:full": "501 W. 14th St., Second Fl.", "addr:city": "Wilmington", "addr:state": "DE", "addr:postcode": "19801", "phone": "302-320-5888", "website": "https://www.aubonpain.com/stores/wilmington-hospital", "opening_hours": "Mo-Fr 06:00-15:00; Sa-Su 06:00-14:00", "brand": "Au Bon Pain"}, "geometry": {"type": "Point", "coordinates": [-75.5502, 39.7507]}},
{"type": "Feature", "id": "nWbBYsauezD615zKhyy44qFrnYw=", "properties": {"ref": "christiana-care-hospital", "@spider": "aubonpain", "addr:full": "4755 Ogletown Stanton Road", "addr:city": "Newark", "addr:state": "DE", "addr:postcode": "19718", "phone": "302-733-1188", "website": "https://www.aubonpain.com/stores/christiana-care-hospital", "opening_hours": "Mo-Fr 06:00-18:00; Sa-Su 06:00-16:00", "brand": "Au Bon Pain"}, "geometry": {"type": "Point", "coordinates": [-75.6692, 39.6875]}},
{"type": "Feature", "id": "uR49_XnOlI3r1pArV2OTXK3uPtQ=", "properties": {"ref": "hospital-central-connecticut", "@spider": "aubonpain", "addr:full": "100 Grand Ave.", "addr:city": "New Britain", "addr:state": "CT", "addr:postcode": "06052", "phone": "860-224-5165", "website": "https://www.aubonpain.com/stores/hospital-central-connecticut", "opening_hours": "Mo-Fr 06:00-16:00", "brand": "Au Bon Pain"}, "geometry": {"type": "Point", "coordinates": [-72.7876, 41.6613]}},
{"type": "Feature", "id": "9Lwppo7n9n8Z2w1xQbA6KRsW6L0=", "properties": {"ref": "bank-america-building", "@spider": "aubonpain", "addr:full": "300 Broadhollow Road", "addr:city": "Melville", "addr:state": "NY", "addr:postcode": "11747", "phone": "631-393-0212", "website": "https://www.aubonpain.com/stores/bank-america-building", "opening_hours": "Mo-Fr 08:00-15:00", "brand": "Au Bon Pain"}, "geometry": {"type": "Point", "coordinates": [-73.4188, 40.7837]}},
{"type": "Feature", "id": "v2CBURC00uQnqEtLytlMlWE5WTM=", "properties": {"ref": "carroll-university", "@spider": "aubonpain", "addr:full": "210 Grand Avenue", "addr:city": "Waukesha", "addr:state": "WI", "addr:postcode": "53186", "phone": "262-650-4989", "website": "https://www.aubonpain.com/stores/carroll-university", "opening_hours": "Mo-Fr 07:00-21:00; Sa-Su 07:00-19:00", "brand": "Au Bon Pain"}, "geometry": {"type": "Point", "coordinates": [-88.2323, 43.0042]}},
{"type": "Feature", "id": "HsJNvZ9vcy6yi_zFZ8qQq-Kw8Kc=", "properties": {"ref": "dulles-airport", "@spider": "aubonpain", "addr:full": "One Saarinen Circle", "addr:city": "Sterling", "addr:state": "VA", "addr:postcode": "20166", "phone": "703-996-0160", "website": "https://www.aubonpain.com/stores/dulles-airport", "opening_hours": "Mo-Su 06:00-18:00", "brand": "Au Bon Pain"}, "geometry": {"type": "Point", "coordinates": [-77.4448, 38.9454]}},
{"type": "Feature", "id": "9ctiAKvacV1uBfLvr34VcNd7zgg=", "properties": {"ref": "vcu", "@spider": "aubonpain", "addr:full": "944 West Grace Street", "addr:city": "Richmond", "addr:state": "VA", "addr:postcode": "23284", "phone": "804-828-2661", "website": "https://www.aubonpain.com/stores/vcu", "opening_hours": "Mo-Su 08:00-16:00", "brand": "Au Bon Pain"}, "geometry": {"type": "Point", "coordinates": [77.45271869999999, 37.5508855]}},
{"type": "Feature", "id": "Vlb_r-qXSjPiM51FUSgstBYjZQ4=", "properties": {"ref": "radford-university", "@spider": "aubonpain", "addr:full": "Corner of Fairfax & Adam", "addr:city": "Radford", "addr:state": "VA", "addr:postcode": "24142", "phone": "540-831-5810", "website": "https://www.aubonpain.com/stores/radford-university", "opening_hours": "Mo-Fr 07:00-15:00", "brand": "Au Bon Pain"}, "geometry": {"type": "Point", "coordinates": [-80.5491, 37.1362]}},
{"type": "Feature", "id": "iuVG4lT4fJPxhIP9SOESc5RT2TA=", "properties": {"ref": "mary-washington-hospital", "@spider": "aubonpain", "addr:full": "1001 Sam Perry Blvd", "addr:city": "Fredericksburg", "addr:state": "VA", "addr:postcode": "22401", "phone": "540-741-0777", "website": "https://www.aubonpain.com/stores/mary-washington-hospital", "opening_hours": "Mo-Fr 07:00-16:00", "brand": "Au Bon Pain"}, "geometry": {"type": "Point", "coordinates": [-77.4839, 38.3108]}},
{"type": "Feature", "id": "90ENCUg8hUtdQIT0dyHiLmRLOOE=", "properties": {"ref": "university-of-florida", "@spider": "aubonpain", "addr:full": "1700 Stadium Drive", "addr:city": "Gainesville", "addr:state": "FL", "addr:postcode": "32611", "phone": "352-392-2008", "website": "http://www.aubonpain.com/stores/university-of-florida", "opening_hours": "Mo-Th 08:00-17:00; Fr 08:00-16:00", "brand": "Au Bon Pain"}, "geometry": {"type": "Point", "coordinates": [-82.3450569, 29.649093]}},
{"type": "Feature", "id": "fRioKXZma90zzogBGL9dD3TM9jw=", "properties": {"ref": "longwood-university-franchise", "@spider": "aubonpain", "addr:full": "201 High Street", "addr:city": "Farmville", "addr:state": "VA", "addr:postcode": "23909", "phone": "434-395-2640", "website": "https://www.aubonpain.com/stores/longwood-university-franchise", "opening_hours": "Mo-Fr 07:30-20:00", "brand": "Au Bon Pain"}, "geometry": {"type": "Point", "coordinates": [-78.39444329, 37.3011542]}},
{"type": "Feature", "id": "epdSUrAPpqeEKcr_Sa9fi2DqEXI=", "properties": {"ref": "virginia-tech-engineering-building-franchise-temporarily-closed", "@spider": "aubonpain", "addr:full": "635 Prices Fork Road", "addr:city": "Blacksburg", "addr:state": "VA", "addr:postcode": "24061", "phone": "540-231-0478", "website": "https://www.aubonpain.com/stores/virginia-tech-engineering-building-franchise-temporarily-closed", "opening_hours": "Mo-Fr 08:00-15:00", "brand": "Au Bon Pain"}, "geometry": {"type": "Point", "coordinates": [-80.426103, 37.2322183]}},
{"type": "Feature", "id": "KYLg5nwMLYTjTzIY1Z_cbnOj6x8=", "properties": {"ref": "virginia-tech", "@spider": "aubonpain", "addr:full": "225 Squires Student Center", "addr:city": "Blacksburg", "addr:state": "VA", "addr:postcode": "24061", "phone": "540-231-1765", "website": "https://www.aubonpain.com/stores/virginia-tech", "opening_hours": "Mo-Th 07:30-20:00; Fr 07:30-19:00; Sa-Su 10:00-19:00", "brand": "Au Bon Pain"}, "geometry": {"type": "Point", "coordinates": [-80.4179, 37.2295]}},
{"type": "Feature", "id": "9N39s1fmidO6peaJD7LR5lw4K0c=", "properties": {"ref": "virginia-tech-kiosk", "@spider": "aubonpain", "addr:full": "Donaldson Brown Graduate Housing, Otey Street", "addr:city": "Blacksburg", "addr:state": "VA", "addr:postcode": "24061", "phone": "540-231-5859", "website": "https://www.aubonpain.com/stores/virginia-tech-kiosk", "brand": "Au Bon Pain"}, "geometry": {"type": "Point", "coordinates": [-80.4177, 37.2282]}},
{"type": "Feature", "id": "LxVK92Bt8rqUPQpoS9heuhjmULA=", "properties": {"ref": "pentagon", "@spider": "aubonpain", "addr:full": "1400 Defense Pentagon", "addr:city": "Arlington", "addr:state": "VA", "addr:postcode": "22201", "phone": "703.486.3201", "website": "https://www.aubonpain.com/stores/pentagon", "opening_hours": "Mo-Fr 08:00-14:00", "brand": "Au Bon Pain"}, "geometry": {"type": "Point", "coordinates": [-77.05493639999997, 38.8720286]}},
{"type": "Feature", "id": "8l-u_sx2ugwknvBrCl83B40cJ88=", "properties": {"ref": "george-mason-university", "@spider": "aubonpain", "addr:full": "Founders Hall 3401 Fairfax Drive - 1st level", "addr:city": "Arlington", "addr:state": "VA", "addr:postcode": "22201", "phone": "703-993-9987", "website": "https://www.aubonpain.com/stores/george-mason-university", "opening_hours": "Mo-Th 08:30-20:30; Fr 08:30-14:30", "brand": "Au Bon Pain"}, "geometry": {"type": "Point", "coordinates": [-77.1017, 38.8846]}},
{"type": "Feature", "id": "DoE7shhXeRbwPTQ2HUNHW14i_l4=", "properties": {"ref": "houston-medical-center", "@spider": "aubonpain", "addr:full": "6400 Fannin Road Suite 218", "addr:city": "Houston", "addr:state": "TX", "addr:postcode": "77030", "phone": "713-795-0144", "website": "https://www.aubonpain.com/stores/houston-medical-center", "opening_hours": "Mo-Fr 06:00-14:30", "brand": "Au Bon Pain"}, "geometry": {"type": "Point", "coordinates": [-95.3973, 29.7147]}},
{"type": "Feature", "id": "1x-07JQcO2W1fvl3BEYGYthyyBs=", "properties": {"ref": "dallasft-worth-international-airport-terminal-d", "@spider": "aubonpain", "addr:full": "Terminal D", "addr:city": "Dallas", "addr:state": "TX", "addr:postcode": "75200", "phone": "972-973-4338", "website": "https://www.aubonpain.com/stores/dallasft-worth-international-airport-terminal-d", "brand": "Au Bon Pain"}, "geometry": {"type": "Point", "coordinates": [-97.0443, 32.8984]}},
{"type": "Feature", "id": "NcxUUDCKjg4UxILpG0hADqJltU0=", "properties": {"ref": "vanderbilt-mc", "@spider": "aubonpain", "addr:full": "1211 Medical Center Drive", "addr:city": "Nashville", "addr:state": "TN", "addr:postcode": "37212", "phone": "615-320-0164", "website": "https://www.aubonpain.com/stores/vanderbilt-mc", "opening_hours": "Mo-Fr 06:00-20:00; Sa-Su 06:00-17:00", "brand": "Au Bon Pain"}, "geometry": {"type": "Point", "coordinates": [-86.8017, 36.1425]}},
{"type": "Feature", "id": "cOSi1Dj1BwtuRBa-ChRXyBGrG5w=", "properties": {"ref": "vanderbilt-health", "@spider": "aubonpain", "addr:full": "100 Oaks Mall, 719 Thompson Lane", "addr:city": "Nashville", "addr:state": "TN", "addr:postcode": "37203", "phone": "615-383-2144", "website": "https://www.aubonpain.com/stores/vanderbilt-health", "opening_hours": "Mo-Fr 07:00-16:00", "brand": "Au Bon Pain"}, "geometry": {"type": "Point", "coordinates": [-86.764183, 36.1089556]}},
{"type": "Feature", "id": "0PDIkP0sBu7ONvm0qEt7fHmF5A4=", "properties": {"ref": "lipscomb-university", "@spider": "aubonpain", "addr:full": "Student Activity Center, Lipscomb University, One University Park Drive", "addr:city": "Nashville", "addr:state": "TN", "addr:postcode": "37284", "phone": "615-966-1780", "website": "https://www.aubonpain.com/stores/lipscomb-university", "opening_hours": "Mo-Th 07:30-20:30; Fr 07:30-19:00; Sa 07:30-14:00; Su 12:00-20:00", "brand": "Au Bon Pain"}, "geometry": {"type": "Point", "coordinates": [-86.7996, 36.1041]}},
{"type": "Feature", "id": "LuhfINhsWUtZp5XDjhlJuphTAVo=", "properties": {"ref": "tennessee-tech", "@spider": "aubonpain", "addr:full": "1000 North Dixie", "addr:city": "Cookville", "addr:state": "TN", "addr:postcode": "38505", "phone": "931-510-5758", "website": "https://www.aubonpain.com/stores/tennessee-tech", "opening_hours": "Mo-Fr 07:30-14:00", "brand": "Au Bon Pain"}, "geometry": {"type": "Point", "coordinates": [-85.5061, 36.1762]}},
{"type": "Feature", "id": "b4VUxqFpy_S866lW1sHXPVH4oQU=", "properties": {"ref": "greenville-memorial", "@spider": "aubonpain", "addr:full": "701 Grove Road", "addr:city": "Greenville", "addr:state": "SC", "addr:postcode": "29605", "phone": "864-455-6301", "website": "https://www.aubonpain.com/stores/greenville-memorial", "brand": "Au Bon Pain"}, "geometry": {"type": "Point", "coordinates": [-82.4116, 34.8183]}},
{"type": "Feature", "id": "Q1wlQYAqDbJRlXDRCieMNtqElho=", "properties": {"ref": "woman-infants-hospital", "@spider": "aubonpain", "addr:full": "101 Dudley Street", "addr:city": "Providence", "addr:state": "RI", "addr:postcode": "02905", "phone": "401-421-1532", "website": "https://www.aubonpain.com/stores/woman-infants-hospital", "opening_hours": "Mo-Fr 07:00-20:00; Sa-Su 08:00-15:30", "brand": "Au Bon Pain"}, "geometry": {"type": "Point", "coordinates": [-71.412, 41.8109]}},
{"type": "Feature", "id": "mOuNDr1CmsZRTht6K-v8j5A53Zc=", "properties": {"ref": "rhode-island-hospital", "@spider": "aubonpain", "addr:full": "593 Eddy St.", "addr:city": "Providence", "addr:state": "RI", "addr:postcode": "02903", "phone": "401-274-1451", "website": "https://www.aubonpain.com/stores/rhode-island-hospital", "opening_hours": "24/7", "brand": "Au Bon Pain"}, "geometry": {"type": "Point", "coordinates": [-71.409, 41.811]}},
{"type": "Feature", "id": "32gJLxSkz7J9k_0VNDRnH_Ircbo=", "properties": {"ref": "usx-tower", "@spider": "aubonpain", "addr:full": "600 Grant St.", "addr:city": "Pittsburgh", "addr:state": "PA", "addr:postcode": "15219", "phone": "412-456-2906", "website": "https://www.aubonpain.com/stores/usx-tower", "opening_hours": "Mo-Fr 07:00-14:00", "brand": "Au Bon Pain"}, "geometry": {"type": "Point", "coordinates": [-79.9948, 40.4414]}},
{"type": "Feature", "id": "1ULT_u1tsf5o8ZMoaji8pOrGi-k=", "properties": {"ref": "carnegie-mellon-university", "@spider": "aubonpain", "addr:full": "Cohon University Center, Skibo Caf\u00e9, 5000 Forbes Ave", "addr:city": "Pittsburgh", "addr:state": "PA", "addr:postcode": "415213", "phone": "412-621-1934", "website": "https://www.aubonpain.com/stores/carnegie-mellon-university", "opening_hours": "Mo-Th 07:00-00:00; Fr 07:00-21:00; Sa 09:00-21:00; Su 09:00-00:00", "brand": "Au Bon Pain"}, "geometry": {"type": "Point", "coordinates": [-79.9422, 40.4441]}},
{"type": "Feature", "id": "Fad9iKw-2KQN2g4sL_y0sIAv1R0=", "properties": {"ref": "thomas-jefferson-university-hospital", "@spider": "aubonpain", "addr:full": "111 S 11th St", "addr:city": "Philadelphia", "addr:state": "PA", "addr:postcode": "19107", "phone": "215-413-5802", "website": "https://www.aubonpain.com/stores/thomas-jefferson-university-hospital", "opening_hours": "Mo-Fr 07:00-16:00", "brand": "Au Bon Pain"}, "geometry": {"type": "Point", "coordinates": [-75.1578224, 39.9495736]}},
{"type": "Feature", "id": "fP8LmEqmrGXyZsypHoj55tVvqik=", "properties": {"ref": "upenn-mc-ground-fl", "@spider": "aubonpain", "addr:full": "421 Curie Blvd. Ground Floor Caf\u00e9 BRBI/III Building", "addr:city": "Philadelphia", "addr:state": "PA", "addr:postcode": "19104", "phone": "215-382-6160", "website": "https://www.aubonpain.com/stores/upenn-mc-ground-fl", "opening_hours": "Mo-Fr 07:00-18:00", "brand": "Au Bon Pain"}, "geometry": {"type": "Point", "coordinates": [-75.1964, 39.9481]}},
{"type": "Feature", "id": "SKtHEgymg2wt_rfsFa75ME6R2R4=", "properties": {"ref": "hershey-medical-center", "@spider": "aubonpain", "addr:full": "500 University Drive", "addr:city": "Hershey", "addr:state": "PA", "addr:postcode": "17033", "phone": "717-531-3003", "website": "https://www.aubonpain.com/stores/hershey-medical-center", "opening_hours": "Mo-Fr 06:30-16:00", "brand": "Au Bon Pain"}, "geometry": {"type": "Point", "coordinates": [-76.6756, 40.2645]}},
{"type": "Feature", "id": "0ngvkEaSafjKjlWd2mjLU6HQ17U=", "properties": {"ref": "university-of-dayton", "@spider": "aubonpain", "addr:full": "John F. Kennedy Memorial Union Hall", "addr:city": "Dayton", "addr:state": "OH", "addr:postcode": "45469", "phone": "937-229-5395", "website": "https://www.aubonpain.com/stores/university-of-dayton", "opening_hours": "Mo-Fr 07:30-14:00", "brand": "Au Bon Pain"}, "geometry": {"type": "Point", "coordinates": [-84.176, 39.7395]}},
{"type": "Feature", "id": "ilA81mgc_5crTx25z6jlrbl_5r4=", "properties": {"ref": "ohio-state-medical-center", "@spider": "aubonpain", "addr:full": "410 W 10th Ave, Rm L030", "addr:city": "Columbus", "addr:state": "OH", "addr:postcode": "43210", "phone": "614-291-2416", "website": "https://www.aubonpain.com/stores/ohio-state-medical-center", "opening_hours": "Mo-Fr 06:00-00:00; Sa-Su 07:00-17:00", "brand": "Au Bon Pain"}, "geometry": {"type": "Point", "coordinates": [-83.0176, 39.9952]}},
{"type": "Feature", "id": "beR3r3Us-8aEX780hR0_XxxnpLo=", "properties": {"ref": "global-center-health-innovation", "@spider": "aubonpain", "addr:full": "1 St. Clair Avenue", "addr:city": "Cleveland", "addr:state": "OH", "addr:postcode": "44113", "phone": "216-920-1467", "website": "https://www.aubonpain.com/stores/global-center-health-innovation", "brand": "Au Bon Pain"}, "geometry": {"type": "Point", "coordinates": [-81.6949, 41.5021]}},
{"type": "Feature", "id": "XcpFDqEctmPe7n4PPZ_jiKlZWos=", "properties": {"ref": "600-superior-ave", "@spider": "aubonpain", "addr:full": "Fifth Third Center", "addr:city": "Cleveland", "addr:state": "OH", "addr:postcode": "44114", "phone": "216-771-1782", "website": "https://www.aubonpain.com/stores/600-superior-ave", "opening_hours": "Mo-Fr 07:00-14:00", "brand": "Au Bon Pain"}, "geometry": {"type": "Point", "coordinates": [-81.6895, 41.5013]}},
{"type": "Feature", "id": "A-BJ29jVdGrA6ceU3Xo2sMJ7UrA=", "properties": {"ref": "akron-mc", "@spider": "aubonpain", "addr:full": "400 Wabash Ave, Ste 2224", "addr:city": "Akron", "addr:state": "OH", "addr:postcode": "44307", "phone": "330-258-2094", "website": "https://www.aubonpain.com/stores/akron-mc", "opening_hours": "Mo-Fr 07:00-18:00; Sa-Su 08:00-14:00", "brand": "Au Bon Pain"}, "geometry": {"type": "Point", "coordinates": [-81.5325, 41.0782]}},
{"type": "Feature", "id": "ORDcDb9-NgfWSs2h8lpU6eHuXJA=", "properties": {"ref": "wake-forest-baptist", "@spider": "aubonpain", "addr:full": "Medical Center Blvd, Ardmore Tower, Main Floor", "addr:city": "Winston-Salem", "addr:state": "NC", "addr:postcode": "27157", "phone": "336-727-9440", "website": "https://www.aubonpain.com/stores/wake-forest-baptist", "opening_hours": "Mo-Fr 07:00-02:00; Sa-Su 10:00-02:00", "brand": "Au Bon Pain"}, "geometry": {"type": "Point", "coordinates": [-80.2708, 36.0907]}},
{"type": "Feature", "id": "L1uvLNwimbwwSAJE74MjYQNd2M0=", "properties": {"ref": "new-hanover-regional-medical-center", "@spider": "aubonpain", "addr:full": "2131 S 17th Street", "addr:city": "Wilmington", "addr:state": "NC", "addr:postcode": "28402", "phone": "910-667-4344  ", "website": "https://www.aubonpain.com/stores/new-hanover-regional-medical-center", "opening_hours": "Mo-Fr 06:00-02:00; Sa-Su 11:00-02:00", "brand": "Au Bon Pain"}, "geometry": {"type": "Point", "coordinates": [-77.9217, 34.2063]}},
{"type": "Feature", "id": "upe5hbipKXLOXpAm6QmOJuW9-_4=", "properties": {"ref": "east-carolina-university", "@spider": "aubonpain", "addr:full": "501 East 10th Street", "addr:city": "Greenville", "addr:state": "NC", "addr:postcode": "27858", "phone": "252-902-5451", "website": "https://www.aubonpain.com/stores/east-carolina-university", "opening_hours": "Mo-Fr 07:30-18:00", "brand": "Au Bon Pain"}, "geometry": {"type": "Point", "coordinates": [-77.36456529999998, 35.6055108]}},
{"type": "Feature", "id": "PX9BhOI-rwnPI8dwLK0iONRFxC8=", "properties": {"ref": "arizona-iced-tea-plaza", "@spider": "aubonpain", "addr:full": "60 Crossways Park Drive West", "addr:city": "Woodbury", "addr:state": "NY", "addr:postcode": "11797", "phone": "516-224-8487", "website": "https://www.aubonpain.com/stores/arizona-iced-tea-plaza", "opening_hours": "Mo-Fr 08:00-15:00", "brand": "Au Bon Pain"}, "geometry": {"type": "Point", "coordinates": [-73.4894, 40.8092]}},
{"type": "Feature", "id": "bEMfKq3EgmAj8w-7UvjkmF1kAhU=", "properties": {"ref": "staten-island-ferry-st-george-terminal", "@spider": "aubonpain", "addr:full": "One Bay St., St. George Terminal, Space 107A", "addr:city": "Staten Island", "addr:state": "NY", "addr:postcode": "10301", "phone": "718-420-0846", "website": "https://www.aubonpain.com/stores/staten-island-ferry-st-george-terminal", "opening_hours": "Mo-Fr 05:30-17:00; Sa-Su 06:30-14:00", "brand": "Au Bon Pain"}, "geometry": {"type": "Point", "coordinates": [-74.0724, 40.644]}},
{"type": "Feature", "id": "5DQhEiyd9hlfOONDzX2hV-P2Df8=", "properties": {"ref": "commerce-square-temporarily-closed", "@spider": "aubonpain", "addr:full": "2005 Market Street", "addr:city": "Philadelphia", "addr:state": "PA", "addr:postcode": "19103", "phone": "215-564-9705", "website": "http://www.aubonpain.com/stores/commerce-square-temporarily-closed", "opening_hours": "Mo-Fr 07:00-14:00", "brand": "Au Bon Pain"}, "geometry": {"type": "Point", "coordinates": [-75.1747192, 39.9539477]}},
{"type": "Feature", "id": "cBtBnYMDtkLI5DlCcC3DWe6Piqk=", "properties": {"ref": "30th-street-station-temporarily-closed", "@spider": "aubonpain", "addr:full": "2951 Market Street", "addr:city": "Philadelphia", "addr:state": "PA", "addr:postcode": "19104", "phone": "215-243-9897", "website": "http://www.aubonpain.com/stores/30th-street-station-temporarily-closed", "opening_hours": "Mo-Su 07:00-15:00", "brand": "Au Bon Pain"}, "geometry": {"type": "Point", "coordinates": [-75.1819683, 39.9557799]}},
{"type": "Feature", "id": "dbJc8_7pKs9F6-eorjr84EDXhA8=", "properties": {"ref": "queens-college", "@spider": "aubonpain", "addr:full": "Margaret Kiely Hall 83 - 30 Kissena Blvd", "addr:city": "Queens ", "addr:state": "NY", "addr:postcode": "11387", "phone": "718-997-4978", "website": "https://www.aubonpain.com/stores/queens-college", "brand": "Au Bon Pain"}, "geometry": {"type": "Point", "coordinates": [-73.816, 40.736]}},
{"type": "Feature", "id": "cyau_jsX505WE0_Z155XYn7EcBA=", "properties": {"ref": "the-shops-at-liberty-place-temporarily-closed", "@spider": "aubonpain", "addr:full": "1625 Chestnut Street", "addr:city": "Philadelphia", "addr:state": "PA", "addr:postcode": "19103", "phone": "215-567-9005", "website": "http://www.aubonpain.com/stores/the-shops-at-liberty-place-temporarily-closed", "opening_hours": "Mo-Fr 07:00-18:00", "brand": "Au Bon Pain"}, "geometry": {"type": "Point", "coordinates": [-75.1680038, 39.9515705]}},
{"type": "Feature", "id": "GWtlTxmwgJiL0OOl0ugxzQzZ9bQ=", "properties": {"ref": "port-authority", "@spider": "aubonpain", "addr:full": "625 8th Ave", "addr:city": "New York", "addr:state": "NY", "addr:postcode": "10018", "phone": "212-502-5939", "website": "https://www.aubonpain.com/stores/port-authority", "opening_hours": "Mo-Fr 06:00-20:00; Sa-Su 07:00-15:00", "brand": "Au Bon Pain"}, "geometry": {"type": "Point", "coordinates": [-73.9908, 40.7564]}},
{"type": "Feature", "id": "bBBdxat26U3IONKSozpUUNmTRd8=", "properties": {"ref": "ny-presbyterian-starr-basement", "@spider": "aubonpain", "addr:full": "525 E 68th Street, Basement", "addr:city": "New York", "addr:state": "NY", "addr:postcode": "10065", "phone": "212-746-7640", "website": "https://www.aubonpain.com/stores/ny-presbyterian-starr-basement", "brand": "Au Bon Pain"}, "geometry": {"type": "Point", "coordinates": [-73.9539303, 40.7643962]}},
{"type": "Feature", "id": "9Z7I3M-dAP5ppJ0o0rxCFUn6KDs=", "properties": {"ref": "ny-presbyterian-hospital", "@spider": "aubonpain", "addr:full": "525 E 68th Street", "addr:city": "New York", "addr:state": "NY", "addr:postcode": "10065", "phone": "212-746-7642", "website": "https://www.aubonpain.com/stores/ny-presbyterian-hospital", "opening_hours": "24/7", "brand": "Au Bon Pain"}, "geometry": {"type": "Point", "coordinates": [-73.9553, 40.7643]}},
{"type": "Feature", "id": "dh8km_rbIPXF0Tf2oklCjwf6Wpk=", "properties": {"ref": "ny-presbyterian-greenberg-pavilion", "@spider": "aubonpain", "addr:full": "525 E 68th Street, Greenberg Pavilion, 4th Floor", "addr:city": "New York", "addr:state": "NY", "addr:postcode": "10065", "phone": "212-746-7354", "website": "https://www.aubonpain.com/stores/ny-presbyterian-greenberg-pavilion", "brand": "Au Bon Pain"}, "geometry": {"type": "Point", "coordinates": [-73.9553273, 40.7643421]}},
{"type": "Feature", "id": "8p_YCE0suamfDzfZk28Fc2tZQ_k=", "properties": {"ref": "columbia-university-kiosk-franchise-temporarily-closed", "@spider": "aubonpain", "addr:full": "1121 St. Nicolas Ave", "addr:city": "New York", "addr:state": "NY", "addr:postcode": "10032", "phone": "212-781-0200", "website": "https://www.aubonpain.com/stores/columbia-university-kiosk-franchise-temporarily-closed", "brand": "Au Bon Pain"}, "geometry": {"type": "Point", "coordinates": [-73.9400968, 40.8393848]}},
{"type": "Feature", "id": "wXddaMYVrzdwzBukpxGVn2Jpcsg=", "properties": {"ref": "wake-forest-cancer-center", "@spider": "aubonpain", "addr:full": "One Medical Center Blvd", "addr:city": "Winston-Salem", "addr:state": "NC", "addr:postcode": "27157", "phone": "336-713-6998", "website": "http://www.aubonpain.com/stores/wake-forest-cancer-center", "brand": "Au Bon Pain"}, "geometry": {"type": "Point", "coordinates": [-80.2685787, 36.0895869]}},
{"type": "Feature", "id": "5EKZ1yj2do5d7GneFP5o0ymMEqI=", "properties": {"ref": "columbia-university", "@spider": "aubonpain", "addr:full": "1121 St. Nicolas Ave  Lasker Building", "addr:city": "New York", "addr:state": "NY", "addr:postcode": "10032", "phone": "  212-781-0200", "website": "https://www.aubonpain.com/stores/columbia-university", "brand": "Au Bon Pain"}, "geometry": {"type": "Point", "coordinates": [-73.93906299999998, 40.83975179999999]}},
{"type": "Feature", "id": "jmF01MAyxk2sFtBYRTc9ojXgNrE=", "properties": {"ref": "bellevue-hospital", "@spider": "aubonpain", "addr:full": "462 First Ave", "addr:city": "New York", "addr:state": "NY", "addr:postcode": "10116", "phone": "212-481-5321", "website": "https://www.aubonpain.com/stores/bellevue-hospital", "opening_hours": "Mo-Fr 07:00-15:00", "brand": "Au Bon Pain"}, "geometry": {"type": "Point", "coordinates": [-73.9746, 40.7388]}},
{"type": "Feature", "id": "vci502-Pq0P7kdPXwZpr5g50aFc=", "properties": {"ref": "long-island-jewish-mc", "@spider": "aubonpain", "addr:full": "270-05 76th Ave", "addr:city": "New Hyde Park", "addr:state": "NY", "addr:postcode": "11040", "phone": "718-343-0950", "website": "https://www.aubonpain.com/stores/long-island-jewish-mc", "brand": "Au Bon Pain"}, "geometry": {"type": "Point", "coordinates": [-73.7086, 40.754]}},
{"type": "Feature", "id": "J7Mata6t71LfXWMS9WfYJkELTos=", "properties": {"ref": "north-shore-hospital", "@spider": "aubonpain", "addr:full": "300 Community Drive", "addr:city": "Manhasset", "addr:state": "NY", "addr:postcode": "11030", "phone": "516-365-7057", "website": "https://www.aubonpain.com/stores/north-shore-hospital", "opening_hours": "Mo-Th 00:00-00:00; Fr 00:00-22:00; Sa 06:00-22:00; Su 06:00-00:00", "brand": "Au Bon Pain"}, "geometry": {"type": "Point", "coordinates": [-73.7015, 40.7777]}},
{"type": "Feature", "id": "POCOnfSipVTMGlzJrnXFQIxtsGI=", "properties": {"ref": "fountains-lake-success", "@spider": "aubonpain", "addr:full": "1981 Marcus Avenue", "addr:city": "Lake Success", "addr:state": "NY", "addr:postcode": "11042", "phone": "516-502-4343", "website": "https://www.aubonpain.com/stores/fountains-lake-success", "opening_hours": "Mo-Fr 08:00-15:00", "brand": "Au Bon Pain"}, "geometry": {"type": "Point", "coordinates": [-73.6952, 40.7551]}},
{"type": "Feature", "id": "c1EncuPqWKH4e0T5yQazqKsvGO4=", "properties": {"ref": "hofstra-university", "@spider": "aubonpain", "addr:full": "116 California Ave.", "addr:city": "Hempstead", "addr:state": "NY", "addr:postcode": "11549", "phone": "516-463-6539", "website": "https://www.aubonpain.com/stores/hofstra-university", "opening_hours": "Mo-Th 07:30-15:00; Fr 07:30-14:00", "brand": "Au Bon Pain"}, "geometry": {"type": "Point", "coordinates": [-73.5989, 40.7129]}},
{"type": "Feature", "id": "ZLZA6-FP94jAEA1nky-kzP21yOc=", "properties": {"ref": "glens-falls-hospital", "@spider": "aubonpain", "addr:full": "100 Park Street", "addr:city": "Glenn Falls", "addr:state": "NY", "addr:postcode": "12801", "phone": "518-409-9581", "website": "https://www.aubonpain.com/stores/glens-falls-hospital", "opening_hours": "Mo-Su 07:00-17:00", "brand": "Au Bon Pain"}, "geometry": {"type": "Point", "coordinates": [-73.6464, 43.3066]}},
{"type": "Feature", "id": "qHaBGGry2CgaYrUpn8l4lSsDfOo=", "properties": {"ref": "hobart-william-smith", "@spider": "aubonpain", "addr:full": "300 Pulteney St.", "addr:city": "Geneva", "addr:state": "NY", "addr:postcode": "14456", "phone": "315-781-4200", "website": "https://www.aubonpain.com/stores/hobart-william-smith", "opening_hours": "Mo-Th 07:30-22:00; Fr 07:30-15:00", "brand": "Au Bon Pain"}, "geometry": {"type": "Point", "coordinates": [-76.9856, 42.859]}},
{"type": "Feature", "id": "yn4rYp-rUz-nq0bfJIZgXx8IKnI=", "properties": {"ref": "elmhurst-hospital", "@spider": "aubonpain", "addr:full": "79-01 Broadway", "addr:city": "Elmhurst", "addr:state": "NY", "addr:postcode": "11371", "phone": "718-779-2033", "website": "https://www.aubonpain.com/stores/elmhurst-hospital", "opening_hours": "24/7", "brand": "Au Bon Pain"}, "geometry": {"type": "Point", "coordinates": [-73.8855, 40.7451]}},
{"type": "Feature", "id": "1QQ2kv1JkzTSx9ON8c-q2uBwB9k=", "properties": {"ref": "macy-s-temporarily-closed", "@spider": "aubonpain", "addr:full": "151 West 34th Street - 8th Fl", "addr:city": "New York", "addr:state": "NY", "addr:postcode": "10001", "phone": "212-244-5573", "website": "http://www.aubonpain.com/stores/macy-s-temporarily-closed", "opening_hours": "Mo-Th 10:00-19:00; Fr-Sa 10:00-20:00; Su 10:00-19:00", "brand": "Au Bon Pain"}, "geometry": {"type": "Point", "coordinates": [-73.9894834, 40.7508025]}},
{"type": "Feature", "id": "0db8b9KJNE2GfESDx2fxCiTeb0Q=", "properties": {"ref": "university-buffalo", "@spider": "aubonpain", "addr:full": "North Campus, Greiner Hall", "addr:city": "Buffalo ", "addr:state": "NY", "addr:postcode": "14261", "phone": "716-645-8880", "website": "https://www.aubonpain.com/stores/university-buffalo", "opening_hours": "Mo-Fr 08:00-20:30; Sa-Su 10:30-20:30", "brand": "Au Bon Pain"}, "geometry": {"type": "Point", "coordinates": [-78.7853, 43.007]}},
{"type": "Feature", "id": "J9rc7rTeYc7yrsOBHkIpFsmz_Ms=", "properties": {"ref": "metro-tech", "@spider": "aubonpain", "addr:full": "70 Myrtle Ave", "addr:city": "Brooklyn", "addr:state": "NY", "addr:postcode": "11201", "phone": "718-624-9598", "website": "https://www.aubonpain.com/stores/metro-tech", "opening_hours": "Mo-Fr 06:00-18:00", "brand": "Au Bon Pain"}, "geometry": {"type": "Point", "coordinates": [-73.9865, 40.6936]}},
{"type": "Feature", "id": "CzWiG7PGj_Bo-dufHhjT8ciGTtk=", "properties": {"ref": "coney-island-hospital", "@spider": "aubonpain", "addr:full": "2601 Ocean Parkway", "addr:city": "Brooklyn", "addr:state": "NY", "addr:postcode": "11235", "phone": "718-676-2820", "website": "https://www.aubonpain.com/stores/coney-island-hospital", "brand": "Au Bon Pain"}, "geometry": {"type": "Point", "coordinates": [-73.9655, 40.5854]}},
{"type": "Feature", "id": "Bd9Wjvxxb9kkyrDui8oQWKNJBvI=", "properties": {"ref": "bellevue-hospital-h-building", "@spider": "aubonpain", "addr:full": "462 First Ave", "addr:city": "New York", "addr:state": "NY", "addr:postcode": "10116", "phone": "212-213-0760", "website": "http://www.aubonpain.com/stores/bellevue-hospital-h-building", "opening_hours": "24/7", "brand": "Au Bon Pain"}, "geometry": {"type": "Point", "coordinates": [-73.9754976, 40.739217]}},
{"type": "Feature", "id": "3lDN19rFbyqqJ4RTWPSahBhC8qs=", "properties": {"ref": "jacobi-mc-south-house-bldg", "@spider": "aubonpain", "addr:full": "1400 Pelham Parkway South, Store House Building", "addr:city": "Bronx", "addr:state": "NY", "addr:postcode": "10461", "phone": "718-931-1458", "website": "https://www.aubonpain.com/stores/jacobi-mc-south-house-bldg", "opening_hours": "24/7", "brand": "Au Bon Pain"}, "geometry": {"type": "Point", "coordinates": [-73.8474, 40.856]}},
{"type": "Feature", "id": "lrrWoVMHfZVT4K6D7gnRubZVcwk=", "properties": {"ref": "long-island-jewish-womans-hospital", "@spider": "aubonpain", "addr:full": "270-05 76th Ave", "addr:city": "New Hyde Park", "addr:state": "NY", "addr:postcode": "11040", "phone": "718-347-1409", "website": "http://www.aubonpain.com/stores/long-island-jewish-womans-hospital", "opening_hours": "Mo-Su 06:00-23:00", "brand": "Au Bon Pain"}, "geometry": {"type": "Point", "coordinates": [-73.7072296, 40.7532584]}},
{"type": "Feature", "id": "I7s5ootCx-hfg6DKzAlvqXyojlA=", "properties": {"ref": "bronx-college-brown-student-center", "@spider": "aubonpain", "addr:full": "Roscoe C. Brown Student Center; 2155 University Ave", "addr:city": "Bronx", "addr:state": "NY", "addr:postcode": "10453", "phone": "347-393-2020", "website": "https://www.aubonpain.com/stores/bronx-college-brown-student-center", "brand": "Au Bon Pain"}, "geometry": {"type": "Point", "coordinates": [-73.9121, 40.8581]}},
{"type": "Feature", "id": "9tPFMNa4VMZmMapIlAyRj8GETGw=", "properties": {"ref": "lij-cohen", "@spider": "aubonpain", "addr:full": "269-01 76th Ave", "addr:city": "New Hyde Park", "addr:state": "NY", "addr:postcode": "11040", "phone": "718-343-3196", "website": "http://www.aubonpain.com/stores/lij-cohen", "brand": "Au Bon Pain"}, "geometry": {"type": "Point", "coordinates": [-73.7084484, 40.7541753]}},
{"type": "Feature", "id": "YPrFwLUuPmovqxdlm1IjLTRFPSM=", "properties": {"ref": "lij-hillside", "@spider": "aubonpain", "addr:full": "270-05 76th Ave", "addr:city": "New Hyde Park", "addr:state": "NY", "addr:postcode": "11040", "phone": "718-343-3209", "website": "http://www.aubonpain.com/stores/lij-hillside", "opening_hours": "Mo-Fr 07:00-15:00", "brand": "Au Bon Pain"}, "geometry": {"type": "Point", "coordinates": [-73.7072296, 40.7532584]}},
{"type": "Feature", "id": "vDvH8yWcDDY5AfKSYKTk1fXEj6Q=", "properties": {"ref": "empire-plaza-kiosk", "@spider": "aubonpain", "addr:full": "One Empire State Plaza, Main Concourse, Suite 138", "addr:city": "Albany", "addr:state": "NY", "addr:postcode": "12242", "phone": "518-434-0427", "website": "https://www.aubonpain.com/stores/empire-plaza-kiosk", "brand": "Au Bon Pain"}, "geometry": {"type": "Point", "coordinates": [-73.7603, 42.6506]}},
{"type": "Feature", "id": "8M9hFIPFQR5DGLqSDWVLx8ewY3I=", "properties": {"ref": "kean-university", "@spider": "aubonpain", "addr:full": "1000 Morris Ave The Academic Building", "addr:city": "Union ", "addr:state": "NJ", "addr:postcode": "07083", "phone": "908-737-6292", "website": "https://www.aubonpain.com/stores/kean-university", "brand": "Au Bon Pain"}, "geometry": {"type": "Point", "coordinates": [-74.2342865, 40.678071]}},
{"type": "Feature", "id": "4jOQyDWPQPbSYA-abrHTeCqZcSY=", "properties": {"ref": "richard-stockton-college", "@spider": "aubonpain", "addr:full": "Rt.575 & Jimmie Leeds Road", "addr:city": "Pomona", "addr:state": "NJ", "addr:postcode": "08246", "phone": "609-652-4364", "website": "https://www.aubonpain.com/stores/richard-stockton-college", "brand": "Au Bon Pain"}, "geometry": {"type": "Point", "coordinates": [-74.5314, 39.4921]}},
{"type": "Feature", "id": "qKElUMe7Sh7wHiFxnjU9sPg54TU=", "properties": {"ref": "st-josephs-hospital", "@spider": "aubonpain", "addr:full": "703 Main st.", "addr:city": "Paterson", "addr:state": "NJ", "addr:postcode": "07503", "phone": "973-278-4162", "website": "https://www.aubonpain.com/stores/st-josephs-hospital", "opening_hours": "Mo-Fr 06:00-21:00; Sa-Su 06:00-15:00", "brand": "Au Bon Pain"}, "geometry": {"type": "Point", "coordinates": [-74.1661, 40.9022]}},
{"type": "Feature", "id": "5rbmDZkKjnjnrHZw2EvSvVBf3Es=", "properties": {"ref": "101-hudson", "@spider": "aubonpain", "addr:full": "Bank One Ctr.", "addr:city": "Jersey City", "addr:state": "NJ", "addr:postcode": "07302", "phone": "201-200-1867", "website": "https://www.aubonpain.com/stores/101-hudson", "opening_hours": "Mo-Fr 06:30-15:00", "brand": "Au Bon Pain"}, "geometry": {"type": "Point", "coordinates": [-74.035, 40.7161]}},
{"type": "Feature", "id": "Wu_hKtoYTNVIETwIKd8AnC7Alms=", "properties": {"ref": "rowan-university-kiosk", "@spider": "aubonpain", "addr:full": "201 Mullica Hill Rd.", "addr:city": "Glassboro", "addr:state": "NJ", "addr:postcode": "08028", "phone": "267-290-7838", "website": "https://www.aubonpain.com/stores/rowan-university-kiosk", "brand": "Au Bon Pain"}, "geometry": {"type": "Point", "coordinates": [-75.1206, 39.7097]}},
{"type": "Feature", "id": "7waT0vAyBo9gXya_D3MXiIHl-ss=", "properties": {"ref": "jfk-medical-center", "@spider": "aubonpain", "addr:full": "65 James Street", "addr:city": "Edison", "addr:state": "NJ", "addr:postcode": "08820", "phone": "845-928-4516", "website": "https://www.aubonpain.com/stores/jfk-medical-center", "opening_hours": "Mo 08:30-16:30; Tu 08:30-16:00; We-Fr 08:30-16:30", "brand": "Au Bon Pain"}, "geometry": {"type": "Point", "coordinates": [-74.3504, 40.5566]}},
{"type": "Feature", "id": "IWtxAz_hxJ_0X6iktdQm8eT82N0=", "properties": {"ref": "dartmouth-hitchcock-medical-center", "@spider": "aubonpain", "addr:full": "One Medical Center Drive", "addr:city": "Lebanon", "addr:state": "NH", "addr:postcode": "03766", "phone": "603-650-9228", "website": "https://www.aubonpain.com/stores/dartmouth-hitchcock-medical-center", "opening_hours": "Mo-Fr 07:00-17:00; Sa 08:00-15:00", "brand": "Au Bon Pain"}, "geometry": {"type": "Point", "coordinates": [-72.2735, 43.6759]}},
{"type": "Feature", "id": "Y8wOc-CuNAY89cKu3NlwKBbr0-M=", "properties": {"ref": "st-louis-convention-center", "@spider": "aubonpain", "addr:full": "701 Convention Plaza", "addr:city": "St. Louis", "addr:state": "MO", "addr:postcode": "63101", "phone": "314-342-5157", "website": "https://www.aubonpain.com/stores/st-louis-convention-center", "brand": "Au Bon Pain"}, "geometry": {"type": "Point", "coordinates": [-90.1911, 38.6311]}},
{"type": "Feature", "id": "nffI8V8IeSr-81G2xcgBG3ZXSkw=", "properties": {"ref": "missouri-st", "@spider": "aubonpain", "addr:full": "1104 N. Rolla Street", "addr:city": "Rolla", "addr:state": "MO", "addr:postcode": "65401", "phone": "573-341-7852", "website": "https://www.aubonpain.com/stores/missouri-st", "opening_hours": "Mo-Fr 07:00-13:30", "brand": "Au Bon Pain"}, "geometry": {"type": "Point", "coordinates": [-91.7717, 37.9531]}},
{"type": "Feature", "id": "oaQvkA9FdS1AH6As-KGP2qlRznM=", "properties": {"ref": "stonehill-college", "@spider": "aubonpain", "addr:full": "320 Washington St", "addr:city": "Easton", "addr:state": "MA", "addr:postcode": "02357", "website": "https://www.aubonpain.com/stores/stonehill-college", "opening_hours": "Mo-Th 08:00-19:00; Fr 08:00-17:00; Sa 10:00-15:00", "brand": "Au Bon Pain"}, "geometry": {"type": "Point", "coordinates": [-71.08062760000001, 42.0590153]}},
{"type": "Feature", "id": "mQMFjIRKbnOUGRWrQ01CUod1a3U=", "properties": {"ref": "tufts-medical-center", "@spider": "aubonpain", "addr:full": "800 Washington Street", "addr:city": "Boston", "addr:state": "MA", "addr:postcode": "02111", "phone": "617-636-4470", "website": "https://www.aubonpain.com/stores/tufts-medical-center", "opening_hours": "24/7", "brand": "Au Bon Pain"}, "geometry": {"type": "Point", "coordinates": [-71.0631, 42.3495]}},
{"type": "Feature", "id": "UaoMjZ-avXeqY-bI-Y650Ocmpro=", "properties": {"ref": "south-station", "@spider": "aubonpain", "addr:full": "640 Atlantic Ave., South Station", "addr:city": "Boston", "addr:state": "MA", "addr:postcode": "02110", "phone": "617-345-0427", "website": "https://www.aubonpain.com/stores/south-station", "opening_hours": "Mo-Fr 06:30-19:00; Sa-Su 07:00-15:00", "brand": "Au Bon Pain"}, "geometry": {"type": "Point", "coordinates": [-71.0552, 42.3517]}},
{"type": "Feature", "id": "pdi8Zdqi3OTB93z96DasmzyxMds=", "properties": {"ref": "park-plaza", "@spider": "aubonpain", "addr:full": "26 Park Plaza", "addr:city": "Boston", "addr:state": "MA", "addr:postcode": "02116", "phone": "617-338-8948", "website": "https://www.aubonpain.com/stores/park-plaza", "opening_hours": "Mo-Su 07:00-15:00", "brand": "Au Bon Pain"}, "geometry": {"type": "Point", "coordinates": [-71.0691, 42.3514]}},
{"type": "Feature", "id": "fpzCSJ0FFl0A3pJaWmHmxGbwoE8=", "properties": {"ref": "one-international-place", "@spider": "aubonpain", "addr:full": "One International Place - Corner High & Oliver", "addr:city": "Boston", "addr:state": "MA", "addr:postcode": "02110", "phone": "617-439-0116", "website": "https://www.aubonpain.com/stores/one-international-place", "opening_hours": "Mo-Fr 07:00-15:00", "brand": "Au Bon Pain"}, "geometry": {"type": "Point", "coordinates": [-71.0528, 42.3561]}},
{"type": "Feature", "id": "XDp_zPk9bwL6gkYhgEiovWoSqN0=", "properties": {"ref": "empire-state-plaza-satellite", "@spider": "aubonpain", "addr:full": "One Empire State Plaza Main Concorse Suite 113", "addr:city": "Albany", "addr:state": "NY", "addr:postcode": "12242", "phone": "518.436.3835", "website": "http://www.aubonpain.com/stores/empire-state-plaza-satellite", "opening_hours": "Mo-Fr 07:00-15:00", "brand": "Au Bon Pain"}, "geometry": {"type": "Point", "coordinates": [-73.759868, 42.650122]}},
{"type": "Feature", "id": "UUqPypnlwtOWo0XgyzcWR-rBLZQ=", "properties": {"ref": "childrens-hospital-boston", "@spider": "aubonpain", "addr:full": "300 Longwood Ave", "addr:city": "Boston", "addr:state": "MA", "addr:postcode": "02115", "phone": "617-734-0451", "website": "https://www.aubonpain.com/stores/childrens-hospital-boston", "opening_hours": "24/7", "brand": "Au Bon Pain"}, "geometry": {"type": "Point", "coordinates": [-71.1053, 42.3373]}},
{"type": "Feature", "id": "WSnPmti__T428WyMi-96-3c8c0s=", "properties": {"ref": "brigham-womens-hospital", "@spider": "aubonpain", "addr:full": "75 Francis St.", "addr:city": "Boston", "addr:state": "MA", "addr:postcode": "02116", "phone": "617-739-6860", "website": "https://www.aubonpain.com/stores/brigham-womens-hospital", "opening_hours": "24/7", "brand": "Au Bon Pain"}, "geometry": {"type": "Point", "coordinates": [-71.1066, 42.3358]}},
{"type": "Feature", "id": "FQ1mIpxMIw30opB9kSI6B2Qq6Pw=", "properties": {"ref": "101-merrimac", "@spider": "aubonpain", "addr:full": "101 Merrimac St.", "addr:city": "Boston", "addr:state": "MA", "addr:postcode": "02114", "phone": "617-248-9441", "website": "https://www.aubonpain.com/stores/101-merrimac", "opening_hours": "Mo-Fr 07:00-15:00", "brand": "Au Bon Pain"}, "geometry": {"type": "Point", "coordinates": [-71.0617, 42.3639]}},
{"type": "Feature", "id": "EOWK9_D4XyIwZ4CoE31jpGfSoSo=", "properties": {"ref": "towson-university", "@spider": "aubonpain", "addr:full": "Hawkins Hall - 8000 York Rd.", "addr:city": "Towson", "addr:state": "MD", "addr:postcode": "21252", "phone": "410-704-2092", "website": "https://www.aubonpain.com/stores/towson-university", "opening_hours": "Mo-Fr 11:00-17:00", "brand": "Au Bon Pain"}, "geometry": {"type": "Point", "coordinates": [-76.6094, 39.3941]}},
{"type": "Feature", "id": "DZ83aVIjesCrIo1HTV8Xloeq0ys=", "properties": {"ref": "ummc-paca", "@spider": "aubonpain", "addr:full": "110 S. Paca Street", "addr:city": "Baltimore", "addr:state": "MD", "addr:postcode": "21201", "phone": "410-244-1937", "website": "https://www.aubonpain.com/stores/ummc-paca", "opening_hours": "Mo-Fr 07:00-16:00", "brand": "Au Bon Pain"}, "geometry": {"type": "Point", "coordinates": [-76.6224888, 39.2866121]}},
{"type": "Feature", "id": "wkahbYvTnns_4VYTMnqN0tRF6nI=", "properties": {"ref": "university-maryland-mc", "@spider": "aubonpain", "addr:full": "22 S. Green Street", "addr:city": "Baltimore", "addr:state": "MD", "addr:postcode": "21201", "phone": "410-685-1976", "website": "https://www.aubonpain.com/stores/university-maryland-mc", "opening_hours": "24/7", "brand": "Au Bon Pain"}, "geometry": {"type": "Point", "coordinates": [-76.6239, 39.2883]}},
{"type": "Feature", "id": "WnLfCUi_AEdNaQVQCBMDxMEMSc8=", "properties": {"ref": "northern-kentucky-university", "@spider": "aubonpain", "addr:full": "New Health Center  100 Nunn Drive", "addr:city": "Highland Heights", "addr:state": "KY", "addr:postcode": "41099", "phone": "859-786-9730", "website": "https://www.aubonpain.com/stores/northern-kentucky-university", "opening_hours": "Mo-Fr 07:30-14:00", "brand": "Au Bon Pain"}, "geometry": {"type": "Point", "coordinates": [-84.46192099999996, 39.030449]}},
{"type": "Feature", "id": "vfjVdc9h0Hs4eoyfhmoECvBYOjA=", "properties": {"ref": "principal-franchise-temporarily-closed", "@spider": "aubonpain", "addr:full": "711 High Street", "addr:city": "Des Moines", "addr:state": "IA", "addr:postcode": "50392", "phone": "515-208-1339", "website": "https://www.aubonpain.com/stores/principal-franchise-temporarily-closed", "brand": "Au Bon Pain"}, "geometry": {"type": "Point", "coordinates": [-93.62761569999999, 41.5882758]}},
{"type": "Feature", "id": "buNbghw6nSrjqBeYsNJNxPrHkcY=", "properties": {"ref": "hesburgh-library-notre-dame-0", "@spider": "aubonpain", "addr:full": "125 Hesburgh Center Notre Dame Ave.", "addr:city": "Notre Dame", "addr:state": "IN", "addr:postcode": "46556", "phone": "574-631-9939", "website": "https://www.aubonpain.com/stores/hesburgh-library-notre-dame-0", "opening_hours": "Mo-Th 07:00-21:00; Fr 07:00-18:00; Sa 09:00-17:00; Su 12:00-21:00", "brand": "Au Bon Pain"}, "geometry": {"type": "Point", "coordinates": [-86.2341022, 41.7025302]}},
{"type": "Feature", "id": "F8ZH7-APiuKvcWkX_p9-rv2P_Sg=", "properties": {"ref": "university-of-notre-dame-debartolo-auditorium-franchise-temporarily-closed", "@spider": "aubonpain", "addr:full": "100 Performing Arts Center", "addr:city": "Notre Dame", "addr:state": "IN", "addr:postcode": "46556", "phone": "574-631-7611", "website": "https://www.aubonpain.com/stores/university-of-notre-dame-debartolo-auditorium-franchise-temporarily-closed", "brand": "Au Bon Pain"}, "geometry": {"type": "Point", "coordinates": [-86.2367333, 41.6946917]}},
{"type": "Feature", "id": "jhYKc5XRdRGj7RnmjuYRHCDsXoc=", "properties": {"ref": "center-for-culinary-excellence-catering-center-franchise", "@spider": "aubonpain", "addr:full": "100 St. Michael's Dr", "addr:city": "Notre Dame", "addr:state": "IN", "addr:postcode": "46556", "phone": "574-631-8578", "website": "https://www.aubonpain.com/stores/center-for-culinary-excellence-catering-center-franchise", "brand": "Au Bon Pain"}, "geometry": {"type": "Point", "coordinates": [-86.23812370000002, 41.7105029]}},
{"type": "Feature", "id": "w92i1rWKzRR5aJn2-meuLu1hE9Q=", "properties": {"ref": "purdue-university", "@spider": "aubonpain", "addr:full": "Active Learning Center 340 Centennial Mall Drive", "addr:city": "Lafayette", "addr:state": "IN", "addr:postcode": "47907", "phone": "765-494-2111", "website": "https://www.aubonpain.com/stores/purdue-university", "opening_hours": "Mo-Th 07:00-22:00; Fr 07:00-16:00; Su 12:00-22:00", "brand": "Au Bon Pain"}, "geometry": {"type": "Point", "coordinates": [-86.9132, 40.4274]}},
{"type": "Feature", "id": "q0bPcSNygh9NCrZrcnObWZIT-pQ=", "properties": {"ref": "methodist-hospital", "@spider": "aubonpain", "addr:full": "1701 Senate Blvd.", "addr:city": "Indianapolis", "addr:state": "IN", "addr:postcode": "46202", "phone": "317-926-5840", "website": "https://www.aubonpain.com/stores/methodist-hospital", "opening_hours": "Mo-Sa 06:00-22:00; Su 08:00-22:00", "brand": "Au Bon Pain"}, "geometry": {"type": "Point", "coordinates": [-86.1623, 39.7894]}},
{"type": "Feature", "id": "FxnwZzK50MW3tUX18t5Qm3vXe1M=", "properties": {"ref": "harvard-vanguard", "@spider": "aubonpain", "addr:full": "133 Brookline Avenue", "addr:city": "Boston", "addr:state": "MA", "addr:postcode": "02215", "phone": "617-421-3950", "website": "http://www.aubonpain.com/stores/harvard-vanguard", "opening_hours": "Mo-Fr 07:00-14:00", "brand": "Au Bon Pain"}, "geometry": {"type": "Point", "coordinates": [-71.1014625, 42.3457154]}},
{"type": "Feature", "id": "o03l90U7PpR1HBN2rUQPs5uH2W0=", "properties": {"ref": "north-central-college", "@spider": "aubonpain", "addr:full": "131 South Loomis St.", "addr:city": "Naperville", "addr:state": "IL", "addr:postcode": "60540", "phone": "630-637-5646", "website": "https://www.aubonpain.com/stores/north-central-college", "opening_hours": "Mo-Fr 07:00-17:00", "brand": "Au Bon Pain"}, "geometry": {"type": "Point", "coordinates": [-88.1428, 41.773]}},
{"type": "Feature", "id": "TCJqQRH2e-tz30CsFHYbiQ_RHcU=", "properties": {"ref": "university-of-illinois-at-chicago-uic", "@spider": "aubonpain", "addr:full": "Behavioral Sciences Building 1007 West Harrison Street", "addr:city": "Chicago ", "addr:state": "IL", "addr:postcode": "60607", "phone": "312-413-5672", "website": "https://www.aubonpain.com/stores/university-of-illinois-at-chicago-uic", "opening_hours": "Mo-Fr 08:00-16:00", "brand": "Au Bon Pain"}, "geometry": {"type": "Point", "coordinates": [-87.6528, 41.8737]}},
{"type": "Feature", "id": "7Ax8tq1T7MlKSQo6KEgslGD5H7s=", "properties": {"ref": "university-of-illinois-chicago-out-patient-care-center", "@spider": "aubonpain", "addr:full": "1801 W. Taylor Street", "addr:city": "Chicago", "addr:state": "IL", "addr:postcode": "60612", "phone": "312-996-8239", "website": "https://www.aubonpain.com/stores/university-of-illinois-chicago-out-patient-care-center", "opening_hours": "Mo-Fr 08:00-15:00", "brand": "Au Bon Pain"}, "geometry": {"type": "Point", "coordinates": [-87.6706974, 41.8697195]}},
{"type": "Feature", "id": "Sk5MmkuPtb49SH2os4474LZpHLw=", "properties": {"ref": "swedish-covenant-hospital", "@spider": "aubonpain", "addr:full": "5145 N. California", "addr:city": "Chicago", "addr:state": "IL", "addr:postcode": "60625", "phone": "773-293-8871", "website": "https://www.aubonpain.com/stores/swedish-covenant-hospital", "opening_hours": "Mo-Fr 06:30-14:30", "brand": "Au Bon Pain"}, "geometry": {"type": "Point", "coordinates": [-87.6987, 41.9759]}},
{"type": "Feature", "id": "ZtzzdlJGbFDEt8tVdD1bc2fqLoY=", "properties": {"ref": "university-of-georgia", "@spider": "aubonpain", "addr:full": "620 South Lumpkin St. Amos Building", "addr:city": "Athens", "addr:state": "GA", "addr:postcode": "30602", "phone": "706-542-9506", "website": "https://www.aubonpain.com/stores/university-of-georgia", "opening_hours": "Mo-Fr 07:00-15:00", "brand": "Au Bon Pain"}, "geometry": {"type": "Point", "coordinates": [-83.3772, 33.9528]}},
{"type": "Feature", "id": "I_65r4VYeFy6uDB6jA-NDbmQFFI=", "properties": {"ref": "memorial-hospital-west-kiosk", "@spider": "aubonpain", "addr:full": "703 N. Flamingo Rd", "addr:city": "Pembroke Pines", "addr:state": "FL", "addr:postcode": "33028", "phone": "954-844-9779", "website": "https://www.aubonpain.com/stores/memorial-hospital-west-kiosk", "opening_hours": "Mo-Fr 06:00-00:00; Sa-Su 07:00-00:00", "brand": "Au Bon Pain"}, "geometry": {"type": "Point", "coordinates": [-80.3096, 26.014]}},
{"type": "Feature", "id": "Sj8wj7MQgXj4pN0hxU7Cu97Lmzc=", "properties": {"ref": "commerce-place", "@spider": "aubonpain", "addr:full": "One South St.", "addr:city": "Baltimore", "addr:state": "MD", "addr:postcode": "21202", "phone": "410-837-9814", "website": "http://www.aubonpain.com/stores/commerce-place", "opening_hours": "Mo-Fr 07:00-15:00", "brand": "Au Bon Pain"}, "geometry": {"type": "Point", "coordinates": [-76.6107647, 39.2892709]}},
{"type": "Feature", "id": "jsmGR55uU_B-0ySAWo_LtTK9dP0=", "properties": {"ref": "miami-international-airport-terminal-a-franchise-temporarily-closed", "@spider": "aubonpain", "addr:full": "Terminal A", "addr:city": "Miami ", "addr:state": "FL", "addr:postcode": "33159", "phone": "786-230-4959", "website": "https://www.aubonpain.com/stores/miami-international-airport-terminal-a-franchise-temporarily-closed", "brand": "Au Bon Pain"}, "geometry": {"type": "Point", "coordinates": [-80.2870509, 25.7958723]}},
{"type": "Feature", "id": "uTf2vLve0B3cpf3yKRJGBHH_UtA=", "properties": {"ref": "west-kendall", "@spider": "aubonpain", "addr:full": "15955 SW 96th Street", "addr:city": "Miami", "addr:state": "FL", "addr:postcode": "33196", "phone": "305-383-3050", "website": "https://www.aubonpain.com/stores/west-kendall", "opening_hours": "Mo-Fr 08:00-17:00", "brand": "Au Bon Pain"}, "geometry": {"type": "Point", "coordinates": [-80.4558, 25.6781]}},
{"type": "Feature", "id": "Ot9IJZZQ5ox3KoJSv4oZtPf299g=", "properties": {"ref": "south-miami-hospital", "@spider": "aubonpain", "addr:full": "6200 SW 73 Street", "addr:city": "Miami", "addr:state": "FL", "addr:postcode": "33143", "phone": "305-668-0151", "website": "https://www.aubonpain.com/stores/south-miami-hospital", "opening_hours": "Mo-Fr 07:00-16:00", "brand": "Au Bon Pain"}, "geometry": {"type": "Point", "coordinates": [-80.2941, 25.7031]}},
{"type": "Feature", "id": "J1cQ4A2sN07lSuw83OIXgnXfqNU=", "properties": {"ref": "over-town-transit", "@spider": "aubonpain", "addr:full": "701 NW 1st CT. Suite G107", "addr:city": "Miami", "addr:state": "FL", "addr:postcode": "33136", "phone": "305-603-8064", "website": "https://www.aubonpain.com/stores/over-town-transit", "opening_hours": "Mo-Fr 06:00-15:00", "brand": "Au Bon Pain"}, "geometry": {"type": "Point", "coordinates": [-80.196599, 25.780863]}},
{"type": "Feature", "id": "qBaoOrhSiGZIuS176H_s-O_jfKE=", "properties": {"ref": "miami-intl-airport-concourse-g", "@spider": "aubonpain", "addr:full": "Terminal G", "addr:city": "Miami", "addr:state": "FL", "addr:postcode": "33159", "phone": "786-295-4097", "website": "https://www.aubonpain.com/stores/miami-intl-airport-concourse-g", "brand": "Au Bon Pain"}, "geometry": {"type": "Point", "coordinates": [-80.2832, 25.7975]}},
{"type": "Feature", "id": "UJCJE3X_BrwpmB3onTxWfq6hb10=", "properties": {"ref": "miami-intl-airport-concourse-d44", "@spider": "aubonpain", "addr:full": "Terminal D44", "addr:city": "Miami", "addr:state": "FL", "addr:postcode": "33159", "phone": "954-261-5134", "website": "https://www.aubonpain.com/stores/miami-intl-airport-concourse-d44", "opening_hours": "Mo-Su 05:00-21:00", "brand": "Au Bon Pain"}, "geometry": {"type": "Point", "coordinates": [-80.2821, 25.7978]}},
{"type": "Feature", "id": "L5l6jXavp_sVfhw2yWeY6Q1jWqU=", "properties": {"ref": "kendall-atrium", "@spider": "aubonpain", "addr:full": "11760 Bird Road", "addr:city": "Miami", "addr:state": "FL", "addr:postcode": "33175", "phone": "786-235-6062", "website": "https://www.aubonpain.com/stores/kendall-atrium", "opening_hours": "Mo-Fr 07:00-17:00", "brand": "Au Bon Pain"}, "geometry": {"type": "Point", "coordinates": [-80.38581210000001, 25.7318713]}},
{"type": "Feature", "id": "dGhNxGLntVAA_eB62hHogMN1QT8=", "properties": {"ref": "st-francis-hospital", "@spider": "aubonpain", "addr:full": "114 Woodland St.", "addr:city": "Hartford", "addr:state": "CT", "addr:postcode": "06105", "phone": "860-241-8980", "website": "https://www.aubonpain.com/stores/st-francis-hospital", "opening_hours": "Mo 06:00-00:00; Tu-Fr 00:00-00:00; Sa 00:00-22:00; Su 07:00-22:00", "brand": "Au Bon Pain"}, "geometry": {"type": "Point", "coordinates": [-72.6985, 41.7735]}},
{"type": "Feature", "id": "IAT4mqHwodftVOTFfxxTDIMxPDo=", "properties": {"ref": "hartford-hospital", "@spider": "aubonpain", "addr:full": "80 Seymour Street", "addr:city": "Hartford", "addr:state": "CT", "addr:postcode": "06102", "phone": "860-241-8260", "website": "https://www.aubonpain.com/stores/hartford-hospital", "opening_hours": "24/7", "brand": "Au Bon Pain"}, "geometry": {"type": "Point", "coordinates": [-72.6793, 41.7542]}},
{"type": "Feature", "id": "y3lTWPTH1PpM_aLoKSGVKQURGWE=", "properties": {"ref": "quinnipiac-university-kiosk-franchise-temporarily-closed", "@spider": "aubonpain", "addr:full": "275 Mt. Carmel Avenue", "addr:city": "Hamden", "addr:state": "CT", "addr:postcode": "06518", "phone": "203-500-9079", "website": "https://www.aubonpain.com/stores/quinnipiac-university-kiosk-franchise-temporarily-closed", "brand": "Au Bon Pain"}, "geometry": {"type": "Point", "coordinates": [-72.8926883, 41.4191748]}},
{"type": "Feature", "id": "H2H8EirCdMTbo-Y6Wi2MgwXiaYs=", "properties": {"ref": "quinnipiac-university", "@spider": "aubonpain", "addr:full": "275 Mt. Carmel Avenue", "addr:city": "Hamden", "addr:state": "CT", "addr:postcode": "06518", "phone": "203-582-8250", "website": "https://www.aubonpain.com/stores/quinnipiac-university", "opening_hours": "Mo-Fr 08:30-14:30", "brand": "Au Bon Pain"}, "geometry": {"type": "Point", "coordinates": [-72.8947, 41.4198]}},
{"type": "Feature", "id": "qyoowvaPzcsMjnVAK94vuxv2FoU=", "properties": {"ref": "aon-building", "@spider": "aubonpain", "addr:full": "Aon Building", "addr:city": "Chicago", "addr:state": "IL", "addr:postcode": "60601", "phone": "312-616-9249", "website": "http://www.aubonpain.com/stores/aon-building", "opening_hours": "Mo-Fr 07:00-14:00", "brand": "Au Bon Pain"}, "geometry": {"type": "Point", "coordinates": [-87.621323, 41.8853531]}},
{"type": "Feature", "id": "9vw5eCHJtw-UA_DiYc8BptrdkSc=", "properties": {"ref": "west-farms-mall-space-e-117", "@spider": "aubonpain", "addr:full": "Space # E-117", "addr:city": "Farmington", "addr:state": "CT", "addr:postcode": "06032", "phone": "860-521-5319", "website": "https://www.aubonpain.com/stores/west-farms-mall-space-e-117", "opening_hours": "Mo-Sa 09:00-19:00; Su 10:00-18:00", "brand": "Au Bon Pain"}, "geometry": {"type": "Point", "coordinates": [-72.7629, 41.7239]}},
{"type": "Feature", "id": "MZSdd2UceKYJfp-chSQSU3HKIvo=", "properties": {"ref": "mercy-hospital-temporarily-closed", "@spider": "aubonpain", "addr:full": "3659 S. Miami Avenue", "addr:city": "Miami", "addr:state": "FL", "addr:postcode": "33133", "phone": "305-854-7313", "website": "http://www.aubonpain.com/stores/mercy-hospital-temporarily-closed", "opening_hours": "Mo-Fr 07:00-19:00", "brand": "Au Bon Pain"}, "geometry": {"type": "Point", "coordinates": [-80.2138033, 25.7401423]}}]}