{"type":"FeatureCollection","features":[{"type": "Feature", "id": "SR8c5hqs2Ekw7ub1bkJfDwr-ffE=", "properties": {"ref": "LA_NOL", "@spider": "averitt", "addr:full": "125 Widgeon Drive", "addr:city": "Saint Rose", "addr:state": "LA", "addr:postcode": "70087", "name": "Averitt New Orleans Service Center", "website": "https://www.averittexpress.com/public/resources/facilityLocator/LA/NOL.jsp", "brand": "Averitt Express"}, "geometry": {"type": "Point", "coordinates": [-90.284089, 29.98909]}},
{"type": "Feature", "id": "9sJUCjd7GKqkNsGG6GYDYOipVpI=", "properties": {"ref": "FL_WPB", "@spider": "averitt", "addr:full": "1311 W. 15th St., Bldg C", "addr:city": "Riviera Beach", "addr:state": "FL", "addr:postcode": "33404", "name": "Averitt West Palm Beach Service Center", "website": "https://www.averittexpress.com/public/resources/facilityLocator/FL/WPB.jsp", "brand": "Averitt Express"}, "geometry": {"type": "Point", "coordinates": [-80.075634, 26.775614]}},
{"type": "Feature", "id": "NUcGT99G305a19R7bN2YUjeyCIM=", "properties": {"ref": "LA_SHR", "@spider": "averitt", "addr:full": "8050 Greenwood Road", "addr:city": "Shreveport", "addr:state": "LA", "addr:postcode": "71119", "name": "Averitt Shreveport Service Center", "website": "https://www.averittexpress.com/public/resources/facilityLocator/LA/SHR.jsp", "brand": "Averitt Express"}, "geometry": {"type": "Point", "coordinates": [-93.930852, 32.446008]}},
{"type": "Feature", "id": "r675BBOXmirnuJlb2vdVeAAm_gQ=", "properties": {"ref": "LA_BTR", "@spider": "averitt", "addr:full": "11601 Reiger Road", "addr:city": "Baton Rouge", "addr:state": "LA", "addr:postcode": "70809", "name": "Averitt Baton Rouge Service Center", "website": "https://www.averittexpress.com/public/resources/facilityLocator/LA/BTR.jsp", "brand": "Averitt Express"}, "geometry": {"type": "Point", "coordinates": [-91.04913, 30.373532]}},
{"type": "Feature", "id": "4EziIaLXEd5oQGTSLOvEC_XkPgg=", "properties": {"ref": "FL_TAM", "@spider": "averitt", "addr:full": "6622 E. Hillsborough Avenue", "addr:city": "Tampa", "addr:state": "FL", "addr:postcode": "33610", "name": "Averitt Tampa Service Center", "website": "https://www.averittexpress.com/public/resources/facilityLocator/FL/TAM.jsp", "brand": "Averitt Express"}, "geometry": {"type": "Point", "coordinates": [-82.378342, 27.99749]}},
{"type": "Feature", "id": "uOxKT4unYgAqwaKbiHIRHayxSUU=", "properties": {"ref": "FL_JAX", "@spider": "averitt", "addr:full": "7200 Commonwealth Ave", "addr:city": "Jacksonville", "addr:state": "FL", "addr:postcode": "32220", "name": "Averitt Jacksonville Service Center", "website": "https://www.averittexpress.com/public/resources/facilityLocator/FL/JAX.jsp", "brand": "Averitt Express"}},
{"type": "Feature", "id": "9kjiAWoeYb6hfVmVag6nxyirbgk=", "properties": {"ref": "FL_FMY", "@spider": "averitt", "addr:full": "9024 High Cotton Lane", "addr:city": "Fort Myers", "addr:state": "FL", "addr:postcode": "33905", "name": "Averitt Fort Myers Service Center", "website": "https://www.averittexpress.com/public/resources/facilityLocator/FL/FMY.jsp", "brand": "Averitt Express"}, "geometry": {"type": "Point", "coordinates": [-95.677068, 37.0625]}},
{"type": "Feature", "id": "GH1Y6UOK5aWw_CLuSjyHa8i4PFg=", "properties": {"ref": "AL_BHM", "@spider": "averitt", "addr:full": "4500 Birmingham St", "addr:city": "Birmingham", "addr:state": "AL", "addr:postcode": "35217", "name": "Averitt Birmingham Service Center", "website": "https://www.averittexpress.com/public/resources/facilityLocator/AL/BHM.jsp", "brand": "Averitt Express"}, "geometry": {"type": "Point", "coordinates": [-86.765178, 33.571642]}},
{"type": "Feature", "id": "q-IvFty7f8yvdxvikwDgC5M-VPc=", "properties": {"ref": "WI_MWK", "@spider": "averitt", "addr:full": "1500 W Zellmann Court", "addr:city": "Milwaukee", "addr:state": "WI", "addr:postcode": "53221", "name": "Averitt Milwaukee Service Center", "website": "https://www.averittexpress.com/public/resources/facilityLocator/WI/MWK.jsp", "brand": "Averitt Express"}, "geometry": {"type": "Point", "coordinates": [-97.176183, 31.466805]}},
{"type": "Feature", "id": "cgzduqFhPXPg_QwGxP94DqYXCFk=", "properties": {"ref": "FL_TAL", "@spider": "averitt", "addr:full": "4521 Moore Circle", "addr:city": "Tallahassee", "addr:state": "FL", "addr:postcode": "32304", "name": "Averitt Tallahassee Service Center", "website": "https://www.averittexpress.com/public/resources/facilityLocator/FL/TAL.jsp", "brand": "Averitt Express"}, "geometry": {"type": "Point", "coordinates": [-95.677068, 37.0625]}},
{"type": "Feature", "id": "Lh4_iykab5jf-DMV8o4dtijqEUA=", "properties": {"ref": "FL_ORL", "@spider": "averitt", "addr:full": "11125 Palmbay Drive", "addr:city": "Orlando", "addr:state": "FL", "addr:postcode": "32824", "name": "Averitt Orlando Service Center", "website": "https://www.averittexpress.com/public/resources/facilityLocator/FL/ORL.jsp", "brand": "Averitt Express"}, "geometry": {"type": "Point", "coordinates": [-80.339706, 26.127826]}},
{"type": "Feature", "id": "Uvow8jbpQauoZ-ZAZShdWeuxHxw=", "properties": {"ref": "FL_MIA", "@spider": "averitt", "addr:full": "14291 NW 4th St", "addr:city": "Sunrise", "addr:state": "FL", "addr:postcode": "33325", "name": "Averitt Miami Service Center", "website": "https://www.averittexpress.com/public/resources/facilityLocator/FL/MIA.jsp", "brand": "Averitt Express"}, "geometry": {"type": "Point", "coordinates": [-81.736296, 30.330907]}},
{"type": "Feature", "id": "zsZU5OiM_I0KU3KGjOLSh3k3DnM=", "properties": {"ref": "AR_JBO", "@spider": "averitt", "addr:full": "5940 E Highland Drive", "addr:city": "Jonesboro", "addr:state": "AR", "addr:postcode": "72401", "name": "Averitt Jonesboro Service Center", "website": "https://www.averittexpress.com/public/resources/facilityLocator/AR/JBO.jsp", "brand": "Averitt Express"}, "geometry": {"type": "Point", "coordinates": [-90.660896, 35.843839]}},
{"type": "Feature", "id": "l_o8VxZq0jDFS3UHEIqJg9RNyrk=", "properties": {"ref": "AL_DOT", "@spider": "averitt", "addr:full": "2951 John D Odom Rd", "addr:city": "Dothan", "addr:state": "AL", "addr:postcode": "36303", "name": "Averitt Dothan Service Center", "website": "https://www.averittexpress.com/public/resources/facilityLocator/AL/DOT.jsp", "brand": "Averitt Express"}, "geometry": {"type": "Point", "coordinates": [-85.453157, 31.276451]}},
{"type": "Feature", "id": "dzt99QstqLk_mNi56V4jDDphgSI=", "properties": {"ref": "AL_OPK", "@spider": "averitt", "addr:full": "701 Westpoint Pkwy", "addr:city": "Opelika", "addr:state": "AL", "addr:postcode": "36801", "name": "Averitt Opelika Service Center", "website": "https://www.averittexpress.com/public/resources/facilityLocator/AL/OPK.jsp", "brand": "Averitt Express"}, "geometry": {"type": "Point", "coordinates": [-85.361109, 32.666294]}},
{"type": "Feature", "id": "c2Rh9o-1CcaowmxAVMJMf2dwtVM=", "properties": {"ref": "AL_DEC", "@spider": "averitt", "addr:full": "6300 Greenbrier Parkway NW", "addr:city": "Madison", "addr:state": "AL", "addr:postcode": "35756", "name": "Averitt Decatur Service Center", "website": "https://www.averittexpress.com/public/resources/facilityLocator/AL/DEC.jsp", "brand": "Averitt Express"}, "geometry": {"type": "Point", "coordinates": [-86.842836, 34.646422]}},
{"type": "Feature", "id": "LfnHXHLePLJzKkI-P0JbG730cX8=", "properties": {"ref": "AR_LRK", "@spider": "averitt", "addr:full": "601 Fiber Optic Drive", "addr:city": "North Little Rock", "addr:state": "AR", "addr:postcode": "72117", "name": "Averitt Little Rock Service Center", "website": "https://www.averittexpress.com/public/resources/facilityLocator/AR/LRK.jsp", "brand": "Averitt Express"}, "geometry": {"type": "Point", "coordinates": [-90.620469, 35.820857]}},
{"type": "Feature", "id": "c6I0szti89TITnJ4SW1h8NXJDVk=", "properties": {"ref": "AL_MON", "@spider": "averitt", "addr:full": "10406 US Highway 80 East", "addr:city": "Montgomery", "addr:state": "AL", "addr:postcode": "36117", "name": "Averitt Montgomery Service Center", "website": "https://www.averittexpress.com/public/resources/facilityLocator/AL/MON.jsp", "brand": "Averitt Express"}, "geometry": {"type": "Point", "coordinates": [-88.130608, 30.566631]}},
{"type": "Feature", "id": "oWKmPx61Xxu-DrGENL9Wt6Mg09E=", "properties": {"ref": "AL_GAD", "@spider": "averitt", "addr:full": "4301 Brooke Avenue", "addr:city": "Gadsden", "addr:state": "AL", "addr:postcode": "35904", "name": "Averitt Gadsden Service Center", "website": "https://www.averittexpress.com/public/resources/facilityLocator/AL/GAD.jsp", "brand": "Averitt Express"}, "geometry": {"type": "Point", "coordinates": [-86.077312, 33.99865]}},
{"type": "Feature", "id": "W6XQdY08zjqUeiTyPZvVOP5ZpOc=", "properties": {"ref": "AL_MOB", "@spider": "averitt", "addr:full": "5945 Rangeline Road", "addr:city": "Theodore", "addr:state": "AL", "addr:postcode": "36582", "name": "Averitt Mobile Service Center", "website": "https://www.averittexpress.com/public/resources/facilityLocator/AL/MOB.jsp", "brand": "Averitt Express"}, "geometry": {"type": "Point", "coordinates": [-88.131477, 30.566483]}},
{"type": "Feature", "id": "J-jyZu0V64QK-liln_olbF95I6U=", "properties": {"ref": "MO_STL", "@spider": "averitt", "addr:full": "13923 St Charles Rock Road", "addr:city": "Bridgeton", "addr:state": "MO", "addr:postcode": "63044", "name": "Averitt St. Louis Service Center", "website": "https://www.averittexpress.com/public/resources/facilityLocator/MO/STL.jsp", "brand": "Averitt Express"}, "geometry": {"type": "Point", "coordinates": [-90.463936, 38.781713]}},
{"type": "Feature", "id": "XriHBAP1_u3vKMQwUFDrOxjrj-Y=", "properties": {"ref": "NC_RAL", "@spider": "averitt", "addr:full": "10314 Chapel Hill Road", "addr:city": "Morrisville", "addr:state": "NC", "addr:postcode": "27560", "name": "Averitt Raleigh Service Center", "website": "https://www.averittexpress.com/public/resources/facilityLocator/NC/RAL.jsp", "brand": "Averitt Express"}, "geometry": {"type": "Point", "coordinates": [-78.828095, 35.834915]}},
{"type": "Feature", "id": "6eVJ3BfGmA423cmrPeLty6aAoOM=", "properties": {"ref": "TX_SAT", "@spider": "averitt", "addr:full": "3722 Binz Engleman Road", "addr:city": "San Antonio", "addr:state": "TX", "addr:postcode": "78219", "name": "Averitt San Antonio Service Center", "website": "https://www.averittexpress.com/public/resources/facilityLocator/TX/SAT.jsp", "brand": "Averitt Express"}, "geometry": {"type": "Point", "coordinates": [-102.306329, 31.87539]}},
{"type": "Feature", "id": "eF2yGJrFIJkaoKrHmHG1rd8W3jg=", "properties": {"ref": "TX_WAC", "@spider": "averitt", "addr:full": "679 Alliance Parkway", "addr:city": "Hewitt", "addr:state": "TX", "addr:postcode": "76643", "name": "Averitt Waco Service Center", "website": "https://www.averittexpress.com/public/resources/facilityLocator/TX/WAC.jsp", "brand": "Averitt Express"}, "geometry": {"type": "Point", "coordinates": [-95.196896, 32.440234]}},
{"type": "Feature", "id": "EyNDEHZb9KKXcCOibHO9OTiZTDk=", "properties": {"ref": "OK_TUL", "@spider": "averitt", "addr:full": "15714 East Admiral Place", "addr:city": "Tulsa", "addr:state": "OK", "addr:postcode": "74116", "name": "Averitt Tulsa Service Center", "website": "https://www.averittexpress.com/public/resources/facilityLocator/OK/TUL.jsp", "brand": "Averitt Express"}, "geometry": {"type": "Point", "coordinates": [-95.801286, 36.159637]}},
{"type": "Feature", "id": "62S3BsEQ9fwStqpvuflB3l-W-YE=", "properties": {"ref": "TN_NAS", "@spider": "averitt", "addr:full": "One Averitt Express Drive", "addr:city": "Nashville", "addr:state": "TN", "addr:postcode": "37211", "name": "Averitt Nashville Service Center", "website": "https://www.averittexpress.com/public/resources/facilityLocator/TN/NAS.jsp", "brand": "Averitt Express"}},
{"type": "Feature", "id": "sgCY0I9V99QX5h2OPokWI_7Bm0M=", "properties": {"ref": "TX_TYL", "@spider": "averitt", "addr:full": "12119 Highway 155 North", "addr:city": "Tyler", "addr:state": "TX", "addr:postcode": "75708", "name": "Averitt Tyler Service Center", "website": "https://www.averittexpress.com/public/resources/facilityLocator/TX/TYL.jsp", "brand": "Averitt Express"}, "geometry": {"type": "Point", "coordinates": [-98.422437, 29.456456]}},
{"type": "Feature", "id": "g_3zH94-Xi-IMGiPA4z0zEMocxk=", "properties": {"ref": "TN_TRI", "@spider": "averitt", "addr:full": "535 Eastern Star Road", "addr:city": "Kingsport", "addr:state": "TN", "addr:postcode": "37663", "name": "Averitt Tri-Cities Service Center", "website": "https://www.averittexpress.com/public/resources/facilityLocator/TN/TRI.jsp", "brand": "Averitt Express"}, "geometry": {"type": "Point", "coordinates": [-86.72026, 36.108555]}},
{"type": "Feature", "id": "9_ZY4OrKbYM7XGssbAK7JDML104=", "properties": {"ref": "TX_WFS", "@spider": "averitt", "addr:full": "1415 Neal St.", "addr:city": "Cookeville", "addr:state": "TN", "addr:postcode": "38502-3166", "website": "https://www.averittexpress.com/public/resources/facilityLocator/TX/WFS.jsp", "brand": "Averitt Express"}},
{"type": "Feature", "id": "OiuXswNe9Q01XFIgn2baZ0e_fyw=", "properties": {"ref": "NC_GBO", "@spider": "averitt", "addr:full": "1661 Old Greensboro Rd.", "addr:city": "Kernersville", "addr:state": "NC", "addr:postcode": "27284", "name": "Averitt Greensboro Service Center", "website": "https://www.averittexpress.com/public/resources/facilityLocator/NC/GBO.jsp", "brand": "Averitt Express"}},
{"type": "Feature", "id": "a2reuthJ3PRrW_DNAL8Q1_iRZ8Y=", "properties": {"ref": "MS_MER", "@spider": "averitt", "addr:full": "1645 Tommy Webb Drive", "addr:city": "Meridian", "addr:state": "MS", "addr:postcode": "39307", "name": "Averitt Meridian Service Center", "website": "https://www.averittexpress.com/public/resources/facilityLocator/MS/MER.jsp", "brand": "Averitt Express"}, "geometry": {"type": "Point", "coordinates": [-90.1422, 32.251263]}},
{"type": "Feature", "id": "uvqwSSK2YVd-SlffgrQBGVpwNj8=", "properties": {"ref": "NC_CLT", "@spider": "averitt", "addr:full": "3708 Westinghouse Blvd", "addr:city": "Charlotte", "addr:state": "NC", "addr:postcode": "28273", "name": "Averitt Charlotte Service Center", "website": "https://www.averittexpress.com/public/resources/facilityLocator/NC/CLT.jsp", "brand": "Averitt Express"}, "geometry": {"type": "Point", "coordinates": [-80.968745, 35.134001]}},
{"type": "Feature", "id": "58UDGrh3rHckpPP6rJaUKqH6_e8=", "properties": {"ref": "MS_TUP", "@spider": "averitt", "addr:full": "3304 Adams Farm Road", "addr:city": "Belden", "addr:state": "MS", "addr:postcode": "38826", "name": "Averitt Tupelo Service Center", "website": "https://www.averittexpress.com/public/resources/facilityLocator/MS/TUP.jsp", "brand": "Averitt Express"}},
{"type": "Feature", "id": "C8Bp0HyfvoHkk_s8uO-Eq1WudnA=", "properties": {"ref": "NC_ENC", "@spider": "averitt", "addr:full": "1839 Progress Road", "addr:city": "Greenville", "addr:state": "NC", "addr:postcode": "27834", "name": "Averitt Eastern North Carolina Service Center", "website": "https://www.averittexpress.com/public/resources/facilityLocator/NC/ENC.jsp", "brand": "Averitt Express"}, "geometry": {"type": "Point", "coordinates": [-80.96956, 35.133211]}},
{"type": "Feature", "id": "PFkjO0jDAsdXJP3dy2flmN4HaBg=", "properties": {"ref": "NC_FTV", "@spider": "averitt", "addr:full": "2778 Aviation Parkway", "addr:city": "Fayetteville", "addr:state": "NC", "addr:postcode": "28306", "name": "Averitt Fayetteville, NC Service Center", "website": "https://www.averittexpress.com/public/resources/facilityLocator/NC/FTV.jsp", "brand": "Averitt Express"}, "geometry": {"type": "Point", "coordinates": [-78.891256, 34.998214]}},
{"type": "Feature", "id": "jhuYlpO9y9xVkey_uEze_h6D3ow=", "properties": {"ref": "NC_HKY", "@spider": "averitt", "addr:full": "795 A Boundary Street", "addr:city": "Newton", "addr:state": "NC", "addr:postcode": "28658", "name": "Averitt Hickory Service Center", "website": "https://www.averittexpress.com/public/resources/facilityLocator/NC/HKY.jsp", "brand": "Averitt Express"}, "geometry": {"type": "Point", "coordinates": [-81.237073, 35.693552]}},
{"type": "Feature", "id": "UZ9y9s-NdS8zJW_aBHiVN5IRLTY=", "properties": {"ref": "NC_AVL", "@spider": "averitt", "addr:full": "44 Interstate Blvd", "addr:city": "Asheville", "addr:state": "NC", "addr:postcode": "28806", "name": "Averitt Asheville Service Center", "website": "https://www.averittexpress.com/public/resources/facilityLocator/NC/AVL.jsp", "brand": "Averitt Express"}, "geometry": {"type": "Point", "coordinates": [-82.607135, 35.551371]}},
{"type": "Feature", "id": "RyfzBvNtbrb8RrISI4RTKTaxLek=", "properties": {"ref": "TX_MOD", "@spider": "averitt", "addr:full": "6146 Cargo Road", "addr:city": "Odessa", "addr:state": "TX", "addr:postcode": "79762", "name": "Averitt Midland-Odessa Service Center", "website": "https://www.averittexpress.com/public/resources/facilityLocator/TX/MOD.jsp", "brand": "Averitt Express"}, "geometry": {"type": "Point", "coordinates": [-101.835902, 33.614637]}},
{"type": "Feature", "id": "5myhnrPXYWL0uudYzLPMHPuvo1w=", "properties": {"ref": "TX_LUB", "@spider": "averitt", "addr:full": "1302 N. Ash Ave", "addr:city": "Lubbock", "addr:state": "TX", "addr:postcode": "79403", "name": "Averitt Lubbock Service Center", "website": "https://www.averittexpress.com/public/resources/facilityLocator/TX/LUB.jsp", "brand": "Averitt Express"}, "geometry": {"type": "Point", "coordinates": [-101.83488, 33.614573]}},
{"type": "Feature", "id": "sGrO6DbQ2r66vI0YztmVhTp0wdM=", "properties": {"ref": "MS_JMS", "@spider": "averitt", "addr:full": "102 Interstate Drive", "addr:city": "Richland", "addr:state": "MS", "addr:postcode": "39218", "name": "Averitt Jackson, MS Service Center", "website": "https://www.averittexpress.com/public/resources/facilityLocator/MS/JMS.jsp", "brand": "Averitt Express"}, "geometry": {"type": "Point", "coordinates": [-90.143445, 32.249739]}},
{"type": "Feature", "id": "CA5spabB3ei3QEqtXo42mbY5J2Q=", "properties": {"ref": "TX_CRP", "@spider": "averitt", "addr:full": "322 McCampbell Road", "addr:city": "Corpus Christi", "addr:state": "TX", "addr:postcode": "78408", "name": "Averitt Corpus Christi Service Center", "website": "https://www.averittexpress.com/public/resources/facilityLocator/TX/CRP.jsp", "brand": "Averitt Express"}},
{"type": "Feature", "id": "Q1GxCqVVBhufgaC2Yo18MdZwHGw=", "properties": {"ref": "TX_BMT", "@spider": "averitt", "addr:full": "4000 Tulane Road", "addr:city": "Orange", "addr:state": "TX", "addr:postcode": "77630", "name": "Averitt Beaumont Service Center", "website": "https://www.averittexpress.com/public/resources/facilityLocator/TX/BMT.jsp", "brand": "Averitt Express"}, "geometry": {"type": "Point", "coordinates": [-97.633824, 30.28902]}},
{"type": "Feature", "id": "g45GRUx1h3Z2gOC-WQV8x6ZN5r8=", "properties": {"ref": "TX_ELP", "@spider": "averitt", "addr:full": "1411 Don Haskins", "addr:city": "El Paso", "addr:state": "TX", "addr:postcode": "79936", "name": "Averitt El Paso Service Center", "website": "https://www.averittexpress.com/public/resources/facilityLocator/TX/ELP.jsp", "brand": "Averitt Express"}, "geometry": {"type": "Point", "coordinates": [-100.927072, 29.362037]}},
{"type": "Feature", "id": "5zHRTjk-RyuT6z1OILahxGb10NM=", "properties": {"ref": "TX_LAR", "@spider": "averitt", "addr:full": "11921 Conley Road", "addr:city": "Laredo", "addr:state": "TX", "addr:postcode": "78045", "name": "Averitt Laredo Service Center", "website": "https://www.averittexpress.com/public/resources/facilityLocator/TX/LAR.jsp", "brand": "Averitt Express"}, "geometry": {"type": "Point", "coordinates": [-95.330912, 29.923503]}},
{"type": "Feature", "id": "VGZZJvivwIAdOdW0TUj7atokpv4=", "properties": {"ref": "TX_HOU", "@spider": "averitt", "addr:full": "14070 JFK Blvd", "addr:city": "Houston", "addr:state": "TX", "addr:postcode": "77032", "name": "Averitt Houston Service Center", "website": "https://www.averittexpress.com/public/resources/facilityLocator/TX/HOU.jsp", "brand": "Averitt Express"}, "geometry": {"type": "Point", "coordinates": [-97.82733, 26.166146]}},
{"type": "Feature", "id": "p5Slbwoz3wAQ1ELNG4G4RiFze2M=", "properties": {"ref": "TX_HAR", "@spider": "averitt", "addr:full": "800 US Expressway 83", "addr:city": "La Feria", "addr:state": "TX", "addr:postcode": "78559", "name": "Averitt Harlingen Service Center", "website": "https://www.averittexpress.com/public/resources/facilityLocator/TX/HAR.jsp", "brand": "Averitt Express"}, "geometry": {"type": "Point", "coordinates": [-97.830462, 26.166743]}},
{"type": "Feature", "id": "Dz53T6WWUSYxkeKF-e5Rf1clz_M=", "properties": {"ref": "TX_DRT", "@spider": "averitt", "addr:full": "553 Finegan Street", "addr:city": "Del Rio", "addr:state": "TX", "addr:postcode": "78840", "name": "Averitt Del Rio Service Center", "website": "https://www.averittexpress.com/public/resources/facilityLocator/TX/DRT.jsp", "brand": "Averitt Express"}},
{"type": "Feature", "id": "DNwJ4B9IbaSZVHXAcG6p4J-GSoE=", "properties": {"ref": "TX_DAL", "@spider": "averitt", "addr:full": "611 W Trinity Blvd", "addr:city": "Grand Prairie", "addr:state": "TX", "addr:postcode": "75050", "name": "Averitt Dallas Service Center", "website": "https://www.averittexpress.com/public/resources/facilityLocator/TX/DAL.jsp", "brand": "Averitt Express"}, "geometry": {"type": "Point", "coordinates": [-97.477516, 27.767866]}},
{"type": "Feature", "id": "DkZ36RnkmKb_7npGyFVOxLjX5aY=", "properties": {"ref": "SC_DAR", "@spider": "averitt", "addr:full": "2305 Mechanicsville Road", "addr:city": "Florence", "addr:state": "SC", "addr:postcode": "29501", "name": "Averitt Darlington Service Center", "website": "https://www.averittexpress.com/public/resources/facilityLocator/SC/DAR.jsp", "brand": "Averitt Express"}, "geometry": {"type": "Point", "coordinates": [-79.787028, 34.243346]}},
{"type": "Feature", "id": "-XzXIDYl3S9aEMPD3QQZ3HIxxkQ=", "properties": {"ref": "TX_AUS", "@spider": "averitt", "addr:full": "2200 Greenhill Drive", "addr:city": "Round Rock", "addr:state": "TX", "addr:postcode": "78664", "name": "Averitt Austin Service Center", "website": "https://www.averittexpress.com/public/resources/facilityLocator/TX/AUS.jsp", "brand": "Averitt Express"}},
{"type": "Feature", "id": "IBl4er4mJixfAe5pD2gsjUk8Ee4=", "properties": {"ref": "SC_CLM", "@spider": "averitt", "addr:full": "190 Foster Brothers Drive", "addr:city": "West Columbia", "addr:state": "SC", "addr:postcode": "29172", "name": "Averitt Columbia Service Center", "website": "https://www.averittexpress.com/public/resources/facilityLocator/SC/CLM.jsp", "brand": "Averitt Express"}, "geometry": {"type": "Point", "coordinates": [-81.078984, 33.914589]}},
{"type": "Feature", "id": "54LmdRDiGc-rANdmG2n8n-rwla8=", "properties": {"ref": "VA_SHE", "@spider": "averitt", "addr:full": "59 Ivy Ridge Lane", "addr:city": "Fishersville", "addr:state": "VA", "addr:postcode": "22939", "name": "Averitt Shenandoah Service Center", "website": "https://www.averittexpress.com/public/resources/facilityLocator/VA/SHE.jsp", "brand": "Averitt Express"}, "geometry": {"type": "Point", "coordinates": [-79.968259, 37.322419]}},
{"type": "Feature", "id": "V6fs14TNRy0xLm7WqMwkR9ksf00=", "properties": {"ref": "VA_WIN", "@spider": "averitt", "addr:full": "170 Muskoka Court", "addr:city": "Winchester", "addr:state": "VA", "addr:postcode": "22602", "name": "Averitt Winchester Service Center", "website": "https://www.averittexpress.com/public/resources/facilityLocator/VA/WIN.jsp", "brand": "Averitt Express"}, "geometry": {"type": "Point", "coordinates": [-78.99304, 38.074354]}},
{"type": "Feature", "id": "a17u9XkTOb7Jyy6zY1XlJh4oRxk=", "properties": {"ref": "SC_GRN", "@spider": "averitt", "addr:full": "775 Berry Shoals Road", "addr:city": "Duncan", "addr:state": "SC", "addr:postcode": "29334", "name": "Averitt Greenville Service Center", "website": "https://www.averittexpress.com/public/resources/facilityLocator/SC/GRN.jsp", "brand": "Averitt Express"}, "geometry": {"type": "Point", "coordinates": [-79.786534, 34.243355]}},
{"type": "Feature", "id": "y7DxlTOvDNrpnFo_d3F-JuqHRmY=", "properties": {"ref": "TX_AMA", "@spider": "averitt", "addr:full": "601 Ross Street", "addr:city": "Amarillo", "addr:state": "TX", "addr:postcode": "79102", "name": "Averitt Amarillo Service Center", "website": "https://www.averittexpress.com/public/resources/facilityLocator/TX/AMA.jsp", "brand": "Averitt Express"}, "geometry": {"type": "Point", "coordinates": [-101.8138, 35.203463]}},
{"type": "Feature", "id": "xx1XK-4iIiHTUTV4eR8BCZFCx6k=", "properties": {"ref": "VA_ROA", "@spider": "averitt", "addr:full": "5259 Aviation Drive NW", "addr:city": "Roanoke", "addr:state": "VA", "addr:postcode": "24012", "name": "Averitt Roanoke Service Center", "website": "https://www.averittexpress.com/public/resources/facilityLocator/VA/ROA.jsp", "brand": "Averitt Express"}, "geometry": {"type": "Point", "coordinates": [-77.423787, 37.395562]}},
{"type": "Feature", "id": "Ptd4NWP0_9JEZ6QYV2Pj4OJ0jEI=", "properties": {"ref": "VA_RMD", "@spider": "averitt", "addr:full": "2400 Galena Ave", "addr:city": "Richmond", "addr:state": "VA", "addr:postcode": "23237", "name": "Averitt Richmond Service Center", "website": "https://www.averittexpress.com/public/resources/facilityLocator/VA/RMD.jsp", "brand": "Averitt Express"}, "geometry": {"type": "Point", "coordinates": [-76.368616, 36.80756]}},
{"type": "Feature", "id": "NFWERudNKkQ4XJz8lxod0-ItIZw=", "properties": {"ref": "OK_OKC", "@spider": "averitt", "addr:full": "5919 S.E. 74th", "addr:city": "Oklahoma City", "addr:state": "OK", "addr:postcode": "73135", "name": "Averitt Oklahoma City Service Center", "website": "https://www.averittexpress.com/public/resources/facilityLocator/OK/OKC.jsp", "brand": "Averitt Express"}, "geometry": {"type": "Point", "coordinates": [-97.417595, 35.392199]}},
{"type": "Feature", "id": "JK-bhrNuTfpwFJWeh-ttPHSo8g0=", "properties": {"ref": "TN_MFS", "@spider": "averitt", "addr:full": "4250 Air Trans Road", "addr:city": "Memphis", "addr:state": "TN", "addr:postcode": "38118", "name": "Averitt Memphis Service Center", "website": "https://www.averittexpress.com/public/resources/facilityLocator/TN/MFS.jsp", "brand": "Averitt Express"}, "geometry": {"type": "Point", "coordinates": [-84.126692, 35.910725]}},
{"type": "Feature", "id": "uBqtTLzLcDZZtSajzfzzPs3KLtY=", "properties": {"ref": "TN_CSC", "@spider": "averitt", "addr:full": "1415 Neal Street", "addr:city": "Cookeville", "addr:state": "TN", "addr:postcode": "38501", "name": "Averitt Corporate Service Center", "website": "https://www.averittexpress.com/public/resources/facilityLocator/TN/CSC.jsp", "brand": "Averitt Express"}, "geometry": {"type": "Point", "coordinates": [-85.477324, 36.150126]}},
{"type": "Feature", "id": "Q521eKseT2kK3unnDzKw_sLPGmg=", "properties": {"ref": "TN_FAY", "@spider": "averitt", "addr:full": "800 Amana Avenue", "addr:city": "Fayetteville", "addr:state": "TN", "addr:postcode": "37334", "name": "Averitt Fayetteville Service Center", "website": "https://www.averittexpress.com/public/resources/facilityLocator/TN/FAY.jsp", "brand": "Averitt Express"}, "geometry": {"type": "Point", "coordinates": [-85.485923, 36.124106]}},
{"type": "Feature", "id": "RN8tIHYYP70VZ_m8IUabBdbwCqc=", "properties": {"ref": "TN_KNX", "@spider": "averitt", "addr:full": "10207 Cogdill Road", "addr:city": "Knoxville", "addr:state": "TN", "addr:postcode": "37932", "name": "Averitt Knoxville Service Center", "website": "https://www.averittexpress.com/public/resources/facilityLocator/TN/KNX.jsp", "brand": "Averitt Express"}, "geometry": {"type": "Point", "coordinates": [-88.887105, 35.667409]}},
{"type": "Feature", "id": "T8HjspF5tAwZr1nBKeJiByJL_nw=", "properties": {"ref": "OH_CIN", "@spider": "averitt", "addr:full": "3818 Turfway Rd", "addr:city": "Cincinnati (Erlanger, KY)", "addr:state": "OH", "addr:postcode": "41018", "name": "Averitt Cincinnati Service Center", "website": "https://www.averittexpress.com/public/resources/facilityLocator/OH/CIN.jsp", "brand": "Averitt Express"}, "geometry": {"type": "Point", "coordinates": [-84.641376, 39.031853]}},
{"type": "Feature", "id": "Cx_c6O4bN8JMHhDg3dr6xtB0Qxc=", "properties": {"ref": "TN_JKN", "@spider": "averitt", "addr:full": "2093 Express Drive", "addr:city": "Jackson", "addr:state": "TN", "addr:postcode": "38305", "name": "Averitt Jackson Service Center", "website": "https://www.averittexpress.com/public/resources/facilityLocator/TN/JKN.jsp", "brand": "Averitt Express"}, "geometry": {"type": "Point", "coordinates": [-86.578918, 35.141546]}},
{"type": "Feature", "id": "KLHKMqZKGFOC2uzKFweoQbjBl3Y=", "properties": {"ref": "TN_CKV", "@spider": "averitt", "addr:full": "1199 Salem Road", "addr:city": "Cookeville", "addr:state": "TN", "addr:postcode": "38501", "name": "Averitt Cookeville Service Center", "website": "https://www.averittexpress.com/public/resources/facilityLocator/TN/CKV.jsp", "brand": "Averitt Express"}, "geometry": {"type": "Point", "coordinates": [-85.489254, 36.143974]}},
{"type": "Feature", "id": "KiCIZ594qFa8aKP2jMoQWtY_t9c=", "properties": {"ref": "TN_CHA", "@spider": "averitt", "addr:full": "2140 Chapman Road", "addr:city": "Chattanooga", "addr:state": "TN", "addr:postcode": "37421", "name": "Averitt Chattanooga Service Center", "website": "https://www.averittexpress.com/public/resources/facilityLocator/TN/CHA.jsp", "brand": "Averitt Express"}, "geometry": {"type": "Point", "coordinates": [-85.186357, 35.058579]}},
{"type": "Feature", "id": "eOGarKxbCNryRjh6BecRjFhYuA0=", "properties": {"ref": "TX_ABL", "@spider": "averitt", "addr:full": "702 Arnold Blvd", "addr:city": "Abilene", "addr:state": "TX", "addr:postcode": "79605", "name": "Averitt Abilene Service Center", "website": "https://www.averittexpress.com/public/resources/facilityLocator/TX/ABL.jsp", "brand": "Averitt Express"}, "geometry": {"type": "Point", "coordinates": [-78.155408, 39.141944]}},
{"type": "Feature", "id": "QDjQ4b63Vx5zNzW-QdESjvRwXrM=", "properties": {"ref": "SC_CHR", "@spider": "averitt", "addr:full": "7749 Palmetto Commerce Parkway", "addr:city": "Charleston", "addr:state": "SC", "addr:postcode": "29420", "name": "Averitt Charleston Service Center", "website": "https://www.averittexpress.com/public/resources/facilityLocator/SC/CHR.jsp", "brand": "Averitt Express"}, "geometry": {"type": "Point", "coordinates": [-80.115931, 32.966457]}},
{"type": "Feature", "id": "kHoToSTqybTX_y6mXdE68rMq27U=", "properties": {"ref": "VA_NFK", "@spider": "averitt", "addr:full": "1005 Enterprise Cir", "addr:city": "Chesapeake", "addr:state": "VA", "addr:postcode": "23321", "name": " Norfolk Service Center", "website": "https://www.averittexpress.com/public/resources/facilityLocator/VA/NFK.jsp", "brand": "Averitt Express"}},
{"type": "Feature", "id": "DBj0FQG3o6azGR0KSrgEoyEGzMU=", "properties": {"ref": "CA_LGB", "@spider": "averitt", "addr:full": "3133 W. 131st Street", "addr:city": "Hawthorne", "addr:state": "CA", "addr:postcode": "90250", "name": "Averitt Long Beach Transload Facility Service Center", "website": "https://www.averittexpress.com/public/resources/facilityLocator/CA/LGB.jsp", "brand": "Averitt Express"}, "geometry": {"type": "Point", "coordinates": [-95.677068, 37.0625]}},
{"type": "Feature", "id": "REsvlWX7KpNG83oIHLIdciHdF0w=", "properties": {"ref": "GA_TIF", "@spider": "averitt", "addr:full": "281 Jordan Road", "addr:city": "Tifton", "addr:state": "GA", "addr:postcode": "31794", "name": "Averitt Tifton Service Center", "website": "https://www.averittexpress.com/public/resources/facilityLocator/GA/TIF.jsp", "brand": "Averitt Express"}, "geometry": {"type": "Point", "coordinates": [-83.516564, 31.419911]}},
{"type": "Feature", "id": "xTukwEZq6CKpDjPq99rDklP4xWk=", "properties": {"ref": "PR_PTR", "@spider": "averitt", "addr:full": "Centro Mercantile International Road 165 km 2.4 Bldg 5", "addr:city": "Guaynabo", "addr:state": "PR", "addr:postcode": "00970", "name": "Averitt Guaynabo Service Center", "website": "https://www.averittexpress.com/public/resources/facilityLocator/PR/PTR.jsp", "brand": "Averitt Express"}, "geometry": {"type": "Point", "coordinates": [-66.120744, 18.42681]}},
{"type": "Feature", "id": "JaYb0lDDW3TTJXv1Bs-2_SoQ8Uk=", "properties": {"ref": "GA_SAV", "@spider": "averitt", "addr:full": "301 International Trade Pkwy", "addr:city": "Port Wentworth", "addr:state": "GA", "addr:postcode": "31407", "name": "Averitt Savannah Service Center", "website": "https://www.averittexpress.com/public/resources/facilityLocator/GA/SAV.jsp", "brand": "Averitt Express"}},
{"type": "Feature", "id": "W-G4XPNreYf31p3NMMdbcoNteY0=", "properties": {"ref": "GA_MAC", "@spider": "averitt", "addr:full": "4750 Ivey Drive", "addr:city": "Macon", "addr:state": "GA", "addr:postcode": "31206", "name": "Averitt Macon Service Center", "website": "https://www.averittexpress.com/public/resources/facilityLocator/GA/MAC.jsp", "brand": "Averitt Express"}, "geometry": {"type": "Point", "coordinates": [-83.735368, 32.802111]}},
{"type": "Feature", "id": "QXdGWJTvHDgYeffK7FHJcz0qkwQ=", "properties": {"ref": "IL_PEO", "@spider": "averitt", "addr:full": "5701 West Smithville Road", "addr:city": "Peoria", "addr:state": "IL", "addr:postcode": "61607", "name": "Averitt Peoria Service Center", "website": "https://www.averittexpress.com/public/resources/facilityLocator/IL/PEO.jsp", "brand": "Averitt Express"}},
{"type": "Feature", "id": "8ID9hiEocSfy-IoeU14erXJy5a8=", "properties": {"ref": "GA_AUG", "@spider": "averitt", "addr:full": "526 CDP Industrial Blvd", "addr:city": "Grovetown", "addr:state": "GA", "addr:postcode": "30813", "name": "Averitt Augusta Service Center", "website": "https://www.averittexpress.com/public/resources/facilityLocator/GA/AUG.jsp", "brand": "Averitt Express"}, "geometry": {"type": "Point", "coordinates": [-80.075634, 26.775595]}},
{"type": "Feature", "id": "QDkizML7ngr1pAHS4xeTF1QBSn0=", "properties": {"ref": "KY_MAY", "@spider": "averitt", "addr:full": "58 Powell Road West", "addr:city": "Mayfield", "addr:state": "KY", "addr:postcode": "42066", "name": "Averitt Mayfield Service Center", "website": "https://www.averittexpress.com/public/resources/facilityLocator/KY/MAY.jsp", "brand": "Averitt Express"}, "geometry": {"type": "Point", "coordinates": [-88.651482, 36.817385]}},
{"type": "Feature", "id": "Z4zgikJmLfZha66Ielb2CG2s1-U=", "properties": {"ref": "GA_NOR", "@spider": "averitt", "addr:full": "1156 Old Norcross Road", "addr:city": "Lawrenceville", "addr:state": "GA", "addr:postcode": "30045", "name": "Averitt Atlanta East Service Center", "website": "https://www.averittexpress.com/public/resources/facilityLocator/GA/NOR.jsp", "brand": "Averitt Express"}, "geometry": {"type": "Point", "coordinates": [-83.735969, 32.802083]}},
{"type": "Feature", "id": "t_kBXYl2Rcr0fSgkWNs9gqHXE24=", "properties": {"ref": "KY_OWN", "@spider": "averitt", "addr:full": "3069 Kentronics Drive", "addr:city": "Owensboro", "addr:state": "KY", "addr:postcode": "42301", "name": "Averitt Owensboro Service Center", "website": "https://www.averittexpress.com/public/resources/facilityLocator/KY/OWN.jsp", "brand": "Averitt Express"}, "geometry": {"type": "Point", "coordinates": [-87.151226, 37.784936]}},
{"type": "Feature", "id": "IvAgi44LVWEIwbuhHJpxzeBkIbE=", "properties": {"ref": "GA_FUL", "@spider": "averitt", "addr:full": "5887 Fulton Industrial Blvd", "addr:city": "Atlanta", "addr:state": "GA", "addr:postcode": "30336", "name": "Averitt Atlanta West Service Center", "website": "https://www.averittexpress.com/public/resources/facilityLocator/GA/FUL.jsp", "brand": "Averitt Express"}, "geometry": {"type": "Point", "coordinates": [-84.580758, 33.728623]}},
{"type": "Feature", "id": "cZ6fZKXRp_aBa_67gCKTY7zCA5s=", "properties": {"ref": "KY_LOU", "@spider": "averitt", "addr:full": "4020 McCollum Court", "addr:city": "Louisville", "addr:state": "KY", "addr:postcode": "40218", "name": "Averitt Louisville Service Center", "website": "https://www.averittexpress.com/public/resources/facilityLocator/KY/LOU.jsp", "brand": "Averitt Express"}, "geometry": {"type": "Point", "coordinates": [-85.664939, 38.192627]}},
{"type": "Feature", "id": "BEob2Gs5aFqB1D2PjPyd3g353gk=", "properties": {"ref": "AR_FTS", "@spider": "averitt", "addr:full": "4301 S Zero Street", "addr:city": "Fort Smith", "addr:state": "AR", "addr:postcode": "72903", "name": "Averitt Fort Smith Service Center", "website": "https://www.averittexpress.com/public/resources/facilityLocator/AR/FTS.jsp", "brand": "Averitt Express"}, "geometry": {"type": "Point", "coordinates": [-93.10605340000001, 44.939707500000004]}},
{"type": "Feature", "id": "15omQClDDDzNYc7r8551b34ZHTI=", "properties": {"ref": "KY_LEX", "@spider": "averitt", "addr:full": "1901 Jaggie Fox Way", "addr:city": "Lexington", "addr:state": "KY", "addr:postcode": "40511", "name": "Averitt Lexington Service Center", "website": "https://www.averittexpress.com/public/resources/facilityLocator/KY/LEX.jsp", "brand": "Averitt Express"}, "geometry": {"type": "Point", "coordinates": [-84.519625, 38.093735]}},
{"type": "Feature", "id": "r3Dw6YSRtEuQFuwfvsL5pfeNQXc=", "properties": {"ref": "IL_CHI", "@spider": "averitt", "addr:full": "7526 South State Road", "addr:city": "Burbank", "addr:state": "IL", "addr:postcode": "60459", "name": "Averitt Chicago Service Center", "website": "https://www.averittexpress.com/public/resources/facilityLocator/IL/CHI.jsp", "brand": "Averitt Express"}, "geometry": {"type": "Point", "coordinates": [-87.748597, 41.755979]}},
{"type": "Feature", "id": "6pX0IqhfBs95iUa84DQcx2ZMO88=", "properties": {"ref": "KY_CIN", "@spider": "averitt", "addr:full": "3818 Turfway Rd", "addr:city": "Erlanger", "addr:state": "KY", "addr:postcode": "41018", "name": "Averitt Cincinnati Service Center", "website": "https://www.averittexpress.com/public/resources/facilityLocator/KY/CIN.jsp", "brand": "Averitt Express"}, "geometry": {"type": "Point", "coordinates": [-84.641376, 39.031853]}},
{"type": "Feature", "id": "wx2PcuZHbHarkayGAD0LO_4lEwU=", "properties": {"ref": "KY_COR", "@spider": "averitt", "addr:full": "20 Lagoon Trail", "addr:city": "London", "addr:state": "KY", "addr:postcode": "40741", "name": "Averitt Corbin-London Service Center", "website": "https://www.averittexpress.com/public/resources/facilityLocator/KY/COR.jsp", "brand": "Averitt Express"}, "geometry": {"type": "Point", "coordinates": [-84.068005, 37.109357]}},
{"type": "Feature", "id": "YR7N5tMI2UALmbvSJqSxRP8kVUY=", "properties": {"ref": "KY_BWG", "@spider": "averitt", "addr:full": "455 Bluegrass Farms Blvd", "addr:city": "Bowling Green", "addr:state": "KY", "addr:postcode": "42104", "name": "Averitt Bowling Green Service Center", "website": "https://www.averittexpress.com/public/resources/facilityLocator/KY/BWG.jsp", "brand": "Averitt Express"}, "geometry": {"type": "Point", "coordinates": [-86.41968, 36.927279]}}]}