{"type":"FeatureCollection","features":[{"type": "Feature", "id": "QaA53Ei_zfwPa0jENdGTO3cwMDY=", "properties": {"ref": "Coastal Alabama Community College Bookstore", "@spider": "barnesnoblecollege", "addr:full": "1900 US-31", "addr:city": "Minette", "addr:state": "AL", "addr:postcode": "36507", "addr:country": "US", "name": "Coastal Alabama Community College Bookstore", "website": "https://www.bncollege.com/campus-stores/", "brand": "Barnes & Noble College"}},
{"type": "Feature", "id": "LiPcdb05rpxBgHKiULNb96-T4H0=", "properties": {"ref": "The Phenix City Bookstore", "@spider": "barnesnoblecollege", "addr:full": "1510 Whitewater Ave", "addr:city": "City", "addr:state": "AL", "addr:postcode": "36867", "addr:country": "US", "name": "The Phenix City Bookstore", "website": "https://www.bncollege.com/campus-stores/", "brand": "Barnes & Noble College"}},
{"type": "Feature", "id": "358AgRUDDeIurYSuOVv1Rsj9wKk=", "properties": {"ref": "Central Arizona College \u2013 Superstition Mountain Campus Bookstore", "@spider": "barnesnoblecollege", "addr:full": "805 S Idaho Rd", "addr:city": "Junction", "addr:state": "AZ", "addr:postcode": "85119", "addr:country": "US", "name": "Central Arizona College \u2013 Superstition Mountain Campus Bookstore", "website": "https://www.bncollege.com/campus-stores/", "brand": "Barnes & Noble College"}},
{"type": "Feature", "id": "zl0pseSkYENcfpvaJvCt6Fl2G5o=", "properties": {"ref": "Central Arizona College San Tan Valley Bookstore", "@spider": "barnesnoblecollege", "addr:full": "3736 E Bella Vista Rd", "addr:city": "Tan Valley", "addr:state": "AZ", "addr:postcode": "85143", "addr:country": "US", "name": "Central Arizona College San Tan Valley Bookstore", "website": "https://www.bncollege.com/campus-stores/", "brand": "Barnes & Noble College"}},
{"type": "Feature", "id": "B0c_K_MeDR3bK2LR6iL05YB5bxc=", "properties": {"ref": "Phoenix Country Day School", "@spider": "barnesnoblecollege", "addr:full": "3901 E Stanford Dr", "addr:city": "Valley", "addr:state": "AZ", "addr:postcode": "85253", "addr:country": "US", "name": "Phoenix Country Day School", "website": "https://www.bncollege.com/campus-stores/", "brand": "Barnes & Noble College"}},
{"type": "Feature", "id": "SoL3mbTVveVl5Jl4Kk_td0ccfDs=", "properties": {"ref": "Pusch Ridge Christian Academy", "@spider": "barnesnoblecollege", "addr:full": "9500 N Oracle Rd", "addr:city": "Valley", "addr:state": "AZ", "addr:postcode": "85704", "addr:country": "US", "name": "Pusch Ridge Christian Academy", "website": "https://www.bncollege.com/campus-stores/", "brand": "Barnes & Noble College"}},
{"type": "Feature", "id": "JUGh4sxXF8CS6jzsMveoZalXIlE=", "properties": {"ref": "LSU Alexandria Bookstore", "@spider": "barnesnoblecollege", "addr:full": "8100 US-71 #111", "addr:city": "Smith", "addr:state": "AR", "addr:postcode": "72908", "addr:country": "US", "name": "LSU Alexandria Bookstore", "website": "https://www.bncollege.com/campus-stores/", "brand": "Barnes & Noble College"}},
{"type": "Feature", "id": "ZQ6VvDjHu14K8faV9POkmyY2LPo=", "properties": {"ref": "Southeast Arkansas College Bookstore", "@spider": "barnesnoblecollege", "addr:full": "1900 S Hazel St", "addr:city": "Bluff", "addr:state": "AR", "addr:postcode": "71603", "addr:country": "US", "name": "Southeast Arkansas College Bookstore", "website": "https://www.bncollege.com/campus-stores/", "brand": "Barnes & Noble College"}},
{"type": "Feature", "id": "t6E2mqfUBCfUeHCtETZiTtUd4O0=", "properties": {"ref": "University Of Arkansas at Little Rock Bookstore", "@spider": "barnesnoblecollege", "addr:full": "2801 S University Ave", "addr:city": "Rock", "addr:state": "AR", "addr:postcode": "72204", "addr:country": "US", "name": "University Of Arkansas at Little Rock Bookstore", "website": "https://www.bncollege.com/campus-stores/", "brand": "Barnes & Noble College"}},
{"type": "Feature", "id": "QRUjExIOYoatloCcM7rH0Ipmbf8=", "properties": {"ref": "Antioch University Los Angeles", "@spider": "barnesnoblecollege", "addr:full": "400 Corporate Pointe", "addr:city": "City", "addr:state": "CA", "addr:postcode": "90230", "addr:country": "US", "name": "Antioch University Los Angeles", "website": "https://www.bncollege.com/campus-stores/", "brand": "Barnes & Noble College"}},
{"type": "Feature", "id": "MGcZDAeY6_9nCm6MWnPLAIYaOGU=", "properties": {"ref": "Antioch University Santa Barbara", "@spider": "barnesnoblecollege", "addr:full": "602 Anacapa St", "addr:city": "Barbara", "addr:state": "CA", "addr:postcode": "93101", "addr:country": "US", "name": "Antioch University Santa Barbara", "website": "https://www.bncollege.com/campus-stores/", "brand": "Barnes & Noble College"}},
{"type": "Feature", "id": "rF6VdigKQZygy-Uq0QL3XlFT46s=", "properties": {"ref": "Archbishop Mitty High School", "@spider": "barnesnoblecollege", "addr:full": "5000 Mitty Way", "addr:city": "Jose", "addr:state": "CA", "addr:postcode": "95129", "addr:country": "US", "name": "Archbishop Mitty High School", "website": "https://www.bncollege.com/campus-stores/", "brand": "Barnes & Noble College"}},
{"type": "Feature", "id": "sbH76sLhcXUwv0QXJSaEEsDTPVQ=", "properties": {"ref": "BASIS Independent Silicon Valley", "@spider": "barnesnoblecollege", "addr:full": "1290 Parkmoor Ave", "addr:city": "Jose", "addr:state": "CA", "addr:postcode": "95126", "addr:country": "US", "name": "BASIS Independent Silicon Valley", "website": "https://www.bncollege.com/campus-stores/", "brand": "Barnes & Noble College"}},
{"type": "Feature", "id": "XfXl-nVlkMXbeDf0Czd6Yw5w9KI=", "properties": {"ref": "Bellarmine College Preparatory", "@spider": "barnesnoblecollege", "addr:full": "960 W Hedding St", "addr:city": "Jose", "addr:state": "CA", "addr:postcode": "95126", "addr:country": "US", "name": "Bellarmine College Preparatory", "website": "https://www.bncollege.com/campus-stores/", "brand": "Barnes & Noble College"}},
{"type": "Feature", "id": "TcanJNknt9w97lHS6-u56oOTzKo=", "properties": {"ref": "Cafe LA / Starbucks", "@spider": "barnesnoblecollege", "addr:full": "5154 State University Dr", "addr:city": "Angeles", "addr:state": "CA", "addr:postcode": "90032", "addr:country": "US", "name": "Cafe LA / Starbucks", "website": "https://www.bncollege.com/campus-stores/", "brand": "Barnes & Noble College"}},
{"type": "Feature", "id": "oXBgY49Q9PP_Qu8vn2sdG_Ae8VI=", "properties": {"ref": "Cal State LA Cafe \u201947", "@spider": "barnesnoblecollege", "addr:full": "5151 State University Dr", "addr:city": "Angeles", "addr:state": "CA", "addr:postcode": "90032", "addr:country": "US", "name": "Cal State LA Cafe \u201947", "website": "https://www.bncollege.com/campus-stores/", "brand": "Barnes & Noble College"}},
{"type": "Feature", "id": "LdOrf8YJhNu_x7xVEd9a-QORYQU=", "properties": {"ref": "Campbell Hall Episcopal School", "@spider": "barnesnoblecollege", "addr:full": "4533 Laurel Canyon Blvd", "addr:city": "City", "addr:state": "CA", "addr:postcode": "91607", "addr:country": "US", "name": "Campbell Hall Episcopal School", "website": "https://www.bncollege.com/campus-stores/", "brand": "Barnes & Noble College"}},
{"type": "Feature", "id": "BCDsuStKZtYcgGkIMQBSXkeOIsk=", "properties": {"ref": "Castilleja School", "@spider": "barnesnoblecollege", "addr:full": "1310 Bryant St", "addr:city": "Alto", "addr:state": "CA", "addr:postcode": "94301", "addr:country": "US", "name": "Castilleja School", "website": "https://www.bncollege.com/campus-stores/", "brand": "Barnes & Noble College"}},
{"type": "Feature", "id": "Z1xJQ1laDXW4LyBMWP2QCIOB4oI=", "properties": {"ref": "Coastline Community College Virtual Bookstore", "@spider": "barnesnoblecollege", "addr:full": "11460 Warner Ave", "addr:city": "Valley", "addr:state": "CA", "addr:postcode": "92708", "addr:country": "US", "name": "Coastline Community College Virtual Bookstore", "website": "https://www.bncollege.com/campus-stores/", "brand": "Barnes & Noble College"}},
{"type": "Feature", "id": "vhbNq0TXMeW0AWUDwupOn6EUFzk=", "properties": {"ref": "COC Bookstore College of the Canyons", "@spider": "barnesnoblecollege", "addr:full": "26455 Rockwell Canyon Rd", "addr:city": "Clarita", "addr:state": "CA", "addr:postcode": "91355", "addr:country": "US", "name": "COC Bookstore College of the Canyons", "website": "https://www.bncollege.com/campus-stores/", "brand": "Barnes & Noble College"}},
{"type": "Feature", "id": "zXhrtq6O-Qiwf-paz2r8fZewD6U=", "properties": {"ref": "Crossroads School for Arts & Sciences", "@spider": "barnesnoblecollege", "addr:full": "1714 21st St", "addr:city": "Monica", "addr:state": "CA", "addr:postcode": "90404", "addr:country": "US", "name": "Crossroads School for Arts & Sciences", "website": "https://www.bncollege.com/campus-stores/", "brand": "Barnes & Noble College"}},
{"type": "Feature", "id": "2YSR_KykgtyLMYm3CYPPgSGdzs4=", "properties": {"ref": "Cuyamaca College Bookstore", "@spider": "barnesnoblecollege", "addr:full": "900 Rancho San Diego Pkwy", "addr:city": "Cajon", "addr:state": "CA", "addr:postcode": "92019", "addr:country": "US", "name": "Cuyamaca College Bookstore", "website": "https://www.bncollege.com/campus-stores/", "brand": "Barnes & Noble College"}},
{"type": "Feature", "id": "KLVNCsemnOhQzu0Pvs11XrXDFuk=", "properties": {"ref": "deToledo High School", "@spider": "barnesnoblecollege", "addr:full": "22622 Vanowen St", "addr:city": "Hills", "addr:state": "CA", "addr:postcode": "91307", "addr:country": "US", "name": "deToledo High School", "website": "https://www.bncollege.com/campus-stores/", "brand": "Barnes & Noble College"}},
{"type": "Feature", "id": "PyXS-oeXEYUqIkCDDB92-qVCzi0=", "properties": {"ref": "Golden West College Bookstore", "@spider": "barnesnoblecollege", "addr:full": "15744 Goldenwest St", "addr:city": "Beach", "addr:state": "CA", "addr:postcode": "92647", "addr:country": "US", "name": "Golden West College Bookstore", "website": "https://www.bncollege.com/campus-stores/", "brand": "Barnes & Noble College"}},
{"type": "Feature", "id": "iLkd7COJAZJMHgp76slN8R2UTAQ=", "properties": {"ref": "Grace Brethren Junior & Senior High Schools", "@spider": "barnesnoblecollege", "addr:full": "1350 Cherry Ave", "addr:city": "Valley", "addr:state": "CA", "addr:postcode": "93065", "addr:country": "US", "name": "Grace Brethren Junior & Senior High Schools", "website": "https://www.bncollege.com/campus-stores/", "brand": "Barnes & Noble College"}},
{"type": "Feature", "id": "_UUr1HDZyi-2EF4CybMO1LaeqXA=", "properties": {"ref": "Grossmont College Bookstore", "@spider": "barnesnoblecollege", "addr:full": "8800 Grossmont College Dr Ste.B", "addr:city": "Cajon", "addr:state": "CA", "addr:postcode": "92020", "addr:country": "US", "name": "Grossmont College Bookstore", "website": "https://www.bncollege.com/campus-stores/", "brand": "Barnes & Noble College"}},
{"type": "Feature", "id": "2tOt5yoMCvNFNFMQIFMZgKca9Rs=", "properties": {"ref": "Harker School", "@spider": "barnesnoblecollege", "addr:full": "500 Saratoga Ave", "addr:city": "Jose", "addr:state": "CA", "addr:postcode": "95129", "addr:country": "US", "name": "Harker School", "website": "https://www.bncollege.com/campus-stores/", "brand": "Barnes & Noble College"}},
{"type": "Feature", "id": "O6bXgK_nKo8rl5L65TYcmIKr6x0=", "properties": {"ref": "Junipero Serra High School", "@spider": "barnesnoblecollege", "addr:full": "451 W 20th Ave", "addr:city": "Mateo", "addr:state": "CA", "addr:postcode": "94403", "addr:country": "US", "name": "Junipero Serra High School", "website": "https://www.bncollege.com/campus-stores/", "brand": "Barnes & Noble College"}},
{"type": "Feature", "id": "iYmRpXrUxWb2ypwHUy5o9h-4Ius=", "properties": {"ref": "La Reina High School and Middle School", "@spider": "barnesnoblecollege", "addr:full": "106 W Janss Rd", "addr:city": "Oaks", "addr:state": "CA", "addr:postcode": "91360", "addr:country": "US", "name": "La Reina High School and Middle School", "website": "https://www.bncollege.com/campus-stores/", "brand": "Barnes & Noble College"}},
{"type": "Feature", "id": "xmR7BzrM712hXf5LJNKXt2G29lE=", "properties": {"ref": "Lake Tahoe Community College Bookstore", "@spider": "barnesnoblecollege", "addr:full": "1 College Dr", "addr:city": "Lake Tahoe", "addr:state": "CA", "addr:postcode": "96150", "addr:country": "US", "name": "Lake Tahoe Community College Bookstore", "website": "https://www.bncollege.com/campus-stores/", "brand": "Barnes & Noble College"}},
{"type": "Feature", "id": "XXtonzsPiBT_qIBhLQsJ1vHyoKM=", "properties": {"ref": "Life Pacific University", "@spider": "barnesnoblecollege", "addr:full": "1100 W Covina Blvd", "addr:city": "Dimas", "addr:state": "CA", "addr:postcode": "91773", "addr:country": "US", "name": "Life Pacific University", "website": "https://www.bncollege.com/campus-stores/", "brand": "Barnes & Noble College"}},
{"type": "Feature", "id": "7zCvdWZXZ0LB2klZ8JS-1pwPNRE=", "properties": {"ref": "Long Beach City College \u2013 LAC Bookstore", "@spider": "barnesnoblecollege", "addr:full": "4250 Faculty Ave", "addr:city": "Beach", "addr:state": "CA", "addr:postcode": "90808", "addr:country": "US", "name": "Long Beach City College \u2013 LAC Bookstore", "website": "https://www.bncollege.com/campus-stores/", "brand": "Barnes & Noble College"}},
{"type": "Feature", "id": "SAbIayT4CckkpzUqKQEkGJVUXGY=", "properties": {"ref": "Louisville High School", "@spider": "barnesnoblecollege", "addr:full": "22300 Mulholland Dr", "addr:city": "Hills", "addr:state": "CA", "addr:postcode": "91364", "addr:country": "US", "name": "Louisville High School", "website": "https://www.bncollege.com/campus-stores/", "brand": "Barnes & Noble College"}},
{"type": "Feature", "id": "z0OEpYmTEccgNGkkZ4dwdcz6qqI=", "properties": {"ref": "Loyola Law School Los Angeles Bookstore", "@spider": "barnesnoblecollege", "addr:full": "919 Albany St", "addr:city": "Angeles", "addr:state": "CA", "addr:postcode": "90015", "addr:country": "US", "name": "Loyola Law School Los Angeles Bookstore", "website": "https://www.bncollege.com/campus-stores/", "brand": "Barnes & Noble College"}},
{"type": "Feature", "id": "2uJhfq6_K61mqeIiFQqUyTgFssg=", "properties": {"ref": "Loyola Marymount University Bookstore", "@spider": "barnesnoblecollege", "addr:full": "1 Loyola Marymount University Dr", "addr:city": "Angeles", "addr:state": "CA", "addr:postcode": "90045", "addr:country": "US", "name": "Loyola Marymount University Bookstore", "website": "https://www.bncollege.com/campus-stores/", "brand": "Barnes & Noble College"}},
{"type": "Feature", "id": "tINbeR35wVFmMk05gbOAY4T2Mf0=", "properties": {"ref": "Maranatha Christian Schools", "@spider": "barnesnoblecollege", "addr:full": "9050 Maranatha Dr", "addr:city": "Diego", "addr:state": "CA", "addr:postcode": "92127", "addr:country": "US", "name": "Maranatha Christian Schools", "website": "https://www.bncollege.com/campus-stores/", "brand": "Barnes & Noble College"}},
{"type": "Feature", "id": "QC9f9Ww-vsSpamrpZOZG7Z7coG8=", "properties": {"ref": "Marin Academy", "@spider": "barnesnoblecollege", "addr:full": "1600 Mission Ave", "addr:city": "Rafael", "addr:state": "CA", "addr:postcode": "94901", "addr:country": "US", "name": "Marin Academy", "website": "https://www.bncollege.com/campus-stores/", "brand": "Barnes & Noble College"}},
{"type": "Feature", "id": "M2FTgulzcQLhAsXpt_mtcY8n_5I=", "properties": {"ref": "Marymount High School", "@spider": "barnesnoblecollege", "addr:full": "10643 Sunset Blvd", "addr:city": "Angeles", "addr:state": "CA", "addr:postcode": "90077", "addr:country": "US", "name": "Marymount High School", "website": "https://www.bncollege.com/campus-stores/", "brand": "Barnes & Noble College"}},
{"type": "Feature", "id": "9QyNXgUe3t-aoWrIsDk-3ViZBYs=", "properties": {"ref": "Milken Community Schools", "@spider": "barnesnoblecollege", "addr:full": "15800 Zeldins Way", "addr:city": "Angeles", "addr:state": "CA", "addr:postcode": "90049", "addr:country": "US", "name": "Milken Community Schools", "website": "https://www.bncollege.com/campus-stores/", "brand": "Barnes & Noble College"}},
{"type": "Feature", "id": "xSm-5WZRo9gk_rL3-UDR6bufo_g=", "properties": {"ref": "Mission College Bookstore", "@spider": "barnesnoblecollege", "addr:full": "3000 Mission College Blvd", "addr:city": "Clara", "addr:state": "CA", "addr:postcode": "95054", "addr:country": "US", "name": "Mission College Bookstore", "website": "https://www.bncollege.com/campus-stores/", "brand": "Barnes & Noble College"}},
{"type": "Feature", "id": "3qd0nFrLqzMPuw0fptN4Wpk2VtE=", "properties": {"ref": "Mission College Preparatory Catholic High School", "@spider": "barnesnoblecollege", "addr:full": "682 Palm St", "addr:city": "Luis Obispo", "addr:state": "CA", "addr:postcode": "93401", "addr:country": "US", "name": "Mission College Preparatory Catholic High School", "website": "https://www.bncollege.com/campus-stores/", "brand": "Barnes & Noble College"}},
{"type": "Feature", "id": "7o2yPJCtI8MFcRuKfizPSzzKlc4=", "properties": {"ref": "Mt. San Jacinto College", "@spider": "barnesnoblecollege", "addr:full": "1499 N State St", "addr:city": "Jacinto", "addr:state": "CA", "addr:postcode": "92583", "addr:country": "US", "name": "Mt. San Jacinto College", "website": "https://www.bncollege.com/campus-stores/", "brand": "Barnes & Noble College"}},
{"type": "Feature", "id": "icm5uqLAjCftIGzQA6sSWfBU9IE=", "properties": {"ref": "National University", "@spider": "barnesnoblecollege", "addr:full": "11255 N Torrey Pines Rd", "addr:city": "Jolla", "addr:state": "CA", "addr:postcode": "92037", "addr:country": "US", "name": "National University", "website": "https://www.bncollege.com/campus-stores/", "brand": "Barnes & Noble College"}},
{"type": "Feature", "id": "CF8Aek3OT7iZe_zPrSF2H3oPxcE=", "properties": {"ref": "New Roads School", "@spider": "barnesnoblecollege", "addr:full": "3131 Olympic Blvd", "addr:city": "Monica", "addr:state": "CA", "addr:postcode": "90404", "addr:country": "US", "name": "New Roads School", "website": "https://www.bncollege.com/campus-stores/", "brand": "Barnes & Noble College"}},
{"type": "Feature", "id": "zyBCiSr6zoNQFG11Mc_ZyaBsJQo=", "properties": {"ref": "Notre Dame High School San Jose", "@spider": "barnesnoblecollege", "addr:full": "596 S 2nd St", "addr:city": "Jose", "addr:state": "CA", "addr:postcode": "95112", "addr:country": "US", "name": "Notre Dame High School San Jose", "website": "https://www.bncollege.com/campus-stores/", "brand": "Barnes & Noble College"}},
{"type": "Feature", "id": "9WiWPoEhjj7aRWVQeY_EAQRTWjY=", "properties": {"ref": "Oakwood School", "@spider": "barnesnoblecollege", "addr:full": "11600 W Magnolia Blvd", "addr:city": "Hollywood", "addr:state": "CA", "addr:postcode": "91601", "addr:country": "US", "name": "Oakwood School", "website": "https://www.bncollege.com/campus-stores/", "brand": "Barnes & Noble College"}},
{"type": "Feature", "id": "MSyiuh76QHRCWNWhXDzkt6xeIYg=", "properties": {"ref": "Orange Coast College Bookstore", "@spider": "barnesnoblecollege", "addr:full": "2701 Fairview Rd", "addr:city": "Mesa", "addr:state": "CA", "addr:postcode": "92626", "addr:country": "US", "name": "Orange Coast College Bookstore", "website": "https://www.bncollege.com/campus-stores/", "brand": "Barnes & Noble College"}},
{"type": "Feature", "id": "wpiv5HRrt3E8YwRrgYNK0P0R_3c=", "properties": {"ref": "Presentation High School", "@spider": "barnesnoblecollege", "addr:full": "2281 Plummer Ave", "addr:city": "Jose", "addr:state": "CA", "addr:postcode": "95125", "addr:country": "US", "name": "Presentation High School", "website": "https://www.bncollege.com/campus-stores/", "brand": "Barnes & Noble College"}},
{"type": "Feature", "id": "uuW_V3Q5ArF8_t_IbPnxCteK404=", "properties": {"ref": "Sacred Heart Cathedral Preparatory", "@spider": "barnesnoblecollege", "addr:full": "1055 Ellis St", "addr:city": "Francisco", "addr:state": "CA", "addr:postcode": "94109", "addr:country": "US", "name": "Sacred Heart Cathedral Preparatory", "website": "https://www.bncollege.com/campus-stores/", "brand": "Barnes & Noble College"}},
{"type": "Feature", "id": "pF9v-_pcjx3awfzNuZ2BEfxLjGg=", "properties": {"ref": "Saint Francis High School", "@spider": "barnesnoblecollege", "addr:full": "1885 Miramonte Ave", "addr:city": "View", "addr:state": "CA", "addr:postcode": "94040", "addr:country": "US", "name": "Saint Francis High School", "website": "https://www.bncollege.com/campus-stores/", "brand": "Barnes & Noble College"}},
{"type": "Feature", "id": "BAwhkzdK7Dje0ZGcLDrg_4VVRxk=", "properties": {"ref": "Saint Ignatius College Prep", "@spider": "barnesnoblecollege", "addr:full": "2001 37th Ave", "addr:city": "Francisco", "addr:state": "CA", "addr:postcode": "94116", "addr:country": "US", "name": "Saint Ignatius College Prep", "website": "https://www.bncollege.com/campus-stores/", "brand": "Barnes & Noble College"}},
{"type": "Feature", "id": "l-ut6XIGMto3rx4p_Q-7ytuywAw=", "properties": {"ref": "San Francisco Theological Seminary", "@spider": "barnesnoblecollege", "addr:full": "105 Seminary Rd", "addr:city": "Anselmo", "addr:state": "CA", "addr:postcode": "94960", "addr:country": "US", "name": "San Francisco Theological Seminary", "website": "https://www.bncollege.com/campus-stores/", "brand": "Barnes & Noble College"}},
{"type": "Feature", "id": "gUoYzyp9eEkyF0LwYeljbgEYLRc=", "properties": {"ref": "San Jose State University \u2013 Spartan Bookstore", "@spider": "barnesnoblecollege", "addr:full": "211 S 9th St", "addr:city": "Jose", "addr:state": "CA", "addr:postcode": "95192", "addr:country": "US", "name": "San Jose State University \u2013 Spartan Bookstore", "website": "https://www.bncollege.com/campus-stores/", "brand": "Barnes & Noble College"}},
{"type": "Feature", "id": "wTyAueaEUA5WNtH0qTPMlyUASHI=", "properties": {"ref": "Santa Clara University Campus Bookstore", "@spider": "barnesnoblecollege", "addr:full": "The Alameda & Market St", "addr:city": "Clara", "addr:state": "CA", "addr:postcode": "95053", "addr:country": "US", "name": "Santa Clara University Campus Bookstore", "website": "https://www.bncollege.com/campus-stores/", "brand": "Barnes & Noble College"}},
{"type": "Feature", "id": "AjB1gBSMD0wbLZVbt-2isEJJx-k=", "properties": {"ref": "Santa Fe Christian Schools", "@spider": "barnesnoblecollege", "addr:full": "838 Academy Dr", "addr:city": "Beach", "addr:state": "CA", "addr:postcode": "92075", "addr:country": "US", "name": "Santa Fe Christian Schools", "website": "https://www.bncollege.com/campus-stores/", "brand": "Barnes & Noble College"}},
{"type": "Feature", "id": "lVFEu8cjiebORKE3fb-yvVmbbA0=", "properties": {"ref": "Sonoma Academy", "@spider": "barnesnoblecollege", "addr:full": "2500 Farmers Ln", "addr:city": "Rosa", "addr:state": "CA", "addr:postcode": "95404", "addr:country": "US", "name": "Sonoma Academy", "website": "https://www.bncollege.com/campus-stores/", "brand": "Barnes & Noble College"}},
{"type": "Feature", "id": "3qhtLdbS1xWXqYJe3kgYEtMSK9E=", "properties": {"ref": "Sonoma State University Bookstore", "@spider": "barnesnoblecollege", "addr:full": "1801 E Cotati Ave", "addr:city": "Park", "addr:state": "CA", "addr:postcode": "94928", "addr:country": "US", "name": "Sonoma State University Bookstore", "website": "https://www.bncollege.com/campus-stores/", "brand": "Barnes & Noble College"}},
{"type": "Feature", "id": "H0SuEk1m4Dc8Z7_45dJhpT_0EAg=", "properties": {"ref": "St. Bernard", "@spider": "barnesnoblecollege", "addr:full": "9100 Falmouth Ave", "addr:city": "Del Rey", "addr:state": "CA", "addr:postcode": "90293", "addr:country": "US", "name": "St. Bernard", "website": "https://www.bncollege.com/campus-stores/", "brand": "Barnes & Noble College"}},
{"type": "Feature", "id": "bqoxwy38n2VXQx_QNpvYtg_W3S8=", "properties": {"ref": "St. Francis High School \u2013 La Canada", "@spider": "barnesnoblecollege", "addr:full": "200 Foothill Blvd", "addr:city": "Ca\u00f1ada Flintridge", "addr:state": "CA", "addr:postcode": "91011", "addr:country": "US", "name": "St. Francis High School \u2013 La Canada", "website": "https://www.bncollege.com/campus-stores/", "brand": "Barnes & Noble College"}},
{"type": "Feature", "id": "U0VvPS68U6kINEjhazOyBtwQoO0=", "properties": {"ref": "Stevenson School", "@spider": "barnesnoblecollege", "addr:full": "3152 Forest Lake Rd", "addr:city": "Beach", "addr:state": "CA", "addr:postcode": "93953", "addr:country": "US", "name": "Stevenson School", "website": "https://www.bncollege.com/campus-stores/", "brand": "Barnes & Noble College"}},
{"type": "Feature", "id": "znWaxijW3xx9EUKV1jbAgiJ9pKA=", "properties": {"ref": "SUM Bible College and Theological Seminary", "@spider": "barnesnoblecollege", "addr:full": "1107 Investment Blvd #290", "addr:city": "Dorado Hills", "addr:state": "CA", "addr:postcode": "95762", "addr:country": "US", "name": "SUM Bible College and Theological Seminary", "website": "https://www.bncollege.com/campus-stores/", "brand": "Barnes & Noble College"}},
{"type": "Feature", "id": "_WZg1D7TLgq_3zS3D-y496Fuu1c=", "properties": {"ref": "The Campus Store @ Loma Linda University", "@spider": "barnesnoblecollege", "addr:full": "11161 Anderson St", "addr:city": "Linda", "addr:state": "CA", "addr:postcode": "92354", "addr:country": "US", "name": "The Campus Store @ Loma Linda University", "website": "https://www.bncollege.com/campus-stores/", "brand": "Barnes & Noble College"}},
{"type": "Feature", "id": "uFamOXmBD6iuETwT_9SfhzYNWuY=", "properties": {"ref": "The University Bookstore", "@spider": "barnesnoblecollege", "addr:full": "5155 State University Dr", "addr:city": "Angeles", "addr:state": "CA", "addr:postcode": "90032", "addr:country": "US", "name": "The University Bookstore", "website": "https://www.bncollege.com/campus-stores/", "brand": "Barnes & Noble College"}},
{"type": "Feature", "id": "O35hHWSSqbrPoYqeF8uUQ1-QmYc=", "properties": {"ref": "Viking Bookstore \u2013 PCC Campus", "@spider": "barnesnoblecollege", "addr:full": "1305 Pacific Coast Hwy", "addr:city": "Beach", "addr:state": "CA", "addr:postcode": "90813", "addr:country": "US", "name": "Viking Bookstore \u2013 PCC Campus", "website": "https://www.bncollege.com/campus-stores/", "brand": "Barnes & Noble College"}},
{"type": "Feature", "id": "YAPlFYMSw1RWaacCfSA8u70x7gc=", "properties": {"ref": "Viking Express at PCC", "@spider": "barnesnoblecollege", "addr:full": "1305 Pacific Coast Hwy", "addr:city": "Beach", "addr:state": "CA", "addr:postcode": "90813", "addr:country": "US", "name": "Viking Express at PCC", "website": "https://www.bncollege.com/campus-stores/", "brand": "Barnes & Noble College"}},
{"type": "Feature", "id": "L1w7-RrpPRmkTW5g8wH1-6t0GHU=", "properties": {"ref": "West Coast University", "@spider": "barnesnoblecollege", "addr:full": "200 Baker St E #201", "addr:city": "Mesa", "addr:state": "CA", "addr:postcode": "92626", "addr:country": "US", "name": "West Coast University", "website": "https://www.bncollege.com/campus-stores/", "brand": "Barnes & Noble College"}},
{"type": "Feature", "id": "YNDJuS4OkCPsQhAXxabFOydVL1c=", "properties": {"ref": "Whittier Chrstian High School", "@spider": "barnesnoblecollege", "addr:full": "501 N Beach Blvd", "addr:city": "Habra", "addr:state": "CA", "addr:postcode": "90631", "addr:country": "US", "name": "Whittier Chrstian High School", "website": "https://www.bncollege.com/campus-stores/", "brand": "Barnes & Noble College"}},
{"type": "Feature", "id": "XBj0Cqs-JB9aXx9N90IpSC5j37o=", "properties": {"ref": "Windward School", "@spider": "barnesnoblecollege", "addr:full": "11350 Palms Blvd", "addr:city": "Angeles", "addr:state": "CA", "addr:postcode": "90066", "addr:country": "US", "name": "Windward School", "website": "https://www.bncollege.com/campus-stores/", "brand": "Barnes & Noble College"}},
{"type": "Feature", "id": "WRuyo68bo5VbSnIhX48OELdaRDg=", "properties": {"ref": "Woodside Priory School", "@spider": "barnesnoblecollege", "addr:full": "302 Portola Rd", "addr:city": "Valley", "addr:state": "CA", "addr:postcode": "94028", "addr:country": "US", "name": "Woodside Priory School", "website": "https://www.bncollege.com/campus-stores/", "brand": "Barnes & Noble College"}},
{"type": "Feature", "id": "9671fSCA_ch1hJhJQQA6iTcSNLM=", "properties": {"ref": "FRCC Larimer Campus Bookstore", "@spider": "barnesnoblecollege", "addr:full": "4616 S Shields St", "addr:city": "Collins", "addr:state": "CO", "addr:postcode": "80526", "addr:country": "US", "name": "FRCC Larimer Campus Bookstore", "website": "https://www.bncollege.com/campus-stores/", "brand": "Barnes & Noble College"}},
{"type": "Feature", "id": "AQIaA2BmZd9fk6OJZhc6CIa8NBw=", "properties": {"ref": "Kent Denver School", "@spider": "barnesnoblecollege", "addr:full": "4000 E Quincy Ave", "addr:city": "Hills Village", "addr:state": "CO", "addr:postcode": "80113", "addr:country": "US", "name": "Kent Denver School", "website": "https://www.bncollege.com/campus-stores/", "brand": "Barnes & Noble College"}},
{"type": "Feature", "id": "NUNuz57qLqqeJMcwfiQzeZiPVks=", "properties": {"ref": "Morgan Community College", "@spider": "barnesnoblecollege", "addr:full": "920 Barlow Rd", "addr:city": "Morgan", "addr:state": "CO", "addr:postcode": "80701", "addr:country": "US", "name": "Morgan Community College", "website": "https://www.bncollege.com/campus-stores/", "brand": "Barnes & Noble College"}},
{"type": "Feature", "id": "CMCJuK5nnftS2XafAaGPncka7BM=", "properties": {"ref": "Canterbury School", "@spider": "barnesnoblecollege", "addr:full": "101 Aspetuck Ave", "addr:city": "Milford", "addr:state": "CT", "addr:postcode": "06776", "addr:country": "US", "name": "Canterbury School", "website": "https://www.bncollege.com/campus-stores/", "brand": "Barnes & Noble College"}},
{"type": "Feature", "id": "94LFLghfUvnvc7wzGW-knjRMi24=", "properties": {"ref": "Central Connecticut State University Bookstore", "@spider": "barnesnoblecollege", "addr:full": "105 Ella Grasso Blvd", "addr:city": "Britain", "addr:state": "CT", "addr:postcode": "06053", "addr:country": "US", "name": "Central Connecticut State University Bookstore", "website": "https://www.bncollege.com/campus-stores/", "brand": "Barnes & Noble College"}},
{"type": "Feature", "id": "wJi9Im9mFTn6REMosi-W_EBDmQc=", "properties": {"ref": "Charter Oak State College", "@spider": "barnesnoblecollege", "addr:full": "55 Paul Manafort Senior Dr", "addr:city": "Britain", "addr:state": "CT", "addr:postcode": "06053", "addr:country": "US", "name": "Charter Oak State College", "website": "https://www.bncollege.com/campus-stores/", "brand": "Barnes & Noble College"}},
{"type": "Feature", "id": "-XV4KO9urWjCjRdiLwtHf7yX5zw=", "properties": {"ref": "Northwest Catholic High School", "@spider": "barnesnoblecollege", "addr:full": "29 Wampanoag Dr", "addr:city": "Hartford", "addr:state": "CT", "addr:postcode": "06117", "addr:country": "US", "name": "Northwest Catholic High School", "website": "https://www.bncollege.com/campus-stores/", "brand": "Barnes & Noble College"}},
{"type": "Feature", "id": "I7YBQ634S4hSvUFeWfKW0FkSOvw=", "properties": {"ref": "Porter and Chester Institute", "@spider": "barnesnoblecollege", "addr:full": "30 Waterchase Dr", "addr:city": "Hill", "addr:state": "CT", "addr:postcode": "06067", "addr:country": "US", "name": "Porter and Chester Institute", "website": "https://www.bncollege.com/campus-stores/", "brand": "Barnes & Noble College"}},
{"type": "Feature", "id": "ISS7z0uCcsYmfyKICM_iSG6Sf-w=", "properties": {"ref": "Southern Connecticut University Bookstore", "@spider": "barnesnoblecollege", "addr:full": "501 Crescent St", "addr:city": "Haven", "addr:state": "CT", "addr:postcode": "06515", "addr:country": "US", "name": "Southern Connecticut University Bookstore", "website": "https://www.bncollege.com/campus-stores/", "brand": "Barnes & Noble College"}},
{"type": "Feature", "id": "HTWENU2SqqWLIg8Mqbdl8abc540=", "properties": {"ref": "The Yale Bookstore", "@spider": "barnesnoblecollege", "addr:full": "77 Broadway", "addr:city": "Haven", "addr:state": "CT", "addr:postcode": "06511", "addr:country": "US", "name": "The Yale Bookstore", "website": "https://www.bncollege.com/campus-stores/", "brand": "Barnes & Noble College"}},
{"type": "Feature", "id": "bsdBqfMfxqL8IVul0-_rghP64DE=", "properties": {"ref": "United States Coast Guard Academy", "@spider": "barnesnoblecollege", "addr:full": "15 MOHEGAN AVE", "addr:city": "London", "addr:state": "CT", "addr:postcode": "06320", "addr:country": "US", "name": "United States Coast Guard Academy", "website": "https://www.bncollege.com/campus-stores/", "brand": "Barnes & Noble College"}},
{"type": "Feature", "id": "XebcyQsRjZJn89hjaaxBYyMRZvE=", "properties": {"ref": "Admiral Farragut Academy", "@spider": "barnesnoblecollege", "addr:full": "501 Park St N", "addr:city": "Petersburg", "addr:state": "FL", "addr:postcode": "33710", "addr:country": "US", "name": "Admiral Farragut Academy", "website": "https://www.bncollege.com/campus-stores/", "brand": "Barnes & Noble College"}},
{"type": "Feature", "id": "sI1VTnSMVhZV1zboJO93ILlS9S8=", "properties": {"ref": "American Heritage School \u2013 Palm Beach Campus", "@spider": "barnesnoblecollege", "addr:full": "6200 Linton Blvd", "addr:city": "Beach", "addr:state": "FL", "addr:postcode": "33484", "addr:country": "US", "name": "American Heritage School \u2013 Palm Beach Campus", "website": "https://www.bncollege.com/campus-stores/", "brand": "Barnes & Noble College"}},
{"type": "Feature", "id": "dqg2_DzIEqwKUk0w-2ZCZhMaAEs=", "properties": {"ref": "Bishop Mclaughlin Catholic High School", "@spider": "barnesnoblecollege", "addr:full": "13651 Hays Rd", "addr:city": "Hills", "addr:state": "FL", "addr:postcode": "34610", "addr:country": "US", "name": "Bishop Mclaughlin Catholic High School", "website": "https://www.bncollege.com/campus-stores/", "brand": "Barnes & Noble College"}},
{"type": "Feature", "id": "Xcp2AUU7AjX6uwGika4pBX-FceY=", "properties": {"ref": "Broward College Judson A. Samuels South Bookstore", "@spider": "barnesnoblecollege", "addr:full": "7200 Pines Blvd", "addr:city": "Pines", "addr:state": "FL", "addr:postcode": "33024", "addr:country": "US", "name": "Broward College Judson A. Samuels South Bookstore", "website": "https://www.bncollege.com/campus-stores/", "brand": "Barnes & Noble College"}},
{"type": "Feature", "id": "sIcDzvZRl1yxIr6SrgtZZeuihBI=", "properties": {"ref": "Broward College North Bookstore", "@spider": "barnesnoblecollege", "addr:full": "1000 Coconut Creek Blvd Bldg 46", "addr:city": "Creek", "addr:state": "FL", "addr:postcode": "33066", "addr:country": "US", "name": "Broward College North Bookstore", "website": "https://www.bncollege.com/campus-stores/", "brand": "Barnes & Noble College"}},
{"type": "Feature", "id": "dcZVXjLQF3eU7tequ9WBm81knmE=", "properties": {"ref": "Canterbury School of Florida", "@spider": "barnesnoblecollege", "addr:full": "8141 College Pkwy", "addr:city": "Myers", "addr:state": "FL", "addr:postcode": "33919", "addr:country": "US", "name": "Canterbury School of Florida", "website": "https://www.bncollege.com/campus-stores/", "brand": "Barnes & Noble College"}},
{"type": "Feature", "id": "LSxl9mh14YC-xsa4b9BWUdVvbw8=", "properties": {"ref": "Concord Law School", "@spider": "barnesnoblecollege", "addr:full": "1515 W Cypress Creek Rd", "addr:city": "Lauderdale", "addr:state": "FL", "addr:postcode": "33309", "addr:country": "US", "name": "Concord Law School", "website": "https://www.bncollege.com/campus-stores/", "brand": "Barnes & Noble College"}},
{"type": "Feature", "id": "x_iDQkP_Ea4XGcpt8liVxHoOlrc=", "properties": {"ref": "Eastern Florida College Bookstore, Palm Bay Campus", "@spider": "barnesnoblecollege", "addr:full": "250 Community College Pkwy SE", "addr:city": "Bay", "addr:state": "FL", "addr:postcode": "32909", "addr:country": "US", "name": "Eastern Florida College Bookstore, Palm Bay Campus", "website": "https://www.bncollege.com/campus-stores/", "brand": "Barnes & Noble College"}},
{"type": "Feature", "id": "nlcUfbNCmvhMZw8jUmJvpuesswg=", "properties": {"ref": "Eastern Florida State College Bookstores, Melbourne Campus", "@spider": "barnesnoblecollege", "addr:full": "250 Community College Pkwy SE", "addr:city": "Bay", "addr:state": "FL", "addr:postcode": "32909", "addr:country": "US", "name": "Eastern Florida State College Bookstores, Melbourne Campus", "website": "https://www.bncollege.com/campus-stores/", "brand": "Barnes & Noble College"}},
{"type": "Feature", "id": "b7VdVxQoMRXHLKCw2ckDQwxXhsw=", "properties": {"ref": "Eckerd College Bookstore", "@spider": "barnesnoblecollege", "addr:full": "4200 54th Ave S", "addr:city": "Petersburg", "addr:state": "FL", "addr:postcode": "33711", "addr:country": "US", "name": "Eckerd College Bookstore", "website": "https://www.bncollege.com/campus-stores/", "brand": "Barnes & Noble College"}},
{"type": "Feature", "id": "0DaydZvsceHM4Kg0MDn6boP3iL8=", "properties": {"ref": "Flagler College Bookstore", "@spider": "barnesnoblecollege", "addr:full": "107 King St", "addr:city": "Augustine", "addr:state": "FL", "addr:postcode": "32084", "addr:country": "US", "name": "Flagler College Bookstore", "website": "https://www.bncollege.com/campus-stores/", "brand": "Barnes & Noble College"}},
{"type": "Feature", "id": "gazuRE4np-7rF-6nkUgWe8czNSk=", "properties": {"ref": "Florida International University Bookstore \u2013 Biscayne Bay Campus", "@spider": "barnesnoblecollege", "addr:full": "3000 NE 145th St", "addr:city": "Miami", "addr:state": "FL", "addr:postcode": "33181", "addr:country": "US", "name": "Florida International University Bookstore \u2013 Biscayne Bay Campus", "website": "https://www.bncollege.com/campus-stores/", "brand": "Barnes & Noble College"}},
{"type": "Feature", "id": "WAWgbFJVpQP5dm-QM-AdxsH0bLE=", "properties": {"ref": "Nova Southeastern University Bookstore", "@spider": "barnesnoblecollege", "addr:full": "2051 N Federal Hwy", "addr:city": "Lauderdale", "addr:state": "FL", "addr:postcode": "33305", "addr:country": "US", "name": "Nova Southeastern University Bookstore", "website": "https://www.bncollege.com/campus-stores/", "brand": "Barnes & Noble College"}},
{"type": "Feature", "id": "mbGVYGTJW2rzai5SKxXD4NCEntQ=", "properties": {"ref": "Palm Beach Day Academy", "@spider": "barnesnoblecollege", "addr:full": "241 Seaview Ave", "addr:city": "Beach", "addr:state": "FL", "addr:postcode": "33480", "addr:country": "US", "name": "Palm Beach Day Academy", "website": "https://www.bncollege.com/campus-stores/", "brand": "Barnes & Noble College"}},
{"type": "Feature", "id": "v3Jd4Enur7jFMiAof1Ig94JSYwc=", "properties": {"ref": "Polk State College \u2013 Winter Haven Campus Bookstore", "@spider": "barnesnoblecollege", "addr:full": "999 Ave H NE", "addr:city": "Haven", "addr:state": "FL", "addr:postcode": "33881", "addr:country": "US", "name": "Polk State College \u2013 Winter Haven Campus Bookstore", "website": "https://www.bncollege.com/campus-stores/", "brand": "Barnes & Noble College"}},
{"type": "Feature", "id": "c535z2xX3br2KHSKEWDC4hTudcw=", "properties": {"ref": "Purdue University Global \u2013 Undergrad/Nursing", "@spider": "barnesnoblecollege", "addr:full": "1515 W Cypress Creek Rd", "addr:city": "Lauderdale", "addr:state": "FL", "addr:postcode": "47907", "addr:country": "US", "name": "Purdue University Global \u2013 Undergrad/Nursing", "website": "https://www.bncollege.com/campus-stores/", "brand": "Barnes & Noble College"}},
{"type": "Feature", "id": "EBaraQyg7WZkSMB-PUn-88J5rUg=", "properties": {"ref": "Purdue University Global (Online Masters Program)", "@spider": "barnesnoblecollege", "addr:full": "1515 W Cypress Creek Rd", "addr:city": "Lauderdale", "addr:state": "FL", "addr:postcode": "47907", "addr:country": "US", "name": "Purdue University Global (Online Masters Program)", "website": "https://www.bncollege.com/campus-stores/", "brand": "Barnes & Noble College"}},
{"type": "Feature", "id": "GEHu4PA67EuKz_-8XjXD5eW-WMU=", "properties": {"ref": "Saint Johns Country Day School", "@spider": "barnesnoblecollege", "addr:full": "3100 Doctors Lake Dr", "addr:city": "Park", "addr:state": "FL", "addr:postcode": "32073", "addr:country": "US", "name": "Saint Johns Country Day School", "website": "https://www.bncollege.com/campus-stores/", "brand": "Barnes & Noble College"}},
{"type": "Feature", "id": "wLCiJK3XQ4M14C60gwVU2HqNpxY=", "properties": {"ref": "SPC Gibbs Campus Bookstore", "@spider": "barnesnoblecollege", "addr:full": "6700 7th Ave N", "addr:city": "Petersburg", "addr:state": "FL", "addr:postcode": "33710", "addr:country": "US", "name": "SPC Gibbs Campus Bookstore", "website": "https://www.bncollege.com/campus-stores/", "brand": "Barnes & Noble College"}},
{"type": "Feature", "id": "Iv_rXGGznfFAMI3vSsj4wYveeZ0=", "properties": {"ref": "SPC Health Ed Center Bookstore", "@spider": "barnesnoblecollege", "addr:full": "7200 66th St N", "addr:city": "Park", "addr:state": "FL", "addr:postcode": "33781", "addr:country": "US", "name": "SPC Health Ed Center Bookstore", "website": "https://www.bncollege.com/campus-stores/", "brand": "Barnes & Noble College"}},
{"type": "Feature", "id": "Mb5dwcOufppbqILqSeHW64jniEA=", "properties": {"ref": "SPC Tarpon Springs Campus Bookstore", "@spider": "barnesnoblecollege", "addr:full": "674 E Klosterman Rd", "addr:city": "Springs", "addr:state": "FL", "addr:postcode": "34689", "addr:country": "US", "name": "SPC Tarpon Springs Campus Bookstore", "website": "https://www.bncollege.com/campus-stores/", "brand": "Barnes & Noble College"}},
{"type": "Feature", "id": "_1SAzgQQyqkN5CF_lI9Y_MqK5ug=", "properties": {"ref": "SSC Altamonte Springs Bookstore", "@spider": "barnesnoblecollege", "addr:full": "850 S State Rd 434", "addr:city": "Springs", "addr:state": "FL", "addr:postcode": "32714", "addr:country": "US", "name": "SSC Altamonte Springs Bookstore", "website": "https://www.bncollege.com/campus-stores/", "brand": "Barnes & Noble College"}},
{"type": "Feature", "id": "_vnOjQS5aNABJBUVCm4mzPg3n2U=", "properties": {"ref": "St. Joseph Academy", "@spider": "barnesnoblecollege", "addr:full": "155 State Rd 207", "addr:city": "Augustine", "addr:state": "FL", "addr:postcode": "32084", "addr:country": "US", "name": "St. Joseph Academy", "website": "https://www.bncollege.com/campus-stores/", "brand": "Barnes & Noble College"}},
{"type": "Feature", "id": "sLHfC7Engt9-V9IlffEKlq43rLk=", "properties": {"ref": "Trinity Prep", "@spider": "barnesnoblecollege", "addr:full": "5700 Trinity Prep Ln", "addr:city": "Park", "addr:state": "FL", "addr:postcode": "32792", "addr:country": "US", "name": "Trinity Prep", "website": "https://www.bncollege.com/campus-stores/", "brand": "Barnes & Noble College"}},
{"type": "Feature", "id": "LSpO8IGDjgQJPjGY3EmyDRBs2XQ=", "properties": {"ref": "Brewton-Parker College", "@spider": "barnesnoblecollege", "addr:full": "201 David-Eliza Fountain Circle", "addr:city": "Vernon", "addr:state": "GA", "addr:postcode": "30445", "addr:country": "US", "name": "Brewton-Parker College", "website": "https://www.bncollege.com/campus-stores/", "brand": "Barnes & Noble College"}},
{"type": "Feature", "id": "yMvtTqMNDLLTX-lmAMXm67062x8=", "properties": {"ref": "Clayton State Loch Shop", "@spider": "barnesnoblecollege", "addr:full": "2000 Clayton State Blvd 1st Floor", "addr:city": "Morrow", "addr:state": "GA", "addr:postcode": "30260", "addr:country": "US", "name": "Clayton State Loch Shop", "website": "https://www.bncollege.com/campus-stores/", "brand": "Barnes & Noble College"}},
{"type": "Feature", "id": "6J7DSbAhvZw7W0XxjMbca38Qseg=", "properties": {"ref": "Covenant College", "@spider": "barnesnoblecollege", "addr:full": "14049 Scenic Hwy", "addr:city": "Mountain", "addr:state": "GA", "addr:postcode": "30750", "addr:country": "US", "name": "Covenant College", "website": "https://www.bncollege.com/campus-stores/", "brand": "Barnes & Noble College"}},
{"type": "Feature", "id": "izWr9KzbdMsfsEpNHjJnXYgfDOk=", "properties": {"ref": "Woodward Academy", "@spider": "barnesnoblecollege", "addr:full": "1662 W Rugby Ave", "addr:city": "Park", "addr:state": "GA", "addr:postcode": "30337", "addr:country": "US", "name": "Woodward Academy", "website": "https://www.bncollege.com/campus-stores/", "brand": "Barnes & Noble College"}},
{"type": "Feature", "id": "DMpsHBWvzo1rRNdx_V6KPWOwsL8=", "properties": {"ref": "Idaho State University Bookstore", "@spider": "barnesnoblecollege", "addr:full": "1784 Science Center Dr", "addr:city": "Falls", "addr:state": "ID", "addr:postcode": "83402", "addr:country": "US", "name": "Idaho State University Bookstore", "website": "https://www.bncollege.com/campus-stores/", "brand": "Barnes & Noble College"}},
{"type": "Feature", "id": "U30PBogFDq-jiZcY_8VtGvAIy60=", "properties": {"ref": "Concordia Bookstore", "@spider": "barnesnoblecollege", "addr:full": "7400 Augusta St", "addr:city": "Forest", "addr:state": "IL", "addr:postcode": "60305", "addr:country": "US", "name": "Concordia Bookstore", "website": "https://www.bncollege.com/campus-stores/", "brand": "Barnes & Noble College"}},
{"type": "Feature", "id": "0MGWjIhrwFuCOSKNFty9Sg8LTlk=", "properties": {"ref": "Concordia University Campus Bookstore", "@spider": "barnesnoblecollege", "addr:full": "7400 Augusta St", "addr:city": "Forest", "addr:state": "IL", "addr:postcode": "60305", "addr:country": "US", "name": "Concordia University Campus Bookstore", "website": "https://www.bncollege.com/campus-stores/", "brand": "Barnes & Noble College"}},
{"type": "Feature", "id": "p8wpbjODjNNNWltGbTWZE1qD49Q=", "properties": {"ref": "Fenwick High School", "@spider": "barnesnoblecollege", "addr:full": "505 Washington Blvd", "addr:city": "Park", "addr:state": "IL", "addr:postcode": "60302", "addr:country": "US", "name": "Fenwick High School", "website": "https://www.bncollege.com/campus-stores/", "brand": "Barnes & Noble College"}},
{"type": "Feature", "id": "0149eDdTgqxD9xZgtmONd9UXN-g=", "properties": {"ref": "Prairie State College Bookstore", "@spider": "barnesnoblecollege", "addr:full": "202 S Halsted St", "addr:city": "Heights", "addr:state": "IL", "addr:postcode": "60411", "addr:country": "US", "name": "Prairie State College Bookstore", "website": "https://www.bncollege.com/campus-stores/", "brand": "Barnes & Noble College"}},
{"type": "Feature", "id": "z7AN_C3yKfB1ZXrBvu0iFLf4-XI=", "properties": {"ref": "Southwestern Illinois College \u2013 Granite City Bookstore", "@spider": "barnesnoblecollege", "addr:full": "4950 Maryville Rd", "addr:city": "City", "addr:state": "IL", "addr:postcode": "62040", "addr:country": "US", "name": "Southwestern Illinois College \u2013 Granite City Bookstore", "website": "https://www.bncollege.com/campus-stores/", "brand": "Barnes & Noble College"}},
{"type": "Feature", "id": "jo08Xai9jFNE6anDwZ6HHkFbB6c=", "properties": {"ref": "Trinity College of Nursing & Health Sciences", "@spider": "barnesnoblecollege", "addr:full": "2122 25th Ave", "addr:city": "Island", "addr:state": "IL", "addr:postcode": "61201", "addr:country": "US", "name": "Trinity College of Nursing & Health Sciences", "website": "https://www.bncollege.com/campus-stores/", "brand": "Barnes & Noble College"}},
{"type": "Feature", "id": "UOjYAHrpRWmrHv97oBEOqSG3l4w=", "properties": {"ref": "Indiana State University Bookstore", "@spider": "barnesnoblecollege", "addr:full": "25 N 4th St", "addr:city": "Haute", "addr:state": "IN", "addr:postcode": "47807", "addr:country": "US", "name": "Indiana State University Bookstore", "website": "https://www.bncollege.com/campus-stores/", "brand": "Barnes & Noble College"}},
{"type": "Feature", "id": "GLdb0-0dwm5cEclAfY6eiB1DGjg=", "properties": {"ref": "IU South Bend Bookstore", "@spider": "barnesnoblecollege", "addr:full": "1825 Northside Blvd", "addr:city": "Bend", "addr:state": "IN", "addr:postcode": "46615", "addr:country": "US", "name": "IU South Bend Bookstore", "website": "https://www.bncollege.com/campus-stores/", "brand": "Barnes & Noble College"}},
{"type": "Feature", "id": "SxblyI3Tu2CgM6Tx34ScvWk6KbU=", "properties": {"ref": "IU Southeast Bookstore", "@spider": "barnesnoblecollege", "addr:full": "4201 Grant Line Rd", "addr:city": "Albany", "addr:state": "IN", "addr:postcode": "47150", "addr:country": "US", "name": "IU Southeast Bookstore", "website": "https://www.bncollege.com/campus-stores/", "brand": "Barnes & Noble College"}},
{"type": "Feature", "id": "JypYImPXXy8pv3_N3JHvvUg4R7g=", "properties": {"ref": "Ivy Tech CC Fort Wayne New Edition Bookstore", "@spider": "barnesnoblecollege", "addr:full": "3701 Dean Dr", "addr:city": "Wayne", "addr:state": "IN", "addr:postcode": "46835", "addr:country": "US", "name": "Ivy Tech CC Fort Wayne New Edition Bookstore", "website": "https://www.bncollege.com/campus-stores/", "brand": "Barnes & Noble College"}},
{"type": "Feature", "id": "3RvbP1tRJzgD1uMrtxciGI_6pg4=", "properties": {"ref": "Ivy Tech CC Lake County Store (E. Chicago)", "@spider": "barnesnoblecollege", "addr:full": "410 E Columbus Dr", "addr:city": "Chicago", "addr:state": "IN", "addr:postcode": "46312", "addr:country": "US", "name": "Ivy Tech CC Lake County Store (E. Chicago)", "website": "https://www.bncollege.com/campus-stores/", "brand": "Barnes & Noble College"}},
{"type": "Feature", "id": "b2yurNsD0dEOW_sHIbUpJVZDMMs=", "properties": {"ref": "Ivy Tech CC South Bend Campus Bookstore", "@spider": "barnesnoblecollege", "addr:full": "220 Dean Johnson Blvd", "addr:city": "Bend", "addr:state": "IN", "addr:postcode": "46601", "addr:country": "US", "name": "Ivy Tech CC South Bend Campus Bookstore", "website": "https://www.bncollege.com/campus-stores/", "brand": "Barnes & Noble College"}},
{"type": "Feature", "id": "VS2xRFlcIuctZ7iLZ2Up20ADbKo=", "properties": {"ref": "Ivy Tech CC Terre Haute Bookstore", "@spider": "barnesnoblecollege", "addr:full": "8000 Education Dr", "addr:city": "Haute", "addr:state": "IN", "addr:postcode": "47802", "addr:country": "US", "name": "Ivy Tech CC Terre Haute Bookstore", "website": "https://www.bncollege.com/campus-stores/", "brand": "Barnes & Noble College"}},
{"type": "Feature", "id": "oUPGpG0YxeTyTI42a7oPofUte8U=", "properties": {"ref": "Morningside College", "@spider": "barnesnoblecollege", "addr:full": "3609 Peters Ave", "addr:city": "City", "addr:state": "IA", "addr:postcode": "51106", "addr:country": "US", "name": "Morningside College", "website": "https://www.bncollege.com/campus-stores/", "brand": "Barnes & Noble College"}},
{"type": "Feature", "id": "ZIbgy2Gv8NrursnXD6NBFcpPkyk=", "properties": {"ref": "Waldorf University", "@spider": "barnesnoblecollege", "addr:full": "106 S 6th St", "addr:city": "City", "addr:state": "IA", "addr:postcode": "50436", "addr:country": "US", "name": "Waldorf University", "website": "https://www.bncollege.com/campus-stores/", "brand": "Barnes & Noble College"}},
{"type": "Feature", "id": "zH0VSfmNtcctXqUxDtPlkv99jPo=", "properties": {"ref": "KCTCS Southcentral Kentucky Community & Technical College Bookstore", "@spider": "barnesnoblecollege", "addr:full": "1845 Loop Ave", "addr:city": "Green", "addr:state": "KY", "addr:postcode": "42101", "addr:country": "US", "name": "KCTCS Southcentral Kentucky Community & Technical College Bookstore", "website": "https://www.bncollege.com/campus-stores/", "brand": "Barnes & Noble College"}},
{"type": "Feature", "id": "k1u_ZEsu-dYCrX_j6sMEMGllWLs=", "properties": {"ref": "Northern Kentucky University Bookstore", "@spider": "barnesnoblecollege", "addr:full": "1 Louie B Nunn Dr", "addr:city": "Heights", "addr:state": "KY", "addr:postcode": "41099", "addr:country": "US", "name": "Northern Kentucky University Bookstore", "website": "https://www.bncollege.com/campus-stores/", "brand": "Barnes & Noble College"}},
{"type": "Feature", "id": "bDe7OEZ3Bk8Xc7uq__Rb4fRNIzo=", "properties": {"ref": "The Walden School", "@spider": "barnesnoblecollege", "addr:full": "4238 Westport Rd", "addr:city": "Matthews", "addr:state": "KY", "addr:postcode": "40207", "addr:country": "US", "name": "The Walden School", "website": "https://www.bncollege.com/campus-stores/", "brand": "Barnes & Noble College"}},
{"type": "Feature", "id": "4kTfCGkpFF1oMjmV8mE-ppzej5E=", "properties": {"ref": "The WKU Store", "@spider": "barnesnoblecollege", "addr:full": "1906 College Heights Blvd", "addr:city": "Green", "addr:state": "KY", "addr:postcode": "42101", "addr:country": "US", "name": "The WKU Store", "website": "https://www.bncollege.com/campus-stores/", "brand": "Barnes & Noble College"}},
{"type": "Feature", "id": "8h1LHd7bwPgWj7nuxmSFEVTbO1U=", "properties": {"ref": "Academy of the Sacred Heart", "@spider": "barnesnoblecollege", "addr:full": "4521 St Charles Ave", "addr:city": "Orleans", "addr:state": "LA", "addr:postcode": "70115", "addr:country": "US", "name": "Academy of the Sacred Heart", "website": "https://www.bncollege.com/campus-stores/", "brand": "Barnes & Noble College"}},
{"type": "Feature", "id": "W1o9lv1-GAERH6lqCTYs3B7hb9g=", "properties": {"ref": "Brother Martin High School", "@spider": "barnesnoblecollege", "addr:full": "4401 Elysian Fields Ave", "addr:city": "Orleans", "addr:state": "LA", "addr:postcode": "70122", "addr:country": "US", "name": "Brother Martin High School", "website": "https://www.bncollege.com/campus-stores/", "brand": "Barnes & Noble College"}},
{"type": "Feature", "id": "mvaiFeEc-Ae9Zu94m0C5z07H68E=", "properties": {"ref": "Cabrini High School", "@spider": "barnesnoblecollege", "addr:full": "1400 Moss St", "addr:city": "Orleans", "addr:state": "LA", "addr:postcode": "70119", "addr:country": "US", "name": "Cabrini High School", "website": "https://www.bncollege.com/campus-stores/", "brand": "Barnes & Noble College"}},
{"type": "Feature", "id": "TeTLqSoi-A-Gl_lQaDarVr8aeog=", "properties": {"ref": "De La Salle High School", "@spider": "barnesnoblecollege", "addr:full": "5300 St Charles Ave", "addr:city": "Orleans", "addr:state": "LA", "addr:postcode": "70115", "addr:country": "US", "name": "De La Salle High School", "website": "https://www.bncollege.com/campus-stores/", "brand": "Barnes & Noble College"}},
{"type": "Feature", "id": "ok-nSkkITGaTAw55oVzokdTOHN0=", "properties": {"ref": "Delgado Community College Bookstore", "@spider": "barnesnoblecollege", "addr:full": "615 City Park Ave", "addr:city": "Orleans", "addr:state": "LA", "addr:postcode": "70119", "addr:country": "US", "name": "Delgado Community College Bookstore", "website": "https://www.bncollege.com/campus-stores/", "brand": "Barnes & Noble College"}},
{"type": "Feature", "id": "q0wMOYP5Mo2mVGrn7xLgRRYyXgw=", "properties": {"ref": "Delgado Community College Bookstore \u2013 West Bank Campus", "@spider": "barnesnoblecollege", "addr:full": "2600 General Meyer Ave", "addr:city": "Orleans", "addr:state": "LA", "addr:postcode": "70114", "addr:country": "US", "name": "Delgado Community College Bookstore \u2013 West Bank Campus", "website": "https://www.bncollege.com/campus-stores/", "brand": "Barnes & Noble College"}},
{"type": "Feature", "id": "vHn-sAUPUAFGzMOH--FHAZ2qdZs=", "properties": {"ref": "Franciscan Missionaries of Our Lady University", "@spider": "barnesnoblecollege", "addr:full": "5414 Brittany Dr STE A", "addr:city": "Rouge", "addr:state": "LA", "addr:postcode": "70808", "addr:country": "US", "name": "Franciscan Missionaries of Our Lady University", "website": "https://www.bncollege.com/campus-stores/", "brand": "Barnes & Noble College"}},
{"type": "Feature", "id": "BY3ZHtl9jczvt3xEbYsq-ivtBZg=", "properties": {"ref": "Holy Cross School", "@spider": "barnesnoblecollege", "addr:full": "4950 Dauphine St", "addr:city": "Orleans", "addr:state": "LA", "addr:postcode": "70117", "addr:country": "US", "name": "Holy Cross School", "website": "https://www.bncollege.com/campus-stores/", "brand": "Barnes & Noble College"}},
{"type": "Feature", "id": "_hHNMxCF-cF7XhilQnBLwxbt7VI=", "properties": {"ref": "Isidore Newman School", "@spider": "barnesnoblecollege", "addr:full": "1903 Jefferson Ave", "addr:city": "Orleans", "addr:state": "LA", "addr:postcode": "70115", "addr:country": "US", "name": "Isidore Newman School", "website": "https://www.bncollege.com/campus-stores/", "brand": "Barnes & Noble College"}},
{"type": "Feature", "id": "WOZ-NxMG9Smpc7jBbzxuT7c-p3M=", "properties": {"ref": "Jesuit High School of New Orleans", "@spider": "barnesnoblecollege", "addr:full": "4133 Banks St", "addr:city": "Orleans", "addr:state": "LA", "addr:postcode": "70119", "addr:country": "US", "name": "Jesuit High School of New Orleans", "website": "https://www.bncollege.com/campus-stores/", "brand": "Barnes & Noble College"}},
{"type": "Feature", "id": "K5PXmqgpZHw7YCZwlkWnyxECuSQ=", "properties": {"ref": "Louisiana State University Campus Bookstore", "@spider": "barnesnoblecollege", "addr:full": "2 Union Square", "addr:city": "Rouge", "addr:state": "LA", "addr:postcode": "70803", "addr:country": "US", "name": "Louisiana State University Campus Bookstore", "website": "https://www.bncollege.com/campus-stores/", "brand": "Barnes & Noble College"}},
{"type": "Feature", "id": "NqxC6Htjr7CHwE7odFa77-FGO-0=", "properties": {"ref": "Loyola University New Orleans Bookstore", "@spider": "barnesnoblecollege", "addr:full": "6363 St Charles Ave", "addr:city": "Orleans", "addr:state": "LA", "addr:postcode": "70118", "addr:country": "US", "name": "Loyola University New Orleans Bookstore", "website": "https://www.bncollege.com/campus-stores/", "brand": "Barnes & Noble College"}},
{"type": "Feature", "id": "V4QHuemTKDD_lppK_lSHcAceDD8=", "properties": {"ref": "Mount Carmel Academy", "@spider": "barnesnoblecollege", "addr:full": "7027 Milne Blvd", "addr:city": "Orleans", "addr:state": "LA", "addr:postcode": "70124", "addr:country": "US", "name": "Mount Carmel Academy", "website": "https://www.bncollege.com/campus-stores/", "brand": "Barnes & Noble College"}},
{"type": "Feature", "id": "2s50UvuJuweJIkGRvMR9KfesOv4=", "properties": {"ref": "St. Mary\u2019s Dominican High School", "@spider": "barnesnoblecollege", "addr:full": "7701 Walmsley Ave", "addr:city": "Orleans", "addr:state": "LA", "addr:postcode": "70125", "addr:country": "US", "name": "St. Mary\u2019s Dominican High School", "website": "https://www.bncollege.com/campus-stores/", "brand": "Barnes & Noble College"}},
{"type": "Feature", "id": "qUQC_Y1-MUGAr1mq7CAUEoXqMtU=", "properties": {"ref": "Tulane University Bookstore", "@spider": "barnesnoblecollege", "addr:full": "29 McAlister Dr", "addr:city": "Orleans", "addr:state": "LA", "addr:postcode": "70118", "addr:country": "US", "name": "Tulane University Bookstore", "website": "https://www.bncollege.com/campus-stores/", "brand": "Barnes & Noble College"}},
{"type": "Feature", "id": "TrlT9GKOyWnufKT2izZDzXAgV6g=", "properties": {"ref": "Ursuline Academy of New Orleans", "@spider": "barnesnoblecollege", "addr:full": "2635 State St", "addr:city": "Orleans", "addr:state": "LA", "addr:postcode": "70118", "addr:country": "US", "name": "Ursuline Academy of New Orleans", "website": "https://www.bncollege.com/campus-stores/", "brand": "Barnes & Noble College"}},
{"type": "Feature", "id": "ckcFsxcG6KRapTB0jQ5zGfTchN0=", "properties": {"ref": "Xavier University of Louisiana Bookstore", "@spider": "barnesnoblecollege", "addr:full": "4980 Dixon St", "addr:city": "Orleans", "addr:state": "LA", "addr:postcode": "70125", "addr:country": "US", "name": "Xavier University of Louisiana Bookstore", "website": "https://www.bncollege.com/campus-stores/", "brand": "Barnes & Noble College"}},
{"type": "Feature", "id": "sswbn5gkQB54meQL9ohPcc9rT_E=", "properties": {"ref": "Cecil College Bookstore", "@spider": "barnesnoblecollege", "addr:full": "3135 Joseph Biggs Memorial Hwy", "addr:city": "East", "addr:state": "MD", "addr:postcode": "21901", "addr:country": "US", "name": "Cecil College Bookstore", "website": "https://www.bncollege.com/campus-stores/", "brand": "Barnes & Noble College"}},
{"type": "Feature", "id": "iUMpev5XpZEOnoFGL3vXuQ1Y69Q=", "properties": {"ref": "Garrison Forest School", "@spider": "barnesnoblecollege", "addr:full": "300 Garrison Forest Rd", "addr:city": "Mills", "addr:state": "MD", "addr:postcode": "21117", "addr:country": "US", "name": "Garrison Forest School", "website": "https://www.bncollege.com/campus-stores/", "brand": "Barnes & Noble College"}},
{"type": "Feature", "id": "PteZob2az5KHuVQ859YTJClC1Ms=", "properties": {"ref": "Glenelg Country School", "@spider": "barnesnoblecollege", "addr:full": "12793 Folly Quarter Rd", "addr:city": "City", "addr:state": "MD", "addr:postcode": "21042", "addr:country": "US", "name": "Glenelg Country School", "website": "https://www.bncollege.com/campus-stores/", "brand": "Barnes & Noble College"}},
{"type": "Feature", "id": "QuEReoHQ8rjCjgRb_lwdWCtFNOc=", "properties": {"ref": "Severn School", "@spider": "barnesnoblecollege", "addr:full": "201 Water St", "addr:city": "Park", "addr:state": "MD", "addr:postcode": "21146", "addr:country": "US", "name": "Severn School", "website": "https://www.bncollege.com/campus-stores/", "brand": "Barnes & Noble College"}},
{"type": "Feature", "id": "VfkQVdgTs9r8QAsaSuTOl6mDnl8=", "properties": {"ref": "The University of MD Under Armour Store", "@spider": "barnesnoblecollege", "addr:full": "90 Stadium Dr", "addr:city": "Park", "addr:state": "MD", "addr:postcode": "20742", "addr:country": "US", "name": "The University of MD Under Armour Store", "website": "https://www.bncollege.com/campus-stores/", "brand": "Barnes & Noble College"}},
{"type": "Feature", "id": "3DljJHM4rDwcxxXs9Pxqqj09Hso=", "properties": {"ref": "University of Maryland College Park University Book Center", "@spider": "barnesnoblecollege", "addr:full": "versity Book Center/ B&N #370 Stamp Student Union Building #163", "addr:city": "Park", "addr:state": "MD", "addr:postcode": "20742", "addr:country": "US", "name": "University of Maryland College Park University Book Center", "website": "https://www.bncollege.com/campus-stores/", "brand": "Barnes & Noble College"}},
{"type": "Feature", "id": "9K9ZHtxek5l4woHsBssM6G0jlX0=", "properties": {"ref": "University of Maryland Eastern Shore Bookstore", "@spider": "barnesnoblecollege", "addr:full": "MES - Student Services Center", "addr:city": "East Princess Anne", "addr:state": "MD", "addr:postcode": "21853", "addr:country": "US", "name": "University of Maryland Eastern Shore Bookstore", "website": "https://www.bncollege.com/campus-stores/", "brand": "Barnes & Noble College"}},
{"type": "Feature", "id": "lAFtH4hZPFJrI2SABi9Hgo4GJH0=", "properties": {"ref": "University of Maryland Terrapin Team Shop", "@spider": "barnesnoblecollege", "addr:full": "8500 Paint Branch Dr", "addr:city": "Park", "addr:state": "MD", "addr:postcode": "20740", "addr:country": "US", "name": "University of Maryland Terrapin Team Shop", "website": "https://www.bncollege.com/campus-stores/", "brand": "Barnes & Noble College"}},
{"type": "Feature", "id": "enJPYBpUXmDrvUnOoL5ZkzwBIoE=", "properties": {"ref": "Washington Adventist University", "@spider": "barnesnoblecollege", "addr:full": "7600 Flower Ave", "addr:city": "Park", "addr:state": "MD", "addr:postcode": "20912", "addr:country": "US", "name": "Washington Adventist University", "website": "https://www.bncollege.com/campus-stores/", "brand": "Barnes & Noble College"}},
{"type": "Feature", "id": "pHsymw0FZ_SfrZ4tfsl9qaNTu2s=", "properties": {"ref": "Brimmer and May School", "@spider": "barnesnoblecollege", "addr:full": "69 Middlesex Rd", "addr:city": "Hill", "addr:state": "MA", "addr:postcode": "02467", "addr:country": "US", "name": "Brimmer and May School", "website": "https://www.bncollege.com/campus-stores/", "brand": "Barnes & Noble College"}},
{"type": "Feature", "id": "Dq2aZMjZ-Gs39chK3I5B_v8ywjI=", "properties": {"ref": "Northfield Mount Hermon", "@spider": "barnesnoblecollege", "addr:full": "1 Lamplighter Way", "addr:city": "Hermon", "addr:state": "MA", "addr:postcode": "01354", "addr:country": "US", "name": "Northfield Mount Hermon", "website": "https://www.bncollege.com/campus-stores/", "brand": "Barnes & Noble College"}},
{"type": "Feature", "id": "fgO7FtCUSOKiTESkHBcKrwfQn6E=", "properties": {"ref": "The Roxbury Latin School", "@spider": "barnesnoblecollege", "addr:full": "101 St Theresa Ave", "addr:city": "Roxbury", "addr:state": "MA", "addr:postcode": "02132", "addr:country": "US", "name": "The Roxbury Latin School", "website": "https://www.bncollege.com/campus-stores/", "brand": "Barnes & Noble College"}},
{"type": "Feature", "id": "yLruVgfBMGkCrIpL7XXkbggEaTU=", "properties": {"ref": "Andrews University Bookstore", "@spider": "barnesnoblecollege", "addr:full": "4245 Administration Dr", "addr:city": "Springs", "addr:state": "MI", "addr:postcode": "49103", "addr:country": "US", "name": "Andrews University Bookstore", "website": "https://www.bncollege.com/campus-stores/", "brand": "Barnes & Noble College"}},
{"type": "Feature", "id": "zdzClJtD4Xv12jJ-kvtHEVRw31Q=", "properties": {"ref": "Central Michigan University", "@spider": "barnesnoblecollege", "addr:full": "250 E Bellows St", "addr:city": "Pleasant", "addr:state": "MI", "addr:postcode": "48858", "addr:country": "US", "name": "Central Michigan University", "website": "https://www.bncollege.com/campus-stores/", "brand": "Barnes & Noble College"}},
{"type": "Feature", "id": "N18fH1O78ImqvmRcfO_R4FWQW1s=", "properties": {"ref": "Cranbrook Schools", "@spider": "barnesnoblecollege", "addr:full": "39221 Woodward Ave", "addr:city": "Hills", "addr:state": "MI", "addr:postcode": "48304", "addr:country": "US", "name": "Cranbrook Schools", "website": "https://www.bncollege.com/campus-stores/", "brand": "Barnes & Noble College"}},
{"type": "Feature", "id": "cgwmWS1q_Ian7hLqfjt-K4P2j4Y=", "properties": {"ref": "Detroit Country Day School", "@spider": "barnesnoblecollege", "addr:full": "22305 W 13 Mile Rd", "addr:city": "Hills", "addr:state": "MI", "addr:postcode": "48025", "addr:country": "US", "name": "Detroit Country Day School", "website": "https://www.bncollege.com/campus-stores/", "brand": "Barnes & Noble College"}},
{"type": "Feature", "id": "Lmkx3av1q2waUO87NqIh3jK0d6w=", "properties": {"ref": "Emerson School", "@spider": "barnesnoblecollege", "addr:full": "5425 Scio Church Rd", "addr:city": "Arbor", "addr:state": "MI", "addr:postcode": "48103", "addr:country": "US", "name": "Emerson School", "website": "https://www.bncollege.com/campus-stores/", "brand": "Barnes & Noble College"}},
{"type": "Feature", "id": "iZz2MYFpeSnHFB1KMCEMFKX4hAo=", "properties": {"ref": "Everest Collegiate High School and Academy", "@spider": "barnesnoblecollege", "addr:full": "5935 Clarkston Rd", "addr:city": "of Clarkston", "addr:state": "MI", "addr:postcode": "48348", "addr:country": "US", "name": "Everest Collegiate High School and Academy", "website": "https://www.bncollege.com/campus-stores/", "brand": "Barnes & Noble College"}},
{"type": "Feature", "id": "_Hz1kIfl46qUx9PvsBt774fdabs=", "properties": {"ref": "Ferris State University Bookstore", "@spider": "barnesnoblecollege", "addr:full": "3195 28th St SE Suite B116", "addr:city": "Rapids", "addr:state": "MI", "addr:postcode": "49512", "addr:country": "US", "name": "Ferris State University Bookstore", "website": "https://www.bncollege.com/campus-stores/", "brand": "Barnes & Noble College"}},
{"type": "Feature", "id": "6zqvYpd72uAeTendDd_8jCWryZk=", "properties": {"ref": "Greenhills School", "@spider": "barnesnoblecollege", "addr:full": "850 Greenhills Dr", "addr:city": "Arbor", "addr:state": "MI", "addr:postcode": "48105", "addr:country": "US", "name": "Greenhills School", "website": "https://www.bncollege.com/campus-stores/", "brand": "Barnes & Noble College"}},
{"type": "Feature", "id": "bQFd1xiiEVyEdpLeA7llCwEmiSA=", "properties": {"ref": "Griggs International Academy", "@spider": "barnesnoblecollege", "addr:full": "8903 US Hwy 31", "addr:city": "Springs", "addr:state": "MI", "addr:postcode": "49104", "addr:country": "US", "name": "Griggs International Academy", "website": "https://www.bncollege.com/campus-stores/", "brand": "Barnes & Noble College"}},
{"type": "Feature", "id": "gOUPfc5dxuGtwiUW28hDRF19XaQ=", "properties": {"ref": "Lake Michigan College Bookstore", "@spider": "barnesnoblecollege", "addr:full": "2755 E Napier Ave", "addr:city": "Harbor", "addr:state": "MI", "addr:postcode": "49022", "addr:country": "US", "name": "Lake Michigan College Bookstore", "website": "https://www.bncollege.com/campus-stores/", "brand": "Barnes & Noble College"}},
{"type": "Feature", "id": "IyeyQk8GkwL2E9B-VHwLpJimXVk=", "properties": {"ref": "Lake Superior State University Campus Bookstore", "@spider": "barnesnoblecollege", "addr:full": "1000 College Dr", "addr:city": "Ste. Marie", "addr:state": "MI", "addr:postcode": "49783", "addr:country": "US", "name": "Lake Superior State University Campus Bookstore", "website": "https://www.bncollege.com/campus-stores/", "brand": "Barnes & Noble College"}},
{"type": "Feature", "id": "S6Si-bB7IdIvH5T2XmxwYi-F1yY=", "properties": {"ref": "Marian High School", "@spider": "barnesnoblecollege", "addr:full": "7225 Lahser Rd", "addr:city": "Hills", "addr:state": "MI", "addr:postcode": "48301", "addr:country": "US", "name": "Marian High School", "website": "https://www.bncollege.com/campus-stores/", "brand": "Barnes & Noble College"}},
{"type": "Feature", "id": "HoHnwcsx1KuhWvwzapQGpjuomTc=", "properties": {"ref": "Mercy High School", "@spider": "barnesnoblecollege", "addr:full": "29300 W Eleven Mile Rd", "addr:city": "Hills", "addr:state": "MI", "addr:postcode": "48334", "addr:country": "US", "name": "Mercy High School", "website": "https://www.bncollege.com/campus-stores/", "brand": "Barnes & Noble College"}},
{"type": "Feature", "id": "yG7IpWbDF8QdSORr45W62oIjMNI=", "properties": {"ref": "Our Lady of the Lakes High School", "@spider": "barnesnoblecollege", "addr:full": "5495 Dixie Hwy", "addr:city": "Twp", "addr:state": "MI", "addr:postcode": "48329", "addr:country": "US", "name": "Our Lady of the Lakes High School", "website": "https://www.bncollege.com/campus-stores/", "brand": "Barnes & Noble College"}},
{"type": "Feature", "id": "MVHrTqi5vZtvq7hJ3XEJ7vmJU80=", "properties": {"ref": "Rochester University", "@spider": "barnesnoblecollege", "addr:full": "800 W Avon Rd", "addr:city": "Hills", "addr:state": "MI", "addr:postcode": "48307", "addr:country": "US", "name": "Rochester University", "website": "https://www.bncollege.com/campus-stores/", "brand": "Barnes & Noble College"}},
{"type": "Feature", "id": "CJ9FgOe26cZU8Q9QftWASfswHks=", "properties": {"ref": "Shrine Catholic Schools", "@spider": "barnesnoblecollege", "addr:full": "3500 W 13 Mile Rd", "addr:city": "Oak", "addr:state": "MI", "addr:postcode": "48073", "addr:country": "US", "name": "Shrine Catholic Schools", "website": "https://www.bncollege.com/campus-stores/", "brand": "Barnes & Noble College"}},
{"type": "Feature", "id": "D4bUGXuHUoM2RUkX38TOHha-oOI=", "properties": {"ref": "Spring Arbor University", "@spider": "barnesnoblecollege", "addr:full": "106 E Main St", "addr:city": "Arbor", "addr:state": "MI", "addr:postcode": "49283", "addr:country": "US", "name": "Spring Arbor University", "website": "https://www.bncollege.com/campus-stores/", "brand": "Barnes & Noble College"}},
{"type": "Feature", "id": "SWNRrKESgGDsoAMNg6P6hPPQLGo=", "properties": {"ref": "The Roeper School", "@spider": "barnesnoblecollege", "addr:full": "41190 Woodward Ave", "addr:city": "Hills", "addr:state": "MI", "addr:postcode": "48304", "addr:country": "US", "name": "The Roeper School", "website": "https://www.bncollege.com/campus-stores/", "brand": "Barnes & Noble College"}},
{"type": "Feature", "id": "kXLEo3DrLVBIk9fiCjwgouD9Rzs=", "properties": {"ref": "University Liggett School", "@spider": "barnesnoblecollege", "addr:full": "1045 Cook Rd", "addr:city": "Pointe Woods", "addr:state": "MI", "addr:postcode": "48236", "addr:country": "US", "name": "University Liggett School", "website": "https://www.bncollege.com/campus-stores/", "brand": "Barnes & Noble College"}},
{"type": "Feature", "id": "8gS-sQgu0MUz2bN0WCQlH3j0ClY=", "properties": {"ref": "University of Michigan North Campus Commons Bookstore", "@spider": "barnesnoblecollege", "addr:full": "2101 Bonisteel Blvd", "addr:city": "Arbor", "addr:state": "MI", "addr:postcode": "48109", "addr:country": "US", "name": "University of Michigan North Campus Commons Bookstore", "website": "https://www.bncollege.com/campus-stores/", "brand": "Barnes & Noble College"}},
{"type": "Feature", "id": "GXtpLIWwro56_wTQdheZzcS2Dn0=", "properties": {"ref": "University of Michigan Union Campus Store", "@spider": "barnesnoblecollege", "addr:full": "Evergreen Dr", "addr:city": "Arbor", "addr:state": "MI", "addr:postcode": "48103", "addr:country": "US", "name": "University of Michigan Union Campus Store", "website": "https://www.bncollege.com/campus-stores/", "brand": "Barnes & Noble College"}},
{"type": "Feature", "id": "31md4SMz5zM2Z_0RhmQxNLJkj5w=", "properties": {"ref": "Washtenaw Community College Bookstore", "@spider": "barnesnoblecollege", "addr:full": "4800 E Huron River Dr", "addr:city": "Arbor", "addr:state": "MI", "addr:postcode": "48105", "addr:country": "US", "name": "Washtenaw Community College Bookstore", "website": "https://www.bncollege.com/campus-stores/", "brand": "Barnes & Noble College"}},
{"type": "Feature", "id": "d7Kqo7tv-HMqZFQZ4zNrpphsLs4=", "properties": {"ref": "Bethel Seminary", "@spider": "barnesnoblecollege", "addr:full": "3900 Bethel Dr", "addr:city": "Paul", "addr:state": "MN", "addr:postcode": "55112", "addr:country": "US", "name": "Bethel Seminary", "website": "https://www.bncollege.com/campus-stores/", "brand": "Barnes & Noble College"}},
{"type": "Feature", "id": "a83atB_60QSenRodqAtEKhEL5qY=", "properties": {"ref": "Bethel University (Minnesota)", "@spider": "barnesnoblecollege", "addr:full": "3900 Bethel Dr", "addr:city": "Paul", "addr:state": "MN", "addr:postcode": "55112", "addr:country": "US", "name": "Bethel University (Minnesota)", "website": "https://www.bncollege.com/campus-stores/", "brand": "Barnes & Noble College"}},
{"type": "Feature", "id": "Sw3OMHNYVHuI-7X6QvF7pGxjh_A=", "properties": {"ref": "Crown College", "@spider": "barnesnoblecollege", "addr:full": "8700 College View Dr", "addr:city": "Bonifacius", "addr:state": "MN", "addr:postcode": "55375", "addr:country": "US", "name": "Crown College", "website": "https://www.bncollege.com/campus-stores/", "brand": "Barnes & Noble College"}},
{"type": "Feature", "id": "wRg3DasWHdtOM3W9WTbCoBzCLjY=", "properties": {"ref": "Macalester College Store", "@spider": "barnesnoblecollege", "addr:full": "32 Snelling Ave S", "addr:city": "Paul", "addr:state": "MN", "addr:postcode": "55105", "addr:country": "US", "name": "Macalester College Store", "website": "https://www.bncollege.com/campus-stores/", "brand": "Barnes & Noble College"}},
{"type": "Feature", "id": "iPNz4lFNRt0u6woJbo7NrFnBrY8=", "properties": {"ref": "Metropolitan State University Bookstore", "@spider": "barnesnoblecollege", "addr:full": "645 E 7th St", "addr:city": "Paul", "addr:state": "MN", "addr:postcode": "55106", "addr:country": "US", "name": "Metropolitan State University Bookstore", "website": "https://www.bncollege.com/campus-stores/", "brand": "Barnes & Noble College"}},
{"type": "Feature", "id": "AYeJ_LVmfg5XoxMNIHlaASCE7qM=", "properties": {"ref": "St. Catherine University", "@spider": "barnesnoblecollege", "addr:full": "2004 Randolph Ave", "addr:city": "Paul", "addr:state": "MN", "addr:postcode": "55105", "addr:country": "US", "name": "St. Catherine University", "website": "https://www.bncollege.com/campus-stores/", "brand": "Barnes & Noble College"}},
{"type": "Feature", "id": "Oqi0iQQKusbWBiqI5bmtj6q39cw=", "properties": {"ref": "University of Southern Mississippi Bookstore \u2013 Gulf Park Campus", "@spider": "barnesnoblecollege", "addr:full": "730 Beach Blvd E", "addr:city": "Beach", "addr:state": "MS", "addr:postcode": "39560", "addr:country": "US", "name": "University of Southern Mississippi Bookstore \u2013 Gulf Park Campus", "website": "https://www.bncollege.com/campus-stores/", "brand": "Barnes & Noble College"}},
{"type": "Feature", "id": "4CKtVenWj9rqs54_uLprgcROsK8=", "properties": {"ref": "De Smet Jesuit High School", "@spider": "barnesnoblecollege", "addr:full": "233 N New Ballas Rd", "addr:city": "Louis", "addr:state": "MO", "addr:postcode": "63141", "addr:country": "US", "name": "De Smet Jesuit High School", "website": "https://www.bncollege.com/campus-stores/", "brand": "Barnes & Noble College"}},
{"type": "Feature", "id": "PpjmRZRayBg38ttySeEXbp9qf5o=", "properties": {"ref": "John Burroughs School", "@spider": "barnesnoblecollege", "addr:full": "755 S Price Rd", "addr:city": "Louis", "addr:state": "MO", "addr:postcode": "63124", "addr:country": "US", "name": "John Burroughs School", "website": "https://www.bncollege.com/campus-stores/", "brand": "Barnes & Noble College"}},
{"type": "Feature", "id": "wQGICT_Q7V4Vl1BppCDnzYazNmc=", "properties": {"ref": "Lindenwood University Bookstore", "@spider": "barnesnoblecollege", "addr:full": "2600 S Main St", "addr:city": "Charles", "addr:state": "MO", "addr:postcode": "63303", "addr:country": "US", "name": "Lindenwood University Bookstore", "website": "https://www.bncollege.com/campus-stores/", "brand": "Barnes & Noble College"}},
{"type": "Feature", "id": "Gl7S_4aBS4wh_wAnjHfXaa5okpg=", "properties": {"ref": "Nerinx Hall High School", "@spider": "barnesnoblecollege", "addr:full": "530 E Lockwood Ave", "addr:city": "Groves", "addr:state": "MO", "addr:postcode": "63119", "addr:country": "US", "name": "Nerinx Hall High School", "website": "https://www.bncollege.com/campus-stores/", "brand": "Barnes & Noble College"}},
{"type": "Feature", "id": "8QUQ0XVUAhNY8FDysQyJJbrEw6Q=", "properties": {"ref": "Rockhurst University Bookstore", "@spider": "barnesnoblecollege", "addr:full": "1240 East 53rd St/Massman Hall", "addr:city": "City", "addr:state": "MO", "addr:postcode": "64110", "addr:country": "US", "name": "Rockhurst University Bookstore", "website": "https://www.bncollege.com/campus-stores/", "brand": "Barnes & Noble College"}},
{"type": "Feature", "id": "e6LFf7XH4REEsUABlTdU06eOtTw=", "properties": {"ref": "Saint Louis University Bookstore, Busch Student Center", "@spider": "barnesnoblecollege", "addr:full": "20 N Grand Blvd", "addr:city": "Louis", "addr:state": "MO", "addr:postcode": "63103", "addr:country": "US", "name": "Saint Louis University Bookstore, Busch Student Center", "website": "https://www.bncollege.com/campus-stores/", "brand": "Barnes & Noble College"}},
{"type": "Feature", "id": "w8Cfh3zAp5ikD0CGWNFyfdC_ybM=", "properties": {"ref": "Southeast Health College of Nursing and Health Sciences", "@spider": "barnesnoblecollege", "addr:full": "2001 William St FL 2", "addr:city": "Girardeau", "addr:state": "MO", "addr:postcode": "63703", "addr:country": "US", "name": "Southeast Health College of Nursing and Health Sciences", "website": "https://www.bncollege.com/campus-stores/", "brand": "Barnes & Noble College"}},
{"type": "Feature", "id": "cPbUb2GosG656e9CZ6nrH1FfcU8=", "properties": {"ref": "St. Joseph\u2019s Academy", "@spider": "barnesnoblecollege", "addr:full": "2307 S Lindbergh Blvd", "addr:city": "Louis", "addr:state": "MO", "addr:postcode": "63127", "addr:country": "US", "name": "St. Joseph\u2019s Academy", "website": "https://www.bncollege.com/campus-stores/", "brand": "Barnes & Noble College"}},
{"type": "Feature", "id": "mwikkPq8oocjriJn2Uva2I-ucTQ=", "properties": {"ref": "St. Louis University High", "@spider": "barnesnoblecollege", "addr:full": "4970 Oakland Ave", "addr:city": "Louis", "addr:state": "MO", "addr:postcode": "63110", "addr:country": "US", "name": "St. Louis University High", "website": "https://www.bncollege.com/campus-stores/", "brand": "Barnes & Noble College"}},
{"type": "Feature", "id": "7I4ol5OOdNf2uCrR7KWVThaAdpQ=", "properties": {"ref": "St. Luke\u2019s College", "@spider": "barnesnoblecollege", "addr:full": "624 Westport Rd", "addr:city": "City", "addr:state": "MO", "addr:postcode": "64111", "addr:country": "US", "name": "St. Luke\u2019s College", "website": "https://www.bncollege.com/campus-stores/", "brand": "Barnes & Noble College"}},
{"type": "Feature", "id": "8ooIS0xViQbShrUlzLp8bfbjxPE=", "properties": {"ref": "Thomas Jefferson School", "@spider": "barnesnoblecollege", "addr:full": "4100 S Lindbergh Blvd", "addr:city": "Louis", "addr:state": "MO", "addr:postcode": "63127", "addr:country": "US", "name": "Thomas Jefferson School", "website": "https://www.bncollege.com/campus-stores/", "brand": "Barnes & Noble College"}},
{"type": "Feature", "id": "Ctgjq3a3KjuGehb0_JpTgj9e4zE=", "properties": {"ref": "Visitation Academy of St. Louis", "@spider": "barnesnoblecollege", "addr:full": "3020 N Ballas Rd", "addr:city": "Louis", "addr:state": "MO", "addr:postcode": "63131", "addr:country": "US", "name": "Visitation Academy of St. Louis", "website": "https://www.bncollege.com/campus-stores/", "brand": "Barnes & Noble College"}},
{"type": "Feature", "id": "8GHusBW8fSp9yGuU0Xdh-fAnkd4=", "properties": {"ref": "Whitfield School", "@spider": "barnesnoblecollege", "addr:full": "175 S Mason Rd", "addr:city": "Louis", "addr:state": "MO", "addr:postcode": "63141", "addr:country": "US", "name": "Whitfield School", "website": "https://www.bncollege.com/campus-stores/", "brand": "Barnes & Noble College"}},
{"type": "Feature", "id": "d_1D36_L18C3via0qoYiCYdyAMo=", "properties": {"ref": "The Meadows School", "@spider": "barnesnoblecollege", "addr:full": "8601 Scholar Ln", "addr:city": "Vegas", "addr:state": "NV", "addr:postcode": "89128", "addr:country": "US", "name": "The Meadows School", "website": "https://www.bncollege.com/campus-stores/", "brand": "Barnes & Noble College"}},
{"type": "Feature", "id": "UYKkrP_sx3cYtFeHvKTVV_N83_k=", "properties": {"ref": "UNLV Bookstore", "@spider": "barnesnoblecollege", "addr:full": "4505 S Maryland Pkwy Box 1056", "addr:city": "Vegas", "addr:state": "NV", "addr:postcode": "89154", "addr:country": "US", "name": "UNLV Bookstore", "website": "https://www.bncollege.com/campus-stores/", "brand": "Barnes & Noble College"}},
{"type": "Feature", "id": "7Np735u6iPA8xYAsA1fIA_W--so=", "properties": {"ref": "Colby-Sawyer College", "@spider": "barnesnoblecollege", "addr:full": "541 Main St", "addr:city": "London", "addr:state": "NH", "addr:postcode": "03257", "addr:country": "US", "name": "Colby-Sawyer College", "website": "https://www.bncollege.com/campus-stores/", "brand": "Barnes & Noble College"}},
{"type": "Feature", "id": "eoGEEC_eKKp-pJRjemIAHY3dfgc=", "properties": {"ref": "New Jersey City University Bookstore", "@spider": "barnesnoblecollege", "addr:full": "2039 John F. Kennedy Blvd", "addr:city": "City", "addr:state": "NJ", "addr:postcode": "07305", "addr:country": "US", "name": "New Jersey City University Bookstore", "website": "https://www.bncollege.com/campus-stores/", "brand": "Barnes & Noble College"}},
{"type": "Feature", "id": "7YVDSfSD4kCKnG4OhawDoJFGuiA=", "properties": {"ref": "Ocean County College Bookstore", "@spider": "barnesnoblecollege", "addr:full": "1 College Dr Building 8", "addr:city": "River", "addr:state": "NJ", "addr:postcode": "08753", "addr:country": "US", "name": "Ocean County College Bookstore", "website": "https://www.bncollege.com/campus-stores/", "brand": "Barnes & Noble College"}},
{"type": "Feature", "id": "Bpyezs7tuUrCoUMfWJtdigILVl0=", "properties": {"ref": "Ranney School", "@spider": "barnesnoblecollege", "addr:full": "235 Hope Rd", "addr:city": "Falls", "addr:state": "NJ", "addr:postcode": "07724", "addr:country": "US", "name": "Ranney School", "website": "https://www.bncollege.com/campus-stores/", "brand": "Barnes & Noble College"}},
{"type": "Feature", "id": "UBNQ1K1OY6nvyTo3TOECQuQAjgY=", "properties": {"ref": "Rutgers University Bookstore", "@spider": "barnesnoblecollege", "addr:full": "106 Somerset St", "addr:city": "Brunswick", "addr:state": "NJ", "addr:postcode": "08901", "addr:country": "US", "name": "Rutgers University Bookstore", "website": "https://www.bncollege.com/campus-stores/", "brand": "Barnes & Noble College"}},
{"type": "Feature", "id": "b_TKsHR-M-4UbZ1LfKJJ7j8dE_s=", "properties": {"ref": "Salem Community College Bookstore", "@spider": "barnesnoblecollege", "addr:full": "460 Hollywood Ave", "addr:city": "Point", "addr:state": "NJ", "addr:postcode": "08069", "addr:country": "US", "name": "Salem Community College Bookstore", "website": "https://www.bncollege.com/campus-stores/", "brand": "Barnes & Noble College"}},
{"type": "Feature", "id": "-qOkfI7zPh_ctzk5-adWdmDDYLM=", "properties": {"ref": "The College of New Jersey Bookstore", "@spider": "barnesnoblecollege", "addr:full": "500 Campus Town Drive", "addr:city": "Township", "addr:state": "NJ", "addr:postcode": "08618", "addr:country": "US", "name": "The College of New Jersey Bookstore", "website": "https://www.bncollege.com/campus-stores/", "brand": "Barnes & Noble College"}},
{"type": "Feature", "id": "f4WJDsg4VDCgYRoqcGK5vr0t-z0=", "properties": {"ref": "The Pingry School", "@spider": "barnesnoblecollege", "addr:full": "131 Martinsville Rd", "addr:city": "Ridge", "addr:state": "NJ", "addr:postcode": "07920", "addr:country": "US", "name": "The Pingry School", "website": "https://www.bncollege.com/campus-stores/", "brand": "Barnes & Noble College"}},
{"type": "Feature", "id": "tVEJyrrXW4KUOZHsTSA4HrPUWiQ=", "properties": {"ref": "Luna Community College", "@spider": "barnesnoblecollege", "addr:full": "366 Luna Dr", "addr:city": "Vegas", "addr:state": "NM", "addr:postcode": "87701", "addr:country": "US", "name": "Luna Community College", "website": "https://www.bncollege.com/campus-stores/", "brand": "Barnes & Noble College"}},
{"type": "Feature", "id": "MDu6o8osJraUMcKYAWiVaVhvN7k=", "properties": {"ref": "Santa Fe Community College", "@spider": "barnesnoblecollege", "addr:full": "6401 Richards avenue", "addr:city": "fe", "addr:state": "nm", "addr:postcode": "87508", "addr:country": "US", "name": "Santa Fe Community College", "website": "https://www.bncollege.com/campus-stores/", "brand": "Barnes & Noble College"}},
{"type": "Feature", "id": "PZSiRiU6iVcLSi5JS3DnlAR8NBI=", "properties": {"ref": "University of New Mexico Los Alamos", "@spider": "barnesnoblecollege", "addr:full": "4000 University Dr", "addr:city": "Alamos", "addr:state": "NM", "addr:postcode": "87544", "addr:country": "US", "name": "University of New Mexico Los Alamos", "website": "https://www.bncollege.com/campus-stores/", "brand": "Barnes & Noble College"}},
{"type": "Feature", "id": "eTR5_q9kfqBliXr27JLse_3iSkc=", "properties": {"ref": "University of New Mexico Taos", "@spider": "barnesnoblecollege", "addr:full": "1157 Co Rd 110", "addr:city": "De Taos", "addr:state": "NM", "addr:postcode": "87557", "addr:country": "US", "name": "University of New Mexico Taos", "website": "https://www.bncollege.com/campus-stores/", "brand": "Barnes & Noble College"}},
{"type": "Feature", "id": "GMqMq6dlWJg07v689-M6RS9N08A=", "properties": {"ref": "Barnes & Noble at Niagara Falls Culinary Institute", "@spider": "barnesnoblecollege", "addr:full": "28 Old Falls St", "addr:city": "Falls", "addr:state": "NY", "addr:postcode": "14303", "addr:country": "US", "name": "Barnes & Noble at Niagara Falls Culinary Institute", "website": "https://www.bncollege.com/campus-stores/", "brand": "Barnes & Noble College"}},
{"type": "Feature", "id": "x6vWWoCCeY84ymHaQfZUGDDbRS4=", "properties": {"ref": "Baruch College Bookstore", "@spider": "barnesnoblecollege", "addr:full": "55 Lexington Ave", "addr:city": "York", "addr:state": "NY", "addr:postcode": "10010", "addr:country": "US", "name": "Baruch College Bookstore", "website": "https://www.bncollege.com/campus-stores/", "brand": "Barnes & Noble College"}},
{"type": "Feature", "id": "FSeBQR-JhRWFpZsRIaZacKRteFw=", "properties": {"ref": "Borough of Manhattan Community BMCC Bookstore S205", "@spider": "barnesnoblecollege", "addr:full": "199 Chambers St", "addr:city": "York", "addr:state": "NY", "addr:postcode": "10007", "addr:country": "US", "name": "Borough of Manhattan Community BMCC Bookstore S205", "website": "https://www.bncollege.com/campus-stores/", "brand": "Barnes & Noble College"}},
{"type": "Feature", "id": "Cw6ItOsF_OkpxNsM7bPTgcNPkp4=", "properties": {"ref": "Buckley School", "@spider": "barnesnoblecollege", "addr:full": "113 E 73rd St", "addr:city": "York", "addr:state": "NY", "addr:postcode": "10021", "addr:country": "US", "name": "Buckley School", "website": "https://www.bncollege.com/campus-stores/", "brand": "Barnes & Noble College"}},
{"type": "Feature", "id": "MdZvmY2am_nhhzV312KOFqhSZK0=", "properties": {"ref": "Cardinal Hayes High School", "@spider": "barnesnoblecollege", "addr:full": "650 Grand Concourse", "addr:city": "Bronx", "addr:state": "NY", "addr:postcode": "10451", "addr:country": "US", "name": "Cardinal Hayes High School", "website": "https://www.bncollege.com/campus-stores/", "brand": "Barnes & Noble College"}},
{"type": "Feature", "id": "ez-8QfTntOHpQltwtJfTdeFZzKA=", "properties": {"ref": "Cardinal Spellman High School \u2013 NY", "@spider": "barnesnoblecollege", "addr:full": "1 Cardinal Spellman Pl", "addr:city": "Bronx", "addr:state": "NY", "addr:postcode": "10466", "addr:country": "US", "name": "Cardinal Spellman High School \u2013 NY", "website": "https://www.bncollege.com/campus-stores/", "brand": "Barnes & Noble College"}},
{"type": "Feature", "id": "NYESw6-tJHg7UClMLP8Qy3K_cNI=", "properties": {"ref": "College of Staten Island Bookstore", "@spider": "barnesnoblecollege", "addr:full": "2800 Victory Blvd", "addr:city": "Island", "addr:state": "NY", "addr:postcode": "10314", "addr:country": "US", "name": "College of Staten Island Bookstore", "website": "https://www.bncollege.com/campus-stores/", "brand": "Barnes & Noble College"}},
{"type": "Feature", "id": "v8v5kSphX-sFVv_ycSKDe2ceecw=", "properties": {"ref": "Collegiate School", "@spider": "barnesnoblecollege", "addr:full": "301 Freedom Pl S", "addr:city": "York", "addr:state": "NY", "addr:postcode": "10069", "addr:country": "US", "name": "Collegiate School", "website": "https://www.bncollege.com/campus-stores/", "brand": "Barnes & Noble College"}},
{"type": "Feature", "id": "yb5-ePGOQ45tdFLMLgtMQfd-iKQ=", "properties": {"ref": "Columbia University Bookstore", "@spider": "barnesnoblecollege", "addr:full": "2922 Broadway", "addr:city": "York", "addr:state": "NY", "addr:postcode": "10027", "addr:country": "US", "name": "Columbia University Bookstore", "website": "https://www.bncollege.com/campus-stores/", "brand": "Barnes & Noble College"}},
{"type": "Feature", "id": "z3insT3mt7sBUB2l92FNJlPwszc=", "properties": {"ref": "Columbia University Medical Center Bookstore", "@spider": "barnesnoblecollege", "addr:full": "711 W 168th St", "addr:city": "York", "addr:state": "NY", "addr:postcode": "10032", "addr:country": "US", "name": "Columbia University Medical Center Bookstore", "website": "https://www.bncollege.com/campus-stores/", "brand": "Barnes & Noble College"}},
{"type": "Feature", "id": "w--RZkvFseZhbfwuUg_AU8miyNM=", "properties": {"ref": "Craig Claiborne Bookstore", "@spider": "barnesnoblecollege", "addr:full": "1946 Campus Dr", "addr:city": "Park", "addr:state": "NY", "addr:postcode": "12538", "addr:country": "US", "name": "Craig Claiborne Bookstore", "website": "https://www.bncollege.com/campus-stores/", "brand": "Barnes & Noble College"}},
{"type": "Feature", "id": "E5loBMzYp9kIssoaRGAiy9L7h60=", "properties": {"ref": "FIT College Shop/Bookstore", "@spider": "barnesnoblecollege", "addr:full": "227 W 27th St", "addr:city": "York", "addr:state": "NY", "addr:postcode": "10001", "addr:country": "US", "name": "FIT College Shop/Bookstore", "website": "https://www.bncollege.com/campus-stores/", "brand": "Barnes & Noble College"}},
{"type": "Feature", "id": "tJ-ncT0vzIGweGo56n-kB7ZXs54=", "properties": {"ref": "Fordham Preparatory School", "@spider": "barnesnoblecollege", "addr:full": "441 E Fordham Rd", "addr:city": "Bronx", "addr:state": "NY", "addr:postcode": "10458", "addr:country": "US", "name": "Fordham Preparatory School", "website": "https://www.bncollege.com/campus-stores/", "brand": "Barnes & Noble College"}},
{"type": "Feature", "id": "CqbjhhPAUII3I0ZwzDD8biB1dUA=", "properties": {"ref": "Fordham Rose Hill Bookstore", "@spider": "barnesnoblecollege", "addr:full": "441 E Fordham Rd", "addr:city": "Bronx", "addr:state": "NY", "addr:postcode": "10458", "addr:country": "US", "name": "Fordham Rose Hill Bookstore", "website": "https://www.bncollege.com/campus-stores/", "brand": "Barnes & Noble College"}},
{"type": "Feature", "id": "rSEtJtbVOo5ENKdu89271yYTHOA=", "properties": {"ref": "Fordham University Lincoln Center Campus Bookstore", "@spider": "barnesnoblecollege", "addr:full": "113 W 60th St", "addr:city": "York", "addr:state": "NY", "addr:postcode": "10023", "addr:country": "US", "name": "Fordham University Lincoln Center Campus Bookstore", "website": "https://www.bncollege.com/campus-stores/", "brand": "Barnes & Noble College"}},
{"type": "Feature", "id": "OiNsmnAG_Bl9xXpzQQlDyM86Ud4=", "properties": {"ref": "Horace Mann School", "@spider": "barnesnoblecollege", "addr:full": "231 W 246th St", "addr:city": "Bronx", "addr:state": "NY", "addr:postcode": "10471", "addr:country": "US", "name": "Horace Mann School", "website": "https://www.bncollege.com/campus-stores/", "brand": "Barnes & Noble College"}},
{"type": "Feature", "id": "MVLefFAE0YWAnHo7r8WwNETKSI8=", "properties": {"ref": "Iona College Bookstore", "@spider": "barnesnoblecollege", "addr:full": "715 North Ave", "addr:city": "Rochelle", "addr:state": "NY", "addr:postcode": "10801", "addr:country": "US", "name": "Iona College Bookstore", "website": "https://www.bncollege.com/campus-stores/", "brand": "Barnes & Noble College"}},
{"type": "Feature", "id": "HNa6cSN8q5hp5JW10PRqZ_Wz-7w=", "properties": {"ref": "LIU Post Campus Bookstore", "@spider": "barnesnoblecollege", "addr:full": "720 Northern Blvd", "addr:city": "Head", "addr:state": "NY", "addr:postcode": "11545", "addr:country": "US", "name": "LIU Post Campus Bookstore", "website": "https://www.bncollege.com/campus-stores/", "brand": "Barnes & Noble College"}},
{"type": "Feature", "id": "bQZ7vvxsR0ib5bqfGkuEDHvlKic=", "properties": {"ref": "Lycee Francais de New York", "@spider": "barnesnoblecollege", "addr:full": "505 E 75th St", "addr:city": "York", "addr:state": "NY", "addr:postcode": "10021", "addr:country": "US", "name": "Lycee Francais de New York", "website": "https://www.bncollege.com/campus-stores/", "brand": "Barnes & Noble College"}},
{"type": "Feature", "id": "jU2jCUU_T8wh1icL6iwBHiz2gDg=", "properties": {"ref": "Manhattan College Bookstore", "@spider": "barnesnoblecollege", "addr:full": "3900 Waldo Ave", "addr:city": "Bronx", "addr:state": "NY", "addr:postcode": "10463", "addr:country": "US", "name": "Manhattan College Bookstore", "website": "https://www.bncollege.com/campus-stores/", "brand": "Barnes & Noble College"}},
{"type": "Feature", "id": "rbRQvUtcA3-KbVC5s5lD-cYugWY=", "properties": {"ref": "New York Law School", "@spider": "barnesnoblecollege", "addr:full": "185 W Broadway", "addr:city": "York", "addr:state": "NY", "addr:postcode": "10013", "addr:country": "US", "name": "New York Law School", "website": "https://www.bncollege.com/campus-stores/", "brand": "Barnes & Noble College"}},
{"type": "Feature", "id": "nLGGZ_F9HEryphNWZ7U0ZnQZEPg=", "properties": {"ref": "Niagara University Bookstore", "@spider": "barnesnoblecollege", "addr:full": "5795 Lewiston Rd", "addr:city": "University", "addr:state": "NY", "addr:postcode": "14109", "addr:country": "US", "name": "Niagara University Bookstore", "website": "https://www.bncollege.com/campus-stores/", "brand": "Barnes & Noble College"}},
{"type": "Feature", "id": "TpG40IbEePbdtkXYJZBWYIhpgYU=", "properties": {"ref": "Pace University \u2013 Pleasantville/Briarcliff Campus Bookstore", "@spider": "barnesnoblecollege", "addr:full": "One Pace Plaza", "addr:city": "York", "addr:state": "NY", "addr:postcode": "10038", "addr:country": "US", "name": "Pace University \u2013 Pleasantville/Briarcliff Campus Bookstore", "website": "https://www.bncollege.com/campus-stores/", "brand": "Barnes & Noble College"}},
{"type": "Feature", "id": "8QurKkV_41xSELUCb8aS-jd-lxw=", "properties": {"ref": "Pace University Elisabeth Haub School of Law", "@spider": "barnesnoblecollege", "addr:full": "78 N Broadway", "addr:city": "Plains", "addr:state": "NY", "addr:postcode": "10603", "addr:country": "US", "name": "Pace University Elisabeth Haub School of Law", "website": "https://www.bncollege.com/campus-stores/", "brand": "Barnes & Noble College"}},
{"type": "Feature", "id": "tNgprILzx2OL9ym7IQ8DYsbinis=", "properties": {"ref": "RED SHOP WEST", "@spider": "barnesnoblecollege", "addr:full": "242 Frank Melville Library Room N0001", "addr:city": "Brook", "addr:state": "NY", "addr:postcode": "11794", "addr:country": "US", "name": "RED SHOP WEST", "website": "https://www.bncollege.com/campus-stores/", "brand": "Barnes & Noble College"}},
{"type": "Feature", "id": "JKndncP113v2DnoEUjfiflG_B1w=", "properties": {"ref": "State University of New York Empire State College", "@spider": "barnesnoblecollege", "addr:full": "2 Union Ave", "addr:city": "Springs", "addr:state": "NY", "addr:postcode": "12866", "addr:country": "US", "name": "State University of New York Empire State College", "website": "https://www.bncollege.com/campus-stores/", "brand": "Barnes & Noble College"}},
{"type": "Feature", "id": "WhTUPfGaqFuNKPq_Sg8YV2drzt4=", "properties": {"ref": "Stony Brook School", "@spider": "barnesnoblecollege", "addr:full": "1 Chapman Pkwy", "addr:city": "Brook", "addr:state": "NY", "addr:postcode": "11790", "addr:country": "US", "name": "Stony Brook School", "website": "https://www.bncollege.com/campus-stores/", "brand": "Barnes & Noble College"}},
{"type": "Feature", "id": "C9IAy6JC2KEf8v1vCWDbIZ7B07c=", "properties": {"ref": "SUNY College at Old Westbury Bookstore", "@spider": "barnesnoblecollege", "addr:full": "223 Store Hill Rd", "addr:city": "Westbury", "addr:state": "NY", "addr:postcode": "11568", "addr:country": "US", "name": "SUNY College at Old Westbury Bookstore", "website": "https://www.bncollege.com/campus-stores/", "brand": "Barnes & Noble College"}},
{"type": "Feature", "id": "kyon4jh3ffJlwaQx5q23I9R6Nj0=", "properties": {"ref": "The Brearley School", "@spider": "barnesnoblecollege", "addr:full": "610 E 83rd St", "addr:city": "York", "addr:state": "NY", "addr:postcode": "10028", "addr:country": "US", "name": "The Brearley School", "website": "https://www.bncollege.com/campus-stores/", "brand": "Barnes & Noble College"}},
{"type": "Feature", "id": "d9swRE0YQ-OJhLiIwNT0TDVa7-M=", "properties": {"ref": "The Chapin School", "@spider": "barnesnoblecollege", "addr:full": "100 East End Ave", "addr:city": "York", "addr:state": "NY", "addr:postcode": "10028", "addr:country": "US", "name": "The Chapin School", "website": "https://www.bncollege.com/campus-stores/", "brand": "Barnes & Noble College"}},
{"type": "Feature", "id": "HV9ipkcsqxuDlye5AQdP146XcOQ=", "properties": {"ref": "The Culinary Institute of America", "@spider": "barnesnoblecollege", "addr:full": "1946 Campus Dr", "addr:city": "Park", "addr:state": "NY", "addr:postcode": "12538", "addr:country": "US", "name": "The Culinary Institute of America", "website": "https://www.bncollege.com/campus-stores/", "brand": "Barnes & Noble College"}},
{"type": "Feature", "id": "3TLzZ5FDiPdD63HRqNveuTFnIek=", "properties": {"ref": "The Dwight School", "@spider": "barnesnoblecollege", "addr:full": "291 Central Park West", "addr:city": "York", "addr:state": "NY", "addr:postcode": "10024", "addr:country": "US", "name": "The Dwight School", "website": "https://www.bncollege.com/campus-stores/", "brand": "Barnes & Noble College"}},
{"type": "Feature", "id": "Uyz44Ryze3nnptuqNjELZG3Lci8=", "properties": {"ref": "The Masters School", "@spider": "barnesnoblecollege", "addr:full": "49 Clinton Ave", "addr:city": "Ferry", "addr:state": "NY", "addr:postcode": "10522", "addr:country": "US", "name": "The Masters School", "website": "https://www.bncollege.com/campus-stores/", "brand": "Barnes & Noble College"}},
{"type": "Feature", "id": "sIVMdg_FwJgAnT4BSifJPbDiinM=", "properties": {"ref": "Touro College Law Center Bookstore", "@spider": "barnesnoblecollege", "addr:full": "225 Eastview Dr", "addr:city": "Islip", "addr:state": "NY", "addr:postcode": "11722", "addr:country": "US", "name": "Touro College Law Center Bookstore", "website": "https://www.bncollege.com/campus-stores/", "brand": "Barnes & Noble College"}},
{"type": "Feature", "id": "3owyVhDWw6zqCjWMcFqKpi8cLz8=", "properties": {"ref": "Trinity School", "@spider": "barnesnoblecollege", "addr:full": "139 W 91st St", "addr:city": "York", "addr:state": "NY", "addr:postcode": "10024", "addr:country": "US", "name": "Trinity School", "website": "https://www.bncollege.com/campus-stores/", "brand": "Barnes & Noble College"}},
{"type": "Feature", "id": "kjnEGypyc-r3oBXIxhv5KgQpKp4=", "properties": {"ref": "United States Military Academy", "@spider": "barnesnoblecollege", "addr:full": "681 HARDEE PL", "addr:city": "Point", "addr:state": "NY", "addr:postcode": "10966", "addr:country": "US", "name": "United States Military Academy", "website": "https://www.bncollege.com/campus-stores/", "brand": "Barnes & Noble College"}},
{"type": "Feature", "id": "FNxZ0epIyOI5IKRkHWbEau7La1M=", "properties": {"ref": "Xavier High School \u2013 New York", "@spider": "barnesnoblecollege", "addr:full": "30 W 16th St", "addr:city": "York", "addr:state": "NY", "addr:postcode": "10011", "addr:country": "US", "name": "Xavier High School \u2013 New York", "website": "https://www.bncollege.com/campus-stores/", "brand": "Barnes & Noble College"}},
{"type": "Feature", "id": "7qx1kRmlUgErEF1BFfzKCqpCZTc=", "properties": {"ref": "Blue Ridge Community College Bookstore", "@spider": "barnesnoblecollege", "addr:full": "140 Alumni Way", "addr:city": "Rock", "addr:state": "NC", "addr:postcode": "28731", "addr:country": "US", "name": "Blue Ridge Community College Bookstore", "website": "https://www.bncollege.com/campus-stores/", "brand": "Barnes & Noble College"}},
{"type": "Feature", "id": "vM0Aj4HPfxEYldFEElKIN8itpBY=", "properties": {"ref": "High Point University Bookstore", "@spider": "barnesnoblecollege", "addr:full": "833 Montlieu Ave", "addr:city": "Point", "addr:state": "NC", "addr:postcode": "27262", "addr:country": "US", "name": "High Point University Bookstore", "website": "https://www.bncollege.com/campus-stores/", "brand": "Barnes & Noble College"}},
{"type": "Feature", "id": "f68DwmpIDylnKr4ocq9m09m6PYU=", "properties": {"ref": "Lees-McRae College Bookstore", "@spider": "barnesnoblecollege", "addr:full": "159 Main St W", "addr:city": "Elk", "addr:state": "NC", "addr:postcode": "28604", "addr:country": "US", "name": "Lees-McRae College Bookstore", "website": "https://www.bncollege.com/campus-stores/", "brand": "Barnes & Noble College"}},
{"type": "Feature", "id": "AATWs7izPfrkzqSfKaG1aKGOwaw=", "properties": {"ref": "Mid-Atlantic Christian University", "@spider": "barnesnoblecollege", "addr:full": "715 N Poindexter St", "addr:city": "City", "addr:state": "NC", "addr:postcode": "27909", "addr:country": "US", "name": "Mid-Atlantic Christian University", "website": "https://www.bncollege.com/campus-stores/", "brand": "Barnes & Noble College"}},
{"type": "Feature", "id": "v9t7y1txScPfjO-F2m3oQ9DyIjk=", "properties": {"ref": "Antioch University Midwest", "@spider": "barnesnoblecollege", "addr:full": "900 Dayton St", "addr:city": "Springs", "addr:state": "OH", "addr:postcode": "45387", "addr:country": "US", "name": "Antioch University Midwest", "website": "https://www.bncollege.com/campus-stores/", "brand": "Barnes & Noble College"}},
{"type": "Feature", "id": "4UhdwnA4CQj3JAcqBDE03v31Z_Y=", "properties": {"ref": "Antioch University Online", "@spider": "barnesnoblecollege", "addr:full": "900 Dayton St", "addr:city": "Springs", "addr:state": "OH", "addr:postcode": "45387", "addr:country": "US", "name": "Antioch University Online", "website": "https://www.bncollege.com/campus-stores/", "brand": "Barnes & Noble College"}},
{"type": "Feature", "id": "_9-r5f0fJWTeVR9JpyaaqltSQ1I=", "properties": {"ref": "Cuyahoga Community College \u2013 Eastern Campus Bookstore", "@spider": "barnesnoblecollege", "addr:full": "4250 Richmond Rd", "addr:city": "Hills", "addr:state": "OH", "addr:postcode": "44122", "addr:country": "US", "name": "Cuyahoga Community College \u2013 Eastern Campus Bookstore", "website": "https://www.bncollege.com/campus-stores/", "brand": "Barnes & Noble College"}},
{"type": "Feature", "id": "nl1jDTb4w2Pev_-9cV-q3RtqVjU=", "properties": {"ref": "Gilmour Academy", "@spider": "barnesnoblecollege", "addr:full": "34001 Cedar Rd", "addr:city": "Mills", "addr:state": "OH", "addr:postcode": "44040", "addr:country": "US", "name": "Gilmour Academy", "website": "https://www.bncollege.com/campus-stores/", "brand": "Barnes & Noble College"}},
{"type": "Feature", "id": "wGBQiVkxLZ_Q91hMVaoseHwjwGo=", "properties": {"ref": "Hathaway Brown School", "@spider": "barnesnoblecollege", "addr:full": "19600 N Park Blvd", "addr:city": "Heights", "addr:state": "OH", "addr:postcode": "44122", "addr:country": "US", "name": "Hathaway Brown School", "website": "https://www.bncollege.com/campus-stores/", "brand": "Barnes & Noble College"}},
{"type": "Feature", "id": "51VyTDLX4Xp1p1iAhdRQbZCxL74=", "properties": {"ref": "Kent State University Stark Bookstore", "@spider": "barnesnoblecollege", "addr:full": "6000 Frank Ave NW", "addr:city": "Canton", "addr:state": "OH", "addr:postcode": "44720", "addr:country": "US", "name": "Kent State University Stark Bookstore", "website": "https://www.bncollege.com/campus-stores/", "brand": "Barnes & Noble College"}},
{"type": "Feature", "id": "sH15Nx6TbfayQk7KFRV2j78cAzo=", "properties": {"ref": "Kent State University Tuscarawas Campus Bookstore", "@spider": "barnesnoblecollege", "addr:full": "330 University Dr NE", "addr:city": "Philadelphia", "addr:state": "OH", "addr:postcode": "44663", "addr:country": "US", "name": "Kent State University Tuscarawas Campus Bookstore", "website": "https://www.bncollege.com/campus-stores/", "brand": "Barnes & Noble College"}},
{"type": "Feature", "id": "ydmiUSiWCSDlLBsEKNit6Y5Tz3E=", "properties": {"ref": "Laurel School", "@spider": "barnesnoblecollege", "addr:full": "1 Lyman Cir", "addr:city": "Heights", "addr:state": "OH", "addr:postcode": "44122", "addr:country": "US", "name": "Laurel School", "website": "https://www.bncollege.com/campus-stores/", "brand": "Barnes & Noble College"}},
{"type": "Feature", "id": "35P5kuLlTX2obVMc3WovTAN4UGA=", "properties": {"ref": "Muskingum University Bookstore", "@spider": "barnesnoblecollege", "addr:full": "161 Stormont St", "addr:city": "Concord", "addr:state": "OH", "addr:postcode": "43762", "addr:country": "US", "name": "Muskingum University Bookstore", "website": "https://www.bncollege.com/campus-stores/", "brand": "Barnes & Noble College"}},
{"type": "Feature", "id": "-VzTaondaIYRoR9pzbZkIgJYhfw=", "properties": {"ref": "University of Rio Grande", "@spider": "barnesnoblecollege", "addr:full": "218 N College Ave", "addr:city": "Grande", "addr:state": "OH", "addr:postcode": "45674", "addr:country": "US", "name": "University of Rio Grande", "website": "https://www.bncollege.com/campus-stores/", "brand": "Barnes & Noble College"}},
{"type": "Feature", "id": "LuZtBmbG6EzRBFwov4zq-EQfTvc=", "properties": {"ref": "University School", "@spider": "barnesnoblecollege", "addr:full": "2785 Som Center Rd", "addr:city": "Falls", "addr:state": "OH", "addr:postcode": "44022", "addr:country": "US", "name": "University School", "website": "https://www.bncollege.com/campus-stores/", "brand": "Barnes & Noble College"}},
{"type": "Feature", "id": "kr4gNC0L04YP-GC4_n5xI98HfnY=", "properties": {"ref": "Walsh University Bookstore", "@spider": "barnesnoblecollege", "addr:full": "2020 E Maple St", "addr:city": "Canton", "addr:state": "OH", "addr:postcode": "44720", "addr:country": "US", "name": "Walsh University Bookstore", "website": "https://www.bncollege.com/campus-stores/", "brand": "Barnes & Noble College"}},
{"type": "Feature", "id": "0NTV-LD5KduReU5dSSO0Dktn0_E=", "properties": {"ref": "Casady School", "@spider": "barnesnoblecollege", "addr:full": "9500 N Pennsylvania Ave", "addr:city": "City", "addr:state": "OK", "addr:postcode": "73120", "addr:country": "US", "name": "Casady School", "website": "https://www.bncollege.com/campus-stores/", "brand": "Barnes & Noble College"}},
{"type": "Feature", "id": "M7Wq8icXUI_M-wOl0Nisu1S3MNI=", "properties": {"ref": "Mid-America Christian University", "@spider": "barnesnoblecollege", "addr:full": "3500 SW 119th St", "addr:city": "City", "addr:state": "OK", "addr:postcode": "73170", "addr:country": "US", "name": "Mid-America Christian University", "website": "https://www.bncollege.com/campus-stores/", "brand": "Barnes & Noble College"}},
{"type": "Feature", "id": "GJK_Ccu5rIaIEyW3C8g2RI9eSnw=", "properties": {"ref": "OSU-OKC Bookstore", "@spider": "barnesnoblecollege", "addr:full": "900 N Portland Ave", "addr:city": "City", "addr:state": "OK", "addr:postcode": "73107", "addr:country": "US", "name": "OSU-OKC Bookstore", "website": "https://www.bncollege.com/campus-stores/", "brand": "Barnes & Noble College"}},
{"type": "Feature", "id": "ZC_ytS0kLpwZsp12CFsOKhW1CiI=", "properties": {"ref": "Redlands Community College", "@spider": "barnesnoblecollege", "addr:full": "1300 S Country Club Rd", "addr:city": "Reno", "addr:state": "OK", "addr:postcode": "73036", "addr:country": "US", "name": "Redlands Community College", "website": "https://www.bncollege.com/campus-stores/", "brand": "Barnes & Noble College"}},
{"type": "Feature", "id": "F-tFqt8DLzr1oMZ519iUA3NZLNA=", "properties": {"ref": "Clackamas Community College Bookstore", "@spider": "barnesnoblecollege", "addr:full": "19600 Molalla Ave", "addr:city": "City", "addr:state": "OR", "addr:postcode": "97045", "addr:country": "US", "name": "Clackamas Community College Bookstore", "website": "https://www.bncollege.com/campus-stores/", "brand": "Barnes & Noble College"}},
{"type": "Feature", "id": "4YhIoUKX-U8mhvoJw6W4kVMPVKc=", "properties": {"ref": "Eastern Oregon University Bookstore", "@spider": "barnesnoblecollege", "addr:full": "One University Blvd", "addr:city": "Grande", "addr:state": "OR", "addr:postcode": "97850", "addr:country": "US", "name": "Eastern Oregon University Bookstore", "website": "https://www.bncollege.com/campus-stores/", "brand": "Barnes & Noble College"}},
{"type": "Feature", "id": "gW_GwSlKlTWxBrrLVCTeyeiC-Bw=", "properties": {"ref": "Tech Nest Bookstore", "@spider": "barnesnoblecollege", "addr:full": "3201 Campus Dr", "addr:city": "Falls", "addr:state": "OR", "addr:postcode": "97601", "addr:country": "US", "name": "Tech Nest Bookstore", "website": "https://www.bncollege.com/campus-stores/", "brand": "Barnes & Noble College"}},
{"type": "Feature", "id": "zGCvNYG5nxz69wFFhpJFNVAqKwY=", "properties": {"ref": "East Stroudsburg University Bookstore", "@spider": "barnesnoblecollege", "addr:full": "200 Prospect St", "addr:city": "Stroudsburg", "addr:state": "PA", "addr:postcode": "18301", "addr:country": "US", "name": "East Stroudsburg University Bookstore", "website": "https://www.bncollege.com/campus-stores/", "brand": "Barnes & Noble College"}},
{"type": "Feature", "id": "sO7nIOt-UI3CtNa6VFFCEvHWnno=", "properties": {"ref": "Lock Haven University", "@spider": "barnesnoblecollege", "addr:full": "401 N Fairview St", "addr:city": "Haven", "addr:state": "PA", "addr:postcode": "17745", "addr:country": "US", "name": "Lock Haven University", "website": "https://www.bncollege.com/campus-stores/", "brand": "Barnes & Noble College"}},
{"type": "Feature", "id": "r1OARXpHtk-wENe0ya6IB3OLlgQ=", "properties": {"ref": "Penn State All Sports Museum Gift Shop", "@spider": "barnesnoblecollege", "addr:full": "1 Beaver Stadium", "addr:city": "Park", "addr:state": "PA", "addr:postcode": "16802", "addr:country": "US", "name": "Penn State All Sports Museum Gift Shop", "website": "https://www.bncollege.com/campus-stores/", "brand": "Barnes & Noble College"}},
{"type": "Feature", "id": "ouPbg_kWjW9kyBICpfAhIKkI5Hs=", "properties": {"ref": "Penn State Allentown Bookstore", "@spider": "barnesnoblecollege", "addr:full": "2809 Saucon Valley Rd", "addr:city": "Valley", "addr:state": "PA", "addr:postcode": "18034", "addr:country": "US", "name": "Penn State Allentown Bookstore", "website": "https://www.bncollege.com/campus-stores/", "brand": "Barnes & Noble College"}},
{"type": "Feature", "id": "uH_FpMrXqWAP1pMQliAFvyucMYw=", "properties": {"ref": "Penn State Beaver Stadium Memorabilia Shop", "@spider": "barnesnoblecollege", "addr:full": "1 Pollock Rd", "addr:city": "College", "addr:state": "PA", "addr:postcode": "16801", "addr:country": "US", "name": "Penn State Beaver Stadium Memorabilia Shop", "website": "https://www.bncollege.com/campus-stores/", "brand": "Barnes & Noble College"}},
{"type": "Feature", "id": "xrv2DEl5g-fq1llnMqgqw4fL1MU=", "properties": {"ref": "Penn State Bookstore", "@spider": "barnesnoblecollege", "addr:full": "1 Pollock Rd", "addr:city": "College", "addr:state": "PA", "addr:postcode": "16801", "addr:country": "US", "name": "Penn State Bookstore", "website": "https://www.bncollege.com/campus-stores/", "brand": "Barnes & Noble College"}},
{"type": "Feature", "id": "-RlC6aGGAWb4klU6ljq_rx79FuQ=", "properties": {"ref": "Penn State College of Arts and Architecture", "@spider": "barnesnoblecollege", "addr:full": "Pollock Rd", "addr:city": "Park", "addr:state": "PA", "addr:postcode": "16802", "addr:country": "US", "name": "Penn State College of Arts and Architecture", "website": "https://www.bncollege.com/campus-stores/", "brand": "Barnes & Noble College"}},
{"type": "Feature", "id": "gS28GqiF0i-QIqqzAPR2H3Du8Zc=", "properties": {"ref": "Penn State Conference Center Gift Shop", "@spider": "barnesnoblecollege", "addr:full": "215 Innovation Blvd", "addr:city": "College", "addr:state": "PA", "addr:postcode": "16803", "addr:country": "US", "name": "Penn State Conference Center Gift Shop", "website": "https://www.bncollege.com/campus-stores/", "brand": "Barnes & Noble College"}},
{"type": "Feature", "id": "n3qCQdaKNRRFVXWGj3Gwx1lqKyc=", "properties": {"ref": "Penn State Fayette Bookstore", "@spider": "barnesnoblecollege", "addr:full": "2201 University Dr", "addr:city": "Furnace", "addr:state": "PA", "addr:postcode": "15456", "addr:country": "US", "name": "Penn State Fayette Bookstore", "website": "https://www.bncollege.com/campus-stores/", "brand": "Barnes & Noble College"}},
{"type": "Feature", "id": "lchG1H72dJFKVDCOWoNvFGUP2vI=", "properties": {"ref": "Penn State Mont Alto Bookstore", "@spider": "barnesnoblecollege", "addr:full": "1 Campus Dr", "addr:city": "Alto", "addr:state": "PA", "addr:postcode": "17237", "addr:country": "US", "name": "Penn State Mont Alto Bookstore", "website": "https://www.bncollege.com/campus-stores/", "brand": "Barnes & Noble College"}},
{"type": "Feature", "id": "J_iaKI_YEhYDAT4EJKuHLChJIds=", "properties": {"ref": "Penn State Schuylkill Bookstore", "@spider": "barnesnoblecollege", "addr:full": "200 University Dr", "addr:city": "Haven", "addr:state": "PA", "addr:postcode": "17972", "addr:country": "US", "name": "Penn State Schuylkill Bookstore", "website": "https://www.bncollege.com/campus-stores/", "brand": "Barnes & Noble College"}},
{"type": "Feature", "id": "ecrtMXgsQ-dprwVvxc_S83rNRN4=", "properties": {"ref": "Penn State World Campus", "@spider": "barnesnoblecollege", "addr:full": "Outreach Building", "addr:city": "Park", "addr:state": "PA", "addr:postcode": "16802", "addr:country": "US", "name": "Penn State World Campus", "website": "https://www.bncollege.com/campus-stores/", "brand": "Barnes & Noble College"}},
{"type": "Feature", "id": "y6x4V6lC2RWGq_trNhjs7Uc_eIU=", "properties": {"ref": "Robert Morris University/Moon Bookstore", "@spider": "barnesnoblecollege", "addr:full": "6001 University Blvd", "addr:city": "Twp", "addr:state": "PA", "addr:postcode": "15108", "addr:country": "US", "name": "Robert Morris University/Moon Bookstore", "website": "https://www.bncollege.com/campus-stores/", "brand": "Barnes & Noble College"}},
{"type": "Feature", "id": "Vtl80rZcYhlGXz-FN2rAkPLyI3g=", "properties": {"ref": "The Episcopal Academy", "@spider": "barnesnoblecollege", "addr:full": "1785 Bishop White Drive", "addr:city": "Square", "addr:state": "PA", "addr:postcode": "19073", "addr:country": "US", "name": "The Episcopal Academy", "website": "https://www.bncollege.com/campus-stores/", "brand": "Barnes & Noble College"}},
{"type": "Feature", "id": "jiW_hMZ1F3-8FSwBy1o7K5kjzlQ=", "properties": {"ref": "Westminster College (Pennsylvania)", "@spider": "barnesnoblecollege", "addr:full": "319 S Market St", "addr:city": "Wilmington", "addr:state": "PA", "addr:postcode": "16142", "addr:country": "US", "name": "Westminster College (Pennsylvania)", "website": "https://www.bncollege.com/campus-stores/", "brand": "Barnes & Noble College"}},
{"type": "Feature", "id": "0eWEBYtOndiCEnr8eGqCS8ispwA=", "properties": {"ref": "The Providence Country Day School", "@spider": "barnesnoblecollege", "addr:full": "660 Waterman Ave", "addr:city": "Providence", "addr:state": "RI", "addr:postcode": "02914", "addr:country": "US", "name": "The Providence Country Day School", "website": "https://www.bncollege.com/campus-stores/", "brand": "Barnes & Noble College"}},
{"type": "Feature", "id": "7bKr5gV_y-mZUhbeNAh8qW-qWHA=", "properties": {"ref": "Bishop England High Sch", "@spider": "barnesnoblecollege", "addr:full": "363 Seven Farms Drive", "addr:city": "Island", "addr:state": "SC", "addr:postcode": "29492", "addr:country": "US", "name": "Bishop England High Sch", "website": "https://www.bncollege.com/campus-stores/", "brand": "Barnes & Noble College"}},
{"type": "Feature", "id": "WHe0XUsmJ3sajfU20VqKpq2sbyk=", "properties": {"ref": "Midlands Technical College Airport Campus Bookstore", "@spider": "barnesnoblecollege", "addr:full": "1260 Lexington Dr", "addr:city": "Columbia", "addr:state": "SC", "addr:postcode": "29170", "addr:country": "US", "name": "Midlands Technical College Airport Campus Bookstore", "website": "https://www.bncollege.com/campus-stores/", "brand": "Barnes & Noble College"}},
{"type": "Feature", "id": "EU8li22J1_sI9ORO9IkOwy0DLrc=", "properties": {"ref": "Saint Elizabeth Ann Seton\u2019s", "@spider": "barnesnoblecollege", "addr:full": "1300 Carolina Forest Blvd", "addr:city": "Beach", "addr:state": "SC", "addr:postcode": "29579", "addr:country": "US", "name": "Saint Elizabeth Ann Seton\u2019s", "website": "https://www.bncollege.com/campus-stores/", "brand": "Barnes & Noble College"}},
{"type": "Feature", "id": "Rnk8kXfTrabcFzWEdZsRwrtvmn0=", "properties": {"ref": "The Erskine College Bookstore", "@spider": "barnesnoblecollege", "addr:full": "2 Washington St", "addr:city": "West", "addr:state": "SC", "addr:postcode": "29639", "addr:country": "US", "name": "The Erskine College Bookstore", "website": "https://www.bncollege.com/campus-stores/", "brand": "Barnes & Noble College"}},
{"type": "Feature", "id": "eq_pvQ0fFbiqsllY9MgBUlXouY4=", "properties": {"ref": "Winthrop University Bookstore", "@spider": "barnesnoblecollege", "addr:full": "2020 Alumni Dr", "addr:city": "Hill", "addr:state": "SC", "addr:postcode": "29733", "addr:country": "US", "name": "Winthrop University Bookstore", "website": "https://www.bncollege.com/campus-stores/", "brand": "Barnes & Noble College"}},
{"type": "Feature", "id": "ypO1FBtEPF3dH6FiWM3NI89GYPk=", "properties": {"ref": "York Technical College Bookstore", "@spider": "barnesnoblecollege", "addr:full": "452 S Anderson Rd", "addr:city": "Hill", "addr:state": "SC", "addr:postcode": "29730", "addr:country": "US", "name": "York Technical College Bookstore", "website": "https://www.bncollege.com/campus-stores/", "brand": "Barnes & Noble College"}},
{"type": "Feature", "id": "AO89iLbW7T1ECA9TAoHQMcYqrbA=", "properties": {"ref": "Augustana College Bookstore", "@spider": "barnesnoblecollege", "addr:full": "2001 S Summit Ave #54310", "addr:city": "Falls", "addr:state": "SD", "addr:postcode": "57197", "addr:country": "US", "name": "Augustana College Bookstore", "website": "https://www.bncollege.com/campus-stores/", "brand": "Barnes & Noble College"}},
{"type": "Feature", "id": "GYxlNXkPp0G89KVKZYIMDqyiohE=", "properties": {"ref": "LMU Bookstore", "@spider": "barnesnoblecollege", "addr:full": "6965 Cumberland Gap Pkwy", "addr:city": "Gap", "addr:state": "TN", "addr:postcode": "37724", "addr:country": "US", "name": "LMU Bookstore", "website": "https://www.bncollege.com/campus-stores/", "brand": "Barnes & Noble College"}},
{"type": "Feature", "id": "5995Q6w5CIO81qLfmpUB1lb-DB4=", "properties": {"ref": "All Saints Episcopal School of Fort Worth", "@spider": "barnesnoblecollege", "addr:full": "9700 Saints Cir", "addr:city": "Worth", "addr:state": "TX", "addr:postcode": "76108", "addr:country": "US", "name": "All Saints Episcopal School of Fort Worth", "website": "https://www.bncollege.com/campus-stores/", "brand": "Barnes & Noble College"}},
{"type": "Feature", "id": "HTBCAWm3w_G2VjAoFbhpnLL8rHI=", "properties": {"ref": "Antonian College Preparatory", "@spider": "barnesnoblecollege", "addr:full": "6425 West Ave", "addr:city": "Hills", "addr:state": "TX", "addr:postcode": "78213", "addr:country": "US", "name": "Antonian College Preparatory", "website": "https://www.bncollege.com/campus-stores/", "brand": "Barnes & Noble College"}},
{"type": "Feature", "id": "f-AozMfPEoQ_K45X_H4bqu2u3fg=", "properties": {"ref": "Austin Community College-Round Rock Bookstore", "@spider": "barnesnoblecollege", "addr:full": "4400 College Park Dr Building 2000", "addr:city": "Round Rock", "addr:state": "TX", "addr:postcode": "78665", "addr:country": "US", "name": "Austin Community College-Round Rock Bookstore", "website": "https://www.bncollege.com/campus-stores/", "brand": "Barnes & Noble College"}},
{"type": "Feature", "id": "1gaWqOJKk6s86k71guutilElhbQ=", "properties": {"ref": "Coram Deo Academy", "@spider": "barnesnoblecollege", "addr:full": "4900 Wichita Trail", "addr:city": "Mound", "addr:state": "TX", "addr:postcode": "75022", "addr:country": "US", "name": "Coram Deo Academy", "website": "https://www.bncollege.com/campus-stores/", "brand": "Barnes & Noble College"}},
{"type": "Feature", "id": "GLvY5F2GZwbW7EShxGKeZ4F122Q=", "properties": {"ref": "El Paso CC Bookstore", "@spider": "barnesnoblecollege", "addr:full": "919 Hunter Dr", "addr:city": "Paso", "addr:state": "TX", "addr:postcode": "79915", "addr:country": "US", "name": "El Paso CC Bookstore", "website": "https://www.bncollege.com/campus-stores/", "brand": "Barnes & Noble College"}},
{"type": "Feature", "id": "ub66iy6t3UwDU62GtKB7FKjTHRc=", "properties": {"ref": "El Paso Community College \u2013 Transmountain Campus Bookstore", "@spider": "barnesnoblecollege", "addr:full": "9371 Gateway N Blvd", "addr:city": "Paso", "addr:state": "TX", "addr:postcode": "79924", "addr:country": "US", "name": "El Paso Community College \u2013 Transmountain Campus Bookstore", "website": "https://www.bncollege.com/campus-stores/", "brand": "Barnes & Noble College"}},
{"type": "Feature", "id": "naZ_kOppPG2PchE1t8aWRGFgPtA=", "properties": {"ref": "Fort Worth Country Day School", "@spider": "barnesnoblecollege", "addr:full": "4200 Country Day Ln", "addr:city": "Worth", "addr:state": "TX", "addr:postcode": "76109", "addr:country": "US", "name": "Fort Worth Country Day School", "website": "https://www.bncollege.com/campus-stores/", "brand": "Barnes & Noble College"}},
{"type": "Feature", "id": "2VtFU6xczApNEBhxY9e3VT25fJ4=", "properties": {"ref": "John Cooper School", "@spider": "barnesnoblecollege", "addr:full": "1 John Cooper Dr", "addr:city": "Woodlands", "addr:state": "TX", "addr:postcode": "77381", "addr:country": "US", "name": "John Cooper School", "website": "https://www.bncollege.com/campus-stores/", "brand": "Barnes & Noble College"}},
{"type": "Feature", "id": "2S7wxXWlQzIipUruZyKKvKGGEnw=", "properties": {"ref": "Lamar State College \u2013 Port Arthur Bookstore", "@spider": "barnesnoblecollege", "addr:full": "1515 Lakeshore Dr", "addr:city": "Arthur", "addr:state": "TX", "addr:postcode": "77640", "addr:country": "US", "name": "Lamar State College \u2013 Port Arthur Bookstore", "website": "https://www.bncollege.com/campus-stores/", "brand": "Barnes & Noble College"}},
{"type": "Feature", "id": "btieB8rB3Kv9P7o0Mtdm9vcKwJY=", "properties": {"ref": "Mission del Paso Bookstore", "@spider": "barnesnoblecollege", "addr:full": "10700 Gateway Blvd E", "addr:city": "Paso", "addr:state": "TX", "addr:postcode": "79927", "addr:country": "US", "name": "Mission del Paso Bookstore", "website": "https://www.bncollege.com/campus-stores/", "brand": "Barnes & Noble College"}},
{"type": "Feature", "id": "yv3MlpOTG87WDrD9XcBF-hOjGXU=", "properties": {"ref": "Nolan Catholic High School", "@spider": "barnesnoblecollege", "addr:full": "4501 Bridge St", "addr:city": "Worth", "addr:state": "TX", "addr:postcode": "76103", "addr:country": "US", "name": "Nolan Catholic High School", "website": "https://www.bncollege.com/campus-stores/", "brand": "Barnes & Noble College"}},
{"type": "Feature", "id": "zWJEBHTD1_mfTsW126e1A9HbSu0=", "properties": {"ref": "North West Bookstore", "@spider": "barnesnoblecollege", "addr:full": "6701 S Desert Blvd", "addr:city": "Paso", "addr:state": "TX", "addr:postcode": "79932", "addr:country": "US", "name": "North West Bookstore", "website": "https://www.bncollege.com/campus-stores/", "brand": "Barnes & Noble College"}},
{"type": "Feature", "id": "JkmSJwoJPxVxoN-LZ8sNvnyRYoE=", "properties": {"ref": "Parish Episcopal School", "@spider": "barnesnoblecollege", "addr:full": "4101 Sigma Rd", "addr:city": "Branch", "addr:state": "TX", "addr:postcode": "75244", "addr:country": "US", "name": "Parish Episcopal School", "website": "https://www.bncollege.com/campus-stores/", "brand": "Barnes & Noble College"}},
{"type": "Feature", "id": "_rhFRCzhr67wsqr6noZ3JMt6n8s=", "properties": {"ref": "Southwest Christian School", "@spider": "barnesnoblecollege", "addr:full": "7001 Benbrook Lake Dr", "addr:city": "Worth", "addr:state": "TX", "addr:postcode": "76123", "addr:country": "US", "name": "Southwest Christian School", "website": "https://www.bncollege.com/campus-stores/", "brand": "Barnes & Noble College"}},
{"type": "Feature", "id": "XID7suTft_1WQVzrgWPEsWGRrgM=", "properties": {"ref": "Southwestern Baptist Theological Seminary", "@spider": "barnesnoblecollege", "addr:full": "2001 W Seminary Dr", "addr:city": "Worth", "addr:state": "TX", "addr:postcode": "76115", "addr:country": "US", "name": "Southwestern Baptist Theological Seminary", "website": "https://www.bncollege.com/campus-stores/", "brand": "Barnes & Noble College"}},
{"type": "Feature", "id": "DRwyFD-k865o8wY2UHuCT-b88jY=", "properties": {"ref": "St. Mary\u2019s University Bookstore", "@spider": "barnesnoblecollege", "addr:full": "1 Camino Santa Maria", "addr:city": "Antonio", "addr:state": "TX", "addr:postcode": "78228", "addr:country": "US", "name": "St. Mary\u2019s University Bookstore", "website": "https://www.bncollege.com/campus-stores/", "brand": "Barnes & Noble College"}},
{"type": "Feature", "id": "oQeI3P_SeF8Fm_Rk-RuuAyICMXY=", "properties": {"ref": "Tarrant County College Northwest Campus Bookstore", "@spider": "barnesnoblecollege", "addr:full": "4801 Marine Creek Pkwy", "addr:city": "Worth", "addr:state": "TX", "addr:postcode": "76179", "addr:country": "US", "name": "Tarrant County College Northwest Campus Bookstore", "website": "https://www.bncollege.com/campus-stores/", "brand": "Barnes & Noble College"}},
{"type": "Feature", "id": "Ub4sMYjPWPCIRz6_7tAUVndsl7E=", "properties": {"ref": "Tarrant County College Trinity River Center Bookstore", "@spider": "barnesnoblecollege", "addr:full": "300 Trinity Campus Cir", "addr:city": "Worth", "addr:state": "TX", "addr:postcode": "76102", "addr:country": "US", "name": "Tarrant County College Trinity River Center Bookstore", "website": "https://www.bncollege.com/campus-stores/", "brand": "Barnes & Noble College"}},
{"type": "Feature", "id": "vfi8umApMeKOlJjbO_KH6K3ZSJw=", "properties": {"ref": "Temple Christian School", "@spider": "barnesnoblecollege", "addr:full": "6824 Randol Mill Rd", "addr:city": "Worth", "addr:state": "TX", "addr:postcode": "76120", "addr:country": "US", "name": "Temple Christian School", "website": "https://www.bncollege.com/campus-stores/", "brand": "Barnes & Noble College"}},
{"type": "Feature", "id": "x9qTII1hgAOW9fmfJuaUrTDfEVo=", "properties": {"ref": "Texas A&M University \u2013 College Station", "@spider": "barnesnoblecollege", "addr:full": "275 Joe Routt Blvd", "addr:city": "Station", "addr:state": "TX", "addr:postcode": "77843", "addr:country": "US", "name": "Texas A&M University \u2013 College Station", "website": "https://www.bncollege.com/campus-stores/", "brand": "Barnes & Noble College"}},
{"type": "Feature", "id": "ZpOcajnMnUVYqOvN3_t5z3b1Qws=", "properties": {"ref": "Trinity Christian School", "@spider": "barnesnoblecollege", "addr:full": "1231 E Pleasant Run Rd", "addr:city": "Hill", "addr:state": "TX", "addr:postcode": "75104", "addr:country": "US", "name": "Trinity Christian School", "website": "https://www.bncollege.com/campus-stores/", "brand": "Barnes & Noble College"}},
{"type": "Feature", "id": "hTFbgRpalSG4owJfT7Dr8taEgCI=", "properties": {"ref": "UT Health Sciences Bookstore", "@spider": "barnesnoblecollege", "addr:full": "7703 Floyd Curl Dr Rm 109", "addr:city": "Antonio", "addr:state": "TX", "addr:postcode": "78229", "addr:country": "US", "name": "UT Health Sciences Bookstore", "website": "https://www.bncollege.com/campus-stores/", "brand": "Barnes & Noble College"}},
{"type": "Feature", "id": "6meB3mHhAQnDuPiPYYb7CBMoZAk=", "properties": {"ref": "Judge Memorial Catholic High School", "@spider": "barnesnoblecollege", "addr:full": "650 S 1100 E", "addr:city": "Lake City", "addr:state": "UT", "addr:postcode": "84102", "addr:country": "US", "name": "Judge Memorial Catholic High School", "website": "https://www.bncollege.com/campus-stores/", "brand": "Barnes & Noble College"}},
{"type": "Feature", "id": "ZKSZIeoeNVe7BuaPRuhFztkJME8=", "properties": {"ref": "Neumont College of Computer Science", "@spider": "barnesnoblecollege", "addr:full": "143 S Main St", "addr:city": "Lake City", "addr:state": "UT", "addr:postcode": "84111", "addr:country": "US", "name": "Neumont College of Computer Science", "website": "https://www.bncollege.com/campus-stores/", "brand": "Barnes & Noble College"}},
{"type": "Feature", "id": "FhPsW445onD769ZYCp4TmFWmf5A=", "properties": {"ref": "Cape Henry Collegiate", "@spider": "barnesnoblecollege", "addr:full": "1320 Mill Dam Rd", "addr:city": "Beach", "addr:state": "VA", "addr:postcode": "23454", "addr:country": "US", "name": "Cape Henry Collegiate", "website": "https://www.bncollege.com/campus-stores/", "brand": "Barnes & Noble College"}},
{"type": "Feature", "id": "_ylqgCwFHsNpXVssnFp_k7x1j_E=", "properties": {"ref": "Catholic High School", "@spider": "barnesnoblecollege", "addr:full": "4552 Princess Anne Rd", "addr:city": "Beach", "addr:state": "VA", "addr:postcode": "23462", "addr:country": "US", "name": "Catholic High School", "website": "https://www.bncollege.com/campus-stores/", "brand": "Barnes & Noble College"}},
{"type": "Feature", "id": "t8cDjA8IhcpkCkLgujeuDV06POI=", "properties": {"ref": "Hampden-Sydney College", "@spider": "barnesnoblecollege", "addr:full": "172 Via Sacra", "addr:city": "Sydney", "addr:state": "VA", "addr:postcode": "23943", "addr:country": "US", "name": "Hampden-Sydney College", "website": "https://www.bncollege.com/campus-stores/", "brand": "Barnes & Noble College"}},
{"type": "Feature", "id": "qIRS3IYMf9aqqgRK7BBLCG64lT0=", "properties": {"ref": "NVCC Loudoun Campus Bookstore", "@spider": "barnesnoblecollege", "addr:full": "46432 Logan Way", "addr:city": "Falls", "addr:state": "VA", "addr:postcode": "20165", "addr:country": "US", "name": "NVCC Loudoun Campus Bookstore", "website": "https://www.bncollege.com/campus-stores/", "brand": "Barnes & Noble College"}},
{"type": "Feature", "id": "8BecF8a1w0UxADEi8y_6bEH-8Ic=", "properties": {"ref": "Peninsula Catholic High School", "@spider": "barnesnoblecollege", "addr:full": "600 Harpersville Rd", "addr:city": "News", "addr:state": "VA", "addr:postcode": "23601", "addr:country": "US", "name": "Peninsula Catholic High School", "website": "https://www.bncollege.com/campus-stores/", "brand": "Barnes & Noble College"}},
{"type": "Feature", "id": "P1wAr9dwbMGJOIFsJkRqZVjOdhE=", "properties": {"ref": "Regent University", "@spider": "barnesnoblecollege", "addr:full": "1000 Regent University Dr", "addr:city": "Beach", "addr:state": "VA", "addr:postcode": "23464", "addr:country": "US", "name": "Regent University", "website": "https://www.bncollege.com/campus-stores/", "brand": "Barnes & Noble College"}},
{"type": "Feature", "id": "DsD_AYnzjzdOgyi1-IH8e9nKATw=", "properties": {"ref": "Tidewater Community College \u2013 Virginia Beach Campus Bookstore, B&N #605", "@spider": "barnesnoblecollege", "addr:full": "1700 College Crescent", "addr:city": "Beach", "addr:state": "VA", "addr:postcode": "23453", "addr:country": "US", "name": "Tidewater Community College \u2013 Virginia Beach Campus Bookstore, B&N #605", "website": "https://www.bncollege.com/campus-stores/", "brand": "Barnes & Noble College"}},
{"type": "Feature", "id": "PjS-c8tFv3ty7pH9L9yPPLkuZuw=", "properties": {"ref": "Walla Walla University Bookstore", "@spider": "barnesnoblecollege", "addr:full": "295 S College Ave", "addr:city": "Place", "addr:state": "WA", "addr:postcode": "99324", "addr:country": "US", "name": "Walla Walla University Bookstore", "website": "https://www.bncollege.com/campus-stores/", "brand": "Barnes & Noble College"}},
{"type": "Feature", "id": "RJ2ZvSi4-fO5f65CwTTdcwE-Y-E=", "properties": {"ref": "Bellin College", "@spider": "barnesnoblecollege", "addr:full": "3201 Eaton Rd", "addr:city": "Bay", "addr:state": "WI", "addr:postcode": "54311", "addr:country": "US", "name": "Bellin College", "website": "https://www.bncollege.com/campus-stores/", "brand": "Barnes & Noble College"}},
{"type": "Feature", "id": "WMxAe97grArD599Jby1a1hM01jU=", "properties": {"ref": "University of Wisconsin Eau Claire Bookstore", "@spider": "barnesnoblecollege", "addr:full": "77 Roosevelt Ave", "addr:city": "Claire", "addr:state": "WI", "addr:postcode": "54701", "addr:country": "US", "name": "University of Wisconsin Eau Claire Bookstore", "website": "https://www.bncollege.com/campus-stores/", "brand": "Barnes & Noble College"}},
{"type": "Feature", "id": "OMrgkP8R54UFmm09dN1CXKZ37Bg=", "properties": {"ref": "University School of Milwaukee", "@spider": "barnesnoblecollege", "addr:full": "2100 W Fairy Chasm Rd", "addr:city": "Hills", "addr:state": "WI", "addr:postcode": "53217", "addr:country": "US", "name": "University School of Milwaukee", "website": "https://www.bncollege.com/campus-stores/", "brand": "Barnes & Noble College"}},
{"type": "Feature", "id": "UCewEY8edSluysiRkGKgJM9MR1s=", "properties": {"ref": "UWSP University Store and Text Rental", "@spider": "barnesnoblecollege", "addr:full": "1015 Reserve St", "addr:city": "Point", "addr:state": "WI", "addr:postcode": "54481", "addr:country": "US", "name": "UWSP University Store and Text Rental", "website": "https://www.bncollege.com/campus-stores/", "brand": "Barnes & Noble College"}},
{"type": "Feature", "id": "LvJA5ko0kO2PKWTQPXvSdUTrLdk=", "properties": {"ref": "Wayland Academy", "@spider": "barnesnoblecollege", "addr:full": "101 N University Ave", "addr:city": "Dam", "addr:state": "WI", "addr:postcode": "53916", "addr:country": "US", "name": "Wayland Academy", "website": "https://www.bncollege.com/campus-stores/", "brand": "Barnes & Noble College"}}]}