{"type":"FeatureCollection","features":[{"type": "Feature", "id": "CN5yhDIEk6i3gB6LjMywZlItnf4=", "properties": {"ref": "584", "@spider": "beef_o_bradys", "addr:full": "1000 George Hopper Road", "addr:city": "Midlothian", "addr:state": "TX", "addr:postcode": "76065     ", "name": "Midlothian", "phone": "(972) 775-7840", "website": "https://www.beefobradys.com/Midlothian"}, "geometry": {"type": "Point", "coordinates": [-96.982523, 32.474622]}},
{"type": "Feature", "id": "lyKogx6_F02__CJ0cCrMr_T4qgk=", "properties": {"ref": "534", "@spider": "beef_o_bradys", "addr:full": "145 Oyster Creek Dr", "addr:city": "Lake Jackson", "addr:state": "TX", "addr:postcode": "77566-4197", "name": "Lake Jackson", "phone": "(979) 285-9580", "website": "https://www.beefobradys.com/LakeJackson"}, "geometry": {"type": "Point", "coordinates": [-95.45243, 29.04562]}},
{"type": "Feature", "id": "CGG2mQg386hmZDlZ04ThylPT_0k=", "properties": {"ref": "435", "@spider": "beef_o_bradys", "addr:full": "5510 4th St Ste 280", "addr:city": "Lubbock", "addr:state": "TX", "addr:postcode": "79416-4275", "name": "Lubbock", "phone": "(806) 792-3337", "website": "https://www.beefobradys.com/Lubbock"}, "geometry": {"type": "Point", "coordinates": [-101.93142, 33.59237]}},
{"type": "Feature", "id": "QkN31IhZtxYvRaj4nViF5E2mp0c=", "properties": {"ref": "410", "@spider": "beef_o_bradys", "addr:full": "2500 SW 14th St Ste 108", "addr:city": "Bentonville", "addr:state": "AR", "addr:postcode": "72712-3544", "name": "Bentonville", "phone": "(479) 268-4545", "website": "https://www.beefobradys.com/Bentonville"}, "geometry": {"type": "Point", "coordinates": [-94.24141, 36.35768]}},
{"type": "Feature", "id": "AeBzOxtGaozVViZCV1tVlfQwpG4=", "properties": {"ref": "313", "@spider": "beef_o_bradys", "addr:full": "7306 SW 34th Ave Ste 7", "addr:city": "Amarillo", "addr:state": "TX", "addr:postcode": "79121-1446", "name": "Amarillo", "phone": "(806) 358-0997", "website": "https://www.beefobradys.com/Amarillo"}, "geometry": {"type": "Point", "coordinates": [-101.92037, 35.17662]}},
{"type": "Feature", "id": "4sDkey2m2THY64YxgxhKo6ICjQw=", "properties": {"ref": "541", "@spider": "beef_o_bradys", "addr:full": "3000 Jennings Ln", "addr:city": "Batesville", "addr:state": "AR", "addr:postcode": "72501-7564", "name": "Batesville", "phone": "(870) 793-9464", "website": "https://www.beefobradys.com/Batesville"}, "geometry": {"type": "Point", "coordinates": [-91.61587, 35.68103]}},
{"type": "Feature", "id": "tMd0slV1A_BkfW5iIq5cugkFXKA=", "properties": {"ref": "304", "@spider": "beef_o_bradys", "addr:full": "4419 Rangeline Rd", "addr:city": "Mobile", "addr:state": "AL", "addr:postcode": "36619     ", "name": "Mobile", "phone": "(251) 661-3346", "website": "https://www.beefobradys.com/Mobile"}, "geometry": {"type": "Point", "coordinates": [-88.18931, 30.59875]}},
{"type": "Feature", "id": "KxgtNciMsWC-t6un9cX7W89aGlQ=", "properties": {"ref": "588", "@spider": "beef_o_bradys", "addr:full": "1418 W Saint Joseph St Ste 90", "addr:city": "Perryville", "addr:state": "MO", "addr:postcode": "63775-1597", "name": "Perryville", "phone": "(573) 605-1109", "website": "https://www.beefobradys.com/perryville"}, "geometry": {"type": "Point", "coordinates": [-89.885236, 37.728008]}},
{"type": "Feature", "id": "_DW9x1UM99QER6boxOyX9ot4_j0=", "properties": {"ref": "374", "@spider": "beef_o_bradys", "addr:full": "6450 US Highway 90 Ste J", "addr:city": "Spanish Fort", "addr:state": "AL", "addr:postcode": "36527-9480", "name": "Spanish Fort", "phone": "(251) 447-0660", "website": "https://www.beefobradys.com/SpanishFort"}, "geometry": {"type": "Point", "coordinates": [-87.91964, 30.66728]}},
{"type": "Feature", "id": "SWbxSWrtQ_-2jkIvD07QQBkkiX0=", "properties": {"ref": "293", "@spider": "beef_o_bradys", "addr:full": "1 New Market Street", "addr:city": "Cantonment", "addr:state": "FL", "addr:postcode": "32533     ", "name": "Cantonment", "phone": "(850) 332-5040", "website": "https://www.beefobradys.com/Cantonment"}, "geometry": {"type": "Point", "coordinates": [-87.309498, 30.535699]}},
{"type": "Feature", "id": "7ZVm1c_89-IlNmXWQBxUggtF7_w=", "properties": {"ref": "598", "@spider": "beef_o_bradys", "addr:full": "4300 Helena Rd", "addr:city": "Helena", "addr:state": "AL", "addr:postcode": "35080-3259", "name": "Helena", "phone": "(205) 624-2333", "website": "https://www.beefobradys.com/helena"}, "geometry": {"type": "Point", "coordinates": [-86.842671, 33.297655]}},
{"type": "Feature", "id": "9xoc9kErVKJCo2XTUwDlUxFcwBk=", "properties": {"ref": "508", "@spider": "beef_o_bradys", "addr:full": "5519 Grove Blvd", "addr:city": "Hoover", "addr:state": "AL", "addr:postcode": "35226-4605", "name": "Hoover", "phone": "(205) 987-9464", "website": "https://www.beefobradys.com/Hoover"}, "geometry": {"type": "Point", "coordinates": [-86.84047, 33.38462]}},
{"type": "Feature", "id": "eypRdP1dIqyjmJdD8KQOAxRXblY=", "properties": {"ref": "70", "@spider": "beef_o_bradys", "addr:full": "4275 Woodbine Road", "addr:city": "Pace", "addr:state": "FL", "addr:postcode": "32571-8704", "name": "Pace", "phone": "(850) 889-4852", "website": "https://www.beefobradys.com/Pensacola"}, "geometry": {"type": "Point", "coordinates": [-87.178743, 30.593777]}},
{"type": "Feature", "id": "YRZ8ZYy6bmuiO5O4qVhSvLH5r-Q=", "properties": {"ref": "620", "@spider": "beef_o_bradys", "addr:full": "5279 U.S. 280", "addr:city": "Birmingham", "addr:state": "AL", "addr:postcode": "35242     ", "name": "Brook Highland", "phone": "(205) 637-6661", "website": "https://www.beefobradys.com/brookhighland"}, "geometry": {"type": "Point", "coordinates": [-86.68, 33.42]}},
{"type": "Feature", "id": "9WV68HqjyPaxu8JrO9UPxSKARHc=", "properties": {"ref": "397", "@spider": "beef_o_bradys", "addr:full": "2776 Legends Pkwy", "addr:city": "Prattville", "addr:state": "AL", "addr:postcode": "36066-7752", "name": "Prattville", "phone": "(334) 290-9962", "website": "https://www.beefobradys.com/Prattville"}, "geometry": {"type": "Point", "coordinates": [-86.3982148, 32.4583729]}},
{"type": "Feature", "id": "u4aSe7bJq-1UH-zTrvfDRzNDFSc=", "properties": {"ref": "272", "@spider": "beef_o_bradys", "addr:full": "1310 US Highway 331 S", "addr:city": "DeFuniak Springs", "addr:state": "FL", "addr:postcode": "32435-3420", "name": "DeFuniak Springs", "phone": "(850) 951-9877", "website": "https://www.beefobradys.com/DeFuniakSprings"}, "geometry": {"type": "Point", "coordinates": [-86.13977, 30.73109]}},
{"type": "Feature", "id": "axgRzH7eiuBroL7KxLCovMkXARc=", "properties": {"ref": "398", "@spider": "beef_o_bradys", "addr:full": "621 Boll Weevil Cir Ste 32A", "addr:city": "Enterprise", "addr:state": "AL", "addr:postcode": "36330-2798", "name": "Enterprise", "phone": "(334) 348-9464", "website": "https://www.beefobradys.com/Enterprise"}, "geometry": {"type": "Point", "coordinates": [-85.86175, 31.33378]}},
{"type": "Feature", "id": "rKD6kX1ZTTZjSPErhoKbJ2LXvJw=", "properties": {"ref": "600", "@spider": "beef_o_bradys", "addr:full": "200 N Main St", "addr:city": "Beaver Dam", "addr:state": "KY", "addr:postcode": "42320-1915", "name": "Beaver Dam", "phone": "(270) 363-2231", "website": "https://www.beefobradys.com/BeaverDam"}, "geometry": {"type": "Point", "coordinates": [-86.876267, 37.40317]}},
{"type": "Feature", "id": "DdoKF9vDW4jHIZrBD_ixVemA3m0=", "properties": {"ref": "335", "@spider": "beef_o_bradys", "addr:full": "3189 Fairview Dr Ste E", "addr:city": "Owensboro", "addr:state": "KY", "addr:postcode": "42303-7820", "name": "Owensboro, KY", "phone": "(270) 685-4969", "website": "https://www.beefobradys.com/OwensboroKY"}, "geometry": {"type": "Point", "coordinates": [-87.05918, 37.75278]}},
{"type": "Feature", "id": "KQuDlWkbe4YzWqW22mzbvNuZqVs=", "properties": {"ref": "601", "@spider": "beef_o_bradys", "addr:full": "11226 Hutchison Blvd", "addr:city": "Panama City Beach", "addr:state": "FL", "addr:postcode": "32407-3718", "name": "Panama City Beach", "phone": "(850) 739-4647", "website": "https://www.beefobradys.com/PanamaCityBeach"}, "geometry": {"type": "Point", "coordinates": [-85.817459, 30.190293]}},
{"type": "Feature", "id": "WfZeglrlXjx5bXobJSmhanpWGgc=", "properties": {"ref": "45", "@spider": "beef_o_bradys", "addr:full": "2743 Montgomery Hwy Ste 1010", "addr:city": "Dothan", "addr:state": "AL", "addr:postcode": "36303-2642", "name": "Dothan", "phone": "(334) 678-0010", "website": "https://www.beefobradys.com/Dothan"}, "geometry": {"type": "Point", "coordinates": [-85.4219, 31.24627]}},
{"type": "Feature", "id": "0RMw2kVMVJRvJzaaGD0QE7V1Iu4=", "properties": {"ref": "105", "@spider": "beef_o_bradys", "addr:full": "2310 S Highway 77 Ste 350", "addr:city": "Lynn Haven", "addr:state": "FL", "addr:postcode": "32444-4634", "name": "Lynn Haven", "phone": "(850) 271-0064", "website": "https://www.beefobradys.com/LynnHaven"}, "geometry": {"type": "Point", "coordinates": [-85.6494, 30.22774]}},
{"type": "Feature", "id": "BK2yu9VuBa0NKevLjwXA4UNcJEE=", "properties": {"ref": "211", "@spider": "beef_o_bradys", "addr:full": "842 N Tyndall Pkwy", "addr:city": "Callaway", "addr:state": "FL", "addr:postcode": "32404-9407", "name": "Callaway", "phone": "(850) 215-3905", "website": "https://www.beefobradys.com/Callaway"}, "geometry": {"type": "Point", "coordinates": [-85.59135, 30.13228]}},
{"type": "Feature", "id": "FlvwPBBMb-3BcMd9R25GwAZSjmY=", "properties": {"ref": "290", "@spider": "beef_o_bradys", "addr:full": "4944 Malloy Plz", "addr:city": "Marianna", "addr:state": "FL", "addr:postcode": "32448-2523", "name": "Marianna", "phone": "(850) 482-0002", "website": "https://www.beefobradys.com/Marianna"}, "geometry": {"type": "Point", "coordinates": [-85.19033, 30.74748]}},
{"type": "Feature", "id": "RRurxZvl_b-XyGRy56mosT7fLRw=", "properties": {"ref": "446", "@spider": "beef_o_bradys", "addr:full": "5958 Snow Hill Rd Ste 100-112", "addr:city": "Ooltewah", "addr:state": "TN", "addr:postcode": "37363-7833", "name": "Ooltewah", "phone": "(423) 910-0261", "website": "https://www.beefobradys.com/Ooltewah"}, "geometry": {"type": "Point", "coordinates": [-85.06407, 35.08625]}},
{"type": "Feature", "id": "67LruTppcyOAccMIqmiIkOH9QIY=", "properties": {"ref": "56", "@spider": "beef_o_bradys", "addr:full": "100 N Peachtree Pkwy Ste 18", "addr:city": "Peachtree City", "addr:state": "GA", "addr:postcode": "30269-1744", "name": "Peachtree City", "phone": "(770) 486-1860", "website": "https://www.beefobradys.com/PeachtreeCity"}, "geometry": {"type": "Point", "coordinates": [-84.5688, 33.40786]}},
{"type": "Feature", "id": "u9VjgQP9SeoxSkVO6YaL9nkPCTA=", "properties": {"ref": "450", "@spider": "beef_o_bradys", "addr:full": "2402 Landmark Ave NE", "addr:city": "Corydon", "addr:state": "IN", "addr:postcode": "47112-2019", "name": "Corydon", "phone": "(812) 734-3200", "website": "https://www.beefobradys.com/Corydon"}, "geometry": {"type": "Point", "coordinates": [-86.12518, 38.23599]}},
{"type": "Feature", "id": "OtJC-WTTXR2BvPBPeLKIB85VdbE=", "properties": {"ref": "416", "@spider": "beef_o_bradys", "addr:full": "1408 Tallahassee Hwy Ste J", "addr:city": "Bainbridge", "addr:state": "GA", "addr:postcode": "39819-7900", "name": "Bainbridge", "phone": "(229) 246-8488", "website": "https://www.beefobradys.com/Bainbridge"}, "geometry": {"type": "Point", "coordinates": [-84.56531, 30.88292]}},
{"type": "Feature", "id": "PayLLtkhcnbxKAQHVOYMyH7R9bo=", "properties": {"ref": "236", "@spider": "beef_o_bradys", "addr:full": "105 Lafollette Sta S", "addr:city": "Floyds Knobs", "addr:state": "IN", "addr:postcode": "47119-9772", "name": "Floyds Knobs", "phone": "(812) 923-1316", "website": "https://www.beefobradys.com/FloydsKnobs"}, "geometry": {"type": "Point", "coordinates": [-85.8728, 38.32326]}},
{"type": "Feature", "id": "n6dY7fLu-ekZNmGD087f3WDwaoE=", "properties": {"ref": "559", "@spider": "beef_o_bradys", "addr:full": "3101 S 2nd St", "addr:city": "Louisville", "addr:state": "KY", "addr:postcode": "40208-1446", "name": "Central Station", "phone": "(502) 637-3737\r\n", "website": "https://www.beefobradys.com/CentralStation"}, "geometry": {"type": "Point", "coordinates": [-85.76322, 38.20411]}},
{"type": "Feature", "id": "raD1L2-40vijJZW6NsL1RhEK0gc=", "properties": {"ref": "585", "@spider": "beef_o_bradys", "addr:full": "11324 Preston Hwy", "addr:city": "Louisville", "addr:state": "KY", "addr:postcode": "40229-2862", "name": "Hillview", "phone": "(502) 969-5559", "website": "https://www.beefobradys.com/Louisville"}, "geometry": {"type": "Point", "coordinates": [-85.6745, 38.08696]}},
{"type": "Feature", "id": "Ko5gqKnMuenACPiMs2xB-kIZkGs=", "properties": {"ref": "65", "@spider": "beef_o_bradys", "addr:full": "5628 Bardstown Rd", "addr:city": "Louisville", "addr:state": "KY", "addr:postcode": "40291-1912", "name": "Fern Creek", "phone": "(502) 239-2226", "website": "https://www.beefobradys.com/FernCreek"}, "geometry": {"type": "Point", "coordinates": [-85.59749, 38.16381]}},
{"type": "Feature", "id": "zZv7dkQxq9B6EXGEpsA0K22PHHk=", "properties": {"ref": "58", "@spider": "beef_o_bradys", "addr:full": "241 Blankenbaker Pkwy", "addr:city": "Louisville", "addr:state": "KY", "addr:postcode": "40243-1877", "name": "Middletown", "phone": "(502) 254-2322", "website": "https://www.beefobradys.com/Middletown"}, "geometry": {"type": "Point", "coordinates": [-85.54619, 38.24176]}},
{"type": "Feature", "id": "HwI4ov0z40syCpmPTRp-ZgPuXWg=", "properties": {"ref": "278", "@spider": "beef_o_bradys", "addr:full": "1208 Capital Cir SE", "addr:city": "Tallahassee", "addr:state": "FL", "addr:postcode": "32301-3811", "name": "Capital Circle", "phone": "(850) 504-2333", "website": "https://www.beefobradys.com/CapitalCircle"}, "geometry": {"type": "Point", "coordinates": [-84.22687, 30.43089]}},
{"type": "Feature", "id": "htgnEIWMMpPcw5rUZb1pUYtU7nw=", "properties": {"ref": "62", "@spider": "beef_o_bradys", "addr:full": "1508 E Jackson St", "addr:city": "Thomasville", "addr:state": "GA", "addr:postcode": "31792-3939", "name": "Thomasville", "phone": "(229) 551-9464", "website": "https://www.beefobradys.com/Thomasville"}, "geometry": {"type": "Point", "coordinates": [-83.95388, 30.854345]}},
{"type": "Feature", "id": "F9tTRLG0QTmFvz-zow3ODVOt214=", "properties": {"ref": "277", "@spider": "beef_o_bradys", "addr:full": "547 Main St NW", "addr:city": "Bourbonnais", "addr:state": "IL", "addr:postcode": "60914-2305", "name": "Bourbonnais", "phone": "(815) 929-9800", "website": "https://www.beefobradys.com/Bourbonnais"}, "geometry": {"type": "Point", "coordinates": [-87.87636, 41.15004]}},
{"type": "Feature", "id": "u7pi2hKgAnIo4NE-l_FYgQMybrQ=", "properties": {"ref": "353", "@spider": "beef_o_bradys", "addr:full": "1679 Old Pendergrass Rd", "addr:city": "Jefferson", "addr:state": "GA", "addr:postcode": "30549-2705", "name": "Jefferson", "phone": "(706) 367-4835", "website": "https://www.beefobradys.com/Jefferson"}, "geometry": {"type": "Point", "coordinates": [-83.60499, 34.1231]}},
{"type": "Feature", "id": "dIPhSd5ZZ5_0Kn9aW_8bpc3OPSY=", "properties": {"ref": "603", "@spider": "beef_o_bradys", "addr:full": "111 Westridge Dr", "addr:city": "Frankfort", "addr:state": "KY", "addr:postcode": "40601-4448", "name": "Frankfort", "phone": "(502) 226-3666", "website": "https://www.beefobradys.com/Frankfort"}, "geometry": {"type": "Point", "coordinates": [-84.89444, 38.164354]}},
{"type": "Feature", "id": "TD8JjhHUvqa8xAN4-rUIFSLpPmg=", "properties": {"ref": "433", "@spider": "beef_o_bradys", "addr:full": "1860 Barnett Shoals Rd Ste 101", "addr:city": "Athens", "addr:state": "GA", "addr:postcode": "30605-6821", "name": "Athens", "phone": "(706) 850-1916", "website": "https://www.beefobradys.com/Athens"}, "geometry": {"type": "Point", "coordinates": [-83.34079, 33.92535]}},
{"type": "Feature", "id": "dF19t8zT4idsCP9Q06nqfc-r9mQ=", "properties": {"ref": "296", "@spider": "beef_o_bradys", "addr:full": "1597 Cavalry Dr", "addr:city": "Union", "addr:state": "KY", "addr:postcode": "41091-8731", "name": "Union", "phone": "(859) 384-9464", "website": "https://www.beefobradys.com/Union"}, "geometry": {"type": "Point", "coordinates": [-84.66713, 38.95273]}},
{"type": "Feature", "id": "htMRHuiDf3MMbNuFIJUNYu1pt7Q=", "properties": {"ref": "439", "@spider": "beef_o_bradys", "addr:full": "911 W Main St", "addr:city": "Peru", "addr:state": "IN", "addr:postcode": "46970-1740", "name": "Peru", "phone": "(765) 472-3900", "website": "https://www.beefobradys.com/Peru"}, "geometry": {"type": "Point", "coordinates": [-86.09405, 40.74467]}},
{"type": "Feature", "id": "Wuuh7pNTyN9evVX0yQMWbmkXaB4=", "properties": {"ref": "594", "@spider": "beef_o_bradys", "addr:full": "6844 Suwannee Plaza Ln", "addr:city": "Live Oak", "addr:state": "FL", "addr:postcode": "32060-7495", "name": "Live Oak", "phone": "(386) 219-0522", "website": "https://www.beefobradys.com/LiveOak"}, "geometry": {"type": "Point", "coordinates": [-82.96434, 30.325539]}},
{"type": "Feature", "id": "xmQrNcOkMmdFP6j99TMK3u_b8vs=", "properties": {"ref": "157", "@spider": "beef_o_bradys", "addr:full": "2625 Hendersonville Rd", "addr:city": "Arden", "addr:state": "NC", "addr:postcode": "28704-9226", "name": "Arden", "phone": "(828) 684-2295", "website": "https://www.beefobradys.com/Arden"}, "geometry": {"type": "Point", "coordinates": [-82.50815, 35.44734]}},
{"type": "Feature", "id": "d2PHADnR_iAlYwBgjiI14_396PE=", "properties": {"ref": "535", "@spider": "beef_o_bradys", "addr:full": "7050 NW 140th St", "addr:city": "Chiefland", "addr:state": "FL", "addr:postcode": "32626-8166", "name": "Chiefland", "phone": "(352) 493-9664", "website": "https://www.beefobradys.com/Chiefland"}, "geometry": {"type": "Point", "coordinates": [-82.89367, 29.53164]}},
{"type": "Feature", "id": "Igs6iEqi_wFNkMV9dYalIAlPmo8=", "properties": {"ref": "51", "@spider": "beef_o_bradys", "addr:full": "857 SW Main Blvd Ste 100", "addr:city": "Lake City", "addr:state": "FL", "addr:postcode": "32025-5796", "name": "Lake City", "phone": "(386) 754-6860", "website": "https://www.beefobradys.com/LakeCity"}, "geometry": {"type": "Point", "coordinates": [-82.64248, 30.17797]}},
{"type": "Feature", "id": "QfD_eGdyCLASWgfKGFUVdTCArso=", "properties": {"ref": "539", "@spider": "beef_o_bradys", "addr:full": "300 Clinchfield St Ste 180", "addr:city": "Kingsport", "addr:state": "TN", "addr:postcode": "37660-3856", "name": "Kingsport", "phone": "(423) 245-2333", "website": "https://www.beefobradys.com/Kingsport"}, "geometry": {"type": "Point", "coordinates": [-82.56373, 36.55407]}},
{"type": "Feature", "id": "VDaDibkJWnwWdJOqd1cs-OD4oug=", "properties": {"ref": "412", "@spider": "beef_o_bradys", "addr:full": "2913 Boones Creek Rd", "addr:city": "Johnson City ", "addr:state": "TN", "addr:postcode": "37615-4997", "name": "Gray", "phone": "(423) 282-9464", "website": "https://www.beefobradys.com/Gray"}, "geometry": {"type": "Point", "coordinates": [-82.41957, 36.38416]}},
{"type": "Feature", "id": "K3t__FaC5DuADYcPnEkvv32fYg8=", "properties": {"ref": "317", "@spider": "beef_o_bradys", "addr:full": "12479 State Rd 23", "addr:city": "Granger", "addr:state": "IN", "addr:postcode": "46530     ", "name": "Granger", "phone": "(574) 271-1415", "website": "https://www.beefobradys.com/Granger"}, "geometry": {"type": "Point", "coordinates": [-86.11782, 41.75361]}},
{"type": "Feature", "id": "UPbaAk_k06CBPXYU_vbOlvz631o=", "properties": {"ref": "60", "@spider": "beef_o_bradys", "addr:full": "6738 W Gulf To Lake Hwy", "addr:city": "Crystal River", "addr:state": "FL", "addr:postcode": "34429-9348", "name": "Crystal River", "phone": "(352) 564-0544", "website": "https://www.beefobradys.com/CrystalRiver"}, "geometry": {"type": "Point", "coordinates": [-82.54688, 28.88976]}},
{"type": "Feature", "id": "WnoD6exV4rP13cHSg_TNQvIXt9M=", "properties": {"ref": "589", "@spider": "beef_o_bradys", "addr:full": "502 N Temple Ave", "addr:city": "Starke", "addr:state": "FL", "addr:postcode": "32091-2610", "name": "Starke", "phone": "(904) 964-2716", "website": "https://www.beefobradys.com/Starke"}, "geometry": {"type": "Point", "coordinates": [-82.109766, 29.949088]}},
{"type": "Feature", "id": "AvFbfMIS5dPfZ2_gGlAROpKBfd8=", "properties": {"ref": "496", "@spider": "beef_o_bradys", "addr:full": "11100 SW 93rd Court Rd Ste 12", "addr:city": "Ocala ", "addr:state": "FL", "addr:postcode": "34481-5188", "name": "Ocala W.", "phone": "(352) 402-0003", "website": "https://www.beefobradys.com/OcalaW-"}, "geometry": {"type": "Point", "coordinates": [-82.3526, 29.16254]}},
{"type": "Feature", "id": "bv7qyU9f7ImHIqWmhNWLvHBNoio=", "properties": {"ref": "596", "@spider": "beef_o_bradys", "addr:full": "5546 Main St", "addr:city": "New Port Richey", "addr:state": "FL", "addr:postcode": "34652-2638", "name": "New Port Richey - Main St", "phone": "(727) 312-3712", "website": "https://www.beefobradys.com/NewPortRicheyMainSt"}, "geometry": {"type": "Point", "coordinates": [-82.722158, 28.249916]}},
{"type": "Feature", "id": "6VLQSjr8F52dBWESwNdwxe8HWT0=", "properties": {"ref": "24", "@spider": "beef_o_bradys", "addr:full": "8717 Little Rd Ste 6", "addr:city": "New Port Richey", "addr:state": "FL", "addr:postcode": "34654-4949", "name": "New Port Richey", "phone": "(727) 842-4757", "website": "https://www.beefobradys.com/NewPortRichey"}, "geometry": {"type": "Point", "coordinates": [-82.67595, 28.28331]}},
{"type": "Feature", "id": "xePTqOnj2HDVB1lvQ21R7Ji3OY8=", "properties": {"ref": "514", "@spider": "beef_o_bradys", "addr:full": "254 W Broadway St", "addr:city": "Monticello", "addr:state": "MN", "addr:postcode": "55362-9353", "name": "Monticello", "phone": "(763) 295-2952", "website": "https://www.beefobradys.com/Monticello"}, "geometry": {"type": "Point", "coordinates": [-93.79616, 45.30626]}},
{"type": "Feature", "id": "qFCsiuKw9VH2QfzFijivBFSZ7JA=", "properties": {"ref": "540", "@spider": "beef_o_bradys", "addr:full": "14851 State Road 52", "addr:city": "Hudson", "addr:state": "FL", "addr:postcode": "34669-4061", "name": "Hudson", "phone": "(727) 379-9464", "website": "https://www.beefobradys.com/Hudson"}, "geometry": {"type": "Point", "coordinates": [-82.63329, 28.33421]}},
{"type": "Feature", "id": "Ef1MbKVyqnuKdWW1C8fQt9LG328=", "properties": {"ref": "469", "@spider": "beef_o_bradys", "addr:full": "15190 Bluebird St NW Ste 114", "addr:city": "Andover", "addr:state": "MN", "addr:postcode": "55304-3544", "name": "Andover", "phone": "(763) 434-2700", "website": "https://www.beefobradys.com/Andover"}, "geometry": {"type": "Point", "coordinates": [-93.30278, 45.24614]}},
{"type": "Feature", "id": "67d0UAnWscaQrOF_k2GdMZo8aWE=", "properties": {"ref": "473", "@spider": "beef_o_bradys", "addr:full": "14387 Spring Hill Dr Ste 400", "addr:city": "Spring Hill", "addr:state": "FL", "addr:postcode": "34609-8199", "name": "Spring Hill 2", "phone": "(352) 777-4933", "website": "https://www.beefobradys.com/SpringHill2"}, "geometry": {"type": "Point", "coordinates": [-82.48881, 28.47716]}},
{"type": "Feature", "id": "N3nc2gYSksRcwFys5cK4RJ8epEs=", "properties": {"ref": "200", "@spider": "beef_o_bradys", "addr:full": "7601 Horse Lake Rd", "addr:city": "Brooksville", "addr:state": "FL", "addr:postcode": "34601-9021", "name": "Brooksville II", "phone": "(352) 797-9464", "website": "https://www.beefobradys.com/BrooksvilleII"}, "geometry": {"type": "Point", "coordinates": [-82.4143, 28.54092]}},
{"type": "Feature", "id": "LS-umIS_TTbr8WRj6N2YVP9DAKU=", "properties": {"ref": "566", "@spider": "beef_o_bradys", "addr:full": "23212 Saint Francis Blvd NW Ste 700", "addr:city": "St. Francis", "addr:state": "MN", "addr:postcode": "55070-2304", "name": "St. Francis", "phone": "(763) 753-8000\r\n", "website": "https://www.beefobradys.com/St-Francis"}, "geometry": {"type": "Point", "coordinates": [-93.36786, 45.39147]}},
{"type": "Feature", "id": "wOGTWlAii080USwKXKmzX_gBtmA=", "properties": {"ref": "227", "@spider": "beef_o_bradys", "addr:full": "8568 Gunn Hwy", "addr:city": "Odessa", "addr:state": "FL", "addr:postcode": "33556-3289", "name": "Citrus Park", "phone": "(813) 920-6525", "website": "https://www.beefobradys.com/CitrusPark"}, "geometry": {"type": "Point", "coordinates": [-82.57904, 28.09303]}},
{"type": "Feature", "id": "TuVUMExC2eoPZ2v-0fVgfDOKGB0=", "properties": {"ref": "517", "@spider": "beef_o_bradys", "addr:full": "18835 State Road 54", "addr:city": "Lutz", "addr:state": "FL", "addr:postcode": "33558-8201", "name": "Sun Lake (Lutz)", "phone": "(813) 428-6928", "website": "https://www.beefobradys.com/SunLake-Lutz"}, "geometry": {"type": "Point", "coordinates": [-82.51397, 28.19526]}},
{"type": "Feature", "id": "474qOtIUQ0gZlOabzFm9PtkFrDw=", "properties": {"ref": "430", "@spider": "beef_o_bradys", "addr:full": "3434 E Silver Springs Blvd", "addr:city": "Ocala", "addr:state": "FL", "addr:postcode": "34470-6406", "name": "Ocala", "phone": "(352) 622-4200", "website": "https://www.beefobradys.com/Ocala"}, "geometry": {"type": "Point", "coordinates": [-82.089318, 29.1944385]}},
{"type": "Feature", "id": "htbsFxL4r8CrUlEBikqEMgjF-o8=", "properties": {"ref": "429", "@spider": "beef_o_bradys", "addr:full": "7040 Land O Lakes Blvd Unit 108", "addr:city": "Land O' Lakes", "addr:state": "FL", "addr:postcode": "34638-3201", "name": "Lake Wilderness", "phone": "(813) 388-6893", "website": "https://www.beefobradys.com/LakeWilderness"}, "geometry": {"type": "Point", "coordinates": [-82.47351, 28.25754]}},
{"type": "Feature", "id": "nWnnbNqQUJyoySyxm3HRAWb90EE=", "properties": {"ref": "6", "@spider": "beef_o_bradys", "addr:full": "15784 N Dale Mabry Hwy", "addr:city": "Tampa", "addr:state": "FL", "addr:postcode": "33618-1608", "name": "Northdale", "phone": "(813) 969-4647", "website": "https://www.beefobradys.com/Northdale"}, "geometry": {"type": "Point", "coordinates": [-82.50224, 28.09633]}},
{"type": "Feature", "id": "p7DVp6w5129E_hcTffAIcbEhTWc=", "properties": {"ref": "137", "@spider": "beef_o_bradys", "addr:full": "4775 34th St S", "addr:city": "St. Petersburg", "addr:state": "FL", "addr:postcode": "33711-4507", "name": "South St. Pete", "phone": "(727) 866-1086", "website": "https://www.beefobradys.com/SouthSt-Pete"}, "geometry": {"type": "Point", "coordinates": [-82.6801622, 27.7246893]}},
{"type": "Feature", "id": "gJeBCRuVUb-bIbEwn0Ve63l8sdo=", "properties": {"ref": "102", "@spider": "beef_o_bradys", "addr:full": "18421 N US Highway 41", "addr:city": "Lutz", "addr:state": "FL", "addr:postcode": "33549-4470", "name": "Lutz", "phone": "(813) 909-2300", "website": "https://www.beefobradys.com/Lutz"}, "geometry": {"type": "Point", "coordinates": [-82.46262, 28.14071]}},
{"type": "Feature", "id": "zUQl8BDx1if8J_vlOqIEwG5Hytk=", "properties": {"ref": "59", "@spider": "beef_o_bradys", "addr:full": "8810 N Himes Ave", "addr:city": "Tampa", "addr:state": "FL", "addr:postcode": "33614-1627", "name": "Forest Hills", "phone": "(813) 936-2058", "website": "https://www.beefobradys.com/ForestHills"}, "geometry": {"type": "Point", "coordinates": [-82.50076, 28.03564]}},
{"type": "Feature", "id": "xTmOMg_qAYtrkv5b43xmvrQuOJw=", "properties": {"ref": "49", "@spider": "beef_o_bradys", "addr:full": "27315 State Road 54", "addr:city": "Wesley Chapel", "addr:state": "FL", "addr:postcode": "33544-7428", "name": "Wesley Chapel", "phone": "(813) 994-1511", "website": "https://www.beefobradys.com/WesleyChapel"}, "geometry": {"type": "Point", "coordinates": [-82.36686, 28.23098]}},
{"type": "Feature", "id": "KGmt8j-BFWsvdxPpSKJeuzXHds8=", "properties": {"ref": "463", "@spider": "beef_o_bradys", "addr:full": "31120 Cortez Blvd", "addr:city": "Brooksville", "addr:state": "FL", "addr:postcode": "34602-7548", "name": "Ridge Manor at I-75 & Cortez Rd", "phone": "(352) 345-4819", "website": "https://www.beefobradys.com/RidgeManor"}, "geometry": {"type": "Point", "coordinates": [-82.22298, 28.52299]}},
{"type": "Feature", "id": "fTfI7vohg4Z6fhajMFlaC5lWWYI=", "properties": {"ref": "9", "@spider": "beef_o_bradys", "addr:full": "2819 S Macdill Ave", "addr:city": "Tampa", "addr:state": "FL", "addr:postcode": "33629-7288", "name": "Palma Ceia", "phone": "(813) 835-9464", "website": "https://www.beefobradys.com/PalmaCeia"}, "geometry": {"type": "Point", "coordinates": [-82.4937, 27.92037]}},
{"type": "Feature", "id": "sPfmwINVarm64RulJVfRgPm-YYI=", "properties": {"ref": "180", "@spider": "beef_o_bradys", "addr:full": "1660 Bruce B Downs Blvd", "addr:city": "Wesley Chapel", "addr:state": "FL", "addr:postcode": "33544-8600", "name": "Beef's Wesley Chapel at Wiregrass", "phone": "(813) 929-7744", "website": "https://www.beefobradys.com/WesleyChapelatWiregrass"}, "geometry": {"type": "Point", "coordinates": [-82.36147, 28.18732]}},
{"type": "Feature", "id": "wdBlV56x1tQlS3y0fo-0UJc5Zjo=", "properties": {"ref": "289", "@spider": "beef_o_bradys", "addr:full": "2586 W CR 48", "addr:city": "Bushnell", "addr:state": "FL", "addr:postcode": "33513-8386", "name": "Bushnell", "phone": "(352) 568-7000", "website": "https://www.beefobradys.com/Bushnell"}, "geometry": {"type": "Point", "coordinates": [-82.14685, 28.66877]}},
{"type": "Feature", "id": "_IXN7HIHhphBgaHoo_p1IDhdKj8=", "properties": {"ref": "97", "@spider": "beef_o_bradys", "addr:full": "8720 SE 165th Mulberry Ln", "addr:city": "The Villages", "addr:state": "FL", "addr:postcode": "32162-5861", "name": "Villages 1", "phone": "(352) 259-1536", "website": "https://www.beefobradys.com/Villages1"}, "geometry": {"type": "Point", "coordinates": [-82.00747, 28.98109]}},
{"type": "Feature", "id": "oCoBx76kNM5U_Holp29RgjRTpMw=", "properties": {"ref": "156", "@spider": "beef_o_bradys", "addr:full": "3539 Wedgewood Ln", "addr:city": "The Villages", "addr:state": "FL", "addr:postcode": "32162-7188", "name": "Southern Trace", "phone": "(352) 751-7169", "website": "https://www.beefobradys.com/SouthernTrace"}, "geometry": {"type": "Point", "coordinates": [-82.01112, 28.95052]}},
{"type": "Feature", "id": "idik3mY8dgokEx4H3KRFLzT52tU=", "properties": {"ref": "373", "@spider": "beef_o_bradys", "addr:full": "14136 7th St", "addr:city": "Dade City", "addr:state": "FL", "addr:postcode": "33525-3829", "name": "Dade City", "phone": "(352) 567-4136", "website": "https://www.beefobradys.com/DadeCity"}, "geometry": {"type": "Point", "coordinates": [-82.18899, 28.36389]}},
{"type": "Feature", "id": "A9oAlPBAL5rJGCp7fO8qMPguxCA=", "properties": {"ref": "350", "@spider": "beef_o_bradys", "addr:full": "353 Colony Blvd Ste 100", "addr:city": "The Villages", "addr:state": "FL", "addr:postcode": "32162-6083", "name": "Colony Plaza", "phone": "(352) 750-5975", "website": "https://www.beefobradys.com/ColonyPlaza"}, "geometry": {"type": "Point", "coordinates": [-81.96319, 28.89584]}},
{"type": "Feature", "id": "WMw1mvQ28mOb8AZE2H-edslP1sM=", "properties": {"ref": "560", "@spider": "beef_o_bradys", "addr:full": "4925 Cortez Rd W", "addr:city": "Bradenton", "addr:state": "FL", "addr:postcode": "34210-2806", "name": "Bradenton", "phone": "(941) 798-6939\r\n", "website": "https://www.beefobradys.com/Bradenton"}, "geometry": {"type": "Point", "coordinates": [-82.61072, 27.46233]}},
{"type": "Feature", "id": "-ffwAukbYXfqbHIQyEsvLHWPNHo=", "properties": {"ref": "247", "@spider": "beef_o_bradys", "addr:full": "6340 Scioto Darby Rd", "addr:city": "Hilliard", "addr:state": "OH", "addr:postcode": "43026-9726", "name": "Hilliard", "phone": "(614) 529-9464", "website": "https://www.beefobradys.com/Hilliard"}, "geometry": {"type": "Point", "coordinates": [-83.17921, 40.03299]}},
{"type": "Feature", "id": "I9JpTG7sfQGfPfcK5Leu-D9mdKg=", "properties": {"ref": "11", "@spider": "beef_o_bradys", "addr:full": "7833 Gall Blvd", "addr:city": "Zephyrhills", "addr:state": "FL", "addr:postcode": "33541-4317", "name": "Zephyrhills", "phone": "(813) 780-7717", "website": "https://www.beefobradys.com/Zephyrhills"}, "geometry": {"type": "Point", "coordinates": [-82.18838, 28.27121]}},
{"type": "Feature", "id": "qeVQ9MDfQ0_1rfUxktsPJHOKXdk=", "properties": {"ref": "169", "@spider": "beef_o_bradys", "addr:full": "201 N 1st St", "addr:city": "Palatka", "addr:state": "FL", "addr:postcode": "32177-3739", "name": "Palatka", "phone": "(386) 325-2525", "website": "https://www.beefobradys.com/Palatka"}, "geometry": {"type": "Point", "coordinates": [-81.6276, 29.64829]}},
{"type": "Feature", "id": "xV6xW-AW7TZp15KRqZKgALqf2cU=", "properties": {"ref": "2", "@spider": "beef_o_bradys", "addr:full": "205 Apollo Beach Blvd", "addr:city": "Apollo Beach", "addr:state": "FL", "addr:postcode": "33572-2299", "name": "Apollo Beach", "phone": "(813) 641-1989", "website": "https://www.beefobradys.com/apollobeach"}, "geometry": {"type": "Point", "coordinates": [-82.39414, 27.77098]}},
{"type": "Feature", "id": "C-mk4cjuYt3UuitbeJi9OTpXdHM=", "properties": {"ref": "21", "@spider": "beef_o_bradys", "addr:full": "812 W Dr Martin Luther King Jr Blvd", "addr:city": "Seffner", "addr:state": "FL", "addr:postcode": "33584-4583", "name": "Seffner", "phone": "(813) 661-7343", "website": "https://www.beefobradys.com/Seffner"}, "geometry": {"type": "Point", "coordinates": [-82.2886276, 27.9810619]}},
{"type": "Feature", "id": "QQ6TSQSNfA4IYqwTrobwXyg6Pjw=", "properties": {"ref": "1", "@spider": "beef_o_bradys", "addr:full": "210 S Kings Ave", "addr:city": "Brandon", "addr:state": "FL", "addr:postcode": "33511-5705", "name": "Brandon", "phone": "(813) 681-3428", "website": "https://www.beefobradys.com/brandon"}, "geometry": {"type": "Point", "coordinates": [-82.29402, 27.93575]}},
{"type": "Feature", "id": "CwcDq0SVoVlvRiYghonQIjmw6hs=", "properties": {"ref": "27", "@spider": "beef_o_bradys", "addr:full": "9622 US Highway 301 S", "addr:city": "Riverview", "addr:state": "FL", "addr:postcode": "33569     ", "name": "Riverview", "phone": "(813) 672-9464", "website": "https://www.beefobradys.com/Riverview"}, "geometry": {"type": "Point", "coordinates": [-82.3251, 27.859063]}},
{"type": "Feature", "id": "OEpPCu-N9VXNtsRtR6HW3rXDsBg=", "properties": {"ref": "91", "@spider": "beef_o_bradys", "addr:full": "723 Cypress Village Blvd", "addr:city": "Ruskin", "addr:state": "FL", "addr:postcode": "33573-6801", "name": "Sun City Center", "phone": "(813) 633-2333", "website": "https://www.beefobradys.com/SunCityCenter"}, "geometry": {"type": "Point", "coordinates": [-82.38038, 27.71984]}},
{"type": "Feature", "id": "DA_tEEtYlMG77r47QqkMOEdvRF0=", "properties": {"ref": "264", "@spider": "beef_o_bradys", "addr:full": "13326 Lincoln Rd", "addr:city": "Riverview", "addr:state": "FL", "addr:postcode": "33578-7506", "name": "Summerfield", "phone": "(813) 672-4411", "website": "https://www.beefobradys.com/Summerfield"}, "geometry": {"type": "Point", "coordinates": [-82.34164, 27.79048]}},
{"type": "Feature", "id": "4LBoaGollKr0EDfzZ7LsKamB4vo=", "properties": {"ref": "413", "@spider": "beef_o_bradys", "addr:full": "4286 53rd Ave E", "addr:city": "Bradenton", "addr:state": "FL", "addr:postcode": "34203-8097", "name": "Bradenton (Lockwood Ridge)", "phone": "(941) 896-3992", "website": "https://www.beefobradys.com/Bradenton-Lockwoodridge"}, "geometry": {"type": "Point", "coordinates": [-82.5073886, 27.4449155]}},
{"type": "Feature", "id": "fLf8E9iAEaF74Ett7MaSVQ2-3x0=", "properties": {"ref": "611", "@spider": "beef_o_bradys", "addr:full": "889 E Bloomingdale Ave", "addr:city": "Brandon", "addr:state": "FL", "addr:postcode": "33511-8113", "name": "Bloomingdale", "phone": "(813) 564-8894", "website": "https://www.beefobradys.com/Bloomingdale"}, "geometry": {"type": "Point", "coordinates": [-82.27, 27.891]}},
{"type": "Feature", "id": "4fB9w40huvp1lXvCCfB4VSY1sRk=", "properties": {"ref": "73", "@spider": "beef_o_bradys", "addr:full": "2561 E State Road 60", "addr:city": "Valrico", "addr:state": "FL", "addr:postcode": "33594-3830", "name": "Valrico", "phone": "(813) 655-1055", "website": "https://www.beefobradys.com/valrico"}, "geometry": {"type": "Point", "coordinates": [-82.24364, 27.9378]}},
{"type": "Feature", "id": "H23WoiakuNRrieB-ku9lBkrscis=", "properties": {"ref": "415", "@spider": "beef_o_bradys", "addr:full": "8913 US 301 North", "addr:city": "Parrish", "addr:state": "FL", "addr:postcode": "34219     ", "name": "Parrish", "phone": "(941) 776-0053", "website": "https://www.beefobradys.com/Parrish"}, "geometry": {"type": "Point", "coordinates": [-82.41644, 27.55909]}},
{"type": "Feature", "id": "WCOJk0GWQUO3WqLKP7YPZrgTi4U=", "properties": {"ref": "590", "@spider": "beef_o_bradys", "addr:full": "4561 Hard Scrabble Rd", "addr:city": "Columbia", "addr:state": "SC", "addr:postcode": "29229-9464", "name": "Columbia", "phone": "(803) 708-0260", "website": "https://www.beefobradys.com/Columbia"}, "geometry": {"type": "Point", "coordinates": [-80.912346, 34.150443]}},
{"type": "Feature", "id": "BRPav88jpbL0iA8fw2_BsBLLuJw=", "properties": {"ref": "67", "@spider": "beef_o_bradys", "addr:full": "1795 Lakewood Ranch Blvd", "addr:city": "Bradenton", "addr:state": "FL", "addr:postcode": "34211-4906", "name": "Lakewood Ranch", "phone": "(941) 744-1155", "website": "https://www.beefobradys.com/LakewoodRanch"}, "geometry": {"type": "Point", "coordinates": [-82.43709, 27.48193]}},
{"type": "Feature", "id": "E-rfDN2BbsrXduEK539lh0BtiFk=", "properties": {"ref": "25", "@spider": "beef_o_bradys", "addr:full": "27405 US Highway 27 Ste 109", "addr:city": "Leesburg", "addr:state": "FL", "addr:postcode": "34748-7914", "name": "Leesburg", "phone": "(352) 728-3233", "website": "https://www.beefobradys.com/Leesburg"}, "geometry": {"type": "Point", "coordinates": [-81.8548, 28.66305]}},
{"type": "Feature", "id": "VLTYvT_Y32R4c5NX8qNS_JvVkHA=", "properties": {"ref": "50", "@spider": "beef_o_bradys", "addr:full": "16773 Fishhawk Blvd # 1677", "addr:city": "Lithia", "addr:state": "FL", "addr:postcode": "33547-3860", "name": "Fishhawk", "phone": "(813) 651-0388", "website": "https://www.beefobradys.com/Fishhawk"}, "geometry": {"type": "Point", "coordinates": [-82.2043418, 27.8565186]}},
{"type": "Feature", "id": "NKIXZgymFOav68rhCdsl6vQXnp4=", "properties": {"ref": "4", "@spider": "beef_o_bradys", "addr:full": "2418 James L Redman Pkwy", "addr:city": "Plant City", "addr:state": "FL", "addr:postcode": "33566-7111", "name": "Plant City", "phone": "(813) 757-0300", "website": "https://www.beefobradys.com/PlantCity"}, "geometry": {"type": "Point", "coordinates": [-82.12152, 27.98728]}},
{"type": "Feature", "id": "zJmnTvnBPGZKnm6gVfeSWHFINXo=", "properties": {"ref": "22", "@spider": "beef_o_bradys", "addr:full": "1070 Wedgewood Estates Blvd", "addr:city": "Lakeland", "addr:state": "FL", "addr:postcode": "33809-4038", "name": "North Lakeland", "phone": "(863) 853-9464", "website": "https://www.beefobradys.com/NorthLakeland"}, "geometry": {"type": "Point", "coordinates": [-81.97048, 28.09666]}},
{"type": "Feature", "id": "Brqfk2ewS1sYqu1OIDEPie5Z_sE=", "properties": {"ref": "524", "@spider": "beef_o_bradys", "addr:full": "1642 E Highway 50", "addr:city": "Clermont", "addr:state": "FL", "addr:postcode": "34711-5156", "name": "Clermont", "phone": "(352) 242-9700", "website": "https://www.beefobradys.com/Clermont"}, "geometry": {"type": "Point", "coordinates": [-81.72732, 28.55434]}},
{"type": "Feature", "id": "I7qJP1y3BF0lYoGDbYMI1zOR40o=", "properties": {"ref": "581", "@spider": "beef_o_bradys", "addr:full": "6551 N Orange Blossom Trl", "addr:city": "Mount Dora", "addr:state": "FL", "addr:postcode": "32757-7013", "name": "Mount Dora", "phone": "(352) 735-3810", "website": "https://www.beefobradys.com/mountdora"}, "geometry": {"type": "Point", "coordinates": [-81.6233325, 28.7807684]}},
{"type": "Feature", "id": "YS5Ge18gzp7lRqwQnYuISv-lvTQ=", "properties": {"ref": "5", "@spider": "beef_o_bradys", "addr:full": "4810 S Florida Ave", "addr:city": "Lakeland", "addr:state": "FL", "addr:postcode": "33813-2167", "name": "South Lakeland", "phone": "(863) 646-7757", "website": "https://www.beefobradys.com/SouthLakeland"}, "geometry": {"type": "Point", "coordinates": [-81.95832, 27.97793]}},
{"type": "Feature", "id": "iFwgkrqAUeB1hv9mbxOdUoyMq-8=", "properties": {"ref": "61", "@spider": "beef_o_bradys", "addr:full": "102 W Polk St", "addr:city": "Auburndale", "addr:state": "FL", "addr:postcode": "33823-3428", "name": "Auburndale", "phone": "(863) 968-0010", "website": "https://www.beefobradys.com/Auburndale"}, "geometry": {"type": "Point", "coordinates": [-81.7875224, 28.066064]}},
{"type": "Feature", "id": "K47h8uGOKSKPboIjSapHZ6QrK_w=", "properties": {"ref": "119", "@spider": "beef_o_bradys", "addr:full": "1410 Rock Springs Rd", "addr:city": "Apopka", "addr:state": "FL", "addr:postcode": "32712-2306", "name": "Apopka", "phone": "(407) 880-6777", "website": "https://www.beefobradys.com/Apopka"}, "geometry": {"type": "Point", "coordinates": [-81.50933, 28.70692]}},
{"type": "Feature", "id": "e_Er63FqKXCcCiK18m3FI34M-Uc=", "properties": {"ref": "144", "@spider": "beef_o_bradys", "addr:full": "120 E Van Fleet Dr", "addr:city": "Bartow", "addr:state": "FL", "addr:postcode": "33830-3828", "name": "Bartow", "phone": "(863) 534-3111", "website": "https://www.beefobradys.com/Bartow"}, "geometry": {"type": "Point", "coordinates": [-81.8431, 27.90419]}},
{"type": "Feature", "id": "zEk6NTRhS53Ig_0KjmLDlAwv7NU=", "properties": {"ref": "126", "@spider": "beef_o_bradys", "addr:full": "45653 Highway 27", "addr:city": "Davenport", "addr:state": "FL", "addr:postcode": "33897-4546", "name": "Davenport", "phone": "(863) 420-3350", "website": "https://www.beefobradys.com/Davenport"}, "geometry": {"type": "Point", "coordinates": [-81.6581, 28.25632]}},
{"type": "Feature", "id": "K2dyKzVOq5g5oLA9VDTH18nzRDU=", "properties": {"ref": "230", "@spider": "beef_o_bradys", "addr:full": "1037 N Sumter Blvd", "addr:city": "North Port", "addr:state": "FL", "addr:postcode": "34286-8073", "name": "North Port", "phone": "(941) 426-3570", "website": "https://www.beefobradys.com/NorthPort"}, "geometry": {"type": "Point", "coordinates": [-82.20883, 27.06855]}},
{"type": "Feature", "id": "v8dwpK4lRQMSRXliHUlOm95ep_o=", "properties": {"ref": "8", "@spider": "beef_o_bradys", "addr:full": "300 Cypress Gardens Blvd", "addr:city": "Winter Haven", "addr:state": "FL", "addr:postcode": "33880-4451", "name": "Winter Haven", "phone": "(863) 293-9464", "website": "https://www.beefobradys.com/WinterHaven"}, "geometry": {"type": "Point", "coordinates": [-81.72429, 28.00409]}},
{"type": "Feature", "id": "aHr4iz1D9FZpu3mTd2NaCezXppo=", "properties": {"ref": "178", "@spider": "beef_o_bradys", "addr:full": "902 Old Polk City Road", "addr:city": "Haines City", "addr:state": "FL", "addr:postcode": "33844     ", "name": "Haines City", "phone": "(863) 419-4848", "website": "https://www.beefobradys.com/HainesCity"}, "geometry": {"type": "Point", "coordinates": [-81.58258, 28.10167]}},
{"type": "Feature", "id": "lVzMbkxPv27eWkjKva9aMRb3GMI=", "properties": {"ref": "616", "@spider": "beef_o_bradys", "addr:full": "530 S 6th Avenue", "addr:city": "Wauchula", "addr:state": "FL", "addr:postcode": "33873     ", "name": "Wauchula", "phone": "(863) 448-4233", "website": "https://www.beefobradys.com/Wauchula"}, "geometry": {"type": "Point", "coordinates": [-81.81, 27.542]}},
{"type": "Feature", "id": "WkpVvDMJ7HggDK5NqFULZxPmJCo=", "properties": {"ref": "511", "@spider": "beef_o_bradys", "addr:full": "2160 Howland Blvd", "addr:city": "Deltona", "addr:state": "FL", "addr:postcode": "32738-3467", "name": "Deltona", "phone": "(386) 789-9464", "website": "https://www.beefobradys.com/Deltona"}, "geometry": {"type": "Point", "coordinates": [-81.18788, 28.9241]}},
{"type": "Feature", "id": "esRU9OrKjBCLTQl-H9BeAZR_PoU=", "properties": {"ref": "612", "@spider": "beef_o_bradys", "addr:full": "24901 Sandhill Blvd", "addr:city": "Punta Gorda", "addr:state": "FL", "addr:postcode": "33983-5213", "name": "Deep Creek", "phone": "(941) 732-9464", "website": "https://www.beefobradys.com/DeepCreek"}, "geometry": {"type": "Point", "coordinates": [-82.04, 27.016]}},
{"type": "Feature", "id": "8qQL_FlYp7kYnGnAUNZ4gkaS4-0=", "properties": {"ref": "75", "@spider": "beef_o_bradys", "addr:full": "19598 Hwy 27", "addr:city": "Lake Wales", "addr:state": "FL", "addr:postcode": "33853-2431", "name": "Lake Wales", "phone": "(863) 679-1975", "website": "https://www.beefobradys.com/LakeWales"}, "geometry": {"type": "Point", "coordinates": [-81.5941, 27.87545]}},
{"type": "Feature", "id": "gOnZJ0yE61dB_JRQK-BOjuvO41E=", "properties": {"ref": "377", "@spider": "beef_o_bradys", "addr:full": "1105 Taylor St", "addr:city": "Punta Gorda", "addr:state": "FL", "addr:postcode": "33950-6075", "name": "Punta Gorda", "phone": "(941) 505-2333", "website": "https://www.beefobradys.com/PuntaGorda"}, "geometry": {"type": "Point", "coordinates": [-82.04533, 26.92664]}},
{"type": "Feature", "id": "YsGaPVB7KsQ-wP-GD_jjZRuFkcA=", "properties": {"ref": "44", "@spider": "beef_o_bradys", "addr:full": "1817 E Broadway St Bldg 6", "addr:city": "Oviedo", "addr:state": "FL", "addr:postcode": "32765-8597", "name": "Oviedo", "phone": "(407) 366-2333", "website": "https://www.beefobradys.com/Oviedo"}, "geometry": {"type": "Point", "coordinates": [-81.17939, 28.66021]}},
{"type": "Feature", "id": "33Q0m1kcFzJweyhgrfVN6j0pN_Y=", "properties": {"ref": "356", "@spider": "beef_o_bradys", "addr:full": "1703 E Oak St", "addr:city": "Arcadia", "addr:state": "FL", "addr:postcode": "34266-8925", "name": "Arcadia", "phone": "(863) 494-9333", "website": "https://www.beefobradys.com/Arcadia"}, "geometry": {"type": "Point", "coordinates": [-81.84312, 27.21288]}},
{"type": "Feature", "id": "7gRk7UyRK1LxG-rywPkWZpA7qFM=", "properties": {"ref": "71", "@spider": "beef_o_bradys", "addr:full": "2926 13th St", "addr:city": "St. Cloud", "addr:state": "FL", "addr:postcode": "34769-5902", "name": "St. Cloud", "phone": "(407) 891-1900", "website": "https://www.beefobradys.com/St-Cloud"}, "geometry": {"type": "Point", "coordinates": [-81.30195, 28.24628]}},
{"type": "Feature", "id": "LPu5EabHaJgg--VTNCDWtIsrLeI=", "properties": {"ref": "575", "@spider": "beef_o_bradys", "addr:full": "1610 S Dixie Fwy", "addr:city": "New Smyrna Beach", "addr:state": "FL", "addr:postcode": "32168-7732", "name": "New Smyrna Beach", "phone": "(386) 424-9292", "website": "https://www.beefobradys.com/NewSmyrnaBeach"}, "geometry": {"type": "Point", "coordinates": [-80.91701, 29.00613]}},
{"type": "Feature", "id": "fhAFW6yWxEO8vblqanC5oK4kdnA=", "properties": {"ref": "283", "@spider": "beef_o_bradys", "addr:full": "2481 Del Prado Blvd N", "addr:city": "Cape Coral", "addr:state": "FL", "addr:postcode": "33909-4002", "name": "N. Cape Coral", "phone": "(239) 573-6172", "website": "https://www.beefobradys.com/N-CapeCoral"}, "geometry": {"type": "Point", "coordinates": [-81.940065, 26.697484]}},
{"type": "Feature", "id": "-AQNa3ZCuG0l8kEE74C0-ygenrM=", "properties": {"ref": "284", "@spider": "beef_o_bradys", "addr:full": "2514 Santa Barbara Blvd.", "addr:city": "Cape Coral", "addr:state": "FL", "addr:postcode": "33914     ", "name": "Midpoint", "phone": "(239) 574-2060", "website": "https://www.beefobradys.com/midpoint"}, "geometry": {"type": "Point", "coordinates": [-81.97641, 26.60507]}},
{"type": "Feature", "id": "YhL0CbSz2AujmfHV6Y1aD7-sbnU=", "properties": {"ref": "17", "@spider": "beef_o_bradys", "addr:full": "2940 US Highway 27 N", "addr:city": "Sebring", "addr:state": "FL", "addr:postcode": "33870-1627", "name": "Sebring", "phone": "(863) 471-2214", "website": "https://www.beefobradys.com/Sebring"}, "geometry": {"type": "Point", "coordinates": [-81.44245, 27.47118]}},
{"type": "Feature", "id": "oSVkyYHE3kHYDGCPDBIZFBMtozA=", "properties": {"ref": "444", "@spider": "beef_o_bradys", "addr:full": "11841 Palm Beach Blvd", "addr:city": "Ft. Myers", "addr:state": "FL", "addr:postcode": "33905-5913", "name": "Verandah", "phone": "(239) 267-9236", "website": "https://www.beefobradys.com/Verandah"}, "geometry": {"type": "Point", "coordinates": [-81.77739, 26.69582]}},
{"type": "Feature", "id": "E_Bn4srsz01CY-8mejLFaAozZvQ=", "properties": {"ref": "258", "@spider": "beef_o_bradys", "addr:full": "2825 Garden St Ste 9", "addr:city": "Titusville", "addr:state": "FL", "addr:postcode": "32796-3186", "name": "Titusville", "phone": "(321) 268-2929", "website": "https://www.beefobradys.com/Titusville"}, "geometry": {"type": "Point", "coordinates": [-80.8378, 28.61476]}},
{"type": "Feature", "id": "JNLjCyCjeIIH8LUNQwLn2kXEwG0=", "properties": {"ref": "128", "@spider": "beef_o_bradys", "addr:full": "110 Plaza Ave", "addr:city": "Lake Placid", "addr:state": "FL", "addr:postcode": "33852-5253", "name": "Lake Placid", "phone": "(863) 465-3519", "website": "https://www.beefobradys.com/LakePlacid"}, "geometry": {"type": "Point", "coordinates": [-81.35703, 27.29849]}},
{"type": "Feature", "id": "_dUZuqoLeBBbPyHKvYSMs0a-CHQ=", "properties": {"ref": "593", "@spider": "beef_o_bradys", "addr:full": "3745 Curtis Blvd", "addr:city": "Port St John", "addr:state": "FL", "addr:postcode": "32927     ", "name": "Port St John", "phone": "(321) 305-4940", "website": "https://www.beefobradys.com/PortStJohn"}, "geometry": {"type": "Point", "coordinates": [-80.780318, 28.477651]}},
{"type": "Feature", "id": "WimDmf8IaadqWqkBIMf-EBxslrE=", "properties": {"ref": "177", "@spider": "beef_o_bradys", "addr:full": "3114 Lee Blvd", "addr:city": "Lehigh Acres", "addr:state": "FL", "addr:postcode": "33971-2421", "name": "Lehigh Acres", "phone": "(239) 369-0390", "website": "https://www.beefobradys.com/LehighAcres"}, "geometry": {"type": "Point", "coordinates": [-81.68036, 26.61721]}},
{"type": "Feature", "id": "FG-uH4cSYwUufLKMqyG47ThPd_8=", "properties": {"ref": "84", "@spider": "beef_o_bradys", "addr:full": "20301 Grande Oak Shoppes Blvd Ste 108", "addr:city": "Estero", "addr:state": "FL", "addr:postcode": "33928-7698", "name": "Estero", "phone": "(239) 949-4423", "website": "https://www.beefobradys.com/Estero"}, "geometry": {"type": "Point", "coordinates": [-81.7641, 26.44301]}},
{"type": "Feature", "id": "Yn_YyFPQd1-zoB79v50E_optJCw=", "properties": {"ref": "72", "@spider": "beef_o_bradys", "addr:full": "2301 State Road 524 # 170-175", "addr:city": "Cocoa  ", "addr:state": "FL", "addr:postcode": "32926-5819", "name": "Cocoa Commons", "phone": "(321) 637-1133", "website": "https://www.beefobradys.com/CocoaCommons"}, "geometry": {"type": "Point", "coordinates": [-80.76364, 28.39678]}},
{"type": "Feature", "id": "jEGtivIpPoQ5N2nT5RUYZ4JFUCE=", "properties": {"ref": "101", "@spider": "beef_o_bradys", "addr:full": "1450 N Courtenay Pkwy Ste 36", "addr:city": "Merritt Island", "addr:state": "FL", "addr:postcode": "32953-4473", "name": "Merritt Island", "phone": "(321) 455-6665", "website": "https://www.beefobradys.com/MerrittIsland"}, "geometry": {"type": "Point", "coordinates": [-80.70128, 28.38327]}},
{"type": "Feature", "id": "IpxDm-47GGTsdOrI60s_jNVEawk=", "properties": {"ref": "609", "@spider": "beef_o_bradys", "addr:full": "5410 Murrell Rd Ste 101", "addr:city": "Viera", "addr:state": "FL", "addr:postcode": "32955-6649", "name": "Viera", "phone": "(321) 305-6600", "website": "https://www.beefobradys.com/Viera"}, "geometry": {"type": "Point", "coordinates": [-80.71984, 28.267592]}},
{"type": "Feature", "id": "GMhNw2AsmuT8BF3395df-chtEzg=", "properties": {"ref": "477", "@spider": "beef_o_bradys", "addr:full": "21 S. Lee St.", "addr:city": "LaBelle", "addr:state": "FL", "addr:postcode": "33935     ", "name": "LaBelle", "phone": "(863) 612-9818", "website": "https://www.beefobradys.com/LaBelle"}, "geometry": {"type": "Point", "coordinates": [-81.43597, 26.76228]}},
{"type": "Feature", "id": "UPSeHrvSe3S-y-TEgEM8aArHxVo=", "properties": {"ref": "46", "@spider": "beef_o_bradys", "addr:full": "7385 Radio Rd Ste 101", "addr:city": "Naples", "addr:state": "FL", "addr:postcode": "34104-6703", "name": "Naples", "phone": "(239) 348-2100", "website": "https://www.beefobradys.com/Naples"}, "geometry": {"type": "Point", "coordinates": [-81.71961, 26.15433]}},
{"type": "Feature", "id": "kh1kW5AXTpOVHfsPHMBpJMq0Ags=", "properties": {"ref": "116", "@spider": "beef_o_bradys", "addr:full": "3030 Lake Washington Rd", "addr:city": "Melbourne", "addr:state": "FL", "addr:postcode": "32934-7613", "name": "Melbourne", "phone": "(321) 751-3860", "website": "https://www.beefobradys.com/Melbourne"}, "geometry": {"type": "Point", "coordinates": [-80.6732, 28.14679]}},
{"type": "Feature", "id": "rQ7dnUYVQvhgdcaoOTAyNSMSV0k=", "properties": {"ref": "341", "@spider": "beef_o_bradys", "addr:full": "724 South Patrick Dr", "addr:city": "Satellite Beach", "addr:state": "FL", "addr:postcode": "32937-3875", "name": "Satellite Beach", "phone": "(321) 777-7107", "website": "https://www.beefobradys.com/SatelliteBeach"}, "geometry": {"type": "Point", "coordinates": [-80.60629, 28.19322]}},
{"type": "Feature", "id": "-1TGPcfueGcan6o3yDNhevK3E3Q=", "properties": {"ref": "610", "@spider": "beef_o_bradys", "addr:full": "2400 Dairy Rd", "addr:city": "West Melbourne", "addr:state": "FL", "addr:postcode": "32904-5248", "name": "West Melbourne", "phone": "(321) 372-5155", "website": "https://www.beefobradys.com/west-melbourne"}, "geometry": {"type": "Point", "coordinates": [-80.638268, 28.073034]}},
{"type": "Feature", "id": "_cord-_PU9doxVSx95CFHWLiJys=", "properties": {"ref": "100", "@spider": "beef_o_bradys", "addr:full": "3450 Bayside Lakes Blvd SE # 101-102", "addr:city": "Palm Bay", "addr:state": "FL", "addr:postcode": "32909-6815", "name": "West Palm Bay", "phone": "(321) 953-4600", "website": "https://www.beefobradys.com/WestPalmBay"}, "geometry": {"type": "Point", "coordinates": [-80.65775, 27.95128]}},
{"type": "Feature", "id": "K23COpDCKuUKwGO5evBgdTlFwrU=", "properties": {"ref": "451", "@spider": "beef_o_bradys", "addr:full": "1090 Williams Reserve Blvd", "addr:city": "Wadsworth", "addr:state": "OH", "addr:postcode": "44281-9345", "name": "Wadsworth", "phone": "(330) 336-3600", "website": "https://www.beefobradys.com/Wadsworth"}, "geometry": {"type": "Point", "coordinates": [-81.69493, 41.03813]}},
{"type": "Feature", "id": "96zD2sZ3-fLOdY-lgq77K5m5n2U=", "properties": {"ref": "115", "@spider": "beef_o_bradys", "addr:full": "4880 Gratiot Rd Bldg A Ste 5-7", "addr:city": "Saginaw", "addr:state": "MI", "addr:postcode": "48638-6267", "name": "Saginaw", "phone": "(989) 249-0800", "website": "https://www.beefobradys.com/Saginaw"}, "geometry": {"type": "Point", "coordinates": [-84.01217, 43.41535]}},
{"type": "Feature", "id": "v3RJa54ODi7qKdaMXvRvo_cynXk=", "properties": {"ref": "184", "@spider": "beef_o_bradys", "addr:full": "608 S Parrott Ave", "addr:city": "Okeechobee", "addr:state": "FL", "addr:postcode": "34974-5136", "name": "Okeechobee", "phone": "(863) 763-7300", "website": "https://www.beefobradys.com/Okeechobee"}, "geometry": {"type": "Point", "coordinates": [-80.82998, 27.23701]}},
{"type": "Feature", "id": "0vSyN8R-ow-O7pbboH-bUqH5Sa8=", "properties": {"ref": "400", "@spider": "beef_o_bradys", "addr:full": "892 W Sugarland Hwy", "addr:city": "Clewiston", "addr:state": "FL", "addr:postcode": "33440-2704", "name": "Clewiston", "phone": "(863) 983-5002", "website": "https://www.beefobradys.com/Clewiston"}, "geometry": {"type": "Point", "coordinates": [-80.93021, 26.75421]}},
{"type": "Feature", "id": "QxIGbkTEVHyaZOPK7nb7bv8I8jk=", "properties": {"ref": "408", "@spider": "beef_o_bradys", "addr:full": "3975 Cascades Blvd", "addr:city": "Brimfield", "addr:state": "OH", "addr:postcode": "44240-8053", "name": "Brimfield", "phone": "(330) 678-4800", "website": "https://www.beefobradys.com/Brimfield"}, "geometry": {"type": "Point", "coordinates": [-81.39248, 41.09538]}},
{"type": "Feature", "id": "q7orBrPkxybAHHZpTB8Z6cgb56E=", "properties": {"ref": "533", "@spider": "beef_o_bradys", "addr:full": "3732 Darrow Rd", "addr:city": "Stow", "addr:state": "OH", "addr:postcode": "44224-4050", "name": "Stow", "phone": "(330) 688-8200", "website": "https://www.beefobradys.com/Stow"}, "geometry": {"type": "Point", "coordinates": [-81.44047, 41.16638]}},
{"type": "Feature", "id": "WWIJULbMarhzslGwlrL18GIrnik=", "properties": {"ref": "536", "@spider": "beef_o_bradys", "addr:full": "1505 S Eagle Rd Ste 190", "addr:city": "Meridian", "addr:state": "ID", "addr:postcode": "83642-9318", "name": "Eagle Road", "phone": "(208) 888-6228", "website": "https://www.beefobradys.com/EagleRoad"}, "geometry": {"type": "Point", "coordinates": [-116.35466, 43.59147]}}]}