{"type":"FeatureCollection","features":[{"type": "Feature", "id": "q9H_SPqkLbK0BO7_zEiJC8HxO60=", "properties": {"ref": "553", "@spider": "bj-restaurant", "addr:full": "101 East Joppa RD", "addr:city": "Baltimore", "addr:state": "MD", "addr:postcode": "21286", "name": "BJ's Restaurants and Brewhouse Towson", "phone": "443-470-6200", "website": "https://www.bjsrestaurants.com/locations/md/towson", "opening_hours": "Su 11:00 - 23:00;Mo 11:00 - 23:00;Tu 11:00 - 23:00;We 11:00 - 23:00;Th 11:00 - 23:00;Fr 11:00 - 00:00;Sa 11:00 - 00:00", "brand": "BJ's Restaurant & Brewery", "brand:wikidata": "Q4835755"}, "geometry": {"type": "Point", "coordinates": [-76.6001, 39.4016]}},
{"type": "Feature", "id": "BbLv11abAO9L2vCC83h7aSv916U=", "properties": {"ref": "608", "@spider": "bj-restaurant", "addr:full": "17318 Valley Mall Rd, Suite C", "addr:city": "Hagerstown", "addr:state": "MD", "addr:postcode": "21740", "name": "BJ's Restaurants and Brewhouse Hagerstown", "phone": "240-513-4040", "website": "https://www.bjsrestaurants.com/locations/md/hagerstown", "opening_hours": "Su 11:00 - 23:00;Mo 11:00 - 23:00;Tu 11:00 - 23:00;We 11:00 - 23:00;Th 11:00 - 23:00;Fr 11:00 - 00:00;Sa 11:00 - 00:00", "brand": "BJ's Restaurant & Brewery", "brand:wikidata": "Q4835755"}, "geometry": {"type": "Point", "coordinates": [-77.770562, 39.626773]}},
{"type": "Feature", "id": "YE9gt6rhJwmQRM_L_VF2vnAC_Xc=", "properties": {"ref": "477", "@spider": "bj-restaurant", "addr:full": "6401 BlueBonnet Blvd. #740", "addr:city": "Baton Rouge", "addr:state": "LA", "addr:postcode": "70836", "name": "BJ's Restaurants and Brewhouse Baton Rouge", "phone": "225-766-4300", "website": "https://www.bjsrestaurants.com/locations/la/baton-rouge", "opening_hours": "Su 11:00 - 23:00;Mo 11:00 - 23:00;Tu 11:00 - 23:00;We 11:00 - 23:00;Th 11:00 - 23:00;Fr 11:00 - 23:00;Sa 11:00 - 23:00", "brand": "BJ's Restaurant & Brewery", "brand:wikidata": "Q4835755"}, "geometry": {"type": "Point", "coordinates": [-91.085883, 30.38692]}},
{"type": "Feature", "id": "0yrr9Z2Stcye_RpfGjZ4bB_Tbqc=", "properties": {"ref": "577", "@spider": "bj-restaurant", "addr:full": "4511 Ambassador Caffery Pkwy", "addr:city": "Lafayette", "addr:state": "LA", "addr:postcode": "70508", "name": "BJ's Restaurants and Brewhouse Lafayette", "phone": "337-761-6300", "website": "https://www.bjsrestaurants.com/locations/la/lafayette", "opening_hours": "Su 11:00 - 22:00;Mo 11:00 - 22:00;Tu 11:00 - 22:00;We 11:00 - 22:00;Th 11:00 - 22:00;Fr 11:00 - 23:00;Sa 11:00 - 23:00", "brand": "BJ's Restaurant & Brewery", "brand:wikidata": "Q4835755"}, "geometry": {"type": "Point", "coordinates": [-92.045545, 30.154192]}},
{"type": "Feature", "id": "bHV0phmKtK2q-ih4DqBQHQj_iE4=", "properties": {"ref": "566", "@spider": "bj-restaurant", "addr:full": "140 Town Center Parkway", "addr:city": "Slidell", "addr:state": "LA", "addr:postcode": "70458", "name": "BJ's Restaurants and Brewhouse Slidell", "phone": "985-605-0120", "website": "https://www.bjsrestaurants.com/locations/la/slidell", "opening_hours": "Su 11:00 - 23:00;Mo 11:00 - 23:00;Tu 11:00 - 23:00;We 11:00 - 23:00;Th 11:00 - 23:00;Fr 11:00 - 23:00;Sa 11:00 - 23:00", "brand": "BJ's Restaurant & Brewery", "brand:wikidata": "Q4835755"}, "geometry": {"type": "Point", "coordinates": [-89.759972, 30.27021]}},
{"type": "Feature", "id": "zlJQvy5OVtOC4hLcVg7W3BqMTCI=", "properties": {"ref": "605", "@spider": "bj-restaurant", "addr:full": "15701 Emerald Way", "addr:city": "Bowie", "addr:state": "MD", "addr:postcode": "20716", "name": "BJ's Restaurants and Brewhouse Bowie", "phone": "301-850-2300", "website": "https://www.bjsrestaurants.com/locations/md/bowie", "opening_hours": "Su 11:00 - 23:00;Mo 11:00 - 23:00;Tu 11:00 - 23:00;We 11:00 - 23:00;Th 11:00 - 23:00;Fr 11:00 - 00:00;Sa 11:00 - 00:00", "brand": "BJ's Restaurant & Brewery", "brand:wikidata": "Q4835755"}, "geometry": {"type": "Point", "coordinates": [-76.731683, 38.945165]}},
{"type": "Feature", "id": "pIPJJasv4fccZttKo8YlJXao5oI=", "properties": {"ref": "472", "@spider": "bj-restaurant", "addr:full": "7900 Shelbyville Rd.", "addr:city": "Louisville", "addr:state": "KY", "addr:postcode": "40222", "name": "BJ's Restaurants and Brewhouse Oxmoor Center Mall", "phone": "502-326-3850", "website": "https://www.bjsrestaurants.com/locations/ky/oxmoor-center-mall", "opening_hours": "Su 11:00 - 22:00;Mo 11:00 - 23:00;Tu 11:00 - 23:00;We 11:00 - 23:00;Th 11:00 - 23:00;Fr 11:00 - 00:00;Sa 11:00 - 00:00", "brand": "BJ's Restaurant & Brewery", "brand:wikidata": "Q4835755"}, "geometry": {"type": "Point", "coordinates": [-85.607355, 38.248463]}},
{"type": "Feature", "id": "imvGID49V0_aH73tZxH1osOhs1w=", "properties": {"ref": "618", "@spider": "bj-restaurant", "addr:full": "1000 N Green River Road", "addr:city": "Evansville", "addr:state": "IN", "addr:postcode": "47715", "name": "BJ's Restaurants and Brewhouse Evansville", "phone": "812-550-9320", "website": "https://www.bjsrestaurants.com/locations/in/evansville", "opening_hours": "Su 11:00 - 23:00;Mo 11:00 - 23:00;Tu 11:00 - 23:00;We 11:00 - 23:00;Th 11:00 - 23:00;Fr 11:00 - 00:00;Sa 11:00 - 00:00", "brand": "BJ's Restaurant & Brewery", "brand:wikidata": "Q4835755"}, "geometry": {"type": "Point", "coordinates": [-87.493193, 37.985067]}},
{"type": "Feature", "id": "xh57f44P4KalgXZwmCJ2orrunrA=", "properties": {"ref": "586", "@spider": "bj-restaurant", "addr:full": "3297 Nicholasville Road", "addr:city": "Lexington", "addr:state": "KY", "addr:postcode": "40503", "name": "BJ's Restaurants and Brewhouse Lexington", "phone": "859-278-2887", "website": "https://www.bjsrestaurants.com/locations/ky/lexington", "opening_hours": "Su 11:00 - 22:00;Mo 11:00 - 23:00;Tu 11:00 - 23:00;We 11:00 - 23:00;Th 11:00 - 23:00;Fr 11:00 - 00:00;Sa 11:00 - 00:00", "brand": "BJ's Restaurant & Brewery", "brand:wikidata": "Q4835755"}, "geometry": {"type": "Point", "coordinates": [-84.518112, 37.993484]}},
{"type": "Feature", "id": "Z8OoRkAQrux8g_9ZOYJEQL4L3TM=", "properties": {"ref": "542", "@spider": "bj-restaurant", "addr:full": "15022 Max Leggett Parkway", "addr:city": "Jacksonville", "addr:state": "FL", "addr:postcode": "32218", "name": "BJ's Restaurants and Brewhouse Jacksonville North", "phone": "904-751-4935", "website": "https://www.bjsrestaurants.com/locations/fl/jacksonville-north", "opening_hours": "Su 11:00 - 23:00;Mo 11:00 - 23:00;Tu 11:00 - 23:00;We 11:00 - 23:00;Th 11:00 - 23:00;Fr 11:00 - 00:00;Sa 11:00 - 00:00", "brand": "BJ's Restaurant & Brewery", "brand:wikidata": "Q4835755"}, "geometry": {"type": "Point", "coordinates": [-81.639015, 30.481763]}},
{"type": "Feature", "id": "M0tf-zIsYHA87ylm6Ea-_kplhUg=", "properties": {"ref": "617", "@spider": "bj-restaurant", "addr:full": "320 Buckland Hills Drive", "addr:city": "Manchester", "addr:state": "CT", "addr:postcode": "06042", "name": "BJ's Restaurants and Brewhouse Manchester", "phone": "860-474-8383", "website": "https://www.bjsrestaurants.com/locations/ct/manchester", "opening_hours": "Su 11:00 - 23:00;Mo 11:00 - 23:00;Tu 11:00 - 22:00;We 11:00 - 23:00;Th 11:00 - 23:00;Fr 11:00 - 00:00;Sa 11:00 - 00:00", "brand": "BJ's Restaurant & Brewery", "brand:wikidata": "Q4835755"}, "geometry": {"type": "Point", "coordinates": [-72.541596, 41.808024]}},
{"type": "Feature", "id": "sMZIWnB380D2N0bH4Ft1Wl4r-N8=", "properties": {"ref": "554", "@spider": "bj-restaurant", "addr:full": "2624 S. Shackleford Rd.", "addr:city": "Little Rock", "addr:state": "AR", "addr:postcode": "72205", "name": "BJ's Restaurants and Brewhouse Shackleford Crossing", "phone": "501-404-2000", "website": "https://www.bjsrestaurants.com/locations/ar/shackleford-crossing", "opening_hours": "Su 11:00 - 22:00;Mo 11:00 - 22:00;Tu 11:00 - 22:00;We 11:00 - 22:00;Th 11:00 - 22:00;Fr 11:00 - 23:00;Sa 11:00 - 23:00", "brand": "BJ's Restaurant & Brewery", "brand:wikidata": "Q4835755"}, "geometry": {"type": "Point", "coordinates": [-92.395623, 34.730612]}},
{"type": "Feature", "id": "f3ctRdBEL0HwDDVbtC6u8AKLKcM=", "properties": {"ref": "532", "@spider": "bj-restaurant", "addr:full": "1690 28th Street", "addr:city": "Boulder", "addr:state": "CO", "addr:postcode": "80301", "name": "BJ's Restaurants and Brewhouse Boulder 29th Street", "phone": "303-440-5200", "website": "https://www.bjsrestaurants.com/locations/co/boulder-29th-street", "opening_hours": "Su 11:00 - 23:00;Mo 11:00 - 23:00;Tu 11:00 - 23:00;We 11:00 - 23:00;Th 11:00 - 23:00;Fr 11:00 - 00:00;Sa 11:00 - 00:00", "brand": "BJ's Restaurant & Brewery", "brand:wikidata": "Q4835755"}, "geometry": {"type": "Point", "coordinates": [-105.258103, 40.017743]}},
{"type": "Feature", "id": "k98E3gRElFqWQHTyFww7vg0w7ew=", "properties": {"ref": "485", "@spider": "bj-restaurant", "addr:full": "4502 S. Steele St. Suite 1500", "addr:city": "Tacoma", "addr:state": "WA", "addr:postcode": "98409", "name": "BJ's Restaurants and Brewhouse Tacoma", "phone": "253-472-1220", "website": "https://www.bjsrestaurants.com/locations/wa/tacoma", "opening_hours": "Su 11:00 - 23:00;Mo 11:00 - 23:00;Tu 11:00 - 23:00;We 11:00 - 23:00;Th 11:00 - 23:00;Fr 11:00 - 00:00;Sa 11:00 - 00:00", "brand": "BJ's Restaurant & Brewery", "brand:wikidata": "Q4835755"}, "geometry": {"type": "Point", "coordinates": [-122.467766, 47.217872]}},
{"type": "Feature", "id": "I5AnVGkl258Z45DBDHhEpxyGNOA=", "properties": {"ref": "602", "@spider": "bj-restaurant", "addr:full": "3748 Airport Blvd", "addr:city": "Mobile", "addr:state": "AL", "addr:postcode": "36608", "name": "BJ's Restaurants and Brewhouse Mobile", "phone": "251-581-9240", "website": "https://www.bjsrestaurants.com/locations/al/mobile", "opening_hours": "Su 11:00 - 23:00;Mo 11:00 - 23:00;Tu 11:00 - 23:00;We 11:00 - 23:00;Th 11:00 - 23:00;Fr 11:00 - 00:00;Sa 11:00 - 00:00", "brand": "BJ's Restaurant & Brewery", "brand:wikidata": "Q4835755"}, "geometry": {"type": "Point", "coordinates": [-88.138505, 30.676964]}},
{"type": "Feature", "id": "VDG2cwi2Ji2iTBngoWNTCwRBGSQ=", "properties": {"ref": "520", "@spider": "bj-restaurant", "addr:full": "334A Coddingtown Center", "addr:city": "Santa Rosa", "addr:state": "CA", "addr:postcode": "95401", "name": "BJ's Restaurants and Brewhouse Santa Rosa", "phone": "707-303-1980", "website": "https://www.bjsrestaurants.com/locations/ca/santa-rosa", "opening_hours": "Su 10:00 - 22:00;Mo 11:00 - 22:00;Tu 11:00 - 22:00;We 11:00 - 22:00;Th 11:00 - 22:00;Fr 11:00 - 23:00;Sa 11:00 - 23:00", "brand": "BJ's Restaurant & Brewery", "brand:wikidata": "Q4835755"}, "geometry": {"type": "Point", "coordinates": [-122.731228, 38.459026]}},
{"type": "Feature", "id": "cIT5oKPd0iMmBSXUTuPhnAHztDk=", "properties": {"ref": "563", "@spider": "bj-restaurant", "addr:full": "12090 Jefferson Ave. Suite 1400", "addr:city": "Newport News", "addr:state": "VA", "addr:postcode": "23606", "name": "BJ's Restaurants and Brewhouse Newport News", "phone": "757-269-3380", "website": "https://www.bjsrestaurants.com/locations/va/newport-news", "opening_hours": "Su 11:00 - 23:00;Mo 11:00 - 23:00;Tu 11:00 - 23:00;We 11:00 - 23:00;Th 11:00 - 23:00;Fr 11:00 - 00:00;Sa 11:00 - 00:00", "brand": "BJ's Restaurant & Brewery", "brand:wikidata": "Q4835755"}, "geometry": {"type": "Point", "coordinates": [-76.492112, 37.104163]}},
{"type": "Feature", "id": "ABnpC5DT29pfVeSz_aWLgpdcvbY=", "properties": {"ref": "440", "@spider": "bj-restaurant", "addr:full": "1140 El Camino Real Suite 271", "addr:city": "San Bruno", "addr:state": "CA", "addr:postcode": "94066", "name": "BJ's Restaurants and Brewhouse San Bruno", "phone": "650-243-4530", "website": "https://www.bjsrestaurants.com/locations/ca/san-bruno", "opening_hours": "Su 10:00 - 23:00;Mo 11:00 - 23:00;Tu 11:00 - 23:00;We 11:00 - 23:00;Th 11:00 - 23:00;Fr 11:00 - 00:00;Sa 11:00 - 00:00", "brand": "BJ's Restaurant & Brewery", "brand:wikidata": "Q4835755"}, "geometry": {"type": "Point", "coordinates": [-122.418847, 37.63556]}},
{"type": "Feature", "id": "zPG0_qmWVPqDsADXxXEx83VZVjY=", "properties": {"ref": "484", "@spider": "bj-restaurant", "addr:full": "5699 Mowry Ave.", "addr:city": "Newark", "addr:state": "CA", "addr:postcode": "94560", "name": "BJ's Restaurants and Brewhouse Newark", "phone": "510-456-3750", "website": "https://www.bjsrestaurants.com/locations/ca/newark", "opening_hours": "Su 10:00 - 22:00;Mo 11:00 - 22:00;Tu 11:00 - 22:00;We 11:00 - 22:00;Th 11:00 - 22:00;Fr 11:00 - 23:00;Sa 11:00 - 23:00", "brand": "BJ's Restaurant & Brewery", "brand:wikidata": "Q4835755"}, "geometry": {"type": "Point", "coordinates": [-122.005678, 37.528222]}},
{"type": "Feature", "id": "ZN7_Bv1ZWMECtrW0dN2h7buosEI=", "properties": {"ref": "495", "@spider": "bj-restaurant", "addr:full": "5800 Northgate Mall Suite 159", "addr:city": "San Rafael", "addr:state": "CA", "addr:postcode": "94903", "name": "BJ's Restaurants and Brewhouse San Rafael", "phone": "415-755-6250", "website": "https://www.bjsrestaurants.com/locations/ca/san-rafael", "opening_hours": "Su 10:00 - 23:00;Mo 11:00 - 23:00;Tu 11:00 - 23:00;We 11:00 - 23:00;Th 11:00 - 23:00;Fr 11:00 - 00:00;Sa 11:00 - 00:00", "brand": "BJ's Restaurant & Brewery", "brand:wikidata": "Q4835755"}, "geometry": {"type": "Point", "coordinates": [-122.544626, 38.005167]}},
{"type": "Feature", "id": "kVd2n5Vk1XbydrR-1oIXdx8jzyE=", "properties": {"ref": "443", "@spider": "bj-restaurant", "addr:full": "2206 Bridgepoint Parkway", "addr:city": "San Mateo", "addr:state": "CA", "addr:postcode": "94404", "name": "BJ's Restaurants and Brewhouse San Mateo", "phone": "650-931-2990", "website": "https://www.bjsrestaurants.com/locations/ca/san-mateo", "opening_hours": "Su 10:00 - 23:00;Mo 11:00 - 23:00;Tu 11:00 - 23:00;We 11:00 - 23:00;Th 11:00 - 23:00;Fr 11:00 - 00:00;Sa 11:00 - 00:00", "brand": "BJ's Restaurant & Brewery", "brand:wikidata": "Q4835755"}, "geometry": {"type": "Point", "coordinates": [-122.282588, 37.560888]}},
{"type": "Feature", "id": "XszY2RPKT16dh21FFpCF5BZV8hg=", "properties": {"ref": "550", "@spider": "bj-restaurant", "addr:full": "511 Coleman Ave", "addr:city": "San Jose", "addr:state": "CA", "addr:postcode": "95110", "name": "BJ's Restaurants and Brewhouse San Jose Marketcenter", "phone": "408-343-7230", "website": "https://www.bjsrestaurants.com/locations/ca/san-jose-marketcenter", "opening_hours": "Su 10:00 - 23:00;Mo 11:00 - 23:00;Tu 11:00 - 23:00;We 11:00 - 23:00;Th 11:00 - 23:00;Fr 11:00 - 00:00;Sa 11:00 - 00:00", "brand": "BJ's Restaurant & Brewery", "brand:wikidata": "Q4835755"}, "geometry": {"type": "Point", "coordinates": [-121.904107, 37.340382]}},
{"type": "Feature", "id": "iQCxLNl0KTShW8TyBKvsJ0mGfjU=", "properties": {"ref": "523", "@spider": "bj-restaurant", "addr:full": "1730 N. Main Street", "addr:city": "Salinas", "addr:state": "CA", "addr:postcode": "93906", "name": "BJ's Restaurants and Brewhouse Salinas", "phone": "831-737-1690", "website": "https://www.bjsrestaurants.com/locations/ca/salinas", "opening_hours": "Su 10:00 - 23:00;Mo 11:00 - 23:00;Tu 11:00 - 23:00;We 11:00 - 23:00;Th 11:00 - 23:00;Fr 11:00 - 00:00;Sa 11:00 - 00:00", "brand": "BJ's Restaurant & Brewery", "brand:wikidata": "Q4835755"}, "geometry": {"type": "Point", "coordinates": [-121.654329, 36.716782]}},
{"type": "Feature", "id": "rCax-bEGbS8AJqQkddlokMTXSmg=", "properties": {"ref": "425", "@spider": "bj-restaurant", "addr:full": "10690 North De Anza Boulevard", "addr:city": "Cupertino", "addr:state": "CA", "addr:postcode": "95014", "name": "BJ's Restaurants and Brewhouse Cupertino", "phone": "408-865-6970", "website": "https://www.bjsrestaurants.com/locations/ca/cupertino", "opening_hours": "Su 10:00 - 23:00;Mo 11:00 - 23:00;Tu 11:00 - 23:00;We 11:00 - 23:00;Th 11:00 - 23:00;Fr 11:00 - 00:00;Sa 11:00 - 00:00", "brand": "BJ's Restaurant & Brewery", "brand:wikidata": "Q4835755"}, "geometry": {"type": "Point", "coordinates": [-122.031568, 37.331295]}},
{"type": "Feature", "id": "md48VWmn10IHcmeFU04f0MMdyT8=", "properties": {"ref": "492", "@spider": "bj-restaurant", "addr:full": "385 Sun Valley Mall", "addr:city": "Concord", "addr:state": "CA", "addr:postcode": "94520", "name": "BJ's Restaurants and Brewhouse Concord", "phone": "925-849-1090", "website": "https://www.bjsrestaurants.com/locations/ca/concord", "opening_hours": "Su 10:00 - 23:00;Mo 11:00 - 23:00;Tu 11:00 - 23:00;We 11:00 - 23:00;Th 11:00 - 23:00;Fr 11:00 - 00:00;Sa 11:00 - 00:00", "brand": "BJ's Restaurant & Brewery", "brand:wikidata": "Q4835755"}, "geometry": {"type": "Point", "coordinates": [-122.061942, 37.967179]}},
{"type": "Feature", "id": "GH7V933maZG2OZ4zpCiiybbh874=", "properties": {"ref": "429", "@spider": "bj-restaurant", "addr:full": "925 Blossom Hill Road", "addr:city": "San Jose", "addr:state": "CA", "addr:postcode": "95123", "name": "BJ's Restaurants and Brewhouse San Jose", "phone": "408-284-4260", "website": "https://www.bjsrestaurants.com/locations/ca/san-jose", "opening_hours": "Su 10:00 - 23:00;Mo 11:00 - 23:00;Tu 11:00 - 23:00;We 11:00 - 23:00;Th 11:00 - 23:00;Fr 11:00 - 00:00;Sa 11:00 - 00:00", "brand": "BJ's Restaurant & Brewery", "brand:wikidata": "Q4835755"}, "geometry": {"type": "Point", "coordinates": [-121.86376, 37.251119]}},
{"type": "Feature", "id": "oTbwO_EHDlXXqvMM9vyqbUwZ8LE=", "properties": {"ref": "448", "@spider": "bj-restaurant", "addr:full": "190 Nut Tree Parkway", "addr:city": "Vacaville", "addr:state": "CA", "addr:postcode": "95687", "name": "BJ's Restaurants and Brewhouse Vacaville", "phone": "707-359-2200", "website": "https://www.bjsrestaurants.com/locations/ca/vacaville", "opening_hours": "Su 10:00 - 23:00;Mo 11:00 - 23:00;Tu 11:00 - 23:00;We 11:00 - 23:00;Th 11:00 - 23:00;Fr 11:00 - 00:00;Sa 11:00 - 00:00", "brand": "BJ's Restaurant & Brewery", "brand:wikidata": "Q4835755"}, "geometry": {"type": "Point", "coordinates": [-121.965964, 38.361982]}},
{"type": "Feature", "id": "qHwwzzl3kC57rhspLgBoT6Ne54M=", "properties": {"ref": "451", "@spider": "bj-restaurant", "addr:full": "9237 Laguna Springs Drive", "addr:city": "Elk Grove", "addr:state": "CA", "addr:postcode": "95758", "name": "BJ's Restaurants and Brewhouse Elk Grove", "phone": "916-753-1500", "website": "https://www.bjsrestaurants.com/locations/ca/elk-grove", "opening_hours": "Su 10:00 - 23:00;Mo 11:00 - 23:00;Tu 11:00 - 23:00;We 11:00 - 23:00;Th 11:00 - 23:00;Fr 11:00 - 00:00;Sa 10:00 - 00:00", "brand": "BJ's Restaurant & Brewery", "brand:wikidata": "Q4835755"}, "geometry": {"type": "Point", "coordinates": [-121.399347, 38.422936]}},
{"type": "Feature", "id": "YBJ-Yan8Sfixay35MzVq7s9_kaM=", "properties": {"ref": "517", "@spider": "bj-restaurant", "addr:full": "2365 Sand Creek Road", "addr:city": "Brentwood", "addr:state": "CA", "addr:postcode": "94513", "name": "BJ's Restaurants and Brewhouse Brentwood", "phone": "925-809-1950", "website": "https://www.bjsrestaurants.com/locations/ca/brentwood", "opening_hours": "Su 10:00 - 23:00;Mo 11:00 - 23:00;Tu 11:00 - 23:00;We 11:00 - 23:00;Th 11:00 - 23:00;Fr 11:00 - 00:00;Sa 11:00 - 00:00", "brand": "BJ's Restaurant & Brewery", "brand:wikidata": "Q4835755"}, "geometry": {"type": "Point", "coordinates": [-121.738163, 37.944155]}},
{"type": "Feature", "id": "4fR95V1Pp0ar_AI4eMZvESMK3mg=", "properties": {"ref": "524", "@spider": "bj-restaurant", "addr:full": "3620 Fallon Road", "addr:city": "Dublin", "addr:state": "CA", "addr:postcode": "94568", "name": "BJ's Restaurants and Brewhouse Dublin", "phone": "925-452-1155", "website": "https://www.bjsrestaurants.com/locations/ca/dublin", "opening_hours": "Su 10:00 - 23:00;Mo 11:00 - 23:00;Tu 11:00 - 23:00;We 11:00 - 23:00;Th 11:00 - 23:00;Fr 11:00 - 00:00;Sa 11:00 - 00:00", "brand": "BJ's Restaurant & Brewery", "brand:wikidata": "Q4835755"}, "geometry": {"type": "Point", "coordinates": [-121.85141, 37.702693]}},
{"type": "Feature", "id": "-qDOsIjNr6af_UEnIS1FNve8lk8=", "properties": {"ref": "463", "@spider": "bj-restaurant", "addr:full": "5733 Pacific Ave.", "addr:city": "Stockton", "addr:state": "CA", "addr:postcode": "95207", "name": "BJ's Restaurants and Brewhouse Stockton", "phone": "209-373-4660", "website": "https://www.bjsrestaurants.com/locations/ca/stockton", "opening_hours": "Su 10:00 - 23:00;Mo 11:00 - 23:00;Tu 11:00 - 23:00;We 11:00 - 23:00;Th 11:00 - 23:00;Fr 11:00 - 00:00;Sa 11:00 - 00:00", "brand": "BJ's Restaurant & Brewery", "brand:wikidata": "Q4835755"}, "geometry": {"type": "Point", "coordinates": [-121.317321, 38.00217]}},
{"type": "Feature", "id": "6lwZzWb5pbRet0O_hKC4HLa3mwY=", "properties": {"ref": "452", "@spider": "bj-restaurant", "addr:full": "3531 N. Freeway Blvd.", "addr:city": "Sacramento", "addr:state": "CA", "addr:postcode": "95834", "name": "BJ's Restaurants and Brewhouse Natomas", "phone": "916-570-1327", "website": "https://www.bjsrestaurants.com/locations/ca/natomas", "opening_hours": "Su 10:00 - 23:00;Mo 11:00 - 23:00;Tu 11:00 - 23:00;We 11:00 - 23:00;Th 11:00 - 23:00;Fr 11:00 - 00:00;Sa 11:00 - 00:00", "brand": "BJ's Restaurant & Brewery", "brand:wikidata": "Q4835755"}, "geometry": {"type": "Point", "coordinates": [-121.501865, 38.640247]}},
{"type": "Feature", "id": "1LEGFvpzRsJlGuBGaAEZmut-klU=", "properties": {"ref": "436", "@spider": "bj-restaurant", "addr:full": "1200 Roseville Parkway", "addr:city": "Roseville", "addr:state": "CA", "addr:postcode": "95678", "name": "BJ's Restaurants and Brewhouse Roseville", "phone": "916-580-2100", "website": "https://www.bjsrestaurants.com/locations/ca/roseville", "opening_hours": "Su 10:00 - 23:00;Mo 11:00 - 23:00;Tu 11:00 - 23:00;We 11:00 - 23:00;Th 11:00 - 23:00;Fr 11:00 - 00:00;Sa 10:00 - 00:00", "brand": "BJ's Restaurant & Brewery", "brand:wikidata": "Q4835755"}, "geometry": {"type": "Point", "coordinates": [-121.265097, 38.768164]}},
{"type": "Feature", "id": "uEc-RjZkjLOuhH_hsjRMoB6UCNQ=", "properties": {"ref": "508", "@spider": "bj-restaurant", "addr:full": "1689 Arden Way", "addr:city": "Sacramento", "addr:state": "CA", "addr:postcode": "95815", "name": "BJ's Restaurants and Brewhouse Arden Fair", "phone": "916-570-1920", "website": "https://www.bjsrestaurants.com/locations/ca/arden-fair", "opening_hours": "Su 10:00 - 23:00;Mo 11:00 - 23:00;Tu 11:00 - 23:00;We 11:00 - 23:00;Th 11:00 - 23:00;Fr 11:00 - 00:00;Sa 11:00 - 00:00", "brand": "BJ's Restaurant & Brewery", "brand:wikidata": "Q4835755"}, "geometry": {"type": "Point", "coordinates": [-121.428035, 38.601223]}},
{"type": "Feature", "id": "tVOkMpPYzI0Wwva9srXGUCzIp-I=", "properties": {"ref": "475", "@spider": "bj-restaurant", "addr:full": "3401 Dale Road Suite 483", "addr:city": "Modesto", "addr:state": "CA", "addr:postcode": "95356", "name": "BJ's Restaurants and Brewhouse Modesto", "phone": "209-846-6940", "website": "https://www.bjsrestaurants.com/locations/ca/modesto", "opening_hours": "Su 10:00 - 23:00;Mo 11:00 - 23:00;Tu 11:00 - 23:00;We 11:00 - 23:00;Th 11:00 - 23:00;Fr 11:00 - 00:00;Sa 11:00 - 00:00", "brand": "BJ's Restaurant & Brewery", "brand:wikidata": "Q4835755"}, "geometry": {"type": "Point", "coordinates": [-121.052946, 37.687135]}},
{"type": "Feature", "id": "Ir5JrZdawGYQrbpy4bK_P9X9cU8=", "properties": {"ref": "423", "@spider": "bj-restaurant", "addr:full": "461 W. Esplanade Drive", "addr:city": "Oxnard", "addr:state": "CA", "addr:postcode": "93030", "name": "BJ's Restaurants and Brewhouse Oxnard", "phone": "805-485-1124", "website": "https://www.bjsrestaurants.com/locations/ca/oxnard", "opening_hours": "Su 10:00 - 23:00;Mo 11:00 - 23:00;Tu 11:00 - 23:00;We 11:00 - 23:00;Th 11:00 - 23:00;Fr 11:00 - 00:00;Sa 11:00 - 00:00", "brand": "BJ's Restaurant & Brewery", "brand:wikidata": "Q4835755"}, "geometry": {"type": "Point", "coordinates": [-119.179847, 34.236566]}},
{"type": "Feature", "id": "Kqwgx6I_WggTp2DUeB4f_ZCqJkE=", "properties": {"ref": "437", "@spider": "bj-restaurant", "addr:full": "2730 E. Bidwell Street", "addr:city": "Folsom", "addr:state": "CA", "addr:postcode": "95630", "name": "BJ's Restaurants and Brewhouse Folsom", "phone": "916-404-2000", "website": "https://www.bjsrestaurants.com/locations/ca/folsom", "opening_hours": "Su 10:00 - 23:00;Mo 11:00 - 23:00;Tu 11:00 - 23:00;We 11:00 - 23:00;Th 11:00 - 23:00;Fr 11:00 - 00:00;Sa 11:00 - 00:00", "brand": "BJ's Restaurant & Brewery", "brand:wikidata": "Q4835755"}, "geometry": {"type": "Point", "coordinates": [-121.124246, 38.656171]}},
{"type": "Feature", "id": "r1JvITMRBTeO52PxMosuhsciQU4=", "properties": {"ref": "435", "@spider": "bj-restaurant", "addr:full": "715 E. Shaw Ave.", "addr:city": "Fresno", "addr:state": "CA", "addr:postcode": "93710", "name": "BJ's Restaurants and Brewhouse Fresno", "phone": "559-570-1900", "website": "https://www.bjsrestaurants.com/locations/ca/fresno", "opening_hours": "Su 10:00 - 23:00;Mo 11:00 - 23:00;Tu 11:00 - 23:00;We 11:00 - 23:00;Th 11:00 - 23:00;Fr 11:00 - 00:00;Sa 10:00 - 00:00", "brand": "BJ's Restaurant & Brewery", "brand:wikidata": "Q4835755"}, "geometry": {"type": "Point", "coordinates": [-119.774574, 36.80816]}},
{"type": "Feature", "id": "fcjS2c5hBqZ64AY_4b0vr8GWeuM=", "properties": {"ref": "458", "@spider": "bj-restaurant", "addr:full": "10750 Stockdale Hwy", "addr:city": "Bakersfield", "addr:state": "CA", "addr:postcode": "93311", "name": "BJ's Restaurants and Brewhouse Bakersfield", "phone": "661-241-5115", "website": "https://www.bjsrestaurants.com/locations/ca/bakersfield", "opening_hours": "Su 11:00 - 23:00;Mo 11:00 - 23:00;Tu 11:00 - 23:00;We 11:00 - 23:00;Th 11:00 - 23:00;Fr 11:00 - 00:00;Sa 11:00 - 00:00", "brand": "BJ's Restaurant & Brewery", "brand:wikidata": "Q4835755"}, "geometry": {"type": "Point", "coordinates": [-119.121941, 35.349873]}},
{"type": "Feature", "id": "U3rbvB8GqmU18TlOd94ZYRTQavI=", "properties": {"ref": "426", "@spider": "bj-restaurant", "addr:full": "3955 Thousand Oaks Boulevard", "addr:city": "Westlake Village", "addr:state": "CA", "addr:postcode": "91362", "name": "BJ's Restaurants and Brewhouse Westlake Village", "phone": "805-497-9393", "website": "https://www.bjsrestaurants.com/locations/ca/westlake-village", "opening_hours": "Su 10:00 - 23:00;Mo 11:00 - 23:00;Tu 11:00 - 23:00;We 11:00 - 23:00;Th 11:00 - 23:00;Fr 11:00 - 00:00;Sa 11:00 - 00:00", "brand": "BJ's Restaurant & Brewery", "brand:wikidata": "Q4835755"}, "geometry": {"type": "Point", "coordinates": [-118.824899, 34.162679]}},
{"type": "Feature", "id": "cfsDh_zzJXGac3ZIFLpYA6F2oYw=", "properties": {"ref": "415", "@spider": "bj-restaurant", "addr:full": "6424 Canoga Avenue", "addr:city": "Woodland Hills", "addr:state": "CA", "addr:postcode": "91367", "name": "BJ's Restaurants and Brewhouse Woodland Hills", "phone": "818-340-1748", "website": "https://www.bjsrestaurants.com/locations/ca/woodland-hills", "opening_hours": "Su 10:00 - 23:00;Mo 11:00 - 23:00;Tu 11:00 - 23:00;We 11:00 - 23:00;Th 11:00 - 23:00;Fr 11:00 - 00:00;Sa 11:00 - 00:00", "brand": "BJ's Restaurant & Brewery", "brand:wikidata": "Q4835755"}, "geometry": {"type": "Point", "coordinates": [-118.597137, 34.18724]}},
{"type": "Feature", "id": "HkaSEBasTOrVliF7dh2a6bhxTUU=", "properties": {"ref": "411", "@spider": "bj-restaurant", "addr:full": "939 Broxton Avenue", "addr:city": "Los Angeles", "addr:state": "CA", "addr:postcode": "90024", "name": "BJ's Restaurants and Brewhouse Westwood", "phone": "310-209-7475", "website": "https://www.bjsrestaurants.com/locations/ca/westwood", "opening_hours": "Su 10:00 - 22:00;Mo 11:00 - 22:00;Tu 11:00 - 22:00;We 11:00 - 22:00;Th 11:00 - 22:00;Fr 11:00 - 23:00;Sa 11:00 - 23:00", "brand": "BJ's Restaurant & Brewery", "brand:wikidata": "Q4835755"}, "geometry": {"type": "Point", "coordinates": [-118.447187, 34.062937]}},
{"type": "Feature", "id": "z3gdunpyg-vJzdE--AfkG0c6vgM=", "properties": {"ref": "414", "@spider": "bj-restaurant", "addr:full": "24320 Town Center Drive", "addr:city": "Valencia", "addr:state": "CA", "addr:postcode": "91355", "name": "BJ's Restaurants and Brewhouse Valencia", "phone": "661-288-1299", "website": "https://www.bjsrestaurants.com/locations/ca/valencia", "opening_hours": "Su 10:00 - 23:00;Mo 11:00 - 23:00;Tu 11:00 - 23:00;We 11:00 - 23:00;Th 11:00 - 23:00;Fr 11:00 - 00:00;Sa 11:00 - 00:00", "brand": "BJ's Restaurant & Brewery", "brand:wikidata": "Q4835755"}, "geometry": {"type": "Point", "coordinates": [-118.561467, 34.417515]}},
{"type": "Feature", "id": "JhVudu1-NQd4_KJEjUdYuWU3GLc=", "properties": {"ref": "493", "@spider": "bj-restaurant", "addr:full": "6000 Sepulveda Blvd Suite 1111", "addr:city": "Culver City", "addr:state": "CA", "addr:postcode": "90230", "name": "BJ's Restaurants and Brewhouse Culver City", "phone": "310-574-5170", "website": "https://www.bjsrestaurants.com/locations/ca/culver-city", "opening_hours": "Su 10:00 - 23:00;Mo 11:00 - 23:00;Tu 11:00 - 23:00;We 11:00 - 23:00;Th 11:00 - 23:00;Fr 11:00 - 00:00;Sa 11:00 - 00:00", "brand": "BJ's Restaurant & Brewery", "brand:wikidata": "Q4835755"}, "geometry": {"type": "Point", "coordinates": [-118.395362, 33.985454]}},
{"type": "Feature", "id": "umvo7FLn5ujsnL9yi4s_8bMQ1hc=", "properties": {"ref": "478", "@spider": "bj-restaurant", "addr:full": "3525 W Carson Street Suite 168", "addr:city": "Torrance", "addr:state": "CA", "addr:postcode": "90503", "name": "BJ's Restaurants and Brewhouse Del Amo", "phone": "310-802-6440", "website": "https://www.bjsrestaurants.com/locations/ca/del-amo", "opening_hours": "Su 10:00 - 23:00;Mo 11:00 - 23:00;Tu 11:00 - 23:00;We 11:00 - 23:00;Th 11:00 - 23:00;Fr 11:00 - 00:00;Sa 11:00 - 00:00", "brand": "BJ's Restaurant & Brewery", "brand:wikidata": "Q4835755"}, "geometry": {"type": "Point", "coordinates": [-118.347349, 33.832377]}},
{"type": "Feature", "id": "X7g1rrZXIKsELKvAwUJ3dxEY-vc=", "properties": {"ref": "420", "@spider": "bj-restaurant", "addr:full": "107 South 1st Street", "addr:city": "Burbank", "addr:state": "CA", "addr:postcode": "91502", "name": "BJ's Restaurants and Brewhouse Burbank", "phone": "818-557-0881", "website": "https://www.bjsrestaurants.com/locations/ca/burbank", "opening_hours": "Su 10:00 - 23:00;Mo 11:00 - 23:00;Tu 11:00 - 23:00;We 11:00 - 23:00;Th 11:00 - 23:00;Fr 11:00 - 00:00;Sa 11:00 - 00:00", "brand": "BJ's Restaurant & Brewery", "brand:wikidata": "Q4835755"}, "geometry": {"type": "Point", "coordinates": [-118.309509, 34.178953]}},
{"type": "Feature", "id": "b9P-hvHIgsfPNCwiUJywfu-XDfk=", "properties": {"ref": "468", "@spider": "bj-restaurant", "addr:full": "101 N. Brand Blvd.", "addr:city": "Glendale", "addr:state": "CA", "addr:postcode": "91203", "name": "BJ's Restaurants and Brewhouse Glendale", "phone": "818-844-0160", "website": "https://www.bjsrestaurants.com/locations/ca/glendale", "opening_hours": "Su 10:00 - 23:00;Mo 11:00 - 23:00;Tu 11:00 - 23:00;We 11:00 - 23:00;Th 11:00 - 23:00;Fr 11:00 - 00:00;Sa 11:00 - 00:00", "brand": "BJ's Restaurant & Brewery", "brand:wikidata": "Q4835755"}, "geometry": {"type": "Point", "coordinates": [-118.255264, 34.146442]}},
{"type": "Feature", "id": "PX6z41nGLDkWAEcru1t2nN20vW0=", "properties": {"ref": "409", "@spider": "bj-restaurant", "addr:full": "200 Main Street", "addr:city": "Huntington Beach", "addr:state": "CA", "addr:postcode": "92648", "name": "BJ's Restaurants and Brewhouse HB - Main St", "phone": "714-374-2224", "website": "https://www.bjsrestaurants.com/locations/ca/hb---main-st", "opening_hours": "Su 11:00 - 23:00;Mo 11:00 - 23:00;Tu 11:00 - 23:00;We 11:00 - 23:00;Th 11:00 - 23:00;Fr 11:00 - 00:00;Sa 11:00 - 00:00", "brand": "BJ's Restaurant & Brewery", "brand:wikidata": "Q4835755"}, "geometry": {"type": "Point", "coordinates": [-118.000804, 33.658147]}},
{"type": "Feature", "id": "OCWU05EG9QZM9lCpW_kEhtghmbs=", "properties": {"ref": "490", "@spider": "bj-restaurant", "addr:full": "121 Stonewood Street", "addr:city": "Downey", "addr:state": "CA", "addr:postcode": "90241", "name": "BJ's Restaurants and Brewhouse Downey", "phone": "562-231-0820", "website": "https://www.bjsrestaurants.com/locations/ca/downey", "opening_hours": "Su 10:00 - 23:00;Mo 11:00 - 23:00;Tu 11:00 - 23:00;We 11:00 - 23:00;Th 11:00 - 23:00;Fr 11:00 - 00:00;Sa 11:00 - 00:00", "brand": "BJ's Restaurant & Brewery", "brand:wikidata": "Q4835755"}, "geometry": {"type": "Point", "coordinates": [-118.122307, 33.936085]}},
{"type": "Feature", "id": "qcqSo-UJ3pFP7w-Wi2rezZzI-p0=", "properties": {"ref": "430", "@spider": "bj-restaurant", "addr:full": "11101 183rd Street", "addr:city": "Cerritos", "addr:state": "CA", "addr:postcode": "90703", "name": "BJ's Restaurants and Brewhouse Cerritos", "phone": "562-467-0850", "website": "https://www.bjsrestaurants.com/locations/ca/cerritos", "opening_hours": "Su 10:00 - 23:00;Mo 11:00 - 23:00;Tu 11:00 - 23:00;We 11:00 - 23:00;Th 11:00 - 23:00;Fr 11:00 - 00:00;Sa 11:00 - 00:00", "brand": "BJ's Restaurant & Brewery", "brand:wikidata": "Q4835755"}, "geometry": {"type": "Point", "coordinates": [-118.097939, 33.866468]}},
{"type": "Feature", "id": "Wp8gsww2oyP7Bhj9M3aMWD8gc2E=", "properties": {"ref": "464", "@spider": "bj-restaurant", "addr:full": "1716 Montebello Town Center", "addr:city": "Montebello", "addr:state": "CA", "addr:postcode": "90640", "name": "BJ's Restaurants and Brewhouse Montebello", "phone": "323-201-5290", "website": "https://www.bjsrestaurants.com/locations/ca/montebello", "opening_hours": "Su 10:00 - 23:00;Mo 11:00 - 23:00;Tu 11:00 - 23:00;We 11:00 - 23:00;Th 11:00 - 23:00;Fr 11:00 - 00:00;Sa 11:00 - 00:00", "brand": "BJ's Restaurant & Brewery", "brand:wikidata": "Q4835755"}, "geometry": {"type": "Point", "coordinates": [-118.085326, 34.036417]}},
{"type": "Feature", "id": "H_wgLCchkYxTHvDOUQwmQZ8ySKo=", "properties": {"ref": "404", "@spider": "bj-restaurant", "addr:full": "280 S. Coast Highway", "addr:city": "Laguna Beach", "addr:state": "CA", "addr:postcode": "92651", "name": "BJ's Restaurants and Brewhouse Laguna Beach", "phone": "949-494-3802", "website": "https://www.bjsrestaurants.com/locations/ca/laguna-beach", "opening_hours": "Su 11:00 - 22:00;Mo 11:00 - 22:00;Tu 11:00 - 22:00;We 11:00 - 22:00;Th 11:00 - 22:00;Fr 11:00 - 22:00;Sa 11:00 - 22:00", "brand": "BJ's Restaurant & Brewery", "brand:wikidata": "Q4835755"}, "geometry": {"type": "Point", "coordinates": [-117.783542, 33.542174]}},
{"type": "Feature", "id": "DJo6D0JvO9XUUjgrp0fkSR1qLjI=", "properties": {"ref": "419", "@spider": "bj-restaurant", "addr:full": "16060 Beach Boulevard", "addr:city": "Huntington Beach", "addr:state": "CA", "addr:postcode": "92647", "name": "BJ's Restaurants and Brewhouse HB - Beach Blvd", "phone": "714-842-9242", "website": "https://www.bjsrestaurants.com/locations/ca/hb---beach-blvd", "opening_hours": "Su 10:00 - 23:00;Mo 11:00 - 23:00;Tu 11:00 - 23:00;We 11:00 - 23:00;Th 11:00 - 21:00;Fr 11:00 - 00:00;Sa 11:00 - 00:00", "brand": "BJ's Restaurant & Brewery", "brand:wikidata": "Q4835755"}, "geometry": {"type": "Point", "coordinates": [-117.988464, 33.729689]}},
{"type": "Feature", "id": "memD_lH1zavwFQ_dVz8lcxBupwY=", "properties": {"ref": "528", "@spider": "bj-restaurant", "addr:full": "234 E. Colorado Blvd.", "addr:city": "Pasadena", "addr:state": "CA", "addr:postcode": "91101", "name": "BJ's Restaurants and Brewhouse Pasadena", "phone": "626-204-0845", "website": "https://www.bjsrestaurants.com/locations/ca/pasadena", "opening_hours": "Su 10:00 - 22:00;Mo 11:00 - 22:00;Tu 11:00 - 22:00;We 11:00 - 22:00;Th 11:00 - 22:00;Fr 11:00 - 23:00;Sa 11:00 - 23:00", "brand": "BJ's Restaurant & Brewery", "brand:wikidata": "Q4835755"}, "geometry": {"type": "Point", "coordinates": [-118.14571, 34.145669]}},
{"type": "Feature", "id": "dbmgeZD-9YjGf209sUjpflkF_y4=", "properties": {"ref": "416", "@spider": "bj-restaurant", "addr:full": "400 E. Huntington Drive", "addr:city": "Arcadia", "addr:state": "CA", "addr:postcode": "91006", "name": "BJ's Restaurants and Brewhouse Arcadia", "phone": "626-462-1494", "website": "https://www.bjsrestaurants.com/locations/ca/arcadia", "opening_hours": "Su 10:00 - 23:00;Mo 11:00 - 23:00;Tu 11:00 - 23:00;We 11:00 - 23:00;Th 11:00 - 23:00;Fr 11:00 - 00:00;Sa 11:00 - 00:00", "brand": "BJ's Restaurant & Brewery", "brand:wikidata": "Q4835755"}, "geometry": {"type": "Point", "coordinates": [-118.022457, 34.139711]}},
{"type": "Feature", "id": "XRA6SdlC7ebkkw7t4qsFrNYWyQ8=", "properties": {"ref": "545", "@spider": "bj-restaurant", "addr:full": "460 The City Drive S", "addr:city": "Orange", "addr:state": "CA", "addr:postcode": "92868", "name": "BJ's Restaurants and Brewhouse Outlets at Orange", "phone": "714-787-3925", "website": "https://www.bjsrestaurants.com/locations/ca/outlets-at-orange", "opening_hours": "Su 10:00 - 23:00;Mo 11:00 - 23:00;Tu 11:00 - 23:00;We 11:00 - 23:00;Th 11:00 - 23:00;Fr 11:00 - 00:00;Sa 11:00 - 00:00", "brand": "BJ's Restaurant & Brewery", "brand:wikidata": "Q4835755"}, "geometry": {"type": "Point", "coordinates": [-117.889428, 33.78074]}},
{"type": "Feature", "id": "i63wL73KvRZWB7-b-3h9YMNHRbw=", "properties": {"ref": "412", "@spider": "bj-restaurant", "addr:full": "600 Brea Mall Drive", "addr:city": "Brea", "addr:state": "CA", "addr:postcode": "92821", "name": "BJ's Restaurants and Brewhouse Brea", "phone": "714-990-2095", "website": "https://www.bjsrestaurants.com/locations/ca/brea", "opening_hours": "Su 10:00 - 23:00;Mo 11:00 - 23:00;Tu 11:00 - 23:00;We 11:00 - 23:00;Th 11:00 - 23:00;Fr 11:00 - 00:00;Sa 11:00 - 00:00", "brand": "BJ's Restaurant & Brewery", "brand:wikidata": "Q4835755"}, "geometry": {"type": "Point", "coordinates": [-117.889217, 33.913119]}},
{"type": "Feature", "id": "Z3V8fhObCK7xEqS6qnIReT481Ms=", "properties": {"ref": "504", "@spider": "bj-restaurant", "addr:full": "17615 Castleton Street", "addr:city": "City of Industry", "addr:state": "CA", "addr:postcode": "91748", "name": "BJ's Restaurants and Brewhouse Puente Hills", "phone": "626-363-9460", "website": "https://www.bjsrestaurants.com/locations/ca/puente-hills", "opening_hours": "Su 11:00 - 23:00;Mo 11:00 - 23:00;Tu 11:00 - 23:00;We 11:00 - 23:00;Th 11:00 - 23:00;Fr 11:00 - 00:00;Sa 11:00 - 00:00", "brand": "BJ's Restaurant & Brewery", "brand:wikidata": "Q4835755"}, "geometry": {"type": "Point", "coordinates": [-117.919203, 33.994257]}},
{"type": "Feature", "id": "ovXgPdHL7Hw88JHa0aiIfAkFMvI=", "properties": {"ref": "438", "@spider": "bj-restaurant", "addr:full": "24032 El Toro Road", "addr:city": "Laguna Hills", "addr:state": "CA", "addr:postcode": "92653", "name": "BJ's Restaurants and Brewhouse Laguna Hills", "phone": "949-900-2670", "website": "https://www.bjsrestaurants.com/locations/ca/laguna-hills", "opening_hours": "Su 10:00 - 23:00;Mo 11:00 - 23:00;Tu 11:00 - 23:00;We 11:00 - 23:00;Th 11:00 - 23:00;Fr 11:00 - 00:00;Sa 11:00 - 00:00", "brand": "BJ's Restaurant & Brewery", "brand:wikidata": "Q4835755"}, "geometry": {"type": "Point", "coordinates": [-117.711227, 33.612312]}},
{"type": "Feature", "id": "uAAtyJWSV9ZVquFOw_G66FbW7RI=", "properties": {"ref": "421", "@spider": "bj-restaurant", "addr:full": "13130 Jamboree Road", "addr:city": "Irvine", "addr:state": "CA", "addr:postcode": "92602", "name": "BJ's Restaurants and Brewhouse Irvine", "phone": "714-665-8595", "website": "https://www.bjsrestaurants.com/locations/ca/irvine", "opening_hours": "Su 10:00 - 23:00;Mo 11:00 - 23:00;Tu 11:00 - 23:00;We 11:00 - 23:00;Th 11:00 - 23:00;Fr 11:00 - 00:00;Sa 11:00 - 00:00", "brand": "BJ's Restaurant & Brewery", "brand:wikidata": "Q4835755"}, "geometry": {"type": "Point", "coordinates": [-117.787022, 33.729492]}},
{"type": "Feature", "id": "Q1eKRhc9Sp0C2x_twyJW6DZJua0=", "properties": {"ref": "462", "@spider": "bj-restaurant", "addr:full": "1325 Rancho Vista Blvd.", "addr:city": "Palmdale", "addr:state": "CA", "addr:postcode": "93551", "name": "BJ's Restaurants and Brewhouse Palmdale", "phone": "661-538-9040", "website": "https://www.bjsrestaurants.com/locations/ca/palmdale", "opening_hours": "Su 10:00 - 23:00;Mo 11:00 - 23:00;Tu 11:00 - 23:00;We 11:00 - 23:00;Th 11:00 - 23:00;Fr 11:00 - 00:00;Sa 11:00 - 00:00", "brand": "BJ's Restaurant & Brewery", "brand:wikidata": "Q4835755"}, "geometry": {"type": "Point", "coordinates": [-118.155225, 34.606845]}},
{"type": "Feature", "id": "LZAYKJjqSfsIVPpdMoaV_ODKDGU=", "properties": {"ref": "518", "@spider": "bj-restaurant", "addr:full": "8188 E Santa Ana Canyon Road", "addr:city": "Anaheim Hills", "addr:state": "CA", "addr:postcode": "92808", "name": "BJ's Restaurants and Brewhouse Anaheim Hills", "phone": "714-787-3580", "website": "https://www.bjsrestaurants.com/locations/ca/anaheim-hills", "opening_hours": "Su 11:00 - 23:00;Mo 11:00 - 23:00;Tu 11:00 - 23:00;We 11:00 - 23:00;Th 11:00 - 23:00;Fr 11:00 - 00:00;Sa 11:00 - 00:00", "brand": "BJ's Restaurant & Brewery", "brand:wikidata": "Q4835755"}, "geometry": {"type": "Point", "coordinates": [-117.747458, 33.867255]}},
{"type": "Feature", "id": "qF1KE1_vBixfpfrOXIUUlNTh7gg=", "properties": {"ref": "418", "@spider": "bj-restaurant", "addr:full": "2917 Eastland Center Drive", "addr:city": "West Covina", "addr:state": "CA", "addr:postcode": "91791", "name": "BJ's Restaurants and Brewhouse West Covina", "phone": "626-858-0054", "website": "https://www.bjsrestaurants.com/locations/ca/west-covina", "opening_hours": "Su 10:00 - 23:00;Mo 11:00 - 23:00;Tu 11:00 - 23:00;We 11:00 - 23:00;Th 11:00 - 23:00;Fr 11:00 - 00:00;Sa 11:00 - 00:00", "brand": "BJ's Restaurant & Brewery", "brand:wikidata": "Q4835755"}, "geometry": {"type": "Point", "coordinates": [-117.883555, 34.072474]}},
{"type": "Feature", "id": "GfTw69jUngQfZwFqXOTLBlouwKk=", "properties": {"ref": "587", "@spider": "bj-restaurant", "addr:full": "8785 Villa La Jolla Drive", "addr:city": "San Diego", "addr:state": "CA", "addr:postcode": "92037", "name": "BJ's Restaurants and Brewhouse La Jolla", "phone": "858-257-3640", "website": "https://www.bjsrestaurants.com/locations/ca/la-jolla", "opening_hours": "Su 10:00 - 23:00;Mo 11:00 - 23:00;Tu 11:00 - 23:00;We 11:00 - 23:00;Th 11:00 - 23:00;Fr 11:00 - 00:00;Sa 11:00 - 00:00", "brand": "BJ's Restaurant & Brewery", "brand:wikidata": "Q4835755"}, "geometry": {"type": "Point", "coordinates": [-117.233249, 32.866984]}},
{"type": "Feature", "id": "t4zBNsTNkSFjcIRd_2w2tyrEGOw=", "properties": {"ref": "512", "@spider": "bj-restaurant", "addr:full": "22022 El Paseo", "addr:city": "Rancho Santa Margarita", "addr:state": "CA", "addr:postcode": "92688", "name": "BJ's Restaurants and Brewhouse Rancho Santa Margarita", "phone": "949-835-1890", "website": "https://www.bjsrestaurants.com/locations/ca/rancho-santa-margarita", "opening_hours": "Su 10:00 - 23:00;Mo 11:00 - 23:00;Tu 11:00 - 23:00;We 11:00 - 23:00;Th 11:00 - 23:00;Fr 11:00 - 00:00;Sa 11:00 - 00:00", "brand": "BJ's Restaurant & Brewery", "brand:wikidata": "Q4835755"}, "geometry": {"type": "Point", "coordinates": [-117.594315, 33.643334]}},
{"type": "Feature", "id": "uKopHBpV0EzfF_wRt77u8UM8NxU=", "properties": {"ref": "482", "@spider": "bj-restaurant", "addr:full": "555 Broadway Suite 1019", "addr:city": "Chula Vista", "addr:state": "CA", "addr:postcode": "91910", "name": "BJ's Restaurants and Brewhouse Chula Vista", "phone": "619-591-2490", "website": "https://www.bjsrestaurants.com/locations/ca/chula-vista", "opening_hours": "Su 10:00 - 23:00;Mo 11:00 - 23:00;Tu 11:00 - 23:00;We 11:00 - 23:00;Th 11:00 - 23:00;Fr 11:00 - 00:00;Sa 11:00 - 00:00", "brand": "BJ's Restaurant & Brewery", "brand:wikidata": "Q4835755"}, "geometry": {"type": "Point", "coordinates": [-117.088855, 32.628989]}},
{"type": "Feature", "id": "ZKXedixWKXZO1IpW66qVmSvKGsU=", "properties": {"ref": "483", "@spider": "bj-restaurant", "addr:full": "4585 Chino Hills Pkwy", "addr:city": "Chino Hills", "addr:state": "CA", "addr:postcode": "91709", "name": "BJ's Restaurants and Brewhouse Chino Hills", "phone": "909-993-5960", "website": "https://www.bjsrestaurants.com/locations/ca/chino-hills", "opening_hours": "Su 10:00 - 23:00;Mo 11:00 - 23:00;Tu 11:00 - 23:00;We 11:00 - 23:00;Th 11:00 - 23:00;Fr 11:00 - 00:00;Sa 11:00 - 00:00", "brand": "BJ's Restaurant & Brewery", "brand:wikidata": "Q4835755"}, "geometry": {"type": "Point", "coordinates": [-117.704553, 33.982407]}},
{"type": "Feature", "id": "kc7xTR5JStx1x-erW6BGj8RbSIg=", "properties": {"ref": "489", "@spider": "bj-restaurant", "addr:full": "5613 Paseo Del Norte", "addr:city": "Carlsbad", "addr:state": "CA", "addr:postcode": "92008", "name": "BJ's Restaurants and Brewhouse Carlsbad", "phone": "760-579-4440", "website": "https://www.bjsrestaurants.com/locations/ca/carlsbad", "opening_hours": "Su 10:00 - 23:00;Mo 11:00 - 23:00;Tu 11:00 - 23:00;We 11:00 - 23:00;Th 11:00 - 23:00;Fr 11:00 - 00:00;Sa 11:00 - 00:00", "brand": "BJ's Restaurant & Brewery", "brand:wikidata": "Q4835755"}, "geometry": {"type": "Point", "coordinates": [-117.324024, 33.127135]}},
{"type": "Feature", "id": "qAhnuQ4gWDNsPnSpqKW7OTZKYdo=", "properties": {"ref": "544", "@spider": "bj-restaurant", "addr:full": "1370 Frazee Rd.", "addr:city": "San Diego", "addr:state": "CA", "addr:postcode": "92108", "name": "BJ's Restaurants and Brewhouse Mission Valley", "phone": "619-814-6350", "website": "https://www.bjsrestaurants.com/locations/ca/mission-valley", "opening_hours": "Su 10:00 - 23:00;Mo 11:00 - 23:00;Tu 11:00 - 23:00;We 11:00 - 23:00;Th 11:00 - 23:00;Fr 11:00 - 00:00;Sa 11:00 - 00:00", "brand": "BJ's Restaurant & Brewery", "brand:wikidata": "Q4835755"}, "geometry": {"type": "Point", "coordinates": [-117.157354, 32.772012]}},
{"type": "Feature", "id": "eZ_LajGNlptG0MHUJIbagWmaHM0=", "properties": {"ref": "444", "@spider": "bj-restaurant", "addr:full": "2520 Tuscany Rd.", "addr:city": "Corona", "addr:state": "CA", "addr:postcode": "92881", "name": "BJ's Restaurants and Brewhouse Corona", "phone": "951-271-3610", "website": "https://www.bjsrestaurants.com/locations/ca/corona", "opening_hours": "Su 10:00 - 23:00;Mo 11:00 - 23:00;Tu 11:00 - 23:00;We 11:00 - 23:00;Th 11:00 - 23:00;Fr 11:00 - 00:00;Sa 11:00 - 00:00", "brand": "BJ's Restaurant & Brewery", "brand:wikidata": "Q4835755"}, "geometry": {"type": "Point", "coordinates": [-117.517218, 33.824603]}},
{"type": "Feature", "id": "oWQMWvaqzL1PU8eQUYxfPR6MENk=", "properties": {"ref": "417", "@spider": "bj-restaurant", "addr:full": "5500 Grossmont Center Drive", "addr:city": "La Mesa", "addr:state": "CA", "addr:postcode": "91942", "name": "BJ's Restaurants and Brewhouse La Mesa", "phone": "619-589-7222", "website": "https://www.bjsrestaurants.com/locations/ca/la-mesa", "opening_hours": "Su 10:00 - 23:00;Mo 11:00 - 23:00;Tu 11:00 - 23:00;We 11:00 - 23:00;Th 11:00 - 23:00;Fr 11:00 - 00:00;Sa 11:00 - 00:00", "brand": "BJ's Restaurant & Brewery", "brand:wikidata": "Q4835755"}, "geometry": {"type": "Point", "coordinates": [-117.010379, 32.779941]}},
{"type": "Feature", "id": "0V2dQempzrRs6oiAqV_BmdhBFi4=", "properties": {"ref": "433", "@spider": "bj-restaurant", "addr:full": "11520 4th Street", "addr:city": "Rancho Cucamonga", "addr:state": "CA", "addr:postcode": "91730", "name": "BJ's Restaurants and Brewhouse Rancho Cucamonga", "phone": "909-581-6750", "website": "https://www.bjsrestaurants.com/locations/ca/rancho-cucamonga", "opening_hours": "Su 10:00 - 23:00;Mo 11:00 - 23:00;Tu 11:00 - 23:00;We 11:00 - 23:00;Th 11:00 - 23:00;Fr 11:00 - 00:00;Sa 11:00 - 00:00", "brand": "BJ's Restaurant & Brewery", "brand:wikidata": "Q4835755"}, "geometry": {"type": "Point", "coordinates": [-117.553361, 34.077549]}},
{"type": "Feature", "id": "T4XwNT_9i-8ptWWTwSE_pollcNQ=", "properties": {"ref": "456", "@spider": "bj-restaurant", "addr:full": "26500 Ynez Road", "addr:city": "Temecula", "addr:state": "CA", "addr:postcode": "92591", "name": "BJ's Restaurants and Brewhouse Temecula", "phone": "951-252-8370", "website": "https://www.bjsrestaurants.com/locations/ca/temecula", "opening_hours": "Su 10:00 - 23:00;Mo 11:00 - 23:00;Tu 11:00 - 23:00;We 11:00 - 23:00;Th 11:00 - 23:00;Fr 11:00 - 00:00;Sa 11:00 - 00:00", "brand": "BJ's Restaurant & Brewery", "brand:wikidata": "Q4835755"}, "geometry": {"type": "Point", "coordinates": [-117.156105, 33.519728]}},
{"type": "Feature", "id": "_Zmu4wO_5UkBuGEM_6O-WmgzxNY=", "properties": {"ref": "497", "@spider": "bj-restaurant", "addr:full": "204 E. Via Rancho Parkway", "addr:city": "Escondido", "addr:state": "CA", "addr:postcode": "92025", "name": "BJ's Restaurants and Brewhouse Escondido", "phone": "760-466-0700", "website": "https://www.bjsrestaurants.com/locations/ca/escondido", "opening_hours": "Su 10:00 - 23:00;Mo 11:00 - 23:00;Tu 11:00 - 23:00;We 11:00 - 23:00;Th 11:00 - 23:00;Fr 11:00 - 00:00;Sa 11:00 - 00:00", "brand": "BJ's Restaurant & Brewery", "brand:wikidata": "Q4835755"}, "geometry": {"type": "Point", "coordinates": [-117.06863, 33.070137]}},
{"type": "Feature", "id": "YRnC_b7DKZt9sCg5U1zefsnv6MY=", "properties": {"ref": "531", "@spider": "bj-restaurant", "addr:full": "30208 Haun Road", "addr:city": "Menifee", "addr:state": "CA", "addr:postcode": "92584", "name": "BJ's Restaurants and Brewhouse Menifee", "phone": "951-566-9935", "website": "https://www.bjsrestaurants.com/locations/ca/menifee", "opening_hours": "Su 10:00 - 23:00;Mo 11:00 - 23:00;Tu 11:00 - 23:00;We 11:00 - 23:00;Th 11:00 - 23:00;Fr 11:00 - 00:00;Sa 11:00 - 00:00", "brand": "BJ's Restaurant & Brewery", "brand:wikidata": "Q4835755"}, "geometry": {"type": "Point", "coordinates": [-117.17512, 33.681649]}},
{"type": "Feature", "id": "fMOFKH2K-55f6DkGidqenI5dm2E=", "properties": {"ref": "434", "@spider": "bj-restaurant", "addr:full": "1045 E. Harriman Place", "addr:city": "San Bernardino", "addr:state": "CA", "addr:postcode": "92408", "name": "BJ's Restaurants and Brewhouse San Bernardino", "phone": "909-380-7100", "website": "https://www.bjsrestaurants.com/locations/ca/san-bernardino", "opening_hours": "Su 10:00 - 23:00;Mo 11:00 - 23:00;Tu 11:00 - 23:00;We 11:00 - 23:00;Th 11:00 - 23:00;Fr 11:00 - 00:00;Sa 11:00 - 00:00", "brand": "BJ's Restaurant & Brewery", "brand:wikidata": "Q4835755"}, "geometry": {"type": "Point", "coordinates": [-117.264659, 34.064981]}},
{"type": "Feature", "id": "VEWMbzlBTTD8COCHvOQAhHHcs4M=", "properties": {"ref": "441", "@spider": "bj-restaurant", "addr:full": "22920 Centerpoint Drive", "addr:city": "Moreno Valley", "addr:state": "CA", "addr:postcode": "92553", "name": "BJ's Restaurants and Brewhouse Moreno Valley", "phone": "951-571-9370", "website": "https://www.bjsrestaurants.com/locations/ca/moreno-valley", "opening_hours": "Su 10:00 - 23:00;Mo 11:00 - 23:00;Tu 11:00 - 23:00;We 11:00 - 23:00;Th 11:00 - 23:00;Fr 11:00 - 00:00;Sa 11:00 - 00:00", "brand": "BJ's Restaurant & Brewery", "brand:wikidata": "Q4835755"}, "geometry": {"type": "Point", "coordinates": [-117.2625, 33.939445]}},
{"type": "Feature", "id": "Bnx65VqubG3NZ4rexZpiWk8AbDo=", "properties": {"ref": "593", "@spider": "bj-restaurant", "addr:full": "3924 Lenox Avenue", "addr:city": "Charlottesville", "addr:state": "VA", "addr:postcode": "22901", "name": "BJ's Restaurants and Brewhouse Charlottesville", "phone": "434-422-5170", "website": "https://www.bjsrestaurants.com/locations/va/charlottesville", "opening_hours": "Su 11:00 - 23:00;Mo 11:00 - 23:00;Tu 11:00 - 23:00;We 11:00 - 23:00;Th 11:00 - 23:00;Fr 11:00 - 23:00;Sa 11:00 - 23:00", "brand": "BJ's Restaurant & Brewery", "brand:wikidata": "Q4835755"}, "geometry": {"type": "Point", "coordinates": [-78.487877, 38.067038]}},
{"type": "Feature", "id": "I3ex2PVguMYOAnyBma97uUqxBM8=", "properties": {"ref": "564", "@spider": "bj-restaurant", "addr:full": "12010 West Broad St", "addr:city": "Henrico", "addr:state": "VA", "addr:postcode": "23233", "name": "BJ's Restaurants and Brewhouse Richmond", "phone": "804-298-2950", "website": "https://www.bjsrestaurants.com/locations/va/richmond", "opening_hours": "Su 11:00 - 23:00;Mo 11:00 - 23:00;Tu 11:00 - 23:00;We 11:00 - 23:00;Th 11:00 - 23:00;Fr 11:00 - 00:00;Sa 11:00 - 00:00", "brand": "BJ's Restaurant & Brewery", "brand:wikidata": "Q4835755"}, "geometry": {"type": "Point", "coordinates": [-77.629433, 37.657459]}},
{"type": "Feature", "id": "slILwxauJU0wzeh0QAKpQqMLgrc=", "properties": {"ref": "583", "@spider": "bj-restaurant", "addr:full": "11600 Amargosa Road", "addr:city": "Victorville", "addr:state": "CA", "addr:postcode": "92392", "name": "BJ's Restaurants and Brewhouse Victorville", "phone": "442-600-2840", "website": "https://www.bjsrestaurants.com/locations/ca/victorville", "opening_hours": "Su 10:00 - 23:00;Mo 11:00 - 23:00;Tu 11:00 - 23:00;We 11:00 - 23:00;Th 11:00 - 23:00;Fr 11:00 - 00:00;Sa 11:00 - 00:00", "brand": "BJ's Restaurant & Brewery", "brand:wikidata": "Q4835755"}, "geometry": {"type": "Point", "coordinates": [-117.355296, 34.459396]}},
{"type": "Feature", "id": "vCun_atFLQeOot2xiLtbisim-x8=", "properties": {"ref": "600", "@spider": "bj-restaurant", "addr:full": "1861 Carl D Silver Pkwy", "addr:city": "Fredericksburg", "addr:state": "VA", "addr:postcode": "22401", "name": "BJ's Restaurants and Brewhouse Fredericksburg", "phone": "540-736-4710", "website": "https://www.bjsrestaurants.com/locations/va/fredericksburg", "opening_hours": "Su 11:00 - 23:00;Mo 11:00 - 23:00;Tu 11:00 - 23:00;We 11:00 - 23:00;Th 11:00 - 23:00;Fr 11:00 - 00:00;Sa 11:00 - 00:00", "brand": "BJ's Restaurant & Brewery", "brand:wikidata": "Q4835755"}, "geometry": {"type": "Point", "coordinates": [-77.510935, 38.307795]}},
{"type": "Feature", "id": "XXcP-rHs-TIt1I-xEYc7YPLFn7k=", "properties": {"ref": "537", "@spider": "bj-restaurant", "addr:full": "8027 Leesburg Pike Suite 100", "addr:city": "Vienna", "addr:state": "VA", "addr:postcode": "22182", "name": "BJ's Restaurants and Brewhouse Vienna", "phone": "703-356-7305", "website": "https://www.bjsrestaurants.com/locations/va/vienna", "opening_hours": "Su 11:00 - 23:00;Mo 11:00 - 23:00;Tu 11:00 - 23:00;We 11:00 - 23:00;Th 11:00 - 23:00;Fr 11:00 - 00:00;Sa 11:00 - 00:00", "brand": "BJ's Restaurant & Brewery", "brand:wikidata": "Q4835755"}, "geometry": {"type": "Point", "coordinates": [-77.222576, 38.913199]}},
{"type": "Feature", "id": "z4ol5zGdTFp-oAV02S8cHROoImY=", "properties": {"ref": "552", "@spider": "bj-restaurant", "addr:full": "13930 Promenade Commons St.", "addr:city": "Gainesville", "addr:state": "VA", "addr:postcode": "20155", "name": "BJ's Restaurants and Brewhouse Virginia Gateway", "phone": "571-222-6950", "website": "https://www.bjsrestaurants.com/locations/va/virginia-gateway", "opening_hours": "Su 11:00 - 23:00;Mo 11:00 - 23:00;Tu 11:00 - 23:00;We 11:00 - 23:00;Th 11:00 - 23:00;Fr 11:00 - 00:00;Sa 11:00 - 00:00", "brand": "BJ's Restaurant & Brewery", "brand:wikidata": "Q4835755"}, "geometry": {"type": "Point", "coordinates": [-77.607474, 38.789628]}},
{"type": "Feature", "id": "JhV89nxhJW1YVv0Y_4HsBkeoDxY=", "properties": {"ref": "536", "@spider": "bj-restaurant", "addr:full": "3703 9th St.", "addr:city": "Puyallup", "addr:state": "WA", "addr:postcode": "98373", "name": "BJ's Restaurants and Brewhouse Puyallup", "phone": "253-848-4000", "website": "https://www.bjsrestaurants.com/locations/wa/puyallup", "opening_hours": "Su 11:00 - 23:00;Mo 11:00 - 23:00;Tu 11:00 - 23:00;We 11:00 - 23:00;Th 11:00 - 23:00;Fr 11:00 - 00:00;Sa 11:00 - 00:00", "brand": "BJ's Restaurant & Brewery", "brand:wikidata": "Q4835755"}, "geometry": {"type": "Point", "coordinates": [-122.30293, 47.156968]}},
{"type": "Feature", "id": "F9sL7O6JNXCyslDNqeeCKH8lANc=", "properties": {"ref": "535", "@spider": "bj-restaurant", "addr:full": "7211 166th Ave. NE", "addr:city": "Redmond", "addr:state": "WA", "addr:postcode": "98052", "name": "BJ's Restaurants and Brewhouse Redmond", "phone": "425-376-1560", "website": "https://www.bjsrestaurants.com/locations/wa/redmond", "opening_hours": "Su 11:00 - 23:00;Mo 11:00 - 23:00;Tu 11:00 - 23:00;We 11:00 - 23:00;Th 11:00 - 23:00;Fr 11:00 - 00:00;Sa 11:00 - 00:00", "brand": "BJ's Restaurant & Brewery", "brand:wikidata": "Q4835755"}, "geometry": {"type": "Point", "coordinates": [-122.119592, 47.668776]}},
{"type": "Feature", "id": "qNhww5jvmRKHvlE7UqdlVIjHgMY=", "properties": {"ref": "479", "@spider": "bj-restaurant", "addr:full": "1159 Southcenter Mall", "addr:city": "Tukwila", "addr:state": "WA", "addr:postcode": "98188", "name": "BJ's Restaurants and Brewhouse Southcenter Mall", "phone": "206-439-7500", "website": "https://www.bjsrestaurants.com/locations/wa/southcenter-mall", "opening_hours": "Su 11:00 - 23:00;Mo 11:00 - 23:00;Tu 11:00 - 23:00;We 11:00 - 23:00;Th 11:00 - 23:00;Fr 11:00 - 00:00;Sa 11:00 - 00:00", "brand": "BJ's Restaurant & Brewery", "brand:wikidata": "Q4835755"}, "geometry": {"type": "Point", "coordinates": [-122.261114, 47.459814]}},
{"type": "Feature", "id": "m_X9qd8OwyRIxJ9UtfJapz1uWew=", "properties": {"ref": "473", "@spider": "bj-restaurant", "addr:full": "9748 West Northern Ave", "addr:city": "Peoria", "addr:state": "AZ", "addr:postcode": "85345", "name": "BJ's Restaurants and Brewhouse Peoria", "phone": "623-772-6470", "website": "https://www.bjsrestaurants.com/locations/az/peoria", "opening_hours": "Su 11:00 - 23:00;Mo 11:00 - 23:00;Tu 11:00 - 23:00;We 11:00 - 23:00;Th 11:00 - 23:00;Fr 11:00 - 00:00;Sa 11:00 - 00:00", "brand": "BJ's Restaurant & Brewery", "brand:wikidata": "Q4835755"}, "geometry": {"type": "Point", "coordinates": [-112.269247, 33.551939]}},
{"type": "Feature", "id": "rPdE-D_ZCAVxlE695P0nVh-o3BI=", "properties": {"ref": "447", "@spider": "bj-restaurant", "addr:full": "21001 North Tatum Blvd.", "addr:city": "Phoenix", "addr:state": "AZ", "addr:postcode": "85050", "name": "BJ's Restaurants and Brewhouse Desert Ridge", "phone": "480-538-0555", "website": "https://www.bjsrestaurants.com/locations/az/desert-ridge", "opening_hours": "Su 11:00 - 23:00;Mo 11:00 - 23:00;Tu 11:00 - 23:00;We 11:00 - 23:00;Th 11:00 - 23:00;Fr 11:00 - 23:00;Sa 11:00 - 23:00", "brand": "BJ's Restaurant & Brewery", "brand:wikidata": "Q4835755"}, "geometry": {"type": "Point", "coordinates": [-111.976552, 33.677332]}},
{"type": "Feature", "id": "bl3ZQA3OeHNdzqMkglUBRwvdO2o=", "properties": {"ref": "422", "@spider": "bj-restaurant", "addr:full": "3155 West Chandler Boulevard", "addr:city": "Chandler", "addr:state": "AZ", "addr:postcode": "85226", "name": "BJ's Restaurants and Brewhouse Chandler", "phone": "480-917-0631", "website": "https://www.bjsrestaurants.com/locations/az/chandler", "opening_hours": "Su 11:00 - 22:00;Mo 11:00 - 22:00;Tu 11:00 - 22:00;We 11:00 - 22:00;Th 11:00 - 22:00;Fr 11:00 - 23:00;Sa 11:00 - 23:00", "brand": "BJ's Restaurant & Brewery", "brand:wikidata": "Q4835755"}, "geometry": {"type": "Point", "coordinates": [-111.898163, 33.299201]}},
{"type": "Feature", "id": "_eb6TpbvV4u29XXoOVGpufikQm4=", "properties": {"ref": "445", "@spider": "bj-restaurant", "addr:full": "4270 North Oracle Road", "addr:city": "Tucson", "addr:state": "AZ", "addr:postcode": "85705", "name": "BJ's Restaurants and Brewhouse Tucson Oracle", "phone": "520-690-1900", "website": "https://www.bjsrestaurants.com/locations/az/tucson-oracle", "opening_hours": "Su 11:00 - 22:00;Mo 11:00 - 22:00;Tu 11:00 - 22:00;We 11:00 - 22:00;Th 11:00 - 22:00;Fr 11:00 - 23:00;Sa 11:00 - 23:00", "brand": "BJ's Restaurant & Brewery", "brand:wikidata": "Q4835755"}, "geometry": {"type": "Point", "coordinates": [-110.97769, 32.284311]}},
{"type": "Feature", "id": "fFrvDzpOIaSd_mMCO_NpFVKcwv4=", "properties": {"ref": "619", "@spider": "bj-restaurant", "addr:full": "14245 W Colfax Avenue", "addr:city": "Lakewood", "addr:state": "CO", "addr:postcode": "80401", "name": "BJ's Restaurants and Brewhouse Denver West", "phone": "720-927-4260", "website": "https://www.bjsrestaurants.com/locations/co/denver-west", "opening_hours": "Su 11:00 - 22:00;Mo 11:00 - 22:00;Tu 11:00 - 22:00;We 11:00 - 22:00;Th 11:00 - 22:00;Fr 11:00 - 23:00;Sa 11:00 - 23:00", "brand": "BJ's Restaurant & Brewery", "brand:wikidata": "Q4835755"}, "geometry": {"type": "Point", "coordinates": [-105.159782, 39.735702]}},
{"type": "Feature", "id": "PKZcfdVNGE-9bTHqiDUG_1cQMP4=", "properties": {"ref": "446", "@spider": "bj-restaurant", "addr:full": "6622 E. Superstition Springs Blvd.", "addr:city": "Mesa", "addr:state": "AZ", "addr:postcode": "85206", "name": "BJ's Restaurants and Brewhouse Mesa", "phone": "480-324-1675", "website": "https://www.bjsrestaurants.com/locations/az/mesa", "opening_hours": "Su 11:00 - 22:00;Mo 11:00 - 22:00;Tu 11:00 - 22:00;We 11:00 - 22:00;Th 11:00 - 22:00;Fr 11:00 - 23:00;Sa 11:00 - 23:00", "brand": "BJ's Restaurant & Brewery", "brand:wikidata": "Q4835755"}, "geometry": {"type": "Point", "coordinates": [-111.689243, 33.385447]}},
{"type": "Feature", "id": "Gx2IKzzOTi7VNZbtzIDc21pjSuY=", "properties": {"ref": "571", "@spider": "bj-restaurant", "addr:full": "3941 McCain Blvd.", "addr:city": "North Little Rock", "addr:state": "AR", "addr:postcode": "72116", "name": "BJ's Restaurants and Brewhouse North Little Rock", "phone": "501-502-0300", "website": "https://www.bjsrestaurants.com/locations/ar/north-little-rock", "opening_hours": "Su 11:00 - 23:00;Mo 11:00 - 23:00;Tu 11:00 - 23:00;We 11:00 - 23:00;Th 11:00 - 23:00;Fr 11:00 - 00:00;Sa 11:00 - 00:00", "brand": "BJ's Restaurant & Brewery", "brand:wikidata": "Q4835755"}, "geometry": {"type": "Point", "coordinates": [-92.226135, 34.790524]}},
{"type": "Feature", "id": "5zAq7WqCfvbkTMfuKfSPq5yS5Ms=", "properties": {"ref": "501", "@spider": "bj-restaurant", "addr:full": "5510 East Broadway Blvd.", "addr:city": "Tucson", "addr:state": "AZ", "addr:postcode": "85711", "name": "BJ's Restaurants and Brewhouse Tucson Broadway", "phone": "520-512-0330", "website": "https://www.bjsrestaurants.com/locations/az/tucson-broadway", "opening_hours": "Su 11:00 - 22:00;Mo 11:00 - 22:00;Tu 11:00 - 22:00;We 11:00 - 22:00;Th 11:00 - 22:00;Fr 11:00 - 23:00;Sa 11:00 - 23:00", "brand": "BJ's Restaurant & Brewery", "brand:wikidata": "Q4835755"}, "geometry": {"type": "Point", "coordinates": [-110.874647, 32.221279]}},
{"type": "Feature", "id": "n0OXygzn8G_vIlrvbV3Fe7p-DfI=", "properties": {"ref": "449", "@spider": "bj-restaurant", "addr:full": "10446 Town Center Drive", "addr:city": "Westminster", "addr:state": "CO", "addr:postcode": "80021", "name": "BJ's Restaurants and Brewhouse Westminster", "phone": "303-389-6444", "website": "https://www.bjsrestaurants.com/locations/co/westminster", "opening_hours": "Su 11:00 - 22:00;Mo 11:00 - 22:00;Tu 11:00 - 22:00;We 11:00 - 22:00;Th 11:00 - 22:00;Fr 11:00 - 23:00;Sa 11:00 - 23:00", "brand": "BJ's Restaurant & Brewery", "brand:wikidata": "Q4835755"}, "geometry": {"type": "Point", "coordinates": [-105.074415, 39.888122]}},
{"type": "Feature", "id": "vsbye7BNNC7JJjtds9HHjpijDS0=", "properties": {"ref": "502", "@spider": "bj-restaurant", "addr:full": "5150 North Nevada Avenue", "addr:city": "Colorado Springs", "addr:state": "CO", "addr:postcode": "80918", "name": "BJ's Restaurants and Brewhouse Colorado Springs", "phone": "719-268-0505", "website": "https://www.bjsrestaurants.com/locations/co/colorado-springs", "opening_hours": "Su 11:00 - 23:00;Mo 11:00 - 23:00;Tu 11:00 - 23:00;We 11:00 - 23:00;Th 11:00 - 23:00;Fr 11:00 - 00:00;Sa 11:00 - 00:00", "brand": "BJ's Restaurant & Brewery", "brand:wikidata": "Q4835755"}, "geometry": {"type": "Point", "coordinates": [-104.818003, 38.903509]}},
{"type": "Feature", "id": "7Ok2_Pg4DTamitKhmHeBxux_nws=", "properties": {"ref": "539", "@spider": "bj-restaurant", "addr:full": "2670 E. Harmony Rd.", "addr:city": "Fort Collins", "addr:state": "CO", "addr:postcode": "80528", "name": "BJ's Restaurants and Brewhouse Fort Collins", "phone": "970-282-3700", "website": "https://www.bjsrestaurants.com/locations/co/fort-collins", "opening_hours": "Su 11:00 - 22:00;Mo 11:00 - 22:00;Tu 11:00 - 22:00;We 11:00 - 22:00;Th 11:00 - 22:00;Fr 11:00 - 23:00;Sa 11:00 - 23:00", "brand": "BJ's Restaurant & Brewery", "brand:wikidata": "Q4835755"}, "geometry": {"type": "Point", "coordinates": [-105.027506, 40.52422]}},
{"type": "Feature", "id": "TCKe_h4-qbtoUiK_Ui4jDk5ucos=", "properties": {"ref": "453", "@spider": "bj-restaurant", "addr:full": "14442 E. Cedar Ave.", "addr:city": "Aurora", "addr:state": "CO", "addr:postcode": "80012", "name": "BJ's Restaurants and Brewhouse Aurora", "phone": "303-366-3550", "website": "https://www.bjsrestaurants.com/locations/co/aurora", "opening_hours": "Su 11:00 - 22:00;Mo 11:00 - 22:00;Tu 11:00 - 22:00;We 11:00 - 22:00;Th 11:00 - 22:00;Fr 11:00 - 23:00;Sa 11:00 - 23:00", "brand": "BJ's Restaurant & Brewery", "brand:wikidata": "Q4835755"}, "geometry": {"type": "Point", "coordinates": [-104.819759, 39.712339]}},
{"type": "Feature", "id": "33PrH3Zg2jKIlBuMKnY2WnuhLYs=", "properties": {"ref": "530", "@spider": "bj-restaurant", "addr:full": "8888 SW 136th Street", "addr:city": "Miami", "addr:state": "FL", "addr:postcode": "33176", "name": "BJ's Restaurants and Brewhouse Miami Falls", "phone": "305-251-7550", "website": "https://www.bjsrestaurants.com/locations/fl/miami-falls", "opening_hours": "Su 11:00 - 23:00;Mo 11:00 - 23:00;Tu 11:00 - 23:00;We 11:00 - 23:00;Th 11:00 - 23:00;Fr 11:00 - 00:00;Sa 11:00 - 00:00", "brand": "BJ's Restaurant & Brewery", "brand:wikidata": "Q4835755"}, "geometry": {"type": "Point", "coordinates": [-80.337119, 25.643767]}},
{"type": "Feature", "id": "5BRUgBymn_3WLBBbVVgxt0AjOm8=", "properties": {"ref": "565", "@spider": "bj-restaurant", "addr:full": "9960 University Plaza Dr.", "addr:city": "Fort Myers", "addr:state": "FL", "addr:postcode": "33913", "name": "BJ's Restaurants and Brewhouse Fort Myers", "phone": "239-204-5760", "website": "https://www.bjsrestaurants.com/locations/fl/fort-myers", "opening_hours": "Su 11:00 - 23:00;Mo 11:00 - 23:00;Tu 11:00 - 23:00;We 11:00 - 23:00;Th 11:00 - 23:00;Fr 11:00 - 00:00;Sa 11:00 - 00:00", "brand": "BJ's Restaurant & Brewery", "brand:wikidata": "Q4835755"}, "geometry": {"type": "Point", "coordinates": [-81.785879, 26.4917]}},
{"type": "Feature", "id": "Xqe2vD2Jt6izwL26w18Rq6ce2t0=", "properties": {"ref": "529", "@spider": "bj-restaurant", "addr:full": "1401 NW 107th Avenue", "addr:city": "Doral", "addr:state": "FL", "addr:postcode": "33172", "name": "BJ's Restaurants and Brewhouse Miami Int. Mall", "phone": "305-463-9750", "website": "https://www.bjsrestaurants.com/locations/fl/miami-int-mall", "opening_hours": "Su 11:00 - 23:00;Mo 11:00 - 23:00;Tu 11:00 - 23:00;We 11:00 - 23:00;Th 11:00 - 23:00;Fr 11:00 - 00:00;Sa 11:00 - 00:00", "brand": "BJ's Restaurant & Brewery", "brand:wikidata": "Q4835755"}, "geometry": {"type": "Point", "coordinates": [-80.368541, 25.78648]}},
{"type": "Feature", "id": "UfcMyQT2NO3ifU02wXvvT8w6TD0=", "properties": {"ref": "510", "@spider": "bj-restaurant", "addr:full": "12100 Pines Blvd Suite C-1", "addr:city": "Pembroke Pines", "addr:state": "FL", "addr:postcode": "33026", "name": "BJ's Restaurants and Brewhouse Pembroke Pines", "phone": "954-430-3545", "website": "https://www.bjsrestaurants.com/locations/fl/pembroke-pines", "opening_hours": "Su 11:00 - 23:00;Mo 11:00 - 23:00;Tu 11:00 - 23:00;We 11:00 - 23:00;Th 11:00 - 23:00;Fr 11:00 - 00:00;Sa 11:00 - 00:00", "brand": "BJ's Restaurant & Brewery", "brand:wikidata": "Q4835755"}, "geometry": {"type": "Point", "coordinates": [-80.309536, 26.007065]}},
{"type": "Feature", "id": "Xa2eo1ivhzefKe3AHih1icDR6yU=", "properties": {"ref": "543", "@spider": "bj-restaurant", "addr:full": "1580 N University Dr", "addr:city": "Coral Springs", "addr:state": "FL", "addr:postcode": "33071", "name": "BJ's Restaurants and Brewhouse Coral Springs", "phone": "954-227-7055", "website": "https://www.bjsrestaurants.com/locations/fl/coral-springs", "opening_hours": "Su 11:00 - 23:00;Mo 11:00 - 23:00;Tu 11:00 - 23:00;We 11:00 - 23:00;Th 11:00 - 23:00;Fr 11:00 - 00:00;Sa 11:00 - 00:00", "brand": "BJ's Restaurant & Brewery", "brand:wikidata": "Q4835755"}, "geometry": {"type": "Point", "coordinates": [-80.254078, 26.250662]}},
{"type": "Feature", "id": "wkmqDXcMOAhaNbR3q6B_UrHIoyM=", "properties": {"ref": "558", "@spider": "bj-restaurant", "addr:full": "1807 Palm Beach Lakes Blvd", "addr:city": "West Palm Beach", "addr:state": "FL", "addr:postcode": "33401", "name": "BJ's Restaurants and Brewhouse West Palm Beach", "phone": "561-693-0450", "website": "https://www.bjsrestaurants.com/locations/fl/west-palm-beach", "opening_hours": "Su 11:00 - 23:00;Mo 11:00 - 23:00;Tu 11:00 - 23:00;We 11:00 - 23:00;Th 11:00 - 23:00;Fr 11:00 - 00:00;Sa 11:00 - 00:00", "brand": "BJ's Restaurant & Brewery", "brand:wikidata": "Q4835755"}, "geometry": {"type": "Point", "coordinates": [-80.086808, 26.72248]}},
{"type": "Feature", "id": "hn8VUQUQ5fErDbbNulJIoMbfxYg=", "properties": {"ref": "460", "@spider": "bj-restaurant", "addr:full": "3800 Park Blvd.", "addr:city": "Pinellas Park", "addr:state": "FL", "addr:postcode": "33781", "name": "BJ's Restaurants and Brewhouse Pinellas Park", "phone": "727-525-4640", "website": "https://www.bjsrestaurants.com/locations/fl/pinellas-park", "opening_hours": "Su 11:00 - 23:00;Mo 11:00 - 23:00;Tu 11:00 - 23:00;We 11:00 - 23:00;Th 11:00 - 23:00;Fr 11:00 - 00:00;Sa 11:00 - 00:00", "brand": "BJ's Restaurant & Brewery", "brand:wikidata": "Q4835755"}, "geometry": {"type": "Point", "coordinates": [-82.686277, 27.838655]}},
{"type": "Feature", "id": "5_lYt8Y1dCzNdUB7T8UH9aT92rI=", "properties": {"ref": "521", "@spider": "bj-restaurant", "addr:full": "27001 US Highway 19N Suite 1160", "addr:city": "Clearwater", "addr:state": "FL", "addr:postcode": "33761", "name": "BJ's Restaurants and Brewhouse Clearwater", "phone": "727-726-8855", "website": "https://www.bjsrestaurants.com/locations/fl/clearwater", "opening_hours": "Su 11:00 - 23:00;Mo 11:00 - 23:00;Tu 11:00 - 23:00;We 11:00 - 23:00;Th 11:00 - 23:00;Fr 11:00 - 23:00;Sa 11:00 - 23:00", "brand": "BJ's Restaurant & Brewery", "brand:wikidata": "Q4835755"}, "geometry": {"type": "Point", "coordinates": [-82.734984, 28.016098]}},
{"type": "Feature", "id": "Rwlx58sCna0eY7lEjZFTk1i_x1Y=", "properties": {"ref": "596", "@spider": "bj-restaurant", "addr:full": "25628 SR 56", "addr:city": "Lutz", "addr:state": "FL", "addr:postcode": "33559", "name": "BJ's Restaurants and Brewhouse Wesley Chapel", "phone": "813-575-1830", "website": "https://www.bjsrestaurants.com/locations/fl/wesley-chapel", "opening_hours": "Su 11:00 - 23:00;Mo 11:00 - 23:00;Tu 11:00 - 23:00;We 11:00 - 23:00;Th 11:00 - 23:00;Fr 11:00 - 00:00;Sa 11:00 - 00:00", "brand": "BJ's Restaurant & Brewery", "brand:wikidata": "Q4835755"}, "geometry": {"type": "Point", "coordinates": [-82.391503, 28.19455]}},
{"type": "Feature", "id": "ScHOQRgrdBzQkL2fIToCru0QrGc=", "properties": {"ref": "584", "@spider": "bj-restaurant", "addr:full": "5108 North 9th Ave", "addr:city": "Pensacola", "addr:state": "FL", "addr:postcode": "32504", "name": "BJ's Restaurants and Brewhouse Pensacola", "phone": "850-512-1480", "website": "https://www.bjsrestaurants.com/locations/fl/pensacola", "opening_hours": "Su 11:00 - 23:00;Mo 11:00 - 23:00;Tu 11:00 - 23:00;We 11:00 - 23:00;Th 11:00 - 23:00;Fr 11:00 - 00:00;Sa 11:00 - 00:00", "brand": "BJ's Restaurant & Brewery", "brand:wikidata": "Q4835755"}, "geometry": {"type": "Point", "coordinates": [-87.210881, 30.47549]}},
{"type": "Feature", "id": "sHBOFQ9Id-PSiT2HeaHWbOPA8Mg=", "properties": {"ref": "467", "@spider": "bj-restaurant", "addr:full": "8002 Citrus Park Town Center", "addr:city": "Citrus Park", "addr:state": "FL", "addr:postcode": "33625", "name": "BJ's Restaurants and Brewhouse Citrus Park", "phone": "813-852-1910", "website": "https://www.bjsrestaurants.com/locations/fl/citrus-park", "opening_hours": "Su 11:00 - 23:00;Mo 11:00 - 23:00;Tu 11:00 - 23:00;We 11:00 - 23:00;Th 11:00 - 23:00;Fr 11:00 - 23:00;Sa 11:00 - 23:00", "brand": "BJ's Restaurant & Brewery", "brand:wikidata": "Q4835755"}, "geometry": {"type": "Point", "coordinates": [-82.576694, 28.068431]}},
{"type": "Feature", "id": "9VA3BYmI7QvhLfvh6X4XjE1I4Zo=", "properties": {"ref": "474", "@spider": "bj-restaurant", "addr:full": "2421 West Osceola Parkway", "addr:city": "Kissimmee", "addr:state": "FL", "addr:postcode": "34741", "name": "BJ's Restaurants and Brewhouse Kissimmee", "phone": "407-932-5245", "website": "https://www.bjsrestaurants.com/locations/fl/kissimmee", "opening_hours": "Su 11:00 - 23:00;Mo 11:00 - 23:00;Tu 11:00 - 23:00;We 11:00 - 23:00;Th 11:00 - 23:00;Fr 11:00 - 00:00;Sa 11:00 - 00:00", "brand": "BJ's Restaurant & Brewery", "brand:wikidata": "Q4835755"}, "geometry": {"type": "Point", "coordinates": [-81.427674, 28.342796]}},
{"type": "Feature", "id": "xkdwhxV4kXIN7lUuONzXr67iwV0=", "properties": {"ref": "546", "@spider": "bj-restaurant", "addr:full": "8761 Vineland Ave", "addr:city": "Orlando", "addr:state": "FL", "addr:postcode": "32821", "name": "BJ's Restaurants and Brewhouse Lake Buena Vista", "phone": "407-827-9105", "website": "https://www.bjsrestaurants.com/locations/fl/lake-buena-vista", "opening_hours": "Su 11:00 - 23:00;Mo 11:00 - 23:00;Tu 11:00 - 23:00;We 11:00 - 23:00;Th 11:00 - 23:00;Fr 11:00 - 00:00;Sa 11:00 - 00:00", "brand": "BJ's Restaurant & Brewery", "brand:wikidata": "Q4835755"}, "geometry": {"type": "Point", "coordinates": [-81.5065, 28.371]}},
{"type": "Feature", "id": "I-u_cd6VgF_WL70xZrFxGcScqV8=", "properties": {"ref": "575", "@spider": "bj-restaurant", "addr:full": "1700 W. New Haven Ave.", "addr:city": "Melbourne", "addr:state": "FL", "addr:postcode": "32904", "name": "BJ's Restaurants and Brewhouse Melbourne", "phone": "321-802-8470", "website": "https://www.bjsrestaurants.com/locations/fl/melbourne", "opening_hours": "Su 11:00 - 23:00;Mo 11:00 - 23:00;Tu 11:00 - 23:00;We 11:00 - 23:00;Th 11:00 - 23:00;Fr 11:00 - 00:00;Sa 11:00 - 00:00", "brand": "BJ's Restaurant & Brewery", "brand:wikidata": "Q4835755"}, "geometry": {"type": "Point", "coordinates": [-80.648515, 28.07897]}},
{"type": "Feature", "id": "_t6LDq75DvnjRC_Y8Ijovpz_GRc=", "properties": {"ref": "557", "@spider": "bj-restaurant", "addr:full": "8103 International Drive", "addr:city": "Orlando", "addr:state": "FL", "addr:postcode": "32819", "name": "BJ's Restaurants and Brewhouse I-Drive Orlando", "phone": "321-732-8190", "website": "https://www.bjsrestaurants.com/locations/fl/i-drive-orlando", "opening_hours": "Su 11:00 - 23:00;Mo 11:00 - 23:00;Tu 11:00 - 23:00;We 11:00 - 23:00;Th 11:00 - 23:00;Fr 11:00 - 00:00;Sa 11:00 - 00:00", "brand": "BJ's Restaurant & Brewery", "brand:wikidata": "Q4835755"}, "geometry": {"type": "Point", "coordinates": [-81.470952, 28.448921]}},
{"type": "Feature", "id": "QeliI0MdgeCdooszOESAO4jDo3g=", "properties": {"ref": "450", "@spider": "bj-restaurant", "addr:full": "4151 Conroy Road", "addr:city": "Orlando", "addr:state": "FL", "addr:postcode": "32839", "name": "BJ's Restaurants and Brewhouse Millenia Mall", "phone": "407-352-0225", "website": "https://www.bjsrestaurants.com/locations/fl/millenia-mall", "opening_hours": "Su 11:00 - 23:00;Mo 11:00 - 23:00;Tu 11:00 - 23:00;We 11:00 - 23:00;Th 11:00 - 23:00;Fr 11:00 - 00:00;Sa 11:00 - 00:00", "brand": "BJ's Restaurant & Brewery", "brand:wikidata": "Q4835755"}, "geometry": {"type": "Point", "coordinates": [-81.428476, 28.488784]}},
{"type": "Feature", "id": "JG75tL0kyDGvx1EHzHexAHMs9s4=", "properties": {"ref": "500", "@spider": "bj-restaurant", "addr:full": "2514 W. International Speedway Blvd", "addr:city": "Daytona Beach", "addr:state": "FL", "addr:postcode": "32114", "name": "BJ's Restaurants and Brewhouse Daytona", "phone": "386-226-2005", "website": "https://www.bjsrestaurants.com/locations/fl/daytona", "opening_hours": "Su 11:00 - 23:00;Mo 11:00 - 23:00;Tu 11:00 - 23:00;We 11:00 - 23:00;Th 11:00 - 23:00;Fr 11:00 - 00:00;Sa 11:00 - 00:00", "brand": "BJ's Restaurant & Brewery", "brand:wikidata": "Q4835755"}, "geometry": {"type": "Point", "coordinates": [-81.081579, 29.178717]}},
{"type": "Feature", "id": "5jNMoyHytufkJPvebDkf7NRNaFU=", "properties": {"ref": "561", "@spider": "bj-restaurant", "addr:full": "8285 Red Bug Lake Road", "addr:city": "Oviedo", "addr:state": "FL", "addr:postcode": "32765", "name": "BJ's Restaurants and Brewhouse Oviedo", "phone": "407-278-2080", "website": "https://www.bjsrestaurants.com/locations/fl/oviedo", "opening_hours": "Su 11:00 - 23:00;Mo 11:00 - 23:00;Tu 11:00 - 23:00;We 11:00 - 23:00;Th 11:00 - 23:00;Fr 11:00 - 00:00;Sa 11:00 - 00:00", "brand": "BJ's Restaurant & Brewery", "brand:wikidata": "Q4835755"}, "geometry": {"type": "Point", "coordinates": [-81.235229, 28.657878]}},
{"type": "Feature", "id": "r6m2DjsyaN0IgX9XabUqVlK_sig=", "properties": {"ref": "486", "@spider": "bj-restaurant", "addr:full": "6611 W. Newberry Road", "addr:city": "Gainesville", "addr:state": "FL", "addr:postcode": "32605", "name": "BJ's Restaurants and Brewhouse Gainesville", "phone": "352-331-8070", "website": "https://www.bjsrestaurants.com/locations/fl/gainesville", "opening_hours": "Su 11:00 - 23:00;Mo 11:00 - 23:00;Tu 11:00 - 23:00;We 11:00 - 23:00;Th 11:00 - 23:00;Fr 11:00 - 00:00;Sa 11:00 - 00:00", "brand": "BJ's Restaurant & Brewery", "brand:wikidata": "Q4835755"}, "geometry": {"type": "Point", "coordinates": [-82.413002, 29.659147]}},
{"type": "Feature", "id": "74Y51C7SXr837iLFFw1gtp85k3A=", "properties": {"ref": "514", "@spider": "bj-restaurant", "addr:full": "4907 Gate Parkway", "addr:city": "Jacksonville", "addr:state": "FL", "addr:postcode": "32246", "name": "BJ's Restaurants and Brewhouse Jacksonville", "phone": "904-998-0460", "website": "https://www.bjsrestaurants.com/locations/fl/jacksonville", "opening_hours": "Su 11:00 - 23:00;Mo 11:00 - 23:00;Tu 11:00 - 23:00;We 11:00 - 23:00;Th 11:00 - 23:00;Fr 11:00 - 00:00;Sa 11:00 - 00:00", "brand": "BJ's Restaurant & Brewery", "brand:wikidata": "Q4835755"}, "geometry": {"type": "Point", "coordinates": [-81.535506, 30.252114]}},
{"type": "Feature", "id": "1Pd11_CMGJir5M7Vk8clE6RBWxM=", "properties": {"ref": "549", "@spider": "bj-restaurant", "addr:full": "1749 Apalachee Pkwy", "addr:city": "Tallahassee", "addr:state": "FL", "addr:postcode": "32301", "name": "BJ's Restaurants and Brewhouse Tallahassee", "phone": "850-216-2010", "website": "https://www.bjsrestaurants.com/locations/fl/tallahassee", "opening_hours": "Su 11:00 - 23:00;Mo 11:00 - 23:00;Tu 11:00 - 23:00;We 11:00 - 23:00;Th 11:00 - 23:00;Fr 11:00 - 00:00;Sa 11:00 - 00:00", "brand": "BJ's Restaurant & Brewery", "brand:wikidata": "Q4835755"}, "geometry": {"type": "Point", "coordinates": [-84.255507, 30.434676]}},
{"type": "Feature", "id": "cg_W84O7BzEn47FBBB7Tv9_grmw=", "properties": {"ref": "573", "@spider": "bj-restaurant", "addr:full": "401 The Bridge Street Suite 120", "addr:city": "Huntsville", "addr:state": "AL", "addr:postcode": "35806", "name": "BJ's Restaurants and Brewhouse Huntsville", "phone": "256-684-8080", "website": "https://www.bjsrestaurants.com/locations/al/huntsville", "opening_hours": "Su 10:00 - 23:00;Mo 11:00 - 23:00;Tu 11:00 - 23:00;We 11:00 - 23:00;Th 11:00 - 23:00;Fr 11:00 - 00:00;Sa 11:00 - 00:00", "brand": "BJ's Restaurant & Brewery", "brand:wikidata": "Q4835755"}, "geometry": {"type": "Point", "coordinates": [-86.673217, 34.715161]}},
{"type": "Feature", "id": "PTds7_IzZm0OyRQEwMmvWGQvcgc=", "properties": {"ref": "620", "@spider": "bj-restaurant", "addr:full": "2757 E. 80th Ave.", "addr:city": "Merrillville", "addr:state": "IN", "addr:postcode": "46410", "name": "BJ's Restaurants and Brewhouse Merrillville", "phone": "219-500-1370", "website": "https://www.bjsrestaurants.com/locations/in/merrillville", "opening_hours": "Su 11:00 - 23:00;Mo 11:00 - 23:00;Tu 11:00 - 23:00;We 11:00 - 23:00;Th 11:00 - 23:00;Fr 11:00 - 00:00;Sa 11:00 - 00:00", "brand": "BJ's Restaurant & Brewery", "brand:wikidata": "Q4835755"}, "geometry": {"type": "Point", "coordinates": [-87.302563, 41.471729]}},
{"type": "Feature", "id": "xLcT40cca6pKeiWxaHCADrk_Pic=", "properties": {"ref": "568", "@spider": "bj-restaurant", "addr:full": "10367 US Route 36", "addr:city": "Avon", "addr:state": "IN", "addr:postcode": "46123", "name": "BJ's Restaurants and Brewhouse Avon", "phone": "317-610-0810", "website": "https://www.bjsrestaurants.com/locations/in/avon", "opening_hours": "Su 11:00 - 23:00;Mo 11:00 - 23:00;Tu 11:00 - 23:00;We 11:00 - 23:00;Th 11:00 - 23:00;Fr 11:00 - 00:00;Sa 11:00 - 00:00", "brand": "BJ's Restaurant & Brewery", "brand:wikidata": "Q4835755"}, "geometry": {"type": "Point", "coordinates": [-86.339371, 39.764016]}},
{"type": "Feature", "id": "O4pHEyohbTCtO1JWNusugCil3Y8=", "properties": {"ref": "599", "@spider": "bj-restaurant", "addr:full": "411 S College Mall Road", "addr:city": "Bloomington", "addr:state": "IN", "addr:postcode": "47403", "name": "BJ's Restaurants and Brewhouse Bloomington", "phone": "812-650-0740", "website": "https://www.bjsrestaurants.com/locations/in/bloomington", "opening_hours": "Su 11:00 - 23:00;Mo 11:00 - 23:00;Tu 11:00 - 23:00;We 11:00 - 23:00;Th 11:00 - 23:00;Fr 11:00 - 00:00;Sa 11:00 - 00:00", "brand": "BJ's Restaurant & Brewery", "brand:wikidata": "Q4835755"}, "geometry": {"type": "Point", "coordinates": [-86.49799, 39.163047]}},
{"type": "Feature", "id": "fpQVcAYFCObiJGTLqhADvpKr4jM=", "properties": {"ref": "476", "@spider": "bj-restaurant", "addr:full": "1251 US Highway 31 North", "addr:city": "Greenwood", "addr:state": "IN", "addr:postcode": "46142", "name": "BJ's Restaurants and Brewhouse Greenwood", "phone": "317-881-3500", "website": "https://www.bjsrestaurants.com/locations/in/greenwood", "opening_hours": "Su 11:00 - 22:00;Mo 11:00 - 23:00;Tu 11:00 - 23:00;We 11:00 - 23:00;Th 11:00 - 23:00;Fr 11:00 - 00:00;Sa 11:00 - 00:00", "brand": "BJ's Restaurant & Brewery", "brand:wikidata": "Q4835755"}, "geometry": {"type": "Point", "coordinates": [-86.121521, 39.634228]}},
{"type": "Feature", "id": "8PT6fMwvfkCVghHKIj05MhBmB2o=", "properties": {"ref": "597", "@spider": "bj-restaurant", "addr:full": "13003 Campus Parkway", "addr:city": "Noblesville", "addr:state": "IN", "addr:postcode": "46060", "name": "BJ's Restaurants and Brewhouse Noblesville", "phone": "317-565-6500", "website": "https://www.bjsrestaurants.com/locations/in/noblesville", "opening_hours": "Su 11:00 - 23:00;Mo 11:00 - 23:00;Tu 11:00 - 23:00;We 11:00 - 23:00;Th 11:00 - 23:00;Fr 11:00 - 00:00;Sa 11:00 - 00:00", "brand": "BJ's Restaurant & Brewery", "brand:wikidata": "Q4835755"}, "geometry": {"type": "Point", "coordinates": [-85.933374, 39.996237]}},
{"type": "Feature", "id": "qmwfq9z0tPNWDFPL6aq5HeNiTys=", "properties": {"ref": "526", "@spider": "bj-restaurant", "addr:full": "7960 East Kellogg", "addr:city": "Wichita", "addr:state": "KS", "addr:postcode": "67207", "name": "BJ's Restaurants and Brewhouse Wichita", "phone": "316-687-0250", "website": "https://www.bjsrestaurants.com/locations/ks/wichita", "opening_hours": "Su 11:00 - 23:00;Mo 11:00 - 23:00;Tu 11:00 - 23:00;We 11:00 - 23:00;Th 11:00 - 23:00;Fr 11:00 - 00:00;Sa 11:00 - 00:00", "brand": "BJ's Restaurant & Brewery", "brand:wikidata": "Q4835755"}, "geometry": {"type": "Point", "coordinates": [-97.245147, 37.680121]}},
{"type": "Feature", "id": "1Y3InHUysHa9MgAqSEHuF3Btnkw=", "properties": {"ref": "601", "@spider": "bj-restaurant", "addr:full": "245 W Coliseum Blvd", "addr:city": "Fort Wayne", "addr:state": "IN", "addr:postcode": "46825", "name": "BJ's Restaurants and Brewhouse Fort Wayne", "phone": "260-999-5310", "website": "https://www.bjsrestaurants.com/locations/in/fort-wayne", "opening_hours": "Su 11:00 - 23:00;Mo 11:00 - 23:00;Tu 11:00 - 23:00;We 11:00 - 23:00;Th 11:00 - 23:00;Fr 11:00 - 00:00;Sa 11:00 - 00:00", "brand": "BJ's Restaurant & Brewery", "brand:wikidata": "Q4835755"}, "geometry": {"type": "Point", "coordinates": [-85.142101, 41.118073]}},
{"type": "Feature", "id": "FOXOIXtIW8pNt-KtiZaolaON7G8=", "properties": {"ref": "541", "@spider": "bj-restaurant", "addr:full": "7852 Mall Road", "addr:city": "Florence", "addr:state": "KY", "addr:postcode": "41042", "name": "BJ's Restaurants and Brewhouse Florence", "phone": "859-282-8865", "website": "https://www.bjsrestaurants.com/locations/ky/florence", "opening_hours": "Su 11:00 - 22:00;Mo 11:00 - 23:00;Tu 11:00 - 23:00;We 11:00 - 23:00;Th 11:00 - 23:00;Fr 11:00 - 00:00;Sa 11:00 - 00:00", "brand": "BJ's Restaurant & Brewery", "brand:wikidata": "Q4835755"}, "geometry": {"type": "Point", "coordinates": [-84.650311, 38.993074]}},
{"type": "Feature", "id": "aq2pT6vVF7EqNkKR60WFJpdokXE=", "properties": {"ref": "624", "@spider": "bj-restaurant", "addr:full": "2515 Lake Lansing Rd", "addr:city": "Lansing", "addr:state": "MI", "addr:postcode": "48912", "name": "BJ's Restaurants and Brewhouse Lansing", "phone": "517-246-0010", "website": "https://www.bjsrestaurants.com/locations/mi/lansing", "opening_hours": "Su 11:00 - 23:00;Mo 11:00 - 23:00;Tu 11:00 - 23:00;We 11:00 - 23:00;Th 11:00 - 23:00;Fr 11:00 - 00:00;Sa 11:00 - 00:00", "brand": "BJ's Restaurant & Brewery", "brand:wikidata": "Q4835755"}, "geometry": {"type": "Point", "coordinates": [-84.51502, 42.76147]}},
{"type": "Feature", "id": "lZ8GH7dGw4QP57OJeJ48JVx4zPI=", "properties": {"ref": "611", "@spider": "bj-restaurant", "addr:full": "19470 Haggerty Road", "addr:city": "Livonia", "addr:state": "MI", "addr:postcode": "48152", "name": "BJ's Restaurants and Brewhouse Livonia", "phone": "734-357-8530", "website": "https://www.bjsrestaurants.com/locations/mi/livonia", "opening_hours": "Su 11:00 - 23:00;Mo 11:00 - 23:00;Tu 11:00 - 23:00;We 11:00 - 23:00;Th 11:00 - 23:00;Fr 11:00 - 00:00;Sa 11:00 - 00:00", "brand": "BJ's Restaurant & Brewery", "brand:wikidata": "Q4835755"}, "geometry": {"type": "Point", "coordinates": [-83.432699, 42.427845]}},
{"type": "Feature", "id": "YVI2lZpSTcnVw_H3I40e6u-Flhw=", "properties": {"ref": "613", "@spider": "bj-restaurant", "addr:full": "14455 Lakeside Circle", "addr:city": "Sterling Heights", "addr:state": "MI", "addr:postcode": "48313", "name": "BJ's Restaurants and Brewhouse Sterling Heights", "phone": "586-519-6250", "website": "https://www.bjsrestaurants.com/locations/mi/sterling-heights", "opening_hours": "Su 11:00 - 23:00;Mo 11:00 - 23:00;Tu 11:00 - 23:00;We 11:00 - 23:00;Th 11:00 - 23:00;Fr 11:00 - 00:00;Sa 11:00 - 00:00", "brand": "BJ's Restaurant & Brewery", "brand:wikidata": "Q4835755"}, "geometry": {"type": "Point", "coordinates": [-82.983977, 42.626166]}},
{"type": "Feature", "id": "87nSycXmSMCThHIqgbxytdulRl8=", "properties": {"ref": "612", "@spider": "bj-restaurant", "addr:full": "1174 S Washington St", "addr:city": "North Attleboro", "addr:state": "MA", "addr:postcode": "02760", "name": "BJ's Restaurants and Brewhouse North Attleboro", "phone": "774-331-0250", "website": "https://www.bjsrestaurants.com/locations/ma/north-attleboro", "opening_hours": "Su 11:00 - 23:00;Mo 11:00 - 23:00;Tu 11:00 - 23:00;We 11:00 - 23:00;Th 11:00 - 23:00;Fr 11:00 - 00:00;Sa 11:00 - 00:00", "brand": "BJ's Restaurant & Brewery", "brand:wikidata": "Q4835755"}, "geometry": {"type": "Point", "coordinates": [-71.347438, 41.944121]}},
{"type": "Feature", "id": "19mJ3DOFQyFXhehmDjLGuRJ9Spk=", "properties": {"ref": "606", "@spider": "bj-restaurant", "addr:full": "23002 Eureka Rd", "addr:city": "Taylor", "addr:state": "MI", "addr:postcode": "48180", "name": "BJ's Restaurants and Brewhouse Taylor", "phone": "734-720-8800", "website": "https://www.bjsrestaurants.com/locations/mi/taylor", "opening_hours": "Su 11:00 - 23:00;Mo 11:00 - 23:00;Tu 11:00 - 23:00;We 11:00 - 23:00;Th 11:00 - 23:00;Fr 11:00 - 00:00;Sa 11:00 - 00:00", "brand": "BJ's Restaurant & Brewery", "brand:wikidata": "Q4835755"}, "geometry": {"type": "Point", "coordinates": [-83.257381, 42.198922]}},
{"type": "Feature", "id": "ANnHGjuFvqlNeTI8g3GWH8OnAYw=", "properties": {"ref": "503", "@spider": "bj-restaurant", "addr:full": "425 Sparks Blvd", "addr:city": "Sparks", "addr:state": "NV", "addr:postcode": "89434", "name": "BJ's Restaurants and Brewhouse Sparks", "phone": "775-398-3550", "website": "https://www.bjsrestaurants.com/locations/nv/sparks", "opening_hours": "Su 10:00 - 23:00;Mo 11:00 - 23:00;Tu 11:00 - 23:00;We 11:00 - 23:00;Th 11:00 - 23:00;Fr 11:00 - 00:00;Sa 11:00 - 00:00", "brand": "BJ's Restaurant & Brewery", "brand:wikidata": "Q4835755"}, "geometry": {"type": "Point", "coordinates": [-119.716173, 39.534101]}},
{"type": "Feature", "id": "8-Ow3m7xLdzxaOuWzwaKv5URJKA=", "properties": {"ref": "432", "@spider": "bj-restaurant", "addr:full": "10840 West Charleston", "addr:city": "Las Vegas", "addr:state": "NV", "addr:postcode": "89135", "name": "BJ's Restaurants and Brewhouse Summerlin", "phone": "702-853-2300", "website": "https://www.bjsrestaurants.com/locations/nv/summerlin", "opening_hours": "Su 10:00 - 23:00;Mo 11:00 - 23:00;Tu 11:00 - 23:00;We 11:00 - 23:00;Th 11:00 - 23:00;Fr 11:00 - 00:00;Sa 11:00 - 00:00", "brand": "BJ's Restaurant & Brewery", "brand:wikidata": "Q4835755"}, "geometry": {"type": "Point", "coordinates": [-115.331914, 36.159552]}},
{"type": "Feature", "id": "3SNHBb3JgvIEd1lOkomDZsJ6H2U=", "properties": {"ref": "509", "@spider": "bj-restaurant", "addr:full": "5881 Centennial Center Blvd.", "addr:city": "Las Vegas", "addr:state": "NV", "addr:postcode": "89149", "name": "BJ's Restaurants and Brewhouse Centennial", "phone": "702-851-8050", "website": "https://www.bjsrestaurants.com/locations/nv/centennial", "opening_hours": "Su 10:00 - 23:00;Mo 11:00 - 23:00;Tu 11:00 - 23:00;We 11:00 - 23:00;Th 11:00 - 23:00;Fr 11:00 - 00:00;Sa 11:00 - 00:00", "brand": "BJ's Restaurant & Brewery", "brand:wikidata": "Q4835755"}, "geometry": {"type": "Point", "coordinates": [-115.261465, 36.269812]}},
{"type": "Feature", "id": "ct2wW8KeUZf0ZtX0GOnzE3xqm7I=", "properties": {"ref": "454", "@spider": "bj-restaurant", "addr:full": "13999 S. Virginia", "addr:city": "Reno", "addr:state": "NV", "addr:postcode": "89511", "name": "BJ's Restaurants and Brewhouse Reno", "phone": "775-853-7575", "website": "https://www.bjsrestaurants.com/locations/nv/reno", "opening_hours": "Su 10:00 - 23:00;Mo 11:00 - 23:00;Tu 11:00 - 23:00;We 11:00 - 23:00;Th 11:00 - 23:00;Fr 11:00 - 00:00;Sa 11:00 - 00:00", "brand": "BJ's Restaurant & Brewery", "brand:wikidata": "Q4835755"}, "geometry": {"type": "Point", "coordinates": [-119.748711, 39.40579]}},
{"type": "Feature", "id": "ea2xTyGFd1tUh5iCFoPbmb9cAYY=", "properties": {"ref": "487", "@spider": "bj-restaurant", "addr:full": "9520 S Eastern Ave", "addr:city": "Henderson", "addr:state": "NV", "addr:postcode": "89123", "name": "BJ's Restaurants and Brewhouse Henderson", "phone": "702-473-2980", "website": "https://www.bjsrestaurants.com/locations/nv/henderson", "opening_hours": "Su 10:00 - 23:00;Mo 11:00 - 23:00;Tu 11:00 - 23:00;We 11:00 - 23:00;Th 11:00 - 23:00;Fr 11:00 - 00:00;Sa 11:00 - 00:00", "brand": "BJ's Restaurant & Brewery", "brand:wikidata": "Q4835755"}, "geometry": {"type": "Point", "coordinates": [-115.118118, 36.015687]}},
{"type": "Feature", "id": "hTc-S3tXxmwyexS-Zzf0iCvVNIM=", "properties": {"ref": "588", "@spider": "bj-restaurant", "addr:full": "6181 Columbia Crossing Circle", "addr:city": "Columbia", "addr:state": "MD", "addr:postcode": "21045", "name": "BJ's Restaurants and Brewhouse Columbia", "phone": "443-393-8600", "website": "https://www.bjsrestaurants.com/locations/md/columbia", "opening_hours": "Su 11:00 - 23:00;Mo 11:00 - 23:00;Tu 11:00 - 23:00;We 11:00 - 23:00;Th 11:00 - 23:00;Fr 11:00 - 00:00;Sa 11:00 - 00:00", "brand": "BJ's Restaurant & Brewery", "brand:wikidata": "Q4835755"}, "geometry": {"type": "Point", "coordinates": [-76.814238, 39.195316]}},
{"type": "Feature", "id": "N8dbxSWwjFYgYjbJs7MjtfH4c2M=", "properties": {"ref": "562", "@spider": "bj-restaurant", "addr:full": "14714 Baltimore Ave.", "addr:city": "Laurel", "addr:state": "MD", "addr:postcode": "20707", "name": "BJ's Restaurants and Brewhouse Laurel", "phone": "240-547-2680", "website": "https://www.bjsrestaurants.com/locations/md/laurel", "opening_hours": "Su 11:00 - 23:00;Mo 11:00 - 23:00;Tu 11:00 - 23:00;We 11:00 - 23:00;Th 11:00 - 23:00;Fr 11:00 - 00:00;Sa 11:00 - 00:00", "brand": "BJ's Restaurant & Brewery", "brand:wikidata": "Q4835755"}, "geometry": {"type": "Point", "coordinates": [-76.856409, 39.09251]}},
{"type": "Feature", "id": "2ODucKF23IlrozBiHCUZkre-emU=", "properties": {"ref": "548", "@spider": "bj-restaurant", "addr:full": "5616 Spectrum Drive", "addr:city": "Frederick", "addr:state": "MD", "addr:postcode": "21703", "name": "BJ's Restaurants and Brewhouse Frederick", "phone": "301-695-0470", "website": "https://www.bjsrestaurants.com/locations/md/frederick", "opening_hours": "Su 11:00 - 23:00;Mo 11:00 - 23:00;Tu 11:00 - 23:00;We 11:00 - 23:00;Th 11:00 - 23:00;Fr 11:00 - 00:00;Sa 11:00 - 00:00", "brand": "BJ's Restaurant & Brewery", "brand:wikidata": "Q4835755"}, "geometry": {"type": "Point", "coordinates": [-77.40408, 39.382908]}},
{"type": "Feature", "id": "aFg1ZD-H2yohNFhdI9GyIwkOgzM=", "properties": {"ref": "609", "@spider": "bj-restaurant", "addr:full": "650 Bald Hill Road, Suite C", "addr:city": "Warwick", "addr:state": "RI", "addr:postcode": "02886", "name": "BJ's Restaurants and Brewhouse Warwick", "phone": "401-262-4550", "website": "https://www.bjsrestaurants.com/locations/ri/warwick", "opening_hours": "Su 11:00 - 23:00;Mo 11:00 - 23:00;Tu 11:00 - 23:00;We 11:00 - 23:00;Th 11:00 - 23:00;Fr 11:00 - 00:00;Sa 11:00 - 00:00", "brand": "BJ's Restaurant & Brewery", "brand:wikidata": "Q4835755"}, "geometry": {"type": "Point", "coordinates": [-71.483672, 41.719744]}},
{"type": "Feature", "id": "5ESb_25iDaf3ilYD0Jc8DGUOjy4=", "properties": {"ref": "574", "@spider": "bj-restaurant", "addr:full": "2455 Medical Center Pkwy", "addr:city": "Murfreesboro", "addr:state": "TN", "addr:postcode": "37129", "name": "BJ's Restaurants and Brewhouse Murfreesboro", "phone": "615-956-2560", "website": "https://www.bjsrestaurants.com/locations/tn/murfreesboro", "opening_hours": "Su 10:00 - 23:00;Mo 11:00 - 23:00;Tu 11:00 - 23:00;We 11:00 - 23:00;Th 11:00 - 23:00;Fr 11:00 - 23:00;Sa 11:00 - 23:00", "brand": "BJ's Restaurant & Brewery", "brand:wikidata": "Q4835755"}, "geometry": {"type": "Point", "coordinates": [-86.440804, 35.858383]}},
{"type": "Feature", "id": "lGxNej9Se5wHf2V7TPIHbhi1vPw=", "properties": {"ref": "582", "@spider": "bj-restaurant", "addr:full": "925 Plaza Blvd", "addr:city": "Lancaster", "addr:state": "PA", "addr:postcode": "17601", "name": "BJ's Restaurants and Brewhouse Lancaster", "phone": "717-320-8840", "website": "https://www.bjsrestaurants.com/locations/pa/lancaster", "opening_hours": "Su 11:00 - 22:00;Mo 11:00 - 22:00;Tu 11:00 - 22:00;We 11:00 - 22:00;Th 11:00 - 22:00;Fr 11:00 - 23:00;Sa 11:00 - 23:00", "brand": "BJ's Restaurant & Brewery", "brand:wikidata": "Q4835755"}, "geometry": {"type": "Point", "coordinates": [-76.343033, 40.066462]}},
{"type": "Feature", "id": "d0dvhrEDH9MlX-Q99zVqMUYEDvA=", "properties": {"ref": "590", "@spider": "bj-restaurant", "addr:full": "1819 Washington Rd.", "addr:city": "Upper St. Clair", "addr:state": "PA", "addr:postcode": "15241", "name": "BJ's Restaurants and Brewhouse South Hills", "phone": "412-347-4790", "website": "https://www.bjsrestaurants.com/locations/pa/south-hills", "opening_hours": "Su 11:00 - 22:00;Mo 11:00 - 22:00;Tu 11:00 - 22:00;We 11:00 - 22:00;Th 11:00 - 22:00;Fr 11:00 - 23:00;Sa 11:00 - 23:00", "brand": "BJ's Restaurant & Brewery", "brand:wikidata": "Q4835755"}, "geometry": {"type": "Point", "coordinates": [-80.056165, 40.346413]}},
{"type": "Feature", "id": "89I2ZZhAiS6JmFm9k8sSEQgXiP0=", "properties": {"ref": "572", "@spider": "bj-restaurant", "addr:full": "8970 Covenant Ave", "addr:city": "Pittsburgh", "addr:state": "PA", "addr:postcode": "15237", "name": "BJ's Restaurants and Brewhouse McCandless", "phone": "412-748-1470", "website": "https://www.bjsrestaurants.com/locations/pa/mccandless", "opening_hours": "Su 11:00 - 22:00;Mo 11:00 - 22:00;Tu 11:00 - 22:00;We 11:00 - 22:00;Th 11:00 - 22:00;Fr 11:00 - 23:00;Sa 11:00 - 23:00", "brand": "BJ's Restaurant & Brewery", "brand:wikidata": "Q4835755"}, "geometry": {"type": "Point", "coordinates": [-80.021789, 40.569914]}},
{"type": "Feature", "id": "rgYoyH1qYASnFMYqMzIKBn1LFII=", "properties": {"ref": "604", "@spider": "bj-restaurant", "addr:full": "148 Harbison Blvd", "addr:city": "Columbia", "addr:state": "SC", "addr:postcode": "29212", "name": "BJ's Restaurants and Brewhouse Columbiana Station", "phone": "803-828-5850", "website": "https://www.bjsrestaurants.com/locations/sc/columbiana-station", "opening_hours": "Su 11:00 - 23:00;Mo 11:00 - 23:00;Tu 11:00 - 23:00;We 11:00 - 23:00;Th 11:00 - 23:00;Fr 11:00 - 00:00;Sa 11:00 - 00:00", "brand": "BJ's Restaurant & Brewery", "brand:wikidata": "Q4835755"}, "geometry": {"type": "Point", "coordinates": [-81.16377, 34.06882]}},
{"type": "Feature", "id": "Iczp8iOzrKNhgqp-OB9hR1sFwoQ=", "properties": {"ref": "579", "@spider": "bj-restaurant", "addr:full": "314 West Loop 281", "addr:city": "Longview", "addr:state": "TX", "addr:postcode": "75605", "name": "BJ's Restaurants and Brewhouse Longview", "phone": "903-686-2190", "website": "https://www.bjsrestaurants.com/locations/tx/longview", "opening_hours": "Su 11:00 - 23:00;Mo 11:00 - 23:00;Tu 11:00 - 23:00;We 11:00 - 23:00;Th 11:00 - 23:00;Fr 11:00 - 00:00;Sa 11:00 - 00:00", "brand": "BJ's Restaurant & Brewery", "brand:wikidata": "Q4835755"}, "geometry": {"type": "Point", "coordinates": [-94.753234, 32.540828]}},
{"type": "Feature", "id": "BF8L7fJutCq0k2BgBsZzXqO_sQI=", "properties": {"ref": "594", "@spider": "bj-restaurant", "addr:full": "665 N Krocks Rd.", "addr:city": "Allentown", "addr:state": "PA", "addr:postcode": "18106", "name": "BJ's Restaurants and Brewhouse Allentown", "phone": "484-268-2340", "website": "https://www.bjsrestaurants.com/locations/pa/allentown", "opening_hours": "Su 11:00 - 23:00;Mo 11:00 - 23:00;Tu 11:00 - 23:00;We 11:00 - 23:00;Th 11:00 - 23:00;Fr 11:00 - 00:00;Sa 11:00 - 00:00", "brand": "BJ's Restaurant & Brewery", "brand:wikidata": "Q4835755"}, "geometry": {"type": "Point", "coordinates": [-75.564093, 40.565596]}},
{"type": "Feature", "id": "Ft5DKxmaaudNC-rAlT3h4oxi5rY=", "properties": {"ref": "480", "@spider": "bj-restaurant", "addr:full": "22410 US Highway 281 North", "addr:city": "San Antonio", "addr:state": "TX", "addr:postcode": "78259", "name": "BJ's Restaurants and Brewhouse San Antonio", "phone": "210-497-6070", "website": "https://www.bjsrestaurants.com/locations/tx/san-antonio", "opening_hours": "Su 11:00 - 23:00;Mo 11:00 - 23:00;Tu 11:00 - 23:00;We 11:00 - 23:00;Th 11:00 - 23:00;Fr 11:00 - 00:00;Sa 11:00 - 00:00", "brand": "BJ's Restaurant & Brewery", "brand:wikidata": "Q4835755"}, "geometry": {"type": "Point", "coordinates": [-98.448534, 29.649666]}},
{"type": "Feature", "id": "Od9wqhRp_MeML9s2c4zr1r-UrsM=", "properties": {"ref": "457", "@spider": "bj-restaurant", "addr:full": "11905 Gateway Blvd. West", "addr:city": "El Paso", "addr:state": "TX", "addr:postcode": "79936", "name": "BJ's Restaurants and Brewhouse El Paso", "phone": "915-633-8300", "website": "https://www.bjsrestaurants.com/locations/tx/el-paso", "opening_hours": "Su 11:00 - 23:00;Mo 11:00 - 23:00;Tu 11:00 - 23:00;We 11:00 - 23:00;Th 11:00 - 23:00;Fr 11:00 - 00:00;Sa 11:00 - 00:00", "brand": "BJ's Restaurant & Brewery", "brand:wikidata": "Q4835755"}, "geometry": {"type": "Point", "coordinates": [-106.307534, 31.724236]}},
{"type": "Feature", "id": "FKAC-jiksDJZ191VWaaAUmKk4iw=", "properties": {"ref": "461", "@spider": "bj-restaurant", "addr:full": "330 Ed Noble Parkway", "addr:city": "Norman", "addr:state": "OK", "addr:postcode": "73072", "name": "BJ's Restaurants and Brewhouse Norman", "phone": "405-360-4400", "website": "https://www.bjsrestaurants.com/locations/ok/norman", "opening_hours": "Su 11:00 - 23:00;Mo 11:00 - 23:00;Tu 11:00 - 23:00;We 11:00 - 23:00;Th 11:00 - 23:00;Fr 11:00 - 00:00;Sa 11:00 - 00:00", "brand": "BJ's Restaurant & Brewery", "brand:wikidata": "Q4835755"}, "geometry": {"type": "Point", "coordinates": [-97.487532, 35.216547]}},
{"type": "Feature", "id": "PNt7vV-me75U_JrnXGnbvxWj1pg=", "properties": {"ref": "525", "@spider": "bj-restaurant", "addr:full": "2951 Cold Spring Drive", "addr:city": "New Braunfels", "addr:state": "TX", "addr:postcode": "78130", "name": "BJ's Restaurants and Brewhouse New Braunfels", "phone": "830-620-1400", "website": "https://www.bjsrestaurants.com/locations/tx/new-braunfels", "opening_hours": "Su 11:00 - 23:00;Mo 11:00 - 23:00;Tu 11:00 - 23:00;We 11:00 - 23:00;Th 11:00 - 23:00;Fr 11:00 - 00:00;Sa 11:00 - 00:00", "brand": "BJ's Restaurant & Brewery", "brand:wikidata": "Q4835755"}, "geometry": {"type": "Point", "coordinates": [-98.07583, 29.729797]}},
{"type": "Feature", "id": "dDqtYwvlqaA_sFIO6KRdG_Ymo30=", "properties": {"ref": "585", "@spider": "bj-restaurant", "addr:full": "192 Hanes Mall Circle", "addr:city": "Salem", "addr:state": "NC", "addr:postcode": "27103", "name": "BJ's Restaurants and Brewhouse Winston Salem", "phone": "336-793-2230", "website": "https://www.bjsrestaurants.com/locations/nc/winston-salem", "opening_hours": "Su 11:00 - 23:00;Mo 11:00 - 23:00;Tu 11:00 - 23:00;We 11:00 - 23:00;Th 11:00 - 23:00;Fr 11:00 - 23:00;Sa 11:00 - 23:00", "brand": "BJ's Restaurant & Brewery", "brand:wikidata": "Q4835755"}, "geometry": {"type": "Point", "coordinates": [-80.294976, 36.068156]}},
{"type": "Feature", "id": "tszXQKIYqh-pPzw9-BWju_YWbIM=", "properties": {"ref": "538", "@spider": "bj-restaurant", "addr:full": "325 Outlet Shoppes Drive", "addr:city": "Oklahoma City", "addr:state": "OK", "addr:postcode": "73128", "name": "BJ's Restaurants and Brewhouse OKC Outlets", "phone": "405-787-9900", "website": "https://www.bjsrestaurants.com/locations/ok/okc-outlets", "opening_hours": "Su 11:00 - 23:00;Mo 11:00 - 23:00;Tu 11:00 - 23:00;We 11:00 - 23:00;Th 11:00 - 23:00;Fr 11:00 - 00:00;Sa 11:00 - 00:00", "brand": "BJ's Restaurant & Brewery", "brand:wikidata": "Q4835755"}, "geometry": {"type": "Point", "coordinates": [-97.652234, 35.461492]}},
{"type": "Feature", "id": "MioqQkUsIFANqeWHwb5YATnWTkg=", "properties": {"ref": "570", "@spider": "bj-restaurant", "addr:full": "10000 Coors Blvd.", "addr:city": "Albuquerque", "addr:state": "NM", "addr:postcode": "87114", "name": "BJ's Restaurants and Brewhouse Cottonwood Mall", "phone": "505-545-6040", "website": "https://www.bjsrestaurants.com/locations/nm/cottonwood-mall", "opening_hours": "Su 11:00 - 22:00;Mo 11:00 - 22:00;Tu 11:00 - 22:00;We 11:00 - 22:00;Th 11:00 - 22:00;Fr 11:00 - 22:00;Sa 11:00 - 22:00", "brand": "BJ's Restaurant & Brewery", "brand:wikidata": "Q4835755"}, "geometry": {"type": "Point", "coordinates": [-106.655908, 35.194785]}},
{"type": "Feature", "id": "gnFlUYUdtaWkOJL98f3QBFrAv8c=", "properties": {"ref": "527", "@spider": "bj-restaurant", "addr:full": "2100 Louisiana Blvd. NE Building 213", "addr:city": "Albuquerque", "addr:state": "NM", "addr:postcode": "87110", "name": "BJ's Restaurants and Brewhouse Albuquerque", "phone": "505-872-8600", "website": "https://www.bjsrestaurants.com/locations/nm/albuquerque", "opening_hours": "Su 11:00 - 23:00;Mo 11:00 - 23:00;Tu 11:00 - 23:00;We 11:00 - 23:00;Th 11:00 - 23:00;Fr 11:00 - 23:00;Sa 11:00 - 23:00", "brand": "BJ's Restaurant & Brewery", "brand:wikidata": "Q4835755"}, "geometry": {"type": "Point", "coordinates": [-106.565138, 35.098644]}},
{"type": "Feature", "id": "e18BbkQOBkazFexqEa_WOfETEgY=", "properties": {"ref": "591", "@spider": "bj-restaurant", "addr:full": "21 Teterboro Landing Drive", "addr:city": "Teterboro", "addr:state": "NJ", "addr:postcode": "07608", "name": "BJ's Restaurants and Brewhouse Teterboro", "phone": "551-313-7450", "website": "https://www.bjsrestaurants.com/locations/nj/teterboro", "opening_hours": "Su 11:00 - 22:00;Mo 11:00 - 22:00;Tu 11:00 - 22:00;We 11:00 - 22:00;Th 11:00 - 22:00;Fr 11:00 - 23:00;Sa 11:00 - 23:00", "brand": "BJ's Restaurant & Brewery", "brand:wikidata": "Q4835755"}, "geometry": {"type": "Point", "coordinates": [-74.05862, 40.860596]}},
{"type": "Feature", "id": "7mwUBNl37xM5nL-1q0ZlxpUuFf8=", "properties": {"ref": "615", "@spider": "bj-restaurant", "addr:full": "1275 Hooper Avenue", "addr:city": "Toms River", "addr:state": "NJ", "addr:postcode": "08753", "name": "BJ's Restaurants and Brewhouse Toms River", "phone": "732-506-2780", "website": "https://www.bjsrestaurants.com/locations/nj/toms-river", "opening_hours": "Su 11:00 - 23:00;Mo 11:00 - 23:00;Tu 11:00 - 23:00;We 11:00 - 23:00;Th 11:00 - 23:00;Fr 11:00 - 00:00;Sa 11:00 - 00:00", "brand": "BJ's Restaurant & Brewery", "brand:wikidata": "Q4835755"}, "geometry": {"type": "Point", "coordinates": [-74.179022, 39.984207]}},
{"type": "Feature", "id": "9pBK0a5WTP6LTudCRfQGyC6_d8E=", "properties": {"ref": "607", "@spider": "bj-restaurant", "addr:full": "4905 Monroe Street", "addr:city": "Toledo", "addr:state": "OH", "addr:postcode": "43623", "name": "BJ's Restaurants and Brewhouse Toledo", "phone": "419-402-8210", "website": "https://www.bjsrestaurants.com/locations/oh/toledo", "opening_hours": "Su 11:00 - 23:00;Mo 11:00 - 23:00;Tu 11:00 - 23:00;We 11:00 - 23:00;Th 11:00 - 23:00;Fr 11:00 - 00:00;Sa 11:00 - 00:00", "brand": "BJ's Restaurant & Brewery", "brand:wikidata": "Q4835755"}, "geometry": {"type": "Point", "coordinates": [-83.640513, 41.696823]}},
{"type": "Feature", "id": "qVObXDe3H-4swmLpJelS-1VCIzw=", "properties": {"ref": "469", "@spider": "bj-restaurant", "addr:full": "11700 Princeton Pike", "addr:city": "Cincinnati", "addr:state": "OH", "addr:postcode": "45246", "name": "BJ's Restaurants and Brewhouse Tri-County Mall", "phone": "513-671-1805", "website": "https://www.bjsrestaurants.com/locations/oh/tri-county-mall", "opening_hours": "Su 11:00 - 22:00;Mo 11:00 - 23:00;Tu 11:00 - 23:00;We 11:00 - 23:00;Th 11:00 - 23:00;Fr 11:00 - 00:00;Sa 11:00 - 00:00", "brand": "BJ's Restaurant & Brewery", "brand:wikidata": "Q4835755"}, "geometry": {"type": "Point", "coordinates": [-84.465056, 39.290622]}},
{"type": "Feature", "id": "PAlt5M_ifsBC3Rh8bCJbovgmYAM=", "properties": {"ref": "614", "@spider": "bj-restaurant", "addr:full": "2631 Edmondson Road", "addr:city": "Norwood", "addr:state": "OH", "addr:postcode": "45209", "name": "BJ's Restaurants and Brewhouse Rookwood", "phone": "513-964-1440", "website": "https://www.bjsrestaurants.com/locations/oh/rookwood", "opening_hours": "Su 11:00 - 22:00;Mo 11:00 - 23:00;Tu 11:00 - 23:00;We 11:00 - 23:00;Th 11:00 - 23:00;Fr 11:00 - 00:00;Sa 11:00 - 00:00", "brand": "BJ's Restaurant & Brewery", "brand:wikidata": "Q4835755"}, "geometry": {"type": "Point", "coordinates": [-84.445792, 39.148891]}},
{"type": "Feature", "id": "mXnl6ljC0nFuamJnO90Z2b8A0UQ=", "properties": {"ref": "547", "@spider": "bj-restaurant", "addr:full": "10563 Innovation Drive", "addr:city": "Miamisburg", "addr:state": "OH", "addr:postcode": "45342", "name": "BJ's Restaurants and Brewhouse Dayton", "phone": "937-859-6000", "website": "https://www.bjsrestaurants.com/locations/oh/dayton", "opening_hours": "Su 11:00 - 23:00;Mo 11:00 - 23:00;Tu 11:00 - 23:00;We 11:00 - 23:00;Th 11:00 - 23:00;Fr 11:00 - 00:00;Sa 11:00 - 00:00", "brand": "BJ's Restaurant & Brewery", "brand:wikidata": "Q4835755"}, "geometry": {"type": "Point", "coordinates": [-84.232606, 39.597328]}},
{"type": "Feature", "id": "czUuF7i1lLIAVlXE1y7nqyNiUNk=", "properties": {"ref": "580", "@spider": "bj-restaurant", "addr:full": "2715 Fairfield Commons Dr.", "addr:city": "Beavercreek", "addr:state": "OH", "addr:postcode": "45431", "name": "BJ's Restaurants and Brewhouse Beavercreek", "phone": "937-956-0500", "website": "https://www.bjsrestaurants.com/locations/oh/beavercreek", "opening_hours": "Su 11:00 - 23:00;Mo 11:00 - 23:00;Tu 11:00 - 23:00;We 11:00 - 23:00;Th 11:00 - 23:00;Fr 11:00 - 00:00;Sa 11:00 - 00:00", "brand": "BJ's Restaurant & Brewery", "brand:wikidata": "Q4835755"}, "geometry": {"type": "Point", "coordinates": [-84.053848, 39.767191]}},
{"type": "Feature", "id": "1oJfuNN6_-2GXi-oEFepBhJGKdc=", "properties": {"ref": "516", "@spider": "bj-restaurant", "addr:full": "5141 Tuttle Crossing", "addr:city": "Dublin", "addr:state": "OH", "addr:postcode": "43016", "name": "BJ's Restaurants and Brewhouse Tuttle Crossing", "phone": "614-659-9400", "website": "https://www.bjsrestaurants.com/locations/oh/tuttle-crossing", "opening_hours": "Su 11:00 - 23:00;Mo 11:00 - 23:00;Tu 11:00 - 23:00;We 11:00 - 23:00;Th 11:00 - 23:00;Fr 11:00 - 00:00;Sa 11:00 - 00:00", "brand": "BJ's Restaurant & Brewery", "brand:wikidata": "Q4835755"}, "geometry": {"type": "Point", "coordinates": [-83.132891, 40.075379]}},
{"type": "Feature", "id": "kAZqxWmEdflQ2Q3XCL-acHF-hHo=", "properties": {"ref": "459", "@spider": "bj-restaurant", "addr:full": "1414 Polaris Parkway", "addr:city": "Columbus", "addr:state": "OH", "addr:postcode": "43240", "name": "BJ's Restaurants and Brewhouse Polaris", "phone": "614-885-1800", "website": "https://www.bjsrestaurants.com/locations/oh/polaris", "opening_hours": "Su 11:00 - 23:00;Mo 11:00 - 23:00;Tu 11:00 - 23:00;We 11:00 - 23:00;Th 11:00 - 23:00;Fr 11:00 - 00:00;Sa 11:00 - 00:00", "brand": "BJ's Restaurant & Brewery", "brand:wikidata": "Q4835755"}, "geometry": {"type": "Point", "coordinates": [-82.979426, 40.142261]}},
{"type": "Feature", "id": "YwVP-H1wQmhCAwfWiyeRrItZBJw=", "properties": {"ref": "569", "@spider": "bj-restaurant", "addr:full": "4020 Stelzer Rd.", "addr:city": "Columbus", "addr:state": "OH", "addr:postcode": "43219", "name": "BJ's Restaurants and Brewhouse Easton Town Center", "phone": "614-532-9560", "website": "https://www.bjsrestaurants.com/locations/oh/easton-town-center", "opening_hours": "Su 11:00 - 23:00;Mo 11:00 - 23:00;Tu 11:00 - 23:00;We 11:00 - 23:00;Th 11:00 - 23:00;Fr 11:00 - 00:00;Sa 11:00 - 00:00", "brand": "BJ's Restaurant & Brewery", "brand:wikidata": "Q4835755"}, "geometry": {"type": "Point", "coordinates": [-82.9077, 40.0555]}},
{"type": "Feature", "id": "uM2o6eDPK3-2jXUZ50UPZioLhQQ=", "properties": {"ref": "598", "@spider": "bj-restaurant", "addr:full": "25779 Brookpark Road", "addr:city": "North Olmsted", "addr:state": "OH", "addr:postcode": "44070", "name": "BJ's Restaurants and Brewhouse North Olmsted", "phone": "440-471-9140", "website": "https://www.bjsrestaurants.com/locations/oh/north-olmsted", "opening_hours": "Su 11:00 - 23:00;Mo 11:00 - 23:00;Tu 11:00 - 23:00;We 11:00 - 23:00;Th 11:00 - 23:00;Fr 11:00 - 00:00;Sa 11:00 - 00:00", "brand": "BJ's Restaurant & Brewery", "brand:wikidata": "Q4835755"}, "geometry": {"type": "Point", "coordinates": [-81.907303, 41.418829]}},
{"type": "Feature", "id": "DuXDHJG3Omb5yrwSf2sAfYgXOWU=", "properties": {"ref": "623", "@spider": "bj-restaurant", "addr:full": "27100 Harvard Rd", "addr:city": "Orange Village", "addr:state": "OH", "addr:postcode": "44122", "name": "BJ's Restaurants and Brewhouse Orange Village", "phone": "440-514-0090", "website": "https://www.bjsrestaurants.com/locations/oh/orange-village", "opening_hours": "Su 11:00 - 23:00;Mo 11:00 - 23:00;Tu 11:00 - 23:00;We 11:00 - 23:00;Th 11:00 - 23:00;Fr 11:00 - 00:00;Sa 11:00 - 00:00", "brand": "BJ's Restaurant & Brewery", "brand:wikidata": "Q4835755"}, "geometry": {"type": "Point", "coordinates": [-81.488627, 41.448934]}},
{"type": "Feature", "id": "eT5DLjdnBeF8scvTDZxLc4V3944=", "properties": {"ref": "595", "@spider": "bj-restaurant", "addr:full": "7880 Mentor Ave.", "addr:city": "Mentor", "addr:state": "OH", "addr:postcode": "44060", "name": "BJ's Restaurants and Brewhouse Mentor", "phone": "440-276-1360", "website": "https://www.bjsrestaurants.com/locations/oh/mentor", "opening_hours": "Su 11:00 - 23:00;Mo 11:00 - 23:00;Tu 11:00 - 23:00;We 11:00 - 23:00;Th 11:00 - 23:00;Fr 11:00 - 00:00;Sa 11:00 - 00:00", "brand": "BJ's Restaurant & Brewery", "brand:wikidata": "Q4835755"}, "geometry": {"type": "Point", "coordinates": [-81.359707, 41.660069]}},
{"type": "Feature", "id": "qMfTf9guoYHod8odE42YRwUdZeM=", "properties": {"ref": "578", "@spider": "bj-restaurant", "addr:full": "3265 West Market St. Suite 85", "addr:city": "Fairlawn", "addr:state": "OH", "addr:postcode": "44333", "name": "BJ's Restaurants and Brewhouse Fairlawn Summit Mall", "phone": "330-576-9480", "website": "https://www.bjsrestaurants.com/locations/oh/fairlawn-summit-mall", "opening_hours": "Su 11:00 - 23:00;Mo 11:00 - 23:00;Tu 11:00 - 23:00;We 11:00 - 23:00;Th 11:00 - 23:00;Fr 11:00 - 00:00;Sa 11:00 - 00:00", "brand": "BJ's Restaurant & Brewery", "brand:wikidata": "Q4835755"}, "geometry": {"type": "Point", "coordinates": [-81.617866, 41.133811]}},
{"type": "Feature", "id": "cE84VKdQx0fZQmZg4Cvc8N3Jsh0=", "properties": {"ref": "603", "@spider": "bj-restaurant", "addr:full": "7327 Market Street", "addr:city": "Boardman", "addr:state": "OH", "addr:postcode": "44512", "name": "BJ's Restaurants and Brewhouse Youngstown", "phone": "234-719-5010", "website": "https://www.bjsrestaurants.com/locations/oh/youngstown", "opening_hours": "Su 11:00 - 23:00;Mo 11:00 - 23:00;Tu 11:00 - 23:00;We 11:00 - 23:00;Th 11:00 - 23:00;Fr 11:00 - 00:00;Sa 11:00 - 00:00", "brand": "BJ's Restaurant & Brewery", "brand:wikidata": "Q4835755"}, "geometry": {"type": "Point", "coordinates": [-80.662683, 41.023609]}},
{"type": "Feature", "id": "zPrO5ap92AZeWf2KUD51j8ivRPM=", "properties": {"ref": "576", "@spider": "bj-restaurant", "addr:full": "6476 Strip Ave. NW", "addr:city": "North Canton", "addr:state": "OH", "addr:postcode": "44720", "name": "BJ's Restaurants and Brewhouse Canton", "phone": "234-401-0220", "website": "https://www.bjsrestaurants.com/locations/oh/canton", "opening_hours": "Su 11:00 - 23:00;Mo 11:00 - 23:00;Tu 11:00 - 23:00;We 11:00 - 23:00;Th 11:00 - 23:00;Fr 11:00 - 00:00;Sa 11:00 - 00:00", "brand": "BJ's Restaurant & Brewery", "brand:wikidata": "Q4835755"}, "geometry": {"type": "Point", "coordinates": [-81.432765, 40.875024]}},
{"type": "Feature", "id": "MIf1k2GylYm-f9lBpFzdwPxFkEg=", "properties": {"ref": "610", "@spider": "bj-restaurant", "addr:full": "3 Wolf Rd, Suite 101", "addr:city": "Colonie", "addr:state": "NY", "addr:postcode": "12205", "name": "BJ's Restaurants and Brewhouse Albany", "phone": "518-375-3570", "website": "https://www.bjsrestaurants.com/locations/ny/albany", "opening_hours": "Su 11:00 - 23:00;Mo 11:00 - 23:00;Tu 11:00 - 23:00;We 11:00 - 23:00;Th 11:00 - 23:00;Fr 11:00 - 00:00;Sa 11:00 - 00:00", "brand": "BJ's Restaurant & Brewery", "brand:wikidata": "Q4835755"}, "geometry": {"type": "Point", "coordinates": [-73.821461, 42.708532]}},
{"type": "Feature", "id": "uaOIkk-FiGYD4k1eJd7TWNV54kg=", "properties": {"ref": "559", "@spider": "bj-restaurant", "addr:full": "1119 Fashion Drive", "addr:city": "Nanuet", "addr:state": "NY", "addr:postcode": "10954", "name": "BJ's Restaurants and Brewhouse Nanuet", "phone": "845-536-5480", "website": "https://www.bjsrestaurants.com/locations/ny/nanuet", "opening_hours": "Su 11:00 - 23:00;Mo 11:00 - 22:00;Tu 11:00 - 22:00;We 11:00 - 22:00;Th 11:00 - 22:00;Fr 11:00 - 00:00;Sa 11:00 - 00:00", "brand": "BJ's Restaurant & Brewery", "brand:wikidata": "Q4835755"}, "geometry": {"type": "Point", "coordinates": [-74.015072, 41.097081]}},
{"type": "Feature", "id": "E_UmEwcXMQbmt-Abas5WJySAwXQ=", "properties": {"ref": "581", "@spider": "bj-restaurant", "addr:full": "750 Sunrise Hwy 5 Green Acres Common", "addr:city": "Valley Stream", "addr:state": "NY", "addr:postcode": "11581", "name": "BJ's Restaurants and Brewhouse Valley Stream", "phone": "516-256-8800", "website": "https://www.bjsrestaurants.com/locations/ny/valley-stream", "opening_hours": "Su 11:00 - 23:00;Mo 11:00 - 23:00;Tu 11:00 - 23:00;We 11:00 - 23:00;Th 11:00 - 23:00;Fr 11:00 - 00:00;Sa 11:00 - 00:00", "brand": "BJ's Restaurant & Brewery", "brand:wikidata": "Q4835755"}, "geometry": {"type": "Point", "coordinates": [-73.724665, 40.6635]}},
{"type": "Feature", "id": "KSjub2LbxgSXMUJesy9CohUY3K8=", "properties": {"ref": "533", "@spider": "bj-restaurant", "addr:full": "7390 NE Cornell Rd", "addr:city": "Hillsboro", "addr:state": "OR", "addr:postcode": "97124", "name": "BJ's Restaurants and Brewhouse Hillsboro", "phone": "503-615-2300", "website": "https://www.bjsrestaurants.com/locations/or/hillsboro", "opening_hours": "Su 11:00 - 23:00;Mo 11:00 - 23:00;Tu 11:00 - 23:00;We 11:00 - 23:00;Th 11:00 - 23:00;Fr 11:00 - 00:00;Sa 11:00 - 00:00", "brand": "BJ's Restaurant & Brewery", "brand:wikidata": "Q4835755"}, "geometry": {"type": "Point", "coordinates": [-122.901205, 45.539044]}},
{"type": "Feature", "id": "DZ8IM1nnFAn5jbKJH53Tyh6PQaQ=", "properties": {"ref": "616", "@spider": "bj-restaurant", "addr:full": "9009 E 71st Street", "addr:city": "Tulsa", "addr:state": "OK", "addr:postcode": "74133", "name": "BJ's Restaurants and Brewhouse Tulsa", "phone": "539-215-9040", "website": "https://www.bjsrestaurants.com/locations/ok/tulsa", "opening_hours": "Su 11:00 - 23:00;Mo 11:00 - 23:00;Tu 11:00 - 23:00;We 11:00 - 23:00;Th 11:00 - 23:00;Fr 11:00 - 00:00;Sa 11:00 - 00:00", "brand": "BJ's Restaurant & Brewery", "brand:wikidata": "Q4835755"}, "geometry": {"type": "Point", "coordinates": [-95.877142, 36.061509]}},
{"type": "Feature", "id": "pJbbkjTAsLIGQf9FOFU_IhB0mdE=", "properties": {"ref": "407", "@spider": "bj-restaurant", "addr:full": "12105 N. Center", "addr:city": "Portland", "addr:state": "OR", "addr:postcode": "97217", "name": "BJ's Restaurants and Brewhouse Jantzen Beach", "phone": "503-289-5566", "website": "https://www.bjsrestaurants.com/locations/or/jantzen-beach", "opening_hours": "Su 11:00 - 22:00;Mo 11:00 - 22:00;Tu 11:00 - 22:00;We 11:00 - 22:00;Th 11:00 - 22:00;Fr 11:00 - 22:00;Sa 11:00 - 22:00", "brand": "BJ's Restaurant & Brewery", "brand:wikidata": "Q4835755"}, "geometry": {"type": "Point", "coordinates": [-122.680467, 45.610679]}},
{"type": "Feature", "id": "pBK7phbsiGJ_q857lWJsKbNm7lQ=", "properties": {"ref": "540", "@spider": "bj-restaurant", "addr:full": "1080 Valley River Way", "addr:city": "Eugene", "addr:state": "OR", "addr:postcode": "97401", "name": "BJ's Restaurants and Brewhouse Valley River", "phone": "541-344-2200", "website": "https://www.bjsrestaurants.com/locations/or/valley-river", "opening_hours": "Su 11:00 - 23:00;Mo 11:00 - 23:00;Tu 11:00 - 23:00;We 11:00 - 23:00;Th 11:00 - 23:00;Fr 11:00 - 00:00;Sa 11:00 - 00:00", "brand": "BJ's Restaurant & Brewery", "brand:wikidata": "Q4835755"}, "geometry": {"type": "Point", "coordinates": [-123.10387, 44.06966]}},
{"type": "Feature", "id": "JDKmXnpzAPtr-fTOBoRofLoqS_k=", "properties": {"ref": "466", "@spider": "bj-restaurant", "addr:full": "2425 W. Memorial Road", "addr:city": "Oklahoma City", "addr:state": "OK", "addr:postcode": "73134", "name": "BJ's Restaurants and Brewhouse Oklahoma City", "phone": "405-748-6770", "website": "https://www.bjsrestaurants.com/locations/ok/oklahoma-city", "opening_hours": "Su 11:00 - 23:00;Mo 11:00 - 23:00;Tu 11:00 - 23:00;We 11:00 - 23:00;Th 11:00 - 23:00;Fr 11:00 - 00:00;Sa 11:00 - 00:00", "brand": "BJ's Restaurant & Brewery", "brand:wikidata": "Q4835755"}, "geometry": {"type": "Point", "coordinates": [-97.558016, 35.610319]}},
{"type": "Feature", "id": "ojSmhCDSSBBKgZUD3VfdnJfTrRM=", "properties": {"ref": "592", "@spider": "bj-restaurant", "addr:full": "5707 Dillard Dr.", "addr:city": "Cary", "addr:state": "NC", "addr:postcode": "27511", "name": "BJ's Restaurants and Brewhouse Cary", "phone": "919-710-8170", "website": "https://www.bjsrestaurants.com/locations/nc/cary", "opening_hours": "Su 11:00 - 23:00;Mo 11:00 - 23:00;Tu 11:00 - 23:00;We 11:00 - 23:00;Th 11:00 - 23:00;Fr 11:00 - 00:00;Sa 11:00 - 00:00", "brand": "BJ's Restaurant & Brewery", "brand:wikidata": "Q4835755"}, "geometry": {"type": "Point", "coordinates": [-78.743533, 35.755676]}},
{"type": "Feature", "id": "xnTv0SQ3TpmFhXz51KkAUsX8q-w=", "properties": {"ref": "465", "@spider": "bj-restaurant", "addr:full": "3200 Expressway 83", "addr:city": "McAllen", "addr:state": "TX", "addr:postcode": "78501", "name": "BJ's Restaurants and Brewhouse McAllen", "phone": "956-687-2005", "website": "https://www.bjsrestaurants.com/locations/tx/mcallen", "opening_hours": "Su 11:00 - 23:00;Mo 11:00 - 23:00;Tu 11:00 - 23:00;We 11:00 - 23:00;Th 11:00 - 23:00;Fr 11:00 - 00:00;Sa 11:00 - 00:00", "brand": "BJ's Restaurant & Brewery", "brand:wikidata": "Q4835755"}, "geometry": {"type": "Point", "coordinates": [-98.259391, 26.194997]}},
{"type": "Feature", "id": "dvYb4j0tCVyUIcwc8rH9L7cNBbQ=", "properties": {"ref": "534", "@spider": "bj-restaurant", "addr:full": "4805 South Loop 289 Bldg #100", "addr:city": "Lubbock", "addr:state": "TX", "addr:postcode": "79424", "name": "BJ's Restaurants and Brewhouse Lubbock", "phone": "806-783-8600", "website": "https://www.bjsrestaurants.com/locations/tx/lubbock", "opening_hours": "Su 11:00 - 23:00;Mo 11:00 - 23:00;Tu 11:00 - 23:00;We 11:00 - 23:00;Th 11:00 - 23:00;Fr 11:00 - 00:00;Sa 11:00 - 00:00", "brand": "BJ's Restaurant & Brewery", "brand:wikidata": "Q4835755"}, "geometry": {"type": "Point", "coordinates": [-101.914461, 33.531828]}},
{"type": "Feature", "id": "8dKXUJmHDv2Xx7OGa6E7q8X0x9s=", "properties": {"ref": "499", "@spider": "bj-restaurant", "addr:full": "17503 IH 10 W", "addr:city": "San Antonio", "addr:state": "TX", "addr:postcode": "78257", "name": "BJ's Restaurants and Brewhouse San Antonio - The Rim", "phone": "210-690-2600", "website": "https://www.bjsrestaurants.com/locations/tx/san-antonio---the-rim", "opening_hours": "Su 11:00 - 23:00;Mo 11:00 - 23:00;Tu 11:00 - 23:00;We 11:00 - 23:00;Th 11:00 - 23:00;Fr 11:00 - 00:00;Sa 11:00 - 00:00", "brand": "BJ's Restaurant & Brewery", "brand:wikidata": "Q4835755"}, "geometry": {"type": "Point", "coordinates": [-98.601247, 29.607736]}},
{"type": "Feature", "id": "jsC7dmillFiWXJmgSaiSr3RZqVc=", "properties": {"ref": "551", "@spider": "bj-restaurant", "addr:full": "5037 S Padre Island Drive", "addr:city": "Corpus Christi", "addr:state": "TX", "addr:postcode": "78411", "name": "BJ's Restaurants and Brewhouse Corpus Christi", "phone": "361-985-1600", "website": "https://www.bjsrestaurants.com/locations/tx/corpus-christi", "opening_hours": "Su 11:00 - 23:00;Mo 11:00 - 23:00;Tu 11:00 - 23:00;We 11:00 - 23:00;Th 11:00 - 23:00;Fr 11:00 - 00:00;Sa 11:00 - 00:00", "brand": "BJ's Restaurant & Brewery", "brand:wikidata": "Q4835755"}, "geometry": {"type": "Point", "coordinates": [-97.380111, 27.712592]}},
{"type": "Feature", "id": "UPhdgY_WqvfMirpAFewQ51nP7UM=", "properties": {"ref": "498", "@spider": "bj-restaurant", "addr:full": "5447 W. Loop 1604 North", "addr:city": "San Antonio", "addr:state": "TX", "addr:postcode": "78253", "name": "BJ's Restaurants and Brewhouse Alamo Ranch", "phone": "210-523-5700", "website": "https://www.bjsrestaurants.com/locations/tx/alamo-ranch", "opening_hours": "Su 11:00 - 23:00;Mo 11:00 - 23:00;Tu 11:00 - 23:00;We 11:00 - 23:00;Th 11:00 - 23:00;Fr 11:00 - 00:00;Sa 11:00 - 00:00", "brand": "BJ's Restaurant & Brewery", "brand:wikidata": "Q4835755"}, "geometry": {"type": "Point", "coordinates": [-98.707801, 29.490112]}},
{"type": "Feature", "id": "yZnprf2kAkqT4QCYVfnA3TQVUJU=", "properties": {"ref": "471", "@spider": "bj-restaurant", "addr:full": "5207 Brodie Lane #300", "addr:city": "Sunset Valley", "addr:state": "TX", "addr:postcode": "78745", "name": "BJ's Restaurants and Brewhouse Sunset Valley", "phone": "512-892-3800", "website": "https://www.bjsrestaurants.com/locations/tx/sunset-valley", "opening_hours": "Su 11:00 - 22:00;Mo 11:00 - 23:00;Tu 11:00 - 23:00;We 11:00 - 23:00;Th 11:00 - 23:00;Fr 11:00 - 00:00;Sa 11:00 - 00:00", "brand": "BJ's Restaurant & Brewery", "brand:wikidata": "Q4835755"}, "geometry": {"type": "Point", "coordinates": [-97.816851, 30.231834]}},
{"type": "Feature", "id": "bkdNWnhRPuGlDZFrbDNZLmQBi1c=", "properties": {"ref": "560", "@spider": "bj-restaurant", "addr:full": "1001 E. Whitestone Blvd", "addr:city": "Cedar Park", "addr:state": "TX", "addr:postcode": "78613", "name": "BJ's Restaurants and Brewhouse Cedar Park", "phone": "512-379-2180", "website": "https://www.bjsrestaurants.com/locations/tx/cedar-park", "opening_hours": "Su 11:00 - 23:00;Mo 11:00 - 23:00;Tu 11:00 - 23:00;We 11:00 - 23:00;Th 11:00 - 23:00;Fr 11:00 - 00:00;Sa 11:00 - 00:00", "brand": "BJ's Restaurant & Brewery", "brand:wikidata": "Q4835755"}, "geometry": {"type": "Point", "coordinates": [-97.817848, 30.525107]}},
{"type": "Feature", "id": "J6Y0uo_v7evdhsMoQu6ji-KeVeA=", "properties": {"ref": "506", "@spider": "bj-restaurant", "addr:full": "10515 Mopac Expressway", "addr:city": "Austin", "addr:state": "TX", "addr:postcode": "78759", "name": "BJ's Restaurants and Brewhouse Arbor Walk", "phone": "512-349-9000", "website": "https://www.bjsrestaurants.com/locations/tx/arbor-walk", "opening_hours": "Su 11:00 - 23:00;Mo 11:00 - 23:00;Tu 11:00 - 23:00;We 11:00 - 23:00;Th 11:00 - 23:00;Fr 11:00 - 00:00;Sa 11:00 - 00:00", "brand": "BJ's Restaurant & Brewery", "brand:wikidata": "Q4835755"}, "geometry": {"type": "Point", "coordinates": [-97.732388, 30.392105]}},
{"type": "Feature", "id": "f8qSTU-bNvqhFGf_cxK7brYm-dk=", "properties": {"ref": "522", "@spider": "bj-restaurant", "addr:full": "4201 North IH 35", "addr:city": "Round Rock", "addr:state": "TX", "addr:postcode": "78664", "name": "BJ's Restaurants and Brewhouse Round Rock", "phone": "512-868-5705", "website": "https://www.bjsrestaurants.com/locations/tx/round-rock", "opening_hours": "Su 11:00 - 23:00;Mo 11:00 - 23:00;Tu 11:00 - 23:00;We 11:00 - 23:00;Th 11:00 - 23:00;Fr 11:00 - 00:00;Sa 11:00 - 00:00", "brand": "BJ's Restaurant & Brewery", "brand:wikidata": "Q4835755"}, "geometry": {"type": "Point", "coordinates": [-97.691746, 30.561081]}},
{"type": "Feature", "id": "GDbGNu_4bcVe_PbXGqQup07mWJo=", "properties": {"ref": "470", "@spider": "bj-restaurant", "addr:full": "3550 S. General Bruce Dr. Building G", "addr:city": "Temple", "addr:state": "TX", "addr:postcode": "76504", "name": "BJ's Restaurants and Brewhouse Temple", "phone": "254-778-3300", "website": "https://www.bjsrestaurants.com/locations/tx/temple", "opening_hours": "Su 11:00 - 23:00;Mo 11:00 - 23:00;Tu 11:00 - 23:00;We 11:00 - 23:00;Th 11:00 - 23:00;Fr 11:00 - 00:00;Sa 11:00 - 00:00", "brand": "BJ's Restaurant & Brewery", "brand:wikidata": "Q4835755"}, "geometry": {"type": "Point", "coordinates": [-97.385774, 31.091767]}},
{"type": "Feature", "id": "clZcCu9oNTlmaMgF92aLo3sAJpk=", "properties": {"ref": "519", "@spider": "bj-restaurant", "addr:full": "5929 West Waco Drive", "addr:city": "Waco", "addr:state": "TX", "addr:postcode": "76710", "name": "BJ's Restaurants and Brewhouse Waco", "phone": "254-776-0200", "website": "https://www.bjsrestaurants.com/locations/tx/waco", "opening_hours": "Su 11:00 - 23:00;Mo 11:00 - 23:00;Tu 11:00 - 23:00;We 11:00 - 23:00;Th 11:00 - 23:00;Fr 11:00 - 00:00;Sa 11:00 - 00:00", "brand": "BJ's Restaurant & Brewery", "brand:wikidata": "Q4835755"}, "geometry": {"type": "Point", "coordinates": [-97.188868, 31.513761]}},
{"type": "Feature", "id": "5nPRiR9_YK6rKq8Zns7FFvinnak=", "properties": {"ref": "442", "@spider": "bj-restaurant", "addr:full": "2231 Highway 6", "addr:city": "Sugarland", "addr:state": "TX", "addr:postcode": "77478", "name": "BJ's Restaurants and Brewhouse Sugar Land", "phone": "281-242-0400", "website": "https://www.bjsrestaurants.com/locations/tx/sugar-land", "opening_hours": "Su 11:00 - 23:00;Mo 11:00 - 23:00;Tu 11:00 - 23:00;We 11:00 - 23:00;Th 11:00 - 23:00;Fr 11:00 - 01:00;Sa 11:00 - 01:00", "brand": "BJ's Restaurant & Brewery", "brand:wikidata": "Q4835755"}, "geometry": {"type": "Point", "coordinates": [-95.620159, 29.598085]}},
{"type": "Feature", "id": "9mfYuXXBW9JcKMECHOtE0TBQONA=", "properties": {"ref": "555", "@spider": "bj-restaurant", "addr:full": "20536 Katy Freeway", "addr:city": "Katy", "addr:state": "TX", "addr:postcode": "77449", "name": "BJ's Restaurants and Brewhouse Katy", "phone": "281-769-1850", "website": "https://www.bjsrestaurants.com/locations/tx/katy", "opening_hours": "Su 11:00 - 23:00;Mo 11:00 - 23:00;Tu 11:00 - 23:00;We 11:00 - 23:00;Th 11:00 - 23:00;Fr 11:00 - 00:00;Sa 11:00 - 00:00", "brand": "BJ's Restaurant & Brewery", "brand:wikidata": "Q4835755"}, "geometry": {"type": "Point", "coordinates": [-95.728024, 29.785618]}},
{"type": "Feature", "id": "jtyaFKzIOWNPM-HghQxtPqtgMlo=", "properties": {"ref": "513", "@spider": "bj-restaurant", "addr:full": "1520 Harvey Road", "addr:city": "College Station", "addr:state": "TX", "addr:postcode": "77845", "name": "BJ's Restaurants and Brewhouse College Station", "phone": "979-696-5700", "website": "https://www.bjsrestaurants.com/locations/tx/college-station", "opening_hours": "Su 11:00 - 23:00;Mo 11:00 - 23:00;Tu 11:00 - 23:00;We 11:00 - 23:00;Th 11:00 - 23:00;Fr 11:00 - 00:00;Sa 11:00 - 00:00", "brand": "BJ's Restaurant & Brewery", "brand:wikidata": "Q4835755"}, "geometry": {"type": "Point", "coordinates": [-96.302404, 30.626983]}},
{"type": "Feature", "id": "raaX-muyrocC0Fm0x1GhKu-eTFY=", "properties": {"ref": "481", "@spider": "bj-restaurant", "addr:full": "11200 Broadway Suite 1700", "addr:city": "Pearland", "addr:state": "TX", "addr:postcode": "77584", "name": "BJ's Restaurants and Brewhouse Pearland", "phone": "713-436-7805", "website": "https://www.bjsrestaurants.com/locations/tx/pearland", "opening_hours": "Su 11:00 - 23:00;Mo 11:00 - 23:00;Tu 11:00 - 23:00;We 11:00 - 23:00;Th 11:00 - 23:00;Fr 11:00 - 01:00;Sa 11:00 - 01:00", "brand": "BJ's Restaurant & Brewery", "brand:wikidata": "Q4835755"}, "geometry": {"type": "Point", "coordinates": [-95.39354, 29.55471]}},
{"type": "Feature", "id": "wfunIPb7xjWGDm0R1WV51yW67QE=", "properties": {"ref": "431", "@spider": "bj-restaurant", "addr:full": "7637 FM 1960 West", "addr:city": "Houston", "addr:state": "TX", "addr:postcode": "77070", "name": "BJ's Restaurants and Brewhouse Willowbrook", "phone": "281-477-8777", "website": "https://www.bjsrestaurants.com/locations/tx/willowbrook", "opening_hours": "Su 11:00 - 23:00;Mo 11:00 - 23:00;Tu 11:00 - 23:00;We 11:00 - 23:00;Th 11:00 - 23:00;Fr 11:00 - 01:00;Sa 11:00 - 01:00", "brand": "BJ's Restaurant & Brewery", "brand:wikidata": "Q4835755"}, "geometry": {"type": "Point", "coordinates": [-95.544606, 29.962532]}},
{"type": "Feature", "id": "kC_YIcPTKd8RbgDbPfGM4qj8iBM=", "properties": {"ref": "428", "@spider": "bj-restaurant", "addr:full": "515 W. Bay Area Boulevard", "addr:city": "Webster", "addr:state": "TX", "addr:postcode": "77598", "name": "BJ's Restaurants and Brewhouse Clear Lake", "phone": "281-316-3037", "website": "https://www.bjsrestaurants.com/locations/tx/clear-lake", "opening_hours": "Su 11:00 - 23:00;Mo 11:00 - 23:00;Tu 11:00 - 23:00;We 11:00 - 23:00;Th 11:00 - 23:00;Fr 11:00 - 01:00;Sa 11:00 - 01:00", "brand": "BJ's Restaurant & Brewery", "brand:wikidata": "Q4835755"}, "geometry": {"type": "Point", "coordinates": [-95.132557, 29.545214]}},
{"type": "Feature", "id": "uS5I5oOfjg9ry3dfYSItZtE59KI=", "properties": {"ref": "505", "@spider": "bj-restaurant", "addr:full": "19075 Interstate 45 South Suite 600", "addr:city": "Shenandoah", "addr:state": "TX", "addr:postcode": "77385", "name": "BJ's Restaurants and Brewhouse Shenandoah", "phone": "936-273-7100", "website": "https://www.bjsrestaurants.com/locations/tx/shenandoah", "opening_hours": "Su 11:00 - 23:00;Mo 11:00 - 23:00;Tu 11:00 - 23:00;We 11:00 - 23:00;Th 11:00 - 23:00;Fr 11:00 - 00:00;Sa 11:00 - 00:00", "brand": "BJ's Restaurant & Brewery", "brand:wikidata": "Q4835755"}, "geometry": {"type": "Point", "coordinates": [-95.451435, 30.18519]}},
{"type": "Feature", "id": "dxBK3xzlCjkU5d2pfDswuNTC7Ig=", "properties": {"ref": "455", "@spider": "bj-restaurant", "addr:full": "201 E. Interstate 20", "addr:city": "Arlington", "addr:state": "TX", "addr:postcode": "76018", "name": "BJ's Restaurants and Brewhouse Arlington", "phone": "817-465-5225", "website": "https://www.bjsrestaurants.com/locations/tx/arlington", "opening_hours": "Su 11:00 - 23:00;Mo 11:00 - 23:00;Tu 11:00 - 23:00;We 11:00 - 23:00;Th 11:00 - 23:00;Fr 11:00 - 00:00;Sa 11:00 - 00:00", "brand": "BJ's Restaurant & Brewery", "brand:wikidata": "Q4835755"}, "geometry": {"type": "Point", "coordinates": [-97.110775, 32.679071]}},
{"type": "Feature", "id": "Jiw1yviAPZvG76i8RBuTibOHS3Q=", "properties": {"ref": "496", "@spider": "bj-restaurant", "addr:full": "9401 Sage Meadow Trail", "addr:city": "Fort Worth", "addr:state": "TX", "addr:postcode": "76177", "name": "BJ's Restaurants and Brewhouse Alliance", "phone": "817-750-0005", "website": "https://www.bjsrestaurants.com/locations/tx/alliance", "opening_hours": "Su 11:00 - 23:00;Mo 11:00 - 23:00;Tu 11:00 - 23:00;We 11:00 - 23:00;Th 11:00 - 23:00;Fr 11:00 - 00:00;Sa 11:00 - 00:00", "brand": "BJ's Restaurant & Brewery", "brand:wikidata": "Q4835755"}, "geometry": {"type": "Point", "coordinates": [-97.316108, 32.910064]}},
{"type": "Feature", "id": "xJovZ1_eQfzJd49ANr6xQLXkoRI=", "properties": {"ref": "515", "@spider": "bj-restaurant", "addr:full": "4720 South Hulen Street", "addr:city": "Fort Worth", "addr:state": "TX", "addr:postcode": "76132", "name": "BJ's Restaurants and Brewhouse Hulen Mall", "phone": "817-292-9200", "website": "https://www.bjsrestaurants.com/locations/tx/hulen-mall", "opening_hours": "Su 11:00 - 23:00;Mo 11:00 - 23:00;Tu 11:00 - 23:00;We 11:00 - 23:00;Th 11:00 - 23:00;Fr 11:00 - 00:00;Sa 11:00 - 00:00", "brand": "BJ's Restaurant & Brewery", "brand:wikidata": "Q4835755"}, "geometry": {"type": "Point", "coordinates": [-97.39702, 32.677913]}},
{"type": "Feature", "id": "05eBI3nCjBWJmy7jnv2Md--loT0=", "properties": {"ref": "494", "@spider": "bj-restaurant", "addr:full": "952 North East Loop 820", "addr:city": "Hurst", "addr:state": "TX", "addr:postcode": "76053", "name": "BJ's Restaurants and Brewhouse Hurst", "phone": "817-595-3705", "website": "https://www.bjsrestaurants.com/locations/tx/hurst", "opening_hours": "Su 11:00 - 23:00;Mo 11:00 - 23:00;Tu 11:00 - 23:00;We 11:00 - 23:00;Th 11:00 - 23:00;Fr 11:00 - 00:00;Sa 11:00 - 00:00", "brand": "BJ's Restaurant & Brewery", "brand:wikidata": "Q4835755"}, "geometry": {"type": "Point", "coordinates": [-97.203786, 32.828285]}},
{"type": "Feature", "id": "6560uYxGjE-KV5MUROtZkIZuYNk=", "properties": {"ref": "424", "@spider": "bj-restaurant", "addr:full": "2609 S. Stemmons", "addr:city": "Lewisville", "addr:state": "TX", "addr:postcode": "75067", "name": "BJ's Restaurants and Brewhouse Lewisville", "phone": "972-459-9700", "website": "https://www.bjsrestaurants.com/locations/tx/lewisville", "opening_hours": "Su 11:00 - 23:00;Mo 11:00 - 23:00;Tu 11:00 - 23:00;We 11:00 - 23:00;Th 11:00 - 23:00;Fr 11:00 - 00:00;Sa 11:00 - 00:00", "brand": "BJ's Restaurant & Brewery", "brand:wikidata": "Q4835755"}, "geometry": {"type": "Point", "coordinates": [-96.962032, 33.000238]}},
{"type": "Feature", "id": "oBNC7LfHrZgCiCkA77lXBO4Tdjo=", "properties": {"ref": "567", "@spider": "bj-restaurant", "addr:full": "2201 E. Southlake Blvd.", "addr:city": "Southlake", "addr:state": "TX", "addr:postcode": "76092", "name": "BJ's Restaurants and Brewhouse Southlake", "phone": "817-796-9990", "website": "https://www.bjsrestaurants.com/locations/tx/southlake", "opening_hours": "Su 11:00 - 22:00;Mo 11:00 - 22:00;Tu 11:00 - 22:00;We 11:00 - 22:00;Th 11:00 - 22:00;Fr 11:00 - 23:00;Sa 11:00 - 23:00", "brand": "BJ's Restaurant & Brewery", "brand:wikidata": "Q4835755"}, "geometry": {"type": "Point", "coordinates": [-97.118, 32.94064]}},
{"type": "Feature", "id": "ugzSJAC3hqGkoqLdIDfhd39FQ1Q=", "properties": {"ref": "427", "@spider": "bj-restaurant", "addr:full": "4901 Belt Line Road", "addr:city": "Dallas", "addr:state": "TX", "addr:postcode": "75254", "name": "BJ's Restaurants and Brewhouse Addison", "phone": "972-392-4600", "website": "https://www.bjsrestaurants.com/locations/tx/addison", "opening_hours": "Su 11:00 - 22:00;Mo 11:00 - 22:00;Tu 11:00 - 22:00;We 11:00 - 22:00;Th 11:00 - 22:00;Fr 11:00 - 00:00;Sa 11:00 - 00:00", "brand": "BJ's Restaurant & Brewery", "brand:wikidata": "Q4835755"}, "geometry": {"type": "Point", "coordinates": [-96.82809, 32.954507]}},
{"type": "Feature", "id": "dMjBOsqTCd0UzGfZ2uvGmPIlfSo=", "properties": {"ref": "556", "@spider": "bj-restaurant", "addr:full": "3250 South I-35E", "addr:city": "Denton", "addr:state": "TX", "addr:postcode": "76210", "name": "BJ's Restaurants and Brewhouse Denton", "phone": "940-222-4020", "website": "https://www.bjsrestaurants.com/locations/tx/denton", "opening_hours": "Su 11:00 - 23:00;Mo 11:00 - 23:00;Tu 11:00 - 23:00;We 11:00 - 23:00;Th 11:00 - 23:00;Fr 11:00 - 23:00;Sa 11:00 - 23:00", "brand": "BJ's Restaurant & Brewery", "brand:wikidata": "Q4835755"}, "geometry": {"type": "Point", "coordinates": [-97.098341, 33.174932]}},
{"type": "Feature", "id": "KHUFa6_S82sesQK-Tyilqa-2VTo=", "properties": {"ref": "439", "@spider": "bj-restaurant", "addr:full": "1101 North Central Expressway", "addr:city": "Plano", "addr:state": "TX", "addr:postcode": "75075", "name": "BJ's Restaurants and Brewhouse Plano", "phone": "972-424-4262", "website": "https://www.bjsrestaurants.com/locations/tx/plano", "opening_hours": "Su 11:00 - 23:00;Mo 11:00 - 23:00;Tu 11:00 - 23:00;We 11:00 - 23:00;Th 11:00 - 23:00;Fr 11:00 - 00:00;Sa 11:00 - 00:00", "brand": "BJ's Restaurant & Brewery", "brand:wikidata": "Q4835755"}, "geometry": {"type": "Point", "coordinates": [-96.709573, 33.017399]}},
{"type": "Feature", "id": "7q8JT7GuiDOKd33CN1CjYYuWTXY=", "properties": {"ref": "507", "@spider": "bj-restaurant", "addr:full": "210 Loop 323 WSW", "addr:city": "Tyler", "addr:state": "TX", "addr:postcode": "75703", "name": "BJ's Restaurants and Brewhouse Tyler", "phone": "903-939-2840", "website": "https://www.bjsrestaurants.com/locations/tx/tyler", "opening_hours": "Su 11:00 - 23:00;Mo 11:00 - 23:00;Tu 11:00 - 23:00;We 11:00 - 23:00;Th 11:00 - 23:00;Fr 11:00 - 00:00;Sa 11:00 - 00:00", "brand": "BJ's Restaurant & Brewery", "brand:wikidata": "Q4835755"}, "geometry": {"type": "Point", "coordinates": [-95.303228, 32.302685]}},
{"type": "Feature", "id": "6SV-wujPuBo6DCVLpftEkpJuUik=", "properties": {"ref": "491", "@spider": "bj-restaurant", "addr:full": "190 E Stacy Road Suite 3300", "addr:city": "Allen", "addr:state": "TX", "addr:postcode": "75002", "name": "BJ's Restaurants and Brewhouse Allen", "phone": "972-678-4050", "website": "https://www.bjsrestaurants.com/locations/tx/allen", "opening_hours": "Su 11:00 - 23:00;Mo 11:00 - 23:00;Tu 11:00 - 23:00;We 11:00 - 23:00;Th 11:00 - 23:00;Fr 11:00 - 00:00;Sa 11:00 - 00:00", "brand": "BJ's Restaurant & Brewery", "brand:wikidata": "Q4835755"}, "geometry": {"type": "Point", "coordinates": [-96.660208, 33.127312]}},
{"type": "Feature", "id": "7L5vPQTiM7KlxnOdS5Cs0OQLszI=", "properties": {"ref": "488", "@spider": "bj-restaurant", "addr:full": "1106 Town East Mall", "addr:city": "Mesquite", "addr:state": "TX", "addr:postcode": "75150", "name": "BJ's Restaurants and Brewhouse Mesquite", "phone": "972-682-5800", "website": "https://www.bjsrestaurants.com/locations/tx/mesquite", "opening_hours": "Su 11:00 - 22:00;Mo 11:00 - 22:00;Tu 11:00 - 22:00;We 11:00 - 22:00;Th 11:00 - 22:00;Fr 11:00 - 23:00;Sa 11:00 - 23:00", "brand": "BJ's Restaurant & Brewery", "brand:wikidata": "Q4835755"}, "geometry": {"type": "Point", "coordinates": [-96.623153, 32.808328]}}]}