{"type":"FeatureCollection","features":[{"type": "Feature", "id": "LasHa2eTxSRUCZiIT4EzqREzUrM=", "properties": {"ref": "76", "@spider": "bluebottlecafe", "addr:full": "168 2nd Street<br/>San Francisco, CA 94105", "addr:city": "CA 94105", "name": "2nd Street", "website": "https://bluebottlecoffee.com/cafes/2nd-street", "brand": "Blue Bottle Cafe"}, "geometry": {"type": "Point", "coordinates": [-122.398814, 37.787046]}},
{"type": "Feature", "id": "tLU8TRPFh7NJDoaS_Q-JU_yOXh8=", "properties": {"ref": "121", "@spider": "bluebottlecafe", "addr:full": "201 South B St<br/>Suite A<br/>San Mateo, CA 94401", "addr:city": "CA 94401", "name": "B Street", "website": "https://bluebottlecoffee.com/cafes/b-street", "brand": "Blue Bottle Cafe"}, "geometry": {"type": "Point", "coordinates": [-122.32292, 37.5663]}},
{"type": "Feature", "id": "7y0KIYOBbJbaCHMgCNMYET78H6Q=", "properties": {"ref": "50", "@spider": "bluebottlecafe", "addr:full": "3081 Delaware Street<br/>San Mateo, CA 94403", "addr:city": "CA 94403", "name": "Bay Meadows", "website": "https://bluebottlecoffee.com/cafes/bay-meadows", "brand": "Blue Bottle Cafe"}, "geometry": {"type": "Point", "coordinates": [-122.298336, 37.5407]}},
{"type": "Feature", "id": "MS0WgCm6TWMSQz6NEJG5I6PikvY=", "properties": {"ref": "57", "@spider": "bluebottlecafe", "addr:full": "628 California Street<br/>San Francisco, CA 94109", "addr:city": "CA 94109", "name": "California Street", "website": "https://bluebottlecoffee.com/cafes/california-street", "brand": "Blue Bottle Cafe"}, "geometry": {"type": "Point", "coordinates": [-122.405044, 37.792582]}},
{"type": "Feature", "id": "3hW9XhCAdOQ68z1ZYcgSaFlR1k8=", "properties": {"ref": "101", "@spider": "bluebottlecafe", "addr:full": "705 Market St<br/>San Francisco, CA 94103", "addr:city": "CA 94103", "name": "Central Tower", "website": "https://bluebottlecoffee.com/cafes/central-tower", "brand": "Blue Bottle Cafe"}, "geometry": {"type": "Point", "coordinates": [-122.40357, 37.78718]}},
{"type": "Feature", "id": "ILqxd5j3uI-RN0x9nMRN6U7rH9E=", "properties": {"ref": "28", "@spider": "bluebottlecafe", "addr:full": "2118 University Avenue<br/>Berkeley, CA 94704", "addr:city": "CA 94704", "name": "Downtown Berkeley", "website": "https://bluebottlecoffee.com/cafes/downtown-berkeley", "brand": "Blue Bottle Cafe"}, "geometry": {"type": "Point", "coordinates": [-122.267578, 37.872109]}},
{"type": "Feature", "id": "33S2VFmTN-Vi6YVcCp9FCkWNVSo=", "properties": {"ref": "4", "@spider": "bluebottlecafe", "addr:full": "1 Ferry Building #7<br/>San Francisco, CA 94111", "addr:city": "CA 94111", "name": "Ferry Building", "website": "https://bluebottlecoffee.com/cafes/ferry-building", "brand": "Blue Bottle Cafe"}, "geometry": {"type": "Point", "coordinates": [-122.39372, 37.795928]}},
{"type": "Feature", "id": "ORZGWX9aQwrktyVJ112RewqGgHA=", "properties": {"ref": "24", "@spider": "bluebottlecafe", "addr:full": "1 Ferry Building<br/>Kiosk #4, Suite 56<br/>San Francisco, CA 94111", "addr:city": "Suite 56<br/>San Francisco", "name": "Ferry Building Arcade", "website": "https://bluebottlecoffee.com/cafes/ferry-building-arcade", "brand": "Blue Bottle Cafe"}, "geometry": {"type": "Point", "coordinates": [-122.394219, 37.796027]}},
{"type": "Feature", "id": "LVanJSb6bs39mGM5BLHdVnAUlY8=", "properties": {"ref": "2", "@spider": "bluebottlecafe", "addr:full": "315 Linden St.<br/>San Francisco, CA 94102", "addr:city": "CA 94102", "name": "Hayes Valley Kiosk", "website": "https://bluebottlecoffee.com/cafes/kiosk", "brand": "Blue Bottle Cafe"}, "geometry": {"type": "Point", "coordinates": [-122.4233375, 37.7762245]}},
{"type": "Feature", "id": "wylnCAvLaI91bi8shLedd3DbEYo=", "properties": {"ref": "129", "@spider": "bluebottlecafe", "addr:full": "909 Montgomery St<br/>#105<br/>San Francisco, CA 94133", "addr:city": "CA 94133", "name": "Jackson Square", "website": "https://bluebottlecoffee.com/cafes/jackson-square", "brand": "Blue Bottle Cafe"}, "geometry": {"type": "Point", "coordinates": [-122.4063516, 37.7975606]}},
{"type": "Feature", "id": "iUGzafmw3uRmdqkc1p2aBEsf12s=", "properties": {"ref": "3", "@spider": "bluebottlecafe", "addr:full": "66 Mint Plaza<br/>San Francisco, CA 94103", "addr:city": "CA 94103", "name": "Mint Plaza", "website": "https://bluebottlecoffee.com/cafes/mint-plaza", "brand": "Blue Bottle Cafe"}, "geometry": {"type": "Point", "coordinates": [-122.4077169, 37.7824144]}},
{"type": "Feature", "id": "wQkTTJ0VCEE88dWF6dGxLdASBKg=", "properties": {"ref": "124", "@spider": "bluebottlecafe", "addr:full": "1385 4th St<br/>San Francisco, CA 94158", "addr:city": "CA 94158", "name": "Mission Bay", "website": "https://bluebottlecoffee.com/cafes/mission-bay", "brand": "Blue Bottle Cafe"}, "geometry": {"type": "Point", "coordinates": [-122.39117, 37.77101]}},
{"type": "Feature", "id": "DPP4BcBadgRXVEei_ApCbVYFDzg=", "properties": {"ref": "41", "@spider": "bluebottlecafe", "addr:full": "480 9th Street<br/>Oakland, CA 94607", "addr:city": "CA 94607", "name": "Old Oakland", "website": "https://bluebottlecoffee.com/cafes/old-oakland", "brand": "Blue Bottle Cafe"}, "geometry": {"type": "Point", "coordinates": [-122.273948, 37.801247]}},
{"type": "Feature", "id": "-0IPZHJOyA8VtxvlDpDg0983vzw=", "properties": {"ref": "40", "@spider": "bluebottlecafe", "addr:full": "2453 Fillmore Street<br/>San Francisco, CA 94115", "addr:city": "CA 94115", "name": "Pacific Heights", "website": "https://bluebottlecoffee.com/cafes/pacific-heights", "brand": "Blue Bottle Cafe"}, "geometry": {"type": "Point", "coordinates": [-122.435477, 37.792362]}},
{"type": "Feature", "id": "8rZsR1zNLht6BOZTuspGSw3VdJs=", "properties": {"ref": "19", "@spider": "bluebottlecafe", "addr:full": "456 University Avenue<br/>Palo Alto, CA 94301", "addr:city": "CA 94301", "name": "Palo Alto", "website": "https://bluebottlecoffee.com/cafes/palo-alto", "brand": "Blue Bottle Cafe"}, "geometry": {"type": "Point", "coordinates": [-122.159606, 37.447595]}},
{"type": "Feature", "id": "9HvFanCHKvkgBidlQjzjAaBVCyE=", "properties": {"ref": "127", "@spider": "bluebottlecafe", "addr:full": "250 Howard St  <br/>Suite 3A<br/>San Francisco, CA 94105", "addr:city": "CA 94105", "name": "Park Tower", "website": "https://bluebottlecoffee.com/cafes/park-tower", "brand": "Blue Bottle Cafe"}, "geometry": {"type": "Point", "coordinates": [-122.3964388, 37.7904832]}},
{"type": "Feature", "id": "HCdBmDN--jcG2sbodRjiQHFFIT0=", "properties": {"ref": "73", "@spider": "bluebottlecafe", "addr:full": "4001 Piedmont Ave<br/>Oakland, CA 94611", "addr:city": "CA 94611", "name": "Piedmont", "website": "https://bluebottlecoffee.com/cafes/piedmont", "brand": "Blue Bottle Cafe"}, "geometry": {"type": "Point", "coordinates": [-122.253395, 37.825859]}},
{"type": "Feature", "id": "MimORdE76Vtusept1yVPkdmdMEg=", "properties": {"ref": "21", "@spider": "bluebottlecafe", "addr:full": "115 Sansome Street<br/>San Francisco, CA 94104", "addr:city": "CA 94104", "name": "Sansome", "website": "https://bluebottlecoffee.com/cafes/sansome", "brand": "Blue Bottle Cafe"}, "geometry": {"type": "Point", "coordinates": [-122.4009813, 37.7914343]}},
{"type": "Feature", "id": "Ljcw87wHz0T38Okik7gCFloHEsA=", "properties": {"ref": "104", "@spider": "bluebottlecafe", "addr:full": "368 Santana Row<br/>Suite 1020<br/>San Jose, CA 95128", "addr:city": "CA 95128", "name": "Santana Row", "website": "https://bluebottlecoffee.com/cafes/santana-row", "brand": "Blue Bottle Cafe"}, "geometry": {"type": "Point", "coordinates": [-121.947862, 37.320054]}},
{"type": "Feature", "id": "wkhtym8hGrq-ei9Qpq8T7ZK_H-c=", "properties": {"ref": "32", "@spider": "bluebottlecafe", "addr:full": "2 South Park<br/>San Francisco, CA 94107", "addr:city": "CA 94107", "name": "South Park", "website": "https://bluebottlecoffee.com/cafes/south-park", "brand": "Blue Bottle Cafe"}, "geometry": {"type": "Point", "coordinates": [-122.393248, 37.782429]}},
{"type": "Feature", "id": "6oyrXrHSHsnMBjA1d-JPRDowJ0U=", "properties": {"ref": "95", "@spider": "bluebottlecafe", "addr:full": "660 Stanford Shopping Center<br/>#650B<br/>Palo Alto, CA 94304", "addr:city": "CA 94304", "name": "Stanford", "website": "https://bluebottlecoffee.com/cafes/stanford", "brand": "Blue Bottle Cafe"}, "geometry": {"type": "Point", "coordinates": [-122.171949, 37.441944]}},
{"type": "Feature", "id": "nL1f4MVPwXzCBida4YsRpbyglWk=", "properties": {"ref": "102", "@spider": "bluebottlecafe", "addr:full": "199 Sutter Street<br/>San Francisco, CA 94104", "addr:city": "CA 94104", "name": "Sutter Street", "website": "https://bluebottlecoffee.com/cafes/sutter-street", "brand": "Blue Bottle Cafe"}, "geometry": {"type": "Point", "coordinates": [-122.403672, 37.789767]}},
{"type": "Feature", "id": "E_C3wnkct0vNx-L-ZjclwOkqDRQ=", "properties": {"ref": "7", "@spider": "bluebottlecafe", "addr:full": "4270 Broadway<br/>Oakland, CA 94611", "addr:city": "CA 94611", "name": "W. C. Morse", "website": "https://bluebottlecoffee.com/cafes/morse", "brand": "Blue Bottle Cafe"}, "geometry": {"type": "Point", "coordinates": [-122.2541263, 37.8310971]}},
{"type": "Feature", "id": "-fpDAvFIPX-qcgCvaD7kn8kvoOc=", "properties": {"ref": "15", "@spider": "bluebottlecafe", "addr:full": "1103 Abbot Kinney Blvd<br/>Venice, CA 90291", "addr:city": "CA 90291", "name": "Abbot Kinney", "website": "https://bluebottlecoffee.com/cafes/abbot-kinney", "brand": "Blue Bottle Cafe"}, "geometry": {"type": "Point", "coordinates": [-118.4703545, 33.9918661]}},
{"type": "Feature", "id": "ckAqKOB22THKcwTltsJUHenDsQ0=", "properties": {"ref": "14", "@spider": "bluebottlecafe", "addr:full": "582 Mateo St.<br/>Los Angeles, CA 90013", "addr:city": "CA 90013", "name": "Arts District", "website": "https://bluebottlecoffee.com/cafes/arts-district", "brand": "Blue Bottle Cafe"}, "geometry": {"type": "Point", "coordinates": [-118.2324731, 34.0391029]}},
{"type": "Feature", "id": "vZatFsD37DGNcmldc-ta6UoiUkY=", "properties": {"ref": "22", "@spider": "bluebottlecafe", "addr:full": "8301 Beverly Boulevard<br/>Los Angeles, CA 90048", "addr:city": "CA 90048", "name": "Beverly Grove", "website": "https://bluebottlecoffee.com/cafes/beverly-grove", "brand": "Blue Bottle Cafe"}, "geometry": {"type": "Point", "coordinates": [-118.3702455, 34.076381]}},
{"type": "Feature", "id": "xzvvU1Xhvky8APDuGTcGz4zzPf0=", "properties": {"ref": "35", "@spider": "bluebottlecafe", "addr:full": "300 South Broadway<br/>Los Angeles, CA 90013", "addr:city": "CA 90013", "name": "Bradbury", "website": "https://bluebottlecoffee.com/cafes/bradbury", "brand": "Blue Bottle Cafe"}, "geometry": {"type": "Point", "coordinates": [-118.247947, 34.05075]}},
{"type": "Feature", "id": "iAVceicK0a55oF_gsxqa-Zgs5G8=", "properties": {"ref": "47", "@spider": "bluebottlecafe", "addr:full": "13050 San Vicente Blvd<br/>Los Angeles, CA 90049", "addr:city": "CA 90049", "name": "Brentwood Town Center ", "website": "https://bluebottlecoffee.com/cafes/brentwood-town-center", "brand": "Blue Bottle Cafe"}, "geometry": {"type": "Point", "coordinates": [-118.491126, 34.048176]}},
{"type": "Feature", "id": "pHqXO7Ui0HaA_MpUUddhcfuYtcA=", "properties": {"ref": "62", "@spider": "bluebottlecafe", "addr:full": "10250 Santa Monica Blvd<br/>#1765<br/>Los Angeles, CA 90067", "addr:city": "CA 90067", "name": "Century City", "website": "https://bluebottlecoffee.com/cafes/century-city", "brand": "Blue Bottle Cafe"}, "geometry": {"type": "Point", "coordinates": [-118.418866, 34.059003]}},
{"type": "Feature", "id": "gkYE8V3kfyQZMMkv12d6x0qAIpo=", "properties": {"ref": "120", "@spider": "bluebottlecafe", "addr:full": "555 S Alexandria Ave<br/>Los Angeles, CA 90020", "addr:city": "CA 90020", "name": "Chapman Court", "website": "https://bluebottlecoffee.com/cafes/chapman-court", "brand": "Blue Bottle Cafe"}, "geometry": {"type": "Point", "coordinates": [-118.298112, 34.063924]}},
{"type": "Feature", "id": "b66lzEo7RdnlVwvfAGHsGx4gsJ0=", "properties": {"ref": "107", "@spider": "bluebottlecafe", "addr:full": "180 Broadway<br/>Suite 101<br/>San Diego, CA 92101", "addr:city": "CA 92101", "name": "Downtown San Diego", "website": "https://bluebottlecoffee.com/cafes/downtown-san-diego", "brand": "Blue Bottle Cafe"}, "geometry": {"type": "Point", "coordinates": [-117.16376, 32.71571]}},
{"type": "Feature", "id": "B-L86Vak37NVYrss6EtIWVF0Dvs=", "properties": {"ref": "75", "@spider": "bluebottlecafe", "addr:full": "2439 Main St<br/>Santa Monica, CA 90405", "addr:city": "CA 90405", "name": "Edgemar", "website": "https://bluebottlecoffee.com/cafes/edgemar", "brand": "Blue Bottle Cafe"}, "geometry": {"type": "Point", "coordinates": [-118.48426, 34.00268]}},
{"type": "Feature", "id": "QNKZJazJ_I3m--4aLUJoRyDgyOU=", "properties": {"ref": "49", "@spider": "bluebottlecafe", "addr:full": "830 N. Fairfax Ave<br/>Suite 1<br/>Los Angeles, CA 90046", "addr:city": "CA 90046", "name": "Fairfax", "website": "https://bluebottlecoffee.com/cafes/fairfax", "brand": "Blue Bottle Cafe"}, "geometry": {"type": "Point", "coordinates": [-118.361152, 34.086413]}},
{"type": "Feature", "id": "R3-67ZXiKOwwxVQDzAA9mBW6TYE=", "properties": {"ref": "25", "@spider": "bluebottlecafe", "addr:full": "8830 Washington Boulevard<br/>Suite #103<br/>Culver City, CA 90232", "addr:city": "CA 90232", "name": "Hayden Tract", "website": "https://bluebottlecoffee.com/cafes/hayden-tract", "brand": "Blue Bottle Cafe"}, "geometry": {"type": "Point", "coordinates": [-118.3895852, 34.0276941]}},
{"type": "Feature", "id": "7tM6MdCpgQIO9wI-mKeY_VtitIU=", "properties": {"ref": "36", "@spider": "bluebottlecafe", "addr:full": "2066 Hillhurst Avenue<br/>Los Angeles, CA 90027", "addr:city": "CA 90027", "name": "Los Feliz", "website": "https://bluebottlecoffee.com/cafes/los-feliz", "brand": "Blue Bottle Cafe"}, "geometry": {"type": "Point", "coordinates": [-118.287185, 34.109521]}},
{"type": "Feature", "id": "ybzNombffjwTqixFu4PyzmiD3Fw=", "properties": {"ref": "91", "@spider": "bluebottlecafe", "addr:full": "23401 Civic Center Way<br/> Suite 2A<br/>Malibu, CA  90265", "addr:city": "CA  90265", "name": "Malibu", "website": "https://bluebottlecoffee.com/cafes/malibu", "brand": "Blue Bottle Cafe"}, "geometry": {"type": "Point", "coordinates": [-118.691277, 34.035837]}},
{"type": "Feature", "id": "EeiklkcYAMzW79JvzbRbFcuMMgg=", "properties": {"ref": "82", "@spider": "bluebottlecafe", "addr:full": "3725 Paseo Place<br/>Suite 1060<br/>San Diego, CA 92130", "addr:city": "CA 92130", "name": "One Paseo", "website": "https://bluebottlecoffee.com/cafes/one-paseo", "brand": "Blue Bottle Cafe"}, "geometry": {"type": "Point", "coordinates": [-117.235727, 32.951628]}},
{"type": "Feature", "id": "6ui6R-84iZXpTq4upZmnREv7Q8g=", "properties": {"ref": "72", "@spider": "bluebottlecafe", "addr:full": "18 S Fair Oaks<br/>Pasadena, CA 91105", "addr:city": "CA 91105", "name": "Pasadena", "website": "https://bluebottlecoffee.com/cafes/pasadena", "brand": "Blue Bottle Cafe"}, "geometry": {"type": "Point", "coordinates": [-118.150278, 34.145391]}},
{"type": "Feature", "id": "wzPVH8pXM-yU0pTOtOrsfJIky0E=", "properties": {"ref": "42", "@spider": "bluebottlecafe", "addr:full": "12105 W Waterfront Drive<br/>Suite C4-108C<br/>Los Angeles, CA 90094", "addr:city": "CA 90094", "name": "Playa Vista", "website": "https://bluebottlecoffee.com/cafes/playa-vista", "brand": "Blue Bottle Cafe"}, "geometry": {"type": "Point", "coordinates": [-118.405837, 33.981979]}},
{"type": "Feature", "id": "Hae5rNTCuFzl81v_ytZcKzs7Gac=", "properties": {"ref": "53", "@spider": "bluebottlecafe", "addr:full": "116 N Robertson Blvd<br/>Plaza B<br/>Los Angeles, CA 90048", "addr:city": "CA 90048", "name": "Robertson Boulevard", "website": "https://bluebottlecoffee.com/cafes/robertson-boulevard", "brand": "Blue Bottle Cafe"}, "geometry": {"type": "Point", "coordinates": [-118.383301, 34.07593]}},
{"type": "Feature", "id": "bAjwxti3TCQx3U-qQx6brvj5vQ8=", "properties": {"ref": "133", "@spider": "bluebottlecafe", "addr:full": "415 Santa Monica Blvd<br/>Santa Monica, CA 90401", "addr:city": "CA 90401", "name": "Santa Monica", "website": "https://bluebottlecoffee.com/cafes/santa-monica", "brand": "Blue Bottle Cafe"}, "geometry": {"type": "Point", "coordinates": [-118.49479, 34.01677]}},
{"type": "Feature", "id": "HzsjeBMWzkfmmxYc4ojGX7ZeYLQ=", "properties": {"ref": "37", "@spider": "bluebottlecafe", "addr:full": "132 South Beverly Drive<br/>Beverly Hills, CA 90212", "addr:city": "CA 90212", "name": "South Beverly", "website": "https://bluebottlecoffee.com/cafes/south-beverly", "brand": "Blue Bottle Cafe"}, "geometry": {"type": "Point", "coordinates": [-118.398791, 34.065835]}},
{"type": "Feature", "id": "7F7dKDq2Z5pd0XNsXsUyMc68pyM=", "properties": {"ref": "83", "@spider": "bluebottlecafe", "addr:full": "11962 Ventura Blvd\t<br/>Studio City, CA  91604", "addr:city": "CA  91604", "name": "Studio City", "website": "https://bluebottlecoffee.com/cafes/studio-city", "brand": "Blue Bottle Cafe"}, "geometry": {"type": "Point", "coordinates": [-118.392135, 34.14321]}},
{"type": "Feature", "id": "B8lsT7rqovDJGTGWMRLjS9Ddi1Q=", "properties": {"ref": "79", "@spider": "bluebottlecafe", "addr:full": "20929 Ventura Blvd<br/>Space 26<br/>Woodland Hills, CA 91367", "addr:city": "CA 91367", "name": "Valley Country Market", "website": "https://bluebottlecoffee.com/cafes/valley-country-market", "brand": "Blue Bottle Cafe"}, "geometry": {"type": "Point", "coordinates": [-118.58945, 34.16719]}},
{"type": "Feature", "id": "ycWg9XTmluacp5DuttfJjOE_6Do=", "properties": {"ref": "80", "@spider": "bluebottlecafe", "addr:full": "3366 Via Lido<br/>Newport Beach, CA 92663", "addr:city": "CA 92663", "name": "Via Lido", "website": "https://bluebottlecoffee.com/cafes/via-lido", "brand": "Blue Bottle Cafe"}, "geometry": {"type": "Point", "coordinates": [-117.928008, 33.6176772]}},
{"type": "Feature", "id": "FTUW4gA7XUCbeLq7fW2VOIDR9VI=", "properties": {"ref": "123", "@spider": "bluebottlecafe", "addr:full": "33 Boylston St<br/>Ste 3300<br/>Chestnut Hill, MA 02467", "addr:city": "MA 02467", "name": "Chestnut Hill", "website": "https://bluebottlecoffee.com/cafes/chestnut-hill", "brand": "Blue Bottle Cafe"}, "geometry": {"type": "Point", "coordinates": [-71.16871940206424, 42.322964860374164]}},
{"type": "Feature", "id": "PoKGY5VI1iBQyui0WzfTAfHsW0M=", "properties": {"ref": "56", "@spider": "bluebottlecafe", "addr:full": "40 Bow St<br/>Cambridge, MA 02138", "addr:city": "MA 02138", "name": "Harvard Square", "website": "https://bluebottlecoffee.com/cafes/harvard-square", "brand": "Blue Bottle Cafe"}, "geometry": {"type": "Point", "coordinates": [-71.116848, 42.371464]}},
{"type": "Feature", "id": "CkzeapXELN8oHmsVs3RmmJIKYco=", "properties": {"ref": "85", "@spider": "bluebottlecafe", "addr:full": "88 Ames St<br/>Suite R120<br/>Cambridge, MA 02142", "addr:city": "MA 02142", "name": "Kendall Square", "website": "https://bluebottlecoffee.com/cafes/kendall-square", "brand": "Blue Bottle Cafe"}, "geometry": {"type": "Point", "coordinates": [-71.087597, 42.363312]}},
{"type": "Feature", "id": "HJWCkLsw4tUz6qn4AW3DTFBxxFs=", "properties": {"ref": "106", "@spider": "bluebottlecafe", "addr:full": "163 Newbury Street<br/>Boston, MA 02116", "addr:city": "MA 02116", "name": "Newbury Street", "website": "https://bluebottlecoffee.com/cafes/newbury-street", "brand": "Blue Bottle Cafe"}, "geometry": {"type": "Point", "coordinates": [-71.078745, 42.350872]}},
{"type": "Feature", "id": "dyZqUlzyPKk3UDuieKmcFobkvh0=", "properties": {"ref": "65", "@spider": "bluebottlecafe", "addr:full": "800 Boylston Street<br/>Suite 25<br/>Boston, MA 02199", "addr:city": "MA 02199", "name": "The Pru", "website": "https://bluebottlecoffee.com/cafes/the-pru", "brand": "Blue Bottle Cafe"}, "geometry": {"type": "Point", "coordinates": [-71.0819, 42.347312]}},
{"type": "Feature", "id": "9IC7TM-CgMeAkHdodlKoiDum_e4=", "properties": {"ref": "66", "@spider": "bluebottlecafe", "addr:full": "279 Amsterdam Ave<br/>New York, NY 10023", "addr:city": "NY 10023", "name": "Amsterdam Ave", "website": "https://bluebottlecoffee.com/cafes/amsterdam-ave", "brand": "Blue Bottle Cafe"}, "geometry": {"type": "Point", "coordinates": [-73.980825, 40.77935]}},
{"type": "Feature", "id": "h58kPAZfpmfdlkU8iHdAC07n1Eg=", "properties": {"ref": "108", "@spider": "bluebottlecafe", "addr:full": "22 Broad St<br/>New York, NY 10005", "addr:city": "NY 10005", "name": "Broad Street", "website": "https://bluebottlecoffee.com/cafes/broad-st", "brand": "Blue Bottle Cafe"}, "geometry": {"type": "Point", "coordinates": [-74.011138, 40.706533]}},
{"type": "Feature", "id": "2jp-Ar7iD3vqdNlvDLg6As2-pZI=", "properties": {"ref": "16", "@spider": "bluebottlecafe", "addr:full": "54 W 40th St.<br/>New York, NY 10018", "addr:city": "NY 10018", "name": "Bryant Park", "website": "https://bluebottlecoffee.com/cafes/bryant-park", "brand": "Blue Bottle Cafe"}, "geometry": {"type": "Point", "coordinates": [-73.984234, 40.752966]}},
{"type": "Feature", "id": "P1W98gEUyqRuNeLHehL4n0pHKLU=", "properties": {"ref": "13", "@spider": "bluebottlecafe", "addr:full": "85 Dean St.<br/>Brooklyn, NY 11201", "addr:city": "NY 11201", "name": "Dean Street", "website": "https://bluebottlecoffee.com/cafes/dean-street", "brand": "Blue Bottle Cafe"}, "geometry": {"type": "Point", "coordinates": [-73.9897497, 40.6872652]}},
{"type": "Feature", "id": "tOuQl9kJP0hoqwwSC1LeaR29KSw=", "properties": {"ref": "90", "@spider": "bluebottlecafe", "addr:full": "257 Park Ave South<br/>New York, NY 10010", "addr:city": "NY 10010", "name": "Gramercy Park", "website": "https://bluebottlecoffee.com/cafes/gramercy-park", "brand": "Blue Bottle Cafe"}, "geometry": {"type": "Point", "coordinates": [-73.987119, 40.738631]}},
{"type": "Feature", "id": "NzlOgdI8cgeq-RtG3db8cXffdb4=", "properties": {"ref": "48", "@spider": "bluebottlecafe", "addr:full": "60 E 42nd Street<br/>Suite 140<br/>New York, NY 10165", "addr:city": "NY 10165", "name": "Grand Central Place", "website": "https://bluebottlecoffee.com/cafes/grand-central-place", "brand": "Blue Bottle Cafe"}, "geometry": {"type": "Point", "coordinates": [-73.9783959, 40.7525069]}},
{"type": "Feature", "id": "RanAaDU_3z4SIwnwt6uyzBNmJoU=", "properties": {"ref": "81", "@spider": "bluebottlecafe", "addr:full": "20 Hudson Yards<br/>#228<br/>New York, NY 10018", "addr:city": "NY 10018", "name": "Hudson Yards", "website": "https://bluebottlecoffee.com/cafes/hudson-yards", "brand": "Blue Bottle Cafe"}, "geometry": {"type": "Point", "coordinates": [-74.000941, 40.752552]}},
{"type": "Feature", "id": "eB_OFhUq9tN_q32rZbUaF8aayac=", "properties": {"ref": "51", "@spider": "bluebottlecafe", "addr:full": "10 E 53rd Street<br/>Entrance is on 52nd St<br/>New York, NY 10022", "addr:city": "NY 10022", "name": "Midtown East", "website": "https://bluebottlecoffee.com/cafes/midtown-east", "brand": "Blue Bottle Cafe"}, "geometry": {"type": "Point", "coordinates": [-73.975358, 40.759793]}},
{"type": "Feature", "id": "mvDgt7Vakty1-um2LoyL-mlzJ5Y=", "properties": {"ref": "105", "@spider": "bluebottlecafe", "addr:full": "1345 Avenue of the Americas<br/>New York, NY 10105", "addr:city": "NY 10105", "name": "Midtown North", "website": "https://bluebottlecoffee.com/cafes/midtown-north", "brand": "Blue Bottle Cafe"}, "geometry": {"type": "Point", "coordinates": [-73.978722, 40.762878]}},
{"type": "Feature", "id": "vW9eITHZyXHPKyQc1dSMlkS33MM=", "properties": {"ref": "119", "@spider": "bluebottlecafe", "addr:full": "2901 Broadway<br/>New York, NY 10025", "addr:city": "NY 10025", "name": "Morningside Heights", "website": "https://bluebottlecoffee.com/cafes/morningside-heights", "brand": "Blue Bottle Cafe"}, "geometry": {"type": "Point", "coordinates": [-73.96549, 40.80652]}},
{"type": "Feature", "id": "6U-d7dmwaIbV3hA7U5eB9nap0yA=", "properties": {"ref": "125", "@spider": "bluebottlecafe", "addr:full": "441 8th Ave<br/>New York, NY 10001<br/><i>Concourse Level</i>", "addr:city": "NY 10001<br/><i>Concourse Level</i>", "name": "Moynihan Train Hall", "website": "https://bluebottlecoffee.com/cafes/moynihan-train-hall", "brand": "Blue Bottle Cafe"}, "geometry": {"type": "Point", "coordinates": [-73.99582, 40.75148]}},
{"type": "Feature", "id": "_uW29t8ZO-SZY_yfiFNyvLln_Qg=", "properties": {"ref": "33", "@spider": "bluebottlecafe", "addr:full": "203 7th Avenue<br/>Brooklyn, NY 11215", "addr:city": "NY 11215", "name": "Park Slope", "website": "https://bluebottlecoffee.com/cafes/park-slope", "brand": "Blue Bottle Cafe"}, "geometry": {"type": "Point", "coordinates": [-73.978191, 40.670643]}},
{"type": "Feature", "id": "5_WYYrpgvnnayU3tYNFj-jBET6g=", "properties": {"ref": "11", "@spider": "bluebottlecafe", "addr:full": "1 Rockefeller Plaza<br/>New York, NY 10020", "addr:city": "NY 10020", "name": "Rockefeller Center", "website": "https://bluebottlecoffee.com/cafes/rockefeller-center", "brand": "Blue Bottle Cafe"}, "geometry": {"type": "Point", "coordinates": [-73.9786, 40.7593688]}},
{"type": "Feature", "id": "aH8wDtomwwMUvGCCfrJEQQCT55U=", "properties": {"ref": "100", "@spider": "bluebottlecafe", "addr:full": "396 Broadway<br/>New York, NY 10013", "addr:city": "NY 10013", "name": "The Walker", "website": "https://bluebottlecoffee.com/cafes/the-walker", "brand": "Blue Bottle Cafe"}, "geometry": {"type": "Point", "coordinates": [-74.002033, 40.71825]}},
{"type": "Feature", "id": "fsPjX-cVWfZXmhn_Gws3wC0jVRc=", "properties": {"ref": "45", "@spider": "bluebottlecafe", "addr:full": "101 University Place<br/>New York, NY 10003", "addr:city": "NY 10003", "name": "University Place", "website": "https://bluebottlecoffee.com/cafes/university-place", "brand": "Blue Bottle Cafe"}, "geometry": {"type": "Point", "coordinates": [-73.992392, 40.733925]}},
{"type": "Feature", "id": "yAHqeqJLORU4yFeDaHtBcebrMfY=", "properties": {"ref": "55", "@spider": "bluebottlecafe", "addr:full": "76 N. 4th Street<br/>Store A<br/>Brooklyn, NY 11249", "addr:city": "NY 11249", "name": "Williamsburg", "website": "https://bluebottlecoffee.com/cafes/williamsburg", "brand": "Blue Bottle Cafe"}, "geometry": {"type": "Point", "coordinates": [-73.961627, 40.717281]}},
{"type": "Feature", "id": "jkEtkFkR_aey0ZKjy_WSMiad2HQ=", "properties": {"ref": "44", "@spider": "bluebottlecafe", "addr:full": "150 Greenwich St<br/>NW corner of Tower 4<br/>New York, NY 10007", "addr:city": "NY 10007", "name": "World Trade Center", "website": "https://bluebottlecoffee.com/cafes/world-trade-center", "brand": "Blue Bottle Cafe"}, "geometry": {"type": "Point", "coordinates": [-74.012146, 40.7106681]}},
{"type": "Feature", "id": "x78bw8DxJ2pJKYBPtflODRQCHXI=", "properties": {"ref": "131", "@spider": "bluebottlecafe", "addr:full": "313 W Wolf Point Plaza<br/>Ste 120<br/>Chicago, IL 60654", "addr:city": "IL 60654", "name": "Wolf Point", "website": "https://bluebottlecoffee.com/cafes/wolf-point", "brand": "Blue Bottle Cafe"}, "geometry": {"type": "Point", "coordinates": [-87.63663, 41.88797]}},
{"type": "Feature", "id": "qxtdhMuT5V-Mog-23M0CN9caMes=", "properties": {"ref": "43", "@spider": "bluebottlecafe", "addr:full": "1046 Potomac Street NW<br/>Washington, DC 20007", "addr:city": "DC 20007", "name": "Georgetown", "website": "https://bluebottlecoffee.com/cafes/georgetown", "brand": "Blue Bottle Cafe"}, "geometry": {"type": "Point", "coordinates": [-77.065438, 38.904386]}},
{"type": "Feature", "id": "LlOx9bYWh2Pw3tSZryMwSOvxBcI=", "properties": {"ref": "59", "@spider": "bluebottlecafe", "addr:full": "1250  4th St NE<br/>Washington, DC 20002", "addr:city": "DC 20002", "name": "Union Market", "website": "https://bluebottlecoffee.com/cafes/union-market", "brand": "Blue Bottle Cafe"}, "geometry": {"type": "Point", "coordinates": [-77.00005, 38.90804]}},
{"type": "Feature", "id": "mlfhIlHoFGKwhyXsw7O7nkkb6DI=", "properties": {"ref": "58", "@spider": "bluebottlecafe", "addr:full": "50 Massachusetts Ave NE<br/>Unit M160<br/>Washington, DC 20002", "addr:city": "DC 20002", "name": "Union Station", "website": "https://bluebottlecoffee.com/cafes/union-station", "brand": "Blue Bottle Cafe"}, "geometry": {"type": "Point", "coordinates": [-77.006203, 38.89729]}},
{"type": "Feature", "id": "Nr1nofipfC0SIw9oe1oSMDgR078=", "properties": {"ref": "18", "@spider": "bluebottlecafe", "addr:full": "3-13-14 Minamiaoyama<br/>Minato-ku, Tokyo 107-0062", "addr:city": "Tokyo 107-0062", "name": "Aoyama", "website": "https://bluebottlecoffee.com/cafes/aoyama", "brand": "Blue Bottle Cafe"}, "geometry": {"type": "Point", "coordinates": [139.713863, 35.665256]}},
{"type": "Feature", "id": "wuRiRxPUhjHJZTj8iIhm5xESbsY=", "properties": {"ref": "94", "@spider": "bluebottlecafe", "addr:full": "1-5-5, Ebisuminami<br/>Shibuya-ku<br/>Tokyo, Tokyo 150-0022", "addr:city": "Ebisuminami<br/>Shibuya-ku<br/>Tokyo", "name": "Ebisu", "website": "https://bluebottlecoffee.com/cafes/bisu-station", "brand": "Blue Bottle Cafe"}, "geometry": {"type": "Point", "coordinates": [139.71015, 35.646684]}},
{"type": "Feature", "id": "NjXJOx-IJO-tgLqJgqAPNX1pvIA=", "properties": {"ref": "98", "@spider": "bluebottlecafe", "addr:full": "6-10-1, Ginza<br/>Chuo-ku, Tokyo 104-0061", "addr:city": "Ginza<br/>Chuo-ku", "name": "Ginza", "website": "https://bluebottlecoffee.com/cafes/ginza", "brand": "Blue Bottle Cafe"}, "geometry": {"type": "Point", "coordinates": [139.764019, 35.669672]}},
{"type": "Feature", "id": "3x0A39xCE_k5twTydMJ16B8jRvY=", "properties": {"ref": "111", "@spider": "bluebottlecafe", "addr:full": "5-4-16<br/>Shibuya-ku, Tokyo 150-0012", "addr:city": "Tokyo 150-0012", "name": "Hiroo", "website": "https://bluebottlecoffee.com/cafes/hiroo", "brand": "Blue Bottle Cafe"}, "geometry": {"type": "Point", "coordinates": [139.722439, 35.657041]}},
{"type": "Feature", "id": "htqBBWkEZSLLZjyO47VFEI8fQyM=", "properties": {"ref": "78", "@spider": "bluebottlecafe", "addr:full": "2 Chome-23-7 Minamiikebukuro<br/>Toshima-ku, T\u014dky\u014d-to 171-0022", "addr:city": "T\u014dky\u014d-to 171-0022", "name": "Ikebukuro", "website": "https://bluebottlecoffee.com/cafes/ikebukuro", "brand": "Blue Bottle Cafe"}, "geometry": {"type": "Point", "coordinates": [139.715111, 35.726608]}},
{"type": "Feature", "id": "4tkNXdFu7IEztWcaxPVSZKnukW4=", "properties": {"ref": "71", "@spider": "bluebottlecafe", "addr:full": "1 Chome-25-4 Kanda Sudach\u014d<br/>Chiyoda-ku, Tokyo 101-0041", "addr:city": "Tokyo 101-0041", "name": "Kanda", "website": "https://bluebottlecoffee.com/cafes/kanda", "brand": "Blue Bottle Cafe"}, "geometry": {"type": "Point", "coordinates": [139.770167, 35.697346]}},
{"type": "Feature", "id": "MRqzn_Puh1Px4PX_qIgQ1rZx2Gc=", "properties": {"ref": "17", "@spider": "bluebottlecafe", "addr:full": "1-4-8, Hirano<br/>Koto-ku, Tokyo 135-0023", "addr:city": "Hirano<br/>Koto-ku", "name": "Kiyosumi", "website": "https://bluebottlecoffee.com/cafes/kiyosumi", "brand": "Blue Bottle Cafe"}, "geometry": {"type": "Point", "coordinates": [139.800556, 35.67777]}},
{"type": "Feature", "id": "_Mpllm-QLwpQZYIGDePXiiVS-wo=", "properties": {"ref": "68", "@spider": "bluebottlecafe", "addr:full": "1-2-19 Shimomeguro<br/>Meguro-ku, Tokyo 153-0064", "addr:city": "Tokyo 153-0064", "name": "Meguro", "website": "https://bluebottlecoffee.com/cafes/meguro", "brand": "Blue Bottle Cafe"}, "geometry": {"type": "Point", "coordinates": [139.713417, 35.634171]}},
{"type": "Feature", "id": "0ZdBSl324gdZKYmGKhIONoYyzWc=", "properties": {"ref": "31", "@spider": "bluebottlecafe", "addr:full": "3-23-16 Nakameguro<br/>Meguro-ku, Tokyo 153-0061", "addr:city": "Tokyo 153-0061", "name": "Nakameguro", "website": "https://bluebottlecoffee.com/cafes/nakameguro", "brand": "Blue Bottle Cafe"}, "geometry": {"type": "Point", "coordinates": [139.69793, 35.638563]}},
{"type": "Feature", "id": "l27ZalCIHjVeJBuBHavZhMCJvaA=", "properties": {"ref": "29", "@spider": "bluebottlecafe", "addr:full": "7-7-7 Roppongi<br/>Minato-ku, Tokyo 106-0032", "addr:city": "Tokyo 106-0032", "name": "Roppongi", "website": "https://bluebottlecoffee.com/cafes/roppongi", "brand": "Blue Bottle Cafe"}, "geometry": {"type": "Point", "coordinates": [139.728946, 35.665047]}},
{"type": "Feature", "id": "YEdzEC46BeJlEuAs5PEA7DamKpk=", "properties": {"ref": "52", "@spider": "bluebottlecafe", "addr:full": "1-33-18, Sangenjaya<br/>Setagaya-ku, Tokyo 154-0024", "addr:city": "Sangenjaya<br/>Setagaya-ku", "name": "Sangenjaya", "website": "https://bluebottlecoffee.com/cafes/sangenjaya", "brand": "Blue Bottle Cafe"}, "geometry": {"type": "Point", "coordinates": [139.67144, 35.642156]}},
{"type": "Feature", "id": "HKxT-d6YWgD9T4nvOH725o1OzjA=", "properties": {"ref": "130", "@spider": "bluebottlecafe", "addr:full": "1-7-3 Jinnan<br/>Shibuya-ku<br/>Tokyo, Tokyo 150-0041", "addr:city": "Tokyo 150-0041", "name": "Shibuya", "website": "https://bluebottlecoffee.com/cafes/shibuya", "brand": "Blue Bottle Cafe"}, "geometry": {"type": "Point", "coordinates": [139.699462, 35.664025]}},
{"type": "Feature", "id": "w0Um7ZyKZlSRcAVw0vJBLlq1Ac8=", "properties": {"ref": "34", "@spider": "bluebottlecafe", "addr:full": "2-18-1 Konan<br/>Shinagawa Station<br/>Minato-ku, Tokyo 108-0075", "addr:city": "Tokyo 108-0075", "name": "Shinagawa", "website": "https://bluebottlecoffee.com/cafes/shinagawa", "brand": "Blue Bottle Cafe"}, "geometry": {"type": "Point", "coordinates": [139.740804, 35.628727]}},
{"type": "Feature", "id": "N7kt-4qodoIQkEXyOk3CT6W5_c8=", "properties": {"ref": "27", "@spider": "bluebottlecafe", "addr:full": "4-1-6 Shinjuku<br/>Shinjuku-ku, Tokyo 160-0022", "addr:city": "Tokyo 160-0022", "name": "Shinjuku", "website": "https://bluebottlecoffee.com/cafes/shinjuku", "brand": "Blue Bottle Cafe"}, "geometry": {"type": "Point", "coordinates": [139.7004473, 35.6885685]}},
{"type": "Feature", "id": "S9lvBcpd51EFdJuajO9kRttxLJo=", "properties": {"ref": "116", "@spider": "bluebottlecafe", "addr:full": "Tokyo Port City Takeshiba Office Tower 3F, 1-7-1 Kaigan<br/>Minato-ku, Tokyo 105-7503", "addr:city": "1-7-1 Kaigan<br/>Minato-ku", "name": "Takeshiba", "website": "https://bluebottlecoffee.com/cafes/takeshiba", "brand": "Blue Bottle Cafe"}, "geometry": {"type": "Point", "coordinates": [139.760923, 35.655059]}},
{"type": "Feature", "id": "c8dM9caDyfpyr87woVW85czCJBU=", "properties": {"ref": "60", "@spider": "bluebottlecafe", "addr:full": "64 Kusagawacho Nanzenji, Sakyo-ku<br/>Kyoto-shi, Kyoto 606-8437", "addr:city": "Sakyo-ku<br/>Kyoto-shi", "name": "Kyoto", "website": "https://bluebottlecoffee.com/cafes/kyoto", "brand": "Blue Bottle Cafe"}, "geometry": {"type": "Point", "coordinates": [135.789475, 35.011417]}},
{"type": "Feature", "id": "dn7OuxJHZ5iCIJntBuvA8inYAOw=", "properties": {"ref": "114", "@spider": "bluebottlecafe", "addr:full": "310-2 Bizenjimacho, Nakagyo-ku<br/>Kyoto-shi, Kyoto 604-8023", "addr:city": "Nakagyo-ku<br/>Kyoto-shi", "name": "Kyoto Kiyamachi", "website": "https://bluebottlecoffee.com/cafes/kyoto-kiyamachi", "brand": "Blue Bottle Cafe"}, "geometry": {"type": "Point", "coordinates": [135.770135, 35.00614]}},
{"type": "Feature", "id": "EFC5RqcQJkWBb7lJcproUhBTdoY=", "properties": {"ref": "97", "@spider": "bluebottlecafe", "addr:full": "226-1 Sanmonji-cho, Higashinotoin Rokkaku, Nakagyo-ku<br/>Kyoto-shi, Kyoto  604-8135", "addr:city": "Higashinotoin Rokkaku", "name": "Kyoto Rokkaku", "website": "https://bluebottlecoffee.com/cafes/kyoto-rokkaku", "brand": "Blue Bottle Cafe"}, "geometry": {"type": "Point", "coordinates": [135.761178, 35.007442]}},
{"type": "Feature", "id": "n4oRXodY4CWrkUFQvl-jVDTRPsk=", "properties": {"ref": "67", "@spider": "bluebottlecafe", "addr:full": "1 Maemachi, Chuo-ku<br/>Kobe-shi, Hyogo 650-0039", "addr:city": "Chuo-ku<br/>Kobe-shi", "name": "Kobe", "website": "https://bluebottlecoffee.com/cafes/kobe", "brand": "Blue Bottle Cafe"}, "geometry": {"type": "Point", "coordinates": [135.19013, 34.68715]}},
{"type": "Feature", "id": "xazQV2SJC3giQuIHswieBr6ucN0=", "properties": {"ref": "118", "@spider": "bluebottlecafe", "addr:full": "MARK IS Minatomirai GL floor, 3-5-1 Minatomirai, Nishi-ku<br/>Yokohama-shi, Kanagawa 220-0012", "addr:city": "3-5-1 Minatomirai", "name": "Minatomirai", "website": "https://bluebottlecoffee.com/cafes/minatomirai", "brand": "Blue Bottle Cafe"}, "geometry": {"type": "Point", "coordinates": [139.632098, 35.457976]}},
{"type": "Feature", "id": "C49aGiWYhIE88TaCuDZKFZIuD3A=", "properties": {"ref": "113", "@spider": "bluebottlecafe", "addr:full": "NEWoMan YOKOHAMA 1F, 1-1-1 Minamisaiwai, Nishi-ku<br/>Yokohama-shi, Kanagawa 220-0005", "addr:city": "1-1-1 Minamisaiwai", "name": "Yokohama", "website": "https://bluebottlecoffee.com/cafes/yokohama", "brand": "Blue Bottle Cafe"}, "geometry": {"type": "Point", "coordinates": [139.62149, 35.466589]}},
{"type": "Feature", "id": "DZUBQzsTt-rrncS1J-m-FxjyF8M=", "properties": {"ref": "99", "@spider": "bluebottlecafe", "addr:full": "854 Nonhyeon-ro<br/>Gangnam-gu<br/>Seoul, Republic of Korea 06022", "addr:city": "Republic of Korea 06022", "name": "Apgujeong", "website": "https://bluebottlecoffee.com/cafes/apgujeong", "brand": "Blue Bottle Cafe"}, "geometry": {"type": "Point", "coordinates": [127.028636, 37.525674]}},
{"type": "Feature", "id": "XfRlSrRuCb3k9FEonwSU8ezi890=", "properties": {"ref": "112", "@spider": "bluebottlecafe", "addr:full": "11 Cheonggyecheon-ro<br/>Jongno-gu<br/>Seoul, Republic of Korea  03187", "addr:city": "Republic of Korea  03187", "name": "Gwanghwamun", "website": "https://bluebottlecoffee.com/cafes/gwanghwamun", "brand": "Blue Bottle Cafe"}, "geometry": {"type": "Point", "coordinates": [126.978849, 37.569392]}},
{"type": "Feature", "id": "gxtJYdnJY3B-2v2lcMqRIO5d5vc=", "properties": {"ref": "109", "@spider": "bluebottlecafe", "addr:full": "91 Hannam-daero<br/>Youngsan-gu<br/>Seoul, Republic of Korea  04401", "addr:city": "Republic of Korea  04401", "name": "Hannam", "website": "https://bluebottlecoffee.com/cafes/hannam", "brand": "Blue Bottle Cafe"}, "geometry": {"type": "Point", "coordinates": [127.00273, 37.53505]}},
{"type": "Feature", "id": "hywd4OfmhslK7rfsOUb_2z1Jmi4=", "properties": {"ref": "92", "@spider": "bluebottlecafe", "addr:full": "76 Bukchon-ro 5-gil<br/>Jongno-gu<br/>Seoul, Republic of Korea 03053", "addr:city": "Republic of Korea 03053", "name": "Samcheong", "website": "https://bluebottlecoffee.com/cafes/samcheong", "brand": "Blue Bottle Cafe"}, "geometry": {"type": "Point", "coordinates": [126.980843, 37.580112]}},
{"type": "Feature", "id": "R3bXU5u_Vd08pKu0yjXRjoXz2jo=", "properties": {"ref": "84", "@spider": "bluebottlecafe", "addr:full": "7 Achasan-ro<br/>Seongdong-gu<br/>Seoul, Republic of Korea 04789<br/><i>Ttukseom station \u2014 exit #1</i>", "addr:city": "Republic of Korea 04789<br/><i>Ttukseom station \u2014 exit #1</i>", "name": "Seongsu", "website": "https://bluebottlecoffee.com/cafes/seongsu", "brand": "Blue Bottle Cafe"}, "geometry": {"type": "Point", "coordinates": [127.0434283, 37.548074]}},
{"type": "Feature", "id": "WPS_rskDGZPMZFdJn1BtCXTffJg=", "properties": {"ref": "93", "@spider": "bluebottlecafe", "addr:full": "129 Teheran-ro<br/>Gangnam-gu<br/>Seoul, Republic of Korea 64914", "addr:city": "Republic of Korea 64914", "name": "Yeoksam", "website": "https://bluebottlecoffee.com/cafes/yeoksam", "brand": "Blue Bottle Cafe"}, "geometry": {"type": "Point", "coordinates": [127.030693, 37.499294]}},
{"type": "Feature", "id": "4rwlDm4-zRsBgUxwfIHnNUMC5Xc=", "properties": {"ref": "122", "@spider": "bluebottlecafe", "addr:full": "22 Yeouidodong<br/>Yeongdeungpo-gu<br/>Seoul, Republic of Korea 07335", "addr:city": "Republic of Korea 07335", "name": "Yeouido", "website": "https://bluebottlecoffee.com/cafes/yeouido", "brand": "Blue Bottle Cafe"}, "geometry": {"type": "Point", "coordinates": [126.92852990275198, 37.52565973762281]}},
{"type": "Feature", "id": "cL1cgTEOlAa6NdXNwJpd_pmsWQw=", "properties": {"ref": "126", "@spider": "bluebottlecafe", "addr:full": "8 Finance Street<br/>3077c Podium Level Three, ifc mall<br/>Central, Hong Kong 00000", "addr:city": "ifc mall<br/>Central", "name": "Blue Bottle IFC", "website": "https://bluebottlecoffee.com/cafes/blue-bottle-ifc", "brand": "Blue Bottle Cafe"}, "geometry": {"type": "Point", "coordinates": [114.159286, 22.28529]}},
{"type": "Feature", "id": "CTOg4Za4qzbHzkoMBj0C2AKmG5A=", "properties": {"ref": "110", "@spider": "bluebottlecafe", "addr:full": "38 Lyndhurst Terrace<br/>Central, Hong Kong 00000", "addr:city": "Hong Kong 00000", "name": "Hong Kong Central Cafe", "website": "https://bluebottlecoffee.com/cafes/hong-kong-central-cafe", "brand": "Blue Bottle Cafe"}, "geometry": {"type": "Point", "coordinates": [114.154153, 22.28245]}},
{"type": "Feature", "id": "nW3U-LbrHA4Bx2vM08UPUDTDJEI=", "properties": {"ref": "132", "@spider": "bluebottlecafe", "addr:full": "Beonyeong-ro<br/>Gujwa-eup<br/>Jeju-si, Republic of Korea  2133-30", "addr:city": "Republic of Korea  2133-30", "name": "Jeju", "website": "https://bluebottlecoffee.com/cafes/jeju", "brand": "Blue Bottle Cafe"}, "geometry": {"type": "Point", "coordinates": [126.74334810349569, 33.43762089654917]}}]}