{"type":"FeatureCollection","features":[{"type": "Feature", "id": "3THH9mqQmDQtBJXj5_BYjyUGc4s=", "properties": {"ref": "0325", "@spider": "bootbarn", "addr:full": "1730 N Imperial Ave", "addr:city": "El Centro,", "addr:state": "California", "addr:postcode": "92243", "name": "El Centro", "phone": "7606751221", "website": "https://www.bootbarn.com/stores?StoreID=0325", "opening_hours": "Mo-Fr 10:00-08:00; Sa 10:00-07:00; Su 10:00-06:00", "brand": "Boot Barn"}, "geometry": {"type": "Point", "coordinates": [-115.57157673379896, 32.80854494880505]}},
{"type": "Feature", "id": "1nOb5crjAH_7JDa66XcAbB0EBRY=", "properties": {"ref": "0331", "@spider": "bootbarn", "addr:full": "7607 San Dario Ave", "addr:city": "Laredo,", "addr:state": "Texas", "addr:postcode": "78045", "name": "Laredo, TX", "phone": "9565284804", "website": "https://www.bootbarn.com/stores?StoreID=0331", "opening_hours": "Mo-Sa 09:00-09:00; Su 11:00-06:00", "brand": "Boot Barn"}, "geometry": {"type": "Point", "coordinates": [-99.49944, 27.571707]}},
{"type": "Feature", "id": "OLCPWjLut0aRsleYz0Hw7Cx6QQY=", "properties": {"ref": "0328", "@spider": "bootbarn", "addr:full": "1101 Woodland Road Suite 4500", "addr:city": "Wyomissing,", "addr:state": "Pennsylvania", "addr:postcode": "19610", "name": "Wyomissing, PA", "phone": "4847098262", "website": "https://www.bootbarn.com/stores?StoreID=0328", "opening_hours": "Mo-Sa 09:00-09:00; Su 11:00-07:00", "brand": "Boot Barn"}, "geometry": {"type": "Point", "coordinates": [-75.97372, 40.341717]}},
{"type": "Feature", "id": "0nulWrS34rR7Lj9ewCjUnfJ7I9k=", "properties": {"ref": "0062", "@spider": "bootbarn", "addr:full": "1955 S Casino Dr", "addr:city": "Laughlin,", "addr:state": "Nevada", "addr:postcode": "89029", "name": "Laughlin", "phone": "(702) 298-9296", "website": "https://www.bootbarn.com/stores?StoreID=0062", "opening_hours": "Mo-Su 10:00-06:00", "brand": "Boot Barn"}, "geometry": {"type": "Point", "coordinates": [-114.576722, 35.162995]}},
{"type": "Feature", "id": "33mzGiKOU8gHdCrvpHpYXW_bV2Y=", "properties": {"ref": "0368", "@spider": "bootbarn", "addr:full": "3511 N. Salida Court Suite 30", "addr:city": "Aurora,", "addr:state": "Colorado", "addr:postcode": "80011", "name": "Aurora, CO", "phone": "7206730717", "website": "https://www.bootbarn.com/stores?StoreID=0368", "opening_hours": "Mo-Sa 09:00-08:00; Su 11:00-07:00", "brand": "Boot Barn"}, "geometry": {"type": "Point", "coordinates": [-104.779945, 39.763172]}}]}