{"type":"FeatureCollection","features":[{"type": "Feature", "id": "-FR3SC_jMXFTN180QR3w9VaRmlw=", "properties": {"ref": "214", "@spider": "bostonpizza", "addr:full": "515 Nelson Road", "addr:city": "Saskatoon", "addr:state": "SK", "addr:postcode": "S7S 1P4", "addr:country": "Canada", "name": "Nelson Road", "opening_hours": "Mo-We 11:00-00:00; Th-Sa 11:00-01:00; Su 11:00-00:00", "brand": "Boston Pizza"}, "geometry": {"type": "Point", "coordinates": [-106.56911935539115, 52.150072086745624]}},
{"type": "Feature", "id": "xdNeEodZUHOzFMcK3fXnCXZw9rw=", "properties": {"ref": "215", "@spider": "bostonpizza", "addr:full": "329 Herold Road", "addr:city": "Saskatoon", "addr:state": "SK", "addr:postcode": "S7V 1J7", "addr:country": "Canada", "name": "Boychuk Drive", "opening_hours": "Mo-We 11:00-00:00; Th-Sa 11:00-01:00; Su 11:00-00:00", "brand": "Boston Pizza"}, "geometry": {"type": "Point", "coordinates": [-106.56736399677446, 52.101393328530946]}},
{"type": "Feature", "id": "Y-I1XeIrPOPG8q5TnL1avQSNTy4=", "properties": {"ref": "202", "@spider": "bostonpizza", "addr:full": "826 51st Street", "addr:city": "Saskatoon", "addr:state": "SK", "addr:postcode": "S7K 5C7", "addr:country": "Canada", "name": "North Saskatoon", "opening_hours": "Mo-Su 11:00-22:00", "brand": "Boston Pizza"}, "geometry": {"type": "Point", "coordinates": [-106.65077426691865, 52.17292589970849]}},
{"type": "Feature", "id": "hA8zMY7II-fgF1onk2aiC7IrczM=", "properties": {"ref": "203", "@spider": "bostonpizza", "addr:full": " Unit 10 - 1519 8th Street East", "addr:city": "Saskatoon", "addr:state": "SK", "addr:postcode": "S7H 0T2", "addr:country": "Canada", "name": "East Saskatoon", "opening_hours": "Mo-We 11:00-00:00; Th-Sa 11:00-01:00; Su 11:00-00:00", "brand": "Boston Pizza"}, "geometry": {"type": "Point", "coordinates": [-106.63366464304777, 52.114934178560496]}},
{"type": "Feature", "id": "uxLK1f9pvk4g_JVTSj94tO3yPPs=", "properties": {"ref": "224", "@spider": "bostonpizza", "addr:full": "#130 \u2013 3055 Clarence Avenue South", "addr:city": "Saskatoon", "addr:state": "SK", "addr:postcode": "S7T 0B4", "addr:country": "Canada", "name": "Saskatoon South ", "opening_hours": "Mo-We 11:00-23:00; Th-Sa 11:00-00:00; Su 11:00-23:00", "brand": "Boston Pizza"}, "geometry": {"type": "Point", "coordinates": [-106.645896, 52.086133]}},
{"type": "Feature", "id": "ndqSjnIf5WG-OV2_Psy8KVw13BM=", "properties": {"ref": "220", "@spider": "bostonpizza", "addr:full": "107 Betts Avenue", "addr:city": "Saskatoon", "addr:state": "SK", "addr:postcode": "S7M 1L2", "addr:country": "Canada", "name": "Blairmore", "opening_hours": "Mo-Su 11:00-00:00", "brand": "Boston Pizza"}, "geometry": {"type": "Point", "coordinates": [-106.7589, 52.12646]}},
{"type": "Feature", "id": "QEKWO0g8jQSypc93IKqla_1jhBI=", "properties": {"ref": "221", "@spider": "bostonpizza", "addr:full": "631 Centennial Dr", "addr:city": "Martensville", "addr:state": "SK", "addr:postcode": "S0K 2T0", "addr:country": "Canada", "name": "Martensville", "opening_hours": "Mo-Th 11:00-22:00; Fr-Sa 11:00-00:00; Su 11:00-22:00", "brand": "Boston Pizza"}, "geometry": {"type": "Point", "coordinates": [-106.6701121, 52.2825794]}},
{"type": "Feature", "id": "vm9vBdqo32N7rlclGYtUXqpcIjY=", "properties": {"ref": "213", "@spider": "bostonpizza", "addr:full": "2331 Quill Center ", "addr:city": "Humboldt", "addr:state": "SK", "addr:postcode": "S0K 2A0", "addr:country": "Canada", "name": "Humboldt", "opening_hours": "Mo-Su 11:00-23:00", "brand": "Boston Pizza"}, "geometry": {"type": "Point", "coordinates": [-105.1231, 52.2019]}},
{"type": "Feature", "id": "jN2ULERC_H6qjyOts9KLnNDqGfg=", "properties": {"ref": "208", "@spider": "bostonpizza", "addr:full": "3250 2nd Ave., West", "addr:city": "Prince Albert", "addr:state": "SK", "addr:postcode": "S6V 5E9", "addr:country": "Canada", "name": "Prince Albert", "opening_hours": "Mo-We 11:00-23:00; Th-Sa 11:00-00:00; Su 11:00-23:00", "brand": "Boston Pizza"}, "geometry": {"type": "Point", "coordinates": [-105.7600014859331, 53.18359923647903]}},
{"type": "Feature", "id": "q7tkx8dkJC3GL3kH3V0pjOxK8o4=", "properties": {"ref": "211", "@spider": "bostonpizza", "addr:full": "Unit 34 - 11434 Railway Avenue", "addr:city": "North Battleford", "addr:state": "SK", "addr:postcode": "S9A 3P7", "addr:country": "Canada", "name": "North Battleford", "opening_hours": "Mo-We 11:00-23:00; Th-Sa 11:00-00:00; Su 11:00-23:00", "brand": "Boston Pizza"}, "geometry": {"type": "Point", "coordinates": [-108.276652987516, 52.76096762120615]}},
{"type": "Feature", "id": "Kyvbwojf_6H-qRYJ5AjwuifNcO0=", "properties": {"ref": "219", "@spider": "bostonpizza", "addr:full": "No. 260 Stonegate 500 Highway 6 South", "addr:city": "Melfort", "addr:state": "SK", "addr:postcode": "S0E 1A0", "addr:country": "Canada", "name": "Melfort", "opening_hours": "Mo-Th 11:00-21:00; Fr-Sa 11:00-22:00; Su 11:00-21:00", "brand": "Boston Pizza"}, "geometry": {"type": "Point", "coordinates": [-104.6, 52.8667]}},
{"type": "Feature", "id": "pfBB2ZkRKg9pG2nJ_l5mJximIZ4=", "properties": {"ref": "222", "@spider": "bostonpizza", "addr:full": "1412 12th Ave West", "addr:city": "Kindersley", "addr:state": "SK", "addr:postcode": "S0L 1S0", "addr:country": "Canada", "name": "Kindersley", "opening_hours": "Mo-Th 11:30-21:00; Fr-Sa 11:30-22:00; Su 11:30-21:00", "brand": "Boston Pizza"}, "geometry": {"type": "Point", "coordinates": [-109.1567, 51.4678]}},
{"type": "Feature", "id": "JnMnT7wJUxqN11Jb-6E7Cg9QZ_g=", "properties": {"ref": "206", "@spider": "bostonpizza", "addr:full": "1650 Main Street North", "addr:city": "Moose Jaw", "addr:state": "SK", "addr:postcode": "S6J 1L3", "addr:country": "Canada", "name": "Moose Jaw Main Street North", "opening_hours": "Mo-Th 11:00-00:00; Fr 11:00-01:00; Sa-Su 11:00-00:00", "brand": "Boston Pizza"}, "geometry": {"type": "Point", "coordinates": [-105.53571856415739, 50.411191301425006]}},
{"type": "Feature", "id": "fXEaOhWbSaj7FaIzssRoIY5p9Ys=", "properties": {"ref": "218", "@spider": "bostonpizza", "addr:full": "111 Manitoba Street East", "addr:city": "Moose Jaw", "addr:state": "SK", "addr:postcode": "S6H 0A1", "addr:country": "Canada", "name": "Moose Jaw Downtown", "opening_hours": "Mo-Th 11:00-23:00; Fr-Sa 11:00-00:00; Su 11:00-23:00", "brand": "Boston Pizza"}, "geometry": {"type": "Point", "coordinates": [-105.5331096, 50.3898066]}},
{"type": "Feature", "id": "ZJbIl6seUz2pBi12dqOj57JphNE=", "properties": {"ref": "209", "@spider": "bostonpizza", "addr:full": "1601 North Service Road East", "addr:city": "Swift Current", "addr:state": "SK", "addr:postcode": "S9H 3X6", "addr:country": "Canada", "name": "Swift Current", "opening_hours": "Mo-Th 11:00-00:00; Fr-Sa 11:00-01:00; Su 11:00-00:00", "brand": "Boston Pizza"}, "geometry": {"type": "Point", "coordinates": [-107.78039193299038, 50.304292010725135]}},
{"type": "Feature", "id": "wMAld43jrEClS_uWeS5Ig8dO6CQ=", "properties": {"ref": "210", "@spider": "bostonpizza", "addr:full": "4303 Rochdale Blvd", "addr:city": "Regina", "addr:state": "SK", "addr:postcode": "S4X 4R3", "addr:country": "Canada", "name": "Regina NW", "opening_hours": "Mo-Th 11:00-00:00; Fr-Sa 11:00-01:00; Su 11:00-00:00", "brand": "Boston Pizza"}, "geometry": {"type": "Point", "coordinates": [-104.64299917925838, 50.49655842076641]}},
{"type": "Feature", "id": "KWXoMWHBOSr97REhQW3pAT0ohmw=", "properties": {"ref": "205", "@spider": "bostonpizza", "addr:full": "545 Albert Street N.", "addr:city": "Regina", "addr:state": "SK", "addr:postcode": "S4R 8E2", "addr:country": "Canada", "name": "North Regina", "opening_hours": "Mo-Th 11:00-00:00; Fr-Sa 11:00-01:00; Su 11:00-00:00", "brand": "Boston Pizza"}, "geometry": {"type": "Point", "coordinates": [-104.61815095105787, 50.485203231271264]}},
{"type": "Feature", "id": "jyUeKF-J4KQy074afy20zjgeWDY=", "properties": {"ref": "204", "@spider": "bostonpizza", "addr:full": "2660 Star Lite Dr E", "addr:city": "Regina", "addr:state": "SK", "addr:postcode": "S4V 3E1", "addr:country": "Canada", "name": "East Regina", "opening_hours": "Mo-Th 11:00-00:00; Fr-Sa 11:00-01:00; Su 11:00-00:00", "brand": "Boston Pizza"}, "geometry": {"type": "Point", "coordinates": [-104.545781, 50.446407]}},
{"type": "Feature", "id": "T_vyc29R8kgd8dnfZ_yaRzpI8dE=", "properties": {"ref": "201", "@spider": "bostonpizza", "addr:full": "4657 Rae Street", "addr:city": "Regina", "addr:state": "SK", "addr:postcode": "S4S 6K6", "addr:country": "Canada", "name": "South Regina", "opening_hours": "Mo-We 11:00-23:00; Th 11:00-00:00; Fr 11:00-01:00; Sa 11:00-00:00; Su 11:00-23:00", "brand": "Boston Pizza"}, "geometry": {"type": "Point", "coordinates": [-104.62108110221182, 50.40498265946946]}},
{"type": "Feature", "id": "jQ7o7CcdsItM9LoAzgvJgIOHqks=", "properties": {"ref": "225", "@spider": "bostonpizza", "addr:full": "#10 - 3795 Chuka Blvd", "addr:city": "Regina", "addr:state": "SK", "addr:postcode": "S4V 3P7", "addr:country": "Canada", "name": "Acre 21\r\n", "opening_hours": "Mo-Th 11:00-23:00; Fr 11:00-01:00; Sa 13:00-00:00; Su 11:00-23:00", "brand": "Boston Pizza"}, "geometry": {"type": "Point", "coordinates": [-104.513338, 50.418747]}},
{"type": "Feature", "id": "Bl2hIK8X3aioDU_RLtHaCAA1aNo=", "properties": {"ref": "217", "@spider": "bostonpizza", "addr:full": "22 Great Plains Road", "addr:city": "Emerald Park", "addr:state": "SK", "addr:postcode": "S4L 1B6", "addr:country": "Canada", "name": "Emerald Park", "opening_hours": "Mo-We 11:00-21:00; Th 11:00-23:00; Fr-Sa 11:00-00:00; Su 11:00-21:00", "brand": "Boston Pizza"}, "geometry": {"type": "Point", "coordinates": [-104.4119, 50.44468]}},
{"type": "Feature", "id": "qsi8GP5p7Gnw-siyEcBTODzcgh0=", "properties": {"ref": "223", "@spider": "bostonpizza", "addr:full": "717 9th Street", "addr:city": "Meadow Lake", "addr:state": "SK", "addr:postcode": "S9X 1H1", "addr:country": "Canada", "name": "Meadow Lake", "opening_hours": "Mo-Th 11:30-22:00; Fr-Sa 11:30-23:00; Su 11:30-21:00", "brand": "Boston Pizza"}, "geometry": {"type": "Point", "coordinates": [-108.452559, 54.124682]}},
{"type": "Feature", "id": "SGy60JYkV5SukgL0ukHv30symIo=", "properties": {"ref": "169", "@spider": "bostonpizza", "addr:full": "6303 44th Street", "addr:city": "Lloydminster", "addr:state": "AB", "addr:postcode": "T9V 2G6", "addr:country": "Canada", "name": "Lloydminster", "opening_hours": "Mo 11:00-22:00; Tu-Th 11:00-23:00; Fr-Sa 11:00-00:00; Su 11:00-22:00", "brand": "Boston Pizza"}, "geometry": {"type": "Point", "coordinates": [-110.03569307617191, 53.27787292249813]}},
{"type": "Feature", "id": "wbYPfnsbvsL8q97nk6CN5cUHheY=", "properties": {"ref": "197", "@spider": "bostonpizza", "addr:full": "617 14th Ave", "addr:city": "Wainwright", "addr:state": "AB", "addr:postcode": "T9W 1B3", "addr:country": "Canada", "name": "Wainwright", "opening_hours": "Mo 11:00-22:00; Tu-Th 11:00-23:00; Fr-Sa 11:00-00:00; Su 11:00-23:00", "brand": "Boston Pizza"}, "geometry": {"type": "Point", "coordinates": [-110.85931826742707, 52.84340458939362]}},
{"type": "Feature", "id": "Uyw6KTtzV9cp39XgwWvB5SyRM2k=", "properties": {"ref": "207", "@spider": "bostonpizza", "addr:full": "226 Broadway St. SE.", "addr:city": "Yorkton", "addr:state": "SK", "addr:postcode": "S3N 3K7", "addr:country": "Canada", "name": "Yorkton", "opening_hours": "Mo-Th 11:00-23:00; Fr 11:00-01:00; Sa 11:00-00:00; Su 11:00-23:00", "brand": "Boston Pizza"}, "geometry": {"type": "Point", "coordinates": [-102.449726, 51.210143]}},
{"type": "Feature", "id": "4ObqdiSfXxuH23hudG00ZNR3ehU=", "properties": {"ref": "255", "@spider": "bostonpizza", "addr:full": "#100-5208 46th Ave", "addr:city": "Vermilion", "addr:state": "AB", "addr:postcode": "T9X 1X8", "addr:country": "Canada", "name": "Vermilion", "opening_hours": "Mo-Su 12:00-22:00", "brand": "Boston Pizza"}, "geometry": {"type": "Point", "coordinates": [-110.85944121083213, 53.349439644621526]}},
{"type": "Feature", "id": "G06oOdAY3YOMlZ_nEnNAd6_FtwI=", "properties": {"ref": "216", "@spider": "bostonpizza", "addr:full": "35 Riverview Drive", "addr:city": "Weyburn", "addr:state": "SK", "addr:postcode": "S4H 3B4", "addr:country": "Canada", "name": "Weyburn", "opening_hours": "Mo-Th 11:00-23:00; Fr-Sa 11:00-00:00; Su 11:00-23:00", "brand": "Boston Pizza"}, "geometry": {"type": "Point", "coordinates": [-103.856011, 49.662493]}},
{"type": "Feature", "id": "nXjb3rqx5CtnqyqsPMynJ9-I11Q=", "properties": {"ref": "100", "@spider": "bostonpizza", "addr:full": "4308-50th Street", "addr:city": "Cold Lake", "addr:state": "AB", "addr:postcode": "T9M 1S6", "addr:country": "Canada", "name": "Cold Lake", "opening_hours": "Mo-Su 11:00-22:00", "brand": "Boston Pizza"}, "geometry": {"type": "Point", "coordinates": [-110.20539595629005, 54.40710468288176]}},
{"type": "Feature", "id": "lHb5mS0iF2j0QAuargnxsJUifnw=", "properties": {"ref": "271", "@spider": "bostonpizza", "addr:full": "5406 EastPointe Way", "addr:city": "Bonnyville", "addr:state": "AB", "addr:postcode": "T9N 0E7", "addr:country": "Canada", "name": "Bonnyville", "opening_hours": "Mo-Su 11:00-22:00", "brand": "Boston Pizza"}, "geometry": {"type": "Point", "coordinates": [-110.75, 54.2667]}},
{"type": "Feature", "id": "xjm2iGdU-Cem-jsFw3mNiM6XCRE=", "properties": {"ref": "256", "@spider": "bostonpizza", "addr:full": "2500 Box Springs Blvd", "addr:city": "Medicine Hat", "addr:state": "AB", "addr:postcode": "T1C 0C8", "addr:country": "Canada", "name": "Box Springs", "opening_hours": "Mo-Su 11:00-23:00", "brand": "Boston Pizza"}, "geometry": {"type": "Point", "coordinates": [-110.732614, 50.064942]}},
{"type": "Feature", "id": "1NFFSOAjZnz5x_QW_M3LJ2vnLgI=", "properties": {"ref": "173", "@spider": "bostonpizza", "addr:full": "#500 - 1751 Strachan Rd. SE", "addr:city": "Medicine Hat", "addr:state": "AB", "addr:postcode": "T1B 4V7", "addr:country": "Canada", "name": "Medicine Hat", "opening_hours": "Mo-Su 11:00-22:00", "brand": "Boston Pizza"}, "geometry": {"type": "Point", "coordinates": [-110.652311, 49.999455]}},
{"type": "Feature", "id": "fhD3wFd7EQUACOXWdNLd_AAvaUA=", "properties": {"ref": "191", "@spider": "bostonpizza", "addr:full": "5009 42nd Street", "addr:city": "St Paul", "addr:state": "AB", "addr:postcode": "T0A 3A2", "addr:country": "Canada", "name": "St Paul", "opening_hours": "Mo-Su 11:30-22:00", "brand": "Boston Pizza"}, "geometry": {"type": "Point", "coordinates": [-111.27332335377822, 53.991866747385416]}},
{"type": "Feature", "id": "UA_ZK-DMh5KLwqI4twrab9HN7FU=", "properties": {"ref": "254", "@spider": "bostonpizza", "addr:full": "6601 Highway 16A West", "addr:city": "Vegreville", "addr:state": "AB", "addr:postcode": "T9C 0A3", "addr:country": "Canada", "name": "Vegreville", "opening_hours": "Mo-Su 11:00-23:00", "brand": "Boston Pizza"}, "geometry": {"type": "Point", "coordinates": [-112.08172405337342, 53.503815580242154]}},
{"type": "Feature", "id": "0Qe6FuXHIx4vXon2CXc7uZwyRjU=", "properties": {"ref": "167", "@spider": "bostonpizza", "addr:full": "1323 Second Street West", "addr:city": "Brooks", "addr:state": "AB", "addr:postcode": "T1R 1P7", "addr:country": "Canada", "name": "Brooks", "opening_hours": "Mo 11:30-21:00; Tu-Th 11:30-22:00; Fr-Sa 11:30-23:00; Su 11:30-21:00", "brand": "Boston Pizza"}, "geometry": {"type": "Point", "coordinates": [-111.898158, 50.585869]}},
{"type": "Feature", "id": "ErdzLrISP3zMtV7TVrd0HacuHlw=", "properties": {"ref": "212", "@spider": "bostonpizza", "addr:full": "102 Souris Avenue", "addr:city": "Estevan", "addr:state": "SK", "addr:postcode": "S4A 1J3", "addr:country": "Canada", "name": "Estevan", "opening_hours": "Mo-Th 11:00-21:00; Fr-Sa 11:00-00:00; Su 11:00-21:00", "brand": "Boston Pizza"}, "geometry": {"type": "Point", "coordinates": [-102.99174630589444, 49.14765070120225]}},
{"type": "Feature", "id": "ZI9KOQgqnksPj7TkTI9xIRNXjME=", "properties": {"ref": "116", "@spider": "bostonpizza", "addr:full": "6711 - 50th Ave", "addr:city": "Stettler", "addr:state": "AB", "addr:postcode": "T0C 2L2", "addr:country": "Canada", "name": "Stettler", "opening_hours": "Mo 11:30-22:00; Tu-Sa 11:30-23:00; Su 11:30-22:00", "brand": "Boston Pizza"}, "geometry": {"type": "Point", "coordinates": [-112.73663674194009, 52.325082023848864]}},
{"type": "Feature", "id": "3JOOsaGnuIFWMgzGhDEipx2aOLk=", "properties": {"ref": "106", "@spider": "bostonpizza", "addr:full": "500-680 2nd Street SE", "addr:city": "Drumheller", "addr:state": "AB", "addr:postcode": "T0J 0Y0", "addr:country": "Canada", "name": "Drumheller", "opening_hours": "Mo 11:00-20:00; Tu-Sa 11:00-22:00; Su 11:00-20:00", "brand": "Boston Pizza"}, "geometry": {"type": "Point", "coordinates": [-112.70487636229953, 51.45771630114894]}},
{"type": "Feature", "id": "gDWC-GCpiacA1-r6tcV8FyrsLrQ=", "properties": {"ref": "166", "@spider": "bostonpizza", "addr:full": "6046 48th Avenue", "addr:city": "Camrose", "addr:state": "AB", "addr:postcode": "T4V 0K3", "addr:country": "Canada", "name": "Camrose", "opening_hours": "Mo 11:00-00:00; Tu-Sa 11:00-02:00; Su 11:00-00:00", "brand": "Boston Pizza"}, "geometry": {"type": "Point", "coordinates": [-112.84341991942408, 53.01802520571417]}},
{"type": "Feature", "id": "n-IttHyw1mFFvuTBw4NpizKGvNQ=", "properties": {"ref": "301", "@spider": "bostonpizza", "addr:full": "D24 - 1450 Main Street South", "addr:city": "Dauphin", "addr:state": "MB", "addr:postcode": "R7N 3H4", "addr:country": "Canada", "name": "Dauphin", "opening_hours": "Mo-Su 11:00-21:00", "brand": "Boston Pizza"}, "geometry": {"type": "Point", "coordinates": [-100.0627972652529, 51.13695012715763]}},
{"type": "Feature", "id": "wpkyf3i_tqfX0bJgp3CDmQGjNig=", "properties": {"ref": "261", "@spider": "bostonpizza", "addr:full": "14068 Stanley Drive", "addr:city": "Lac La Biche", "addr:state": "AB", "addr:postcode": "T0A 2C0", "addr:country": "Canada", "name": "Lac La Biche", "opening_hours": "Mo-Su 11:30-22:00", "brand": "Boston Pizza"}, "geometry": {"type": "Point", "coordinates": [-112.00829, 54.76295]}},
{"type": "Feature", "id": "HllC6UMKKwk8bnTtaa9saDsqibE=", "properties": {"ref": "165", "@spider": "bostonpizza", "addr:full": "5527 A 49th Avenue", "addr:city": "Wetaskiwin", "addr:state": "AB", "addr:postcode": "T9A 0R5", "addr:country": "Canada", "name": "Wetaskiwin", "opening_hours": "Mo-Th 11:00-00:00; Fr-Sa 11:00-01:00; Su 11:00-00:00", "brand": "Boston Pizza"}, "geometry": {"type": "Point", "coordinates": [-113.38637897730507, 52.96982456074139]}},
{"type": "Feature", "id": "kTDM_yvW8HGMntzzyaNXPge9NhY=", "properties": {"ref": "322", "@spider": "bostonpizza", "addr:full": "290 Frontage Road W", "addr:city": "Virden", "addr:state": "MB", "addr:postcode": "R0M 2C0", "addr:country": "Canada", "name": "Virden", "opening_hours": "Mo-Su 11:00-22:00", "brand": "Boston Pizza"}, "geometry": {"type": "Point", "coordinates": [-100.921735, 49.856621]}},
{"type": "Feature", "id": "OHNwExzqaUl2COdw6oOjBKvgoUY=", "properties": {"ref": "114", "@spider": "bostonpizza", "addr:full": "14 - 6200 46 Avenue", "addr:city": "Taber", "addr:state": "AB", "addr:postcode": "T1G 2B1", "addr:country": "Canada", "name": "Taber", "opening_hours": "Mo-Su 11:00-22:00", "brand": "Boston Pizza"}, "geometry": {"type": "Point", "coordinates": [-112.1291050756458, 49.78511908662871]}},
{"type": "Feature", "id": "84a8R_T50LOgQe3UuQzuFkJimPo=", "properties": {"ref": "171", "@spider": "bostonpizza", "addr:full": "8751 94th Street", "addr:city": "Fort Saskatchewan", "addr:state": "AB", "addr:postcode": "T8L 4P7", "addr:country": "Canada", "name": "Fort Saskatchewan", "opening_hours": "Mo-Su 11:00-21:00", "brand": "Boston Pizza"}, "geometry": {"type": "Point", "coordinates": [-113.19393156725079, 53.70564425512145]}},
{"type": "Feature", "id": "w1QiEfE9fO0sel1DeX5yMgwdCHo=", "properties": {"ref": "162", "@spider": "bostonpizza", "addr:full": "967 Ordze Road", "addr:city": "Sherwood Park", "addr:state": "AB", "addr:postcode": "T8A 4L7", "addr:country": "Canada", "name": "Sherwood Park", "opening_hours": "Mo-Th 11:00-22:30; Fr-Sa 11:00-23:30; Su 11:00-22:30", "brand": "Boston Pizza"}, "geometry": {"type": "Point", "coordinates": [-113.33013919967918, 53.51331637337764]}},
{"type": "Feature", "id": "FialD7ppjbe37WUMYxGNejsf1d8=", "properties": {"ref": "195", "@spider": "bostonpizza", "addr:full": "11 Broadway Blvd", "addr:city": "Sherwood Park", "addr:state": "AB", "addr:postcode": "T8H 2C1", "addr:country": "Canada", "name": "Millennium", "opening_hours": "Mo-Th 11:00-23:00; Fr-Sa 11:00-00:00; Su 11:00-23:00", "brand": "Boston Pizza"}, "geometry": {"type": "Point", "coordinates": [-113.31921772719633, 53.54489575300519]}},
{"type": "Feature", "id": "5ypZAhzXegalfEPwcrDxgwssyyk=", "properties": {"ref": "198", "@spider": "bostonpizza", "addr:full": "6210 50th St", "addr:city": "Beaumont", "addr:state": "AB", "addr:postcode": "T4X 0B6", "addr:country": "Canada", "name": "Beaumont", "opening_hours": "Mo 11:00-22:00; Tu-Sa 11:00-23:00; Su 11:00-22:00", "brand": "Boston Pizza"}, "geometry": {"type": "Point", "coordinates": [-113.41517505484585, 53.362577513490045]}},
{"type": "Feature", "id": "BYHcdtKyVqbmUshPalqMuHfNZMA=", "properties": {"ref": "175", "@spider": "bostonpizza", "addr:full": "4820 60th Street", "addr:city": "Ponoka", "addr:state": "AB", "addr:postcode": "T4J 1K2", "addr:country": "Canada", "name": "Ponoka", "opening_hours": "Mo-Th 11:00-23:00; Fr-Sa 11:00-00:00; Su 11:00-23:00", "brand": "Boston Pizza"}, "geometry": {"type": "Point", "coordinates": [-113.59242529399684, 52.677461728413576]}},
{"type": "Feature", "id": "_MheyMjvuFciX4XVCKzovxXaGnc=", "properties": {"ref": "178", "@spider": "bostonpizza", "addr:full": "5228 23rd Avenue", "addr:city": "Edmonton", "addr:state": "AB", "addr:postcode": "T6L 6Y7", "addr:country": "Canada", "name": "Millwoods", "opening_hours": "Mo-Su 11:00-22:00", "brand": "Boston Pizza"}, "geometry": {"type": "Point", "coordinates": [-113.422975130878, 53.454505029529244]}},
{"type": "Feature", "id": "K2QdICR960wW9G10meTiXGFgivo=", "properties": {"ref": "156", "@spider": "bostonpizza", "addr:full": "3303 118th Avenue", "addr:city": "Edmonton", "addr:state": "AB", "addr:postcode": "T5W 1B3", "addr:country": "Canada", "name": "Beverly", "opening_hours": "Mo-Th 11:00-00:00; Fr-Sa 11:00-01:00; Su 11:00-00:00", "brand": "Boston Pizza"}, "geometry": {"type": "Point", "coordinates": [-113.39237588339634, 53.57032454728515]}},
{"type": "Feature", "id": "m5FXKIyaCDBbbyynl6EufDbkHyA=", "properties": {"ref": "154", "@spider": "bostonpizza", "addr:full": "5515 101 Avenue", "addr:city": "Edmonton", "addr:state": "AB", "addr:postcode": "T6A 3Z7", "addr:country": "Canada", "name": "Capilano", "opening_hours": "Mo 11:00-00:00; Tu-Th 11:00-01:00; Fr 11:00-02:00; Sa 11:00-01:00; Su 11:00-00:00", "brand": "Boston Pizza"}, "geometry": {"type": "Point", "coordinates": [-113.42057773447932, 53.541029865934966]}},
{"type": "Feature", "id": "5MF8ZPNOBXmPaXOBRQbXSPIqYyc=", "properties": {"ref": "189", "@spider": "bostonpizza", "addr:full": "7641 Argyll Road", "addr:city": "Edmonton", "addr:state": "AB", "addr:postcode": "T6C 4A7", "addr:country": "Canada", "name": "Argyll Centre", "opening_hours": "Mo-Su 11:00-22:00", "brand": "Boston Pizza"}, "geometry": {"type": "Point", "coordinates": [-113.44455169846607, 53.50730922200262]}},
{"type": "Feature", "id": "wM4nO5JbAdZRxLB3hgSDJhloxjY=", "properties": {"ref": "268", "@spider": "bostonpizza", "addr:full": "15541 37st, NW", "addr:city": "Edmonton", "addr:state": "AB", "addr:postcode": "T5Y 0S5", "addr:country": "Canada", "name": "Manning Town Centre", "opening_hours": "Mo-Th 11:00-21:00; Fr-Sa 11:00-23:00; Su 11:00-21:00", "brand": "Boston Pizza"}, "geometry": {"type": "Point", "coordinates": [-113.394289, 53.616365]}},
{"type": "Feature", "id": "_M-I3vYsK04giV6MGrMdO72G7EQ=", "properties": {"ref": "264", "@spider": "bostonpizza", "addr:full": "9630 Ellerslie Road SW", "addr:city": "Edmonton", "addr:state": "AB", "addr:postcode": "T6X 0N5", "addr:country": "Canada", "name": "Ellerslie", "opening_hours": "Mo-Su 11:00-22:00", "brand": "Boston Pizza"}, "geometry": {"type": "Point", "coordinates": [-113.485362, 53.424955]}},
{"type": "Feature", "id": "Ht1lcS-gnvDBkYSiqwIeEOX5Yv8=", "properties": {"ref": "196", "@spider": "bostonpizza", "addr:full": "13803 42nd Street NW", "addr:city": "Edmonton", "addr:state": "AB", "addr:postcode": "T5Y 3E1", "addr:country": "Canada", "name": "Clareview", "opening_hours": "Mo 11:00-22:00; Tu-Th 11:00-23:00; Fr-Sa 11:00-23:30; Su 11:00-22:00", "brand": "Boston Pizza"}, "geometry": {"type": "Point", "coordinates": [-113.40689003538262, 53.599038662555884]}},
{"type": "Feature", "id": "BY_NmoikPUHfdC7j4QObLohdpls=", "properties": {"ref": "163", "@spider": "bostonpizza", "addr:full": "9804 22nd Avenue", "addr:city": "Edmonton", "addr:state": "AB", "addr:postcode": "T6N 1J7", "addr:country": "Canada", "name": "South Common", "opening_hours": "Mo-Th 11:00-23:00; Fr-Sa 11:00-00:00; Su 11:00-23:00", "brand": "Boston Pizza"}, "geometry": {"type": "Point", "coordinates": [-113.48421460697632, 53.452729180345045]}},
{"type": "Feature", "id": "bBjyKNwCDHYIsKN4bukONEg5Waw=", "properties": {"ref": "164", "@spider": "bostonpizza", "addr:full": "5309 50th Avenue", "addr:city": "Leduc", "addr:state": "AB", "addr:postcode": "T9E 6L6", "addr:country": "Canada", "name": "Leduc", "opening_hours": "Mo-We 11:00-23:00; Th-Sa 11:00-00:00; Su 11:00-23:00", "brand": "Boston Pizza"}, "geometry": {"type": "Point", "coordinates": [-113.55957208408908, 53.264765789480876]}},
{"type": "Feature", "id": "kfOSioipz4V_v6BeAUPSe2iW88g=", "properties": {"ref": "112", "@spider": "bostonpizza", "addr:full": "5846 Highway 2-A", "addr:city": "Lacombe", "addr:state": "AB", "addr:postcode": "T4L 2G5", "addr:country": "Canada", "name": "Lacombe", "opening_hours": "Mo-Th 11:00-23:00; Fr-Sa 11:00-00:00; Su 11:00-23:00", "brand": "Boston Pizza"}, "geometry": {"type": "Point", "coordinates": [-113.7185037558861, 52.47288731748794]}},
{"type": "Feature", "id": "Qy4-pWilptZJeURJdD9sn3kblVs=", "properties": {"ref": "123", "@spider": "bostonpizza", "addr:full": "#114 - 800 Pine Road", "addr:city": "Strathmore", "addr:state": "AB", "addr:postcode": "T1P 1C1", "addr:country": "Canada", "name": "Strathmore", "opening_hours": "Mo 11:00-22:00; Tu-Th 11:00-23:00; Fr-Sa 11:00-00:00; Su 11:00-22:00", "brand": "Boston Pizza"}, "geometry": {"type": "Point", "coordinates": [-113.39016290210526, 51.03704836526244]}},
{"type": "Feature", "id": "KIAvf069XCwZkJ5OHDiwmyqFicM=", "properties": {"ref": "193", "@spider": "bostonpizza", "addr:full": "4804 Calgary Trail NW", "addr:city": "Edmonton", "addr:state": "AB", "addr:postcode": "T6H 5H5", "addr:country": "Canada", "name": "Calgary Trail", "opening_hours": "Mo-Tu 11:00-23:00; We-Fr 11:00-00:00; Sa 11:30-00:00; Su 11:30-23:00", "brand": "Boston Pizza"}, "geometry": {"type": "Point", "coordinates": [-113.49489019264905, 53.48557214496905]}},
{"type": "Feature", "id": "BSuy85udwt1l0vSmWz1G4y5ON5c=", "properties": {"ref": "177", "@spider": "bostonpizza", "addr:full": "11023 23rd Avenue", "addr:city": "Edmonton", "addr:state": "AB", "addr:postcode": "T6J 6P9", "addr:country": "Canada", "name": "Heritage", "opening_hours": "Mo-Su 11:00-22:00", "brand": "Boston Pizza"}, "geometry": {"type": "Point", "coordinates": [-113.5136254015424, 53.45382201061224]}},
{"type": "Feature", "id": "Ui7Wm-qFN8UuHD-UkJAE99MfJB0=", "properties": {"ref": "278", "@spider": "bostonpizza", "addr:full": "10111 104 ave Unit 120", "addr:city": "Edmonton", "addr:state": "AB", "addr:postcode": "T5J 0J4", "addr:country": "Canada", "name": "Ice District", "opening_hours": "Mo-Th 11:00-00:00; Fr-Sa 11:00-01:00; Su 11:00-00:00", "brand": "Boston Pizza"}, "geometry": {"type": "Point", "coordinates": [-113.494661, 53.545641]}},
{"type": "Feature", "id": "j84tVfBzLmgsNo2XpFQAoaoSx2c=", "properties": {"ref": "153", "@spider": "bostonpizza", "addr:full": "10854 82nd Avenue", "addr:city": "Edmonton", "addr:state": "AB", "addr:postcode": "T6E 2B3", "addr:country": "Canada", "name": "Whyte Avenue", "opening_hours": "Mo 11:00-22:00; Tu-Th 11:00-23:00; Fr-Sa 11:00-00:00; Su 11:00-22:00", "brand": "Boston Pizza"}, "geometry": {"type": "Point", "coordinates": [-113.51083868436103, 53.51817263787752]}},
{"type": "Feature", "id": "ffvkiqJEycfstOXrux0tFNOCFjk=", "properties": {"ref": "179", "@spider": "bostonpizza", "addr:full": "10620 Jasper Avenue", "addr:city": "Edmonton", "addr:state": "AB", "addr:postcode": "T5J 2A4", "addr:country": "Canada", "name": "Jasper Avenue", "opening_hours": "Mo 11:00-21:00; Tu-Sa 11:00-22:00; Su 11:00-21:00", "brand": "Boston Pizza"}, "geometry": {"type": "Point", "coordinates": [-113.50331864608485, 53.54094448857035]}},
{"type": "Feature", "id": "YBqpC9dzc1FFLCPAfqKbT6vw7xw=", "properties": {"ref": "260", "@spider": "bostonpizza", "addr:full": "11440-106th Street", "addr:city": "Edmonton", "addr:state": "AB", "addr:postcode": "T5G 3E3", "addr:country": "Canada", "name": "Kingsway Mall", "opening_hours": "Mo-Th 11:00-00:00; Fr-Sa 11:00-01:00; Su 11:00-00:00", "brand": "Boston Pizza"}, "geometry": {"type": "Point", "coordinates": [-113.50338694797655, 53.56495943369211]}},
{"type": "Feature", "id": "orUlx3Zn180R5g7geHCFoSLcW3E=", "properties": {"ref": "157", "@spider": "bostonpizza", "addr:full": "9703 137th Ave", "addr:city": "Edmonton", "addr:state": "AB", "addr:postcode": "T5E 2C2", "addr:country": "Canada", "name": "North Central", "opening_hours": "Mo-Th 11:00-00:00; Fr-Sa 11:00-01:00; Su 11:00-00:00", "brand": "Boston Pizza"}, "geometry": {"type": "Point", "coordinates": [-113.4929914000598, 53.59945188900067]}},
{"type": "Feature", "id": "IoJvonuctlC13Exd3dbKNYBn-LU=", "properties": {"ref": "183", "@spider": "bostonpizza", "addr:full": "16521 97th Street NW", "addr:city": "Edmonton", "addr:state": "AB", "addr:postcode": "T5X 6A9", "addr:country": "Canada", "name": "Namao Centre", "opening_hours": "Mo-Th 11:30-21:00; Fr-Sa 11:30-22:00; Su 11:30-21:00", "brand": "Boston Pizza"}, "geometry": {"type": "Point", "coordinates": [-113.491714154685, 53.62691949474788]}},
{"type": "Feature", "id": "cUTkyf84YMzdi9d9guMFwsrIZPI=", "properties": {"ref": "267", "@spider": "bostonpizza", "addr:full": "#100 - 37 Cottonwood Drive", "addr:city": "Blackfalds", "addr:state": "AB", "addr:postcode": "T0M 0J0", "addr:country": "Canada", "name": "Blackfalds", "opening_hours": "Mo-Su 11:00-22:00", "brand": "Boston Pizza"}, "geometry": {"type": "Point", "coordinates": [-113.8, 52.3833]}},
{"type": "Feature", "id": "lYcYLyHhCa9KWvYYrFtuoalohvE=", "properties": {"ref": "185", "@spider": "bostonpizza", "addr:full": "378 Bulyea Rd", "addr:city": "Edmonton", "addr:state": "AB", "addr:postcode": "T6R 2B3", "addr:country": "Canada", "name": "Terwillegar", "opening_hours": "Mo-Th 11:00-22:00; Fr-Sa 11:00-23:00; Su 11:00-22:00", "brand": "Boston Pizza"}, "geometry": {"type": "Point", "coordinates": [-113.57308219826736, 53.47578789898301]}},
{"type": "Feature", "id": "zbPOQgg-zQf-UYnY34D_8zfwMQM=", "properties": {"ref": "130", "@spider": "bostonpizza", "addr:full": "7494 50th Avenue", "addr:city": "Red Deer", "addr:state": "AB", "addr:postcode": "T4P 1X7", "addr:country": "Canada", "name": "Red Deer North", "opening_hours": "Mo-Th 11:00-22:00; Fr-Sa 11:00-23:00; Su 11:00-22:00", "brand": "Boston Pizza"}, "geometry": {"type": "Point", "coordinates": [-113.81437229107641, 52.30108756929461]}},
{"type": "Feature", "id": "KBGqgC6-LrLENjTDU5iw5jqdvoc=", "properties": {"ref": "137", "@spider": "bostonpizza", "addr:full": "3215 Gaetz Avenue", "addr:city": "Red Deer", "addr:state": "AB", "addr:postcode": "T4N 3Y1", "addr:country": "Canada", "name": "Red Deer South", "opening_hours": "Mo-Th 11:00-22:00; Fr-Sa 11:00-23:00; Su 11:00-22:00", "brand": "Boston Pizza"}, "geometry": {"type": "Point", "coordinates": [-113.813552668376, 52.25097105625964]}},
{"type": "Feature", "id": "DJyDdQU0wt_t599Zw21vnAw512U=", "properties": {"ref": "174", "@spider": "bostonpizza", "addr:full": "12104 137th Ave", "addr:city": "Edmonton", "addr:state": "AB", "addr:postcode": "T5L 4Y4", "addr:country": "Canada", "name": "Castledowns", "opening_hours": "Mo 11:00-22:00; Tu-Th 11:00-23:00; Fr-Sa 11:00-00:00; Su 11:00-22:00", "brand": "Boston Pizza"}, "geometry": {"type": "Point", "coordinates": [-113.53010664800965, 53.599626058824505]}},
{"type": "Feature", "id": "Y20bdYm5dNw6XR2yBNgGRV8XkOQ=", "properties": {"ref": "176", "@spider": "bostonpizza", "addr:full": "11320 Groat Road", "addr:city": "Edmonton", "addr:state": "AB", "addr:postcode": "T5M 4E7", "addr:country": "Canada", "name": "Westmount", "opening_hours": "Mo 11:00-23:00; Tu-Sa 11:00-00:00; Su 11:00-23:00", "brand": "Boston Pizza"}, "geometry": {"type": "Point", "coordinates": [-113.55151246086847, 53.56221711274035]}},
{"type": "Feature", "id": "x_v7xY7ttC17SMWKyV4jiHU6j_Y=", "properties": {"ref": "274", "@spider": "bostonpizza", "addr:full": "6254 Currents Drive", "addr:city": "Edmonton", "addr:state": "AB", "addr:postcode": "T6W 0L7", "addr:country": "Canada", "name": "Windermere", "opening_hours": "Mo-Th 11:00-00:00; Fr-Sa 11:00-01:00; Su 11:00-00:00", "brand": "Boston Pizza"}, "geometry": {"type": "Point", "coordinates": [-113.60708339999996, 53.4367089]}},
{"type": "Feature", "id": "5WnF1bn41QfbGpmFWeEG7vxwBZE=", "properties": {"ref": "269", "@spider": "bostonpizza", "addr:full": "122 Leva Avenue ", "addr:city": "Red Deer County", "addr:state": "AB", "addr:postcode": "T4E 1B2", "addr:country": "Canada", "name": "Gas Alley", "opening_hours": "Mo-Su 11:00-22:00", "brand": "Boston Pizza"}, "geometry": {"type": "Point", "coordinates": [-113.81629939999999, 52.2113787]}},
{"type": "Feature", "id": "2v8dQdcm-r_z7P-IHjyglCBc1Kk=", "properties": {"ref": "265", "@spider": "bostonpizza", "addr:full": "12788 167 Ave Edmonton", "addr:city": "Edmonton", "addr:state": "AB", "addr:postcode": "T6V 1J6", "addr:country": "Canada", "name": "Albany", "opening_hours": "Mo-Su 11:00-22:00", "brand": "Boston Pizza"}, "geometry": {"type": "Point", "coordinates": [-113.5429, 53.628788]}},
{"type": "Feature", "id": "YcahcaA-sSaQsMF1lDbczIA-1mM=", "properties": {"ref": "186", "@spider": "bostonpizza", "addr:full": "1678-8882 170th Street", "addr:city": "Edmonton", "addr:state": "AB", "addr:postcode": "T5T 4M2", "addr:country": "Canada", "name": "Bourbon Street", "opening_hours": "Mo-Th 11:00-20:00; Fr-Sa 11:00-22:00; Su 12:00-19:00", "brand": "Boston Pizza"}, "geometry": {"type": "Point", "coordinates": [-113.61549084282397, 53.523609468456854]}},
{"type": "Feature", "id": "GbgjH8r2m0BvRjqu2xNCcPfwaNs=", "properties": {"ref": "172", "@spider": "bostonpizza", "addr:full": "17002 90th Avenue", "addr:city": "Edmonton", "addr:state": "AB", "addr:postcode": "T5T 1L6", "addr:country": "Canada", "name": "170 Street", "opening_hours": "Mo-Th 11:00-00:00; Fr-Sa 11:00-02:00; Su 11:00-00:00", "brand": "Boston Pizza"}, "geometry": {"type": "Point", "coordinates": [-113.61559329566153, 53.52487646854789]}},
{"type": "Feature", "id": "30NLsvZOey7OdpjosCkG4fNqYY8=", "properties": {"ref": "152", "@spider": "bostonpizza", "addr:full": "180 Mayfield Common", "addr:city": "Edmonton", "addr:state": "AB", "addr:postcode": "T5P 4B3", "addr:country": "Canada", "name": "Mayfield Common", "opening_hours": "Mo-Fr 11:00-21:00; Sa-Su 16:00-21:00", "brand": "Boston Pizza"}, "geometry": {"type": "Point", "coordinates": [-113.6107028802158, 53.543092583064315]}},
{"type": "Feature", "id": "nWKSpAu4yzXch8PL6xGrMukt56c=", "properties": {"ref": "199", "@spider": "bostonpizza", "addr:full": "6238 199th Street NW", "addr:city": "Edmonton", "addr:state": "AB", "addr:postcode": "T5T 4K2", "addr:country": "Canada", "name": "Hampton Market", "opening_hours": "Mo-Th 11:00-00:00; Fr-Sa 11:00-01:00; Su 11:00-00:00", "brand": "Boston Pizza"}, "geometry": {"type": "Point", "coordinates": [-113.66481163882064, 53.496312617438896]}},
{"type": "Feature", "id": "GzDJHTD8leaS7dEOv7vJye20L3I=", "properties": {"ref": "263", "@spider": "bostonpizza", "addr:full": "135-180 Miquelon Ave", "addr:city": "Devon", "addr:state": "AB", "addr:postcode": "T9G 0A6", "addr:country": "Canada", "name": "Devon", "opening_hours": "Mo 11:00-22:00; Tu-Th 11:00-23:00; Fr-Sa 11:00-00:00; Su 11:00-22:00", "brand": "Boston Pizza"}, "geometry": {"type": "Point", "coordinates": [-113.729661, 53.352556]}},
{"type": "Feature", "id": "cjGjCxapVw_IqOWNClqUEWnM9RA=", "properties": {"ref": "190", "@spider": "bostonpizza", "addr:full": "200 St. Albert Road", "addr:city": "St Albert", "addr:state": "AB", "addr:postcode": "T8N 5H9", "addr:country": "Canada", "name": "Grenier Place", "opening_hours": "Mo-Th 11:00-23:00; Fr-Sa 11:00-01:00; Su 11:00-23:00", "brand": "Boston Pizza"}, "geometry": {"type": "Point", "coordinates": [-113.61572989944493, 53.62534513614419]}},
{"type": "Feature", "id": "keSSjFUy0C8I8q6aQteMmNf2nY8=", "properties": {"ref": "160", "@spider": "bostonpizza", "addr:full": "#80 - 585 St. Albert Trail", "addr:city": "St Albert", "addr:state": "AB", "addr:postcode": "T8N 6G5", "addr:country": "Canada", "name": "St Albert", "opening_hours": "Mo-Th 11:00-23:00; Fr-Sa 11:00-01:00; Su 11:00-23:00", "brand": "Boston Pizza"}, "geometry": {"type": "Point", "coordinates": [-113.62898046643475, 53.65313376078239]}},
{"type": "Feature", "id": "L5X3PG1d7NjaxRUFmWGRJR0dmio=", "properties": {"ref": "253", "@spider": "bostonpizza", "addr:full": "5014 - 40th Ave", "addr:city": "Innisfail", "addr:state": "AB", "addr:postcode": "T4G 1Z1", "addr:country": "Canada", "name": "Innisfail", "opening_hours": "Mo-Tu 12:00-21:00; We 12:00-22:00; Th 12:00-21:00; Fr-Sa 12:00-22:00; Su 12:00-21:00", "brand": "Boston Pizza"}, "geometry": {"type": "Point", "coordinates": [-113.95056626312646, 52.01612866202709]}},
{"type": "Feature", "id": "Lp4SDz_-ATSMY0BR8GAUyIm_XB8=", "properties": {"ref": "282", "@spider": "bostonpizza", "addr:full": "9140 100 Street", "addr:city": "Morinville", "addr:state": "AB", "addr:postcode": "T8R 2P8", "addr:country": "Canada", "name": "Morinville", "opening_hours": "Mo-Th 11:00-23:00; Fr-Sa 11:00-00:00; Su 11:00-23:00", "brand": "Boston Pizza"}, "geometry": {"type": "Point", "coordinates": [-113.63485, 53.79623]}},
{"type": "Feature", "id": "pM8fkN4p4LzI1n-14pk1ZlhrtPs=", "properties": {"ref": "117", "@spider": "bostonpizza", "addr:full": "61 BEJU IND. DR", "addr:city": "Sylvan Lake", "addr:state": "AB", "addr:postcode": "T4S 0B4", "addr:country": "Canada", "name": "Sylvan Lake", "opening_hours": "Mo-Th 11:00-22:00; Fr-Sa 11:00-23:00; Su 11:00-22:00", "brand": "Boston Pizza"}, "geometry": {"type": "Point", "coordinates": [-114.07270370586463, 52.31050640016006]}},
{"type": "Feature", "id": "35rYjjX3Xe6WiLKIC2gHZgE-zPA=", "properties": {"ref": "252", "@spider": "bostonpizza", "addr:full": "#200 - 196 Chestermere Station Way", "addr:city": "Chestermere", "addr:state": "AB", "addr:postcode": "T1X 1V3", "addr:country": "Canada", "name": "Chestermere", "opening_hours": "Mo-Su 11:00-23:00", "brand": "Boston Pizza"}, "geometry": {"type": "Point", "coordinates": [-113.8280394996056, 51.04875872459443]}},
{"type": "Feature", "id": "VQQjcKJ75l24_ZVjDQnwQLQFCJQ=", "properties": {"ref": "161", "@spider": "bostonpizza", "addr:full": "201 Calahoo Road", "addr:city": "Spruce Grove", "addr:state": "AB", "addr:postcode": "T7X 1R1", "addr:country": "Canada", "name": "Spruce Grove", "opening_hours": "Mo 11:00-22:00; Tu-Th 11:00-23:00; Fr-Sa 11:00-00:00; Su 11:00-22:00", "brand": "Boston Pizza"}, "geometry": {"type": "Point", "coordinates": [-113.9102886375909, 53.54236175282312]}},
{"type": "Feature", "id": "FfeOZelFYYyyTOoeCOZUjmln3Xk=", "properties": {"ref": "150", "@spider": "bostonpizza", "addr:full": "2041 Mayor Magrath Drive South", "addr:city": "Lethbridge", "addr:state": "AB", "addr:postcode": "T1K 2S2", "addr:country": "Canada", "name": "Lethbridge South", "opening_hours": "Mo-Th 11:00-00:00; Fr-Sa 11:00-01:00; Su 11:00-00:00", "brand": "Boston Pizza"}, "geometry": {"type": "Point", "coordinates": [-112.79959742570927, 49.67209653133793]}},
{"type": "Feature", "id": "2zNqsxv8CwSH8v_XP4CJZfdd1o4=", "properties": {"ref": "187", "@spider": "bostonpizza", "addr:full": "4520 46 Street", "addr:city": "Olds", "addr:state": "AB", "addr:postcode": "T4H 1P7", "addr:country": "Canada", "name": "Olds", "opening_hours": "Mo-Su 11:00-22:00", "brand": "Boston Pizza"}, "geometry": {"type": "Point", "coordinates": [-114.1066019347154, 51.79155887230624]}},
{"type": "Feature", "id": "E-jxb3kH8Tnr4fPPU50zvQooMRo=", "properties": {"ref": "266", "@spider": "bostonpizza", "addr:full": "112 205 Jennifer Heil Way", "addr:city": "Spruce Grove", "addr:state": "AB", "addr:postcode": "T7X 0T3", "addr:country": "Canada", "name": "Tri Village", "opening_hours": "Mo 11:00-22:00; Tu-Th 11:00-23:00; Fr-Sa 11:00-00:00; Su 11:00-22:00", "brand": "Boston Pizza"}, "geometry": {"type": "Point", "coordinates": [-113.934536, 53.542906]}},
{"type": "Feature", "id": "C4gEoqu3bEaNBKV1KygK4GQ9DKQ=", "properties": {"ref": "181", "@spider": "bostonpizza", "addr:full": "70 Boulder Blvd.", "addr:city": "Stony Plain", "addr:state": "AB", "addr:postcode": "T7Z 1V7", "addr:country": "Canada", "name": "Stony Plain", "opening_hours": "Mo-Tu 11:00-22:00; We 11:00-23:00; Th 11:00-22:00; Fr 11:00-23:00; Sa-Su 11:00-22:00", "brand": "Boston Pizza"}, "geometry": {"type": "Point", "coordinates": [-113.9782558500217, 53.54240273395814]}},
{"type": "Feature", "id": "cCbyZaTHLhmEFjy1B32h2_O7dT8=", "properties": {"ref": "281", "@spider": "bostonpizza", "addr:full": "#400-300 Veterans Blvd", "addr:city": "Airdrie", "addr:state": "AB", "addr:postcode": "T4B 3P2", "addr:country": "Canada", "name": "Airdrie North", "opening_hours": "Mo-Su 11:00-22:00", "brand": "Boston Pizza"}, "geometry": {"type": "Point", "coordinates": [-114.011667, 51.300556]}},
{"type": "Feature", "id": "9ieBfWdQvjPUk_7Cukwe52QF2tE=", "properties": {"ref": "251", "@spider": "bostonpizza", "addr:full": "80 Saddletowne Circle NE", "addr:city": "Calgary", "addr:state": "AB", "addr:postcode": "T3J 0H5", "addr:country": "Canada", "name": "Saddleridge", "opening_hours": "Mo-Th 11:00-00:00; Fr-Sa 11:00-01:00; Su 11:00-00:00", "brand": "Boston Pizza"}, "geometry": {"type": "Point", "coordinates": [-113.94620177224682, 51.1215378052955]}},
{"type": "Feature", "id": "bhEM8j-XkK5jziDcG0AZXYP8y6M=", "properties": {"ref": "257", "@spider": "bostonpizza", "addr:full": "261055 CrossIron Blvd", "addr:city": "Rocky View", "addr:state": "AB", "addr:postcode": "T4A 0G3", "addr:country": "Canada", "name": "CrossIron Mills", "opening_hours": "Mo-Sa 11:00-22:00; Su 11:00-19:00", "brand": "Boston Pizza"}, "geometry": {"type": "Point", "coordinates": [-113.995756, 51.205493]}},
{"type": "Feature", "id": "t0WRsA5yp9lKXr4N5LYfLwUikfo=", "properties": {"ref": "272", "@spider": "bostonpizza", "addr:full": "#10-14 Aquitania Blvd W", "addr:city": "Lethbridge", "addr:state": "AB", "addr:postcode": "T1J 5L4", "addr:country": "Canada", "name": "West Lethbridge", "opening_hours": "Mo-Th 11:00-00:00; Fr-Sa 11:00-01:00; Su 11:00-00:00", "brand": "Boston Pizza"}, "geometry": {"type": "Point", "coordinates": [-112.90543, 49.6718452]}},
{"type": "Feature", "id": "cnPUw188rmZlYpqtocUTEp3ifqI=", "properties": {"ref": "275", "@spider": "bostonpizza", "addr:full": "2201 48th Ave", "addr:city": "Athabasca", "addr:state": "AB", "addr:postcode": "T9S 0B8", "addr:country": "Canada", "name": "Athabasca", "opening_hours": "Mo-Th 11:30-22:00; Fr-Sa 11:30-23:00; Su 11:30-22:00", "brand": "Boston Pizza"}, "geometry": {"type": "Point", "coordinates": [-113.241996, 54.71905]}},
{"type": "Feature", "id": "JiXVmaBteu8XQuPLnK8tyt2xO5U=", "properties": {"ref": "323", "@spider": "bostonpizza", "addr:full": "2040 Marshall Lane", "addr:city": "Brandon", "addr:state": "MB", "addr:postcode": "R7C 0C9", "addr:country": "Canada", "name": "Brandon North", "opening_hours": "Mo-Su 11:30-23:00", "brand": "Boston Pizza"}, "geometry": {"type": "Point", "coordinates": [-99.950835, 49.888827]}},
{"type": "Feature", "id": "fIVDiOei04R13Vvb4sinWcLcIlA=", "properties": {"ref": "138", "@spider": "bostonpizza", "addr:full": "2836 Memorial Drive, SE", "addr:city": "Calgary", "addr:state": "AB", "addr:postcode": "T2A 6L6", "addr:country": "Canada", "name": "Memorial Drive", "opening_hours": "Mo 12:00-21:00; Tu-Th 12:00-22:00; Fr-Sa 12:00-23:00; Su 11:00-21:00", "brand": "Boston Pizza"}, "geometry": {"type": "Point", "coordinates": [-113.994218002112, 51.04757368677343]}},
{"type": "Feature", "id": "VyXPrpN-M4yWLxgzr1fUO4EMpfk=", "properties": {"ref": "111", "@spider": "bostonpizza", "addr:full": "600-388 Country Hills Blvd", "addr:city": "Calgary", "addr:state": "AB", "addr:postcode": "T3K 5J6", "addr:country": "Canada", "name": "NorthPointe", "opening_hours": "Mo-Th 11:00-23:00; Fr-Sa 11:00-00:00; Su 11:00-23:00", "brand": "Boston Pizza"}, "geometry": {"type": "Point", "coordinates": [-114.06137242203158, 51.154233920852356]}},
{"type": "Feature", "id": "oHCOY9Gv8FeTAtj8_Qw6tgayQRw=", "properties": {"ref": "305", "@spider": "bostonpizza", "addr:full": "#2, 1140 Richmond Ave", "addr:city": "Brandon", "addr:state": "MB", "addr:postcode": "R7A 1M6", "addr:country": "Canada", "name": "Brandon", "opening_hours": "Mo-Su 11:30-23:00", "brand": "Boston Pizza"}, "geometry": {"type": "Point", "coordinates": [-99.95253069129221, 49.82743552363153]}},
{"type": "Feature", "id": "9YnjTfI90sTdFQzI1DkBZKkRI5s=", "properties": {"ref": "148", "@spider": "bostonpizza", "addr:full": "220-4307 130th Avenue SE", "addr:city": "Calgary", "addr:state": "AB", "addr:postcode": "T2Z 3V8", "addr:country": "Canada", "name": "South Trail Crossing", "opening_hours": "Mo 11:00-23:00; Tu-Th 11:00-00:00; Fr-Sa 11:00-02:00; Su 11:00-23:00", "brand": "Boston Pizza"}, "geometry": {"type": "Point", "coordinates": [-113.97036015134115, 50.931887357706344]}},
{"type": "Feature", "id": "sGRiFiH9TE9E5kxm_fVUw537Ks0=", "properties": {"ref": "139", "@spider": "bostonpizza", "addr:full": "8108 Beddington Blvd. NW", "addr:city": "Calgary", "addr:state": "AB", "addr:postcode": "T3K 2A8", "addr:country": "Canada", "name": "Beddington", "opening_hours": "Mo-Su 11:00-23:00", "brand": "Boston Pizza"}, "geometry": {"type": "Point", "coordinates": [-114.07210947940683, 51.12528074896067]}},
{"type": "Feature", "id": "xfudz1VLnbyspXI5NX18MXira18=", "properties": {"ref": "276", "@spider": "bostonpizza", "addr:full": "200 \u2013 19587 Seton Cres SE", "addr:city": "Calgary", "addr:state": "AB", "addr:postcode": "T3M 2T5", "addr:country": "Canada", "name": "Seton", "opening_hours": "Mo 11:00-22:00; Tu-Th 11:00-23:00; Fr-Sa 11:00-01:00; Su 11:00-22:00", "brand": "Boston Pizza"}, "geometry": {"type": "Point", "coordinates": [-113.960803, 50.877894]}},
{"type": "Feature", "id": "7xnW49-pxwHX3K01p04ohxf8wug=", "properties": {"ref": "145", "@spider": "bostonpizza", "addr:full": "700-8338 18th Street SE", "addr:city": "Calgary", "addr:state": "AB", "addr:postcode": "T2C 4E4", "addr:country": "Canada", "name": "Riverbend", "opening_hours": "Mo 11:00-23:00; Tu-Th 11:00-00:00; Fr-Sa 11:00-02:00; Su 11:00-23:00", "brand": "Boston Pizza"}, "geometry": {"type": "Point", "coordinates": [-114.01570577724087, 50.977103210011826]}},
{"type": "Feature", "id": "C7LIAgwTn7cxA7CrJbLdtPy80_I=", "properties": {"ref": "194", "@spider": "bostonpizza", "addr:full": "11303 - 100 Street", "addr:city": "Westlock", "addr:state": "AB", "addr:postcode": "T7P 2R8", "addr:country": "Canada", "name": "Westlock", "opening_hours": "Mo 11:00-23:00; Tu-Th 11:00-00:00; Fr-Sa 11:00-01:00; Su 11:00-23:00", "brand": "Boston Pizza"}, "geometry": {"type": "Point", "coordinates": [-113.83038908468008, 54.15205517398972]}},
{"type": "Feature", "id": "BHGSHlKLK1m3K7Qj3JFTpQKnpYQ=", "properties": {"ref": "120", "@spider": "bostonpizza", "addr:full": "7 Heritage Gate SE", "addr:city": "Calgary", "addr:state": "AB", "addr:postcode": "T2H 3A7", "addr:country": "Canada", "name": "Fairview", "opening_hours": "Mo-Th 11:00-22:00; Fr-Sa 11:00-23:00; Su 11:00-22:00", "brand": "Boston Pizza"}, "geometry": {"type": "Point", "coordinates": [-114.04422864721485, 50.98730409753724]}},
{"type": "Feature", "id": "2fFKsYUnAzsbPSeaDr1Yb3dr4v4=", "properties": {"ref": "258", "@spider": "bostonpizza", "addr:full": "12286 Symons Valley Road NW", "addr:city": "Calgary", "addr:state": "AB", "addr:postcode": "T2P 0A3", "addr:country": "Canada", "name": "Creekside", "opening_hours": "Mo-Su 11:00-23:00", "brand": "Boston Pizza"}, "geometry": {"type": "Point", "coordinates": [-114.12714031354963, 51.162781902598624]}},
{"type": "Feature", "id": "BpAbWxZROfaDJNO6PecmIZwSQEo=", "properties": {"ref": "280", "@spider": "bostonpizza", "addr:full": "#1652, 1632 14th Ave", "addr:city": "Calgary", "addr:state": "AB", "addr:postcode": "T2N 1M7", "addr:country": "Canada", "name": "North Hill", "opening_hours": "Mo-Su 11:00-22:00", "brand": "Boston Pizza"}, "geometry": {"type": "Point", "coordinates": [-114.098706, 51.06642]}},
{"type": "Feature", "id": "aNBdhBtRE6ThvVQWqXR407hbUdE=", "properties": {"ref": "259", "@spider": "bostonpizza", "addr:full": "232 - 6455 Macleod Trail SW ", "addr:city": "Calgary", "addr:state": "AB", "addr:postcode": "T2H 0K8", "addr:country": "Canada", "name": "Chinook Centre", "opening_hours": "Mo-Su 11:00-23:00", "brand": "Boston Pizza"}, "geometry": {"type": "Point", "coordinates": [-114.074815, 51.000279]}},
{"type": "Feature", "id": "D0GnWFtgmWOqg0J54ZkDwk6XmFw=", "properties": {"ref": "124", "@spider": "bostonpizza", "addr:full": "1508 13 Ave SE", "addr:city": "High River", "addr:state": "AB", "addr:postcode": "T1V 2B1", "addr:country": "Canada", "name": "High River", "opening_hours": "Mo 11:00-21:00; Tu-We 11:00-22:00; Th-Sa 11:00-23:00; Su 11:00-22:00", "brand": "Boston Pizza"}, "geometry": {"type": "Point", "coordinates": [-113.84569553861009, 50.57077867138236]}},
{"type": "Feature", "id": "9qTyB9GeceyV-ome2jMRAMkxtiU=", "properties": {"ref": "131", "@spider": "bostonpizza", "addr:full": "10456 Southport Road SW.", "addr:city": "Calgary", "addr:state": "AB", "addr:postcode": "T2W 3M5", "addr:country": "Canada", "name": "Southport", "opening_hours": "Mo-Su 11:00-23:00", "brand": "Boston Pizza"}, "geometry": {"type": "Point", "coordinates": [-114.07229389451443, 50.961585020217555]}},
{"type": "Feature", "id": "8vsX6l73sXISQbA-kBhBUMYAiiU=", "properties": {"ref": "147", "@spider": "bostonpizza", "addr:full": "703 - 5005 Dalhousie Drive NW", "addr:city": "Calgary", "addr:state": "AB", "addr:postcode": "T3A 5R8", "addr:country": "Canada", "name": "Dalhousie", "opening_hours": "Mo-Tu 11:00-23:00; We-Th 11:00-00:00; Fr-Sa 11:00-01:00; Su 11:00-23:00", "brand": "Boston Pizza"}, "geometry": {"type": "Point", "coordinates": [-114.15890069319019, 51.106490898553965]}},
{"type": "Feature", "id": "IymXCRWy-F7_iQC7UcNu2TBiFAM=", "properties": {"ref": "146", "@spider": "bostonpizza", "addr:full": "235 Shawville Blvd SE", "addr:city": "Calgary", "addr:state": "AB", "addr:postcode": "T2Y 3H9", "addr:country": "Canada", "name": "Shawnessy", "opening_hours": "Mo-Th 11:00-23:00; Fr-Sa 11:00-01:00; Su 11:00-23:00", "brand": "Boston Pizza"}, "geometry": {"type": "Point", "coordinates": [-114.06551151666861, 50.903046883935964]}},
{"type": "Feature", "id": "W9oC-UthBygjsDDPEYu_8QMIo1U=", "properties": {"ref": "279", "@spider": "bostonpizza", "addr:full": "Unit G1, 3625 Shaganappi Trail N.W. ", "addr:city": "Calgary", "addr:state": "AB", "addr:postcode": "T3A 0E2", "addr:country": "Canada", "name": "Market Mall", "opening_hours": "Mo 11:00-21:00; Tu-Sa 11:00-23:00; Su 11:00-21:00", "brand": "Boston Pizza"}, "geometry": {"type": "Point", "coordinates": [-114.1538, 51.08637]}},
{"type": "Feature", "id": "NRs90_GesOJgCm1gXlFABCSiaA8=", "properties": {"ref": "133", "@spider": "bostonpizza", "addr:full": "1313 33rd Street, SW", "addr:city": "Calgary", "addr:state": "AB", "addr:postcode": "T3C 1P2", "addr:country": "Canada", "name": "Bow Trail", "opening_hours": "Mo 11:00-22:00; Tu-Th 11:00-23:00; Fr-Sa 11:00-00:00; Su 11:00-22:00", "brand": "Boston Pizza"}, "geometry": {"type": "Point", "coordinates": [-114.13546631414788, 51.04127966745327]}},
{"type": "Feature", "id": "W9gRTeuxlUfAyBpRICFLJ7ORNR4=", "properties": {"ref": "324", "@spider": "bostonpizza", "addr:full": "500 PTH #5 Hwy. Box 310 ", "addr:city": "Neepawa", "addr:state": "MB", "addr:postcode": "R0J 1H0", "addr:country": "Canada", "name": "Neepawa", "opening_hours": "Mo-Th 11:00-23:00; Fr-Sa 11:00-00:00; Su 11:00-23:00", "brand": "Boston Pizza"}, "geometry": {"type": "Point", "coordinates": [-99.478527, 50.226643]}},
{"type": "Feature", "id": "dLCpAcfuOuoyrUnbBb3msDmX-Xg=", "properties": {"ref": "149", "@spider": "bostonpizza", "addr:full": "10 Southridge Drive", "addr:city": "Okotoks", "addr:state": "AB", "addr:postcode": "T1S 1N1", "addr:country": "Canada", "name": "Okotoks", "opening_hours": "Mo-Su 11:00-23:00", "brand": "Boston Pizza"}, "geometry": {"type": "Point", "coordinates": [-113.98050298225863, 50.715708455380856]}},
{"type": "Feature", "id": "VWy9rd8dfmflmWa_2fpyRwcs0g8=", "properties": {"ref": "122", "@spider": "bostonpizza", "addr:full": "2580 Southland Drive SW", "addr:city": "Calgary", "addr:state": "AB", "addr:postcode": "T2V 4J8", "addr:country": "Canada", "name": "Oakridge Centre", "opening_hours": "Mo 11:00-22:00; Tu-Th 11:00-23:00; Fr-Sa 11:00-00:00; Su 11:00-22:00", "brand": "Boston Pizza"}, "geometry": {"type": "Point", "coordinates": [-114.12087019989156, 50.96124009566447]}},
{"type": "Feature", "id": "3ehANPcjswGvfJYOhwz6Fml89WM=", "properties": {"ref": "136", "@spider": "bostonpizza", "addr:full": "140 Crowfoot Crescent, NW", "addr:city": "Calgary", "addr:state": "AB", "addr:postcode": "T3G 2W1", "addr:country": "Canada", "name": "Crowfoot", "opening_hours": "Mo-Su 11:00-00:00", "brand": "Boston Pizza"}, "geometry": {"type": "Point", "coordinates": [-114.1978464318376, 51.12694048492898]}},
{"type": "Feature", "id": "IWxcF9RjbrfabMlpCRROjTTvTG0=", "properties": {"ref": "277", "@spider": "bostonpizza", "addr:full": "305, 8560 8A Ave SW", "addr:city": "Calgary", "addr:state": "AB", "addr:postcode": "T3H 1T1", "addr:country": "Canada", "name": "West Springs", "opening_hours": "Mo-Su 12:00-22:00", "brand": "Boston Pizza"}, "geometry": {"type": "Point", "coordinates": [-114.210606, 51.062288]}},
{"type": "Feature", "id": "P-29bE9jqUlIauUqRbnO9s2uMxk=", "properties": {"ref": "110", "@spider": "bostonpizza", "addr:full": "15 West Side Drive", "addr:city": "Cochrane", "addr:state": "AB", "addr:postcode": "T4C 1M1", "addr:country": "Canada", "name": "Cochrane", "opening_hours": "Mo-Su 11:00-23:00", "brand": "Boston Pizza"}, "geometry": {"type": "Point", "coordinates": [-114.49012388680079, 51.194634489792975]}},
{"type": "Feature", "id": "_oSSm3OEKadXG8fAbqYyxe4gjKo=", "properties": {"ref": "125", "@spider": "bostonpizza", "addr:full": "4402 41st Avenue", "addr:city": "Rocky Mountain House", "addr:state": "AB", "addr:postcode": "T4T 1J4", "addr:country": "Canada", "name": "Rocky Mountain House", "opening_hours": "Mo-Th 11:00-21:00; Fr-Sa 11:00-22:00; Su 11:00-21:00", "brand": "Boston Pizza"}, "geometry": {"type": "Point", "coordinates": [-114.90673127522571, 52.3609917434102]}},
{"type": "Feature", "id": "nNpXefEEQCf8hfEXr1WEh9pSl0Q=", "properties": {"ref": "184", "@spider": "bostonpizza", "addr:full": "5645 50th Street", "addr:city": "Drayton Valley", "addr:state": "AB", "addr:postcode": "T7A 1T1", "addr:country": "Canada", "name": "Drayton Valley", "opening_hours": "Mo-Th 11:00-23:00; Fr-Sa 11:00-01:00; Su 11:00-23:00", "brand": "Boston Pizza"}, "geometry": {"type": "Point", "coordinates": [-114.9776149784321, 53.23065923986042]}},
{"type": "Feature", "id": "qN9b9J2X8XFXQmKPXwmYq3G8e48=", "properties": {"ref": "104", "@spider": "bostonpizza", "addr:full": "10202 MacDonald Avenue", "addr:city": "Fort McMurray", "addr:state": "AB", "addr:postcode": "T9H 1T4", "addr:country": "Canada", "name": "Fort McMurray", "opening_hours": "Mo-Su 11:00-23:00", "brand": "Boston Pizza"}, "geometry": {"type": "Point", "coordinates": [-111.38789977710519, 56.72900700066008]}},
{"type": "Feature", "id": "Ls6tr5A3K51-ELUZ6bm0PjnxEo0=", "properties": {"ref": "262", "@spider": "bostonpizza", "addr:full": "1130 Table Mountain Street", "addr:city": "Pincher Creek", "addr:state": "AB", "addr:postcode": "T0K 1W0", "addr:country": "Canada", "name": "Pincher Creek", "opening_hours": "Mo-Th 12:00-22:00; Fr-Sa 12:00-23:00; Su 12:00-22:00", "brand": "Boston Pizza"}, "geometry": {"type": "Point", "coordinates": [-113.9473, 49.49779]}},
{"type": "Feature", "id": "2YpbTR_fW_Uha2O9nXqnb9BMIec=", "properties": {"ref": "115", "@spider": "bostonpizza", "addr:full": "110 Millennium Drive", "addr:city": "Fort McMurray", "addr:state": "AB", "addr:postcode": "T9K 2S8", "addr:country": "Canada", "name": "Timberlea", "opening_hours": "Mo-Su 11:00-23:00", "brand": "Boston Pizza"}, "geometry": {"type": "Point", "coordinates": [-111.46241031076086, 56.754835361006485]}},
{"type": "Feature", "id": "rTVehJ31eCYPZX1BEiPk7xPvuC0=", "properties": {"ref": "144", "@spider": "bostonpizza", "addr:full": "1704 Bow Valley Trail", "addr:city": "Canmore", "addr:state": "AB", "addr:postcode": "T1W 1N5", "addr:country": "Canada", "name": "Canmore", "opening_hours": "Mo-Th 11:00-22:00; Fr-Sa 11:00-23:00; Su 11:00-22:00", "brand": "Boston Pizza"}, "geometry": {"type": "Point", "coordinates": [-115.35783794914838, 51.09739991676868]}},
{"type": "Feature", "id": "_zIKxvtMs0Ico8Zp59b9P2uH6N8=", "properties": {"ref": "310", "@spider": "bostonpizza", "addr:full": "2180 Saskatchewan Avenue", "addr:city": "Portage la Prairie", "addr:state": "MB", "addr:postcode": "R1N 0P3", "addr:country": "Canada", "name": "Portage la Prairie", "opening_hours": "Mo-Su 11:00-00:00", "brand": "Boston Pizza"}, "geometry": {"type": "Point", "coordinates": [-98.31786834742222, 49.9711870999982]}},
{"type": "Feature", "id": "z3WV8JB0n9al5Rdecw_-nFutgPg=", "properties": {"ref": "113", "@spider": "bostonpizza", "addr:full": "201 - 225 Banff Ave.", "addr:city": "Banff", "addr:state": "AB", "addr:postcode": "T1L 1A2", "addr:country": "Canada", "name": "Banff", "opening_hours": "Mo-Th 11:00-21:00; Fr-Sa 11:00-22:00; Su 11:00-21:00", "brand": "Boston Pizza"}, "geometry": {"type": "Point", "coordinates": [-115.57081690784771, 51.17701601682893]}},
{"type": "Feature", "id": "TY02OPA5OS4tQwI-9YFl10RfiGo=", "properties": {"ref": "109", "@spider": "bostonpizza", "addr:full": "604 Main Street, SW", "addr:city": "Slave Lake", "addr:state": "AB", "addr:postcode": "T0G 2A0", "addr:country": "Canada", "name": "Slave Lake", "opening_hours": "Mo-We 11:00-21:00; Th-Sa 11:00-23:00; Su 11:00-21:00", "brand": "Boston Pizza"}, "geometry": {"type": "Point", "coordinates": [-114.77247707689995, 55.278787085137125]}},
{"type": "Feature", "id": "ImoVPHAYMi7wlKW7cPfzCXJ74ow=", "properties": {"ref": "108", "@spider": "bostonpizza", "addr:full": "3836 Keppler Street", "addr:city": "Whitecourt", "addr:state": "AB", "addr:postcode": "T7S 1N7", "addr:country": "Canada", "name": "Whitecourt", "opening_hours": "Mo 11:00-23:00; Tu-Th 11:00-00:00; Fr-Sa 11:00-02:00; Su 11:00-00:00", "brand": "Boston Pizza"}, "geometry": {"type": "Point", "coordinates": [-115.67806453819526, 54.14148545624913]}},
{"type": "Feature", "id": "r5i0tS42M8pd4bjN3Bh8YXpBVOk=", "properties": {"ref": "91", "@spider": "bostonpizza", "addr:full": "1602 7th Avenue (Box 1930)", "addr:city": "Fernie", "addr:state": "BC", "addr:postcode": "V0B 1M0", "addr:country": "Canada", "name": "Fernie", "opening_hours": "Mo-Th 12:00-22:00; Fr-Sa 12:00-23:00; Su 12:00-22:00", "brand": "Boston Pizza"}, "geometry": {"type": "Point", "coordinates": [-115.05848441820505, 49.51524465214317]}},
{"type": "Feature", "id": "pT09b2EoJgIEkp_ol3usJhfAd3E=", "properties": {"ref": "105", "@spider": "bostonpizza", "addr:full": "4523 4th Avenue", "addr:city": "Edson", "addr:state": "AB", "addr:postcode": "T7E 1C3", "addr:country": "Canada", "name": "Edson", "opening_hours": "Mo-Th 11:00-22:00; Fr-Sa 11:00-23:00; Su 11:00-22:00", "brand": "Boston Pizza"}, "geometry": {"type": "Point", "coordinates": [-116.42091591232584, 53.58650526542891]}},
{"type": "Feature", "id": "Fp3H8XhjmFRX-XNVMyD8qZ3vA-0=", "properties": {"ref": "316", "@spider": "bostonpizza", "addr:full": "215 La Verendrye Boulevard", "addr:city": "Morden", "addr:state": "MB", "addr:postcode": "R6M 1A2", "addr:country": "Canada", "name": "Morden", "opening_hours": "Mo-Su 11:00-00:00", "brand": "Boston Pizza"}, "geometry": {"type": "Point", "coordinates": [-98.10621444542187, 49.19362128941102]}},
{"type": "Feature", "id": "S5TEsY3EbdrSzPydmhU6LiuHUIo=", "properties": {"ref": "314", "@spider": "bostonpizza", "addr:full": "4 Moak Crescent", "addr:city": "Thompson", "addr:state": "MB", "addr:postcode": "R8N 2B7", "addr:country": "Canada", "name": "Thompson", "opening_hours": "Mo-Su 11:00-00:00", "brand": "Boston Pizza"}, "geometry": {"type": "Point", "coordinates": [-97.84855238917231, 55.744049326114634]}},
{"type": "Feature", "id": "OaaLde8MVQ5RMBgUPB-765tk_zU=", "properties": {"ref": "307", "@spider": "bostonpizza", "addr:full": "2517 Portage Avenue", "addr:city": "Winnipeg", "addr:state": "MB", "addr:postcode": "R3J 0P1", "addr:country": "Canada", "name": "Birchwood", "opening_hours": "Mo-Su 11:00-02:00", "brand": "Boston Pizza"}, "geometry": {"type": "Point", "coordinates": [-97.25809619580305, 49.87512048932197]}},
{"type": "Feature", "id": "Ubk250bf6meLyM3OCdeptFa9u7Q=", "properties": {"ref": "325", "@spider": "bostonpizza", "addr:full": "3894 Grant Ave", "addr:city": "Winnipeg", "addr:state": "MB", "addr:postcode": "R3R 3C5", "addr:country": "Canada", "name": "Charleswood", "opening_hours": "Mo-Su 11:00-00:00", "brand": "Boston Pizza"}, "geometry": {"type": "Point", "coordinates": [-97.26371, 49.85905]}},
{"type": "Feature", "id": "I8gFh0NZAYRprl3F0uaCx3KH__8=", "properties": {"ref": "318", "@spider": "bostonpizza", "addr:full": "690 St. James Street", "addr:city": "Winnipeg", "addr:state": "MB", "addr:postcode": "R3G 3J7", "addr:country": "Canada", "name": "Polo Park", "opening_hours": "Mo-Su 11:00-00:00", "brand": "Boston Pizza"}, "geometry": {"type": "Point", "coordinates": [-97.20144660682696, 49.883859716365]}},
{"type": "Feature", "id": "XX7bWsUsjg0dY2nVQrANdP4dWOs=", "properties": {"ref": "312", "@spider": "bostonpizza", "addr:full": "Unit A-2211 McPhillips Street", "addr:city": "Winnipeg", "addr:state": "MB", "addr:postcode": "R2V 3M5", "addr:country": "Canada", "name": "Garden City", "opening_hours": "Mo-Su 11:00-02:00", "brand": "Boston Pizza"}, "geometry": {"type": "Point", "coordinates": [-97.14955765970237, 49.950836551366145]}},
{"type": "Feature", "id": "e7kYNeOA6XVBQVKqjOEubAiTRpo=", "properties": {"ref": "309", "@spider": "bostonpizza", "addr:full": "1630 Kenaston Blvd", "addr:city": "Winnipeg", "addr:state": "MB", "addr:postcode": "R3P 2M6", "addr:country": "Canada", "name": "Kenaston", "opening_hours": "Mo-Th 11:00-00:00; Fr-Sa 11:00-02:00; Su 11:00-00:00", "brand": "Boston Pizza"}, "geometry": {"type": "Point", "coordinates": [-97.20278532390428, 49.8230915233194]}},
{"type": "Feature", "id": "RX_eIG3JGlRfjao8t2AA026187g=", "properties": {"ref": "319", "@spider": "bostonpizza", "addr:full": "66-333 St. Mary Avenue", "addr:city": "Winnipeg", "addr:state": "MB", "addr:postcode": "R3C 4A5", "addr:country": "Canada", "name": "Cityplace Mall", "opening_hours": "Mo-Su 11:00-00:00", "brand": "Boston Pizza"}, "geometry": {"type": "Point", "coordinates": [-97.14267965920817, 49.89044401872489]}},
{"type": "Feature", "id": "_HUkKmVAkd12dMfovP52AKNiCoQ=", "properties": {"ref": "315", "@spider": "bostonpizza", "addr:full": "1160 Taylor Avenue", "addr:city": "Winnipeg", "addr:state": "MB", "addr:postcode": "R3M 3Z4", "addr:country": "Canada", "name": "Grant Park", "opening_hours": "Mo-Th 11:00-00:00; Fr-Su 11:00-02:00", "brand": "Boston Pizza"}, "geometry": {"type": "Point", "coordinates": [-97.16395569847276, 49.854380619907225]}},
{"type": "Feature", "id": "uBrTHgaLGqW4Xb538JPM5dvbwwI=", "properties": {"ref": "320", "@spider": "bostonpizza", "addr:full": "1475 Henderson Hwy Winnipeg Manitoba", "addr:city": "Winnipeg", "addr:state": "MB", "addr:postcode": "R2N 1N3", "addr:country": "Canada", "name": "Henderson Hwy", "opening_hours": "Mo-Su 11:00-02:00", "brand": "Boston Pizza"}, "geometry": {"type": "Point", "coordinates": [-97.08475, 49.94684]}},
{"type": "Feature", "id": "pCMwka_6BnMinWGzJbw0yX87fRs=", "properties": {"ref": "94", "@spider": "bostonpizza", "addr:full": "510 - 1500 Cranbrook Street", "addr:city": "Cranbrook", "addr:state": "BC", "addr:postcode": "V1C 3S8", "addr:country": "Canada", "name": "Cranbrook", "opening_hours": "Mo-Su 11:00-00:00", "brand": "Boston Pizza"}, "geometry": {"type": "Point", "coordinates": [-115.75363375117227, 49.52444150186059]}},
{"type": "Feature", "id": "Q3iutp4s5bzg5haXiXftbhPcRmQ=", "properties": {"ref": "306", "@spider": "bostonpizza", "addr:full": "2729 Pembina Hwy", "addr:city": "Winnipeg", "addr:state": "MB", "addr:postcode": "R3T 2H5", "addr:country": "Canada", "name": "Pembina", "opening_hours": "Mo-Th 11:00-00:00; Fr-Sa 11:00-02:00; Su 11:00-00:00", "brand": "Boston Pizza"}, "geometry": {"type": "Point", "coordinates": [-97.15754898103128, 49.793684143847905]}},
{"type": "Feature", "id": "qJVii2fkh1FX9j8KRb8yw9WUc9k=", "properties": {"ref": "308", "@spider": "bostonpizza", "addr:full": "210-1615 Regent Ave. W.", "addr:city": "Winnipeg", "addr:state": "MB", "addr:postcode": "R2C 5C6", "addr:country": "Canada", "name": "Kildonan", "opening_hours": "Mo-Su 11:00-02:00", "brand": "Boston Pizza"}, "geometry": {"type": "Point", "coordinates": [-97.07042991816778, 49.89881100045816]}},
{"type": "Feature", "id": "OQkBJu82nFCBvwiUGmyLS5kBLjc=", "properties": {"ref": "313", "@spider": "bostonpizza", "addr:full": "1018 Manitoba Ave", "addr:city": "Selkirk", "addr:state": "MB", "addr:postcode": "R1A 4M2", "addr:country": "Canada", "name": "Selkirk", "opening_hours": "Mo-Th 11:00-23:00; Fr-Sa 11:00-00:00; Su 11:00-23:00", "brand": "Boston Pizza"}, "geometry": {"type": "Point", "coordinates": [-96.89788567935491, 50.156012018938746]}},
{"type": "Feature", "id": "gy_lpnDeHhjyWwYfFHvOqaKBrXk=", "properties": {"ref": "311", "@spider": "bostonpizza", "addr:full": "1919 Bishop Grandin Blvd.", "addr:city": "Winnipeg", "addr:state": "MB", "addr:postcode": "R2M 3E8", "addr:country": "Canada", "name": "St Vital", "opening_hours": "Mo-We 11:00-00:00; Th-Sa 11:00-02:00; Su 11:00-00:00", "brand": "Boston Pizza"}, "geometry": {"type": "Point", "coordinates": [-97.0941579953444, 49.83795743004793]}},
{"type": "Feature", "id": "lOqzeWQXDgngOP95TjfGfGgjHC4=", "properties": {"ref": "321", "@spider": "bostonpizza", "addr:full": "182 PTH 12 North", "addr:city": "Steinbach", "addr:state": "MB", "addr:postcode": "R5G 1T7", "addr:country": "Canada", "name": "Steinbach", "opening_hours": "Mo-Su 11:00-00:00", "brand": "Boston Pizza"}, "geometry": {"type": "Point", "coordinates": [-96.6822, 49.5372]}},
{"type": "Feature", "id": "E7XdrSgLiXSVNPdn6Ocqb_T4F60=", "properties": {"ref": "107", "@spider": "bostonpizza", "addr:full": "100-506 Carmichael Lane", "addr:city": "Hinton", "addr:state": "AB", "addr:postcode": "T7V 1S8", "addr:country": "Canada", "name": "Hinton", "opening_hours": "Mo-Su 11:00-22:00", "brand": "Boston Pizza"}, "geometry": {"type": "Point", "coordinates": [-117.60251131798137, 53.395697100775436]}},
{"type": "Feature", "id": "kwzHzk0JTCQ_OgJIEfgNJv9JiA0=", "properties": {"ref": "102", "@spider": "bostonpizza", "addr:full": "9602 100th Street", "addr:city": "Peace River", "addr:state": "AB", "addr:postcode": "T8S 1H5", "addr:country": "Canada", "name": "Peace River", "opening_hours": "Mo-Su 11:00-21:00", "brand": "Boston Pizza"}, "geometry": {"type": "Point", "coordinates": [-117.2902077483717, 56.237332418162126]}},
{"type": "Feature", "id": "NMjMZ5Dr0cdum_ePodhGmOxscXw=", "properties": {"ref": "87", "@spider": "bostonpizza", "addr:full": "114-1983 Columbia Avenue", "addr:city": "Castlegar", "addr:state": "BC", "addr:postcode": "V1N 2W8", "addr:country": "Canada", "name": "Castlegar", "opening_hours": "Mo-Su 11:00-23:00", "brand": "Boston Pizza"}, "geometry": {"type": "Point", "coordinates": [-117.65346452918966, 49.295415013706304]}},
{"type": "Feature", "id": "memwKVinxIcWWKMFS-SIN8EQBuA=", "properties": {"ref": "101", "@spider": "bostonpizza", "addr:full": "12117 100th Street", "addr:city": "Grande Prairie", "addr:state": "AB", "addr:postcode": "T8V 4H1", "addr:country": "Canada", "name": "Grande Prairie", "opening_hours": "Mo-Th 11:00-22:00; Fr-Sa 11:00-23:00; Su 11:00-22:00", "brand": "Boston Pizza"}, "geometry": {"type": "Point", "coordinates": [-118.79418808285183, 55.189673607035964]}},
{"type": "Feature", "id": "myXJHK3wyhFMTM7w_4WX8a4YEN4=", "properties": {"ref": "118", "@spider": "bostonpizza", "addr:full": "11250 Westgate Drive", "addr:city": "Grande Prairie", "addr:state": "AB", "addr:postcode": "T8V 8L2", "addr:country": "Canada", "name": "Westgate", "opening_hours": "Mo-Th 11:00-22:00; Fr-Sa 11:00-23:00; Su 11:00-22:00", "brand": "Boston Pizza"}, "geometry": {"type": "Point", "coordinates": [-118.83419933100977, 55.17140968119535]}},
{"type": "Feature", "id": "MUT1uo3N8l6c50AmL71dkjlwn6Y=", "properties": {"ref": "401", "@spider": "bostonpizza", "addr:full": "223 Main Street", "addr:city": "Kenora", "addr:state": "ON", "addr:postcode": "P9N 1T3", "addr:country": "Canada", "name": "Kenora", "opening_hours": "Mo-Th 11:00-20:00; Fr-Sa 11:00-12:00; Su 11:00-20:00", "brand": "Boston Pizza"}, "geometry": {"type": "Point", "coordinates": [-94.48497792107534, 49.77897874656487]}},
{"type": "Feature", "id": "5XgS705HwLhffXqf89uWdx1itG0=", "properties": {"ref": "89", "@spider": "bostonpizza", "addr:full": "#100-251 TransCanada Hwy. N.W.", "addr:city": "Salmon Arm", "addr:state": "BC", "addr:postcode": "V1E 3B8", "addr:country": "Canada", "name": "Salmon Arm", "opening_hours": "Mo-Th 11:30-21:30; Fr-Sa 11:30-22:30; Su 11:30-21:30", "brand": "Boston Pizza"}, "geometry": {"type": "Point", "coordinates": [-119.28238268396767, 50.70078449204438]}},
{"type": "Feature", "id": "JyKYxtOkMvj0ZlQ5nrenyyTwuC8=", "properties": {"ref": "86", "@spider": "bostonpizza", "addr:full": "3604 32nd Street", "addr:city": "Vernon", "addr:state": "BC", "addr:postcode": "V1T 5N3", "addr:country": "Canada", "name": "Vernon", "opening_hours": "Mo-Th 11:00-21:55; Fr-Sa 11:00-22:55; Su 11:00-21:55", "brand": "Boston Pizza"}, "geometry": {"type": "Point", "coordinates": [-119.27377664561345, 50.268126159069915]}},
{"type": "Feature", "id": "MWYgRX4zzc_4QODHm0fD_l9N2xw=", "properties": {"ref": "81", "@spider": "bostonpizza", "addr:full": "#650 - 2339 Highway 97 N.", "addr:city": "Kelowna", "addr:state": "BC", "addr:postcode": "V1X 4H9", "addr:country": "Canada", "name": "Dilworth Centre", "opening_hours": "Mo-Th 11:00-21:00; Fr-Sa 11:00-22:00; Su 11:00-21:00", "brand": "Boston Pizza"}, "geometry": {"type": "Point", "coordinates": [-119.4326331853296, 49.88278054647614]}},
{"type": "Feature", "id": "jxRcdYr4InVBIO8-IJBMvVuYfgw=", "properties": {"ref": "88", "@spider": "bostonpizza", "addr:full": "545 Harvey Ave", "addr:city": "Kelowna", "addr:state": "BC", "addr:postcode": "V1Y 6C7", "addr:country": "Canada", "name": "Kelowna Downtown", "opening_hours": "Mo-Th 11:00-22:00; Fr-Sa 11:00-23:00; Su 11:00-22:00", "brand": "Boston Pizza"}, "geometry": {"type": "Point", "coordinates": [-119.49190556694697, 49.88363773521697]}},
{"type": "Feature", "id": "wS3Io9NLuMc5mkEQ1-zu_vERECo=", "properties": {"ref": "84", "@spider": "bostonpizza", "addr:full": "2563 Dobbin Rd., Hwy 97 S.", "addr:city": "Westbank", "addr:state": "BC", "addr:postcode": "V4T 2J6", "addr:country": "Canada", "name": "Westbank", "opening_hours": "Mo-Th 11:00-21:00; Fr-Sa 11:00-22:00; Su 11:00-21:00", "brand": "Boston Pizza"}, "geometry": {"type": "Point", "coordinates": [-119.63460187908689, 49.82838491992616]}},
{"type": "Feature", "id": "vWILUUv_XOAsbG4qphyg4lyd7Qc=", "properties": {"ref": "82", "@spider": "bostonpizza", "addr:full": "1900 Main Street", "addr:city": "Penticton", "addr:state": "BC", "addr:postcode": "V2A 5H4", "addr:country": "Canada", "name": "Penticton", "opening_hours": "Mo-Th 15:00-22:00; Fr-Su 11:00-22:00", "brand": "Boston Pizza"}, "geometry": {"type": "Point", "coordinates": [-119.5836896490136, 49.47721074374995]}},
{"type": "Feature", "id": "OJaW4LiAgilrfUWHLHfdQna9mok=", "properties": {"ref": "85", "@spider": "bostonpizza", "addr:full": "#700 - 500 Notre Dame Drive", "addr:city": "Kamloops", "addr:state": "BC", "addr:postcode": "V2C 6T6", "addr:country": "Canada", "name": "Columbia Square", "opening_hours": "Mo 11:00-20:00; Tu-Th 11:00-21:00; Fr-Sa 11:00-22:00; Su 11:00-20:00", "brand": "Boston Pizza"}, "geometry": {"type": "Point", "coordinates": [-120.34853423227163, 50.66272326289448]}},
{"type": "Feature", "id": "THyo0xirtb48T_Cum-svPsEZUgQ=", "properties": {"ref": "192", "@spider": "bostonpizza", "addr:full": "9506 114th Ave", "addr:city": "High Level", "addr:state": "AB", "addr:postcode": "T0H 1Z0", "addr:country": "Canada", "name": "High Level", "opening_hours": "Mo-Su 11:00-21:30", "brand": "Boston Pizza"}, "geometry": {"type": "Point", "coordinates": [-117.140056, 58.506967]}},
{"type": "Feature", "id": "RoPHcNy4YDVHqUtjVfzUZ5Be6D0=", "properties": {"ref": "34", "@spider": "bostonpizza", "addr:full": "#238-15 Park Place", "addr:city": "Osoyoos", "addr:state": "BC", "addr:postcode": "V0H 1V0", "addr:country": "Canada", "name": "Osoyoos", "opening_hours": "Mo-Su 11:00-22:00", "brand": "Boston Pizza"}, "geometry": {"type": "Point", "coordinates": [-119.462712, 49.032361]}},
{"type": "Feature", "id": "ntE6X9VtEAF7AmRNr53-MvGtxQA=", "properties": {"ref": "27", "@spider": "bostonpizza", "addr:full": "1525 Alaska Ave", "addr:city": "Dawson Creek", "addr:state": "BC", "addr:postcode": "V1G 1Z8", "addr:country": "Canada", "name": "Dawson Creek", "opening_hours": "Mo-Th 11:00-22:00; Fr-Sa 11:00-23:00; Su 11:00-22:00", "brand": "Boston Pizza"}, "geometry": {"type": "Point", "coordinates": [-120.2448383002925, 55.76379540300514]}},
{"type": "Feature", "id": "HfZ7stnJu6m_ZBoaRAWgre8zJi8=", "properties": {"ref": "466", "@spider": "bostonpizza", "addr:full": "840 King's Highway", "addr:city": "Fort Frances", "addr:state": "ON", "addr:postcode": "P9A 2X4", "addr:country": "Canada", "name": "Fort Frances", "opening_hours": "Mo-We 11:00-23:00; Th-Sa 11:00-00:00; Su 11:00-23:00", "brand": "Boston Pizza"}, "geometry": {"type": "Point", "coordinates": [-93.42026071249707, 48.607813039771955]}},
{"type": "Feature", "id": "jTaNbGsTSnLmBrBWjf5JKnpbohU=", "properties": {"ref": "93", "@spider": "bostonpizza", "addr:full": "3939 Crawford Avenue", "addr:city": "Merritt", "addr:state": "BC", "addr:postcode": "V1K 0A4", "addr:country": "Canada", "name": "Merritt", "opening_hours": "Mo-We 11:30-21:00; Th-Sa 11:30-22:00; Su 11:30-21:00", "brand": "Boston Pizza"}, "geometry": {"type": "Point", "coordinates": [-120.76233441294768, 50.121878148561606]}},
{"type": "Feature", "id": "RJlJXLi0SxABZdNx6ytNQW6kFmc=", "properties": {"ref": "26", "@spider": "bostonpizza", "addr:full": "9508 Alaska Road North ", "addr:city": "Fort St John", "addr:state": "BC", "addr:postcode": "V1J 6L5", "addr:country": "Canada", "name": "Fort St John", "opening_hours": "Mo-Sa 11:00-01:00; Su 11:00-00:00", "brand": "Boston Pizza"}, "geometry": {"type": "Point", "coordinates": [-120.848807, 56.237703]}},
{"type": "Feature", "id": "RdzuRZSdU4W3rOKytS-Xt6F9_VY=", "properties": {"ref": "38", "@spider": "bostonpizza", "addr:full": "285 Donald Road", "addr:city": "Williams Lake", "addr:state": "BC", "addr:postcode": "V2G 4K4", "addr:country": "Canada", "name": "Williams Lake", "opening_hours": "Mo-Th 11:00-22:00; Fr-Sa 11:00-00:00; Su 11:00-22:00", "brand": "Boston Pizza"}, "geometry": {"type": "Point", "coordinates": [-122.13518877574191, 52.13633999141931]}},
{"type": "Feature", "id": "dCBtbjX1AuhZVHuQb8-oxEz2WKk=", "properties": {"ref": "31", "@spider": "bostonpizza", "addr:full": "2500 Vance Road", "addr:city": "Prince George", "addr:state": "BC", "addr:postcode": "V2N 6Z3", "addr:country": "Canada", "name": "Pr George Brookwood", "opening_hours": "Mo-Th 11:00-21:00; Fr-Sa 11:00-22:00; Su 11:00-21:00", "brand": "Boston Pizza"}, "geometry": {"type": "Point", "coordinates": [-122.77013682136463, 53.8809922865886]}},
{"type": "Feature", "id": "BVyGUlzzj-MAwqjrZYpdR_h7_0Q=", "properties": {"ref": "29", "@spider": "bostonpizza", "addr:full": "102-841 West Central Street", "addr:city": "Prince George", "addr:state": "BC", "addr:postcode": "V2M 3C8", "addr:country": "Canada", "name": "Spruceland", "opening_hours": "Mo-Th 11:30-21:00; Fr-Sa 11:30-22:00; Su 11:30-21:00", "brand": "Boston Pizza"}, "geometry": {"type": "Point", "coordinates": [-122.7821716146822, 53.91752013826983]}},
{"type": "Feature", "id": "IkDuaQOEWWAPmtab1nJjlVhVZ3Q=", "properties": {"ref": "67", "@spider": "bostonpizza", "addr:full": "45305 Luckakuck Way", "addr:city": "Chilliwack", "addr:state": "BC", "addr:postcode": "V2R 3C7", "addr:country": "Canada", "name": "Chilliwack", "opening_hours": "Mo-Su 11:30-22:30", "brand": "Boston Pizza"}, "geometry": {"type": "Point", "coordinates": [-121.97163306587679, 49.142606606500195]}},
{"type": "Feature", "id": "rK2korFUT3buIxDej16eYl1WxZU=", "properties": {"ref": "51", "@spider": "bostonpizza", "addr:full": "160-32555 London Avenue", "addr:city": "Mission", "addr:state": "BC", "addr:postcode": "V2V 6M7", "addr:country": "Canada", "name": "Mission", "opening_hours": "Mo-Th 11:00-00:00; Fr-Sa 11:00-01:00; Su 11:00-00:00", "brand": "Boston Pizza"}, "geometry": {"type": "Point", "coordinates": [-122.31821052474157, 49.12879596399843]}},
{"type": "Feature", "id": "U-y1eUpuUldWcZNJfVw9066gFMk=", "properties": {"ref": "58", "@spider": "bostonpizza", "addr:full": "2060 Sumas Way", "addr:city": "Abbotsford", "addr:state": "BC", "addr:postcode": "V2S 2C7", "addr:country": "Canada", "name": "Abbotsford", "opening_hours": "Mo-Th 11:00-00:00; Fr-Sa 11:00-01:00; Su 11:00-00:00", "brand": "Boston Pizza"}, "geometry": {"type": "Point", "coordinates": [-122.2681862192604, 49.03744901403868]}},
{"type": "Feature", "id": "CfodYLJlPx2cPaIjJSPs64--RJk=", "properties": {"ref": "64", "@spider": "bostonpizza", "addr:full": "32530 S. Fraser Way", "addr:city": "Abbotsford", "addr:state": "BC", "addr:postcode": "V2T 1X5", "addr:country": "Canada", "name": "Clearbrook", "opening_hours": "Mo-Th 11:00-00:00; Fr-Sa 11:00-02:00; Su 11:00-00:00", "brand": "Boston Pizza"}, "geometry": {"type": "Point", "coordinates": [-122.32338780813244, 49.05121867540543]}},
{"type": "Feature", "id": "fbNdcqkdQZX0TmU2sBOKSJa1hLg=", "properties": {"ref": "19", "@spider": "bostonpizza", "addr:full": "20090 - 91A Avenue", "addr:city": "Langley", "addr:state": "BC", "addr:postcode": "V1M 3Y9", "addr:country": "Canada", "name": "Walnut Grove", "opening_hours": "Mo 10:30-00:00; Tu-Th 10:30-01:00; Fr-Sa 10:30-02:00; Su 10:30-00:00", "brand": "Boston Pizza"}, "geometry": {"type": "Point", "coordinates": [-122.66515681382154, 49.1689369857506]}},
{"type": "Feature", "id": "ITRGZv4KjFJbTQ17G0Hgfu-4NOc=", "properties": {"ref": "98", "@spider": "bostonpizza", "addr:full": "300 - 2325 Ottawa St.", "addr:city": "Port Coquitlam", "addr:state": "BC", "addr:postcode": "V3B 8A4", "addr:country": "Canada", "name": "Port Coquitlam", "opening_hours": "Mo-Th 11:00-00:00; Fr-Sa 11:00-01:00; Su 11:00-00:00", "brand": "Boston Pizza"}, "geometry": {"type": "Point", "coordinates": [-122.7481959, 49.2562882]}},
{"type": "Feature", "id": "mqE8G9uiCUX0CVY2LhORy1VFCS4=", "properties": {"ref": "63", "@spider": "bostonpizza", "addr:full": "19700 Langley ByPass", "addr:city": "Langley", "addr:state": "BC", "addr:postcode": "V3A 7B1", "addr:country": "Canada", "name": "Langley", "opening_hours": "Mo-Th 11:00-22:00; Fr-Sa 11:00-23:00; Su 11:00-22:00", "brand": "Boston Pizza"}, "geometry": {"type": "Point", "coordinates": [-122.6780112298395, 49.110699377792486]}},
{"type": "Feature", "id": "A5Vvoz9xZhbzHwmNVC0AGoBFHKc=", "properties": {"ref": "20", "@spider": "bostonpizza", "addr:full": "600-6486 176th St", "addr:city": "Surrey", "addr:state": "BC", "addr:postcode": "V3S 4G3", "addr:country": "Canada", "name": "Cloverdale", "opening_hours": "Mo-Th 12:00-00:00; Fr-Sa 12:00-01:00; Su 12:00-00:00", "brand": "Boston Pizza"}, "geometry": {"type": "Point", "coordinates": [-122.734838403734, 49.12093100116916]}},
{"type": "Feature", "id": "9DoDicQDGSY1JmFVq9qAK7ATTGU=", "properties": {"ref": "59", "@spider": "bostonpizza", "addr:full": "801-15980 Fraser Hwy", "addr:city": "Surrey", "addr:state": "BC", "addr:postcode": "V3S 2W4", "addr:country": "Canada", "name": "Fleetwood", "opening_hours": "Mo-Th 11:00-01:00; Fr-Sa 11:00-02:00; Su 11:00-01:00", "brand": "Boston Pizza"}, "geometry": {"type": "Point", "coordinates": [-122.780395, 49.157806]}},
{"type": "Feature", "id": "Yoc8NtQZU2aTFGO0Iv5CE8zKqTo=", "properties": {"ref": "61", "@spider": "bostonpizza", "addr:full": "15125 100th Avenue", "addr:city": "Surrey", "addr:state": "BC", "addr:postcode": "V3R 9P4", "addr:country": "Canada", "name": "Guildford", "opening_hours": "Mo-Su 12:00-22:00", "brand": "Boston Pizza"}, "geometry": {"type": "Point", "coordinates": [-122.80323591808252, 49.184284420815615]}},
{"type": "Feature", "id": "ut6QHaZz1cT_o2qVSvaY6p4hU5M=", "properties": {"ref": "16", "@spider": "bostonpizza", "addr:full": "40167 Glenalder Place", "addr:city": "Squamish", "addr:state": "BC", "addr:postcode": "V8B 0G2", "addr:country": "Canada", "name": "Squamish", "opening_hours": "Mo-Fr 11:00-22:00; Sa-Su 11:00-21:00", "brand": "Boston Pizza"}, "geometry": {"type": "Point", "coordinates": [-123.13313405499413, 49.736539366157]}},
{"type": "Feature", "id": "Iu4FEUU0YslOFEsqmeIAGN16zAg=", "properties": {"ref": "74", "@spider": "bostonpizza", "addr:full": "#1081 - 10153 King George Hwy", "addr:city": "Surrey", "addr:state": "BC", "addr:postcode": "V3T 2W1", "addr:country": "Canada", "name": "Central City", "opening_hours": "Mo-Su 11:00-22:00", "brand": "Boston Pizza"}, "geometry": {"type": "Point", "coordinates": [-122.8455830909366, 49.187019911578204]}},
{"type": "Feature", "id": "iN500fQbal8zL6VOkbDKFQOTKY0=", "properties": {"ref": "73", "@spider": "bostonpizza", "addr:full": "600-7488 King George Blvd", "addr:city": "Surrey", "addr:state": "BC", "addr:postcode": "V3W 0H9", "addr:country": "Canada", "name": "Newton", "opening_hours": "Mo-Th 11:00-00:00; Fr-Sa 11:00-01:00; Su 11:00-00:00", "brand": "Boston Pizza"}, "geometry": {"type": "Point", "coordinates": [-122.84532354374814, 49.13910954964515]}},
{"type": "Feature", "id": "ABx6cLXis1l2HHDkpwEl_VuG8UY=", "properties": {"ref": "62", "@spider": "bostonpizza", "addr:full": "1956 152nd Street", "addr:city": "Surrey", "addr:state": "BC", "addr:postcode": "V4A 4N6", "addr:country": "Canada", "name": "White Rock", "opening_hours": "Mo-Th 12:00-00:00; Fr-Sa 12:00-01:00; Su 12:00-00:00", "brand": "Boston Pizza"}, "geometry": {"type": "Point", "coordinates": [-122.80115954057483, 49.03759927820042]}},
{"type": "Feature", "id": "e1XBdCZWm4lh6iMRKZrEeBfB0h0=", "properties": {"ref": "18", "@spider": "bostonpizza", "addr:full": "12060 Nordel Way", "addr:city": "Surrey", "addr:state": "BC", "addr:postcode": "V3W 1P6", "addr:country": "Canada", "name": "Nordel Crossing", "opening_hours": "Mo-Su 11:00-00:00", "brand": "Boston Pizza"}, "geometry": {"type": "Point", "coordinates": [-122.88773901849392, 49.161942872040505]}},
{"type": "Feature", "id": "xjWe2YNhaeNrXtH5TgnVUkdRKrY=", "properties": {"ref": "72", "@spider": "bostonpizza", "addr:full": "1045 Columbia Street", "addr:city": "New Westminster", "addr:state": "BC", "addr:postcode": "V3M 1C4", "addr:country": "Canada", "name": "New West", "opening_hours": "Mo-Su 10:30-01:00", "brand": "Boston Pizza"}, "geometry": {"type": "Point", "coordinates": [-122.9171224923033, 49.200191931392574]}},
{"type": "Feature", "id": "M8bSjVvw9WEBYH06udd0l9oPV3I=", "properties": {"ref": "22", "@spider": "bostonpizza", "addr:full": "Unit P100-805 Boyd Street", "addr:city": "New Westminster", "addr:state": "BC", "addr:postcode": "V3M 5X2", "addr:country": "Canada", "name": "Queensborough", "opening_hours": "Mo-Th 11:00-23:00; Fr-Sa 11:00-00:00; Su 11:00-23:00", "brand": "Boston Pizza"}, "geometry": {"type": "Point", "coordinates": [-122.94549509811554, 49.19146977982247]}},
{"type": "Feature", "id": "mBjqS0HNIaEUVL81qXDpAXTo0BQ=", "properties": {"ref": "23", "@spider": "bostonpizza", "addr:full": "5801 Marine Way", "addr:city": "Burnaby", "addr:state": "BC", "addr:postcode": "V5J 0A6", "addr:country": "Canada", "name": "Big Bend", "opening_hours": "Mo-Su 11:00-22:00", "brand": "Boston Pizza"}, "geometry": {"type": "Point", "coordinates": [-122.9762992512723, 49.19784917650726]}},
{"type": "Feature", "id": "q4yY1_ae9tO0Rae79RhgBIKS8Nw=", "properties": {"ref": "95", "@spider": "bostonpizza", "addr:full": "135-6200 McKay Avenue", "addr:city": "Burnaby", "addr:state": "BC", "addr:postcode": "V5H 4L7", "addr:country": "Canada", "name": "Station Square", "opening_hours": "Mo-Th 11:00-00:00; Fr-Sa 11:00-01:00; Su 11:00-00:00", "brand": "Boston Pizza"}, "geometry": {"type": "Point", "coordinates": [-123.004549, 49.227132]}},
{"type": "Feature", "id": "Ln9gjl-Oohc4r6GA33hRtZxVKbA=", "properties": {"ref": "21", "@spider": "bostonpizza", "addr:full": "2850 Bentall Street", "addr:city": "Vancouver", "addr:state": "BC", "addr:postcode": "V5M 4H4", "addr:country": "Canada", "name": "Grandview Hwy", "opening_hours": "Mo-Th 11:00-00:00; Fr-Sa 11:00-01:00; Su 11:00-00:00", "brand": "Boston Pizza"}, "geometry": {"type": "Point", "coordinates": [-123.03206091565629, 49.25875055824168]}},
{"type": "Feature", "id": "Ti77S1Su9hYwwnps706hLxFKcD4=", "properties": {"ref": "25", "@spider": "bostonpizza", "addr:full": "88 Chesterfield Ave", "addr:city": "North Vancouver", "addr:state": "BC", "addr:postcode": "V3S 2W4", "addr:country": "Canada", "name": "Esplanade", "opening_hours": "Mo-Su 11:00-23:59", "brand": "Boston Pizza"}, "geometry": {"type": "Point", "coordinates": [-123.08190763621904, 49.31309837346747]}},
{"type": "Feature", "id": "jJlQWf5TIqw4HkbPoyB_0YDdcBk=", "properties": {"ref": "97", "@spider": "bostonpizza", "addr:full": "808 Beatty St", "addr:city": "Vancouver", "addr:state": "BC", "addr:postcode": "V6B 1C2", "addr:country": "Canada", "name": "Stadium District", "opening_hours": "Mo-Th 11:00-22:00; Fr-Sa 11:00-23:00; Su 11:00-22:00", "brand": "Boston Pizza"}, "geometry": {"type": "Point", "coordinates": [-123.114098, 49.277493]}},
{"type": "Feature", "id": "jxY35ExSUGdIiHpjNe_4_FajyeA=", "properties": {"ref": "75", "@spider": "bostonpizza", "addr:full": "190-1333 West Broadway", "addr:city": "Vancouver", "addr:state": "BC", "addr:postcode": "V6H 4C1", "addr:country": "Canada", "name": "Broadway", "opening_hours": "Mo-Th 11:00-00:00; Fr-Sa 11:00-01:00; Su 11:00-00:00", "brand": "Boston Pizza"}, "geometry": {"type": "Point", "coordinates": [-123.13452741358482, 49.263514615187766]}},
{"type": "Feature", "id": "l5o9l-qunwl1Bz9M3i9kXR2NPSs=", "properties": {"ref": "54", "@spider": "bostonpizza", "addr:full": "2000-11662 Steveston Hwy", "addr:city": "Richmond", "addr:state": "BC", "addr:postcode": "V7A 1N6", "addr:country": "Canada", "name": "Ironwood", "opening_hours": "Mo-We 12:00-22:00; Th-Sa 12:00-23:00; Su 12:00-22:00", "brand": "Boston Pizza"}, "geometry": {"type": "Point", "coordinates": [-123.09566363720744, 49.133348285080245]}},
{"type": "Feature", "id": "HNALCpb7FKygxfsMg094MCmxXLM=", "properties": {"ref": "33", "@spider": "bostonpizza", "addr:full": "Restaurant 3 - 5000 Canoe Pass Way", "addr:city": "Tsawwassen", "addr:state": "BC", "addr:postcode": "V4M 0B3 ", "addr:country": "Canada", "name": "Tsawwassen", "opening_hours": "Mo-Su 11:00-22:00", "brand": "Boston Pizza"}, "geometry": {"type": "Point", "coordinates": [-123.0896375, 49.0344355]}},
{"type": "Feature", "id": "ytFivww38UzwF0TNFJAc2iujs0E=", "properties": {"ref": "700", "@spider": "bostonpizza", "addr:full": "5102 48th Street", "addr:city": "Yellowknife", "addr:state": "NT", "addr:postcode": "X1A 1N6", "addr:country": "Canada", "name": "Yellowknife", "opening_hours": "Mo-Su 11:00-22:00", "brand": "Boston Pizza"}, "geometry": {"type": "Point", "coordinates": [-114.36659308547193, 62.453870072384255]}},
{"type": "Feature", "id": "g80ky1t-X3Ueif2YE2ofIkJNG7o=", "properties": {"ref": "92", "@spider": "bostonpizza", "addr:full": "4501 50th Ave South", "addr:city": "Fort Nelson", "addr:state": "BC", "addr:postcode": "V0C 1R0", "addr:country": "Canada", "name": "Fort Nelson", "opening_hours": "Mo-Su 11:30-22:00", "brand": "Boston Pizza"}, "geometry": {"type": "Point", "coordinates": [-122.68672655122043, 58.803379847822555]}},
{"type": "Feature", "id": "9D7RsrVVxgeLp-Z_wZ63U4oQa-Y=", "properties": {"ref": "11", "@spider": "bostonpizza", "addr:full": "#102 - 3510 Blanshard Street", "addr:city": "Victoria", "addr:state": "BC", "addr:postcode": "V8X 1W3", "addr:country": "Canada", "name": "Saanich", "opening_hours": "Mo-Th 11:30-22:00; Fr-Sa 11:30-23:00; Su 11:30-22:00", "brand": "Boston Pizza"}, "geometry": {"type": "Point", "coordinates": [-123.37163060043264, 48.45446504762141]}},
{"type": "Feature", "id": "ohQQ_18FCccg_X8iLJA_t-ykOKs=", "properties": {"ref": "5", "@spider": "bostonpizza", "addr:full": "#10-797 Hillside Avenue", "addr:city": "Victoria", "addr:state": "BC", "addr:postcode": "V8T 1Z5", "addr:country": "Canada", "name": "Hillside", "opening_hours": "Mo-Th 11:30-22:00; Fr-Sa 11:30-00:00; Su 11:30-22:00", "brand": "Boston Pizza"}, "geometry": {"type": "Point", "coordinates": [-123.36404909045392, 48.43880000875999]}},
{"type": "Feature", "id": "IixHCKdzFOi0_qg_ZaxyZqIBIJ4=", "properties": {"ref": "2", "@spider": "bostonpizza", "addr:full": "5845 Trans Canada Hwy. ", "addr:city": "Duncan", "addr:state": "BC", "addr:postcode": "V9L 3R9", "addr:country": "Canada", "name": "Duncan", "opening_hours": "Mo-Th 11:00-00:00; Fr-Sa 11:00-01:00; Su 11:00-00:00", "brand": "Boston Pizza"}, "geometry": {"type": "Point", "coordinates": [-123.69621485016998, 48.78196237303977]}},
{"type": "Feature", "id": "UFGeqAZK0y4KLLPa8mtCfbhAeK4=", "properties": {"ref": "10", "@spider": "bostonpizza", "addr:full": "2755 Veterans Memorial Parkway", "addr:city": "Victoria", "addr:state": "BC", "addr:postcode": "V9B 3S5", "addr:country": "Canada", "name": "Langford", "opening_hours": "Mo-Su 11:30-22:00", "brand": "Boston Pizza"}, "geometry": {"type": "Point", "coordinates": [-123.49512042062646, 48.449058952893346]}},
{"type": "Feature", "id": "6GwceXdH7nuIGBVhpptOQqxTnk8=", "properties": {"ref": "9", "@spider": "bostonpizza", "addr:full": "2-5779 Turner Road", "addr:city": "Nanaimo", "addr:state": "BC", "addr:postcode": "V9T 6L8", "addr:country": "Canada", "name": "Nanaimo", "opening_hours": "Mo-Th 12:00-20:00; Fr-Sa 12:00-22:00; Su 12:00-20:00", "brand": "Boston Pizza"}, "geometry": {"type": "Point", "coordinates": [-124.03548400662285, 49.22551827283498]}},
{"type": "Feature", "id": "MwXIqBcbHeMuHG78UGTb55_GGE4=", "properties": {"ref": "12", "@spider": "bostonpizza", "addr:full": "430 East Island Highway", "addr:city": "Parksville", "addr:state": "BC", "addr:postcode": "V9P 2H7", "addr:country": "Canada", "name": "Parksville", "opening_hours": "Mo-Th 11:30-21:00; Fr-Sa 11:30-22:00; Su 11:30-21:00", "brand": "Boston Pizza"}, "geometry": {"type": "Point", "coordinates": [-124.30552236564849, 49.31995929848875]}},
{"type": "Feature", "id": "OJoqNCBUVevHXQbb4FZlWREOQgA=", "properties": {"ref": "402", "@spider": "bostonpizza", "addr:full": "217 W. Arthur Street", "addr:city": "Thunder Bay", "addr:state": "ON", "addr:postcode": "P7E 5P7", "addr:country": "Canada", "name": "Thunder Bay", "opening_hours": "Mo-Su 11:00-00:00", "brand": "Boston Pizza"}, "geometry": {"type": "Point", "coordinates": [-89.2819720377914, 48.38080145742283]}},
{"type": "Feature", "id": "_K9sIb8gYWwy_Ay6mhqtKpR6nQ4=", "properties": {"ref": "403", "@spider": "bostonpizza", "addr:full": "505 Memorial Avenue", "addr:city": "Thunder Bay", "addr:state": "ON", "addr:postcode": "P7B 3Y6", "addr:country": "Canada", "name": "Memorial Avenue", "opening_hours": "Mo-Su 11:00-00:00", "brand": "Boston Pizza"}, "geometry": {"type": "Point", "coordinates": [-89.23849788372428, 48.4207341584053]}},
{"type": "Feature", "id": "9L0t-6MKaub3cJLIar0NIni3FJ0=", "properties": {"ref": "8", "@spider": "bostonpizza", "addr:full": "2633 Cliffe Avenue", "addr:city": "Courtenay", "addr:state": "BC", "addr:postcode": "V9N 2L8", "addr:country": "Canada", "name": "Courtenay", "opening_hours": "Mo-Th 11:00-21:00; Fr-Sa 11:00-22:00; Su 11:00-21:00", "brand": "Boston Pizza"}, "geometry": {"type": "Point", "coordinates": [-124.98233947088339, 49.67539892780162]}},
{"type": "Feature", "id": "fnrMZauEq6s01hb_-pRviWNeZQE=", "properties": {"ref": "14", "@spider": "bostonpizza", "addr:full": "Unit # 100 - 3550 Johnston Road", "addr:city": "Port Alberni", "addr:state": "BC", "addr:postcode": "V9Y 7X1", "addr:country": "Canada", "name": "Port Alberni", "opening_hours": "Mo-Th 11:00-22:00; Fr-Sa 11:00-01:00; Su 11:00-00:00", "brand": "Boston Pizza"}, "geometry": {"type": "Point", "coordinates": [-124.78610813602891, 49.266123747450706]}},
{"type": "Feature", "id": "NVV0dXacolPbUkRicBEorYODIQM=", "properties": {"ref": "7", "@spider": "bostonpizza", "addr:full": "1309 North Island Hwy.", "addr:city": "Campbell River", "addr:state": "BC", "addr:postcode": "V9W 2C9", "addr:country": "Canada", "name": "Campbell River", "opening_hours": "Mo-Th 11:00-21:00; Fr-Sa 11:00-22:00; Su 11:00-21:00", "brand": "Boston Pizza"}, "geometry": {"type": "Point", "coordinates": [-125.24521979165884, 50.03039459481845]}},
{"type": "Feature", "id": "txIHbCCOUpqtUfDASpOL4hwC-BQ=", "properties": {"ref": "45", "@spider": "bostonpizza", "addr:full": "1492 Main Street", "addr:city": "Smithers", "addr:state": "BC", "addr:postcode": "V0J 2N0", "addr:country": "Canada", "name": "Smithers", "opening_hours": "Mo 12:00-22:00; Tu-Th 16:00-22:00; Fr-Sa 12:00-22:00; Su 16:00-22:00", "brand": "Boston Pizza"}, "geometry": {"type": "Point", "coordinates": [-127.1652815899978, 54.78189423811328]}},
{"type": "Feature", "id": "Fq7yQiJgvgbb0nkg3Tkv_n5UFHI=", "properties": {"ref": "46", "@spider": "bostonpizza", "addr:full": "4924 Highway 16 West", "addr:city": "Terrace", "addr:state": "BC", "addr:postcode": "V8G 1L8", "addr:country": "Canada", "name": "Terrace", "opening_hours": "Mo-Th 11:30-22:00; Fr-Sa 11:30-23:00; Su 11:30-22:00", "brand": "Boston Pizza"}, "geometry": {"type": "Point", "coordinates": [-128.59471723987642, 54.52080001180579]}},
{"type": "Feature", "id": "vosBiF7S2RCkf45w8yUycoJa7iQ=", "properties": {"ref": "409", "@spider": "bostonpizza", "addr:full": "856 Riverside Drive", "addr:city": "Timmins", "addr:state": "ON", "addr:postcode": "P4N 3W1", "addr:country": "Canada", "name": "Timmins", "opening_hours": "Mo-Th 12:00-21:00; Fr-Sa 12:00-23:00; Su 12:00-21:00", "brand": "Boston Pizza"}, "geometry": {"type": "Point", "coordinates": [-81.36128852527276, 48.47706955867957]}},
{"type": "Feature", "id": "CNH-GLA2zgqRjb_EzCMH8QGZZNM=", "properties": {"ref": "418", "@spider": "bostonpizza", "addr:full": "120 Donna Drive", "addr:city": "Sudbury", "addr:state": "ON", "addr:postcode": "P3B 4K6", "addr:country": "Canada", "name": "Sudbury", "opening_hours": "Mo-Th 11:00-23:00; Fr-Sa 11:00-00:00; Su 11:00-23:00", "brand": "Boston Pizza"}, "geometry": {"type": "Point", "coordinates": [-80.93834272129806, 46.50372203953075]}},
{"type": "Feature", "id": "wCsLgJ6xDO63bZQ0Vh2YCANuvbw=", "properties": {"ref": "637", "@spider": "bostonpizza", "addr:full": "32 Route 111 est", "addr:city": "La Sarre", "addr:state": "QC", "addr:postcode": "J9Z 1R7", "addr:country": "Canada", "name": "La Sarre", "opening_hours": "Mo-Fr 11:30-21:00; Sa-Su 16:00-20:00", "brand": "Boston Pizza"}, "geometry": {"type": "Point", "coordinates": [-79.203228, 48.799041]}},
{"type": "Feature", "id": "qM5gnCh9ZDkkRW88SYyLaiINSWI=", "properties": {"ref": "702", "@spider": "bostonpizza", "addr:full": "2241 2nd Avenue", "addr:city": "Whitehorse", "addr:state": "YT", "addr:postcode": "Y1A 5W1", "addr:country": "Canada", "name": "Whitehorse", "opening_hours": "Mo-Th 11:00-22:00; Fr 11:00-23:00; Sa 11:00-00:00; Su 11:00-22:00", "brand": "Boston Pizza"}, "geometry": {"type": "Point", "coordinates": [-135.0607343837224, 60.729588816414534]}},
{"type": "Feature", "id": "PmQOW-ccuW0-rA7eu-gYCzDjF7M=", "properties": {"ref": "636", "@spider": "bostonpizza", "addr:full": "152 rue Principale", "addr:city": "Rouyn-Noranda", "addr:state": "QC", "addr:postcode": "J9X 4P7", "addr:country": "Canada", "name": "Rouyn-Noranda", "opening_hours": "Mo 11:00-21:00; Tu-We 11:00-22:00; Th-Sa 11:00-23:00; Su 11:00-21:00", "brand": "Boston Pizza"}, "geometry": {"type": "Point", "coordinates": [-79.020199, 48.238955]}},
{"type": "Feature", "id": "6dezVVQVXv61vSF06aFRMe0IHgM=", "properties": {"ref": "549", "@spider": "bostonpizza", "addr:full": "140 Goderich Street", "addr:city": "Port Elgin", "addr:state": "ON", "addr:postcode": "N0H 2C1", "addr:country": "Canada", "name": "Port Elgin", "opening_hours": "Mo-Th 11:30-21:00; Fr-Sa 11:30-22:00; Su 11:30-21:00", "brand": "Boston Pizza"}, "geometry": {"type": "Point", "coordinates": [-81.39776699999999, 44.4250202]}},
{"type": "Feature", "id": "0XGW96rq_kJeygxIopvBpUaOHvA=", "properties": {"ref": "465", "@spider": "bostonpizza", "addr:full": "4 Millenium Way", "addr:city": "Kincardine", "addr:state": "ON", "addr:postcode": "N2Z 0B5", "addr:country": "Canada", "name": "Kincardine", "opening_hours": "Mo-Th 11:00-22:00; Fr-Sa 11:00-23:00; Su 11:00-22:00", "brand": "Boston Pizza"}, "geometry": {"type": "Point", "coordinates": [-81.61625265680017, 44.169661985029805]}},
{"type": "Feature", "id": "AzYxE0_plzGGfcUMPFSJlXeZgSg=", "properties": {"ref": "414", "@spider": "bostonpizza", "addr:full": "50 Josephine St.", "addr:city": "North Bay", "addr:state": "ON", "addr:postcode": "P1B 0A7", "addr:country": "Canada", "name": "North Bay", "opening_hours": "Mo-Th 11:00-23:00; Fr-Sa 11:00-00:00; Su 11:00-23:00", "brand": "Boston Pizza"}, "geometry": {"type": "Point", "coordinates": [-79.4677142005351, 46.33339761219814]}},
{"type": "Feature", "id": "pw3JNuIqAdUBnIlFhpPfTbITL9Y=", "properties": {"ref": "411", "@spider": "bostonpizza", "addr:full": "1606 16th Street East", "addr:city": "Owen Sound", "addr:state": "ON", "addr:postcode": "N4K 5N3", "addr:country": "Canada", "name": "Owen Sound", "opening_hours": "Mo-We 11:00-22:00; Th-Su 11:00-23:00", "brand": "Boston Pizza"}, "geometry": {"type": "Point", "coordinates": [-80.91802290851727, 44.57455559902816]}},
{"type": "Feature", "id": "7vnZ4DUXzVKXqZmis62OnW1oXc8=", "properties": {"ref": "404", "@spider": "bostonpizza", "addr:full": "490 Huron Road", "addr:city": "Goderich", "addr:state": "ON", "addr:postcode": "N7A 3X8", "addr:country": "Canada", "name": "Goderich", "opening_hours": "Mo-We 11:00-21:00; Th-Sa 11:00-23:00; Su 11:00-21:00", "brand": "Boston Pizza"}, "geometry": {"type": "Point", "coordinates": [-81.69107054896848, 43.73127653843629]}},
{"type": "Feature", "id": "Jnx-VCGqH_bSZQI_zfz2b3A05fo=", "properties": {"ref": "528", "@spider": "bostonpizza", "addr:full": "1400 Exmouth Street", "addr:city": "Sarnia", "addr:state": "ON", "addr:postcode": "N7S 3X9", "addr:country": "Canada", "name": "Sarnia", "opening_hours": "Mo-Th 11:00-21:30; Fr-Sa 11:00-23:30; Su 11:00-21:30", "brand": "Boston Pizza"}, "geometry": {"type": "Point", "coordinates": [-82.35228750213908, 42.98433046589828]}},
{"type": "Feature", "id": "K-DwMqvmELltd-7lZLONUFmTjPk=", "properties": {"ref": "472", "@spider": "bostonpizza", "addr:full": "10 Bay street", "addr:city": "Parry Sound", "addr:state": "ON", "addr:postcode": "P2A 1S3", "addr:country": "Canada", "name": "Parry Sound", "opening_hours": "Mo-Th 11:00-21:00; Fr-Sa 11:00-22:00; Su 11:00-21:00", "brand": "Boston Pizza"}, "geometry": {"type": "Point", "coordinates": [-80.038019, 45.33891]}},
{"type": "Feature", "id": "tMRNhNhi_kNi0-zlkykhLlq82eE=", "properties": {"ref": "553", "@spider": "bostonpizza", "addr:full": "4450 Walker Road, Unit D", "addr:city": "Windsor", "addr:state": "ON", "addr:postcode": "N8W 3T5", "addr:country": "Canada", "name": "Windsor", "opening_hours": "Mo-Th 11:00-22:00; Fr-Sa 11:00-23:00; Su 11:00-22:00", "brand": "Boston Pizza"}, "geometry": {"type": "Point", "coordinates": [-82.96475056501413, 42.25589420601101]}},
{"type": "Feature", "id": "B8nJ0yN5gFu-JkSqsZksOiuGY9A=", "properties": {"ref": "555", "@spider": "bostonpizza", "addr:full": "4 Amycroft Drive", "addr:city": "Windsor", "addr:state": "ON", "addr:postcode": "N9K 0A1", "addr:country": "Canada", "name": "Tecumseh", "opening_hours": "Mo-Th 12:00-22:00; Fr-Sa 12:00-23:00; Su 12:00-22:00", "brand": "Boston Pizza"}, "geometry": {"type": "Point", "coordinates": [-82.82329734730315, 42.278573849150035]}},
{"type": "Feature", "id": "gy1Smf7h55YENpfA__4p1h1Tqk8=", "properties": {"ref": "413", "@spider": "bostonpizza", "addr:full": "390 First Street", "addr:city": "Collingwood", "addr:state": "ON", "addr:postcode": "L9Y 1B5", "addr:country": "Canada", "name": "Collingwood", "opening_hours": "Mo-Su 11:00-02:00", "brand": "Boston Pizza"}, "geometry": {"type": "Point", "coordinates": [-80.22889780239801, 44.50166723530037]}},
{"type": "Feature", "id": "f-NctoNqJCYUvbsE7w5Q5QiGBX4=", "properties": {"ref": "560", "@spider": "bostonpizza", "addr:full": "780 St. Clair Street", "addr:city": "Chatham", "addr:state": "ON", "addr:postcode": "N7L 0E8", "addr:country": "Canada", "name": "Chatham", "opening_hours": "Mo-Th 11:00-22:00; Fr-Sa 11:00-23:00; Su 11:00-22:00", "brand": "Boston Pizza"}, "geometry": {"type": "Point", "coordinates": [-82.21867534159529, 42.430210878913485]}},
{"type": "Feature", "id": "m5P_IhzaLdJN9qjrRhG8zC0JHfs=", "properties": {"ref": "436", "@spider": "bostonpizza", "addr:full": "16835 Heritage Drive", "addr:city": "Midland", "addr:state": "ON", "addr:postcode": "L4R 0A9", "addr:country": "Canada", "name": "Midland", "opening_hours": "Mo-Su 11:00-00:00", "brand": "Boston Pizza"}, "geometry": {"type": "Point", "coordinates": [-79.8711871351861, 44.73321406325839]}},
{"type": "Feature", "id": "jq3qkhsedrtePrjL7nSZDwS6AEo=", "properties": {"ref": "538", "@spider": "bostonpizza", "addr:full": "311 Main Street", "addr:city": "Wasaga Beach", "addr:state": "ON", "addr:postcode": "L9Z 0B6", "addr:country": "Canada", "name": "Wasaga Beach", "opening_hours": "Mo-Th 11:00-23:00; Fr-Sa 11:00-01:00; Su 11:00-23:00", "brand": "Boston Pizza"}, "geometry": {"type": "Point", "coordinates": [-80.007094239291, 44.523172085902154]}},
{"type": "Feature", "id": "kQQ24wWrR8cq7yqebzvIKAxT9iQ=", "properties": {"ref": "476", "@spider": "bostonpizza", "addr:full": "7 John St", "addr:city": "Huntsville", "addr:state": "ON", "addr:postcode": "P1H 1H2", "addr:country": "Canada", "name": "Huntsville", "opening_hours": "Mo-Su 11:00-21:00", "brand": "Boston Pizza"}, "geometry": {"type": "Point", "coordinates": [-79.214723, 45.328272]}},
{"type": "Feature", "id": "EmW5CusEAHyJ-TEWwUg9N3WJlE4=", "properties": {"ref": "558", "@spider": "bostonpizza", "addr:full": "729 Erie Street", "addr:city": "Stratford", "addr:state": "ON", "addr:postcode": "N4Z 1A1", "addr:country": "Canada", "name": "Stratford", "opening_hours": "Mo-Th 11:00-20:00; Fr-Sa 11:00-21:00; Su 11:00-20:00", "brand": "Boston Pizza"}, "geometry": {"type": "Point", "coordinates": [-80.99710283872768, 43.354509643440046]}},
{"type": "Feature", "id": "JS-4EC9X4T5lmV3uXyGMsAthnUA=", "properties": {"ref": "541", "@spider": "bostonpizza", "addr:full": "1275 Fanshawe Park Road West, Building E", "addr:city": "London", "addr:state": "ON", "addr:postcode": "N6G 5B4", "addr:country": "Canada", "name": "London Hyde Park", "opening_hours": "Mo-Th 11:00-22:00; Fr-Sa 11:00-00:00; Su 11:00-22:00", "brand": "Boston Pizza"}, "geometry": {"type": "Point", "coordinates": [-81.329173, 43.013051]}},
{"type": "Feature", "id": "pDnp1nB1j7qg1eAHJmr0xK2U8oA=", "properties": {"ref": "407", "@spider": "bostonpizza", "addr:full": "10 Depot Drive", "addr:city": "Bracebridge", "addr:state": "ON", "addr:postcode": "P1L 0A1", "addr:country": "Canada", "name": "Bracebridge", "opening_hours": "Mo-Su 11:00-21:00", "brand": "Boston Pizza"}, "geometry": {"type": "Point", "coordinates": [-79.29267011248602, 45.05013825584156]}},
{"type": "Feature", "id": "TF-tCit1RQl_R8XGAO2NiSG8nRo=", "properties": {"ref": "420", "@spider": "bostonpizza", "addr:full": "1100 Bay Street", "addr:city": "Gravenhurst", "addr:state": "ON", "addr:postcode": "P1P 1Z9", "addr:country": "Canada", "name": "Gravenhurst", "opening_hours": "Mo-Th 11:00-21:00; Fr-Sa 11:00-22:00; Su 11:00-21:00", "brand": "Boston Pizza"}, "geometry": {"type": "Point", "coordinates": [-79.38765072308422, 44.91849318977874]}},
{"type": "Feature", "id": "TuEyVgNnS7KDc3JudrpOKM6NjbQ=", "properties": {"ref": "529", "@spider": "bostonpizza", "addr:full": "3090 Wonderland Road South", "addr:city": "London", "addr:state": "ON", "addr:postcode": "N6L 1A6", "addr:country": "Canada", "name": "London", "opening_hours": "Mo-Th 11:00-22:00; Fr-Sa 11:00-00:00; Su 11:00-22:00", "brand": "Boston Pizza"}, "geometry": {"type": "Point", "coordinates": [-81.28082889685001, 42.936597688883644]}},
{"type": "Feature", "id": "S7_nS9iHq9oUTg8MzUbEaCQOScU=", "properties": {"ref": "532", "@spider": "bostonpizza", "addr:full": "1090 Wellington Road South", "addr:city": "London", "addr:state": "ON", "addr:postcode": "N6E 1M2", "addr:country": "Canada", "name": "Wellington Road", "opening_hours": "Mo-Th 11:00-22:00; Fr-Sa 11:00-00:00; Su 11:00-22:00", "brand": "Boston Pizza"}, "geometry": {"type": "Point", "coordinates": [-81.22215074169043, 42.93234248103073]}},
{"type": "Feature", "id": "Fn6gKo2XxgzzYw4TDydWqDQxrB0=", "properties": {"ref": "474", "@spider": "bostonpizza", "addr:full": "100 McQueen Blvd.", "addr:city": "Fergus", "addr:state": "ON", "addr:postcode": "N1M 3T8", "addr:country": "Canada", "name": "Fergus", "opening_hours": "Mo 16:30-20:00; Tu-We 12:00-20:00; Th 11:00-22:00; Fr-Sa 11:00-23:00; Su 11:00-22:00", "brand": "Boston Pizza"}, "geometry": {"type": "Point", "coordinates": [-80.366274, 43.697266]}},
{"type": "Feature", "id": "-yYLWUm8BHj2frjyuR2G5vrEF_Y=", "properties": {"ref": "477", "@spider": "bostonpizza", "addr:full": "447 Cundles Road East", "addr:city": "Barrie", "addr:state": "ON", "addr:postcode": "L4M 0J7", "addr:country": "Canada", "name": "Barrie North", "opening_hours": "Mo-Su 11:00-23:00", "brand": "Boston Pizza"}, "geometry": {"type": "Point", "coordinates": [-79.673862, 44.415988]}},
{"type": "Feature", "id": "vP2L3VOmQCWSjEutZw-fEhDmkrw=", "properties": {"ref": "554", "@spider": "bostonpizza", "addr:full": "597 King Street North", "addr:city": "Waterloo", "addr:state": "ON", "addr:postcode": "N2V 2N3", "addr:country": "Canada", "name": "Waterloo", "opening_hours": "Mo-Th 11:00-23:00; Fr-Sa 11:00-00:00; Su 11:00-23:00", "brand": "Boston Pizza"}, "geometry": {"type": "Point", "coordinates": [-80.5348629564579, 43.50297405033403]}},
{"type": "Feature", "id": "0OwKtCsYS_bAbXA9a3AUtPpAI5w=", "properties": {"ref": "417", "@spider": "bostonpizza", "addr:full": "27 Young St", "addr:city": "Alliston", "addr:state": "ON", "addr:postcode": "L9R 1B5", "addr:country": "Canada", "name": "Alliston", "opening_hours": "Mo-We 11:00-22:00; Th 11:00-00:00; Fr-Sa 11:00-02:00; Su 11:00-22:00", "brand": "Boston Pizza"}, "geometry": {"type": "Point", "coordinates": [-79.8744, 44.1513]}},
{"type": "Feature", "id": "lL4u_C6PA1-mGZO54MpfX9F6YgI=", "properties": {"ref": "415", "@spider": "bostonpizza", "addr:full": "3300 Monarch Drive", "addr:city": "Orillia", "addr:state": "ON", "addr:postcode": "L3V 8A2", "addr:country": "Canada", "name": "Orillia", "opening_hours": "Mo-Su 11:00-00:00", "brand": "Boston Pizza"}, "geometry": {"type": "Point", "coordinates": [-79.45238042584843, 44.60924271472807]}},
{"type": "Feature", "id": "5BZieRh4o-pYCbU1FA_5b4qnrtU=", "properties": {"ref": "524", "@spider": "bostonpizza", "addr:full": "5 Buena Vista Drive", "addr:city": "Orangeville", "addr:state": "ON", "addr:postcode": "L9W 0A2", "addr:country": "Canada", "name": "Orangeville", "opening_hours": "Mo-Th 11:00-00:00; Fr-Sa 11:00-01:00; Su 11:00-00:00", "brand": "Boston Pizza"}, "geometry": {"type": "Point", "coordinates": [-80.08232194280953, 43.92242962764285]}},
{"type": "Feature", "id": "06AgKte_3TEpTob2gTF3gbmoSWU=", "properties": {"ref": "435", "@spider": "bostonpizza", "addr:full": "481 Bryne Drive", "addr:city": "Barrie", "addr:state": "ON", "addr:postcode": "L4N 9P7", "addr:country": "Canada", "name": "Molson Park", "opening_hours": "Mo-Su 11:00-23:00", "brand": "Boston Pizza"}, "geometry": {"type": "Point", "coordinates": [-79.68983195234392, 44.333159638286986]}},
{"type": "Feature", "id": "Gmf0IeCk6VTjnVth-QshsXyNeb0=", "properties": {"ref": "556", "@spider": "bostonpizza", "addr:full": "860 Talbot Street", "addr:city": "St Thomas", "addr:state": "ON", "addr:postcode": "N5P 1E2", "addr:country": "Canada", "name": "St Thomas", "opening_hours": "Mo-Th 11:00-23:00; Fr-Sa 11:00-00:00; Su 11:00-23:00", "brand": "Boston Pizza"}, "geometry": {"type": "Point", "coordinates": [-81.18380605968999, 42.778837394529276]}},
{"type": "Feature", "id": "V-eTHu1lLzj-m22o6vHyqTGkzEA=", "properties": {"ref": "546", "@spider": "bostonpizza", "addr:full": "425 Bingemans Centre Drive", "addr:city": "Kitchener", "addr:state": "ON", "addr:postcode": "N2B 3X7", "addr:country": "Canada", "name": "Bingemans", "opening_hours": "Mo-Th 12:00-23:00; Fr-Sa 11:00-01:00; Su 11:00-22:00", "brand": "Boston Pizza"}, "geometry": {"type": "Point", "coordinates": [-80.449567, 43.471689]}},
{"type": "Feature", "id": "_JtZo_RXz7cnoh8TnZzi5i0CfF8=", "properties": {"ref": "530", "@spider": "bostonpizza", "addr:full": "431 Norwich Ave", "addr:city": "Woodstock", "addr:state": "ON", "addr:postcode": "N4S 3W4", "addr:country": "Canada", "name": "Woodstock", "opening_hours": "Mo-We 11:00-22:00; Th-Sa 11:00-00:00; Su 11:00-22:00", "brand": "Boston Pizza"}, "geometry": {"type": "Point", "coordinates": [-80.73849138618348, 43.11762843774025]}},
{"type": "Feature", "id": "nQjgL3BFBkPUBCXyzEtNvW_UgUw=", "properties": {"ref": "559", "@spider": "bostonpizza", "addr:full": "35 Woodlawn Rd W", "addr:city": "Guelph", "addr:state": "ON", "addr:postcode": "N1H 1G8", "addr:country": "Canada", "name": "Woodlawn Road", "opening_hours": "Mo-Th 11:00-22:30; Fr-Sa 11:00-23:30; Su 11:00-22:30", "brand": "Boston Pizza"}, "geometry": {"type": "Point", "coordinates": [-80.28066380611753, 43.562686979152865]}},
{"type": "Feature", "id": "34J2RF6sOJrONpsOEX_1cAEAeU4=", "properties": {"ref": "552", "@spider": "bostonpizza", "addr:full": "14 Pinebush Road", "addr:city": "Cambridge", "addr:state": "ON", "addr:postcode": "N1R 8K5", "addr:country": "Canada", "name": "Cambridge North", "opening_hours": "Mo-Th 11:00-00:00; Fr-Sa 11:00-01:00; Su 11:00-00:00", "brand": "Boston Pizza"}, "geometry": {"type": "Point", "coordinates": [-80.32730033777038, 43.408119798235475]}},
{"type": "Feature", "id": "4X8Az4NJjkCUQNoYcC8uo6Y6YsA=", "properties": {"ref": "564", "@spider": "bostonpizza", "addr:full": "438 Holland Street West", "addr:city": "Bradford", "addr:state": "ON", "addr:postcode": "L3Z 0G1", "addr:country": "Canada", "name": "Bradford", "opening_hours": "Mo-Th 12:00-23:00; Fr-Sa 12:00-00:00; Su 12:00-23:00", "brand": "Boston Pizza"}, "geometry": {"type": "Point", "coordinates": [-79.584391, 44.109699]}},
{"type": "Feature", "id": "peJpsCMxvfGtZalJJySiwh-44BE=", "properties": {"ref": "536", "@spider": "bostonpizza", "addr:full": "253 The Queensway South", "addr:city": "Keswick", "addr:state": "ON", "addr:postcode": "L4P 2B2", "addr:country": "Canada", "name": "Keswick", "opening_hours": "Mo-Th 11:00-23:00; Fr-Sa 11:00-00:00; Su 11:00-23:00", "brand": "Boston Pizza"}, "geometry": {"type": "Point", "coordinates": [-79.46433325689596, 44.22693312122036]}},
{"type": "Feature", "id": "Dvir6KUGv5GgZEgz_lZFUfHD0jY=", "properties": {"ref": "539", "@spider": "bostonpizza", "addr:full": "205 Franklin Boulevard", "addr:city": "Cambridge", "addr:state": "ON", "addr:postcode": "N1R 8P1", "addr:country": "Canada", "name": "Cambridge South", "opening_hours": "Mo-Th 12:00-23:00; Fr-Sa 15:00-19:30; Su 12:00-23:00", "brand": "Boston Pizza"}, "geometry": {"type": "Point", "coordinates": [-80.28728225942328, 43.35476919062851]}},
{"type": "Feature", "id": "8FOO3erpnZziCdGz9S2KlFo0TAA=", "properties": {"ref": "548", "@spider": "bostonpizza", "addr:full": "102 Broadway St.", "addr:city": "Tillsonburg", "addr:state": "ON", "addr:postcode": "N4G 3P6", "addr:country": "Canada", "name": "Tillsonburg", "opening_hours": "Mo-We 11:00-00:00; Th-Sa 11:00-01:00; Su 11:00-00:00", "brand": "Boston Pizza"}, "geometry": {"type": "Point", "coordinates": [-80.72702, 42.85988]}},
{"type": "Feature", "id": "UIn6aMCFB71YV0-sb7uygRX2rBA=", "properties": {"ref": "502", "@spider": "bostonpizza", "addr:full": "319 Guelph Street Unit 1", "addr:city": "Georgetown", "addr:state": "ON", "addr:postcode": "L7G 4B3", "addr:country": "Canada", "name": "Georgetown", "opening_hours": "Mo-We 12:00-20:00; Th 12:00-22:00; Fr-Sa 12:00-00:00; Su 12:00-20:00", "brand": "Boston Pizza"}, "geometry": {"type": "Point", "coordinates": [-79.88728589105982, 43.649382570287834]}},
{"type": "Feature", "id": "ZM5wh1qOYht8VV58vIfs_XacDuw=", "properties": {"ref": "525", "@spider": "bostonpizza", "addr:full": "18199 Yonge Street", "addr:city": "Newmarket", "addr:state": "ON", "addr:postcode": "L9N 0H9", "addr:country": "Canada", "name": "Newmarket", "opening_hours": "Mo-We 11:00-22:00; Th 11:00-23:00; Fr-Sa 11:00-00:00; Su 11:00-22:00", "brand": "Boston Pizza"}, "geometry": {"type": "Point", "coordinates": [-79.46205880390234, 44.078069148259935]}},
{"type": "Feature", "id": "7GA8GIbwNT3wU0k1oQT8kVutx8c=", "properties": {"ref": "526", "@spider": "bostonpizza", "addr:full": "2458 Queen Street East", "addr:city": "Brampton", "addr:state": "ON", "addr:postcode": "L6S 5X9", "addr:country": "Canada", "name": "Brampton", "opening_hours": "Mo-Tu 11:00-23:00; We-Th 11:00-00:00; Fr-Sa 11:00-01:00; Su 11:00-23:00", "brand": "Boston Pizza"}, "geometry": {"type": "Point", "coordinates": [-79.70219459474164, 43.73798378420124]}},
{"type": "Feature", "id": "6PbCFHSPEeLJLhFSA6AdMbd5DdA=", "properties": {"ref": "455", "@spider": "bostonpizza", "addr:full": "1085 Maple Avenue", "addr:city": "Milton", "addr:state": "ON", "addr:postcode": "L9T 0A5", "addr:country": "Canada", "name": "Milton", "opening_hours": "Mo-Su 12:00-22:00", "brand": "Boston Pizza"}, "geometry": {"type": "Point", "coordinates": [-79.8730995881537, 43.53657175086132]}},
{"type": "Feature", "id": "6EaAG1or3Xl9PAyrfmmlcCKI-gU=", "properties": {"ref": "527", "@spider": "bostonpizza", "addr:full": "299 Wayne Gretzky Parkway", "addr:city": "Brantford", "addr:state": "ON", "addr:postcode": "N3R 8A5", "addr:country": "Canada", "name": "Brantford", "opening_hours": "Mo-Sa 11:00-02:00; Su 11:00-01:00", "brand": "Boston Pizza"}, "geometry": {"type": "Point", "coordinates": [-80.24240108638712, 43.16247204473597]}},
{"type": "Feature", "id": "_Bp_qtWqA3XYIXTXw2rrG7pZMTY=", "properties": {"ref": "537", "@spider": "bostonpizza", "addr:full": "8 First Commerce Drive", "addr:city": "Aurora", "addr:state": "ON", "addr:postcode": "L4G 0H5", "addr:country": "Canada", "name": "Aurora", "opening_hours": "Mo-Th 12:00-22:00; Fr-Sa 12:00-23:00; Su 12:00-22:00", "brand": "Boston Pizza"}, "geometry": {"type": "Point", "coordinates": [-79.41460947973826, 44.01211001144512]}},
{"type": "Feature", "id": "Lo4R2vKDBwRmmxFpIvnQBPL4tw0=", "properties": {"ref": "540", "@spider": "bostonpizza", "addr:full": "50 Market Street", "addr:city": "Brantford", "addr:state": "ON", "addr:postcode": "N3S 2E3", "addr:country": "Canada", "name": "Brantford South", "opening_hours": "Mo-Su 11:00-00:00", "brand": "Boston Pizza"}, "geometry": {"type": "Point", "coordinates": [-80.26308289919392, 43.135707948473275]}},
{"type": "Feature", "id": "JATdjvj0lznvl3rYjfk5WdFoezM=", "properties": {"ref": "542", "@spider": "bostonpizza", "addr:full": "65 Resolution Drive", "addr:city": "Brampton", "addr:state": "ON", "addr:postcode": "L6W 0A6", "addr:country": "Canada", "name": "Kennedy & Steeles", "opening_hours": "Mo-Th 11:00-23:00; Fr-Sa 11:00-00:00; Su 11:00-23:00", "brand": "Boston Pizza"}, "geometry": {"type": "Point", "coordinates": [-79.719615, 43.682221]}},
{"type": "Feature", "id": "k2VIM-tyAwr19ORyFWUaCG8p8dQ=", "properties": {"ref": "452", "@spider": "bostonpizza", "addr:full": "3255 Rutherford Road", "addr:city": "Vaughan", "addr:state": "ON", "addr:postcode": "L4K 5Y5", "addr:country": "Canada", "name": "Rutherford Road", "opening_hours": "Mo-Th 12:00-23:00; Fr-Sa 12:00-00:00; Su 12:00-23:00", "brand": "Boston Pizza"}, "geometry": {"type": "Point", "coordinates": [-79.53939020568522, 43.8292829228368]}},
{"type": "Feature", "id": "dB5G1Y_MSCj6abXdqEa3rQXD-h4=", "properties": {"ref": "506", "@spider": "bostonpizza", "addr:full": "6978 Financial Drive", "addr:city": "Mississauga", "addr:state": "ON", "addr:postcode": "L5N 8J4", "addr:country": "Canada", "name": "Mississauga Road", "opening_hours": "Mo-Su 11:00-22:00", "brand": "Boston Pizza"}, "geometry": {"type": "Point", "coordinates": [-79.7486672018544, 43.6110344731928]}},
{"type": "Feature", "id": "sTNUOPgg8up7Ls6q1bk9-euanNs=", "properties": {"ref": "505", "@spider": "bostonpizza", "addr:full": "50 Courtney Park Drive", "addr:city": "Mississauga", "addr:state": "ON", "addr:postcode": "L5T 2Y3", "addr:country": "Canada", "name": "Courtney Park", "opening_hours": "Mo-Th 11:00-23:00; Fr-Sa 11:00-00:00; Su 11:00-23:00", "brand": "Boston Pizza"}, "geometry": {"type": "Point", "coordinates": [-79.69342463184735, 43.63788394682012]}},
{"type": "Feature", "id": "31Ycy0Z9bf-mUZi82XS8k-_e5Bo=", "properties": {"ref": "512", "@spider": "bostonpizza", "addr:full": "5 Carlson Court", "addr:city": "Etobicoke", "addr:state": "ON", "addr:postcode": "M9W 6A2", "addr:country": "Canada", "name": "Dixon Road", "opening_hours": "Mo-Th 11:45-21:00; Fr 11:45-22:00; Sa-Su 15:00-21:00", "brand": "Boston Pizza"}, "geometry": {"type": "Point", "coordinates": [-79.58721519025364, 43.68945187505372]}},
{"type": "Feature", "id": "fdhkqjVjdLj-zH1PfHJjJ8nyx1E=", "properties": {"ref": "550", "@spider": "bostonpizza", "addr:full": "2915 Eglinton Avenue West", "addr:city": "Mississauga", "addr:state": "ON", "addr:postcode": "L5M 6J3", "addr:country": "Canada", "name": "Erin Mills", "opening_hours": "Mo-We 11:00-01:00; Th-Sa 11:00-02:00; Su 11:00-01:00", "brand": "Boston Pizza"}, "geometry": {"type": "Point", "coordinates": [-79.71556810513653, 43.5508570915104]}},
{"type": "Feature", "id": "etZxI2rj2mNAb5d-9T4tSTjO8HI=", "properties": {"ref": "515", "@spider": "bostonpizza", "addr:full": "1510 Aimco Boulevard", "addr:city": "Mississauga", "addr:state": "ON", "addr:postcode": "L4W 5K1", "addr:country": "Canada", "name": "Dixie & Aimco", "opening_hours": "Mo-Th 11:00-22:00; Fr-Sa 11:00-00:00; Su 11:00-22:00", "brand": "Boston Pizza"}, "geometry": {"type": "Point", "coordinates": [-79.62354496644895, 43.639294380883726]}},
{"type": "Feature", "id": "no6N31fMtR1-ceTJFFkQNILdMYs=", "properties": {"ref": "462", "@spider": "bostonpizza", "addr:full": "4 Horseshoe Crescent", "addr:city": "Waterdown", "addr:state": "ON", "addr:postcode": "L8B 0Y2", "addr:country": "Canada", "name": "Waterdown", "opening_hours": "Mo-Th 12:00-20:00; Fr-Sa 12:00-21:00; Su 12:00-20:00", "brand": "Boston Pizza"}, "geometry": {"type": "Point", "coordinates": [-79.91399876090374, 43.3190097352289]}},
{"type": "Feature", "id": "JpTgpiqqQc4bNciLv9rgZ3GMKls=", "properties": {"ref": "517", "@spider": "bostonpizza", "addr:full": "35 Square One Drive", "addr:city": "Mississauga", "addr:state": "ON", "addr:postcode": "L5B 0E2", "addr:country": "Canada", "name": "Square One", "opening_hours": "Mo-Th 12:00-00:00; Fr-Sa 12:00-01:00; Su 12:00-00:00", "brand": "Boston Pizza"}, "geometry": {"type": "Point", "coordinates": [-79.6421845526939, 43.59627784949099]}},
{"type": "Feature", "id": "MCe6k9uuYkxoZewhnOf_PzanEB8=", "properties": {"ref": "479", "@spider": "bostonpizza", "addr:full": "1070 Wilson Street W", "addr:city": "Ancaster", "addr:state": "ON", "addr:postcode": "L9G 3K9", "addr:country": "Canada", "name": "Ancaster", "opening_hours": "Mo-Th 11:00-23:00; Fr-Sa 11:00-00:00; Su 11:00-23:00", "brand": "Boston Pizza"}, "geometry": {"type": "Point", "coordinates": [-80.01609, 43.19979]}},
{"type": "Feature", "id": "_T7qxMgnhY0EKbHQzh-gUhlnMZI=", "properties": {"ref": "459", "@spider": "bostonpizza", "addr:full": "4523 Dundas Street", "addr:city": "Burlington", "addr:state": "ON", "addr:postcode": "L7R 3X4", "addr:country": "Canada", "name": "Burlington North", "opening_hours": "Mo-Th 11:00-00:00; Fr-Sa 11:00-01:00; Su 11:00-00:00", "brand": "Boston Pizza"}, "geometry": {"type": "Point", "coordinates": [-79.81142297994849, 43.40333525072188]}},
{"type": "Feature", "id": "v4kOhkdvBwj34SJ71z3_awAzLy4=", "properties": {"ref": "446", "@spider": "bostonpizza", "addr:full": "180 Rimrock Road", "addr:city": "North York", "addr:state": "ON", "addr:postcode": "M3J 3A6", "addr:country": "Canada", "name": "Allen Road", "opening_hours": "Mo-Th 11:00-23:00; Fr-Sa 11:00-00:00; Su 11:00-23:00", "brand": "Boston Pizza"}, "geometry": {"type": "Point", "coordinates": [-79.46599982305344, 43.75750446484914]}},
{"type": "Feature", "id": "Id8_xa3mSyz7F6LNFAc8wtb1lnI=", "properties": {"ref": "478", "@spider": "bostonpizza", "addr:full": "499 Dundas Street West", "addr:city": "Oakville", "addr:state": "ON", "addr:postcode": "L6M 1L9 ", "addr:country": "Canada", "name": "Dundas & Neyagawa", "opening_hours": "Mo-Su 11:30-22:00", "brand": "Boston Pizza"}, "geometry": {"type": "Point", "coordinates": [-79.74678, 43.46636]}},
{"type": "Feature", "id": "4kZ93ywi3BNqA7HWhnfVegAyHUE=", "properties": {"ref": "533", "@spider": "bostonpizza", "addr:full": "1060 Hoover Park DR", "addr:city": "Stouffville", "addr:state": "ON", "addr:postcode": "L4A 0K2", "addr:country": "Canada", "name": "Stouffville", "opening_hours": "Mo-We 11:00-00:00; Th-Sa 11:00-01:00; Su 11:00-23:00", "brand": "Boston Pizza"}, "geometry": {"type": "Point", "coordinates": [-79.27467256402304, 43.95770413961138]}},
{"type": "Feature", "id": "RyA8-AOib6CC0ZxmPrFbgWKDyvI=", "properties": {"ref": "545", "@spider": "bostonpizza", "addr:full": "284 Toronto Street South", "addr:city": "Uxbridge", "addr:state": "ON", "addr:postcode": "L9P 0C5", "addr:country": "Canada", "name": "Uxbridge", "opening_hours": "Mo-Su 11:00-22:00", "brand": "Boston Pizza"}, "geometry": {"type": "Point", "coordinates": [-79.13066485556249, 44.094157658849895]}},
{"type": "Feature", "id": "VQjVyq5ncG8dmd5JQyjJtTFkPIM=", "properties": {"ref": "509", "@spider": "bostonpizza", "addr:full": "1563 Main Street West", "addr:city": "Hamilton", "addr:state": "ON", "addr:postcode": "L8S 1E6", "addr:country": "Canada", "name": "Main West", "opening_hours": "Mo-Th 12:00-22:00; Fr-Sa 12:00-23:00; Su 12:00-22:00", "brand": "Boston Pizza"}, "geometry": {"type": "Point", "coordinates": [-79.92763864867625, 43.25747997609084]}},
{"type": "Feature", "id": "b0IDl_F9V8bRKaV-Xu_LQIWLE8g=", "properties": {"ref": "463", "@spider": "bostonpizza", "addr:full": "100 - 5170 Yonge Street", "addr:city": "North York", "addr:state": "ON", "addr:postcode": "M2N 0G1 ", "addr:country": "Canada", "name": "Yonge & Empress", "opening_hours": "Mo-Th 11:00-21:00; Fr-Sa 11:00-22:00; Su 11:00-21:00", "brand": "Boston Pizza"}, "geometry": {"type": "Point", "coordinates": [-79.4154474, 43.7696449]}},
{"type": "Feature", "id": "CniRlBcflGpWT4h5zKWafRMQafg=", "properties": {"ref": "444", "@spider": "bostonpizza", "addr:full": "2011 Winston Park Drive", "addr:city": "Oakville", "addr:state": "ON", "addr:postcode": "L6H 6P5", "addr:country": "Canada", "name": "Oakville", "opening_hours": "Mo-Th 11:00-22:00; Fr-Sa 11:00-00:00; Su 11:00-22:00", "brand": "Boston Pizza"}, "geometry": {"type": "Point", "coordinates": [-79.66771579981142, 43.507379522348685]}},
{"type": "Feature", "id": "XQFtgnjyz5qsvusFDlO7_tt8fWc=", "properties": {"ref": "442", "@spider": "bostonpizza", "addr:full": "3120 South Service Road", "addr:city": "Burlington", "addr:state": "ON", "addr:postcode": "L7N 3J3", "addr:country": "Canada", "name": "Burlington South", "opening_hours": "Mo-We 11:00-23:00; Th-Sa 11:00-01:00; Su 11:00-23:00", "brand": "Boston Pizza"}, "geometry": {"type": "Point", "coordinates": [-79.8004400357631, 43.354383284940404]}},
{"type": "Feature", "id": "2w7E-qtzJCbe-7WIadOfWbE8YQs=", "properties": {"ref": "470", "@spider": "bostonpizza", "addr:full": "1602 The Queensway", "addr:city": "Etobicoke", "addr:state": "ON", "addr:postcode": "M8Z 1V1", "addr:country": "Canada", "name": "Queensway", "opening_hours": "Mo-Fr 12:00-23:00; Sa-Su 11:00-23:00", "brand": "Boston Pizza"}, "geometry": {"type": "Point", "coordinates": [-79.543136, 43.617242]}},
{"type": "Feature", "id": "WqKY1uJ42MjRaSKZVwky7Df9Cwc=", "properties": {"ref": "457", "@spider": "bostonpizza", "addr:full": "270 North Service Road W.", "addr:city": "Oakville", "addr:state": "ON", "addr:postcode": "L6M 2R8", "addr:country": "Canada", "name": "QEW & Dorval", "opening_hours": "Mo-Th 16:00-22:00; Fr-Sa 12:00-22:00; Su 16:00-22:00", "brand": "Boston Pizza"}, "geometry": {"type": "Point", "coordinates": [-79.70683229318809, 43.44686404630237]}},
{"type": "Feature", "id": "YWy6zRXiXSpSgcTdy7Uo-J80l9s=", "properties": {"ref": "531", "@spider": "bostonpizza", "addr:full": "9 Queensway West", "addr:city": "Simcoe", "addr:state": "ON", "addr:postcode": "N3Y 2M7", "addr:country": "Canada", "name": "Simcoe", "opening_hours": "Mo-Su 11:00-00:00", "brand": "Boston Pizza"}, "geometry": {"type": "Point", "coordinates": [-80.30736984577229, 42.846148908799755]}},
{"type": "Feature", "id": "XeHvZHWqgqk21ePvpcu2T1uQhSw=", "properties": {"ref": "447", "@spider": "bostonpizza", "addr:full": "7020 Warden Ave", "addr:city": "Markham", "addr:state": "ON", "addr:postcode": "L3R 5Y3", "addr:country": "Canada", "name": "Warden Ave", "opening_hours": "Mo-Su 12:00-00:00", "brand": "Boston Pizza"}, "geometry": {"type": "Point", "coordinates": [-79.3246558883692, 43.8204685637129]}},
{"type": "Feature", "id": "AIEop_i6wkccaix-J-YTQtpb3RQ=", "properties": {"ref": "503", "@spider": "bostonpizza", "addr:full": "1565 Upper James Street", "addr:city": "Hamilton", "addr:state": "ON", "addr:postcode": "L9B 1K2", "addr:country": "Canada", "name": "Upper James", "opening_hours": "Mo-Su 12:00-22:00", "brand": "Boston Pizza"}, "geometry": {"type": "Point", "coordinates": [-79.89262709899077, 43.20356587787735]}},
{"type": "Feature", "id": "Q_Trnkr9PVvdqlxyYQBrN2o8kEQ=", "properties": {"ref": "445", "@spider": "bostonpizza", "addr:full": "7680 Markham Rd.", "addr:city": "Markham", "addr:state": "ON", "addr:postcode": "L3S 4S1", "addr:country": "Canada", "name": "Markham", "opening_hours": "Mo-Su 11:00-02:00", "brand": "Boston Pizza"}, "geometry": {"type": "Point", "coordinates": [-79.25494014751087, 43.85309979247264]}},
{"type": "Feature", "id": "Ts0m6_qgOfgfKlyy8FOrTqLZ6f0=", "properties": {"ref": "518", "@spider": "bostonpizza", "addr:full": "1219 Barton Street East", "addr:city": "Hamilton", "addr:state": "ON", "addr:postcode": "L8H 2V4", "addr:country": "Canada", "name": "Centre on Barton", "opening_hours": "Mo-Su 11:00-21:00", "brand": "Boston Pizza"}, "geometry": {"type": "Point", "coordinates": [-79.81097218746326, 43.25030144727316]}},
{"type": "Feature", "id": "p-BLZxKTW6s8Lbohit4NFBzbg-I=", "properties": {"ref": "461", "@spider": "bostonpizza", "addr:full": "435 Kent Street West", "addr:city": "Lindsay", "addr:state": "ON", "addr:postcode": "K9V 6C3", "addr:country": "Canada", "name": "Lindsay", "opening_hours": "Mo-We 11:00-00:00; Th-Sa 11:00-01:00; Su 11:00-00:00", "brand": "Boston Pizza"}, "geometry": {"type": "Point", "coordinates": [-78.76375392353857, 44.34917984698525]}},
{"type": "Feature", "id": "FQJfwnS191mZfKxYEsezi_YR0sI=", "properties": {"ref": "496", "@spider": "bostonpizza", "addr:full": "401 Yonge Street", "addr:city": "Toronto", "addr:state": "ON", "addr:postcode": "M5B 1S9", "addr:country": "Canada", "name": "Yonge and Gerrard", "opening_hours": "Mo-Th 11:00-23:00; Fr-Sa 11:00-00:00; Su 11:00-23:00", "brand": "Boston Pizza"}, "geometry": {"type": "Point", "coordinates": [-79.381878, 43.659397]}},
{"type": "Feature", "id": "AxeSprabJJ7SetitI1gDNKoUJfg=", "properties": {"ref": "450", "@spider": "bostonpizza", "addr:full": "400 Progress Ave.,", "addr:city": "Scarborough", "addr:state": "ON", "addr:postcode": "M1P 5J1", "addr:country": "Canada", "name": "Scarborough Town Ctr", "opening_hours": "Mo-Su 11:00-01:00", "brand": "Boston Pizza"}, "geometry": {"type": "Point", "coordinates": [-79.26312271413654, 43.77529710763702]}},
{"type": "Feature", "id": "NeLhnRrn0U99JlEJQg4UflxEpns=", "properties": {"ref": "469", "@spider": "bostonpizza", "addr:full": " Unit 1C201 250 Front street", "addr:city": "Toronto", "addr:state": "ON", "addr:postcode": "M5V 3G5", "addr:country": "Canada", "name": "Front & John", "opening_hours": "Mo-We 12:00-00:00; Th-Sa 12:00-01:00; Su 12:00-00:00", "brand": "Boston Pizza"}, "geometry": {"type": "Point", "coordinates": [-79.38845668540628, 43.64402087178938]}},
{"type": "Feature", "id": "3mUBkcn8uLWy68qvU9IOI1W3GCw=", "properties": {"ref": "460", "@spider": "bostonpizza", "addr:full": "890 Warden Avenue", "addr:city": "Scarborough", "addr:state": "ON", "addr:postcode": "M1L 4R1", "addr:country": "Canada", "name": "Warden & Eglinton", "opening_hours": "Mo-Th 11:00-22:30; Fr-Sa 11:00-23:30; Su 11:00-22:30", "brand": "Boston Pizza"}, "geometry": {"type": "Point", "coordinates": [-79.28781384798614, 43.728455670309074]}},
{"type": "Feature", "id": "9XqrjZ96EkxlVCRJmFjHKLLDN20=", "properties": {"ref": "448", "@spider": "bostonpizza", "addr:full": "25 Cinemart Drive", "addr:city": "Scarborough", "addr:state": "ON", "addr:postcode": "M1B 3C3", "addr:country": "Canada", "name": "Morningside Ave", "opening_hours": "Mo-Th 11:30-00:00; Fr-Sa 11:30-02:00; Su 11:30-00:00", "brand": "Boston Pizza"}, "geometry": {"type": "Point", "coordinates": [-79.20345418154731, 43.796480939347816]}},
{"type": "Feature", "id": "raVQRnxIajo8BWM63cRlqLy9gw8=", "properties": {"ref": "449", "@spider": "bostonpizza", "addr:full": "1899 Brock Rd", "addr:city": "Pickering", "addr:state": "ON", "addr:postcode": "L1V 4H7", "addr:country": "Canada", "name": "Pickering", "opening_hours": "Mo-Th 12:00-23:00; Fr-Sa 12:00-00:00; Su 12:00-23:00", "brand": "Boston Pizza"}, "geometry": {"type": "Point", "coordinates": [-79.073878662803, 43.8479156788926]}},
{"type": "Feature", "id": "EqAzzFU9gHDrislR-mwBq7EiLXA=", "properties": {"ref": "451", "@spider": "bostonpizza", "addr:full": "8 Salem Rd.", "addr:city": "Ajax", "addr:state": "ON", "addr:postcode": "L1S 7T7", "addr:country": "Canada", "name": "Ajax", "opening_hours": "Mo-Su 11:00-02:00", "brand": "Boston Pizza"}, "geometry": {"type": "Point", "coordinates": [-79.01607477185718, 43.86300698186374]}},
{"type": "Feature", "id": "0LGmd4uXHTX2QRS1VV-JCRjgHDk=", "properties": {"ref": "458", "@spider": "bostonpizza", "addr:full": "20 Taunton Road East", "addr:city": "Whitby", "addr:state": "ON", "addr:postcode": "L1R 0A1", "addr:country": "Canada", "name": "Whitby North", "opening_hours": "Mo-Su 11:00-23:00", "brand": "Boston Pizza"}, "geometry": {"type": "Point", "coordinates": [-78.95676140910479, 43.91547991016236]}},
{"type": "Feature", "id": "oHb0S2PZrm3x9zw3Bp538eLmZJE=", "properties": {"ref": "483", "@spider": "bostonpizza", "addr:full": "2939 Petawawa Blvd", "addr:city": "Petawawa", "addr:state": "ON", "addr:postcode": "K8H 1Y1", "addr:country": "Canada", "name": "Petawawa", "opening_hours": "Mo-We 11:00-22:00; Th-Sa 11:00-23:00; Su 11:00-22:00", "brand": "Boston Pizza"}, "geometry": {"type": "Point", "coordinates": [-77.25654, 45.885478]}},
{"type": "Feature", "id": "BjuB9esJbmc26D5wVYNcT8rbUI8=", "properties": {"ref": "511", "@spider": "bostonpizza", "addr:full": "1 Industrial Drive", "addr:city": "Grimsby", "addr:state": "ON", "addr:postcode": "L3M 5H8", "addr:country": "Canada", "name": "Grimsby", "opening_hours": "Mo-Su 11:00-00:00", "brand": "Boston Pizza"}, "geometry": {"type": "Point", "coordinates": [-79.59862843635673, 43.20555004783124]}},
{"type": "Feature", "id": "2qAVkptmGvYkHMY13MWC52FYN-Y=", "properties": {"ref": "482", "@spider": "bostonpizza", "addr:full": "500 Victoria St. W", "addr:city": "Whitby", "addr:state": "ON", "addr:postcode": "L1N 9G4", "addr:country": "Canada", "name": "Whitby Iroquois Park", "opening_hours": "Mo 11:00-23:00; Tu 11:00-00:00; We-Fr 16:00-22:00; Sa-Su 12:00-22:00", "brand": "Boston Pizza"}, "geometry": {"type": "Point", "coordinates": [-78.94334, 43.86211]}},
{"type": "Feature", "id": "FvsQgnr5Dl0tRdx3f6jZQdy4qn4=", "properties": {"ref": "443", "@spider": "bostonpizza", "addr:full": "951 Taunton Road East", "addr:city": "Oshawa", "addr:state": "ON", "addr:postcode": "L1H 7K5", "addr:country": "Canada", "name": "Oshawa", "opening_hours": "Mo-Th 11:00-22:00; Fr-Sa 11:00-23:00; Su 11:00-22:00", "brand": "Boston Pizza"}, "geometry": {"type": "Point", "coordinates": [-78.84407694817791, 43.940830157266866]}},
{"type": "Feature", "id": "lfVkOifVeGCZirk9wWs4ZV0KD4g=", "properties": {"ref": "406", "@spider": "bostonpizza", "addr:full": "1164 Chemong Rd", "addr:city": "Peterborough", "addr:state": "ON", "addr:postcode": "K9J 6X2", "addr:country": "Canada", "name": "Peterborough North", "opening_hours": "Mo-Su 11:00-02:00", "brand": "Boston Pizza"}, "geometry": {"type": "Point", "coordinates": [-78.34204438380364, 44.329915298431224]}},
{"type": "Feature", "id": "3QOpZ-8AhEh4J9FgvB83cjSIqMA=", "properties": {"ref": "437", "@spider": "bostonpizza", "addr:full": "1108B Pembroke Street East", "addr:city": "Pembroke", "addr:state": "ON", "addr:postcode": "K8A 8P7", "addr:country": "Canada", "name": "Pembroke", "opening_hours": "Mo-Th 11:00-21:00; Fr-Sa 11:00-22:00; Su 11:00-21:00", "brand": "Boston Pizza"}, "geometry": {"type": "Point", "coordinates": [-77.07775587786678, 45.81799836761815]}},
{"type": "Feature", "id": "QMRJIc8tzBp4C6ngvIP_zHkJxfM=", "properties": {"ref": "464", "@spider": "bostonpizza", "addr:full": "2372 Highway 2", "addr:city": "Bowmanville", "addr:state": "ON", "addr:postcode": "L1C 3K7", "addr:country": "Canada", "name": "Bowmanville", "opening_hours": "Mo-Su 11:00-02:00", "brand": "Boston Pizza"}, "geometry": {"type": "Point", "coordinates": [-78.70772588177695, 43.91054509848703]}},
{"type": "Feature", "id": "qcdQjJov2bWu5v14ozhfefGFNbs=", "properties": {"ref": "412", "@spider": "bostonpizza", "addr:full": "821 Rye Street", "addr:city": "Peterborough", "addr:state": "ON", "addr:postcode": "K9J 6X1", "addr:country": "Canada", "name": "Peterborough", "opening_hours": "Mo-Su 11:00-02:00", "brand": "Boston Pizza"}, "geometry": {"type": "Point", "coordinates": [-78.3446740066341, 44.279665596707446]}},
{"type": "Feature", "id": "4Gf0ZY1b60sX8AvjEd8atYxvqIA=", "properties": {"ref": "508", "@spider": "bostonpizza", "addr:full": "333 Ontario Street", "addr:city": "St Catharines", "addr:state": "ON", "addr:postcode": "L2R 5L3", "addr:country": "Canada", "name": "St Catharines", "opening_hours": "Mo-Su 11:00-02:00", "brand": "Boston Pizza"}, "geometry": {"type": "Point", "coordinates": [-79.26470731802398, 43.17074340382085]}},
{"type": "Feature", "id": "t-uzJTThDCeO2o89LXAyYx4vtrQ=", "properties": {"ref": "513", "@spider": "bostonpizza", "addr:full": "221 Glendale Avenue", "addr:city": "St Catharines", "addr:state": "ON", "addr:postcode": "L2T 2K9", "addr:country": "Canada", "name": "Pen Centre", "opening_hours": "Mo-Su 11:00-02:00", "brand": "Boston Pizza"}, "geometry": {"type": "Point", "coordinates": [-79.22447750381261, 43.13313979734535]}},
{"type": "Feature", "id": "Inw-MJ6yaYUMkQrV5CBMg6JFqrM=", "properties": {"ref": "514", "@spider": "bostonpizza", "addr:full": "934 Niagara Street", "addr:city": "Welland", "addr:state": "ON", "addr:postcode": "L3C 1M3", "addr:country": "Canada", "name": "Welland", "opening_hours": "Mo-Su 11:00-00:00", "brand": "Boston Pizza"}, "geometry": {"type": "Point", "coordinates": [-79.24985165657921, 43.02210141200845]}},
{"type": "Feature", "id": "xVppt2Xzo8RuaXmvlRZHQXBobPo=", "properties": {"ref": "519", "@spider": "bostonpizza", "addr:full": "8444 LUNDY'S LANE NIAGARA FALLS", "addr:city": "Niagara Falls", "addr:state": "ON", "addr:postcode": "L2H 1H4", "addr:country": "Canada", "name": "AMERICANA", "opening_hours": "Mo 12:00-21:00; Tu-Th 16:00-21:00; Fr-Su 12:00-22:00", "brand": "Boston Pizza"}, "geometry": {"type": "Point", "coordinates": [-79.139915, 43.088405]}},
{"type": "Feature", "id": "2NwDmMXn228RkZljWR-Q9Y436jU=", "properties": {"ref": "504", "@spider": "bostonpizza", "addr:full": "4725 Dorchester Road Unit 16", "addr:city": "Niagara Falls", "addr:state": "ON", "addr:postcode": "L2E 0A8", "addr:country": "Canada", "name": "Dorchester", "opening_hours": "Mo-Th 15:00-21:00; Fr-Sa 15:00-23:00; Su 15:00-21:00", "brand": "Boston Pizza"}, "geometry": {"type": "Point", "coordinates": [-79.112189399, 43.1046881]}},
{"type": "Feature", "id": "5IL4lwsfS2o9c9u6ao_ks9P7OqA=", "properties": {"ref": "507", "@spider": "bostonpizza", "addr:full": "4950 Clifton Hill", "addr:city": "Niagara Falls", "addr:state": "ON", "addr:postcode": "L2E 6S8", "addr:country": "Canada", "name": "Clifton Hill", "opening_hours": "Mo-Tu 17:00-02:00; We-Th 11:00-00:00; Fr-Sa 11:00-02:00; Su 11:00-00:00", "brand": "Boston Pizza"}, "geometry": {"type": "Point", "coordinates": [-79.07582526671645, 43.091841058528864]}},
{"type": "Feature", "id": "VeUQRFDpZR5rnXj_DTLpgI0Zf7A=", "properties": {"ref": "416", "@spider": "bostonpizza", "addr:full": "1111 Elgin Street", "addr:city": "Cobourg", "addr:state": "ON", "addr:postcode": "K9A 5H7", "addr:country": "Canada", "name": "Cobourg", "opening_hours": "Mo-Su 11:00-02:00", "brand": "Boston Pizza"}, "geometry": {"type": "Point", "coordinates": [-78.20011988303995, 43.971139121708795]}},
{"type": "Feature", "id": "X0TilgcOKMoOeEA4nNMYMAIIoTk=", "properties": {"ref": "547", "@spider": "bostonpizza", "addr:full": "490 Empire Rd", "addr:city": "Sherkston", "addr:state": "ON", "addr:postcode": "L0S 1R0", "addr:country": "Canada", "name": "Sherkston Shores", "opening_hours": "Mo-Th 12:00-22:00; Fr 16:00-22:00; Sa 12:00-22:00; Su 12:00-20:00", "brand": "Boston Pizza"}, "geometry": {"type": "Point", "coordinates": [-79.13447550000001, 42.8745687]}},
{"type": "Feature", "id": "uSks7RwnVoRtA6xVKjqyVEJbf8s=", "properties": {"ref": "471", "@spider": "bostonpizza", "addr:full": "227 Dundas St E", "addr:city": "Trenton", "addr:state": "ON", "addr:postcode": "K8V 1L8", "addr:country": "Canada", "name": "Trenton", "opening_hours": "Mo-Th 11:00-22:00; Fr-Sa 11:00-23:00; Su 11:00-22:00", "brand": "Boston Pizza"}, "geometry": {"type": "Point", "coordinates": [-77.560643, 44.104139]}},
{"type": "Feature", "id": "mZf_GMjt6kmspX3WnMSaWeWECKk=", "properties": {"ref": "631", "@spider": "bostonpizza", "addr:full": "141, Albiny-Paquette", "addr:city": "Mont-Laurier", "addr:state": "QC", "addr:postcode": "J9L 1J2", "addr:country": "Canada", "name": "Mont-Laurier", "opening_hours": "Mo-Fr 11:00-22:00; Sa 16:00-22:00; Su 16:00-21:00", "brand": "Boston Pizza"}, "geometry": {"type": "Point", "coordinates": [-75.51086267094166, 46.54903009939003]}},
{"type": "Feature", "id": "06zYcO4MtJ--QeEoun5d0xxz7D8=", "properties": {"ref": "439", "@spider": "bostonpizza", "addr:full": "180 Bell Blvd.", "addr:city": "Belleville", "addr:state": "ON", "addr:postcode": "K8P 5L2", "addr:country": "Canada", "name": "Belleville", "opening_hours": "Mo-Th 11:00-22:00; Fr-Sa 11:00-00:00; Su 11:00-22:00", "brand": "Boston Pizza"}, "geometry": {"type": "Point", "coordinates": [-77.40324171257456, 44.18668623153606]}},
{"type": "Feature", "id": "7rhV60zT-yANmet9Lcp7Qx5M1Bc=", "properties": {"ref": "432", "@spider": "bostonpizza", "addr:full": "135 Roland Michener Drive", "addr:city": "Kanata", "addr:state": "ON", "addr:postcode": "K2T 1G7", "addr:country": "Canada", "name": "Kanata", "opening_hours": "Mo-Th 11:00-21:00; Fr-Sa 11:00-22:00; Su 11:00-21:00", "brand": "Boston Pizza"}, "geometry": {"type": "Point", "coordinates": [-75.91306519040702, 45.3086472555482]}},
{"type": "Feature", "id": "R95i7zLN-DoRRuW6Q8SwXp6BNT8=", "properties": {"ref": "632", "@spider": "bostonpizza", "addr:full": "247 Boul des Grives local 2A", "addr:city": "Gatineau", "addr:state": "QC", "addr:postcode": "J9A 0C7", "addr:country": "Canada", "name": "Le Plateau", "opening_hours": "Mo-We 11:30-22:00; Th 11:30-23:00; Fr-Sa 11:30-00:00; Su 11:30-22:00", "brand": "Boston Pizza"}, "geometry": {"type": "Point", "coordinates": [-75.78039230000002, 45.4337645]}},
{"type": "Feature", "id": "muT0Nkb7Fu-oYGETDJN-hJR99LY=", "properties": {"ref": "618", "@spider": "bostonpizza", "addr:full": "61, de la Gappe Boulevard", "addr:city": "Gatineau", "addr:state": "QC", "addr:postcode": "J8T 0B5", "addr:country": "Canada", "name": "Gatineau", "opening_hours": "Mo-We 11:00-21:00; Th 11:00-22:00; Fr-Sa 11:00-23:00; Su 11:00-21:00", "brand": "Boston Pizza"}, "geometry": {"type": "Point", "coordinates": [-75.70982608146413, 45.474091512718836]}},
{"type": "Feature", "id": "uQHAeU1_uSBkiOIbjT_Y6XHJOso=", "properties": {"ref": "635", "@spider": "bostonpizza", "addr:full": "179, Promenade du Portage", "addr:city": "Gatineau", "addr:state": "QC", "addr:postcode": "J8X 2K5", "addr:country": "Canada", "name": "Le Portage", "opening_hours": "Mo-Th 11:30-21:00; Fr 11:30-23:00; Sa 12:00-23:00; Su 16:00-20:00", "brand": "Boston Pizza"}, "geometry": {"type": "Point", "coordinates": [-75.71492, 45.426763]}},
{"type": "Feature", "id": "TLNPk6ldpWL6pd9-UIpjwgZgHTM=", "properties": {"ref": "424", "@spider": "bostonpizza", "addr:full": "1640 Carling Avenue", "addr:city": "Ottawa", "addr:state": "ON", "addr:postcode": "K2A 1C5", "addr:country": "Canada", "name": "Carling", "opening_hours": "Mo-Su 11:00-23:00", "brand": "Boston Pizza"}, "geometry": {"type": "Point", "coordinates": [-75.74840298989636, 45.379664147443414]}},
{"type": "Feature", "id": "L99lFgD9SgvBzGbS5n6nOnh_n3c=", "properties": {"ref": "481", "@spider": "bostonpizza", "addr:full": "640 Bank St", "addr:city": "Ottawa", "addr:state": "ON", "addr:postcode": "K1S 3Z8", "addr:country": "Canada", "name": "The Glebe", "opening_hours": "Mo-Th 11:00-23:00; Fr-Sa 11:00-00:00; Su 11:00-23:00", "brand": "Boston Pizza"}, "geometry": {"type": "Point", "coordinates": [-75.6906, 45.4065]}},
{"type": "Feature", "id": "q24Dr7_b4wjyb568pp1DRhvKiLc=", "properties": {"ref": "430", "@spider": "bostonpizza", "addr:full": "521 West Hunt Club Road", "addr:city": "Nepean", "addr:state": "ON", "addr:postcode": "K2G 5W5", "addr:country": "Canada", "name": "Hunt Club", "opening_hours": "Mo-Th 11:30-21:00; Fr-Sa 11:30-23:00; Su 12:00-21:00", "brand": "Boston Pizza"}, "geometry": {"type": "Point", "coordinates": [-75.72560381844686, 45.33416484228737]}},
{"type": "Feature", "id": "fSk0f0FpdjsQWykUW7x1-amfSns=", "properties": {"ref": "431", "@spider": "bostonpizza", "addr:full": "1055 St. Laurent Blvd.", "addr:city": "Ottawa", "addr:state": "ON", "addr:postcode": "K1K 3B1", "addr:country": "Canada", "name": "St Laurent", "opening_hours": "Mo-Th 11:30-00:00; Fr-Sa 11:30-01:00; Su 11:30-00:00", "brand": "Boston Pizza"}, "geometry": {"type": "Point", "coordinates": [-75.63878528390683, 45.426939301783655]}},
{"type": "Feature", "id": "VblHIH1cUI8UVfFwfi3LrtMVbSE=", "properties": {"ref": "422", "@spider": "bostonpizza", "addr:full": "1681 Greenbank Road", "addr:city": "Barrhaven", "addr:state": "ON", "addr:postcode": "K2J 4Y6", "addr:country": "Canada", "name": "Barrhaven", "opening_hours": "Mo-Su 11:00-01:00", "brand": "Boston Pizza"}, "geometry": {"type": "Point", "coordinates": [-75.7482800464913, 45.27370742284901]}},
{"type": "Feature", "id": "LLXFhW9JXfyCp5d4Mmcd5suNRns=", "properties": {"ref": "433", "@spider": "bostonpizza", "addr:full": "2980 Conroy Road", "addr:city": "Ottawa", "addr:state": "ON", "addr:postcode": "K1G 6C1", "addr:country": "Canada", "name": "Conroy", "opening_hours": "Mo-Sa 11:00-23:00; Su 16:00-23:00", "brand": "Boston Pizza"}, "geometry": {"type": "Point", "coordinates": [-75.62878588696192, 45.3816722230594]}},
{"type": "Feature", "id": "p6JdXFdBv3gpuYN3D3pM8aIJVQA=", "properties": {"ref": "438", "@spider": "bostonpizza", "addr:full": "755 Gardiners Road", "addr:city": "Kingston", "addr:state": "ON", "addr:postcode": "K7M 3Y5", "addr:country": "Canada", "name": "Kingston", "opening_hours": "Mo-Su 11:00-01:00", "brand": "Boston Pizza"}, "geometry": {"type": "Point", "coordinates": [-76.56816229408129, 44.248731669956456]}},
{"type": "Feature", "id": "LU_QnoBsXBqngJA82gCH8BXyuks=", "properties": {"ref": "484", "@spider": "bostonpizza", "addr:full": "Unit 18 275 Brockville St", "addr:city": "Smiths Falls", "addr:state": "ON", "addr:postcode": "K7A 4Z6", "addr:country": "Canada", "name": "Smiths Falls", "opening_hours": "Mo-Th 11:00-21:30; Fr-Sa 11:00-22:30; Su 11:00-21:30", "brand": "Boston Pizza"}, "geometry": {"type": "Point", "coordinates": [-76.014665, 44.882564]}},
{"type": "Feature", "id": "HT498p9nOL05qE-RkTk2-6SFsUQ=", "properties": {"ref": "421", "@spider": "bostonpizza", "addr:full": "3884 Innes Road", "addr:city": "Orleans", "addr:state": "ON", "addr:postcode": "K1W 1K9", "addr:country": "Canada", "name": "Orleans", "opening_hours": "Mo-Th 11:00-01:00; Fr-Sa 11:00-02:00; Su 11:00-01:00", "brand": "Boston Pizza"}, "geometry": {"type": "Point", "coordinates": [-75.51112904831929, 45.45307502064271]}},
{"type": "Feature", "id": "yThLlUoPKl1arbAzmPsyPxHx1gE=", "properties": {"ref": "408", "@spider": "bostonpizza", "addr:full": "95 Dalton Avenue", "addr:city": "Kingston", "addr:state": "ON", "addr:postcode": "K7K 0C4", "addr:country": "Canada", "name": "Kingston East", "opening_hours": "Mo-Su 11:00-01:00", "brand": "Boston Pizza"}, "geometry": {"type": "Point", "coordinates": [-76.50145183645778, 44.265772991935634]}},
{"type": "Feature", "id": "Ergwvn_gIZNrEJHbmCpzEtFNjgw=", "properties": {"ref": "423", "@spider": "bostonpizza", "addr:full": "3002 Richelieu Street", "addr:city": "Rockland", "addr:state": "ON", "addr:postcode": "K4K 0B5", "addr:country": "Canada", "name": "Rockland", "opening_hours": "Mo-Th 11:00-21:00; Fr-Sa 11:00-22:00; Su 11:00-20:00", "brand": "Boston Pizza"}, "geometry": {"type": "Point", "coordinates": [-75.30522616560009, 45.53383859248353]}},
{"type": "Feature", "id": "G3y_WB5GzawTqKjPIZUr3vbtZfg=", "properties": {"ref": "480", "@spider": "bostonpizza", "addr:full": " 767 Notre-Dame St Unit#41", "addr:city": "Embrun", "addr:state": "ON", "addr:postcode": "K0A 1W1", "addr:country": "Canada", "name": "Embrun", "opening_hours": "Mo-We 11:00-22:00; Th-Sa 11:00-00:00; Su 11:00-22:00", "brand": "Boston Pizza"}, "geometry": {"type": "Point", "coordinates": [-75.301844, 45.269095]}},
{"type": "Feature", "id": "7k_w0GJnuMQkjq6YjxX3_O9oZnI=", "properties": {"ref": "419", "@spider": "bostonpizza", "addr:full": "2000 Parkedale Avenue", "addr:city": "Brockville", "addr:state": "ON", "addr:postcode": "K6V 7N4", "addr:country": "Canada", "name": "Brockville", "opening_hours": "Mo-Th 11:30-21:00; Fr-Sa 11:30-22:00; Su 11:30-21:00", "brand": "Boston Pizza"}, "geometry": {"type": "Point", "coordinates": [-75.6869654383121, 44.61282514894774]}},
{"type": "Feature", "id": "QVY14BE-WT_z5Sh6rl0pL_6ljhg=", "properties": {"ref": "425", "@spider": "bostonpizza", "addr:full": "1234 Brookdale Ave", "addr:city": "Cornwall", "addr:state": "ON", "addr:postcode": "K6J 4P8", "addr:country": "Canada", "name": "Cornwall", "opening_hours": "Mo-Th 11:00-00:00; Fr-Sa 11:00-01:00; Su 11:00-00:00", "brand": "Boston Pizza"}, "geometry": {"type": "Point", "coordinates": [-74.75311, 45.02864]}},
{"type": "Feature", "id": "QNtp1L__8eoBE_8I2W5ZL-r6jjo=", "properties": {"ref": "604", "@spider": "bostonpizza", "addr:full": "1060, boul. du Grand-Heron", "addr:city": "Saint-J\u00e9r\u00f4me", "addr:state": "QC", "addr:postcode": "J7Y 5K8", "addr:country": "Canada", "name": "St-Jerome", "opening_hours": "Mo-Su 11:00-00:00", "brand": "Boston Pizza"}, "geometry": {"type": "Point", "coordinates": [-74.01795407310613, 45.75971977852502]}},
{"type": "Feature", "id": "Fo_w9xhJ029-fC7EAQcpTXJnILU=", "properties": {"ref": "614", "@spider": "bostonpizza", "addr:full": "17 545 rue Charles", "addr:city": "Mirabel", "addr:state": "QC", "addr:postcode": "J7J 1P3", "addr:country": "Canada", "name": "Mirabel", "opening_hours": "Mo-We 11:00-23:00; Th-Sa 11:00-00:00; Su 11:00-23:00", "brand": "Boston Pizza"}, "geometry": {"type": "Point", "coordinates": [-73.936408, 45.694973]}},
{"type": "Feature", "id": "DuU7ZxTpR4Ke5JHhScm5VoanqtQ=", "properties": {"ref": "634", "@spider": "bostonpizza", "addr:full": "739, boul. Arthur-Sauve", "addr:city": "St-Eustache ", "addr:state": "QC", "addr:postcode": "J7P 4X5", "addr:country": "Canada", "name": "St-Eustache", "opening_hours": "Mo-We 11:00-23:00; Th-Sa 11:00-00:00; Su 11:00-23:00", "brand": "Boston Pizza"}, "geometry": {"type": "Point", "coordinates": [-73.917335, 45.577442]}},
{"type": "Feature", "id": "p_1dMpxwuluaGVIJmdKUa9H6Jqg=", "properties": {"ref": "616", "@spider": "bostonpizza", "addr:full": "52, boul. De la Cite des Jeunes", "addr:city": "Vaudreuil", "addr:state": "QC", "addr:postcode": "J7V 9L5", "addr:country": "Canada", "name": "Vaudreuil", "opening_hours": "Mo-Th 11:00-23:00; Fr-Sa 11:00-00:00; Su 11:00-23:00", "brand": "Boston Pizza"}, "geometry": {"type": "Point", "coordinates": [-74.0376181877266, 45.40495292284538]}},
{"type": "Feature", "id": "FbKgaZh_bRHjSscexLOQ-K86pt8=", "properties": {"ref": "620", "@spider": "bostonpizza", "addr:full": "101, boulevard Cure-Labelle", "addr:city": "Sainte-Th\u00e9r\u00e8se", "addr:state": "QC", "addr:postcode": "J7E 2X6", "addr:country": "Canada", "name": "Sainte-Therese", "opening_hours": "Mo-We 11:00-23:00; Th-Sa 11:00-00:00; Su 11:00-23:00", "brand": "Boston Pizza"}, "geometry": {"type": "Point", "coordinates": [-73.83577243737437, 45.64445692118647]}},
{"type": "Feature", "id": "nso8m5_tNeSUVSivg1H8PROgdhk=", "properties": {"ref": "617", "@spider": "bostonpizza", "addr:full": "155 de la Visitation", "addr:city": "Saint-Charles-Borrom\u00e9e", "addr:state": "QC", "addr:postcode": "J6E 4N4", "addr:country": "Canada", "name": "Joliette", "opening_hours": "Mo-We 11:00-23:00; Th-Sa 11:00-00:00; Su 11:00-23:00", "brand": "Boston Pizza"}, "geometry": {"type": "Point", "coordinates": [-73.4488080699473, 46.04150606292306]}},
{"type": "Feature", "id": "948LFvtNYx6si2rVn1U3cq81Dyk=", "properties": {"ref": "622", "@spider": "bostonpizza", "addr:full": "150, Montee Masson", "addr:city": "Mascouche", "addr:state": "QC", "addr:postcode": "J7K 3B4", "addr:country": "Canada", "name": "Mascouche", "opening_hours": "Mo-We 11:00-23:00; Th-Sa 11:00-00:00; Su 11:00-23:00", "brand": "Boston Pizza"}, "geometry": {"type": "Point", "coordinates": [-73.61915298784741, 45.72459894581281]}},
{"type": "Feature", "id": "lGWKQUBXTITjGn11VFec5jtt-Og=", "properties": {"ref": "601", "@spider": "bostonpizza", "addr:full": "450 Promenade Du Centropolis", "addr:city": "Laval", "addr:state": "QC", "addr:postcode": "H7T 3C2", "addr:country": "Canada", "name": "Centropolis-Laval", "opening_hours": "Mo-Th 11:00-21:30; Fr 11:00-22:00; Sa-Su 16:00-22:00", "brand": "Boston Pizza"}, "geometry": {"type": "Point", "coordinates": [-73.74702095929922, 45.56086565102927]}},
{"type": "Feature", "id": "jGsFj1yV_wb4qydKcFNIpwST0YY=", "properties": {"ref": "607", "@spider": "bostonpizza", "addr:full": "5840 Boulevard Robert-Bourassa", "addr:city": "Laval", "addr:state": "QC", "addr:postcode": "H7E 0A5", "addr:country": "Canada", "name": "Laval 19/440", "opening_hours": "Mo-Su 11:00-22:00", "brand": "Boston Pizza"}, "geometry": {"type": "Point", "coordinates": [-73.70088303145579, 45.612006692439735]}},
{"type": "Feature", "id": "WiaFuj8liQPoqJLe8YCSkkQ7Y4Q=", "properties": {"ref": "611", "@spider": "bostonpizza", "addr:full": "1150 Yves Blais", "addr:city": "Terrebonne", "addr:state": "QC", "addr:postcode": "J6V 1P7", "addr:country": "Canada", "name": "Lachenaie", "opening_hours": "Mo-Tu 16:00-22:00; We 11:30-22:00; Th-Sa 11:30-23:00; Su 11:30-22:00", "brand": "Boston Pizza"}, "geometry": {"type": "Point", "coordinates": [-73.50619531935375, 45.723024587209125]}},
{"type": "Feature", "id": "aXfswHBW0vK1tLXIqxz13HiL460=", "properties": {"ref": "608", "@spider": "bostonpizza", "addr:full": "7300 Boulevard des Roseraies", "addr:city": "Anjou", "addr:state": "QC", "addr:postcode": "H1M 2T5", "addr:country": "Canada", "name": "Anjou", "opening_hours": "Mo-We 16:00-22:00; Th-Sa 11:30-23:00; Su 11:30-22:00", "brand": "Boston Pizza"}, "geometry": {"type": "Point", "coordinates": [-73.55912928542135, 45.59980114439292]}},
{"type": "Feature", "id": "IMEWWda2DIplNqf3cUXrIqlbnmI=", "properties": {"ref": "606", "@spider": "bostonpizza", "addr:full": "6857 Boul. Newman", "addr:city": "Lasalle", "addr:state": "QC", "addr:postcode": "H8N 3E4", "addr:country": "Canada", "name": "LaSalle", "opening_hours": "Mo-We 11:00-23:00; Th-Sa 11:00-01:00; Su 11:00-23:00", "brand": "Boston Pizza"}, "geometry": {"type": "Point", "coordinates": [-73.60832030782377, 45.44895641657319]}},
{"type": "Feature", "id": "1GEvdTNzy5g4N_DK_O0thjN5cNo=", "properties": {"ref": "603", "@spider": "bostonpizza", "addr:full": "7733 Boul. Taschereau", "addr:city": "Brossard", "addr:state": "QC", "addr:postcode": "J4Y 1A3", "addr:country": "Canada", "name": "Brossard", "opening_hours": "Mo 11:00-22:00; Tu-Fr 11:00-23:00; Sa 16:00-23:00; Su 16:00-22:00", "brand": "Boston Pizza"}, "geometry": {"type": "Point", "coordinates": [-73.46540542963042, 45.45450594527383]}},
{"type": "Feature", "id": "ootcQmTm4BL0RKqVNPvqo7U7-8o=", "properties": {"ref": "610", "@spider": "bostonpizza", "addr:full": "2051 Boul. Nobel", "addr:city": "Sainte-Julie", "addr:state": "QC", "addr:postcode": "J3E 1Z8", "addr:country": "Canada", "name": "Ste-Julie", "opening_hours": "Mo 11:00-22:00; Tu-Sa 11:00-23:00; Su 16:00-22:00", "brand": "Boston Pizza"}, "geometry": {"type": "Point", "coordinates": [-73.33325492956902, 45.57736738806402]}},
{"type": "Feature", "id": "jzeHsxuk7OLh2A3OhrbG-HH3-H8=", "properties": {"ref": "602", "@spider": "bostonpizza", "addr:full": "1231 Boul. Des Promenades", "addr:city": "Saint-Bruno", "addr:state": "QC", "addr:postcode": "J3V 6H1", "addr:country": "Canada", "name": "St Bruno", "opening_hours": "Mo-Su 11:00-23:00", "brand": "Boston Pizza"}, "geometry": {"type": "Point", "coordinates": [-73.37524010239709, 45.50099562785952]}},
{"type": "Feature", "id": "MdTmSP39heJaLSc3Bg-17Lo-c5c=", "properties": {"ref": "638", "@spider": "bostonpizza", "addr:full": "2673, boulevard du Royaume", "addr:city": "Jonqui\u00e8re", "addr:state": "QC", "addr:postcode": "G7S 5B8", "addr:country": "Canada", "name": "Saguenay", "opening_hours": "Mo-Th 11:00-22:00; Fr-Sa 11:00-23:00; Su 11:00-22:00", "brand": "Boston Pizza"}, "geometry": {"type": "Point", "coordinates": [-71.170747899999, 48.4034235]}},
{"type": "Feature", "id": "gw9IWiHrhRnhpttE6JWsgkMJNCg=", "properties": {"ref": "621", "@spider": "bostonpizza", "addr:full": "725 rue Gadbois", "addr:city": "Saint-Jean-Sur-Richelieu", "addr:state": "QC", "addr:postcode": "J3A 1V1", "addr:country": "Canada", "name": "St-Jean sur-le-Richelieu", "opening_hours": "Mo-Su 11:00-23:00", "brand": "Boston Pizza"}, "geometry": {"type": "Point", "coordinates": [-73.28478790721861, 45.33240606857609]}},
{"type": "Feature", "id": "GAP0EAgEqLp-TWWPfu9TZkYbwEw=", "properties": {"ref": "627", "@spider": "bostonpizza", "addr:full": "161 Boul. St-Joseph", "addr:city": "Drummondville", "addr:state": "QC", "addr:postcode": "J2C 2A7", "addr:country": "Canada", "name": "Drummondville", "opening_hours": "Mo-Th 11:00-21:00; Fr-Sa 11:00-00:00; Su 11:00-21:00", "brand": "Boston Pizza"}, "geometry": {"type": "Point", "coordinates": [-72.522662, 45.897635]}},
{"type": "Feature", "id": "PD_1xU6Ebq86b1cpsWB7zrZleks=", "properties": {"ref": "619", "@spider": "bostonpizza", "addr:full": "8445 Blvd de L'Ormiere", "addr:city": "Qu\u00e9bec", "addr:state": "QC", "addr:postcode": "G2C 1C2", "addr:country": "Canada", "name": "Neufchatel", "opening_hours": "Mo-We 11:00-21:30; Th-Sa 11:00-22:30; Su 11:00-21:30", "brand": "Boston Pizza"}, "geometry": {"type": "Point", "coordinates": [-71.3469471264701, 46.82984649692593]}},
{"type": "Feature", "id": "7EzuJUPzgnqXhsjHqpzsao4Ynng=", "properties": {"ref": "626", "@spider": "bostonpizza", "addr:full": "1345, Route de l'Aeroport", "addr:city": "L'Ancienne-Lorette", "addr:state": "QC", "addr:postcode": "G2G 1G5", "addr:country": "Canada", "name": "Ancienne Lorette", "opening_hours": "Mo-Su 11:00-21:00", "brand": "Boston Pizza"}, "geometry": {"type": "Point", "coordinates": [-71.3560585988229, 46.78962009780914]}},
{"type": "Feature", "id": "zQ1gqohI9dtnDWhPioNyaFycYn0=", "properties": {"ref": "615", "@spider": "bostonpizza", "addr:full": "4500, boul. des Gradins - #400", "addr:city": "Qu\u00e9bec", "addr:state": "QC", "addr:postcode": "G2J 1A6", "addr:country": "Canada", "name": "Lebourgneuf", "opening_hours": "Mo 16:00-00:00; Tu-Su 11:00-00:00", "brand": "Boston Pizza"}, "geometry": {"type": "Point", "coordinates": [-71.27061293230604, 46.83553262940997]}},
{"type": "Feature", "id": "qoncQ4RW3F0ypkM6hbuURlBXfWQ=", "properties": {"ref": "633", "@spider": "bostonpizza", "addr:full": "2300 Chemin Ste-Foy", "addr:city": "Sainte-Foy", "addr:state": "QC", "addr:postcode": "G1V 1S5", "addr:country": "Canada", "name": "Ste-Foy", "opening_hours": "Mo-Tu 11:30-23:00; We-Fr 07:30-23:00; Sa 08:00-23:00; Su 08:00-21:30", "brand": "Boston Pizza"}, "geometry": {"type": "Point", "coordinates": [-71.27824, 46.78687]}},
{"type": "Feature", "id": "lH128UVgoz4uqALN6frDEeL7bUM=", "properties": {"ref": "605", "@spider": "bostonpizza", "addr:full": "3485 rue Clemenceau", "addr:city": "Beauport", "addr:state": "QC", "addr:postcode": "G1C 0B6", "addr:country": "Canada", "name": "Beauport", "opening_hours": "Mo 11:00-21:00; Tu-We 11:00-21:30; Th-Sa 11:00-22:30; Su 11:00-21:00", "brand": "Boston Pizza"}, "geometry": {"type": "Point", "coordinates": [-71.21586213591922, 46.863379310656114]}},
{"type": "Feature", "id": "TzNgRgeajdqRmEkKKFHmkZYBhU4=", "properties": {"ref": "612", "@spider": "bostonpizza", "addr:full": "1432 Route des Rivieres", "addr:city": "Levis", "addr:state": "QC", "addr:postcode": "G7A 2N9", "addr:country": "Canada", "name": "St-Nicolas", "opening_hours": "Mo-Su 11:00-23:00", "brand": "Boston Pizza"}, "geometry": {"type": "Point", "coordinates": [-71.29854157582223, 46.72020830036889]}},
{"type": "Feature", "id": "tEjijBlkYkPsuES92J0WvfeCBOw=", "properties": {"ref": "613", "@spider": "bostonpizza", "addr:full": "550 Jean-Paul Perreault", "addr:city": "Sherbrooke", "addr:state": "QC", "addr:postcode": "J1L 3A6", "addr:country": "Canada", "name": "Sherbrooke", "opening_hours": "Mo-Su 11:00-21:00", "brand": "Boston Pizza"}, "geometry": {"type": "Point", "coordinates": [-71.95810562321367, 45.40442699827929]}},
{"type": "Feature", "id": "mN1ozMg60-7KxRqkcq63ne4JGt4=", "properties": {"ref": "629", "@spider": "bostonpizza", "addr:full": "14917, Boulevard Lacroix", "addr:city": "Saint-Georges", "addr:state": "QC", "addr:postcode": "G5Y 5P2", "addr:country": "Canada", "name": "St-Georges de Beauce", "opening_hours": "Mo-Su 06:00-21:30", "brand": "Boston Pizza"}, "geometry": {"type": "Point", "coordinates": [-70.65588907681573, 46.10833946395164]}},
{"type": "Feature", "id": "sk-d7At8IJv8gfh5B7mYUcomw9E=", "properties": {"ref": "923", "@spider": "bostonpizza", "addr:full": "164 Hebert Boulevard", "addr:city": "Edmundston", "addr:state": "NB", "addr:postcode": "E3V 2S7", "addr:country": "Canada", "name": "Edmundston", "opening_hours": "Mo-We 11:00-21:00; Th 11:00-22:00; Fr-Sa 11:00-23:00; Su 11:00-21:00", "brand": "Boston Pizza"}, "geometry": {"type": "Point", "coordinates": [-68.31652879551885, 47.372638215172266]}},
{"type": "Feature", "id": "QlztJrDot40Zc9J022HIlzMAjwM=", "properties": {"ref": "908", "@spider": "bostonpizza", "addr:full": "1230 Prospect Street", "addr:city": "Fredericton", "addr:state": "NB", "addr:postcode": "E3B 3C2", "addr:country": "Canada", "name": "Fredericton", "opening_hours": "Mo-We 11:00-00:00; Th-Sa 11:00-01:00; Su 11:00-00:00", "brand": "Boston Pizza"}, "geometry": {"type": "Point", "coordinates": [-66.6614510162197, 45.939268376331725]}},
{"type": "Feature", "id": "8XVTe7SrsyzlirsUmNL6_-_KGtc=", "properties": {"ref": "915", "@spider": "bostonpizza", "addr:full": "98 Douglastown Blvd", "addr:city": "Miramichi", "addr:state": "NB", "addr:postcode": "E1V 0A3", "addr:country": "Canada", "name": "Miramichi", "opening_hours": "Mo-We 12:00-21:00; Th 12:00-20:00; Fr-Sa 12:00-23:00; Su 12:00-21:00", "brand": "Boston Pizza"}, "geometry": {"type": "Point", "coordinates": [-65.49113908307304, 47.036101134387394]}},
{"type": "Feature", "id": "7N6Z0OaJjc0OnVkRv6I_HUax1b8=", "properties": {"ref": "909", "@spider": "bostonpizza", "addr:full": "120 McAllister Dr", "addr:city": "Saint John", "addr:state": "NB", "addr:postcode": "E2J 2S5", "addr:country": "Canada", "name": "Saint John", "opening_hours": "Mo 11:00-00:00; Tu-Sa 11:00-01:00; Su 11:00-00:00", "brand": "Boston Pizza"}, "geometry": {"type": "Point", "coordinates": [-66.02303323449861, 45.31267023696934]}},
{"type": "Feature", "id": "RTrYdfFPOb3pOnka7bvUPE90kW8=", "properties": {"ref": "906", "@spider": "bostonpizza", "addr:full": "1380 Mountain Road", "addr:city": "Moncton", "addr:state": "NB", "addr:postcode": "E1C 2T8", "addr:country": "Canada", "name": "Moncton", "opening_hours": "Mo-We 11:00-00:00; Th-Sa 11:00-01:00; Su 11:00-00:00", "brand": "Boston Pizza"}, "geometry": {"type": "Point", "coordinates": [-64.83280446973218, 46.11117399245719]}},
{"type": "Feature", "id": "nGDuyFY3dWZ60kP6_l80S3BQ8V4=", "properties": {"ref": "918", "@spider": "bostonpizza", "addr:full": "134 Starrs Rd", "addr:city": "Yarmouth", "addr:state": "NS", "addr:postcode": "B5A 4E5", "addr:country": "Canada", "name": "Yarmouth", "opening_hours": "Mo-We 11:30-22:00; Th-Sa 11:30-23:00; Su 11:30-22:00", "brand": "Boston Pizza"}, "geometry": {"type": "Point", "coordinates": [-66.0961025982394, 43.84030001796803]}},
{"type": "Feature", "id": "0HybkwSF5pl_3PSNKXru5DL2kRI=", "properties": {"ref": "921", "@spider": "bostonpizza", "addr:full": "9278 Commercial Street ", "addr:city": "New Minas", "addr:state": "NS", "addr:postcode": "B4N 3E9", "addr:country": "Canada", "name": "New Minas", "opening_hours": "Mo-We 11:30-22:00; Th-Sa 11:30-23:00; Su 11:30-22:00", "brand": "Boston Pizza"}, "geometry": {"type": "Point", "coordinates": [-64.44243183790927, 45.0688529741674]}},
{"type": "Feature", "id": "8vGYN48xI1rPzjb2Pn_g7PdTARE=", "properties": {"ref": "917", "@spider": "bostonpizza", "addr:full": "700 Universtiy Ave", "addr:city": "Charlottetown", "addr:state": "PE", "addr:postcode": "C1E 1E3", "addr:country": "Canada", "name": "Charlottetown", "opening_hours": "Mo-Th 11:00-21:00; Fr-Sa 11:00-22:00; Su 12:00-20:00", "brand": "Boston Pizza"}, "geometry": {"type": "Point", "coordinates": [-63.147475782599045, 46.26512645634928]}},
{"type": "Feature", "id": "B-gzSa-gA-lJHqWLhALb4aYVBGk=", "properties": {"ref": "913", "@spider": "bostonpizza", "addr:full": "485 Hwy #10", "addr:city": "Bridgewater", "addr:state": "NS", "addr:postcode": "B4V 7P4", "addr:country": "Canada", "name": "Bridgewater", "opening_hours": "Mo-We 11:30-22:00; Th-Sa 11:30-23:00; Su 11:30-22:00", "brand": "Boston Pizza"}, "geometry": {"type": "Point", "coordinates": [-64.536951, 44.399401]}},
{"type": "Feature", "id": "YPO_6EPmiKh1x5O9nMpm5NaUCXc=", "properties": {"ref": "925", "@spider": "bostonpizza", "addr:full": "68 Robie Street", "addr:city": "Truro", "addr:state": "NS", "addr:postcode": "B2N 1L2", "addr:country": "Canada", "name": "Truro", "opening_hours": "Mo-We 11:30-22:00; Th-Sa 11:30-23:00; Su 11:30-22:00", "brand": "Boston Pizza"}, "geometry": {"type": "Point", "coordinates": [-63.31419, 45.367821]}},
{"type": "Feature", "id": "jTaRoXYpCyYlzSmrQIZBZYna-Hw=", "properties": {"ref": "910", "@spider": "bostonpizza", "addr:full": "710 Sackville Drive", "addr:city": "Lower Sackville", "addr:state": "NS", "addr:postcode": "B4E 1R7", "addr:country": "Canada", "name": "Sackville", "opening_hours": "Mo-We 11:30-22:00; Th-Sa 11:30-23:00; Su 11:30-22:00", "brand": "Boston Pizza"}, "geometry": {"type": "Point", "coordinates": [-63.69046899142589, 44.77098842446314]}},
{"type": "Feature", "id": "RMkQXU27AYZf__XAUxoCcN5-ELc=", "properties": {"ref": "900", "@spider": "bostonpizza", "addr:full": "194A Chain Lake Drive", "addr:city": "Halifax", "addr:state": "NS", "addr:postcode": "B3S 1C5", "addr:country": "Canada", "name": "Bayer's Lake", "opening_hours": "Mo 11:00-00:00; Tu-Th 11:00-01:00; Fr-Sa 11:00-02:00; Su 11:00-00:00", "brand": "Boston Pizza"}, "geometry": {"type": "Point", "coordinates": [-63.67484834879407, 44.64824650998343]}},
{"type": "Feature", "id": "wX2wivHrNuQaKnlCMOrGAhoxGu0=", "properties": {"ref": "922", "@spider": "bostonpizza", "addr:full": "111 Shubie Drive", "addr:city": "Dartmouth", "addr:state": "NS", "addr:postcode": "B3B 0C3", "addr:country": "Canada", "name": "Dartmouth Crossing", "opening_hours": "Mo-Su 11:00-00:00", "brand": "Boston Pizza"}, "geometry": {"type": "Point", "coordinates": [-63.562334642596454, 44.706863193440476]}},
{"type": "Feature", "id": "UteLo9JasW4uCJhw-t0HvzcafA8=", "properties": {"ref": "919", "@spider": "bostonpizza", "addr:full": "1858 Granville Street", "addr:city": "Halifax", "addr:state": "NS", "addr:postcode": "B3J 0A2", "addr:country": "Canada", "name": "Downtown Halifax", "opening_hours": "Mo 16:00-23:00; Tu-We 11:30-23:00; Th 11:30-00:00; Fr 11:30-01:00; Sa 13:00-01:00; Su 13:00-00:00", "brand": "Boston Pizza"}, "geometry": {"type": "Point", "coordinates": [-63.57447188875157, 44.64946911384486]}},
{"type": "Feature", "id": "30fJv8S7jOc0B386PJ6IeY7QHaU=", "properties": {"ref": "907", "@spider": "bostonpizza", "addr:full": "611 Portland Street", "addr:city": "Dartmouth", "addr:state": "NS", "addr:postcode": "B2W 2M6", "addr:country": "Canada", "name": "Portland Street", "opening_hours": "Mo 11:00-00:00; Tu-Th 11:00-01:00; Fr-Sa 11:00-02:00; Su 11:00-00:00", "brand": "Boston Pizza"}, "geometry": {"type": "Point", "coordinates": [-63.52990490441723, 44.670816870095734]}},
{"type": "Feature", "id": "Vj3Pg1kHFTNGU5iJAlCHckwJPgU=", "properties": {"ref": "926", "@spider": "bostonpizza", "addr:full": "689 Westville Rd Highland Square Mall", "addr:city": "New Glasgow", "addr:state": "NS", "addr:postcode": "B2H 2J6", "addr:country": "Canada", "name": "New Glasgow", "opening_hours": "Mo-We 11:30-22:00; Th-Sa 11:30-23:00; Su 11:30-22:00", "brand": "Boston Pizza"}, "geometry": {"type": "Point", "coordinates": [-62.6690013, 45.579901]}},
{"type": "Feature", "id": "87rs0NOm8YGsC5c31RYZ4B8UOqw=", "properties": {"ref": "920", "@spider": "bostonpizza", "addr:full": "135 Church Street", "addr:city": "Antigonish", "addr:state": "NS", "addr:postcode": "B2G 2E3", "addr:country": "Canada", "name": "Antigonish", "opening_hours": "Mo-Tu 11:30-22:00; We-Sa 11:30-00:00; Su 11:30-22:00", "brand": "Boston Pizza"}, "geometry": {"type": "Point", "coordinates": [-61.98617286896763, 45.61704054185804]}},
{"type": "Feature", "id": "GhBXlAVmgBvjiQUu6les3L6lnOw=", "properties": {"ref": "912", "@spider": "bostonpizza", "addr:full": "329 Prince St", "addr:city": "Sydney", "addr:state": "NS", "addr:postcode": "B1P 5K6", "addr:country": "Canada", "name": "Sydney", "opening_hours": "Mo-Th 11:00-23:00; Fr-Sa 11:00-00:00; Su 11:00-23:00", "brand": "Boston Pizza"}, "geometry": {"type": "Point", "coordinates": [-60.184177720621506, 46.13968661714741]}},
{"type": "Feature", "id": "krMrcOPJ_16fy5IPcmsmilLgU0c=", "properties": {"ref": "927", "@spider": "bostonpizza", "addr:full": "44 Maple Valley Rd", "addr:city": "Corner Brook", "addr:state": "NL", "addr:postcode": "A2H 6L8", "addr:country": "Canada", "name": "Corner Brook", "opening_hours": "Mo-We 11:00-23:00; Th-Sa 11:00-00:00; Su 11:00-22:00", "brand": "Boston Pizza"}, "geometry": {"type": "Point", "coordinates": [-57.916238946032706, 48.94772420236454]}},
{"type": "Feature", "id": "I8l8i7EeCMI11qAn2Tysja8-AkI=", "properties": {"ref": "916", "@spider": "bostonpizza", "addr:full": "F3-35 Kelsey Dr", "addr:city": "St. John's", "addr:state": "NL", "addr:postcode": "A1B 5C8", "addr:country": "Canada", "name": "Kelsey Drive", "opening_hours": "Mo 11:00-00:00; Tu-Th 11:00-01:00; Fr-Sa 11:00-02:00; Su 11:00-00:00", "brand": "Boston Pizza"}, "geometry": {"type": "Point", "coordinates": [-52.779552565937756, 47.5508822468475]}},
{"type": "Feature", "id": "KJgFqDE0vLFfU3_GXMA28I8ocvI=", "properties": {"ref": "914", "@spider": "bostonpizza", "addr:full": "415 Stavanger Drive", "addr:city": "St. John's", "addr:state": "NL", "addr:postcode": "A1A 0A1", "addr:country": "Canada", "name": "Stavanger", "opening_hours": "Mo 11:00-00:00; Tu-Th 11:00-01:00; Fr-Sa 11:00-02:00; Su 11:00-00:00", "brand": "Boston Pizza"}, "geometry": {"type": "Point", "coordinates": [-52.708853277838955, 47.61433470423692]}},
{"type": "Feature", "id": "SIy0UrRYE43etjRP9LYi0ETpbNs=", "properties": {"ref": "924", "@spider": "bostonpizza", "addr:full": "367 Water St", "addr:city": "St. John's", "addr:state": "NL", "addr:postcode": "A1C 1C2", "addr:country": "Canada", "name": "Water Street", "opening_hours": "Mo 16:00-00:00; Tu-Th 16:00-01:00; Fr-Sa 11:00-02:00; Su 16:00-00:00", "brand": "Boston Pizza"}, "geometry": {"type": "Point", "coordinates": [-52.71147, 47.56038]}}]}