{"type":"FeatureCollection","features":[{"type": "Feature", "id": "URjW3fshCQS3GFBPDgOD0KfVqlM=", "properties": {"ref": "1137", "@spider": "boston_market", "addr:full": "15784 North Frank Lloyd Wright Blvd.", "addr:housenumber": "15784", "addr:street": "North Frank Lloyd Wright Blvd.", "addr:city": "Scottsdale", "addr:state": "AZ", "addr:postcode": "85260", "name": "Scottsdale #1137", "phone": "480-614-9744", "website": "http://www.bostonmarket.com/location/scottsdale-az-1137/", "opening_hours": "Sunday-Saturday 11:00-22:00", "brand": "Boston Market"}, "geometry": {"type": "Point", "coordinates": [-111.88884, 33.62962]}},
{"type": "Feature", "id": "UF3aFVOT2enNjJGXkSOLe-bqvaY=", "properties": {"ref": "2407", "@spider": "boston_market", "addr:full": "5825 W. Peoria Ave.", "addr:housenumber": "5825", "addr:street": "W. Peoria Ave.", "addr:city": "Glendale", "addr:state": "AZ", "addr:postcode": "85302", "name": "Glendale #2407", "phone": "623-915-2900", "website": "http://www.bostonmarket.com/location/glendale-az-2407/", "opening_hours": "Sunday-Saturday 11:00-22:00", "brand": "Boston Market"}, "geometry": {"type": "Point", "coordinates": [-112.184479, 33.581848]}},
{"type": "Feature", "id": "cMeW0vyh136dfLY_Y98qYteb5K4=", "properties": {"ref": "272", "@spider": "boston_market", "addr:full": "8001 N. 19th Ave.", "addr:housenumber": "8001", "addr:street": "N. 19th Ave.", "addr:city": "Phoenix", "addr:state": "AZ", "addr:postcode": "85021", "name": "Phoenix #272", "phone": "602-944-7000", "website": "http://www.bostonmarket.com/location/phoenix-az-272/", "opening_hours": "Sunday-Saturday 11:00-20:00", "brand": "Boston Market"}, "geometry": {"type": "Point", "coordinates": [-112.099678, 33.553471]}},
{"type": "Feature", "id": "UvfKuy-Gkop19FHtcB0x5SwVRiw=", "properties": {"ref": "282", "@spider": "boston_market", "addr:full": "6665 W. Bell Rd.", "addr:housenumber": "6665", "addr:street": "W. Bell Rd.", "addr:city": "Glendale", "addr:state": "AZ", "addr:postcode": "85306", "name": "Glendale #282", "phone": "623-979-4949", "website": "http://www.bostonmarket.com/location/glendale-az-282/", "opening_hours": "Sunday-Saturday 11:00-22:00", "brand": "Boston Market"}, "geometry": {"type": "Point", "coordinates": [-112.201881, 33.638241]}},
{"type": "Feature", "id": "VnB1nBMO6ok0xJNWT5beLHoSIfA=", "properties": {"ref": "426", "@spider": "boston_market", "addr:full": "3435 S. McClintock Dr.", "addr:housenumber": "3435", "addr:street": "S. McClintock Dr.", "addr:city": "Tempe", "addr:state": "AZ", "addr:postcode": "85282", "name": "Tempe #426", "phone": "480-831-8822", "website": "http://www.bostonmarket.com/location/tempe-az-426/", "opening_hours": "Sunday-Saturday 11:00-20:00", "brand": "Boston Market"}, "geometry": {"type": "Point", "coordinates": [-111.909149, 33.391369]}},
{"type": "Feature", "id": "kPBxrcPQl2TPkY3Ve4UzG7BSYZg=", "properties": {"ref": "698", "@spider": "boston_market", "addr:full": "236 East Bell Road", "addr:housenumber": "236", "addr:street": "East Bell Road", "addr:city": "Phoenix", "addr:state": "AZ", "addr:postcode": "85022", "name": "Phoenix #698", "phone": "602-866-3311", "website": "http://www.bostonmarket.com/location/phoenix-az-698/", "opening_hours": "Sunday-Saturday 11:00-22:00", "brand": "Boston Market"}, "geometry": {"type": "Point", "coordinates": [-112.070229, 33.640369]}},
{"type": "Feature", "id": "qWoupONZV7nfmh12l7692RNNGJ0=", "properties": {"ref": "880", "@spider": "boston_market", "addr:full": "1010 N. Alma School Road", "addr:housenumber": "1010", "addr:street": "N. Alma School Road", "addr:city": "Chandler", "addr:state": "AZ", "addr:postcode": "85224", "name": "Chandler #880", "phone": "480-786-3535", "website": "http://www.bostonmarket.com/location/chandler-az-880/", "opening_hours": "Sunday-Saturday 11:00-22:00", "brand": "Boston Market"}, "geometry": {"type": "Point", "coordinates": [-111.859139, 33.321079]}},
{"type": "Feature", "id": "dQauwfUGHmHpsiTP0Am1JiLwrJI=", "properties": {"ref": "918", "@spider": "boston_market", "addr:full": "2712 N. Scottsdale Road", "addr:housenumber": "2712", "addr:street": "N. Scottsdale Road", "addr:city": "Scottsdale", "addr:state": "AZ", "addr:postcode": "85251", "name": "Scottsdale #918", "phone": "480-949-6689", "website": "http://www.bostonmarket.com/location/scottsdale-az-918/", "opening_hours": "Sunday-Saturday 11:00-22:00", "brand": "Boston Market"}, "geometry": {"type": "Point", "coordinates": [-111.926636, 33.478184]}},
{"type": "Feature", "id": "cz-ojcLzdzU8zGvvm1oTpeFm28w=", "properties": {"ref": "117", "@spider": "boston_market", "addr:full": "1982 Black Rock Turnpike", "addr:housenumber": "1982", "addr:street": "Black Rock Turnpike", "addr:city": "Fairfield", "addr:state": "CT", "addr:postcode": "06825", "name": "Fairfield #117", "phone": "203-382-8090", "website": "http://www.bostonmarket.com/location/fairfield-ct-117/", "opening_hours": "Sunday-Saturday 11:00-22:00", "brand": "Boston Market"}, "geometry": {"type": "Point", "coordinates": [-73.249455, 41.180866]}},
{"type": "Feature", "id": "YkXeDwIluBsiCvygb9VUd0z81V0=", "properties": {"ref": "148", "@spider": "boston_market", "addr:full": "1240 Farmington Ave.", "addr:housenumber": "1240", "addr:street": "Farmington Ave.", "addr:city": "West Hartford", "addr:state": "CT", "addr:postcode": "06107", "name": "West Hartford #148", "phone": "860-561-6150", "website": "http://www.bostonmarket.com/location/west-hartford-ct-148/", "opening_hours": "Sunday-Saturday 11:00-22:00", "brand": "Boston Market"}, "geometry": {"type": "Point", "coordinates": [-72.766318, 41.754732]}},
{"type": "Feature", "id": "FVYhY83braWfAjAmb355gP0AR0Y=", "properties": {"ref": "1786", "@spider": "boston_market", "addr:full": "1454 Boston Post Road", "addr:housenumber": "1454", "addr:street": "Boston Post Road", "addr:city": "Milford", "addr:state": "CT", "addr:postcode": "06460", "name": "Milford #1786", "phone": "203-878-4500", "website": "http://www.bostonmarket.com/location/milford-ct-1786/", "opening_hours": "Sunday-Saturday 11:00-22:00", "brand": "Boston Market"}, "geometry": {"type": "Point", "coordinates": [-73.031624, 41.24226]}},
{"type": "Feature", "id": "eAiFS8Y7fpLCWaycPdUWzvBWuGA=", "properties": {"ref": "1841", "@spider": "boston_market", "addr:full": "14 Danbury Road", "addr:housenumber": "14", "addr:street": "Danbury Road", "addr:city": "Wilton", "addr:state": "CT", "addr:postcode": "06897", "name": "Wilton #1841", "phone": "203-834-2400", "website": "http://www.bostonmarket.com/location/wilton-ct-1841/", "opening_hours": "Sunday-Saturday 11:00-22:00", "brand": "Boston Market"}, "geometry": {"type": "Point", "coordinates": [-73.419014, 41.162064]}},
{"type": "Feature", "id": "SO08oaaE4Asn4AnHfXjO6tSayW0=", "properties": {"ref": "56", "@spider": "boston_market", "addr:full": "61 Newtown Road", "addr:housenumber": "61", "addr:street": "Newtown Road", "addr:city": "Danbury", "addr:state": "CT", "addr:postcode": "06810", "name": "Danbury #56", "phone": "203-792-4868", "website": "http://www.bostonmarket.com/location/danbury-ct-56/", "opening_hours": "Sunday-Saturday 11:00-22:00", "brand": "Boston Market"}, "geometry": {"type": "Point", "coordinates": [-73.41982, 41.405571]}},
{"type": "Feature", "id": "hgcDeDu6NycYAdZvSwmLImcO4os=", "properties": {"ref": "582", "@spider": "boston_market", "addr:full": "935 Barnum Avenue Cut Off", "addr:housenumber": "935", "addr:street": "Barnum Avenue Cut Off", "addr:city": "Stratford", "addr:state": "CT", "addr:postcode": "06614", "name": "Stratford #582", "phone": "203-378-8508", "website": "http://www.bostonmarket.com/location/stratford-ct-582/", "opening_hours": "Sunday-Saturday 11:00-22:00", "brand": "Boston Market"}, "geometry": {"type": "Point", "coordinates": [-73.130551, 41.198985]}},
{"type": "Feature", "id": "7LL484Vf7MBHCLexa0i5mrjyZik=", "properties": {"ref": "596", "@spider": "boston_market", "addr:full": "2495 Berlin Tpke", "addr:housenumber": "2495", "addr:street": "Berlin Tpke", "addr:city": "Newington", "addr:state": "CT", "addr:postcode": "06111", "name": "Newington #596", "phone": "860-665-7542", "website": "http://www.bostonmarket.com/location/newington-ct-596/", "opening_hours": "Sunday-Saturday 11:00-22:00", "brand": "Boston Market"}, "geometry": {"type": "Point", "coordinates": [-72.709845, 41.683928]}},
{"type": "Feature", "id": "dUL3cd8KF6ZkQZ6s5uVle5tkCuY=", "properties": {"ref": "672", "@spider": "boston_market", "addr:full": "96 Frontage Rd.", "addr:housenumber": "96", "addr:street": "Frontage Rd.", "addr:city": "East Haven", "addr:state": "CT", "addr:postcode": "06512", "name": "East Haven #672", "phone": "203-467-4472", "website": "http://www.bostonmarket.com/location/east-haven-ct-672/", "opening_hours": "Sunday-Thursday 11:00-23:00; Friday-Saturday 11:00-00:00", "brand": "Boston Market"}, "geometry": {"type": "Point", "coordinates": [-72.880408, 41.286295]}},
{"type": "Feature", "id": "9ubMRmvGXz7oAt2_DAK_PTTaSdA=", "properties": {"ref": "700", "@spider": "boston_market", "addr:full": "45 Farmington Ave", "addr:housenumber": "45", "addr:street": "Farmington Ave", "addr:city": "Bristol", "addr:state": "CT", "addr:postcode": "06010", "name": "Bristol #700", "phone": "860-314-0102", "website": "http://www.bostonmarket.com/location/bristol-ct-700/", "opening_hours": "Sunday-Thursday 11:00-23:00; Friday-Saturday 11:00-00:00", "brand": "Boston Market"}, "geometry": {"type": "Point", "coordinates": [-72.941249, 41.683147]}},
{"type": "Feature", "id": "269n3dCCe9sg-J9KPG12qOaX31s=", "properties": {"ref": "701", "@spider": "boston_market", "addr:full": "417 Cottage Grove Rd.", "addr:housenumber": "417", "addr:street": "Cottage Grove Rd.", "addr:city": "Bloomfield", "addr:state": "CT", "addr:postcode": "06002", "name": "Bloomfield #701", "phone": "860-243-3400", "website": "http://www.bostonmarket.com/location/bloomfield-ct-701/", "opening_hours": "Sunday-Saturday 11:00-21:00", "brand": "Boston Market"}, "geometry": {"type": "Point", "coordinates": [-72.718148, 41.817808]}},
{"type": "Feature", "id": "X9dMDc5jitR58BsG7glZnd_TYig=", "properties": {"ref": "786", "@spider": "boston_market", "addr:full": "755 East Main St", "addr:housenumber": "755", "addr:street": "East Main St", "addr:city": "Meriden", "addr:state": "CT", "addr:postcode": "06450", "name": "Meriden #786", "phone": "203-634-7677", "website": "http://www.bostonmarket.com/location/meriden-ct-786/", "opening_hours": "Sunday-Thursday 11:00-23:00; Friday-Saturday 11:00-00:00", "brand": "Boston Market"}, "geometry": {"type": "Point", "coordinates": [-72.778247, 41.529287]}},
{"type": "Feature", "id": "Ix6IBtGSPkQYtFnzyV9cuHeh5Xc=", "properties": {"ref": "92", "@spider": "boston_market", "addr:full": "1345 E. Putnam Avenue", "addr:housenumber": "1345", "addr:street": "E. Putnam Avenue", "addr:city": "Old Greenwich", "addr:state": "CT", "addr:postcode": "06870", "name": "Old Greenwich #92", "phone": "203-637-4088", "website": "http://www.bostonmarket.com/location/old-greenwich-ct-92/", "opening_hours": "Sunday-Thursday 11:00-23:00; Friday-Saturday 11:00-00:00", "brand": "Boston Market"}, "geometry": {"type": "Point", "coordinates": [-73.573463, 41.043842]}},
{"type": "Feature", "id": "wmxLa3VB0mmgYAcvlRHwBfZKiDc=", "properties": {"ref": "1050", "@spider": "boston_market", "addr:full": "17100 Hawthorne Blvd.", "addr:housenumber": "17100", "addr:street": "Hawthorne Blvd.", "addr:city": "Lawndale", "addr:state": "CA", "addr:postcode": "90260", "name": "Lawndale #1050", "phone": "310-214-3318", "website": "http://www.bostonmarket.com/location/lawndale-ca-1050/", "opening_hours": "Sunday-Saturday 11:00-23:00", "brand": "Boston Market"}, "geometry": {"type": "Point", "coordinates": [-118.352394, 33.875458]}},
{"type": "Feature", "id": "WCWsk3mVwu6UNeKez2eycJVVvJg=", "properties": {"ref": "1121", "@spider": "boston_market", "addr:full": "952 W Arrow Highway", "addr:housenumber": "952", "addr:street": "W Arrow Highway", "addr:city": "San Dimas", "addr:state": "CA", "addr:postcode": "91773", "name": "San Dimas #1121", "phone": "909-592-7003", "website": "http://www.bostonmarket.com/location/san-dimas-ca-1121/", "opening_hours": "Sunday-Saturday 11:00-22:00", "brand": "Boston Market"}, "geometry": {"type": "Point", "coordinates": [-117.8265, 34.106609]}},
{"type": "Feature", "id": "bJwXYJiNw_WMJBiLPcY6IPwyvdA=", "properties": {"ref": "1126", "@spider": "boston_market", "addr:full": "880 Blossom Hill Road", "addr:housenumber": "880", "addr:street": "Blossom Hill Road", "addr:city": "San Jose", "addr:state": "CA", "addr:postcode": "95123", "name": "San Jose #1126", "phone": "408-972-8900", "website": "http://www.bostonmarket.com/location/san-jose-ca-1126/", "opening_hours": "Sunday-Saturday 11:00-22:00", "brand": "Boston Market"}, "geometry": {"type": "Point", "coordinates": [-121.859436, 37.250294]}},
{"type": "Feature", "id": "I8iuh6BSGR9YQSKuiNdIwlXbVgw=", "properties": {"ref": "1297", "@spider": "boston_market", "addr:full": "5132 Broadway", "addr:housenumber": "5132", "addr:street": "Broadway", "addr:city": "Oakland", "addr:state": "CA", "addr:postcode": "94611", "name": "Oakland #1297", "phone": "510-601-0300", "website": "http://www.bostonmarket.com/location/oakland-ca-1297/", "opening_hours": "Sunday-Saturday 11:00-22:00", "brand": "Boston Market"}, "geometry": {"type": "Point", "coordinates": [-122.251691, 37.835273]}},
{"type": "Feature", "id": "UNQ78-R_fqOd44ft9ivzsBAycX4=", "properties": {"ref": "1300", "@spider": "boston_market", "addr:full": "2006 El Camino Real", "addr:housenumber": "2006", "addr:street": "El Camino Real", "addr:city": "Santa Clara", "addr:state": "CA", "addr:postcode": "95050", "name": "Santa Clara #1300", "phone": "408-247-7333", "website": "http://www.bostonmarket.com/location/santa-clara-ca-1300/", "opening_hours": "Sunday-Saturday 11:00-22:00", "brand": "Boston Market"}, "geometry": {"type": "Point", "coordinates": [-121.961075, 37.35231]}},
{"type": "Feature", "id": "SyGLWrW7-mCqpGFjQrHHiB647aQ=", "properties": {"ref": "1333", "@spider": "boston_market", "addr:full": "5502 Balboa Ave", "addr:housenumber": "5502", "addr:street": "Balboa Ave", "addr:city": "San Diego", "addr:state": "CA", "addr:postcode": "92111", "name": "San Diego #1333", "phone": "858-292-0099", "website": "http://www.bostonmarket.com/location/san-diego-ca-1333/", "opening_hours": "Sunday-Saturday 11:00-22:00", "brand": "Boston Market"}, "geometry": {"type": "Point", "coordinates": [-117.180985, 32.819789]}},
{"type": "Feature", "id": "LQ4OvQI7zJxpOUVke5jquBfKRJ8=", "properties": {"ref": "1334", "@spider": "boston_market", "addr:full": "1554 S. Bascom Avenue", "addr:housenumber": "1554", "addr:street": "S. Bascom Avenue", "addr:city": "San Jose", "addr:state": "CA", "addr:postcode": "95125", "name": "San Jose #1334", "phone": "408-369-7900", "website": "http://www.bostonmarket.com/location/san-jose-ca-1334/", "opening_hours": "Sunday-Saturday 11:00-22:00", "brand": "Boston Market"}, "geometry": {"type": "Point", "coordinates": [-121.93161, 37.294872]}},
{"type": "Feature", "id": "XNyZTOP_NOjsjcgkTOrHjF8sc5o=", "properties": {"ref": "1384", "@spider": "boston_market", "addr:full": "332 Gellert Boulevard", "addr:housenumber": "332", "addr:street": "Gellert Boulevard", "addr:city": "Daly City", "addr:state": "CA", "addr:postcode": "94015", "name": "Daly City #1384", "phone": "650-755-3700", "website": "http://www.bostonmarket.com/location/daly-city-ca-1384/", "opening_hours": "Sunday-Saturday 11:00-22:00", "brand": "Boston Market"}, "geometry": {"type": "Point", "coordinates": [-122.468823, 37.667382]}},
{"type": "Feature", "id": "C6pg_Ue5ZZHCO7p6wVGeWWgiZdU=", "properties": {"ref": "1386", "@spider": "boston_market", "addr:full": "2300 16th Street.", "addr:housenumber": "2300", "addr:street": "16th Street.", "addr:city": "San Francisco", "addr:state": "CA", "addr:postcode": "94103", "name": "San Francisco #1386", "phone": "415-864-7666", "website": "http://www.bostonmarket.com/location/san-francisco-ca-1386/", "opening_hours": "Sunday-Saturday 11:00-22:00", "brand": "Boston Market"}, "geometry": {"type": "Point", "coordinates": [-122.409309, 37.765705]}},
{"type": "Feature", "id": "z40QBGEMAddnwtDn77tbVOK2pKI=", "properties": {"ref": "1551", "@spider": "boston_market", "addr:full": "8606 Firestone Blvd.", "addr:housenumber": "8606", "addr:street": "Firestone Blvd.", "addr:city": "Downey", "addr:state": "CA", "addr:postcode": "90241", "name": "Downey #1551", "phone": "562-923-5247", "website": "http://www.bostonmarket.com/location/downey-ca-1551/", "opening_hours": "Sunday-Saturday 11:00-21:00", "brand": "Boston Market"}, "geometry": {"type": "Point", "coordinates": [-118.127564, 33.937248]}},
{"type": "Feature", "id": "Z_CLlo6Jp3oSCkFtkVIvHmG3Tw0=", "properties": {"ref": "1961", "@spider": "boston_market", "addr:full": "2180 Contra Costa Blvd.", "addr:housenumber": "2180", "addr:street": "Contra Costa Blvd.", "addr:city": "Pleasant Hill", "addr:state": "CA", "addr:postcode": "94523", "name": "Pleasant Hill #1961", "phone": "925-691-5900", "website": "http://www.bostonmarket.com/location/pleasant-hill-ca-1961/", "opening_hours": "Sunday-Saturday 11:00-20:00", "brand": "Boston Market"}, "geometry": {"type": "Point", "coordinates": [-122.060097, 37.94703]}},
{"type": "Feature", "id": "ItEZvQ_eujTkToouhUIQdctXoA4=", "properties": {"ref": "2288", "@spider": "boston_market", "addr:full": "3060 East 9th Street", "addr:housenumber": "3060", "addr:street": "East 9th Street", "addr:city": "Oakland", "addr:state": "CA", "addr:postcode": "94601", "name": "Oakland #2288", "phone": "510-261-1995", "website": "http://www.bostonmarket.com/location/oakland-ca-2288/", "opening_hours": "Sunday-Saturday 11:00-22:00", "brand": "Boston Market"}, "geometry": {"type": "Point", "coordinates": [-122.228976, 37.773829]}},
{"type": "Feature", "id": "uc1jTm2rlX935_Ei_MwtTlSn2oY=", "properties": {"ref": "454", "@spider": "boston_market", "addr:full": "2300 Fair Oaks Blvd.", "addr:housenumber": "2300", "addr:street": "Fair Oaks Blvd.", "addr:city": "Sacramento", "addr:state": "CA", "addr:postcode": "95825", "name": "Sacramento #454", "phone": "916-568-6300", "website": "http://www.bostonmarket.com/location/sacramento-ca-454/", "opening_hours": "Sunday-Saturday 11:00-22:00", "brand": "Boston Market"}, "geometry": {"type": "Point", "coordinates": [-121.410622, 38.574139]}},
{"type": "Feature", "id": "uWKByYwjZ_ZYf8DEf3dOb-7XDuA=", "properties": {"ref": "510", "@spider": "boston_market", "addr:full": "110 E. Bullard", "addr:housenumber": "110", "addr:street": "E. Bullard", "addr:city": "Fresno", "addr:state": "CA", "addr:postcode": "93711", "name": "Fresno #510", "phone": "559-436-4455", "website": "http://www.bostonmarket.com/location/fresno-ca-510/", "opening_hours": "Sunday-Saturday 11:00-22:00", "brand": "Boston Market"}, "geometry": {"type": "Point", "coordinates": [-119.787949, 36.823013]}},
{"type": "Feature", "id": "RmVVw2TDDCBy5eY_dzcRkJbLWd4=", "properties": {"ref": "578", "@spider": "boston_market", "addr:full": "5003 Foothills Blvd.", "addr:housenumber": "5003", "addr:street": "Foothills Blvd.", "addr:city": "Roseville", "addr:state": "CA", "addr:postcode": "95747", "name": "Roseville #578", "phone": "916-783-9300", "website": "http://www.bostonmarket.com/location/roseville-ca-578/", "opening_hours": "Sunday-Saturday 11:00-22:00", "brand": "Boston Market"}, "geometry": {"type": "Point", "coordinates": [-121.309921, 38.759705]}},
{"type": "Feature", "id": "8J8_gnCL8DN2wEHAXG9dhAJGLwU=", "properties": {"ref": "631", "@spider": "boston_market", "addr:full": "14480 Sherman Way", "addr:housenumber": "14480", "addr:street": "Sherman Way", "addr:city": "Van Nuys", "addr:state": "CA", "addr:postcode": "91405", "name": "Van Nuys #631", "phone": "818-994-0700", "website": "http://www.bostonmarket.com/location/van-nuys-ca-631/", "opening_hours": "Sunday-Saturday 11:00-22:00", "brand": "Boston Market"}, "geometry": {"type": "Point", "coordinates": [-118.448371, 34.201148]}},
{"type": "Feature", "id": "ZztIaA89oYjzk7boVBk7CPvo7fw=", "properties": {"ref": "647", "@spider": "boston_market", "addr:full": "16972 Goldenwest Street", "addr:housenumber": "16972", "addr:street": "Goldenwest Street", "addr:city": "Huntington Beach", "addr:state": "CA", "addr:postcode": "92647", "name": "Huntington Beach #647", "phone": "714-841-3511", "website": "http://www.bostonmarket.com/location/huntington-beach-ca-647/", "opening_hours": "Sunday-Saturday 11:00-22:00", "brand": "Boston Market"}, "geometry": {"type": "Point", "coordinates": [-118.006599, 33.715935]}},
{"type": "Feature", "id": "lHbaG5NYH-zpvfYppOFnXcB4R3w=", "properties": {"ref": "664", "@spider": "boston_market", "addr:full": "2020 Atlantic Blvd.", "addr:housenumber": "2020", "addr:street": "Atlantic Blvd.", "addr:city": "Monterey Park", "addr:state": "CA", "addr:postcode": "91754", "name": "Monterey Park #664", "phone": "323-887-7500", "website": "http://www.bostonmarket.com/location/monterey-park-ca-664/", "opening_hours": "Sunday-Saturday 11:00-22:00", "brand": "Boston Market"}, "geometry": {"type": "Point", "coordinates": [-118.142316, 34.040149]}},
{"type": "Feature", "id": "NL6MZPzzJWPgKQIdrbS15t59Hc4=", "properties": {"ref": "671", "@spider": "boston_market", "addr:full": "637 E. Nees", "addr:housenumber": "637", "addr:street": "E. Nees", "addr:city": "Fresno", "addr:state": "CA", "addr:postcode": "93720", "name": "Fresno #671", "phone": "559-440-0500", "website": "http://www.bostonmarket.com/location/fresno-ca-671/", "opening_hours": "Sunday-Saturday 11:00-22:00", "brand": "Boston Market"}, "geometry": {"type": "Point", "coordinates": [-119.773678, 36.851825]}},
{"type": "Feature", "id": "JavWWFd-UjQQy7OJf1EHjw08ZsQ=", "properties": {"ref": "735", "@spider": "boston_market", "addr:full": "706 Fletcher Parkway", "addr:housenumber": "706", "addr:street": "Fletcher Parkway", "addr:city": "El Cajon", "addr:state": "CA", "addr:postcode": "92020", "name": "El Cajon #735", "phone": "619-447-6669", "website": "http://www.bostonmarket.com/location/el-cajon-ca-735/", "opening_hours": "Sunday-Saturday 11:00-22:00", "brand": "Boston Market"}, "geometry": {"type": "Point", "coordinates": [-116.971375, 32.807781]}},
{"type": "Feature", "id": "hDkGbEvhtXmmX7ywQRM2MMbXz1g=", "properties": {"ref": "842", "@spider": "boston_market", "addr:full": "10890 Foothill Blvd.", "addr:housenumber": "10890", "addr:street": "Foothill Blvd.", "addr:city": "Rancho Cucamonga", "addr:state": "CA", "addr:postcode": "91730", "name": "Rancho Cucamonga #842", "phone": "909-989-1252", "website": "http://www.bostonmarket.com/location/rancho-cucamonga-ca-842/", "opening_hours": "Sunday-Saturday 11:00-22:00", "brand": "Boston Market"}, "geometry": {"type": "Point", "coordinates": [-117.567452, 34.106575]}},
{"type": "Feature", "id": "1elBKDr1JIoQso-wj7PN15tVyLo=", "properties": {"ref": "873", "@spider": "boston_market", "addr:full": "27100 Alicia Parkway", "addr:housenumber": "27100", "addr:street": "Alicia Parkway", "addr:city": "Laguna Niguel", "addr:state": "CA", "addr:postcode": "92677", "name": "Laguna Niguel #873", "phone": "949-360-9860", "website": "http://www.bostonmarket.com/location/laguna-niguel-ca-873/", "opening_hours": "Sunday-Saturday 11:00-22:00", "brand": "Boston Market"}, "geometry": {"type": "Point", "coordinates": [-117.714593, 33.569643]}},
{"type": "Feature", "id": "5pXuWWUkejxfSOcwof1LZOQDb9Y=", "properties": {"ref": "969", "@spider": "boston_market", "addr:full": "2799 Harbor Boulevard", "addr:housenumber": "2799", "addr:street": "Harbor Boulevard", "addr:city": "Costa Mesa", "addr:state": "CA", "addr:postcode": "92626", "name": "Costa Mesa #969", "phone": "714-437-0034", "website": "http://www.bostonmarket.com/location/costa-mesa-ca-969/", "opening_hours": "Sunday-Saturday 11:00-20:00", "brand": "Boston Market"}, "geometry": {"type": "Point", "coordinates": [-117.919334, 33.672943]}},
{"type": "Feature", "id": "kw4P90WtHWhdZBGQXJNR7TjXyOM=", "properties": {"ref": "994", "@spider": "boston_market", "addr:full": "3966 Mowry Avenue", "addr:housenumber": "3966", "addr:street": "Mowry Avenue", "addr:city": "Fremont", "addr:state": "CA", "addr:postcode": "94538", "name": "Fremont #994", "phone": "510-791-1191", "website": "http://www.bostonmarket.com/location/fremont-ca-994/", "opening_hours": "Sunday-Saturday 11:00-23:00", "brand": "Boston Market"}, "geometry": {"type": "Point", "coordinates": [-121.988068, 37.548846]}},
{"type": "Feature", "id": "i7D4fs6g-dUVw9EwQhEGpIn98Bc=", "properties": {"ref": "1158", "@spider": "boston_market", "addr:full": "3900 Concord Pike", "addr:housenumber": "3900", "addr:street": "Concord Pike", "addr:city": "Wilmington", "addr:state": "DE", "addr:postcode": "19803", "name": "Wilmington #1158", "phone": "302-478-1777", "website": "http://www.bostonmarket.com/location/wilmington-de-1158/", "opening_hours": "Sunday-Saturday 11:00-22:00", "brand": "Boston Market"}, "geometry": {"type": "Point", "coordinates": [-75.549492, 39.807114]}},
{"type": "Feature", "id": "eR9SMC9P4lDHdvkQ-GuF6rdsrac=", "properties": {"ref": "361", "@spider": "boston_market", "addr:full": "1050 S. College Ave.", "addr:housenumber": "1050", "addr:street": "S. College Ave.", "addr:city": "Newark", "addr:state": "DE", "addr:postcode": "19711", "name": "Newark #361", "phone": "302-369-3389", "website": "http://www.bostonmarket.com/location/newark-de-361/", "opening_hours": "Sunday-Saturday 11:00-22:00", "brand": "Boston Market"}, "geometry": {"type": "Point", "coordinates": [-75.749901, 39.651955]}},
{"type": "Feature", "id": "EsdPziBUU1qeIBSFeza6gAW0ELE=", "properties": {"ref": "376", "@spider": "boston_market", "addr:full": "3130 Kirkwood Highway", "addr:housenumber": "3130", "addr:street": "Kirkwood Highway", "addr:city": "Wilmington", "addr:state": "DE", "addr:postcode": "19808", "name": "Wilmington #376", "phone": "302-998-1602", "website": "http://www.bostonmarket.com/location/wilmington-de-376/", "opening_hours": "Sunday-Saturday 11:00-22:00", "brand": "Boston Market"}, "geometry": {"type": "Point", "coordinates": [-75.623451, 39.737347]}},
{"type": "Feature", "id": "3nuAQgKPuzNLdzrmU2MVYpUEP_s=", "properties": {"ref": "382", "@spider": "boston_market", "addr:full": "3603 Philadelphia Pk.", "addr:housenumber": "3603", "addr:street": "Philadelphia Pk.", "addr:city": "Claymont", "addr:state": "DE", "addr:postcode": "19703", "name": "Claymont #382", "phone": "302-798-5300", "website": "http://www.bostonmarket.com/location/claymont-de-382/", "opening_hours": "Sunday-Saturday 11:00-22:00", "brand": "Boston Market"}, "geometry": {"type": "Point", "coordinates": [-75.456001, 39.803558]}},
{"type": "Feature", "id": "bV09c4XGEvrC31Hgxyx-uHkGq2Q=", "properties": {"ref": "404", "@spider": "boston_market", "addr:full": "1611 Pennsylvania Ave.", "addr:housenumber": "1611", "addr:street": "Pennsylvania Ave.", "addr:city": "Wilmington", "addr:state": "DE", "addr:postcode": "19806", "name": "Wilmington #404", "phone": "302-652-0765", "website": "http://www.bostonmarket.com/location/wilmington-de-404/", "opening_hours": "Sunday-Saturday 11:00-22:00", "brand": "Boston Market"}, "geometry": {"type": "Point", "coordinates": [-75.564495, 39.754701]}},
{"type": "Feature", "id": "NlygoADToiIf1ZuNnCe2HsMt8IQ=", "properties": {"ref": "639", "@spider": "boston_market", "addr:full": "1151 N. Dupont Hwy", "addr:housenumber": "1151", "addr:street": "N. Dupont Hwy", "addr:city": "Dover", "addr:state": "DE", "addr:postcode": "19901", "name": "Dover #639", "phone": "302-734-8431", "website": "http://www.bostonmarket.com/location/dover-de-639/", "opening_hours": "Sunday-Saturday 11:00-22:00", "brand": "Boston Market"}, "geometry": {"type": "Point", "coordinates": [-75.537907, 39.187508]}},
{"type": "Feature", "id": "58ZOI7fFsJ24a3D5fdsud4GYeV8=", "properties": {"ref": "916", "@spider": "boston_market", "addr:full": "300 University Plaza", "addr:housenumber": "300", "addr:street": "University Plaza", "addr:city": "Newark", "addr:state": "DE", "addr:postcode": "19702", "name": "Newark #916", "phone": "302-452-5120", "website": "http://www.bostonmarket.com/location/newark-de-916/", "opening_hours": "Sunday-Saturday 11:00-22:00", "brand": "Boston Market"}, "geometry": {"type": "Point", "coordinates": [-75.66796, 39.667109]}},
{"type": "Feature", "id": "H8IDYf_7AbDE_nWdpMJ-26LoQTU=", "properties": {"ref": "1182", "@spider": "boston_market", "addr:full": "3820 N. Wadsworth Blvd.", "addr:housenumber": "3820", "addr:street": "N. Wadsworth Blvd.", "addr:city": "Wheat Ridge", "addr:state": "CO", "addr:postcode": "80033", "name": "Wheat Ridge #1182", "phone": "303-420-3444", "website": "http://www.bostonmarket.com/location/wheat-ridge-co-1182/", "opening_hours": "Sunday-Saturday 11:00-20:00", "brand": "Boston Market"}, "geometry": {"type": "Point", "coordinates": [-105.081459, 39.770145]}},
{"type": "Feature", "id": "sn7nIdvSyZdtkR6U-CAAxZtUQTk=", "properties": {"ref": "1755", "@spider": "boston_market", "addr:full": "14110 E. Illiff Ave.", "addr:housenumber": "14110", "addr:street": "E. Illiff Ave.", "addr:city": "Aurora", "addr:state": "CO", "addr:postcode": "80014", "name": "Aurora #1755", "phone": "303-755-4032", "website": "http://www.bostonmarket.com/location/aurora-co-1755/", "opening_hours": "Sunday-Saturday 11:00-20:00", "brand": "Boston Market"}, "geometry": {"type": "Point", "coordinates": [-104.823616, 39.674778]}},
{"type": "Feature", "id": "g1jOIH4FS58E2eSGqpNU93ki-UQ=", "properties": {"ref": "207", "@spider": "boston_market", "addr:full": "8507 E. Arapahoe Road", "addr:housenumber": "8507", "addr:street": "E. Arapahoe Road", "addr:city": "Greenwood Village", "addr:state": "CO", "addr:postcode": "80112", "name": "Greenwood Village #207", "phone": "303-689-0040", "website": "http://www.bostonmarket.com/location/greenwood-village-co-207/", "opening_hours": "Sunday-Saturday 11:00-19:00", "brand": "Boston Market"}, "geometry": {"type": "Point", "coordinates": [-104.890662, 39.595165]}},
{"type": "Feature", "id": "MI60c6Mofka4Mm7nKl8zKz1vaOM=", "properties": {"ref": "218", "@spider": "boston_market", "addr:full": "8500 W. Crestline Ave.", "addr:housenumber": "8500", "addr:street": "W. Crestline Ave.", "addr:city": "Littleton", "addr:state": "CO", "addr:postcode": "80123", "name": "Littleton #218", "phone": "303-979-4919", "website": "http://www.bostonmarket.com/location/littleton-co-218/", "opening_hours": "Sunday-Saturday 11:00-20:00", "brand": "Boston Market"}, "geometry": {"type": "Point", "coordinates": [-105.093132, 39.618321]}},
{"type": "Feature", "id": "XNlq_1_3CIAxkrVr4f3TkAnXVTo=", "properties": {"ref": "375", "@spider": "boston_market", "addr:full": "1015 N. Academy Blvd.", "addr:housenumber": "1015", "addr:street": "N. Academy Blvd.", "addr:city": "Colorado Springs", "addr:state": "CO", "addr:postcode": "80909", "name": "Colorado Springs #375", "phone": "719-573-1901", "website": "http://www.bostonmarket.com/location/colorado-springs-co-375/", "opening_hours": "Sunday-Saturday 11:00-20:00", "brand": "Boston Market"}, "geometry": {"type": "Point", "coordinates": [-104.757292, 38.847681]}},
{"type": "Feature", "id": "kEimxrrMSgpEUm2wfHIB7RWY87g=", "properties": {"ref": "498", "@spider": "boston_market", "addr:full": "9269 Sheridan Blvd.", "addr:housenumber": "9269", "addr:street": "Sheridan Blvd.", "addr:city": "Westminster", "addr:state": "CO", "addr:postcode": "80031", "name": "Westminster #498", "phone": "303-426-9110", "website": "http://www.bostonmarket.com/location/westminster-co-498/", "opening_hours": "Sunday-Saturday 11:00-22:00", "brand": "Boston Market"}, "geometry": {"type": "Point", "coordinates": [-105.053322, 39.865772]}},
{"type": "Feature", "id": "cvW-7d5M0Nl8m1lXszv3VK5ID6A=", "properties": {"ref": "1602", "@spider": "boston_market", "addr:full": "2014 Powers Ferry Road SE", "addr:housenumber": "2014", "addr:street": "Powers Ferry Road SE", "addr:city": "Atlanta", "addr:state": "GA", "addr:postcode": "30339", "name": "Atlanta #1602", "phone": "770-988-9020", "website": "http://www.bostonmarket.com/location/atlanta-ga-1602/", "opening_hours": "Sunday-Saturday 11:00-21:00", "brand": "Boston Market"}, "geometry": {"type": "Point", "coordinates": [-84.460297, 33.903679]}},
{"type": "Feature", "id": "fFJ8fO34nQ5Q6vIorGNxyuqv72k=", "properties": {"ref": "553", "@spider": "boston_market", "addr:full": "5170 Stone Mtn. Highway", "addr:housenumber": "5170", "addr:street": "Stone Mtn. Highway", "addr:city": "Stone Mountain", "addr:state": "GA", "addr:postcode": "30087", "name": "Stone Mountain #553", "phone": "770-879-8211", "website": "http://www.bostonmarket.com/location/stone-mountain-ga-553/", "opening_hours": "Sunday-Saturday 11:00-22:00", "brand": "Boston Market"}, "geometry": {"type": "Point", "coordinates": [-84.108046, 33.824017]}},
{"type": "Feature", "id": "urgUqLGJzQjeZdqyJ_0O7Dy98CE=", "properties": {"ref": "935", "@spider": "boston_market", "addr:full": "2535 Briarcliff Road", "addr:housenumber": "2535", "addr:street": "Briarcliff Road", "addr:city": "Atlanta", "addr:state": "GA", "addr:postcode": "30329", "name": "Atlanta #935", "phone": "404-329-0700", "website": "http://www.bostonmarket.com/location/atlanta-ga-935/", "opening_hours": "Sunday-Saturday 11:00-22:00", "brand": "Boston Market"}, "geometry": {"type": "Point", "coordinates": [-84.330147, 33.827404]}},
{"type": "Feature", "id": "CLCh8iexdoBCTsu0bNhbHFHdElw=", "properties": {"ref": "1181", "@spider": "boston_market", "addr:full": "625 S. County Farm Rd.", "addr:housenumber": "625", "addr:street": "S. County Farm Rd.", "addr:city": "Wheaton", "addr:state": "IL", "addr:postcode": "60187", "name": "Wheaton #1181", "phone": "630-871-0100", "website": "http://www.bostonmarket.com/location/wheaton-il-1181/", "opening_hours": "Sunday-Saturday 11:00-21:00", "brand": "Boston Market"}, "geometry": {"type": "Point", "coordinates": [-88.142616, 41.859158]}},
{"type": "Feature", "id": "nZ9rLyK0Uv-5zoP37UBhd-2HFmI=", "properties": {"ref": "170", "@spider": "boston_market", "addr:full": "150 N McHenry Road", "addr:housenumber": "150", "addr:street": "N McHenry Road", "addr:city": "Buffalo Grove", "addr:state": "IL", "addr:postcode": "60089", "name": "Buffalo Grove #170", "phone": "847-459-9777", "website": "http://www.bostonmarket.com/location/buffalo-grove-il-170/", "opening_hours": "Sunday 11:00-20:00; Monday-Saturday 11:00-21:00", "brand": "Boston Market"}, "geometry": {"type": "Point", "coordinates": [-87.959778, 42.156189]}},
{"type": "Feature", "id": "COa6vulTULQveMXSZCDRS6m0lNM=", "properties": {"ref": "205", "@spider": "boston_market", "addr:full": "800 Devon Ave.", "addr:housenumber": "800", "addr:street": "Devon Ave.", "addr:city": "Park Ridge", "addr:state": "IL", "addr:postcode": "60068", "name": "Park Ridge #205", "phone": "847-292-3000", "website": "http://www.bostonmarket.com/location/park-ridge-il-205/", "opening_hours": "Sunday-Saturday 11:00-22:00", "brand": "Boston Market"}, "geometry": {"type": "Point", "coordinates": [-87.832985, 41.996544]}},
{"type": "Feature", "id": "IC4O-2H-W8a6384qx4NsNSlnHAY=", "properties": {"ref": "2520", "@spider": "boston_market", "addr:full": "3020 N Ashland Ave", "addr:housenumber": "3020", "addr:street": "N Ashland Ave", "addr:city": "Chicago", "addr:state": "IL", "addr:postcode": "60657", "name": "Chicago #2520", "phone": "773-529-0071", "website": "http://www.bostonmarket.com/location/chicago-il-2520/", "opening_hours": "Sunday-Saturday 11:00-23:00", "brand": "Boston Market"}, "geometry": {"type": "Point", "coordinates": [-87.668607, 41.93664]}},
{"type": "Feature", "id": "xIROcbZmn49mfLpWKZs1Fw5hcr8=", "properties": {"ref": "260", "@spider": "boston_market", "addr:full": "24 W. Golf Road", "addr:housenumber": "24", "addr:street": "W. Golf Road", "addr:city": "Schaumburg", "addr:state": "IL", "addr:postcode": "60173", "name": "Schaumburg #260", "phone": "847-519-9500", "website": "http://www.bostonmarket.com/location/schaumburg-il-260/", "opening_hours": "Sunday-Saturday 11:00-21:00", "brand": "Boston Market"}, "geometry": {"type": "Point", "coordinates": [-88.080734, 42.049355]}},
{"type": "Feature", "id": "SE8QhcK10vMhZ2VtmFJjAlGnfWU=", "properties": {"ref": "421", "@spider": "boston_market", "addr:full": "1000 S Elmhurst", "addr:housenumber": "1000", "addr:street": "S Elmhurst", "addr:city": "Mt Prospect", "addr:state": "IL", "addr:postcode": "60056", "name": "Mt. Prospect #421", "phone": "847-364-6300", "website": "http://www.bostonmarket.com/location/mt-prospect-il-421/", "opening_hours": "Sunday-Saturday 11:00-22:00", "brand": "Boston Market"}, "geometry": {"type": "Point", "coordinates": [-87.940765, 42.047161]}},
{"type": "Feature", "id": "v6PHmhXj30EDHNAsanB1Pp2mXqw=", "properties": {"ref": "435", "@spider": "boston_market", "addr:full": "17855 S Halsted St.", "addr:housenumber": "17855", "addr:street": "S Halsted St.", "addr:city": "Homewood", "addr:state": "IL", "addr:postcode": "60430", "name": "Homewood #435", "phone": "708-922-1200", "website": "http://www.bostonmarket.com/location/homewood-il-435/", "opening_hours": "Sunday-Saturday 11:00-22:00", "brand": "Boston Market"}, "geometry": {"type": "Point", "coordinates": [-87.636292, 41.565231]}},
{"type": "Feature", "id": "xPzI8GdkLlo2btzBMfGywEzgxl4=", "properties": {"ref": "440", "@spider": "boston_market", "addr:full": "919 N. Green Bay Rd.", "addr:housenumber": "919", "addr:street": "N. Green Bay Rd.", "addr:city": "Waukegan", "addr:state": "IL", "addr:postcode": "60085", "name": "Waukegan #440", "phone": "847-623-7000", "website": "http://www.bostonmarket.com/location/waukegan-il-440/", "opening_hours": "Sunday-Saturday 11:00-21:00", "brand": "Boston Market"}, "geometry": {"type": "Point", "coordinates": [-87.882385, 42.372646]}},
{"type": "Feature", "id": "ak0CSbUKlmH-ijECad85JKzwP8g=", "properties": {"ref": "558", "@spider": "boston_market", "addr:full": "9267 S. Cicero Ave.", "addr:housenumber": "9267", "addr:street": "S. Cicero Ave.", "addr:city": "Oak Lawn", "addr:state": "IL", "addr:postcode": "60453", "name": "Oak Lawn #558", "phone": "708-229-0900", "website": "http://www.bostonmarket.com/location/oak-lawn-il-558/", "opening_hours": "Sunday-Saturday 11:00-22:00", "brand": "Boston Market"}, "geometry": {"type": "Point", "coordinates": [-87.740936, 41.724258]}},
{"type": "Feature", "id": "4dKm3upSOUy_gr7iqBIbbaovHTU=", "properties": {"ref": "575", "@spider": "boston_market", "addr:full": "7211 Lake Street", "addr:housenumber": "7211", "addr:street": "Lake Street", "addr:city": "River Forest", "addr:state": "IL", "addr:postcode": "60305", "name": "River Forest #575", "phone": "708-771-0455", "website": "http://www.bostonmarket.com/location/river-forest-il-575/", "opening_hours": "Sunday-Saturday 11:00-22:00", "brand": "Boston Market"}, "geometry": {"type": "Point", "coordinates": [-87.805873, 41.888501]}},
{"type": "Feature", "id": "XvKsCZP2es-lklZM38XnxG7WjF0=", "properties": {"ref": "668", "@spider": "boston_market", "addr:full": "13201 S. Cicero Avenue", "addr:housenumber": "13201", "addr:street": "S. Cicero Avenue", "addr:city": "Crestwood", "addr:state": "IL", "addr:postcode": "60445", "name": "Crestwood #668", "phone": "708-385-9300", "website": "http://www.bostonmarket.com/location/crestwood-il-668/", "opening_hours": "Sunday-Saturday 11:00-22:00", "brand": "Boston Market"}, "geometry": {"type": "Point", "coordinates": [-87.738297, 41.652561]}},
{"type": "Feature", "id": "ntekUJbtSelXtE3xnkq6owW3HX0=", "properties": {"ref": "822", "@spider": "boston_market", "addr:full": "830 W. North Ave.", "addr:housenumber": "830", "addr:street": "W. North Ave.", "addr:city": "Melrose Park", "addr:state": "IL", "addr:postcode": "60160", "name": "Melrose Park #822", "phone": "708-865-8900", "website": "http://www.bostonmarket.com/location/melrose-park-il-822/", "opening_hours": "Sunday-Saturday 11:00-22:00", "brand": "Boston Market"}, "geometry": {"type": "Point", "coordinates": [-87.843788, 41.908112]}},
{"type": "Feature", "id": "5hzm7K-xZAVCSw4GFNFUEOH95go=", "properties": {"ref": "825", "@spider": "boston_market", "addr:full": "1424 E 53rd St", "addr:housenumber": "1424", "addr:street": "E 53rd St", "addr:city": "Chicago", "addr:state": "IL", "addr:postcode": "60615", "name": "Chicago #825", "phone": "773-288-2600", "website": "http://www.bostonmarket.com/location/chicago-il-825/", "opening_hours": "Sunday-Saturday 10:00-23:00", "brand": "Boston Market"}, "geometry": {"type": "Point", "coordinates": [-87.590683, 41.799515]}},
{"type": "Feature", "id": "fJdnpIpynD4CWOJqUkMPgxKsZ3U=", "properties": {"ref": "831", "@spider": "boston_market", "addr:full": "285 N. Weber Rd.", "addr:housenumber": "285", "addr:street": "N. Weber Rd.", "addr:city": "Bolingbrook", "addr:state": "IL", "addr:postcode": "60440", "name": "Bolingbrook #831", "phone": "630-759-9900", "website": "http://www.bostonmarket.com/location/bolingbrook-il-831/", "opening_hours": "Sunday-Saturday 11:00-22:00", "brand": "Boston Market"}, "geometry": {"type": "Point", "coordinates": [-88.125893, 41.704144]}},
{"type": "Feature", "id": "ASV7bP69wOhf9vAeqAOpYT_x24M=", "properties": {"ref": "833", "@spider": "boston_market", "addr:full": "205 S. Randall Road", "addr:housenumber": "205", "addr:street": "S. Randall Road", "addr:city": "Elgin", "addr:state": "IL", "addr:postcode": "60123", "name": "Elgin #833", "phone": "847-608-8700", "website": "http://www.bostonmarket.com/location/elgin-il-833/", "opening_hours": "Sunday-Saturday 11:00-22:00", "brand": "Boston Market"}, "geometry": {"type": "Point", "coordinates": [-88.338493, 42.027752]}},
{"type": "Feature", "id": "6TGnHE9Tp3WUgSzdtHAV-PzTTkE=", "properties": {"ref": "2454", "@spider": "boston_market", "addr:full": "5665 Georgetown Road", "addr:housenumber": "5665", "addr:street": "Georgetown Road", "addr:city": "Indianapolis", "addr:state": "IN", "addr:postcode": "46254", "name": "Indianapolis #2454", "phone": "317-328-9239", "website": "http://www.bostonmarket.com/location/indianapolis-in-2454/", "opening_hours": "Sunday-Saturday 11:00-19:00", "brand": "Boston Market"}, "geometry": {"type": "Point", "coordinates": [-86.240143, 39.855133]}},
{"type": "Feature", "id": "EatY17qaZMevSbE0Fme7QEDhVx8=", "properties": {"ref": "2463", "@spider": "boston_market", "addr:full": "7910 South US 31", "addr:housenumber": "7910", "addr:street": "South US 31", "addr:city": "Indianapolis", "addr:state": "IN", "addr:postcode": "46227", "name": "Indianapolis #2463", "phone": "317-882-9356", "website": "http://www.bostonmarket.com/location/indianapolis-in-2463/", "opening_hours": "Sunday-Saturday 11:00-23:00", "brand": "Boston Market"}, "geometry": {"type": "Point", "coordinates": [-86.138512, 39.651863]}},
{"type": "Feature", "id": "0bs9iBUV1dOe2NmDmBXRbgkSUGA=", "properties": {"ref": "638", "@spider": "boston_market", "addr:full": "7554 Shadeland Avenue", "addr:housenumber": "7554", "addr:street": "Shadeland Avenue", "addr:city": "Indianapolis", "addr:state": "IN", "addr:postcode": "46250", "name": "Indianapolis #638", "phone": "317-578-1119", "website": "http://www.bostonmarket.com/location/indianapolis-in-638/", "opening_hours": "Sunday-Saturday 11:00-19:00", "brand": "Boston Market"}, "geometry": {"type": "Point", "coordinates": [-86.046104, 39.892223]}},
{"type": "Feature", "id": "0pQuXheKyLzASZYF3CzaWuS1R2A=", "properties": {"ref": "669", "@spider": "boston_market", "addr:full": "8032 Calumet Ave.", "addr:housenumber": "8032", "addr:street": "Calumet Ave.", "addr:city": "Munster", "addr:state": "IN", "addr:postcode": "46321", "name": "Munster #669", "phone": "219-836-2888", "website": "http://www.bostonmarket.com/location/munster-in-669/", "opening_hours": "Sunday-Saturday 11:00-23:00", "brand": "Boston Market"}, "geometry": {"type": "Point", "coordinates": [-87.509003, 41.567265]}},
{"type": "Feature", "id": "7WyX9IYELFfiRQAwMM-4ioGR7Qs=", "properties": {"ref": "101", "@spider": "boston_market", "addr:full": "1847 Enterprise Road East", "addr:housenumber": "1847", "addr:street": "Enterprise Road East", "addr:city": "Safety Harbor", "addr:state": "FL", "addr:postcode": "34695", "name": "Safety Harbor #101", "phone": "727-725-8232", "website": "http://www.bostonmarket.com/location/safety-harbor-fl-101/", "opening_hours": "Sunday-Saturday 11:00-21:00", "brand": "Boston Market"}, "geometry": {"type": "Point", "coordinates": [-82.708527, 28.012159]}},
{"type": "Feature", "id": "5uU978pCf5cZtlQgrX-dkJN-u4k=", "properties": {"ref": "1039", "@spider": "boston_market", "addr:full": "6520 Lake Worth Rd.", "addr:housenumber": "6520", "addr:street": "Lake Worth Rd.", "addr:city": "Lake Worth", "addr:state": "FL", "addr:postcode": "33467", "name": "Lake Worth #1039", "phone": "561-963-7272", "website": "http://www.bostonmarket.com/location/lake-worth-fl-1039/", "opening_hours": "Sunday-Saturday 11:00-21:00", "brand": "Boston Market"}, "geometry": {"type": "Point", "coordinates": [-80.147045, 26.618667]}},
{"type": "Feature", "id": "pHE6mSzDLhsNkolh3pGraxp8mNE=", "properties": {"ref": "1067", "@spider": "boston_market", "addr:full": "3600 SW 22nd Street", "addr:housenumber": "3600", "addr:street": "SW 22nd Street", "addr:city": "Miami", "addr:state": "FL", "addr:postcode": "33145", "name": "Miami #1067", "phone": "305-444-0209", "website": "http://www.bostonmarket.com/location/miami-fl-1067/", "opening_hours": "Sunday-Thursday 11:00-22:00; Friday-Saturday 11:00-00:00", "brand": "Boston Market"}, "geometry": {"type": "Point", "coordinates": [-80.252319, 25.749882]}},
{"type": "Feature", "id": "6rWrkHATlT9WWkJfiqiGumIeaYI=", "properties": {"ref": "113", "@spider": "boston_market", "addr:full": "7503 W. Waters Avenue", "addr:housenumber": "7503", "addr:street": "W. Waters Avenue", "addr:city": "Tampa", "addr:state": "FL", "addr:postcode": "33615", "name": "Tampa #113", "phone": "813-886-4422", "website": "http://www.bostonmarket.com/location/tampa-fl-113/", "opening_hours": "Sunday-Saturday 11:00-22:00", "brand": "Boston Market"}, "geometry": {"type": "Point", "coordinates": [-82.562744, 28.025936]}},
{"type": "Feature", "id": "HzbRP_r9s3dHX8je5W1MX94k7QE=", "properties": {"ref": "123", "@spider": "boston_market", "addr:full": "2451 N. Federal Hwy", "addr:housenumber": "2451", "addr:street": "N. Federal Hwy", "addr:city": "Pompano Beach", "addr:state": "FL", "addr:postcode": "33064", "name": "Pompano Beach #123", "phone": "954-785-1922", "website": "http://www.bostonmarket.com/location/pompano-beach-fl-123/", "opening_hours": "Sunday-Saturday 11:00-21:00", "brand": "Boston Market"}, "geometry": {"type": "Point", "coordinates": [-80.099396, 26.262049]}},
{"type": "Feature", "id": "li2GNpUy0_psWDgzN1hpMzEU5ww=", "properties": {"ref": "131", "@spider": "boston_market", "addr:full": "1401 W. Brandon Blvd.", "addr:housenumber": "1401", "addr:street": "W. Brandon Blvd.", "addr:city": "Brandon", "addr:state": "FL", "addr:postcode": "33511", "name": "Brandon #131", "phone": "813-651-1107", "website": "http://www.bostonmarket.com/location/brandon-fl-131/", "opening_hours": "Sunday-Saturday 11:00-22:00", "brand": "Boston Market"}, "geometry": {"type": "Point", "coordinates": [-82.304459, 27.93762]}},
{"type": "Feature", "id": "UuY9lQWIrgZivoRZROOobjzb2aA=", "properties": {"ref": "132", "@spider": "boston_market", "addr:full": "9929 Military Trail South", "addr:housenumber": "9929", "addr:street": "Military Trail South", "addr:city": "Boynton Beach", "addr:state": "FL", "addr:postcode": "33436", "name": "Boynton Beach #132", "phone": "561-731-4441", "website": "http://www.bostonmarket.com/location/boynton-beach-fl-132/", "opening_hours": "Sunday-Saturday 11:00-22:00", "brand": "Boston Market"}, "geometry": {"type": "Point", "coordinates": [-80.122955, 26.528603]}},
{"type": "Feature", "id": "RqPV_xXAxqpjnWZ0GWWPsa4Z6Wc=", "properties": {"ref": "141", "@spider": "boston_market", "addr:full": "1500 South Federal Hwy", "addr:housenumber": "1500", "addr:street": "South Federal Hwy", "addr:city": "Fort Lauderdale", "addr:state": "FL", "addr:postcode": "33316", "name": "Ft. Lauderdale #141", "phone": "954-525-1413", "website": "http://www.bostonmarket.com/location/ft-lauderdale-fl-141/", "opening_hours": "Sunday-Saturday 11:00-21:00", "brand": "Boston Market"}, "geometry": {"type": "Point", "coordinates": [-80.136772, 26.102778]}},
{"type": "Feature", "id": "DKytpGumjOd6u-94RCD7xtkNz7Y=", "properties": {"ref": "1430", "@spider": "boston_market", "addr:full": "1425 W. Granada Blvd.", "addr:housenumber": "1425", "addr:street": "W. Granada Blvd.", "addr:city": "Ormond Beach", "addr:state": "FL", "addr:postcode": "32174", "name": "Ormond Beach #1430", "phone": "386-673-9040", "website": "http://www.bostonmarket.com/location/ormond-beach-fl-1430/", "opening_hours": "Sunday-Saturday 11:00-20:00", "brand": "Boston Market"}, "geometry": {"type": "Point", "coordinates": [-81.109757, 29.26014]}},
{"type": "Feature", "id": "2mmg-HII2G2mIbr59yUm7SruPNc=", "properties": {"ref": "162", "@spider": "boston_market", "addr:full": "5002 Cortez West", "addr:housenumber": "5002", "addr:street": "Cortez West", "addr:city": "Bradenton", "addr:state": "FL", "addr:postcode": "34210", "name": "Bradenton #162", "phone": "941-792-8366", "website": "http://www.bostonmarket.com/location/bradenton-fl-162/", "opening_hours": "Sunday-Thursday 11:00-23:00; Friday-Saturday 11:00-00:00", "brand": "Boston Market"}, "geometry": {"type": "Point", "coordinates": [-82.611946, 27.462576]}},
{"type": "Feature", "id": "cgTSYw8tTCsgDJOnc3CWNWGOyDc=", "properties": {"ref": "177", "@spider": "boston_market", "addr:full": "429 W SR 436", "addr:housenumber": "429", "addr:street": "W SR 436", "addr:city": "Altamonte Springs", "addr:state": "FL", "addr:postcode": "32714", "name": "Altamonte Springs #177", "phone": "407-862-8327", "website": "http://www.bostonmarket.com/location/altamonte-springs-fl-177/", "opening_hours": "Sunday-Saturday 11:00-22:00", "brand": "Boston Market"}, "geometry": {"type": "Point", "coordinates": [-81.39851, 28.662025]}},
{"type": "Feature", "id": "TFcFqzZCUON5N8uT9P5KmBHFZeQ=", "properties": {"ref": "190", "@spider": "boston_market", "addr:full": "18601 S. Dixie Highway", "addr:housenumber": "18601", "addr:street": "S. Dixie Highway", "addr:city": "Miami", "addr:state": "FL", "addr:postcode": "33157", "name": "Miami #190", "phone": "305-251-9107", "website": "http://www.bostonmarket.com/location/miami-fl-190/", "opening_hours": "Sunday-Thursday 11:00-23:00; Friday-Saturday 11:00-00:00", "brand": "Boston Market"}, "geometry": {"type": "Point", "coordinates": [-80.355331, 25.595926]}},
{"type": "Feature", "id": "_bjfSmO2SpxS6pDkymwHQdOJPe4=", "properties": {"ref": "192", "@spider": "boston_market", "addr:full": "9959 Glades Rd.", "addr:housenumber": "9959", "addr:street": "Glades Rd.", "addr:city": "Boca Raton", "addr:state": "FL", "addr:postcode": "33434", "name": "Boca Raton #192", "phone": "561-451-3918", "website": "http://www.bostonmarket.com/location/boca-raton-fl-192/", "opening_hours": "Sunday-Saturday 11:00-22:00", "brand": "Boston Market"}, "geometry": {"type": "Point", "coordinates": [-80.202273, 26.368045]}},
{"type": "Feature", "id": "psihqsqZnsE1cGacoF2RQAYdFuo=", "properties": {"ref": "193", "@spider": "boston_market", "addr:full": "8559 Pines Blvd", "addr:housenumber": "8559", "addr:street": "Pines Blvd", "addr:city": "Pembroke Pines", "addr:state": "FL", "addr:postcode": "33024", "name": "Pembroke Pines #193", "phone": "954-435-4280", "website": "http://www.bostonmarket.com/location/pembroke-pines-fl-193/", "opening_hours": "Sunday-Saturday 11:00-21:00", "brand": "Boston Market"}, "geometry": {"type": "Point", "coordinates": [-80.257393, 26.008995]}},
{"type": "Feature", "id": "ITSHU1QfiaHR5tEaS9O34TMWVAg=", "properties": {"ref": "194", "@spider": "boston_market", "addr:full": "16251 W. Dixie Hwy", "addr:housenumber": "16251", "addr:street": "W. Dixie Hwy", "addr:city": "North Miami Beach", "addr:state": "FL", "addr:postcode": "33160", "name": "North Miami Bch. #194", "phone": "305-947-5069", "website": "http://www.bostonmarket.com/location/north-miami-bch-fl-194/", "opening_hours": "Sunday-Saturday 11:00-22:00", "brand": "Boston Market"}, "geometry": {"type": "Point", "coordinates": [-80.155914, 25.92561]}},
{"type": "Feature", "id": "NbvUpCfsoTrrN3xEDX1UuX1VpkA=", "properties": {"ref": "196", "@spider": "boston_market", "addr:full": "33163 US Hwy 19 North", "addr:housenumber": "33163", "addr:street": "US Hwy 19 North", "addr:city": "Palm Harbor", "addr:state": "FL", "addr:postcode": "34684", "name": "Palm Harbor #196", "phone": "727-786-5336", "website": "http://www.bostonmarket.com/location/palm-harbor-fl-196/", "opening_hours": "Sunday-Saturday 11:00-21:00", "brand": "Boston Market"}, "geometry": {"type": "Point", "coordinates": [-82.738785, 28.07349]}},
{"type": "Feature", "id": "TV1ZDMK5Q7x6xdKky3oz8Y81KBY=", "properties": {"ref": "212", "@spider": "boston_market", "addr:full": "4335 W. Lake Mary Blvd.", "addr:housenumber": "4335", "addr:street": "W. Lake Mary Blvd.", "addr:city": "Lake Mary", "addr:state": "FL", "addr:postcode": "32746", "name": "Lake Mary #212", "phone": "407-322-9699", "website": "http://www.bostonmarket.com/location/lake-mary-fl-212/", "opening_hours": "Sunday-Saturday 11:00-22:00", "brand": "Boston Market"}, "geometry": {"type": "Point", "coordinates": [-81.351486, 28.756025]}},
{"type": "Feature", "id": "g0_cthTpTsTwjYXfozhI5lHQ3lA=", "properties": {"ref": "213", "@spider": "boston_market", "addr:full": "3249 Hollywood Blvd.", "addr:housenumber": "3249", "addr:street": "Hollywood Blvd.", "addr:city": "Hollywood", "addr:state": "FL", "addr:postcode": "33021", "name": "Hollywood #213", "phone": "954-966-6959", "website": "http://www.bostonmarket.com/location/hollywood-fl-213/", "opening_hours": "Sunday-Thursday 10:30-23:00; Friday-Saturday 10:30-00:00", "brand": "Boston Market"}, "geometry": {"type": "Point", "coordinates": [-80.173328, 26.010888]}},
{"type": "Feature", "id": "CjkH6kXbWJaBjVlkPzmRgz696lU=", "properties": {"ref": "230", "@spider": "boston_market", "addr:full": "1781 E. Commercial Blvd.", "addr:housenumber": "1781", "addr:street": "E. Commercial Blvd.", "addr:city": "Fort Lauderdale", "addr:state": "FL", "addr:postcode": "33334", "name": "Ft. Lauderdale #230", "phone": "954-938-9073", "website": "http://www.bostonmarket.com/location/ft-lauderdale-fl-230/", "opening_hours": "Sunday-Saturday 10:30-21:00", "brand": "Boston Market"}, "geometry": {"type": "Point", "coordinates": [-80.122947, 26.189189]}},
{"type": "Feature", "id": "pzUXnpFyu7BK683YL-ZjPSxQxoo=", "properties": {"ref": "253", "@spider": "boston_market", "addr:full": "5815 N. University Dr.", "addr:housenumber": "5815", "addr:street": "N. University Dr.", "addr:city": "Tamarac", "addr:state": "FL", "addr:postcode": "33321", "name": "Tamarac #253", "phone": "954-722-7906", "website": "http://www.bostonmarket.com/location/tamarac-fl-253/", "opening_hours": "Sunday-Saturday 11:00-22:00", "brand": "Boston Market"}, "geometry": {"type": "Point", "coordinates": [-80.252266, 26.196719]}},
{"type": "Feature", "id": "690fqMtK56oNyfKNViMt88rRAn8=", "properties": {"ref": "257", "@spider": "boston_market", "addr:full": "2708 W. Martin Luther King", "addr:housenumber": "2708", "addr:street": "W. Martin Luther King", "addr:city": "Tampa", "addr:state": "FL", "addr:postcode": "33607", "name": "Tampa #257", "phone": "813-872-7929", "website": "http://www.bostonmarket.com/location/tampa-fl-257/", "opening_hours": "Sunday-Saturday 11:00-22:00", "brand": "Boston Market"}, "geometry": {"type": "Point", "coordinates": [-82.488182, 27.981316]}},
{"type": "Feature", "id": "scrhd8oKMMReUtSErsx2m24MxeM=", "properties": {"ref": "258", "@spider": "boston_market", "addr:full": "2024 N. Military Trail", "addr:housenumber": "2024", "addr:street": "N. Military Trail", "addr:city": "West Palm Beach", "addr:state": "FL", "addr:postcode": "33409", "name": "West Palm Beach #258", "phone": "561-686-8161", "website": "http://www.bostonmarket.com/location/west-palm-beach-fl-258/", "opening_hours": "Sunday-Saturday 11:00-21:00", "brand": "Boston Market"}, "geometry": {"type": "Point", "coordinates": [-80.110909, 26.70739]}},
{"type": "Feature", "id": "H_ogtKZ1dY4rYv0aQ4rIMZJLUQI=", "properties": {"ref": "273", "@spider": "boston_market", "addr:full": "12500 Biscayne Blvd.", "addr:housenumber": "12500", "addr:street": "Biscayne Blvd.", "addr:city": "North Miami", "addr:state": "FL", "addr:postcode": "33181", "name": "North Miami #273", "phone": "305-892-8867", "website": "http://www.bostonmarket.com/location/north-miami-fl-273/", "opening_hours": "Sunday-Saturday 11:00-22:00", "brand": "Boston Market"}, "geometry": {"type": "Point", "coordinates": [-80.163078, 25.891819]}},
{"type": "Feature", "id": "1SDwuADAKfZT_5zSPM1aCGfzCNE=", "properties": {"ref": "274", "@spider": "boston_market", "addr:full": "16215 N. Dale Mabry", "addr:housenumber": "16215", "addr:street": "N. Dale Mabry", "addr:city": "Tampa", "addr:state": "FL", "addr:postcode": "33618", "name": "Tampa #274", "phone": "813-962-2621", "website": "http://www.bostonmarket.com/location/tampa-fl-274/", "opening_hours": "Sunday-Saturday 11:00-21:00", "brand": "Boston Market"}, "geometry": {"type": "Point", "coordinates": [-82.502213, 28.100515]}},
{"type": "Feature", "id": "nwzh4XJuZooLY0QvkQl-TWoEmr0=", "properties": {"ref": "279", "@spider": "boston_market", "addr:full": "330 S. University Dr.", "addr:housenumber": "330", "addr:street": "S. University Dr.", "addr:city": "Plantation", "addr:state": "FL", "addr:postcode": "33324", "name": "Plantation #279", "phone": "954-472-5360", "website": "http://www.bostonmarket.com/location/plantation-fl-279/", "opening_hours": "Sunday-Saturday 11:00-22:00", "brand": "Boston Market"}, "geometry": {"type": "Point", "coordinates": [-80.250881, 26.116213]}},
{"type": "Feature", "id": "ZcIYYacht_WGF1jtpHFrgDSkrEw=", "properties": {"ref": "3210", "@spider": "boston_market", "addr:full": "12140 Lake Underhill Road", "addr:housenumber": "12140", "addr:street": "Lake Underhill Road", "addr:city": "Orlando", "addr:state": "FL", "addr:postcode": "32828", "name": "Orlando #3210", "phone": "407-737-3335", "website": "http://www.bostonmarket.com/location/orlando-fl-3210/", "opening_hours": "Sunday-Saturday 11:00-22:00", "brand": "Boston Market"}, "geometry": {"type": "Point", "coordinates": [-81.208626, 28.54664]}},
{"type": "Feature", "id": "hSyukaSnjjSp2YgROPVMCwDHWC0=", "properties": {"ref": "3301", "@spider": "boston_market", "addr:full": "1001 West 49th", "addr:housenumber": "1001", "addr:street": "West 49th", "addr:city": "Hialeah", "addr:state": "FL", "addr:postcode": "33012", "name": "Hialeah #3301", "phone": "305-397-0190", "website": "http://www.bostonmarket.com/location/hialeah-fl-3301/", "opening_hours": "Sunday-Saturday 11:00-22:00", "brand": "Boston Market"}, "geometry": {"type": "Point", "coordinates": [-80.303598, 25.867238]}},
{"type": "Feature", "id": "ZGMH_l-ZopKw0hwCggOwfiZCfIQ=", "properties": {"ref": "348", "@spider": "boston_market", "addr:full": "250 E Michigan St", "addr:housenumber": "250", "addr:street": "E Michigan St", "addr:city": "Orlando", "addr:state": "FL", "addr:postcode": "32806", "name": "Orlando #348", "phone": "407-648-0568", "website": "http://www.bostonmarket.com/location/orlando-fl-348/", "opening_hours": "Sunday-Saturday 11:00-22:00", "brand": "Boston Market"}, "geometry": {"type": "Point", "coordinates": [-81.374687, 28.512871]}},
{"type": "Feature", "id": "_VnFRqZuXP91w5gVgEo96ad_vkA=", "properties": {"ref": "349", "@spider": "boston_market", "addr:full": "2450 N Wickham Rd", "addr:housenumber": "2450", "addr:street": "N Wickham Rd", "addr:city": "Melbourne", "addr:state": "FL", "addr:postcode": "32935", "name": "Melbourne #349", "phone": "321-254-6549", "website": "http://www.bostonmarket.com/location/melbourne-fl-349/", "opening_hours": "Sunday-Thursday 11:00-23:00; Friday-Saturday 11:00-00:00", "brand": "Boston Market"}, "geometry": {"type": "Point", "coordinates": [-80.671783, 28.14629]}},
{"type": "Feature", "id": "L3YhLr_XCzj-JTQhcI4RWpdNeCk=", "properties": {"ref": "357", "@spider": "boston_market", "addr:full": "5681 W. Atlantic Blvd", "addr:housenumber": "5681", "addr:street": "W. Atlantic Blvd", "addr:city": "Margate", "addr:state": "FL", "addr:postcode": "33063", "name": "Margate #357", "phone": "954-974-9572", "website": "http://www.bostonmarket.com/location/margate-fl-357/", "opening_hours": "Sunday-Saturday 11:00-21:00", "brand": "Boston Market"}, "geometry": {"type": "Point", "coordinates": [-80.20388, 26.235502]}},
{"type": "Feature", "id": "RdheUorgqvIdQiuYdQj_5VKHFSU=", "properties": {"ref": "416", "@spider": "boston_market", "addr:full": "3102 W. Commercial Blvd", "addr:housenumber": "3102", "addr:street": "W. Commercial Blvd", "addr:city": "Tamarac", "addr:state": "FL", "addr:postcode": "33309", "name": "Tamarac #416", "phone": "954-485-7428", "website": "http://www.bostonmarket.com/location/tamarac-fl-416/", "opening_hours": "Sunday-Thursday 11:00-23:00; Friday-Saturday 11:00-00:00", "brand": "Boston Market"}, "geometry": {"type": "Point", "coordinates": [-80.187958, 26.186268]}},
{"type": "Feature", "id": "1hlgw0E3p1-jPU-mrqK4YH2N7OA=", "properties": {"ref": "437", "@spider": "boston_market", "addr:full": "80 Intracoastal Pointe Dr.", "addr:housenumber": "80", "addr:street": "Intracoastal Pointe Dr.", "addr:city": "Jupiter", "addr:state": "FL", "addr:postcode": "33477", "name": "Jupiter #437", "phone": "561-747-3552", "website": "http://www.bostonmarket.com/location/jupiter-fl-437/", "opening_hours": "Sunday-Saturday 11:00-20:00", "brand": "Boston Market"}, "geometry": {"type": "Point", "coordinates": [-80.088806, 26.934637]}},
{"type": "Feature", "id": "YYOtKFL0Weq0RRxvvVa3qM88lwo=", "properties": {"ref": "489", "@spider": "boston_market", "addr:full": "16709 NW 67th Ave", "addr:housenumber": "16709", "addr:street": "NW 67th Ave", "addr:city": "Hialeah", "addr:state": "FL", "addr:postcode": "33014", "name": "Hialeah #489", "phone": "305-362-0985", "website": "http://www.bostonmarket.com/location/hialeah-fl-489/", "opening_hours": "Sunday-Saturday 10:30-22:00", "brand": "Boston Market"}, "geometry": {"type": "Point", "coordinates": [-80.309276, 25.925296]}},
{"type": "Feature", "id": "81MSF1rLLGPqW5c8Ao4O89BDBH4=", "properties": {"ref": "516", "@spider": "boston_market", "addr:full": "9595 4th St N", "addr:housenumber": "9595", "addr:street": "4th St N", "addr:city": "St Petersburg", "addr:state": "FL", "addr:postcode": "33702", "name": "St. Petersburg #516", "phone": "727-577-6622", "website": "http://www.bostonmarket.com/location/st-petersburg-fl-516/", "opening_hours": "Sunday-Saturday 11:00-21:00", "brand": "Boston Market"}, "geometry": {"type": "Point", "coordinates": [-82.638702, 27.85874]}},
{"type": "Feature", "id": "l1m29rQuPngvvlEGX2SeFjETsU4=", "properties": {"ref": "537", "@spider": "boston_market", "addr:full": "50 S. Flamingo Rd.", "addr:housenumber": "50", "addr:street": "S. Flamingo Rd.", "addr:city": "Pembroke Pines", "addr:state": "FL", "addr:postcode": "33029", "name": "Pembroke Pines #537", "phone": "954-450-0494", "website": "http://www.bostonmarket.com/location/pembroke-pines-fl-537/", "opening_hours": "Sunday-Thursday 11:00-23:00; Friday-Saturday 11:00-00:00", "brand": "Boston Market"}, "geometry": {"type": "Point", "coordinates": [-80.312004, 26.007193]}},
{"type": "Feature", "id": "Xn-Lzk2oKlYF7S2SlT5Y8WxHU9M=", "properties": {"ref": "559", "@spider": "boston_market", "addr:full": "6483 Newberry Road", "addr:housenumber": "6483", "addr:street": "Newberry Road", "addr:city": "Gainesville", "addr:state": "FL", "addr:postcode": "32605", "name": "Gainesville #559", "phone": "352-331-1519", "website": "http://www.bostonmarket.com/location/gainesville-fl-559/", "opening_hours": "Sunday-Saturday 11:00-22:00", "brand": "Boston Market"}, "geometry": {"type": "Point", "coordinates": [-82.41143, 29.659561]}},
{"type": "Feature", "id": "Bkca6xhpNQ8fFKfvSQlBa7uqzTo=", "properties": {"ref": "560", "@spider": "boston_market", "addr:full": "3251 W Vine Street", "addr:housenumber": "3251", "addr:street": "W Vine Street", "addr:city": "Kissimmee", "addr:state": "FL", "addr:postcode": "34741", "name": "Kissimmee #560", "phone": "407-935-1263", "website": "http://www.bostonmarket.com/location/kissimmee-fl-560/", "opening_hours": "Sunday-Saturday 11:00-22:00", "brand": "Boston Market"}, "geometry": {"type": "Point", "coordinates": [-81.436943, 28.304558]}},
{"type": "Feature", "id": "uFkVSf1AxazkYAkTI7bYMrp5acQ=", "properties": {"ref": "609", "@spider": "boston_market", "addr:full": "150 Cypress Gardens Blvd SE", "addr:housenumber": "150", "addr:street": "Cypress Gardens Blvd SE", "addr:city": "Winter Haven", "addr:state": "FL", "addr:postcode": "33880", "name": "Winter Haven #609", "phone": "863-293-6907", "website": "http://www.bostonmarket.com/location/winter-haven-fl-609/", "opening_hours": "Sunday-Saturday 11:00-21:00", "brand": "Boston Market"}, "geometry": {"type": "Point", "coordinates": [-81.726318, 28.003964]}},
{"type": "Feature", "id": "syy8mTDl9VCGtlICFKDpCt8LumI=", "properties": {"ref": "636", "@spider": "boston_market", "addr:full": "8070 NW 36th St", "addr:housenumber": "8070", "addr:street": "NW 36th St", "addr:city": "Miami", "addr:state": "FL", "addr:postcode": "33166", "name": "Miami #636", "phone": "305-716-0056", "website": "http://www.bostonmarket.com/location/miami-fl-636/", "opening_hours": "Sunday-Saturday 11:00-22:00", "brand": "Boston Market"}, "geometry": {"type": "Point", "coordinates": [-80.327505, 25.809607]}},
{"type": "Feature", "id": "Ywdk021bJoues_WQxPF9gbPUzS4=", "properties": {"ref": "734", "@spider": "boston_market", "addr:full": "1037 Dunlawton Avenue", "addr:housenumber": "1037", "addr:street": "Dunlawton Avenue", "addr:city": "Port Orange", "addr:state": "FL", "addr:postcode": "32127", "name": "Port Orange #734", "phone": "386-322-6801", "website": "http://www.bostonmarket.com/location/port-orange-fl-734/", "opening_hours": "Sunday-Saturday 11:00-21:00", "brand": "Boston Market"}, "geometry": {"type": "Point", "coordinates": [-81.007759, 29.126171]}},
{"type": "Feature", "id": "v-3b2xpyIrBjWQkjOlgUR1cWRhU=", "properties": {"ref": "763", "@spider": "boston_market", "addr:full": "2650 SW College Road", "addr:housenumber": "2650", "addr:street": "SW College Road", "addr:city": "Ocala", "addr:state": "FL", "addr:postcode": "34471", "name": "Ocala #763", "phone": "352-873-1115", "website": "http://www.bostonmarket.com/location/ocala-fl-763/", "opening_hours": "Sunday-Saturday 11:00-21:00", "brand": "Boston Market"}, "geometry": {"type": "Point", "coordinates": [-82.167549, 29.167168]}},
{"type": "Feature", "id": "OaVQlRByzt4jTSZLQ0pHXwpIGAY=", "properties": {"ref": "766", "@spider": "boston_market", "addr:full": "4001 E. Bay Drive", "addr:housenumber": "4001", "addr:street": "E. Bay Drive", "addr:city": "Clearwater", "addr:state": "FL", "addr:postcode": "33764", "name": "Clearwater #766", "phone": "727-524-6603", "website": "http://www.bostonmarket.com/location/clearwater-fl-766/", "opening_hours": "Sunday-Saturday 11:00-21:00", "brand": "Boston Market"}, "geometry": {"type": "Point", "coordinates": [-82.745338, 27.916323]}},
{"type": "Feature", "id": "3QqsUJ8rzu-O0DHd6I3J0Wb0Nmo=", "properties": {"ref": "770", "@spider": "boston_market", "addr:full": "4201 E Colonial Drive", "addr:housenumber": "4201", "addr:street": "E Colonial Drive", "addr:city": "Orlando", "addr:state": "FL", "addr:postcode": "32803", "name": "Orlando #770", "phone": "407-896-3682", "website": "http://www.bostonmarket.com/location/orlando-fl-770/", "opening_hours": "Sunday-Thursday 11:00-23:00; Friday-Saturday 11:00-00:00", "brand": "Boston Market"}, "geometry": {"type": "Point", "coordinates": [-81.333115, 28.553549]}},
{"type": "Feature", "id": "i_t8K6jfxg5GboVwPHmib2jGpUM=", "properties": {"ref": "80", "@spider": "boston_market", "addr:full": "5501 East Fowler Avenue", "addr:housenumber": "5501", "addr:street": "East Fowler Avenue", "addr:city": "Tampa", "addr:state": "FL", "addr:postcode": "33617", "name": "Tampa #80", "phone": "813-988-3188", "website": "http://www.bostonmarket.com/location/tampa-fl-80/", "opening_hours": "Sunday-Thursday 11:00-23:00; Friday-Saturday 11:00-00:00", "brand": "Boston Market"}, "geometry": {"type": "Point", "coordinates": [-82.394226, 28.054318]}},
{"type": "Feature", "id": "3z8ULhFkFRlTx3e9l3kvmccRA-M=", "properties": {"ref": "810", "@spider": "boston_market", "addr:full": "2329 N. Monroe Street", "addr:housenumber": "2329", "addr:street": "N. Monroe Street", "addr:city": "Tallahassee", "addr:state": "FL", "addr:postcode": "32303", "name": "Tallahassee #810", "phone": "850-297-2178", "website": "http://www.bostonmarket.com/location/tallahassee-fl-810/", "opening_hours": "Sunday-Saturday 11:00-22:00", "brand": "Boston Market"}, "geometry": {"type": "Point", "coordinates": [-84.289963, 30.471119]}},
{"type": "Feature", "id": "GgriDi7pwBYBF4W2pUM9PSjFm4s=", "properties": {"ref": "859", "@spider": "boston_market", "addr:full": "7820 113th Street", "addr:housenumber": "7820", "addr:street": "113th Street", "addr:city": "Seminole", "addr:state": "FL", "addr:postcode": "33772", "name": "Seminole #859", "phone": "727-319-3911", "website": "http://www.bostonmarket.com/location/seminole-fl-859/", "opening_hours": "Sunday-Saturday 11:00-21:00", "brand": "Boston Market"}, "geometry": {"type": "Point", "coordinates": [-82.795403, 27.842695]}},
{"type": "Feature", "id": "rEaDK_Gv1QQklUqNussONEgdZ0M=", "properties": {"ref": "920", "@spider": "boston_market", "addr:full": "4621 South Kirkman Road", "addr:housenumber": "4621", "addr:street": "South Kirkman Road", "addr:city": "Orlando", "addr:state": "FL", "addr:postcode": "32811", "name": "Orlando #920", "phone": "407-292-0504", "website": "http://www.bostonmarket.com/location/orlando-fl-920/", "opening_hours": "Sunday-Saturday 11:00-22:00", "brand": "Boston Market"}, "geometry": {"type": "Point", "coordinates": [-81.458797, 28.495028]}},
{"type": "Feature", "id": "kmImzaskzgZz2TSX1CWiJbZBwwM=", "properties": {"ref": "2791", "@spider": "boston_market", "addr:full": "6121 Kenilworth Ave", "addr:housenumber": "6121", "addr:street": "Kenilworth Ave", "addr:city": "Riverdale", "addr:state": "MD", "addr:postcode": "20737", "name": "Riverdale #2791", "phone": "301-277-1350", "website": "http://www.bostonmarket.com/location/riverdale-md-2791/", "opening_hours": "Sunday-Thursday 11:00-23:00; Friday-Saturday 11:00-00:00", "brand": "Boston Market"}, "geometry": {"type": "Point", "coordinates": [-76.919754, 38.960861]}},
{"type": "Feature", "id": "_eENTFMjTjkE8KEwCyFzUpzKcnY=", "properties": {"ref": "676", "@spider": "boston_market", "addr:full": "6650 Richmond Highway", "addr:housenumber": "6650", "addr:street": "Richmond Highway", "addr:city": "Alexandria", "addr:state": "VA", "addr:postcode": "22306", "name": "Alexandria #676", "phone": "703-768-1838", "website": "http://www.bostonmarket.com/location/alexandria-va-676/", "opening_hours": "Sunday-Thursday 11:00-23:00; Friday-Saturday 11:00-00:00", "brand": "Boston Market"}, "geometry": {"type": "Point", "coordinates": [-77.081365, 38.773619]}},
{"type": "Feature", "id": "dgWPU8kCK4-mAFjx99wHEI27QrY=", "properties": {"ref": "705", "@spider": "boston_market", "addr:full": "6228 Greenbelt Rd.", "addr:housenumber": "6228", "addr:street": "Greenbelt Rd.", "addr:city": "Greenbelt", "addr:state": "MD", "addr:postcode": "20770", "name": "Greenbelt #705", "phone": "301-220-4445", "website": "http://www.bostonmarket.com/location/greenbelt-md-705/", "opening_hours": "Sunday-Thursday 11:00-23:00; Friday-Saturday 11:00-00:00", "brand": "Boston Market"}, "geometry": {"type": "Point", "coordinates": [-76.906331, 38.997107]}},
{"type": "Feature", "id": "55VQDr9LegwUDinou5fa3kTIxFI=", "properties": {"ref": "646", "@spider": "boston_market", "addr:full": "13815 Smoketown Road", "addr:housenumber": "13815", "addr:street": "Smoketown Road", "addr:city": "Woodbridge", "addr:state": "VA", "addr:postcode": "22192", "name": "Woodbridge #646", "phone": "703-878-7200", "website": "http://www.bostonmarket.com/location/woodbridge-va-646/", "opening_hours": "Sunday-Thursday 11:00-23:00; Friday-Saturday 11:00-00:00", "brand": "Boston Market"}, "geometry": {"type": "Point", "coordinates": [-77.302605, 38.651302]}},
{"type": "Feature", "id": "SWCNFTjOCYu2j8zUj2SO3VB9zHI=", "properties": {"ref": "2729", "@spider": "boston_market", "addr:full": "1070 Maryland Route 3 North", "addr:housenumber": "1070", "addr:street": "Maryland Route 3 North", "addr:city": "Gambrills", "addr:state": "MD", "addr:postcode": "21054", "name": "Gambrills #2729", "phone": "410-451-8390", "website": "http://www.bostonmarket.com/location/gambrills-md-2729/", "opening_hours": "Sunday-Saturday 11:00-22:00", "brand": "Boston Market"}, "geometry": {"type": "Point", "coordinates": [-76.689474, 39.025863]}},
{"type": "Feature", "id": "Ath4X9pEh2I3Ez6g9ip6aj351FM=", "properties": {"ref": "984", "@spider": "boston_market", "addr:full": "4090 Jermantown Road", "addr:housenumber": "4090", "addr:street": "Jermantown Road", "addr:city": "Fairfax", "addr:state": "VA", "addr:postcode": "22030", "name": "Fairfax #984", "phone": "703-246-9800", "website": "http://www.bostonmarket.com/location/fairfax-va-984/", "opening_hours": "Sunday-Thursday 11:00-23:00; Friday-Saturday 11:00-00:00", "brand": "Boston Market"}, "geometry": {"type": "Point", "coordinates": [-77.332306, 38.852318]}},
{"type": "Feature", "id": "EDTs49Byk8PukVRp63F4LCLVGgE=", "properties": {"ref": "999", "@spider": "boston_market", "addr:full": "596 Frederick Avenue", "addr:housenumber": "596", "addr:street": "Frederick Avenue", "addr:city": "Gaithersburg", "addr:state": "MD", "addr:postcode": "20877", "name": "Gaithersburg #999", "phone": "301-869-9600", "website": "http://www.bostonmarket.com/location/gaithersburg-md-999/", "opening_hours": "Sunday-Thursday 11:00-23:00; Friday-Saturday 11:00-00:00", "brand": "Boston Market"}, "geometry": {"type": "Point", "coordinates": [-77.208927, 39.149827]}},
{"type": "Feature", "id": "vXT4VfF6lnwKdHe2bpOadBub6cE=", "properties": {"ref": "331", "@spider": "boston_market", "addr:full": "9061 Snowden River Pkwy", "addr:housenumber": "9061", "addr:street": "Snowden River Pkwy", "addr:city": "Columbia", "addr:state": "MD", "addr:postcode": "21045", "name": "Columbia #331", "phone": "410-312-0800", "website": "http://www.bostonmarket.com/location/columbia-md-331/", "opening_hours": "Sunday-Thursday 11:00-23:00; Friday-Saturday 11:00-00:00", "brand": "Boston Market"}, "geometry": {"type": "Point", "coordinates": [-76.821558, 39.182472]}},
{"type": "Feature", "id": "TszZ7ND3VZNSEilzFTICp6uj1Ik=", "properties": {"ref": "1779", "@spider": "boston_market", "addr:full": "3295 Crain Highway", "addr:housenumber": "3295", "addr:street": "Crain Highway", "addr:city": "Waldorf", "addr:state": "MD", "addr:postcode": "20603", "name": "Waldorf #1779", "phone": "301-638-4750", "website": "http://www.bostonmarket.com/location/waldorf-md-1779/", "opening_hours": "Sunday-Thursday 11:00-23:00; Friday-Saturday 11:00-00:00", "brand": "Boston Market"}, "geometry": {"type": "Point", "coordinates": [-76.915704, 38.621559]}},
{"type": "Feature", "id": "9LhxkLpWhUBbMTDFwM0zgAvjAUo=", "properties": {"ref": "796", "@spider": "boston_market", "addr:full": "3825 Aspen Hill Road", "addr:housenumber": "3825", "addr:street": "Aspen Hill Road", "addr:city": "Aspen Hill", "addr:state": "MD", "addr:postcode": "20906", "name": "Aspen Hill #796", "phone": "301-871-0660", "website": "http://www.bostonmarket.com/location/aspen-hill-md-796/", "opening_hours": "Sunday-Saturday 11:00-22:00", "brand": "Boston Market"}, "geometry": {"type": "Point", "coordinates": [-77.076577, 39.080441]}},
{"type": "Feature", "id": "LN8byYuidKFz2MH8505womBrVfw=", "properties": {"ref": "321", "@spider": "boston_market", "addr:full": "7931 Governor Ritchie Hwy", "addr:housenumber": "7931", "addr:street": "Governor Ritchie Hwy", "addr:city": "Glen Burnie", "addr:state": "MD", "addr:postcode": "21061", "name": "Glen Burnie #321", "phone": "410-760-2800", "website": "http://www.bostonmarket.com/location/glen-burnie-md-321/", "opening_hours": "Sunday-Thursday 11:00-23:00; Friday-Saturday 11:00-00:00", "brand": "Boston Market"}, "geometry": {"type": "Point", "coordinates": [-76.600382, 39.138246]}},
{"type": "Feature", "id": "4_6pSIcllmfXqdg05sjoFuFQqJw=", "properties": {"ref": "153", "@spider": "boston_market", "addr:full": "9380 Baltimore National Pike", "addr:housenumber": "9380", "addr:street": "Baltimore National Pike", "addr:city": "Ellicott City", "addr:state": "MD", "addr:postcode": "21042", "name": "Ellicott City #153", "phone": "410-313-8400", "website": "http://www.bostonmarket.com/location/ellicott-city-md-153/", "opening_hours": "Sunday-Thursday 11:00-23:00; Friday-Saturday 11:00-00:00", "brand": "Boston Market"}, "geometry": {"type": "Point", "coordinates": [-76.834595, 39.277679]}},
{"type": "Feature", "id": "x8hIqe8Mz3JWqz4cSwjUVjChigc=", "properties": {"ref": "1064", "@spider": "boston_market", "addr:full": "616 Fellsway", "addr:housenumber": "616", "addr:street": "Fellsway", "addr:city": "Medford", "addr:state": "MA", "addr:postcode": "02155", "name": "Medford #1064", "phone": "781-393-0413", "website": "http://www.bostonmarket.com/location/medford-ma-1064/", "opening_hours": "Sunday-Thursday 11:00-23:00; Friday-Saturday 11:00-00:00", "brand": "Boston Market"}, "geometry": {"type": "Point", "coordinates": [-71.082744, 42.407186]}},
{"type": "Feature", "id": "Z-iwISmUjS_NPQR9ODsoW27lDEk=", "properties": {"ref": "13", "@spider": "boston_market", "addr:full": "1099 Lexington Street", "addr:housenumber": "1099", "addr:street": "Lexington Street", "addr:city": "Waltham", "addr:state": "MA", "addr:postcode": "02452", "name": "Waltham #13", "phone": "781-647-3600", "website": "http://www.bostonmarket.com/location/waltham-ma-13/", "opening_hours": "Sunday-Saturday 11:00-22:00", "brand": "Boston Market"}, "geometry": {"type": "Point", "coordinates": [-71.233396, 42.411881]}},
{"type": "Feature", "id": "yhOnkOdmyXDjTNbHtfOucqbCbwU=", "properties": {"ref": "14", "@spider": "boston_market", "addr:full": "756 Belmont Street", "addr:housenumber": "756", "addr:street": "Belmont Street", "addr:city": "Brockton", "addr:state": "MA", "addr:postcode": "02301", "name": "Brockton #14", "phone": "508-580-8551", "website": "http://www.bostonmarket.com/location/brockton-ma-14/", "opening_hours": "Sunday-Thursday 11:00-23:00; Friday-Saturday 11:00-00:00", "brand": "Boston Market"}, "geometry": {"type": "Point", "coordinates": [-71.048494, 42.068781]}},
{"type": "Feature", "id": "5KXp0RgqWPkEJEXST38wL1F2GyA=", "properties": {"ref": "15", "@spider": "boston_market", "addr:full": "341 Cochituate Rd", "addr:housenumber": "341", "addr:street": "Cochituate Rd", "addr:city": "Framingham", "addr:state": "MA", "addr:postcode": "01701", "name": "Framingham #15", "phone": "508-879-5585", "website": "http://www.bostonmarket.com/location/framingham-ma-15/", "opening_hours": "Sunday-Saturday 11:00-22:00", "brand": "Boston Market"}, "geometry": {"type": "Point", "coordinates": [-71.401751, 42.3029]}},
{"type": "Feature", "id": "i0VK_dDNuOwCat6nShLE2khTtuQ=", "properties": {"ref": "1630", "@spider": "boston_market", "addr:full": "40 Drum Hill Rd.", "addr:housenumber": "40", "addr:street": "Drum Hill Rd.", "addr:city": "Chelmsford", "addr:state": "MA", "addr:postcode": "01824", "name": "Chelmsford #1630", "phone": "978-937-7979", "website": "http://www.bostonmarket.com/location/chelmsford-ma-1630/", "opening_hours": "Sunday-Saturday 11:00-22:00", "brand": "Boston Market"}, "geometry": {"type": "Point", "coordinates": [-71.361315, 42.62513]}},
{"type": "Feature", "id": "NZHxdrdVgDfqW1HM1oWJZvBiFh8=", "properties": {"ref": "29", "@spider": "boston_market", "addr:full": "168 Broadway", "addr:housenumber": "168", "addr:street": "Broadway", "addr:city": "Saugus", "addr:state": "MA", "addr:postcode": "01906", "name": "Saugus #29", "phone": "781-231-7007", "website": "http://www.bostonmarket.com/location/saugus-ma-29/", "opening_hours": "Sunday-Saturday 11:00-22:00", "brand": "Boston Market"}, "geometry": {"type": "Point", "coordinates": [-71.016426, 42.490976]}},
{"type": "Feature", "id": "El1lUvNzYDv3lrPX5WTFThWQV5Y=", "properties": {"ref": "3203", "@spider": "boston_market", "addr:full": "Mass Turnpike Westbound I-90 Milepost 11", "addr:housenumber": "Mass", "addr:street": "Turnpike Westbound I-90 Milepost 11", "addr:city": "Framingham", "addr:state": "MA", "addr:postcode": "01701", "name": "Framingham #3203", "phone": "508-877-0700", "website": "http://www.bostonmarket.com/location/framingham-ma-3203/", "opening_hours": "Sunday-Saturday 11:00-21:00", "brand": "Boston Market"}, "geometry": {"type": "Point", "coordinates": [-71.428879, 42.312257]}},
{"type": "Feature", "id": "41DK2PrWouE5TaexFL9yjjRedUM=", "properties": {"ref": "3212", "@spider": "boston_market", "addr:full": "14 Park Avenue", "addr:housenumber": "14", "addr:street": "Park Avenue", "addr:city": "Worcester", "addr:state": "MA", "addr:postcode": "01605", "name": "Worcester #3212", "phone": "508-421-9352", "website": "http://www.bostonmarket.com/location/worcester-ma-3212/", "opening_hours": "Sunday-Saturday 11:00-21:00", "brand": "Boston Market"}, "geometry": {"type": "Point", "coordinates": [-71.808518, 42.283329]}},
{"type": "Feature", "id": "HEPSHZTD1oL0zBGlW4oKH2Ifvqo=", "properties": {"ref": "3230", "@spider": "boston_market", "addr:full": "30 12th Street", "addr:housenumber": "30", "addr:street": "12th Street", "addr:city": "Fall River", "addr:state": "MA", "addr:postcode": "02720", "name": "Fall River #3230", "phone": "508-324-1195", "website": "http://www.bostonmarket.com/location/fall-river-ma-3230/", "opening_hours": "Sunday-Thursday 11:00-23:00; Friday-Saturday 11:00-00:00", "brand": "Boston Market"}, "geometry": {"type": "Point", "coordinates": [-71.146515, 41.699852]}},
{"type": "Feature", "id": "YFOrQyluACJOfAORa7r21-RrbhQ=", "properties": {"ref": "329", "@spider": "boston_market", "addr:full": "1387 Boston Rd", "addr:housenumber": "1387", "addr:street": "Boston Rd", "addr:city": "Springfield", "addr:state": "MA", "addr:postcode": "01119", "name": "Springfield #329", "phone": "413-271-3808", "website": "http://www.bostonmarket.com/location/springfield-ma-329/", "opening_hours": "Sunday-Thursday 11:00-23:00; Friday-Saturday 11:00-00:00", "brand": "Boston Market"}, "geometry": {"type": "Point", "coordinates": [-72.497231, 42.141048]}},
{"type": "Feature", "id": "6K2G-ucAaIkDUPKEwTTqBH4MSKk=", "properties": {"ref": "4", "@spider": "boston_market", "addr:full": "152 Whalon St.", "addr:housenumber": "152", "addr:street": "Whalon St.", "addr:city": "Fitchburg", "addr:state": "MA", "addr:postcode": "01420", "name": "Fitchburg #4", "phone": "978-342-8329", "website": "http://www.bostonmarket.com/location/fitchburg-ma-4/", "opening_hours": "Sunday-Saturday 11:00-21:00", "brand": "Boston Market"}, "geometry": {"type": "Point", "coordinates": [-71.78415, 42.553538]}},
{"type": "Feature", "id": "SnDY6qMDXKf0U-sOwL9pupLqnQc=", "properties": {"ref": "594", "@spider": "boston_market", "addr:full": "126 Granite Street", "addr:housenumber": "126", "addr:street": "Granite Street", "addr:city": "Quincy", "addr:state": "MA", "addr:postcode": "02169", "name": "Quincy #594", "phone": "617-774-1155", "website": "http://www.bostonmarket.com/location/quincy-ma-594/", "opening_hours": "Sunday-Saturday 11:00-23:00", "brand": "Boston Market"}, "geometry": {"type": "Point", "coordinates": [-71.006086, 42.245885]}},
{"type": "Feature", "id": "m0NYoPamF4ccUWAGYcy4NpQ4TZg=", "properties": {"ref": "782", "@spider": "boston_market", "addr:full": "435 Winthrop Rd.", "addr:housenumber": "435", "addr:street": "Winthrop Rd.", "addr:city": "Lawrence", "addr:state": "MA", "addr:postcode": "01843", "name": "Lawrence #782", "phone": "978-725-8100", "website": "http://www.bostonmarket.com/location/lawrence-ma-782/", "opening_hours": "Sunday-Saturday 11:00-21:00", "brand": "Boston Market"}, "geometry": {"type": "Point", "coordinates": [-71.133686, 42.679501]}},
{"type": "Feature", "id": "Ds9wPxiyHR8FNPpU2HsZSTm2WHs=", "properties": {"ref": "812", "@spider": "boston_market", "addr:full": "189 Boston Post Rd. West", "addr:housenumber": "189", "addr:street": "Boston Post Rd. West", "addr:city": "Marlborough", "addr:state": "MA", "addr:postcode": "01752", "name": "Marlborough #812", "phone": "508-229-2525", "website": "http://www.bostonmarket.com/location/marlborough-ma-812/", "opening_hours": "Sunday-Saturday 11:00-21:00", "brand": "Boston Market"}, "geometry": {"type": "Point", "coordinates": [-71.589663, 42.339046]}},
{"type": "Feature", "id": "kg0b0KZnlZdNifHhk6lleh90ccA=", "properties": {"ref": "1083", "@spider": "boston_market", "addr:full": "43363 Crescent Blvd", "addr:housenumber": "43363", "addr:street": "Crescent Blvd", "addr:city": "Novi", "addr:state": "MI", "addr:postcode": "48376", "name": "Novi #1083", "phone": "248-449-6311", "website": "http://www.bostonmarket.com/location/novi-mi-1083/", "opening_hours": "Sunday-Saturday 11:00-21:00", "brand": "Boston Market"}, "geometry": {"type": "Point", "coordinates": [-83.474991, 42.483589]}},
{"type": "Feature", "id": "6EH334MPDXjDM0IxC6sdTHJf7JQ=", "properties": {"ref": "135", "@spider": "boston_market", "addr:full": "37105 Gratiot Avenue", "addr:housenumber": "37105", "addr:street": "Gratiot Avenue", "addr:city": "Clinton Township", "addr:state": "MI", "addr:postcode": "48036", "name": "Clinton Township #135", "phone": "586-463-8320", "website": "http://www.bostonmarket.com/location/clinton-township-mi-135/", "opening_hours": "Sunday-Saturday 11:00-22:00", "brand": "Boston Market"}, "geometry": {"type": "Point", "coordinates": [-82.891364, 42.570632]}},
{"type": "Feature", "id": "L6ONFPJYXckZJJiagKM-39Tb4SE=", "properties": {"ref": "169", "@spider": "boston_market", "addr:full": "13993 Hall Rd.", "addr:housenumber": "13993", "addr:street": "Hall Rd.", "addr:city": "Shelby Charter Towns", "addr:state": "MI", "addr:postcode": "48315", "name": "Charter Township of #169", "phone": "586-566-7170", "website": "http://www.bostonmarket.com/location/charter-township-of-mi-169/", "opening_hours": "Sunday-Saturday 11:00-22:00", "brand": "Boston Market"}, "geometry": {"type": "Point", "coordinates": [-82.990889, 42.627512]}},
{"type": "Feature", "id": "udt3ccNAF2Nvc2X_0DXfGuFm9rA=", "properties": {"ref": "1719", "@spider": "boston_market", "addr:full": "6435 South Cedar St.", "addr:housenumber": "6435", "addr:street": "South Cedar St.", "addr:city": "Lansing", "addr:state": "MI", "addr:postcode": "48911", "name": "Lansing #1719", "phone": "517-393-9955", "website": "http://www.bostonmarket.com/location/lansing-mi-1719/", "opening_hours": "Sunday-Saturday 11:00-22:00", "brand": "Boston Market"}, "geometry": {"type": "Point", "coordinates": [-84.540517, 42.664242]}},
{"type": "Feature", "id": "2jx7zxhpeOd48uC2SI2BywplRbA=", "properties": {"ref": "248", "@spider": "boston_market", "addr:full": "5160 Highland Road", "addr:housenumber": "5160", "addr:street": "Highland Road", "addr:city": "Waterford", "addr:state": "MI", "addr:postcode": "48327", "name": "Waterford #248", "phone": "248-674-8867", "website": "http://www.bostonmarket.com/location/waterford-mi-248/", "opening_hours": "Sunday-Saturday 11:00-22:00", "brand": "Boston Market"}, "geometry": {"type": "Point", "coordinates": [-83.389508, 42.660395]}},
{"type": "Feature", "id": "Sm_qcIWnUdV2DEUbj3W_zgMoyHo=", "properties": {"ref": "289", "@spider": "boston_market", "addr:full": "19055 Middlebelt Rd.", "addr:housenumber": "19055", "addr:street": "Middlebelt Rd.", "addr:city": "Livonia", "addr:state": "MI", "addr:postcode": "48152", "name": "Livonia #289", "phone": "248-442-7790", "website": "http://www.bostonmarket.com/location/livonia-mi-289/", "opening_hours": "Sunday-Saturday 11:00-22:00", "brand": "Boston Market"}, "geometry": {"type": "Point", "coordinates": [-83.335838, 42.426281]}},
{"type": "Feature", "id": "UyGBTxC9Qb_v53ms-bcPetsS3vY=", "properties": {"ref": "501", "@spider": "boston_market", "addr:full": "43450 Ford Rd.", "addr:housenumber": "43450", "addr:street": "Ford Rd.", "addr:city": "Canton", "addr:state": "MI", "addr:postcode": "48187", "name": "Canton #501", "phone": "734-844-1200", "website": "http://www.bostonmarket.com/location/canton-mi-501/", "opening_hours": "Sunday-Saturday 11:00-22:00", "brand": "Boston Market"}, "geometry": {"type": "Point", "coordinates": [-83.468887, 42.3223]}},
{"type": "Feature", "id": "R-ha5o6Z1QrI-A76-qwRZ9AkVnY=", "properties": {"ref": "539", "@spider": "boston_market", "addr:full": "36440 Ford Rd.", "addr:housenumber": "36440", "addr:street": "Ford Rd.", "addr:city": "Westland", "addr:state": "MI", "addr:postcode": "48185", "name": "Westland #539", "phone": "734-728-7676", "website": "http://www.bostonmarket.com/location/westland-mi-539/", "opening_hours": "Sunday-Saturday 11:00-23:00", "brand": "Boston Market"}, "geometry": {"type": "Point", "coordinates": [-83.400597, 42.324223]}},
{"type": "Feature", "id": "piILNxvDGqIdAVNgP7eebPhgFeg=", "properties": {"ref": "543", "@spider": "boston_market", "addr:full": "5651 Mercury Dr.", "addr:housenumber": "5651", "addr:street": "Mercury Dr.", "addr:city": "Dearborn", "addr:state": "MI", "addr:postcode": "48126", "name": "Dearborn #543", "phone": "313-441-3200", "website": "http://www.bostonmarket.com/location/dearborn-mi-543/", "opening_hours": "Sunday-Saturday 11:00-22:00", "brand": "Boston Market"}, "geometry": {"type": "Point", "coordinates": [-83.204631, 42.330243]}},
{"type": "Feature", "id": "ZR0JL0lm_Vb4-q9IZ9Bm3Z4jf_I=", "properties": {"ref": "562", "@spider": "boston_market", "addr:full": "638 16th Street E", "addr:housenumber": "638", "addr:street": "16th Street E", "addr:city": "Holland", "addr:state": "MI", "addr:postcode": "49423", "name": "Holland #562", "phone": "616-395-9535", "website": "http://www.bostonmarket.com/location/holland-mi-562/", "opening_hours": "Sunday-Saturday 11:00-21:00", "brand": "Boston Market"}, "geometry": {"type": "Point", "coordinates": [-86.079811, 42.783207]}},
{"type": "Feature", "id": "_GlIvYCcUM2CuVflDLL77Q8qZEY=", "properties": {"ref": "59", "@spider": "boston_market", "addr:full": "20195 Mack Road", "addr:housenumber": "20195", "addr:street": "Mack Road", "addr:city": "Grosse Pointe Woods", "addr:state": "MI", "addr:postcode": "48236", "name": "Grosse Pointe Woods #59", "phone": "313-885-6480", "website": "http://www.bostonmarket.com/location/grosse-pointe-woods-mi-59/", "opening_hours": "Sunday-Saturday 11:00-22:00", "brand": "Boston Market"}, "geometry": {"type": "Point", "coordinates": [-82.908318, 42.435455]}},
{"type": "Feature", "id": "pLY_2f0TD4tnCqKgFAOwcSVJFRY=", "properties": {"ref": "600", "@spider": "boston_market", "addr:full": "15424 Southfield Rd.", "addr:housenumber": "15424", "addr:street": "Southfield Rd.", "addr:city": "Allen Park", "addr:state": "MI", "addr:postcode": "48101", "name": "Allen Park #600", "phone": "313-381-8600", "website": "http://www.bostonmarket.com/location/allen-park-mi-600/", "opening_hours": "Sunday-Saturday 11:00-22:00", "brand": "Boston Market"}, "geometry": {"type": "Point", "coordinates": [-83.205122, 42.258955]}},
{"type": "Feature", "id": "KBWDwLoB7vqPWvHUTcnSLOC4GII=", "properties": {"ref": "68", "@spider": "boston_market", "addr:full": "26021 Hoover Road", "addr:housenumber": "26021", "addr:street": "Hoover Road", "addr:city": "Warren", "addr:state": "MI", "addr:postcode": "48089", "name": "Warren #68", "phone": "586-757-9970", "website": "http://www.bostonmarket.com/location/warren-mi-68/", "opening_hours": "Sunday-Thursday 11:00-23:00; Friday-Saturday 11:00-00:00", "brand": "Boston Market"}, "geometry": {"type": "Point", "coordinates": [-83.006392, 42.485372]}},
{"type": "Feature", "id": "3U8dNv3at_FYbMc-tKrYzmsLHyA=", "properties": {"ref": "77", "@spider": "boston_market", "addr:full": "29940 Southfield Road", "addr:housenumber": "29940", "addr:street": "Southfield Road", "addr:city": "Southfield", "addr:state": "MI", "addr:postcode": "48076", "name": "Southfield #77", "phone": "248-557-7020", "website": "http://www.bostonmarket.com/location/southfield-mi-77/", "opening_hours": "Sunday-Saturday 11:00-22:00", "brand": "Boston Market"}, "geometry": {"type": "Point", "coordinates": [-83.222864, 42.50925]}},
{"type": "Feature", "id": "8jAEysRGn4QB1QttRhaN7wPMnC4=", "properties": {"ref": "976", "@spider": "boston_market", "addr:full": "18610 Livernois", "addr:housenumber": "18610", "addr:street": "Livernois", "addr:city": "Detroit", "addr:state": "MI", "addr:postcode": "48221", "name": "Detroit #976", "phone": "313-341-0111", "website": "http://www.bostonmarket.com/location/detroit-mi-976/", "opening_hours": "Sunday-Saturday 11:00-22:00", "brand": "Boston Market"}, "geometry": {"type": "Point", "coordinates": [-83.141188, 42.428212]}},
{"type": "Feature", "id": "FOPSPMAYsF4YBTKwMa8VDr4YxGk=", "properties": {"ref": "432", "@spider": "boston_market", "addr:full": "1317 Reisterstown Road", "addr:housenumber": "1317", "addr:street": "Reisterstown Road", "addr:city": "Pikesville", "addr:state": "MD", "addr:postcode": "21208", "name": "Pikesville #432", "phone": "410-484-2400", "website": "http://www.bostonmarket.com/location/pikesville-md-432/", "opening_hours": "Sunday-Saturday 11:00-21:00", "brand": "Boston Market"}, "geometry": {"type": "Point", "coordinates": [-76.724014, 39.375736]}},
{"type": "Feature", "id": "xQfNGr0ap2Yf-N09fZfBNzWU0P0=", "properties": {"ref": "683", "@spider": "boston_market", "addr:full": "6336 York Road", "addr:housenumber": "6336", "addr:street": "York Road", "addr:city": "Baltimore", "addr:state": "MD", "addr:postcode": "21212", "name": "Baltimore #683", "phone": "410-372-0220", "website": "http://www.bostonmarket.com/location/baltimore-md-683/", "opening_hours": "Sunday-Thursday 11:00-23:00; Friday-Saturday 11:00-00:00", "brand": "Boston Market"}, "geometry": {"type": "Point", "coordinates": [-76.609855, 39.3724]}},
{"type": "Feature", "id": "mzy6VxhvlhJiDT9R2eg4vrRqKzs=", "properties": {"ref": "939", "@spider": "boston_market", "addr:full": "600 Marketplace Drive", "addr:housenumber": "600", "addr:street": "Marketplace Drive", "addr:city": "Bel Air", "addr:state": "MD", "addr:postcode": "21014", "name": "Bel Air #939", "phone": "410-638-1530", "website": "http://www.bostonmarket.com/location/bel-air-md-939/", "opening_hours": "Sunday-Saturday 11:00-21:00", "brand": "Boston Market"}, "geometry": {"type": "Point", "coordinates": [-76.35054, 39.523733]}},
{"type": "Feature", "id": "ZCfH27tmntdWQfr4QPrWuv6LqIk=", "properties": {"ref": "1588", "@spider": "boston_market", "addr:full": "4801 Kietzke Lane", "addr:housenumber": "4801", "addr:street": "Kietzke Lane", "addr:city": "Reno", "addr:state": "NV", "addr:postcode": "89502", "name": "Reno #1588", "phone": "775-827-5900", "website": "http://www.bostonmarket.com/location/reno-nv-1588/", "opening_hours": "Sunday-Saturday 11:00-20:00", "brand": "Boston Market"}, "geometry": {"type": "Point", "coordinates": [-119.792564, 39.481878]}},
{"type": "Feature", "id": "kIOxEf9Kk3sRMQKrMdi9wm1gIuw=", "properties": {"ref": "554", "@spider": "boston_market", "addr:full": "5640 Wyoming Blvd. NE", "addr:housenumber": "5640", "addr:street": "Wyoming Blvd. NE", "addr:city": "Albuquerque", "addr:state": "NM", "addr:postcode": "87109", "name": "Albuquerque #554", "phone": "505-857-0700", "website": "http://www.bostonmarket.com/location/albuquerque-nm-554/", "opening_hours": "Sunday-Saturday 10:30-22:00", "brand": "Boston Market"}, "geometry": {"type": "Point", "coordinates": [-106.552811, 35.145412]}},
{"type": "Feature", "id": "z4slYbv0VSjgbL61-Kx809TezXQ=", "properties": {"ref": "1092", "@spider": "boston_market", "addr:full": "83-02 Atlantic Avenue", "addr:housenumber": "83-02", "addr:street": "Atlantic Avenue", "addr:city": "Ozone Park", "addr:state": "NY", "addr:postcode": "11416", "name": "Ozone Park #1092", "phone": "718-647-4700", "website": "http://www.bostonmarket.com/location/ozone-park-ny-1092/", "opening_hours": "Sunday-Thursday 11:00-23:00; Friday-Saturday 11:00-00:00", "brand": "Boston Market"}, "geometry": {"type": "Point", "coordinates": [-73.857979, 40.685421]}},
{"type": "Feature", "id": "jWjnHqLP5xqj796q-kgCBS_uu-8=", "properties": {"ref": "1153", "@spider": "boston_market", "addr:full": "854 Arthur Kill Road", "addr:housenumber": "854", "addr:street": "Arthur Kill Road", "addr:city": "Staten Island", "addr:state": "NY", "addr:postcode": "10312", "name": "Staten Island #1153", "phone": "718-227-8200", "website": "http://www.bostonmarket.com/location/staten-island-ny-1153/", "opening_hours": "Sunday-Thursday 11:00-22:00; Friday-Saturday 11:00-23:00", "brand": "Boston Market"}, "geometry": {"type": "Point", "coordinates": [-74.169281, 40.560919]}},
{"type": "Feature", "id": "4HyL5AkSmHxtNvOD4c4BoP6CRis=", "properties": {"ref": "1169", "@spider": "boston_market", "addr:full": "400 Route 211 East", "addr:housenumber": "400", "addr:street": "Route 211 East", "addr:city": "Middletown", "addr:state": "NY", "addr:postcode": "10940", "name": "Middletown #1169", "phone": "845-344-1817", "website": "http://www.bostonmarket.com/location/middletown-ny-1169/", "opening_hours": "Sunday-Saturday 11:00-21:00", "brand": "Boston Market"}, "geometry": {"type": "Point", "coordinates": [-74.386612, 41.455666]}},
{"type": "Feature", "id": "dZxjLNBiFaTJOherhw7D7cDWhhk=", "properties": {"ref": "1179", "@spider": "boston_market", "addr:full": "419 Old Country Road", "addr:housenumber": "419", "addr:street": "Old Country Road", "addr:city": "Westbury", "addr:state": "NY", "addr:postcode": "11590", "name": "Westbury #1179", "phone": "516-997-0777", "website": "http://www.bostonmarket.com/location/westbury-ny-1179/", "opening_hours": "Sunday-Saturday 11:00-22:00", "brand": "Boston Market"}, "geometry": {"type": "Point", "coordinates": [-73.598999, 40.745979]}},
{"type": "Feature", "id": "P7gQsqlCjFoz1N_7Eb2yOz9-YbA=", "properties": {"ref": "1412", "@spider": "boston_market", "addr:full": "942 Jefferson Road", "addr:housenumber": "942", "addr:street": "Jefferson Road", "addr:city": "Rochester", "addr:state": "NY", "addr:postcode": "14623", "name": "Rochester #1412", "phone": "585-272-8110", "website": "http://www.bostonmarket.com/location/rochester-ny-1412/", "opening_hours": "Sunday-Saturday 11:00-21:00", "brand": "Boston Market"}, "geometry": {"type": "Point", "coordinates": [-77.611969, 43.087196]}},
{"type": "Feature", "id": "u4ZVGvj3lFmosWdXWVJMfZJFpcc=", "properties": {"ref": "1589", "@spider": "boston_market", "addr:full": "1972 Ralph Avenue", "addr:housenumber": "1972", "addr:street": "Ralph Avenue", "addr:city": "Brooklyn", "addr:state": "NY", "addr:postcode": "11234", "name": "Brooklyn #1589", "phone": "718-241-5700", "website": "http://www.bostonmarket.com/location/brooklyn-ny-1589/", "opening_hours": "Sunday-Saturday 11:00-00:00", "brand": "Boston Market"}, "geometry": {"type": "Point", "coordinates": [-73.918393, 40.629253]}},
{"type": "Feature", "id": "g7ywzYJo7qPyWwz9vQWavftSVQM=", "properties": {"ref": "1669", "@spider": "boston_market", "addr:full": "50-01 Queens Boulevard", "addr:housenumber": "50-01", "addr:street": "Queens Boulevard", "addr:city": "Woodside", "addr:state": "NY", "addr:postcode": "11377", "name": "Woodside #1669", "phone": "718-779-3700", "website": "http://www.bostonmarket.com/location/woodside-ny-1669/", "opening_hours": "Sunday-Thursday 11:00-23:00; Friday-Saturday 11:00-00:00", "brand": "Boston Market"}, "geometry": {"type": "Point", "coordinates": [-73.914627, 40.742882]}},
{"type": "Feature", "id": "3thPTgOFLymS3Jm-ThNecq1Tiu4=", "properties": {"ref": "1672", "@spider": "boston_market", "addr:full": "603 Hempstead Turnpike", "addr:housenumber": "603", "addr:street": "Hempstead Turnpike", "addr:city": "West Hempstead", "addr:state": "NY", "addr:postcode": "11552", "name": "West Hempstead #1672", "phone": "516-539-0500", "website": "http://www.bostonmarket.com/location/west-hempstead-ny-1672/", "opening_hours": "Sunday-Thursday 11:00-23:00; Friday-Saturday 11:00-00:00", "brand": "Boston Market"}, "geometry": {"type": "Point", "coordinates": [-73.661585, 40.70635]}},
{"type": "Feature", "id": "5n2m1MC_X5jvz2Io3wX8QQOskLw=", "properties": {"ref": "2096", "@spider": "boston_market", "addr:full": "605 Portion Rd.", "addr:housenumber": "605", "addr:street": "Portion Rd.", "addr:city": "Lake Ronkonkoma", "addr:state": "NY", "addr:postcode": "11779", "name": "Lake Ronkonkoma #2096", "phone": "631-471-4800", "website": "http://www.bostonmarket.com/location/lake-ronkonkoma-ny-2096/", "opening_hours": "Sunday-Saturday 11:00-23:00", "brand": "Boston Market"}, "geometry": {"type": "Point", "coordinates": [-73.086934, 40.831508]}},
{"type": "Feature", "id": "gk3ggWpBLKp90WyTD-NiUb6MYqU=", "properties": {"ref": "211", "@spider": "boston_market", "addr:full": "667 W. Boston Post Road", "addr:housenumber": "667", "addr:street": "W. Boston Post Road", "addr:city": "Mamaroneck", "addr:state": "NY", "addr:postcode": "10543", "name": "Mamaroneck #211", "phone": "914-777-1017", "website": "http://www.bostonmarket.com/location/mamaroneck-ny-211/", "opening_hours": "Sunday-Saturday 11:00-22:00", "brand": "Boston Market"}, "geometry": {"type": "Point", "coordinates": [-73.73945, 40.94351]}},
{"type": "Feature", "id": "iG-hc8JUkQ4pkQxTa9hGuN-Gz-U=", "properties": {"ref": "2238", "@spider": "boston_market", "addr:full": "18 Westage Drive", "addr:housenumber": "18", "addr:street": "Westage Drive", "addr:city": "Fishkill", "addr:state": "NY", "addr:postcode": "12524", "name": "Fishkill #2238", "phone": "845-896-1212", "website": "http://www.bostonmarket.com/location/fishkill-ny-2238/", "opening_hours": "Sunday-Saturday 11:00-22:00", "brand": "Boston Market"}, "geometry": {"type": "Point", "coordinates": [-73.893906, 41.526722]}},
{"type": "Feature", "id": "ArdeXOMzJmDVoBUCrXnpagl3v1I=", "properties": {"ref": "225", "@spider": "boston_market", "addr:full": "2091 Hillside Avenue", "addr:housenumber": "2091", "addr:street": "Hillside Avenue", "addr:city": "New Hyde Park", "addr:state": "NY", "addr:postcode": "11040", "name": "New Hyde Park #225", "phone": "516-328-2424", "website": "http://www.bostonmarket.com/location/new-hyde-park-ny-225/", "opening_hours": "Sunday-Saturday 11:00-23:00", "brand": "Boston Market"}, "geometry": {"type": "Point", "coordinates": [-73.67374, 40.751474]}},
{"type": "Feature", "id": "bDp1x3wknuhZ8RvLM_Fo-qAPBT0=", "properties": {"ref": "232", "@spider": "boston_market", "addr:full": "753 New Loudon Rd.", "addr:housenumber": "753", "addr:street": "New Loudon Rd.", "addr:city": "Latham", "addr:state": "NY", "addr:postcode": "12110", "name": "Latham #232", "phone": "518-785-7509", "website": "http://www.bostonmarket.com/location/latham-ny-232/", "opening_hours": "Sunday-Saturday 11:00-22:00", "brand": "Boston Market"}, "geometry": {"type": "Point", "coordinates": [-73.761789, 42.743584]}},
{"type": "Feature", "id": "hU5aHjumPgdFsjruWiXuGTBub_k=", "properties": {"ref": "234", "@spider": "boston_market", "addr:full": "966 Middle Country Rd.", "addr:housenumber": "966", "addr:street": "Middle Country Rd.", "addr:city": "Selden", "addr:state": "NY", "addr:postcode": "11784", "name": "Selden #234", "phone": "631-736-4577", "website": "http://www.bostonmarket.com/location/selden-ny-234/", "opening_hours": "Sunday-Saturday 11:00-22:00", "brand": "Boston Market"}, "geometry": {"type": "Point", "coordinates": [-73.046883, 40.864014]}},
{"type": "Feature", "id": "Tx1oqNb4VgLDQO7qE9i-oavfPyw=", "properties": {"ref": "2351", "@spider": "boston_market", "addr:full": "2170 Jericho Turnpike", "addr:housenumber": "2170", "addr:street": "Jericho Turnpike", "addr:city": "Commack", "addr:state": "NY", "addr:postcode": "11725", "name": "Commack #2351", "phone": "631-462-8700", "website": "http://www.bostonmarket.com/location/commack-ny-2351/", "opening_hours": "Sunday-Saturday 11:00-22:00", "brand": "Boston Market"}, "geometry": {"type": "Point", "coordinates": [-73.284569, 40.843094]}},
{"type": "Feature", "id": "nVkiQIKhOIpmt6aROT4qkprp4n0=", "properties": {"ref": "280", "@spider": "boston_market", "addr:full": "168 West Merrick Road", "addr:housenumber": "168", "addr:street": "West Merrick Road", "addr:city": "Valley Stream", "addr:state": "NY", "addr:postcode": "11580", "name": "Valley Stream #280", "phone": "516-561-5539", "website": "http://www.bostonmarket.com/location/valley-stream-ny-280/", "opening_hours": "Sunday-Thursday 11:00-23:00; Friday-Saturday 11:00-00:00", "brand": "Boston Market"}, "geometry": {"type": "Point", "coordinates": [-73.703639, 40.666324]}},
{"type": "Feature", "id": "jGoD_cqP_w0sG5f_GzGKCWyBXjk=", "properties": {"ref": "311", "@spider": "boston_market", "addr:full": "3962 Hempstead Tpke.", "addr:housenumber": "3962", "addr:street": "Hempstead Tpke.", "addr:city": "Bethpage", "addr:state": "NY", "addr:postcode": "11714", "name": "Bethpage #311", "phone": "516-579-0779", "website": "http://www.bostonmarket.com/location/bethpage-ny-311/", "opening_hours": "Sunday-Saturday 11:00-22:00", "brand": "Boston Market"}, "geometry": {"type": "Point", "coordinates": [-73.489159, 40.725239]}},
{"type": "Feature", "id": "Ux-PaCT-ia9HyQc9BYZatjnkYyI=", "properties": {"ref": "3302", "@spider": "boston_market", "addr:full": "451 E.149th Street", "addr:housenumber": "451", "addr:street": "E.149th Street", "addr:city": "Bronx", "addr:state": "NY", "addr:postcode": "10455", "name": "Bronx #3302", "phone": "718-764-0266", "website": "http://www.bostonmarket.com/location/bronx-ny-3302/", "opening_hours": "Sunday-Saturday 11:00-22:00", "brand": "Boston Market"}, "geometry": {"type": "Point", "coordinates": [-73.91536, 40.81556]}},
{"type": "Feature", "id": "rQ0CSt0ojiMRoYBiCMQShW9FJT4=", "properties": {"ref": "3303", "@spider": "boston_market", "addr:full": "1340 Pennsylvania Ave", "addr:housenumber": "1340", "addr:street": "Pennsylvania Ave", "addr:city": "Brooklyn", "addr:state": "NY", "addr:postcode": "11239", "name": "New York #3303", "phone": "929-379-0034", "website": "http://www.bostonmarket.com/location/new-york-ny-3303/", "opening_hours": "Sunday-Saturday 11:00-23:00", "brand": "Boston Market"}, "geometry": {"type": "Point", "coordinates": [-73.882422, 40.64852]}},
{"type": "Feature", "id": "g1XgdjXh8TyduKabXAz-289EBIk=", "properties": {"ref": "3305", "@spider": "boston_market", "addr:full": "29 Hugh J Grant Circle", "addr:housenumber": "29", "addr:street": "Hugh J Grant Circle", "addr:city": "Bronx", "addr:state": "NY", "addr:postcode": "10462", "name": "Bronx #3305", "phone": "347-719-4754", "website": "http://www.bostonmarket.com/location/bronx-ny-3305/", "opening_hours": "Sunday-Saturday 11:00-22:00", "brand": "Boston Market"}, "geometry": {"type": "Point", "coordinates": [-73.861214, 40.833827]}},
{"type": "Feature", "id": "Xc4FztzEDIZiBqhbJRoZ-_3_jwI=", "properties": {"ref": "3306", "@spider": "boston_market", "addr:full": "5520 Broadway", "addr:housenumber": "5520", "addr:street": "Broadway", "addr:city": "Bronx", "addr:state": "NY", "addr:postcode": "10463", "name": "Bronx #3306", "phone": "929-565-4500", "website": "http://www.bostonmarket.com/location/bronx-ny-3306/", "opening_hours": "Sunday-Saturday 11:00-22:00", "brand": "Boston Market"}, "geometry": {"type": "Point", "coordinates": [-73.905752, 40.877232]}},
{"type": "Feature", "id": "1WbvxY6WUg3JCOnIERUfLXydVBU=", "properties": {"ref": "3308", "@spider": "boston_market", "addr:full": "880 White Plains Rd.", "addr:housenumber": "880", "addr:street": "White Plains Rd.", "addr:city": "Bronx", "addr:state": "NY", "addr:postcode": "10473", "name": "New York #3308", "phone": "929-279-0075", "website": "http://www.bostonmarket.com/location/new-york-ny-3308/", "opening_hours": "Sunday-Saturday 11:00-22:00", "brand": "Boston Market"}, "geometry": {"type": "Point", "coordinates": [-73.858612, 40.82374]}},
{"type": "Feature", "id": "WJX0wuEP2dlqooJFW5NxedDpBHo=", "properties": {"ref": "3309", "@spider": "boston_market", "addr:full": "165-02 Jamaica Avenue", "addr:housenumber": "165-02", "addr:street": "Jamaica Avenue", "addr:city": "Queens", "addr:state": "NY", "addr:postcode": "11433", "name": "Queens #3309", "phone": "929-350-0577", "website": "http://www.bostonmarket.com/location/queens-ny-3309/", "opening_hours": "Sunday-Saturday 11:00-22:00", "brand": "Boston Market"}, "geometry": {"type": "Point", "coordinates": [-73.794668, 40.705406]}},
{"type": "Feature", "id": "wv10PhiNfAcQuiLg_WRHYp-s694=", "properties": {"ref": "373", "@spider": "boston_market", "addr:full": "3100 Xavier Drive", "addr:housenumber": "3100", "addr:street": "Xavier Drive", "addr:city": "Yonkers", "addr:state": "NY", "addr:postcode": "10701", "name": "Yonkers #373", "phone": "914-963-1305", "website": "http://www.bostonmarket.com/location/yonkers-ny-373/", "opening_hours": "Sunday-Saturday 10:30-23:00", "brand": "Boston Market"}, "geometry": {"type": "Point", "coordinates": [-73.85222, 40.929222]}},
{"type": "Feature", "id": "lsrCWBZfL2zNkpmdlSuTMRPuMiY=", "properties": {"ref": "418", "@spider": "boston_market", "addr:full": "168 Atlantic Avenue", "addr:housenumber": "168", "addr:street": "Atlantic Avenue", "addr:city": "Freeport", "addr:state": "NY", "addr:postcode": "11520", "name": "Freeport #418", "phone": "516-377-4220", "website": "http://www.bostonmarket.com/location/freeport-ny-418/", "opening_hours": "Sunday-Thursday 11:00-23:00; Friday-Saturday 11:00-00:00", "brand": "Boston Market"}, "geometry": {"type": "Point", "coordinates": [-73.582844, 40.645933]}},
{"type": "Feature", "id": "q2sn6_PyDAJKc2E5eESDlfbJWwM=", "properties": {"ref": "423", "@spider": "boston_market", "addr:full": "23-90 Bell Blvd", "addr:housenumber": "23-90", "addr:street": "Bell Blvd", "addr:city": "Bayside", "addr:state": "NY", "addr:postcode": "11360", "name": "Bayside #423", "phone": "718-224-1747", "website": "http://www.bostonmarket.com/location/bayside-ny-423/", "opening_hours": "Sunday-Thursday 11:00-22:00; Friday-Saturday 11:00-23:00", "brand": "Boston Market"}, "geometry": {"type": "Point", "coordinates": [-73.775509, 40.779704]}},
{"type": "Feature", "id": "cGE0jDqjRjK22-9jTdIgowf0gUk=", "properties": {"ref": "463", "@spider": "boston_market", "addr:full": "100 N. Broadway", "addr:housenumber": "100", "addr:street": "N. Broadway", "addr:city": "Hicksville", "addr:state": "NY", "addr:postcode": "11801", "name": "Hicksville #463", "phone": "516-822-1484", "website": "http://www.bostonmarket.com/location/hicksville-ny-463/", "opening_hours": "Sunday-Saturday 11:00-22:00", "brand": "Boston Market"}, "geometry": {"type": "Point", "coordinates": [-73.527179, 40.771642]}},
{"type": "Feature", "id": "zMqvdEe_xzOuH0dO3F6ac8EJtCI=", "properties": {"ref": "464", "@spider": "boston_market", "addr:full": "1605 Deer Park Avenue", "addr:housenumber": "1605", "addr:street": "Deer Park Avenue", "addr:city": "Deer Park", "addr:state": "NY", "addr:postcode": "11729", "name": "Deer Park #464", "phone": "631-254-0922", "website": "http://www.bostonmarket.com/location/deer-park-ny-464/", "opening_hours": "Sunday-Saturday 11:00-22:00", "brand": "Boston Market"}, "geometry": {"type": "Point", "coordinates": [-73.324974, 40.750759]}},
{"type": "Feature", "id": "xdr4zJCueAFOCHnXcuZNVKjM5Ys=", "properties": {"ref": "533", "@spider": "boston_market", "addr:full": "654 Central Park Ave.", "addr:housenumber": "654", "addr:street": "Central Park Ave.", "addr:city": "Scarsdale", "addr:state": "NY", "addr:postcode": "10583", "name": "Scarsdale #533", "phone": "914-472-5038", "website": "http://www.bostonmarket.com/location/scarsdale-ny-533/", "opening_hours": "Sunday-Saturday 11:00-22:00", "brand": "Boston Market"}, "geometry": {"type": "Point", "coordinates": [-73.81521, 41.000051]}},
{"type": "Feature", "id": "_c9wdiJwg6QNU5RumwsD9RpiIvE=", "properties": {"ref": "54", "@spider": "boston_market", "addr:full": "130 North Bedford Rd", "addr:housenumber": "130", "addr:street": "North Bedford Rd", "addr:city": "Mount Kisco", "addr:state": "NY", "addr:postcode": "10549", "name": "Mount Kisco #54", "phone": "914-241-8800", "website": "http://www.bostonmarket.com/location/mount-kisco-ny-54/", "opening_hours": "Sunday-Saturday 11:00-22:00", "brand": "Boston Market"}, "geometry": {"type": "Point", "coordinates": [-73.721108, 41.212662]}},
{"type": "Feature", "id": "d9R-ufaU638K3ARazbvM8ox1Fg4=", "properties": {"ref": "546", "@spider": "boston_market", "addr:full": "5124 Northern Boulevard", "addr:housenumber": "5124", "addr:street": "Northern Boulevard", "addr:city": "Woodside", "addr:state": "NY", "addr:postcode": "11377", "name": "Woodside #546", "phone": "718-533-1389", "website": "http://www.bostonmarket.com/location/woodside-ny-546/", "opening_hours": "Sunday-Thursday 11:00-23:00; Friday-Saturday 11:00-00:00", "brand": "Boston Market"}, "geometry": {"type": "Point", "coordinates": [-73.910028, 40.752016]}},
{"type": "Feature", "id": "nETZxc50c2k4q9SPcmUwgokeR8I=", "properties": {"ref": "597", "@spider": "boston_market", "addr:full": "163 East Montauk Hwy", "addr:housenumber": "163", "addr:street": "East Montauk Hwy", "addr:city": "Lindenhurst", "addr:state": "NY", "addr:postcode": "11757", "name": "Lindenhurst #597", "phone": "631-957-7046", "website": "http://www.bostonmarket.com/location/lindenhurst-ny-597/", "opening_hours": "Sunday-Saturday 11:00-22:00", "brand": "Boston Market"}, "geometry": {"type": "Point", "coordinates": [-73.359619, 40.680378]}},
{"type": "Feature", "id": "KAd5EvtkH8tcGwWN4TGyuompcf8=", "properties": {"ref": "617", "@spider": "boston_market", "addr:full": "2380 Delaware Ave.", "addr:housenumber": "2380", "addr:street": "Delaware Ave.", "addr:city": "Buffalo", "addr:state": "NY", "addr:postcode": "14216", "name": "Buffalo #617", "phone": "716-873-4548", "website": "http://www.bostonmarket.com/location/buffalo-ny-617/", "opening_hours": "Sunday 11:00-22:00; Monday-Thursday 11:00-23:00; Friday-Saturday 11:00-00:00", "brand": "Boston Market"}, "geometry": {"type": "Point", "coordinates": [-78.868614, 42.949268]}},
{"type": "Feature", "id": "8fGK4ScZ4ndAxd3b6snmlgVJjd4=", "properties": {"ref": "641", "@spider": "boston_market", "addr:full": "61-45 188th St", "addr:housenumber": "61-45", "addr:street": "188th St", "addr:city": "Fresh Meadows", "addr:state": "NY", "addr:postcode": "11365", "name": "Fresh Meadows #641", "phone": "718-264-7137", "website": "http://www.bostonmarket.com/location/fresh-meadows-ny-641/", "opening_hours": "Sunday-Thursday 11:00-23:00; Friday-Saturday 11:00-00:00", "brand": "Boston Market"}, "geometry": {"type": "Point", "coordinates": [-73.785869, 40.739414]}},
{"type": "Feature", "id": "guIQuW5h8LmcxR-CRr2SKLs8duw=", "properties": {"ref": "663", "@spider": "boston_market", "addr:full": "1465 Forest Avenue", "addr:housenumber": "1465", "addr:street": "Forest Avenue", "addr:city": "Staten Island", "addr:state": "NY", "addr:postcode": "10302", "name": "Staten Island #663", "phone": "718-815-1198", "website": "http://www.bostonmarket.com/location/staten-island-ny-663/", "opening_hours": "Sunday-Thursday 11:00-23:00; Friday-Saturday 11:00-00:00", "brand": "Boston Market"}, "geometry": {"type": "Point", "coordinates": [-74.137329, 40.624287]}},
{"type": "Feature", "id": "tOWBD3ITBho5NNpvIAFopvZdc6w=", "properties": {"ref": "852", "@spider": "boston_market", "addr:full": "803 Montauk Highway", "addr:housenumber": "803", "addr:street": "Montauk Highway", "addr:city": "Shirley", "addr:state": "NY", "addr:postcode": "11967", "name": "Shirley #852", "phone": "631-395-5015", "website": "http://www.bostonmarket.com/location/shirley-ny-852/", "opening_hours": "Sunday-Saturday 11:00-22:00", "brand": "Boston Market"}, "geometry": {"type": "Point", "coordinates": [-72.868439, 40.801098]}},
{"type": "Feature", "id": "UV4Z6Gnanl68h7c7nZZsOulOJLE=", "properties": {"ref": "875", "@spider": "boston_market", "addr:full": "23 W. Main St.", "addr:housenumber": "23", "addr:street": "W. Main St.", "addr:city": "East Islip", "addr:state": "NY", "addr:postcode": "11730", "name": "East Islip #875", "phone": "631-277-3232", "website": "http://www.bostonmarket.com/location/east-islip-ny-875/", "opening_hours": "Sunday-Saturday 11:00-22:00", "brand": "Boston Market"}, "geometry": {"type": "Point", "coordinates": [-73.191884, 40.730993]}},
{"type": "Feature", "id": "rh1GFc0QeOl7t-_W4bskAEKobyM=", "properties": {"ref": "879", "@spider": "boston_market", "addr:full": "60-18 Metropolitan Avenue", "addr:housenumber": "60-18", "addr:street": "Metropolitan Avenue", "addr:city": "Ridgewood", "addr:state": "NY", "addr:postcode": "11385", "name": "Ridgewood #879", "phone": "718-386-5858", "website": "http://www.bostonmarket.com/location/ridgewood-ny-879/", "opening_hours": "Sunday-Thursday 11:00-23:00; Friday-Saturday 11:00-00:00", "brand": "Boston Market"}, "geometry": {"type": "Point", "coordinates": [-73.904631, 40.712811]}},
{"type": "Feature", "id": "kdrnxb3x7UClbh7S_RoQRRMKWlc=", "properties": {"ref": "915", "@spider": "boston_market", "addr:full": "343 Rockaway Turnpike", "addr:housenumber": "343", "addr:street": "Rockaway Turnpike", "addr:city": "Lawrence", "addr:state": "NY", "addr:postcode": "11559", "name": "Lawrence #915", "phone": "516-239-0357", "website": "http://www.bostonmarket.com/location/lawrence-ny-915/", "opening_hours": "Sunday-Saturday 11:00-22:00", "brand": "Boston Market"}, "geometry": {"type": "Point", "coordinates": [-73.736807, 40.627207]}},
{"type": "Feature", "id": "_FJQO6edYshkQkVOowtpZ4QOR7w=", "properties": {"ref": "950", "@spider": "boston_market", "addr:full": "3371-85 East Tremont Avenue", "addr:housenumber": "3371-85", "addr:street": "East Tremont Avenue", "addr:city": "Bronx", "addr:state": "NY", "addr:postcode": "10465", "name": "Bronx #950", "phone": "718-824-0440", "website": "http://www.bostonmarket.com/location/bronx-ny-950/", "opening_hours": "Sunday-Thursday 11:00-23:00; Friday-Saturday 11:00-00:00", "brand": "Boston Market"}, "geometry": {"type": "Point", "coordinates": [-73.828789, 40.83395]}},
{"type": "Feature", "id": "fTER-dwnhakxqDaxRRtUgVzdrRE=", "properties": {"ref": "990", "@spider": "boston_market", "addr:full": "106-24 71st Avenue", "addr:housenumber": "106-24", "addr:street": "71st Avenue", "addr:city": "Forest Hills", "addr:state": "NY", "addr:postcode": "11375", "name": "Forest Hills #990", "phone": "718-261-0500", "website": "http://www.bostonmarket.com/location/forest-hills-ny-990/", "opening_hours": "Sunday-Saturday 11:00-22:00", "brand": "Boston Market"}, "geometry": {"type": "Point", "coordinates": [-73.84472, 40.719997]}},
{"type": "Feature", "id": "0pNZk544yA4QhtpcNXhhfQDDvVA=", "properties": {"ref": "1008", "@spider": "boston_market", "addr:full": "770 Route 33", "addr:housenumber": "770", "addr:street": "Route 33", "addr:city": "Hamilton", "addr:state": "NJ", "addr:postcode": "08619", "name": "Hamilton #1008", "phone": "609-631-9200", "website": "http://www.bostonmarket.com/location/hamilton-nj-1008/", "opening_hours": "Sunday-Saturday 11:00-22:00", "brand": "Boston Market"}, "geometry": {"type": "Point", "coordinates": [-74.675674, 40.230679]}},
{"type": "Feature", "id": "65J0oR4EicXsu5_ACWpPlamCOwI=", "properties": {"ref": "1072", "@spider": "boston_market", "addr:full": "514 High Street", "addr:housenumber": "514", "addr:street": "High Street", "addr:city": "Mount Holly", "addr:state": "NJ", "addr:postcode": "08060", "name": "Mt. Holly #1072", "phone": "609-702-9085", "website": "http://www.bostonmarket.com/location/mt-holly-nj-1072/", "opening_hours": "Sunday-Thursday 11:00-23:00; Friday-Saturday 11:00-00:00", "brand": "Boston Market"}, "geometry": {"type": "Point", "coordinates": [-74.793972, 40.004225]}},
{"type": "Feature", "id": "-1SZ22ocd2k-6pxXRoAtp4S2RMs=", "properties": {"ref": "1139", "@spider": "boston_market", "addr:full": "1103 Broad Street", "addr:housenumber": "1103", "addr:street": "Broad Street", "addr:city": "Shrewsbury", "addr:state": "NJ", "addr:postcode": "07702", "name": "Shrewsbury #1139", "phone": "732-544-2400", "website": "http://www.bostonmarket.com/location/shrewsbury-nj-1139/", "opening_hours": "Sunday-Saturday 11:00-22:00", "brand": "Boston Market"}, "geometry": {"type": "Point", "coordinates": [-74.062877, 40.315575]}},
{"type": "Feature", "id": "LOfBK6vFMBzO7GE_JQoTYXe3GeU=", "properties": {"ref": "119", "@spider": "boston_market", "addr:full": "247 Route 10 East", "addr:housenumber": "247", "addr:street": "Route 10 East", "addr:city": "Succasunna", "addr:state": "NJ", "addr:postcode": "07876", "name": "Succasunna #119", "phone": "973-584-9200", "website": "http://www.bostonmarket.com/location/succasunna-nj-119/", "opening_hours": "Sunday-Saturday 11:00-22:00", "brand": "Boston Market"}, "geometry": {"type": "Point", "coordinates": [-74.643521, 40.870497]}},
{"type": "Feature", "id": "yqFtu-LPoDnMsza04VhGvcDoj7s=", "properties": {"ref": "121", "@spider": "boston_market", "addr:full": "1605 Lemoine Avenue", "addr:housenumber": "1605", "addr:street": "Lemoine Avenue", "addr:city": "Fort Lee", "addr:state": "NJ", "addr:postcode": "07024", "name": "Ft. Lee #121", "phone": "201-944-1500", "website": "http://www.bostonmarket.com/location/ft-lee-nj-121/", "opening_hours": "Sunday-Thursday 11:00-23:00; Friday-Saturday 11:00-00:00", "brand": "Boston Market"}, "geometry": {"type": "Point", "coordinates": [-73.97041, 40.849381]}},
{"type": "Feature", "id": "1NpqS7DYWmPllWILJ4pZCLtb1PE=", "properties": {"ref": "1539", "@spider": "boston_market", "addr:full": "1201 Nixon Drive", "addr:housenumber": "1201", "addr:street": "Nixon Drive", "addr:city": "Moorestown", "addr:state": "NJ", "addr:postcode": "08057", "name": "Moorestown #1539", "phone": "856-802-0044", "website": "http://www.bostonmarket.com/location/moorestown-nj-1539/", "opening_hours": "Sunday-Thursday 11:00-23:00; Friday-Saturday 11:00-00:00", "brand": "Boston Market"}, "geometry": {"type": "Point", "coordinates": [-74.962027, 39.940387]}},
{"type": "Feature", "id": "eHqGtdLKTBpDvbpFKx3lx0gYD3k=", "properties": {"ref": "1658", "@spider": "boston_market", "addr:full": "1560 St. Georges Avenue", "addr:housenumber": "1560", "addr:street": "St. Georges Avenue", "addr:city": "Avenel", "addr:state": "NJ", "addr:postcode": "07001", "name": "Avenel #1658", "phone": "732-381-8833", "website": "http://www.bostonmarket.com/location/avenel-nj-1658/", "opening_hours": "Sunday-Thursday 11:00-23:00; Friday-Saturday 11:00-00:00", "brand": "Boston Market"}, "geometry": {"type": "Point", "coordinates": [-74.290565, 40.590735]}},
{"type": "Feature", "id": "qFXoVFftMeZQ2MoOpnpkURb8-tI=", "properties": {"ref": "1659", "@spider": "boston_market", "addr:full": "1160 US Highway 46", "addr:housenumber": "1160", "addr:street": "US Highway 46", "addr:city": "Clifton", "addr:state": "NJ", "addr:postcode": "07013", "name": "Clifton #1659", "phone": "973-591-0111", "website": "http://www.bostonmarket.com/location/clifton-nj-1659/", "opening_hours": "Sunday-Thursday 11:00-23:00; Friday-Saturday 11:00-00:00", "brand": "Boston Market"}, "geometry": {"type": "Point", "coordinates": [-74.183756, 40.870038]}},
{"type": "Feature", "id": "HTKEtfYUEesIi7vNYrsu1Y3_NUc=", "properties": {"ref": "1660", "@spider": "boston_market", "addr:full": "471 Central Avenue", "addr:housenumber": "471", "addr:street": "Central Avenue", "addr:city": "East Orange", "addr:state": "NJ", "addr:postcode": "07018", "name": "East Orange #1660", "phone": "973-678-1616", "website": "http://www.bostonmarket.com/location/east-orange-nj-1660/", "opening_hours": "Sunday-Saturday 11:00-22:30", "brand": "Boston Market"}, "geometry": {"type": "Point", "coordinates": [-74.220032, 40.758362]}},
{"type": "Feature", "id": "ANLNtoNqOQmVJCipwiC3pAF0eNg=", "properties": {"ref": "1661", "@spider": "boston_market", "addr:full": "878 US Rt. 1 North Bound", "addr:housenumber": "878", "addr:street": "US Rt. 1 North Bound", "addr:city": "Edison", "addr:state": "NJ", "addr:postcode": "08817", "name": "Edison #1661", "phone": "732-248-3080", "website": "http://www.bostonmarket.com/location/edison-nj-1661/", "opening_hours": "Sunday-Saturday 11:00-22:00", "brand": "Boston Market"}, "geometry": {"type": "Point", "coordinates": [-74.374805, 40.514769]}},
{"type": "Feature", "id": "M28BbpTq9HR5bd1hVOXwKFq9ZN0=", "properties": {"ref": "1662", "@spider": "boston_market", "addr:full": "21-20 Broadway", "addr:housenumber": "21-20", "addr:street": "Broadway", "addr:city": "Fair Lawn", "addr:state": "NJ", "addr:postcode": "07410", "name": "Fair Lawn #1662", "phone": "201-794-2100", "website": "http://www.bostonmarket.com/location/fair-lawn-nj-1662/", "opening_hours": "Sunday-Thursday 11:00-23:00; Friday-Saturday 11:00-00:00", "brand": "Boston Market"}, "geometry": {"type": "Point", "coordinates": [-74.114708, 40.921929]}},
{"type": "Feature", "id": "_CKustb4vrxtXQNR0Bs5ngwtcYU=", "properties": {"ref": "1664", "@spider": "boston_market", "addr:full": "180 Hackensack Avenue", "addr:housenumber": "180", "addr:street": "Hackensack Avenue", "addr:city": "Hackensack", "addr:state": "NJ", "addr:postcode": "07602", "name": "Hackensack #1664", "phone": "201-457-0707", "website": "http://www.bostonmarket.com/location/hackensack-nj-1664/", "opening_hours": "Sunday-Thursday 11:00-23:00; Friday-Saturday 11:00-00:00", "brand": "Boston Market"}, "geometry": {"type": "Point", "coordinates": [-74.035713, 40.900894]}},
{"type": "Feature", "id": "g3H5Rb1QWCgRdFRSpk4UcoHY2Fg=", "properties": {"ref": "1667", "@spider": "boston_market", "addr:full": "395 Route 17 North", "addr:housenumber": "395", "addr:street": "Route 17 North", "addr:city": "Mahwah", "addr:state": "NJ", "addr:postcode": "07430", "name": "Mahwah #1667", "phone": "201-828-9399", "website": "http://www.bostonmarket.com/location/mahwah-nj-1667/", "opening_hours": "Sunday-Saturday 11:00-22:00", "brand": "Boston Market"}, "geometry": {"type": "Point", "coordinates": [-74.14924, 41.079294]}},
{"type": "Feature", "id": "7rKrlGungHD11vX4uKVnBFFWluI=", "properties": {"ref": "1671", "@spider": "boston_market", "addr:full": "2650 US Highway 22", "addr:housenumber": "2650", "addr:street": "US Highway 22", "addr:city": "Union", "addr:state": "NJ", "addr:postcode": "07083", "name": "Union #1671", "phone": "908-687-8400", "website": "http://www.bostonmarket.com/location/union-nj-1671/", "opening_hours": "Sunday-Thursday 11:00-23:00; Friday-Saturday 11:00-00:00", "brand": "Boston Market"}, "geometry": {"type": "Point", "coordinates": [-74.306588, 40.688521]}},
{"type": "Feature", "id": "I194OvA9uc3HMZ-Rdphv4MVvf1U=", "properties": {"ref": "1728", "@spider": "boston_market", "addr:full": "332 Rt. 10", "addr:housenumber": "332", "addr:street": "Rt. 10", "addr:city": "East Hanover", "addr:state": "NJ", "addr:postcode": "07936", "name": "East Hanover #1728", "phone": "973-884-7200", "website": "http://www.bostonmarket.com/location/east-hanover-nj-1728/", "opening_hours": "Sunday-Saturday 11:00-22:00", "brand": "Boston Market"}, "geometry": {"type": "Point", "coordinates": [-74.365341, 40.804001]}},
{"type": "Feature", "id": "wmmWzLff8gL11cm4nDP6ynHo1no=", "properties": {"ref": "174", "@spider": "boston_market", "addr:full": "20 Wyckoff Avenue", "addr:housenumber": "20", "addr:street": "Wyckoff Avenue", "addr:city": "Waldwick", "addr:state": "NJ", "addr:postcode": "07463", "name": "Waldwick #174", "phone": "201-447-3300", "website": "http://www.bostonmarket.com/location/waldwick-nj-174/", "opening_hours": "Sunday-Saturday 11:00-22:00", "brand": "Boston Market"}, "geometry": {"type": "Point", "coordinates": [-74.120911, 41.008873]}},
{"type": "Feature", "id": "naz3L4eS890g5IV1WY8fJTavhFI=", "properties": {"ref": "1918", "@spider": "boston_market", "addr:full": "301 S. Main Rd.", "addr:housenumber": "301", "addr:street": "S. Main Rd.", "addr:city": "Vineland", "addr:state": "NJ", "addr:postcode": "08360", "name": "Vineland #1918", "phone": "856-507-7970", "website": "http://www.bostonmarket.com/location/vineland-nj-1918/", "opening_hours": "Sunday-Saturday 11:00-22:00", "brand": "Boston Market"}, "geometry": {"type": "Point", "coordinates": [-75.000755, 39.479939]}},
{"type": "Feature", "id": "pV7PVvwmN_-UN23jg1wUwfnvaPs=", "properties": {"ref": "195", "@spider": "boston_market", "addr:full": "523 Chestnut Street", "addr:housenumber": "523", "addr:street": "Chestnut Street", "addr:city": "Union", "addr:state": "NJ", "addr:postcode": "07083", "name": "Union #195", "phone": "908-687-1700", "website": "http://www.bostonmarket.com/location/union-nj-195/", "opening_hours": "Sunday-Saturday 11:00-22:00", "brand": "Boston Market"}, "geometry": {"type": "Point", "coordinates": [-74.269135, 40.684731]}},
{"type": "Feature", "id": "f2Yh7oCXDNmrMnUZTSuEIPHIGoY=", "properties": {"ref": "2092", "@spider": "boston_market", "addr:full": "321 Broad Ave.", "addr:housenumber": "321", "addr:street": "Broad Ave.", "addr:city": "Ridgefield", "addr:state": "NJ", "addr:postcode": "07657", "name": "Ridgefield #2092", "phone": "201-945-0303", "website": "http://www.bostonmarket.com/location/ridgefield-nj-2092/", "opening_hours": "Sunday-Saturday 11:00-22:00", "brand": "Boston Market"}, "geometry": {"type": "Point", "coordinates": [-74.009387, 40.825254]}},
{"type": "Feature", "id": "EMzoghNQa4PM1YGMdMIuzNKznN0=", "properties": {"ref": "316", "@spider": "boston_market", "addr:full": "300 Rt-18", "addr:housenumber": "300", "addr:street": "Rt-18", "addr:city": "East Brunswick", "addr:state": "NJ", "addr:postcode": "08816", "name": "East Brunswick #316", "phone": "732-432-0404", "website": "http://www.bostonmarket.com/location/east-brunswick-nj-316/", "opening_hours": "Sunday-Thursday 11:00-23:00; Friday-Saturday 11:00-00:00", "brand": "Boston Market"}, "geometry": {"type": "Point", "coordinates": [-74.400351, 40.455598]}},
{"type": "Feature", "id": "5r2IE-a-4_loQsvda9ILUV31JmE=", "properties": {"ref": "319", "@spider": "boston_market", "addr:full": "175 Kinderkamack", "addr:housenumber": "175", "addr:street": "Kinderkamack", "addr:city": "Emerson", "addr:state": "NJ", "addr:postcode": "07630", "name": "Emerson #319", "phone": "201-599-0500", "website": "http://www.bostonmarket.com/location/emerson-nj-319/", "opening_hours": "Sunday-Saturday 11:00-22:00", "brand": "Boston Market"}, "geometry": {"type": "Point", "coordinates": [-74.026733, 40.975456]}},
{"type": "Feature", "id": "ckdSLiMyZ01ary4MJoZDIhU-UYE=", "properties": {"ref": "323", "@spider": "boston_market", "addr:full": "314 Essex Street", "addr:housenumber": "314", "addr:street": "Essex Street", "addr:city": "Lodi", "addr:state": "NJ", "addr:postcode": "07644", "name": "Lodi #323", "phone": "201-845-7778", "website": "http://www.bostonmarket.com/location/lodi-nj-323/", "opening_hours": "Sunday-Thursday 11:00-23:00; Friday-Saturday 11:00-00:00", "brand": "Boston Market"}, "geometry": {"type": "Point", "coordinates": [-74.06742, 40.888705]}},
{"type": "Feature", "id": "3qROtns_WGB4R4M7edQrnCB_zeo=", "properties": {"ref": "345", "@spider": "boston_market", "addr:full": "4159 U.S. 9", "addr:housenumber": "4159", "addr:street": "U.S. 9", "addr:city": "Howell", "addr:state": "NJ", "addr:postcode": "07731", "name": "Howell #345", "phone": "732-367-8888", "website": "http://www.bostonmarket.com/location/howell-nj-345/", "opening_hours": "Sunday-Saturday 11:00-22:00", "brand": "Boston Market"}, "geometry": {"type": "Point", "coordinates": [-74.227912, 40.152311]}},
{"type": "Feature", "id": "dX5Zm1KLVuJjJF0OcZKbYWebrHQ=", "properties": {"ref": "400", "@spider": "boston_market", "addr:full": "5716 Black Horse Pike", "addr:housenumber": "5716", "addr:street": "Black Horse Pike", "addr:city": "Blackwood", "addr:state": "NJ", "addr:postcode": "08012", "name": "Blackwood #400", "phone": "856-227-6700", "website": "http://www.bostonmarket.com/location/blackwood-nj-400/", "opening_hours": "Sunday-Thursday 11:00-23:00; Friday-Saturday 11:00-00:00", "brand": "Boston Market"}, "geometry": {"type": "Point", "coordinates": [-75.047569, 39.760649]}},
{"type": "Feature", "id": "LYX11HZ4MJ7chv6zhbIITRleOgE=", "properties": {"ref": "495", "@spider": "boston_market", "addr:full": "891 Hurffville Rd", "addr:housenumber": "891", "addr:street": "Hurffville Rd", "addr:city": "Woodbury", "addr:state": "NJ", "addr:postcode": "08096", "name": "Woodbury #495", "phone": "856-848-8892", "website": "http://www.bostonmarket.com/location/woodbury-nj-495/", "opening_hours": "Sunday-Thursday 11:00-23:00; Friday-Saturday 11:00-00:00", "brand": "Boston Market"}, "geometry": {"type": "Point", "coordinates": [-75.088028, 39.836792]}},
{"type": "Feature", "id": "XuNKZFHqDmOD7_gzY1CjxjahmcI=", "properties": {"ref": "662", "@spider": "boston_market", "addr:full": "275 Livingston Ave", "addr:housenumber": "275", "addr:street": "Livingston Ave", "addr:city": "Northvale", "addr:state": "NJ", "addr:postcode": "07647", "name": "Northvale #662", "phone": "201-784-1177", "website": "http://www.bostonmarket.com/location/northvale-nj-662/", "opening_hours": "Sunday-Saturday 11:00-22:00", "brand": "Boston Market"}, "geometry": {"type": "Point", "coordinates": [-73.945897, 41.015241]}},
{"type": "Feature", "id": "RbjsukM8tsaCIwrBoquTxkZ0Fck=", "properties": {"ref": "677", "@spider": "boston_market", "addr:full": "141 Route 37 East", "addr:housenumber": "141", "addr:street": "Route 37 East", "addr:city": "Toms River", "addr:state": "NJ", "addr:postcode": "08753", "name": "Toms River #677", "phone": "732-914-8900", "website": "http://www.bostonmarket.com/location/toms-river-nj-677/", "opening_hours": "Sunday-Saturday 11:00-22:00", "brand": "Boston Market"}, "geometry": {"type": "Point", "coordinates": [-74.189542, 39.963322]}},
{"type": "Feature", "id": "j-fk-k7OtVb8VPZ7NuxpP2LpuRY=", "properties": {"ref": "696", "@spider": "boston_market", "addr:full": "491 Ridge Road", "addr:housenumber": "491", "addr:street": "Ridge Road", "addr:city": "North Arlington", "addr:state": "NJ", "addr:postcode": "07031", "name": "North Arlington #696", "phone": "201-997-1006", "website": "http://www.bostonmarket.com/location/north-arlington-nj-696/", "opening_hours": "Sunday-Saturday 11:00-22:00", "brand": "Boston Market"}, "geometry": {"type": "Point", "coordinates": [-74.127782, 40.79616]}},
{"type": "Feature", "id": "u_9JEIZDS1B-hmxrfxBnraBCFOI=", "properties": {"ref": "965", "@spider": "boston_market", "addr:full": "1342 Clifton Ave.", "addr:housenumber": "1342", "addr:street": "Clifton Ave.", "addr:city": "Clifton", "addr:state": "NJ", "addr:postcode": "07013", "name": "Clifton #965", "phone": "973-778-7879", "website": "http://www.bostonmarket.com/location/clifton-nj-965/", "opening_hours": "Sunday-Saturday 11:00-22:00", "brand": "Boston Market"}, "geometry": {"type": "Point", "coordinates": [-74.172256, 40.85414]}},
{"type": "Feature", "id": "wfE1glBAKM472kn5eiaXXvIsf-o=", "properties": {"ref": "983", "@spider": "boston_market", "addr:full": "1729 N. Olden Ave.", "addr:housenumber": "1729", "addr:street": "N. Olden Ave.", "addr:city": "Ewing Township", "addr:state": "NJ", "addr:postcode": "08638", "name": "Ewing Township #983", "phone": "609-219-1333", "website": "http://www.bostonmarket.com/location/ewing-township-nj-983/", "opening_hours": "Sunday-Thursday 11:00-23:00; Friday-Saturday 11:00-00:00", "brand": "Boston Market"}, "geometry": {"type": "Point", "coordinates": [-74.76825, 40.247501]}},
{"type": "Feature", "id": "gkb5zjMthnUxBty8wrQ93nRNn0o=", "properties": {"ref": "993", "@spider": "boston_market", "addr:full": "900 Easton Ave.", "addr:housenumber": "900", "addr:street": "Easton Ave.", "addr:city": "Somerset", "addr:state": "NJ", "addr:postcode": "08873", "name": "Somerset #993", "phone": "732-214-1144", "website": "http://www.bostonmarket.com/location/somerset-nj-993/", "opening_hours": "Sunday-Saturday 11:00-22:00", "brand": "Boston Market"}, "geometry": {"type": "Point", "coordinates": [-74.48394, 40.511662]}},
{"type": "Feature", "id": "v0hYswI_MdQakCELAniudEvIiYc=", "properties": {"ref": "198", "@spider": "boston_market", "addr:full": "9500 Strickland Road", "addr:housenumber": "9500", "addr:street": "Strickland Road", "addr:city": "Raleigh", "addr:state": "NC", "addr:postcode": "27615", "name": "Raleigh #198", "phone": "919-676-7609", "website": "http://www.bostonmarket.com/location/raleigh-nc-198/", "opening_hours": "Sunday-Saturday 11:00-22:00", "brand": "Boston Market"}, "geometry": {"type": "Point", "coordinates": [-78.654274, 35.901276]}},
{"type": "Feature", "id": "EFD0euVBnsmb9p2GPWeLpR1Wxtw=", "properties": {"ref": "239", "@spider": "boston_market", "addr:full": "5615 W. Friendly Ave.", "addr:housenumber": "5615", "addr:street": "W. Friendly Ave.", "addr:city": "Greensboro", "addr:state": "NC", "addr:postcode": "27410", "name": "Greensboro #239", "phone": "336-292-6336", "website": "http://www.bostonmarket.com/location/greensboro-nc-239/", "opening_hours": "Sunday-Saturday 11:00-20:00", "brand": "Boston Market"}, "geometry": {"type": "Point", "coordinates": [-79.886192, 36.089432]}},
{"type": "Feature", "id": "zyV9BGO8gWNmKFOn0rykK50vyfs=", "properties": {"ref": "292", "@spider": "boston_market", "addr:full": "1909 Skibo Road", "addr:housenumber": "1909", "addr:street": "Skibo Road", "addr:city": "Fayetteville", "addr:state": "NC", "addr:postcode": "28314", "name": "Fayetteville #292", "phone": "910-864-1666", "website": "http://www.bostonmarket.com/location/fayetteville-nc-292/", "opening_hours": "Sunday-Thursday 11:00-23:00; Friday-Saturday 11:00-00:00", "brand": "Boston Market"}, "geometry": {"type": "Point", "coordinates": [-78.966209, 35.069038]}},
{"type": "Feature", "id": "exkin_tGjX5tnMNQuYEY47Ek_HM=", "properties": {"ref": "306", "@spider": "boston_market", "addr:full": "4558 Capital Blvd.", "addr:housenumber": "4558", "addr:street": "Capital Blvd.", "addr:city": "Raleigh", "addr:state": "NC", "addr:postcode": "27604", "name": "Raleigh #306", "phone": "919-981-7450", "website": "http://www.bostonmarket.com/location/raleigh-nc-306/", "opening_hours": "Sunday-Saturday 11:00-20:00", "brand": "Boston Market"}, "geometry": {"type": "Point", "coordinates": [-78.579933, 35.845596]}},
{"type": "Feature", "id": "4W0bBh6Er4uKyTENNDdgQrI1gPo=", "properties": {"ref": "436", "@spider": "boston_market", "addr:full": "9550 E. Independence Blvd.", "addr:housenumber": "9550", "addr:street": "E. Independence Blvd.", "addr:city": "Matthews", "addr:state": "NC", "addr:postcode": "28105", "name": "Matthews #436", "phone": "704-849-2850", "website": "http://www.bostonmarket.com/location/matthews-nc-436/", "opening_hours": "Sunday-Saturday 11:00-22:00", "brand": "Boston Market"}, "geometry": {"type": "Point", "coordinates": [-80.715332, 35.136799]}},
{"type": "Feature", "id": "GzvCRLFA1IBjQA4DLdebQnwpllk=", "properties": {"ref": "480", "@spider": "boston_market", "addr:full": "1397 Kildaire Farm Road", "addr:housenumber": "1397", "addr:street": "Kildaire Farm Road", "addr:city": "Cary", "addr:state": "NC", "addr:postcode": "27511", "name": "Cary #480", "phone": "919-319-3818", "website": "http://www.bostonmarket.com/location/cary-nc-480/", "opening_hours": "Sunday-Saturday 11:00-22:00", "brand": "Boston Market"}, "geometry": {"type": "Point", "coordinates": [-78.783112, 35.758385]}},
{"type": "Feature", "id": "o3qGM43ELY51i9-TjnLNxwREu80=", "properties": {"ref": "791", "@spider": "boston_market", "addr:full": "1001 Chancellor Park Drive", "addr:housenumber": "1001", "addr:street": "Chancellor Park Drive", "addr:city": "Charlotte", "addr:state": "NC", "addr:postcode": "28213", "name": "Charlotte #791", "phone": "704-597-5688", "website": "http://www.bostonmarket.com/location/charlotte-nc-791/", "opening_hours": "Sunday-Saturday 11:00-21:00", "brand": "Boston Market"}, "geometry": {"type": "Point", "coordinates": [-80.74337, 35.293495]}},
{"type": "Feature", "id": "CrSCUAlDvFYovEm4kUG-lfkJe_8=", "properties": {"ref": "115", "@spider": "boston_market", "addr:full": "3750 W. Market St", "addr:housenumber": "3750", "addr:street": "W. Market St", "addr:city": "Fairlawn", "addr:state": "OH", "addr:postcode": "44333", "name": "Fairlawn #115", "phone": "330-666-6997", "website": "http://www.bostonmarket.com/location/fairlawn-oh-115/", "opening_hours": "Sunday-Saturday 12:00-20:00", "brand": "Boston Market"}, "geometry": {"type": "Point", "coordinates": [-81.634117, 41.135822]}},
{"type": "Feature", "id": "Tn4RlkRUtBZxmmKHeop-MdyvYJE=", "properties": {"ref": "139", "@spider": "boston_market", "addr:full": "5096 Mayfield Road", "addr:housenumber": "5096", "addr:street": "Mayfield Road", "addr:city": "Lyndhurst", "addr:state": "OH", "addr:postcode": "44124", "name": "Lyndhurst #139", "phone": "440-460-0505", "website": "http://www.bostonmarket.com/location/lyndhurst-oh-139/", "opening_hours": "Sunday-Saturday 11:00-22:00", "brand": "Boston Market"}, "geometry": {"type": "Point", "coordinates": [-81.496025, 41.519875]}},
{"type": "Feature", "id": "f3_IGnN4IX5gJW0X5XOikMwqNAM=", "properties": {"ref": "202", "@spider": "boston_market", "addr:full": "699 Howe Avenue", "addr:housenumber": "699", "addr:street": "Howe Avenue", "addr:city": "Cuyahoga Falls", "addr:state": "OH", "addr:postcode": "44221", "name": "Cuyahoga Falls #202", "phone": "330-922-3333", "website": "http://www.bostonmarket.com/location/cuyahoga-falls-oh-202/", "opening_hours": "Sunday-Saturday 11:00-21:00", "brand": "Boston Market"}, "geometry": {"type": "Point", "coordinates": [-81.474144, 41.119026]}},
{"type": "Feature", "id": "XjpYjti457L0-TSb_G-Ey07uTNU=", "properties": {"ref": "249", "@spider": "boston_market", "addr:full": "6550 Airport Hwy.", "addr:housenumber": "6550", "addr:street": "Airport Hwy.", "addr:city": "Holland", "addr:state": "OH", "addr:postcode": "43528", "name": "Holland #249", "phone": "419-868-7811", "website": "http://www.bostonmarket.com/location/holland-oh-249/", "opening_hours": "Sunday-Saturday 11:00-21:00", "brand": "Boston Market"}, "geometry": {"type": "Point", "coordinates": [-83.698227, 41.6124]}},
{"type": "Feature", "id": "lRPbWPI7dNep83VSUF_KtiK6b1Y=", "properties": {"ref": "250", "@spider": "boston_market", "addr:full": "3808 Secor Road", "addr:housenumber": "3808", "addr:street": "Secor Road", "addr:city": "Toledo", "addr:state": "OH", "addr:postcode": "43606", "name": "Toledo #250", "phone": "419-292-0060", "website": "http://www.bostonmarket.com/location/toledo-oh-250/", "opening_hours": "Sunday-Saturday 11:00-22:00", "brand": "Boston Market"}, "geometry": {"type": "Point", "coordinates": [-83.623093, 41.688149]}},
{"type": "Feature", "id": "151RQgXdPIeuSDWNkJ1YQshRPRk=", "properties": {"ref": "259", "@spider": "boston_market", "addr:full": "34295 Aurora Road", "addr:housenumber": "34295", "addr:street": "Aurora Road", "addr:city": "Solon", "addr:state": "OH", "addr:postcode": "44139", "name": "Solon #259", "phone": "440-498-0088", "website": "http://www.bostonmarket.com/location/solon-oh-259/", "opening_hours": "Sunday-Saturday 11:00-20:00", "brand": "Boston Market"}, "geometry": {"type": "Point", "coordinates": [-81.434341, 41.384163]}},
{"type": "Feature", "id": "Ho7OHLFfMnIHdAAQdadCWAGofig=", "properties": {"ref": "261", "@spider": "boston_market", "addr:full": "14375 Pearl Road", "addr:housenumber": "14375", "addr:street": "Pearl Road", "addr:city": "Strongsville", "addr:state": "OH", "addr:postcode": "44136", "name": "Strongsville #261", "phone": "440-846-0003", "website": "http://www.bostonmarket.com/location/strongsville-oh-261/", "opening_hours": "Sunday-Wednesday 11:00-20:00; Thursday-Saturday 11:00-21:00", "brand": "Boston Market"}, "geometry": {"type": "Point", "coordinates": [-81.83522, 41.309773]}},
{"type": "Feature", "id": "gL9OMvPOQ9pYigaorFGYtcPxWmM=", "properties": {"ref": "264", "@spider": "boston_market", "addr:full": "9361 Mentor Avenue", "addr:housenumber": "9361", "addr:street": "Mentor Avenue", "addr:city": "Mentor", "addr:state": "OH", "addr:postcode": "44060", "name": "Mentor #264", "phone": "440-974-7333", "website": "http://www.bostonmarket.com/location/mentor-oh-264/", "opening_hours": "Sunday-Saturday 11:00-22:00", "brand": "Boston Market"}, "geometry": {"type": "Point", "coordinates": [-81.304741, 41.679009]}},
{"type": "Feature", "id": "V4e5r-flLdSirHP6L3mmol8fYeA=", "properties": {"ref": "312", "@spider": "boston_market", "addr:full": "6330 Tussing Road", "addr:housenumber": "6330", "addr:street": "Tussing Road", "addr:city": "Reynoldsburg", "addr:state": "OH", "addr:postcode": "43068", "name": "Reynoldsburg #312", "phone": "614-861-2585", "website": "http://www.bostonmarket.com/location/reynoldsburg-oh-312/", "opening_hours": "Sunday-Saturday 11:00-22:00", "brand": "Boston Market"}, "geometry": {"type": "Point", "coordinates": [-82.828964, 39.927349]}},
{"type": "Feature", "id": "nTB95UVNPFCKxmAMKti6m9Kbv3M=", "properties": {"ref": "35", "@spider": "boston_market", "addr:full": "2741 E. Main Street", "addr:housenumber": "2741", "addr:street": "E. Main Street", "addr:city": "Bexley", "addr:state": "OH", "addr:postcode": "43209", "name": "Bexley #35", "phone": "614-237-5015", "website": "http://www.bostonmarket.com/location/bexley-oh-35/", "opening_hours": "Sunday-Saturday 11:00-22:00", "brand": "Boston Market"}, "geometry": {"type": "Point", "coordinates": [-82.925369, 39.95686]}},
{"type": "Feature", "id": "ThgcjOlhaWakm_WjXVAgcYlNyo4=", "properties": {"ref": "483", "@spider": "boston_market", "addr:full": "2184 Warrensville Center Rd.", "addr:housenumber": "2184", "addr:street": "Warrensville Center Rd.", "addr:city": "University Heights", "addr:state": "OH", "addr:postcode": "44118", "name": "University Heights #483", "phone": "216-321-2219", "website": "http://www.bostonmarket.com/location/university-heights-oh-483/", "opening_hours": "Sunday-Thursday 11:00-23:00; Friday-Saturday 11:00-00:00", "brand": "Boston Market"}, "geometry": {"type": "Point", "coordinates": [-81.536301, 41.500267]}},
{"type": "Feature", "id": "cRuNPpRT-0XjcAC8WS0-Dmlpa3U=", "properties": {"ref": "524", "@spider": "boston_market", "addr:full": "930 W. Alexis Rd.", "addr:housenumber": "930", "addr:street": "W. Alexis Rd.", "addr:city": "Toledo", "addr:state": "OH", "addr:postcode": "43612", "name": "Toledo #524", "phone": "419-478-2241", "website": "http://www.bostonmarket.com/location/toledo-oh-524/", "opening_hours": "Sunday-Saturday 11:00-22:00", "brand": "Boston Market"}, "geometry": {"type": "Point", "coordinates": [-83.565102, 41.721657]}},
{"type": "Feature", "id": "L9nT6UXL5igL37-HbcefRd2jvnE=", "properties": {"ref": "576", "@spider": "boston_market", "addr:full": "26440 Lorain Road", "addr:housenumber": "26440", "addr:street": "Lorain Road", "addr:city": "North Olmsted", "addr:state": "OH", "addr:postcode": "44070", "name": "N. Olmsted #576", "phone": "440-779-0800", "website": "http://www.bostonmarket.com/location/n-olmsted-oh-576/", "opening_hours": "Sunday-Saturday 11:00-22:00", "brand": "Boston Market"}, "geometry": {"type": "Point", "coordinates": [-81.914894, 41.419056]}},
{"type": "Feature", "id": "UoUqqXY0FGSbGzPWCUlsd4b7okE=", "properties": {"ref": "613", "@spider": "boston_market", "addr:full": "4310 W. Broad St.", "addr:housenumber": "4310", "addr:street": "W. Broad St.", "addr:city": "Columbus", "addr:state": "OH", "addr:postcode": "43228", "name": "Columbus #613", "phone": "614-274-9300", "website": "http://www.bostonmarket.com/location/columbus-oh-613/", "opening_hours": "Sunday-Saturday 11:00-22:00", "brand": "Boston Market"}, "geometry": {"type": "Point", "coordinates": [-83.116088, 39.95293]}},
{"type": "Feature", "id": "v9wnBk9Bo8LRj4m44lzNQ6_HzaY=", "properties": {"ref": "76", "@spider": "boston_market", "addr:full": "16773 Chagrin Blvd", "addr:housenumber": "16773", "addr:street": "Chagrin Blvd", "addr:city": "Shaker Heights", "addr:state": "OH", "addr:postcode": "44120", "name": "Shaker Heights #76", "phone": "216-991-0300", "website": "http://www.bostonmarket.com/location/shaker-heights-oh-76/", "opening_hours": "Sunday-Saturday 11:00-22:00", "brand": "Boston Market"}, "geometry": {"type": "Point", "coordinates": [-81.562534, 41.464563]}},
{"type": "Feature", "id": "YR0xXguB-jSnMAFbJPnZhnXRlZM=", "properties": {"ref": "90", "@spider": "boston_market", "addr:full": "4742 Ridge Road", "addr:housenumber": "4742", "addr:street": "Ridge Road", "addr:city": "Brooklyn", "addr:state": "OH", "addr:postcode": "44144", "name": "Brooklyn #90", "phone": "216-459-1500", "website": "http://www.bostonmarket.com/location/brooklyn-oh-90/", "opening_hours": "Sunday-Thursday 11:00-23:00; Friday-Saturday 11:00-00:00", "brand": "Boston Market"}, "geometry": {"type": "Point", "coordinates": [-81.734403, 41.425847]}},
{"type": "Feature", "id": "WAh6YtR32pE-XfaqoYgE6yAaBvg=", "properties": {"ref": "96", "@spider": "boston_market", "addr:full": "185 Sockanoset Cross Rd", "addr:housenumber": "185", "addr:street": "Sockanoset Cross Rd", "addr:city": "Cranston", "addr:state": "RI", "addr:postcode": "02920", "name": "Cranston #96", "phone": "401-946-2449", "website": "http://www.bostonmarket.com/location/cranston-ri-96/", "opening_hours": "Sunday-Saturday 11:00-22:00", "brand": "Boston Market"}, "geometry": {"type": "Point", "coordinates": [-71.458148, 41.756503]}},
{"type": "Feature", "id": "MwLqhCIeIOsJHMAGvCJa935dT6I=", "properties": {"ref": "1095", "@spider": "boston_market", "addr:full": "31 Snyder Ave", "addr:housenumber": "31", "addr:street": "Snyder Ave", "addr:city": "Philadelphia", "addr:state": "PA", "addr:postcode": "19148", "name": "Philadelphia #1095", "phone": "215-755-2002", "website": "http://www.bostonmarket.com/location/philadelphia-pa-1095/", "opening_hours": "Sunday-Thursday 11:00-23:00; Friday-Saturday 11:00-00:00", "brand": "Boston Market"}, "geometry": {"type": "Point", "coordinates": [-75.14679, 39.921444]}},
{"type": "Feature", "id": "u4d0j20LFrNblhERVDzRL42u9V8=", "properties": {"ref": "1101", "@spider": "boston_market", "addr:full": "223 Shoemaker Road", "addr:housenumber": "223", "addr:street": "Shoemaker Road", "addr:city": "Pottstown", "addr:state": "PA", "addr:postcode": "19465", "name": "Pottstown #1101", "phone": "610-327-3065", "website": "http://www.bostonmarket.com/location/pottstown-pa-1101/", "opening_hours": "Sunday-Thursday 11:00-23:00; Friday-Saturday 11:00-00:00", "brand": "Boston Market"}, "geometry": {"type": "Point", "coordinates": [-75.662069, 40.255004]}},
{"type": "Feature", "id": "3nSofBNdDm5tmSlKkjgfbuwpCqg=", "properties": {"ref": "111", "@spider": "boston_market", "addr:full": "9113 E. Roosevelt Blvd.", "addr:housenumber": "9113", "addr:street": "E. Roosevelt Blvd.", "addr:city": "Philadelphia", "addr:state": "PA", "addr:postcode": "19114", "name": "Philadelphia #111", "phone": "215-969-4200", "website": "http://www.bostonmarket.com/location/philadelphia-pa-111/", "opening_hours": "Sunday-Thursday 11:00-23:00; Friday-Saturday 11:00-00:00", "brand": "Boston Market"}, "geometry": {"type": "Point", "coordinates": [-75.034298, 40.074576]}},
{"type": "Feature", "id": "-zZDoMJuoPAMZ9XONqUlf4enZT4=", "properties": {"ref": "1176", "@spider": "boston_market", "addr:full": "726 E. Gay Street", "addr:housenumber": "726", "addr:street": "E. Gay Street", "addr:city": "West Chester", "addr:state": "PA", "addr:postcode": "19380", "name": "West Chester #1176", "phone": "610-918-9800", "website": "http://www.bostonmarket.com/location/west-chester-pa-1176/", "opening_hours": "Sunday-Thursday 11:00-22:00; Friday-Saturday 11:00-23:00", "brand": "Boston Market"}, "geometry": {"type": "Point", "coordinates": [-75.5933, 39.965797]}},
{"type": "Feature", "id": "uAu3uwRbjm1YzKYmhNZ4qSTgfVE=", "properties": {"ref": "1323", "@spider": "boston_market", "addr:full": "385 S. Cedar Crest Blvd.", "addr:housenumber": "385", "addr:street": "S. Cedar Crest Blvd.", "addr:city": "Allentown", "addr:state": "PA", "addr:postcode": "18103", "name": "Allentown #1323", "phone": "610-770-3324", "website": "http://www.bostonmarket.com/location/allentown-pa-1323/", "opening_hours": "Sunday-Thursday 11:00-22:00; Friday-Saturday 11:00-23:00", "brand": "Boston Market"}, "geometry": {"type": "Point", "coordinates": [-75.521947, 40.58135]}},
{"type": "Feature", "id": "ZSb1EVLGVqJtgC8Vfo5iJOw6UZU=", "properties": {"ref": "146", "@spider": "boston_market", "addr:full": "3776 William Penn Hwy", "addr:housenumber": "3776", "addr:street": "William Penn Hwy", "addr:city": "Monroeville", "addr:state": "PA", "addr:postcode": "15146", "name": "Monroeville #146", "phone": "412-373-7010", "website": "http://www.bostonmarket.com/location/monroeville-pa-146/", "opening_hours": "Sunday-Saturday 11:00-21:00", "brand": "Boston Market"}, "geometry": {"type": "Point", "coordinates": [-79.785149, 40.436085]}},
{"type": "Feature", "id": "sHwjK5WfubcvfHI_2HhTe9oH1RI=", "properties": {"ref": "154", "@spider": "boston_market", "addr:full": "360 N Oxford Valley Road", "addr:housenumber": "360", "addr:street": "N Oxford Valley Road", "addr:city": "Langhorne", "addr:state": "PA", "addr:postcode": "19047", "name": "Langhorne #154", "phone": "215-547-3500", "website": "http://www.bostonmarket.com/location/langhorne-pa-154/", "opening_hours": "Sunday-Thursday 11:00-23:00; Friday-Saturday 11:00-00:00", "brand": "Boston Market"}, "geometry": {"type": "Point", "coordinates": [-74.868513, 40.178979]}},
{"type": "Feature", "id": "OBHqjKMPtFNGWpveb-I3ZpIKTOI=", "properties": {"ref": "270", "@spider": "boston_market", "addr:full": "5200 Baum Blvd.", "addr:housenumber": "5200", "addr:street": "Baum Blvd.", "addr:city": "Pittsburgh", "addr:state": "PA", "addr:postcode": "15224", "name": "Pittsburgh #270", "phone": "412-683-9752", "website": "http://www.bostonmarket.com/location/pittsburgh-pa-270/", "opening_hours": "Sunday 11:00-21:00; Monday-Thursday 11:00-23:00; Friday-Saturday 11:00-00:00", "brand": "Boston Market"}, "geometry": {"type": "Point", "coordinates": [-79.941612, 40.456059]}},
{"type": "Feature", "id": "LmttKcPwo3K38oYW1uk9Vytlrwg=", "properties": {"ref": "367", "@spider": "boston_market", "addr:full": "477 Franklin Mills Circle", "addr:housenumber": "477", "addr:street": "Franklin Mills Circle", "addr:city": "Philadelphia", "addr:state": "PA", "addr:postcode": "19154", "name": "Philadelphia #367", "phone": "215-824-2329", "website": "http://www.bostonmarket.com/location/philadelphia-pa-367/", "opening_hours": "Sunday-Saturday 11:00-22:00", "brand": "Boston Market"}, "geometry": {"type": "Point", "coordinates": [40.08729, -74.9652]}},
{"type": "Feature", "id": "D9iRqTh5e7avlAt9yaXDxCSxo8o=", "properties": {"ref": "370", "@spider": "boston_market", "addr:full": "1776 Old York Road", "addr:housenumber": "1776", "addr:street": "Old York Road", "addr:city": "Abington", "addr:state": "PA", "addr:postcode": "19001", "name": "Abington #370", "phone": "215-784-9090", "website": "http://www.bostonmarket.com/location/abington-pa-370/", "opening_hours": "Sunday-Thursday 11:00-23:00; Friday-Saturday 11:00-00:00", "brand": "Boston Market"}, "geometry": {"type": "Point", "coordinates": [-75.115128, 40.134316]}},
{"type": "Feature", "id": "RX_t7F1kg2USu8NXtuXk5bf8NWk=", "properties": {"ref": "388", "@spider": "boston_market", "addr:full": "18 E. Germantown Pk", "addr:housenumber": "18", "addr:street": "E. Germantown Pk", "addr:city": "Norristown", "addr:state": "PA", "addr:postcode": "19401", "name": "Norristown #388", "phone": "610-275-4334", "website": "http://www.bostonmarket.com/location/norristown-pa-388/", "opening_hours": "Sunday-Thursday 11:00-23:00; Friday-Saturday 11:00-00:00", "brand": "Boston Market"}, "geometry": {"type": "Point", "coordinates": [-75.310791, 40.140511]}},
{"type": "Feature", "id": "TsZ7Kf6se8bb5jWZvQoARWsLmxk=", "properties": {"ref": "392", "@spider": "boston_market", "addr:full": "5200 Baltimore Pk", "addr:housenumber": "5200", "addr:street": "Baltimore Pk", "addr:city": "Clifton Heights", "addr:state": "PA", "addr:postcode": "19018", "name": "Clifton Heights #392", "phone": "610-622-7909", "website": "http://www.bostonmarket.com/location/clifton-heights-pa-392/", "opening_hours": "Sunday-Thursday 11:00-23:00; Friday-Saturday 11:00-00:00", "brand": "Boston Market"}, "geometry": {"type": "Point", "coordinates": [-75.308353, 39.925496]}},
{"type": "Feature", "id": "EEhSOGGU0X3G3TpJkk2WIKIJUQQ=", "properties": {"ref": "394", "@spider": "boston_market", "addr:full": "3901 Chestnut St.", "addr:housenumber": "3901", "addr:street": "Chestnut St.", "addr:city": "Philadelphia", "addr:state": "PA", "addr:postcode": "19104", "name": "Philadelphia #394", "phone": "215-222-6900", "website": "http://www.bostonmarket.com/location/philadelphia-pa-394/", "opening_hours": "Sunday-Thursday 11:00-23:00; Friday-Saturday 11:00-00:00", "brand": "Boston Market"}, "geometry": {"type": "Point", "coordinates": [-75.200073, 39.95538]}},
{"type": "Feature", "id": "o13VseljMVINA2CXf6fqpILRKU0=", "properties": {"ref": "399", "@spider": "boston_market", "addr:full": "6350 Roosevelt Blvd.", "addr:housenumber": "6350", "addr:street": "Roosevelt Blvd.", "addr:city": "Philadelphia", "addr:state": "PA", "addr:postcode": "19149", "name": "Philadelphia #399", "phone": "215-533-4040", "website": "http://www.bostonmarket.com/location/philadelphia-pa-399/", "opening_hours": "Sunday-Thursday 11:00-23:00; Friday-Saturday 11:00-01:00", "brand": "Boston Market"}, "geometry": {"type": "Point", "coordinates": [-75.071737, 40.035137]}},
{"type": "Feature", "id": "fY7ce6gVFTckLUWDNdgDd9eft5I=", "properties": {"ref": "41", "@spider": "boston_market", "addr:full": "4600 City Line Avenue", "addr:housenumber": "4600", "addr:street": "City Line Avenue", "addr:city": "Philadelphia", "addr:state": "PA", "addr:postcode": "19131", "name": "Philadelphia #41", "phone": "215-871-7500", "website": "http://www.bostonmarket.com/location/philadelphia-pa-41/", "opening_hours": "Sunday-Thursday 11:00-23:00; Friday-Saturday 11:00-00:00", "brand": "Boston Market"}, "geometry": {"type": "Point", "coordinates": [-75.22303, 40.002819]}},
{"type": "Feature", "id": "mzno6Pz55s4pF0pak33kmnKy0W4=", "properties": {"ref": "410", "@spider": "boston_market", "addr:full": "978 Greentree Road", "addr:housenumber": "978", "addr:street": "Greentree Road", "addr:city": "Pittsburgh", "addr:state": "PA", "addr:postcode": "15220", "name": "Pittsburgh #410", "phone": "412-928-0716", "website": "http://www.bostonmarket.com/location/pittsburgh-pa-410/", "opening_hours": "Sunday-Saturday 11:00-22:00", "brand": "Boston Market"}, "geometry": {"type": "Point", "coordinates": [-80.054947, 40.404999]}},
{"type": "Feature", "id": "z9z20ufiz6lwn_e2pGPbWS8o1YY=", "properties": {"ref": "411", "@spider": "boston_market", "addr:full": "20290 Route 19", "addr:housenumber": "20290", "addr:street": "Route 19", "addr:city": "Cranberry Township", "addr:state": "PA", "addr:postcode": "16066", "name": "Cranberry Township #411", "phone": "724-779-1120", "website": "http://www.bostonmarket.com/location/cranberry-township-pa-411/", "opening_hours": "Sunday-Saturday 12:00-20:00", "brand": "Boston Market"}, "geometry": {"type": "Point", "coordinates": [-80.102982, 40.690395]}},
{"type": "Feature", "id": "tNV7t2rDBm6lUnZNoOpJpzYF2LM=", "properties": {"ref": "450", "@spider": "boston_market", "addr:full": "5228 Route 30", "addr:housenumber": "5228", "addr:street": "Route 30", "addr:city": "Greensburg", "addr:state": "PA", "addr:postcode": "15601", "name": "Greensburg #450", "phone": "724-838-9864", "website": "http://www.bostonmarket.com/location/greensburg-pa-450/", "opening_hours": "Sunday-Saturday 11:00-21:00", "brand": "Boston Market"}, "geometry": {"type": "Point", "coordinates": [-79.506107, 40.302991]}},
{"type": "Feature", "id": "X-lLL4JoCz2RW4ngdNzu3WA-B8I=", "properties": {"ref": "490", "@spider": "boston_market", "addr:full": "3680 Aramingo Ave.", "addr:housenumber": "3680", "addr:street": "Aramingo Ave.", "addr:city": "Philadelphia", "addr:state": "PA", "addr:postcode": "19134", "name": "Philadelphia #490", "phone": "215-533-4032", "website": "http://www.bostonmarket.com/location/philadelphia-pa-490/", "opening_hours": "Sunday-Thursday 11:00-23:00; Friday-Saturday 11:00-00:00", "brand": "Boston Market"}, "geometry": {"type": "Point", "coordinates": [-75.095032, 39.99445]}},
{"type": "Feature", "id": "LgTLirY5nYuonO64QanYBB9F2Yo=", "properties": {"ref": "104", "@spider": "boston_market", "addr:full": "730 W. Centerville Rd.", "addr:housenumber": "730", "addr:street": "W. Centerville Rd.", "addr:city": "Garland", "addr:state": "TX", "addr:postcode": "75041", "name": "Garland #104", "phone": "972-613-1188", "website": "http://www.bostonmarket.com/location/garland-tx-104/", "opening_hours": "Sunday-Saturday 10:30-00:00", "brand": "Boston Market"}, "geometry": {"type": "Point", "coordinates": [-96.640854, 32.862526]}},
{"type": "Feature", "id": "9bqmrv0LiH8D01oLo-xl_tTZuMc=", "properties": {"ref": "112", "@spider": "boston_market", "addr:full": "789 W Wheatland Rd.", "addr:housenumber": "789", "addr:street": "W Wheatland Rd.", "addr:city": "Duncanville", "addr:state": "TX", "addr:postcode": "75116", "name": "Duncanville #112", "phone": "972-709-0926", "website": "http://www.bostonmarket.com/location/duncanville-tx-112/", "opening_hours": "Sunday-Saturday 10:30-22:00", "brand": "Boston Market"}, "geometry": {"type": "Point", "coordinates": [-96.893028, 32.64754]}},
{"type": "Feature", "id": "o0IOppDUqpiYCrPPCYKZxBvzX2s=", "properties": {"ref": "120", "@spider": "boston_market", "addr:full": "4402 Little Road", "addr:housenumber": "4402", "addr:street": "Little Road", "addr:city": "Arlington", "addr:state": "TX", "addr:postcode": "76016", "name": "Arlington #120", "phone": "817-478-8878", "website": "http://www.bostonmarket.com/location/arlington-tx-120/", "opening_hours": "Sunday-Saturday 11:00-20:00", "brand": "Boston Market"}, "geometry": {"type": "Point", "coordinates": [-97.197907, 32.676338]}},
{"type": "Feature", "id": "4FDcMFZmZ7v5ojxiTL62lr8kdog=", "properties": {"ref": "1292", "@spider": "boston_market", "addr:full": "735 E. Pleasant Run Road", "addr:housenumber": "735", "addr:street": "E. Pleasant Run Road", "addr:city": "Desoto", "addr:state": "TX", "addr:postcode": "75115", "name": "Desoto #1292", "phone": "972-224-5588", "website": "http://www.bostonmarket.com/location/desoto-tx-1292/", "opening_hours": "Sunday-Saturday 10:30-00:00", "brand": "Boston Market"}, "geometry": {"type": "Point", "coordinates": [-96.841126, 32.60426]}},
{"type": "Feature", "id": "tcsa-NJFAGPQZdhoh6_ypCHA5IU=", "properties": {"ref": "1723", "@spider": "boston_market", "addr:full": "4672 Beechnut Street", "addr:housenumber": "4672", "addr:street": "Beechnut Street", "addr:city": "Houston", "addr:state": "TX", "addr:postcode": "77096", "name": "Houston #1723", "phone": "713-667-8800", "website": "http://www.bostonmarket.com/location/houston-tx-1723/", "opening_hours": "Sunday-Saturday 10:30-23:00", "brand": "Boston Market"}, "geometry": {"type": "Point", "coordinates": [-95.457748, 29.689245]}},
{"type": "Feature", "id": "0P0q2UWH9tgiZjiqu_L0YnMBrbo=", "properties": {"ref": "188", "@spider": "boston_market", "addr:full": "2705 N. Beltline Rd", "addr:housenumber": "2705", "addr:street": "N. Beltline Rd", "addr:city": "Irving", "addr:state": "TX", "addr:postcode": "75062", "name": "Irving #188", "phone": "972-594-6014", "website": "http://www.bostonmarket.com/location/irving-tx-188/", "opening_hours": "Sunday -; Monday-Friday 11:00-21:00; Saturday -", "brand": "Boston Market"}, "geometry": {"type": "Point", "coordinates": [-96.9925, 32.844269]}},
{"type": "Feature", "id": "1mhn23oACmNP_H4nXMdJ0ULFPco=", "properties": {"ref": "1981", "@spider": "boston_market", "addr:full": "4607 Braker Lane", "addr:housenumber": "4607", "addr:street": "Braker Lane", "addr:city": "Austin", "addr:state": "TX", "addr:postcode": "78759", "name": "Austin #1981", "phone": "512-346-5222", "website": "http://www.bostonmarket.com/location/austin-tx-1981/", "opening_hours": "Sunday-Saturday 10:30-20:00", "brand": "Boston Market"}, "geometry": {"type": "Point", "coordinates": [-97.744514, 30.400179]}},
{"type": "Feature", "id": "9XShmTzOhHSnfszQ4qEoLVfrE_Q=", "properties": {"ref": "226", "@spider": "boston_market", "addr:full": "4960 S. Cooper", "addr:housenumber": "4960", "addr:street": "S. Cooper", "addr:city": "Arlington", "addr:state": "TX", "addr:postcode": "76017", "name": "Arlington #226", "phone": "817-784-1778", "website": "http://www.bostonmarket.com/location/arlington-tx-226/", "opening_hours": "Sunday-Thursday 10:30-16:00; Friday-Saturday -", "brand": "Boston Market"}, "geometry": {"type": "Point", "coordinates": [-97.134186, 32.664753]}},
{"type": "Feature", "id": "dVbsWs0OuMFobTDlH5SwEv9uLKE=", "properties": {"ref": "227", "@spider": "boston_market", "addr:full": "1570 W. Main St.", "addr:housenumber": "1570", "addr:street": "W. Main St.", "addr:city": "Lewisville", "addr:state": "TX", "addr:postcode": "75067", "name": "Lewisville #227", "phone": "972-436-8199", "website": "http://www.bostonmarket.com/location/lewisville-tx-227/", "opening_hours": "Sunday-Saturday 11:00-20:00", "brand": "Boston Market"}, "geometry": {"type": "Point", "coordinates": [-97.03447, 33.042194]}},
{"type": "Feature", "id": "91dPL3dQlgsBKVxt5tXVA7OJXOk=", "properties": {"ref": "2272", "@spider": "boston_market", "addr:full": "5487 N. Macarthur Blvd.", "addr:housenumber": "5487", "addr:street": "N. Macarthur Blvd.", "addr:city": "Irving", "addr:state": "TX", "addr:postcode": "75038", "name": "Irving #2272", "phone": "972-756-0772", "website": "http://www.bostonmarket.com/location/irving-tx-2272/", "opening_hours": "Sunday-Friday 11:00-19:00; Saturday -", "brand": "Boston Market"}, "geometry": {"type": "Point", "coordinates": [-96.964274, 32.884438]}},
{"type": "Feature", "id": "Va-46N8165U7ykctkIM3PoCQhn4=", "properties": {"ref": "2334", "@spider": "boston_market", "addr:full": "404 Westchase Dr.", "addr:housenumber": "404", "addr:street": "Westchase Dr.", "addr:city": "Grand Prairie", "addr:state": "TX", "addr:postcode": "75052", "name": "Grand Prairie #2334", "phone": "972-262-3325", "website": "http://www.bostonmarket.com/location/grand-prairie-tx-2334/", "opening_hours": "Sunday-Saturday 10:30-20:00", "brand": "Boston Market"}, "geometry": {"type": "Point", "coordinates": [-97.005104, 32.673348]}},
{"type": "Feature", "id": "BrHJviUI033Ws89R2xhMzSqFIKE=", "properties": {"ref": "281", "@spider": "boston_market", "addr:full": "701 W. 15th St.", "addr:housenumber": "701", "addr:street": "W. 15th St.", "addr:city": "Plano", "addr:state": "TX", "addr:postcode": "75075", "name": "Plano #281", "phone": "972-578-7997", "website": "http://www.bostonmarket.com/location/plano-tx-281/", "opening_hours": "Sunday-Saturday 10:30-22:00", "brand": "Boston Market"}, "geometry": {"type": "Point", "coordinates": [-96.713882, 33.019226]}},
{"type": "Feature", "id": "2RcXpg_o2mpoIwWBlPptxeAubII=", "properties": {"ref": "293", "@spider": "boston_market", "addr:full": "494 Grapevine Hwy", "addr:housenumber": "494", "addr:street": "Grapevine Hwy", "addr:city": "Hurst", "addr:state": "TX", "addr:postcode": "76054", "name": "Hurst #293", "phone": "817-581-9999", "website": "http://www.bostonmarket.com/location/hurst-tx-293/", "opening_hours": "Sunday-Saturday 10:30-22:00", "brand": "Boston Market"}, "geometry": {"type": "Point", "coordinates": [-97.176125, 32.863949]}},
{"type": "Feature", "id": "oNNHQpcPnrZlzrMz5qwgVjrFUVw=", "properties": {"ref": "325", "@spider": "boston_market", "addr:full": "3797 Forest Ln.", "addr:housenumber": "3797", "addr:street": "Forest Ln.", "addr:city": "Dallas", "addr:state": "TX", "addr:postcode": "75244", "name": "Dallas #325", "phone": "972-484-0101", "website": "http://www.bostonmarket.com/location/dallas-tx-325/", "opening_hours": "Sunday-Saturday 10:30-22:00", "brand": "Boston Market"}, "geometry": {"type": "Point", "coordinates": [-96.851654, 32.909695]}},
{"type": "Feature", "id": "tjeecd6lZmg2JMxqo9ODrsRgj-c=", "properties": {"ref": "3260", "@spider": "boston_market", "addr:full": "11717 N. Central Expressway", "addr:housenumber": "11717", "addr:street": "N. Central Expressway", "addr:city": "Dallas", "addr:state": "TX", "addr:postcode": "75243", "name": "Dallas #3260", "phone": "214-373-7900", "website": "http://www.bostonmarket.com/location/dallas-tx-3260/", "opening_hours": "Sunday-Saturday 10:30-22:00", "brand": "Boston Market"}, "geometry": {"type": "Point", "coordinates": [-96.769371, 32.908657]}},
{"type": "Feature", "id": "ljPH3X5Hf-vIuIEbdVVfsB-70MI=", "properties": {"ref": "328", "@spider": "boston_market", "addr:full": "2104 Preston Rd.", "addr:housenumber": "2104", "addr:street": "Preston Rd.", "addr:city": "Plano", "addr:state": "TX", "addr:postcode": "75093", "name": "Plano #328", "phone": "972-612-2625", "website": "http://www.bostonmarket.com/location/plano-tx-328/", "opening_hours": "Sunday-Saturday 10:30-22:00", "brand": "Boston Market"}, "geometry": {"type": "Point", "coordinates": [-96.794853, 33.028297]}},
{"type": "Feature", "id": "AeDYgpYh7KxbXM8qLy_R_MeM-QE=", "properties": {"ref": "332", "@spider": "boston_market", "addr:full": "6000 Rufe Snow Dr.", "addr:housenumber": "6000", "addr:street": "Rufe Snow Dr.", "addr:city": "North Richland Hills", "addr:state": "TX", "addr:postcode": "76180", "name": "North Richland Hills #332", "phone": "817-788-8008", "website": "http://www.bostonmarket.com/location/north-richland-hills-tx-332/", "opening_hours": "Sunday-Saturday 10:30-16:00", "brand": "Boston Market"}, "geometry": {"type": "Point", "coordinates": [-97.238373, 32.855858]}},
{"type": "Feature", "id": "8QPZp9eJ6zYTlBUkkVKh7NEFcMo=", "properties": {"ref": "4101", "@spider": "boston_market", "addr:full": "1613 Marshall Road", "addr:housenumber": "1613", "addr:street": "Marshall Road", "addr:city": "Fort Bliss", "addr:state": "TX", "addr:postcode": "79916", "name": "Fort Bliss #4101", "phone": "915-566-0761", "website": "http://www.bostonmarket.com/location/fort-bliss-tx-4101/", "opening_hours": "Sunday -; Monday-Friday 11:00-15:00; Saturday -", "brand": "Boston Market"}, "geometry": {"type": "Point", "coordinates": [-106.431087, 31.821566]}},
{"type": "Feature", "id": "zOM6K0_mppej4L0AAZFiEcqYgEw=", "properties": {"ref": "482", "@spider": "boston_market", "addr:full": "2561 E. Pioneer Pkwy", "addr:housenumber": "2561", "addr:street": "E. Pioneer Pkwy", "addr:city": "Arlington", "addr:state": "TX", "addr:postcode": "76010", "name": "Arlington #482", "phone": "817-274-2121", "website": "http://www.bostonmarket.com/location/arlington-tx-482/", "opening_hours": "Sunday-Saturday 10:30-00:00", "brand": "Boston Market"}, "geometry": {"type": "Point", "coordinates": [-97.065239, 32.712429]}},
{"type": "Feature", "id": "MrJ2BcJMaldPFK_n4ma6jCUGJd0=", "properties": {"ref": "623", "@spider": "boston_market", "addr:full": "7616 Westheimer", "addr:housenumber": "7616", "addr:street": "Westheimer", "addr:city": "Houston", "addr:state": "TX", "addr:postcode": "77063", "name": "Houston #623", "phone": "713-780-7995", "website": "http://www.bostonmarket.com/location/houston-tx-623/", "opening_hours": "Sunday-Saturday 10:30-00:00", "brand": "Boston Market"}, "geometry": {"type": "Point", "coordinates": [-95.503204, 29.737583]}},
{"type": "Feature", "id": "JFyjVNyCBpl_2cxvba_q1glqB-g=", "properties": {"ref": "654", "@spider": "boston_market", "addr:full": "7910 FM 1960 Rd. W", "addr:housenumber": "7910", "addr:street": "FM 1960 Rd. W", "addr:city": "Houston", "addr:state": "TX", "addr:postcode": "77070", "name": "Houston #654", "phone": "281-807-9044", "website": "http://www.bostonmarket.com/location/houston-tx-654/", "opening_hours": "Sunday-Saturday 10:30-00:00", "brand": "Boston Market"}, "geometry": {"type": "Point", "coordinates": [-95.54601, 29.962403]}},
{"type": "Feature", "id": "AYvx6loVczRgRm-QlZpfFAf7L6w=", "properties": {"ref": "98", "@spider": "boston_market", "addr:full": "1230 Town East Blvd.", "addr:housenumber": "1230", "addr:street": "Town East Blvd.", "addr:city": "Mesquite", "addr:state": "TX", "addr:postcode": "75150", "name": "Mesquite #98", "phone": "972-681-0600", "website": "http://www.bostonmarket.com/location/mesquite-tx-98/", "opening_hours": "Sunday-Saturday 10:30-00:00", "brand": "Boston Market"}, "geometry": {"type": "Point", "coordinates": [-96.61315, 32.810666]}},
{"type": "Feature", "id": "B9cI_S1QqKeCXIVHsGSSv31nv7k=", "properties": {"ref": "997", "@spider": "boston_market", "addr:full": "6030 S. Hulen St.", "addr:housenumber": "6030", "addr:street": "S. Hulen St.", "addr:city": "Fort Worth", "addr:state": "TX", "addr:postcode": "76132", "name": "Ft. Worth #997", "phone": "817-263-6400", "website": "http://www.bostonmarket.com/location/ft-worth-tx-997/", "opening_hours": "Sunday-Saturday 10:30-22:00", "brand": "Boston Market"}, "geometry": {"type": "Point", "coordinates": [-97.402546, 32.663546]}},
{"type": "Feature", "id": "PuM3vTHwf4JGgPcZqdWlIanPp28=", "properties": {"ref": "1173", "@spider": "boston_market", "addr:full": "2678 S 108th Street", "addr:housenumber": "2678", "addr:street": "S 108th Street", "addr:city": "West Allis", "addr:state": "WI", "addr:postcode": "53227", "name": "West Allis #1173", "phone": "414-329-0909", "website": "http://www.bostonmarket.com/location/west-allis-wi-1173/", "opening_hours": "Sunday-Saturday 11:00-22:00", "brand": "Boston Market"}, "geometry": {"type": "Point", "coordinates": [-88.046872, 42.995656]}},
{"type": "Feature", "id": "0FjITvgaoNTOIY5gx4Y4JV-O3wM=", "properties": {"ref": "415", "@spider": "boston_market", "addr:full": "5470 Port Washington Rd", "addr:housenumber": "5470", "addr:street": "Port Washington Rd", "addr:city": "Glendale", "addr:state": "WI", "addr:postcode": "53217", "name": "Glendale #415", "phone": "414-961-2511", "website": "http://www.bostonmarket.com/location/glendale-wi-415/", "opening_hours": "Sunday-Saturday 11:00-22:00", "brand": "Boston Market"}, "geometry": {"type": "Point", "coordinates": [-87.91652, 43.116401]}},
{"type": "Feature", "id": "ZUxxk1WQRxE5APT8n_pfPGnhmZQ=", "properties": {"ref": "1009", "@spider": "boston_market", "addr:full": "2034 Coliseum Drive", "addr:housenumber": "2034", "addr:street": "Coliseum Drive", "addr:city": "Hampton", "addr:state": "VA", "addr:postcode": "23666", "name": "Hampton #1009", "phone": "757-838-0300", "website": "http://www.bostonmarket.com/location/hampton-va-1009/", "opening_hours": "Sunday-Saturday 11:00-22:00", "brand": "Boston Market"}, "geometry": {"type": "Point", "coordinates": [-76.389839, 37.044437]}},
{"type": "Feature", "id": "m3z_9iVd5SrdAfldgfjPPhMB_ag=", "properties": {"ref": "1165", "@spider": "boston_market", "addr:full": "3981 Virginia Beach Boulevard", "addr:housenumber": "3981", "addr:street": "Virginia Beach Boulevard", "addr:city": "Virginia Beach", "addr:state": "VA", "addr:postcode": "23452", "name": "Virginia Beach #1165", "phone": "757-498-7900", "website": "http://www.bostonmarket.com/location/virginia-beach-va-1165/", "opening_hours": "Sunday-Saturday 11:00-20:00", "brand": "Boston Market"}, "geometry": {"type": "Point", "coordinates": [-76.11232, 36.841091]}},
{"type": "Feature", "id": "6l7EzXIhUHA7n68XMqy4WBP294M=", "properties": {"ref": "1225", "@spider": "boston_market", "addr:full": "1300 Greenbrier Parkway", "addr:housenumber": "1300", "addr:street": "Greenbrier Parkway", "addr:city": "Chesapeake", "addr:state": "VA", "addr:postcode": "23320", "name": "Chesapeake #1225", "phone": "757-382-9552", "website": "http://www.bostonmarket.com/location/chesapeake-va-1225/", "opening_hours": "Sunday-Saturday 11:00-22:00", "brand": "Boston Market"}, "geometry": {"type": "Point", "coordinates": [-76.228828, 36.772038]}},
{"type": "Feature", "id": "eku3w_8QaV2XctUNmyYRZmmNJQU=", "properties": {"ref": "2396", "@spider": "boston_market", "addr:full": "472 Military Highway", "addr:housenumber": "472", "addr:street": "Military Highway", "addr:city": "Norfolk", "addr:state": "VA", "addr:postcode": "23502", "name": "Norfolk #2396", "phone": "757-461-2400", "website": "http://www.bostonmarket.com/location/norfolk-va-2396/", "opening_hours": "Sunday-Saturday 11:00-22:00", "brand": "Boston Market"}, "geometry": {"type": "Point", "coordinates": [-76.209984, 36.848511]}}]}