{"type":"FeatureCollection","features":[{"type": "Feature", "id": "MHE8xBeo0xejier5fzVf4JU47eU=", "properties": {"ref": "3301", "@spider": "bucadibeppo", "addr:street": "6520 Americas Pkwy NE", "addr:city": "Albuquerque", "addr:state": "New Mexico", "addr:postcode": "87110", "addr:country": "US", "name": "Buca di Beppo Albuquerque", "phone": "(505) 872-2822", "website": "https://locations.bucadibeppo.com/us/nm/albuquerque/6520-americas-pkwy-ne", "opening_hours": "Mo-We 11:00-21:30; Th-Sa 11:00-22:00; Su 11:00-21:30", "brand": "Buca di Beppo"}, "geometry": {"type": "Point", "coordinates": [-106.5724125, 35.0998103]}},
{"type": "Feature", "id": "n9zamrpt65t4IE0718KeM2og-Sw=", "properties": {"ref": "2501", "@spider": "bucadibeppo", "addr:street": "310 W 47th St", "addr:city": "Kansas City", "addr:state": "Missouri", "addr:postcode": "64112", "addr:country": "US", "name": "Buca di Beppo Kansas City-Plaza", "phone": "(816) 931-6548", "website": "https://locations.bucadibeppo.com/us/mo/kansas-city/310-w-47th-st", "opening_hours": "Mo-We 11:00-21:30; Th-Sa 11:00-22:00; Su 11:00-21:30", "brand": "Buca di Beppo"}, "geometry": {"type": "Point", "coordinates": [-94.5906364, 39.0425894]}},
{"type": "Feature", "id": "xTVs_UBhatiTEsehOPYpBKxWLig=", "properties": {"ref": "1001", "@spider": "bucadibeppo", "addr:street": "1030 Auahi St Bay 1", "addr:city": "Honolulu", "addr:state": "Hawaii", "addr:postcode": "96814", "addr:country": "US", "name": "Buca di Beppo Honolulu", "phone": "(808) 591-0800", "website": "https://locations.bucadibeppo.com/us/hi/honolulu/1030-auahi-st", "opening_hours": "Mo-We 11:00-21:30; Th-Sa 11:00-22:00; Su 11:00-21:30", "brand": "Buca di Beppo"}, "geometry": {"type": "Point", "coordinates": [-157.8542367, 21.2945126]}},
{"type": "Feature", "id": "WXzDQIlA_zWpTNxY9dylRUPUGoY=", "properties": {"ref": "1701", "@spider": "bucadibeppo", "addr:street": "2051 S Hurstbourne Pkwy", "addr:city": "Louisville", "addr:state": "Kentucky", "addr:postcode": "40220", "addr:country": "US", "name": "Buca di Beppo Louisville", "phone": "(502) 493-2426", "website": "https://locations.bucadibeppo.com/us/ky/louisville/2051-s-hurstbourne-pkwy", "opening_hours": "Mo-We 11:00-21:30; Th-Sa 11:00-22:00; Su 11:00-21:30", "brand": "Buca di Beppo"}, "geometry": {"type": "Point", "coordinates": [-85.5883831, 38.2163235]}},
{"type": "Feature", "id": "5iitxu_PkwR6Wf82bC16VMM33ZM=", "properties": {"ref": "2002", "@spider": "bucadibeppo", "addr:street": "122 Kentlands Blvd", "addr:city": "Gaithersburg", "addr:state": "Maryland", "addr:postcode": "20878", "addr:country": "US", "name": "Buca di Beppo Gaithersburg", "phone": "(301) 947-7346", "website": "https://locations.bucadibeppo.com/us/md/gaithersburg/122-kentlands-blvd", "opening_hours": "Mo-We 11:00-21:30; Th-Sa 11:00-22:00; Su 11:00-21:30", "brand": "Buca di Beppo"}, "geometry": {"type": "Point", "coordinates": [-77.23254293203354, 39.122579976912306]}},
{"type": "Feature", "id": "lMZ67DoSWGHaRqqItIuK4Wdq914=", "properties": {"ref": "0901", "@spider": "bucadibeppo", "addr:street": "2335 Mansell Rd", "addr:city": "Alpharetta", "addr:state": "Georgia", "addr:postcode": "30022", "addr:country": "US", "name": "Buca di Beppo Alpharetta", "phone": "(770) 643-9463", "website": "https://locations.bucadibeppo.com/us/ga/alpharetta/2335-mansell-rd", "opening_hours": "Mo-We 11:00-21:30; Th-Sa 11:00-22:00; Su 11:00-21:30", "brand": "Buca di Beppo"}, "geometry": {"type": "Point", "coordinates": [-84.3073815107345, 34.03741326069006]}},
{"type": "Feature", "id": "5xJU2tBeTSBUZjPhr3IOTLQLCoI=", "properties": {"ref": "0603", "@spider": "bucadibeppo", "addr:street": "615 Flatiron MarketPlace Dr", "addr:city": "Broomfield", "addr:state": "Colorado", "addr:postcode": "80021", "addr:country": "US", "name": "Buca di Beppo Broomfield", "phone": "(303) 464-7673", "website": "https://locations.bucadibeppo.com/us/co/broomfield/615-flatiron-marketplace-dr", "opening_hours": "Mo-We 11:00-21:30; Th-Sa 11:00-22:00; Su 11:00-21:30", "brand": "Buca di Beppo"}, "geometry": {"type": "Point", "coordinates": [-105.127155, 39.929488]}},
{"type": "Feature", "id": "vhZPsPGtzQ70tFbIJvWqpx_MmTY=", "properties": {"ref": "5101", "@spider": "bucadibeppo", "addr:street": "1825 Connecticut Ave NW", "addr:city": "Washington", "addr:state": "District Of Columbia", "addr:postcode": "20009", "addr:country": "US", "name": "Buca di Beppo Washington D.C.", "phone": "(202) 232-8466", "website": "https://locations.bucadibeppo.com/us/dc/washington/1825-connecticut-ave-nw", "opening_hours": "Mo-We 11:00-21:30; Th-Sa 11:00-22:00; Su 11:00-21:30", "brand": "Buca di Beppo"}, "geometry": {"type": "Point", "coordinates": [-77.0459734, 38.9151048]}},
{"type": "Feature", "id": "UCkDlpOXOBSJBzDmdC8G8hi_4dk=", "properties": {"ref": "4302", "@spider": "bucadibeppo", "addr:street": "1722 Galleria Blvd", "addr:city": "Franklin", "addr:state": "Tennessee", "addr:postcode": "37067", "addr:country": "US", "name": "Buca di Beppo Coolsprings Crossing", "phone": "(615) 778-1321", "website": "https://locations.bucadibeppo.com/us/tn/franklin/1722-galleria-blvd", "opening_hours": "Mo-We 11:00-21:30; Th-Sa 11:00-22:00; Su 11:00-21:30", "brand": "Buca di Beppo"}, "geometry": {"type": "Point", "coordinates": [-86.80974000000003, 35.963600000000014]}},
{"type": "Feature", "id": "Of7rN3_EvFrnF1yj4A1wizALVCQ=", "properties": {"ref": "4701", "@spider": "bucadibeppo", "addr:street": "701 Westlake Ave N", "addr:city": "Seattle", "addr:state": "Washington", "addr:postcode": "98109", "addr:country": "US", "name": "Buca di Beppo Seattle", "phone": "(206) 244-2288", "website": "https://locations.bucadibeppo.com/us/wa/seattle/701-westlake-ave-n", "opening_hours": "Mo-We 11:00-21:30; Th-Sa 11:00-22:00; Su 11:00-21:30", "brand": "Buca di Beppo"}, "geometry": {"type": "Point", "coordinates": [-122.3390848, 47.6258925]}},
{"type": "Feature", "id": "9U0rV4s769WCRnrBxxe05xh4jJU=", "properties": {"ref": "3101", "@spider": "bucadibeppo", "addr:street": "10915 Carolina Place Pkwy", "addr:city": "Pineville", "addr:state": "North Carolina", "addr:postcode": "28134", "addr:country": "US", "name": "Buca di Beppo Pineville", "phone": "(704) 542-5146", "website": "https://locations.bucadibeppo.com/us/nc/pineville/10915-carolina-place-pkwy", "opening_hours": "Mo-We 11:00-21:30; Th-Sa 11:00-22:00; Su 11:00-21:30", "brand": "Buca di Beppo"}, "geometry": {"type": "Point", "coordinates": [-80.8800648, 35.0853448]}},
{"type": "Feature", "id": "dZg9nam1NS9LdXZpREg9Iam_YqI=", "properties": {"ref": "3403", "@spider": "bucadibeppo", "addr:street": "44 Wolf Rd", "addr:city": "Colonie", "addr:state": "New York", "addr:postcode": "12205", "addr:country": "US", "name": "Buca di Beppo Albany", "phone": "(518) 459-2822", "website": "https://locations.bucadibeppo.com/us/ny/colonie/44-wolf-rd", "opening_hours": "Mo-We 11:00-21:30; Th-Sa 11:00-22:00; Su 11:00-21:30", "brand": "Buca di Beppo"}, "geometry": {"type": "Point", "coordinates": [-73.8172258, 42.7125315]}},
{"type": "Feature", "id": "BUFIMcyoFPHfOleAoPNv5YMHNLI=", "properties": {"ref": "2802", "@spider": "bucadibeppo", "addr:street": "7690 W Lake Mead Blvd", "addr:city": "Las Vegas", "addr:state": "Nevada", "addr:postcode": "89128", "addr:country": "US", "name": "Buca di Beppo Las Vegas - Summerlin", "phone": "(702) 363-6524", "website": "https://locations.bucadibeppo.com/us/nv/las-vegas/7690-w-lake-mead-blvd", "opening_hours": "Mo-We 11:00-21:30; Th-Sa 11:00-22:00; Su 11:00-21:30", "brand": "Buca di Beppo"}, "geometry": {"type": "Point", "coordinates": [-115.264138, 36.19722]}},
{"type": "Feature", "id": "3-XThSyFuSlIZxOafpzK1E8nXKM=", "properties": {"ref": "2801", "@spider": "bucadibeppo", "addr:street": "412 E Flamingo Rd", "addr:city": "Las Vegas", "addr:state": "Nevada", "addr:postcode": "89169", "addr:country": "US", "name": "Buca di Beppo Las Vegas - Paradise", "phone": "(702) 866-2867", "website": "https://locations.bucadibeppo.com/us/nv/las-vegas/412-e-flamingo-rd", "opening_hours": "Mo-We 11:00-21:30; Th-Sa 11:00-22:00; Su 11:00-21:30", "brand": "Buca di Beppo"}, "geometry": {"type": "Point", "coordinates": [-115.1518456, 36.1149679]}},
{"type": "Feature", "id": "IbbOmyT6jBsuAQFkDV0D7x2otq4=", "properties": {"ref": "2803", "@spider": "bucadibeppo", "addr:street": "3850 S Las Vegas Blvd", "addr:city": "Las Vegas", "addr:state": "Nevada", "addr:postcode": "89109", "addr:country": "US", "name": "Buca di Beppo Excalibur Hotel & Casino - Las Vegas", "phone": "(702) 795-1010", "website": "https://locations.bucadibeppo.com/us/nv/las-vegas/3850-s-las-vegas-blvd", "opening_hours": "Mo-Th 11:00-22:00; Fr-Sa 11:00-00:00; Su 11:00-22:00", "brand": "Buca di Beppo"}, "geometry": {"type": "Point", "coordinates": [-115.1755073, 36.0993628]}},
{"type": "Feature", "id": "o8QOkKqgUEtsczpvIG0NbUJpnnQ=", "properties": {"ref": "1403", "@spider": "bucadibeppo", "addr:street": "659 US 31 N", "addr:city": "Greenwood", "addr:state": "Indiana", "addr:postcode": "46142", "addr:country": "US", "name": "Buca di Beppo Greenwood", "phone": "(317) 884-2822", "website": "https://locations.bucadibeppo.com/us/in/greenwood/659-us-31-n", "opening_hours": "Mo-We 11:00-21:30; Th-Sa 11:00-22:00; Su 11:00-21:30", "brand": "Buca di Beppo"}, "geometry": {"type": "Point", "coordinates": [-86.1185183, 39.6248235]}},
{"type": "Feature", "id": "Dix7D34sy1lO3NBCP0-K8FbtPqI=", "properties": {"ref": "2201", "@spider": "bucadibeppo", "addr:street": "38888 6 Mile Rd", "addr:city": "Livonia", "addr:state": "Michigan", "addr:postcode": "48152", "addr:country": "US", "name": "Buca di Beppo Livonia", "phone": "(734) 462-6442", "website": "https://locations.bucadibeppo.com/us/mi/livonia/38888-6-mile-rd", "opening_hours": "Mo-We 11:00-21:30; Th-Sa 11:00-22:00; Su 11:00-21:30", "brand": "Buca di Beppo"}, "geometry": {"type": "Point", "coordinates": [-83.4285656, 42.4110691]}},
{"type": "Feature", "id": "adJRrYAnyC52VMCZMzGT4EsifG0=", "properties": {"ref": "0813", "@spider": "bucadibeppo", "addr:street": "8001 S Orange Blossom Trail Space 1304", "addr:city": "Orlando", "addr:state": "Florida", "addr:postcode": "32809", "addr:country": "US", "name": "Buca di Beppo The Florida Mall - Orlando", "phone": "(407) 859-7844", "website": "https://locations.bucadibeppo.com/us/fl/orlando/8001-s-orange-blossom-trail", "opening_hours": "Mo-We 11:00-21:30; Th-Sa 11:00-22:00; Su 11:00-21:30", "brand": "Buca di Beppo"}, "geometry": {"type": "Point", "coordinates": [-81.3925141, 28.4444397]}},
{"type": "Feature", "id": "bEGwqD9WVulAqP1clyL-BoGHC64=", "properties": {"ref": "0821", "@spider": "bucadibeppo", "addr:street": "6282 W Irlo Bronson Memorial Hwy", "addr:city": "Celebration", "addr:state": "Florida", "addr:postcode": "34747", "addr:country": "US", "name": "Buca di Beppo Celebration - Kissimmee", "phone": "(321) 219-2822", "website": "https://locations.bucadibeppo.com/us/fl/celebration/6282-w-irlo-bronson-memorial-hwy", "opening_hours": "Mo-We 11:00-21:30; Th-Sa 11:00-22:00; Su 11:00-21:30", "brand": "Buca di Beppo"}, "geometry": {"type": "Point", "coordinates": [-81.5333302, 28.3303593]}},
{"type": "Feature", "id": "OdQ2WJEv-10sgH1dIclec9tFNjo=", "properties": {"ref": "0808", "@spider": "bucadibeppo", "addr:street": "8860 Tamiami Trail N", "addr:city": "Naples", "addr:state": "Florida", "addr:postcode": "34108", "addr:country": "US", "name": "Buca di Beppo Naples", "phone": "(239) 596-6662", "website": "https://locations.bucadibeppo.com/us/fl/naples/8860-tamiami-trail-n", "opening_hours": "Mo-We 11:00-21:30; Th-Sa 11:00-22:00; Su 11:00-21:30", "brand": "Buca di Beppo"}, "geometry": {"type": "Point", "coordinates": [-81.80040657520294, 26.249001305251255]}},
{"type": "Feature", "id": "GPC_0I5JCHQB9fE04AyoErqdrm8=", "properties": {"ref": "0523", "@spider": "bucadibeppo", "addr:street": "26940 Theater Dr", "addr:city": "Santa Clarita", "addr:state": "California", "addr:postcode": "91355", "addr:country": "US", "name": "Buca di Beppo Valencia", "phone": "(661) 253-1900", "website": "https://locations.bucadibeppo.com/us/ca/santa-clarita/26940-theater-dr", "opening_hours": "Mo-We 11:00-21:30; Th-Sa 11:00-22:00; Su 11:00-21:30", "brand": "Buca di Beppo"}, "geometry": {"type": "Point", "coordinates": [-118.560813, 34.418315]}},
{"type": "Feature", "id": "jPxDRPzKqH0TI_Jy5c1XK9VylwU=", "properties": {"ref": "0508", "@spider": "bucadibeppo", "addr:street": "705 6th Ave", "addr:city": "San Diego", "addr:state": "California", "addr:postcode": "92101", "addr:country": "US", "name": "Buca di Beppo San Diego", "phone": "(619) 233-7272", "website": "https://locations.bucadibeppo.com/us/ca/san-diego/705-6th-ave", "opening_hours": "Mo-We 11:00-21:30; Th-Sa 11:00-22:00; Su 11:00-21:30", "brand": "Buca di Beppo"}, "geometry": {"type": "Point", "coordinates": [-117.1589712, 32.712777]}},
{"type": "Feature", "id": "BgLWKHIdKCGVUgG7V-rO5tT9S7Y=", "properties": {"ref": "0510", "@spider": "bucadibeppo", "addr:street": "1249 Howe Ave", "addr:city": "Sacramento", "addr:state": "California", "addr:postcode": "95825", "addr:country": "US", "name": "Buca di Beppo Sacramento", "phone": "(916) 922-6673", "website": "https://locations.bucadibeppo.com/us/ca/sacramento/1249-howe-ave", "opening_hours": "Mo-We 11:00-21:30; Th-Sa 11:00-22:00; Su 11:00-21:30", "brand": "Buca di Beppo"}, "geometry": {"type": "Point", "coordinates": [-121.4159522, 38.5886384]}},
{"type": "Feature", "id": "Tqs1xe5bQ8l-p0EgkpnH6vmsxYU=", "properties": {"ref": "2203", "@spider": "bucadibeppo", "addr:street": "12575 Hall Rd", "addr:city": "Utica", "addr:state": "Michigan", "addr:postcode": "48317", "addr:country": "US", "name": "Buca di Beppo Utica", "phone": "(586) 803-9463", "website": "https://locations.bucadibeppo.com/us/mi/utica/12575-hall-rd", "opening_hours": "Mo-We 11:00-21:30; Th-Sa 11:00-22:00; Su 11:00-21:30", "brand": "Buca di Beppo"}, "geometry": {"type": "Point", "coordinates": [-83.00337412883606, 42.62759211206836]}},
{"type": "Feature", "id": "o58w64AyjE2q01U-gFy6rpoVgT0=", "properties": {"ref": "0806", "@spider": "bucadibeppo", "addr:street": "1351 S Orlando Ave", "addr:city": "Maitland", "addr:state": "Florida", "addr:postcode": "32751", "addr:country": "US", "name": "Buca di Beppo Maitland-Winter Park", "phone": "(407) 622-7663", "website": "https://locations.bucadibeppo.com/us/fl/maitland/1351-s-orlando-ave", "opening_hours": "Mo-We 11:00-21:30; Th-Sa 11:00-22:00; Su 11:00-21:30", "brand": "Buca di Beppo"}, "geometry": {"type": "Point", "coordinates": [-81.36588469147682, 28.615881135272808]}},
{"type": "Feature", "id": "XNR-TEEUlzMC-0eDSLmQOLdFHUI=", "properties": {"ref": "0804", "@spider": "bucadibeppo", "addr:street": "3355 S University Dr", "addr:city": "Davie", "addr:state": "Florida", "addr:postcode": "33328", "addr:country": "US", "name": "Buca di Beppo Davie", "phone": "(954) 577-3287", "website": "https://locations.bucadibeppo.com/us/fl/davie/3355-s-university-dr", "opening_hours": "Mo-We 11:00-21:30; Th-Sa 11:00-22:00; Su 11:00-21:30", "brand": "Buca di Beppo"}, "geometry": {"type": "Point", "coordinates": [-80.2520546, 26.0796996]}},
{"type": "Feature", "id": "KlBnRS-jWAmWKlmDKEiBGSgeWsc=", "properties": {"ref": "0515", "@spider": "bucadibeppo", "addr:street": "1212 Galleria Blvd", "addr:city": "Roseville", "addr:state": "California", "addr:postcode": "95678", "addr:country": "US", "name": "Buca di Beppo Roseville", "phone": "(916) 771-9463", "website": "https://locations.bucadibeppo.com/us/ca/roseville/1212-galleria-blvd", "opening_hours": "Mo-We 11:00-21:30; Th-Sa 11:00-22:00; Su 11:00-21:30", "brand": "Buca di Beppo"}, "geometry": {"type": "Point", "coordinates": [-121.2637866, 38.7730093]}},
{"type": "Feature", "id": "qQfbkDjBRGbdmjWWPeRHv5z3t5Q=", "properties": {"ref": "0505", "@spider": "bucadibeppo", "addr:street": "1670 S Pacific Coast Hwy", "addr:city": "Redondo Beach", "addr:state": "California", "addr:postcode": "90277", "addr:country": "US", "name": "Buca di Beppo Redondo Beach", "phone": "(310) 540-3246", "website": "https://locations.bucadibeppo.com/us/ca/redondo-beach/1670-s-pacific-coast-hwy", "opening_hours": "Mo-We 11:00-21:30; Th-Sa 11:00-22:00; Su 11:00-21:30", "brand": "Buca di Beppo"}, "geometry": {"type": "Point", "coordinates": [-118.383896, 33.8190307]}},
{"type": "Feature", "id": "_1jk_cfZja32dHQPuiYC8Oqi4d8=", "properties": {"ref": "1000-universal-studios-blvd", "@spider": "bucadibeppo", "addr:street": "1000 Universal Studios Blvd", "addr:city": "Universal City", "addr:state": "California", "addr:postcode": "91608", "addr:country": "US", "name": "Buca di Beppo Universal Citywalk", "phone": "(818) 509-9463", "website": "https://locations.bucadibeppo.com/us/ca/universal-city/1000-universal-studios-blvd", "opening_hours": "Mo-Su 12:00-22:00", "brand": "Buca di Beppo"}, "geometry": {"type": "Point", "coordinates": [-118.35114800000002, 34.136403019327055]}},
{"type": "Feature", "id": "pHnK7byVtv6bGJ3JmGmgAaLhp2A=", "properties": {"ref": "0527", "@spider": "bucadibeppo", "addr:street": "205 N Moorpark Rd", "addr:city": "Thousand Oaks", "addr:state": "California", "addr:postcode": "91360", "addr:country": "US", "name": "Buca di Beppo Thousand Oaks", "phone": "(805) 449-3688", "website": "https://locations.bucadibeppo.com/us/ca/thousand-oaks/205-n-moorpark-rd", "opening_hours": "Mo-We 11:00-21:30; Th-Sa 11:00-22:00; Su 11:00-21:30", "brand": "Buca di Beppo"}, "geometry": {"type": "Point", "coordinates": [-118.8767323, 34.1832642]}},
{"type": "Feature", "id": "N1wtBZi4Km-LoFwhGr28NF2csis=", "properties": {"ref": "0301", "@spider": "bucadibeppo", "addr:street": "3828 N Scottsdale Rd", "addr:city": "Scottsdale", "addr:state": "Arizona", "addr:postcode": "85251", "addr:country": "US", "name": "Buca di Beppo Scottsdale", "phone": "(480) 949-6622", "website": "https://locations.bucadibeppo.com/us/az/scottsdale/3828-n-scottsdale-rd", "opening_hours": "Mo-We 11:00-21:30; Th-Sa 11:00-22:00; Su 11:00-21:30", "brand": "Buca di Beppo"}, "geometry": {"type": "Point", "coordinates": [-111.92648135125637, 33.49251989490393]}},
{"type": "Feature", "id": "8mSwfdgHeT5Iv0Qzc2UJJ8noEV0=", "properties": {"ref": "3811", "@spider": "bucadibeppo", "addr:street": "300 Main St", "addr:city": "Exton", "addr:state": "Pennsylvania", "addr:postcode": "19341", "addr:country": "US", "name": "Buca di Beppo Exton", "phone": "(610) 524-9939", "website": "https://locations.bucadibeppo.com/us/pa/exton/300-main-st", "opening_hours": "Mo-We 11:00-21:30; Th-Sa 11:00-22:00; Su 11:00-21:30", "brand": "Buca di Beppo"}, "geometry": {"type": "Point", "coordinates": [-75.6283401, 40.0220977]}},
{"type": "Feature", "id": "QOMafVlEtKCpWDkuM3nLesVq3Z8=", "properties": {"ref": "3505", "@spider": "bucadibeppo", "addr:street": "60 E Wilson Bridge Rd", "addr:city": "Worthington", "addr:state": "Ohio", "addr:postcode": "43085", "addr:country": "US", "name": "Buca di Beppo Worthington", "phone": "(614) 848-8466", "website": "https://locations.bucadibeppo.com/us/oh/worthington/60-e-wilson-bridge-rd", "opening_hours": "Mo-Su 16:00-21:00", "brand": "Buca di Beppo"}, "geometry": {"type": "Point", "coordinates": [-83.0158388614654, 40.10801669190139]}},
{"type": "Feature", "id": "iZLVch4X9i0AwiXRIoxS7x7m370=", "properties": {"ref": "3502", "@spider": "bucadibeppo", "addr:street": "23575 Detroit Rd", "addr:city": "Westlake", "addr:state": "Ohio", "addr:postcode": "44145", "addr:country": "US", "name": "Buca di Beppo Westlake", "phone": "(440) 356-2276", "website": "https://locations.bucadibeppo.com/us/oh/westlake/23575-detroit-rd", "opening_hours": "Mo-We 11:00-21:30; Th-Sa 11:00-22:00; Su 11:00-21:30", "brand": "Buca di Beppo"}, "geometry": {"type": "Point", "coordinates": [-81.8808912, 41.471074]}},
{"type": "Feature", "id": "DGrL9fd6JuaYzkZ1eUC-cQvMae8=", "properties": {"ref": "3810", "@spider": "bucadibeppo", "addr:street": "2745 Paper Mill Rd", "addr:city": "Wyomissing", "addr:state": "Pennsylvania", "addr:postcode": "19610", "addr:country": "US", "name": "Buca di Beppo Reading", "phone": "(610) 374-3482", "website": "https://locations.bucadibeppo.com/us/pa/wyomissing/2745-paper-mill-rd", "opening_hours": "Mo-We 11:00-21:30; Th-Sa 11:00-22:00; Su 11:00-21:30", "brand": "Buca di Beppo"}, "geometry": {"type": "Point", "coordinates": [-75.9856526, 40.3593436]}},
{"type": "Feature", "id": "7Cn5y8LZdAJfF4tPiEeGmdAZafQ=", "properties": {"ref": "1401", "@spider": "bucadibeppo", "addr:street": "35 N Illinois St", "addr:city": "Indianapolis", "addr:state": "Indiana", "addr:postcode": "46204", "addr:country": "US", "name": "Buca di Beppo Downtown Indianapolis", "phone": "(317) 632-2822", "website": "https://locations.bucadibeppo.com/us/in/indianapolis/35-n-illinois-st", "opening_hours": "Mo-Th 16:00-21:00; Fr 16:00-22:00; Sa 11:00-22:00; Su 11:00-21:30", "brand": "Buca di Beppo"}, "geometry": {"type": "Point", "coordinates": [-86.1596935, 39.767948]}},
{"type": "Feature", "id": "FWliN0oQ9BrhajvEwBGk20SgFTM=", "properties": {"ref": "3506", "@spider": "bucadibeppo", "addr:street": "16677 Southpark Center", "addr:city": "Strongsville", "addr:state": "Ohio", "addr:postcode": "44136", "addr:country": "US", "name": "Buca di Beppo Strongsville", "phone": "(440) 846-6262", "website": "https://locations.bucadibeppo.com/us/oh/strongsville/16677-southpark-center", "opening_hours": "Mo-We 11:00-21:30; Th-Sa 11:00-22:00; Su 11:00-21:30", "brand": "Buca di Beppo"}, "geometry": {"type": "Point", "coordinates": [-81.81628382209016, 41.31014102946827]}},
{"type": "Feature", "id": "cuPOEYuJBBGa-uPboaEckgoh-_4=", "properties": {"ref": "3501", "@spider": "bucadibeppo", "addr:street": "343 N Front St", "addr:city": "Columbus", "addr:state": "Ohio", "addr:postcode": "43215", "addr:country": "US", "name": "Buca di Beppo Columbus", "phone": "(614) 621-3287", "website": "https://locations.bucadibeppo.com/us/oh/columbus/343-n-front-st", "opening_hours": "Mo-We 11:00-21:30; Th-Sa 11:00-22:00; Su 11:00-21:30", "brand": "Buca di Beppo"}, "geometry": {"type": "Point", "coordinates": [-83.0042624, 39.9693871]}},
{"type": "Feature", "id": "AcwBpYEK4T_CXd4xWvySJixOt4A=", "properties": {"ref": "4501", "@spider": "bucadibeppo", "addr:street": "935 East Fort Union Blvd", "addr:city": "Midvale", "addr:state": "Utah", "addr:postcode": "84047", "addr:country": "US", "name": "Buca di Beppo Fort Union", "phone": "(801) 561-9463", "website": "https://locations.bucadibeppo.com/us/ut/midvale/935-east-fort-union-blvd", "opening_hours": "Mo-We 11:00-21:30; Th-Sa 11:00-22:00; Su 11:00-21:30", "brand": "Buca di Beppo"}, "geometry": {"type": "Point", "coordinates": [-111.8650163829422, 40.622908698391555]}},
{"type": "Feature", "id": "Kyfg9NFCudkBZBmvThFLrsM1lf4=", "properties": {"ref": "0304", "@spider": "bucadibeppo", "addr:street": "16091 N Arrowhead Fountains Center Dr", "addr:city": "Peoria", "addr:state": "Arizona", "addr:postcode": "85382", "addr:country": "US", "name": "Buca di Beppo Arrowhead Fountains Center", "phone": "(623) 412-9463", "website": "https://locations.bucadibeppo.com/us/az/peoria/16091-n-arrowhead-fountains-center-dr", "opening_hours": "Mo-We 11:00-21:30; Th-Sa 11:00-22:00; Su 11:00-21:30", "brand": "Buca di Beppo"}, "geometry": {"type": "Point", "coordinates": [-112.23679, 33.63244]}},
{"type": "Feature", "id": "JpCVGBFwtdg5HzWHF6AOPufdod4=", "properties": {"ref": "1402", "@spider": "bucadibeppo", "addr:street": "6045 E 86th St", "addr:city": "Indianapolis", "addr:state": "Indiana", "addr:postcode": "46250", "addr:country": "US", "name": "Buca di Beppo Castleton Square - Indianapolis", "phone": "(317) 842-8666", "website": "https://locations.bucadibeppo.com/us/in/indianapolis/6045-e-86th-st", "opening_hours": "Mo-We 11:00-21:30; Th-Sa 11:00-22:00; Su 11:00-21:30", "brand": "Buca di Beppo"}, "geometry": {"type": "Point", "coordinates": [-86.0631208, 39.9118446]}},
{"type": "Feature", "id": "GHGW2pSvTbfPoePgIoMErRvR8FU=", "properties": {"ref": "3503", "@spider": "bucadibeppo", "addr:street": "2635 Edmondson Road", "addr:city": "Norwood", "addr:state": "Ohio", "addr:postcode": "45209", "addr:country": "US", "name": "Buca di Beppo Cincinnati", "phone": "(513) 396-7673", "website": "https://locations.bucadibeppo.com/us/oh/norwood/2635-edmondson-road", "opening_hours": "Mo-We 11:00-21:30; Th-Sa 11:00-22:00; Su 11:00-21:30", "brand": "Buca di Beppo"}, "geometry": {"type": "Point", "coordinates": [-84.44562855767212, 39.148277179630135]}},
{"type": "Feature", "id": "CYlcSayfcGDms4kvmvHClk5H7Vk=", "properties": {"ref": "0303", "@spider": "bucadibeppo", "addr:street": "1730 S Val Vista Dr", "addr:city": "Mesa", "addr:state": "Arizona", "addr:postcode": "85204", "addr:country": "US", "name": "Buca di Beppo Mesa", "phone": "(480) 507-9463", "website": "https://locations.bucadibeppo.com/us/az/mesa/1730-s-val-vista-dr", "opening_hours": "Mo-We 11:00-21:30; Th-Sa 11:00-22:00; Su 11:00-21:30", "brand": "Buca di Beppo"}, "geometry": {"type": "Point", "coordinates": [-111.7543818, 33.3837042]}},
{"type": "Feature", "id": "ODKlPqHsh4AbhHw8a-0sDR4arUk=", "properties": {"ref": "4502", "@spider": "bucadibeppo", "addr:street": "202 W 300 S", "addr:city": "Salt Lake City", "addr:state": "Utah", "addr:postcode": "84101", "addr:country": "US", "name": "Buca di Beppo Salt Lake City", "phone": "(801) 575-6262", "website": "https://locations.bucadibeppo.com/us/ut/salt-lake-city/202-w-300-s", "opening_hours": "Mo-We 11:00-21:30; Th-Sa 11:00-22:00; Su 11:00-21:30", "brand": "Buca di Beppo"}, "geometry": {"type": "Point", "coordinates": [-111.89718157052994, 40.763126250487666]}},
{"type": "Feature", "id": "nRY-WDOXJp4CYgnSYvLvmQEJJrw=", "properties": {"ref": "0516", "@spider": "bucadibeppo", "addr:street": "7979 Center Ave", "addr:city": "Huntington Beach", "addr:state": "California", "addr:postcode": "92647", "addr:country": "US", "name": "Buca di Beppo Huntington Beach", "phone": "(714) 891-4666", "website": "https://locations.bucadibeppo.com/us/ca/huntington-beach/7979-center-ave", "opening_hours": "Mo-We 11:00-21:30; Th-Sa 11:00-22:00; Su 11:00-21:30", "brand": "Buca di Beppo"}, "geometry": {"type": "Point", "coordinates": [-117.99279123544693, 33.734150346039044]}},
{"type": "Feature", "id": "fQITzIwUS5tLywDVSwD1U_n_mJ8=", "properties": {"ref": "0518", "@spider": "bucadibeppo", "addr:street": "11757 Harbor Blvd", "addr:city": "Garden Grove", "addr:state": "California", "addr:postcode": "92840", "addr:country": "US", "name": "Buca di Beppo Anaheim", "phone": "(714) 740-2822", "website": "https://locations.bucadibeppo.com/us/ca/garden-grove/11757-harbor-blvd", "opening_hours": "Mo-We 11:00-21:30; Th-Sa 11:00-22:00; Su 11:00-21:30", "brand": "Buca di Beppo"}, "geometry": {"type": "Point", "coordinates": [-117.9153960943222, 33.79155090884923]}},
{"type": "Feature", "id": "6p9JLaW7NLjNBXSYU_Ys-IQ-1Ko=", "properties": {"ref": "", "@spider": "bucadibeppo", "addr:street": "7111 W Ray Rd", "addr:city": "Chandler", "addr:state": "Arizona", "addr:postcode": "85226", "addr:country": "US", "name": "Buca di Beppo Chandler", "phone": "(480) 785-7272", "website": "https://locations.bucadibeppo.com/us/az/chandler/7111-w-ray-rd", "opening_hours": "Mo-We 11:00-21:30; Th-Sa 11:00-22:00; Su 11:00-21:30", "brand": "Buca di Beppo"}, "geometry": {"type": "Point", "coordinates": [-111.96523994207382, 33.31940757289409]}},
{"type": "Feature", "id": "0J3kgvlJvXAWwFVFSqmpD60x3m4=", "properties": {"ref": "3808", "@spider": "bucadibeppo", "addr:street": "6600 Robinson Centre Dr", "addr:city": "Pittsburgh", "addr:state": "Pennsylvania", "addr:postcode": "15205", "addr:country": "US", "name": "Buca di Beppo Pittsburgh - Robinson Town Centre", "phone": "(412) 788-8444", "website": "https://locations.bucadibeppo.com/us/pa/pittsburgh/6600-robinson-centre-dr", "opening_hours": "Mo-Fr 16:00-21:00; Sa-Su 11:00-21:00", "brand": "Buca di Beppo"}, "geometry": {"type": "Point", "coordinates": [-80.1605263, 40.455272]}},
{"type": "Feature", "id": "GU1ZNwUE5HREPSZGk76kzbqAgH0=", "properties": {"ref": "0503", "@spider": "bucadibeppo", "addr:street": "80 W Green St", "addr:city": "Pasadena", "addr:state": "California", "addr:postcode": "91105", "addr:country": "US", "name": "Buca di Beppo Pasadena", "phone": "(626) 792-7272", "website": "https://locations.bucadibeppo.com/us/ca/pasadena/80-w-green-st", "opening_hours": "Mo-We 11:00-21:30; Th-Sa 11:00-22:00; Su 11:00-21:30", "brand": "Buca di Beppo"}, "geometry": {"type": "Point", "coordinates": [-118.15218016505241, 34.144299673265174]}},
{"type": "Feature", "id": "DnMzdxvVMluT9QKd91V1vK2B9J0=", "properties": {"ref": "0521", "@spider": "bucadibeppo", "addr:street": "10749 Westview Pkwy", "addr:city": "Mira Mesa", "addr:state": "California", "addr:postcode": "92126", "addr:country": "US", "name": "Buca di Beppo Mira Mesa", "phone": "(858) 536-2822", "website": "https://locations.bucadibeppo.com/us/ca/mira-mesa/10749-westview-pkwy", "opening_hours": "Mo-We 11:00-21:30; Th-Sa 11:00-22:00; Su 11:00-21:30", "brand": "Buca di Beppo"}, "geometry": {"type": "Point", "coordinates": [-117.1182414, 32.9166058]}},
{"type": "Feature", "id": "OwB7z4am4S4jXea8DAhJbsOiS7Q=", "properties": {"ref": "0501", "@spider": "bucadibeppo", "addr:street": "643 Emerson St", "addr:city": "Palo Alto", "addr:state": "California", "addr:postcode": "94301", "addr:country": "US", "name": "Buca di Beppo Palo Alto", "phone": "(650) 329-0665", "website": "https://locations.bucadibeppo.com/us/ca/palo-alto/643-emerson-st", "opening_hours": "Mo-We 11:00-21:30; Th-Sa 11:00-22:00; Su 11:00-21:30", "brand": "Buca di Beppo"}, "geometry": {"type": "Point", "coordinates": [-122.1605738, 37.4435214]}},
{"type": "Feature", "id": "nTRJ4KhUG2hZtdhpi35jVnQip9Q=", "properties": {"ref": "0506", "@spider": "bucadibeppo", "addr:street": "505 W Foothill Blvd", "addr:city": "Claremont", "addr:state": "California", "addr:postcode": "91711", "addr:country": "US", "name": "Buca di Beppo Claremont", "phone": "(909) 399-3287", "website": "https://locations.bucadibeppo.com/us/ca/claremont/505-w-foothill-blvd", "opening_hours": "Mo-We 11:00-21:30; Th-Sa 11:00-22:00; Su 11:00-21:30", "brand": "Buca di Beppo"}, "geometry": {"type": "Point", "coordinates": [-117.7225905, 34.1074819]}},
{"type": "Feature", "id": "3R0JKSlwiKmW3AbRzlYUrkAC_gE=", "properties": {"ref": "0504", "@spider": "bucadibeppo", "addr:street": "17500 Ventura Blvd", "addr:city": "Encino", "addr:state": "California", "addr:postcode": "91316", "addr:country": "US", "name": "Buca di Beppo Encino", "phone": "(818) 995-3288", "website": "https://locations.bucadibeppo.com/us/ca/encino/17500-ventura-blvd", "opening_hours": "Mo-We 11:00-21:30; Th-Sa 11:00-22:00; Su 11:00-21:30", "brand": "Buca di Beppo"}, "geometry": {"type": "Point", "coordinates": [-118.51450113988119, 34.16131334173898]}},
{"type": "Feature", "id": "UI8AJwXgn2stRXoCsHMSpc-qr5w=", "properties": {"ref": "0509", "@spider": "bucadibeppo", "addr:street": "1609 E Imperial Hwy", "addr:city": "Brea", "addr:state": "California", "addr:postcode": "92821", "addr:country": "US", "name": "Buca di Beppo Brea", "phone": "(714) 529-6262", "website": "https://locations.bucadibeppo.com/us/ca/brea/1609-e-imperial-hwy", "opening_hours": "Mo-We 11:00-21:30; Th-Sa 11:00-22:00; Su 11:00-21:30", "brand": "Buca di Beppo"}, "geometry": {"type": "Point", "coordinates": [-117.8827065, 33.911842]}},
{"type": "Feature", "id": "OwdHlM0JQghayH6l2x4NkVuiZqc=", "properties": {"ref": "4403", "@spider": "bucadibeppo", "addr:street": "19075 I-45 S", "addr:city": "Shenandoah", "addr:state": "Texas", "addr:postcode": "77385", "addr:country": "US", "name": "Buca di Beppo The Woodlands - Portofino Shopping Center", "phone": "(936) 321-6262", "website": "https://locations.bucadibeppo.com/us/tx/shenandoah/19075-i-45-s", "opening_hours": "Mo-We 11:00-21:30; Th-Sa 11:00-22:00; Su 11:00-21:30", "brand": "Buca di Beppo"}, "geometry": {"type": "Point", "coordinates": [-95.4512787, 30.1835979]}},
{"type": "Feature", "id": "b0V0xtJgKzFiZZvGqRPT-x03e9s=", "properties": {"ref": "3802", "@spider": "bucadibeppo", "addr:street": "3 Station Square Dr", "addr:city": "Pittsburgh", "addr:state": "Pennsylvania", "addr:postcode": "15219", "addr:country": "US", "name": "Buca di Beppo Pittsburgh - Station Square", "phone": "(412) 471-9463", "website": "https://locations.bucadibeppo.com/us/pa/pittsburgh/3-station-square-dr", "opening_hours": "Mo-We 11:00-21:30; Th-Sa 11:00-22:00; Su 11:00-21:30", "brand": "Buca di Beppo"}, "geometry": {"type": "Point", "coordinates": [-80.00437, 40.4334862]}},
{"type": "Feature", "id": "uRH5h45KiJhepODx2YlcOj92DaI=", "properties": {"ref": "0520", "@spider": "bucadibeppo", "addr:street": "1921 Calle Barcelona", "addr:city": "Carlsbad", "addr:state": "California", "addr:postcode": "92009", "addr:country": "US", "name": "Buca di Beppo Carlsbad", "phone": "(760) 479-2533", "website": "https://locations.bucadibeppo.com/us/ca/carlsbad/1921-calle-barcelona", "opening_hours": "Mo-We 11:00-21:30; Th-Sa 11:00-22:00; Su 11:00-21:30", "brand": "Buca di Beppo"}, "geometry": {"type": "Point", "coordinates": [-117.26700961589813, 33.07223413871916]}},
{"type": "Feature", "id": "BBx6p9V2gTzyID1ttxapfjzy-NA=", "properties": {"ref": "0599", "@spider": "bucadibeppo", "addr:street": "1875 S Bascom Ave", "addr:city": "Campbell", "addr:state": "California", "addr:postcode": "95008", "addr:country": "US", "name": "Buca di Beppo Campbell", "phone": "(408) 377-7722", "website": "https://locations.bucadibeppo.com/us/ca/campbell/1875-s-bascom-ave", "opening_hours": "Mo-We 11:00-21:30; Th-Sa 11:00-22:00; Su 11:00-21:30", "brand": "Buca di Beppo"}, "geometry": {"type": "Point", "coordinates": [-121.9337913, 37.2884414]}},
{"type": "Feature", "id": "pbjqc0YDbZ1y9Vzdf5OPFCrFJYE=", "properties": {"ref": "4407", "@spider": "bucadibeppo", "addr:street": "2701 E State Hwy 114", "addr:city": "Southlake", "addr:state": "Texas", "addr:postcode": "76092", "addr:country": "US", "name": "Buca di Beppo Dallas - Southlake", "phone": "(817) 749-6262", "website": "https://locations.bucadibeppo.com/us/tx/southlake/2701-e-state-hwy-114", "opening_hours": "Mo-We 11:00-21:30; Th-Sa 11:00-22:00; Su 11:00-21:30", "brand": "Buca di Beppo"}, "geometry": {"type": "Point", "coordinates": [-97.1092631, 32.9422401]}},
{"type": "Feature", "id": "NgYo5G0RWA1_gABow2MO5YSXbZs=", "properties": {"ref": "4401", "@spider": "bucadibeppo", "addr:street": "7843 Park Ln", "addr:city": "Dallas", "addr:state": "Texas", "addr:postcode": "75225", "addr:country": "US", "name": "Buca di Beppo Dallas - Park Lane", "phone": "(214) 361-8462", "website": "https://locations.bucadibeppo.com/us/tx/dallas/7843-park-ln", "opening_hours": "Mo-We 11:00-21:30; Th-Sa 11:00-22:00; Su 11:00-21:30", "brand": "Buca di Beppo"}, "geometry": {"type": "Point", "coordinates": [-96.7721489, 32.8722195]}},
{"type": "Feature", "id": "H2glFcdQe0_2Owm9RsxODmAkBhU=", "properties": {"ref": "4405", "@spider": "bucadibeppo", "addr:street": "3612 Tudor Blvd", "addr:city": "Austin", "addr:state": "Texas", "addr:postcode": "78759", "addr:country": "US", "name": "Buca di Beppo Austin", "phone": "(512) 342-8462", "website": "https://locations.bucadibeppo.com/us/tx/austin/3612-tudor-blvd", "opening_hours": "Mo-We 11:00-21:30; Th-Sa 11:00-22:00; Su 11:00-21:30", "brand": "Buca di Beppo"}, "geometry": {"type": "Point", "coordinates": [-97.7368895803566, 30.384572594268864]}},
{"type": "Feature", "id": "rn-k8SIJffoA2Zrajfx-UqkvliU=", "properties": {"ref": "1302", "@spider": "bucadibeppo", "addr:street": "604 N Milwaukee Ave", "addr:city": "Wheeling", "addr:state": "Illinois", "addr:postcode": "60090", "addr:country": "US", "name": "Buca di Beppo Wheeling", "phone": "(847) 808-9898", "website": "https://locations.bucadibeppo.com/us/il/wheeling/604-n-milwaukee-ave", "opening_hours": "Mo-We 11:00-21:30; Th-Sa 11:00-22:00; Su 11:00-21:30", "brand": "Buca di Beppo"}, "geometry": {"type": "Point", "coordinates": [-87.91341170668602, 42.149236318472944]}},
{"type": "Feature", "id": "QG5BhnDRIN9XcRvMRKw5OjbWjNM=", "properties": {"ref": "1304", "@spider": "bucadibeppo", "addr:street": "15350 S 94th Ave", "addr:city": "Orland Park", "addr:state": "Illinois", "addr:postcode": "60462", "addr:country": "US", "name": "Buca di Beppo Orland Park", "phone": "(708) 349-6262", "website": "https://locations.bucadibeppo.com/us/il/orland-park/15350-s-94th-ave", "opening_hours": "Mo-We 11:00-21:30; Th-Sa 11:00-22:00; Su 11:00-21:30", "brand": "Buca di Beppo"}, "geometry": {"type": "Point", "coordinates": [-87.8487213, 41.61065]}},
{"type": "Feature", "id": "F-SfFAqxJ3b57a1HkXVE_v2-Pd8=", "properties": {"ref": "4402", "@spider": "bucadibeppo", "addr:street": "5192 Buffalo Speedway", "addr:city": "Houston", "addr:state": "Texas", "addr:postcode": "77005", "addr:country": "US", "name": "Buca di Beppo Houston-Buffalo Speedway", "phone": "(713) 665-2822", "website": "https://locations.bucadibeppo.com/us/tx/houston/5192-buffalo-speedway", "opening_hours": "Mo-We 11:00-21:30; Th-Sa 11:00-22:00; Su 11:00-21:30", "brand": "Buca di Beppo"}, "geometry": {"type": "Point", "coordinates": [-95.4284043, 29.7268898]}},
{"type": "Feature", "id": "t2A2tPNzai07duPtA62WHIWdeXk=", "properties": {"ref": "4408", "@spider": "bucadibeppo", "addr:street": "8580 State Hwy 121", "addr:city": "Frisco", "addr:state": "Texas", "addr:postcode": "75034", "addr:country": "US", "name": "Buca di Beppo Dallas - Frisco", "phone": "(972) 668-3287", "website": "https://locations.bucadibeppo.com/us/tx/frisco/8580-state-hwy-121", "opening_hours": "Mo-We 11:00-21:30; Th-Sa 11:00-22:00; Su 11:00-21:30", "brand": "Buca di Beppo"}, "geometry": {"type": "Point", "coordinates": [-96.809976, 33.0965766]}},
{"type": "Feature", "id": "DJnnTfjzqIRs2uBUu6F-1iD_2lM=", "properties": {"ref": "1303", "@spider": "bucadibeppo", "addr:street": "90 Yorktown Rd", "addr:city": "Lombard", "addr:state": "Illinois", "addr:postcode": "60148", "addr:country": "US", "name": "Buca di Beppo Lombard", "phone": "(630) 932-7673", "website": "https://locations.bucadibeppo.com/us/il/lombard/90-yorktown-rd", "opening_hours": "Mo-We 11:00-21:30; Th-Sa 11:00-22:00; Su 11:00-21:30", "brand": "Buca di Beppo"}, "geometry": {"type": "Point", "coordinates": [-88.0104407, 41.8362915]}},
{"type": "Feature", "id": "zCtGCQKO4ddfSnLbSuEtbGK8Irs=", "properties": {"ref": "2302", "@spider": "bucadibeppo", "addr:street": "2728 Gannon Road", "addr:city": "St. Paul", "addr:state": "Minnesota", "addr:postcode": "55116", "addr:country": "US", "name": "Buca di Beppo St. Paul", "phone": "(651) 772-4388", "website": "https://locations.bucadibeppo.com/us/mn/st--paul/2728-gannon-road", "opening_hours": "Mo-We 11:00-21:30; Th-Sa 11:00-22:00; Su 11:00-21:30", "brand": "Buca di Beppo"}, "geometry": {"type": "Point", "coordinates": [-93.17681573331356, 44.89735512555174]}},
{"type": "Feature", "id": "dgVtpGC2lx4-fmMenekgK0vcZSQ=", "properties": {"ref": "2301", "@spider": "bucadibeppo", "addr:street": "1204 Harmon Place", "addr:city": "Minneapolis", "addr:state": "Minnesota", "addr:postcode": "55403", "addr:country": "US", "name": "Buca di Beppo Minneapolis", "phone": "(612) 288-0138", "website": "https://locations.bucadibeppo.com/us/mn/minneapolis/1204-harmon-place", "opening_hours": "Mo-We 11:00-21:30; Th-Sa 11:00-22:00; Su 11:00-21:30", "brand": "Buca di Beppo"}, "geometry": {"type": "Point", "coordinates": [-93.280038535595, 44.97394826226226]}},
{"type": "Feature", "id": "vlfNiB1AsLcE_FDae6sa-ON9iDc=", "properties": {"ref": "2303", "@spider": "bucadibeppo", "addr:street": "7711 Mitchell Rd", "addr:city": "Eden Prairie", "addr:state": "Minnesota", "addr:postcode": "55344", "addr:country": "US", "name": "Buca di Beppo Eden Prairie", "phone": "(952) 934-9463", "website": "https://locations.bucadibeppo.com/us/mn/eden-prairie/7711-mitchell-rd", "opening_hours": "Mo-We 11:00-21:30; Th-Sa 11:00-22:00; Su 11:00-21:30", "brand": "Buca di Beppo"}, "geometry": {"type": "Point", "coordinates": [-93.4582178, 44.8630128]}},
{"type": "Feature", "id": "wrK1gS22jFZOkcZ-uYtjp_iIcME=", "properties": {"ref": "2304", "@spider": "bucadibeppo", "addr:street": "14300 Burnhaven Dr", "addr:city": "Burnsville", "addr:state": "Minnesota", "addr:postcode": "55306", "addr:country": "US", "name": "Buca di Beppo Burnsville", "phone": "(952) 892-7272", "website": "https://locations.bucadibeppo.com/us/mn/burnsville/14300-burnhaven-dr", "opening_hours": "Mo-We 11:00-21:30; Th-Sa 11:00-22:00; Su 11:00-21:30", "brand": "Buca di Beppo"}, "geometry": {"type": "Point", "coordinates": [-93.2943717, 44.7430111]}},
{"type": "Feature", "id": "_bF2N3HoEgKbzyV_ADwVSF-cuqw=", "properties": {"ref": "2305", "@spider": "bucadibeppo", "addr:street": "12650 Elm Creek Blvd", "addr:city": "Maple Grove", "addr:state": "Minnesota", "addr:postcode": "55369", "addr:country": "US", "name": "Buca di Beppo Maple Grove", "phone": "(763) 494-3466", "website": "https://locations.bucadibeppo.com/us/mn/maple-grove/12650-elm-creek-blvd", "opening_hours": "Mo-We 11:00-21:30; Th-Sa 11:00-22:00; Su 11:00-21:30", "brand": "Buca di Beppo"}, "geometry": {"type": "Point", "coordinates": [-93.44129160046577, 45.09516122200118]}}]}