{"type":"FeatureCollection","features":[{"type": "Feature", "id": "eEI_JywIxkC9Vp0IwMdu9CgHzqY=", "properties": {"ref": "9731", "@spider": "burger_fi", "addr:full": "105 US HIGHWAY 1, NORTH PALM BEACH, FL 33408", "addr:city": "NORTH PALM BEACH", "addr:state": "FL", "addr:postcode": "33408", "addr:country": "US", "name": "_Burgerfi Corporate Office", "phone": "(555) 555-5555", "brand": "Burger Fi"}, "geometry": {"type": "Point", "coordinates": [-80.0568976, 26.8048479]}},
{"type": "Feature", "id": "y6hR-7PwhOpKqhs6dg2zFE-aOpA=", "properties": {"ref": "9750", "@spider": "burger_fi", "addr:full": "5475 Windward Parkway West, Alpharetta, GA 30004", "addr:city": "Alpharetta", "addr:state": "GA", "addr:postcode": "30004", "addr:country": "US", "name": "Alpharetta", "phone": "(770) 817-4658", "brand": "Burger Fi"}, "geometry": {"type": "Point", "coordinates": [-84.270233, 34.0878812]}},
{"type": "Feature", "id": "lfiw_aCtcYRhvPPCzkjoIrgZ-bE=", "properties": {"ref": "13983", "@spider": "burger_fi", "addr:full": "600 East Northern Lights Blvd., Anchorage, AK 99503", "addr:city": "Anchorage", "addr:state": "AK", "addr:postcode": "99503", "addr:country": "US", "name": "Anchorage - Midtown", "phone": "(907) 277-3630", "brand": "Burger Fi"}, "geometry": {"type": "Point", "coordinates": [-149.8722758, 61.1942601]}},
{"type": "Feature", "id": "Ydt2cU2UP0lVZhH2_vaICl_GVJU=", "properties": {"ref": "13979", "@spider": "burger_fi", "addr:full": "One CNN Center Plaza NW, Atlanta, GA 30303", "addr:city": "Atlanta", "addr:state": "GA", "addr:postcode": "30303", "addr:country": "US", "name": "Atlanta CNN Center", "phone": "(404) 523-8777", "brand": "Burger Fi"}, "geometry": {"type": "Point", "coordinates": [-84.3949833, 33.7576861]}},
{"type": "Feature", "id": "K1qlfcmGLMXMXaOnHM-xT1n7CGY=", "properties": {"ref": "9782", "@spider": "burger_fi", "addr:full": "339 S College St., Ste. C, Auburn, AL 36830", "addr:city": "Auburn", "addr:state": "AL", "addr:postcode": "36830", "addr:country": "US", "name": "Auburn", "phone": "(334) 521-5030", "brand": "Burger Fi"}, "geometry": {"type": "Point", "coordinates": [-85.481464, 32.5998001]}},
{"type": "Feature", "id": "Jyo3RTqJO1oJ0r4wg5mU-KMfbLk=", "properties": {"ref": "9738", "@spider": "burger_fi", "addr:full": "18139 Biscayne Blvd, Aventura, FL 33160", "addr:city": "Aventura", "addr:state": "FL", "addr:postcode": "33160", "addr:country": "US", "name": "Aventura", "phone": "(305) 466-0350", "brand": "Burger Fi"}, "geometry": {"type": "Point", "coordinates": [-80.1471865, 25.9427769]}},
{"type": "Feature", "id": "iSbLcIDL6Yn2-jBkq0wLPUVcKQc=", "properties": {"ref": "9747", "@spider": "burger_fi", "addr:full": "380 W Main St #3, Avon, CT 06001", "addr:city": "Avon", "addr:state": "CT", "addr:postcode": "06001", "addr:country": "US", "name": "Avon", "phone": "(860) 217-1403", "brand": "Burger Fi"}, "geometry": {"type": "Point", "coordinates": [-72.8622685, 41.8161208]}},
{"type": "Feature", "id": "0iNbnR-pjGQiWUouBIgpivHgG3g=", "properties": {"ref": "62208", "@spider": "burger_fi", "addr:full": "6919 SW 18th St., Boca Raton, FL 33433", "addr:city": "Boca Raton", "addr:state": "FL", "addr:postcode": "33433", "addr:country": "US", "name": "Boca Raton - Boca Pointe", "phone": "(561) 757-3181", "brand": "Burger Fi"}, "geometry": {"type": "Point", "coordinates": [-80.151609, 26.332634]}},
{"type": "Feature", "id": "b0pwp3A0VIURZWDVoJ5eZK_0LKU=", "properties": {"ref": "96104", "@spider": "burger_fi", "addr:full": "8773 Boynton Beach Boulevard, Boynton Beach, FL 33472", "addr:city": "Boynton Beach", "addr:state": "FL", "addr:postcode": "33472", "addr:country": "US", "name": "Boynton Beach - Cobblestone (W. Boynton Bch Blvd. & Turnpike)", "phone": "(561) 877-2252", "brand": "Burger Fi"}, "geometry": {"type": "Point", "coordinates": [-80.1850327, 26.5283257]}},
{"type": "Feature", "id": "JpNClfQrOaMYFjaqORyjv1JNI90=", "properties": {"ref": "35685", "@spider": "burger_fi", "addr:full": "1500 Gateway Blvd Unit 112, Boynton Beach, FL 33426", "addr:city": "Boynton Beach", "addr:state": "FL", "addr:postcode": "33426", "addr:country": "US", "name": "Boynton Beach - Renaissance Commons(Corner of Gateway&Congress)", "phone": "(561) 810-6718", "brand": "Burger Fi"}, "geometry": {"type": "Point", "coordinates": [-80.0878883, 26.5458937]}},
{"type": "Feature", "id": "8BPkH8oh3H2rNglBzGFRaW32KPA=", "properties": {"ref": "16860", "@spider": "burger_fi", "addr:full": "7100 Executive Centr DR Bldg A, Brentwood, TN 37027", "addr:city": "Brentwood", "addr:state": "TN", "addr:postcode": "37027", "addr:country": "US", "name": "Brentwood", "phone": "(629) 888-4528", "brand": "Burger Fi"}, "geometry": {"type": "Point", "coordinates": [-86.7882507, 36.0293718]}},
{"type": "Feature", "id": "olPws1Ui9mfRZ65bWBT_OECzziU=", "properties": {"ref": "27201", "@spider": "burger_fi", "addr:full": "719 86th street, Brooklyn, NY 11228", "addr:city": "Brooklyn", "addr:state": "NY", "addr:postcode": "11228", "addr:country": "US", "name": "Brooklyn", "phone": "(718) 836-0836", "brand": "Burger Fi"}, "geometry": {"type": "Point", "coordinates": [-74.0213366, 40.6188341]}},
{"type": "Feature", "id": "ch9Q1yXNk6qWKKB7tH737rW43Qw=", "properties": {"ref": "9737", "@spider": "burger_fi", "addr:full": "2052 Renaissance Place, Cary, NC 27513", "addr:city": "Cary", "addr:state": "NC", "addr:postcode": "27513", "addr:country": "US", "name": "Cary - Arboretum", "phone": "(919) 659-8700", "brand": "Burger Fi"}, "geometry": {"type": "Point", "coordinates": [-78.7715843, 35.8273437]}},
{"type": "Feature", "id": "2_Ue3ANIaLNVxKXqjOEaFI_ixEI=", "properties": {"ref": "78838", "@spider": "burger_fi", "addr:full": "2001 Walnut St, Suite 101, Cary, NC 27518", "addr:city": "Cary", "addr:state": "NC", "addr:postcode": "27518", "addr:country": "US", "name": "Cary- Crossroads", "phone": "(919) 647-4785", "brand": "Burger Fi"}, "geometry": {"type": "Point", "coordinates": [-78.7413646, 35.7589392]}},
{"type": "Feature", "id": "PpeLdBXR2pfnIRLzk1wZjHRsPfk=", "properties": {"ref": "169011", "@spider": "burger_fi", "addr:full": "385 Merchant Walk Square, Charlottesville, VA 22902", "addr:city": "Charlottesville", "addr:state": "VA", "addr:postcode": "22902", "addr:country": "US", "name": "Charlottesville - 5th Street Station", "phone": "(434) 956-4422", "brand": "Burger Fi"}, "geometry": {"type": "Point", "coordinates": [-78.4991903, 38.0116733]}},
{"type": "Feature", "id": "WlwNf3XzRwf_G8mVuW6oBF_kodE=", "properties": {"ref": "32812", "@spider": "burger_fi", "addr:full": "161 East Freedom Way Space 180, Cincinnati, OH 45202", "addr:city": "Cincinnati", "addr:state": "OH", "addr:postcode": "45202", "addr:country": "US", "name": "Cincinnati", "phone": "(513) 832-2817", "brand": "Burger Fi"}, "geometry": {"type": "Point", "coordinates": [-84.5095608, 39.0971037]}},
{"type": "Feature", "id": "WmZ6BN7qN3a7Lh3nVV0_Z89xA24=", "properties": {"ref": "137416", "@spider": "burger_fi", "addr:full": "6181 Old Dobbin Ln Ste 200, Columbia, MD 21045", "addr:city": "Columbia", "addr:state": "MD", "addr:postcode": "21045", "addr:country": "US", "name": "Columbia", "phone": "(443) 542-9191", "brand": "Burger Fi"}, "geometry": {"type": "Point", "coordinates": [-76.8119964, 39.2006157]}},
{"type": "Feature", "id": "oC1_KOexYzrY3ciVryQ7nIYZ2os=", "properties": {"ref": "25058", "@spider": "burger_fi", "addr:full": "6234 Jericho Tpke, Commack, NY 11725", "addr:city": "Commack", "addr:state": "NY", "addr:postcode": "11725", "addr:country": "US", "name": "Commack", "phone": "(631) 462-1824", "brand": "Burger Fi"}, "geometry": {"type": "Point", "coordinates": [-73.2986261, 40.8423067]}},
{"type": "Feature", "id": "IhEd_tFPpCBLGlwpd1bl6NggGq4=", "properties": {"ref": "9734", "@spider": "burger_fi", "addr:full": "2700 University Dr, Suite 2716, Coral Springs, FL 33065", "addr:city": "Coral Springs", "addr:state": "FL", "addr:postcode": "33065", "addr:country": "US", "name": "Coral Springs", "phone": "(954) 510-8300", "brand": "Burger Fi"}, "geometry": {"type": "Point", "coordinates": [-80.251039, 26.26352]}},
{"type": "Feature", "id": "yR6U6r0tXfNw0IDHbMPnc3m90s0=", "properties": {"ref": "153945", "@spider": "burger_fi", "addr:full": "2002 Portage Trail, Cuyahoga Falls, OH 44223", "addr:city": "Cuyahoga Falls", "addr:state": "OH", "addr:postcode": "44223", "addr:country": "US", "name": "Cuyahoga Falls", "phone": "(330) 217-1471", "brand": "Burger Fi"}, "geometry": {"type": "Point", "coordinates": [-81.5072856, 41.148122]}},
{"type": "Feature", "id": "CX9HNjLXqWLKvHSW3YcDzpGlOAU=", "properties": {"ref": "96522", "@spider": "burger_fi", "addr:full": "11 S. Pointe Drive, Dania Beach, FL 33004", "addr:city": "Dania Beach", "addr:state": "FL", "addr:postcode": "33004", "addr:country": "US", "name": "Dania Beach - Dania Point", "phone": "(754) 256-5937", "brand": "Burger Fi"}, "geometry": {"type": "Point", "coordinates": [-80.1600195, 26.0517122]}},
{"type": "Feature", "id": "J6506OiaA9qKoHfkwLf54_3JUgs=", "properties": {"ref": "9744", "@spider": "burger_fi", "addr:full": "1902 S. University Dr, Davie, FL 33324", "addr:city": "Davie", "addr:state": "FL", "addr:postcode": "33324", "addr:country": "US", "name": "Davie", "phone": "(954) 900-5203", "brand": "Burger Fi"}, "geometry": {"type": "Point", "coordinates": [-80.2492217, 26.0959481]}},
{"type": "Feature", "id": "jiI-8HZOaFcHhrMhl1PCgy_1DtM=", "properties": {"ref": "118078", "@spider": "burger_fi", "addr:full": "660 Linton Blvd., Delray Beach, FL 33444", "addr:city": "Delray Beach", "addr:state": "FL", "addr:postcode": "33444", "addr:country": "US", "name": "Delray Beach - Linton Blvd", "phone": "(561) 473-2210", "brand": "Burger Fi"}, "geometry": {"type": "Point", "coordinates": [-80.0796191, 26.4388875]}},
{"type": "Feature", "id": "6-cdL8fv6eYjG7J_2a5uk4DAq2U=", "properties": {"ref": "9733", "@spider": "burger_fi", "addr:full": "6 S. Ocean Blvd, Delray Beach, FL 33483", "addr:city": "Delray Beach", "addr:state": "FL", "addr:postcode": "33483", "addr:country": "US", "name": "Delray Beach - Ocean Blvd.", "phone": "(561) 278-9590", "brand": "Burger Fi"}, "geometry": {"type": "Point", "coordinates": [-80.058622, 26.4614149]}},
{"type": "Feature", "id": "HmFCOk-n6afUIQs2x4Q1k_bxQmM=", "properties": {"ref": "31238", "@spider": "burger_fi", "addr:full": "7959 Atlantic Ave, Suite 201, Delray, FL 33446", "addr:city": "Delray", "addr:state": "FL", "addr:postcode": "33446", "addr:country": "US", "name": "Delray Beach - West Atlantic Ave", "phone": "(561) 562-8039", "brand": "Burger Fi"}, "geometry": {"type": "Point", "coordinates": [-80.1709509, 26.4543776]}},
{"type": "Feature", "id": "YTzWd92QQuVUUnKQx44ZgxxK6Lg=", "properties": {"ref": "9783", "@spider": "burger_fi", "addr:full": "1147 N Broadway. Ste. 101, Denver, CO 80203", "addr:city": "Denver", "addr:state": "CO", "addr:postcode": "80203", "addr:country": "US", "name": "Denver", "phone": "(720) 390-5046", "brand": "Burger Fi"}, "geometry": {"type": "Point", "coordinates": [-104.9876479, 39.7349309]}},
{"type": "Feature", "id": "oXTY5sducP5q5B-tFLBJXbSKGqc=", "properties": {"ref": "31259", "@spider": "burger_fi", "addr:full": "3530 NW 83 Avenue Suite 104, Doral, FL 33122", "addr:city": "Doral", "addr:state": "FL", "addr:postcode": "33122", "addr:country": "US", "name": "Doral - City Place", "phone": "(305) 856-9918", "brand": "Burger Fi"}, "geometry": {"type": "Point", "coordinates": [-80.3315336, 25.8057844]}},
{"type": "Feature", "id": "p4oLZmZTP01-PV_YeRggdbFxs8A=", "properties": {"ref": "9763", "@spider": "burger_fi", "addr:full": "1465 SE 17th St, Fort Lauderdale, FL 33316", "addr:city": "Fort Lauderdale", "addr:state": "FL", "addr:postcode": "33316", "addr:country": "US", "name": "Fort Lauderdale - 17th Street", "phone": "(954) 306-3096", "brand": "Burger Fi"}, "geometry": {"type": "Point", "coordinates": [-80.1290397, 26.1015084]}},
{"type": "Feature", "id": "6AhTQ79kzR4Cffu6Z6Qcgs87AY4=", "properties": {"ref": "9735", "@spider": "burger_fi", "addr:full": "2477 E. Sunrise Blvd, Ft. Lauderdale, FL 33304", "addr:city": "Ft. Lauderdale", "addr:state": "FL", "addr:postcode": "33304", "addr:country": "US", "name": "Fort Lauderdale - Sunrise Blvd", "phone": "(954) 835-5514", "brand": "Burger Fi"}, "geometry": {"type": "Point", "coordinates": [-80.1130027, 26.1384064]}},
{"type": "Feature", "id": "fwpfklffDbwIaT9Xq7SwlR32zvk=", "properties": {"ref": "109982", "@spider": "burger_fi", "addr:full": "6881 Daniels Parkway Suite 110, Fort Myers, FL 33912", "addr:city": "Fort Myers", "addr:state": "FL", "addr:postcode": "33912", "addr:country": "US", "name": "Fort Myers - Daniels Pkwy", "phone": "(239) 215-9870", "brand": "Burger Fi"}, "geometry": {"type": "Point", "coordinates": [-81.8414382, 26.5474737]}},
{"type": "Feature", "id": "CO75fkLPJ7BcFIQ1qgUSR2Ao2aU=", "properties": {"ref": "49536", "@spider": "burger_fi", "addr:full": "7777 Coldwater Rd, Fort Wayne, IN 46825", "addr:city": "Fort Wayne", "addr:state": "IN", "addr:postcode": "46825", "addr:country": "US", "name": "Fort Wayne", "phone": "(260) 444-4201", "brand": "Burger Fi"}, "geometry": {"type": "Point", "coordinates": [-85.1375637, 41.1508606]}},
{"type": "Feature", "id": "AoO45lj4cMfpzulrSiOmeqIhGww=", "properties": {"ref": "167777", "@spider": "burger_fi", "addr:full": "4220 West Jefferson Blvd #0-10, Fort Wayne, IN 46804", "addr:city": "Fort Wayne", "addr:state": "IN", "addr:postcode": "46804", "addr:country": "US", "name": "Fort Wayne - Jefferson Pointe", "phone": "(260) 387-6788", "brand": "Burger Fi"}, "geometry": {"type": "Point", "coordinates": [-85.1958608, 41.0713429]}},
{"type": "Feature", "id": "Xjjlgq3ACQwKsoqLjeocICIHQSY=", "properties": {"ref": "65638", "@spider": "burger_fi", "addr:full": "6650 N. Beach St, Ft. Worth, TX 76137", "addr:city": "Ft. Worth", "addr:state": "TX", "addr:postcode": "76137", "addr:country": "US", "name": "Fort Worth", "phone": "(817) 717-4743", "brand": "Burger Fi"}, "geometry": {"type": "Point", "coordinates": [-97.2892064, 32.8622592]}},
{"type": "Feature", "id": "Guk8mbeDrd-MrDAglUIsVMjuwEg=", "properties": {"ref": "9773", "@spider": "burger_fi", "addr:full": "3524 SW Archer Road, Gainesville, FL 32608", "addr:city": "Gainesville", "addr:state": "FL", "addr:postcode": "32608", "addr:country": "US", "name": "Gainesville", "phone": "(352) 337-6001", "brand": "Burger Fi"}, "geometry": {"type": "Point", "coordinates": [-82.3758906, 29.6243293]}},
{"type": "Feature", "id": "hwJIVOXa__WGjKboalcM_tyceEU=", "properties": {"ref": "9757", "@spider": "burger_fi", "addr:full": "1735 Milwaukee Ave, Glenview, IL 60025", "addr:city": "Glenview", "addr:state": "IL", "addr:postcode": "60025", "addr:country": "US", "name": "Glenview", "phone": "(847) 376-8014", "brand": "Burger Fi"}, "geometry": {"type": "Point", "coordinates": [-87.8692231, 42.0866517]}},
{"type": "Feature", "id": "wxqBGOWtF9arXZETnmuNSb1ANlw=", "properties": {"ref": "9741", "@spider": "burger_fi", "addr:full": "1955 E. Hallandale Blvd, Hallandale Beach, FL 33009", "addr:city": "Hallandale Beach", "addr:state": "FL", "addr:postcode": "33009", "addr:country": "US", "name": "Hallandale", "phone": "(954) 455-0536", "brand": "Burger Fi"}, "geometry": {"type": "Point", "coordinates": [-80.128546, 25.98669]}},
{"type": "Feature", "id": "JnIfTL33rFt03lRMcKVWFYhi-pA=", "properties": {"ref": "142111", "@spider": "burger_fi", "addr:full": "2645 St. Rose Parkway , Henderson, NV 89052", "addr:city": "Henderson", "addr:state": "NV", "addr:postcode": "89052", "addr:country": "US", "name": "Henderson - Green Valley Ranch", "phone": "(702) 444-0319", "brand": "Burger Fi"}, "geometry": {"type": "Point", "coordinates": [-115.1036353, 36.0138171]}},
{"type": "Feature", "id": "KxsKiYLrVdO9rRMKpjsB8fyBoI4=", "properties": {"ref": "17221", "@spider": "burger_fi", "addr:full": "1854 Catawba Valley Blvd SE, Hickory , NC 28602", "addr:city": "Hickory ", "addr:state": "NC", "addr:postcode": "28602", "addr:country": "US", "name": "Hickory", "phone": "(828) 324-9583", "brand": "Burger Fi"}, "geometry": {"type": "Point", "coordinates": [-81.3084261, 35.7020734]}},
{"type": "Feature", "id": "YSLdV9f40dAhc5s7VJC87JqwMRw=", "properties": {"ref": "16856", "@spider": "burger_fi", "addr:full": "108 Riverside Ave 501, Jacksonville, FL 32202", "addr:city": "Jacksonville", "addr:state": "FL", "addr:postcode": "32202", "addr:country": "US", "name": "Jacksonville - Riverside", "phone": "(904) 355-3066", "brand": "Burger Fi"}, "geometry": {"type": "Point", "coordinates": [-81.671215, 30.323617]}},
{"type": "Feature", "id": "38O2pFAFlCvmMzbKcQyOJ2Ql-1E=", "properties": {"ref": "13980", "@spider": "burger_fi", "addr:full": "4890 Big Island Drive, Jacksonville, FL 32246", "addr:city": "Jacksonville", "addr:state": "FL", "addr:postcode": "32246", "addr:country": "US", "name": "Jacksonville - St. Johns Town Center", "phone": "(904) 998-9060", "brand": "Burger Fi"}, "geometry": {"type": "Point", "coordinates": [-81.5299431, 30.2533928]}},
{"type": "Feature", "id": "xse5fGmUoGNMOdKsN9lA0B-R0YY=", "properties": {"ref": "13982", "@spider": "burger_fi", "addr:full": "147 Soundings Avenue, Jupiter, FL 33477", "addr:city": "Jupiter", "addr:state": "FL", "addr:postcode": "33477", "addr:country": "US", "name": "Jupiter - Harbourside", "phone": "(561) 203-7438", "brand": "Burger Fi"}, "geometry": {"type": "Point", "coordinates": [-80.08306, 26.93652]}},
{"type": "Feature", "id": "WPGDH36GfBrkw9Bporpy3FiK6YI=", "properties": {"ref": "152877", "@spider": "burger_fi", "addr:full": "6230 W. Indiantown Rd., Jupiter, FL 33458", "addr:city": "Jupiter", "addr:state": "FL", "addr:postcode": "33458", "addr:country": "US", "name": "Jupiter - Indiantown Rd.", "phone": "(561) 658-9738", "brand": "Burger Fi"}, "geometry": {"type": "Point", "coordinates": [-80.1299071, 26.934025]}},
{"type": "Feature", "id": "q4XhLjJ_ksUz_oK0P3nJOvIyjhI=", "properties": {"ref": "9755", "@spider": "burger_fi", "addr:full": "2844 South Main Street, Kennesaw, GA 30144", "addr:city": "Kennesaw", "addr:state": "GA", "addr:postcode": "30144", "addr:country": "US", "name": "Kennesaw", "phone": "(770) 635-2800", "brand": "Burger Fi"}, "geometry": {"type": "Point", "coordinates": [-84.6150015, 34.0229234]}},
{"type": "Feature", "id": "C7wdse8w4lhbNMWPjRyVCNPCWwE=", "properties": {"ref": "72290", "@spider": "burger_fi", "addr:full": "3298 Margaritaville Blvd, Kissimmee , FL 34747", "addr:city": "Kissimmee ", "addr:state": "FL", "addr:postcode": "34747", "addr:country": "US", "name": "Kissimmee - Margaritaville Blvd", "phone": "(321) 888-3434", "brand": "Burger Fi"}, "geometry": {"type": "Point", "coordinates": [-81.6078806, 28.3466355]}},
{"type": "Feature", "id": "eorC_KwUdjDs1Lz1sfBTjBtmobk=", "properties": {"ref": "20693", "@spider": "burger_fi", "addr:full": "765 West Osceola Parkway, Kissimmee, FL 34741", "addr:city": "Kissimmee", "addr:state": "FL", "addr:postcode": "34741", "addr:country": "US", "name": "Kissimmee- The Crosslands (Osceola Parkway)", "phone": "(407) 933-5557", "brand": "Burger Fi"}, "geometry": {"type": "Point", "coordinates": [-81.4091527, 28.3395495]}},
{"type": "Feature", "id": "PaKiy_VWdbPuJzGg4AeICARDpbo=", "properties": {"ref": "9742", "@spider": "burger_fi", "addr:full": "3801 W. Lake Mary Blvd, Lake Mary, FL 32746", "addr:city": "Lake Mary", "addr:state": "FL", "addr:postcode": "32746", "addr:country": "US", "name": "Lake Mary", "phone": "(407) 545-6488", "brand": "Burger Fi"}, "geometry": {"type": "Point", "coordinates": [-81.346473, 28.7550325]}},
{"type": "Feature", "id": "AoWAyc52PrCoRdFtRxKmDUMUjq8=", "properties": {"ref": "16859", "@spider": "burger_fi", "addr:full": "860 New Loudon Rd, Latham, NY 12110", "addr:city": "Latham", "addr:state": "NY", "addr:postcode": "12110", "addr:country": "US", "name": "Latham", "phone": "(518) 785-4745", "brand": "Burger Fi"}, "geometry": {"type": "Point", "coordinates": [-73.7600129, 42.7533489]}},
{"type": "Feature", "id": "mCzhDwa0vIDpXXSpa301fqz29Z8=", "properties": {"ref": "9732", "@spider": "burger_fi", "addr:full": "4343 N. Ocean Dr, Lauderdale-by-the-Sea, FL 33308", "addr:city": "Lauderdale-by-the-Sea", "addr:state": "FL", "addr:postcode": "33308", "addr:country": "US", "name": "Lauderdale-by-the-Sea", "phone": "(954) 489-0110", "brand": "Burger Fi"}, "geometry": {"type": "Point", "coordinates": [-80.0970088, 26.1891686]}},
{"type": "Feature", "id": "od5W1tqXoe7Ua84vvvdEhy3R_1E=", "properties": {"ref": "31258", "@spider": "burger_fi", "addr:full": "938 Duluth Hwy, Suite D, Lawrenceville, GA 30043", "addr:city": "Lawrenceville", "addr:state": "GA", "addr:postcode": "30043", "addr:country": "US", "name": "Lawrenceville", "phone": "(678) 878-3224", "brand": "Burger Fi"}, "geometry": {"type": "Point", "coordinates": [-84.0257996, 33.9678406]}},
{"type": "Feature", "id": "xYdP43YJo9QxCuqwwQrLlv-E6NU=", "properties": {"ref": "9778", "@spider": "burger_fi", "addr:full": "11635 Ash Street, Leawood, KS 66211", "addr:city": "Leawood", "addr:state": "KS", "addr:postcode": "66211", "addr:country": "US", "name": "Leawood", "phone": "(913) 499-6294", "brand": "Burger Fi"}, "geometry": {"type": "Point", "coordinates": [-94.647523, 38.9171668]}},
{"type": "Feature", "id": "XmG-B2gpTnUptj9SvH495rZfrTc=", "properties": {"ref": "9745", "@spider": "burger_fi", "addr:full": "1608 Village Market Blvd SE, Leesburg, VA 20175", "addr:city": "Leesburg", "addr:state": "VA", "addr:postcode": "20175", "addr:country": "US", "name": "Leesburg", "phone": "(703) 669-3300", "brand": "Burger Fi"}, "geometry": {"type": "Point", "coordinates": [-77.5231117, 39.0892009]}},
{"type": "Feature", "id": "vsJKkEr4y13gyzkxPoF0LXfNNLs=", "properties": {"ref": "46560", "@spider": "burger_fi", "addr:full": "391 Rose St , Lexington, KY 40508", "addr:city": "Lexington", "addr:state": "KY", "addr:postcode": "40508", "addr:country": "US", "name": "Lexington - Avenue of Champions", "phone": "(859) 687-9825", "brand": "Burger Fi"}, "geometry": {"type": "Point", "coordinates": [-84.4995635, 38.0381857]}},
{"type": "Feature", "id": "vdGsLdGsOAez-RJSS71dZzsjrJ0=", "properties": {"ref": "20700", "@spider": "burger_fi", "addr:full": "141 Rojay Dr. #110, Lexington, KY 40503", "addr:city": "Lexington", "addr:state": "KY", "addr:postcode": "40503", "addr:country": "US", "name": "Lexington - Fayette Mall Plaza", "phone": "(859) 271-2747", "brand": "Burger Fi"}, "geometry": {"type": "Point", "coordinates": [-84.5301237, 37.9849338]}},
{"type": "Feature", "id": "Bi4BvqNVNXeipQNNAsBNXEdc7F0=", "properties": {"ref": "124423", "@spider": "burger_fi", "addr:full": "1816 Alysheba Way, Lexington, KY 40509", "addr:city": "Lexington", "addr:state": "KY", "addr:postcode": "40509", "addr:country": "US", "name": "Lexington - Hamburg", "phone": "(859) 368-7091", "brand": "Burger Fi"}, "geometry": {"type": "Point", "coordinates": [-84.4199132, 38.0173916]}},
{"type": "Feature", "id": "eQjcgQsY2ZhZ6rlY_KuAlqyz2Y0=", "properties": {"ref": "16858", "@spider": "burger_fi", "addr:full": "3150 N. Federal Hwy, Lighthouse Point, FL 33064", "addr:city": "Lighthouse Point", "addr:state": "FL", "addr:postcode": "33064", "addr:country": "US", "name": "Lighthouse Point", "phone": "(954) 960-5173", "brand": "Burger Fi"}, "geometry": {"type": "Point", "coordinates": [-80.0978815, 26.2700474]}},
{"type": "Feature", "id": "bCx8vbq99r0oWrZaNcM8jiZ3w8g=", "properties": {"ref": "31260", "@spider": "burger_fi", "addr:full": "4210 82nd Street, Lubbock, TX 79423", "addr:city": "Lubbock", "addr:state": "TX", "addr:postcode": "79423", "addr:country": "US", "name": "Lubbock", "phone": "(806) 283-9555", "brand": "Burger Fi"}, "geometry": {"type": "Point", "coordinates": [-101.902807, 33.5206622]}},
{"type": "Feature", "id": "XF1osDRDKPwpx7bkFLAsl_TFy5E=", "properties": {"ref": "9762", "@spider": "burger_fi", "addr:full": "1062 Tolland Turnpike, Manchester, CT 06042", "addr:city": "Manchester", "addr:state": "CT", "addr:postcode": "06042", "addr:country": "US", "name": "Manchester", "phone": "(860) 432-4009", "brand": "Burger Fi"}, "geometry": {"type": "Point", "coordinates": [-72.5491816, 41.7955666]}},
{"type": "Feature", "id": "TpBY7s2DO-uhlf9UZmrhRaNFX34=", "properties": {"ref": "34748", "@spider": "burger_fi", "addr:full": "4501 W Expressway 83, McAllen, TX 78501", "addr:city": "McAllen", "addr:state": "TX", "addr:postcode": "78501", "addr:country": "US", "name": "McAllen", "phone": "(956) 627-2467", "brand": "Burger Fi"}, "geometry": {"type": "Point", "coordinates": [-98.2730643, 26.1952901]}},
{"type": "Feature", "id": "M47tSoYCoouU4ZqPrgz8Y2NcJXk=", "properties": {"ref": "9776", "@spider": "burger_fi", "addr:full": "1939 S. Val Vista Drive, Suite 105, Mesa, AZ 85204", "addr:city": "Mesa", "addr:state": "AZ", "addr:postcode": "85204", "addr:country": "US", "name": "Mesa", "phone": "(480) 545-9720", "brand": "Burger Fi"}, "geometry": {"type": "Point", "coordinates": [-111.7534308, 33.3805178]}},
{"type": "Feature", "id": "Eg0lax0LT63p-naTOPbzbLZoeVs=", "properties": {"ref": "84341", "@spider": "burger_fi", "addr:full": "7890 SW 104th St, B107, Miami, FL 33133", "addr:city": "Miami", "addr:state": "FL", "addr:postcode": "33133", "addr:country": "US", "name": "Miami - Pinecrest Place", "phone": "(786) 633-4991", "brand": "Burger Fi"}, "geometry": {"type": "Point", "coordinates": [-80.3219806, 25.6716964]}},
{"type": "Feature", "id": "RycuIwpdi-jvu3Kt89aRyXR2CdQ=", "properties": {"ref": "9775", "@spider": "burger_fi", "addr:full": "6812 Collins Ave, Miami Beach, FL 33140", "addr:city": "Miami Beach", "addr:state": "FL", "addr:postcode": "33140", "addr:country": "US", "name": "Miami-Collins", "phone": "(786) 803-8179", "brand": "Burger Fi"}, "geometry": {"type": "Point", "coordinates": [-80.1205692, 25.8526217]}},
{"type": "Feature", "id": "v2s9k5LEEegExDiu52oxVhwymnE=", "properties": {"ref": "82708", "@spider": "burger_fi", "addr:full": "7413 EASTCHASE PKWY, MONTGOMERY, AL 36117", "addr:city": "MONTGOMERY", "addr:state": "AL", "addr:postcode": "36117", "addr:country": "US", "name": "Montgomery - Eastchase", "phone": "(334) 356-8645", "brand": "Burger Fi"}, "geometry": {"type": "Point", "coordinates": [-86.1626805, 32.3617886]}},
{"type": "Feature", "id": "WHDKB7tLjIaWfUxCg-bXo3u7eWM=", "properties": {"ref": "63926", "@spider": "burger_fi", "addr:full": "1410 N Ocean Blvd, Myrtle Beach, SC 29577", "addr:city": "Myrtle Beach", "addr:state": "SC", "addr:postcode": "29577", "addr:country": "US", "name": "Myrtle Beach - N Ocean Blvd", "phone": "(843) 808-9118", "brand": "Burger Fi"}, "geometry": {"type": "Point", "coordinates": [-78.8749615, 33.6963163]}},
{"type": "Feature", "id": "NE6GIqGtBRfqWC4nwFlcoziIz5w=", "properties": {"ref": "16854", "@spider": "burger_fi", "addr:full": "106 SayeBrook Parkway, Myrtle Beach, SC 29588", "addr:city": "Myrtle Beach", "addr:state": "SC", "addr:postcode": "29588", "addr:country": "US", "name": "Myrtle Beach - Surfside", "phone": "(843) 293-8800", "brand": "Burger Fi"}, "geometry": {"type": "Point", "coordinates": [-78.9834819, 33.6520868]}},
{"type": "Feature", "id": "o2uZWJrBZBUolEQSKhOvyKbdGCE=", "properties": {"ref": "155679", "@spider": "burger_fi", "addr:full": "628 Atlantic Blvd., Neptune Beach, FL 32266", "addr:city": "Neptune Beach", "addr:state": "FL", "addr:postcode": "32266", "addr:country": "US", "name": "Neptune Beach", "phone": "(904) 544-7610", "brand": "Burger Fi"}, "geometry": {"type": "Point", "coordinates": [-81.4045662, 30.3240646]}},
{"type": "Feature", "id": "aZVSiZuTFXIffuDOPWEuNPYjzmQ=", "properties": {"ref": "75426", "@spider": "burger_fi", "addr:full": "11881 GRAND PARK AV, NORTH BETHESDA, MD 20852", "addr:city": "NORTH BETHESDA", "addr:state": "MD", "addr:postcode": "20852", "addr:country": "US", "name": "North Bethesda", "phone": "(240) 669-7244", "brand": "Burger Fi"}, "geometry": {"type": "Point", "coordinates": [-77.1173037, 39.0506768]}},
{"type": "Feature", "id": "mKwYtsaYvf0Bc51EYosrdPe-WFg=", "properties": {"ref": "86963", "@spider": "burger_fi", "addr:full": "18260 Preston Rd., Dallas, TX 75252", "addr:city": "Dallas", "addr:state": "TX", "addr:postcode": "75252", "addr:country": "US", "name": "North Dallas", "phone": "(972) 905-3170", "brand": "Burger Fi"}, "geometry": {"type": "Point", "coordinates": [-96.7969147, 32.999632]}},
{"type": "Feature", "id": "P8YwEvvhSeo9Fx6DCBMCUoe_bFU=", "properties": {"ref": "13974", "@spider": "burger_fi", "addr:full": "801 Main Street, North Myrtle Beach, SC 29582", "addr:city": "North Myrtle Beach", "addr:state": "SC", "addr:postcode": "29582", "addr:country": "US", "name": "North Myrtle Beach", "phone": "(843) 491-6492", "brand": "Burger Fi"}, "geometry": {"type": "Point", "coordinates": [-78.6798937, 33.827603]}},
{"type": "Feature", "id": "o-QeehjKJPnV4xURHM2r6bhVvSk=", "properties": {"ref": "75970", "@spider": "burger_fi", "addr:full": "1514 Immokalee Rd Unit 101, Naples, FL 34110", "addr:city": "Naples", "addr:state": "FL", "addr:postcode": "34110", "addr:country": "US", "name": "North Naples - Immokalee", "phone": "(239) 631-5647", "brand": "Burger Fi"}, "geometry": {"type": "Point", "coordinates": [-81.7892074, 26.2714444]}},
{"type": "Feature", "id": "1IinrpDiigS5zmU5WvAjzAZHlWY=", "properties": {"ref": "16857", "@spider": "burger_fi", "addr:full": "18801 Traditions Dr, Northville, MI 46168", "addr:city": "Northville", "addr:state": "MI", "addr:postcode": "46168", "addr:country": "US", "name": "Northville", "phone": "(248) 308-3532", "brand": "Burger Fi"}, "geometry": {"type": "Point", "coordinates": [-83.4337344, 42.4234753]}},
{"type": "Feature", "id": "3_11yOfNHLiVpteYX4k8A8z5AkI=", "properties": {"ref": "124855", "@spider": "burger_fi", "addr:full": "8145 Honeygo Boulevard, Nottingham, MD 21236", "addr:city": "Nottingham", "addr:state": "MD", "addr:postcode": "21236", "addr:country": "US", "name": "Nottingham-The Avenue at White Marsh", "phone": "(410) 870-1294", "brand": "Burger Fi"}, "geometry": {"type": "Point", "coordinates": [-76.4645076, 39.3706594]}},
{"type": "Feature", "id": "zmajjxtqliesFzQr1poqbxNPN6s=", "properties": {"ref": "171517", "@spider": "burger_fi", "addr:full": "16120 Preserve Marketplace Blvd, Odessa, FL 33556", "addr:city": "Odessa", "addr:state": "FL", "addr:postcode": "33556", "addr:country": "US", "name": "Odessa\u2013The Preserve Marketplace", "phone": "(813) 328-2379", "brand": "Burger Fi"}, "geometry": {"type": "Point", "coordinates": [-82.550199, 28.1883727]}},
{"type": "Feature", "id": "4C0hBkxauLIldd0dAvErN6VHVxw=", "properties": {"ref": "20694", "@spider": "burger_fi", "addr:full": "2175 Interstate Dr. Bay D-3, Opelika, AL 36801", "addr:city": "Opelika", "addr:state": "AL", "addr:postcode": "36801", "addr:country": "US", "name": "Opelika", "phone": "(334) 759-7040", "brand": "Burger Fi"}, "geometry": {"type": "Point", "coordinates": [-85.4053821, 32.6164073]}},
{"type": "Feature", "id": "5fPLxuCU067OvLn6gjiQ3QEgDkQ=", "properties": {"ref": "127414", "@spider": "burger_fi", "addr:full": "13048 Narcoossee Rd Suite 1, Orlando, FL 32832", "addr:city": "Orlando", "addr:state": "FL", "addr:postcode": "32832", "addr:country": "US", "name": "Orlando - Lake Nona", "phone": "(407) 286-0242", "brand": "Burger Fi"}, "geometry": {"type": "Point", "coordinates": [-81.245021, 28.3767961]}},
{"type": "Feature", "id": "qwIwW9AchBL6gZZf-JwPmQTLzzs=", "properties": {"ref": "163705", "@spider": "burger_fi", "addr:full": "7548 West Sand Lake Rd, Orlando, FL 32836", "addr:city": "Orlando", "addr:state": "FL", "addr:postcode": "32836", "addr:country": "US", "name": "Orlando - Sand Lake Rd", "phone": "(407) 318-9227", "brand": "Burger Fi"}, "geometry": {"type": "Point", "coordinates": [-81.4853289, 28.4488519]}},
{"type": "Feature", "id": "tV3pVFf4TMAGrQwJc_H24eGztMg=", "properties": {"ref": "17223", "@spider": "burger_fi", "addr:full": "4100 North Alafaya Trail, Suite 125, Orlando, FL 32816", "addr:city": "Orlando", "addr:state": "FL", "addr:postcode": "32816", "addr:country": "US", "name": "Orlando - UCF", "phone": "(407) 282-4010", "brand": "Burger Fi"}, "geometry": {"type": "Point", "coordinates": [-81.2084621, 28.5987129]}},
{"type": "Feature", "id": "S8SEzyUUiUIJp_zorLBjaGifOWo=", "properties": {"ref": "65667", "@spider": "burger_fi", "addr:full": "23 W Mitchell Hammock Rd #1101, Oviedo, FL 32765", "addr:city": "Oviedo", "addr:state": "FL", "addr:postcode": "32765", "addr:country": "US", "name": "Oviedo", "phone": "(407) 604-5001", "brand": "Burger Fi"}, "geometry": {"type": "Point", "coordinates": [-81.2086054, 28.6561231]}},
{"type": "Feature", "id": "qmbCQUidEoEcm3l7vN6WPnMSYYE=", "properties": {"ref": "168123", "@spider": "burger_fi", "addr:full": "161 Fleet St Suite K1-9, Oxon Hill, MD 20745", "addr:city": "Oxon Hill", "addr:state": "MD", "addr:postcode": "20745", "addr:country": "US", "name": "Oxon Hill-National Harbor", "phone": "(240) 907-2318", "brand": "Burger Fi"}, "geometry": {"type": "Point", "coordinates": [-77.015364, 38.783745]}},
{"type": "Feature", "id": "uuzleZsT3zhYpS9fIKSAAPLOi3w=", "properties": {"ref": "142110", "@spider": "burger_fi", "addr:full": "2466 PGA Blvd., Palm Beach Gardens, FL 33410", "addr:city": "Palm Beach Gardens", "addr:state": "FL", "addr:postcode": "33410", "addr:country": "US", "name": "Palm Beach Gardens - PGA Blvd.", "phone": "(561) 508-5422", "brand": "Burger Fi"}, "geometry": {"type": "Point", "coordinates": [-80.0713626, 26.8439612]}},
{"type": "Feature", "id": "3-E6m5CL7GZIxDi-_HYQpWQClxc=", "properties": {"ref": "35689", "@spider": "burger_fi", "addr:full": "6141 Peachtree Pkwy, Suite B, Norcross, GA 30092", "addr:city": "Norcross", "addr:state": "GA", "addr:postcode": "30092", "addr:country": "US", "name": "Peachtree Corners", "phone": "(770) 609-8310", "brand": "Burger Fi"}, "geometry": {"type": "Point", "coordinates": [-84.23533, 33.9513181]}},
{"type": "Feature", "id": "IpIEfOPsGUlzC2sKmc-TVVTRIBM=", "properties": {"ref": "35693", "@spider": "burger_fi", "addr:full": "10590 Pines Boulevard Suite P1A, Pembroke Pines, FL 33025", "addr:city": "Pembroke Pines", "addr:state": "FL", "addr:postcode": "33025", "addr:country": "US", "name": "Pembroke Pines - City Center", "phone": "(954) 686-2100", "brand": "Burger Fi"}, "geometry": {"type": "Point", "coordinates": [-80.2834659, 26.0077945]}},
{"type": "Feature", "id": "zY4MJRqt20P6GFx1jFTbOLKPSkA=", "properties": {"ref": "20212", "@spider": "burger_fi", "addr:full": "15910 Pines Blvd., Pembroke Pines, FL 33027", "addr:city": "Pembroke Pines", "addr:state": "FL", "addr:postcode": "33027", "addr:country": "US", "name": "Pembroke Pines - Towngate", "phone": "(954) 589-1612", "brand": "Burger Fi"}, "geometry": {"type": "Point", "coordinates": [-80.3567265, 26.0067963]}},
{"type": "Feature", "id": "k5hET7-G5UzwWi7KwGQnKRNLiwY=", "properties": {"ref": "9769", "@spider": "burger_fi", "addr:full": "44 North 12th Street, Philadelphia, PA 19107", "addr:city": "Philadelphia", "addr:state": "PA", "addr:postcode": "19107", "addr:country": "US", "name": "Philadelphia - Center City", "phone": "(267) 928-3882", "brand": "Burger Fi"}, "geometry": {"type": "Point", "coordinates": [-75.1597149, 39.9537066]}},
{"type": "Feature", "id": "nIwtUB8B2KpeD1Eh06Boa5xopvA=", "properties": {"ref": "146787", "@spider": "burger_fi", "addr:full": "245 North Pompano Beach Blvd, Pompano Beach, FL 33062", "addr:city": "Pompano Beach", "addr:state": "FL", "addr:postcode": "33062", "addr:country": "US", "name": "Pompano Beach Pier", "phone": "(954) 247-9149", "brand": "Burger Fi"}, "geometry": {"type": "Point", "coordinates": [-80.089215, 26.2358987]}},
{"type": "Feature", "id": "dXJNWtHquCbr-I0z_-J6EORGmLk=", "properties": {"ref": "70265", "@spider": "burger_fi", "addr:full": "1473 NW St Lucie West Blvd, Port St Lucie, FL 34986", "addr:city": "Port St Lucie", "addr:state": "FL", "addr:postcode": "34986", "addr:country": "US", "name": "Port St Lucie", "phone": "(772) 500-0102", "brand": "Burger Fi"}, "geometry": {"type": "Point", "coordinates": [-80.3924729, 27.3154379]}},
{"type": "Feature", "id": "SKNy3v5dIZ89_AfzKt4z_ceAEWY=", "properties": {"ref": "9740", "@spider": "burger_fi", "addr:full": "3004 Wake Forest, Suite 100, Raleigh, NC 27609", "addr:city": "Raleigh", "addr:state": "NC", "addr:postcode": "27609", "addr:country": "US", "name": "Raleigh - Midtown", "phone": "(919) 999-3700", "brand": "Burger Fi"}, "geometry": {"type": "Point", "coordinates": [-78.6205634, 35.8225584]}},
{"type": "Feature", "id": "CxX8q8OsSnsqwZC47-PkQhun_Ig=", "properties": {"ref": "20205", "@spider": "burger_fi", "addr:full": "1907 Nacogdoches Rd, San Antonio, TX 78209", "addr:city": "San Antonio", "addr:state": "TX", "addr:postcode": "78209", "addr:country": "US", "name": "San Antonio - Alamo Heights", "phone": "(210) 858-4052", "brand": "Burger Fi"}, "geometry": {"type": "Point", "coordinates": [-98.4586409, 29.5063383]}},
{"type": "Feature", "id": "Y-NLFqGvGFIa3gm5o2ESpQof5Gs=", "properties": {"ref": "9743", "@spider": "burger_fi", "addr:full": "11309 Bandera Rd, San Antonio, TX 78250", "addr:city": "San Antonio", "addr:state": "TX", "addr:postcode": "78250", "addr:country": "US", "name": "San Antonio - Bandera Rd.", "phone": "(210) 521-2493", "brand": "Burger Fi"}, "geometry": {"type": "Point", "coordinates": [-98.6626347, 29.5481636]}},
{"type": "Feature", "id": "gYcbi7RR_asqbejZtiH_ylgFmHY=", "properties": {"ref": "27186", "@spider": "burger_fi", "addr:full": "257 N Cattlemen Rd, Sarasota, FL 34243", "addr:city": "Sarasota", "addr:state": "FL", "addr:postcode": "34243", "addr:country": "US", "name": "Sarasota", "phone": "(941) 800-1800", "brand": "Burger Fi"}, "geometry": {"type": "Point", "coordinates": [-82.4565315, 27.3839679]}},
{"type": "Feature", "id": "Bt69xS4-8DRjMY_AjDRD77HpL0s=", "properties": {"ref": "31257", "@spider": "burger_fi", "addr:full": "460 Broadway, Saratoga Springs, NY 12866", "addr:city": "Saratoga Springs", "addr:state": "NY", "addr:postcode": "12866", "addr:country": "US", "name": "Saratoga Springs", "phone": "(518) 450-7652", "brand": "Burger Fi"}, "geometry": {"type": "Point", "coordinates": [-73.7846598, 43.0828186]}},
{"type": "Feature", "id": "BUdO7MJC2SzOejn1NWUyG1ppAf0=", "properties": {"ref": "9765", "@spider": "burger_fi", "addr:full": "8504 Fenton Street, Silver Spring, MD 20910", "addr:city": "Silver Spring", "addr:state": "MD", "addr:postcode": "20910", "addr:country": "US", "name": "Silver Spring", "phone": "(301) 565-2100", "brand": "Burger Fi"}, "geometry": {"type": "Point", "coordinates": [-77.0248485, 38.9957451]}},
{"type": "Feature", "id": "zwNvNvsSh8Cjuj8-SwwxUmYdpMI=", "properties": {"ref": "77739", "@spider": "burger_fi", "addr:full": "12712 Tamiami Trail East, Naples, FL 34113", "addr:city": "Naples", "addr:state": "FL", "addr:postcode": "34113", "addr:country": "US", "name": "South Naples - Tamiami", "phone": "(239) 331-3606", "brand": "Burger Fi"}, "geometry": {"type": "Point", "coordinates": [-81.7025967, 26.0632214]}},
{"type": "Feature", "id": "YQIxvBACI0LTB81-XtZyxkEiSM0=", "properties": {"ref": "9752", "@spider": "burger_fi", "addr:full": "5001 Padre Blvd, South Padre Island, TX 78597", "addr:city": "South Padre Island", "addr:state": "TX", "addr:postcode": "78597", "addr:country": "US", "name": "South Padre Island", "phone": "(956) 433-5502", "brand": "Burger Fi"}, "geometry": {"type": "Point", "coordinates": [-97.1704645, 26.1223508]}},
{"type": "Feature", "id": "kREpoA1Y2DSksXw8MBDusXXbeU0=", "properties": {"ref": "131725", "@spider": "burger_fi", "addr:full": "875 Central Avenue, ST. Petersburg, FL 33701", "addr:city": "ST. Petersburg", "addr:state": "FL", "addr:postcode": "33701", "addr:country": "US", "name": "St. Petersburg- Downtown", "phone": "(727) 502-3411", "brand": "Burger Fi"}, "geometry": {"type": "Point", "coordinates": [-82.646225, 27.7711406]}},
{"type": "Feature", "id": "w10_bEKa_pfalGtahH7P023u6a0=", "properties": {"ref": "9766", "@spider": "burger_fi", "addr:full": "1817 Thomasville Rd, Ste. 710, Tallahassee, FL 32303", "addr:city": "Tallahassee", "addr:state": "FL", "addr:postcode": "32303", "addr:country": "US", "name": "Tallahassee", "phone": "(850) 629-4333", "brand": "Burger Fi"}, "geometry": {"type": "Point", "coordinates": [-84.2703881, 30.4638233]}},
{"type": "Feature", "id": "jJTdiwFfqohTDTRu4sk-MDCNwSY=", "properties": {"ref": "13978", "@spider": "burger_fi", "addr:full": "714 South Howard Avenue, Tampa, FL 33606", "addr:city": "Tampa", "addr:state": "FL", "addr:postcode": "33606", "addr:country": "US", "name": "Tampa - SOHO", "phone": "(813) 440-2283", "brand": "Burger Fi"}, "geometry": {"type": "Point", "coordinates": [-82.4829012, 27.9364285]}},
{"type": "Feature", "id": "jJpCJZAIPYyxRHDQY6-3gihl7is=", "properties": {"ref": "35684", "@spider": "burger_fi", "addr:full": "927 E University Dr, Tempe, AZ 85281", "addr:city": "Tempe", "addr:state": "AZ", "addr:postcode": "85281", "addr:country": "US", "name": "Tempe", "phone": "(480) 912-4367", "brand": "Burger Fi"}, "geometry": {"type": "Point", "coordinates": [-111.925214, 33.4216594]}},
{"type": "Feature", "id": "njYrUFuw6wj5usEJ-bVEtvBX1IY=", "properties": {"ref": "4229", "@spider": "burger_fi", "addr:full": "26 TEST LOCATION , TEST, MT 59489", "addr:city": "TEST", "addr:state": "MT", "addr:postcode": "59489", "addr:country": "US", "name": "TEST TEST Vendor - Micros3700", "phone": "(646) 723-4333", "brand": "Burger Fi"}, "geometry": {"type": "Point", "coordinates": [-74.0131178, 40.7055092]}},
{"type": "Feature", "id": "DVgVEuClB0_bJJfaZxrQDRUlykA=", "properties": {"ref": "124753", "@spider": "burger_fi", "addr:full": "20 W Susquehanna Ave, Towson, MD 21204", "addr:city": "Towson", "addr:state": "MD", "addr:postcode": "21204", "addr:country": "US", "name": "Towson", "phone": "(443) 895-4595", "brand": "Burger Fi"}, "geometry": {"type": "Point", "coordinates": [-76.6041124, 39.3986464]}},
{"type": "Feature", "id": "DGR1E6J4cfb1BW7pyH-Whf5qHJo=", "properties": {"ref": "20696", "@spider": "burger_fi", "addr:full": "2910 Little Road, Trinity, FL 34655", "addr:city": "Trinity", "addr:state": "FL", "addr:postcode": "34655", "addr:country": "US", "name": "Trinity", "phone": "(727) 375-7111", "brand": "Burger Fi"}, "geometry": {"type": "Point", "coordinates": [-82.6657704, 28.2019821]}},
{"type": "Feature", "id": "0_r94UO3NFW6VCYfClCB6kaGi4k=", "properties": {"ref": "20692", "@spider": "burger_fi", "addr:full": "1320 McFarland Boulevard East, Suite 101-B,, Tuscaloosa, AL 36830", "addr:city": "Tuscaloosa", "addr:state": "AL", "addr:postcode": "36830", "addr:country": "US", "name": "Tuscaloosa", "phone": "(205) 759-2510", "brand": "Burger Fi"}, "geometry": {"type": "Point", "coordinates": [-87.5259382, 33.1999861]}},
{"type": "Feature", "id": "1-Yyk7JDyGjTo42jJka1SsiVjxs=", "properties": {"ref": "16855", "@spider": "burger_fi", "addr:full": "12836 West Forrest Hill Blvd Space #18-A, Wellington, FL 33414", "addr:city": "Wellington", "addr:state": "FL", "addr:postcode": "33414", "addr:country": "US", "name": "Wellington", "phone": "(561) 612-7853", "brand": "Burger Fi"}, "geometry": {"type": "Point", "coordinates": [-80.2481674, 26.6729247]}},
{"type": "Feature", "id": "JPn7IpMfUjJd5D_0xyQMUWHMl6Q=", "properties": {"ref": "130855", "@spider": "burger_fi", "addr:full": "9674 Glades Rd., Boca Raton, FL 33434", "addr:city": "Boca Raton", "addr:state": "FL", "addr:postcode": "33434", "addr:country": "US", "name": "West Boca Raton - Uptown", "phone": "(561) 453-4300", "brand": "Burger Fi"}, "geometry": {"type": "Point", "coordinates": [-80.198143, 26.3674468]}},
{"type": "Feature", "id": "NTLci-1jfQOl9j_EJDezwMNP0AY=", "properties": {"ref": "129888", "@spider": "burger_fi", "addr:full": "1850 NW 117th Place Bay, Doral, FL 33182", "addr:city": "Doral", "addr:state": "FL", "addr:postcode": "33182", "addr:country": "US", "name": "West Doral", "phone": "(786) 628-3200", "brand": "Burger Fi"}, "geometry": {"type": "Point", "coordinates": [-80.3848374, 25.7906603]}},
{"type": "Feature", "id": "7kREgHtInMXVI_LY6uI34soLR9c=", "properties": {"ref": "9767", "@spider": "burger_fi", "addr:full": "700 S. Rosemary Ave Ste. 102, West Palm Beach, FL 33401", "addr:city": "West Palm Beach", "addr:state": "FL", "addr:postcode": "33401", "addr:country": "US", "name": "West Palm Beach - Rosemary Square (Formerly CityPlace)", "phone": "(561) 557-9144", "brand": "Burger Fi"}, "geometry": {"type": "Point", "coordinates": [-80.056506, 26.708142]}},
{"type": "Feature", "id": "5gJffVknk7iWHfwCGf3Zx9Iygcg=", "properties": {"ref": "9754", "@spider": "burger_fi", "addr:full": "2810 Weston Rd, Weston, FL 33331", "addr:city": "Weston", "addr:state": "FL", "addr:postcode": "33331", "addr:country": "US", "name": "Weston", "phone": "(954) 306-0077", "brand": "Burger Fi"}, "geometry": {"type": "Point", "coordinates": [-80.3706128, 26.0839494]}},
{"type": "Feature", "id": "o27cxVUMpPBiv3hKWizynuNOqN8=", "properties": {"ref": "158187", "@spider": "burger_fi", "addr:full": "6610 Mooretown Rd., Williamsburg, VA 23188", "addr:city": "Williamsburg", "addr:state": "VA", "addr:postcode": "23188", "addr:country": "US", "name": "Williamsburg-Mooretown Road", "phone": "(757) 378-9003", "brand": "Burger Fi"}, "geometry": {"type": "Point", "coordinates": [-76.7348245, 37.3375641]}},
{"type": "Feature", "id": "rsEEVk22n7UBOiEtfga-OyBAKBg=", "properties": {"ref": "9784", "@spider": "burger_fi", "addr:full": "4750 The Grove Drive, Suite 104, Windermere, FL 34786", "addr:city": "Windermere", "addr:state": "FL", "addr:postcode": "34786", "addr:country": "US", "name": "Windermere at The Grove (corner of Conroy & Apopka Vineland Rd)", "phone": "(407) 217-7612", "brand": "Burger Fi"}, "geometry": {"type": "Point", "coordinates": [-81.5112517, 28.4926062]}},
{"type": "Feature", "id": "bBQtZACKr3-8Q_po5esKFl7YdVo=", "properties": {"ref": "88073", "@spider": "burger_fi", "addr:full": "5845 Winter Garden Vineland Road , Windermere, FL 34786", "addr:city": "Windermere", "addr:state": "FL", "addr:postcode": "34786", "addr:country": "US", "name": "Windermere Village (next to Wind HS at Ficquette & WG Vine Rd)", "phone": "(407) 614-3476", "brand": "Burger Fi"}, "geometry": {"type": "Point", "coordinates": [-81.582006, 28.4790393]}},
{"type": "Feature", "id": "npqyIAVGniYw96w6xlBOUxLSEDc=", "properties": {"ref": "64784", "@spider": "burger_fi", "addr:full": "360 W Plant St #101, Winter Garden, FL 34787", "addr:city": "Winter Garden", "addr:state": "FL", "addr:postcode": "34787", "addr:country": "US", "name": "Winter Garden", "phone": "(407) 554-3210", "brand": "Burger Fi"}, "geometry": {"type": "Point", "coordinates": [-81.5903584, 28.5643492]}},
{"type": "Feature", "id": "9ubvWj87K2I4YRazJGYqrQ0Yih8=", "properties": {"ref": "9736", "@spider": "burger_fi", "addr:full": "538 South Park Ave, Winter Park, FL 32789", "addr:city": "Winter Park", "addr:state": "FL", "addr:postcode": "32789", "addr:country": "US", "name": "Winter Park", "phone": "(407) 622-2010", "brand": "Burger Fi"}, "geometry": {"type": "Point", "coordinates": [-81.3504367, 28.5936302]}},
{"type": "Feature", "id": "n051XT_KZHxv520p0cglCyFNOD4=", "properties": {"ref": "23225", "@spider": "burger_fi", "addr:full": "15201 Potomac Town Place, Unit 105, Woodbridge, VA 22191", "addr:city": "Woodbridge", "addr:state": "VA", "addr:postcode": "22191", "addr:country": "US", "name": "Woodbridge", "phone": "(571) 402-6789", "brand": "Burger Fi"}, "geometry": {"type": "Point", "coordinates": [-77.2886424, 38.6286624]}}]}