{"type":"FeatureCollection","features":[{"type": "Feature", "id": "dFEFSW7H0YVvjwW7NhHIawJY-W4=", "properties": {"ref": "1373165", "@spider": "caliber_home_loans", "addr:full": "280 McGregor Ave South Suite B", "addr:city": "Mobile", "addr:state": "AL", "addr:postcode": "36608", "name": "19425 - Mobile - 280 McGregor Ave", "website": "https://www.caliberhomeloans.com/Home/BranchList?stateCode=AL&LCSpeciality=all&SpanishSpeaking=no", "brand": "Caliber Home Loans"}, "geometry": {"type": "Point", "coordinates": [-88.1480091, 30.6772602]}},
{"type": "Feature", "id": "a58TQEpzMc0Cb8ldIUGcCPdmIKM=", "properties": {"ref": "1885634", "@spider": "caliber_home_loans", "addr:full": "1525 Perimeter Parkway NW Suite 105", "addr:city": "Huntsville", "addr:state": "AL", "addr:postcode": "35806", "name": "19421 - Huntsville - 1525 Perimeter Parkway NW", "website": "https://www.caliberhomeloans.com/Home/BranchList?stateCode=AL&LCSpeciality=all&SpanishSpeaking=no", "brand": "Caliber Home Loans"}, "geometry": {"type": "Point", "coordinates": [-86.6732175, 34.7460783]}},
{"type": "Feature", "id": "-D1h3AjSGw7jsCntu-X2HG0daDU=", "properties": {"ref": "1662760", "@spider": "caliber_home_loans", "addr:full": "4009 Crosshaven Dr.", "addr:city": "Vestavia", "addr:state": "AL", "addr:postcode": "35243", "name": "19255 - Vestavia - 4009 Crosshaven Dr.", "website": "https://www.caliberhomeloans.com/Home/BranchList?stateCode=AL&LCSpeciality=all&SpanishSpeaking=no", "brand": "Caliber Home Loans"}, "geometry": {"type": "Point", "coordinates": [-86.7308252, 33.4598498]}},
{"type": "Feature", "id": "nZhL2OHaISkQKtce-BgWfVsQzOw=", "properties": {"ref": "1810035", "@spider": "caliber_home_loans", "addr:full": "696 North Silver Hills Dr. Suite 106", "addr:city": "Prattville", "addr:state": "AL", "addr:postcode": "36066", "name": "19340 - Prattville - 696 North Silver Hills Dr.", "website": "https://www.caliberhomeloans.com/Home/BranchList?stateCode=AL&LCSpeciality=all&SpanishSpeaking=no", "brand": "Caliber Home Loans"}, "geometry": {"type": "Point", "coordinates": [-86.4293476, 32.4613969]}},
{"type": "Feature", "id": "5-Tj_6QJi1o0OitZ0_HoSrTwbxg=", "properties": {"ref": "1808697", "@spider": "caliber_home_loans", "addr:full": "445 Dexter Ave Suite 414", "addr:city": "Montgomery", "addr:state": "AL", "addr:postcode": "36104", "name": "19317 - Montgomery - 445 Dexter Ave", "website": "https://www.caliberhomeloans.com/Home/BranchList?stateCode=AL&LCSpeciality=all&SpanishSpeaking=no", "brand": "Caliber Home Loans"}, "geometry": {"type": "Point", "coordinates": [-86.3029663, 32.3783877]}},
{"type": "Feature", "id": "6WynKaViOkuF20Bbj_0xtBTn88k=", "properties": {"ref": "1672291", "@spider": "caliber_home_loans", "addr:full": "1147 Opelika Road Suite C", "addr:city": "Auburn", "addr:state": "AL", "addr:postcode": "36830", "name": "19198 - Auburn - 1147 Opelika Road", "website": "https://www.caliberhomeloans.com/Home/BranchList?stateCode=AL&LCSpeciality=all&SpanishSpeaking=no", "brand": "Caliber Home Loans"}, "geometry": {"type": "Point", "coordinates": [-85.4575816, 32.6211968]}},
{"type": "Feature", "id": "O7X4K1LdG4ZlzzcfDewP87IG9Xs=", "properties": {"ref": "2185074", "@spider": "caliber_home_loans", "addr:full": "205 E. Benson Blvd.  Suite 115  119D & 228", "addr:city": "Anchorage", "addr:state": "AK", "addr:postcode": "99503", "name": "19584 - Anchorage - 205 East Benson Blvd", "website": "https://www.caliberhomeloans.com/Home/BranchList?stateCode=AK&LCSpeciality=all&SpanishSpeaking=no", "brand": "Caliber Home Loans"}, "geometry": {"type": "Point", "coordinates": [-149.8802427, 61.1945642]}},
{"type": "Feature", "id": "VYRNUWJWXsuAa1pSwVu5gxY7dGk=", "properties": {"ref": "1235532", "@spider": "caliber_home_loans", "addr:full": "16430 N. Scottsdale Rd. Suite 170", "addr:city": "Scottsdale", "addr:state": "AZ", "addr:postcode": "85254", "name": "19264 - Scottsdale - 16430 N. Scottsdale Rd.", "website": "https://www.caliberhomeloans.com/Home/BranchList?stateCode=AZ&LCSpeciality=all&SpanishSpeaking=no", "brand": "Caliber Home Loans"}, "geometry": {"type": "Point", "coordinates": [-111.9268199, 33.6355621]}},
{"type": "Feature", "id": "nJwRbx18QFRs3V8SC7XgQZDdYgU=", "properties": {"ref": "1549965", "@spider": "caliber_home_loans", "addr:full": "2920 East Camelback Road  Suite 110", "addr:city": "Phoenix", "addr:state": "AZ", "addr:postcode": "85016", "name": "19017 - Camelback - 2920 East Camelback Road", "website": "https://www.caliberhomeloans.com/Home/BranchList?stateCode=AZ&LCSpeciality=all&SpanishSpeaking=no", "brand": "Caliber Home Loans"}, "geometry": {"type": "Point", "coordinates": [-112.0187909, 33.5107692]}},
{"type": "Feature", "id": "VaIvzyeQoM8SHmcoch71xyum6Fs=", "properties": {"ref": "1235038", "@spider": "caliber_home_loans", "addr:full": "1616 N. Litchfield Road  Suite A215", "addr:city": "Goodyear", "addr:state": "AZ", "addr:postcode": "85395", "name": "18347 - Litchfield - 1616 N. Litchfield Road  Suite 215", "website": "https://www.caliberhomeloans.com/Home/BranchList?stateCode=AZ&LCSpeciality=all&SpanishSpeaking=no", "brand": "Caliber Home Loans"}, "geometry": {"type": "Point", "coordinates": [-112.3586444, 33.4649786]}},
{"type": "Feature", "id": "AX40yGpwzzSEQkM4ja7z7c2TQMs=", "properties": {"ref": "1404676", "@spider": "caliber_home_loans", "addr:full": "5500 W. Chandler Boulevard Suite 5", "addr:city": "Chandler", "addr:state": "AZ", "addr:postcode": "85226", "name": "18706 - Chandler - 5500 W. Chandler Boulevard", "website": "https://www.caliberhomeloans.com/Home/BranchList?stateCode=AZ&LCSpeciality=all&SpanishSpeaking=no", "brand": "Caliber Home Loans"}, "geometry": {"type": "Point", "coordinates": [-111.9372915, 33.3058434]}},
{"type": "Feature", "id": "czfF1QJiTEvPEtaqZQUP3tRfzzo=", "properties": {"ref": "1597640", "@spider": "caliber_home_loans", "addr:full": "275 Rivulon Blvd Suite 111", "addr:city": "Gilbert", "addr:state": "AZ", "addr:postcode": "85297", "name": "19170 - Gilbert - 275 Rivulon Blvd", "website": "https://www.caliberhomeloans.com/Home/BranchList?stateCode=AZ&LCSpeciality=all&SpanishSpeaking=no", "brand": "Caliber Home Loans"}, "geometry": {"type": "Point", "coordinates": [-111.7837307, 33.2844036]}},
{"type": "Feature", "id": "AU1wl1dLS5KwBemSwc7mrO-3H_s=", "properties": {"ref": "2152225", "@spider": "caliber_home_loans", "addr:full": "2156 McCulloch Blvd N. Suite Unit 4", "addr:city": "Lake Havasu City", "addr:state": "AZ", "addr:postcode": "86403", "name": "19551 - Lake Havasu - 2156 McCulloch Blvd.", "website": "https://www.caliberhomeloans.com/Home/BranchList?stateCode=AZ&LCSpeciality=all&SpanishSpeaking=no", "brand": "Caliber Home Loans"}, "geometry": {"type": "Point", "coordinates": [-114.3252755, 34.4745446]}},
{"type": "Feature", "id": "FSxCAgQ0JJNxE3mndNnN2hHHfnE=", "properties": {"ref": "1739513", "@spider": "caliber_home_loans", "addr:full": "400 W. Capitol Ave Suite 1702", "addr:city": "Little Rock", "addr:state": "AR", "addr:postcode": "72201", "name": "19273 - Little Rock - 400 W. Capitol Avenue", "website": "https://www.caliberhomeloans.com/Home/BranchList?stateCode=AR&LCSpeciality=all&SpanishSpeaking=no", "brand": "Caliber Home Loans"}, "geometry": {"type": "Point", "coordinates": [-92.2749654, 34.7454105]}},
{"type": "Feature", "id": "2Fz-A-qTZEXQsB6Sr3pa6Ryp3pE=", "properties": {"ref": "1784062", "@spider": "caliber_home_loans", "addr:full": "3800B S. Caraway Road Suite 2", "addr:city": "Jonesboro", "addr:state": "AR", "addr:postcode": "72401", "name": "19520 - Jonesboro - 3800B S. Caraway Road", "website": "https://www.caliberhomeloans.com/Home/BranchList?stateCode=AR&LCSpeciality=all&SpanishSpeaking=no", "brand": "Caliber Home Loans"}, "geometry": {"type": "Point", "coordinates": [-90.6777685, 35.7971675]}},
{"type": "Feature", "id": "MQRPYDlpcgMSHXwazJmVK0MGIJ4=", "properties": {"ref": "1613085", "@spider": "caliber_home_loans", "addr:full": "2580 Sierra Sunrise  Ste. 200", "addr:city": "Chico", "addr:state": "CA", "addr:postcode": "95928", "name": "19086 - Chico BHL - 2580 Sierra Sunrise", "website": "https://www.caliberhomeloans.com/Home/BranchList?stateCode=CA&LCSpeciality=all&SpanishSpeaking=no", "brand": "Caliber Home Loans"}, "geometry": {"type": "Point", "coordinates": [-121.7901606, 39.7438208]}},
{"type": "Feature", "id": "PCxkZE4eF_h6I1nGbayMQTbY9Es=", "properties": {"ref": "1612870", "@spider": "caliber_home_loans", "addr:full": "12707 High Bluff Drive Suite 115", "addr:city": "San Diego", "addr:state": "CA", "addr:postcode": "92130", "name": "19344 - High Bluff - San Diego", "website": "https://www.caliberhomeloans.com/Home/BranchList?stateCode=CA&LCSpeciality=all&SpanishSpeaking=no", "brand": "Caliber Home Loans"}, "geometry": {"type": "Point", "coordinates": [-117.2401914, 32.9487949]}},
{"type": "Feature", "id": "pqpr5TBCORBjTCfTokbQ-kb60kQ=", "properties": {"ref": "1613017", "@spider": "caliber_home_loans", "addr:full": "2000 Crow Canyon Place Suite 140", "addr:city": "San Ramon", "addr:state": "CA", "addr:postcode": "94583", "name": "19088 - B-Danville (San Ramon) - 2000 Crow Canyon Place", "website": "https://www.caliberhomeloans.com/Home/BranchList?stateCode=CA&LCSpeciality=all&SpanishSpeaking=no", "brand": "Caliber Home Loans"}, "geometry": {"type": "Point", "coordinates": [-121.9741141, 37.7797551]}},
{"type": "Feature", "id": "7KLGW45uhIpwk_ZIaCLWEd7a8GQ=", "properties": {"ref": "1612981", "@spider": "caliber_home_loans", "addr:full": "12501 Seal Beach Blvd.  Ste. 220", "addr:city": "Seal Beach", "addr:state": "CA", "addr:postcode": "90740", "name": "19127 - Seal Beach BHL - 12501 Seal Beach Blvd.", "website": "https://www.caliberhomeloans.com/Home/BranchList?stateCode=CA&LCSpeciality=all&SpanishSpeaking=no", "brand": "Caliber Home Loans"}, "geometry": {"type": "Point", "coordinates": [-118.0733618, 33.7807737]}},
{"type": "Feature", "id": "0ArMZxm8w_G0b21CO-omKPbem-U=", "properties": {"ref": "1502589", "@spider": "caliber_home_loans", "addr:full": "3700 Hilborn Road  Suite 700", "addr:city": "Fairfield", "addr:state": "CA", "addr:postcode": "94534", "name": "18933 - Fairfield Hilborn 1 - 3700 Hilborn Road", "website": "https://www.caliberhomeloans.com/Home/BranchList?stateCode=CA&LCSpeciality=all&SpanishSpeaking=no", "brand": "Caliber Home Loans"}, "geometry": {"type": "Point", "coordinates": [-122.0360229, 38.2955848]}},
{"type": "Feature", "id": "dzlqlG5Y3OTjAmo_Srv-v4NtW10=", "properties": {"ref": "1235542", "@spider": "caliber_home_loans", "addr:full": "818 Manhattan Beach Blvd.  Suite 100", "addr:city": "Manhattan Beach", "addr:state": "CA", "addr:postcode": "90266", "name": "18977 - Manhattan Beach - 818 Manhattan Beach Blvd.", "website": "https://www.caliberhomeloans.com/Home/BranchList?stateCode=CA&LCSpeciality=all&SpanishSpeaking=no", "brand": "Caliber Home Loans"}, "geometry": {"type": "Point", "coordinates": [-118.4025207, 33.8871319]}},
{"type": "Feature", "id": "_9R3M952SWN2tUkhkSlJpu6YzqI=", "properties": {"ref": "1043196", "@spider": "caliber_home_loans", "addr:full": "5055 N Harbor Dr.  Ste. 200", "addr:city": "San Diego", "addr:state": "CA", "addr:postcode": "92106", "name": "19542 - San Diego - 5055 N Harbor Dr", "website": "https://www.caliberhomeloans.com/Home/BranchList?stateCode=CA&LCSpeciality=all&SpanishSpeaking=no", "brand": "Caliber Home Loans"}, "geometry": {"type": "Point", "coordinates": [-117.2261814, 32.7260688]}},
{"type": "Feature", "id": "6Cc9_t2cJHXPOgt_gvu1-WhO9c0=", "properties": {"ref": "1800194", "@spider": "caliber_home_loans", "addr:full": "1600 Riviera Suite 100", "addr:city": "Walnut Creek", "addr:state": "CA", "addr:postcode": "94596", "name": "19271 - Walnut Creek - 1600 Riviera", "website": "https://www.caliberhomeloans.com/Home/BranchList?stateCode=CA&LCSpeciality=all&SpanishSpeaking=no", "brand": "Caliber Home Loans"}, "geometry": {"type": "Point", "coordinates": [-122.0674543, 37.9103812]}},
{"type": "Feature", "id": "MPjzfZIsjcWfip4UOcy2go2QpPk=", "properties": {"ref": "1612877", "@spider": "caliber_home_loans", "addr:full": "3990 Concourse  Ste. 300", "addr:city": "Ontario", "addr:state": "CA", "addr:postcode": "91764", "name": "19104 - Ontario BHL - 3990 Concourse", "website": "https://www.caliberhomeloans.com/Home/BranchList?stateCode=CA&LCSpeciality=all&SpanishSpeaking=no", "brand": "Caliber Home Loans"}, "geometry": {"type": "Point", "coordinates": [-117.5685236, 34.0700853]}},
{"type": "Feature", "id": "4RS4WpWZ-5zY7qx9NAKs3_L-6as=", "properties": {"ref": "1612979", "@spider": "caliber_home_loans", "addr:full": "450 Lincoln Ave Suite 101", "addr:city": "Salinas", "addr:state": "CA", "addr:postcode": "93901", "name": "19195 - Salinas - 450 Lincoln Ave", "website": "https://www.caliberhomeloans.com/Home/BranchList?stateCode=CA&LCSpeciality=all&SpanishSpeaking=no", "brand": "Caliber Home Loans"}, "geometry": {"type": "Point", "coordinates": [-121.6565908, 36.6707318]}},
{"type": "Feature", "id": "fJVMf6Fd3gI-GiieImnQKukrUg0=", "properties": {"ref": "1612881", "@spider": "caliber_home_loans", "addr:full": "1403 N. Tustin Ave.  Ste. 250", "addr:city": "Santa Ana", "addr:state": "CA", "addr:postcode": "92705", "name": "19103 -Santa Ana BHL - 1403 N. Tustin Ave.", "website": "https://www.caliberhomeloans.com/Home/BranchList?stateCode=CA&LCSpeciality=all&SpanishSpeaking=no", "brand": "Caliber Home Loans"}, "geometry": {"type": "Point", "coordinates": [-117.8321155, 33.7574537]}},
{"type": "Feature", "id": "rQXANbt7pyVLt2U-pxRJDXyR4wM=", "properties": {"ref": "1113630", "@spider": "caliber_home_loans", "addr:full": "2436 Broad Street", "addr:city": "San Luis Obispo", "addr:state": "CA", "addr:postcode": "93401", "name": "18226 - San Luis Obispo - 2436 Broad Street", "website": "https://www.caliberhomeloans.com/Home/BranchList?stateCode=CA&LCSpeciality=all&SpanishSpeaking=no", "brand": "Caliber Home Loans"}, "geometry": {"type": "Point", "coordinates": [-120.6539181, 35.2669192]}},
{"type": "Feature", "id": "oi1T-qe66Ncnu8B0TktFqozrD9Q=", "properties": {"ref": "1225079", "@spider": "caliber_home_loans", "addr:full": "101 N Westlake Blvd Suite 200", "addr:city": "Westlake Village", "addr:state": "CA", "addr:postcode": "91362", "name": "19512 - 101 N Westlake Blvd", "website": "https://www.caliberhomeloans.com/Home/BranchList?stateCode=CA&LCSpeciality=all&SpanishSpeaking=no", "brand": "Caliber Home Loans"}, "geometry": {"type": "Point", "coordinates": [-118.8230834, 34.1620928]}},
{"type": "Feature", "id": "Gh11PmraoQOxKvDB3-kjZtHzssY=", "properties": {"ref": "1612980", "@spider": "caliber_home_loans", "addr:full": "3510 Unocal Pl.  Suite 103", "addr:city": "Santa Rosa", "addr:state": "CA", "addr:postcode": "95403", "name": "19126 - Santa Rosa BHL - 3510 Unocal Pl.", "website": "https://www.caliberhomeloans.com/Home/BranchList?stateCode=CA&LCSpeciality=all&SpanishSpeaking=no", "brand": "Caliber Home Loans"}, "geometry": {"type": "Point", "coordinates": [-122.7218913, 38.4792616]}},
{"type": "Feature", "id": "rPZ5olyygBbWLsteYppH_nczoPI=", "properties": {"ref": "1423396", "@spider": "caliber_home_loans", "addr:full": "655 North Central Avenue 17th Floor Office 1737", "addr:city": "Glendale", "addr:state": "CA", "addr:postcode": "91203", "name": "19478 - Glendale - 655 North Central Avenue", "website": "https://www.caliberhomeloans.com/Home/BranchList?stateCode=CA&LCSpeciality=all&SpanishSpeaking=no", "brand": "Caliber Home Loans"}, "geometry": {"type": "Point", "coordinates": [-118.2584182, 34.1557111]}},
{"type": "Feature", "id": "0TLJn0bJBtyQzhuyv36p-Q10psw=", "properties": {"ref": "1495331", "@spider": "caliber_home_loans", "addr:full": "6600 Koll Center Parkway  Suite 200", "addr:city": "Pleasanton", "addr:state": "CA", "addr:postcode": "94566", "name": "18957 - Pleasanton - 6600 Koll Center Parkway", "website": "https://www.caliberhomeloans.com/Home/BranchList?stateCode=CA&LCSpeciality=all&SpanishSpeaking=no", "brand": "Caliber Home Loans"}, "geometry": {"type": "Point", "coordinates": [-121.8975718, 37.6597307]}},
{"type": "Feature", "id": "K03Xziqz5kEJZ6rbFWWUEHLnFXQ=", "properties": {"ref": "1506817", "@spider": "caliber_home_loans", "addr:full": "9711 Holland St  Ste 9", "addr:city": "Bakersfield", "addr:state": "CA", "addr:postcode": "93312", "name": "18965 - Bakersfield - 9711 Holland Street", "website": "https://www.caliberhomeloans.com/Home/BranchList?stateCode=CA&LCSpeciality=all&SpanishSpeaking=no", "brand": "Caliber Home Loans"}, "geometry": {"type": "Point", "coordinates": [-119.1102769, 35.3794039]}},
{"type": "Feature", "id": "uPPhIdnliF1w2nITgGjJE-ugsHo=", "properties": {"ref": "1747198", "@spider": "caliber_home_loans", "addr:full": "9095 Rio San Diego Drive Suite 300", "addr:city": "San Diego", "addr:state": "CA", "addr:postcode": "92108", "name": "17241 - San Diego - 9095 Rio San Diego Drive", "website": "https://www.caliberhomeloans.com/Home/BranchList?stateCode=CA&LCSpeciality=all&SpanishSpeaking=no", "brand": "Caliber Home Loans"}, "geometry": {"type": "Point", "coordinates": [-117.1357874, 32.7751588]}},
{"type": "Feature", "id": "aTLS4rCkMDCTKwnn0b_1nWbFyfg=", "properties": {"ref": "1226450", "@spider": "caliber_home_loans", "addr:full": "806 9th Street Suite 2A", "addr:city": "Paso Robles", "addr:state": "CA", "addr:postcode": "93446", "name": "19456 - Paso Robles - 806 9th Street", "website": "https://www.caliberhomeloans.com/Home/BranchList?stateCode=CA&LCSpeciality=all&SpanishSpeaking=no", "brand": "Caliber Home Loans"}, "geometry": {"type": "Point", "coordinates": [-120.6895894, 35.6234212]}},
{"type": "Feature", "id": "D725NgrDAYN3LTkwCtMjz__NWfQ=", "properties": {"ref": "1495492", "@spider": "caliber_home_loans", "addr:full": "785 Alamo Drive  Suite 140", "addr:city": "Vacaville", "addr:state": "CA", "addr:postcode": "95688", "name": "18920 - Vacaville - 785 Alamo Drive", "website": "https://www.caliberhomeloans.com/Home/BranchList?stateCode=CA&LCSpeciality=all&SpanishSpeaking=no", "brand": "Caliber Home Loans"}, "geometry": {"type": "Point", "coordinates": [-121.9995092, 38.3493572]}},
{"type": "Feature", "id": "r0_ZxfgXbARuKr4fxw_6e6TobDU=", "properties": {"ref": "1612902", "@spider": "caliber_home_loans", "addr:full": "1420 Rocky Ridge Dr.  Ste. 230", "addr:city": "Roseville", "addr:state": "CA", "addr:postcode": "95661", "name": "19118 - Roseville BHL - 1420 Rocky Ridge Dr.", "website": "https://www.caliberhomeloans.com/Home/BranchList?stateCode=CA&LCSpeciality=all&SpanishSpeaking=no", "brand": "Caliber Home Loans"}, "geometry": {"type": "Point", "coordinates": [-121.2464039, 38.7541482]}},
{"type": "Feature", "id": "rtYsEhTxsz0TQ3d3fnURbE0gvLw=", "properties": {"ref": "1612955", "@spider": "caliber_home_loans", "addr:full": "1001 2nd St.  Ste. 245", "addr:city": "Napa", "addr:state": "CA", "addr:postcode": "94559", "name": "19101 - Napa BHL - 1001 2nd St.", "website": "https://www.caliberhomeloans.com/Home/BranchList?stateCode=CA&LCSpeciality=all&SpanishSpeaking=no", "brand": "Caliber Home Loans"}, "geometry": {"type": "Point", "coordinates": [-122.2851235, 38.2981213]}},
{"type": "Feature", "id": "Toa1FizPWAMqhttB_Ndjxi3xlL4=", "properties": {"ref": "1893457", "@spider": "caliber_home_loans", "addr:full": "818 Manhattan Beach Blvd.  Suite 100", "addr:city": "Manhattan Beach", "addr:state": "CA", "addr:postcode": "90266", "name": "18977 - Manhattan Beach - 818 Manhattan Beach Blvd.", "website": "https://www.caliberhomeloans.com/Home/BranchList?stateCode=CA&LCSpeciality=all&SpanishSpeaking=no", "brand": "Caliber Home Loans"}, "geometry": {"type": "Point", "coordinates": [-118.4025207, 33.8871319]}},
{"type": "Feature", "id": "yH6IcYhDR3ucib5RktNAe1pxFUU=", "properties": {"ref": "1612872", "@spider": "caliber_home_loans", "addr:full": "1301 Redwood Way  Ste. 230", "addr:city": "Petaluma", "addr:state": "CA", "addr:postcode": "94954", "name": "19109 - Petaluma BHL - 1301 Redwood Way", "website": "https://www.caliberhomeloans.com/Home/BranchList?stateCode=CA&LCSpeciality=all&SpanishSpeaking=no", "brand": "Caliber Home Loans"}, "geometry": {"type": "Point", "coordinates": [-122.667037, 38.2751587]}},
{"type": "Feature", "id": "3x3zj6Om6RearbfNUUwX-_SIHWg=", "properties": {"ref": "1612853", "@spider": "caliber_home_loans", "addr:full": "1600 Riviera Suite 100", "addr:city": "Walnut Creek", "addr:state": "CA", "addr:postcode": "94596", "name": "19271 - Walnut Creek - 1600 Riviera", "website": "https://www.caliberhomeloans.com/Home/BranchList?stateCode=CA&LCSpeciality=all&SpanishSpeaking=no", "brand": "Caliber Home Loans"}, "geometry": {"type": "Point", "coordinates": [-122.0674543, 37.9103812]}},
{"type": "Feature", "id": "g-gFnhPkJwQhKihMdxpasjnCkmg=", "properties": {"ref": "1613071", "@spider": "caliber_home_loans", "addr:full": "220 Montgomery St.  Ste. 496", "addr:city": "San Francisco", "addr:state": "CA", "addr:postcode": "94104", "name": "19124 - San Francisco BHL - 220 Montgomery St.", "website": "https://www.caliberhomeloans.com/Home/BranchList?stateCode=CA&LCSpeciality=all&SpanishSpeaking=no", "brand": "Caliber Home Loans"}, "geometry": {"type": "Point", "coordinates": [-122.402333, 37.7912911]}},
{"type": "Feature", "id": "d7IrZD96T214c5AHHGfgPRFhdGI=", "properties": {"ref": "1185925", "@spider": "caliber_home_loans", "addr:full": "877 Anchorage Place", "addr:city": "Chula Vista", "addr:state": "CA", "addr:postcode": "91914", "name": "19168 - Chula Vista - 877 Anchorage Place", "website": "https://www.caliberhomeloans.com/Home/BranchList?stateCode=CA&LCSpeciality=all&SpanishSpeaking=no", "brand": "Caliber Home Loans"}, "geometry": {"type": "Point", "coordinates": [-116.9577468, 32.6552324]}},
{"type": "Feature", "id": "fvusHhHT8Q0t8kux1WL-kOgri00=", "properties": {"ref": "1492174", "@spider": "caliber_home_loans", "addr:full": "527 D Street", "addr:city": "Eureka", "addr:state": "CA", "addr:postcode": "95501", "name": "18938 - Eureka - 527 D Street", "website": "https://www.caliberhomeloans.com/Home/BranchList?stateCode=CA&LCSpeciality=all&SpanishSpeaking=no", "brand": "Caliber Home Loans"}, "geometry": {"type": "Point", "coordinates": [-124.1675975, 40.8011166]}},
{"type": "Feature", "id": "Yan_4_Fn9yxDmMHIc6YMlvhXX1M=", "properties": {"ref": "1495785", "@spider": "caliber_home_loans", "addr:full": "1211 Newell Avenue  Suite 110", "addr:city": "Walnut Creek", "addr:state": "CA", "addr:postcode": "94596", "name": "18964 - Walnut Creek - 1211 Newell Avenue", "website": "https://www.caliberhomeloans.com/Home/BranchList?stateCode=CA&LCSpeciality=all&SpanishSpeaking=no", "brand": "Caliber Home Loans"}, "geometry": {"type": "Point", "coordinates": [-122.0527156, 37.8929517]}},
{"type": "Feature", "id": "n3ECERy6CCZxRlqz1oVLVSFnpkE=", "properties": {"ref": "1615376", "@spider": "caliber_home_loans", "addr:full": "209 E. Caldwell", "addr:city": "Visalia", "addr:state": "CA", "addr:postcode": "93277", "name": "19133 - Visalia BHL - 209 E. Caldwell", "website": "https://www.caliberhomeloans.com/Home/BranchList?stateCode=CA&LCSpeciality=all&SpanishSpeaking=no", "brand": "Caliber Home Loans"}, "geometry": {"type": "Point", "coordinates": [-119.2901187, 36.2977649]}},
{"type": "Feature", "id": "flju9FbgYmkE0Hlh6mNrUcWeqM0=", "properties": {"ref": "1306494", "@spider": "caliber_home_loans", "addr:full": "1224 Coast Village Circle  Suite 24", "addr:city": "Santa Barbara", "addr:state": "CA", "addr:postcode": "93108", "name": "19285 - Montecito - 1224 Coast Village Circle  Suite 24", "website": "https://www.caliberhomeloans.com/Home/BranchList?stateCode=CA&LCSpeciality=all&SpanishSpeaking=no", "brand": "Caliber Home Loans"}, "geometry": {"type": "Point", "coordinates": [-119.643618, 34.420062]}},
{"type": "Feature", "id": "_4tY9LOwsqNBi5rWvISxLxeBLeM=", "properties": {"ref": "1492176", "@spider": "caliber_home_loans", "addr:full": "850 Iron Point Road  Suite 138", "addr:city": "Folsom", "addr:state": "CA", "addr:postcode": "95630", "name": "18944 - Folsom - 850 Iron Point Road", "website": "https://www.caliberhomeloans.com/Home/BranchList?stateCode=CA&LCSpeciality=all&SpanishSpeaking=no", "brand": "Caliber Home Loans"}, "geometry": {"type": "Point", "coordinates": [-121.1833398, 38.6430123]}},
{"type": "Feature", "id": "6YgIQKgxPeccasDXD6vNlbtfehM=", "properties": {"ref": "1491554", "@spider": "caliber_home_loans", "addr:full": "181 Sand Creek Road  Building 3  Unit J-1", "addr:city": "Brentwood", "addr:state": "CA", "addr:postcode": "94513", "name": "18928 - Brentwood - 181 Sand Creek Road", "website": "https://www.caliberhomeloans.com/Home/BranchList?stateCode=CA&LCSpeciality=all&SpanishSpeaking=no", "brand": "Caliber Home Loans"}, "geometry": {"type": "Point", "coordinates": [-121.699238, 37.947427]}},
{"type": "Feature", "id": "3D_J7cmTbGQdp7skyVz3tWkTKr0=", "properties": {"ref": "1495322", "@spider": "caliber_home_loans", "addr:full": "402 Main Street  Suite G", "addr:city": "Murphys", "addr:state": "CA", "addr:postcode": "95247", "name": "18951 - Murphys - 402 Main Street", "website": "https://www.caliberhomeloans.com/Home/BranchList?stateCode=CA&LCSpeciality=all&SpanishSpeaking=no", "brand": "Caliber Home Loans"}, "geometry": {"type": "Point", "coordinates": [-120.4640935, 38.1379722]}},
{"type": "Feature", "id": "j56Qd1eO6-QJuJtAZEigqNze04s=", "properties": {"ref": "1612929", "@spider": "caliber_home_loans", "addr:full": "8255 Firestone Blvd Suite 303", "addr:city": "Downey", "addr:state": "CA", "addr:postcode": "90241", "name": "19250 - 8255 Firestone Blvd", "website": "https://www.caliberhomeloans.com/Home/BranchList?stateCode=CA&LCSpeciality=all&SpanishSpeaking=no", "brand": "Caliber Home Loans"}, "geometry": {"type": "Point", "coordinates": [-118.1331054, 33.9406031]}},
{"type": "Feature", "id": "5LgqaVUW2IVPzOrrNFfALlnib90=", "properties": {"ref": "1612968", "@spider": "caliber_home_loans", "addr:full": "3990 Concourse  Ste. 300", "addr:city": "Ontario", "addr:state": "CA", "addr:postcode": "91764", "name": "19104 - Ontario BHL - 3990 Concourse", "website": "https://www.caliberhomeloans.com/Home/BranchList?stateCode=CA&LCSpeciality=all&SpanishSpeaking=no", "brand": "Caliber Home Loans"}, "geometry": {"type": "Point", "coordinates": [-117.5685236, 34.0700853]}},
{"type": "Feature", "id": "zsPEMMFXXXgYNoxD5aMnEl13IMA=", "properties": {"ref": "1239342", "@spider": "caliber_home_loans", "addr:full": "760 Garden View Court  Suite 220", "addr:city": "Encinitas", "addr:state": "CA", "addr:postcode": "92024", "name": "18630 - Encinitas - 760 Garden View Court", "website": "https://www.caliberhomeloans.com/Home/BranchList?stateCode=CA&LCSpeciality=all&SpanishSpeaking=no", "brand": "Caliber Home Loans"}, "geometry": {"type": "Point", "coordinates": [-117.2613609, 33.0602992]}},
{"type": "Feature", "id": "ZT0jsD9AFubg7KZrLWKg83Ua90A=", "properties": {"ref": "1043253", "@spider": "caliber_home_loans", "addr:full": "222 E Carrillo St. Ste. 107", "addr:city": "Santa Barbara", "addr:state": "CA", "addr:postcode": "93101", "name": "19510 - Santa Barbara - 222 E. Carrillo St.", "website": "https://www.caliberhomeloans.com/Home/BranchList?stateCode=CA&LCSpeciality=all&SpanishSpeaking=no", "brand": "Caliber Home Loans"}, "geometry": {"type": "Point", "coordinates": [-119.6985758, 34.4242441]}},
{"type": "Feature", "id": "5IaRryA6vuAgygnsEtmLqN2njcc=", "properties": {"ref": "1503656", "@spider": "caliber_home_loans", "addr:full": "3728 Atlantic Avenue", "addr:city": "Long Beach", "addr:state": "CA", "addr:postcode": "90807", "name": "90030 - DR Mulhearn - 3728 Atlantic Avenue", "website": "https://www.caliberhomeloans.com/Home/BranchList?stateCode=CA&LCSpeciality=all&SpanishSpeaking=no", "brand": "Caliber Home Loans"}, "geometry": {"type": "Point", "coordinates": [-118.1846958, 33.8251675]}},
{"type": "Feature", "id": "Y9k92OIItblCrwi-V95cbaZfY5E=", "properties": {"ref": "1495491", "@spider": "caliber_home_loans", "addr:full": "850 Merchant Street  Suite A", "addr:city": "Vacaville", "addr:state": "CA", "addr:postcode": "95688", "name": "18969 - Vacaville - 850 Merchant Street", "website": "https://www.caliberhomeloans.com/Home/BranchList?stateCode=CA&LCSpeciality=all&SpanishSpeaking=no", "brand": "Caliber Home Loans"}, "geometry": {"type": "Point", "coordinates": [-121.996334, 38.3489209]}},
{"type": "Feature", "id": "p5quQo8Kj4gNKDSZS_cZSfRFaww=", "properties": {"ref": "1491549", "@spider": "caliber_home_loans", "addr:full": "7702 Meany Avenue  Suite 101", "addr:city": "Bakersfield", "addr:state": "CA", "addr:postcode": "93308", "name": "18922 - Bakersfield - 7702 Meany Avenue", "website": "https://www.caliberhomeloans.com/Home/BranchList?stateCode=CA&LCSpeciality=all&SpanishSpeaking=no", "brand": "Caliber Home Loans"}, "geometry": {"type": "Point", "coordinates": [-119.0879499, 35.3946596]}},
{"type": "Feature", "id": "9KbkqIEAyvEvGcOjZbvklVE2ufU=", "properties": {"ref": "1491556", "@spider": "caliber_home_loans", "addr:full": "2101 Forest Avenue  Suite 150", "addr:city": "Chico", "addr:state": "CA", "addr:postcode": "95928", "name": "18930 - Chico - 2101 Forest Avenue", "website": "https://www.caliberhomeloans.com/Home/BranchList?stateCode=CA&LCSpeciality=all&SpanishSpeaking=no", "brand": "Caliber Home Loans"}, "geometry": {"type": "Point", "coordinates": [-121.8012197, 39.7219764]}},
{"type": "Feature", "id": "3pdvWV1juOb-hnDjhEOs7Jnt0DI=", "properties": {"ref": "1043262", "@spider": "caliber_home_loans", "addr:full": "2615 S. Miller Street  Ste 109", "addr:city": "Santa Maria", "addr:state": "CA", "addr:postcode": "93455", "name": "16299 - Santa Maria - 2615 S. Miller St", "website": "https://www.caliberhomeloans.com/Home/BranchList?stateCode=CA&LCSpeciality=all&SpanishSpeaking=no", "brand": "Caliber Home Loans"}, "geometry": {"type": "Point", "coordinates": [-120.4324773, 34.9115473]}},
{"type": "Feature", "id": "xIxojLfFijGfvvk83O4qRG7deVs=", "properties": {"ref": "1613055", "@spider": "caliber_home_loans", "addr:full": "1600 Riviera Suite 100", "addr:city": "Walnut Creek", "addr:state": "CA", "addr:postcode": "94596", "name": "19271 - Walnut Creek - 1600 Riviera", "website": "https://www.caliberhomeloans.com/Home/BranchList?stateCode=CA&LCSpeciality=all&SpanishSpeaking=no", "brand": "Caliber Home Loans"}, "geometry": {"type": "Point", "coordinates": [-122.0674543, 37.9103812]}},
{"type": "Feature", "id": "HbLVsb-D5ysGihg9vtfsWvvwSl0=", "properties": {"ref": "1495408", "@spider": "caliber_home_loans", "addr:full": "1099 D Street  Suite 202", "addr:city": "San Rafael", "addr:state": "CA", "addr:postcode": "94901", "name": "19066 - San Rafael - 1099 D Street", "website": "https://www.caliberhomeloans.com/Home/BranchList?stateCode=CA&LCSpeciality=all&SpanishSpeaking=no", "brand": "Caliber Home Loans"}, "geometry": {"type": "Point", "coordinates": [-122.503327, 37.9650627]}},
{"type": "Feature", "id": "xgjlBbyOsiT_AEfqD5p1aet9KDo=", "properties": {"ref": "1491544", "@spider": "caliber_home_loans", "addr:full": "1350 Hayes Street  Suite C7", "addr:city": "Benicia", "addr:state": "CA", "addr:postcode": "94510", "name": "18971 - Benicia Vallejo #1 - 1350 Hayes Street", "website": "https://www.caliberhomeloans.com/Home/BranchList?stateCode=CA&LCSpeciality=all&SpanishSpeaking=no", "brand": "Caliber Home Loans"}, "geometry": {"type": "Point", "coordinates": [-122.138771, 38.047565]}},
{"type": "Feature", "id": "jDkdpkPqdQaCQiJYekT2zR8S0Js=", "properties": {"ref": "1495407", "@spider": "caliber_home_loans", "addr:full": "700 University Ave Suite 130C", "addr:city": "Sacramento", "addr:state": "CA", "addr:postcode": "95825", "name": "19165 - Sacramento - 700 University Ave", "website": "https://www.caliberhomeloans.com/Home/BranchList?stateCode=CA&LCSpeciality=all&SpanishSpeaking=no", "brand": "Caliber Home Loans"}, "geometry": {"type": "Point", "coordinates": [-121.4189968, 38.5665244]}},
{"type": "Feature", "id": "b6tc58wKQan9rJNmvmL9Zkiq_70=", "properties": {"ref": "1495490", "@spider": "caliber_home_loans", "addr:full": "707 Merchant Street  Suite 200", "addr:city": "Vacaville", "addr:state": "CA", "addr:postcode": "95688", "name": "18937 - Vacaville - 707 Merchant Street", "website": "https://www.caliberhomeloans.com/Home/BranchList?stateCode=CA&LCSpeciality=all&SpanishSpeaking=no", "brand": "Caliber Home Loans"}, "geometry": {"type": "Point", "coordinates": [-121.9947401, 38.3494973]}},
{"type": "Feature", "id": "rUZztCOVr15sVRgp57hsQPhqcPQ=", "properties": {"ref": "1492168", "@spider": "caliber_home_loans", "addr:full": "1408 Solano Street", "addr:city": "Corning", "addr:state": "CA", "addr:postcode": "96021", "name": "19040 - Corning - 1408 Solano Street", "website": "https://www.caliberhomeloans.com/Home/BranchList?stateCode=CA&LCSpeciality=all&SpanishSpeaking=no", "brand": "Caliber Home Loans"}, "geometry": {"type": "Point", "coordinates": [-122.1840837, 39.9281666]}},
{"type": "Feature", "id": "IUZVEfTy9Hv1XnlxwFIiLZg3ltQ=", "properties": {"ref": "1492175", "@spider": "caliber_home_loans", "addr:full": "2420 Martin Road  Suite 150", "addr:city": "Fairfield", "addr:state": "CA", "addr:postcode": "94534", "name": "18940 - Fairfield - 2420 Martin Road", "website": "https://www.caliberhomeloans.com/Home/BranchList?stateCode=CA&LCSpeciality=all&SpanishSpeaking=no", "brand": "Caliber Home Loans"}, "geometry": {"type": "Point", "coordinates": [-122.0512347, 38.2739152]}},
{"type": "Feature", "id": "AHt4vh6Yn7d8UBzM5w3w_fkyXFU=", "properties": {"ref": "1686077", "@spider": "caliber_home_loans", "addr:full": "25350 Magic Mountain Parkway Suite 300", "addr:city": "Valencia", "addr:state": "CA", "addr:postcode": "91355", "name": "19561 - Valencia - 25350 Magic Mountain Pkwy", "website": "https://www.caliberhomeloans.com/Home/BranchList?stateCode=CA&LCSpeciality=all&SpanishSpeaking=no", "brand": "Caliber Home Loans"}, "geometry": {"type": "Point", "coordinates": [-118.5777222, 34.4234375]}},
{"type": "Feature", "id": "QUMuqsIJHxo-90HKCofJPN8IePg=", "properties": {"ref": "1811791", "@spider": "caliber_home_loans", "addr:full": "7 E. Main St. Suite D", "addr:city": "Winters", "addr:state": "CA", "addr:postcode": "95694", "name": "Winters", "website": "https://www.caliberhomeloans.com/Home/BranchList?stateCode=CA&LCSpeciality=all&SpanishSpeaking=no", "brand": "Caliber Home Loans"}, "geometry": {"type": "Point", "coordinates": [-121.968329, 38.522336]}},
{"type": "Feature", "id": "-g1u6QsVtC0XaGWejybxGs94mmU=", "properties": {"ref": "2004641", "@spider": "caliber_home_loans", "addr:full": "150 East Broadway  FL 1 & 2", "addr:city": "Vista", "addr:state": "CA", "addr:postcode": "92084", "name": "19490 - Vista - 150 East Broadway", "website": "https://www.caliberhomeloans.com/Home/BranchList?stateCode=CA&LCSpeciality=all&SpanishSpeaking=no", "brand": "Caliber Home Loans"}, "geometry": {"type": "Point", "coordinates": [-117.2420301, 33.2012984]}},
{"type": "Feature", "id": "Wf2pSlLHfM7hZpUijiqxgMYHC9I=", "properties": {"ref": "2104893", "@spider": "caliber_home_loans", "addr:full": "160 N. Grant Ave.", "addr:city": "Manteca", "addr:state": "CA", "addr:postcode": "95336", "name": "19539 - Manteca - 160 N. Grant Ave.", "website": "https://www.caliberhomeloans.com/Home/BranchList?stateCode=CA&LCSpeciality=all&SpanishSpeaking=no", "brand": "Caliber Home Loans"}, "geometry": {"type": "Point", "coordinates": [-121.2150129, 37.7989187]}},
{"type": "Feature", "id": "cRQAa9OBJT5weztbKOYTb4QYj_0=", "properties": {"ref": "2010641", "@spider": "caliber_home_loans", "addr:full": "1065 Bonita Suite A", "addr:city": "La Verne", "addr:state": "CA", "addr:postcode": "91750", "name": "19464 - La Verne - 1065 Bonita", "website": "https://www.caliberhomeloans.com/Home/BranchList?stateCode=CA&LCSpeciality=all&SpanishSpeaking=no", "brand": "Caliber Home Loans"}, "geometry": {"type": "Point", "coordinates": [-117.7885057, 34.1067587]}},
{"type": "Feature", "id": "w_U_UGxfjWst9rquO8SjMzvdJvo=", "properties": {"ref": "1792253", "@spider": "caliber_home_loans", "addr:full": "10722 Arrow Route Ste 306", "addr:city": "Rancho Cucamonga", "addr:state": "CA", "addr:postcode": "91730", "name": "90235 - DR - Noshaq Properties  LLC - Rancho Cucamonga", "website": "https://www.caliberhomeloans.com/Home/BranchList?stateCode=CA&LCSpeciality=all&SpanishSpeaking=no", "brand": "Caliber Home Loans"}, "geometry": {"type": "Point", "coordinates": [-117.5717764, 34.1001127]}},
{"type": "Feature", "id": "09gtxDwC-HMTVHgoGh0I3xC6CwE=", "properties": {"ref": "2147413", "@spider": "caliber_home_loans", "addr:full": "1000 Town Center Dr. Ste. 300", "addr:city": "Oxnard", "addr:state": "CA", "addr:postcode": "93036", "name": "19560 - Oxnard - 1000 Town Center Dr", "website": "https://www.caliberhomeloans.com/Home/BranchList?stateCode=CA&LCSpeciality=all&SpanishSpeaking=no", "brand": "Caliber Home Loans"}, "geometry": {"type": "Point", "coordinates": [-119.1820455, 34.2431708]}},
{"type": "Feature", "id": "bu5B3UAorz-hY8xMKj8vM3Da7Do=", "properties": {"ref": "2122617", "@spider": "caliber_home_loans", "addr:full": "342 South 5th Street", "addr:city": "Oxnard", "addr:state": "CA", "addr:postcode": "93030", "name": "90307 - Blue Sky Realty 342 S 5th St", "website": "https://www.caliberhomeloans.com/Home/BranchList?stateCode=CA&LCSpeciality=all&SpanishSpeaking=no", "brand": "Caliber Home Loans"}, "geometry": {"type": "Point", "coordinates": [-119.1808858, 34.1970651]}},
{"type": "Feature", "id": "Ivk2Nr7nhpxu9DP-nUlODicRSFM=", "properties": {"ref": "2162254", "@spider": "caliber_home_loans", "addr:full": "520 S. Main Street", "addr:city": "Templeton", "addr:state": "CA", "addr:postcode": "93465", "name": "19579 - Templeton - 520 S. Main St.", "website": "https://www.caliberhomeloans.com/Home/BranchList?stateCode=CA&LCSpeciality=all&SpanishSpeaking=no", "brand": "Caliber Home Loans"}, "geometry": {"type": "Point", "coordinates": [-120.706276, 35.5485999]}},
{"type": "Feature", "id": "zx4NtioeJuxYe_J8EHxR6Oz-Zt0=", "properties": {"ref": "2228679", "@spider": "caliber_home_loans", "addr:full": "200 E Santa Clara St. Suite 200", "addr:city": "Ventura", "addr:state": "CA", "addr:postcode": "93001", "name": "19576 - Ventura - 200 E Santa Clara St.", "website": "https://www.caliberhomeloans.com/Home/BranchList?stateCode=CA&LCSpeciality=all&SpanishSpeaking=no", "brand": "Caliber Home Loans"}, "geometry": {"type": "Point", "coordinates": [-119.2974812, 34.2793207]}},
{"type": "Feature", "id": "dEteYoKE2ttM06czjJZI-h2E5xY=", "properties": {"ref": "2183388", "@spider": "caliber_home_loans", "addr:full": "368 East Yosemite Ave.  Suite 200G", "addr:city": "Merced", "addr:state": "CA", "addr:postcode": "95340", "name": "19589 - Merced - 368 East Yosemite Ave.", "website": "https://www.caliberhomeloans.com/Home/BranchList?stateCode=CA&LCSpeciality=all&SpanishSpeaking=no", "brand": "Caliber Home Loans"}, "geometry": {"type": "Point", "coordinates": [-120.464161, 37.330897]}},
{"type": "Feature", "id": "vofD2FAkGB_XCcvRaeNJa5J-lHw=", "properties": {"ref": "2265666", "@spider": "caliber_home_loans", "addr:full": "111 West Ocean Blvd.  4th Fl.", "addr:city": "Long Beach", "addr:state": "CA", "addr:postcode": "90802", "name": "19618 - Long Beach - 111 West Ocean Blvd.", "website": "https://www.caliberhomeloans.com/Home/BranchList?stateCode=CA&LCSpeciality=all&SpanishSpeaking=no", "brand": "Caliber Home Loans"}, "geometry": {"type": "Point", "coordinates": [-118.1929903, 33.7674496]}},
{"type": "Feature", "id": "4oHBf8AHMwNNV6WqBGcq-dVp4bE=", "properties": {"ref": "1742605", "@spider": "caliber_home_loans", "addr:full": "55 Madison Street  Suite 525", "addr:city": "Denver", "addr:state": "CO", "addr:postcode": "80206", "name": "18427 - Denver - 55 Madison Street", "website": "https://www.caliberhomeloans.com/Home/BranchList?stateCode=CO&LCSpeciality=all&SpanishSpeaking=no", "brand": "Caliber Home Loans"}, "geometry": {"type": "Point", "coordinates": [-104.9465058, 39.7174108]}},
{"type": "Feature", "id": "pUidWFuQfzW30I5PthxQvhMzkSU=", "properties": {"ref": "1459805", "@spider": "caliber_home_loans", "addr:full": "8400 E. Prentice Avenue  Suite 1002", "addr:city": "Greenwood Village", "addr:state": "CO", "addr:postcode": "80111", "name": "17000 - Greenwood Village - 8400 E. Prentice Avenue  Suite 1002", "website": "https://www.caliberhomeloans.com/Home/BranchList?stateCode=CO&LCSpeciality=all&SpanishSpeaking=no", "brand": "Caliber Home Loans"}, "geometry": {"type": "Point", "coordinates": [-104.8912378, 39.6194689]}},
{"type": "Feature", "id": "5LS23M01hfZ_OT8DihXYLCRqQtY=", "properties": {"ref": "1044103", "@spider": "caliber_home_loans", "addr:full": "1975 Research Parkway  Suite 300", "addr:city": "Colorado Springs", "addr:state": "CO", "addr:postcode": "80920", "name": "16328 - Colorado Springs - 1975 Research Parkway", "website": "https://www.caliberhomeloans.com/Home/BranchList?stateCode=CO&LCSpeciality=all&SpanishSpeaking=no", "brand": "Caliber Home Loans"}, "geometry": {"type": "Point", "coordinates": [-104.7948503, 38.9575843]}},
{"type": "Feature", "id": "5mNywJbPkUC-zU4pOEU_eHnd_-o=", "properties": {"ref": "1235759", "@spider": "caliber_home_loans", "addr:full": "2900 South College Avenue  Suite 1A", "addr:city": "Fort Collins", "addr:state": "CO", "addr:postcode": "80525", "name": "18381 - Fort Collins - 2900 S. College Avenue", "website": "https://www.caliberhomeloans.com/Home/BranchList?stateCode=CO&LCSpeciality=all&SpanishSpeaking=no", "brand": "Caliber Home Loans"}, "geometry": {"type": "Point", "coordinates": [-105.0765196, 40.5475299]}},
{"type": "Feature", "id": "zsJ43M0vM9D88SnLaC-onwl8FUs=", "properties": {"ref": "1235665", "@spider": "caliber_home_loans", "addr:full": "2 N. Cascade Ave. Suite 850", "addr:city": "Colorado Springs", "addr:state": "CO", "addr:postcode": "80903", "name": "19232 - Colorado Springs - 2 N. Cascade Ave.", "website": "https://www.caliberhomeloans.com/Home/BranchList?stateCode=CO&LCSpeciality=all&SpanishSpeaking=no", "brand": "Caliber Home Loans"}, "geometry": {"type": "Point", "coordinates": [-104.8267656, 38.8335127]}},
{"type": "Feature", "id": "Jw1LEGPmp5WWCrOnjZmcjjnOgbI=", "properties": {"ref": "1767558", "@spider": "caliber_home_loans", "addr:full": "5285 McWhinney Blvd Suite 110", "addr:city": "Loveland", "addr:state": "CO", "addr:postcode": "80538", "name": "18327 - Colorado Ops Loveland - 5285 McWhinney Blvd", "website": "https://www.caliberhomeloans.com/Home/BranchList?stateCode=CO&LCSpeciality=all&SpanishSpeaking=no", "brand": "Caliber Home Loans"}, "geometry": {"type": "Point", "coordinates": [-105.0030544, 40.4110011]}},
{"type": "Feature", "id": "DMk7El82asRAxz0XdLg3GqinyxE=", "properties": {"ref": "1235768", "@spider": "caliber_home_loans", "addr:full": "5460 South Quebec Street  Suite 100", "addr:city": "Greenwood Village", "addr:state": "CO", "addr:postcode": "80111", "name": "18379 - Denver - 5460 S. Quebec Street", "website": "https://www.caliberhomeloans.com/Home/BranchList?stateCode=CO&LCSpeciality=all&SpanishSpeaking=no", "brand": "Caliber Home Loans"}, "geometry": {"type": "Point", "coordinates": [-104.9035714, 39.6172361]}},
{"type": "Feature", "id": "hBQaMQdCgwlwTyUSwKQo8ATR4Pc=", "properties": {"ref": "1633783", "@spider": "caliber_home_loans", "addr:full": "2015 Clubhouse Drive  Suite LL 01", "addr:city": "Greeley", "addr:state": "CO", "addr:postcode": "80634", "name": "18382 - Greeley - 2015 Clubhouse Dr.", "website": "https://www.caliberhomeloans.com/Home/BranchList?stateCode=CO&LCSpeciality=all&SpanishSpeaking=no", "brand": "Caliber Home Loans"}, "geometry": {"type": "Point", "coordinates": [-104.769321, 40.4064893]}},
{"type": "Feature", "id": "ylTk0i8TPzXnBN5z4feODdY1dno=", "properties": {"ref": "15622-404460", "@spider": "caliber_home_loans", "addr:full": "165 South Union Blvd. Suite 440", "addr:city": "Lakewood", "addr:state": "CO", "addr:postcode": "80228", "name": "19386 - Lakewood - 165 South Union Blvd.", "website": "https://www.caliberhomeloans.com/Home/BranchList?stateCode=CO&LCSpeciality=all&SpanishSpeaking=no", "brand": "Caliber Home Loans"}, "geometry": {"type": "Point", "coordinates": [-105.1345755, 39.7129355]}},
{"type": "Feature", "id": "lvroRSQzVB2bW7yIzdHU4OPJj8o=", "properties": {"ref": "15622-1154149", "@spider": "caliber_home_loans", "addr:full": "571 25 Rd. Suite 9 & 10", "addr:city": "Grand Junction", "addr:state": "CO", "addr:postcode": "81505", "name": "19333 - Grand Junction 571 25 Rd. Suite 9 & 10", "website": "https://www.caliberhomeloans.com/Home/BranchList?stateCode=CO&LCSpeciality=all&SpanishSpeaking=no", "brand": "Caliber Home Loans"}, "geometry": {"type": "Point", "coordinates": [-108.5898696, 39.087785]}},
{"type": "Feature", "id": "NbDNoIE_5GJN8qGmcMQftFIJQMc=", "properties": {"ref": "15622-1044103", "@spider": "caliber_home_loans", "addr:full": "121 West City Center Dr  Ste. 204", "addr:city": "Pueblo", "addr:state": "CO", "addr:postcode": "81003", "name": "19529 - Pueblo - 121 West City Center Dr", "website": "https://www.caliberhomeloans.com/Home/BranchList?stateCode=CO&LCSpeciality=all&SpanishSpeaking=no", "brand": "Caliber Home Loans"}, "geometry": {"type": "Point", "coordinates": [-104.6082771, 38.2681068]}},
{"type": "Feature", "id": "c6vhN6pYuP0HVEd7S_vxtA1jo7A=", "properties": {"ref": "2088254", "@spider": "caliber_home_loans", "addr:full": "720 Pearl Street  Suite 1-B", "addr:city": "Boulder", "addr:state": "CO", "addr:postcode": "80302", "name": "18365 - Boulder - 720 Pearl Street", "website": "https://www.caliberhomeloans.com/Home/BranchList?stateCode=CO&LCSpeciality=all&SpanishSpeaking=no", "brand": "Caliber Home Loans"}, "geometry": {"type": "Point", "coordinates": [-105.2859369, 40.0163477]}},
{"type": "Feature", "id": "9S5e7sxla5AxBUsvajwBxNee7_M=", "properties": {"ref": "1963180", "@spider": "caliber_home_loans", "addr:full": "2020 Terry Street  Suite A", "addr:city": "Longmont", "addr:state": "CO", "addr:postcode": "80501", "name": "18384 - Longmont - 2020 Terry St.", "website": "https://www.caliberhomeloans.com/Home/BranchList?stateCode=CO&LCSpeciality=all&SpanishSpeaking=no", "brand": "Caliber Home Loans"}, "geometry": {"type": "Point", "coordinates": [-105.1038321, 40.1941297]}},
{"type": "Feature", "id": "WL6AIFddAlI7BY0bVTxJxqwIfyU=", "properties": {"ref": "15622-1153757", "@spider": "caliber_home_loans", "addr:full": "571 25 Rd. Suite 9 & 10", "addr:city": "Grand Junction", "addr:state": "CO", "addr:postcode": "81505", "name": "19333 - Grand Junction 571 25 Rd. Suite 9 & 10", "website": "https://www.caliberhomeloans.com/Home/BranchList?stateCode=CO&LCSpeciality=all&SpanishSpeaking=no", "brand": "Caliber Home Loans"}, "geometry": {"type": "Point", "coordinates": [-108.5901247, 39.0873302]}},
{"type": "Feature", "id": "JrMrxDEGe0R2tCXfrlXpyJUtzow=", "properties": {"ref": "1423691", "@spider": "caliber_home_loans", "addr:full": "2 Enterprise Drive  Suite 509", "addr:city": "Shelton", "addr:state": "CT", "addr:postcode": "06484", "name": "18976 - Shelton -2 Enterprise Drive", "website": "https://www.caliberhomeloans.com/Home/BranchList?stateCode=CT&LCSpeciality=all&SpanishSpeaking=no", "brand": "Caliber Home Loans"}, "geometry": {"type": "Point", "coordinates": [-73.1249088, 41.2781066]}},
{"type": "Feature", "id": "UjvJXHVcOV_GzHKerGo0uoKgH78=", "properties": {"ref": "1568151", "@spider": "caliber_home_loans", "addr:full": "74 Batterson Park Road 2nd Fl.", "addr:city": "Farmington", "addr:state": "CT", "addr:postcode": "06032", "name": "19188 - Farmington - 74 Batterson Park Road", "website": "https://www.caliberhomeloans.com/Home/BranchList?stateCode=CT&LCSpeciality=all&SpanishSpeaking=no", "brand": "Caliber Home Loans"}, "geometry": {"type": "Point", "coordinates": [-72.7955082, 41.7144137]}},
{"type": "Feature", "id": "nabFIH8Qv7M5bcFL7HPJUe2jqeM=", "properties": {"ref": "1213813", "@spider": "caliber_home_loans", "addr:full": "1327 14th Street NW  Suite 101", "addr:city": "Washington", "addr:state": "DC", "addr:postcode": "20005", "name": "18254 - DC - 1327 14th Street NW", "website": "https://www.caliberhomeloans.com/Home/BranchList?stateCode=DC&LCSpeciality=all&SpanishSpeaking=no", "brand": "Caliber Home Loans"}, "geometry": {"type": "Point", "coordinates": [-77.0315185, 38.9081439]}},
{"type": "Feature", "id": "8xGYM-c5MaR9PeTyZU4ngkmZTe4=", "properties": {"ref": "1112400", "@spider": "caliber_home_loans", "addr:full": "17252 N. Village Main Blvd. Suite 16 Suite 16 Suite 16", "addr:city": "Lewes", "addr:state": "DE", "addr:postcode": "19958", "name": "19477 - Lewes - 17252 N. Village Main Blvd.", "website": "https://www.caliberhomeloans.com/Home/BranchList?stateCode=DE&LCSpeciality=all&SpanishSpeaking=no", "brand": "Caliber Home Loans"}, "geometry": {"type": "Point", "coordinates": [-75.1676305, 38.752326]}},
{"type": "Feature", "id": "0gwl1GNGNpC9JjltsS_2NMyz17g=", "properties": {"ref": "1043527", "@spider": "caliber_home_loans", "addr:full": "200 Continental Drive  Suite 201", "addr:city": "Newark", "addr:state": "DE", "addr:postcode": "19713", "name": "16327 - Newark - 200 Continental Drive", "website": "https://www.caliberhomeloans.com/Home/BranchList?stateCode=DE&LCSpeciality=all&SpanishSpeaking=no", "brand": "Caliber Home Loans"}, "geometry": {"type": "Point", "coordinates": [-75.6584497, 39.6870363]}},
{"type": "Feature", "id": "ISFUWBgBqmZPIokVci_jkvOT4DA=", "properties": {"ref": "1281684", "@spider": "caliber_home_loans", "addr:full": "1325 Satellite Blvd. Suite 804", "addr:city": "Suwanee", "addr:state": "GA", "addr:postcode": "30024", "name": "19401 - Suwanee - 1325 Satellite Blvd.", "website": "https://www.caliberhomeloans.com/Home/BranchList?stateCode=GA&LCSpeciality=all&SpanishSpeaking=no", "brand": "Caliber Home Loans"}, "geometry": {"type": "Point", "coordinates": [-84.0461353, 34.039616]}},
{"type": "Feature", "id": "tPHUjvE3pBxn_zQ_aIkDYX0k2C8=", "properties": {"ref": "1328582", "@spider": "caliber_home_loans", "addr:full": "900 North Point Pkwy.  Ste. 120", "addr:city": "Alpharetta", "addr:state": "GA", "addr:postcode": "30005", "name": "19578 - Alpharetta - 900 North Point Parkway", "website": "https://www.caliberhomeloans.com/Home/BranchList?stateCode=GA&LCSpeciality=all&SpanishSpeaking=no", "brand": "Caliber Home Loans"}, "geometry": {"type": "Point", "coordinates": [-84.259324, 34.0802936]}},
{"type": "Feature", "id": "wmatP8rgdw8jL3-tsGcXCDcVuZk=", "properties": {"ref": "1752618", "@spider": "caliber_home_loans", "addr:full": "830 Eagles Landing Parkway Suite 201", "addr:city": "Stockbridge", "addr:state": "GA", "addr:postcode": "30281", "name": "19383 - Stockbridge - 830 Eagles Landing Parkway", "website": "https://www.caliberhomeloans.com/Home/BranchList?stateCode=GA&LCSpeciality=all&SpanishSpeaking=no", "brand": "Caliber Home Loans"}, "geometry": {"type": "Point", "coordinates": [-84.2157758, 33.5134905]}},
{"type": "Feature", "id": "cTCMhygBm3OAhFaEsaeV5uDj3EU=", "properties": {"ref": "1043548", "@spider": "caliber_home_loans", "addr:full": "5185 Peachtree Parkway  Suite 260", "addr:city": "Peachtree Corners", "addr:state": "GA", "addr:postcode": "30092", "name": "18982 - Atlanta - 5185 Peachtree Parkway", "website": "https://www.caliberhomeloans.com/Home/BranchList?stateCode=GA&LCSpeciality=all&SpanishSpeaking=no", "brand": "Caliber Home Loans"}, "geometry": {"type": "Point", "coordinates": [-84.2196136, 33.9791344]}},
{"type": "Feature", "id": "klHuuEHMhOwY4emNfNCyVZnsQtY=", "properties": {"ref": "2155483", "@spider": "caliber_home_loans", "addr:full": "1700 Frederica Road Suite 106", "addr:city": "St Simons Island", "addr:state": "GA", "addr:postcode": "31522", "name": "19555 - St Simons Island - 1700 Frederica Rd", "website": "https://www.caliberhomeloans.com/Home/BranchList?stateCode=GA&LCSpeciality=all&SpanishSpeaking=no", "brand": "Caliber Home Loans"}, "geometry": {"type": "Point", "coordinates": [-81.3866341, 31.1632425]}},
{"type": "Feature", "id": "R2jxxGKLa90l8UIAi2JDZejN504=", "properties": {"ref": "2155539", "@spider": "caliber_home_loans", "addr:full": "102 Marsh Harbour Suite 105", "addr:city": "Kingsland", "addr:state": "GA", "addr:postcode": "31548", "name": "19566 - Kingsland - 102 Marsh Harbour", "website": "https://www.caliberhomeloans.com/Home/BranchList?stateCode=GA&LCSpeciality=all&SpanishSpeaking=no", "brand": "Caliber Home Loans"}, "geometry": {"type": "Point", "coordinates": [-81.6270979, 30.8135453]}},
{"type": "Feature", "id": "wAvIR2fc8YSwlgefq_40z1u-hX4=", "properties": {"ref": "1638636", "@spider": "caliber_home_loans", "addr:full": "822 Pinebrook Rd  Suite 822", "addr:city": "Venice", "addr:state": "FL", "addr:postcode": "34285", "name": "19227 - Venice - 822 Pinebrook Rd Venice FL 34285", "website": "https://www.caliberhomeloans.com/Home/BranchList?stateCode=FL&LCSpeciality=all&SpanishSpeaking=no", "brand": "Caliber Home Loans"}, "geometry": {"type": "Point", "coordinates": [-82.4173548, 27.100087]}},
{"type": "Feature", "id": "8Q3ItjWNz7JbySy65FiugkuoBNQ=", "properties": {"ref": "1968264", "@spider": "caliber_home_loans", "addr:full": "7190 SW 87th Avenue Suite 405 406", "addr:city": "Miami", "addr:state": "FL", "addr:postcode": "33173", "name": "19496 - Miami - 7190 SW 87th Avenue", "website": "https://www.caliberhomeloans.com/Home/BranchList?stateCode=FL&LCSpeciality=all&SpanishSpeaking=no", "brand": "Caliber Home Loans"}, "geometry": {"type": "Point", "coordinates": [-80.3346271, 25.702951]}},
{"type": "Feature", "id": "k_1OjJkTqaCzPe3VL5Sdu3rn-Zc=", "properties": {"ref": "1613873", "@spider": "caliber_home_loans", "addr:full": "1040 Weston Road  Suite 315", "addr:city": "Weston", "addr:state": "FL", "addr:postcode": "33326", "name": "19069 - Weston - 1040 Weston Road", "website": "https://www.caliberhomeloans.com/Home/BranchList?stateCode=FL&LCSpeciality=all&SpanishSpeaking=no", "brand": "Caliber Home Loans"}, "geometry": {"type": "Point", "coordinates": [-80.3628858, 26.1064073]}},
{"type": "Feature", "id": "JNg8gq0Pfr-tahwsNfXaZK5Eemo=", "properties": {"ref": "1473316", "@spider": "caliber_home_loans", "addr:full": "3903 Northdale Boulevard  Suites 210E and 270E", "addr:city": "Tampa", "addr:state": "FL", "addr:postcode": "33624", "name": "18871 - Northdale - 3903 Northdale Boulevard", "website": "https://www.caliberhomeloans.com/Home/BranchList?stateCode=FL&LCSpeciality=all&SpanishSpeaking=no", "brand": "Caliber Home Loans"}, "geometry": {"type": "Point", "coordinates": [-82.5072799, 28.0951589]}},
{"type": "Feature", "id": "qZ5KD1C140YjStaooiV-Eq_O8qc=", "properties": {"ref": "1277982", "@spider": "caliber_home_loans", "addr:full": "12724 Gran Bay Parkway West  Suite 310", "addr:city": "Jacksonville", "addr:state": "FL", "addr:postcode": "32258", "name": "18695 - Jacksonville - 12724 Gran Bay Parkway West", "website": "https://www.caliberhomeloans.com/Home/BranchList?stateCode=FL&LCSpeciality=all&SpanishSpeaking=no", "brand": "Caliber Home Loans"}, "geometry": {"type": "Point", "coordinates": [-81.5319168, 30.1395695]}},
{"type": "Feature", "id": "SeVtiHBrkWPaGTA585ftVOWTJUQ=", "properties": {"ref": "1393005", "@spider": "caliber_home_loans", "addr:full": "6037 Winthrop Commerce Ave", "addr:city": "Riverview", "addr:state": "FL", "addr:postcode": "33578", "name": "18717 - Riverview - 6037 Winthrop Commerce Ave", "website": "https://www.caliberhomeloans.com/Home/BranchList?stateCode=FL&LCSpeciality=all&SpanishSpeaking=no", "brand": "Caliber Home Loans"}, "geometry": {"type": "Point", "coordinates": [-82.3153857, 27.8927511]}},
{"type": "Feature", "id": "s2ztOgG1Qa52Z46AsERbxeO6ozs=", "properties": {"ref": "1043530", "@spider": "caliber_home_loans", "addr:full": "151 Southhall Lane  Suite 170", "addr:city": "Maitland", "addr:state": "FL", "addr:postcode": "32751", "name": "18906 - Maitland - 151 Southhall Lane", "website": "https://www.caliberhomeloans.com/Home/BranchList?stateCode=FL&LCSpeciality=all&SpanishSpeaking=no", "brand": "Caliber Home Loans"}, "geometry": {"type": "Point", "coordinates": [-81.3970735, 28.6281628]}},
{"type": "Feature", "id": "4HoGa916B75_PfdM_zBNaU62DPQ=", "properties": {"ref": "1085186", "@spider": "caliber_home_loans", "addr:full": "1701 Ponce De Leon Blvd. Suite 400", "addr:city": "Coral Gables", "addr:state": "FL", "addr:postcode": "33134", "name": "19367 - Coral Gables - 1701 Ponce De Leon Blvd.", "website": "https://www.caliberhomeloans.com/Home/BranchList?stateCode=FL&LCSpeciality=all&SpanishSpeaking=no", "brand": "Caliber Home Loans"}, "geometry": {"type": "Point", "coordinates": [-80.258545, 25.7564426]}},
{"type": "Feature", "id": "OPk-6kgWV5MWLWWPvDH5qGt2JE0=", "properties": {"ref": "1903352", "@spider": "caliber_home_loans", "addr:full": "7208 W Sand Lake Road Suite 300", "addr:city": "Orlando", "addr:state": "FL", "addr:postcode": "32819", "name": "19300 - Orlando - 7208 W Sand Lake Road", "website": "https://www.caliberhomeloans.com/Home/BranchList?stateCode=FL&LCSpeciality=all&SpanishSpeaking=no", "brand": "Caliber Home Loans"}, "geometry": {"type": "Point", "coordinates": [-81.4786163, 28.4494043]}},
{"type": "Feature", "id": "Se5Sf84ZVhXkIrVjLPxP9lqIJR4=", "properties": {"ref": "1721180", "@spider": "caliber_home_loans", "addr:full": "811 Douglas Ave Suite B", "addr:city": "Dunedin", "addr:state": "FL", "addr:postcode": "34698", "name": "19206 - Dunedin - 811 Douglas Ave", "website": "https://www.caliberhomeloans.com/Home/BranchList?stateCode=FL&LCSpeciality=all&SpanishSpeaking=no", "brand": "Caliber Home Loans"}, "geometry": {"type": "Point", "coordinates": [-82.7875935, 28.012487]}},
{"type": "Feature", "id": "9ieTE79VgZpdLx_QUhos7G0mkV0=", "properties": {"ref": "1451918", "@spider": "caliber_home_loans", "addr:full": "13123 E. Emerald Coast Parkway Suite I", "addr:city": "Inlet Beach", "addr:state": "FL", "addr:postcode": "32461", "name": "19214 - Inlet Beach - 13123 E. Emerald Coast Parkway", "website": "https://www.caliberhomeloans.com/Home/BranchList?stateCode=FL&LCSpeciality=all&SpanishSpeaking=no", "brand": "Caliber Home Loans"}, "geometry": {"type": "Point", "coordinates": [-86.3877245, 30.3843385]}},
{"type": "Feature", "id": "aKxBTIruFq62n0N5T9biFrxCxTA=", "properties": {"ref": "1197362", "@spider": "caliber_home_loans", "addr:full": "1715 N Westshore Blvd.  Suite 400", "addr:city": "Tampa", "addr:state": "FL", "addr:postcode": "33607", "name": "18397 - Tampa South - 1715 N Westshore Blvd", "website": "https://www.caliberhomeloans.com/Home/BranchList?stateCode=FL&LCSpeciality=all&SpanishSpeaking=no", "brand": "Caliber Home Loans"}, "geometry": {"type": "Point", "coordinates": [-82.5235725, 27.9575759]}},
{"type": "Feature", "id": "8eo7apc7phTC7nculSwlsV1xT3I=", "properties": {"ref": "1536743", "@spider": "caliber_home_loans", "addr:full": "2750 SW 145th Ave Suite 309", "addr:city": "Miramar", "addr:state": "FL", "addr:postcode": "33027", "name": "19260 - Miramar - 2750 SW 145th Ave", "website": "https://www.caliberhomeloans.com/Home/BranchList?stateCode=FL&LCSpeciality=all&SpanishSpeaking=no", "brand": "Caliber Home Loans"}, "geometry": {"type": "Point", "coordinates": [-80.3422856, 25.9838128]}},
{"type": "Feature", "id": "SIBwC9uUjYoASMUC2nWd8S2nr4I=", "properties": {"ref": "1514904", "@spider": "caliber_home_loans", "addr:full": "9145 Narcoossee Road  Suite A-209", "addr:city": "Orlando", "addr:state": "FL", "addr:postcode": "32827", "name": "19078 - Orlando - 9145 Narcoossee Road", "website": "https://www.caliberhomeloans.com/Home/BranchList?stateCode=FL&LCSpeciality=all&SpanishSpeaking=no", "brand": "Caliber Home Loans"}, "geometry": {"type": "Point", "coordinates": [-81.2563144, 28.4349538]}},
{"type": "Feature", "id": "-QG6J3uHJKwSdWMYf8wCXSTRg_w=", "properties": {"ref": "1864179", "@spider": "caliber_home_loans", "addr:full": "2973/2975 West Bay Dr. Suite 5 & 6", "addr:city": "Belleair Bluffs", "addr:state": "FL", "addr:postcode": "33770", "name": "19373 - Belleair Bluffs - 2973/2975 West Bay Dr.", "website": "https://www.caliberhomeloans.com/Home/BranchList?stateCode=FL&LCSpeciality=all&SpanishSpeaking=no", "brand": "Caliber Home Loans"}, "geometry": {"type": "Point", "coordinates": [-82.8193529, 27.91739]}},
{"type": "Feature", "id": "k8slW4T7k5h-gzG4KahfqBgfK3U=", "properties": {"ref": "1205706", "@spider": "caliber_home_loans", "addr:full": "8151 Peters Road  Suite 3100", "addr:city": "Plantation", "addr:state": "FL", "addr:postcode": "33324", "name": "18315 - Plantation - 8151 Peters Road", "website": "https://www.caliberhomeloans.com/Home/BranchList?stateCode=FL&LCSpeciality=all&SpanishSpeaking=no", "brand": "Caliber Home Loans"}, "geometry": {"type": "Point", "coordinates": [-80.2579194, 26.1074998]}},
{"type": "Feature", "id": "hY60pIbMAzDFdpDILkhUgZe0QpE=", "properties": {"ref": "1263124", "@spider": "caliber_home_loans", "addr:full": "1819 Main Street  Suite 201", "addr:city": "Sarasota", "addr:state": "FL", "addr:postcode": "34236", "name": "18543 - Sarasota - 1819 Main Street", "website": "https://www.caliberhomeloans.com/Home/BranchList?stateCode=FL&LCSpeciality=all&SpanishSpeaking=no", "brand": "Caliber Home Loans"}, "geometry": {"type": "Point", "coordinates": [-82.5337182, 27.3367828]}},
{"type": "Feature", "id": "q9_msc26yuLuSmLkKn8N9CR7So0=", "properties": {"ref": "1683281", "@spider": "caliber_home_loans", "addr:full": "12724 Gran Bay Parkway West  Suite 310", "addr:city": "Jacksonville", "addr:state": "FL", "addr:postcode": "32258", "name": "18695 - Jacksonville - 12724 Gran Bay Parkway West", "website": "https://www.caliberhomeloans.com/Home/BranchList?stateCode=FL&LCSpeciality=all&SpanishSpeaking=no", "brand": "Caliber Home Loans"}, "geometry": {"type": "Point", "coordinates": [-81.5319168, 30.1395695]}},
{"type": "Feature", "id": "YKL3FtGqsyrTwO0UCrnaO-fDilM=", "properties": {"ref": "1658309", "@spider": "caliber_home_loans", "addr:full": "7208 W Sand Lake Road Suite 300", "addr:city": "Orlando", "addr:state": "FL", "addr:postcode": "32819", "name": "19300 - Orlando - 7208 W Sand Lake Road", "website": "https://www.caliberhomeloans.com/Home/BranchList?stateCode=FL&LCSpeciality=all&SpanishSpeaking=no", "brand": "Caliber Home Loans"}, "geometry": {"type": "Point", "coordinates": [-81.4786163, 28.4494043]}},
{"type": "Feature", "id": "cvIf0FTAOp4l-O1FGJpHh9t2UFs=", "properties": {"ref": "1416833", "@spider": "caliber_home_loans", "addr:full": "15310 Amberly Drive Suite 250", "addr:city": "Tampa", "addr:state": "FL", "addr:postcode": "33647", "name": "19180 - Tampa - 15310 Amberly Drive", "website": "https://www.caliberhomeloans.com/Home/BranchList?stateCode=FL&LCSpeciality=all&SpanishSpeaking=no", "brand": "Caliber Home Loans"}, "geometry": {"type": "Point", "coordinates": [-82.4036645, 28.0911623]}},
{"type": "Feature", "id": "xBIoTd77hXLBSOaz14QdVartGNw=", "properties": {"ref": "1251020", "@spider": "caliber_home_loans", "addr:full": "Tamiami Trail North  Ste. A203", "addr:city": "Naples", "addr:state": "FL", "addr:postcode": "34103", "name": "19601 - Naples - 4089 Tamiami Trail North", "website": "https://www.caliberhomeloans.com/Home/BranchList?stateCode=FL&LCSpeciality=all&SpanishSpeaking=no", "brand": "Caliber Home Loans"}, "geometry": {"type": "Point", "coordinates": [-81.7998919, 26.1933745]}},
{"type": "Feature", "id": "JZ4bRDV96P1nsCBNvuyNbM8TDao=", "properties": {"ref": "1101960", "@spider": "caliber_home_loans", "addr:full": "550 W. Cypress Creek Road Suite 100", "addr:city": "Ft. Lauderdale", "addr:state": "FL", "addr:postcode": "33309", "name": "17965 - Ft. Lauderdale - 550 W. Cypress Creek Road", "website": "https://www.caliberhomeloans.com/Home/BranchList?stateCode=FL&LCSpeciality=all&SpanishSpeaking=no", "brand": "Caliber Home Loans"}, "geometry": {"type": "Point", "coordinates": [-80.1515026, 26.2018829]}},
{"type": "Feature", "id": "yBxJnH2sSFSZqFgO6dkoe6gzKY0=", "properties": {"ref": "1248604", "@spider": "caliber_home_loans", "addr:full": "277 Evernia Street  Suite MU-5", "addr:city": "West Palm Beach", "addr:state": "FL", "addr:postcode": "33401", "name": "18571 - West Palm Beach - 277 Evernia Street", "website": "https://www.caliberhomeloans.com/Home/BranchList?stateCode=FL&LCSpeciality=all&SpanishSpeaking=no", "brand": "Caliber Home Loans"}, "geometry": {"type": "Point", "coordinates": [-80.0533651, 26.7197702]}},
{"type": "Feature", "id": "GtMsLWFutlgM3QWHTI2Pmj9HTTw=", "properties": {"ref": "1397167", "@spider": "caliber_home_loans", "addr:full": "2612 W. 15th Street", "addr:city": "Panama City", "addr:state": "FL", "addr:postcode": "32401", "name": "18635 - Panama City - 2612 W. 15th Street", "website": "https://www.caliberhomeloans.com/Home/BranchList?stateCode=FL&LCSpeciality=all&SpanishSpeaking=no", "brand": "Caliber Home Loans"}, "geometry": {"type": "Point", "coordinates": [-85.6979337, 30.1757916]}},
{"type": "Feature", "id": "51EYoHbjAxJf-ADn1q1jTTWHkNM=", "properties": {"ref": "1176265", "@spider": "caliber_home_loans", "addr:full": "2 Alhambra Plaza Suite 1220", "addr:city": "Coral Gables", "addr:state": "FL", "addr:postcode": "33134", "name": "19466 - Coral Gables - 2 Alhambra Plaza", "website": "https://www.caliberhomeloans.com/Home/BranchList?stateCode=FL&LCSpeciality=all&SpanishSpeaking=no", "brand": "Caliber Home Loans"}, "geometry": {"type": "Point", "coordinates": [-80.2552342, 25.7521256]}},
{"type": "Feature", "id": "vvBukiVPH2X1Gws9-mCcBWeNGas=", "properties": {"ref": "1718751", "@spider": "caliber_home_loans", "addr:full": "2095 Indian River Blvd", "addr:city": "Vero Beach", "addr:state": "FL", "addr:postcode": "32960", "name": "18694 - Vero Beach - 2095 Indian River Blvd", "website": "https://www.caliberhomeloans.com/Home/BranchList?stateCode=FL&LCSpeciality=all&SpanishSpeaking=no", "brand": "Caliber Home Loans"}, "geometry": {"type": "Point", "coordinates": [-80.3809576, 27.6386257]}},
{"type": "Feature", "id": "8YgOSIWhYaO6aHHvebYUoSo54io=", "properties": {"ref": "1559668", "@spider": "caliber_home_loans", "addr:full": "2255 Glades Road  Suite #127", "addr:city": "Boca Raton", "addr:state": "FL", "addr:postcode": "33431", "name": "19038 - Boca Raton - 2255 Glades Road", "website": "https://www.caliberhomeloans.com/Home/BranchList?stateCode=FL&LCSpeciality=all&SpanishSpeaking=no", "brand": "Caliber Home Loans"}, "geometry": {"type": "Point", "coordinates": [-80.1263771, 26.368734]}},
{"type": "Feature", "id": "TnzlBIPWT7DL4pWr5tHpxO1gSws=", "properties": {"ref": "1740615", "@spider": "caliber_home_loans", "addr:full": "252 Harbor Village Lane Unit 236", "addr:city": "Apollo Beach", "addr:state": "FL", "addr:postcode": "33572", "name": "Apollo Beach - 252 Harbor Village Lane", "website": "https://www.caliberhomeloans.com/Home/BranchList?stateCode=FL&LCSpeciality=all&SpanishSpeaking=no", "brand": "Caliber Home Loans"}, "geometry": {"type": "Point", "coordinates": [-82.4122122, 27.7519557]}},
{"type": "Feature", "id": "j5pdNynOJe6fAlenYuKsD_DEsWM=", "properties": {"ref": "1456328", "@spider": "caliber_home_loans", "addr:full": "2875 NE 191 Street  5th Floor", "addr:city": "Aventura", "addr:state": "FL", "addr:postcode": "33180", "name": "19026 - Miami Downtown - 2875 NE 191 Street", "website": "https://www.caliberhomeloans.com/Home/BranchList?stateCode=FL&LCSpeciality=all&SpanishSpeaking=no", "brand": "Caliber Home Loans"}, "geometry": {"type": "Point", "coordinates": [-80.1433937, 25.9528158]}},
{"type": "Feature", "id": "6cuV77a3KvRuMYJtht9TxWuWCkk=", "properties": {"ref": "1054955", "@spider": "caliber_home_loans", "addr:full": "2730 E. Silver Springs Blvd. Unit 200", "addr:city": "Ocala", "addr:state": "FL", "addr:postcode": "34470", "name": "19152 - Ocala - 2730 E. Silver Springs Blvd.", "website": "https://www.caliberhomeloans.com/Home/BranchList?stateCode=FL&LCSpeciality=all&SpanishSpeaking=no", "brand": "Caliber Home Loans"}, "geometry": {"type": "Point", "coordinates": [-82.0996168, 29.1882772]}},
{"type": "Feature", "id": "RROCEzKHO0EMpu030ZbdiMY_YNM=", "properties": {"ref": "1606696", "@spider": "caliber_home_loans", "addr:full": "1688 Meridian Ave  Suite 726", "addr:city": "Miami Beach", "addr:state": "FL", "addr:postcode": "33139", "name": "19077 - Miami Beach - 1688 Meridian Ave", "website": "https://www.caliberhomeloans.com/Home/BranchList?stateCode=FL&LCSpeciality=all&SpanishSpeaking=no", "brand": "Caliber Home Loans"}, "geometry": {"type": "Point", "coordinates": [-80.1368681, 25.7917384]}},
{"type": "Feature", "id": "Cx5s5lzatzXfsmfZUnoWp4WLOVk=", "properties": {"ref": "1973489", "@spider": "caliber_home_loans", "addr:full": "5182 Oceanshore Blvd. Suite Unit 4", "addr:city": "Palm Coast", "addr:state": "FL", "addr:postcode": "32137", "name": "19474 - Palm Coast - 5182 Oceanshore Blvd.", "website": "https://www.caliberhomeloans.com/Home/BranchList?stateCode=FL&LCSpeciality=all&SpanishSpeaking=no", "brand": "Caliber Home Loans"}, "geometry": {"type": "Point", "coordinates": [-81.1943418, 29.5927598]}},
{"type": "Feature", "id": "3kVhUqApuKCFmCVcdzbDOTto-J0=", "properties": {"ref": "1371806", "@spider": "caliber_home_loans", "addr:full": "540 E Horatio Ave. Suite 100", "addr:city": "Maitland", "addr:state": "FL", "addr:postcode": "32751", "name": "Maitland", "website": "https://www.caliberhomeloans.com/Home/BranchList?stateCode=FL&LCSpeciality=all&SpanishSpeaking=no", "brand": "Caliber Home Loans"}, "geometry": {"type": "Point", "coordinates": [-81.361038, 28.6272672]}},
{"type": "Feature", "id": "zqq23ykzGhw--Z679OG-jM4rkmw=", "properties": {"ref": "2053558", "@spider": "caliber_home_loans", "addr:full": "2 Alhambra Plaza Suite 1220", "addr:city": "Coral Gables", "addr:state": "FL", "addr:postcode": "33134", "name": "19466 - Coral Gables - 2 Alhambra Plaza", "website": "https://www.caliberhomeloans.com/Home/BranchList?stateCode=FL&LCSpeciality=all&SpanishSpeaking=no", "brand": "Caliber Home Loans"}, "geometry": {"type": "Point", "coordinates": [-80.2552342, 25.7521256]}},
{"type": "Feature", "id": "hTM61Z9Qe13r-Ky_qtzD7_gcLGM=", "properties": {"ref": "1196852", "@spider": "caliber_home_loans", "addr:full": "1701 Ponce De Leon Blvd. Suite 400", "addr:city": "Coral Gables", "addr:state": "FL", "addr:postcode": "33134", "name": "19367 - Coral Gables - 1701 Ponce De Leon Blvd.", "website": "https://www.caliberhomeloans.com/Home/BranchList?stateCode=FL&LCSpeciality=all&SpanishSpeaking=no", "brand": "Caliber Home Loans"}, "geometry": {"type": "Point", "coordinates": [-80.258545, 25.7564426]}},
{"type": "Feature", "id": "0Uh-1PfAI5MnZKdepKMuXH4ztD4=", "properties": {"ref": "2090947", "@spider": "caliber_home_loans", "addr:full": "318 Tamiami Trail Unit 216", "addr:city": "Punta Gorda", "addr:state": "FL", "addr:postcode": "33950", "name": "Punta Gorda- FL", "website": "https://www.caliberhomeloans.com/Home/BranchList?stateCode=FL&LCSpeciality=all&SpanishSpeaking=no", "brand": "Caliber Home Loans"}, "geometry": {"type": "Point", "coordinates": [-82.0482904, 26.9347339]}},
{"type": "Feature", "id": "VJxsJHEZkrrsglS_x57lYiFvcXs=", "properties": {"ref": "2156329", "@spider": "caliber_home_loans", "addr:full": "1102 S. Florida Ave. Suite 118 & 119", "addr:city": "Lakeland", "addr:state": "FL", "addr:postcode": "33803", "name": "Lakeland - 1102 S. Florida Ave.", "website": "https://www.caliberhomeloans.com/Home/BranchList?stateCode=FL&LCSpeciality=all&SpanishSpeaking=no", "brand": "Caliber Home Loans"}, "geometry": {"type": "Point", "coordinates": [-81.9569123, 28.0283805]}},
{"type": "Feature", "id": "L4m-fj1EKY9uOTqwOIHeVWo-9is=", "properties": {"ref": "1945108", "@spider": "caliber_home_loans", "addr:full": "252 Harbor Village Lane Unit 236", "addr:city": "Apollo Beach", "addr:state": "FL", "addr:postcode": "33572", "name": "Apollo Beach - 252 Harbor Village Lane", "website": "https://www.caliberhomeloans.com/Home/BranchList?stateCode=FL&LCSpeciality=all&SpanishSpeaking=no", "brand": "Caliber Home Loans"}, "geometry": {"type": "Point", "coordinates": [-82.4122122, 27.7519557]}},
{"type": "Feature", "id": "dRdjBz7sOPK9JWSCgQyIqh0uXTc=", "properties": {"ref": "2180831", "@spider": "caliber_home_loans", "addr:full": "930 S. Harbor City Blvd", "addr:city": "Melbourne", "addr:state": "FL", "addr:postcode": "32901", "name": "Melbourne - 930 S. Harbor City Blvd.", "website": "https://www.caliberhomeloans.com/Home/BranchList?stateCode=FL&LCSpeciality=all&SpanishSpeaking=no", "brand": "Caliber Home Loans"}, "geometry": {"type": "Point", "coordinates": [-80.6116284, 28.0949337]}},
{"type": "Feature", "id": "XzZQEdFLDwOWcl-sCVp2jFHG-rE=", "properties": {"ref": "1612922", "@spider": "caliber_home_loans", "addr:full": "3405 E. Overland Rd.  Ste. 105", "addr:city": "Meridian", "addr:state": "ID", "addr:postcode": "83642", "name": "19558 - Meridian - 3405 E. Overland Rd", "website": "https://www.caliberhomeloans.com/Home/BranchList?stateCode=ID&LCSpeciality=all&SpanishSpeaking=no", "brand": "Caliber Home Loans"}, "geometry": {"type": "Point", "coordinates": [-116.3522256, 43.5891903]}},
{"type": "Feature", "id": "iKZIhpGPg-Zi8YA-2QobWofhbAA=", "properties": {"ref": "1748684", "@spider": "caliber_home_loans", "addr:full": "120 East Lake St Suite 313", "addr:city": "Sandpoint", "addr:state": "ID", "addr:postcode": "83864", "name": "19276 - Idaho - 120 East Lake St", "website": "https://www.caliberhomeloans.com/Home/BranchList?stateCode=ID&LCSpeciality=all&SpanishSpeaking=no", "brand": "Caliber Home Loans"}, "geometry": {"type": "Point", "coordinates": [-116.5480792, 48.2723417]}},
{"type": "Feature", "id": "uEshvfpvllFWRJnQPAQTltX0xz8=", "properties": {"ref": "1905353", "@spider": "caliber_home_loans", "addr:full": "3413 South Merlin Dr. Suite 200", "addr:city": "Idaho Falls", "addr:state": "ID", "addr:postcode": "83404", "name": "19406 - Idaho Falls - 3413 South Merlin Dr.", "website": "https://www.caliberhomeloans.com/Home/BranchList?stateCode=ID&LCSpeciality=all&SpanishSpeaking=no", "brand": "Caliber Home Loans"}, "geometry": {"type": "Point", "coordinates": [-111.9989204, 43.4670456]}},
{"type": "Feature", "id": "-Fr-RMgfzw4SgWkmykl4YhpCuIE=", "properties": {"ref": "1833578", "@spider": "caliber_home_loans", "addr:full": "310 East 2nd North", "addr:city": "Mountain Home", "addr:state": "ID", "addr:postcode": "83647", "name": "19343 - Mountain Home - 310 East 2nd North", "website": "https://www.caliberhomeloans.com/Home/BranchList?stateCode=ID&LCSpeciality=all&SpanishSpeaking=no", "brand": "Caliber Home Loans"}, "geometry": {"type": "Point", "coordinates": [-115.6927697, 43.1326278]}},
{"type": "Feature", "id": "zuvyjGs8gGe2lERHYLQaadgj5GQ=", "properties": {"ref": "1235774", "@spider": "caliber_home_loans", "addr:full": "123 S. Third Avenue, Suite 6A", "addr:city": "Sandpoint", "addr:state": "ID", "addr:postcode": "83864", "name": "Sandpoint Third Avenue", "website": "https://www.caliberhomeloans.com/Home/BranchList?stateCode=ID&LCSpeciality=all&SpanishSpeaking=no", "brand": "Caliber Home Loans"}, "geometry": {"type": "Point", "coordinates": [-116.5499514, 48.2724125]}},
{"type": "Feature", "id": "fzJeJR5P6Z1mQATERMdc5bAKEOs=", "properties": {"ref": "1642669", "@spider": "caliber_home_loans", "addr:full": "1288 Rickert Drive Suite 100", "addr:city": "Naperville", "addr:state": "IL", "addr:postcode": "60540", "name": "19175 - Naperville - 1288 Rickert Drive", "website": "https://www.caliberhomeloans.com/Home/BranchList?stateCode=IL&LCSpeciality=all&SpanishSpeaking=no", "brand": "Caliber Home Loans"}, "geometry": {"type": "Point", "coordinates": [-88.1670618, 41.74985]}},
{"type": "Feature", "id": "ScZBlHR2u7EKcjFVMg49r_Y5PFQ=", "properties": {"ref": "1737952", "@spider": "caliber_home_loans", "addr:full": "1431 Opus Place  Suite 135", "addr:city": "Downers Grove", "addr:state": "IL", "addr:postcode": "60515", "name": "18891 - Downers Grove - 1431 Opus Place", "website": "https://www.caliberhomeloans.com/Home/BranchList?stateCode=IL&LCSpeciality=all&SpanishSpeaking=no", "brand": "Caliber Home Loans"}, "geometry": {"type": "Point", "coordinates": [-88.0230679, 41.8282565]}},
{"type": "Feature", "id": "v02NE377OBp92YgKaInsaP_MJsc=", "properties": {"ref": "1176846", "@spider": "caliber_home_loans", "addr:full": "760 N. Ogden Avenue  Suite 2200", "addr:city": "Chicago", "addr:state": "IL", "addr:postcode": "60642", "name": "18164 - Chicago - 760 N. Ogden Avenue", "website": "https://www.caliberhomeloans.com/Home/BranchList?stateCode=IL&LCSpeciality=all&SpanishSpeaking=no", "brand": "Caliber Home Loans"}, "geometry": {"type": "Point", "coordinates": [-87.6552848, 41.8958301]}},
{"type": "Feature", "id": "y3YcazBN5tc18bMxIsjDpwScZGw=", "properties": {"ref": "1456922", "@spider": "caliber_home_loans", "addr:full": "1431 Opus Place  Suite 135", "addr:city": "Downers Grove", "addr:state": "IL", "addr:postcode": "60515", "name": "18891 - Downers Grove - 1431 Opus Place", "website": "https://www.caliberhomeloans.com/Home/BranchList?stateCode=IL&LCSpeciality=all&SpanishSpeaking=no", "brand": "Caliber Home Loans"}, "geometry": {"type": "Point", "coordinates": [-88.0230859, 41.8281441]}},
{"type": "Feature", "id": "A40m2JYJiHc7xHhpRegOve5uYgA=", "properties": {"ref": "1468472", "@spider": "caliber_home_loans", "addr:full": "34121 N. Hwy 45  Unit 7A", "addr:city": "Grayslake", "addr:state": "IL", "addr:postcode": "60030", "name": "18884 - Grayslake - 34121 N. Hwy 45", "website": "https://www.caliberhomeloans.com/Home/BranchList?stateCode=IL&LCSpeciality=all&SpanishSpeaking=no", "brand": "Caliber Home Loans"}, "geometry": {"type": "Point", "coordinates": [-88.0007588, 42.3585618]}},
{"type": "Feature", "id": "bgzBU3GPPJ6DJbkM_FYgM6KvTQs=", "properties": {"ref": "1814137", "@spider": "caliber_home_loans", "addr:full": "503 East Church St.", "addr:city": "Sandwich", "addr:state": "IL", "addr:postcode": "60548", "name": "DR - Swanson Real Estate", "website": "https://www.caliberhomeloans.com/Home/BranchList?stateCode=IL&LCSpeciality=all&SpanishSpeaking=no", "brand": "Caliber Home Loans"}, "geometry": {"type": "Point", "coordinates": [-88.61537, 41.6450341]}},
{"type": "Feature", "id": "7Q9PajmHYrrSfBk0b7QMk4Rj6xU=", "properties": {"ref": "1043622", "@spider": "caliber_home_loans", "addr:full": "2886 W. Willow Knolls Road", "addr:city": "Peoria", "addr:state": "IL", "addr:postcode": "61614", "name": "18166 - Peoria - 2886 W. Willow Knolls Road", "website": "https://www.caliberhomeloans.com/Home/BranchList?stateCode=IL&LCSpeciality=all&SpanishSpeaking=no", "brand": "Caliber Home Loans"}, "geometry": {"type": "Point", "coordinates": [-89.636455, 40.7758929]}},
{"type": "Feature", "id": "ceUndzUpFCjaz4lrgP7IB0aTat8=", "properties": {"ref": "1720876", "@spider": "caliber_home_loans", "addr:full": "10-B Schaumburg Rd.", "addr:city": "Schaumburg", "addr:state": "IL", "addr:postcode": "60194", "name": "19242 - Schaumburg - 10-B Schaumburg Rd.", "website": "https://www.caliberhomeloans.com/Home/BranchList?stateCode=IL&LCSpeciality=all&SpanishSpeaking=no", "brand": "Caliber Home Loans"}, "geometry": {"type": "Point", "coordinates": [-88.0808013, 42.0275907]}},
{"type": "Feature", "id": "oGYqKmsKCDNf7FJFArRiI9aNFcU=", "properties": {"ref": "1529614", "@spider": "caliber_home_loans", "addr:full": "3514 46th Avenue", "addr:city": "Rock Island", "addr:state": "IL", "addr:postcode": "61201", "name": "19006 - Moline - 3514 46th Avenue", "website": "https://www.caliberhomeloans.com/Home/BranchList?stateCode=IL&LCSpeciality=all&SpanishSpeaking=no", "brand": "Caliber Home Loans"}, "geometry": {"type": "Point", "coordinates": [-90.5505066, 41.4658781]}},
{"type": "Feature", "id": "Yspll4s86eCZT9i1ukzYtrwuQTA=", "properties": {"ref": "90126", "@spider": "caliber_home_loans", "addr:full": "226 W. Adams St. Suite B", "addr:city": "Morton", "addr:state": "IL", "addr:postcode": "61550", "name": "90126 - DR - Sandy Glover- 226 W Adams St", "website": "https://www.caliberhomeloans.com/Home/BranchList?stateCode=IL&LCSpeciality=all&SpanishSpeaking=no", "brand": "Caliber Home Loans"}, "geometry": {"type": "Point", "coordinates": [-89.4651706, 40.6104032]}},
{"type": "Feature", "id": "Xw2VkwC0VVTPIvzsRG5tcFNqe9Y=", "properties": {"ref": "1836283", "@spider": "caliber_home_loans", "addr:full": "10401 N. Meridian Street Suite 160", "addr:city": "Carmel", "addr:state": "IN", "addr:postcode": "46290", "name": "19310 - Carmel - 10401 N. Meridian Street", "website": "https://www.caliberhomeloans.com/Home/BranchList?stateCode=IN&LCSpeciality=all&SpanishSpeaking=no", "brand": "Caliber Home Loans"}, "geometry": {"type": "Point", "coordinates": [-86.1564964, 39.9389714]}},
{"type": "Feature", "id": "VJztmZpIiqTwlVqtrwQzmFxnd2Q=", "properties": {"ref": "1122450", "@spider": "caliber_home_loans", "addr:full": "10315 Dawsons Creek Blvd  Suite D", "addr:city": "Fort Wayne", "addr:state": "IN", "addr:postcode": "46825", "name": "17121 - Fort Wayne - 10315 Dawsons Creek Blvd.", "website": "https://www.caliberhomeloans.com/Home/BranchList?stateCode=IN&LCSpeciality=all&SpanishSpeaking=no", "brand": "Caliber Home Loans"}, "geometry": {"type": "Point", "coordinates": [-85.1460324, 41.1771348]}},
{"type": "Feature", "id": "3XzInfWngYYK-98YJU85AabXK6k=", "properties": {"ref": "15622-525374", "@spider": "caliber_home_loans", "addr:full": "10106 Brooks School Rd. Ste. 200", "addr:city": "Fishers", "addr:state": "IN", "addr:postcode": "46037", "name": "19372 - Fishers(Geist)  IN - 10106 Brooks School Rd.", "website": "https://www.caliberhomeloans.com/Home/BranchList?stateCode=IN&LCSpeciality=all&SpanishSpeaking=no", "brand": "Caliber Home Loans"}, "geometry": {"type": "Point", "coordinates": [-85.9481672, 39.9348672]}},
{"type": "Feature", "id": "XgTW_bVtSWoi9rMUt0ht4xW30Ls=", "properties": {"ref": "1499556", "@spider": "caliber_home_loans", "addr:full": "10022 Lantern Road  Suite 600", "addr:city": "Fishers", "addr:state": "IN", "addr:postcode": "46038", "name": "17853 - Indy North - 10022 Lantern Road", "website": "https://www.caliberhomeloans.com/Home/BranchList?stateCode=IN&LCSpeciality=all&SpanishSpeaking=no", "brand": "Caliber Home Loans"}, "geometry": {"type": "Point", "coordinates": [-86.0143462, 39.9333794]}},
{"type": "Feature", "id": "JCNTAUyN0qo17WjckDqx_tiwpLU=", "properties": {"ref": "15622-314263", "@spider": "caliber_home_loans", "addr:full": "123 E. 113th Ave.", "addr:city": "Crown Point", "addr:state": "IN", "addr:postcode": "46307", "name": "19423 - Crown Point - 123 E. 113th Ave.", "website": "https://www.caliberhomeloans.com/Home/BranchList?stateCode=IN&LCSpeciality=all&SpanishSpeaking=no", "brand": "Caliber Home Loans"}, "geometry": {"type": "Point", "coordinates": [-87.3349958, 41.4128012]}},
{"type": "Feature", "id": "5AB-NIQm-Djb5l5n5GlT_2ywXrI=", "properties": {"ref": "15622-47906", "@spider": "caliber_home_loans", "addr:full": "500 Sagamore Parkway W.  Suite 4W", "addr:city": "West Lafayette", "addr:state": "IN", "addr:postcode": "47906", "name": "18638 - Lafayette- 500 Sagamore Parkway W", "website": "https://www.caliberhomeloans.com/Home/BranchList?stateCode=IN&LCSpeciality=all&SpanishSpeaking=no", "brand": "Caliber Home Loans"}, "geometry": {"type": "Point", "coordinates": [-86.9122434, 40.4542]}},
{"type": "Feature", "id": "sE99C4TBiyXL812riw_-qQG6T3M=", "properties": {"ref": "15622-525365", "@spider": "caliber_home_loans", "addr:full": "10080 E. US Hwy 36  Suite C", "addr:city": "Avon", "addr:state": "IN", "addr:postcode": "46123", "name": "16548 - Avon - 10080 E. US Hwy 36", "website": "https://www.caliberhomeloans.com/Home/BranchList?stateCode=IN&LCSpeciality=all&SpanishSpeaking=no", "brand": "Caliber Home Loans"}, "geometry": {"type": "Point", "coordinates": [-86.3441502, 39.7641964]}},
{"type": "Feature", "id": "jFInaVldorujIisX-moXaUU9wLw=", "properties": {"ref": "15622-47304", "@spider": "caliber_home_loans", "addr:full": "3621 N. Everbrook Lane suite 3", "addr:city": "Muncie", "addr:state": "IN", "addr:postcode": "47304", "name": "Muncie - 3621 N. Everbrook Lane suite 3", "website": "https://www.caliberhomeloans.com/Home/BranchList?stateCode=IN&LCSpeciality=all&SpanishSpeaking=no", "brand": "Caliber Home Loans"}, "geometry": {"type": "Point", "coordinates": [-85.427165, 40.222612]}},
{"type": "Feature", "id": "qnqRQDyOZF5cf0oBi22BazzEi1g=", "properties": {"ref": "15622-525367", "@spider": "caliber_home_loans", "addr:full": "2907 Enterprise Drive", "addr:city": "Anderson", "addr:state": "IN", "addr:postcode": "46013", "name": "18284 - Anderson - 2907 Enterprise Drive", "website": "https://www.caliberhomeloans.com/Home/BranchList?stateCode=IN&LCSpeciality=all&SpanishSpeaking=no", "brand": "Caliber Home Loans"}, "geometry": {"type": "Point", "coordinates": [-85.727337, 40.037116]}},
{"type": "Feature", "id": "R_ZTlkTtxFpJ4Ys8Qnh-fjFdShk=", "properties": {"ref": "15622-525366", "@spider": "caliber_home_loans", "addr:full": "1260 N. Post Road  Suite B", "addr:city": "Indianapolis", "addr:state": "IN", "addr:postcode": "46219", "name": "18267 - Indy East - 1260 N. Post Road", "website": "https://www.caliberhomeloans.com/Home/BranchList?stateCode=IN&LCSpeciality=all&SpanishSpeaking=no", "brand": "Caliber Home Loans"}, "geometry": {"type": "Point", "coordinates": [-86.0097256, 39.7862598]}},
{"type": "Feature", "id": "6AwQc1QY2P_lzO__zZS7A-wHZP0=", "properties": {"ref": "1777645", "@spider": "caliber_home_loans", "addr:full": "8190 Windfall Lane  Suite D", "addr:city": "Camby", "addr:state": "IN", "addr:postcode": "46113", "name": "16784 - Mooresville - 8190 Windfall Lane", "website": "https://www.caliberhomeloans.com/Home/BranchList?stateCode=IN&LCSpeciality=all&SpanishSpeaking=no", "brand": "Caliber Home Loans"}, "geometry": {"type": "Point", "coordinates": [-86.3309024, 39.6443893]}},
{"type": "Feature", "id": "x62s4oeO0vmNDgHX7ei5XYC1puI=", "properties": {"ref": "1161654", "@spider": "caliber_home_loans", "addr:full": "3427 N. Green River Road", "addr:city": "Evansville", "addr:state": "IN", "addr:postcode": "47715", "name": "19072 - Evansville - 3427 N. Green River", "website": "https://www.caliberhomeloans.com/Home/BranchList?stateCode=IN&LCSpeciality=all&SpanishSpeaking=no", "brand": "Caliber Home Loans"}, "geometry": {"type": "Point", "coordinates": [-87.4915395, 38.0094181]}},
{"type": "Feature", "id": "lcIxpox7Yf2VCB795e-R_bIw_AU=", "properties": {"ref": "18193", "@spider": "caliber_home_loans", "addr:full": "549 E. County Line Road  Suite B", "addr:city": "Greenwood", "addr:state": "IN", "addr:postcode": "46143", "name": "18193 - Greenwood - 549 E. County Line Road", "website": "https://www.caliberhomeloans.com/Home/BranchList?stateCode=IN&LCSpeciality=all&SpanishSpeaking=no", "brand": "Caliber Home Loans"}, "geometry": {"type": "Point", "coordinates": [-86.0938251, 39.6352756]}},
{"type": "Feature", "id": "k09a_7lQqlepOp7YiyVKOU0ftVo=", "properties": {"ref": "1043585", "@spider": "caliber_home_loans", "addr:full": "1900 State Street Suite 2", "addr:city": "Bettendorf", "addr:state": "IA", "addr:postcode": "52722", "name": "19261 - Bettendorf - 1900 State Street", "website": "https://www.caliberhomeloans.com/Home/BranchList?stateCode=IA&LCSpeciality=all&SpanishSpeaking=no", "brand": "Caliber Home Loans"}, "geometry": {"type": "Point", "coordinates": [-90.5054801, 41.5255555]}},
{"type": "Feature", "id": "t5L0u6KOnMYyXqwiCFa38RyKQHQ=", "properties": {"ref": "15622", "@spider": "caliber_home_loans", "addr:full": "10975 Grandview St. Suite 175", "addr:city": "Overland Park", "addr:state": "KS", "addr:postcode": "66210", "name": "19243 - Overland Park - 10975 Grandview St.", "website": "https://www.caliberhomeloans.com/Home/BranchList?stateCode=KS&LCSpeciality=all&SpanishSpeaking=no", "brand": "Caliber Home Loans"}, "geometry": {"type": "Point", "coordinates": [-94.70189, 38.9193108]}},
{"type": "Feature", "id": "4PmFskoGlut-ZFBYHxIIy9Xx6qk=", "properties": {"ref": "1670665", "@spider": "caliber_home_loans", "addr:full": "10975 Grandview St. Suite 175", "addr:city": "Overland Park", "addr:state": "KS", "addr:postcode": "66210", "name": "19243 - Overland Park - 10975 Grandview St.", "website": "https://www.caliberhomeloans.com/Home/BranchList?stateCode=KS&LCSpeciality=all&SpanishSpeaking=no", "brand": "Caliber Home Loans"}, "geometry": {"type": "Point", "coordinates": [-94.6902843, 38.928769]}},
{"type": "Feature", "id": "L6R4ljFzbLINiy14JwdQW942Iu0=", "properties": {"ref": "167066", "@spider": "caliber_home_loans", "addr:full": "10975 Grandview St. Suite 175", "addr:city": "Overland Park", "addr:state": "KS", "addr:postcode": "66210", "name": "19243 - Overland Park - 10975 Grandview St.", "website": "https://www.caliberhomeloans.com/Home/BranchList?stateCode=KS&LCSpeciality=all&SpanishSpeaking=no", "brand": "Caliber Home Loans"}, "geometry": {"type": "Point", "coordinates": [-94.6902198, 38.9288138]}},
{"type": "Feature", "id": "uJaZR0bmPFwGY4YBWZin1Qq32Dg=", "properties": {"ref": "1043655", "@spider": "caliber_home_loans", "addr:full": "2136 Chamber Center Drive", "addr:city": "Ft. Mitchell", "addr:state": "KY", "addr:postcode": "41017", "name": "18883 - Florence - 2136 Chamber Center Drive", "website": "https://www.caliberhomeloans.com/Home/BranchList?stateCode=KY&LCSpeciality=all&SpanishSpeaking=no", "brand": "Caliber Home Loans"}, "geometry": {"type": "Point", "coordinates": [-84.567662, 39.044216]}},
{"type": "Feature", "id": "9ZvtG5eDtrkSiX024d4QFvSKqlw=", "properties": {"ref": "1777923", "@spider": "caliber_home_loans", "addr:full": "2220 Grandview Drive Suite 125", "addr:city": "Fort Mitchell", "addr:state": "KY", "addr:postcode": "41017", "name": "19284 - Kentucky - 2220 Grandview Drive", "website": "https://www.caliberhomeloans.com/Home/BranchList?stateCode=KY&LCSpeciality=all&SpanishSpeaking=no", "brand": "Caliber Home Loans"}, "geometry": {"type": "Point", "coordinates": [-84.5695661, 39.0511824]}},
{"type": "Feature", "id": "Nj5TVJflkF0r_6-LyBhVYpSyUuo=", "properties": {"ref": "1765081", "@spider": "caliber_home_loans", "addr:full": "2333 Alexandria Drive  Suite 118 and 119", "addr:city": "Lexington", "addr:state": "KY", "addr:postcode": "40504", "name": "19302 -Lexington - 2333 Alexandria Drive", "website": "https://www.caliberhomeloans.com/Home/BranchList?stateCode=KY&LCSpeciality=all&SpanishSpeaking=no", "brand": "Caliber Home Loans"}, "geometry": {"type": "Point", "coordinates": [-84.5514162, 38.0187486]}},
{"type": "Feature", "id": "DpiHZgBybYq9WJwrGf61IHtRWe0=", "properties": {"ref": "1043661", "@spider": "caliber_home_loans", "addr:full": "2136 Chamber Center Drive", "addr:city": "Ft. Mitchell", "addr:state": "KY", "addr:postcode": "41017", "name": "18883 - Florence - 2136 Chamber Center Drive", "website": "https://www.caliberhomeloans.com/Home/BranchList?stateCode=KY&LCSpeciality=all&SpanishSpeaking=no", "brand": "Caliber Home Loans"}, "geometry": {"type": "Point", "coordinates": [-84.567662, 39.044216]}},
{"type": "Feature", "id": "_DPTA-5yjUhFz7hAwk95nQ13b_o=", "properties": {"ref": "1184739", "@spider": "caliber_home_loans", "addr:full": "833 Valley College Drive  Suite 9", "addr:city": "Louisville", "addr:state": "KY", "addr:postcode": "40272", "name": "19028 - TM Real LLC - 833 Valley College Drive", "website": "https://www.caliberhomeloans.com/Home/BranchList?stateCode=KY&LCSpeciality=all&SpanishSpeaking=no", "brand": "Caliber Home Loans"}, "geometry": {"type": "Point", "coordinates": [-85.8448857, 38.1173551]}},
{"type": "Feature", "id": "Hl3q9-KwO5712mPvrzoj1OQmf3k=", "properties": {"ref": "1394719", "@spider": "caliber_home_loans", "addr:full": "3421 N. Causeway Boulevard  Ste.404", "addr:city": "Metairie", "addr:state": "LA", "addr:postcode": "70002", "name": "18885 - New Orleans 2 -3421 N. Causeway Boulevard", "website": "https://www.caliberhomeloans.com/Home/BranchList?stateCode=LA&LCSpeciality=all&SpanishSpeaking=no", "brand": "Caliber Home Loans"}, "geometry": {"type": "Point", "coordinates": [-90.154532, 30.0116502]}},
{"type": "Feature", "id": "0670QQV7zOmXbsW3InGYwxiDMvA=", "properties": {"ref": "1043671", "@spider": "caliber_home_loans", "addr:full": "8575 Fern Avenue  Suite 108", "addr:city": "Shreveport", "addr:state": "LA", "addr:postcode": "71105", "name": "16308 - Shreveport - 8575 Fern Avenue", "website": "https://www.caliberhomeloans.com/Home/BranchList?stateCode=LA&LCSpeciality=all&SpanishSpeaking=no", "brand": "Caliber Home Loans"}, "geometry": {"type": "Point", "coordinates": [-93.7224867, 32.4259836]}},
{"type": "Feature", "id": "8L7Kr4f7rCBR5JOzmZZ36LkyOZ8=", "properties": {"ref": "1403159", "@spider": "caliber_home_loans", "addr:full": "4979 Bluebonnet Blvd.  Suite B", "addr:city": "Baton Rouge", "addr:state": "LA", "addr:postcode": "70809", "name": "18752 - Baton Rouge - 4979 Bluebonnet Blvd", "website": "https://www.caliberhomeloans.com/Home/BranchList?stateCode=LA&LCSpeciality=all&SpanishSpeaking=no", "brand": "Caliber Home Loans"}, "geometry": {"type": "Point", "coordinates": [-91.0818335, 30.4031481]}},
{"type": "Feature", "id": "379MSvlUFoUN1G_-4T2bA2UQDa0=", "properties": {"ref": "1480386", "@spider": "caliber_home_loans", "addr:full": "75 Market Street Suite 401 404", "addr:city": "Portland", "addr:state": "ME", "addr:postcode": "04101", "name": "19047 - Portland - 75 Market St.", "website": "https://www.caliberhomeloans.com/Home/BranchList?stateCode=ME&LCSpeciality=all&SpanishSpeaking=no", "brand": "Caliber Home Loans"}, "geometry": {"type": "Point", "coordinates": [-70.2531854, 43.6569066]}},
{"type": "Feature", "id": "v2lqmZnbx3-55NOwJczwnMCe1yA=", "properties": {"ref": "1043758", "@spider": "caliber_home_loans", "addr:full": "2600 Tower Oaks Blvd. Suite 100", "addr:city": "Rockville", "addr:state": "MD", "addr:postcode": "20852", "name": "19402 - Rockville - 2600 Tower Oaks Blvd.", "website": "https://www.caliberhomeloans.com/Home/BranchList?stateCode=MD&LCSpeciality=all&SpanishSpeaking=no", "brand": "Caliber Home Loans"}, "geometry": {"type": "Point", "coordinates": [-77.1541785, 39.0624614]}},
{"type": "Feature", "id": "H4YUFV3hetg1FpzYD8Kft1MQU7I=", "properties": {"ref": "1186447", "@spider": "caliber_home_loans", "addr:full": "1829 Reisterstown Road  Suite 150", "addr:city": "Pikesville", "addr:state": "MD", "addr:postcode": "21208", "name": "18282 - Pikesville - 1829 Reisterstown Road", "website": "https://www.caliberhomeloans.com/Home/BranchList?stateCode=MD&LCSpeciality=all&SpanishSpeaking=no", "brand": "Caliber Home Loans"}, "geometry": {"type": "Point", "coordinates": [-76.7376209, 39.3893813]}},
{"type": "Feature", "id": "XEca7y08rT2s9jX6QRx_ory5Y6s=", "properties": {"ref": "1043781", "@spider": "caliber_home_loans", "addr:full": "6404 Ivy Lane  Suite 700", "addr:city": "Greenbelt", "addr:state": "MD", "addr:postcode": "20770", "name": "17365 - Greenbelt - 6404 Ivy Lane", "website": "https://www.caliberhomeloans.com/Home/BranchList?stateCode=MD&LCSpeciality=all&SpanishSpeaking=no", "brand": "Caliber Home Loans"}, "geometry": {"type": "Point", "coordinates": [-76.8961724, 39.0093275]}},
{"type": "Feature", "id": "TM-0kNXPFIm9TkVvt68T_CAFVac=", "properties": {"ref": "1043512", "@spider": "caliber_home_loans", "addr:full": "185 Admiral Cochrane Drive  Suite 205", "addr:city": "Annapolis", "addr:state": "MD", "addr:postcode": "21401", "name": "18562 - Annapolis - 185 Admiral Cochrane Drive", "website": "https://www.caliberhomeloans.com/Home/BranchList?stateCode=MD&LCSpeciality=all&SpanishSpeaking=no", "brand": "Caliber Home Loans"}, "geometry": {"type": "Point", "coordinates": [-76.548554, 38.973439]}},
{"type": "Feature", "id": "UIv0r0L6Oso_XfTqsmEgWp5xfb0=", "properties": {"ref": "1043764", "@spider": "caliber_home_loans", "addr:full": "10500 Little Patuxent Parkway  Suite 750", "addr:city": "Columbia", "addr:state": "MD", "addr:postcode": "21044", "name": "18515 - Columbia - 10500 Little Patuxent Parkway", "website": "https://www.caliberhomeloans.com/Home/BranchList?stateCode=MD&LCSpeciality=all&SpanishSpeaking=no", "brand": "Caliber Home Loans"}, "geometry": {"type": "Point", "coordinates": [-76.8644388, 39.2118919]}},
{"type": "Feature", "id": "8r2BbtsKU0gzI5z3qXxgREhEBq8=", "properties": {"ref": "1439777", "@spider": "caliber_home_loans", "addr:full": "225 Schilling Circle  Suites 190-195", "addr:city": "Hunt Valley", "addr:state": "MD", "addr:postcode": "21031", "name": "18791 - Hunt Valley - 225 Schilling Circle", "website": "https://www.caliberhomeloans.com/Home/BranchList?stateCode=MD&LCSpeciality=all&SpanishSpeaking=no", "brand": "Caliber Home Loans"}, "geometry": {"type": "Point", "coordinates": [-76.6634704, 39.4907953]}},
{"type": "Feature", "id": "ztAoXVTod_EruwzQrPeia9WaP5g=", "properties": {"ref": "2009163", "@spider": "caliber_home_loans", "addr:full": "5285 Westview Dr. Suite 206", "addr:city": "Frederick", "addr:state": "MD", "addr:postcode": "21703", "name": "19429 - Frederick - 5285 Westview Dr.", "website": "https://www.caliberhomeloans.com/Home/BranchList?stateCode=MD&LCSpeciality=all&SpanishSpeaking=no", "brand": "Caliber Home Loans"}, "geometry": {"type": "Point", "coordinates": [-77.4136264, 39.3821778]}},
{"type": "Feature", "id": "WBHHX1_9oepmcwKBZY5NLf53xhE=", "properties": {"ref": "2035764", "@spider": "caliber_home_loans", "addr:full": "3140 W. Ward Rd. Suite 101", "addr:city": "Dunkirk", "addr:state": "MD", "addr:postcode": "20754", "name": "19499 - Dunkirk - 3140 W. Ward Rd.", "website": "https://www.caliberhomeloans.com/Home/BranchList?stateCode=MD&LCSpeciality=all&SpanishSpeaking=no", "brand": "Caliber Home Loans"}, "geometry": {"type": "Point", "coordinates": [-76.6626583, 38.7177103]}},
{"type": "Feature", "id": "0NqeBlWUaXLq1zSMvdN8zNLmYnA=", "properties": {"ref": "1711741", "@spider": "caliber_home_loans", "addr:full": "225 Schilling Circle  Suites 190-195", "addr:city": "Hunt Valley", "addr:state": "MD", "addr:postcode": "21031", "name": "18791 - Hunt Valley - 225 Schilling Circle", "website": "https://www.caliberhomeloans.com/Home/BranchList?stateCode=MD&LCSpeciality=all&SpanishSpeaking=no", "brand": "Caliber Home Loans"}, "geometry": {"type": "Point", "coordinates": [-76.6634704, 39.4907953]}},
{"type": "Feature", "id": "h0Iy0QjNy5TZf9qbffjmub4goCw=", "properties": {"ref": "1916762", "@spider": "caliber_home_loans", "addr:full": "10 Elm Street", "addr:city": "Danvers", "addr:state": "MA", "addr:postcode": "01923", "name": "19550 - Danvers - 10 Elm Street", "website": "https://www.caliberhomeloans.com/Home/BranchList?stateCode=MA&LCSpeciality=all&SpanishSpeaking=no", "brand": "Caliber Home Loans"}, "geometry": {"type": "Point", "coordinates": [-70.935809, 42.564879]}},
{"type": "Feature", "id": "GykLmLFljejtaDMcWmTlch-cEo4=", "properties": {"ref": "1692980", "@spider": "caliber_home_loans", "addr:full": "128 Union St Suite 101", "addr:city": "New Bedford", "addr:state": "MA", "addr:postcode": "02740", "name": "19217 - New Bedford - 128 Union St", "website": "https://www.caliberhomeloans.com/Home/BranchList?stateCode=MA&LCSpeciality=all&SpanishSpeaking=no", "brand": "Caliber Home Loans"}, "geometry": {"type": "Point", "coordinates": [-70.9244485, 41.6337604]}},
{"type": "Feature", "id": "jC0ZorMHMM_4ASnkkQQ1xVwtXrA=", "properties": {"ref": "1610902", "@spider": "caliber_home_loans", "addr:full": "92 Mill Street", "addr:city": "Rochester", "addr:state": "MI", "addr:postcode": "48307", "name": "18793 - Rochester - 92 Mill Street", "website": "https://www.caliberhomeloans.com/Home/BranchList?stateCode=MI&LCSpeciality=all&SpanishSpeaking=no", "brand": "Caliber Home Loans"}, "geometry": {"type": "Point", "coordinates": [-83.1335744, 42.6769482]}},
{"type": "Feature", "id": "ffbh9Dfa6KVCWOeNLzX8JlmPAc0=", "properties": {"ref": "1621899", "@spider": "caliber_home_loans", "addr:full": "134 Main Centre", "addr:city": "Northville", "addr:state": "MI", "addr:postcode": "48167", "name": "19037 - Northville - 134 Main Centre", "website": "https://www.caliberhomeloans.com/Home/BranchList?stateCode=MI&LCSpeciality=all&SpanishSpeaking=no", "brand": "Caliber Home Loans"}, "geometry": {"type": "Point", "coordinates": [-83.4835115, 42.4305308]}},
{"type": "Feature", "id": "KrfTCvYm5G5ds6vLXccA-kDDygk=", "properties": {"ref": "1623151", "@spider": "caliber_home_loans", "addr:full": "300 E. Front Street  Suite 240", "addr:city": "Traverse City", "addr:state": "MI", "addr:postcode": "49684", "name": "19030 - Traverse City-300 E. Front Street", "website": "https://www.caliberhomeloans.com/Home/BranchList?stateCode=MI&LCSpeciality=all&SpanishSpeaking=no", "brand": "Caliber Home Loans"}, "geometry": {"type": "Point", "coordinates": [-85.6179095, 44.7638678]}},
{"type": "Feature", "id": "y9LP0oW7Qf9UtSjufC-o9aFf15E=", "properties": {"ref": "1614503", "@spider": "caliber_home_loans", "addr:full": "51315 Mound Road", "addr:city": "Shelby Township", "addr:state": "MI", "addr:postcode": "48316", "name": "18903 - Detroit East - 51315 Mound Road", "website": "https://www.caliberhomeloans.com/Home/BranchList?stateCode=MI&LCSpeciality=all&SpanishSpeaking=no", "brand": "Caliber Home Loans"}, "geometry": {"type": "Point", "coordinates": [-83.0543129, 42.671562]}},
{"type": "Feature", "id": "RRaXRCXl8ZVwsQS7M77j-faxjJU=", "properties": {"ref": "19229", "@spider": "caliber_home_loans", "addr:full": "177 N. Main Street Suite 210", "addr:city": "Plymouth", "addr:state": "MI", "addr:postcode": "48170", "name": "19229 - Plymouth - 177 N. Main Street", "website": "https://www.caliberhomeloans.com/Home/BranchList?stateCode=MI&LCSpeciality=all&SpanishSpeaking=no", "brand": "Caliber Home Loans"}, "geometry": {"type": "Point", "coordinates": [-83.4659806, 42.3741529]}},
{"type": "Feature", "id": "3287zsn3bXmgehNHa0Vp7-2i78o=", "properties": {"ref": "1933625", "@spider": "caliber_home_loans", "addr:full": "12900 Hall Rd Suite 455", "addr:city": "Sterling Heights", "addr:state": "MI", "addr:postcode": "48313", "name": "19241 - Sterling Heights - 12900 Hall Rd", "website": "https://www.caliberhomeloans.com/Home/BranchList?stateCode=MI&LCSpeciality=all&SpanishSpeaking=no", "brand": "Caliber Home Loans"}, "geometry": {"type": "Point", "coordinates": [-83.0004654, 42.6253986]}},
{"type": "Feature", "id": "753xj7PTUwbXhJXwQ7ISK6qv1V4=", "properties": {"ref": "2014226", "@spider": "caliber_home_loans", "addr:full": "128 Columbus Avenue", "addr:city": "Grand Haven", "addr:state": "MI", "addr:postcode": "49417", "name": "19323 - Grand Haven - 128 Columbus Ave", "website": "https://www.caliberhomeloans.com/Home/BranchList?stateCode=MI&LCSpeciality=all&SpanishSpeaking=no", "brand": "Caliber Home Loans"}, "geometry": {"type": "Point", "coordinates": [-86.2314909, 43.0649151]}},
{"type": "Feature", "id": "jIOkhAGoZPOKYMU6LlTIWVdgHuQ=", "properties": {"ref": "15622-575260575690", "@spider": "caliber_home_loans", "addr:full": "251 North Rose Street Suite 227", "addr:city": "Kalamazoo", "addr:state": "MI", "addr:postcode": "49007", "name": "19354 - Kalamazoo - 251 North Rose Street", "website": "https://www.caliberhomeloans.com/Home/BranchList?stateCode=MI&LCSpeciality=all&SpanishSpeaking=no", "brand": "Caliber Home Loans"}, "geometry": {"type": "Point", "coordinates": [-85.5852697, 42.2933316]}},
{"type": "Feature", "id": "We2hCQjuQV2BGZOagPXNHZEtJcQ=", "properties": {"ref": "15622-575260563943", "@spider": "caliber_home_loans", "addr:full": "511 E. Colby Street Suite B  E", "addr:city": "Whitehall", "addr:state": "MI", "addr:postcode": "49461", "name": "19517 - Whitehall - 511 E. Colby Street", "website": "https://www.caliberhomeloans.com/Home/BranchList?stateCode=MI&LCSpeciality=all&SpanishSpeaking=no", "brand": "Caliber Home Loans"}, "geometry": {"type": "Point", "coordinates": [-86.3404487, 43.409177]}},
{"type": "Feature", "id": "AvIXRAxQ56uO_GZZHolO9oODWX4=", "properties": {"ref": "2076844", "@spider": "caliber_home_loans", "addr:full": "243 Main St.", "addr:city": "Belleville", "addr:state": "MI", "addr:postcode": "48111", "name": "90278 - DR - Evolution Real Estate Services LLC - Belleville", "website": "https://www.caliberhomeloans.com/Home/BranchList?stateCode=MI&LCSpeciality=all&SpanishSpeaking=no", "brand": "Caliber Home Loans"}, "geometry": {"type": "Point", "coordinates": [-83.4886384, 42.2068352]}},
{"type": "Feature", "id": "h-FxOc6o2DpkypBtnfBzaesZmCM=", "properties": {"ref": "1811793", "@spider": "caliber_home_loans", "addr:full": "1559 Southcross Drive W. Suite 200", "addr:city": "Burnsville", "addr:state": "MN", "addr:postcode": "55306", "name": "19377 - Burnsville - 1559 Southcross Drive W.", "website": "https://www.caliberhomeloans.com/Home/BranchList?stateCode=MN&LCSpeciality=all&SpanishSpeaking=no", "brand": "Caliber Home Loans"}, "geometry": {"type": "Point", "coordinates": [-93.299443, 44.736595]}},
{"type": "Feature", "id": "MbDiHQWXKOah_GHEfKgk8aJleQQ=", "properties": {"ref": "1161867", "@spider": "caliber_home_loans", "addr:full": "615 Babcock Blvd. E.  Ste. 300", "addr:city": "Delano", "addr:state": "MN", "addr:postcode": "55328", "name": "19522 - Delano - 615 Babcock Blvd. E.  Ste. 300", "website": "https://www.caliberhomeloans.com/Home/BranchList?stateCode=MN&LCSpeciality=all&SpanishSpeaking=no", "brand": "Caliber Home Loans"}, "geometry": {"type": "Point", "coordinates": [-93.780028, 45.0352447]}},
{"type": "Feature", "id": "7QHtEWTVtTVlk5AONVR9_yVZc6A=", "properties": {"ref": "2009151", "@spider": "caliber_home_loans", "addr:full": "10400 Baltimore St. NE Suite 120", "addr:city": "Blaine", "addr:state": "MN", "addr:postcode": "55449", "name": "19480 - Blaine - 10400 Baltimore St. NE", "website": "https://www.caliberhomeloans.com/Home/BranchList?stateCode=MN&LCSpeciality=all&SpanishSpeaking=no", "brand": "Caliber Home Loans"}, "geometry": {"type": "Point", "coordinates": [-93.234251, 45.1600274]}},
{"type": "Feature", "id": "vBbc2P0imG27zfIYUkW60zn7NdU=", "properties": {"ref": "2009159", "@spider": "caliber_home_loans", "addr:full": "724 Bielenberg Rd. Suite 146", "addr:city": "Woodbury", "addr:state": "MN", "addr:postcode": "55125", "name": "19481 - Woodbury - 724 Bielenberg Dr.", "website": "https://www.caliberhomeloans.com/Home/BranchList?stateCode=MN&LCSpeciality=all&SpanishSpeaking=no", "brand": "Caliber Home Loans"}, "geometry": {"type": "Point", "coordinates": [-92.9548276, 44.9380571]}},
{"type": "Feature", "id": "TZLw6WFK8QCH-cGG0piau75Ga5I=", "properties": {"ref": "1745801", "@spider": "caliber_home_loans", "addr:full": "118 Lamar Blvd Ste 20", "addr:city": "Hattiesburg", "addr:state": "MS", "addr:postcode": "39402", "name": "90256 - DR - ONeal Stroo Properties  LLC", "website": "https://www.caliberhomeloans.com/Home/BranchList?stateCode=MS&LCSpeciality=all&SpanishSpeaking=no", "brand": "Caliber Home Loans"}, "geometry": {"type": "Point", "coordinates": [-89.393386, 31.3188252]}},
{"type": "Feature", "id": "u0nqkvymp-CrJZvYIymriWGcRFo=", "properties": {"ref": "1807076", "@spider": "caliber_home_loans", "addr:full": "210 East Main Street  Suite E-1", "addr:city": "Tupelo", "addr:state": "MS", "addr:postcode": "38804", "name": "DR - JTM  LLC - 210 East Main Street", "website": "https://www.caliberhomeloans.com/Home/BranchList?stateCode=MS&LCSpeciality=all&SpanishSpeaking=no", "brand": "Caliber Home Loans"}, "geometry": {"type": "Point", "coordinates": [-88.7049335, 34.2577285]}},
{"type": "Feature", "id": "mQW-5i-5-7io4A59cjWK59NHFp0=", "properties": {"ref": "2007425", "@spider": "caliber_home_loans", "addr:full": "1368 Old Fannin Rd. Suite 175", "addr:city": "Brandon", "addr:state": "MS", "addr:postcode": "39047", "name": "19427 - Flowood - 1368 Old Fannin Rd.", "website": "https://www.caliberhomeloans.com/Home/BranchList?stateCode=MS&LCSpeciality=all&SpanishSpeaking=no", "brand": "Caliber Home Loans"}, "geometry": {"type": "Point", "coordinates": [-90.0546076, 32.3690984]}},
{"type": "Feature", "id": "ntVwnf_eXFFcAYo80IzyxGjd2Hw=", "properties": {"ref": "1043806", "@spider": "caliber_home_loans", "addr:full": "7280 NW 87th Terrace  Suite C-227", "addr:city": "Kansas City", "addr:state": "MO", "addr:postcode": "64153", "name": "17031 - Kansas City - 7280 NW 87th Terrace", "website": "https://www.caliberhomeloans.com/Home/BranchList?stateCode=MO&LCSpeciality=all&SpanishSpeaking=no", "brand": "Caliber Home Loans"}, "geometry": {"type": "Point", "coordinates": [-94.6641281, 39.2532092]}},
{"type": "Feature", "id": "iQbMDU2w6SKDs6AY7xjd5WrVByE=", "properties": {"ref": "1245460", "@spider": "caliber_home_loans", "addr:full": "721 Emerson Road  Suite 100", "addr:city": "Creve Coeur", "addr:state": "MO", "addr:postcode": "63141", "name": "18663 - Creve Coeur - Chesterfield - 721 Emerson Road", "website": "https://www.caliberhomeloans.com/Home/BranchList?stateCode=MO&LCSpeciality=all&SpanishSpeaking=no", "brand": "Caliber Home Loans"}, "geometry": {"type": "Point", "coordinates": [-90.4479286, 38.6703447]}},
{"type": "Feature", "id": "eC3cmrgGzz_Fmt6TVlo2qsHXjXQ=", "properties": {"ref": "2013951", "@spider": "caliber_home_loans", "addr:full": "314 N Last Chance Gulch Suite 220", "addr:city": "Helena", "addr:state": "MT", "addr:postcode": "59601", "name": "19501 - Helena - 314 N Last Chance Gulch", "website": "https://www.caliberhomeloans.com/Home/BranchList?stateCode=MT&LCSpeciality=all&SpanishSpeaking=no", "brand": "Caliber Home Loans"}, "geometry": {"type": "Point", "coordinates": [-112.0386675, 46.5894217]}},
{"type": "Feature", "id": "3Yxh5Hwf8xiRUjMypbejJ7XK1Pg=", "properties": {"ref": "2061523", "@spider": "caliber_home_loans", "addr:full": "5 West Mendenhall Street Ste. 202 Office 241", "addr:city": "Bozeman", "addr:state": "MT", "addr:postcode": "59715", "name": "19521 - 5 West Mendenhall Street", "website": "https://www.caliberhomeloans.com/Home/BranchList?stateCode=MT&LCSpeciality=all&SpanishSpeaking=no", "brand": "Caliber Home Loans"}, "geometry": {"type": "Point", "coordinates": [-111.0376843, 45.6805167]}},
{"type": "Feature", "id": "QDHL_lemGUZloFTC7_Ge5e-cKJo=", "properties": {"ref": "1850082", "@spider": "caliber_home_loans", "addr:full": "13625 California Street Suite 110", "addr:city": "Omaha", "addr:state": "NE", "addr:postcode": "68154", "name": "19387 - Omaha - 13625 California Street", "website": "https://www.caliberhomeloans.com/Home/BranchList?stateCode=NE&LCSpeciality=all&SpanishSpeaking=no", "brand": "Caliber Home Loans"}, "geometry": {"type": "Point", "coordinates": [-96.1278917, 41.2649496]}},
{"type": "Feature", "id": "8vO6UyuP5GoPvVwgUGbCLA_erFI=", "properties": {"ref": "1968403", "@spider": "caliber_home_loans", "addr:full": "7450 Arroyo Crossing Pkwy. Suite 190", "addr:city": "Las Vegas", "addr:state": "NV", "addr:postcode": "89113", "name": "19575 - Las Vegas - 7450 Arroyo Crossing Pkwy.", "website": "https://www.caliberhomeloans.com/Home/BranchList?stateCode=NV&LCSpeciality=all&SpanishSpeaking=no", "brand": "Caliber Home Loans"}, "geometry": {"type": "Point", "coordinates": [-115.253475, 36.0640388]}},
{"type": "Feature", "id": "FtR1RKDtp6ZeB65gBBy9DuqyMw0=", "properties": {"ref": "1235789", "@spider": "caliber_home_loans", "addr:full": "6530 South McCarran Blvd.", "addr:city": "Reno", "addr:state": "NV", "addr:postcode": "89509", "name": "18342 - Reno -  6530 S. McCarran Blvd.", "website": "https://www.caliberhomeloans.com/Home/BranchList?stateCode=NV&LCSpeciality=all&SpanishSpeaking=no", "brand": "Caliber Home Loans"}, "geometry": {"type": "Point", "coordinates": [-119.8002765, 39.4756924]}},
{"type": "Feature", "id": "71sPDTfNpvivsIazRDpxi4rm5O0=", "properties": {"ref": "1045576", "@spider": "caliber_home_loans", "addr:full": "525 Route 73 North  Suite 309", "addr:city": "Marlton", "addr:state": "NJ", "addr:postcode": "08053", "name": "17105 - Marlton - 525 Route 73 North", "website": "https://www.caliberhomeloans.com/Home/BranchList?stateCode=NJ&LCSpeciality=all&SpanishSpeaking=no", "brand": "Caliber Home Loans"}, "geometry": {"type": "Point", "coordinates": [-74.9230446, 39.8758292]}},
{"type": "Feature", "id": "A1CPEyEOZIV91sXTBnMCcv6ypWw=", "properties": {"ref": "1124909", "@spider": "caliber_home_loans", "addr:full": "343 Thornall Street  Suite 550", "addr:city": "Edison", "addr:state": "NJ", "addr:postcode": "08837", "name": "17967 - Edison - 343 Thornall Street", "website": "https://www.caliberhomeloans.com/Home/BranchList?stateCode=NJ&LCSpeciality=all&SpanishSpeaking=no", "brand": "Caliber Home Loans"}, "geometry": {"type": "Point", "coordinates": [-74.3357441, 40.560655]}},
{"type": "Feature", "id": "BTRvZ8BMxI8lieKzGmI3Q3M6xXE=", "properties": {"ref": "1121188", "@spider": "caliber_home_loans", "addr:full": "25A Vreeland Road  Suite 104", "addr:city": "Florham Park", "addr:state": "NJ", "addr:postcode": "07932", "name": "18486 - Florham Park - 25A Vreeland Road", "website": "https://www.caliberhomeloans.com/Home/BranchList?stateCode=NJ&LCSpeciality=all&SpanishSpeaking=no", "brand": "Caliber Home Loans"}, "geometry": {"type": "Point", "coordinates": [-74.3694838, 40.7845063]}},
{"type": "Feature", "id": "qrvL5YvkHA_xVujnb4y37AVqspI=", "properties": {"ref": "1045621", "@spider": "caliber_home_loans", "addr:full": "1630 New Road  Suite 2A & 2D", "addr:city": "Northfield", "addr:state": "NJ", "addr:postcode": "08225", "name": "18886 - Northfield-1630 New Road", "website": "https://www.caliberhomeloans.com/Home/BranchList?stateCode=NJ&LCSpeciality=all&SpanishSpeaking=no", "brand": "Caliber Home Loans"}, "geometry": {"type": "Point", "coordinates": [-74.5571758, 39.3710128]}},
{"type": "Feature", "id": "p--uCquuHYIrfLGbqDIdZysVhGY=", "properties": {"ref": "1180942", "@spider": "caliber_home_loans", "addr:full": "200 Somerset Corporate Blvd.  Suite 1003", "addr:city": "Bridgewater", "addr:state": "NJ", "addr:postcode": "08807", "name": "18087 - Bridgewater - 200 Somerset Corporate Blvd.", "website": "https://www.caliberhomeloans.com/Home/BranchList?stateCode=NJ&LCSpeciality=all&SpanishSpeaking=no", "brand": "Caliber Home Loans"}, "geometry": {"type": "Point", "coordinates": [-74.6265169, 40.5862717]}},
{"type": "Feature", "id": "s_W7J6CLH0G4NwU2ZuZIf-5XawI=", "properties": {"ref": "1712607", "@spider": "caliber_home_loans", "addr:full": "8220 San Pedro NE  Suite 320", "addr:city": "Albuquerque", "addr:state": "NM", "addr:postcode": "87113", "name": "19166 - Albuquerque - 8220 San Pedro NE", "website": "https://www.caliberhomeloans.com/Home/BranchList?stateCode=NM&LCSpeciality=all&SpanishSpeaking=no", "brand": "Caliber Home Loans"}, "geometry": {"type": "Point", "coordinates": [-106.5770138, 35.1768285]}},
{"type": "Feature", "id": "v2Eeg-eGpFdFngcn-robqqBjmdY=", "properties": {"ref": "1629737", "@spider": "caliber_home_loans", "addr:full": "330 South Service Road Suite 130", "addr:city": "Melville", "addr:state": "NY", "addr:postcode": "11747", "name": "19290 - Melville - 330 South Service Road", "website": "https://www.caliberhomeloans.com/Home/BranchList?stateCode=NY&LCSpeciality=all&SpanishSpeaking=no", "brand": "Caliber Home Loans"}, "geometry": {"type": "Point", "coordinates": [-73.4126802, 40.7794665]}},
{"type": "Feature", "id": "Ac1mS_JXoS1Gg2_4OXnX4fe6HxY=", "properties": {"ref": "2031644", "@spider": "caliber_home_loans", "addr:full": "1229 Route 300 Suite 3", "addr:city": "Newburgh", "addr:state": "NY", "addr:postcode": "12550", "name": "19504 - Newburgh - 1229 Route 300", "website": "https://www.caliberhomeloans.com/Home/BranchList?stateCode=NY&LCSpeciality=all&SpanishSpeaking=no", "brand": "Caliber Home Loans"}, "geometry": {"type": "Point", "coordinates": [-74.070852, 41.5014167]}},
{"type": "Feature", "id": "9UqSs8V1PbW0v9TKiwh9nNs3gmc=", "properties": {"ref": "1939959", "@spider": "caliber_home_loans", "addr:full": "3118 N. Croatan Hwy. Suite 202 208", "addr:city": "Kill Devil Hills", "addr:state": "NC", "addr:postcode": "27948", "name": "19444 Outer Banks - 3118 N. Croatan Hwy.", "website": "https://www.caliberhomeloans.com/Home/BranchList?stateCode=NC&LCSpeciality=all&SpanishSpeaking=no", "brand": "Caliber Home Loans"}, "geometry": {"type": "Point", "coordinates": [-75.684116, 36.0510436]}},
{"type": "Feature", "id": "FzovI6v6O_Eb6Hnh2HYi4t-Akic=", "properties": {"ref": "1276930", "@spider": "caliber_home_loans", "addr:full": "1403 Eastchester Drive  Suite 103", "addr:city": "High Point", "addr:state": "NC", "addr:postcode": "27265", "name": "18737 - High Point - 1403 Eastchester Drive", "website": "https://www.caliberhomeloans.com/Home/BranchList?stateCode=NC&LCSpeciality=all&SpanishSpeaking=no", "brand": "Caliber Home Loans"}, "geometry": {"type": "Point", "coordinates": [-79.9950789, 35.997845]}},
{"type": "Feature", "id": "pGyfdy4Q6drxDSTPf4Uq7SmXFUc=", "properties": {"ref": "1881793", "@spider": "caliber_home_loans", "addr:full": "1310 East Garrison Blvd.", "addr:city": "Gastonia", "addr:state": "NC", "addr:postcode": "28054", "name": "19507 - Gastonia - 1310 East Garrison Blvd.", "website": "https://www.caliberhomeloans.com/Home/BranchList?stateCode=NC&LCSpeciality=all&SpanishSpeaking=no", "brand": "Caliber Home Loans"}, "geometry": {"type": "Point", "coordinates": [-81.162429, 35.253095]}},
{"type": "Feature", "id": "-2X5SwOTeWSOdF-6nb3RBfc_S3U=", "properties": {"ref": "1162155", "@spider": "caliber_home_loans", "addr:full": "4236 University Drive  Suite 100", "addr:city": "Durham", "addr:state": "NC", "addr:postcode": "27707", "name": "18050 - Durham - 4236 University Drive", "website": "https://www.caliberhomeloans.com/Home/BranchList?stateCode=NC&LCSpeciality=all&SpanishSpeaking=no", "brand": "Caliber Home Loans"}, "geometry": {"type": "Point", "coordinates": [-78.96133, 35.96278]}},
{"type": "Feature", "id": "hsOEaL-o0w1hSeNuIsV2IkOrEqE=", "properties": {"ref": "1423730", "@spider": "caliber_home_loans", "addr:full": "1403 Eastchester Drive  Suite 103", "addr:city": "High Point", "addr:state": "NC", "addr:postcode": "27265", "name": "18737 - High Point - 1403 Eastchester Drive", "website": "https://www.caliberhomeloans.com/Home/BranchList?stateCode=NC&LCSpeciality=all&SpanishSpeaking=no", "brand": "Caliber Home Loans"}, "geometry": {"type": "Point", "coordinates": [-79.9951622, 35.9978233]}},
{"type": "Feature", "id": "7SQUoZpKcv7gXguCi7dia-HhS_o=", "properties": {"ref": "1423717", "@spider": "caliber_home_loans", "addr:full": "1403 Eastchester Drive  Suite 103", "addr:city": "High Point", "addr:state": "NC", "addr:postcode": "27265", "name": "18737 - High Point - 1403 Eastchester Drive", "website": "https://www.caliberhomeloans.com/Home/BranchList?stateCode=NC&LCSpeciality=all&SpanishSpeaking=no", "brand": "Caliber Home Loans"}, "geometry": {"type": "Point", "coordinates": [-79.9950789, 35.997845]}},
{"type": "Feature", "id": "sUVLXTFHaFFqC34kZvmPkor0sZ4=", "properties": {"ref": "1423734", "@spider": "caliber_home_loans", "addr:full": "1403 Eastchester Drive  Suite 103", "addr:city": "High Point", "addr:state": "NC", "addr:postcode": "27265", "name": "18737 - High Point - 1403 Eastchester Drive", "website": "https://www.caliberhomeloans.com/Home/BranchList?stateCode=NC&LCSpeciality=all&SpanishSpeaking=no", "brand": "Caliber Home Loans"}, "geometry": {"type": "Point", "coordinates": [-79.9950789, 35.997845]}},
{"type": "Feature", "id": "ggEg_AHV1mtTbJvpl2WDLO0Kx18=", "properties": {"ref": "1934346", "@spider": "caliber_home_loans", "addr:full": "4236 University Drive  Suite 100", "addr:city": "Durham", "addr:state": "NC", "addr:postcode": "27707", "name": "18050 - Durham - 4236 University Drive", "website": "https://www.caliberhomeloans.com/Home/BranchList?stateCode=NC&LCSpeciality=all&SpanishSpeaking=no", "brand": "Caliber Home Loans"}, "geometry": {"type": "Point", "coordinates": [-78.9610438, 35.9626626]}},
{"type": "Feature", "id": "mjGMBkq4VGHL3hDmLorzle41Kb0=", "properties": {"ref": "2150732", "@spider": "caliber_home_loans", "addr:full": "4150 19th Avenue S. Suite 302", "addr:city": "Fargo", "addr:state": "ND", "addr:postcode": "58103", "name": "Fargo", "website": "https://www.caliberhomeloans.com/Home/BranchList?stateCode=ND&LCSpeciality=all&SpanishSpeaking=no", "brand": "Caliber Home Loans"}, "geometry": {"type": "Point", "coordinates": [-96.8499731, 46.8484586]}},
{"type": "Feature", "id": "6sEl_EshKFZihpgfysHLjdxarLo=", "properties": {"ref": "1510232", "@spider": "caliber_home_loans", "addr:full": "545 Metro Place South  Suite 100  Office 115", "addr:city": "Dublin", "addr:state": "OH", "addr:postcode": "43017", "name": "18983 - Sat-Columbus West-545 Metro Place South", "website": "https://www.caliberhomeloans.com/Home/BranchList?stateCode=OH&LCSpeciality=all&SpanishSpeaking=no", "brand": "Caliber Home Loans"}, "geometry": {"type": "Point", "coordinates": [-83.1326494, 40.0929621]}},
{"type": "Feature", "id": "RNdhUsGKkBW6VMa6LLG81DigudY=", "properties": {"ref": "1087727", "@spider": "caliber_home_loans", "addr:full": "210 S. Market St. Suite B", "addr:city": "Troy", "addr:state": "OH", "addr:postcode": "45373", "name": "19554 - Troy - 210 S. Market St.", "website": "https://www.caliberhomeloans.com/Home/BranchList?stateCode=OH&LCSpeciality=all&SpanishSpeaking=no", "brand": "Caliber Home Loans"}, "geometry": {"type": "Point", "coordinates": [-84.2059141, 40.0374591]}},
{"type": "Feature", "id": "_MDwJzVVbC7xyAVTDSgQ8RfdcqY=", "properties": {"ref": "1422641", "@spider": "caliber_home_loans", "addr:full": "101 S. Fountain Ave. Ste. 105 106 107 108 109", "addr:city": "Springfield", "addr:state": "OH", "addr:postcode": "45502", "name": "19439 - Springfield - 101 S. Fountain Ave.", "website": "https://www.caliberhomeloans.com/Home/BranchList?stateCode=OH&LCSpeciality=all&SpanishSpeaking=no", "brand": "Caliber Home Loans"}, "geometry": {"type": "Point", "coordinates": [-83.8109199, 39.9231318]}},
{"type": "Feature", "id": "4p_wiPAOilvrPbHgR7_wLmY4hJ8=", "properties": {"ref": "1043906", "@spider": "caliber_home_loans", "addr:full": "526 Wards Corner Rd Suite A", "addr:city": "Loveland", "addr:state": "OH", "addr:postcode": "45140", "name": "19594 - Loveland - 526 Wards Corner Rd.", "website": "https://www.caliberhomeloans.com/Home/BranchList?stateCode=OH&LCSpeciality=all&SpanishSpeaking=no", "brand": "Caliber Home Loans"}, "geometry": {"type": "Point", "coordinates": [-84.2779035, 39.2280526]}},
{"type": "Feature", "id": "-gCBkjP6Fd6FPU8rJcjO8ji0qLE=", "properties": {"ref": "1903770", "@spider": "caliber_home_loans", "addr:full": "2001 Crocker Rd. suite 325", "addr:city": "Cleveland", "addr:state": "OH", "addr:postcode": "44145", "name": "19461 - Cleveland - 2001 Crocker Rd.", "website": "https://www.caliberhomeloans.com/Home/BranchList?stateCode=OH&LCSpeciality=all&SpanishSpeaking=no", "brand": "Caliber Home Loans"}, "geometry": {"type": "Point", "coordinates": [-81.9494752, 41.4620398]}},
{"type": "Feature", "id": "QVyVpzVJ362CIdKYRsh3Rg_f_04=", "properties": {"ref": "1872929", "@spider": "caliber_home_loans", "addr:full": "50 Chestnut Street Suite A-234", "addr:city": "Beavercreek", "addr:state": "OH", "addr:postcode": "45440", "name": "19348 - Beavercreek - 50 Chestnut Street", "website": "https://www.caliberhomeloans.com/Home/BranchList?stateCode=OH&LCSpeciality=all&SpanishSpeaking=no", "brand": "Caliber Home Loans"}, "geometry": {"type": "Point", "coordinates": [-84.0960056, 39.6720868]}},
{"type": "Feature", "id": "DN7e-8V3Ai8fGA6qDc7DMmlrPbk=", "properties": {"ref": "1459463", "@spider": "caliber_home_loans", "addr:full": "1000 South Cleveland-Massillon Rd. Suite 119", "addr:city": "Akron", "addr:state": "OH", "addr:postcode": "44333", "name": "18989 - Akron - 1000 South Cleveland-Massillon Rd.", "website": "https://www.caliberhomeloans.com/Home/BranchList?stateCode=OH&LCSpeciality=all&SpanishSpeaking=no", "brand": "Caliber Home Loans"}, "geometry": {"type": "Point", "coordinates": [-81.6455464, 41.110762]}},
{"type": "Feature", "id": "uluYCVEBYDvzK8qjfYEhpbneeLE=", "properties": {"ref": "1640188", "@spider": "caliber_home_loans", "addr:full": "8534 Yankee St.", "addr:city": "Centerville", "addr:state": "OH", "addr:postcode": "45458", "name": "19172 - Centerville - 8534 Yankee St.", "website": "https://www.caliberhomeloans.com/Home/BranchList?stateCode=OH&LCSpeciality=all&SpanishSpeaking=no", "brand": "Caliber Home Loans"}, "geometry": {"type": "Point", "coordinates": [-84.1979861, 39.6237729]}},
{"type": "Feature", "id": "7PdzzsR_Inz1csFMgMO_5jvhRMw=", "properties": {"ref": "1426120", "@spider": "caliber_home_loans", "addr:full": "5100 N. Brookline  Suite 650", "addr:city": "Oklahoma City", "addr:state": "OK", "addr:postcode": "73112", "name": "18756 - Oklahoma City  - 5100 N. Brookline", "website": "https://www.caliberhomeloans.com/Home/BranchList?stateCode=OK&LCSpeciality=all&SpanishSpeaking=no", "brand": "Caliber Home Loans"}, "geometry": {"type": "Point", "coordinates": [-97.5674923, 35.5228485]}},
{"type": "Feature", "id": "JPVYHybCmmE-FNsZmb6eFiuGZoM=", "properties": {"ref": "2029466", "@spider": "caliber_home_loans", "addr:full": "14600 N. Pennsylvania Ave Suite E", "addr:city": "Oklahoma City", "addr:state": "OK", "addr:postcode": "73134", "name": "19498 - Oklahoma City - 14600 N. Pennsylvania Ave", "website": "https://www.caliberhomeloans.com/Home/BranchList?stateCode=OK&LCSpeciality=all&SpanishSpeaking=no", "brand": "Caliber Home Loans"}, "geometry": {"type": "Point", "coordinates": [-97.5488007, 35.6188611]}},
{"type": "Feature", "id": "_HzpXF6sWz_2PMm35i8AHmJkD4M=", "properties": {"ref": "1235816", "@spider": "caliber_home_loans", "addr:full": "12550 SE 93rd Avenue Suite 440", "addr:city": "Clackamas", "addr:state": "OR", "addr:postcode": "97015", "name": "19327 - Clackamas - 12550 SE 93rd Avenue", "website": "https://www.caliberhomeloans.com/Home/BranchList?stateCode=OR&LCSpeciality=all&SpanishSpeaking=no", "brand": "Caliber Home Loans"}, "geometry": {"type": "Point", "coordinates": [-122.5676016, 45.4322211]}},
{"type": "Feature", "id": "sz2kd8W3boq1EoHx-YY8lST0Rz0=", "properties": {"ref": "1235899", "@spider": "caliber_home_loans", "addr:full": "4900 Meadows Road Suite 200", "addr:city": "Lake Oswego", "addr:state": "OR", "addr:postcode": "97035", "name": "18392 - C Lake Oswego - 4900 Meadows Road", "website": "https://www.caliberhomeloans.com/Home/BranchList?stateCode=OR&LCSpeciality=all&SpanishSpeaking=no", "brand": "Caliber Home Loans"}, "geometry": {"type": "Point", "coordinates": [-122.727079, 45.4170117]}},
{"type": "Feature", "id": "UlRm1QZ0tWTrJAeuhSXV3q0E76Q=", "properties": {"ref": "1495799", "@spider": "caliber_home_loans", "addr:full": "549 SW Mill View Way  Ste. 101 105", "addr:city": "Bend", "addr:state": "OR", "addr:postcode": "97702", "name": "19410 - Bend - 549 SW Mill View Way", "website": "https://www.caliberhomeloans.com/Home/BranchList?stateCode=OR&LCSpeciality=all&SpanishSpeaking=no", "brand": "Caliber Home Loans"}, "geometry": {"type": "Point", "coordinates": [-121.314114, 44.048779]}},
{"type": "Feature", "id": "yBX2XqrhVLnm2m9o17DmTYH7q9M=", "properties": {"ref": "1760619", "@spider": "caliber_home_loans", "addr:full": "1104 NW Overton Street", "addr:city": "Portland", "addr:state": "OR", "addr:postcode": "97209", "name": "19385 - Portland (Pearl) - 1104 NW Overton", "website": "https://www.caliberhomeloans.com/Home/BranchList?stateCode=OR&LCSpeciality=all&SpanishSpeaking=no", "brand": "Caliber Home Loans"}, "geometry": {"type": "Point", "coordinates": [-122.6826805, 45.531922]}},
{"type": "Feature", "id": "JncWWFcJSUcS88QSGZytMxHqPro=", "properties": {"ref": "1738514", "@spider": "caliber_home_loans", "addr:full": "250 Church Street SE Suite 100", "addr:city": "Salem", "addr:state": "OR", "addr:postcode": "97301", "name": "19269 - Salem - 250 Church Street SE", "website": "https://www.caliberhomeloans.com/Home/BranchList?stateCode=OR&LCSpeciality=all&SpanishSpeaking=no", "brand": "Caliber Home Loans"}, "geometry": {"type": "Point", "coordinates": [-123.0356279, 44.9372755]}},
{"type": "Feature", "id": "UQ84QYIshiOQY5ReIU-c693cmK8=", "properties": {"ref": "1612931", "@spider": "caliber_home_loans", "addr:full": "3815 South 6th St.  Ste. 140", "addr:city": "Klamath Falls", "addr:state": "OR", "addr:postcode": "97603", "name": "19096 - Klamath Falls BHL - 3815 South 6th St.", "website": "https://www.caliberhomeloans.com/Home/BranchList?stateCode=OR&LCSpeciality=all&SpanishSpeaking=no", "brand": "Caliber Home Loans"}, "geometry": {"type": "Point", "coordinates": [-121.741794, 42.2069829]}},
{"type": "Feature", "id": "9orq7eJL5ZOuc0hnLaeTZ_8IngI=", "properties": {"ref": "1235883", "@spider": "caliber_home_loans", "addr:full": "900 NW Mt. Washington Dr  Suite 200 210", "addr:city": "Bend", "addr:state": "OR", "addr:postcode": "97703", "name": "18984 - Bend Market - 900 NW Mt. Washington", "website": "https://www.caliberhomeloans.com/Home/BranchList?stateCode=OR&LCSpeciality=all&SpanishSpeaking=no", "brand": "Caliber Home Loans"}, "geometry": {"type": "Point", "coordinates": [-121.3564588, 44.0594483]}},
{"type": "Feature", "id": "vrGlMy33UelJDvjZmOjmfBokH54=", "properties": {"ref": "1453338", "@spider": "caliber_home_loans", "addr:full": "16 Oak Street  Suite 202", "addr:city": "Hood River", "addr:state": "OR", "addr:postcode": "97031", "name": "18827 - Hood River-- 16 Oak Street", "website": "https://www.caliberhomeloans.com/Home/BranchList?stateCode=OR&LCSpeciality=all&SpanishSpeaking=no", "brand": "Caliber Home Loans"}, "geometry": {"type": "Point", "coordinates": [-121.5110771, 45.7089747]}},
{"type": "Feature", "id": "31-XB3GNCcr5ItGFRzNAeqhGKFI=", "properties": {"ref": "1617052", "@spider": "caliber_home_loans", "addr:full": "1393 Clay St. SE", "addr:city": "Albany", "addr:state": "OR", "addr:postcode": "97322", "name": "19079 - Albany - 1393 Clay St. SE", "website": "https://www.caliberhomeloans.com/Home/BranchList?stateCode=OR&LCSpeciality=all&SpanishSpeaking=no", "brand": "Caliber Home Loans"}, "geometry": {"type": "Point", "coordinates": [-123.0765499, 44.6291445]}},
{"type": "Feature", "id": "_y1NRLfJk9SJZj10CmoKbJxuqts=", "properties": {"ref": "1652753", "@spider": "caliber_home_loans", "addr:full": "180 Clear Creek Suite 101", "addr:city": "Ashland", "addr:state": "OR", "addr:postcode": "97520", "name": "19349 - Ashland - 180 Clear Creek", "website": "https://www.caliberhomeloans.com/Home/BranchList?stateCode=OR&LCSpeciality=all&SpanishSpeaking=no", "brand": "Caliber Home Loans"}, "geometry": {"type": "Point", "coordinates": [-122.708887, 42.1995127]}},
{"type": "Feature", "id": "THI531d96DBWK9pyAxgOjLOI8ao=", "properties": {"ref": "1840624", "@spider": "caliber_home_loans", "addr:full": "1936 Pacific Ave.", "addr:city": "Forest Grove", "addr:state": "OR", "addr:postcode": "97116", "name": "Forest Grove", "website": "https://www.caliberhomeloans.com/Home/BranchList?stateCode=OR&LCSpeciality=all&SpanishSpeaking=no", "brand": "Caliber Home Loans"}, "geometry": {"type": "Point", "coordinates": [-123.112417, 45.519498]}},
{"type": "Feature", "id": "8s7WUorV3h2uT_9ZsTtbEWvgxHs=", "properties": {"ref": "2034253", "@spider": "caliber_home_loans", "addr:full": "12901 SE 97th Ave.  Ste. 250", "addr:city": "Clackamas", "addr:state": "OR", "addr:postcode": "97015", "name": "19502 Clackamas  OR (12901 SE 97th Ave.  Ste. 250)", "website": "https://www.caliberhomeloans.com/Home/BranchList?stateCode=OR&LCSpeciality=all&SpanishSpeaking=no", "brand": "Caliber Home Loans"}, "geometry": {"type": "Point", "coordinates": [-122.5644668, 45.4287499]}},
{"type": "Feature", "id": "Kna-rnalsFc3a1gwEXnaxEq9ak4=", "properties": {"ref": "2036377", "@spider": "caliber_home_loans", "addr:full": "174 Shore Pointe Place N.  Suite 202", "addr:city": "Keizer", "addr:state": "OR", "addr:postcode": "97303", "name": "19506 - 174 Shore Pointe Place N.  Suite 202  Keizer  OR", "website": "https://www.caliberhomeloans.com/Home/BranchList?stateCode=OR&LCSpeciality=all&SpanishSpeaking=no", "brand": "Caliber Home Loans"}, "geometry": {"type": "Point", "coordinates": [-123.0268501, 45.005669]}},
{"type": "Feature", "id": "NxyAvJ0_wRYoLNaILUw68MC_Mms=", "properties": {"ref": "1043913", "@spider": "caliber_home_loans", "addr:full": "3101 Emerick Blvd. 2nd Floor", "addr:city": "Bethlehem", "addr:state": "PA", "addr:postcode": "18020", "name": "16564 - Bethlehem - 3101 Emerick Blvd.", "website": "https://www.caliberhomeloans.com/Home/BranchList?stateCode=PA&LCSpeciality=all&SpanishSpeaking=no", "brand": "Caliber Home Loans"}, "geometry": {"type": "Point", "coordinates": [-75.2964815, 40.6652933]}},
{"type": "Feature", "id": "I6TgRfCL4YJJ-ytekR8vUy3dyqc=", "properties": {"ref": "1043918", "@spider": "caliber_home_loans", "addr:full": "300 Granite Run Drive  Suite 130", "addr:city": "Lancaster", "addr:state": "PA", "addr:postcode": "17601", "name": "17320 - Lancaster - 300 Granite Run Dr.", "website": "https://www.caliberhomeloans.com/Home/BranchList?stateCode=PA&LCSpeciality=all&SpanishSpeaking=no", "brand": "Caliber Home Loans"}, "geometry": {"type": "Point", "coordinates": [-76.3309175, 40.0761868]}},
{"type": "Feature", "id": "9IYtAdpJgy6YzMIQm7gY4Qma1f0=", "properties": {"ref": "1423704", "@spider": "caliber_home_loans", "addr:full": "620 Main Street", "addr:city": "East Greenwich", "addr:state": "RI", "addr:postcode": "02818", "name": "19003 - Providence - 620 Main Street", "website": "https://www.caliberhomeloans.com/Home/BranchList?stateCode=RI&LCSpeciality=all&SpanishSpeaking=no", "brand": "Caliber Home Loans"}, "geometry": {"type": "Point", "coordinates": [-71.453041, 41.655806]}},
{"type": "Feature", "id": "BcFbQEa7zssqe6XeReBiS2pdCcc=", "properties": {"ref": "1495027", "@spider": "caliber_home_loans", "addr:full": "741 Johnnie Dodds Blvd.", "addr:city": "Mount Pleasant", "addr:state": "SC", "addr:postcode": "29464", "name": "19511 - Mount Pleasant - 741 Johnnie Dodds Blvd.", "website": "https://www.caliberhomeloans.com/Home/BranchList?stateCode=SC&LCSpeciality=all&SpanishSpeaking=no", "brand": "Caliber Home Loans"}, "geometry": {"type": "Point", "coordinates": [-79.8738274, 32.8086391]}},
{"type": "Feature", "id": "7qs3-94Wz-5GVdlsGPMtR9zxjrM=", "properties": {"ref": "1908480", "@spider": "caliber_home_loans", "addr:full": "1620 Farrow Pkwy Suite A-2", "addr:city": "Myrtle Beach", "addr:state": "SC", "addr:postcode": "29577", "name": "19525 - Myrtle Beach - 1620 Farrow Pkwy", "website": "https://www.caliberhomeloans.com/Home/BranchList?stateCode=SC&LCSpeciality=all&SpanishSpeaking=no", "brand": "Caliber Home Loans"}, "geometry": {"type": "Point", "coordinates": [-78.9515836, 33.6731251]}},
{"type": "Feature", "id": "sPtXNlzfXY1v5nONZucGCz04Gg8=", "properties": {"ref": "1877061", "@spider": "caliber_home_loans", "addr:full": "10 Westbury Park Suite C-1", "addr:city": "Bluffton", "addr:state": "SC", "addr:postcode": "29910", "name": "19538 - Bluffton Township - 10 Westbury Park Comm", "website": "https://www.caliberhomeloans.com/Home/BranchList?stateCode=SC&LCSpeciality=all&SpanishSpeaking=no", "brand": "Caliber Home Loans"}, "geometry": {"type": "Point", "coordinates": [-80.8723632, 32.2747002]}},
{"type": "Feature", "id": "izBg9Pr3bnqrI-pLg0Sh0XktsOY=", "properties": {"ref": "2013223", "@spider": "caliber_home_loans", "addr:full": "807 Gervais St.", "addr:city": "Columbia", "addr:state": "SC", "addr:postcode": "29201", "name": "19516 - Columbia - 807 Gervais St.", "website": "https://www.caliberhomeloans.com/Home/BranchList?stateCode=SC&LCSpeciality=all&SpanishSpeaking=no", "brand": "Caliber Home Loans"}, "geometry": {"type": "Point", "coordinates": [-81.0396899, 33.9999208]}},
{"type": "Feature", "id": "FoAjLxh9v2UgRUoxi5rxapqfUmo=", "properties": {"ref": "1938744", "@spider": "caliber_home_loans", "addr:full": "912 Harpeth Valley Place", "addr:city": "Nashville", "addr:state": "TN", "addr:postcode": "37221", "name": "19457 - Nashville - 912 Harpeth Valley Place", "website": "https://www.caliberhomeloans.com/Home/BranchList?stateCode=TN&LCSpeciality=all&SpanishSpeaking=no", "brand": "Caliber Home Loans"}, "geometry": {"type": "Point", "coordinates": [-86.9570614, 36.082742]}},
{"type": "Feature", "id": "Ul9p2ha7ZwZ_BFkmhB7ELJMT0JU=", "properties": {"ref": "1264686", "@spider": "caliber_home_loans", "addr:full": "1290 Premier Dr. Suite 120", "addr:city": "Chattanooga", "addr:state": "TN", "addr:postcode": "37421", "name": "19239 - Chattanooga - 1290 Premier Dr.", "website": "https://www.caliberhomeloans.com/Home/BranchList?stateCode=TN&LCSpeciality=all&SpanishSpeaking=no", "brand": "Caliber Home Loans"}, "geometry": {"type": "Point", "coordinates": [-85.1906996, 35.0148366]}},
{"type": "Feature", "id": "suMrXAQQM4nXmwMkLUAV1lTFdRU=", "properties": {"ref": "1860702", "@spider": "caliber_home_loans", "addr:full": "112 Center Pointe Drive Suite B", "addr:city": "Clarksville", "addr:state": "TN", "addr:postcode": "37040", "name": "90223 DR - Tennessee Title Services  LLC - Clarksville", "website": "https://www.caliberhomeloans.com/Home/BranchList?stateCode=TN&LCSpeciality=all&SpanishSpeaking=no", "brand": "Caliber Home Loans"}, "geometry": {"type": "Point", "coordinates": [-87.3070483, 36.568582]}},
{"type": "Feature", "id": "SrK2gwZxl8QiAz61XqHfsxThfck=", "properties": {"ref": "1514898", "@spider": "caliber_home_loans", "addr:full": "13 W. Kent St.  Suite 101", "addr:city": "Chattanooga", "addr:state": "TN", "addr:postcode": "37405", "name": "19043 - Chattanooga - 13 W. Kent St.", "website": "https://www.caliberhomeloans.com/Home/BranchList?stateCode=TN&LCSpeciality=all&SpanishSpeaking=no", "brand": "Caliber Home Loans"}, "geometry": {"type": "Point", "coordinates": [-85.3097846, 35.0650294]}},
{"type": "Feature", "id": "pqQnEj46MSnV3-OqgdXmu1M7ws4=", "properties": {"ref": "1943909", "@spider": "caliber_home_loans", "addr:full": "109 Parkway Suite 3B", "addr:city": "Sevierville", "addr:state": "TN", "addr:postcode": "37682", "name": "19450 - Sevierville - 109 Parkway", "website": "https://www.caliberhomeloans.com/Home/BranchList?stateCode=TN&LCSpeciality=all&SpanishSpeaking=no", "brand": "Caliber Home Loans"}, "geometry": {"type": "Point", "coordinates": [-83.5635061, 35.8679257]}},
{"type": "Feature", "id": "XQGXNjK1IV0MenJ3dT3MsKLUnjM=", "properties": {"ref": "1566507", "@spider": "caliber_home_loans", "addr:full": "7106 Old Nashville Road Suite B", "addr:city": "Fairview", "addr:state": "TN", "addr:postcode": "37062", "name": "19048 - Fairview - 7106 Old Nashville Road", "website": "https://www.caliberhomeloans.com/Home/BranchList?stateCode=TN&LCSpeciality=all&SpanishSpeaking=no", "brand": "Caliber Home Loans"}, "geometry": {"type": "Point", "coordinates": [-87.119499, 35.982346]}},
{"type": "Feature", "id": "3YILRAoec-mZrip_fZsqNxoza-o=", "properties": {"ref": "1410465", "@spider": "caliber_home_loans", "addr:full": "200 Prosperity Dr.  Office 219", "addr:city": "Knoxville", "addr:state": "TN", "addr:postcode": "37923", "name": "19573 - Knoxville - 200 Prosperity Dr", "website": "https://www.caliberhomeloans.com/Home/BranchList?stateCode=TN&LCSpeciality=all&SpanishSpeaking=no", "brand": "Caliber Home Loans"}, "geometry": {"type": "Point", "coordinates": [-84.076812, 35.9221416]}},
{"type": "Feature", "id": "yMTOxRIiF7h7pSaVZeaVjFVddA8=", "properties": {"ref": "1656502", "@spider": "caliber_home_loans", "addr:full": "6620 Cypresswood Drive Suite 150", "addr:city": "Spring", "addr:state": "TX", "addr:postcode": "77379", "name": "19186 - Spring - 6620 Cypresswood Drive", "website": "https://www.caliberhomeloans.com/Home/BranchList?stateCode=TX&LCSpeciality=all&SpanishSpeaking=no", "brand": "Caliber Home Loans"}, "geometry": {"type": "Point", "coordinates": [-95.5074849, 30.0153222]}},
{"type": "Feature", "id": "7dvslV2-TL-BkucHMrpw-1-O1p4=", "properties": {"ref": "1108778", "@spider": "caliber_home_loans", "addr:full": "5950 Sherry Lane  Suite 410 and 415", "addr:city": "Dallas", "addr:state": "TX", "addr:postcode": "75225", "name": "18869 - Dallas - 5950 Sherry Lane", "website": "https://www.caliberhomeloans.com/Home/BranchList?stateCode=TX&LCSpeciality=all&SpanishSpeaking=no", "brand": "Caliber Home Loans"}, "geometry": {"type": "Point", "coordinates": [-96.8110451, 32.8620414]}},
{"type": "Feature", "id": "R8atoOfBD2Oaettyqc4ua3heUQA=", "properties": {"ref": "1236037", "@spider": "caliber_home_loans", "addr:full": "6115 Camp Bowie Blvd. Suite 144", "addr:city": "Fort Worth", "addr:state": "TX", "addr:postcode": "76711", "name": "Fort Worth", "website": "https://www.caliberhomeloans.com/Home/BranchList?stateCode=TX&LCSpeciality=all&SpanishSpeaking=no", "brand": "Caliber Home Loans"}, "geometry": {"type": "Point", "coordinates": [-97.1520926, 31.5140575]}},
{"type": "Feature", "id": "k27svlNYPxRoCm6fPKFaUe5oGoM=", "properties": {"ref": "1151320", "@spider": "caliber_home_loans", "addr:full": "520 Post Oak Blvd.  Suite 455", "addr:city": "Houston", "addr:state": "TX", "addr:postcode": "77027", "name": "18387 - Houston - 520 Post Oak Boulevard", "website": "https://www.caliberhomeloans.com/Home/BranchList?stateCode=TX&LCSpeciality=all&SpanishSpeaking=no", "brand": "Caliber Home Loans"}, "geometry": {"type": "Point", "coordinates": [-95.452476, 29.7540289]}},
{"type": "Feature", "id": "8wBHZayJSFlGrhBEAs2Hw3rI31U=", "properties": {"ref": "1044411", "@spider": "caliber_home_loans", "addr:full": "15600 San Pedro Avenue Suite 207", "addr:city": "San Antonio", "addr:state": "TX", "addr:postcode": "78232", "name": "19361 - San Antonio - 15600 San Pedro Avenue", "website": "https://www.caliberhomeloans.com/Home/BranchList?stateCode=TX&LCSpeciality=all&SpanishSpeaking=no", "brand": "Caliber Home Loans"}, "geometry": {"type": "Point", "coordinates": [-98.4751085, 29.5831114]}},
{"type": "Feature", "id": "gtXH1mvh-7LWCpEZeXoik0v_ggA=", "properties": {"ref": "1060111", "@spider": "caliber_home_loans", "addr:full": "2600 N. Dallas Parkway Suite 150", "addr:city": "Dallas", "addr:state": "TX", "addr:postcode": "75034", "name": "Frisco", "website": "https://www.caliberhomeloans.com/Home/BranchList?stateCode=TX&LCSpeciality=all&SpanishSpeaking=no", "brand": "Caliber Home Loans"}, "geometry": {"type": "Point", "coordinates": [-96.821618, 33.0999483]}},
{"type": "Feature", "id": "tjSAjJpP6qvsPMudILN-OKP7HQg=", "properties": {"ref": "1044072", "@spider": "caliber_home_loans", "addr:full": "1106 S. Friendswood Drive  Suite A", "addr:city": "Friendswood", "addr:state": "TX", "addr:postcode": "77546", "name": "18988 - League City - 1106 S. Friendswood Drive", "website": "https://www.caliberhomeloans.com/Home/BranchList?stateCode=TX&LCSpeciality=all&SpanishSpeaking=no", "brand": "Caliber Home Loans"}, "geometry": {"type": "Point", "coordinates": [-95.1914019, 29.5193568]}},
{"type": "Feature", "id": "XqYR7IgSGZMjATxAfdFB4U_c_Ro=", "properties": {"ref": "1484620", "@spider": "caliber_home_loans", "addr:full": "139 East Hopkins Street  Suite 201A", "addr:city": "San Marcos", "addr:state": "TX", "addr:postcode": "78666", "name": "18897 - SAT - San Marcos -139 East Hopkins Street", "website": "https://www.caliberhomeloans.com/Home/BranchList?stateCode=TX&LCSpeciality=all&SpanishSpeaking=no", "brand": "Caliber Home Loans"}, "geometry": {"type": "Point", "coordinates": [-97.9405163, 29.8834889]}},
{"type": "Feature", "id": "Hk2kBK4ItDZe5ml5SFg_3tV6Idk=", "properties": {"ref": "1045460", "@spider": "caliber_home_loans", "addr:full": "111 W. San Antonio Street  Suite 200-2", "addr:city": "New Braunfels", "addr:state": "TX", "addr:postcode": "78130", "name": "17203 - New Braunfels - 111 W. San Antonio Street", "website": "https://www.caliberhomeloans.com/Home/BranchList?stateCode=TX&LCSpeciality=all&SpanishSpeaking=no", "brand": "Caliber Home Loans"}, "geometry": {"type": "Point", "coordinates": [-98.1249485, 29.7020927]}},
{"type": "Feature", "id": "1gd_qyR_lzxuPl6RqaeaHBQi2Sk=", "properties": {"ref": "1864507", "@spider": "caliber_home_loans", "addr:full": "1702 Hwy 181 N Suite A-10", "addr:city": "Portland", "addr:state": "TX", "addr:postcode": "78374", "name": "19399 - Portland - 1702 Hwy 181 N", "website": "https://www.caliberhomeloans.com/Home/BranchList?stateCode=TX&LCSpeciality=all&SpanishSpeaking=no", "brand": "Caliber Home Loans"}, "geometry": {"type": "Point", "coordinates": [-97.3111725, 27.8882614]}},
{"type": "Feature", "id": "gm0ccFEqiviyK9Ukws8lzBA9Eng=", "properties": {"ref": "1595601", "@spider": "caliber_home_loans", "addr:full": "1360 Lee Trevino Dr. Suite 104", "addr:city": "El Paso", "addr:state": "TX", "addr:postcode": "79936", "name": "19397 -El Paso - 1360 Lee Trevino Dr.", "website": "https://www.caliberhomeloans.com/Home/BranchList?stateCode=TX&LCSpeciality=all&SpanishSpeaking=no", "brand": "Caliber Home Loans"}, "geometry": {"type": "Point", "coordinates": [-106.3205346, 31.7434459]}},
{"type": "Feature", "id": "HcwZziZt2pOjAJ41IUChKc63sQo=", "properties": {"ref": "1795606", "@spider": "caliber_home_loans", "addr:full": "2 Horizon Court Suites 700  800  900  1000 & 1100", "addr:city": "Rockwall", "addr:state": "TX", "addr:postcode": "75032", "name": "19363 - Heath aka Rockwall - 2 Horizon Court", "website": "https://www.caliberhomeloans.com/Home/BranchList?stateCode=TX&LCSpeciality=all&SpanishSpeaking=no", "brand": "Caliber Home Loans"}, "geometry": {"type": "Point", "coordinates": [-96.4665755, 32.8848847]}},
{"type": "Feature", "id": "iHaKbABTqoslhnNqcl7Veu91zhs=", "properties": {"ref": "1149944", "@spider": "caliber_home_loans", "addr:full": "3100 Monticello Avenue Suite 150  1st floor", "addr:city": "Dallas", "addr:state": "TX", "addr:postcode": "75205", "name": "19162 - Park Cities", "website": "https://www.caliberhomeloans.com/Home/BranchList?stateCode=TX&LCSpeciality=all&SpanishSpeaking=no", "brand": "Caliber Home Loans"}, "geometry": {"type": "Point", "coordinates": [-96.7858991, 32.8274571]}},
{"type": "Feature", "id": "jJwkUjZg28fFaYPpZ9YywKneiFU=", "properties": {"ref": "1123611", "@spider": "caliber_home_loans", "addr:full": "602 Strada Suite 106", "addr:city": "Mansfield", "addr:state": "TX", "addr:postcode": "76063", "name": "19476 - Mansfield - 602 Strada", "website": "https://www.caliberhomeloans.com/Home/BranchList?stateCode=TX&LCSpeciality=all&SpanishSpeaking=no", "brand": "Caliber Home Loans"}, "geometry": {"type": "Point", "coordinates": [-97.1327409, 32.5722019]}},
{"type": "Feature", "id": "onUPj8iFMQG3XyqqKnHm45h1xW0=", "properties": {"ref": "1236041", "@spider": "caliber_home_loans", "addr:full": "590 North Kimball  Suite 100", "addr:city": "Southlake", "addr:state": "TX", "addr:postcode": "76092", "name": "18345 - Southlake - 590 N. Kimball", "website": "https://www.caliberhomeloans.com/Home/BranchList?stateCode=TX&LCSpeciality=all&SpanishSpeaking=no", "brand": "Caliber Home Loans"}, "geometry": {"type": "Point", "coordinates": [-97.1174052, 32.9497349]}},
{"type": "Feature", "id": "ajfzF3RFeJYZdKsELJhJopTjMaU=", "properties": {"ref": "1858960", "@spider": "caliber_home_loans", "addr:full": "6001 W. William Cannon Drive Suite 202", "addr:city": "Austin", "addr:state": "TX", "addr:postcode": "78749", "name": "19486 - Austin - 6001 W. William Canon", "website": "https://www.caliberhomeloans.com/Home/BranchList?stateCode=TX&LCSpeciality=all&SpanishSpeaking=no", "brand": "Caliber Home Loans"}, "geometry": {"type": "Point", "coordinates": [-97.8631472, 30.2283944]}},
{"type": "Feature", "id": "923cDaPeJz5mymmjBcCXC0z09yk=", "properties": {"ref": "1645570", "@spider": "caliber_home_loans", "addr:full": "3401 Olympus Blvd. Suite 200", "addr:city": "Coppell", "addr:state": "TX", "addr:postcode": "75019", "name": "19485 - HQ - Cypress Waters - Coppell - 3401 Olympus Blvd.", "website": "https://www.caliberhomeloans.com/Home/BranchList?stateCode=TX&LCSpeciality=all&SpanishSpeaking=no", "brand": "Caliber Home Loans"}, "geometry": {"type": "Point", "coordinates": [-96.9888132, 32.938841]}},
{"type": "Feature", "id": "r1_5LRfabS05v1GxdakkGgkY2bg=", "properties": {"ref": "19485", "@spider": "caliber_home_loans", "addr:full": "3701 Regent Blvd. Suite 200", "addr:city": "Irving", "addr:state": "TX", "addr:postcode": "75063", "name": "RET-CD-CC1-ILG", "website": "https://www.caliberhomeloans.com/Home/BranchList?stateCode=TX&LCSpeciality=all&SpanishSpeaking=no", "brand": "Caliber Home Loans"}, "geometry": {"type": "Point", "coordinates": [-96.997016, 32.9223171]}},
{"type": "Feature", "id": "ZmVvmowz_jG_DheOmqgFaQzc7sw=", "properties": {"ref": "40590", "@spider": "caliber_home_loans", "addr:full": "33300 Egypt Ln.  Ste. L500 and L800", "addr:city": "Magnolia", "addr:state": "TX", "addr:postcode": "77354", "name": "19588 - Magnolia - 33300 Egypt Ln", "website": "https://www.caliberhomeloans.com/Home/BranchList?stateCode=TX&LCSpeciality=all&SpanishSpeaking=no", "brand": "Caliber Home Loans"}, "geometry": {"type": "Point", "coordinates": [-95.5612767, 30.2199457]}},
{"type": "Feature", "id": "GNXsHu1rXno-GqfwawU5gEtCpkU=", "properties": {"ref": "2151870", "@spider": "caliber_home_loans", "addr:full": "20333 State Highway 249  Ste 200  206 and 212 Suite 200 Suite 200", "addr:city": "Houston", "addr:state": "TX", "addr:postcode": "77070", "name": "19565 - Houston - 20333 State Highway 249  Ste. 200", "website": "https://www.caliberhomeloans.com/Home/BranchList?stateCode=TX&LCSpeciality=all&SpanishSpeaking=no", "brand": "Caliber Home Loans"}, "geometry": {"type": "Point", "coordinates": [-95.5732, 29.9881]}},
{"type": "Feature", "id": "a6b2LLUnHXI21KP6Ww98BbfEyt8=", "properties": {"ref": "2180198", "@spider": "caliber_home_loans", "addr:full": "2611 Plaza Parkway Suite 303", "addr:city": "Wichita Falls", "addr:state": "TX", "addr:postcode": "76308", "name": "19590 - Wichita Falls - 2611 Plaza Parkway", "website": "https://www.caliberhomeloans.com/Home/BranchList?stateCode=TX&LCSpeciality=all&SpanishSpeaking=no", "brand": "Caliber Home Loans"}, "geometry": {"type": "Point", "coordinates": [-98.5279039, 33.8686832]}},
{"type": "Feature", "id": "V0pmYBfCz0V86XQMLhZcrpUOf0E=", "properties": {"ref": "2135260", "@spider": "caliber_home_loans", "addr:full": "33300 Egypt Ln.  Ste. L500 and L800", "addr:city": "Magnolia", "addr:state": "TX", "addr:postcode": "77354", "name": "19588 - Magnolia - 33300 Egypt Ln", "website": "https://www.caliberhomeloans.com/Home/BranchList?stateCode=TX&LCSpeciality=all&SpanishSpeaking=no", "brand": "Caliber Home Loans"}, "geometry": {"type": "Point", "coordinates": [-95.5612767, 30.2199457]}},
{"type": "Feature", "id": "i7Rc9cq3laJHzj1bCKKKw9omgyY=", "properties": {"ref": "2184418", "@spider": "caliber_home_loans", "addr:full": "129 S. Main St. Suite. 235", "addr:city": "Grapevine", "addr:state": "TX", "addr:postcode": "76051", "name": "Grapevine - 129 S. Main St.", "website": "https://www.caliberhomeloans.com/Home/BranchList?stateCode=TX&LCSpeciality=all&SpanishSpeaking=no", "brand": "Caliber Home Loans"}, "geometry": {"type": "Point", "coordinates": [-97.0779915, 32.9401349]}},
{"type": "Feature", "id": "6VPyqRXJRNBpKhIfwd-S2EkGCV4=", "properties": {"ref": "1735529", "@spider": "caliber_home_loans", "addr:full": "6500 Harbour View Court Suite 101", "addr:city": "Midlothian", "addr:state": "VA", "addr:postcode": "23112", "name": "19268 - Midlothian - 6500 Harbour View Court", "website": "https://www.caliberhomeloans.com/Home/BranchList?stateCode=VA&LCSpeciality=all&SpanishSpeaking=no", "brand": "Caliber Home Loans"}, "geometry": {"type": "Point", "coordinates": [-77.6587329, 37.4093578]}},
{"type": "Feature", "id": "uvW-CK_H8NvbKwd02S2JCPTBTj8=", "properties": {"ref": "1489291", "@spider": "caliber_home_loans", "addr:full": "629 Phoenix Drive  Suite 175", "addr:city": "Virginia Beach", "addr:state": "VA", "addr:postcode": "23452", "name": "18996 - Virginia Beach - 629 Phoenix Drive", "website": "https://www.caliberhomeloans.com/Home/BranchList?stateCode=VA&LCSpeciality=all&SpanishSpeaking=no", "brand": "Caliber Home Loans"}, "geometry": {"type": "Point", "coordinates": [-76.0690183, 36.8263582]}},
{"type": "Feature", "id": "-rFSNzi3c5xL6hyyXjo2q9qF3Ac=", "properties": {"ref": "1968238", "@spider": "caliber_home_loans", "addr:full": "111 Walt Whitman Ave.", "addr:city": "Newport News", "addr:state": "VA", "addr:postcode": "23606", "name": "19449  - Newport News - 111 Walt Whitman Ave.", "website": "https://www.caliberhomeloans.com/Home/BranchList?stateCode=VA&LCSpeciality=all&SpanishSpeaking=no", "brand": "Caliber Home Loans"}, "geometry": {"type": "Point", "coordinates": [-76.4872045, 37.0832414]}},
{"type": "Feature", "id": "tkn0zIKSYsvyJcczYYiAjGTXoSI=", "properties": {"ref": "1582690", "@spider": "caliber_home_loans", "addr:full": "12010 Sunset Hills Rd. Suite 200", "addr:city": "Reston", "addr:state": "VA", "addr:postcode": "20190", "name": "19173 - Reston - 12010 Sunset Hills Rd.", "website": "https://www.caliberhomeloans.com/Home/BranchList?stateCode=VA&LCSpeciality=all&SpanishSpeaking=no", "brand": "Caliber Home Loans"}, "geometry": {"type": "Point", "coordinates": [-77.3563771, 38.9560074]}},
{"type": "Feature", "id": "juSNcMGbQG5weTlG27zEDiGmgMo=", "properties": {"ref": "15622-457827", "@spider": "caliber_home_loans", "addr:full": "308 Granite Avenue", "addr:city": "Richmond", "addr:state": "VA", "addr:postcode": "23226", "name": "19436 - Richmond - 308 Granite Avenue", "website": "https://www.caliberhomeloans.com/Home/BranchList?stateCode=VA&LCSpeciality=all&SpanishSpeaking=no", "brand": "Caliber Home Loans"}, "geometry": {"type": "Point", "coordinates": [-77.5168484, 37.5738937]}},
{"type": "Feature", "id": "xguUoj2qJ-CwEgGlvSNVaNAnEVY=", "properties": {"ref": "1044084", "@spider": "caliber_home_loans", "addr:full": "4050 Legato Road  Suite 100", "addr:city": "Fairfax", "addr:state": "VA", "addr:postcode": "22033", "name": "18568 - Fairfax - 4050 Legato Road", "website": "https://www.caliberhomeloans.com/Home/BranchList?stateCode=VA&LCSpeciality=all&SpanishSpeaking=no", "brand": "Caliber Home Loans"}, "geometry": {"type": "Point", "coordinates": [-77.3644743, 38.8657204]}},
{"type": "Feature", "id": "4E8sn9472CAlYYQPb5nV_5j7nnM=", "properties": {"ref": "1725142", "@spider": "caliber_home_loans", "addr:full": "1933 Landstown Centre Way Suite 330", "addr:city": "Virginia Beach", "addr:state": "VA", "addr:postcode": "23456", "name": "19247 - Virginia Beach - 1933 Landstown Centre Way", "website": "https://www.caliberhomeloans.com/Home/BranchList?stateCode=VA&LCSpeciality=all&SpanishSpeaking=no", "brand": "Caliber Home Loans"}, "geometry": {"type": "Point", "coordinates": [-76.0893507, 36.7726772]}},
{"type": "Feature", "id": "j0sx2FAWHCTI27ql0k6LxASJq80=", "properties": {"ref": "1692357", "@spider": "caliber_home_loans", "addr:full": "638 Independence Pkwy  Suite 220", "addr:city": "Chesapeake", "addr:state": "VA", "addr:postcode": "23320", "name": "19249 - Chesapeake - 638 Independence Parkway", "website": "https://www.caliberhomeloans.com/Home/BranchList?stateCode=VA&LCSpeciality=all&SpanishSpeaking=no", "brand": "Caliber Home Loans"}, "geometry": {"type": "Point", "coordinates": [-76.2624492, 36.7660198]}},
{"type": "Feature", "id": "dkfWHqw5UE_Sr7_JUYMOZk4uWBc=", "properties": {"ref": "1573948", "@spider": "caliber_home_loans", "addr:full": "5615 W. Wellington Rd. 113/115", "addr:city": "Gainesville", "addr:state": "VA", "addr:postcode": "20155", "name": "19033 - Gainesville - 5615 Wellington Rd.", "website": "https://www.caliberhomeloans.com/Home/BranchList?stateCode=VA&LCSpeciality=all&SpanishSpeaking=no", "brand": "Caliber Home Loans"}, "geometry": {"type": "Point", "coordinates": [-77.5924937, 38.7926826]}},
{"type": "Feature", "id": "UWaOYVgCr3yWHR5S3NenVmZU8dk=", "properties": {"ref": "1236044", "@spider": "caliber_home_loans", "addr:full": "1528 North Woodland Park Blvd  Suite 120", "addr:city": "Layton", "addr:state": "UT", "addr:postcode": "84041", "name": "19216 - Layton - 1528 North Woodland Park Blvd", "website": "https://www.caliberhomeloans.com/Home/BranchList?stateCode=UT&LCSpeciality=all&SpanishSpeaking=no", "brand": "Caliber Home Loans"}, "geometry": {"type": "Point", "coordinates": [-111.9820709, 41.0816152]}},
{"type": "Feature", "id": "BOuGKnFDxYgJljsrUO7n4ejkBUM=", "properties": {"ref": "1707938", "@spider": "caliber_home_loans", "addr:full": "45 West 10000 South Suite 315", "addr:city": "Sandy", "addr:state": "UT", "addr:postcode": "84070", "name": "19288 - Sandy - 45 West 10000 South", "website": "https://www.caliberhomeloans.com/Home/BranchList?stateCode=UT&LCSpeciality=all&SpanishSpeaking=no", "brand": "Caliber Home Loans"}, "geometry": {"type": "Point", "coordinates": [-111.9345096, 40.567846]}},
{"type": "Feature", "id": "Z3P-yPwzfzpj1CmWOXZVBJlA4GA=", "properties": {"ref": "1805371", "@spider": "caliber_home_loans", "addr:full": "2411 Pacific Ave. SE Suite B", "addr:city": "Olympia", "addr:state": "WA", "addr:postcode": "98501", "name": "19360 - Olympia - 2411 Pacific Ave. SE", "website": "https://www.caliberhomeloans.com/Home/BranchList?stateCode=WA&LCSpeciality=all&SpanishSpeaking=no", "brand": "Caliber Home Loans"}, "geometry": {"type": "Point", "coordinates": [-122.8687564, 47.0444125]}},
{"type": "Feature", "id": "ge9Zg9ueFjDE5t7UeTN-8r9QBjE=", "properties": {"ref": "1505026", "@spider": "caliber_home_loans", "addr:full": "155 3rd Avenue South  Suite 2", "addr:city": "Edmonds", "addr:state": "WA", "addr:postcode": "98020", "name": "18975 - Edmonds - 155 3rd Avenue South", "website": "https://www.caliberhomeloans.com/Home/BranchList?stateCode=WA&LCSpeciality=all&SpanishSpeaking=no", "brand": "Caliber Home Loans"}, "geometry": {"type": "Point", "coordinates": [-122.3799859, 47.8098867]}},
{"type": "Feature", "id": "kU9AfnyVIquwpEUd-FkmcT2_jtE=", "properties": {"ref": "1235380", "@spider": "caliber_home_loans", "addr:full": "6050 Tacoma Mall Boulevard  Suite 200", "addr:city": "Tacoma", "addr:state": "WA", "addr:postcode": "98409", "name": "18337 - Tacoma - 6050 Tacoma Mall Boulevard", "website": "https://www.caliberhomeloans.com/Home/BranchList?stateCode=WA&LCSpeciality=all&SpanishSpeaking=no", "brand": "Caliber Home Loans"}, "geometry": {"type": "Point", "coordinates": [-122.4635686, 47.2010332]}},
{"type": "Feature", "id": "hsmFAge6Ix3uKGpmUa5M6z7F3Gs=", "properties": {"ref": "1500205", "@spider": "caliber_home_loans", "addr:full": "715 Seafarers Way  Suite 100E", "addr:city": "Anacortes", "addr:state": "WA", "addr:postcode": "98221", "name": "18919 - Anacortes -715 Seafarers Way", "website": "https://www.caliberhomeloans.com/Home/BranchList?stateCode=WA&LCSpeciality=all&SpanishSpeaking=no", "brand": "Caliber Home Loans"}, "geometry": {"type": "Point", "coordinates": [-122.6083129, 48.5103282]}},
{"type": "Feature", "id": "YVY57OAJMllGglxBplSdkaqTANQ=", "properties": {"ref": "1236072", "@spider": "caliber_home_loans", "addr:full": "2200 Rimland Drive Suite 110", "addr:city": "Bellingham", "addr:state": "WA", "addr:postcode": "98226", "name": "Bellingham Branch", "website": "https://www.caliberhomeloans.com/Home/BranchList?stateCode=WA&LCSpeciality=all&SpanishSpeaking=no", "brand": "Caliber Home Loans"}, "geometry": {"type": "Point", "coordinates": [-122.4448515, 48.7729382]}},
{"type": "Feature", "id": "rB69NIj4ZeS4M4Tudre19tcDa7E=", "properties": {"ref": "1668788", "@spider": "caliber_home_loans", "addr:full": "6100 219th Street SW Suite 545", "addr:city": "Mountlake Terrace", "addr:state": "WA", "addr:postcode": "98043", "name": "19187 - Mountlake Terrace - 6100 219th Street SW", "website": "https://www.caliberhomeloans.com/Home/BranchList?stateCode=WA&LCSpeciality=all&SpanishSpeaking=no", "brand": "Caliber Home Loans"}, "geometry": {"type": "Point", "coordinates": [-122.3166766, 47.8002155]}},
{"type": "Feature", "id": "JP0uwqN6UWwbcR8RCwlKDob5KjM=", "properties": {"ref": "1236069", "@spider": "caliber_home_loans", "addr:full": "6625 Wagner Way  Suites 204 & 208", "addr:city": "Gig Harbor", "addr:state": "WA", "addr:postcode": "98335", "name": "18340 - Gig Harbor -  6625 Wagner Way", "website": "https://www.caliberhomeloans.com/Home/BranchList?stateCode=WA&LCSpeciality=all&SpanishSpeaking=no", "brand": "Caliber Home Loans"}, "geometry": {"type": "Point", "coordinates": [-122.5929664, 47.3191398]}},
{"type": "Feature", "id": "cea4QSek84XhtH_1eHIcoSI2XEg=", "properties": {"ref": "1235334", "@spider": "caliber_home_loans", "addr:full": "20829 72nd Avenue South Suite 820", "addr:city": "Kent", "addr:state": "WA", "addr:postcode": "98032", "name": "19139 - Kent - 20829 72nd Avenue South", "website": "https://www.caliberhomeloans.com/Home/BranchList?stateCode=WA&LCSpeciality=all&SpanishSpeaking=no", "brand": "Caliber Home Loans"}, "geometry": {"type": "Point", "coordinates": [-122.2462367, 47.4157375]}},
{"type": "Feature", "id": "12NoVO6rbtwMzfUO1ne0jZIq-O0=", "properties": {"ref": "1236066", "@spider": "caliber_home_loans", "addr:full": "8203 W Quinault Ave. Building B Suite 600", "addr:city": "Kennewick", "addr:state": "WA", "addr:postcode": "99336", "name": "19586 - Kennewick - 8203 W Quinault Ave.", "website": "https://www.caliberhomeloans.com/Home/BranchList?stateCode=WA&LCSpeciality=all&SpanishSpeaking=no", "brand": "Caliber Home Loans"}, "geometry": {"type": "Point", "coordinates": [-119.23187, 46.2227627]}},
{"type": "Feature", "id": "V0fjWrg75azWdmPP-CwPXDmP2do=", "properties": {"ref": "1236086", "@spider": "caliber_home_loans", "addr:full": "18704 Bothell Way NE  Suites 101  102 and 200", "addr:city": "Bothell", "addr:state": "WA", "addr:postcode": "98011", "name": "19000 - Bothell - 18704 Bothell Way NE", "website": "https://www.caliberhomeloans.com/Home/BranchList?stateCode=WA&LCSpeciality=all&SpanishSpeaking=no", "brand": "Caliber Home Loans"}, "geometry": {"type": "Point", "coordinates": [-122.2073252, 47.7636011]}},
{"type": "Feature", "id": "7p3wqZGF87cxyh_2oS_ziruzQbE=", "properties": {"ref": "1495811", "@spider": "caliber_home_loans", "addr:full": "225 W. Main Avenue  Suite 200  Offices 1  3  5", "addr:city": "Spokane", "addr:state": "WA", "addr:postcode": "99201", "name": "18967 - Spokane - 225 W. Main Avenue", "website": "https://www.caliberhomeloans.com/Home/BranchList?stateCode=WA&LCSpeciality=all&SpanishSpeaking=no", "brand": "Caliber Home Loans"}, "geometry": {"type": "Point", "coordinates": [-117.4147682, 47.6588561]}},
{"type": "Feature", "id": "m9B9nR-tfkVdHp9aXeZu1PiY_iA=", "properties": {"ref": "1236010", "@spider": "caliber_home_loans", "addr:full": "11255 Kirkland Way  Suites 100  110 & 200", "addr:city": "Kirkland", "addr:state": "WA", "addr:postcode": "98033", "name": "18325 - Kirkland - 11255 Kirkland Way", "website": "https://www.caliberhomeloans.com/Home/BranchList?stateCode=WA&LCSpeciality=all&SpanishSpeaking=no", "brand": "Caliber Home Loans"}, "geometry": {"type": "Point", "coordinates": [-122.1876845, 47.6783858]}},
{"type": "Feature", "id": "asEJtUcPSUidL_MJ1YsOCHGg6Ko=", "properties": {"ref": "1624783", "@spider": "caliber_home_loans", "addr:full": "703 North Water Street", "addr:city": "Ellensburg", "addr:state": "WA", "addr:postcode": "98926", "name": "19147 - Ellensburg - 703 N Water Street  Ellensburg  WA 98926", "website": "https://www.caliberhomeloans.com/Home/BranchList?stateCode=WA&LCSpeciality=all&SpanishSpeaking=no", "brand": "Caliber Home Loans"}, "geometry": {"type": "Point", "coordinates": [-120.5505426, 46.9988417]}},
{"type": "Feature", "id": "TkhEgP9lwPM7xw7IcBfsiWm-6Nk=", "properties": {"ref": "1236054", "@spider": "caliber_home_loans", "addr:full": "10220 NE Point Dr.  Ste. 315", "addr:city": "Kirkland", "addr:state": "WA", "addr:postcode": "98033", "name": "19569 - Kirkland - 10220 NE Point Dr", "website": "https://www.caliberhomeloans.com/Home/BranchList?stateCode=WA&LCSpeciality=all&SpanishSpeaking=no", "brand": "Caliber Home Loans"}, "geometry": {"type": "Point", "coordinates": [-122.2030659, 47.644299]}},
{"type": "Feature", "id": "u9fvTm3jM3oMZIjtLxCWgoxR_js=", "properties": {"ref": "1236090", "@spider": "caliber_home_loans", "addr:full": "2825 Colby Avenue  Suite 305", "addr:city": "Everett", "addr:state": "WA", "addr:postcode": "98201", "name": "18341 - Everett - 2825 Colby Avenue", "website": "https://www.caliberhomeloans.com/Home/BranchList?stateCode=WA&LCSpeciality=all&SpanishSpeaking=no", "brand": "Caliber Home Loans"}, "geometry": {"type": "Point", "coordinates": [-122.2082026, 47.979612]}},
{"type": "Feature", "id": "zy7OB6voCo080m5VNpadUGFw2vc=", "properties": {"ref": "1708917", "@spider": "caliber_home_loans", "addr:full": "601 Union Street Suite 3000", "addr:city": "Seattle", "addr:state": "WA", "addr:postcode": "98101", "name": "19181 - Seattle - 601 Union Street", "website": "https://www.caliberhomeloans.com/Home/BranchList?stateCode=WA&LCSpeciality=all&SpanishSpeaking=no", "brand": "Caliber Home Loans"}, "geometry": {"type": "Point", "coordinates": [-122.3325493, 47.610144]}},
{"type": "Feature", "id": "yziDIFa7MsK2mCNxSpiH9eYJAe8=", "properties": {"ref": "1236068", "@spider": "caliber_home_loans", "addr:full": "371 NE Gilman Blvd Suites 340 350", "addr:city": "Issaquah", "addr:state": "WA", "addr:postcode": "98027", "name": "18388  Issaquah 371 NE Gilman Blvd.", "website": "https://www.caliberhomeloans.com/Home/BranchList?stateCode=WA&LCSpeciality=all&SpanishSpeaking=no", "brand": "Caliber Home Loans"}, "geometry": {"type": "Point", "coordinates": [-122.0294034, 47.53254]}},
{"type": "Feature", "id": "aFZ2UEIZbbDyV75bMLyJd3y4jz4=", "properties": {"ref": "1760099", "@spider": "caliber_home_loans", "addr:full": "1111 N. Mission St. Suite A & B", "addr:city": "Wenatchee", "addr:state": "WA", "addr:postcode": "98801", "name": "19483 - Wenatchee - 1111 N. Mission St.", "website": "https://www.caliberhomeloans.com/Home/BranchList?stateCode=WA&LCSpeciality=all&SpanishSpeaking=no", "brand": "Caliber Home Loans"}, "geometry": {"type": "Point", "coordinates": [-120.3230971, 47.4372411]}},
{"type": "Feature", "id": "T5lAlbkF1J0eUuCLoNlb-6ehnUM=", "properties": {"ref": "1236104", "@spider": "caliber_home_loans", "addr:full": "2701 Eastlake Ave E Suite 105", "addr:city": "Seattle", "addr:state": "WA", "addr:postcode": "98102", "name": "19230 - Seattle - 2701 Eastlake Ave E", "website": "https://www.caliberhomeloans.com/Home/BranchList?stateCode=WA&LCSpeciality=all&SpanishSpeaking=no", "brand": "Caliber Home Loans"}, "geometry": {"type": "Point", "coordinates": [-122.3262054, 47.6447827]}},
{"type": "Feature", "id": "vOpJd-Lx3lC9c2EPh7LQ9fhwUFI=", "properties": {"ref": "1953076", "@spider": "caliber_home_loans", "addr:full": "719 Griffin Avenue", "addr:city": "Enumclaw", "addr:state": "WA", "addr:postcode": "98022", "name": "19518 - Enumclaw - 719 Griffin Avenue", "website": "https://www.caliberhomeloans.com/Home/BranchList?stateCode=WA&LCSpeciality=all&SpanishSpeaking=no", "brand": "Caliber Home Loans"}, "geometry": {"type": "Point", "coordinates": [-121.985502, 47.2017612]}},
{"type": "Feature", "id": "ZysW5xwejzJdXgsn9f1yhwCFvys=", "properties": {"ref": "1235506", "@spider": "caliber_home_loans", "addr:full": "9226 Bayshore Drive NW Suite 200 & 224", "addr:city": "Silverdale", "addr:state": "WA", "addr:postcode": "98383", "name": "19016 - Silverdale - 9226 Bayshore Drive NW", "website": "https://www.caliberhomeloans.com/Home/BranchList?stateCode=WA&LCSpeciality=all&SpanishSpeaking=no", "brand": "Caliber Home Loans"}, "geometry": {"type": "Point", "coordinates": [-122.6948697, 47.6445386]}},
{"type": "Feature", "id": "ohdwHfXUFa82bKTf7vP3Ti8SvGE=", "properties": {"ref": "1866847", "@spider": "caliber_home_loans", "addr:full": "325 E. George Hopper Rd. Suite 202-D", "addr:city": "Burlington", "addr:state": "WA", "addr:postcode": "98233", "name": "19384 - Burlington - 325 E. George Hopper Rd.", "website": "https://www.caliberhomeloans.com/Home/BranchList?stateCode=WA&LCSpeciality=all&SpanishSpeaking=no", "brand": "Caliber Home Loans"}, "geometry": {"type": "Point", "coordinates": [-122.3308614, 48.4524144]}},
{"type": "Feature", "id": "zz_GtqZaacIqj5uz0JM80v2sjJY=", "properties": {"ref": "1235513", "@spider": "caliber_home_loans", "addr:full": "175 West Washington", "addr:city": "Sequim", "addr:state": "WA", "addr:postcode": "98382", "name": "Sequim", "website": "https://www.caliberhomeloans.com/Home/BranchList?stateCode=WA&LCSpeciality=all&SpanishSpeaking=no", "brand": "Caliber Home Loans"}, "geometry": {"type": "Point", "coordinates": [-123.1043102, 48.0794107]}},
{"type": "Feature", "id": "6ndNt23uQRd_2C5_0rs-hErUagc=", "properties": {"ref": "1750130", "@spider": "caliber_home_loans", "addr:full": "144 NE Ernst Street, Suite A", "addr:city": "Oak Harbor", "addr:state": "WA", "addr:postcode": "98277", "name": "Oak Harbor", "website": "https://www.caliberhomeloans.com/Home/BranchList?stateCode=WA&LCSpeciality=all&SpanishSpeaking=no", "brand": "Caliber Home Loans"}, "geometry": {"type": "Point", "coordinates": [-122.6519273, 48.2996263]}},
{"type": "Feature", "id": "NV4-ae-LvicSf86tdRHnlO0BRmQ=", "properties": {"ref": "1855109", "@spider": "caliber_home_loans", "addr:full": "711 E. Front Street Suite B", "addr:city": "Port Angeles", "addr:state": "WA", "addr:postcode": "98362", "name": "19369 - Port Angeles - 711 E. Front Street", "website": "https://www.caliberhomeloans.com/Home/BranchList?stateCode=WA&LCSpeciality=all&SpanishSpeaking=no", "brand": "Caliber Home Loans"}, "geometry": {"type": "Point", "coordinates": [-123.4210039, 48.1154574]}},
{"type": "Feature", "id": "qyblKdqexFbIW1DKe8NYfVBiClw=", "properties": {"ref": "1623475", "@spider": "caliber_home_loans", "addr:full": "1415 Lakeside Ct.  Ste. 100", "addr:city": "Yakima", "addr:state": "WA", "addr:postcode": "98902", "name": "19148 - Yakima - 1415 Lakeside Ct.  Ste. 100  Yakima  WA 98917", "website": "https://www.caliberhomeloans.com/Home/BranchList?stateCode=WA&LCSpeciality=all&SpanishSpeaking=no", "brand": "Caliber Home Loans"}, "geometry": {"type": "Point", "coordinates": [-120.5573297, 46.621785]}},
{"type": "Feature", "id": "_iOsn7Ftaf0PcH_XBHrsFKpJvpA=", "properties": {"ref": "1761413", "@spider": "caliber_home_loans", "addr:full": "216 East Woodin Avenue Suite #4", "addr:city": "Chelan", "addr:state": "WA", "addr:postcode": "98816", "name": "19293 - Chelan - 216 East Woodin Avenue", "website": "https://www.caliberhomeloans.com/Home/BranchList?stateCode=WA&LCSpeciality=all&SpanishSpeaking=no", "brand": "Caliber Home Loans"}, "geometry": {"type": "Point", "coordinates": [-120.0159424, 47.8396275]}},
{"type": "Feature", "id": "pOO80xYQNQz5JueBeupOYqZ4UBY=", "properties": {"ref": "1842026", "@spider": "caliber_home_loans", "addr:full": "914 15th St.", "addr:city": "Anacortes", "addr:state": "WA", "addr:postcode": "98221", "name": "Anacortes", "website": "https://www.caliberhomeloans.com/Home/BranchList?stateCode=WA&LCSpeciality=all&SpanishSpeaking=no", "brand": "Caliber Home Loans"}, "geometry": {"type": "Point", "coordinates": [-122.6120252, 48.5105501]}},
{"type": "Feature", "id": "8pNH_4eoEsLegvG2m5-lrDQwpNw=", "properties": {"ref": "1874713", "@spider": "caliber_home_loans", "addr:full": "700 Front Street  Suite B and C", "addr:city": "Lynden", "addr:state": "WA", "addr:postcode": "98264", "name": "19381 - Lynden - 700 Front Street", "website": "https://www.caliberhomeloans.com/Home/BranchList?stateCode=WA&LCSpeciality=all&SpanishSpeaking=no", "brand": "Caliber Home Loans"}, "geometry": {"type": "Point", "coordinates": [-122.4560092, 48.9421304]}},
{"type": "Feature", "id": "HH21MGhaURvmKOdYRZ6tmz5VeN0=", "properties": {"ref": "1235305", "@spider": "caliber_home_loans", "addr:full": "17717 132nd Avenue North East", "addr:city": "Woodinville", "addr:state": "WA", "addr:postcode": "98072", "name": "90005 - Woodinville - 17717 132nd Avenue NE", "website": "https://www.caliberhomeloans.com/Home/BranchList?stateCode=WA&LCSpeciality=all&SpanishSpeaking=no", "brand": "Caliber Home Loans"}, "geometry": {"type": "Point", "coordinates": [-122.1637191, 47.7564363]}},
{"type": "Feature", "id": "zKpoXMvUkmOCmg8b7CzkD1HmsSY=", "properties": {"ref": "1235595", "@spider": "caliber_home_loans", "addr:full": "10712 Rhody Drive Suite 103", "addr:city": "Port Hadlock", "addr:state": "WA", "addr:postcode": "98339", "name": "Port Hadlock", "website": "https://www.caliberhomeloans.com/Home/BranchList?stateCode=WA&LCSpeciality=all&SpanishSpeaking=no", "brand": "Caliber Home Loans"}, "geometry": {"type": "Point", "coordinates": [-122.7806458, 48.0303733]}},
{"type": "Feature", "id": "5JHfNbsi8_V8TzKLUjUbpsyD6Tc=", "properties": {"ref": "1622759", "@spider": "caliber_home_loans", "addr:full": "818 W. Riverside Ave. Suite 520", "addr:city": "Spokane", "addr:state": "WA", "addr:postcode": "99201", "name": "19433 - Spokane - 818 W. Riverside Ave.", "website": "https://www.caliberhomeloans.com/Home/BranchList?stateCode=WA&LCSpeciality=all&SpanishSpeaking=no", "brand": "Caliber Home Loans"}, "geometry": {"type": "Point", "coordinates": [-117.4243803, 47.65825]}},
{"type": "Feature", "id": "75rib-pARoJ8fXho3-gl_SpYqX0=", "properties": {"ref": "1235311", "@spider": "caliber_home_loans", "addr:full": "7720 North East Vancouver Mall Drive  Suite 120", "addr:city": "Vancouver", "addr:state": "WA", "addr:postcode": "98662", "name": "18359 - Vancouver - 7720 NE Vancouver Mall Drive", "website": "https://www.caliberhomeloans.com/Home/BranchList?stateCode=WA&LCSpeciality=all&SpanishSpeaking=no", "brand": "Caliber Home Loans"}, "geometry": {"type": "Point", "coordinates": [-122.5933433, 45.658544]}},
{"type": "Feature", "id": "bGJzUHLsmsi7tV4TIZO2kdtvUBo=", "properties": {"ref": "1235591", "@spider": "caliber_home_loans", "addr:full": "424 29th St. NE Suite C", "addr:city": "Puyallup", "addr:state": "WA", "addr:postcode": "98372", "name": "19462 - Puyallup - 424 29th St. NE", "website": "https://www.caliberhomeloans.com/Home/BranchList?stateCode=WA&LCSpeciality=all&SpanishSpeaking=no", "brand": "Caliber Home Loans"}, "geometry": {"type": "Point", "coordinates": [-122.2554244, 47.1946795]}},
{"type": "Feature", "id": "9NaBMn3lhdRlK1BostG-hZx9E7c=", "properties": {"ref": "1947984", "@spider": "caliber_home_loans", "addr:full": "10217 19th Ave. SE 101", "addr:city": "Everett", "addr:state": "WA", "addr:postcode": "98208", "name": "19409 - Mill Creek - Everett - 10217 19th Ave SE", "website": "https://www.caliberhomeloans.com/Home/BranchList?stateCode=WA&LCSpeciality=all&SpanishSpeaking=no", "brand": "Caliber Home Loans"}, "geometry": {"type": "Point", "coordinates": [-122.2062606, 47.9049301]}},
{"type": "Feature", "id": "slluh48tAniFxfFc5zVmyEKpVJ4=", "properties": {"ref": "1985818", "@spider": "caliber_home_loans", "addr:full": "777 108th Avenue NE Suite 1700", "addr:city": "Bellevue", "addr:state": "WA", "addr:postcode": "98004", "name": "19400 - Bellevue - 777 108th Avenue NE", "website": "https://www.caliberhomeloans.com/Home/BranchList?stateCode=WA&LCSpeciality=all&SpanishSpeaking=no", "brand": "Caliber Home Loans"}, "geometry": {"type": "Point", "coordinates": [-122.1969421, 47.6167175]}},
{"type": "Feature", "id": "lq-UHRCL62Q4udmDqyrWYw5nHUI=", "properties": {"ref": "1978457", "@spider": "caliber_home_loans", "addr:full": "1943 Main Street Suite 301", "addr:city": "Ferndale", "addr:state": "WA", "addr:postcode": "98248", "name": "19465 - Ferndale - 1943 Main Street", "website": "https://www.caliberhomeloans.com/Home/BranchList?stateCode=WA&LCSpeciality=all&SpanishSpeaking=no", "brand": "Caliber Home Loans"}, "geometry": {"type": "Point", "coordinates": [-122.5870848, 48.84435]}},
{"type": "Feature", "id": "TMr86-r9ZFnzyHr4OiTOXI3Mc-0=", "properties": {"ref": "1235387", "@spider": "caliber_home_loans", "addr:full": "803 E. Saddleback Lane", "addr:city": "Spokane", "addr:state": "WA", "addr:postcode": "99208", "name": "Spokane", "website": "https://www.caliberhomeloans.com/Home/BranchList?stateCode=WA&LCSpeciality=all&SpanishSpeaking=no", "brand": "Caliber Home Loans"}, "geometry": {"type": "Point", "coordinates": [-117.398663, 47.775221]}},
{"type": "Feature", "id": "VF9R4m_6atZu189BexwH0TZGDXM=", "properties": {"ref": "2031249", "@spider": "caliber_home_loans", "addr:full": "106 Plaza Dr. SE Bldg. B2", "addr:city": "Yelm", "addr:state": "WA", "addr:postcode": "98597", "name": "19493 - Yelm - 106 Plaza Dr.", "website": "https://www.caliberhomeloans.com/Home/BranchList?stateCode=WA&LCSpeciality=all&SpanishSpeaking=no", "brand": "Caliber Home Loans"}, "geometry": {"type": "Point", "coordinates": [-122.5917652, 46.9353904]}},
{"type": "Feature", "id": "9xGtCxTgFmikPGJAv-j3Cc3fpIU=", "properties": {"ref": "2029284", "@spider": "caliber_home_loans", "addr:full": "201 NE Park Plaza Dr. Suite 250", "addr:city": "Vancouver", "addr:state": "WA", "addr:postcode": "98684", "name": "19489 - Vancouver - 201 NE Park Plaza Dr.", "website": "https://www.caliberhomeloans.com/Home/BranchList?stateCode=WA&LCSpeciality=all&SpanishSpeaking=no", "brand": "Caliber Home Loans"}, "geometry": {"type": "Point", "coordinates": [-122.5391056, 45.6227063]}},
{"type": "Feature", "id": "lStcxwVKsz_5AyTuOwsbozB7XXA=", "properties": {"ref": "2033651", "@spider": "caliber_home_loans", "addr:full": "3400 188th St. SW Suite 316", "addr:city": "Lynnwood", "addr:state": "WA", "addr:postcode": "98037", "name": "19487 - Lynnwood - 3400 188th St. SW", "website": "https://www.caliberhomeloans.com/Home/BranchList?stateCode=WA&LCSpeciality=all&SpanishSpeaking=no", "brand": "Caliber Home Loans"}, "geometry": {"type": "Point", "coordinates": [-122.2795193, 47.8277397]}},
{"type": "Feature", "id": "NsngVJpwSZyJJ4NEWg7m7PnJM7k=", "properties": {"ref": "1996339", "@spider": "caliber_home_loans", "addr:full": "15221 Maple Valley Hwy Suite 400", "addr:city": "Renton", "addr:state": "WA", "addr:postcode": "98058", "name": "19475 - Renton - 15221 Maple Valley Hwy", "website": "https://www.caliberhomeloans.com/Home/BranchList?stateCode=WA&LCSpeciality=all&SpanishSpeaking=no", "brand": "Caliber Home Loans"}, "geometry": {"type": "Point", "coordinates": [-122.137248, 47.4647759]}},
{"type": "Feature", "id": "twvC-FNUXvhhMd83Z7NmjxzqS_U=", "properties": {"ref": "2022748", "@spider": "caliber_home_loans", "addr:full": "2727 Holycroft St. Suite 360", "addr:city": "Gig Harbor", "addr:state": "WA", "addr:postcode": "98335", "name": "19488 - Gig Harbor - 2727 Holycroft St.", "website": "https://www.caliberhomeloans.com/Home/BranchList?stateCode=WA&LCSpeciality=all&SpanishSpeaking=no", "brand": "Caliber Home Loans"}, "geometry": {"type": "Point", "coordinates": [-122.5753997, 47.3092063]}},
{"type": "Feature", "id": "1XZVso0ijvLpzvUjXgquSGMjKlE=", "properties": {"ref": "2107092", "@spider": "caliber_home_loans", "addr:full": "2607 N Proctor St.", "addr:city": "Tacoma", "addr:state": "WA", "addr:postcode": "98407", "name": "19531 - Tacoma- 2607 N Proctor St.", "website": "https://www.caliberhomeloans.com/Home/BranchList?stateCode=WA&LCSpeciality=all&SpanishSpeaking=no", "brand": "Caliber Home Loans"}, "geometry": {"type": "Point", "coordinates": [-122.4886277, 47.2714391]}},
{"type": "Feature", "id": "q4yuuQmONbejshN2Gi0WccU9pjE=", "properties": {"ref": "2105476", "@spider": "caliber_home_loans", "addr:full": "33801 1st Way South Suite 261", "addr:city": "Federal Way", "addr:state": "WA", "addr:postcode": "98003", "name": "19495 - Federal Way - 33801 1st Way South", "website": "https://www.caliberhomeloans.com/Home/BranchList?stateCode=WA&LCSpeciality=all&SpanishSpeaking=no", "brand": "Caliber Home Loans"}, "geometry": {"type": "Point", "coordinates": [-122.3295471, 47.2985474]}},
{"type": "Feature", "id": "ocTBZdhL2-Ieg7fojMC9aiLMbrc=", "properties": {"ref": "1439323", "@spider": "caliber_home_loans", "addr:full": "2900 Meridian Street", "addr:city": "Bellingham", "addr:state": "WA", "addr:postcode": "98226", "name": "Bellingham 2 Branch", "website": "https://www.caliberhomeloans.com/Home/BranchList?stateCode=WA&LCSpeciality=all&SpanishSpeaking=no", "brand": "Caliber Home Loans"}, "geometry": {"type": "Point", "coordinates": [-122.4857131, 48.7684599]}},
{"type": "Feature", "id": "vRGMJBOZiXV4M7ndbYSu3s-enGk=", "properties": {"ref": "2152327", "@spider": "caliber_home_loans", "addr:full": "1116 First St.", "addr:city": "Snohomish", "addr:state": "WA", "addr:postcode": "98290", "name": "19530 - Snohomish - 1116 First St.", "website": "https://www.caliberhomeloans.com/Home/BranchList?stateCode=WA&LCSpeciality=all&SpanishSpeaking=no", "brand": "Caliber Home Loans"}, "geometry": {"type": "Point", "coordinates": [-122.0967541, 47.9116427]}},
{"type": "Feature", "id": "BNmxVewqbu2Lwya_3szi461jWHM=", "properties": {"ref": "1044097", "@spider": "caliber_home_loans", "addr:full": "4341 US Route 60  Suite 177", "addr:city": "E. Huntington", "addr:state": "WV", "addr:postcode": "25705", "name": "16499 - Huntington - 4341 US Route 60", "website": "https://www.caliberhomeloans.com/Home/BranchList?stateCode=WV&LCSpeciality=all&SpanishSpeaking=no", "brand": "Caliber Home Loans"}, "geometry": {"type": "Point", "coordinates": [-82.3658701, 38.4106277]}},
{"type": "Feature", "id": "2Q-Sh1LZA5U68Y_UVwOPHCd9hBw=", "properties": {"ref": "1558906", "@spider": "caliber_home_loans", "addr:full": "484 W. Johnson St. Suite 200", "addr:city": "Fond du Lac", "addr:state": "WI", "addr:postcode": "54935", "name": "19183 - Fond du Lac - 484 W. Johnson St.", "website": "https://www.caliberhomeloans.com/Home/BranchList?stateCode=WI&LCSpeciality=all&SpanishSpeaking=no", "brand": "Caliber Home Loans"}, "geometry": {"type": "Point", "coordinates": [-88.4654809, 43.7841289]}}]}