{"type":"FeatureCollection","features":[{"type": "Feature", "id": "_fjzYGb4Ghs1X7aLjLPlQCzEuCk=", "properties": {"ref": "20-A Killingworth Turnpike", "@spider": "calvin_klein", "addr:full": "20-A Killingworth Turnpike", "addr:city": "Clinton", "addr:state": "CT", "addr:postcode": "6413", "addr:country": "United States", "name": "Calvin Klein", "phone": "TEL: (860) 664-4623", "brand": "Calvin Klein"}, "geometry": {"type": "Point", "coordinates": [-72.5338, 41.292]}},
{"type": "Feature", "id": "zkCxOYhvplG93M_SqXLLAwHabCI=", "properties": {"ref": "455 Trolley Line Blvd. Suite #880", "@spider": "calvin_klein", "addr:full": "455 Trolley Line Blvd. Suite #880", "addr:city": "Mashantucket", "addr:state": "CT", "addr:postcode": "6338", "addr:country": "United States", "name": "Calvin Klein", "phone": "TEL: (860) 383-2882", "brand": "Calvin Klein"}, "geometry": {"type": "Point", "coordinates": [-71.9747, 41.4574]}},
{"type": "Feature", "id": "JBIkkeJzDhO7og-T6q6fXSJUXq4=", "properties": {"ref": "15257 N. Scottsdale Road", "@spider": "calvin_klein", "addr:full": "15257 N. Scottsdale Road", "addr:city": "Scottsdale", "addr:state": "AZ", "addr:postcode": "85254", "addr:country": "United States", "name": "Calvin Klein", "phone": "TEL: (480) 991-3617", "brand": "Calvin Klein"}, "geometry": {"type": "Point", "coordinates": [-111.924, 33.6231]}},
{"type": "Feature", "id": "5UUW_Hyu8hZ2k9o8Vmbg5QWh1oM=", "properties": {"ref": "4250 West Anthem Way", "@spider": "calvin_klein", "addr:full": "4250 West Anthem Way", "addr:city": "Phoenix", "addr:state": "AZ", "addr:postcode": "85086", "addr:country": "United States", "name": "Calvin Klein", "phone": "TEL: (623) 465-4912", "brand": "Calvin Klein"}, "geometry": {"type": "Point", "coordinates": [-112.15, 33.8739]}},
{"type": "Feature", "id": "E_EYpyKtXwrKThKfkbsVyzbqrJg=", "properties": {"ref": "6800 N. 95 Ave, Suite #895", "@spider": "calvin_klein", "addr:full": "6800 N. 95 Ave, Suite #895", "addr:city": "Glendale", "addr:state": "AZ", "addr:postcode": "85305", "addr:country": "United States", "name": "Calvin Klein", "phone": "TEL: (623) 877-1413", "brand": "Calvin Klein"}, "geometry": {"type": "Point", "coordinates": [-112.186, 33.539]}},
{"type": "Feature", "id": "foGTzA2r1WtytJVAc75uzciRnU8=", "properties": {"ref": "4976 Premium Outlets Way, Suite #602", "@spider": "calvin_klein", "addr:full": "4976 Premium Outlets Way, Suite #602", "addr:city": "Chandler", "addr:state": "AZ", "addr:postcode": "85226", "addr:country": "United States", "name": "Calvin Klein", "phone": "TEL: (480) 639-1706", "brand": "Calvin Klein"}, "geometry": {"type": "Point", "coordinates": [-111.973, 33.2876]}},
{"type": "Feature", "id": "Cs_dpgpfNreTZdwXb_j4diqBR_o=", "properties": {"ref": "6401 W Marana Center BLVD", "@spider": "calvin_klein", "addr:full": "6401 W Marana Center BLVD", "addr:city": "Tuscon", "addr:state": "AZ", "addr:postcode": "85742", "addr:country": "United States", "name": "Calvin Klein", "phone": "TEL: (520) 686-5686", "brand": "Calvin Klein"}, "geometry": {"type": "Point", "coordinates": [-111.101, 32.3757]}},
{"type": "Feature", "id": "w7yMOAW6t5uyj1O645NYc3zOREE=", "properties": {"ref": "800 Highway 400 S.", "@spider": "calvin_klein", "addr:full": "800 Highway 400 S.", "addr:city": "Dawsonwille", "addr:state": "GA", "addr:postcode": "30534", "addr:country": "United States", "name": "Calvin Klein", "phone": "TEL: (706) 265-0027", "brand": "Calvin Klein"}, "geometry": {"type": "Point", "coordinates": [-84.0468, 34.3598]}},
{"type": "Feature", "id": "Up2mPa2wORTpWhEY2dERp18_EvA=", "properties": {"ref": "167-A Wilderness Road", "@spider": "calvin_klein", "addr:full": "167-A Wilderness Road", "addr:city": "Silverthorne", "addr:state": "CO", "addr:postcode": "80498", "addr:country": "United States", "name": "Calvin Klein", "phone": "TEL: (970) 468-9228", "brand": "Calvin Klein"}, "geometry": {"type": "Point", "coordinates": [-106.06, 39.6331]}},
{"type": "Feature", "id": "8lEFNhleVYLsV1tEXx2wEfPg9GE=", "properties": {"ref": "5050 Factory Shops Boulevard", "@spider": "calvin_klein", "addr:full": "5050 Factory Shops Boulevard", "addr:city": "Castle Rock", "addr:state": "CO", "addr:postcode": "80108", "addr:country": "United States", "name": "Calvin Klein", "phone": "TEL: (303) 660-4255", "brand": "Calvin Klein"}, "geometry": {"type": "Point", "coordinates": [-104.875, 39.4153]}},
{"type": "Feature", "id": "zc1Fg4mtiDBBheME_pub6F_gP3c=", "properties": {"ref": "950 Camarillo Center Drive", "@spider": "calvin_klein", "addr:full": "950 Camarillo Center Drive", "addr:city": "Camarillo", "addr:state": "CA", "addr:postcode": "93010", "addr:country": "United States", "name": "Calvin Klein", "phone": "TEL: (805) 482-9004", "brand": "Calvin Klein"}, "geometry": {"type": "Point", "coordinates": [-119.058, 34.2137]}},
{"type": "Feature", "id": "W0ZvlRcOejsThvj3EXKjL8_gKFw=", "properties": {"ref": "8300 Arroyo Circle", "@spider": "calvin_klein", "addr:full": "8300 Arroyo Circle", "addr:city": "Gilroy", "addr:state": "CA", "addr:postcode": "95020", "addr:country": "United States", "name": "Calvin Klein", "phone": "TEL: (408) 842-9132", "brand": "Calvin Klein"}, "geometry": {"type": "Point", "coordinates": [-121.561, 37.0216]}},
{"type": "Feature", "id": "pbx4V9v8k842qnV1b3VM6uWZ9Bg=", "properties": {"ref": "48659 Seminole Drive", "@spider": "calvin_klein", "addr:full": "48659 Seminole Drive", "addr:city": "Cabazon", "addr:state": "CA", "addr:postcode": "92230", "addr:country": "United States", "name": "Calvin Klein", "phone": "TEL: (951) 849-9538", "brand": "Calvin Klein"}, "geometry": {"type": "Point", "coordinates": [-116.814, 33.9267]}},
{"type": "Feature", "id": "srsUMDyPPhFe2FVEMGUydOeFtlA=", "properties": {"ref": "374 Nut Tree Road", "@spider": "calvin_klein", "addr:full": "374 Nut Tree Road", "addr:city": "Vacaville", "addr:state": "CA", "addr:postcode": "95687", "addr:country": "United States", "name": "Calvin Klein", "phone": "TEL: (707) 449-8097", "brand": "Calvin Klein"}, "geometry": {"type": "Point", "coordinates": [-121.954, 38.3656]}},
{"type": "Feature", "id": "PiQoOP_2mdonoQKknUyj3q7_ZhU=", "properties": {"ref": "1 Mills Circle #820", "@spider": "calvin_klein", "addr:full": "1 Mills Circle #820", "addr:city": "Ontario", "addr:state": "CA", "addr:postcode": "91764", "addr:country": "United States", "name": "Calvin Klein", "phone": "TEL: (909) 476-9692", "brand": "Calvin Klein"}, "geometry": {"type": "Point", "coordinates": [-117.552, 34.073]}},
{"type": "Feature", "id": "CVNyBAS8ChNJyjYpJuF8XQIu8Rs=", "properties": {"ref": "705 Factory Stores Drive", "@spider": "calvin_klein", "addr:full": "705 Factory Stores Drive", "addr:city": "Napa", "addr:state": "CA", "addr:postcode": "94558", "addr:country": "United States", "name": "Calvin Klein", "phone": "TEL: (707) 258-1984", "brand": "Calvin Klein"}, "geometry": {"type": "Point", "coordinates": [-122.303, 38.2948]}},
{"type": "Feature", "id": "9iuQNwv8Is7dh5HIR_QJQxq7e20=", "properties": {"ref": "14500 W Colfax Avenue Space #180", "@spider": "calvin_klein", "addr:full": "14500 W Colfax Avenue Space #180", "addr:city": "Lakewood", "addr:state": "CO", "addr:postcode": "80401", "addr:country": "United States", "name": "Calvin Klein", "phone": "TEL: (303) 278-1296", "brand": "Calvin Klein"}, "geometry": {"type": "Point", "coordinates": [-105.158, 39.7334]}},
{"type": "Feature", "id": "ydyvHvl-FpjCGomVQa5CSXxRTsI=", "properties": {"ref": "13801 Grant street Suite#833", "@spider": "calvin_klein", "addr:full": "13801 Grant street Suite#833", "addr:city": "Thornton", "addr:state": "CO", "addr:postcode": "80023", "addr:country": "United States", "name": "Calvin Klein", "phone": "TEL: (303) 920-5091", "brand": "Calvin Klein"}, "geometry": {"type": "Point", "coordinates": [-104.99, 39.96]}},
{"type": "Feature", "id": "lnpV4Gz4NTTcYpF74hhgftyK9k8=", "properties": {"ref": "1709 Retherford Street", "@spider": "calvin_klein", "addr:full": "1709 Retherford Street", "addr:city": "Tulare", "addr:state": "CA", "addr:postcode": "93274", "addr:country": "United States", "name": "Calvin Klein", "phone": "TEL: (559) 684-7971", "brand": "Calvin Klein"}, "geometry": {"type": "Point", "coordinates": [-119.336, 36.2306]}},
{"type": "Feature", "id": "tn2x4_RgMicF1LQrUyTtVEAD3jg=", "properties": {"ref": "4265 Camino de La Plaza", "@spider": "calvin_klein", "addr:full": "4265 Camino de La Plaza", "addr:city": "San Diego", "addr:state": "CA", "addr:postcode": "92173", "addr:country": "United States", "name": "Calvin Klein", "phone": "TEL: (619) 662-2470", "brand": "Calvin Klein"}, "geometry": {"type": "Point", "coordinates": [-117.041, 32.544]}},
{"type": "Feature", "id": "WYQveiNG3Aa0yemWBEfb_Z7kHAY=", "properties": {"ref": "13000 Folsom Boulevard", "@spider": "calvin_klein", "addr:full": "13000 Folsom Boulevard", "addr:city": "Folsom", "addr:state": "CA", "addr:postcode": "95630", "addr:country": "United States", "name": "Calvin Klein", "phone": "TEL: (916) 357-5101", "brand": "Calvin Klein"}, "geometry": {"type": "Point", "coordinates": [-121.189, 38.6447]}},
{"type": "Feature", "id": "xrbMvtzX9fAequky_FLq6-4Ju4E=", "properties": {"ref": "540 Great Mall Drive Suite #540", "@spider": "calvin_klein", "addr:full": "540 Great Mall Drive Suite #540", "addr:city": "Milpitas", "addr:state": "CA", "addr:postcode": "95035", "addr:country": "United States", "name": "Calvin Klein", "phone": "TEL: (408) 586-9501", "brand": "Calvin Klein"}, "geometry": {"type": "Point", "coordinates": [-121.895, 37.4167]}},
{"type": "Feature", "id": "YsagvpaByMPsiUQhAKsqXCZWtkU=", "properties": {"ref": "333 Five Cities Drive", "@spider": "calvin_klein", "addr:full": "333 Five Cities Drive", "addr:city": "Pismo Beach", "addr:state": "CA", "addr:postcode": "93449", "addr:country": "United States", "name": "Calvin Klein", "phone": "TEL: (805) 556-0358", "brand": "Calvin Klein"}, "geometry": {"type": "Point", "coordinates": [-120.628, 35.1358]}},
{"type": "Feature", "id": "RL1PvsjBmuRyRJJxj6pAvegZtI4=", "properties": {"ref": "2796 Tanger Way", "@spider": "calvin_klein", "addr:full": "2796 Tanger Way", "addr:city": "Barstow", "addr:state": "CA", "addr:postcode": "92311", "addr:country": "United States", "name": "Calvin Klein", "phone": "TEL: (760) 253-2936", "brand": "Calvin Klein"}, "geometry": {"type": "Point", "coordinates": [-117.085, 34.8464]}},
{"type": "Feature", "id": "PD0ObPvxev8z2RG6rEg6WtghS7M=", "properties": {"ref": "740 Ventura Boulevard", "@spider": "calvin_klein", "addr:full": "740 Ventura Boulevard", "addr:city": "Camarillo", "addr:state": "CA", "addr:postcode": "93010", "addr:country": "United States", "name": "Calvin Klein", "phone": "TEL: (805) 482-8526", "brand": "Calvin Klein"}, "geometry": {"type": "Point", "coordinates": [-119.06, 34.2179]}},
{"type": "Feature", "id": "PzZO5pTN2PAKtL3KWCxvPq6Kjcw=", "properties": {"ref": "8375 Arroyo Circle", "@spider": "calvin_klein", "addr:full": "8375 Arroyo Circle", "addr:city": "Gilroy", "addr:state": "CA", "addr:postcode": "95020", "addr:country": "United States", "name": "Calvin Klein", "phone": "TEL: (408) 847-3128", "brand": "Calvin Klein"}, "geometry": {"type": "Point", "coordinates": [-121.564, 37.023]}},
{"type": "Feature", "id": "jcqUUIkXykezc6_4a2dQT_6Iqdg=", "properties": {"ref": "311 Nut Tree Road", "@spider": "calvin_klein", "addr:full": "311 Nut Tree Road", "addr:city": "Vacaville", "addr:state": "CA", "addr:postcode": "95687", "addr:country": "United States", "name": "Calvin Klein", "phone": "TEL: (707) 455-7404", "brand": "Calvin Klein"}, "geometry": {"type": "Point", "coordinates": [-121.957, 38.3658]}},
{"type": "Feature", "id": "g1ligVF-7sq8uMZXNRVBEAdQWOE=", "properties": {"ref": "36454 Seaside Outlet Drive", "@spider": "calvin_klein", "addr:full": "36454 Seaside Outlet Drive", "addr:city": "Rehoboth Beach", "addr:state": "DE", "addr:postcode": "19971", "addr:country": "United States", "name": "Calvin Klein", "phone": "TEL: (302) 226-8482", "brand": "Calvin Klein"}, "geometry": {"type": "Point", "coordinates": [-75.1119, 38.719]}},
{"type": "Feature", "id": "VaHxRQWaLZCF2W2ey0qmo7krqYU=", "properties": {"ref": "10801 Corkscrew Road", "@spider": "calvin_klein", "addr:full": "10801 Corkscrew Road", "addr:city": "Estero", "addr:state": "FL", "addr:postcode": "33928", "addr:country": "United States", "name": "Calvin Klein", "phone": "TEL: (239) 495-7737", "brand": "Calvin Klein"}, "geometry": {"type": "Point", "coordinates": [-81.7725, 26.4386]}},
{"type": "Feature", "id": "68om0Vfmz8tM0opFv3w5hDt4rqk=", "properties": {"ref": "10562 Emeralds Coast Parkway W.", "@spider": "calvin_klein", "addr:full": "10562 Emeralds Coast Parkway W.", "addr:city": "Destin", "addr:state": "FL", "addr:postcode": "32550", "addr:country": "United States", "name": "Calvin Klein", "phone": "TEL: (850) 650-4828", "brand": "Calvin Klein"}, "geometry": {"type": "Point", "coordinates": [-86.4958, 30.3935]}},
{"type": "Feature", "id": "2Tp0jRbkDrDF2NvbbPD-RH-vLa8=", "properties": {"ref": "5265 International Drive", "@spider": "calvin_klein", "addr:full": "5265 International Drive", "addr:city": "Orlando", "addr:state": "FL", "addr:postcode": "32819", "addr:country": "United States", "name": "Calvin Klein", "phone": "TEL: (407) 352-3565", "brand": "Calvin Klein"}, "geometry": {"type": "Point", "coordinates": [-81.4505, 28.4666]}},
{"type": "Feature", "id": "XJ0vzWKdh2lCDEmJGDKUv2rxtXg=", "properties": {"ref": "5579 Factory Shops Boulevard", "@spider": "calvin_klein", "addr:full": "5579 Factory Shops Boulevard", "addr:city": "Ellenton", "addr:state": "FL", "addr:postcode": "34222", "addr:country": "United States", "name": "Calvin Klein", "phone": "TEL: (941) 723-1959", "brand": "Calvin Klein"}, "geometry": {"type": "Point", "coordinates": [-82.504, 27.5343]}},
{"type": "Feature", "id": "Iwh_LXyDhX3562YdMmx95tcFwd4=", "properties": {"ref": "1852-94th Drive", "@spider": "calvin_klein", "addr:full": "1852-94th Drive", "addr:city": "Vero Beach", "addr:state": "FL", "addr:postcode": "32966", "addr:country": "United States", "name": "Calvin Klein", "phone": "TEL: (772) 299-7008", "brand": "Calvin Klein"}, "geometry": {"type": "Point", "coordinates": [-80.3975, 27.6387]}},
{"type": "Feature", "id": "Bl9-GfVl1FNdUP2okuGwglEj4JY=", "properties": {"ref": "94-798 Lumiaina Street", "@spider": "calvin_klein", "addr:full": "94-798 Lumiaina Street", "addr:city": "Waipahu", "addr:state": "HI", "addr:postcode": "96797", "addr:country": "United States", "name": "Calvin Klein", "phone": "TEL: (808) 678-3845", "brand": "Calvin Klein"}, "geometry": {"type": "Point", "coordinates": [-158.007, 21.4022]}},
{"type": "Feature", "id": "FtXatj7SXrA9kOaQBu60yEljNpg=", "properties": {"ref": "900 Front Street, Suite #C-2", "@spider": "calvin_klein", "addr:full": "900 Front Street, Suite #C-2", "addr:city": "Lahaina", "addr:state": "HI", "addr:postcode": "96761", "addr:country": "United States", "name": "Calvin Klein", "phone": "TEL: (808) 667-2323", "brand": "Calvin Klein"}, "geometry": {"type": "Point", "coordinates": [-156.68, 20.8755]}},
{"type": "Feature", "id": "q9NgDYAdNDsaZkpeouJH3rmLld8=", "properties": {"ref": "94-796 Lumiaina Street", "@spider": "calvin_klein", "addr:full": "94-796 Lumiaina Street", "addr:city": "Waipahu", "addr:state": "HI", "addr:postcode": "96797", "addr:country": "United States", "name": "Calvin Klein", "phone": "TEL: (808) 680-0494", "brand": "Calvin Klein"}, "geometry": {"type": "Point", "coordinates": [-158.007, 21.4028]}},
{"type": "Feature", "id": "0nVeTnWY3jpfqYpiwu-YlPiwUBk=", "properties": {"ref": "20 City Boulevard West", "@spider": "calvin_klein", "addr:full": "20 City Boulevard West", "addr:city": "Orange", "addr:state": "CA", "addr:postcode": "92868", "addr:country": "United States", "name": "Calvin Klein", "phone": "TEL: (714) 938-0816", "brand": "Calvin Klein"}, "geometry": {"type": "Point", "coordinates": [-117.892, 33.7829]}},
{"type": "Feature", "id": "FwyWQfiUzIRnUHaVBmFRARZ68zE=", "properties": {"ref": "3333 Bristol Street", "@spider": "calvin_klein", "addr:full": "3333 Bristol Street", "addr:city": "Costa Mesa", "addr:state": "CA", "addr:postcode": "92626", "addr:country": "United States", "name": "Calvin Klein", "phone": "TEL: (714) 662-1901", "brand": "Calvin Klein"}, "geometry": {"type": "Point", "coordinates": [-117.889, 33.6907]}},
{"type": "Feature", "id": "nBW14Ggetr0PqCjjiD9DkosyL6Q=", "properties": {"ref": "2740 Livermore Outlets Dr", "@spider": "calvin_klein", "addr:full": "2740 Livermore Outlets Dr", "addr:city": "Livermore", "addr:state": "CA", "addr:postcode": "94551", "addr:country": "United States", "name": "Calvin Klein", "phone": "TEL: (925) 449-1058", "brand": "Calvin Klein"}, "geometry": {"type": "Point", "coordinates": [-121.842, 37.6969]}},
{"type": "Feature", "id": "VQawGdNs4UTyAi_l45ki8dyEhvc=", "properties": {"ref": "910 Camarillo Center Drive, Suite #824", "@spider": "calvin_klein", "addr:full": "910 Camarillo Center Drive, Suite #824", "addr:city": "Camarillo", "addr:state": "CA", "addr:postcode": "93010", "addr:country": "United States", "name": "Calvin Klein", "phone": "TEL: (805) 383-3377", "brand": "Calvin Klein"}, "geometry": {"type": "Point", "coordinates": [-119.058, 34.2145]}},
{"type": "Feature", "id": "EMTCGBDpJCLN-qi1atxqSrRWKOI=", "properties": {"ref": "447 Great Mall Drive, Suite #534", "@spider": "calvin_klein", "addr:full": "447 Great Mall Drive, Suite #534", "addr:city": "Milpitas", "addr:state": "CA", "addr:postcode": "95035", "addr:country": "United States", "name": "Calvin Klein", "phone": "TEL: (408) 719-8387", "brand": "Calvin Klein"}, "geometry": {"type": "Point", "coordinates": [-121.896, 37.4189]}},
{"type": "Feature", "id": "IpfNGlcLB_D_wB8zldVx2uye5mc=", "properties": {"ref": "5701 Outlets of Tejon Pkwy", "@spider": "calvin_klein", "addr:full": "5701 Outlets of Tejon Pkwy", "addr:city": "Arvin", "addr:state": "CA", "addr:postcode": "93203", "addr:country": "United States", "name": "Calvin Klein", "phone": "TEL: (661) 858-2048", "brand": "Calvin Klein"}, "geometry": {"type": "Point", "coordinates": [-118.942, 34.9853]}},
{"type": "Feature", "id": "ZzQ-i7i2rKmzuCrn3B4gXCwL624=", "properties": {"ref": "101 West Avenida Vista Hermosa", "@spider": "calvin_klein", "addr:full": "101 West Avenida Vista Hermosa", "addr:city": "San Clemente", "addr:state": "CA", "addr:postcode": "92672", "addr:country": "United States", "name": "Calvin Klein", "phone": "TEL: (949) 498-2549", "brand": "Calvin Klein"}, "geometry": {"type": "Point", "coordinates": [-117.629, 33.4379]}},
{"type": "Feature", "id": "V91HM401atrdcy27l1fL5Bph6T0=", "properties": {"ref": "4245 Camino De La Plaza", "@spider": "calvin_klein", "addr:full": "4245 Camino De La Plaza", "addr:city": "San Diego", "addr:state": "CA", "addr:postcode": "92173", "addr:country": "United States", "name": "Calvin Klein", "phone": "TEL: (619) 934-7362", "brand": "Calvin Klein"}, "geometry": {"type": "Point", "coordinates": [-117.09, 32.5757]}},
{"type": "Feature", "id": "J_nqOHHB4xeiQLQ7qfNOwX2cR-E=", "properties": {"ref": "2700 State Road 16", "@spider": "calvin_klein", "addr:full": "2700 State Road 16", "addr:city": "St. Augustine", "addr:state": "FL", "addr:postcode": "32092", "addr:country": "United States", "name": "Calvin Klein", "phone": "TEL: (904) 819-9545", "brand": "Calvin Klein"}, "geometry": {"type": "Point", "coordinates": [-81.4158, 29.9211]}},
{"type": "Feature", "id": "CK5urZK7SX00xK1ay7pJn_EwQVY=", "properties": {"ref": "20350 Summerlin Road", "@spider": "calvin_klein", "addr:full": "20350 Summerlin Road", "addr:city": "Ft. Myers", "addr:state": "FL", "addr:postcode": "33908", "addr:country": "United States", "name": "Calvin Klein", "phone": "TEL: (239) 415-4480", "brand": "Calvin Klein"}, "geometry": {"type": "Point", "coordinates": [-81.9747, 26.4951]}},
{"type": "Feature", "id": "TroALK0dbuvAie4RrGPJxlntxQw=", "properties": {"ref": "11401 NW 12th Street", "@spider": "calvin_klein", "addr:full": "11401 NW 12th Street", "addr:city": "Miami", "addr:state": "FL", "addr:postcode": "33172", "addr:country": "United States", "name": "Calvin Klein", "phone": "TEL: (305) 513-3727", "brand": "Calvin Klein"}, "geometry": {"type": "Point", "coordinates": [-80.38, 25.7867]}},
{"type": "Feature", "id": "O82MIHeYm118q7RcfByn6fV65gw=", "properties": {"ref": "12801 West Sunrise Boulevard", "@spider": "calvin_klein", "addr:full": "12801 West Sunrise Boulevard", "addr:city": "Sunrise", "addr:state": "FL", "addr:postcode": "33323", "addr:country": "United States", "name": "Calvin Klein", "phone": "TEL: (954) 835-1343", "brand": "Calvin Klein"}, "geometry": {"type": "Point", "coordinates": [-80.3102, 26.1512]}},
{"type": "Feature", "id": "vt_iWol6PXbft-pA57HeMwxbhfA=", "properties": {"ref": "8200 Vineland Avenue", "@spider": "calvin_klein", "addr:full": "8200 Vineland Avenue", "addr:city": "Orlando", "addr:state": "FL", "addr:postcode": "32821", "addr:country": "United States", "name": "Calvin Klein", "phone": "TEL: (407) 465-8654", "brand": "Calvin Klein"}, "geometry": {"type": "Point", "coordinates": [-81.4941, 28.3867]}},
{"type": "Feature", "id": "v3n83svswWZCmHoin-4ryHBdWX0=", "properties": {"ref": "19501 Biscayne Blvd", "@spider": "calvin_klein", "addr:full": "19501 Biscayne Blvd", "addr:city": "Aventura", "addr:state": "FL", "addr:postcode": "33180", "addr:country": "United States", "name": "Calvin Klein", "phone": "TEL: (305) 692-1671", "brand": "Calvin Klein"}, "geometry": {"type": "Point", "coordinates": [-80.1432, 25.9573]}},
{"type": "Feature", "id": "XTkeX0lg3WecV_pi4inwtm3J3U0=", "properties": {"ref": "15733 South Apopka Vineland Rd,", "@spider": "calvin_klein", "addr:full": "15733 South Apopka Vineland Rd,", "addr:city": "Orlando", "addr:state": "FL", "addr:postcode": "32821", "addr:country": "United States", "name": "Calvin Klein", "phone": "TEL: (407) 465-0900", "brand": "Calvin Klein"}, "geometry": {"type": "Point", "coordinates": [-81.489, 28.3487]}},
{"type": "Feature", "id": "NRNEi0Su7iRcyzvaXjPWgAWKtg4=", "properties": {"ref": "300 Premium Outlets Boulevard", "@spider": "calvin_klein", "addr:full": "300 Premium Outlets Boulevard", "addr:city": "Lee", "addr:state": "MA", "addr:postcode": "1238", "addr:country": "United States", "name": "Calvin Klein", "phone": "TEL: (413) 243-5791", "brand": "Calvin Klein"}, "geometry": {"type": "Point", "coordinates": [-73.2422, 42.3035]}},
{"type": "Feature", "id": "8iQYDkc8uRTJBoGVOy2jUFfI4Ok=", "properties": {"ref": "1 Premium Boulevard", "@spider": "calvin_klein", "addr:full": "1 Premium Boulevard", "addr:city": "Wrentham", "addr:state": "MA", "addr:postcode": "2093", "addr:country": "United States", "name": "Calvin Klein", "phone": "TEL: (508) 384-1940", "brand": "Calvin Klein"}, "geometry": {"type": "Point", "coordinates": [-71.3281, 42.0668]}},
{"type": "Feature", "id": "6A6xoYkiADOuFI7ymYUz_P4_fz4=", "properties": {"ref": "2650 Livermore Outlets Drive", "@spider": "calvin_klein", "addr:full": "2650 Livermore Outlets Drive", "addr:city": "Livermore", "addr:state": "CA", "addr:postcode": "94551", "addr:country": "United States", "name": "Calvin Klein", "phone": "TEL: (925) 447-5517", "brand": "Calvin Klein"}, "geometry": {"type": "Point", "coordinates": [-121.842, 37.6976]}},
{"type": "Feature", "id": "mdc3Rh_5msHXLPpV2g1ebjGrNBc=", "properties": {"ref": "3020 Livermore Outlets Drive", "@spider": "calvin_klein", "addr:full": "3020 Livermore Outlets Drive", "addr:city": "Livermore", "addr:state": "CA", "addr:postcode": "94551", "addr:country": "United States", "name": "Calvin Klein", "phone": "TEL: (925) 447-4008", "brand": "Calvin Klein"}, "geometry": {"type": "Point", "coordinates": [-121.844, 37.6991]}},
{"type": "Feature", "id": "TSgWn82agicLhX8Mq3NIDwUaJ4w=", "properties": {"ref": "1003 Lighthouse Place Ste #J030", "@spider": "calvin_klein", "addr:full": "1003 Lighthouse Place Ste #J030", "addr:city": "Michigan City", "addr:state": "IN", "addr:postcode": "46360", "addr:country": "United States", "name": "Calvin Klein", "phone": "TEL: (219) 879-6380", "brand": "Calvin Klein"}, "geometry": {"type": "Point", "coordinates": [-86.9069, 41.7159]}},
{"type": "Feature", "id": "-yNyXG2P1f9xSVMPBhYpiklw0vU=", "properties": {"ref": "11955 North East Executive Drive", "@spider": "calvin_klein", "addr:full": "11955 North East Executive Drive", "addr:city": "Edinburgh", "addr:state": "IN", "addr:postcode": "46124", "addr:country": "United States", "name": "Calvin Klein", "phone": "TEL: (812) 526-2770", "brand": "Calvin Klein"}, "geometry": {"type": "Point", "coordinates": [-85.9614, 39.3075]}},
{"type": "Feature", "id": "oijZAtA3hQBElvZARgvfDhBSh60=", "properties": {"ref": "600 Premium Outlets Boulevard", "@spider": "calvin_klein", "addr:full": "600 Premium Outlets Boulevard", "addr:city": "Hagerstown", "addr:state": "MD", "addr:postcode": "21740", "addr:country": "United States", "name": "Calvin Klein", "phone": "TEL: (301) 733-2611", "brand": "Calvin Klein"}, "geometry": {"type": "Point", "coordinates": [-77.7338, 39.6085]}},
{"type": "Feature", "id": "L-m_CMiCMfQeqcukO9xs_IRMvio=", "properties": {"ref": "7000 Arundel Mills Cir", "@spider": "calvin_klein", "addr:full": "7000 Arundel Mills Cir", "addr:city": "Hanover", "addr:state": "MD", "addr:postcode": "21076", "addr:country": "United States", "name": "Calvin Klein", "phone": "TEL: (410) 540-9490", "brand": "Calvin Klein"}, "geometry": {"type": "Point", "coordinates": [-76.7254, 39.1624]}},
{"type": "Feature", "id": "faa7H7Yf_qpTuPiULj2GsINZzBg=", "properties": {"ref": "121 Outlet Center Drive", "@spider": "calvin_klein", "addr:full": "121 Outlet Center Drive", "addr:city": "Queenstown", "addr:state": "MD", "addr:postcode": "21658", "addr:country": "United States", "name": "Calvin Klein", "phone": "TEL: (410) 827-3216", "brand": "Calvin Klein"}, "geometry": {"type": "Point", "coordinates": [-76.1603, 38.9837]}},
{"type": "Feature", "id": "IMCJWr2fpfi7euMaSRlvSma0aww=", "properties": {"ref": "6800 Oxon Hill Road, Suite #480", "@spider": "calvin_klein", "addr:full": "6800 Oxon Hill Road, Suite #480", "addr:city": "National Harbor", "addr:state": "MD", "addr:postcode": "20745", "addr:country": "United States", "name": "Calvin Klein", "phone": "TEL: (301) 567-1552", "brand": "Calvin Klein"}, "geometry": {"type": "Point", "coordinates": [-77.0109, 38.7825]}},
{"type": "Feature", "id": "ehtgFLkNpTjfmIYkRJZnWwQZ77w=", "properties": {"ref": "22705 Clarksburg Rd #130", "@spider": "calvin_klein", "addr:full": "22705 Clarksburg Rd #130", "addr:city": "Clarksburg", "addr:state": "MD", "addr:postcode": "20871", "addr:country": "United States", "name": "Calvin Klein", "phone": "TEL: (301) 540-7598", "brand": "Calvin Klein"}, "geometry": {"type": "Point", "coordinates": [-77.2869, 39.23]}},
{"type": "Feature", "id": "TMyDR5Wt9b_UfhLsG4HmIsV69F4=", "properties": {"ref": "500 Port of New Orleans Place #158", "@spider": "calvin_klein", "addr:full": "500 Port of New Orleans Place #158", "addr:city": "New Orleans", "addr:state": "LA", "addr:postcode": "70130", "addr:country": "United States", "name": "Calvin Klein", "phone": "TEL: (504) 581-4996", "brand": "Calvin Klein"}, "geometry": {"type": "Point", "coordinates": [-90.0622, 29.9435]}},
{"type": "Feature", "id": "OhBlR6hF1rsIAN00pd1sUn27mbg=", "properties": {"ref": "1771 Palm Beach Lakes Blvd, Suite #W301", "@spider": "calvin_klein", "addr:full": "1771 Palm Beach Lakes Blvd, Suite #W301", "addr:city": "West Palm Beach", "addr:state": "FL", "addr:postcode": "33401", "addr:country": "United States", "name": "Calvin Klein", "phone": "TEL: (561) 640-9426", "brand": "Calvin Klein"}, "geometry": {"type": "Point", "coordinates": [-80.085, 26.7237]}},
{"type": "Feature", "id": "EEA75pCEWExJKd9mzjNeMi3uZGk=", "properties": {"ref": "4963 International Drive", "@spider": "calvin_klein", "addr:full": "4963 International Drive", "addr:city": "Orlando", "addr:state": "FL", "addr:postcode": "32819", "addr:country": "United States", "name": "Calvin Klein", "phone": "TEL: (407) 354-4916", "brand": "Calvin Klein"}, "geometry": {"type": "Point", "coordinates": [-81.4497, 28.4738]}},
{"type": "Feature", "id": "Kmnfcd0UKLvmyIeivcKJEYmWABM=", "properties": {"ref": "4953 International Dr", "@spider": "calvin_klein", "addr:full": "4953 International Dr", "addr:city": "Orlando", "addr:state": "FL", "addr:postcode": "32819", "addr:country": "United States", "name": "Calvin Klein", "phone": "TEL: (407) 248-8215", "brand": "Calvin Klein"}, "geometry": {"type": "Point", "coordinates": [-81.4522, 28.4749]}},
{"type": "Feature", "id": "bX7RVWvbHPB_sTB9kGNPqzM62HA=", "properties": {"ref": "4973 International Dr", "@spider": "calvin_klein", "addr:full": "4973 International Dr", "addr:city": "Orlando", "addr:state": "FL", "addr:postcode": "32819", "addr:country": "United States", "name": "Calvin Klein", "phone": "TEL: (407) 354-4442", "brand": "Calvin Klein"}, "geometry": {"type": "Point", "coordinates": [-81.4494, 28.4742]}},
{"type": "Feature", "id": "cvP_7Rr1yylqz1DyxWuiNGPJJ5g=", "properties": {"ref": "2350 Grand Cypress Drive", "@spider": "calvin_klein", "addr:full": "2350 Grand Cypress Drive", "addr:city": "Lutz", "addr:state": "FL", "addr:postcode": "33559", "addr:country": "United States", "name": "Calvin Klein", "phone": "TEL: (813) 498-5279", "brand": "Calvin Klein"}, "geometry": {"type": "Point", "coordinates": [-82.3929, 28.1892]}},
{"type": "Feature", "id": "UD-QmWO4HV22bUNkSPaajlRlPaI=", "properties": {"ref": "12801 West Sunrise BLVD", "@spider": "calvin_klein", "addr:full": "12801 West Sunrise BLVD", "addr:city": "Sunrise", "addr:state": "FL", "addr:postcode": "33323", "addr:country": "United States", "name": "Calvin Klein", "phone": "TEL: (954) 838-8841", "brand": "Calvin Klein"}, "geometry": {"type": "Point", "coordinates": [-80.3239, 26.1449]}},
{"type": "Feature", "id": "GH3m6GrZ6t5WPczASpPHf2nZacY=", "properties": {"ref": "294 US Route #1", "@spider": "calvin_klein", "addr:full": "294 US Route #1", "addr:city": "Kittery", "addr:state": "ME", "addr:postcode": "3904", "addr:country": "United States", "name": "Calvin Klein", "phone": "TEL: (207) 438-9598", "brand": "Calvin Klein"}, "geometry": {"type": "Point", "coordinates": [-70.7351, 43.1106]}},
{"type": "Feature", "id": "-pcCK2i-uFM4y3YeVB5St-iNCII=", "properties": {"ref": "1155 Buck Creek Road #A112", "@spider": "calvin_klein", "addr:full": "1155 Buck Creek Road #A112", "addr:city": "Simpsonville", "addr:state": "KY", "addr:postcode": "40067", "addr:country": "United States", "name": "Calvin Klein", "phone": "TEL: (502) 722-8671", "brand": "Calvin Klein"}, "geometry": {"type": "Point", "coordinates": [-85.3515, 38.206]}},
{"type": "Feature", "id": "1s8ljXCuw7iwsQDx_BDV1ow_tT0=", "properties": {"ref": "1650 Premium Outlet Boulevard", "@spider": "calvin_klein", "addr:full": "1650 Premium Outlet Boulevard", "addr:city": "Aurora", "addr:state": "IL", "addr:postcode": "60502", "addr:country": "United States", "name": "Calvin Klein", "phone": "TEL: (630) 898-9280", "brand": "Calvin Klein"}, "geometry": {"type": "Point", "coordinates": [-88.28, 41.8]}},
{"type": "Feature", "id": "jfXTlujZoG2lRSOxO8MV9HHIEj4=", "properties": {"ref": "5220 Fashion Outlet Way, Suite #2235", "@spider": "calvin_klein", "addr:full": "5220 Fashion Outlet Way, Suite #2235", "addr:city": "Rosemont", "addr:state": "IL", "addr:postcode": "60018", "addr:country": "United States", "name": "Calvin Klein", "phone": "TEL: (847) 678-9178", "brand": "Calvin Klein"}, "geometry": {"type": "Point", "coordinates": [-87.8661, 41.9757]}},
{"type": "Feature", "id": "Hn5kf2_-HY_rRRecmsGEu8lpYzI=", "properties": {"ref": "1650 Premium Outlets Blvd, Suite #225", "@spider": "calvin_klein", "addr:full": "1650 Premium Outlets Blvd, Suite #225", "addr:city": "Aurora", "addr:state": "IL", "addr:postcode": "60502", "addr:country": "United States", "name": "Calvin Klein", "phone": "TEL: (630) 585-0665", "brand": "Calvin Klein"}, "geometry": {"type": "Point", "coordinates": [-88.2559, 41.7773]}},
{"type": "Feature", "id": "r1v0SKi9Ws3nmXQc1XRzui-8nwU=", "properties": {"ref": "5220 Fashion Outlet Way #2177", "@spider": "calvin_klein", "addr:full": "5220 Fashion Outlet Way #2177", "addr:city": "Rosemont", "addr:state": "IL", "addr:postcode": "60018", "addr:country": "United States", "name": "Calvin Klein", "phone": "TEL: (847) 233-0025", "brand": "Calvin Klein"}, "geometry": {"type": "Point", "coordinates": [-87.8671, 41.975]}},
{"type": "Feature", "id": "Nct0n7nrGPhf5lqILOf6kFYWkeY=", "properties": {"ref": "12150 South Beyer Road", "@spider": "calvin_klein", "addr:full": "12150 South Beyer Road", "addr:city": "Birch Run", "addr:state": "MI", "addr:postcode": "48415", "addr:country": "United States", "name": "Calvin Klein", "phone": "TEL: (989) 624-5373", "brand": "Calvin Klein"}, "geometry": {"type": "Point", "coordinates": [-83.7747, 43.2463]}},
{"type": "Feature", "id": "2aDu-JK40cXONzcCc30KJScSOLg=", "properties": {"ref": "4172 Baldwin Road", "@spider": "calvin_klein", "addr:full": "4172 Baldwin Road", "addr:city": "Auburn Hills", "addr:state": "MI", "addr:postcode": "48326", "addr:country": "United States", "name": "Calvin Klein", "phone": "TEL: (248) 858-5891", "brand": "Calvin Klein"}, "geometry": {"type": "Point", "coordinates": [-83.3066, 42.7023]}},
{"type": "Feature", "id": "ji3VaZy-kcfbInNX4FT6bGZVI4o=", "properties": {"ref": "350 84th Street SW", "@spider": "calvin_klein", "addr:full": "350 84th Street SW", "addr:city": "Byron Center", "addr:state": "MI", "addr:postcode": "49315", "addr:country": "United States", "name": "Calvin Klein", "phone": "TEL: (616) 583-0832", "brand": "Calvin Klein"}, "geometry": {"type": "Point", "coordinates": [-85.6694, 42.8117]}},
{"type": "Feature", "id": "CRRjjSkY1bqSirYsZVVxdf3jV7Q=", "properties": {"ref": "7535 North Kendall Drive", "@spider": "calvin_klein", "addr:full": "7535 North Kendall Drive", "addr:city": "Miami", "addr:state": "FL", "addr:postcode": "33156", "addr:country": "United States", "name": "Calvin Klein", "phone": "TEL: (305) 661-8890", "brand": "Calvin Klein"}, "geometry": {"type": "Point", "coordinates": [-80.3133, 25.6902]}},
{"type": "Feature", "id": "mVj0iiCO2cPfe_u5PIgnk_xlEEk=", "properties": {"ref": "250 East Palm Drive", "@spider": "calvin_klein", "addr:full": "250 East Palm Drive", "addr:city": "Florida City", "addr:state": "FL", "addr:postcode": "33034", "addr:country": "United States", "name": "Calvin Klein", "phone": "TEL: (305) 303-1179", "brand": "Calvin Klein"}, "geometry": {"type": "Point", "coordinates": [-80.4727, 25.448]}},
{"type": "Feature", "id": "MCpIEdhjUhVYroPHOwwtJ6lfk6o=", "properties": {"ref": "6500 Labeaux Avenue, N.E.", "@spider": "calvin_klein", "addr:full": "6500 Labeaux Avenue, N.E.", "addr:city": "Albertville", "addr:state": "MN", "addr:postcode": "55301", "addr:country": "United States", "name": "Calvin Klein", "phone": "TEL: (763) 497-8016", "brand": "Calvin Klein"}, "geometry": {"type": "Point", "coordinates": [-93.6628, 45.2445]}},
{"type": "Feature", "id": "lN_Jnn515REwe5ZFcoun792lzvk=", "properties": {"ref": "130 South Ave", "@spider": "calvin_klein", "addr:full": "130 South Ave", "addr:city": "Bloomington", "addr:state": "MN", "addr:postcode": "55425", "addr:country": "United States", "name": "Calvin Klein", "phone": "TEL: (952) 854-1318", "brand": "Calvin Klein"}, "geometry": {"type": "Point", "coordinates": [-93.2403, 44.8529]}},
{"type": "Feature", "id": "ULjKj5G8JH78FuMcvtCxfpWQ9qU=", "properties": {"ref": "3905 Eagan Outlets Pkwy", "@spider": "calvin_klein", "addr:full": "3905 Eagan Outlets Pkwy", "addr:city": "Eagan", "addr:state": "MN", "addr:postcode": "55122", "addr:country": "United States", "name": "Calvin Klein", "phone": "TEL: (952) 686-7792", "brand": "Calvin Klein"}, "geometry": {"type": "Point", "coordinates": [-93.2152, 44.816]}},
{"type": "Feature", "id": "QpKp3HZbwVMvKe-aJAsz4TuH_8g=", "properties": {"ref": "805 Grand Central Parkway", "@spider": "calvin_klein", "addr:full": "805 Grand Central Parkway", "addr:city": "Las Vegas", "addr:state": "NV", "addr:postcode": "89106", "addr:country": "United States", "name": "Calvin Klein", "phone": "TEL: (702) 366-9898", "brand": "Calvin Klein"}, "geometry": {"type": "Point", "coordinates": [-115.158, 36.1637]}},
{"type": "Feature", "id": "sPFGp57dFPx3bmnL2Ibhb2NzKHo=", "properties": {"ref": "4540 Highway 54", "@spider": "calvin_klein", "addr:full": "4540 Highway 54", "addr:city": "Osage Beach", "addr:state": "MO", "addr:postcode": "65065", "addr:country": "United States", "name": "Calvin Klein", "phone": "TEL: (573) 302-0171", "brand": "Calvin Klein"}, "geometry": {"type": "Point", "coordinates": [-92.6394, 38.1365]}},
{"type": "Feature", "id": "3eHShBiv6tvnKTHLJeE7PTTm3Ds=", "properties": {"ref": "7400 Las Vegas Boulevard S Suite #26A", "@spider": "calvin_klein", "addr:full": "7400 Las Vegas Boulevard S Suite #26A", "addr:city": "Las Vegas", "addr:state": "NV", "addr:postcode": "89123", "addr:country": "United States", "name": "Calvin Klein", "phone": "TEL: (702) 492-4557", "brand": "Calvin Klein"}, "geometry": {"type": "Point", "coordinates": [-115.17, 36.052]}},
{"type": "Feature", "id": "ZEZaA_6zlAlDWw6357lj2rdszEc=", "properties": {"ref": "7400 Las Vegas Blvd. S  Suite #16", "@spider": "calvin_klein", "addr:full": "7400 Las Vegas Blvd. S  Suite #16", "addr:city": "Las Vegas", "addr:state": "NV", "addr:postcode": "89123", "addr:country": "United States", "name": "Calvin Klein", "phone": "TEL: (702) 897-5008", "brand": "Calvin Klein"}, "geometry": {"type": "Point", "coordinates": [-115.17, 36.055]}},
{"type": "Feature", "id": "WNyGgEq7NzdBYCUTTg6inec6fxQ=", "properties": {"ref": "3200 Las Vegas Blvd. Suite #2030", "@spider": "calvin_klein", "addr:full": "3200 Las Vegas Blvd. Suite #2030", "addr:city": "Las Vegas", "addr:state": "NV", "addr:postcode": "89109", "addr:country": "United States", "name": "Calvin Klein", "phone": "TEL: (702) 836-9731", "brand": "Calvin Klein"}, "geometry": {"type": "Point", "coordinates": [-115.172, 36.1272]}},
{"type": "Feature", "id": "hfoBmsKJOtBk3Ktp6LYlUFtAk9g=", "properties": {"ref": "32100 S. Las Vegas Blvd, Suite #222", "@spider": "calvin_klein", "addr:full": "32100 S. Las Vegas Blvd, Suite #222", "addr:city": "Primm", "addr:state": "NV", "addr:postcode": "89019", "addr:country": "United States", "name": "Calvin Klein", "phone": "TEL: (702) 874-1060", "brand": "Calvin Klein"}, "geometry": {"type": "Point", "coordinates": [-115.39, 35.6128]}},
{"type": "Feature", "id": "U0cSlIDrLiZL77lsIxcTz9FtEkY=", "properties": {"ref": "18533 Outlet Blvd, Suite #130", "@spider": "calvin_klein", "addr:full": "18533 Outlet Blvd, Suite #130", "addr:city": "Chesterfield", "addr:state": "MO", "addr:postcode": "63005", "addr:country": "United States", "name": "Calvin Klein", "phone": "TEL: (636) 778-2298", "brand": "Calvin Klein"}, "geometry": {"type": "Point", "coordinates": [-90.661, 38.6784]}},
{"type": "Feature", "id": "gMsqi8xW_Hmkdu80grI9sU4Ni9I=", "properties": {"ref": "80 Premium Outlets Blvd", "@spider": "calvin_klein", "addr:full": "80 Premium Outlets Blvd", "addr:city": "Merrimack", "addr:state": "NH", "addr:postcode": "3054", "addr:country": "United States", "name": "Calvin Klein", "phone": "TEL: (603) 424-7350", "brand": "Calvin Klein"}, "geometry": {"type": "Point", "coordinates": [-71.5001, 42.8264]}},
{"type": "Feature", "id": "e-oEEpJI4HtTeUmtD8N-gC3rNi8=", "properties": {"ref": "30 Enterprise Ave N", "@spider": "calvin_klein", "addr:full": "30 Enterprise Ave N", "addr:city": "Secaucus", "addr:state": "NJ", "addr:postcode": "7094", "addr:country": "United States", "name": "Calvin Klein", "phone": "TEL: (201) 223-9760", "brand": "Calvin Klein"}, "geometry": {"type": "Point", "coordinates": [-74.0671, 40.7852]}},
{"type": "Feature", "id": "e2ibRLvrZSyDSJjc-0srZKkuLvs=", "properties": {"ref": "651 Kapkowski Rd, Suite #1402", "@spider": "calvin_klein", "addr:full": "651 Kapkowski Rd, Suite #1402", "addr:city": "Elizabeth", "addr:state": "NJ", "addr:postcode": "7201", "addr:country": "United States", "name": "Calvin Klein", "phone": "TEL: (908) 355-1512", "brand": "Calvin Klein"}, "geometry": {"type": "Point", "coordinates": [-74.1748, 40.6626]}},
{"type": "Feature", "id": "CEmaYgbS8Ukx7zwCbHl9ZjysJS0=", "properties": {"ref": "651 Kapkowski Road  Suite #120", "@spider": "calvin_klein", "addr:full": "651 Kapkowski Road  Suite #120", "addr:city": "Elizabeth", "addr:state": "NJ", "addr:postcode": "7201", "addr:country": "United States", "name": "Calvin Klein", "phone": "TEL: (908) 659-0540", "brand": "Calvin Klein"}, "geometry": {"type": "Point", "coordinates": [-74.1765, 40.6605]}},
{"type": "Feature", "id": "Jcl5tj4Rm_GHalWJuV6TqNjVtB0=", "properties": {"ref": "651 Kapkowski Road STE#1448", "@spider": "calvin_klein", "addr:full": "651 Kapkowski Road STE#1448", "addr:city": "Elizabeth", "addr:state": "NJ", "addr:postcode": "7201", "addr:country": "United States", "name": "Calvin Klein", "phone": "TEL: (908) 289-2974", "brand": "Calvin Klein"}, "geometry": {"type": "Point", "coordinates": [-74.1765, 40.6605]}},
{"type": "Feature", "id": "umGcgdHb7Sm_qUgCx5PFRXYeMkA=", "properties": {"ref": "One Garden State Plaza Way", "@spider": "calvin_klein", "addr:full": "One Garden State Plaza Way", "addr:city": "Paramus", "addr:state": "NJ", "addr:postcode": "7652", "addr:country": "United States", "name": "Calvin Klein", "phone": "TEL: (201) 843-3519", "brand": "Calvin Klein"}, "geometry": {"type": "Point", "coordinates": [-74.0782, 40.9146]}},
{"type": "Feature", "id": "y5IqNvBP3iyu6AcsiIaOfURhMgk=", "properties": {"ref": "1 Garden State Plaza Suite #2334", "@spider": "calvin_klein", "addr:full": "1 Garden State Plaza Suite #2334", "addr:city": "Paramus", "addr:state": "NJ", "addr:postcode": "7652", "addr:country": "United States", "name": "Calvin Klein", "phone": "TEL: (201) 843-2147", "brand": "Calvin Klein"}, "geometry": {"type": "Point", "coordinates": [-74.0753, 40.918]}},
{"type": "Feature", "id": "0LYV5cXRV3m2o7wSLGWWgMWyjTI=", "properties": {"ref": "1 Premium Outlet Boulevard", "@spider": "calvin_klein", "addr:full": "1 Premium Outlet Boulevard", "addr:city": "Tinton Falls", "addr:state": "NJ", "addr:postcode": "7753", "addr:country": "United States", "name": "Calvin Klein", "phone": "TEL: (732) 493-2642", "brand": "Calvin Klein"}, "geometry": {"type": "Point", "coordinates": [-74.0952, 40.2228]}},
{"type": "Feature", "id": "yp7nGI6Kuif6VLwtwF3af7CbD1w=", "properties": {"ref": "1 Church Street STE#85", "@spider": "calvin_klein", "addr:full": "1 Church Street STE#85", "addr:city": "Flemington", "addr:state": "NJ", "addr:postcode": "8822", "addr:country": "United States", "name": "Calvin Klein", "phone": "TEL: (908) 806-2703", "brand": "Calvin Klein"}, "geometry": {"type": "Point", "coordinates": [-74.8614, 40.5036]}},
{"type": "Feature", "id": "Fph2U0ScKpoGXeFLJojaEHAy_iA=", "properties": {"ref": "537 Monmouth Road", "@spider": "calvin_klein", "addr:full": "537 Monmouth Road", "addr:city": "Jackson", "addr:state": "NJ", "addr:postcode": "8527", "addr:country": "United States", "name": "Calvin Klein", "phone": "TEL: (732) 833-4968", "brand": "Calvin Klein"}, "geometry": {"type": "Point", "coordinates": [-74.3459, 40.1046]}},
{"type": "Feature", "id": "oUjjB9EzC7TM2uQVNwYSRAj1Et8=", "properties": {"ref": "2008 Atlantic Ave.", "@spider": "calvin_klein", "addr:full": "2008 Atlantic Ave.", "addr:city": "Atlantic City", "addr:state": "NJ", "addr:postcode": "8401", "addr:country": "United States", "name": "Calvin Klein", "phone": "TEL: (609) 347-7982", "brand": "Calvin Klein"}, "geometry": {"type": "Point", "coordinates": [-74.4356, 39.359]}},
{"type": "Feature", "id": "wnjX-C3aSNNX5UKX0_z4rZEIKpA=", "properties": {"ref": "1358 The Arches Circle", "@spider": "calvin_klein", "addr:full": "1358 The Arches Circle", "addr:city": "Deer Park", "addr:state": "NY", "addr:postcode": "11729", "addr:country": "United States", "name": "Calvin Klein", "phone": "TEL: (631) 254-8200", "brand": "Calvin Klein"}, "geometry": {"type": "Point", "coordinates": [-73.3098, 40.7641]}},
{"type": "Feature", "id": "kETK71rEPqtZqbSb5yHiphrgDpQ=", "properties": {"ref": "650 BlueBird Ct", "@spider": "calvin_klein", "addr:full": "650 BlueBird Ct", "addr:city": "Central Valley", "addr:state": "NY", "addr:postcode": "10917", "addr:country": "United States", "name": "Calvin Klein", "phone": "TEL: (845) 928-9080", "brand": "Calvin Klein"}, "geometry": {"type": "Point", "coordinates": [-74.1246, 41.315]}},
{"type": "Feature", "id": "bTrIokhv6Wjx_UZpySBTNYAgO9A=", "properties": {"ref": "100 Premium Outlet Dr.", "@spider": "calvin_klein", "addr:full": "100 Premium Outlet Dr.", "addr:city": "Blackwood", "addr:state": "NJ", "addr:postcode": "8012", "addr:country": "United States", "name": "Calvin Klein", "phone": "TEL: (856) 221-2882", "brand": "Calvin Klein"}, "geometry": {"type": "Point", "coordinates": [-75.0598, 39.8001]}},
{"type": "Feature", "id": "rKY5-v_cqMkHijafziKU-DZZGek=", "properties": {"ref": "549 South Chillicothe Road", "@spider": "calvin_klein", "addr:full": "549 South Chillicothe Road", "addr:city": "Aurora", "addr:state": "OH", "addr:postcode": "44202", "addr:country": "United States", "name": "Calvin Klein", "phone": "TEL: (330) 562-2746", "brand": "Calvin Klein"}, "geometry": {"type": "Point", "coordinates": [-81.3449, 41.3019]}},
{"type": "Feature", "id": "GKASITqL2gcDzuQP_UJQ569PzqY=", "properties": {"ref": "400 Premium Outlet Drive #207", "@spider": "calvin_klein", "addr:full": "400 Premium Outlet Drive #207", "addr:city": "Monroe", "addr:state": "OH", "addr:postcode": "45050", "addr:country": "United States", "name": "Calvin Klein", "phone": "TEL: (513) 539-8305", "brand": "Calvin Klein"}, "geometry": {"type": "Point", "coordinates": [-84.34, 39.43]}},
{"type": "Feature", "id": "Li0a31IRbB5RvONWFehqTMCwHcc=", "properties": {"ref": "400 South Wilson Road", "@spider": "calvin_klein", "addr:full": "400 South Wilson Road", "addr:city": "Sunbury", "addr:state": "OH", "addr:postcode": "43074", "addr:country": "United States", "name": "Calvin Klein", "phone": "TEL: (740) 965-4066", "brand": "Calvin Klein"}, "geometry": {"type": "Point", "coordinates": [-82.9044, 40.2774]}},
{"type": "Feature", "id": "thiwspJefNaWmZPcpfzaM9GKjmE=", "properties": {"ref": "1001 Arney Road", "@spider": "calvin_klein", "addr:full": "1001 Arney Road", "addr:city": "Woodburn", "addr:state": "OR", "addr:postcode": "97071", "addr:country": "United States", "name": "Calvin Klein", "phone": "TEL: (503) 981-3533", "brand": "Calvin Klein"}, "geometry": {"type": "Point", "coordinates": [-122.878, 45.1562]}},
{"type": "Feature", "id": "jIBCVNiTFugc9mV-1rutYQrkYJA=", "properties": {"ref": "1000 Premium Outlets Drive", "@spider": "calvin_klein", "addr:full": "1000 Premium Outlets Drive", "addr:city": "Tannersville", "addr:state": "PA", "addr:postcode": "18372", "addr:country": "United States", "name": "Calvin Klein", "phone": "TEL: (570) 629-0211", "brand": "Calvin Klein"}, "geometry": {"type": "Point", "coordinates": [-75.3123, 41.0478]}},
{"type": "Feature", "id": "cAzrFnNVU_TbBps0Lmp-T7QmkcU=", "properties": {"ref": "311 Stanley K. Tanger Boulevard", "@spider": "calvin_klein", "addr:full": "311 Stanley K. Tanger Boulevard", "addr:city": "Lancaster", "addr:state": "PA", "addr:postcode": "17602", "addr:country": "United States", "name": "Calvin Klein", "phone": "TEL: (717) 295-0990", "brand": "Calvin Klein"}, "geometry": {"type": "Point", "coordinates": [-76.2205, 40.025]}},
{"type": "Feature", "id": "yEohro39JjoPtiXnQ8CFwJSH63A=", "properties": {"ref": "10835 Kings Road", "@spider": "calvin_klein", "addr:full": "10835 Kings Road", "addr:city": "Myrtle Beach", "addr:state": "SC", "addr:postcode": "26572", "addr:country": "United States", "name": "Calvin Klein", "phone": "TEL: (843) 213-0739", "brand": "Calvin Klein"}, "geometry": {"type": "Point", "coordinates": [-78.7731, 33.7833]}},
{"type": "Feature", "id": "ad9cUlzVfrlRS9yfEo8KbU4ia2E=", "properties": {"ref": "248 Opry Mills Drive", "@spider": "calvin_klein", "addr:full": "248 Opry Mills Drive", "addr:city": "Nashville", "addr:state": "TN", "addr:postcode": "37214", "addr:country": "United States", "name": "Calvin Klein", "phone": "TEL: (615) 800-3452", "brand": "Calvin Klein"}, "geometry": {"type": "Point", "coordinates": [-86.6936, 36.2006]}},
{"type": "Feature", "id": "HIhYvEDkZdY9sIm-VcH1xIglVLI=", "properties": {"ref": "135 Outlet Square", "@spider": "calvin_klein", "addr:full": "135 Outlet Square", "addr:city": "Hershey", "addr:state": "PA", "addr:postcode": "17033", "addr:country": "United States", "name": "Calvin Klein", "phone": "TEL: (717) 533-1494", "brand": "Calvin Klein"}, "geometry": {"type": "Point", "coordinates": [-76.6479, 40.2945]}},
{"type": "Feature", "id": "i7GB0627Ie8DzNwyyAnUy6uQiYc=", "properties": {"ref": "1911 Leesburg Grove City Rd", "@spider": "calvin_klein", "addr:full": "1911 Leesburg Grove City Rd", "addr:city": "Grove City", "addr:state": "PA", "addr:postcode": "16127", "addr:country": "United States", "name": "Calvin Klein", "phone": "TEL: (724) 748-9984", "brand": "Calvin Klein"}, "geometry": {"type": "Point", "coordinates": [-80.1582, 41.1434]}},
{"type": "Feature", "id": "4A1kG9JnU4SrMP4-L9_8i1dCyfM=", "properties": {"ref": "18 W Lightcap Road", "@spider": "calvin_klein", "addr:full": "18 W Lightcap Road", "addr:city": "Pottstown", "addr:state": "PA", "addr:postcode": "19464", "addr:country": "United States", "name": "Calvin Klein", "phone": "TEL: (610) 326-6841", "brand": "Calvin Klein"}, "geometry": {"type": "Point", "coordinates": [-75.5709, 40.2364]}},
{"type": "Feature", "id": "nNcZguToJtts3vmpYhOGj9eW72M=", "properties": {"ref": "1889 Franklin Mills Circle", "@spider": "calvin_klein", "addr:full": "1889 Franklin Mills Circle", "addr:city": "Philadelphia", "addr:state": "PA", "addr:postcode": "19154", "addr:country": "United States", "name": "Calvin Klein", "phone": "TEL: (215) 637-1382", "brand": "Calvin Klein"}, "geometry": {"type": "Point", "coordinates": [-74.9619, 40.0928]}},
{"type": "Feature", "id": "jNdQEh19Tf-JIHsBY7tRkd0kL0k=", "properties": {"ref": "820 W. Stacy Road", "@spider": "calvin_klein", "addr:full": "820 W. Stacy Road", "addr:city": "Allen", "addr:state": "TX", "addr:postcode": "75013", "addr:country": "United States", "name": "Calvin Klein", "phone": "TEL: (972) 678-4510", "brand": "Calvin Klein"}, "geometry": {"type": "Point", "coordinates": [-96.6607, 33.1327]}},
{"type": "Feature", "id": "4bo-aiYjmp8egWKOcgbc_IZphm8=", "properties": {"ref": "3939 IH-35 South", "@spider": "calvin_klein", "addr:full": "3939 IH-35 South", "addr:city": "San Marcos", "addr:state": "TX", "addr:postcode": "78666", "addr:country": "United States", "name": "Calvin Klein", "phone": "TEL: (512) 392-5542", "brand": "Calvin Klein"}, "geometry": {"type": "Point", "coordinates": [-97.9839, 29.8288]}},
{"type": "Feature", "id": "_2MPzLwfDuKMREhCNJgZNxn0GC8=", "properties": {"ref": "4401 N. IH-35", "@spider": "calvin_klein", "addr:full": "4401 N. IH-35", "addr:city": "Round Rock", "addr:state": "TX", "addr:postcode": "78664", "addr:country": "United States", "name": "Calvin Klein", "phone": "TEL: (512) 931-2193", "brand": "Calvin Klein"}, "geometry": {"type": "Point", "coordinates": [-97.6898, 30.5683]}},
{"type": "Feature", "id": "UfyKDTIecSU0sEDzYNN057CpiSQ=", "properties": {"ref": "6699 North Landmark Drive", "@spider": "calvin_klein", "addr:full": "6699 North Landmark Drive", "addr:city": "Park City", "addr:state": "UT", "addr:postcode": "84098", "addr:country": "United States", "name": "Calvin Klein", "phone": "TEL: (435) 658-5303", "brand": "Calvin Klein"}, "geometry": {"type": "Point", "coordinates": [-111.551, 40.7305]}},
{"type": "Feature", "id": "IXEw6MRAPXxlX3J7gItTUysby0s=", "properties": {"ref": "3700 N. Cabelas Blvd. Suite #270", "@spider": "calvin_klein", "addr:full": "3700 N. Cabelas Blvd. Suite #270", "addr:city": "Lehi", "addr:state": "UT", "addr:postcode": "84043", "addr:country": "United States", "name": "Calvin Klein", "phone": "TEL: (801) 901-1300", "brand": "Calvin Klein"}, "geometry": {"type": "Point", "coordinates": [-111.885, 40.435]}},
{"type": "Feature", "id": "JJs8Qr97fJifeMbOI3Uh2_Mi4KU=", "properties": {"ref": "18 W. Lightcap Road #739", "@spider": "calvin_klein", "addr:full": "18 W. Lightcap Road #739", "addr:city": "Pottstown", "addr:state": "PA", "addr:postcode": "19464", "addr:country": "United States", "name": "Calvin Klein", "phone": "TEL: (610) 323-2835", "brand": "Calvin Klein"}, "geometry": {"type": "Point", "coordinates": [-75.5697, 40.2364]}},
{"type": "Feature", "id": "kI4enqEGG0WObJuG1JwOnxtg2Iw=", "properties": {"ref": "4015 Interstate 35 South", "@spider": "calvin_klein", "addr:full": "4015 Interstate 35 South", "addr:city": "San Marcos", "addr:state": "TX", "addr:postcode": "78666", "addr:country": "United States", "name": "Calvin Klein", "phone": "TEL: (512) 392-6285", "brand": "Calvin Klein"}, "geometry": {"type": "Point", "coordinates": [-97.9892, 29.8235]}},
{"type": "Feature", "id": "nke6ANMDYfpg3f5YBfn44S8dhSc=", "properties": {"ref": "5001 E Expressway 83", "@spider": "calvin_klein", "addr:full": "5001 E Expressway 83", "addr:city": "Mercedes", "addr:state": "TX", "addr:postcode": "78570", "addr:country": "United States", "name": "Calvin Klein", "phone": "TEL: (956) 565-4445", "brand": "Calvin Klein"}, "geometry": {"type": "Point", "coordinates": [-97.888, 26.1628]}},
{"type": "Feature", "id": "SLCH3HV6V7KbeGOFClXWre1_Xws=", "properties": {"ref": "241 Fort Evans Rd NE", "@spider": "calvin_klein", "addr:full": "241 Fort Evans Rd NE", "addr:city": "Leesburg", "addr:state": "VA", "addr:postcode": "20176", "addr:country": "United States", "name": "Calvin Klein", "phone": "TEL: (703) 777-9940", "brand": "Calvin Klein"}, "geometry": {"type": "Point", "coordinates": [-77.5386, 39.1067]}},
{"type": "Feature", "id": "DKIFt1QKvxRLMc2LBMjxfgibZII=", "properties": {"ref": "5715-70 Richmond Road", "@spider": "calvin_klein", "addr:full": "5715-70 Richmond Road", "addr:city": "Williamsburg", "addr:state": "VA", "addr:postcode": "23188", "addr:country": "United States", "name": "Calvin Klein", "phone": "TEL: (757) 221-7008", "brand": "Calvin Klein"}, "geometry": {"type": "Point", "coordinates": [-76.8051, 37.3953]}},
{"type": "Feature", "id": "4vTZPcUQuqIoP5_WRaXhLy3XM2E=", "properties": {"ref": "2700 Potomac Mills Circle", "@spider": "calvin_klein", "addr:full": "2700 Potomac Mills Circle", "addr:city": "Woodbridge", "addr:state": "VA", "addr:postcode": "22192", "addr:country": "United States", "name": "Calvin Klein", "phone": "TEL: (703) 491-1826", "brand": "Calvin Klein"}, "geometry": {"type": "Point", "coordinates": [-77.2954, 38.6435]}},
{"type": "Feature", "id": "V-hIgjhpJdujueDkSF6ntDqZhWU=", "properties": {"ref": "241 Fort Evans Road Suite #1325", "@spider": "calvin_klein", "addr:full": "241 Fort Evans Road Suite #1325", "addr:city": "Lesburg", "addr:state": "VA", "addr:postcode": "20176", "addr:country": "United States", "name": "Calvin Klein", "phone": "TEL: (703) 669-2250", "brand": "Calvin Klein"}, "geometry": {"type": "Point", "coordinates": [-77.5382, 39.1086]}},
{"type": "Feature", "id": "_VqqgIgF0L7uJwHJ_WTUN_8Csrg=", "properties": {"ref": "1600 Premium Outlets Blvd #865", "@spider": "calvin_klein", "addr:full": "1600 Premium Outlets Blvd #865", "addr:city": "Norfolk", "addr:state": "VA", "addr:postcode": "23502", "addr:country": "United States", "name": "Calvin Klein", "phone": "TEL: (757) 614-2001", "brand": "Calvin Klein"}, "geometry": {"type": "Point", "coordinates": [-76.1931, 36.8781]}},
{"type": "Feature", "id": "Ntdq6bIibsGhECM5SnYDPKgeunE=", "properties": {"ref": "241 Fort Evans Road NE Suite #1325", "@spider": "calvin_klein", "addr:full": "241 Fort Evans Road NE Suite #1325", "addr:city": "Leesburg", "addr:state": "VA", "addr:postcode": "20176", "addr:country": "United States", "name": "Calvin Klein", "phone": "TEL: (703) 669-2250", "brand": "Calvin Klein"}, "geometry": {"type": "Point", "coordinates": [-77.5368, 39.1079]}},
{"type": "Feature", "id": "hwqM9kc6M0fplw3ZRKc3yonC19o=", "properties": {"ref": "622 W. Linmar Lane", "@spider": "calvin_klein", "addr:full": "622 W. Linmar Lane", "addr:city": "Johnson Creek", "addr:state": "WI", "addr:postcode": "53038", "addr:country": "United States", "name": "Calvin Klein", "phone": "TEL: (920) 699-2940", "brand": "Calvin Klein"}, "geometry": {"type": "Point", "coordinates": [-88.7594, 43.0899]}},
{"type": "Feature", "id": "1E_8NqUHtRUBqaQ7vpcKQA8vKSY=", "properties": {"ref": "11601 108th Street", "@spider": "calvin_klein", "addr:full": "11601 108th Street", "addr:city": "Pleasant Prairie", "addr:state": "WI", "addr:postcode": "53158", "addr:country": "United States", "name": "Calvin Klein", "phone": "TEL: (262) 857-4200", "brand": "Calvin Klein"}, "geometry": {"type": "Point", "coordinates": [-87.9474, 42.5183]}},
{"type": "Feature", "id": "oiqKcQWckP5C4bxUo08tCC0Krx4=", "properties": {"ref": "10600 Quiil Ceda Boulevard", "@spider": "calvin_klein", "addr:full": "10600 Quiil Ceda Boulevard", "addr:city": "Tulalip", "addr:state": "WA", "addr:postcode": "98271", "addr:country": "United States", "name": "Calvin Klein", "phone": "TEL: (360) 716-3108", "brand": "Calvin Klein"}, "geometry": {"type": "Point", "coordinates": [-122.292, 48.0684]}},
{"type": "Feature", "id": "Fzogr754G-8_APOIi2jzl2jXeQw=", "properties": {"ref": "261055 CrossIron Blvd, Suite #664", "@spider": "calvin_klein", "addr:full": "261055 CrossIron Blvd, Suite #664", "addr:city": "Rocky View", "addr:state": "AB", "addr:postcode": "T4A 0G3", "addr:country": "Canada", "name": "Calvin Klein", "phone": "TEL: 587-230-0636", "brand": "Calvin Klein"}, "geometry": {"type": "Point", "coordinates": [-113.99, 51.2848]}},
{"type": "Feature", "id": "5V-L5qszwOBzI4zOa48-UEGCso0=", "properties": {"ref": "9769-19 Avenue", "@spider": "calvin_klein", "addr:full": "9769-19 Avenue", "addr:city": "Edmonton", "addr:state": "AB", "addr:postcode": "T6N 1N5", "addr:country": "Canada", "name": "Calvin Klein", "phone": "TEL: 780-440-1727", "brand": "Calvin Klein"}, "geometry": {"type": "Point", "coordinates": [-113.507, 53.5344]}},
{"type": "Feature", "id": "1i_8Y1fDZNqDlMCGPYceDYW1WGQ=", "properties": {"ref": "29330 Hempstead Road", "@spider": "calvin_klein", "addr:full": "29330 Hempstead Road", "addr:city": "Cypress", "addr:state": "TX", "addr:postcode": "77433", "addr:country": "United States", "name": "Calvin Klein", "phone": "TEL: (281) 256-9679", "brand": "Calvin Klein"}, "geometry": {"type": "Point", "coordinates": [-95.7543, 29.9937]}},
{"type": "Feature", "id": "AtLbULebWKav-EC_t4_bhCRQhY4=", "properties": {"ref": "5000 Katy Mills Circle", "@spider": "calvin_klein", "addr:full": "5000 Katy Mills Circle", "addr:city": "Katy Mills", "addr:state": "TX", "addr:postcode": "77494", "addr:country": "United States", "name": "Calvin Klein", "phone": "TEL: (281) 574-2077", "brand": "Calvin Klein"}, "geometry": {"type": "Point", "coordinates": [-95.8094, 29.7756]}},
{"type": "Feature", "id": "8U4FjQDfU8mGD-rCfO91Sfd2LOk=", "properties": {"ref": "5885 Gulf Freeway, Suite #245", "@spider": "calvin_klein", "addr:full": "5885 Gulf Freeway, Suite #245", "addr:city": "Texas City", "addr:state": "TX", "addr:postcode": "77591", "addr:country": "United States", "name": "Calvin Klein", "phone": "TEL: (281) 534-8404", "brand": "Calvin Klein"}, "geometry": {"type": "Point", "coordinates": [-94.9027, 29.3838]}},
{"type": "Feature", "id": "4Mw3xTPx7Wdc2V_2LIAYh3Y1_iQ=", "properties": {"ref": "7051 South Desert Blvd. Suite #E581", "@spider": "calvin_klein", "addr:full": "7051 South Desert Blvd. Suite #E581", "addr:city": "Canutillo", "addr:state": "TX", "addr:postcode": "79835", "addr:country": "United States", "name": "Calvin Klein", "phone": "TEL: (915) 877-9030", "brand": "Calvin Klein"}, "geometry": {"type": "Point", "coordinates": [-106.59, 31.9127]}},
{"type": "Feature", "id": "0ezL39kenaR7B-3h88Tzo_nvR1U=", "properties": {"ref": "5001 E Expressway 83 Suite #431", "@spider": "calvin_klein", "addr:full": "5001 E Expressway 83 Suite #431", "addr:city": "Mercedes", "addr:state": "TX", "addr:postcode": "78570", "addr:country": "United States", "name": "Calvin Klein", "phone": "TEL: (956) 565-7700", "brand": "Calvin Klein"}, "geometry": {"type": "Point", "coordinates": [-97.8939, 26.1417]}},
{"type": "Feature", "id": "GM9T7iiFXtQUZZoT8sX-iu4SrWA=", "properties": {"ref": "555 Sterling Lyon Parkway", "@spider": "calvin_klein", "addr:full": "555 Sterling Lyon Parkway", "addr:city": "Winnipeg", "addr:state": "MB", "addr:postcode": "R3P 1E9", "addr:country": "Canada", "name": "Calvin Klein", "phone": "TEL: 204-221-1138", "brand": "Calvin Klein"}, "geometry": {"type": "Point", "coordinates": [-97.2137, 49.8451]}},
{"type": "Feature", "id": "qZYUn7ot2qK5t9_V07Xgsc6fQdg=", "properties": {"ref": "15765 Croydon Drive", "@spider": "calvin_klein", "addr:full": "15765 Croydon Drive", "addr:city": "Surrey", "addr:state": "BC", "addr:postcode": "V3Z 2L6", "addr:country": "Canada", "name": "Calvin Klein", "phone": "TEL: 604-535-2671", "brand": "Calvin Klein"}, "geometry": {"type": "Point", "coordinates": [-122.793, 49.0534]}},
{"type": "Feature", "id": "xT-dJZVhok5v7XJ7YFl_8YHu6Yg=", "properties": {"ref": "805 Boyd Street, Unit E150", "@spider": "calvin_klein", "addr:full": "805 Boyd Street, Unit E150", "addr:city": "New Westminster", "addr:state": "BC", "addr:postcode": "V3M 5X2", "addr:country": "Canada", "name": "Calvin Klein", "phone": "TEL: 604-520-1077", "brand": "Calvin Klein"}, "geometry": {"type": "Point", "coordinates": [-122.946, 49.1911]}},
{"type": "Feature", "id": "EH_0i2W91kJJovXabjRw3RE78gU=", "properties": {"ref": "7899 Templeton Road Space #5-6", "@spider": "calvin_klein", "addr:full": "7899 Templeton Road Space #5-6", "addr:city": "Richmond", "addr:state": "BC", "addr:postcode": "V7B0B7", "addr:country": "Canada", "name": "Calvin Klein", "phone": "TEL: 604-821-1145", "brand": "Calvin Klein"}, "geometry": {"type": "Point", "coordinates": [-123.138, 49.1962]}},
{"type": "Feature", "id": "YJukMHEgRVRka8EGFk098XW8s1g=", "properties": {"ref": "775 Britannia Road", "@spider": "calvin_klein", "addr:full": "775 Britannia Road", "addr:city": "Mississauga", "addr:state": "ON", "addr:postcode": "L5V 2Y1", "addr:country": "Canada", "name": "Calvin Klein", "phone": "TEL: 905-814-4978", "brand": "Calvin Klein"}, "geometry": {"type": "Point", "coordinates": [-79.6982, 43.611]}},
{"type": "Feature", "id": "hniK_p-Y-HArIFDZ12rP0fmzkLY=", "properties": {"ref": "1800 Sheppard Avenue East", "@spider": "calvin_klein", "addr:full": "1800 Sheppard Avenue East", "addr:city": "Toronto", "addr:state": "ON", "addr:postcode": "M5J 5A7", "addr:country": "Canada", "name": "Calvin Klein", "phone": "TEL: 416-498-5833", "brand": "Calvin Klein"}, "geometry": {"type": "Point", "coordinates": [-79.3445, 43.7778]}},
{"type": "Feature", "id": "ldHH6or8-DeodOVjGFn1iYKm7PQ=", "properties": {"ref": "13850 Steeles Ave, West, Suite #424", "@spider": "calvin_klein", "addr:full": "13850 Steeles Ave, West, Suite #424", "addr:city": "Halton Hills", "addr:state": "ON", "addr:postcode": "L7G 5G2", "addr:country": "Canada", "name": "Calvin Klein", "phone": "TEL: 905-876-0963", "brand": "Calvin Klein"}, "geometry": {"type": "Point", "coordinates": [-79.7977, 43.6076]}},
{"type": "Feature", "id": "Ry5uzMgQ2J0DuFAYhO-jIaSBE_U=", "properties": {"ref": "8555 Campeau Drive Suite #600", "@spider": "calvin_klein", "addr:full": "8555 Campeau Drive Suite #600", "addr:city": "Ottawa", "addr:state": "ON", "addr:postcode": "K2T0K5", "addr:country": "Canada", "name": "Calvin Klein", "phone": "TEL: 613-836-1933", "brand": "Calvin Klein"}, "geometry": {"type": "Point", "coordinates": [-75.9272, 45.3112]}},
{"type": "Feature", "id": "rzgNIPLWsQ3MVTgSRnI6LBFlh4I=", "properties": {"ref": "300 Borough Drive Suite #18", "@spider": "calvin_klein", "addr:full": "300 Borough Drive Suite #18", "addr:city": "Scarbourough", "addr:state": "ON", "addr:postcode": "M1P4P5", "addr:country": "Canada", "name": "Calvin Klein", "phone": "TEL: 416-296-9379", "brand": "Calvin Klein"}, "geometry": {"type": "Point", "coordinates": [-79.258, 43.7763]}},
{"type": "Feature", "id": "FEtYaKPOF_E-vZgzhO4Jn85ruOQ=", "properties": {"ref": "3311 Simcoe Road 89 Unit #F90", "@spider": "calvin_klein", "addr:full": "3311 Simcoe Road 89 Unit #F90", "addr:city": "Cookstown", "addr:state": "ON", "addr:postcode": "L0L1L0", "addr:country": "Canada", "name": "Calvin Klein", "phone": "TEL: 705-458-1330", "brand": "Calvin Klein"}, "geometry": {"type": "Point", "coordinates": [-79.6514, 44.1988]}},
{"type": "Feature", "id": "zubJyWU1Ns4PjFEqB5WS326zjog=", "properties": {"ref": "1 Bass Pro Shop Drive CRU A3", "@spider": "calvin_klein", "addr:full": "1 Bass Pro Shop Drive CRU A3", "addr:city": "Vaughan", "addr:state": "ON", "addr:postcode": "L4K 5W4", "addr:country": "Canada", "name": "Calvin Klein", "phone": "TEL: 905-760-9245", "brand": "Calvin Klein"}, "geometry": {"type": "Point", "coordinates": [-79.5389, 43.8254]}},
{"type": "Feature", "id": "UobWwoVSjhyORWzHuVvc7qq2vPQ=", "properties": {"ref": "999 Rue Marche Central", "@spider": "calvin_klein", "addr:full": "999 Rue Marche Central", "addr:city": "Montreal", "addr:state": "QC", "addr:postcode": "H4N 1J8", "addr:country": "Canada", "name": "Calvin Klein", "phone": "TEL: 514-387-3428", "brand": "Calvin Klein"}, "geometry": {"type": "Point", "coordinates": [-73.6531, 45.534]}},
{"type": "Feature", "id": "ZW2BslmOsqwyl7VtBrZbEiu-qQU=", "properties": {"ref": "2452 Autoroute Chomedey (A-13 O) Unite #26E", "@spider": "calvin_klein", "addr:full": "2452 Autoroute Chomedey (A-13 O) Unite #26E", "addr:city": "Laval", "addr:state": "QC", "addr:postcode": "H7X 4G8", "addr:country": "Canada", "name": "Calvin Klein", "phone": "TEL: 450-689-9957", "brand": "Calvin Klein"}, "geometry": {"type": "Point", "coordinates": [-73.7751, 45.5214]}},
{"type": "Feature", "id": "SVO26nCyQNBHIsKtxlFsYajg5GY=", "properties": {"ref": "9160 Leduc, Suite #140", "@spider": "calvin_klein", "addr:full": "9160 Leduc, Suite #140", "addr:city": "Brossard", "addr:state": "QC", "addr:postcode": "J4Y 0L2", "addr:country": "Canada", "name": "Calvin Klein", "phone": "TEL: 450-676-4973", "brand": "Calvin Klein"}, "geometry": {"type": "Point", "coordinates": [-73.4613, 45.4493]}},
{"type": "Feature", "id": "Qiw0M3hqxo31OrtTeOegpBydx8A=", "properties": {"ref": "200D-5700 Des Gradins Blvd", "@spider": "calvin_klein", "addr:full": "200D-5700 Des Gradins Blvd", "addr:city": "Quebec City", "addr:state": "QC", "addr:postcode": "G2J 1R7", "addr:country": "Canada", "name": "Calvin Klein", "phone": "TEL: 418-628-0679", "brand": "Calvin Klein"}, "geometry": {"type": "Point", "coordinates": [-71.2769, 46.8424]}},
{"type": "Feature", "id": "f8ZhkaxPt_IfgJyvg-hoGYUCtZo=", "properties": {"ref": "19001 Chemin Notre-Dame Suite #421", "@spider": "calvin_klein", "addr:full": "19001 Chemin Notre-Dame Suite #421", "addr:city": "Mirabel", "addr:state": "QC", "addr:postcode": "J7J0R6", "addr:country": "Canada", "name": "Calvin Klein", "phone": "TEL: 450-420-3897", "brand": "Calvin Klein"}, "geometry": {"type": "Point", "coordinates": [-73.9216, 45.6698]}},
{"type": "Feature", "id": "H97p4gMl5qHRoaiCbHGF1EfSahY=", "properties": {"ref": "3150 Boulevard de la Gare CRU #118", "@spider": "calvin_klein", "addr:full": "3150 Boulevard de la Gare CRU #118", "addr:city": "Vaudreuil", "addr:state": "QC", "addr:postcode": "J7V0J5", "addr:country": "Canada", "name": "Calvin Klein", "phone": "TEL: 450-510-1461", "brand": "Calvin Klein"}, "geometry": {"type": "Point", "coordinates": [-74.0423, 45.4052]}},
{"type": "Feature", "id": "nqCjqHZhyiS1bBQ7sGRonV_217g=", "properties": {"ref": "300 Taylor Road", "@spider": "calvin_klein", "addr:full": "300 Taylor Road", "addr:city": "Niagara on the lake", "addr:state": "ON", "addr:postcode": "L0S 1J0", "addr:country": "Canada", "name": "Calvin Klein", "phone": "TEL: 905-688-5617", "brand": "Calvin Klein"}, "geometry": {"type": "Point", "coordinates": [-79.172, 43.1589]}},
{"type": "Feature", "id": "mEX4rbUXGUEDWnJC6_7F2xam--E=", "properties": {"ref": "1250 South Service Rd", "@spider": "calvin_klein", "addr:full": "1250 South Service Rd", "addr:city": "Mississauga", "addr:state": "ON", "addr:postcode": "L5E1V4", "addr:country": "Canada", "name": "Calvin Klein", "phone": "TEL: 905-274-4034", "brand": "Calvin Klein"}, "geometry": {"type": "Point", "coordinates": [-79.5693, 43.5931]}},
{"type": "Feature", "id": "07cG26qu-hU-BqOUoS-jz0OAexw=", "properties": {"ref": "CKFR0003", "@spider": "calvin_klein", "addr:full": "McArthurGlen Roubaix, 68 Mail de Lannoy,", "addr:city": "Roubaix", "addr:state": "Europe", "addr:postcode": "59100", "addr:country": "FR", "name": "Calvin Klein", "brand": "Calvin Klein"}, "geometry": {"type": "Point", "coordinates": [3.18145, 50.68949]}},
{"type": "Feature", "id": "OWpockmkYC9vEyXGLHGQvUR9jT8=", "properties": {"ref": "CKFR0011", "@spider": "calvin_klein", "addr:full": "Roppenheim The Style Outlets, 1 Route de L\u2019Europe", "addr:city": "Roppenheim", "addr:state": "Europe", "addr:postcode": "67480", "addr:country": "FR", "name": "Calvin Klein", "brand": "Calvin Klein"}, "geometry": {"type": "Point", "coordinates": [8.08847, 48.83679]}},
{"type": "Feature", "id": "3flPmJyyGWAc5aWwOQcb_JM0U-U=", "properties": {"ref": "CKFR0014", "@spider": "calvin_klein", "addr:full": "McArthurGlen Troyes, Voie du Bois", "addr:city": "Pont-Sainte Marie", "addr:state": "Europe", "addr:postcode": "10150", "addr:country": "FR", "name": "Calvin Klein", "brand": "Calvin Klein"}, "geometry": {"type": "Point", "coordinates": [4.10557, 48.3297]}},
{"type": "Feature", "id": "zUVvWFgpiTCZqU41tL3WFOP2La0=", "properties": {"ref": "CKFR0018", "@spider": "calvin_klein", "addr:full": "Forum des Halles, 101 Rue Berger", "addr:city": "Paris", "addr:state": "Europe", "addr:postcode": "75001", "addr:country": "FR", "name": "Calvin Klein", "brand": "Calvin Klein"}, "geometry": {"type": "Point", "coordinates": [2.34714, 48.86193]}},
{"type": "Feature", "id": "5Bw_aB6EbxkuAzfVYqtjuiHB94E=", "properties": {"ref": "CKFR0019", "@spider": "calvin_klein", "addr:full": "Centre Commercial Polygone Riviera, 119 Avenue des Alpes", "addr:city": "Cagnes sur Mer", "addr:state": "Europe", "addr:postcode": "06800", "addr:country": "FR", "name": "Calvin Klein", "brand": "Calvin Klein"}, "geometry": {"type": "Point", "coordinates": [7.12841, 43.66406]}},
{"type": "Feature", "id": "_NdeqNfTotRKLkOlQGeKITS3G50=", "properties": {"ref": "CKFR0020", "@spider": "calvin_klein", "addr:full": "Channel Outlet Store, 1, Boulevard du Parc", "addr:city": "Coquelles", "addr:state": "Europe", "addr:postcode": "62231", "addr:country": "FR", "name": "Calvin Klein", "brand": "Calvin Klein"}, "geometry": {"type": "Point", "coordinates": [1.80588, 50.92813]}},
{"type": "Feature", "id": "J6dLGyc8ydAcX-r3astPZ6247uQ=", "properties": {"ref": "CKFR0022", "@spider": "calvin_klein", "addr:full": "McArthurGlen Designer Outlet, Rue de la Quenouille, Unit 1-2-3", "addr:city": "Miramas", "addr:state": "Europe", "addr:postcode": "13140", "addr:country": "FR", "name": "Calvin Klein", "brand": "Calvin Klein"}, "geometry": {"type": "Point", "coordinates": [4.99252, 43.59379]}},
{"type": "Feature", "id": "X4ukB7tTtg-bIyFd1rnF0z2kBWA=", "properties": {"ref": "CKFR0029", "@spider": "calvin_klein", "addr:full": "Rue de la Motte Fablet 2", "addr:city": "Rennes", "addr:state": "Europe", "addr:postcode": "35000", "addr:country": "FR", "name": "Calvin Klein", "brand": "Calvin Klein"}, "geometry": {"type": "Point", "coordinates": [-1.67926, 48.11402]}},
{"type": "Feature", "id": "HAVh7a92MH5DMdaPod2zc2kzbEw=", "properties": {"ref": "CKFR0032", "@spider": "calvin_klein", "addr:full": "Place de Lisbonne 2, 34000, Montpellier", "addr:city": "Montpellier", "addr:state": "Europe", "addr:postcode": "34000", "addr:country": "FR", "name": "Calvin Klein", "brand": "Calvin Klein"}, "geometry": {"type": "Point", "coordinates": [3.92075, 43.60363]}},
{"type": "Feature", "id": "_gHSVR_fBKbBwLv46-bx_HScZIc=", "properties": {"ref": "CKFR0033", "@spider": "calvin_klein", "addr:full": "Rue des Francs Bourgeois 42, 75004, Paris, FR", "addr:city": "Paris", "addr:state": "Europe", "addr:postcode": "75004", "addr:country": "FR", "name": "Calvin Klein", "brand": "Calvin Klein"}, "geometry": {"type": "Point", "coordinates": [2.36174, 48.85725]}},
{"type": "Feature", "id": "wyqSfoSgHjDTT3ruESWAAsMDo6k=", "properties": {"ref": "CKFR0035", "@spider": "calvin_klein", "addr:full": "3 Cour De La Garonne", "addr:city": "Serris", "addr:state": "Europe", "addr:postcode": "77700", "addr:country": "FR", "name": "Calvin Klein", "brand": "Calvin Klein"}, "geometry": {"type": "Point", "coordinates": [2.78332, 48.85284]}},
{"type": "Feature", "id": "RRIX2gUBOtbh0FPe0Vb0TZdrxYk=", "properties": {"ref": "CKES0001", "@spider": "calvin_klein", "addr:full": "La Roca Village, Santa Agn\u00e8s de Malanyanes", "addr:city": "Barcelona", "addr:state": "Europe", "addr:postcode": "08430", "addr:country": "ES", "name": "Calvin Klein", "brand": "Calvin Klein"}, "geometry": {"type": "Point", "coordinates": [2.34339, 41.61061]}},
{"type": "Feature", "id": "54Kw7XYzQLgJkvJeFPENIWKPI4Y=", "properties": {"ref": "CKES0002", "@spider": "calvin_klein", "addr:full": "Las Rozas Village, Calle Juan Ram\u00f3n Jim\u00e9nez, 3", "addr:city": "Madrid", "addr:state": "Europe", "addr:postcode": "28230", "addr:country": "ES", "name": "Calvin Klein", "brand": "Calvin Klein"}, "geometry": {"type": "Point", "coordinates": [-3.9003, 40.51831]}},
{"type": "Feature", "id": "VkXvXERcGBzvGl1TSg4YNRd_IlM=", "properties": {"ref": "CKES0004", "@spider": "calvin_klein", "addr:full": "Las Rozas Village, Calle Juan Ram\u00f3n Jim\u00e9nez, 3", "addr:city": "Madrid", "addr:state": "Europe", "addr:postcode": "28232", "addr:country": "ES", "name": "Calvin Klein", "brand": "Calvin Klein"}, "geometry": {"type": "Point", "coordinates": [-3.90011, 40.51817]}},
{"type": "Feature", "id": "1g0yj8NktKn7YK7SJP4-nQKOIWI=", "properties": {"ref": "CKES0006", "@spider": "calvin_klein", "addr:full": "La Roca Village, Santa Agn\u00e8s de Malanyanes", "addr:city": "Barcelona", "addr:state": "Europe", "addr:postcode": "08430", "addr:country": "ES", "name": "Calvin Klein", "brand": "Calvin Klein"}, "geometry": {"type": "Point", "coordinates": [2.34344, 41.61066]}},
{"type": "Feature", "id": "P5WtGAhokQ_Ny02jl4xsDk_JGYM=", "properties": {"ref": "CKES0007", "@spider": "calvin_klein", "addr:full": "Centro Comercial Megapark Barakaldo, Avda. de la Ribera", "addr:city": "Barakaldo", "addr:state": "Europe", "addr:postcode": "48903", "addr:country": "ES", "name": "Calvin Klein", "brand": "Calvin Klein"}, "geometry": {"type": "Point", "coordinates": [-3.00414, 43.29508]}},
{"type": "Feature", "id": "nuW8WGNh1bjuoyJQxy19ECA67Dw=", "properties": {"ref": "CKES0009", "@spider": "calvin_klein", "addr:full": "Centro Comercial Las Terrazas, Autov\u00eda GC-1, km 5,5,  Salida El Cortijo", "addr:city": "Telde", "addr:state": "Europe", "addr:postcode": "35220", "addr:country": "ES", "name": "Calvin Klein", "brand": "Calvin Klein"}, "geometry": {"type": "Point", "coordinates": [-15.39398, 28.02936]}},
{"type": "Feature", "id": "UCHR7h1G5FBU5J8EpQd8IsAM0Ko=", "properties": {"ref": "CKES0010", "@spider": "calvin_klein", "addr:full": "Centro Comercial Megapark Barakaldo, Avda. de la Ribera", "addr:city": "Barakaldo", "addr:state": "Europe", "addr:postcode": "48903", "addr:country": "ES", "name": "Calvin Klein", "brand": "Calvin Klein"}, "geometry": {"type": "Point", "coordinates": [-3.0037, 43.29493]}},
{"type": "Feature", "id": "aecXonVKVllnbNXrf0pvuOIoXLA=", "properties": {"ref": "CKES0012", "@spider": "calvin_klein", "addr:full": "C.C Sevilla Fashion Outlet , Pol\u00edgono Los Espartales, Autov\u00eda A4, Km 528", "addr:city": "Seville", "addr:state": "Europe", "addr:postcode": "41300", "addr:country": "ES", "name": "Calvin Klein", "brand": "Calvin Klein"}, "geometry": {"type": "Point", "coordinates": [-5.88573, 37.4392]}},
{"type": "Feature", "id": "xMT8O4Jha4cE-lh3Rovnrbp0AQM=", "properties": {"ref": "CKES0015", "@spider": "calvin_klein", "addr:full": "Coru\u00f1a The Style Outlets, N-550, km 9.5", "addr:city": "Culleredo", "addr:state": "Europe", "addr:postcode": "15180", "addr:country": "ES", "name": "Calvin Klein", "brand": "Calvin Klein"}, "geometry": {"type": "Point", "coordinates": [-8.37101, 43.29081]}},
{"type": "Feature", "id": "pj9o2DhNpp1ykUysMAGiSjjq0V4=", "properties": {"ref": "CKES0021", "@spider": "calvin_klein", "addr:full": "Calle de Fuencarral, 18", "addr:city": "Madrid", "addr:state": "Europe", "addr:postcode": "28004", "addr:country": "ES", "name": "Calvin Klein", "brand": "Calvin Klein"}, "geometry": {"type": "Point", "coordinates": [-3.70094, 40.42167]}},
{"type": "Feature", "id": "n3SWATfLmKVsueYbLbryXJ8jl9U=", "properties": {"ref": "CKES0022", "@spider": "calvin_klein", "addr:full": "C.C Mallorca Fashion Outlet, Autopista Palma-Inca, Km 7,1", "addr:city": "Palma de Mallorca", "addr:state": "Europe", "addr:postcode": "07141", "addr:country": "ES", "name": "Calvin Klein", "brand": "Calvin Klein"}, "geometry": {"type": "Point", "coordinates": [2.73297, 39.63218]}},
{"type": "Feature", "id": "6IxaBjXMCy779DyI7K4Yeb4neCU=", "properties": {"ref": "CKES0031", "@spider": "calvin_klein", "addr:full": "The Duke Shops Adeje, Avenida Bruselas 19", "addr:city": "Adeje", "addr:state": "Europe", "addr:postcode": "38660", "addr:country": "ES", "name": "Calvin Klein", "brand": "Calvin Klein"}, "geometry": {"type": "Point", "coordinates": [-16.73636, 28.09354]}},
{"type": "Feature", "id": "I11Uz9-X-f4-_0hLVqA9jnvKRQA=", "properties": {"ref": "CKNL0002", "@spider": "calvin_klein", "addr:full": "McArthurGlen Roermond, Stadsweide 76", "addr:city": "Roermond", "addr:state": "Europe", "addr:postcode": "6041 TD", "addr:country": "NL", "name": "Calvin Klein", "brand": "Calvin Klein"}, "geometry": {"type": "Point", "coordinates": [5.9881, 51.19823]}},
{"type": "Feature", "id": "lBiUrB4rhKRMpbunZoUyvUWOXBc=", "properties": {"ref": "CKNL0004", "@spider": "calvin_klein", "addr:full": "McArthurGlen Roermond, Stadsweide 348+350", "addr:city": "Roermond", "addr:state": "Europe", "addr:postcode": "6041 TD", "addr:country": "NL", "name": "Calvin Klein", "brand": "Calvin Klein"}, "geometry": {"type": "Point", "coordinates": [5.98732, 51.19931]}},
{"type": "Feature", "id": "1h3PHqhlRkCcFHr5DvQkNxsSAJQ=", "properties": {"ref": "CKNL0005", "@spider": "calvin_klein", "addr:full": "Batavia Stad, Bataviaplein 200-202", "addr:city": "Lelystad", "addr:state": "Europe", "addr:postcode": "8242 PN", "addr:country": "NL", "name": "Calvin Klein", "brand": "Calvin Klein"}, "geometry": {"type": "Point", "coordinates": [5.4379, 52.52295]}},
{"type": "Feature", "id": "2Q7cmXk4OxLaqByskVvH0XOuHk4=", "properties": {"ref": "CKNL0013", "@spider": "calvin_klein", "addr:full": "Rosada 115-116", "addr:city": "Roosendaal", "addr:state": "Europe", "addr:postcode": "4703 TB", "addr:country": "NL", "name": "Calvin Klein", "brand": "Calvin Klein"}, "geometry": {"type": "Point", "coordinates": [4.42986, 51.53184]}},
{"type": "Feature", "id": "FhBnfltUSCEasE78Z3DUMbYVGGg=", "properties": {"ref": "CKNL0016", "@spider": "calvin_klein", "addr:full": "Leidsestraat 9", "addr:city": "Amsterdam", "addr:state": "Europe", "addr:postcode": "1017 NS", "addr:country": "NL", "name": "Calvin Klein", "brand": "Calvin Klein"}, "geometry": {"type": "Point", "coordinates": [4.88762, 52.3664]}},
{"type": "Feature", "id": "QaV87TeC7t4cXC9yTBC1KFdSRxw=", "properties": {"ref": "CKNL0018", "@spider": "calvin_klein", "addr:full": "Maastrichter Brugstraat 17,", "addr:city": "Maastricht", "addr:state": "Europe", "addr:postcode": "6211ES", "addr:country": "NL", "name": "Calvin Klein", "brand": "Calvin Klein"}, "geometry": {"type": "Point", "coordinates": [5.69361, 50.84925]}},
{"type": "Feature", "id": "Js6B8LA-kXqwmov1ZMcYe1qjuHk=", "properties": {"ref": "CKTR0001", "@spider": "calvin_klein", "addr:full": "Forum Bornova Shopping Center, Kazim Dirik Mah. 372 Sok. No:10", "addr:city": "Izmir", "addr:state": "Europe", "addr:postcode": "35040", "addr:country": "TR", "name": "Calvin Klein", "brand": "Calvin Klein"}, "geometry": {"type": "Point", "coordinates": [27.20944, 38.45032]}},
{"type": "Feature", "id": "wful1va7zUak5ZazG-r1_7o_Tu0=", "properties": {"ref": "CKTR0002", "@spider": "calvin_klein", "addr:full": "Istinye Park Mall, Istinye Bayiri Caddesi 73, Sariyer", "addr:city": "Istanbul", "addr:state": "Europe", "addr:postcode": "34460", "addr:country": "TR", "name": "Calvin Klein", "brand": "Calvin Klein"}, "geometry": {"type": "Point", "coordinates": [29.03243, 41.11004]}},
{"type": "Feature", "id": "gu5j0zrxQqd477aJ6_RgILbtW8E=", "properties": {"ref": "CKTR0003", "@spider": "calvin_klein", "addr:full": "Cepa Shopping Mall, Eskisehir Yolu 7.Km , Mustafa Kemal Mah. 2123 Sokak", "addr:city": "Ankara", "addr:state": "Europe", "addr:postcode": "06520", "addr:country": "TR", "name": "Calvin Klein", "brand": "Calvin Klein"}, "geometry": {"type": "Point", "coordinates": [32.77847, 39.91043]}},
{"type": "Feature", "id": "kWRCwUgQcG_zpRHKXe8XEKrEnN8=", "properties": {"ref": "CKTR0004", "@spider": "calvin_klein", "addr:full": "City's Shopping Mall", "addr:city": "Istanbul", "addr:state": "Europe", "addr:postcode": "34365", "addr:country": "TR", "name": "Calvin Klein", "brand": "Calvin Klein"}, "geometry": {"type": "Point", "coordinates": [28.99266, 41.05166]}},
{"type": "Feature", "id": "2FYu_Gd2nCYg1ndBV9KjjgbgIKU=", "properties": {"ref": "CKTR0007", "@spider": "calvin_klein", "addr:full": "Zorlu Center,Levazim Mah. Koru Sok. No:2", "addr:city": "Istanbul", "addr:state": "Europe", "addr:postcode": "34340", "addr:country": "TR", "name": "Calvin Klein", "brand": "Calvin Klein"}, "geometry": {"type": "Point", "coordinates": [29.01754, 41.06486]}},
{"type": "Feature", "id": "2a2b8pN2gdYBQIUGt1MKqV0tVm0=", "properties": {"ref": "CKTR0008", "@spider": "calvin_klein", "addr:full": "Yeni\u015fehir Mah., Dedepa\u015fa Cad. No:19", "addr:city": "Istanbul", "addr:state": "Europe", "addr:postcode": "34912", "addr:country": "TR", "name": "Calvin Klein", "brand": "Calvin Klein"}, "geometry": {"type": "Point", "coordinates": [29.32601, 40.9371]}},
{"type": "Feature", "id": "DcS9GC-dS0m1p0OWBS2WcKwF5Xs=", "properties": {"ref": "CKTR0009", "@spider": "calvin_klein", "addr:full": "B\u00fcy\u00fckdere Caddesi 185", "addr:city": "Istanbul", "addr:state": "Europe", "addr:postcode": "34394", "addr:country": "TR", "name": "Calvin Klein", "brand": "Calvin Klein"}, "geometry": {"type": "Point", "coordinates": [29.01164, 41.07826]}},
{"type": "Feature", "id": "19217mG2XDOi0YO1a0TvH3TRmPU=", "properties": {"ref": "CKTR0010", "@spider": "calvin_klein", "addr:full": "Macun Mahallesi, Fatih Sultan Mehmet Sk. No:244", "addr:city": "Ankara", "addr:state": "Europe", "addr:postcode": "06374", "addr:country": "TR", "name": "Calvin Klein", "brand": "Calvin Klein"}, "geometry": {"type": "Point", "coordinates": [32.76207, 39.94643]}},
{"type": "Feature", "id": "zQ1YTAoo9pXmno8KCIfOAKOcmxA=", "properties": {"ref": "CKTR0012", "@spider": "calvin_klein", "addr:full": "SANAYI MAHALLESI 8, 41040, ISTANBUL, TR", "addr:city": "IZMIT", "addr:state": "Europe", "addr:postcode": "41040", "addr:country": "TR", "name": "Calvin Klein", "brand": "Calvin Klein"}, "geometry": {"type": "Point", "coordinates": [29.94701, 40.75392]}},
{"type": "Feature", "id": "8npEQ2o3p4UgiTHmEG2TiqFF8MI=", "properties": {"ref": "CKTR0013", "@spider": "calvin_klein", "addr:full": "Istiklal Caddesi Yenisahra Mahallesi Z27 & Z33,34335,  ISTANBUL, TR", "addr:city": "ISTANBUL", "addr:state": "Europe", "addr:postcode": "34335", "addr:country": "TR", "name": "Calvin Klein", "brand": "Calvin Klein"}, "geometry": {"type": "Point", "coordinates": [29.08549, 40.98864]}},
{"type": "Feature", "id": "uV1bPDcv9HXrdmN7adqgZth-MGo=", "properties": {"ref": "CKDE0002", "@spider": "calvin_klein", "addr:full": "Wertheim Village, Almosenberg 1", "addr:city": "Wertheim", "addr:state": "Europe", "addr:postcode": "97877", "addr:country": "DE", "name": "Calvin Klein", "brand": "Calvin Klein"}, "geometry": {"type": "Point", "coordinates": [9.57634, 49.77547]}},
{"type": "Feature", "id": "m_fT7rs3FZdN6Ly5O2GKEH8mlbI=", "properties": {"ref": "CKDE0003", "@spider": "calvin_klein", "addr:full": "Otto-Hahn-Stra\u00dfe 1", "addr:city": "Ingolstadt", "addr:state": "Europe", "addr:postcode": "85055", "addr:country": "DE", "name": "Calvin Klein", "brand": "Calvin Klein"}, "geometry": {"type": "Point", "coordinates": [11.47901, 48.78401]}},
{"type": "Feature", "id": "CqYALO3fwwGcu2PQsl_ruOtvSks=", "properties": {"ref": "CKDE0005", "@spider": "calvin_klein", "addr:full": "Otto-Hahn-Stra\u00dfe 1", "addr:city": "Ingolstadt", "addr:state": "Europe", "addr:postcode": "85055", "addr:country": "DE", "name": "Calvin Klein", "brand": "Calvin Klein"}, "geometry": {"type": "Point", "coordinates": [11.47901, 48.78401]}},
{"type": "Feature", "id": "_UWaSN5gir63RqaVDzZNPzOOnx4=", "properties": {"ref": "CKDE0006", "@spider": "calvin_klein", "addr:full": "Almosenberg 1", "addr:city": "Wertheim", "addr:state": "Europe", "addr:postcode": "97877", "addr:country": "DE", "name": "Calvin Klein", "brand": "Calvin Klein"}, "geometry": {"type": "Point", "coordinates": [9.57634, 49.77547]}},
{"type": "Feature", "id": "OOwPvhJXcFFt4h_-32G6NFEqnQ0=", "properties": {"ref": "CKDE0009", "@spider": "calvin_klein", "addr:full": "Rosenstrasse 6", "addr:city": "Munich", "addr:state": "Europe", "addr:postcode": "80331", "addr:country": "DE", "name": "Calvin Klein", "brand": "Calvin Klein"}, "geometry": {"type": "Point", "coordinates": [11.574, 48.13651]}},
{"type": "Feature", "id": "F7aZv0Ji_EAV7fGIeVSm3rNWGS4=", "properties": {"ref": "CKDE0020", "@spider": "calvin_klein", "addr:full": "Kanalstra\u00dfe 8", "addr:city": "Metzingen", "addr:state": "Europe", "addr:postcode": "72555", "addr:country": "DE", "name": "Calvin Klein", "brand": "Calvin Klein"}, "geometry": {"type": "Point", "coordinates": [9.28087, 48.53584]}},
{"type": "Feature", "id": "87CZ7BxWWvlefAzHODIfdp96wtE=", "properties": {"ref": "CKDE0021", "@spider": "calvin_klein", "addr:full": "Outletcity Metzingen, Reutlinger Stra\u00dfe 63", "addr:city": "Metzingen", "addr:state": "Europe", "addr:postcode": "72555", "addr:country": "DE", "name": "Calvin Klein", "brand": "Calvin Klein"}, "geometry": {"type": "Point", "coordinates": [9.28061, 48.53575]}},
{"type": "Feature", "id": "Ps3tLrKC1HEM16vl3llJkoRDnKc=", "properties": {"ref": "CKDE0024", "@spider": "calvin_klein", "addr:full": "An der Vorburg 1", "addr:city": "Wolfsburg", "addr:state": "Europe", "addr:postcode": "38440", "addr:country": "DE", "name": "Calvin Klein", "brand": "Calvin Klein"}, "geometry": {"type": "Point", "coordinates": [10.79296, 52.42916]}},
{"type": "Feature", "id": "_HYRjPc_szOfJT4Pse0XeVk2dYo=", "properties": {"ref": "CKDE0027", "@spider": "calvin_klein", "addr:full": "Oderstra\u00dfe 10", "addr:city": "Neum\u00fcnster", "addr:state": "Europe", "addr:postcode": "24539", "addr:country": "DE", "name": "Calvin Klein", "brand": "Calvin Klein"}, "geometry": {"type": "Point", "coordinates": [9.97816, 54.04344]}},
{"type": "Feature", "id": "aUAH4bjaPBWOu74zLs-WMA985b8=", "properties": {"ref": "CKDE0028", "@spider": "calvin_klein", "addr:full": "Ballindamm 40", "addr:city": "Hamburg", "addr:state": "Europe", "addr:postcode": "20095", "addr:country": "DE", "name": "Calvin Klein", "brand": "Calvin Klein"}, "geometry": {"type": "Point", "coordinates": [9.99521, 53.55169]}},
{"type": "Feature", "id": "Aoz847-fBJXkdubeztWRLW5_38Q=", "properties": {"ref": "CKDE0030", "@spider": "calvin_klein", "addr:full": "Am Main-Taunus-Zentrum", "addr:city": "Sulzbach", "addr:state": "Europe", "addr:postcode": "65843", "addr:country": "DE", "name": "Calvin Klein", "brand": "Calvin Klein"}, "geometry": {"type": "Point", "coordinates": [8.52514, 50.12076]}},
{"type": "Feature", "id": "qRWTQ4XjTxzM1b9eVyA49n67Olw=", "properties": {"ref": "CKDE0035", "@spider": "calvin_klein", "addr:full": "Alexanderstra\u00dfe 13", "addr:city": "Berlin", "addr:state": "Europe", "addr:postcode": "10179", "addr:country": "DE", "name": "Calvin Klein", "brand": "Calvin Klein"}, "geometry": {"type": "Point", "coordinates": [13.41482, 52.51992]}},
{"type": "Feature", "id": "bMOYJSIolj8ylunNKSfcRr_-Qsg=", "properties": {"ref": "CKDE0037", "@spider": "calvin_klein", "addr:full": "Ernst-August-Platz 2", "addr:city": "Hannover", "addr:state": "Europe", "addr:postcode": "30159", "addr:country": "DE", "name": "Calvin Klein", "brand": "Calvin Klein"}, "geometry": {"type": "Point", "coordinates": [9.738, 52.37786]}},
{"type": "Feature", "id": "5IRI8MIVPkRt5LjuK6QaUmwF7Iw=", "properties": {"ref": "CKDE0038", "@spider": "calvin_klein", "addr:full": "Heegbarg 31", "addr:city": "Hamburg", "addr:state": "Europe", "addr:postcode": "22391", "addr:country": "DE", "name": "Calvin Klein", "brand": "Calvin Klein"}, "geometry": {"type": "Point", "coordinates": [10.09097, 53.65429]}},
{"type": "Feature", "id": "Fm5zT5d4leEuBhXGdHhjDFPN4ug=", "properties": {"ref": "CKDE0042", "@spider": "calvin_klein", "addr:full": "Centroallee 244", "addr:city": "Oberhausen", "addr:state": "Europe", "addr:postcode": "46047", "addr:country": "DE", "name": "Calvin Klein", "brand": "Calvin Klein"}, "geometry": {"type": "Point", "coordinates": [6.88152, 51.48878]}},
{"type": "Feature", "id": "y0mL-ShmqnbYedWWfA-HtV9Vxy0=", "properties": {"ref": "CKDE0046", "@spider": "calvin_klein", "addr:full": "Friedrichstrasse 32", "addr:city": "Westerland", "addr:state": "Europe", "addr:postcode": "25980", "addr:country": "DE", "name": "Calvin Klein", "brand": "Calvin Klein"}, "geometry": {"type": "Point", "coordinates": [8.30157, 54.90773]}},
{"type": "Feature", "id": "ZisDSQZ7JvG7eQxayumfY3A-9Z8=", "properties": {"ref": "CKDE0048", "@spider": "calvin_klein", "addr:full": "Mail\u00e4nder Platz 7", "addr:city": "Stuttgart", "addr:state": "Europe", "addr:postcode": "70173", "addr:country": "DE", "name": "Calvin Klein", "brand": "Calvin Klein"}, "geometry": {"type": "Point", "coordinates": [9.18207, 48.7913]}},
{"type": "Feature", "id": "4MATHVjSRv7JJJcIbLCe0OXwZFs=", "properties": {"ref": "CKDE0050", "@spider": "calvin_klein", "addr:full": "Bremer Stra\u00dfe 103-117C", "addr:city": "Stuhr Brinkum", "addr:state": "Europe", "addr:postcode": "28816", "addr:country": "DE", "name": "Calvin Klein", "brand": "Calvin Klein"}, "geometry": {"type": "Point", "coordinates": [8.80474, 53.02861]}},
{"type": "Feature", "id": "a1ivBE-dCo_nm3jZhu5wEDpf2Gk=", "properties": {"ref": "CKDE0051", "@spider": "calvin_klein", "addr:full": "K\u00f6nigsallee 14-16", "addr:city": "Duesseldorf", "addr:state": "Europe", "addr:postcode": "40212", "addr:country": "DE", "name": "Calvin Klein", "brand": "Calvin Klein"}, "geometry": {"type": "Point", "coordinates": [6.77962, 51.22572]}},
{"type": "Feature", "id": "LhmX06zZ8gHSO2poJ6vGUO9Q4CI=", "properties": {"ref": "CKDE0053", "@spider": "calvin_klein", "addr:full": "Centroallee 129e", "addr:city": "Oberhausen", "addr:state": "Europe", "addr:postcode": "46047", "addr:country": "DE", "name": "Calvin Klein", "brand": "Calvin Klein"}, "geometry": {"type": "Point", "coordinates": [6.88106, 51.49037]}},
{"type": "Feature", "id": "058ZRZU8y4sP_t9Tf0LTJgrzYnw=", "properties": {"ref": "CKDE0054", "@spider": "calvin_klein", "addr:full": "Schlo\u00dfstra\u00dfe 34", "addr:city": "Berlin", "addr:state": "Europe", "addr:postcode": "12163", "addr:country": "DE", "name": "Calvin Klein", "brand": "Calvin Klein"}, "geometry": {"type": "Point", "coordinates": [13.32116, 52.4577]}},
{"type": "Feature", "id": "PJY13TKSVH-vnQXkkJwWKEopAhM=", "properties": {"ref": "CKDE0058", "@spider": "calvin_klein", "addr:full": "LimbeckerPlatz 1a", "addr:city": "Essen", "addr:state": "Europe", "addr:postcode": "45127", "addr:country": "DE", "name": "Calvin Klein", "brand": "Calvin Klein"}, "geometry": {"type": "Point", "coordinates": [7.00676, 51.45914]}},
{"type": "Feature", "id": "WET3F2u0GwoAtLGLmhRHpHvS2CI=", "properties": {"ref": "CKDE0059", "@spider": "calvin_klein", "addr:full": "Leipziger Platz 12", "addr:city": "Berlin", "addr:state": "Europe", "addr:postcode": "10117", "addr:country": "DE", "name": "Calvin Klein", "brand": "Calvin Klein"}, "geometry": {"type": "Point", "coordinates": [13.38106, 52.51042]}},
{"type": "Feature", "id": "iL_aHizAwQ8oxBv3uV_G667mj88=", "properties": {"ref": "CKDE0060", "@spider": "calvin_klein", "addr:full": "Ernst-August-Platz 2", "addr:city": "Hannover", "addr:state": "Europe", "addr:postcode": "30159", "addr:country": "DE", "name": "Calvin Klein", "brand": "Calvin Klein"}, "geometry": {"type": "Point", "coordinates": [9.738, 52.37786]}},
{"type": "Feature", "id": "5ow1d_vq2lLEecaKqJi0LegA0aU=", "properties": {"ref": "CKDE0062", "@spider": "calvin_klein", "addr:full": "Ludgeristra\u00dfe 114", "addr:city": "Muenster", "addr:state": "Europe", "addr:postcode": "48143", "addr:country": "DE", "name": "Calvin Klein", "brand": "Calvin Klein"}, "geometry": {"type": "Point", "coordinates": [7.62761, 51.96081]}},
{"type": "Feature", "id": "I6kp6WpcZ8k8xeURzuQdfeUszNw=", "properties": {"ref": "CKDE0063", "@spider": "calvin_klein", "addr:full": "Adalbertstrasse 70", "addr:city": "Aachen", "addr:state": "Europe", "addr:postcode": "52062", "addr:country": "DE", "name": "Calvin Klein", "brand": "Calvin Klein"}, "geometry": {"type": "Point", "coordinates": [6.09195, 50.77522]}},
{"type": "Feature", "id": "rAN3zSnJ6yo5CnHCRJ1E7DA4DeM=", "properties": {"ref": "CKDE0064", "@spider": "calvin_klein", "addr:full": "Ritterbrunnen 1", "addr:city": "Braunschweig", "addr:state": "Europe", "addr:postcode": "38100", "addr:country": "DE", "name": "Calvin Klein", "brand": "Calvin Klein"}, "geometry": {"type": "Point", "coordinates": [10.52846, 52.26339]}},
{"type": "Feature", "id": "XtSaE9seOkMoqcOiQnEG1sErplg=", "properties": {"ref": "CKDE0065", "@spider": "calvin_klein", "addr:full": "Galerie Rostocker Hof, Kr\u00f6peliner Stra\u00dfe 26", "addr:city": "Rostock", "addr:state": "Europe", "addr:postcode": "18055", "addr:country": "DE", "name": "Calvin Klein", "brand": "Calvin Klein"}, "geometry": {"type": "Point", "coordinates": [12.13551, 54.08812]}},
{"type": "Feature", "id": "zK7pwMLAq6CBdNFSPJQ_JqI7cE8=", "properties": {"ref": "CKDE0066", "@spider": "calvin_klein", "addr:full": "Ballindamm 40", "addr:city": "Hamburg", "addr:state": "Europe", "addr:postcode": "20095", "addr:country": "DE", "name": "Calvin Klein", "brand": "Calvin Klein"}, "geometry": {"type": "Point", "coordinates": [9.99694, 53.55136]}},
{"type": "Feature", "id": "r7rWnUJFlNd1YaQdXXHyCgiLCxU=", "properties": {"ref": "CKDE0067", "@spider": "calvin_klein", "addr:full": "Ernst-Reuter-Allee 11", "addr:city": "Magdeburg", "addr:state": "Europe", "addr:postcode": "39104", "addr:country": "DE", "name": "Calvin Klein", "brand": "Calvin Klein"}, "geometry": {"type": "Point", "coordinates": [11.63808, 52.13005]}},
{"type": "Feature", "id": "y8L7ZK1sjVL1D6xSmZj5o9z-pJ8=", "properties": {"ref": "CKDE0068", "@spider": "calvin_klein", "addr:full": "Bodanstrabe 1", "addr:city": "Konstanz", "addr:state": "Europe", "addr:postcode": "78462", "addr:country": "DE", "name": "Calvin Klein", "brand": "Calvin Klein"}, "geometry": {"type": "Point", "coordinates": [9.17649, 47.65757]}},
{"type": "Feature", "id": "L1Sc9cqe0iYNmpffdEhQ854CKOk=", "properties": {"ref": "CKDE0070", "@spider": "calvin_klein", "addr:full": "Altmarkt-Galerie Dresden, Webergasse 1", "addr:city": "Dresden", "addr:state": "Europe", "addr:postcode": "01067", "addr:country": "DE", "name": "Calvin Klein", "brand": "Calvin Klein"}, "geometry": {"type": "Point", "coordinates": [13.73495, 51.04851]}},
{"type": "Feature", "id": "gSzO7bGSL4pHJs80A-h6Mhuh8xc=", "properties": {"ref": "CKDE0074", "@spider": "calvin_klein", "addr:full": "Stern Center Potsdam", "addr:city": "Potsdam", "addr:state": "Europe", "addr:postcode": "14480", "addr:country": "DE", "name": "Calvin Klein", "brand": "Calvin Klein"}, "geometry": {"type": "Point", "coordinates": [13.13465, 52.37101]}},
{"type": "Feature", "id": "b6GdzUriysRLDyCBheJYimLBK7Q=", "properties": {"ref": "CKDE0077", "@spider": "calvin_klein", "addr:full": "Gruner Str. 20", "addr:city": "Berlin", "addr:state": "Europe", "addr:postcode": "10179", "addr:country": "DE", "name": "Calvin Klein", "brand": "Calvin Klein"}, "geometry": {"type": "Point", "coordinates": [13.41479, 52.5199]}},
{"type": "Feature", "id": "OMY2WMMz3HSUCXVPoHsxuA0SJ4o=", "properties": {"ref": "CKDE0078", "@spider": "calvin_klein", "addr:full": "Schildergasse 55", "addr:city": "K\u00f6ln", "addr:state": "Europe", "addr:postcode": "50667", "addr:country": "DE", "name": "Calvin Klein", "brand": "Calvin Klein"}, "geometry": {"type": "Point", "coordinates": [6.95359, 50.93646]}},
{"type": "Feature", "id": "d9O4t6st7-bDW9A8kUUqwQWB8_c=", "properties": {"ref": "CKDE0079", "@spider": "calvin_klein", "addr:full": "Laurenzstra\u00dfe 51-55", "addr:city": "Ochtrup", "addr:state": "Europe", "addr:postcode": "48607", "addr:country": "DE", "name": "Calvin Klein", "brand": "Calvin Klein"}, "geometry": {"type": "Point", "coordinates": [7.19863, 52.21071]}},
{"type": "Feature", "id": "cIxYWPE40ZAQKE-tgBPSMURiBsw=", "properties": {"ref": "CKDE0080", "@spider": "calvin_klein", "addr:full": "Alter Spandauer Weg 1", "addr:city": "Wustermark", "addr:state": "Europe", "addr:postcode": "14641", "addr:country": "DE", "name": "Calvin Klein", "brand": "Calvin Klein"}, "geometry": {"type": "Point", "coordinates": [12.97826, 52.54084]}},
{"type": "Feature", "id": "d2dEVmrU7LmEhHfeVrO0_diyhIs=", "properties": {"ref": "CKDE0082", "@spider": "calvin_klein", "addr:full": "Londoner Bogen 10 - 90", "addr:city": "Zweibr\u00fccken", "addr:state": "Europe", "addr:postcode": "66482", "addr:country": "DE", "name": "Calvin Klein", "brand": "Calvin Klein"}, "geometry": {"type": "Point", "coordinates": [7.40303, 49.23068]}},
{"type": "Feature", "id": "mnLMJ14AtDg1HsxpZtoybs8entg=", "properties": {"ref": "CKDE0084", "@spider": "calvin_klein", "addr:full": "Am Fashion Outlet 72", "addr:city": "Montabaur", "addr:state": "Europe", "addr:postcode": "56410", "addr:country": "DE", "name": "Calvin Klein", "brand": "Calvin Klein"}, "geometry": {"type": "Point", "coordinates": [7.82849, 50.44391]}},
{"type": "Feature", "id": "Pc9z0EcCMPXsm15T6nZfepaWrNg=", "properties": {"ref": "CKDE0086", "@spider": "calvin_klein", "addr:full": "N\u00fcrnberger Str. 7, 91052, Erlangen, DE", "addr:city": "Erlangen", "addr:state": "Europe", "addr:postcode": "91052", "addr:country": "DE", "name": "Calvin Klein", "brand": "Calvin Klein"}, "geometry": {"type": "Point", "coordinates": [11.00429, 49.59311]}},
{"type": "Feature", "id": "9m2nTuoxd-4CDIJB1MP6Oj0Eg0A=", "properties": {"ref": "CKXK0001", "@spider": "calvin_klein", "addr:full": "Albi Mall, M2 Veternik", "addr:city": "Pristina", "addr:state": "Europe", "addr:postcode": "10000", "addr:country": "XK", "name": "Calvin Klein", "brand": "Calvin Klein"}, "geometry": {"type": "Point", "coordinates": [21.15716, 42.63147]}},
{"type": "Feature", "id": "YakbeoJ-9DEYPHPnj4mvsR03M0Q=", "properties": {"ref": "CKBY0002", "@spider": "calvin_klein", "addr:full": "Zamok Shopping Mal, Prospekt Pobediteley 65", "addr:city": "Minsk", "addr:state": "Europe", "addr:postcode": "220035", "addr:country": "BY", "name": "Calvin Klein", "brand": "Calvin Klein"}, "geometry": {"type": "Point", "coordinates": [27.51783, 53.92652]}},
{"type": "Feature", "id": "UnXryjao1ydnToX7L_F7NNVwayg=", "properties": {"ref": "CKRS0001", "@spider": "calvin_klein", "addr:full": "Boulevard Mihajla Pupina 4", "addr:city": "Belgrade", "addr:state": "Europe", "addr:postcode": "11070", "addr:country": "RS", "name": "Calvin Klein", "brand": "Calvin Klein"}, "geometry": {"type": "Point", "coordinates": [20.43721, 44.81554]}},
{"type": "Feature", "id": "C9UAiQEAp-reYE226lHO5cd4CJA=", "properties": {"ref": "CKRS0002", "@spider": "calvin_klein", "addr:full": "Rajiceva Shopping Center, Kneza Mihaila 54", "addr:city": "Belgrade", "addr:state": "Europe", "addr:postcode": "11000", "addr:country": "RS", "name": "Calvin Klein", "brand": "Calvin Klein"}, "geometry": {"type": "Point", "coordinates": [20.45382, 44.81984]}},
{"type": "Feature", "id": "0PfpmDq2WLX6k3n2K_JQ5-sU8I8=", "properties": {"ref": "CKRS0003", "@spider": "calvin_klein", "addr:full": "Bulevar Oslobodenja 119", "addr:city": "Novi Sad", "addr:state": "Europe", "addr:postcode": "21000", "addr:country": "RS", "name": "Calvin Klein", "brand": "Calvin Klein"}, "geometry": {"type": "Point", "coordinates": [19.83984, 45.24696]}},
{"type": "Feature", "id": "RjnCjJrNaev_XqnS-h-Vbca1sdQ=", "properties": {"ref": "CKRS0004", "@spider": "calvin_klein", "addr:full": "Jurija Gagarina 16, 11000, Beograd, RS", "addr:city": "Beograd", "addr:state": "Europe", "addr:postcode": "11000", "addr:country": "RS", "name": "Calvin Klein", "brand": "Calvin Klein"}, "geometry": {"type": "Point", "coordinates": [20.40525, 44.80542]}},
{"type": "Feature", "id": "vkg8W0yqjyjSrA4Z31lVblPSSjQ=", "properties": {"ref": "CKAM0001", "@spider": "calvin_klein", "addr:full": "10 North Avenue", "addr:city": "Yerevan", "addr:state": "Europe", "addr:postcode": "0010", "addr:country": "AM", "name": "Calvin Klein", "brand": "Calvin Klein"}, "geometry": {"type": "Point", "coordinates": [44.51426, 40.1805]}},
{"type": "Feature", "id": "rBl83RXOTOK3AX19_hqknbne7CY=", "properties": {"ref": "CKGE0001", "@spider": "calvin_klein", "addr:full": "Galleria Tbilisi, 2/4 Shota Rustaveli Ave", "addr:city": "Tbilisi", "addr:state": "Europe", "addr:postcode": "0179", "addr:country": "GE", "name": "Calvin Klein", "brand": "Calvin Klein"}, "geometry": {"type": "Point", "coordinates": [44.80009, 41.69447]}},
{"type": "Feature", "id": "fMiF2xYyvsVvTXqTKt2fPM2re-w=", "properties": {"ref": "CKUA0001", "@spider": "calvin_klein", "addr:full": "Most Citi Mall, Hlinky St, 2", "addr:city": "Dnepropetrovsk", "addr:state": "Europe", "addr:postcode": "49000", "addr:country": "UA", "name": "Calvin Klein", "brand": "Calvin Klein"}, "geometry": {"type": "Point", "coordinates": [35.05081, 48.46681]}},
{"type": "Feature", "id": "9z-JzZUOlfpBqyYSkfpnyOq6FKQ=", "properties": {"ref": "CKUA0004", "@spider": "calvin_klein", "addr:full": "Karavan Mall, Heroiv Pratsi Street 7", "addr:city": "Kharkov", "addr:state": "Europe", "addr:postcode": "61000", "addr:country": "UA", "name": "Calvin Klein", "brand": "Calvin Klein"}, "geometry": {"type": "Point", "coordinates": [36.32835, 50.029]}},
{"type": "Feature", "id": "3Sq4mFC2KY8yD7jrO58EJ-zoOfI=", "properties": {"ref": "CKUA0005", "@spider": "calvin_klein", "addr:full": "Sky Mall, General Vatutin Avenue 2T", "addr:city": "Kiev", "addr:state": "Europe", "addr:postcode": "02218", "addr:country": "UA", "name": "Calvin Klein", "brand": "Calvin Klein"}, "geometry": {"type": "Point", "coordinates": [30.56128, 50.49374]}},
{"type": "Feature", "id": "wGTofMZ4ViICp7U7Ey-ONVaC9wU=", "properties": {"ref": "CKUA0007", "@spider": "calvin_klein", "addr:full": "Ocean Plaza Mall, Horkiy Street 176", "addr:city": "Kiev", "addr:state": "Europe", "addr:postcode": "84529", "addr:country": "UA", "name": "Calvin Klein", "brand": "Calvin Klein"}, "geometry": {"type": "Point", "coordinates": [30.52263, 50.41179]}},
{"type": "Feature", "id": "lGw2mVz6iIajeoih9XMDaI7laYw=", "properties": {"ref": "CKUA0008", "@spider": "calvin_klein", "addr:full": "SEC Lavina Mall, Vulytsya Berkovets'ka 6D", "addr:city": "Kiev", "addr:state": "Europe", "addr:postcode": "04128", "addr:country": "UA", "name": "Calvin Klein", "brand": "Calvin Klein"}, "geometry": {"type": "Point", "coordinates": [30.35932, 50.49543]}},
{"type": "Feature", "id": "7SdrmIwNLdBnK-dhuTtrQyoYF1k=", "properties": {"ref": "CKUA0009", "@spider": "calvin_klein", "addr:full": "Lavina Mall, Vulytsya Berkovets'ka 6D", "addr:city": "Kiev", "addr:state": "Europe", "addr:postcode": "04128", "addr:country": "UA", "name": "Calvin Klein", "brand": "Calvin Klein"}, "geometry": {"type": "Point", "coordinates": [30.35932, 50.49543]}},
{"type": "Feature", "id": "PKKi5Nxm1nIL035ZNhoVI0Bmy0U=", "properties": {"ref": "CKUA0010", "@spider": "calvin_klein", "addr:full": "Ocean Plaza Mall, Antonovycha St, 176", "addr:city": "Kiev", "addr:state": "Europe", "addr:postcode": "03150", "addr:country": "UA", "name": "Calvin Klein", "brand": "Calvin Klein"}, "geometry": {"type": "Point", "coordinates": [30.52259, 50.41202]}},
{"type": "Feature", "id": "Cxnhvp51Da0AaSFtweR2dOucrvU=", "properties": {"ref": "CKLB0001", "@spider": "calvin_klein", "addr:full": "ABC Mall Achrafieh, Sassin Square", "addr:city": "Beirut", "addr:state": "MEA+", "addr:postcode": "tbc", "addr:country": "LB", "name": "Calvin Klein", "brand": "Calvin Klein"}, "geometry": {"type": "Point", "coordinates": [35.52012, 33.88862]}},
{"type": "Feature", "id": "ABX-gvFw6NweiyCzSKVNgUXHCgg=", "properties": {"ref": "CKLB0002", "@spider": "calvin_klein", "addr:full": "Souks Mall,", "addr:city": "Beirut", "addr:state": "MEA+", "addr:country": "LB", "name": "Calvin Klein", "brand": "Calvin Klein"}, "geometry": {"type": "Point", "coordinates": [35.50392, 33.89871]}},
{"type": "Feature", "id": "OuNazSEnVz6-RzuxKDXGfLWbmMI=", "properties": {"ref": "CKLB0004", "@spider": "calvin_klein", "addr:full": "ABC Verdun Mall", "addr:city": "Beirut", "addr:state": "MEA+", "addr:postcode": "590", "addr:country": "LB", "name": "Calvin Klein", "brand": "Calvin Klein"}, "geometry": {"type": "Point", "coordinates": [35.48455, 33.88427]}},
{"type": "Feature", "id": "3-Gr4Y48df6zaGJrransqyOrkiI=", "properties": {"ref": "CKGB0002", "@spider": "calvin_klein", "addr:full": "68 King's Road", "addr:city": "London", "addr:state": "Europe", "addr:postcode": "SW3 4UD", "addr:country": "GB", "name": "Calvin Klein", "brand": "Calvin Klein"}, "geometry": {"type": "Point", "coordinates": [-0.16054, 51.49137]}},
{"type": "Feature", "id": "psZ_57fixYsl4gqyZQWUHbWX_eE=", "properties": {"ref": "CKGB0007", "@spider": "calvin_klein", "addr:full": "Clarks Village, Farm Road", "addr:city": "Stone Hill", "addr:state": "Europe", "addr:postcode": "BA16 0BB", "addr:country": "GB", "name": "Calvin Klein", "brand": "Calvin Klein"}, "geometry": {"type": "Point", "coordinates": [-2.74018, 51.1282]}},
{"type": "Feature", "id": "2pjkI3W9vZwRF_U32yV7d_xzbqw=", "properties": {"ref": "CKGB0008", "@spider": "calvin_klein", "addr:full": "Bicester Village, 50 Pringle Drive", "addr:city": "Bicester", "addr:state": "Europe", "addr:postcode": "OX26 6WD", "addr:country": "GB", "name": "Calvin Klein", "brand": "Calvin Klein"}, "geometry": {"type": "Point", "coordinates": [-1.15584, 51.89225]}},
{"type": "Feature", "id": "kDiEUss9vcV59tdbyB0iKjgo4EM=", "properties": {"ref": "CKGB0014", "@spider": "calvin_klein", "addr:full": "Covent Garden, 120 Long Acre", "addr:city": "London", "addr:state": "Europe", "addr:postcode": "WC2E 9PA", "addr:country": "GB", "name": "Calvin Klein", "brand": "Calvin Klein"}, "geometry": {"type": "Point", "coordinates": [-0.12524, 51.51274]}},
{"type": "Feature", "id": "Ttwlxvh2Lbs9SvM1Bo9gjadUZpo=", "properties": {"ref": "CKGB0017", "@spider": "calvin_klein", "addr:full": "170 Regent Street.", "addr:city": "London", "addr:state": "Europe", "addr:postcode": "W1B 5TB", "addr:country": "GB", "name": "Calvin Klein", "brand": "Calvin Klein"}, "geometry": {"type": "Point", "coordinates": [-0.13988, 51.51215]}},
{"type": "Feature", "id": "KyRUrFQl9-8PFNYZhXLebvCznbk=", "properties": {"ref": "CKGB0019", "@spider": "calvin_klein", "addr:full": "The Trafford Centre, Unit L35, 6 Peel Avenue", "addr:city": "Manchester", "addr:state": "Europe", "addr:postcode": "M17 8BL", "addr:country": "GB", "name": "Calvin Klein", "brand": "Calvin Klein"}, "geometry": {"type": "Point", "coordinates": [-2.34799, 53.46594]}},
{"type": "Feature", "id": "E6WFoAJ57rptpOE1qKBlTRlNrgM=", "properties": {"ref": "CKGB0020", "@spider": "calvin_klein", "addr:full": "Victoria Square Shopping Centre, Unit 19, 1 Victoria Square", "addr:city": "Belfast", "addr:state": "Europe", "addr:postcode": "BT1 4QG", "addr:country": "GB", "name": "Calvin Klein", "brand": "Calvin Klein"}, "geometry": {"type": "Point", "coordinates": [-5.92415, 54.59854]}},
{"type": "Feature", "id": "EIUJhpQgXEe2iQ1nP6aS9Xrxbg4=", "properties": {"ref": "CKGB0033", "@spider": "calvin_klein", "addr:full": "Westfield Stratford City, Unit SU1072A, Leyton Road", "addr:city": "London", "addr:state": "Europe", "addr:postcode": "E20 1EP", "addr:country": "GB", "name": "Calvin Klein", "brand": "Calvin Klein"}, "geometry": {"type": "Point", "coordinates": [-0.00226, 51.54795]}},
{"type": "Feature", "id": "gNwQw4o01CZkUN0ljwAVzJQQus0=", "properties": {"ref": "CKGB0039", "@spider": "calvin_klein", "addr:full": "Gloucester Quays Designer Outlet, Unit 38, 69 St Ann Way", "addr:city": "Gloucester", "addr:state": "Europe", "addr:postcode": "GL1 5SH", "addr:country": "GB", "name": "Calvin Klein", "brand": "Calvin Klein"}, "geometry": {"type": "Point", "coordinates": [-2.25257, 51.85988]}},
{"type": "Feature", "id": "wCnqsVjGk7reKhIWnfctMJ0--7g=", "properties": {"ref": "CKGB0040", "@spider": "calvin_klein", "addr:full": "McArthurGlen Designer Outlet, Unit 5 & 6, Mansfield Road", "addr:city": "Alfrenton, Derbyshire", "addr:state": "Europe", "addr:postcode": "DE55 2JW", "addr:country": "GB", "name": "Calvin Klein", "brand": "Calvin Klein"}, "geometry": {"type": "Point", "coordinates": [-1.31113, 53.10713]}},
{"type": "Feature", "id": "ki4LVJBGgW0po-WwACN09ngZWfI=", "properties": {"ref": "CKGB0041", "@spider": "calvin_klein", "addr:full": "Designer Outlet Bridgend, Unit 34-35, The Derwen", "addr:city": "Bridgend", "addr:state": "Europe", "addr:postcode": "CF31 9SU", "addr:country": "GB", "name": "Calvin Klein", "brand": "Calvin Klein"}, "geometry": {"type": "Point", "coordinates": [-3.57392, 51.53191]}},
{"type": "Feature", "id": "ry3YgJmavHhC7QEwmFnWcTkmpmk=", "properties": {"ref": "CKGB0042", "@spider": "calvin_klein", "addr:full": "McArthurGlen Designer Outlet Centre, Unit 25, St. Nicholas Avenue", "addr:city": "York", "addr:state": "Europe", "addr:postcode": "YO19 4TA", "addr:country": "GB", "name": "Calvin Klein", "brand": "Calvin Klein"}, "geometry": {"type": "Point", "coordinates": [-1.07024, 53.92387]}},
{"type": "Feature", "id": "D57fHiun_EXD_UEko0N9e6GojYg=", "properties": {"ref": "CKGB0043", "@spider": "calvin_klein", "addr:full": "McArthurGlen Designer Outlet, Unit 19-20, Kimberley Way", "addr:city": "Ashford", "addr:state": "Europe", "addr:postcode": "TN24 0SD", "addr:country": "GB", "name": "Calvin Klein", "brand": "Calvin Klein"}, "geometry": {"type": "Point", "coordinates": [0.87766, 51.13583]}},
{"type": "Feature", "id": "GKjEgMF_0_h5dDcKSdYvyQU6u1M=", "properties": {"ref": "CKGB0044", "@spider": "calvin_klein", "addr:full": "McArtherglen Designer Outlet, Unit 19 Kemble Drive", "addr:city": "Swindon", "addr:state": "Europe", "addr:postcode": "SN2 2DY", "addr:country": "GB", "name": "Calvin Klein", "brand": "Calvin Klein"}, "geometry": {"type": "Point", "coordinates": [-1.79826, 51.5634]}},
{"type": "Feature", "id": "vICaknO1qzKAR-S2nN_y2qYHzms=", "properties": {"ref": "CKGB0045", "@spider": "calvin_klein", "addr:full": "Unit 40A, Wharfside Street", "addr:city": "Birmingham", "addr:state": "Europe", "addr:postcode": "B1 1RE", "addr:country": "GB", "name": "Calvin Klein", "brand": "Calvin Klein"}, "geometry": {"type": "Point", "coordinates": [-1.90366, 52.47682]}},
{"type": "Feature", "id": "4wtUavgtCxNDkq-BPr_ikzUlE1Q=", "properties": {"ref": "CKGB0046", "@spider": "calvin_klein", "addr:full": "Victoria Gate Mall, Unit S29, 28 Harewood St", "addr:city": "Leeds", "addr:state": "Europe", "addr:postcode": "LS1 7AD", "addr:country": "GB", "name": "Calvin Klein", "brand": "Calvin Klein"}, "geometry": {"type": "Point", "coordinates": [-1.53909, 53.79822]}},
{"type": "Feature", "id": "jSW6Mu5JEkL0scCRVyOHqvxM870=", "properties": {"ref": "CKGB0047", "@spider": "calvin_klein", "addr:full": "Unit 7 Cabot Square", "addr:city": "London", "addr:state": "Europe", "addr:postcode": "E14 4QT", "addr:country": "GB", "name": "Calvin Klein", "brand": "Calvin Klein"}, "geometry": {"type": "Point", "coordinates": [-0.02227, 51.50524]}},
{"type": "Feature", "id": "H0Z_ikY2IGxeUs2jBXnaczzDoCU=", "properties": {"ref": "CKGB0048", "@spider": "calvin_klein", "addr:full": "Westgate Shopping Centre, Albion House, Littlegate Street, L15", "addr:city": "Oxford", "addr:state": "Europe", "addr:postcode": "OX1 1AN", "addr:country": "GB", "name": "Calvin Klein", "brand": "Calvin Klein"}, "geometry": {"type": "Point", "coordinates": [-1.26205, 51.74938]}},
{"type": "Feature", "id": "1_Jf_1R_GdQHFcq7bgLDsm-DwMM=", "properties": {"ref": "CKGB0052", "@spider": "calvin_klein", "addr:full": "St Pancras station, Unit 12, Kings Cross", "addr:city": "London", "addr:state": "Europe", "addr:postcode": "N1C 4QP", "addr:country": "GB", "name": "Calvin Klein", "brand": "Calvin Klein"}, "geometry": {"type": "Point", "coordinates": [-0.12578, 51.53087]}},
{"type": "Feature", "id": "ebWxAoaziybPf9bMV3IG1K8m-pU=", "properties": {"ref": "CKGB0053", "@spider": "calvin_klein", "addr:full": "Unit 223, Lakeside Retail Park,", "addr:city": "Grays", "addr:state": "Europe", "addr:postcode": "RM20 2ZR", "addr:country": "GB", "name": "Calvin Klein", "brand": "Calvin Klein"}, "geometry": {"type": "Point", "coordinates": [0.27686, 51.4864]}},
{"type": "Feature", "id": "CaMvBIaV_1r3CqM_y1AH7J3EIL8=", "properties": {"ref": "CKGB0054", "@spider": "calvin_klein", "addr:full": "Bluewater Shopping Center, Unit U036", "addr:city": "Greenhithe", "addr:state": "Europe", "addr:postcode": "DA9 9ST", "addr:country": "GB", "name": "Calvin Klein", "brand": "Calvin Klein"}, "geometry": {"type": "Point", "coordinates": [0.271, 51.43873]}},
{"type": "Feature", "id": "NXzjH_RbL4n4LHE1qDiBKrfNRh0=", "properties": {"ref": "CKGB0059", "@spider": "calvin_klein", "addr:full": "Grand Arcade Mall, Unit SU6, St Andrew's St", "addr:city": "Cambridge", "addr:state": "Europe", "addr:postcode": "CB2 3BJ", "addr:country": "GB", "name": "Calvin Klein", "brand": "Calvin Klein"}, "geometry": {"type": "Point", "coordinates": [0.12161, 52.2034]}},
{"type": "Feature", "id": "qD1RRPEkL1T7Ck0hecp28uOlHvA=", "properties": {"ref": "CKGB0060", "@spider": "calvin_klein", "addr:full": "London O2 Arena, Peninsula Square", "addr:city": "London", "addr:state": "Europe", "addr:postcode": "SE10 0DX", "addr:country": "GB", "name": "Calvin Klein", "brand": "Calvin Klein"}, "geometry": {"type": "Point", "coordinates": [0.00315, 51.50303]}},
{"type": "Feature", "id": "uJF-sdsbrceayBcRsFflFu8K5iU=", "properties": {"ref": "CKGB0061", "@spider": "calvin_klein", "addr:full": "Livingston Designer Outlet, Almondvale Avenue", "addr:city": "Livingston", "addr:state": "Europe", "addr:postcode": "EH54 6QX", "addr:country": "GB", "name": "Calvin Klein", "brand": "Calvin Klein"}, "geometry": {"type": "Point", "coordinates": [-3.52041, 55.88301]}},
{"type": "Feature", "id": "11F-ixjs03-Fp4ydFBDZSTnGoXU=", "properties": {"ref": "CKGB0062", "@spider": "calvin_klein", "addr:full": "Bicester Village, 50 Pingle Drive", "addr:city": "Bicester", "addr:state": "Europe", "addr:postcode": "OX26 6WD", "addr:country": "GB", "name": "Calvin Klein", "brand": "Calvin Klein"}, "geometry": {"type": "Point", "coordinates": [-1.15428, 51.89143]}},
{"type": "Feature", "id": "CTh2xOPB5byA_Yf9tAwMgT8tm2E=", "properties": {"ref": "CKGB0063", "@spider": "calvin_klein", "addr:full": "Bullring Shopping Centre SU514, B54BE, Birmingham, GB", "addr:city": "Birmingham", "addr:state": "Europe", "addr:postcode": "B54BE", "addr:country": "GB", "name": "Calvin Klein", "brand": "Calvin Klein"}, "geometry": {"type": "Point", "coordinates": [-1.89435, 52.47762]}},
{"type": "Feature", "id": "GAIDQNIxfNml23TaxV1yLbJLZXM=", "properties": {"ref": "CKGB0064", "@spider": "calvin_klein", "addr:full": "83-84 Kinsey Road,  Cheshire Oaks, GB", "addr:city": "Ellesmere Port", "addr:state": "Europe", "addr:postcode": "CH659JJ", "addr:country": "GB", "name": "Calvin Klein", "brand": "Calvin Klein"}, "geometry": {"type": "Point", "coordinates": [-2.88096, 53.26221]}},
{"type": "Feature", "id": "BgniX2ms9dp0HL1vZhp32vDEZkY=", "properties": {"ref": "CKGB0066", "@spider": "calvin_klein", "addr:full": "Gunwharf Quays 30, PO13TZ, Portsmouth, UK", "addr:city": "Portsmouth", "addr:state": "Europe", "addr:postcode": "PO13TZ", "addr:country": "GB", "name": "Calvin Klein", "brand": "Calvin Klein"}, "geometry": {"type": "Point", "coordinates": [-1.10394, 50.79494]}},
{"type": "Feature", "id": "fNR8ayJAJvd27CppfnLclbygkkM=", "properties": {"ref": "CKGB0071", "@spider": "calvin_klein", "addr:full": "Cannock Outlet Village 1, WS11 7JU, Cannock, GB", "addr:city": "Cannock", "addr:state": "Europe", "addr:postcode": "WS11 7JU", "addr:country": "GB", "name": "Calvin Klein", "brand": "Calvin Klein"}, "geometry": {"type": "Point", "coordinates": [-2.01437, 52.68862]}},
{"type": "Feature", "id": "JV_mhCtgas_qHD1wTSdzZ0pF4ww=", "properties": {"ref": "CKGB0072", "@spider": "calvin_klein", "addr:full": "1 Leith Street, Unit SU3 18, EH1 3SS, Edinburgh, UK", "addr:city": "Edinburgh", "addr:state": "Europe", "addr:postcode": "EH1 3SS", "addr:country": "GB", "name": "Calvin Klein", "brand": "Calvin Klein"}, "geometry": {"type": "Point", "coordinates": [-3.18848, 55.95521]}},
{"type": "Feature", "id": "BHn1H_TQQAFr5wxn2OTZOkh6vfQ=", "properties": {"ref": "CKGB0073", "@spider": "calvin_klein", "addr:full": "Chapel Hill Unit D9,CM77 8YH,Braintree, UK", "addr:city": "Braintree", "addr:state": "Europe", "addr:postcode": "CM77 8YH", "addr:country": "GB", "name": "Calvin Klein", "brand": "Calvin Klein"}, "geometry": {"type": "Point", "coordinates": [0.56723, 51.87613]}},
{"type": "Feature", "id": "-sV7VU8FwToTEdsZovTADglYrOU=", "properties": {"ref": "CKGB0074", "@spider": "calvin_klein", "addr:full": "Farm Road 26, BA16 0BB, Street, UK", "addr:city": "Street", "addr:state": "Europe", "addr:postcode": "BA16 0BB", "addr:country": "GB", "name": "Calvin Klein", "brand": "Calvin Klein"}, "geometry": {"type": "Point", "coordinates": [-2.74164, 51.1279]}},
{"type": "Feature", "id": "aI-3OZbzdyFGiheosbzHtjh2sZQ=", "properties": {"ref": "CKGB0075", "@spider": "calvin_klein", "addr:full": "Wembley Park Boulevard  77, HA9 0FD, London, UK", "addr:city": "London", "addr:state": "Europe", "addr:postcode": "HA9 0FD", "addr:country": "GB", "name": "Calvin Klein", "brand": "Calvin Klein"}, "geometry": {"type": "Point", "coordinates": [-0.28293, 51.55664]}},
{"type": "Feature", "id": "G2kr2fykz3A8OVN_rL8RagGWEtk=", "properties": {"ref": "CKZA0002", "@spider": "calvin_klein", "addr:full": "Sandton City, 163 5th Street", "addr:city": "Sandton", "addr:state": "MEA+", "addr:postcode": "2031", "addr:country": "ZA", "name": "Calvin Klein", "brand": "Calvin Klein"}, "geometry": {"type": "Point", "coordinates": [28.05313, -26.10825]}},
{"type": "Feature", "id": "ikbteBOz2MVShyGvB1jw5JyQpUU=", "properties": {"ref": "CKEG0001", "@spider": "calvin_klein", "addr:full": "CityStars, Phase 2, Nasr City", "addr:city": "Cairo", "addr:state": "MEA+", "addr:postcode": "11771", "addr:country": "EG", "name": "Calvin Klein", "brand": "Calvin Klein"}, "geometry": {"type": "Point", "coordinates": [31.34602, 30.07307]}},
{"type": "Feature", "id": "QI9S5fSSR56B2lTUxWVGeDjAQQM=", "properties": {"ref": "CKEG0002", "@spider": "calvin_klein", "addr:full": "90 Fifth Settlement Road, New Cairo", "addr:city": "Cairo", "addr:state": "MEA+", "addr:postcode": "11835", "addr:country": "EG", "name": "Calvin Klein", "brand": "Calvin Klein"}, "geometry": {"type": "Point", "coordinates": [31.40863, 30.02949]}},
{"type": "Feature", "id": "knDuPVFhGW1pFA8zpHTqzSclyFE=", "properties": {"ref": "CKEG0003", "@spider": "calvin_klein", "addr:full": "Muharran Bek, Suez Canal Street, Next to Police Hospital", "addr:city": "Alexandria", "addr:state": "MEA+", "addr:country": "EG", "name": "Calvin Klein", "brand": "Calvin Klein"}, "geometry": {"type": "Point", "coordinates": [29.93049, 31.17315]}},
{"type": "Feature", "id": "-UuOqN17XnCpcmLkUeko36MPNCk=", "properties": {"ref": "CKIL0001", "@spider": "calvin_klein", "addr:full": "Hahashmonaim st. 96, Tel Aviv", "addr:city": "Tel Aviv", "addr:state": "MEA+", "addr:country": "IL", "name": "Calvin Klein", "brand": "Calvin Klein"}, "geometry": {"type": "Point", "coordinates": [34.78594, 32.06934]}},
{"type": "Feature", "id": "NyxJ7-kbjlcA9cSkjtfsQPSsQeQ=", "properties": {"ref": "CKIL0002", "@spider": "calvin_klein", "addr:full": "Einshtein st. 40, Tel Aviv", "addr:city": "Tel Aviv", "addr:state": "MEA+", "addr:postcode": "69101", "addr:country": "IL", "name": "Calvin Klein", "brand": "Calvin Klein"}, "geometry": {"type": "Point", "coordinates": [34.79591, 32.11225]}},
{"type": "Feature", "id": "45QQbnp8O3qEW3-czrWT4jrOFag=", "properties": {"ref": "CKJO0001", "@spider": "calvin_klein", "addr:full": "Taj Mall, Prince Hashim Bin Al Hussein 693", "addr:city": "Amman", "addr:state": "MEA+", "addr:postcode": "11183", "addr:country": "JO", "name": "Calvin Klein", "brand": "Calvin Klein"}, "geometry": {"type": "Point", "coordinates": [35.88823, 31.94182]}},
{"type": "Feature", "id": "Y9EpIK7g94y5dA46FnIRXcZPDOo=", "properties": {"ref": "CKJO0002", "@spider": "calvin_klein", "addr:full": "Nile Projects & Commercial Centers, Amman City Mall Shopping Center, Kind Abdulla II Street", "addr:city": "Amman", "addr:state": "MEA+", "addr:country": "JO", "name": "Calvin Klein", "brand": "Calvin Klein"}, "geometry": {"type": "Point", "coordinates": [35.83675, 31.98001]}},
{"type": "Feature", "id": "h85-nj-F15CFvt6-g2dTOJvkfpY=", "properties": {"ref": "CKRU0001", "@spider": "calvin_klein", "addr:full": "Okhotny Ryad Shopping Mall, Manezhnaya square 1-2", "addr:city": "Moscow", "addr:state": "Europe", "addr:postcode": "109012", "addr:country": "RU", "name": "Calvin Klein", "brand": "Calvin Klein"}, "geometry": {"type": "Point", "coordinates": [37.61493, 55.75591]}},
{"type": "Feature", "id": "SM2X4rCxpli3kl57jyvzyM3Idbo=", "properties": {"ref": "CKRU0003", "@spider": "calvin_klein", "addr:full": "Gum Shopping Mall, Red Square 3", "addr:city": "Moscow", "addr:state": "Europe", "addr:postcode": "101000", "addr:country": "RU", "name": "Calvin Klein", "brand": "Calvin Klein"}, "geometry": {"type": "Point", "coordinates": [37.62152, 55.75469]}},
{"type": "Feature", "id": "yzinAuC2jjuipCarMKREUAMZXNA=", "properties": {"ref": "CKRU0005", "@spider": "calvin_klein", "addr:full": "Mega Khimki Mall, 8th Mikrorayon, 1", "addr:city": "Khimki", "addr:state": "Europe", "addr:postcode": "125080", "addr:country": "RU", "name": "Calvin Klein", "brand": "Calvin Klein"}, "geometry": {"type": "Point", "coordinates": [37.39881, 55.91038]}},
{"type": "Feature", "id": "Bs1WINy1BZ_e2wWxqWXlwEgAtzE=", "properties": {"ref": "CKRU0008", "@spider": "calvin_klein", "addr:full": "IKEA Mikrorayon, 2, Khimki", "addr:city": "Moscow", "addr:state": "Europe", "addr:postcode": "141407", "addr:country": "RU", "name": "Calvin Klein", "brand": "Calvin Klein"}, "geometry": {"type": "Point", "coordinates": [37.39881, 55.91038]}},
{"type": "Feature", "id": "SATHdhB_DLGZUGISVBTM2whfQiI=", "properties": {"ref": "CKRU0011", "@spider": "calvin_klein", "addr:full": "Mega Kalningrad Shopping Centre, Uralskaya street 18", "addr:city": "Kaliningrad", "addr:state": "Europe", "addr:postcode": "236022", "addr:country": "RU", "name": "Calvin Klein", "brand": "Calvin Klein"}, "geometry": {"type": "Point", "coordinates": [20.5014, 54.7259]}},
{"type": "Feature", "id": "0nywSlRFQ4-bF3AnaopjJKdiyso=", "properties": {"ref": "CKRU0015", "@spider": "calvin_klein", "addr:full": "Horizont Mall, Mikhaila Nagibina street 32-2", "addr:city": "Rostov-on-Don", "addr:state": "Europe", "addr:postcode": "344068", "addr:country": "RU", "name": "Calvin Klein", "brand": "Calvin Klein"}, "geometry": {"type": "Point", "coordinates": [39.71997, 47.25983]}},
{"type": "Feature", "id": "2ZOv2QTjmkvKgBlIcIMECXrt8yA=", "properties": {"ref": "CKRU0016", "@spider": "calvin_klein", "addr:full": "Evropeisky Mall", "addr:city": "Moscow", "addr:state": "Europe", "addr:postcode": "121059", "addr:country": "RU", "name": "Calvin Klein", "brand": "Calvin Klein"}, "geometry": {"type": "Point", "coordinates": [37.56579, 55.74433]}},
{"type": "Feature", "id": "1whp5cClb-Lxek6yTT_D3nIMeuQ=", "properties": {"ref": "CKRU0017", "@spider": "calvin_klein", "addr:full": "Mega Dybenko Mall, Murmanskoye Shosse, 12 km", "addr:city": "Saint Petersburg", "addr:state": "Europe", "addr:postcode": "193315", "addr:country": "RU", "name": "Calvin Klein", "brand": "Calvin Klein"}, "geometry": {"type": "Point", "coordinates": [30.51464, 59.89377]}},
{"type": "Feature", "id": "lXi2e-bhqSLTsEttXNCN6Ri04cY=", "properties": {"ref": "CKRU0021", "@spider": "calvin_klein", "addr:full": "Mega Parnas Mall, Kad 117 Kilometr Vneshn", "addr:city": "Saint Petersburg", "addr:state": "Europe", "addr:postcode": "188660", "addr:country": "RU", "name": "Calvin Klein", "brand": "Calvin Klein"}, "geometry": {"type": "Point", "coordinates": [30.3806, 60.0915]}},
{"type": "Feature", "id": "x3sbQswjQeyfrvJkmvnJZxFg-AY=", "properties": {"ref": "CKRU0022", "@spider": "calvin_klein", "addr:full": "Mega Belaya Dacha Mall, Kotelniki (City) 1. Pokrovsky proezd 5", "addr:city": "Moscow", "addr:state": "Europe", "addr:postcode": "140055", "addr:country": "RU", "name": "Calvin Klein", "brand": "Calvin Klein"}, "geometry": {"type": "Point", "coordinates": [37.84509, 55.65844]}},
{"type": "Feature", "id": "TyKeeI-rrOMEwo0HDpNeOTof2is=", "properties": {"ref": "CKRU0023", "@spider": "calvin_klein", "addr:full": "Krasnoarmeyskiy prospekt 47a", "addr:city": "Barnaul", "addr:state": "Europe", "addr:postcode": "656907", "addr:country": "RU", "name": "Calvin Klein", "brand": "Calvin Klein"}, "geometry": {"type": "Point", "coordinates": [83.77696, 53.33474]}},
{"type": "Feature", "id": "UtupbAaXShuOnBoi1zD6coD6p9k=", "properties": {"ref": "CKRU0024", "@spider": "calvin_klein", "addr:full": "Kapitoly Mall, Vernadskogo prospect 6", "addr:city": "Moscow", "addr:state": "Europe", "addr:postcode": "119334", "addr:country": "RU", "name": "Calvin Klein", "brand": "Calvin Klein"}, "geometry": {"type": "Point", "coordinates": [37.5281, 55.69196]}},
{"type": "Feature", "id": "4DiFKw0v8UJ03bwIhphdl-11G04=", "properties": {"ref": "CKRU0029", "@spider": "calvin_klein", "addr:full": "Cosmoport Mall, Dybenko 30", "addr:city": "Samara", "addr:state": "Europe", "addr:postcode": "445240", "addr:country": "RU", "name": "Calvin Klein", "brand": "Calvin Klein"}, "geometry": {"type": "Point", "coordinates": [50.19798, 53.20747]}},
{"type": "Feature", "id": "U0IDVc-fO3bHa0xcndCnqKeMsOU=", "properties": {"ref": "CKRU0030", "@spider": "calvin_klein", "addr:full": "Metropolis Shopping Mall, Leningradskoye shosse 16 A", "addr:city": "Moscow", "addr:state": "Europe", "addr:postcode": "125171", "addr:country": "RU", "name": "Calvin Klein", "brand": "Calvin Klein"}, "geometry": {"type": "Point", "coordinates": [37.49715, 55.82338]}},
{"type": "Feature", "id": "95dDYh-wxZ4XH0JYkl2_WA_qQkE=", "properties": {"ref": "CKRU0032", "@spider": "calvin_klein", "addr:full": "Semya Mall, Revolutsii street 13", "addr:city": "Perm", "addr:state": "Europe", "addr:postcode": "614990", "addr:country": "RU", "name": "Calvin Klein", "brand": "Calvin Klein"}, "geometry": {"type": "Point", "coordinates": [56.26187, 58.00747]}},
{"type": "Feature", "id": "8aIc37220P0IpvwhleMsBENKGVs=", "properties": {"ref": "CKRU0033", "@spider": "calvin_klein", "addr:full": "Krasnaya Ploshad Mall, Ulitsa Dzerzhinskogo, 100", "addr:city": "Krasnodar", "addr:state": "Europe", "addr:postcode": "3500019", "addr:country": "RU", "name": "Calvin Klein", "brand": "Calvin Klein"}, "geometry": {"type": "Point", "coordinates": [38.98377, 45.10192]}},
{"type": "Feature", "id": "vcvs3j9ssuhiuqqJvaWLHvli-_E=", "properties": {"ref": "CKRU0034", "@spider": "calvin_klein", "addr:full": "Planeta Mall, 9 Maya street 77", "addr:city": "Krasnoyarsk", "addr:state": "Europe", "addr:postcode": "660125", "addr:country": "RU", "name": "Calvin Klein", "brand": "Calvin Klein"}, "geometry": {"type": "Point", "coordinates": [92.90335, 56.05048]}},
{"type": "Feature", "id": "gRK2UQH6RnwqUtXl1N1OrP6SloQ=", "properties": {"ref": "CKRU0035", "@spider": "calvin_klein", "addr:full": "Kolizey Atrium Mall, Ulitsa Lenina, 60,", "addr:city": "Perm", "addr:state": "Europe", "addr:postcode": "614000", "addr:country": "RU", "name": "Calvin Klein", "brand": "Calvin Klein"}, "geometry": {"type": "Point", "coordinates": [56.23376, 58.00935]}},
{"type": "Feature", "id": "CdeVV-sKA2TKrZx5Ch6bnxNZybs=", "properties": {"ref": "CKRU0037", "@spider": "calvin_klein", "addr:full": "Fantastika Mall, Rodionova street 187", "addr:city": "Nizhny Novgorod", "addr:state": "Europe", "addr:postcode": "603005", "addr:country": "RU", "name": "Calvin Klein", "brand": "Calvin Klein"}, "geometry": {"type": "Point", "coordinates": [44.0751, 56.30704]}},
{"type": "Feature", "id": "h76ej8-l5Asd-eyNFI0gOYiBVM8=", "properties": {"ref": "CKRU0041", "@spider": "calvin_klein", "addr:full": "Vegas Kashirskoye Mall, Mkad 24 Kilometr (Vneshn.), 24", "addr:city": "Moscow", "addr:state": "Europe", "addr:postcode": "115582", "addr:country": "RU", "name": "Calvin Klein", "brand": "Calvin Klein"}, "geometry": {"type": "Point", "coordinates": [37.72503, 55.58569]}},
{"type": "Feature", "id": "e5vOro8Ocdj03xaczL3KguOUr8w=", "properties": {"ref": "CKRU0042", "@spider": "calvin_klein", "addr:full": "Galeria Mall, Ligovsky prospekt 30A", "addr:city": "Saint Petersburg", "addr:state": "Europe", "addr:postcode": "191040", "addr:country": "RU", "name": "Calvin Klein", "brand": "Calvin Klein"}, "geometry": {"type": "Point", "coordinates": [30.36057, 59.92718]}},
{"type": "Feature", "id": "7S5Gjfk4AmbLzVO2-W4lY4JdtQ8=", "properties": {"ref": "CKRU0043", "@spider": "calvin_klein", "addr:full": "Grad City Mall, Parkovaya Street 3", "addr:city": "Voronezh", "addr:state": "Europe", "addr:postcode": "396005", "addr:country": "RU", "name": "Calvin Klein", "brand": "Calvin Klein"}, "geometry": {"type": "Point", "coordinates": [39.20564, 51.7891]}},
{"type": "Feature", "id": "6eQzG2wgN9g0YM9Dm2jfOydFzj8=", "properties": {"ref": "CKRU0045", "@spider": "calvin_klein", "addr:full": "Gorki Mall, Ulitsa Artilleriyskaya, 136", "addr:city": "Chelyabinsk", "addr:state": "Europe", "addr:postcode": "454007", "addr:country": "RU", "name": "Calvin Klein", "brand": "Calvin Klein"}, "geometry": {"type": "Point", "coordinates": [61.43098, 55.16442]}},
{"type": "Feature", "id": "PhqC4jwb-elvdRuQ_VbV1N6Nnq8=", "properties": {"ref": "CKRU0046", "@spider": "calvin_klein", "addr:full": "Krasnaya Ploshad Mall, Astrakhanskaya street 99", "addr:city": "Anapa", "addr:state": "Europe", "addr:postcode": "353440", "addr:country": "RU", "name": "Calvin Klein", "brand": "Calvin Klein"}, "geometry": {"type": "Point", "coordinates": [37.33922, 44.8801]}},
{"type": "Feature", "id": "nA_-uJhVkcYw4L8U8cY3_fLQ5-k=", "properties": {"ref": "CKRU0048", "@spider": "calvin_klein", "addr:full": "Galereya Chizhova, Koltsovskaya street 35A", "addr:city": "Voronezh", "addr:state": "Europe", "addr:postcode": "394000", "addr:country": "RU", "name": "Calvin Klein", "brand": "Calvin Klein"}, "geometry": {"type": "Point", "coordinates": [39.19196, 51.66569]}},
{"type": "Feature", "id": "SlfFnQCIF89RgM8ySj3gwi3koBo=", "properties": {"ref": "CKRU0050", "@spider": "calvin_klein", "addr:full": "Piterland Mall, Primorskiy Prospekt 72", "addr:city": "Saint Petersburg", "addr:state": "Europe", "addr:postcode": "197000", "addr:country": "RU", "name": "Calvin Klein", "brand": "Calvin Klein"}, "geometry": {"type": "Point", "coordinates": [30.21073, 59.98162]}},
{"type": "Feature", "id": "jEXzKvgfXu37MStx7jCVfYqRCd4=", "properties": {"ref": "CKRU0051", "@spider": "calvin_klein", "addr:full": "More Mall, Novaya Zarya Street 7", "addr:city": "Sochi", "addr:state": "Europe", "addr:postcode": "354068", "addr:country": "RU", "name": "Calvin Klein", "brand": "Calvin Klein"}, "geometry": {"type": "Point", "coordinates": [39.73225, 43.60606]}},
{"type": "Feature", "id": "3JyTUWXDWiO-_R_cInjUPnlEyic=", "properties": {"ref": "CKRU0052", "@spider": "calvin_klein", "addr:full": "Rodnik Mall, Ulitsa Truda, 203", "addr:city": "Chelyabinsk", "addr:state": "Europe", "addr:postcode": "454000", "addr:country": "RU", "name": "Calvin Klein", "brand": "Calvin Klein"}, "geometry": {"type": "Point", "coordinates": [61.35505, 55.1705]}},
{"type": "Feature", "id": "L0lzggHhUXlk5W0rKuJFOJWJtGY=", "properties": {"ref": "CKRU0054", "@spider": "calvin_klein", "addr:full": "Rio Leninsky Mall, Leninsky Prospekt 109A", "addr:city": "Moscow", "addr:state": "Europe", "addr:postcode": "121059", "addr:country": "RU", "name": "Calvin Klein", "brand": "Calvin Klein"}, "geometry": {"type": "Point", "coordinates": [37.51117, 55.66358]}},
{"type": "Feature", "id": "fGCX3sxnmWuLQmV1lScnRSS1eCI=", "properties": {"ref": "CKRU0055", "@spider": "calvin_klein", "addr:full": "Aura Mall, Nefteyuganskoye Shosse, 1,", "addr:city": "Surgut", "addr:state": "Europe", "addr:postcode": "628415", "addr:country": "RU", "name": "Calvin Klein", "brand": "Calvin Klein"}, "geometry": {"type": "Point", "coordinates": [73.36558, 61.27745]}},
{"type": "Feature", "id": "XqHLws-10V3CyusB4IqeWmiz0xE=", "properties": {"ref": "CKRU0056", "@spider": "calvin_klein", "addr:full": "Modnuy Kvartal Mall, Sedova Street 25", "addr:city": "Irkutsk", "addr:state": "Europe", "addr:postcode": "664003", "addr:country": "RU", "name": "Calvin Klein", "brand": "Calvin Klein"}, "geometry": {"type": "Point", "coordinates": [104.29107, 52.27306]}},
{"type": "Feature", "id": "UtWuoQj1502da4qihG2utoClRps=", "properties": {"ref": "CKRU0057", "@spider": "calvin_klein", "addr:full": "Modnuy Kvartal Mall, Sedova Street 25", "addr:city": "Irkutsk", "addr:state": "Europe", "addr:postcode": "664003", "addr:country": "RU", "name": "Calvin Klein", "brand": "Calvin Klein"}, "geometry": {"type": "Point", "coordinates": [104.29109, 52.27307]}},
{"type": "Feature", "id": "Q5tvuE7kVMCKiG7arPRPMRUlUFs=", "properties": {"ref": "CKRU0059", "@spider": "calvin_klein", "addr:full": "Planeta Mall, Entusiastov street 20", "addr:city": "Ufa", "addr:state": "Europe", "addr:postcode": "450000", "addr:country": "RU", "name": "Calvin Klein", "brand": "Calvin Klein"}, "geometry": {"type": "Point", "coordinates": [56.03576, 54.75728]}},
{"type": "Feature", "id": "UZHikhby9esjsFL5B36iQfdhUZo=", "properties": {"ref": "CKRU0061", "@spider": "calvin_klein", "addr:full": "Aura Shopping Mall, Pobedy 41,", "addr:city": "Yaroslavl", "addr:state": "Europe", "addr:postcode": "150000", "addr:country": "RU", "name": "Calvin Klein", "brand": "Calvin Klein"}, "geometry": {"type": "Point", "coordinates": [39.87148, 57.62768]}},
{"type": "Feature", "id": "2_OVQw_nFBiC169ZVAEEb0Ru3Yw=", "properties": {"ref": "CKRU0062", "@spider": "calvin_klein", "addr:full": "Parkhouse Mall, Avtozavodskoye sh. 6", "addr:city": "Tolyatti", "addr:state": "Europe", "addr:postcode": "445044", "addr:country": "RU", "name": "Calvin Klein", "brand": "Calvin Klein"}, "geometry": {"type": "Point", "coordinates": [49.39052, 53.54189]}},
{"type": "Feature", "id": "d55DWtH5g9issvrQcDQU55siUAM=", "properties": {"ref": "CKRU0064", "@spider": "calvin_klein", "addr:full": "Greenwich Mall, Ulitsa 8 Marta, 46", "addr:city": "Yekaterinburg", "addr:state": "Europe", "addr:postcode": "620014", "addr:country": "RU", "name": "Calvin Klein", "brand": "Calvin Klein"}, "geometry": {"type": "Point", "coordinates": [60.59896, 56.82908]}},
{"type": "Feature", "id": "sfN2T2Gqn6OqqTosc-eNSA8nU5I=", "properties": {"ref": "CKRU0065", "@spider": "calvin_klein", "addr:full": "Mega Teply Stan Mall, Kaluzhskoye Shosse, 21-\u0439 \u043a\u043c, \u0441\u0442\u0440. 1,", "addr:city": "Moscow", "addr:state": "Europe", "addr:postcode": "117465", "addr:country": "RU", "name": "Calvin Klein", "brand": "Calvin Klein"}, "geometry": {"type": "Point", "coordinates": [37.49181, 55.60429]}},
{"type": "Feature", "id": "cc67i375AM-qzbO1L0gODQxMQX4=", "properties": {"ref": "CKRU0066", "@spider": "calvin_klein", "addr:full": "Crocus City Mall, Moscow, 66 km of Moscow Ring Road", "addr:city": "Moscow", "addr:state": "Europe", "addr:postcode": "105082", "addr:country": "RU", "name": "Calvin Klein", "brand": "Calvin Klein"}, "geometry": {"type": "Point", "coordinates": [37.3874, 55.81941]}},
{"type": "Feature", "id": "3BOCYoowTRAmG50mm5ssRky414I=", "properties": {"ref": "CKRU0067", "@spider": "calvin_klein", "addr:full": "Lapshinka village, building 8", "addr:city": "Moscow", "addr:state": "Europe", "addr:postcode": "142782", "addr:country": "RU", "name": "Calvin Klein", "brand": "Calvin Klein"}, "geometry": {"type": "Point", "coordinates": [37.33421, 55.61021]}},
{"type": "Feature", "id": "2PerYqsd29AafuZtxHX1mrOFN6A=", "properties": {"ref": "CKRU0068", "@spider": "calvin_klein", "addr:full": "Aurora Mall, Aerodromnaya street 47a", "addr:city": "Samara", "addr:state": "Europe", "addr:postcode": "443070", "addr:country": "RU", "name": "Calvin Klein", "brand": "Calvin Klein"}, "geometry": {"type": "Point", "coordinates": [50.18892, 53.19117]}},
{"type": "Feature", "id": "1L0dLCM2pcpqsNDZCwYnH4-K3TY=", "properties": {"ref": "CKRU0069", "@spider": "calvin_klein", "addr:full": "Avia Park Mall, Khodynsky Boulevard 4", "addr:city": "Moscow", "addr:state": "Europe", "addr:postcode": "123007", "addr:country": "RU", "name": "Calvin Klein", "brand": "Calvin Klein"}, "geometry": {"type": "Point", "coordinates": [37.53088, 55.79004]}},
{"type": "Feature", "id": "z0C2DXIFRZPDUsZQ5WzO9d-GsLw=", "properties": {"ref": "CKRU0071", "@spider": "calvin_klein", "addr:full": "Moscow region, Kotelniki vilage, Novoryazanskoye highway,8, Belaya Dacha Outlet Village,", "addr:city": "Moscow", "addr:state": "Europe", "addr:postcode": "140053", "addr:country": "RU", "name": "Calvin Klein", "brand": "Calvin Klein"}, "geometry": {"type": "Point", "coordinates": [37.88019, 55.66123]}},
{"type": "Feature", "id": "csVkCqEqTEKayZX3q3wb22XIjIU=", "properties": {"ref": "CKRU0072", "@spider": "calvin_klein", "addr:full": "Kuntsevo Plaza, Yartsevskaya Street 19", "addr:city": "Moscow", "addr:state": "Europe", "addr:postcode": "121351", "addr:country": "RU", "name": "Calvin Klein", "brand": "Calvin Klein"}, "geometry": {"type": "Point", "coordinates": [37.41073, 55.73849]}},
{"type": "Feature", "id": "RhFaYGZ4Yhe0aMCnJqzVwtWQXOw=", "properties": {"ref": "CKRU0073", "@spider": "calvin_klein", "addr:full": "Pulkovskoe highway, 60 bld 1", "addr:city": "Saint Petersburg", "addr:state": "Europe", "addr:postcode": "196140", "addr:country": "RU", "name": "Calvin Klein", "brand": "Calvin Klein"}, "geometry": {"type": "Point", "coordinates": [30.33157, 59.79322]}},
{"type": "Feature", "id": "mvy_Xxr728GsgBV0Gp7rV5yuuNM=", "properties": {"ref": "CKRU0074", "@spider": "calvin_klein", "addr:full": "Chernaya Gryaz village, Leningradskoye highway, 14 km", "addr:city": "Moscow", "addr:state": "Europe", "addr:postcode": "141421", "addr:country": "RU", "name": "Calvin Klein", "brand": "Calvin Klein"}, "geometry": {"type": "Point", "coordinates": [37.30285, 55.98084]}},
{"type": "Feature", "id": "lM7XFy9-KkoBOypyTsZEd9wjbO8=", "properties": {"ref": "CKRU0076", "@spider": "calvin_klein", "addr:full": "Aura Mall, Voyennaya ul., 5", "addr:city": "Novosibirsk", "addr:state": "Europe", "addr:postcode": "630099", "addr:country": "RU", "name": "Calvin Klein", "brand": "Calvin Klein"}, "geometry": {"type": "Point", "coordinates": [82.93538, 55.03081]}},
{"type": "Feature", "id": "dbVvtXdzDFVcM-q2vS1bII0vq0Q=", "properties": {"ref": "CKRU0077", "@spider": "calvin_klein", "addr:full": "Mega Belaya Dacha Mall, Kotelniki (City) 1. Pokrovsky proezd 5", "addr:city": "Moscow", "addr:state": "Europe", "addr:postcode": "140055", "addr:country": "RU", "name": "Calvin Klein", "brand": "Calvin Klein"}, "geometry": {"type": "Point", "coordinates": [37.84509, 55.65844]}},
{"type": "Feature", "id": "x1d0yQA46fcowy06A25L_duYVe0=", "properties": {"ref": "CKRU0078", "@spider": "calvin_klein", "addr:full": "Mega Teply Stan Mall, Kaluzhskoye Shosse, 21-\u0439 \u043a\u043c, \u0441\u0442\u0440. 1,", "addr:city": "Moscow", "addr:state": "Europe", "addr:postcode": "117465", "addr:country": "RU", "name": "Calvin Klein", "brand": "Calvin Klein"}, "geometry": {"type": "Point", "coordinates": [37.49199, 55.60422]}},
{"type": "Feature", "id": "cVAja7no2iWjkyzaAxZfeuMI95o=", "properties": {"ref": "CKRU0081", "@spider": "calvin_klein", "addr:full": "Prospekt Engelsa 154", "addr:city": "Saint Petersburg", "addr:state": "Europe", "addr:postcode": "194358", "addr:country": "RU", "name": "Calvin Klein", "brand": "Calvin Klein"}, "geometry": {"type": "Point", "coordinates": [30.33438, 60.05896]}},
{"type": "Feature", "id": "p_t7PPDOhb6JPYqVdyHW6rFn1aE=", "properties": {"ref": "CKRU0082", "@spider": "calvin_klein", "addr:full": "Neskuchnaya 3, Yekaterinburg, RU", "addr:city": "Yekaterinburg", "addr:state": "Europe", "addr:postcode": "620016", "addr:country": "RU", "name": "Calvin Klein", "brand": "Calvin Klein"}, "geometry": {"type": "Point", "coordinates": [60.54479, 56.73935]}},
{"type": "Feature", "id": "2L6BJdyy1ZLenGCick73cmllggw=", "properties": {"ref": "CKRU0090", "@spider": "calvin_klein", "addr:full": "Pokrovskoe, Centralnaya st., 33", "addr:city": "Moscow", "addr:state": "Europe", "addr:postcode": "143582", "addr:country": "RU", "name": "Calvin Klein", "brand": "Calvin Klein"}, "geometry": {"type": "Point", "coordinates": [37.0222, 55.80941]}},
{"type": "Feature", "id": "0uAJrRLv4L97qJ97yeXT3XjvHj8=", "properties": {"ref": "CKRU0094", "@spider": "calvin_klein", "addr:full": "Vasi Alekseeva, 6, 198188, Saint Petersburg, Russia", "addr:city": "Saint Petersburg", "addr:state": "Europe", "addr:country": "RU", "name": "Calvin Klein", "brand": "Calvin Klein"}, "geometry": {"type": "Point", "coordinates": [30.26557, 59.87991]}},
{"type": "Feature", "id": "dWTAkhF_RPutj9hd0SPr-L9wp9I=", "properties": {"ref": "CKRU0096", "@spider": "calvin_klein", "addr:full": "Voronki village, 1, Arkhangelskoe Outlet", "addr:city": "Moscow", "addr:state": "Europe", "addr:postcode": "143082", "addr:country": "RU", "name": "Calvin Klein", "brand": "Calvin Klein"}, "geometry": {"type": "Point", "coordinates": [37.28261, 55.80173]}},
{"type": "Feature", "id": "9LnkEPhQH_4fh5sM13FsxhjNNBI=", "properties": {"ref": "CKRU0097", "@spider": "calvin_klein", "addr:full": "Krasnoselskoye Highway, 59, Novogorelovo village, 188508, Saint Petersburg, Russia", "addr:city": "Saint Petersburg", "addr:state": "Europe", "addr:postcode": "188508", "addr:country": "RU", "name": "Calvin Klein", "brand": "Calvin Klein"}, "geometry": {"type": "Point", "coordinates": [30.14438, 59.79239]}},
{"type": "Feature", "id": "ohGMLtPGGqhg_o5RQw0AcoVc-vY=", "properties": {"ref": "30", "@spider": "calvin_klein", "addr:full": "Shop DG41, Canberra Centre 148 Bunda Street", "addr:city": "Canberra", "addr:state": "ACT", "addr:postcode": "2601", "addr:country": "Australia", "name": "Calvin Klein", "phone": "(02) 8336 6301", "brand": "Calvin Klein"}, "geometry": {"type": "Point", "coordinates": [149.1328984, -35.2773679]}},
{"type": "Feature", "id": "Oh1CEELVCXMsa0VFW_msFdVZ1hI=", "properties": {"ref": "31", "@spider": "calvin_klein", "addr:full": "Shop B-016, DFO South Wharf, 20 Convention Centre Place", "addr:city": "South Wharf", "addr:state": "VIC", "addr:postcode": "3006", "addr:country": "Australia", "name": "Calvin Klein", "phone": "(03) 9977 2203", "brand": "Calvin Klein"}, "geometry": {"type": "Point", "coordinates": [144.9503296, -37.8250607]}},
{"type": "Feature", "id": "RX83qCDOe-f-dQzOiPRC6Rnhd68=", "properties": {"ref": "32", "@spider": "calvin_klein", "addr:full": "Shop G85, Chadstone Shopping Centre, 1341 Dandenong Rd", "addr:city": "Chadstone", "addr:state": "VIC", "addr:postcode": "3148", "addr:country": "Australia", "name": "Calvin Klein", "phone": "03 9977 2204", "brand": "Calvin Klein"}, "geometry": {"type": "Point", "coordinates": [145.0834315, -37.8872948]}},
{"type": "Feature", "id": "Xq0hR92Kw7r6uKp0PfRELbkSVBo=", "properties": {"ref": "33", "@spider": "calvin_klein", "addr:full": "Shop G088, DFO Essendon, 100 Bulla Rd", "addr:city": "Essendon Fields", "addr:state": "VIC", "addr:postcode": "3040", "addr:country": "Australia", "name": "Calvin Klein", "phone": "03 9977 2201", "brand": "Calvin Klein"}, "geometry": {"type": "Point", "coordinates": [144.9095574, -37.7325426]}},
{"type": "Feature", "id": "0PXamV6HoT_UzUyBmrRScpfZTNU=", "properties": {"ref": "34", "@spider": "calvin_klein", "addr:full": "Shop 045, Level 1, 295 Lonsdale Street", "addr:city": "Melbourne", "addr:state": "VIC", "addr:postcode": "3000", "addr:country": "Australia", "name": "Calvin Klein", "phone": "(03) 9977 2205", "brand": "Calvin Klein"}, "geometry": {"type": "Point", "coordinates": [144.9637881, -37.8124377]}},
{"type": "Feature", "id": "9UxUHQirUgewJ-8KxQPSCKD2YmE=", "properties": {"ref": "35", "@spider": "calvin_klein", "addr:full": "Shop GD04A, Melbourne Central, 211 Latrobe St", "addr:city": "Melbourne", "addr:state": "VIC", "addr:postcode": "3000", "addr:country": "Australia", "name": "Calvin Klein", "phone": "(03) 9977 2206", "brand": "Calvin Klein"}, "geometry": {"type": "Point", "coordinates": [144.963235, -37.8103595]}},
{"type": "Feature", "id": "u48sU2DFdGo9_iRUE-c6cIB2A5Y=", "properties": {"ref": "36", "@spider": "calvin_klein", "addr:full": "Shop G-124, DFO Moorabbin, 250 Centre Dandenong Road", "addr:city": "Moorabbin", "addr:state": "VIC", "addr:postcode": "3194", "addr:country": "Australia", "name": "Calvin Klein", "phone": "(03) 9977 2202", "brand": "Calvin Klein"}, "geometry": {"type": "Point", "coordinates": [145.0883952, -37.9709556]}},
{"type": "Feature", "id": "9Pqm-UFgUcYiU71BrUhtQkfx59o=", "properties": {"ref": "37", "@spider": "calvin_klein", "addr:full": "Shop 211, Level 2, 322 Moggill Road", "addr:city": "Indooroopilly", "addr:state": "QLD", "addr:postcode": "4068", "addr:country": "Australia", "name": "Calvin Klein", "phone": "07 3532 5003", "brand": "Calvin Klein"}, "geometry": {"type": "Point", "coordinates": [152.9726438, -27.4996106]}},
{"type": "Feature", "id": "uKr_4UlFcKs9vFw6lvSWboAARhY=", "properties": {"ref": "38", "@spider": "calvin_klein", "addr:full": "Shop C17, Harbourtown Shopping Centre, 147-189 Brisbane Rd", "addr:city": "Biggera Waters", "addr:state": "QLD", "addr:postcode": "4216", "addr:country": "Australia", "name": "Calvin Klein", "phone": "(07) 3532 5001", "brand": "Calvin Klein"}, "geometry": {"type": "Point", "coordinates": [153.3877877, -27.9314311]}},
{"type": "Feature", "id": "CRLQ5ubaq0Sb3vuop2qsJtQa8SU=", "properties": {"ref": "41", "@spider": "calvin_klein", "addr:full": "Shop T137, DFO Centre Ninth Avenue Skygate", "addr:city": "Brisbane", "addr:state": "QLD", "addr:postcode": "4007", "addr:country": "Australia", "name": "Calvin Klein", "phone": "(07) 3115 2676", "brand": "Calvin Klein"}, "geometry": {"type": "Point", "coordinates": [153.0784898, -27.4139802]}},
{"type": "Feature", "id": "9c7oXuXHYYosXafnwnx7K0FdJnM=", "properties": {"ref": "42", "@spider": "calvin_klein", "addr:full": "Shop 1560, 1561 Hooker Blvd", "addr:city": "Broadbeach", "addr:state": "QLD", "addr:postcode": "4218", "addr:country": "Australia", "name": "Calvin Klein", "phone": "(07) 3532 5005", "brand": "Calvin Klein"}, "geometry": {"type": "Point", "coordinates": [153.4276477, -28.0348224]}},
{"type": "Feature", "id": "qNh2v-C782tduV_i-uCanZ1e8wo=", "properties": {"ref": "43", "@spider": "calvin_klein", "addr:full": "Shop A50, Watertown Brand Outlet, 840 Wellington St", "addr:city": "West Perth", "addr:state": "WA", "addr:postcode": "6005", "addr:country": "Australia", "name": "Calvin Klein", "phone": "(08) 6350 7906", "brand": "Calvin Klein"}, "geometry": {"type": "Point", "coordinates": [115.8474036, -31.9468414]}},
{"type": "Feature", "id": "Z5_9OHVFDmTjDLLK6YiE1TppKjU=", "properties": {"ref": "46", "@spider": "calvin_klein", "addr:full": "Shop S234, Broadway Shopping Centre, 1 Bay Street", "addr:city": "Broadway", "addr:state": "NSW", "addr:postcode": "2007", "addr:country": "Australia", "name": "Calvin Klein", "phone": "(02) 8336 6307", "brand": "Calvin Klein"}, "geometry": {"type": "Point", "coordinates": [151.1943272, -33.883534]}},
{"type": "Feature", "id": "ftbxoEr8BjdFQaTBSt6_kgd8dlY=", "properties": {"ref": "47", "@spider": "calvin_klein", "addr:full": "Shop 1545, Westfield Warringah Mall, Condamine St & Old Pittwater Road,", "addr:city": "Brookvale", "addr:state": "NSW", "addr:postcode": "2100", "addr:country": "Australia", "name": "Calvin Klein", "phone": "(02) 8336 6315", "brand": "Calvin Klein"}, "geometry": {"type": "Point", "coordinates": [151.2660306, -33.7675875]}},
{"type": "Feature", "id": "JtBN8mgW0SyC-lyQwOcmPYPR2HA=", "properties": {"ref": "48", "@spider": "calvin_klein", "addr:full": "Shop 1-4059, Westfield Bondi Junction, 500 Oxford St", "addr:city": "Bondi Junction", "addr:state": "NSW", "addr:postcode": "2022", "addr:country": "Australia", "name": "Calvin Klein", "phone": "(02) 8336 6306", "brand": "Calvin Klein"}, "geometry": {"type": "Point", "coordinates": [151.2507563, -33.8914158]}},
{"type": "Feature", "id": "_7B0VO4YUl5vKTT3QQdiGJs4UPQ=", "properties": {"ref": "49", "@spider": "calvin_klein", "addr:full": "Shop 63, T3 Qantas Terminal, Keith Smith Ave", "addr:city": "Mascot", "addr:state": "NSW", "addr:postcode": "2020", "addr:country": "Australia", "name": "Calvin Klein", "phone": "(02) 8336 6313", "brand": "Calvin Klein"}, "geometry": {"type": "Point", "coordinates": [151.1791854, -33.9321651]}},
{"type": "Feature", "id": "Znsg1z1cFMLuBo03ICK3_43ZsGE=", "properties": {"ref": "50", "@spider": "calvin_klein", "addr:full": "Shop 421, Level 4, Westfield Chatswood, 1 Anderson St", "addr:city": "Chatswood", "addr:state": "NSW", "addr:postcode": "2067", "addr:country": "Australia", "name": "Calvin Klein", "phone": "(02) 8336 6308", "brand": "Calvin Klein"}, "geometry": {"type": "Point", "coordinates": [151.1834953, -33.7968014]}},
{"type": "Feature", "id": "gdD2i5ZzhmEK5uLwHLZa-H1iA3o=", "properties": {"ref": "51", "@spider": "calvin_klein", "addr:full": "Shop 3-015, DFO Homebush, 3-5 Underwood Rd", "addr:city": "Homebush", "addr:state": "NSW", "addr:postcode": "2140", "addr:country": "Australia", "name": "Calvin Klein", "phone": "(02) 8336 6304", "brand": "Calvin Klein"}, "geometry": {"type": "Point", "coordinates": [151.0768819, -33.8554529]}},
{"type": "Feature", "id": "PveigYwzlFI1rPPTDbZZEqOUI0o=", "properties": {"ref": "52", "@spider": "calvin_klein", "addr:full": "Shop 10.35 Upper Ground, World Square Shopping Centre, 680 George St", "addr:city": "Sydney", "addr:state": "NSW", "addr:postcode": "2000", "addr:country": "Australia", "name": "Calvin Klein", "phone": "(02) 8336 6316", "brand": "Calvin Klein"}, "geometry": {"type": "Point", "coordinates": [151.2068681, -33.8772248]}},
{"type": "Feature", "id": "fhGfRu34DisOhlEGznN46PVXV3c=", "properties": {"ref": "53", "@spider": "calvin_klein", "addr:full": "Shop 2178, Level 2, Miranda Westfield, 600 Kingsway", "addr:city": "Miranda", "addr:state": "NSW", "addr:postcode": "2228", "addr:country": "Australia", "name": "Calvin Klein", "phone": "(02) 8336 6311", "brand": "Calvin Klein"}, "geometry": {"type": "Point", "coordinates": [151.099886, -34.0347011]}},
{"type": "Feature", "id": "-JLohoZ7RVf_13lF1i2gP9iu_ic=", "properties": {"ref": "54", "@spider": "calvin_klein", "addr:full": "Shop LG2, Shop 27 455 George Street", "addr:city": "Sydney", "addr:state": "NSW", "addr:postcode": "2000", "addr:country": "Australia", "name": "Calvin Klein", "phone": "(02) 8336 6312", "brand": "Calvin Klein"}, "geometry": {"type": "Point", "coordinates": [151.2070281, -33.8745191]}},
{"type": "Feature", "id": "PJROjog7bQOuAicLtrjfMOTmptM=", "properties": {"ref": "55", "@spider": "calvin_klein", "addr:full": "Shop 16, Level 1, 19 Roseby St,", "addr:city": "Drummoyne", "addr:state": "NSW", "addr:postcode": "2047", "addr:country": "Australia", "name": "Calvin Klein", "phone": "(02) 8336 6303", "brand": "Calvin Klein"}, "geometry": {"type": "Point", "coordinates": [151.1618537, -33.8555226]}},
{"type": "Feature", "id": "fYQH6Le_KkQ8cs7BLXJPAeHZ24Y=", "properties": {"ref": "56", "@spider": "calvin_klein", "addr:full": "Shop 2235, Level 2, Cnr Waterloo and Herring Roads", "addr:city": "North Ryde", "addr:state": "NSW", "addr:postcode": "2113", "addr:country": "Australia", "name": "Calvin Klein", "phone": "(02) 8336 6310", "brand": "Calvin Klein"}, "geometry": {"type": "Point", "coordinates": [151.1144421, -33.7807357]}},
{"type": "Feature", "id": "Qj6JfFWC3q9O9koBPg3r2kLFVIM=", "properties": {"ref": "57", "@spider": "calvin_klein", "addr:full": "2042/188 Pitt St", "addr:city": "Sydney", "addr:state": "NSW", "addr:postcode": "2000", "addr:country": "Australia", "name": "Calvin Klein", "phone": "(02) 8336 6314", "brand": "Calvin Klein"}, "geometry": {"type": "Point", "coordinates": [151.207955, -33.870294]}},
{"type": "Feature", "id": "TomiSf9NwJRdyfAZ1jUeZf1rCCc=", "properties": {"ref": "58", "@spider": "calvin_klein", "addr:full": "Shop T121, Harbour Town Adelaide, 727 Tapleys Hill Rd", "addr:city": "Adelaide Airport", "addr:state": "SA", "addr:postcode": "5024", "addr:country": "Australia", "name": "Calvin Klein", "phone": "(08) 6350 7904", "brand": "Calvin Klein"}, "geometry": {"type": "Point", "coordinates": [138.5201296, -34.9460563]}},
{"type": "Feature", "id": "AcnQhjV7WeZvVlUBUy1HD_9mflo=", "properties": {"ref": "59", "@spider": "calvin_klein", "addr:full": "Shop 116, Burnside Villiage, 447 Portrush Rd", "addr:city": "Glenside", "addr:state": "SA", "addr:postcode": "5065", "addr:country": "Australia", "name": "Calvin Klein", "phone": "(08) 6350 7901", "brand": "Calvin Klein"}, "geometry": {"type": "Point", "coordinates": [138.6430059, -34.9492916]}},
{"type": "Feature", "id": "Y_JX4o-183j_agQoYap09AFf_X8=", "properties": {"ref": "61", "@spider": "calvin_klein", "addr:full": "Shop G005, Perth DFO, Dunreath Drive", "addr:city": "Perth Airport", "addr:state": "WA", "addr:postcode": "6105", "addr:country": "Australia", "name": "Calvin Klein", "phone": "(08) 6155 9205", "brand": "Calvin Klein"}, "geometry": {"type": "Point", "coordinates": [115.950378, -31.936168]}},
{"type": "Feature", "id": "U9Hfgzh2c_Zrkj1x8lKKugp5r-Q=", "properties": {"ref": "64", "@spider": "calvin_klein", "addr:full": "SHOP 64, 3-5 UNDERWOOD ROAD", "addr:city": "Homebush", "addr:state": "NSW", "addr:postcode": "2140", "addr:country": "Australia", "name": "Calvin Klein", "phone": "(02) 8336 6328", "brand": "Calvin Klein"}, "geometry": {"type": "Point", "coordinates": [151.076633, -33.855473]}},
{"type": "Feature", "id": "UVNjgGNu0DJIZJ_uSQryPwOItyc=", "properties": {"ref": "65", "@spider": "calvin_klein", "addr:full": "Shop 652/653, 154-164 Horton Parade", "addr:city": "Maroochydore", "addr:state": "QLD", "addr:postcode": "4558", "addr:country": "Australia", "name": "Calvin Klein", "phone": "07 3532 5013", "brand": "Calvin Klein"}, "geometry": {"type": "Point", "coordinates": [153.089228, -26.653609]}},
{"type": "Feature", "id": "DWvrSW9Nl2WxmLtBd01g-WLQRhw=", "properties": {"ref": "71", "@spider": "calvin_klein", "addr:full": "Shop 3A, Liverpool Fashion Spree, 5 Viscount Place", "addr:city": "Liverpool", "addr:state": "NSW", "addr:postcode": "2170", "addr:country": "Australia", "name": "Calvin Klein", "phone": "(02) 8336 6331", "brand": "Calvin Klein"}, "geometry": {"type": "Point", "coordinates": [150.921815, -33.90794]}},
{"type": "Feature", "id": "5uGIXBcRmq8de-jjlsw00Egk8Tc=", "properties": {"ref": "72", "@spider": "calvin_klein", "addr:full": "Shop 198, 337 Canberra Ave", "addr:city": "Fyshwick", "addr:state": "ACT", "addr:postcode": "2609", "addr:country": "Australia", "name": "Calvin Klein", "phone": "283366333", "brand": "Calvin Klein"}, "geometry": {"type": "Point", "coordinates": [149.178704, -35.336497]}},
{"type": "Feature", "id": "fyWOGAqbm0_jcF0XfUdGGCkTdZo=", "properties": {"ref": "78", "@spider": "calvin_klein", "addr:full": "Shop 202, Canberra Outlet Centre, Canberra Avenue", "addr:city": "Fyshwick", "addr:state": "ACT", "addr:postcode": "2609", "addr:country": "Australia", "name": "Calvin Klein", "phone": "283366334", "brand": "Calvin Klein"}, "geometry": {"type": "Point", "coordinates": [149.178704, -35.336497]}},
{"type": "Feature", "id": "SXnOAetKR31ouAvGWyqCfy9DcTc=", "properties": {"ref": "112", "@spider": "calvin_klein", "addr:full": "Shop G082, Westfield Doncaster 619 Doncaster Road", "addr:city": "Doncaster", "addr:state": "VIC", "addr:postcode": "3108", "addr:country": "Australia", "name": "Calvin Klein", "phone": "(03) 9977 2221", "brand": "Calvin Klein"}, "geometry": {"type": "Point", "coordinates": [145.1261993, -37.7851124]}},
{"type": "Feature", "id": "-FcN477leviw3CTeCGC8s-im_Aw=", "properties": {"ref": "116", "@spider": "calvin_klein", "addr:full": "Level 3, Shop 3038, Highpoint Shopping Centre, 120-200 Rosamond Road", "addr:city": "Maribyrnong", "addr:state": "VIC", "addr:postcode": "3032", "addr:country": "Australia", "name": "Calvin Klein", "phone": "(03) 9977 2222", "brand": "Calvin Klein"}, "geometry": {"type": "Point", "coordinates": [144.8893046, -37.7732279]}},
{"type": "Feature", "id": "DWTsT1uEc5fcLqpxSjJAtY5E6C8=", "properties": {"ref": "117", "@spider": "calvin_klein", "addr:full": "Shop SP1203A, Karrinyup Shopping Centre, 200 Karrinyup Road", "addr:city": "Karrinyup", "addr:state": "WA", "addr:postcode": "6018", "addr:country": "Australia", "name": "Calvin Klein", "phone": "(08) 6350 7910", "brand": "Calvin Klein"}, "geometry": {"type": "Point", "coordinates": [115.7781686, -31.8773477]}}]}