{"type":"FeatureCollection","features":[{"type": "Feature", "id": "IaHGWinindmacb0WeNu0ortJn9A=", "properties": {"ref": "77911", "@spider": "care_one", "addr:full": "101 Whippany Rd, Whippany, NJ 07981", "addr:city": "Whippany", "addr:state": "NJ", "addr:postcode": "07981", "addr:country": "US", "name": "Harmony Village at Hanover Township", "phone": "(201) 370-4592", "website": "https://www.care-one.com/locations/harmony-village-at-hanover-township/"}, "geometry": {"type": "Point", "coordinates": [-74.41963756153149, 40.81721581764347]}},
{"type": "Feature", "id": "oWZNyFXOs0faL3dqRK0w1v6PFk0=", "properties": {"ref": "20949", "@spider": "care_one", "addr:full": "664 Cranbury Road, East Brunswick, NJ 08816", "addr:city": "East Brunswick", "addr:state": "NJ", "addr:postcode": "08816", "addr:country": "US", "name": "CareOne at East Brunswick Assisted Living", "phone": "(732) 653-1178", "website": "https://www.care-one.com/locations/careone-at-east-brunswick-assisted-living/"}, "geometry": {"type": "Point", "coordinates": [-74.427935, 40.401502]}},
{"type": "Feature", "id": "-xwn8cmkbNp85iGIG7J_Xr_q1CI=", "properties": {"ref": "19561", "@spider": "care_one", "addr:full": "890 Weatherwood Lane, Greensburg, PA 15601", "addr:city": "Greensburg", "addr:state": "PA", "addr:postcode": "15601", "addr:country": "US", "name": "The Rehabilitation and Nursing Center at Greater Pittsburgh", "phone": "(724) 837-8076", "website": "https://www.care-one.com/locations/the-rehabilitation-and-nursing-center-at-greater-pittsburgh/"}, "geometry": {"type": "Point", "coordinates": [-79.535205, 40.2894529]}},
{"type": "Feature", "id": "VUuEy1Urn0irYJQWCtcA64DM5Oc=", "properties": {"ref": "19557", "@spider": "care_one", "addr:full": "162 South Britain Road, Southbury, CT 06488", "addr:city": "Southbury", "addr:state": "CT", "addr:postcode": "06488", "addr:country": "US", "name": "River Glen Health Care Center", "phone": "(203) 264-9600", "website": "https://www.care-one.com/locations/river-glen-health-care-center/"}, "geometry": {"type": "Point", "coordinates": [-73.1416, 41.2744]}},
{"type": "Feature", "id": "DR2cYFJ8m3iprnm9HOpag-SYKkk=", "properties": {"ref": "19553", "@spider": "care_one", "addr:full": "1611 Cold Spring Road, Williamstown, MA 01267", "addr:city": "Williamstown", "addr:state": "MA", "addr:postcode": "01267", "addr:country": "US", "name": "Sweetwood of Williamstown", "phone": "(413) 458-8371", "website": "https://www.care-one.com/locations/sweetwood/"}, "geometry": {"type": "Point", "coordinates": [-73.23645, 42.67616]}},
{"type": "Feature", "id": "pAhmqf0e_yuOuWqmTTQ7NTmJ5x0=", "properties": {"ref": "19551", "@spider": "care_one", "addr:full": "49 Thomas Patten Drive, Randolph, MA 02368", "addr:city": "Randolph", "addr:state": "MA", "addr:postcode": "02368", "addr:country": "US", "name": "CareOne at Randolph", "phone": "(781) 961-1160", "website": "https://www.care-one.com/locations/careone-at-randolph/"}, "geometry": {"type": "Point", "coordinates": [-71.06089359999999, 42.1595252]}},
{"type": "Feature", "id": "YkQ_b1FdIwmwVIN6yuDFRmbNYvc=", "properties": {"ref": "19548", "@spider": "care_one", "addr:full": "19301 Watkins Mill Road, Montgomery, MD 20886", "addr:city": "Montgomery", "addr:state": "MD", "addr:postcode": "20886", "addr:country": "US", "name": "Montgomery Village Health Care Center", "phone": "(301) 527-2500", "website": "https://www.care-one.com/locations/montgomery-village-health-care-center/"}, "geometry": {"type": "Point", "coordinates": [-77.20753489999998, 39.173111]}},
{"type": "Feature", "id": "7UYE-NzfZCFwu819jfaDWtK1vE4=", "properties": {"ref": "19545", "@spider": "care_one", "addr:full": "750 Woburn Street, Wilmington, MA 01887", "addr:city": "Wilmington", "addr:state": "MA", "addr:postcode": "01887", "addr:country": "US", "name": "CareOne at Wilmington", "phone": "(978) 988-0888", "website": "https://www.care-one.com/locations/careone-at-wilmington/"}, "geometry": {"type": "Point", "coordinates": [-71.14941959999999, 42.5345904]}},
{"type": "Feature", "id": "pFvh_HXW5mv2LjOyDHBFI9MsG9o=", "properties": {"ref": "19544", "@spider": "care_one", "addr:full": "64 Performance Drive, Weymouth, MA 02189", "addr:city": "Weymouth", "addr:state": "MA", "addr:postcode": "02189", "addr:country": "US", "name": "CareOne at Weymouth", "phone": "(781) 340-9800", "website": "https://www.care-one.com/locations/careone-at-weymouth/"}, "geometry": {"type": "Point", "coordinates": [-70.94232499999998, 42.1965716]}},
{"type": "Feature", "id": "vkrvqPTDLrDCWCpfIh2iIigcee4=", "properties": {"ref": "19543", "@spider": "care_one", "addr:full": "135 Benton Drive, East Longmeadow, MA 01028", "addr:city": "East Longmeadow", "addr:state": "MA", "addr:postcode": "01028", "addr:country": "US", "name": "CareOne at Redstone", "phone": "(413) 525-3336", "website": "https://www.care-one.com/locations/careone-at-redstone/"}, "geometry": {"type": "Point", "coordinates": [-72.53166499999998, 42.051581]}},
{"type": "Feature", "id": "rRtEGptQ9uRhRXctr8-52mVMzmw=", "properties": {"ref": "19542", "@spider": "care_one", "addr:full": "199 Andover Street, Peabody, MA 01960", "addr:city": "Peabody", "addr:state": "MA", "addr:postcode": "01960", "addr:country": "US", "name": "CareOne at Peabody", "phone": "(978) 531-0772", "website": "https://www.care-one.com/locations/careone-at-peabody/"}, "geometry": {"type": "Point", "coordinates": [-70.94177560000003, 42.54431839999999]}},
{"type": "Feature", "id": "RMw9UcaDtDSVNzJOOyp7-9cPz5g=", "properties": {"ref": "19541", "@spider": "care_one", "addr:full": "2101 Washington Street, Newton, MA 02462", "addr:city": "Newton", "addr:state": "MA", "addr:postcode": "02462", "addr:country": "US", "name": "CareOne at Newton", "phone": "(617) 969-4660", "website": "https://www.care-one.com/locations/careone-at-newton/"}, "geometry": {"type": "Point", "coordinates": [-71.25081620000003, 42.3290859]}},
{"type": "Feature", "id": "nvRSDngWOj1e5T2Xn20BdJBSnw8=", "properties": {"ref": "19540", "@spider": "care_one", "addr:full": "221 Fitzgerald Drive, New Bedford, MA 02745", "addr:city": "New Bedford", "addr:state": "MA", "addr:postcode": "02745", "addr:country": "US", "name": "CareOne at New Bedford", "phone": "(508) 996-4600", "website": "https://www.care-one.com/locations/careone-at-new-bedford/"}, "geometry": {"type": "Point", "coordinates": [-70.931262, 41.700453]}},
{"type": "Feature", "id": "_vnuAAraAR1xCxrzbnZ5e-9BAfk=", "properties": {"ref": "19539", "@spider": "care_one", "addr:full": "312 Millbury Avenue, Millbury, MA 01527", "addr:city": "Millbury", "addr:state": "MA", "addr:postcode": "01527", "addr:country": "US", "name": "CareOne at Millbury", "phone": "(508) 793-0088", "website": "https://www.care-one.com/locations/careone-at-millbury/"}, "geometry": {"type": "Point", "coordinates": [-71.757342, 42.22507299999999]}},
{"type": "Feature", "id": "_2cRiRpH_rjoW9sZbAvc6VUNAXc=", "properties": {"ref": "19538", "@spider": "care_one", "addr:full": "19 Varnum Street, Lowell, MA 01850", "addr:city": "Lowell", "addr:state": "MA", "addr:postcode": "01850", "addr:country": "US", "name": "CareOne at Lowell", "phone": "(978) 454-5644", "website": "https://www.care-one.com/locations/careone-at-lowell/"}, "geometry": {"type": "Point", "coordinates": [-71.2998091, 42.65222]}},
{"type": "Feature", "id": "hvAI2o_5u2pG1_6D5LgCGhJjx4g=", "properties": {"ref": "19537", "@spider": "care_one", "addr:full": "178 Lowell Street, Lexington, MA 02420", "addr:city": "Lexington", "addr:state": "MA", "addr:postcode": "02420", "addr:country": "US", "name": "CareOne at Lexington", "phone": "(781) 778-3600", "website": "https://www.care-one.com/locations/careone-at-lexington/"}, "geometry": {"type": "Point", "coordinates": [-71.19300829999997, 42.4385426]}},
{"type": "Feature", "id": "YQ-DJU613o7f86UN8Mn6h5g5zoA=", "properties": {"ref": "19536", "@spider": "care_one", "addr:full": "260 Easthampton Road, Holyoke, MA 01040", "addr:city": "Holyoke", "addr:state": "MA", "addr:postcode": "01040", "addr:country": "US", "name": "CareOne at Holyoke", "phone": "(413) 538-9733", "website": "https://www.care-one.com/locations/careone-at-holyoke/"}, "geometry": {"type": "Point", "coordinates": [-72.6467078, 42.2267444]}},
{"type": "Feature", "id": "MGiUHtujb3b_hb4ox4ygmLsAJig=", "properties": {"ref": "19535", "@spider": "care_one", "addr:full": "265 Essex Street, Beverly, MA 01915", "addr:city": "Beverly", "addr:state": "MA", "addr:postcode": "01915", "addr:country": "US", "name": "CareOne at Essex Park", "phone": "(978) 927-3260", "website": "https://www.care-one.com/locations/careone-at-essex-park/"}, "geometry": {"type": "Point", "coordinates": [-70.88242350000002, 42.5547547]}},
{"type": "Feature", "id": "VXo1qq4tw0ebAtaibyjaVc_wMGw=", "properties": {"ref": "19534", "@spider": "care_one", "addr:full": "57 Old Road to Nine Acre Corner, Concord, MA 01742", "addr:city": "Concord", "addr:state": "MA", "addr:postcode": "01742", "addr:country": "US", "name": "CareOne at Concord", "phone": "(978) 371-3400", "website": "https://www.care-one.com/locations/careone-at-concord/"}, "geometry": {"type": "Point", "coordinates": [-71.3734973, 42.1595252]}},
{"type": "Feature", "id": "oA5NOpvp0IJcmbpZJLXTt9KZtK0=", "properties": {"ref": "19533", "@spider": "care_one", "addr:full": "548 Elm Street, Northampton, MA 01060", "addr:city": "Northampton", "addr:state": "MA", "addr:postcode": "01060", "addr:country": "US", "name": "CareOne at Northampton", "phone": "(413) 586-3150", "website": "https://www.care-one.com/locations/careone-at-northampton/"}, "geometry": {"type": "Point", "coordinates": [-72.65806169999996, 42.3271768]}},
{"type": "Feature", "id": "PVmRdOWT5IOAqfJP-E40-XVtZSY=", "properties": {"ref": "19532", "@spider": "care_one", "addr:full": "99 Park Street, Brookline, MA 02446", "addr:city": "Brookline", "addr:state": "MA", "addr:postcode": "02446", "addr:country": "US", "name": "CareOne at Brookline", "phone": "(617) 731-1050", "website": "https://www.care-one.com/locations/careone-at-brookline/"}, "geometry": {"type": "Point", "coordinates": [-71.12384839999999, 42.3398127]}},
{"type": "Feature", "id": "iXJe8EGVnicTRnRXFRR93rQrEJg=", "properties": {"ref": "18709", "@spider": "care_one", "addr:full": "189 Paramus Road, Paramus, NJ 07652", "addr:city": "Paramus", "addr:state": "NJ", "addr:postcode": "07652", "addr:country": "US", "name": "Harmony Village at CareOne Paramus", "phone": "(551) 276-7200", "website": "https://www.care-one.com/locations/harmony-village-at-careone-paramus/"}, "geometry": {"type": "Point", "coordinates": [-74.092379, 40.939281]}},
{"type": "Feature", "id": "GtYWB_-Axu-0p8Cs4tX2y8ymLgw=", "properties": {"ref": "18708", "@spider": "care_one", "addr:full": "1621 Route 22 West, Bound Brook, NJ 08805", "addr:city": "Bound Brook", "addr:state": "NJ", "addr:postcode": "08805", "addr:country": "US", "name": "CareOne at Somerset Valley Assisted Living", "phone": "(732) 469-2000", "website": "https://www.care-one.com/locations/careone-at-somerset-valley-assisted-living/"}, "geometry": {"type": "Point", "coordinates": [-74.5495416, 40.57622689999999]}},
{"type": "Feature", "id": "6umKTzlCRee3fz_0NDIDFXikEfo=", "properties": {"ref": "18707", "@spider": "care_one", "addr:full": "250 Old Hook Rd, 4 Central, Westwood, NJ 07675", "addr:city": "Westwood", "addr:state": "NJ", "addr:postcode": "07675", "addr:country": "US", "name": "LTACH CareOne at Hackensack UMC, Pascack Valley", "phone": "(201) 781-1555", "website": "https://www.care-one.com/locations/ltach-careone-at-hackensack-umc-pascack-valley/"}, "geometry": {"type": "Point", "coordinates": [-74.0155388, 40.9856954]}},
{"type": "Feature", "id": "7gRcCZ5tBHbjDLV6P7sFYBznzqw=", "properties": {"ref": "18706", "@spider": "care_one", "addr:full": "100 Mazdabrook Road, Parsippany, NJ 07054", "addr:city": "Parsippany", "addr:state": "NJ", "addr:postcode": "07054", "addr:country": "US", "name": "CareOne at Parsippany", "phone": "(973) 952-5300", "website": "https://www.care-one.com/locations/careone-at-parsippany/"}, "geometry": {"type": "Point", "coordinates": [-74.40146, 40.860296]}},
{"type": "Feature", "id": "egVwaOQAvE3iap44fqHoOSwq8yU=", "properties": {"ref": "18705", "@spider": "care_one", "addr:full": "225 Williamson Street, Elizabeth, NJ 07202", "addr:city": "Elizabeth", "addr:state": "NJ", "addr:postcode": "07202", "addr:country": "US", "name": "LTACH CareOne at Trinitas Regional Medical Center", "phone": "(908) 994-5288", "website": "https://www.care-one.com/locations/ltach-careone-at-trinitas-regional-medical-center/"}, "geometry": {"type": "Point", "coordinates": [-74.214402, 40.6586186]}},
{"type": "Feature", "id": "bXflXpUNfy45vAt8JpT_rgE9R2M=", "properties": {"ref": "18704", "@spider": "care_one", "addr:full": "101 Whippany Road, Whippany, NJ 07981", "addr:city": "Whippany", "addr:state": "NJ", "addr:postcode": "07981", "addr:country": "US", "name": "CareOne at Hanover", "phone": "(973) 599-7500", "website": "https://www.care-one.com/locations/careone-at-hanover/"}, "geometry": {"type": "Point", "coordinates": [-74.41919999999999, 40.817163]}},
{"type": "Feature", "id": "ByHasR6vFKI2aeCrZD4r0d6Mu1g=", "properties": {"ref": "18703", "@spider": "care_one", "addr:full": "800 River Road, New Milford, NJ 07646", "addr:city": "New Milford", "addr:state": "NJ", "addr:postcode": "07646", "addr:country": "US", "name": "CareOne at New Milford", "phone": "(201) 967-1700", "website": "https://www.care-one.com/locations/careone-at-new-milford/"}, "geometry": {"type": "Point", "coordinates": [-74.02601349999998, 40.9290266]}},
{"type": "Feature", "id": "m04d_WXbY3_NIzkuGU9_vMtmPLA=", "properties": {"ref": "18701", "@spider": "care_one", "addr:full": "1621 Route 22 West, Bound Brook, NJ 08805", "addr:city": "Bound Brook", "addr:state": "NJ", "addr:postcode": "08805", "addr:country": "US", "name": "CareOne at Somerset Valley", "phone": "(732) 469-2000", "website": "https://www.care-one.com/locations/careone-at-somerset-valley/"}, "geometry": {"type": "Point", "coordinates": [-74.54968, 40.57656]}},
{"type": "Feature", "id": "DRaQMo4QTq561dddGM5ibkd4E9I=", "properties": {"ref": "18700", "@spider": "care_one", "addr:full": "600 Kinderkamack Road, Oradell, NJ 07649", "addr:city": "Oradell", "addr:state": "NJ", "addr:postcode": "07649", "addr:country": "US", "name": "CareOne at Oradell", "phone": "(201) 967-0002", "website": "https://www.care-one.com/locations/careone-at-oradell/"}, "geometry": {"type": "Point", "coordinates": [-74.0307722, 40.9602225]}},
{"type": "Feature", "id": "CrBjsJysMa2kYFtZDxeLagcf158=", "properties": {"ref": "18699", "@spider": "care_one", "addr:full": "301 Union St., Hackensack, NJ 07601", "addr:city": "Hackensack", "addr:state": "NJ", "addr:postcode": "07601", "addr:country": "US", "name": "CareOne at Wellington", "phone": "(201) 487-4900", "website": "https://www.care-one.com/locations/careone-at-wellington/"}, "geometry": {"type": "Point", "coordinates": [-74.04472599999997, 40.888154]}},
{"type": "Feature", "id": "SVPaEhr9yn-afh0GghsF_QV1SLU=", "properties": {"ref": "18698", "@spider": "care_one", "addr:full": "493 Black Oak Ridge Road, Wayne, NJ 07470", "addr:city": "Wayne", "addr:state": "NJ", "addr:postcode": "07470", "addr:country": "US", "name": "CareOne at Wayne", "phone": "(973) 692-9500", "website": "https://www.care-one.com/locations/careone-at-wayne/"}, "geometry": {"type": "Point", "coordinates": [-74.26826900000003, 40.960935]}},
{"type": "Feature", "id": "0rJdvl04qwhOV1QdcP-iXlnALbI=", "properties": {"ref": "18697", "@spider": "care_one", "addr:full": "2621 Highway 138, Wall, NJ 07719", "addr:city": "Wall", "addr:state": "NJ", "addr:postcode": "07719", "addr:country": "US", "name": "CareOne at Wall", "phone": "(732) 556-1060", "website": "https://www.care-one.com/locations/careone-at-wall/"}, "geometry": {"type": "Point", "coordinates": [-74.064751, 40.1703085]}},
{"type": "Feature", "id": "mhyqQrAF7kkXlhM04BAX4_TX6RY=", "properties": {"ref": "18696", "@spider": "care_one", "addr:full": "300 Old Hook Road, Westwood, NJ 07675", "addr:city": "Westwood", "addr:state": "NJ", "addr:postcode": "07675", "addr:country": "US", "name": "CareOne at Valley", "phone": "(201) 664-8888", "website": "https://www.care-one.com/locations/careone-at-valley/"}, "geometry": {"type": "Point", "coordinates": [-74.01224049999996, 40.9831642]}},
{"type": "Feature", "id": "MCnaeFRuZ5fA87PU5UfL-OHfOXs=", "properties": {"ref": "18695", "@spider": "care_one", "addr:full": "544 Teaneck Road, Teaneck, NJ 07666", "addr:city": "Teaneck", "addr:state": "NJ", "addr:postcode": "07666", "addr:country": "US", "name": "CareOne at Teaneck", "phone": "(201) 862-3300", "website": "https://www.care-one.com/locations/careone-at-teaneck/"}, "geometry": {"type": "Point", "coordinates": [-74.01131320000002, 40.8775069]}},
{"type": "Feature", "id": "RizrD38pnRNQI79HWu2nuYf7ue4=", "properties": {"ref": "18694", "@spider": "care_one", "addr:full": "254 Easton Avenue, New Brunswick, NJ 08901", "addr:city": "New Brunswick", "addr:state": "NJ", "addr:postcode": "08901", "addr:country": "US", "name": "LTACH CareOne at Saint Peter\u2019s University Hospital", "phone": "(732) 561-3800", "website": "https://www.care-one.com/locations/ltach-careone-at-saint-peters-university-hospital/"}, "geometry": {"type": "Point", "coordinates": [-74.28179190000003, 40.5190308]}},
{"type": "Feature", "id": "SYATfnNLVdZQuYG1sEkRbGxXUDg=", "properties": {"ref": "18693", "@spider": "care_one", "addr:full": "W. 90 Ridgewood Ave., Paramus, NJ 07652", "addr:city": "Paramus", "addr:state": "NJ", "addr:postcode": "07652", "addr:country": "US", "name": "CareOne at Ridgewood Avenue", "phone": "(201) 652-1950", "website": "https://www.care-one.com/locations/careone-at-ridgewood-avenue/"}, "geometry": {"type": "Point", "coordinates": [-74.0711258, 40.9664829]}},
{"type": "Feature", "id": "BpeDPDVYwsqjlNLNkfpjb5vWjW4=", "properties": {"ref": "18692", "@spider": "care_one", "addr:full": "200 Mazdabrook Road, Parsippany-Troy Hills, NJ 07054", "addr:city": "Parsippany-Troy Hills", "addr:state": "NJ", "addr:postcode": "07054", "addr:country": "US", "name": "CareOne at Parsippany Assisted Living", "phone": "(973) 739-9490", "website": "https://www.care-one.com/locations/careone-at-parsippany-assisted-living/"}, "geometry": {"type": "Point", "coordinates": [-74.402488, 40.860084]}},
{"type": "Feature", "id": "MzOW4xVHs0GhtOG2aekMczUth04=", "properties": {"ref": "18691", "@spider": "care_one", "addr:full": "895 Westfield Road, Moorestown, NJ 08057", "addr:city": "Moorestown", "addr:state": "NJ", "addr:postcode": "08057", "addr:country": "US", "name": "CareOne at Moorestown", "phone": "(856) 914-0444", "website": "https://www.care-one.com/locations/careone-at-moorestown/"}, "geometry": {"type": "Point", "coordinates": [-74.93549999999999, 39.9899]}},
{"type": "Feature", "id": "JJfTRAPlgSgcT4pAEB7MXMCK99c=", "properties": {"ref": "18690", "@spider": "care_one", "addr:full": "151 Madison Ave., Morristown, NJ 07960", "addr:city": "Morristown", "addr:state": "NJ", "addr:postcode": "07960", "addr:country": "US", "name": "CareOne at Madison Avenue", "phone": "(973) 656-2700", "website": "https://www.care-one.com/locations/careone-at-madison-avenue/"}, "geometry": {"type": "Point", "coordinates": [-74.45954990000001, 40.788222]}},
{"type": "Feature", "id": "l0p6loPy8g_slsW3JUgAH-_y5B8=", "properties": {"ref": "18689", "@spider": "care_one", "addr:full": "76 Passaic Ave., Livingston, NJ 07039", "addr:city": "Livingston", "addr:state": "NJ", "addr:postcode": "07039", "addr:country": "US", "name": "CareOne at Livingston Assisted Living", "phone": "(973) 758-4100", "website": "https://www.care-one.com/locations/careone-at-livingston-assisted-living/"}, "geometry": {"type": "Point", "coordinates": [-74.353312, 40.767197]}},
{"type": "Feature", "id": "-7uqum_63NSWXlmDQlmvx4q0ZGA=", "properties": {"ref": "18688", "@spider": "care_one", "addr:full": "68 Passaic Ave., Livingston, NJ 07039", "addr:city": "Livingston", "addr:state": "NJ", "addr:postcode": "07039", "addr:country": "US", "name": "CareOne at Livingston", "phone": "(973) 758-9000", "website": "https://www.care-one.com/locations/careone-at-livingston/"}, "geometry": {"type": "Point", "coordinates": [-74.3527876, 40.7655845]}},
{"type": "Feature", "id": "v_sLSMCbn2Xtoam0GOoAXeWu8Uw=", "properties": {"ref": "18687", "@spider": "care_one", "addr:full": "1040 Route 36, Atlantic Highlands, NJ 07716", "addr:city": "Atlantic Highlands", "addr:state": "NJ", "addr:postcode": "07716", "addr:country": "US", "name": "CareOne at King James", "phone": "(732) 291-3400", "website": "https://www.care-one.com/locations/careone-at-king-james/"}, "geometry": {"type": "Point", "coordinates": [-74.0148342, 40.4065361]}},
{"type": "Feature", "id": "pJYRtUohxKxGixOm59jL9_9rQEI=", "properties": {"ref": "18686", "@spider": "care_one", "addr:full": "11 History Lane, Jackson, NJ 08527", "addr:city": "Jackson", "addr:state": "NJ", "addr:postcode": "08527", "addr:country": "US", "name": "Harmony Village at CareOne Jackson", "phone": "(732) 367-6600", "website": "https://www.care-one.com/locations/harmonyvillage-at-jackson/"}, "geometry": {"type": "Point", "coordinates": [-74.26628, 40.126034]}},
{"type": "Feature", "id": "rzvHUyVc9MDpWzyO7Z06Psf61D4=", "properties": {"ref": "18685", "@spider": "care_one", "addr:full": "188 State Route #34, Holmdel, NJ 07733", "addr:city": "Holmdel", "addr:state": "NJ", "addr:postcode": "07733", "addr:country": "US", "name": "CareOne at Holmdel", "phone": "(732) 946-4200", "website": "https://www.care-one.com/locations/careone-at-holmdel/"}, "geometry": {"type": "Point", "coordinates": [-74.196213, 40.354195]}},
{"type": "Feature", "id": "BTXjje4f7G5FFwOHxoPBoJl4c4g=", "properties": {"ref": "18684", "@spider": "care_one", "addr:full": "1350 Inman Ave., Edison, NJ 08820", "addr:city": "Edison", "addr:state": "NJ", "addr:postcode": "08820", "addr:country": "US", "name": "CareOne at The Highlands", "phone": "(908) 754-7100", "website": "https://www.care-one.com/locations/careone-at-the-highlands/"}, "geometry": {"type": "Point", "coordinates": [-74.38677610000002, 40.5969521]}},
{"type": "Feature", "id": "5HsRoodGKgLzKSkIL6PTUxHWJaY=", "properties": {"ref": "18682", "@spider": "care_one", "addr:full": "1660 Whitehorse-Hamilton Square Road, Hamilton, NJ 08690", "addr:city": "Hamilton", "addr:state": "NJ", "addr:postcode": "08690", "addr:country": "US", "name": "CareOne at Hamilton Assisted Living", "phone": "(609) 586-4600", "website": "https://www.care-one.com/locations/careone-at-hamilton-assisted-living/"}, "geometry": {"type": "Point", "coordinates": [-74.68048049999999, 40.2128449]}},
{"type": "Feature", "id": "rCAJkC2EeLGBZyb0aVFTTiTVIkQ=", "properties": {"ref": "18680", "@spider": "care_one", "addr:full": "874 Route 70 East, Marlton, NJ 08053", "addr:city": "Marlton", "addr:state": "NJ", "addr:postcode": "08053", "addr:country": "US", "name": "CareOne at Evesham Assisted Living", "phone": "(856) 988-2400", "website": "https://www.care-one.com/locations/careone-at-evesham-assisted-living/"}, "geometry": {"type": "Point", "coordinates": [-74.9423344, 39.895759]}},
{"type": "Feature", "id": "3Eubc7qQw5mO5IfdYogA__WVebY=", "properties": {"ref": "18679", "@spider": "care_one", "addr:full": "870 Route 70 East, Marlton, NJ 08053", "addr:city": "Marlton", "addr:state": "NJ", "addr:postcode": "08053", "addr:country": "US", "name": "CareOne at Evesham", "phone": "(856) 396-0005", "website": "https://www.care-one.com/locations/careone-at-evesham/"}, "geometry": {"type": "Point", "coordinates": [-74.86829999999998, 39.8981]}},
{"type": "Feature", "id": "kvwJnfpbsVulo7jE3HgVRJFF3Mc=", "properties": {"ref": "18678", "@spider": "care_one", "addr:full": "W. 100 Ridgewood Ave., Paramus, NJ 07652", "addr:city": "Paramus", "addr:state": "NJ", "addr:postcode": "07652", "addr:country": "US", "name": "CareOne at The Cupola", "phone": "(201) 444-8200", "website": "https://www.care-one.com/locations/careone-at-the-cupola/"}, "geometry": {"type": "Point", "coordinates": [-74.07087619999999, 40.9663891]}},
{"type": "Feature", "id": "4cvcVBo7vQxcqNI3cLiLS5lwAlE=", "properties": {"ref": "18677", "@spider": "care_one", "addr:full": "599 Cranbury Road, East Brunswick, NJ 08816", "addr:city": "East Brunswick", "addr:state": "NJ", "addr:postcode": "08816", "addr:country": "US", "name": "CareOne at East Brunswick", "phone": "(732) 967-0100", "website": "https://www.care-one.com/locations/careone-at-east-brunswick/"}, "geometry": {"type": "Point", "coordinates": [-74.422309, 40.408932]}},
{"type": "Feature", "id": "Xl-xsGQuqT9W7FfUKOzBKZkgZtY=", "properties": {"ref": "18676", "@spider": "care_one", "addr:full": "221 County Road, Cresskill, NJ 07626", "addr:city": "Cresskill", "addr:state": "NJ", "addr:postcode": "07626", "addr:country": "US", "name": "CareOne at Cresskill", "phone": "(201) 567-9310", "website": "https://www.care-one.com/locations/careone-at-cresskill/"}, "geometry": {"type": "Point", "coordinates": [-73.95748800000001, 40.942103]}},
{"type": "Feature", "id": "7h9_o3enLa8gBAupd_Y69dJDzMc=", "properties": {"ref": "18524", "@spider": "care_one", "addr:full": "301 North Stanwick Road, Moorestown, NJ 08057", "addr:city": "Moorestown", "addr:state": "NJ", "addr:postcode": "08057", "addr:country": "US", "name": "Harmony Village at Stanwick Road", "phone": "(856) 638-1244", "website": "https://www.care-one.com/locations/harmony-village-at-careone-stanwick-road/"}, "geometry": {"type": "Point", "coordinates": [-74.93065, 39.9731]}}]}