{"type":"FeatureCollection","features":[{"type": "Feature", "id": "LpFbo-QT8d1s-nBSFrPiHxQPMi8=", "properties": {"ref": "a7566", "@spider": "carphonewarehouse", "addr:full": "Currys,  Unit 5 Keighley Retail Park", "addr:city": " Keighley", "addr:postcode": "BD21 3NJ", "addr:country": "United Kingdom", "name": "Keighley", "phone": "03438165266", "opening_hours": "Mo 10:00 - 20:00 ;Tu 10:00 - 20:00 ;We 10:00 - 20:00 ;Fr 10:00 - 20:00 ;Th 10:00 - 20:00 ;Sa 10:00 - 18:00 ;Su 10:30 - 16:30 ;", "brand": "Carphone Warehouse"}, "geometry": {"type": "Point", "coordinates": [-1.905495, 53.874082]}},
{"type": "Feature", "id": "ZVTp2tJG5b5XnX92Cz8J519mpEU=", "properties": {"ref": "a7425", "@spider": "carphonewarehouse", "addr:full": "Currys,  Unit 4 Darlington Retail Park,  Yarm Road", "addr:city": " Darlington", "addr:postcode": "DL 1 4PU", "addr:country": "United Kingdom", "name": "Darlington", "phone": "03438165125", "opening_hours": "Mo 10:00 - 20:00 ;Tu 10:00 - 20:00 ;We 10:00 - 20:00 ;Fr 10:00 - 20:00 ;Th 10:00 - 20:00 ;Sa 10:00 - 18:00 ;Su 10:30 - 16:30 ;", "brand": "Carphone Warehouse"}, "geometry": {"type": "Point", "coordinates": [-1.516049, 54.52234]}},
{"type": "Feature", "id": "AknFxE3BjXQbZy3DwKUcerCbhRA=", "properties": {"ref": "a7410", "@spider": "carphonewarehouse", "addr:full": "Currys,  Unit 1 Plumpton Park,  Hookstone Chase", "addr:city": " Harrogate", "addr:postcode": "HG 2 7LD", "addr:country": "United Kingdom", "name": "Harrogate", "phone": "03438165110", "opening_hours": "Mo 09:30 - 20:00 ;Tu 09:30 - 20:00 ;We 09:30 - 20:00 ;Fr 09:30 - 20:00 ;Th 09:30 - 20:00 ;Sa 09:30 - 18:00 ;Su 10:00 - 16:00 ;", "brand": "Carphone Warehouse"}, "geometry": {"type": "Point", "coordinates": [-1.497263, 53.991979]}},
{"type": "Feature", "id": "GjHLaq6LxChRdEE1WfziDiK_jjg=", "properties": {"ref": "a7546", "@spider": "carphonewarehouse", "addr:full": "Currys,  Unit 1 South Lakeland Retail Park", "addr:city": " Kendal", "addr:postcode": "LA9 6DU", "addr:country": "United Kingdom", "name": "Kendal South Lakeland", "phone": "03438165246", "opening_hours": "Mo 09:00 - 19:00 ;Tu 09:00 - 19:00 ;We 09:00 - 19:00 ;Fr 09:00 - 19:00 ;Th 09:00 - 19:00 ;Sa 09:00 - 18:00 ;Su 10:00 - 16:00 ;", "brand": "Carphone Warehouse"}, "geometry": {"type": "Point", "coordinates": [-2.733949, 54.341577]}},
{"type": "Feature", "id": "Nra440Ma6SYOw0CmgpGHEXWghwA=", "properties": {"ref": "a7317", "@spider": "carphonewarehouse", "addr:full": "Currys,  Unit 7B Westside Retail Park", "addr:city": " Guiseley", "addr:postcode": "LS20 9NE", "addr:country": "United Kingdom", "name": "Guiseley Westside", "phone": "03438165017", "opening_hours": "Mo 09:00 - 20:00 ;Tu 09:00 - 20:00 ;We 09:00 - 20:00 ;Fr 09:00 - 20:00 ;Th 09:00 - 20:00 ;Sa 09:00 - 18:00 ;Su 10:30 - 16:30 ;", "brand": "Carphone Warehouse"}, "geometry": {"type": "Point", "coordinates": [-1.702441, 53.868782]}},
{"type": "Feature", "id": "QjlmRnBhAywbkkluSrUcww4B99c=", "properties": {"ref": "a7401", "@spider": "carphonewarehouse", "addr:full": "Currys,  Unit 1 Prestige Retail Park", "addr:city": " Burnley", "addr:postcode": "BB11 1BS", "addr:country": "United Kingdom", "name": "Burnley Prestige", "phone": "03438165101", "opening_hours": "Mo 09:00 - 20:00 ;Tu 09:00 - 20:00 ;We 09:00 - 20:00 ;Fr 09:00 - 20:00 ;Th 09:00 - 20:00 ;Sa 09:00 - 18:00 ;Su 10:30 - 16:30 ;", "brand": "Carphone Warehouse"}, "geometry": {"type": "Point", "coordinates": [-2.2462248, 53.792456]}},
{"type": "Feature", "id": "v3AD5c_6tLj43mzdl7X4oV-Bgxg=", "properties": {"ref": "a7548", "@spider": "carphonewarehouse", "addr:full": "Currys,  Unit 9 Forster Square Retail Park,  Valley Road", "addr:city": " Bradford", "addr:postcode": "BD1 4RN", "addr:country": "United Kingdom", "name": "Bradford Forster Square", "phone": "03438165248", "opening_hours": "Mo 10:00 - 20:00 ;Tu 10:00 - 20:00 ;We 10:00 - 20:00 ;Fr 10:00 - 20:00 ;Th 10:00 - 20:00 ;Sa 10:00 - 18:00 ;Su 10:30 - 16:30 ;", "brand": "Carphone Warehouse"}, "geometry": {"type": "Point", "coordinates": [-1.754293, 53.799865]}},
{"type": "Feature", "id": "eCQ75OSUbvBVxVEAiumZI4UdXFU=", "properties": {"ref": "a7549", "@spider": "carphonewarehouse", "addr:full": "Currys,  Unit 1 Bulk Road Retail Park", "addr:city": " Lancaster", "addr:postcode": "LA 1 1DT", "addr:country": "United Kingdom", "name": "Lancaster", "phone": "03438165249", "opening_hours": "Mo 10:00 - 20:00 ;Tu 10:00 - 20:00 ;We 10:00 - 20:00 ;Fr 10:00 - 20:00 ;Th 10:00 - 20:00 ;Sa 10:00 - 18:00 ;Su 10:30 - 16:30 ;", "brand": "Carphone Warehouse"}, "geometry": {"type": "Point", "coordinates": [-2.796132, 54.051518]}},
{"type": "Feature", "id": "WN2s7qXBl_Thw1KjSB_ciGB_Mes=", "properties": {"ref": "a7382", "@spider": "carphonewarehouse", "addr:full": "Currys,  Unit C Charleston Retail Park", "addr:city": " Halifax", "addr:postcode": "HX 3 6AB", "addr:country": "United Kingdom", "name": "Halifax", "phone": "03438165082", "opening_hours": "Mo 10:00 - 20:00 ;Tu 10:00 - 20:00 ;We 10:00 - 20:00 ;Fr 10:00 - 20:00 ;Th 10:00 - 20:00 ;Sa 10:00 - 18:00 ;Su 10:30 - 16:30 ;", "brand": "Carphone Warehouse"}, "geometry": {"type": "Point", "coordinates": [-1.855209, 53.727002]}},
{"type": "Feature", "id": "7-nWXU51nnIx4smrsmN4qlUxNg8=", "properties": {"ref": "a7356", "@spider": "carphonewarehouse", "addr:full": "Currys,  Unit 2 Teeside Retail Park", "addr:city": " Stockton-on-Tees", "addr:postcode": "TS17 7BW", "addr:country": "United Kingdom", "name": "Teesside Park", "phone": "03438165056", "opening_hours": "Mo 09:00 - 20:00 ;Tu 09:00 - 20:00 ;We 09:00 - 20:00 ;Fr 09:00 - 20:00 ;Th 09:00 - 20:00 ;Sa 09:00 - 19:00 ;Su 10:30 - 16:30 ;", "brand": "Carphone Warehouse"}, "geometry": {"type": "Point", "coordinates": [-1.277246, 54.555926]}},
{"type": "Feature", "id": "hwhXk-Itu3z23CI8-Wgb5QTY5h8=", "properties": {"ref": "a7467", "@spider": "carphonewarehouse", "addr:full": "Currys,  cavendish house,  94 Albion Street", "addr:city": " Leeds", "addr:postcode": "LS1 6AG", "addr:country": "United Kingdom", "name": "Leeds Central", "phone": "03438165167", "opening_hours": "Mo 10:00 - 19:00 ;Tu 10:00 - 19:00 ;We 10:00 - 19:00 ;Fr 10:00 - 19:00 ;Th 10:00 - 19:00 ;Sa 10:00 - 18:00 ;Su 11:00 - 17:00 ;", "brand": "Carphone Warehouse"}, "geometry": {"type": "Point", "coordinates": [-1.544773, 53.79927]}},
{"type": "Feature", "id": "_TjGcnKibiAsAV6B5SeUQsehFVg=", "properties": {"ref": "a7560", "@spider": "carphonewarehouse", "addr:full": "Currys,  Unit 2 Hyndburn Retail Park,  Whitebirk Drive", "addr:city": " Blackburn", "addr:postcode": "BB 1 3NT", "addr:country": "United Kingdom", "name": "Blackburn Peel Centre", "phone": "03438165260", "opening_hours": "Mo 10:00 - 20:00 ;Tu 10:00 - 20:00 ;We 10:00 - 20:00 ;Fr 10:00 - 20:00 ;Th 10:00 - 20:00 ;Sa 10:00 - 18:00 ;Su 10:30 - 16:30 ;", "brand": "Carphone Warehouse"}, "geometry": {"type": "Point", "coordinates": [-2.44916, 53.75958]}},
{"type": "Feature", "id": "30yDGqWv8VRGgJIbIn1sVjDsPaY=", "properties": {"ref": "a7332", "@spider": "carphonewarehouse", "addr:full": "Currys,  Unit 7 Crown Point Shopping Park", "addr:city": " Leeds", "addr:postcode": "LS10 1ET", "addr:country": "United Kingdom", "name": "Leeds Crown Point", "phone": "03438165032", "opening_hours": "Mo 10:00 - 20:00 ;Tu 10:00 - 20:00 ;We 10:00 - 20:00 ;Fr 10:00 - 20:00 ;Th 10:00 - 20:00 ;Sa 10:00 - 18:00 ;Su 10:30 - 16:30 ;", "brand": "Carphone Warehouse"}, "geometry": {"type": "Point", "coordinates": [-1.539588, 53.78753]}},
{"type": "Feature", "id": "TL3m4sZUrp1wY5atpIKmfxc1vRU=", "properties": {"ref": "a7419", "@spider": "carphonewarehouse", "addr:full": "Currys,  Unit A-B West Yorkshire Retail Park,  Holden Ing Way", "addr:city": " Birstall", "addr:postcode": "WF17 9AE", "addr:country": "United Kingdom", "name": "Leeds Birstall", "phone": "03438165119", "opening_hours": "Mo 10:00 - 20:00 ;Tu 10:00 - 20:00 ;We 10:00 - 20:00 ;Fr 10:00 - 20:00 ;Th 10:00 - 20:00 ;Sa 10:00 - 19:00 ;Su 11:00 - 17:00 ;", "brand": "Carphone Warehouse"}, "geometry": {"type": "Point", "coordinates": [-1.645632, 53.743002]}},
{"type": "Feature", "id": "COWiaxuoQQPuhkOcSdSpyLRFzXw=", "properties": {"ref": "a7499", "@spider": "carphonewarehouse", "addr:full": "Currys,  Unit F Cleveland Retail Park", "addr:city": " Middlesbrough", "addr:postcode": "TS6 6UX", "addr:country": "United Kingdom", "name": "Middlesbrough", "phone": "03438165199", "opening_hours": "Mo 09:30 - 20:00 ;Tu 09:30 - 20:00 ;We 09:30 - 20:00 ;Fr 09:30 - 20:00 ;Th 09:30 - 20:00 ;Sa 09:30 - 18:00 ;Su 10:30 - 16:30 ;", "brand": "Carphone Warehouse"}, "geometry": {"type": "Point", "coordinates": [-1.183262, 54.570533]}},
{"type": "Feature", "id": "A8eS7p3915rS8xlVrxX0LIoGshI=", "properties": {"ref": "a7333", "@spider": "carphonewarehouse", "addr:full": "Currys,  Unit 2-3 Durham City Retail Park", "addr:city": " Durham", "addr:postcode": "DH1 2RP", "addr:country": "United Kingdom", "name": "Durham", "phone": "03438165033", "opening_hours": "Mo 10:00 - 20:00 ;Tu 10:00 - 20:00 ;We 10:00 - 20:00 ;Fr 10:00 - 20:00 ;Th 10:00 - 20:00 ;Sa 10:00 - 18:00 ;Su 10:30 - 16:30 ;", "brand": "Carphone Warehouse"}, "geometry": {"type": "Point", "coordinates": [-1.536144, 54.781219]}},
{"type": "Feature", "id": "bdHLgUX0bylEASgF1JofAAhBpfg=", "properties": {"ref": "a7429", "@spider": "carphonewarehouse", "addr:full": "Currys,  Unit 8 A&B Clifton Moor Retail Park", "addr:city": " York", "addr:postcode": "YO30 4XU", "addr:country": "United Kingdom", "name": "York Clifton Moor", "phone": "03438165129", "opening_hours": "Mo 10:00 - 20:00 ;Tu 10:00 - 20:00 ;We 10:00 - 20:00 ;Fr 10:00 - 20:00 ;Th 10:00 - 20:00 ;Sa 09:00 - 18:00 ;Su 10:30 - 16:30 ;", "brand": "Carphone Warehouse"}, "geometry": {"type": "Point", "coordinates": [-1.108589, 53.989986]}},
{"type": "Feature", "id": "LTUiiwup_nJXeRrZFDmQySz98YE=", "properties": {"ref": "a7679", "@spider": "carphonewarehouse", "addr:full": "Currys,  102-120 Blackpool Road", "addr:city": " Preston", "addr:postcode": "PR2 6BX", "addr:country": "United Kingdom", "name": "Preston Deepdale", "phone": "03443721579", "opening_hours": "Mo 10:00 - 20:00 ;Tu 10:00 - 20:00 ;We 10:00 - 20:00 ;Fr 10:00 - 20:00 ;Th 10:00 - 20:00 ;Sa 10:00 - 18:00 ;Su 11:00 - 17:00 ;", "brand": "Carphone Warehouse"}, "geometry": {"type": "Point", "coordinates": [-2.6767482999999856, 53.773928]}},
{"type": "Feature", "id": "31qKGOwAt_wlXDvV11FV-T_cBtQ=", "properties": {"ref": "a7380", "@spider": "carphonewarehouse", "addr:full": "Currys,  Unit 6 Great Northern Retail Park", "addr:city": " Huddersfield", "addr:postcode": "HD 1 6ND", "addr:country": "United Kingdom", "name": "Huddersfield (Great North", "phone": "03438165080", "opening_hours": "Mo 10:00 - 20:00 ;Tu 10:00 - 20:00 ;We 10:00 - 20:00 ;Fr 10:00 - 20:00 ;Th 10:00 - 20:00 ;Sa 10:00 - 18:00 ;Su 10:30 - 16:30 ;", "brand": "Carphone Warehouse"}, "geometry": {"type": "Point", "coordinates": [-1.778826, 53.653257]}},
{"type": "Feature", "id": "0dNp1Sd_z9nICMii78YN7L2uEAo=", "properties": {"ref": "a7303", "@spider": "carphonewarehouse", "addr:full": "Currys,  Units 3-4 The Capitol Centre,  London Way", "addr:city": " Preston", "addr:postcode": "PR5 4AW", "addr:country": "United Kingdom", "name": "Preston Capitol", "phone": "03438165003", "opening_hours": "Mo 10:00 - 20:00 ;Tu 10:00 - 20:00 ;We 10:00 - 20:00 ;Fr 10:00 - 20:00 ;Th 10:00 - 20:00 ;Sa 10:00 - 18:00 ;Su 11:00 - 17:00 ;", "brand": "Carphone Warehouse"}, "geometry": {"type": "Point", "coordinates": [-2.6773773, 53.748919]}},
{"type": "Feature", "id": "qlYLaC386KRis2flTJnQ5MMIDLE=", "properties": {"ref": "a7519", "@spider": "carphonewarehouse", "addr:full": "Currys,  The Old Cricket Ground,  Dane Street", "addr:city": " Rochdale", "addr:postcode": "OL12 6XT", "addr:country": "United Kingdom", "name": "Rochdale", "phone": "03438165219", "opening_hours": "Mo 10:00 - 20:00 ;Tu 10:00 - 20:00 ;We 10:00 - 20:00 ;Fr 10:00 - 20:00 ;Th 10:00 - 20:00 ;Sa 10:00 - 18:00 ;Su 10:30 - 16:30 ;", "brand": "Carphone Warehouse"}, "geometry": {"type": "Point", "coordinates": [-2.16594, 53.61563]}},
{"type": "Feature", "id": "dlCk40NCXon6XRBVB16S66ceRfY=", "properties": {"ref": "a7418", "@spider": "carphonewarehouse", "addr:full": "Currys,  Unit 5 Anchor Retail Park", "addr:city": " Hartlepool", "addr:postcode": "TS24 0XR", "addr:country": "United Kingdom", "name": "Hartlepool", "phone": "03438165118", "opening_hours": "Mo 10:00 - 20:00 ;Tu 10:00 - 20:00 ;We 10:00 - 20:00 ;Fr 10:00 - 20:00 ;Th 10:00 - 20:00 ;Sa 10:00 - 18:00 ;Su 10:30 - 16:30 ;", "brand": "Carphone Warehouse"}, "geometry": {"type": "Point", "coordinates": [-1.2111678, 54.690518]}},
{"type": "Feature", "id": "hbatMxIWwZoeQKIIikrX6hY6EmU=", "properties": {"ref": "a7455", "@spider": "carphonewarehouse", "addr:full": "Currys,  Unit 2 Westgate Retail Park,  Ings Road", "addr:city": " Wakefield", "addr:postcode": "WF 2 9SD", "addr:country": "United Kingdom", "name": "Wakefield Westgate", "phone": "03438165155", "opening_hours": "Mo 10:00 - 20:00 ;Tu 10:00 - 20:00 ;We 10:00 - 20:00 ;Fr 10:00 - 20:00 ;Th 10:00 - 20:00 ;Sa 10:00 - 18:00 ;Su 10:30 - 16:30 ;", "brand": "Carphone Warehouse"}, "geometry": {"type": "Point", "coordinates": [-1.506479, 53.678759]}},
{"type": "Feature", "id": "v9d5-hnDuoKQxUh3ooc86huvaxg=", "properties": {"ref": "a7563", "@spider": "carphonewarehouse", "addr:full": "Currys,  Unit 5 Woodfield Retail Park,  Peel Way", "addr:city": " Bury", "addr:postcode": "BL9 5BY", "addr:country": "United Kingdom", "name": "Bury Woodfield", "phone": "03438165263", "opening_hours": "Mo 10:00 - 20:00 ;Tu 10:00 - 20:00 ;We 10:00 - 20:00 ;Fr 10:00 - 20:00 ;Th 10:00 - 20:00 ;Sa 10:00 - 18:00 ;Su 11:00 - 17:00 ;", "brand": "Carphone Warehouse"}, "geometry": {"type": "Point", "coordinates": [-2.29684, 53.596759]}},
{"type": "Feature", "id": "DMnzxujaMbTcqjyq3azkdHDJDxg=", "properties": {"ref": "a7500", "@spider": "carphonewarehouse", "addr:full": "Currys,  Unit A Alliance Retail Park", "addr:city": " Chorley", "addr:postcode": "PR7 1EX", "addr:country": "United Kingdom", "name": "Chorley", "phone": "03438165200", "opening_hours": "Mo 10:00 - 20:00 ;Tu 10:00 - 20:00 ;We 10:00 - 20:00 ;Fr 10:00 - 20:00 ;Th 10:00 - 20:00 ;Sa 10:00 - 18:00 ;Su 10:30 - 16:30 ;", "brand": "Carphone Warehouse"}, "geometry": {"type": "Point", "coordinates": [-2.627417, 53.660564]}},
{"type": "Feature", "id": "fTWVtISi0LPUQPeC50bxD8M7nMc=", "properties": {"ref": "a7337", "@spider": "carphonewarehouse", "addr:full": "Currys,  Unit 6-7 Elk Mill Centre Retail Park", "addr:city": " Royton", "addr:postcode": "OL 2 5HX", "addr:country": "United Kingdom", "name": "Oldham", "phone": "03438165037", "opening_hours": "Mo 10:00 - 20:00 ;Tu 10:00 - 20:00 ;We 10:00 - 20:00 ;Fr 10:00 - 20:00 ;Th 10:00 - 20:00 ;Sa 10:00 - 18:00 ;Su 11:00 - 17:00 ;", "brand": "Carphone Warehouse"}, "geometry": {"type": "Point", "coordinates": [-2.1376802, 53.558013]}},
{"type": "Feature", "id": "5vrFrFlk8jyn3GH3nZVjf4GIu0k=", "properties": {"ref": "a7454", "@spider": "carphonewarehouse", "addr:full": "Currys,  Unit C  Park Road Retail Park", "addr:city": " Pontefract", "addr:postcode": "WF8 4PR", "addr:country": "United Kingdom", "name": "Pontefract", "phone": "03438165154", "opening_hours": "Mo 10:00 - 20:00 ;Tu 10:00 - 20:00 ;We 10:00 - 20:00 ;Fr 10:00 - 20:00 ;Th 10:00 - 20:00 ;Sa 10:00 - 18:00 ;Su 10:00 - 16:00 ;", "brand": "Carphone Warehouse"}, "geometry": {"type": "Point", "coordinates": [-1.319883, 53.69786]}},
{"type": "Feature", "id": "KjqqYeURMlZW606814pBVYHqN9Y=", "properties": {"ref": "a7624", "@spider": "carphonewarehouse", "addr:full": "Currys,  Unit G Bolton Gate Retail Park", "addr:city": " Bolton", "addr:postcode": "BL 1 2SL", "addr:country": "United Kingdom", "name": "Bolton Gate", "phone": "03443721723", "opening_hours": "Mo 09:00 - 20:00 ;Tu 09:00 - 20:00 ;We 09:00 - 20:00 ;Fr 09:00 - 20:00 ;Th 09:00 - 20:00 ;Sa 09:00 - 18:00 ;Su 10:30 - 16:30 ;", "brand": "Carphone Warehouse"}, "geometry": {"type": "Point", "coordinates": [-2.425067, 53.585878]}},
{"type": "Feature", "id": "-VYTVTSlB7RkiN-pMZS-Y8e1SpQ=", "properties": {"ref": "a7371", "@spider": "carphonewarehouse", "addr:full": "Currys,  Unit 2/2A Team Valley Shopping Park", "addr:city": " Gateshead", "addr:postcode": "NE11 0BE", "addr:country": "United Kingdom", "name": "Gateshead Team Valley", "phone": "03438165071", "opening_hours": "Mo 09:30 - 20:00 ;Tu 09:30 - 20:00 ;We 09:30 - 20:00 ;Fr 09:30 - 20:00 ;Th 09:30 - 20:00 ;Sa 09:30 - 18:00 ;Su 10:30 - 16:30 ;", "brand": "Carphone Warehouse"}, "geometry": {"type": "Point", "coordinates": [-1.618316, 54.92238]}},
{"type": "Feature", "id": "ATxEHIycK4JYI9eA3v_-3N6zE04=", "properties": {"ref": "a7634", "@spider": "carphonewarehouse", "addr:full": "Currys,  Unit E-H Hollywood RP,  Hindpool Road", "addr:city": " Barrow-in-Furness", "addr:postcode": "LA14 2NA", "addr:country": "United Kingdom", "name": "Barrow-in-Furness", "phone": "03443721434", "opening_hours": "Mo 10:00 - 20:00 ;Tu 10:00 - 20:00 ;We 10:00 - 20:00 ;Fr 10:00 - 20:00 ;Th 10:00 - 20:00 ;Sa 10:00 - 18:00 ;Su 10:30 - 16:30 ;", "brand": "Carphone Warehouse"}, "geometry": {"type": "Point", "coordinates": [-3.238681, 54.114875]}},
{"type": "Feature", "id": "DheY1hi98BONr55Kht7kswBuNT8=", "properties": {"ref": "a7528", "@spider": "carphonewarehouse", "addr:full": "Currys,  Unit 10 Middlebrook Retail Park", "addr:city": " Horwich", "addr:postcode": "BL6 6JA", "addr:country": "United Kingdom", "name": "Bolton Middlebrook", "phone": "03438165228", "opening_hours": "Mo 10:00 - 20:00 ;Tu 10:00 - 20:00 ;We 10:00 - 20:00 ;Fr 10:00 - 20:00 ;Th 10:00 - 20:00 ;Sa 10:00 - 18:00 ;Su 11:00 - 17:00 ;", "brand": "Carphone Warehouse"}, "geometry": {"type": "Point", "coordinates": [-2.5353095, 53.583544]}},
{"type": "Feature", "id": "Ip6grYRhyj2G09rFGuK9F3UcfzM=", "properties": {"ref": "a7459", "@spider": "carphonewarehouse", "addr:full": "Currys,  Unit 39/40 Lower Green Mall,  The Metro Centre", "addr:city": " Gateshead", "addr:postcode": "NE11 9YR", "addr:country": "United Kingdom", "name": "Gateshead Metro Centre", "phone": "03438165159", "opening_hours": "Mo 09:00 - 21:00 ;Tu 09:00 - 21:00 ;We 09:00 - 21:00 ;Fr 09:00 - 21:00 ;Th 09:00 - 21:00 ;Sa 09:00 - 20:00 ;Su 11:00 - 17:00 ;", "brand": "Carphone Warehouse"}, "geometry": {"type": "Point", "coordinates": [-1.6685552, 54.957641]}},
{"type": "Feature", "id": "gaega3vRYyyPJMEIjT2nEGSMV_c=", "properties": {"ref": "a7335", "@spider": "carphonewarehouse", "addr:full": "Currys,  Unit A Blackpool Retail Park,  Squires Gate", "addr:city": " Blackpool", "addr:postcode": "FY 4 3RN", "addr:country": "United Kingdom", "name": "Blackpool", "phone": "03438165035", "opening_hours": "Mo 09:00 - 20:00 ;Tu 09:00 - 20:00 ;We 09:00 - 20:00 ;Fr 09:00 - 20:00 ;Th 09:00 - 20:00 ;Sa 09:00 - 18:00 ;Su 10:30 - 16:30 ;", "brand": "Carphone Warehouse"}, "geometry": {"type": "Point", "coordinates": [-3.030853, 53.78032]}},
{"type": "Feature", "id": "UBKIfHYYQP9DGsp0Uoa2lzjwD8k=", "properties": {"ref": "a7578", "@spider": "carphonewarehouse", "addr:full": "Currys,  Unit 1 Trimdon Street Retail Park", "addr:city": " Sunderland", "addr:postcode": "SR 4 6DW", "addr:country": "United Kingdom", "name": "Sunderland", "phone": "03438165278", "opening_hours": "Mo 10:00 - 20:00 ;Tu 10:00 - 20:00 ;We 10:00 - 20:00 ;Fr 10:00 - 20:00 ;Th 10:00 - 20:00 ;Sa 09:00 - 18:00 ;Su 10:30 - 16:30 ;", "brand": "Carphone Warehouse"}, "geometry": {"type": "Point", "coordinates": [-1.393692, 54.908338]}},
{"type": "Feature", "id": "MnJ7F7JEqsMHZKP1_JJ7ocJDTCw=", "properties": {"ref": "a7629", "@spider": "carphonewarehouse", "addr:full": "Currys,  Unit C Cheetham Hill Retail Park,  Elizabeth Street", "addr:city": " Manchester", "addr:postcode": "M8 8BB", "addr:country": "United Kingdom", "name": "Manchester Cheetham Hill", "phone": "03443721729", "opening_hours": "Mo 10:00 - 20:00 ;Tu 10:00 - 20:00 ;We 10:00 - 20:00 ;Fr 10:00 - 20:00 ;Th 10:00 - 20:00 ;Sa 10:00 - 18:00 ;Su 11:00 - 17:00 ;", "brand": "Carphone Warehouse"}, "geometry": {"type": "Point", "coordinates": [-2.237932799999953, 53.499179]}},
{"type": "Feature", "id": "G6NCqdYa2QKufS2hgezQj3c8PYg=", "properties": {"ref": "a7567", "@spider": "carphonewarehouse", "addr:full": "Currys,  Unit 8 The Peel Centre", "addr:city": " Barnsley", "addr:postcode": "S 71 1JE", "addr:country": "United Kingdom", "name": "Barnsley", "phone": "03438165267", "opening_hours": "Mo 10:00 - 20:00 ;Tu 10:00 - 20:00 ;We 10:00 - 20:00 ;Fr 10:00 - 20:00 ;Th 10:00 - 20:00 ;Sa 10:00 - 18:00 ;Su 10:00 - 16:00 ;", "brand": "Carphone Warehouse"}, "geometry": {"type": "Point", "coordinates": [-1.467876, 53.557659]}},
{"type": "Feature", "id": "5wbURZk16Df07OeEx4JJR96fgAY=", "properties": {"ref": "a7372", "@spider": "carphonewarehouse", "addr:full": "Currys,  Unit 17 Snipe Retail Park", "addr:city": " Ashton-under-Lyne", "addr:postcode": "OL 7 0DN", "addr:country": "United Kingdom", "name": "Ashton-under-Lyne", "phone": "03438165072", "opening_hours": "Mo 10:00 - 20:00 ;Tu 10:00 - 20:00 ;We 10:00 - 20:00 ;Fr 10:00 - 20:00 ;Th 10:00 - 20:00 ;Sa 10:00 - 18:00 ;Su 10:30 - 16:30 ;", "brand": "Carphone Warehouse"}, "geometry": {"type": "Point", "coordinates": [-2.122486, 53.478802]}},
{"type": "Feature", "id": "2AHRfqDAUCq3Nm3FIA0D-cvhCOo=", "properties": {"ref": "a7553", "@spider": "carphonewarehouse", "addr:full": "93 Halle Mall,  Arndale Shopping Centre,  Manchester", "addr:city": " Greater Manchester", "addr:postcode": "M4 2HU", "addr:country": "United Kingdom", "name": "(SWAS) Manchester Arndale", "phone": "08438165253", "opening_hours": "Mo 10:00 - 20:00 ;Tu 10:00 - 20:00 ;We 10:00 - 20:00 ;Fr 10:00 - 20:00 ;Th 10:00 - 20:00 ;Sa 10:00 - 18:00 ;Su 11:30 - 17:30 ;", "brand": "Carphone Warehouse"}, "geometry": {"type": "Point", "coordinates": [-2.2428, 53.48294]}},
{"type": "Feature", "id": "vsMBTycCx_2X_Kdetx8J8ITGJM8=", "properties": {"ref": "a7625", "@spider": "carphonewarehouse", "addr:full": "Currys,  Unit 4 Kingston Retail Park", "addr:city": " Newcastle upon Tyne", "addr:postcode": "NE 3 2ES", "addr:country": "United Kingdom", "name": "Newcastle Kingston Park", "phone": "03443721725", "opening_hours": "Mo 10:00 - 20:00 ;Tu 10:00 - 20:00 ;We 10:00 - 20:00 ;Fr 10:00 - 20:00 ;Th 10:00 - 20:00 ;Sa 09:00 - 18:00 ;Su 10:30 - 16:30 ;", "brand": "Carphone Warehouse"}, "geometry": {"type": "Point", "coordinates": [-1.667202, 55.013975]}},
{"type": "Feature", "id": "pQqnl4nPbUeuAAfpKxDeizApsqk=", "properties": {"ref": "a7699", "@spider": "carphonewarehouse", "addr:full": "Currys,  Unit 10, Robin Retail Park,  Wigan", "addr:city": " Greater Manchester", "addr:postcode": "WN5 0UH", "addr:country": "United Kingdom", "name": "Wigan", "phone": "03443721499", "opening_hours": "Mo 10:00 - 20:00 ;Tu 10:00 - 20:00 ;We 10:00 - 20:00 ;Fr 10:00 - 20:00 ;Th 10:00 - 20:00 ;Sa 10:00 - 18:00 ;Su 10:30 - 16:30 ;", "brand": "Carphone Warehouse"}, "geometry": {"type": "Point", "coordinates": [-2.652944, 53.545067]}},
{"type": "Feature", "id": "Gba6a5dSz9xu9stOwc4YJP2qfhU=", "properties": {"ref": "a7575", "@spider": "carphonewarehouse", "addr:full": "Currys,  Units 1&2 White City Retail Park,  Chester Road", "addr:city": " Manchester", "addr:postcode": "M16 0RP", "addr:country": "United Kingdom", "name": "Manchester White City", "phone": "03438165275", "opening_hours": "Mo 10:00 - 20:00 ;Tu 10:00 - 20:00 ;We 10:00 - 20:00 ;Fr 10:00 - 20:00 ;Th 10:00 - 20:00 ;Sa 10:00 - 18:00 ;Su 11:00 - 17:00 ;", "brand": "Carphone Warehouse"}, "geometry": {"type": "Point", "coordinates": [-2.28392800000006, 53.4611112]}},
{"type": "Feature", "id": "Vy6tPYQyqGTrVNUF7JuqHLtf0NQ=", "properties": {"ref": "a7647", "@spider": "carphonewarehouse", "addr:full": "Currys,  Unit 5 Parsonage Retail Park,  Parsonage Way", "addr:city": " Leigh", "addr:postcode": "WN7 5SJ", "addr:country": "United Kingdom", "name": "Leigh", "phone": "03443721039", "opening_hours": "Mo 10:00 - 20:00 ;Tu 10:00 - 20:00 ;We 10:00 - 20:00 ;Fr 10:00 - 20:00 ;Th 10:00 - 20:00 ;Sa 10:00 - 18:00 ;Su 10:30 - 16:30 ;", "brand": "Carphone Warehouse"}, "geometry": {"type": "Point", "coordinates": [-2.527797, 53.499404]}},
{"type": "Feature", "id": "vnBO-vWa7XgF_UDCGPk5E77D2zA=", "properties": {"ref": "a7331", "@spider": "carphonewarehouse", "addr:full": "Currys,  117 Peel Avenue,  Upper Mall,  The Trafford Centre", "addr:city": " Dumplington", "addr:postcode": "M17 8BS", "addr:country": "United Kingdom", "name": "Manchester Trafford", "phone": "03438165031", "opening_hours": "Mo 09:00 - 22:00 ;Tu 09:00 - 22:00 ;We 09:00 - 22:00 ;Fr 09:00 - 22:00 ;Th 09:00 - 22:00 ;Sa 09:00 - 21:00 ;Su 12:00 - 18:00 ;", "brand": "Carphone Warehouse"}, "geometry": {"type": "Point", "coordinates": [-2.349, 53.46619]}},
{"type": "Feature", "id": "NL3-JeRL7AwiaYjxjTKlXcK5GyM=", "properties": {"ref": "a7504", "@spider": "carphonewarehouse", "addr:full": "Currys,  Unit 4 Meols Cop Retail Park", "addr:city": " Southport", "addr:postcode": "PR9 7RG", "addr:country": "United Kingdom", "name": "Southport Meols Cop", "phone": "03438165204", "opening_hours": "Mo 10:00 - 20:00 ;Tu 10:00 - 20:00 ;We 10:00 - 20:00 ;Fr 10:00 - 20:00 ;Th 10:00 - 20:00 ;Sa 10:00 - 18:00 ;Su 10:30 - 16:30 ;", "brand": "Carphone Warehouse"}, "geometry": {"type": "Point", "coordinates": [-2.9707179, 53.647462]}},
{"type": "Feature", "id": "Y-sttInt9KsFhkTM6O_-ScKgWdk=", "properties": {"ref": "a7336", "@spider": "carphonewarehouse", "addr:full": "Currys,  Unit D2 Silverlink Retail Park", "addr:city": " North Shields", "addr:postcode": "NE28 9ND", "addr:country": "United Kingdom", "name": "North Shields Silverlink", "phone": "03438165036", "opening_hours": "Mo 09:00 - 20:00 ;Tu 09:00 - 20:00 ;We 09:00 - 20:00 ;Fr 09:00 - 20:00 ;Th 09:00 - 20:00 ;Sa 09:00 - 19:00 ;Su 10:30 - 16:30 ;", "brand": "Carphone Warehouse"}, "geometry": {"type": "Point", "coordinates": [-1.493325, 55.012228]}},
{"type": "Feature", "id": "nVdL8f3cPIg9Lg7ibZ5Rn3KZyfk=", "properties": {"ref": "a7384", "@spider": "carphonewarehouse", "addr:full": "Currys,  Unit 7 The Peel Centre", "addr:city": " Stockport", "addr:postcode": "SK1 2HD", "addr:country": "United Kingdom", "name": "Stockport Peel Centre", "phone": "03438165084", "opening_hours": "Mo 10:00 - 20:00 ;Tu 10:00 - 20:00 ;We 10:00 - 20:00 ;Fr 10:00 - 20:00 ;Th 10:00 - 20:00 ;Sa 10:00 - 18:00 ;Su 10:30 - 16:30 ;", "brand": "Carphone Warehouse"}, "geometry": {"type": "Point", "coordinates": [-2.148921, 53.414578]}},
{"type": "Feature", "id": "V1xf2Xb8hwUfBZTV1i75QSxsiv4=", "properties": {"ref": "a7402", "@spider": "carphonewarehouse", "addr:full": "Currys,  Unit D Kingstown Retail Park,  Parkhouse Road", "addr:city": " Carlisle", "addr:postcode": "CA3 0JR", "addr:country": "United Kingdom", "name": "Carlisle", "phone": "03438165102", "opening_hours": "Mo 10:00 - 20:00 ;Tu 10:00 - 20:00 ;We 10:00 - 20:00 ;Fr 10:00 - 20:00 ;Th 10:00 - 20:00 ;Sa 10:00 - 18:00 ;Su 10:00 - 16:00 ;", "brand": "Carphone Warehouse"}, "geometry": {"type": "Point", "coordinates": [-2.947673, 54.927254]}},
{"type": "Feature", "id": "H9vYVTRLR8IsSCNXnd6U4Xc-ir4=", "properties": {"ref": "a7516", "@spider": "carphonewarehouse", "addr:full": "Currys,  Units 2/3 Altrincham Retail Park", "addr:city": " Altrincham", "addr:postcode": "WA14 5GR", "addr:country": "United Kingdom", "name": "Altrincham", "phone": "03438165216", "opening_hours": "Mo 10:00 - 20:00 ;Tu 10:00 - 20:00 ;We 10:00 - 20:00 ;Fr 10:00 - 20:00 ;Th 10:00 - 20:00 ;Sa 10:00 - 18:00 ;Su 10:30 - 16:30 ;", "brand": "Carphone Warehouse"}, "geometry": {"type": "Point", "coordinates": [-2.355301, 53.400546]}},
{"type": "Feature", "id": "rrmyB0AjJpYUG8z7KqyqA3L5xzo=", "properties": {"ref": "a7601", "@spider": "carphonewarehouse", "addr:full": "Currys,  Unit 5 Westmorland Retail Park", "addr:city": " Cramlington", "addr:postcode": "NE23 6UY", "addr:country": "United Kingdom", "name": "Cramlington", "phone": "03443721501", "opening_hours": "Mo 09:00 - 20:00 ;Tu 09:00 - 20:00 ;We 09:00 - 20:00 ;Fr 09:00 - 20:00 ;Th 09:00 - 20:00 ;Sa 09:00 - 18:00 ;Su 10:30 - 16:30 ;", "brand": "Carphone Warehouse"}, "geometry": {"type": "Point", "coordinates": [-1.595332, 55.08632]}},
{"type": "Feature", "id": "JnkHaJmxJRKMYkYrENy9zFGYQEY=", "properties": {"ref": "a7313", "@spider": "carphonewarehouse", "addr:full": "Currys,  Unit 1 Danum Retail Park", "addr:city": " Doncaster", "addr:postcode": "DN 5 8AS", "addr:country": "United Kingdom", "name": "Doncaster Danum", "phone": "03438165013", "opening_hours": "Mo 10:00 - 20:00 ;Tu 10:00 - 20:00 ;We 10:00 - 20:00 ;Fr 10:00 - 20:00 ;Th 10:00 - 20:00 ;Sa 09:00 - 18:00 ;Su 10:00 - 16:00 ;", "brand": "Carphone Warehouse"}, "geometry": {"type": "Point", "coordinates": [-1.15413, 53.5313]}},
{"type": "Feature", "id": "y43G2JosUnKR0lzE-OQ_PSPyaQA=", "properties": {"ref": "a7340", "@spider": "carphonewarehouse", "addr:full": "Currys,  Unit A Junction Nine Retail Park,  Winwick Road", "addr:city": " Warrington", "addr:postcode": "WA 2 8TW", "addr:country": "United Kingdom", "name": "Warrington", "phone": "03438165040", "opening_hours": "Mo 09:00 - 20:00 ;Tu 09:00 - 20:00 ;We 09:00 - 20:00 ;Fr 09:00 - 20:00 ;Th 09:00 - 20:00 ;Sa 09:00 - 19:00 ;Su 10:30 - 16:30 ;", "brand": "Carphone Warehouse"}, "geometry": {"type": "Point", "coordinates": [-2.5976013, 53.408772]}},
{"type": "Feature", "id": "ch3K-kzXrXVkmJPpu0SaifGe_mk=", "properties": {"ref": "a7669", "@spider": "carphonewarehouse", "addr:full": "Currys,  Unit 12 Ravenhead Retail Park,  Milverny Way", "addr:city": " St Helens", "addr:postcode": "WA 9 1JF", "addr:country": "United Kingdom", "name": "St Helens", "phone": "03443721177", "opening_hours": "Mo 09:00 - 20:00 ;Tu 09:00 - 20:00 ;We 09:00 - 20:00 ;Fr 09:00 - 20:00 ;Th 09:00 - 20:00 ;Sa 09:00 - 18:00 ;Su 10:30 - 16:30 ;", "brand": "Carphone Warehouse"}, "geometry": {"type": "Point", "coordinates": [-2.733297, 53.444132]}},
{"type": "Feature", "id": "vlg913MrUCNxIi6HQvcTNsEKKTY=", "properties": {"ref": "a7398", "@spider": "carphonewarehouse", "addr:full": "Currys,  Unit 15 Parkgate Shopping Park", "addr:city": " Rotherham", "addr:postcode": "S 60 1TG", "addr:country": "United Kingdom", "name": "Rotherham", "phone": "03438165098", "opening_hours": "Mo 10:00 - 20:00 ;Tu 10:00 - 20:00 ;We 10:00 - 20:00 ;Fr 10:00 - 20:00 ;Th 10:00 - 20:00 ;Sa 10:00 - 18:00 ;Su 10:30 - 16:30 ;", "brand": "Carphone Warehouse"}, "geometry": {"type": "Point", "coordinates": [-1.3456071, 53.444135]}},
{"type": "Feature", "id": "xmnY-_nV9QMnRTWyYzQtGW3r-kM=", "properties": {"ref": "a7376", "@spider": "carphonewarehouse", "addr:full": "Currys,  46 High Street,  Upper Mall,  Meadowhall Centre", "addr:city": " Sheffield", "addr:postcode": "S9 1EN", "addr:country": "United Kingdom", "name": "Meadowhall Shopping Ctr", "phone": "03438165076", "opening_hours": "Mo 09:00 - 22:00 ;Tu 09:00 - 22:00 ;We 09:00 - 22:00 ;Fr 09:00 - 22:00 ;Th 09:00 - 22:00 ;Sa 09:00 - 20:00 ;Su 11:00 - 17:00 ;", "brand": "Carphone Warehouse"}, "geometry": {"type": "Point", "coordinates": [-1.410119, 53.414862]}},
{"type": "Feature", "id": "UnXjOI4lLs01vDZOShb-7cRXSPI=", "properties": {"ref": "a7488", "@spider": "carphonewarehouse", "addr:full": "Currys,  Units I&J Meadowhall Retail Park", "addr:city": " Sheffield", "addr:postcode": "S  9 2YZ", "addr:country": "United Kingdom", "name": "Sheffield Meadowhall RP", "phone": "03438165188", "opening_hours": "Mo 10:00 - 20:00 ;Tu 10:00 - 20:00 ;We 10:00 - 20:00 ;Fr 10:00 - 20:00 ;Th 10:00 - 20:00 ;Sa 10:00 - 18:00 ;Su 10:30 - 16:30 ;", "brand": "Carphone Warehouse"}, "geometry": {"type": "Point", "coordinates": [-1.41239, 53.40518]}},
{"type": "Feature", "id": "FvjWKq5fH2GsO0YwUyaYJapX6cI=", "properties": {"ref": "a7367", "@spider": "carphonewarehouse", "addr:full": "Currys,  Unit 1A Aintree Racecourse Retail Park,  Ormskirk Road", "addr:city": " Liverpool", "addr:postcode": "L  9 5AT", "addr:country": "United Kingdom", "name": "Liverpool Aintree", "phone": "03438165067", "opening_hours": "Mo 10:00 - 20:00 ;Tu 10:00 - 20:00 ;We 10:00 - 20:00 ;Fr 10:00 - 20:00 ;Th 10:00 - 20:00 ;Sa 10:00 - 18:00 ;Su 10:30 - 16:30 ;", "brand": "Carphone Warehouse"}, "geometry": {"type": "Point", "coordinates": [-2.952726, 53.478738]}},
{"type": "Feature", "id": "j0d84LeDOJ_zQmN0Av-TGKiMYPo=", "properties": {"ref": "a7521", "@spider": "carphonewarehouse", "addr:full": "Currys,  Unit A Seamer Road", "addr:city": " Scarborough", "addr:postcode": "YO12 4DJ", "addr:country": "United Kingdom", "name": "Scarborough", "phone": "03438165221", "opening_hours": "Mo 10:00 - 20:00 ;Tu 10:00 - 20:00 ;We 10:00 - 20:00 ;Fr 10:00 - 20:00 ;Th 10:00 - 20:00 ;Sa 10:00 - 18:00 ;Su 10:00 - 16:00 ;", "brand": "Carphone Warehouse"}, "geometry": {"type": "Point", "coordinates": [-0.41608, 54.26592]}},
{"type": "Feature", "id": "AC4kolJIgBoQG-OP4xrkhxtohfE=", "properties": {"ref": "a7568", "@spider": "carphonewarehouse", "addr:full": "Currys,  Unit 3 Heeley Retail Park,  Chesterfield Road", "addr:city": " Sheffield", "addr:postcode": "S8 0RG", "addr:country": "United Kingdom", "name": "Sheffield Heeley", "phone": "03438165268", "opening_hours": "Mo 10:00 - 20:00 ;Tu 10:00 - 20:00 ;We 10:00 - 20:00 ;Fr 10:00 - 20:00 ;Th 10:00 - 20:00 ;Sa 10:00 - 18:00 ;Su 10:30 - 16:30 ;", "brand": "Carphone Warehouse"}, "geometry": {"type": "Point", "coordinates": [-1.478537, 53.356424]}},
{"type": "Feature", "id": "g1vkxQT62s5nkY5uKgT-2ulKB5k=", "properties": {"ref": "a7406", "@spider": "carphonewarehouse", "addr:full": "Currys,  Unit 5 Derwent Howe Retail Park", "addr:city": " Workington", "addr:postcode": "CA14 3YW", "addr:country": "United Kingdom", "name": "Workington Derwent", "phone": "03438165106", "opening_hours": "Mo 09:00 - 19:00 ;Tu 09:00 - 19:00 ;We 09:00 - 19:00 ;Fr 09:00 - 19:00 ;Th 09:00 - 19:00 ;Sa 10:00 - 18:00 ;Su 10:00 - 16:00 ;", "brand": "Carphone Warehouse"}, "geometry": {"type": "Point", "coordinates": [-3.564484, 54.641044]}},
{"type": "Feature", "id": "NkNotOQZ7CaakKVxnNPRbrGd8Sc=", "properties": {"ref": "a7472", "@spider": "carphonewarehouse", "addr:full": "Currys,  Unit 8 Drakehouse Retail Park", "addr:city": " Sheffield", "addr:postcode": "S20 7JJ", "addr:country": "United Kingdom", "name": "Sheffield Drakehouse", "phone": "03438165172", "opening_hours": "Mo 10:00 - 20:00 ;Tu 10:00 - 20:00 ;We 10:00 - 20:00 ;Fr 10:00 - 20:00 ;Th 10:00 - 20:00 ;Sa 10:00 - 18:00 ;Su 10:00 - 16:00 ;", "brand": "Carphone Warehouse"}, "geometry": {"type": "Point", "coordinates": [-1.35767, 53.345025]}},
{"type": "Feature", "id": "7Vt8JZjfbxVYlx37v1m6cxLP0PY=", "properties": {"ref": "a7512", "@spider": "carphonewarehouse", "addr:full": "Currys,  Unit 5 Lyme Green Retail Park", "addr:city": " Macclesfield", "addr:postcode": "SK11 0TB", "addr:country": "United Kingdom", "name": "Macclesfield", "phone": "03438165212", "opening_hours": "Mo 10:00 - 20:00 ;Tu 10:00 - 20:00 ;We 10:00 - 20:00 ;Fr 10:00 - 20:00 ;Th 10:00 - 20:00 ;Sa 10:00 - 18:00 ;Su 10:30 - 16:30 ;", "brand": "Carphone Warehouse"}, "geometry": {"type": "Point", "coordinates": [-2.130232, 53.237226]}},
{"type": "Feature", "id": "sGi-X0rKXb6yeuGc28ak3Vbnnvw=", "properties": {"ref": "a7520", "@spider": "carphonewarehouse", "addr:full": "Currys,  Unit 4 Northwich Retail Park,  Manchester Road", "addr:city": " Northwich", "addr:postcode": "CW9 5LY", "addr:country": "United Kingdom", "name": "Northwich", "phone": "03438165220", "opening_hours": "Mo 10:00 - 20:00 ;Tu 10:00 - 20:00 ;We 10:00 - 20:00 ;Fr 10:00 - 20:00 ;Th 10:00 - 20:00 ;Sa 10:00 - 18:00 ;Su 10:00 - 16:00 ;", "brand": "Carphone Warehouse"}, "geometry": {"type": "Point", "coordinates": [-2.49115, 53.26524]}},
{"type": "Feature", "id": "Vv9IVH6Xeo3nZcaAoJVeQ2nykiY=", "properties": {"ref": "a7319", "@spider": "carphonewarehouse", "addr:full": "Currys,  Unit 10B,  New Mersey Retail Park,  Speke", "addr:city": " Liverpool", "addr:postcode": "L24 8QB", "addr:country": "United Kingdom", "name": "Liverpool Speke", "phone": "03438165019", "opening_hours": "Mo 09:00 - 20:00 ;Tu 09:00 - 20:00 ;We 09:00 - 20:00 ;Fr 09:00 - 20:00 ;Th 09:00 - 20:00 ;Sa 09:00 - 18:00 ;Su 11:00 - 17:00 ;", "brand": "Carphone Warehouse"}, "geometry": {"type": "Point", "coordinates": [-2.87808, 53.348801]}},
{"type": "Feature", "id": "DhxMdy8SHNqKraReTX_Y8J8kt0w=", "properties": {"ref": "a7351", "@spider": "carphonewarehouse", "addr:full": "Currys,  Unit A The Croft Retail Park", "addr:city": " Bromborough", "addr:postcode": "CH62 3PN", "addr:country": "United Kingdom", "name": "Bromborough", "phone": "03438165051", "opening_hours": "Mo 10:00 - 20:00 ;Tu 10:00 - 20:00 ;We 10:00 - 20:00 ;Fr 10:00 - 20:00 ;Th 10:00 - 20:00 ;Sa 10:00 - 18:00 ;Su 10:30 - 16:30 ;", "brand": "Carphone Warehouse"}, "geometry": {"type": "Point", "coordinates": [-2.977732, 53.34148]}},
{"type": "Feature", "id": "MdzVa8mHLjAqb279VsbPEuja4rI=", "properties": {"ref": "a7355", "@spider": "carphonewarehouse", "addr:full": "Currys,  Unit 2 Ravenside Retail Park", "addr:city": " Chesterfield", "addr:postcode": "S 40 1TB", "addr:country": "United Kingdom", "name": "Chesterfield", "phone": "03438165055", "opening_hours": "Mo 10:00 - 20:00 ;Tu 10:00 - 20:00 ;We 10:00 - 20:00 ;Fr 10:00 - 20:00 ;Th 10:00 - 20:00 ;Sa 10:00 - 18:00 ;Su 10:30 - 16:30 ;", "brand": "Carphone Warehouse"}, "geometry": {"type": "Point", "coordinates": [-1.4285344, 53.23274]}},
{"type": "Feature", "id": "qjgfpQMQT5p5QmfS-S4DYC9TDH4=", "properties": {"ref": "a7660", "@spider": "carphonewarehouse", "addr:full": "Currys,  Unit 1 Sandy Lane Retail Park,  Babbage Way", "addr:city": " Worksop", "addr:postcode": "S80 1UJ", "addr:country": "United Kingdom", "name": "Worksop", "phone": "03443721560", "opening_hours": "Mo 10:00 - 20:00 ;Tu 10:00 - 20:00 ;We 10:00 - 20:00 ;Fr 10:00 - 20:00 ;Th 10:00 - 20:00 ;Sa 10:00 - 18:00 ;Su 10:00 - 16:00 ;", "brand": "Carphone Warehouse"}, "geometry": {"type": "Point", "coordinates": [-1.13, 53.312511]}},
{"type": "Feature", "id": "FunofCxtTeXvJaiORlx3p3hYYwQ=", "properties": {"ref": "a7604", "@spider": "carphonewarehouse", "addr:full": "Currys,  Unit A Bessingby Way Retail Park", "addr:city": " Bridlington", "addr:postcode": "YO16 4SJ", "addr:country": "United Kingdom", "name": "Bridlington", "phone": "03443721045", "opening_hours": "Mo 09:00 - 19:00 ;Tu 09:00 - 19:00 ;We 09:00 - 19:00 ;Fr 09:00 - 19:00 ;Th 09:00 - 19:00 ;Sa 09:00 - 18:00 ;Su 10:00 - 16:00 ;", "brand": "Carphone Warehouse"}, "geometry": {"type": "Point", "coordinates": [-0.211033, 54.08364]}},
{"type": "Feature", "id": "kVBUv9LXD8nJDFYuoSZ1p9v8jzI=", "properties": {"ref": "a7427", "@spider": "carphonewarehouse", "addr:full": "Currys,  Unit 1 Lakeside Retail Park", "addr:city": " Scunthorpe", "addr:postcode": "DN16 3UA", "addr:country": "United Kingdom", "name": "Scunthorpe Lakeside", "phone": "03438165127", "opening_hours": "Mo 10:00 - 20:00 ;Tu 10:00 - 20:00 ;We 10:00 - 20:00 ;Fr 10:00 - 20:00 ;Th 10:00 - 20:00 ;Sa 09:00 - 18:00 ;Su 10:00 - 16:00 ;", "brand": "Carphone Warehouse"}, "geometry": {"type": "Point", "coordinates": [-0.616994, 53.563445]}},
{"type": "Feature", "id": "iuZA3OGClgzE5mOKJ6GvXOqJka8=", "properties": {"ref": "a7613", "@spider": "carphonewarehouse", "addr:full": "Currys,  Unit 3 Clough Road Retail Park", "addr:city": " Kingston upon Hull", "addr:postcode": "HU6 7PT", "addr:country": "United Kingdom", "name": "Hull Clough Road", "phone": "03443721713", "opening_hours": "Mo 10:00 - 20:00 ;Tu 10:00 - 20:00 ;We 10:00 - 20:00 ;Fr 10:00 - 20:00 ;Th 10:00 - 20:00 ;Sa 09:00 - 18:00 ;Su 10:30 - 16:30 ;", "brand": "Carphone Warehouse"}, "geometry": {"type": "Point", "coordinates": [-0.341567, 53.769036]}},
{"type": "Feature", "id": "2Ba290SEQBuwuKrAVAovj2aoyC0=", "properties": {"ref": "a7623", "@spider": "carphonewarehouse", "addr:full": "Currys,  Unit 8 St Andrews Quay Retail Park", "addr:city": " Kingston upon Hull", "addr:postcode": "HU3 4SA", "addr:country": "United Kingdom", "name": "Hull St Andrews Quay", "phone": "03443721176", "opening_hours": "Mo 09:00 - 20:00 ;Tu 09:00 - 20:00 ;We 09:00 - 20:00 ;Fr 09:00 - 20:00 ;Th 09:00 - 20:00 ;Sa 09:00 - 18:00 ;Su 10:00 - 16:00 ;", "brand": "Carphone Warehouse"}, "geometry": {"type": "Point", "coordinates": [-0.374145, 53.72763]}},
{"type": "Feature", "id": "tfF3DM6YgxS2qdtAOM2GDf8Zm68=", "properties": {"ref": "a7373", "@spider": "carphonewarehouse", "addr:full": "Currys,  Unit 3 Deva Retail Park", "addr:city": " Chester", "addr:postcode": "CH 1 4LU", "addr:country": "United Kingdom", "name": "Chester Deva", "phone": "03438165073", "opening_hours": "Mo 10:00 - 20:00 ;Tu 10:00 - 20:00 ;We 10:00 - 20:00 ;Fr 10:00 - 20:00 ;Th 10:00 - 20:00 ;Sa 10:00 - 18:00 ;Su 10:30 - 16:30 ;", "brand": "Carphone Warehouse"}, "geometry": {"type": "Point", "coordinates": [-2.91278, 53.19749]}},
{"type": "Feature", "id": "ZFtgyntxJj-7Q7OD7oyPtnhOAcU=", "properties": {"ref": "a7396", "@spider": "carphonewarehouse", "addr:full": "Currys,  Unit 6 Grand Junction", "addr:city": " Crewe", "addr:postcode": "CW1 2RP", "addr:country": "United Kingdom", "name": "Crewe", "phone": "03438165096", "opening_hours": "Mo 10:00 - 20:00 ;Tu 10:00 - 20:00 ;We 10:00 - 20:00 ;Fr 10:00 - 20:00 ;Th 10:00 - 20:00 ;Sa 10:00 - 18:00 ;Su 10:30 - 16:30 ;", "brand": "Carphone Warehouse"}, "geometry": {"type": "Point", "coordinates": [-2.4336782, 53.096318]}},
{"type": "Feature", "id": "D0Y3v6ycERm_vI3lyyZYVtwsWag=", "properties": {"ref": "a7339", "@spider": "carphonewarehouse", "addr:full": "Currys,  Units B/C Nottingham Road Retail Park", "addr:city": " Mansfield", "addr:postcode": "NG18 1BW", "addr:country": "United Kingdom", "name": "Mansfield", "phone": "03438165039", "opening_hours": "Mo 09:00 - 20:00 ;Tu 09:00 - 20:00 ;We 09:00 - 20:00 ;Fr 09:00 - 20:00 ;Th 09:00 - 20:00 ;Sa 09:00 - 18:00 ;Su 10:30 - 16:30 ;", "brand": "Carphone Warehouse"}, "geometry": {"type": "Point", "coordinates": [-1.198014, 53.136944]}},
{"type": "Feature", "id": "LsXnCENNfMFTV80Mq0PzXFClE6A=", "properties": {"ref": "a7437", "@spider": "carphonewarehouse", "addr:full": "Currys,  Unit 1 Festival Heights Retail Park", "addr:city": " Stoke-on-Trent", "addr:postcode": "ST 1 5NZ", "addr:country": "United Kingdom", "name": "Stoke Festival Park", "phone": "03438165137", "opening_hours": "Mo 10:00 - 20:00 ;Tu 10:00 - 20:00 ;We 10:00 - 20:00 ;Fr 10:00 - 20:00 ;Th 10:00 - 20:00 ;Sa 10:00 - 18:00 ;Su 10:30 - 16:30 ;", "brand": "Carphone Warehouse"}, "geometry": {"type": "Point", "coordinates": [-2.189273, 53.031292]}},
{"type": "Feature", "id": "iNVFh0_dHPjYpPEBSANo-H6RhZc=", "properties": {"ref": "a7583", "@spider": "carphonewarehouse", "addr:full": "Currys,  Unit 6 Dumfries Retail Park", "addr:city": " Dumfries", "addr:postcode": "DG2 0NU", "addr:country": "United Kingdom", "name": "Dumfries", "phone": "03443721583", "opening_hours": "Mo 10:00 - 20:00 ;Tu 10:00 - 20:00 ;We 10:00 - 20:00 ;Fr 10:00 - 20:00 ;Th 10:00 - 20:00 ;Sa 10:00 - 18:00 ;Su 10:00 - 17:00 ;", "brand": "Carphone Warehouse"}, "geometry": {"type": "Point", "coordinates": [-3.620853, 55.07913]}},
{"type": "Feature", "id": "HO0ukxxdDiwtLQtcCfAEisUmb9U=", "properties": {"ref": "a7543", "@spider": "carphonewarehouse", "addr:full": "Currys,  Unit 1&2 Phoenix Retail Park", "addr:city": " Longton", "addr:postcode": "ST3 2JB", "addr:country": "United Kingdom", "name": "Stoke Longton Phoenix", "phone": "03438165243", "opening_hours": "Mo 10:00 - 20:00 ;Tu 10:00 - 20:00 ;We 10:00 - 20:00 ;Fr 10:00 - 20:00 ;Th 10:00 - 20:00 ;Sa 10:00 - 18:00 ;Su 10:30 - 16:30 ;", "brand": "Carphone Warehouse"}, "geometry": {"type": "Point", "coordinates": [-2.138, 52.9892]}},
{"type": "Feature", "id": "wc_NmiAIvbPhmysNAZCAvPsDnhc=", "properties": {"ref": "a7511", "@spider": "carphonewarehouse", "addr:full": "Currys,  Unit 4 Clwyd Retail Park", "addr:city": " Rhyl", "addr:postcode": "LL18 2TJ", "addr:country": "United Kingdom", "name": "Rhyl", "phone": "03438165211", "opening_hours": "Mo 10:00 - 20:00 ;Tu 10:00 - 20:00 ;We 10:00 - 20:00 ;Fr 10:00 - 20:00 ;Th 10:00 - 20:00 ;Sa 10:00 - 18:00 ;Su 10:00 - 16:00 ;", "brand": "Carphone Warehouse"}, "geometry": {"type": "Point", "coordinates": [-3.469384, 53.303635]}},
{"type": "Feature", "id": "_lWmjWYg2rvPs4aumWa-MKZ5Yi0=", "properties": {"ref": "a7359", "@spider": "carphonewarehouse", "addr:full": "Currys,  Unit E Plas Coch Retail Park", "addr:city": " Wrexham", "addr:postcode": "LL11 2BA", "addr:country": "United Kingdom", "name": "Wrexham Plas Coch", "phone": "03438165059", "opening_hours": "Mo 10:00 - 20:00 ;Tu 10:00 - 20:00 ;We 10:00 - 20:00 ;Fr 10:00 - 20:00 ;Th 10:00 - 20:00 ;Sa 10:00 - 18:00 ;Su 10:30 - 16:30 ;", "brand": "Carphone Warehouse"}, "geometry": {"type": "Point", "coordinates": [-3.006402, 53.05794]}},
{"type": "Feature", "id": "B6k8OK2yKK1Bzswyn20fWK6IHYE=", "properties": {"ref": "a7456", "@spider": "carphonewarehouse", "addr:full": "Currys,  Unit 1 High Point Retail Park", "addr:city": " Grimsby", "addr:postcode": "DN31 1TY", "addr:country": "United Kingdom", "name": "Grimsby", "phone": "03438165156", "opening_hours": "Mo 10:00 - 20:00 ;Tu 10:00 - 20:00 ;We 10:00 - 20:00 ;Fr 10:00 - 20:00 ;Th 10:00 - 20:00 ;Sa 10:00 - 18:00 ;Su 10:30 - 16:30 ;", "brand": "Carphone Warehouse"}, "geometry": {"type": "Point", "coordinates": [-0.081067, 53.572474]}},
{"type": "Feature", "id": "Npc0wyijEQrAhRdiDWDEtjhUekI=", "properties": {"ref": "a7561", "@spider": "carphonewarehouse", "addr:full": "Currys,  Unit 5 Tritton Retail Park,  Tritton Road", "addr:city": " Lincoln", "addr:postcode": "LN6 7AN", "addr:country": "United Kingdom", "name": "Lincoln Tritton", "phone": "03438165261", "opening_hours": "Mo 10:00 - 20:00 ;Tu 10:00 - 20:00 ;We 10:00 - 20:00 ;Fr 10:00 - 20:00 ;Th 10:00 - 20:00 ;Sa 10:00 - 18:00 ;Su 10:30 - 16:30 ;", "brand": "Carphone Warehouse"}, "geometry": {"type": "Point", "coordinates": [-0.552471, 53.22311]}},
{"type": "Feature", "id": "OSCoyd-7jM1sxUk1nkA_4jkuMqA=", "properties": {"ref": "a7301", "@spider": "carphonewarehouse", "addr:full": "Currys,  Unit A  Meteor Centre", "addr:city": " Derby", "addr:postcode": "DE21 4RY", "addr:country": "United Kingdom", "name": "Derby Meteor", "phone": "03438165001", "opening_hours": "Mo 09:00 - 20:00 ;Tu 09:00 - 20:00 ;We 09:00 - 20:00 ;Fr 09:00 - 20:00 ;Th 09:00 - 20:00 ;Sa 09:00 - 18:00 ;Su 10:30 - 16:30 ;", "brand": "Carphone Warehouse"}, "geometry": {"type": "Point", "coordinates": [-1.46395, 52.941165]}},
{"type": "Feature", "id": "NdYU1Lh7JITDEeJsgw80osc--qg=", "properties": {"ref": "a7348", "@spider": "carphonewarehouse", "addr:full": "Currys,  Unit B-C Madford Retail Park,  Daybrook", "addr:city": " Nottingham", "addr:postcode": "NG5 6AD", "addr:country": "United Kingdom", "name": "Nottingham Madford", "phone": "03438165048", "opening_hours": "Mo 10:00 - 20:00 ;Tu 10:00 - 20:00 ;We 10:00 - 20:00 ;Fr 10:00 - 20:00 ;Th 10:00 - 20:00 ;Sa 10:00 - 18:00 ;Su 10:30 - 16:30 ;", "brand": "Carphone Warehouse"}, "geometry": {"type": "Point", "coordinates": [-1.138866, 52.995939]}},
{"type": "Feature", "id": "Pd54ghLhovCIl-vNwxsCzHf6B30=", "properties": {"ref": "a7368", "@spider": "carphonewarehouse", "addr:full": "Currys,  Kingsway Retail Park", "addr:city": " Derby", "addr:postcode": "DE22 3FA", "addr:country": "United Kingdom", "name": "Derby Kingsway", "phone": "03438165068", "opening_hours": "Mo 10:00 - 20:00 ;Tu 10:00 - 20:00 ;We 10:00 - 20:00 ;Fr 10:00 - 20:00 ;Th 10:00 - 20:00 ;Sa 10:00 - 18:00 ;Su 10:30 - 16:30 ;", "brand": "Carphone Warehouse"}, "geometry": {"type": "Point", "coordinates": [-1.506801, 52.919719]}},
{"type": "Feature", "id": "huPg-825UL6Nq0NHOeW0WoQqQeY=", "properties": {"ref": "a7534", "@spider": "carphonewarehouse", "addr:full": "Currys,  Unit D,  Northgate Retail Park,  Newark-on-Trent", "addr:city": " Nottinghamshire", "addr:postcode": "NG24 1GA", "addr:country": "United Kingdom", "name": "Newark Northgate", "phone": "03438165234", "opening_hours": "Mo 10:00 - 20:00 ;Tu 10:00 - 20:00 ;We 10:00 - 20:00 ;Fr 10:00 - 20:00 ;Th 10:00 - 20:00 ;Sa 10:00 - 18:00 ;Su 10:30 - 16:30 ;", "brand": "Carphone Warehouse"}, "geometry": {"type": "Point", "coordinates": [-0.804148, 53.083657]}},
{"type": "Feature", "id": "XGRMyFQfOhyHfpBeJQmaqoMJSmA=", "properties": {"ref": "a7390", "@spider": "carphonewarehouse", "addr:full": "Currys,  Unit 10 Trinity Square", "addr:city": " Nottingham", "addr:postcode": "NG13EN", "addr:country": "United Kingdom", "name": "Nottingham Trinity Square", "phone": "03438165090", "opening_hours": "Mo 10:00 - 18:00 ;Tu 10:00 - 18:00 ;We 10:00 - 18:00 ;Fr 10:00 - 18:00 ;Th 10:00 - 18:00 ;Sa 10:00 - 18:00 ;Su 11:00 - 17:00 ;", "brand": "Carphone Warehouse"}, "geometry": {"type": "Point", "coordinates": [-1.14839, 52.955658]}},
{"type": "Feature", "id": "lp18QQFrBQ28VZcfPnDWwS78a1g=", "properties": {"ref": "a7463", "@spider": "carphonewarehouse", "addr:full": "Currys,  Unit 1 Mostyn Champneys Retail Park", "addr:city": " Llandudno", "addr:postcode": "LL30 1RY", "addr:country": "United Kingdom", "name": "Llandudno", "phone": "03438165163", "opening_hours": "Mo 10:00 - 20:00 ;Tu 10:00 - 20:00 ;We 10:00 - 20:00 ;Fr 10:00 - 20:00 ;Th 10:00 - 20:00 ;Sa 10:00 - 18:00 ;Su 10:30 - 16:30 ;", "brand": "Carphone Warehouse"}, "geometry": {"type": "Point", "coordinates": [-3.817588, 53.320583]}},
{"type": "Feature", "id": "EqvTlW1U3YbX5X8kU6qClFj2G2U=", "properties": {"ref": "a7374", "@spider": "carphonewarehouse", "addr:full": "Currys,  Unit 6C Castle Marina Retail Park", "addr:city": " Nottingham", "addr:postcode": "NG 7 1GX", "addr:country": "United Kingdom", "name": "Nottingham Castle Marina", "phone": "03438165074", "opening_hours": "Mo 10:00 - 20:00 ;Tu 10:00 - 20:00 ;We 10:00 - 20:00 ;Fr 10:00 - 20:00 ;Th 10:00 - 20:00 ;Sa 10:00 - 18:00 ;Su 10:30 - 16:30 ;", "brand": "Carphone Warehouse"}, "geometry": {"type": "Point", "coordinates": [-1.161246, 52.944644]}},
{"type": "Feature", "id": "viZyj0bTWe4LanBHXOadhPKwsJw=", "properties": {"ref": "a7656", "@spider": "carphonewarehouse", "addr:full": "Currys,  Unit 3 Comely Bank Mill Retail Park", "addr:city": " Galashiels", "addr:postcode": "TD1 1PY", "addr:country": "United Kingdom", "name": "Galashiels", "phone": "03443721430", "opening_hours": "Mo 10:00 - 20:00 ;Tu 10:00 - 20:00 ;We 10:00 - 20:00 ;Fr 10:00 - 20:00 ;Th 10:00 - 20:00 ;Sa 10:00 - 18:00 ;Su 10:00 - 17:00 ;", "brand": "Carphone Warehouse"}, "geometry": {"type": "Point", "coordinates": [-2.818676, 55.622616]}},
{"type": "Feature", "id": "xLJNlcCtmaLQjb-hBPhlVatqiSw=", "properties": {"ref": "a7640", "@spider": "carphonewarehouse", "addr:full": "Currys,  Unit 1 Madford Retail Park,  Foregate Street", "addr:city": " Stafford", "addr:postcode": "ST16 2QY", "addr:country": "United Kingdom", "name": "Stafford", "phone": "03443721175", "opening_hours": "Mo 10:00 - 20:00 ;Tu 10:00 - 20:00 ;We 10:00 - 20:00 ;Fr 10:00 - 20:00 ;Th 10:00 - 20:00 ;Sa 10:00 - 18:00 ;Su 10:00 - 16:00 ;", "brand": "Carphone Warehouse"}, "geometry": {"type": "Point", "coordinates": [-2.121594, 52.810325]}},
{"type": "Feature", "id": "puKyN_UrhNvFRjnPM69OIrGzEgo=", "properties": {"ref": "a7386", "@spider": "carphonewarehouse", "addr:full": "Currys,  Unit 1 Centrum East Retail Park,  Eighth Avenue", "addr:city": " Burton upon Trent", "addr:postcode": "DE14 2WG", "addr:country": "United Kingdom", "name": "Burton Centrum", "phone": "03438165086", "opening_hours": "Mo 10:00 - 20:00 ;Tu 10:00 - 20:00 ;We 10:00 - 20:00 ;Fr 10:00 - 20:00 ;Th 10:00 - 20:00 ;Sa 10:00 - 18:00 ;Su 10:00 - 16:00 ;", "brand": "Carphone Warehouse"}, "geometry": {"type": "Point", "coordinates": [-1.66739, 52.79439]}},
{"type": "Feature", "id": "3MAG35itKowBtw9O-i-W2ZkUg8w=", "properties": {"ref": "a7532", "@spider": "carphonewarehouse", "addr:full": "Currys,  Unit 7 Tweedbank Retail Park", "addr:city": " Berwick-upon-Tweed", "addr:postcode": "TD15 2AS", "addr:country": "United Kingdom", "name": "Berwick-upon-Tweed", "phone": "03438165232", "opening_hours": "Mo 09:00 - 20:00 ;Tu 09:00 - 20:00 ;We 09:00 - 20:00 ;Fr 09:00 - 20:00 ;Th 09:00 - 20:00 ;Sa 09:00 - 18:00 ;Su 10:30 - 16:30 ;", "brand": "Carphone Warehouse"}, "geometry": {"type": "Point", "coordinates": [-2.010584, 55.759156]}},
{"type": "Feature", "id": "8jrhVTdEFMPhU_od6cj-AOO9x0Q=", "properties": {"ref": "a7542", "@spider": "carphonewarehouse", "addr:full": "Currys,  Unit 4 Dysart Retail Park", "addr:city": " Grantham", "addr:postcode": "NG31 7LE", "addr:country": "United Kingdom", "name": "Grantham", "phone": "03438165242", "opening_hours": "Mo 10:00 - 20:00 ;Tu 10:00 - 20:00 ;We 10:00 - 20:00 ;Fr 10:00 - 20:00 ;Th 10:00 - 20:00 ;Sa 10:00 - 18:00 ;Su 10:30 - 16:30 ;", "brand": "Carphone Warehouse"}, "geometry": {"type": "Point", "coordinates": [-0.647802, 52.9102]}},
{"type": "Feature", "id": "IaTWwhg5GkzzE_lGQNafMtiKWYA=", "properties": {"ref": "a7407", "@spider": "carphonewarehouse", "addr:full": "Currys,  Unit 10 Forge Shopping Park,  Colliers Way", "addr:city": " Telford", "addr:postcode": "TF 3 4AG", "addr:country": "United Kingdom", "name": "Telford", "phone": "03438165107", "opening_hours": "Mo 10:00 - 20:00 ;Tu 10:00 - 20:00 ;We 10:00 - 20:00 ;Fr 10:00 - 20:00 ;Th 10:00 - 20:00 ;Sa 10:00 - 18:00 ;Su 10:30 - 16:30 ;", "brand": "Carphone Warehouse"}, "geometry": {"type": "Point", "coordinates": [-2.4529193, 52.682212]}},
{"type": "Feature", "id": "3NTjQiBZkWV0CAlKGpIRDX_yytc=", "properties": {"ref": "a7451", "@spider": "carphonewarehouse", "addr:full": "Currys,  Unit C&D Regent Place Retail Park", "addr:city": " Loughborough", "addr:postcode": "LE11 5PL", "addr:country": "United Kingdom", "name": "Loughborough", "phone": "03438165151", "opening_hours": "Mo 10:00 - 20:00 ;Tu 10:00 - 20:00 ;We 10:00 - 20:00 ;Fr 10:00 - 20:00 ;Th 10:00 - 20:00 ;Sa 10:00 - 18:00 ;Su 10:30 - 16:30 ;", "brand": "Carphone Warehouse"}, "geometry": {"type": "Point", "coordinates": [-1.213381, 52.733596]}},
{"type": "Feature", "id": "OgkpOMxMNSx43PqGLhmBCnGe9I0=", "properties": {"ref": "a7414", "@spider": "carphonewarehouse", "addr:full": "Currys,  Unit 4 Meole Brace Retail Park", "addr:city": " Shrewsbury", "addr:postcode": "SY 3 9NB", "addr:country": "United Kingdom", "name": "Shrewsbury", "phone": "03438165114", "opening_hours": "Mo 10:00 - 20:00 ;Tu 10:00 - 20:00 ;We 10:00 - 20:00 ;Fr 10:00 - 20:00 ;Th 10:00 - 20:00 ;Sa 10:00 - 18:00 ;Su 10:00 - 16:00 ;", "brand": "Carphone Warehouse"}, "geometry": {"type": "Point", "coordinates": [-2.7520432, 52.688835]}},
{"type": "Feature", "id": "NJ1GFH7KGKrxOc68ameiOKhii9E=", "properties": {"ref": "a7449", "@spider": "carphonewarehouse", "addr:full": "Currys,  Unit A Menai Retail Park", "addr:city": " Bangor", "addr:postcode": "LL57 4SJ", "addr:country": "United Kingdom", "name": "Bangor Menai", "phone": "03438165149", "opening_hours": "Mo 10:00 - 20:00 ;Tu 10:00 - 20:00 ;We 10:00 - 20:00 ;Fr 10:00 - 20:00 ;Th 10:00 - 20:00 ;Sa 10:00 - 18:00 ;Su 10:00 - 16:00 ;", "brand": "Carphone Warehouse"}, "geometry": {"type": "Point", "coordinates": [-4.150236, 53.21075]}},
{"type": "Feature", "id": "rkxQFrlkpp6VtK89JDREHMaXsLw=", "properties": {"ref": "a7318", "@spider": "carphonewarehouse", "addr:full": "Currys,  Unit 4  Ventura Retail Park", "addr:city": " Tamworth", "addr:postcode": "B78 3HB", "addr:country": "United Kingdom", "name": "Tamworth", "phone": "03438165018", "opening_hours": "Mo 10:00 - 20:00 ;Tu 10:00 - 20:00 ;We 10:00 - 20:00 ;Fr 10:00 - 20:00 ;Th 10:00 - 20:00 ;Sa 10:00 - 18:00 ;Su 10:00 - 16:00 ;", "brand": "Carphone Warehouse"}, "geometry": {"type": "Point", "coordinates": [-1.702216, 52.627215]}},
{"type": "Feature", "id": "YkzHeNqTOuH_7BiOBmkQR-sOVVA=", "properties": {"ref": "a7574", "@spider": "carphonewarehouse", "addr:full": "Currys,  Unit D St John's Retail Park", "addr:city": " Wolverhampton", "addr:postcode": "WV 2 4SJ", "addr:country": "United Kingdom", "name": "Wolverhampton", "phone": "03438165274", "opening_hours": "Mo 10:00 - 20:00 ;Tu 10:00 - 20:00 ;We 10:00 - 20:00 ;Fr 10:00 - 20:00 ;Th 10:00 - 20:00 ;Sa 10:00 - 18:00 ;Su 10:30 - 16:30 ;", "brand": "Carphone Warehouse"}, "geometry": {"type": "Point", "coordinates": [-2.126973, 52.579151]}},
{"type": "Feature", "id": "5K2aB-tgOz17sDxd2XNJxGQkRIE=", "properties": {"ref": "a7341", "@spider": "carphonewarehouse", "addr:full": "Currys,  Unit 4 Gallagher Shopping Park,  Axletree Way", "addr:city": " Wednesbury", "addr:postcode": "WS10 9QY", "addr:country": "United Kingdom", "name": "Wednesbury J9", "phone": "03438165041", "opening_hours": "Mo 09:00 - 20:00 ;Tu 09:00 - 20:00 ;We 09:00 - 20:00 ;Fr 09:00 - 20:00 ;Th 09:00 - 20:00 ;Sa 09:00 - 20:00 ;Su 10:30 - 16:30 ;", "brand": "Carphone Warehouse"}, "geometry": {"type": "Point", "coordinates": [-2.007816, 52.566792]}},
{"type": "Feature", "id": "TFP9VEDJxClzBYMv6z7EP80AYc0=", "properties": {"ref": "a7580", "@spider": "carphonewarehouse", "addr:full": "Currys,  Unit A Princess Alice Retail Park", "addr:city": " Sutton Coldfield", "addr:postcode": "B73 6RB", "addr:country": "United Kingdom", "name": "Sutton Coldfield", "phone": "03438165280", "opening_hours": "Mo 10:00 - 20:00 ;Tu 10:00 - 20:00 ;We 10:00 - 20:00 ;Fr 10:00 - 20:00 ;Th 10:00 - 20:00 ;Sa 10:00 - 18:00 ;Su 10:30 - 16:30 ;", "brand": "Carphone Warehouse"}, "geometry": {"type": "Point", "coordinates": [-1.861346, 52.55069]}},
{"type": "Feature", "id": "KogQWTEKyEidgTrmiZ2NXaZSkow=", "properties": {"ref": "a7452", "@spider": "carphonewarehouse", "addr:full": "Currys,  Unit 2 St Georges Retail Park", "addr:city": " Leicester", "addr:postcode": "LE1 1SG", "addr:country": "United Kingdom", "name": "Leicester St Georges", "phone": "03438165152", "opening_hours": "Mo 10:00 - 20:00 ;Tu 10:00 - 20:00 ;We 10:00 - 20:00 ;Fr 10:00 - 20:00 ;Th 10:00 - 20:00 ;Sa 10:00 - 19:00 ;Su 11:00 - 17:00 ;", "brand": "Carphone Warehouse"}, "geometry": {"type": "Point", "coordinates": [-1.119661, 52.63645]}},
{"type": "Feature", "id": "XH0DOH0rmYfVp7wh2ZNCPVufkKI=", "properties": {"ref": "a7338", "@spider": "carphonewarehouse", "addr:full": "Currys,  Unit 1  Fosse Park South", "addr:city": " Leicester", "addr:postcode": "LE19 1UT", "addr:country": "United Kingdom", "name": "Leicester Fosse", "phone": "03438165038", "opening_hours": "Mo 10:00 - 21:00 ;Tu 10:00 - 21:00 ;We 10:00 - 21:00 ;Fr 10:00 - 21:00 ;Th 10:00 - 21:00 ;Sa 10:00 - 20:00 ;Su 11:00 - 17:00 ;", "brand": "Carphone Warehouse"}, "geometry": {"type": "Point", "coordinates": [-1.177211, 52.595475]}},
{"type": "Feature", "id": "2-_uS-uAwkoPUoE089Iceij1Xa0=", "properties": {"ref": "a7695", "@spider": "carphonewarehouse", "addr:full": "Currys,  Unit 3-4 Castle Vale Retail Park,  Chester Road,  Birmingham", "addr:city": " West Midlands", "addr:postcode": "B35 6HB", "addr:country": "United Kingdom", "name": "Birmingham Castle Vale", "phone": "03443721555", "opening_hours": "Mo 10:00 - 20:00 ;Tu 10:00 - 20:00 ;We 10:00 - 20:00 ;Fr 10:00 - 20:00 ;Th 10:00 - 20:00 ;Sa 10:00 - 18:00 ;Su 10:30 - 16:30 ;", "brand": "Carphone Warehouse"}, "geometry": {"type": "Point", "coordinates": [-1.797665, 52.517097]}},
{"type": "Feature", "id": "6gR-zsQhcWpz3SVJm45iS20pLx8=", "properties": {"ref": "a7485", "@spider": "carphonewarehouse", "addr:full": "Currys,  West Street", "addr:city": " Boston", "addr:postcode": "PE21 8RJ", "addr:country": "United Kingdom", "name": "Boston", "phone": "03438165185", "opening_hours": "Mo 10:00 - 20:00 ;Tu 10:00 - 20:00 ;We 10:00 - 20:00 ;Fr 10:00 - 20:00 ;Th 10:00 - 20:00 ;Sa 10:00 - 18:00 ;Su 10:00 - 16:00 ;", "brand": "Carphone Warehouse"}, "geometry": {"type": "Point", "coordinates": [-0.031092, 52.976892]}},
{"type": "Feature", "id": "Xs7_PM8hgjgtbnUSiObClbGPEgU=", "properties": {"ref": "a7492", "@spider": "carphonewarehouse", "addr:full": "Currys,  Unit 6-8 Merry Hill Retail Park", "addr:city": " Brierley Hill", "addr:postcode": "DY5 1SY", "addr:country": "United Kingdom", "name": "Merry Hill Retail Park", "phone": "03438165192", "opening_hours": "Mo 10:00 - 20:00 ;Tu 10:00 - 20:00 ;We 10:00 - 20:00 ;Fr 10:00 - 20:00 ;Th 10:00 - 20:00 ;Sa 10:00 - 18:00 ;Su 10:30 - 16:30 ;", "brand": "Carphone Warehouse"}, "geometry": {"type": "Point", "coordinates": [-2.1113974, 52.477833]}},
{"type": "Feature", "id": "Gl3wv7Vo1oWQyBV3FVZTIY9HMjU=", "properties": {"ref": "a7651", "@spider": "carphonewarehouse", "addr:full": "Currys,  Unit C Skegness Retail Park,  Heath Road", "addr:city": " Skegness", "addr:postcode": "PE25 3ST", "addr:country": "United Kingdom", "name": "Skegness", "phone": "03443721050", "opening_hours": "Mo 10:00 - 20:00 ;Tu 10:00 - 20:00 ;We 10:00 - 20:00 ;Fr 10:00 - 20:00 ;Th 10:00 - 20:00 ;Sa 10:00 - 18:00 ;Su 10:00 - 16:00 ;", "brand": "Carphone Warehouse"}, "geometry": {"type": "Point", "coordinates": [0.319473, 53.142745]}},
{"type": "Feature", "id": "Alzp_sE9k4kuAkK_51iJtr01Cmk=", "properties": {"ref": "a7671", "@spider": "carphonewarehouse", "addr:full": "Currys,  UNIT 11A KINNAIRD RETAIL PARK", "addr:city": " City of Edinburgh", "addr:postcode": "EH15 3RD", "addr:country": "United Kingdom", "name": "Edinburgh Kinnaird", "phone": "03443721670", "opening_hours": "Mo 09:00 - 20:00 ;Tu 09:00 - 20:00 ;We 09:00 - 20:00 ;Fr 09:00 - 20:00 ;Th 09:00 - 20:00 ;Sa 09:00 - 18:00 ;Su 10:00 - 18:00 ;", "brand": "Carphone Warehouse"}, "geometry": {"type": "Point", "coordinates": [-3.10572, 55.93506]}},
{"type": "Feature", "id": "e1HuWtMsPDZH3fVp1eXhOCThe-I=", "properties": {"ref": "a7564", "@spider": "carphonewarehouse", "addr:full": "Currys,  Unit 2,  Upper Conybere Street,  Highgate Middleway", "addr:city": " Birmingham", "addr:postcode": "B12 0EB", "addr:country": "United Kingdom", "name": "Birmingham Highgate", "phone": "03438165264", "opening_hours": "Mo 10:00 - 20:00 ;Tu 10:00 - 20:00 ;We 10:00 - 20:00 ;Fr 10:00 - 20:00 ;Th 10:00 - 20:00 ;Sa 10:00 - 18:00 ;Su 11:00 - 17:00 ;", "brand": "Carphone Warehouse"}, "geometry": {"type": "Point", "coordinates": [-1.885036, 52.464408]}},
{"type": "Feature", "id": "-z6WX2tgpZyobDpT-c9bx_KyL2o=", "properties": {"ref": "a7334", "@spider": "carphonewarehouse", "addr:full": "Currys,  Unit 3A Battery Retail Park,  Selly Oak", "addr:city": " Birmingham", "addr:postcode": "B29 6SJ", "addr:country": "United Kingdom", "name": "Birmingham Selly Oak", "phone": "03438165034", "opening_hours": "Mo 10:00 - 20:00 ;Tu 10:00 - 20:00 ;We 10:00 - 20:00 ;Fr 10:00 - 20:00 ;Th 10:00 - 20:00 ;Sa 10:00 - 18:00 ;Su 10:30 - 16:30 ;", "brand": "Carphone Warehouse"}, "geometry": {"type": "Point", "coordinates": [-1.938859, 52.441992]}},
{"type": "Feature", "id": "U0CqYERiFoIWfBp6y-FSGp7_wjQ=", "properties": {"ref": "a7697", "@spider": "carphonewarehouse", "addr:full": "Currys,  Unit 9B Arena Shopping Park,  Classic Drive,  Coventry", "addr:city": " West Midlands", "addr:postcode": "CV6 6AS", "addr:country": "United Kingdom", "name": "Coventry Arena", "phone": "03443721547", "opening_hours": "Mo 10:00 - 20:00 ;Tu 10:00 - 20:00 ;We 10:00 - 20:00 ;Fr 10:00 - 20:00 ;Th 10:00 - 20:00 ;Sa 10:00 - 18:00 ;Su 10:30 - 16:30 ;", "brand": "Carphone Warehouse"}, "geometry": {"type": "Point", "coordinates": [-1.492852, 52.4461]}},
{"type": "Feature", "id": "jvYcDxf5UnUmVGcyODqEzW_bpjM=", "properties": {"ref": "a7360", "@spider": "carphonewarehouse", "addr:full": "Currys,  Unit 2A Almondvale Retail Park", "addr:city": " Livingston", "addr:postcode": "EH54 6RQ", "addr:country": "United Kingdom", "name": "Livingston", "phone": "03438165060", "opening_hours": "Mo 10:00 - 20:00 ;Tu 10:00 - 20:00 ;We 10:00 - 20:00 ;Fr 10:00 - 20:00 ;Th 10:00 - 20:00 ;Sa 10:00 - 18:00 ;Su 10:00 - 18:00 ;", "brand": "Carphone Warehouse"}, "geometry": {"type": "Point", "coordinates": [-3.522899, 55.881294]}},
{"type": "Feature", "id": "VTxq1zjRxoxyaJ_OSXgn-JlFbyc=", "properties": {"ref": "a7652", "@spider": "carphonewarehouse", "addr:full": "Currys,  Unit 16 Craigleith Retail Park,  South Groathill Ave", "addr:city": " Edinburgh", "addr:postcode": "EH4 2LN", "addr:country": "United Kingdom", "name": "Edinburgh Craigleith", "phone": "03443721432", "opening_hours": "Mo 10:00 - 20:00 ;Tu 10:00 - 20:00 ;We 10:00 - 20:00 ;Fr 10:00 - 20:00 ;Th 10:00 - 20:00 ;Sa 10:00 - 18:00 ;Su 10:00 - 18:00 ;", "brand": "Carphone Warehouse"}, "geometry": {"type": "Point", "coordinates": [-3.242167, 55.958379]}},
{"type": "Feature", "id": "1U7kTA2PXXQRq35FlLg-P61LW9o=", "properties": {"ref": "a7537", "@spider": "carphonewarehouse", "addr:full": "Currys,  Unit 3 Stamford Retail Park,  Ryhall Road", "addr:city": " Stamford", "addr:postcode": "PE9 1TX", "addr:country": "United Kingdom", "name": "Stamford", "phone": "03438165237", "opening_hours": "Mo 10:00 - 20:00 ;Tu 10:00 - 20:00 ;We 10:00 - 20:00 ;Fr 10:00 - 20:00 ;Th 10:00 - 20:00 ;Sa 10:00 - 18:00 ;Su 10:00 - 16:00 ;", "brand": "Carphone Warehouse"}, "geometry": {"type": "Point", "coordinates": [-0.465449, 52.658171]}},
{"type": "Feature", "id": "K6jjh0pZm7dvQfXsI6KeLPqTwLY=", "properties": {"ref": "a7364", "@spider": "carphonewarehouse", "addr:full": "Currys,  Unit C Solihull Retail Park,  Chalford Way", "addr:city": " Solihull", "addr:postcode": "B90 4LD", "addr:country": "United Kingdom", "name": "Solihull", "phone": "03438165064", "opening_hours": "Mo 10:00 - 20:00 ;Tu 10:00 - 20:00 ;We 10:00 - 20:00 ;Fr 10:00 - 20:00 ;Th 10:00 - 20:00 ;Sa 10:00 - 19:00 ;Su 10:30 - 16:30 ;", "brand": "Carphone Warehouse"}, "geometry": {"type": "Point", "coordinates": [-1.818975, 52.400173]}},
{"type": "Feature", "id": "ThG18OQ8pVswOqcwVkKpMNzCXT8=", "properties": {"ref": "a7440", "@spider": "carphonewarehouse", "addr:full": "Currys,  Unit K Crossley Retail Park", "addr:city": " Kidderminster", "addr:postcode": "DY11 6DY", "addr:country": "United Kingdom", "name": "Kidderminster Crossley", "phone": "03438165140", "opening_hours": "Mo 10:00 - 20:00 ;Tu 10:00 - 20:00 ;We 10:00 - 20:00 ;Fr 10:00 - 20:00 ;Th 10:00 - 20:00 ;Sa 10:00 - 18:00 ;Su 10:30 - 16:30 ;", "brand": "Carphone Warehouse"}, "geometry": {"type": "Point", "coordinates": [-2.254665, 52.389862]}},
{"type": "Feature", "id": "1lxgnsx1q8MHJ3JAnuyX_rHZ4xE=", "properties": {"ref": "a7379", "@spider": "carphonewarehouse", "addr:full": "Currys,  Unit 1 Airport Retail Park", "addr:city": " Coventry", "addr:postcode": "CV 3 4RP", "addr:country": "United Kingdom", "name": "Coventry", "phone": "03438165079", "opening_hours": "Mo 10:00 - 20:00 ;Tu 10:00 - 20:00 ;We 10:00 - 20:00 ;Fr 10:00 - 20:00 ;Th 10:00 - 20:00 ;Sa 09:00 - 19:00 ;Su 10:30 - 16:30 ;", "brand": "Carphone Warehouse"}, "geometry": {"type": "Point", "coordinates": [-1.463971, 52.380434]}},
{"type": "Feature", "id": "1XBpAVL8G4RrHe-Qvw_MhYUbCOs=", "properties": {"ref": "a7370", "@spider": "carphonewarehouse", "addr:full": "Currys,  Unit 7 Palace Grounds Retail Park", "addr:city": " Hamilton", "addr:postcode": "ML3 6AD", "addr:country": "United Kingdom", "name": "Hamilton", "phone": "03438165070", "opening_hours": "Mo 10:00 - 20:00 ;Tu 10:00 - 20:00 ;We 10:00 - 20:00 ;Fr 10:00 - 20:00 ;Th 10:00 - 20:00 ;Sa 09:00 - 18:00 ;Su 10:00 - 18:00 ;", "brand": "Carphone Warehouse"}, "geometry": {"type": "Point", "coordinates": [-4.026725, 55.778939]}},
{"type": "Feature", "id": "tl78c48OVy2u0UmmS_T3NgeEM0M=", "properties": {"ref": "a7558", "@spider": "carphonewarehouse", "addr:full": "Currys,  Unit 9 Heathfield Retail Park,  Liberator Drive", "addr:city": " Ayr", "addr:postcode": "KA8 9BF", "addr:country": "United Kingdom", "name": "Ayr", "phone": "03443721690", "opening_hours": "Mo 10:00 - 20:00 ;Tu 10:00 - 20:00 ;We 10:00 - 20:00 ;Fr 10:00 - 20:00 ;Th 10:00 - 20:00 ;Sa 09:00 - 18:00 ;Su 10:00 - 17:00 ;", "brand": "Carphone Warehouse"}, "geometry": {"type": "Point", "coordinates": [-4.594297, 55.48231]}},
{"type": "Feature", "id": "WYlFL_fGInDSafrjdXJyish9yqg=", "properties": {"ref": "a7392", "@spider": "carphonewarehouse", "addr:full": "Currys,  Unit 1 Junction 1 Retail Park", "addr:city": " Rugby", "addr:postcode": "CV21 1RW", "addr:country": "United Kingdom", "name": "Rugby", "phone": "03438165092", "opening_hours": "Mo 10:00 - 20:00 ;Tu 10:00 - 20:00 ;We 10:00 - 20:00 ;Fr 10:00 - 20:00 ;Th 10:00 - 20:00 ;Sa 10:00 - 18:00 ;Su 10:30 - 16:30 ;", "brand": "Carphone Warehouse"}, "geometry": {"type": "Point", "coordinates": [-1.259501, 52.385187]}},
{"type": "Feature", "id": "v_K7OFyquwrwbJxgYrnftNVhKIA=", "properties": {"ref": "a7655", "@spider": "carphonewarehouse", "addr:full": "Currys,  Unit 15 The Peel Centre,  Phoenix Park Way", "addr:city": " Corby", "addr:postcode": "NN17 5DT", "addr:country": "United Kingdom", "name": "Corby Peel Centre", "phone": "03443721220", "opening_hours": "Mo 10:00 - 20:00 ;Tu 10:00 - 20:00 ;We 10:00 - 20:00 ;Fr 10:00 - 20:00 ;Th 10:00 - 20:00 ;Sa 10:00 - 18:00 ;Su 10:00 - 16:00 ;", "brand": "Carphone Warehouse"}, "geometry": {"type": "Point", "coordinates": [-0.682204, 52.495418]}},
{"type": "Feature", "id": "vadvnVehUen7dEYBgfiIUxAMIb4=", "properties": {"ref": "a7675", "@spider": "carphonewarehouse", "addr:full": "Currys,  Unit 2 Queens Drive Retail Park", "addr:city": " Kilmarnock", "addr:postcode": "KA1 3XB", "addr:country": "United Kingdom", "name": "Kilmarnock", "phone": "03443721515", "opening_hours": "Mo 10:00 - 20:00 ;Tu 10:00 - 20:00 ;We 10:00 - 20:00 ;Fr 10:00 - 20:00 ;Th 10:00 - 20:00 ;Sa 09:00 - 18:00 ;Su 10:00 - 17:00 ;", "brand": "Carphone Warehouse"}, "geometry": {"type": "Point", "coordinates": [-4.487591, 55.601439]}},
{"type": "Feature", "id": "eh_nbdwY1fxLsMC6K1nm0sO07CQ=", "properties": {"ref": "a7577", "@spider": "carphonewarehouse", "addr:full": "Currys,  Unit 4 Howard Avenue", "addr:city": " East Kilbride", "addr:postcode": "G 74 4ZA", "addr:country": "United Kingdom", "name": "East Kilbride", "phone": "03438165277", "opening_hours": "Mo 10:00 - 20:00 ;Tu 10:00 - 20:00 ;We 10:00 - 20:00 ;Fr 10:00 - 20:00 ;Th 10:00 - 20:00 ;Sa 09:00 - 18:00 ;Su 10:00 - 17:30 ;", "brand": "Carphone Warehouse"}, "geometry": {"type": "Point", "coordinates": [-4.165605665, 55.77967788]}},
{"type": "Feature", "id": "Tt4kuuTaXC106blTg8TI36NaRxs=", "properties": {"ref": "a7431", "@spider": "carphonewarehouse", "addr:full": "Currys,  Unit 17 Faraday Retail Park", "addr:city": " Coatbridge", "addr:postcode": "ML5 3SQ", "addr:country": "United Kingdom", "name": "Coatbridge", "phone": "03438165131", "opening_hours": "Mo 10:00 - 20:00 ;Tu 10:00 - 20:00 ;We 10:00 - 20:00 ;Fr 10:00 - 20:00 ;Th 10:00 - 20:00 ;Sa 10:00 - 18:00 ;Su 10:00 - 18:00 ;", "brand": "Carphone Warehouse"}, "geometry": {"type": "Point", "coordinates": [-4.024456, 55.858668]}},
{"type": "Feature", "id": "cWJP-N6RFB8UQH7jvX_RVzGoSls=", "properties": {"ref": "a7584", "@spider": "carphonewarehouse", "addr:full": "Unit 4 Maskew Retail Park,  Maskew Avenue,  Peterborough", "addr:city": " Cambridgeshire", "addr:postcode": "PE1 2BT", "addr:country": "United Kingdom", "name": "Peterborough", "phone": "TBC", "opening_hours": "Mo 09:00 - 20:00 ;Tu 09:00 - 20:00 ;We 09:00 - 20:00 ;Fr 09:00 - 20:00 ;Th 09:00 - 20:00 ;Sa 09:00 - 18:00 ;Su 10:00 - 16:00 ;", "brand": "Carphone Warehouse"}, "geometry": {"type": "Point", "coordinates": [-0.26008, 52.593359]}},
{"type": "Feature", "id": "9x5UEBrYLz9f3kRLj0cj5mob3SA=", "properties": {"ref": "a7518", "@spider": "carphonewarehouse", "addr:full": "Currys,  Rannoch Road,  Birkenshaw Industrial Estate", "addr:city": " Uddingston", "addr:postcode": "G71 5PR", "addr:country": "United Kingdom", "name": "Uddingston", "phone": "03438165218", "opening_hours": "Mo 10:00 - 20:00 ;Tu 10:00 - 20:00 ;We 10:00 - 20:00 ;Fr 10:00 - 20:00 ;Th 10:00 - 20:00 ;Sa 09:00 - 18:00 ;Su 10:00 - 18:00 ;", "brand": "Carphone Warehouse"}, "geometry": {"type": "Point", "coordinates": [-4.088577, 55.837272]}},
{"type": "Feature", "id": "A11yYoqanjNQaPv8QqIiTRUiu7g=", "properties": {"ref": "a7507", "@spider": "carphonewarehouse", "addr:full": "Currys,  Unit 5 Halbeath Retail Park", "addr:city": " Dunfermline", "addr:postcode": "KY11 4LP", "addr:country": "United Kingdom", "name": "Dunfermline", "phone": "03438165207", "opening_hours": "Mo 10:00 - 20:00 ;Tu 10:00 - 20:00 ;We 10:00 - 20:00 ;Fr 10:00 - 20:00 ;Th 10:00 - 20:00 ;Sa 09:00 - 18:00 ;Su 10:00 - 17:30 ;", "brand": "Carphone Warehouse"}, "geometry": {"type": "Point", "coordinates": [-3.40923, 56.081413]}},
{"type": "Feature", "id": "9VJb8OsZyOLDwoasWjPn-C9_IZI=", "properties": {"ref": "a7307", "@spider": "carphonewarehouse", "addr:full": "Currys,  Unit 1 The Shires Retail Park", "addr:city": " Leamington Spa", "addr:postcode": "CV34 6RH", "addr:country": "United Kingdom", "name": "Leamington Shires", "phone": "03438165007", "opening_hours": "Mo 10:00 - 20:00 ;Tu 10:00 - 20:00 ;We 10:00 - 20:00 ;Fr 10:00 - 20:00 ;Th 10:00 - 20:00 ;Sa 10:00 - 18:00 ;Su 10:30 - 16:30 ;", "brand": "Carphone Warehouse"}, "geometry": {"type": "Point", "coordinates": [-1.54712, 52.28064]}},
{"type": "Feature", "id": "AxXM3nsMXskkyb1tO6J7uRLGkdw=", "properties": {"ref": "a7447", "@spider": "carphonewarehouse", "addr:full": "Currys,  Unit 5 Fife Central Retail Park", "addr:city": " Kirkcaldy", "addr:postcode": "KY 2 6QL", "addr:country": "United Kingdom", "name": "Kirkcaldy", "phone": "03438165147", "opening_hours": "Mo 10:00 - 20:00 ;Tu 10:00 - 20:00 ;We 10:00 - 20:00 ;Fr 10:00 - 20:00 ;Th 10:00 - 20:00 ;Sa 09:00 - 18:00 ;Su 10:00 - 17:00 ;", "brand": "Carphone Warehouse"}, "geometry": {"type": "Point", "coordinates": [-3.198597, 56.135368]}},
{"type": "Feature", "id": "E83UTYGxPNmDN-86NWzxOKlt88w=", "properties": {"ref": "a7547", "@spider": "carphonewarehouse", "addr:full": "Currys,  Unit 3 Belgrave Retail Park", "addr:city": " Kettering", "addr:postcode": "NN16 9XZ", "addr:country": "United Kingdom", "name": "Kettering", "phone": "03438165247", "opening_hours": "Mo 10:00 - 20:00 ;Tu 10:00 - 20:00 ;We 10:00 - 20:00 ;Fr 10:00 - 20:00 ;Th 10:00 - 20:00 ;Sa 10:00 - 18:00 ;Su 10:00 - 16:00 ;", "brand": "Carphone Warehouse"}, "geometry": {"type": "Point", "coordinates": [-0.735173, 52.404597]}},
{"type": "Feature", "id": "xU0Xv9aDyNixv6vUwL8l_-NTqZk=", "properties": {"ref": "a7387", "@spider": "carphonewarehouse", "addr:full": "Currys,  Unit 9 Central Retail Park", "addr:city": " Falkirk", "addr:postcode": "FK 1 1LW", "addr:country": "United Kingdom", "name": "Falkirk", "phone": "03438165087", "opening_hours": "Mo 10:00 - 20:00 ;Tu 10:00 - 20:00 ;We 10:00 - 20:00 ;Fr 10:00 - 20:00 ;Th 10:00 - 20:00 ;Sa 10:00 - 18:00 ;Su 10:00 - 18:00 ;", "brand": "Carphone Warehouse"}, "geometry": {"type": "Point", "coordinates": [-3.7799033, 56.003774]}},
{"type": "Feature", "id": "qTE-yu-zbQfg0UJw8ruEDdrX0vY=", "properties": {"ref": "a7557", "@spider": "carphonewarehouse", "addr:full": "Unit 12 Forge Retail Park,  61 Biggar Street,  Glasgow", "addr:city": " Glasgow City", "addr:postcode": "G31 4BH", "addr:country": "United Kingdom", "name": "(SWAS) Glasgow Forge", "phone": "tbc", "opening_hours": "Mo 10:00 - 20:00 ;Tu 10:00 - 20:00 ;We 10:00 - 20:00 ;Fr 10:00 - 20:00 ;Th 10:00 - 20:00 ;Sa 10:00 - 18:00 ;Su 10:00 - 17:00 ;", "brand": "Carphone Warehouse"}, "geometry": {"type": "Point", "coordinates": [-4.19986, 55.853487]}},
{"type": "Feature", "id": "9vp3k14QkYJQRpW4Ru40Y6Lj2O8=", "properties": {"ref": "a7569", "@spider": "carphonewarehouse", "addr:full": "Unit 2&3 Linkway Retail Park,  Watling Street,  Cannock", "addr:city": " Staffordshire", "addr:postcode": "WS11 1TD", "addr:country": "United Kingdom", "name": "(SWAS) Cannock Linkway", "phone": "tbc", "opening_hours": "Mo 10:00 - 20:00 ;Tu 10:00 - 20:00 ;We 10:00 - 20:00 ;Fr 10:00 - 20:00 ;Th 10:00 - 20:00 ;Sa 10:00 - 18:00 ;Su 10:00 - 16:00 ;", "brand": "Carphone Warehouse"}, "geometry": {"type": "Point", "coordinates": [-4.19986, 55.853487]}},
{"type": "Feature", "id": "BJN8OjbBpcwVCweBCGl9xNUXtb0=", "properties": {"ref": "a7686", "@spider": "carphonewarehouse", "addr:full": "Currys,  Unit 7 Riverway Retail Park", "addr:city": " Irvine", "addr:postcode": "KA12 8AG", "addr:country": "United Kingdom", "name": "Irvine Riverway", "phone": "03443721188", "opening_hours": "Mo 10:00 - 20:00 ;Tu 10:00 - 20:00 ;We 10:00 - 20:00 ;Fr 10:00 - 20:00 ;Th 10:00 - 20:00 ;Sa 09:00 - 18:00 ;Su 10:00 - 17:00 ;", "brand": "Carphone Warehouse"}, "geometry": {"type": "Point", "coordinates": [-4.672269, 55.609227]}},
{"type": "Feature", "id": "PitErgzy59mDOg1K7HNKtu1ed58=", "properties": {"ref": "a7572", "@spider": "carphonewarehouse", "addr:full": "Currys,  Unit 5 Blackpole Retail Park", "addr:city": " Worcester", "addr:postcode": "WR 3 8PQ", "addr:country": "United Kingdom", "name": "Worcester Blackpole", "phone": "03438165272", "opening_hours": "Mo 10:00 - 20:00 ;Tu 10:00 - 20:00 ;We 10:00 - 20:00 ;Fr 10:00 - 20:00 ;Th 10:00 - 20:00 ;Sa 10:00 - 18:00 ;Su 10:30 - 16:30 ;", "brand": "Carphone Warehouse"}, "geometry": {"type": "Point", "coordinates": [-2.200445, 52.213034]}},
{"type": "Feature", "id": "PAmuARBes2BYs7WwmYxPD0DKoDE=", "properties": {"ref": "a7696", "@spider": "carphonewarehouse", "addr:full": "Currys,  Unit 3,  Maybrook Retail Park,  Birmingham Rd", "addr:city": " Stratford-upon-Avon", "addr:postcode": "CV37 0BT", "addr:country": "United Kingdom", "name": "Stratford Upon Avon", "phone": "03443721696", "opening_hours": "Mo 10:00 - 20:00 ;Tu 10:00 - 20:00 ;We 10:00 - 20:00 ;Fr 10:00 - 20:00 ;Th 10:00 - 20:00 ;Sa 10:00 - 18:00 ;Su 10:30 - 16:30 ;", "brand": "Carphone Warehouse"}, "geometry": {"type": "Point", "coordinates": [-1.712763, 52.198786]}},
{"type": "Feature", "id": "kbGa1z3S1x0o6zAJE824TPg8vOU=", "properties": {"ref": "a7539", "@spider": "carphonewarehouse", "addr:full": "Currys,  Units B/C Belgrave Retail Park,  Cromwell Road", "addr:city": " Wisbech", "addr:postcode": "PE14 0SL", "addr:country": "United Kingdom", "name": "Wisbech", "phone": "03438165239", "opening_hours": "Mo 10:00 - 19:00 ;Tu 10:00 - 19:00 ;We 10:00 - 19:00 ;Fr 10:00 - 19:00 ;Th 10:00 - 19:00 ;Sa 09:00 - 18:00 ;Su 10:00 - 16:00 ;", "brand": "Carphone Warehouse"}, "geometry": {"type": "Point", "coordinates": [0.147146, 52.652204]}},
{"type": "Feature", "id": "-P51CtV40YqXAwnjBW-TbR9CyiE=", "properties": {"ref": "a7540", "@spider": "carphonewarehouse", "addr:full": "Currys,  Unit 7 Strathkelvin Retail Park", "addr:city": " Bishopbriggs", "addr:postcode": "G64 2TS", "addr:country": "United Kingdom", "name": "Bishopbriggs", "phone": "03438165240", "opening_hours": "Mo 10:00 - 20:00 ;Tu 10:00 - 20:00 ;We 10:00 - 20:00 ;Fr 10:00 - 20:00 ;Th 10:00 - 20:00 ;Sa 10:00 - 18:00 ;Su 10:00 - 18:00 ;", "brand": "Carphone Warehouse"}, "geometry": {"type": "Point", "coordinates": [-4.207964, 55.920889]}},
{"type": "Feature", "id": "aAZHIXwoBRWuOysbKrtxYBv-6cQ=", "properties": {"ref": "a7358", "@spider": "carphonewarehouse", "addr:full": "Currys,  Unit G Braehead Retail Park", "addr:city": " Renfrew", "addr:postcode": "G51 4BT", "addr:country": "United Kingdom", "name": "Glasgow Braehead", "phone": "03438165058", "opening_hours": "Mo 09:00 - 20:00 ;Tu 09:00 - 20:00 ;We 09:00 - 20:00 ;Fr 09:00 - 20:00 ;Th 09:00 - 20:00 ;Sa 09:00 - 18:00 ;Su 10:00 - 18:00 ;", "brand": "Carphone Warehouse"}, "geometry": {"type": "Point", "coordinates": [-4.358654, 55.873867]}},
{"type": "Feature", "id": "iehSyOsrXT-PVVpMXMmLgXgrS70=", "properties": {"ref": "a7321", "@spider": "carphonewarehouse", "addr:full": "Currys,  Unit 1-2 Great Western Retail Park", "addr:city": " Glasgow", "addr:postcode": "G15 6RX", "addr:country": "United Kingdom", "name": "Glasgow Great Western", "phone": "03438165021", "opening_hours": "Mo 10:00 - 20:00 ;Tu 10:00 - 20:00 ;We 10:00 - 20:00 ;Fr 10:00 - 20:00 ;Th 10:00 - 20:00 ;Sa 10:00 - 18:00 ;Su 10:00 - 18:00 ;", "brand": "Carphone Warehouse"}, "geometry": {"type": "Point", "coordinates": [-4.377569, 55.905026]}},
{"type": "Feature", "id": "1BSC8I_nrrJhCGrwsdYBjFP69y0=", "properties": {"ref": "a7415", "@spider": "carphonewarehouse", "addr:full": "Currys,  Unit 4A Nene Valley Retail Park", "addr:city": " Northampton", "addr:postcode": "NN 1 1ET", "addr:country": "United Kingdom", "name": "Northampton Nene Valley", "phone": "03438165115", "opening_hours": "Mo 10:00 - 20:00 ;Tu 10:00 - 20:00 ;We 10:00 - 20:00 ;Fr 10:00 - 20:00 ;Th 10:00 - 20:00 ;Sa 10:00 - 18:00 ;Su 10:30 - 16:30 ;", "brand": "Carphone Warehouse"}, "geometry": {"type": "Point", "coordinates": [-0.90604, 52.23127]}},
{"type": "Feature", "id": "INaKB3t2AFYgNmlp-93bUVLLZuo=", "properties": {"ref": "a7436", "@spider": "carphonewarehouse", "addr:full": "Currys,  Unit I Riverside Retail Park", "addr:city": " Northampton", "addr:postcode": "NN3 9HU", "addr:country": "United Kingdom", "name": "Northampton Riverside", "phone": "03438165136", "opening_hours": "Mo 10:00 - 20:00 ;Tu 10:00 - 20:00 ;We 10:00 - 20:00 ;Fr 10:00 - 20:00 ;Th 10:00 - 20:00 ;Sa 10:00 - 18:00 ;Su 10:30 - 16:30 ;", "brand": "Carphone Warehouse"}, "geometry": {"type": "Point", "coordinates": [-0.841323, 52.241165]}},
{"type": "Feature", "id": "MgXFNUGQ07WbwayEgrRDt2MlOEI=", "properties": {"ref": "a7678", "@spider": "carphonewarehouse", "addr:full": "Currys,  25 Springkerse Retail Park", "addr:city": " Stirling", "addr:postcode": "FK 7 7TL", "addr:country": "United Kingdom", "name": "Stirling", "phone": "03443721078", "opening_hours": "Mo 10:00 - 20:00 ;Tu 10:00 - 20:00 ;We 10:00 - 20:00 ;Fr 10:00 - 20:00 ;Th 10:00 - 20:00 ;Sa 10:00 - 18:00 ;Su 10:00 - 17:30 ;", "brand": "Carphone Warehouse"}, "geometry": {"type": "Point", "coordinates": [-3.907743, 56.113719]}},
{"type": "Feature", "id": "1CE-NPG84cO1i7TKB_VWwSt4wIo=", "properties": {"ref": "a7596", "@spider": "carphonewarehouse", "addr:full": "Currys,  Unit 1 Clandeboye Retail Park", "addr:city": " Bangor", "addr:postcode": "BT19 1AR", "addr:country": "United Kingdom", "name": "Bangor Clandeboye", "phone": "03438165296", "opening_hours": "Mo 10:00 - 20:00 ;Tu 10:00 - 20:00 ;We 10:00 - 20:00 ;Fr 10:00 - 20:00 ;Th 10:00 - 20:00 ;Sa 10:00 - 18:00 ;Su 13:00 - 18:00 ;", "brand": "Carphone Warehouse"}, "geometry": {"type": "Point", "coordinates": [-5.6853, 54.64649]}},
{"type": "Feature", "id": "S2LaGHbT2ZtRz9k6Qkji2OefOyw=", "properties": {"ref": "a7497", "@spider": "carphonewarehouse", "addr:full": "Currys,  Unit A Springfield Drive", "addr:city": " Evesham", "addr:postcode": "WR11 1DJ", "addr:country": "United Kingdom", "name": "Evesham", "phone": "03438165197", "opening_hours": "Mo 10:00 - 20:00 ;Tu 10:00 - 20:00 ;We 10:00 - 20:00 ;Fr 10:00 - 20:00 ;Th 10:00 - 20:00 ;Sa 10:00 - 18:00 ;Su 10:00 - 16:00 ;", "brand": "Carphone Warehouse"}, "geometry": {"type": "Point", "coordinates": [-1.93976, 52.07853]}},
{"type": "Feature", "id": "uzQqp5VGNJJfq_JA4E_F-4vebnM=", "properties": {"ref": "a7600", "@spider": "carphonewarehouse", "addr:full": "Currys,  Unit 2 Parc Y Llyn", "addr:city": " Aberystwyth", "addr:postcode": "SY23 3TL", "addr:country": "United Kingdom", "name": "Aberystwyth", "phone": "03443721700", "opening_hours": "Mo 10:00 - 20:00 ;Tu 10:00 - 20:00 ;We 10:00 - 20:00 ;Fr 10:00 - 20:00 ;Th 10:00 - 20:00 ;Sa 10:00 - 18:00 ;Su 10:30 - 16:30 ;", "brand": "Carphone Warehouse"}, "geometry": {"type": "Point", "coordinates": [-4.069003, 52.406056]}},
{"type": "Feature", "id": "2x5ksbqEU1alW-V_KBsBr4IvuSA=", "properties": {"ref": "a7302", "@spider": "carphonewarehouse", "addr:full": "Currys,  Unit 2 Banbury Cross Retail Park", "addr:city": " Banbury", "addr:postcode": "OX16 1LX", "addr:country": "United Kingdom", "name": "Banbury Cross", "phone": "03438165002", "opening_hours": "Mo 10:00 - 20:00 ;Tu 10:00 - 20:00 ;We 10:00 - 20:00 ;Fr 10:00 - 20:00 ;Th 10:00 - 20:00 ;Sa 10:00 - 18:00 ;Su 10:30 - 16:30 ;", "brand": "Carphone Warehouse"}, "geometry": {"type": "Point", "coordinates": [-1.343014, 52.07312]}},
{"type": "Feature", "id": "SIYjh0HS95_bccbIHwjHKtucqjA=", "properties": {"ref": "a7413", "@spider": "carphonewarehouse", "addr:full": "Currys,  Unit B Hereford Retail Park,  Newtown Road", "addr:city": " Hereford", "addr:postcode": "HR 4 9LW", "addr:country": "United Kingdom", "name": "Hereford", "phone": "03438165113", "opening_hours": "Mo 10:00 - 20:00 ;Tu 10:00 - 20:00 ;We 10:00 - 20:00 ;Fr 10:00 - 20:00 ;Th 10:00 - 20:00 ;Sa 09:00 - 18:00 ;Su 10:30 - 16:30 ;", "brand": "Carphone Warehouse"}, "geometry": {"type": "Point", "coordinates": [-2.717013, 52.065289]}},
{"type": "Feature", "id": "lkiO5ZLonOE98bRqfj8Mj37zmis=", "properties": {"ref": "a7400", "@spider": "carphonewarehouse", "addr:full": "Currys,  Unit 5 Drumkeen Retail Park", "addr:city": " Belfast", "addr:postcode": "BT 8 6RB", "addr:country": "United Kingdom", "name": "Belfast Drumkeen", "phone": "03438165100", "opening_hours": "Mo 09:00 - 20:00 ;Tu 09:00 - 20:00 ;We 09:00 - 20:00 ;Fr 09:00 - 20:00 ;Th 09:00 - 20:00 ;Sa 09:00 - 18:00 ;Su 13:00 - 18:00 ;", "brand": "Carphone Warehouse"}, "geometry": {"type": "Point", "coordinates": [-5.906936, 54.564558]}},
{"type": "Feature", "id": "ypUnWBRp-SUUuNGGH0aLYbv87FQ=", "properties": {"ref": "a7581", "@spider": "carphonewarehouse", "addr:full": "Currys,  Unit 7 St Catherine's Retail Park", "addr:city": " Perth", "addr:postcode": "PH 1 5XA", "addr:country": "United Kingdom", "name": "Perth", "phone": "03438165281", "opening_hours": "Mo 09:00 - 20:00 ;Tu 09:00 - 20:00 ;We 09:00 - 20:00 ;Fr 09:00 - 20:00 ;Th 09:00 - 20:00 ;Sa 09:00 - 18:00 ;Su 10:00 - 17:30 ;", "brand": "Carphone Warehouse"}, "geometry": {"type": "Point", "coordinates": [-3.441703, 56.398979]}},
{"type": "Feature", "id": "f1TDL83JhJDJWOzygC4EplHymtQ=", "properties": {"ref": "a7399", "@spider": "carphonewarehouse", "addr:full": "Currys,  Units 6/7 Kingsway West Retail Park", "addr:city": " Dundee", "addr:postcode": "DD 3 8RX", "addr:country": "United Kingdom", "name": "Dundee Kingsway", "phone": "03438165099", "opening_hours": "Mo 10:00 - 20:00 ;Tu 10:00 - 20:00 ;We 10:00 - 20:00 ;Fr 10:00 - 20:00 ;Th 10:00 - 20:00 ;Sa 10:00 - 18:00 ;Su 10:00 - 18:00 ;", "brand": "Carphone Warehouse"}, "geometry": {"type": "Point", "coordinates": [-2.992637, 56.480353]}},
{"type": "Feature", "id": "3UbqC30PECVJ_befyCNOpMXy5vo=", "properties": {"ref": "a7375", "@spider": "carphonewarehouse", "addr:full": "Currys,  Unit 2 Abbey Retail Park", "addr:city": " Newtownabbey", "addr:postcode": "BT36 7GU", "addr:country": "United Kingdom", "name": "Newtownabbey", "phone": "03438165075", "opening_hours": "Mo 10:00 - 20:00 ;Tu 10:00 - 20:00 ;We 10:00 - 20:00 ;Fr 10:00 - 20:00 ;Th 10:00 - 20:00 ;Sa 10:00 - 18:00 ;Su 13:00 - 18:00 ;", "brand": "Carphone Warehouse"}, "geometry": {"type": "Point", "coordinates": [-5.925309, 54.658573]}},
{"type": "Feature", "id": "TPtCZ_CzHi7Aesd6hWjYV-E-mPo=", "properties": {"ref": "a7693", "@spider": "carphonewarehouse", "addr:full": "Currys,  Unit 1 Waterfront Retail Park,  11 Custom House Way", "addr:city": " Greenock", "addr:postcode": "PA15 1EG", "addr:country": "United Kingdom", "name": "Greenock", "phone": "03443721447", "opening_hours": "Mo 09:00 - 20:00 ;Tu 09:00 - 20:00 ;We 09:00 - 20:00 ;Fr 09:00 - 20:00 ;Th 09:00 - 20:00 ;Sa 09:00 - 18:00 ;Su 10:00 - 17:00 ;", "brand": "Carphone Warehouse"}, "geometry": {"type": "Point", "coordinates": [-4.755664, 55.949987]}},
{"type": "Feature", "id": "vyvxK15_ghqq7zOD6cLVFJoYtu0=", "properties": {"ref": "a7311", "@spider": "carphonewarehouse", "addr:full": "Currys,  Unit 3 St John's Centre,  Rope Walk", "addr:city": " bedford", "addr:postcode": "MK42 0XE", "addr:country": "United Kingdom", "name": "Bedford", "phone": "03438165011", "opening_hours": "Mo 10:00 - 19:00 ;Tu 10:00 - 19:00 ;We 10:00 - 19:00 ;Fr 10:00 - 19:00 ;Th 10:00 - 19:00 ;Sa 09:00 - 18:00 ;Su 10:30 - 16:30 ;", "brand": "Carphone Warehouse"}, "geometry": {"type": "Point", "coordinates": [-0.458658, 52.130374]}},
{"type": "Feature", "id": "oBiMUbMkRL9ow5GzeqqfOcvCN6g=", "properties": {"ref": "a7531", "@spider": "carphonewarehouse", "addr:full": "Currys,  Unit B Cheltenham Retail Park,  Tewkesbury Road", "addr:city": " Cheltenham", "addr:postcode": "GL51 9DU", "addr:country": "United Kingdom", "name": "Cheltenham", "phone": "03438165231", "opening_hours": "Mo 10:00 - 20:00 ;Tu 10:00 - 20:00 ;We 10:00 - 20:00 ;Fr 10:00 - 20:00 ;Th 10:00 - 20:00 ;Sa 10:00 - 18:00 ;Su 10:30 - 16:30 ;", "brand": "Carphone Warehouse"}, "geometry": {"type": "Point", "coordinates": [-2.10108, 51.91404]}},
{"type": "Feature", "id": "kXqcDrzepha1NxQK23v6l5F93o4=", "properties": {"ref": "a7343", "@spider": "carphonewarehouse", "addr:full": "Currys,  Unit A The Place Retail Park,  Elder Gate", "addr:city": " Milton Keynes", "addr:postcode": "MK 9 1EN", "addr:country": "United Kingdom", "name": "Milton Keynes", "phone": "03438165043", "opening_hours": "Mo 10:00 - 20:00 ;Tu 10:00 - 20:00 ;We 10:00 - 20:00 ;Fr 10:00 - 20:00 ;Th 10:00 - 20:00 ;Sa 10:00 - 19:00 ;Su 10:30 - 16:30 ;", "brand": "Carphone Warehouse"}, "geometry": {"type": "Point", "coordinates": [-0.77658758, 52.038304]}},
{"type": "Feature", "id": "e_sWY-WsK-8qacSfMl2fI_e3b9M=", "properties": {"ref": "a7350", "@spider": "carphonewarehouse", "addr:full": "Currys,  Sprucefield Shopping Centre,  Hillsborough Old Road", "addr:city": " Lisburn", "addr:postcode": "BT27 5UN", "addr:country": "United Kingdom", "name": "Lisburn Sprucefield", "phone": "03438165050", "opening_hours": "Mo 10:00 - 20:00 ;Tu 10:00 - 20:00 ;We 10:00 - 20:00 ;Fr 10:00 - 20:00 ;Th 10:00 - 20:00 ;Sa 09:00 - 18:00 ;Su 13:00 - 18:00 ;", "brand": "Carphone Warehouse"}, "geometry": {"type": "Point", "coordinates": [-6.05587, 54.4935]}},
{"type": "Feature", "id": "3DPdfritb_hVQXFuktTP32bq_ic=", "properties": {"ref": "a7615", "@spider": "carphonewarehouse", "addr:full": "Currys,  Unit 1&2 Eastern Avenue Retail Park", "addr:city": " Gloucester", "addr:postcode": "GL4 3EA", "addr:country": "United Kingdom", "name": "Gloucester", "phone": "03443721715", "opening_hours": "Mo 10:00 - 20:00 ;Tu 10:00 - 20:00 ;We 10:00 - 20:00 ;Fr 10:00 - 20:00 ;Th 10:00 - 20:00 ;Sa 10:00 - 18:00 ;Su 10:30 - 16:30 ;", "brand": "Carphone Warehouse"}, "geometry": {"type": "Point", "coordinates": [-2.220059, 51.856776]}},
{"type": "Feature", "id": "ZPt8eZ5vqeAOBzJLdoyYKbTmSMY=", "properties": {"ref": "a7342", "@spider": "carphonewarehouse", "addr:full": "Currys,  Unit 1-2 Cambridge Retail Park,  Newmarket Road", "addr:city": " Cambridge", "addr:postcode": "CB 5 8WR", "addr:country": "United Kingdom", "name": "Cambridge", "phone": "03438165042", "opening_hours": "Mo 10:00 - 19:00 ;Tu 10:00 - 19:00 ;We 10:00 - 19:00 ;Fr 10:00 - 19:00 ;Th 10:00 - 19:00 ;Sa 09:00 - 19:00 ;Su 10:30 - 16:30 ;", "brand": "Carphone Warehouse"}, "geometry": {"type": "Point", "coordinates": [0.148659, 52.210678]}},
{"type": "Feature", "id": "fOavRbBC784EAGd0L1QTJRsBf1k=", "properties": {"ref": "a7646", "@spider": "carphonewarehouse", "addr:full": "Currys,  Unit 1 Forest Retail Park,  London Road", "addr:city": " Thetford", "addr:postcode": "IP24 3QL", "addr:country": "United Kingdom", "name": "Thetford", "phone": "03443721101", "opening_hours": "Mo 09:00 - 19:00 ;Tu 09:00 - 19:00 ;We 09:00 - 19:00 ;Fr 09:00 - 19:00 ;Th 09:00 - 19:00 ;Sa 09:00 - 18:00 ;Su 10:00 - 16:00 ;", "brand": "Carphone Warehouse"}, "geometry": {"type": "Point", "coordinates": [0.723939, 52.405305]}},
{"type": "Feature", "id": "FrlLf2RgvxkkxzG14eefrOQTNCQ=", "properties": {"ref": "a7602", "@spider": "carphonewarehouse", "addr:full": "Currys,  Unit 2 Damolly Retail Park", "addr:city": " Newry", "addr:postcode": "BT35 6PR", "addr:country": "United Kingdom", "name": "Newry", "phone": "03443721702", "opening_hours": "Mo 10:00 - 20:00 ;Tu 10:00 - 20:00 ;We 10:00 - 20:00 ;Fr 10:00 - 20:00 ;Th 10:00 - 20:00 ;Sa 09:00 - 18:00 ;Su 13:00 - 18:00 ;", "brand": "Carphone Warehouse"}, "geometry": {"type": "Point", "coordinates": [-6.350085, 54.191146]}},
{"type": "Feature", "id": "d76O5RGL132EvtoORReDrxhpt-8=", "properties": {"ref": "a7315", "@spider": "carphonewarehouse", "addr:full": "Unit 9 Braidwater Retail Park,  Ballymena", "addr:city": " Co Antrim", "addr:postcode": "BT42 3AG", "addr:country": "United Kingdom", "name": "Ballymena Braidwater", "phone": "TBC", "opening_hours": "Mo 10:00 - 18:00 ;Tu 10:00 - 18:00 ;We 10:00 - 18:00 ;Fr 10:00 - 18:00 ;Th 10:00 - 18:00 ;Sa 10:00 - 18:00 ;Su 13:00 - 18:00 ;", "brand": "Carphone Warehouse"}, "geometry": {"type": "Point", "coordinates": [-6.26837, 54.86174]}},
{"type": "Feature", "id": "x-iFKUNzYywvu1ziw0yNMpZwQH8=", "properties": {"ref": "a1934", "@spider": "carphonewarehouse", "addr:full": "Unit 104,  Millfield Shopping Centre,  Balbriggan", "addr:city": " Co. Dublin", "addr:country": "United Kingdom", "name": "1934 Balbriggan", "phone": "018416906", "opening_hours": "Mo 10:00 - 18:00 ;Tu 10:00 - 18:00 ;We 10:00 - 18:00 ;Fr 10:00 - 18:00 ;Th 10:00 - 18:00 ;Sa 10:00 - 18:00 ;Su 12:00 - 18:00 ;", "brand": "Carphone Warehouse"}, "geometry": {"type": "Point", "coordinates": [-6.19736, 53.606894]}},
{"type": "Feature", "id": "ZmMkRcrRk9RBwJtm_ZFDN9oxxXo=", "properties": {"ref": "a7443", "@spider": "carphonewarehouse", "addr:full": "Currys,  Unit 5 Sweet Briar Retail Park,  Sweet Briar Retail Park", "addr:city": " Norwich", "addr:postcode": "NR 6 5DH", "addr:country": "United Kingdom", "name": "Norwich Sweet Briar", "phone": "03438165143", "opening_hours": "Mo 09:00 - 19:00 ;Tu 09:00 - 19:00 ;We 09:00 - 19:00 ;Fr 09:00 - 19:00 ;Th 09:00 - 19:00 ;Sa 09:00 - 18:00 ;Su 10:30 - 16:30 ;", "brand": "Carphone Warehouse"}, "geometry": {"type": "Point", "coordinates": [1.258128, 52.651097]}},
{"type": "Feature", "id": "vBkzyukenQNl2WxjBAQ5UOF2fmI=", "properties": {"ref": "a7327", "@spider": "carphonewarehouse", "addr:full": "Currys,  Unit 1 Botley Road Retail Park", "addr:city": " Oxford", "addr:postcode": "OX 2 0HY", "addr:country": "United Kingdom", "name": "Oxford Botley", "phone": "03438165027", "opening_hours": "Mo 10:00 - 20:00 ;Tu 10:00 - 20:00 ;We 10:00 - 20:00 ;Fr 10:00 - 20:00 ;Th 10:00 - 20:00 ;Sa 09:00 - 18:00 ;Su 10:30 - 16:30 ;", "brand": "Carphone Warehouse"}, "geometry": {"type": "Point", "coordinates": [-1.286312, 51.752335]}},
{"type": "Feature", "id": "SI6h3U9WEzBBEw6VpDBzpqJKeuo=", "properties": {"ref": "a7608", "@spider": "carphonewarehouse", "addr:full": "Currys,  Unit 3 Rushmore Retail Park", "addr:city": " Craigavon", "addr:postcode": "BT64 1AA", "addr:country": "United Kingdom", "name": "Craigavon", "phone": "03443721408", "opening_hours": "Mo 09:00 - 20:00 ;Tu 09:00 - 20:00 ;We 09:00 - 20:00 ;Fr 09:00 - 20:00 ;Th 09:00 - 20:00 ;Sa 09:00 - 18:00 ;Su 13:00 - 18:00 ;", "brand": "Carphone Warehouse"}, "geometry": {"type": "Point", "coordinates": [-6.3899, 54.4494]}},
{"type": "Feature", "id": "_wWYEnmPLR27lQVDAeDj9y6Nv4g=", "properties": {"ref": "a7305", "@spider": "carphonewarehouse", "addr:full": "Currys,  Unit 1/2 Aylesbury Shopping Park", "addr:city": " Aylesbury", "addr:postcode": "HP20 1DG", "addr:country": "United Kingdom", "name": "Aylesbury", "phone": "03438165005", "opening_hours": "Mo 10:00 - 20:00 ;Tu 10:00 - 20:00 ;We 10:00 - 20:00 ;Fr 10:00 - 20:00 ;Th 10:00 - 20:00 ;Sa 10:00 - 18:00 ;Su 10:00 - 16:00 ;", "brand": "Carphone Warehouse"}, "geometry": {"type": "Point", "coordinates": [-0.810285, 51.820395]}},
{"type": "Feature", "id": "eUjzdCCyjCOntzPos5btCrCkwWo=", "properties": {"ref": "a7475", "@spider": "carphonewarehouse", "addr:full": "Currys,  Unit 2 Dunstable Road Retail Park,  Chaul End Lane", "addr:city": " Luton", "addr:postcode": "LU 4 8EZ", "addr:country": "United Kingdom", "name": "Luton", "phone": "03438165175", "opening_hours": "Mo 09:00 - 20:00 ;Tu 09:00 - 20:00 ;We 09:00 - 20:00 ;Fr 09:00 - 20:00 ;Th 09:00 - 20:00 ;Sa 09:00 - 18:00 ;Su 10:00 - 16:00 ;", "brand": "Carphone Warehouse"}, "geometry": {"type": "Point", "coordinates": [-0.454109, 51.89106]}},
{"type": "Feature", "id": "r9D9MTdHtVxZGyTbAOgE7kVvfA8=", "properties": {"ref": "a2199", "@spider": "carphonewarehouse", "addr:full": "Currys PC World,  Unit 19 Dundalk Retail Park,  Inner Relief Road", "addr:city": " Dundalk", "addr:postcode": "A91 PY6Y", "addr:country": "United Kingdom", "name": "2199 Dundalk 3in1", "phone": "018624800", "opening_hours": "Mo 09:30 - 18:30 ;Tu 09:30 - 18:30 ;We 09:30 - 18:30 ;Fr 09:30 - 20:00 ;Th 09:30 - 20:00 ;Sa 09:30 - 18:30 ;Su 11:00 - 18:30 ;", "brand": "Carphone Warehouse"}, "geometry": {"type": "Point", "coordinates": [-6.37759, 53.988159]}},
{"type": "Feature", "id": "M0N-VSSkwdu10w7uaTLZI4Vvt-c=", "properties": {"ref": "a728", "@spider": "carphonewarehouse", "addr:full": "9 CLANBRASSIL STREET,  DUNDALK,  COUNTY LOUTH", "addr:city": " IRELAND", "addr:country": "United Kingdom", "name": "0728 Dundalk", "phone": "042 9333847", "opening_hours": "Mo 10:00 - 18:00 ;Tu 10:00 - 18:00 ;We 10:00 - 18:00 ;Fr 10:00 - 18:00 ;Th 10:00 - 18:00 ;Sa 10:00 - 18:00 ;Su 00:00 - 00:00 ;", "brand": "Carphone Warehouse"}, "geometry": {"type": "Point", "coordinates": [-6.402186, 54.00514]}},
{"type": "Feature", "id": "juCFrgscwOauE3JGW37RDF_i374=", "properties": {"ref": "a1067", "@spider": "carphonewarehouse", "addr:full": "Currys,  Unit 3,  Ground Floor,  Clarehall Shopping Centre", "addr:city": " Malahide Road", "addr:postcode": "D17 XP98", "addr:country": "United Kingdom", "name": "1067 Clarehall", "phone": "01 8479684", "opening_hours": "Mo 10:00 - 18:00 ;Tu 10:00 - 18:00 ;We 10:00 - 18:00 ;Fr 10:00 - 18:00 ;Th 10:00 - 18:00 ;Sa 10:00 - 18:00 ;Su 12:00 - 18:00 ;", "brand": "Carphone Warehouse"}, "geometry": {"type": "Point", "coordinates": [-6.180009, 53.401082]}},
{"type": "Feature", "id": "ZFxHpzaPNUwue478RGKio4HpZr0=", "properties": {"ref": "a1305", "@spider": "carphonewarehouse", "addr:full": "UNIT G9 SCOTCH HALL,  DROGHEDA,  CO LOUTH", "addr:city": " IRELAND", "addr:country": "United Kingdom", "name": "1305 Drogheda1", "phone": "041 9809241", "opening_hours": "Mo 10:00 - 18:00 ;Tu 10:00 - 18:00 ;We 10:00 - 18:00 ;Fr 10:00 - 18:00 ;Th 10:00 - 18:00 ;Sa 10:00 - 18:00 ;Su 12:00 - 18:00 ;", "brand": "Carphone Warehouse"}, "geometry": {"type": "Point", "coordinates": [-6.34574, 53.713913]}},
{"type": "Feature", "id": "rhQXUM07pWt5z7PvIqpNaNw7FTI=", "properties": {"ref": "a2085", "@spider": "carphonewarehouse", "addr:full": "Samsung,  Unit G35,  Pavilions,  Swords", "addr:city": " Co.Dublin", "addr:country": "United Kingdom", "name": "2085 SES Swords", "phone": "01 8903018", "opening_hours": "Mo 09:30 - 19:00 ;Tu 09:30 - 19:00 ;We 09:30 - 19:00 ;Fr 09:30 - 19:00 ;Th 09:30 - 19:00 ;Sa 09:30 - 18:00 ;Su 11:00 - 18:00 ;", "brand": "Carphone Warehouse"}, "geometry": {"type": "Point", "coordinates": [-6.219006, 53.453768]}},
{"type": "Feature", "id": "a9ke3Ob8_5Fhn3YhPgoYBvuAkX8=", "properties": {"ref": "a2135", "@spider": "carphonewarehouse", "addr:full": "Unit 11,  Airside Retail Park,  Airside  Swords", "addr:city": " Dublin", "addr:country": "United Kingdom", "name": "2135 DSG Airside", "phone": "01 8131615", "opening_hours": "Mo 09:00 - 19:00 ;Tu 09:00 - 19:00 ;We 09:00 - 19:00 ;Fr 09:00 - 21:00 ;Th 09:00 - 21:00 ;Sa 09:00 - 19:00 ;Su 10:00 - 19:00 ;", "brand": "Carphone Warehouse"}, "geometry": {"type": "Point", "coordinates": [-6.226334, 53.446736]}},
{"type": "Feature", "id": "AFyZT71oLCHpKOtQCrbGmNX-c5k=", "properties": {"ref": "a7421", "@spider": "carphonewarehouse", "addr:full": "Currys,  Unit 10 Roaring Meg Retail Park", "addr:city": " Stevenage", "addr:postcode": "SG 1 1XN", "addr:country": "United Kingdom", "name": "Stevenage", "phone": "03438165121", "opening_hours": "Mo 09:00 - 20:00 ;Tu 09:00 - 20:00 ;We 09:00 - 20:00 ;Fr 09:00 - 20:00 ;Th 09:00 - 20:00 ;Sa 09:00 - 18:00 ;Su 10:30 - 16:30 ;", "brand": "Carphone Warehouse"}, "geometry": {"type": "Point", "coordinates": [-0.199986, 51.894438]}},
{"type": "Feature", "id": "jdfS2U63WKlUJiiBODbs79o1cI8=", "properties": {"ref": "a976", "@spider": "carphonewarehouse", "addr:full": "Unit 53,  Northside S.C.,  Oscar Traynor Road", "addr:city": " Coolock", "addr:postcode": "D17 V261", "addr:country": "United Kingdom", "name": "0976 Northside", "phone": "018775032", "opening_hours": "Mo 10:00 - 18:00 ;Tu 10:00 - 18:00 ;We 10:00 - 18:00 ;Fr 10:00 - 18:00 ;Th 10:00 - 18:00 ;Sa 10:00 - 18:00 ;Su 12:00 - 18:00 ;", "brand": "Carphone Warehouse"}, "geometry": {"type": "Point", "coordinates": [-6.213551, 53.3958]}},
{"type": "Feature", "id": "zw2G8mCQ0j9of2eSyQi3odj0WN8=", "properties": {"ref": "a1816", "@spider": "carphonewarehouse", "addr:full": "Unit 2,  M1 Retail Park,  Drogheda", "addr:city": " Co. Louth", "addr:country": "United Kingdom", "name": "1816 Drogheda 2", "phone": "041 9898056", "opening_hours": "Mo 09:30 - 18:00 ;Tu 09:30 - 18:00 ;We 09:30 - 18:00 ;Fr 09:30 - 18:00 ;Th 09:30 - 18:00 ;Sa 09:30 - 18:00 ;Su 12:00 - 18:00 ;", "brand": "Carphone Warehouse"}, "geometry": {"type": "Point", "coordinates": [-6.390291, 53.727733]}},
{"type": "Feature", "id": "HV2NpxcKlE54CEN7lKIU02vHEgs=", "properties": {"ref": "a7510", "@spider": "carphonewarehouse", "addr:full": "Currys,  Unit A St Edmundsbury Retail Park,  Easlea Road", "addr:city": " Bury St Edmunds", "addr:postcode": "IP32 7BY", "addr:country": "United Kingdom", "name": "Bury St Edmunds", "phone": "03438165210", "opening_hours": "Mo 09:00 - 20:00 ;Tu 09:00 - 20:00 ;We 09:00 - 20:00 ;Fr 09:00 - 20:00 ;Th 09:00 - 20:00 ;Sa 09:00 - 18:00 ;Su 10:00 - 16:00 ;", "brand": "Carphone Warehouse"}, "geometry": {"type": "Point", "coordinates": [0.742532, 52.238577]}},
{"type": "Feature", "id": "qZXTLSjaDl-4TnwE-a8DHiz1HPk=", "properties": {"ref": "a1722", "@spider": "carphonewarehouse", "addr:full": "Unit 2,  Meridian Point Shopping Centre,  Greystones", "addr:city": " Co. Wicklow", "addr:country": "United Kingdom", "name": "1722 Greystones", "phone": "01 2873494", "opening_hours": "Mo 10:00 - 18:00 ;Tu 10:00 - 18:00 ;We 10:00 - 18:00 ;Fr 10:00 - 18:00 ;Th 10:00 - 18:00 ;Sa 10:00 - 18:00 ;Su 00:00 - 00:00 ;", "brand": "Carphone Warehouse"}, "geometry": {"type": "Point", "coordinates": [-6.063879, 53.144002]}},
{"type": "Feature", "id": "azBDB24UWN-lov7MGCLf-Gd0ZQ8=", "properties": {"ref": "a7312", "@spider": "carphonewarehouse", "addr:full": "Currys,  Unit 7 Cyfarthrfa Retail Park", "addr:city": " Merthyr Tydfil", "addr:postcode": "CF48 1HY", "addr:country": "United Kingdom", "name": "Merthyr Tydfil", "phone": "03438165012", "opening_hours": "Mo 10:00 - 20:00 ;Tu 10:00 - 20:00 ;We 10:00 - 20:00 ;Fr 10:00 - 20:00 ;Th 10:00 - 20:00 ;Sa 10:00 - 18:00 ;Su 10:30 - 16:30 ;", "brand": "Carphone Warehouse"}, "geometry": {"type": "Point", "coordinates": [-3.3921853, 51.749839]}},
{"type": "Feature", "id": "WRVYjUCB7kwuvyPu0M8wewPkwyY=", "properties": {"ref": "a2131", "@spider": "carphonewarehouse", "addr:full": "Unit 9,  The Park", "addr:city": " Carrickmines", "addr:postcode": "DUBLIN", "addr:country": "United Kingdom", "name": "2131 DSGCarrickmi", "phone": "012917878", "opening_hours": "Mo 09:00 - 19:00 ;Tu 09:00 - 19:00 ;We 09:00 - 19:00 ;Fr 09:00 - 20:00 ;Th 09:00 - 20:00 ;Sa 09:00 - 19:00 ;Su 10:00 - 19:00 ;", "brand": "Carphone Warehouse"}, "geometry": {"type": "Point", "coordinates": [-6.185571, 53.250135]}},
{"type": "Feature", "id": "B3Uop-qHE6URjcIjbLq3NNgqhaU=", "properties": {"ref": "a122", "@spider": "carphonewarehouse", "addr:full": "2", "addr:city": " Henry St", "addr:postcode": "Dublin 1", "addr:country": "United Kingdom", "name": "0122 Henry St", "phone": "018783472", "opening_hours": "Mo 09:00 - 21:00 ;Tu 09:00 - 21:00 ;We 00:00 - 00:00 ;Fr 09:00 - 20:00 ;Th 09:00 - 21:00 ;Sa 09:00 - 19:00 ;Su 11:00 - 18:00 ;", "brand": "Carphone Warehouse"}, "geometry": {"type": "Point", "coordinates": [-6.264176, 53.349085]}},
{"type": "Feature", "id": "ooeYkizN3iLcp89nNUGZB-YDioo=", "properties": {"ref": "a98", "@spider": "carphonewarehouse", "addr:city": "30 Grafton Street", "addr:postcode": "D02 ED29", "addr:country": "United Kingdom", "name": "0098 Grafton Street", "phone": "01 6705265", "opening_hours": "Mo 09:00 - 19:00 ;Tu 09:00 - 19:00 ;We 09:00 - 19:00 ;Fr 09:00 - 21:00 ;Th 09:00 - 21:00 ;Sa 09:00 - 19:00 ;Su 11:00 - 18:00 ;", "brand": "Carphone Warehouse"}, "geometry": {"type": "Point", "coordinates": [-6.260153, 53.341413]}},
{"type": "Feature", "id": "pWvQU7B-kQBmAIRIVRqlNXkEvYE=", "properties": {"ref": "a2968", "@spider": "carphonewarehouse", "addr:full": "PC World,  Jervis Shopping Centre", "addr:city": " 125 Abbey Street Upper", "addr:postcode": "DUBLIN 1", "addr:country": "United Kingdom", "name": "2968 DSG Jervis", "phone": "1800424800", "opening_hours": "Mo 09:00 - 20:00 ;Tu 09:00 - 20:00 ;We 09:00 - 20:00 ;Fr 09:00 - 21:00 ;Th 09:00 - 21:00 ;Sa 09:00 - 20:00 ;Su 09:00 - 20:00 ;", "brand": "Carphone Warehouse"}, "geometry": {"type": "Point", "coordinates": [-6.265609, 53.348247]}},
{"type": "Feature", "id": "DUtnoBU8r2pV9S1bRHGEXkrQZ80=", "properties": {"ref": "a1731", "@spider": "carphonewarehouse", "addr:full": "Unit 2A,  Charlestown Centre,  Saint Margaret's Road", "addr:city": " Finglas", "addr:postcode": "D11 T8K7", "addr:country": "United Kingdom", "name": "1731 Finglas", "phone": "018142671", "opening_hours": "Mo 10:00 - 18:00 ;Tu 10:00 - 18:00 ;We 10:00 - 18:00 ;Fr 10:00 - 18:00 ;Th 10:00 - 18:00 ;Sa 10:00 - 18:00 ;Su 12:00 - 18:00 ;", "brand": "Carphone Warehouse"}, "geometry": {"type": "Point", "coordinates": [-6.30314, 53.404199]}},
{"type": "Feature", "id": "AK4Zl_3iIysxN5HWhYB2RRBOPSM=", "properties": {"ref": "a209", "@spider": "carphonewarehouse", "addr:full": "290,  Rathmines,  Rathmines Road Lower", "addr:city": " Rathmines", "addr:postcode": "D06 T6T3", "addr:country": "United Kingdom", "name": "0209 Rathmines", "phone": "01 4970121", "opening_hours": "Mo 10:00 - 18:00 ;Tu 10:00 - 18:00 ;We 10:00 - 18:00 ;Fr 10:00 - 18:00 ;Th 10:00 - 18:00 ;Sa 10:00 - 18:00 ;Su 12:00 - 18:00 ;", "brand": "Carphone Warehouse"}, "geometry": {"type": "Point", "coordinates": [-6.265528, 53.322085]}},
{"type": "Feature", "id": "KJfMPDEooTlzj3q4ofdGlZUAPKE=", "properties": {"ref": "a2086", "@spider": "carphonewarehouse", "addr:full": "Unit 23,  Dundrum Town Centre,  Level 3", "addr:city": " Sandyford Road", "addr:postcode": "D16 X4K7", "addr:country": "United Kingdom", "name": "2086 SES Dundrum", "phone": "01 2987743", "opening_hours": "Mo 10:00 - 18:00 ;Tu 10:00 - 18:00 ;We 10:00 - 18:00 ;Fr 10:00 - 18:00 ;Th 10:00 - 18:00 ;Sa 10:00 - 18:00 ;Su 12:00 - 18:00 ;", "brand": "Carphone Warehouse"}, "geometry": {"type": "Point", "coordinates": [-6.242454, 53.286759]}},
{"type": "Feature", "id": "SQ0m0VIEsMh57-81SvK1iswnlcw=", "properties": {"ref": "a7450", "@spider": "carphonewarehouse", "addr:full": "Currys,  Unit 5A Cwmbran Retail Park", "addr:city": " Cwmbran", "addr:postcode": "NP44 3JQ", "addr:country": "United Kingdom", "name": "Cwmbran", "phone": "03438165150", "opening_hours": "Mo 10:00 - 20:00 ;Tu 10:00 - 20:00 ;We 10:00 - 20:00 ;Fr 10:00 - 20:00 ;Th 10:00 - 20:00 ;Sa 10:00 - 18:00 ;Su 10:30 - 16:30 ;", "brand": "Carphone Warehouse"}, "geometry": {"type": "Point", "coordinates": [-3.028107, 51.653783]}},
{"type": "Feature", "id": "-lMW6KlAgFZhi1rIlnqsRfJpfLs=", "properties": {"ref": "a1307", "@spider": "carphonewarehouse", "addr:full": "Unit 1b The Crescent,  Ashbourne,  Co Meath", "addr:city": " IRELAND", "addr:country": "United Kingdom", "name": "1307 Ashbourne", "phone": "01 8357040", "opening_hours": "Mo 10:00 - 18:00 ;Tu 10:00 - 18:00 ;We 10:00 - 19:00 ;Fr 10:00 - 20:00 ;Th 10:00 - 20:00 ;Sa 10:00 - 18:00 ;Su 12:00 - 18:00 ;", "brand": "Carphone Warehouse"}, "geometry": {"type": "Point", "coordinates": [-6.401403, 53.511293]}},
{"type": "Feature", "id": "vKVN3Yvj-Wd9v5maVoEwDbMmAMI=", "properties": {"ref": "a1862", "@spider": "carphonewarehouse", "addr:full": "Unit R1,  Nutgrove Shopping centre,  Rathfarnham", "addr:city": " Dublin 14", "addr:country": "United Kingdom", "name": "1862 Nutgrove2", "phone": "01 4998102", "opening_hours": "Mo 10:00 - 18:00 ;Tu 10:00 - 18:00 ;We 10:00 - 18:00 ;Fr 10:00 - 18:00 ;Th 10:00 - 18:00 ;Sa 10:00 - 18:00 ;Su 12:00 - 18:00 ;", "brand": "Carphone Warehouse"}, "geometry": {"type": "Point", "coordinates": [-6.267471, 53.289726]}},
{"type": "Feature", "id": "LNn7x8i3kno3YHCIdYt7UMS7Az0=", "properties": {"ref": "a7366", "@spider": "carphonewarehouse", "addr:full": "Currys,  Unit 1/2 Greenbridge Retail Park", "addr:city": " Swindon", "addr:postcode": "sn33sg", "addr:country": "United Kingdom", "name": "Swindon", "phone": "03438165066", "opening_hours": "Mo 10:00 - 20:00 ;Tu 10:00 - 20:00 ;We 10:00 - 20:00 ;Fr 10:00 - 20:00 ;Th 10:00 - 20:00 ;Sa 10:00 - 18:00 ;Su 10:30 - 16:30 ;", "brand": "Carphone Warehouse"}, "geometry": {"type": "Point", "coordinates": [-1.753414, 51.570056]}},
{"type": "Feature", "id": "xthUBpAkThp2gzzezpz-z29jvKM=", "properties": {"ref": "a7538", "@spider": "carphonewarehouse", "addr:full": "Currys,  Unit 2 The Orchard Centre", "addr:city": " Didcot", "addr:postcode": "OX11 7LG", "addr:country": "United Kingdom", "name": "Didcot", "phone": "03438165238", "opening_hours": "Mo 10:00 - 20:00 ;Tu 10:00 - 20:00 ;We 10:00 - 20:00 ;Fr 10:00 - 20:00 ;Th 10:00 - 20:00 ;Sa 10:00 - 18:00 ;Su 10:00 - 16:00 ;", "brand": "Carphone Warehouse"}, "geometry": {"type": "Point", "coordinates": [-1.237736, 51.606846]}},
{"type": "Feature", "id": "_4wFo64-CPQSYt3kpcxcgfv7bxE=", "properties": {"ref": "a7426", "@spider": "carphonewarehouse", "addr:full": "Currys,  Unit 5 Apsley Mills Retail Park", "addr:city": " Hemel Hempstead", "addr:postcode": "HP3 9QN", "addr:country": "United Kingdom", "name": "Hemel Hempstead", "phone": "03438165126", "opening_hours": "Mo 10:00 - 20:00 ;Tu 10:00 - 20:00 ;We 10:00 - 20:00 ;Fr 10:00 - 20:00 ;Th 10:00 - 20:00 ;Sa 10:00 - 18:00 ;Su 10:30 - 16:30 ;", "brand": "Carphone Warehouse"}, "geometry": {"type": "Point", "coordinates": [-0.462603, 51.734554]}},
{"type": "Feature", "id": "_8SYUTMZrICGeO3a0Ek4IrYAhWo=", "properties": {"ref": "a2132", "@spider": "carphonewarehouse", "addr:full": "Unit 407,  Blanchardstown Retail Park", "addr:city": " Dublin 15", "addr:country": "United Kingdom", "name": "2132 DSG Blanch", "phone": "018624800", "opening_hours": "Mo 09:00 - 19:00 ;Tu 09:00 - 19:00 ;We 09:00 - 19:00 ;Fr 09:00 - 21:00 ;Th 09:00 - 21:00 ;Sa 09:00 - 19:00 ;Su 10:00 - 19:00 ;", "brand": "Carphone Warehouse"}, "geometry": {"type": "Point", "coordinates": [-6.387568, 53.394354]}},
{"type": "Feature", "id": "YHXKe1J_9Ws_731AXyGwGAnUzzc=", "properties": {"ref": "a1655", "@spider": "carphonewarehouse", "addr:full": "Unit 243", "addr:city": " Blanchardstown S.C.", "addr:postcode": "D15 HX57", "addr:country": "United Kingdom", "name": "1655 Blanch 2", "phone": "1800424800", "opening_hours": "Mo 12:00 - 18:00 ;Tu 10:00 - 18:00 ;We 10:00 - 18:00 ;Fr 10:00 - 18:00 ;Th 10:00 - 18:00 ;Sa 10:00 - 18:00 ;Su 12:00 - 18:00 ;", "brand": "Carphone Warehouse"}, "geometry": {"type": "Point", "coordinates": [-6.390181, 53.393]}},
{"type": "Feature", "id": "fHracFqrsyMnvIhPDgWmmL12V5g=", "properties": {"ref": "a183", "@spider": "carphonewarehouse", "addr:full": "Unit 25,  Liffey Valley S.C.", "addr:city": " Clondalkin", "addr:postcode": "D22 W590", "addr:country": "United Kingdom", "name": "0183 LiffeyValley", "phone": "1800424800", "opening_hours": "Mo 09:00 - 19:00 ;Tu 09:00 - 19:00 ;We 09:00 - 19:00 ;Fr 09:00 - 19:00 ;Th 09:00 - 19:00 ;Sa 09:00 - 19:00 ;Su 11:00 - 19:00 ;", "brand": "Carphone Warehouse"}, "geometry": {"type": "Point", "coordinates": [-6.391872, 53.352373]}},
{"type": "Feature", "id": "R5zZjB-HNN7RdQNQn7C_yty3Unw=", "properties": {"ref": "a7687", "@spider": "carphonewarehouse", "addr:full": "3 in 1 Currys PC World,  Unit 15,  Liffey Valley Retail Park,  Clondalkin", "addr:city": " Dublin", "addr:country": "United Kingdom", "name": "7687 Liffey Valley SIS", "phone": "018139910", "opening_hours": "Mo 09:00 - 19:00 ;Tu 09:00 - 19:00 ;We 09:00 - 19:00 ;Fr 09:00 - 21:00 ;Th 09:00 - 21:00 ;Sa 09:00 - 19:00 ;Su 10:00 - 19:00 ;", "brand": "Carphone Warehouse"}, "geometry": {"type": "Point", "coordinates": [-6.393454, 53.349537]}},
{"type": "Feature", "id": "R4WnB_xQm5RO4EV4eQilxK1zQu0=", "properties": {"ref": "a1815", "@spider": "carphonewarehouse", "addr:full": "Unit 21,  The Mill Centre,  Ninth Lock Road", "addr:city": " Clondalkin", "addr:postcode": "D22 K757", "addr:country": "United Kingdom", "name": "1815 Clondalkin", "phone": "(01) 4575070", "opening_hours": "Mo 10:00 - 18:00 ;Tu 09:00 - 17:00 ;We 00:00 - 00:00 ;Fr 10:00 - 20:00 ;Th 00:00 - 00:00 ;Sa 10:00 - 18:00 ;Su 11:00 - 18:00 ;", "brand": "Carphone Warehouse"}, "geometry": {"type": "Point", "coordinates": [-6.396263, 53.324834]}}]}