{"type":"FeatureCollection","features":[{"type": "Feature", "id": "mffb2aRHwloDu-jGxQr3k260-b0=", "properties": {"ref": " 3800 Colonnade Pkwy Suite 475-Birmingham", "@spider": "cbre", "addr:full": " 3800 Colonnade Pkwy Suite 475", "addr:city": "Birmingham", "addr:state": "AL", "addr:postcode": "35243", "addr:country": "US", "name": "Birmingham", "phone": "1 205 262 4700", "brand": "CBRE", "brand:wikidata": "Q1023013"}, "geometry": {"type": "Point", "coordinates": [-86.732287, 33.43684]}},
{"type": "Feature", "id": "Zjx9Ngfw9D2mfAUYQMUxe-39kGw=", "properties": {"ref": " 500 Capitol Mall 24th Floor-Sacramento", "@spider": "cbre", "addr:full": " 500 Capitol Mall 24th Floor", "addr:city": "Sacramento", "addr:state": "CA", "addr:postcode": "95814", "addr:country": "US", "name": "Sacramento", "phone": "1 916 446 6800", "brand": "CBRE", "brand:wikidata": "Q1023013"}, "geometry": {"type": "Point", "coordinates": [-121.501437, 38.57831]}},
{"type": "Feature", "id": "2J4LnO5yj0wyuQ6Dy_XfwFL-amc=", "properties": {"ref": " 3501 Jamboree Road Suite 100-Newport Beach", "@spider": "cbre", "addr:full": " 3501 Jamboree Road Suite 100", "addr:city": "Newport Beach", "addr:state": "CA", "addr:postcode": "92660", "addr:country": "US", "name": "Newport Beach", "phone": "1 949 725 8500", "brand": "CBRE", "brand:wikidata": "Q1023013"}, "geometry": {"type": "Point", "coordinates": [-117.866246, 33.654912]}},
{"type": "Feature", "id": "c28V7hnHa8aA7NrS6Hr3ja-AsNA=", "properties": {"ref": " 3247 W March Lane Suite 100-Central Valley", "@spider": "cbre", "addr:full": " 3247 W March Lane Suite 100", "addr:city": "Stockton", "addr:state": "CA", "addr:postcode": "95219", "addr:country": "US", "name": "Central Valley", "phone": "1 209 4737800", "brand": "CBRE", "brand:wikidata": "Q1023013"}, "geometry": {"type": "Point", "coordinates": [-121.35374, 37.985832]}},
{"type": "Feature", "id": "Zd3Uro9E5-J4VlMxO2BK-420qho=", "properties": {"ref": " 1111 Broadway Suite 1850-Oakland", "@spider": "cbre", "addr:full": " 1111 Broadway Suite 1850", "addr:city": "Oakland", "addr:state": "CA", "addr:postcode": "94607", "addr:country": "US", "name": "Oakland", "phone": "1 510 874 1900", "brand": "CBRE", "brand:wikidata": "Q1023013"}, "geometry": {"type": "Point", "coordinates": [-122.275329, 37.803948]}},
{"type": "Feature", "id": "tg9FPIZDeU-2h7WVxgZMJhmr_jk=", "properties": {"ref": " 1840 Century Park East 9th Floor Los Angeles-West LA", "@spider": "cbre", "addr:full": " 1840 Century Park East 9th Floor Los Angeles", "addr:city": " 1840 Century Park East 9th Floor Los Angeles", "addr:state": "CA", "addr:postcode": "90067", "addr:country": "US", "name": "West LA", "phone": "1 310 550 2500", "brand": "CBRE", "brand:wikidata": "Q1023013"}, "geometry": {"type": "Point", "coordinates": [-118.414559, 34.062241]}},
{"type": "Feature", "id": "CjSG19IRHmSujD0HdEbF6G07bX0=", "properties": {"ref": " 234 S Brand Blvd Suite 800-Glendale", "@spider": "cbre", "addr:full": " 234 S Brand Blvd Suite 800", "addr:city": "Glendale", "addr:state": "CA", "addr:postcode": "91204", "addr:country": "US", "name": "Glendale", "phone": "1 310 550 2500", "brand": "CBRE", "brand:wikidata": "Q1023013"}, "geometry": {"type": "Point", "coordinates": [-118.254671, 34.143156]}},
{"type": "Feature", "id": "EM-rTsIuYYp5decqr3tPqrtof7s=", "properties": {"ref": " 400 S Hope Street 25th Floor-Downtown Los Angeles", "@spider": "cbre", "addr:full": " 400 S Hope Street 25th Floor", "addr:city": "Los Angeles", "addr:state": "CA", "addr:postcode": "90071", "addr:country": "US", "name": "Downtown Los Angeles", "phone": "1 310 550 2500", "brand": "CBRE", "brand:wikidata": "Q1023013"}, "geometry": {"type": "Point", "coordinates": [-118.253868, 34.051669]}},
{"type": "Feature", "id": "B0e4tYpnCUBh1LwmviTm3UnRXfU=", "properties": {"ref": " 4141 Inland Empire Blvd Suite 100-Ontario", "@spider": "cbre", "addr:full": " 4141 Inland Empire Blvd Suite 100", "addr:city": "Ontario", "addr:state": "CA", "addr:postcode": "91764", "addr:country": "US", "name": "Ontario", "phone": "1 310 550 2500", "brand": "CBRE", "brand:wikidata": "Q1023013"}, "geometry": {"type": "Point", "coordinates": [-117.567209, 34.06923]}},
{"type": "Feature", "id": "hlKKcrQ8kA9yiTdppzTEf2RStNQ=", "properties": {"ref": " 10350 Heritage Park Drive Suite 100-Santa Fe Springs", "@spider": "cbre", "addr:full": " 10350 Heritage Park Drive Suite 100", "addr:city": "Santa Fe Springs", "addr:state": "CA", "addr:postcode": "90670", "addr:country": "US", "name": "Santa Fe Springs", "phone": "1 310 550 2500", "brand": "CBRE", "brand:wikidata": "Q1023013"}, "geometry": {"type": "Point", "coordinates": [-118.074831, 33.941582]}},
{"type": "Feature", "id": "VmvTxqhOdnNPpgtRGXAnd4kS_JU=", "properties": {"ref": " 2221 Rosecrans Avenue Suite 100-South Bay", "@spider": "cbre", "addr:full": " 2221 Rosecrans Avenue Suite 100", "addr:city": "El Segundo", "addr:state": "CA", "addr:postcode": "90245", "addr:country": "US", "name": "South Bay", "phone": "1 310 550 2500", "brand": "CBRE", "brand:wikidata": "Q1023013"}, "geometry": {"type": "Point", "coordinates": [-118.384122, 33.902478]}},
{"type": "Feature", "id": "fiYNc2zsr5rZEa_7tIucwcgKCeM=", "properties": {"ref": " 43460 Ridge Park Drive Suite 160-Temecula", "@spider": "cbre", "addr:full": " 43460 Ridge Park Drive Suite 160", "addr:city": "Temecula", "addr:state": "CA", "addr:postcode": "92590", "addr:country": "US", "name": "Temecula", "phone": "1 310 550 2500", "brand": "CBRE", "brand:wikidata": "Q1023013"}, "geometry": {"type": "Point", "coordinates": [-117.139065, 33.555387]}},
{"type": "Feature", "id": "UoIkDFEmgVFjotJ2CDffNESqX1w=", "properties": {"ref": " 2761 Park View Court-Ventura", "@spider": "cbre", "addr:full": " 2761 Park View Court", "addr:city": " Oxnard", "addr:state": "CA", "addr:postcode": "93036", "addr:country": "US", "name": "Ventura", "phone": "1 310 550 2500", "brand": "CBRE", "brand:wikidata": "Q1023013"}, "geometry": {"type": "Point", "coordinates": [-119.177644, 34.240144]}},
{"type": "Feature", "id": "s_LPw_JZyd7ndlxtC1y4xpKRmvE=", "properties": {"ref": " 5921 Owensmouth Avenue-Woodland Hills", "@spider": "cbre", "addr:full": " 5921 Owensmouth Avenue", "addr:city": " Woodland Hills", "addr:state": "CA", "addr:country": "US", "name": "Woodland Hills", "phone": "1 310 550 2500", "brand": "CBRE", "brand:wikidata": "Q1023013"}, "geometry": {"type": "Point", "coordinates": [-118.601844, 34.178123]}},
{"type": "Feature", "id": "YqjCJ59OgfBHBm7C42Zt-Qq0Gq0=", "properties": {"ref": " 400 Hamilton Avenue 4th Floor-Palo Alto", "@spider": "cbre", "addr:full": " 400 Hamilton Avenue 4th Floor", "addr:city": "Palo Alto", "addr:state": "CA", "addr:postcode": "94301", "addr:country": "US", "name": "Palo Alto", "phone": "1 650 4945100", "brand": "CBRE", "brand:wikidata": "Q1023013"}, "geometry": {"type": "Point", "coordinates": [-122.158311, 37.446816]}},
{"type": "Feature", "id": "NmCACjqpJbQj0RN4icQaE9RjIFQ=", "properties": {"ref": " 1512 Eureka Road Suite 100-Roseville", "@spider": "cbre", "addr:full": " 1512 Eureka Road Suite 100", "addr:city": "Roseville", "addr:state": "CA", "addr:postcode": "95661", "addr:country": "US", "name": "Roseville", "phone": "1 916 7812400", "brand": "CBRE", "brand:wikidata": "Q1023013"}, "geometry": {"type": "Point", "coordinates": [-121.249795, 38.749905]}},
{"type": "Feature", "id": "Oa6ae4-SEWMuPktZj6SoMUi3zsI=", "properties": {"ref": " 400 W. Capitol Avenue Suite 1300-Little Rock", "@spider": "cbre", "addr:full": " 400 W. Capitol Avenue Suite 1300", "addr:city": "Little Rock", "addr:state": "AR", "addr:postcode": "72201", "addr:country": "US", "name": "Little Rock", "phone": "1 501 370 2952", "brand": "CBRE", "brand:wikidata": "Q1023013"}, "geometry": {"type": "Point", "coordinates": [-92.275125, 34.74539]}},
{"type": "Feature", "id": "6l-p9YV9NC6yk_j8aLGzEtHBXgs=", "properties": {"ref": " 438 E Millsap Rd Suite 103-Fayetteville/Bentonville", "@spider": "cbre", "addr:full": " 438 E Millsap Rd Suite 103", "addr:city": "Fayetteville", "addr:state": "AR", "addr:postcode": "72703", "addr:country": "US", "name": "Fayetteville/Bentonville", "phone": "1 479 301 2520", "brand": "CBRE", "brand:wikidata": "Q1023013"}, "geometry": {"type": "Point", "coordinates": [-94.151121, 36.114783]}},
{"type": "Feature", "id": "0C2PHmQtBGVsWCxIMNsIG1StPiQ=", "properties": {"ref": " 5780 Fleet Street Suite 100-Carlsbad", "@spider": "cbre", "addr:full": " 5780 Fleet Street Suite 100", "addr:city": "Carlsbad", "addr:state": "CA", "addr:postcode": "92008", "addr:country": "US", "name": "Carlsbad", "phone": "1 760 438 8500", "brand": "CBRE", "brand:wikidata": "Q1023013"}, "geometry": {"type": "Point", "coordinates": [-117.316034, 33.128848]}},
{"type": "Feature", "id": "96FGIb4W0pk8PcwtALFWKtTvBZc=", "properties": {"ref": " 4301 La Jolla Village Drive Suite 3000-San Diego UTC", "@spider": "cbre", "addr:full": " 4301 La Jolla Village Drive Suite 3000", "addr:city": "San Diego", "addr:state": "CA", "addr:postcode": "92122", "addr:country": "US", "name": "San Diego UTC", "phone": "1 760 438 8500", "brand": "CBRE", "brand:wikidata": "Q1023013"}, "geometry": {"type": "Point", "coordinates": [-117.213179, 32.872433]}},
{"type": "Feature", "id": "aoTVFyuP0aHyI0SxXJRlJotwtys=", "properties": {"ref": " 3719 North Campbell Avenue-Tucson", "@spider": "cbre", "addr:full": " 3719 North Campbell Avenue", "addr:city": " Tucson", "addr:state": "AZ", "addr:postcode": "85719", "addr:country": "US", "name": "Tucson", "phone": "1 520 323 5100", "brand": "CBRE", "brand:wikidata": "Q1023013"}, "geometry": {"type": "Point", "coordinates": [-110.94406, 32.274668]}},
{"type": "Feature", "id": "83VExQZJ7mx0dKxHaAHO7N9RKNU=", "properties": {"ref": " One Century Tower 265 Church Street Suite 501  New Haven-New Haven", "@spider": "cbre", "addr:full": " One Century Tower 265 Church Street Suite 501  New Haven", "addr:city": " One Century Tower 265 Church Street Suite 501  New Haven", "addr:state": "CT", "addr:postcode": "06510", "addr:country": "US", "name": "New Haven", "phone": "1 203 777 6262", "brand": "CBRE", "brand:wikidata": "Q1023013"}, "geometry": {"type": "Point", "coordinates": [-72.922425, 41.310061]}},
{"type": "Feature", "id": "6AH-BD2bX9CmExvAHUNAiZTZ3Bg=", "properties": {"ref": " 707 Virginia Street E. Suite 1420-Charleston", "@spider": "cbre", "addr:full": " 707 Virginia Street E. Suite 1420", "addr:city": "  Charleston", "addr:state": "WV", "addr:postcode": "25301", "addr:country": "US", "name": "Charleston", "phone": "1 304 720 8497", "brand": "CBRE", "brand:wikidata": "Q1023013"}, "geometry": {"type": "Point", "coordinates": [-81.63664, 38.349498]}},
{"type": "Feature", "id": "La0wUOMmEitOjVBqYU1x3KfjVGk=", "properties": {"ref": " 185 Asylum Street CityPlace I 31st Floor  Hartford-Hartford", "@spider": "cbre", "addr:full": " 185 Asylum Street CityPlace I 31st Floor  Hartford", "addr:city": " 185 Asylum Street CityPlace I 31st Floor  Hartford", "addr:state": "CT", "addr:postcode": "06103", "addr:country": "US", "name": "Hartford", "phone": "1 860 525 9171", "brand": "CBRE", "brand:wikidata": "Q1023013"}, "geometry": {"type": "Point", "coordinates": [-72.676441, 41.766894]}},
{"type": "Feature", "id": "P6Bh3Lm_WuLDTNK7tvr7Kq1rDLE=", "properties": {"ref": " 2575 East Camelback Road Suite 500-Phoenix", "@spider": "cbre", "addr:full": " 2575 East Camelback Road Suite 500", "addr:city": "Phoenix", "addr:state": "AZ", "addr:postcode": "85016", "addr:country": "US", "name": "Phoenix", "phone": "1 602 735 5555", "brand": "CBRE", "brand:wikidata": "Q1023013"}, "geometry": {"type": "Point", "coordinates": [-112.02626, 33.50819]}},
{"type": "Feature", "id": "SliWs4lFzYT2aLOS9OZc3-e4xzw=", "properties": {"ref": " 121 S. Tejon Suite 1111-Colorado Springs", "@spider": "cbre", "addr:full": " 121 S. Tejon Suite 1111", "addr:city": "Colorado Springs", "addr:state": "CO", "addr:postcode": "80903", "addr:country": "US", "name": "Colorado Springs", "phone": "1 719 4713300", "brand": "CBRE", "brand:wikidata": "Q1023013"}, "geometry": {"type": "Point", "coordinates": [-104.82321, 38.831337]}},
{"type": "Feature", "id": "STkyp9pn0DZfv8ryXgQSbQPPBEA=", "properties": {"ref": " 777 E Wisconsin Ave Suite 3150-Milwaukee", "@spider": "cbre", "addr:full": " 777 E Wisconsin Ave Suite 3150", "addr:city": "Milwaukee", "addr:state": "WI", "addr:postcode": "53202", "addr:country": "US", "name": "Milwaukee", "phone": "414-273-0880", "brand": "CBRE", "brand:wikidata": "Q1023013"}, "geometry": {"type": "Point", "coordinates": [-87.902045, 43.03815]}},
{"type": "Feature", "id": "JflfnrtirLkVHA4W_XmQaEnU_zY=", "properties": {"ref": " 10 E Doty St Suite 410-Madison", "@spider": "cbre", "addr:full": " 10 E Doty St Suite 410", "addr:city": "Madison", "addr:state": "WI", "addr:postcode": "53703", "addr:country": "US", "name": "Madison", "phone": "414-273-0880", "brand": "CBRE", "brand:wikidata": "Q1023013"}, "geometry": {"type": "Point", "coordinates": [-89.3817, 43.073765]}},
{"type": "Feature", "id": "sMKzVnf3vfaKzh8G9ngNP32THh8=", "properties": {"ref": " 3410 Gateway Rd-Brookfield", "@spider": "cbre", "addr:full": " 3410 Gateway Rd", "addr:city": " Brookfield", "addr:state": "WI", "addr:postcode": "53045", "addr:country": "US", "name": "Brookfield", "phone": "414-273-0880", "brand": "CBRE", "brand:wikidata": "Q1023013"}, "geometry": {"type": "Point", "coordinates": [-88.179998, 43.081524]}},
{"type": "Feature", "id": "AjCq9waVvAFWfq2WdhmOD0n7Ea0=", "properties": {"ref": " 929 108th Ave NE Suite 700-Bellevue", "@spider": "cbre", "addr:full": " 929 108th Ave NE Suite 700", "addr:city": "Bellevue", "addr:state": "WA", "addr:postcode": "98004", "addr:country": "US", "name": "Bellevue", "phone": "1 425 4558500", "brand": "CBRE", "brand:wikidata": "Q1023013"}, "geometry": {"type": "Point", "coordinates": [-122.1970936, 47.6183324]}},
{"type": "Feature", "id": "-_9NZKXe9-CjErGmihQnbF4-OCw=", "properties": {"ref": " 1803 Broadway Suite 825-San Antonio", "@spider": "cbre", "addr:full": " 1803 Broadway Suite 825", "addr:city": "San Antonio", "addr:state": "TX", "addr:postcode": "78215", "addr:country": "US", "name": "San Antonio", "phone": "1 210 225 1000", "brand": "CBRE", "brand:wikidata": "Q1023013"}, "geometry": {"type": "Point", "coordinates": [-98.47722927368196, 29.442773879898134]}},
{"type": "Feature", "id": "xqVicten_QjSP0h-FIDL_RO5XKE=", "properties": {"ref": " 1100 NE Loop 410 Suite 400-San Antonio - Tetco", "@spider": "cbre", "addr:full": " 1100 NE Loop 410 Suite 400", "addr:city": "San Antonio", "addr:state": "TX", "addr:postcode": "78209", "addr:country": "US", "name": "San Antonio - Tetco", "phone": "1 210 225 1000", "brand": "CBRE", "brand:wikidata": "Q1023013"}, "geometry": {"type": "Point", "coordinates": [-98.453856, 29.515604]}},
{"type": "Feature", "id": "F51VGPX1JIAhub8T900dj8AUFzE=", "properties": {"ref": " 1201 Pacific Avenue Suite 1502-Tacoma", "@spider": "cbre", "addr:full": " 1201 Pacific Avenue Suite 1502", "addr:city": "Tacoma", "addr:state": "WA", "addr:postcode": "98402", "addr:country": "US", "name": "Tacoma", "phone": "1 253 572 6355", "brand": "CBRE", "brand:wikidata": "Q1023013"}, "geometry": {"type": "Point", "coordinates": [-122.437463, 47.252387]}},
{"type": "Feature", "id": "tw5zWUyglFqfIKZJKKsqt-C0wOk=", "properties": {"ref": " 100 East Pratt Street Suite 1700-Baltimore", "@spider": "cbre", "addr:full": " 100 East Pratt Street Suite 1700", "addr:city": "Baltimore", "addr:state": "MD", "addr:postcode": "21202", "addr:country": "US", "name": "Baltimore", "phone": "1 703 821 6900", "brand": "CBRE", "brand:wikidata": "Q1023013"}, "geometry": {"type": "Point", "coordinates": [-76.612881, 39.287429]}},
{"type": "Feature", "id": "UhTln6Yn9ZRbO6cXqektC2oanNc=", "properties": {"ref": " 4747 Bethesda Avenue Suite 600-Bethesda", "@spider": "cbre", "addr:full": " 4747 Bethesda Avenue Suite 600", "addr:city": "Bethesda", "addr:state": "MD", "addr:postcode": "20814", "addr:country": "US", "name": "Bethesda", "phone": "1 703 821 6900", "brand": "CBRE", "brand:wikidata": "Q1023013"}, "geometry": {"type": "Point", "coordinates": [-77.094564, 38.981335]}},
{"type": "Feature", "id": "mG5qWRCZFcXfBS7dBotO5SQy6IY=", "properties": {"ref": " 150 Granby Street Suite 150-Norfolk", "@spider": "cbre", "addr:full": " 150 Granby Street Suite 150", "addr:city": "Norfolk", "addr:state": "VA", "addr:postcode": "23510", "addr:country": "US", "name": "Norfolk", "phone": "1 703 821 6900", "brand": "CBRE", "brand:wikidata": "Q1023013"}, "geometry": {"type": "Point", "coordinates": [-76.291275, 36.847691]}},
{"type": "Feature", "id": "p3iNhx2teia77NO6sCTP4gG0tcQ=", "properties": {"ref": " 1802 Bayberry Court Suite 201-Richmond", "@spider": "cbre", "addr:full": " 1802 Bayberry Court Suite 201", "addr:city": "Richmond", "addr:state": "VA", "addr:postcode": "23226", "addr:country": "US", "name": "Richmond", "phone": "1 703 821 6900", "brand": "CBRE", "brand:wikidata": "Q1023013"}, "geometry": {"type": "Point", "coordinates": [-77.533066, 37.608601]}},
{"type": "Feature", "id": "dYvVP1buJwVDqe8iCIDZEVjrHD4=", "properties": {"ref": " 1861 International Drive Suite 300-Tysons Corner", "@spider": "cbre", "addr:full": " 1861 International Drive Suite 300", "addr:city": "McLean", "addr:state": "VA", "addr:postcode": "22102", "addr:country": "US", "name": "Tysons Corner", "phone": "1 703 821 6900", "brand": "CBRE", "brand:wikidata": "Q1023013"}, "geometry": {"type": "Point", "coordinates": [-77.225202, 38.916242]}},
{"type": "Feature", "id": "ZZAPPMAb9kJ0frroMVr8iI5ZVZ0=", "properties": {"ref": " 1900 N Street NW Suite 700-Washington", "@spider": "cbre", "addr:full": " 1900 N Street NW Suite 700", "addr:city": "Washington", "addr:state": "DC", "addr:postcode": "20036", "addr:country": "US", "name": "Washington", "phone": "1 703 821 6900", "brand": "CBRE", "brand:wikidata": "Q1023013"}, "geometry": {"type": "Point", "coordinates": [-77.024452, 38.899563]}},
{"type": "Feature", "id": "TcYTRjuO1sA1QWLIb6zRBfXIkVY=", "properties": {"ref": " 1420 5th Avenue Suite 1700-Seattle", "@spider": "cbre", "addr:full": " 1420 5th Avenue Suite 1700", "addr:city": "Seattle", "addr:state": "WA", "addr:postcode": "98101", "addr:country": "US", "name": "Seattle", "phone": "1 206 2921600", "brand": "CBRE", "brand:wikidata": "Q1023013"}, "geometry": {"type": "Point", "coordinates": [-122.33468, 47.610453]}},
{"type": "Feature", "id": "800FaSKyWdpgnjx8ztep0nXOuJk=", "properties": {"ref": " 222 Main Street 4th Floor-Salt Lake City", "@spider": "cbre", "addr:full": " 222 Main Street 4th Floor", "addr:city": "Salt Lake City", "addr:state": "UT", "addr:postcode": "84101", "addr:country": "US", "name": "Salt Lake City", "phone": "1 801 869 8000", "brand": "CBRE", "brand:wikidata": "Q1023013"}, "geometry": {"type": "Point", "coordinates": [-111.891667, 40.764255]}},
{"type": "Feature", "id": "uoryviOZDOu4JfPcgxsqJrWto4o=", "properties": {"ref": " 2800 Post Oak Blvd Ste 500-Houston Galleria", "@spider": "cbre", "addr:full": " 2800 Post Oak Blvd Ste 500", "addr:city": "Houston", "addr:state": "Texas", "addr:postcode": "77056", "addr:country": "US", "name": "Houston Galleria", "phone": "1 713 577 1600", "brand": "CBRE", "brand:wikidata": "Q1023013"}, "geometry": {"type": "Point", "coordinates": [-95.460941, 29.737247]}},
{"type": "Feature", "id": "VkTI348YpqRnMzVxhVdc-uFNpLU=", "properties": {"ref": " 2800 Post Oak Blvd Suite 225-Houston A&amp;T Occupier Services", "@spider": "cbre", "addr:full": " 2800 Post Oak Blvd Suite 225", "addr:city": "Houston", "addr:state": "Texas", "addr:postcode": "77056", "addr:country": "US", "name": "Houston A&amp;T Occupier Services", "phone": "1 713 577 1600", "brand": "CBRE", "brand:wikidata": "Q1023013"}, "geometry": {"type": "Point", "coordinates": [-95.461305, 29.737487]}},
{"type": "Feature", "id": "HPU7OsKm0AZzvvREINepPIKTUzg=", "properties": {"ref": " 929 Gessner Road Suite 1700-Houston Gessner", "@spider": "cbre", "addr:full": " 929 Gessner Road Suite 1700", "addr:city": "Houston", "addr:state": "TX", "addr:postcode": "77024", "addr:country": "US", "name": "Houston Gessner", "phone": "1 713 577 1600", "brand": "CBRE", "brand:wikidata": "Q1023013"}, "geometry": {"type": "Point", "coordinates": [-95.544864, 29.782563]}},
{"type": "Feature", "id": "oBmtxrwcdxGkNfQmUdlgaMqAeyo=", "properties": {"ref": " 6070 Poplar Avenue Suite 500-Memphis", "@spider": "cbre", "addr:full": " 6070 Poplar Avenue Suite 500", "addr:city": "Memphis", "addr:state": "TN", "addr:postcode": "38119", "addr:country": "US", "name": "Memphis", "phone": "1 901 528 1000", "brand": "CBRE", "brand:wikidata": "Q1023013"}, "geometry": {"type": "Point", "coordinates": [-89.860076, 35.103653]}},
{"type": "Feature", "id": "PvseN-a4Dkc9CF1sjET_-moVgYk=", "properties": {"ref": " 2100 McKinney Ave Suite 700-Dallas McKinney", "@spider": "cbre", "addr:full": " 2100 McKinney Ave Suite 700", "addr:city": "Dallas", "addr:state": "TX", "addr:postcode": "75201", "addr:country": "US", "name": "Dallas McKinney", "phone": "1 214 979 6100", "brand": "CBRE", "brand:wikidata": "Q1023013"}, "geometry": {"type": "Point", "coordinates": [-96.802347, 32.791627]}},
{"type": "Feature", "id": "o72BNoZF117Cc7-giHHd3Qz7zUw=", "properties": {"ref": " 301 Commerce St-Fort Worth", "@spider": "cbre", "addr:full": " 301 Commerce St", "addr:city": "Fort Worth", "addr:state": "Texas", "addr:postcode": "76102", "addr:country": "US", "name": "Fort Worth", "phone": "1 214 979 6100", "brand": "CBRE", "brand:wikidata": "Q1023013"}, "geometry": {"type": "Point", "coordinates": [-97.330539, 32.756191]}},
{"type": "Feature", "id": "buRW2pr0-Kjw8SrTFh8-wwvblYQ=", "properties": {"ref": " 221 N. Kansas Suite 2100-El Paso/Cd. Juarez", "@spider": "cbre", "addr:full": " 221 N. Kansas Suite 2100", "addr:city": "El Paso", "addr:state": "TX", "addr:postcode": "79901", "addr:country": "US", "name": "El Paso/Cd. Juarez", "phone": "1 915 585 3883", "brand": "CBRE", "brand:wikidata": "Q1023013"}, "geometry": {"type": "Point", "coordinates": [-106.486003, 31.76043]}},
{"type": "Feature", "id": "vKtSFjy8V4dASjpY-JN5OfUodVw=", "properties": {"ref": " 500 West 2nd Street Suite 1700-Austin", "@spider": "cbre", "addr:full": " 500 West 2nd Street Suite 1700", "addr:city": "Austin", "addr:state": "TX", "addr:postcode": "78701", "addr:country": "US", "name": "Austin", "phone": "1 512 499 4900", "brand": "CBRE", "brand:wikidata": "Q1023013"}, "geometry": {"type": "Point", "coordinates": [-97.749119, 30.266084]}},
{"type": "Feature", "id": "1VB_ytOmO10b9qU8Q2J2clEW74Y=", "properties": {"ref": " 222 2nd Avenue S. Suite 1800-Nashville", "@spider": "cbre", "addr:full": " 222 2nd Avenue S. Suite 1800", "addr:city": "Nashville", "addr:state": "TN", "addr:postcode": "37201", "addr:country": "US", "name": "Nashville", "phone": "1 615 2483500", "brand": "CBRE", "brand:wikidata": "Q1023013"}, "geometry": {"type": "Point", "coordinates": [-86.773245, 36.159622]}},
{"type": "Feature", "id": "DcsMO3z7xldBzWox6FnZfOpQDTc=", "properties": {"ref": " 200 Meeting Street Suite 202-Charleston", "@spider": "cbre", "addr:full": " 200 Meeting Street Suite 202", "addr:city": "Charleston", "addr:state": "SC", "addr:postcode": "29401", "addr:country": "US", "name": "Charleston", "phone": "1 843 577 0702", "brand": "CBRE", "brand:wikidata": "Q1023013"}, "geometry": {"type": "Point", "coordinates": [-79.930967, 32.781909]}},
{"type": "Feature", "id": "AHKt4j0Vw55lwgDYnfA0y62Y4YY=", "properties": {"ref": " 1333 Main Street Suite 210-Columbia", "@spider": "cbre", "addr:full": " 1333 Main Street Suite 210", "addr:city": "Columbia", "addr:state": "SC", "addr:postcode": "29201", "addr:country": "US", "name": "Columbia", "phone": "1 843 577 0702", "brand": "CBRE", "brand:wikidata": "Q1023013"}, "geometry": {"type": "Point", "coordinates": [-81.034829, 34.003008]}},
{"type": "Feature", "id": "eLPGcDuzYDrztfedIY0jFSP86-I=", "properties": {"ref": " 355 S Main Street Suite 701-Greenville", "@spider": "cbre", "addr:full": " 355 S Main Street Suite 701", "addr:city": "Greenville", "addr:state": "SC", "addr:postcode": "29601", "addr:country": "US", "name": "Greenville", "phone": "1 843 577 0702", "brand": "CBRE", "brand:wikidata": "Q1023013"}, "geometry": {"type": "Point", "coordinates": [-82.400003, 34.85174]}},
{"type": "Feature", "id": "VJuecpuVi3saPGos7yjS5EvPWyk=", "properties": {"ref": " One Financial Plaza 15th Floor-Providence", "@spider": "cbre", "addr:full": " One Financial Plaza 15th Floor", "addr:city": "Providence", "addr:state": "RI", "addr:postcode": "02903", "addr:country": "US", "name": "Providence", "phone": "1 401 331 0350", "brand": "CBRE", "brand:wikidata": "Q1023013"}, "geometry": {"type": "Point", "coordinates": [-71.409924, 41.825285]}},
{"type": "Feature", "id": "tubTASc27w_BM05JJiK2_9DTgDw=", "properties": {"ref": " U.S. Steel Tower 600 Grant Street Suite 4800-Pittsburgh", "@spider": "cbre", "addr:full": " U.S. Steel Tower 600 Grant Street Suite 4800", "addr:city": "Pittsburgh", "addr:state": "PA", "addr:postcode": "15219", "addr:country": "US", "name": "Pittsburgh", "phone": "1 412 471 9500", "brand": "CBRE", "brand:wikidata": "Q1023013"}, "geometry": {"type": "Point", "coordinates": [-79.994558, 40.44145]}},
{"type": "Feature", "id": "fvSEVU1iBU52IUWn_-1zIbJYeV8=", "properties": {"ref": " 1275 Glenlivet Drive Suite 320-Allentown", "@spider": "cbre", "addr:full": " 1275 Glenlivet Drive Suite 320", "addr:city": "Allentown", "addr:state": "PA", "addr:postcode": "18106", "addr:country": "US", "name": "Allentown", "phone": "1 610 398 6900", "brand": "CBRE", "brand:wikidata": "Q1023013"}, "geometry": {"type": "Point", "coordinates": [-75.628713, 40.59125]}},
{"type": "Feature", "id": "KmHP6yjeYk2O87Hbln5rP2jnCT0=", "properties": {"ref": " 5 Capital Drive Suite 201-Harrisburg", "@spider": "cbre", "addr:full": " 5 Capital Drive Suite 201", "addr:city": "Harrisburg", "addr:state": "PA", "addr:postcode": "17110", "addr:country": "US", "name": "Harrisburg", "phone": "1 717 540 2700", "brand": "CBRE", "brand:wikidata": "Q1023013"}, "geometry": {"type": "Point", "coordinates": [-76.8555261, 40.304408]}},
{"type": "Feature", "id": "M3Iy-HibjmUPgQSrAJPL3q5ZhOE=", "properties": {"ref": " Wells Fargo Center 1300 SW Fifth Avenue Suite 3500  Portland-Portland", "@spider": "cbre", "addr:full": " Wells Fargo Center 1300 SW Fifth Avenue Suite 3500  Portland", "addr:city": " Wells Fargo Center 1300 SW Fifth Avenue Suite 3500  Portland", "addr:state": "OR", "addr:postcode": "97201", "addr:country": "US", "name": "Portland", "phone": "1 503 221 1900", "brand": "CBRE", "brand:wikidata": "Q1023013"}, "geometry": {"type": "Point", "coordinates": [-122.679369, 45.514542]}},
{"type": "Feature", "id": "uIMuoHzIwI7PsjN3jWJcMZBfL08=", "properties": {"ref": " 1437 S Boulder Avenue Suite 1070-Tulsa", "@spider": "cbre", "addr:full": " 1437 S Boulder Avenue Suite 1070", "addr:city": "Tulsa", "addr:state": "OK", "addr:postcode": "74119", "addr:country": "US", "name": "Tulsa", "phone": "1 918 6653830", "brand": "CBRE", "brand:wikidata": "Q1023013"}, "geometry": {"type": "Point", "coordinates": [-95.988149, 36.142411]}},
{"type": "Feature", "id": "q64tQw9y3LNLEukloQhIaq-aGJ4=", "properties": {"ref": " 50 S. 16th Street Suite 3000-Philadelphia Downtown", "@spider": "cbre", "addr:full": " 50 S. 16th Street Suite 3000", "addr:city": "Philadelphia", "addr:state": "PA", "addr:postcode": "19102", "addr:country": "US", "name": "Philadelphia Downtown", "phone": "1 215 561 8900", "brand": "CBRE", "brand:wikidata": "Q1023013"}, "geometry": {"type": "Point", "coordinates": [-75.167119, 39.95196]}},
{"type": "Feature", "id": "Yc44F6eiBWdOhdjciY7hIWCbhF4=", "properties": {"ref": " 555 E. Lancaster Avenue Suite #120-Philadelphia Suburban", "@spider": "cbre", "addr:full": " 555 E. Lancaster Avenue Suite #120", "addr:city": "Radnor", "addr:state": "PA", "addr:postcode": "19087", "addr:country": "US", "name": "Philadelphia Suburban", "phone": "1 215 561 8900", "brand": "CBRE", "brand:wikidata": "Q1023013"}, "geometry": {"type": "Point", "coordinates": [-75.3684325, 40.041412]}},
{"type": "Feature", "id": "g99sDVl63EST6CEEi2RU87hS_EU=", "properties": {"ref": " 2929 Arch Street Suite 1500-Philadelphia Cira Centre", "@spider": "cbre", "addr:full": " 2929 Arch Street Suite 1500", "addr:city": "Philadelphia", "addr:state": "PA", "addr:postcode": "19104", "addr:country": "US", "name": "Philadelphia Cira Centre", "phone": "1 215 561 8900", "brand": "CBRE", "brand:wikidata": "Q1023013"}, "geometry": {"type": "Point", "coordinates": [-75.181869, 39.957765]}},
{"type": "Feature", "id": "huUty1OqSrq8PXfV3sokKIHXTWY=", "properties": {"ref": " 3401 NW 63rd St Suite 400-Oklahoma City", "@spider": "cbre", "addr:full": " 3401 NW 63rd St Suite 400", "addr:city": "Oklahoma City", "addr:state": "OK", "addr:postcode": "73116", "addr:country": "US", "name": "Oklahoma City", "phone": "1 405 272 5300", "brand": "CBRE", "brand:wikidata": "Q1023013"}, "geometry": {"type": "Point", "coordinates": [-97.577334, 35.537359]}},
{"type": "Feature", "id": "bfPha-UE4YlgJEd23GKcF8DGk2E=", "properties": {"ref": " 950 Main Ave Suite 200-Cleveland", "@spider": "cbre", "addr:full": " 950 Main Ave Suite 200", "addr:city": "Cleveland", "addr:state": "OH", "addr:postcode": "44113", "addr:country": "US", "name": "Cleveland", "phone": "1 216 687 1800", "brand": "CBRE", "brand:wikidata": "Q1023013"}, "geometry": {"type": "Point", "coordinates": [-81.703687, 41.500764]}},
{"type": "Feature", "id": "-oIqPOWY1IHckFRFCy1O8m3o074=", "properties": {"ref": " 3421 Ridgewood Road Suite 150-Akron-Canton", "@spider": "cbre", "addr:full": " 3421 Ridgewood Road Suite 150", "addr:city": "Akron", "addr:state": "OH", "addr:postcode": "44333", "addr:country": "US", "name": "Akron-Canton", "phone": "1 216 687 1800", "brand": "CBRE", "brand:wikidata": "Q1023013"}, "geometry": {"type": "Point", "coordinates": [-81.637134, 41.111116]}},
{"type": "Feature", "id": "ewLo51WPbGoXGWyHMQzbI9_DvSc=", "properties": {"ref": " 200 Civic Center Drive 14th Floor-Columbus", "@spider": "cbre", "addr:full": " 200 Civic Center Drive 14th Floor", "addr:city": "Columbus", "addr:state": "OH", "addr:postcode": "43215", "addr:country": "US", "name": "Columbus", "phone": "1 614 224 1492", "brand": "CBRE", "brand:wikidata": "Q1023013"}, "geometry": {"type": "Point", "coordinates": [-83.002985, 39.957626]}},
{"type": "Feature", "id": "1ZYLyMupMHR-s-Sv_BL3EbRaAPg=", "properties": {"ref": " 201 East Fifth Street Suite 2200-Cincinnati", "@spider": "cbre", "addr:full": " 201 East Fifth Street Suite 2200", "addr:city": "Cincinnati", "addr:state": "OH", "addr:postcode": "45202", "addr:country": "US", "name": "Cincinnati", "phone": "1 513 369 1300", "brand": "CBRE", "brand:wikidata": "Q1023013"}, "geometry": {"type": "Point", "coordinates": [-84.509258, 39.1013]}},
{"type": "Feature", "id": "eu6y0c3ZWQgqXPDH_nt9tORgy5c=", "properties": {"ref": " 130 W. Second Street Suite 1000-Dayton", "@spider": "cbre", "addr:full": " 130 W. Second Street Suite 1000", "addr:city": "Dayton", "addr:state": "OH", "addr:postcode": "45402", "addr:country": "US", "name": "Dayton", "phone": "1 513 369 1300", "brand": "CBRE", "brand:wikidata": "Q1023013"}, "geometry": {"type": "Point", "coordinates": [-84.194932, 39.760126]}},
{"type": "Feature", "id": "t3wEyE-VX_H87sPc0JN2jYmdbLU=", "properties": {"ref": " 210 Broadway N Ste 203-Fargo", "@spider": "cbre", "addr:full": " 210 Broadway N Ste 203", "addr:city": "Fargo", "addr:state": "ND", "addr:postcode": "58102", "addr:country": "US", "name": "Fargo", "phone": "1 701 660 3500", "brand": "CBRE", "brand:wikidata": "Q1023013"}, "geometry": {"type": "Point", "coordinates": [-96.788017, 46.878558]}},
{"type": "Feature", "id": "TGhGAiG1mc3olss8md3qA_OeZlA=", "properties": {"ref": " 70 West Red Oak Lane-White Plains", "@spider": "cbre", "addr:full": " 70 West Red Oak Lane", "addr:city": " West Harrison", "addr:state": "NY", "addr:postcode": "10604", "addr:country": "US", "name": "White Plains", "phone": "1 914 694 9600", "brand": "CBRE", "brand:wikidata": "Q1023013"}, "geometry": {"type": "Point", "coordinates": [-73.719542, 41.01579]}},
{"type": "Feature", "id": "iwMK687ckUQmr0Fh4gCGUu94OP8=", "properties": {"ref": " Charter Square 555 Fayetteville Street Suite 800  Raleigh-Raleigh", "@spider": "cbre", "addr:full": " Charter Square 555 Fayetteville Street Suite 800  Raleigh", "addr:city": " Charter Square 555 Fayetteville Street Suite 800  Raleigh", "addr:state": "NC", "addr:postcode": "27601", "addr:country": "US", "name": "Raleigh", "phone": "1 919 8318200", "brand": "CBRE", "brand:wikidata": "Q1023013"}, "geometry": {"type": "Point", "coordinates": [-78.638959, 35.77349]}},
{"type": "Feature", "id": "PGQYu7LPQ2MIQ4NE06BEeLJjWpo=", "properties": {"ref": " CentrePort III 101 CentrePort&#160;Dr. Suite 160  Greensboro-Greensboro", "@spider": "cbre", "addr:full": " CentrePort III 101 CentrePort&#160;Dr. Suite 160  Greensboro", "addr:city": " CentrePort III 101 CentrePort&#160;Dr. Suite 160  Greensboro", "addr:state": "NC", "addr:postcode": "27409", "addr:country": "US", "name": "Greensboro", "phone": "1 336 373 8800", "brand": "CBRE", "brand:wikidata": "Q1023013"}, "geometry": {"type": "Point", "coordinates": [-79.963699, 36.085238]}},
{"type": "Feature", "id": "SXoc81wjJDd_u1Quc8LgpP_HgxM=", "properties": {"ref": " 201 South College Street Suite 1700-Charlotte", "@spider": "cbre", "addr:full": " 201 South College Street Suite 1700", "addr:city": "Charlotte", "addr:state": "NC", "addr:postcode": "28244", "addr:country": "US", "name": "Charlotte", "phone": " 1 704 376 7979", "brand": "CBRE", "brand:wikidata": "Q1023013"}, "geometry": {"type": "Point", "coordinates": [-80.843345, 35.225065]}},
{"type": "Feature", "id": "kZ-me4-F5z-fMSdDaUPHNf7crGE=", "properties": {"ref": " 47-09 Center Blvd-Long Island City", "@spider": "cbre", "addr:full": " 47-09 Center Blvd", "addr:city": " Long Island City", "addr:state": "NY", "addr:postcode": "11109", "addr:country": "US", "name": "Long Island City", "phone": "1 718 937 6111", "brand": "CBRE", "brand:wikidata": "Q1023013"}, "geometry": {"type": "Point", "coordinates": [-73.957147, 40.745227]}},
{"type": "Feature", "id": "loUPeAWhydXUcB0aEEB_1qDf4LE=", "properties": {"ref": " 120 Corporate Woods Suite 210-Rochester", "@spider": "cbre", "addr:full": " 120 Corporate Woods Suite 210", "addr:city": "Rochester", "addr:state": "NY", "addr:postcode": "14623", "addr:country": "US", "name": "Rochester", "phone": "1 585 240 8080", "brand": "CBRE", "brand:wikidata": "Q1023013"}, "geometry": {"type": "Point", "coordinates": [-77.621471, 43.109525]}},
{"type": "Feature", "id": "r8Dvm7py86JyfzoZnZHcfHjhBOo=", "properties": {"ref": " Nettleton Commons 313 E. Willow St. Suite 202  Syracuse-Syracuse", "@spider": "cbre", "addr:full": " Nettleton Commons 313 E. Willow St. Suite 202  Syracuse", "addr:city": " Nettleton Commons 313 E. Willow St. Suite 202  Syracuse", "addr:state": "NY", "addr:postcode": "13203", "addr:country": "US", "name": "Syracuse", "phone": "1 315 422 4200", "brand": "CBRE", "brand:wikidata": "Q1023013"}, "geometry": {"type": "Point", "coordinates": [-76.149502, 43.053441]}},
{"type": "Feature", "id": "_s_CWGABJHq8QPFUU7VmZJ77hTo=", "properties": {"ref": " 477 Main Street-Buffalo", "@spider": "cbre", "addr:full": " 477 Main Street", "addr:city": " Buffalo", "addr:state": "NY", "addr:postcode": "14203", "addr:country": "US", "name": "Buffalo", "phone": "1 716 855 3700", "brand": "CBRE", "brand:wikidata": "Q1023013"}, "geometry": {"type": "Point", "coordinates": [-78.87385, 42.886938]}},
{"type": "Feature", "id": "EImruhW_rqdQjmt1bKXIZln00dQ=", "properties": {"ref": " 200 Park Avenue-Midtown Manhattan", "@spider": "cbre", "addr:full": " 200 Park Avenue", "addr:city": " New York", "addr:state": "NY", "addr:postcode": "10166", "addr:country": "US", "name": "Midtown Manhattan", "phone": "1 212 984 8000", "brand": "CBRE", "brand:wikidata": "Q1023013"}, "geometry": {"type": "Point", "coordinates": [-73.97663, 40.753522]}},
{"type": "Feature", "id": "jWSp_IMIExbsi9bf3rSQX18Tcec=", "properties": {"ref": " Hana at 3 World Trade Center 175 Greenwich Street-Downtown Manhattan", "@spider": "cbre", "addr:full": " Hana at 3 World Trade Center 175 Greenwich Street", "addr:city": "New York", "addr:state": "NY", "addr:postcode": "10007", "addr:country": "US", "name": "Downtown Manhattan", "phone": "1 212 984 8000", "brand": "CBRE", "brand:wikidata": "Q1023013"}, "geometry": {"type": "Point", "coordinates": [-74.011711, 40.710932]}},
{"type": "Feature", "id": "WcmsYMMaAJovxh-1GguKk32mD0I=", "properties": {"ref": " 210 Washington Avenue Extension Suite 201-Albany", "@spider": "cbre", "addr:full": " 210 Washington Avenue Extension Suite 201", "addr:city": "  Albany ", "addr:state": "NY", "addr:postcode": "12203", "addr:country": "US", "name": "Albany", "phone": "1 518 452 2700", "brand": "CBRE", "brand:wikidata": "Q1023013"}, "geometry": {"type": "Point", "coordinates": [-73.856626, 42.703387]}},
{"type": "Feature", "id": "ZcyvIiu0ETsmpWOguxzX2KNoVG4=", "properties": {"ref": " 58 S Service Rd-", "@spider": "cbre", "addr:full": " 58 S Service Rd", "addr:city": " Melville", "addr:state": "NY", "addr:postcode": "11747", "addr:country": "US", "phone": "1 631 370 6000", "brand": "CBRE", "brand:wikidata": "Q1023013"}, "geometry": {"type": "Point", "coordinates": [-73.44059, 40.782089]}},
{"type": "Feature", "id": "XeqUwvwFJejHjof711f3--SgJX4=", "properties": {"ref": " 1000 Howard Boulevard Suite 104-Southern New Jersey", "@spider": "cbre", "addr:full": " 1000 Howard Boulevard Suite 104", "addr:city": "Mount Laurel", "addr:state": "NJ", "addr:postcode": "08054", "addr:country": "US", "name": "Southern New Jersey", "phone": "1 856 359 9500", "brand": "CBRE", "brand:wikidata": "Q1023013"}, "geometry": {"type": "Point", "coordinates": [-74.951654, 39.927002]}},
{"type": "Feature", "id": "Sx1waUyOqTM2Mgpehf8iuDFSHWQ=", "properties": {"ref": " 11213 Davenport Street Suite 300-Omaha", "@spider": "cbre", "addr:full": " 11213 Davenport Street Suite 300", "addr:city": "Omaha", "addr:state": "NE", "addr:postcode": "68154", "addr:country": "US", "name": "Omaha", "phone": "1 402 334 8877", "brand": "CBRE", "brand:wikidata": "Q1023013"}, "geometry": {"type": "Point", "coordinates": [-96.086929, 41.261173]}},
{"type": "Feature", "id": "FWkfMRoalJNbMYRyC_jNzJ51hRg=", "properties": {"ref": " 6100 Uptown Boulevard NE Suite 300-Albuquerque", "@spider": "cbre", "addr:full": " 6100 Uptown Boulevard NE Suite 300", "addr:city": "Albuquerque", "addr:state": "NM", "addr:postcode": "87110", "addr:country": "US", "name": "Albuquerque", "phone": "1 505 837 4999", "brand": "CBRE", "brand:wikidata": "Q1023013"}, "geometry": {"type": "Point", "coordinates": [-106.575401, 35.104453]}},
{"type": "Feature", "id": "Z80DtbIxfh2k7hNIhFHYa6uqqHk=", "properties": {"ref": " 3993 Howard Hughes Parkway Suite 700-Las Vegas", "@spider": "cbre", "addr:full": " 3993 Howard Hughes Parkway Suite 700", "addr:city": "Las Vegas", "addr:state": "NV", "addr:postcode": "89169", "addr:country": "US", "name": "Las Vegas", "phone": "1 702 369 4800", "brand": "CBRE", "brand:wikidata": "Q1023013"}, "geometry": {"type": "Point", "coordinates": [-115.158157, 36.117187]}},
{"type": "Feature", "id": "c6pORG4Km0xze2v4cComSpEZH5g=", "properties": {"ref": " 6900 S McCarran Boulevard Suite 3000-Reno", "@spider": "cbre", "addr:full": " 6900 S McCarran Boulevard Suite 3000", "addr:city": "Reno", "addr:state": "NV", "addr:postcode": "89509", "addr:country": "US", "name": "Reno", "phone": "1 775 356 6118", "brand": "CBRE", "brand:wikidata": "Q1023013"}, "geometry": {"type": "Point", "coordinates": [-119.806694, 39.476134]}},
{"type": "Feature", "id": "r1ZG2PI61HPg9WfnnMhlWmabsWU=", "properties": {"ref": " 190 Carondelet Plaza Suite 1400-St. Louis", "@spider": "cbre", "addr:full": " 190 Carondelet Plaza Suite 1400", "addr:city": "St. Louis", "addr:state": "MO", "addr:postcode": "63105", "addr:country": "US", "name": "St. Louis", "phone": "1 314 655 6000", "brand": "CBRE", "brand:wikidata": "Q1023013"}, "geometry": {"type": "Point", "coordinates": [-90.330099, 38.64932]}},
{"type": "Feature", "id": "8n9rwOG5-xOeokDvB7y7m1JylAY=", "properties": {"ref": " 4520 Main Street Suite 600-Kansas City", "@spider": "cbre", "addr:full": " 4520 Main Street Suite 600", "addr:city": "Kansas City", "addr:state": "MO", "addr:postcode": "64111", "addr:country": "US", "name": "Kansas City", "phone": "1 816 756 3535", "brand": "CBRE", "brand:wikidata": "Q1023013"}, "geometry": {"type": "Point", "coordinates": [-94.587427, 39.04543]}},
{"type": "Feature", "id": "dGZZkVDT10MQ8zHBXyJIBHpOXs4=", "properties": {"ref": " 650 Elm Street-Manchester", "@spider": "cbre", "addr:full": " 650 Elm Street", "addr:city": " Manchester", "addr:state": "NH", "addr:postcode": "03101", "addr:country": "US", "name": "Manchester", "phone": "1 603 626 0036", "brand": "CBRE", "brand:wikidata": "Q1023013"}, "geometry": {"type": "Point", "coordinates": [-71.46348, 42.987507]}},
{"type": "Feature", "id": "KuawJr310NLUU7L6GXvvr2GUK84=", "properties": {"ref": " 10 Canebrake Blvd.-Jackson", "@spider": "cbre", "addr:full": " 10 Canebrake Blvd.", "addr:city": " Flowood ", "addr:state": "MS", "addr:postcode": "39232", "addr:country": "US", "name": "Jackson", "phone": "1 601 420 8080", "brand": "CBRE", "brand:wikidata": "Q1023013"}, "geometry": {"type": "Point", "coordinates": [-90.091969, 32.31817]}},
{"type": "Feature", "id": "9cb0PXLduqYER5jHdssjV-CjOdE=", "properties": {"ref": " 2 Tower Center Blvd.-East Brunswick", "@spider": "cbre", "addr:full": " 2 Tower Center Blvd.", "addr:city": " East Brunswick", "addr:state": "NJ", "addr:postcode": "08816", "addr:country": "US", "name": "East Brunswick", "phone": "1 732 509 2800", "brand": "CBRE", "brand:wikidata": "Q1023013"}, "geometry": {"type": "Point", "coordinates": [-74.408298, 40.480221]}},
{"type": "Feature", "id": "ArGsfNfBsQYFqWkJZhKWmqXW8VY=", "properties": {"ref": " 100 Campus Drive Suite 109-Florham Park", "@spider": "cbre", "addr:full": " 100 Campus Drive Suite 109", "addr:city": "Florham Park", "addr:state": "NJ", "addr:postcode": "07932", "addr:country": "US", "name": "Florham Park", "phone": "1 732 509 2800", "brand": "CBRE", "brand:wikidata": "Q1023013"}, "geometry": {"type": "Point", "coordinates": [-74.423945, 40.782758]}},
{"type": "Feature", "id": "6_0ACvfgxUWXKdUFL28jt2Mb1dA=", "properties": {"ref": " 250 Pehle Avenue Suite 600-Saddle Brook", "@spider": "cbre", "addr:full": " 250 Pehle Avenue Suite 600", "addr:city": "Saddle Brook", "addr:state": "NJ", "addr:postcode": "07663", "addr:country": "US", "name": "Saddle Brook", "phone": "1 732 509 2800", "brand": "CBRE", "brand:wikidata": "Q1023013"}, "geometry": {"type": "Point", "coordinates": [-74.102107, 40.905019]}},
{"type": "Feature", "id": "QhQs4VZf7rqdY6MmVlreGS9U78o=", "properties": {"ref": " 800 LaSalle Avenue Suite 1900-Minneapolis", "@spider": "cbre", "addr:full": " 800 LaSalle Avenue Suite 1900", "addr:city": "Minneapolis", "addr:state": "MN", "addr:postcode": "55402", "addr:country": "US", "name": "Minneapolis", "phone": "1 952 9244600", "brand": "CBRE", "brand:wikidata": "Q1023013"}, "geometry": {"type": "Point", "coordinates": [-93.275078, 44.976625]}},
{"type": "Feature", "id": "dMApkjskJjKYRntIKBD03MEZZS8=", "properties": {"ref": " 4400 W 78th Street Suite 200-Bloomington", "@spider": "cbre", "addr:full": " 4400 W 78th Street Suite 200", "addr:city": "Bloomington", "addr:state": "MN", "addr:postcode": "55435", "addr:country": "US", "name": "Bloomington", "phone": "1 952 9244600", "brand": "CBRE", "brand:wikidata": "Q1023013"}, "geometry": {"type": "Point", "coordinates": [-93.336046, 44.860159]}},
{"type": "Feature", "id": "bv1-pPR0W7pnJeTmP__MWBqjHvA=", "properties": {"ref": " 940 Monroe Avenue NW Suite G154-Grand Rapids", "@spider": "cbre", "addr:full": " 940 Monroe Avenue NW Suite G154", "addr:city": "Grand Rapids", "addr:state": "MI", "addr:postcode": "49503", "addr:country": "US", "name": "Grand Rapids", "phone": "\n1 248 3512030\n", "brand": "CBRE", "brand:wikidata": "Q1023013"}, "geometry": {"type": "Point", "coordinates": [-85.671804, 42.978724]}},
{"type": "Feature", "id": "x67ky8t223sP6hNX10cVNkYc6x4=", "properties": {"ref": " 6900 Westown Parkway-Des Moines", "@spider": "cbre", "addr:full": " 6900 Westown Parkway", "addr:city": " West Des Moines", "addr:state": "Iowa", "addr:postcode": "50266", "addr:country": "US", "name": "Des Moines", "phone": "1 515 224 4900", "brand": "CBRE", "brand:wikidata": "Q1023013"}, "geometry": {"type": "Point", "coordinates": [-93.8039787, 41.5960201]}},
{"type": "Feature", "id": "BKDJ_cFnol6-RaJD6DtkooxAICE=", "properties": {"ref": " 2000 Town Center Suite 2200-Detroit", "@spider": "cbre", "addr:full": " 2000 Town Center Suite 2200", "addr:city": "Southfield", "addr:state": "MI", "addr:postcode": "48075", "addr:country": "US", "name": "Detroit", "phone": "1 248 353 5400", "brand": "CBRE", "brand:wikidata": "Q1023013"}, "geometry": {"type": "Point", "coordinates": [-83.244323, 42.477447]}},
{"type": "Feature", "id": "w4x90Z34ydbQF9_cYkHBYL7NZ7U=", "properties": {"ref": " 33 Arch Street 28th Floor-Boston", "@spider": "cbre", "addr:full": " 33 Arch Street 28th Floor", "addr:city": "Boston", "addr:state": "MA", "addr:postcode": "02110", "addr:country": "US", "name": "Boston", "phone": "1 617 912 7000", "brand": "CBRE", "brand:wikidata": "Q1023013"}, "geometry": {"type": "Point", "coordinates": [-71.058628, 42.3565]}},
{"type": "Feature", "id": "vmRDrhClktzMFXqhdRdZtkKZDSY=", "properties": {"ref": " 8888 Keystone Crossing Suite 1000-Indianapolis", "@spider": "cbre", "addr:full": " 8888 Keystone Crossing Suite 1000", "addr:city": "Indianapolis", "addr:state": "IN", "addr:postcode": "46240", "addr:country": "US", "name": "Indianapolis", "phone": "1 317 269 1000", "brand": "CBRE", "brand:wikidata": "Q1023013"}, "geometry": {"type": "Point", "coordinates": [-86.108795, 39.917101]}},
{"type": "Feature", "id": "tlXHtFcCEKyEk7fTgELijed6frI=", "properties": {"ref": "Chicago-Chicago", "@spider": "cbre", "addr:full": "Chicago", "addr:city": "Chicago", "addr:state": "321", "addr:postcode": "N.", "addr:country": "US", "name": "Chicago", "phone": "1 312 935 1400", "brand": "CBRE", "brand:wikidata": "Q1023013"}, "geometry": {"type": "Point", "coordinates": [-87.630543, 41.888384]}},
{"type": "Feature", "id": "97ZVaD0YWasZg9kzQsP6SwYLrM8=", "properties": {"ref": " 700 Commerce Dr Suite 450-Oak Brook", "@spider": "cbre", "addr:full": " 700 Commerce Dr Suite 450", "addr:city": "Oak Brook", "addr:state": "IL", "addr:postcode": "60523", "addr:country": "US", "name": "Oak Brook", "phone": "1 312 935 1400", "brand": "CBRE", "brand:wikidata": "Q1023013"}, "geometry": {"type": "Point", "coordinates": [-87.937423, 41.851526]}},
{"type": "Feature", "id": "0UgqxJqmMP174pDhb3-ZDZbgkLc=", "properties": {"ref": " 6060 Dutchmans Ln Suite 100-Louisville", "@spider": "cbre", "addr:full": " 6060 Dutchmans Ln Suite 100", "addr:city": "Louisville", "addr:state": "KY", "addr:postcode": "40205", "addr:country": "US", "name": "Louisville", "phone": "1 502 429 6700", "brand": "CBRE", "brand:wikidata": "Q1023013"}, "geometry": {"type": "Point", "coordinates": [-85.639479, 38.228226]}},
{"type": "Feature", "id": "AHnR1YgBz8P_53C9p5rT0YEg8B8=", "properties": {"ref": " 33 Arch Street 28th Floor-Boston 33 Arch Street", "@spider": "cbre", "addr:full": " 33 Arch Street 28th Floor", "addr:city": "Boston", "addr:state": "MA", "addr:postcode": "02110", "addr:country": "US", "name": "Boston 33 Arch Street", "phone": "1 617 912 7000", "brand": "CBRE", "brand:wikidata": "Q1023013"}, "geometry": {"type": "Point", "coordinates": [-71.058628, 42.3565]}},
{"type": "Feature", "id": "WrW22dG98pvUwOVprra0NohrY-w=", "properties": {"ref": " 300 Drayton Street Suite 100-Savannah", "@spider": "cbre", "addr:full": " 300 Drayton Street Suite 100", "addr:city": "Savannah", "addr:state": "GA", "addr:postcode": "31401", "addr:country": "US", "name": "Savannah", "phone": "1 912 228 3528", "brand": "CBRE", "brand:wikidata": "Q1023013"}, "geometry": {"type": "Point", "coordinates": [-81.092325, 32.074329]}},
{"type": "Feature", "id": "IAmE0u-fFZ1KmcRkJOOc32Iqzoo=", "properties": {"ref": " 950 W. Bannock Street Suite 1100-Boise", "@spider": "cbre", "addr:full": " 950 W. Bannock Street Suite 1100", "addr:city": "Boise", "addr:state": "ID", "addr:postcode": "83702", "addr:country": "US", "name": "Boise", "phone": "1 801 869 8000", "brand": "CBRE", "brand:wikidata": "Q1023013"}, "geometry": {"type": "Point", "coordinates": [-116.20373705308731, 43.61850672639187]}},
{"type": "Feature", "id": "rBdGYY1aZzWsjyJJdbCfbNwErAE=", "properties": {"ref": " 1003 Bishop Street Suite 1800-Honolulu", "@spider": "cbre", "addr:full": " 1003 Bishop Street Suite 1800", "addr:city": "  Honolulu", "addr:state": "HI", "addr:postcode": "96813", "addr:country": "US", "name": "Honolulu", "phone": "\n1 808 5415170\n", "brand": "CBRE", "brand:wikidata": "Q1023013"}, "geometry": {"type": "Point", "coordinates": [-157.8626928, 21.3089238]}},
{"type": "Feature", "id": "4V1w53ex47E5TtbA7pyncRzXO7w=", "properties": {"ref": " 101 E. Kennedy Boulevard Suite 1500-Tampa", "@spider": "cbre", "addr:full": " 101 E. Kennedy Boulevard Suite 1500", "addr:city": "Tampa", "addr:state": "FL", "addr:postcode": "33602", "addr:country": "US", "name": "Tampa", "phone": "1 813 229 3111", "brand": "CBRE", "brand:wikidata": "Q1023013"}, "geometry": {"type": "Point", "coordinates": [-82.459164, 27.947037]}},
{"type": "Feature", "id": "xKo3Eh0zlxtXdNnfQJZCKiYp-DM=", "properties": {"ref": " Suite 600-Palm Beach County", "@spider": "cbre", "addr:full": " Suite 600", "addr:city": "Boca Raton", "addr:state": "FL", "addr:postcode": "33486", "addr:country": "US", "name": "Palm Beach County", "phone": "1 561 394 2100", "brand": "CBRE", "brand:wikidata": "Q1023013"}, "geometry": {"type": "Point", "coordinates": [-80.122175, 26.363167]}},
{"type": "Feature", "id": "3vKc7Xvkl9qGt6m0GjdIcS4YCFo=", "properties": {"ref": " 515 N Flagler Drive Suite 540-West Palm Beach", "@spider": "cbre", "addr:full": " 515 N Flagler Drive Suite 540", "addr:city": "West Palm Beach", "addr:state": "FL", "addr:postcode": "33401", "addr:country": "US", "name": "West Palm Beach", "phone": "1 561 394 2100", "brand": "CBRE", "brand:wikidata": "Q1023013"}, "geometry": {"type": "Point", "coordinates": [-80.051505, 26.717669]}},
{"type": "Feature", "id": "ZqqRMucRaWMwxYkCLim7MWjOWa8=", "properties": {"ref": " 3550 Lenox Road NE Suite 2300-Atlanta", "@spider": "cbre", "addr:full": " 3550 Lenox Road NE Suite 2300", "addr:city": "Atlanta", "addr:state": "GA", "addr:postcode": "30326", "addr:country": "US", "name": "Atlanta", "phone": "1 404 504 7900", "brand": "CBRE", "brand:wikidata": "Q1023013"}, "geometry": {"type": "Point", "coordinates": [-84.367595, 33.85193]}},
{"type": "Feature", "id": "-vgaah5d8AcKhsYCKslMqmEEufA=", "properties": {"ref": " 600 Grand Boulevard-Northwest Florida&#160;", "@spider": "cbre", "addr:full": " 600 Grand Boulevard", "addr:city": " Miramar Beach", "addr:state": "Florida", "addr:postcode": "32550", "addr:country": "US", "name": "Northwest Florida&#160;", "phone": "\n1 904 630 6344\n", "brand": "CBRE", "brand:wikidata": "Q1023013"}, "geometry": {"type": "Point", "coordinates": [-86.312994, 30.378806]}},
{"type": "Feature", "id": "YpCyoR5DDSIncUmQsKAr1e0ag5g=", "properties": {"ref": " 527 Henley Drive-Naples", "@spider": "cbre", "addr:full": " 527 Henley Drive", "addr:city": " Naples", "addr:state": "FL", "addr:postcode": "34104", "addr:country": "US", "name": "Naples", "phone": "1 239 330 7665", "brand": "CBRE", "brand:wikidata": "Q1023013"}, "geometry": {"type": "Point", "coordinates": [-81.721597, 26.162393]}},
{"type": "Feature", "id": "EYVDapSMWXUakegFNQ6us4vmHjk=", "properties": {"ref": " 777 Brickell Avenue Suite 1100-Miami", "@spider": "cbre", "addr:full": " 777 Brickell Avenue Suite 1100", "addr:city": "Miami", "addr:state": "FL", "addr:postcode": "33131", "addr:country": "US", "name": "Miami", "phone": "1 305 374 1000", "brand": "CBRE", "brand:wikidata": "Q1023013"}, "geometry": {"type": "Point", "coordinates": [-80.189869, 25.766594]}},
{"type": "Feature", "id": "S_0M6w7QKKPyTaYCCF7Y5sJdbn8=", "properties": {"ref": " 6767 North Wickham Road-Melbourne", "@spider": "cbre", "addr:full": " 6767 North Wickham Road", "addr:city": " Melbourne", "addr:state": "Florida", "addr:postcode": "32940", "addr:country": "US", "name": "Melbourne", "phone": "1 321 2424575", "brand": "CBRE", "brand:wikidata": "Q1023013"}, "geometry": {"type": "Point", "coordinates": [-80.675248, 28.222165]}},
{"type": "Feature", "id": "6F7eBObVDvywv2Afo1BOBuU9WO0=", "properties": {"ref": " SunTrust Center 200 S. Orange Avenue Suite 2100  Orlando-Orlando", "@spider": "cbre", "addr:full": " SunTrust Center 200 S. Orange Avenue Suite 2100  Orlando", "addr:city": " SunTrust Center 200 S. Orange Avenue Suite 2100  Orlando", "addr:state": "FL", "addr:postcode": "32801", "addr:country": "US", "name": "Orlando", "phone": "1 407 404 5000", "brand": "CBRE", "brand:wikidata": "Q1023013"}, "geometry": {"type": "Point", "coordinates": [-81.379575, 28.539766]}},
{"type": "Feature", "id": "bPsXntQUNz2e2Ai3QX66CsSYcZA=", "properties": {"ref": " 225 Water Street Suite 110-Jacksonville", "@spider": "cbre", "addr:full": " 225 Water Street Suite 110", "addr:city": "Jacksonville", "addr:state": "FL", "addr:postcode": "32202", "addr:country": "US", "name": "Jacksonville", "phone": "1 904 634 1200", "brand": "CBRE", "brand:wikidata": "Q1023013"}, "geometry": {"type": "Point", "coordinates": [-81.661473, 30.326069]}},
{"type": "Feature", "id": "pEjGmGKysib5jcSJdJFJ0m3Nnvs=", "properties": {"ref": " 1007 N. Orange Street Suite 100-Wilmington ", "@spider": "cbre", "addr:full": " 1007 N. Orange Street Suite 100", "addr:city": "Wilmington", "addr:state": "DE", "addr:postcode": "19801", "addr:country": "US", "name": "Wilmington ", "phone": "1 302 661 6700", "brand": "CBRE", "brand:wikidata": "Q1023013"}, "geometry": {"type": "Point", "coordinates": [-75.549107, 39.747125]}},
{"type": "Feature", "id": "w9yOPiTzGHlCqXZZilQLT0T4RPw=", "properties": {"ref": " 201 Tresser Blvd.-Stamford", "@spider": "cbre", "addr:full": " 201 Tresser Blvd.", "addr:city": " Stamford", "addr:state": "CT", "addr:postcode": "06901", "addr:country": "US", "name": "Stamford", "phone": "1 203 3297900", "brand": "CBRE", "brand:wikidata": "Q1023013"}, "geometry": {"type": "Point", "coordinates": [-73.536853, 41.050271]}},
{"type": "Feature", "id": "S0QssgnJd3i0zvzzBt3DxgznG_U=", "properties": {"ref": " 401 E Las Olas Boulevard Suite 1500-Fort Lauderdale", "@spider": "cbre", "addr:full": " 401 E Las Olas Boulevard Suite 1500", "addr:city": "Ft. Lauderdale", "addr:state": "FL", "addr:postcode": "33301", "addr:country": "US", "name": "Fort Lauderdale", "phone": "1 954 462 5655", "brand": "CBRE", "brand:wikidata": "Q1023013"}, "geometry": {"type": "Point", "coordinates": [-80.13889, 26.120264]}},
{"type": "Feature", "id": "DX7RElGWE3VkTIYCWYGE-u02QVk=", "properties": {"ref": " 2175 N. California Boulevard Suite 300-Walnut Creek", "@spider": "cbre", "addr:full": " 2175 N. California Boulevard Suite 300", "addr:city": "Walnut Creek", "addr:state": "CA", "addr:postcode": "94596", "addr:country": "US", "name": "Walnut Creek", "phone": "1 925 2967700", "brand": "CBRE", "brand:wikidata": "Q1023013"}, "geometry": {"type": "Point", "coordinates": [-122.066273, 37.909684]}},
{"type": "Feature", "id": "4OCM9LDkvIOi5ho2woALmEFyxHo=", "properties": {"ref": " 1805 11th Street #A-Boulder", "@spider": "cbre", "addr:full": " 1805 11th Street #A", "addr:city": "Boulder", "addr:state": "CO", "addr:postcode": "80302", "addr:country": "US", "name": "Boulder", "phone": "1 303 4400307", "brand": "CBRE", "brand:wikidata": "Q1023013"}, "geometry": {"type": "Point", "coordinates": [-105.28122, 40.016019]}},
{"type": "Feature", "id": "FX-b8qwnKLc8nQvK4eZLSt2NeGQ=", "properties": {"ref": " 1225 17th Street Suite 3200-Denver Downtown", "@spider": "cbre", "addr:full": " 1225 17th Street Suite 3200", "addr:city": "Denver", "addr:state": "CO", "addr:postcode": "80202", "addr:country": "US", "name": "Denver Downtown", "phone": "1 303 4400307", "brand": "CBRE", "brand:wikidata": "Q1023013"}, "geometry": {"type": "Point", "coordinates": [-104.995133, 39.750433]}},
{"type": "Feature", "id": "hMCXQ26pQSZ4UbwobFhCUli6ah0=", "properties": {"ref": " 5455 Landmark Place Suite C102-Denver Tech Center", "@spider": "cbre", "addr:full": " 5455 Landmark Place Suite C102", "addr:city": "Greenwood Village", "addr:state": "CO", "addr:postcode": "80111", "addr:country": "US", "name": "Denver Tech Center", "phone": "1 303 4400307", "brand": "CBRE", "brand:wikidata": "Q1023013"}, "geometry": {"type": "Point", "coordinates": [-104.901455, 39.617684]}},
{"type": "Feature", "id": "Un0I-qBy8UoGVP1zMmnOxgxFvj0=", "properties": {"ref": " 3003 East Harmony Road Suite 300-Fort Collins", "@spider": "cbre", "addr:full": " 3003 East Harmony Road Suite 300", "addr:city": "Fort Collins", "addr:state": "CO", "addr:postcode": "80528", "addr:country": "US", "name": "Fort Collins", "phone": "1 303 4400307", "brand": "CBRE", "brand:wikidata": "Q1023013"}, "geometry": {"type": "Point", "coordinates": [-105.022236, 40.522873]}},
{"type": "Feature", "id": "30Q2OJeYOUp4xOUfDmFYJGDvrpk=", "properties": {"ref": " 225 West Santa Clara Street 12th Floor-San Jose", "@spider": "cbre", "addr:full": " 225 West Santa Clara Street 12th Floor", "addr:city": "San Jose", "addr:state": "CA", "addr:postcode": "95113", "addr:country": "US", "name": "San Jose", "phone": "1 408 453 7400", "brand": "CBRE", "brand:wikidata": "Q1023013"}, "geometry": {"type": "Point", "coordinates": [-121.894691, 37.335299]}},
{"type": "Feature", "id": "o5wIw8cQ4NWRo3A88NW9g3Ijt3M=", "properties": {"ref": " 415 Mission Street Suite 4600-San Francisco", "@spider": "cbre", "addr:full": " 415 Mission Street Suite 4600", "addr:city": "San Francisco", "addr:state": "CA", "addr:postcode": "94105", "addr:country": "US", "name": "San Francisco", "phone": "1 415 7720123", "brand": "CBRE", "brand:wikidata": "Q1023013"}, "geometry": {"type": "Point", "coordinates": [-122.3990941, 37.7898162]}},
{"type": "Feature", "id": "rkIlo9DtZ3VFJAya01hytrgEUGw=", "properties": {"ref": " 1450 Chapin Avenue Suite 200-San Francisco Peninsula", "@spider": "cbre", "addr:full": " 1450 Chapin Avenue Suite 200", "addr:city": "Burlingame", "addr:state": "CA", "addr:postcode": "94010", "addr:country": "US", "name": "San Francisco Peninsula", "phone": "1 650 577 2900", "brand": "CBRE", "brand:wikidata": "Q1023013"}, "geometry": {"type": "Point", "coordinates": [-122.3512695, 37.5776926]}}]}