{"type":"FeatureCollection","features":[{"type": "Feature", "id": "6OTqrbzZfU2Ew2fiAnSllPhckcM=", "properties": {"ref": "6173", "amenity:fuel": true, "fuel:diesel": true, "fuel:HGV_diesel": false, "fuel:e85": true, "fuel:octane_87": true, "fuel:octane_89": true, "fuel:octane_93": true, "fuel:kerosene": false, "car_wash": false, "hgv": false, "@spider": "cefco", "addr:full": "1699 Central Texas Expressway", "addr:city": "Lampasas", "addr:state": "TX", "addr:postcode": "76550", "addr:country": "US", "brand": "CEFCO"}, "geometry": {"type": "Point", "coordinates": [-98.16148, 31.06416]}},
{"type": "Feature", "id": "Yt_R1aa5mfMPveKcqJwtqsVx2Qs=", "properties": {"ref": "6160", "amenity:fuel": true, "fuel:diesel": true, "fuel:HGV_diesel": false, "fuel:e85": true, "fuel:octane_87": true, "fuel:octane_89": true, "fuel:octane_93": true, "fuel:kerosene": false, "car_wash": false, "hgv": false, "@spider": "cefco", "addr:full": "101 W Moonlight Drive", "addr:city": "Robinson", "addr:state": "TX", "addr:postcode": "76706", "addr:country": "US", "brand": "CEFCO"}, "geometry": {"type": "Point", "coordinates": [-97.063866, 31.45971]}},
{"type": "Feature", "id": "fd99G1ZZ9QOoAvl09FBeLIy4m2Y=", "properties": {"ref": "6100", "amenity:fuel": true, "fuel:diesel": true, "fuel:HGV_diesel": false, "fuel:e85": true, "fuel:octane_87": true, "fuel:octane_89": true, "fuel:octane_93": true, "fuel:kerosene": false, "car_wash": false, "hgv": false, "@spider": "cefco", "addr:full": "1009 North Kilgore Street", "addr:city": "Kilgore", "addr:state": "TX", "addr:postcode": "75662", "addr:country": "US", "brand": "CEFCO"}, "geometry": {"type": "Point", "coordinates": [-94.86847, 32.39063]}},
{"type": "Feature", "id": "K9xL5PlRGmTkFW-7D_h3pWbsXjk=", "properties": {"ref": "4945", "amenity:fuel": true, "fuel:diesel": true, "fuel:HGV_diesel": false, "fuel:e85": false, "fuel:octane_87": true, "fuel:octane_89": true, "fuel:octane_93": true, "fuel:kerosene": false, "car_wash": false, "hgv": false, "@spider": "cefco", "addr:full": "1499 S Loop", "addr:city": "Stephenville", "addr:state": "TX", "addr:postcode": "76401", "addr:country": "US", "brand": "CEFCO"}, "geometry": {"type": "Point", "coordinates": [-98.210375, 32.204888]}},
{"type": "Feature", "id": "RYHxMImw_MiluJK23HeheogAeAM=", "properties": {"ref": "4943", "amenity:fuel": true, "fuel:diesel": true, "fuel:HGV_diesel": false, "fuel:e85": false, "fuel:octane_87": true, "fuel:octane_89": true, "fuel:octane_93": true, "fuel:kerosene": false, "car_wash": false, "hgv": false, "@spider": "cefco", "addr:full": "201 W College Street", "addr:city": "Rising Star", "addr:state": "TX", "addr:postcode": "76471", "addr:country": "US", "brand": "CEFCO"}, "geometry": {"type": "Point", "coordinates": [-98.965522, 32.095705]}},
{"type": "Feature", "id": "KO_kfWkMbIWK4UiyqinP5ER77zk=", "properties": {"ref": "4942", "amenity:fuel": true, "fuel:diesel": true, "fuel:HGV_diesel": false, "fuel:e85": false, "fuel:octane_87": true, "fuel:octane_89": true, "fuel:octane_93": true, "fuel:kerosene": false, "car_wash": false, "hgv": false, "@spider": "cefco", "addr:full": "371 E Lubbock Street", "addr:city": "Gorman", "addr:state": "TX", "addr:postcode": "76454", "addr:country": "US", "brand": "CEFCO"}, "geometry": {"type": "Point", "coordinates": [-98.667702, 32.211772]}},
{"type": "Feature", "id": "TW0I4UNr-ZTE9H7Sxa_WcFHyqjU=", "properties": {"ref": "4941", "amenity:fuel": true, "fuel:diesel": true, "fuel:HGV_diesel": false, "fuel:e85": false, "fuel:octane_87": true, "fuel:octane_89": true, "fuel:octane_93": true, "fuel:kerosene": false, "car_wash": false, "hgv": false, "@spider": "cefco", "addr:full": "3400 Coulter", "addr:city": "Amarillo", "addr:state": "TX", "addr:postcode": "79121", "addr:country": "US", "brand": "CEFCO"}, "geometry": {"type": "Point", "coordinates": [-101.920715, 35.176147]}},
{"type": "Feature", "id": "bO8m6i8yL7mhRhZrDkgFwcIcf5Q=", "properties": {"ref": "4940", "amenity:fuel": true, "fuel:diesel": true, "fuel:HGV_diesel": false, "fuel:e85": false, "fuel:octane_87": true, "fuel:octane_89": false, "fuel:octane_93": false, "fuel:kerosene": false, "car_wash": false, "hgv": false, "@spider": "cefco", "addr:full": "1755 S 9th", "addr:city": "Slaton", "addr:state": "TX", "addr:postcode": "79364", "addr:country": "US", "brand": "CEFCO"}, "geometry": {"type": "Point", "coordinates": [-101.643737, 33.422206]}},
{"type": "Feature", "id": "dCmY3YCYJ9iQ1IvegVDw1u9B4_w=", "properties": {"ref": "4939", "amenity:fuel": true, "fuel:diesel": true, "fuel:HGV_diesel": false, "fuel:e85": false, "fuel:octane_87": true, "fuel:octane_89": false, "fuel:octane_93": false, "fuel:kerosene": false, "car_wash": false, "hgv": false, "@spider": "cefco", "addr:full": "600 TX-136", "addr:city": "Stinnett", "addr:state": "TX", "addr:postcode": "79083", "addr:country": "US", "brand": "CEFCO"}, "geometry": {"type": "Point", "coordinates": [-101.443046, 35.826692]}},
{"type": "Feature", "id": "Jhzl6Y2zZRC7P2cuGNY7su3JK9Q=", "properties": {"ref": "4938", "amenity:fuel": true, "fuel:diesel": true, "fuel:HGV_diesel": false, "fuel:e85": false, "fuel:octane_87": true, "fuel:octane_89": true, "fuel:octane_93": true, "fuel:kerosene": false, "car_wash": false, "hgv": false, "@spider": "cefco", "addr:full": "3302 Fairlanes", "addr:city": "Borger", "addr:state": "TX", "addr:postcode": "79007", "addr:country": "US", "brand": "CEFCO"}, "geometry": {"type": "Point", "coordinates": [-101.44697, 35.652875]}},
{"type": "Feature", "id": "lTwLxNUJdAN1u6jYc6e4whW6xJ4=", "properties": {"ref": "4936", "amenity:fuel": true, "fuel:diesel": true, "fuel:HGV_diesel": false, "fuel:e85": false, "fuel:octane_87": true, "fuel:octane_89": true, "fuel:octane_93": true, "fuel:kerosene": false, "car_wash": false, "hgv": false, "@spider": "cefco", "addr:full": "310 W 5th", "addr:city": "Plainview", "addr:state": "TX", "addr:postcode": "79072", "addr:country": "US", "brand": "CEFCO"}, "geometry": {"type": "Point", "coordinates": [-101.706451, 34.184848]}},
{"type": "Feature", "id": "d2w8pBYEh9R8hh_S5D2TAAxAy_4=", "properties": {"ref": "4935", "amenity:fuel": true, "fuel:diesel": true, "fuel:HGV_diesel": false, "fuel:e85": false, "fuel:octane_87": true, "fuel:octane_89": true, "fuel:octane_93": true, "fuel:kerosene": false, "car_wash": false, "hgv": false, "@spider": "cefco", "addr:full": "2401 Dimmitt Hwy", "addr:city": "Plainview", "addr:state": "TX", "addr:postcode": "79072", "addr:country": "US", "brand": "CEFCO"}, "geometry": {"type": "Point", "coordinates": [-101.729339, 34.20512]}},
{"type": "Feature", "id": "ZBeDy6_FePLR_rfYCWrFTpSX-44=", "properties": {"ref": "4934", "amenity:fuel": true, "fuel:diesel": true, "fuel:HGV_diesel": false, "fuel:e85": false, "fuel:octane_87": true, "fuel:octane_89": true, "fuel:octane_93": true, "fuel:kerosene": false, "car_wash": false, "hgv": false, "@spider": "cefco", "addr:full": "4002 Olton Rd", "addr:city": "Plainview", "addr:state": "TX", "addr:postcode": "79072", "addr:country": "US", "brand": "CEFCO"}, "geometry": {"type": "Point", "coordinates": [-101.750923, 34.188259]}},
{"type": "Feature", "id": "0WJVmJK7wjlkB_H_9TjfysBLPBE=", "properties": {"ref": "4932", "amenity:fuel": true, "fuel:diesel": true, "fuel:HGV_diesel": false, "fuel:e85": false, "fuel:octane_87": true, "fuel:octane_89": true, "fuel:octane_93": true, "fuel:kerosene": false, "car_wash": false, "hgv": false, "@spider": "cefco", "addr:full": "3701 Olton Rd", "addr:city": "Plainview", "addr:state": "TX", "addr:postcode": "79072", "addr:country": "US", "brand": "CEFCO"}, "geometry": {"type": "Point", "coordinates": [-101.748924, 34.186805]}},
{"type": "Feature", "id": "vkmdzbcUDwKnrRkfrxRzO2yRe1M=", "properties": {"ref": "4931", "amenity:fuel": true, "fuel:diesel": true, "fuel:HGV_diesel": false, "fuel:e85": false, "fuel:octane_87": true, "fuel:octane_89": true, "fuel:octane_93": true, "fuel:kerosene": false, "car_wash": false, "hgv": false, "@spider": "cefco", "addr:full": "101 N 1st St", "addr:city": "Brownfield", "addr:state": "TX", "addr:postcode": "79316", "addr:country": "US", "brand": "CEFCO"}, "geometry": {"type": "Point", "coordinates": [-102.275096, 33.179345]}},
{"type": "Feature", "id": "3FZNco7LIn0WOUQbjS5cmj3bkNU=", "properties": {"ref": "4930", "amenity:fuel": true, "fuel:diesel": true, "fuel:HGV_diesel": false, "fuel:e85": false, "fuel:octane_87": true, "fuel:octane_89": true, "fuel:octane_93": true, "fuel:kerosene": false, "car_wash": false, "hgv": false, "@spider": "cefco", "addr:full": "221 W American Blvd", "addr:city": "Muleshoe", "addr:state": "TX", "addr:postcode": "79347", "addr:country": "US", "brand": "CEFCO"}, "geometry": {"type": "Point", "coordinates": [-102.725219, 34.22704]}},
{"type": "Feature", "id": "QpA6dqeK5XdjgIgIDSLeIBJJam8=", "properties": {"ref": "4929", "amenity:fuel": true, "fuel:diesel": true, "fuel:HGV_diesel": false, "fuel:e85": false, "fuel:octane_87": true, "fuel:octane_89": true, "fuel:octane_93": true, "fuel:kerosene": false, "car_wash": false, "hgv": false, "@spider": "cefco", "addr:full": "100 E Broadway", "addr:city": "Fritch", "addr:state": "TX", "addr:postcode": "79036", "addr:country": "US", "brand": "CEFCO"}, "geometry": {"type": "Point", "coordinates": [-101.599037, 35.642928]}},
{"type": "Feature", "id": "BZZwgGMUyX0PbDBHpuwH88hgIEQ=", "properties": {"ref": "4928", "amenity:fuel": true, "fuel:diesel": true, "fuel:HGV_diesel": false, "fuel:e85": false, "fuel:octane_87": true, "fuel:octane_89": true, "fuel:octane_93": true, "fuel:kerosene": false, "car_wash": false, "hgv": false, "@spider": "cefco", "addr:full": "1101 E Broadway", "addr:city": "Sweetwater", "addr:state": "TX", "addr:postcode": "79556", "addr:country": "US", "brand": "CEFCO"}, "geometry": {"type": "Point", "coordinates": [-100.397773, 32.475213]}},
{"type": "Feature", "id": "WM6Uqhs2pxnSZ-GDwyQw4qE3n8Y=", "properties": {"ref": "4927", "amenity:fuel": true, "fuel:diesel": true, "fuel:HGV_diesel": false, "fuel:e85": false, "fuel:octane_87": true, "fuel:octane_89": true, "fuel:octane_93": true, "fuel:kerosene": false, "car_wash": false, "hgv": false, "@spider": "cefco", "addr:full": "4430 S Western", "addr:city": "Amarillo", "addr:state": "TX", "addr:postcode": "79109", "addr:country": "US", "brand": "CEFCO"}, "geometry": {"type": "Point", "coordinates": [-101.884346, 35.164199]}},
{"type": "Feature", "id": "BzoncGOjdlrLn-VFoVb-7L2vZfo=", "properties": {"ref": "4926", "amenity:fuel": true, "fuel:diesel": true, "fuel:HGV_diesel": false, "fuel:e85": false, "fuel:octane_87": true, "fuel:octane_89": true, "fuel:octane_93": true, "fuel:kerosene": false, "car_wash": false, "hgv": false, "@spider": "cefco", "addr:full": "1917 Bell", "addr:city": "Amarillo", "addr:state": "TX", "addr:postcode": "79106", "addr:country": "US", "brand": "CEFCO"}, "geometry": {"type": "Point", "coordinates": [-101.901977, 35.191513]}},
{"type": "Feature", "id": "imbmNwhQAuvFQTNMmInmrBfuPJA=", "properties": {"ref": "4925", "amenity:fuel": true, "fuel:diesel": true, "fuel:HGV_diesel": false, "fuel:e85": false, "fuel:octane_87": true, "fuel:octane_89": true, "fuel:octane_93": true, "fuel:kerosene": false, "car_wash": false, "hgv": false, "@spider": "cefco", "addr:full": "808 S Big Spring", "addr:city": "Midland", "addr:state": "TX", "addr:postcode": "79701", "addr:country": "US", "brand": "CEFCO"}, "geometry": {"type": "Point", "coordinates": [-102.078178, 31.989393]}},
{"type": "Feature", "id": "wqjNPLq3CUIGRWzWAPT7YJnM7sU=", "properties": {"ref": "4924", "amenity:fuel": true, "fuel:diesel": true, "fuel:HGV_diesel": false, "fuel:e85": false, "fuel:octane_87": true, "fuel:octane_89": true, "fuel:octane_93": true, "fuel:kerosene": false, "car_wash": false, "hgv": false, "@spider": "cefco", "addr:full": "11818 US Highway 60", "addr:city": "Pampa", "addr:state": "TX", "addr:postcode": "79065", "addr:country": "US", "brand": "CEFCO"}, "geometry": {"type": "Point", "coordinates": [-100.987076, 35.520012]}},
{"type": "Feature", "id": "M2qUDZoeqqPGTfCKrLTDUrfKERY=", "properties": {"ref": "4923", "amenity:fuel": true, "fuel:diesel": true, "fuel:HGV_diesel": false, "fuel:e85": false, "fuel:octane_87": true, "fuel:octane_89": true, "fuel:octane_93": true, "fuel:kerosene": false, "car_wash": false, "hgv": false, "@spider": "cefco", "addr:full": "331 W 1st", "addr:city": "Claude", "addr:state": "TX", "addr:postcode": "79019", "addr:country": "US", "brand": "CEFCO"}, "geometry": {"type": "Point", "coordinates": [-101.362291, 35.111099]}},
{"type": "Feature", "id": "OnKpX9a6Oa2b-koV7nAqY3JRmTw=", "properties": {"ref": "4922", "amenity:fuel": true, "fuel:diesel": true, "fuel:HGV_diesel": false, "fuel:e85": false, "fuel:octane_87": true, "fuel:octane_89": true, "fuel:octane_93": true, "fuel:kerosene": false, "car_wash": false, "hgv": false, "@spider": "cefco", "addr:full": "302 W 2nd", "addr:city": "Clarendon", "addr:state": "TX", "addr:postcode": "79226", "addr:country": "US", "brand": "CEFCO"}, "geometry": {"type": "Point", "coordinates": [-100.890262, 34.939042]}},
{"type": "Feature", "id": "5YjulD0C6ruZI_a581a-Gm8bmd0=", "properties": {"ref": "4921", "amenity:fuel": true, "fuel:diesel": true, "fuel:HGV_diesel": false, "fuel:e85": false, "fuel:octane_87": true, "fuel:octane_89": true, "fuel:octane_93": true, "fuel:kerosene": false, "car_wash": false, "hgv": false, "@spider": "cefco", "addr:full": "120 Rowe St", "addr:city": "McLean", "addr:state": "TX", "addr:postcode": "79057", "addr:country": "US", "brand": "CEFCO"}, "geometry": {"type": "Point", "coordinates": [-100.598732, 35.231574]}},
{"type": "Feature", "id": "vb6I2xDGYjJDHt7D5GAs0qzS3-g=", "properties": {"ref": "4920", "amenity:fuel": true, "fuel:diesel": true, "fuel:HGV_diesel": false, "fuel:e85": false, "fuel:octane_87": true, "fuel:octane_89": true, "fuel:octane_93": true, "fuel:kerosene": false, "car_wash": false, "hgv": false, "@spider": "cefco", "addr:full": "1400 S Main", "addr:city": "Perryton", "addr:state": "TX", "addr:postcode": "79070", "addr:country": "US", "brand": "CEFCO"}, "geometry": {"type": "Point", "coordinates": [-100.802664, 36.386142]}},
{"type": "Feature", "id": "tKsMoSYf2mnI4feluXo9j7p7Ld8=", "properties": {"ref": "4919", "amenity:fuel": true, "fuel:diesel": true, "fuel:HGV_diesel": false, "fuel:e85": false, "fuel:octane_87": true, "fuel:octane_89": true, "fuel:octane_93": true, "fuel:kerosene": false, "car_wash": false, "hgv": false, "@spider": "cefco", "addr:full": "107 Collard", "addr:city": "Spearman", "addr:state": "TX", "addr:postcode": "79081", "addr:country": "US", "brand": "CEFCO"}, "geometry": {"type": "Point", "coordinates": [-101.197768, 36.19874]}},
{"type": "Feature", "id": "tc1lbR5ahgu7iyqKi7K7HpUQWi8=", "properties": {"ref": "4918", "amenity:fuel": true, "fuel:diesel": true, "fuel:HGV_diesel": false, "fuel:e85": false, "fuel:octane_87": true, "fuel:octane_89": true, "fuel:octane_93": true, "fuel:kerosene": false, "car_wash": false, "hgv": false, "@spider": "cefco", "addr:full": "2004 Ave F NW", "addr:city": "Childress", "addr:state": "TX", "addr:postcode": "79201", "addr:country": "US", "brand": "CEFCO"}, "geometry": {"type": "Point", "coordinates": [-100.22701, 34.434896]}},
{"type": "Feature", "id": "holoS3tQQQkHbRQah4dT1Yr64e0=", "properties": {"ref": "4917", "amenity:fuel": true, "fuel:diesel": true, "fuel:HGV_diesel": true, "fuel:e85": false, "fuel:octane_87": true, "fuel:octane_89": true, "fuel:octane_93": true, "fuel:kerosene": false, "car_wash": false, "hgv": true, "@spider": "cefco", "addr:full": "1429 N Main Street", "addr:city": "Shamrock", "addr:state": "TX", "addr:postcode": "79079", "addr:country": "US", "brand": "CEFCO"}, "geometry": {"type": "Point", "coordinates": [-100.249228, 35.229114]}},
{"type": "Feature", "id": "qlNnrI1uLFjGScyzwPcK9yYGqWY=", "properties": {"ref": "4916", "amenity:fuel": true, "fuel:diesel": true, "fuel:HGV_diesel": true, "fuel:e85": false, "fuel:octane_87": true, "fuel:octane_89": true, "fuel:octane_93": true, "fuel:kerosene": false, "car_wash": false, "hgv": true, "@spider": "cefco", "addr:full": "5000 I-40", "addr:city": "Amarillo", "addr:state": "TX", "addr:postcode": "79103", "addr:country": "US", "brand": "CEFCO"}, "geometry": {"type": "Point", "coordinates": [-101.778213, 35.192024]}},
{"type": "Feature", "id": "EHb9pPt8qcNQOpLN2MjR0_XUTHY=", "properties": {"ref": "4915", "amenity:fuel": true, "fuel:diesel": true, "fuel:HGV_diesel": false, "fuel:e85": false, "fuel:octane_87": true, "fuel:octane_89": true, "fuel:octane_93": true, "fuel:kerosene": false, "car_wash": false, "hgv": false, "@spider": "cefco", "addr:full": "2822 US Hwy 287 N", "addr:city": "Vernon", "addr:state": "TX", "addr:postcode": "76384", "addr:country": "US", "brand": "CEFCO"}, "geometry": {"type": "Point", "coordinates": [-99.29747, 34.161184]}},
{"type": "Feature", "id": "tKh-N7W2QCanKHtMRE9gVOJ8l4U=", "properties": {"ref": "4914", "amenity:fuel": true, "fuel:diesel": false, "fuel:HGV_diesel": false, "fuel:e85": false, "fuel:octane_87": true, "fuel:octane_89": true, "fuel:octane_93": true, "fuel:kerosene": false, "car_wash": false, "hgv": false, "@spider": "cefco", "addr:full": "101 Main St", "addr:city": "Crossett", "addr:state": "AR", "addr:postcode": "71635", "addr:country": "US", "brand": "CEFCO"}, "geometry": {"type": "Point", "coordinates": [-91.961533, 33.135163]}},
{"type": "Feature", "id": "nIJvEOOzyzO2RniNXXAmygdAlXE=", "properties": {"ref": "4913", "amenity:fuel": true, "fuel:diesel": true, "fuel:HGV_diesel": false, "fuel:e85": false, "fuel:octane_87": true, "fuel:octane_89": true, "fuel:octane_93": true, "fuel:kerosene": false, "car_wash": false, "hgv": false, "@spider": "cefco", "addr:full": "105 Andrews Lane", "addr:city": "Mer Rouge", "addr:state": "LA", "addr:postcode": "71261", "addr:country": "US", "brand": "CEFCO"}, "geometry": {"type": "Point", "coordinates": [-91.791772, 32.775291]}},
{"type": "Feature", "id": "NwL9hUg6Cv7uibKFIDBdN_E-iRY=", "properties": {"ref": "4912", "amenity:fuel": true, "fuel:diesel": true, "fuel:HGV_diesel": false, "fuel:e85": false, "fuel:octane_87": true, "fuel:octane_89": true, "fuel:octane_93": true, "fuel:kerosene": false, "car_wash": false, "hgv": false, "@spider": "cefco", "addr:full": "319 E Larrissa", "addr:city": "Jacksonville", "addr:state": "TX", "addr:postcode": "75766", "addr:country": "US", "brand": "CEFCO"}, "geometry": {"type": "Point", "coordinates": [-95.270126, 31.962074]}},
{"type": "Feature", "id": "E8bE5G2xgk7kkGiqFdSSF0HBqMI=", "properties": {"ref": "4911", "amenity:fuel": true, "fuel:diesel": true, "fuel:HGV_diesel": false, "fuel:e85": false, "fuel:octane_87": true, "fuel:octane_89": true, "fuel:octane_93": true, "fuel:kerosene": false, "car_wash": false, "hgv": false, "@spider": "cefco", "addr:full": "1975 Airline Dr", "addr:city": "Bossier City", "addr:state": "LA", "addr:postcode": "71112", "addr:country": "US", "brand": "CEFCO"}, "geometry": {"type": "Point", "coordinates": [-93.700851, 32.526462]}},
{"type": "Feature", "id": "9dZo0Ht2heIPbfNs9EjDw5utocw=", "properties": {"ref": "4910", "amenity:fuel": true, "fuel:diesel": true, "fuel:HGV_diesel": false, "fuel:e85": false, "fuel:octane_87": true, "fuel:octane_89": true, "fuel:octane_93": true, "fuel:kerosene": false, "car_wash": false, "hgv": false, "@spider": "cefco", "addr:full": "4201 University Blvd", "addr:city": "Tyler", "addr:state": "TX", "addr:postcode": "75707", "addr:country": "US", "brand": "CEFCO"}, "geometry": {"type": "Point", "coordinates": [-95.24495, 32.313343]}},
{"type": "Feature", "id": "8G0lKnelnzUzShM-NB3143JmrlI=", "properties": {"ref": "4909", "amenity:fuel": true, "fuel:diesel": true, "fuel:HGV_diesel": false, "fuel:e85": false, "fuel:octane_87": true, "fuel:octane_89": true, "fuel:octane_93": true, "fuel:kerosene": false, "car_wash": false, "hgv": false, "@spider": "cefco", "addr:full": "2610 N Main", "addr:city": "Paris", "addr:state": "TX", "addr:postcode": "75462", "addr:country": "US", "brand": "CEFCO"}, "geometry": {"type": "Point", "coordinates": [-95.55405, 33.688293]}},
{"type": "Feature", "id": "xzXSdDTs_5L3OaW1FUci6dDYBLQ=", "properties": {"ref": "4907", "amenity:fuel": true, "fuel:diesel": true, "fuel:HGV_diesel": false, "fuel:e85": false, "fuel:octane_87": true, "fuel:octane_89": true, "fuel:octane_93": true, "fuel:kerosene": false, "car_wash": false, "hgv": false, "@spider": "cefco", "addr:full": "3750 Lamar Ave", "addr:city": "Paris", "addr:state": "TX", "addr:postcode": "75460", "addr:country": "US", "brand": "CEFCO"}, "geometry": {"type": "Point", "coordinates": [-95.507659, 33.661441]}},
{"type": "Feature", "id": "a3pS2u1nHSKNBJLOj_IhCF4b5GU=", "properties": {"ref": "4906", "amenity:fuel": true, "fuel:diesel": true, "fuel:HGV_diesel": false, "fuel:e85": false, "fuel:octane_87": true, "fuel:octane_89": true, "fuel:octane_93": true, "fuel:kerosene": false, "car_wash": false, "hgv": false, "@spider": "cefco", "addr:full": "3905 Bonham St", "addr:city": "Paris", "addr:state": "TX", "addr:postcode": "75460", "addr:country": "US", "brand": "CEFCO"}, "geometry": {"type": "Point", "coordinates": [-95.600756, 33.660763]}},
{"type": "Feature", "id": "L1uFZcgFzY8xww5NOHNwqK9-Zk4=", "properties": {"ref": "4905", "amenity:fuel": true, "fuel:diesel": true, "fuel:HGV_diesel": false, "fuel:e85": false, "fuel:octane_87": true, "fuel:octane_89": true, "fuel:octane_93": true, "fuel:kerosene": false, "car_wash": false, "hgv": false, "@spider": "cefco", "addr:full": "427 E Loop 281", "addr:city": "Longview", "addr:state": "TX", "addr:postcode": "75605", "addr:country": "US", "brand": "CEFCO"}, "geometry": {"type": "Point", "coordinates": [-94.733009, 32.542137]}},
{"type": "Feature", "id": "xruRmmM8c5hD7NUtV82NKA1U-Qc=", "properties": {"ref": "4904", "amenity:fuel": true, "fuel:diesel": true, "fuel:HGV_diesel": false, "fuel:e85": false, "fuel:octane_87": true, "fuel:octane_89": true, "fuel:octane_93": true, "fuel:kerosene": false, "car_wash": false, "hgv": false, "@spider": "cefco", "addr:full": "5875 N Market", "addr:city": "Shreveport", "addr:state": "LA", "addr:postcode": "71107", "addr:country": "US", "brand": "CEFCO"}, "geometry": {"type": "Point", "coordinates": [-93.843566, 32.601444]}},
{"type": "Feature", "id": "F1k-23Zl11syhB2YjCv-63T6r0Q=", "properties": {"ref": "4902", "amenity:fuel": true, "fuel:diesel": true, "fuel:HGV_diesel": false, "fuel:e85": false, "fuel:octane_87": true, "fuel:octane_89": true, "fuel:octane_93": true, "fuel:kerosene": false, "car_wash": false, "hgv": false, "@spider": "cefco", "addr:full": "309 US 59", "addr:city": "Queen City", "addr:state": "TX", "addr:postcode": "75572", "addr:country": "US", "brand": "CEFCO"}, "geometry": {"type": "Point", "coordinates": [-94.16137, 33.14168]}},
{"type": "Feature", "id": "OkLPXCAtx_QW5BftDVdkBuGGk58=", "properties": {"ref": "4901", "amenity:fuel": true, "fuel:diesel": true, "fuel:HGV_diesel": false, "fuel:e85": false, "fuel:octane_87": true, "fuel:octane_89": true, "fuel:octane_93": true, "fuel:kerosene": false, "car_wash": false, "hgv": false, "@spider": "cefco", "addr:full": "3305 S Eastman Rd", "addr:city": "Longview", "addr:state": "TX", "addr:postcode": "75602", "addr:country": "US", "brand": "CEFCO"}, "geometry": {"type": "Point", "coordinates": [-94.708938, 32.451839]}},
{"type": "Feature", "id": "_v4QrlLgpVZufZoyP3xQ8UBSQvA=", "properties": {"ref": "4900", "amenity:fuel": true, "fuel:diesel": true, "fuel:HGV_diesel": false, "fuel:e85": false, "fuel:octane_87": true, "fuel:octane_89": true, "fuel:octane_93": true, "fuel:kerosene": false, "car_wash": false, "hgv": false, "@spider": "cefco", "addr:full": "608 Hwy 80 E", "addr:city": "White Oak", "addr:state": "TX", "addr:postcode": "75693", "addr:country": "US", "brand": "CEFCO"}, "geometry": {"type": "Point", "coordinates": [-94.872657, 32.521873]}},
{"type": "Feature", "id": "5m81xZefpevWx0SBRzVUtB5JjNc=", "properties": {"ref": "4899", "amenity:fuel": true, "fuel:diesel": true, "fuel:HGV_diesel": false, "fuel:e85": false, "fuel:octane_87": true, "fuel:octane_89": true, "fuel:octane_93": true, "fuel:kerosene": false, "car_wash": false, "hgv": false, "@spider": "cefco", "addr:full": "1711 Judson Rd", "addr:city": "Longview", "addr:state": "TX", "addr:postcode": "75601", "addr:country": "US", "brand": "CEFCO"}, "geometry": {"type": "Point", "coordinates": [-94.743057, 32.52703]}},
{"type": "Feature", "id": "L3TsCcwmN9IhpmoEH5OU308VWmo=", "properties": {"ref": "4898", "amenity:fuel": true, "fuel:diesel": true, "fuel:HGV_diesel": false, "fuel:e85": false, "fuel:octane_87": true, "fuel:octane_89": true, "fuel:octane_93": true, "fuel:kerosene": false, "car_wash": false, "hgv": false, "@spider": "cefco", "addr:full": "3001 Judson Rd", "addr:city": "Longview", "addr:state": "TX", "addr:postcode": "75605", "addr:country": "US", "brand": "CEFCO"}, "geometry": {"type": "Point", "coordinates": [-94.749832, 32.546665]}},
{"type": "Feature", "id": "y0v7o7ZJb67FLKtU_Umt-aGkULk=", "properties": {"ref": "4897", "amenity:fuel": true, "fuel:diesel": true, "fuel:HGV_diesel": false, "fuel:e85": false, "fuel:octane_87": true, "fuel:octane_89": true, "fuel:octane_93": true, "fuel:kerosene": false, "car_wash": false, "hgv": false, "@spider": "cefco", "addr:full": "3357 Gilmer Rd", "addr:city": "Longview", "addr:state": "TX", "addr:postcode": "75604", "addr:country": "US", "brand": "CEFCO"}, "geometry": {"type": "Point", "coordinates": [-94.799392, 32.547317]}},
{"type": "Feature", "id": "0NedT_O9mnMPD6XulG1qNQ1LjZY=", "properties": {"ref": "6083", "amenity:fuel": true, "fuel:diesel": true, "fuel:HGV_diesel": false, "fuel:e85": false, "fuel:octane_87": true, "fuel:octane_89": true, "fuel:octane_93": true, "fuel:kerosene": false, "car_wash": false, "hgv": false, "@spider": "cefco", "addr:full": "2309 W Main", "addr:city": "Gun Barrel City", "addr:state": "TX", "addr:postcode": "75147", "addr:country": "US", "brand": "CEFCO"}, "geometry": {"type": "Point", "coordinates": [-96.150696, 32.330901]}},
{"type": "Feature", "id": "zrFyUMmV-8nFvhy2uC6MVk_FPHw=", "properties": {"ref": "4896", "amenity:fuel": true, "fuel:diesel": true, "fuel:HGV_diesel": false, "fuel:e85": false, "fuel:octane_87": true, "fuel:octane_89": true, "fuel:octane_93": true, "fuel:kerosene": false, "car_wash": false, "hgv": false, "@spider": "cefco", "addr:full": "611 E Marshall Ave", "addr:city": "Longview", "addr:state": "TX", "addr:postcode": "75604", "addr:country": "US", "brand": "CEFCO"}, "geometry": {"type": "Point", "coordinates": [-94.731834, 32.501632]}},
{"type": "Feature", "id": "KH7yKB66MvFoRZdRcjpElpmKEQc=", "properties": {"ref": "4895", "amenity:fuel": true, "fuel:diesel": false, "fuel:HGV_diesel": false, "fuel:e85": false, "fuel:octane_87": true, "fuel:octane_89": true, "fuel:octane_93": true, "fuel:kerosene": false, "car_wash": false, "hgv": false, "@spider": "cefco", "addr:full": "1222 W/SW Loop 323", "addr:city": "Tyler", "addr:state": "TX", "addr:postcode": "75701", "addr:country": "US", "brand": "CEFCO"}, "geometry": {"type": "Point", "coordinates": [-95.314444, 32.303485]}},
{"type": "Feature", "id": "sf8qvyxStj6ugE4j9JlbfIlbbVs=", "properties": {"ref": "4894", "amenity:fuel": true, "fuel:diesel": true, "fuel:HGV_diesel": false, "fuel:e85": false, "fuel:octane_87": true, "fuel:octane_89": true, "fuel:octane_93": true, "fuel:kerosene": false, "car_wash": false, "hgv": false, "@spider": "cefco", "addr:full": "Hwy 31, Box 554", "addr:city": "Brownsboro", "addr:state": "TX", "addr:postcode": "75756", "addr:country": "US", "brand": "CEFCO"}, "geometry": {"type": "Point", "coordinates": [-95.60481, 32.30421]}},
{"type": "Feature", "id": "qZnm4bwxf1OD5aSJQ1rWaqu26rY=", "properties": {"ref": "4893", "amenity:fuel": true, "fuel:diesel": false, "fuel:HGV_diesel": false, "fuel:e85": false, "fuel:octane_87": true, "fuel:octane_89": true, "fuel:octane_93": true, "fuel:kerosene": false, "car_wash": false, "hgv": false, "@spider": "cefco", "addr:full": "5120 Old Jacksonville Hwy", "addr:city": "Tyler", "addr:state": "TX", "addr:postcode": "75703", "addr:country": "US", "brand": "CEFCO"}, "geometry": {"type": "Point", "coordinates": [-95.325881, 32.292026]}},
{"type": "Feature", "id": "-_kQrp5bjSUVk-p8djm1Duf99-0=", "properties": {"ref": "4892", "amenity:fuel": true, "fuel:diesel": true, "fuel:HGV_diesel": false, "fuel:e85": false, "fuel:octane_87": true, "fuel:octane_89": true, "fuel:octane_93": true, "fuel:kerosene": false, "car_wash": false, "hgv": false, "@spider": "cefco", "addr:full": "899 Pinson Rd", "addr:city": "Forney", "addr:state": "TX", "addr:postcode": "75126", "addr:country": "US", "brand": "CEFCO"}, "geometry": {"type": "Point", "coordinates": [-96.466049, 32.75798]}},
{"type": "Feature", "id": "jnCO_Oj727I9JzIQ3P6nghoVJUs=", "properties": {"ref": "4891", "amenity:fuel": true, "fuel:diesel": true, "fuel:HGV_diesel": false, "fuel:e85": false, "fuel:octane_87": true, "fuel:octane_89": true, "fuel:octane_93": true, "fuel:kerosene": false, "car_wash": false, "hgv": false, "@spider": "cefco", "addr:full": "805 W Houston", "addr:city": "Tyler", "addr:state": "TX", "addr:postcode": "75702", "addr:country": "US", "brand": "CEFCO"}, "geometry": {"type": "Point", "coordinates": [-95.309547, 32.344047]}},
{"type": "Feature", "id": "e6TKf0FnA94tlV5t2B4UY53hULY=", "properties": {"ref": "4890", "amenity:fuel": true, "fuel:diesel": true, "fuel:HGV_diesel": false, "fuel:e85": false, "fuel:octane_87": true, "fuel:octane_89": true, "fuel:octane_93": true, "fuel:kerosene": false, "car_wash": false, "hgv": false, "@spider": "cefco", "addr:full": "200 S Third", "addr:city": "Mabank", "addr:state": "TX", "addr:postcode": "75147", "addr:country": "US", "brand": "CEFCO"}, "geometry": {"type": "Point", "coordinates": [-96.101375, 32.36538]}},
{"type": "Feature", "id": "NLeB_JvzA5mY5oK0G2aj3DCVy80=", "properties": {"ref": "4888", "amenity:fuel": true, "fuel:diesel": true, "fuel:HGV_diesel": false, "fuel:e85": false, "fuel:octane_87": true, "fuel:octane_89": true, "fuel:octane_93": true, "fuel:kerosene": false, "car_wash": false, "hgv": false, "@spider": "cefco", "addr:full": "13168 Hwy 64 E", "addr:city": "Tyler", "addr:state": "TX", "addr:postcode": "75707", "addr:country": "US", "brand": "CEFCO"}, "geometry": {"type": "Point", "coordinates": [-95.1893, 32.311203]}},
{"type": "Feature", "id": "f9hzPHpFJeOgrAkbzfKjm9ineSQ=", "properties": {"ref": "4887", "amenity:fuel": true, "fuel:diesel": true, "fuel:HGV_diesel": false, "fuel:e85": false, "fuel:octane_87": true, "fuel:octane_89": true, "fuel:octane_93": true, "fuel:kerosene": false, "car_wash": false, "hgv": false, "@spider": "cefco", "addr:full": "22137 Hwy 155", "addr:city": "Flint", "addr:state": "TX", "addr:postcode": "75762", "addr:country": "US", "brand": "CEFCO"}, "geometry": {"type": "Point", "coordinates": [-95.455673, 32.158512]}},
{"type": "Feature", "id": "3qUTz356XLEuz5oLfcGBI7DOk0M=", "properties": {"ref": "4886", "amenity:fuel": true, "fuel:diesel": true, "fuel:HGV_diesel": false, "fuel:e85": false, "fuel:octane_87": true, "fuel:octane_89": true, "fuel:octane_93": true, "fuel:kerosene": false, "car_wash": false, "hgv": false, "@spider": "cefco", "addr:full": "101 N Gun Barrel Lane", "addr:city": "Gun Barrel City", "addr:state": "TX", "addr:postcode": "75147", "addr:country": "US", "brand": "CEFCO"}, "geometry": {"type": "Point", "coordinates": [-96.112571, 32.330953]}},
{"type": "Feature", "id": "7ELXuIIUTWlMVqH5zWNg1ktxgkg=", "properties": {"ref": "4885", "amenity:fuel": true, "fuel:diesel": true, "fuel:HGV_diesel": false, "fuel:e85": false, "fuel:octane_87": true, "fuel:octane_89": true, "fuel:octane_93": true, "fuel:kerosene": false, "car_wash": false, "hgv": false, "@spider": "cefco", "addr:full": "125 N Hwy 274", "addr:city": "Kemp", "addr:state": "TX", "addr:postcode": "75143", "addr:country": "US", "brand": "CEFCO"}, "geometry": {"type": "Point", "coordinates": [-96.223335, 32.433479]}},
{"type": "Feature", "id": "WXKuNXG77VTBGvO3gv8eFZYY4tY=", "properties": {"ref": "4884", "amenity:fuel": true, "fuel:diesel": true, "fuel:HGV_diesel": false, "fuel:e85": false, "fuel:octane_87": true, "fuel:octane_89": true, "fuel:octane_93": true, "fuel:kerosene": false, "car_wash": false, "hgv": false, "@spider": "cefco", "addr:full": "8604 Hwy 64 E", "addr:city": "Tyler", "addr:state": "TX", "addr:postcode": "75707", "addr:country": "US", "brand": "CEFCO"}, "geometry": {"type": "Point", "coordinates": [-95.253143, 32.332447]}},
{"type": "Feature", "id": "k5XckbJQo6EVG324MVYqBuGKv2M=", "properties": {"ref": "4883", "amenity:fuel": true, "fuel:diesel": true, "fuel:HGV_diesel": false, "fuel:e85": false, "fuel:octane_87": true, "fuel:octane_89": true, "fuel:octane_93": true, "fuel:kerosene": false, "car_wash": false, "hgv": false, "@spider": "cefco", "addr:full": "11812 Hwy 64 W", "addr:city": "Tyler", "addr:state": "TX", "addr:postcode": "75704", "addr:country": "US", "brand": "CEFCO"}, "geometry": {"type": "Point", "coordinates": [-95.362111, 32.357691]}},
{"type": "Feature", "id": "B6jDY8cqUUduAxSQwYcQBClxMRA=", "properties": {"ref": "4882", "amenity:fuel": true, "fuel:diesel": true, "fuel:HGV_diesel": false, "fuel:e85": false, "fuel:octane_87": true, "fuel:octane_89": true, "fuel:octane_93": true, "fuel:kerosene": false, "car_wash": false, "hgv": false, "@spider": "cefco", "addr:full": "5502 Old Bullard Rd", "addr:city": "Tyler", "addr:state": "TX", "addr:postcode": "75703", "addr:country": "US", "brand": "CEFCO"}, "geometry": {"type": "Point", "coordinates": [-95.305717, 32.28918]}},
{"type": "Feature", "id": "7jjIE438KmeX4psP7DEvJ5Sw_wI=", "properties": {"ref": "4881", "amenity:fuel": true, "fuel:diesel": true, "fuel:HGV_diesel": false, "fuel:e85": false, "fuel:octane_87": true, "fuel:octane_89": true, "fuel:octane_93": true, "fuel:kerosene": false, "car_wash": false, "hgv": false, "@spider": "cefco", "addr:full": "601 S Prairieville St", "addr:city": "Athens", "addr:state": "TX", "addr:postcode": "75751", "addr:country": "US", "brand": "CEFCO"}, "geometry": {"type": "Point", "coordinates": [-95.855164, 32.196123]}},
{"type": "Feature", "id": "af33p_3_zN0GR1SBhjZUMA0js3c=", "properties": {"ref": "4879", "amenity:fuel": true, "fuel:diesel": true, "fuel:HGV_diesel": false, "fuel:e85": false, "fuel:octane_87": true, "fuel:octane_89": true, "fuel:octane_93": true, "fuel:kerosene": false, "car_wash": false, "hgv": false, "@spider": "cefco", "addr:full": "2300 GIlmer Rd", "addr:city": "Longview", "addr:state": "TX", "addr:postcode": "75604", "addr:country": "US", "brand": "CEFCO"}, "geometry": {"type": "Point", "coordinates": [-94.787969, 32.530434]}},
{"type": "Feature", "id": "j5WuBUQG7wj7ugm7xFu8jR8J8JY=", "properties": {"ref": "4878", "amenity:fuel": true, "fuel:diesel": true, "fuel:HGV_diesel": false, "fuel:e85": false, "fuel:octane_87": true, "fuel:octane_89": true, "fuel:octane_93": true, "fuel:kerosene": false, "car_wash": false, "hgv": false, "@spider": "cefco", "addr:full": "2851 N Eastman Rd", "addr:city": "Longview", "addr:state": "TX", "addr:postcode": "75605", "addr:country": "US", "brand": "CEFCO"}, "geometry": {"type": "Point", "coordinates": [-94.722702, 32.531742]}},
{"type": "Feature", "id": "lr9YJvkdzYbfsGvFTI0SUhIuEno=", "properties": {"ref": "4877", "amenity:fuel": true, "fuel:diesel": true, "fuel:HGV_diesel": false, "fuel:e85": false, "fuel:octane_87": true, "fuel:octane_89": true, "fuel:octane_93": true, "fuel:kerosene": false, "car_wash": false, "hgv": false, "@spider": "cefco", "addr:full": "1101 McCann Rd", "addr:city": "Longview", "addr:state": "TX", "addr:postcode": "75601", "addr:country": "US", "brand": "CEFCO"}, "geometry": {"type": "Point", "coordinates": [-94.748855, 32.508293]}},
{"type": "Feature", "id": "8WXgJXOQ_UPXxFZrdRM8ccNCKbw=", "properties": {"ref": "4876", "amenity:fuel": true, "fuel:diesel": true, "fuel:HGV_diesel": false, "fuel:e85": false, "fuel:octane_87": true, "fuel:octane_89": true, "fuel:octane_93": true, "fuel:kerosene": false, "car_wash": false, "hgv": false, "@spider": "cefco", "addr:full": "100 Alexander Rd", "addr:city": "Mount Pleasant", "addr:state": "TX", "addr:postcode": "75455", "addr:country": "US", "brand": "CEFCO"}, "geometry": {"type": "Point", "coordinates": [-94.967681, 33.135734]}},
{"type": "Feature", "id": "896nJrBrzRUx2v5G0MpnnmNLOf8=", "properties": {"ref": "6082", "amenity:fuel": true, "fuel:diesel": true, "fuel:HGV_diesel": true, "fuel:e85": true, "fuel:octane_87": true, "fuel:octane_89": true, "fuel:octane_93": true, "fuel:kerosene": false, "car_wash": false, "hgv": true, "@spider": "cefco", "addr:full": "2900 South Church St.", "addr:city": "Paris", "addr:state": "TX", "addr:postcode": "75460", "addr:country": "US", "brand": "CEFCO"}, "geometry": {"type": "Point", "coordinates": [-95.56188, 33.63053]}},
{"type": "Feature", "id": "Fga2f_82L93WCaFHieaHcei8nE4=", "properties": {"ref": "5735", "amenity:fuel": true, "fuel:diesel": true, "fuel:HGV_diesel": false, "fuel:e85": true, "fuel:octane_87": true, "fuel:octane_89": true, "fuel:octane_93": true, "fuel:kerosene": false, "car_wash": false, "hgv": false, "@spider": "cefco", "addr:full": "771 US HWY 90 West", "addr:city": "DeFuniak Springs", "addr:state": "FL", "addr:postcode": "32433", "addr:country": "US", "brand": "CEFCO"}, "geometry": {"type": "Point", "coordinates": [-86.13177, 30.72679]}},
{"type": "Feature", "id": "npr-GH8MNIbxa0naBK3XUoWPJck=", "properties": {"ref": "5558", "amenity:fuel": true, "fuel:diesel": true, "fuel:HGV_diesel": false, "fuel:e85": false, "fuel:octane_87": true, "fuel:octane_89": true, "fuel:octane_93": true, "fuel:kerosene": false, "car_wash": false, "hgv": false, "@spider": "cefco", "addr:full": "101 State Hwy 95", "addr:city": "Little River-Academy", "addr:state": "TX", "addr:postcode": "76554", "addr:country": "US", "brand": "CEFCO"}, "geometry": {"type": "Point", "coordinates": [-97.34154, 30.98016]}},
{"type": "Feature", "id": "YiOZCRkbJyac_Ehwv2Lon9jMg6g=", "properties": {"ref": "5502", "amenity:fuel": true, "fuel:diesel": true, "fuel:HGV_diesel": false, "fuel:e85": false, "fuel:octane_87": true, "fuel:octane_89": true, "fuel:octane_93": true, "fuel:kerosene": false, "car_wash": false, "hgv": false, "@spider": "cefco", "addr:full": "107 S State Highway 6", "addr:city": "Marlin", "addr:state": "TX", "addr:postcode": "76661", "addr:country": "US", "brand": "CEFCO"}, "geometry": {"type": "Point", "coordinates": [-96.88998, 31.28521]}},
{"type": "Feature", "id": "NX6VbXOHzMDsxn2hxb65IC5UfHw=", "properties": {"ref": "5367", "amenity:fuel": true, "fuel:diesel": true, "fuel:HGV_diesel": false, "fuel:e85": false, "fuel:octane_87": true, "fuel:octane_89": true, "fuel:octane_93": true, "fuel:kerosene": false, "car_wash": false, "hgv": false, "@spider": "cefco", "addr:full": "700 N Railroad Ave", "addr:city": "Mount Enterprise", "addr:state": "TX", "addr:postcode": "75681", "addr:country": "US", "brand": "CEFCO"}, "geometry": {"type": "Point", "coordinates": [-94.68328, 31.92597]}},
{"type": "Feature", "id": "jgwg3AWYUZI45HSvO707A485E4c=", "properties": {"ref": "4960", "amenity:fuel": true, "fuel:diesel": true, "fuel:HGV_diesel": false, "fuel:e85": true, "fuel:octane_87": true, "fuel:octane_89": true, "fuel:octane_93": true, "fuel:kerosene": false, "car_wash": false, "hgv": false, "@spider": "cefco", "addr:full": "133 Central Texas Expy", "addr:city": "Nolanville", "addr:state": "TX", "addr:postcode": "76559", "addr:country": "US", "brand": "CEFCO"}, "geometry": {"type": "Point", "coordinates": [-97.64026, 31.08191]}},
{"type": "Feature", "id": "JdKa-aIGiTqKOWCq2tyIIREL6KA=", "properties": {"ref": "4959", "amenity:fuel": true, "fuel:diesel": true, "fuel:HGV_diesel": false, "fuel:e85": true, "fuel:octane_87": true, "fuel:octane_89": true, "fuel:octane_93": true, "fuel:kerosene": false, "car_wash": false, "hgv": false, "@spider": "cefco", "addr:full": "5951 Airport Road", "addr:city": "Temple", "addr:state": "TX", "addr:postcode": "76504", "addr:country": "US", "brand": "CEFCO"}, "geometry": {"type": "Point", "coordinates": [-97.39969, 31.12789]}},
{"type": "Feature", "id": "O-sevEt4GF9vT4pQWg9PFRxcMZE=", "properties": {"ref": "4958", "amenity:fuel": true, "fuel:diesel": true, "fuel:HGV_diesel": false, "fuel:e85": true, "fuel:octane_87": true, "fuel:octane_89": true, "fuel:octane_93": true, "fuel:kerosene": false, "car_wash": false, "hgv": false, "@spider": "cefco", "addr:full": "549 S Walcott St", "addr:city": "Jefferson", "addr:state": "TX", "addr:postcode": "75657", "addr:country": "US", "brand": "CEFCO"}, "geometry": {"type": "Point", "coordinates": [-94.35579, 32.755889]}},
{"type": "Feature", "id": "CvVkEdfBojqca7w3GQBxhx-ZOig=", "properties": {"ref": "4957", "amenity:fuel": true, "fuel:diesel": true, "fuel:HGV_diesel": false, "fuel:e85": false, "fuel:octane_87": true, "fuel:octane_89": true, "fuel:octane_93": true, "fuel:kerosene": false, "car_wash": false, "hgv": false, "@spider": "cefco", "addr:full": "16158 Hwy 31 W", "addr:city": "Tyler", "addr:state": "TX", "addr:postcode": "75709", "addr:country": "US", "brand": "CEFCO"}, "geometry": {"type": "Point", "coordinates": [-95.438843, 32.322517]}},
{"type": "Feature", "id": "avRkJidKnwPnGSei-xcpSAIsIv0=", "properties": {"ref": "4948", "amenity:fuel": true, "fuel:diesel": true, "fuel:HGV_diesel": true, "fuel:e85": false, "fuel:octane_87": true, "fuel:octane_89": true, "fuel:octane_93": true, "fuel:kerosene": false, "car_wash": false, "hgv": true, "@spider": "cefco", "addr:full": "7401 Northwest Freeway", "addr:city": "Wichita Falls", "addr:state": "TX", "addr:postcode": "76367", "addr:country": "US", "brand": "CEFCO"}, "geometry": {"type": "Point", "coordinates": [-98.604767, 33.955231]}},
{"type": "Feature", "id": "zsRpzVR-FbncPLp_RjBIekrV-n8=", "properties": {"ref": "4937", "amenity:fuel": true, "fuel:diesel": true, "fuel:HGV_diesel": false, "fuel:e85": false, "fuel:octane_87": true, "fuel:octane_89": true, "fuel:octane_93": true, "fuel:kerosene": false, "car_wash": false, "hgv": false, "@spider": "cefco", "addr:full": "512 US-60", "addr:city": "Panhandle", "addr:state": "TX", "addr:postcode": "79068", "addr:country": "US", "brand": "CEFCO"}, "geometry": {"type": "Point", "coordinates": [-101.382474, 35.337645]}},
{"type": "Feature", "id": "-2CxD7Pv52CKE2vytD-8wuiVKsQ=", "properties": {"ref": "4908", "amenity:fuel": true, "fuel:diesel": true, "fuel:HGV_diesel": false, "fuel:e85": false, "fuel:octane_87": true, "fuel:octane_89": true, "fuel:octane_93": true, "fuel:kerosene": false, "car_wash": false, "hgv": false, "@spider": "cefco", "addr:full": "2685 Lamar Ave", "addr:city": "Paris", "addr:state": "TX", "addr:postcode": "75460", "addr:country": "US", "brand": "CEFCO"}, "geometry": {"type": "Point", "coordinates": [-95.527114, 33.661254]}},
{"type": "Feature", "id": "KdDa6-X-TB6HvtKolFg_uYPqGwI=", "properties": {"ref": "4880", "amenity:fuel": true, "fuel:diesel": true, "fuel:HGV_diesel": false, "fuel:e85": false, "fuel:octane_87": true, "fuel:octane_89": true, "fuel:octane_93": true, "fuel:kerosene": false, "car_wash": false, "hgv": false, "@spider": "cefco", "addr:full": "533 Interstate 30 West", "addr:city": "Mount Vernon", "addr:state": "TX", "addr:postcode": "75457", "addr:country": "US", "brand": "CEFCO"}, "geometry": {"type": "Point", "coordinates": [-95.229992, 33.162304]}},
{"type": "Feature", "id": "sfqvCDWEkdoz-ONsk-6Kl4CnQnc=", "properties": {"ref": "4875", "amenity:fuel": true, "fuel:diesel": true, "fuel:HGV_diesel": false, "fuel:e85": false, "fuel:octane_87": true, "fuel:octane_89": true, "fuel:octane_93": true, "fuel:kerosene": false, "car_wash": false, "hgv": false, "@spider": "cefco", "addr:full": "204 E Pinecrest Dr", "addr:city": "Marshall", "addr:state": "TX", "addr:postcode": "75670", "addr:country": "US", "brand": "CEFCO"}, "geometry": {"type": "Point", "coordinates": [-94.365674, 32.526749]}},
{"type": "Feature", "id": "aF__7ecBQpiF51gihXLx15TpLWc=", "properties": {"ref": "4874", "amenity:fuel": true, "fuel:diesel": true, "fuel:HGV_diesel": false, "fuel:e85": false, "fuel:octane_87": true, "fuel:octane_89": true, "fuel:octane_93": true, "fuel:kerosene": false, "car_wash": false, "hgv": false, "@spider": "cefco", "addr:full": "212 W Grand St", "addr:city": "Marshall", "addr:state": "TX", "addr:postcode": "75670", "addr:country": "US", "brand": "CEFCO"}, "geometry": {"type": "Point", "coordinates": [-94.368564, 32.548401]}},
{"type": "Feature", "id": "NzwO3jK95h6wb1LPqmR8l-SZpCU=", "properties": {"ref": "4873", "amenity:fuel": true, "fuel:diesel": true, "fuel:HGV_diesel": false, "fuel:e85": false, "fuel:octane_87": true, "fuel:octane_89": true, "fuel:octane_93": true, "fuel:kerosene": false, "car_wash": false, "hgv": false, "@spider": "cefco", "addr:full": "210 W Broadway", "addr:city": "Big Sandy", "addr:state": "TX", "addr:postcode": "75755", "addr:country": "US", "brand": "CEFCO"}, "geometry": {"type": "Point", "coordinates": [-95.112487, 32.583961]}},
{"type": "Feature", "id": "_kQ3EiaFSZ08YGNtcF8hKLhpoD0=", "properties": {"ref": "4872", "amenity:fuel": true, "fuel:diesel": true, "fuel:HGV_diesel": false, "fuel:e85": false, "fuel:octane_87": true, "fuel:octane_89": true, "fuel:octane_93": true, "fuel:kerosene": false, "car_wash": false, "hgv": false, "@spider": "cefco", "addr:full": "607 San Augustine St", "addr:city": "Center", "addr:state": "TX", "addr:postcode": "75935", "addr:country": "US", "brand": "CEFCO"}, "geometry": {"type": "Point", "coordinates": [-94.183676, 31.790059]}},
{"type": "Feature", "id": "Jv7LxHoGzTmxNjgaghB-BIwd_JE=", "properties": {"ref": "4871", "amenity:fuel": true, "fuel:diesel": true, "fuel:HGV_diesel": true, "fuel:e85": false, "fuel:octane_87": true, "fuel:octane_89": true, "fuel:octane_93": true, "fuel:kerosene": false, "car_wash": false, "hgv": true, "@spider": "cefco", "addr:full": "Hwy 149 N", "addr:city": "Tatum", "addr:state": "TX", "addr:postcode": "75691", "addr:country": "US", "brand": "CEFCO"}, "geometry": {"type": "Point", "coordinates": [-94.592956, 32.36066]}},
{"type": "Feature", "id": "cCbUo2cG8SvlcB_FGfd0QWN_f6Y=", "properties": {"ref": "4869", "amenity:fuel": true, "fuel:diesel": true, "fuel:HGV_diesel": true, "fuel:e85": false, "fuel:octane_87": true, "fuel:octane_89": true, "fuel:octane_93": true, "fuel:kerosene": false, "car_wash": false, "hgv": true, "@spider": "cefco", "addr:full": "1705 HWY 82 West", "addr:city": "Greenville", "addr:state": "MS", "addr:postcode": "38701", "addr:country": "US", "brand": "CEFCO"}, "geometry": {"type": "Point", "coordinates": [-91.070335, 33.37979]}},
{"type": "Feature", "id": "SQTt6YVWv4KYDpKUB7qZrQMnIjo=", "properties": {"ref": "4868", "amenity:fuel": true, "fuel:diesel": true, "fuel:HGV_diesel": false, "fuel:e85": false, "fuel:octane_87": true, "fuel:octane_89": true, "fuel:octane_93": true, "fuel:kerosene": false, "car_wash": true, "hgv": false, "@spider": "cefco", "addr:full": "1457 HWY 1 South", "addr:city": "Greenville", "addr:state": "MS", "addr:postcode": "38701", "addr:country": "US", "brand": "CEFCO"}, "geometry": {"type": "Point", "coordinates": [-91.039611, 33.382053]}},
{"type": "Feature", "id": "1UazVLWfh8sIhc2L6HpBiRHFy5A=", "properties": {"ref": "4956", "amenity:fuel": true, "fuel:diesel": true, "fuel:HGV_diesel": false, "fuel:e85": false, "fuel:octane_87": true, "fuel:octane_89": true, "fuel:octane_93": true, "fuel:kerosene": false, "car_wash": false, "hgv": false, "@spider": "cefco", "addr:full": "5353 S. Ferdon Blvd", "addr:city": "Crestview", "addr:state": "FL", "addr:postcode": "32539", "addr:country": "US", "brand": "CEFCO"}, "geometry": {"type": "Point", "coordinates": [-86.570257, 30.701189]}},
{"type": "Feature", "id": "-hiKTtut1CMf5iF2R-_TXpIFoLM=", "properties": {"ref": "4955", "amenity:fuel": true, "fuel:diesel": true, "fuel:HGV_diesel": false, "fuel:e85": false, "fuel:octane_87": true, "fuel:octane_89": true, "fuel:octane_93": true, "fuel:kerosene": false, "car_wash": false, "hgv": false, "@spider": "cefco", "addr:full": "111 N CO Highway 393", "addr:city": "Santa Rosa Beach", "addr:state": "FL", "addr:postcode": "32459", "addr:country": "US", "brand": "CEFCO"}, "geometry": {"type": "Point", "coordinates": [-86.229055, 30.375649]}},
{"type": "Feature", "id": "5K3nOd-e3AWWjlrxAo4OCjnFiIU=", "properties": {"ref": "4950", "amenity:fuel": true, "fuel:diesel": true, "fuel:HGV_diesel": false, "fuel:e85": false, "fuel:octane_87": true, "fuel:octane_89": true, "fuel:octane_93": true, "fuel:kerosene": false, "car_wash": false, "hgv": false, "@spider": "cefco", "addr:full": "2704 Spring Hill Ave", "addr:city": "Mobile", "addr:state": "AL", "addr:postcode": "36607", "addr:country": "US", "brand": "CEFCO"}, "geometry": {"type": "Point", "coordinates": [-88.104252, 30.697033]}},
{"type": "Feature", "id": "OI9eTVHl8pqofsZLeEhb_HRMuSw=", "properties": {"ref": "4867", "amenity:fuel": true, "fuel:diesel": true, "fuel:HGV_diesel": false, "fuel:e85": false, "fuel:octane_87": true, "fuel:octane_89": true, "fuel:octane_93": true, "fuel:kerosene": false, "car_wash": false, "hgv": false, "@spider": "cefco", "addr:full": "3791 Simpson Highway 49", "addr:city": "Mendenhall", "addr:state": "MS", "addr:postcode": "39114", "addr:country": "US", "brand": "CEFCO"}, "geometry": {"type": "Point", "coordinates": [-89.875096, 31.983171]}},
{"type": "Feature", "id": "DzIx8Y5CfBVImxDleAH_ccf79FU=", "properties": {"ref": "4866", "amenity:fuel": true, "fuel:diesel": true, "fuel:HGV_diesel": true, "fuel:e85": false, "fuel:octane_87": true, "fuel:octane_89": true, "fuel:octane_93": true, "fuel:kerosene": false, "car_wash": false, "hgv": true, "@spider": "cefco", "addr:full": "4200 Wyndale", "addr:city": "Terry", "addr:state": "MS", "addr:postcode": "39170", "addr:country": "US", "brand": "CEFCO"}, "geometry": {"type": "Point", "coordinates": [-90.287536, 32.134483]}},
{"type": "Feature", "id": "TkDlvWeHCsHaA0RT3GTY9ByUrlw=", "properties": {"ref": "4865", "amenity:fuel": true, "fuel:diesel": true, "fuel:HGV_diesel": false, "fuel:e85": false, "fuel:octane_87": true, "fuel:octane_89": true, "fuel:octane_93": true, "fuel:kerosene": false, "car_wash": true, "hgv": false, "@spider": "cefco", "addr:full": "1563 Simpson HWY 49 South", "addr:city": "Magee", "addr:state": "MS", "addr:postcode": "39111", "addr:country": "US", "brand": "CEFCO"}, "geometry": {"type": "Point", "coordinates": [-89.739774, 31.866922]}},
{"type": "Feature", "id": "hBgBTl_yBjmxITJWHrQbAZxHgN0=", "properties": {"ref": "4864", "amenity:fuel": true, "fuel:diesel": true, "fuel:HGV_diesel": false, "fuel:e85": false, "fuel:octane_87": true, "fuel:octane_89": true, "fuel:octane_93": true, "fuel:kerosene": false, "car_wash": true, "hgv": false, "@spider": "cefco", "addr:full": "4445 Mangum Drive", "addr:city": "Flowood", "addr:state": "MS", "addr:postcode": "39232", "addr:country": "US", "brand": "CEFCO"}, "geometry": {"type": "Point", "coordinates": [-90.1081, 32.322662]}},
{"type": "Feature", "id": "u7EebLqijHbubnUn0lianM_tDlE=", "properties": {"ref": "4863", "amenity:fuel": true, "fuel:diesel": true, "fuel:HGV_diesel": false, "fuel:e85": false, "fuel:octane_87": true, "fuel:octane_89": true, "fuel:octane_93": true, "fuel:kerosene": false, "car_wash": true, "hgv": false, "@spider": "cefco", "addr:full": "1693 Old Fannin Road", "addr:city": "Flowood", "addr:state": "MS", "addr:postcode": "39232", "addr:country": "US", "brand": "CEFCO"}, "geometry": {"type": "Point", "coordinates": [-90.064301, 32.345871]}},
{"type": "Feature", "id": "bFswoGMBWas1rgRhjm1jnYU_zc4=", "properties": {"ref": "4862", "amenity:fuel": true, "fuel:diesel": true, "fuel:HGV_diesel": false, "fuel:e85": false, "fuel:octane_87": true, "fuel:octane_89": true, "fuel:octane_93": true, "fuel:kerosene": false, "car_wash": false, "hgv": false, "@spider": "cefco", "addr:full": "306 W Government Street", "addr:city": "Brandon", "addr:state": "MS", "addr:postcode": "39042", "addr:country": "US", "brand": "CEFCO"}, "geometry": {"type": "Point", "coordinates": [-89.989489, 32.273185]}},
{"type": "Feature", "id": "Yq-YnNJLYxLQDoPqfFvVPEl6NkY=", "properties": {"ref": "4860", "amenity:fuel": true, "fuel:diesel": true, "fuel:HGV_diesel": false, "fuel:e85": false, "fuel:octane_87": true, "fuel:octane_89": true, "fuel:octane_93": true, "fuel:kerosene": false, "car_wash": true, "hgv": false, "@spider": "cefco", "addr:full": "1920 HWY 19 North", "addr:city": "Meridian", "addr:state": "MS", "addr:postcode": "39307", "addr:country": "US", "brand": "CEFCO"}, "geometry": {"type": "Point", "coordinates": [-88.743995, 32.376903]}},
{"type": "Feature", "id": "NA32sRgrTTpag89yLFvcrNONIAg=", "properties": {"ref": "4859", "amenity:fuel": true, "fuel:diesel": true, "fuel:HGV_diesel": false, "fuel:e85": false, "fuel:octane_87": true, "fuel:octane_89": true, "fuel:octane_93": true, "fuel:kerosene": false, "car_wash": false, "hgv": false, "@spider": "cefco", "addr:full": "6501 HWY 45 Bypass", "addr:city": "Meridian", "addr:state": "MS", "addr:postcode": "39302", "addr:country": "US", "brand": "CEFCO"}, "geometry": {"type": "Point", "coordinates": [-88.689239, 32.243904]}},
{"type": "Feature", "id": "NluEnGOOOQhOeFO7GmpNFXD5I1I=", "properties": {"ref": "4858", "amenity:fuel": true, "fuel:diesel": true, "fuel:HGV_diesel": true, "fuel:e85": false, "fuel:octane_87": true, "fuel:octane_89": true, "fuel:octane_93": true, "fuel:kerosene": false, "car_wash": true, "hgv": true, "@spider": "cefco", "addr:full": "5211 Dale Drive", "addr:city": "Marion", "addr:state": "MS", "addr:postcode": "39342", "addr:country": "US", "brand": "CEFCO"}, "geometry": {"type": "Point", "coordinates": [-88.655838, 32.415508]}},
{"type": "Feature", "id": "0xH1JgHYzR98plBjVgYdUHD_h4s=", "properties": {"ref": "4857", "amenity:fuel": true, "fuel:diesel": true, "fuel:HGV_diesel": true, "fuel:e85": false, "fuel:octane_87": true, "fuel:octane_89": true, "fuel:octane_93": true, "fuel:kerosene": false, "car_wash": false, "hgv": true, "@spider": "cefco", "addr:full": "9111 Hwy 19 North", "addr:city": "Collinsville", "addr:state": "MS", "addr:postcode": "39325", "addr:country": "US", "brand": "CEFCO"}, "geometry": {"type": "Point", "coordinates": [-88.845985, 32.496871]}},
{"type": "Feature", "id": "hUnFnrNMCkuzSnZUAKA_zAqAbjE=", "properties": {"ref": "4856", "amenity:fuel": true, "fuel:diesel": true, "fuel:HGV_diesel": true, "fuel:e85": false, "fuel:octane_87": true, "fuel:octane_89": true, "fuel:octane_93": true, "fuel:kerosene": false, "car_wash": true, "hgv": true, "@spider": "cefco", "addr:full": "HWY 16East & 39 North", "addr:city": "De Kalb", "addr:state": "MS", "addr:postcode": "39328", "addr:country": "US", "brand": "CEFCO"}, "geometry": {"type": "Point", "coordinates": [-88.651165, 32.775448]}},
{"type": "Feature", "id": "QIvH2bGfRq1uT3Fxoii1Vr4yyAQ=", "properties": {"ref": "4854", "amenity:fuel": true, "fuel:diesel": true, "fuel:HGV_diesel": false, "fuel:e85": false, "fuel:octane_87": true, "fuel:octane_89": true, "fuel:octane_93": true, "fuel:kerosene": false, "car_wash": false, "hgv": false, "@spider": "cefco", "addr:full": "8960 HWY 19 North", "addr:city": "Collinsville", "addr:state": "MS", "addr:postcode": "39325", "addr:country": "US", "brand": "CEFCO"}, "geometry": {"type": "Point", "coordinates": [-88.84108, 32.491787]}},
{"type": "Feature", "id": "UbewkzdFyjMfNJDpaUekw6IS8F4=", "properties": {"ref": "4853", "amenity:fuel": true, "fuel:diesel": true, "fuel:HGV_diesel": false, "fuel:e85": false, "fuel:octane_87": true, "fuel:octane_89": true, "fuel:octane_93": true, "fuel:kerosene": false, "car_wash": true, "hgv": false, "@spider": "cefco", "addr:full": "291 Eastside Drive", "addr:city": "Newton", "addr:state": "MS", "addr:postcode": "39345", "addr:country": "US", "brand": "CEFCO"}, "geometry": {"type": "Point", "coordinates": [-89.139348, 32.337963]}},
{"type": "Feature", "id": "vHhrLtqKKFxuRQSVyECoZrPz5tg=", "properties": {"ref": "4852", "amenity:fuel": true, "fuel:diesel": true, "fuel:HGV_diesel": false, "fuel:e85": false, "fuel:octane_87": true, "fuel:octane_89": true, "fuel:octane_93": true, "fuel:kerosene": false, "car_wash": true, "hgv": false, "@spider": "cefco", "addr:full": "1534 HWY 16 West", "addr:city": "Philadelphia", "addr:state": "MS", "addr:postcode": "39350", "addr:country": "US", "brand": "CEFCO"}, "geometry": {"type": "Point", "coordinates": [-89.14923, 32.758025]}},
{"type": "Feature", "id": "px6HqK7wd6T12XbcDztuco-FN5g=", "properties": {"ref": "4851", "amenity:fuel": true, "fuel:diesel": true, "fuel:HGV_diesel": false, "fuel:e85": false, "fuel:octane_87": true, "fuel:octane_89": true, "fuel:octane_93": true, "fuel:kerosene": false, "car_wash": true, "hgv": false, "@spider": "cefco", "addr:full": "1303 Roebuck Drive", "addr:city": "Meridian", "addr:state": "MS", "addr:postcode": "39301", "addr:country": "US", "brand": "CEFCO"}, "geometry": {"type": "Point", "coordinates": [-88.691175, 32.350582]}},
{"type": "Feature", "id": "6pi2goItBufXG55EFBMCl7QVd_M=", "properties": {"ref": "4850", "amenity:fuel": true, "fuel:diesel": true, "fuel:HGV_diesel": true, "fuel:e85": false, "fuel:octane_87": true, "fuel:octane_89": true, "fuel:octane_93": true, "fuel:kerosene": false, "car_wash": true, "hgv": true, "@spider": "cefco", "addr:full": "9733 Old HWY 45 North", "addr:city": "Lauderdale", "addr:state": "MS", "addr:postcode": "39335", "addr:country": "US", "brand": "CEFCO"}, "geometry": {"type": "Point", "coordinates": [-88.515023, 32.520539]}},
{"type": "Feature", "id": "MHRymJ2j5WGV-JvZDOXe5tdxogk=", "properties": {"ref": "4848", "amenity:fuel": true, "fuel:diesel": true, "fuel:HGV_diesel": true, "fuel:e85": false, "fuel:octane_87": true, "fuel:octane_89": true, "fuel:octane_93": true, "fuel:kerosene": false, "car_wash": false, "hgv": true, "@spider": "cefco", "addr:full": "31821 US-43", "addr:city": "Thomasville", "addr:state": "AL", "addr:postcode": "36784", "addr:country": "US", "brand": "CEFCO"}, "geometry": {"type": "Point", "coordinates": [-87.742414, 31.904325]}},
{"type": "Feature", "id": "zqaE9dYTACCFRsfQs23eOf3UAKA=", "properties": {"ref": "4954", "amenity:fuel": true, "fuel:diesel": true, "fuel:HGV_diesel": false, "fuel:e85": false, "fuel:octane_87": true, "fuel:octane_89": true, "fuel:octane_93": true, "fuel:kerosene": false, "car_wash": false, "hgv": false, "@spider": "cefco", "addr:full": "9417 China Spring Road", "addr:city": "Waco", "addr:state": "TX", "addr:postcode": "76708", "addr:country": "US", "brand": "CEFCO"}, "geometry": {"type": "Point", "coordinates": [-97.226307, 31.626058]}},
{"type": "Feature", "id": "swJiEATXiI_uPu8luSE4X3ifsSk=", "properties": {"ref": "4952", "amenity:fuel": true, "fuel:diesel": true, "fuel:HGV_diesel": true, "fuel:e85": false, "fuel:octane_87": true, "fuel:octane_89": true, "fuel:octane_93": true, "fuel:kerosene": false, "car_wash": true, "hgv": true, "@spider": "cefco", "addr:full": "16242 US HWY 271", "addr:city": "Tyler", "addr:state": "TX", "addr:postcode": "75708", "addr:country": "US", "brand": "CEFCO"}, "geometry": {"type": "Point", "coordinates": [-95.133916, 32.440082]}},
{"type": "Feature", "id": "rzZ15Jj5KxSSB4XXDcyR8KbFuKw=", "properties": {"ref": "4951", "amenity:fuel": true, "fuel:diesel": true, "fuel:HGV_diesel": false, "fuel:e85": false, "fuel:octane_87": true, "fuel:octane_89": true, "fuel:octane_93": true, "fuel:kerosene": false, "car_wash": false, "hgv": false, "@spider": "cefco", "addr:full": "100 Ritchie Rd", "addr:city": "Hewitt", "addr:state": "TX", "addr:postcode": "76643", "addr:country": "US", "brand": "CEFCO"}, "geometry": {"type": "Point", "coordinates": [-97.204743, 31.446234]}},
{"type": "Feature", "id": "89DOvfY71qAT9FVJ4ho1FCVSJlQ=", "properties": {"ref": "4949", "amenity:fuel": true, "fuel:diesel": true, "fuel:HGV_diesel": true, "fuel:e85": false, "fuel:octane_87": true, "fuel:octane_89": true, "fuel:octane_93": true, "fuel:kerosene": false, "car_wash": true, "hgv": true, "@spider": "cefco", "addr:full": "3025 E. Austin Street", "addr:city": "Giddings", "addr:state": "TX", "addr:postcode": "78942", "addr:country": "US", "brand": "CEFCO"}, "geometry": {"type": "Point", "coordinates": [-96.907718, 30.178338]}},
{"type": "Feature", "id": "iWzCAApg0PqmI19hweDtY2WOUsA=", "properties": {"ref": "4947", "amenity:fuel": true, "fuel:diesel": true, "fuel:HGV_diesel": false, "fuel:e85": false, "fuel:octane_87": true, "fuel:octane_89": true, "fuel:octane_93": true, "fuel:kerosene": false, "car_wash": false, "hgv": false, "@spider": "cefco", "addr:full": "5955 HWY 90", "addr:city": "Milton", "addr:state": "FL", "addr:postcode": "32583", "addr:country": "US", "brand": "CEFCO"}, "geometry": {"type": "Point", "coordinates": [-87.075327, 30.602292]}},
{"type": "Feature", "id": "3gkdCYs8wocxpGKYQbBMRjpCDoM=", "properties": {"ref": "4946", "amenity:fuel": true, "fuel:diesel": true, "fuel:HGV_diesel": true, "fuel:e85": false, "fuel:octane_87": true, "fuel:octane_89": true, "fuel:octane_93": true, "fuel:kerosene": false, "car_wash": false, "hgv": true, "@spider": "cefco", "addr:full": "1011 US Hwy 271 S", "addr:city": "Gilmer", "addr:state": "TX", "addr:postcode": "75644", "addr:country": "US", "brand": "CEFCO"}, "geometry": {"type": "Point", "coordinates": [-94.942322, 32.71747]}},
{"type": "Feature", "id": "CWlNTJ_0F1oYzRS_8n4ryRNKyBM=", "properties": {"ref": "4847", "amenity:fuel": true, "fuel:diesel": true, "fuel:HGV_diesel": false, "fuel:e85": false, "fuel:octane_87": true, "fuel:octane_89": true, "fuel:octane_93": true, "fuel:kerosene": false, "car_wash": false, "hgv": false, "@spider": "cefco", "addr:full": "91 Beal Parkway NW", "addr:city": "Fort Walton Beach", "addr:state": "FL", "addr:postcode": "32548", "addr:country": "US", "brand": "CEFCO"}, "geometry": {"type": "Point", "coordinates": [-86.613106, 30.421829]}},
{"type": "Feature", "id": "LYkNZCw2YoTLx8qGk3IBxw1UZxs=", "properties": {"ref": "4846", "amenity:fuel": true, "fuel:diesel": true, "fuel:HGV_diesel": false, "fuel:e85": false, "fuel:octane_87": true, "fuel:octane_89": true, "fuel:octane_93": true, "fuel:kerosene": false, "car_wash": true, "hgv": false, "@spider": "cefco", "addr:full": "4934 Schillinger Road S", "addr:city": "Mobile", "addr:state": "AL", "addr:postcode": "36619", "addr:country": "US", "brand": "CEFCO"}, "geometry": {"type": "Point", "coordinates": [-88.225235, 30.587727]}},
{"type": "Feature", "id": "1jxfH4WKtVwwPyGm0pBrhxj7Zi0=", "properties": {"ref": "4845", "amenity:fuel": true, "fuel:diesel": true, "fuel:HGV_diesel": false, "fuel:e85": false, "fuel:octane_87": true, "fuel:octane_89": true, "fuel:octane_93": true, "fuel:kerosene": false, "car_wash": false, "hgv": false, "@spider": "cefco", "addr:full": "735 Martin Luther King Jr", "addr:city": "Fort Walton Beach", "addr:state": "FL", "addr:postcode": "32548", "addr:country": "US", "brand": "CEFCO"}, "geometry": {"type": "Point", "coordinates": [-86.660035, 30.443622]}},
{"type": "Feature", "id": "uHMK5aLXnHxtyLiu8cAYb9O2rVs=", "properties": {"ref": "4844", "amenity:fuel": true, "fuel:diesel": true, "fuel:HGV_diesel": false, "fuel:e85": false, "fuel:octane_87": true, "fuel:octane_89": true, "fuel:octane_93": true, "fuel:kerosene": false, "car_wash": true, "hgv": false, "@spider": "cefco", "addr:full": "555  E College Blvd.", "addr:city": "Niceville", "addr:state": "FL", "addr:postcode": "32578", "addr:country": "US", "brand": "CEFCO"}, "geometry": {"type": "Point", "coordinates": [-86.492964, 30.533566]}},
{"type": "Feature", "id": "s5EZSHJK1XHL_M447ZGkRwddz5Q=", "properties": {"ref": "4843", "amenity:fuel": true, "fuel:diesel": true, "fuel:HGV_diesel": false, "fuel:e85": false, "fuel:octane_87": true, "fuel:octane_89": true, "fuel:octane_93": true, "fuel:kerosene": false, "car_wash": true, "hgv": false, "@spider": "cefco", "addr:full": "813 North Ferdon Blvd", "addr:city": "Crestview", "addr:state": "FL", "addr:postcode": "32539", "addr:country": "US", "brand": "CEFCO"}, "geometry": {"type": "Point", "coordinates": [-86.564231, 30.773357]}},
{"type": "Feature", "id": "1Va6TDFMQH11WCY4XlZn1RpH7so=", "properties": {"ref": "4842", "amenity:fuel": true, "fuel:diesel": true, "fuel:HGV_diesel": false, "fuel:e85": false, "fuel:octane_87": true, "fuel:octane_89": true, "fuel:octane_93": true, "fuel:kerosene": false, "car_wash": true, "hgv": false, "@spider": "cefco", "addr:full": "1600 E John Sims Pkwy", "addr:city": "Niceville", "addr:state": "FL", "addr:postcode": "32578", "addr:country": "US", "brand": "CEFCO"}, "geometry": {"type": "Point", "coordinates": [-86.448693, 30.512111]}},
{"type": "Feature", "id": "KZC-o2GnLGkKRomPP8oDhBinfWY=", "properties": {"ref": "4841", "amenity:fuel": true, "fuel:diesel": true, "fuel:HGV_diesel": false, "fuel:e85": false, "fuel:octane_87": true, "fuel:octane_89": true, "fuel:octane_93": true, "fuel:kerosene": false, "car_wash": true, "hgv": false, "@spider": "cefco", "addr:full": "29626 State HWY 181", "addr:city": "Daphne", "addr:state": "AL", "addr:postcode": "36526", "addr:country": "US", "brand": "CEFCO"}, "geometry": {"type": "Point", "coordinates": [-87.851997, 30.656267]}},
{"type": "Feature", "id": "3JOoU63-yAe_9qi7r736h1YtW4s=", "properties": {"ref": "4840", "amenity:fuel": true, "fuel:diesel": true, "fuel:HGV_diesel": false, "fuel:e85": false, "fuel:octane_87": true, "fuel:octane_89": true, "fuel:octane_93": true, "fuel:kerosene": false, "car_wash": true, "hgv": false, "@spider": "cefco", "addr:full": "22071 US Highway 98", "addr:city": "Foley", "addr:state": "AL", "addr:postcode": "36535", "addr:country": "US", "brand": "CEFCO"}, "geometry": {"type": "Point", "coordinates": [-87.647779, 30.406855]}},
{"type": "Feature", "id": "MI1kIhkpzxgMHvVPQyLUPR074l8=", "properties": {"ref": "4839", "amenity:fuel": true, "fuel:diesel": true, "fuel:HGV_diesel": false, "fuel:e85": false, "fuel:octane_87": true, "fuel:octane_89": true, "fuel:octane_93": true, "fuel:kerosene": false, "car_wash": true, "hgv": false, "@spider": "cefco", "addr:full": "21457 HWY 59", "addr:city": "Robertsdale", "addr:state": "AL", "addr:postcode": "36567", "addr:country": "US", "brand": "CEFCO"}, "geometry": {"type": "Point", "coordinates": [-87.708406, 30.537345]}},
{"type": "Feature", "id": "69NrmLMSWZOudeouzIfuUmdtpZY=", "properties": {"ref": "4838", "amenity:fuel": true, "fuel:diesel": true, "fuel:HGV_diesel": true, "fuel:e85": false, "fuel:octane_87": true, "fuel:octane_89": true, "fuel:octane_93": true, "fuel:kerosene": false, "car_wash": false, "hgv": true, "@spider": "cefco", "addr:full": "52668 AL-3", "addr:city": "Perdido", "addr:state": "AL", "addr:postcode": "36562", "addr:country": "US", "brand": "CEFCO"}, "geometry": {"type": "Point", "coordinates": [-87.619927, 30.994028]}},
{"type": "Feature", "id": "N4MTF9QTTPN_gEaGy9ReK7-LTH8=", "properties": {"ref": "4837", "amenity:fuel": true, "fuel:diesel": true, "fuel:HGV_diesel": false, "fuel:e85": false, "fuel:octane_87": true, "fuel:octane_89": true, "fuel:octane_93": true, "fuel:kerosene": false, "car_wash": true, "hgv": false, "@spider": "cefco", "addr:full": "18983 Greeno Road", "addr:city": "Fairhope", "addr:state": "AL", "addr:postcode": "36532", "addr:country": "US", "brand": "CEFCO"}, "geometry": {"type": "Point", "coordinates": [-87.886186, 30.501398]}},
{"type": "Feature", "id": "350xRhCjGlDMqVu-uN_fM8qpltQ=", "properties": {"ref": "4836", "amenity:fuel": true, "fuel:diesel": true, "fuel:HGV_diesel": false, "fuel:e85": false, "fuel:octane_87": true, "fuel:octane_89": true, "fuel:octane_93": true, "fuel:kerosene": false, "car_wash": true, "hgv": false, "@spider": "cefco", "addr:full": "22772 HWY 98", "addr:city": "Fairhope", "addr:state": "AL", "addr:postcode": "36532", "addr:country": "US", "brand": "CEFCO"}, "geometry": {"type": "Point", "coordinates": [-87.892662, 30.55684]}},
{"type": "Feature", "id": "VyQHwFLxjo2jKtsiQMIDYcc47S4=", "properties": {"ref": "4835", "amenity:fuel": true, "fuel:diesel": true, "fuel:HGV_diesel": false, "fuel:e85": false, "fuel:octane_87": true, "fuel:octane_89": true, "fuel:octane_93": true, "fuel:kerosene": false, "car_wash": false, "hgv": false, "@spider": "cefco", "addr:full": "2881 N. Main St.", "addr:city": "Belton", "addr:state": "TX", "addr:postcode": "76513", "addr:country": "US", "brand": "CEFCO"}, "geometry": {"type": "Point", "coordinates": [-97.457603, 31.08297]}},
{"type": "Feature", "id": "QSzkci7C46YiFMjZhYKoDaWFjsQ=", "properties": {"ref": "4834", "amenity:fuel": true, "fuel:diesel": true, "fuel:HGV_diesel": false, "fuel:e85": false, "fuel:octane_87": true, "fuel:octane_89": true, "fuel:octane_93": true, "fuel:kerosene": false, "car_wash": false, "hgv": false, "@spider": "cefco", "addr:full": "1022 West Village", "addr:city": "Salado", "addr:state": "TX", "addr:postcode": "76571", "addr:country": "US", "brand": "CEFCO"}, "geometry": {"type": "Point", "coordinates": [-97.537137, 30.956566]}},
{"type": "Feature", "id": "tTBPFHPoTQ4iaFTfatTmjgKhPXg=", "properties": {"ref": "4833", "amenity:fuel": true, "fuel:diesel": true, "fuel:HGV_diesel": false, "fuel:e85": false, "fuel:octane_87": true, "fuel:octane_89": true, "fuel:octane_93": true, "fuel:kerosene": false, "car_wash": false, "hgv": false, "@spider": "cefco", "addr:full": "3309 South Ft Hood St", "addr:city": "Killeen", "addr:state": "TX", "addr:postcode": "76549", "addr:country": "US", "brand": "CEFCO"}, "geometry": {"type": "Point", "coordinates": [-97.755811, 31.086034]}},
{"type": "Feature", "id": "YiRuvHgYpUs_UhTog5zrJNQX9Mw=", "properties": {"ref": "4832", "amenity:fuel": true, "fuel:diesel": true, "fuel:HGV_diesel": false, "fuel:e85": false, "fuel:octane_87": true, "fuel:octane_89": true, "fuel:octane_93": true, "fuel:kerosene": false, "car_wash": true, "hgv": false, "@spider": "cefco", "addr:full": "14200 N FM 620 Road", "addr:city": "Austin", "addr:state": "TX", "addr:postcode": "78717", "addr:country": "US", "brand": "CEFCO"}, "geometry": {"type": "Point", "coordinates": [-97.764496, 30.477453]}},
{"type": "Feature", "id": "sWOUoat4R8Er5wR3GbJmGTVS5zA=", "properties": {"ref": "4831", "amenity:fuel": true, "fuel:diesel": true, "fuel:HGV_diesel": false, "fuel:e85": false, "fuel:octane_87": true, "fuel:octane_89": true, "fuel:octane_93": true, "fuel:kerosene": false, "car_wash": false, "hgv": false, "@spider": "cefco", "addr:full": "7150 W Adams", "addr:city": "Temple", "addr:state": "TX", "addr:postcode": "76502", "addr:country": "US", "brand": "CEFCO"}, "geometry": {"type": "Point", "coordinates": [-97.41684, 31.117773]}},
{"type": "Feature", "id": "DzJs5pdJYFEAnGsv9J6H61UsC_I=", "properties": {"ref": "4830", "amenity:fuel": true, "fuel:diesel": true, "fuel:HGV_diesel": false, "fuel:e85": false, "fuel:octane_87": true, "fuel:octane_89": true, "fuel:octane_93": true, "fuel:kerosene": false, "car_wash": true, "hgv": false, "@spider": "cefco", "addr:full": "4803 Trimmier Rd", "addr:city": "Killeen", "addr:state": "TX", "addr:postcode": "76542", "addr:country": "US", "brand": "CEFCO"}, "geometry": {"type": "Point", "coordinates": [-97.740684, 31.072438]}},
{"type": "Feature", "id": "xwxKlDB5ROOZue4_GgJvorHcdR8=", "properties": {"ref": "4829", "amenity:fuel": true, "fuel:diesel": true, "fuel:HGV_diesel": false, "fuel:e85": false, "fuel:octane_87": true, "fuel:octane_89": true, "fuel:octane_93": true, "fuel:kerosene": false, "car_wash": true, "hgv": false, "@spider": "cefco", "addr:full": "1007 North WS Young Dr", "addr:city": "Killeen", "addr:state": "TX", "addr:postcode": "76543", "addr:country": "US", "brand": "CEFCO"}, "geometry": {"type": "Point", "coordinates": [-97.709402, 31.121345]}},
{"type": "Feature", "id": "LxhFyFrmckRDOgzxV_C9L6aAL3E=", "properties": {"ref": "4828", "amenity:fuel": true, "fuel:diesel": true, "fuel:HGV_diesel": false, "fuel:e85": true, "fuel:octane_87": true, "fuel:octane_89": true, "fuel:octane_93": true, "fuel:kerosene": false, "car_wash": true, "hgv": false, "@spider": "cefco", "addr:full": "500 East FM 2410", "addr:city": "Harker Heights", "addr:state": "TX", "addr:postcode": "76548", "addr:country": "US", "brand": "CEFCO"}, "geometry": {"type": "Point", "coordinates": [-97.665477, 31.06522]}},
{"type": "Feature", "id": "pt-kOe5lAqsgKWcGhPMTqIeEA0A=", "properties": {"ref": "4827", "amenity:fuel": true, "fuel:diesel": true, "fuel:HGV_diesel": true, "fuel:e85": false, "fuel:octane_87": true, "fuel:octane_89": true, "fuel:octane_93": true, "fuel:kerosene": false, "car_wash": true, "hgv": true, "@spider": "cefco", "addr:full": "5601 Bagby", "addr:city": "Waco", "addr:state": "TX", "addr:postcode": "76711", "addr:country": "US", "brand": "CEFCO"}, "geometry": {"type": "Point", "coordinates": [-97.164459, 31.499765]}},
{"type": "Feature", "id": "twiOlPkdWX15-CyxpIhMxYfcm1A=", "properties": {"ref": "4826", "amenity:fuel": true, "fuel:diesel": true, "fuel:HGV_diesel": false, "fuel:e85": false, "fuel:octane_87": true, "fuel:octane_89": true, "fuel:octane_93": true, "fuel:kerosene": false, "car_wash": true, "hgv": false, "@spider": "cefco", "addr:full": "215 S George Kacir Drive", "addr:city": "West", "addr:state": "TX", "addr:postcode": "76691", "addr:country": "US", "brand": "CEFCO"}, "geometry": {"type": "Point", "coordinates": [-97.100112, 31.800994]}},
{"type": "Feature", "id": "tCTBrPvT46lcYb8LcFxxifMY2hI=", "properties": {"ref": "4825", "amenity:fuel": true, "fuel:diesel": true, "fuel:HGV_diesel": false, "fuel:e85": false, "fuel:octane_87": true, "fuel:octane_89": true, "fuel:octane_93": true, "fuel:kerosene": false, "car_wash": false, "hgv": false, "@spider": "cefco", "addr:full": "8306 North HWY 6", "addr:city": "Woodway", "addr:state": "TX", "addr:postcode": "76712", "addr:country": "US", "brand": "CEFCO"}, "geometry": {"type": "Point", "coordinates": [-97.305503, 31.58201]}},
{"type": "Feature", "id": "eMU7La6QFYPxeJklT8MIqDWmfDY=", "properties": {"ref": "4824", "amenity:fuel": true, "fuel:diesel": true, "fuel:HGV_diesel": false, "fuel:e85": false, "fuel:octane_87": true, "fuel:octane_89": true, "fuel:octane_93": true, "fuel:kerosene": false, "car_wash": false, "hgv": false, "@spider": "cefco", "addr:full": "3001 Gholson Road", "addr:city": "Waco", "addr:state": "TX", "addr:postcode": "76705", "addr:country": "US", "brand": "CEFCO"}, "geometry": {"type": "Point", "coordinates": [-97.120651, 31.607616]}},
{"type": "Feature", "id": "waPnVyGFoG_KYeUHgrdd3SIbTTw=", "properties": {"ref": "4823", "amenity:fuel": true, "fuel:diesel": true, "fuel:HGV_diesel": false, "fuel:e85": false, "fuel:octane_87": true, "fuel:octane_89": true, "fuel:octane_93": true, "fuel:kerosene": false, "car_wash": false, "hgv": false, "@spider": "cefco", "addr:full": "1109 E Broadway", "addr:city": "Gladewater", "addr:state": "TX", "addr:postcode": "75647", "addr:country": "US", "brand": "CEFCO"}, "geometry": {"type": "Point", "coordinates": [-94.929443, 32.534393]}},
{"type": "Feature", "id": "mbRBHbccNOdPxE0sFjCMZSj2-JM=", "properties": {"ref": "4822", "amenity:fuel": true, "fuel:diesel": true, "fuel:HGV_diesel": false, "fuel:e85": false, "fuel:octane_87": true, "fuel:octane_89": true, "fuel:octane_93": true, "fuel:kerosene": false, "car_wash": false, "hgv": false, "@spider": "cefco", "addr:full": "5011 Troup Hwy", "addr:city": "Tyler", "addr:state": "TX", "addr:postcode": "75701", "addr:country": "US", "brand": "CEFCO"}, "geometry": {"type": "Point", "coordinates": [-95.26292, 32.295934]}},
{"type": "Feature", "id": "HN0MDzaZrsAxFj5Rh0Qg_XobnjM=", "properties": {"ref": "4821", "amenity:fuel": true, "fuel:diesel": true, "fuel:HGV_diesel": false, "fuel:e85": false, "fuel:octane_87": true, "fuel:octane_89": true, "fuel:octane_93": true, "fuel:kerosene": false, "car_wash": false, "hgv": false, "@spider": "cefco", "addr:full": "100 North Main Street", "addr:city": "Covington", "addr:state": "TX", "addr:postcode": "76636", "addr:country": "US", "brand": "CEFCO"}, "geometry": {"type": "Point", "coordinates": [-97.25505, 32.178924]}},
{"type": "Feature", "id": "Q2x6CJcOT5coSiDgq9t4LbY1qFo=", "properties": {"ref": "4820", "amenity:fuel": true, "fuel:diesel": true, "fuel:HGV_diesel": false, "fuel:e85": false, "fuel:octane_87": true, "fuel:octane_89": true, "fuel:octane_93": true, "fuel:kerosene": false, "car_wash": false, "hgv": false, "@spider": "cefco", "addr:full": "201 E Highway 79", "addr:city": "Thorndale", "addr:state": "TX", "addr:postcode": "76577", "addr:country": "US", "brand": "CEFCO"}, "geometry": {"type": "Point", "coordinates": [-97.204595, 30.614356]}},
{"type": "Feature", "id": "6Rlj1ol_56DpQb8TTDcDuo1xpIk=", "properties": {"ref": "4819", "amenity:fuel": true, "fuel:diesel": true, "fuel:HGV_diesel": false, "fuel:e85": false, "fuel:octane_87": true, "fuel:octane_89": true, "fuel:octane_93": true, "fuel:kerosene": false, "car_wash": false, "hgv": false, "@spider": "cefco", "addr:full": "717 HWY 183", "addr:city": "Liberty Hill", "addr:state": "TX", "addr:postcode": "78642", "addr:country": "US", "brand": "CEFCO"}, "geometry": {"type": "Point", "coordinates": [-97.870971, 30.643808]}},
{"type": "Feature", "id": "o8SclVBe9oHmne1XpJhUF-2JHQk=", "properties": {"ref": "4818", "amenity:fuel": true, "fuel:diesel": true, "fuel:HGV_diesel": false, "fuel:e85": false, "fuel:octane_87": true, "fuel:octane_89": true, "fuel:octane_93": true, "fuel:kerosene": false, "car_wash": false, "hgv": false, "@spider": "cefco", "addr:full": "13625 West HWY 29", "addr:city": "Liberty Hill", "addr:state": "TX", "addr:postcode": "78642", "addr:country": "US", "brand": "CEFCO"}, "geometry": {"type": "Point", "coordinates": [-97.909557, 30.667035]}},
{"type": "Feature", "id": "-TrmDdBg9WS8qR2Sfepqwxkd6PU=", "properties": {"ref": "4817", "amenity:fuel": true, "fuel:diesel": true, "fuel:HGV_diesel": false, "fuel:e85": false, "fuel:octane_87": true, "fuel:octane_89": true, "fuel:octane_93": true, "fuel:kerosene": false, "car_wash": false, "hgv": false, "@spider": "cefco", "addr:full": "4011 E Stan Schlueter Loop", "addr:city": "Killeen", "addr:state": "TX", "addr:postcode": "76542", "addr:country": "US", "brand": "CEFCO"}, "geometry": {"type": "Point", "coordinates": [-97.704032, 31.0774]}},
{"type": "Feature", "id": "txYyvGHYQNBX0iXjKUqH9G-_GnA=", "properties": {"ref": "4816", "amenity:fuel": true, "fuel:diesel": true, "fuel:HGV_diesel": false, "fuel:e85": false, "fuel:octane_87": true, "fuel:octane_89": true, "fuel:octane_93": true, "fuel:kerosene": false, "car_wash": false, "hgv": false, "@spider": "cefco", "addr:full": "2016 South 1st Street", "addr:city": "Temple", "addr:state": "TX", "addr:postcode": "76504", "addr:country": "US", "brand": "CEFCO"}, "geometry": {"type": "Point", "coordinates": [-97.350234, 31.07686]}},
{"type": "Feature", "id": "kQVSU2oHzAu7J7VmS2F62bdTwWw=", "properties": {"ref": "4815", "amenity:fuel": true, "fuel:diesel": true, "fuel:HGV_diesel": false, "fuel:e85": false, "fuel:octane_87": true, "fuel:octane_89": true, "fuel:octane_93": true, "fuel:kerosene": false, "car_wash": true, "hgv": false, "@spider": "cefco", "addr:full": "1212 West Central Avenue", "addr:city": "Temple", "addr:state": "TX", "addr:postcode": "76504", "addr:country": "US", "brand": "CEFCO"}, "geometry": {"type": "Point", "coordinates": [-97.353218, 31.100355]}},
{"type": "Feature", "id": "EA2qIWY5lEn69TfY9HS8aOVVLrU=", "properties": {"ref": "4814", "amenity:fuel": true, "fuel:diesel": true, "fuel:HGV_diesel": false, "fuel:e85": false, "fuel:octane_87": true, "fuel:octane_89": true, "fuel:octane_93": true, "fuel:kerosene": false, "car_wash": false, "hgv": false, "@spider": "cefco", "addr:full": "213 East Texas Avenue", "addr:city": "Mart", "addr:state": "TX", "addr:postcode": "76664", "addr:country": "US", "brand": "CEFCO"}, "geometry": {"type": "Point", "coordinates": [-96.836006, 31.541517]}},
{"type": "Feature", "id": "EyNw0wdVPqbldXCbhIu9GPyo_fU=", "properties": {"ref": "4813", "amenity:fuel": true, "fuel:diesel": true, "fuel:HGV_diesel": true, "fuel:e85": false, "fuel:octane_87": true, "fuel:octane_89": true, "fuel:octane_93": true, "fuel:kerosene": false, "car_wash": false, "hgv": true, "@spider": "cefco", "addr:full": "18060 State HWY 36 S", "addr:city": "Somerville", "addr:state": "TX", "addr:postcode": "77879", "addr:country": "US", "brand": "CEFCO"}, "geometry": {"type": "Point", "coordinates": [-96.522377, 30.337109]}},
{"type": "Feature", "id": "LwsV1lm_1mrqAa6IFoUnmNx0xvI=", "properties": {"ref": "4812", "amenity:fuel": true, "fuel:diesel": true, "fuel:HGV_diesel": false, "fuel:e85": false, "fuel:octane_87": true, "fuel:octane_89": true, "fuel:octane_93": true, "fuel:kerosene": false, "car_wash": false, "hgv": false, "@spider": "cefco", "addr:full": "702  Avenue C", "addr:city": "Valley Mills", "addr:state": "TX", "addr:postcode": "76689", "addr:country": "US", "brand": "CEFCO"}, "geometry": {"type": "Point", "coordinates": [-97.468719, 31.658193]}},
{"type": "Feature", "id": "ID59xl9QH4QjVJHl9hORfJ4eY2s=", "properties": {"ref": "4811", "amenity:fuel": true, "fuel:diesel": true, "fuel:HGV_diesel": false, "fuel:e85": false, "fuel:octane_87": true, "fuel:octane_89": true, "fuel:octane_93": true, "fuel:kerosene": false, "car_wash": false, "hgv": false, "@spider": "cefco", "addr:full": "312 N Rice", "addr:city": "Hamilton", "addr:state": "TX", "addr:postcode": "76531", "addr:country": "US", "brand": "CEFCO"}, "geometry": {"type": "Point", "coordinates": [-98.123253, 31.705838]}},
{"type": "Feature", "id": "r7WGi2myIH3Xf8GUNsc0duFgf2A=", "properties": {"ref": "4810", "amenity:fuel": true, "fuel:diesel": true, "fuel:HGV_diesel": true, "fuel:e85": false, "fuel:octane_87": true, "fuel:octane_89": true, "fuel:octane_93": true, "fuel:kerosene": false, "car_wash": false, "hgv": true, "@spider": "cefco", "addr:full": "1620 W Main St", "addr:city": "Gatesville", "addr:state": "TX", "addr:postcode": "76528", "addr:country": "US", "brand": "CEFCO"}, "geometry": {"type": "Point", "coordinates": [-97.782524, 31.432487]}},
{"type": "Feature", "id": "fNMAgnVIQSbpa7vjV9GPUibuFSw=", "properties": {"ref": "4809", "amenity:fuel": true, "fuel:diesel": true, "fuel:HGV_diesel": true, "fuel:e85": false, "fuel:octane_87": true, "fuel:octane_89": true, "fuel:octane_93": true, "fuel:kerosene": false, "car_wash": false, "hgv": true, "@spider": "cefco", "addr:full": "301 S Martin Luther King Jr HWY", "addr:city": "Mexia", "addr:state": "TX", "addr:postcode": "76667", "addr:country": "US", "brand": "CEFCO"}, "geometry": {"type": "Point", "coordinates": [-96.496026, 31.672786]}},
{"type": "Feature", "id": "NxHHHBDieivSRtrnCkpVm9jU9Ps=", "properties": {"ref": "4808", "amenity:fuel": true, "fuel:diesel": true, "fuel:HGV_diesel": false, "fuel:e85": false, "fuel:octane_87": true, "fuel:octane_89": true, "fuel:octane_93": true, "fuel:kerosene": false, "car_wash": true, "hgv": false, "@spider": "cefco", "addr:full": "101 Williams St", "addr:city": "Marlin", "addr:state": "TX", "addr:postcode": "76661", "addr:country": "US", "brand": "CEFCO"}, "geometry": {"type": "Point", "coordinates": [-96.89941, 31.306142]}},
{"type": "Feature", "id": "84H2eCp3XLwTaZC4puf-JWT-6dE=", "properties": {"ref": "4807", "amenity:fuel": true, "fuel:diesel": true, "fuel:HGV_diesel": true, "fuel:e85": false, "fuel:octane_87": true, "fuel:octane_89": true, "fuel:octane_93": true, "fuel:kerosene": false, "car_wash": true, "hgv": true, "@spider": "cefco", "addr:full": "201 W Frederick", "addr:city": "Riesel", "addr:state": "TX", "addr:postcode": "76682", "addr:country": "US", "brand": "CEFCO"}, "geometry": {"type": "Point", "coordinates": [-96.924758, 31.474443]}},
{"type": "Feature", "id": "mlMNNBzVxi9yQaDB3xPr8J0_dYw=", "properties": {"ref": "4806", "amenity:fuel": true, "fuel:diesel": true, "fuel:HGV_diesel": true, "fuel:e85": false, "fuel:octane_87": true, "fuel:octane_89": true, "fuel:octane_93": true, "fuel:kerosene": false, "car_wash": false, "hgv": true, "@spider": "cefco", "addr:full": "101 S Mignonette Street", "addr:city": "Kosse", "addr:state": "TX", "addr:postcode": "76653", "addr:country": "US", "brand": "CEFCO"}, "geometry": {"type": "Point", "coordinates": [-96.632158, 31.307596]}},
{"type": "Feature", "id": "AMZdhaGjwzt3yUWPqxxP5E1SaB8=", "properties": {"ref": "4805", "amenity:fuel": true, "fuel:diesel": true, "fuel:HGV_diesel": false, "fuel:e85": false, "fuel:octane_87": true, "fuel:octane_89": true, "fuel:octane_93": true, "fuel:kerosene": false, "car_wash": false, "hgv": false, "@spider": "cefco", "addr:full": "405 W HWY 79", "addr:city": "Franklin", "addr:state": "TX", "addr:postcode": "77856", "addr:country": "US", "brand": "CEFCO"}, "geometry": {"type": "Point", "coordinates": [-96.488515, 31.023755]}},
{"type": "Feature", "id": "mH5IEI36t6G7A1e3LcK8OCfsPFg=", "properties": {"ref": "4804", "amenity:fuel": true, "fuel:diesel": true, "fuel:HGV_diesel": false, "fuel:e85": false, "fuel:octane_87": true, "fuel:octane_89": true, "fuel:octane_93": true, "fuel:kerosene": false, "car_wash": false, "hgv": false, "@spider": "cefco", "addr:full": "116 E HWY 79", "addr:city": "Franklin", "addr:state": "TX", "addr:postcode": "77856", "addr:country": "US", "brand": "CEFCO"}, "geometry": {"type": "Point", "coordinates": [-96.485372, 31.025991]}},
{"type": "Feature", "id": "dnHMsmrXCDkSGD4CdZHg5PUdvso=", "properties": {"ref": "4803", "amenity:fuel": true, "fuel:diesel": true, "fuel:HGV_diesel": true, "fuel:e85": false, "fuel:octane_87": true, "fuel:octane_89": true, "fuel:octane_93": true, "fuel:kerosene": false, "car_wash": false, "hgv": true, "@spider": "cefco", "addr:full": "826 E Ave C", "addr:city": "Milano", "addr:state": "TX", "addr:postcode": "76556", "addr:country": "US", "brand": "CEFCO"}, "geometry": {"type": "Point", "coordinates": [-96.867281, 30.709233]}},
{"type": "Feature", "id": "g8hR2NrxEu9J8UvY8B1DZPq3Cmk=", "properties": {"ref": "4802", "amenity:fuel": true, "fuel:diesel": true, "fuel:HGV_diesel": true, "fuel:e85": false, "fuel:octane_87": true, "fuel:octane_89": true, "fuel:octane_93": true, "fuel:kerosene": false, "car_wash": false, "hgv": true, "@spider": "cefco", "addr:full": "8944 N HWY 77", "addr:city": "Lexington", "addr:state": "TX", "addr:postcode": "78947", "addr:country": "US", "brand": "CEFCO"}, "geometry": {"type": "Point", "coordinates": [-97.005775, 30.420664]}},
{"type": "Feature", "id": "YjWYLqcX9LwYe9Eqzso10-ShybQ=", "properties": {"ref": "4801", "amenity:fuel": true, "fuel:diesel": true, "fuel:HGV_diesel": false, "fuel:e85": false, "fuel:octane_87": true, "fuel:octane_89": true, "fuel:octane_93": true, "fuel:kerosene": false, "car_wash": false, "hgv": false, "@spider": "cefco", "addr:full": "1002 NW 2nd St", "addr:city": "Kerens", "addr:state": "TX", "addr:postcode": "75144", "addr:country": "US", "brand": "CEFCO"}, "geometry": {"type": "Point", "coordinates": [-96.241698, 32.1314]}},
{"type": "Feature", "id": "gInt8m1H0QKwWyahCa-uW50Xhvs=", "properties": {"ref": "4800", "amenity:fuel": true, "fuel:diesel": true, "fuel:HGV_diesel": true, "fuel:e85": false, "fuel:octane_87": true, "fuel:octane_89": true, "fuel:octane_93": true, "fuel:kerosene": false, "car_wash": false, "hgv": true, "@spider": "cefco", "addr:full": "13325 FM 60 E", "addr:city": "Snook", "addr:state": "TX", "addr:postcode": "77878", "addr:country": "US", "brand": "CEFCO"}, "geometry": {"type": "Point", "coordinates": [-96.448139, 30.540378]}},
{"type": "Feature", "id": "jbflrXSRQWcvOxA60l2cOsI-KnA=", "properties": {"ref": "4799", "amenity:fuel": true, "fuel:diesel": true, "fuel:HGV_diesel": true, "fuel:e85": false, "fuel:octane_87": true, "fuel:octane_89": true, "fuel:octane_93": true, "fuel:kerosene": false, "car_wash": false, "hgv": true, "@spider": "cefco", "addr:full": "1600 S IH 35", "addr:city": "Belton", "addr:state": "TX", "addr:postcode": "76513", "addr:country": "US", "brand": "CEFCO"}, "geometry": {"type": "Point", "coordinates": [-97.468475, 31.041395]}},
{"type": "Feature", "id": "JeDC6W5EVCrcGg13lJivgxLyqeA=", "properties": {"ref": "4798", "amenity:fuel": true, "fuel:diesel": true, "fuel:HGV_diesel": false, "fuel:e85": false, "fuel:octane_87": true, "fuel:octane_89": true, "fuel:octane_93": true, "fuel:kerosene": false, "car_wash": false, "hgv": false, "@spider": "cefco", "addr:full": "1328 Old Avenue D", "addr:city": "Belton", "addr:state": "TX", "addr:postcode": "76513", "addr:country": "US", "brand": "CEFCO"}, "geometry": {"type": "Point", "coordinates": [-97.484008, 31.050827]}},
{"type": "Feature", "id": "Q3fcgGVuMXsqDB8LOds6-SSSDPg=", "properties": {"ref": "4797", "amenity:fuel": true, "fuel:diesel": true, "fuel:HGV_diesel": false, "fuel:e85": false, "fuel:octane_87": true, "fuel:octane_89": true, "fuel:octane_93": true, "fuel:kerosene": false, "car_wash": false, "hgv": false, "@spider": "cefco", "addr:full": "736 N Valley Mills Dr", "addr:city": "Waco", "addr:state": "TX", "addr:postcode": "76710", "addr:country": "US", "brand": "CEFCO"}, "geometry": {"type": "Point", "coordinates": [-97.178779, 31.52923]}},
{"type": "Feature", "id": "ngB2dEytHj6OPl-QMjQdJviCqEM=", "properties": {"ref": "4796", "amenity:fuel": true, "fuel:diesel": true, "fuel:HGV_diesel": false, "fuel:e85": false, "fuel:octane_87": true, "fuel:octane_89": true, "fuel:octane_93": true, "fuel:kerosene": false, "car_wash": false, "hgv": false, "@spider": "cefco", "addr:full": "100 N Market St", "addr:city": "Hearne", "addr:state": "TX", "addr:postcode": "77859", "addr:country": "US", "brand": "CEFCO"}, "geometry": {"type": "Point", "coordinates": [-96.596633, 30.882555]}},
{"type": "Feature", "id": "9mFqVvQZxK59sY8heTTP_8AIiJ8=", "properties": {"ref": "4795", "amenity:fuel": true, "fuel:diesel": true, "fuel:HGV_diesel": true, "fuel:e85": false, "fuel:octane_87": true, "fuel:octane_89": true, "fuel:octane_93": true, "fuel:kerosene": false, "car_wash": false, "hgv": true, "@spider": "cefco", "addr:full": "12310 NW HK Dodgen Loop", "addr:city": "Temple", "addr:state": "TX", "addr:postcode": "76501", "addr:country": "US", "brand": "CEFCO"}, "geometry": {"type": "Point", "coordinates": [-97.33184, 31.13874]}},
{"type": "Feature", "id": "bKipQpzaX5i_ij5pLYy9s69YAaw=", "properties": {"ref": "4794", "amenity:fuel": true, "fuel:diesel": true, "fuel:HGV_diesel": false, "fuel:e85": false, "fuel:octane_87": true, "fuel:octane_89": true, "fuel:octane_93": true, "fuel:kerosene": false, "car_wash": false, "hgv": false, "@spider": "cefco", "addr:full": "10775 W State HWY 36", "addr:city": "Temple", "addr:state": "TX", "addr:postcode": "76502", "addr:country": "US", "brand": "CEFCO"}, "geometry": {"type": "Point", "coordinates": [-97.435639, 31.180962]}},
{"type": "Feature", "id": "tPZR6wHwbEIigMVK_M4yiMHdguA=", "properties": {"ref": "4792", "amenity:fuel": true, "fuel:diesel": true, "fuel:HGV_diesel": false, "fuel:e85": false, "fuel:octane_87": true, "fuel:octane_89": true, "fuel:octane_93": true, "fuel:kerosene": false, "car_wash": true, "hgv": false, "@spider": "cefco", "addr:full": "601 E 6th Ave", "addr:city": "Belton", "addr:state": "TX", "addr:postcode": "76513", "addr:country": "US", "brand": "CEFCO"}, "geometry": {"type": "Point", "coordinates": [-97.45597, 31.060438]}},
{"type": "Feature", "id": "vsY2DR4c8dKgyOmRpKrdCGFPp1M=", "properties": {"ref": "4791", "amenity:fuel": true, "fuel:diesel": true, "fuel:HGV_diesel": false, "fuel:e85": false, "fuel:octane_87": true, "fuel:octane_89": true, "fuel:octane_93": true, "fuel:kerosene": false, "car_wash": false, "hgv": false, "@spider": "cefco", "addr:full": "22514 S E  HK Dodgen Loop", "addr:city": "Temple", "addr:state": "TX", "addr:postcode": "76502", "addr:country": "US", "brand": "CEFCO"}, "geometry": {"type": "Point", "coordinates": [-97.337486, 31.061552]}},
{"type": "Feature", "id": "UmvpQb2rZqUcoLOgGON4YMHABag=", "properties": {"ref": "4790", "amenity:fuel": true, "fuel:diesel": true, "fuel:HGV_diesel": true, "fuel:e85": false, "fuel:octane_87": true, "fuel:octane_89": true, "fuel:octane_93": true, "fuel:kerosene": false, "car_wash": false, "hgv": true, "@spider": "cefco", "addr:full": "11810 N IH 35", "addr:city": "Jarrell", "addr:state": "TX", "addr:postcode": "76537", "addr:country": "US", "brand": "CEFCO"}, "geometry": {"type": "Point", "coordinates": [-97.610435, 30.813976]}},
{"type": "Feature", "id": "wWRmGKobDWqQxJ9aZJqSdTGhaLk=", "properties": {"ref": "4789", "amenity:fuel": true, "fuel:diesel": true, "fuel:HGV_diesel": true, "fuel:e85": false, "fuel:octane_87": true, "fuel:octane_89": true, "fuel:octane_93": true, "fuel:kerosene": false, "car_wash": false, "hgv": true, "@spider": "cefco", "addr:full": "6201 Imperial Dr", "addr:city": "Woodway", "addr:state": "TX", "addr:postcode": "76712", "addr:country": "US", "brand": "CEFCO"}, "geometry": {"type": "Point", "coordinates": [-97.182693, 31.506849]}},
{"type": "Feature", "id": "D35zR6GCVzyuOjmvQo1xF1hfvnQ=", "properties": {"ref": "4788", "amenity:fuel": true, "fuel:diesel": true, "fuel:HGV_diesel": false, "fuel:e85": false, "fuel:octane_87": true, "fuel:octane_89": true, "fuel:octane_93": true, "fuel:kerosene": false, "car_wash": false, "hgv": false, "@spider": "cefco", "addr:full": "2000 N Valley Mills Dr", "addr:city": "Waco", "addr:state": "TX", "addr:postcode": "76710", "addr:country": "US", "brand": "CEFCO"}, "geometry": {"type": "Point", "coordinates": [-97.203292, 31.532327]}},
{"type": "Feature", "id": "DBu8WflOm-Hq5PnYdg0r_eiNoYM=", "properties": {"ref": "4787", "amenity:fuel": true, "fuel:diesel": true, "fuel:HGV_diesel": false, "fuel:e85": false, "fuel:octane_87": true, "fuel:octane_89": true, "fuel:octane_93": true, "fuel:kerosene": false, "car_wash": true, "hgv": false, "@spider": "cefco", "addr:full": "1425 Hewitt Dr", "addr:city": "Woodway", "addr:state": "TX", "addr:postcode": "76712", "addr:country": "US", "brand": "CEFCO"}, "geometry": {"type": "Point", "coordinates": [-97.210182, 31.484519]}},
{"type": "Feature", "id": "jhlASZDw9kDJDU7d7gowbTq3FxA=", "properties": {"ref": "4786", "amenity:fuel": true, "fuel:diesel": true, "fuel:HGV_diesel": false, "fuel:e85": false, "fuel:octane_87": true, "fuel:octane_89": true, "fuel:octane_93": true, "fuel:kerosene": false, "car_wash": false, "hgv": false, "@spider": "cefco", "addr:full": "1305 W Cameron", "addr:city": "Rockdale", "addr:state": "TX", "addr:postcode": "76567", "addr:country": "US", "brand": "CEFCO"}, "geometry": {"type": "Point", "coordinates": [-97.016285, 30.648662]}},
{"type": "Feature", "id": "yGcHWZlkhtI25VRXjMwkywV7QyA=", "properties": {"ref": "4785", "amenity:fuel": true, "fuel:diesel": true, "fuel:HGV_diesel": false, "fuel:e85": false, "fuel:octane_87": true, "fuel:octane_89": true, "fuel:octane_93": true, "fuel:kerosene": false, "car_wash": true, "hgv": false, "@spider": "cefco", "addr:full": "801 N Robinson Dr", "addr:city": "Waco", "addr:state": "TX", "addr:postcode": "76706", "addr:country": "US", "brand": "CEFCO"}, "geometry": {"type": "Point", "coordinates": [-97.123031, 31.494188]}},
{"type": "Feature", "id": "UK-CGrsFDC6YJsFZFqCYB4wzZas=", "properties": {"ref": "4784", "amenity:fuel": true, "fuel:diesel": true, "fuel:HGV_diesel": false, "fuel:e85": false, "fuel:octane_87": true, "fuel:octane_89": true, "fuel:octane_93": true, "fuel:kerosene": false, "car_wash": false, "hgv": false, "@spider": "cefco", "addr:full": "20520 FM 1431", "addr:city": "Leander", "addr:state": "TX", "addr:postcode": "78645", "addr:country": "US", "brand": "CEFCO"}, "geometry": {"type": "Point", "coordinates": [-97.97251, 30.472227]}},
{"type": "Feature", "id": "O--0j-EfoMcvWY367zSbLPdxzdE=", "properties": {"ref": "4783", "amenity:fuel": true, "fuel:diesel": true, "fuel:HGV_diesel": false, "fuel:e85": false, "fuel:octane_87": true, "fuel:octane_89": true, "fuel:octane_93": true, "fuel:kerosene": false, "car_wash": false, "hgv": false, "@spider": "cefco", "addr:full": "1101 E Main St", "addr:city": "Hamilton", "addr:state": "TX", "addr:postcode": "76531", "addr:country": "US", "brand": "CEFCO"}, "geometry": {"type": "Point", "coordinates": [-98.110396, 31.699891]}},
{"type": "Feature", "id": "sg5On7HjKZ86y5Na2Sy_gJ3lFh4=", "properties": {"ref": "4782", "amenity:fuel": true, "fuel:diesel": true, "fuel:HGV_diesel": false, "fuel:e85": false, "fuel:octane_87": true, "fuel:octane_89": true, "fuel:octane_93": true, "fuel:kerosene": false, "car_wash": false, "hgv": false, "@spider": "cefco", "addr:full": "600 W McGregor Dr", "addr:city": "Mc Gregor", "addr:state": "TX", "addr:postcode": "76657", "addr:country": "US", "brand": "CEFCO"}, "geometry": {"type": "Point", "coordinates": [-97.411488, 31.443235]}},
{"type": "Feature", "id": "I8yrT5CnidgAE_B5MFjZDVZ9N_4=", "properties": {"ref": "4781", "amenity:fuel": true, "fuel:diesel": false, "fuel:HGV_diesel": false, "fuel:e85": false, "fuel:octane_87": true, "fuel:octane_89": true, "fuel:octane_93": true, "fuel:kerosene": false, "car_wash": false, "hgv": false, "@spider": "cefco", "addr:full": "4609 S State HWY 36", "addr:city": "Gatesville", "addr:state": "TX", "addr:postcode": "76528", "addr:country": "US", "brand": "CEFCO"}, "geometry": {"type": "Point", "coordinates": [-97.705261, 31.392375]}},
{"type": "Feature", "id": "KVuto9IxRK0T96fRT6U1EqLLn2w=", "properties": {"ref": "4780", "amenity:fuel": true, "fuel:diesel": true, "fuel:HGV_diesel": false, "fuel:e85": false, "fuel:octane_87": true, "fuel:octane_89": true, "fuel:octane_93": true, "fuel:kerosene": false, "car_wash": false, "hgv": false, "@spider": "cefco", "addr:full": "101 HWY 36 Bypass N", "addr:city": "Gatesville", "addr:state": "TX", "addr:postcode": "76528", "addr:country": "US", "brand": "CEFCO"}, "geometry": {"type": "Point", "coordinates": [-97.713516, 31.435083]}},
{"type": "Feature", "id": "hB5VyeliXrhzy7E93qKCWe8uTxU=", "properties": {"ref": "4779", "amenity:fuel": true, "fuel:diesel": true, "fuel:HGV_diesel": true, "fuel:e85": false, "fuel:octane_87": true, "fuel:octane_89": true, "fuel:octane_93": true, "fuel:kerosene": false, "car_wash": false, "hgv": true, "@spider": "cefco", "addr:full": "111 W Gassaway", "addr:city": "Lott", "addr:state": "TX", "addr:postcode": "76656", "addr:country": "US", "brand": "CEFCO"}, "geometry": {"type": "Point", "coordinates": [-97.036029, 31.204421]}},
{"type": "Feature", "id": "mi0668jn5xpRxxjg7lpwU9tZiSM=", "properties": {"ref": "4778", "amenity:fuel": true, "fuel:diesel": true, "fuel:HGV_diesel": false, "fuel:e85": false, "fuel:octane_87": true, "fuel:octane_89": true, "fuel:octane_93": true, "fuel:kerosene": false, "car_wash": false, "hgv": false, "@spider": "cefco", "addr:full": "441 E Commerce St", "addr:city": "Fairfield", "addr:state": "TX", "addr:postcode": "75840", "addr:country": "US", "brand": "CEFCO"}, "geometry": {"type": "Point", "coordinates": [-96.155831, 31.72514]}},
{"type": "Feature", "id": "Wz7RzLI65phqIf7q_PadQBV90Zc=", "properties": {"ref": "4777", "amenity:fuel": true, "fuel:diesel": true, "fuel:HGV_diesel": false, "fuel:e85": false, "fuel:octane_87": true, "fuel:octane_89": true, "fuel:octane_93": true, "fuel:kerosene": false, "car_wash": false, "hgv": false, "@spider": "cefco", "addr:full": "701 Main Street", "addr:city": "Teague", "addr:state": "TX", "addr:postcode": "75860", "addr:country": "US", "brand": "CEFCO"}, "geometry": {"type": "Point", "coordinates": [-96.280344, 31.626957]}},
{"type": "Feature", "id": "cpxsXGSneSctrRJoNx3iS65UWGA=", "properties": {"ref": "4776", "amenity:fuel": true, "fuel:diesel": true, "fuel:HGV_diesel": false, "fuel:e85": false, "fuel:octane_87": true, "fuel:octane_89": true, "fuel:octane_93": true, "fuel:kerosene": false, "car_wash": false, "hgv": false, "@spider": "cefco", "addr:full": "210 N 3rd St", "addr:city": "Wortham", "addr:state": "TX", "addr:postcode": "76693", "addr:country": "US", "brand": "CEFCO"}, "geometry": {"type": "Point", "coordinates": [-96.463608, 31.789279]}},
{"type": "Feature", "id": "Cc6JVyqHOy3GA0KbdhU_8th279c=", "properties": {"ref": "4775", "amenity:fuel": true, "fuel:diesel": true, "fuel:HGV_diesel": false, "fuel:e85": false, "fuel:octane_87": true, "fuel:octane_89": true, "fuel:octane_93": true, "fuel:kerosene": false, "car_wash": false, "hgv": false, "@spider": "cefco", "addr:full": "309 N Magnolia", "addr:city": "Hubbard", "addr:state": "TX", "addr:postcode": "76648", "addr:country": "US", "brand": "CEFCO"}, "geometry": {"type": "Point", "coordinates": [-96.796676, 31.84762]}},
{"type": "Feature", "id": "ElMBASub9MerdVK3ifEyHA1ihuo=", "properties": {"ref": "4774", "amenity:fuel": true, "fuel:diesel": true, "fuel:HGV_diesel": false, "fuel:e85": false, "fuel:octane_87": true, "fuel:octane_89": true, "fuel:octane_93": true, "fuel:kerosene": false, "car_wash": false, "hgv": false, "@spider": "cefco", "addr:full": "300 E Milam", "addr:city": "Mexia", "addr:state": "TX", "addr:postcode": "76667", "addr:country": "US", "brand": "CEFCO"}, "geometry": {"type": "Point", "coordinates": [-96.482844, 31.683866]}},
{"type": "Feature", "id": "26KfZVFQGT4-v1y3VRoBG9qO8yc=", "properties": {"ref": "4773", "amenity:fuel": true, "fuel:diesel": false, "fuel:HGV_diesel": false, "fuel:e85": false, "fuel:octane_87": true, "fuel:octane_89": true, "fuel:octane_93": true, "fuel:kerosene": false, "car_wash": false, "hgv": false, "@spider": "cefco", "addr:full": "605 N 3rd St", "addr:city": "Temple", "addr:state": "TX", "addr:postcode": "76501", "addr:country": "US", "brand": "CEFCO"}, "geometry": {"type": "Point", "coordinates": [-97.34053, 31.103082]}},
{"type": "Feature", "id": "cr2duegYAIELPn1cwCcAbya0vWQ=", "properties": {"ref": "4953", "amenity:fuel": true, "fuel:diesel": true, "fuel:HGV_diesel": false, "fuel:e85": false, "fuel:octane_87": true, "fuel:octane_89": true, "fuel:octane_93": true, "fuel:kerosene": false, "car_wash": false, "hgv": false, "@spider": "cefco", "addr:full": "4305 Bellmead Drive", "addr:city": "Bellmead", "addr:state": "TX", "addr:postcode": "76705", "addr:country": "US", "brand": "CEFCO"}, "geometry": {"type": "Point", "coordinates": [-97.08643, 31.60051]}},
{"type": "Feature", "id": "CryubI9HFiqI_dpNij2mczfyVNU=", "properties": {"ref": "4772", "amenity:fuel": true, "fuel:diesel": true, "fuel:HGV_diesel": false, "fuel:e85": false, "fuel:octane_87": true, "fuel:octane_89": true, "fuel:octane_93": true, "fuel:kerosene": false, "car_wash": true, "hgv": false, "@spider": "cefco", "addr:full": "5510 W Adams", "addr:city": "Temple", "addr:state": "TX", "addr:postcode": "76502", "addr:country": "US", "brand": "CEFCO"}, "geometry": {"type": "Point", "coordinates": [-97.400596, 31.113782]}},
{"type": "Feature", "id": "ekWU6QRA7cb6SpXc7uMYMpSfTdw=", "properties": {"ref": "4771", "amenity:fuel": true, "fuel:diesel": true, "fuel:HGV_diesel": false, "fuel:e85": false, "fuel:octane_87": true, "fuel:octane_89": true, "fuel:octane_93": true, "fuel:kerosene": false, "car_wash": false, "hgv": false, "@spider": "cefco", "addr:full": "602 E Central Texas Expressway", "addr:city": "Harker Heights", "addr:state": "TX", "addr:postcode": "76548", "addr:country": "US", "brand": "CEFCO"}, "geometry": {"type": "Point", "coordinates": [-97.653885, 31.075005]}},
{"type": "Feature", "id": "rtx3q5L18nq5f9SYOgjq3H3q2QE=", "properties": {"ref": "4770", "amenity:fuel": true, "fuel:diesel": true, "fuel:HGV_diesel": false, "fuel:e85": false, "fuel:octane_87": true, "fuel:octane_89": true, "fuel:octane_93": true, "fuel:kerosene": false, "car_wash": false, "hgv": false, "@spider": "cefco", "addr:full": "912 E Central Ave", "addr:city": "Belton", "addr:state": "TX", "addr:postcode": "76513", "addr:country": "US", "brand": "CEFCO"}, "geometry": {"type": "Point", "coordinates": [-97.45591, 31.054211]}},
{"type": "Feature", "id": "7QrEY4L9OFxYmdW9mAbMafH0Xtk=", "properties": {"ref": "4769", "amenity:fuel": true, "fuel:diesel": true, "fuel:HGV_diesel": false, "fuel:e85": false, "fuel:octane_87": true, "fuel:octane_89": true, "fuel:octane_93": true, "fuel:kerosene": false, "car_wash": false, "hgv": false, "@spider": "cefco", "addr:full": "5537 FM Road 439", "addr:city": "Belton", "addr:state": "TX", "addr:postcode": "76513", "addr:country": "US", "brand": "CEFCO"}, "geometry": {"type": "Point", "coordinates": [-97.511101, 31.104337]}},
{"type": "Feature", "id": "lwYdTl6s2dZYghlwqaiQTK6MzTc=", "properties": {"ref": "4768", "amenity:fuel": true, "fuel:diesel": true, "fuel:HGV_diesel": false, "fuel:e85": false, "fuel:octane_87": true, "fuel:octane_89": true, "fuel:octane_93": true, "fuel:kerosene": false, "car_wash": false, "hgv": false, "@spider": "cefco", "addr:full": "614 E Ave O", "addr:city": "Belton", "addr:state": "TX", "addr:postcode": "76513", "addr:country": "US", "brand": "CEFCO"}, "geometry": {"type": "Point", "coordinates": [-97.462387, 31.043327]}},
{"type": "Feature", "id": "vZZfsRmGio7yNUX6GL9bTQ6rr-I=", "properties": {"ref": "4767", "amenity:fuel": true, "fuel:diesel": true, "fuel:HGV_diesel": false, "fuel:e85": false, "fuel:octane_87": true, "fuel:octane_89": true, "fuel:octane_93": true, "fuel:kerosene": false, "car_wash": false, "hgv": false, "@spider": "cefco", "addr:full": "2108 North Travis", "addr:city": "Cameron", "addr:state": "TX", "addr:postcode": "76520", "addr:country": "US", "brand": "CEFCO"}, "geometry": {"type": "Point", "coordinates": [-96.972937, 30.866774]}},
{"type": "Feature", "id": "Ui1RTC3gvccgcQOWUSkScLAQAs8=", "properties": {"ref": "4766", "amenity:fuel": true, "fuel:diesel": true, "fuel:HGV_diesel": false, "fuel:e85": false, "fuel:octane_87": true, "fuel:octane_89": true, "fuel:octane_93": true, "fuel:kerosene": false, "car_wash": false, "hgv": false, "@spider": "cefco", "addr:full": "8845 North HWY 171", "addr:city": "Godley", "addr:state": "TX", "addr:postcode": "76044", "addr:country": "US", "brand": "CEFCO"}, "geometry": {"type": "Point", "coordinates": [-97.538848, 32.451694]}},
{"type": "Feature", "id": "Vw8-Q55tWr1iwkRd11WW31YAl0w=", "properties": {"ref": "4765", "amenity:fuel": true, "fuel:diesel": false, "fuel:HGV_diesel": false, "fuel:e85": false, "fuel:octane_87": true, "fuel:octane_89": true, "fuel:octane_93": true, "fuel:kerosene": false, "car_wash": false, "hgv": false, "@spider": "cefco", "addr:full": "926 Indian Trail", "addr:city": "Harker Heights", "addr:state": "TX", "addr:postcode": "76548", "addr:country": "US", "brand": "CEFCO"}, "geometry": {"type": "Point", "coordinates": [-97.647377, 31.072233]}},
{"type": "Feature", "id": "f2dw4k8eEZhmajgHvkLXdqN6EdQ=", "properties": {"ref": "4764", "amenity:fuel": true, "fuel:diesel": true, "fuel:HGV_diesel": false, "fuel:e85": false, "fuel:octane_87": true, "fuel:octane_89": true, "fuel:octane_93": true, "fuel:kerosene": false, "car_wash": true, "hgv": false, "@spider": "cefco", "addr:full": "3805 S 31st St", "addr:city": "Temple", "addr:state": "TX", "addr:postcode": "76502", "addr:country": "US", "brand": "CEFCO"}, "geometry": {"type": "Point", "coordinates": [-97.370925, 31.063882]}},
{"type": "Feature", "id": "CXIaalNEtdxg8ucjGfPjscBJVHc=", "properties": {"ref": "4763", "amenity:fuel": true, "fuel:diesel": true, "fuel:HGV_diesel": false, "fuel:e85": false, "fuel:octane_87": true, "fuel:octane_89": true, "fuel:octane_93": true, "fuel:kerosene": false, "car_wash": true, "hgv": false, "@spider": "cefco", "addr:full": "1702 Taylors Valley Rd", "addr:city": "Belton", "addr:state": "TX", "addr:postcode": "76513", "addr:country": "US", "brand": "CEFCO"}, "geometry": {"type": "Point", "coordinates": [-97.44506, 31.055233]}},
{"type": "Feature", "id": "wj_NpFaBOfNNHXt79pRGe8WjEwI=", "properties": {"ref": "4762", "amenity:fuel": true, "fuel:diesel": true, "fuel:HGV_diesel": false, "fuel:e85": false, "fuel:octane_87": true, "fuel:octane_89": true, "fuel:octane_93": true, "fuel:kerosene": false, "car_wash": false, "hgv": false, "@spider": "cefco", "addr:full": "1620 S 18th St", "addr:city": "Waco", "addr:state": "TX", "addr:postcode": "76706", "addr:country": "US", "brand": "CEFCO"}, "geometry": {"type": "Point", "coordinates": [-97.129089, 31.534734]}},
{"type": "Feature", "id": "z97xg3oop0UFPYXAu9PEoqp-nY4=", "properties": {"ref": "4761", "amenity:fuel": true, "fuel:diesel": true, "fuel:HGV_diesel": false, "fuel:e85": false, "fuel:octane_87": true, "fuel:octane_89": true, "fuel:octane_93": true, "fuel:kerosene": false, "car_wash": false, "hgv": false, "@spider": "cefco", "addr:full": "4439 Lakeshore Dr", "addr:city": "Waco", "addr:state": "TX", "addr:postcode": "76710", "addr:country": "US", "brand": "CEFCO"}, "geometry": {"type": "Point", "coordinates": [-97.195007, 31.562557]}},
{"type": "Feature", "id": "ct0AzFe_C-XwC1ESYfhx167PTkM=", "properties": {"ref": "4760", "amenity:fuel": true, "fuel:diesel": true, "fuel:HGV_diesel": false, "fuel:e85": false, "fuel:octane_87": true, "fuel:octane_89": true, "fuel:octane_93": true, "fuel:kerosene": false, "car_wash": false, "hgv": false, "@spider": "cefco", "addr:full": "905 Hewitt Dr", "addr:city": "Woodway", "addr:state": "TX", "addr:postcode": "76712", "addr:country": "US", "brand": "CEFCO"}, "geometry": {"type": "Point", "coordinates": [-97.213417, 31.489025]}},
{"type": "Feature", "id": "n8BQJZqdyltIHrj2rkXfbI2WrzY=", "properties": {"ref": "4759", "amenity:fuel": true, "fuel:diesel": true, "fuel:HGV_diesel": false, "fuel:e85": false, "fuel:octane_87": true, "fuel:octane_89": true, "fuel:octane_93": true, "fuel:kerosene": false, "car_wash": false, "hgv": false, "@spider": "cefco", "addr:full": "801 S. Commerce St.", "addr:city": "Overton", "addr:state": "TX", "addr:postcode": "75684", "addr:country": "US", "brand": "CEFCO"}, "geometry": {"type": "Point", "coordinates": [-94.97951, 32.268916]}},
{"type": "Feature", "id": "ATqAuD3IFro732gUmlem8ehA4MI=", "properties": {"ref": "4758", "amenity:fuel": true, "fuel:diesel": true, "fuel:HGV_diesel": false, "fuel:e85": false, "fuel:octane_87": true, "fuel:octane_89": true, "fuel:octane_93": true, "fuel:kerosene": false, "car_wash": false, "hgv": false, "@spider": "cefco", "addr:full": "201 Mesquite Avenue", "addr:city": "Rogers", "addr:state": "TX", "addr:postcode": "76569", "addr:country": "US", "brand": "CEFCO"}, "geometry": {"type": "Point", "coordinates": [-97.226675, 30.931703]}},
{"type": "Feature", "id": "EgZVND8_84Iz1oei7sdr4GRMv0c=", "properties": {"ref": "4757", "amenity:fuel": true, "fuel:diesel": true, "fuel:HGV_diesel": false, "fuel:e85": false, "fuel:octane_87": true, "fuel:octane_89": true, "fuel:octane_93": true, "fuel:kerosene": false, "car_wash": false, "hgv": false, "@spider": "cefco", "addr:full": "616 Lake Air Dr", "addr:city": "Waco", "addr:state": "TX", "addr:postcode": "76710", "addr:country": "US", "brand": "CEFCO"}, "geometry": {"type": "Point", "coordinates": [-97.186912, 31.525392]}},
{"type": "Feature", "id": "i3Gu2r46VOI-8ERrQSe9tijS7CM=", "properties": {"ref": "4756", "amenity:fuel": true, "fuel:diesel": true, "fuel:HGV_diesel": true, "fuel:e85": false, "fuel:octane_87": true, "fuel:octane_89": true, "fuel:octane_93": true, "fuel:kerosene": false, "car_wash": false, "hgv": true, "@spider": "cefco", "addr:full": "1005 E 1st St", "addr:city": "Cameron", "addr:state": "TX", "addr:postcode": "76520", "addr:country": "US", "brand": "CEFCO"}, "geometry": {"type": "Point", "coordinates": [-96.968324, 30.848252]}},
{"type": "Feature", "id": "sBbN5384ipdjqLgtfDVOtzsAL0M=", "properties": {"ref": "4755", "amenity:fuel": true, "fuel:diesel": true, "fuel:HGV_diesel": false, "fuel:e85": false, "fuel:octane_87": true, "fuel:octane_89": true, "fuel:octane_93": true, "fuel:kerosene": false, "car_wash": false, "hgv": false, "@spider": "cefco", "addr:full": "107 N 5th St", "addr:city": "Rosebud", "addr:state": "TX", "addr:postcode": "76570", "addr:country": "US", "brand": "CEFCO"}, "geometry": {"type": "Point", "coordinates": [-96.97871, 31.073167]}},
{"type": "Feature", "id": "45LN616FVLb7VeFG5C2IxEpxI0M=", "properties": {"ref": "4754", "amenity:fuel": true, "fuel:diesel": true, "fuel:HGV_diesel": false, "fuel:e85": false, "fuel:octane_87": true, "fuel:octane_89": true, "fuel:octane_93": true, "fuel:kerosene": false, "car_wash": false, "hgv": false, "@spider": "cefco", "addr:full": "3905 South Clear Creek", "addr:city": "Killeen", "addr:state": "TX", "addr:postcode": "76549", "addr:country": "US", "brand": "CEFCO"}, "geometry": {"type": "Point", "coordinates": [-97.805526, 31.099693]}},
{"type": "Feature", "id": "t6DgHGUlGKLAHQaQnkY5KnA0v10=", "properties": {"ref": "6084", "amenity:fuel": true, "fuel:diesel": true, "fuel:HGV_diesel": false, "fuel:e85": false, "fuel:octane_87": true, "fuel:octane_89": true, "fuel:octane_93": true, "fuel:kerosene": false, "car_wash": false, "hgv": false, "@spider": "cefco", "addr:full": "101 State Hwy 95", "addr:city": "Little River-Academy", "addr:state": "TX", "addr:postcode": "76554", "addr:country": "US", "brand": "CEFCO"}, "geometry": {"type": "Point", "coordinates": [-97.34154, 30.98016]}},
{"type": "Feature", "id": "cWwh2j_DejMoXChZcSIJizxXSAA=", "properties": {"ref": "5740", "amenity:fuel": true, "fuel:diesel": true, "fuel:HGV_diesel": true, "fuel:e85": true, "fuel:octane_87": true, "fuel:octane_89": true, "fuel:octane_93": true, "fuel:kerosene": false, "car_wash": false, "hgv": true, "@spider": "cefco", "addr:full": "2900 South Church St.", "addr:city": "Paris", "addr:state": "TX", "addr:postcode": "75460", "addr:country": "US", "brand": "CEFCO"}, "geometry": {"type": "Point", "coordinates": [-95.56188, 33.63053]}},
{"type": "Feature", "id": "e7tPB31hpLpICM3lmeNN1SIPyH8=", "properties": {"ref": "4889", "amenity:fuel": true, "fuel:diesel": true, "fuel:HGV_diesel": false, "fuel:e85": true, "fuel:octane_87": true, "fuel:octane_89": true, "fuel:octane_93": true, "fuel:kerosene": false, "car_wash": false, "hgv": false, "@spider": "cefco", "addr:full": "2309 W Main", "addr:city": "Gun Barrel City", "addr:state": "TX", "addr:postcode": "75147", "addr:country": "US", "brand": "CEFCO"}, "geometry": {"type": "Point", "coordinates": [-96.150696, 32.330901]}}]}