{"type":"FeatureCollection","features":[{"type": "Feature", "id": "vXSnogKVTqL20YlnOFG44xiW-k4=", "properties": {"ref": "Melbourne", "@spider": "cgi_group", "addr:full": "Level 18, 40 City Road", "addr:city": "Southbank", "addr:state": "VIC", "addr:postcode": "3006", "addr:country": "Australia", "name": "Melbourne", "website": "https://www.cgi.com/en/offices?field_address_country_code=AU&field_address_administrative_area=All&field_address_locality=All"}, "geometry": {"type": "Point", "coordinates": [144.9667365, -37.8210055]}},
{"type": "Feature", "id": "QFipEI4vBFpO_QCe0whC6q0bAXk=", "properties": {"ref": "Sydney - Pacific Highway", "@spider": "cgi_group", "addr:full": "100 Pacific Highway", "addr:city": "North Sydney", "addr:state": "NSW", "addr:postcode": "2060", "addr:country": "Australia", "name": "Sydney - Pacific Highway", "website": "https://www.cgi.com/en/offices?field_address_country_code=AU&field_address_administrative_area=All&field_address_locality=All"}, "geometry": {"type": "Point", "coordinates": [151.2058176, -33.8378548]}},
{"type": "Feature", "id": "C4tMA4qz2z-bBahwqaqc7sODu5U=", "properties": {"ref": "Hobart - Collins Street", "@spider": "cgi_group", "addr:full": "111 Macquarie Street", "addr:city": "Hobart", "addr:state": "TAS", "addr:postcode": "7000", "addr:country": "Australia", "name": "Hobart - Collins Street", "website": "https://www.cgi.com/en/offices?field_address_country_code=AU&field_address_administrative_area=All&field_address_locality=All"}, "geometry": {"type": "Point", "coordinates": [147.3286178, -42.8827839]}},
{"type": "Feature", "id": "7fecoJEkXsXVNvBK_l5AVzH5Fh8=", "properties": {"ref": "Sydney - Apollo Place", "@spider": "cgi_group", "addr:full": "1 Apollo Place", "addr:city": "Lane Cove", "addr:state": "NSW", "addr:postcode": "2066", "addr:country": "Australia", "name": "Sydney - Apollo Place", "website": "https://www.cgi.com/en/offices?field_address_country_code=AU&field_address_administrative_area=All&field_address_locality=All"}, "geometry": {"type": "Point", "coordinates": [151.1456049, -33.8082233]}},
{"type": "Feature", "id": "ud90Pf5apE1pwIGdyza_uWiqQZM=", "properties": {"ref": "Brisbane", "@spider": "cgi_group", "addr:full": "Riverside Centre", "addr:city": "Brisbane", "addr:state": "QLD", "addr:postcode": "4000", "addr:country": "Australia", "name": "Brisbane", "website": "https://www.cgi.com/en/offices?field_address_country_code=AU&field_address_administrative_area=All&field_address_locality=All"}, "geometry": {"type": "Point", "coordinates": [153.0296894, -27.4629267]}},
{"type": "Feature", "id": "2Wb-OCs723BOSbKUQ2uuh2mmDmk=", "properties": {"ref": "Adelaide ", "@spider": "cgi_group", "addr:full": "Office 2126", "addr:city": "Adelaide", "addr:state": "SA", "addr:postcode": "5000", "addr:country": "Australia", "name": "Adelaide ", "website": "https://www.cgi.com/en/offices?field_address_country_code=AU&field_address_administrative_area=All&field_address_locality=All"}, "geometry": {"type": "Point", "coordinates": [138.59864756876, -34.924715020932]}},
{"type": "Feature", "id": "GKg1w1ILGcvvSmZxttKHrQ9gXWQ=", "properties": {"ref": "Hong Kong", "@spider": "cgi_group", "addr:full": "Room 701,\u00a0Level 7,\u00a0Two Chinachem Central", "addr:city": "Hong Kong Island", "addr:state": "Hong Kong", "addr:postcode": "999077", "addr:country": "China", "name": "Hong Kong", "website": "https://www.cgi.com/en/offices?field_address_country_code=CN&field_address_administrative_area=All&field_address_locality=All"}, "geometry": {"type": "Point", "coordinates": [114.157084, 22.282854]}},
{"type": "Feature", "id": "deMgFDuLGzsVdWJBzFqrPQNRU5U=", "properties": {"ref": "Calgary", "@spider": "cgi_group", "addr:full": "444 - 7th Avenue SW", "addr:city": "Calgary", "addr:state": "AB", "addr:postcode": "T2P 0X8", "addr:country": "Canada", "name": "Calgary", "website": "https://www.cgi.com/en/offices?field_address_country_code=CA&field_address_administrative_area=All&field_address_locality=All"}, "geometry": {"type": "Point", "coordinates": [-114.0708315, 51.046708]}},
{"type": "Feature", "id": "JW45CT4bJrFnpTgS3l9tceRTIoI=", "properties": {"ref": "Edmonton", "@spider": "cgi_group", "addr:full": "10303 Jasper Avenue", "addr:city": "Edmonton", "addr:state": "AB", "addr:postcode": "T5J 3N6", "addr:country": "Canada", "name": "Edmonton", "website": "https://www.cgi.com/en/offices?field_address_country_code=CA&field_address_administrative_area=All&field_address_locality=All"}, "geometry": {"type": "Point", "coordinates": [-113.4978025, 53.5405961]}},
{"type": "Feature", "id": "HZ6Ye7mx--l1JolMHT9R6pvRmqE=", "properties": {"ref": "Burnaby", "@spider": "cgi_group", "addr:full": "2025 Willingdon Ave", "addr:city": "Burnaby", "addr:state": "BC", "addr:postcode": "V5C 0J3", "addr:country": "Canada", "name": "Burnaby", "website": "https://www.cgi.com/en/offices?field_address_country_code=CA&field_address_administrative_area=All&field_address_locality=All"}, "geometry": {"type": "Point", "coordinates": [-122.968941, 49.267132]}},
{"type": "Feature", "id": "ZoLEcmBY4q4dY6OAu2JBOEUE-3o=", "properties": {"ref": "Victoria", "@spider": "cgi_group", "addr:full": "1175 Douglas St.", "addr:city": "Victoria", "addr:state": "BC", "addr:postcode": "V8W 2E1", "addr:country": "Canada", "name": "Victoria", "website": "https://www.cgi.com/en/offices?field_address_country_code=CA&field_address_administrative_area=All&field_address_locality=All"}, "geometry": {"type": "Point", "coordinates": [-123.3644291, 48.4273943]}},
{"type": "Feature", "id": "nGItjwS9v5voK8R3cRbb5Bgw0R0=", "properties": {"ref": "Regina", "@spider": "cgi_group", "addr:full": "1900, Albert Street", "addr:city": "Regina", "addr:state": "SK", "addr:postcode": "S4P 4K8", "addr:country": "Canada", "name": "Regina", "website": "https://www.cgi.com/en/offices?field_address_country_code=CA&field_address_administrative_area=All&field_address_locality=All"}, "geometry": {"type": "Point", "coordinates": [-104.6188922, 50.4480138]}},
{"type": "Feature", "id": "mF1ilcZTE7TtBnikAManax5sx9w=", "properties": {"ref": "Ottawa", "@spider": "cgi_group", "addr:full": "1410 Blair Place", "addr:city": "Ottawa", "addr:state": "ON", "addr:postcode": "K1J 9B9", "addr:country": "Canada", "name": "Ottawa", "website": "https://www.cgi.com/en/offices?field_address_country_code=CA&field_address_administrative_area=All&field_address_locality=All"}, "geometry": {"type": "Point", "coordinates": [-75.604811, 45.435127]}},
{"type": "Feature", "id": "mQcFaEWAzSOwwpJOcXd2-DefscQ=", "properties": {"ref": "Markham", "@spider": "cgi_group", "addr:full": "150 Commerce Valley Drive West", "addr:city": "Markham", "addr:state": "ON", "addr:postcode": "L3T 7Z3", "addr:country": "Canada", "name": "Markham", "website": "https://www.cgi.com/en/offices?field_address_country_code=CA&field_address_administrative_area=All&field_address_locality=All"}, "geometry": {"type": "Point", "coordinates": [-79.3828092, 43.8399852]}},
{"type": "Feature", "id": "Fg0Dg6pNRiiK3PDrufxZB3c2Z3A=", "properties": {"ref": "Montr\u00e9al - Head office", "@spider": "cgi_group", "addr:full": "1350 Ren\u00e9-L\u00e9vesque Blvd West", "addr:city": "Montr\u00e9al", "addr:state": "QC", "addr:postcode": "H3G 1T4", "addr:country": "Canada", "name": "Montr\u00e9al - Head office", "website": "https://www.cgi.com/en/offices?field_address_country_code=CA&field_address_administrative_area=All&field_address_locality=All"}, "geometry": {"type": "Point", "coordinates": [-73.5724765, 45.4963429]}},
{"type": "Feature", "id": "i9iDcWHGYa-GN1PKmErocJI6PHk=", "properties": {"ref": "Montr\u00e9al - Cr\u00e9mazie", "@spider": "cgi_group", "addr:full": "1611 Cr\u00e9mazie Blvd East", "addr:city": "Montr\u00e9al", "addr:state": "QC", "addr:postcode": "H2M 2P2", "addr:country": "Canada", "name": "Montr\u00e9al - Cr\u00e9mazie", "website": "https://www.cgi.com/en/offices?field_address_country_code=CA&field_address_administrative_area=All&field_address_locality=All"}, "geometry": {"type": "Point", "coordinates": [-73.6233902, 45.5540076]}},
{"type": "Feature", "id": "Op_sVXNt8D2kpdl3s4vAYq7Yhew=", "properties": {"ref": "Montr\u00e9al - Saint-Denis", "@spider": "cgi_group", "addr:full": "5800 Saint-Denis St.", "addr:city": "Montr\u00e9al", "addr:state": "QC", "addr:postcode": "H2S 3L5", "addr:country": "Canada", "name": "Montr\u00e9al - Saint-Denis", "website": "https://www.cgi.com/en/offices?field_address_country_code=CA&field_address_administrative_area=All&field_address_locality=All"}, "geometry": {"type": "Point", "coordinates": [-73.5986257, 45.5301523]}},
{"type": "Feature", "id": "j0HJ_xqYqCo_3vGibSGPpXTPd-M=", "properties": {"ref": "Qu\u00e9bec - Charest", "@spider": "cgi_group", "addr:full": "410 Charest Blvd East", "addr:city": "Qu\u00e9bec", "addr:state": "QC", "addr:postcode": "G1K 8G3", "addr:country": "Canada", "name": "Qu\u00e9bec - Charest", "website": "https://www.cgi.com/en/offices?field_address_country_code=CA&field_address_administrative_area=All&field_address_locality=All"}, "geometry": {"type": "Point", "coordinates": [-71.2239475, 46.8138598]}},
{"type": "Feature", "id": "oLQg0ijOZPj3YFhJ4e7P5wpoqsQ=", "properties": {"ref": "Saguenay", "@spider": "cgi_group", "addr:full": "930 Jacques-Cartier St. East", "addr:city": "Saguenay", "addr:state": "QC", "addr:postcode": "G7H 7K9", "addr:country": "Canada", "name": "Saguenay", "website": "https://www.cgi.com/en/offices?field_address_country_code=CA&field_address_administrative_area=All&field_address_locality=All"}, "geometry": {"type": "Point", "coordinates": [-71.0410106, 48.4238524]}},
{"type": "Feature", "id": "v6yDEK5SXr7jFAfW5GIVuUYneOY=", "properties": {"ref": "Sherbrooke", "@spider": "cgi_group", "addr:full": "101 &amp; 111 rue Ab\u00e9naquis", "addr:city": "Sherbrooke", "addr:state": "QC", "addr:postcode": "J1H 1H1", "addr:country": "Canada", "name": "Sherbrooke", "website": "https://www.cgi.com/en/offices?field_address_country_code=CA&field_address_administrative_area=All&field_address_locality=All"}, "geometry": {"type": "Point", "coordinates": [-71.893255, 45.405913]}},
{"type": "Feature", "id": "qtqJK5oUDzPDu_0wARMbnSmU2M0=", "properties": {"ref": "Stratford", "@spider": "cgi_group", "addr:full": "24 Stratford Road", "addr:city": "Stratford", "addr:state": "PE", "addr:postcode": "C1B 1T5", "addr:country": "Canada", "name": "Stratford", "website": "https://www.cgi.com/en/offices?field_address_country_code=CA&field_address_administrative_area=All&field_address_locality=All"}, "geometry": {"type": "Point", "coordinates": [-63.1021402, 46.2274711]}},
{"type": "Feature", "id": "TRvaRaBeAPAiDPudxvS41Eo6D0Y=", "properties": {"ref": "Fredericton", "@spider": "cgi_group", "addr:full": "30 Knowledge Park Drive", "addr:city": "Fredericton", "addr:state": "NB", "addr:postcode": "E3C 2R2", "addr:country": "Canada", "name": "Fredericton", "website": "https://www.cgi.com/en/offices?field_address_country_code=CA&field_address_administrative_area=All&field_address_locality=All"}, "geometry": {"type": "Point", "coordinates": [-66.660682, 45.9313425]}},
{"type": "Feature", "id": "httibqX_FalJUzA3atVsipV-kj8=", "properties": {"ref": "Halifax", "@spider": "cgi_group", "addr:full": "7071 Bayers Road", "addr:city": "Halifax", "addr:state": "NS", "addr:postcode": "B3L 2C2", "addr:country": "Canada", "name": "Halifax", "website": "https://www.cgi.com/en/offices?field_address_country_code=CA&field_address_administrative_area=All&field_address_locality=All"}, "geometry": {"type": "Point", "coordinates": [-63.6258569, 44.6558793]}},
{"type": "Feature", "id": "qw0FCJ6L9G6K_xCnNWLeOuvYzhk=", "properties": {"ref": "Moncton", "@spider": "cgi_group", "addr:full": "12 Millennium Blvd", "addr:city": "Moncton", "addr:state": "NB", "addr:postcode": "E1C 0M3", "addr:country": "Canada", "name": "Moncton", "website": "https://www.cgi.com/en/offices?field_address_country_code=CA&field_address_administrative_area=All&field_address_locality=All"}, "geometry": {"type": "Point", "coordinates": [-64.8023581, 46.0906452]}},
{"type": "Feature", "id": "CO7SgTNZPUpm4w3QYct39GDBJ5Y=", "properties": {"ref": "Toronto", "@spider": "cgi_group", "addr:full": "250 Yonge Street", "addr:city": "Toronto", "addr:state": "ON", "addr:postcode": "M5B 2L7", "addr:country": "Canada", "name": "Toronto", "website": "https://www.cgi.com/en/offices?field_address_country_code=CA&field_address_administrative_area=All&field_address_locality=All"}, "geometry": {"type": "Point", "coordinates": [-79.380481, 43.6543767]}},
{"type": "Feature", "id": "OM-0frD_rSaZL9B3_o0sxIuQgSw=", "properties": {"ref": "Mississauga", "@spider": "cgi_group", "addr:full": "6790 Century Avenue", "addr:city": "Mississauga", "addr:state": "ON", "addr:postcode": "L5N 2V8", "addr:country": "Canada", "name": "Mississauga", "website": "https://www.cgi.com/en/offices?field_address_country_code=CA&field_address_administrative_area=All&field_address_locality=All"}, "geometry": {"type": "Point", "coordinates": [-79.746121, 43.6012922]}},
{"type": "Feature", "id": "2P_NLcgMDNz6ws7hb3nLvAjnp9k=", "properties": {"ref": "Shawinigan", "@spider": "cgi_group", "addr:full": "444, 5th Street", "addr:city": "Shawinigan", "addr:state": "QC", "addr:postcode": "G9N 1E6", "addr:country": "Canada", "name": "Shawinigan", "website": "https://www.cgi.com/en/offices?field_address_country_code=CA&field_address_administrative_area=All&field_address_locality=All"}, "geometry": {"type": "Point", "coordinates": [-72.7477964, 46.5407292]}},
{"type": "Feature", "id": "sxNFECZC56fbvoB9JlEdBN3M7wY=", "properties": {"ref": "Drummondville", "@spider": "cgi_group", "addr:full": "1506 Jean-Berchmans-Michaud Street", "addr:city": "Drummondville", "addr:state": "QC", "addr:postcode": "J2C 2Z5", "addr:country": "Canada", "name": "Drummondville", "website": "https://www.cgi.com/en/offices?field_address_country_code=CA&field_address_administrative_area=All&field_address_locality=All"}, "geometry": {"type": "Point", "coordinates": [-72.48241, 45.88336]}},
{"type": "Feature", "id": "kssnbUNe0okC7-Og-Du8JbW1H-4=", "properties": {"ref": "Metcalfe Street", "@spider": "cgi_group", "addr:full": "55 Metcalfe Street", "addr:city": "Ottawa", "addr:state": "ON", "addr:postcode": "K1P 6L5", "addr:country": "Canada", "name": "Metcalfe Street", "website": "https://www.cgi.com/en/offices?field_address_country_code=CA&field_address_administrative_area=All&field_address_locality=All"}, "geometry": {"type": "Point", "coordinates": [-75.696014, 45.422379]}},
{"type": "Feature", "id": "5JdHrbsg1nkFly2WyVdS1dNNSsA=", "properties": {"ref": "Gatineau", "@spider": "cgi_group", "addr:full": "85 Bellehumeur Street", "addr:city": "Gatineau", "addr:state": "QC", "addr:postcode": "J8T 1P8", "addr:country": "Canada", "name": "Gatineau", "website": "https://www.cgi.com/en/offices?field_address_country_code=CA&field_address_administrative_area=All&field_address_locality=All"}, "geometry": {"type": "Point", "coordinates": [-75.691387, 45.476213]}},
{"type": "Feature", "id": "nof7V1gDvvpCsHbVG1_TMqj_eAM=", "properties": {"ref": "Montreal ", "@spider": "cgi_group", "addr:full": "1801 McGill College Avenue", "addr:city": "Montreal", "addr:state": "QC", "addr:postcode": "H3A 2N4", "addr:country": "Canada", "name": "Montreal ", "website": "https://www.cgi.com/en/offices?field_address_country_code=CA&field_address_administrative_area=All&field_address_locality=All"}, "geometry": {"type": "Point", "coordinates": [-73.572281, 45.50305]}},
{"type": "Feature", "id": "sFysI9kXZlVD2PGrej847_FY-aw=", "properties": {"ref": "Belgium", "@spider": "cgi_group", "addr:full": "Airport Plaza Building C Kyoto", "addr:city": "Diegem", "addr:postcode": "1831", "addr:country": "Belgium", "name": "Belgium", "website": "https://www.cgi.com/en/offices?field_address_country_code=BE&field_address_administrative_area=All&field_address_locality=All"}, "geometry": {"type": "Point", "coordinates": [4.459114, 50.892545]}},
{"type": "Feature", "id": "H_34_njWhUFiHWoT8_JMZsCGuCQ=", "properties": {"ref": "Kuala Lumpur - Avenue 7", "@spider": "cgi_group", "addr:full": "Avenue 7 Bangsar South City No. 8 Jalan Kerinchi", "addr:city": "Kuala Lumpur", "addr:postcode": "59200", "addr:country": "Malaysia", "name": "Kuala Lumpur - Avenue 7", "website": "https://www.cgi.com/en/offices?field_address_country_code=MY&field_address_administrative_area=All&field_address_locality=All"}, "geometry": {"type": "Point", "coordinates": [101.6685235, 3.1124993]}},
{"type": "Feature", "id": "Vk2TTCm4GxXPiG4EEhyM_uk-mUc=", "properties": {"ref": "Bertrange - Zone d&#039;activit\u00e9 de Bourmicht", "@spider": "cgi_group", "addr:full": "7 Zone d&#039;activit\u00e9 de Bourmicht", "addr:city": "Bertrange", "addr:postcode": "L-8070", "addr:country": "Luxembourg", "name": "Bertrange - Zone d&#039;activit\u00e9 de Bourmicht", "website": "https://www.cgi.com/en/offices?field_address_country_code=LU&field_address_administrative_area=All&field_address_locality=All"}, "geometry": {"type": "Point", "coordinates": [6.0780606, 49.6103087]}},
{"type": "Feature", "id": "dggfeExAEk0E5AcGFYz6p_mOgWA=", "properties": {"ref": "Kaunas  ", "@spider": "cgi_group", "addr:full": "K. Donelai\u010dio g. 62", "addr:city": "Kaunas", "addr:postcode": "44248", "addr:country": "Lithuania", "name": "Kaunas  ", "website": "https://www.cgi.com/en/offices?field_address_country_code=LT&field_address_administrative_area=All&field_address_locality=All"}, "geometry": {"type": "Point", "coordinates": [23.91176, 54.900176]}},
{"type": "Feature", "id": "0kZbxFEwqq5xMjY7Sxiz97b5srk=", "properties": {"ref": "Vilnius", "@spider": "cgi_group", "addr:full": "Perkunkiemio str. 4A", "addr:city": "Vilnius", "addr:postcode": "12128", "addr:country": "Lithuania", "name": "Vilnius", "website": "https://www.cgi.com/en/offices?field_address_country_code=LT&field_address_administrative_area=All&field_address_locality=All"}, "geometry": {"type": "Point", "coordinates": [25.22274, 54.74119]}},
{"type": "Feature", "id": "O9KYEhk7NOQQ0vTZUClzcFuWRQA=", "properties": {"ref": "Riga ", "@spider": "cgi_group", "addr:full": "Gunara Astras street 8B", "addr:city": "Riga ", "addr:postcode": "LV-1082", "addr:country": "Latvia", "name": "Riga ", "website": "https://www.cgi.com/en/offices?field_address_country_code=LV&field_address_administrative_area=All&field_address_locality=All"}, "geometry": {"type": "Point", "coordinates": [24.187581, 56.951754]}},
{"type": "Feature", "id": "KYGN0UOYHt_UpvUZh6XUGLEwa_I=", "properties": {"ref": "Italy - Frascati", "@spider": "cgi_group", "addr:full": "Via Enrico Fermi 62", "addr:city": "Frascati", "addr:state": "RM", "addr:postcode": "00044", "addr:country": "Italy", "name": "Italy - Frascati", "website": "https://www.cgi.com/en/offices?field_address_country_code=IT&field_address_administrative_area=All&field_address_locality=All"}, "geometry": {"type": "Point", "coordinates": [12.6699504, 41.8248338]}},
{"type": "Feature", "id": "iQd7wRMnbNWHjiT8QMrc7cS1PT4=", "properties": {"ref": "Bangalore - Electronic City Post", "@spider": "cgi_group", "addr:full": "Tower 2, #95/1 &amp; 95/2", "addr:city": "Bangalore", "addr:state": "Karnataka", "addr:postcode": "560100", "addr:country": "India", "name": "Bangalore - Electronic City Post", "website": "https://www.cgi.com/en/offices?field_address_country_code=IN&field_address_administrative_area=All&field_address_locality=All"}, "geometry": {"type": "Point", "coordinates": [77.6938719, 12.8361348]}},
{"type": "Feature", "id": "Jh2K1GafA47n7TzUW9NyQ2OM300=", "properties": {"ref": "Bangalore - Hosur Road", "@spider": "cgi_group", "addr:full": "Plot No. 76 &amp; 77, Electronic City, Phase 1(west)", "addr:city": "Bangalore", "addr:state": "Karnataka", "addr:postcode": "560100", "addr:country": "India", "name": "Bangalore - Hosur Road", "website": "https://www.cgi.com/en/offices?field_address_country_code=IN&field_address_administrative_area=All&field_address_locality=All"}, "geometry": {"type": "Point", "coordinates": [77.664051, 12.837679]}},
{"type": "Feature", "id": "wgQuf4PZs3Ss6vSGSi6UOaEEMUM=", "properties": {"ref": "Hyderabad - Road No 2", "@spider": "cgi_group", "addr:full": "2nd Floor, Part of Ground&amp;6th Floor, Block-3, Part of 3rd Floor, Block-2, ", "addr:city": "Hyderabad", "addr:state": "Telangana", "addr:postcode": "500032", "addr:country": "India", "name": "Hyderabad - Road No 2", "website": "https://www.cgi.com/en/offices?field_address_country_code=IN&field_address_administrative_area=All&field_address_locality=All"}, "geometry": {"type": "Point", "coordinates": [78.3563023, 17.4482026]}},
{"type": "Feature", "id": "G2zPWsTZsIdHA0ZUG993FadkbRs=", "properties": {"ref": "Hyderabad - DLF Cyber City", "@spider": "cgi_group", "addr:full": "4th Floor, Block A, Road No. 2,", "addr:city": "Hyderabad", "addr:state": "Telangana", "addr:postcode": "500081", "addr:country": "India", "name": "Hyderabad - DLF Cyber City", "website": "https://www.cgi.com/en/offices?field_address_country_code=IN&field_address_administrative_area=All&field_address_locality=All"}, "geometry": {"type": "Point", "coordinates": [78.3745232, 17.4485639]}},
{"type": "Feature", "id": "H1tVQap7yobyh69YCf0rHr-kkYE=", "properties": {"ref": "Bangalore - Off Airport Road", "@spider": "cgi_group", "addr:full": "124,125, Yemlur P.O.", "addr:city": "Bangalore", "addr:state": "Karnataka", "addr:postcode": "560037", "addr:country": "India", "name": "Bangalore - Off Airport Road", "website": "https://www.cgi.com/en/offices?field_address_country_code=IN&field_address_administrative_area=All&field_address_locality=All"}, "geometry": {"type": "Point", "coordinates": [77.689253, 12.948328]}},
{"type": "Feature", "id": "FaoyO7O1UTD9h48BjDtLxqIPWfE=", "properties": {"ref": "Chennai - Manapakkam", "@spider": "cgi_group", "addr:full": "3rd floor, 5th Block, 1/124, Shivaji Gardens,", "addr:city": "Chennai", "addr:state": "Tamil Nadu", "addr:postcode": "600089", "addr:country": "India", "name": "Chennai - Manapakkam", "website": "https://www.cgi.com/en/offices?field_address_country_code=IN&field_address_administrative_area=All&field_address_locality=All"}, "geometry": {"type": "Point", "coordinates": [80.1718055, 13.0221297]}},
{"type": "Feature", "id": "fQhqFbZYXZ5J0LDiIKAXrVnDUWg=", "properties": {"ref": "Mumbai - Andheri Kurla Road", "@spider": "cgi_group", "addr:full": "Plot No. 22, SEEPZ", "addr:city": "Mumbai", "addr:state": "Maharashtra", "addr:postcode": "400096", "addr:country": "India", "name": "Mumbai - Andheri Kurla Road", "website": "https://www.cgi.com/en/offices?field_address_country_code=IN&field_address_administrative_area=All&field_address_locality=All"}, "geometry": {"type": "Point", "coordinates": [72.875611, 19.124806]}},
{"type": "Feature", "id": "QCaLv3UYsSJZ6SKa0Fl8JQxeugI=", "properties": {"ref": "Nalapad Brigade Centre ", "@spider": "cgi_group", "addr:full": "New No. 493, Old No.491/1, 1st and 2nd Floor,", "addr:city": "Bangalore", "addr:state": "Karnataka", "addr:postcode": "560048", "addr:country": "India", "name": "Nalapad Brigade Centre ", "website": "https://www.cgi.com/en/offices?field_address_country_code=IN&field_address_administrative_area=All&field_address_locality=All"}, "geometry": {"type": "Point", "coordinates": [77.702337, 12.993416]}},
{"type": "Feature", "id": "WXgH1hJH-ewIje77_GpQYS3G_dM=", "properties": {"ref": "Pune - World Trade Centre", "@spider": "cgi_group", "addr:full": "Tower 4, 2nd floor, Dholepatil Farms Road, Opp. EON Free Zone, MIDC, ", "addr:city": " Pune", "addr:state": "Maharashtra", "addr:postcode": "411014", "addr:country": "India", "name": "Pune - World Trade Centre", "website": "https://www.cgi.com/en/offices?field_address_country_code=IN&field_address_administrative_area=All&field_address_locality=All"}, "geometry": {"type": "Point", "coordinates": [73.9484321, 18.5532246]}},
{"type": "Feature", "id": "NPGKmkcpPzGfut4uR9wx6_GSwrw=", "properties": {"ref": "Budapest - Tartsay Vilmos ", "@spider": "cgi_group", "addr:full": "Tartsay Vilmos u. 3", "addr:city": "Budapest", "addr:postcode": "1126", "addr:country": "Hungary", "name": "Budapest - Tartsay Vilmos ", "website": "https://www.cgi.com/en/offices?field_address_country_code=HU&field_address_administrative_area=All&field_address_locality=All"}, "geometry": {"type": "Point", "coordinates": [19.0231341, 47.4921854]}},
{"type": "Feature", "id": "zW84ixRP_6TOs0oKdMco-8jJylA=", "properties": {"ref": "Berlin", "@spider": "cgi_group", "addr:full": "Spittelmarkt 11-12", "addr:city": "Berlin", "addr:postcode": "10117", "addr:country": "Germany", "name": "Berlin", "website": "https://www.cgi.com/en/offices?field_address_country_code=DE&field_address_administrative_area=All&field_address_locality=All"}, "geometry": {"type": "Point", "coordinates": [13.40163, 52.511817]}},
{"type": "Feature", "id": "M7RDfk_pbJC2ndmGpg4pDAUpc64=", "properties": {"ref": "Bremen - Kranhaus Hoerneckestra\u00dfe", "@spider": "cgi_group", "addr:full": "Kranhaus ", "addr:city": "Bremen", "addr:postcode": "28217", "addr:country": "Germany", "name": "Bremen - Kranhaus Hoerneckestra\u00dfe", "website": "https://www.cgi.com/en/offices?field_address_country_code=DE&field_address_administrative_area=All&field_address_locality=All"}, "geometry": {"type": "Point", "coordinates": [8.7761343, 53.0874476]}},
{"type": "Feature", "id": "xJfl3beVS6YwJOKModNVOPpP32I=", "properties": {"ref": "D\u00fcsseldorf - Heerdter Lohweg ", "@spider": "cgi_group", "addr:full": "Heerdter Lohweg 35", "addr:city": "D\u00fcsseldorf", "addr:postcode": "40549", "addr:country": "Germany", "name": "D\u00fcsseldorf - Heerdter Lohweg ", "website": "https://www.cgi.com/en/offices?field_address_country_code=DE&field_address_administrative_area=All&field_address_locality=All"}, "geometry": {"type": "Point", "coordinates": [6.72695, 51.23672]}},
{"type": "Feature", "id": "_yS7Xqm-eaL2RhcG47zJ1f_c9_g=", "properties": {"ref": "K\u00f6ln", "@spider": "cgi_group", "addr:full": "Ettore-Bugatti-Stra\u00dfe 6-14", "addr:city": "K\u00f6ln", "addr:postcode": "51149", "addr:country": "Germany", "name": "K\u00f6ln", "website": "https://www.cgi.com/en/offices?field_address_country_code=DE&field_address_administrative_area=All&field_address_locality=All"}, "geometry": {"type": "Point", "coordinates": [7.0550612, 50.9092684]}},
{"type": "Feature", "id": "zuF4jYqpy_gr_jkxk58Rue8dR_8=", "properties": {"ref": "Karlsruhe1", "@spider": "cgi_group", "addr:full": "CGI Innovation Lab", "addr:city": "Karlsruhe", "addr:postcode": "76185", "addr:country": "Germany", "name": "Karlsruhe1", "website": "https://www.cgi.com/en/offices?field_address_country_code=DE&field_address_administrative_area=All&field_address_locality=All"}, "geometry": {"type": "Point", "coordinates": [8.358698, 49.012955]}},
{"type": "Feature", "id": "5sWlKQ8A6fAh2sK1sbtzHsMB18U=", "properties": {"ref": "Stuttgart - Leinfelden Echterdingen", "@spider": "cgi_group", "addr:full": "Leinfelder Stra\u00dfe 60", "addr:city": "Leinfelden-Echterdingen", "addr:postcode": "70771", "addr:country": "Germany", "name": "Stuttgart - Leinfelden Echterdingen", "website": "https://www.cgi.com/en/offices?field_address_country_code=DE&field_address_administrative_area=All&field_address_locality=All"}, "geometry": {"type": "Point", "coordinates": [9.1595863, 48.6916548]}},
{"type": "Feature", "id": "-ilABHbvlNih9LGznLld8Otkp78=", "properties": {"ref": "Mannheim - Edisonstra\u00dfe 12", "@spider": "cgi_group", "addr:full": "Edisonstra\u00dfe 12", "addr:city": "Mannheim", "addr:postcode": "68309", "addr:country": "Germany", "name": "Mannheim - Edisonstra\u00dfe 12", "website": "https://www.cgi.com/en/offices?field_address_country_code=DE&field_address_administrative_area=All&field_address_locality=All"}, "geometry": {"type": "Point", "coordinates": [8.5054928, 49.5128202]}},
{"type": "Feature", "id": "bE_-gchiUIRj6dAo38qfAN5SIWs=", "properties": {"ref": "Frankfurt - Sulzbach", "@spider": "cgi_group", "addr:full": "Am Limespark 2", "addr:city": "Sulzbach (Taunus)", "addr:postcode": "65843", "addr:country": "Germany", "name": "Frankfurt - Sulzbach", "website": "https://www.cgi.com/en/offices?field_address_country_code=DE&field_address_administrative_area=All&field_address_locality=All"}, "geometry": {"type": "Point", "coordinates": [8.5196655, 50.1288725]}},
{"type": "Feature", "id": "KAU14zRUGzZVufSuTIpf7boCWI8=", "properties": {"ref": "Germany - Wolfsburg", "@spider": "cgi_group", "addr:full": "Technikum 1, 2.OG", "addr:city": "Wolfsburg", "addr:postcode": "38448", "addr:country": "Germany", "name": "Germany - Wolfsburg", "website": "https://www.cgi.com/en/offices?field_address_country_code=DE&field_address_administrative_area=All&field_address_locality=All"}, "geometry": {"type": "Point", "coordinates": [10.7850195, 52.4201684]}},
{"type": "Feature", "id": "hu4MHD04Oa9hJ1nLzE8gKTtp4YA=", "properties": {"ref": "Hannover", "@spider": "cgi_group", "addr:full": "Bahnhofstra\u00dfe 8", "addr:city": "Hannover", "addr:postcode": "30159", "addr:country": "Germany", "name": "Hannover", "website": "https://www.cgi.com/en/offices?field_address_country_code=DE&field_address_administrative_area=All&field_address_locality=All"}, "geometry": {"type": "Point", "coordinates": [9.74011, 52.37554]}},
{"type": "Feature", "id": "EV-ymtz62s2wvOesAuuaMj6ngDM=", "properties": {"ref": "M\u00fcnchen ", "@spider": "cgi_group", "addr:full": "Riesstra\u00dfe 26", "addr:city": "M\u00fcnchen", "addr:postcode": "80992", "addr:country": "Germany", "name": "M\u00fcnchen ", "website": "https://www.cgi.com/en/offices?field_address_country_code=DE&field_address_administrative_area=All&field_address_locality=All"}, "geometry": {"type": "Point", "coordinates": [11.536678, 48.179171]}},
{"type": "Feature", "id": "bXxb3_kIZ1GqGJWvECNhoiAaC6I=", "properties": {"ref": "M\u00fcnchen", "@spider": "cgi_group", "addr:full": "M\u00fcnchen Giesing", "addr:city": "M\u00fcnchen", "addr:postcode": "81539", "addr:country": "Germany", "name": "M\u00fcnchen", "website": "https://www.cgi.com/en/offices?field_address_country_code=DE&field_address_administrative_area=All&field_address_locality=All"}, "geometry": {"type": "Point", "coordinates": [11.5801658, 48.1104337]}},
{"type": "Feature", "id": "swZu7fQmuVn_U05T3giMz8Ci43Y=", "properties": {"ref": "Halle", "@spider": "cgi_group", "addr:full": "Gro\u00dfe Ulrichstra\u00dfe 21", "addr:city": "Halle", "addr:postcode": "06108", "addr:country": "Germany", "name": "Halle", "website": "https://www.cgi.com/en/offices?field_address_country_code=DE&field_address_administrative_area=All&field_address_locality=All"}, "geometry": {"type": "Point", "coordinates": [11.9673209, 51.4858734]}},
{"type": "Feature", "id": "TNoZKbaJNXNDAM-irvWEWvReRQI=", "properties": {"ref": "Braunschweig", "@spider": "cgi_group", "addr:full": "Am Alten Bahnhof 13", "addr:city": "Braunschweig", "addr:postcode": "38122", "addr:country": "Germany", "name": "Braunschweig", "website": "https://www.cgi.com/en/offices?field_address_country_code=DE&field_address_administrative_area=All&field_address_locality=All"}, "geometry": {"type": "Point", "coordinates": [10.5152524, 52.2514989]}},
{"type": "Feature", "id": "tlaHgLWALdYcwiTl5W9kER1ogNY=", "properties": {"ref": "Leipzig", "@spider": "cgi_group", "addr:full": "Markgrafenstra\u00dfe 2", "addr:city": "Leipzig", "addr:postcode": "04109", "addr:country": "Germany", "name": "Leipzig", "website": "https://www.cgi.com/en/offices?field_address_country_code=DE&field_address_administrative_area=All&field_address_locality=All"}, "geometry": {"type": "Point", "coordinates": [12.3742, 51.33684]}},
{"type": "Feature", "id": "nVa_WdUv39RbewzrXAo5Ss4nMM4=", "properties": {"ref": "Erfurt", "@spider": "cgi_group", "addr:full": "Bahnhofstra\u00dfe 38", "addr:city": "Erfurt", "addr:postcode": "99084", "addr:country": "Germany", "name": "Erfurt", "website": "https://www.cgi.com/en/offices?field_address_country_code=DE&field_address_administrative_area=All&field_address_locality=All"}, "geometry": {"type": "Point", "coordinates": [11.0352371, 50.9743622]}},
{"type": "Feature", "id": "ignVAKppzfq3jQylnrFlqBAylM4=", "properties": {"ref": "Heilbronn", "@spider": "cgi_group", "addr:full": "Bildungscampus 3", "addr:city": "Heilbronn", "addr:postcode": "74076", "addr:country": "Germany", "name": "Heilbronn", "website": "https://www.cgi.com/en/offices?field_address_country_code=DE&field_address_administrative_area=All&field_address_locality=All"}, "geometry": {"type": "Point", "coordinates": [9.21815, 49.14651]}},
{"type": "Feature", "id": "qKi2ixceR7D_xSon86Zdpe4Z-y4=", "properties": {"ref": "Hamburg - Millerntorplatz", "@spider": "cgi_group", "addr:full": "Millerntorplatz 1", "addr:city": "Hamburg", "addr:postcode": "20359", "addr:country": "Germany", "name": "Hamburg - Millerntorplatz", "website": "https://www.cgi.com/en/offices?field_address_country_code=DE&field_address_administrative_area=All&field_address_locality=All"}, "geometry": {"type": "Point", "coordinates": [9.969368, 53.550623]}},
{"type": "Feature", "id": "fvpusePxDBBM1AHAGwzEm19eal0=", "properties": {"ref": "Stuttgart", "@spider": "cgi_group", "addr:full": "Leitzstra\u00dfe 45", "addr:city": "Stuttgart", "addr:postcode": "70469", "addr:country": "Germany", "name": "Stuttgart", "website": "https://www.cgi.com/en/offices?field_address_country_code=DE&field_address_administrative_area=All&field_address_locality=All"}, "geometry": {"type": "Point", "coordinates": [9.1784823, 48.8135892]}},
{"type": "Feature", "id": "va1SBMSpEYXgXW7nCF81HUMpWyo=", "properties": {"ref": "Potsdam", "@spider": "cgi_group", "addr:full": "Puschkinallee 11", "addr:city": "Potsdam", "addr:postcode": "14469", "addr:country": "Germany", "name": "Potsdam", "website": "https://www.cgi.com/en/offices?field_address_country_code=DE&field_address_administrative_area=All&field_address_locality=All"}, "geometry": {"type": "Point", "coordinates": [13.05965, 52.41252]}},
{"type": "Feature", "id": "ZrBZHLioEkjdB4JFuPl8WCAgNDU=", "properties": {"ref": "Bochum", "@spider": "cgi_group", "addr:full": "Borgmannstra\u00dfe 2", "addr:city": "Bochum", "addr:postcode": "44894", "addr:country": "Germany", "name": "Bochum", "website": "https://www.cgi.com/en/offices?field_address_country_code=DE&field_address_administrative_area=All&field_address_locality=All"}, "geometry": {"type": "Point", "coordinates": [7.31432, 51.50376]}},
{"type": "Feature", "id": "DItETUp5NB8z0LBU63inY0giNh0=", "properties": {"ref": "Dortmund", "@spider": "cgi_group", "addr:full": "Westfalendamm 87", "addr:city": "Dortmund", "addr:postcode": "44141", "addr:country": "Germany", "name": "Dortmund", "website": "https://www.cgi.com/en/offices?field_address_country_code=DE&field_address_administrative_area=All&field_address_locality=All"}, "geometry": {"type": "Point", "coordinates": [7.49657, 51.50307]}},
{"type": "Feature", "id": "2dgXsq7eaB7HrxVjUTT9__5gd6E=", "properties": {"ref": "Darmstadt", "@spider": "cgi_group", "addr:full": "Europaplatz 4", "addr:city": "Darmstadt", "addr:postcode": "64293", "addr:country": "Germany", "name": "Darmstadt", "website": "https://www.cgi.com/en/offices?field_address_country_code=DE&field_address_administrative_area=All&field_address_locality=All"}, "geometry": {"type": "Point", "coordinates": [8.62708, 49.87247]}},
{"type": "Feature", "id": "zL-7EFQxCwnDyZaEyML3BoIfhto=", "properties": {"ref": "Dresden ", "@spider": "cgi_group", "addr:full": "Altmarkt 10 B/C", "addr:city": "Dresden", "addr:postcode": "01067", "addr:country": "Germany", "name": "Dresden ", "website": "https://www.cgi.com/en/offices?field_address_country_code=DE&field_address_administrative_area=All&field_address_locality=All"}, "geometry": {"type": "Point", "coordinates": [13.73726, 51.0491]}},
{"type": "Feature", "id": "pSVj4hwzmqaFkUqYzpNO3YFtawM=", "properties": {"ref": "Bielefeld ", "@spider": "cgi_group", "addr:full": "ECOS Office Center, Herforder Stra\u00dfe 69", "addr:city": "Bielefeld", "addr:postcode": "33602", "addr:country": "Germany", "name": "Bielefeld ", "website": "https://www.cgi.com/en/offices?field_address_country_code=DE&field_address_administrative_area=All&field_address_locality=All"}, "geometry": {"type": "Point", "coordinates": [8.53682, 52.03086]}},
{"type": "Feature", "id": "npnRJs7EHmCGxAEdgdi59_e8FCY=", "properties": {"ref": "Le Mans", "@spider": "cgi_group", "addr:full": "Georges Auric", "addr:city": "Le Mans", "addr:postcode": "72100", "addr:country": "France", "name": "Le Mans", "website": "https://www.cgi.com/en/offices?field_address_country_code=FR&field_address_administrative_area=All&field_address_locality=All"}, "geometry": {"type": "Point", "coordinates": [0.15896, 48.020158]}},
{"type": "Feature", "id": "DZda46vJAzaWvEbbFqoy2ZkKfC4=", "properties": {"ref": "Lille", "@spider": "cgi_group", "addr:full": "Cedex", "addr:city": "Lille", "addr:postcode": "59043", "addr:country": "France", "name": "Lille", "website": "https://www.cgi.com/en/offices?field_address_country_code=FR&field_address_administrative_area=All&field_address_locality=All"}, "geometry": {"type": "Point", "coordinates": [3.0659815, 50.6372762]}},
{"type": "Feature", "id": "aNKl4-GpOLgWgiPqNwMMmswU8cw=", "properties": {"ref": "Limoges", "@spider": "cgi_group", "addr:full": "19 rue Cruveilher", "addr:city": "Limoges", "addr:postcode": "87000", "addr:country": "France", "name": "Limoges", "website": "https://www.cgi.com/en/offices?field_address_country_code=FR&field_address_administrative_area=All&field_address_locality=All"}, "geometry": {"type": "Point", "coordinates": [1.2650854, 45.8317735]}},
{"type": "Feature", "id": "IDyjf2dojrS0XLQtKtaZ17lw-a8=", "properties": {"ref": "Lyon", "@spider": "cgi_group", "addr:full": "47-49, rue des Docks", "addr:city": "Lyon", "addr:postcode": "69336", "addr:country": "France", "name": "Lyon", "website": "https://www.cgi.com/en/offices?field_address_country_code=FR&field_address_administrative_area=All&field_address_locality=All"}, "geometry": {"type": "Point", "coordinates": [4.835659, 45.764043]}},
{"type": "Feature", "id": "xDmtGuxCVWHgQLbFiiI9Y44gf_o=", "properties": {"ref": "Montpellier", "@spider": "cgi_group", "addr:full": "Parc d&#039;activit\u00e9 Jean Mermoz - B\u00e2t. B", "addr:city": "Montpellier", "addr:postcode": "34170", "addr:country": "France", "name": "Montpellier", "website": "https://www.cgi.com/en/offices?field_address_country_code=FR&field_address_administrative_area=All&field_address_locality=All"}, "geometry": {"type": "Point", "coordinates": [3.893029928207, 43.632900238037]}},
{"type": "Feature", "id": "TRmdCILn5U6EYiGzq8WxJKmdVEA=", "properties": {"ref": "Nantes", "@spider": "cgi_group", "addr:full": "Batiment N Atlanp\u00f4le, 9 boulevard Amp\u00e8re (porte 15)", "addr:city": "Nantes", "addr:postcode": "44481", "addr:country": "France", "name": "Nantes", "website": "https://www.cgi.com/en/offices?field_address_country_code=FR&field_address_administrative_area=All&field_address_locality=All"}, "geometry": {"type": "Point", "coordinates": [-1.486812, 47.296241]}},
{"type": "Feature", "id": "wv44OC2IAYAdv2xEdjsAew2Y5mA=", "properties": {"ref": "Sophia Antipolis", "@spider": "cgi_group", "addr:full": "Atlas B", "addr:city": "Sophia Antipolis", "addr:postcode": "06560", "addr:country": "France", "name": "Sophia Antipolis", "website": "https://www.cgi.com/en/offices?field_address_country_code=FR&field_address_administrative_area=All&field_address_locality=All"}, "geometry": {"type": "Point", "coordinates": [7.009186, 43.64152]}},
{"type": "Feature", "id": "lA9HFr2gvcge50n45LBBGP_4LjY=", "properties": {"ref": "Niort - avenue Salvador Allende", "@spider": "cgi_group", "addr:full": "Portau", "addr:city": "Niort", "addr:postcode": "79000", "addr:country": "France", "name": "Niort - avenue Salvador Allende", "website": "https://www.cgi.com/en/offices?field_address_country_code=FR&field_address_administrative_area=All&field_address_locality=All"}, "geometry": {"type": "Point", "coordinates": [-0.4865836, 46.3331415]}},
{"type": "Feature", "id": "TnJgO1tKew4v3sDyHvKMIdsXWxw=", "properties": {"ref": "Orl\u00e9ans", "@spider": "cgi_group", "addr:full": "Val de Loire", "addr:city": "Orl\u00e9ans", "addr:postcode": "45000", "addr:country": "France", "name": "Orl\u00e9ans", "website": "https://www.cgi.com/en/offices?field_address_country_code=FR&field_address_administrative_area=All&field_address_locality=All"}, "geometry": {"type": "Point", "coordinates": [1.9004821, 47.9165666]}},
{"type": "Feature", "id": "k678zZcqUNzhTdwPgnldkK31Nnc=", "properties": {"ref": "Paris - Carr\u00e9 Michelet", "@spider": "cgi_group", "addr:full": "10-12 cours michelet", "addr:city": "Puteaux", "addr:postcode": "92800", "addr:country": "France", "name": "Paris - Carr\u00e9 Michelet", "website": "https://www.cgi.com/en/offices?field_address_country_code=FR&field_address_administrative_area=All&field_address_locality=All"}, "geometry": {"type": "Point", "coordinates": [2.345809936523, 48.917301177979]}},
{"type": "Feature", "id": "enc1KDPazK7hfCVHZGrT8qCmdfo=", "properties": {"ref": "Pau -  route de Tarbes", "@spider": "cgi_group", "addr:full": "37, route de Tarbes", "addr:city": "Pau", "addr:postcode": "64320", "addr:country": "France", "name": "Pau -  route de Tarbes", "website": "https://www.cgi.com/en/offices?field_address_country_code=FR&field_address_administrative_area=All&field_address_locality=All"}, "geometry": {"type": "Point", "coordinates": [-0.311895012856, 43.289199829102]}},
{"type": "Feature", "id": "P06TDiMmqZMXh4nEe8irRMlILs4=", "properties": {"ref": "Rennes - avenue Belle Fontaine", "@spider": "cgi_group", "addr:full": "3, avenue Belle Fontaine", "addr:city": "Rennes", "addr:postcode": "35510", "addr:country": "France", "name": "Rennes - avenue Belle Fontaine", "website": "https://www.cgi.com/en/offices?field_address_country_code=FR&field_address_administrative_area=All&field_address_locality=All"}, "geometry": {"type": "Point", "coordinates": [-1.602923, 48.119472]}},
{"type": "Feature", "id": "NXDsJvp4DYC-tfeKv1ROhe-nNaQ=", "properties": {"ref": "Strasbourg - Boulevard S\u00e9bastien Brandt", "@spider": "cgi_group", "addr:full": "Illkirch", "addr:city": "GRAFFENSTADEN", "addr:postcode": "67400", "addr:country": "France", "name": "Strasbourg - Boulevard S\u00e9bastien Brandt", "website": "https://www.cgi.com/en/offices?field_address_country_code=FR&field_address_administrative_area=All&field_address_locality=All"}, "geometry": {"type": "Point", "coordinates": [7.7401059, 48.5222012]}},
{"type": "Feature", "id": "DYwofVYpXm65wo8-D9Od6g1oZg8=", "properties": {"ref": "Toulouse - Avenue Docteur Maurice Grynfogel", "@spider": "cgi_group", "addr:full": "Maurice Grynfogel", "addr:city": "Toulouse", "addr:postcode": "31000", "addr:country": "France", "name": "Toulouse - Avenue Docteur Maurice Grynfogel", "website": "https://www.cgi.com/en/offices?field_address_country_code=FR&field_address_administrative_area=All&field_address_locality=All"}, "geometry": {"type": "Point", "coordinates": [1.3679981, 43.5790913]}},
{"type": "Feature", "id": "Dl5Djoa5ToUiHSSrd-6xZBRqO_8=", "properties": {"ref": "Paris la D\u00e9fense - Place des Reflets", "@spider": "cgi_group", "addr:full": "Immeuble CB16", "addr:city": "Courbevoie", "addr:postcode": "92400", "addr:country": "France", "name": "Paris la D\u00e9fense - Place des Reflets", "website": "https://www.cgi.com/en/offices?field_address_country_code=FR&field_address_administrative_area=All&field_address_locality=All"}, "geometry": {"type": "Point", "coordinates": [2.2471204, 48.8905512]}},
{"type": "Feature", "id": "1YOJIZOAmouDWhSA30lj7Ba1a7s=", "properties": {"ref": "Aix en Provence", "@spider": "cgi_group", "addr:full": "125 Avenue Galill\u00e9e", "addr:city": "Aix-en-Provence", "addr:postcode": "13100", "addr:country": "France", "name": "Aix en Provence", "website": "https://www.cgi.com/en/offices?field_address_country_code=FR&field_address_administrative_area=All&field_address_locality=All"}, "geometry": {"type": "Point", "coordinates": [5.342127, 43.4903261]}},
{"type": "Feature", "id": "3SA-jh5MHfyUHVqru5yslMp_u8U=", "properties": {"ref": "Amiens", "@spider": "cgi_group", "addr:full": "Immeuble Oxyg\u00e8ne", "addr:city": "Amiens", "addr:postcode": "80000", "addr:country": "France", "name": "Amiens", "website": "https://www.cgi.com/en/offices?field_address_country_code=FR&field_address_administrative_area=All&field_address_locality=All"}, "geometry": {"type": "Point", "coordinates": [2.3109897, 49.8910264]}},
{"type": "Feature", "id": "WFKbkopVgw-UlYTWU-8ChQ1CXEc=", "properties": {"ref": "Bordeaux", "@spider": "cgi_group", "addr:full": "6 rue des com\u00e8tes", "addr:city": "Bordeaux", "addr:postcode": "33187", "addr:country": "France", "name": "Bordeaux", "website": "https://www.cgi.com/en/offices?field_address_country_code=FR&field_address_administrative_area=All&field_address_locality=All"}, "geometry": {"type": "Point", "coordinates": [-0.6696778, 44.8593026]}},
{"type": "Feature", "id": "-cmnsaItgnHt7sevzyB4zDY_sFs=", "properties": {"ref": "Brest", "@spider": "cgi_group", "addr:full": "Quai de la Douane", "addr:city": "Brest", "addr:postcode": "29200", "addr:country": "France", "name": "Brest", "website": "https://www.cgi.com/en/offices?field_address_country_code=FR&field_address_administrative_area=All&field_address_locality=All"}, "geometry": {"type": "Point", "coordinates": [-4.484919, 48.3817326]}},
{"type": "Feature", "id": "0t016l4GVF3LIC1kVkcPOEkNFuc=", "properties": {"ref": "Clermont Ferrand", "@spider": "cgi_group", "addr:full": "23 all\u00e9e Alan Turing", "addr:city": "Clermont Ferrand", "addr:postcode": "63000", "addr:country": "France", "name": "Clermont Ferrand", "website": "https://www.cgi.com/en/offices?field_address_country_code=FR&field_address_administrative_area=All&field_address_locality=All"}, "geometry": {"type": "Point", "coordinates": [3.1287023, 45.7598669]}},
{"type": "Feature", "id": "0GTMT6rRnRObnGY9TLkzQq9FSAI=", "properties": {"ref": "Grenoble - rue Henrie Barbusse", "@spider": "cgi_group", "addr:full": "BP 2512", "addr:city": "Grenoble", "addr:postcode": "38035", "addr:country": "France", "name": "Grenoble - rue Henrie Barbusse", "website": "https://www.cgi.com/en/offices?field_address_country_code=FR&field_address_administrative_area=All&field_address_locality=All"}, "geometry": {"type": "Point", "coordinates": [5.724524, 45.188529]}},
{"type": "Feature", "id": "ctUmbTI7XVh4icOmuD6d6CnOzPY=", "properties": {"ref": "Tours", "@spider": "cgi_group", "addr:full": "27 rue James Watt", "addr:city": "Tours", "addr:postcode": "37000", "addr:country": "France", "name": "Tours", "website": "https://www.cgi.com/en/offices?field_address_country_code=FR&field_address_administrative_area=All&field_address_locality=All"}, "geometry": {"type": "Point", "coordinates": [0.68041440000002, 47.3661564]}},
{"type": "Feature", "id": "bTi3L21PdFMt3NqyRcSYhJpHUf4=", "properties": {"ref": "Arras", "@spider": "cgi_group", "addr:full": "31 boulevard Carnot", "addr:city": "Arras", "addr:postcode": "62000", "addr:country": "France", "name": "Arras", "website": "https://www.cgi.com/en/offices?field_address_country_code=FR&field_address_administrative_area=All&field_address_locality=All"}, "geometry": {"type": "Point", "coordinates": [2.777366, 50.28786]}},
{"type": "Feature", "id": "2nvld5aiq5s9N4kHpxFm5FL8-cI=", "properties": {"ref": "Lorient", "@spider": "cgi_group", "addr:full": "9 Rue de Kerhoas", "addr:city": "Larmor-Plage", "addr:postcode": "56260", "addr:country": "France", "name": "Lorient", "website": "https://www.cgi.com/en/offices?field_address_country_code=FR&field_address_administrative_area=All&field_address_locality=All"}, "geometry": {"type": "Point", "coordinates": [-3.3894719, 47.7233985]}},
{"type": "Feature", "id": "be4NwKIW6p2mUmP6jgi4H75lw-g=", "properties": {"ref": "H\u00e4meenlinna - Vankanl\u00e4hd", "@spider": "cgi_group", "addr:full": "Vankanl\u00e4hde 7", "addr:city": "H\u00e4meenlinna", "addr:postcode": "13100", "addr:country": "Finland", "name": "H\u00e4meenlinna - Vankanl\u00e4hd", "website": "https://www.cgi.com/en/offices?field_address_country_code=FI&field_address_administrative_area=All&field_address_locality=All"}, "geometry": {"type": "Point", "coordinates": [24.4782441, 60.9760344]}},
{"type": "Feature", "id": "WSzSOBefZj7MyhvxglfoOR-H0c0=", "properties": {"ref": "Helsinki - Karvaamokuja ", "@spider": "cgi_group", "addr:full": "Karvaamokuja 2", "addr:city": "Helsinki", "addr:postcode": "00381", "addr:country": "Finland", "name": "Helsinki - Karvaamokuja ", "website": "https://www.cgi.com/en/offices?field_address_country_code=FI&field_address_administrative_area=All&field_address_locality=All"}, "geometry": {"type": "Point", "coordinates": [24.8825787, 60.2157646]}},
{"type": "Feature", "id": "aUjYl2LIxIhi9chIo9SyWdvPE_c=", "properties": {"ref": "Helsinki - Valimotie", "@spider": "cgi_group", "addr:full": "Valimotie 17", "addr:city": "Helsinki", "addr:postcode": "00380", "addr:country": "Finland", "name": "Helsinki - Valimotie", "website": "https://www.cgi.com/en/offices?field_address_country_code=FI&field_address_administrative_area=All&field_address_locality=All"}, "geometry": {"type": "Point", "coordinates": [24.8761704, 60.2211712]}},
{"type": "Feature", "id": "HI-LU4p7fNMB71b_GMykWu_lk6Q=", "properties": {"ref": "Joensuu - L\u00e4nsikatu ", "@spider": "cgi_group", "addr:full": "L\u00e4nsikatu 15", "addr:city": "Joensuu", "addr:postcode": "80110", "addr:country": "Finland", "name": "Joensuu - L\u00e4nsikatu ", "website": "https://www.cgi.com/en/offices?field_address_country_code=FI&field_address_administrative_area=All&field_address_locality=All"}, "geometry": {"type": "Point", "coordinates": [29.744349, 62.5979803]}},
{"type": "Feature", "id": "DzjpORQnHxlN3cPC7CoJF0J23DA=", "properties": {"ref": "Jyv\u00e4skyl\u00e4 - Ohjelmakaari ", "@spider": "cgi_group", "addr:full": "Ohjelmakaari 10", "addr:city": "Jyv\u00e4skyl\u00e4", "addr:postcode": "40500", "addr:country": "Finland", "name": "Jyv\u00e4skyl\u00e4 - Ohjelmakaari ", "website": "https://www.cgi.com/en/offices?field_address_country_code=FI&field_address_administrative_area=All&field_address_locality=All"}, "geometry": {"type": "Point", "coordinates": [25.7452453, 62.2279732]}},
{"type": "Feature", "id": "72tSuxHsv7xeob8eaj4l1BriRrM=", "properties": {"ref": "Kouvola - Kauppalankatu ", "@spider": "cgi_group", "addr:full": "Kauppalankatu 6-8", "addr:city": "Kouvola", "addr:postcode": "45100", "addr:country": "Finland", "name": "Kouvola - Kauppalankatu ", "website": "https://www.cgi.com/en/offices?field_address_country_code=FI&field_address_administrative_area=All&field_address_locality=All"}, "geometry": {"type": "Point", "coordinates": [26.7035945, 60.8687865]}},
{"type": "Feature", "id": "rw-OkGRMscM8gO9BOOZKRkpt4V4=", "properties": {"ref": "Kuopio - Microkatu ", "@spider": "cgi_group", "addr:full": "Microkatu 1", "addr:city": "Kuopio", "addr:postcode": "70211", "addr:country": "Finland", "name": "Kuopio - Microkatu ", "website": "https://www.cgi.com/en/offices?field_address_country_code=FI&field_address_administrative_area=All&field_address_locality=All"}, "geometry": {"type": "Point", "coordinates": [27.629418, 62.8893254]}},
{"type": "Feature", "id": "eGxFGIVrtef4XlKrv2QiqABktxo=", "properties": {"ref": "Lahti - Mukkulankatu", "@spider": "cgi_group", "addr:full": "Mukkulankatu 19", "addr:city": "Lahti", "addr:postcode": "15210", "addr:country": "Finland", "name": "Lahti - Mukkulankatu", "website": "https://www.cgi.com/en/offices?field_address_country_code=FI&field_address_administrative_area=All&field_address_locality=All"}, "geometry": {"type": "Point", "coordinates": [25.6536503, 60.9959187]}},
{"type": "Feature", "id": "AX44Eu6H5aACB3OTWQLi3tl2FpU=", "properties": {"ref": "Lappeenranta", "@spider": "cgi_group", "addr:full": "Kauppakatu 40 D", "addr:city": "Lappeenranta", "addr:postcode": "53100", "addr:country": "Finland", "name": "Lappeenranta", "website": "https://www.cgi.com/en/offices?field_address_country_code=FI&field_address_administrative_area=All&field_address_locality=All"}, "geometry": {"type": "Point", "coordinates": [28.1897878, 61.0555359]}},
{"type": "Feature", "id": "U86RQy9u-rXUr8PtsAGatu4s9BY=", "properties": {"ref": "Mikkeli - Patteristonkatu ", "@spider": "cgi_group", "addr:full": "Patteristonkatu 2 C", "addr:city": "Mikkeli", "addr:postcode": "50100", "addr:country": "Finland", "name": "Mikkeli - Patteristonkatu ", "website": "https://www.cgi.com/en/offices?field_address_country_code=FI&field_address_administrative_area=All&field_address_locality=All"}, "geometry": {"type": "Point", "coordinates": [27.2567096, 61.6800637]}},
{"type": "Feature", "id": "EvOrQzlUoyp4SbjUt976e2W77K0=", "properties": {"ref": "Oulu - Elektroniikkatie", "@spider": "cgi_group", "addr:full": "Elektroniikkatie 6", "addr:city": "Oulu", "addr:postcode": "90590", "addr:country": "Finland", "name": "Oulu - Elektroniikkatie", "website": "https://www.cgi.com/en/offices?field_address_country_code=FI&field_address_administrative_area=All&field_address_locality=All"}, "geometry": {"type": "Point", "coordinates": [25.44076, 65.0591364]}},
{"type": "Feature", "id": "6hfyqP1QarW3qk5QQT6tdp-ZNRU=", "properties": {"ref": "Pori - Pohjoisranta", "@spider": "cgi_group", "addr:full": "Pohjoisranta 11 D", "addr:city": "Pori", "addr:postcode": "28100", "addr:country": "Finland", "name": "Pori - Pohjoisranta", "website": "https://www.cgi.com/en/offices?field_address_country_code=FI&field_address_administrative_area=All&field_address_locality=All"}, "geometry": {"type": "Point", "coordinates": [21.801300048828, 61.492198944092]}},
{"type": "Feature", "id": "0Mazeq38K55kRJ8phuiU7iBPtMQ=", "properties": {"ref": "Riihim\u00e4ki - H\u00e4meenkatu ", "@spider": "cgi_group", "addr:full": "Etel\u00e4inen Asemakatu 2", "addr:city": "Riihim\u00e4ki", "addr:postcode": "11130", "addr:country": "Finland", "name": "Riihim\u00e4ki - H\u00e4meenkatu ", "website": "https://www.cgi.com/en/offices?field_address_country_code=FI&field_address_administrative_area=All&field_address_locality=All"}, "geometry": {"type": "Point", "coordinates": [24.77020072937, 60.736400604248]}},
{"type": "Feature", "id": "b6aefdjtMwlrxge7_ZITY9Y2rvc=", "properties": {"ref": "Tampere - Visiokatu ", "@spider": "cgi_group", "addr:full": "Visiokatu 1", "addr:city": "Tampere", "addr:postcode": "33720", "addr:country": "Finland", "name": "Tampere - Visiokatu ", "website": "https://www.cgi.com/en/offices?field_address_country_code=FI&field_address_administrative_area=All&field_address_locality=All"}, "geometry": {"type": "Point", "coordinates": [23.8630532, 61.4481532]}},
{"type": "Feature", "id": "gktk_H3owBE6L3ds5LZAYamp7e8=", "properties": {"ref": "Tornio - Pakkahuoneenkatu", "@spider": "cgi_group", "addr:full": "Pakkahuoneenkatu 1", "addr:city": "Tornio", "addr:postcode": "95400", "addr:country": "Finland", "name": "Tornio - Pakkahuoneenkatu", "website": "https://www.cgi.com/en/offices?field_address_country_code=FI&field_address_administrative_area=All&field_address_locality=All"}, "geometry": {"type": "Point", "coordinates": [24.1488886, 65.8421116]}},
{"type": "Feature", "id": "iK80zCqIoBbVZZwZSfVhbzJT6-Y=", "properties": {"ref": "Turku - Ruukinkatu ", "@spider": "cgi_group", "addr:full": "Ruukinkatu 2-4", "addr:city": "Turku", "addr:postcode": "20540", "addr:country": "Finland", "name": "Turku - Ruukinkatu ", "website": "https://www.cgi.com/en/offices?field_address_country_code=FI&field_address_administrative_area=All&field_address_locality=All"}, "geometry": {"type": "Point", "coordinates": [22.3007578, 60.4524675]}},
{"type": "Feature", "id": "VzD1NMQB_7P1pOsivkMO8jOlHUY=", "properties": {"ref": "Vaasa - Klemetinkatu ", "@spider": "cgi_group", "addr:full": "Klemetinkatu 17 B", "addr:city": "Vaasa", "addr:postcode": "65100", "addr:country": "Finland", "name": "Vaasa - Klemetinkatu ", "website": "https://www.cgi.com/en/offices?field_address_country_code=FI&field_address_administrative_area=All&field_address_locality=All"}, "geometry": {"type": "Point", "coordinates": [21.6179836, 63.0972875]}},
{"type": "Feature", "id": "-WmqQG-x3jBqXw9OTmsYuoEpP-w=", "properties": {"ref": "Rauma", "@spider": "cgi_group", "addr:full": "Sinkokatu 11", "addr:city": "Rauma", "addr:postcode": "26100", "addr:country": "Finland", "name": "Rauma", "website": "https://www.cgi.com/en/offices?field_address_country_code=FI&field_address_administrative_area=All&field_address_locality=All"}, "geometry": {"type": "Point", "coordinates": [21.493201, 61.139697]}},
{"type": "Feature", "id": "ii79t_8DUdIJBKTtk0ssTXGviq4=", "properties": {"ref": "Tallinn -A. H. Tammsaare tee", "@spider": "cgi_group", "addr:full": "A. H. Tammsaare tee 47", "addr:city": "Tallinn", "addr:postcode": "11316", "addr:country": "Estonia", "name": "Tallinn -A. H. Tammsaare tee", "website": "https://www.cgi.com/en/offices?field_address_country_code=EE&field_address_administrative_area=All&field_address_locality=All"}, "geometry": {"type": "Point", "coordinates": [24.7154772, 59.4015352]}},
{"type": "Feature", "id": "P6P4fOv14OMAWiBBKMUKoMM_C0c=", "properties": {"ref": "Tartu - S\u00f5bra", "@spider": "cgi_group", "addr:full": "S\u00f5bra 54", "addr:city": "Tartu", "addr:postcode": "50106", "addr:country": "Estonia", "name": "Tartu - S\u00f5bra", "website": "https://www.cgi.com/en/offices?field_address_country_code=EE&field_address_administrative_area=All&field_address_locality=All"}, "geometry": {"type": "Point", "coordinates": [26.7417574, 58.3652367]}},
{"type": "Feature", "id": "QjRnh0bD0ZwGvM1KycxQ2Rsu87U=", "properties": {"ref": "Aalborg - Str\u00f8mmen", "@spider": "cgi_group", "addr:full": "Str\u00f8mmen 6", "addr:city": "N\u00f8rresundby", "addr:postcode": "9400", "addr:country": "Denmark", "name": "Aalborg - Str\u00f8mmen", "website": "https://www.cgi.com/en/offices?field_address_country_code=DK&field_address_administrative_area=All&field_address_locality=All"}, "geometry": {"type": "Point", "coordinates": [9.959235, 57.085997]}},
{"type": "Feature", "id": "zbUH7kZ9TMLYfqNVXLoqeGebXag=", "properties": {"ref": "Tranbjerg J.", "@spider": "cgi_group", "addr:full": "Sletvej 30", "addr:city": "Aarhus", "addr:postcode": "8310", "addr:country": "Denmark", "name": "Tranbjerg J.", "website": "https://www.cgi.com/en/offices?field_address_country_code=DK&field_address_administrative_area=All&field_address_locality=All"}, "geometry": {"type": "Point", "coordinates": [10.1401255, 56.1072103]}},
{"type": "Feature", "id": "zOgIJWggt8QZuQUlndU7l72Rki0=", "properties": {"ref": "Ballerup", "@spider": "cgi_group", "addr:full": "Lautrupvang 4B ", "addr:city": "Ballerup", "addr:postcode": "2750", "addr:country": "Denmark", "name": "Ballerup", "website": "https://www.cgi.com/en/offices?field_address_country_code=DK&field_address_administrative_area=All&field_address_locality=All"}, "geometry": {"type": "Point", "coordinates": [12.3880406, 55.7359677]}},
{"type": "Feature", "id": "IbxVOFRaoIYGv8AdnZxiUgtw2u4=", "properties": {"ref": "Kolding - Kokmose", "@spider": "cgi_group", "addr:full": "Kokmose 12", "addr:city": "Kolding", "addr:postcode": "6000", "addr:country": "Denmark", "name": "Kolding - Kokmose", "website": "https://www.cgi.com/en/offices?field_address_country_code=DK&field_address_administrative_area=All&field_address_locality=All"}, "geometry": {"type": "Point", "coordinates": [9.48106, 55.532514]}},
{"type": "Feature", "id": "9fnCx_qZT_537Dr4SIFcV9eVUio=", "properties": {"ref": "Aberdeen - Queens Road", "@spider": "cgi_group", "addr:full": "9 Queens Road", "addr:city": "Aberdeen", "addr:state": "Scotland", "addr:postcode": "AB15 4YL", "addr:country": "United Kingdom", "name": "Aberdeen - Queens Road", "website": "https://www.cgi.com/en/offices?field_address_country_code=GB&field_address_administrative_area=All&field_address_locality=All"}, "geometry": {"type": "Point", "coordinates": [-2.12968, 57.1421383]}},
{"type": "Feature", "id": "hdvP4UJIvXuAkB0mx9O0bsvDrL4=", "properties": {"ref": "Solihull", "@spider": "cgi_group", "addr:full": "2nd Floor", "addr:city": "Solihull", "addr:state": "West Midlands", "addr:postcode": "B91 3QJ", "addr:country": "United Kingdom", "name": "Solihull", "website": "https://www.cgi.com/en/offices?field_address_country_code=GB&field_address_administrative_area=All&field_address_locality=All"}, "geometry": {"type": "Point", "coordinates": [-1.78214, 52.41245]}},
{"type": "Feature", "id": "qSY2KjZPsqaN8-6Vzf40lyoUftc=", "properties": {"ref": "Bridgend - Hughes Park", "@spider": "cgi_group", "addr:full": "Waterton Cross Business Park", "addr:city": "Bridgend", "addr:state": "Wales", "addr:postcode": "CF31 3UL", "addr:country": "United Kingdom", "name": "Bridgend - Hughes Park", "website": "https://www.cgi.com/en/offices?field_address_country_code=GB&field_address_administrative_area=All&field_address_locality=All"}, "geometry": {"type": "Point", "coordinates": [-3.5599927, 51.4957841]}},
{"type": "Feature", "id": "ck7PCu3yp7-gRyME495_SFxqWFc=", "properties": {"ref": "Bridgend - Data Centre", "@spider": "cgi_group", "addr:full": "Bridgend Science Park", "addr:city": "Bridgend", "addr:state": "Wales", "addr:postcode": "CF31 3NA", "addr:country": "United Kingdom", "name": "Bridgend - Data Centre", "website": "https://www.cgi.com/en/offices?field_address_country_code=GB&field_address_administrative_area=All&field_address_locality=All"}, "geometry": {"type": "Point", "coordinates": [-3.5810536, 51.4930747]}},
{"type": "Feature", "id": "xUafs_5dKYtTad1Q6OCJC7kw0zg=", "properties": {"ref": "Bridgend - Waterton", "@spider": "cgi_group", "addr:full": "Moor Road Waterton", "addr:city": "Bridgend", "addr:state": "Wales", "addr:postcode": "CF31 3TR", "addr:country": "United Kingdom", "name": "Bridgend - Waterton", "website": "https://www.cgi.com/en/offices?field_address_country_code=GB&field_address_administrative_area=All&field_address_locality=All"}, "geometry": {"type": "Point", "coordinates": [-3.5313807, 51.4965447]}},
{"type": "Feature", "id": "lGbHZ6-cP6zJw4K1jJ09JN4sd9E=", "properties": {"ref": "Edinburgh", "@spider": "cgi_group", "addr:full": "Third Floor", "addr:city": "Edinburgh", "addr:state": "Scotland", "addr:postcode": "EH2 3ES", "addr:country": "United Kingdom", "name": "Edinburgh", "website": "https://www.cgi.com/en/offices?field_address_country_code=GB&field_address_administrative_area=All&field_address_locality=All"}, "geometry": {"type": "Point", "coordinates": [-3.201636, 55.953143]}},
{"type": "Feature", "id": "BM5iIPIWJefkUITXy0ttsT2X34k=", "properties": {"ref": "Leatherhead - Keats House", "@spider": "cgi_group", "addr:full": "The Office Park", "addr:city": "Leatherhead", "addr:state": "Surrey", "addr:postcode": "KT22 7LP", "addr:country": "United Kingdom", "name": "Leatherhead - Keats House", "website": "https://www.cgi.com/en/offices?field_address_country_code=GB&field_address_administrative_area=All&field_address_locality=All"}, "geometry": {"type": "Point", "coordinates": [-0.339679, 51.3077868]}},
{"type": "Feature", "id": "OzPcCn9jzSD5p4le82j0v0fW-ts=", "properties": {"ref": "Manchester", "@spider": "cgi_group", "addr:full": "Wilmslow Road", "addr:city": "Didsbury", "addr:postcode": "M20 2LX", "addr:country": "United Kingdom", "name": "Manchester", "website": "https://www.cgi.com/en/offices?field_address_country_code=GB&field_address_administrative_area=All&field_address_locality=All"}, "geometry": {"type": "Point", "coordinates": [-2.2274271, 53.4097924]}},
{"type": "Feature", "id": "FzxDnqYqljc6g4nKLFHyl7AAG-g=", "properties": {"ref": "Milton Keynes", "@spider": "cgi_group", "addr:full": "Ground Floor, West Marlborough Court", "addr:city": "Milton Keynes", "addr:state": "Buckinghamshire", "addr:postcode": "MK14 6DY", "addr:country": "United Kingdom", "name": "Milton Keynes", "website": "https://www.cgi.com/en/offices?field_address_country_code=GB&field_address_administrative_area=All&field_address_locality=All"}, "geometry": {"type": "Point", "coordinates": [-0.75692, 52.059176]}},
{"type": "Feature", "id": "kuT2OCkZPiwjdT5Z5QrlNnjzXEk=", "properties": {"ref": "Reading - Brook Drive", "@spider": "cgi_group", "addr:full": "350 Brook Drive", "addr:city": "Reading", "addr:state": "Berkshire", "addr:postcode": "RG2 6UH", "addr:country": "United Kingdom", "name": "Reading - Brook Drive", "website": "https://www.cgi.com/en/offices?field_address_country_code=GB&field_address_administrative_area=All&field_address_locality=All"}, "geometry": {"type": "Point", "coordinates": [-0.98897, 51.42294]}},
{"type": "Feature", "id": "rJtyRU1dVZoEMdoL1xAgtGOYSm4=", "properties": {"ref": "Brockworth", "@spider": "cgi_group", "addr:full": "Unit 1240 Lansdowne Court", "addr:city": "Brockworth", "addr:state": "Gloucestershire", "addr:postcode": "GL3 4AB", "addr:country": "United Kingdom", "name": "Brockworth", "website": "https://www.cgi.com/en/offices?field_address_country_code=GB&field_address_administrative_area=All&field_address_locality=All"}, "geometry": {"type": "Point", "coordinates": [-2.1791368, 51.848148]}},
{"type": "Feature", "id": "klZH02Cg0gsSGe0ujOSjTHxiq-A=", "properties": {"ref": "Bristol - The Quadrant", "@spider": "cgi_group", "addr:full": "Southmead Road", "addr:city": "Bristol", "addr:state": "Bristol", "addr:postcode": "BS34 7RR", "addr:country": "United Kingdom", "name": "Bristol - The Quadrant", "website": "https://www.cgi.com/en/offices?field_address_country_code=GB&field_address_administrative_area=All&field_address_locality=All"}, "geometry": {"type": "Point", "coordinates": [-2.5710508, 51.5451817]}},
{"type": "Feature", "id": "B7yNVWt_necBlu2ykBGlDOt68g4=", "properties": {"ref": "Glasgow", "@spider": "cgi_group", "addr:full": "151 West George Street", "addr:city": "Glasgow", "addr:state": "Scotland", "addr:postcode": "G2 2JJ", "addr:country": "United Kingdom", "name": "Glasgow", "website": "https://www.cgi.com/en/offices?field_address_country_code=GB&field_address_administrative_area=All&field_address_locality=All"}, "geometry": {"type": "Point", "coordinates": [-4.2432888, 55.860363]}},
{"type": "Feature", "id": "ABiVAkjlIB0mUOOgQ_TLW5y0UnM=", "properties": {"ref": "Chelmsford", "@spider": "cgi_group", "addr:full": "23 Springfield Lyons Approach", "addr:city": "Chelmsford", "addr:state": "Essex", "addr:postcode": "CM2 5LB", "addr:country": "United Kingdom", "name": "Chelmsford", "website": "https://www.cgi.com/en/offices?field_address_country_code=GB&field_address_administrative_area=All&field_address_locality=All"}, "geometry": {"type": "Point", "coordinates": [0.5117161, 51.7474812]}},
{"type": "Feature", "id": "v2zip0o-nxsqNv-oeWZWpFv3a5s=", "properties": {"ref": "Scottish Borders", "@spider": "cgi_group", "addr:full": "CGI IT Department", "addr:city": "Scottish Borders", "addr:state": "Scotland", "addr:postcode": "TD6 0SA", "addr:country": "United Kingdom", "name": "Scottish Borders", "website": "https://www.cgi.com/en/offices?field_address_country_code=GB&field_address_administrative_area=All&field_address_locality=All"}, "geometry": {"type": "Point", "coordinates": [-2.673875, 55.577568]}},
{"type": "Feature", "id": "ym4kTNXrKB_zgKhozNqH0kRcffQ=", "properties": {"ref": "St Asaph", "@spider": "cgi_group", "addr:full": "90 Bowen Court", "addr:city": "Clwyd", "addr:state": "Wales", "addr:postcode": "LL17 0JE", "addr:country": "United Kingdom", "name": "St Asaph", "website": "https://www.cgi.com/en/offices?field_address_country_code=GB&field_address_administrative_area=All&field_address_locality=All"}, "geometry": {"type": "Point", "coordinates": [3.476474, 53.253889]}},
{"type": "Feature", "id": "DgZPHszAfKYknT4aB7ZFdJ-BuDo=", "properties": {"ref": "London - Fenchurch Street ", "@spider": "cgi_group", "addr:full": "14th Floor ", "addr:city": "London", "addr:state": "London", "addr:postcode": "EC3M 3BY", "addr:country": "United Kingdom", "name": "London - Fenchurch Street ", "website": "https://www.cgi.com/en/offices?field_address_country_code=GB&field_address_administrative_area=All&field_address_locality=All"}, "geometry": {"type": "Point", "coordinates": [-0.083364, 51.511506]}},
{"type": "Feature", "id": "EvXcwxYtszlKpXCP5DeDERO95uk=", "properties": {"ref": "Liverpool", "@spider": "cgi_group", "addr:full": "3rd Floor South", "addr:city": "Liverpool", "addr:state": "Merseyside", "addr:postcode": "L3 4AF", "addr:country": "United Kingdom", "name": "Liverpool", "website": "https://www.cgi.com/en/offices?field_address_country_code=GB&field_address_administrative_area=All&field_address_locality=All"}, "geometry": {"type": "Point", "coordinates": [-2.9935246788964, 53.403259683084]}},
{"type": "Feature", "id": "m_0DVXueRncmDArzzwjfHcLruhc=", "properties": {"ref": "Methuen Park - Chippenham", "@spider": "cgi_group", "addr:full": "Methuen Park", "addr:city": "Wiltshire", "addr:state": "Wiltshire", "addr:postcode": "SN14 0GB", "addr:country": "United Kingdom", "name": "Methuen Park - Chippenham", "website": "https://www.cgi.com/en/offices?field_address_country_code=GB&field_address_administrative_area=All&field_address_locality=All"}, "geometry": {"type": "Point", "coordinates": [-2.142704, 51.447781]}},
{"type": "Feature", "id": "NWGKZF-LYfzsjxGsMoCstmX4D0E=", "properties": {"ref": "Clothier Road", "@spider": "cgi_group", "addr:full": "23 Clothier Road, Brislington", "addr:city": "Bristol", "addr:state": "Bristol", "addr:postcode": "BS4 5SS", "addr:country": "United Kingdom", "name": "Clothier Road", "website": "https://www.cgi.com/en/offices?field_address_country_code=GB&field_address_administrative_area=All&field_address_locality=All"}, "geometry": {"type": "Point", "coordinates": [-2.538268, 51.433866]}},
{"type": "Feature", "id": "8-i8GlPK58vaB79ov_JslkVB7Us=", "properties": {"ref": "Leeds", "@spider": "cgi_group", "addr:full": "1.04-1.06 1st floor", "addr:city": "Leeds", "addr:state": "Yorkshire, West Riding", "addr:postcode": "LS1 5SH", "addr:country": "United Kingdom", "name": "Leeds", "website": "https://www.cgi.com/en/offices?field_address_country_code=GB&field_address_administrative_area=All&field_address_locality=All"}, "geometry": {"type": "Point", "coordinates": [-1.5486462575961, 53.798547567222]}},
{"type": "Feature", "id": "gY4iuwwv-iSvkkqB9EIjA5fjS-8=", "properties": {"ref": "Madrid - Avda. De Manoteras", "@spider": "cgi_group", "addr:full": "Avda, Manoteras, 10 Edificio C, ", "addr:city": "Madrid", "addr:state": "Madrid", "addr:postcode": "28050", "addr:country": "Spain", "name": "Madrid - Avda. De Manoteras", "website": "https://www.cgi.com/en/offices?field_address_country_code=ES&field_address_administrative_area=All&field_address_locality=All"}, "geometry": {"type": "Point", "coordinates": [-3.6633886, 40.4878121]}},
{"type": "Feature", "id": "bW_cWV-Yd1k3p5P9VB_jspBNdL8=", "properties": {"ref": "Malaga", "@spider": "cgi_group", "addr:full": "Avenida Louis Pasteur, 47 - 4\u00aaPl", "addr:city": "Edificio The Green Ray", "addr:state": "M\u00e1laga", "addr:postcode": "29010", "addr:country": "Spain", "name": "Malaga", "website": "https://www.cgi.com/en/offices?field_address_country_code=ES&field_address_administrative_area=All&field_address_locality=All"}, "geometry": {"type": "Point", "coordinates": [-4.550686, 36.74358]}},
{"type": "Feature", "id": "_L8hwrUkEGey6fEzdzIo7AXdcms=", "properties": {"ref": "El Prat de Llobregat", "@spider": "cgi_group", "addr:full": "Parc de Negocis Mas Blau", "addr:city": "El Prat de Llobregat", "addr:state": "Barcelona", "addr:postcode": "08820", "addr:country": "Spain", "name": "El Prat de Llobregat", "website": "https://www.cgi.com/en/offices?field_address_country_code=ES&field_address_administrative_area=All&field_address_locality=All"}, "geometry": {"type": "Point", "coordinates": [2.077313, 41.316499]}},
{"type": "Feature", "id": "pGIJeomkgZpFUBAFWWubQQNQXbc=", "properties": {"ref": "Eskilstuna - Updated", "@spider": "cgi_group", "addr:full": "Libergsgatan 10 ", "addr:city": "Eskilstuna", "addr:postcode": "63221", "addr:country": "Sweden", "name": "Eskilstuna - Updated", "website": "https://www.cgi.com/en/offices?field_address_country_code=SE&field_address_administrative_area=All&field_address_locality=All"}, "geometry": {"type": "Point", "coordinates": [16.502361, 59.375373]}},
{"type": "Feature", "id": "gSjueowuH847JlBtpO3BFYqUdJ8=", "properties": {"ref": "G\u00e4vle - Drottninggatan ", "@spider": "cgi_group", "addr:full": "Drottninggatan 6", "addr:city": "G\u00e4vle", "addr:postcode": "803 20", "addr:country": "Sweden", "name": "G\u00e4vle - Drottninggatan ", "website": "https://www.cgi.com/en/offices?field_address_country_code=SE&field_address_administrative_area=All&field_address_locality=All"}, "geometry": {"type": "Point", "coordinates": [17.1493196, 60.6762697]}},
{"type": "Feature", "id": "6e7dRMNlWEWz9cyFYsXal6MT7po=", "properties": {"ref": "G\u00f6teborg - Upadated", "@spider": "cgi_group", "addr:full": "Kruthusgatan 17", "addr:city": "G\u00f6teborg", "addr:postcode": "41104", "addr:country": "Sweden", "name": "G\u00f6teborg - Upadated", "website": "https://www.cgi.com/en/offices?field_address_country_code=SE&field_address_administrative_area=All&field_address_locality=All"}, "geometry": {"type": "Point", "coordinates": [11.9815, 57.71189]}},
{"type": "Feature", "id": "VB72ooMxteGBeWb_IEE0VWG8eTY=", "properties": {"ref": "H\u00e4rn\u00f6sand - Storgatan ", "@spider": "cgi_group", "addr:full": "Fiskaregatan 4A", "addr:city": "H\u00e4rn\u00f6sand", "addr:postcode": "871 33", "addr:country": "Sweden", "name": "H\u00e4rn\u00f6sand - Storgatan ", "website": "https://www.cgi.com/en/offices?field_address_country_code=SE&field_address_administrative_area=All&field_address_locality=All"}, "geometry": {"type": "Point", "coordinates": [17.9537913, 62.6419505]}},
{"type": "Feature", "id": "kQGx5vUOtv8iCoiwOEWcsNWfarc=", "properties": {"ref": "J\u00f6nk\u00f6ping - J\u00e4rnv\u00e4gsgatan ", "@spider": "cgi_group", "addr:full": "J\u00e4rnv\u00e4gsgatan 3", "addr:city": "J\u00f6nk\u00f6ping", "addr:postcode": "553 15", "addr:country": "Sweden", "name": "J\u00f6nk\u00f6ping - J\u00e4rnv\u00e4gsgatan ", "website": "https://www.cgi.com/en/offices?field_address_country_code=SE&field_address_administrative_area=All&field_address_locality=All"}, "geometry": {"type": "Point", "coordinates": [14.1647031, 57.7836627]}},
{"type": "Feature", "id": "yzd0kIYehPpUgTW5cYnrIP9iIko=", "properties": {"ref": "Kalmar - Skeppsbrogatan", "@spider": "cgi_group", "addr:full": "Kaggensgatan 42", "addr:city": "Kalmar", "addr:postcode": "392 48", "addr:country": "Sweden", "name": "Kalmar - Skeppsbrogatan", "website": "https://www.cgi.com/en/offices?field_address_country_code=SE&field_address_administrative_area=All&field_address_locality=All"}, "geometry": {"type": "Point", "coordinates": [16.3610964, 56.6653898]}},
{"type": "Feature", "id": "G637nHmRRV-sqLBTmPVx-5lqtO8=", "properties": {"ref": "Karlskrona - Campus Gr\u00e4svik", "@spider": "cgi_group", "addr:full": "Campus Gr\u00e4svik 26 A", "addr:city": "Karlskrona", "addr:postcode": "371 75", "addr:country": "Sweden", "name": "Karlskrona - Campus Gr\u00e4svik", "website": "https://www.cgi.com/en/offices?field_address_country_code=SE&field_address_administrative_area=All&field_address_locality=All"}, "geometry": {"type": "Point", "coordinates": [15.5869, 56.161224]}},
{"type": "Feature", "id": "jbzwn3XopwIoWcToVggXLxsC3uA=", "properties": {"ref": "Karlstad - Tyn\u00e4sgatan ", "@spider": "cgi_group", "addr:full": "Tyn\u00e4sgatan 6", "addr:city": "Karlstad", "addr:postcode": "652 16", "addr:country": "Sweden", "name": "Karlstad - Tyn\u00e4sgatan ", "website": "https://www.cgi.com/en/offices?field_address_country_code=SE&field_address_administrative_area=All&field_address_locality=All"}, "geometry": {"type": "Point", "coordinates": [13.5091364, 59.3758756]}},
{"type": "Feature", "id": "_w0BtTXrhW6yOXTt26zrQqW1TNw=", "properties": {"ref": "Kiruna - \u00d6sterleden ", "@spider": "cgi_group", "addr:full": "\u00d6sterleden 15", "addr:city": "Kiruna", "addr:postcode": "981 28", "addr:country": "Sweden", "name": "Kiruna - \u00d6sterleden ", "website": "https://www.cgi.com/en/offices?field_address_country_code=SE&field_address_administrative_area=All&field_address_locality=All"}, "geometry": {"type": "Point", "coordinates": [20.2620666, 67.8433649]}},
{"type": "Feature", "id": "Cg-EnAP8THHXzaATTLlwvoWQrA8=", "properties": {"ref": "Link\u00f6ping - Teknikringen ", "@spider": "cgi_group", "addr:full": "St. Larsgatan 1-3", "addr:city": "Link\u00f6ping", "addr:postcode": "582 24", "addr:country": "Sweden", "name": "Link\u00f6ping - Teknikringen ", "website": "https://www.cgi.com/en/offices?field_address_country_code=SE&field_address_administrative_area=All&field_address_locality=All"}, "geometry": {"type": "Point", "coordinates": [15.5606904, 58.3952616]}},
{"type": "Feature", "id": "6UbCcbC0H8GhcplEqR0Ek8xjr0E=", "properties": {"ref": "Lule\u00e5 - Aurorum", "@spider": "cgi_group", "addr:full": "Aurorum 8B", "addr:city": "Lule\u00e5", "addr:postcode": "977 75", "addr:country": "Sweden", "name": "Lule\u00e5 - Aurorum", "website": "https://www.cgi.com/en/offices?field_address_country_code=SE&field_address_administrative_area=All&field_address_locality=All"}, "geometry": {"type": "Point", "coordinates": [22.1268315, 65.6167422]}},
{"type": "Feature", "id": "Mo6MAgaGALC0PluFTRv5DuFDJg0=", "properties": {"ref": "Malm\u00f6 - Boplatsgatan ", "@spider": "cgi_group", "addr:full": "Boplatsgatan 8", "addr:city": "Malm\u00f6", "addr:postcode": "213 76", "addr:country": "Sweden", "name": "Malm\u00f6 - Boplatsgatan ", "website": "https://www.cgi.com/en/offices?field_address_country_code=SE&field_address_administrative_area=All&field_address_locality=All"}, "geometry": {"type": "Point", "coordinates": [13.0603438, 55.5638016]}},
{"type": "Feature", "id": "4ncLQm_736Bl0PiPWBdDnYcNAPk=", "properties": {"ref": "Malm\u00f6 - \u00d6stra Varvsgatan", "@spider": "cgi_group", "addr:full": "\u00d6stra Varvsgatan 2", "addr:city": "Malm\u00f6", "addr:postcode": "211 75", "addr:country": "Sweden", "name": "Malm\u00f6 - \u00d6stra Varvsgatan", "website": "https://www.cgi.com/en/offices?field_address_country_code=SE&field_address_administrative_area=All&field_address_locality=All"}, "geometry": {"type": "Point", "coordinates": [12.9868135, 55.6123681]}},
{"type": "Feature", "id": "Rs12cJmaLvn-yOJUA7RsV5XnuMU=", "properties": {"ref": "Norrk\u00f6ping - updated", "@spider": "cgi_group", "addr:full": "S\u00f6dra Grytsgatan 7", "addr:city": "Norrk\u00f6ping", "addr:postcode": "600 45", "addr:country": "Sweden", "name": "Norrk\u00f6ping - updated", "website": "https://www.cgi.com/en/offices?field_address_country_code=SE&field_address_administrative_area=All&field_address_locality=All"}, "geometry": {"type": "Point", "coordinates": [16.1751564, 58.5879862]}},
{"type": "Feature", "id": "0IfjJ_gSH6h7SYCwnQ-vcJnNB8M=", "properties": {"ref": "\u00d6rebro - Storgatan ", "@spider": "cgi_group", "addr:full": "Olaigatan 15", "addr:city": "\u00d6rebro", "addr:postcode": "703 61", "addr:country": "Sweden", "name": "\u00d6rebro - Storgatan ", "website": "https://www.cgi.com/en/offices?field_address_country_code=SE&field_address_administrative_area=All&field_address_locality=All"}, "geometry": {"type": "Point", "coordinates": [15.2141315, 59.2754388]}},
{"type": "Feature", "id": "rRm0K2LWd1KM6dgH7FUQyFq1ByM=", "properties": {"ref": "\u00d6rnsk\u00f6ldsvik - J\u00e4rnv\u00e4gsgatan ", "@spider": "cgi_group", "addr:full": "J\u00e4rnv\u00e4gsgatan 3", "addr:city": "\u00d6rnsk\u00f6ldsvik", "addr:postcode": "891 18", "addr:country": "Sweden", "name": "\u00d6rnsk\u00f6ldsvik - J\u00e4rnv\u00e4gsgatan ", "website": "https://www.cgi.com/en/offices?field_address_country_code=SE&field_address_administrative_area=All&field_address_locality=All"}, "geometry": {"type": "Point", "coordinates": [18.7102157, 63.2881073]}},
{"type": "Feature", "id": "lX94YogElGbbDZNpCOKWQA8sZJc=", "properties": {"ref": "Oskarshamn - Bryggaregatan ", "@spider": "cgi_group", "addr:full": "Bryggaregatan 1", "addr:city": "Oskarshamn", "addr:postcode": "572 30", "addr:country": "Sweden", "name": "Oskarshamn - Bryggaregatan ", "website": "https://www.cgi.com/en/offices?field_address_country_code=SE&field_address_administrative_area=All&field_address_locality=All"}, "geometry": {"type": "Point", "coordinates": [16.4423936, 57.2669432]}},
{"type": "Feature", "id": "sKe8Z41X4iY6zUf6zeVDtXLLdwo=", "properties": {"ref": "Skara - Skaraborgsgatan ", "@spider": "cgi_group", "addr:full": "Skaraborgsgatan 21", "addr:city": "Skara", "addr:postcode": "532 30", "addr:country": "Sweden", "name": "Skara - Skaraborgsgatan ", "website": "https://www.cgi.com/en/offices?field_address_country_code=SE&field_address_administrative_area=All&field_address_locality=All"}, "geometry": {"type": "Point", "coordinates": [13.4373413, 58.3842112]}},
{"type": "Feature", "id": "jm-JdwfbciyIjRCFbhl3IgTl7Pg=", "properties": {"ref": "Skellefte\u00e5 - H\u00f6rnellgatan ", "@spider": "cgi_group", "addr:full": "H\u00f6rnellgatan 4", "addr:city": "Skellefte\u00e5", "addr:postcode": "931 30", "addr:country": "Sweden", "name": "Skellefte\u00e5 - H\u00f6rnellgatan ", "website": "https://www.cgi.com/en/offices?field_address_country_code=SE&field_address_administrative_area=All&field_address_locality=All"}, "geometry": {"type": "Point", "coordinates": [20.9548046, 64.7488969]}},
{"type": "Feature", "id": "4kzXL-XXO5SQJodjSFzPoE0XCVs=", "properties": {"ref": "Stockholm - Torshamnsgatan ", "@spider": "cgi_group", "addr:full": "Torshamnsgatan 24, Kista", "addr:city": "Stockholm", "addr:postcode": "164 98", "addr:country": "Sweden", "name": "Stockholm - Torshamnsgatan ", "website": "https://www.cgi.com/en/offices?field_address_country_code=SE&field_address_administrative_area=All&field_address_locality=All"}, "geometry": {"type": "Point", "coordinates": [17.9534039, 59.4068856]}},
{"type": "Feature", "id": "m4aGdWeHJrJwFobVBeRIuryDNiA=", "properties": {"ref": "Sundsvall - Fredsgatan ", "@spider": "cgi_group", "addr:full": "Fredsgatan 3", "addr:city": "Sundsvall", "addr:postcode": "851 05", "addr:country": "Sweden", "name": "Sundsvall - Fredsgatan ", "website": "https://www.cgi.com/en/offices?field_address_country_code=SE&field_address_administrative_area=All&field_address_locality=All"}, "geometry": {"type": "Point", "coordinates": [17.3051137, 62.3876049]}},
{"type": "Feature", "id": "3BOp6tuguxSpEOroK64XnwhfeJ8=", "properties": {"ref": "Ume\u00e5 - Tegsplan ", "@spider": "cgi_group", "addr:full": "Tegsplan 2B", "addr:city": "Ume\u00e5", "addr:postcode": "904 20", "addr:country": "Sweden", "name": "Ume\u00e5 - Tegsplan ", "website": "https://www.cgi.com/en/offices?field_address_country_code=SE&field_address_administrative_area=All&field_address_locality=All"}, "geometry": {"type": "Point", "coordinates": [20.2535543, 63.820505]}},
{"type": "Feature", "id": "35wiR4b6oQWbHIeqhuP9IMqYZ1A=", "properties": {"ref": "V\u00e4ster\u00e5s - Sigurdsgatan ", "@spider": "cgi_group", "addr:full": "Kopparbergsv\u00e4gen 6", "addr:city": "V\u00e4ster\u00e5s", "addr:postcode": "722 13", "addr:country": "Sweden", "name": "V\u00e4ster\u00e5s - Sigurdsgatan ", "website": "https://www.cgi.com/en/offices?field_address_country_code=SE&field_address_administrative_area=All&field_address_locality=All"}, "geometry": {"type": "Point", "coordinates": [16.5528899, 59.6062751]}},
{"type": "Feature", "id": "jNNw7cQzTCQ_kK0Y_DSyA4d57_g=", "properties": {"ref": "Borl\u00e4nge - Borgan\u00e4sv\u00e4gen ", "@spider": "cgi_group", "addr:full": "Borgan\u00e4sv\u00e4gen 26", "addr:city": "Borl\u00e4nge", "addr:postcode": "784 33", "addr:country": "Sweden", "name": "Borl\u00e4nge - Borgan\u00e4sv\u00e4gen ", "website": "https://www.cgi.com/en/offices?field_address_country_code=SE&field_address_administrative_area=All&field_address_locality=All"}, "geometry": {"type": "Point", "coordinates": [15.4320554, 60.4849713]}},
{"type": "Feature", "id": "86Kqcxk89AGSCeO0SNmOYcdu0SY=", "properties": {"ref": "Brom\u00f6lla - Iv\u00f6gatan ", "@spider": "cgi_group", "addr:full": "Iv\u00f6gatan 5", "addr:city": "Brom\u00f6lla", "addr:postcode": "295 31", "addr:country": "Sweden", "name": "Brom\u00f6lla - Iv\u00f6gatan ", "website": "https://www.cgi.com/en/offices?field_address_country_code=SE&field_address_administrative_area=All&field_address_locality=All"}, "geometry": {"type": "Point", "coordinates": [14.4692046, 56.075716]}},
{"type": "Feature", "id": "yl8836dJiONEDEoIfz16dj4wwFk=", "properties": {"ref": "Stockholm", "@spider": "cgi_group", "addr:full": "Vasagatan 16 ", "addr:city": "Stockholm", "addr:postcode": "111 20", "addr:country": "Sweden", "name": "Stockholm", "website": "https://www.cgi.com/en/offices?field_address_country_code=SE&field_address_administrative_area=All&field_address_locality=All"}, "geometry": {"type": "Point", "coordinates": [17.9534039, 59.4068856]}},
{"type": "Feature", "id": "LIYW2Ah-YgBHS1Epj2Te4oun2OY=", "properties": {"ref": "\u00d6stersund", "@spider": "cgi_group", "addr:full": "R\u00e5dhusgatan 15-17", "addr:city": "\u00d6stersund", "addr:postcode": "831 41", "addr:country": "Sweden", "name": "\u00d6stersund", "website": "https://www.cgi.com/en/offices?field_address_country_code=SE&field_address_administrative_area=All&field_address_locality=All"}, "geometry": {"type": "Point", "coordinates": [14.640700340271, 63.180000305176]}},
{"type": "Feature", "id": "5afeB39f4CluiSIq7eSzh0yTrVc=", "properties": {"ref": "G\u00f6teborg - sankt", "@spider": "cgi_group", "addr:full": "Sankt Eriksgatan 5", "addr:city": "G\u00f6teborg ", "addr:postcode": "411 05", "addr:country": "Sweden", "name": "G\u00f6teborg - sankt", "website": "https://www.cgi.com/en/offices?field_address_country_code=SE&field_address_administrative_area=All&field_address_locality=All"}, "geometry": {"type": "Point", "coordinates": [11.9815, 57.71189]}},
{"type": "Feature", "id": "hAe2_xvcaHV4tThai3tPSSIbK6E=", "properties": {"ref": "BRATISLAVA", "@spider": "cgi_group", "addr:full": "Such\u00e9 M\u00fdto 7045/1", "addr:city": "BRATISLAVA", "addr:postcode": "811 03", "addr:country": "Slovakia", "name": "BRATISLAVA", "website": "https://www.cgi.com/en/offices?field_address_country_code=SK&field_address_administrative_area=All&field_address_locality=All"}, "geometry": {"type": "Point", "coordinates": [17.1071482, 48.1471353]}},
{"type": "Feature", "id": "2TxtgXcxVlPeeDd-XZwDvbQ60zA=", "properties": {"ref": "Albany - Great Oaks Blvd", "@spider": "cgi_group", "addr:full": "100 Great Oaks Blvd", "addr:city": "Albany", "addr:state": "NY", "addr:postcode": "12203", "addr:country": "United States", "name": "Albany - Great Oaks Blvd", "website": "https://www.cgi.com/en/offices?field_address_country_code=US&field_address_administrative_area=All&field_address_locality=All"}, "geometry": {"type": "Point", "coordinates": [-73.8468654, 42.6832724]}},
{"type": "Feature", "id": "1n8f_2-A3gsjCtjm2HSnhbWqs3k=", "properties": {"ref": "Buffalo - Lafayette Square", "@spider": "cgi_group", "addr:full": "14 Lafayette Square", "addr:city": "Buffalo", "addr:state": "NY", "addr:postcode": "14203", "addr:country": "United States", "name": "Buffalo - Lafayette Square", "website": "https://www.cgi.com/en/offices?field_address_country_code=US&field_address_administrative_area=All&field_address_locality=All"}, "geometry": {"type": "Point", "coordinates": [-78.8734328, 42.8861873]}},
{"type": "Feature", "id": "q2H-3fGCt-WjB_N7nir0LDsFxt8=", "properties": {"ref": "New York - Broad Street", "@spider": "cgi_group", "addr:full": "90 Broad Street", "addr:city": "New York", "addr:state": "NY", "addr:postcode": "10004", "addr:country": "United States", "name": "New York - Broad Street", "website": "https://www.cgi.com/en/offices?field_address_country_code=US&field_address_administrative_area=All&field_address_locality=All"}, "geometry": {"type": "Point", "coordinates": [-74.078198, 40.62479]}},
{"type": "Feature", "id": "od97n8--BR871ce7vHaHnImzK3o=", "properties": {"ref": "New York - Whitehall", "@spider": "cgi_group", "addr:full": "33 Whitehall Street", "addr:city": "New York", "addr:state": "NY", "addr:postcode": "10004", "addr:country": "United States", "name": "New York - Whitehall", "website": "https://www.cgi.com/en/offices?field_address_country_code=US&field_address_administrative_area=All&field_address_locality=All"}, "geometry": {"type": "Point", "coordinates": [-74.0097395, 40.7039923]}},
{"type": "Feature", "id": "Yhb1q9YSGaKsgyQxGx3Tz50ggWo=", "properties": {"ref": "Cleveland", "@spider": "cgi_group", "addr:full": "1100 Superior Avenue East, Suite 200", "addr:city": "Cleveland", "addr:state": "OH", "addr:postcode": "44114", "addr:country": "United States", "name": "Cleveland", "website": "https://www.cgi.com/en/offices?field_address_country_code=US&field_address_administrative_area=All&field_address_locality=All"}, "geometry": {"type": "Point", "coordinates": [-81.686258, 41.503088]}},
{"type": "Feature", "id": "rwdtU0nEjwIGTZwXhgISYTVvu6M=", "properties": {"ref": "Columbus - Polaris Parkway", "@spider": "cgi_group", "addr:full": "2000 Polaris Parkway", "addr:city": "Columbus", "addr:state": "OH", "addr:postcode": "43240", "addr:country": "United States", "name": "Columbus - Polaris Parkway", "website": "https://www.cgi.com/en/offices?field_address_country_code=US&field_address_administrative_area=All&field_address_locality=All"}, "geometry": {"type": "Point", "coordinates": [-82.9655582, 40.1441987]}},
{"type": "Feature", "id": "7WwNeT7kPjlFffvUif6zzHxNmy8=", "properties": {"ref": "Columbia - Browning Road", "@spider": "cgi_group", "addr:full": "1400 Browning Road", "addr:city": "Columbia", "addr:state": "SC", "addr:postcode": "29210", "addr:country": "United States", "name": "Columbia - Browning Road", "website": "https://www.cgi.com/en/offices?field_address_country_code=US&field_address_administrative_area=All&field_address_locality=All"}, "geometry": {"type": "Point", "coordinates": [-81.1070728, 34.0390022]}},
{"type": "Feature", "id": "OdUReK-ezdsfsSePDKo4QHaXnEM=", "properties": {"ref": "North Charleston", "@spider": "cgi_group", "addr:full": "1101 REMOUNT ROAD", "addr:city": "North Charleston", "addr:state": "SC", "addr:postcode": "29406", "addr:country": "United States", "name": "North Charleston", "website": "https://www.cgi.com/en/offices?field_address_country_code=US&field_address_administrative_area=All&field_address_locality=All"}, "geometry": {"type": "Point", "coordinates": [-79.9822067, 32.9017949]}},
{"type": "Feature", "id": "k-Lt-QrzlyYFI6Jiuc4iidh-9_k=", "properties": {"ref": "Belton - Digby Drive", "@spider": "cgi_group", "addr:full": "2100 Digby Drive", "addr:city": "Belton", "addr:state": "TX", "addr:postcode": "76513", "addr:country": "United States", "name": "Belton - Digby Drive", "website": "https://www.cgi.com/en/offices?field_address_country_code=US&field_address_administrative_area=All&field_address_locality=All"}, "geometry": {"type": "Point", "coordinates": [-97.4900101, 31.0544498]}},
{"type": "Feature", "id": "Jb8pENwDoYt8D6gp0Kkpp-zmsLQ=", "properties": {"ref": "Dallas - Landmark Blvd", "@spider": "cgi_group", "addr:full": "14800 Landmark Blvd", "addr:city": "Dallas", "addr:state": "TX", "addr:postcode": "75254", "addr:country": "United States", "name": "Dallas - Landmark Blvd", "website": "https://www.cgi.com/en/offices?field_address_country_code=US&field_address_administrative_area=All&field_address_locality=All"}, "geometry": {"type": "Point", "coordinates": [-96.8275136, 32.9484306]}},
{"type": "Feature", "id": "8vLixP0jCg0DmRNNoAwgCz452TQ=", "properties": {"ref": "Fort Worth - Cherry Street", "@spider": "cgi_group", "addr:full": "801 Cherry Street", "addr:city": "Fort Worth", "addr:state": "TX", "addr:postcode": "76102", "addr:country": "United States", "name": "Fort Worth - Cherry Street", "website": "https://www.cgi.com/en/offices?field_address_country_code=US&field_address_administrative_area=All&field_address_locality=All"}, "geometry": {"type": "Point", "coordinates": [-97.3345171, 32.7506147]}},
{"type": "Feature", "id": "wqpuLbqs06ntp6dVLPYxF2ZtqUQ=", "properties": {"ref": "Houston - West Sam Houston Parkway South", "@spider": "cgi_group", "addr:full": "3700 West Sam Houston Parkway South", "addr:city": "Houston", "addr:state": "TX", "addr:postcode": "77042", "addr:country": "United States", "name": "Houston - West Sam Houston Parkway South", "website": "https://www.cgi.com/en/offices?field_address_country_code=US&field_address_administrative_area=All&field_address_locality=All"}, "geometry": {"type": "Point", "coordinates": [-95.5585786, 29.7241203]}},
{"type": "Feature", "id": "v6qUoImgESbDC0TvZL7ZDEfahOA=", "properties": {"ref": "San Angelo - West Loop 306", "@spider": "cgi_group", "addr:full": "3115 West Loop 306", "addr:city": "San Angelo", "addr:state": "TX", "addr:postcode": "76904", "addr:country": "United States", "name": "San Angelo - West Loop 306", "website": "https://www.cgi.com/en/offices?field_address_country_code=US&field_address_administrative_area=All&field_address_locality=All"}, "geometry": {"type": "Point", "coordinates": [-100.4878187, 31.4205231]}},
{"type": "Feature", "id": "VyIRSAOjDq6Q2-20QT-HenmX40o=", "properties": {"ref": "Fairfax - Fair Lakes Circle", "@spider": "cgi_group", "addr:full": "12601 Fair Lakes Circle", "addr:city": "Fairfax", "addr:state": "VA", "addr:postcode": "22033", "addr:country": "United States", "name": "Fairfax - Fair Lakes Circle", "website": "https://www.cgi.com/en/offices?field_address_country_code=US&field_address_administrative_area=All&field_address_locality=All"}, "geometry": {"type": "Point", "coordinates": [-77.3825127, 38.8571833]}},
{"type": "Feature", "id": "ytr7pf0P_P3ux118CZBazMK-Sd4=", "properties": {"ref": "Fairfax - Random Hills Road", "@spider": "cgi_group", "addr:full": "11325 Random Hills Road", "addr:city": "Fairfax", "addr:state": "VA", "addr:postcode": "22030", "addr:country": "United States", "name": "Fairfax - Random Hills Road", "website": "https://www.cgi.com/en/offices?field_address_country_code=US&field_address_administrative_area=All&field_address_locality=All"}, "geometry": {"type": "Point", "coordinates": [-77.3377775, 38.8555182]}},
{"type": "Feature", "id": "ZrXhelQIfUg_HZtu0u2wAoKUB4o=", "properties": {"ref": "Lebanon - Technology Park Drive", "@spider": "cgi_group", "addr:full": "295 Technology Park Drive", "addr:city": "Lebanon", "addr:state": "VA", "addr:postcode": "24266", "addr:country": "United States", "name": "Lebanon - Technology Park Drive", "website": "https://www.cgi.com/en/offices?field_address_country_code=US&field_address_administrative_area=All&field_address_locality=All"}, "geometry": {"type": "Point", "coordinates": [-82.0715459, 36.9047567]}},
{"type": "Feature", "id": "dwKm-zHvAZHEQnY7Cucsvlh0ECs=", "properties": {"ref": "Manassas - Capital Court", "@spider": "cgi_group", "addr:full": "9700 Capital Court", "addr:city": "Manassas", "addr:state": "VA", "addr:postcode": "20110", "addr:country": "United States", "name": "Manassas - Capital Court", "website": "https://www.cgi.com/en/offices?field_address_country_code=US&field_address_administrative_area=All&field_address_locality=All"}, "geometry": {"type": "Point", "coordinates": [-77.5217653, 38.7400243]}},
{"type": "Feature", "id": "375c60wfLbGEUZzUS8nL461Bjec=", "properties": {"ref": "Norfolk - International Terminal Blvd", "@spider": "cgi_group", "addr:full": "1355 International Terminal Blvd", "addr:city": "Norfolk", "addr:state": "VA", "addr:postcode": "23505", "addr:country": "United States", "name": "Norfolk - International Terminal Blvd", "website": "https://www.cgi.com/en/offices?field_address_country_code=US&field_address_administrative_area=All&field_address_locality=All"}, "geometry": {"type": "Point", "coordinates": [-76.314398, 36.9011094]}},
{"type": "Feature", "id": "AdlRq33sLYtdK_TS1IX1v5E35tU=", "properties": {"ref": "Richmond - East Main Street", "@spider": "cgi_group", "addr:full": "1111 East Main Street", "addr:city": "Richmond", "addr:state": "VA", "addr:postcode": "23219", "addr:country": "United States", "name": "Richmond - East Main Street", "website": "https://www.cgi.com/en/offices?field_address_country_code=US&field_address_administrative_area=All&field_address_locality=All"}, "geometry": {"type": "Point", "coordinates": [-77.4344862, 37.5371314]}},
{"type": "Feature", "id": "2gBzjGaE_sxfC6kOJe0aBi0SjD0=", "properties": {"ref": "Huntsville - Old Madison Pike", "@spider": "cgi_group", "addr:full": "4000 MARKET STREET", "addr:city": "Huntsville", "addr:state": "AL", "addr:postcode": "35808", "addr:country": "United States", "name": "Huntsville - Old Madison Pike", "website": "https://www.cgi.com/en/offices?field_address_country_code=US&field_address_administrative_area=All&field_address_locality=All"}, "geometry": {"type": "Point", "coordinates": [-86.6819437, 34.7121152]}},
{"type": "Feature", "id": "rxsCawxOWLehumlrjBTMDIfmBpo=", "properties": {"ref": "Troy - University Park", "@spider": "cgi_group", "addr:full": "140 University Park", "addr:city": "Troy", "addr:state": "AL", "addr:postcode": "36081", "addr:country": "United States", "name": "Troy - University Park", "website": "https://www.cgi.com/en/offices?field_address_country_code=US&field_address_administrative_area=All&field_address_locality=All"}, "geometry": {"type": "Point", "coordinates": [-85.9640843, 31.8002778]}},
{"type": "Feature", "id": "_zG0YH67L3pdLYjDHzrN4WWm_o4=", "properties": {"ref": "Sierra Vista", "@spider": "cgi_group", "addr:full": "180 WEST FRY BLVD", "addr:city": "Sierra Vista", "addr:state": "AZ", "addr:postcode": "85635", "addr:country": "United States", "name": "Sierra Vista", "website": "https://www.cgi.com/en/offices?field_address_country_code=US&field_address_administrative_area=All&field_address_locality=All"}, "geometry": {"type": "Point", "coordinates": [-110.3073692, 31.5572913]}},
{"type": "Feature", "id": "fEnlR5eQK_IeAsDmMnNQPKT1QMk=", "properties": {"ref": "Tempe - West Elliott Road", "@spider": "cgi_group", "addr:full": "309 W Elliot Road", "addr:city": "Tempe", "addr:state": "AZ", "addr:postcode": "85284", "addr:country": "United States", "name": "Tempe - West Elliott Road", "website": "https://www.cgi.com/en/offices?field_address_country_code=US&field_address_administrative_area=All&field_address_locality=All"}, "geometry": {"type": "Point", "coordinates": [-111.94356, 33.3478166]}},
{"type": "Feature", "id": "sTXL7-6NWyz4Vdpoj2mKFBIddAE=", "properties": {"ref": "Los Angeles - South Grand Avenue", "@spider": "cgi_group", "addr:full": "350 South Grand Avenue", "addr:city": "Los Angeles", "addr:state": "CA", "addr:postcode": "90071", "addr:country": "United States", "name": "Los Angeles - South Grand Avenue", "website": "https://www.cgi.com/en/offices?field_address_country_code=US&field_address_administrative_area=All&field_address_locality=All"}, "geometry": {"type": "Point", "coordinates": [-118.2516421, 34.0514071]}},
{"type": "Feature", "id": "0Qj5R2ttMu6qulgz-pdKTEUDFuw=", "properties": {"ref": "Oakland - 14th Street", "@spider": "cgi_group", "addr:full": "505 14th Street", "addr:city": "Oakland", "addr:state": "CA", "addr:postcode": "94612", "addr:country": "United States", "name": "Oakland - 14th Street", "website": "https://www.cgi.com/en/offices?field_address_country_code=US&field_address_administrative_area=All&field_address_locality=All"}, "geometry": {"type": "Point", "coordinates": [-122.2729037, 37.8047306]}},
{"type": "Feature", "id": "SoOhPFv-jbRvSZ4gCfBMHiQZ7-M=", "properties": {"ref": "San Diego - Mission Valley Rd.", "@spider": "cgi_group", "addr:full": "7480 Mission Valley Rd.", "addr:city": "San Diego", "addr:state": "CA", "addr:postcode": "92108", "addr:country": "United States", "name": "San Diego - Mission Valley Rd.", "website": "https://www.cgi.com/en/offices?field_address_country_code=US&field_address_administrative_area=All&field_address_locality=All"}, "geometry": {"type": "Point", "coordinates": [-117.1606661, 32.7800062]}},
{"type": "Feature", "id": "wHWflT81Mz-xxtmhYBh3Q4oiQHU=", "properties": {"ref": "Washington - New Jersey Avenue SE", "@spider": "cgi_group", "addr:full": "1100 New Jersey Avenue SE", "addr:city": "Washington", "addr:state": "DC", "addr:postcode": "20003", "addr:country": "United States", "name": "Washington - New Jersey Avenue SE", "website": "https://www.cgi.com/en/offices?field_address_country_code=US&field_address_administrative_area=All&field_address_locality=All"}, "geometry": {"type": "Point", "coordinates": [-77.0039559, 38.8770025]}},
{"type": "Feature", "id": "NsSgxQUBQC4AFq1ucLx7kDqkVvs=", "properties": {"ref": "Tampa - West Swann Avenue", "@spider": "cgi_group", "addr:full": "1509 W. Swann Avenue", "addr:city": "Tampa", "addr:state": "FL", "addr:postcode": "33606", "addr:country": "United States", "name": "Tampa - West Swann Avenue", "website": "https://www.cgi.com/en/offices?field_address_country_code=US&field_address_administrative_area=All&field_address_locality=All"}, "geometry": {"type": "Point", "coordinates": [-82.5162331, 27.9516362]}},
{"type": "Feature", "id": "nHggnZE1PvhdwJOcpXMgf3Q6kjA=", "properties": {"ref": "Honolulu - South King Street ", "@spider": "cgi_group", "addr:full": "715 South King Street Suite 200", "addr:city": "Honolulu", "addr:state": "HI", "addr:postcode": "96813", "addr:country": "United States", "name": "Honolulu - South King Street ", "website": "https://www.cgi.com/en/offices?field_address_country_code=US&field_address_administrative_area=All&field_address_locality=All"}, "geometry": {"type": "Point", "coordinates": [-157.862288, 21.301123]}},
{"type": "Feature", "id": "Ao4o0JoEqmWaXXljc6tRtuz3YJg=", "properties": {"ref": "Fairview Heights - Salem Place", "@spider": "cgi_group", "addr:full": "331 Salem Place", "addr:city": "Fairview Heights", "addr:state": "IL", "addr:postcode": "62208-1340", "addr:country": "United States", "name": "Fairview Heights - Salem Place", "website": "https://www.cgi.com/en/offices?field_address_country_code=US&field_address_administrative_area=All&field_address_locality=All"}, "geometry": {"type": "Point", "coordinates": [-89.9810195, 38.599617]}},
{"type": "Feature", "id": "gh_Ruqvp3S0bwOlLnISKTXlY3wg=", "properties": {"ref": "Frankfort - West Main Street", "@spider": "cgi_group", "addr:full": "229 West Main Street", "addr:city": "Frankfort", "addr:state": "KY", "addr:postcode": "40601", "addr:country": "United States", "name": "Frankfort - West Main Street", "website": "https://www.cgi.com/en/offices?field_address_country_code=US&field_address_administrative_area=All&field_address_locality=All"}, "geometry": {"type": "Point", "coordinates": [-84.8774643, 38.1981508]}},
{"type": "Feature", "id": "bxUb_KJQWwUtVICjLKfGZdh1GfU=", "properties": {"ref": "Baltimore - Lord Baltimore Drive - 3106", "@spider": "cgi_group", "addr:full": "3106 Lord Baltimore Drive", "addr:city": "Baltimore", "addr:state": "MD", "addr:postcode": "21244", "addr:country": "United States", "name": "Baltimore - Lord Baltimore Drive - 3106", "website": "https://www.cgi.com/en/offices?field_address_country_code=US&field_address_administrative_area=All&field_address_locality=All"}, "geometry": {"type": "Point", "coordinates": [-76.7523087, 39.3391574]}},
{"type": "Feature", "id": "s3gtqxX-mshOLRDxHdArx3v_Cjc=", "properties": {"ref": "San Antonio - Northwest Parkway", "@spider": "cgi_group", "addr:full": "5555 Northwest Parkway", "addr:city": "San Antonio", "addr:state": "TX", "addr:postcode": "78249", "addr:country": "United States", "name": "San Antonio - Northwest Parkway", "website": "https://www.cgi.com/en/offices?field_address_country_code=US&field_address_administrative_area=All&field_address_locality=All"}, "geometry": {"type": "Point", "coordinates": [-98.5898349, 29.554464]}},
{"type": "Feature", "id": "U-gF1wEdOCNrumPBacsBKQl2IdM=", "properties": {"ref": "Juneau - South Franklin", "@spider": "cgi_group", "addr:full": "175 South Franklin", "addr:city": "Juneau", "addr:state": "AK", "addr:postcode": "99801", "addr:country": "United States", "name": "Juneau - South Franklin", "website": "https://www.cgi.com/en/offices?field_address_country_code=US&field_address_administrative_area=All&field_address_locality=All"}, "geometry": {"type": "Point", "coordinates": [-134.4046504, 58.3002165]}},
{"type": "Feature", "id": "_LZCSzBy3Fpn1MmTVX9LWG_dQO0=", "properties": {"ref": "Annapolis Junction - Sentinel Drive", "@spider": "cgi_group", "addr:full": "300 Sentinel Drive", "addr:city": "Annapolis Junction", "addr:state": "MD", "addr:postcode": "20701", "addr:country": "United States", "name": "Annapolis Junction - Sentinel Drive", "website": "https://www.cgi.com/en/offices?field_address_country_code=US&field_address_administrative_area=All&field_address_locality=All"}, "geometry": {"type": "Point", "coordinates": [-76.7734796, 39.1222329]}},
{"type": "Feature", "id": "Wu3_tD0f3wlwMjiK072NJnKXTyo=", "properties": {"ref": "Lansing - Washington Square", "@spider": "cgi_group", "addr:full": "300 S. Washington Square", "addr:city": "Lansing", "addr:state": "MI", "addr:postcode": "48933", "addr:country": "United States", "name": "Lansing - Washington Square", "website": "https://www.cgi.com/en/offices?field_address_country_code=US&field_address_administrative_area=All&field_address_locality=All"}, "geometry": {"type": "Point", "coordinates": [-84.5528516, 42.7309409]}},
{"type": "Feature", "id": "6Ad3YrT1hxIEdF9k2NbfT6eWkjM=", "properties": {"ref": "Lawton - cache road", "@spider": "cgi_group", "addr:full": "1801 NW Cache Road", "addr:city": "Lawton", "addr:state": "OK", "addr:postcode": "73507", "addr:country": "United States", "name": "Lawton - cache road", "website": "https://www.cgi.com/en/offices?field_address_country_code=US&field_address_administrative_area=All&field_address_locality=All"}, "geometry": {"type": "Point", "coordinates": [-98.4172505, 34.6236766]}},
{"type": "Feature", "id": "AbsN27iRNePHoaRsdODKratU9qg=", "properties": {"ref": "Sterling - Indian Creek Drive", "@spider": "cgi_group", "addr:full": "22980 Indian Creek Drive", "addr:city": "Sterling", "addr:state": "VA", "addr:postcode": "20166", "addr:country": "United States", "name": "Sterling - Indian Creek Drive", "website": "https://www.cgi.com/en/offices?field_address_country_code=US&field_address_administrative_area=All&field_address_locality=All"}, "geometry": {"type": "Point", "coordinates": [-77.4310404, 38.9820057]}},
{"type": "Feature", "id": "fauiN6odgZ-GlNcsB3ptXwDbrww=", "properties": {"ref": "Sacramento - University", "@spider": "cgi_group", "addr:full": "333 University Avenue", "addr:city": "Sacramento", "addr:state": "CA", "addr:postcode": "95825", "addr:country": "United States", "name": "Sacramento - University", "website": "https://www.cgi.com/en/offices?field_address_country_code=US&field_address_administrative_area=All&field_address_locality=All"}, "geometry": {"type": "Point", "coordinates": [-121.4167848, 38.5709839]}},
{"type": "Feature", "id": "rAvhvwFllOqQ1RaMxS5_bB4oSRA=", "properties": {"ref": "Connecticut - Hartford", "@spider": "cgi_group", "addr:full": "100 Pearl St.", "addr:city": "Hartford", "addr:state": "CT", "addr:postcode": "06103", "addr:country": "United States", "name": "Connecticut - Hartford", "website": "https://www.cgi.com/en/offices?field_address_country_code=US&field_address_administrative_area=All&field_address_locality=All"}, "geometry": {"type": "Point", "coordinates": [-72.6751108, 41.7661475]}},
{"type": "Feature", "id": "SxcdHdFPsoUFLrzSdBiAmKBkRsI=", "properties": {"ref": "Sacramento - Capitol Mall", "@spider": "cgi_group", "addr:full": "621 Capitol Mall", "addr:city": "Sacramento", "addr:state": "CA", "addr:postcode": "95814", "addr:country": "United States", "name": "Sacramento - Capitol Mall", "website": "https://www.cgi.com/en/offices?field_address_country_code=US&field_address_administrative_area=All&field_address_locality=All"}, "geometry": {"type": "Point", "coordinates": [-121.4990929, 38.5788549]}},
{"type": "Feature", "id": "C9__3Y17-LlxIPmTc5Vb5Y6IjUA=", "properties": {"ref": "San Antonio - N Loop", "@spider": "cgi_group", "addr:full": "4630 N Loop 1604 W", "addr:city": "San Antonio", "addr:state": "TX", "addr:postcode": "78249", "addr:country": "United States", "name": "San Antonio - N Loop", "website": "https://www.cgi.com/en/offices?field_address_country_code=US&field_address_administrative_area=All&field_address_locality=All"}, "geometry": {"type": "Point", "coordinates": [-98.574217, 29.593917]}},
{"type": "Feature", "id": "y5L83gzwsHhiy2TKj1vQ6BGcHD0=", "properties": {"ref": "Burlington - 78 Blanchard Road", "@spider": "cgi_group", "addr:full": "78 Blanchard Road", "addr:city": "Burlington", "addr:state": "MA", "addr:postcode": "01803", "addr:country": "United States", "name": "Burlington - 78 Blanchard Road", "website": "https://www.cgi.com/en/offices?field_address_country_code=US&field_address_administrative_area=All&field_address_locality=All"}, "geometry": {"type": "Point", "coordinates": [-71.203705, 42.4803346]}},
{"type": "Feature", "id": "rJ--wV1ReDStPzUcQiOBrxcLpxY=", "properties": {"ref": "Waterville - 173 Main Street", "@spider": "cgi_group", "addr:full": "173 Main Street", "addr:city": "Waterville", "addr:state": "ME", "addr:postcode": "04901", "addr:country": "United States", "name": "Waterville - 173 Main Street", "website": "https://www.cgi.com/en/offices?field_address_country_code=US&field_address_administrative_area=All&field_address_locality=All"}, "geometry": {"type": "Point", "coordinates": [-69.6304112, 44.5462383]}},
{"type": "Feature", "id": "i0WJcUSo79ClmZKWXCtix1bSdnM=", "properties": {"ref": "Wausau - 500 First Street", "@spider": "cgi_group", "addr:full": "500 First Street", "addr:city": "Wausau", "addr:state": "WI", "addr:postcode": "54403", "addr:country": "United States", "name": "Wausau - 500 First Street", "website": "https://www.cgi.com/en/offices?field_address_country_code=US&field_address_administrative_area=All&field_address_locality=All"}, "geometry": {"type": "Point", "coordinates": [-89.6306484, 44.9611887]}},
{"type": "Feature", "id": "TD0LIAcAZ0nnxkxvBjvAnUD0Row=", "properties": {"ref": "Bellevue", "@spider": "cgi_group", "addr:full": "10900 NE 4th St,", "addr:city": "Bellevue", "addr:state": "WA", "addr:postcode": "98004", "addr:country": "United States", "name": "Bellevue", "website": "https://www.cgi.com/en/offices?field_address_country_code=US&field_address_administrative_area=All&field_address_locality=All"}, "geometry": {"type": "Point", "coordinates": [-122.1827162, 47.6114334]}},
{"type": "Feature", "id": "ZbjehsiWaHj0A3KSjW4rF1HjVPk=", "properties": {"ref": "San Diego - Camino Del Rio South", "@spider": "cgi_group", "addr:full": "2878 Camino Del Rio South", "addr:city": "San Diego", "addr:state": "CA", "addr:postcode": "92108", "addr:country": "United States", "name": "San Diego - Camino Del Rio South", "website": "https://www.cgi.com/en/offices?field_address_country_code=US&field_address_administrative_area=All&field_address_locality=All"}, "geometry": {"type": "Point", "coordinates": [-117.1303276, 32.7713466]}},
{"type": "Feature", "id": "4W6ONylh2BnuUKAy1QVvzbE-a_A=", "properties": {"ref": "Birmingham -Riverchase Parkway East", "@spider": "cgi_group", "addr:full": "1900 International Park Drive", "addr:city": "Birmingham", "addr:state": "AL", "addr:postcode": "35243", "addr:country": "United States", "name": "Birmingham -Riverchase Parkway East", "website": "https://www.cgi.com/en/offices?field_address_country_code=US&field_address_administrative_area=All&field_address_locality=All"}, "geometry": {"type": "Point", "coordinates": [-86.785348, 33.361993]}},
{"type": "Feature", "id": "wAlEJ_CZ9DHkNjERr9urW1Pz7hg=", "properties": {"ref": "Mobile - Wall St", "@spider": "cgi_group", "addr:full": "6420 Wall St", "addr:city": "Mobile", "addr:state": "AL", "addr:postcode": "36695-4520", "addr:country": "United States", "name": "Mobile - Wall St", "website": "https://www.cgi.com/en/offices?field_address_country_code=US&field_address_administrative_area=All&field_address_locality=All"}, "geometry": {"type": "Point", "coordinates": [-88.192806, 30.670966]}},
{"type": "Feature", "id": "K7onWU6q8JHy9DbWyUYj0E8DZvI=", "properties": {"ref": "Greenwood Village - DTC Parkway", "@spider": "cgi_group", "addr:full": "5575 DTC Parkway", "addr:city": "Greenwood Village", "addr:state": "CO", "addr:postcode": "80111", "addr:country": "United States", "name": "Greenwood Village - DTC Parkway", "website": "https://www.cgi.com/en/offices?field_address_country_code=US&field_address_administrative_area=All&field_address_locality=All"}, "geometry": {"type": "Point", "coordinates": [-104.8956262, 39.6150392]}},
{"type": "Feature", "id": "bST-VGWGOY2JvzP7XzauaDg6Ihw=", "properties": {"ref": "Atlanta", "@spider": "cgi_group", "addr:full": "2800 CENTURY PARKWAY", "addr:city": "Atlanta", "addr:state": "GA", "addr:postcode": "30345", "addr:country": "United States", "name": "Atlanta", "website": "https://www.cgi.com/en/offices?field_address_country_code=US&field_address_administrative_area=All&field_address_locality=All"}, "geometry": {"type": "Point", "coordinates": [-84.3875618, 33.7605594]}},
{"type": "Feature", "id": "dSKmRjUh88YhgP-4BQIS8hsSFVU=", "properties": {"ref": "Charlotte - Toringdon Way", "@spider": "cgi_group", "addr:full": "3426 Toringdon Way", "addr:city": "Charlotte", "addr:state": "NC", "addr:postcode": "28277-3496", "addr:country": "United States", "name": "Charlotte - Toringdon Way", "website": "https://www.cgi.com/en/offices?field_address_country_code=US&field_address_administrative_area=All&field_address_locality=All"}, "geometry": {"type": "Point", "coordinates": [-80.8432251, 35.0666872]}},
{"type": "Feature", "id": "STBf-KMnx54u_az94ba8uzEYIsg=", "properties": {"ref": "Chattanooga -Chestnut Street", "@spider": "cgi_group", "addr:full": "633 Chestnut Street", "addr:city": "Chattanooga", "addr:state": "TN", "addr:postcode": "37450", "addr:country": "United States", "name": "Chattanooga -Chestnut Street", "website": "https://www.cgi.com/en/offices?field_address_country_code=US&field_address_administrative_area=All&field_address_locality=All"}, "geometry": {"type": "Point", "coordinates": [-85.3121244, 35.0484857]}},
{"type": "Feature", "id": "kZVwHW5LsYResZg3XE0IeBfcAHY=", "properties": {"ref": "Nashville - Franklin- Meridian Blvd", "@spider": "cgi_group", "addr:full": "6640 Carothers Pkwy", "addr:city": "Franklin", "addr:state": "TN", "addr:postcode": "37067", "addr:country": "United States", "name": "Nashville - Franklin- Meridian Blvd", "website": "https://www.cgi.com/en/offices?field_address_country_code=US&field_address_administrative_area=All&field_address_locality=All"}, "geometry": {"type": "Point", "coordinates": [-86.8106921, 35.9506712]}},
{"type": "Feature", "id": "07Vc6koZAOczob1IiskgiiP_Uvo=", "properties": {"ref": "Lafayette - Cajundome Blvd", "@spider": "cgi_group", "addr:full": "538 Cajundome Blvd", "addr:city": "Lafayette", "addr:state": "LA", "addr:postcode": "70506", "addr:country": "United States", "name": "Lafayette - Cajundome Blvd", "website": "https://www.cgi.com/en/offices?field_address_country_code=US&field_address_administrative_area=All&field_address_locality=All"}, "geometry": {"type": "Point", "coordinates": [-92.0162299, 30.227005]}},
{"type": "Feature", "id": "IYK1RpTKUo31hKEiUiHieGSVcMY=", "properties": {"ref": "Pittsburgh  -William Penn ", "@spider": "cgi_group", "addr:full": "611 William Penn Pl", "addr:city": "Pittsburgh", "addr:state": "PA", "addr:postcode": "15219-6933", "addr:country": "United States", "name": "Pittsburgh  -William Penn ", "website": "https://www.cgi.com/en/offices?field_address_country_code=US&field_address_administrative_area=All&field_address_locality=All"}, "geometry": {"type": "Point", "coordinates": [-79.9968284, 40.441318]}},
{"type": "Feature", "id": "Gs9eC13C5J_3ycUe2IurRlbpYYI=", "properties": {"ref": "Arlington - Crystal Drive", "@spider": "cgi_group", "addr:full": "1550 Crystal Drive", "addr:city": "Arlington", "addr:state": "VA", "addr:postcode": "22202", "addr:country": "United States", "name": "Arlington - Crystal Drive", "website": "https://www.cgi.com/en/offices?field_address_country_code=US&field_address_administrative_area=All&field_address_locality=All"}, "geometry": {"type": "Point", "coordinates": [-77.0495063, 38.8597458]}},
{"type": "Feature", "id": "ygIWiqT6ZHE7I9bsk-L0oBkhb4o=", "properties": {"ref": "Arlington", "@spider": "cgi_group", "addr:full": "1000 N Glebe Road", "addr:city": "Arlington", "addr:state": "VA", "addr:postcode": "22201", "addr:country": "United States", "name": "Arlington", "website": "https://www.cgi.com/en/offices?field_address_country_code=US&field_address_administrative_area=All&field_address_locality=All"}, "geometry": {"type": "Point", "coordinates": [-77.116785, 38.88234]}},
{"type": "Feature", "id": "jtUw0gTrArsK-NiMKcIYbSIjIx4=", "properties": {"ref": "Plymouth Meeting - Plymouth Road", "@spider": "cgi_group", "addr:full": "401 Plymouth Road", "addr:city": "Plymouth Meeting", "addr:state": "PA", "addr:postcode": "19462", "addr:country": "United States", "name": "Plymouth Meeting - Plymouth Road", "website": "https://www.cgi.com/en/offices?field_address_country_code=US&field_address_administrative_area=All&field_address_locality=All"}, "geometry": {"type": "Point", "coordinates": [-75.29042, 40.11241]}},
{"type": "Feature", "id": "cGgRy-H3OVO1Lr25-NwFLMIiZzs=", "properties": {"ref": "AR HOT SPRINGS", "@spider": "cgi_group", "addr:full": "191 Office Park DR", "addr:city": "Hot Springs", "addr:state": "AR", "addr:postcode": "71913", "addr:country": "United States", "name": "AR HOT SPRINGS", "website": "https://www.cgi.com/en/offices?field_address_country_code=US&field_address_administrative_area=All&field_address_locality=All"}, "geometry": {"type": "Point", "coordinates": [-93.095738, 34.47418]}},
{"type": "Feature", "id": "LvQJ4u5cGtM8mmOssdzxGSoawRE=", "properties": {"ref": "Tucson", "@spider": "cgi_group", "addr:full": "7333 E Rosewood ST", "addr:city": "Tucson", "addr:state": "AZ", "addr:postcode": "85710", "addr:country": "United States", "name": "Tucson", "website": "https://www.cgi.com/en/offices?field_address_country_code=US&field_address_administrative_area=All&field_address_locality=All"}, "geometry": {"type": "Point", "coordinates": [-110.835406, 32.232924]}},
{"type": "Feature", "id": "R1qTN134bcDbSxmwPBINMbCgJoI=", "properties": {"ref": "Gales Ferry", "@spider": "cgi_group", "addr:full": "2 Chapman Lane", "addr:city": "Gales Ferry", "addr:state": "CT", "addr:postcode": "06335", "addr:country": "United States", "name": "Gales Ferry", "website": "https://www.cgi.com/en/offices?field_address_country_code=US&field_address_administrative_area=All&field_address_locality=All"}, "geometry": {"type": "Point", "coordinates": [-72.082387, 41.431104]}},
{"type": "Feature", "id": "t0vPu5R3x6sTm7-CwJKe5lYqEd4=", "properties": {"ref": "Orange Park", "@spider": "cgi_group", "addr:full": "35 Industrial Loop N", "addr:city": "Orange Park", "addr:state": "FL", "addr:postcode": "32073", "addr:country": "United States", "name": "Orange Park", "website": "https://www.cgi.com/en/offices?field_address_country_code=US&field_address_administrative_area=All&field_address_locality=All"}, "geometry": {"type": "Point", "coordinates": [-81.713416, 30.180846]}},
{"type": "Feature", "id": "L8Mz4I0tnaD8q7UZjcKaNdWw-GM=", "properties": {"ref": "Albany", "@spider": "cgi_group", "addr:full": "2813 Old Dawson RD", "addr:city": "Albany", "addr:state": "GA", "addr:postcode": "31707", "addr:country": "United States", "name": "Albany", "website": "https://www.cgi.com/en/offices?field_address_country_code=US&field_address_administrative_area=All&field_address_locality=All"}, "geometry": {"type": "Point", "coordinates": [-84.219986, 31.614354]}},
{"type": "Feature", "id": "Ny7h8D9x57TyekDm3YX0BSxiQ5E=", "properties": {"ref": "Columbus", "@spider": "cgi_group", "addr:full": "8760 Orion Place", "addr:city": "Columbus", "addr:state": "OH", "addr:postcode": "43240", "addr:country": "United States", "name": "Columbus", "website": "https://www.cgi.com/en/offices?field_address_country_code=US&field_address_administrative_area=All&field_address_locality=All"}, "geometry": {"type": "Point", "coordinates": [-82.964574, 40.146521]}},
{"type": "Feature", "id": "pYJjSbWyjnvsZteGSseH9dDJ4m0=", "properties": {"ref": "North charleston", "@spider": "cgi_group", "addr:full": "4401 Leeds Ave", "addr:city": "North Charleston", "addr:state": "SC", "addr:postcode": "29405", "addr:country": "United States", "name": "North charleston", "website": "https://www.cgi.com/en/offices?field_address_country_code=US&field_address_administrative_area=All&field_address_locality=All"}, "geometry": {"type": "Point", "coordinates": [-0.06566, 51.621625]}},
{"type": "Feature", "id": "IqhRydJFtQOlwbIph_JG3b3v5rY=", "properties": {"ref": "Newport News", "@spider": "cgi_group", "addr:full": "11815 Fountain Way", "addr:city": "Newport News", "addr:state": "VA", "addr:postcode": "23606", "addr:country": "United States", "name": "Newport News", "website": "https://www.cgi.com/en/offices?field_address_country_code=US&field_address_administrative_area=All&field_address_locality=All"}, "geometry": {"type": "Point", "coordinates": [-0.003754, 51.711633]}},
{"type": "Feature", "id": "lCeUtHWcBYoFc6XqeDos_lnpq-4=", "properties": {"ref": "Puerto Rico", "@spider": "cgi_group", "addr:full": "B7 Tabonuco Street", "addr:city": "Guaynabo", "addr:state": "PR", "addr:postcode": "00968-3028", "addr:country": "United States", "name": "Puerto Rico", "website": "https://www.cgi.com/en/offices?field_address_country_code=US&field_address_administrative_area=All&field_address_locality=All"}, "geometry": {"type": "Point", "coordinates": [-66.10595, 18.40462]}},
{"type": "Feature", "id": "pV72EInwlyH6L53AX8o4QfZZex4=", "properties": {"ref": "Atlanta CSG", "@spider": "cgi_group", "addr:full": "260 Peachtree Street NW", "addr:city": "Atlanta", "addr:state": "GA", "addr:postcode": "30303", "addr:country": "United States", "name": "Atlanta CSG", "website": "https://www.cgi.com/en/offices?field_address_country_code=US&field_address_administrative_area=All&field_address_locality=All"}, "geometry": {"type": "Point", "coordinates": [-84.387711, 33.76149]}},
{"type": "Feature", "id": "QZaA17Laf266pP1wqXuy1UDZY-I=", "properties": {"ref": "San Ramon", "@spider": "cgi_group", "addr:full": "2420 Camino Ramon", "addr:city": "San Ramon", "addr:state": "CA", "addr:postcode": "94583", "addr:country": "United States", "name": "San Ramon", "website": "https://www.cgi.com/en/offices?field_address_country_code=US&field_address_administrative_area=All&field_address_locality=All"}, "geometry": {"type": "Point", "coordinates": [-121.96398, 37.77295]}},
{"type": "Feature", "id": "5As7XOMAeId7XOkuUI8TeIaWHKU=", "properties": {"ref": "Rollingwood", "@spider": "cgi_group", "addr:full": "2500 Bee Caves Road", "addr:city": "Rollingwood", "addr:state": "TX", "addr:postcode": "78746", "addr:country": "United States", "name": "Rollingwood", "website": "https://www.cgi.com/en/offices?field_address_country_code=US&field_address_administrative_area=All&field_address_locality=All"}, "geometry": {"type": "Point", "coordinates": [-97.7842059, 30.2690345]}},
{"type": "Feature", "id": "lb--tTQpZlvM7ZsP7xdxT0pogFY=", "properties": {"ref": "Maplewood", "@spider": "cgi_group", "addr:full": "2731 Sutton Blvd", "addr:city": "Maplewood", "addr:state": "MO", "addr:postcode": "63143", "addr:country": "United States", "name": "Maplewood", "website": "https://www.cgi.com/en/offices?field_address_country_code=US&field_address_administrative_area=All&field_address_locality=All"}, "geometry": {"type": "Point", "coordinates": [-90.3206999, 38.6115802]}},
{"type": "Feature", "id": "FMEzShtbJoW8gnsU5Yq00jS3-1Y=", "properties": {"ref": "Chicago", "@spider": "cgi_group", "addr:full": "171 N Aberdeen, Ste 400, ", "addr:city": "Chicago", "addr:state": "IL", "addr:postcode": "60607", "addr:country": "United States", "name": "Chicago", "website": "https://www.cgi.com/en/offices?field_address_country_code=US&field_address_administrative_area=All&field_address_locality=All"}, "geometry": {"type": "Point", "coordinates": [-87.6543, 41.88524]}},
{"type": "Feature", "id": "mGzQ5-UvKndLBx6vlVKqSfpo0E4=", "properties": {"ref": "Hartford American Row", "@spider": "cgi_group", "addr:full": "One American Row, Suite 403", "addr:city": "Hartford", "addr:state": "CT", "addr:postcode": "06102-5056", "addr:country": "United States", "name": "Hartford American Row", "website": "https://www.cgi.com/en/offices?field_address_country_code=US&field_address_administrative_area=All&field_address_locality=All"}, "geometry": {"type": "Point", "coordinates": [-72.673327, 41.767654]}},
{"type": "Feature", "id": "jeBh51GSxT4p3JHxxHAN6NO-L-k=", "properties": {"ref": "Bucharest", "@spider": "cgi_group", "addr:full": "The Bridge - Phase I/Building A, 1st Floor, 6th District", "addr:city": "Bucharest", "addr:country": "Romania", "name": "Bucharest", "website": "https://www.cgi.com/en/offices?field_address_country_code=RO&field_address_administrative_area=All&field_address_locality=All"}, "geometry": {"type": "Point", "coordinates": [26.0654427, 44.4485537]}},
{"type": "Feature", "id": "AHtBPWEiYZDl-GuILzW8-xnUwbc=", "properties": {"ref": "Lisbon - Av. Jos\u00e9 Malhoa", "@spider": "cgi_group", "addr:full": "Av. Jos\u00e9 Malhoa, 16A, 5\u00ba", "addr:city": "Lisbon", "addr:postcode": "1070-159", "addr:country": "Portugal", "name": "Lisbon - Av. Jos\u00e9 Malhoa", "website": "https://www.cgi.com/en/offices?field_address_country_code=PT&field_address_administrative_area=All&field_address_locality=All"}, "geometry": {"type": "Point", "coordinates": [-9.1643433, 38.7376802]}},
{"type": "Feature", "id": "Vr8ZKjv-5BgHPllz9XPU1LGpzLg=", "properties": {"ref": "Porto - Rua Her\u00f3is M\u00e1rtires de Angola", "@spider": "cgi_group", "addr:full": "Rua Her\u00f3is M\u00e1rtires de Angola, 21 - 59, 2\u00ba A e B", "addr:city": "Porto", "addr:postcode": "4000-285", "addr:country": "Portugal", "name": "Porto - Rua Her\u00f3is M\u00e1rtires de Angola", "website": "https://www.cgi.com/en/offices?field_address_country_code=PT&field_address_administrative_area=All&field_address_locality=All"}, "geometry": {"type": "Point", "coordinates": [-8.610670089722, 41.151100158691]}},
{"type": "Feature", "id": "cCvE2lHsHhvEap67FewYcW0-Jj8=", "properties": {"ref": "Sacav\u00e9m - R Particular da EDP ", "@spider": "cgi_group", "addr:full": "Rua Cidade de Goa, n\u00ba 6 B", "addr:city": "Sacav\u00e9m", "addr:postcode": "2685-038", "addr:country": "Portugal", "name": "Sacav\u00e9m - R Particular da EDP ", "website": "https://www.cgi.com/en/offices?field_address_country_code=PT&field_address_administrative_area=All&field_address_locality=All"}, "geometry": {"type": "Point", "coordinates": [-9.1043257, 38.7848753]}},
{"type": "Feature", "id": "OujRjX15c7LNE3kBoOQ7UeJr3_I=", "properties": {"ref": "Sintra - Sintra Business Park", "@spider": "cgi_group", "addr:full": "Sintra Business Park, Edif\u00edcio 9 Abrunheira", "addr:city": "Sintra", "addr:postcode": "2710-089", "addr:country": "Portugal", "name": "Sintra - Sintra Business Park", "website": "https://www.cgi.com/en/offices?field_address_country_code=PT&field_address_administrative_area=All&field_address_locality=All"}, "geometry": {"type": "Point", "coordinates": [-9.3585489, 38.7690629]}},
{"type": "Feature", "id": "vOALB5udSHdvWfnbfHYuD8hjbLM=", "properties": {"ref": "Odivelas", "@spider": "cgi_group", "addr:full": "Rua Norberto Oliveira, n.\u00ba 13", "addr:city": "Odivelas", "addr:postcode": "2675-216", "addr:country": "Portugal", "name": "Odivelas", "website": "https://www.cgi.com/en/offices?field_address_country_code=PT&field_address_administrative_area=All&field_address_locality=All"}, "geometry": {"type": "Point", "coordinates": [-9.1793717, 38.8001712]}},
{"type": "Feature", "id": "KOznKRiyvkg2eWs__VpbGmjtIiM=", "properties": {"ref": "Wroc\u0142aw - Ul. T\u0119czowa ", "@spider": "cgi_group", "addr:full": "Ul. T\u0119czowa 13/10", "addr:city": "Wroc\u0142aw", "addr:postcode": "53-601", "addr:country": "Poland", "name": "Wroc\u0142aw - Ul. T\u0119czowa ", "website": "https://www.cgi.com/en/offices?field_address_country_code=PL&field_address_administrative_area=All&field_address_locality=All"}, "geometry": {"type": "Point", "coordinates": [17.0173343, 51.1064696]}},
{"type": "Feature", "id": "B-0-N_cFOfHNekslPJcIOrqVDEM=", "properties": {"ref": "Warszawa\u2013 Ul. Kr\u00f3lewska ", "@spider": "cgi_group", "addr:full": "uI. Kr\u00f3lewska 16", "addr:city": "Warszawa", "addr:postcode": "00-103", "addr:country": "Poland", "name": "Warszawa\u2013 Ul. Kr\u00f3lewska ", "website": "https://www.cgi.com/en/offices?field_address_country_code=PL&field_address_administrative_area=All&field_address_locality=All"}, "geometry": {"type": "Point", "coordinates": [21.0045823, 52.2381438]}},
{"type": "Feature", "id": "ME7OTTXp_KqATfwuvdF6QDQCjyw=", "properties": {"ref": "Taguig City - Upper McKinley Road", "@spider": "cgi_group", "addr:full": "10 Upper McKinley Road, McKinley Hill", "addr:city": "Taguig City", "addr:state": "Metro Manila", "addr:postcode": "1634", "addr:country": "Philippines", "name": "Taguig City - Upper McKinley Road", "website": "https://www.cgi.com/en/offices?field_address_country_code=PH&field_address_administrative_area=All&field_address_locality=All"}, "geometry": {"type": "Point", "coordinates": [121.048231, 14.535308]}},
{"type": "Feature", "id": "FN2ItesFPSjbx7j1CEX2Ch5qGz8=", "properties": {"ref": "Pasig City", "@spider": "cgi_group", "addr:full": "Sapphire and Garnet Roads, ", "addr:city": "14/F Robinsons Cyberscape Alpha", "addr:state": "Metro Manila", "addr:postcode": "1605", "addr:country": "Philippines", "name": "Pasig City", "website": "https://www.cgi.com/en/offices?field_address_country_code=PH&field_address_administrative_area=All&field_address_locality=All"}, "geometry": {"type": "Point", "coordinates": [121.061378, 14.589375]}},
{"type": "Feature", "id": "Nw8cB9LTtvZ_yqOMVNYl_oLF6O4=", "properties": {"ref": "Haugesund", "@spider": "cgi_group", "addr:full": "Spannavegen 152", "addr:city": "Haugesund", "addr:postcode": "5535", "addr:country": "Norway", "name": "Haugesund", "website": "https://www.cgi.com/en/offices?field_address_country_code=NO&field_address_administrative_area=All&field_address_locality=All"}, "geometry": {"type": "Point", "coordinates": [5.3301707, 59.3967808]}},
{"type": "Feature", "id": "FEUeJeIlX-516MdzUF7pJEuOFtQ=", "properties": {"ref": "Oslo-Helsfyr ", "@spider": "cgi_group", "addr:full": "Innspurten 1a", "addr:city": "Oslo", "addr:postcode": "0663", "addr:country": "Norway", "name": "Oslo-Helsfyr ", "website": "https://www.cgi.com/en/offices?field_address_country_code=NO&field_address_administrative_area=All&field_address_locality=All"}, "geometry": {"type": "Point", "coordinates": [10.8010955, 59.9148701]}},
{"type": "Feature", "id": "EkHhuRy13xIPNK3F3aQWobZJvlE=", "properties": {"ref": "Oslo-Etterstad (mailing adress)", "@spider": "cgi_group", "addr:full": "Postboks 6432 ", "addr:city": "Oslo", "addr:postcode": "0605", "addr:country": "Norway", "name": "Oslo-Etterstad (mailing adress)", "website": "https://www.cgi.com/en/offices?field_address_country_code=NO&field_address_administrative_area=All&field_address_locality=All"}, "geometry": {"type": "Point", "coordinates": [10.8015076, 59.9127954]}},
{"type": "Feature", "id": "J5aXu-1SUryGVgmgpDEPLPlSAdI=", "properties": {"ref": "Sarpsborg - R\u00e5dman Sirasvei (Visiting and mailing address)", "@spider": "cgi_group", "addr:full": "Hundskinnveien 94", "addr:city": "Sarpsborg", "addr:postcode": "1711", "addr:country": "Norway", "name": "Sarpsborg - R\u00e5dman Sirasvei (Visiting and mailing address)", "website": "https://www.cgi.com/en/offices?field_address_country_code=NO&field_address_administrative_area=All&field_address_locality=All"}, "geometry": {"type": "Point", "coordinates": [11.062799, 59.2943814]}},
{"type": "Feature", "id": "1e6YexTZpCdxB55xtsZztw5Yf1A=", "properties": {"ref": "Stavanger - Laberget (visiting adress)", "@spider": "cgi_group", "addr:full": "Veritasveien 25", "addr:city": "Stavanger", "addr:postcode": "4007", "addr:country": "Norway", "name": "Stavanger - Laberget (visiting adress)", "website": "https://www.cgi.com/en/offices?field_address_country_code=NO&field_address_administrative_area=All&field_address_locality=All"}, "geometry": {"type": "Point", "coordinates": [5.719889, 58.9795052]}},
{"type": "Feature", "id": "NbQGsboiXI5yGSQxLzS1HCC9xhA=", "properties": {"ref": "T\u00f8nsberg - Halfdan Wilhelmsens alle", "@spider": "cgi_group", "addr:full": "Kilengaten 1", "addr:city": "T\u00f8nsberg", "addr:postcode": "3117", "addr:country": "Norway", "name": "T\u00f8nsberg - Halfdan Wilhelmsens alle", "website": "https://www.cgi.com/en/offices?field_address_country_code=NO&field_address_administrative_area=All&field_address_locality=All"}, "geometry": {"type": "Point", "coordinates": [10.432414, 59.2744694]}},
{"type": "Feature", "id": "fqN3s7AqkfZqcJv2LFV0iySNAZE=", "properties": {"ref": "Bergen", "@spider": "cgi_group", "addr:full": "Edvard Griegs vei 3.", "addr:city": "Bergen", "addr:postcode": "5059", "addr:country": "Norway", "name": "Bergen", "website": "https://www.cgi.com/en/offices?field_address_country_code=NO&field_address_administrative_area=All&field_address_locality=All"}, "geometry": {"type": "Point", "coordinates": [5.326116, 60.394456]}},
{"type": "Feature", "id": "qDazq4NPrVBr_D8RS7NoxvUgivM=", "properties": {"ref": "Oslo \u2013 Tordenskioldsgate 8-10", "@spider": "cgi_group", "addr:full": "Tordenskioldsgate 8-10", "addr:city": "Oslo", "addr:postcode": "0160", "addr:country": "Norway", "name": "Oslo \u2013 Tordenskioldsgate 8-10", "website": "https://www.cgi.com/en/offices?field_address_country_code=NO&field_address_administrative_area=All&field_address_locality=All"}, "geometry": {"type": "Point", "coordinates": [10.741832, 59.909918]}},
{"type": "Feature", "id": "T5W4pjXfStJbxW6iDNNhr5AuY6k=", "properties": {"ref": "Stavanger ", "@spider": "cgi_group", "addr:full": "Postboks 414", "addr:city": "Stavanger", "addr:postcode": "4067", "addr:country": "Norway", "name": "Stavanger ", "website": "https://www.cgi.com/en/offices?field_address_country_code=NO&field_address_administrative_area=All&field_address_locality=All"}, "geometry": {"type": "Point", "coordinates": [5.733107, 58.969975]}},
{"type": "Feature", "id": "4cKBC8jncwodDvLofaoFf_l46zU=", "properties": {"ref": "Sandefjord", "@spider": "cgi_group", "addr:full": "\u00d8stre Kuller\u00f8d 5", "addr:city": "Sandefjord", "addr:postcode": "3241", "addr:country": "Norway", "name": "Sandefjord", "website": "https://www.cgi.com/en/offices?field_address_country_code=NO&field_address_administrative_area=All&field_address_locality=All"}, "geometry": {"type": "Point", "coordinates": [10.217530211340534, 59.17368705941458]}},
{"type": "Feature", "id": "OBeFKdKASzldhv1-rOo3osA8Ezs=", "properties": {"ref": "Trondheim", "@spider": "cgi_group", "addr:full": "Beddingen 8", "addr:city": "Trondheim", "addr:postcode": "7042", "addr:country": "Norway", "name": "Trondheim", "website": "https://www.cgi.com/en/offices?field_address_country_code=NO&field_address_administrative_area=All&field_address_locality=All"}, "geometry": {"type": "Point", "coordinates": [10.412554, 63.434991]}},
{"type": "Feature", "id": "qffwgr5ISYtRu3qllSmuQAg2kXE=", "properties": {"ref": "Arnhem", "@spider": "cgi_group", "addr:full": "Tivolilaan 205 \u2013 floor 7", "addr:city": "Arnhem", "addr:postcode": "6824 BV", "addr:country": "Netherlands", "name": "Arnhem", "website": "https://www.cgi.com/en/offices?field_address_country_code=NL&field_address_administrative_area=All&field_address_locality=All"}, "geometry": {"type": "Point", "coordinates": [5.9335157, 51.9873968]}},
{"type": "Feature", "id": "kl3o7Bs-jECsngxLmGFUv3TyC1E=", "properties": {"ref": "Eindhoven ", "@spider": "cgi_group", "addr:full": "High Tech Campus 5", "addr:city": "Eindhoven", "addr:postcode": "5656 AE", "addr:country": "Netherlands", "name": "Eindhoven ", "website": "https://www.cgi.com/en/offices?field_address_country_code=NL&field_address_administrative_area=All&field_address_locality=All"}, "geometry": {"type": "Point", "coordinates": [5.454583127016134, 51.41012140260092]}},
{"type": "Feature", "id": "WuvTKow9URhN1bgP1Oc9ww9LU3A=", "properties": {"ref": "Groningen - Eemsgolaan", "@spider": "cgi_group", "addr:full": "Eemsgolaan 1", "addr:city": "Groningen", "addr:postcode": "9727 DW", "addr:country": "Netherlands", "name": "Groningen - Eemsgolaan", "website": "https://www.cgi.com/en/offices?field_address_country_code=NL&field_address_administrative_area=All&field_address_locality=All"}, "geometry": {"type": "Point", "coordinates": [6.5239479, 53.1992731]}},
{"type": "Feature", "id": "eZ6ZKmc9llNolbpR1BJp3v1gQHk=", "properties": {"ref": "Rotterdam - George Hintzenweg", "@spider": "cgi_group", "addr:full": "George Hintzenweg 89", "addr:city": "Rotterdam", "addr:postcode": "3068 AX", "addr:country": "Netherlands", "name": "Rotterdam - George Hintzenweg", "website": "https://www.cgi.com/en/offices?field_address_country_code=NL&field_address_administrative_area=All&field_address_locality=All"}, "geometry": {"type": "Point", "coordinates": [4.558779239655, 51.952491760254]}},
{"type": "Feature", "id": "FAPH8Oh7oQNF76agPyOpaoBMYpA=", "properties": {"ref": "Maastricht", "@spider": "cgi_group", "addr:full": "Stationsplein 12", "addr:city": "Maastricht", "addr:postcode": "6221 BT", "addr:country": "Netherlands", "name": "Maastricht", "website": "https://www.cgi.com/en/offices?field_address_country_code=NL&field_address_administrative_area=All&field_address_locality=All"}, "geometry": {"type": "Point", "coordinates": [5.706087, 50.8482744]}},
{"type": "Feature", "id": "iZZ53zSbAJ53ma2eg22zuk385F0=", "properties": {"ref": "Amstelveen", "@spider": "cgi_group", "addr:full": "Handelsweg 53", "addr:city": "Amstelveen", "addr:postcode": "1181 ZA", "addr:country": "Netherlands", "name": "Amstelveen", "website": "https://www.cgi.com/en/offices?field_address_country_code=NL&field_address_administrative_area=All&field_address_locality=All"}, "geometry": {"type": "Point", "coordinates": [4.866133, 52.301371]}},
{"type": "Feature", "id": "qghrAo4Td2vQNKNApxsLCcBX0dY=", "properties": {"ref": "Amsterdam", "@spider": "cgi_group", "addr:full": "De Entree 21", "addr:city": "Amsterdam", "addr:postcode": "1101 BH", "addr:country": "Netherlands", "name": "Amsterdam", "website": "https://www.cgi.com/en/offices?field_address_country_code=NL&field_address_administrative_area=All&field_address_locality=All"}, "geometry": {"type": "Point", "coordinates": [4.939597, 52.311675]}},
{"type": "Feature", "id": "wSzluArgArV-7F9zRuVsMjBdVTQ=", "properties": {"ref": "Casablanca - Casanearshore", "@spider": "cgi_group", "addr:full": "Casablanca Nearshore Park", "addr:city": "Casablanca", "addr:country": "Morocco", "name": "Casablanca - Casanearshore", "website": "https://www.cgi.com/en/offices?field_address_country_code=MA&field_address_administrative_area=All&field_address_locality=All"}, "geometry": {"type": "Point", "coordinates": [-7.5898434, 33.5731104]}},
{"type": "Feature", "id": "_HoG64GVuG2quPixjQvOPqubzn0=", "properties": {"ref": "FES", "@spider": "cgi_group", "addr:full": "Route de Sidi Harazem", "addr:city": "F\u00e8s", "addr:country": "Morocco", "name": "FES", "website": "https://www.cgi.com/en/offices?field_address_country_code=MA&field_address_administrative_area=All&field_address_locality=All"}, "geometry": {"type": "Point", "coordinates": [-5.0078451, 34.0181246]}},
{"type": "Feature", "id": "T5_iA3FtLCT3bZff8ZQ6_3-ypQE=", "properties": {"ref": "RABAT", "@spider": "cgi_group", "addr:full": "Technopolis", "addr:city": "Rabat", "addr:country": "Morocco", "name": "RABAT", "website": "https://www.cgi.com/en/offices?field_address_country_code=MA&field_address_administrative_area=All&field_address_locality=All"}, "geometry": {"type": "Point", "coordinates": [-6.8498129, 33.9715904]}},
{"type": "Feature", "id": "V9QijruFhM8wXyOv4Ppf07-QCKw=", "properties": {"ref": "BRNO", "@spider": "cgi_group", "addr:full": "Lond\u00fdnsk\u00e9 n\u00e1m\u011bst\u00ed 881/6", "addr:city": "BRNO", "addr:postcode": "639 00", "addr:country": "Czechia", "name": "BRNO", "website": "https://www.cgi.com/en/offices?field_address_country_code=CZ&field_address_administrative_area=All&field_address_locality=All"}, "geometry": {"type": "Point", "coordinates": [16.6043593, 49.1802313]}},
{"type": "Feature", "id": "yoBX9qzbM-oQ5X4MAU8vd2zAlPU=", "properties": {"ref": "PRAHA", "@spider": "cgi_group", "addr:full": "Laurinova 2800/4", "addr:city": "PRAHA", "addr:postcode": "155 00", "addr:country": "Czechia", "name": "PRAHA", "website": "https://www.cgi.com/en/offices?field_address_country_code=CZ&field_address_administrative_area=All&field_address_locality=All"}, "geometry": {"type": "Point", "coordinates": [14.3419002, 50.0894679]}},
{"type": "Feature", "id": "6P2ll61BKqydoh2ntqTSs8V86lY=", "properties": {"ref": "OSTRAVA", "@spider": "cgi_group", "addr:full": "Technologick\u00e1 373/4", "addr:city": "OSTRAVA", "addr:postcode": "708 00", "addr:country": "Czechia", "name": "OSTRAVA", "website": "https://www.cgi.com/en/offices?field_address_country_code=CZ&field_address_administrative_area=All&field_address_locality=All"}, "geometry": {"type": "Point", "coordinates": [18.15556, 49.838424]}}]}