{"type":"FeatureCollection","features":[{"type": "Feature", "id": "7JIcC0nM0EmSpWoboF4i_JvlCdA=", "properties": {"ref": "1949", "@spider": "chicos", "addr:full": "225 E Front Street", "addr:city": "Traverse City", "addr:state": "MI", "addr:postcode": "49684", "addr:country": "US", "name": "East Front Street", "website": "https://stores.chicos.com/s/east-front-street", "brand": "Chico's"}, "geometry": {"type": "Point", "coordinates": [-85.61985, 44.764354]}},
{"type": "Feature", "id": "dwwDYiPNaAOr_xJQheMbx2L5PuA=", "properties": {"ref": "2567", "@spider": "chicos", "addr:full": "8702 Keystone Crossing Blv, SP 165B", "addr:city": "Indianapolis", "addr:state": "IN", "addr:postcode": "46240", "addr:country": "US", "name": "The Fashion Mall at Keystone", "website": "https://stores.chicos.com/s/chico-s-the-fashion-mall-at-keystone", "brand": "Chico's"}, "geometry": {"type": "Point", "coordinates": [-86.464005, 40.046574]}},
{"type": "Feature", "id": "-bHazJGEQcS3yXIo8pAOWDeIp4Q=", "properties": {"ref": "2253", "@spider": "chicos", "addr:full": "3450 Wrightsboro Rd., Ste A230", "addr:city": "Augusta", "addr:state": "GA", "addr:postcode": "30909", "addr:country": "US", "name": "Augusta Mall", "website": "https://stores.chicos.com/s/chico-s-augusta-mall", "brand": "Chico's"}, "geometry": {"type": "Point", "coordinates": [-82.0805568, 33.4654142]}},
{"type": "Feature", "id": "EImTIJzx3Yop4ArPRDfWpFhopFk=", "properties": {"ref": "2536", "@spider": "chicos", "addr:full": "102 North Walnut Street", "addr:city": "Bloomington", "addr:state": "IN", "addr:postcode": "47404", "addr:country": "US", "name": "102 North Walnut Street", "website": "https://stores.chicos.com/s/102-north-walnut-street", "brand": "Chico's"}, "geometry": {"type": "Point", "coordinates": [-86.5332104, 39.1667757]}},
{"type": "Feature", "id": "oBLdoEgJP70GzItGxd582LdCRQg=", "properties": {"ref": "2576", "@spider": "chicos", "addr:full": "500 Sagamore Pkwy", "addr:city": "West Lafayette", "addr:state": "IN", "addr:postcode": "47906", "addr:country": "US", "name": "University Square", "website": "https://stores.chicos.com/s/university-square", "brand": "Chico's"}, "geometry": {"type": "Point", "coordinates": [-86.9121069, 40.4541891]}},
{"type": "Feature", "id": "fdx7_bGZ9bP2GEBHPKBR_vlALpA=", "properties": {"ref": "2005", "@spider": "chicos", "addr:full": "196 Alps Rd, Ste 38", "addr:city": "Athens", "addr:state": "GA", "addr:postcode": "30606", "addr:country": "US", "name": "Colonial Promenade Beechwood", "website": "https://stores.chicos.com/s/colonial-promenade-beechwood", "brand": "Chico's"}, "geometry": {"type": "Point", "coordinates": [-83.4097617, 33.9452428]}},
{"type": "Feature", "id": "1FkvnYXl80fs6ebc62QPe-3FSVE=", "properties": {"ref": "2132", "@spider": "chicos", "addr:full": "1 North Forest Bch", "addr:city": "Hilton Head Island", "addr:state": "SC", "addr:postcode": "29928", "addr:country": "US", "name": "Coligny Plaza Shopping Center", "website": "https://stores.chicos.com/s/chico-s-coligny-plaza-shopping-center", "brand": "Chico's"}, "geometry": {"type": "Point", "coordinates": [-80.750865, 32.14434]}},
{"type": "Feature", "id": "Fhf4RxTIIKQBDt0kKbciKH7UV9A=", "properties": {"ref": "2248", "@spider": "chicos", "addr:full": "79 US HWY 41., Ste C&D", "addr:city": "Schererville", "addr:state": "IN", "addr:postcode": "46375", "addr:country": "US", "name": "Shops on Main Off The Rack", "website": "https://stores.chicos.com/s/shops-on-main-off-the-rack", "brand": "Chico's"}, "geometry": {"type": "Point", "coordinates": [-87.4504888, 41.4831184]}},
{"type": "Feature", "id": "27eRcgQYLOw_1l2IXFSG1tkpcjM=", "properties": {"ref": "2042", "@spider": "chicos", "addr:full": "835 N Michigan Avenue, Ste 301", "addr:city": "Chicago", "addr:state": "IL", "addr:postcode": "60611", "addr:country": "US", "name": "Water Tower Place", "website": "https://stores.chicos.com/s/chico-s-water-tower-place", "brand": "Chico's"}, "geometry": {"type": "Point", "coordinates": [-87.6236144, 41.8979718]}},
{"type": "Feature", "id": "LrcJjDIpkyR9DjNoocK9vMzyJJA=", "properties": {"ref": "2627", "@spider": "chicos", "addr:full": "3333 Buford Drive, Ste VC01A", "addr:city": "Buford", "addr:state": "GA", "addr:postcode": "30519", "addr:country": "US", "name": "Mall of Georgia", "website": "https://stores.chicos.com/s/chico-s-mall-of-georgia", "brand": "Chico's"}, "geometry": {"type": "Point", "coordinates": [-83.9847659, 34.0651493]}},
{"type": "Feature", "id": "N0PHx7k0X1Hevl17J96ZtIW-0a8=", "properties": {"ref": "2002", "@spider": "chicos", "addr:full": "410 Peachtree Parkway, Ste 4130", "addr:city": "Cumming", "addr:state": "GA", "addr:postcode": "30041", "addr:country": "US", "name": "The Collection at Forsyth", "website": "https://stores.chicos.com/s/chico-s-the-collection-at-forsyth", "brand": "Chico's"}, "geometry": {"type": "Point", "coordinates": [-84.1782583, 34.1540934]}},
{"type": "Feature", "id": "Z0En-G9dLmeH0t28xOXuGtsD0RI=", "properties": {"ref": "2499", "@spider": "chicos", "addr:full": "5525 Abercorn St, Ste 150", "addr:city": "Savannah", "addr:state": "GA", "addr:postcode": "31405", "addr:country": "US", "name": "Abercorn Walk", "website": "https://stores.chicos.com/s/chico-s-abercorn-walk", "brand": "Chico's"}, "geometry": {"type": "Point", "coordinates": [-81.1111707, 32.024832]}},
{"type": "Feature", "id": "8BOnSs2NC824UhoZKLuWppRiE5g=", "properties": {"ref": "1976", "@spider": "chicos", "addr:full": "2184 Northbrook Court", "addr:city": "Northbrook", "addr:state": "IL", "addr:postcode": "60062", "addr:country": "US", "name": "Northbrook Court", "website": "https://stores.chicos.com/s/chico-s-northbrook-court", "brand": "Chico's"}, "geometry": {"type": "Point", "coordinates": [-87.8175099, 42.1508911]}},
{"type": "Feature", "id": "1QAQ4H9gq3rnnpmdZcp0CqTOwr4=", "properties": {"ref": "2203", "@spider": "chicos", "addr:full": "8129 Honeygo Blvd, Suite H", "addr:city": "Baltimore", "addr:state": "MD", "addr:postcode": "21236", "addr:country": "US", "name": "The Avenue at White Marsh", "website": "https://stores.chicos.com/s/the-avenue-at-white-marsh", "brand": "Chico's"}, "geometry": {"type": "Point", "coordinates": [-76.4660991, 39.3711362]}},
{"type": "Feature", "id": "lZzI8TE8IKOLg3GNankjhgVsha4=", "properties": {"ref": "2587", "@spider": "chicos", "addr:full": "9500 W 143rd St, Ste 214", "addr:city": "Orland Park", "addr:state": "IL", "addr:postcode": "60462", "addr:country": "US", "name": "Orland Park Crossing", "website": "https://stores.chicos.com/s/chico-s-orland-park-crossing", "brand": "Chico's"}, "geometry": {"type": "Point", "coordinates": [-87.852121, 41.631855]}},
{"type": "Feature", "id": "rjUvS39aWT6tPVrDxztFrLSaUQQ=", "properties": {"ref": "2658", "@spider": "chicos", "addr:full": "2115 Gunbarrel Rd", "addr:city": "Chattanooga", "addr:state": "TN", "addr:postcode": "37421", "addr:country": "US", "name": "Hamilton Corner", "website": "https://stores.chicos.com/s/chico-s-hamilton-corner", "brand": "Chico's"}, "geometry": {"type": "Point", "coordinates": [-85.1540503, 35.0342165]}},
{"type": "Feature", "id": "dwBASx6emhSj1O7qTdjq3TRv76M=", "properties": {"ref": "2660", "@spider": "chicos", "addr:full": "329 Broadway", "addr:city": "Saratoga Springs", "addr:state": "NY", "addr:postcode": "12866", "addr:country": "US", "name": "Two Congress Park", "website": "https://stores.chicos.com/s/two-congress-park", "brand": "Chico's"}, "geometry": {"type": "Point", "coordinates": [-73.7859243, 43.0794339]}},
{"type": "Feature", "id": "5whjb5X-aC1qg2V03bMl0EjZBVE=", "properties": {"ref": "2584", "@spider": "chicos", "addr:full": "116 Shawan Rd, Ste 10", "addr:city": "Hunt Valley", "addr:state": "MD", "addr:postcode": "21030", "addr:country": "US", "name": "Hunt Valley Towne Centre", "website": "https://stores.chicos.com/s/hunt-valley-towne-centre", "brand": "Chico's"}, "geometry": {"type": "Point", "coordinates": [-76.6551706, 39.4971327]}},
{"type": "Feature", "id": "p9mmePyT9DMPe5ndLvyA5DyHrW8=", "properties": {"ref": "2423", "@spider": "chicos", "addr:full": "820 Dulaney Valley Road", "addr:city": "Towson", "addr:state": "MD", "addr:postcode": "21204", "addr:country": "US", "name": "Dulaney Plaza", "website": "https://stores.chicos.com/s/dulaney-plaza", "brand": "Chico's"}, "geometry": {"type": "Point", "coordinates": [-76.6026299, 39.404799]}},
{"type": "Feature", "id": "2fPk55w8LLB4jR_mdng8WD8Nbqg=", "properties": {"ref": "2250", "@spider": "chicos", "addr:full": "601 Donald Lynch Blvd, N111", "addr:city": "Marlborough", "addr:state": "MA", "addr:postcode": "01752", "addr:country": "US", "name": "Solomon Pond Mall", "website": "https://stores.chicos.com/s/chico-s-solomon-pond-mall", "brand": "Chico's"}, "geometry": {"type": "Point", "coordinates": [-71.6133216, 42.3561123]}},
{"type": "Feature", "id": "MHk76jmVcrgfjr4BDIAqp2vZSes=", "properties": {"ref": "2670", "@spider": "chicos", "addr:full": "1350 Scenic Highway, Ste 308", "addr:city": "Snellville", "addr:state": "GA", "addr:postcode": "30078", "addr:country": "US", "name": "The Shoppes at Webb Gin", "website": "https://stores.chicos.com/s/chico-s-the-shoppes-at-webb-gin", "brand": "Chico's"}, "geometry": {"type": "Point", "coordinates": [-84.0043752, 33.8977458]}},
{"type": "Feature", "id": "iT6atZvvAm2DTKUQ1PfQMjyEvPs=", "properties": {"ref": "2502", "@spider": "chicos", "addr:full": "970 Milwaukee Avenue, Ste H", "addr:city": "Lincolnshire", "addr:state": "IL", "addr:postcode": "60069", "addr:country": "US", "name": "Lincolnshire Commons", "website": "https://stores.chicos.com/s/chico-s-lincolnshire-commons", "brand": "Chico's"}, "geometry": {"type": "Point", "coordinates": [-87.9278289, 42.1816204]}},
{"type": "Feature", "id": "jVvjRFS8C0sDTjXTEcXYcT9Nfmw=", "properties": {"ref": "2177", "@spider": "chicos", "addr:full": "5151 Peachtree Pkwy, Ste 720", "addr:city": "Norcross", "addr:state": "GA", "addr:postcode": "30092", "addr:country": "US", "name": "The Forum on Peachtree Parkway", "website": "https://stores.chicos.com/s/chico-s-the-forum-on-peachtree-parkway", "brand": "Chico's"}, "geometry": {"type": "Point", "coordinates": [-84.2171102, 33.9807264]}},
{"type": "Feature", "id": "71SCO60UEyiscBJeaqBaObpmFJA=", "properties": {"ref": "2383", "@spider": "chicos", "addr:full": "7300 North Point Parkway, Ste 115", "addr:city": "Alpharetta", "addr:state": "GA", "addr:postcode": "30022", "addr:country": "US", "name": "North Point Village", "website": "https://stores.chicos.com/s/chico-s-north-point-village", "brand": "Chico's"}, "geometry": {"type": "Point", "coordinates": [-84.3017305, 34.0422922]}},
{"type": "Feature", "id": "9bM-1UPxj5f8O6DR978ACOXgVqY=", "properties": {"ref": "2096", "@spider": "chicos", "addr:full": "20530 N. Rand Road, Ste 332", "addr:city": "Deer Park", "addr:state": "IL", "addr:postcode": "60010", "addr:country": "US", "name": "Deer Park Town Center", "website": "https://stores.chicos.com/s/chico-s-deer-park-town-center", "brand": "Chico's"}, "geometry": {"type": "Point", "coordinates": [-88.053225, 42.1603071]}},
{"type": "Feature", "id": "sw8L5ITJQypCLT2nx9c1wvwNr_U=", "properties": {"ref": "2032", "@spider": "chicos", "addr:full": "241 Town Sq", "addr:city": "Wheaton", "addr:state": "IL", "addr:postcode": "60189", "addr:country": "US", "name": "Town Square Wheaton", "website": "https://stores.chicos.com/s/chico-s-town-square-wheaton", "brand": "Chico's"}, "geometry": {"type": "Point", "coordinates": [-88.10058, 41.83635]}},
{"type": "Feature", "id": "j-dEg4jJPCNcU7vbvK1gdKDqhVE=", "properties": {"ref": "2090", "@spider": "chicos", "addr:full": "1809 Reisterstown Road, Ste 108", "addr:city": "Baltimore", "addr:state": "MD", "addr:postcode": "21208", "addr:country": "US", "name": "Festival at Woodholme", "website": "https://stores.chicos.com/s/festival-at-woodholme", "brand": "Chico's"}, "geometry": {"type": "Point", "coordinates": [-76.7360638, 39.388215]}},
{"type": "Feature", "id": "f3HiVx15zEpbgFN5O0QjMQULTt4=", "properties": {"ref": "1625", "@spider": "chicos", "addr:full": "1245 Worcester Street, Ste 3016", "addr:city": "Natick", "addr:state": "MA", "addr:postcode": "01760", "addr:country": "US", "name": "Natick Mall", "website": "https://stores.chicos.com/s/chico-s-natick-mall", "brand": "Chico's"}, "geometry": {"type": "Point", "coordinates": [-71.3819171, 42.301113]}},
{"type": "Feature", "id": "IVgTXcvZHdasQ5iC7LK_ixK9qnQ=", "properties": {"ref": "2093", "@spider": "chicos", "addr:full": "95 Washington St", "addr:city": "Canton", "addr:state": "MA", "addr:postcode": "02021", "addr:country": "US", "name": "Village Shoppes", "website": "https://stores.chicos.com/s/village-shoppes", "brand": "Chico's"}, "geometry": {"type": "Point", "coordinates": [-71.1449309, 42.1387149]}},
{"type": "Feature", "id": "JBHUPLF1GfqsKtf1ZE_dLUXx68s=", "properties": {"ref": "2233", "@spider": "chicos", "addr:full": "2737-C N Salisbury Blvd", "addr:city": "Salisbury", "addr:state": "MD", "addr:postcode": "21801", "addr:country": "US", "name": "Avalon Plaza Shopping Center", "website": "https://stores.chicos.com/s/avalon-plaza-shopping-center", "brand": "Chico's"}, "geometry": {"type": "Point", "coordinates": [-75.5658912, 38.4166101]}},
{"type": "Feature", "id": "IKzbVq8rrT2TcJ1BlK1Odik3EPM=", "properties": {"ref": "2785", "@spider": "chicos", "addr:full": "2488 Solomons Island Rd, G-7", "addr:city": "Annapolis", "addr:state": "MD", "addr:postcode": "21401", "addr:country": "US", "name": "Annapolis Harbour Center", "website": "https://stores.chicos.com/s/chico-s-annapolis-harbour-center", "brand": "Chico's"}, "geometry": {"type": "Point", "coordinates": [-76.544669, 38.976011]}},
{"type": "Feature", "id": "XnY_IMbmcWIFtOW5WwTRHNywuu0=", "properties": {"ref": "2424", "@spider": "chicos", "addr:full": "145 Great Rd, Spc 4", "addr:city": "Acton", "addr:state": "MA", "addr:postcode": "01720", "addr:country": "US", "name": "Brookside Shops", "website": "https://stores.chicos.com/s/brookside-shops", "brand": "Chico's"}, "geometry": {"type": "Point", "coordinates": [-71.4145229, 42.4826946]}},
{"type": "Feature", "id": "JGkKzZ9H22wcj0-PhY6IG9Lvy_M=", "properties": {"ref": "2163", "@spider": "chicos", "addr:full": "199 Boylston Street, S133", "addr:city": "Chestnut Hill", "addr:state": "MA", "addr:postcode": "02467", "addr:country": "US", "name": "The Mall at Chestnut Hill", "website": "https://stores.chicos.com/s/chico-s-the-mall-at-chestnut-hill", "brand": "Chico's"}, "geometry": {"type": "Point", "coordinates": [-71.1760576, 42.3214068]}},
{"type": "Feature", "id": "wSjAQNYr4U_5JuY0s7yqzUHyM2A=", "properties": {"ref": "2161", "@spider": "chicos", "addr:full": "75 Middlesex Turnpike", "addr:city": "Burlington", "addr:state": "MA", "addr:postcode": "01803", "addr:country": "US", "name": "Burlington Mall", "website": "https://stores.chicos.com/s/chico-s-burlington-mall", "brand": "Chico's"}, "geometry": {"type": "Point", "coordinates": [-71.2135082, 42.482538]}},
{"type": "Feature", "id": "_nlDisl65HfvhTRtulHxXvdKPrU=", "properties": {"ref": "2376", "@spider": "chicos", "addr:full": "4475 Roswell Rd, Ste 1500", "addr:city": "Marietta", "addr:state": "GA", "addr:postcode": "30062", "addr:country": "US", "name": "The Avenue East Cobb", "website": "https://stores.chicos.com/s/chico-s-the-avenue-east-cobb", "brand": "Chico's"}, "geometry": {"type": "Point", "coordinates": [-84.4205625, 33.9882766]}},
{"type": "Feature", "id": "FK4MbvTSA0eB4Gak8ggxHMWUTqk=", "properties": {"ref": "2242", "@spider": "chicos", "addr:full": "131 West Jefferson Ave, # 111", "addr:city": "Naperville", "addr:state": "IL", "addr:postcode": "60540", "addr:country": "US", "name": "131 West Jefferson Avenue", "website": "https://stores.chicos.com/s/131-west-jefferson-avenue", "brand": "Chico's"}, "geometry": {"type": "Point", "coordinates": [-88.1507414, 41.7732758]}},
{"type": "Feature", "id": "hDRuB6lagqhyhk-B1QUQei2b18g=", "properties": {"ref": "2125", "@spider": "chicos", "addr:full": "100 West Higgins Rd, Sc R-1", "addr:city": "S Barrington", "addr:state": "IL", "addr:postcode": "60010", "addr:country": "US", "name": "The Arboretum of South Barrington", "website": "https://stores.chicos.com/s/chico-s-the-arboretum-of-south-barrington", "brand": "Chico's"}, "geometry": {"type": "Point", "coordinates": [-88.1535352, 42.0881054]}},
{"type": "Feature", "id": "so1FHjYY33FEJlinBjnTBCJvZ50=", "properties": {"ref": "2298", "@spider": "chicos", "addr:full": "2385 Peachtree Rd, Ste A1CD", "addr:city": "Atlanta", "addr:state": "GA", "addr:postcode": "30305", "addr:country": "US", "name": "Peachtree Battle Promenade", "website": "https://stores.chicos.com/s/peachtree-battle-promenade", "brand": "Chico's"}, "geometry": {"type": "Point", "coordinates": [-84.3877071, 33.8198768]}},
{"type": "Feature", "id": "1cqnn8mliP6vW92_rr8GVNZRegE=", "properties": {"ref": "2086", "@spider": "chicos", "addr:full": "1634 Cumberland Mall SE", "addr:city": "Atlanta", "addr:state": "GA", "addr:postcode": "30339", "addr:country": "US", "name": "Cumberland Mall", "website": "https://stores.chicos.com/s/chico-s-cumberland-mall", "brand": "Chico's"}, "geometry": {"type": "Point", "coordinates": [-84.46885, 33.8813326]}},
{"type": "Feature", "id": "k6WroN8ITmMfWX43rdAgzm7PkVE=", "properties": {"ref": "1573", "@spider": "chicos", "addr:full": "326 Commons Dr", "addr:city": "Geneva", "addr:state": "IL", "addr:postcode": "60134", "addr:country": "US", "name": "Geneva Commons", "website": "https://stores.chicos.com/s/geneva-commons", "brand": "Chico's"}, "geometry": {"type": "Point", "coordinates": [-88.3431642, 41.8946543]}},
{"type": "Feature", "id": "J40hggXJKBn4qZNFt4Wg5MtLhmI=", "properties": {"ref": "2715", "@spider": "chicos", "addr:full": "3625 Dallas Hwy SW, Ste 620", "addr:city": "Marietta", "addr:state": "GA", "addr:postcode": "30064", "addr:country": "US", "name": "The Avenue West Cobb", "website": "https://stores.chicos.com/s/chico-s-the-avenue-west-cobb", "brand": "Chico's"}, "geometry": {"type": "Point", "coordinates": [-84.6570419, 33.9522431]}},
{"type": "Feature", "id": "C8Q8TyzvwT5NRqtiOc0wzDbNVFo=", "properties": {"ref": "2066", "@spider": "chicos", "addr:full": "5080 Riverside Dr, Ste 428", "addr:city": "Macon", "addr:state": "GA", "addr:postcode": "31210", "addr:country": "US", "name": "The Shoppes at River Crossing", "website": "https://stores.chicos.com/s/chico-s-the-shoppes-at-river-crossing", "brand": "Chico's"}, "geometry": {"type": "Point", "coordinates": [-83.7151055, 32.9250006]}},
{"type": "Feature", "id": "LisbSYpdhrffnZ0F8NBNybl19Uo=", "properties": {"ref": "2018", "@spider": "chicos", "addr:full": "98 Derby Street, Ste 409", "addr:city": "Hingham", "addr:state": "MA", "addr:postcode": "02043", "addr:country": "US", "name": "Derby Street Shoppes", "website": "https://stores.chicos.com/s/chico-s-derby-street-shoppes", "brand": "Chico's"}, "geometry": {"type": "Point", "coordinates": [-70.9095583, 42.1775627]}},
{"type": "Feature", "id": "-xJj6J9awic0n-1xL-Na_U94nQQ=", "properties": {"ref": "2263", "@spider": "chicos", "addr:full": "6780 E Genesee Street", "addr:city": "Fayetteville", "addr:state": "NY", "addr:postcode": "13066", "addr:country": "US", "name": "6780 East Genesee Street", "website": "https://stores.chicos.com/s/6780-east-genesee-street", "brand": "Chico's"}, "geometry": {"type": "Point", "coordinates": [-76.0537929, 43.0312234]}},
{"type": "Feature", "id": "SVXFBnr2UGdxtFDT78hC_nxamUg=", "properties": {"ref": "1563", "@spider": "chicos", "addr:full": "20 Market St", "addr:city": "Mashpee", "addr:state": "MA", "addr:postcode": "02649", "addr:country": "US", "name": "Mashpee Commons", "website": "https://stores.chicos.com/s/mashpee-commons", "brand": "Chico's"}, "geometry": {"type": "Point", "coordinates": [-70.4908261, 41.6168084]}},
{"type": "Feature", "id": "lU5ldNkTm8Kn_elsFd-AJXR2euM=", "properties": {"ref": "2564", "@spider": "chicos", "addr:full": "325 Market St", "addr:city": "Lynnfield", "addr:state": "MA", "addr:postcode": "01940", "addr:country": "US", "name": "Marketstreet Lynnfield", "website": "https://stores.chicos.com/s/chico-s-marketstreet-lynnfield", "brand": "Chico's"}, "geometry": {"type": "Point", "coordinates": [-71.0336889, 42.51455]}},
{"type": "Feature", "id": "b2z9p0g9mcoIW9-ZT6hbyrMfaTc=", "properties": {"ref": "2579", "@spider": "chicos", "addr:full": "10733 Colesville Rd", "addr:city": "Silver Spring", "addr:state": "MD", "addr:postcode": "20901", "addr:country": "US", "name": "Burnt Mills", "website": "https://stores.chicos.com/s/burnt-mills", "brand": "Chico's"}, "geometry": {"type": "Point", "coordinates": [-77.005998, 39.029966]}},
{"type": "Feature", "id": "GKATE1SCX620K_awieYdMW6zFmM=", "properties": {"ref": "2586", "@spider": "chicos", "addr:full": "119 Turnpike St", "addr:city": "North Andover", "addr:state": "MA", "addr:postcode": "01845", "addr:country": "US", "name": "Eaglewood Shops", "website": "https://stores.chicos.com/s/eaglewood-shops", "brand": "Chico's"}, "geometry": {"type": "Point", "coordinates": [-71.1307489, 42.6767459]}},
{"type": "Feature", "id": "biGNa-vUMut2sMTqY_Nh9xV1qmw=", "properties": {"ref": "1990", "@spider": "chicos", "addr:full": "1657 Rockville Pike, Sp 2-11", "addr:city": "Rockville", "addr:state": "MD", "addr:postcode": "20852", "addr:country": "US", "name": "Congressional Plaza", "website": "https://stores.chicos.com/s/chico-s-congressional-plaza", "brand": "Chico's"}, "geometry": {"type": "Point", "coordinates": [-77.126857, 39.061766]}},
{"type": "Feature", "id": "NTaDIU5G45ul3sg7GDGJ-1VD5Js=", "properties": {"ref": "2089", "@spider": "chicos", "addr:full": "210 Andover Street, Spc E188", "addr:city": "Peabody", "addr:state": "MA", "addr:postcode": "01960", "addr:country": "US", "name": "Northshore Mall", "website": "https://stores.chicos.com/s/chico-s-northshore-mall", "brand": "Chico's"}, "geometry": {"type": "Point", "coordinates": [-70.9442999, 42.5411047]}},
{"type": "Feature", "id": "9o6WVtBuxP9MxiXpA9_dju94NyE=", "properties": {"ref": "2015", "@spider": "chicos", "addr:full": "20 Grand Corner Ave, Ste B", "addr:city": "Gaithersburg", "addr:state": "MD", "addr:postcode": "20878", "addr:country": "US", "name": "Washingtonian Center", "website": "https://stores.chicos.com/s/chico-s-washingtonian-center", "brand": "Chico's"}, "geometry": {"type": "Point", "coordinates": [-77.2018493, 39.118273]}},
{"type": "Feature", "id": "QJaqijVL7b3lG2MH2uC6_lQzWfI=", "properties": {"ref": "2717", "@spider": "chicos", "addr:full": "5215 Buckeystown Pike", "addr:city": "Frederick", "addr:state": "MD", "addr:postcode": "21704", "addr:country": "US", "name": "Westview Promenade", "website": "https://stores.chicos.com/s/chico-s-westview-promenade", "brand": "Chico's"}, "geometry": {"type": "Point", "coordinates": [-77.4121128, 39.3742284]}},
{"type": "Feature", "id": "wT1-ZoHUdPcrLkjb6KW4uZhBYPE=", "properties": {"ref": "2078", "@spider": "chicos", "addr:full": "248 City Cir, Suite 1200", "addr:city": "Peachtree City", "addr:state": "GA", "addr:postcode": "30269", "addr:country": "US", "name": "The Avenue Peachtree City", "website": "https://stores.chicos.com/s/chico-s-the-avenue-peachtree-city", "brand": "Chico's"}, "geometry": {"type": "Point", "coordinates": [-84.592079, 33.3946523]}},
{"type": "Feature", "id": "RzvENi-PXkmZQWV5GAOAWReVaxY=", "properties": {"ref": "2119", "@spider": "chicos", "addr:full": "600 Sea Island Rd, Ste 26", "addr:city": "Saint Simons Island", "addr:state": "GA", "addr:postcode": "31522", "addr:country": "US", "name": "Shops at Sea Island", "website": "https://stores.chicos.com/s/chico-s-shops-at-sea-island", "brand": "Chico's"}, "geometry": {"type": "Point", "coordinates": [-81.379091, 31.1833788]}},
{"type": "Feature", "id": "dpFOoO7uudAW2nQiHKLhyn1gKsY=", "properties": {"ref": "2473", "@spider": "chicos", "addr:full": "7160 Harrison Avenue, Ste 4", "addr:city": "Rockford", "addr:state": "IL", "addr:postcode": "61112", "addr:country": "US", "name": "CherryVale Mall", "website": "https://stores.chicos.com/s/chico-s-cherryvale-mall", "brand": "Chico's"}, "geometry": {"type": "Point", "coordinates": [-88.977401, 42.244451]}},
{"type": "Feature", "id": "hTJdV3PjwNs8jkPV6c8o3q1_rRQ=", "properties": {"ref": "2581", "@spider": "chicos", "addr:full": "303 Veterans Parkway, Ste 130", "addr:city": "Normal", "addr:state": "IL", "addr:postcode": "61761", "addr:country": "US", "name": "The Shoppes at College Hills", "website": "https://stores.chicos.com/s/chico-s-the-shoppes-at-college-hills", "brand": "Chico's"}, "geometry": {"type": "Point", "coordinates": [-88.955502, 40.5075211]}},
{"type": "Feature", "id": "NCeXiU9N4n5q-nngUO388B1h4RE=", "properties": {"ref": "2382", "@spider": "chicos", "addr:full": "2801 Memorial Parkway SW, Spc 189", "addr:city": "Huntsville", "addr:state": "AL", "addr:postcode": "35801", "addr:country": "US", "name": "Parkway Place", "website": "https://stores.chicos.com/s/parkway-place", "brand": "Chico's"}, "geometry": {"type": "Point", "coordinates": [-86.5872707, 34.7072886]}},
{"type": "Feature", "id": "_SK7ict8HTRhUNh9Ts2LivaBlwI=", "properties": {"ref": "2085", "@spider": "chicos", "addr:full": "4611 Sangamore Rd, #P", "addr:city": "Bethesda", "addr:state": "MD", "addr:postcode": "20816", "addr:country": "US", "name": "The Shops at Sumner Place", "website": "https://stores.chicos.com/s/the-shops-at-sumner-place", "brand": "Chico's"}, "geometry": {"type": "Point", "coordinates": [-77.1192012, 38.9492383]}},
{"type": "Feature", "id": "qlXMvNmbQGC9Ts2FOnprtBxFT4c=", "properties": {"ref": "2299", "@spider": "chicos", "addr:full": "6823 Redmond Drive, Unit B-5", "addr:city": "McLean", "addr:state": "VA", "addr:postcode": "22101", "addr:country": "US", "name": "McLean Center", "website": "https://stores.chicos.com/s/mclean-center", "brand": "Chico's"}, "geometry": {"type": "Point", "coordinates": [-77.1802441, 38.9336654]}},
{"type": "Feature", "id": "o0cJtSRmA7cogCByW_2ABapCyKY=", "properties": {"ref": "2417", "@spider": "chicos", "addr:full": "802 King Street", "addr:city": "Alexandria", "addr:state": "VA", "addr:postcode": "22314", "addr:country": "US", "name": "802 King Street", "website": "https://stores.chicos.com/s/802-king-street", "brand": "Chico's"}, "geometry": {"type": "Point", "coordinates": [-77.048216, 38.8052006]}},
{"type": "Feature", "id": "tKuxWFXvmBhkG9yPdmAomWaIXxo=", "properties": {"ref": "2297", "@spider": "chicos", "addr:full": "7990 Tysons Corner Cente, Space D1U", "addr:city": "McLean", "addr:state": "VA", "addr:postcode": "22102", "addr:country": "US", "name": "Tysons Corner Center", "website": "https://stores.chicos.com/s/chico-s-tysons-corner-center", "brand": "Chico's"}, "geometry": {"type": "Point", "coordinates": [-77.2230819, 38.9182702]}},
{"type": "Feature", "id": "vQRTIwwUJ6OMPLP8MJJkyuD-Q_o=", "properties": {"ref": "2588", "@spider": "chicos", "addr:full": "3076 Waldorf Market Pl", "addr:city": "Waldorf", "addr:state": "MD", "addr:postcode": "20603", "addr:country": "US", "name": "Waldorf Market Place", "website": "https://stores.chicos.com/s/waldorf-market-place", "brand": "Chico's"}, "geometry": {"type": "Point", "coordinates": [-76.914363, 38.6272731]}},
{"type": "Feature", "id": "Dcopjvk_JGPeHMxZt28SAGqi5fE=", "properties": {"ref": "1988", "@spider": "chicos", "addr:full": "11910 Market Street", "addr:city": "Reston", "addr:state": "VA", "addr:postcode": "20190", "addr:country": "US", "name": "Reston Town Center", "website": "https://stores.chicos.com/s/chico-s-reston-town-center", "brand": "Chico's"}, "geometry": {"type": "Point", "coordinates": [-77.3565192, 38.9589472]}},
{"type": "Feature", "id": "shSrTpr6U3m-htPM38gBXu_5rxI=", "properties": {"ref": "2363", "@spider": "chicos", "addr:full": "270 Loudon Rd, Ste 1160", "addr:city": "Concord", "addr:state": "NH", "addr:postcode": "03301", "addr:country": "US", "name": "Steeplegate Mall", "website": "https://stores.chicos.com/s/steeplegate-mall", "brand": "Chico's"}, "geometry": {"type": "Point", "coordinates": [-71.4857538, 43.2227443]}},
{"type": "Feature", "id": "c6scB94ci29Wm3-Aod_72D_NxLs=", "properties": {"ref": "2723", "@spider": "chicos", "addr:full": "4216 Fairfax Corner W Avenue", "addr:city": "Fairfax", "addr:state": "VA", "addr:postcode": "22030", "addr:country": "US", "name": "Fairfax Corner", "website": "https://stores.chicos.com/s/chico-s-fairfax-corner", "brand": "Chico's"}, "geometry": {"type": "Point", "coordinates": [-77.3571607, 38.8582075]}},
{"type": "Feature", "id": "e923cSJqlwNoN-zF6G3BElLtHmk=", "properties": {"ref": "1944", "@spider": "chicos", "addr:full": "15001 Potomac Town Place, Suite 140", "addr:city": "Woodbridge", "addr:state": "VA", "addr:postcode": "22191", "addr:country": "US", "name": "Stonebridge at Potomac Town Center", "website": "https://stores.chicos.com/s/chico-s-stonebridge-at-potomac-town-center", "brand": "Chico's"}, "geometry": {"type": "Point", "coordinates": [-77.2875744, 38.6291031]}},
{"type": "Feature", "id": "zv1-9DHTqk4YhEj2EdqWfVt2JjI=", "properties": {"ref": "2403", "@spider": "chicos", "addr:full": "7354 Atlas Walk Way", "addr:city": "Gainesville", "addr:state": "VA", "addr:postcode": "20155", "addr:country": "US", "name": "Virginia Gateway", "website": "https://stores.chicos.com/s/chico-s-virginia-gateway", "brand": "Chico's"}, "geometry": {"type": "Point", "coordinates": [-77.6093323, 38.796311]}},
{"type": "Feature", "id": "8YCluk3_SEQ25gIaqvusZR6ImyM=", "properties": {"ref": "2630", "@spider": "chicos", "addr:full": "340 The Bridge Street, Ste 100", "addr:city": "Huntsville", "addr:state": "AL", "addr:postcode": "35806", "addr:country": "US", "name": "Bridge Street Town Centre (Huntsvil", "website": "https://stores.chicos.com/s/chico-s-bridge-street-town-centre-huntsvil", "brand": "Chico's"}, "geometry": {"type": "Point", "coordinates": [-86.6731849, 34.7174527]}},
{"type": "Feature", "id": "GEZOL3I4jqxZsmJpP4eKC6ZkntY=", "properties": {"ref": "2789", "@spider": "chicos", "addr:full": "93 Amelia Village Circle", "addr:city": "Amelia Island", "addr:state": "FL", "addr:postcode": "32034", "addr:country": "US", "name": "Shops at Amelia Island Plantation", "website": "https://stores.chicos.com/s/shops-at-amelia-island-plantation", "brand": "Chico's"}, "geometry": {"type": "Point", "coordinates": [-81.4455684, 30.5785318]}},
{"type": "Feature", "id": "7HJ9g4m16Ft_fnN6fYuJJq23AlI=", "properties": {"ref": "2112", "@spider": "chicos", "addr:full": "5201 W War Memorial Dr, Sp 430", "addr:city": "Peoria", "addr:state": "IL", "addr:postcode": "61615", "addr:country": "US", "name": "Shoppes at Grand Prairie", "website": "https://stores.chicos.com/s/chico-s-shoppes-at-grand-prairie", "brand": "Chico's"}, "geometry": {"type": "Point", "coordinates": [-89.5889864, 40.6936488]}},
{"type": "Feature", "id": "84haJFsJg2dicKtFo559daKCZNI=", "properties": {"ref": "2110", "@spider": "chicos", "addr:full": "2925 Plaza Drive", "addr:city": "Springfield", "addr:state": "IL", "addr:postcode": "62704", "addr:country": "US", "name": "The Gables", "website": "https://stores.chicos.com/s/the-gables", "brand": "Chico's"}, "geometry": {"type": "Point", "coordinates": [-89.708642, 39.7742636]}},
{"type": "Feature", "id": "RAhnrEfXX4Y7nTuqquZ1I5IbAFQ=", "properties": {"ref": "2219", "@spider": "chicos", "addr:full": "14 North Main St", "addr:city": "Chagrin Falls", "addr:state": "OH", "addr:postcode": "44022", "addr:country": "US", "name": "14 North Main Street", "website": "https://stores.chicos.com/s/14-north-main-street", "brand": "Chico's"}, "geometry": {"type": "Point", "coordinates": [-81.3909784, 41.4303154]}},
{"type": "Feature", "id": "GbbwrHOBZlyeaR3wX-9Obpks27o=", "properties": {"ref": "2537", "@spider": "chicos", "addr:full": "92 1st Street", "addr:city": "Hudson", "addr:state": "OH", "addr:postcode": "44236", "addr:country": "US", "name": "First & Main", "website": "https://stores.chicos.com/s/chico-s-first-main", "brand": "Chico's"}, "geometry": {"type": "Point", "coordinates": [-81.4422509, 41.2417555]}},
{"type": "Feature", "id": "YsKkxaaGUlvxZrlTzVpLvHC9oFE=", "properties": {"ref": "2062", "@spider": "chicos", "addr:full": "25339 Cedar Road, Unit K-118", "addr:city": "Lyndhurst", "addr:state": "OH", "addr:postcode": "44124", "addr:country": "US", "name": "Legacy Village", "website": "https://stores.chicos.com/s/legacy-village", "brand": "Chico's"}, "geometry": {"type": "Point", "coordinates": [-81.4887, 41.5201]}},
{"type": "Feature", "id": "9XA6mCpRUBOYLzkX88Cf-1yb4_Y=", "properties": {"ref": "2260", "@spider": "chicos", "addr:full": "3349 Monroe Ave, Ste 45", "addr:city": "Rochester", "addr:state": "NY", "addr:postcode": "14618", "addr:country": "US", "name": "Pittsford Plaza", "website": "https://stores.chicos.com/s/chico-s-pittsford-plaza", "brand": "Chico's"}, "geometry": {"type": "Point", "coordinates": [-77.5385893, 43.1022298]}},
{"type": "Feature", "id": "aD0ewVah0ersNpoHqiZra0oYk5I=", "properties": {"ref": "2156", "@spider": "chicos", "addr:full": "3103 Valley Ave, Ste 108", "addr:city": "Winchester", "addr:state": "VA", "addr:postcode": "22601", "addr:country": "US", "name": "Creekside Station", "website": "https://stores.chicos.com/s/creekside-station", "brand": "Chico's"}, "geometry": {"type": "Point", "coordinates": [-78.1907674, 39.14286]}},
{"type": "Feature", "id": "IIeGCzbOoeA2M5i-K4gUVuQY8SI=", "properties": {"ref": "2108", "@spider": "chicos", "addr:full": "1 Towne Centre Blvd, 3600", "addr:city": "Fredericksburg", "addr:state": "VA", "addr:postcode": "22407", "addr:country": "US", "name": "Village at Spotsylvania Towne Centr", "website": "https://stores.chicos.com/s/village-at-spotsylvania-towne-centr", "brand": "Chico's"}, "geometry": {"type": "Point", "coordinates": [-77.5119391, 38.2898717]}},
{"type": "Feature", "id": "odDedO8Ad9ClAAjFBvzv6qjY1eE=", "properties": {"ref": "2092", "@spider": "chicos", "addr:full": "364 Maine Mall Road", "addr:city": "South Portland", "addr:state": "ME", "addr:postcode": "04106", "addr:country": "US", "name": "Maine Mall", "website": "https://stores.chicos.com/s/chico-s-maine-mall", "brand": "Chico's"}, "geometry": {"type": "Point", "coordinates": [-70.3344073, 43.6337186]}},
{"type": "Feature", "id": "6A4A9EIYpQ9I0saJsi3auZbdeog=", "properties": {"ref": "2118", "@spider": "chicos", "addr:full": "422 W Duke of Gloucester St", "addr:city": "Williamsburg", "addr:state": "VA", "addr:postcode": "23185", "addr:country": "US", "name": "Merchants Square", "website": "https://stores.chicos.com/s/merchants-square", "brand": "Chico's"}, "geometry": {"type": "Point", "coordinates": [-76.7065986, 37.2705781]}},
{"type": "Feature", "id": "C7MCuh6yWylUD5uN4csaKB4Cass=", "properties": {"ref": "2284", "@spider": "chicos", "addr:full": "5106 Main St.", "addr:city": "Williamsburg", "addr:state": "VA", "addr:postcode": "23188", "addr:country": "US", "name": "New Town Shops on Main", "website": "https://stores.chicos.com/s/new-town-shops-on-main", "brand": "Chico's"}, "geometry": {"type": "Point", "coordinates": [-76.7407512, 37.2781095]}},
{"type": "Feature", "id": "6Ikv9R_Cg2kCATz8HDgkPjFLH-8=", "properties": {"ref": "2624", "@spider": "chicos", "addr:full": "11800 W Broad St, Ste 2324", "addr:city": "Richmond", "addr:state": "VA", "addr:postcode": "23233", "addr:country": "US", "name": "Short Pump Town Center", "website": "https://stores.chicos.com/s/chico-s-short-pump-town-center", "brand": "Chico's"}, "geometry": {"type": "Point", "coordinates": [-77.6201591, 37.6568884]}},
{"type": "Feature", "id": "3H1A8_G71H1Ioad7O_aA13GV5ic=", "properties": {"ref": "1919", "@spider": "chicos", "addr:full": "5027 Huguenot Road", "addr:city": "Richmond", "addr:state": "VA", "addr:postcode": "23226", "addr:country": "US", "name": "River Road II", "website": "https://stores.chicos.com/s/chico-s-river-road-ii", "brand": "Chico's"}, "geometry": {"type": "Point", "coordinates": [-77.5376561, 37.5672372]}},
{"type": "Feature", "id": "ZoLu9xpKk2Q6ngKNbzc0Rpszb7U=", "properties": {"ref": "2077", "@spider": "chicos", "addr:full": "5151 Main St, Unit 3", "addr:city": "Williamsville", "addr:state": "NY", "addr:postcode": "14221", "addr:country": "US", "name": "5151 Main Street, Unit 3", "website": "https://stores.chicos.com/s/5151-main-street-unit-3", "brand": "Chico's"}, "geometry": {"type": "Point", "coordinates": [-78.7603743, 42.9598014]}},
{"type": "Feature", "id": "GtyIQrhD9z_VAQZem6dwRbOVmCI=", "properties": {"ref": "2675", "@spider": "chicos", "addr:full": "725 Eden Way, Ste 720", "addr:city": "Chesapeake", "addr:state": "VA", "addr:postcode": "23320", "addr:country": "US", "name": "Towne Place at Greenbrier", "website": "https://stores.chicos.com/s/towne-place-at-greenbrier", "brand": "Chico's"}, "geometry": {"type": "Point", "coordinates": [-76.2357082, 36.7722891]}},
{"type": "Feature", "id": "sVssARP163CjdJoorOl0GKLLHyE=", "properties": {"ref": "2196", "@spider": "chicos", "addr:full": "709 Mall Circle Dr", "addr:city": "Monroeville", "addr:state": "PA", "addr:postcode": "15146", "addr:country": "US", "name": "Monroeville Mall", "website": "https://stores.chicos.com/s/chico-s-monroeville-mall", "brand": "Chico's"}, "geometry": {"type": "Point", "coordinates": [-79.7955846, 40.4294863]}},
{"type": "Feature", "id": "IGzIH4K9qNBDRmhxOStvLGLpSOE=", "properties": {"ref": "2529", "@spider": "chicos", "addr:full": "1000 Ross Park Mall Dr, L15A", "addr:city": "Pittsburgh", "addr:state": "PA", "addr:postcode": "15237", "addr:country": "US", "name": "Ross Park Mall", "website": "https://stores.chicos.com/s/chico-s-ross-park-mall", "brand": "Chico's"}, "geometry": {"type": "Point", "coordinates": [-80.0199562, 40.5569121]}},
{"type": "Feature", "id": "h_2mvXvYmwpKA2-CkFOqijWDDiI=", "properties": {"ref": "2044", "@spider": "chicos", "addr:full": "301 S Hills Village, Ste 1230", "addr:city": "Pittsburgh", "addr:state": "PA", "addr:postcode": "15241", "addr:country": "US", "name": "South Hills Village", "website": "https://stores.chicos.com/s/south-hills-village", "brand": "Chico's"}, "geometry": {"type": "Point", "coordinates": [-80.06147, 40.34339]}},
{"type": "Feature", "id": "2vsiQrfNDoRlbNs6RK9CRoh0ZLA=", "properties": {"ref": "2796", "@spider": "chicos", "addr:full": "7007 Friars Road, Ste 300", "addr:city": "San Diego", "addr:state": "CA", "addr:postcode": "92108", "addr:country": "US", "name": "Fashion Valley", "website": "https://stores.chicos.com/s/chico-s-fashion-valley", "brand": "Chico's"}, "geometry": {"type": "Point", "coordinates": [-117.1656617, 32.7674839]}},
{"type": "Feature", "id": "5kmxT5DrCXBe10JZpMW9-WnjEHU=", "properties": {"ref": "1570", "@spider": "chicos", "addr:full": "605 NW 12th Street", "addr:city": "Gresham", "addr:state": "OR", "addr:postcode": "97030", "addr:country": "US", "name": "Gresham Station", "website": "https://stores.chicos.com/s/gresham-station", "brand": "Chico's"}, "geometry": {"type": "Point", "coordinates": [-122.438201, 45.5060236]}},
{"type": "Feature", "id": "8kjLc0jrmNZrpx5JPclyBTok8p4=", "properties": {"ref": "2515", "@spider": "chicos", "addr:full": "3989 Portola Pkwy, Bldg 600C", "addr:city": "Irvine", "addr:state": "CA", "addr:postcode": "92602", "addr:country": "US", "name": "Orchard Hills Retail Center", "website": "https://stores.chicos.com/s/orchard-hills-retail-center", "brand": "Chico's"}, "geometry": {"type": "Point", "coordinates": [-117.7606193, 33.7333841]}},
{"type": "Feature", "id": "THVqttffo65QSqX0ioAC3IcEZxI=", "properties": {"ref": "2191", "@spider": "chicos", "addr:full": "127 The Shops at Mission Viejo", "addr:city": "Mission Viejo", "addr:state": "CA", "addr:postcode": "92691", "addr:country": "US", "name": "The Shops at Mission Viejo", "website": "https://stores.chicos.com/s/the-shops-at-mission-viejo", "brand": "Chico's"}, "geometry": {"type": "Point", "coordinates": [-117.6692075, 33.5615014]}},
{"type": "Feature", "id": "t_QxQIXL0cMzOFup_kcMQI3VBYM=", "properties": {"ref": "2150", "@spider": "chicos", "addr:full": "26850 Ortega Highway, Ste G & L", "addr:city": "San Juan Capistrano", "addr:state": "CA", "addr:postcode": "92675", "addr:country": "US", "name": "Mission Promenade", "website": "https://stores.chicos.com/s/mission-promenade", "brand": "Chico's"}, "geometry": {"type": "Point", "coordinates": [-117.6628152, 33.5018717]}},
{"type": "Feature", "id": "uh2qmrrCeRZ7i5Viw9P_XDdliCM=", "properties": {"ref": "2187", "@spider": "chicos", "addr:full": "110 West Birch St, Unit B5", "addr:city": "Brea", "addr:state": "CA", "addr:postcode": "92821", "addr:country": "US", "name": "Birch Street Promenade", "website": "https://stores.chicos.com/s/chico-s-birch-street-promenade", "brand": "Chico's"}, "geometry": {"type": "Point", "coordinates": [-117.9005235, 33.9184751]}},
{"type": "Feature", "id": "PSSzx8R7ewD3zCNFsKHs67w1n1c=", "properties": {"ref": "2226", "@spider": "chicos", "addr:full": "155 Tourside Drive, Suite 1550", "addr:city": "Ponte Vedra Beach", "addr:state": "FL", "addr:postcode": "32082", "addr:country": "US", "name": "Sawgrass Village", "website": "https://stores.chicos.com/s/sawgrass-village", "brand": "Chico's"}, "geometry": {"type": "Point", "coordinates": [-81.383189, 30.2049765]}},
{"type": "Feature", "id": "Lazb2AqWEtBvbtLP4rWJVLZLBjI=", "properties": {"ref": "2095", "@spider": "chicos", "addr:full": "4791 River City Drive, Ste 137", "addr:city": "Jacksonville", "addr:state": "FL", "addr:postcode": "32246", "addr:country": "US", "name": "St. Johns Town Center", "website": "https://stores.chicos.com/s/chico-s-st-johns-town-center", "brand": "Chico's"}, "geometry": {"type": "Point", "coordinates": [-81.5250099, 30.255849]}},
{"type": "Feature", "id": "mJ825S3fsgOpU3HW8S9p_dS5x4I=", "properties": {"ref": "2801", "@spider": "chicos", "addr:full": "5012 Pinnacle Sq, Ste 118", "addr:city": "Birmingham", "addr:state": "AL", "addr:postcode": "35235", "addr:country": "US", "name": "Colonial Pinnacle at Tutwiler Farm", "website": "https://stores.chicos.com/s/colonial-pinnacle-at-tutwiler-farm", "brand": "Chico's"}, "geometry": {"type": "Point", "coordinates": [-86.6417535, 33.607747]}},
{"type": "Feature", "id": "rmFQsI6gQmmpJpzRsNBujjm5m1E=", "properties": {"ref": "2368", "@spider": "chicos", "addr:full": "139 Summit Blvd", "addr:city": "Vestavia", "addr:state": "AL", "addr:postcode": "35243", "addr:country": "US", "name": "The Summit Birmingham", "website": "https://stores.chicos.com/s/chico-s-the-summit-birmingham", "brand": "Chico's"}, "geometry": {"type": "Point", "coordinates": [-86.7306324, 33.4442428]}},
{"type": "Feature", "id": "sSdZ5-rONevymnSjC_skvAyhvI0=", "properties": {"ref": "2384", "@spider": "chicos", "addr:full": "258 N Nova Rd", "addr:city": "Ormond Beach", "addr:state": "FL", "addr:postcode": "32174", "addr:country": "US", "name": "The Trails Shopping Center", "website": "https://stores.chicos.com/s/chico-s-the-trails-shopping-center", "brand": "Chico's"}, "geometry": {"type": "Point", "coordinates": [-81.0838611, 29.2839958]}},
{"type": "Feature", "id": "WPt3rqKwCt6W4ZYsi1ZA_rJKet8=", "properties": {"ref": "2421", "@spider": "chicos", "addr:full": "6878 Eastchase Parkway", "addr:city": "Montgomery", "addr:state": "AL", "addr:postcode": "36117", "addr:country": "US", "name": "The Shoppes at Eastchase", "website": "https://stores.chicos.com/s/chico-s-the-shoppes-at-eastchase", "brand": "Chico's"}, "geometry": {"type": "Point", "coordinates": [-86.1656163, 32.3577352]}},
{"type": "Feature", "id": "QHIU9JLuGZ_a6WEvweYj74-pVT8=", "properties": {"ref": "2377", "@spider": "chicos", "addr:full": "3842 Newberry Rd, Ste 1D", "addr:city": "Gainesville", "addr:state": "FL", "addr:postcode": "32607", "addr:country": "US", "name": "Plaza Royale", "website": "https://stores.chicos.com/s/plaza-royale", "brand": "Chico's"}, "geometry": {"type": "Point", "coordinates": [-82.3820717, 29.6537404]}},
{"type": "Feature", "id": "MysiNtbiH1vXQPTPMFYYy_IvRAc=", "properties": {"ref": "2128", "@spider": "chicos", "addr:full": "1800 McFarland Boulevard E, Ste 202", "addr:city": "Tuscaloosa", "addr:state": "AL", "addr:postcode": "35404", "addr:country": "US", "name": "Midtown Village", "website": "https://stores.chicos.com/s/chico-s-midtown-village", "brand": "Chico's"}, "geometry": {"type": "Point", "coordinates": [-87.5279083, 33.1942262]}},
{"type": "Feature", "id": "9YTeuM5pmZrD0mVxIFRPiWlrsVg=", "properties": {"ref": "2024", "@spider": "chicos", "addr:full": "1460 Market St, Ste A", "addr:city": "Tallahassee", "addr:state": "FL", "addr:postcode": "32312", "addr:country": "US", "name": "Cornerstone Place", "website": "https://stores.chicos.com/s/cornerstone-place", "brand": "Chico's"}, "geometry": {"type": "Point", "coordinates": [-84.252493, 30.507455]}},
{"type": "Feature", "id": "Yl55Ar4eD3OeWlBAdO0mhslxVQo=", "properties": {"ref": "2040", "@spider": "chicos", "addr:full": "4825 Montgomery Highway, Suite 101", "addr:city": "Dothan", "addr:state": "AL", "addr:postcode": "36303", "addr:country": "US", "name": "Dothan Pavilion", "website": "https://stores.chicos.com/s/dothan-pavilion", "brand": "Chico's"}, "geometry": {"type": "Point", "coordinates": [-85.459147, 31.279643]}},
{"type": "Feature", "id": "8G-U0B1Is7_8tq2zHIaS0kHWEvE=", "properties": {"ref": "2506", "@spider": "chicos", "addr:full": "1451 Coral Ridge Ave, Ste 119", "addr:city": "Coralville", "addr:state": "IA", "addr:postcode": "52241", "addr:country": "US", "name": "Coral Ridge Mall", "website": "https://stores.chicos.com/s/chico-s-coral-ridge-mall", "brand": "Chico's"}, "geometry": {"type": "Point", "coordinates": [-91.601858, 41.6908901]}},
{"type": "Feature", "id": "FkIPDZ-0wRulsM0kYYyVT6xSy5g=", "properties": {"ref": "2022", "@spider": "chicos", "addr:full": "992 Del Mar Dr", "addr:city": "The Villages", "addr:state": "FL", "addr:postcode": "32159", "addr:country": "US", "name": "Spanish Springs Town Square", "website": "https://stores.chicos.com/s/chico-s-spanish-springs-town-square", "brand": "Chico's"}, "geometry": {"type": "Point", "coordinates": [-81.949688, 28.939748]}},
{"type": "Feature", "id": "hJhwPq_fv_DMCZLsVrOoWBxopRE=", "properties": {"ref": "2385", "@spider": "chicos", "addr:full": "511 Red Banks Rd, Ste D", "addr:city": "Greenville", "addr:state": "NC", "addr:postcode": "27858", "addr:country": "US", "name": "Lynndale Shoppes", "website": "https://stores.chicos.com/s/lynndale-shoppes", "brand": "Chico's"}, "geometry": {"type": "Point", "coordinates": [-77.370984, 35.5818354]}},
{"type": "Feature", "id": "26DeVByq595EqzPo2nmwebff7Kw=", "properties": {"ref": "1945", "@spider": "chicos", "addr:full": "4714-B Starkey Road", "addr:city": "Roanoke", "addr:state": "VA", "addr:postcode": "24018", "addr:country": "US", "name": "The Forum Shops of Roanoke", "website": "https://stores.chicos.com/s/the-forum-shops-of-roanoke", "brand": "Chico's"}, "geometry": {"type": "Point", "coordinates": [-79.985538, 37.2215119]}},
{"type": "Feature", "id": "sjBxFZST9YxWF6im9Hi2wZaIVdU=", "properties": {"ref": "2632", "@spider": "chicos", "addr:full": "500 Southpark Center, HL 82", "addr:city": "Strongsville", "addr:state": "OH", "addr:postcode": "44136", "addr:country": "US", "name": "SouthPark Mall (OH)", "website": "https://stores.chicos.com/s/chico-s-southpark-mall-oh", "brand": "Chico's"}, "geometry": {"type": "Point", "coordinates": [-81.8115051, 41.3198259]}},
{"type": "Feature", "id": "25t8SvQ9LIxjvu8RVwxAgyyCH4U=", "properties": {"ref": "2650", "@spider": "chicos", "addr:full": "129 Main St.", "addr:city": "Westlake", "addr:state": "OH", "addr:postcode": "44145", "addr:country": "US", "name": "Crocker Park", "website": "https://stores.chicos.com/s/chico-s-crocker-park", "brand": "Chico's"}, "geometry": {"type": "Point", "coordinates": [-81.9518361, 41.458963]}},
{"type": "Feature", "id": "XU0G4W1Y8DZ6YYuEFoGpejoutME=", "properties": {"ref": "2136", "@spider": "chicos", "addr:full": "4325 Glenwood Avenue, Suite 2023", "addr:city": "Raleigh", "addr:state": "NC", "addr:postcode": "27612", "addr:country": "US", "name": "Crabtree Valley Mall", "website": "https://stores.chicos.com/s/crabtree-valley-mall", "brand": "Chico's"}, "geometry": {"type": "Point", "coordinates": [-78.6794257, 35.8394667]}},
{"type": "Feature", "id": "v7565mzaaw6CXx0UyDnwlMcMejQ=", "properties": {"ref": "2503", "@spider": "chicos", "addr:full": "2121 Village Market PL", "addr:city": "Morrisville", "addr:state": "NC", "addr:postcode": "27560", "addr:country": "US", "name": "Park West Village", "website": "https://stores.chicos.com/s/chico-s-park-west-village", "brand": "Chico's"}, "geometry": {"type": "Point", "coordinates": [-78.8153386, 35.805273]}},
{"type": "Feature", "id": "oLuknPkKp7NsARTHxTyEZi_ufEM=", "properties": {"ref": "2217", "@spider": "chicos", "addr:full": "3326 W Friendly Ave, Ste 106", "addr:city": "Greensboro", "addr:state": "NC", "addr:postcode": "27410", "addr:country": "US", "name": "The Shops at Friendly Center", "website": "https://stores.chicos.com/s/chico-s-the-shops-at-friendly-center", "brand": "Chico's"}, "geometry": {"type": "Point", "coordinates": [-79.837479, 36.086439]}},
{"type": "Feature", "id": "qwubzgEH5NQYX8p2mH5AJyqR7wA=", "properties": {"ref": "2662", "@spider": "chicos", "addr:full": "1231 Eastchester Dr, Ste 109", "addr:city": "High Point", "addr:state": "NC", "addr:postcode": "27265", "addr:country": "US", "name": "Oak Hollow Village Shopping Center", "website": "https://stores.chicos.com/s/oak-hollow-village-shopping-center", "brand": "Chico's"}, "geometry": {"type": "Point", "coordinates": [-79.9964528, 35.9960353]}},
{"type": "Feature", "id": "W62HeAhUbSBrDPImpKUh01gZG_w=", "properties": {"ref": "2153", "@spider": "chicos", "addr:full": "416 S Stratford Road, Ste 500", "addr:city": "Winston-Salem", "addr:state": "NC", "addr:postcode": "27103", "addr:country": "US", "name": "Thruway Center", "website": "https://stores.chicos.com/s/chico-s-thruway-center", "brand": "Chico's"}, "geometry": {"type": "Point", "coordinates": [-80.2838826, 36.0908312]}},
{"type": "Feature", "id": "F5XxMqc1X7fwdxc4s3tRQNLKTgo=", "properties": {"ref": "2069", "@spider": "chicos", "addr:full": "3938 Easton Square Plac, Spc# I-105", "addr:city": "Columbus", "addr:state": "OH", "addr:postcode": "43219", "addr:country": "US", "name": "Easton Town Center", "website": "https://stores.chicos.com/s/chico-s-easton-town-center", "brand": "Chico's"}, "geometry": {"type": "Point", "coordinates": [-82.914849, 40.0494228]}},
{"type": "Feature", "id": "1BcIXKKcSKFFOoUe9YjYD4AukQ0=", "properties": {"ref": "2079", "@spider": "chicos", "addr:full": "16910 Kercheval Street", "addr:city": "Grosse Pointe", "addr:state": "MI", "addr:postcode": "48230", "addr:country": "US", "name": "16910 Kercheval Street", "website": "https://stores.chicos.com/s/16910-kercheval-street", "brand": "Chico's"}, "geometry": {"type": "Point", "coordinates": [-82.9173601, 42.389473]}},
{"type": "Feature", "id": "N56LuoLDKT2q0IVOU7MLBK7l2bU=", "properties": {"ref": "1962", "@spider": "chicos", "addr:full": "1655 W Lane Ave", "addr:city": "Upper Arlington", "addr:state": "OH", "addr:postcode": "43221", "addr:country": "US", "name": "The Shops on Lane Avenue", "website": "https://stores.chicos.com/s/the-shops-on-lane-avenue", "brand": "Chico's"}, "geometry": {"type": "Point", "coordinates": [-83.0547559, 40.0068075]}},
{"type": "Feature", "id": "_YoA-TgE3c_uRko7Qm0yIfngr-c=", "properties": {"ref": "2634", "@spider": "chicos", "addr:full": "20412 Route 19, Ste 330", "addr:city": "Cranberry Township", "addr:state": "PA", "addr:postcode": "16066", "addr:country": "US", "name": "The Streets of Cranberry", "website": "https://stores.chicos.com/s/chico-s-the-streets-of-cranberry", "brand": "Chico's"}, "geometry": {"type": "Point", "coordinates": [-80.1024818, 40.6943811]}},
{"type": "Feature", "id": "XKsTFdm2xQ4zFNNdNjwhECzgsWs=", "properties": {"ref": "1952", "@spider": "chicos", "addr:full": "1034 Suncrest Towne Centre", "addr:city": "Morgantown", "addr:state": "WV", "addr:postcode": "26505", "addr:country": "US", "name": "Suncrest Towne Centre", "website": "https://stores.chicos.com/s/suncrest-towne-centre", "brand": "Chico's"}, "geometry": {"type": "Point", "coordinates": [-79.9434101, 39.6524695]}},
{"type": "Feature", "id": "H2ncNdDLLVGsPsO0UY_e93fUImU=", "properties": {"ref": "2398", "@spider": "chicos", "addr:full": "654 Mill Creek Mall", "addr:city": "Erie", "addr:state": "PA", "addr:postcode": "16565", "addr:country": "US", "name": "Millcreek Mall", "website": "https://stores.chicos.com/s/millcreek-mall", "brand": "Chico's"}, "geometry": {"type": "Point", "coordinates": [-80.1039467, 42.0681078]}},
{"type": "Feature", "id": "DYhmSKVwzyjsSRmWz1lANYod72w=", "properties": {"ref": "2693", "@spider": "chicos", "addr:full": "4925 Boonsboro Road", "addr:city": "Lynchburg", "addr:state": "VA", "addr:postcode": "24503", "addr:country": "US", "name": "Boonsboro Shopping Center", "website": "https://stores.chicos.com/s/boonsboro-shopping-center", "brand": "Chico's"}, "geometry": {"type": "Point", "coordinates": [-79.2178764, 37.4471432]}},
{"type": "Feature", "id": "sz82zBl1OAWA_0Qnfl4lI6MhUDI=", "properties": {"ref": "2517", "@spider": "chicos", "addr:full": "214 South Park Avenue", "addr:city": "Winter Park", "addr:state": "FL", "addr:postcode": "32789", "addr:country": "US", "name": "214 South Park Avenue", "website": "https://stores.chicos.com/s/214-south-park-avenue", "brand": "Chico's"}, "geometry": {"type": "Point", "coordinates": [-81.3507438, 28.5965491]}},
{"type": "Feature", "id": "qfHtHPrAFI-whWbPA00fr6IfMng=", "properties": {"ref": "2068", "@spider": "chicos", "addr:full": "4610 Merchants Park Cir, Ste 531", "addr:city": "Collierville", "addr:state": "TN", "addr:postcode": "38017", "addr:country": "US", "name": "Carriage Crossing", "website": "https://stores.chicos.com/s/chico-s-carriage-crossing", "brand": "Chico's"}, "geometry": {"type": "Point", "coordinates": [-89.7194577, 35.0231733]}},
{"type": "Feature", "id": "wGSBPALHuDX24xM5fxGyOVn3Tu0=", "properties": {"ref": "2200", "@spider": "chicos", "addr:full": "2271 Town Center Ave, Ste 119", "addr:city": "Viera", "addr:state": "FL", "addr:postcode": "32940", "addr:country": "US", "name": "The Avenue Viera", "website": "https://stores.chicos.com/s/the-avenue-viera", "brand": "Chico's"}, "geometry": {"type": "Point", "coordinates": [-80.7262707, 28.2442735]}},
{"type": "Feature", "id": "FE_aBHAj4Vr475EDK9zY2HLAqIc=", "properties": {"ref": "1996", "@spider": "chicos", "addr:full": "400 South Baldwin Ave, Ste 2115", "addr:city": "Arcadia", "addr:state": "CA", "addr:postcode": "91007", "addr:country": "US", "name": "Westfield Santa Anita", "website": "https://stores.chicos.com/s/chico-s-westfield-santa-anita", "brand": "Chico's"}, "geometry": {"type": "Point", "coordinates": [-118.0509968, 34.1349204]}},
{"type": "Feature", "id": "ab4dEf2F3qdI_e-q9g3FGejA_nM=", "properties": {"ref": "2681", "@spider": "chicos", "addr:full": "2511 4th Ave W., Ste 101", "addr:city": "Olympia", "addr:state": "WA", "addr:postcode": "98502", "addr:country": "US", "name": "Capital Mall", "website": "https://stores.chicos.com/s/capital-mall", "brand": "Chico's"}, "geometry": {"type": "Point", "coordinates": [-122.9340022, 47.0436343]}},
{"type": "Feature", "id": "MytyXwbe9ewy1wgKrS8qkw4RD3Q=", "properties": {"ref": "2261", "@spider": "chicos", "addr:full": "3333 Bear Street, Ste 203", "addr:city": "Costa Mesa", "addr:state": "CA", "addr:postcode": "92626", "addr:country": "US", "name": "South Coast Plaza", "website": "https://stores.chicos.com/s/chico-s-south-coast-plaza", "brand": "Chico's"}, "geometry": {"type": "Point", "coordinates": [-117.892915, 33.692049]}},
{"type": "Feature", "id": "d65_l3LL09awxQsaM9ZIDyfR7qs=", "properties": {"ref": "2296", "@spider": "chicos", "addr:full": "707 Foothill Boulevard, Ste 3", "addr:city": "La Canada", "addr:state": "CA", "addr:postcode": "91011", "addr:country": "US", "name": "La Canada Plaza", "website": "https://stores.chicos.com/s/la-canada-plaza", "brand": "Chico's"}, "geometry": {"type": "Point", "coordinates": [-118.1940082, 34.2024129]}},
{"type": "Feature", "id": "CyZgJ_guv9d05jfOVgczyGrYmas=", "properties": {"ref": "1991", "@spider": "chicos", "addr:full": "956 Avocado Ave", "addr:city": "Newport Beach", "addr:state": "CA", "addr:postcode": "92660", "addr:country": "US", "name": "Corona del Mar Plaza", "website": "https://stores.chicos.com/s/corona-del-mar-plaza", "brand": "Chico's"}, "geometry": {"type": "Point", "coordinates": [-117.8743586, 33.6067584]}},
{"type": "Feature", "id": "ZcR5mSFosN-msSVMglXxtmT4DwY=", "properties": {"ref": "2016", "@spider": "chicos", "addr:full": "18573 Main St", "addr:city": "Huntington Beach", "addr:state": "CA", "addr:postcode": "92648", "addr:country": "US", "name": "Loehmann's 5 Points Plaza", "website": "https://stores.chicos.com/s/loehmann-s-5-points-plaza", "brand": "Chico's"}, "geometry": {"type": "Point", "coordinates": [-117.9907533, 33.6927532]}},
{"type": "Feature", "id": "lVNLl3MxwQC1uSrHExXd2PZ-2sQ=", "properties": {"ref": "2231", "@spider": "chicos", "addr:full": "9318 SW Washington Square Rd", "addr:city": "Tigard", "addr:state": "OR", "addr:postcode": "97223", "addr:country": "US", "name": "Washington Square", "website": "https://stores.chicos.com/s/chico-s-washington-square", "brand": "Chico's"}, "geometry": {"type": "Point", "coordinates": [-122.782957, 45.453011]}},
{"type": "Feature", "id": "B6COSQ_e45V2AdN1qE0MCZ7AP4w=", "properties": {"ref": "2625", "@spider": "chicos", "addr:full": "12217 Seal Beach Blvd., Spc # 217", "addr:city": "Seal Beach", "addr:state": "CA", "addr:postcode": "90740", "addr:country": "US", "name": "The Shops at Rossmoor", "website": "https://stores.chicos.com/s/chico-s-the-shops-at-rossmoor", "brand": "Chico's"}, "geometry": {"type": "Point", "coordinates": [-118.1046, 33.7412]}},
{"type": "Feature", "id": "lwA3HdGLihD9z4IWyoPZiVLyhxo=", "properties": {"ref": "2379", "@spider": "chicos", "addr:full": "12122 Ventura Blvd", "addr:city": "Studio City", "addr:state": "CA", "addr:postcode": "91604", "addr:country": "US", "name": "Ventura Boulevard", "website": "https://stores.chicos.com/s/ventura-boulevard", "brand": "Chico's"}, "geometry": {"type": "Point", "coordinates": [-118.3960151, 34.1431951]}},
{"type": "Feature", "id": "jARaEwBv4snYZdSWCtKhGtA-P2U=", "properties": {"ref": "2622", "@spider": "chicos", "addr:full": "9000 Ming Avenue, Ste I3", "addr:city": "Bakersfield", "addr:state": "CA", "addr:postcode": "93311", "addr:country": "US", "name": "The Marketplace", "website": "https://stores.chicos.com/s/chico-s-the-marketplace", "brand": "Chico's"}, "geometry": {"type": "Point", "coordinates": [-119.1033447, 35.3414141]}},
{"type": "Feature", "id": "5baebaLrccDyMrcmBpZyef7G_zA=", "properties": {"ref": "1966", "@spider": "chicos", "addr:full": "3200 N Sepulveda Boulevard, Ste A-6", "addr:city": "Manhattan Beach", "addr:state": "CA", "addr:postcode": "90266", "addr:country": "US", "name": "Manhattan Village", "website": "https://stores.chicos.com/s/chico-s-manhattan-village", "brand": "Chico's"}, "geometry": {"type": "Point", "coordinates": [-118.394016, 33.8995437]}},
{"type": "Feature", "id": "Ekw1ccDe3hm6xcvfXA1fRakuX_0=", "properties": {"ref": "2300", "@spider": "chicos", "addr:full": "550 Deep Valley Dr, 177", "addr:city": "Rolling Hills", "addr:state": "CA", "addr:postcode": "90274", "addr:country": "US", "name": "Promenade on the Peninsula", "website": "https://stores.chicos.com/s/chico-s-promenade-on-the-peninsula", "brand": "Chico's"}, "geometry": {"type": "Point", "coordinates": [-118.373426, 33.772149]}},
{"type": "Feature", "id": "MsVIjnArvSccvVyePSDt01KQKZo=", "properties": {"ref": "2257", "@spider": "chicos", "addr:full": "4719 Commons Way", "addr:city": "Calabasas", "addr:state": "CA", "addr:postcode": "91302", "addr:country": "US", "name": "Commons at Calabasas", "website": "https://stores.chicos.com/s/commons-at-calabasas", "brand": "Chico's"}, "geometry": {"type": "Point", "coordinates": [-118.6447506, 34.1533306]}},
{"type": "Feature", "id": "iKQtUiF3laGYzygLsTBh_UwIsO0=", "properties": {"ref": "2001", "@spider": "chicos", "addr:full": "17370 Hall Road, Ste 126", "addr:city": "Clinton Township", "addr:state": "MI", "addr:postcode": "48038", "addr:country": "US", "name": "The Mall at Partridge Creek", "website": "https://stores.chicos.com/s/chico-s-the-mall-at-partridge-creek", "brand": "Chico's"}, "geometry": {"type": "Point", "coordinates": [-82.9464368, 42.6260738]}},
{"type": "Feature", "id": "dJMZYBlL1j2v0w-1L-r2rL3PMwI=", "properties": {"ref": "1765", "@spider": "chicos", "addr:full": "2800 W Big Beaver Rd, Sp M 136", "addr:city": "Troy", "addr:state": "MI", "addr:postcode": "48084", "addr:country": "US", "name": "Somerset Collection North", "website": "https://stores.chicos.com/s/somerset-collection-north", "brand": "Chico's"}, "geometry": {"type": "Point", "coordinates": [-83.184024, 42.563202]}},
{"type": "Feature", "id": "bM-Pf3t6w_rhScmUCPgm1o6ytfo=", "properties": {"ref": "2603", "@spider": "chicos", "addr:full": "328 N Adams Road", "addr:city": "Rochester Hills", "addr:state": "MI", "addr:postcode": "48309", "addr:country": "US", "name": "The Village of Rochester Hills", "website": "https://stores.chicos.com/s/chico-s-the-village-of-rochester-hills", "brand": "Chico's"}, "geometry": {"type": "Point", "coordinates": [-83.1941911, 42.6847778]}},
{"type": "Feature", "id": "rGBVxe95I_Ikl-Lgyua22bokJpg=", "properties": {"ref": "2316", "@spider": "chicos", "addr:full": "909 Inspiration Drive", "addr:city": "Wilmington", "addr:state": "NC", "addr:postcode": "28405", "addr:country": "US", "name": "Mayfaire Town Center", "website": "https://stores.chicos.com/s/chico-s-mayfaire-town-center", "brand": "Chico's"}, "geometry": {"type": "Point", "coordinates": [-77.8298383, 34.2420021]}},
{"type": "Feature", "id": "x3smUowYZoEdVtnuKZuIxe7UqcY=", "properties": {"ref": "1961", "@spider": "chicos", "addr:full": "6885 Orchard Lake Rd", "addr:city": "West Bloomfield", "addr:state": "MI", "addr:postcode": "48322", "addr:country": "US", "name": "The Boardwalk Shopping Center", "website": "https://stores.chicos.com/s/the-boardwalk-shopping-center", "brand": "Chico's"}, "geometry": {"type": "Point", "coordinates": [-83.3596318, 42.5379933]}},
{"type": "Feature", "id": "eQ6mA29C4mIjkzY-TXexXLu2c5o=", "properties": {"ref": "1562", "@spider": "chicos", "addr:full": "37638 West 6 Mile Rd", "addr:city": "Livonia", "addr:state": "MI", "addr:postcode": "48152", "addr:country": "US", "name": "Laurel Park Place", "website": "https://stores.chicos.com/s/chico-s-laurel-park-place", "brand": "Chico's"}, "geometry": {"type": "Point", "coordinates": [-83.3970286, 42.4111442]}},
{"type": "Feature", "id": "r8fn-gvoKJrm7-YDt_rj8XAITWo=", "properties": {"ref": "2782", "@spider": "chicos", "addr:full": "27246 Novi Road, B-127", "addr:city": "Novi", "addr:state": "MI", "addr:postcode": "48377", "addr:country": "US", "name": "Twelve Oaks Mall", "website": "https://stores.chicos.com/s/chico-s-twelve-oaks-mall", "brand": "Chico's"}, "geometry": {"type": "Point", "coordinates": [-83.4703437, 42.4921216]}},
{"type": "Feature", "id": "uBomUJMQhmZJ4tbcKENPUI0oP94=", "properties": {"ref": "1691", "@spider": "chicos", "addr:full": "402 Briarwood Circle", "addr:city": "Ann Arbor", "addr:state": "MI", "addr:postcode": "48108", "addr:country": "US", "name": "Briarwood Mall", "website": "https://stores.chicos.com/s/chico-s-briarwood-mall", "brand": "Chico's"}, "geometry": {"type": "Point", "coordinates": [-83.744419, 42.2424706]}},
{"type": "Feature", "id": "NuZc-X3o9XjC6oB1Cx_xpTlWxxM=", "properties": {"ref": "2680", "@spider": "chicos", "addr:full": "9660 Village Place Boulevard", "addr:city": "Brighton", "addr:state": "MI", "addr:postcode": "48116", "addr:country": "US", "name": "Green Oak Village Place", "website": "https://stores.chicos.com/s/chico-s-green-oak-village-place", "brand": "Chico's"}, "geometry": {"type": "Point", "coordinates": [-83.7547611, 42.5086535]}},
{"type": "Feature", "id": "AyP1QWKTsUrH_nGmDe2-NBYms9M=", "properties": {"ref": "2180", "@spider": "chicos", "addr:full": "16846 Birkdale Commons Parkw, Ste B", "addr:city": "Huntersville", "addr:state": "NC", "addr:postcode": "28078", "addr:country": "US", "name": "Birkdale Village", "website": "https://stores.chicos.com/s/birkdale-village", "brand": "Chico's"}, "geometry": {"type": "Point", "coordinates": [-80.8797769, 35.44533]}},
{"type": "Feature", "id": "AjF6upAlSj-FyErOEPCBM1wOCRQ=", "properties": {"ref": "2165", "@spider": "chicos", "addr:full": "7615 W Farmington Blvd, Sp 3", "addr:city": "Germantown", "addr:state": "TN", "addr:postcode": "38138", "addr:country": "US", "name": "The Shops of Saddle Creek", "website": "https://stores.chicos.com/s/the-shops-of-saddle-creek", "brand": "Chico's"}, "geometry": {"type": "Point", "coordinates": [-89.8036636, 35.0937076]}},
{"type": "Feature", "id": "2TKFu6hJXxv--4_mftGuHCM90Ps=", "properties": {"ref": "1998", "@spider": "chicos", "addr:full": "4200 Conroy Road, Ste 205", "addr:city": "Orlando", "addr:state": "FL", "addr:postcode": "32839", "addr:country": "US", "name": "The Mall at Millenia", "website": "https://stores.chicos.com/s/the-mall-at-millenia", "brand": "Chico's"}, "geometry": {"type": "Point", "coordinates": [-81.4316837, 28.4855897]}},
{"type": "Feature", "id": "cshOP_qSpluV7ncOWE5e0ao6Qdo=", "properties": {"ref": "2157", "@spider": "chicos", "addr:full": "3251 Daniels Rd, Ste 106", "addr:city": "Winter Garden", "addr:state": "FL", "addr:postcode": "34787", "addr:country": "US", "name": "Winter Garden Village at Fowler G", "website": "https://stores.chicos.com/s/winter-garden-village-at-fowler-g", "brand": "Chico's"}, "geometry": {"type": "Point", "coordinates": [-81.5841768, 28.5236992]}},
{"type": "Feature", "id": "o_iepcEeLSv3OKc3FpCF1gOdPbE=", "properties": {"ref": "2295", "@spider": "chicos", "addr:full": "428 South Grove Park Road", "addr:city": "Memphis", "addr:state": "TN", "addr:postcode": "38117", "addr:country": "US", "name": "Laurelwood Shopping Center", "website": "https://stores.chicos.com/s/chico-s-laurelwood-shopping-center", "brand": "Chico's"}, "geometry": {"type": "Point", "coordinates": [-89.9112473, 35.1196392]}},
{"type": "Feature", "id": "APjEfxMl8O57KC1pqpHGsS_IVZw=", "properties": {"ref": "2305", "@spider": "chicos", "addr:full": "2009 Indian River Blvd", "addr:city": "Vero Beach", "addr:state": "FL", "addr:postcode": "32960", "addr:country": "US", "name": "3 Avenues Shopping Center", "website": "https://stores.chicos.com/s/chico-s-3-avenues-shopping-center", "brand": "Chico's"}, "geometry": {"type": "Point", "coordinates": [-80.3802706, 27.6381676]}},
{"type": "Feature", "id": "oOZhw5ur4s8wCe_zC7bSRfydSRI=", "properties": {"ref": "1930", "@spider": "chicos", "addr:full": "200 Bluefish Dr., Ste 100", "addr:city": "Panama City Beach", "addr:state": "FL", "addr:postcode": "32413", "addr:country": "US", "name": "Pier Park", "website": "https://stores.chicos.com/s/pier-park", "brand": "Chico's"}, "geometry": {"type": "Point", "coordinates": [-85.8702066, 30.220339]}},
{"type": "Feature", "id": "-LGiKlF8rzZM_66_f2RaWmEBt7k=", "properties": {"ref": "2122", "@spider": "chicos", "addr:full": "28329 Paseo Dr., Unit  101", "addr:city": "Wesley Chapel", "addr:state": "FL", "addr:postcode": "33543", "addr:country": "US", "name": "The Shops at Wiregrass", "website": "https://stores.chicos.com/s/chico-s-the-shops-at-wiregrass", "brand": "Chico's"}, "geometry": {"type": "Point", "coordinates": [-82.3472947, 28.1890407]}},
{"type": "Feature", "id": "rJgDbNLaAVQiDIjA1yG7CpMrSF0=", "properties": {"ref": "2230", "@spider": "chicos", "addr:full": "1425 Town Center Drive", "addr:city": "Lakeland", "addr:state": "FL", "addr:postcode": "33803", "addr:country": "US", "name": "Lakeside Village", "website": "https://stores.chicos.com/s/chico-s-lakeside-village", "brand": "Chico's"}, "geometry": {"type": "Point", "coordinates": [-81.9781716, 28.0010142]}},
{"type": "Feature", "id": "PZ_eT0BZBw0Mc25Nvnu4Ap5zip4=", "properties": {"ref": "2164", "@spider": "chicos", "addr:full": "495 Grand Boulevard, J-105", "addr:city": "Miramar Beach", "addr:state": "FL", "addr:postcode": "32550", "addr:country": "US", "name": "Grand Boulevard", "website": "https://stores.chicos.com/s/chico-s-grand-boulevard", "brand": "Chico's"}, "geometry": {"type": "Point", "coordinates": [-86.385025, 30.384321]}},
{"type": "Feature", "id": "Mrd-uWVcIPVPTm1UoCXRRPP8d4Y=", "properties": {"ref": "2252", "@spider": "chicos", "addr:full": "4367 Legendary Dr, D102", "addr:city": "Destin", "addr:state": "FL", "addr:postcode": "32541", "addr:country": "US", "name": "Destin Commons", "website": "https://stores.chicos.com/s/chico-s-destin-commons", "brand": "Chico's"}, "geometry": {"type": "Point", "coordinates": [-86.4262161, 30.393638]}},
{"type": "Feature", "id": "qDgkukIIGF1u-60gJWR3ZGS5ShA=", "properties": {"ref": "2034", "@spider": "chicos", "addr:full": "3730 SE Ocean Blvd", "addr:city": "Stuart", "addr:state": "FL", "addr:postcode": "34996", "addr:country": "US", "name": "Harbour Bay Plaza", "website": "https://stores.chicos.com/s/harbour-bay-plaza", "brand": "Chico's"}, "geometry": {"type": "Point", "coordinates": [-80.2020839, 27.2028698]}},
{"type": "Feature", "id": "ajgQY9u67bBdxeyL-MFjah_SruQ=", "properties": {"ref": "2695", "@spider": "chicos", "addr:full": "40 Oakway Center", "addr:city": "Eugene", "addr:state": "OR", "addr:postcode": "97401", "addr:country": "US", "name": "Oakway Center", "website": "https://stores.chicos.com/s/chico-s-oakway-center", "brand": "Chico's"}, "geometry": {"type": "Point", "coordinates": [-123.0765966, 44.0658723]}},
{"type": "Feature", "id": "UEt2RU7UTjodBSrld9CSMRsPutc=", "properties": {"ref": "2324", "@spider": "chicos", "addr:full": "320 Palladio Pkwy, Suite 607", "addr:city": "Folsom", "addr:state": "CA", "addr:postcode": "95630", "addr:country": "US", "name": "Palladio at Broadstone", "website": "https://stores.chicos.com/s/chico-s-palladio-at-broadstone", "brand": "Chico's"}, "geometry": {"type": "Point", "coordinates": [-121.1189634, 38.6498044]}},
{"type": "Feature", "id": "UNMHlelxcWZeW55o21kmPA3Pe4Y=", "properties": {"ref": "2631", "@spider": "chicos", "addr:full": "1013 Galleria Boulevard, Ste 100", "addr:city": "Roseville", "addr:state": "CA", "addr:postcode": "95678", "addr:country": "US", "name": "The Fountains", "website": "https://stores.chicos.com/s/chico-s-the-fountains", "brand": "Chico's"}, "geometry": {"type": "Point", "coordinates": [-121.2690734, 38.7675389]}},
{"type": "Feature", "id": "L4lhgJjkkkugaPCa9mRD6sMNsFg=", "properties": {"ref": "2127", "@spider": "chicos", "addr:full": "1960 East 20th St", "addr:city": "Chico", "addr:state": "CA", "addr:postcode": "95928", "addr:country": "US", "name": "Chico Mall", "website": "https://stores.chicos.com/s/chico-mall", "brand": "Chico's"}, "geometry": {"type": "Point", "coordinates": [-121.8051852, 39.7275449]}},
{"type": "Feature", "id": "TMQWrafev-jeFtdkGUXyLoR_nmk=", "properties": {"ref": "2359", "@spider": "chicos", "addr:full": "1600 N Riverside Avenue, Ste 3005", "addr:city": "Medford", "addr:state": "OR", "addr:postcode": "97501", "addr:country": "US", "name": "Rogue Valley Mall", "website": "https://stores.chicos.com/s/rogue-valley-mall", "brand": "Chico's"}, "geometry": {"type": "Point", "coordinates": [-122.876795, 42.3433769]}},
{"type": "Feature", "id": "Mi4hIZf9pmnda6epr97kwvVqTeE=", "properties": {"ref": "2289", "@spider": "chicos", "addr:full": "514 Pavilions Lane", "addr:city": "Sacramento", "addr:state": "CA", "addr:postcode": "95825", "addr:country": "US", "name": "Pavilions", "website": "https://stores.chicos.com/s/chico-s-pavilions", "brand": "Chico's"}, "geometry": {"type": "Point", "coordinates": [-121.4103058, 38.5747195]}},
{"type": "Feature", "id": "5SWRVGOCsUo8B1F9azEiX5N8CgI=", "properties": {"ref": "2130", "@spider": "chicos", "addr:full": "3401 Dales Rd, Ste 640", "addr:city": "Modesto", "addr:state": "CA", "addr:postcode": "95356", "addr:country": "US", "name": "Vintage Faire Mall", "website": "https://stores.chicos.com/s/chico-s-vintage-faire-mall", "brand": "Chico's"}, "geometry": {"type": "Point", "coordinates": [-121.0517748, 37.6871609]}},
{"type": "Feature", "id": "Ilb1ITbzFWS9M9oD1XRA_SkFtiY=", "properties": {"ref": "2580", "@spider": "chicos", "addr:full": "6545 Pacific Ave", "addr:city": "Stockton", "addr:state": "CA", "addr:postcode": "95207", "addr:country": "US", "name": "Lincoln Center", "website": "https://stores.chicos.com/s/lincoln-center", "brand": "Chico's"}, "geometry": {"type": "Point", "coordinates": [-121.3228799, 38.0093409]}},
{"type": "Feature", "id": "3pa0jQ376H6cZDjTf2nSiKh8l50=", "properties": {"ref": "2574", "@spider": "chicos", "addr:full": "120 S Hope Ave", "addr:city": "Santa Barbara", "addr:state": "CA", "addr:postcode": "93105", "addr:country": "US", "name": "La Cumbre Plaza", "website": "https://stores.chicos.com/s/chico-s-la-cumbre-plaza", "brand": "Chico's"}, "geometry": {"type": "Point", "coordinates": [-119.7479863, 34.4379253]}},
{"type": "Feature", "id": "ZQT9c8pI8P6Jj341sWNObKVK6pY=", "properties": {"ref": "3743", "@spider": "chicos", "addr:full": "2050 Ponce By Pass, Ste 400", "addr:city": "Ponce", "addr:state": "PR", "addr:postcode": "00717", "addr:country": "PR", "name": "Plaza del Caribe", "website": "https://stores.chicos.com/s/plaza-del-caribe", "brand": "Chico's"}, "geometry": {"type": "Point", "coordinates": [-66.6147383, 18.0086125]}},
{"type": "Feature", "id": "rlVWCj-pTfPwNQHKnd2e69yB9Pg=", "properties": {"ref": "2623", "@spider": "chicos", "addr:full": "1605 Briargate Pkwy, Ste 115", "addr:city": "Colorado Springs", "addr:state": "CO", "addr:postcode": "80920", "addr:country": "US", "name": "The Promenade Shops at Briargate", "website": "https://stores.chicos.com/s/chico-s-the-promenade-shops-at-briargate", "brand": "Chico's"}, "geometry": {"type": "Point", "coordinates": [-104.8035997, 38.9639232]}},
{"type": "Feature", "id": "xXLacGykoRKkUhsixJU-qdm-Shw=", "properties": {"ref": "2319", "@spider": "chicos", "addr:full": "350 S Teller St", "addr:city": "Lakewood", "addr:state": "CO", "addr:postcode": "80226", "addr:country": "US", "name": "BelMar", "website": "https://stores.chicos.com/s/belmar", "brand": "Chico's"}, "geometry": {"type": "Point", "coordinates": [-105.0766587, 39.7100667]}},
{"type": "Feature", "id": "L0VzjKT-O_mq4oKV6NQmS5hfjpc=", "properties": {"ref": "1561", "@spider": "chicos", "addr:full": "2900 W Loop 250 N, Suite 150", "addr:city": "Midland", "addr:state": "TX", "addr:postcode": "79705", "addr:country": "US", "name": "The Commons Northpark", "website": "https://stores.chicos.com/s/the-commons-northpark", "brand": "Chico's"}, "geometry": {"type": "Point", "coordinates": [-102.1561348, 32.0080969]}},
{"type": "Feature", "id": "dsHSJNPJR5WgtV5-eatFC2p6CAs=", "properties": {"ref": "2019", "@spider": "chicos", "addr:full": "1700 S 10th Street, Ste 190", "addr:city": "McAllen", "addr:state": "TX", "addr:postcode": "78503", "addr:country": "US", "name": "Paseo Plaza Shopping Center", "website": "https://stores.chicos.com/s/paseo-plaza-shopping-center", "brand": "Chico's"}, "geometry": {"type": "Point", "coordinates": [-98.2330634, 26.1886158]}},
{"type": "Feature", "id": "Pdw73x6JHnPwVL-hWiwWm0Nv5Uo=", "properties": {"ref": "2025", "@spider": "chicos", "addr:full": "328 S Guadalupe St", "addr:city": "Santa Fe", "addr:state": "NM", "addr:postcode": "87501", "addr:country": "US", "name": "Guadalupe Station", "website": "https://stores.chicos.com/s/guadalupe-station", "brand": "Chico's"}, "geometry": {"type": "Point", "coordinates": [-105.945654, 35.684973]}},
{"type": "Feature", "id": "8SzjnxmoDQtD4KZY_Ox7ez007z8=", "properties": {"ref": "2117", "@spider": "chicos", "addr:full": "3006 N Center Street", "addr:city": "Hickory", "addr:state": "NC", "addr:postcode": "28601", "addr:country": "US", "name": "Belle Hollow Shopping Center", "website": "https://stores.chicos.com/s/belle-hollow-shopping-center", "brand": "Chico's"}, "geometry": {"type": "Point", "coordinates": [-81.3276853, 35.7715926]}},
{"type": "Feature", "id": "L3eHoHICiLbjbhIJW7J0rGSuANQ=", "properties": {"ref": "2045", "@spider": "chicos", "addr:full": "4400 Sharon Road, Rm N07", "addr:city": "Charlotte", "addr:state": "NC", "addr:postcode": "28211", "addr:country": "US", "name": "SouthPark (NC)", "website": "https://stores.chicos.com/s/chico-s-southpark-nc", "brand": "Chico's"}, "geometry": {"type": "Point", "coordinates": [-80.8321252, 35.1523851]}},
{"type": "Feature", "id": "ZlHILpK57VhcQr6mZyPs9saFdHw=", "properties": {"ref": "2306", "@spider": "chicos", "addr:full": "7808 Rea Rd, Ste B", "addr:city": "Charlotte", "addr:state": "NC", "addr:postcode": "28277", "addr:country": "US", "name": "Stonecrest at Piper Glen", "website": "https://stores.chicos.com/s/chico-s-stonecrest-at-piper-glen", "brand": "Chico's"}, "geometry": {"type": "Point", "coordinates": [-80.815083, 35.060754]}},
{"type": "Feature", "id": "aQ7TsNSwjWZAIvDWk7P79Y76Xvg=", "properties": {"ref": "2192", "@spider": "chicos", "addr:full": "4812 Hwy 17 S", "addr:city": "North Myrtle Beach", "addr:state": "SC", "addr:postcode": "29582", "addr:country": "US", "name": "Barefoot Landing", "website": "https://stores.chicos.com/s/barefoot-landing", "brand": "Chico's"}, "geometry": {"type": "Point", "coordinates": [-78.7371785, 33.7993572]}},
{"type": "Feature", "id": "_okihCGQm0zEfw_H-ZH3jl6FXvw=", "properties": {"ref": "2114", "@spider": "chicos", "addr:full": "3020 Franklin Ter", "addr:city": "Johnson City", "addr:state": "TN", "addr:postcode": "37604", "addr:country": "US", "name": "Franklin Terrace", "website": "https://stores.chicos.com/s/franklin-terrace", "brand": "Chico's"}, "geometry": {"type": "Point", "coordinates": [-82.4007472, 36.3528136]}},
{"type": "Feature", "id": "dBi96oAnnpoCDp90OfSyX_zP-WE=", "properties": {"ref": "2361", "@spider": "chicos", "addr:full": "1937 Hoffmeyer Road", "addr:city": "Florence", "addr:state": "SC", "addr:postcode": "29501", "addr:country": "US", "name": "The Shops at Seven Oaks", "website": "https://stores.chicos.com/s/the-shops-at-seven-oaks", "brand": "Chico's"}, "geometry": {"type": "Point", "coordinates": [-79.8058859, 34.1908788]}},
{"type": "Feature", "id": "rC47SP4NTUyCnItr2mhEGvcUId8=", "properties": {"ref": "2065", "@spider": "chicos", "addr:full": "335 Herlong Avenue, Ste 204", "addr:city": "Rock Hill", "addr:state": "SC", "addr:postcode": "29732", "addr:country": "US", "name": "Millwood Shopping Center", "website": "https://stores.chicos.com/s/millwood-shopping-center", "brand": "Chico's"}, "geometry": {"type": "Point", "coordinates": [-81.0430323, 34.9590186]}},
{"type": "Feature", "id": "llOh3a2jkBjX3ufToJwTCDfxTrI=", "properties": {"ref": "2220", "@spider": "chicos", "addr:full": "27001 US Hwy 19 North", "addr:city": "Clearwater", "addr:state": "FL", "addr:postcode": "33761", "addr:country": "US", "name": "Westfield Countryside", "website": "https://stores.chicos.com/s/chico-s-westfield-countryside", "brand": "Chico's"}, "geometry": {"type": "Point", "coordinates": [-82.7336129, 28.0173286]}},
{"type": "Feature", "id": "q0VmcxdyJSvsy1LUVc7GBFwxOn8=", "properties": {"ref": "2035", "@spider": "chicos", "addr:full": "3101 PGA Blvd, Ste A-123", "addr:city": "Palm Beach Gardens", "addr:state": "FL", "addr:postcode": "33410", "addr:country": "US", "name": "The Gardens Mall", "website": "https://stores.chicos.com/s/chico-s-the-gardens-mall", "brand": "Chico's"}, "geometry": {"type": "Point", "coordinates": [-80.0853836, 26.8473981]}},
{"type": "Feature", "id": "GmlRRz8hssGSdv9ReT0oY6IPIWM=", "properties": {"ref": "2073", "@spider": "chicos", "addr:full": "103 Second Ave North, Sp 132", "addr:city": "Saint Petersburg", "addr:state": "FL", "addr:postcode": "33701", "addr:country": "US", "name": "Sundial", "website": "https://stores.chicos.com/s/sundial", "brand": "Chico's"}, "geometry": {"type": "Point", "coordinates": [-82.6321376, 27.7696063]}},
{"type": "Feature", "id": "7yCFmwrKrXcRHe7sa9ts6JekG_I=", "properties": {"ref": "2023", "@spider": "chicos", "addr:full": "101 Jordan Creek Parkway, Ste 11370", "addr:city": "West Des Moines", "addr:state": "IA", "addr:postcode": "50266", "addr:country": "US", "name": "Jordan Creek Town Center", "website": "https://stores.chicos.com/s/chico-s-jordan-creek-town-center", "brand": "Chico's"}, "geometry": {"type": "Point", "coordinates": [-93.8070392, 41.5702624]}},
{"type": "Feature", "id": "0Cx6bYom-vfk9CFfVk8FX74uJi8=", "properties": {"ref": "1568", "@spider": "chicos", "addr:full": "10300 West Forest Hill Blvd, 258", "addr:city": "Wellington", "addr:state": "FL", "addr:postcode": "33414", "addr:country": "US", "name": "The Mall at Wellington Green", "website": "https://stores.chicos.com/s/the-mall-at-wellington-green", "brand": "Chico's"}, "geometry": {"type": "Point", "coordinates": [-80.208776, 26.6464009]}},
{"type": "Feature", "id": "h79BqEFxgc9wLGNm_n5bnqLU58s=", "properties": {"ref": "2792", "@spider": "chicos", "addr:full": "266 S Ocean Boulevard", "addr:city": "Manalapan", "addr:state": "FL", "addr:postcode": "33462", "addr:country": "US", "name": "Plaza Del Mar", "website": "https://stores.chicos.com/s/plaza-del-mar", "brand": "Chico's"}, "geometry": {"type": "Point", "coordinates": [-80.0390521, 26.5829213]}},
{"type": "Feature", "id": "FToZoSGniUz4jzmTlec-ON8ruWY=", "properties": {"ref": "2655", "@spider": "chicos", "addr:full": "30500 State Highway 181, Ste 210", "addr:city": "Spanish Fort", "addr:state": "AL", "addr:postcode": "36527", "addr:country": "US", "name": "The Eastern Shore Centre", "website": "https://stores.chicos.com/s/the-eastern-shore-centre", "brand": "Chico's"}, "geometry": {"type": "Point", "coordinates": [-87.8491428, 30.669982]}},
{"type": "Feature", "id": "Y2vtrKIewOXBYWozUsoG9QbrYvc=", "properties": {"ref": "2621", "@spider": "chicos", "addr:full": "777 E Atlantic Ave, Ste B1", "addr:city": "Delray Beach", "addr:state": "FL", "addr:postcode": "33483", "addr:country": "US", "name": "Atlantic Crossing", "website": "https://stores.chicos.com/s/atlantic-crossing", "brand": "Chico's"}, "geometry": {"type": "Point", "coordinates": [-80.0651741, 26.4621804]}},
{"type": "Feature", "id": "5CJ3ddniBuDVgwuTqRQVDh4KX5c=", "properties": {"ref": "2369", "@spider": "chicos", "addr:full": "3501 S Tamiami Tr", "addr:city": "Sarasota", "addr:state": "FL", "addr:postcode": "34239", "addr:country": "US", "name": "Westfield Siesta Key", "website": "https://stores.chicos.com/s/westfield-siesta-key", "brand": "Chico's"}, "geometry": {"type": "Point", "coordinates": [-82.529626, 27.300274]}},
{"type": "Feature", "id": "CVQW_QdCaRt9rpRRRtPMnaoq7GQ=", "properties": {"ref": "2058", "@spider": "chicos", "addr:full": "443 John Ringling Blvd", "addr:city": "Sarasota", "addr:state": "FL", "addr:postcode": "34236", "addr:country": "US", "name": "St. Armands Circle", "website": "https://stores.chicos.com/s/chico-s-st-armands-circle", "brand": "Chico's"}, "geometry": {"type": "Point", "coordinates": [-82.5765735, 27.3192415]}},
{"type": "Feature", "id": "ze3Z6veipChpm4q7HfU5rJ7tPz8=", "properties": {"ref": "2705", "@spider": "chicos", "addr:full": "9097 W. Atlantic Avenue, Suite 100", "addr:city": "Delray Beach", "addr:state": "FL", "addr:postcode": "33446", "addr:country": "US", "name": "Delray Marketplace", "website": "https://stores.chicos.com/s/chico-s-delray-marketplace", "brand": "Chico's"}, "geometry": {"type": "Point", "coordinates": [-80.1908185, 26.454642]}},
{"type": "Feature", "id": "UyIUBX72AVTwEThRK5v8xwj3OME=", "properties": {"ref": "2254", "@spider": "chicos", "addr:full": "6000 Glades Rd, Ste C1340", "addr:city": "Boca Raton", "addr:state": "FL", "addr:postcode": "33431", "addr:country": "US", "name": "Town Center at Boca Raton", "website": "https://stores.chicos.com/s/chico-s-town-center-at-boca-raton", "brand": "Chico's"}, "geometry": {"type": "Point", "coordinates": [-80.1343444, 26.3659037]}},
{"type": "Feature", "id": "R3Kec1cfKRA7nqIDSMSKqj_Zrzg=", "properties": {"ref": "2124", "@spider": "chicos", "addr:full": "2455 Sand Creek Rd, Ste 124", "addr:city": "Brentwood", "addr:state": "CA", "addr:postcode": "94513", "addr:country": "US", "name": "Streets of Brentwood", "website": "https://stores.chicos.com/s/chico-s-streets-of-brentwood", "brand": "Chico's"}, "geometry": {"type": "Point", "coordinates": [-121.73734, 37.9453845]}},
{"type": "Feature", "id": "hpqAAMqqugqRHUx9omO2jOl47yg=", "properties": {"ref": "2291", "@spider": "chicos", "addr:full": "2629 Stoneridge Mall Rd", "addr:city": "Pleasanton", "addr:state": "CA", "addr:postcode": "94588", "addr:country": "US", "name": "Stoneridge Shopping Center", "website": "https://stores.chicos.com/s/chico-s-stoneridge-shopping-center", "brand": "Chico's"}, "geometry": {"type": "Point", "coordinates": [-121.89, 37.64]}},
{"type": "Feature", "id": "uSe7S_nKlR2C-visqRJaGIkQAEU=", "properties": {"ref": "2689", "@spider": "chicos", "addr:full": "428 Railroad Ave", "addr:city": "Danville", "addr:state": "CA", "addr:postcode": "94526", "addr:country": "US", "name": "428 Railroad Avenue", "website": "https://stores.chicos.com/s/428-railroad-avenue", "brand": "Chico's"}, "geometry": {"type": "Point", "coordinates": [-121.997008, 37.819268]}},
{"type": "Feature", "id": "Ju-T2UY1X1SUx8Dx5UzNB1z79R4=", "properties": {"ref": "2145", "@spider": "chicos", "addr:full": "3537 Mt. Diablo Blvd", "addr:city": "Lafayette", "addr:state": "CA", "addr:postcode": "94549", "addr:country": "US", "name": "La Fiesta Square", "website": "https://stores.chicos.com/s/la-fiesta-square", "brand": "Chico's"}, "geometry": {"type": "Point", "coordinates": [-122.1196054, 37.8917176]}},
{"type": "Feature", "id": "_Yv1g22Vc1kTmFt6lVFBtxM-p4w=", "properties": {"ref": "2604", "@spider": "chicos", "addr:full": "377 Santana Row", "addr:city": "San Jose", "addr:state": "CA", "addr:postcode": "95128", "addr:country": "US", "name": "Santana Row", "website": "https://stores.chicos.com/s/chico-s-santana-row", "brand": "Chico's"}, "geometry": {"type": "Point", "coordinates": [-121.9489988, 37.3198825]}},
{"type": "Feature", "id": "AOxoH7YsZeHpWbcWUEnyU-AS4w4=", "properties": {"ref": "2414", "@spider": "chicos", "addr:full": "29 E Napa St", "addr:city": "Sonoma", "addr:state": "CA", "addr:postcode": "95476", "addr:country": "US", "name": "Sonoma Court Shops", "website": "https://stores.chicos.com/s/sonoma-court-shops", "brand": "Chico's"}, "geometry": {"type": "Point", "coordinates": [-122.4571268, 38.291611]}},
{"type": "Feature", "id": "hzJbRKU2Qc5KvcCVfeKbci-Qc6A=", "properties": {"ref": "2659", "@spider": "chicos", "addr:full": "271 Main Street", "addr:city": "Los Altos", "addr:state": "CA", "addr:postcode": "94022", "addr:country": "US", "name": "271 Main Street (Los Altos)", "website": "https://stores.chicos.com/s/271-main-street-los-altos", "brand": "Chico's"}, "geometry": {"type": "Point", "coordinates": [-122.1162297, 37.378317]}},
{"type": "Feature", "id": "msGtfvsU-e7Hyqxg8B_DUNwdYbM=", "properties": {"ref": "2262", "@spider": "chicos", "addr:full": "396 University Ave", "addr:city": "Palo Alto", "addr:state": "CA", "addr:postcode": "94301", "addr:country": "US", "name": "396 University Avenue", "website": "https://stores.chicos.com/s/396-university-avenue", "brand": "Chico's"}, "geometry": {"type": "Point", "coordinates": [-122.1602996, 37.4468966]}},
{"type": "Feature", "id": "PfY1CRmCq3xmCrcg1FcG_yZHnJc=", "properties": {"ref": "1940", "@spider": "chicos", "addr:full": "713 Village Court", "addr:city": "Santa Rosa", "addr:state": "CA", "addr:postcode": "95405", "addr:country": "US", "name": "Montgomery Village Shopping Center", "website": "https://stores.chicos.com/s/chico-s-montgomery-village-shopping-center", "brand": "Chico's"}, "geometry": {"type": "Point", "coordinates": [-122.6864554, 38.4438516]}},
{"type": "Feature", "id": "yYe4a7AHPvEqzjtrZ2YDkztWy20=", "properties": {"ref": "2620", "@spider": "chicos", "addr:full": "269 Hillsdale Shopping Center", "addr:city": "San Mateo", "addr:state": "CA", "addr:postcode": "94403", "addr:country": "US", "name": "Hillsdale Shopping Center", "website": "https://stores.chicos.com/s/chico-s-hillsdale-shopping-center", "brand": "Chico's"}, "geometry": {"type": "Point", "coordinates": [-122.2995474, 37.5376138]}},
{"type": "Feature", "id": "sfkZVIU4jP4pkmuMNsrvliwlcVA=", "properties": {"ref": "1567", "@spider": "chicos", "addr:full": "460 Del Monte Center", "addr:city": "Monterey", "addr:state": "CA", "addr:postcode": "93940", "addr:country": "US", "name": "Del Monte Center", "website": "https://stores.chicos.com/s/chico-s-del-monte-center", "brand": "Chico's"}, "geometry": {"type": "Point", "coordinates": [-121.8973453, 36.5834665]}},
{"type": "Feature", "id": "fkBUBhquCrEtkYEku93ZIwuk1Jc=", "properties": {"ref": "2724", "@spider": "chicos", "addr:full": "316 S 24th Street W", "addr:city": "Billings", "addr:state": "MT", "addr:postcode": "59102", "addr:country": "US", "name": "Rimrock Mall", "website": "https://stores.chicos.com/s/chico-s-rimrock-mall", "brand": "Chico's"}, "geometry": {"type": "Point", "coordinates": [-108.5768953, 45.763916]}},
{"type": "Feature", "id": "Npy6v7CPge69iu65CqNLaK5RV9o=", "properties": {"ref": "2716", "@spider": "chicos", "addr:full": "5901 Wyoming Boulevard NE, Ste M", "addr:city": "Albuquerque", "addr:state": "NM", "addr:postcode": "87109", "addr:country": "US", "name": "North Towne Plaza", "website": "https://stores.chicos.com/s/chico-s-north-towne-plaza", "brand": "Chico's"}, "geometry": {"type": "Point", "coordinates": [-106.5563238, 35.1467634]}},
{"type": "Feature", "id": "pebh9957OXVKluq_Ol_I4_gfnuo=", "properties": {"ref": "2671", "@spider": "chicos", "addr:full": "2241 Q Street NE, Ste 7B", "addr:city": "Albuquerque", "addr:state": "NM", "addr:postcode": "87110", "addr:country": "US", "name": "ABQ Uptown", "website": "https://stores.chicos.com/s/chico-s-abq-uptown", "brand": "Chico's"}, "geometry": {"type": "Point", "coordinates": [-106.5674855, 35.1033284]}},
{"type": "Feature", "id": "l0z5v8yKK22t0-haBuIxoO2SbdQ=", "properties": {"ref": "2365", "@spider": "chicos", "addr:full": "700 S Telshor Blvd, Ste 1342", "addr:city": "Las Cruces", "addr:state": "NM", "addr:postcode": "88011", "addr:country": "US", "name": "Mesilla Valley Mall", "website": "https://stores.chicos.com/s/mesilla-valley-mall", "brand": "Chico's"}, "geometry": {"type": "Point", "coordinates": [-106.7434388, 32.3106212]}},
{"type": "Feature", "id": "kI-s9z3mnmcD8EOLrkA105mZW_8=", "properties": {"ref": "2575", "@spider": "chicos", "addr:full": "5860 N Mesa, Ste 102", "addr:city": "El Paso", "addr:state": "TX", "addr:postcode": "79912", "addr:country": "US", "name": "Shops on Mesa", "website": "https://stores.chicos.com/s/shops-on-mesa", "brand": "Chico's"}, "geometry": {"type": "Point", "coordinates": [-106.5237162, 31.8264446]}},
{"type": "Feature", "id": "RaJsst4ZrJjUkeSiwSYaO-TAoPQ=", "properties": {"ref": "2613", "@spider": "chicos", "addr:full": "6699 North Landmark Dri, Space G110", "addr:city": "Park City", "addr:state": "UT", "addr:postcode": "84098", "addr:country": "US", "name": "Outlets Park City", "website": "https://stores.chicos.com/s/outlets-park-city", "brand": "Chico's"}, "geometry": {"type": "Point", "coordinates": [-111.553066, 40.726363]}},
{"type": "Feature", "id": "K1qqqAZm9_8okjVmHp3gguIZ-tY=", "properties": {"ref": "2287", "@spider": "chicos", "addr:full": "559 E University Pkwy", "addr:city": "Orem", "addr:state": "UT", "addr:postcode": "84097", "addr:country": "US", "name": "University Mall", "website": "https://stores.chicos.com/s/university-mall", "brand": "Chico's"}, "geometry": {"type": "Point", "coordinates": [-111.6822127, 40.2738338]}},
{"type": "Feature", "id": "T80bR-GKT6yoGjIwVanVoSk6FEg=", "properties": {"ref": "2258", "@spider": "chicos", "addr:full": "1340 Foothill Dr, Unit N1", "addr:city": "Salt Lake City", "addr:state": "UT", "addr:postcode": "84108", "addr:country": "US", "name": "Foothill Village", "website": "https://stores.chicos.com/s/foothill-village", "brand": "Chico's"}, "geometry": {"type": "Point", "coordinates": [-111.8270915, 40.7402445]}},
{"type": "Feature", "id": "f4NhzmsKNM6F2PMwbTvXoQZJnK8=", "properties": {"ref": "2293", "@spider": "chicos", "addr:full": "4862 S Highland Dr", "addr:city": "Salt Lake City", "addr:state": "UT", "addr:postcode": "84117", "addr:country": "US", "name": "Creekside Place", "website": "https://stores.chicos.com/s/creekside-place", "brand": "Chico's"}, "geometry": {"type": "Point", "coordinates": [-111.8388426, 40.663853]}},
{"type": "Feature", "id": "9blJwHNlcKd7H0-qARA22jLudDA=", "properties": {"ref": "2578", "@spider": "chicos", "addr:full": "2901 Brooks Ave, Ste B13", "addr:city": "Missoula", "addr:state": "MT", "addr:postcode": "59801", "addr:country": "US", "name": "Southgate Mall", "website": "https://stores.chicos.com/s/chico-s-southgate-mall", "brand": "Chico's"}, "geometry": {"type": "Point", "coordinates": [-114.0285821, 46.8450725]}},
{"type": "Feature", "id": "bd2sixmpP24NaA2V4sCHD3g5KPw=", "properties": {"ref": "2151", "@spider": "chicos", "addr:full": "101 N Hwy 89A, Ste D-19", "addr:city": "Sedona", "addr:state": "AZ", "addr:postcode": "86336", "addr:country": "US", "name": "The Shops at Pinon Pointe", "website": "https://stores.chicos.com/s/the-shops-at-pinon-pointe", "brand": "Chico's"}, "geometry": {"type": "Point", "coordinates": [-111.7622582, 34.8673472]}},
{"type": "Feature", "id": "rqXnv8sb9hRqin90U5T69ZiJxqc=", "properties": {"ref": "2143", "@spider": "chicos", "addr:full": "5870 E Broadway Boulevard, Ste 161", "addr:city": "Tucson", "addr:state": "AZ", "addr:postcode": "85711", "addr:country": "US", "name": "Park Place", "website": "https://stores.chicos.com/s/park-place", "brand": "Chico's"}, "geometry": {"type": "Point", "coordinates": [-110.8655885, 32.2191984]}},
{"type": "Feature", "id": "Vcwm08F9Zh9fQK6ecLylLucK3bo=", "properties": {"ref": "2221", "@spider": "chicos", "addr:full": "5100 Marsh Rd, Ste E-2", "addr:city": "Okemos", "addr:state": "MI", "addr:postcode": "48864", "addr:country": "US", "name": "Central Park Place", "website": "https://stores.chicos.com/s/central-park-place", "brand": "Chico's"}, "geometry": {"type": "Point", "coordinates": [-84.4128938, 42.7281376]}},
{"type": "Feature", "id": "Y8iigd3L6luL0jqjPj2tgcp9nxs=", "properties": {"ref": "1929", "@spider": "chicos", "addr:full": "4000 Howard Avenue", "addr:city": "Myrtle Beach", "addr:state": "SC", "addr:postcode": "29577", "addr:country": "US", "name": "The Market Common Myrtle Beach", "website": "https://stores.chicos.com/s/chico-s-the-market-common-myrtle-beach", "brand": "Chico's"}, "geometry": {"type": "Point", "coordinates": [-78.9392825, 33.6697749]}},
{"type": "Feature", "id": "JTZIrl6Bq2wdWP0rF_tgkAe6xcw=", "properties": {"ref": "2420", "@spider": "chicos", "addr:full": "10 Brook Street, Ste 100", "addr:city": "Asheville", "addr:state": "NC", "addr:postcode": "28803", "addr:country": "US", "name": "Biltmore Village", "website": "https://stores.chicos.com/s/chico-s-biltmore-village", "brand": "Chico's"}, "geometry": {"type": "Point", "coordinates": [-82.5410173, 35.5670456]}},
{"type": "Feature", "id": "umgugjqCGNLP7VH6_Ws1iOLQkps=", "properties": {"ref": "2178", "@spider": "chicos", "addr:full": "4120 W Jefferson Blvd, Ste H-1", "addr:city": "Fort Wayne", "addr:state": "IN", "addr:postcode": "46804", "addr:country": "US", "name": "Jefferson Pointe", "website": "https://stores.chicos.com/s/chico-s-jefferson-pointe", "brand": "Chico's"}, "geometry": {"type": "Point", "coordinates": [-85.1960215, 41.0721295]}},
{"type": "Feature", "id": "TDVE2CzhMJqEvN3qWCNfIM2W_pA=", "properties": {"ref": "2030", "@spider": "chicos", "addr:full": "5250 Town Center Dr, Ste 137", "addr:city": "Boca Raton", "addr:state": "FL", "addr:postcode": "33486", "addr:country": "US", "name": "Boca Center", "website": "https://stores.chicos.com/s/boca-center", "brand": "Chico's"}, "geometry": {"type": "Point", "coordinates": [-80.1242025, 26.3623245]}},
{"type": "Feature", "id": "TxM_blut7k9bfzwksN34Zu3MA0c=", "properties": {"ref": "1995", "@spider": "chicos", "addr:full": "4467 Lyons Rd, Ste H1-105", "addr:city": "Coconut Creek", "addr:state": "FL", "addr:postcode": "33073", "addr:country": "US", "name": "The Promenade at Coconut Creek", "website": "https://stores.chicos.com/s/chico-s-the-promenade-at-coconut-creek", "brand": "Chico's"}, "geometry": {"type": "Point", "coordinates": [-80.1880887, 26.2845172]}},
{"type": "Feature", "id": "9c2wjsm5iRZ8piVm2oW2siF7lcY=", "properties": {"ref": "1959", "@spider": "chicos", "addr:full": "2382 E Sunrise Boulevard, Spc 2017", "addr:city": "Fort Lauderdale", "addr:state": "FL", "addr:postcode": "33304", "addr:country": "US", "name": "The Galleria at Fort Lauderdale", "website": "https://stores.chicos.com/s/chico-s-the-galleria-at-fort-lauderdale", "brand": "Chico's"}, "geometry": {"type": "Point", "coordinates": [-80.1140498, 26.1372028]}},
{"type": "Feature", "id": "yizEl5rM6gw-rOW33RL3jyDXiIE=", "properties": {"ref": "2038", "@spider": "chicos", "addr:full": "6156 Highway 98 West, Space 40", "addr:city": "Hattiesburg", "addr:state": "MS", "addr:postcode": "39402", "addr:country": "US", "name": "Lake Forgetful Center", "website": "https://stores.chicos.com/s/lake-forgetful-center", "brand": "Chico's"}, "geometry": {"type": "Point", "coordinates": [-89.3868624, 31.3199866]}},
{"type": "Feature", "id": "RULg_svvmry-rzKnfXysZPv_10o=", "properties": {"ref": "1960", "@spider": "chicos", "addr:full": "6891 Daniels Pkwy, Suite 120", "addr:city": "Fort Myers", "addr:state": "FL", "addr:postcode": "33912", "addr:country": "US", "name": "Daniels Marketplace", "website": "https://stores.chicos.com/s/daniels-marketplace", "brand": "Chico's"}, "geometry": {"type": "Point", "coordinates": [-81.84161, 26.54677]}},
{"type": "Feature", "id": "iAbJJWKKEsFQZZPMsLNn1WLklYk=", "properties": {"ref": "2055", "@spider": "chicos", "addr:full": "19575 Biscayne Blvd, Room 715", "addr:city": "Aventura", "addr:state": "FL", "addr:postcode": "33180", "addr:country": "US", "name": "Aventura Mall", "website": "https://stores.chicos.com/s/aventura-mall", "brand": "Chico's"}, "geometry": {"type": "Point", "coordinates": [-80.1436082, 25.9571477]}},
{"type": "Feature", "id": "16dSWzhYBvFYNi5pCOduC4hWKoA=", "properties": {"ref": "2633", "@spider": "chicos", "addr:full": "329 SW 145th Ter", "addr:city": "Pembroke Pines", "addr:state": "FL", "addr:postcode": "33027", "addr:country": "US", "name": "The Shops at Pembroke Gardens", "website": "https://stores.chicos.com/s/chico-s-the-shops-at-pembroke-gardens", "brand": "Chico's"}, "geometry": {"type": "Point", "coordinates": [-80.3364768, 26.0052569]}},
{"type": "Feature", "id": "RwADd_-lwbxjQhlCuvokqzHdjZQ=", "properties": {"ref": "2011", "@spider": "chicos", "addr:full": "23160 Fashion Dr, Ste 113", "addr:city": "Estero", "addr:state": "FL", "addr:postcode": "33928", "addr:country": "US", "name": "Coconut Point", "website": "https://stores.chicos.com/s/chico-s-coconut-point", "brand": "Chico's"}, "geometry": {"type": "Point", "coordinates": [-81.807377, 26.401518]}},
{"type": "Feature", "id": "wd4LavGhtIBrU9KCLPfUN9kakB0=", "properties": {"ref": "1987", "@spider": "chicos", "addr:full": "2075 Periwinkle Way, Ste 4", "addr:city": "Sanibel", "addr:state": "FL", "addr:postcode": "33957", "addr:country": "US", "name": "Periwinkle Place", "website": "https://stores.chicos.com/s/periwinkle-place", "brand": "Chico's"}, "geometry": {"type": "Point", "coordinates": [-82.068999, 26.437742]}},
{"type": "Feature", "id": "qY5Jzgz6peWMn8lmly-fMGTEAC4=", "properties": {"ref": "2427", "@spider": "chicos", "addr:full": "74 The Promenade", "addr:city": "Edgewater", "addr:state": "NJ", "addr:postcode": "07020", "addr:country": "US", "name": "City Place at The Promenade", "website": "https://stores.chicos.com/s/city-place-at-the-promenade", "brand": "Chico's"}, "geometry": {"type": "Point", "coordinates": [-73.9897221, 40.8069037]}},
{"type": "Feature", "id": "pYTJuGE37vJSBDZYgI7RM7lyZa4=", "properties": {"ref": "1997", "@spider": "chicos", "addr:full": "850 Route 3, Ste 200", "addr:city": "Clifton", "addr:state": "NJ", "addr:postcode": "07012", "addr:country": "US", "name": "The Promenade Shops at Clifton", "website": "https://stores.chicos.com/s/the-promenade-shops-at-clifton", "brand": "Chico's"}, "geometry": {"type": "Point", "coordinates": [-74.1562544, 40.8380478]}},
{"type": "Feature", "id": "aokc7o2naGHY8ipp4yGYSSOqJnE=", "properties": {"ref": "2426", "@spider": "chicos", "addr:full": "2360 Bell Blvd", "addr:city": "Bayside", "addr:state": "NY", "addr:postcode": "11360", "addr:country": "US", "name": "The Bay Terrace at Bayside", "website": "https://stores.chicos.com/s/the-bay-terrace-at-bayside", "brand": "Chico's"}, "geometry": {"type": "Point", "coordinates": [-73.7753795, 40.7806953]}},
{"type": "Feature", "id": "k-A8xde7sq_glQJzxlNeaNDfwmI=", "properties": {"ref": "1969", "@spider": "chicos", "addr:full": "181 East Ridgewood Ave", "addr:city": "Ridgewood", "addr:state": "NJ", "addr:postcode": "07450", "addr:country": "US", "name": "181 East Ridgewood Avenue", "website": "https://stores.chicos.com/s/181-east-ridgewood-avenue", "brand": "Chico's"}, "geometry": {"type": "Point", "coordinates": [-74.1157035, 40.9792885]}},
{"type": "Feature", "id": "Rr3SznA212Ru99cPbyQaTIfRm1I=", "properties": {"ref": "2694", "@spider": "chicos", "addr:full": "179 Seventh St", "addr:city": "Garden City", "addr:state": "NY", "addr:postcode": "11530", "addr:country": "US", "name": "Seventh Street Shoppes", "website": "https://stores.chicos.com/s/seventh-street-shoppes", "brand": "Chico's"}, "geometry": {"type": "Point", "coordinates": [-73.6349097, 40.7254347]}},
{"type": "Feature", "id": "nG4h8tyJtT39zhubvFqCwsw2-_0=", "properties": {"ref": "2566", "@spider": "chicos", "addr:full": "707 White Plains Road", "addr:city": "Scarsdale", "addr:state": "NY", "addr:postcode": "10583", "addr:country": "US", "name": "Vernon Place Shops", "website": "https://stores.chicos.com/s/vernon-place-shops", "brand": "Chico's"}, "geometry": {"type": "Point", "coordinates": [-73.8067214, 40.9710053]}},
{"type": "Feature", "id": "ZUGdDzSC7M6ZF06NmjMarZW3-Wo=", "properties": {"ref": "1612", "@spider": "chicos", "addr:full": "7003 N Oracle Rd, Sp C", "addr:city": "Tucson", "addr:state": "AZ", "addr:postcode": "85704", "addr:country": "US", "name": "Casas Adobes Plaza", "website": "https://stores.chicos.com/s/casas-adobes-plaza", "brand": "Chico's"}, "geometry": {"type": "Point", "coordinates": [-110.9780844, 32.3350526]}},
{"type": "Feature", "id": "0zG0VIl-CUXRg7BtYvL6Q2nzRR0=", "properties": {"ref": "2636", "@spider": "chicos", "addr:full": "446 N 1680 East, Ste 1300", "addr:city": "St George", "addr:state": "UT", "addr:postcode": "84790", "addr:country": "US", "name": "Red Cliffs Mall", "website": "https://stores.chicos.com/s/red-cliffs-mall", "brand": "Chico's"}, "geometry": {"type": "Point", "coordinates": [-113.5471356, 37.1158692]}},
{"type": "Feature", "id": "pl7FYI1YmD7z98zRdtZf2O5wcGc=", "properties": {"ref": "1565", "@spider": "chicos", "addr:full": "32421 N Scottsdale Rd., Ste A", "addr:city": "Scottsdale", "addr:state": "AZ", "addr:postcode": "85262", "addr:country": "US", "name": "The Summit at Scottsdale", "website": "https://stores.chicos.com/s/the-summit-at-scottsdale", "brand": "Chico's"}, "geometry": {"type": "Point", "coordinates": [-111.925797, 33.78003]}},
{"type": "Feature", "id": "ZbD0S2ghakoZ8iH4GZD4V4xdurg=", "properties": {"ref": "2318", "@spider": "chicos", "addr:full": "1660 S Val Vista Dr, Ste 121", "addr:city": "Mesa", "addr:state": "AZ", "addr:postcode": "85204", "addr:country": "US", "name": "Village Square at Dana Park", "website": "https://stores.chicos.com/s/chico-s-village-square-at-dana-park", "brand": "Chico's"}, "geometry": {"type": "Point", "coordinates": [-111.7567646, 33.3848448]}},
{"type": "Feature", "id": "RL-bJp1oR0gBhiIMfm7vJitoHyc=", "properties": {"ref": "2523", "@spider": "chicos", "addr:full": "2168 E Williams Field Rd,, Ste 112", "addr:city": "Gilbert", "addr:state": "AZ", "addr:postcode": "85295", "addr:country": "US", "name": "San Tan Village", "website": "https://stores.chicos.com/s/chico-s-san-tan-village", "brand": "Chico's"}, "geometry": {"type": "Point", "coordinates": [-111.7433091, 33.3102901]}},
{"type": "Feature", "id": "tci02hpRp_9qOR-zD3Qlmm2drcE=", "properties": {"ref": "2569", "@spider": "chicos", "addr:full": "3250 Gateway Blvd, Ste 432", "addr:city": "Prescott", "addr:state": "AZ", "addr:postcode": "86303", "addr:country": "US", "name": "Prescott Gateway", "website": "https://stores.chicos.com/s/prescott-gateway", "brand": "Chico's"}, "geometry": {"type": "Point", "coordinates": [-112.4088605, 34.5477134]}},
{"type": "Feature", "id": "tKUYchWNKg005aml0bJ37Euo_Lk=", "properties": {"ref": "2170", "@spider": "chicos", "addr:full": "6107 N Scottsdale Rd, Ste 114", "addr:city": "Scottsdale", "addr:state": "AZ", "addr:postcode": "85250", "addr:country": "US", "name": "The Shops at Hilton Village", "website": "https://stores.chicos.com/s/the-shops-at-hilton-village", "brand": "Chico's"}, "geometry": {"type": "Point", "coordinates": [-111.92457, 33.526104]}},
{"type": "Feature", "id": "6LeJF4PxEG3T9bXtgi02uZlZhFA=", "properties": {"ref": "1569", "@spider": "chicos", "addr:full": "3111 W Chandler Boulevard, Sp 1188", "addr:city": "Chandler", "addr:state": "AZ", "addr:postcode": "85226", "addr:country": "US", "name": "Chandler Fashion Center", "website": "https://stores.chicos.com/s/chico-s-chandler-fashion-center", "brand": "Chico's"}, "geometry": {"type": "Point", "coordinates": [-111.8996053, 33.3021986]}},
{"type": "Feature", "id": "ZZxLqmkkndmcz2q6axSnZDZN2Mo=", "properties": {"ref": "2794", "@spider": "chicos", "addr:full": "2502 E Camelback Road, Ste 183", "addr:city": "Phoenix", "addr:state": "AZ", "addr:postcode": "85016", "addr:country": "US", "name": "Biltmore Fashion Park", "website": "https://stores.chicos.com/s/chico-s-biltmore-fashion-park", "brand": "Chico's"}, "geometry": {"type": "Point", "coordinates": [-112.0286923, 33.5103953]}},
{"type": "Feature", "id": "tB3gVVEwwnK798x-TkwJQcAfRhI=", "properties": {"ref": "2109", "@spider": "chicos", "addr:full": "20022 N 67th Ave, Ste 112", "addr:city": "Glendale", "addr:state": "AZ", "addr:postcode": "85308", "addr:country": "US", "name": "The Village at Arrowhead", "website": "https://stores.chicos.com/s/the-village-at-arrowhead", "brand": "Chico's"}, "geometry": {"type": "Point", "coordinates": [-112.2045675, 33.66587]}},
{"type": "Feature", "id": "wRnhX2DmbKJfXI8qX19jgJuCJtI=", "properties": {"ref": "2144", "@spider": "chicos", "addr:full": "808 W Main Avenue, Sp 101", "addr:city": "Spokane", "addr:state": "WA", "addr:postcode": "99201", "addr:country": "US", "name": "River Park Square", "website": "https://stores.chicos.com/s/river-park-square", "brand": "Chico's"}, "geometry": {"type": "Point", "coordinates": [-117.4316272, 47.6600716]}},
{"type": "Feature", "id": "vgO3meYaKLzEfKeXK0200a9gjZc=", "properties": {"ref": "2317", "@spider": "chicos", "addr:full": "2240 Village Walk Dr", "addr:city": "Henderson", "addr:state": "NV", "addr:postcode": "89052", "addr:country": "US", "name": "The District at Green Valley Ranch", "website": "https://stores.chicos.com/s/chico-s-the-district-at-green-valley-ranch", "brand": "Chico's"}, "geometry": {"type": "Point", "coordinates": [-115.0869873, 36.0216574]}},
{"type": "Feature", "id": "sb1A0ioj1KwLJv6lexxvldE7Xk4=", "properties": {"ref": "2687", "@spider": "chicos", "addr:full": "1019 S Rampart Blvd", "addr:city": "Las Vegas", "addr:state": "NV", "addr:postcode": "89145", "addr:country": "US", "name": "Rampart Commons", "website": "https://stores.chicos.com/s/rampart-commons", "brand": "Chico's"}, "geometry": {"type": "Point", "coordinates": [-115.2927651, 36.1605871]}},
{"type": "Feature", "id": "vwUsc_I6AdjqdyQZDhQxyGANhww=", "properties": {"ref": "2067", "@spider": "chicos", "addr:full": "4840 Forest Dr, Ste 30", "addr:city": "Columbia", "addr:state": "SC", "addr:postcode": "29206", "addr:country": "US", "name": "Trenholm Plaza", "website": "https://stores.chicos.com/s/chico-s-trenholm-plaza", "brand": "Chico's"}, "geometry": {"type": "Point", "coordinates": [-80.9635041, 34.0172171]}},
{"type": "Feature", "id": "09W_yQdqwILs1HkcUIQsiyYoBcs=", "properties": {"ref": "2657", "@spider": "chicos", "addr:full": "6650 S Westnedge, Ste 128", "addr:city": "Portage", "addr:state": "MI", "addr:postcode": "49024", "addr:country": "US", "name": "The Crossroads", "website": "https://stores.chicos.com/s/the-crossroads", "brand": "Chico's"}, "geometry": {"type": "Point", "coordinates": [-85.5941737, 42.2202087]}},
{"type": "Feature", "id": "_UkFzmkHuEf42-UK9sZvY9yB3_U=", "properties": {"ref": "2355", "@spider": "chicos", "addr:full": "1125 Woodruff Road, Ste 1701", "addr:city": "Greenville", "addr:state": "SC", "addr:postcode": "29607", "addr:country": "US", "name": "The Shops at Greenridge", "website": "https://stores.chicos.com/s/chico-s-the-shops-at-greenridge", "brand": "Chico's"}, "geometry": {"type": "Point", "coordinates": [-82.3012549, 34.8291923]}},
{"type": "Feature", "id": "zgmtF_FGcbZK7blFeMjDAuMShdw=", "properties": {"ref": "2292", "@spider": "chicos", "addr:full": "2222 Augusta St, Ste 2", "addr:city": "Greenville", "addr:state": "SC", "addr:postcode": "29605", "addr:country": "US", "name": "Augusta Commons", "website": "https://stores.chicos.com/s/augusta-commons", "brand": "Chico's"}, "geometry": {"type": "Point", "coordinates": [-82.392602, 34.8227391]}},
{"type": "Feature", "id": "5jd6U7aGbTP65ySqvqVAfCS8ELI=", "properties": {"ref": "2750", "@spider": "chicos", "addr:full": "3155 28th Street SE, Ste G107", "addr:city": "Grand Rapids", "addr:state": "MI", "addr:postcode": "49512", "addr:country": "US", "name": "Woodland Mall", "website": "https://stores.chicos.com/s/chico-s-woodland-mall", "brand": "Chico's"}, "geometry": {"type": "Point", "coordinates": [-85.58926, 42.9126]}},
{"type": "Feature", "id": "flJGi_Ly0NsCuFTC0n-AaLRJ0fQ=", "properties": {"ref": "1992", "@spider": "chicos", "addr:full": "13185 Harrell Parkway, Ste 100", "addr:city": "Noblesville", "addr:state": "IN", "addr:postcode": "46060", "addr:country": "US", "name": "Hamilton Town Center", "website": "https://stores.chicos.com/s/chico-s-hamilton-town-center", "brand": "Chico's"}, "geometry": {"type": "Point", "coordinates": [-85.9306213, 39.9925047]}},
{"type": "Feature", "id": "L42MOLtMU7oIA0FkWsADuWzb7hY=", "properties": {"ref": "2146", "@spider": "chicos", "addr:full": "1732 Towne Centre Way", "addr:city": "Mount Pleasant", "addr:state": "SC", "addr:postcode": "29464", "addr:country": "US", "name": "Mount Pleasant Towne Centre", "website": "https://stores.chicos.com/s/chico-s-mount-pleasant-towne-centre", "brand": "Chico's"}, "geometry": {"type": "Point", "coordinates": [-79.8307288, 32.8290774]}},
{"type": "Feature", "id": "WWBvDjXj-2ZgKPjqRjNONFcWzd4=", "properties": {"ref": "1624", "@spider": "chicos", "addr:full": "7600 Kingston Pike, Ste 1538A", "addr:city": "Knoxville", "addr:state": "TN", "addr:postcode": "37919", "addr:country": "US", "name": "West Town Mall", "website": "https://stores.chicos.com/s/chico-s-west-town-mall", "brand": "Chico's"}, "geometry": {"type": "Point", "coordinates": [-84.0390578, 35.9244419]}},
{"type": "Feature", "id": "ExTrN4KHT87ejVkYMJlLZy2mXTg=", "properties": {"ref": "1631", "@spider": "chicos", "addr:full": "203 Meeting St, Ste B-114", "addr:city": "Charleston", "addr:state": "SC", "addr:postcode": "29401", "addr:country": "US", "name": "The Shops at Charleston Place", "website": "https://stores.chicos.com/s/chico-s-the-shops-at-charleston-place", "brand": "Chico's"}, "geometry": {"type": "Point", "coordinates": [-79.9318355, 32.7811874]}},
{"type": "Feature", "id": "a7m8u5XqD_XgUdiIwmHkvFbXP4A=", "properties": {"ref": "2678", "@spider": "chicos", "addr:full": "205 Howard St", "addr:city": "Petoskey", "addr:state": "MI", "addr:postcode": "49770", "addr:country": "US", "name": "205 Howard Street", "website": "https://stores.chicos.com/s/205-howard-street", "brand": "Chico's"}, "geometry": {"type": "Point", "coordinates": [-84.9553069, 45.3756185]}},
{"type": "Feature", "id": "r74ysFzI31pZ-9yAc75aQci6B5A=", "properties": {"ref": "2154", "@spider": "chicos", "addr:full": "19 W Eighth St, Unit 29", "addr:city": "Holland", "addr:state": "MI", "addr:postcode": "49423", "addr:country": "US", "name": "19 West 8th Street", "website": "https://stores.chicos.com/s/19-west-8th-street", "brand": "Chico's"}, "geometry": {"type": "Point", "coordinates": [-86.1081616, 42.7905697]}},
{"type": "Feature", "id": "1O4XvfNwpIBMD9pCO_xKFn7yMjw=", "properties": {"ref": "2064", "@spider": "chicos", "addr:full": "14390 Clay Terrace Bouleva, Ste 110", "addr:city": "Carmel", "addr:state": "IN", "addr:postcode": "46032", "addr:country": "US", "name": "Clay Terrace", "website": "https://stores.chicos.com/s/chico-s-clay-terrace", "brand": "Chico's"}, "geometry": {"type": "Point", "coordinates": [-86.1295481, 39.9994875]}},
{"type": "Feature", "id": "WmkvfstniGzpAQGEPLLVfPdCSrA=", "properties": {"ref": "2378", "@spider": "chicos", "addr:full": "350 San Lorenzo Ave, Ste 2110", "addr:city": "Coral Gables", "addr:state": "FL", "addr:postcode": "33146", "addr:country": "US", "name": "Shops at Merrick Park", "website": "https://stores.chicos.com/s/chico-s-shops-at-merrick-park", "brand": "Chico's"}, "geometry": {"type": "Point", "coordinates": [-80.2601268, 25.7314228]}},
{"type": "Feature", "id": "SK1VohSficT6Kj6BILPRkN-MCc8=", "properties": {"ref": "2061", "@spider": "chicos", "addr:full": "5435 Tamiami Tr N, Ste 404", "addr:city": "Naples", "addr:state": "FL", "addr:postcode": "34108", "addr:country": "US", "name": "Waterside Shops at Pelican Bay", "website": "https://stores.chicos.com/s/chico-s-waterside-shops-at-pelican-bay", "brand": "Chico's"}, "geometry": {"type": "Point", "coordinates": [-81.8026774, 26.213165]}},
{"type": "Feature", "id": "ACUlbp_RV2KPfcshx1ShDYm5Oy0=", "properties": {"ref": "1958", "@spider": "chicos", "addr:full": "4320 Gulfshore Blvd N, # 214", "addr:city": "Naples", "addr:state": "FL", "addr:postcode": "34103", "addr:country": "US", "name": "The Village on Venetian Bay", "website": "https://stores.chicos.com/s/the-village-on-venetian-bay", "brand": "Chico's"}, "geometry": {"type": "Point", "coordinates": [-81.8117284, 26.1972894]}},
{"type": "Feature", "id": "fbcmJf9xD37avt9EPjfaUWYmgns=", "properties": {"ref": "2274", "@spider": "chicos", "addr:full": "600 Fifth Avenue South, Ste 100", "addr:city": "Naples", "addr:state": "FL", "addr:postcode": "34102", "addr:country": "US", "name": "The Colonnade on 5th", "website": "https://stores.chicos.com/s/chico-s-the-colonnade-on-5th", "brand": "Chico's"}, "geometry": {"type": "Point", "coordinates": [-81.7991816, 26.1410256]}},
{"type": "Feature", "id": "AW1OVfXdoaRuakydGh4q9t193FM=", "properties": {"ref": "1763", "@spider": "chicos", "addr:full": "8888 SW 136th Street, Ste 275", "addr:city": "Miami", "addr:state": "FL", "addr:postcode": "33176", "addr:country": "US", "name": "The Falls", "website": "https://stores.chicos.com/s/chico-s-the-falls", "brand": "Chico's"}, "geometry": {"type": "Point", "coordinates": [-80.3385326, 25.6443479]}},
{"type": "Feature", "id": "ul5Gn-x5pRsEddkvN-PhPPdd3Fk=", "properties": {"ref": "1566", "@spider": "chicos", "addr:full": "599 S Collier Boulevard, Ste 311", "addr:city": "Marco Island", "addr:state": "FL", "addr:postcode": "34145", "addr:country": "US", "name": "Marco Walk", "website": "https://stores.chicos.com/s/marco-walk", "brand": "Chico's"}, "geometry": {"type": "Point", "coordinates": [-81.7258308, 25.9224634]}},
{"type": "Feature", "id": "Bcr5gU_uMl6C3N1uJb2sbi11CmY=", "properties": {"ref": "3685", "@spider": "chicos", "addr:full": "850 Town Center Parkway.", "addr:city": "Slidell", "addr:state": "LA", "addr:postcode": "70458", "addr:country": "US", "name": "Fremaux Town Center", "website": "https://stores.chicos.com/s/fremaux-town-center", "brand": "Chico's"}, "geometry": {"type": "Point", "coordinates": [-89.7621476, 30.2684562]}},
{"type": "Feature", "id": "B0u28EKgmbKVpMapQeZ8xKm2VM4=", "properties": {"ref": "2571", "@spider": "chicos", "addr:full": "7455 Corporate Boulevard, Ste 400", "addr:city": "Baton Rouge", "addr:state": "LA", "addr:postcode": "70809", "addr:country": "US", "name": "Towne Center at Cedar Lodge", "website": "https://stores.chicos.com/s/chico-s-towne-center-at-cedar-lodge", "brand": "Chico's"}, "geometry": {"type": "Point", "coordinates": [-91.1245173, 30.424608]}},
{"type": "Feature", "id": "j5X9GOgGtj0aVCom2BJ6ogxrP4s=", "properties": {"ref": "2126", "@spider": "chicos", "addr:full": "3902 13th Avenue South, Ste 2325", "addr:city": "Fargo", "addr:state": "ND", "addr:postcode": "58103", "addr:country": "US", "name": "West Acres Shopping Center", "website": "https://stores.chicos.com/s/west-acres-shopping-center", "brand": "Chico's"}, "geometry": {"type": "Point", "coordinates": [-96.8463539, 46.8586945]}},
{"type": "Feature", "id": "SbqQbxfldIrDY39Cr5npRgYFEzs=", "properties": {"ref": "2052", "@spider": "chicos", "addr:full": "437 Chestnut Ridge Rd", "addr:city": "Woodcliff Lake", "addr:state": "NJ", "addr:postcode": "07677", "addr:country": "US", "name": "Tice's Corner Marketplace", "website": "https://stores.chicos.com/s/chico-s-tice-s-corner-marketplace", "brand": "Chico's"}, "geometry": {"type": "Point", "coordinates": [-74.0751268, 41.0417291]}},
{"type": "Feature", "id": "rX2Nbwkgfc-MKsVmimC-RYT2dD8=", "properties": {"ref": "2573", "@spider": "chicos", "addr:full": "1999 Merrick Road", "addr:city": "Merrick", "addr:state": "NY", "addr:postcode": "11566", "addr:country": "US", "name": "LaBoutique Shopping Center", "website": "https://stores.chicos.com/s/laboutique-shopping-center", "brand": "Chico's"}, "geometry": {"type": "Point", "coordinates": [-73.5500735, 40.6564534]}},
{"type": "Feature", "id": "Cqs__g0pxGSPjiz1XDrjSmuIgss=", "properties": {"ref": "2037", "@spider": "chicos", "addr:full": "1137 Fashion Drive", "addr:city": "Nanuet", "addr:state": "NY", "addr:postcode": "10954", "addr:country": "US", "name": "The Shops at Nanuet", "website": "https://stores.chicos.com/s/chico-s-the-shops-at-nanuet", "brand": "Chico's"}, "geometry": {"type": "Point", "coordinates": [-74.015706, 41.09682]}},
{"type": "Feature", "id": "_LYeyiSFYJHKmppVGidL0G0BJ60=", "properties": {"ref": "1978", "@spider": "chicos", "addr:full": "577 Route 35, Unit N16", "addr:city": "Shrewsbury", "addr:state": "NJ", "addr:postcode": "07702", "addr:country": "US", "name": "The Grove at Shrewsbury", "website": "https://stores.chicos.com/s/chico-s-the-grove-at-shrewsbury", "brand": "Chico's"}, "geometry": {"type": "Point", "coordinates": [-74.0610421, 40.3327172]}},
{"type": "Feature", "id": "Pg2CCEoT3-l1Nz-R8ETQ-zoAi1U=", "properties": {"ref": "2104", "@spider": "chicos", "addr:full": "3056 State Rte 10 West, Ste O", "addr:city": "Denville", "addr:state": "NJ", "addr:postcode": "07834", "addr:country": "US", "name": "The Shoppes at Union Hill", "website": "https://stores.chicos.com/s/the-shoppes-at-union-hill", "brand": "Chico's"}, "geometry": {"type": "Point", "coordinates": [-74.5064298, 40.8663643]}},
{"type": "Feature", "id": "q606xy65OOK3Bfmh-SJHSBUJb3o=", "properties": {"ref": "2372", "@spider": "chicos", "addr:full": "8285 Jericho Turnpike, Ste 11", "addr:city": "Woodbury", "addr:state": "NY", "addr:postcode": "11797", "addr:country": "US", "name": "Woodbury Common", "website": "https://stores.chicos.com/s/woodbury-common", "brand": "Chico's"}, "geometry": {"type": "Point", "coordinates": [-73.4662976, 40.8168544]}},
{"type": "Feature", "id": "MezIPrsjz3fDf700Z87El7P8viY=", "properties": {"ref": "2381", "@spider": "chicos", "addr:full": "400 Commons Way, Ste 103", "addr:city": "Bridgewater", "addr:state": "NJ", "addr:postcode": "08807", "addr:country": "US", "name": "Bridgewater Commons", "website": "https://stores.chicos.com/s/chico-s-bridgewater-commons", "brand": "Chico's"}, "geometry": {"type": "Point", "coordinates": [-74.6193168, 40.5861219]}},
{"type": "Feature", "id": "bCxVIFV9814fUyTwmtiCdnI3xTA=", "properties": {"ref": "1983", "@spider": "chicos", "addr:full": "3710 Route 9, Suite 2704", "addr:city": "Freehold", "addr:state": "NJ", "addr:postcode": "07728", "addr:country": "US", "name": "Freehold Raceway Mall", "website": "https://stores.chicos.com/s/chico-s-freehold-raceway-mall", "brand": "Chico's"}, "geometry": {"type": "Point", "coordinates": [-74.3000294, 40.2531111]}},
{"type": "Feature", "id": "BorlvKy6DPDi_k01sLddRv73PXU=", "properties": {"ref": "2256", "@spider": "chicos", "addr:full": "39 South Moger Avenue", "addr:city": "Mount Kisco", "addr:state": "NY", "addr:postcode": "10549", "addr:country": "US", "name": "39 South Moger Avenue", "website": "https://stores.chicos.com/s/39-south-moger-avenue", "brand": "Chico's"}, "geometry": {"type": "Point", "coordinates": [-73.7288963, 41.2070688]}},
{"type": "Feature", "id": "6qfu2Pt8wGUSf3UqSqkRut-g-0k=", "properties": {"ref": "33913", "@spider": "chicos", "addr:full": "100 N Water St., Ste 1950", "addr:city": "Norwalk", "addr:state": "CT", "addr:postcode": "06854", "addr:country": "US", "name": "The SoNo Collection", "website": "https://stores.chicos.com/s/the-sono-collection", "brand": "Chico's"}, "geometry": {"type": "Point", "coordinates": [-73.41944, 41.10238]}},
{"type": "Feature", "id": "mRQPKx2jFBcgBjGeg6aOu2ze168=", "properties": {"ref": "2218", "@spider": "chicos", "addr:full": "2150 Hwy 35, Sp E-19", "addr:city": "Sea Girt", "addr:state": "NJ", "addr:postcode": "08750", "addr:country": "US", "name": "Brook 35 Plaza", "website": "https://stores.chicos.com/s/brook-35-plaza", "brand": "Chico's"}, "geometry": {"type": "Point", "coordinates": [-74.0345813, 40.1320592]}},
{"type": "Feature", "id": "pZimLFfsk61X5ySv0tw8aE2zroM=", "properties": {"ref": "2290", "@spider": "chicos", "addr:full": "3535 US Route 1, Spc 304", "addr:city": "Princeton", "addr:state": "NJ", "addr:postcode": "08540", "addr:country": "US", "name": "MarketFair", "website": "https://stores.chicos.com/s/marketfair", "brand": "Chico's"}, "geometry": {"type": "Point", "coordinates": [-74.6127955, 40.3529326]}},
{"type": "Feature", "id": "ZwVghlLIVj-FLK4DYj33cIGTDi4=", "properties": {"ref": "2012", "@spider": "chicos", "addr:full": "638 Smith Haven Mall, R-09", "addr:city": "Lake Grove", "addr:state": "NY", "addr:postcode": "11755", "addr:country": "US", "name": "Smith Haven Mall", "website": "https://stores.chicos.com/s/chico-s-smith-haven-mall", "brand": "Chico's"}, "geometry": {"type": "Point", "coordinates": [-73.1301191, 40.8649763]}},
{"type": "Feature", "id": "UwCUnIb2DGR1B9jUSygnfWsyEJ4=", "properties": {"ref": "2602", "@spider": "chicos", "addr:full": "1321 N Columbia Center Bou, Ste 800", "addr:city": "Kennewick", "addr:state": "WA", "addr:postcode": "99336", "addr:country": "US", "name": "Columbia Center", "website": "https://stores.chicos.com/s/columbia-center", "brand": "Chico's"}, "geometry": {"type": "Point", "coordinates": [-119.226758, 46.22603]}},
{"type": "Feature", "id": "B3JxYxQzXAzRGinAL3_uPZMQFVQ=", "properties": {"ref": "2171", "@spider": "chicos", "addr:full": "73100 El Paseo, Ste 4", "addr:city": "Palm Desert", "addr:state": "CA", "addr:postcode": "92260", "addr:country": "US", "name": "The Shops on El Paseo", "website": "https://stores.chicos.com/s/chico-s-the-shops-on-el-paseo", "brand": "Chico's"}, "geometry": {"type": "Point", "coordinates": [-116.3890815, 33.7200389]}},
{"type": "Feature", "id": "fLCPBNwXjFXj-OQe6l0C4KkcCwE=", "properties": {"ref": "2302", "@spider": "chicos", "addr:full": "155 S Palm Canyon Dr, Unit B-4", "addr:city": "Palm Springs", "addr:state": "CA", "addr:postcode": "92262", "addr:country": "US", "name": "Plaza Mercado (Palm Springs)", "website": "https://stores.chicos.com/s/plaza-mercado-palm-springs", "brand": "Chico's"}, "geometry": {"type": "Point", "coordinates": [-116.5472417, 33.8219196]}},
{"type": "Feature", "id": "BC_70kCPMcgjTeMwJ9QQCa5TgYw=", "properties": {"ref": "1936", "@spider": "chicos", "addr:full": "755 NW Gilman Blvd", "addr:city": "Issaquah", "addr:state": "WA", "addr:postcode": "98027", "addr:country": "US", "name": "Issaquah Commons", "website": "https://stores.chicos.com/s/issaquah-commons", "brand": "Chico's"}, "geometry": {"type": "Point", "coordinates": [-122.050597, 47.541811]}},
{"type": "Feature", "id": "92056Dh-WrNhJ4iO1QkJYyQnA8w=", "properties": {"ref": "2371", "@spider": "chicos", "addr:full": "7425 166th Avenue NE, Ste C125", "addr:city": "Redmond", "addr:state": "WA", "addr:postcode": "98052", "addr:country": "US", "name": "Redmond Town Center", "website": "https://stores.chicos.com/s/chico-s-redmond-town-center", "brand": "Chico's"}, "geometry": {"type": "Point", "coordinates": [-122.1188885, 47.6707934]}},
{"type": "Feature", "id": "QXBSVWC_aGubxgqLsi9QHrFRar4=", "properties": {"ref": "2081", "@spider": "chicos", "addr:full": "325 SW Powerhouse Drive, Ste 120", "addr:city": "Bend", "addr:state": "OR", "addr:postcode": "97702", "addr:country": "US", "name": "Old Mill District", "website": "https://stores.chicos.com/s/chico-s-old-mill-district", "brand": "Chico's"}, "geometry": {"type": "Point", "coordinates": [-121.3151947, 44.0472701]}},
{"type": "Feature", "id": "ONoHluIdbHqebg0u5Bs5b-tLI3I=", "properties": {"ref": "2596", "@spider": "chicos", "addr:full": "13925 S Virginia Street, Ste 224", "addr:city": "Reno", "addr:state": "NV", "addr:postcode": "89511", "addr:country": "US", "name": "The Summit Reno", "website": "https://stores.chicos.com/s/chico-s-the-summit-reno", "brand": "Chico's"}, "geometry": {"type": "Point", "coordinates": [-119.7511759, 39.4065597]}},
{"type": "Feature", "id": "8buNLsKkCqmaP7oCiH6mFWDPi-8=", "properties": {"ref": "2162", "@spider": "chicos", "addr:full": "2016 Bellevue Square", "addr:city": "Bellevue", "addr:state": "WA", "addr:postcode": "98004", "addr:country": "US", "name": "Bellevue Square", "website": "https://stores.chicos.com/s/chico-s-bellevue-square", "brand": "Chico's"}, "geometry": {"type": "Point", "coordinates": [-122.205816, 47.628255]}},
{"type": "Feature", "id": "PacFI48qLczIS-CrJapqbA_gmCE=", "properties": {"ref": "2198", "@spider": "chicos", "addr:full": "3000 184th Street SW, Ste 980", "addr:city": "Lynnwood", "addr:state": "WA", "addr:postcode": "98037", "addr:country": "US", "name": "Alderwood", "website": "https://stores.chicos.com/s/chico-s-alderwood", "brand": "Chico's"}, "geometry": {"type": "Point", "coordinates": [-122.2725709, 47.8299542]}},
{"type": "Feature", "id": "wi9CLJVFOfeqyLcJWzblDp_6glM=", "properties": {"ref": "2511", "@spider": "chicos", "addr:full": "441 Ramsay Way, Ste 101", "addr:city": "Kent", "addr:state": "WA", "addr:postcode": "98032", "addr:country": "US", "name": "Kent Station", "website": "https://stores.chicos.com/s/kent-station", "brand": "Chico's"}, "geometry": {"type": "Point", "coordinates": [-122.2358795, 47.3849174]}},
{"type": "Feature", "id": "ByLZkko5P-aNrNNXuFaxe7dbZqs=", "properties": {"ref": "2159", "@spider": "chicos", "addr:full": "1101 OUtlet Collection Wa, Ste 1020", "addr:city": "Auburn", "addr:state": "WA", "addr:postcode": "98001", "addr:country": "US", "name": "The Outlet Collection - Seattle", "website": "https://stores.chicos.com/s/the-outlet-collection-seattle", "brand": "Chico's"}, "geometry": {"type": "Point", "coordinates": [-122.2455457, 47.2991922]}},
{"type": "Feature", "id": "KOfSsmhmuc9n9T0Pt0HMvgadZPw=", "properties": {"ref": "1985", "@spider": "chicos", "addr:full": "3639 Riverside Plaza Drive, Ste 500", "addr:city": "Riverside", "addr:state": "CA", "addr:postcode": "92506", "addr:country": "US", "name": "Riverside Plaza", "website": "https://stores.chicos.com/s/riverside-plaza", "brand": "Chico's"}, "geometry": {"type": "Point", "coordinates": [-117.3915698, 33.9555498]}},
{"type": "Feature", "id": "sDAEJtWOsllKZ6vwRkuGHkHtVXc=", "properties": {"ref": "2471", "@spider": "chicos", "addr:full": "11321 Parkside Drive", "addr:city": "Knoxville", "addr:state": "TN", "addr:postcode": "37934", "addr:country": "US", "name": "Colonial Pinnacle at Turkey Creek", "website": "https://stores.chicos.com/s/chico-s-colonial-pinnacle-at-turkey-creek", "brand": "Chico's"}, "geometry": {"type": "Point", "coordinates": [-84.159678, 35.9018204]}},
{"type": "Feature", "id": "1vEVA7h4tbs0uOly5aSkpk9GbXY=", "properties": {"ref": "2638", "@spider": "chicos", "addr:full": "1251 US 31 North, Spc P100", "addr:city": "Greenwood", "addr:state": "IN", "addr:postcode": "46142", "addr:country": "US", "name": "Greenwood Park Mall", "website": "https://stores.chicos.com/s/chico-s-greenwood-park-mall", "brand": "Chico's"}, "geometry": {"type": "Point", "coordinates": [-86.1205805, 39.6326233]}},
{"type": "Feature", "id": "Uu0RqMftIJ-e6CeXqpkO7TTMCXk=", "properties": {"ref": "2053", "@spider": "chicos", "addr:full": "2881 Hwy 190, Ste D1", "addr:city": "Mandeville", "addr:state": "LA", "addr:postcode": "70471", "addr:country": "US", "name": "The Village Shopping Center", "website": "https://stores.chicos.com/s/the-village-shopping-center", "brand": "Chico's"}, "geometry": {"type": "Point", "coordinates": [-90.0787094, 30.3872134]}},
{"type": "Feature", "id": "OYlwh7j4ncVM1py-5yMFsC44fBI=", "properties": {"ref": "2166", "@spider": "chicos", "addr:full": "10371 Pacific Street", "addr:city": "Omaha", "addr:state": "NE", "addr:postcode": "68114", "addr:country": "US", "name": "One Pacific Place", "website": "https://stores.chicos.com/s/one-pacific-place", "brand": "Chico's"}, "geometry": {"type": "Point", "coordinates": [-96.0754576, 41.2478527]}},
{"type": "Feature", "id": "8c5BLYAdUvwd9mpLp2ONb_F0iAo=", "properties": {"ref": "2534", "@spider": "chicos", "addr:full": "17255 Davenport Street, Ste 105", "addr:city": "Omaha", "addr:state": "NE", "addr:postcode": "68118", "addr:country": "US", "name": "Village Pointe Shopping Center", "website": "https://stores.chicos.com/s/chico-s-village-pointe-shopping-center", "brand": "Chico's"}, "geometry": {"type": "Point", "coordinates": [-96.184381, 41.2606989]}},
{"type": "Feature", "id": "TQMquMcAj6LHqsQbq59T8ZjVnUQ=", "properties": {"ref": "2232", "@spider": "chicos", "addr:full": "5001 Sergeant Rd, Ste 200", "addr:city": "Sioux City", "addr:state": "IA", "addr:postcode": "51106", "addr:country": "US", "name": "Lakeport Commons", "website": "https://stores.chicos.com/s/lakeport-commons", "brand": "Chico's"}, "geometry": {"type": "Point", "coordinates": [-96.3418978, 42.4481276]}},
{"type": "Feature", "id": "62hdazKII9W0cGvRhiGpgKH-pUU=", "properties": {"ref": "2183", "@spider": "chicos", "addr:full": "3301 Veterans Memorial Bo, Suite 42", "addr:city": "Metairie", "addr:state": "LA", "addr:postcode": "70002", "addr:country": "US", "name": "Lakeside Shopping Center", "website": "https://stores.chicos.com/s/chico-s-lakeside-shopping-center", "brand": "Chico's"}, "geometry": {"type": "Point", "coordinates": [-90.1635442, 30.0144158]}},
{"type": "Feature", "id": "EHwlm6yacq2LtYZg7kHbG6P6EPU=", "properties": {"ref": "1937", "@spider": "chicos", "addr:full": "3308 S Louise Avenue", "addr:city": "Sioux Falls", "addr:state": "SD", "addr:postcode": "57106", "addr:country": "US", "name": "The Galleria at 41st Street", "website": "https://stores.chicos.com/s/the-galleria-at-41st-street", "brand": "Chico's"}, "geometry": {"type": "Point", "coordinates": [-96.7704898, 43.5142939]}},
{"type": "Feature", "id": "IsAjjSRJMj20ZHm_cuigTXvpG6I=", "properties": {"ref": "2788", "@spider": "chicos", "addr:full": "2940 Pine Lake Road, Ste L", "addr:city": "Lincoln", "addr:state": "NE", "addr:postcode": "68516", "addr:country": "US", "name": "SouthPointe Pavilions", "website": "https://stores.chicos.com/s/chico-s-southpointe-pavilions", "brand": "Chico's"}, "geometry": {"type": "Point", "coordinates": [-96.6788023, 40.7428884]}},
{"type": "Feature", "id": "_7-VzrrqONQURWePkNvMqAuGd8c=", "properties": {"ref": "2179", "@spider": "chicos", "addr:full": "6401 Bluebonnet Blvd, B200", "addr:city": "Baton Rouge", "addr:state": "LA", "addr:postcode": "70836", "addr:country": "US", "name": "Mall of Louisiana", "website": "https://stores.chicos.com/s/chico-s-mall-of-louisiana", "brand": "Chico's"}, "geometry": {"type": "Point", "coordinates": [-91.084348, 30.385752]}},
{"type": "Feature", "id": "XXw4g-ACqyZDCAO-5TonAu7SU60=", "properties": {"ref": "2356", "@spider": "chicos", "addr:full": "4254 D Saint Michael Dr", "addr:city": "Texarkana", "addr:state": "TX", "addr:postcode": "75503", "addr:country": "US", "name": "Texarkana Pavilion", "website": "https://stores.chicos.com/s/texarkana-pavilion", "brand": "Chico's"}, "geometry": {"type": "Point", "coordinates": [-94.0966483, 33.4545223]}},
{"type": "Feature", "id": "HbCeWDwUte2rT_ilrrZhedSqLtE=", "properties": {"ref": "2652", "@spider": "chicos", "addr:full": "6535 Youree Dr, Ste 101", "addr:city": "Shreveport", "addr:state": "LA", "addr:postcode": "71105", "addr:country": "US", "name": "Shoppes at Bellemead", "website": "https://stores.chicos.com/s/chico-s-shoppes-at-bellemead", "brand": "Chico's"}, "geometry": {"type": "Point", "coordinates": [-93.7194106, 32.4473033]}},
{"type": "Feature", "id": "mkHoXcSL7YEaUQubwyFnxC03e3Y=", "properties": {"ref": "2225", "@spider": "chicos", "addr:full": "5725 Johnston St, Sp F-233", "addr:city": "Lafayette", "addr:state": "LA", "addr:postcode": "70503", "addr:country": "US", "name": "The Mall of Acadiana", "website": "https://stores.chicos.com/s/chico-s-the-mall-of-acadiana", "brand": "Chico's"}, "geometry": {"type": "Point", "coordinates": [-92.0616178, 30.1716722]}},
{"type": "Feature", "id": "wgtOMPuOgUTwQOX1KgYw0t0mTTM=", "properties": {"ref": "2158", "@spider": "chicos", "addr:full": "496 W Prien Lake Road", "addr:city": "Lake Charles", "addr:state": "LA", "addr:postcode": "70601", "addr:country": "US", "name": "Prien Lake Mall", "website": "https://stores.chicos.com/s/prien-lake-mall", "brand": "Chico's"}, "geometry": {"type": "Point", "coordinates": [-93.2264904, 30.2002618]}},
{"type": "Feature", "id": "fQIusdgTTrE35f1bvAlKH5kVbjs=", "properties": {"ref": "2654", "@spider": "chicos", "addr:full": "4249 South Broadway", "addr:city": "Tyler", "addr:state": "TX", "addr:postcode": "75701", "addr:country": "US", "name": "Simpson Plaza", "website": "https://stores.chicos.com/s/simpson-plaza", "brand": "Chico's"}, "geometry": {"type": "Point", "coordinates": [-95.3013699, 32.303374]}},
{"type": "Feature", "id": "88-v5LooKQAQUICfNT_skn2coMM=", "properties": {"ref": "2360", "@spider": "chicos", "addr:full": "3195 Dowlen Road, Ste 102", "addr:city": "Beaumont", "addr:state": "TX", "addr:postcode": "77706", "addr:country": "US", "name": "Metropolis Shops on Dowlen", "website": "https://stores.chicos.com/s/chico-s-metropolis-shops-on-dowlen", "brand": "Chico's"}, "geometry": {"type": "Point", "coordinates": [-94.1691567, 30.1089978]}},
{"type": "Feature", "id": "8r_syP2ZqMtubHN8TTvshM6EOvE=", "properties": {"ref": "2583", "@spider": "chicos", "addr:full": "2750 S Central Expwy, Ste 104", "addr:city": "McKinney", "addr:state": "TX", "addr:postcode": "75070", "addr:country": "US", "name": "El Dorado Plaza", "website": "https://stores.chicos.com/s/el-dorado-plaza", "brand": "Chico's"}, "geometry": {"type": "Point", "coordinates": [-96.642483, 33.1751824]}},
{"type": "Feature", "id": "XgYuzuBo4RfZpcQSGzxtymzBs1I=", "properties": {"ref": "2525", "@spider": "chicos", "addr:full": "827 Watters Creek Blvd", "addr:city": "Allen", "addr:state": "TX", "addr:postcode": "75013", "addr:country": "US", "name": "Watters Creek at Montgomery Farm", "website": "https://stores.chicos.com/s/chico-s-watters-creek-at-montgomery-farm", "brand": "Chico's"}, "geometry": {"type": "Point", "coordinates": [-96.6833529, 33.0891294]}},
{"type": "Feature", "id": "8qe_no-0OVRGLALyutWqWEKvT4Y=", "properties": {"ref": "2590", "@spider": "chicos", "addr:full": "275 Cedar Sage Dr", "addr:city": "Garland", "addr:state": "TX", "addr:postcode": "75040", "addr:country": "US", "name": "Firewheel Town Center", "website": "https://stores.chicos.com/s/firewheel-town-center", "brand": "Chico's"}, "geometry": {"type": "Point", "coordinates": [-96.612244, 32.9537909]}},
{"type": "Feature", "id": "oAFTFYzFCeUfWap63fgjz-bNLkc=", "properties": {"ref": "2048", "@spider": "chicos", "addr:full": "2601 Preston Rd, Ste 1049", "addr:city": "Frisco", "addr:state": "TX", "addr:postcode": "75034", "addr:country": "US", "name": "Stonebriar Centre", "website": "https://stores.chicos.com/s/chico-s-stonebriar-centre", "brand": "Chico's"}, "geometry": {"type": "Point", "coordinates": [-96.812388, 33.09838]}},
{"type": "Feature", "id": "igPZfcRz4ldEvs9Z-m1t8QWM3mA=", "properties": {"ref": "2194", "@spider": "chicos", "addr:full": "1900 Preston Rd, Ste 160", "addr:city": "Plano", "addr:state": "TX", "addr:postcode": "75093", "addr:country": "US", "name": "Preston Park Village", "website": "https://stores.chicos.com/s/chico-s-preston-park-village", "brand": "Chico's"}, "geometry": {"type": "Point", "coordinates": [-96.7910958, 33.0252916]}},
{"type": "Feature", "id": "aE9veaPbLzrmWvftQQ392RaBWZA=", "properties": {"ref": "1971", "@spider": "chicos", "addr:full": "139 Main Street", "addr:city": "Stony Brook", "addr:state": "NY", "addr:postcode": "11790", "addr:country": "US", "name": "Stony Brook Village Center", "website": "https://stores.chicos.com/s/stony-brook-village-center", "brand": "Chico's"}, "geometry": {"type": "Point", "coordinates": [-73.1472265, 40.9190559]}},
{"type": "Feature", "id": "2RNhxmUqJewghJnYl8Y4VVYJP9c=", "properties": {"ref": "2080", "@spider": "chicos", "addr:full": "1499 Post Rd", "addr:city": "Fairfield", "addr:state": "CT", "addr:postcode": "06824", "addr:country": "US", "name": "Fairfield Center", "website": "https://stores.chicos.com/s/fairfield-center", "brand": "Chico's"}, "geometry": {"type": "Point", "coordinates": [-73.2581506, 41.1407599]}},
{"type": "Feature", "id": "Q9_-ijqrP1VeXQuX2mrvGk6N7Es=", "properties": {"ref": "2493", "@spider": "chicos", "addr:full": "1083 US Rte 9", "addr:city": "Fishkill", "addr:state": "NY", "addr:postcode": "12524", "addr:country": "US", "name": "Lawrence Farms Market Square", "website": "https://stores.chicos.com/s/lawrence-farms-market-square", "brand": "Chico's"}, "geometry": {"type": "Point", "coordinates": [-73.904848, 41.5619839]}},
{"type": "Feature", "id": "FZDWeQrj4cJmx8-dy8bB98P__bc=", "properties": {"ref": "2404", "@spider": "chicos", "addr:full": "136 N Flowers Mill Rd", "addr:city": "Langhorne", "addr:state": "PA", "addr:postcode": "19047", "addr:country": "US", "name": "The Shoppes at Flowers Mill", "website": "https://stores.chicos.com/s/the-shoppes-at-flowers-mill", "brand": "Chico's"}, "geometry": {"type": "Point", "coordinates": [-74.9052066, 40.1822727]}},
{"type": "Feature", "id": "Izo-4mg3Xca3WF0ekl_g66ohwcw=", "properties": {"ref": "2640", "@spider": "chicos", "addr:full": "1668 Boston Post Rd", "addr:city": "Milford", "addr:state": "CT", "addr:postcode": "06460", "addr:country": "US", "name": "Milford Marketplace", "website": "https://stores.chicos.com/s/chico-s-milford-marketplace", "brand": "Chico's"}, "geometry": {"type": "Point", "coordinates": [-73.0264543, 41.2484919]}},
{"type": "Feature", "id": "CbvqnnCR3KKIaSsf1PIVwJeEFMM=", "properties": {"ref": "2691", "@spider": "chicos", "addr:full": "775 Main St S", "addr:city": "Southbury", "addr:state": "CT", "addr:postcode": "06488", "addr:country": "US", "name": "Southbury Green Shopping Center", "website": "https://stores.chicos.com/s/southbury-green-shopping-center", "brand": "Chico's"}, "geometry": {"type": "Point", "coordinates": [-73.2317118, 41.4633691]}},
{"type": "Feature", "id": "rek3g8IES2Q9z78HMOPcvyUnn-Y=", "properties": {"ref": "2013", "@spider": "chicos", "addr:full": "1556 Main Street, Spc 702", "addr:city": "Warrington", "addr:state": "PA", "addr:postcode": "18976", "addr:country": "US", "name": "The Shops at Valley Square", "website": "https://stores.chicos.com/s/chico-s-the-shops-at-valley-square", "brand": "Chico's"}, "geometry": {"type": "Point", "coordinates": [-75.1366161, 40.2319392]}},
{"type": "Feature", "id": "SI8H6z4s2uED0ACsvmg4TjAXVXM=", "properties": {"ref": "2094", "@spider": "chicos", "addr:full": "4190 Dearborn Circle, Unit 114", "addr:city": "Mount Laurel", "addr:state": "NJ", "addr:postcode": "08054", "addr:country": "US", "name": "The Village at Cambridge Crossing", "website": "https://stores.chicos.com/s/the-village-at-cambridge-crossing", "brand": "Chico's"}, "geometry": {"type": "Point", "coordinates": [-74.9020785, 39.9704332]}},
{"type": "Feature", "id": "ef12Gxw9SloQ1fa4GbATMldOQRo=", "properties": {"ref": "2202", "@spider": "chicos", "addr:full": "1659 The Fairway", "addr:city": "Jenkintown", "addr:state": "PA", "addr:postcode": "19046", "addr:country": "US", "name": "Baederwood Shopping Center", "website": "https://stores.chicos.com/s/baederwood-shopping-center", "brand": "Chico's"}, "geometry": {"type": "Point", "coordinates": [-75.1185233, 40.1072359]}},
{"type": "Feature", "id": "ZrA1Bldq9JFsXuGpx3kOXc0oPdg=", "properties": {"ref": "2612", "@spider": "chicos", "addr:full": "40756 Winchester Rd, Suite 290", "addr:city": "Temecula", "addr:state": "CA", "addr:postcode": "92591", "addr:country": "US", "name": "Promenade Temecula", "website": "https://stores.chicos.com/s/chico-s-promenade-temecula", "brand": "Chico's"}, "geometry": {"type": "Point", "coordinates": [-117.1573354, 33.5263224]}},
{"type": "Feature", "id": "Dgjljx3piFVCmxdR_KKOxsQbL2g=", "properties": {"ref": "2593", "@spider": "chicos", "addr:full": "2600 SW Barton St, Ste E2", "addr:city": "Seattle", "addr:state": "WA", "addr:postcode": "98126", "addr:country": "US", "name": "Westwood Village", "website": "https://stores.chicos.com/s/westwood-village", "brand": "Chico's"}, "geometry": {"type": "Point", "coordinates": [-122.3650881, 47.5214115]}},
{"type": "Feature", "id": "LxaD5EKsWjt6u7Hs0nborwMQAcI=", "properties": {"ref": "2155", "@spider": "chicos", "addr:full": "11955 Carmel Mountain Rd, 703", "addr:city": "San Diego", "addr:state": "CA", "addr:postcode": "92128", "addr:country": "US", "name": "Carmel Mountain Ranch TC", "website": "https://stores.chicos.com/s/carmel-mountain-ranch-tc", "brand": "Chico's"}, "geometry": {"type": "Point", "coordinates": [-117.0750761, 32.9819831]}},
{"type": "Feature", "id": "y2a2WBOKyEhjA7FiPuy510DgxCU=", "properties": {"ref": "1982", "@spider": "chicos", "addr:full": "4735 Point Fosdick Dr. NW, Ste100", "addr:city": "Gig Harbor", "addr:state": "WA", "addr:postcode": "98335", "addr:country": "US", "name": "Uptown Gig Harbor", "website": "https://stores.chicos.com/s/chico-s-uptown-gig-harbor", "brand": "Chico's"}, "geometry": {"type": "Point", "coordinates": [-122.5774616, 47.3010013]}},
{"type": "Feature", "id": "9mD1l-zIDTkiKj31yada9Db0PLc=", "properties": {"ref": "2677", "@spider": "chicos", "addr:full": "101 N Indian Hill Blvd, Ste C1-100", "addr:city": "Claremont", "addr:state": "CA", "addr:postcode": "91711", "addr:country": "US", "name": "Claremont Village", "website": "https://stores.chicos.com/s/claremont-village", "brand": "Chico's"}, "geometry": {"type": "Point", "coordinates": [-117.7194937, 34.0947715]}},
{"type": "Feature", "id": "fOR5NVvxnD5TRBWjKvWdhk-IutU=", "properties": {"ref": "2325", "@spider": "chicos", "addr:full": "13850 City Center Dr., Ste 5055", "addr:city": "Chino Hills", "addr:state": "CA", "addr:postcode": "91709", "addr:country": "US", "name": "Shoppes at Chino Hills", "website": "https://stores.chicos.com/s/chico-s-shoppes-at-chino-hills", "brand": "Chico's"}, "geometry": {"type": "Point", "coordinates": [-117.7307086, 34.0016017]}},
{"type": "Feature", "id": "dz9IY_ludBK8f6PhyhJMHUgoSgk=", "properties": {"ref": "1931", "@spider": "chicos", "addr:full": "1925 Calle Barcelona, Ste 161", "addr:city": "Carlsbad", "addr:state": "CA", "addr:postcode": "92009", "addr:country": "US", "name": "The Forum at Carlsbad", "website": "https://stores.chicos.com/s/chico-s-the-forum-at-carlsbad", "brand": "Chico's"}, "geometry": {"type": "Point", "coordinates": [-117.2660381, 33.0720678]}},
{"type": "Feature", "id": "u8545MAvujkSVcHhCWOE0-Yn-So=", "properties": {"ref": "2051", "@spider": "chicos", "addr:full": "5959 Royal Lane, Ste 537", "addr:city": "Dallas", "addr:state": "TX", "addr:postcode": "75230", "addr:country": "US", "name": "Preston Royal Shopping Center", "website": "https://stores.chicos.com/s/chico-s-preston-royal-shopping-center", "brand": "Chico's"}, "geometry": {"type": "Point", "coordinates": [-96.8057356, 32.8957338]}},
{"type": "Feature", "id": "weRpuimfqsNivnNJLa1THJ80MjI=", "properties": {"ref": "2169", "@spider": "chicos", "addr:full": "5600 W Lovers Ln, Ste 147", "addr:city": "Dallas", "addr:state": "TX", "addr:postcode": "75209", "addr:country": "US", "name": "The Pavilion on Lovers Lane", "website": "https://stores.chicos.com/s/the-pavilion-on-lovers-lane", "brand": "Chico's"}, "geometry": {"type": "Point", "coordinates": [-96.8155005, 32.8505108]}},
{"type": "Feature", "id": "MDVI_fm2bOfE8C7kf12IndYAXi0=", "properties": {"ref": "2512", "@spider": "chicos", "addr:full": "4071 Deer Creek, Ste 110", "addr:city": "Highland Village", "addr:state": "TX", "addr:postcode": "75077", "addr:country": "US", "name": "The Shops at Highland Village", "website": "https://stores.chicos.com/s/chico-s-the-shops-at-highland-village", "brand": "Chico's"}, "geometry": {"type": "Point", "coordinates": [-97.085364, 33.0734188]}},
{"type": "Feature", "id": "t2GWRBG3ywjnG_atYL3nmdi9dH8=", "properties": {"ref": "2418", "@spider": "chicos", "addr:full": "300 Grand Ave E", "addr:city": "Southlake", "addr:state": "TX", "addr:postcode": "76092", "addr:country": "US", "name": "Southlake Town Square", "website": "https://stores.chicos.com/s/chico-s-southlake-town-square", "brand": "Chico's"}, "geometry": {"type": "Point", "coordinates": [-97.1297759, 32.9441449]}},
{"type": "Feature", "id": "M_bg_CgYtYjqxycY3TykW6zDRS0=", "properties": {"ref": "2000", "@spider": "chicos", "addr:full": "305 West FM 1382, Spc 301", "addr:city": "Cedar Hill", "addr:state": "TX", "addr:postcode": "75104", "addr:country": "US", "name": "Hillside Village", "website": "https://stores.chicos.com/s/hillside-village", "brand": "Chico's"}, "geometry": {"type": "Point", "coordinates": [-96.9424976, 32.6023238]}},
{"type": "Feature", "id": "VmtOGZ4VNrH3CaoWxF2Z6Y6ZFmI=", "properties": {"ref": "2223", "@spider": "chicos", "addr:full": "586 Lincoln Square", "addr:city": "Arlington", "addr:state": "TX", "addr:postcode": "76011", "addr:country": "US", "name": "Lincoln Square", "website": "https://stores.chicos.com/s/chico-s-lincoln-square", "brand": "Chico's"}, "geometry": {"type": "Point", "coordinates": [-97.098799, 32.756326]}},
{"type": "Feature", "id": "HuBSDU57iKIGcUbvKfVi0uXEog0=", "properties": {"ref": "1967", "@spider": "chicos", "addr:full": "1101 Melbourne Road, Ste 3078", "addr:city": "Hurst", "addr:state": "TX", "addr:postcode": "76053", "addr:country": "US", "name": "North East Mall", "website": "https://stores.chicos.com/s/chico-s-north-east-mall", "brand": "Chico's"}, "geometry": {"type": "Point", "coordinates": [-97.2003446, 32.8298826]}},
{"type": "Feature", "id": "txOqq6kvE-1k2u4E551yPFwP6jg=", "properties": {"ref": "2071", "@spider": "chicos", "addr:full": "4001 Arlington Highlands B, Ste 149", "addr:city": "Arlington", "addr:state": "TX", "addr:postcode": "76018", "addr:country": "US", "name": "Arlington Highlands", "website": "https://stores.chicos.com/s/chico-s-arlington-highlands", "brand": "Chico's"}, "geometry": {"type": "Point", "coordinates": [-97.1088916, 32.679839]}},
{"type": "Feature", "id": "KV8HoxipjOfS-3mlcKDP-HP_loo=", "properties": {"ref": "2558", "@spider": "chicos", "addr:full": "711 Kirkwood", "addr:city": "Bismarck", "addr:state": "ND", "addr:postcode": "58504", "addr:country": "US", "name": "Kirkwood Mall", "website": "https://stores.chicos.com/s/kirkwood-mall", "brand": "Chico's"}, "geometry": {"type": "Point", "coordinates": [-100.7866684, 46.7964517]}},
{"type": "Feature", "id": "F2T9kY520rTUwfA2ZFIQ8ZGjMp4=", "properties": {"ref": "2721", "@spider": "chicos", "addr:full": "876 Kingwood Dr", "addr:city": "Kingwood", "addr:state": "TX", "addr:postcode": "77339", "addr:country": "US", "name": "Kingwood Commons", "website": "https://stores.chicos.com/s/chico-s-kingwood-commons", "brand": "Chico's"}, "geometry": {"type": "Point", "coordinates": [-95.2450587, 30.0497394]}},
{"type": "Feature", "id": "tyPgei9erlKjM0ZUa5vA9IuJfvc=", "properties": {"ref": "2195", "@spider": "chicos", "addr:full": "1604 S University Dr, Ste 510", "addr:city": "Fort Worth", "addr:state": "TX", "addr:postcode": "76107", "addr:country": "US", "name": "University Park Village", "website": "https://stores.chicos.com/s/chico-s-university-park-village", "brand": "Chico's"}, "geometry": {"type": "Point", "coordinates": [-97.3637407, 32.7281659]}},
{"type": "Feature", "id": "oiQVrYJjIcuAVGQPmGrQs8mK0tY=", "properties": {"ref": "2181", "@spider": "chicos", "addr:full": "1201 Lake Woodlands Dr, Ste 1150", "addr:city": "The Woodlands", "addr:state": "TX", "addr:postcode": "77380", "addr:country": "US", "name": "The Woodlands Mall", "website": "https://stores.chicos.com/s/chico-s-the-woodlands-mall", "brand": "Chico's"}, "geometry": {"type": "Point", "coordinates": [-95.454284, 30.165802]}},
{"type": "Feature", "id": "cGrPqWTC4ugU8bzsfNCZl0XiyLk=", "properties": {"ref": "2720", "@spider": "chicos", "addr:full": "1460 Bethlehem Pike, 320", "addr:city": "North Wales", "addr:state": "PA", "addr:postcode": "19454", "addr:country": "US", "name": "The Shoppes at English Village", "website": "https://stores.chicos.com/s/chico-s-the-shoppes-at-english-village", "brand": "Chico's"}, "geometry": {"type": "Point", "coordinates": [-75.2235209, 40.207799]}},
{"type": "Feature", "id": "lrwwW07zvZ26c1w_sO2v_kQkMzY=", "properties": {"ref": "2142", "@spider": "chicos", "addr:full": "2945 Center Valley Parkw, Suite 309", "addr:city": "Center Valley", "addr:state": "PA", "addr:postcode": "18034", "addr:country": "US", "name": "Promenade Shops at Saucon Valley", "website": "https://stores.chicos.com/s/promenade-shops-at-saucon-valley", "brand": "Chico's"}, "geometry": {"type": "Point", "coordinates": [-75.410009, 40.5583]}},
{"type": "Feature", "id": "kDj_3VPf6tzVecU7ZwVu8dm3FsI=", "properties": {"ref": "2188", "@spider": "chicos", "addr:full": "300 State Route 73, Unit 9", "addr:city": "Marlton", "addr:state": "NJ", "addr:postcode": "08053", "addr:country": "US", "name": "Marlton Square", "website": "https://stores.chicos.com/s/marlton-square", "brand": "Chico's"}, "geometry": {"type": "Point", "coordinates": [-74.9240476, 39.8905208]}},
{"type": "Feature", "id": "Kos-NTz9sQCGv3nT2solKaxTbbE=", "properties": {"ref": "2797", "@spider": "chicos", "addr:full": "2000 Route 38, Ste 1125", "addr:city": "Cherry Hill", "addr:state": "NJ", "addr:postcode": "08002", "addr:country": "US", "name": "Cherry Hill Mall", "website": "https://stores.chicos.com/s/chico-s-cherry-hill-mall", "brand": "Chico's"}, "geometry": {"type": "Point", "coordinates": [-75.0261976, 39.9418533]}},
{"type": "Feature", "id": "tzjAJ1B2paie8M0GztQS5y_WUHY=", "properties": {"ref": "2606", "@spider": "chicos", "addr:full": "504 West Germantown Pike", "addr:city": "Plymouth Meeting", "addr:state": "PA", "addr:postcode": "19462", "addr:country": "US", "name": "Plymouth Meeting Mall", "website": "https://stores.chicos.com/s/chico-s-plymouth-meeting-mall", "brand": "Chico's"}, "geometry": {"type": "Point", "coordinates": [-75.2820717, 40.1160924]}},
{"type": "Feature", "id": "Es5gp8WvhdGe2J_qwLHSF4QbtZc=", "properties": {"ref": "2134", "@spider": "chicos", "addr:full": "690 West Dekalb Pike., Ste 1060", "addr:city": "King of Prussia", "addr:state": "PA", "addr:postcode": "19406", "addr:country": "US", "name": "King of Prussia Mall", "website": "https://stores.chicos.com/s/chico-s-king-of-prussia-mall", "brand": "Chico's"}, "geometry": {"type": "Point", "coordinates": [-75.385959, 40.089203]}},
{"type": "Feature", "id": "moIgRr9tuWeQF0IccV3C-aGOsBY=", "properties": {"ref": "2409", "@spider": "chicos", "addr:full": "161 Market Street, Suite 1", "addr:city": "Collegeville", "addr:state": "PA", "addr:postcode": "19426", "addr:country": "US", "name": "Providence Town Center", "website": "https://stores.chicos.com/s/chico-s-providence-town-center", "brand": "Chico's"}, "geometry": {"type": "Point", "coordinates": [-75.4801578, 40.1651525]}},
{"type": "Feature", "id": "fdu27-E8AospPfLJlJroCDZ9rgI=", "properties": {"ref": "2688", "@spider": "chicos", "addr:full": "20 Paoli I Shopping Center", "addr:city": "Paoli", "addr:state": "PA", "addr:postcode": "19301", "addr:country": "US", "name": "Paoli Shopping Center", "website": "https://stores.chicos.com/s/paoli-shopping-center", "brand": "Chico's"}, "geometry": {"type": "Point", "coordinates": [-75.4780682, 40.0409973]}},
{"type": "Feature", "id": "rqqoiGBOkIimg2HWccWOWnR9qiU=", "properties": {"ref": "2135", "@spider": "chicos", "addr:full": "110 Albany Turnpike, Ste 617", "addr:city": "Canton", "addr:state": "CT", "addr:postcode": "06019", "addr:country": "US", "name": "The Shoppes at Farmington Valley", "website": "https://stores.chicos.com/s/chico-s-the-shoppes-at-farmington-valley", "brand": "Chico's"}, "geometry": {"type": "Point", "coordinates": [-72.8829132, 41.8224465]}},
{"type": "Feature", "id": "99MS2zYnYxE3M5_kGYAf5_niWyA=", "properties": {"ref": "2278", "@spider": "chicos", "addr:full": "2321 Shoppes Blvd", "addr:city": "Moosic", "addr:state": "PA", "addr:postcode": "18507", "addr:country": "US", "name": "Shoppes at Montage", "website": "https://stores.chicos.com/s/chico-s-shoppes-at-montage", "brand": "Chico's"}, "geometry": {"type": "Point", "coordinates": [-75.6756946, 41.3630243]}},
{"type": "Feature", "id": "PxoorGBcFhotuu8HRiRuDcAPud4=", "properties": {"ref": "2255", "@spider": "chicos", "addr:full": "935 Baltimore Pike, Unit E200", "addr:city": "Glen Mills", "addr:state": "PA", "addr:postcode": "19342", "addr:country": "US", "name": "The Shoppes at Brinton Lake", "website": "https://stores.chicos.com/s/chico-s-the-shoppes-at-brinton-lake", "brand": "Chico's"}, "geometry": {"type": "Point", "coordinates": [-75.5324169, 39.884571]}},
{"type": "Feature", "id": "r0UPuJbUu5f9V92q8kPxM4rippY=", "properties": {"ref": "2043", "@spider": "chicos", "addr:full": "140 Glastonbury Boulevard, Ste 158", "addr:city": "Glastonbury", "addr:state": "CT", "addr:postcode": "06033", "addr:country": "US", "name": "The Shops at Somerset Square", "website": "https://stores.chicos.com/s/the-shops-at-somerset-square", "brand": "Chico's"}, "geometry": {"type": "Point", "coordinates": [-72.6212357, 41.7205122]}},
{"type": "Feature", "id": "utgk55q7c7P9u2i5mPypxgfhhSA=", "properties": {"ref": "2521", "@spider": "chicos", "addr:full": "742 Woodland Road", "addr:city": "Wyomissing", "addr:state": "PA", "addr:postcode": "19610", "addr:country": "US", "name": "The Shoppes at Wyomissing", "website": "https://stores.chicos.com/s/the-shoppes-at-wyomissing", "brand": "Chico's"}, "geometry": {"type": "Point", "coordinates": [-75.9653051, 40.350272]}},
{"type": "Feature", "id": "F8kUencujT-LBefSEvjpnuI76ss=", "properties": {"ref": "1979", "@spider": "chicos", "addr:full": "700 Baybrook Mall, Ste F129", "addr:city": "Friendswood", "addr:state": "TX", "addr:postcode": "77546", "addr:country": "US", "name": "Baybrook Mall", "website": "https://stores.chicos.com/s/chico-s-baybrook-mall", "brand": "Chico's"}, "geometry": {"type": "Point", "coordinates": [-95.15136, 29.54378]}},
{"type": "Feature", "id": "sKeKoL1aD9kktYjzmphAY1Cjhbc=", "properties": {"ref": "2168", "@spider": "chicos", "addr:full": "2008 W Gray Street", "addr:city": "Houston", "addr:state": "TX", "addr:postcode": "77019", "addr:country": "US", "name": "River Oaks Shopping Center", "website": "https://stores.chicos.com/s/chico-s-river-oaks-shopping-center", "brand": "Chico's"}, "geometry": {"type": "Point", "coordinates": [-95.4089848, 29.7534066]}},
{"type": "Feature", "id": "Ofirbu6iaHzEzrO2NQ1dVft8JIs=", "properties": {"ref": "2190", "@spider": "chicos", "addr:full": "4042 Westheimer Road", "addr:city": "Houston", "addr:state": "TX", "addr:postcode": "77027", "addr:country": "US", "name": "Highland Village", "website": "https://stores.chicos.com/s/chico-s-highland-village", "brand": "Chico's"}, "geometry": {"type": "Point", "coordinates": [-95.4459682, 29.7417097]}},
{"type": "Feature", "id": "S3Y0kkDisirKzB5-KLMDb71vYOk=", "properties": {"ref": "2505", "@spider": "chicos", "addr:full": "5135 W Alabama Street, Ste 5150A", "addr:city": "Houston", "addr:state": "TX", "addr:postcode": "77056", "addr:country": "US", "name": "Houston Galleria", "website": "https://stores.chicos.com/s/chico-s-houston-galleria", "brand": "Chico's"}, "geometry": {"type": "Point", "coordinates": [-95.463447, 29.737432]}},
{"type": "Feature", "id": "1qrHUPTdtQoae6PXS5GlWUP6y7g=", "properties": {"ref": "2185", "@spider": "chicos", "addr:full": "1395 South Voss Road", "addr:city": "Houston", "addr:state": "TX", "addr:postcode": "77057", "addr:country": "US", "name": "Woodway Collection", "website": "https://stores.chicos.com/s/woodway-collection", "brand": "Chico's"}, "geometry": {"type": "Point", "coordinates": [-95.5010596, 29.753485]}},
{"type": "Feature", "id": "r8gXyrCruPRZ_6TsaNlDiNSWqog=", "properties": {"ref": "2193", "@spider": "chicos", "addr:full": "12850 Memorial Dr, Ste 426", "addr:city": "Houston", "addr:state": "TX", "addr:postcode": "77024", "addr:country": "US", "name": "Town & Country Village", "website": "https://stores.chicos.com/s/chico-s-town-country-village", "brand": "Chico's"}, "geometry": {"type": "Point", "coordinates": [-95.56056, 29.77279]}},
{"type": "Feature", "id": "Hr3HEKYFDUPzFaJDJEwVVKJaNxs=", "properties": {"ref": "2565", "@spider": "chicos", "addr:full": "2400 10th St", "addr:city": "Minot", "addr:state": "ND", "addr:postcode": "58701", "addr:country": "US", "name": "Dakota Square Mall", "website": "https://stores.chicos.com/s/dakota-square-mall", "brand": "Chico's"}, "geometry": {"type": "Point", "coordinates": [-101.311694, 48.2057959]}},
{"type": "Feature", "id": "QMiVDwikU3zH6Mupthm67TThQ9c=", "properties": {"ref": "1935", "@spider": "chicos", "addr:full": "2444 West Loop 340, Ste 13", "addr:city": "Waco", "addr:state": "TX", "addr:postcode": "76711", "addr:country": "US", "name": "Central Texas Marketplace", "website": "https://stores.chicos.com/s/central-texas-marketplace", "brand": "Chico's"}, "geometry": {"type": "Point", "coordinates": [-97.1752736, 31.5030651]}},
{"type": "Feature", "id": "FHo3vfpp3dobL6GCcc5QFZT7a8A=", "properties": {"ref": "2103", "@spider": "chicos", "addr:full": "16535 Southwest Freeway, Ste 2012", "addr:city": "Sugar Land", "addr:state": "TX", "addr:postcode": "77479", "addr:country": "US", "name": "First Colony Mall", "website": "https://stores.chicos.com/s/chico-s-first-colony-mall", "brand": "Chico's"}, "geometry": {"type": "Point", "coordinates": [-95.6244816, 29.5919665]}},
{"type": "Feature", "id": "XiBPbSu896Uv8wAbZikXaltHtd0=", "properties": {"ref": "3161", "@spider": "chicos", "addr:full": "11200 Lakeline Mall Dr, F05B", "addr:city": "Cedar Park", "addr:state": "TX", "addr:postcode": "78613", "addr:country": "US", "name": "Lakeline Mall", "website": "https://stores.chicos.com/s/chico-s-lakeline-mall", "brand": "Chico's"}, "geometry": {"type": "Point", "coordinates": [-97.8202888, 30.505198]}},
{"type": "Feature", "id": "Q9DQgo2ziW42bj_m-5b5CZDZ7IQ=", "properties": {"ref": "2167", "@spider": "chicos", "addr:full": "10000 Research Blvd, Ste 111A", "addr:city": "Austin", "addr:state": "TX", "addr:postcode": "78759", "addr:country": "US", "name": "The Arboretum", "website": "https://stores.chicos.com/s/chico-s-the-arboretum", "brand": "Chico's"}, "geometry": {"type": "Point", "coordinates": [-97.747357, 30.3909046]}},
{"type": "Feature", "id": "DxhGH516o0iZVIcm-3Uu5Nf79ao=", "properties": {"ref": "2186", "@spider": "chicos", "addr:full": "2901 S Capitol of Texas Hw, Ste B06", "addr:city": "Austin", "addr:state": "TX", "addr:postcode": "78746", "addr:country": "US", "name": "Barton Creek Square", "website": "https://stores.chicos.com/s/chico-s-barton-creek-square", "brand": "Chico's"}, "geometry": {"type": "Point", "coordinates": [-97.81056, 30.2562]}},
{"type": "Feature", "id": "Z1JncJH71QPziQPQDzFgOk87S9g=", "properties": {"ref": "2685", "@spider": "chicos", "addr:full": "3846 Kennett Pike", "addr:city": "Greenville", "addr:state": "DE", "addr:postcode": "19807", "addr:country": "US", "name": "Powder Mill Square", "website": "https://stores.chicos.com/s/powder-mill-square", "brand": "Chico's"}, "geometry": {"type": "Point", "coordinates": [-75.5969224, 39.77594]}},
{"type": "Feature", "id": "qHadgwMZ7Xv3vbgu8i7m7zkyhvY=", "properties": {"ref": "2123", "@spider": "chicos", "addr:full": "501 Evergreen Way", "addr:city": "South Windsor", "addr:state": "CT", "addr:postcode": "06074", "addr:country": "US", "name": "The Promenade Shops at Evergreen", "website": "https://stores.chicos.com/s/the-promenade-shops-at-evergreen", "brand": "Chico's"}, "geometry": {"type": "Point", "coordinates": [-72.5563978, 41.8134462]}},
{"type": "Feature", "id": "sLpudTGc6i2jvmvb1zM8jUhXC-I=", "properties": {"ref": "2076", "@spider": "chicos", "addr:full": "690 Bliss Road, Unit 1", "addr:city": "Longmeadow", "addr:state": "MA", "addr:postcode": "01106", "addr:country": "US", "name": "The Longmeadow Shops", "website": "https://stores.chicos.com/s/the-longmeadow-shops", "brand": "Chico's"}, "geometry": {"type": "Point", "coordinates": [-72.5551519, 42.0569808]}},
{"type": "Feature", "id": "o5Fm1-lK3-VzFkVqlzr762TyjWc=", "properties": {"ref": "2007", "@spider": "chicos", "addr:full": "1645 Manheim Pike", "addr:city": "Lancaster", "addr:state": "PA", "addr:postcode": "17601", "addr:country": "US", "name": "Chelsea Square Shopping Center", "website": "https://stores.chicos.com/s/chelsea-square-shopping-center", "brand": "Chico's"}, "geometry": {"type": "Point", "coordinates": [-76.3407753, 40.0834688]}},
{"type": "Feature", "id": "H6O34XXVpyA4JGN7obhqJ9JL-lM=", "properties": {"ref": "1626", "@spider": "chicos", "addr:full": "1475 Western Ave, Ste 18C", "addr:city": "Albany", "addr:state": "NY", "addr:postcode": "12203", "addr:country": "US", "name": "Stuyvesant Plaza", "website": "https://stores.chicos.com/s/chico-s-stuyvesant-plaza", "brand": "Chico's"}, "geometry": {"type": "Point", "coordinates": [-73.8403005, 42.6843615]}},
{"type": "Feature", "id": "TREFLIc8lckVINWRl2VtuC1tMWY=", "properties": {"ref": "1972", "@spider": "chicos", "addr:full": "64 Hillside Road", "addr:city": "Cranston", "addr:state": "RI", "addr:postcode": "02920", "addr:country": "US", "name": "Garden City Center", "website": "https://stores.chicos.com/s/chico-s-garden-city-center", "brand": "Chico's"}, "geometry": {"type": "Point", "coordinates": [-71.4578857, 41.7627986]}},
{"type": "Feature", "id": "5HB3LC_jqE9uaJ4fu3XWsUmpUUc=", "properties": {"ref": "2656", "@spider": "chicos", "addr:full": "2585 Brindle Dr", "addr:city": "Harrisburg", "addr:state": "PA", "addr:postcode": "17110", "addr:country": "US", "name": "Shoppes at Susquehanna Marketplace", "website": "https://stores.chicos.com/s/shoppes-at-susquehanna-marketplace", "brand": "Chico's"}, "geometry": {"type": "Point", "coordinates": [-76.8439439, 40.3040812]}},
{"type": "Feature", "id": "P3qH1KoYDwOdPHmDUgWwpB3ccsY=", "properties": {"ref": "2504", "@spider": "chicos", "addr:full": "1722 S Queen Street, Ste 220", "addr:city": "York", "addr:state": "PA", "addr:postcode": "17403", "addr:country": "US", "name": "Randolph Park Shopping Center", "website": "https://stores.chicos.com/s/randolph-park-shopping-center", "brand": "Chico's"}, "geometry": {"type": "Point", "coordinates": [-76.7052287, 39.9418504]}},
{"type": "Feature", "id": "E0PckqFxhW0At9p8tE_vyAIrpmE=", "properties": {"ref": "1953", "@spider": "chicos", "addr:full": "112 South 32nd St", "addr:city": "Camp Hill", "addr:state": "PA", "addr:postcode": "17011", "addr:country": "US", "name": "Camp Hill Shopping Center", "website": "https://stores.chicos.com/s/camp-hill-shopping-center", "brand": "Chico's"}, "geometry": {"type": "Point", "coordinates": [-76.9347173, 40.2350962]}},
{"type": "Feature", "id": "8DJ7-hCrnKxim4bZw1H2EdSTaGs=", "properties": {"ref": "1980", "@spider": "chicos", "addr:full": "12801 Hill Country Blvd, Ste C1 132", "addr:city": "Bee Cave", "addr:state": "TX", "addr:postcode": "78738", "addr:country": "US", "name": "Hill Country Galleria", "website": "https://stores.chicos.com/s/chico-s-hill-country-galleria", "brand": "Chico's"}, "geometry": {"type": "Point", "coordinates": [-97.94054, 30.308855]}},
{"type": "Feature", "id": "4Q3zZ9pIfXi9Jyg8AUezgD0CrfE=", "properties": {"ref": "2619", "@spider": "chicos", "addr:full": "3350 S Soncy Rd, Ste 116", "addr:city": "Amarillo", "addr:state": "TX", "addr:postcode": "79124", "addr:country": "US", "name": "Forum at Soncy", "website": "https://stores.chicos.com/s/forum-at-soncy", "brand": "Chico's"}, "geometry": {"type": "Point", "coordinates": [-101.93995, 35.1774]}},
{"type": "Feature", "id": "11BCjXajlIyAv8Pg0lXgojRHExc=", "properties": {"ref": "2475", "@spider": "chicos", "addr:full": "22702 US Hwy 281 N, Ste 101", "addr:city": "San Antonio", "addr:state": "TX", "addr:postcode": "78258", "addr:country": "US", "name": "Village at Stone Oak", "website": "https://stores.chicos.com/s/chico-s-village-at-stone-oak", "brand": "Chico's"}, "geometry": {"type": "Point", "coordinates": [-98.4491371, 29.6534003]}},
{"type": "Feature", "id": "qr0_ORIsyLng-GcwJZ4kwcVvcSw=", "properties": {"ref": "2276", "@spider": "chicos", "addr:full": "255 E Basse Rd, Ste 814", "addr:city": "San Antonio", "addr:state": "TX", "addr:postcode": "78209", "addr:country": "US", "name": "Alamo Quarry Market", "website": "https://stores.chicos.com/s/chico-s-alamo-quarry-market", "brand": "Chico's"}, "geometry": {"type": "Point", "coordinates": [-98.4810464, 29.4978324]}},
{"type": "Feature", "id": "tGnPdqPt793DUgdb8_lrAFERNmA=", "properties": {"ref": "2288", "@spider": "chicos", "addr:full": "11745 W Interstate Hwy 10, Ste 523", "addr:city": "San Antonio", "addr:state": "TX", "addr:postcode": "78230", "addr:country": "US", "name": "Huebner Oaks Center", "website": "https://stores.chicos.com/s/huebner-oaks-center", "brand": "Chico's"}, "geometry": {"type": "Point", "coordinates": [-98.4314335, 29.412231]}},
{"type": "Feature", "id": "re1wu3SQTxjkYF25lHcX7tF7yc8=", "properties": {"ref": "2591", "@spider": "chicos", "addr:full": "15900 La Cantera Pkwy, Bl, Ste 1190", "addr:city": "San Antonio", "addr:state": "TX", "addr:postcode": "78256", "addr:country": "US", "name": "The Shops at La Cantera", "website": "https://stores.chicos.com/s/chico-s-the-shops-at-la-cantera", "brand": "Chico's"}, "geometry": {"type": "Point", "coordinates": [-98.6215649, 29.6183126]}},
{"type": "Feature", "id": "MGbsXXrZclBr6njf5IuS4ut6qUU=", "properties": {"ref": "2786", "@spider": "chicos", "addr:full": "3844 S Alameda St., Sp 18", "addr:city": "Corpus Christi", "addr:state": "TX", "addr:postcode": "78411", "addr:country": "US", "name": "Lamar Park Center", "website": "https://stores.chicos.com/s/lamar-park-center", "brand": "Chico's"}, "geometry": {"type": "Point", "coordinates": [-97.3894772, 27.7218102]}},
{"type": "Feature", "id": "_jURRJwRTbZEedaApFhl4B9lHFA=", "properties": {"ref": "2307", "@spider": "chicos", "addr:full": "8201 Quaker Ave, Unit 122", "addr:city": "Lubbock", "addr:state": "TX", "addr:postcode": "79424", "addr:country": "US", "name": "Kingsgate Center", "website": "https://stores.chicos.com/s/chico-s-kingsgate-center", "brand": "Chico's"}, "geometry": {"type": "Point", "coordinates": [-101.9037687, 33.5187505]}},
{"type": "Feature", "id": "C_d2Qjjh2kLMCA8SqLx_DZY69fA=", "properties": {"ref": "2672", "@spider": "chicos", "addr:full": "5865 Sky Pond Dr, Ste G112", "addr:city": "Loveland", "addr:state": "CO", "addr:postcode": "80538", "addr:country": "US", "name": "The Promenade Shops at Centerra", "website": "https://stores.chicos.com/s/chico-s-the-promenade-shops-at-centerra", "brand": "Chico's"}, "geometry": {"type": "Point", "coordinates": [-104.990317, 40.4145298]}},
{"type": "Feature", "id": "6GQlcI9XZE_H297QNMdsZN-pMpI=", "properties": {"ref": "2712", "@spider": "chicos", "addr:full": "3120 S College Ave, Suite 150", "addr:city": "Fort Collins", "addr:state": "CO", "addr:postcode": "80525", "addr:country": "US", "name": "Foothills", "website": "https://stores.chicos.com/s/foothills", "brand": "Chico's"}, "geometry": {"type": "Point", "coordinates": [-105.076925, 40.544725]}},
{"type": "Feature", "id": "eLzIa7Df4OsYqb07n8qOTYJ4Ki4=", "properties": {"ref": "2605", "@spider": "chicos", "addr:full": "8429 Park Meadows Center D, Ste 123", "addr:city": "Littleton", "addr:state": "CO", "addr:postcode": "80124", "addr:country": "US", "name": "Park Meadows", "website": "https://stores.chicos.com/s/chico-s-park-meadows", "brand": "Chico's"}, "geometry": {"type": "Point", "coordinates": [-104.8766218, 39.5592847]}},
{"type": "Feature", "id": "P4diBpY0C3cu4Bgq2OQfccAt7ow=", "properties": {"ref": "2056", "@spider": "chicos", "addr:full": "2829 E 3rd Avenue", "addr:city": "Denver", "addr:state": "CO", "addr:postcode": "80206", "addr:country": "US", "name": "Cherry Creek North", "website": "https://stores.chicos.com/s/cherry-creek-north", "brand": "Chico's"}, "geometry": {"type": "Point", "coordinates": [-104.9537086, 39.7211247]}},
{"type": "Feature", "id": "W4_qhdxrOsmNvekftwemy36bEkQ=", "properties": {"ref": "1574", "@spider": "chicos", "addr:full": "6853 S York Street, Ste 125", "addr:city": "Centennial", "addr:state": "CO", "addr:postcode": "80122", "addr:country": "US", "name": "The Streets at SouthGlenn", "website": "https://stores.chicos.com/s/the-streets-at-southglenn", "brand": "Chico's"}, "geometry": {"type": "Point", "coordinates": [-104.9620063, 39.5920188]}}]}