{"type":"FeatureCollection","features":[{"type": "Feature", "id": "_fj7KIKi8jSOzg5CZzrVTnBmsik=", "properties": {"ref": "7002", "@spider": "christmas_tree_shops", "addr:full": "655 Route 132", "addr:city": "Hyannis", "addr:state": "MA", "addr:postcode": "02601", "addr:country": "US", "name": "Hyannis, MA", "phone": "508.778.5521", "opening_hours": "Mo-Su 08:00-21:00", "brand": "Christmas Tree Shops"}, "geometry": {"type": "Point", "coordinates": [-70.29186, 41.66672]}},
{"type": "Feature", "id": "hg-ICeTsnqGMTT4ZBpuaRoDxsOg=", "properties": {"ref": "7004", "@spider": "christmas_tree_shops", "addr:full": "425 Main St", "addr:city": "West Dennis", "addr:state": "MA", "addr:postcode": "02670", "addr:country": "US", "name": "West Dennis, MA", "phone": "508.394.5557", "opening_hours": "Mo-Sa 09:00-20:00; Su 09:00-19:00", "brand": "Christmas Tree Shops"}, "geometry": {"type": "Point", "coordinates": [-70.16652, 41.6651]}},
{"type": "Feature", "id": "fkfNdX9Q7WKxsJbWuGFpZyWzV7g=", "properties": {"ref": "7005", "@spider": "christmas_tree_shops", "addr:full": "Route 28 - Davis Straits", "addr:city": "Falmouth", "addr:state": "MA", "addr:postcode": "02540", "addr:country": "US", "name": "Falmouth, MA", "phone": "508.548.1414", "opening_hours": "Mo-Sa 09:00-21:00; Su 09:00-19:00", "brand": "Christmas Tree Shops"}, "geometry": {"type": "Point", "coordinates": [-70.59975, 41.55632]}},
{"type": "Feature", "id": "Nr5Jrprx0YctxS3SuPtxSU7KSqg=", "properties": {"ref": "7006", "@spider": "christmas_tree_shops", "addr:full": "296 Old Oak Street", "addr:city": "Pembroke", "addr:state": "MA", "addr:postcode": "02359", "addr:country": "US", "name": "Pembroke, MA", "phone": "781.826.8884", "opening_hours": "Mo-Su 08:00-21:00", "brand": "Christmas Tree Shops"}, "geometry": {"type": "Point", "coordinates": [-70.76226, 42.10613]}},
{"type": "Feature", "id": "MaQh9Mq-Arm3W7yaIVZA7YaiV6g=", "properties": {"ref": "7007", "@spider": "christmas_tree_shops", "addr:full": "Route 6A & Route 28", "addr:city": "Orleans", "addr:state": "MA", "addr:postcode": "02653", "addr:country": "US", "name": "Orleans, MA", "phone": "508.255.8494", "opening_hours": "Mo-Sa 09:00-20:00; Su 09:00-19:00", "brand": "Christmas Tree Shops"}, "geometry": {"type": "Point", "coordinates": [-69.98775, 41.79079]}},
{"type": "Feature", "id": "lrBgDC2pZFIOxY6EJbOZLOj_gs4=", "properties": {"ref": "7008", "@spider": "christmas_tree_shops", "addr:full": "Route 6A", "addr:city": "Sagamore", "addr:state": "MA", "addr:postcode": "02561", "addr:country": "US", "name": "Sagamore, MA", "phone": "508.888.7010", "opening_hours": "Mo-Sa 09:00-21:00; Su 09:00-19:00", "brand": "Christmas Tree Shops"}, "geometry": {"type": "Point", "coordinates": [-70.54261, 41.77262]}},
{"type": "Feature", "id": "GpZlq70oqXn_NtTG1gXc4MZtRg4=", "properties": {"ref": "7009", "@spider": "christmas_tree_shops", "addr:full": "19 East Main Road", "addr:city": "Middletown", "addr:state": "RI", "addr:postcode": "02842", "addr:country": "US", "name": "Newport, RI", "phone": "401.841.5100", "opening_hours": "Mo-Sa 09:00-21:00; Su 10:00-19:00", "brand": "Christmas Tree Shops"}, "geometry": {"type": "Point", "coordinates": [-71.29833, 41.51639]}},
{"type": "Feature", "id": "b9NiJkrbwiF0TMAYJo80Rkq1-U0=", "properties": {"ref": "7010", "@spider": "christmas_tree_shops", "addr:full": "1000 Boston Turnpike", "addr:city": "Shrewsbury", "addr:state": "MA", "addr:postcode": "01545", "addr:country": "US", "name": "Shrewsbury, MA", "phone": "508.842.5945", "opening_hours": "Mo-Sa 09:00-21:00; Su 10:00-19:00", "brand": "Christmas Tree Shops"}, "geometry": {"type": "Point", "coordinates": [-71.6744, 42.28032]}},
{"type": "Feature", "id": "IlGdjRpZqJct8vjzfOFeRXSE0yo=", "properties": {"ref": "7011", "@spider": "christmas_tree_shops", "addr:full": "300 Quaker Lane Route 2", "addr:city": "Warwick", "addr:state": "RI", "addr:postcode": "02886", "addr:country": "US", "name": "Warwick, RI", "phone": "401.821.4944", "opening_hours": "Mo-Sa 09:00-21:00; Su 10:00-19:00", "brand": "Christmas Tree Shops"}, "geometry": {"type": "Point", "coordinates": [-71.49966, 41.68917]}},
{"type": "Feature", "id": "KZkGCb7KAm7Q6dDapWcZuMLySUs=", "properties": {"ref": "7012", "@spider": "christmas_tree_shops", "addr:full": "15 Stockwell Dr.", "addr:city": "Avon", "addr:state": "MA", "addr:postcode": "02322", "addr:country": "US", "name": "Avon, MA", "phone": "508.586.6438", "opening_hours": "Mo-Sa 09:00-21:00; Su 10:00-19:00", "brand": "Christmas Tree Shops"}, "geometry": {"type": "Point", "coordinates": [-71.067, 42.12782]}},
{"type": "Feature", "id": "okLaQ7-dQD4KDroUHGHgeRAEKtU=", "properties": {"ref": "7013", "@spider": "christmas_tree_shops", "addr:full": "28-34 Broadway Route 1 South", "addr:city": "Lynnfield", "addr:state": "MA", "addr:postcode": "01940", "addr:country": "US", "name": "Lynnfield, MA", "phone": "781.598.0004", "opening_hours": "Mo-Sa 09:00-22:00; Su 10:00-20:00", "brand": "Christmas Tree Shops"}, "geometry": {"type": "Point", "coordinates": [-71.01486, 42.50406]}},
{"type": "Feature", "id": "6t4wyYvVRz0FT4s2fXUGnmHOT78=", "properties": {"ref": "7014", "@spider": "christmas_tree_shops", "addr:full": "120 Hale Road", "addr:city": "Manchester", "addr:state": "CT", "addr:postcode": "06040", "addr:country": "US", "name": "Manchester, CT", "phone": "860.648.9390", "opening_hours": "Mo-Sa 09:00-21:00; Su 10:00-19:00", "brand": "Christmas Tree Shops"}, "geometry": {"type": "Point", "coordinates": [-72.52887, 41.81104]}},
{"type": "Feature", "id": "_doX-Jt0_ENJ0b2a0xKIr-k6q5Y=", "properties": {"ref": "7015", "@spider": "christmas_tree_shops", "addr:full": "92 Cluff Crossing Road Route 28", "addr:city": "Salem", "addr:state": "NH", "addr:postcode": "03079", "addr:country": "US", "name": "Salem, NH", "phone": "603.898.0002", "opening_hours": "Mo-Sa 09:00-21:00; Su 09:00-19:00", "brand": "Christmas Tree Shops"}, "geometry": {"type": "Point", "coordinates": [-71.21849, 42.76538]}},
{"type": "Feature", "id": "gOMSnfSXEw8GGHkcSWg12nApdLc=", "properties": {"ref": "7016", "@spider": "christmas_tree_shops", "addr:full": "50 Holyoke Street", "addr:city": "Holyoke", "addr:state": "MA", "addr:postcode": "01040", "addr:country": "US", "name": "Holyoke, MA", "phone": "413.552.0086", "opening_hours": "Mo-Sa 09:00-21:30; Su 10:00-19:00", "brand": "Christmas Tree Shops"}, "geometry": {"type": "Point", "coordinates": [-72.64184, 42.17236]}},
{"type": "Feature", "id": "eyTo4TRiz7sEcFXvFKix7g-_Xcs=", "properties": {"ref": "7017", "@spider": "christmas_tree_shops", "addr:full": "220 Indian River Road", "addr:city": "Orange", "addr:state": "CT", "addr:postcode": "06477", "addr:country": "US", "name": "Orange, CT", "phone": "203.795.0060", "opening_hours": "Mo-Sa 09:00-21:00; Su 10:00-19:00", "brand": "Christmas Tree Shops"}, "geometry": {"type": "Point", "coordinates": [-73.00192, 41.26213]}},
{"type": "Feature", "id": "xPeUuYPNjZOXZjlAtJ38EAv36go=", "properties": {"ref": "7018", "@spider": "christmas_tree_shops", "addr:full": "1505 South Washington Street", "addr:city": "North Attleboro", "addr:state": "MA", "addr:postcode": "02760", "addr:country": "US", "name": "North Attleboro, MA", "phone": "508.399.8978", "opening_hours": "Mo-Sa 09:00-21:00; Su 10:00-19:00", "brand": "Christmas Tree Shops"}, "geometry": {"type": "Point", "coordinates": [-71.35337, 41.93351]}},
{"type": "Feature", "id": "4A-z16wk3mcy5KV9L6N_n5HF_eg=", "properties": {"ref": "7019", "@spider": "christmas_tree_shops", "addr:full": "1425 Central Avenue", "addr:city": "Albany", "addr:state": "NY", "addr:postcode": "12205", "addr:country": "US", "name": "Albany, NY", "phone": "518.459.0878", "opening_hours": "Mo-Sa 09:00-21:30; Su 10:00-19:00", "brand": "Christmas Tree Shops"}, "geometry": {"type": "Point", "coordinates": [-73.81972, 42.70862]}},
{"type": "Feature", "id": "OMYfeWD2_HXeC6fL15Re4dsGn9E=", "properties": {"ref": "7020", "@spider": "christmas_tree_shops", "addr:full": "490 Payne Road", "addr:city": "Scarborough", "addr:state": "ME", "addr:postcode": "04074", "addr:country": "US", "name": "South Portland, ME", "phone": "207.885.8885", "opening_hours": "Mo-Sa 08:00-22:00; Su 08:00-21:00", "brand": "Christmas Tree Shops"}, "geometry": {"type": "Point", "coordinates": [-70.34556, 43.62881]}},
{"type": "Feature", "id": "FCwOi1JRfDlGbbHQrxDSX05KUdM=", "properties": {"ref": "7021", "@spider": "christmas_tree_shops", "addr:full": "15 Backus Avenue", "addr:city": "Danbury", "addr:state": "CT", "addr:postcode": "06810", "addr:country": "US", "name": "Danbury, CT", "phone": "203.791.1114", "opening_hours": "Mo-Sa 09:00-21:00; Su 10:00-19:00", "brand": "Christmas Tree Shops"}, "geometry": {"type": "Point", "coordinates": [-73.48758, 41.37645]}},
{"type": "Feature", "id": "MsjWQohbm0I_d_WDDTWhaWF3PSE=", "properties": {"ref": "7022", "@spider": "christmas_tree_shops", "addr:full": "1298 Worcester St. Route 9", "addr:city": "Natick", "addr:state": "MA", "addr:postcode": "01760", "addr:country": "US", "name": "Natick, MA", "phone": "508.655.9800", "opening_hours": "Mo-Sa 09:00-21:00; Su 10:00-19:00", "brand": "Christmas Tree Shops"}, "geometry": {"type": "Point", "coordinates": [-71.38494, 42.29823]}},
{"type": "Feature", "id": "yJnxKcUci5oBq9WPa_wXD7Zp3rg=", "properties": {"ref": "7023", "@spider": "christmas_tree_shops", "addr:full": "41 Gusabel Avenue", "addr:city": "Nashua", "addr:state": "NH", "addr:postcode": "03063", "addr:country": "US", "name": "Nashua, NH", "phone": "603.889.9001", "opening_hours": "Mo-Sa 09:00-21:00; Su 09:00-19:00", "brand": "Christmas Tree Shops"}, "geometry": {"type": "Point", "coordinates": [-71.4946, 42.76489]}},
{"type": "Feature", "id": "U10GtbcjF-7VGm7Cq2UGQ_LK0oc=", "properties": {"ref": "7024", "@spider": "christmas_tree_shops", "addr:full": "32 Spring Valley Marketplace", "addr:city": "Spring Valley", "addr:state": "NY", "addr:postcode": "10977", "addr:country": "US", "name": "Spring Valley, NY", "phone": "845.371.4449", "opening_hours": "Mo-Sa 09:00-21:00; Su 10:00-19:00", "brand": "Christmas Tree Shops"}, "geometry": {"type": "Point", "coordinates": [-74.02618, 41.10524]}},
{"type": "Feature", "id": "LDGp8p0m_tU8GxuMQb9MLzMcxqI=", "properties": {"ref": "7025", "@spider": "christmas_tree_shops", "addr:full": "132 Northern Lights Shopping Center", "addr:city": "Syracuse", "addr:state": "NY", "addr:postcode": "13212", "addr:country": "US", "name": "Syracuse, NY", "phone": "315.454.9223", "opening_hours": "Mo-Sa 09:00-21:00; Su 10:00-19:00", "brand": "Christmas Tree Shops"}, "geometry": {"type": "Point", "coordinates": [-76.14539, 43.10997]}},
{"type": "Feature", "id": "nVzqWq1dyLGqXAna_VCZ-UM-CTI=", "properties": {"ref": "7026", "@spider": "christmas_tree_shops", "addr:full": "100 Cypress St.", "addr:city": "Williston", "addr:state": "VT", "addr:postcode": "05495", "addr:country": "US", "name": "Williston, VT", "phone": "802.872.9509", "opening_hours": "Mo-Sa 09:00-21:00; Su 10:00-19:00", "brand": "Christmas Tree Shops"}, "geometry": {"type": "Point", "coordinates": [-73.1103, 44.4444]}},
{"type": "Feature", "id": "GHnhtStWF3wQKiM3ovh8q-N9xY8=", "properties": {"ref": "7027", "@spider": "christmas_tree_shops", "addr:full": "65 Faunce Corner Mall Road", "addr:city": "North Dartmouth", "addr:state": "MA", "addr:postcode": "02747", "addr:country": "US", "name": "North Dartmouth, MA", "phone": "508.996.4803", "opening_hours": "Mo-Sa 09:00-21:00; Su 10:00-19:00", "brand": "Christmas Tree Shops"}, "geometry": {"type": "Point", "coordinates": [-70.98698, 41.64594]}},
{"type": "Feature", "id": "tTXLeJDjYXxcG0oahqDRGAtvgNc=", "properties": {"ref": "7028", "@spider": "christmas_tree_shops", "addr:full": "177 Middlesex Avenue", "addr:city": "Somerville", "addr:state": "MA", "addr:postcode": "02145", "addr:country": "US", "name": "Somerville, MA", "phone": "617.623.3428", "opening_hours": "Mo-Sa 09:00-21:00; Su 10:00-20:00", "brand": "Christmas Tree Shops"}, "geometry": {"type": "Point", "coordinates": [-71.08391, 42.39637]}},
{"type": "Feature", "id": "A_cv7ygC9MjjvNi_u0Zu5IwAIJE=", "properties": {"ref": "7029", "@spider": "christmas_tree_shops", "addr:full": "300 Ikea Drive", "addr:city": "Paramus", "addr:state": "NJ", "addr:postcode": "07652", "addr:country": "US", "name": "Paramus, NJ", "phone": "201.291.1340", "opening_hours": "Mo-Sa 09:00-21:30", "brand": "Christmas Tree Shops"}, "geometry": {"type": "Point", "coordinates": [-74.07394, 40.92287]}},
{"type": "Feature", "id": "GnaRrxxY-q7RK6jj2GCwgLr1n2g=", "properties": {"ref": "7030", "@spider": "christmas_tree_shops", "addr:full": "85 Bricktown Way", "addr:city": "Staten Island", "addr:state": "NY", "addr:postcode": "10309", "addr:country": "US", "name": "Staten Island, NY", "phone": "718.984.2493", "opening_hours": "Mo-Sa 09:00-21:00; Su 10:00-19:00", "brand": "Christmas Tree Shops"}, "geometry": {"type": "Point", "coordinates": [-74.22841, 40.53069]}},
{"type": "Feature", "id": "x9rAoCyQW0L_RkZLVM2FRrb5ME4=", "properties": {"ref": "7031", "@spider": "christmas_tree_shops", "addr:full": "2130 Marlton Pike", "addr:city": "Cherry Hill", "addr:state": "NJ", "addr:postcode": "08002", "addr:country": "US", "name": "Cherry Hill, NJ", "phone": "856.910.8320", "opening_hours": "Mo-Sa 09:00-21:30; Su 10:00-19:00", "brand": "Christmas Tree Shops"}, "geometry": {"type": "Point", "coordinates": [-75.03761, 39.92348]}},
{"type": "Feature", "id": "yA52sHS9CpzRRuX6AQuRaF8S9ps=", "properties": {"ref": "7032", "@spider": "christmas_tree_shops", "addr:full": "100 Trotters Way", "addr:city": "Freehold", "addr:state": "NJ", "addr:postcode": "07728", "addr:country": "US", "name": "Freehold, NJ", "phone": "732.577.2555", "opening_hours": "Mo-Sa 09:00-21:00; Su 10:00-19:00", "brand": "Christmas Tree Shops"}, "geometry": {"type": "Point", "coordinates": [-74.29206, 40.2507]}},
{"type": "Feature", "id": "hasP-3VEJNKehAW89ujxh33KlwM=", "properties": {"ref": "7033", "@spider": "christmas_tree_shops", "addr:full": "393 North Central Ave", "addr:city": "Hartsdale", "addr:state": "NY", "addr:postcode": "10530", "addr:country": "US", "name": "Hartsdale, NY", "phone": "914.948.3721", "opening_hours": "Mo-Sa 09:00-21:00; Su 10:00-19:00", "brand": "Christmas Tree Shops"}, "geometry": {"type": "Point", "coordinates": [-73.79253, 41.02475]}},
{"type": "Feature", "id": "TvDA0qNlYB3RP7avL3FwAXBThp8=", "properties": {"ref": "7034", "@spider": "christmas_tree_shops", "addr:full": "42 Whitten Road", "addr:city": "Augusta", "addr:state": "ME", "addr:postcode": "04330", "addr:country": "US", "name": "Augusta, ME", "phone": "207.626.5330", "opening_hours": "Mo-Sa 09:00-21:00; Su 10:00-19:00", "brand": "Christmas Tree Shops"}, "geometry": {"type": "Point", "coordinates": [-69.81426, 44.31328]}},
{"type": "Feature", "id": "lvOFASYjk_2g0v9lEmezr6xXdL0=", "properties": {"ref": "7035", "@spider": "christmas_tree_shops", "addr:full": "790 Jefferson Road Route 252", "addr:city": "Rochester", "addr:state": "NY", "addr:postcode": "14623", "addr:country": "US", "name": "Rochester, NY", "phone": "585.292.0120", "opening_hours": "Mo-Sa 09:00-21:00; Su 10:00-19:00", "brand": "Christmas Tree Shops"}, "geometry": {"type": "Point", "coordinates": [-77.61898, 43.08829]}},
{"type": "Feature", "id": "xAcZa-nGhC17T2NLCpnVV8TRjNo=", "properties": {"ref": "7036", "@spider": "christmas_tree_shops", "addr:full": "4001 Shoppes Blvd.", "addr:city": "Moosic", "addr:state": "PA", "addr:postcode": "18507", "addr:country": "US", "name": "Montage Mountain, PA", "phone": "570.343.7300", "opening_hours": "Mo-Sa 09:00-21:00; Su 10:00-19:00", "brand": "Christmas Tree Shops"}, "geometry": {"type": "Point", "coordinates": [-75.67801, 41.36154]}},
{"type": "Feature", "id": "CNW70KlCGXbX_GKSIYLHV1w2uGo=", "properties": {"ref": "7037", "@spider": "christmas_tree_shops", "addr:full": "479 Route 70 East", "addr:city": "Brick", "addr:state": "NJ", "addr:postcode": "08723", "addr:country": "US", "name": "Brick, NJ", "phone": "732.451.9629", "opening_hours": "Mo-Sa 09:00-21:00; Su 10:00-19:00", "brand": "Christmas Tree Shops"}, "geometry": {"type": "Point", "coordinates": [-74.15331, 40.05668]}},
{"type": "Feature", "id": "lYNGhS9daejmrPF2I9E5tcPDKBI=", "properties": {"ref": "7038", "@spider": "christmas_tree_shops", "addr:full": "5450 Brandywine Parkway", "addr:city": "Wilmington", "addr:state": "DE", "addr:postcode": "19803", "addr:country": "US", "name": "Brandywine, DE", "phone": "302.479.0680", "opening_hours": "Mo-Sa 09:00-21:30; Su 10:00-19:00", "brand": "Christmas Tree Shops"}, "geometry": {"type": "Point", "coordinates": [-75.53564, 39.83268]}},
{"type": "Feature", "id": "rcmUEK7-ud5Z91t6TCnKWhOvkOc=", "properties": {"ref": "7039", "@spider": "christmas_tree_shops", "addr:full": "2935 Concord Road", "addr:city": "York", "addr:state": "PA", "addr:postcode": "17402", "addr:country": "US", "name": "York, PA", "phone": "717.840.2720", "opening_hours": "Mo-Sa 09:00-21:30; Su 10:00-19:00", "brand": "Christmas Tree Shops"}, "geometry": {"type": "Point", "coordinates": [-76.66824, 39.98472]}},
{"type": "Feature", "id": "r-rzkjZPtoyxpAkE8r8O6C-QLw8=", "properties": {"ref": "7040", "@spider": "christmas_tree_shops", "addr:full": "420 Harry L. Drive", "addr:city": "Johnson City", "addr:state": "NY", "addr:postcode": "13790", "addr:country": "US", "name": "Johnson City, NY", "phone": "607.798.0468", "opening_hours": "Mo-Sa 09:00-21:00; Su 10:00-19:00", "brand": "Christmas Tree Shops"}, "geometry": {"type": "Point", "coordinates": [-75.96529, 42.122]}},
{"type": "Feature", "id": "B17y0ew8f4vkXv5wUqGmiaVcKJE=", "properties": {"ref": "7041", "@spider": "christmas_tree_shops", "addr:full": "1895 South Road", "addr:city": "Poughkeepsie", "addr:state": "NY", "addr:postcode": "12601", "addr:country": "US", "name": "Poughkeepsie, NY", "phone": "845.297.0189", "opening_hours": "Mo-Sa 09:00-21:00; Su 10:00-19:00", "brand": "Christmas Tree Shops"}, "geometry": {"type": "Point", "coordinates": [-73.91598, 41.62989]}},
{"type": "Feature", "id": "nZAN0KsjRHAlsHA4zQGk_uQCVWc=", "properties": {"ref": "7042", "@spider": "christmas_tree_shops", "addr:full": "340 Patriot Place - Rte 1", "addr:city": "Foxboro", "addr:state": "MA", "addr:postcode": "02035", "addr:country": "US", "name": "Foxboro, MA", "phone": "508.698.1830", "opening_hours": "Mo-Sa 09:00-21:00; Su 10:00-19:00", "brand": "Christmas Tree Shops"}, "geometry": {"type": "Point", "coordinates": [-71.26855, 42.09114]}},
{"type": "Feature", "id": "WlFPMi-aBxXs-tG0nz8wRFWM7vQ=", "properties": {"ref": "7043", "@spider": "christmas_tree_shops", "addr:full": "824 Hartford Turnpike", "addr:city": "Waterford", "addr:state": "CT", "addr:postcode": "06385", "addr:country": "US", "name": "Waterford, CT", "phone": "860.442.0066", "opening_hours": "Mo-Sa 10:00-21:00; Su 11:00-18:00", "brand": "Christmas Tree Shops"}, "geometry": {"type": "Point", "coordinates": [-72.13761, 41.37259]}},
{"type": "Feature", "id": "mgZ_LXKxk9g5Stelbmp50dftntA=", "properties": {"ref": "7044", "@spider": "christmas_tree_shops", "addr:full": "1584 White Mountain Highway", "addr:city": "North Conway", "addr:state": "NH", "addr:postcode": "03860", "addr:country": "US", "name": "North Conway, NH", "phone": "603.356.0570", "opening_hours": "Mo-Sa 09:00-21:00; Su 09:00-19:00", "brand": "Christmas Tree Shops"}, "geometry": {"type": "Point", "coordinates": [-71.11801, 44.02263]}},
{"type": "Feature", "id": "4f6sQFHwnAEuth_5KybL5dnRQp4=", "properties": {"ref": "7045", "@spider": "christmas_tree_shops", "addr:full": "1150 The Arches Circle", "addr:city": "Deer Park", "addr:state": "NY", "addr:postcode": "11729", "addr:country": "US", "name": "Deer Park, NY", "phone": "631.586.1648", "opening_hours": "Mo-Sa 09:00-21:00; Su 10:00-20:00", "brand": "Christmas Tree Shops"}, "geometry": {"type": "Point", "coordinates": [-73.30694, 40.76439]}},
{"type": "Feature", "id": "hBjO_o0aCwNsP8PgGS4bHQ6XPmc=", "properties": {"ref": "7046", "@spider": "christmas_tree_shops", "addr:full": "100 Durgin Lane", "addr:city": "Portsmouth", "addr:state": "NH", "addr:postcode": "03801", "addr:country": "US", "name": "Portsmouth, NH", "phone": "603.422.8775", "opening_hours": "Mo-Sa 09:00-21:00; Su 09:00-19:00", "brand": "Christmas Tree Shops"}, "geometry": {"type": "Point", "coordinates": [-70.79706, 43.08831]}},
{"type": "Feature", "id": "bLsaUmmt9YZgdX54L0Micy3FsGg=", "properties": {"ref": "7047", "@spider": "christmas_tree_shops", "addr:full": "916 Airport Center Drive", "addr:city": "Allentown", "addr:state": "PA", "addr:postcode": "18109", "addr:country": "US", "name": "Allentown, PA", "phone": "610.231.9546", "opening_hours": "Mo-Sa 09:00-21:00; Su 10:00-19:00", "brand": "Christmas Tree Shops"}, "geometry": {"type": "Point", "coordinates": [-75.43904, 40.63915]}},
{"type": "Feature", "id": "3KFnAVAmIEsgp_R7B0ZEXwzeKOM=", "properties": {"ref": "7048", "@spider": "christmas_tree_shops", "addr:full": "1701 Niagara Falls Blvd.", "addr:city": "Amherst", "addr:state": "NY", "addr:postcode": "14228", "addr:country": "US", "name": "Amherst, NY", "phone": "716.834.0354", "opening_hours": "Mo-Sa 09:00-21:00; Su 10:00-19:00", "brand": "Christmas Tree Shops"}, "geometry": {"type": "Point", "coordinates": [-78.82056, 43.00047]}},
{"type": "Feature", "id": "KxXHHrR8A0x1ltcLKh9kC5LcM1U=", "properties": {"ref": "7049", "@spider": "christmas_tree_shops", "addr:full": "4690 High Pointe Blvd.", "addr:city": "Harrisburg", "addr:state": "PA", "addr:postcode": "17111", "addr:country": "US", "name": "Harrisburg East, PA", "phone": "717.558.3880", "opening_hours": "Mo-Sa 09:00-21:00; Su 10:00-19:00", "brand": "Christmas Tree Shops"}, "geometry": {"type": "Point", "coordinates": [-76.80746, 40.24629]}},
{"type": "Feature", "id": "sisPrafsTe26_NjFv-eYb5ndn8c=", "properties": {"ref": "7050", "@spider": "christmas_tree_shops", "addr:full": "955 East Lancaster Ave. at Route 30", "addr:city": "Downingtown", "addr:state": "PA", "addr:postcode": "19335", "addr:country": "US", "name": "Downingtown, PA", "phone": "610.518.9340", "opening_hours": "Mo-Sa 09:00-21:00; Su 10:00-19:00", "brand": "Christmas Tree Shops"}, "geometry": {"type": "Point", "coordinates": [-75.68164, 40.01747]}},
{"type": "Feature", "id": "yPEQGgHZ6UP0uP5QZVaWuGgUVKg=", "properties": {"ref": "7052", "@spider": "christmas_tree_shops", "addr:full": "17151 Cole Road", "addr:city": "Hagerstown", "addr:state": "MD", "addr:postcode": "21740", "addr:country": "US", "name": "Hagerstown, MD", "phone": "301.582.0018", "opening_hours": "Mo-Sa 09:00-21:00; Su 10:00-19:00", "brand": "Christmas Tree Shops"}, "geometry": {"type": "Point", "coordinates": [-77.7753, 39.62139]}},
{"type": "Feature", "id": "mmc5oGMT8otOWzVrA21PtR6a9Jo=", "properties": {"ref": "7053", "@spider": "christmas_tree_shops", "addr:full": "2264 Miamisburg Centerville Road", "addr:city": "Dayton", "addr:state": "OH", "addr:postcode": "45459", "addr:country": "US", "name": "Dayton, OH", "phone": "937.428.0523", "opening_hours": "Mo-Sa 09:00-21:00; Su 10:00-19:00", "brand": "Christmas Tree Shops"}, "geometry": {"type": "Point", "coordinates": [-84.21105, 39.63427]}},
{"type": "Feature", "id": "eHCIyw_-idWyHYyDmJUIYDa9bxA=", "properties": {"ref": "7054", "@spider": "christmas_tree_shops", "addr:full": "13361 Hall Road", "addr:city": "Utica", "addr:state": "MI", "addr:postcode": "48315", "addr:country": "US", "name": "Utica, MI", "phone": "586.731.3719", "opening_hours": "Mo-Sa 09:00-21:00; Su 10:00-19:00", "brand": "Christmas Tree Shops"}, "geometry": {"type": "Point", "coordinates": [-82.99566, 42.63004]}},
{"type": "Feature", "id": "3egA6bCQ3gzsuDSWXhZfMJRX2gY=", "properties": {"ref": "7055", "@spider": "christmas_tree_shops", "addr:full": "1230 US Highway 31", "addr:city": "Greenwood", "addr:state": "IN", "addr:postcode": "46142", "addr:country": "US", "name": "Greenwood, IN", "phone": "317.859.8913", "opening_hours": "Mo-Sa 09:00-21:00; Su 10:00-19:00", "brand": "Christmas Tree Shops"}, "geometry": {"type": "Point", "coordinates": [-86.1257, 39.63202]}},
{"type": "Feature", "id": "5Y-tiD-6CHcHicdsj3yCMq9nQD4=", "properties": {"ref": "7056", "@spider": "christmas_tree_shops", "addr:full": "2925 Festival Way", "addr:city": "Waldorf", "addr:state": "MD", "addr:postcode": "20601", "addr:country": "US", "name": "Waldorf, MD", "phone": "301.705.5048", "opening_hours": "Mo-Sa 09:00-21:00; Su 10:00-19:00", "brand": "Christmas Tree Shops"}, "geometry": {"type": "Point", "coordinates": [-76.91132, 38.62842]}},
{"type": "Feature", "id": "F0k-jLSGMvtAnA3oRh3LF7Jy8Mg=", "properties": {"ref": "7057", "@spider": "christmas_tree_shops", "addr:full": "23869 Eureka Rd.", "addr:city": "Taylor", "addr:state": "MI", "addr:postcode": "48180", "addr:country": "US", "name": "Taylor, MI", "phone": "734.287.8137", "opening_hours": "Mo-Sa 09:00-21:00; Su 10:00-19:00", "brand": "Christmas Tree Shops"}, "geometry": {"type": "Point", "coordinates": [-83.26467, 42.19492]}},
{"type": "Feature", "id": "nIrxIhKnH7zkSe5oRf7taXIo51E=", "properties": {"ref": "7058", "@spider": "christmas_tree_shops", "addr:full": "5851 North Grape Road", "addr:city": "Mishawaka", "addr:state": "IN", "addr:postcode": "46545", "addr:country": "US", "name": "Mishawaka, IN", "phone": "574.271.1230", "opening_hours": "Mo-Sa 09:00-21:00; Su 10:00-19:00", "brand": "Christmas Tree Shops"}, "geometry": {"type": "Point", "coordinates": [-86.18777, 41.71368]}},
{"type": "Feature", "id": "i2K_sf6JrTnE_-flXFqfalyxlJU=", "properties": {"ref": "7059", "@spider": "christmas_tree_shops", "addr:full": "230 Consumer Square", "addr:city": "Mays Landing", "addr:state": "NJ", "addr:postcode": "08330", "addr:country": "US", "name": "Mays Landing, NJ", "phone": "609.645.5196", "opening_hours": "Mo-Sa 09:00-21:00; Su 10:00-19:00", "brand": "Christmas Tree Shops"}, "geometry": {"type": "Point", "coordinates": [-74.72754, 39.45211]}},
{"type": "Feature", "id": "9c7Ib9BaKRegF6G-_4W3fCUy2dQ=", "properties": {"ref": "7060", "@spider": "christmas_tree_shops", "addr:full": "365 US Hwy.202/206 at Route 28", "addr:city": "Bridgewater", "addr:state": "NJ", "addr:postcode": "08807", "addr:country": "US", "name": "Bridgewater, NJ", "phone": "908.722.1382", "opening_hours": "Mo-Sa 09:00-21:00; Su 10:00-19:00", "brand": "Christmas Tree Shops"}, "geometry": {"type": "Point", "coordinates": [-74.62938, 40.57816]}},
{"type": "Feature", "id": "BtQ4QbZL3h_EUTX1uI87hIe9kc0=", "properties": {"ref": "7061", "@spider": "christmas_tree_shops", "addr:full": "327 Mt. Hope Ave.", "addr:city": "Rockaway", "addr:state": "NJ", "addr:postcode": "07866", "addr:country": "US", "name": "Rockaway, NJ", "phone": "973.361.1502", "opening_hours": "Mo-Sa 09:00-21:00; Su 10:00-19:00", "brand": "Christmas Tree Shops"}, "geometry": {"type": "Point", "coordinates": [-74.54903, 40.90779]}},
{"type": "Feature", "id": "NWpIJ2cjalbfKlY-94dHuMmVjts=", "properties": {"ref": "7062", "@spider": "christmas_tree_shops", "addr:full": "1336 Hansel Ave", "addr:city": "Florence", "addr:state": "KY", "addr:postcode": "41042", "addr:country": "US", "name": "Florence, KY", "phone": "859.371.0135", "opening_hours": "Mo-Sa 09:00-21:00; Su 10:00-19:00", "brand": "Christmas Tree Shops"}, "geometry": {"type": "Point", "coordinates": [-84.63668, 39.01776]}},
{"type": "Feature", "id": "h5R3xV2H7E_gV5NlIPgdEwFFMog=", "properties": {"ref": "7063", "@spider": "christmas_tree_shops", "addr:full": "350 Route 22 West", "addr:city": "Springfield", "addr:state": "NJ", "addr:postcode": "07081", "addr:country": "US", "name": "Springfield, NJ", "phone": "973.379.2862", "opening_hours": "Mo-Sa 09:00-21:00; Su 10:00-19:00", "brand": "Christmas Tree Shops"}, "geometry": {"type": "Point", "coordinates": [-74.3258, 40.68573]}},
{"type": "Feature", "id": "DmztvZ5-9qzqVYqb0_IMuG6sLk4=", "properties": {"ref": "7064", "@spider": "christmas_tree_shops", "addr:full": "2350 Lincoln Highway", "addr:city": "Lancaster", "addr:state": "PA", "addr:postcode": "17602", "addr:country": "US", "name": "Lancaster, PA", "phone": "717.397.0362", "opening_hours": "Mo-Sa 09:00-21:30; Su 10:00-19:00", "brand": "Christmas Tree Shops"}, "geometry": {"type": "Point", "coordinates": [-76.20671, 40.02523]}},
{"type": "Feature", "id": "HhteBTl4rfvrlesKRcPTIcLUv6w=", "properties": {"ref": "7066", "@spider": "christmas_tree_shops", "addr:full": "1210-B Bridford Pkwy East", "addr:city": "Greensboro", "addr:state": "NC", "addr:postcode": "27407", "addr:country": "US", "name": "Greensboro, NC", "phone": "336.856.9937", "opening_hours": "Mo-Sa 09:00-21:00; Su 10:00-19:00", "brand": "Christmas Tree Shops"}, "geometry": {"type": "Point", "coordinates": [-79.90686, 36.05743]}},
{"type": "Feature", "id": "WOiRjuzjJRG0eEvFNjvmV4mJGVM=", "properties": {"ref": "7067", "@spider": "christmas_tree_shops", "addr:full": "239 Robert C. Daniel Jr. Parkway", "addr:city": "Augusta", "addr:state": "GA", "addr:postcode": "30909", "addr:country": "US", "name": "Augusta, GA", "phone": "7067380570", "opening_hours": "Mo-Sa 09:00-21:00; Su 10:00-19:00", "brand": "Christmas Tree Shops"}, "geometry": {"type": "Point", "coordinates": [-82.08159, 33.48926]}},
{"type": "Feature", "id": "6IJhYhoCi0cRp2h66xARH8xCcuo=", "properties": {"ref": "7068", "@spider": "christmas_tree_shops", "addr:full": "2088 Interchange Road", "addr:city": "Erie", "addr:state": "PA", "addr:postcode": "16565", "addr:country": "US", "name": "Erie, PA", "phone": "814.864.1356", "opening_hours": "Mo-Sa 09:00-21:00; Su 10:00-19:00", "brand": "Christmas Tree Shops"}, "geometry": {"type": "Point", "coordinates": [-80.10248, 42.06699]}},
{"type": "Feature", "id": "6tynO_4RejA1B9N4BztKlSaUgo8=", "properties": {"ref": "7069", "@spider": "christmas_tree_shops", "addr:full": "46 Springer Drive", "addr:city": "Bangor", "addr:state": "ME", "addr:postcode": "04401", "addr:country": "US", "name": "Bangor, ME", "phone": "207.947.1553", "opening_hours": "Mo-Sa 09:00-21:00; Su 09:00-19:00", "brand": "Christmas Tree Shops"}, "geometry": {"type": "Point", "coordinates": [-68.7405, 44.83586]}},
{"type": "Feature", "id": "SVYxDtxuKvvXcLZUf1Nf_ZqmOks=", "properties": {"ref": "7071", "@spider": "christmas_tree_shops", "addr:full": "1100 North Galleria Drive", "addr:city": "Middletown", "addr:state": "NY", "addr:postcode": "10941", "addr:country": "US", "name": "Middletown, NY", "phone": "845.692.8584", "opening_hours": "Mo-Sa 09:00-21:00; Su 10:00-19:00", "brand": "Christmas Tree Shops"}, "geometry": {"type": "Point", "coordinates": [-74.37318, 41.4557]}},
{"type": "Feature", "id": "cb0G__-3KJWmH8oNAJJf0FfKJIQ=", "properties": {"ref": "7072", "@spider": "christmas_tree_shops", "addr:full": "2053 Skibo Road", "addr:city": "Fayetteville", "addr:state": "NC", "addr:postcode": "28314", "addr:country": "US", "name": "Fayetteville, NC", "phone": "910.867.6775", "opening_hours": "Mo-Sa 09:00-21:00; Su 10:00-19:00", "brand": "Christmas Tree Shops"}, "geometry": {"type": "Point", "coordinates": [-78.97222, 35.05513]}},
{"type": "Feature", "id": "pm1-1dGf2JUEl5x0WGNsjC_3LNs=", "properties": {"ref": "7073", "@spider": "christmas_tree_shops", "addr:full": "1117 Woodruff Road", "addr:city": "Greenville", "addr:state": "SC", "addr:postcode": "29607", "addr:country": "US", "name": "Magnolia Park, SC", "phone": "864.297.3667", "opening_hours": "Mo-Sa 09:00-21:00; Su 10:00-19:00", "brand": "Christmas Tree Shops"}, "geometry": {"type": "Point", "coordinates": [-82.30564, 34.83087]}},
{"type": "Feature", "id": "azTPe4BbouCAxpHpFJzWNS6aWOQ=", "properties": {"ref": "7074", "@spider": "christmas_tree_shops", "addr:full": "9819 West Broad Street", "addr:city": "Glen Allen", "addr:state": "VA", "addr:postcode": "23060", "addr:country": "US", "name": "Richmond, VA", "phone": "804.346.2840", "opening_hours": "Mo-Sa 09:00-21:00; Su 10:00-19:00", "brand": "Christmas Tree Shops"}, "geometry": {"type": "Point", "coordinates": [-77.56622, 37.64149]}},
{"type": "Feature", "id": "epbsbg-MM_efUkQFpvEIndCJ3kg=", "properties": {"ref": "7075", "@spider": "christmas_tree_shops", "addr:full": "130 East Altamonte Drive", "addr:city": "Altamonte Springs", "addr:state": "FL", "addr:postcode": "32701", "addr:country": "US", "name": "Altamonte Springs, FL", "phone": "407.332.0049", "opening_hours": "Mo-Sa 09:00-21:00; Su 10:00-19:00", "brand": "Christmas Tree Shops"}, "geometry": {"type": "Point", "coordinates": [-81.38604, 28.66102]}},
{"type": "Feature", "id": "UW7OgMMPUFNcIi-Ug7X4M4_xNTk=", "properties": {"ref": "7076", "@spider": "christmas_tree_shops", "addr:full": "1791 Old Country Road", "addr:city": "Riverhead", "addr:state": "NY", "addr:postcode": "11901", "addr:country": "US", "name": "Riverhead, NY", "phone": "631.727.0156", "opening_hours": "Mo-Sa 09:00-21:00; Su 10:00-19:00", "brand": "Christmas Tree Shops"}, "geometry": {"type": "Point", "coordinates": [-72.70697, 40.92386]}},
{"type": "Feature", "id": "P7zjGRhdAkL8U7y2AP9Zc68m1hE=", "properties": {"ref": "7077", "@spider": "christmas_tree_shops", "addr:full": "2700 Potomac Mills Circle", "addr:city": "Woodbridge", "addr:state": "VA", "addr:postcode": "22192", "addr:country": "US", "name": "Potomac Mills, VA", "phone": "703.497.4670", "opening_hours": "Mo-Sa 09:00-21:00; Su 10:00-19:00", "brand": "Christmas Tree Shops"}, "geometry": {"type": "Point", "coordinates": [-77.296, 38.64352]}},
{"type": "Feature", "id": "Lo7hadI1ERhDnD1HRob1o-e2yY4=", "properties": {"ref": "7078", "@spider": "christmas_tree_shops", "addr:full": "1320 Carl D. Silver Parkway", "addr:city": "Fredericksburg", "addr:state": "VA", "addr:postcode": "22401", "addr:country": "US", "name": "Fredericksburg, VA", "phone": "540.786.1506", "opening_hours": "Mo-Sa 09:00-21:00; Su 10:00-19:00", "brand": "Christmas Tree Shops"}, "geometry": {"type": "Point", "coordinates": [-77.50951, 38.30517]}},
{"type": "Feature", "id": "i1S8ZdMsCINXhZn8XHpX3SX3RJ8=", "properties": {"ref": "7079", "@spider": "christmas_tree_shops", "addr:full": "4071 Miller Road", "addr:city": "Flint", "addr:state": "MI", "addr:postcode": "48507", "addr:country": "US", "name": "Flint, MI", "phone": "810.733.7052", "opening_hours": "Mo-Sa 09:00-21:00; Su 10:00-19:00", "brand": "Christmas Tree Shops"}, "geometry": {"type": "Point", "coordinates": [-83.75369, 42.98107]}},
{"type": "Feature", "id": "81ugBuECTG5DU1klE-3LxztVrDM=", "properties": {"ref": "7080", "@spider": "christmas_tree_shops", "addr:full": "1775 Deptford Center Rd", "addr:city": "Deptford", "addr:state": "NJ", "addr:postcode": "08096", "addr:country": "US", "name": "Deptford, NJ", "phone": "856.401.9340", "opening_hours": "Mo-Sa 09:00-21:30; Su 10:00-19:00", "brand": "Christmas Tree Shops"}, "geometry": {"type": "Point", "coordinates": [-75.09618, 39.82818]}},
{"type": "Feature", "id": "rEmfPk9M6BEmWkexSiz34jOWUHo=", "properties": {"ref": "7082", "@spider": "christmas_tree_shops", "addr:full": "21182 Salmon Run Mall  Loop West", "addr:city": "Watertown", "addr:state": "NY", "addr:postcode": "13601", "addr:country": "US", "name": "Watertown, NY", "phone": "315.779.7540", "opening_hours": "Mo-Sa 09:00-21:00; Su 10:00-19:00", "brand": "Christmas Tree Shops"}, "geometry": {"type": "Point", "coordinates": [-75.95436, 43.97553]}},
{"type": "Feature", "id": "6-DCFwBH2Jfo_rgEMZdH7q_-iGc=", "properties": {"ref": "7083", "@spider": "christmas_tree_shops", "addr:full": "845 Ernest W. Barrett Pwky NW", "addr:city": "Kennesaw", "addr:state": "GA", "addr:postcode": "30144", "addr:country": "US", "name": "Kennesaw, GA", "phone": "678-424-5578", "opening_hours": "Mo-Sa 09:00-21:00; Su 10:00-19:00", "brand": "Christmas Tree Shops"}, "geometry": {"type": "Point", "coordinates": [-84.57591, 34.00426]}},
{"type": "Feature", "id": "AwDpmmNmpUA7qh3SmeaTLEvqWkg=", "properties": {"ref": "7084", "@spider": "christmas_tree_shops", "addr:full": "8801 Southside Blvd", "addr:city": "Jacksonville", "addr:state": "FL", "addr:postcode": "32256", "addr:country": "US", "name": "Jacksonville, FL", "phone": "904-423-4322", "opening_hours": "Mo-Sa 09:00-21:00; Su 10:00-19:00", "brand": "Christmas Tree Shops"}, "geometry": {"type": "Point", "coordinates": [-81.55071, 30.19951]}},
{"type": "Feature", "id": "9yHTI_Q5O4n2uy2PB3ekBed6kMI=", "properties": {"ref": "7086", "@spider": "christmas_tree_shops", "addr:full": "19563 Coastal Highway #3", "addr:city": "Rehoboth Beach", "addr:state": "DE", "addr:postcode": "19971", "addr:country": "US", "name": "Rehoboth Beach, DE", "phone": "3022607185", "opening_hours": "Mo-Sa 08:00-21:30; Su 08:00-19:00", "brand": "Christmas Tree Shops"}, "geometry": {"type": "Point", "coordinates": [-75.11599, 38.72056]}},
{"type": "Feature", "id": "EmrUu-tn4rtlIA4s2BTx8FQKZjg=", "properties": {"ref": "7087", "@spider": "christmas_tree_shops", "addr:full": "1728 US Route 46", "addr:city": "Woodland Park", "addr:state": "NJ", "addr:postcode": "07424", "addr:country": "US", "name": "Woodland Park, NJ", "phone": "973-339-5088", "opening_hours": "Mo-Sa 09:00-21:30; Su 10:00-19:00", "brand": "Christmas Tree Shops"}, "geometry": {"type": "Point", "coordinates": [-74.21646, 40.88818]}}]}