{"type":"FeatureCollection","features":[{"type": "Feature", "id": "Sh_dHpeWjYwB0uOUN6YXCLix8Zg=", "properties": {"ref": "ak_anchorage_308-e.-northern-lights-blvd.", "@spider": "chuckecheese", "addr:full": "308 E. Northern Lights Blvd.", "addr:city": "Anchorage", "addr:state": "AK", "addr:postcode": "99503", "addr:country": "US", "website": "https://locations.chuckecheese.com/us/ak/anchorage/308-e.-northern-lights-blvd.", "opening_hours": "Mo-Th 11:00-21:00; Fr 11:00-22:00; Sa 10:00-22:00; Su 11:00-21:00", "brand": "Chuck E Cheese"}, "geometry": {"type": "Point", "coordinates": [-149.8781395, 61.1948706]}},
{"type": "Feature", "id": "EjMjy9Y6Hi9FmAEzJ2mKE1yUbEg=", "properties": {"ref": "pr_bayamon_rexville-town-centre-rd.-167-km-17.6", "@spider": "chuckecheese", "addr:full": "Rexville Town Centre Rd. 167  KM 17.6", "addr:city": "Bayamon", "addr:postcode": "00957", "addr:country": "PR", "website": "https://locations.chuckecheese.com/pr/bayamon/rexville-town-centre-rd.-167-km-17.6", "opening_hours": "Mo-Th 11:00-21:00; Fr 11:00-22:00; Sa 10:00-22:00; Su 10:00-21:00", "brand": "Chuck E Cheese"}, "geometry": {"type": "Point", "coordinates": [-66.18901436378655, 18.359792171001896]}},
{"type": "Feature", "id": "6OOmZmKFmW7tEggahMDii8XSxKs=", "properties": {"ref": "sk_regina_685-university-park-dr.", "@spider": "chuckecheese", "addr:full": "685 University Park Dr.", "addr:city": "Regina", "addr:state": "SK", "addr:postcode": "S4V2V8", "addr:country": "CA", "website": "https://locations.chuckecheese.com/ca/sk/regina/685-university-park-dr.", "opening_hours": "Mo-Fr 11:00-21:00; Sa 10:00-21:00; Su 11:00-21:00", "brand": "Chuck E Cheese"}, "geometry": {"type": "Point", "coordinates": [-104.5473097382478, 50.446555968386036]}},
{"type": "Feature", "id": "DvoDYsPcNpynbaBAoiq7d6pIypc=", "properties": {"ref": "de_dover_1275-n.-dupont-hwy.", "@spider": "chuckecheese", "addr:full": "1275 N. DuPont Hwy.", "addr:city": "Dover", "addr:state": "DE", "addr:postcode": "19901", "addr:country": "US", "website": "https://locations.chuckecheese.com/us/de/dover/1275-n.-dupont-hwy.", "opening_hours": "Mo-Th 11:00-21:00; Fr 11:00-22:00; Sa 10:00-22:00; Su 11:00-21:00", "brand": "Chuck E Cheese"}, "geometry": {"type": "Point", "coordinates": [-75.5391374562002, 39.190909487275036]}},
{"type": "Feature", "id": "748answIVvTE6cGkvCX_Oa9Cd9M=", "properties": {"ref": "gu_tamuning_235-pas-street", "@spider": "chuckecheese", "addr:full": "235 Pas Street", "addr:city": "Tamuning", "addr:postcode": "96913", "addr:country": "GU", "website": "https://locations.chuckecheese.com/gu/tamuning/235-pas-street", "opening_hours": "Mo-Th 10:00-21:00; Fr-Sa 10:00-22:00; Su 10:00-21:00", "brand": "Chuck E Cheese"}, "geometry": {"type": "Point", "coordinates": [144.78090762699662, 13.490512408473386]}},
{"type": "Feature", "id": "ICFsu3UV49V1T0-L2EnRFFU02zw=", "properties": {"ref": "bc_langley_6339-200th-street", "@spider": "chuckecheese", "addr:full": "6339 200th Street", "addr:city": "Langley", "addr:state": "BC", "addr:postcode": "V2Y1A2", "addr:country": "CA", "website": "https://locations.chuckecheese.com/ca/bc/langley/6339-200th-street", "opening_hours": "Mo-Th 11:00-21:00; Fr 11:00-22:00; Sa 10:00-22:00; Su 11:00-21:00", "brand": "Chuck E Cheese"}, "geometry": {"type": "Point", "coordinates": [-122.66903950970021, 49.11755833760699]}},
{"type": "Feature", "id": "5H7nPzlaiO1wtdbwhoQiLtwEJHQ=", "properties": {"ref": "pr_carolina_monte-real-plaza-carr.-3-km-15.2-b.o.-canovanillas", "@spider": "chuckecheese", "addr:full": "Monte Real Plaza Carr. #3  KM 15.2  B.O. Canovanillas", "addr:city": "Carolina", "addr:postcode": "00987", "addr:country": "PR", "website": "https://locations.chuckecheese.com/pr/carolina/monte-real-plaza-carr.-3-km-15.2-b.o.-canovanillas", "opening_hours": "Mo-Th 11:00-21:00; Fr 11:00-22:00; Sa 10:00-22:00; Su 10:00-21:00", "brand": "Chuck E Cheese"}, "geometry": {"type": "Point", "coordinates": [-65.91979877899308, 18.37601943890242]}},
{"type": "Feature", "id": "KtMm14dx6xSS9w0rGUyW643cGpM=", "properties": {"ref": "wv_charleston_2846-mountaineer-blvd.", "@spider": "chuckecheese", "addr:full": "2846 Mountaineer Blvd.", "addr:city": "Charleston", "addr:state": "WV", "addr:postcode": "25309", "addr:country": "US", "website": "https://locations.chuckecheese.com/us/wv/charleston/2846-mountaineer-blvd.", "opening_hours": "Mo-Th 11:00-21:00; Fr 11:00-22:00; Sa 10:00-22:00; Su 11:00-21:00", "brand": "Chuck E Cheese"}, "geometry": {"type": "Point", "coordinates": [-81.71979648145918, 38.317073686609]}},
{"type": "Feature", "id": "WGs-0v3oJfNMSOsmRNf6a6ZkN3Q=", "properties": {"ref": "ut_salt-lake-city_389-w.-1830-south", "@spider": "chuckecheese", "addr:full": "389 W. 1830 South", "addr:city": "Salt Lake City", "addr:state": "UT", "addr:postcode": "84115", "addr:country": "US", "website": "https://locations.chuckecheese.com/us/ut/salt-lake-city/389-w.-1830-south", "opening_hours": "Mo-Th 11:00-21:00; Fr 11:00-22:00; Sa 10:00-22:00; Su 11:00-21:00", "brand": "Chuck E Cheese"}, "geometry": {"type": "Point", "coordinates": [-111.90228534194921, 40.72819177295894]}},
{"type": "Feature", "id": "dSG8mLDfJrTfE1dmS4yuAZys9Do=", "properties": {"ref": "pr_caguas_plaza-centro-mall-30-ave.-rafael-j.-cordero", "@spider": "chuckecheese", "addr:full": "Plaza Centro Mall, 30 Ave. Rafael J. Cordero", "addr:city": "Caguas", "addr:postcode": "00725", "addr:country": "PR", "website": "https://locations.chuckecheese.com/pr/caguas/plaza-centro-mall-30-ave.-rafael-j.-cordero", "opening_hours": "Mo-Th 11:00-21:00; Fr 11:00-22:00; Sa 10:00-22:00; Su 10:00-21:00", "brand": "Chuck E Cheese"}, "geometry": {"type": "Point", "coordinates": [-66.0199908134918, 18.246983662704498]}},
{"type": "Feature", "id": "eEQor5Kg3oUhtVT4WvUFtAHbXVo=", "properties": {"ref": "sd_sioux-falls_2600-louise", "@spider": "chuckecheese", "addr:full": "2600 Louise", "addr:city": "Sioux Falls", "addr:state": "SD", "addr:postcode": "57106", "addr:country": "US", "website": "https://locations.chuckecheese.com/us/sd/sioux-falls/2600-louise", "opening_hours": "Mo-Th 11:00-21:00; Fr 11:00-22:00; Sa 10:00-22:00; Su 11:00-21:00", "brand": "Chuck E Cheese"}, "geometry": {"type": "Point", "coordinates": [-96.7718811, 43.523056]}},
{"type": "Feature", "id": "HgWLIl3jHlv3yhOm_MJfIJizpFw=", "properties": {"ref": "ri_warwick_650-bald-hill-rd.", "@spider": "chuckecheese", "addr:full": "650 Bald Hill Rd.", "addr:city": "Warwick", "addr:state": "RI", "addr:postcode": "02886", "addr:country": "US", "website": "https://locations.chuckecheese.com/us/ri/warwick/650-bald-hill-rd.", "opening_hours": "Mo-Th 11:00-21:00; Fr 11:00-22:00; Sa 10:00-22:00; Su 11:00-21:00", "brand": "Chuck E Cheese"}, "geometry": {"type": "Point", "coordinates": [-71.48364607887606, 41.71971573609447]}},
{"type": "Feature", "id": "4Sux_RZzhLE4cZ7e5acNKB134mw=", "properties": {"ref": "nd_fargo_1202-nodak-dr.", "@spider": "chuckecheese", "addr:full": "1202 Nodak Dr.", "addr:city": "Fargo", "addr:state": "ND", "addr:postcode": "58103", "addr:country": "US", "website": "https://locations.chuckecheese.com/us/nd/fargo/1202-nodak-dr.", "opening_hours": "Mo-Th 11:30-19:00; Fr-Sa 11:30-20:00; Su 11:30-19:00", "brand": "Chuck E Cheese"}, "geometry": {"type": "Point", "coordinates": [-96.83176052441348, 46.862734739628735]}},
{"type": "Feature", "id": "M6mrHk1M3lM3fr7ozHy9U8faypc=", "properties": {"ref": "nh_manchester_1525-s.-willow-st", "@spider": "chuckecheese", "addr:full": "1525 S. Willow St", "addr:city": "Manchester", "addr:state": "NH", "addr:postcode": "03103", "addr:country": "US", "website": "https://locations.chuckecheese.com/us/nh/manchester/1525-s.-willow-st", "opening_hours": "Mo-Th 11:00-21:00; Fr 11:00-22:00; Sa 10:00-22:00; Su 11:00-21:00", "brand": "Chuck E Cheese"}, "geometry": {"type": "Point", "coordinates": [-71.4395532924521, 42.953632229173856]}},
{"type": "Feature", "id": "lgViKBFLeLINVGRs7j-iy6FagKs=", "properties": {"ref": "ne_omaha_225-n.-76th-street", "@spider": "chuckecheese", "addr:full": "225 N. 76th Street", "addr:city": "Omaha", "addr:state": "NE", "addr:postcode": "68114", "addr:country": "US", "website": "https://locations.chuckecheese.com/us/ne/omaha/225-n.-76th-street", "opening_hours": "Mo-Th 11:00-21:00; Fr 11:00-22:00; Sa 10:00-22:00; Su 11:00-21:00", "brand": "Chuck E Cheese"}, "geometry": {"type": "Point", "coordinates": [-96.03047154538632, 41.26160671226229]}},
{"type": "Feature", "id": "L7c-_cMrvgTyh2eXltAuWL72grE=", "properties": {"ref": "mt_billings_100-24th-street", "@spider": "chuckecheese", "addr:full": "100 24th Street", "addr:city": "Billings", "addr:state": "MT", "addr:postcode": "59102", "addr:country": "US", "website": "https://locations.chuckecheese.com/us/mt/billings/100-24th-street", "opening_hours": "Mo-Th 11:00-19:00; Fr-Sa 11:00-21:00; Su 11:00-19:00", "brand": "Chuck E Cheese"}, "geometry": {"type": "Point", "coordinates": [-108.578546, 45.7715175]}},
{"type": "Feature", "id": "3VVlPGNXQ7Zp_WXKbV6nVufcsdE=", "properties": {"ref": "id_boise_6255-fairview-ave.", "@spider": "chuckecheese", "addr:full": "6255 Fairview Ave.", "addr:city": "Boise", "addr:state": "ID", "addr:postcode": "83704", "addr:country": "US", "website": "https://locations.chuckecheese.com/us/id/boise/6255-fairview-ave.", "opening_hours": "Mo-Fr 11:00-21:00; Sa 10:00-21:00; Su 11:00-21:00", "brand": "Chuck E Cheese"}, "geometry": {"type": "Point", "coordinates": [-116.25920916625307, 43.618605529664144]}}]}