{"type":"FeatureCollection","features":[{"type": "Feature", "id": "hEZNPopoOardB_MYuCXe9Zaq5Cc=", "properties": {"ref": "https://www.cinemark.com/theatres/az-sierra-vista/cinemark-10", "@spider": "cinemark", "addr:full": "2175 El Mercado Loop", "addr:city": "Sierra Vista", "addr:state": "AZ", "addr:postcode": "85635", "addr:country": "US", "name": "Cinemark 10", "phone": "520-458-1936", "website": "https://www.cinemark.com/theatres/az-sierra-vista/cinemark-10", "brand": "Cinemark"}, "geometry": {"type": "Point", "coordinates": [-110.258315, 31.531081]}},
{"type": "Feature", "id": "uvXi48AMMQ9iEb4Pzc0l_b_6LEY=", "properties": {"ref": "https://www.cinemark.com/theatres/az-oro-valley/century-theatres-at-the-oro-valley-marketplace", "@spider": "cinemark", "addr:full": "12155 N. Oracle Road", "addr:city": "Oro Valley", "addr:state": "AZ", "addr:postcode": "85737", "addr:country": "US", "name": "Century Theatres At The Oro Valley Marketplace", "phone": "520-742-6512", "website": "https://www.cinemark.com/theatres/az-oro-valley/century-theatres-at-the-oro-valley-marketplace", "brand": "Cinemark"}, "geometry": {"type": "Point", "coordinates": [-110.936615, 32.425217]}},
{"type": "Feature", "id": "aQfc2h43ZW9MDtgrf6_F2B0SPOo=", "properties": {"ref": "https://www.cinemark.com/theatres/ar-conway/cinemark-towne-centre-and-xd", "@spider": "cinemark", "addr:full": "201 Skyline Drive", "addr:city": "Conway", "addr:state": "AR", "addr:postcode": "72032", "addr:country": "US", "name": "Cinemark Towne Centre and XD", "phone": "501-450-7558", "website": "https://www.cinemark.com/theatres/ar-conway/cinemark-towne-centre-and-xd", "brand": "Cinemark"}, "geometry": {"type": "Point", "coordinates": [-92.429867, 35.112336]}},
{"type": "Feature", "id": "4YPoXTe9K3hEiHuUnTLSN-skQVM=", "properties": {"ref": "https://www.cinemark.com/theatres/ar-little-rock/cinemark-colonel-glenn-18-and-xd", "@spider": "cinemark", "addr:full": "18 Colonel Glenn Plaza Drive", "addr:city": "Little Rock", "addr:state": "AR", "addr:postcode": "72210", "addr:country": "US", "name": "Cinemark Colonel Glenn 18 and XD", "phone": "501-687-0499", "website": "https://www.cinemark.com/theatres/ar-little-rock/cinemark-colonel-glenn-18-and-xd", "brand": "Cinemark"}, "geometry": {"type": "Point", "coordinates": [-92.405577, 34.708475]}},
{"type": "Feature", "id": "ZvO8lEhwQGpYygBEmhMqLyxm_Hc=", "properties": {"ref": "https://www.cinemark.com/theatres/az-tucson/century-20-el-con-and-xd", "@spider": "cinemark", "addr:full": "3601 E. Broadway", "addr:city": "Tucson", "addr:state": "AZ", "addr:postcode": "85716", "addr:country": "US", "name": "Century 20 El Con and XD", "phone": "520-202-3358", "website": "https://www.cinemark.com/theatres/az-tucson/century-20-el-con-and-xd", "brand": "Cinemark"}, "geometry": {"type": "Point", "coordinates": [-110.915723, 32.221829]}},
{"type": "Feature", "id": "4fDxCfQh1EXCVyRpclEV1sFthOM=", "properties": {"ref": "https://www.cinemark.com/theatres/ak-anchorage/century-16-and-xd", "@spider": "cinemark", "addr:full": "301 East 36th Ave.", "addr:city": "Anchorage", "addr:state": "AK", "addr:postcode": "99503", "addr:country": "US", "name": "Century 16 and XD", "phone": "907-770-2602", "website": "https://www.cinemark.com/theatres/ak-anchorage/century-16-and-xd", "brand": "Cinemark"}, "geometry": {"type": "Point", "coordinates": [-149.879106, 61.188202]}},
{"type": "Feature", "id": "R8DhbV49K8bsIGijWwWKNk22P20=", "properties": {"ref": "https://www.cinemark.com/theatres/az-mesa/cinemark-mesa-16", "@spider": "cinemark", "addr:full": "1051 N. Dobson Rd.", "addr:city": "Mesa", "addr:state": "AZ", "addr:postcode": "85201", "addr:country": "US", "name": "Cinemark Mesa 16", "phone": "480-733-2843", "website": "https://www.cinemark.com/theatres/az-mesa/cinemark-mesa-16", "brand": "Cinemark"}, "geometry": {"type": "Point", "coordinates": [-111.871039, 33.433267]}},
{"type": "Feature", "id": "RCIVMw1ElAS1oeJJtnAwTQrfZ44=", "properties": {"ref": "https://www.cinemark.com/theatres/az-tucson/century-park-place-20-and-xd", "@spider": "cinemark", "addr:full": "5870 E. Broadway Blvd.", "addr:city": "Tucson", "addr:state": "AZ", "addr:postcode": "85711", "addr:country": "US", "name": "Century Park Place 20 and XD", "phone": "520-745-2321", "website": "https://www.cinemark.com/theatres/az-tucson/century-park-place-20-and-xd", "brand": "Cinemark"}, "geometry": {"type": "Point", "coordinates": [-110.866918, 32.221374]}},
{"type": "Feature", "id": "MSrHXf2cXP8gV1dV7e6vd2gScLA=", "properties": {"ref": "https://www.cinemark.com/theatres/ca-lancaster/cinemark-movies-12", "@spider": "cinemark", "addr:full": "44790 Valley Central Way", "addr:city": "Lancaster", "addr:state": "CA", "addr:postcode": "93534", "addr:country": "US", "name": "Cinemark Movies 12", "website": "https://www.cinemark.com/theatres/ca-lancaster/cinemark-movies-12", "brand": "Cinemark"}, "geometry": {"type": "Point", "coordinates": [-118.171774, 34.69639]}},
{"type": "Feature", "id": "35abKlb99PDDHvPvJqFcw7w0TPw=", "properties": {"ref": "https://www.cinemark.com/theatres/ca-larkspur/century-larkspur", "@spider": "cinemark", "addr:full": "500 Larkspur Landing Cr.", "addr:city": "Larkspur", "addr:state": "CA", "addr:postcode": "94939", "addr:country": "US", "name": "Century Larkspur", "phone": "415-461-4849", "website": "https://www.cinemark.com/theatres/ca-larkspur/century-larkspur", "brand": "Cinemark"}, "geometry": {"type": "Point", "coordinates": [-122.512028, 37.947005]}},
{"type": "Feature", "id": "lS7KLkumyShKOzVSCzWbnadBzIU=", "properties": {"ref": "https://www.cinemark.com/theatres/ar-benton/cinemark-tinseltown-usa", "@spider": "cinemark", "addr:full": "17314 I-30", "addr:city": "Benton", "addr:state": "AR", "addr:postcode": "72015", "addr:country": "US", "name": "Cinemark Tinseltown USA", "phone": "501-776-2282", "website": "https://www.cinemark.com/theatres/ar-benton/cinemark-tinseltown-usa", "brand": "Cinemark"}, "geometry": {"type": "Point", "coordinates": [-92.636339, 34.54269]}},
{"type": "Feature", "id": "riRtom68892J-q4jSHy_ARhoBrg=", "properties": {"ref": "https://www.cinemark.com/theatres/ca-hayward/century-southland-mall", "@spider": "cinemark", "addr:full": "256 Southland Mall Drive", "addr:city": "Hayward", "addr:state": "CA", "addr:postcode": "94545", "addr:country": "US", "name": "Century Southland Mall", "phone": "510-784-3040", "website": "https://www.cinemark.com/theatres/ca-hayward/century-southland-mall", "brand": "Cinemark"}, "geometry": {"type": "Point", "coordinates": [-122.1037548, 37.650561]}},
{"type": "Feature", "id": "iuIdkwJtcK5dq1iQELYrgWuw8cw=", "properties": {"ref": "https://www.cinemark.com/theatres/al-huntsville/cinemark-bridge-street-and-xd", "@spider": "cinemark", "addr:full": "370 The Bridge Street", "addr:city": "Huntsville", "addr:state": "AL", "addr:postcode": "35806", "addr:country": "US", "name": "Cinemark Bridge Street and XD", "phone": "256-327-8340", "website": "https://www.cinemark.com/theatres/al-huntsville/cinemark-bridge-street-and-xd", "brand": "Cinemark"}, "geometry": {"type": "Point", "coordinates": [-86.673594, 34.719585]}},
{"type": "Feature", "id": "7WznKia5es94Xeh7_yVtrayNp0o=", "properties": {"ref": "https://www.cinemark.com/theatres/ca-la-quinta/century-la-quinta-and-xd", "@spider": "cinemark", "addr:full": "46800 Washington Street", "addr:city": "La Quinta", "addr:state": "CA", "addr:postcode": "92253", "addr:country": "US", "name": "Century La Quinta and XD", "phone": "760-771-5682", "website": "https://www.cinemark.com/theatres/ca-la-quinta/century-la-quinta-and-xd", "brand": "Cinemark"}, "geometry": {"type": "Point", "coordinates": [-116.2936256, 33.708945]}},
{"type": "Feature", "id": "NC7W1h2Cn8HQJhPXBAhajyQKkH4=", "properties": {"ref": "https://www.cinemark.com/theatres/ca-lancaster/cinemark-22-and-imax", "@spider": "cinemark", "addr:full": "2600 W. Ave. I", "addr:city": "Lancaster", "addr:state": "CA", "addr:postcode": "93536", "addr:country": "US", "name": "Cinemark 22 and IMAX", "phone": "661-940-7086", "website": "https://www.cinemark.com/theatres/ca-lancaster/cinemark-22-and-imax", "brand": "Cinemark"}, "geometry": {"type": "Point", "coordinates": [-118.177672, 34.703941]}},
{"type": "Feature", "id": "V761_rArbEsv_7CIIim1KWNW168=", "properties": {"ref": "https://www.cinemark.com/theatres/ca-huntington-beach/century-huntington-beach-and-xd", "@spider": "cinemark", "addr:full": "7777 Edinger Ave. #170", "addr:city": "Huntington Beach", "addr:state": "CA", "addr:postcode": "92647", "addr:country": "US", "name": "Century Huntington Beach and XD", "phone": "714-373-4573", "website": "https://www.cinemark.com/theatres/ca-huntington-beach/century-huntington-beach-and-xd", "brand": "Cinemark"}, "geometry": {"type": "Point", "coordinates": [-117.994441, 33.731549]}},
{"type": "Feature", "id": "7m9uRPmXfrUHOJvBeS9cIwnVxsg=", "properties": {"ref": "https://www.cinemark.com/theatres/wv-bridgeport/cinemark-meadowbrook-mall", "@spider": "cinemark", "addr:full": "2105 Meadowbrook Rd", "addr:city": "Bridgeport", "addr:state": "WV", "addr:postcode": "26330", "addr:country": "US", "name": "Cinemark Meadowbrook Mall", "phone": "304-842-9296", "website": "https://www.cinemark.com/theatres/wv-bridgeport/cinemark-meadowbrook-mall", "brand": "Cinemark"}, "geometry": {"type": "Point", "coordinates": [-80.274999, 39.30783]}},
{"type": "Feature", "id": "lFMfx-8JC0MzPOvAbQGuRu3jIck=", "properties": {"ref": "https://www.cinemark.com/theatres/wv-barboursville/cinemark-huntington-mall", "@spider": "cinemark", "addr:full": "500 Mall Road", "addr:city": "Barboursville", "addr:state": "WV", "addr:postcode": "25504", "addr:country": "US", "name": "Cinemark Huntington Mall", "phone": "304-733-3984", "website": "https://www.cinemark.com/theatres/wv-barboursville/cinemark-huntington-mall", "brand": "Cinemark"}, "geometry": {"type": "Point", "coordinates": [-82.262117, 38.420817]}},
{"type": "Feature", "id": "1YiNA7YMvGvftOjjISZX0O42JPw=", "properties": {"ref": "https://www.cinemark.com/theatres/wa-walla-walla/cinemark-grand-cinemas-formerly-hallett-grand-cinemas-12", "@spider": "cinemark", "addr:full": "1325 W Poplar Street", "addr:city": "Walla Walla", "addr:state": "WA", "addr:postcode": "99362", "addr:country": "US", "name": "Cinemark Grand Cinemas (formerly Hallett Grand Cinemas 12)", "phone": "509-522-3232", "website": "https://www.cinemark.com/theatres/wa-walla-walla/cinemark-grand-cinemas-formerly-hallett-grand-cinemas-12", "brand": "Cinemark"}, "geometry": {"type": "Point", "coordinates": [-118.354627, 46.0565753]}},
{"type": "Feature", "id": "eDp_0GGwIOgivK6pcCGuh9d-pjs=", "properties": {"ref": "https://www.cinemark.com/theatres/wa-tacoma/century-point-ruston-and-xd", "@spider": "cinemark", "addr:full": "5057 Main Street", "addr:city": "Tacoma", "addr:state": "WA", "addr:postcode": "98407", "addr:country": "US", "name": "Century Point Ruston and XD", "phone": "253-752-6325", "website": "https://www.cinemark.com/theatres/wa-tacoma/century-point-ruston-and-xd", "brand": "Cinemark"}, "geometry": {"type": "Point", "coordinates": [-122.5030826, 47.2975209]}},
{"type": "Feature", "id": "apjkzAeFjU92qOYc1w38LpakfJM=", "properties": {"ref": "https://www.cinemark.com/theatres/wa-kirkland/cinemark-totem-lake-and-xd", "@spider": "cinemark", "addr:full": "12600 120th Ave NE", "addr:city": "Kirkland", "addr:state": "WA", "addr:postcode": "98034", "addr:country": "US", "name": "Cinemark Totem Lake and XD", "phone": "425-821-0511", "website": "https://www.cinemark.com/theatres/wa-kirkland/cinemark-totem-lake-and-xd", "brand": "Cinemark"}, "geometry": {"type": "Point", "coordinates": [-122.17978, 47.71267]}},
{"type": "Feature", "id": "aV8lYOhxqh7z9usBlVA64eO1bqE=", "properties": {"ref": "https://www.cinemark.com/theatres/wa-bellevue/cinemark-reserve-lincoln-square---dine-in-21", "@spider": "cinemark", "addr:full": "500 Bellevue Way NE (Lincoln Square South Tower)", "addr:city": "Bellevue", "addr:state": "WA", "addr:postcode": "98004", "addr:country": "US", "name": "Cinemark Reserve Lincoln Square - Dine-In 21+", "phone": "425-455-8422", "website": "https://www.cinemark.com/theatres/wa-bellevue/cinemark-reserve-lincoln-square---dine-in-21", "brand": "Cinemark"}, "geometry": {"type": "Point", "coordinates": [-122.201612, 47.615263]}},
{"type": "Feature", "id": "HmYZsJ9rl34X7yM869AlAOFFLIo=", "properties": {"ref": "https://www.cinemark.com/theatres/wa-olympia/century-olympia", "@spider": "cinemark", "addr:full": "Located at Westfield Capital", "addr:city": "Olympia", "addr:state": "WA", "addr:postcode": "98502", "addr:country": "US", "name": "Century Olympia", "phone": "360-943-0769", "website": "https://www.cinemark.com/theatres/wa-olympia/century-olympia", "brand": "Cinemark"}, "geometry": {"type": "Point", "coordinates": [-122.930761, 47.040628]}},
{"type": "Feature", "id": "SNr9yvbI4Z-vAe2pd5Q71OLVmbU=", "properties": {"ref": "https://www.cinemark.com/theatres/va-norfolk/cinemark-18", "@spider": "cinemark", "addr:full": "880 North Military Hwy", "addr:city": "Norfolk", "addr:state": "VA", "addr:postcode": "23502", "addr:country": "US", "name": "Cinemark 18", "website": "https://www.cinemark.com/theatres/va-norfolk/cinemark-18", "brand": "Cinemark"}, "geometry": {"type": "Point", "coordinates": [-76.209889, 36.851112]}},
{"type": "Feature", "id": "Wh8mP-ke2is5ra0o9vs7klOgpiM=", "properties": {"ref": "https://www.cinemark.com/theatres/wa-federal-way/century-federal-way-and-xd", "@spider": "cinemark", "addr:full": "2001 S. Commons, The Commons at Federal Way", "addr:city": "Federal Way", "addr:state": "WA", "addr:postcode": "98003", "addr:country": "US", "name": "Century Federal Way and XD", "phone": "253-946-0942", "website": "https://www.cinemark.com/theatres/wa-federal-way/century-federal-way-and-xd", "brand": "Cinemark"}, "geometry": {"type": "Point", "coordinates": [-122.30393, 47.312963]}},
{"type": "Feature", "id": "KmfkrJ7Xjq04m-swh0wee8OT3Vw=", "properties": {"ref": "https://www.cinemark.com/theatres/wi-kenosha/cinemark-tinseltown-usa", "@spider": "cinemark", "addr:full": "7101 70th Court", "addr:city": "Kenosha", "addr:state": "WI", "addr:postcode": "53142", "addr:country": "US", "name": "Cinemark Tinseltown USA", "phone": "262-942-8537", "website": "https://www.cinemark.com/theatres/wi-kenosha/cinemark-tinseltown-usa", "brand": "Cinemark"}, "geometry": {"type": "Point", "coordinates": [-87.89301, 42.569568]}},
{"type": "Feature", "id": "avngv6mGu1Ss98xfL94xD3j1bCY=", "properties": {"ref": "https://www.cinemark.com/theatres/va-bristol/cinemark-tinseltown-usa", "@spider": "cinemark", "addr:full": "3004 Linden Drive", "addr:city": "Bristol", "addr:state": "VA", "addr:postcode": "24202", "addr:country": "US", "name": "Cinemark Tinseltown USA", "website": "https://www.cinemark.com/theatres/va-bristol/cinemark-tinseltown-usa", "brand": "Cinemark"}, "geometry": {"type": "Point", "coordinates": [-82.127183, 36.62942]}},
{"type": "Feature", "id": "KtwN2jJNEDObLaRJ_SCbBEVwv5w=", "properties": {"ref": "https://www.cinemark.com/theatres/va-newport-news/cinemark-city-center-12", "@spider": "cinemark", "addr:full": "11810 Fountain Way", "addr:city": "Newport News", "addr:state": "VA", "addr:postcode": "23606", "addr:country": "US", "name": "Cinemark City Center 12", "phone": "757-525-9898", "website": "https://www.cinemark.com/theatres/va-newport-news/cinemark-city-center-12", "brand": "Cinemark"}, "geometry": {"type": "Point", "coordinates": [-76.472081, 37.085765]}},
{"type": "Feature", "id": "Z1FMOuYzkFG8cauhb9joVxvkYos=", "properties": {"ref": "https://www.cinemark.com/theatres/wa-bellevue/cinemark-lincoln-square-cinemas", "@spider": "cinemark", "addr:full": "700 Bellevue Way NE", "addr:city": "Bellevue", "addr:state": "WA", "addr:postcode": "98004", "addr:country": "US", "name": "Cinemark Lincoln Square Cinemas", "phone": "425-450-9100", "website": "https://www.cinemark.com/theatres/wa-bellevue/cinemark-lincoln-square-cinemas", "brand": "Cinemark"}, "geometry": {"type": "Point", "coordinates": [-122.200263, 47.613989]}},
{"type": "Feature", "id": "SQmqELwFYsngNCf1QZDTzXamahc=", "properties": {"ref": "https://www.cinemark.com/theatres/va-chesapeake/cinemark-chesapeake-square-and-xd", "@spider": "cinemark", "addr:full": "2413 Chesapeake Square Ring Rd", "addr:city": "Chesapeake", "addr:state": "VA", "addr:postcode": "23321", "addr:country": "US", "name": "Cinemark Chesapeake Square and XD", "phone": "757-488-4695", "website": "https://www.cinemark.com/theatres/va-chesapeake/cinemark-chesapeake-square-and-xd", "brand": "Cinemark"}, "geometry": {"type": "Point", "coordinates": [-76.411908, 36.829047]}},
{"type": "Feature", "id": "86o6_EqPFInliU34802J3GyZ5Vw=", "properties": {"ref": "https://www.cinemark.com/theatres/va-fairfax/cinemark-fairfax-corner-and-xd", "@spider": "cinemark", "addr:full": "11900 Palace Way", "addr:city": "Fairfax", "addr:state": "VA", "addr:postcode": "22030", "addr:country": "US", "name": "Cinemark Fairfax Corner and XD", "phone": "703-378-6550", "website": "https://www.cinemark.com/theatres/va-fairfax/cinemark-fairfax-corner-and-xd", "brand": "Cinemark"}, "geometry": {"type": "Point", "coordinates": [-77.356716, 38.859022]}},
{"type": "Feature", "id": "-M3baH64gQ68A4tISDRz1PohC8Q=", "properties": {"ref": "https://www.cinemark.com/theatres/va-centreville/cinemark-centreville-12", "@spider": "cinemark", "addr:full": "6201 Multiplex Drive", "addr:city": "Centreville", "addr:state": "VA", "addr:postcode": "20121", "addr:country": "US", "name": "Cinemark Centreville 12", "phone": "703-802-1100", "website": "https://www.cinemark.com/theatres/va-centreville/cinemark-centreville-12", "brand": "Cinemark"}, "geometry": {"type": "Point", "coordinates": [-77.436608, 38.829533]}},
{"type": "Feature", "id": "R-q9idKSjOooiu3zUETNHP47atE=", "properties": {"ref": "https://www.cinemark.com/theatres/ut-west-valley-city/cinemark-west-valley-city-and-xd", "@spider": "cinemark", "addr:full": "5412 West High Market Drive", "addr:city": "West Valley City", "addr:state": "UT", "addr:postcode": "84120", "addr:country": "US", "name": "Cinemark West Valley City and XD", "phone": "(801) 297-1708", "website": "https://www.cinemark.com/theatres/ut-west-valley-city/cinemark-west-valley-city-and-xd", "brand": "Cinemark"}, "geometry": {"type": "Point", "coordinates": [-112.019402, 40.715363]}},
{"type": "Feature", "id": "hbVgyPNZuRO9u5QQ4PGTxYZNVwk=", "properties": {"ref": "https://www.cinemark.com/theatres/ut-west-jordan/cinemark-24-jordan-landing-and-xd", "@spider": "cinemark", "addr:full": "7301 South Jordan Landing", "addr:city": "West Jordan", "addr:state": "UT", "addr:postcode": "84084", "addr:country": "US", "name": "Cinemark 24 Jordan Landing and XD", "phone": "801-282-8847", "website": "https://www.cinemark.com/theatres/ut-west-jordan/cinemark-24-jordan-landing-and-xd", "brand": "Cinemark"}, "geometry": {"type": "Point", "coordinates": [-111.9821, 40.618254]}},
{"type": "Feature", "id": "mB8Q-UcGa6GF8VbjfPC4THxoIhk=", "properties": {"ref": "https://www.cinemark.com/theatres/ut-spanish-fork/cinemark-spanish-fork-and-xd", "@spider": "cinemark", "addr:full": "595 East Commerce Way", "addr:city": "Spanish Fork", "addr:state": "UT", "addr:postcode": "84660", "addr:country": "US", "name": "Cinemark Spanish Fork and XD", "phone": "801-798-6977", "website": "https://www.cinemark.com/theatres/ut-spanish-fork/cinemark-spanish-fork-and-xd", "brand": "Cinemark"}, "geometry": {"type": "Point", "coordinates": [-111.641552, 40.123936]}},
{"type": "Feature", "id": "WayMtS5efhv4sHsgeNd1TVTktF0=", "properties": {"ref": "https://www.cinemark.com/theatres/ut-west-bountiful/cinemark-bountiful-8", "@spider": "cinemark", "addr:full": "206 South 625 West, Suite 1230", "addr:city": "West Bountiful", "addr:state": "UT", "addr:postcode": "84010", "addr:country": "US", "name": "Cinemark Bountiful 8", "phone": "801-298-0326", "website": "https://www.cinemark.com/theatres/ut-west-bountiful/cinemark-bountiful-8", "brand": "Cinemark"}, "geometry": {"type": "Point", "coordinates": [-111.89593, 40.883157]}},
{"type": "Feature", "id": "-LFNrWiVHP7Ncy0ljJ5tQ8pY6F8=", "properties": {"ref": "https://www.cinemark.com/theatres/ut-provo/cinemark-16", "@spider": "cinemark", "addr:full": "1200 Towne Centre Blvd.", "addr:city": "Provo", "addr:state": "UT", "addr:postcode": "84601", "addr:country": "US", "name": "Cinemark 16", "phone": "801-852-8526", "website": "https://www.cinemark.com/theatres/ut-provo/cinemark-16", "brand": "Cinemark"}, "geometry": {"type": "Point", "coordinates": [-111.660715, 40.217674]}},
{"type": "Feature", "id": "4FkCeK0qQEkatdQRIy5KF74As5A=", "properties": {"ref": "https://www.cinemark.com/theatres/ut-provo/cinemark-movies-8---now-closed", "@spider": "cinemark", "addr:full": "University Pkwy @ 2230 North", "addr:city": "Provo", "addr:state": "UT", "addr:postcode": "84604", "addr:country": "US", "name": "Cinemark Movies 8 - Now Closed", "phone": "801-375-0127", "website": "https://www.cinemark.com/theatres/ut-provo/cinemark-movies-8---now-closed", "brand": "Cinemark"}, "geometry": {"type": "Point", "coordinates": [-111.669631, 40.264938]}},
{"type": "Feature", "id": "eKn2oqOttURm9H9Jd36qtGGGGjk=", "properties": {"ref": "https://www.cinemark.com/theatres/ut-sandy/century-16-sandy-union-heights", "@spider": "cinemark", "addr:full": "7670 S. Union Park Ave.", "addr:city": "Sandy", "addr:state": "UT", "addr:postcode": "84047", "addr:country": "US", "name": "Century 16 Sandy Union Heights", "phone": "801-568-3699", "website": "https://www.cinemark.com/theatres/ut-sandy/century-16-sandy-union-heights", "brand": "Cinemark"}, "geometry": {"type": "Point", "coordinates": [-111.854634, 40.611818]}},
{"type": "Feature", "id": "RLCOs53b-Y5JWPGHdG5obLvxLpM=", "properties": {"ref": "https://www.cinemark.com/theatres/ut-farmington/cinemark-farmington-at-station-park-and-xd", "@spider": "cinemark", "addr:full": "900 W Clark Lane", "addr:city": "Farmington", "addr:state": "UT", "addr:postcode": "84025", "addr:country": "US", "name": "Cinemark Farmington at Station Park and XD", "phone": "801-447-8561", "website": "https://www.cinemark.com/theatres/ut-farmington/cinemark-farmington-at-station-park-and-xd", "brand": "Cinemark"}, "geometry": {"type": "Point", "coordinates": [-111.90632, 40.982117]}},
{"type": "Feature", "id": "UkkuBJfV_GrKxN9408W97EbfVGI=", "properties": {"ref": "https://www.cinemark.com/theatres/ut-salt-lake-city/cinemark-sugar-house", "@spider": "cinemark", "addr:full": "2227 S. Highland Dr.", "addr:city": "Salt Lake City", "addr:state": "UT", "addr:postcode": "84106", "addr:country": "US", "name": "Cinemark Sugar House", "phone": "801-466-3699", "website": "https://www.cinemark.com/theatres/ut-salt-lake-city/cinemark-sugar-house", "brand": "Cinemark"}, "geometry": {"type": "Point", "coordinates": [-111.858664, 40.722449]}},
{"type": "Feature", "id": "mSRXe0AGhIHbSfeaJG3QrNfqs_M=", "properties": {"ref": "https://www.cinemark.com/theatres/ut-draper/cinemark-draper-and-xd", "@spider": "cinemark", "addr:full": "12129 South State Street", "addr:city": "Draper", "addr:state": "UT", "addr:postcode": "84020", "addr:country": "US", "name": "Cinemark Draper and XD", "phone": "801-619-6494", "website": "https://www.cinemark.com/theatres/ut-draper/cinemark-draper-and-xd", "brand": "Cinemark"}, "geometry": {"type": "Point", "coordinates": [-111.889383, 40.532089]}},
{"type": "Feature", "id": "x0BOA-pf-8iFJZ86LUy-WoBV1Tc=", "properties": {"ref": "https://www.cinemark.com/theatres/tx-wichita-falls/cinemark-14-wichita-falls", "@spider": "cinemark", "addr:full": "2915 Glenwood Blvd", "addr:city": "Wichita Falls", "addr:state": "TX", "addr:postcode": "76308", "addr:country": "US", "name": "Cinemark 14 Wichita Falls", "phone": "940-716-9933", "website": "https://www.cinemark.com/theatres/tx-wichita-falls/cinemark-14-wichita-falls", "brand": "Cinemark"}, "geometry": {"type": "Point", "coordinates": [-98.524017, 33.886449]}},
{"type": "Feature", "id": "GTfV3e9LL2mYZ3M-ZrEuKUEf-pU=", "properties": {"ref": "https://www.cinemark.com/theatres/ut-sandy/cinemark-movies-9", "@spider": "cinemark", "addr:full": "9539 So. 700 E. Suite 2", "addr:city": "Sandy", "addr:state": "UT", "addr:postcode": "84070", "addr:country": "US", "name": "Cinemark Movies 9", "phone": "801-571-0968", "website": "https://www.cinemark.com/theatres/ut-sandy/cinemark-movies-9", "brand": "Cinemark"}, "geometry": {"type": "Point", "coordinates": [-111.87212, 40.578167]}},
{"type": "Feature", "id": "9c2wllyiorX9iv5hWeCp55S2Hmg=", "properties": {"ref": "https://www.cinemark.com/theatres/ut-salt-lake-city/century-16-salt-lake-and-xd-33rd-at-state", "@spider": "cinemark", "addr:full": "125 East 3300 South", "addr:city": "Salt Lake City", "addr:state": "UT", "addr:postcode": "84115", "addr:country": "US", "name": "Century 16 Salt Lake and XD, 33rd at State", "phone": "801-486-9652", "website": "https://www.cinemark.com/theatres/ut-salt-lake-city/century-16-salt-lake-and-xd-33rd-at-state", "brand": "Cinemark"}, "geometry": {"type": "Point", "coordinates": [-111.887476, 40.699973]}},
{"type": "Feature", "id": "6WuOwxsPL77AWb8IxlSr7BJd1BE=", "properties": {"ref": "https://www.cinemark.com/theatres/ut-orem/cinemark-university-mall", "@spider": "cinemark", "addr:full": "1010 South 800 East", "addr:city": "Orem", "addr:state": "UT", "addr:postcode": "84097", "addr:country": "US", "name": "Cinemark University Mall", "phone": "801-224-7428", "website": "https://www.cinemark.com/theatres/ut-orem/cinemark-university-mall", "brand": "Cinemark"}, "geometry": {"type": "Point", "coordinates": [-111.676637, 40.278519]}},
{"type": "Feature", "id": "LJqRj32xDNlUH_RbcEN5g9QuDhw=", "properties": {"ref": "https://www.cinemark.com/theatres/ut-west-valley-city/cinemark-valley-fair-9---now-closed", "@spider": "cinemark", "addr:full": "3601 S. 2700 W.", "addr:city": "West Valley City", "addr:state": "UT", "addr:postcode": "84119", "addr:country": "US", "name": "Cinemark Valley Fair 9 - NOW CLOSED", "website": "https://www.cinemark.com/theatres/ut-west-valley-city/cinemark-valley-fair-9---now-closed", "brand": "Cinemark"}, "geometry": {"type": "Point", "coordinates": [-111.956938, 40.694278]}},
{"type": "Feature", "id": "F0Z18TutyJu2Cboo5tvM3tYGndg=", "properties": {"ref": "https://www.cinemark.com/theatres/tx-waco/cinemark-waco-and-xd", "@spider": "cinemark", "addr:full": "2400 Creekview Drive", "addr:city": "Waco", "addr:state": "TX", "addr:postcode": "76711", "addr:country": "US", "name": "Cinemark Waco and XD ", "phone": "682-499-3273", "website": "https://www.cinemark.com/theatres/tx-waco/cinemark-waco-and-xd", "brand": "Cinemark"}, "geometry": {"type": "Point", "coordinates": [-97.1523211, 31.5043122]}},
{"type": "Feature", "id": "858QQn3rY8_jGDZtIITmvGSFPZg=", "properties": {"ref": "https://www.cinemark.com/theatres/tx-webster/cinemark-18-and-xd", "@spider": "cinemark", "addr:full": "20915 Gulf Freeway, Exit FM 528", "addr:city": "Webster", "addr:state": "TX", "addr:postcode": "77598", "addr:country": "US", "name": "Cinemark 18 and XD", "phone": "281-332-0951", "website": "https://www.cinemark.com/theatres/tx-webster/cinemark-18-and-xd", "brand": "Cinemark"}, "geometry": {"type": "Point", "coordinates": [-95.12698, 29.525179]}},
{"type": "Feature", "id": "xO6d8oSEv5rMo8gvf7T5HUHEy2I=", "properties": {"ref": "https://www.cinemark.com/theatres/ut-ogden/cinemark-tinseltown-14", "@spider": "cinemark", "addr:full": "3651 Wall Avenue", "addr:city": "Ogden", "addr:state": "UT", "addr:postcode": "84405", "addr:country": "US", "name": "Cinemark Tinseltown 14", "phone": "801-334-8655", "website": "https://www.cinemark.com/theatres/ut-ogden/cinemark-tinseltown-14", "brand": "Cinemark"}, "geometry": {"type": "Point", "coordinates": [-111.979519, 41.196128]}},
{"type": "Feature", "id": "kJ1gWtYVzTrNCQYiKrnCHaP8nEQ=", "properties": {"ref": "https://www.cinemark.com/theatres/tx-the-woodlands/cinemark-17-and-xd", "@spider": "cinemark", "addr:full": "1600 Lake Robbins", "addr:city": "The Woodlands", "addr:state": "TX", "addr:postcode": "77380", "addr:country": "US", "name": "Cinemark 17 and XD", "phone": "281-362-4340", "website": "https://www.cinemark.com/theatres/tx-the-woodlands/cinemark-17-and-xd", "brand": "Cinemark"}, "geometry": {"type": "Point", "coordinates": [-95.458929, 30.161578]}},
{"type": "Feature", "id": "drmBYrPwaSwXSHUj9HoEIYZ7tIY=", "properties": {"ref": "https://www.cinemark.com/theatres/tx-texarkana/cinemark-texarkana-14", "@spider": "cinemark", "addr:full": "4230 St. Michael Drive", "addr:city": "Texarkana", "addr:state": "TX", "addr:postcode": "75503", "addr:country": "US", "name": "Cinemark Texarkana 14", "phone": "903-831-6084", "website": "https://www.cinemark.com/theatres/tx-texarkana/cinemark-texarkana-14", "brand": "Cinemark"}, "geometry": {"type": "Point", "coordinates": [-94.096819, 33.453312]}},
{"type": "Feature", "id": "vHJzNwg31qbIGudLhVO-7dQuuvk=", "properties": {"ref": "https://www.cinemark.com/theatres/tx-weslaco/cinemark-movies-10", "@spider": "cinemark", "addr:full": "2113 West Expressway 83", "addr:city": "Weslaco", "addr:state": "TX", "addr:postcode": "78596", "addr:country": "US", "name": "Cinemark Movies 10", "phone": "956-968-8437", "website": "https://www.cinemark.com/theatres/tx-weslaco/cinemark-movies-10", "brand": "Cinemark"}, "geometry": {"type": "Point", "coordinates": [-98.010805, 26.172215]}},
{"type": "Feature", "id": "rm25pVzV5z5n-RyVh2LaPpCKkIY=", "properties": {"ref": "https://www.cinemark.com/theatres/tx-the-woodlands/cinemark-at-market-street", "@spider": "cinemark", "addr:full": "9595 Six Pines Dr. 8200", "addr:city": "The Woodlands", "addr:state": "TX", "addr:postcode": "77380", "addr:country": "US", "name": "Cinemark at Market Street", "phone": "281-419-9639", "website": "https://www.cinemark.com/theatres/tx-the-woodlands/cinemark-at-market-street", "brand": "Cinemark"}, "geometry": {"type": "Point", "coordinates": [-95.461268, 30.164414]}},
{"type": "Feature", "id": "jrlVsS_fkhPisag_be-cgBSr2aQ=", "properties": {"ref": "https://www.cinemark.com/theatres/tx-temple/cinemark-temple-and-xd", "@spider": "cinemark", "addr:full": "4501 South General Bruce Dr.", "addr:city": "Temple", "addr:state": "TX", "addr:postcode": "76502", "addr:country": "US", "name": "Cinemark Temple and XD", "phone": "254-773-8497", "website": "https://www.cinemark.com/theatres/tx-temple/cinemark-temple-and-xd", "brand": "Cinemark"}, "geometry": {"type": "Point", "coordinates": [-97.397824, 31.085485]}},
{"type": "Feature", "id": "a8pqg1YmGm7ou2VlU4wWWSSa_Qo=", "properties": {"ref": "https://www.cinemark.com/theatres/ut-american-fork/cinemark-american-fork", "@spider": "cinemark", "addr:full": "715 West 180 North", "addr:city": "American Fork", "addr:state": "UT", "addr:postcode": "84003", "addr:country": "US", "name": "Cinemark American Fork", "phone": "801-756-7897", "website": "https://www.cinemark.com/theatres/ut-american-fork/cinemark-american-fork", "brand": "Cinemark"}, "geometry": {"type": "Point", "coordinates": [-111.818569, 40.378623]}},
{"type": "Feature", "id": "k4hIxy5EXO77_cPgsuzNjvvs-J4=", "properties": {"ref": "https://www.cinemark.com/theatres/tx-spring/cinemark-spring-klein-and-xd", "@spider": "cinemark", "addr:full": "21440 Kuykendahl Rd.", "addr:city": "Spring", "addr:state": "TX", "addr:postcode": "77379", "addr:country": "US", "name": "Cinemark Spring-Klein and XD", "phone": "281-288-2894", "website": "https://www.cinemark.com/theatres/tx-spring/cinemark-spring-klein-and-xd", "brand": "Cinemark"}, "geometry": {"type": "Point", "coordinates": [-95.519943, 30.080402]}},
{"type": "Feature", "id": "RY6_L4QNjoL1UW-FW6wCvwIJ_PA=", "properties": {"ref": "https://www.cinemark.com/theatres/tx-sherman/cinemark-sherman", "@spider": "cinemark", "addr:full": "3310 Town Center Street", "addr:city": "Sherman", "addr:state": "TX", "addr:postcode": "75092", "addr:country": "US", "name": "Cinemark Sherman", "phone": "903-868-4337", "website": "https://www.cinemark.com/theatres/tx-sherman/cinemark-sherman", "brand": "Cinemark"}, "geometry": {"type": "Point", "coordinates": [-96.610273, 33.674692]}},
{"type": "Feature", "id": "jn-5CzoQ67M2uGuBXS5P7u3H4qg=", "properties": {"ref": "https://www.cinemark.com/theatres/tx-san-angelo/cinemark-tinseltown-usa", "@spider": "cinemark", "addr:full": "4425 Sherwood Way", "addr:city": "San Angelo", "addr:state": "TX", "addr:postcode": "76904", "addr:country": "US", "name": "Cinemark Tinseltown USA", "phone": "325-223-2854", "website": "https://www.cinemark.com/theatres/tx-san-angelo/cinemark-tinseltown-usa", "brand": "Cinemark"}, "geometry": {"type": "Point", "coordinates": [-100.491696, 31.438884]}},
{"type": "Feature", "id": "up-a8iQX15bpuMqzHttRMJR-8xY=", "properties": {"ref": "https://www.cinemark.com/theatres/tx-san-antonio/cinemark-mccreless-market", "@spider": "cinemark", "addr:full": "4224 S New Braunfels Ave.", "addr:city": "San Antonio", "addr:state": "TX", "addr:postcode": "78223", "addr:country": "US", "name": "Cinemark McCreless Market", "phone": "210-532-4459", "website": "https://www.cinemark.com/theatres/tx-san-antonio/cinemark-mccreless-market", "brand": "Cinemark"}, "geometry": {"type": "Point", "coordinates": [-98.460996, 29.37722]}},
{"type": "Feature", "id": "vJXXlCYANu8AwGEJTgbfeYIR0EI=", "properties": {"ref": "https://www.cinemark.com/theatres/tx-san-antonio/cinemark-san-antonio-16", "@spider": "cinemark", "addr:full": "5063 N.W. Loop 410", "addr:city": "San Antonio", "addr:state": "TX", "addr:postcode": "78229", "addr:country": "US", "name": "Cinemark San Antonio 16", "phone": "210-522-9660", "website": "https://www.cinemark.com/theatres/tx-san-antonio/cinemark-san-antonio-16", "brand": "Cinemark"}, "geometry": {"type": "Point", "coordinates": [-98.587382, 29.487356]}},
{"type": "Feature", "id": "4zbqF0VUcg3NuFH5Nb5dQHtq910=", "properties": {"ref": "https://www.cinemark.com/theatres/tx-round-rock/cinemark-14-round-rock", "@spider": "cinemark", "addr:full": "4401 N. IH 35", "addr:city": "Round Rock", "addr:state": "TX", "addr:postcode": "78664", "addr:country": "US", "name": "Cinemark 14 Round Rock", "phone": "512-868-2062", "website": "https://www.cinemark.com/theatres/tx-round-rock/cinemark-14-round-rock", "brand": "Cinemark"}, "geometry": {"type": "Point", "coordinates": [-97.692006, 30.565685]}},
{"type": "Feature", "id": "Pr8hqm1lBYT8fUDohIRsqDK4H9Q=", "properties": {"ref": "https://www.cinemark.com/theatres/ut-layton/cinemark-layton-and-xd", "@spider": "cinemark", "addr:full": "720 W. Ring Road", "addr:city": "Layton", "addr:state": "UT", "addr:postcode": "84041", "addr:country": "US", "name": "Cinemark Layton and XD", "phone": "801-546-4764", "website": "https://www.cinemark.com/theatres/ut-layton/cinemark-layton-and-xd", "brand": "Cinemark"}, "geometry": {"type": "Point", "coordinates": [-111.97938, 41.080692]}},
{"type": "Feature", "id": "5uue2JAh7yP5hWX2V-HTaJFptwk=", "properties": {"ref": "https://www.cinemark.com/theatres/tx-round-rock/cinemark-movies-8", "@spider": "cinemark", "addr:full": "2132 N. Mays, Ste. 800", "addr:city": "Round Rock", "addr:state": "TX", "addr:postcode": "78664", "addr:country": "US", "name": "Cinemark Movies 8", "phone": "512-388-2703", "website": "https://www.cinemark.com/theatres/tx-round-rock/cinemark-movies-8", "brand": "Cinemark"}, "geometry": {"type": "Point", "coordinates": [-97.689253, 30.531047]}},
{"type": "Feature", "id": "ev9Yg0Qag2USnZeDlxF1bB1gIrQ=", "properties": {"ref": "https://www.cinemark.com/theatres/tx-roanoke/cinemark-roanoke-and-xd", "@spider": "cinemark", "addr:full": "850 E. HWY 114", "addr:city": "Roanoke", "addr:state": "TX", "addr:postcode": "76262", "addr:country": "US", "name": "Cinemark Roanoke and XD", "phone": "682-831-9498", "website": "https://www.cinemark.com/theatres/tx-roanoke/cinemark-roanoke-and-xd", "brand": "Cinemark"}, "geometry": {"type": "Point", "coordinates": [-97.2175041, 32.9984716]}},
{"type": "Feature", "id": "Wyecp8i4ZUJcgzKbCjd3rDX9gNg=", "properties": {"ref": "https://www.cinemark.com/theatres/tx-rosenberg/cinemark-rosenberg-12", "@spider": "cinemark", "addr:full": "3420 Vista Drive", "addr:city": "Rosenberg", "addr:state": "TX", "addr:postcode": "77471", "addr:country": "US", "name": "Cinemark Rosenberg 12", "phone": "281-232-2612", "website": "https://www.cinemark.com/theatres/tx-rosenberg/cinemark-rosenberg-12", "brand": "Cinemark"}, "geometry": {"type": "Point", "coordinates": [-95.759368, 29.546675]}},
{"type": "Feature", "id": "JZiGrIYQngEPsRwR7K12cQ4S-9w=", "properties": {"ref": "https://www.cinemark.com/theatres/tx-victoria/cinemark-12", "@spider": "cinemark", "addr:full": "7806 Navarro", "addr:city": "Victoria", "addr:state": "TX", "addr:postcode": "77904", "addr:country": "US", "name": "Cinemark 12", "phone": "361-485-1569", "website": "https://www.cinemark.com/theatres/tx-victoria/cinemark-12", "brand": "Cinemark"}, "geometry": {"type": "Point", "coordinates": [-96.997157, 28.865944]}},
{"type": "Feature", "id": "vorcEiNgGe_uDJ5nWHZfHGYk0AA=", "properties": {"ref": "https://www.cinemark.com/theatres/tx-rockwall/cinemark-14-rockwall-and-xd", "@spider": "cinemark", "addr:full": "2125 Summer Lee", "addr:city": "Rockwall", "addr:state": "TX", "addr:postcode": "75032", "addr:country": "US", "name": "Cinemark 14 Rockwall and XD", "phone": "972-771-6653", "website": "https://www.cinemark.com/theatres/tx-rockwall/cinemark-14-rockwall-and-xd", "brand": "Cinemark"}, "geometry": {"type": "Point", "coordinates": [-96.479773, 32.890066]}},
{"type": "Feature", "id": "lUzDbbABgowH50qS-SP8CHRZSXM=", "properties": {"ref": "https://www.cinemark.com/theatres/tx-texas-city/cinemark-movies-12", "@spider": "cinemark", "addr:full": "10000 E.F. Lowry Expressway", "addr:city": "Texas City", "addr:state": "TX", "addr:postcode": "77591", "addr:country": "US", "name": "Cinemark Movies 12", "phone": "409-986-7241", "website": "https://www.cinemark.com/theatres/tx-texas-city/cinemark-movies-12", "brand": "Cinemark"}, "geometry": {"type": "Point", "coordinates": [-95.02025, 29.401954]}},
{"type": "Feature", "id": "tYGVZHMWAY_q5iRWJfjjS06Errg=", "properties": {"ref": "https://www.cinemark.com/theatres/tx-plainview/cinemark-town-centre-cinema-6", "@spider": "cinemark", "addr:full": "1001 I-27 N Hwy 70", "addr:city": "Plainview", "addr:state": "TX", "addr:postcode": "79072", "addr:country": "US", "name": "Cinemark Town Centre Cinema 6", "phone": "806-296-7355", "website": "https://www.cinemark.com/theatres/tx-plainview/cinemark-town-centre-cinema-6", "brand": "Cinemark"}, "geometry": {"type": "Point", "coordinates": [-101.750408, 34.190617]}},
{"type": "Feature", "id": "mTY5urI7hRb7pg3hxhpkVem_6hM=", "properties": {"ref": "https://www.cinemark.com/theatres/tx-pflugerville/cinemark-20-and-xd", "@spider": "cinemark", "addr:full": "15436 F.M. 1825", "addr:city": "Pflugerville", "addr:state": "TX", "addr:postcode": "78660", "addr:country": "US", "name": "Cinemark 20 and XD", "phone": "512-989-8535", "website": "https://www.cinemark.com/theatres/tx-pflugerville/cinemark-20-and-xd", "brand": "Cinemark"}, "geometry": {"type": "Point", "coordinates": [-97.66183, 30.448448]}},
{"type": "Feature", "id": "Tn5SFReOWu4NrWnSHtIayoBAwz4=", "properties": {"ref": "https://www.cinemark.com/theatres/tx-plano/cinemark-central-plano", "@spider": "cinemark", "addr:full": "1818 Coit Road", "addr:city": "Plano", "addr:state": "TX", "addr:postcode": "75075", "addr:country": "US", "name": "Cinemark Central Plano", "phone": "972-985-1394", "website": "https://www.cinemark.com/theatres/tx-plano/cinemark-central-plano", "brand": "Cinemark"}, "geometry": {"type": "Point", "coordinates": [-96.770036, 33.024669]}},
{"type": "Feature", "id": "qHw4UazOOuTWtdZkQIa4OtmbWQo=", "properties": {"ref": "https://www.cinemark.com/theatres/tx-pasadena/cinemark-hollywood-movies-20", "@spider": "cinemark", "addr:full": "2101 E. Beltway 8", "addr:city": "Pasadena", "addr:state": "TX", "addr:postcode": "77503", "addr:country": "US", "name": "Cinemark Hollywood Movies 20", "phone": "713-475-8180", "website": "https://www.cinemark.com/theatres/tx-pasadena/cinemark-hollywood-movies-20", "brand": "Cinemark"}, "geometry": {"type": "Point", "coordinates": [-95.154944, 29.681505]}},
{"type": "Feature", "id": "NTL7eEPGD3JpC8-ppUBDUxBdFjM=", "properties": {"ref": "https://www.cinemark.com/theatres/tx-plano/cinemark-west-plano-and-xd", "@spider": "cinemark", "addr:full": "3800 Dallas Parkway", "addr:city": "Plano", "addr:state": "TX", "addr:postcode": "75093", "addr:country": "US", "name": "Cinemark West Plano and XD", "phone": "972-473-2289", "website": "https://www.cinemark.com/theatres/tx-plano/cinemark-west-plano-and-xd", "brand": "Cinemark"}, "geometry": {"type": "Point", "coordinates": [-96.827987, 33.04924]}},
{"type": "Feature", "id": "D7SeZ16LsoO26Pd-j0zvTt4v4jQ=", "properties": {"ref": "https://www.cinemark.com/theatres/tx-plano/cinemark-legacy-and-xd", "@spider": "cinemark", "addr:full": "7201 N Central Expressway", "addr:city": "Plano", "addr:state": "TX", "addr:postcode": "75025", "addr:country": "US", "name": "Cinemark Legacy and XD", "phone": "972-527-4385", "website": "https://www.cinemark.com/theatres/tx-plano/cinemark-legacy-and-xd", "brand": "Cinemark"}, "geometry": {"type": "Point", "coordinates": [-96.691062, 33.070886]}},
{"type": "Feature", "id": "FoXBYQNTLB0yUiKWol9XrHNDNLk=", "properties": {"ref": "https://www.cinemark.com/theatres/tx-pflugerville/cinemark-stone-hill-town-center", "@spider": "cinemark", "addr:full": "18820 Hilltop Commercial Dr.", "addr:city": "Pflugerville", "addr:state": "TX", "addr:postcode": "78660", "addr:country": "US", "name": "Cinemark Stone Hill Town Center", "phone": "512-251-0938", "website": "https://www.cinemark.com/theatres/tx-pflugerville/cinemark-stone-hill-town-center", "brand": "Cinemark"}, "geometry": {"type": "Point", "coordinates": [-97.595844, 30.470832]}},
{"type": "Feature", "id": "tq0sraij3qbkhMQ_aVJEXc0jqTE=", "properties": {"ref": "https://www.cinemark.com/theatres/tx-pearland/cinemark-at-pearland-and-xd", "@spider": "cinemark", "addr:full": "3311 Silverlake Village Drive", "addr:city": "Pearland", "addr:state": "TX", "addr:postcode": "77581", "addr:country": "US", "name": "Cinemark at Pearland and XD", "phone": "713-436-9065", "website": "https://www.cinemark.com/theatres/tx-pearland/cinemark-at-pearland-and-xd", "brand": "Cinemark"}, "geometry": {"type": "Point", "coordinates": [-95.386617, 29.549504]}},
{"type": "Feature", "id": "lYKA_fKuaqv4-GPvu44X6zcPSTE=", "properties": {"ref": "https://www.cinemark.com/theatres/tx-new-caney/cinemark-valley-ranch-and-xd", "@spider": "cinemark", "addr:full": "21750 Valley Ranch Parkway", "addr:city": "New Caney", "addr:state": "TX", "addr:postcode": "77357", "addr:country": "US", "name": "Cinemark Valley Ranch and XD", "phone": "281-354-4117", "website": "https://www.cinemark.com/theatres/tx-new-caney/cinemark-valley-ranch-and-xd", "brand": "Cinemark"}, "geometry": {"type": "Point", "coordinates": [-95.2455, 30.12941]}},
{"type": "Feature", "id": "xQPQwmTYYevVBAd5L8VWwacaPyo=", "properties": {"ref": "https://www.cinemark.com/theatres/tx-mckinney/cinemark-north-mckinney-and-xd", "@spider": "cinemark", "addr:full": "1701 North Hardin Blvd", "addr:city": "McKinney", "addr:state": "TX", "addr:postcode": "75071", "addr:country": "US", "name": "Cinemark North McKinney and XD", "phone": "214-491-1822", "website": "https://www.cinemark.com/theatres/tx-mckinney/cinemark-north-mckinney-and-xd", "brand": "Cinemark"}, "geometry": {"type": "Point", "coordinates": [-96.6631101, 33.2154991]}},
{"type": "Feature", "id": "9pFk0yT0xpn_MfSooWVHXWW0THQ=", "properties": {"ref": "https://www.cinemark.com/theatres/tx-north-richland-hills/cinemark-movies-8---now-closed", "@spider": "cinemark", "addr:full": "7560 N.E. Loop 820", "addr:city": "North Richland Hills", "addr:state": "TX", "addr:postcode": "76180", "addr:country": "US", "name": "Cinemark Movies 8 - NOW CLOSED", "website": "https://www.cinemark.com/theatres/tx-north-richland-hills/cinemark-movies-8---now-closed", "brand": "Cinemark"}},
{"type": "Feature", "id": "bp_5PXUyoA5ZSdVERntpFt3TSn4=", "properties": {"ref": "https://www.cinemark.com/theatres/tx-odessa/century-12-odessa", "@spider": "cinemark", "addr:full": "4221 Preston Smith Rd.", "addr:city": "Odessa", "addr:state": "TX", "addr:postcode": "79762", "addr:country": "US", "name": "Century 12 Odessa", "phone": "432-552-7996", "website": "https://www.cinemark.com/theatres/tx-odessa/century-12-odessa", "brand": "Cinemark"}, "geometry": {"type": "Point", "coordinates": [-102.326498, 31.895814]}},
{"type": "Feature", "id": "aT1EQCO2DihvuHF8-TE8lP3KfCI=", "properties": {"ref": "https://www.cinemark.com/theatres/tx-mcallen/cinemark-hollywood-usa", "@spider": "cinemark", "addr:full": "100 W. Nolana Ave", "addr:city": "McAllen", "addr:state": "TX", "addr:postcode": "78504", "addr:country": "US", "name": "Cinemark Hollywood USA", "phone": "956-682-9438", "website": "https://www.cinemark.com/theatres/tx-mcallen/cinemark-hollywood-usa", "brand": "Cinemark"}, "geometry": {"type": "Point", "coordinates": [-98.216291, 26.23982]}},
{"type": "Feature", "id": "eP2J4jDcblD4XoNzWpYMsTXWqb4=", "properties": {"ref": "https://www.cinemark.com/theatres/tx-mcallen/cinemark-movies-6", "@spider": "cinemark", "addr:full": "1800 S. 16th Street", "addr:city": "McAllen", "addr:state": "TX", "addr:postcode": "78501", "addr:country": "US", "name": "Cinemark Movies 6", "phone": "956-686-0170", "website": "https://www.cinemark.com/theatres/tx-mcallen/cinemark-movies-6", "brand": "Cinemark"}, "geometry": {"type": "Point", "coordinates": [-98.239217, 26.18904]}},
{"type": "Feature", "id": "7DZabtiA789gY_szTM0Ov8nm8tw=", "properties": {"ref": "https://www.cinemark.com/theatres/tx-mansfield/cinemark-12-mansfield-and-xd", "@spider": "cinemark", "addr:full": "2041 Hwy 287 Suite 901", "addr:city": "Mansfield", "addr:state": "TX", "addr:postcode": "76063", "addr:country": "US", "name": "Cinemark 12 Mansfield and XD", "phone": "817-473-6979", "website": "https://www.cinemark.com/theatres/tx-mansfield/cinemark-12-mansfield-and-xd", "brand": "Cinemark"}, "geometry": {"type": "Point", "coordinates": [-97.148736, 32.597377]}},
{"type": "Feature", "id": "4XWjOXKqCusGgnJj15ApTl_Nez8=", "properties": {"ref": "https://www.cinemark.com/theatres/tx-mckinney/cinemark-movies-14", "@spider": "cinemark", "addr:full": "1701 S. Central Expressway", "addr:city": "McKinney", "addr:state": "TX", "addr:postcode": "75069", "addr:country": "US", "name": "Cinemark Movies 14", "phone": "972-562-0408", "website": "https://www.cinemark.com/theatres/tx-mckinney/cinemark-movies-14", "brand": "Cinemark"}, "geometry": {"type": "Point", "coordinates": [-96.638381, 33.187703]}},
{"type": "Feature", "id": "j-pnTLN2yS3v-qnSTQHS_TJDM1g=", "properties": {"ref": "https://www.cinemark.com/theatres/tx-lubbock/cinemark-movies-16-and-xd", "@spider": "cinemark", "addr:full": "5721 58th Street", "addr:city": "Lubbock", "addr:state": "TX", "addr:postcode": "79424", "addr:country": "US", "name": "Cinemark Movies 16 and XD", "phone": "806-796-2804", "website": "https://www.cinemark.com/theatres/tx-lubbock/cinemark-movies-16-and-xd", "brand": "Cinemark"}, "geometry": {"type": "Point", "coordinates": [-101.936448, 33.542065]}},
{"type": "Feature", "id": "NvaCUo2EJ6PUWWKUiyEn9uGDxiU=", "properties": {"ref": "https://www.cinemark.com/theatres/tx-paris/cinemark-movies-8", "@spider": "cinemark", "addr:full": "1225 Ne Loop 286", "addr:city": "Paris", "addr:state": "TX", "addr:postcode": "75460", "addr:country": "US", "name": "Cinemark Movies 8", "phone": "903-737-6989", "website": "https://www.cinemark.com/theatres/tx-paris/cinemark-movies-8", "brand": "Cinemark"}, "geometry": {"type": "Point", "coordinates": [-95.54202, 33.682359]}},
{"type": "Feature", "id": "jQkzhn5S7i8siCOXLSPTHf5mtVk=", "properties": {"ref": "https://www.cinemark.com/theatres/tx-lubbock/cinemark-tinseltown-lubbock-and-xd", "@spider": "cinemark", "addr:full": "2535 82nd St.", "addr:city": "Lubbock", "addr:state": "TX", "addr:postcode": "79423", "addr:country": "US", "name": "Cinemark Tinseltown Lubbock and XD", "phone": "806-748-7140", "website": "https://www.cinemark.com/theatres/tx-lubbock/cinemark-tinseltown-lubbock-and-xd", "brand": "Cinemark"}, "geometry": {"type": "Point", "coordinates": [-101.871622, 33.519744]}},
{"type": "Feature", "id": "j6dlW6xwrAVtlY5l6tEo4qG7X-E=", "properties": {"ref": "https://www.cinemark.com/theatres/tx-lufkin/cinemark-lufkin-12", "@spider": "cinemark", "addr:full": "109 Miles Way", "addr:city": "Lufkin", "addr:state": "TX", "addr:postcode": "75901", "addr:country": "US", "name": "Cinemark Lufkin 12", "phone": "936-639-9861", "website": "https://www.cinemark.com/theatres/tx-lufkin/cinemark-lufkin-12", "brand": "Cinemark"}, "geometry": {"type": "Point", "coordinates": [-94.716421, 31.313304]}},
{"type": "Feature", "id": "keBUM3-3fgSV41d4mbCjlm98UiA=", "properties": {"ref": "https://www.cinemark.com/theatres/tx-lewisville/cinemark-music-city-vista-ridge-mall-and-xd", "@spider": "cinemark", "addr:full": "Music City Mall", "addr:city": "Lewisville", "addr:state": "TX", "addr:postcode": "75067", "addr:country": "US", "name": "Cinemark Music City (Vista Ridge) Mall and XD", "phone": "972-315-6152", "website": "https://www.cinemark.com/theatres/tx-lewisville/cinemark-music-city-vista-ridge-mall-and-xd", "brand": "Cinemark"}, "geometry": {"type": "Point", "coordinates": [-96.971821, 33.006109]}},
{"type": "Feature", "id": "b51yva0s5UIEQ6YrpdKHxgE56dE=", "properties": {"ref": "https://www.cinemark.com/theatres/tx-laredo/cinemark-mall-del-norte", "@spider": "cinemark", "addr:full": "5300 San Dario, Suite 2206", "addr:city": "Laredo", "addr:state": "TX", "addr:postcode": "78041", "addr:country": "US", "name": "Cinemark Mall del Norte", "phone": "956-725-0132", "website": "https://www.cinemark.com/theatres/tx-laredo/cinemark-mall-del-norte", "brand": "Cinemark"}, "geometry": {"type": "Point", "coordinates": [-99.503044, 27.548048]}},
{"type": "Feature", "id": "A_Cr4bf4uelPtWe9iJR1KWlaG-s=", "properties": {"ref": "https://www.cinemark.com/theatres/tx-laredo/cinemark-movies-12", "@spider": "cinemark", "addr:full": "5412 San Bernardo", "addr:city": "Laredo", "addr:state": "TX", "addr:postcode": "78041", "addr:country": "US", "name": "Cinemark Movies 12", "phone": "956-791-9932", "website": "https://www.cinemark.com/theatres/tx-laredo/cinemark-movies-12", "brand": "Cinemark"}, "geometry": {"type": "Point", "coordinates": [-99.504292, 27.550855]}},
{"type": "Feature", "id": "4MdGmahjXxxbtK8OA8BB64_EoRs=", "properties": {"ref": "https://www.cinemark.com/theatres/tx-stephenville/cinemark-cinema-6-stephenville", "@spider": "cinemark", "addr:full": "2900 West Washington Street", "addr:city": "Stephenville", "addr:state": "TX", "addr:postcode": "76401", "addr:country": "US", "name": "Cinemark Cinema 6 (Stephenville)", "phone": "254-968-6080", "website": "https://www.cinemark.com/theatres/tx-stephenville/cinemark-cinema-6-stephenville", "brand": "Cinemark"}, "geometry": {"type": "Point", "coordinates": [-98.229538, 32.207817]}},
{"type": "Feature", "id": "3braa1DGda2-HB7FOvVk9oPIsu4=", "properties": {"ref": "https://www.cinemark.com/theatres/tx-mission/cinemark-tinseltown-usa-and-xd", "@spider": "cinemark", "addr:full": "2516 East Expressway 83", "addr:city": "Mission", "addr:state": "TX", "addr:postcode": "78572", "addr:country": "US", "name": "Cinemark Tinseltown USA and XD", "phone": "956-583-1961", "website": "https://www.cinemark.com/theatres/tx-mission/cinemark-tinseltown-usa-and-xd", "brand": "Cinemark"}, "geometry": {"type": "Point", "coordinates": [-98.288762, 26.195515]}},
{"type": "Feature", "id": "OOFvG6OKPKXd-mjdkek3WPlHL3s=", "properties": {"ref": "https://www.cinemark.com/theatres/tx-houston/cinemark-tinseltown-290-and-xd", "@spider": "cinemark", "addr:full": "12920 Northwest Freeway", "addr:city": "Houston", "addr:state": "TX", "addr:postcode": "77040", "addr:country": "US", "name": "Cinemark Tinseltown 290 and XD", "phone": "713-329-9402", "website": "https://www.cinemark.com/theatres/tx-houston/cinemark-tinseltown-290-and-xd", "brand": "Cinemark"}, "geometry": {"type": "Point", "coordinates": [-95.496395, 29.844232]}},
{"type": "Feature", "id": "Y1eiKDRkogv0J_3Yb_pw_c3dflI=", "properties": {"ref": "https://www.cinemark.com/theatres/tx-katy/cinemark-19-and-xd", "@spider": "cinemark", "addr:full": "1030 W. Grand Parkway N.", "addr:city": "Katy", "addr:state": "TX", "addr:postcode": "77449", "addr:country": "US", "name": "Cinemark 19 and XD", "phone": "281-371-6008", "website": "https://www.cinemark.com/theatres/tx-katy/cinemark-19-and-xd", "brand": "Cinemark"}, "geometry": {"type": "Point", "coordinates": [-95.775049, 29.80136]}},
{"type": "Feature", "id": "nsJKZHlqGk85gBinZT3Ii4DfzF8=", "properties": {"ref": "https://www.cinemark.com/theatres/tx-harlingen/cinemark-16-and-xd", "@spider": "cinemark", "addr:full": "401 S. Expressway 83", "addr:city": "Harlingen", "addr:state": "TX", "addr:postcode": "78550", "addr:country": "US", "name": "Cinemark 16 and XD", "phone": "956-428-3224", "website": "https://www.cinemark.com/theatres/tx-harlingen/cinemark-16-and-xd", "brand": "Cinemark"}, "geometry": {"type": "Point", "coordinates": [-97.716952, 26.188764]}},
{"type": "Feature", "id": "_c_Ar8xrGe1th0PazFaJhA_DBmU=", "properties": {"ref": "https://www.cinemark.com/theatres/tx-houston/cinemark-memorial-city", "@spider": "cinemark", "addr:full": "Located at Memorial City Mall", "addr:city": "Houston", "addr:state": "TX", "addr:postcode": "77024", "addr:country": "US", "name": "Cinemark Memorial City", "phone": "713-467-9749", "website": "https://www.cinemark.com/theatres/tx-houston/cinemark-memorial-city", "brand": "Cinemark"}, "geometry": {"type": "Point", "coordinates": [-95.539951, 29.778684]}},
{"type": "Feature", "id": "UypgesFBdN0fMi9alyTld0qHAwc=", "properties": {"ref": "https://www.cinemark.com/theatres/tx-hurst/north-east-mall-18-and-xd", "@spider": "cinemark", "addr:full": "1101 Melbourne Road", "addr:city": "Hurst", "addr:state": "TX", "addr:postcode": "76053", "addr:country": "US", "name": "North East Mall 18 and XD", "phone": "817-591-8540", "website": "https://www.cinemark.com/theatres/tx-hurst/north-east-mall-18-and-xd", "brand": "Cinemark"}, "geometry": {"type": "Point", "coordinates": [-97.2025333, 32.8298826]}},
{"type": "Feature", "id": "jm7zb-BK2xxd7XdJXQRULnAZZG0=", "properties": {"ref": "https://www.cinemark.com/theatres/tx-harlingen/cinemark-movies-10", "@spider": "cinemark", "addr:full": "629 North 13th Street", "addr:city": "Harlingen", "addr:state": "TX", "addr:postcode": "78550", "addr:country": "US", "name": "Cinemark Movies 10", "phone": "956-421-3253", "website": "https://www.cinemark.com/theatres/tx-harlingen/cinemark-movies-10", "brand": "Cinemark"}, "geometry": {"type": "Point", "coordinates": [-97.682502, 26.198605]}},
{"type": "Feature", "id": "qNDyeVAlQRujXsx75A1fLxRY1WQ=", "properties": {"ref": "https://www.cinemark.com/theatres/tx-harker-heights/cinemark-at-market-heights", "@spider": "cinemark", "addr:full": "201 E. Central Texas Expressway", "addr:city": "Harker Heights", "addr:state": "TX", "addr:postcode": "76548", "addr:country": "US", "name": "Cinemark at Market Heights", "phone": "254-690-4581", "website": "https://www.cinemark.com/theatres/tx-harker-heights/cinemark-at-market-heights", "brand": "Cinemark"}, "geometry": {"type": "Point", "coordinates": [-97.670215, 31.071567]}},
{"type": "Feature", "id": "dQPSrZIh0KCp782q606MDdxtM2g=", "properties": {"ref": "https://www.cinemark.com/theatres/tx-pharr/cinemark-pharr-town-center-and-xd", "@spider": "cinemark", "addr:full": "600 N Jackson Road", "addr:city": "Pharr", "addr:state": "TX", "addr:postcode": "78577", "addr:country": "US", "name": "Cinemark Pharr Town Center and XD", "phone": "956-683-1242", "website": "https://www.cinemark.com/theatres/tx-pharr/cinemark-pharr-town-center-and-xd", "brand": "Cinemark"}, "geometry": {"type": "Point", "coordinates": [-98.203204, 26.20399]}},
{"type": "Feature", "id": "qeFwWsDaa6QV-GdsBKadLyc_eN0=", "properties": {"ref": "https://www.cinemark.com/theatres/tx-jacinto-city/cinemark-tinseltown-usa-and-xd", "@spider": "cinemark", "addr:full": "11450 East Freeway", "addr:city": "Jacinto City", "addr:state": "TX", "addr:postcode": "77029", "addr:country": "US", "name": "Cinemark Tinseltown USA  and XD", "phone": "713-330-3994", "website": "https://www.cinemark.com/theatres/tx-jacinto-city/cinemark-tinseltown-usa-and-xd", "brand": "Cinemark"}, "geometry": {"type": "Point", "coordinates": [-95.22828, 29.771712]}},
{"type": "Feature", "id": "WqSXr01yrUhxUE4q2orn3ajMtLU=", "properties": {"ref": "https://www.cinemark.com/theatres/tx-lancaster/cinemark-movies-14", "@spider": "cinemark", "addr:full": "3250 West Pleasant Run Rd.", "addr:city": "Lancaster", "addr:state": "TX", "addr:postcode": "75146", "addr:country": "US", "name": "Cinemark Movies 14", "phone": "972-230-1510", "website": "https://www.cinemark.com/theatres/tx-lancaster/cinemark-movies-14", "brand": "Cinemark"}, "geometry": {"type": "Point", "coordinates": [-96.819198, 32.604096]}},
{"type": "Feature", "id": "e3Ffsq8jbd3S9u8Lpn_g1iva8PA=", "properties": {"ref": "https://www.cinemark.com/theatres/tx-frisco/cinemark-frisco-square-and-xd", "@spider": "cinemark", "addr:full": "5655 Frisco Square Blvd", "addr:city": "Frisco", "addr:state": "TX", "addr:postcode": "75034", "addr:country": "US", "name": "Cinemark Frisco Square and XD", "phone": "214-705-9901", "website": "https://www.cinemark.com/theatres/tx-frisco/cinemark-frisco-square-and-xd", "brand": "Cinemark"}, "geometry": {"type": "Point", "coordinates": [-96.83756, 33.150315]}},
{"type": "Feature", "id": "kXH4DpLqz3a8LnxdHEojfF49o8Y=", "properties": {"ref": "https://www.cinemark.com/theatres/tx-grapevine/cinemark-tinseltown-grapevine-and-xd", "@spider": "cinemark", "addr:full": "911 State Hwy 114 W", "addr:city": "Grapevine", "addr:state": "TX", "addr:postcode": "76051", "addr:country": "US", "name": "Cinemark Tinseltown Grapevine and XD", "phone": "817-481-5040", "website": "https://www.cinemark.com/theatres/tx-grapevine/cinemark-tinseltown-grapevine-and-xd", "brand": "Cinemark"}, "geometry": {"type": "Point", "coordinates": [-97.085248, 32.919737]}},
{"type": "Feature", "id": "XrPjw7Haqw3_INnvbvfkA0CDits=", "properties": {"ref": "https://www.cinemark.com/theatres/tx-el-paso/cinemark-movie-bistro-el-paso", "@spider": "cinemark", "addr:full": "750 Sunland Park Dr, Suite # T01", "addr:city": "El Paso", "addr:state": "TX", "addr:postcode": "79912", "addr:country": "US", "name": "Cinemark Movie Bistro El Paso", "website": "https://www.cinemark.com/theatres/tx-el-paso/cinemark-movie-bistro-el-paso", "brand": "Cinemark"}, "geometry": {"type": "Point", "coordinates": [-106.543919, 31.815156]}},
{"type": "Feature", "id": "M_RvaXk92ddB-JCuSG1EBdITEag=", "properties": {"ref": "https://www.cinemark.com/theatres/tx-garland/cinemark-hollywood-usa-movies-15", "@spider": "cinemark", "addr:full": "4040 South Shiloh Road", "addr:city": "Garland", "addr:state": "TX", "addr:postcode": "75041", "addr:country": "US", "name": "Cinemark Hollywood USA Movies 15", "phone": "972-840-1026", "website": "https://www.cinemark.com/theatres/tx-garland/cinemark-hollywood-usa-movies-15", "brand": "Cinemark"}, "geometry": {"type": "Point", "coordinates": [-96.665445, 32.8681]}},
{"type": "Feature", "id": "mD4seiRHbjQ0JnxMEoftZaNP1bM=", "properties": {"ref": "https://www.cinemark.com/theatres/tx-frisco/cut-by-cinemark-dine-in-theatre-kitchen-and-bar", "@spider": "cinemark", "addr:full": "6969 US Highway 380  ", "addr:city": "Frisco", "addr:state": "TX", "addr:postcode": "75033", "addr:country": "US", "name": "CUT! by Cinemark \u2014 Dine-in Theatre, Kitchen & Bar", "phone": "972-433-1035", "website": "https://www.cinemark.com/theatres/tx-frisco/cut-by-cinemark-dine-in-theatre-kitchen-and-bar", "brand": "Cinemark"}, "geometry": {"type": "Point", "coordinates": [-96.8244595, 33.2170444]}},
{"type": "Feature", "id": "vlipN1WFcNRwU4UfMCJSGwd-ytA=", "properties": {"ref": "https://www.cinemark.com/theatres/tx-fort-worth/cinemark-alliance-town-center-and-xd", "@spider": "cinemark", "addr:full": "9228 Sage Meadow Trail", "addr:city": "Fort Worth", "addr:state": "TX", "addr:postcode": "76177", "addr:country": "US", "name": "Cinemark Alliance Town Center and XD", "phone": "817-750-0560", "website": "https://www.cinemark.com/theatres/tx-fort-worth/cinemark-alliance-town-center-and-xd", "brand": "Cinemark"}, "geometry": {"type": "Point", "coordinates": [-97.314447, 32.909358]}},
{"type": "Feature", "id": "yhqDfriZ5Ocgj4AijTVPz8SFmeo=", "properties": {"ref": "https://www.cinemark.com/theatres/tx-el-paso/cinemark-20-and-xd", "@spider": "cinemark", "addr:full": "11855 Gateway West", "addr:city": "El Paso", "addr:state": "TX", "addr:postcode": "79936", "addr:country": "US", "name": "Cinemark 20 and XD", "phone": "915-590-4676", "website": "https://www.cinemark.com/theatres/tx-el-paso/cinemark-20-and-xd", "brand": "Cinemark"}, "geometry": {"type": "Point", "coordinates": [-106.307535, 31.72732]}},
{"type": "Feature", "id": "5c88cf1f3tvZuSyMuP3ysDp_uew=", "properties": {"ref": "https://www.cinemark.com/theatres/tx-fort-worth/ridgmar-13-and-xd", "@spider": "cinemark", "addr:full": "2300 Green Oaks Road", "addr:city": "Fort Worth", "addr:state": "TX", "addr:postcode": "76116", "addr:country": "US", "name": "Ridgmar 13 and XD", "phone": "817-566-0025", "website": "https://www.cinemark.com/theatres/tx-fort-worth/ridgmar-13-and-xd", "brand": "Cinemark"}, "geometry": {"type": "Point", "coordinates": [-97.437583, 32.739115]}},
{"type": "Feature", "id": "psqK0UFRhXg01DKfe8brasTpbWo=", "properties": {"ref": "https://www.cinemark.com/theatres/tx-eagle-pass/cinemark-mall-de-las-aguilas", "@spider": "cinemark", "addr:full": "Located at the Mall de Las Aguilas", "addr:city": "Eagle Pass", "addr:state": "TX", "addr:postcode": "78852", "addr:country": "US", "name": "Cinemark Mall de Las Aguilas", "phone": "830-758-0643", "website": "https://www.cinemark.com/theatres/tx-eagle-pass/cinemark-mall-de-las-aguilas", "brand": "Cinemark"}, "geometry": {"type": "Point", "coordinates": [-100.483223, 28.702068]}},
{"type": "Feature", "id": "Ko4g9VVoo9E_PtRAH39pzrOwF9I=", "properties": {"ref": "https://www.cinemark.com/theatres/tx-denton/cinemark-14", "@spider": "cinemark", "addr:full": "2825 Wind River", "addr:city": "Denton", "addr:state": "TX", "addr:postcode": "76210", "addr:country": "US", "name": "Cinemark 14", "phone": "940-535-2654", "website": "https://www.cinemark.com/theatres/tx-denton/cinemark-14", "brand": "Cinemark"}, "geometry": {"type": "Point", "coordinates": [-97.098863, 33.17612]}},
{"type": "Feature", "id": "0pSQRqwxBmTuLGzaRwzJuzeUvMQ=", "properties": {"ref": "https://www.cinemark.com/theatres/tx-el-paso/cinemark-west-and-xd", "@spider": "cinemark", "addr:full": "7440 Remcon Circle", "addr:city": "El Paso", "addr:state": "TX", "addr:postcode": "79912", "addr:country": "US", "name": "Cinemark West and XD", "phone": "915-587-5145", "website": "https://www.cinemark.com/theatres/tx-el-paso/cinemark-west-and-xd", "brand": "Cinemark"}, "geometry": {"type": "Point", "coordinates": [-106.563778, 31.834346]}},
{"type": "Feature", "id": "RU8QyHZTA0sxt_EkIMWGggBiLIU=", "properties": {"ref": "https://www.cinemark.com/theatres/tx-lewisville/cinemark-movies-8", "@spider": "cinemark", "addr:full": "420 Oakbend Dr.", "addr:city": "Lewisville", "addr:state": "TX", "addr:postcode": "75067", "addr:country": "US", "name": "Cinemark Movies 8", "phone": "972-316-0595", "website": "https://www.cinemark.com/theatres/tx-lewisville/cinemark-movies-8", "brand": "Cinemark"}, "geometry": {"type": "Point", "coordinates": [-96.979839, 33.009234]}},
{"type": "Feature", "id": "yuiQWd1wznwrINHgOR65ITMgyfM=", "properties": {"ref": "https://www.cinemark.com/theatres/tx-el-paso/cinemark-east-montana-and-xd", "@spider": "cinemark", "addr:full": "12704 East Montana", "addr:city": "El Paso", "addr:state": "TX", "addr:postcode": "79938", "addr:country": "US", "name": "Cinemark East Montana and XD", "phone": "915-849-1661", "website": "https://www.cinemark.com/theatres/tx-el-paso/cinemark-east-montana-and-xd", "brand": "Cinemark"}, "geometry": {"type": "Point", "coordinates": [-106.246934, 31.809111]}},
{"type": "Feature", "id": "b24oTCKV-vTjNOzWvgZxGY1O_Ik=", "properties": {"ref": "https://www.cinemark.com/theatres/tx-cypress/cut-by-cinemark-cypress-dine-in-theatre-kitchen-and-bar", "@spider": "cinemark", "addr:full": "29030 Northwest Freeway", "addr:city": "Cypress", "addr:state": "TX", "addr:postcode": "77433", "addr:country": "US", "name": "CUT! by Cinemark Cypress \u2014 Dine-in Theatre, Kitchen & Bar", "phone": "281-256-8744", "website": "https://www.cinemark.com/theatres/tx-cypress/cut-by-cinemark-cypress-dine-in-theatre-kitchen-and-bar", "brand": "Cinemark"}, "geometry": {"type": "Point", "coordinates": [-95.75186438863138, 29.995208887585918]}},
{"type": "Feature", "id": "MwKHQNN2RqMG91AZv_4W3md9Ue4=", "properties": {"ref": "https://www.cinemark.com/theatres/tx-corpus-christi/century-16-xd-and-imax", "@spider": "cinemark", "addr:full": "6685 South Padre Island", "addr:city": "Corpus Christi", "addr:state": "TX", "addr:postcode": "78412", "addr:country": "US", "name": "Century 16 XD and IMAX", "phone": "361-985-2227", "website": "https://www.cinemark.com/theatres/tx-corpus-christi/century-16-xd-and-imax", "brand": "Cinemark"}, "geometry": {"type": "Point", "coordinates": [-97.350975, 27.697721]}},
{"type": "Feature", "id": "TtRNUZ7hyW3HNEjBRQ1cgxm-Tjw=", "properties": {"ref": "https://www.cinemark.com/theatres/tx-corpus-christi/cinemark-dollar-cinemas---now-closed", "@spider": "cinemark", "addr:full": "5858 S.P.I.D.", "addr:city": "Corpus Christi", "addr:state": "TX", "addr:postcode": "78412", "addr:country": "US", "name": "Cinemark Dollar Cinemas - Now Closed", "website": "https://www.cinemark.com/theatres/tx-corpus-christi/cinemark-dollar-cinemas---now-closed", "brand": "Cinemark"}},
{"type": "Feature", "id": "LyXm5hqgTUi9dydwD5OfLRffJ_E=", "properties": {"ref": "https://www.cinemark.com/theatres/tx-cypress/cinemark-12-cypress-and-xd", "@spider": "cinemark", "addr:full": "25720 Northwest Frwy", "addr:city": "Cypress", "addr:state": "TX", "addr:postcode": "77429", "addr:country": "US", "name": "Cinemark 12 Cypress and XD", "phone": "281-256-7652", "website": "https://www.cinemark.com/theatres/tx-cypress/cinemark-12-cypress-and-xd", "brand": "Cinemark"}, "geometry": {"type": "Point", "coordinates": [-95.691367, 29.969365]}},
{"type": "Feature", "id": "stZ7iaUODOHeO01LTF_CcmzBNbI=", "properties": {"ref": "https://www.cinemark.com/theatres/tx-college-station/cinemark-movies-18-and-xd", "@spider": "cinemark", "addr:full": "1401 Earl Rudder Frwy South", "addr:city": "College Station", "addr:state": "TX", "addr:postcode": "77845", "addr:country": "US", "name": "Cinemark Movies 18 and XD", "phone": "979-764-9692", "website": "https://www.cinemark.com/theatres/tx-college-station/cinemark-movies-18-and-xd", "brand": "Cinemark"}, "geometry": {"type": "Point", "coordinates": [-96.303458, 30.63313]}},
{"type": "Feature", "id": "yW5b2-TxfxEfhFmUUmGPCQdc-Mg=", "properties": {"ref": "https://www.cinemark.com/theatres/tx-edinburg/cinemark-movie-bistro---edinburg", "@spider": "cinemark", "addr:full": "2001 W Trenton, Suite 116", "addr:city": "Edinburg", "addr:state": "TX", "addr:postcode": "78539", "addr:country": "US", "name": "Cinemark Movie Bistro - Edinburg", "phone": "956-631-3990", "website": "https://www.cinemark.com/theatres/tx-edinburg/cinemark-movie-bistro---edinburg", "brand": "Cinemark"}, "geometry": {"type": "Point", "coordinates": [-98.190565, 26.264209]}},
{"type": "Feature", "id": "XGoggBURXZY1kCQzKdQ4oTM9iro=", "properties": {"ref": "https://www.cinemark.com/theatres/tx-cedar-park/cinemark-cedar-park", "@spider": "cinemark", "addr:full": "1335 E. Whitestone Blvd", "addr:city": "Cedar Park", "addr:state": "TX", "addr:postcode": "78613", "addr:country": "US", "name": "Cinemark Cedar Park", "phone": "512-259-6741", "website": "https://www.cinemark.com/theatres/tx-cedar-park/cinemark-cedar-park", "brand": "Cinemark"}, "geometry": {"type": "Point", "coordinates": [-97.813445, 30.526171]}},
{"type": "Feature", "id": "80CktT5Op-JyAU01v_M3_A5C640=", "properties": {"ref": "https://www.cinemark.com/theatres/tx-brownsville/cinemark-sunrise-mall-and-xd", "@spider": "cinemark", "addr:full": "2370 HWY 77/83 North", "addr:city": "Brownsville", "addr:state": "TX", "addr:postcode": "78521", "addr:country": "US", "name": "Cinemark Sunrise Mall and XD", "phone": "956-547-9213", "website": "https://www.cinemark.com/theatres/tx-brownsville/cinemark-sunrise-mall-and-xd", "brand": "Cinemark"}, "geometry": {"type": "Point", "coordinates": [-97.504772, 25.95141]}},
{"type": "Feature", "id": "TSnLN-uKXMgLsBW1SdhqA8SbaCE=", "properties": {"ref": "https://www.cinemark.com/theatres/tx-grand-prairie/cinemark-movies-16", "@spider": "cinemark", "addr:full": "220 W. Westchester", "addr:city": "Grand Prairie", "addr:state": "TX", "addr:postcode": "75052", "addr:country": "US", "name": "Cinemark Movies 16", "phone": "972-263-0104", "website": "https://www.cinemark.com/theatres/tx-grand-prairie/cinemark-movies-16", "brand": "Cinemark"}, "geometry": {"type": "Point", "coordinates": [-97.012517, 32.673916]}},
{"type": "Feature", "id": "MDoQcCU7SSUH76-26FZmxqtAFi8=", "properties": {"ref": "https://www.cinemark.com/theatres/tx-el-paso/cinemark-cielo-vista-mall-14-and-xd", "@spider": "cinemark", "addr:full": "8401 Gateway West", "addr:city": "El Paso", "addr:state": "TX", "addr:postcode": "79925", "addr:country": "US", "name": "Cinemark Cielo Vista Mall 14 and XD", "phone": "915-771-0072", "website": "https://www.cinemark.com/theatres/tx-el-paso/cinemark-cielo-vista-mall-14-and-xd", "brand": "Cinemark"}, "geometry": {"type": "Point", "coordinates": [-106.372006, 31.780881]}},
{"type": "Feature", "id": "Cr64-nVdnMA0GkQFoDSIp7bHD5k=", "properties": {"ref": "https://www.cinemark.com/theatres/tx-brownsville/cinemark-movies-10", "@spider": "cinemark", "addr:full": "3471 Old Hwy 77", "addr:city": "Brownsville", "addr:state": "TX", "addr:postcode": "78520", "addr:country": "US", "name": "Cinemark Movies 10", "phone": "956-544-7428", "website": "https://www.cinemark.com/theatres/tx-brownsville/cinemark-movies-10", "brand": "Cinemark"}, "geometry": {"type": "Point", "coordinates": [-97.506965, 25.951086]}},
{"type": "Feature", "id": "t2ujl_ofwDa_Q56curU82HQoW-A=", "properties": {"ref": "https://www.cinemark.com/theatres/tx-dallas/cinemark-17-and-imax", "@spider": "cinemark", "addr:full": "11819 Webb Chapel", "addr:city": "Dallas", "addr:state": "TX", "addr:postcode": "75234", "addr:country": "US", "name": "Cinemark 17 and IMAX", "phone": "972-247-8172", "website": "https://www.cinemark.com/theatres/tx-dallas/cinemark-17-and-imax", "brand": "Cinemark"}, "geometry": {"type": "Point", "coordinates": [-96.872411, 32.909946]}},
{"type": "Feature", "id": "kXuMtch2mY9we1r-0tRBEGRAI3I=", "properties": {"ref": "https://www.cinemark.com/theatres/tx-cleburne/cinemark-cinema-6-cleburne", "@spider": "cinemark", "addr:full": "1643 W. Henderson St.", "addr:city": "Cleburne", "addr:state": "TX", "addr:postcode": "76031", "addr:country": "US", "name": "Cinemark Cinema 6 (Cleburne)", "phone": "817-556-2901", "website": "https://www.cinemark.com/theatres/tx-cleburne/cinemark-cinema-6-cleburne", "brand": "Cinemark"}, "geometry": {"type": "Point", "coordinates": [-97.411664, 32.339072]}},
{"type": "Feature", "id": "nM01kA2BZ9-7kLTPSGj1ElojLQs=", "properties": {"ref": "https://www.cinemark.com/theatres/tx-big-spring/cinemark-cinema-4", "@spider": "cinemark", "addr:full": "1801 East FM 700", "addr:city": "Big Spring", "addr:state": "TX", "addr:postcode": "79720", "addr:country": "US", "name": "Cinemark Cinema 4", "phone": "432-263-2252", "website": "https://www.cinemark.com/theatres/tx-big-spring/cinemark-cinema-4", "brand": "Cinemark"}, "geometry": {"type": "Point", "coordinates": [-101.4358, 32.250753]}},
{"type": "Feature", "id": "orlnKXkfpsHhCoxdHqYfiTeIG44=", "properties": {"ref": "https://www.cinemark.com/theatres/tx-del-rio/cinemark-movies-8", "@spider": "cinemark", "addr:full": "2205 Veterans Blvd.", "addr:city": "Del Rio", "addr:state": "TX", "addr:postcode": "78840", "addr:country": "US", "name": "Cinemark Movies 8", "phone": "830-775-8120", "website": "https://www.cinemark.com/theatres/tx-del-rio/cinemark-movies-8", "brand": "Cinemark"}, "geometry": {"type": "Point", "coordinates": [-100.908904, 29.44783]}},
{"type": "Feature", "id": "8fa7X_Ol5jlxHqKJHqwYGfA7Xig=", "properties": {"ref": "https://www.cinemark.com/theatres/tx-arlington/cinemark-tinseltown-9---now-closed", "@spider": "cinemark", "addr:full": "Six Flags Mall", "addr:city": "Arlington", "addr:state": "TX", "addr:postcode": "76011", "addr:country": "US", "name": "Cinemark Tinseltown 9 - Now Closed", "website": "https://www.cinemark.com/theatres/tx-arlington/cinemark-tinseltown-9---now-closed", "brand": "Cinemark"}},
{"type": "Feature", "id": "n6Z-wMfjZYQcP0Bn-iGfna-wdOU=", "properties": {"ref": "https://www.cinemark.com/theatres/tx-austin/cinemark-southpark-meadows", "@spider": "cinemark", "addr:full": "9900 S. IH-35 Service Road SB", "addr:city": "Austin", "addr:state": "TX", "addr:postcode": "78748", "addr:country": "US", "name": "Cinemark Southpark Meadows", "phone": "512-291-0171", "website": "https://www.cinemark.com/theatres/tx-austin/cinemark-southpark-meadows", "brand": "Cinemark"}, "geometry": {"type": "Point", "coordinates": [-97.79053, 30.158495]}},
{"type": "Feature", "id": "Jys_5b7NKpEiRK-CUHedWNluiMI=", "properties": {"ref": "https://www.cinemark.com/theatres/tx-cedar-hill/cinemark-14", "@spider": "cinemark", "addr:full": "280 Uptown Blvd", "addr:city": "Cedar Hill", "addr:state": "TX", "addr:postcode": "75104", "addr:country": "US", "name": "Cinemark 14", "phone": "972-291-5069", "website": "https://www.cinemark.com/theatres/tx-cedar-hill/cinemark-14", "brand": "Cinemark"}, "geometry": {"type": "Point", "coordinates": [-96.950247, 32.592039]}},
{"type": "Feature", "id": "U9ryjUoHMVzJYma4oSXIqt8lq6Q=", "properties": {"ref": "https://www.cinemark.com/theatres/tx-amarillo/cinemark-hollywood-16-and-xd", "@spider": "cinemark", "addr:full": "9100 Canyon Drive", "addr:city": "Amarillo", "addr:state": "TX", "addr:postcode": "79119", "addr:country": "US", "name": "Cinemark Hollywood 16 and XD", "phone": "806-352-7411", "website": "https://www.cinemark.com/theatres/tx-amarillo/cinemark-hollywood-16-and-xd", "brand": "Cinemark"}, "geometry": {"type": "Point", "coordinates": [-101.910702, 35.115117]}},
{"type": "Feature", "id": "Yqt4o6rJYnXsicHSsJ0uBmo-YgE=", "properties": {"ref": "https://www.cinemark.com/theatres/tx-abilene/cinemark-abilene-and-xd", "@spider": "cinemark", "addr:full": "672 East Overland Trail", "addr:city": "Abilene", "addr:state": "TX", "addr:postcode": "79601", "addr:country": "US", "name": "Cinemark Abilene and XD", "phone": "(325) 670-0097", "website": "https://www.cinemark.com/theatres/tx-abilene/cinemark-abilene-and-xd", "brand": "Cinemark"}, "geometry": {"type": "Point", "coordinates": [-99.72633, 32.491009]}},
{"type": "Feature", "id": "-QUQd9zf5lkwuNO47bNCOLTyR5w=", "properties": {"ref": "https://www.cinemark.com/theatres/tx-bee-cave/cinemark-hill-country-galleria", "@spider": "cinemark", "addr:full": "12812 Hill Country Blvd.", "addr:city": "Bee Cave", "addr:state": "TX", "addr:postcode": "78738", "addr:country": "US", "name": "Cinemark Hill Country Galleria", "phone": "512-263-0862", "website": "https://www.cinemark.com/theatres/tx-bee-cave/cinemark-hill-country-galleria", "brand": "Cinemark"}, "geometry": {"type": "Point", "coordinates": [-97.940457, 30.309169]}},
{"type": "Feature", "id": "v2IZW0xHL-r-k88zHzr0Mr8G_jI=", "properties": {"ref": "https://www.cinemark.com/theatres/sc-summerville/cinemark-movies-8", "@spider": "cinemark", "addr:full": "4488 Ladson Road", "addr:city": "Summerville", "addr:state": "SC", "addr:postcode": "29485", "addr:country": "US", "name": "Cinemark Movies 8", "phone": "843-873-1501", "website": "https://www.cinemark.com/theatres/sc-summerville/cinemark-movies-8", "brand": "Cinemark"}, "geometry": {"type": "Point", "coordinates": [-80.160836, 32.955046]}},
{"type": "Feature", "id": "g90c2GG0ptmrviSfVuniT-q6VXo=", "properties": {"ref": "https://www.cinemark.com/theatres/tn-oak-ridge/cinemark-tinseltown-usa", "@spider": "cinemark", "addr:full": "755 W. Main Street", "addr:city": "Oak Ridge", "addr:state": "TN", "addr:postcode": "37830", "addr:country": "US", "name": "Cinemark Tinseltown USA", "phone": "865-220-8898", "website": "https://www.cinemark.com/theatres/tn-oak-ridge/cinemark-tinseltown-usa", "brand": "Cinemark"}, "geometry": {"type": "Point", "coordinates": [-84.255578, 36.012108]}},
{"type": "Feature", "id": "p1Qz-6bWykYAWAinO1bYSSNxzMg=", "properties": {"ref": "https://www.cinemark.com/theatres/tx-beaumont/cinemark-beaumont-15-and-xd", "@spider": "cinemark", "addr:full": "3855 Interstate 10 South", "addr:city": "Beaumont", "addr:state": "TX", "addr:postcode": "77705", "addr:country": "US", "name": "Cinemark Beaumont 15 and XD", "phone": "409-840-4432", "website": "https://www.cinemark.com/theatres/tx-beaumont/cinemark-beaumont-15-and-xd", "brand": "Cinemark"}, "geometry": {"type": "Point", "coordinates": [-94.152051, 30.042429]}},
{"type": "Feature", "id": "kZESldqWWwPUqHkwTbY-naRIqQ0=", "properties": {"ref": "https://www.cinemark.com/theatres/tx-allen/cinemark-allen-16-and-xd", "@spider": "cinemark", "addr:full": "921 SH 121", "addr:city": "Allen", "addr:state": "TX", "addr:postcode": "75013", "addr:country": "US", "name": "Cinemark Allen 16 and XD", "phone": "214-383-9712", "website": "https://www.cinemark.com/theatres/tx-allen/cinemark-allen-16-and-xd", "brand": "Cinemark"}, "geometry": {"type": "Point", "coordinates": [-96.676126, 33.145171]}},
{"type": "Feature", "id": "aFktTgn34LSaOwg7I9J6iO29a-Y=", "properties": {"ref": "https://www.cinemark.com/theatres/tx-athens/cinemark-cinema-4", "@spider": "cinemark", "addr:full": "218 Wood St.", "addr:city": "Athens", "addr:state": "TX", "addr:postcode": "75751", "addr:country": "US", "name": "Cinemark Cinema 4", "phone": "903-677-2003", "website": "https://www.cinemark.com/theatres/tx-athens/cinemark-cinema-4", "brand": "Cinemark"}, "geometry": {"type": "Point", "coordinates": [-95.837227, 32.207328]}},
{"type": "Feature", "id": "GPGtbZEwJD6ZkQsZdFZd27PEQEk=", "properties": {"ref": "https://www.cinemark.com/theatres/sc-bluffton/cinemark-bluffton", "@spider": "cinemark", "addr:full": "106 Buckwalter Parkway", "addr:city": "Bluffton", "addr:state": "SC", "addr:postcode": "29910", "addr:country": "US", "name": "Cinemark Bluffton", "phone": "843-757-2859", "website": "https://www.cinemark.com/theatres/sc-bluffton/cinemark-bluffton", "brand": "Cinemark"}, "geometry": {"type": "Point", "coordinates": [-80.911034, 32.283496]}},
{"type": "Feature", "id": "980zEufpCyIz8E-OLnLBiqvJ7ck=", "properties": {"ref": "https://www.cinemark.com/theatres/pa-robinson-township/cinemark-robinson-township-and-xd", "@spider": "cinemark", "addr:full": "2100 Settlers Ridge Center Dr.", "addr:city": "Robinson Township", "addr:state": "PA", "addr:postcode": "15205", "addr:country": "US", "name": "Cinemark Robinson Township and XD", "phone": "412-787-1368", "website": "https://www.cinemark.com/theatres/pa-robinson-township/cinemark-robinson-township-and-xd", "brand": "Cinemark"}, "geometry": {"type": "Point", "coordinates": [-80.147243, 40.439292]}},
{"type": "Feature", "id": "MonpS5mHVcRPApLDsHB4EXydIJw=", "properties": {"ref": "https://www.cinemark.com/theatres/tx-abilene/century-12-abilene", "@spider": "cinemark", "addr:full": "3818 John Knox Drive", "addr:city": "Abilene", "addr:state": "TX", "addr:postcode": "79606", "addr:country": "US", "name": "Century 12 Abilene", "phone": "325-793-9292", "website": "https://www.cinemark.com/theatres/tx-abilene/century-12-abilene", "brand": "Cinemark"}, "geometry": {"type": "Point", "coordinates": [-99.768473, 32.404462]}},
{"type": "Feature", "id": "bwWJpUSC1sTerx6R4zagJH_yX98=", "properties": {"ref": "https://www.cinemark.com/theatres/pa-pittsburgh/cinemark-north-hills-and-xd", "@spider": "cinemark", "addr:full": "851 Providence Boulevard", "addr:city": "Pittsburgh", "addr:state": "PA", "addr:postcode": "15237", "addr:country": "US", "name": "Cinemark North Hills and XD", "phone": "412-364-1095", "website": "https://www.cinemark.com/theatres/pa-pittsburgh/cinemark-north-hills-and-xd", "brand": "Cinemark"}, "geometry": {"type": "Point", "coordinates": [-80.0196746, 40.5705043]}},
{"type": "Feature", "id": "dJgOCyhfWcf3SvnXFrPrLh3gD3Q=", "properties": {"ref": "https://www.cinemark.com/theatres/pa-philadelphia/cinemark-university-city-penn-6", "@spider": "cinemark", "addr:full": "4012 Walnut Street", "addr:city": "Philadelphia", "addr:state": "PA", "addr:postcode": "19104", "addr:country": "US", "name": "Cinemark University City Penn 6", "phone": "215-386-9800", "website": "https://www.cinemark.com/theatres/pa-philadelphia/cinemark-university-city-penn-6", "brand": "Cinemark"}, "geometry": {"type": "Point", "coordinates": [-75.20302, 39.953993]}},
{"type": "Feature", "id": "-_7p1UFVLpPpOc32R-afIUe3CqA=", "properties": {"ref": "https://www.cinemark.com/theatres/pa-monroeville/cinemark-monroeville-mall-and-xd", "@spider": "cinemark", "addr:full": "600 Monroeville Mall", "addr:city": "Monroeville", "addr:state": "PA", "addr:postcode": "15146", "addr:country": "US", "name": "Cinemark Monroeville Mall and XD", "phone": "412-373-1794", "website": "https://www.cinemark.com/theatres/pa-monroeville/cinemark-monroeville-mall-and-xd", "brand": "Cinemark"}, "geometry": {"type": "Point", "coordinates": [-79.795735, 40.4282641]}},
{"type": "Feature", "id": "CT41hHXhWrmwkOy_ate18WQIjyk=", "properties": {"ref": "https://www.cinemark.com/theatres/pa-moosic/cinemark-20-and-xd", "@spider": "cinemark", "addr:full": "40 Glenmaura National Blvd.", "addr:city": "Moosic", "addr:state": "PA", "addr:postcode": "18507", "addr:country": "US", "name": "Cinemark 20 and XD", "phone": "570-961-5943", "website": "https://www.cinemark.com/theatres/pa-moosic/cinemark-20-and-xd", "brand": "Cinemark"}, "geometry": {"type": "Point", "coordinates": [-75.677866, 41.361126]}},
{"type": "Feature", "id": "Xbns7BtFS684q_vgphSMPrI_Jh8=", "properties": {"ref": "https://www.cinemark.com/theatres/sd-sioux-falls/century-stadium-14-and-xd", "@spider": "cinemark", "addr:full": "2400 South Carolyn", "addr:city": "Sioux Falls", "addr:state": "SD", "addr:postcode": "57106", "addr:country": "US", "name": "Century Stadium 14 and XD", "phone": "605-362-5068", "website": "https://www.cinemark.com/theatres/sd-sioux-falls/century-stadium-14-and-xd", "brand": "Cinemark"}, "geometry": {"type": "Point", "coordinates": [-96.778076, 43.525087]}},
{"type": "Feature", "id": "3_52EPeV4_wZOOqgmsBtamgOF_s=", "properties": {"ref": "https://www.cinemark.com/theatres/sc-myrtle-beach/cinemark-at-myrtle-beach", "@spider": "cinemark", "addr:full": "2100 Coastal Grand Circle", "addr:city": "Myrtle Beach", "addr:state": "SC", "addr:postcode": "29577", "addr:country": "US", "name": "Cinemark at Myrtle Beach", "phone": "843-839-3225", "website": "https://www.cinemark.com/theatres/sc-myrtle-beach/cinemark-at-myrtle-beach", "brand": "Cinemark"}, "geometry": {"type": "Point", "coordinates": [-78.927418, 33.700962]}},
{"type": "Feature", "id": "nFL1_lw3z5_WaxSHSpuNj-K-HqA=", "properties": {"ref": "https://www.cinemark.com/theatres/or-springfield/cinemark-17", "@spider": "cinemark", "addr:full": "2900 Gateway", "addr:city": "Springfield", "addr:state": "OR", "addr:postcode": "97477", "addr:country": "US", "name": "Cinemark 17", "phone": "541-746-5531", "website": "https://www.cinemark.com/theatres/or-springfield/cinemark-17", "brand": "Cinemark"}, "geometry": {"type": "Point", "coordinates": [-123.042502, 44.073797]}},
{"type": "Feature", "id": "JCi-C6ZErUbS4717kHRxHKx6YZY=", "properties": {"ref": "https://www.cinemark.com/theatres/or-white-city/cinemark-movies-6", "@spider": "cinemark", "addr:full": "7501 Crater Lake Hwy", "addr:city": "White City", "addr:state": "OR", "addr:postcode": "97503", "addr:country": "US", "name": "Cinemark Movies 6", "website": "https://www.cinemark.com/theatres/or-white-city/cinemark-movies-6", "brand": "Cinemark"}, "geometry": {"type": "Point", "coordinates": [-122.850397, 42.425713]}},
{"type": "Feature", "id": "ZINfur6EnOnprmKK9MEBV0T8-Z0=", "properties": {"ref": "https://www.cinemark.com/theatres/sd-sioux-falls/century-east-at-dawley-farm", "@spider": "cinemark", "addr:full": "1101 S Highline Place", "addr:city": "Sioux Falls", "addr:state": "SD", "addr:postcode": "57110", "addr:country": "US", "name": "Century East At Dawley Farm", "phone": "605-334-2468", "website": "https://www.cinemark.com/theatres/sd-sioux-falls/century-east-at-dawley-farm", "brand": "Cinemark"}, "geometry": {"type": "Point", "coordinates": [-96.654639, 43.5378]}},
{"type": "Feature", "id": "QpCYb_GvZ7zKzg0b3becudqsjUY=", "properties": {"ref": "https://www.cinemark.com/theatres/or-happy-valley/century-clackamas-town-center-and-xd", "@spider": "cinemark", "addr:full": "12000 SE 82nd Ave.", "addr:city": "Happy Valley", "addr:state": "OR", "addr:postcode": "97086", "addr:country": "US", "name": "Century Clackamas Town Center and XD", "phone": "503-654-1498", "website": "https://www.cinemark.com/theatres/or-happy-valley/century-clackamas-town-center-and-xd", "brand": "Cinemark"}, "geometry": {"type": "Point", "coordinates": [-122.576092, 45.436607]}},
{"type": "Feature", "id": "Ol32nLF9PpwOWkPhpBY7jwt3CLc=", "properties": {"ref": "https://www.cinemark.com/theatres/or-beaverton/century-16-cedar-hills", "@spider": "cinemark", "addr:full": "3200 SW Hocken Ave.", "addr:city": "Beaverton", "addr:state": "OR", "addr:postcode": "97005", "addr:country": "US", "name": "Century 16 Cedar Hills", "phone": "503-520-0892", "website": "https://www.cinemark.com/theatres/or-beaverton/century-16-cedar-hills", "brand": "Cinemark"}, "geometry": {"type": "Point", "coordinates": [-122.81254, 45.496821]}},
{"type": "Feature", "id": "-Lh0V2P70c7jv9iTBsf8dl0eJDs=", "properties": {"ref": "https://www.cinemark.com/theatres/ok-sand-springs/cinemark-cinema-8---now-closed", "@spider": "cinemark", "addr:full": "1112 E. Charles Page Blvd", "addr:city": "Sand Springs", "addr:state": "OK", "addr:postcode": "74063", "addr:country": "US", "name": "Cinemark Cinema 8 - Now Closed", "phone": "918-245-3423", "website": "https://www.cinemark.com/theatres/ok-sand-springs/cinemark-cinema-8---now-closed", "brand": "Cinemark"}, "geometry": {"type": "Point", "coordinates": [-96.091516, 36.139624]}},
{"type": "Feature", "id": "B-lTeNY4lAqkl0EOmhV-rkhJuRM=", "properties": {"ref": "https://www.cinemark.com/theatres/pa-stroudsburg/cinemark-stroud-mall-and-xd", "@spider": "cinemark", "addr:full": "160 Stroud Mall", "addr:city": "Stroudsburg", "addr:state": "PA", "addr:postcode": "18360", "addr:country": "US", "name": "Cinemark Stroud Mall and XD", "phone": "570-421-1284", "website": "https://www.cinemark.com/theatres/pa-stroudsburg/cinemark-stroud-mall-and-xd", "brand": "Cinemark"}, "geometry": {"type": "Point", "coordinates": [-75.22433, 40.98789]}},
{"type": "Feature", "id": "vvw-zS9TO5_EHDQ7-wwKlzgWRhU=", "properties": {"ref": "https://www.cinemark.com/theatres/or-portland/century-16-eastport-plaza", "@spider": "cinemark", "addr:full": "4040 SE 82nd Ave.", "addr:city": "Portland", "addr:state": "OR", "addr:postcode": "97266", "addr:country": "US", "name": "Century 16 Eastport Plaza", "phone": "503-772-1111", "website": "https://www.cinemark.com/theatres/or-portland/century-16-eastport-plaza", "brand": "Cinemark"}, "geometry": {"type": "Point", "coordinates": [-122.578654, 45.493135]}},
{"type": "Feature", "id": "G0bA-R1TeKDtMmIbu_2J7Wnwqg0=", "properties": {"ref": "https://www.cinemark.com/theatres/ok-broken-arrow/cinemark-broken-arrow", "@spider": "cinemark", "addr:full": "1801 E. Hillside Drive", "addr:city": "Broken Arrow", "addr:state": "OK", "addr:postcode": "74012", "addr:country": "US", "name": "Cinemark Broken Arrow", "phone": "918-355-0427", "website": "https://www.cinemark.com/theatres/ok-broken-arrow/cinemark-broken-arrow", "brand": "Cinemark"}, "geometry": {"type": "Point", "coordinates": [-95.772503, 36.064714]}},
{"type": "Feature", "id": "7Qs7ZQEM6IqLfrCSAb0LYK8xsIU=", "properties": {"ref": "https://www.cinemark.com/theatres/ok-ada/cinemark-ada", "@spider": "cinemark", "addr:full": "1090 North Hills Center", "addr:city": "Ada", "addr:state": "OK", "addr:postcode": "74820", "addr:country": "US", "name": "Cinemark Ada", "phone": "580-421-9905", "website": "https://www.cinemark.com/theatres/ok-ada/cinemark-ada", "brand": "Cinemark"}, "geometry": {"type": "Point", "coordinates": [-96.665752, 34.790792]}},
{"type": "Feature", "id": "h0pluzn_LIBPTZF7bvybgHwxOQc=", "properties": {"ref": "https://www.cinemark.com/theatres/oh-zanesville/cinemark-colony-square-mall", "@spider": "cinemark", "addr:full": "Colony Square Mall", "addr:city": "Zanesville", "addr:state": "OH", "addr:postcode": "43701", "addr:country": "US", "name": "Cinemark Colony Square Mall", "phone": "740-452-8683", "website": "https://www.cinemark.com/theatres/oh-zanesville/cinemark-colony-square-mall", "brand": "Cinemark"}, "geometry": {"type": "Point", "coordinates": [-82.009399, 39.94862]}},
{"type": "Feature", "id": "j8UBIfTi__wIQBu75YIcjipN7OM=", "properties": {"ref": "https://www.cinemark.com/theatres/ok-tulsa/cinemark-tulsa-and-imax", "@spider": "cinemark", "addr:full": "10802 E 71st St", "addr:city": "Tulsa", "addr:state": "OK", "addr:postcode": "74133", "addr:country": "US", "name": "Cinemark Tulsa and IMAX", "phone": "918-250-1956", "website": "https://www.cinemark.com/theatres/ok-tulsa/cinemark-tulsa-and-imax", "brand": "Cinemark"}, "geometry": {"type": "Point", "coordinates": [-95.856389, 36.05864]}},
{"type": "Feature", "id": "h_ScMlK9iWPW9zF55YrapSU5Dgs=", "properties": {"ref": "https://www.cinemark.com/theatres/ok-oklahoma-city/cinemark-tinseltown-and-xd", "@spider": "cinemark", "addr:full": "6001 Martin Luther King Blvd.", "addr:city": "Oklahoma City", "addr:state": "OK", "addr:postcode": "73111", "addr:country": "US", "name": "Cinemark Tinseltown and XD", "phone": "405-424-0461", "website": "https://www.cinemark.com/theatres/ok-oklahoma-city/cinemark-tinseltown-and-xd", "brand": "Cinemark"}, "geometry": {"type": "Point", "coordinates": [-97.476635, 35.53184]}},
{"type": "Feature", "id": "fexXkoXdUmOSK-I9j_CZbPQXUZ0=", "properties": {"ref": "https://www.cinemark.com/theatres/pa-monaca/cinemark-center-township-marketplace", "@spider": "cinemark", "addr:full": "99 Wagner Road", "addr:city": "Monaca", "addr:state": "PA", "addr:postcode": "15061", "addr:country": "US", "name": "Cinemark Center Township Marketplace", "phone": "724-775-4993", "website": "https://www.cinemark.com/theatres/pa-monaca/cinemark-center-township-marketplace", "brand": "Cinemark"}, "geometry": {"type": "Point", "coordinates": [-80.3083192, 40.6821732]}},
{"type": "Feature", "id": "lrEq6gB6WVuqNnqAP_Phzt4eLXQ=", "properties": {"ref": "https://www.cinemark.com/theatres/or-medford/cinemark-tinseltown-usa", "@spider": "cinemark", "addr:full": "651 Medford Center", "addr:city": "Medford", "addr:state": "OR", "addr:postcode": "97501", "addr:country": "US", "name": "Cinemark Tinseltown USA", "phone": "541-770-2508", "website": "https://www.cinemark.com/theatres/or-medford/cinemark-tinseltown-usa", "brand": "Cinemark"}, "geometry": {"type": "Point", "coordinates": [-122.867291, 42.33147]}},
{"type": "Feature", "id": "g3sRg8q2qQfo-UI6Zkk6Tnhez3Y=", "properties": {"ref": "https://www.cinemark.com/theatres/oh-west-carrollton/cinemark-dayton-south-16-and-xd", "@spider": "cinemark", "addr:full": "195 Mall Woods Dr", "addr:city": "West Carrollton", "addr:state": "OH", "addr:postcode": "45449", "addr:country": "US", "name": "Cinemark Dayton South 16 and XD", "phone": "937-435-1806", "website": "https://www.cinemark.com/theatres/oh-west-carrollton/cinemark-dayton-south-16-and-xd", "brand": "Cinemark"}, "geometry": {"type": "Point", "coordinates": [-84.227924, 39.643378]}},
{"type": "Feature", "id": "Ns0lMcL9-pxc9mpVNIjru5W-Ga4=", "properties": {"ref": "https://www.cinemark.com/theatres/oh-toledo/franklin-park-16-and-xd", "@spider": "cinemark", "addr:full": "5001 Monroe Street", "addr:city": "Toledo", "addr:state": "OH", "addr:postcode": "43623", "addr:country": "US", "name": "Franklin Park 16 and XD", "phone": "419-472-2117", "website": "https://www.cinemark.com/theatres/oh-toledo/franklin-park-16-and-xd", "brand": "Cinemark"}, "geometry": {"type": "Point", "coordinates": [-83.641137, 41.696264]}},
{"type": "Feature", "id": "06Q8sHKwfvywOsjEFT8fqFBH0-w=", "properties": {"ref": "https://www.cinemark.com/theatres/pa-tarentum/cinemark-galleria-at-pittsburgh-mills-and-imax", "@spider": "cinemark", "addr:full": "425 Pittsburgh Mills Circle", "addr:city": "Tarentum", "addr:state": "PA", "addr:postcode": "15084", "addr:country": "US", "name": "Cinemark Galleria at Pittsburgh Mills and IMAX", "website": "https://www.cinemark.com/theatres/pa-tarentum/cinemark-galleria-at-pittsburgh-mills-and-imax", "brand": "Cinemark"}, "geometry": {"type": "Point", "coordinates": [-79.7958825, 40.5737218]}},
{"type": "Feature", "id": "Y3H6Wual-HNUHcz4ymzvWi18-l0=", "properties": {"ref": "https://www.cinemark.com/theatres/oh-valley-view/cinemark-at-valley-view-and-xd", "@spider": "cinemark", "addr:full": "6001 Canal Road", "addr:city": "Valley View", "addr:state": "OH", "addr:postcode": "44125", "addr:country": "US", "name": "Cinemark At Valley View and XD", "phone": "216-447-8820", "website": "https://www.cinemark.com/theatres/oh-valley-view/cinemark-at-valley-view-and-xd", "brand": "Cinemark"}, "geometry": {"type": "Point", "coordinates": [-81.624501, 41.400348]}},
{"type": "Feature", "id": "ey8zGGCsvXYqZvQWMvHVLPLjWKM=", "properties": {"ref": "https://www.cinemark.com/theatres/oh-piqua/cinemark-miami-valley", "@spider": "cinemark", "addr:full": "1020 Garbry Road", "addr:city": "Piqua", "addr:state": "OH", "addr:postcode": "45356", "addr:country": "US", "name": "Cinemark Miami Valley", "phone": "937-778-1438", "website": "https://www.cinemark.com/theatres/oh-piqua/cinemark-miami-valley", "brand": "Cinemark"}, "geometry": {"type": "Point", "coordinates": [-84.21686, 40.145996]}},
{"type": "Feature", "id": "MCMAuBEHbi4uTwCK2cLfIYfol70=", "properties": {"ref": "https://www.cinemark.com/theatres/oh-strongsville/cinemark-strongsville-at-southpark-mall", "@spider": "cinemark", "addr:full": "17450 Southpark Center", "addr:city": "Strongsville", "addr:state": "OH", "addr:postcode": "44136", "addr:country": "US", "name": "Cinemark Strongsville at Southpark Mall", "phone": "440-878-3708", "website": "https://www.cinemark.com/theatres/oh-strongsville/cinemark-strongsville-at-southpark-mall", "brand": "Cinemark"}, "geometry": {"type": "Point", "coordinates": [-81.8221, 41.310728]}},
{"type": "Feature", "id": "bIIVisMhMgVLU_DK5iI6fCqojjU=", "properties": {"ref": "https://www.cinemark.com/theatres/oh-north-canton/cinemark-tinseltown-usa-and-xd", "@spider": "cinemark", "addr:full": "4720 Mega Street NW", "addr:city": "North Canton", "addr:state": "OH", "addr:postcode": "44720", "addr:country": "US", "name": "Cinemark Tinseltown USA and XD", "phone": "330-305-9877", "website": "https://www.cinemark.com/theatres/oh-north-canton/cinemark-tinseltown-usa-and-xd", "brand": "Cinemark"}, "geometry": {"type": "Point", "coordinates": [-81.438646, 40.872486]}},
{"type": "Feature", "id": "rEhkVmYlDdyuO7zCLlZh7kTBuaM=", "properties": {"ref": "https://www.cinemark.com/theatres/oh-ontario/cinemark-14-mansfield-town-center", "@spider": "cinemark", "addr:full": "2355 Walker Lake Rd", "addr:city": "Ontario", "addr:state": "OH", "addr:postcode": "44906", "addr:country": "US", "name": "Cinemark 14 Mansfield Town Center", "phone": "419-589-7300", "website": "https://www.cinemark.com/theatres/oh-ontario/cinemark-14-mansfield-town-center", "brand": "Cinemark"}, "geometry": {"type": "Point", "coordinates": [-82.524119, 40.76801]}},
{"type": "Feature", "id": "hoson4aDuZ_wvzpca6_dFeyO4IA=", "properties": {"ref": "https://www.cinemark.com/theatres/oh-tiffin/cinemark-tiffin-mall-8", "@spider": "cinemark", "addr:full": "870 W. Market St.", "addr:city": "Tiffin", "addr:state": "OH", "addr:postcode": "44883", "addr:country": "US", "name": "Cinemark Tiffin Mall 8", "phone": "419-443-0897", "website": "https://www.cinemark.com/theatres/oh-tiffin/cinemark-tiffin-mall-8", "brand": "Cinemark"}, "geometry": {"type": "Point", "coordinates": [-83.212059, 41.112097]}},
{"type": "Feature", "id": "sZNEUVipMYDqbybVPplumFC5y8Y=", "properties": {"ref": "https://www.cinemark.com/theatres/oh-milford/milford-16", "@spider": "cinemark", "addr:full": "500 Rivers Edge Drive", "addr:city": "Milford", "addr:state": "OH", "addr:postcode": "45150", "addr:country": "US", "name": "Milford 16", "phone": "513-248-2169", "website": "https://www.cinemark.com/theatres/oh-milford/milford-16", "brand": "Cinemark"}, "geometry": {"type": "Point", "coordinates": [-84.270222, 39.163563]}},
{"type": "Feature", "id": "yyQr3js9jVQXLqQgviQ9rhPpGsE=", "properties": {"ref": "https://www.cinemark.com/theatres/pa-erie/tinseltown-usa", "@spider": "cinemark", "addr:full": "1910 Rotunda Drive", "addr:city": "Erie", "addr:state": "PA", "addr:postcode": "16509", "addr:country": "US", "name": "Tinseltown USA", "phone": "814-866-3390", "website": "https://www.cinemark.com/theatres/pa-erie/tinseltown-usa", "brand": "Cinemark"}, "geometry": {"type": "Point", "coordinates": [-80.089785, 42.057859]}},
{"type": "Feature", "id": "mK__CIYsmioxyoiBM_mPxfHQj20=", "properties": {"ref": "https://www.cinemark.com/theatres/oh-huber-heights/huber-heights-16", "@spider": "cinemark", "addr:full": "7737 Waynetowne Blvd", "addr:city": "Huber Heights", "addr:state": "OH", "addr:postcode": "45424", "addr:country": "US", "name": "Huber Heights 16", "phone": "937-237-5269", "website": "https://www.cinemark.com/theatres/oh-huber-heights/huber-heights-16", "brand": "Cinemark"}, "geometry": {"type": "Point", "coordinates": [-84.14322, 39.868343]}},
{"type": "Feature", "id": "Zy85o3DdcRrRquuJ1g1aUgZ4M8Q=", "properties": {"ref": "https://www.cinemark.com/theatres/oh-perrysburg/levis-commons-12", "@spider": "cinemark", "addr:full": "2005 Hollenbeck Dr", "addr:city": "Perrysburg", "addr:state": "OH", "addr:postcode": "43551", "addr:country": "US", "name": "Levis Commons 12", "phone": "419-874-2154", "website": "https://www.cinemark.com/theatres/oh-perrysburg/levis-commons-12", "brand": "Cinemark"}, "geometry": {"type": "Point", "coordinates": [-83.640525, 41.527166]}},
{"type": "Feature", "id": "GOeS6ajKI-lgMMqpmtXDv9ZBDFs=", "properties": {"ref": "https://www.cinemark.com/theatres/oh-gahanna/cinemark-stoneridge-plaza-movies-16", "@spider": "cinemark", "addr:full": "323 Stoneridge Lane", "addr:city": "Gahanna", "addr:state": "OH", "addr:postcode": "43230", "addr:country": "US", "name": "Cinemark Stoneridge Plaza Movies 16", "phone": "614-471-7625", "website": "https://www.cinemark.com/theatres/oh-gahanna/cinemark-stoneridge-plaza-movies-16", "brand": "Cinemark"}, "geometry": {"type": "Point", "coordinates": [-82.866348, 40.053139]}},
{"type": "Feature", "id": "_v2OFw9u9IW5mWRdv8hjTg2gICQ=", "properties": {"ref": "https://www.cinemark.com/theatres/oh-lancaster/cinemark-river-valley-mall-and-xd", "@spider": "cinemark", "addr:full": "1611 River Valley Circle S", "addr:city": "Lancaster", "addr:state": "OH", "addr:postcode": "43130", "addr:country": "US", "name": "Cinemark River Valley Mall and XD", "phone": "740-681-5697", "website": "https://www.cinemark.com/theatres/oh-lancaster/cinemark-river-valley-mall-and-xd", "brand": "Cinemark"}, "geometry": {"type": "Point", "coordinates": [-82.62567159999998, 39.7307613]}},
{"type": "Feature", "id": "Q1iEiJk628IxOwEIZjezKVy8Kw4=", "properties": {"ref": "https://www.cinemark.com/theatres/oh-wooster/cinemark-movies-10", "@spider": "cinemark", "addr:full": "4108 Burbank Road", "addr:city": "Wooster", "addr:state": "OH", "addr:postcode": "44691", "addr:country": "US", "name": "Cinemark Movies 10", "phone": "330-345-2610", "website": "https://www.cinemark.com/theatres/oh-wooster/cinemark-movies-10", "brand": "Cinemark"}, "geometry": {"type": "Point", "coordinates": [-81.946848, 40.850303]}},
{"type": "Feature", "id": "iveANh5iSIEvgJ3WURF0FIs1sh0=", "properties": {"ref": "https://www.cinemark.com/theatres/oh-sandusky/cinemark-stadium", "@spider": "cinemark", "addr:full": "4314 Milan Road", "addr:city": "Sandusky", "addr:state": "OH", "addr:postcode": "44870", "addr:country": "US", "name": "Cinemark Stadium", "phone": "419-621-1380", "website": "https://www.cinemark.com/theatres/oh-sandusky/cinemark-stadium", "brand": "Cinemark"}, "geometry": {"type": "Point", "coordinates": [-82.671862, 41.419447]}},
{"type": "Feature", "id": "nYuW8zosj_AaJgJ0wd7OzvnXqI4=", "properties": {"ref": "https://www.cinemark.com/theatres/oh-north-canton/cinemark-movie-bistro-north-canton", "@spider": "cinemark", "addr:full": "6284 Dressler Rd. Nw", "addr:city": "North Canton", "addr:state": "OH", "addr:postcode": "44720", "addr:country": "US", "name": "Cinemark Movie Bistro North Canton", "phone": "330-497-9118", "website": "https://www.cinemark.com/theatres/oh-north-canton/cinemark-movie-bistro-north-canton", "brand": "Cinemark"}, "geometry": {"type": "Point", "coordinates": [-81.424178, 40.871126]}},
{"type": "Feature", "id": "nY9lrSfSjKUv2e3R-I8dLG03jng=", "properties": {"ref": "https://www.cinemark.com/theatres/oh-columbus/polaris-18-and-xd", "@spider": "cinemark", "addr:full": "1071 Gemini Place", "addr:city": "Columbus", "addr:state": "OH", "addr:postcode": "43240", "addr:country": "US", "name": "Polaris 18 and XD", "phone": "614-781-8228", "website": "https://www.cinemark.com/theatres/oh-columbus/polaris-18-and-xd", "brand": "Cinemark"}, "geometry": {"type": "Point", "coordinates": [-82.986152, 40.146601]}},
{"type": "Feature", "id": "ZqxwSg_GOoI_UywCFDufbc1X7iw=", "properties": {"ref": "https://www.cinemark.com/theatres/oh-maumee/fallen-timbers-14-and-xd", "@spider": "cinemark", "addr:full": "2300 Village Drive West Suite 1700", "addr:city": "Maumee", "addr:state": "OH", "addr:postcode": "43537", "addr:country": "US", "name": "Fallen Timbers 14 and XD", "phone": "419-878-3898", "website": "https://www.cinemark.com/theatres/oh-maumee/fallen-timbers-14-and-xd", "brand": "Cinemark"}, "geometry": {"type": "Point", "coordinates": [-83.705156, 41.544935]}},
{"type": "Feature", "id": "zo-cy9pkfBjMoELN5YhEuy0s--s=", "properties": {"ref": "https://www.cinemark.com/theatres/oh-cincinnati/cinemark-western-hills-14", "@spider": "cinemark", "addr:full": "5870 Harrison Avenue", "addr:city": "Cincinnati", "addr:state": "OH", "addr:postcode": "45248", "addr:country": "US", "name": "Cinemark Western Hills 14", "phone": "513-574-4315", "website": "https://www.cinemark.com/theatres/oh-cincinnati/cinemark-western-hills-14", "brand": "Cinemark"}, "geometry": {"type": "Point", "coordinates": [-84.64129, 39.173676]}},
{"type": "Feature", "id": "BjIxEP7TSMD3_kLnj6S6q0GARas=", "properties": {"ref": "https://www.cinemark.com/theatres/oh-boardman/cinemark-tinseltown-and-xd", "@spider": "cinemark", "addr:full": "7401 Market Street", "addr:city": "Boardman", "addr:state": "OH", "addr:postcode": "44512", "addr:country": "US", "name": "Cinemark Tinseltown and XD", "phone": "330-965-2335", "website": "https://www.cinemark.com/theatres/oh-boardman/cinemark-tinseltown-and-xd", "brand": "Cinemark"}, "geometry": {"type": "Point", "coordinates": [-80.662703, 41.021031]}},
{"type": "Feature", "id": "iLPar056uYSVJkDuRsR5uQRRKJs=", "properties": {"ref": "https://www.cinemark.com/theatres/oh-beavercreek/cinemark-the-greene-14-and-imax", "@spider": "cinemark", "addr:full": "4489 Glengarry Drive", "addr:city": "Beavercreek", "addr:state": "OH", "addr:postcode": "45440", "addr:country": "US", "name": "Cinemark The Greene 14 and IMAX", "phone": "937-429-4130", "website": "https://www.cinemark.com/theatres/oh-beavercreek/cinemark-the-greene-14-and-imax", "brand": "Cinemark"}, "geometry": {"type": "Point", "coordinates": [-84.104671, 39.69348]}},
{"type": "Feature", "id": "CrHPR01frzSqTHFKSJsl5jxht44=", "properties": {"ref": "https://www.cinemark.com/theatres/oh-alliance/cinemark-carnation-cinema-5", "@spider": "cinemark", "addr:full": "2500 W. State St.", "addr:city": "Alliance", "addr:state": "OH", "addr:postcode": "44601", "addr:country": "US", "name": "Cinemark Carnation Cinema 5", "phone": "330-823-7329", "website": "https://www.cinemark.com/theatres/oh-alliance/cinemark-carnation-cinema-5", "brand": "Cinemark"}, "geometry": {"type": "Point", "coordinates": [-81.155764, 40.902009]}},
{"type": "Feature", "id": "WhvWoeB2QUrW5IhWYdkFuxIQnP8=", "properties": {"ref": "https://www.cinemark.com/theatres/oh-cuyahoga-falls/cinemark-cuyahoga-falls-and-xd", "@spider": "cinemark", "addr:full": "2925 State Road", "addr:city": "Cuyahoga Falls", "addr:state": "OH", "addr:postcode": "44223", "addr:country": "US", "name": "Cinemark Cuyahoga Falls and XD", "phone": "330-928-4520", "website": "https://www.cinemark.com/theatres/oh-cuyahoga-falls/cinemark-cuyahoga-falls-and-xd", "brand": "Cinemark"}, "geometry": {"type": "Point", "coordinates": [-81.50858, 41.151608]}},
{"type": "Feature", "id": "xA3bGBj-KcLDdVdtQqeueStfWg0=", "properties": {"ref": "https://www.cinemark.com/theatres/nv-reno/century-summit-sierra", "@spider": "cinemark", "addr:full": "Summit Sierra Shopping Center", "addr:city": "Reno", "addr:state": "NV", "addr:postcode": "89511", "addr:country": "US", "name": "Century Summit Sierra", "phone": "775-851-4347", "website": "https://www.cinemark.com/theatres/nv-reno/century-summit-sierra", "brand": "Cinemark"}, "geometry": {"type": "Point", "coordinates": [-119.747747, 39.402651]}},
{"type": "Feature", "id": "z6suoW6RUvDHgElHM0Dl0xAWFW4=", "properties": {"ref": "https://www.cinemark.com/theatres/oh-columbus/cinemark-carriage-place-movies-12", "@spider": "cinemark", "addr:full": "2570 Bethel Road", "addr:city": "Columbus", "addr:state": "OH", "addr:postcode": "43220", "addr:country": "US", "name": "Cinemark Carriage Place Movies 12", "phone": "614-538-0403", "website": "https://www.cinemark.com/theatres/oh-columbus/cinemark-carriage-place-movies-12", "brand": "Cinemark"}, "geometry": {"type": "Point", "coordinates": [-83.087766, 40.064835]}},
{"type": "Feature", "id": "1QTOEHeVa66BtRmLbukWF0Jlt3U=", "properties": {"ref": "https://www.cinemark.com/theatres/oh-cincinnati/cinemark-oakley-station-and-xd", "@spider": "cinemark", "addr:full": "3025 Disney Street", "addr:city": "Cincinnati", "addr:state": "OH", "addr:postcode": "45209", "addr:country": "US", "name": "Cinemark Oakley Station and XD", "phone": "513-351-2381", "website": "https://www.cinemark.com/theatres/oh-cincinnati/cinemark-oakley-station-and-xd", "brand": "Cinemark"}, "geometry": {"type": "Point", "coordinates": [-84.424731, 39.160816]}},
{"type": "Feature", "id": "19916DGoD_aoNLbSYU0GHrV2aVc=", "properties": {"ref": "https://www.cinemark.com/theatres/nv-reno/century-park-lane-16", "@spider": "cinemark", "addr:full": "2040 Century Way", "addr:city": "Reno", "addr:state": "NV", "addr:postcode": "89502", "addr:country": "US", "name": "Century Park Lane 16", "phone": "775-824-3300", "website": "https://www.cinemark.com/theatres/nv-reno/century-park-lane-16", "brand": "Cinemark"}, "geometry": {"type": "Point", "coordinates": [-119.801428, 39.505599]}},
{"type": "Feature", "id": "E0nQ90YtdIg017BagURYfElGrrI=", "properties": {"ref": "https://www.cinemark.com/theatres/nv-reno/century-riverside-12", "@spider": "cinemark", "addr:full": "11 N. Sierra St.", "addr:city": "Reno", "addr:state": "NV", "addr:postcode": "89501", "addr:country": "US", "name": "Century Riverside 12", "phone": "775-786-2753", "website": "https://www.cinemark.com/theatres/nv-reno/century-riverside-12", "brand": "Cinemark"}, "geometry": {"type": "Point", "coordinates": [-119.814131, 39.524889]}},
{"type": "Feature", "id": "yEE_hsnJXY5LlppdhVPfj_q0-Pw=", "properties": {"ref": "https://www.cinemark.com/theatres/ny-rochester/cinemark-tinseltown-usa-and-imax", "@spider": "cinemark", "addr:full": "2291 Buffalo Road", "addr:city": "Rochester", "addr:state": "NY", "addr:postcode": "14624", "addr:country": "US", "name": "Cinemark Tinseltown USA and IMAX", "phone": "585-247-0042", "website": "https://www.cinemark.com/theatres/ny-rochester/cinemark-tinseltown-usa-and-imax", "brand": "Cinemark"}, "geometry": {"type": "Point", "coordinates": [-77.710516, 43.147123]}},
{"type": "Feature", "id": "6eDZDi_Fwi_0p7DmIDzXIMkShXE=", "properties": {"ref": "https://www.cinemark.com/theatres/oh-aurora/cinemark-10-aurora", "@spider": "cinemark", "addr:full": "140 Barrington Town Square Dr", "addr:city": "Aurora", "addr:state": "OH", "addr:postcode": "44202", "addr:country": "US", "name": "Cinemark 10 Aurora", "website": "https://www.cinemark.com/theatres/oh-aurora/cinemark-10-aurora", "brand": "Cinemark"}, "geometry": {"type": "Point", "coordinates": [-81.347936, 41.320119]}},
{"type": "Feature", "id": "FAGZM3AEqMKTSXpjOQ6CuKzeyeg=", "properties": {"ref": "https://www.cinemark.com/theatres/nv-las-vegas/century-18-sams-town", "@spider": "cinemark", "addr:full": "5111 Boulder Hwy.", "addr:city": "Las Vegas", "addr:state": "NV", "addr:postcode": "89122", "addr:country": "US", "name": "Century 18 Sam's Town", "phone": "702-547-1732", "website": "https://www.cinemark.com/theatres/nv-las-vegas/century-18-sams-town", "brand": "Cinemark"}, "geometry": {"type": "Point", "coordinates": [-115.063879, 36.112671]}},
{"type": "Feature", "id": "6yAivOuoTMTRDgfHVYWhwizzz_0=", "properties": {"ref": "https://www.cinemark.com/theatres/oh-macedonia/cinemark-at-macedonia", "@spider": "cinemark", "addr:full": "8161 Macedonia Commons Bl", "addr:city": "Macedonia", "addr:state": "OH", "addr:postcode": "44056", "addr:country": "US", "name": "Cinemark at Macedonia", "phone": "330-908-1005", "website": "https://www.cinemark.com/theatres/oh-macedonia/cinemark-at-macedonia", "brand": "Cinemark"}, "geometry": {"type": "Point", "coordinates": [-81.515605, 41.312653]}},
{"type": "Feature", "id": "w_D0aAj9env3248MsqOjYO_57Fw=", "properties": {"ref": "https://www.cinemark.com/theatres/oh-bowling-green/cinemark-woodland-mall-cinema-5", "@spider": "cinemark", "addr:full": "1234 North Main Street", "addr:city": "Bowling Green", "addr:state": "OH", "addr:postcode": "43402", "addr:country": "US", "name": "Cinemark Woodland Mall Cinema 5", "phone": "419-354-0267", "website": "https://www.cinemark.com/theatres/oh-bowling-green/cinemark-woodland-mall-cinema-5", "brand": "Cinemark"}, "geometry": {"type": "Point", "coordinates": [-83.650576, 41.397539]}},
{"type": "Feature", "id": "9f7EOMu8vhpNOgxuapBGCpcMCBE=", "properties": {"ref": "https://www.cinemark.com/theatres/nm-albuquerque/century-rio-24-plex-and-xd", "@spider": "cinemark", "addr:full": "4901 Pan American Fwy. NE", "addr:city": "Albuquerque", "addr:state": "NM", "addr:postcode": "87109", "addr:country": "US", "name": "Century Rio 24 Plex and XD", "phone": "505-343-9000", "website": "https://www.cinemark.com/theatres/nm-albuquerque/century-rio-24-plex-and-xd", "brand": "Cinemark"}, "geometry": {"type": "Point", "coordinates": [-106.601246, 35.138486]}},
{"type": "Feature", "id": "tiRRlKcQz-9JxBdHPKWlXIFTiEw=", "properties": {"ref": "https://www.cinemark.com/theatres/nv-las-vegas/century-16-santa-fe-station-and-xd", "@spider": "cinemark", "addr:full": "4949 N. Rancho", "addr:city": "Las Vegas", "addr:state": "NV", "addr:postcode": "89130", "addr:country": "US", "name": "Century 16 Santa Fe Station and XD", "phone": "702-655-8178", "website": "https://www.cinemark.com/theatres/nv-las-vegas/century-16-santa-fe-station-and-xd", "brand": "Cinemark"}, "geometry": {"type": "Point", "coordinates": [-115.23776, 36.250586]}},
{"type": "Feature", "id": "ncw1PmGJs69a7gvXIGd40A0OOkA=", "properties": {"ref": "https://www.cinemark.com/theatres/nv-las-vegas/century-16-suncoast", "@spider": "cinemark", "addr:full": "9090 Alta Dr.", "addr:city": "Las Vegas", "addr:state": "NV", "addr:postcode": "89144", "addr:country": "US", "name": "Century 16 Suncoast", "phone": "702-869-1880", "website": "https://www.cinemark.com/theatres/nv-las-vegas/century-16-suncoast", "brand": "Cinemark"}, "geometry": {"type": "Point", "coordinates": [-115.293548, 36.167725]}},
{"type": "Feature", "id": "MyvO4lwLA-Ka-vs6ZWyRlqbrZYI=", "properties": {"ref": "https://www.cinemark.com/theatres/nm-albuquerque/cinemark-movies-west", "@spider": "cinemark", "addr:full": "9201 Coors Rd N.W.", "addr:city": "Albuquerque", "addr:state": "NM", "addr:postcode": "87114", "addr:country": "US", "name": "Cinemark Movies West", "website": "https://www.cinemark.com/theatres/nm-albuquerque/cinemark-movies-west", "brand": "Cinemark"}, "geometry": {"type": "Point", "coordinates": [-106.666447, 35.182625]}},
{"type": "Feature", "id": "bUtpJjxG0qb2GOhk1Aukwgy-DLM=", "properties": {"ref": "https://www.cinemark.com/theatres/nj-wayne/cinemark-willowbrook-mall-and-xd", "@spider": "cinemark", "addr:full": "360 Willowbrook Mall", "addr:city": "Wayne", "addr:state": "NJ", "addr:postcode": "07470", "addr:country": "US", "name": "Cinemark Willowbrook Mall and XD", "phone": "973-890-8644", "website": "https://www.cinemark.com/theatres/nj-wayne/cinemark-willowbrook-mall-and-xd", "brand": "Cinemark"}, "geometry": {"type": "Point", "coordinates": [-74.260523, 40.889992]}},
{"type": "Feature", "id": "NtjIuCIKXLtMyHL8dUoBPJHMwXM=", "properties": {"ref": "https://www.cinemark.com/theatres/nv-henderson/cinedome-12", "@spider": "cinemark", "addr:full": "851 S. Boulder Hwy", "addr:city": "Henderson", "addr:state": "NV", "addr:postcode": "89015", "addr:country": "US", "name": "Cinedome 12", "phone": "702-566-1570", "website": "https://www.cinemark.com/theatres/nv-henderson/cinedome-12", "brand": "Cinemark"}, "geometry": {"type": "Point", "coordinates": [-114.965692, 36.024691]}},
{"type": "Feature", "id": "EenaMrTDjWazrMXUg_3gAlRgZ78=", "properties": {"ref": "https://www.cinemark.com/theatres/nj-hazlet/cinemark-hazlet-12", "@spider": "cinemark", "addr:full": "2821 Highway 35", "addr:city": "Hazlet", "addr:state": "NJ", "addr:postcode": "07730", "addr:country": "US", "name": "Cinemark Hazlet 12", "phone": "732-888-1352", "website": "https://www.cinemark.com/theatres/nj-hazlet/cinemark-hazlet-12", "brand": "Cinemark"}, "geometry": {"type": "Point", "coordinates": [-74.169731, 40.41961]}},
{"type": "Feature", "id": "PmuU8-O-GIpcNEeVt1NGB8uNNII=", "properties": {"ref": "https://www.cinemark.com/theatres/nh-salem/cinemark-rockingham-park-and-xd", "@spider": "cinemark", "addr:full": "15 Mall Road", "addr:city": "Salem", "addr:state": "NH", "addr:postcode": "03079", "addr:country": "US", "name": "Cinemark Rockingham Park and XD", "phone": "603-890-7111", "website": "https://www.cinemark.com/theatres/nh-salem/cinemark-rockingham-park-and-xd", "brand": "Cinemark"}, "geometry": {"type": "Point", "coordinates": [-71.230399, 42.770966]}},
{"type": "Feature", "id": "J2uWqvKJzsJZofGfytOltqjyVsc=", "properties": {"ref": "https://www.cinemark.com/theatres/nv-las-vegas/century-orleans-18-and-xd", "@spider": "cinemark", "addr:full": "4500 West Tropicana Blvd.", "addr:city": "Las Vegas", "addr:state": "NV", "addr:postcode": "89103", "addr:country": "US", "name": "Century Orleans 18 and XD", "phone": "702-889-1220", "website": "https://www.cinemark.com/theatres/nv-las-vegas/century-orleans-18-and-xd", "brand": "Cinemark"}, "geometry": {"type": "Point", "coordinates": [-115.203217, 36.101057]}},
{"type": "Feature", "id": "KHszd2vOyqXpyj1Drnlgi7ZSUGU=", "properties": {"ref": "https://www.cinemark.com/theatres/nv-las-vegas/century-16-south-point-and-xd", "@spider": "cinemark", "addr:full": "9777 Las Vegas Blvd. South", "addr:city": "Las Vegas", "addr:state": "NV", "addr:postcode": "89183", "addr:country": "US", "name": "Century 16 South Point and XD", "phone": "702-260-4061", "website": "https://www.cinemark.com/theatres/nv-las-vegas/century-16-south-point-and-xd", "brand": "Cinemark"}, "geometry": {"type": "Point", "coordinates": [-115.172559, 36.012294]}},
{"type": "Feature", "id": "tvmh6UkMSX1gFY9_ndX5txtnCrU=", "properties": {"ref": "https://www.cinemark.com/theatres/nm-albuquerque/cinemark-movies-8", "@spider": "cinemark", "addr:full": "4591 San Mateo Blvd. Ne", "addr:city": "Albuquerque", "addr:state": "NM", "addr:postcode": "87109", "addr:country": "US", "name": "Cinemark Movies 8", "website": "https://www.cinemark.com/theatres/nm-albuquerque/cinemark-movies-8", "brand": "Cinemark"}},
{"type": "Feature", "id": "knzcF9lB7Tfe1vBK53vwbpvam3g=", "properties": {"ref": "https://www.cinemark.com/theatres/nj-watchung/cinemark-watchung-and-xd", "@spider": "cinemark", "addr:full": "1670 US Route 22 East", "addr:city": "Watchung", "addr:state": "NJ", "addr:postcode": "07069", "addr:country": "US", "name": "Cinemark Watchung and XD ", "phone": "908-561-5970 ", "website": "https://www.cinemark.com/theatres/nj-watchung/cinemark-watchung-and-xd", "brand": "Cinemark"}, "geometry": {"type": "Point", "coordinates": [-74.408106, 40.647325]}},
{"type": "Feature", "id": "X4KlhQdXSwOW8XAGzcewDEwG0dU=", "properties": {"ref": "https://www.cinemark.com/theatres/nm-albuquerque/century-14-downtown-albuquerque", "@spider": "cinemark", "addr:full": "100 Central Ave. SW", "addr:city": "Albuquerque", "addr:state": "NM", "addr:postcode": "87102", "addr:country": "US", "name": "Century 14 Downtown Albuquerque", "phone": "505-243-9555", "website": "https://www.cinemark.com/theatres/nm-albuquerque/century-14-downtown-albuquerque", "brand": "Cinemark"}, "geometry": {"type": "Point", "coordinates": [-106.648183, 35.08404]}},
{"type": "Feature", "id": "tsS7Ld6ZoWbsXnoVIhH5Y0IsuT0=", "properties": {"ref": "https://www.cinemark.com/theatres/nj-somerdale/cinemark-16-and-xd", "@spider": "cinemark", "addr:full": "Cooper Towne Center", "addr:city": "Somerdale", "addr:state": "NJ", "addr:postcode": "08083", "addr:country": "US", "name": "Cinemark 16 and XD", "phone": "856-784-3429", "website": "https://www.cinemark.com/theatres/nj-somerdale/cinemark-16-and-xd", "brand": "Cinemark"}, "geometry": {"type": "Point", "coordinates": [-75.017278, 39.858997]}},
{"type": "Feature", "id": "JoXXSC_PMyMXaUG6SHwGvHm3dPU=", "properties": {"ref": "https://www.cinemark.com/theatres/nc-matthews/cinemark-movies-10", "@spider": "cinemark", "addr:full": "9508 Northeast Court", "addr:city": "Matthews", "addr:state": "NC", "addr:postcode": "28105", "addr:country": "US", "name": "Cinemark Movies 10", "website": "https://www.cinemark.com/theatres/nc-matthews/cinemark-movies-10", "brand": "Cinemark"}, "geometry": {"type": "Point", "coordinates": [-80.7172938, 35.1396524]}},
{"type": "Feature", "id": "oh9lr8Jvra-n4TXnjcm2sPP0Qkc=", "properties": {"ref": "https://www.cinemark.com/theatres/nc-asheville/the-carolina-cinemark-asheville", "@spider": "cinemark", "addr:full": "1640 Hendersonville Road", "addr:city": "Asheville", "addr:state": "NC", "addr:postcode": "28803", "addr:country": "US", "name": "The Carolina Cinemark Asheville", "phone": "828-274-8811", "website": "https://www.cinemark.com/theatres/nc-asheville/the-carolina-cinemark-asheville", "brand": "Cinemark"}, "geometry": {"type": "Point", "coordinates": [-82.52483, 35.511577]}},
{"type": "Feature", "id": "9iXvH5xC2_iuENCxFd8SOx7YabI=", "properties": {"ref": "https://www.cinemark.com/theatres/mt-kalispell/signature-stadium-14", "@spider": "cinemark", "addr:full": "185 Hutton Ranch Road", "addr:city": "Kalispell", "addr:state": "MT", "addr:postcode": "59901", "addr:country": "US", "name": "Signature Stadium 14", "phone": "406-752-7804", "website": "https://www.cinemark.com/theatres/mt-kalispell/signature-stadium-14", "brand": "Cinemark"}, "geometry": {"type": "Point", "coordinates": [-114.326788, 48.233506]}},
{"type": "Feature", "id": "vCWijyhzle40lu9R8dRUKPkkdI4=", "properties": {"ref": "https://www.cinemark.com/theatres/nc-asheboro/cinemark-asheboro", "@spider": "cinemark", "addr:full": "400 Randolph Mall", "addr:city": "Asheboro", "addr:state": "NC", "addr:postcode": "27203", "addr:country": "US", "name": "Cinemark Asheboro", "phone": "336-626-3450", "website": "https://www.cinemark.com/theatres/nc-asheboro/cinemark-asheboro", "brand": "Cinemark"}, "geometry": {"type": "Point", "coordinates": [-79.788436, 35.70095]}},
{"type": "Feature", "id": "0fUGryKRhnZf9HIht9NYLFzZ690=", "properties": {"ref": "https://www.cinemark.com/theatres/nc-raleigh/cinemark-raleigh-grande", "@spider": "cinemark", "addr:full": "4840 Grove Barton Road", "addr:city": "Raleigh", "addr:state": "NC", "addr:postcode": "27613", "addr:country": "US", "name": "Cinemark Raleigh Grande", "phone": "919-788-9000", "website": "https://www.cinemark.com/theatres/nc-raleigh/cinemark-raleigh-grande", "brand": "Cinemark"}, "geometry": {"type": "Point", "coordinates": [-78.7184804, 35.8721214]}},
{"type": "Feature", "id": "ejW2OqpfumuVYXgsFGEu4YHAmuw=", "properties": {"ref": "https://www.cinemark.com/theatres/mt-helena/cinemark-helena-and-xd", "@spider": "cinemark", "addr:full": "750 Great Northern Blvd", "addr:city": "Helena", "addr:state": "MT", "addr:postcode": "59601", "addr:country": "US", "name": "Cinemark Helena and XD", "phone": "406-442-4225", "website": "https://www.cinemark.com/theatres/mt-helena/cinemark-helena-and-xd", "brand": "Cinemark"}, "geometry": {"type": "Point", "coordinates": [-112.037727, 46.595644]}},
{"type": "Feature", "id": "6B1Y21aQsBU36W0XC6VsNrhkMY0=", "properties": {"ref": "https://www.cinemark.com/theatres/mn-mankato/cinemark-river-hills-movies-8", "@spider": "cinemark", "addr:full": "1850 Adams Street, Suite 15", "addr:city": "Mankato", "addr:state": "MN", "addr:postcode": "56001", "addr:country": "US", "name": "Cinemark River Hills Movies 8", "phone": "507-625-1929", "website": "https://www.cinemark.com/theatres/mn-mankato/cinemark-river-hills-movies-8", "brand": "Cinemark"}, "geometry": {"type": "Point", "coordinates": [-93.952142, 44.170508]}},
{"type": "Feature", "id": "dyNXhfaNz6fmPALaYPV5gW3fDSs=", "properties": {"ref": "https://www.cinemark.com/theatres/nc-salisbury/cinemark-tinseltown-usa", "@spider": "cinemark", "addr:full": "305 Faith Rd.", "addr:city": "Salisbury", "addr:state": "NC", "addr:postcode": "28146", "addr:country": "US", "name": "Cinemark Tinseltown USA", "phone": "704-639-1342", "website": "https://www.cinemark.com/theatres/nc-salisbury/cinemark-tinseltown-usa", "brand": "Cinemark"}, "geometry": {"type": "Point", "coordinates": [-80.458081, 35.652238]}},
{"type": "Feature", "id": "xJCOb8teZH5PtlPFneR581vkyQY=", "properties": {"ref": "https://www.cinemark.com/theatres/ms-pearl/cinemark-pearl-and-xd-formerly-tinseltown", "@spider": "cinemark", "addr:full": "411 Riverwind Drive", "addr:city": "Pearl", "addr:state": "MS", "addr:postcode": "39208", "addr:country": "US", "name": "Cinemark Pearl and XD (formerly Tinseltown)", "phone": "601-936-5856", "website": "https://www.cinemark.com/theatres/ms-pearl/cinemark-pearl-and-xd-formerly-tinseltown", "brand": "Cinemark"}, "geometry": {"type": "Point", "coordinates": [-90.145625, 32.267637]}},
{"type": "Feature", "id": "W2iE-odQP5QDBL3M60VQ-4n8mHQ=", "properties": {"ref": "https://www.cinemark.com/theatres/mo-kansas-city/cinemark-palace-at-the-plaza---now-closed", "@spider": "cinemark", "addr:full": "526 Nichols Rd.", "addr:city": "Kansas City", "addr:state": "MO", "addr:postcode": "64112", "addr:country": "US", "name": "Cinemark Palace at The Plaza - Now Closed", "website": "https://www.cinemark.com/theatres/mo-kansas-city/cinemark-palace-at-the-plaza---now-closed", "brand": "Cinemark"}, "geometry": {"type": "Point", "coordinates": [-94.59368, 39.04132]}},
{"type": "Feature", "id": "rdRF3Z9Ru7DpKCU2l-uigQoeEtQ=", "properties": {"ref": "https://www.cinemark.com/theatres/mi-taylor/cinemark-southland-center-and-xd", "@spider": "cinemark", "addr:full": "23000 Eureka Road", "addr:city": "Taylor", "addr:state": "MI", "addr:postcode": "48180", "addr:country": "US", "name": "Cinemark Southland Center and XD", "phone": "734-287-0629", "website": "https://www.cinemark.com/theatres/mi-taylor/cinemark-southland-center-and-xd", "brand": "Cinemark"}, "geometry": {"type": "Point", "coordinates": [-83.2569017, 42.200604]}},
{"type": "Feature", "id": "siERw5LAmaTeb1SLByxT70TeRpo=", "properties": {"ref": "https://www.cinemark.com/theatres/md-towson/cinemark-towson-and-xd", "@spider": "cinemark", "addr:full": "111 East Joppa Road", "addr:city": "Towson", "addr:state": "MD", "addr:postcode": "21286", "addr:country": "US", "name": "Cinemark Towson and XD", "phone": "410-828-1262", "website": "https://www.cinemark.com/theatres/md-towson/cinemark-towson-and-xd", "brand": "Cinemark"}, "geometry": {"type": "Point", "coordinates": [-76.600517, 39.401958]}},
{"type": "Feature", "id": "_OKSL9foQQZJIxYe6CpEGWQjvWg=", "properties": {"ref": "https://www.cinemark.com/theatres/md-hanover/cinemark-egyptian-24-and-xd", "@spider": "cinemark", "addr:full": "7000 Arundel Mills Circle", "addr:city": "Hanover", "addr:state": "MD", "addr:postcode": "21076", "addr:country": "US", "name": "Cinemark Egyptian 24 and XD", "phone": "443-755-8990", "website": "https://www.cinemark.com/theatres/md-hanover/cinemark-egyptian-24-and-xd", "brand": "Cinemark"}, "geometry": {"type": "Point", "coordinates": [-76.725453, 39.162255]}},
{"type": "Feature", "id": "bixpkb6AqaQfJiWyrzYLbuj_Vns=", "properties": {"ref": "https://www.cinemark.com/theatres/mi-warren/cinemark-movies-16---now-closed", "@spider": "cinemark", "addr:full": "28600 Dequindre", "addr:city": "Warren", "addr:state": "MI", "addr:postcode": "48092", "addr:country": "US", "name": "Cinemark Movies 16 - NOW CLOSED", "website": "https://www.cinemark.com/theatres/mi-warren/cinemark-movies-16---now-closed", "brand": "Cinemark"}, "geometry": {"type": "Point", "coordinates": [-83.085516, 42.503439]}},
{"type": "Feature", "id": "l7Lph-aKNwmYT_H97pnnsiMKOjA=", "properties": {"ref": "https://www.cinemark.com/theatres/nc-charlotte/cinemark-movie-bistro-charlotte", "@spider": "cinemark", "addr:full": "9630 Monroe Road", "addr:city": "Charlotte", "addr:state": "NC", "addr:postcode": "28270", "addr:country": "US", "name": "Cinemark Movie Bistro Charlotte", "phone": "704-847-2031", "website": "https://www.cinemark.com/theatres/nc-charlotte/cinemark-movie-bistro-charlotte", "brand": "Cinemark"}, "geometry": {"type": "Point", "coordinates": [-80.7435555, 35.1402487]}},
{"type": "Feature", "id": "0e1bb3Ny5PDmJutlwOCtEcufufI=", "properties": {"ref": "https://www.cinemark.com/theatres/ms-gulfport/cinemark-16", "@spider": "cinemark", "addr:full": "15171 Crossroads Pkwy", "addr:city": "Gulfport", "addr:state": "MS", "addr:postcode": "39503", "addr:country": "US", "name": "Cinemark 16", "phone": "228-539-5294", "website": "https://www.cinemark.com/theatres/ms-gulfport/cinemark-16", "brand": "Cinemark"}, "geometry": {"type": "Point", "coordinates": [-89.091396, 30.436136]}},
{"type": "Feature", "id": "RjDCZFrSLjl5bsQaNpYxcFSgPY4=", "properties": {"ref": "https://www.cinemark.com/theatres/ms-tupelo/cinemark-movies-8", "@spider": "cinemark", "addr:full": "1001 Barnes Crossing", "addr:city": "Tupelo", "addr:state": "MS", "addr:postcode": "38804", "addr:country": "US", "name": "Cinemark Movies 8", "phone": "662-844-8256", "website": "https://www.cinemark.com/theatres/ms-tupelo/cinemark-movies-8", "brand": "Cinemark"}, "geometry": {"type": "Point", "coordinates": [-88.67842, 34.31756]}},
{"type": "Feature", "id": "mKq6NDn_jUjkeUyUkaKTqXS51Bw=", "properties": {"ref": "https://www.cinemark.com/theatres/ma-west-springfield/west-springfield-15-and-xd", "@spider": "cinemark", "addr:full": "864 Riverdale Road", "addr:city": "West Springfield", "addr:state": "MA", "addr:postcode": "01089", "addr:country": "US", "name": "West Springfield 15 and XD", "phone": "413-733-5134", "website": "https://www.cinemark.com/theatres/ma-west-springfield/west-springfield-15-and-xd", "brand": "Cinemark"}, "geometry": {"type": "Point", "coordinates": [-72.626925, 42.128092]}},
{"type": "Feature", "id": "b2xr_iYYju-owLD6zH_7EBrR_x4=", "properties": {"ref": "https://www.cinemark.com/theatres/ma-hadley/cinemark-at-hampshire-mall-and-xd", "@spider": "cinemark", "addr:full": "367 Russell St", "addr:city": "Hadley", "addr:state": "MA", "addr:postcode": "01035", "addr:country": "US", "name": "Cinemark At Hampshire Mall and XD", "phone": "413-587-4237", "website": "https://www.cinemark.com/theatres/ma-hadley/cinemark-at-hampshire-mall-and-xd", "brand": "Cinemark"}, "geometry": {"type": "Point", "coordinates": [-72.550438, 42.357777]}},
{"type": "Feature", "id": "wAqGosXuGSs0pmHYdy302Ux7pqc=", "properties": {"ref": "https://www.cinemark.com/theatres/la-shreveport/cinemark-tinseltown-and-xd", "@spider": "cinemark", "addr:full": "8400 Millicent Way", "addr:city": "Shreveport", "addr:state": "LA", "addr:postcode": "71105", "addr:country": "US", "name": "Cinemark Tinseltown and XD", "phone": "318-798-6488", "website": "https://www.cinemark.com/theatres/la-shreveport/cinemark-tinseltown-and-xd", "brand": "Cinemark"}, "geometry": {"type": "Point", "coordinates": [-93.714525, 32.425641]}},
{"type": "Feature", "id": "Jliy_8fpdKMt6rdHOB-a00mDwpQ=", "properties": {"ref": "https://www.cinemark.com/theatres/la-monroe/cinemark-cinema-10", "@spider": "cinemark", "addr:full": "4700 Millhaven Road", "addr:city": "Monroe", "addr:state": "LA", "addr:postcode": "71203", "addr:country": "US", "name": "Cinemark Cinema 10", "phone": "318-325-4760", "website": "https://www.cinemark.com/theatres/la-monroe/cinemark-cinema-10", "brand": "Cinemark"}, "geometry": {"type": "Point", "coordinates": [-92.059674, 32.498617]}},
{"type": "Feature", "id": "7FXPQpRkdsdRw88mQ4WVRMmanH4=", "properties": {"ref": "https://www.cinemark.com/theatres/la-baton-rouge/cinemark-perkins-rowe-and-xd", "@spider": "cinemark", "addr:full": "10000 Perkins Rowe", "addr:city": "Baton Rouge", "addr:state": "LA", "addr:postcode": "70810", "addr:country": "US", "name": "Cinemark Perkins Rowe and XD", "phone": "225-761-7844", "website": "https://www.cinemark.com/theatres/la-baton-rouge/cinemark-perkins-rowe-and-xd", "brand": "Cinemark"}, "geometry": {"type": "Point", "coordinates": [-91.095358, 30.379584]}},
{"type": "Feature", "id": "SLVaI8CH5N6DN-k9fKthpk7uqCo=", "properties": {"ref": "https://www.cinemark.com/theatres/nc-greensboro/cinemark-brassfield-cinema-ten", "@spider": "cinemark", "addr:full": "2101 New Garden Road", "addr:city": "Greensboro", "addr:state": "NC", "addr:postcode": "27410", "addr:country": "US", "name": "Cinemark Brassfield Cinema Ten", "phone": "336-288-1005", "website": "https://www.cinemark.com/theatres/nc-greensboro/cinemark-brassfield-cinema-ten", "brand": "Cinemark"}, "geometry": {"type": "Point", "coordinates": [-79.858094, 36.128657]}},
{"type": "Feature", "id": "jCNLlCrvt1z5_UEr_NXgCCkiUEo=", "properties": {"ref": "https://www.cinemark.com/theatres/ky-richmond/cinemark-at-richmond-centre", "@spider": "cinemark", "addr:full": "2103 Lantern Ridge Drive", "addr:city": "Richmond", "addr:state": "KY", "addr:postcode": "40475", "addr:country": "US", "name": "Cinemark At Richmond Centre", "phone": "859-626-7577", "website": "https://www.cinemark.com/theatres/ky-richmond/cinemark-at-richmond-centre", "brand": "Cinemark"}, "geometry": {"type": "Point", "coordinates": [-84.328247, 37.737434]}},
{"type": "Feature", "id": "FmKc8GW7qscRAY3K-XZo8m3LDbs=", "properties": {"ref": "https://www.cinemark.com/theatres/la-lake-charles/cinemark-lake-charles-and-xd", "@spider": "cinemark", "addr:full": "548 West Prien Lake Road", "addr:city": "Lake Charles", "addr:state": "LA", "addr:postcode": "70601", "addr:country": "US", "name": "Cinemark Lake Charles and XD", "phone": "337-562-0053", "website": "https://www.cinemark.com/theatres/la-lake-charles/cinemark-lake-charles-and-xd", "brand": "Cinemark"}, "geometry": {"type": "Point", "coordinates": [-93.226869, 30.198201]}},
{"type": "Feature", "id": "rZ2O5qae7YiqaU8Tb4-ViYHWpH8=", "properties": {"ref": "https://www.cinemark.com/theatres/mi-ypsilanti/ann-arbor-20-imax", "@spider": "cinemark", "addr:full": "4100 Carpenter Road", "addr:city": "Ypsilanti", "addr:state": "MI", "addr:postcode": "48197", "addr:country": "US", "name": "Ann Arbor 20 + IMAX", "phone": "734-973-8424", "website": "https://www.cinemark.com/theatres/mi-ypsilanti/ann-arbor-20-imax", "brand": "Cinemark"}, "geometry": {"type": "Point", "coordinates": [-83.681075, 42.227451]}},
{"type": "Feature", "id": "9DrYTwBEPDdpEG_HVCAy1055o7A=", "properties": {"ref": "https://www.cinemark.com/theatres/ky-louisville/cinemark-mall-st-matthews-and-xd", "@spider": "cinemark", "addr:full": "5000 Shelbyville Road", "addr:city": "Louisville", "addr:state": "KY", "addr:postcode": "40207", "addr:country": "US", "name": "Cinemark Mall St. Matthews and XD", "phone": "502-259-9649", "website": "https://www.cinemark.com/theatres/ky-louisville/cinemark-mall-st-matthews-and-xd", "brand": "Cinemark"}, "geometry": {"type": "Point", "coordinates": [-85.62507, 38.24905]}},
{"type": "Feature", "id": "Cn_h134v_L5S8vJSag5aUne08tM=", "properties": {"ref": "https://www.cinemark.com/theatres/ky-okolona/preston-crossings-16", "@spider": "cinemark", "addr:full": "9700 Preston Crossing Blvd", "addr:city": "Okolona", "addr:state": "KY", "addr:postcode": "40229", "addr:country": "US", "name": "Preston Crossings 16", "phone": "502-961-9700", "website": "https://www.cinemark.com/theatres/ky-okolona/preston-crossings-16", "brand": "Cinemark"}, "geometry": {"type": "Point", "coordinates": [-85.671585, 38.108222]}},
{"type": "Feature", "id": "QPd_eR5YaF4v3elUbzklBpjRtTQ=", "properties": {"ref": "https://www.cinemark.com/theatres/ky-paducah/cinemark-paducah", "@spider": "cinemark", "addr:full": "5159 Hinkleville Road, Unit 010", "addr:city": "Paducah", "addr:state": "KY", "addr:postcode": "42001", "addr:country": "US", "name": "Cinemark Paducah", "phone": "270-444-9588", "website": "https://www.cinemark.com/theatres/ky-paducah/cinemark-paducah", "brand": "Cinemark"}, "geometry": {"type": "Point", "coordinates": [-88.694935, 37.074258]}},
{"type": "Feature", "id": "sMfDGmIVCaC35kopfuIyJYBQK-8=", "properties": {"ref": "https://www.cinemark.com/theatres/mi-flint/flint-west-14", "@spider": "cinemark", "addr:full": "1591 South Graham Road", "addr:city": "Flint", "addr:state": "MI", "addr:postcode": "48532", "addr:country": "US", "name": "Flint West 14", "phone": "810-732-6668", "website": "https://www.cinemark.com/theatres/mi-flint/flint-west-14", "brand": "Cinemark"}, "geometry": {"type": "Point", "coordinates": [-83.751247, 43.004184]}},
{"type": "Feature", "id": "jN82zWoVnbUrg0pKPt1sDLqhTaU=", "properties": {"ref": "https://www.cinemark.com/theatres/ky-ashland/cinemark-movies-10", "@spider": "cinemark", "addr:full": "400 Winchester Avenue", "addr:city": "Ashland", "addr:state": "KY", "addr:postcode": "41101", "addr:country": "US", "name": "Cinemark Movies 10", "phone": "606-324-3128", "website": "https://www.cinemark.com/theatres/ky-ashland/cinemark-movies-10", "brand": "Cinemark"}, "geometry": {"type": "Point", "coordinates": [-82.655336, 38.486477]}},
{"type": "Feature", "id": "XWXmxl0mgRcQYU9xA_CDGKnB-rs=", "properties": {"ref": "https://www.cinemark.com/theatres/ks-merriam/cinemark-20-and-xd", "@spider": "cinemark", "addr:full": "5500 Antioch", "addr:city": "Merriam", "addr:state": "KS", "addr:postcode": "66202", "addr:country": "US", "name": "Cinemark 20 and XD", "phone": "913-789-7038", "website": "https://www.cinemark.com/theatres/ks-merriam/cinemark-20-and-xd", "brand": "Cinemark"}, "geometry": {"type": "Point", "coordinates": [-94.68647, 39.029502]}},
{"type": "Feature", "id": "_W_N0-vViJJRs0_sZn9zWGfYf5s=", "properties": {"ref": "https://www.cinemark.com/theatres/in-valparaiso/cinemark-at-valparaiso", "@spider": "cinemark", "addr:full": "700 Porter\u2019s Vale Blvd", "addr:city": "Valparaiso", "addr:state": "IN", "addr:postcode": "46383", "addr:country": "US", "name": "Cinemark at Valparaiso", "phone": "219-464-0260", "website": "https://www.cinemark.com/theatres/in-valparaiso/cinemark-at-valparaiso", "brand": "Cinemark"}, "geometry": {"type": "Point", "coordinates": [-87.01588, 41.473464]}},
{"type": "Feature", "id": "rkcW4o5ZgViIcOmZsF48Aio70Y0=", "properties": {"ref": "https://www.cinemark.com/theatres/in-mishawaka/cinemark-movies-6", "@spider": "cinemark", "addr:full": "6424 North Grape Rd.", "addr:city": "Mishawaka", "addr:state": "IN", "addr:postcode": "46545", "addr:country": "US", "name": "Cinemark Movies 6", "website": "https://www.cinemark.com/theatres/in-mishawaka/cinemark-movies-6", "brand": "Cinemark"}},
{"type": "Feature", "id": "FmQHbrhieByvvXy9KGOs0bdrZxc=", "properties": {"ref": "https://www.cinemark.com/theatres/ky-lexington/cinemark-fayette-mall-and-xd", "@spider": "cinemark", "addr:full": "3800 Mall Road", "addr:city": "Lexington", "addr:state": "KY", "addr:postcode": "40503", "addr:country": "US", "name": "Cinemark Fayette Mall and XD", "phone": "859-971-0718", "website": "https://www.cinemark.com/theatres/ky-lexington/cinemark-fayette-mall-and-xd", "brand": "Cinemark"}, "geometry": {"type": "Point", "coordinates": [-84.527913, 37.981601]}},
{"type": "Feature", "id": "-VljkE0HccTUgURIsFMHdwR6nbg=", "properties": {"ref": "https://www.cinemark.com/theatres/in-indianapolis/cinemark-greenwood-corner", "@spider": "cinemark", "addr:full": "1848 E Stop 13 Road", "addr:city": "Indianapolis", "addr:state": "IN", "addr:postcode": "46227", "addr:country": "US", "name": "Cinemark Greenwood Corner", "phone": "317-882-2685", "website": "https://www.cinemark.com/theatres/in-indianapolis/cinemark-greenwood-corner", "brand": "Cinemark"}, "geometry": {"type": "Point", "coordinates": [-86.128614, 39.638348]}},
{"type": "Feature", "id": "55Xi94D3GyXzF3RqbUYLXHaRg78=", "properties": {"ref": "https://www.cinemark.com/theatres/la-west-monroe/cinemark-tinseltown-17", "@spider": "cinemark", "addr:full": "220 Blanchard", "addr:city": "West Monroe", "addr:state": "LA", "addr:postcode": "71291", "addr:country": "US", "name": "Cinemark Tinseltown 17", "phone": "318-398-0882", "website": "https://www.cinemark.com/theatres/la-west-monroe/cinemark-tinseltown-17", "brand": "Cinemark"}, "geometry": {"type": "Point", "coordinates": [-92.162518, 32.509582]}},
{"type": "Feature", "id": "bmCXfO2QoHMaZWBHhsH_lc99MxI=", "properties": {"ref": "https://www.cinemark.com/theatres/il-west-dundee/cinemark-spring-hill-mall-and-xd", "@spider": "cinemark", "addr:full": "2000 Spring Hill Mall", "addr:city": "West Dundee", "addr:state": "IL", "addr:postcode": "60118", "addr:country": "US", "name": "Cinemark Spring Hill Mall and XD", "phone": "847-844-1089", "website": "https://www.cinemark.com/theatres/il-west-dundee/cinemark-spring-hill-mall-and-xd", "brand": "Cinemark"}, "geometry": {"type": "Point", "coordinates": [-88.298475, 42.100816]}},
{"type": "Feature", "id": "yYymJqpnVP5K1LKGDfi2Cxn4IYM=", "properties": {"ref": "https://www.cinemark.com/theatres/il-north-aurora/cinemark-tinseltown-usa", "@spider": "cinemark", "addr:full": "320 South Lincolnway", "addr:city": "North Aurora", "addr:state": "IL", "addr:postcode": "60542", "addr:country": "US", "name": "Cinemark Tinseltown USA", "phone": "630-906-0496", "website": "https://www.cinemark.com/theatres/il-north-aurora/cinemark-tinseltown-usa", "brand": "Cinemark"}, "geometry": {"type": "Point", "coordinates": [-88.322911, 41.792477]}},
{"type": "Feature", "id": "Q5Hl4dpSYuFXQelGfxKuCymjJNQ=", "properties": {"ref": "https://www.cinemark.com/theatres/in-mishawaka/cinemark-movies-14", "@spider": "cinemark", "addr:full": "910 W. Edison Rd", "addr:city": "Mishawaka", "addr:state": "IN", "addr:postcode": "46545", "addr:country": "US", "name": "Cinemark Movies 14", "phone": "574-254-9689", "website": "https://www.cinemark.com/theatres/in-mishawaka/cinemark-movies-14", "brand": "Cinemark"}, "geometry": {"type": "Point", "coordinates": [-86.193651, 41.694759]}},
{"type": "Feature", "id": "uvovQLPymG3JF9nx6SY5kLafeKs=", "properties": {"ref": "https://www.cinemark.com/theatres/il-melrose-park/cinemark-melrose-park", "@spider": "cinemark", "addr:full": "1001 West North Ave", "addr:city": "Melrose Park", "addr:state": "IL", "addr:postcode": "60160", "addr:country": "US", "name": "Cinemark Melrose Park", "phone": "708-338-2294", "website": "https://www.cinemark.com/theatres/il-melrose-park/cinemark-melrose-park", "brand": "Cinemark"}, "geometry": {"type": "Point", "coordinates": [-87.846169, 41.908243]}},
{"type": "Feature", "id": "yql8kwigwlTBGJmZQ3zdyuWee18=", "properties": {"ref": "https://www.cinemark.com/theatres/il-evanston/century-12-evanstoncinearts-6-and-xd", "@spider": "cinemark", "addr:full": "1715 Maple Ave.", "addr:city": "Evanston", "addr:state": "IL", "addr:postcode": "60201", "addr:country": "US", "name": "Century 12 Evanston/CineArts 6 and XD", "phone": "847-491-9751", "website": "https://www.cinemark.com/theatres/il-evanston/century-12-evanstoncinearts-6-and-xd", "brand": "Cinemark"}, "geometry": {"type": "Point", "coordinates": [-87.684586, 42.048827]}},
{"type": "Feature", "id": "fH1uulZ8B83zC_VuvIfzMfpqX4k=", "properties": {"ref": "https://www.cinemark.com/theatres/il-woodridge/cinemark-seven-bridges-and-imax", "@spider": "cinemark", "addr:full": "6500 Route 53", "addr:city": "Woodridge", "addr:state": "IL", "addr:postcode": "60517", "addr:country": "US", "name": "Cinemark @ Seven Bridges and IMAX", "phone": "630-663-8892", "website": "https://www.cinemark.com/theatres/il-woodridge/cinemark-seven-bridges-and-imax", "brand": "Cinemark"}, "geometry": {"type": "Point", "coordinates": [-88.067823, 41.766448]}},
{"type": "Feature", "id": "DsD-8qUgksqVeWbC-GKhTdI0PL0=", "properties": {"ref": "https://www.cinemark.com/theatres/il-deer-park/century-16-deer-park", "@spider": "cinemark", "addr:full": "21600 W. Field Parkway", "addr:city": "Deer Park", "addr:state": "IL", "addr:postcode": "60010", "addr:country": "US", "name": "Century 16 Deer Park", "phone": "847-438-8518", "website": "https://www.cinemark.com/theatres/il-deer-park/century-16-deer-park", "brand": "Cinemark"}, "geometry": {"type": "Point", "coordinates": [-88.054793, 42.157466]}},
{"type": "Feature", "id": "trSTg2ZBNqri4oZgJSTagIrkz8g=", "properties": {"ref": "https://www.cinemark.com/theatres/id-meridian/cinemark-majestic-cinemas", "@spider": "cinemark", "addr:full": "2140 E Cinema Drive", "addr:city": "Meridian", "addr:state": "ID", "addr:postcode": "83642", "addr:country": "US", "name": "Cinemark Majestic Cinemas", "phone": "(208) 893-5028", "website": "https://www.cinemark.com/theatres/id-meridian/cinemark-majestic-cinemas", "brand": "Cinemark"}, "geometry": {"type": "Point", "coordinates": [-116.368955, 43.592378]}},
{"type": "Feature", "id": "DzK0F27XP6LnnSzAz5tLrlX9A9c=", "properties": {"ref": "https://www.cinemark.com/theatres/ky-florence/florence-14", "@spider": "cinemark", "addr:full": "7860 Mall Road", "addr:city": "Florence", "addr:state": "KY", "addr:postcode": "41042", "addr:country": "US", "name": "Florence 14", "phone": "859-282-6619", "website": "https://www.cinemark.com/theatres/ky-florence/florence-14", "brand": "Cinemark"}, "geometry": {"type": "Point", "coordinates": [-84.647303, 38.993766]}},
{"type": "Feature", "id": "ig0In0xFFbXOLxCr-V50LmObuUs=", "properties": {"ref": "https://www.cinemark.com/theatres/la-lake-charles/cinemark-movie-bistro-lake-charles", "@spider": "cinemark", "addr:full": "3416 Derek Drive", "addr:city": "Lake Charles", "addr:state": "LA", "addr:postcode": "70607", "addr:country": "US", "name": "Cinemark Movie Bistro Lake Charles", "phone": "337-477-3913", "website": "https://www.cinemark.com/theatres/la-lake-charles/cinemark-movie-bistro-lake-charles", "brand": "Cinemark"}, "geometry": {"type": "Point", "coordinates": [-93.1768217, 30.1942479]}},
{"type": "Feature", "id": "Pbf5qsMw1SoSqA50unsY3fVFmps=", "properties": {"ref": "https://www.cinemark.com/theatres/ia-west-des-moines/century-20-jordan-creek-and-xd", "@spider": "cinemark", "addr:full": "101 Jordan Creek Parkway", "addr:city": "West Des Moines", "addr:state": "IA", "addr:postcode": "50266", "addr:country": "US", "name": "Century 20 Jordan Creek and XD", "phone": "515-267-8981", "website": "https://www.cinemark.com/theatres/ia-west-des-moines/century-20-jordan-creek-and-xd", "brand": "Cinemark"}, "geometry": {"type": "Point", "coordinates": [-93.809016, 41.568902]}},
{"type": "Feature", "id": "m9yRNRbIEKqB5vt8T0Mp32J0URo=", "properties": {"ref": "https://www.cinemark.com/theatres/il-bloomingdale/century-stratford-square", "@spider": "cinemark", "addr:full": "Located at Stratford Square Mall", "addr:city": "Bloomingdale", "addr:state": "IL", "addr:postcode": "60108", "addr:country": "US", "name": "Century Stratford Square", "phone": "630-893-0271", "website": "https://www.cinemark.com/theatres/il-bloomingdale/century-stratford-square", "brand": "Cinemark"}, "geometry": {"type": "Point", "coordinates": [-88.115429, 41.951939]}},
{"type": "Feature", "id": "Mw0YosLHILQ90ePgqXLj6F12FYA=", "properties": {"ref": "https://www.cinemark.com/theatres/ia-altoona/cinemark-altoona-and-xd", "@spider": "cinemark", "addr:full": "2227 Adventureland Dr. NW", "addr:city": "Altoona", "addr:state": "IA", "addr:postcode": "50009", "addr:country": "US", "name": "Cinemark Altoona and XD", "phone": "515-967-2236", "website": "https://www.cinemark.com/theatres/ia-altoona/cinemark-altoona-and-xd", "brand": "Cinemark"}, "geometry": {"type": "Point", "coordinates": [-93.4913557, 41.660299]}},
{"type": "Feature", "id": "k-0O4e7Tcl--WHQfglXSeKqN2BU=", "properties": {"ref": "https://www.cinemark.com/theatres/ma-springfield/eastfield-16", "@spider": "cinemark", "addr:full": "1655 Boston Road", "addr:city": "Springfield", "addr:state": "MA", "addr:postcode": "01129", "addr:country": "US", "name": "Eastfield 16", "phone": "413-543-3440", "website": "https://www.cinemark.com/theatres/ma-springfield/eastfield-16", "brand": "Cinemark"}, "geometry": {"type": "Point", "coordinates": [-72.48642, 42.140719]}},
{"type": "Feature", "id": "x_wTS-0VlHo9fZz54W4PveS7bXU=", "properties": {"ref": "https://www.cinemark.com/theatres/ga-fayetteville/cinemark-movies-10", "@spider": "cinemark", "addr:full": "157 Banks Station", "addr:city": "Fayetteville", "addr:state": "GA", "addr:postcode": "30214", "addr:country": "US", "name": "Cinemark Movies 10", "phone": "770-460-0308", "website": "https://www.cinemark.com/theatres/ga-fayetteville/cinemark-movies-10", "brand": "Cinemark"}, "geometry": {"type": "Point", "coordinates": [-84.45013, 33.463227]}},
{"type": "Feature", "id": "_q9sWEHDC6V-x4XF_m-uQIB6YEM=", "properties": {"ref": "https://www.cinemark.com/theatres/il-bourbonnais/cinemark-movies-10", "@spider": "cinemark", "addr:full": "1600 North State Route 50", "addr:city": "Bourbonnais", "addr:state": "IL", "addr:postcode": "60914", "addr:country": "US", "name": "Cinemark Movies 10", "phone": "815-933-5983", "website": "https://www.cinemark.com/theatres/il-bourbonnais/cinemark-movies-10", "brand": "Cinemark"}, "geometry": {"type": "Point", "coordinates": [-87.851223, 41.173612]}},
{"type": "Feature", "id": "iN657dby6n9SxIeinYyDk3VBbv0=", "properties": {"ref": "https://www.cinemark.com/theatres/ia-davenport/davenport-53rd-18-imax", "@spider": "cinemark", "addr:full": "3601 East 53rd Street", "addr:city": "Davenport", "addr:state": "IA", "addr:postcode": "52807", "addr:country": "US", "name": "Davenport 53rd 18 + IMAX", "phone": "563-441-0242", "website": "https://www.cinemark.com/theatres/ia-davenport/davenport-53rd-18-imax", "brand": "Cinemark"}, "geometry": {"type": "Point", "coordinates": [-90.518407, 41.572957]}},
{"type": "Feature", "id": "72_MS8ajempKMKfs8rZJRAIxA4A=", "properties": {"ref": "https://www.cinemark.com/theatres/fl-orlando/universal-cinemark-at-citywalk", "@spider": "cinemark", "addr:full": "6000 Universal Blvd ", "addr:city": "Orlando", "addr:state": "FL", "addr:postcode": "32819", "addr:country": "US", "name": "Universal Cinemark at CityWalk", "phone": "407-354-3374", "website": "https://www.cinemark.com/theatres/fl-orlando/universal-cinemark-at-citywalk", "brand": "Cinemark"}, "geometry": {"type": "Point", "coordinates": [-81.4698973, 28.4735695]}},
{"type": "Feature", "id": "koWfEt7j_S7cdxYxndMnoPzavVY=", "properties": {"ref": "https://www.cinemark.com/theatres/ky-louisville/cinemark-tinseltown-usa-and-xd", "@spider": "cinemark", "addr:full": "4400 Towne Center Drive", "addr:city": "Louisville", "addr:state": "KY", "addr:postcode": "40241", "addr:country": "US", "name": "Cinemark Tinseltown USA and XD", "phone": "502-326-9272", "website": "https://www.cinemark.com/theatres/ky-louisville/cinemark-tinseltown-usa-and-xd", "brand": "Cinemark"}, "geometry": {"type": "Point", "coordinates": [-85.557555, 38.300016]}},
{"type": "Feature", "id": "bsorvGz6MVU68g47dXoee49hvWI=", "properties": {"ref": "https://www.cinemark.com/theatres/fl-orlando/cinemark-orlando-and-xd", "@spider": "cinemark", "addr:full": "5150 International Drive", "addr:city": "Orlando", "addr:state": "FL", "addr:postcode": "32819", "addr:country": "US", "name": "Cinemark Orlando and XD", "phone": "407-352-1042", "website": "https://www.cinemark.com/theatres/fl-orlando/cinemark-orlando-and-xd", "brand": "Cinemark"}, "geometry": {"type": "Point", "coordinates": [-81.450505, 28.47033]}},
{"type": "Feature", "id": "k2DaCZOxQnFYHE_9M_UCTcOlHEM=", "properties": {"ref": "https://www.cinemark.com/theatres/ga-fayetteville/cinemark-tinseltown-17-and-xd", "@spider": "cinemark", "addr:full": "134 Pavilion Parkway", "addr:city": "Fayetteville", "addr:state": "GA", "addr:postcode": "30214", "addr:country": "US", "name": "Cinemark Tinseltown 17 and XD", "phone": "770-460-7226", "website": "https://www.cinemark.com/theatres/ga-fayetteville/cinemark-tinseltown-17-and-xd", "brand": "Cinemark"}, "geometry": {"type": "Point", "coordinates": [-84.440831, 33.480056]}},
{"type": "Feature", "id": "xlcjtNnzie-QcRRw6gS5lA5OYZw=", "properties": {"ref": "https://www.cinemark.com/theatres/fl-st-johns/cinemark-durbin-park-and-xd", "@spider": "cinemark", "addr:full": "435 Durbin Pavilion Drive", "addr:city": "St. Johns", "addr:state": "FL", "addr:postcode": "32259", "addr:country": "US", "name": "Cinemark Durbin Park and XD", "phone": "904-230-4622", "website": "https://www.cinemark.com/theatres/fl-st-johns/cinemark-durbin-park-and-xd", "brand": "Cinemark"}, "geometry": {"type": "Point", "coordinates": [-81.521011, 30.098343]}},
{"type": "Feature", "id": "wFV3roNgVMWTtteBTx49uTppiyY=", "properties": {"ref": "https://www.cinemark.com/theatres/ia-ames/cinemark-movies-12", "@spider": "cinemark", "addr:full": "1317 Buckeye Ave", "addr:city": "Ames", "addr:state": "IA", "addr:postcode": "50010", "addr:country": "US", "name": "Cinemark Movies 12", "phone": "515-232-5066", "website": "https://www.cinemark.com/theatres/ia-ames/cinemark-movies-12", "brand": "Cinemark"}, "geometry": {"type": "Point", "coordinates": [-93.611528, 42.010162]}},
{"type": "Feature", "id": "aQ9VI24JgowjhS9h6MOjqYfFRvg=", "properties": {"ref": "https://www.cinemark.com/theatres/fl-lakeland/cinemark-lakeland-square-mall-and-xd", "@spider": "cinemark", "addr:full": "3800 US Highway 98 N", "addr:city": "Lakeland", "addr:state": "FL", "addr:postcode": "33809", "addr:country": "US", "name": "Cinemark Lakeland Square Mall and XD", "phone": "863-859-3140", "website": "https://www.cinemark.com/theatres/fl-lakeland/cinemark-lakeland-square-mall-and-xd", "brand": "Cinemark"}, "geometry": {"type": "Point", "coordinates": [-81.978279, 28.091024]}},
{"type": "Feature", "id": "jW2QGKh5aGK9rHdXAko7BG3U23U=", "properties": {"ref": "https://www.cinemark.com/theatres/fl-jacksonville/cinemark-tinseltown-and-xd", "@spider": "cinemark", "addr:full": "4535 Southside Blvd", "addr:city": "Jacksonville", "addr:state": "FL", "addr:postcode": "32216", "addr:country": "US", "name": "Cinemark Tinseltown and XD", "phone": "904-998-2122", "website": "https://www.cinemark.com/theatres/fl-jacksonville/cinemark-tinseltown-and-xd", "brand": "Cinemark"}, "geometry": {"type": "Point", "coordinates": [-81.558812, 30.267735]}},
{"type": "Feature", "id": "jc6gqEyeAGBHTk3bfipcLwAKgIA=", "properties": {"ref": "https://www.cinemark.com/theatres/fl-davie/cinemark-paradise-24-and-xd", "@spider": "cinemark", "addr:full": "15601 Sheridan Street", "addr:city": "Davie", "addr:state": "FL", "addr:postcode": "33331", "addr:country": "US", "name": "Cinemark Paradise 24 and XD", "phone": "954-680-3495", "website": "https://www.cinemark.com/theatres/fl-davie/cinemark-paradise-24-and-xd", "brand": "Cinemark"}, "geometry": {"type": "Point", "coordinates": [-80.356064, 26.032251]}},
{"type": "Feature", "id": "vQ6ePSEVteE9Ng81SE4NiiUEIaI=", "properties": {"ref": "https://www.cinemark.com/theatres/il-joliet/cinemark-louis-joliet-mall", "@spider": "cinemark", "addr:full": "3340 Mall Loop Drive", "addr:city": "Joliet", "addr:state": "IL", "addr:postcode": "60431", "addr:country": "US", "name": "Cinemark Louis Joliet Mall", "phone": "815-267-8832", "website": "https://www.cinemark.com/theatres/il-joliet/cinemark-louis-joliet-mall", "brand": "Cinemark"}, "geometry": {"type": "Point", "coordinates": [-88.16421, 41.578182]}},
{"type": "Feature", "id": "_85menJQgNcfoORAIl45q1JUpq8=", "properties": {"ref": "https://www.cinemark.com/theatres/ct-milford/cinemark-connecticut-post-14-imax", "@spider": "cinemark", "addr:full": "1201 Boston Post Rd", "addr:city": "Milford", "addr:state": "CT", "addr:postcode": "06460", "addr:country": "US", "name": "Cinemark Connecticut Post 14 + IMAX", "phone": "203-878-8037", "website": "https://www.cinemark.com/theatres/ct-milford/cinemark-connecticut-post-14-imax", "brand": "Cinemark"}, "geometry": {"type": "Point", "coordinates": [-73.03579, 41.236051]}},
{"type": "Feature", "id": "L1AfPZVNybI7GdSvxVMOfDmezTg=", "properties": {"ref": "https://www.cinemark.com/theatres/ct-manchester/cinemark-buckland-hills-18-imax", "@spider": "cinemark", "addr:full": "99 Redstone Road", "addr:city": "Manchester", "addr:state": "CT", "addr:postcode": "06045", "addr:country": "US", "name": "Cinemark Buckland Hills 18 + IMAX", "phone": "860-646-4555", "website": "https://www.cinemark.com/theatres/ct-manchester/cinemark-buckland-hills-18-imax", "brand": "Cinemark"}, "geometry": {"type": "Point", "coordinates": [-72.547724, 41.801035]}},
{"type": "Feature", "id": "yKI4txoo6pM3bdHeNaWp5eHYGnE=", "properties": {"ref": "https://www.cinemark.com/theatres/de-newark/cinemark-christiana-and-xd", "@spider": "cinemark", "addr:full": "1200 Christiana Mall", "addr:city": "Newark", "addr:state": "DE", "addr:postcode": "19702", "addr:country": "US", "name": "Cinemark Christiana and XD", "phone": "302-737-2602", "website": "https://www.cinemark.com/theatres/de-newark/cinemark-christiana-and-xd", "brand": "Cinemark"}, "geometry": {"type": "Point", "coordinates": [-75.653239, 39.682726]}},
{"type": "Feature", "id": "qJtm2swZI14cqNW06OC21N-8uPY=", "properties": {"ref": "https://www.cinemark.com/theatres/fl-jacksonville/cinemark-jacksonville-atlantic-north-and-xd", "@spider": "cinemark", "addr:full": "11567 Atlantic Boulevard", "addr:city": "Jacksonville", "addr:state": "FL", "addr:postcode": "32225", "addr:country": "US", "name": "Cinemark Jacksonville Atlantic North and XD", "phone": "904-915-2091", "website": "https://www.cinemark.com/theatres/fl-jacksonville/cinemark-jacksonville-atlantic-north-and-xd", "brand": "Cinemark"}, "geometry": {"type": "Point", "coordinates": [-81.49670343084176, 30.324297566334394]}},
{"type": "Feature", "id": "n1XBExg-oA2ToD773W0CROm5zpk=", "properties": {"ref": "https://www.cinemark.com/theatres/ct-north-haven/cinemark-north-haven-and-xd", "@spider": "cinemark", "addr:full": "550 Universal Drive", "addr:city": "North Haven", "addr:state": "CT", "addr:postcode": "06473", "addr:country": "US", "name": "Cinemark North Haven and XD", "phone": "203-234-8100", "website": "https://www.cinemark.com/theatres/ct-north-haven/cinemark-north-haven-and-xd", "brand": "Cinemark"}, "geometry": {"type": "Point", "coordinates": [-72.8736075, 41.3590354]}},
{"type": "Feature", "id": "-R4rDKece0n_M80AcoOZDxGhq_U=", "properties": {"ref": "https://www.cinemark.com/theatres/co-pueblo/cinemark-tinseltown-pueblo", "@spider": "cinemark", "addr:full": "4140 North Freeway", "addr:city": "Pueblo", "addr:state": "CO", "addr:postcode": "81008", "addr:country": "US", "name": "Cinemark Tinseltown Pueblo", "phone": "719-562-9053", "website": "https://www.cinemark.com/theatres/co-pueblo/cinemark-tinseltown-pueblo", "brand": "Cinemark"}, "geometry": {"type": "Point", "coordinates": [-104.614325, 38.311801]}},
{"type": "Feature", "id": "CGn-0jktHTHMMC3yOwWfEFhM21E=", "properties": {"ref": "https://www.cinemark.com/theatres/fl-boynton-beach/cinemark-boynton-beach-14-and-xd", "@spider": "cinemark", "addr:full": "1151 N. Congress Avenue", "addr:city": "Boynton Beach", "addr:state": "FL", "addr:postcode": "33426", "addr:country": "US", "name": "Cinemark Boynton Beach 14 and XD", "phone": "561-752-9797", "website": "https://www.cinemark.com/theatres/fl-boynton-beach/cinemark-boynton-beach-14-and-xd", "brand": "Cinemark"}, "geometry": {"type": "Point", "coordinates": [-80.090815, 26.537513]}},
{"type": "Feature", "id": "QXsithI24MyWn-GXHc5IvUbJ-I0=", "properties": {"ref": "https://www.cinemark.com/theatres/de-wilmington/cinemark-movies-10", "@spider": "cinemark", "addr:full": "1796 W. Newport Pike", "addr:city": "Wilmington", "addr:state": "DE", "addr:postcode": "19804", "addr:country": "US", "name": "Cinemark Movies 10", "phone": "302-994 7075", "website": "https://www.cinemark.com/theatres/de-wilmington/cinemark-movies-10", "brand": "Cinemark"}, "geometry": {"type": "Point", "coordinates": [-75.630595, 39.715829]}},
{"type": "Feature", "id": "0DO0_F9PO6cMdmwu8b_I38C7wyQ=", "properties": {"ref": "https://www.cinemark.com/theatres/fl-boca-raton/cinemark-palace-20-and-xd", "@spider": "cinemark", "addr:full": "3200 Airport Road", "addr:city": "Boca Raton", "addr:state": "FL", "addr:postcode": "33431", "addr:country": "US", "name": "Cinemark Palace 20 and XD", "phone": "561-395-4695", "website": "https://www.cinemark.com/theatres/fl-boca-raton/cinemark-palace-20-and-xd", "brand": "Cinemark"}, "geometry": {"type": "Point", "coordinates": [-80.113217, 26.376463]}},
{"type": "Feature", "id": "CtNvbyNGABIp0Ss0QruOosOa99Y=", "properties": {"ref": "https://www.cinemark.com/theatres/co-fort-collins/cinemark-movie-bistro-and-xd", "@spider": "cinemark", "addr:full": "335 E. Foothills Parkway", "addr:city": "Fort Collins", "addr:state": "CO", "addr:postcode": "80525", "addr:country": "US", "name": "Cinemark Movie Bistro and XD", "phone": "970-207-4009", "website": "https://www.cinemark.com/theatres/co-fort-collins/cinemark-movie-bistro-and-xd", "brand": "Cinemark"}, "geometry": {"type": "Point", "coordinates": [-105.0742255, 40.5442772]}},
{"type": "Feature", "id": "MYkMCfZ41iRBmcXoWR3MNkKqTNI=", "properties": {"ref": "https://www.cinemark.com/theatres/co-boulder/century-boulder", "@spider": "cinemark", "addr:full": "Located at Twenty Ninth Street", "addr:city": "Boulder", "addr:state": "CO", "addr:postcode": "80301", "addr:country": "US", "name": "Century Boulder", "phone": "303-444-0583", "website": "https://www.cinemark.com/theatres/co-boulder/century-boulder", "brand": "Cinemark"}, "geometry": {"type": "Point", "coordinates": [-105.256123, 40.016802]}},
{"type": "Feature", "id": "rP9hxJA1YB1ez4A3KrSjeu_o-pM=", "properties": {"ref": "https://www.cinemark.com/theatres/co-aurora/century-aurora-and-xd", "@spider": "cinemark", "addr:full": "14300 East Alameda Ave.", "addr:city": "Aurora", "addr:state": "CO", "addr:postcode": "80012", "addr:country": "US", "name": "Century Aurora and XD", "phone": "303-363-0300", "website": "https://www.cinemark.com/theatres/co-aurora/century-aurora-and-xd", "brand": "Cinemark"}, "geometry": {"type": "Point", "coordinates": [-104.821337, 39.710895]}},
{"type": "Feature", "id": "emUOUEwej7u6HR_JRCEb8WHrCXE=", "properties": {"ref": "https://www.cinemark.com/theatres/ca-yuba-city/cinemark-yuba-city", "@spider": "cinemark", "addr:full": "1410 Whyler Road", "addr:city": "Yuba City", "addr:state": "CA", "addr:postcode": "95993", "addr:country": "US", "name": "Cinemark Yuba City", "phone": "530-751-2850", "website": "https://www.cinemark.com/theatres/ca-yuba-city/cinemark-yuba-city", "brand": "Cinemark"}, "geometry": {"type": "Point", "coordinates": [-121.636376, 39.13087]}},
{"type": "Feature", "id": "1Ik4bWqr7AOerT8mjtSy0QKHBrc=", "properties": {"ref": "https://www.cinemark.com/theatres/ca-woodland/cinemark-movies-5", "@spider": "cinemark", "addr:full": "1579-a East St", "addr:city": "Woodland", "addr:state": "CA", "addr:postcode": "95776", "addr:country": "US", "name": "Cinemark Movies 5", "phone": "530-661-0769", "website": "https://www.cinemark.com/theatres/ca-woodland/cinemark-movies-5", "brand": "Cinemark"}, "geometry": {"type": "Point", "coordinates": [-121.765586, 38.660508]}},
{"type": "Feature", "id": "EzsBbIilyGSDg_vraESMnnoYc3M=", "properties": {"ref": "https://www.cinemark.com/theatres/co-lakewood/century-16-bel-mar-and-xd", "@spider": "cinemark", "addr:full": "440 S. Teller St.", "addr:city": "Lakewood", "addr:state": "CO", "addr:postcode": "80226", "addr:country": "US", "name": "Century 16 Bel Mar and XD", "phone": "303-935-3238", "website": "https://www.cinemark.com/theatres/co-lakewood/century-16-bel-mar-and-xd", "brand": "Cinemark"}, "geometry": {"type": "Point", "coordinates": [-105.07677, 39.708433]}},
{"type": "Feature", "id": "kwWR9gB8QwTO35RemjkPlfjZ85o=", "properties": {"ref": "https://www.cinemark.com/theatres/co-colorado-springs/cinemark-tinseltown-usa-and-xd", "@spider": "cinemark", "addr:full": "1545 E. Cheyenne Mountain Blvd.", "addr:city": "Colorado Springs", "addr:state": "CO", "addr:postcode": "80906", "addr:country": "US", "name": "Cinemark Tinseltown USA and XD", "phone": "719-576-5082", "website": "https://www.cinemark.com/theatres/co-colorado-springs/cinemark-tinseltown-usa-and-xd", "brand": "Cinemark"}, "geometry": {"type": "Point", "coordinates": [-104.798885, 38.790682]}},
{"type": "Feature", "id": "vFsWMVUDnzxqcb_YqeglNvhwwK0=", "properties": {"ref": "https://www.cinemark.com/theatres/ca-walnut-creek/walnut-creek-14-and-xd", "@spider": "cinemark", "addr:full": "1201 Locust Street", "addr:city": "Walnut Creek", "addr:state": "CA", "addr:postcode": "94596", "addr:country": "US", "name": "Walnut Creek 14 and XD", "phone": "925-937-7031", "website": "https://www.cinemark.com/theatres/ca-walnut-creek/walnut-creek-14-and-xd", "brand": "Cinemark"}, "geometry": {"type": "Point", "coordinates": [-122.06154, 37.896268]}},
{"type": "Feature", "id": "OOrTIrzhH86z_ev-NgpRej0UMvk=", "properties": {"ref": "https://www.cinemark.com/theatres/ca-victorville/cinemark-16-victorville-and-xd", "@spider": "cinemark", "addr:full": "14470 Bear Valley Rd", "addr:city": "Victorville", "addr:state": "CA", "addr:postcode": "92392", "addr:country": "US", "name": "Cinemark 16 Victorville and XD", "phone": "760-243-2037", "website": "https://www.cinemark.com/theatres/ca-victorville/cinemark-16-victorville-and-xd", "brand": "Cinemark"}, "geometry": {"type": "Point", "coordinates": [-117.349748, 34.470476]}},
{"type": "Feature", "id": "mnR4ICCtWyHHHwdMhE_cQp0a950=", "properties": {"ref": "https://www.cinemark.com/theatres/ca-victorville/cinemark-movies-10", "@spider": "cinemark", "addr:full": "12353 Mariposa Rd.", "addr:city": "Victorville", "addr:state": "CA", "addr:postcode": "92392", "addr:country": "US", "name": "Cinemark Movies 10", "website": "https://www.cinemark.com/theatres/ca-victorville/cinemark-movies-10", "brand": "Cinemark"}, "geometry": {"type": "Point", "coordinates": [-117.34174, 34.475523]}},
{"type": "Feature", "id": "kU_uLC1mld6StfvBxzYFgMsVRVI=", "properties": {"ref": "https://www.cinemark.com/theatres/co-colorado-springs/cinemark-carefree-circle-and-imax", "@spider": "cinemark", "addr:full": "3305 Cinema Point", "addr:city": "Colorado Springs", "addr:state": "CO", "addr:postcode": "80922", "addr:country": "US", "name": "Cinemark Carefree Circle and IMAX", "phone": "719-596-2173", "website": "https://www.cinemark.com/theatres/co-colorado-springs/cinemark-carefree-circle-and-imax", "brand": "Cinemark"}, "geometry": {"type": "Point", "coordinates": [-104.716739, 38.880916]}},
{"type": "Feature", "id": "rnsB2ElFzuSo_LCczywCQaM3hJY=", "properties": {"ref": "https://www.cinemark.com/theatres/ca-san-rafael/century-regency", "@spider": "cinemark", "addr:full": "280 Smith Ranch Road", "addr:city": "San Rafael", "addr:state": "CA", "addr:postcode": "94903", "addr:country": "US", "name": "Century Regency", "phone": "415-479-6496", "website": "https://www.cinemark.com/theatres/ca-san-rafael/century-regency", "brand": "Cinemark"}, "geometry": {"type": "Point", "coordinates": [-122.520537, 38.025471]}},
{"type": "Feature", "id": "QU2f95R5jnU1nYPxi6QUPVMyrzo=", "properties": {"ref": "https://www.cinemark.com/theatres/ca-san-rafael/century-northgate", "@spider": "cinemark", "addr:full": "7000 Northgate Drive", "addr:city": "San Rafael", "addr:state": "CA", "addr:postcode": "94903", "addr:country": "US", "name": "Century Northgate", "phone": "415-491-1314", "website": "https://www.cinemark.com/theatres/ca-san-rafael/century-northgate", "brand": "Cinemark"}, "geometry": {"type": "Point", "coordinates": [-122.544094, 38.002534]}},
{"type": "Feature", "id": "DktPO3tK5iRjcUm8LjUBCSShBHQ=", "properties": {"ref": "https://www.cinemark.com/theatres/ca-san-mateo/century-12-san-mateo", "@spider": "cinemark", "addr:full": "320 East 2nd Avenue", "addr:city": "San Mateo", "addr:state": "CA", "addr:postcode": "94010", "addr:country": "US", "name": "Century 12 San Mateo", "phone": "650-558-0512", "website": "https://www.cinemark.com/theatres/ca-san-mateo/century-12-san-mateo", "brand": "Cinemark"}, "geometry": {"type": "Point", "coordinates": [-122.322831, 37.56636]}},
{"type": "Feature", "id": "S2SuJIzoyVsd3Gep2c4hQ7bk0-c=", "properties": {"ref": "https://www.cinemark.com/theatres/co-fort-collins/cinemark-fort-collins", "@spider": "cinemark", "addr:full": "4721 South Timberline Rd", "addr:city": "Fort Collins", "addr:state": "CO", "addr:postcode": "80528", "addr:country": "US", "name": "Cinemark Fort Collins", "phone": "970-377-0782", "website": "https://www.cinemark.com/theatres/co-fort-collins/cinemark-fort-collins", "brand": "Cinemark"}, "geometry": {"type": "Point", "coordinates": [-105.039339, 40.521547]}},
{"type": "Feature", "id": "CJxdc9ad_m417A30WtdK95tOdnQ=", "properties": {"ref": "https://www.cinemark.com/theatres/ca-union-city/century-25-union-landing-and-xd", "@spider": "cinemark", "addr:full": "32100 Union Landing", "addr:city": "Union City", "addr:state": "CA", "addr:postcode": "94587", "addr:country": "US", "name": "Century 25 Union Landing and XD", "phone": "510-487-9347", "website": "https://www.cinemark.com/theatres/ca-union-city/century-25-union-landing-and-xd", "brand": "Cinemark"}, "geometry": {"type": "Point", "coordinates": [-122.065764, 37.600117]}},
{"type": "Feature", "id": "YjgZ9I9mkhYu4jNc7y0VHyFwTPI=", "properties": {"ref": "https://www.cinemark.com/theatres/ca-tracy/cinemark-movies-14", "@spider": "cinemark", "addr:full": "3300 N. Naglee Rd.", "addr:city": "Tracy", "addr:state": "CA", "addr:postcode": "95376", "addr:country": "US", "name": "Cinemark Movies 14", "phone": "209-833-8897", "website": "https://www.cinemark.com/theatres/ca-tracy/cinemark-movies-14", "brand": "Cinemark"}, "geometry": {"type": "Point", "coordinates": [-121.462254, 37.759955]}},
{"type": "Feature", "id": "pnJTzuI-BaeTUXDoF_gg-IeSwmw=", "properties": {"ref": "https://www.cinemark.com/theatres/ca-vallejo/century-14-vallejo", "@spider": "cinemark", "addr:full": "109 Plaza Dr.", "addr:city": "Vallejo", "addr:state": "CA", "addr:postcode": "94591", "addr:country": "US", "name": "Century 14 Vallejo", "phone": "707-553-1205", "website": "https://www.cinemark.com/theatres/ca-vallejo/century-14-vallejo", "brand": "Cinemark"}, "geometry": {"type": "Point", "coordinates": [-122.217924, 38.134588]}},
{"type": "Feature", "id": "wiYQ6GIbqAXYBnU5I62FCi6v-tA=", "properties": {"ref": "https://www.cinemark.com/theatres/ct-enfield/enfield-12", "@spider": "cinemark", "addr:full": "90 Elm Street", "addr:city": "Enfield", "addr:state": "CT", "addr:postcode": "06082", "addr:country": "US", "name": "Enfield 12", "phone": "860-741-6053", "website": "https://www.cinemark.com/theatres/ct-enfield/enfield-12", "brand": "Cinemark"}, "geometry": {"type": "Point", "coordinates": [-72.58063, 41.994745]}},
{"type": "Feature", "id": "X0TG8KNiOj8cupH0NcjGwrAkQB8=", "properties": {"ref": "https://www.cinemark.com/theatres/ca-san-jose/cinearts-santana-row", "@spider": "cinemark", "addr:full": "3088 Olsen Drive", "addr:city": "San Jose", "addr:state": "CA", "addr:postcode": "95128", "addr:country": "US", "name": "CineArts Santana Row", "phone": "408-554-7010", "website": "https://www.cinemark.com/theatres/ca-san-jose/cinearts-santana-row", "brand": "Cinemark"}, "geometry": {"type": "Point", "coordinates": [-121.948645, 37.319123]}},
{"type": "Feature", "id": "REZAcc_LRFUztvv8No7yYgmv59o=", "properties": {"ref": "https://www.cinemark.com/theatres/ca-san-francisco/century-san-francisco-centre-9-and-xd", "@spider": "cinemark", "addr:full": "845 Market St.", "addr:city": "San Francisco", "addr:state": "CA", "addr:postcode": "94103", "addr:country": "US", "name": "Century San Francisco Centre 9 and XD", "phone": "415-538-8422", "website": "https://www.cinemark.com/theatres/ca-san-francisco/century-san-francisco-centre-9-and-xd", "brand": "Cinemark"}, "geometry": {"type": "Point", "coordinates": [-122.407016, 37.784603]}},
{"type": "Feature", "id": "1M54O39aOXZW922Zyx_WaPh-ETk=", "properties": {"ref": "https://www.cinemark.com/theatres/ca-san-jose/century-20-oakridge-and-xd", "@spider": "cinemark", "addr:full": "925 Blossom Hill Rd.", "addr:city": "San Jose", "addr:state": "CA", "addr:postcode": "95123", "addr:country": "US", "name": "Century 20 Oakridge and XD", "phone": "408-225-7340", "website": "https://www.cinemark.com/theatres/ca-san-jose/century-20-oakridge-and-xd", "brand": "Cinemark"}, "geometry": {"type": "Point", "coordinates": [-121.863312, 37.250621]}},
{"type": "Feature", "id": "a8hG3qkuG9Ad4dHAazDZCH8a_9M=", "properties": {"ref": "https://www.cinemark.com/theatres/ca-san-leandro/century-16-bayfair-mall", "@spider": "cinemark", "addr:full": "15555 East 14th Street", "addr:city": "San Leandro", "addr:state": "CA", "addr:postcode": "94578", "addr:country": "US", "name": "Century 16 Bayfair Mall", "phone": "510-276-9684", "website": "https://www.cinemark.com/theatres/ca-san-leandro/century-16-bayfair-mall", "brand": "Cinemark"}, "geometry": {"type": "Point", "coordinates": [-122.124991, 37.702572]}},
{"type": "Feature", "id": "1B-iwznxHCY8bZg74wVV44XhVqo=", "properties": {"ref": "https://www.cinemark.com/theatres/ca-sacramento/century-arden-14-and-xd", "@spider": "cinemark", "addr:full": "1590 Ethan Way", "addr:city": "Sacramento", "addr:state": "CA", "addr:postcode": "95825", "addr:country": "US", "name": "Century Arden 14 and XD", "phone": "916-922-4241", "website": "https://www.cinemark.com/theatres/ca-sacramento/century-arden-14-and-xd", "brand": "Cinemark"}, "geometry": {"type": "Point", "coordinates": [-121.419937, 38.593069]}},
{"type": "Feature", "id": "uz80mw9O1QzOYPPJT8PELhwr0Jo=", "properties": {"ref": "https://www.cinemark.com/theatres/ca-san-bruno/century-at-tanforan-and-xd", "@spider": "cinemark", "addr:full": "The Shops at Tanforan", "addr:city": "San Bruno", "addr:state": "CA", "addr:postcode": "94066", "addr:country": "US", "name": "Century at Tanforan and XD", "phone": "650-588-6052", "website": "https://www.cinemark.com/theatres/ca-san-bruno/century-at-tanforan-and-xd", "brand": "Cinemark"}, "geometry": {"type": "Point", "coordinates": [-122.417798, 37.637907]}},
{"type": "Feature", "id": "jQDYLC2BrUkFrtmI8B0rAqC1WPc=", "properties": {"ref": "https://www.cinemark.com/theatres/ca-salinas/century-14-northridge-mall", "@spider": "cinemark", "addr:full": "350 Northridge Shopping Ctr.", "addr:city": "Salinas", "addr:state": "CA", "addr:postcode": "93906", "addr:country": "US", "name": "Century 14 Northridge Mall", "phone": "831-449-4168", "website": "https://www.cinemark.com/theatres/ca-salinas/century-14-northridge-mall", "brand": "Cinemark"}, "geometry": {"type": "Point", "coordinates": [-121.655761, 36.716739]}},
{"type": "Feature", "id": "J8olRPM71XN19WFroIstB9piJW8=", "properties": {"ref": "https://www.cinemark.com/theatres/ca-roseville/cinemark-roseville-galleria-mall-and-xd", "@spider": "cinemark", "addr:full": "1191 Galleria Blvd", "addr:city": "Roseville", "addr:state": "CA", "addr:postcode": "95678", "addr:country": "US", "name": "Cinemark Roseville Galleria Mall and XD ", "phone": "916-771-2750", "website": "https://www.cinemark.com/theatres/ca-roseville/cinemark-roseville-galleria-mall-and-xd", "brand": "Cinemark"}, "geometry": {"type": "Point", "coordinates": [-121.2703943, 38.7743441]}},
{"type": "Feature", "id": "JljgcPAX2GMk4c8NYOAwmM7CRLI=", "properties": {"ref": "https://www.cinemark.com/theatres/ca-rocklin/blue-oaks-century-theatres-and-xd", "@spider": "cinemark", "addr:full": "6692 Lone Tree Blvd", "addr:city": "Rocklin", "addr:state": "CA", "addr:postcode": "95765", "addr:country": "US", "name": "Blue Oaks Century Theatres and XD", "phone": "916-772-1210", "website": "https://www.cinemark.com/theatres/ca-rocklin/blue-oaks-century-theatres-and-xd", "brand": "Cinemark"}, "geometry": {"type": "Point", "coordinates": [-121.292189, 38.797706]}},
{"type": "Feature", "id": "sQVrL9ww8GdW7Rlzs8Vr6vGOiF0=", "properties": {"ref": "https://www.cinemark.com/theatres/ca-richmond/century-hilltop-16", "@spider": "cinemark", "addr:full": "3200 Klose Way", "addr:city": "Richmond", "addr:state": "CA", "addr:postcode": "94806", "addr:country": "US", "name": "Century Hilltop 16", "phone": "510-758-9626", "website": "https://www.cinemark.com/theatres/ca-richmond/century-hilltop-16", "brand": "Cinemark"}, "geometry": {"type": "Point", "coordinates": [-122.322305, 37.98178]}},
{"type": "Feature", "id": "z-4nVDmVgUT3uuhyvSqwD7nchPY=", "properties": {"ref": "https://www.cinemark.com/theatres/ca-ventura/century-10-downtown", "@spider": "cinemark", "addr:full": "555 E. Main St.", "addr:city": "Ventura", "addr:state": "CA", "addr:postcode": "93001", "addr:country": "US", "name": "Century 10 Downtown", "phone": "805-641-6555", "website": "https://www.cinemark.com/theatres/ca-ventura/century-10-downtown", "brand": "Cinemark"}, "geometry": {"type": "Point", "coordinates": [-119.292263, 34.28096]}},
{"type": "Feature", "id": "K8Zj9Ac8dXwImnTYYCI2gdCSw3g=", "properties": {"ref": "https://www.cinemark.com/theatres/ca-sacramento/century-16-greenback-lane-and-xd", "@spider": "cinemark", "addr:full": "6233 Garfield Ave.", "addr:city": "Sacramento", "addr:state": "CA", "addr:postcode": "95841", "addr:country": "US", "name": "Century 16 Greenback Lane and XD", "phone": "916-332-2622", "website": "https://www.cinemark.com/theatres/ca-sacramento/century-16-greenback-lane-and-xd", "brand": "Cinemark"}, "geometry": {"type": "Point", "coordinates": [-121.334093, 38.679894]}},
{"type": "Feature", "id": "f6OH5-BxuoL4lOT_UTkpnsMdPGU=", "properties": {"ref": "https://www.cinemark.com/theatres/ca-redwood-city/redwood-downtown-20-and-xd", "@spider": "cinemark", "addr:full": "825 Middlefield Rd.", "addr:city": "Redwood City", "addr:state": "CA", "addr:postcode": "94063", "addr:country": "US", "name": "Redwood Downtown 20 and XD", "phone": "650-701-1341", "website": "https://www.cinemark.com/theatres/ca-redwood-city/redwood-downtown-20-and-xd", "brand": "Cinemark"}, "geometry": {"type": "Point", "coordinates": [-122.228949, 37.486145]}},
{"type": "Feature", "id": "BjzGTr4iqZyX7aeH-iudxuiyAzg=", "properties": {"ref": "https://www.cinemark.com/theatres/ca-roseville/century-roseville-14-and-xd---now-closed", "@spider": "cinemark", "addr:full": "1555 Eureka Rd.", "addr:city": "Roseville", "addr:state": "CA", "addr:postcode": "95661", "addr:country": "US", "name": "Century Roseville 14 and XD - NOW CLOSED", "phone": "916-797-3466", "website": "https://www.cinemark.com/theatres/ca-roseville/century-roseville-14-and-xd---now-closed", "brand": "Cinemark"}, "geometry": {"type": "Point", "coordinates": [-121.248842, 38.750003]}},
{"type": "Feature", "id": "ImeGp1Z8RqeZUHmTnbIRCGYO9-k=", "properties": {"ref": "https://www.cinemark.com/theatres/ca-pleasant-hill/century-16-downtown-pleasant-hill-and-xd", "@spider": "cinemark", "addr:full": "125 Crescent Drive", "addr:city": "Pleasant Hill", "addr:state": "CA", "addr:postcode": "94523", "addr:country": "US", "name": "Century 16 Downtown Pleasant Hill and XD", "phone": "925-288-1371", "website": "https://www.cinemark.com/theatres/ca-pleasant-hill/century-16-downtown-pleasant-hill-and-xd", "brand": "Cinemark"}, "geometry": {"type": "Point", "coordinates": [-122.061774, 37.944206]}},
{"type": "Feature", "id": "y4hLpru61t03djSs3VeASN4uqT8=", "properties": {"ref": "https://www.cinemark.com/theatres/ca-rialto/cinemark-renaissance-marketplace-and-xd", "@spider": "cinemark", "addr:full": "1355 W Renaissance Parkway", "addr:city": "Rialto", "addr:state": "CA", "addr:postcode": "92376", "addr:country": "US", "name": "Cinemark Renaissance Marketplace and XD", "phone": "909-350-2006", "website": "https://www.cinemark.com/theatres/ca-rialto/cinemark-renaissance-marketplace-and-xd", "brand": "Cinemark"}, "geometry": {"type": "Point", "coordinates": [-117.3980476, 34.1353711]}},
{"type": "Feature", "id": "zeCkcBBh2Z4SLjQCAzVdxLcafzQ=", "properties": {"ref": "https://www.cinemark.com/theatres/ca-redding/cinemark-movies-8", "@spider": "cinemark", "addr:full": "359 Park Marina Circle", "addr:city": "Redding", "addr:state": "CA", "addr:postcode": "96001", "addr:country": "US", "name": "Cinemark Movies 8", "website": "https://www.cinemark.com/theatres/ca-redding/cinemark-movies-8", "brand": "Cinemark"}, "geometry": {"type": "Point", "coordinates": [-122.373637, 40.576549]}},
{"type": "Feature", "id": "o5u596kEZMRdaiCTLMeSa8mMfz4=", "properties": {"ref": "https://www.cinemark.com/theatres/ca-palmdale/cinemark-antelope-valley-mall", "@spider": "cinemark", "addr:full": "1475 W. Avenue P.", "addr:city": "Palmdale", "addr:state": "CA", "addr:postcode": "93551", "addr:country": "US", "name": "Cinemark Antelope Valley Mall", "phone": "661-274-4300", "website": "https://www.cinemark.com/theatres/ca-palmdale/cinemark-antelope-valley-mall", "brand": "Cinemark"}, "geometry": {"type": "Point", "coordinates": [-118.15478, 34.601849]}},
{"type": "Feature", "id": "jQc0ZKlKp4s2fmNwWwEtZUQ7LhU=", "properties": {"ref": "https://www.cinemark.com/theatres/ca-rancho-mirage/century-the-river-and-xd", "@spider": "cinemark", "addr:full": "71800 Hwy 111", "addr:city": "Rancho Mirage", "addr:state": "CA", "addr:postcode": "92270", "addr:country": "US", "name": "Century @ The River and XD", "phone": "760-836-1940", "website": "https://www.cinemark.com/theatres/ca-rancho-mirage/century-the-river-and-xd", "brand": "Cinemark"}, "geometry": {"type": "Point", "coordinates": [-116.412092, 33.741329]}},
{"type": "Feature", "id": "9zmE9vu7LIWmOzk7qedf1Zb7bDg=", "properties": {"ref": "https://www.cinemark.com/theatres/ca-oxnard/century-riverpark-16-and-xd", "@spider": "cinemark", "addr:full": "2766 Seaglass Way", "addr:city": "Oxnard", "addr:state": "CA", "addr:postcode": "93036", "addr:country": "US", "name": "Century RiverPark 16 and XD", "phone": "805-988-6083", "website": "https://www.cinemark.com/theatres/ca-oxnard/century-riverpark-16-and-xd", "brand": "Cinemark"}, "geometry": {"type": "Point", "coordinates": [-119.174194, 34.24104]}},
{"type": "Feature", "id": "xWYk9hF1HZOD38mRlYMUA__DJVM=", "properties": {"ref": "https://www.cinemark.com/theatres/ca-playa-vista/cinemark-playa-vista-and-xd", "@spider": "cinemark", "addr:full": "12746 W. Jefferson Blvd", "addr:city": "Playa Vista", "addr:state": "CA", "addr:postcode": "90094", "addr:country": "US", "name": "Cinemark Playa Vista and XD", "phone": "310-862-5668", "website": "https://www.cinemark.com/theatres/ca-playa-vista/cinemark-playa-vista-and-xd", "brand": "Cinemark"}, "geometry": {"type": "Point", "coordinates": [-118.4174517, 33.9775666]}},
{"type": "Feature", "id": "GEDk_uSv7rtRsiYP_O8DbwgrWQ8=", "properties": {"ref": "https://www.cinemark.com/theatres/ca-orange/century-stadium-25-and-xd", "@spider": "cinemark", "addr:full": "1701 W. Katella Ave.", "addr:city": "Orange", "addr:state": "CA", "addr:postcode": "92867", "addr:country": "US", "name": "Century Stadium 25 and XD", "phone": "714-532-9558", "website": "https://www.cinemark.com/theatres/ca-orange/century-stadium-25-and-xd", "brand": "Cinemark"}, "geometry": {"type": "Point", "coordinates": [-117.870432, 33.80683]}},
{"type": "Feature", "id": "I3bwoA7WQnTRGDrlTaUU4emCX1I=", "properties": {"ref": "https://www.cinemark.com/theatres/ca-sacramento/century-doco-and-xd", "@spider": "cinemark", "addr:full": "1015 4th Street", "addr:city": "Sacramento", "addr:state": "CA", "addr:postcode": "95814", "addr:country": "US", "name": "Century DOCO and XD", "phone": "916-442-9044", "website": "https://www.cinemark.com/theatres/ca-sacramento/century-doco-and-xd", "brand": "Cinemark"}, "geometry": {"type": "Point", "coordinates": [-121.501725, 38.581651]}},
{"type": "Feature", "id": "Zp4Rttc1dJ5I2uku6OjzQoec1AQ=", "properties": {"ref": "https://www.cinemark.com/theatres/ca-mountain-view/century-cinema-16", "@spider": "cinemark", "addr:full": "1500 N. Shoreline Blvd.", "addr:city": "Mountain View", "addr:state": "CA", "addr:postcode": "94043", "addr:country": "US", "name": "Century Cinema 16", "phone": "650-961-3828", "website": "https://www.cinemark.com/theatres/ca-mountain-view/century-cinema-16", "brand": "Cinemark"}, "geometry": {"type": "Point", "coordinates": [-122.078171, 37.415657]}},
{"type": "Feature", "id": "XHBKXqNhpyO9Z-sgQhgS3eFytME=", "properties": {"ref": "https://www.cinemark.com/theatres/ca-monterey/monterey-13", "@spider": "cinemark", "addr:full": "1700 Del Monte Center", "addr:city": "Monterey", "addr:state": "CA", "addr:postcode": "93940", "addr:country": "US", "name": "Monterey 13", "phone": "831-373-8051", "website": "https://www.cinemark.com/theatres/ca-monterey/monterey-13", "brand": "Cinemark"}, "geometry": {"type": "Point", "coordinates": [-121.90069, 36.584634]}},
{"type": "Feature", "id": "U3hfRzf1D1KWmf10nXtWz6f4A9Q=", "properties": {"ref": "https://www.cinemark.com/theatres/ca-mill-valley/cinearts-sequoia", "@spider": "cinemark", "addr:full": "25 Throckmorton Ave.", "addr:city": "Mill Valley", "addr:state": "CA", "addr:postcode": "94941", "addr:country": "US", "name": "Cin\u00e9Arts Sequoia", "phone": "415-388-1190", "website": "https://www.cinemark.com/theatres/ca-mill-valley/cinearts-sequoia", "brand": "Cinemark"}, "geometry": {"type": "Point", "coordinates": [-122.546883, 37.906555]}},
{"type": "Feature", "id": "n3Ps--wgmW0aMPNM0QkOMeB1W2E=", "properties": {"ref": "https://www.cinemark.com/theatres/ca-north-hollywood/cinemark-north-hollywood", "@spider": "cinemark", "addr:full": "12827 Victory Blvd.", "addr:city": "North Hollywood", "addr:state": "CA", "addr:postcode": "91606", "addr:country": "US", "name": "Cinemark North Hollywood", "phone": "818-508-1943", "website": "https://www.cinemark.com/theatres/ca-north-hollywood/cinemark-north-hollywood", "brand": "Cinemark"}, "geometry": {"type": "Point", "coordinates": [-118.412815, 34.186755]}},
{"type": "Feature", "id": "8N9ElyA7st-7we2RJTWleFII5rs=", "properties": {"ref": "https://www.cinemark.com/theatres/ca-san-francisco/cinearts-at-the-empire", "@spider": "cinemark", "addr:full": "85 West Portal Ave.", "addr:city": "San Francisco", "addr:state": "CA", "addr:postcode": "94127", "addr:country": "US", "name": "Cin\u00e9Arts at the Empire", "phone": "415-661-2539", "website": "https://www.cinemark.com/theatres/ca-san-francisco/cinearts-at-the-empire", "brand": "Cinemark"}, "geometry": {"type": "Point", "coordinates": [-122.466602, 37.739887]}},
{"type": "Feature", "id": "I24EmETiMu3naNDdnRqqDBMzKtI=", "properties": {"ref": "https://www.cinemark.com/theatres/ca-los-angeles/cinemark-18-and-xd", "@spider": "cinemark", "addr:full": "6081 Center Drive, Suite 201", "addr:city": "Los Angeles", "addr:state": "CA", "addr:postcode": "90045", "addr:country": "US", "name": "Cinemark 18 & XD", "phone": "310-568-3394", "website": "https://www.cinemark.com/theatres/ca-los-angeles/cinemark-18-and-xd", "brand": "Cinemark"}, "geometry": {"type": "Point", "coordinates": [-118.391944, 33.978047]}},
{"type": "Feature", "id": "7-s_To4gv2VZKNS9_hzpNI3HC0M=", "properties": {"ref": "https://www.cinemark.com/theatres/ca-long-beach/cinemark-at-the-pike-outlets-and-xd", "@spider": "cinemark", "addr:full": "99 South Pine Avenue", "addr:city": "Long Beach", "addr:state": "CA", "addr:postcode": "90802", "addr:country": "US", "name": "Cinemark At The Pike Outlets and XD", "phone": "562-435-5754", "website": "https://www.cinemark.com/theatres/ca-long-beach/cinemark-at-the-pike-outlets-and-xd", "brand": "Cinemark"}, "geometry": {"type": "Point", "coordinates": [-118.1929633, 33.7645696]}},
{"type": "Feature", "id": "uHEIRRgGztYtcJHIXTce-FLShD4=", "properties": {"ref": "https://www.cinemark.com/theatres/ca-hayward/century-at-hayward", "@spider": "cinemark", "addr:full": "1069 B Street", "addr:city": "Hayward", "addr:state": "CA", "addr:postcode": "94541", "addr:country": "US", "name": "Century at Hayward", "phone": "510-582-1190", "website": "https://www.cinemark.com/theatres/ca-hayward/century-at-hayward", "brand": "Cinemark"}, "geometry": {"type": "Point", "coordinates": [-122.081395, 37.67354]}},
{"type": "Feature", "id": "tZVtGGB63vdZ6ghA4krb7ll5Jrc=", "properties": {"ref": "https://www.cinemark.com/theatres/ca-hanford/cinemark-movies-8", "@spider": "cinemark", "addr:full": "1669 W. Lacey", "addr:city": "Hanford", "addr:state": "CA", "addr:postcode": "93230", "addr:country": "US", "name": "Cinemark Movies 8", "phone": "559-582-1474", "website": "https://www.cinemark.com/theatres/ca-hanford/cinemark-movies-8", "brand": "Cinemark"}, "geometry": {"type": "Point", "coordinates": [-119.671009, 36.328063]}},
{"type": "Feature", "id": "iATRDMu_5LBvsEuj2m2pexONCxQ=", "properties": {"ref": "https://www.cinemark.com/theatres/ca-fremont/century-at-pacific-commons-and-xd", "@spider": "cinemark", "addr:full": "43917 Pacific Commons Blvd", "addr:city": "Fremont", "addr:state": "CA", "addr:postcode": "94538", "addr:country": "US", "name": "Century at Pacific Commons and XD", "phone": "510-651-2859", "website": "https://www.cinemark.com/theatres/ca-fremont/century-at-pacific-commons-and-xd", "brand": "Cinemark"}, "geometry": {"type": "Point", "coordinates": [-121.98257, 37.506344]}},
{"type": "Feature", "id": "224uvOJqjth9_LwJcOtRZtE68h8=", "properties": {"ref": "https://www.cinemark.com/theatres/ca-novato/century-rowland-plaza", "@spider": "cinemark", "addr:full": "44 Rowland Way", "addr:city": "Novato", "addr:state": "CA", "addr:postcode": "94945", "addr:country": "US", "name": "Century Rowland Plaza", "phone": "415-898-3385", "website": "https://www.cinemark.com/theatres/ca-novato/century-rowland-plaza", "brand": "Cinemark"}, "geometry": {"type": "Point", "coordinates": [-122.557468, 38.094731]}},
{"type": "Feature", "id": "OQHpC8PBdWohI7mv-XmYc0YB04k=", "properties": {"ref": "https://www.cinemark.com/theatres/ca-milpitas/century-20-great-mall-and-xd", "@spider": "cinemark", "addr:full": "1010 Great Mall Drive", "addr:city": "Milpitas", "addr:state": "CA", "addr:postcode": "95035", "addr:country": "US", "name": "Century 20 Great Mall and XD", "phone": "408-942-7441", "website": "https://www.cinemark.com/theatres/ca-milpitas/century-20-great-mall-and-xd", "brand": "Cinemark"}, "geometry": {"type": "Point", "coordinates": [-121.899395, 37.418842]}},
{"type": "Feature", "id": "dTXFNtQ3UfRuXYiNYio_Ep5-rsA=", "properties": {"ref": "https://www.cinemark.com/theatres/ca-napa/century-napa-valley-and-xd", "@spider": "cinemark", "addr:full": "195 Gasser Drive", "addr:city": "Napa", "addr:state": "CA", "addr:postcode": "94559", "addr:country": "US", "name": "Century Napa Valley and XD", "phone": "707-251-3780", "website": "https://www.cinemark.com/theatres/ca-napa/century-napa-valley-and-xd", "brand": "Cinemark"}, "geometry": {"type": "Point", "coordinates": [-122.27868, 38.283275]}},
{"type": "Feature", "id": "_Z1hq18dbg1niAxHf7FmR2mkHF4=", "properties": {"ref": "https://www.cinemark.com/theatres/ca-elk-grove/century-laguna-16-and-xd", "@spider": "cinemark", "addr:full": "9349 Big Horn Blvd.", "addr:city": "Elk Grove", "addr:state": "CA", "addr:postcode": "95758", "addr:country": "US", "name": "Century Laguna 16 and XD", "phone": "916-683-5282", "website": "https://www.cinemark.com/theatres/ca-elk-grove/century-laguna-16-and-xd", "brand": "Cinemark"}, "geometry": {"type": "Point", "coordinates": [-121.406232, 38.418594]}},
{"type": "Feature", "id": "JskFD5grwtv8f6mbGehEwCRjFvE=", "properties": {"ref": "https://www.cinemark.com/theatres/ca-redding/cinemark-redding-14-and-xd", "@spider": "cinemark", "addr:full": "980 Old Alturas Rd.", "addr:city": "Redding", "addr:state": "CA", "addr:postcode": "96003", "addr:country": "US", "name": "Cinemark Redding 14 and XD", "phone": "530-223-7755", "website": "https://www.cinemark.com/theatres/ca-redding/cinemark-redding-14-and-xd", "brand": "Cinemark"}, "geometry": {"type": "Point", "coordinates": [-122.347294, 40.588303]}},
{"type": "Feature", "id": "OO1yPLnMZIG4L46NtaVGXsk9fHM=", "properties": {"ref": "https://www.cinemark.com/theatres/ca-danville/century-blackhawk-plaza", "@spider": "cinemark", "addr:full": "4175 Blackhawk Plaza Circle", "addr:city": "Danville", "addr:state": "CA", "addr:postcode": "94506", "addr:country": "US", "name": "Century Blackhawk Plaza", "phone": "925-736-0367", "website": "https://www.cinemark.com/theatres/ca-danville/century-blackhawk-plaza", "brand": "Cinemark"}, "geometry": {"type": "Point", "coordinates": [-121.919904, 37.799671]}},
{"type": "Feature", "id": "bOwdzGVzAmZC7RNdUzhdUwLgRr8=", "properties": {"ref": "https://www.cinemark.com/theatres/ca-folsom/century-folsom-14", "@spider": "cinemark", "addr:full": "261 Iron Point Rd.", "addr:city": "Folsom", "addr:state": "CA", "addr:postcode": "95630", "addr:country": "US", "name": "Century Folsom 14", "phone": "916-353-5247", "website": "https://www.cinemark.com/theatres/ca-folsom/century-folsom-14", "brand": "Cinemark"}, "geometry": {"type": "Point", "coordinates": [-121.188925, 38.642202]}},
{"type": "Feature", "id": "VxNvSIszGqD3ZYUWf1R-bzJHBTk=", "properties": {"ref": "https://www.cinemark.com/theatres/ca-palo-alto/cinearts-at-palo-alto-square", "@spider": "cinemark", "addr:full": "3000 El Camino Real", "addr:city": "Palo Alto", "addr:state": "CA", "addr:postcode": "94306", "addr:country": "US", "name": "Cin\u00e9Arts at Palo Alto Square", "phone": "650-493-0128", "website": "https://www.cinemark.com/theatres/ca-palo-alto/cinearts-at-palo-alto-square", "brand": "Cinemark"}, "geometry": {"type": "Point", "coordinates": [-122.140097, 37.421867]}},
{"type": "Feature", "id": "NJni7KPP-4gfXwyfQj9aq-sTBUY=", "properties": {"ref": "https://www.cinemark.com/theatres/ca-chino/cinemark-movies-8", "@spider": "cinemark", "addr:full": "5546 Philadelphia St.", "addr:city": "Chino", "addr:state": "CA", "addr:postcode": "91710", "addr:country": "US", "name": "Cinemark Movies 8", "phone": "909-464-1203", "website": "https://www.cinemark.com/theatres/ca-chino/cinemark-movies-8", "brand": "Cinemark"}, "geometry": {"type": "Point", "coordinates": [-117.684217, 34.033677]}},
{"type": "Feature", "id": "2YtGaSkjv-QyvhdpVvwGojDHMnU=", "properties": {"ref": "https://www.cinemark.com/theatres/ca-daly-city/century-20-daly-city-and-xd-and-imax", "@spider": "cinemark", "addr:full": "1901 Junipero Serra Blvd.", "addr:city": "Daly City", "addr:state": "CA", "addr:postcode": "94015", "addr:country": "US", "name": "Century 20 Daly City and XD and IMAX", "phone": "650-994-2488", "website": "https://www.cinemark.com/theatres/ca-daly-city/century-20-daly-city-and-xd-and-imax", "brand": "Cinemark"}, "geometry": {"type": "Point", "coordinates": [-122.470596, 37.70349]}},
{"type": "Feature", "id": "R7q96MtFZ79tpJdphxpjLn-jmHc=", "properties": {"ref": "https://www.cinemark.com/theatres/ca-downey/cinemark-downey-and-xd", "@spider": "cinemark", "addr:full": "8840 Apollo Way", "addr:city": "Downey", "addr:state": "CA", "addr:postcode": "90242", "addr:country": "US", "name": "Cinemark Downey and XD", "phone": "562-803-3014", "website": "https://www.cinemark.com/theatres/ca-downey/cinemark-downey-and-xd", "brand": "Cinemark"}, "geometry": {"type": "Point", "coordinates": [-118.1318947, 33.9224224]}},
{"type": "Feature", "id": "FlKMgrVFx0-PC_p_0_W7MEsrd94=", "properties": {"ref": "https://www.cinemark.com/theatres/ca-carson/cinemark-carson-and-xd", "@spider": "cinemark", "addr:full": "20700 South Avalon Blvd. Suite 285", "addr:city": "Carson", "addr:state": "CA", "addr:postcode": "90746", "addr:country": "US", "name": "Cinemark Carson & XD", "phone": "310-323-0394", "website": "https://www.cinemark.com/theatres/ca-carson/cinemark-carson-and-xd", "brand": "Cinemark"}, "geometry": {"type": "Point", "coordinates": [-118.2602968, 33.8442351]}},
{"type": "Feature", "id": "DvHwkZWWgNY9VkbPwLCycAOj4Hs=", "properties": {"ref": "https://www.cinemark.com/theatres/ca-el-centro/cinemark-imperial-valley-mall-14", "@spider": "cinemark", "addr:full": "3651 South Dogwood Road", "addr:city": "El Centro", "addr:state": "CA", "addr:postcode": "92243", "addr:country": "US", "name": "Cinemark Imperial Valley Mall 14", "phone": "760-482-9200", "website": "https://www.cinemark.com/theatres/ca-el-centro/cinemark-imperial-valley-mall-14", "brand": "Cinemark"}, "geometry": {"type": "Point", "coordinates": [-115.535429, 32.791259]}},
{"type": "Feature", "id": "KE4v1qBXkwLp6gxl6uoqH4A44mc=", "properties": {"ref": "https://www.cinemark.com/theatres/az-tucson/century-gateway-12", "@spider": "cinemark", "addr:full": "770 North Kolb", "addr:city": "Tucson", "addr:state": "AZ", "addr:postcode": "85710", "addr:country": "US", "name": "Century Gateway 12", "phone": "520-886-1000", "website": "https://www.cinemark.com/theatres/az-tucson/century-gateway-12", "brand": "Cinemark"}, "geometry": {"type": "Point", "coordinates": [-110.840794, 32.230574]}},
{"type": "Feature", "id": "ixq8zAuuY97P25khcxCATldW9nM=", "properties": {"ref": "https://www.cinemark.com/theatres/ca-apple-valley/cinemark-jess-ranch", "@spider": "cinemark", "addr:full": "18935 Bear Valley Road", "addr:city": "Apple Valley", "addr:state": "CA", "addr:postcode": "92308", "addr:country": "US", "name": "Cinemark Jess Ranch", "phone": "760-247-5871", "website": "https://www.cinemark.com/theatres/ca-apple-valley/cinemark-jess-ranch", "brand": "Cinemark"}, "geometry": {"type": "Point", "coordinates": [-117.250264, 34.470827]}},
{"type": "Feature", "id": "faWa5cipkbTejxtPm6lW9HmaiE8=", "properties": {"ref": "https://www.cinemark.com/theatres/ca-marina/century-marina-and-xd", "@spider": "cinemark", "addr:full": "100 10th Street", "addr:city": "Marina", "addr:state": "CA", "addr:postcode": "93933", "addr:country": "US", "name": "Century Marina and XD", "phone": "831-384-1002", "website": "https://www.cinemark.com/theatres/ca-marina/century-marina-and-xd", "brand": "Cinemark"}, "geometry": {"type": "Point", "coordinates": [-121.8094925, 36.6645991]}},
{"type": "Feature", "id": "tDLuxKDvHtyH6QlhEduSxTOJays=", "properties": {"ref": "https://www.cinemark.com/theatres/ca-corte-madera/century-cinema", "@spider": "cinemark", "addr:full": "41 Tamal Vista Blvd.", "addr:city": "Corte Madera", "addr:state": "CA", "addr:postcode": "94925", "addr:country": "US", "name": "Century Cinema", "website": "https://www.cinemark.com/theatres/ca-corte-madera/century-cinema", "brand": "Cinemark"}, "geometry": {"type": "Point", "coordinates": [-122.517827, 37.932005]}},
{"type": "Feature", "id": "f1nK0Pwr0u47sa-XzEnqONtEJTA=", "properties": {"ref": "https://www.cinemark.com/theatres/ca-los-angeles/baldwin-hills-crenshaw-plaza-15-and-xd", "@spider": "cinemark", "addr:full": "4020 Marlton Ave", "addr:city": "Los Angeles", "addr:state": "CA", "addr:postcode": "90008", "addr:country": "US", "name": "Baldwin Hills Crenshaw Plaza 15 and XD", "phone": "323-296-1005", "website": "https://www.cinemark.com/theatres/ca-los-angeles/baldwin-hills-crenshaw-plaza-15-and-xd", "brand": "Cinemark"}, "geometry": {"type": "Point", "coordinates": [-118.337431, 34.011582]}},
{"type": "Feature", "id": "HQETFi4YMJMBeMrId6Y5VblzEsw=", "properties": {"ref": "https://www.cinemark.com/theatres/az-tucson/century-tucson-marketplace-and-xd", "@spider": "cinemark", "addr:full": "1300 E Tucson Marketplace", "addr:city": "Tucson", "addr:state": "AZ", "addr:postcode": "85713", "addr:country": "US", "name": "Century Tucson Marketplace and XD", "phone": "520-622-8443", "website": "https://www.cinemark.com/theatres/az-tucson/century-tucson-marketplace-and-xd", "brand": "Cinemark"}, "geometry": {"type": "Point", "coordinates": [-110.951901, 32.187109]}},
{"type": "Feature", "id": "3vpr67_jXddr3EEWufJh6ORdupw=", "properties": {"ref": "https://www.cinemark.com/theatres/ca-chico/cinemark-chico-14-and-xd", "@spider": "cinemark", "addr:full": "801 East Ave, Suite 2", "addr:city": "Chico", "addr:state": "CA", "addr:postcode": "95926", "addr:country": "US", "name": "Cinemark Chico 14 and XD", "phone": "530-879-0143", "website": "https://www.cinemark.com/theatres/ca-chico/cinemark-chico-14-and-xd", "brand": "Cinemark"}, "geometry": {"type": "Point", "coordinates": [-121.846493, 39.760811]}},
{"type": "Feature", "id": "UYy_Ji0UgXg7benpEyOsDvoJNa8=", "properties": {"ref": "https://www.cinemark.com/theatres/co-greeley/cinemark-greeley-mall", "@spider": "cinemark", "addr:full": "2160 Greeley Mall", "addr:city": "Greeley", "addr:state": "CO", "addr:postcode": "80631", "addr:country": "US", "name": "Cinemark Greeley Mall", "phone": "970-353-4361", "website": "https://www.cinemark.com/theatres/co-greeley/cinemark-greeley-mall", "brand": "Cinemark"}, "geometry": {"type": "Point", "coordinates": [-104.711894, 40.388514]}}]}