{"type":"FeatureCollection","features":[{"type": "Feature", "id": "yx9FLlRX5snMZPC3dFwCLChPkfA=", "properties": {"ref": "2742069", "amenity:fuel": true, "fuel:diesel": true, "car_wash": null, "shop": "convenience", "@spider": "circle_k", "addr:full": "933 E RUNDBERG LN", "addr:city": "AUSTIN", "addr:state": "TX", "addr:postcode": "78753-4825", "addr:country": "US", "name": "Circle K", "website": "https://www.circlek.com/store-locator/US/austin/933-e-rundberg-ln/2742069", "brand": "Circle K", "brand:wikidata": "Q3268010"}, "geometry": {"type": "Point", "coordinates": [-97.68501, 30.35603]}},
{"type": "Feature", "id": "ikAop9XWj0q5H44A0xcKFlW9U2U=", "properties": {"ref": "2740080", "amenity:fuel": true, "fuel:diesel": null, "car_wash": null, "shop": "convenience", "@spider": "circle_k", "addr:full": "3909 GUADALUPE ST", "addr:city": "AUSTIN", "addr:state": "TX", "addr:postcode": "78751-4522", "addr:country": "US", "name": "Circle K", "website": "https://www.circlek.com/store-locator/US/austin/3909-guadalupe-st/2740080", "brand": "Circle K", "brand:wikidata": "Q3268010"}, "geometry": {"type": "Point", "coordinates": [-97.73645, 30.304872]}},
{"type": "Feature", "id": "wzhTtmFqj3Lae7pc6AcnhhOsdSw=", "properties": {"ref": "2741396", "amenity:fuel": true, "fuel:diesel": true, "car_wash": true, "shop": "convenience", "@spider": "circle_k", "addr:full": "10713 JOLLYVILLE RD", "addr:city": "AUSTIN", "addr:state": "TX", "addr:postcode": "78759-5632", "addr:country": "US", "name": "Circle K", "website": "https://www.circlek.com/store-locator/US/austin/10713-jollyville-rd/2741396", "brand": "Circle K", "brand:wikidata": "Q3268010"}, "geometry": {"type": "Point", "coordinates": [-97.748472, 30.400313]}},
{"type": "Feature", "id": "xjkC9zc1qzQwzlkW9CQ4xW7_0N8=", "properties": {"ref": "2740110", "amenity:fuel": true, "fuel:diesel": null, "car_wash": null, "shop": "convenience", "@spider": "circle_k", "addr:full": "3515 N LAMAR BLVD", "addr:city": "AUSTIN", "addr:state": "TX", "addr:postcode": "78705-1117", "addr:country": "US", "name": "Circle K", "website": "https://www.circlek.com/store-locator/US/austin/3515-n-lamar-blvd/2740110", "brand": "Circle K", "brand:wikidata": "Q3268010"}, "geometry": {"type": "Point", "coordinates": [-97.743528, 30.30412]}},
{"type": "Feature", "id": "Ph8bHvsmaI-2ByYNfChz3uOiRg4=", "properties": {"ref": "2704680", "amenity:fuel": true, "fuel:diesel": true, "car_wash": null, "shop": "convenience", "@spider": "circle_k", "addr:full": "8947 BEE CAVE RD 204", "addr:city": "AUSTIN", "addr:state": "TX", "addr:postcode": "78746", "addr:country": "US", "name": "Circle K", "website": "https://www.circlek.com/store-locator/US/austin/8947-bee-cave-rd-204/2704680", "brand": "Circle K", "brand:wikidata": "Q3268010"}, "geometry": {"type": "Point", "coordinates": [-97.8640724, 30.3181597]}},
{"type": "Feature", "id": "NOvNBffO4gE3JpOgUDtPgbqldVA=", "properties": {"ref": "2742141", "amenity:fuel": true, "fuel:diesel": true, "car_wash": null, "shop": "convenience", "@spider": "circle_k", "addr:full": "9433 PARKFIELD DR", "addr:city": "AUSTIN", "addr:state": "TX", "addr:postcode": "78758-6226", "addr:country": "US", "name": "Circle K", "website": "https://www.circlek.com/store-locator/US/austin/9433-parkfield-dr/2742141", "brand": "Circle K", "brand:wikidata": "Q3268010"}, "geometry": {"type": "Point", "coordinates": [-97.705241, 30.368796]}},
{"type": "Feature", "id": "RM-39wg6c_OsdmITwjy6KJwnL9Q=", "properties": {"ref": "2741308", "amenity:fuel": true, "fuel:diesel": true, "car_wash": null, "shop": "convenience", "@spider": "circle_k", "addr:full": "8656 SPICEWOOD SPRINGS RD", "addr:city": "AUSTIN", "addr:state": "TX", "addr:postcode": "78759-4309", "addr:country": "US", "name": "Circle K", "website": "https://www.circlek.com/store-locator/US/austin/8656-spicewood-springs-rd/2741308", "brand": "Circle K", "brand:wikidata": "Q3268010"}, "geometry": {"type": "Point", "coordinates": [-97.77103, 30.433491]}},
{"type": "Feature", "id": "WLXYrxEWHI6WIPvVpbRSFMILphQ=", "properties": {"ref": "2742110", "amenity:fuel": true, "fuel:diesel": true, "car_wash": null, "shop": "convenience", "@spider": "circle_k", "addr:full": "13014 POND SPRINGS RD", "addr:city": "AUSTIN", "addr:state": "TX", "addr:postcode": "78729-7605", "addr:country": "US", "name": "Corner Store", "website": "https://www.circlek.com/store-locator/US/austin/13014-pond-springs-rd/2742110", "brand": "Corner Store", "brand:wikidata": "Q16959310"}, "geometry": {"type": "Point", "coordinates": [-97.773652, 30.440913]}},
{"type": "Feature", "id": "doYDYfxLgjol4dXSXUP0mlhv4So=", "properties": {"ref": "2704688", "amenity:fuel": true, "fuel:diesel": true, "car_wash": null, "shop": "convenience", "@spider": "circle_k", "addr:full": "11000 RANCH RD 2222", "addr:city": "AUSTIN", "addr:state": "TX", "addr:postcode": "78730", "addr:country": "US", "name": "Circle K", "website": "https://www.circlek.com/store-locator/US/austin/11000-ranch-rd-2222/2704688", "brand": "Circle K", "brand:wikidata": "Q3268010"}, "geometry": {"type": "Point", "coordinates": [-97.8459886, 30.3949089]}},
{"type": "Feature", "id": "LfrhIbaYsQFfxbEcacV0j3Z-7y8=", "properties": {"ref": "2740966", "amenity:fuel": true, "fuel:diesel": null, "car_wash": null, "shop": "convenience", "@spider": "circle_k", "addr:full": "8101 MESA DR", "addr:city": "AUSTIN", "addr:state": "TX", "addr:postcode": "78759-8614", "addr:country": "US", "name": "Circle K", "website": "https://www.circlek.com/store-locator/US/austin/8101-mesa-dr/2740966", "brand": "Circle K", "brand:wikidata": "Q3268010"}, "geometry": {"type": "Point", "coordinates": [-97.756837, 30.371705]}}]}