{"type":"FeatureCollection","features":[{"type": "Feature", "id": "sHqx_48OmQbLW5uWzxp-2N7-Hc4=", "properties": {"ref": "233999887", "@spider": "clinical_pathology_laboratories", "addr:full": "900 Belanger Street", "addr:city": "Houma", "addr:state": "LA", "addr:postcode": "70360", "addr:country": "US", "name": "Houma", "website": "na", "brand": "Clinical Pathology Laboratories, Inc."}, "geometry": {"type": "Point", "coordinates": [-90.714191, 29.595681]}},
{"type": "Feature", "id": "6565jcIiOSo0P-WI-kwwi8NVS64=", "properties": {"ref": "263173382", "@spider": "clinical_pathology_laboratories", "addr:full": "Suite 5 Eureka Circle, Suite C", "addr:city": "Wichita Falls", "addr:state": "TX", "addr:postcode": "76308", "addr:country": "US", "name": "Wichita Falls - Eureka Circle", "website": "na", "brand": "Clinical Pathology Laboratories, Inc."}, "geometry": {"type": "Point", "coordinates": [-98.525836, 33.869845]}},
{"type": "Feature", "id": "EmV5dZBCRa_wbndUTMRHiR7S-SY=", "properties": {"ref": "263173383", "@spider": "clinical_pathology_laboratories", "addr:full": "4201 Garth Suite 116", "addr:city": "Baytown", "addr:state": "TX", "addr:postcode": "77521", "addr:country": "US", "name": "Baytown - Methodist", "website": "na", "brand": "Clinical Pathology Laboratories, Inc."}, "geometry": {"type": "Point", "coordinates": [-94.979914, 29.767551]}},
{"type": "Feature", "id": "GOd4F9L91dNWbG-sKwcc5msRHdc=", "properties": {"ref": "263173385", "@spider": "clinical_pathology_laboratories", "addr:full": "1402 Walton Way", "addr:city": "Augusta", "addr:state": "GA", "addr:postcode": "30901", "addr:country": "US", "name": "Augusta - Walton Way", "website": "na", "brand": "Clinical Pathology Laboratories, Inc."}, "geometry": {"type": "Point", "coordinates": [-81.983267, 33.473325]}},
{"type": "Feature", "id": "OIxys_awpJ2e-etVDiB78jDrLjc=", "properties": {"ref": "263173387", "@spider": "clinical_pathology_laboratories", "addr:full": "2741 W. Thomas St Ste A", "addr:city": "Hammond", "addr:state": "LA", "addr:postcode": "70401", "addr:country": "US", "name": "Hammond", "website": "na", "brand": "Clinical Pathology Laboratories, Inc."}, "geometry": {"type": "Point", "coordinates": [-90.492118, 30.50201]}},
{"type": "Feature", "id": "O3IOcq130UiumDLrowmwzaSQYXk=", "properties": {"ref": "263173388", "@spider": "clinical_pathology_laboratories", "addr:full": "1751 Broad Park Circle South Suite 205", "addr:city": "Mansfiled", "addr:state": "TX", "addr:postcode": "76063", "addr:country": "US", "name": "Mansfield", "website": "na", "brand": "Clinical Pathology Laboratories, Inc."}, "geometry": {"type": "Point", "coordinates": [-97.111289, 32.568259]}},
{"type": "Feature", "id": "lk3v03bOA0WAzfcpdfsAqnmClg0=", "properties": {"ref": "263173391", "@spider": "clinical_pathology_laboratories", "addr:full": "2800 Garth Rd", "addr:city": "Baytown", "addr:state": "TX", "addr:postcode": "77521", "addr:country": "US", "name": "Baytown PSC", "website": "na", "brand": "Clinical Pathology Laboratories, Inc."}, "geometry": {"type": "Point", "coordinates": [-94.978035, 29.751736]}},
{"type": "Feature", "id": "8YitZj0sIgtDR0Bcj5ut0nrYLkw=", "properties": {"ref": "263173392", "@spider": "clinical_pathology_laboratories", "addr:full": "135 Bunton Creek Road Suite 103", "addr:city": "Kyle", "addr:state": "TX", "addr:postcode": "78640", "addr:country": "US", "name": "Kyle - Hays Surgery Center", "website": "na", "brand": "Clinical Pathology Laboratories, Inc."}, "geometry": {"type": "Point", "coordinates": [-97.860987, 30.008724]}},
{"type": "Feature", "id": "JwXVJkY35wvZcN1HfKkqzIU9kHA=", "properties": {"ref": "263173393", "@spider": "clinical_pathology_laboratories", "addr:full": "155 Uptown Avenue Suite A", "addr:city": "Brownsville", "addr:state": "TX", "addr:postcode": "78520", "addr:country": "US", "name": "Brownsville - Uptown Ave.", "website": "na", "brand": "Clinical Pathology Laboratories, Inc."}, "geometry": {"type": "Point", "coordinates": [-97.510091, 25.924223]}},
{"type": "Feature", "id": "dq_6NApXhBHEtk58cBReVM_pXx0=", "properties": {"ref": "263173394", "@spider": "clinical_pathology_laboratories", "addr:full": "3910 Brookside Drive Suite 200", "addr:city": "Tyler", "addr:state": "TX", "addr:postcode": "75701", "addr:country": "US", "name": "Tyler - Brookside", "website": "na", "brand": "Clinical Pathology Laboratories, Inc."}, "geometry": {"type": "Point", "coordinates": [-95.30832, 32.305574]}},
{"type": "Feature", "id": "Gb708fMVhv4nheG6WIBc9TMimto=", "properties": {"ref": "263173395", "@spider": "clinical_pathology_laboratories", "addr:full": "520 Elmwood Park Boulevard Suite 130", "addr:city": "Harahan", "addr:state": "LA", "addr:postcode": "70123", "addr:country": "US", "name": "Harahan", "website": "na", "brand": "Clinical Pathology Laboratories, Inc."}, "geometry": {"type": "Point", "coordinates": [-90.184285, 29.949094]}},
{"type": "Feature", "id": "JNO3bCd2Vuc4AP9KvxuFcXeDmrM=", "properties": {"ref": "263173396", "@spider": "clinical_pathology_laboratories", "addr:full": "301 Hospital Drive Suite 105", "addr:city": "Corsicana", "addr:state": "TX", "addr:postcode": "75110", "addr:country": "US", "name": "Corsicana", "website": "na", "brand": "Clinical Pathology Laboratories, Inc."}, "geometry": {"type": "Point", "coordinates": [-96.50042, 32.081094]}},
{"type": "Feature", "id": "VIF5obbDE_VfGRh8DccSNADAQn4=", "properties": {"ref": "263173397", "@spider": "clinical_pathology_laboratories", "addr:full": "10020 Research Forest Dr. Ste. B", "addr:city": "Magnolia", "addr:state": "TX", "addr:postcode": "77354", "addr:country": "US", "name": "Magnolia PSC", "website": "na", "brand": "Clinical Pathology Laboratories, Inc."}, "geometry": {"type": "Point", "coordinates": [-95.560074, 30.215794]}},
{"type": "Feature", "id": "hifXwJeE-xxE3Z3BrAPHWZYGz1s=", "properties": {"ref": "263173399", "@spider": "clinical_pathology_laboratories", "addr:full": "601 E. Whitestone Suite 632", "addr:city": "Cedar Park", "addr:state": "TX", "addr:postcode": "78613", "addr:country": "US", "name": "Cedar Park", "website": "na", "brand": "Clinical Pathology Laboratories, Inc."}, "geometry": {"type": "Point", "coordinates": [-97.824412, 30.523526]}},
{"type": "Feature", "id": "YdUEOPZpZcsLPAJTZD8FYveXWuc=", "properties": {"ref": "263173400", "@spider": "clinical_pathology_laboratories", "addr:full": "6836 Austin Center Blvd Bldg 1 Suite 185", "addr:city": "Austin", "addr:state": "TX", "addr:postcode": "78731", "addr:country": "US", "name": "Austin - Austin Center Blvd.", "website": "na", "brand": "Clinical Pathology Laboratories, Inc."}, "geometry": {"type": "Point", "coordinates": [-97.752445, 30.351505]}},
{"type": "Feature", "id": "gJNOXLXMV5MVKwrUIQUnlFUhtq4=", "properties": {"ref": "263173401", "@spider": "clinical_pathology_laboratories", "addr:full": "2011 E. Houston Suite B", "addr:city": "San Antonio", "addr:state": "TX", "addr:postcode": "78202", "addr:country": "US", "name": "San Antonio - Eastpointe", "website": "na", "brand": "Clinical Pathology Laboratories, Inc."}, "geometry": {"type": "Point", "coordinates": [-98.465084, 29.425425]}},
{"type": "Feature", "id": "VBpbx5MVyWP3pxizCqEvt1x_RrI=", "properties": {"ref": "263173402", "@spider": "clinical_pathology_laboratories", "addr:full": "1005 W. Ralph M Hall Parkway Suite 231", "addr:city": "Rockwall", "addr:state": "TX", "addr:postcode": "75032", "addr:country": "US", "name": "Rockwall - Rockwall PSC", "website": "na", "brand": "Clinical Pathology Laboratories, Inc."}, "geometry": {"type": "Point", "coordinates": [-96.469821, 32.886955]}},
{"type": "Feature", "id": "Cj2TGTz4MSfyJLcqUjzrMLzjJm4=", "properties": {"ref": "263173403", "@spider": "clinical_pathology_laboratories", "addr:full": "4530 Buffalo Gap Road", "addr:city": "Abilene", "addr:state": "TX", "addr:postcode": "79606", "addr:country": "US", "name": "Abilene", "website": "na", "brand": "Clinical Pathology Laboratories, Inc."}, "geometry": {"type": "Point", "coordinates": [-99.762701, 32.394134]}},
{"type": "Feature", "id": "8uT8_4g--iNvgFoON6G_pCl1ZiI=", "properties": {"ref": "263173405", "@spider": "clinical_pathology_laboratories", "addr:full": "112 Herff Rd #340", "addr:city": "Boerne", "addr:state": "TX", "addr:postcode": "78006", "addr:country": "US", "name": "Boerne", "website": "na", "brand": "Clinical Pathology Laboratories, Inc."}, "geometry": {"type": "Point", "coordinates": [-98.728415, 29.782731]}},
{"type": "Feature", "id": "aw6PYkQ4Gtuu3lRYp9F08Fxfadg=", "properties": {"ref": "263173406", "@spider": "clinical_pathology_laboratories", "addr:full": "1200 E. Ridge Road Suite 10", "addr:city": "McAllen", "addr:state": "TX", "addr:postcode": "78503", "addr:country": "US", "name": "McAllen", "website": "na", "brand": "Clinical Pathology Laboratories, Inc."}, "geometry": {"type": "Point", "coordinates": [-98.20997, 26.183345]}},
{"type": "Feature", "id": "4Wq4C82rAklrM_MVw73pdw-ywvE=", "properties": {"ref": "263173407", "@spider": "clinical_pathology_laboratories", "addr:full": "521 Great Oaks Drive", "addr:city": "Monroe", "addr:state": "GA", "addr:postcode": "30655", "addr:country": "US", "name": "Monroe PSC", "website": "na", "brand": "Clinical Pathology Laboratories, Inc."}, "geometry": {"type": "Point", "coordinates": [-83.743113, 33.789382]}},
{"type": "Feature", "id": "k1QN8cIlxyvVYZ7hF8l4tX3a9CY=", "properties": {"ref": "263173408", "@spider": "clinical_pathology_laboratories", "addr:full": "2911 Medical Arts Square Suite 4", "addr:city": "Austin", "addr:state": "TX", "addr:postcode": "78705", "addr:country": "US", "name": "Austin - Medical Arts Square", "website": "na", "brand": "Clinical Pathology Laboratories, Inc."}, "geometry": {"type": "Point", "coordinates": [-97.727934, 30.288461]}},
{"type": "Feature", "id": "KyAFcThmwFzbHWvrEimJ6iGjKG8=", "properties": {"ref": "263173409", "@spider": "clinical_pathology_laboratories", "addr:full": "8440 Walnut Hill Lane Suite 370", "addr:city": "Dallas", "addr:state": "TX", "addr:postcode": "75231", "addr:country": "US", "name": "Dallas - 8440 Walnut Hill", "website": "na", "brand": "Clinical Pathology Laboratories, Inc."}, "geometry": {"type": "Point", "coordinates": [-96.759028, 32.882219]}},
{"type": "Feature", "id": "57_9rkGfYunEq9E7nbgttmWOO5s=", "properties": {"ref": "263173411", "@spider": "clinical_pathology_laboratories", "addr:full": "2604 St. Michael Drive Suite 210", "addr:city": "TEXARKANA", "addr:state": "TX", "addr:postcode": "75503", "addr:country": "US", "name": "Texarkana St Michael", "website": "na", "brand": "Clinical Pathology Laboratories, Inc."}, "geometry": {"type": "Point", "coordinates": [-94.0756, 33.464038]}},
{"type": "Feature", "id": "dBvaCoJrg0_sGrNZYf-8I_atlj0=", "properties": {"ref": "263173414", "@spider": "clinical_pathology_laboratories", "addr:full": "7180 Cascade Valley Court Suite 150", "addr:city": "Las Vegas", "addr:state": "NV", "addr:postcode": "89128", "addr:country": "US", "name": "Las Vegas - Mountain View", "website": "na", "brand": "Clinical Pathology Laboratories, Inc."}, "geometry": {"type": "Point", "coordinates": [-115.249084, 36.211506]}},
{"type": "Feature", "id": "HETANpxlNxqVCVonGBU3W3-XmLw=", "properties": {"ref": "263173415", "@spider": "clinical_pathology_laboratories", "addr:full": "1105 Central Expressway, Bldg I, North Suite 300", "addr:city": "Allen", "addr:state": "TX", "addr:postcode": "75013", "addr:country": "US", "name": "Allen PSC  (inside Texas Health Resource Hospital)", "website": "na", "brand": "Clinical Pathology Laboratories, Inc."}, "geometry": {"type": "Point", "coordinates": [-96.67313, 33.116019]}},
{"type": "Feature", "id": "n39ahEjEMean6uPsdb8ZThBLRYg=", "properties": {"ref": "263173418", "@spider": "clinical_pathology_laboratories", "addr:full": "11673 Jollyville Road Suite 106", "addr:city": "Austin", "addr:state": "TX", "addr:postcode": "78759", "addr:country": "US", "name": "Austin - Ladera Park", "website": "na", "brand": "Clinical Pathology Laboratories, Inc."}, "geometry": {"type": "Point", "coordinates": [-97.750504, 30.418298]}},
{"type": "Feature", "id": "_zpeZSvdMiR0fNRZb7q0oB4GX6w=", "properties": {"ref": "263173420", "@spider": "clinical_pathology_laboratories", "addr:full": "3110 Calder Suite B", "addr:city": "Beaumont", "addr:state": "TX", "addr:postcode": "77702", "addr:country": "US", "name": "Beaumont", "website": "na", "brand": "Clinical Pathology Laboratories, Inc."}, "geometry": {"type": "Point", "coordinates": [-94.13446, 30.085674]}},
{"type": "Feature", "id": "pl_Xpp_KaFNc7ymgLO3FF-jEz-c=", "properties": {"ref": "263173421", "@spider": "clinical_pathology_laboratories", "addr:full": "527 ODD FELLOWS RD, SUITE A", "addr:city": "CROWLEY", "addr:state": "LA", "addr:postcode": "70526", "addr:country": "US", "name": "CROWLEY PSC", "website": "na", "brand": "Clinical Pathology Laboratories, Inc."}, "geometry": {"type": "Point", "coordinates": [-92.369908, 30.230868]}},
{"type": "Feature", "id": "2GtNimPJweKrkgh7CXs1jXzivIo=", "properties": {"ref": "263173422", "@spider": "clinical_pathology_laboratories", "addr:full": "2407 W. Louisiana Suite 103", "addr:city": "Midland", "addr:state": "TX", "addr:postcode": "79701", "addr:country": "US", "name": "Midland", "website": "na", "brand": "Clinical Pathology Laboratories, Inc."}, "geometry": {"type": "Point", "coordinates": [-102.104181, 31.998171]}},
{"type": "Feature", "id": "Csv4SXV7A7OeliX3aple69_7B_w=", "properties": {"ref": "263173423", "@spider": "clinical_pathology_laboratories", "addr:full": "2905 Azalea Park Drive", "addr:city": "Muskogee", "addr:state": "OK", "addr:postcode": "74403", "addr:country": "US", "name": "Muskogee", "website": "na", "brand": "Clinical Pathology Laboratories, Inc."}, "geometry": {"type": "Point", "coordinates": [-95.398442, 35.769515]}},
{"type": "Feature", "id": "g05jfTcV2N-cLbYjwg6kMTJKNDo=", "properties": {"ref": "263173424", "@spider": "clinical_pathology_laboratories", "addr:full": "16545 Southwest Freeway Suite 260", "addr:city": "Sugarland", "addr:state": "TX", "addr:postcode": "77479", "addr:country": "US", "name": "Sugarland - Southwest Freeway", "website": "na", "brand": "Clinical Pathology Laboratories, Inc."}, "geometry": {"type": "Point", "coordinates": [-95.63456, 29.591331]}},
{"type": "Feature", "id": "1ZFThKtFVnq3-zNNQM5HvB8znZI=", "properties": {"ref": "263173425", "@spider": "clinical_pathology_laboratories", "addr:full": "1919 N. Loop West Suite 171", "addr:city": "Houston", "addr:state": "TX", "addr:postcode": "77008", "addr:country": "US", "name": "North Loop West", "website": "na", "brand": "Clinical Pathology Laboratories, Inc."}, "geometry": {"type": "Point", "coordinates": [-95.434207, 29.810527]}},
{"type": "Feature", "id": "cuResWs4NCsCUJkDeH8xkuF7xCA=", "properties": {"ref": "263173426", "@spider": "clinical_pathology_laboratories", "addr:full": "2301 S. Clear Creek Road Suite 130", "addr:city": "Killeen", "addr:state": "TX", "addr:postcode": "76549", "addr:country": "US", "name": "Killeen PSC", "website": "na", "brand": "Clinical Pathology Laboratories, Inc."}, "geometry": {"type": "Point", "coordinates": [-97.671612, 31.122005]}},
{"type": "Feature", "id": "vtnPXSC9bSr4zO_o4P7SmrEnEaA=", "properties": {"ref": "263173428", "@spider": "clinical_pathology_laboratories", "addr:full": "2706 N. Ben Wilson", "addr:city": "Victoria", "addr:state": "TX", "addr:postcode": "77901", "addr:country": "US", "name": "Victoria - Ben Wilson", "website": "na", "brand": "Clinical Pathology Laboratories, Inc."}, "geometry": {"type": "Point", "coordinates": [-96.974248, 28.813785]}},
{"type": "Feature", "id": "N6KdLDGYQFKYTIn1DO-UL8_9pxw=", "properties": {"ref": "263173430", "@spider": "clinical_pathology_laboratories", "addr:full": "100 N. Green Valley Parkway Suite 315", "addr:city": "Henderson", "addr:state": "NV", "addr:postcode": "89074", "addr:country": "US", "name": "Green Valley", "website": "na", "brand": "Clinical Pathology Laboratories, Inc."}, "geometry": {"type": "Point", "coordinates": [-115.083849, 36.02585]}},
{"type": "Feature", "id": "sUWmmQq7wLbepeRwt6QHSvqucmE=", "properties": {"ref": "263173431", "@spider": "clinical_pathology_laboratories", "addr:full": "1003 W. San Antonio Street", "addr:city": "Lockhart", "addr:state": "TX", "addr:postcode": "78644", "addr:country": "US", "name": "Lockhart", "website": "na", "brand": "Clinical Pathology Laboratories, Inc."}, "geometry": {"type": "Point", "coordinates": [-97.68475, 29.883582]}},
{"type": "Feature", "id": "LuYLRiWlEDxHOUh8FTQ9tlvwMAo=", "properties": {"ref": "263173432", "@spider": "clinical_pathology_laboratories", "addr:full": "7011 Ribelin Ranch Drive Suite 300", "addr:city": "Austin", "addr:state": "TX", "addr:postcode": "78750", "addr:country": "US", "name": "Austin - Ribelin Ranch Drive", "website": "na", "brand": "Clinical Pathology Laboratories, Inc."}, "geometry": {"type": "Point", "coordinates": [-97.83011, 30.392229]}},
{"type": "Feature", "id": "QmsLCypSYBi_pWmF4pVEzHjgvN8=", "properties": {"ref": "263173433", "@spider": "clinical_pathology_laboratories", "addr:full": "9701 Brodie Lane Suite 103", "addr:city": "Austin", "addr:state": "TX", "addr:postcode": "78748", "addr:country": "US", "name": "Austin - Brodie Lane", "website": "na", "brand": "Clinical Pathology Laboratories, Inc."}, "geometry": {"type": "Point", "coordinates": [-97.846698, 30.187136]}},
{"type": "Feature", "id": "0BfVil4dvE32BKMHJB272nSeX7Y=", "properties": {"ref": "263173434", "@spider": "clinical_pathology_laboratories", "addr:full": "375 Municipal Drive Suite 117", "addr:city": "Richardson", "addr:state": "TX", "addr:postcode": "75080", "addr:country": "US", "name": "Richardson - Richardson Medical Park PSC", "website": "na", "brand": "Clinical Pathology Laboratories, Inc."}, "geometry": {"type": "Point", "coordinates": [-96.725643, 32.973567]}},
{"type": "Feature", "id": "uDK0Bijat0TxVFIBkzwGbXzEUAM=", "properties": {"ref": "263173435", "@spider": "clinical_pathology_laboratories", "addr:full": "406 N. Grande Avenue Suite 110", "addr:city": "Gainesville", "addr:state": "TX", "addr:postcode": "76240", "addr:country": "US", "name": "Gainesville", "website": "na", "brand": "Clinical Pathology Laboratories, Inc."}, "geometry": {"type": "Point", "coordinates": [-97.132927, 33.627673]}},
{"type": "Feature", "id": "pKAg2AlSpCIEbKJUHzlxpGTqbQg=", "properties": {"ref": "263173436", "@spider": "clinical_pathology_laboratories", "addr:full": "3150 Matlock Road Suite 411", "addr:city": "Arlington", "addr:state": "TX", "addr:postcode": "76015", "addr:country": "US", "name": "South Arlington", "website": "na", "brand": "Clinical Pathology Laboratories, Inc."}, "geometry": {"type": "Point", "coordinates": [-97.1157, 32.693568]}},
{"type": "Feature", "id": "5Z2tyHo8Z9GW2wyhkFTYD0LKLXA=", "properties": {"ref": "263173437", "@spider": "clinical_pathology_laboratories", "addr:full": "1600 Coulter Building C Suite 306", "addr:city": "Amarillo", "addr:state": "TX", "addr:postcode": "79106", "addr:country": "US", "name": "Amarillo - Coulter", "website": "na", "brand": "Clinical Pathology Laboratories, Inc."}, "geometry": {"type": "Point", "coordinates": [-101.922427, 35.196751]}},
{"type": "Feature", "id": "Iv89OBUTpAXlJLre83jMa321hcs=", "properties": {"ref": "263173438", "@spider": "clinical_pathology_laboratories", "addr:full": "1310 RR 620 South Suite  B-08", "addr:city": "Lakeway", "addr:state": "TX", "addr:postcode": "78734", "addr:country": "US", "name": "Lakeway", "website": "na", "brand": "Clinical Pathology Laboratories, Inc."}, "geometry": {"type": "Point", "coordinates": [-97.965357, 30.350279]}},
{"type": "Feature", "id": "yZTCtntUQT6m-d0YTFSTI4J49AI=", "properties": {"ref": "263173439", "@spider": "clinical_pathology_laboratories", "addr:full": "17051 N. Dallas Parkway Suite 150", "addr:city": "Addison", "addr:state": "TX", "addr:postcode": "75001", "addr:country": "US", "name": "Addison PSC", "website": "na", "brand": "Clinical Pathology Laboratories, Inc."}, "geometry": {"type": "Point", "coordinates": [-96.829313, 32.983947]}},
{"type": "Feature", "id": "xBV_QknpUerSrXcooInmeQebmn4=", "properties": {"ref": "263173440", "@spider": "clinical_pathology_laboratories", "addr:full": "425 Holderrieth Suite 113", "addr:city": "Tomball", "addr:state": "TX", "addr:postcode": "77375", "addr:country": "US", "name": "Tomball", "website": "na", "brand": "Clinical Pathology Laboratories, Inc."}, "geometry": {"type": "Point", "coordinates": [-95.623943, 30.090302]}},
{"type": "Feature", "id": "fzu4Povw01ufX2J6T-_tb2FIl-M=", "properties": {"ref": "263173443", "@spider": "clinical_pathology_laboratories", "addr:full": "1212 Coit Road Suite 112", "addr:city": "Plano", "addr:state": "TX", "addr:postcode": "75075", "addr:country": "US", "name": "Plano - West Plano", "website": "na", "brand": "Clinical Pathology Laboratories, Inc."}, "geometry": {"type": "Point", "coordinates": [-96.765819, 33.016592]}},
{"type": "Feature", "id": "15ciaLBJRE_v9Tp8PQMpiOo70Z8=", "properties": {"ref": "263173444", "@spider": "clinical_pathology_laboratories", "addr:full": "425 North Belair Road, Suit 2 PSC", "addr:city": "Evans", "addr:state": "GA", "addr:postcode": "30809", "addr:country": "US", "name": "Belair Road PSC", "website": "na", "brand": "Clinical Pathology Laboratories, Inc."}, "geometry": {"type": "Point", "coordinates": [-82.132105, 33.528221]}},
{"type": "Feature", "id": "aCV-u6ggANU1rVvK9mP8b5f2aMA=", "properties": {"ref": "263173446", "@spider": "clinical_pathology_laboratories", "addr:full": "525 Oak Centre Drive Suite 105", "addr:city": "San Antonio", "addr:state": "TX", "addr:postcode": "78258", "addr:country": "US", "name": "San Antonio - Remington Oaks", "website": "na", "brand": "Clinical Pathology Laboratories, Inc."}, "geometry": {"type": "Point", "coordinates": [-98.494044, 29.618937]}},
{"type": "Feature", "id": "kvMzju5d1ezbc_L6Jp18AWyl2K4=", "properties": {"ref": "263173447", "@spider": "clinical_pathology_laboratories", "addr:full": "509 North Texas Boulevard", "addr:city": "Alice", "addr:state": "TX", "addr:postcode": "78332", "addr:country": "US", "name": "Alice", "website": "na", "brand": "Clinical Pathology Laboratories, Inc."}, "geometry": {"type": "Point", "coordinates": [-98.065043, 27.755928]}},
{"type": "Feature", "id": "epn1i8-CenkLwpN-uX-4r5nOZyo=", "properties": {"ref": "263173448", "@spider": "clinical_pathology_laboratories", "addr:full": "103 West Gibson Ste 103", "addr:city": "Jasper", "addr:state": "TX", "addr:postcode": "79591", "addr:country": "US", "name": "CPL Jasper", "website": "na", "brand": "Clinical Pathology Laboratories, Inc."}, "geometry": {"type": "Point", "coordinates": [-94.00072, 30.90843]}},
{"type": "Feature", "id": "N2kEq3qWNnRXyjCGwGyz_llxCAA=", "properties": {"ref": "263173449", "@spider": "clinical_pathology_laboratories", "addr:full": "14615 N. San Pedro Suite 170", "addr:city": "San Antonio", "addr:state": "TX", "addr:postcode": "78232", "addr:country": "US", "name": "San Antonio - One Medical Park", "website": "na", "brand": "Clinical Pathology Laboratories, Inc."}, "geometry": {"type": "Point", "coordinates": [-98.479903, 29.574113]}},
{"type": "Feature", "id": "JCt-L8crI1QzYxKzfzCCC-JTVgA=", "properties": {"ref": "263173450", "@spider": "clinical_pathology_laboratories", "addr:full": "3857 E. Southcross Suite 185", "addr:city": "San Antonio", "addr:state": "TX", "addr:postcode": "78222", "addr:country": "US", "name": "San Antonio - Pecan Plaza", "website": "na", "brand": "Clinical Pathology Laboratories, Inc."}, "geometry": {"type": "Point", "coordinates": [-98.42048, 29.374692]}},
{"type": "Feature", "id": "EiR9FF9xxqBgDyZxt57AoQhtMks=", "properties": {"ref": "263173451", "@spider": "clinical_pathology_laboratories", "addr:full": "527 Gaslight Blvd", "addr:city": "Lufkin", "addr:state": "TX", "addr:postcode": "75604", "addr:country": "US", "name": "DRL Lufkin", "website": "na", "brand": "Clinical Pathology Laboratories, Inc."}, "geometry": {"type": "Point", "coordinates": [-94.752124, 31.327712]}},
{"type": "Feature", "id": "sOCVyIVgfRWgBpiC5QTA9647yBY=", "properties": {"ref": "263173453", "@spider": "clinical_pathology_laboratories", "addr:full": "5211 ESSEN LANE,  SUITE 5", "addr:city": "Baton Rouge", "addr:state": "LA", "addr:postcode": "70809", "addr:country": "US", "name": "Baton Rouge Main", "website": "na", "brand": "Clinical Pathology Laboratories, Inc."}, "geometry": {"type": "Point", "coordinates": [-91.10138, 30.399363]}},
{"type": "Feature", "id": "eKjI5B-6ucTVH6J-xcfoXqyWIo0=", "properties": {"ref": "263173456", "@spider": "clinical_pathology_laboratories", "addr:full": "3201 Colorado Boulevard Suite 102", "addr:city": "Denton", "addr:state": "TX", "addr:postcode": "76240", "addr:country": "US", "name": "Denton - Colorado Blvd.", "website": "na", "brand": "Clinical Pathology Laboratories, Inc."}, "geometry": {"type": "Point", "coordinates": [-97.096114, 33.182139]}},
{"type": "Feature", "id": "cFMW9ZBJnfEk4HqGX6bFkWGbCEM=", "properties": {"ref": "263173457", "@spider": "clinical_pathology_laboratories", "addr:full": "12121 Richmond Avenue Street 210", "addr:city": "Houston", "addr:state": "TX", "addr:postcode": "77042", "addr:country": "US", "name": "West Houston", "website": "na", "brand": "Clinical Pathology Laboratories, Inc."}, "geometry": {"type": "Point", "coordinates": [-95.593744, 29.729174]}},
{"type": "Feature", "id": "iDWJZP3Klrp5HxAN1DXYOlQ9F3U=", "properties": {"ref": "263173458", "@spider": "clinical_pathology_laboratories", "addr:full": "5625 Eiger Road Suite 120", "addr:city": "Austin", "addr:state": "TX", "addr:postcode": "78735", "addr:country": "US", "name": "Austin - Southwest Medical Village", "website": "na", "brand": "Clinical Pathology Laboratories, Inc."}, "geometry": {"type": "Point", "coordinates": [-97.857424, 30.244944]}},
{"type": "Feature", "id": "9EefPvdAVwteB3I-iqRiwqOjlqU=", "properties": {"ref": "263173459", "@spider": "clinical_pathology_laboratories", "addr:full": "5757 Warren Parkway POB II Suite 100", "addr:city": "Frisco", "addr:state": "TX", "addr:postcode": "75034", "addr:country": "US", "name": "Frisco PSC", "website": "na", "brand": "Clinical Pathology Laboratories, Inc."}, "geometry": {"type": "Point", "coordinates": [-96.838065, 33.104957]}},
{"type": "Feature", "id": "7akz9Ke52P2DtJl1NESRubv1EgQ=", "properties": {"ref": "263173461", "@spider": "clinical_pathology_laboratories", "addr:full": "8160 Walnut Hill Lane Suite 111", "addr:city": "Dallas", "addr:state": "TX", "addr:postcode": "75231", "addr:country": "US", "name": "Dallas - Margot Perot", "website": "na", "brand": "Clinical Pathology Laboratories, Inc."}, "geometry": {"type": "Point", "coordinates": [-96.763944, 32.880969]}},
{"type": "Feature", "id": "guNcMfSKfnyzSlIztLCHeO1Rm84=", "properties": {"ref": "263173462", "@spider": "clinical_pathology_laboratories", "addr:full": "2250 Hospital Drive Suite 112", "addr:city": "Bossier City", "addr:state": "LA", "addr:postcode": "71111", "addr:country": "US", "name": "Bossier City", "website": "na", "brand": "Clinical Pathology Laboratories, Inc."}, "geometry": {"type": "Point", "coordinates": [-93.722654, 32.557946]}},
{"type": "Feature", "id": "KkSx6izTnIaq8sq7j7Iir-2FPoo=", "properties": {"ref": "263173463", "@spider": "clinical_pathology_laboratories", "addr:full": "7430 Barlite Suite 106", "addr:city": "San Antonio", "addr:state": "TX", "addr:postcode": "78224", "addr:country": "US", "name": "San Antonio - Women & Children Health Research", "website": "na", "brand": "Clinical Pathology Laboratories, Inc."}, "geometry": {"type": "Point", "coordinates": [-98.545641, 29.353836]}},
{"type": "Feature", "id": "5NKZYLx2H2pgNXzJOPYE2yUV7ww=", "properties": {"ref": "263173464", "@spider": "clinical_pathology_laboratories", "addr:full": "212 Wesley Drive", "addr:city": "Kerrville", "addr:state": "TX", "addr:postcode": "78028", "addr:country": "US", "name": "Kerrville - Medical Arts Plaza", "website": "na", "brand": "Clinical Pathology Laboratories, Inc."}, "geometry": {"type": "Point", "coordinates": [-99.150748, 30.046719]}},
{"type": "Feature", "id": "zxhJwoADInZEJqvH1WzAojVKhhk=", "properties": {"ref": "263173466", "@spider": "clinical_pathology_laboratories", "addr:full": "12276 San Jose Boulevard Suite 704", "addr:city": "Jacksonville", "addr:state": "FL", "addr:postcode": "32223", "addr:country": "US", "name": "Jacksonville - San Jose Blvd", "website": "na", "brand": "Clinical Pathology Laboratories, Inc."}, "geometry": {"type": "Point", "coordinates": [-81.634681, 30.146307]}},
{"type": "Feature", "id": "yXI085dQ2CzWMZiYBWdZwkt_iVI=", "properties": {"ref": "263173469", "@spider": "clinical_pathology_laboratories", "addr:full": "5771 S. Fort Apache Road Suite110", "addr:city": "Las Vegas", "addr:state": "NV", "addr:postcode": "89148", "addr:country": "US", "name": "Fort Apache", "website": "na", "brand": "Clinical Pathology Laboratories, Inc."}, "geometry": {"type": "Point", "coordinates": [-115.298922, 36.08362]}},
{"type": "Feature", "id": "p3tUoiXh9H6qlhqgKb_Qfclo5ec=", "properties": {"ref": "263173470", "@spider": "clinical_pathology_laboratories", "addr:full": "335 E Sonterra Blvd #212", "addr:city": "San Antonio", "addr:state": "TX", "addr:postcode": "78258", "addr:country": "US", "name": "San Antonio Sonterra", "website": "na", "brand": "Clinical Pathology Laboratories, Inc."}, "geometry": {"type": "Point", "coordinates": [-98.489306, 29.616885]}},
{"type": "Feature", "id": "07OG0HqifiH3f7BIUBbJGb3x-vs=", "properties": {"ref": "263173471", "@spider": "clinical_pathology_laboratories", "addr:full": "2802 Business Center Drive Suite 110", "addr:city": "Pearland", "addr:state": "TX", "addr:postcode": "77074", "addr:country": "US", "name": "Pearland", "website": "na", "brand": "Clinical Pathology Laboratories, Inc."}, "geometry": {"type": "Point", "coordinates": [-95.392538, 29.559656]}},
{"type": "Feature", "id": "BdgjyJtS_tpw0AYbFVVYpqT0DxQ=", "properties": {"ref": "263173474", "@spider": "clinical_pathology_laboratories", "addr:full": "66 Gruene Park Drive #104", "addr:city": "New Braunfels", "addr:state": "TX", "addr:postcode": "78130", "addr:country": "US", "name": "New Braunfels- Gruene Park Drive", "website": "na", "brand": "Clinical Pathology Laboratories, Inc."}, "geometry": {"type": "Point", "coordinates": [-98.093291, 29.726564]}},
{"type": "Feature", "id": "UgnMfPbHBmGQ7b7tEedVH7DHsuo=", "properties": {"ref": "263173475", "@spider": "clinical_pathology_laboratories", "addr:full": "2603 Osler Boulevard", "addr:city": "Bryan", "addr:state": "TX", "addr:postcode": "77802", "addr:country": "US", "name": "Osler", "website": "na", "brand": "Clinical Pathology Laboratories, Inc."}, "geometry": {"type": "Point", "coordinates": [-96.348317, 30.655402]}},
{"type": "Feature", "id": "K1r09TqOoeBUyrHqPmKD5uxqebY=", "properties": {"ref": "263173476", "@spider": "clinical_pathology_laboratories", "addr:full": "3535 N. Fourth Street", "addr:city": "Longview", "addr:state": "TX", "addr:postcode": "75605", "addr:country": "US", "name": "Longview PSC", "website": "na", "brand": "Clinical Pathology Laboratories, Inc."}, "geometry": {"type": "Point", "coordinates": [-94.731685, 32.505053]}},
{"type": "Feature", "id": "fzKXmfs0b_cU0uy7JBO-7TpLkDY=", "properties": {"ref": "263173477", "@spider": "clinical_pathology_laboratories", "addr:full": "3829 Saratoga Boulevard", "addr:city": "Corpus Christi", "addr:state": "TX", "addr:postcode": "78415", "addr:country": "US", "name": "Saratoga Blvd.", "website": "na", "brand": "Clinical Pathology Laboratories, Inc."}, "geometry": {"type": "Point", "coordinates": [-97.415438, 27.700399]}},
{"type": "Feature", "id": "H7VIAWH-TwXcFMSIEX-d_iAnmgE=", "properties": {"ref": "263173479", "@spider": "clinical_pathology_laboratories", "addr:full": "4102 Woodlawn Suite 120", "addr:city": "Pasadena", "addr:state": "TX", "addr:postcode": "77504", "addr:country": "US", "name": "Pasadena", "website": "na", "brand": "Clinical Pathology Laboratories, Inc."}, "geometry": {"type": "Point", "coordinates": [-95.186576, 29.661534]}},
{"type": "Feature", "id": "AwWGcviPbnNYWApRGX0Kd9mVlis=", "properties": {"ref": "263173480", "@spider": "clinical_pathology_laboratories", "addr:full": "8230 Walnut Hill Lane Suite 518", "addr:city": "Dallas", "addr:state": "TX", "addr:postcode": "75231", "addr:country": "US", "name": "Dallas - 8230 Walnut Hill", "website": "na", "brand": "Clinical Pathology Laboratories, Inc."}, "geometry": {"type": "Point", "coordinates": [-96.760691, 32.881854]}},
{"type": "Feature", "id": "H4fTWIN0K_Ah-XvaSWNVe7iqjac=", "properties": {"ref": "263173481", "@spider": "clinical_pathology_laboratories", "addr:full": "855 Belanger St # 108", "addr:city": "Houma", "addr:state": "LA", "addr:postcode": "70360", "addr:country": "US", "name": "Houma  (Inside 360 Wellness)", "website": "na", "brand": "Clinical Pathology Laboratories, Inc."}, "geometry": {"type": "Point", "coordinates": [-90.715806, 29.59697]}},
{"type": "Feature", "id": "ziwGSSRziAjD7ZkPHlauFEIdNlo=", "properties": {"ref": "263173482", "@spider": "clinical_pathology_laboratories", "addr:full": "7127 Somerset Rd Suite 102", "addr:city": "San Antonio", "addr:state": "TX", "addr:postcode": "78211", "addr:country": "US", "name": "San Antonio - Somerest Office Park", "website": "na", "brand": "Clinical Pathology Laboratories, Inc."}, "geometry": {"type": "Point", "coordinates": [-98.550076, 29.356292]}},
{"type": "Feature", "id": "CrGoX_VHsjAdp95TdbvoN1CDXio=", "properties": {"ref": "263173483", "@spider": "clinical_pathology_laboratories", "addr:full": "2535 Bert Kouns Industrial Loop Suite 219", "addr:city": "Shreveport", "addr:state": "LA", "addr:postcode": "71118", "addr:country": "US", "name": "Shreveport-Main", "website": "na", "brand": "Clinical Pathology Laboratories, Inc."}, "geometry": {"type": "Point", "coordinates": [-93.800273, 32.401401]}},
{"type": "Feature", "id": "CLyoKdzlP-ceRj7OaxqILKniIsM=", "properties": {"ref": "263173484", "@spider": "clinical_pathology_laboratories", "addr:full": "6295 S. Rainbow Boulevard Suite 103", "addr:city": "Las Vegas", "addr:state": "NV", "addr:postcode": "89118", "addr:country": "US", "name": "Las Vegas - Rainbow Blvd.", "website": "na", "brand": "Clinical Pathology Laboratories, Inc."}, "geometry": {"type": "Point", "coordinates": [-115.243315, 36.074591]}},
{"type": "Feature", "id": "_3OSDqIAIWcPP2OVO-3sGlzXYzI=", "properties": {"ref": "263173485", "@spider": "clinical_pathology_laboratories", "addr:full": "401 N. Hancock", "addr:city": "Odessa", "addr:state": "TX", "addr:postcode": "79761", "addr:country": "US", "name": "Odessa", "website": "na", "brand": "Clinical Pathology Laboratories, Inc."}, "geometry": {"type": "Point", "coordinates": [-102.366134, 31.84918]}},
{"type": "Feature", "id": "DA1GfLADM5Iw4L03XTfyCIyOgQM=", "properties": {"ref": "263173486", "@spider": "clinical_pathology_laboratories", "addr:full": "11212 Hwy 151 Bldg 2, Ste 370", "addr:city": "San Antonio", "addr:state": "TX", "addr:postcode": "78251", "addr:country": "US", "name": "San Antonio - Westover Hills", "website": "na", "brand": "Clinical Pathology Laboratories, Inc."}, "geometry": {"type": "Point", "coordinates": [-98.697015, 29.466891]}},
{"type": "Feature", "id": "g7L0-W0tGGp2glMMdpZwX7WkrDY=", "properties": {"ref": "263173489", "@spider": "clinical_pathology_laboratories", "addr:full": "1707 W. Charleston Blvd Suite 130", "addr:city": "Las Vegas", "addr:state": "NV", "addr:postcode": "89102", "addr:country": "US", "name": "Las Vegas - UNLV", "website": "na", "brand": "Clinical Pathology Laboratories, Inc."}, "geometry": {"type": "Point", "coordinates": [-115.163691, 36.158022]}},
{"type": "Feature", "id": "nxmdc73Emd4IEhGwf7Ahc9saAEM=", "properties": {"ref": "263173490", "@spider": "clinical_pathology_laboratories", "addr:full": "1813 Golden Trail Court Suite 120", "addr:city": "Carrollton", "addr:state": "TX", "addr:postcode": "75010", "addr:country": "US", "name": "Carrollton PSC", "website": "na", "brand": "Clinical Pathology Laboratories, Inc."}, "geometry": {"type": "Point", "coordinates": [-96.879134, 33.024244]}},
{"type": "Feature", "id": "WoiZfJZ9eL-l7MNjdWq_vB_Oco8=", "properties": {"ref": "263173491", "@spider": "clinical_pathology_laboratories", "addr:full": "2500 S. Lakeline Blvd Suite 203", "addr:city": "Cedar Park", "addr:state": "TX", "addr:postcode": "78613", "addr:country": "US", "name": "Cedar Park - Lakeline Blvd.", "website": "na", "brand": "Clinical Pathology Laboratories, Inc."}, "geometry": {"type": "Point", "coordinates": [-97.816408, 30.476352]}},
{"type": "Feature", "id": "OenmNu6u9b8LuJ_p43pjydPVPOA=", "properties": {"ref": "263173492", "@spider": "clinical_pathology_laboratories", "addr:full": "100 Wolfe Nursery Rd #105", "addr:city": "Stephenville", "addr:state": "TX", "addr:postcode": "76401", "addr:country": "US", "name": "Stephenville PSC", "website": "na", "brand": "Clinical Pathology Laboratories, Inc."}, "geometry": {"type": "Point", "coordinates": [-98.23962, 32.20463]}},
{"type": "Feature", "id": "6s2nZAvF318bIXsV5Zr1meGI7ZM=", "properties": {"ref": "263173495", "@spider": "clinical_pathology_laboratories", "addr:full": "506 E 2nd Street Ste A", "addr:city": "Rio Grande City", "addr:state": "TX", "addr:postcode": "78582", "addr:country": "US", "name": "Rio Grande", "website": "na", "brand": "Clinical Pathology Laboratories, Inc."}, "geometry": {"type": "Point", "coordinates": [-98.622575, 26.592249]}},
{"type": "Feature", "id": "5AZQgzXTeSkXCxRXgPkyzlNrqzo=", "properties": {"ref": "263173496", "@spider": "clinical_pathology_laboratories", "addr:full": "11720 FM 1960 W", "addr:city": "Houston", "addr:state": "TX", "addr:postcode": "77065", "addr:country": "US", "name": "Fallbrook", "website": "na", "brand": "Clinical Pathology Laboratories, Inc."}, "geometry": {"type": "Point", "coordinates": [-95.59693, 29.92725]}},
{"type": "Feature", "id": "hu93XXsyb3tPqskwVglAVIFP5f8=", "properties": {"ref": "263173497", "@spider": "clinical_pathology_laboratories", "addr:full": "3537 South I-35 E Suite 212", "addr:city": "Denton", "addr:state": "TX", "addr:postcode": "76210", "addr:country": "US", "name": "Denton Reginal Medical Center", "website": "na", "brand": "Clinical Pathology Laboratories, Inc."}, "geometry": {"type": "Point", "coordinates": [-97.091092, 33.176961]}},
{"type": "Feature", "id": "VqSOto2jWvDcdL5AWWuF60PuQAs=", "properties": {"ref": "263173498", "@spider": "clinical_pathology_laboratories", "addr:full": "4255 E. Charleston Boulevard Suite I", "addr:city": "Las Vegas", "addr:state": "NV", "addr:postcode": "89104", "addr:country": "US", "name": "Las Vegas -  East Charleston", "website": "na", "brand": "Clinical Pathology Laboratories, Inc."}, "geometry": {"type": "Point", "coordinates": [-115.082138, 36.158265]}},
{"type": "Feature", "id": "R9RV-Yy1v1Vp6h7zt-JZs7oUs2U=", "properties": {"ref": "263173499", "@spider": "clinical_pathology_laboratories", "addr:full": "3430 W. Wheatland Road Physicians Office 1 Suite 116", "addr:city": "Dallas", "addr:state": "TX", "addr:postcode": "75237", "addr:country": "US", "name": "Dallas - Charlton Methodist PSC", "website": "na", "brand": "Clinical Pathology Laboratories, Inc."}, "geometry": {"type": "Point", "coordinates": [-96.875461, 32.647406]}},
{"type": "Feature", "id": "RhmcZlhYa75j4MoqHCGRD6ANhLc=", "properties": {"ref": "263173500", "@spider": "clinical_pathology_laboratories", "addr:full": "4315 James Casey, Ste. 101", "addr:city": "Austin", "addr:state": "TX", "addr:postcode": "78745", "addr:country": "US", "name": "Austin - James Casey", "website": "na", "brand": "Clinical Pathology Laboratories, Inc."}, "geometry": {"type": "Point", "coordinates": [-97.775016, 30.223671]}},
{"type": "Feature", "id": "L_VeOqFWWG25dJXLqoCBS20wlqs=", "properties": {"ref": "263173501", "@spider": "clinical_pathology_laboratories", "addr:full": "6300 Main Street", "addr:city": "Zachary", "addr:state": "LA", "addr:postcode": "70791", "addr:country": "US", "name": "Lane Memorial Hospital", "website": "na", "brand": "Clinical Pathology Laboratories, Inc."}, "geometry": {"type": "Point", "coordinates": [-91.13751, 30.649011]}},
{"type": "Feature", "id": "4_BUZKX_e_CkKyYytYDBW3__EKg=", "properties": {"ref": "263173502", "@spider": "clinical_pathology_laboratories", "addr:full": "12201 Renfert Way Suite 102", "addr:city": "Austin", "addr:state": "TX", "addr:postcode": "78758", "addr:country": "US", "name": "Austin - Medical Oaks Pavillion", "website": "na", "brand": "Clinical Pathology Laboratories, Inc."}, "geometry": {"type": "Point", "coordinates": [-97.704692, 30.409695]}},
{"type": "Feature", "id": "wcCOpcz_Mn7x3VXxwYxAm9cmwr8=", "properties": {"ref": "263173503", "@spider": "clinical_pathology_laboratories", "addr:full": "1200 Hospital Drive Suite 7", "addr:city": "Opelousas", "addr:state": "LA", "addr:postcode": "70570", "addr:country": "US", "name": "Opelousas", "website": "na", "brand": "Clinical Pathology Laboratories, Inc."}, "geometry": {"type": "Point", "coordinates": [-92.075045, 30.543387]}},
{"type": "Feature", "id": "GY7RPN3Nfc7pO1qRJXcfYT8ltRk=", "properties": {"ref": "263173504", "@spider": "clinical_pathology_laboratories", "addr:full": "242 E. Evergreen", "addr:city": "Sherman", "addr:state": "TX", "addr:postcode": "75090", "addr:country": "US", "name": "Sherman", "website": "na", "brand": "Clinical Pathology Laboratories, Inc."}, "geometry": {"type": "Point", "coordinates": [-96.609836, 33.647104]}},
{"type": "Feature", "id": "EzomIUtfg_SK0Vsb7CUUlmpQb1A=", "properties": {"ref": "263173505", "@spider": "clinical_pathology_laboratories", "addr:full": "875 Collegiate Drive", "addr:city": "Paris", "addr:state": "TX", "addr:postcode": "75460", "addr:country": "US", "name": "Paris", "website": "na", "brand": "Clinical Pathology Laboratories, Inc."}, "geometry": {"type": "Point", "coordinates": [-95.526831, 33.653778]}},
{"type": "Feature", "id": "JKJ4t-lSNnrND4OsvhFSj7UZdOk=", "properties": {"ref": "263173506", "@spider": "clinical_pathology_laboratories", "addr:full": "150 Pine Forest Dr. STE 203", "addr:city": "Shenandoah", "addr:state": "TX", "addr:postcode": "77380", "addr:country": "US", "name": "Vision Park PSC", "website": "na", "brand": "Clinical Pathology Laboratories, Inc."}, "geometry": {"type": "Point", "coordinates": [-95.458677, 30.18919]}},
{"type": "Feature", "id": "3KwEfvweqEyQyeJdvj56A9lu34w=", "properties": {"ref": "263173507", "@spider": "clinical_pathology_laboratories", "addr:full": "12702 Toepperwein Ste 112", "addr:city": "San Antonio", "addr:state": "TX", "addr:postcode": "78233", "addr:country": "US", "name": "San Antonio - I 35 Plaza (Toepperwein)", "website": "na", "brand": "Clinical Pathology Laboratories, Inc."}, "geometry": {"type": "Point", "coordinates": [-98.345723, 29.554613]}},
{"type": "Feature", "id": "6whqaZcv0htZYUeo3tWgFMuG378=", "properties": {"ref": "263173508", "@spider": "clinical_pathology_laboratories", "addr:full": "5425 W. Spring Creek Parkway Suite 240", "addr:city": "Plano", "addr:state": "TX", "addr:postcode": "75024", "addr:country": "US", "name": "Plano - Legacy Medical PSC", "website": "na", "brand": "Clinical Pathology Laboratories, Inc."}, "geometry": {"type": "Point", "coordinates": [-96.811241, 33.063076]}},
{"type": "Feature", "id": "YYR63SX-DjdrdMy4oDLZqhYenOo=", "properties": {"ref": "263173509", "@spider": "clinical_pathology_laboratories", "addr:full": "1525 East 6th Street A-1", "addr:city": "Weslaco", "addr:state": "TX", "addr:postcode": "78596", "addr:country": "US", "name": "Weslaco", "website": "na", "brand": "Clinical Pathology Laboratories, Inc."}, "geometry": {"type": "Point", "coordinates": [-97.974043, 26.150319]}},
{"type": "Feature", "id": "mqoE7NMs5x1eo3pB_vLbKlvI6uQ=", "properties": {"ref": "263173511", "@spider": "clinical_pathology_laboratories", "addr:full": "700 Olympic Plaza Suite 270", "addr:city": "Tyler", "addr:state": "TX", "addr:postcode": "75701", "addr:country": "US", "name": "Tyler - POB", "website": "na", "brand": "Clinical Pathology Laboratories, Inc."}, "geometry": {"type": "Point", "coordinates": [-95.292528, 32.337318]}},
{"type": "Feature", "id": "B30xUbAXwRwJJydcqhMgkT68yUk=", "properties": {"ref": "263173513", "@spider": "clinical_pathology_laboratories", "addr:full": "601 E. San Antonio Street Suite 201", "addr:city": "Victoria", "addr:state": "TX", "addr:postcode": "77901", "addr:country": "US", "name": "Victoria - Detar Medical Plaza", "website": "na", "brand": "Clinical Pathology Laboratories, Inc."}, "geometry": {"type": "Point", "coordinates": [-96.997724, 28.808092]}},
{"type": "Feature", "id": "v0omxEKODPdQD6qGSDlcaY8v_l0=", "properties": {"ref": "263173514", "@spider": "clinical_pathology_laboratories", "addr:full": "1905 SW H. K. Dodgen Loop", "addr:city": "Temple", "addr:state": "TX", "addr:postcode": "76549", "addr:country": "US", "name": "Temple PSC", "website": "na", "brand": "Clinical Pathology Laboratories, Inc."}, "geometry": {"type": "Point", "coordinates": [-97.37686, 31.07299]}},
{"type": "Feature", "id": "xpXsBR9yHQaqRkPkWfHpiXtFzvQ=", "properties": {"ref": "263173516", "@spider": "clinical_pathology_laboratories", "addr:full": "8080 Independence Parkway Suite 225", "addr:city": "Plano", "addr:state": "TX", "addr:postcode": "75025", "addr:country": "US", "name": "Plano - Independence Medical Village", "website": "na", "brand": "Clinical Pathology Laboratories, Inc."}, "geometry": {"type": "Point", "coordinates": [-96.748429, 33.088239]}},
{"type": "Feature", "id": "inIfK7UpB45YGCQV65tj3yGkX4o=", "properties": {"ref": "263173517", "@spider": "clinical_pathology_laboratories", "addr:full": "609 Hemphill Street Suite 102", "addr:city": "Ft Worth", "addr:state": "TX", "addr:postcode": "76104", "addr:country": "US", "name": "Ft. Worth - Hemphill", "website": "na", "brand": "Clinical Pathology Laboratories, Inc."}, "geometry": {"type": "Point", "coordinates": [-97.331577, 32.737758]}},
{"type": "Feature", "id": "AGt1Ks_6IXA38TuVKnkJqRGRico=", "properties": {"ref": "263173519", "@spider": "clinical_pathology_laboratories", "addr:full": "1200 Carl Ramert Drive", "addr:city": "Yoakum", "addr:state": "TX", "addr:postcode": "77995", "addr:country": "US", "name": "Yoakum Community Hospital Medical Outpatient Building", "website": "na", "brand": "Clinical Pathology Laboratories, Inc."}, "geometry": {"type": "Point", "coordinates": [-97.129292, 29.307069]}},
{"type": "Feature", "id": "R5OhnNc6NXkCnf_rWk3A515bzjM=", "properties": {"ref": "263173520", "@spider": "clinical_pathology_laboratories", "addr:full": "170 Benney Lane Suite 102", "addr:city": "Dripping Springs", "addr:state": "TX", "addr:postcode": "78620", "addr:country": "US", "name": "Dripping Springs PSC", "website": "na", "brand": "Clinical Pathology Laboratories, Inc."}, "geometry": {"type": "Point", "coordinates": [-98.10035, 30.19526]}},
{"type": "Feature", "id": "nYUhHlfHM71haEn3gRHLiCaFdZA=", "properties": {"ref": "263173521", "@spider": "clinical_pathology_laboratories", "addr:full": "4635 NE Stalling Drive Suite 102", "addr:city": "Nacogdoches", "addr:state": "TX", "addr:postcode": "75965", "addr:country": "US", "name": "Nacogdoches - Stallings", "website": "na", "brand": "Clinical Pathology Laboratories, Inc."}, "geometry": {"type": "Point", "coordinates": [-94.650181, 31.651327]}},
{"type": "Feature", "id": "zLMtkG6uF9uUS2ks4IcbT-33oDg=", "properties": {"ref": "263173522", "@spider": "clinical_pathology_laboratories", "addr:full": "2270 Joe Battle, Suite D", "addr:city": "El Paso", "addr:state": "TX", "addr:postcode": "79938", "addr:country": "US", "name": "El Paso - 2270 Joe Battle     Please Note Temporary Change in Hours Due to COVID-19.", "website": "na", "brand": "Clinical Pathology Laboratories, Inc."}, "geometry": {"type": "Point", "coordinates": [-106.266695, 31.783703]}},
{"type": "Feature", "id": "RhYq4rCj8dc-lL40xrT7wRu5sxQ=", "properties": {"ref": "263173524", "@spider": "clinical_pathology_laboratories", "addr:full": "5615-C Jackson Street", "addr:city": "Alexandria", "addr:state": "LA", "addr:postcode": "71303", "addr:country": "US", "name": "Alexandria", "website": "na", "brand": "Clinical Pathology Laboratories, Inc."}, "geometry": {"type": "Point", "coordinates": [-92.486507, 31.268161]}},
{"type": "Feature", "id": "ZM_xkcC5AcsHBuV3toczLBUATpI=", "properties": {"ref": "263173525", "@spider": "clinical_pathology_laboratories", "addr:full": "10141 US Hwy 59 Road", "addr:city": "Wharton", "addr:state": "TX", "addr:postcode": "77488", "addr:country": "US", "name": "Wharton", "website": "na", "brand": "Clinical Pathology Laboratories, Inc."}, "geometry": {"type": "Point", "coordinates": [-96.117415, 29.328597]}},
{"type": "Feature", "id": "DJBUpwc4IunvMV_yyyNJFYvyZOM=", "properties": {"ref": "263173526", "@spider": "clinical_pathology_laboratories", "addr:full": "601 W. State Highway 6 Suite 107", "addr:city": "Waco", "addr:state": "TX", "addr:postcode": "76710", "addr:country": "US", "name": "Waco PSC", "website": "na", "brand": "Clinical Pathology Laboratories, Inc."}, "geometry": {"type": "Point", "coordinates": [-97.198595, 31.518262]}},
{"type": "Feature", "id": "f71uyzK6BWlRETnwv-FewWTjbcA=", "properties": {"ref": "263173527", "@spider": "clinical_pathology_laboratories", "addr:full": "1111 W. 34th Street Suite 100", "addr:city": "Austin", "addr:state": "TX", "addr:postcode": "78705", "addr:country": "US", "name": "Austin - Bailey Square", "website": "na", "brand": "Clinical Pathology Laboratories, Inc."}, "geometry": {"type": "Point", "coordinates": [-97.746706, 30.302932]}},
{"type": "Feature", "id": "dsD2RiJO48XWzwDsiDo2FQoUaSM=", "properties": {"ref": "263173529", "@spider": "clinical_pathology_laboratories", "addr:full": "4510 Ambassador Caffery Suite B", "addr:city": "Lafayette", "addr:state": "LA", "addr:postcode": "70508", "addr:country": "US", "name": "Lafayette - Ambassador Caffery", "website": "na", "brand": "Clinical Pathology Laboratories, Inc."}, "geometry": {"type": "Point", "coordinates": [-92.066016, 30.239717]}},
{"type": "Feature", "id": "OGnF_ossns-txBZdk3nOjoqU2J4=", "properties": {"ref": "263173531", "@spider": "clinical_pathology_laboratories", "addr:full": "2045 E. Cheyenne Avenue Suite 150", "addr:city": "Las Vegas", "addr:state": "NV", "addr:postcode": "89030", "addr:country": "US", "name": "Cheyenne", "website": "na", "brand": "Clinical Pathology Laboratories, Inc."}, "geometry": {"type": "Point", "coordinates": [-115.120602, 36.216349]}},
{"type": "Feature", "id": "9H0XoxGMHbIHizo6SsDFuBC3WGs=", "properties": {"ref": "263173532", "@spider": "clinical_pathology_laboratories", "addr:full": "4112 Links Lane Suite 100", "addr:city": "Round Rock", "addr:state": "TX", "addr:postcode": "78664", "addr:country": "US", "name": "Round Rock - Forest Creek", "website": "na", "brand": "Clinical Pathology Laboratories, Inc."}, "geometry": {"type": "Point", "coordinates": [-97.600364, 30.498664]}},
{"type": "Feature", "id": "YZ_BF7krdUMxgTs8985AYOT3XEk=", "properties": {"ref": "263173533", "@spider": "clinical_pathology_laboratories", "addr:full": "1200 Binz Suite 1360", "addr:city": "Houston", "addr:state": "TX", "addr:postcode": "77004", "addr:country": "US", "name": "Binz", "website": "na", "brand": "Clinical Pathology Laboratories, Inc."}, "geometry": {"type": "Point", "coordinates": [-95.388046, 29.724219]}},
{"type": "Feature", "id": "HAYctmJDG8teGRYH58JSd5W5e-0=", "properties": {"ref": "263173534", "@spider": "clinical_pathology_laboratories", "addr:full": "3401 W Alberta Rd", "addr:city": "Edinburg", "addr:state": "TX", "addr:postcode": "78539", "addr:country": "US", "name": "Edinburg", "website": "na", "brand": "Clinical Pathology Laboratories, Inc."}, "geometry": {"type": "Point", "coordinates": [-98.204683, 26.258588]}},
{"type": "Feature", "id": "iLuADtSBFNJhZbS0-AjvBDUnp_s=", "properties": {"ref": "263173536", "@spider": "clinical_pathology_laboratories", "addr:full": "3724 20th Street", "addr:city": "Lubbock", "addr:state": "TX", "addr:postcode": "79410", "addr:country": "US", "name": "Lubbock", "website": "na", "brand": "Clinical Pathology Laboratories, Inc."}, "geometry": {"type": "Point", "coordinates": [-101.895931, 33.577198]}},
{"type": "Feature", "id": "FhS7w6hurKHhLpgI0VwnYz-cduM=", "properties": {"ref": "263173538", "@spider": "clinical_pathology_laboratories", "addr:full": "3939 North Fry Road Ste. B", "addr:city": "Katy", "addr:state": "TX", "addr:postcode": "77449", "addr:country": "US", "name": "Katy", "website": "na", "brand": "Clinical Pathology Laboratories, Inc."}, "geometry": {"type": "Point", "coordinates": [-95.720485, 29.827916]}},
{"type": "Feature", "id": "0FoOs8atI9duB87L0lrKh70RqGI=", "properties": {"ref": "263173540", "@spider": "clinical_pathology_laboratories", "addr:full": "343 W. Houston Suite 206", "addr:city": "San Antonio", "addr:state": "TX", "addr:postcode": "78205", "addr:country": "US", "name": "San Antonio - Rosa Verde Tower", "website": "na", "brand": "Clinical Pathology Laboratories, Inc."}, "geometry": {"type": "Point", "coordinates": [-98.496712, 29.426433]}},
{"type": "Feature", "id": "U6e-PaTmSRXsqPLGjyLr4z_xPeo=", "properties": {"ref": "263173541", "@spider": "clinical_pathology_laboratories", "addr:full": "2540 N. Galloway Suite 207", "addr:city": "Mesquite", "addr:state": "TX", "addr:postcode": "75150", "addr:country": "US", "name": "Mesquite - Galloway", "website": "na", "brand": "Clinical Pathology Laboratories, Inc."}, "geometry": {"type": "Point", "coordinates": [-96.6102, 32.799496]}},
{"type": "Feature", "id": "HZmIEFH0cYpRtEIOJogabttMbhA=", "properties": {"ref": "263173542", "@spider": "clinical_pathology_laboratories", "addr:full": "4499 Medical Drive Suite 100", "addr:city": "San Antonio", "addr:state": "TX", "addr:postcode": "78229", "addr:country": "US", "name": "San Antonio - Methodist Plaza", "website": "na", "brand": "Clinical Pathology Laboratories, Inc."}, "geometry": {"type": "Point", "coordinates": [-98.571603, 29.51042]}},
{"type": "Feature", "id": "kSLhTZN9xYEzx7A1eDGp7cPk1gE=", "properties": {"ref": "263173543", "@spider": "clinical_pathology_laboratories", "addr:full": "19701 Kingwood Drive Building 4 Suite B", "addr:city": "Kingwood", "addr:state": "TX", "addr:postcode": "77339", "addr:country": "US", "name": "Kingwood", "website": "na", "brand": "Clinical Pathology Laboratories, Inc."}, "geometry": {"type": "Point", "coordinates": [-95.257769, 30.051999]}},
{"type": "Feature", "id": "90Ro4t3lkKzVFxEMJEhcRGc-st0=", "properties": {"ref": "263173544", "@spider": "clinical_pathology_laboratories", "addr:full": "1216 Victor II Blvd", "addr:city": "Morgan City", "addr:state": "LA", "addr:postcode": "70380", "addr:country": "US", "name": "Morgan City", "website": "na", "brand": "Clinical Pathology Laboratories, Inc."}, "geometry": {"type": "Point", "coordinates": [-91.198992, 29.707973]}},
{"type": "Feature", "id": "v45YJSJGcEE-9qTnZTWvpO8qgr8=", "properties": {"ref": "263173545", "@spider": "clinical_pathology_laboratories", "addr:full": "3600 Gaston Ave Suite 1051", "addr:city": "Dallas", "addr:state": "TX", "addr:postcode": "75246", "addr:country": "US", "name": "Dallas - Wadley Tower", "website": "na", "brand": "Clinical Pathology Laboratories, Inc."}, "geometry": {"type": "Point", "coordinates": [-96.779725, 32.791002]}},
{"type": "Feature", "id": "6RixZLUFlVspESbyrX77flE0P7s=", "properties": {"ref": "263173546", "@spider": "clinical_pathology_laboratories", "addr:full": "1025 N. Austin", "addr:city": "Seguin", "addr:state": "TX", "addr:postcode": "78155", "addr:country": "US", "name": "Seguin PSC", "website": "na", "brand": "Clinical Pathology Laboratories, Inc."}, "geometry": {"type": "Point", "coordinates": [-97.9643, 29.57844]}},
{"type": "Feature", "id": "WpzkHfGFIdHUb78FGNReZO-MysE=", "properties": {"ref": "263173547", "@spider": "clinical_pathology_laboratories", "addr:full": "631 W. 38th Street", "addr:city": "Austin", "addr:state": "TX", "addr:postcode": "78705", "addr:country": "US", "name": "Austin - West 38th St", "website": "na", "brand": "Clinical Pathology Laboratories, Inc."}, "geometry": {"type": "Point", "coordinates": [-97.73993, 30.302964]}},
{"type": "Feature", "id": "qsH5UdedX_qIPQLTbfcnBZFcH3o=", "properties": {"ref": "263173549", "@spider": "clinical_pathology_laboratories", "addr:full": "4001 S. Decatur Boulevard Suite 5", "addr:city": "Las Vegas", "addr:state": "NV", "addr:postcode": "89103", "addr:country": "US", "name": "Decatur", "website": "na", "brand": "Clinical Pathology Laboratories, Inc."}, "geometry": {"type": "Point", "coordinates": [-115.209933, 36.117263]}},
{"type": "Feature", "id": "WDfcElrRelNhgqkcWo5ADkVkJZw=", "properties": {"ref": "263173550", "@spider": "clinical_pathology_laboratories", "addr:full": "12200 Renfert Way Suite 102", "addr:city": "Austin", "addr:state": "TX", "addr:postcode": "78758", "addr:country": "US", "name": "Austin - St David's Womens Center", "website": "na", "brand": "Clinical Pathology Laboratories, Inc."}, "geometry": {"type": "Point", "coordinates": [-97.705644, 30.411707]}},
{"type": "Feature", "id": "nE8nJGAQ_eluplSUCE_Ec01C9so=", "properties": {"ref": "263173551", "@spider": "clinical_pathology_laboratories", "addr:full": "100 Medical Center Boulevard Suite 108", "addr:city": "Conroe", "addr:state": "TX", "addr:postcode": "77304", "addr:country": "US", "name": "Conroe", "website": "na", "brand": "Clinical Pathology Laboratories, Inc."}, "geometry": {"type": "Point", "coordinates": [-95.464872, 30.286892]}},
{"type": "Feature", "id": "wa0MPvS2iHrW-FKuOZANr9mEpIQ=", "properties": {"ref": "263173552", "@spider": "clinical_pathology_laboratories", "addr:full": "998 E. Main St", "addr:city": "Uvalde", "addr:state": "TX", "addr:postcode": "78801", "addr:country": "US", "name": "Uvalde", "website": "na", "brand": "Clinical Pathology Laboratories, Inc."}, "geometry": {"type": "Point", "coordinates": [-99.770441, 29.215301]}},
{"type": "Feature", "id": "kW6FeMABG28ZSELihaY5bgyxzAk=", "properties": {"ref": "263173553", "@spider": "clinical_pathology_laboratories", "addr:full": "210 West Park Drive Suite 102", "addr:city": "Livingston", "addr:state": "TX", "addr:postcode": "77351", "addr:country": "US", "name": "Livingston", "website": "na", "brand": "Clinical Pathology Laboratories, Inc."}, "geometry": {"type": "Point", "coordinates": [-94.942007, 30.73035]}},
{"type": "Feature", "id": "CG18mvbSjfLffKZptU4jeg2jvZg=", "properties": {"ref": "263173554", "@spider": "clinical_pathology_laboratories", "addr:full": "1610 9th Street Suite B", "addr:city": "Wichita Falls", "addr:state": "TX", "addr:postcode": "76301", "addr:country": "US", "name": "Wichita Falls", "website": "na", "brand": "Clinical Pathology Laboratories, Inc."}, "geometry": {"type": "Point", "coordinates": [-98.503016, 33.904617]}},
{"type": "Feature", "id": "5D3qtJNZsFpddFKnjLatIpefkSQ=", "properties": {"ref": "263173555", "@spider": "clinical_pathology_laboratories", "addr:full": "4520 Wichers Drive Suite 102", "addr:city": "Marrero", "addr:state": "LA", "addr:postcode": "70072", "addr:country": "US", "name": "Marrero", "website": "na", "brand": "Clinical Pathology Laboratories, Inc."}, "geometry": {"type": "Point", "coordinates": [-90.094966, 29.889495]}},
{"type": "Feature", "id": "OOb0Q2XB_vidvmKrETzvXbuztT4=", "properties": {"ref": "263173557", "@spider": "clinical_pathology_laboratories", "addr:full": "521 Interstate 45 Ste. #12", "addr:city": "Huntsville", "addr:state": "TX", "addr:postcode": "77340", "addr:country": "US", "name": "Huntsville", "website": "na", "brand": "Clinical Pathology Laboratories, Inc."}, "geometry": {"type": "Point", "coordinates": [-95.578413, 30.720633]}},
{"type": "Feature", "id": "R3ZjO0sGCNUjdwuHu88F3AoPe98=", "properties": {"ref": "263173558", "@spider": "clinical_pathology_laboratories", "addr:full": "2000 A Medical Parkway", "addr:city": "San Marcos", "addr:state": "TX", "addr:postcode": "78666", "addr:country": "US", "name": "San Marcos MedPark", "website": "na", "brand": "Clinical Pathology Laboratories, Inc."}, "geometry": {"type": "Point", "coordinates": [-97.94761, 29.85373]}},
{"type": "Feature", "id": "fkFfJjre6xE1K3NN9NaXIZZHaTM=", "properties": {"ref": "263173559", "@spider": "clinical_pathology_laboratories", "addr:full": "5656 Bee Caves Rd Suite K-101", "addr:city": "Austin", "addr:state": "TX", "addr:postcode": "78746", "addr:country": "US", "name": "Austin - West Lake", "website": "na", "brand": "Clinical Pathology Laboratories, Inc."}, "geometry": {"type": "Point", "coordinates": [-97.82587, 30.296538]}},
{"type": "Feature", "id": "-kAPQSA45AnZz7Ny6hGMW3HVYhE=", "properties": {"ref": "263173560", "@spider": "clinical_pathology_laboratories", "addr:full": "1250 8th Avenue Suite 335", "addr:city": "Ft Worth", "addr:state": "TX", "addr:postcode": "76104", "addr:country": "US", "name": "Ft. Worth - Eighth Ave.", "website": "na", "brand": "Clinical Pathology Laboratories, Inc."}, "geometry": {"type": "Point", "coordinates": [-97.344146, 32.731101]}},
{"type": "Feature", "id": "NlnUu616C5KvBmX6yZxeR9g3_sA=", "properties": {"ref": "263173561", "@spider": "clinical_pathology_laboratories", "addr:full": "1602 Rock Prairie Road Suite 150", "addr:city": "College Station", "addr:state": "TX", "addr:postcode": "77845", "addr:country": "US", "name": "Rock Prairie", "website": "na", "brand": "Clinical Pathology Laboratories, Inc."}, "geometry": {"type": "Point", "coordinates": [-96.292237, 30.582282]}},
{"type": "Feature", "id": "tz_36Ah7lkssl8f8HBIs8t3MCvQ=", "properties": {"ref": "263173562", "@spider": "clinical_pathology_laboratories", "addr:full": "2013 Wells Branch Parkway Suite 115", "addr:city": "Austin", "addr:state": "TX", "addr:postcode": "78728", "addr:country": "US", "name": "Austin - Wells Branch", "website": "na", "brand": "Clinical Pathology Laboratories, Inc."}, "geometry": {"type": "Point", "coordinates": [-97.68293, 30.434632]}},
{"type": "Feature", "id": "-hWXKQPRVoZ2hKbn4YVpwVT1R-U=", "properties": {"ref": "263173563", "@spider": "clinical_pathology_laboratories", "addr:full": "3303 Rogers Road Suite 110", "addr:city": "San Antonio", "addr:state": "TX", "addr:postcode": "78251", "addr:country": "US", "name": "San Antonio - Rogers Rd.", "website": "na", "brand": "Clinical Pathology Laboratories, Inc."}, "geometry": {"type": "Point", "coordinates": [-98.689429, 29.466122]}},
{"type": "Feature", "id": "8jluc7vRVyVcwP21Qbox_k8DPB8=", "properties": {"ref": "263173564", "@spider": "clinical_pathology_laboratories", "addr:full": "711 Lehmann Dr", "addr:city": "Kerrville", "addr:state": "TX", "addr:postcode": "78028", "addr:country": "US", "name": "Kerrville Lehmann Dr", "website": "na", "brand": "Clinical Pathology Laboratories, Inc."}, "geometry": {"type": "Point", "coordinates": [-99.144426, 30.034202]}},
{"type": "Feature", "id": "a5_xGQh81k6_749LWzl9d_6TIHc=", "properties": {"ref": "263173565", "@spider": "clinical_pathology_laboratories", "addr:full": "7591 Fern Avenue Suite1502", "addr:city": "Shreveport", "addr:state": "LA", "addr:postcode": "71105", "addr:country": "US", "name": "Shreveport - Fern Ave.", "website": "na", "brand": "Clinical Pathology Laboratories, Inc."}, "geometry": {"type": "Point", "coordinates": [-93.7256, 32.432231]}},
{"type": "Feature", "id": "BCvbKZkOmG7qnKROnuM4lY_3EOk=", "properties": {"ref": "263173566", "@spider": "clinical_pathology_laboratories", "addr:full": "106 Springwood Drive Suite 100", "addr:city": "Victoria", "addr:state": "TX", "addr:postcode": "77904", "addr:country": "US", "name": "Victoria - Springwood Dr.", "website": "na", "brand": "Clinical Pathology Laboratories, Inc."}, "geometry": {"type": "Point", "coordinates": [-97.017109, 28.85162]}},
{"type": "Feature", "id": "0MlelLuDJQZenHJjBa1ep-2xwug=", "properties": {"ref": "263173569", "@spider": "clinical_pathology_laboratories", "addr:full": "5802 Saratoga Blvd. Ste. 100", "addr:city": "Corpus Christi", "addr:state": "TX", "addr:postcode": "78414", "addr:country": "US", "name": "Corpus Christi - Wellspring", "website": "na", "brand": "Clinical Pathology Laboratories, Inc."}, "geometry": {"type": "Point", "coordinates": [-97.376365, 27.68743]}},
{"type": "Feature", "id": "7FRQwoVSF9TTpVOdYeJjNjotbWI=", "properties": {"ref": "263173570", "@spider": "clinical_pathology_laboratories", "addr:full": "5355 W. Sam Houston Parkway North Suite 350", "addr:city": "Houston", "addr:state": "TX", "addr:postcode": "77041", "addr:country": "US", "name": "Houston - Sam Houston Pkwy", "website": "na", "brand": "Clinical Pathology Laboratories, Inc."}, "geometry": {"type": "Point", "coordinates": [-95.56489, 29.843556]}},
{"type": "Feature", "id": "ItLClLf3kMpHXx2S56YJyVekiMY=", "properties": {"ref": "263173571", "@spider": "clinical_pathology_laboratories", "addr:full": "3101 Highway 71 East Suite 206", "addr:city": "Bastrop", "addr:state": "TX", "addr:postcode": "78602", "addr:country": "US", "name": "Bastrop - Lakeside Professional Bldg.", "website": "na", "brand": "Clinical Pathology Laboratories, Inc."}, "geometry": {"type": "Point", "coordinates": [-97.293315, 30.103552]}},
{"type": "Feature", "id": "3gocyCSdbryCLvMSjab8XQciCLs=", "properties": {"ref": "263173572", "@spider": "clinical_pathology_laboratories", "addr:full": "1003 Legacy Ranch Suite 204", "addr:city": "Waxahachie", "addr:state": "TX", "addr:postcode": "75165", "addr:country": "US", "name": "Waxahachie PSC", "website": "na", "brand": "Clinical Pathology Laboratories, Inc."}, "geometry": {"type": "Point", "coordinates": [-96.856711, 32.417788]}},
{"type": "Feature", "id": "T4QuXF8dQldjD7Y87ryDzmxavsk=", "properties": {"ref": "263173574", "@spider": "clinical_pathology_laboratories", "addr:full": "319 N. Bonnie Brae Street", "addr:city": "Denton", "addr:state": "TX", "addr:postcode": "76201", "addr:country": "US", "name": "Denton\u00a0- Bonnie Brae", "website": "na", "brand": "Clinical Pathology Laboratories, Inc."}, "geometry": {"type": "Point", "coordinates": [-97.162233, 33.21766]}},
{"type": "Feature", "id": "-H1ZfJqm7ME-wwRHg7umah4L7ys=", "properties": {"ref": "263173575", "@spider": "clinical_pathology_laboratories", "addr:full": "3201 University Drive E Suite 340", "addr:city": "Bryan", "addr:state": "TX", "addr:postcode": "77802", "addr:country": "US", "name": "Bryan - Main Lab", "website": "na", "brand": "Clinical Pathology Laboratories, Inc."}, "geometry": {"type": "Point", "coordinates": [-96.297402, 30.650101]}},
{"type": "Feature", "id": "2uYOyN5WLZqoNqXqN6MoNXs3OAs=", "properties": {"ref": "263173576", "@spider": "clinical_pathology_laboratories", "addr:full": "5030 Crenshaw Rd. STE 140", "addr:city": "Pasadena", "addr:state": "TX", "addr:postcode": "77505", "addr:country": "US", "name": "Pasadena - Crenshaw", "website": "na", "brand": "Clinical Pathology Laboratories, Inc."}, "geometry": {"type": "Point", "coordinates": [-95.165975, 29.63941]}},
{"type": "Feature", "id": "7TAMxFTJOA3GqogIbb2bdZb6n20=", "properties": {"ref": "263173577", "@spider": "clinical_pathology_laboratories", "addr:full": "7711 Louis Pastuer Suite 506", "addr:city": "San Antonio", "addr:state": "TX", "addr:postcode": "78229", "addr:country": "US", "name": "San Antonio - Oak Hills Bldg.", "website": "na", "brand": "Clinical Pathology Laboratories, Inc."}, "geometry": {"type": "Point", "coordinates": [-98.571719, 29.508413]}},
{"type": "Feature", "id": "z8WP4O-CDS1e7xLaIGyRlDnAtQM=", "properties": {"ref": "263173578", "@spider": "clinical_pathology_laboratories", "addr:full": "13725 Northwest Boulevard Suite 10", "addr:city": "Corpus Christi", "addr:state": "TX", "addr:postcode": "78410", "addr:country": "US", "name": "Calallen", "website": "na", "brand": "Clinical Pathology Laboratories, Inc."}, "geometry": {"type": "Point", "coordinates": [-97.635864, 27.855149]}},
{"type": "Feature", "id": "L1v_2iu4odKaRUsaTvv6Gs3IN8w=", "properties": {"ref": "263173581", "@spider": "clinical_pathology_laboratories", "addr:full": "1905 Dove Crossing Lane", "addr:city": "Navasota", "addr:state": "TX", "addr:postcode": "77868", "addr:country": "US", "name": "Navasota", "website": "na", "brand": "Clinical Pathology Laboratories, Inc."}, "geometry": {"type": "Point", "coordinates": [-96.066932, 30.388068]}},
{"type": "Feature", "id": "3M1pj1H6Z1UTH0bGNUCNu_0VWvs=", "properties": {"ref": "263173584", "@spider": "clinical_pathology_laboratories", "addr:full": "2301 S. Hampton Road Suite 150", "addr:city": "Dallas", "addr:state": "TX", "addr:postcode": "75224", "addr:country": "US", "name": "Dallas - Hampton PSC", "website": "na", "brand": "Clinical Pathology Laboratories, Inc."}, "geometry": {"type": "Point", "coordinates": [-96.857933, 32.722525]}},
{"type": "Feature", "id": "lEE0QQBZQs_oeznjgfD_c6UBTm8=", "properties": {"ref": "263173585", "@spider": "clinical_pathology_laboratories", "addr:full": "2503 US-281 #300", "addr:city": "Marble Falls", "addr:state": "TX", "addr:postcode": "78654", "addr:country": "US", "name": "Marble Falls", "website": "na", "brand": "Clinical Pathology Laboratories, Inc."}, "geometry": {"type": "Point", "coordinates": [-98.270407, 30.59583]}},
{"type": "Feature", "id": "JJQ3wRqzYR8ymtQsoqiU4aNf92g=", "properties": {"ref": "263173586", "@spider": "clinical_pathology_laboratories", "addr:full": "7200 Wyoming Springs Road Suite 900", "addr:city": "Round Rock", "addr:state": "TX", "addr:postcode": "78681", "addr:country": "US", "name": "Round Rock - Wyoming Springs Medical Bldg.", "website": "na", "brand": "Clinical Pathology Laboratories, Inc."}, "geometry": {"type": "Point", "coordinates": [-97.716985, 30.513022]}},
{"type": "Feature", "id": "8c-zzydfcijk_c4IlLIhY6aWp08=", "properties": {"ref": "263173587", "@spider": "clinical_pathology_laboratories", "addr:full": "3010 Williams Drive Suite 222", "addr:city": "Georgetown", "addr:state": "TX", "addr:postcode": "78628", "addr:country": "US", "name": "Georgetown - Williams Dr", "website": "na", "brand": "Clinical Pathology Laboratories, Inc."}, "geometry": {"type": "Point", "coordinates": [-97.692933, 30.6627]}},
{"type": "Feature", "id": "1Pus2fBjZHgLVAlX6xsxwcee6Jw=", "properties": {"ref": "263173588", "@spider": "clinical_pathology_laboratories", "addr:full": "3330 N.W. 56th Street Suite 104", "addr:city": "Oklahoma City", "addr:state": "OK", "addr:postcode": "73112", "addr:country": "US", "name": "N.W. Medical Center", "website": "na", "brand": "Clinical Pathology Laboratories, Inc."}, "geometry": {"type": "Point", "coordinates": [-97.575744, 35.527049]}},
{"type": "Feature", "id": "gIGs5A_4RgMrLoXiA7ofhOyCdrE=", "properties": {"ref": "263173590", "@spider": "clinical_pathology_laboratories", "addr:full": "3201 South Austin Avenue Ste 120", "addr:city": "Georgetown", "addr:state": "TX", "addr:postcode": "78626", "addr:country": "US", "name": "Georgetown - S. Austin Ave", "website": "na", "brand": "Clinical Pathology Laboratories, Inc."}, "geometry": {"type": "Point", "coordinates": [-97.681159, 30.61408]}},
{"type": "Feature", "id": "3Q9IoYnX7KQl_mnAqa4GBo1I8vI=", "properties": {"ref": "263173591", "@spider": "clinical_pathology_laboratories", "addr:full": "1401 Medical Parkway Building C Suite 260", "addr:city": "Cedar Park", "addr:state": "TX", "addr:postcode": "78613", "addr:country": "US", "name": "Cedar Park - Medical Parkway", "website": "na", "brand": "Clinical Pathology Laboratories, Inc."}, "geometry": {"type": "Point", "coordinates": [-97.810327, 30.531627]}},
{"type": "Feature", "id": "gLq_srtCUJ6EwjVUJhOA7cmkJUc=", "properties": {"ref": "263173592", "@spider": "clinical_pathology_laboratories", "addr:full": "1713 Treasure Hills Boulevard Suite 1-A", "addr:city": "Harlingen", "addr:state": "TX", "addr:postcode": "78550", "addr:country": "US", "name": "Harlingen - Treasure Hills", "website": "na", "brand": "Clinical Pathology Laboratories, Inc."}, "geometry": {"type": "Point", "coordinates": [-97.669403, 26.171896]}},
{"type": "Feature", "id": "8BqyTIWhOU07avdAv1VjrrWst8s=", "properties": {"ref": "263173594", "@spider": "clinical_pathology_laboratories", "addr:full": "7300 Eldorado Pkwy. Suite 115", "addr:city": "McKinney", "addr:state": "TX", "addr:postcode": "75070", "addr:country": "US", "name": "McKinney - McKinney Medical Village", "website": "na", "brand": "Clinical Pathology Laboratories, Inc."}, "geometry": {"type": "Point", "coordinates": [-96.713613, 33.17533]}},
{"type": "Feature", "id": "_BraPFNOdzehVandmTwr7UL1TLc=", "properties": {"ref": "263173595", "@spider": "clinical_pathology_laboratories", "addr:full": "12924 Bellaire Suite 100", "addr:city": "Houston", "addr:state": "TX", "addr:postcode": "77072", "addr:country": "US", "name": "Alief", "website": "na", "brand": "Clinical Pathology Laboratories, Inc."}, "geometry": {"type": "Point", "coordinates": [-95.6106, 29.703863]}},
{"type": "Feature", "id": "cqa7OTU0Sx5iMozw156MPzEgUSA=", "properties": {"ref": "263173596", "@spider": "clinical_pathology_laboratories", "addr:full": "1101 S. College Road Suite #410", "addr:city": "Lafayette", "addr:state": "LA", "addr:postcode": "70503", "addr:country": "US", "name": "Lafayette", "website": "na", "brand": "Clinical Pathology Laboratories, Inc."}, "geometry": {"type": "Point", "coordinates": [-92.029183, 30.201879]}},
{"type": "Feature", "id": "3QdI24CGZwogMTLC-9De1IxCdyI=", "properties": {"ref": "263173597", "@spider": "clinical_pathology_laboratories", "addr:full": "3901 Houma Boulevard Suite 105", "addr:city": "Metairie", "addr:state": "LA", "addr:postcode": "70006", "addr:country": "US", "name": "Metairie", "website": "na", "brand": "Clinical Pathology Laboratories, Inc."}, "geometry": {"type": "Point", "coordinates": [-90.18001, 30.011053]}},
{"type": "Feature", "id": "WyhatOG1CkCbIksUk6R7IWF3qus=", "properties": {"ref": "263173598", "@spider": "clinical_pathology_laboratories", "addr:full": "1023 N. Mound Street", "addr:city": "Nacogdoches", "addr:state": "TX", "addr:postcode": "75961", "addr:country": "US", "name": "Nacogdoches Mound", "website": "na", "brand": "Clinical Pathology Laboratories, Inc."}, "geometry": {"type": "Point", "coordinates": [-94.650014, 31.611947]}},
{"type": "Feature", "id": "HRKALDvgIf7ulJHKclbUJfZPNiQ=", "properties": {"ref": "263173599", "@spider": "clinical_pathology_laboratories", "addr:full": "1029 Keyser Ave", "addr:city": "Natchitoches", "addr:state": "LA", "addr:postcode": "71457", "addr:country": "US", "name": "Natchitoches", "website": "na", "brand": "Clinical Pathology Laboratories, Inc."}, "geometry": {"type": "Point", "coordinates": [-93.060594, 31.75185]}},
{"type": "Feature", "id": "DPcLN5oWLTqYFNDSQo-g36ZjwVU=", "properties": {"ref": "269988185", "@spider": "clinical_pathology_laboratories", "addr:full": "3400 Long Prairie Rd ste. 102", "addr:city": "Flower Mound", "addr:state": "TX", "addr:postcode": "75022", "addr:country": "US", "name": "Flower Mound PSC", "website": "na", "brand": "Clinical Pathology Laboratories, Inc."}, "geometry": {"type": "Point", "coordinates": [-97.069928, 33.032043]}},
{"type": "Feature", "id": "doSpNSC14o8nHF2DzQTdUXrQmls=", "properties": {"ref": "269988187", "@spider": "clinical_pathology_laboratories", "addr:full": "6049 Harris Parkway ste. 105", "addr:city": "Fort worth", "addr:state": "TX", "addr:postcode": "76132", "addr:country": "US", "name": "Harris Parkway PSC", "website": "na", "brand": "Clinical Pathology Laboratories, Inc."}, "geometry": {"type": "Point", "coordinates": [-97.419758, 32.660343]}},
{"type": "Feature", "id": "kNFeLWs6wKggA9kVDIkYeunj634=", "properties": {"ref": "269988188", "@spider": "clinical_pathology_laboratories", "addr:full": "600 E. Taylor St. ste. 100", "addr:city": "Sherman", "addr:state": "TX", "addr:postcode": "75090", "addr:country": "US", "name": "Sherman Taylor Place PSC", "website": "na", "brand": "Clinical Pathology Laboratories, Inc."}, "geometry": {"type": "Point", "coordinates": [-96.60825, 33.655862]}},
{"type": "Feature", "id": "7ZbfHaamm4XwPiXyGzXdkiEvqGg=", "properties": {"ref": "269988189", "@spider": "clinical_pathology_laboratories", "addr:full": "925 E. Southlake Blvd #110", "addr:city": "Southlake", "addr:state": "TX", "addr:postcode": "76092", "addr:country": "US", "name": "Southlake PSC", "website": "na", "brand": "Clinical Pathology Laboratories, Inc."}, "geometry": {"type": "Point", "coordinates": [-97.1372, 32.939091]}},
{"type": "Feature", "id": "peH4sTr_gRSV995UMHU72j4SzKo=", "properties": {"ref": "273050800", "@spider": "clinical_pathology_laboratories", "addr:full": "10500 Vista Del Sol Suite B", "addr:city": "El Paso", "addr:state": "TX", "addr:postcode": "79925", "addr:country": "US", "name": "El Paso - Eastside", "website": "na", "brand": "Clinical Pathology Laboratories, Inc."}, "geometry": {"type": "Point", "coordinates": [-106.266186, 31.740442]}},
{"type": "Feature", "id": "RgKWmq0N69TsICep0GolyOdI_bQ=", "properties": {"ref": "274537833", "@spider": "clinical_pathology_laboratories", "addr:full": "8460 Central Mall Dr", "addr:city": "PORT ARTHUR", "addr:state": "TX", "addr:postcode": "77642", "addr:country": "US", "name": "Port Arthur PSC", "website": "na", "brand": "Clinical Pathology Laboratories, Inc."}, "geometry": {"type": "Point", "coordinates": [-93.984694, 29.948942]}},
{"type": "Feature", "id": "DRcGP6_gPO5Vin-AUmI-Z4rL27c=", "properties": {"ref": "275414717", "@spider": "clinical_pathology_laboratories", "addr:full": "305 West 7th Street Suite B", "addr:city": "DeRidder", "addr:state": "LA", "addr:postcode": "70634", "addr:country": "US", "name": "DeRidder", "website": "na", "brand": "Clinical Pathology Laboratories, Inc."}, "geometry": {"type": "Point", "coordinates": [-93.289392, 30.841372]}},
{"type": "Feature", "id": "PgzXUtyDAaR8-SrFjxSy87-Gikk=", "properties": {"ref": "276613020", "@spider": "clinical_pathology_laboratories", "addr:full": "598 Cactus Street", "addr:city": "Giddings", "addr:state": "TX", "addr:postcode": "78942", "addr:country": "US", "name": "Giddings PSC", "website": "na", "brand": "Clinical Pathology Laboratories, Inc."}, "geometry": {"type": "Point", "coordinates": [-96.927575, 30.191117]}},
{"type": "Feature", "id": "oHGBE4PRjIEkfU-hTAkh4d9ERQ0=", "properties": {"ref": "277804769", "@spider": "clinical_pathology_laboratories", "addr:full": "7411 Remcon Circle Suite A-5", "addr:city": "El Paso", "addr:state": "TX", "addr:postcode": "79912", "addr:country": "US", "name": "El Paso - Westside", "website": "na", "brand": "Clinical Pathology Laboratories, Inc."}, "geometry": {"type": "Point", "coordinates": [-106.562581, 31.837066]}},
{"type": "Feature", "id": "M9f0D9o_pbvRTdx4iKo9_AJsVZk=", "properties": {"ref": "277804773", "@spider": "clinical_pathology_laboratories", "addr:full": "4224 N. Mesa Suite B", "addr:city": "El Paso", "addr:state": "TX", "addr:postcode": "79902", "addr:country": "US", "name": "El Paso - Central", "website": "na", "brand": "Clinical Pathology Laboratories, Inc."}, "geometry": {"type": "Point", "coordinates": [-106.51052, 31.796174]}},
{"type": "Feature", "id": "gyjfFqIor2thrtbbs-xAKKMt2vc=", "properties": {"ref": "278682083", "@spider": "clinical_pathology_laboratories", "addr:full": "6801 McPherson #337", "addr:city": "Laredo", "addr:state": "TX", "addr:postcode": "78041", "addr:country": "US", "name": "Laredo - McPherson", "website": "na", "brand": "Clinical Pathology Laboratories, Inc."}, "geometry": {"type": "Point", "coordinates": [-99.472694, 27.561821]}},
{"type": "Feature", "id": "WI_hmgj4lF04By89chKKyjobPBI=", "properties": {"ref": "278807617", "@spider": "clinical_pathology_laboratories", "addr:full": "4070 Nelson Road #100", "addr:city": "Lake Charles", "addr:state": "LA", "addr:postcode": "70605", "addr:country": "US", "name": "Lake Charles", "website": "na", "brand": "Clinical Pathology Laboratories, Inc."}, "geometry": {"type": "Point", "coordinates": [-93.201938, 30.204179]}},
{"type": "Feature", "id": "dnOQIulmKxZaVbOXwA1L7-u8sa8=", "properties": {"ref": "280281252", "@spider": "clinical_pathology_laboratories", "addr:full": "1521 S. Staples Street Suite 103", "addr:city": "Corpus Christi", "addr:state": "TX", "addr:postcode": "78404", "addr:country": "US", "name": "CC Medical Tower", "website": "na", "brand": "Clinical Pathology Laboratories, Inc."}, "geometry": {"type": "Point", "coordinates": [-97.40179, 27.775707]}},
{"type": "Feature", "id": "OPbbaZFgT9IltRW4YNh7Ir9E6BU=", "properties": {"ref": "280281253", "@spider": "clinical_pathology_laboratories", "addr:full": "1521 Market St. Ste G", "addr:city": "Rockport", "addr:state": "TX", "addr:postcode": "78382", "addr:country": "US", "name": "Rockport PSC", "website": "na", "brand": "Clinical Pathology Laboratories, Inc."}, "geometry": {"type": "Point", "coordinates": [-97.057981, 28.041134]}},
{"type": "Feature", "id": "yc1tc6_KddHPzTrhBG7mRLFi4Pw=", "properties": {"ref": "281238134", "@spider": "clinical_pathology_laboratories", "addr:full": "7777 SW Freeway STE 640", "addr:city": "Houston", "addr:state": "TX", "addr:postcode": "77074", "addr:country": "US", "name": "SW Memorial", "website": "na", "brand": "Clinical Pathology Laboratories, Inc."}, "geometry": {"type": "Point", "coordinates": [-95.521545, 29.693015]}},
{"type": "Feature", "id": "cZYgr7hLba4xJkInGgqy_bBEwfo=", "properties": {"ref": "281238135", "@spider": "clinical_pathology_laboratories", "addr:full": "1303 McCullough #538", "addr:city": "San Antonio", "addr:state": "TX", "addr:postcode": "78212", "addr:country": "US", "name": "San Antonio - Metropolitan", "website": "na", "brand": "Clinical Pathology Laboratories, Inc."}, "geometry": {"type": "Point", "coordinates": [-98.493911, 29.434659]}},
{"type": "Feature", "id": "HyiZ-zecIrWagH6SeN24qyeXO7U=", "properties": {"ref": "281680107", "@spider": "clinical_pathology_laboratories", "addr:full": "4151 Jaime Zapata Memorial Hwy Suite 204", "addr:city": "Laredo", "addr:state": "TX", "addr:postcode": "78045", "addr:country": "US", "name": "Laredo South PSC", "website": "na", "brand": "Clinical Pathology Laboratories, Inc."}, "geometry": {"type": "Point", "coordinates": [-99.451771, 27.49383]}},
{"type": "Feature", "id": "RaudVfWpaDx35mveyMiMG9UNHbM=", "properties": {"ref": "284413141", "@spider": "clinical_pathology_laboratories", "addr:full": "4275 Burnham Avenue Suite 130", "addr:city": "Las Vegas", "addr:state": "NV", "addr:postcode": "89119", "addr:country": "US", "name": "Las Vegas-Burnham Ave PSC", "website": "na", "brand": "Clinical Pathology Laboratories, Inc."}, "geometry": {"type": "Point", "coordinates": [-115.124498, 36.11162]}},
{"type": "Feature", "id": "8VdgxHVX0J4bneNsPtz18emtw34=", "properties": {"ref": "284413142", "@spider": "clinical_pathology_laboratories", "addr:full": "3201 Maryland Parkway Suite 101", "addr:city": "Las Vegas", "addr:state": "NV", "addr:postcode": "89109", "addr:country": "US", "name": "Las Vegas - Maryland Parkway PSC", "website": "na", "brand": "Clinical Pathology Laboratories, Inc."}, "geometry": {"type": "Point", "coordinates": [-115.137894, 36.131718]}},
{"type": "Feature", "id": "Um25r6gHlDEkXnSdTZofzVGcKh0=", "properties": {"ref": "284413151", "@spider": "clinical_pathology_laboratories", "addr:full": "10521 Jeffreys Street Suite 121", "addr:city": "Henderson", "addr:state": "NV", "addr:postcode": "89052", "addr:country": "US", "name": "Henderson-Jeffrey's PSC", "website": "na", "brand": "Clinical Pathology Laboratories, Inc."}, "geometry": {"type": "Point", "coordinates": [-115.11985, 36.00056]}},
{"type": "Feature", "id": "GplJ2RCi9auWyeHSO7FY8FLi7kM=", "properties": {"ref": "284535796", "@spider": "clinical_pathology_laboratories", "addr:full": "300 South 6th Street", "addr:city": "Monroe", "addr:state": "LA", "addr:postcode": "71201", "addr:country": "US", "name": "Monroe PSC", "website": "na", "brand": "Clinical Pathology Laboratories, Inc."}, "geometry": {"type": "Point", "coordinates": [-92.111601, 32.502596]}},
{"type": "Feature", "id": "A9xMqZbTXQ74E1NsOTcaOxuOVY0=", "properties": {"ref": "284535797", "@spider": "clinical_pathology_laboratories", "addr:full": "2273 Arkansas Road", "addr:city": "West Monroe", "addr:state": "LA", "addr:postcode": "71291", "addr:country": "US", "name": "West Monroe PSC", "website": "na", "brand": "Clinical Pathology Laboratories, Inc."}, "geometry": {"type": "Point", "coordinates": [-92.183464, 32.534484]}},
{"type": "Feature", "id": "sXa-4UU-MsrmFLAysXvPZN2yhso=", "properties": {"ref": "284629845", "@spider": "clinical_pathology_laboratories", "addr:full": "13650 Eastlake Suite A107", "addr:city": "El Paso", "addr:state": "TX", "addr:postcode": "79928", "addr:country": "US", "name": "El Paso - Horizon", "website": "na", "brand": "Clinical Pathology Laboratories, Inc."}, "geometry": {"type": "Point", "coordinates": [-106.213605, 31.697875]}},
{"type": "Feature", "id": "_g_onktBA6ltu56964IFF7gR0Ow=", "properties": {"ref": "284873491", "@spider": "clinical_pathology_laboratories", "addr:full": "9870 Gateway Blvd North Ste. E1", "addr:city": "El Paso", "addr:state": "TX", "addr:postcode": "79924", "addr:country": "US", "name": "El Paso - North East", "website": "na", "brand": "Clinical Pathology Laboratories, Inc."}, "geometry": {"type": "Point", "coordinates": [-106.439897, 31.894788]}},
{"type": "Feature", "id": "Sf2A9XCV3Ezo4NRC7aWGqlsZqNU=", "properties": {"ref": "290069806", "@spider": "clinical_pathology_laboratories", "addr:full": "601a Professional Dr #140", "addr:city": "Lawrenceville", "addr:state": "GA", "addr:postcode": "70604", "addr:country": "US", "name": "Lawrenceville PSC-By appointment only", "website": "na", "brand": "Clinical Pathology Laboratories, Inc."}, "geometry": {"type": "Point", "coordinates": [-84.012517, 33.963993]}},
{"type": "Feature", "id": "Xa7-Xd-GlzKSkgd0O9K_5pl6Mvc=", "properties": {"ref": "290251268", "@spider": "clinical_pathology_laboratories", "addr:full": "221 W Potts St", "addr:city": "Falfurrias", "addr:state": "TX", "addr:postcode": "78355", "addr:country": "US", "name": "Falfurrias PSC", "website": "na", "brand": "Clinical Pathology Laboratories, Inc."}, "geometry": {"type": "Point", "coordinates": [-98.147491, 27.21509]}},
{"type": "Feature", "id": "bTdX8ZP2j8Bb9gcu7JYazGDCwf0=", "properties": {"ref": "292412513", "@spider": "clinical_pathology_laboratories", "addr:full": "6121 N STATE HWY 161 SUITE 101", "addr:city": "IRVING", "addr:state": "TX", "addr:postcode": "75063", "addr:country": "US", "name": "LAS COLINAS PSC", "website": "na", "brand": "Clinical Pathology Laboratories, Inc."}, "geometry": {"type": "Point", "coordinates": [-96.989076, 32.883946]}},
{"type": "Feature", "id": "iRmLdplCS-NgZfH0AGeuBbiDuUw=", "properties": {"ref": "294187707", "@spider": "clinical_pathology_laboratories", "addr:full": "21309 Foster Road Suite 200", "addr:city": "Spring", "addr:state": "TX", "addr:postcode": "77388", "addr:country": "US", "name": "Spring PSC", "website": "na", "brand": "Clinical Pathology Laboratories, Inc."}, "geometry": {"type": "Point", "coordinates": [-95.45633, 30.06937]}},
{"type": "Feature", "id": "BfVmLLKfbryh6F_jY6z30f-tUzo=", "properties": {"ref": "294598940", "@spider": "clinical_pathology_laboratories", "addr:full": "8736 Medical City Way", "addr:city": "Ft Worth", "addr:state": "TX", "addr:postcode": "76248", "addr:country": "US", "name": "Ft. Worth - North Tarrant Parkway", "website": "na", "brand": "Clinical Pathology Laboratories, Inc."}, "geometry": {"type": "Point", "coordinates": [-97.313898, 32.897557]}},
{"type": "Feature", "id": "oMtR3GXiTwosTHyhkuGzllJZuR0=", "properties": {"ref": "298049320", "@spider": "clinical_pathology_laboratories", "addr:full": "210 Lake Road Suite 1000", "addr:city": "Lake Jackson", "addr:state": "TX", "addr:postcode": "77566", "addr:country": "US", "name": "Lake Jackson PSC", "website": "na", "brand": "Clinical Pathology Laboratories, Inc."}, "geometry": {"type": "Point", "coordinates": [-95.460967, 29.040867]}},
{"type": "Feature", "id": "C0MlKF0AV5z4avYC7eRmNYu6xPY=", "properties": {"ref": "302635702", "@spider": "clinical_pathology_laboratories", "addr:full": "653 N. Town Center Drive Suite 408", "addr:city": "Las Vegas", "addr:state": "NV", "addr:postcode": "89144", "addr:country": "US", "name": "Las Vegas - Town Center", "website": "na", "brand": "Clinical Pathology Laboratories, Inc."}, "geometry": {"type": "Point", "coordinates": [-115.315926, 36.180563]}},
{"type": "Feature", "id": "b92nLiyI2iJEwdesVHRhM9xs81E=", "properties": {"ref": "303093679", "@spider": "clinical_pathology_laboratories", "addr:full": "112 Homer Road", "addr:city": "Minden", "addr:state": "LA", "addr:postcode": "71055", "addr:country": "US", "name": "Minden PSC", "website": "na", "brand": "Clinical Pathology Laboratories, Inc."}, "geometry": {"type": "Point", "coordinates": [-93.279435, 32.620842]}},
{"type": "Feature", "id": "s6VqKFmBvt3E1APwtgtELN2AO_8=", "properties": {"ref": "303539033", "@spider": "clinical_pathology_laboratories", "addr:full": "2905 Hillrise Drive", "addr:city": "Las Cruces", "addr:state": "NM", "addr:postcode": "88011", "addr:country": "US", "name": "Hillrise - PSC", "website": "na", "brand": "Clinical Pathology Laboratories, Inc."}, "geometry": {"type": "Point", "coordinates": [-106.737647, 32.304659]}},
{"type": "Feature", "id": "aUINaBxtosnzCaElwYwi_qXd9FQ=", "properties": {"ref": "304250713", "@spider": "clinical_pathology_laboratories", "addr:full": "1001 Little Oak Way, Suite 200", "addr:city": "Round Rock", "addr:state": "TX", "addr:postcode": "78661", "addr:country": "US", "name": "Round Rock - Treehouse", "website": "na", "brand": "Clinical Pathology Laboratories, Inc."}, "geometry": {"type": "Point", "coordinates": [-97.723806, 30.495063]}},
{"type": "Feature", "id": "9ll23r6iduD8G5-aDaoNxD3EE-g=", "properties": {"ref": "304516743", "@spider": "clinical_pathology_laboratories", "addr:full": "178 DEL ORLEANS AVE, SUITE A", "addr:city": "DENHAM SPRINGS", "addr:state": "LA", "addr:postcode": "70726", "addr:country": "US", "name": "Denham Springs PSC", "website": "na", "brand": "Clinical Pathology Laboratories, Inc."}, "geometry": {"type": "Point", "coordinates": [-90.954107, 30.469688]}},
{"type": "Feature", "id": "tqeD_t0p2t5fQc03yOMqMewJI9M=", "properties": {"ref": "307644354", "@spider": "clinical_pathology_laboratories", "addr:full": "1211 North Shartel, Suite 605", "addr:city": "Oklahoma City", "addr:state": "OK", "addr:postcode": "73103", "addr:country": "US", "name": "Shartel", "website": "na", "brand": "Clinical Pathology Laboratories, Inc."}, "geometry": {"type": "Point", "coordinates": [-97.526057, 35.480356]}},
{"type": "Feature", "id": "sDJR_bi-1qCaEjrfhVBdcf2Kgm0=", "properties": {"ref": "308016656", "@spider": "clinical_pathology_laboratories", "addr:full": "1301 W. 38th Street Suite 115", "addr:city": "Austin", "addr:state": "TX", "addr:postcode": "78705", "addr:country": "US", "name": "Austin - Medical Park Tower - This Location is Temporarily Closed", "website": "na", "brand": "Clinical Pathology Laboratories, Inc."}, "geometry": {"type": "Point", "coordinates": [-97.746598, 30.305776]}},
{"type": "Feature", "id": "hSzL0tUecYHUrawU-s28NAStg30=", "properties": {"ref": "308828870", "@spider": "clinical_pathology_laboratories", "addr:full": "1700 Lindberg Drive", "addr:city": "Slidell", "addr:state": "LA", "addr:postcode": "70458", "addr:country": "US", "name": "Southern Surgical Center", "website": "na", "brand": "Clinical Pathology Laboratories, Inc."}, "geometry": {"type": "Point", "coordinates": [-89.755695, 30.273324]}},
{"type": "Feature", "id": "Q9K11kO_PS87X9CgHAJCCTRT15k=", "properties": {"ref": "309586770", "@spider": "clinical_pathology_laboratories", "addr:full": "912 W 21ST", "addr:city": "CLOVIS", "addr:state": "NM", "addr:postcode": "88101", "addr:country": "US", "name": "DYNAMIC HEALTHCARE LLC", "website": "na", "brand": "Clinical Pathology Laboratories, Inc."}, "geometry": {"type": "Point", "coordinates": [-103.216248, 34.420096]}},
{"type": "Feature", "id": "W19JDIxv-dSHWmGOd3Avjacc5xg=", "properties": {"ref": "309772479", "@spider": "clinical_pathology_laboratories", "addr:full": "2967 Oak Run Parkway Suite 102", "addr:city": "New Braunfels", "addr:state": "TX", "addr:postcode": "78130", "addr:country": "US", "name": "Oak Run", "website": "na", "brand": "Clinical Pathology Laboratories, Inc."}, "geometry": {"type": "Point", "coordinates": [-98.167061, 29.714822]}},
{"type": "Feature", "id": "4xKMUDnU5aPOc5WgShDvAfFmSX8=", "properties": {"ref": "310103931", "@spider": "clinical_pathology_laboratories", "addr:full": "5711 Almeda RD", "addr:city": "Houston", "addr:state": "TX", "addr:postcode": "77004", "addr:country": "US", "name": "Almeda PSC", "website": "na", "brand": "Clinical Pathology Laboratories, Inc."}, "geometry": {"type": "Point", "coordinates": [-95.379907, 29.71845]}},
{"type": "Feature", "id": "HRTnSvMBOvibhWtuJKg9jmuyGZs=", "properties": {"ref": "310218536", "@spider": "clinical_pathology_laboratories", "addr:full": "4815 S Harvard , Suite 128", "addr:city": "Tulsa", "addr:state": "OK", "addr:postcode": "74135", "addr:country": "US", "name": "PSC TULSA HARVARD", "website": "na", "brand": "Clinical Pathology Laboratories, Inc."}, "geometry": {"type": "Point", "coordinates": [-95.939428, 36.092243]}}]}