{"type":"FeatureCollection","features":[{"type": "Feature", "id": "QRUvkgbdeTX4VCORpAsNTokZsXA=", "properties": {"ref": "MON-FRI 6am-6pm; SAT & SUN 8am-4pm, 2146 Danforth Avenue", "@spider": "coffeetime", "addr:full": "MON-FRI 6am-6pm; SAT & SUN 8am-4pm, 2146 Danforth Avenue Toronto, Ontario M4C 1J9", "addr:city": "Toronto", "addr:state": "Ontario", "addr:postcode": "M4C 1J9", "addr:country": "CA", "phone": "647-351-2146", "brand": "Coffee Time"}, "geometry": {"type": "Point", "coordinates": [-79.3109718, 43.6861246]}},
{"type": "Feature", "id": "zQZh8Xod9EJMoexCs_p6su6Rd_U=", "properties": {"ref": "566 Frank Hill Rd, Fowler's Corners", "@spider": "coffeetime", "addr:full": "566 Frank Hill Rd, Fowler's Corners Peterborough, Ontario K9J 6X3", "addr:city": "Peterborough", "addr:state": "Ontario", "addr:postcode": "K9J 6X3", "addr:country": "CA", "brand": "Coffee Time"}, "geometry": {"type": "Point", "coordinates": [-78.395599, 44.32442]}},
{"type": "Feature", "id": "Z4LE1TTL9kdaNNUwNCIzD4hKxk0=", "properties": {"ref": "500 Rossland Rd W.", "@spider": "coffeetime", "addr:full": "500 Rossland Rd W. Oshawa, Ontario L1J 3H2", "addr:city": "Oshawa", "addr:state": "Ontario", "addr:postcode": "L1J 3H2", "addr:country": "CA", "phone": "905-240-2436", "brand": "Coffee Time"}, "geometry": {"type": "Point", "coordinates": [-78.88982, 43.910962]}},
{"type": "Feature", "id": "aY_dxheELW3crvNpf4j6LR1OS2o=", "properties": {"ref": "1615 Dundas St. E., at Thickson Rd.(Whitby Mall)", "@spider": "coffeetime", "addr:full": "1615 Dundas St. E., at Thickson Rd.(Whitby Mall) Whitby, Ontario L1N 2L1", "addr:city": "Whitby", "addr:state": "Ontario", "addr:postcode": "L1N 2L1", "addr:country": "CA", "brand": "Coffee Time"}, "geometry": {"type": "Point", "coordinates": [-78.910753, 43.885885]}},
{"type": "Feature", "id": "W8oyhuZ751_kcgi3SfmwHZz_X7I=", "properties": {"ref": "MON-FRI 5am - 6pm;SAT 6:30am-6:pm;SUN 7am-2pm, 191 Bloor St. E", "@spider": "coffeetime", "addr:full": "MON-FRI 5am - 6pm;SAT 6:30am-6:pm;SUN 7am-2pm, 191 Bloor St. E Oshawa, Ontario L1H 3M3", "addr:city": "Oshawa", "addr:state": "Ontario", "addr:postcode": "L1H 3M3", "addr:country": "CA", "brand": "Coffee Time"}, "geometry": {"type": "Point", "coordinates": [-78.860774, 43.915631]}},
{"type": "Feature", "id": "ewTNhfl6WwklzUYEAvRhIRI3c0U=", "properties": {"ref": "2364 Taunton Rd., at Old Scugog Rd.", "@spider": "coffeetime", "addr:full": "2364 Taunton Rd., at Old Scugog Rd. Hampton, Ontario L0B 1J0", "addr:city": "Hampton", "addr:state": "Ontario", "addr:postcode": "L0B 1J0", "addr:country": "CA", "brand": "Coffee Time"}, "geometry": {"type": "Point", "coordinates": [-78.734553, 43.966251]}},
{"type": "Feature", "id": "e-cjTEijYFf_AOJPLLqdPMx56O4=", "properties": {"ref": "2727 Courtice Rd., at King St. E.", "@spider": "coffeetime", "addr:full": "2727 Courtice Rd., at King St. E. Courtice, Ontario L1E 3A2", "addr:city": "Courtice", "addr:state": "Ontario", "addr:postcode": "L1E 3A2", "addr:country": "CA", "brand": "Coffee Time"}, "geometry": {"type": "Point", "coordinates": [-78.776787, 43.909614]}},
{"type": "Feature", "id": "w5hwEy5Ou354RHs6wCd6YqkJQQo=", "properties": {"ref": "1672 Highway 7, Otonabee-South", "@spider": "coffeetime", "addr:full": "1672 Highway 7, Otonabee-South Monahan, Ontario K9J 6X8", "addr:city": "Monahan", "addr:state": "Ontario", "addr:postcode": "K9J 6X8", "addr:country": "CA", "brand": "Coffee Time"}, "geometry": {"type": "Point", "coordinates": [-78.198076, 44.314878]}},
{"type": "Feature", "id": "If8HB_0yiDCJO0bEw-WR4fwHoOU=", "properties": {"ref": "243 King St. E.(Bowmanville Plaza), at Ritson Rd.", "@spider": "coffeetime", "addr:full": "243 King St. E.(Bowmanville Plaza), at Ritson Rd. Bowmanville, Ontario L1C 3X1", "addr:city": "Bowmanville", "addr:state": "Ontario", "addr:postcode": "L1C 3X1", "addr:country": "CA", "phone": "905-623-0224", "brand": "Coffee Time"}, "geometry": {"type": "Point", "coordinates": [-78.674349, 43.911668]}},
{"type": "Feature", "id": "N4ye9Nhwjgza7VzpUqX2aL0t3CQ=", "properties": {"ref": "2254 County Rd. 45", "@spider": "coffeetime", "addr:full": "2254 County Rd. 45 Norwood, Ontario K0L 2V0", "addr:city": "Norwood", "addr:state": "Ontario", "addr:postcode": "K0L 2V0", "addr:country": "CA", "brand": "Coffee Time"}, "geometry": {"type": "Point", "coordinates": [-77.974435, 44.37493]}},
{"type": "Feature", "id": "_i4Jk0z_P8PjDxSA9Pv3MCC_1qg=", "properties": {"ref": "15 Connie Crescent, at Langstaff", "@spider": "coffeetime", "addr:full": "15 Connie Crescent, at Langstaff Concord, Ontario L4K 1L3", "addr:city": "Concord", "addr:state": "Ontario", "addr:postcode": "L4K 1L3", "addr:country": "CA", "phone": "905-761-7589", "brand": "Coffee Time"}, "geometry": {"type": "Point", "coordinates": [-79.491027, 43.821326]}},
{"type": "Feature", "id": "d4u9QuCUwyG2jUbTCW-ftdh1VEY=", "properties": {"ref": "215 Carlingview Dr., at Dixon Rd.", "@spider": "coffeetime", "addr:full": "215 Carlingview Dr., at Dixon Rd. Etobicoke, Ontario M9W 5X8", "addr:city": "Etobicoke", "addr:state": "Ontario", "addr:postcode": "M9W 5X8", "addr:country": "CA", "phone": "416-901-2215", "brand": "Coffee Time"}, "geometry": {"type": "Point", "coordinates": [-79.595626, 43.686798]}},
{"type": "Feature", "id": "Svtm7HwXJ2_MpHnyyItKA4dghfY=", "properties": {"ref": "385 John St., at Bayview Ave.", "@spider": "coffeetime", "addr:full": "385 John St., at Bayview Ave. Toronto, Ontario L3T 5W5", "addr:city": "Toronto", "addr:state": "Ontario", "addr:postcode": "L3T 5W5", "addr:country": "CA", "phone": "905-763-8840", "brand": "Coffee Time"}, "geometry": {"type": "Point", "coordinates": [-79.401042, 43.818636]}},
{"type": "Feature", "id": "GLOgBbYErW9mud3yBoXum4Og5MM=", "properties": {"ref": "3701 Chesswood Dr.", "@spider": "coffeetime", "addr:full": "3701 Chesswood Dr. North York, Ontario M3J 2P6", "addr:city": "North York", "addr:state": "Ontario", "addr:postcode": "M3J 2P6", "addr:country": "CA", "brand": "Coffee Time"}, "geometry": {"type": "Point", "coordinates": [-79.474209, 43.755516]}},
{"type": "Feature", "id": "LLiNysj7LA5l840vP0V5l004TJk=", "properties": {"ref": "991 Matheson Blvd.E., at Tomken Rd.", "@spider": "coffeetime", "addr:full": "991 Matheson Blvd.E., at Tomken Rd. Mississauga, Ontario L4W 2V3", "addr:city": "Mississauga", "addr:state": "Ontario", "addr:postcode": "L4W 2V3", "addr:country": "CA", "brand": "Coffee Time"}, "geometry": {"type": "Point", "coordinates": [-79.641778, 43.633293]}},
{"type": "Feature", "id": "LaNJLFqsPyYYVsB4Oj-uwuk9C68=", "properties": {"ref": "5926 Yonge St., at Cummer", "@spider": "coffeetime", "addr:full": "5926 Yonge St., at Cummer North York, Ontario M2M 3V9", "addr:city": "North York", "addr:state": "Ontario", "addr:postcode": "M2M 3V9", "addr:country": "CA", "phone": "416-733-9992", "brand": "Coffee Time"}, "geometry": {"type": "Point", "coordinates": [-79.41733, 43.787076]}},
{"type": "Feature", "id": "X-h7Xm6gd-yzQxKl1NAxmF_ZzE4=", "properties": {"ref": "3622 Dufferin St., at Wilson Ave.", "@spider": "coffeetime", "addr:full": "3622 Dufferin St., at Wilson Ave. North York, Ontario M3K 1N7", "addr:city": "North York", "addr:state": "Ontario", "addr:postcode": "M3K 1N7", "addr:country": "CA", "brand": "Coffee Time"}, "geometry": {"type": "Point", "coordinates": [-79.458962, 43.731159]}},
{"type": "Feature", "id": "fnOFX5a2dvynenngEFGcBRyo78Q=", "properties": {"ref": "4141 Dixie Rd. at Burnhamthorpe Rd. E.", "@spider": "coffeetime", "addr:full": "4141 Dixie Rd. at Burnhamthorpe Rd. E. Mississauga, Ontario L4W 1V5", "addr:city": "Mississauga", "addr:state": "Ontario", "addr:postcode": "L4W 1V5", "addr:country": "CA", "brand": "Coffee Time"}, "geometry": {"type": "Point", "coordinates": [-79.605065, 43.624569]}},
{"type": "Feature", "id": "aXEDs-TCJh8XZsiG3A7j_T67RtI=", "properties": {"ref": "1471 Eglinton Ave. W., at Winona and Allan", "@spider": "coffeetime", "addr:full": "1471 Eglinton Ave. W., at Winona and Allan Toronto, Ontario M6E 2G6", "addr:city": "Toronto", "addr:state": "Ontario", "addr:postcode": "M6E 2G6", "addr:country": "CA", "phone": "(647) 352-5040", "brand": "Coffee Time"}, "geometry": {"type": "Point", "coordinates": [-79.439077, 43.698082]}},
{"type": "Feature", "id": "SpNDUxoT-8GJJbVpS_0Gl3suT8w=", "properties": {"ref": "2195 Midland Ave", "@spider": "coffeetime", "addr:full": "2195 Midland Ave Scarborough, Ontario M1P 3E7", "addr:city": "Scarborough", "addr:state": "Ontario", "addr:postcode": "M1P 3E7", "addr:country": "CA", "phone": "Location accepts debit", "brand": "Coffee Time"}, "geometry": {"type": "Point", "coordinates": [-79.273004, 43.773012]}},
{"type": "Feature", "id": "lfQ9G1OIXvS3MTcGXDtl_AijU6A=", "properties": {"ref": "188 Toronto St.", "@spider": "coffeetime", "addr:full": "188 Toronto St. Markdale, Ontario N0C 1H0", "addr:city": "Markdale", "addr:state": "Ontario", "addr:postcode": "N0C 1H0", "addr:country": "CA", "brand": "Coffee Time"}, "geometry": {"type": "Point", "coordinates": [-80.640395, 44.313995]}},
{"type": "Feature", "id": "Xnc5ILo1xN8bx5r46c7cvpYnTIw=", "properties": {"ref": "7117 Highway 26", "@spider": "coffeetime", "addr:full": "7117 Highway 26 Stayner, Ontario L0M 1S0", "addr:city": "Stayner", "addr:state": "Ontario", "addr:postcode": "L0M 1S0", "addr:country": "CA", "phone": "705-428-3785", "brand": "Coffee Time"}, "geometry": {"type": "Point", "coordinates": [-80.078053, 44.422004]}},
{"type": "Feature", "id": "NC_OO3Lx1U6PLfn02YQVXhz7lNY=", "properties": {"ref": "8483 Highway 11", "@spider": "coffeetime", "addr:full": "8483 Highway 11 Orillia, Ontario L3V 2H3", "addr:city": "Orillia", "addr:state": "Ontario", "addr:postcode": "L3V 2H3", "addr:country": "CA", "phone": "705-327-1292", "brand": "Coffee Time"}, "geometry": {"type": "Point", "coordinates": [-79.437177, 44.625535]}},
{"type": "Feature", "id": "DBh0C-Cl6r-4wofLCtkdzDE6Y2c=", "properties": {"ref": "1060 Innisfil Beach Rd.", "@spider": "coffeetime", "addr:full": "1060 Innisfil Beach Rd. Innisfil, Ontario L9S 2M5", "addr:city": "Innisfil", "addr:state": "Ontario", "addr:postcode": "L9S 2M5", "addr:country": "CA", "phone": "7054363679", "brand": "Coffee Time"}, "geometry": {"type": "Point", "coordinates": [-79.5523577, 44.3142964]}},
{"type": "Feature", "id": "OGw5xZCBf_CdDEVQTukh2ROTsOQ=", "properties": {"ref": "220 Huron St., at County Rd 107", "@spider": "coffeetime", "addr:full": "220 Huron St., at County Rd 107 Shakespeare, Ontario N0B 2P0", "addr:city": "Shakespeare", "addr:state": "Ontario", "addr:postcode": "N0B 2P0", "addr:country": "CA", "brand": "Coffee Time"}, "geometry": {"type": "Point", "coordinates": [-80.836027, 43.367396]}},
{"type": "Feature", "id": "e51cNLyeC_W5Pya3t51Urd9Bln8=", "properties": {"ref": "23721 Highway 48N", "@spider": "coffeetime", "addr:full": "23721 Highway 48N Baldwin, Ontario L0E 1A0", "addr:city": "Baldwin", "addr:state": "Ontario", "addr:postcode": "L0E 1A0", "addr:country": "CA", "phone": "905-722-9166", "brand": "Coffee Time"}, "geometry": {"type": "Point", "coordinates": [-79.343741, 44.259989]}},
{"type": "Feature", "id": "ShBVg1uQbvNTzClWz5wY4CvSI2s=", "properties": {"ref": "255 King St. W.(King Centre Mall) at Frederick St.", "@spider": "coffeetime", "addr:full": "255 King St. W.(King Centre Mall) at Frederick St. Kitchener, Ontario N2G 4P9", "addr:city": "Kitchener", "addr:state": "Ontario", "addr:postcode": "N2G 4P9", "addr:country": "CA", "brand": "Coffee Time"}, "geometry": {"type": "Point", "coordinates": [-80.472941, 43.458356]}},
{"type": "Feature", "id": "3d70mACBkl5Nvja4vt2vk6kkVvo=", "properties": {"ref": "2351 Fischer-Hallman Rd.", "@spider": "coffeetime", "addr:full": "2351 Fischer-Hallman Rd. Ayr, Ontario N0B 1E0", "addr:city": "Ayr", "addr:state": "Ontario", "addr:postcode": "N0B 1E0", "addr:country": "CA", "phone": "519-696-2445", "brand": "Coffee Time"}, "geometry": {"type": "Point", "coordinates": [-80.4815357, 43.3576993]}},
{"type": "Feature", "id": "IQ4q0ohQssMvZV32Qlei6esHVj8=", "properties": {"ref": "8520 Jane St., at Langstaff", "@spider": "coffeetime", "addr:full": "8520 Jane St., at Langstaff Concord, Ontario L4K 5A9", "addr:city": "Concord", "addr:state": "Ontario", "addr:postcode": "L4K 5A9", "addr:country": "CA", "brand": "Coffee Time"}, "geometry": {"type": "Point", "coordinates": [-79.52908, 43.81356]}},
{"type": "Feature", "id": "tarLI-Pr_rhSppcCKBrSSdBXFgE=", "properties": {"ref": "704 Major Mackenzie Drive, at Bayview.", "@spider": "coffeetime", "addr:full": "704 Major Mackenzie Drive, at Bayview. Richmond Hill, Ontario L4C 1J9", "addr:city": "Richmond Hill", "addr:state": "Ontario", "addr:postcode": "L4C 1J9", "addr:country": "CA", "brand": "Coffee Time"}, "geometry": {"type": "Point", "coordinates": [-79.415608, 43.876008]}}]}