{"type":"FeatureCollection","features":[{"type": "Feature", "id": "z-A74P4J3Jnwt7CzkuiE4AlolwM=", "properties": {"ref": "78", "@spider": "corepower_yoga", "addr:full": "8160 Coller Way", "addr:city": "Woodbury", "addr:state": "MN", "name": "Woodbury", "phone": "6514599642", "website": "https://www.corepoweryoga.com/yoga-studios/minnesota/woodbury/woodbury", "brand": "Corepower Yoga"}, "geometry": {"type": "Point", "coordinates": [-92.939502, 44.938151]}},
{"type": "Feature", "id": "k4fMhjiaIKtiIWRKPiqd21XaBPo=", "properties": {"ref": "47", "@spider": "corepower_yoga", "addr:full": "4734 Barranca Parkway", "addr:city": "Irvine", "addr:state": "CA", "name": "Woodbridge", "phone": "9495519642", "website": "https://www.corepoweryoga.com/yoga-studios/california/irvine/woodbridge", "brand": "Corepower Yoga"}, "geometry": {"type": "Point", "coordinates": [-117.8016159, 33.6774958]}},
{"type": "Feature", "id": "-k2CwGp_ynTnSFSr182tD77YHaU=", "properties": {"ref": "193", "@spider": "corepower_yoga", "addr:full": "850 Green Bay Road", "addr:city": "Winnetka", "addr:state": "IL", "name": "Winnetka", "phone": "3036823005", "website": "https://www.corepoweryoga.com/yoga-studios/illinois/winnetka/winnetka", "brand": "Corepower Yoga"}, "geometry": {"type": "Point", "coordinates": [-87.741963, 42.114939]}},
{"type": "Feature", "id": "S2w3mUOV1Sp-7OU92xh1_EK-izI=", "properties": {"ref": "104", "@spider": "corepower_yoga", "addr:full": "747 Winchester Boulevard", "addr:city": "San Jose", "addr:state": "CA", "name": "Winchester", "phone": "4085995287", "website": "https://www.corepoweryoga.com/yoga-studios/california/san-jose/winchester", "brand": "Corepower Yoga"}, "geometry": {"type": "Point", "coordinates": [-121.950185, 37.3139]}},
{"type": "Feature", "id": "9XoypMWeLXO3fymsd5nN2FAHnQg=", "properties": {"ref": "50", "@spider": "corepower_yoga", "addr:full": "11819 Wilshire Boulevard Suite 214-217", "addr:city": "Los Angeles", "addr:state": "CA", "name": "Wilshire", "phone": "3235459642", "website": "https://www.corepoweryoga.com/yoga-studios/california/los-angeles/wilshire", "brand": "Corepower Yoga"}, "geometry": {"type": "Point", "coordinates": [-118.46289, 34.0479]}},
{"type": "Feature", "id": "507V8u2kh7EYEvUrFUxCo-HUVxU=", "properties": {"ref": "198", "@spider": "corepower_yoga", "addr:full": "159 N 4th Street", "addr:city": "Brooklyn", "addr:state": "NY", "name": "Williamsburg", "phone": "9178103578", "website": "https://www.corepoweryoga.com/yoga-studios/new-york/brooklyn/williamsburg", "brand": "Corepower Yoga"}, "geometry": {"type": "Point", "coordinates": [-73.958831, 40.715751]}},
{"type": "Feature", "id": "01X_WijGqUwPUAGL7oQeeqq9xLg=", "properties": {"ref": "132", "@spider": "corepower_yoga", "addr:full": "1031 Glendon Avenue", "addr:city": "Los Angeles", "addr:state": "CA", "name": "Westwood", "phone": "2138103153", "website": "https://www.corepoweryoga.com/yoga-studios/california/los-angeles/westwood", "brand": "Corepower Yoga"}, "geometry": {"type": "Point", "coordinates": [-118.444298653, 34.0618169592]}},
{"type": "Feature", "id": "ndCIyIrENhifQMaLTDMuzmaC9OQ=", "properties": {"ref": "167", "@spider": "corepower_yoga", "addr:full": "11940 Bradburn Blvd", "addr:city": "Westminster", "addr:state": "CO", "name": "Westminster", "phone": "3033174177", "website": "https://www.corepoweryoga.com/yoga-studios/colorado/westminster/westminster", "brand": "Corepower Yoga"}, "geometry": {"type": "Point", "coordinates": [-105.041514, 39.913198]}},
{"type": "Feature", "id": "uRtwXBpe2riEcWRbA5zdCFGyqZo=", "properties": {"ref": "136", "@spider": "corepower_yoga", "addr:full": "982 S. Westlake Boulevard", "addr:city": "Thousand Oaks", "addr:state": "CA", "name": "Westlake Village", "phone": "8054974700", "website": "https://www.corepoweryoga.com/yoga-studios/california/thousand-oaks/westlake-village", "brand": "Corepower Yoga"}, "geometry": {"type": "Point", "coordinates": [-118.828159029, 34.1533231258]}},
{"type": "Feature", "id": "ekGLtrZP8J-l_w4mHW5nw5XBtM0=", "properties": {"ref": "152", "@spider": "corepower_yoga", "addr:full": "1621 River Run", "addr:city": "Fort Worth", "addr:state": "TX", "name": "WestBend", "phone": "6823123060", "website": "https://www.corepoweryoga.com/yoga-studios/texas/fort-worth/westbend", "brand": "Corepower Yoga"}, "geometry": {"type": "Point", "coordinates": [-97.360135, 32.727264]}},
{"type": "Feature", "id": "NJFsWUFYSVwufbx8eQpvSZy2mE4=", "properties": {"ref": "525", "@spider": "corepower_yoga", "addr:full": "2970 Cityplace West Blvd.", "addr:city": "Dallas", "addr:state": "TX", "name": "West Village - Dallas", "phone": "4698043027", "website": "https://www.corepoweryoga.com/yoga-studios/texas/dallas/west-village-dallas", "brand": "Corepower Yoga"}, "geometry": {"type": "Point", "coordinates": [-96.79575, 32.80674]}},
{"type": "Feature", "id": "tYkZVXLkVy2h9LkgRvQ6xF8mc-o=", "properties": {"ref": "23", "@spider": "corepower_yoga", "addr:full": "1313 W. Randolph Street", "addr:city": "Chicago", "addr:state": "IL", "name": "West Loop", "phone": "3122264279", "website": "https://www.corepoweryoga.com/yoga-studios/illinois/chicago/west-loop", "brand": "Corepower Yoga"}, "geometry": {"type": "Point", "coordinates": [-87.659179, 41.884083]}},
{"type": "Feature", "id": "yTL5t-URSXD4LmYcyLVP15uEj-k=", "properties": {"ref": "112", "@spider": "corepower_yoga", "addr:full": "1170 Auahi Street", "addr:city": "Honolulu", "addr:state": "HI", "name": "Ward", "phone": "8086382739", "website": "https://www.corepoweryoga.com/yoga-studios/hawaii/honolulu/ward", "brand": "Corepower Yoga"}, "geometry": {"type": "Point", "coordinates": [-157.851092, 21.292828]}},
{"type": "Feature", "id": "tYOvpgnClS2xt8sZVXkmkWuMt1A=", "properties": {"ref": "131", "@spider": "corepower_yoga", "addr:full": "1616 Walnut Street, Lower Level", "addr:city": "Philadelphia", "addr:state": "PA", "name": "Walnut Street", "phone": "2155152440", "website": "https://www.corepoweryoga.com/yoga-studios/pennsylvania/philadelphia/walnut-street", "brand": "Corepower Yoga"}, "geometry": {"type": "Point", "coordinates": [-75.168415, 39.949655]}},
{"type": "Feature", "id": "Gkp_jVGF7qNjcn3HuDK0w58ZChg=", "properties": {"ref": "120", "@spider": "corepower_yoga", "addr:full": "1375 N. Main Street", "addr:city": "Walnut Creek", "addr:state": "CA", "name": "Walnut Creek", "phone": "9253004047", "website": "https://www.corepoweryoga.com/yoga-studios/california/walnut-creek/walnut-creek", "brand": "Corepower Yoga"}, "geometry": {"type": "Point", "coordinates": [-122.060579, 37.898786]}},
{"type": "Feature", "id": "xzFG0JBtg3RNW8saIeTP25lJWWA=", "properties": {"ref": "155", "@spider": "corepower_yoga", "addr:full": "435 Woodburn Rd.", "addr:city": "Raleigh", "addr:state": "NC", "name": "Village District", "phone": "9192298367", "website": "https://www.corepoweryoga.com/yoga-studios/north-carolina/raleigh/village-district", "brand": "Corepower Yoga"}, "geometry": {"type": "Point", "coordinates": [-78.659687, 35.790395]}},
{"type": "Feature", "id": "jPI_hy2bHbEeqlVwmNIAeNVPO1k=", "properties": {"ref": "524", "@spider": "corepower_yoga", "addr:full": "1700 Cedar Springs Rd", "addr:city": "Dallas", "addr:state": "TX", "name": "Victory Park", "phone": "2147362419", "website": "https://www.corepoweryoga.com/yoga-studios/texas/dallas/victory-park", "brand": "Corepower Yoga"}, "geometry": {"type": "Point", "coordinates": [-96.8072619, 32.7890009]}},
{"type": "Feature", "id": "P52uiOsb6a7Nr_-2PpEV8zThcAM=", "properties": {"ref": "188", "@spider": "corepower_yoga", "addr:full": "2030 Broadway", "addr:city": "New York", "addr:state": "NY", "name": "UWS/70th & Broadway", "phone": "9176364440", "website": "https://www.corepoweryoga.com/yoga-studios/new-york/new-york/uws70th-broadway", "brand": "Corepower Yoga"}, "geometry": {"type": "Point", "coordinates": [-73.98162, 40.77671]}},
{"type": "Feature", "id": "JafwGRHvZFZX9Mn_VMxdqEjKmHc=", "properties": {"ref": "42", "@spider": "corepower_yoga", "addr:full": "7728 Regents Road", "addr:city": "San Diego", "addr:state": "CA", "name": "UTC/La Jolla", "phone": "8584559642", "website": "https://www.corepoweryoga.com/yoga-studios/california/san-diego/utcla-jolla", "brand": "Corepower Yoga"}, "geometry": {"type": "Point", "coordinates": [-117.222848, 32.861587]}},
{"type": "Feature", "id": "mIzbEvVtc91yjUXjO_bzACUtHq0=", "properties": {"ref": "197", "@spider": "corepower_yoga", "addr:full": "3131 S. Hoover Street", "addr:city": "Los Angeles", "addr:state": "CA", "name": "USC Village", "phone": "7049467931", "website": "https://www.corepoweryoga.com/yoga-studios/california/los-angeles/usc-village", "brand": "Corepower Yoga"}, "geometry": {"type": "Point", "coordinates": [-118.283989, 34.026224]}},
{"type": "Feature", "id": "6OHUzddQg3jj1dxXsZzb7ZLz1sE=", "properties": {"ref": "16", "@spider": "corepower_yoga", "addr:full": "2930 Emerson Avenue S", "addr:city": "Minneapolis", "addr:state": "MN", "name": "Uptown Minneapolis", "phone": "6128229642", "website": "https://www.corepoweryoga.com/yoga-studios/minnesota/minneapolis/uptown-minneapolis", "brand": "Corepower Yoga"}, "geometry": {"type": "Point", "coordinates": [-93.294459, 44.949143]}},
{"type": "Feature", "id": "s8nXcC3_f3Q7XDzspWEM1tUkTeE=", "properties": {"ref": "28", "@spider": "corepower_yoga", "addr:full": "4428 N. Broadway", "addr:city": "Chicago", "addr:state": "IL", "name": "Uptown Chicago", "phone": "7732719642", "website": "https://www.corepoweryoga.com/yoga-studios/illinois/chicago/uptown-chicago", "brand": "Corepower Yoga"}, "geometry": {"type": "Point", "coordinates": [-87.655303, 41.962142]}},
{"type": "Feature", "id": "9ICKuU5i08rzp5P_QvFWLsQmGq8=", "properties": {"ref": "107", "@spider": "corepower_yoga", "addr:full": "4535 12th Avenue NE", "addr:city": "Seattle", "addr:state": "WA", "name": "University District", "phone": "2062577117", "website": "https://www.corepoweryoga.com/yoga-studios/washington/seattle/university-district", "brand": "Corepower Yoga"}, "geometry": {"type": "Point", "coordinates": [-122.315443, 47.661602]}},
{"type": "Feature", "id": "wYFhwHkwg3bkpKIUqH5-XpsCYS0=", "properties": {"ref": "699", "@spider": "corepower_yoga", "addr:full": "1253 Lexington Avenue", "addr:city": "New York", "addr:state": "NY", "name": "UES - 85th & Lex", "phone": "3329007135", "website": "https://www.corepoweryoga.com/yoga-studios/new-york/new-york/ues-85th-lex", "brand": "Corepower Yoga"}, "geometry": {"type": "Point", "coordinates": [-73.95623, 40.77837]}},
{"type": "Feature", "id": "DwaJp4MRH911tSOMmio2SdBd0lY=", "properties": {"ref": "53", "@spider": "corepower_yoga", "addr:full": "2872 El Camino Real", "addr:city": "Tustin", "addr:state": "CA", "name": "Tustin", "phone": "7145089642", "website": "https://www.corepoweryoga.com/yoga-studios/california/tustin/tustin", "brand": "Corepower Yoga"}, "geometry": {"type": "Point", "coordinates": [-117.794609, 33.724814]}},
{"type": "Feature", "id": "Gu4vSN1iYtAE7qwx1PEu4oYEWSk=", "properties": {"ref": "117", "@spider": "corepower_yoga", "addr:full": "602 E. 500 South, P101", "addr:city": "Salt Lake City", "addr:state": "UT", "name": "Trolley Square", "phone": "8013639642", "website": "https://www.corepoweryoga.com/yoga-studios/utah/salt-lake-city/trolley-square", "brand": "Corepower Yoga"}, "geometry": {"type": "Point", "coordinates": [-111.864737, 40.760028]}},
{"type": "Feature", "id": "yJUJ7dVv90X26-8tINkW-edePyc=", "properties": {"ref": "691", "@spider": "corepower_yoga", "addr:full": "25 Hudson St", "addr:city": "New York", "addr:state": "NY", "name": "Tribeca", "phone": "9292070038", "website": "https://www.corepoweryoga.com/yoga-studios/new-york/new-york/tribeca", "brand": "Corepower Yoga"}, "geometry": {"type": "Point", "coordinates": [-74.009378, 40.716736]}},
{"type": "Feature", "id": "1VqQ7kRefQIK9PKkK4TJRYA4ld4=", "properties": {"ref": "69", "@spider": "corepower_yoga", "addr:full": "4616 Triangle Avenue", "addr:city": "Austin", "addr:state": "TX", "name": "Triangle", "phone": "5124549642", "website": "https://www.corepoweryoga.com/yoga-studios/texas/austin/triangle", "brand": "Corepower Yoga"}, "geometry": {"type": "Point", "coordinates": [-97.734082, 30.314217]}},
{"type": "Feature", "id": "LzCuAlPjegb2aA742LW_Mc6l7mI=", "properties": {"ref": "51", "@spider": "corepower_yoga", "addr:full": "24329 E. Crenshaw Boulevard Suite E", "addr:city": "Torrance", "addr:state": "CA", "name": "Torrance", "phone": "3105399642", "website": "https://www.corepoweryoga.com/yoga-studios/california/torrance/torrance", "brand": "Corepower Yoga"}, "geometry": {"type": "Point", "coordinates": [-118.327969, 33.804553]}},
{"type": "Feature", "id": "I1rRBqL72HqhA8KLwPIDW2n-Fkk=", "properties": {"ref": "8304", "@spider": "corepower_yoga", "addr:full": "1730 East Avenida de Los Arboles", "addr:city": "Thousand Oaks", "addr:state": "CA", "name": "Thousand Oaks", "phone": "8052414557", "website": "https://www.corepoweryoga.com/yoga-studios/california/thousand-oaks/thousand-oaks", "brand": "Corepower Yoga"}, "geometry": {"type": "Point", "coordinates": [-118.846213, 34.210296]}},
{"type": "Feature", "id": "L_MsKU7ier0Ga50eRNcJ1LDhkAI=", "properties": {"ref": "697", "@spider": "corepower_yoga", "addr:full": "56 W 8th Street", "addr:city": "New York", "addr:state": "NY", "name": "The Village", "phone": "3329007136", "website": "https://www.corepoweryoga.com/yoga-studios/new-york/new-york/village", "brand": "Corepower Yoga"}, "geometry": {"type": "Point", "coordinates": [-73.99908, 40.7331]}},
{"type": "Feature", "id": "QVl500jWfQC0rxE1vQ-E8D0GK14=", "properties": {"ref": "180", "@spider": "corepower_yoga", "addr:full": "2349 Lombard Street", "addr:city": "San Francisco", "addr:state": "CA", "name": "The Marina", "phone": "4152313641", "website": "https://www.corepoweryoga.com/yoga-studios/california/san-francisco/marina", "brand": "Corepower Yoga"}, "geometry": {"type": "Point", "coordinates": [-122.44012, 37.79911]}},
{"type": "Feature", "id": "Zs1aS1MJS0Pwy5J1tnD417pntDc=", "properties": {"ref": "266", "@spider": "corepower_yoga", "addr:full": "158 W. Washington St.", "addr:city": "Chicago", "addr:state": "IL", "name": "The Loop", "phone": "3123243585", "website": "https://www.corepoweryoga.com/yoga-studios/illinois/chicago/loop", "brand": "Corepower Yoga"}, "geometry": {"type": "Point", "coordinates": [-87.6351, 41.88348]}},
{"type": "Feature", "id": "kGtTAumfPRrvaVnbCHMBNTC4h74=", "properties": {"ref": "133", "@spider": "corepower_yoga", "addr:full": "3210 Esperanza Crossing", "addr:city": "Austin", "addr:state": "TX", "name": "The Domain", "phone": "5125998765", "website": "https://www.corepoweryoga.com/yoga-studios/texas/austin/domain", "brand": "Corepower Yoga"}, "geometry": {"type": "Point", "coordinates": [-97.721834, 30.403525]}},
{"type": "Feature", "id": "OWcxGS068GuN80vLKNpvQ1umC1U=", "properties": {"ref": "158", "@spider": "corepower_yoga", "addr:full": "3955 Tennyson Street", "addr:city": "Denver", "addr:state": "CO", "name": "Tennyson", "phone": "7206474408", "website": "https://www.corepoweryoga.com/yoga-studios/colorado/denver/tennyson", "brand": "Corepower Yoga"}, "geometry": {"type": "Point", "coordinates": [-105.044156, 39.772148]}},
{"type": "Feature", "id": "JnaxqINcw_iu2uhRlI8_aGFo_z8=", "properties": {"ref": "606", "@spider": "corepower_yoga", "addr:full": "4600 Wisconsin Ave, Suite 100", "addr:city": "Washington", "addr:state": "DC", "name": "Tenleytown", "phone": "9174568814", "website": "https://www.corepoweryoga.com/yoga-studios/district-columbia/washington/tenleytown", "brand": "Corepower Yoga"}, "geometry": {"type": "Point", "coordinates": [-77.08078, 38.94997]}},
{"type": "Feature", "id": "lx-ZRQjoNkQaLFqT6c3KCcisZIE=", "properties": {"ref": "163", "@spider": "corepower_yoga", "addr:full": "1004 S. Mill Avenue", "addr:city": "Tempe", "addr:state": "AZ", "name": "Tempe/ASU", "phone": "4803930519", "website": "https://www.corepoweryoga.com/yoga-studios/arizona/tempe/tempeasu", "brand": "Corepower Yoga"}, "geometry": {"type": "Point", "coordinates": [-111.940263, 33.418851]}},
{"type": "Feature", "id": "TbfChdYlkP54ri74RWZwRCTOrkY=", "properties": {"ref": "57", "@spider": "corepower_yoga", "addr:full": "3575 Cahuenga Boulevard West Suite 222", "addr:city": "Universal City", "addr:state": "CA", "name": "Studio City", "phone": "3239699642", "website": "https://www.corepoweryoga.com/yoga-studios/california/universal-city/studio-city", "brand": "Corepower Yoga"}, "geometry": {"type": "Point", "coordinates": [-118.358458, 34.134111]}},
{"type": "Feature", "id": "Iiq3-9KItQuh7LQ-5Tbho01DnMU=", "properties": {"ref": "29", "@spider": "corepower_yoga", "addr:full": "227 E. Ontario Street", "addr:city": "Chicago", "addr:state": "IL", "name": "Streeterville", "phone": "3124829642", "website": "https://www.corepoweryoga.com/yoga-studios/illinois/chicago/streeterville", "brand": "Corepower Yoga"}, "geometry": {"type": "Point", "coordinates": [-87.622051, 41.893373]}},
{"type": "Feature", "id": "yaqwLPdJPMFHIzNBci3CTAHH-mU=", "properties": {"ref": "79", "@spider": "corepower_yoga", "addr:full": "1129 State Street", "addr:city": "Santa Barbara", "addr:state": "CA", "name": "State Street (Santa Barbara)", "phone": "8058849642", "website": "https://www.corepoweryoga.com/yoga-studios/california/santa-barbara/state-street-santa-barbara", "brand": "Corepower Yoga"}, "geometry": {"type": "Point", "coordinates": [-119.703537, 34.422757]}},
{"type": "Feature", "id": "uz6uhPqFt0JxdJZ73DQ0MO9ZWcM=", "properties": {"ref": "15", "@spider": "corepower_yoga", "addr:full": "4611 Excelsior Boulevard", "addr:city": "St. Louis Park", "addr:state": "MN", "name": "St. Louis Park", "phone": "6129229261", "website": "https://www.corepoweryoga.com/yoga-studios/minnesota/st-louis-park/st-louis-park", "brand": "Corepower Yoga"}, "geometry": {"type": "Point", "coordinates": [-93.33859, 44.9337]}},
{"type": "Feature", "id": "XiNaIVV3jaM3911uKZazGuUF4YQ=", "properties": {"ref": "67", "@spider": "corepower_yoga", "addr:full": "844 SE Morrison Street", "addr:city": "Portland", "addr:state": "OR", "name": "Southeast Portland", "phone": "5032339642", "website": "https://www.corepoweryoga.com/yoga-studios/oregon/portland/southeast-portland", "brand": "Corepower Yoga"}, "geometry": {"type": "Point", "coordinates": [-122.65719, 45.51652]}},
{"type": "Feature", "id": "JqSlpJSUqjVyCK-mAg6_YotHN_4=", "properties": {"ref": "32", "@spider": "corepower_yoga", "addr:full": "555 W. Roosevelt Road", "addr:city": "Chicago", "addr:state": "IL", "name": "South Loop", "phone": "3128299642", "website": "https://www.corepoweryoga.com/yoga-studios/illinois/chicago/south-loop", "brand": "Corepower Yoga"}, "geometry": {"type": "Point", "coordinates": [-87.641082, 41.867228]}},
{"type": "Feature", "id": "gS3HOSU3SpoOfaDg1bxuViUt598=", "properties": {"ref": "157", "@spider": "corepower_yoga", "addr:full": "36 Traveler Street", "addr:city": "Boston", "addr:state": "MA", "name": "South End/Ink Block", "phone": "8573056606", "website": "https://www.corepoweryoga.com/yoga-studios/massachusetts/boston/south-endink-block", "brand": "Corepower Yoga"}, "geometry": {"type": "Point", "coordinates": [-71.063722, 42.344427]}},
{"type": "Feature", "id": "x4Ejm1noiOTauDTfSJEmgR_t2Hw=", "properties": {"ref": "7", "@spider": "corepower_yoga", "addr:full": "645 27th Way", "addr:city": "Boulder", "addr:state": "CO", "name": "South Boulder", "phone": "3034979642", "website": "https://www.corepoweryoga.com/yoga-studios/colorado/boulder/south-boulder", "brand": "Corepower Yoga"}, "geometry": {"type": "Point", "coordinates": [-105.260138, 39.999527]}},
{"type": "Feature", "id": "sAjq-C82pP497Yo646LtC1MAzNo=", "properties": {"ref": "151", "@spider": "corepower_yoga", "addr:full": "14 W. Millay Alley", "addr:city": "Columbus", "addr:state": "OH", "name": "Short North", "phone": "6147050479", "website": "https://www.corepoweryoga.com/yoga-studios/ohio/columbus/short-north", "brand": "Corepower Yoga"}, "geometry": {"type": "Point", "coordinates": [-83.003516, 39.975109]}},
{"type": "Feature", "id": "Vt4PcodZj5NsClfTGLkPV5PK2zI=", "properties": {"ref": "46", "@spider": "corepower_yoga", "addr:full": "13920 Ventura Boulevard", "addr:city": "Sherman Oaks", "addr:state": "CA", "name": "Sherman Oaks", "phone": "8187849642", "website": "https://www.corepoweryoga.com/yoga-studios/california/sherman-oaks/sherman-oaks", "brand": "Corepower Yoga"}, "geometry": {"type": "Point", "coordinates": [-118.435673, 34.148575]}},
{"type": "Feature", "id": "Pi8sBYRmW7m9qvtBUu_PWl-9aek=", "properties": {"ref": "612", "@spider": "corepower_yoga", "addr:full": "901 W Street NW", "addr:city": "Washington", "addr:state": "DC", "name": "Shaw", "website": "https://www.corepoweryoga.com/yoga-studios/district-columbia/washington/shaw", "brand": "Corepower Yoga"}, "geometry": {"type": "Point", "coordinates": [-77.02514, 38.91945]}},
{"type": "Feature", "id": "S-1T2iebPwhq6UOJx8dqY9_Fk_Y=", "properties": {"ref": "121", "@spider": "corepower_yoga", "addr:full": "2295 Shattuck Avenue", "addr:city": "Berkeley", "addr:state": "CA", "name": "Shattuck", "phone": "5104239785", "website": "https://www.corepoweryoga.com/yoga-studios/california/berkeley/shattuck", "brand": "Corepower Yoga"}, "geometry": {"type": "Point", "coordinates": [-122.267728, 37.867704]}},
{"type": "Feature", "id": "M7JAP0-E7M_ipyCcm7ENay084w8=", "properties": {"ref": "-9999", "@spider": "corepower_yoga", "addr:full": "20 Bond Drive ", "addr:city": "Boston", "addr:state": "MA", "name": "Seaport", "phone": "6179255570", "website": "https://www.corepoweryoga.com/yoga-studios/massachusetts/boston/seaport", "brand": "Corepower Yoga"}, "geometry": {"type": "Point", "coordinates": [-71.045974, 42.353904]}},
{"type": "Feature", "id": "CXoIHrvBDheVTX_ulLqH4reby9M=", "properties": {"ref": "111", "@spider": "corepower_yoga", "addr:full": "4124 W. Peterson Avenue", "addr:city": "Chicago", "addr:state": "IL", "name": "Sauganash", "phone": "7732432274", "website": "https://www.corepoweryoga.com/yoga-studios/illinois/chicago/sauganash", "brand": "Corepower Yoga"}, "geometry": {"type": "Point", "coordinates": [-87.732284, 41.990387]}},
{"type": "Feature", "id": "GsobDcmW2Sbrsyx_bdIu5pviX6U=", "properties": {"ref": "396", "@spider": "corepower_yoga", "addr:full": "1540 2nd Street Suite 109", "addr:city": "Santa Monica", "addr:state": "CA", "name": "Santa Monica - 2nd Street", "phone": "4244656194", "website": "https://www.corepoweryoga.com/yoga-studios/california/santa-monica/santa-monica-2nd-street", "brand": "Corepower Yoga"}, "geometry": {"type": "Point", "coordinates": [-118.4945, 34.0122]}},
{"type": "Feature", "id": "1-a5SYXEb-FyOQfdv4jHsSIGZTw=", "properties": {"ref": "169", "@spider": "corepower_yoga", "addr:full": "2712 Augustine Drive", "addr:city": "Santa Clara", "addr:state": "CA", "name": "Santa Clara Square", "phone": "6692543578", "website": "https://www.corepoweryoga.com/yoga-studios/california/santa-clara/santa-clara-square", "brand": "Corepower Yoga"}, "geometry": {"type": "Point", "coordinates": [-121.974987, 37.381502]}},
{"type": "Feature", "id": "Lc9AIMqhS9sfojfZnuYzhaWckGI=", "properties": {"ref": "172", "@spider": "corepower_yoga", "addr:full": "6263 Roswell Road", "addr:city": "Sandy Springs", "addr:state": "GA", "name": "Sandy Springs Plaza", "phone": "4704471118", "website": "https://www.corepoweryoga.com/yoga-studios/georgia/sandy-springs/sandy-springs-plaza", "brand": "Corepower Yoga"}, "geometry": {"type": "Point", "coordinates": [-84.379074, 33.926015]}},
{"type": "Feature", "id": "4swlCo47b7Xh3dpjrZ-bFTqepgA=", "properties": {"ref": "362", "@spider": "corepower_yoga", "addr:full": "11740 San Vicente Blvd", "addr:city": "Los Angeles", "addr:state": "CA", "name": "San Vicente", "phone": "2133149112", "website": "https://www.corepoweryoga.com/yoga-studios/california/los-angeles/san-vicente", "brand": "Corepower Yoga"}, "geometry": {"type": "Point", "coordinates": [-118.466916, 34.052804]}},
{"type": "Feature", "id": "3aC1Sii0fPn6N_V-xL0AxoBG4Xw=", "properties": {"ref": "162", "@spider": "corepower_yoga", "addr:full": "333 South B Street", "addr:city": "San Mateo", "addr:state": "CA", "name": "San Mateo", "phone": "6507538307", "website": "https://www.corepoweryoga.com/yoga-studios/california/san-mateo/san-mateo", "brand": "Corepower Yoga"}, "geometry": {"type": "Point", "coordinates": [-122.321584, 37.565269]}},
{"type": "Feature", "id": "uALGUApsQOaUHa7Eom3xv4A5koI=", "properties": {"ref": "178", "@spider": "corepower_yoga", "addr:full": "727 West 40th Street", "addr:city": "Baltimore", "addr:state": "MD", "name": "Rotunda", "phone": "6672606802", "website": "https://www.corepoweryoga.com/yoga-studios/maryland/baltimore/rotunda", "brand": "Corepower Yoga"}, "geometry": {"type": "Point", "coordinates": [-76.632793, 39.3371173]}},
{"type": "Feature", "id": "DcBv2XDA9fts0DiaCyr4YJO6f10=", "properties": {"ref": "235", "@spider": "corepower_yoga", "addr:full": "2480 Fairview Ave North Suite 155", "addr:city": "Roseville", "addr:state": "MN", "name": "Rosedale", "phone": "6514194544", "website": "https://www.corepoweryoga.com/yoga-studios/minnesota/roseville/rosedale", "brand": "Corepower Yoga"}, "geometry": {"type": "Point", "coordinates": [-93.175093, 45.01621]}},
{"type": "Feature", "id": "YlPSvBX2OkjZt1eNbcYoOtsRy5M=", "properties": {"ref": "26", "@spider": "corepower_yoga", "addr:full": "3232 N. Lincoln Avenue", "addr:city": "Chicago", "addr:state": "IL", "name": "Roscoe Village", "phone": "7734049642", "website": "https://www.corepoweryoga.com/yoga-studios/illinois/chicago/roscoe-village", "brand": "Corepower Yoga"}, "geometry": {"type": "Point", "coordinates": [-87.669238, 41.940526]}},
{"type": "Feature", "id": "9GLToKooEyRMX7xXVrSIqPVTD-s=", "properties": {"ref": "634", "@spider": "corepower_yoga", "addr:full": "1601 Rockville Pike", "addr:city": "Rockville", "addr:state": "MD", "name": "Rockville", "phone": "2406183666", "website": "https://www.corepoweryoga.com/yoga-studios/maryland/rockville/rockville", "brand": "Corepower Yoga"}, "geometry": {"type": "Point", "coordinates": [-77.12543, 39.06309]}},
{"type": "Feature", "id": "ZcYTzPvN_c8Hjb-JhSM6Mrri-dA=", "properties": {"ref": "392", "@spider": "corepower_yoga", "addr:full": "5107 Broadway", "addr:city": "Oakland", "addr:state": "CA", "name": "Rockridge", "phone": "4157547646", "website": "https://www.corepoweryoga.com/yoga-studios/california/oakland/rockridge", "brand": "Corepower Yoga"}, "geometry": {"type": "Point", "coordinates": [-122.252391, 37.834998]}},
{"type": "Feature", "id": "uzosjiL7IpjPIpWJ0AONM0MohdU=", "properties": {"ref": "129", "@spider": "corepower_yoga", "addr:full": "310 W. Superior Street", "addr:city": "Chicago", "addr:state": "IL", "name": "River North", "phone": "3124706605", "website": "https://www.corepoweryoga.com/yoga-studios/illinois/chicago/river-north", "brand": "Corepower Yoga"}, "geometry": {"type": "Point", "coordinates": [-87.6400372, 41.89552]}},
{"type": "Feature", "id": "WYESV30_YogE3xeFGtFc7Ojh8NU=", "properties": {"ref": "126", "@spider": "corepower_yoga", "addr:full": "1875 29th Street", "addr:city": "Denver", "addr:state": "CO", "name": "RiNo/Industry", "phone": "7205754174", "website": "https://www.corepoweryoga.com/yoga-studios/colorado/denver/rinoindustry", "brand": "Corepower Yoga"}, "geometry": {"type": "Point", "coordinates": [-104.9872238, 39.7638912]}},
{"type": "Feature", "id": "ENM4-zHHEg8WibfBCjF1yWdkao4=", "properties": {"ref": "353", "@spider": "corepower_yoga", "addr:full": "3750 Florence Street", "addr:city": "Redwood City", "addr:state": "CA", "name": "Redwood City", "phone": "6502411786", "website": "https://www.corepoweryoga.com/yoga-studios/california/redwood-city/redwood-city", "brand": "Corepower Yoga"}, "geometry": {"type": "Point", "coordinates": [-122.18658, 37.47851]}},
{"type": "Feature", "id": "0CpjqmBcOCfU8uvCsT_6NM0joNU=", "properties": {"ref": "106", "@spider": "corepower_yoga", "addr:full": "4407 Redondo Beach Boulevard", "addr:city": "Lawndale", "addr:state": "CA", "name": "Redondo", "phone": "8664419642", "website": "https://www.corepoweryoga.com/yoga-studios/california/lawndale/redondo", "brand": "Corepower Yoga"}, "geometry": {"type": "Point", "coordinates": [-118.352819, 33.874174]}},
{"type": "Feature", "id": "Ugh9Sb59QY6FRQ4xziLfXbEUAWA=", "properties": {"ref": "63", "@spider": "corepower_yoga", "addr:full": "300 3rd Avenue W", "addr:city": "Seattle", "addr:state": "WA", "name": "Queen Anne", "phone": "2062571675", "website": "https://www.corepoweryoga.com/yoga-studios/washington/seattle/queen-anne", "brand": "Corepower Yoga"}, "geometry": {"type": "Point", "coordinates": [-122.360631, 47.621314]}},
{"type": "Feature", "id": "yZHXuEglD7scVr8QanCKFBHGKbs=", "properties": {"ref": "122", "@spider": "corepower_yoga", "addr:full": "11700 Preston Forest Road", "addr:city": "Dallas", "addr:state": "TX", "name": "Preston Forest", "phone": "4692498232", "website": "https://www.corepoweryoga.com/yoga-studios/texas/dallas/preston-forest", "brand": "Corepower Yoga"}, "geometry": {"type": "Point", "coordinates": [-96.804046, 32.908406]}},
{"type": "Feature", "id": "h5WkkgLb7-vZWU5s-ME9iYUtLPk=", "properties": {"ref": "38", "@spider": "corepower_yoga", "addr:full": "14705 Pomerado Road", "addr:city": "Poway", "addr:state": "CA", "name": "Poway", "phone": "8584869642", "website": "https://www.corepoweryoga.com/yoga-studios/california/poway/poway", "brand": "Corepower Yoga"}, "geometry": {"type": "Point", "coordinates": [-117.062272, 32.97936]}},
{"type": "Feature", "id": "Q7TgwlodAkMGoxGudHxwd3Xkx34=", "properties": {"ref": "128", "@spider": "corepower_yoga", "addr:full": "650 North Avenue NE", "addr:city": "Atlanta", "addr:state": "GA", "name": "Ponce City Market", "phone": "4048898940", "website": "https://www.corepoweryoga.com/yoga-studios/georgia/atlanta/ponce-city-market", "brand": "Corepower Yoga"}, "geometry": {"type": "Point", "coordinates": [-84.367367, 33.771527]}},
{"type": "Feature", "id": "G5NadkMPfHD0p9A5CAKIukB3bJw=", "properties": {"ref": "33", "@spider": "corepower_yoga", "addr:full": "3555 Rosecrans Street #203", "addr:city": "San Diego", "addr:state": "CA", "name": "Point Loma", "phone": "6192259642", "website": "https://www.corepoweryoga.com/yoga-studios/california/san-diego/point-loma", "brand": "Corepower Yoga"}, "geometry": {"type": "Point", "coordinates": [-117.20564, 32.75009]}},
{"type": "Feature", "id": "wGgCtUKC4hyjfoIaVbmeCEUF5Js=", "properties": {"ref": "156", "@spider": "corepower_yoga", "addr:full": "560 12th Street S", "addr:city": "Arlington", "addr:state": "VA", "name": "Pentagon City", "phone": "5713511844", "website": "https://www.corepoweryoga.com/yoga-studios/virginia/arlington/pentagon-city", "brand": "Corepower Yoga"}, "geometry": {"type": "Point", "coordinates": [-77.056144, 38.862452]}},
{"type": "Feature", "id": "V6c69LQHcGOQhmxmmELmSWayCqc=", "properties": {"ref": "130", "@spider": "corepower_yoga", "addr:full": "168 W. Green Street", "addr:city": "Pasadena", "addr:state": "CA", "name": "Pasadena", "phone": "6262004594", "website": "https://www.corepoweryoga.com/yoga-studios/california/pasadena/pasadena", "brand": "Corepower Yoga"}, "geometry": {"type": "Point", "coordinates": [-118.152349, 34.144491]}},
{"type": "Feature", "id": "sfZPasJ519x-oY61h9u6BOHUf5Q=", "properties": {"ref": "86", "@spider": "corepower_yoga", "addr:full": "18551 E. Main Street", "addr:city": "Parker", "addr:state": "CO", "name": "Parker", "phone": "3038402410", "website": "https://www.corepoweryoga.com/yoga-studios/colorado/parker/parker", "brand": "Corepower Yoga"}, "geometry": {"type": "Point", "coordinates": [-104.774296, 39.518358]}},
{"type": "Feature", "id": "CR4-kqfIPZR9PwAFClXAt5fNsVk=", "properties": {"ref": "187", "@spider": "corepower_yoga", "addr:full": "540 Brandywine Road #420", "addr:city": "Charlotte", "addr:state": "NC", "name": "Park Road", "phone": "9805988814", "website": "https://www.corepoweryoga.com/yoga-studios/north-carolina/charlotte/park-road", "brand": "Corepower Yoga"}, "geometry": {"type": "Point", "coordinates": [-80.84732, 35.17485]}},
{"type": "Feature", "id": "q2xWRljxcC2h97DiCfwOLAsRocM=", "properties": {"ref": "96", "@spider": "corepower_yoga", "addr:full": "991 W. Touhy Avenue", "addr:city": "Park Ridge", "addr:state": "IL", "name": "Park Ridge", "phone": "8474964359", "website": "https://www.corepoweryoga.com/yoga-studios/illinois/park-ridge/park-ridge", "brand": "Corepower Yoga"}, "geometry": {"type": "Point", "coordinates": [-87.838586, 42.010943]}},
{"type": "Feature", "id": "1N8SHHYwkfwvQHhMpL8evrpNNHU=", "properties": {"ref": "87", "@spider": "corepower_yoga", "addr:full": "8200 S Quebec Street", "addr:city": "Centennial", "addr:state": "CO", "name": "Park Meadows", "phone": "3036499212", "website": "https://www.corepoweryoga.com/yoga-studios/colorado/centennial/park-meadows", "brand": "Corepower Yoga"}, "geometry": {"type": "Point", "coordinates": [-104.902624, 39.567425]}},
{"type": "Feature", "id": "8M7pg97eQZTCvuD86VAPG7UoXr8=", "properties": {"ref": "1109", "@spider": "corepower_yoga", "addr:full": "10810 N. Tatum Blvd", "addr:city": "Phoenix", "addr:state": "AZ", "name": "Paradise Valley", "phone": "8472016510", "website": "https://www.corepoweryoga.com/yoga-studios/arizona/phoenix/paradise-valley", "brand": "Corepower Yoga"}, "geometry": {"type": "Point", "coordinates": [-111.978658, 33.583962]}},
{"type": "Feature", "id": "aYv8EShcIzaN29Yz4IBrGvWjS4I=", "properties": {"ref": "398", "@spider": "corepower_yoga", "addr:full": "855 El Camino Real Suite 105", "addr:city": "Palo Alto", "addr:state": "CA", "name": "Palo Alto - Town & Country", "phone": "6502739149", "website": "https://www.corepoweryoga.com/yoga-studios/california/palo-alto/palo-alto-town-country", "brand": "Corepower Yoga"}, "geometry": {"type": "Point", "coordinates": [-122.159175, 37.438358]}},
{"type": "Feature", "id": "v8bAUl40JSFl_n1L7QvZp-4cB-M=", "properties": {"ref": "34", "@spider": "corepower_yoga", "addr:full": "1554 Garnet Avenue", "addr:city": "San Diego", "addr:state": "CA", "name": "Pacific Beach", "phone": "8582709642", "website": "https://www.corepoweryoga.com/yoga-studios/california/san-diego/pacific-beach", "brand": "Corepower Yoga"}, "geometry": {"type": "Point", "coordinates": [-117.241688, 32.799591]}},
{"type": "Feature", "id": "E97A0O9T8HKg6vBQz7d1zv8ynJ0=", "properties": {"ref": "190", "@spider": "corepower_yoga", "addr:full": "4252 N. Drinkwater Boulevard", "addr:city": "Scottsdale", "addr:state": "AZ", "name": "Old Town Scottsdale", "phone": "3036823005", "website": "https://www.corepoweryoga.com/yoga-studios/arizona/scottsdale/old-town-scottsdale", "brand": "Corepower Yoga"}, "geometry": {"type": "Point", "coordinates": [-111.922352, 33.497299]}},
{"type": "Feature", "id": "11aZiQkV__Q7e1lk0y0Iv5EG-P8=", "properties": {"ref": "109", "@spider": "corepower_yoga", "addr:full": "108 W. Germania Place", "addr:city": "Chicago", "addr:state": "IL", "name": "Old Town", "phone": "3124706606", "website": "https://www.corepoweryoga.com/yoga-studios/illinois/chicago/old-town", "brand": "Corepower Yoga"}, "geometry": {"type": "Point", "coordinates": [-87.632071, 41.91041]}},
{"type": "Feature", "id": "gMuRirPuQHJ3imRQpSOhFtsMfkA=", "properties": {"ref": "95", "@spider": "corepower_yoga", "addr:full": "4999 Old Orchard Shopping Center Rd.", "addr:city": "Skokie", "addr:state": "IL", "name": "Old Orchard", "phone": "8476757175", "website": "https://www.corepoweryoga.com/yoga-studios/illinois/skokie/old-orchard", "brand": "Corepower Yoga"}, "geometry": {"type": "Point", "coordinates": [-87.749797, 42.061765]}},
{"type": "Feature", "id": "2pFRZZsZ0z-rFcxtN517Y1kfZ4s=", "properties": {"ref": "97", "@spider": "corepower_yoga", "addr:full": "855 Madison Street", "addr:city": "Oak Park", "addr:state": "IL", "name": "Oak Park/River Forest", "phone": "7084881071", "website": "https://www.corepoweryoga.com/yoga-studios/illinois/oak-park/oak-parkriver-forest", "brand": "Corepower Yoga"}, "geometry": {"type": "Point", "coordinates": [-87.797079, 41.879503]}},
{"type": "Feature", "id": "8ctmjsX9GIXBUBHjvajBFlal-RQ=", "properties": {"ref": "59", "@spider": "corepower_yoga", "addr:full": "2277 NW Quimby Street", "addr:city": "Portland", "addr:state": "OR", "name": "Northwest Portland", "phone": "5032269642", "website": "https://www.corepoweryoga.com/yoga-studios/oregon/portland/northwest-portland", "brand": "Corepower Yoga"}, "geometry": {"type": "Point", "coordinates": [-122.698294, 45.533371]}},
{"type": "Feature", "id": "jZL6P0e6_OVbKFup6vFUF_vpg_I=", "properties": {"ref": "19", "@spider": "corepower_yoga", "addr:full": "945 Broadway Street NE", "addr:city": "Minneapolis", "addr:state": "MN", "name": "Northeast Minneapolis", "phone": "6128861023", "website": "https://www.corepoweryoga.com/yoga-studios/minnesota/minneapolis/northeast-minneapolis", "brand": "Corepower Yoga"}, "geometry": {"type": "Point", "coordinates": [-93.246703, 44.998752]}},
{"type": "Feature", "id": "0vf-0XQAB56uIXA4tEOLlP6CuME=", "properties": {"ref": "-99", "@spider": "corepower_yoga", "addr:full": "15745 N Hayden Rd. Ste I-119", "addr:city": "Scottsdale", "addr:state": "AZ", "name": "North Scottsdale", "phone": "4806260610", "website": "https://www.corepoweryoga.com/yoga-studios/arizona/scottsdale/north-scottsdale", "brand": "Corepower Yoga"}, "geometry": {"type": "Point", "coordinates": [-111.89328, 33.62764]}},
{"type": "Feature", "id": "cmGcR-b9ZLlVi5bKnCxmJl_18wk=", "properties": {"ref": "6301", "@spider": "corepower_yoga", "addr:full": "7504 Creedmoor Road", "addr:city": "Raleigh", "addr:state": "NC", "name": "North Raleigh", "phone": "9192787734", "website": "https://www.corepoweryoga.com/yoga-studios/north-carolina/raleigh/north-raleigh", "brand": "Corepower Yoga"}, "geometry": {"type": "Point", "coordinates": [-78.680731, 35.8878711]}},
{"type": "Feature", "id": "yl2YhbJ2dk45nBse275OEeINh4M=", "properties": {"ref": "36", "@spider": "corepower_yoga", "addr:full": "3918 30th Street Suite 110", "addr:city": "San Diego", "addr:state": "CA", "name": "North Park", "phone": "6195239642", "website": "https://www.corepoweryoga.com/yoga-studios/california/san-diego/north-park", "brand": "Corepower Yoga"}, "geometry": {"type": "Point", "coordinates": [-117.13015, 32.74879]}},
{"type": "Feature", "id": "TYdqCU8ibp1ZfMXDlIKygTnHu3Y=", "properties": {"ref": "146", "@spider": "corepower_yoga", "addr:full": "2484 Briarcliff Road NE", "addr:city": "Atlanta", "addr:state": "GA", "name": "North Druid Hills", "phone": "4708239903", "website": "https://www.corepoweryoga.com/yoga-studios/georgia/atlanta/north-druid-hills", "brand": "Corepower Yoga"}, "geometry": {"type": "Point", "coordinates": [-84.332162, 33.828198]}},
{"type": "Feature", "id": "j3i-kMSvVEVXLnDto4cLj46Gjv0=", "properties": {"ref": "11", "@spider": "corepower_yoga", "addr:full": "3280 28th Street", "addr:city": "Boulder", "addr:state": "CO", "name": "North Boulder", "phone": "3034403930", "website": "https://www.corepoweryoga.com/yoga-studios/colorado/boulder/north-boulder", "brand": "Corepower Yoga"}, "geometry": {"type": "Point", "coordinates": [-105.258439, 40.033828]}},
{"type": "Feature", "id": "MICwyBgkQp6bC8dRoFtbDa3M2jQ=", "properties": {"ref": "391", "@spider": "corepower_yoga", "addr:full": "619 Divisadero Street", "addr:city": "San Francisco", "addr:state": "CA", "name": "NoPa", "phone": "4155799022", "website": "https://www.corepoweryoga.com/yoga-studios/california/san-francisco/nopa", "brand": "Corepower Yoga"}, "geometry": {"type": "Point", "coordinates": [-122.44035, 37.77532]}},
{"type": "Feature", "id": "QCP-wGulEN8bPZ5bu343zzLspbY=", "properties": {"ref": "698", "@spider": "corepower_yoga", "addr:full": "29 West 30th Street", "addr:city": "New York", "addr:state": "NY", "name": "NoMad", "phone": "3329007134", "website": "https://www.corepoweryoga.com/yoga-studios/new-york/new-york/nomad", "brand": "Corepower Yoga"}, "geometry": {"type": "Point", "coordinates": [-73.9879, 40.7468]}},
{"type": "Feature", "id": "zqIBTIY-woDeX2ug2POxbxweYJ8=", "properties": {"ref": "700", "@spider": "corepower_yoga", "addr:full": "59 Bleecker Street", "addr:city": "New York", "addr:state": "NY", "name": "NoHo", "phone": "6468914790", "website": "https://www.corepoweryoga.com/yoga-studios/new-york/new-york/noho", "brand": "Corepower Yoga"}, "geometry": {"type": "Point", "coordinates": [-73.9947, 40.7262]}},
{"type": "Feature", "id": "ITUFwZg49ZbaNA78sxrNCrfTfEk=", "properties": {"ref": "184", "@spider": "corepower_yoga", "addr:full": "1900 Van Ness Avenue", "addr:city": "San Francisco", "addr:state": "CA", "name": "Nob Hill", "phone": "4152311700", "website": "https://www.corepoweryoga.com/yoga-studios/california/san-francisco/nob-hill", "brand": "Corepower Yoga"}, "geometry": {"type": "Point", "coordinates": [-122.422557, 37.793264]}},
{"type": "Feature", "id": "koEwWpoCqwGC5kPXpW8alDURLxg=", "properties": {"ref": "76", "@spider": "corepower_yoga", "addr:full": "305 Centre Street", "addr:city": "Newton", "addr:state": "MA", "name": "Newton", "phone": "6179169756", "website": "https://www.corepoweryoga.com/yoga-studios/massachusetts/newton/newton", "brand": "Corepower Yoga"}, "geometry": {"type": "Point", "coordinates": [-71.18476, 42.358088]}},
{"type": "Feature", "id": "aSbvq57mpd_vqkgUfK3IvnH8t0w=", "properties": {"ref": "4", "@spider": "corepower_yoga", "addr:full": "623 N. Nevada Avenue", "addr:city": "Colorado Springs", "addr:state": "CO", "name": "Nevada", "phone": "7194779642", "website": "https://www.corepoweryoga.com/yoga-studios/colorado/colorado-springs/nevada", "brand": "Corepower Yoga"}, "geometry": {"type": "Point", "coordinates": [-104.8211, 38.84344]}},
{"type": "Feature", "id": "g3IuksZmAX6CFld-Yv8yO9r4haY=", "properties": {"ref": "94", "@spider": "corepower_yoga", "addr:full": "2531 W. 75th Street", "addr:city": "Naperville", "addr:state": "IL", "name": "Naperville South", "phone": "6309220304", "website": "https://www.corepoweryoga.com/yoga-studios/illinois/naperville/naperville-south", "brand": "Corepower Yoga"}, "geometry": {"type": "Point", "coordinates": [-88.196958, 41.747358]}},
{"type": "Feature", "id": "DNdwZRcouLzgkbNICgm6C6ZYB2I=", "properties": {"ref": "-5246", "@spider": "corepower_yoga", "addr:full": "1711 Shoremeade Road ", "addr:city": "Mt. Pleasant", "addr:state": "SC", "name": "Mount Pleasant", "phone": "8439420633", "website": "https://www.corepoweryoga.com/yoga-studios/south-carolina/mt-pleasant/mount-pleasant", "brand": "Corepower Yoga"}, "geometry": {"type": "Point", "coordinates": [-79.8372053, 32.8281146]}},
{"type": "Feature", "id": "Nv2Va-5OSxT6KKIx_oxJTG3W2ZA=", "properties": {"ref": "68", "@spider": "corepower_yoga", "addr:full": "801 W. 5th Street", "addr:city": "Austin", "addr:state": "TX", "name": "Monarch", "phone": "5125429642", "website": "https://www.corepoweryoga.com/yoga-studios/texas/austin/monarch", "brand": "Corepower Yoga"}, "geometry": {"type": "Point", "coordinates": [-97.75234, 30.26954]}},
{"type": "Feature", "id": "JCwyuAwlw_dbMxEOvIE3Qe6QC4E=", "properties": {"ref": "108", "@spider": "corepower_yoga", "addr:full": "5319 E. Mockingbird Lane", "addr:city": "Dallas", "addr:state": "TX", "name": "Mockingbird", "phone": "2142962449", "website": "https://www.corepoweryoga.com/yoga-studios/texas/dallas/mockingbird", "brand": "Corepower Yoga"}, "geometry": {"type": "Point", "coordinates": [-96.777315, 32.836651]}},
{"type": "Feature", "id": "ZdvOtOrDUvauy2hDYdIT_oWc_zg=", "properties": {"ref": "49", "@spider": "corepower_yoga", "addr:full": "28892 Marguerite Parkway Suite 100", "addr:city": "Mission Viejo", "addr:state": "CA", "name": "Mission Viejo", "phone": "9493882262", "website": "https://www.corepoweryoga.com/yoga-studios/california/mission-viejo/mission-viejo", "brand": "Corepower Yoga"}, "geometry": {"type": "Point", "coordinates": [-117.67325, 33.54291]}},
{"type": "Feature", "id": "8lAptVGzKrazdbUchgHddeCQmNU=", "properties": {"ref": "44", "@spider": "corepower_yoga", "addr:full": "980 Camino De La Reina Unit #4", "addr:city": "San Diego", "addr:state": "CA", "name": "Mission Valley", "phone": "6195749642", "website": "https://www.corepoweryoga.com/yoga-studios/california/san-diego/mission-valley", "brand": "Corepower Yoga"}, "geometry": {"type": "Point", "coordinates": [-117.154132, 32.768132]}},
{"type": "Feature", "id": "gFa5Y73t08sUyW6Be9z_g5VZQpI=", "properties": {"ref": "181", "@spider": "corepower_yoga", "addr:full": "1200 4th Street", "addr:city": "San Francisco", "addr:state": "CA", "name": "Mission Bay", "phone": "4155696055", "website": "https://www.corepoweryoga.com/yoga-studios/california/san-francisco/mission-bay", "brand": "Corepower Yoga"}, "geometry": {"type": "Point", "coordinates": [-122.391536, 37.77227]}},
{"type": "Feature", "id": "PmeS-d9sALjzYy6fiugcMoHCJPM=", "properties": {"ref": "30", "@spider": "corepower_yoga", "addr:full": "13879 Ridgedale Drive", "addr:city": "Minnetonka", "addr:state": "MN", "name": "Minnetonka", "phone": "9522499642", "website": "https://www.corepoweryoga.com/yoga-studios/minnesota/minnetonka/minnetonka", "brand": "Corepower Yoga"}, "geometry": {"type": "Point", "coordinates": [-93.455431, 44.970605]}},
{"type": "Feature", "id": "eRoIuoXETBjWnsWXZZZVclXYjZw=", "properties": {"ref": "115", "@spider": "corepower_yoga", "addr:full": "8302 Hilltop Road", "addr:city": "Fairfax", "addr:state": "VA", "name": "Merrifield", "phone": "7037769931", "website": "https://www.corepoweryoga.com/yoga-studios/virginia/fairfax/merrifield", "brand": "Corepower Yoga"}, "geometry": {"type": "Point", "coordinates": [-77.233073, 38.874126]}},
{"type": "Feature", "id": "nAN49aDMm8GSpymKTgXj_z1p9e8=", "properties": {"ref": "75", "@spider": "corepower_yoga", "addr:full": "312 Mystic Avenue", "addr:city": "Medford", "addr:state": "MA", "name": "Medford", "phone": "7813951960", "website": "https://www.corepoweryoga.com/yoga-studios/massachusetts/medford/medford", "brand": "Corepower Yoga"}, "geometry": {"type": "Point", "coordinates": [-71.100089, 42.40414]}},
{"type": "Feature", "id": "7TczFmiLbYzhZvn8hckeY-DkVTQ=", "properties": {"ref": "394", "@spider": "corepower_yoga", "addr:full": "4371 Glencoe Avenue", "addr:city": "Marina del Rey", "addr:state": "CA", "name": "Marina del Rey", "phone": "3109109398", "website": "https://www.corepoweryoga.com/yoga-studios/california/marina-del-rey/marina-del-rey", "brand": "Corepower Yoga"}, "geometry": {"type": "Point", "coordinates": [-118.4393, 33.9846]}},
{"type": "Feature", "id": "BObf_fGG0dKT5v35TMoYTGpNewU=", "properties": {"ref": "99", "@spider": "corepower_yoga", "addr:full": "12872 Bass Lake Road", "addr:city": "Maple Grove", "addr:state": "MN", "name": "Maple Grove", "phone": "7635509642", "website": "https://www.corepoweryoga.com/yoga-studios/minnesota/maple-grove/maple-grove", "brand": "Corepower Yoga"}, "geometry": {"type": "Point", "coordinates": [-93.443624, 45.065383]}},
{"type": "Feature", "id": "u6jLJdmfy6Be6s--Tx7rPZmZ4NE=", "properties": {"ref": "138", "@spider": "corepower_yoga", "addr:full": "1817 Highway 42", "addr:city": "Louisville", "addr:state": "CO", "name": "Louisville", "phone": "3038484589", "website": "https://www.corepoweryoga.com/yoga-studios/colorado/louisville/louisville", "brand": "Corepower Yoga"}, "geometry": {"type": "Point", "coordinates": [-105.128082, 39.987806]}},
{"type": "Feature", "id": "W4Sedclb9XAOTrz1_AZDVXujFTc=", "properties": {"ref": "10", "@spider": "corepower_yoga", "addr:full": "3041 Zuni Street", "addr:city": "Denver", "addr:state": "CO", "name": "LoHi", "phone": "3034779642", "website": "https://www.corepoweryoga.com/yoga-studios/colorado/denver/lohi", "brand": "Corepower Yoga"}, "geometry": {"type": "Point", "coordinates": [-105.015839, 39.760303]}},
{"type": "Feature", "id": "aHt4s0DncXyC7cqEOOMZI-MBYQs=", "properties": {"ref": "82", "@spider": "corepower_yoga", "addr:full": "2825 W. Belleview Avenue", "addr:city": "Littleton", "addr:state": "CO", "name": "Littleton", "phone": "7205993948", "website": "https://www.corepoweryoga.com/yoga-studios/colorado/littleton/littleton", "brand": "Corepower Yoga"}, "geometry": {"type": "Point", "coordinates": [-105.022641, 39.624169]}},
{"type": "Feature", "id": "ISjCuwfUj3dFt3fDjXAmuNNVdc0=", "properties": {"ref": "316", "@spider": "corepower_yoga", "addr:full": "1470 Kettner Boulevard", "addr:city": "San Diego", "addr:state": "CA", "name": "Little Italy", "phone": "619-387-4150", "website": "https://www.corepoweryoga.com/yoga-studios/california/san-diego/little-italy", "brand": "Corepower Yoga"}, "geometry": {"type": "Point", "coordinates": [-117.169265, 32.720556]}},
{"type": "Feature", "id": "gvJNLnB2ajOGwPP_krSRiIzKiOU=", "properties": {"ref": "21", "@spider": "corepower_yoga", "addr:full": "959 W. Webster Avenue", "addr:city": "Chicago", "addr:state": "IL", "name": "Lincoln Park", "phone": "7733889642", "website": "https://www.corepoweryoga.com/yoga-studios/illinois/chicago/lincoln-park", "brand": "Corepower Yoga"}, "geometry": {"type": "Point", "coordinates": [-87.653038, 41.92169]}},
{"type": "Feature", "id": "vG-oJ7LF5TpF9PVg0K8hxwo5RgU=", "properties": {"ref": "22", "@spider": "corepower_yoga", "addr:full": "945 W. George Street", "addr:city": "Chicago", "addr:state": "IL", "name": "Lakeview", "phone": "7738629642", "website": "https://www.corepoweryoga.com/yoga-studios/illinois/chicago/lakeview", "brand": "Corepower Yoga"}, "geometry": {"type": "Point", "coordinates": [-87.65382, 41.93379]}},
{"type": "Feature", "id": "nLnYCRw5MLqmm8SReE9UNkPlMc0=", "properties": {"ref": "56", "@spider": "corepower_yoga", "addr:full": "23052 Lake Forest Drive", "addr:city": "Laguna Hills", "addr:state": "CA", "name": "Laguna Hills", "phone": "9496005332", "website": "https://www.corepoweryoga.com/yoga-studios/california/laguna-hills/laguna-hills", "brand": "Corepower Yoga"}, "geometry": {"type": "Point", "coordinates": [-117.726889, 33.62901]}},
{"type": "Feature", "id": "iN1itiwkRZY26KoeId1t3cS0iJc=", "properties": {"ref": "40", "@spider": "corepower_yoga", "addr:full": "5262 Baltimore Drive", "addr:city": "La Mesa", "addr:state": "CA", "name": "La Mesa", "phone": "6193379642", "website": "https://www.corepoweryoga.com/yoga-studios/california/la-mesa/la-mesa", "brand": "Corepower Yoga"}, "geometry": {"type": "Point", "coordinates": [-117.027498, 32.77563]}},
{"type": "Feature", "id": "nj4grdldAlEJ6bzVlWsF_mVWZ_4=", "properties": {"ref": "116", "@spider": "corepower_yoga", "addr:full": "1 E. Burlington Avenue", "addr:city": "La Grange", "addr:state": "IL", "name": "La Grange", "phone": "7084696371", "website": "https://www.corepoweryoga.com/yoga-studios/illinois/la-grange/la-grange", "brand": "Corepower Yoga"}, "geometry": {"type": "Point", "coordinates": [-87.86968, 41.815987]}},
{"type": "Feature", "id": "_WBlioH8Nnpwp67Q1nWquG8I9Aw=", "properties": {"ref": "390554", "@spider": "corepower_yoga", "addr:full": "3889 La Cumbre Plaza Ln", "addr:city": "Santa Barbara", "addr:state": "CA", "name": "La Cumbre", "phone": "8057705455", "website": "https://www.corepoweryoga.com/yoga-studios/california/santa-barbara/la-cumbre", "brand": "Corepower Yoga"}, "geometry": {"type": "Point", "coordinates": [-119.750075, 34.438969]}},
{"type": "Feature", "id": "9rFG5KuggnYF1AXaqWgDdef2RMg=", "properties": {"ref": "363", "@spider": "corepower_yoga", "addr:full": "965 Foothill Boulevard Suite B", "addr:city": "La Ca\u00f1ada Flintridge", "addr:state": "CA", "name": "La Ca\u00f1ada", "phone": "8187403002", "website": "https://www.corepoweryoga.com/yoga-studios/california/la-ca%C3%B1ada-flintridge/la-ca%C3%B1ada", "brand": "Corepower Yoga"}, "geometry": {"type": "Point", "coordinates": [-118.199004, 34.204037]}},
{"type": "Feature", "id": "LkdYBaQTCmBsJhIxREwpQl4fefw=", "properties": {"ref": "85", "@spider": "corepower_yoga", "addr:full": "8204 S. Kipling Parkway", "addr:city": "Littleton", "addr:state": "CO", "name": "Ken Caryl", "phone": "7209227820", "website": "https://www.corepoweryoga.com/yoga-studios/colorado/littleton/ken-caryl", "brand": "Corepower Yoga"}, "geometry": {"type": "Point", "coordinates": [-105.110009, 39.567676]}},
{"type": "Feature", "id": "prRXh2s_8EI50Yaidv0l0CffYDA=", "properties": {"ref": "454", "@spider": "corepower_yoga", "addr:full": "4450 Kapolei Parkway", "addr:city": "Kapolei", "addr:state": "HI", "name": "Kapolei", "phone": "8089133340", "website": "https://www.corepoweryoga.com/yoga-studios/hawaii/kapolei/kapolei", "brand": "Corepower Yoga"}, "geometry": {"type": "Point", "coordinates": [-158.0915555, 21.3295555]}},
{"type": "Feature", "id": "6Ix_alLVtNvPyySTgIsxyhMdIp0=", "properties": {"ref": "135", "@spider": "corepower_yoga", "addr:full": "629 Kailua Road", "addr:city": "Kailua", "addr:state": "HI", "name": "Kailua", "phone": "8086701882", "website": "https://www.corepoweryoga.com/yoga-studios/hawaii/kailua/kailua", "brand": "Corepower Yoga"}, "geometry": {"type": "Point", "coordinates": [-157.742734763, 21.3941386276]}},
{"type": "Feature", "id": "r5aUbfw6I2djRXl1n2CLpDgzMus=", "properties": {"ref": "65", "@spider": "corepower_yoga", "addr:full": "4211 Waialae Avenue", "addr:city": "Honolulu", "addr:state": "HI", "name": "Kahala", "phone": "8084007572", "website": "https://www.corepoweryoga.com/yoga-studios/hawaii/honolulu/kahala", "brand": "Corepower Yoga"}, "geometry": {"type": "Point", "coordinates": [-157.787208, 21.278524]}},
{"type": "Feature", "id": "OBhwT54IiJYIrwfT4ECX9muKGkY=", "properties": {"ref": "48", "@spider": "corepower_yoga", "addr:full": "2646 DuPont Drive", "addr:city": "Irvine", "addr:state": "CA", "name": "Irvine Jamboree", "phone": "9498519642", "website": "https://www.corepoweryoga.com/yoga-studios/california/irvine/irvine-jamboree", "brand": "Corepower Yoga"}, "geometry": {"type": "Point", "coordinates": [-117.852702, 33.669916]}},
{"type": "Feature", "id": "LVrbW1aWjfClleIqweUXbDk-CiI=", "properties": {"ref": "24", "@spider": "corepower_yoga", "addr:full": "1539 E. 53rd Street", "addr:city": "Chicago", "addr:state": "IL", "name": "Hyde Park", "phone": "7733249642", "website": "https://www.corepoweryoga.com/yoga-studios/illinois/chicago/hyde-park", "brand": "Corepower Yoga"}, "geometry": {"type": "Point", "coordinates": [-87.58731, 41.79956]}},
{"type": "Feature", "id": "sgfhLi_sfI27pe4jO6DZbEwOMcA=", "properties": {"ref": "58", "@spider": "corepower_yoga", "addr:full": "7777 Edinger Avenue Suite D-230", "addr:city": "Huntington Beach", "addr:state": "CA", "name": "Huntington Beach", "phone": "7148891279", "website": "https://www.corepoweryoga.com/yoga-studios/california/huntington-beach/huntington-beach", "brand": "Corepower Yoga"}, "geometry": {"type": "Point", "coordinates": [-117.994669, 33.73023]}},
{"type": "Feature", "id": "ZEdDecGx2Q4W_qrZBVqO4VLtbpM=", "properties": {"ref": "55", "@spider": "corepower_yoga", "addr:full": "7080 Hollywood Boulevard Suite 200", "addr:city": "Los Angeles", "addr:state": "CA", "name": "Hollywood", "phone": "3234619642", "website": "https://www.corepoweryoga.com/yoga-studios/california/los-angeles/hollywood", "brand": "Corepower Yoga"}, "geometry": {"type": "Point", "coordinates": [-118.34489, 34.1013]}},
{"type": "Feature", "id": "JTsPTIvz99Y_B71DQ0w48b5le_0=", "properties": {"ref": "93", "@spider": "corepower_yoga", "addr:full": "34 S. Vine Street", "addr:city": "Hinsdale", "addr:state": "IL", "name": "Hinsdale", "phone": "6305683670", "website": "https://www.corepoweryoga.com/yoga-studios/illinois/hinsdale/hinsdale", "brand": "Corepower Yoga"}, "geometry": {"type": "Point", "coordinates": [-87.933914, 41.802752]}},
{"type": "Feature", "id": "puu5hup55tRqJ6EpK1-U_c0A2FA=", "properties": {"ref": "35", "@spider": "corepower_yoga", "addr:full": "1080 University Avenue", "addr:city": "San Diego", "addr:state": "CA", "name": "Hillcrest", "phone": "6192959642", "website": "https://www.corepoweryoga.com/yoga-studios/california/san-diego/hillcrest", "brand": "Corepower Yoga"}, "geometry": {"type": "Point", "coordinates": [-117.153779, 32.748531]}},
{"type": "Feature", "id": "PJOSSMIqFBAmZ55JmKtRTxBwfSU=", "properties": {"ref": "84", "@spider": "corepower_yoga", "addr:full": "1265 Sgt. Jon Stiles Drive", "addr:city": "Highlands Ranch", "addr:state": "CO", "name": "Highlands Ranch", "phone": "3037911721", "website": "https://www.corepoweryoga.com/yoga-studios/colorado/highlands-ranch/highlands-ranch", "brand": "Corepower Yoga"}, "geometry": {"type": "Point", "coordinates": [-105.004459, 39.548051]}},
{"type": "Feature", "id": "u1PGvWA-1keIFdmJPOm_2oAMUtM=", "properties": {"ref": "100", "@spider": "corepower_yoga", "addr:full": "3142 S. Highland Drive", "addr:city": "Salt Lake City", "addr:state": "UT", "name": "Highlands (SLC)", "phone": "8012903308", "website": "https://www.corepoweryoga.com/yoga-studios/utah/salt-lake-city/highlands-slc", "brand": "Corepower Yoga"}, "geometry": {"type": "Point", "coordinates": [-111.851613, 40.702365]}},
{"type": "Feature", "id": "dF-jPkUkRl2VaSIJwJx1Wtdv-f8=", "properties": {"ref": "6", "@spider": "corepower_yoga", "addr:full": "3390 W. 32nd Avenue", "addr:city": "Denver", "addr:state": "CO", "name": "Highlands", "phone": "3039643454", "website": "https://www.corepoweryoga.com/yoga-studios/colorado/denver/highlands", "brand": "Corepower Yoga"}, "geometry": {"type": "Point", "coordinates": [-105.03211, 39.76211]}},
{"type": "Feature", "id": "5Xpx9w734B7EmKvEGUlg6kdCXcs=", "properties": {"ref": "18", "@spider": "corepower_yoga", "addr:full": "680 Cleveland Avenue S", "addr:city": "St. Paul", "addr:state": "MN", "name": "Highland Park", "phone": "6514589642", "website": "https://www.corepoweryoga.com/yoga-studios/minnesota/st-paul/highland-park", "brand": "Corepower Yoga"}, "geometry": {"type": "Point", "coordinates": [-93.18738, 44.92099]}},
{"type": "Feature", "id": "VKkOqFftdy3y1RO_2NWw5qHKees=", "properties": {"ref": "110", "@spider": "corepower_yoga", "addr:full": "1907 N. Henderson Avenue", "addr:city": "Dallas", "addr:state": "TX", "name": "Henderson", "phone": "4692498230", "website": "https://www.corepoweryoga.com/yoga-studios/texas/dallas/henderson", "brand": "Corepower Yoga"}, "geometry": {"type": "Point", "coordinates": [-96.774793, 32.811612]}},
{"type": "Feature", "id": "xcr1CG9z99VpEMcDhI6jl3tTxTM=", "properties": {"ref": "395", "@spider": "corepower_yoga", "addr:full": "150 Van Ness Ave Suite A", "addr:city": "San Francisco", "addr:state": "CA", "name": "Hayes Valley", "phone": "6282162906", "website": "https://www.corepoweryoga.com/yoga-studios/california/san-francisco/hayes-valley", "brand": "Corepower Yoga"}, "geometry": {"type": "Point", "coordinates": [-122.41925, 37.7771]}},
{"type": "Feature", "id": "6jXNLfEjpRBjw8Z9_I4R0H9a054=", "properties": {"ref": "653", "@spider": "corepower_yoga", "addr:full": "57 JFK Street", "addr:city": "Cambridge", "addr:state": "MA", "name": "Harvard Square", "phone": "6177526744", "website": "https://www.corepoweryoga.com/yoga-studios/massachusetts/cambridge/harvard-square", "brand": "Corepower Yoga"}, "geometry": {"type": "Point", "coordinates": [-71.12075, 42.372094]}},
{"type": "Feature", "id": "RwK9rw4WFGIodnKOX4GOR5IY9yw=", "properties": {"ref": "603", "@spider": "corepower_yoga", "addr:full": "501 H Street NE", "addr:city": "Washington", "addr:state": "DC", "name": "H Street", "phone": "2026402427", "website": "https://www.corepoweryoga.com/yoga-studios/district-columbia/washington/h-street", "brand": "Corepower Yoga"}, "geometry": {"type": "Point", "coordinates": [-77.0013705, 38.9000003]}},
{"type": "Feature", "id": "OP7ky7UHsii8IfUpOaYDgckEbkE=", "properties": {"ref": "189", "@spider": "corepower_yoga", "addr:full": "3990 Hillsboro Pike", "addr:city": "Nashville", "addr:state": "TN", "name": "Green Hills", "phone": "6156546766", "website": "https://www.corepoweryoga.com/yoga-studios/tennessee/nashville/green-hills", "brand": "Corepower Yoga"}, "geometry": {"type": "Point", "coordinates": [-86.814438, 36.104393]}},
{"type": "Feature", "id": "QNhslgrGWSuzFvodNRJCFmvfeTc=", "properties": {"ref": "1", "@spider": "corepower_yoga", "addr:full": "333 E. 13th Avenue", "addr:city": "Denver", "addr:state": "CO", "name": "Grant", "phone": "3039421055", "website": "https://www.corepoweryoga.com/yoga-studios/colorado/denver/grant", "brand": "Corepower Yoga"}, "geometry": {"type": "Point", "coordinates": [-104.983163, 39.736864]}},
{"type": "Feature", "id": "9bdgPZ_M9VPGM4JA1uXS2n0fHP4=", "properties": {"ref": "397", "@spider": "corepower_yoga", "addr:full": "3265 Grand Ave", "addr:city": "Oakland", "addr:state": "CA", "name": "Grand Lake", "phone": "5104601261", "website": "https://www.corepoweryoga.com/yoga-studios/california/oakland/grand-lake", "brand": "Corepower Yoga"}, "geometry": {"type": "Point", "coordinates": [-122.2474, 37.8128]}},
{"type": "Feature", "id": "cOU2IAVD1sG6vjcgqGv7EZgqIbA=", "properties": {"ref": "14", "@spider": "corepower_yoga", "addr:full": "867 Grand Avenue", "addr:city": "St. Paul", "addr:state": "MN", "name": "Grand Avenue/St. Paul", "phone": "6512251096", "website": "https://www.corepoweryoga.com/yoga-studios/minnesota/st-paul/grand-avenuest-paul", "brand": "Corepower Yoga"}, "geometry": {"type": "Point", "coordinates": [-93.136718, 44.939963]}},
{"type": "Feature", "id": "kHS1kUfqG0cWcokFSuImfsPPgD8=", "properties": {"ref": "118", "@spider": "corepower_yoga", "addr:full": "6992 Market Place Drive", "addr:city": "Goleta", "addr:state": "CA", "name": "Goleta", "phone": "8058452574", "website": "https://www.corepoweryoga.com/yoga-studios/california/goleta/goleta", "brand": "Corepower Yoga"}, "geometry": {"type": "Point", "coordinates": [-119.872473, 34.428568]}},
{"type": "Feature", "id": "tXfnf44Q8Uz10qtpqFJ5Dbvwt4k=", "properties": {"ref": "160", "@spider": "corepower_yoga", "addr:full": "55 River Oaks Place", "addr:city": "San Jose", "addr:state": "CA", "name": "Golden Triangle", "phone": "6692474661", "website": "https://www.corepoweryoga.com/yoga-studios/california/san-jose/golden-triangle", "brand": "Corepower Yoga"}, "geometry": {"type": "Point", "coordinates": [-121.941702, 37.401263]}},
{"type": "Feature", "id": "vF7p_IGuQOvPhcWSbWD43WWXyjQ=", "properties": {"ref": "20", "@spider": "corepower_yoga", "addr:full": "12 W. Maple Street", "addr:city": "Chicago", "addr:state": "IL", "name": "Gold Coast", "phone": "3122669642", "website": "https://www.corepoweryoga.com/yoga-studios/illinois/chicago/gold-coast", "brand": "Corepower Yoga"}, "geometry": {"type": "Point", "coordinates": [-87.62885, 41.90188]}},
{"type": "Feature", "id": "bdLABTifFcLoJwhPHPF23sTcsJQ=", "properties": {"ref": "72", "@spider": "corepower_yoga", "addr:full": "2233 Wisconsin Avenue NW", "addr:city": "Washington", "addr:state": "DC", "name": "Glover Park", "phone": "2027335726", "website": "https://www.corepoweryoga.com/yoga-studios/district-columbia/washington/glover-park", "brand": "Corepower Yoga"}, "geometry": {"type": "Point", "coordinates": [-77.070874, 38.919503]}},
{"type": "Feature", "id": "frdHAkJAPD3Cc98yej4_lh86nvU=", "properties": {"ref": "123", "@spider": "corepower_yoga", "addr:full": "1819 Glenview Road", "addr:city": "Glenview", "addr:state": "IL", "name": "Glenview", "phone": "8474539544", "website": "https://www.corepoweryoga.com/yoga-studios/illinois/glenview/glenview", "brand": "Corepower Yoga"}, "geometry": {"type": "Point", "coordinates": [-87.803097, 42.072736]}},
{"type": "Feature", "id": "ivTmeUkuPkexYqszJVm3qtwmii0=", "properties": {"ref": "71", "@spider": "corepower_yoga", "addr:full": "1055 Thomas Jefferson Street NW", "addr:city": "Washington", "addr:state": "DC", "name": "Georgetown", "phone": "2023389642", "website": "https://www.corepoweryoga.com/yoga-studios/district-columbia/washington/georgetown", "brand": "Corepower Yoga"}, "geometry": {"type": "Point", "coordinates": [-77.06017, 38.90382]}},
{"type": "Feature", "id": "D-QTsYuZa9me1NWcnxloxGnoDak=", "properties": {"ref": "5", "@spider": "corepower_yoga", "addr:full": "1025 Garden of the Gods Road Suite C", "addr:city": "Colorado Springs", "addr:state": "CO", "name": "Garden of the Gods", "phone": "7192658611", "website": "https://www.corepoweryoga.com/yoga-studios/colorado/colorado-springs/garden-gods", "brand": "Corepower Yoga"}, "geometry": {"type": "Point", "coordinates": [-104.83838, 38.89664]}},
{"type": "Feature", "id": "daBW6wpiIeZHy8HGTy3eC5OmBm8=", "properties": {"ref": "74", "@spider": "corepower_yoga", "addr:full": "170R Alewife Brook Parkway", "addr:city": "Cambridge", "addr:state": "MA", "name": "Fresh Pond", "phone": "6179452754", "website": "https://www.corepoweryoga.com/yoga-studios/massachusetts/cambridge/fresh-pond", "brand": "Corepower Yoga"}, "geometry": {"type": "Point", "coordinates": [-71.139867, 42.390788]}},
{"type": "Feature", "id": "h9R9VXhHZi4o5aOt7ii3PKQORf0=", "properties": {"ref": "66", "@spider": "corepower_yoga", "addr:full": "215 Fremont Street", "addr:city": "San Francisco", "addr:state": "CA", "name": "Fremont Street", "phone": "4152004137", "website": "https://www.corepoweryoga.com/yoga-studios/california/san-francisco/fremont-street", "brand": "Corepower Yoga"}, "geometry": {"type": "Point", "coordinates": [-122.394808, 37.788974]}},
{"type": "Feature", "id": "rczZ87dZt1WpsSajcbr169zx204=", "properties": {"ref": "12", "@spider": "corepower_yoga", "addr:full": "2700 S. College Avenue", "addr:city": "Fort Collins", "addr:state": "CO", "name": "Fort Collins", "phone": "9702244615", "website": "https://www.corepoweryoga.com/yoga-studios/colorado/fort-collins/fort-collins", "brand": "Corepower Yoga"}, "geometry": {"type": "Point", "coordinates": [-105.07676, 40.55038]}},
{"type": "Feature", "id": "raxizjROrCnGMWbZ0SVz6hE5O9o=", "properties": {"ref": "101", "@spider": "corepower_yoga", "addr:full": "1400 Foothill Drive", "addr:city": "Salt Lake City", "addr:state": "UT", "name": "Foothill", "phone": "8018839572", "website": "https://www.corepoweryoga.com/yoga-studios/utah/salt-lake-city/foothill", "brand": "Corepower Yoga"}, "geometry": {"type": "Point", "coordinates": [-111.825057, 40.739051]}},
{"type": "Feature", "id": "XLPl2chdR6G3ubiAxoh5H07AoTg=", "properties": {"ref": "696", "@spider": "corepower_yoga", "addr:full": "32 W. 18th Street", "addr:city": "New York", "addr:state": "NY", "name": "Flatiron", "phone": "9174568814", "website": "https://www.corepoweryoga.com/yoga-studios/new-york/new-york-city/flatiron", "brand": "Corepower Yoga"}, "geometry": {"type": "Point", "coordinates": [-73.993792, 40.739066]}},
{"type": "Feature", "id": "JvL5-z78937yV4TsOu6rlR33vIA=", "properties": {"ref": "389", "@spider": "corepower_yoga", "addr:full": "241 California Street ", "addr:city": "San Francisco", "addr:state": "CA", "name": "FiDi San Francisco", "phone": "6504575127", "website": "https://www.corepoweryoga.com/yoga-studios/california/san-francisco/fidi-san-francisco", "brand": "Corepower Yoga"}, "geometry": {"type": "Point", "coordinates": [-122.399363, 37.793116]}},
{"type": "Feature", "id": "xDBM0PmY-4NVXGpz7q1nspEaR4I=", "properties": {"ref": "195", "@spider": "corepower_yoga", "addr:full": "1282 Boylston Street", "addr:city": "Boston", "addr:state": "MA", "name": "Fenway", "phone": "5176240347", "website": "https://www.corepoweryoga.com/yoga-studios/massachusetts/boston/fenway", "brand": "Corepower Yoga"}, "geometry": {"type": "Point", "coordinates": [-71.096996, 42.344448]}},
{"type": "Feature", "id": "Mf61JbMwTzEErVKvi2IynUJRxZ0=", "properties": {"ref": "630", "@spider": "corepower_yoga", "addr:full": "1420 Key Highway", "addr:city": "Baltimore", "addr:state": "MD", "name": "Federal Hill", "phone": "4437072230", "website": "https://www.corepoweryoga.com/yoga-studios/maryland/baltimore/federal-hill", "brand": "Corepower Yoga"}, "geometry": {"type": "Point", "coordinates": [-76.602182, 39.273147]}},
{"type": "Feature", "id": "24o2e2hLtdhIUW41M7ZxP3jVeJ4=", "properties": {"ref": "352", "@spider": "corepower_yoga", "addr:full": "957 Newport Center Drive", "addr:city": "Newport Beach", "addr:state": "CA", "name": "Fashion Island\t", "phone": "9497633024", "website": "https://www.corepoweryoga.com/yoga-studios/california/newport-beach/fashion-island", "brand": "Corepower Yoga"}, "geometry": {"type": "Point", "coordinates": [-117.8776, 33.6161]}},
{"type": "Feature", "id": "zdxzIyMEzog720ewZugkXvQNYTU=", "properties": {"ref": "73", "@spider": "corepower_yoga", "addr:full": "444 W. Broad Street", "addr:city": "Falls Church", "addr:state": "VA", "name": "Falls Church", "phone": "7035339642", "website": "https://www.corepoweryoga.com/yoga-studios/virginia/falls-church/falls-church", "brand": "Corepower Yoga"}, "geometry": {"type": "Point", "coordinates": [-77.177258, 38.886234]}},
{"type": "Feature", "id": "rkJXVESn7ua3ojNftoqQFZIdgvQ=", "properties": {"ref": "134", "@spider": "corepower_yoga", "addr:full": "4211 Fairfax Corner East Avenue", "addr:city": "Fairfax", "addr:state": "VA", "name": "Fairfax Corner", "phone": "5714186009", "website": "https://www.corepoweryoga.com/yoga-studios/virginia/fairfax/fairfax-corner", "brand": "Corepower Yoga"}, "geometry": {"type": "Point", "coordinates": [-77.3561197, 38.8581265]}},
{"type": "Feature", "id": "byDfdwg1vm4fJwCcS5odvj4k2GA=", "properties": {"ref": "145", "@spider": "corepower_yoga", "addr:full": "5275 Sunrise Boulevard", "addr:city": "Sacramento", "addr:state": "CA", "name": "Fair Oaks", "phone": "9168273064", "website": "https://www.corepoweryoga.com/yoga-studios/california/sacramento/fair-oaks", "brand": "Corepower Yoga"}, "geometry": {"type": "Point", "coordinates": [-121.273389, 38.661773]}},
{"type": "Feature", "id": "BVL-JOSBHsseLXUMDCqMc7g65hQ=", "properties": {"ref": "177", "@spider": "corepower_yoga", "addr:full": "1460 Bethlehem Pike", "addr:city": "North Wales", "addr:state": "PA", "name": "English Village", "phone": "4846015487", "website": "https://www.corepoweryoga.com/yoga-studios/pennsylvania/north-wales/english-village", "brand": "Corepower Yoga"}, "geometry": {"type": "Point", "coordinates": [-75.223049, 40.208572]}},
{"type": "Feature", "id": "B-FBBoQd0TVboJRngAy2Np2RM8A=", "properties": {"ref": "54", "@spider": "corepower_yoga", "addr:full": "17175-B Ventura Boulevard", "addr:city": "Encino", "addr:state": "CA", "name": "Encino", "phone": "8189069642", "website": "https://www.corepoweryoga.com/yoga-studios/california/encino/encino", "brand": "Corepower Yoga"}, "geometry": {"type": "Point", "coordinates": [-118.50737, 34.160509]}},
{"type": "Feature", "id": "1bD48bWcVKCkpmS2fppuFkeLRK4=", "properties": {"ref": "45", "@spider": "corepower_yoga", "addr:full": "515 Encinitas Boulevard Suite 100", "addr:city": "Encinitas", "addr:state": "CA", "name": "Encinitas", "phone": "7604369642", "website": "https://www.corepoweryoga.com/yoga-studios/california/encinitas/encinitas", "brand": "Corepower Yoga"}, "geometry": {"type": "Point", "coordinates": [-117.2813, 33.046819]}},
{"type": "Feature", "id": "WDryGbIuKkngQHDrZXSSD8hIaKM=", "properties": {"ref": "92", "@spider": "corepower_yoga", "addr:full": "183 N. York Street", "addr:city": "Elmhurst", "addr:state": "IL", "name": "Elmhurst", "phone": "6303594826", "website": "https://www.corepoweryoga.com/yoga-studios/illinois/elmhurst/elmhurst", "brand": "Corepower Yoga"}, "geometry": {"type": "Point", "coordinates": [-87.939953, 41.902162]}},
{"type": "Feature", "id": "dCcU3S0xn3OTUP1cVUXOfz0E6X4=", "properties": {"ref": "98", "@spider": "corepower_yoga", "addr:full": "7495 France Avenue S", "addr:city": "Edina", "addr:state": "MN", "name": "Edina", "phone": "9528359642", "website": "https://www.corepoweryoga.com/yoga-studios/minnesota/edina/edina", "brand": "Corepower Yoga"}, "geometry": {"type": "Point", "coordinates": [-93.328746, 44.86699]}},
{"type": "Feature", "id": "xMb2OIeee-K9Kl_8og2AqCUB_dI=", "properties": {"ref": "31", "@spider": "corepower_yoga", "addr:full": "7739 Flying Cloud Drive", "addr:city": "Eden Prairie", "addr:state": "MN", "name": "Eden Prairie", "phone": "9529068918", "website": "https://www.corepoweryoga.com/yoga-studios/minnesota/eden-prairie/eden-prairie", "brand": "Corepower Yoga"}, "geometry": {"type": "Point", "coordinates": [-93.420415, 44.865219]}},
{"type": "Feature", "id": "WhdCL_LCRFixojSQ3DoKHdvo3mc=", "properties": {"ref": "143", "@spider": "corepower_yoga", "addr:full": "1150 Connecticut Avenue NW", "addr:city": "Washington", "addr:state": "DC", "name": "Dupont Circle", "phone": "2028381244", "website": "https://www.corepoweryoga.com/yoga-studios/district-columbia/washington/dupont-circle", "brand": "Corepower Yoga"}, "geometry": {"type": "Point", "coordinates": [-77.041334, 38.90527]}},
{"type": "Feature", "id": "OIxrwBm4E-6mgmwj5YHup8NtEWo=", "properties": {"ref": "367", "@spider": "corepower_yoga", "addr:full": "100 Church Street", "addr:city": "San Francisco", "addr:state": "CA", "name": "Duboce", "phone": "4152311800", "website": "https://www.corepoweryoga.com/yoga-studios/california/san-francisco/duboce", "brand": "Corepower Yoga"}, "geometry": {"type": "Point", "coordinates": [-122.429358, 37.769177]}},
{"type": "Feature", "id": "FhAmUsiqj4upLnVJmcj_pgYfWwg=", "properties": {"ref": "393", "@spider": "corepower_yoga", "addr:full": "787 The Alameda Suite 20", "addr:city": "San Jose", "addr:state": "CA", "name": "Downtown San Jose", "phone": "4157547646", "website": "https://www.corepoweryoga.com/yoga-studios/california/san-jose/downtown-san-jose", "brand": "Corepower Yoga"}, "geometry": {"type": "Point", "coordinates": [-121.9054, 37.33227]}},
{"type": "Feature", "id": "EILG3yFeUdoYyWoQ3rqOmCAQ6o8=", "properties": {"ref": "13", "@spider": "corepower_yoga", "addr:full": "501 S. Washington Avenue", "addr:city": "Minneapolis", "addr:state": "MN", "name": "Downtown Minneapolis", "phone": "6123759642", "website": "https://www.corepoweryoga.com/yoga-studios/minnesota/minneapolis/downtown-minneapolis", "brand": "Corepower Yoga"}, "geometry": {"type": "Point", "coordinates": [-93.261409, 44.97881]}},
{"type": "Feature", "id": "tG4yEMmABC_adN3zS8dqBNWhuCU=", "properties": {"ref": "364", "@spider": "corepower_yoga", "addr:full": "831 S. Hope Street", "addr:city": "Los Angeles", "addr:state": "CA", "name": "Downtown LA", "phone": "2133065910", "website": "https://www.corepoweryoga.com/yoga-studios/california/los-angeles/downtown-LA", "brand": "Corepower Yoga"}, "geometry": {"type": "Point", "coordinates": [-118.26018, 34.04622]}},
{"type": "Feature", "id": "ZQcDrhqd5jJkL9auViDxEM3wq3A=", "properties": {"ref": "658", "@spider": "corepower_yoga", "addr:full": "18 Kingston, Ste L100", "addr:city": "Boston", "addr:state": "MA", "name": "Downtown Crossing", "phone": "6172064563", "website": "https://www.corepoweryoga.com/yoga-studios/massachusetts/boston/downtown-crossing", "brand": "Corepower Yoga"}, "geometry": {"type": "Point", "coordinates": [-71.0588, 42.3536]}},
{"type": "Feature", "id": "yRFtcFN4AEhs29tHQIE8XVul7lM=", "properties": {"ref": "39", "@spider": "corepower_yoga", "addr:full": "2710 Via De La Valle #B210", "addr:city": "Del Mar", "addr:state": "CA", "name": "Del Mar", "phone": "8587559642", "website": "https://www.corepoweryoga.com/yoga-studios/california/del-mar/del-mar", "brand": "Corepower Yoga"}, "geometry": {"type": "Point", "coordinates": [-117.249002, 32.980845]}},
{"type": "Feature", "id": "ulfmJZspRAbgZj4t0irzb37VLNs=", "properties": {"ref": "91", "@spider": "corepower_yoga", "addr:full": "710 Robert York Avenue", "addr:city": "Deerfield", "addr:state": "IL", "name": "Deerfield", "phone": "8479140802", "website": "https://www.corepoweryoga.com/yoga-studios/illinois/deerfield/deerfield", "brand": "Corepower Yoga"}, "geometry": {"type": "Point", "coordinates": [-87.848526, 42.165758]}},
{"type": "Feature", "id": "A_07zjrELg8uTrwPbW6mAbMQe7w=", "properties": {"ref": "354", "@spider": "corepower_yoga", "addr:full": "9300 Culver Blvd", "addr:city": "Culver City", "addr:state": "CA", "name": "Culver City", "phone": "4243261103", "website": "https://www.corepoweryoga.com/yoga-studios/california/culver-city/culver-city", "brand": "Corepower Yoga"}, "geometry": {"type": "Point", "coordinates": [-118.39977, 33.99025]}},
{"type": "Feature", "id": "nNw14M87F_gV8Wrg_U8iIcTKrD4=", "properties": {"ref": "399", "@spider": "corepower_yoga", "addr:full": "2909 Webster Street", "addr:city": "San Francisco", "addr:state": "CA", "name": "Cow Hollow", "phone": "4157280433", "website": "https://www.corepoweryoga.com/yoga-studios/california/san-francisco/cow-hollow", "brand": "Corepower Yoga"}, "geometry": {"type": "Point", "coordinates": [-122.43633, 37.79759]}},
{"type": "Feature", "id": "F18IjQA8Dgt5edep9MwlVv2A11A=", "properties": {"ref": "142", "@spider": "corepower_yoga", "addr:full": "4725 Wyandotte Street", "addr:city": "Kansas City", "addr:state": "MO", "name": "Country Club Plaza", "phone": "8168970678", "website": "https://www.corepoweryoga.com/yoga-studios/missouri/kansas-city/country-club-plaza", "brand": "Corepower Yoga"}, "geometry": {"type": "Point", "coordinates": [-94.5890551739, 39.0420224783]}},
{"type": "Feature", "id": "RjePxo1HP_S1a4VzVg2P-G-owSM=", "properties": {"ref": "113", "@spider": "corepower_yoga", "addr:full": "1119 Commonwealth Avenue", "addr:city": "Boston", "addr:state": "MA", "name": "Comm Ave", "phone": "8573664250", "website": "https://www.corepoweryoga.com/yoga-studios/massachusetts/boston/comm-ave", "brand": "Corepower Yoga"}, "geometry": {"type": "Point", "coordinates": [-71.125365, 42.351782]}},
{"type": "Feature", "id": "idZZ4WjVFW1ewWSYoNXDhL8BJCI=", "properties": {"ref": "8", "@spider": "corepower_yoga", "addr:full": "1699 S. Colorado Boulevard", "addr:city": "Denver", "addr:state": "CO", "name": "Colorado Boulevard", "phone": "3037539642", "website": "https://www.corepoweryoga.com/yoga-studios/colorado/denver/colorado-boulevard", "brand": "Corepower Yoga"}, "geometry": {"type": "Point", "coordinates": [-104.940832, 39.685946]}},
{"type": "Feature", "id": "Ght795ODkknRLfw2T20Z1WfV_XI=", "properties": {"ref": "124", "@spider": "corepower_yoga", "addr:full": "1929 Clarendon Boulevard", "addr:city": "Arlington", "addr:state": "VA", "name": "Clarendon", "phone": "5714212380", "website": "https://www.corepoweryoga.com/yoga-studios/virginia/arlington/clarendon", "brand": "Corepower Yoga"}, "geometry": {"type": "Point", "coordinates": [-77.081301, 38.891799]}},
{"type": "Feature", "id": "xK9CoGrpaMNIoaOwqaZg9ZwqyMY=", "properties": {"ref": "37", "@spider": "corepower_yoga", "addr:full": "4592 Clairemont Drive Suite 130", "addr:city": "San Diego", "addr:state": "CA", "name": "Clairemont Mesa", "phone": "8584839642", "website": "https://www.corepoweryoga.com/yoga-studios/california/san-diego/clairemont-mesa", "brand": "Corepower Yoga"}, "geometry": {"type": "Point", "coordinates": [-117.206149, 32.82744]}},
{"type": "Feature", "id": "yaxYNPahF_8yRL85ety-BxY158s=", "properties": {"ref": "139", "@spider": "corepower_yoga", "addr:full": "824 9th Street NW", "addr:city": "Washington", "addr:state": "DC", "name": "CityCenterDC", "phone": "2025808088", "website": "https://www.corepoweryoga.com/yoga-studios/district-columbia/washington/citycenterdc", "brand": "Corepower Yoga"}, "geometry": {"type": "Point", "coordinates": [-77.0245417766, 38.899894]}},
{"type": "Feature", "id": "xLqGyYUCFM893m_RHwvDztW-XmA=", "properties": {"ref": "3", "@spider": "corepower_yoga", "addr:full": "5004 E. Hampden Avenue", "addr:city": "Denver", "addr:state": "CO", "name": "Cherry Hills", "phone": "3036910333", "website": "https://www.corepoweryoga.com/yoga-studios/colorado/denver/cherry-hills", "brand": "Corepower Yoga"}, "geometry": {"type": "Point", "coordinates": [-104.929262, 39.65307]}},
{"type": "Feature", "id": "NrjYFF9oxi3k_vCjlP7WuvYAtRY=", "properties": {"ref": "647", "@spider": "corepower_yoga", "addr:full": "209 S Kings Drive Suite 203", "addr:city": "Charlotte", "addr:state": "NC", "name": "Charlotte - Midtown", "phone": "9805988076", "website": "https://www.corepoweryoga.com/yoga-studios/north-carolina/charlotte/charlotte-midtown", "brand": "Corepower Yoga"}, "geometry": {"type": "Point", "coordinates": [-80.81711, 35.19534]}},
{"type": "Feature", "id": "zTq2zVLyCpc2x7w3uu9WSeCK20I=", "properties": {"ref": "659", "@spider": "corepower_yoga", "addr:full": "19 Austin Street", "addr:city": "Charlestown", "addr:state": "MA", "name": "Charlestown", "phone": "6178129831", "website": "https://www.corepoweryoga.com/yoga-studios/massachusetts/charlestown/charlestown", "brand": "Corepower Yoga"}, "geometry": {"type": "Point", "coordinates": [-71.06514, 42.375]}},
{"type": "Feature", "id": "qdKnpsWGaV7pUkP4jVSttVx9_H4=", "properties": {"ref": "643", "@spider": "corepower_yoga", "addr:full": "1800 E. Franklin Street", "addr:city": "Chapel Hill", "addr:state": "NC", "name": "Chapel Hill", "phone": "9192764610", "website": "https://www.corepoweryoga.com/yoga-studios/north-carolina/chapel-hill/chapel-hill", "brand": "Corepower Yoga"}, "geometry": {"type": "Point", "coordinates": [-79.025323, 35.935087]}},
{"type": "Feature", "id": "Jb303cpi5QiCS49t-E7hd_fKIXc=", "properties": {"ref": "154", "@spider": "corepower_yoga", "addr:full": "2875 W. Ray Road #14", "addr:city": "Chandler", "addr:state": "AZ", "name": "Chandler", "phone": "4804983103", "website": "https://www.corepoweryoga.com/yoga-studios/arizona/chandler/chandler", "brand": "Corepower Yoga"}, "geometry": {"type": "Point", "coordinates": [-111.891888, 33.31857]}},
{"type": "Feature", "id": "b3zkJyobsvkKdZCA0Bqe7zruNQQ=", "properties": {"ref": "1108", "@spider": "corepower_yoga", "addr:full": "5539 N. 7th Street Suite 116", "addr:city": "Phoenix", "addr:state": "AZ", "name": "Central Phoenix", "phone": "3036823005", "website": "https://www.corepoweryoga.com/yoga-studios/arizona/phoenix/central-phoenix", "brand": "Corepower Yoga"}, "geometry": {"type": "Point", "coordinates": [-112.065011, 33.517787]}},
{"type": "Feature", "id": "36Nb-I1Mt3f87798kWOeQ9AXOaU=", "properties": {"ref": "80", "@spider": "corepower_yoga", "addr:full": "7485 E. 29th Place", "addr:city": "Denver", "addr:state": "CO", "name": "Central Park", "phone": "3033777444", "website": "https://www.corepoweryoga.com/yoga-studios/colorado/denver/central-park", "brand": "Corepower Yoga"}, "geometry": {"type": "Point", "coordinates": [-104.900782, 39.758343]}},
{"type": "Feature", "id": "0aWw7W9litxEW28DnfGGaclmt84=", "properties": {"ref": "168", "@spider": "corepower_yoga", "addr:full": "302 Colonades Way", "addr:city": "Cary", "addr:state": "NC", "name": "Cary/Waverly Place", "phone": "9192417901", "website": "https://www.corepoweryoga.com/yoga-studios/north-carolina/cary/carywaverly-place", "brand": "Corepower Yoga"}, "geometry": {"type": "Point", "coordinates": [-78.778267, 35.738224]}},
{"type": "Feature", "id": "XRr5Kw-gd-Os1LKHBdJFACCtDWE=", "properties": {"ref": "61", "@spider": "corepower_yoga", "addr:full": "501 Broadway E", "addr:city": "Seattle", "addr:state": "WA", "name": "Capitol Hill", "phone": "2067099642", "website": "https://www.corepoweryoga.com/yoga-studios/washington/seattle/capitol-hill", "brand": "Corepower Yoga"}, "geometry": {"type": "Point", "coordinates": [-122.320959, 47.623131]}},
{"type": "Feature", "id": "TTFohOM3UqJ8XyaLyvDgbe4EgJE=", "properties": {"ref": "25", "@spider": "corepower_yoga", "addr:full": "1704 N. Milwaukee Avenue", "addr:city": "Chicago", "addr:state": "IL", "name": "Bucktown", "phone": "7732279642", "website": "https://www.corepoweryoga.com/yoga-studios/illinois/chicago/bucktown", "brand": "Corepower Yoga"}, "geometry": {"type": "Point", "coordinates": [-87.680429, 41.91229]}},
{"type": "Feature", "id": "yDkm7gF5OLBRAY4y3USYFY_0bXw=", "properties": {"ref": "127", "@spider": "corepower_yoga", "addr:full": "3400 Around Lenox Road NE", "addr:city": "Atlanta", "addr:state": "GA", "name": "Buckhead", "phone": "4048653264", "website": "https://www.corepoweryoga.com/yoga-studios/georgia/atlanta/buckhead", "brand": "Corepower Yoga"}, "geometry": {"type": "Point", "coordinates": [-84.3598027222, 33.8472046111]}},
{"type": "Feature", "id": "6oU9m1owlJE_20WfER2Kv3SDjuI=", "properties": {"ref": "694", "@spider": "corepower_yoga", "addr:full": "24 West 40th Street", "addr:city": "New York", "addr:state": "NY", "name": "Bryant Park", "phone": "2122025721", "website": "https://www.corepoweryoga.com/yoga-studios/new-york/new-york/bryant-park", "brand": "Corepower Yoga"}, "geometry": {"type": "Point", "coordinates": [-73.98372, 40.752869]}},
{"type": "Feature", "id": "9PXhVCfEt4poWebT8FoRzSJYDr4=", "properties": {"ref": "89", "@spider": "corepower_yoga", "addr:full": "549 Flatiron Boulevard", "addr:city": "Broomfield", "addr:state": "CO", "name": "Broomfield Flatirons", "phone": "7208875752", "website": "https://www.corepoweryoga.com/yoga-studios/colorado/broomfield/broomfield-flatirons", "brand": "Corepower Yoga"}, "geometry": {"type": "Point", "coordinates": [-105.130616, 39.927996]}},
{"type": "Feature", "id": "rZUYOHgQMhH3v_CBeV1vKaWldI4=", "properties": {"ref": "88", "@spider": "corepower_yoga", "addr:full": "3700 W. 144th Avenue", "addr:city": "Broomfield", "addr:state": "CO", "name": "Broomfield East", "phone": "7208876191", "website": "https://www.corepoweryoga.com/yoga-studios/colorado/broomfield/broomfield-east", "brand": "Corepower Yoga"}, "geometry": {"type": "Point", "coordinates": [-105.035649, 39.957672]}},
{"type": "Feature", "id": "_EIMAPzwlUB7ld4beiHlu6_mzVQ=", "properties": {"ref": "2", "@spider": "corepower_yoga", "addr:full": "277 Broadway", "addr:city": "Denver", "addr:state": "CO", "name": "Broadway", "phone": "3037338040", "website": "https://www.corepoweryoga.com/yoga-studios/colorado/denver/broadway", "brand": "Corepower Yoga"}, "geometry": {"type": "Point", "coordinates": [-104.987499, 39.72058]}},
{"type": "Feature", "id": "juf6x1O_dGTVwdcsHNF3lqA0hVs=", "properties": {"ref": "114", "@spider": "corepower_yoga", "addr:full": "7497 SW Bridgeport Road", "addr:city": "Tualatin", "addr:state": "OR", "name": "Bridgeport Village", "phone": "5032060650", "website": "https://www.corepoweryoga.com/yoga-studios/oregon/tualatin/bridgeport-village", "brand": "Corepower Yoga"}, "geometry": {"type": "Point", "coordinates": [-122.754315, 45.393472]}},
{"type": "Feature", "id": "FV1IHE_2Q5NU6oUBaojmesF3-3g=", "properties": {"ref": "170", "@spider": "corepower_yoga", "addr:full": "3700 Toone Street", "addr:city": "Baltimore", "addr:state": "MD", "name": "Brewers Hill", "phone": "4103247475", "website": "https://www.corepoweryoga.com/yoga-studios/maryland/baltimore/brewers-hill", "brand": "Corepower Yoga"}, "geometry": {"type": "Point", "coordinates": [-76.564981, 39.278964]}},
{"type": "Feature", "id": "YCkf8RKN4QMr2fCVbv01gboaGuU=", "properties": {"ref": "179", "@spider": "corepower_yoga", "addr:full": "211 Franklin Road", "addr:city": "Brentwood", "addr:state": "TN", "name": "Brentwood", "phone": "6156106133", "website": "https://www.corepoweryoga.com/yoga-studios/tennessee/brentwood/brentwood", "brand": "Corepower Yoga"}, "geometry": {"type": "Point", "coordinates": [-86.789042, 36.032805]}},
{"type": "Feature", "id": "6sMBPz2brWkAQKp5lRmxvb64xYI=", "properties": {"ref": "140", "@spider": "corepower_yoga", "addr:full": "3415 E. Imperial Highway", "addr:city": "Brea", "addr:state": "CA", "name": "Brea", "phone": "7147063025", "website": "https://www.corepoweryoga.com/yoga-studios/california/brea/brea", "brand": "Corepower Yoga"}, "geometry": {"type": "Point", "coordinates": [-117.850621, 33.908487]}},
{"type": "Feature", "id": "xgaeAwKHnfC6NUMP_sOousNYWNQ=", "properties": {"ref": "9", "@spider": "corepower_yoga", "addr:full": "1129 13th Street 2nd Floor", "addr:city": "Boulder", "addr:state": "CO", "name": "Boulder on the Hill", "phone": "3034408952", "website": "https://www.corepoweryoga.com/yoga-studios/colorado/boulder/boulder-hill", "brand": "Corepower Yoga"}, "geometry": {"type": "Point", "coordinates": [-105.27623, 40.00792]}},
{"type": "Feature", "id": "_7s0em-5LhwwVKZOvb6LFkrOO68=", "properties": {"ref": "141", "@spider": "corepower_yoga", "addr:full": "3494 Blackhawk Plaza Circle", "addr:city": "Danville", "addr:state": "CA", "name": "Blackhawk", "phone": "9258544517", "website": "https://www.corepoweryoga.com/yoga-studios/california/danville/blackhawk", "brand": "Corepower Yoga"}, "geometry": {"type": "Point", "coordinates": [-121.91751, 37.800821]}},
{"type": "Feature", "id": "6Yg6o8k85y2eRDrtNXuEU8qV0So=", "properties": {"ref": "70", "@spider": "corepower_yoga", "addr:full": "6708 Wisconsin Avenue", "addr:city": "Chevy Chase", "addr:state": "MD", "name": "Bethesda", "phone": "3019519642", "website": "https://www.corepoweryoga.com/yoga-studios/maryland/chevy-chase/bethesda", "brand": "Corepower Yoga"}, "geometry": {"type": "Point", "coordinates": [-77.09123, 38.97811]}},
{"type": "Feature", "id": "WnUuXemhEJjzIZp29L9LHBclcmc=", "properties": {"ref": "52", "@spider": "corepower_yoga", "addr:full": "811 University Avenue Suite 202", "addr:city": "Berkeley", "addr:state": "CA", "name": "Berkeley West", "phone": "5104869642", "website": "https://www.corepoweryoga.com/yoga-studios/california/berkeley/berkeley-west", "brand": "Corepower Yoga"}, "geometry": {"type": "Point", "coordinates": [-122.29797, 37.86792]}},
{"type": "Feature", "id": "d6n5fZMSbdiIA3moAuMFuUST9MA=", "properties": {"ref": "81", "@spider": "corepower_yoga", "addr:full": "7349 W. Alaska Drive", "addr:city": "Lakewood", "addr:state": "CO", "name": "Belmar", "phone": "3032339642", "website": "https://www.corepoweryoga.com/yoga-studios/colorado/lakewood/belmar", "brand": "Corepower Yoga"}, "geometry": {"type": "Point", "coordinates": [-105.078609, 39.709192]}},
{"type": "Feature", "id": "rNS-Dk1ygDBJ67YMZsZzDIz_aw8=", "properties": {"ref": "421", "@spider": "corepower_yoga", "addr:full": "2301 5th Avenue", "addr:city": "Seattle", "addr:state": "WA", "name": "Belltown", "phone": "2063507985", "website": "https://www.corepoweryoga.com/yoga-studios/washington/seattle/belltown", "brand": "Corepower Yoga"}, "geometry": {"type": "Point", "coordinates": [-122.34402, 47.61624]}},
{"type": "Feature", "id": "e-_JvXJpw509t6Wma6epDfHr27s=", "properties": {"ref": "64", "@spider": "corepower_yoga", "addr:full": "10307 NE 10th Street", "addr:city": "Bellevue", "addr:state": "WA", "name": "Bellevue", "phone": "4255909113", "website": "https://www.corepoweryoga.com/yoga-studios/washington/bellevue/bellevue", "brand": "Corepower Yoga"}, "geometry": {"type": "Point", "coordinates": [-122.202991, 47.61927]}},
{"type": "Feature", "id": "VKav4dzcPYSCpqqAFSTBkQlKqYk=", "properties": {"ref": "60", "@spider": "corepower_yoga", "addr:full": "1455 NW Leary Way", "addr:city": "Seattle", "addr:state": "WA", "name": "Ballard", "phone": "2067069642", "website": "https://www.corepoweryoga.com/yoga-studios/washington/seattle/ballard", "brand": "Corepower Yoga"}, "geometry": {"type": "Point", "coordinates": [-122.37586, 47.66363]}},
{"type": "Feature", "id": "lu03bbZhHa32a6uVGJPDhorKlyI=", "properties": {"ref": "657", "@spider": "corepower_yoga", "addr:full": "399 Boylston St.", "addr:city": "Boston", "addr:state": "MA", "name": "Back Bay", "phone": "6177526745", "website": "https://www.corepoweryoga.com/yoga-studios/massachusetts/boston/back-bay", "brand": "Corepower Yoga"}, "geometry": {"type": "Point", "coordinates": [-71.072183, 42.351813]}},
{"type": "Feature", "id": "bbOAda4SskL4EHiS9vH3tDBQDsE=", "properties": {"ref": "83", "@spider": "corepower_yoga", "addr:full": "18884 E. Hampden Avenue", "addr:city": "Aurora", "addr:state": "CO", "name": "Aurora", "phone": "3034005580", "website": "https://www.corepoweryoga.com/yoga-studios/colorado/aurora/aurora", "brand": "Corepower Yoga"}, "geometry": {"type": "Point", "coordinates": [-104.768965, 39.65294]}},
{"type": "Feature", "id": "4IMemFRuLNVja6xCp9_JOZzTO3Q=", "properties": {"ref": "166", "@spider": "corepower_yoga", "addr:full": "860 Peachtree Street NE", "addr:city": "Atlanta", "addr:state": "GA", "name": "Atlanta Midtown", "phone": "4704471117", "website": "https://www.corepoweryoga.com/yoga-studios/georgia/atlanta/atlanta-midtown", "brand": "Corepower Yoga"}, "geometry": {"type": "Point", "coordinates": [-84.385114, 33.778194]}},
{"type": "Feature", "id": "IBLhZdA0Tq3SbRirIPcOlIs9wQw=", "properties": {"ref": "90", "@spider": "corepower_yoga", "addr:full": "19 S. Evergreen Avenue", "addr:city": "Arlington Heights", "addr:state": "IL", "name": "Arlington Heights", "phone": "8474830480", "website": "https://www.corepoweryoga.com/yoga-studios/illinois/arlington-heights/arlington-heights", "brand": "Corepower Yoga"}, "geometry": {"type": "Point", "coordinates": [-87.981695, 42.083031]}},
{"type": "Feature", "id": "YBH_9rf6wLvGYZXSUBmh7hlnhwY=", "properties": {"ref": "102", "@spider": "corepower_yoga", "addr:full": "7586 W. 150th Street", "addr:city": "Apple Valley", "addr:state": "MN", "name": "Apple Valley", "phone": "9524329642", "website": "https://www.corepoweryoga.com/yoga-studios/minnesota/apple-valley/apple-valley", "brand": "Corepower Yoga"}, "geometry": {"type": "Point", "coordinates": [-93.219667, 44.731805]}},
{"type": "Feature", "id": "g9iWOgHFRYLUwy21LO_yupIPS_I=", "properties": {"ref": "105", "@spider": "corepower_yoga", "addr:full": "1080 Blossom Hill Road Suite H", "addr:city": "Almaden", "addr:state": "CA", "name": "Almaden", "phone": "4085995011", "website": "https://www.corepoweryoga.com/yoga-studios/california/almaden/almaden", "brand": "Corepower Yoga"}, "geometry": {"type": "Point", "coordinates": [-121.872336, 37.250287]}},
{"type": "Feature", "id": "shsE0joqHsZskKvTeEA5obmp3hc=", "properties": {"ref": "174", "@spider": "corepower_yoga", "addr:full": "10432 Reserve Drive", "addr:city": "4S Ranch", "addr:state": "CA", "name": "4S Commons", "phone": "8582392619", "website": "https://www.corepoweryoga.com/yoga-studios/california/4s-ranch/4s-commons", "brand": "Corepower Yoga"}, "geometry": {"type": "Point", "coordinates": [-117.114023, 33.02167]}}]}