{"type":"FeatureCollection","features":[{"type": "Feature", "id": "hoK8MahitN-CZy9uqLVA8YKIIeY=", "properties": {"ref": "60010033", "@spider": "costacoffee", "addr:full": "204 Lavender Hill", "addr:city": "Battersea", "addr:postcode": "SW11 1JG", "addr:country": "GB", "name": "Asda @ Asda Clapham 4941", "brand": "Costa Coffee"}, "geometry": {"type": "Point", "coordinates": [-0.164962, 51.4654]}},
{"type": "Feature", "id": "Sl41TxCTHl-qvnWpmZ0JDs8oO4E=", "properties": {"ref": "60016460", "@spider": "costacoffee", "addr:full": "646-650 Wandsworth Road", "addr:city": "London", "addr:postcode": "SW8 3SB", "addr:country": "GB", "name": "Sainsburys Local Costa @ Wandsworth Road 4017", "brand": "Costa Coffee"}, "geometry": {"type": "Point", "coordinates": [-0.150272, 51.4664]}},
{"type": "Feature", "id": "LQjjuiMgxumsgZpdcoW8_3PLbuI=", "properties": {"ref": "60022630", "@spider": "costacoffee", "addr:full": "BP Clapham Common Service Station 105 Clapham Common 105 Clapham Common", "addr:city": "Northside, Wandsworth", "addr:postcode": "SW4 9SH", "addr:country": "GB", "name": "MFG @ Clapham Common FS628", "brand": "Costa Coffee"}, "geometry": {"type": "Point", "coordinates": [-0.157393, 51.4615]}},
{"type": "Feature", "id": "ywzZrsrrvfltK5XAqxVoxHIDhcU=", "properties": {"ref": "600021147", "@spider": "costacoffee", "addr:full": "29-33 Battersea Rise Clapham Junction Clapham Junction", "addr:city": "London", "addr:postcode": "SW11 1HG", "addr:country": "GB", "name": "Tesco Express Costa @ Battersea Rise 2755", "brand": "Costa Coffee"}, "geometry": {"type": "Point", "coordinates": [-0.163829, 51.4608]}},
{"type": "Feature", "id": "DZ1E1mrHuE86IQSHTt8O-K3vL9g=", "properties": {"ref": "43011785", "@spider": "costacoffee", "addr:full": "Unit 4a Clapham Juntion Shoppi St John'S Hill St John'S Hill", "addr:postcode": "SW11 1SA", "addr:country": "Surrey", "name": "Clapham Junction", "brand": "Costa Coffee"}, "geometry": {"type": "Point", "coordinates": [-0.16891, 51.4636]}},
{"type": "Feature", "id": "VZ0UEoLASz2-6gCtj5W_B0uT_VE=", "properties": {"ref": "43046420", "@spider": "costacoffee", "addr:full": "Platform 11-12, Clapham Junction Station Clapham Junction Approach, St John's Hill Clapham Junction Approach, St John's Hill", "addr:postcode": "SW11 2QP", "addr:country": "Surrey", "name": "Lon Clapham Jnt Plt 11-12", "brand": "Costa Coffee"}, "geometry": {"type": "Point", "coordinates": [-0.169048, 51.4637]}},
{"type": "Feature", "id": "eojbHzhdmSF3h9p82dNlLauefRI=", "properties": {"ref": "43046425", "@spider": "costacoffee", "addr:full": "Platform 9-10, Clapham Junction Station Clapham Junction Approach, St John's Hill Clapham Junction Approach, St John's Hill", "addr:postcode": "SW11 2QP", "addr:country": "Surrey", "name": "Lon Clapham Jnt Plat 9-10", "brand": "Costa Coffee"}, "geometry": {"type": "Point", "coordinates": [-0.169048, 51.4637]}},
{"type": "Feature", "id": "5ozuJZLVHT-c-jCSPldzWYJvLQE=", "properties": {"ref": "600021787", "@spider": "costacoffee", "addr:full": "23 - 27 Falcon Road Battersea Battersea", "addr:city": "London", "addr:postcode": "SW11 2PJ", "addr:country": "GB", "name": "Tesco Express Costa @ Battersea 5354", "brand": "Costa Coffee"}, "geometry": {"type": "Point", "coordinates": [-0.171063, 51.4693]}},
{"type": "Feature", "id": "BAwDEnSNFn1LZDqy3zUe-loVRbg=", "properties": {"ref": "43046405", "@spider": "costacoffee", "addr:full": "Platform 1-2 Clapham Jct Railway Station Clapham Junction Approach, St John's Hill Clapham Junction Approach, St John's Hill", "addr:postcode": "SW11 2QP", "addr:country": "Surrey", "name": "Lon Clapham Jnt Plt 1-2", "brand": "Costa Coffee"}, "geometry": {"type": "Point", "coordinates": [-0.170811, 51.4652]}},
{"type": "Feature", "id": "j_70nmW5a1l3exTnRBhIInWxptc=", "properties": {"ref": "43046430", "@spider": "costacoffee", "addr:full": "Kiosk, Platform 9-10, Clapham Junction Station Clapham Junction Approach, St John's Hill Clapham Junction Approach, St John's Hill", "addr:postcode": "SW11 2QP", "addr:country": "Surrey", "name": "Lon Clapham Jnt Kiosk", "brand": "Costa Coffee"}, "geometry": {"type": "Point", "coordinates": [-0.170811, 51.4652]}},
{"type": "Feature", "id": "xY-BttYP_1Wlr9VJARcDS2dh1es=", "properties": {"ref": "60005796", "@spider": "costacoffee", "addr:full": "15-17 Northcote Road Clapham Clapham", "addr:city": "London", "addr:postcode": "SW11 1NG", "addr:country": "GB", "name": "Co Op @ Battersea - Northcote Road", "brand": "Costa Coffee"}, "geometry": {"type": "Point", "coordinates": [-0.166512, 51.4601]}},
{"type": "Feature", "id": "0KBJr1DFU39b9wKsUulBSddr3bg=", "properties": {"ref": "60016464", "@spider": "costacoffee", "addr:full": "Sainsburys Local, 29 Patcham Terrace Battersea Park Road Battersea Park Road", "addr:city": "London", "addr:postcode": "SW8 4BS", "addr:country": "GB", "name": "Sainsburys Local Costa @ Battersea 5056", "brand": "Costa Coffee"}, "geometry": {"type": "Point", "coordinates": [-0.147323, 51.4766]}},
{"type": "Feature", "id": "aAX-pkiIrM9SWiu03xid7m31jpg=", "properties": {"ref": "63184001", "@spider": "costacoffee", "addr:full": "Londis Supermarket 121 St. John's Hill 121 St. John's Hill", "addr:city": "London", "addr:postcode": "SW11 1SZ", "addr:country": "GB", "name": "Viksons Ltd @ Londis  St John Hill", "brand": "Costa Coffee"}, "geometry": {"type": "Point", "coordinates": [-0.174599, 51.4609]}},
{"type": "Feature", "id": "MDMaaAVZm19_ciZyveRFUDLQ3MA=", "properties": {"ref": "60005012", "@spider": "costacoffee", "addr:full": "The Co-op Battersea 27-37 Battersea Bridge Road, Battersea 27-37 Battersea Bridge Road, Battersea", "addr:city": "London", "addr:postcode": "SW11 3BA", "addr:country": "GB", "name": "Co Op @ Battersea", "brand": "Costa Coffee"}, "geometry": {"type": "Point", "coordinates": [-0.17047, 51.4792]}},
{"type": "Feature", "id": "uBu92dbJIZCp18v5qzIhiULc5kU=", "properties": {"ref": "60129001", "@spider": "costacoffee", "addr:full": "Battersea Park Children Zoo, Restaurant,Battersea Park", "addr:city": "London", "addr:postcode": "SW11 4NJ", "addr:country": "GBR", "name": "Battersea Park Zoo @ Battersea Park", "brand": "Costa Coffee"}, "geometry": {"type": "Point", "coordinates": [-0.15658, 51.4815]}},
{"type": "Feature", "id": "zjxS8Bh7fxmrbhEjK_9QlNw95lc=", "properties": {"ref": "60016611", "@spider": "costacoffee", "addr:full": "165-167 St. John's Hill", "addr:city": "London", "addr:postcode": "SW11 1TQ", "addr:country": "GBR", "name": "Sainsburys Local Costa @ W'worth St Johns Hill4828", "brand": "Costa Coffee"}, "geometry": {"type": "Point", "coordinates": [-0.17722, 51.4601]}},
{"type": "Feature", "id": "OlM10Tfrr3jD_F7qu5e_AF47pWU=", "properties": {"ref": "60107013", "@spider": "costacoffee", "addr:full": "262 York Road Wandsworth Wandsworth", "addr:city": "London", "addr:postcode": "SW18 1TP", "addr:country": "GB", "name": "Shell UK @ Savoy Core", "brand": "Costa Coffee"}, "geometry": {"type": "Point", "coordinates": [-0.182405, 51.4643]}},
{"type": "Feature", "id": "E_eHb8YbHJ38u1Hvsbi1gy5fIE0=", "properties": {"ref": "600022940", "@spider": "costacoffee", "addr:full": "128 Clapham Common South Side", "addr:city": "London", "addr:postcode": "SW4 9DF", "addr:country": "GBR", "name": "Tesco Superstore Costa @ Clapham 5122", "brand": "Costa Coffee"}, "geometry": {"type": "Point", "coordinates": [-0.146647, 51.4533]}},
{"type": "Feature", "id": "IY78nlJITFDOokapVnNWYJf6K4I=", "properties": {"ref": "43023570", "@spider": "costacoffee", "addr:full": "Unit 1, 16 Balham Hill Clapham Clapham", "addr:postcode": "SW12 9DY", "addr:country": "Surrey", "name": "Clapham South", "brand": "Costa Coffee"}, "geometry": {"type": "Point", "coordinates": [-0.147826, 51.4528]}},
{"type": "Feature", "id": "oLxS5J7B1oly5XXfT1nygCmcEnc=", "properties": {"ref": "60002628", "@spider": "costacoffee", "addr:full": "Imperial Wharf", "addr:city": "London", "addr:postcode": "SW6 2TW", "addr:country": "GB", "name": "Tesco Express Costa @ Fulham Imperial 6315", "brand": "Costa Coffee"}, "geometry": {"type": "Point", "coordinates": [-0.182982, 51.474]}},
{"type": "Feature", "id": "XJrgkeRgJzMZKXO2fvJsC0_LlfA=", "properties": {"ref": "60002016", "@spider": "costacoffee", "addr:full": "Battersea Reach Wandsworth Wandsworth", "addr:city": "London", "addr:postcode": "SW18 1TZ", "addr:country": "GB", "name": "Tesco Express Costa @ Battersea Reach 6566", "brand": "Costa Coffee"}, "geometry": {"type": "Point", "coordinates": [-0.186187, 51.4636]}},
{"type": "Feature", "id": "u62j8B2dCBnfNWwKTS7Ests07XA=", "properties": {"ref": "60002516", "@spider": "costacoffee", "addr:full": "202-230 Wandsworth Road", "addr:city": "South Lambert", "addr:postcode": "SW8 2JU", "addr:country": "GB", "name": "Tesco Express Costa @ South Lambert 6152", "brand": "Costa Coffee"}, "geometry": {"type": "Point", "coordinates": [-0.13199, 51.4753]}},
{"type": "Feature", "id": "fMkQ3q73eHo_N8ThzsNsoV_Xi3U=", "properties": {"ref": "60107010", "@spider": "costacoffee", "addr:full": "75 Balham Hill,Balham", "addr:city": "London", "addr:postcode": "SW12 9DP", "addr:country": "GBR", "name": "Shell UK @ Balham Core", "brand": "Costa Coffee"}, "geometry": {"type": "Point", "coordinates": [-0.14742, 51.4508]}},
{"type": "Feature", "id": "kFvDrRNfWZDEzlVqfqDJOp9Fk4w=", "properties": {"ref": "60055009", "@spider": "costacoffee", "addr:full": "49 Tadema Road", "addr:city": "Chelsea", "addr:postcode": "SW10 0NY", "addr:country": "GB", "name": "Shell UK @ Chelsea Core", "brand": "Costa Coffee"}, "geometry": {"type": "Point", "coordinates": [-0.182292, 51.4803]}},
{"type": "Feature", "id": "IKecyWx3mXPZpqnor8tyiklUs6A=", "properties": {"ref": "62404002", "@spider": "costacoffee", "addr:full": "Unit 7, Compass House Riverside West, Smugglers Way Riverside West, Smugglers Way", "addr:city": "London", "addr:postcode": "SW18 1DJ", "addr:country": "GB", "name": "Soft Trading Ltd @ Nisa Hudsons Smugglers Way", "brand": "Costa Coffee"}, "geometry": {"type": "Point", "coordinates": [-0.189275, 51.4625]}},
{"type": "Feature", "id": "m7Rv20i7jYSLfPHL2vuvc7_XCfI=", "properties": {"ref": "60027018", "@spider": "costacoffee", "addr:full": "281-283 Wandsworth Bridge Road Hammersmith And Fulham Hammersmith And Fulham", "addr:city": "London", "addr:postcode": "SW6 2TX", "addr:country": "GB", "name": "Nisa @ Krystals Express K05411", "brand": "Costa Coffee"}, "geometry": {"type": "Point", "coordinates": [-0.19043, 51.4684]}},
{"type": "Feature", "id": "wcFU-GTD-roCJFEPKbWhJh4kSPg=", "properties": {"ref": "43036070", "@spider": "costacoffee", "addr:full": "328-334 Old York Rd", "addr:postcode": "SW18 1SS", "addr:country": "Surrey", "name": "Wandsworth Town", "brand": "Costa Coffee"}, "geometry": {"type": "Point", "coordinates": [-0.188369, 51.4604]}},
{"type": "Feature", "id": "ydIlJZuLJ2pidSRz3Rt8kC5guac=", "properties": {"ref": "60005745", "@spider": "costacoffee", "addr:full": "40 Balham Road", "addr:city": "Balham", "addr:postcode": "SW12 9EL", "addr:country": "GBR", "name": "Co Op @ Wandsworth - Alderbrook Road", "brand": "Costa Coffee"}, "geometry": {"type": "Point", "coordinates": [-0.148391, 51.4485]}},
{"type": "Feature", "id": "ss_5CmCXILnli4DpZTnqDtBbRu0=", "properties": {"ref": "60002085", "@spider": "costacoffee", "addr:full": "601 King's Road Fulham Fulham", "addr:city": "London", "addr:postcode": "SW6 2EL", "addr:country": "GB", "name": "Tesco Express Costa @ Fulham 2553", "brand": "Costa Coffee"}, "geometry": {"type": "Point", "coordinates": [-0.189365, 51.4779]}},
{"type": "Feature", "id": "lfDMy84F6ZIrT-QB3J0XW5_uess=", "properties": {"ref": "63186001", "@spider": "costacoffee", "addr:full": "132 Grosvenor Road", "addr:city": "London", "addr:postcode": "SW1V 3JY", "addr:country": "GBR", "name": "Rontec @ Embankment", "brand": "Costa Coffee"}, "geometry": {"type": "Point", "coordinates": [-0.136349, 51.4853]}},
{"type": "Feature", "id": "GVJSNN_Z0M542j8TURrho_fcADI=", "properties": {"ref": "60194012", "@spider": "costacoffee", "addr:full": "Chelsea & Westminster Hospital 369 Fulham Road 369 Fulham Road", "addr:city": "Chelsea", "addr:postcode": "SW10 9NH", "addr:country": "GB", "name": "ISS Mediclean - ISS @ Chelsea and Westminster Hosp", "brand": "Costa Coffee"}, "geometry": {"type": "Point", "coordinates": [-0.181868, 51.4845]}},
{"type": "Feature", "id": "3P4OvR5OGqq08t3V8aHHB247ksg=", "properties": {"ref": "43040075", "@spider": "costacoffee", "addr:full": "London Underground Station Stockwell Station, Clapham Road Stockwell Station, Clapham Road", "addr:postcode": "SW9 9AE", "addr:country": "Surrey", "name": "Stockwell Station", "brand": "Costa Coffee"}, "geometry": {"type": "Point", "coordinates": [-0.12262, 51.4722]}},
{"type": "Feature", "id": "BQHoHD0Sm2whzkQn_5puW3B45I8=", "properties": {"ref": "60002046", "@spider": "costacoffee", "addr:full": "459 Fulham Road Chelsea Chelsea", "addr:city": "London", "addr:postcode": "SW10 9UZ", "addr:country": "GB", "name": "Tesco Express Costa @ Chelsea 2256", "brand": "Costa Coffee"}, "geometry": {"type": "Point", "coordinates": [-0.185955, 51.4826]}},
{"type": "Feature", "id": "uYbU_aCtSjB0Z-0HXvhARFhgo24=", "properties": {"ref": "60002087", "@spider": "costacoffee", "addr:full": "248 Fulham Road Chelsea Chelsea", "addr:city": "London", "addr:postcode": "SW10 9NA", "addr:country": "GB", "name": "Tesco Express Costa @ Fulham Road 2752", "brand": "Costa Coffee"}, "geometry": {"type": "Point", "coordinates": [-0.183239, 51.485]}},
{"type": "Feature", "id": "iuE_c28mzNJQCIxEPsMNnSI2mic=", "properties": {"ref": "43043490", "@spider": "costacoffee", "addr:full": "178 Balham High Road", "addr:postcode": "SW12 9BW", "addr:country": "Surrey", "name": "Lon Balham", "brand": "Costa Coffee"}, "geometry": {"type": "Point", "coordinates": [-0.15245, 51.4441]}},
{"type": "Feature", "id": "mbmCbCKOfdgsu4Oz2vc7nNrgVu8=", "properties": {"ref": "60005575", "@spider": "costacoffee", "addr:full": "173-175 South Lambeth Road Lambeth Lambeth", "addr:city": "London", "addr:postcode": "SW8 1XW", "addr:country": "GB", "name": "Co Op @ Lambeth, South Lambeth Road", "brand": "Costa Coffee"}, "geometry": {"type": "Point", "coordinates": [-0.123086, 51.4774]}},
{"type": "Feature", "id": "Kv6n1t3gtPXqvkgQwdW8R6R4nXg=", "properties": {"ref": "60002201", "@spider": "costacoffee", "addr:full": "111-113 High Street Wandsworth Wandsworth", "addr:city": "London", "addr:postcode": "SW18 4HY", "addr:country": "GB", "name": "Tesco Express Costa @ Wandsworth 6493", "brand": "Costa Coffee"}, "geometry": {"type": "Point", "coordinates": [-0.194736, 51.457]}},
{"type": "Feature", "id": "WFKyDw4xIGj_GG9FiQ7gBRXCEq4=", "properties": {"ref": "60055011", "@spider": "costacoffee", "addr:full": "Ebury Street Semley Place Semley Place", "addr:city": "London", "addr:postcode": "SW1W 9QJ", "addr:country": "GB", "name": "Shell UK @ Victoria Core", "brand": "Costa Coffee"}, "geometry": {"type": "Point", "coordinates": [-0.150649, 51.4925]}},
{"type": "Feature", "id": "Lxh15Qv4Radwei2vS5MjzKm-QuU=", "properties": {"ref": "43032915", "@spider": "costacoffee", "addr:full": "Unit 115, Southside Shopping Centre Southside Shopping Centre", "addr:postcode": "SW18 4TQ", "addr:country": "Surrey", "name": "Wandsworth", "brand": "Costa Coffee"}, "geometry": {"type": "Point", "coordinates": [-0.193997, 51.4551]}},
{"type": "Feature", "id": "iI7LG_8WcIRRdpeawjIcqH2pCAY=", "properties": {"ref": "60005595", "@spider": "costacoffee", "addr:full": "193 Balham High Road", "addr:city": "London", "addr:postcode": "SW12 9BE", "addr:country": "GB", "name": "Co Op @ Balham, Balham High Road", "brand": "Costa Coffee"}, "geometry": {"type": "Point", "coordinates": [-0.15404, 51.4417]}},
{"type": "Feature", "id": "V8Gf2LpYOFNC-IiRNicAB_7lrQo=", "properties": {"ref": "60002713", "@spider": "costacoffee", "addr:full": "Tesco Express 16 Wandsworth Road 16 Wandsworth Road", "addr:city": "London", "addr:postcode": "SW8 2JW", "addr:country": "GB", "name": "Tesco Express Costa @ St Georges Wharf 5342", "brand": "Costa Coffee"}, "geometry": {"type": "Point", "coordinates": [-0.126049, 51.485]}},
{"type": "Feature", "id": "RfOclFFGaV1u10rwYK01c5063fM=", "properties": {"ref": "600021435", "@spider": "costacoffee", "addr:full": "131-143 Clapham Rd Lambeth Lambeth", "addr:city": "London", "addr:postcode": "SW9 0HR", "addr:country": "GB", "name": "Tesco Express Costa @ Clapham Oval Exp 6020", "brand": "Costa Coffee"}, "geometry": {"type": "Point", "coordinates": [-0.11781, 51.4761]}},
{"type": "Feature", "id": "3KdIOEpYsi-pYQO2Pr3LTjUb4KQ=", "properties": {"ref": "43033195", "@spider": "costacoffee", "addr:full": "458-460 Brixton Road", "addr:postcode": "SW9 8EA", "addr:country": "Surrey", "name": "Brixton Road", "brand": "Costa Coffee"}, "geometry": {"type": "Point", "coordinates": [-0.115228, 51.463]}},
{"type": "Feature", "id": "MZf1sl7VFZYaKgkrCsHfTUb7j9g=", "properties": {"ref": "600021170", "@spider": "costacoffee", "addr:full": "18-28 Warwick Way Victoria Victoria", "addr:city": "London", "addr:postcode": "SW1V 1RX", "addr:country": "GB", "name": "Tesco Express Costa @ Victoria 4901", "brand": "Costa Coffee"}, "geometry": {"type": "Point", "coordinates": [-0.139254, 51.4923]}},
{"type": "Feature", "id": "x1X6yKkeiN2y7AVlLyyNXvvCdu0=", "properties": {"ref": "60005122", "@spider": "costacoffee", "addr:full": "60 Parsons Green Lane Parsons Green, Fulham Parsons Green, Fulham", "addr:city": "London", "addr:postcode": "SW6 4HU", "addr:country": "GB", "name": "Co Op @ Parsons Green", "brand": "Costa Coffee"}, "geometry": {"type": "Point", "coordinates": [-0.200863, 51.4749]}},
{"type": "Feature", "id": "3NSkkynJN1lGXQzgDSbs6LCQR98=", "properties": {"ref": "60055014", "@spider": "costacoffee", "addr:full": "106 Old Brompton Road South Kensington South Kensington", "addr:city": "London", "addr:postcode": "SW7 3RA", "addr:country": "GB", "name": "Shell UK @ Old Brompton Core", "brand": "Costa Coffee"}, "geometry": {"type": "Point", "coordinates": [-0.179372, 51.4918]}},
{"type": "Feature", "id": "tZeGPir4dz7T4CzpVHZUbAicl6E=", "properties": {"ref": "60002736", "@spider": "costacoffee", "addr:full": "144 Brixton Hill 0 0", "addr:city": "London", "addr:postcode": "SW2 1SD", "addr:country": "GB", "name": "Tesco Express Costa @ London Brxtn Hill 6791", "brand": "Costa Coffee"}, "geometry": {"type": "Point", "coordinates": [-0.121763, 51.4522]}},
{"type": "Feature", "id": "S2sNarSiC142pL44VTi9j1UPPAo=", "properties": {"ref": "43036740", "@spider": "costacoffee", "addr:full": "Unit R13, Food Court Level, Victoria Place Shopping Centre, Buckingham Palace Road Shopping Centre, Buckingham Palace Road", "addr:postcode": "SW1V 9HJ", "addr:country": "Greater London", "name": "Lon Victoria Stn FC", "brand": "Costa Coffee"}, "geometry": {"type": "Point", "coordinates": [-0.145801, 51.4947]}},
{"type": "Feature", "id": "I8Z0qIcxmLkbOPd9aH5rbH1jN_w=", "properties": {"ref": "60022908", "@spider": "costacoffee", "addr:full": "BP Vauxhall Bridge Service Station 148-158 Vauxhall Brdge Rd 148-158 Vauxhall Brdge Rd", "addr:city": "London", "addr:postcode": "SW1V 2RE", "addr:country": "GB", "name": "MFG @ Vauxhall Bridge FS620", "brand": "Costa Coffee"}, "geometry": {"type": "Point", "coordinates": [-0.13709, 51.4925]}},
{"type": "Feature", "id": "31HyeSh2HR9MfZSZPubTbSbVdp0=", "properties": {"ref": "60002190", "@spider": "costacoffee", "addr:full": "330 Brixton Road Stockwell Stockwell", "addr:city": "London", "addr:postcode": "SW9 7AA", "addr:country": "GB", "name": "Tesco Express Costa @ Stockwell 2161", "brand": "Costa Coffee"}, "geometry": {"type": "Point", "coordinates": [-0.11298, 51.4686]}},
{"type": "Feature", "id": "j6K70co6fFUDQ39O2VMQnOEs1y8=", "properties": {"ref": "60005700", "@spider": "costacoffee", "addr:full": "100 New Kings Road", "addr:city": "Fulham", "addr:postcode": "SW6 4LX", "addr:country": "GB", "name": "Co Op @ Fulham, New Kings Road", "brand": "Costa Coffee"}, "geometry": {"type": "Point", "coordinates": [-0.203526, 51.4722]}},
{"type": "Feature", "id": "cp1nxuhnhdYTkFAWNpFQiGHKqQE=", "properties": {"ref": "60016074", "@spider": "costacoffee", "addr:full": "7 - 11 South Lambeth Place Vauxhall Station Vauxhall Station", "addr:city": "London", "addr:postcode": "SW8 1SP", "addr:country": "GB", "name": "Sainsburys Local Costa @ Vauxhall Station 4222", "brand": "Costa Coffee"}, "geometry": {"type": "Point", "coordinates": [-0.123128, 51.4859]}},
{"type": "Feature", "id": "k2HphadpJSuaWVd9CuHj0KQ8AbQ=", "properties": {"ref": "60016475", "@spider": "costacoffee", "addr:full": "582 Fulham Road", "addr:city": "London", "addr:postcode": "SW6 5NT", "addr:country": "GB", "name": "Sainsburys Local Costa @ Fulham Darlan Road 4364", "brand": "Costa Coffee"}, "geometry": {"type": "Point", "coordinates": [-0.20157, 51.4779]}},
{"type": "Feature", "id": "I9cgquLcNkjiZXj8BVVO4Qnlwhw=", "properties": {"ref": "43046410", "@spider": "costacoffee", "addr:full": "Concourse, Vauxhall Railway Station South Lambeth Road South Lambeth Road", "addr:postcode": "SW8 1SS", "addr:country": "Surrey", "name": "London Vauxhall Stn Con", "brand": "Costa Coffee"}, "geometry": {"type": "Point", "coordinates": [-0.122781, 51.4861]}},
{"type": "Feature", "id": "vWej1X4YUXH8SqIGgfjybchjPkw=", "properties": {"ref": "60002010", "@spider": "costacoffee", "addr:full": "219 Balham High Road Tooting Tooting", "addr:city": "London", "addr:postcode": "SW17 7BQ", "addr:country": "GB", "name": "Tesco Express Costa @ Balham 2211", "brand": "Costa Coffee"}, "geometry": {"type": "Point", "coordinates": [-0.15591, 51.4388]}},
{"type": "Feature", "id": "xycToI_UZDF0Bx5kMdmRU0myU_w=", "properties": {"ref": "43017985", "@spider": "costacoffee", "addr:full": "Unit 6 Victoria Island Victoria Station Victoria Station", "addr:postcode": "SW1V 1JT", "addr:country": "Middlesex", "name": "Victoria Island", "brand": "Costa Coffee"}, "geometry": {"type": "Point", "coordinates": [-0.143898, 51.4952]}},
{"type": "Feature", "id": "x62ec0kU3eskq5Hr4q5dg3QKztE=", "properties": {"ref": "60005517", "@spider": "costacoffee", "addr:full": "245 Brixton Road Stockwell Stockwell", "addr:city": "London", "addr:postcode": "SW9 6AQ", "addr:country": "GB", "name": "Co Op @ Stockwell - Brixton Road", "brand": "Costa Coffee"}, "geometry": {"type": "Point", "coordinates": [-0.112069, 51.4716]}},
{"type": "Feature", "id": "IHksc6nrAiR96ZB6R2yVSGxnp0g=", "properties": {"ref": "600021410", "@spider": "costacoffee", "addr:full": "Brixton Rd (Russel Hotel) Brixton Brixton", "addr:city": "London", "addr:postcode": "SW9 6BD", "addr:country": "GB", "name": "Tesco Express Costa @ Brixton Brixtn Rd Exp 6427", "brand": "Costa Coffee"}, "geometry": {"type": "Point", "coordinates": [-0.11283, 51.4766]}},
{"type": "Feature", "id": "gZ90pxodz-tqg3wJ58VyWCcUgYg=", "properties": {"ref": "43040985", "@spider": "costacoffee", "addr:full": "270 - 272 Old Brompton Road", "addr:postcode": "SW5 9HR", "name": "Old Brompton Road", "brand": "Costa Coffee"}, "geometry": {"type": "Point", "coordinates": [-0.192101, 51.489]}},
{"type": "Feature", "id": "vz3Mi_aAUCeyE9b3cf4yjGdmsIk=", "properties": {"ref": "62170001", "@spider": "costacoffee", "addr:full": "Nisa 105 - 107 Dawes Road 105 - 107 Dawes Road", "addr:city": "London", "addr:postcode": "SW6 7DU", "addr:country": "GB", "name": "Modz Supermarket @ Nisa Local Dawes Rd Fulham", "brand": "Costa Coffee"}, "geometry": {"type": "Point", "coordinates": [-0.203666, 51.4803]}},
{"type": "Feature", "id": "oqFmAFqquWtq2sS9aX0ntMooJgg=", "properties": {"ref": "60002809", "@spider": "costacoffee", "addr:full": "700/702  Fulham Road Chelsea Chelsea", "addr:city": "London", "addr:postcode": "SW6 5SA", "addr:country": "GB", "name": "Tesco Express Costa @ 700 Fulham Road 2728", "brand": "Costa Coffee"}, "geometry": {"type": "Point", "coordinates": [-0.207006, 51.4745]}},
{"type": "Feature", "id": "droYgoeO-N-6MMT9zt1QNlxNKmc=", "properties": {"ref": "60002652", "@spider": "costacoffee", "addr:full": "Garratt Lane Earlsfield Earlsfield", "addr:city": "London", "addr:postcode": "SW18 4SW", "addr:country": "GB", "name": "Tesco Express Costa @ Earlsfield Station 4629", "brand": "Costa Coffee"}, "geometry": {"type": "Point", "coordinates": [-0.188469, 51.4427]}},
{"type": "Feature", "id": "45dlic7sNQrIXK_Ba7AqvnVnazY=", "properties": {"ref": "43043475", "@spider": "costacoffee", "addr:full": "505 - 507 Garratt Lane Earlsfield Earlsfield", "addr:postcode": "SW18 4SW", "addr:country": "Surrey", "name": "Lon Earlsfield", "brand": "Costa Coffee"}, "geometry": {"type": "Point", "coordinates": [-0.188259, 51.4425]}},
{"type": "Feature", "id": "rASnZBEmhwhzDO0CuCGEpwQeHuc=", "properties": {"ref": "43022400", "@spider": "costacoffee", "addr:full": "Costa Cardinal Place 3 Cardina Victoria Victoria", "addr:postcode": "SW1E 5JE", "addr:country": "Middlesex", "name": "Cardinal Place Ldn", "brand": "Costa Coffee"}, "geometry": {"type": "Point", "coordinates": [-0.141089, 51.4971]}},
{"type": "Feature", "id": "x7gdz5ftn8CE7ug4QW784tQkS7g=", "properties": {"ref": "60016459", "@spider": "costacoffee", "addr:full": "10 Rochester Row", "addr:city": "London", "addr:postcode": "SW1P 1BT", "addr:country": "GB", "name": "Sainsburys Local Costa @ Westminster 4462", "brand": "Costa Coffee"}, "geometry": {"type": "Point", "coordinates": [-0.135699, 51.4957]}},
{"type": "Feature", "id": "neNgwqGwT0meosy24NJZcw5MfmE=", "properties": {"ref": "60028058", "@spider": "costacoffee", "addr:full": "Springfield University Hospital, Restaurant Building 32, 61 Glenburnie Road Building 32, 61 Glenburnie Road", "addr:city": "London", "addr:postcode": "SW17 7DJ", "addr:country": "GB", "name": "Sodexo @ Springfield Uni Hosp (GB343745)", "brand": "Costa Coffee"}, "geometry": {"type": "Point", "coordinates": [-0.170236, 51.437]}},
{"type": "Feature", "id": "sDt64PdQXsqa0TgBRYyqn7PQLk8=", "properties": {"ref": "60002740", "@spider": "costacoffee", "addr:full": "190 -194 Garrett Lane", "addr:city": "Earlsfield", "addr:postcode": "SW18 4ED", "addr:country": "GB", "name": "Tesco Express Costa @ Earlsfield Garret 5822", "brand": "Costa Coffee"}, "geometry": {"type": "Point", "coordinates": [-0.187787, 51.4418]}},
{"type": "Feature", "id": "E8qmwZIKH8gnXoiCZ3qHViEBsM4=", "properties": {"ref": "60016477", "@spider": "costacoffee", "addr:full": "917-921 Fulham Road", "addr:city": "London", "addr:postcode": "SW6 5HU", "addr:country": "GB", "name": "Sainsburys Local Costa @ Fulham Landridge Rd 4879", "brand": "Costa Coffee"}, "geometry": {"type": "Point", "coordinates": [-0.208735, 51.4728]}},
{"type": "Feature", "id": "hwZmfi4k46isO2NEGAhqLBCvuBc=", "properties": {"ref": "60016584", "@spider": "costacoffee", "addr:full": "West Brompton Road", "addr:city": "London", "addr:postcode": "SW10 9EW", "addr:country": "GBR", "name": "Sainsburys Local Costa @ Chelsea Redcliffe Gds4124", "brand": "Costa Coffee"}, "geometry": {"type": "Point", "coordinates": [-0.164747, 51.4993]}},
{"type": "Feature", "id": "3EEWSKYS5wGF2aXU0NUjDxbYq-4=", "properties": {"ref": "60005813", "@spider": "costacoffee", "addr:full": "North End Road Fulham Fulham", "addr:city": "London", "addr:postcode": "SW6 1NJ", "addr:country": "GB", "name": "Co Op @ Fulham - North End Road", "brand": "Costa Coffee"}, "geometry": {"type": "Point", "coordinates": [-0.202017, 51.4843]}},
{"type": "Feature", "id": "XLMDdqdmCQ_42rM4o67WIdWFYV8=", "properties": {"ref": "600022730", "@spider": "costacoffee", "addr:full": "26 Albert Embankment", "addr:city": "London", "addr:postcode": "SE1 7GR", "addr:country": "GB", "name": "Tesco Express Costa @ Dumont 4694", "brand": "Costa Coffee"}, "geometry": {"type": "Point", "coordinates": [-0.122313, 51.4905]}},
{"type": "Feature", "id": "TxsG_iLNwM2r_QMgHEQWtxmWQCM=", "properties": {"ref": "60016606", "@spider": "costacoffee", "addr:full": "43 Tooting Bec Road", "addr:city": "London", "addr:postcode": "SW17 8BS", "addr:country": "GBR", "name": "Sainsburys Local Costa @ Tooting Bec 4823", "brand": "Costa Coffee"}, "geometry": {"type": "Point", "coordinates": [-0.157241, 51.4354]}},
{"type": "Feature", "id": "nJzfVhMA9cxuNEP8KNuFIJZKhVc=", "properties": {"ref": "43046215", "@spider": "costacoffee", "addr:full": "Kiosk, Earls Court Station, Warwick Road", "addr:postcode": "SW5 9SY", "addr:country": "Middlesex", "name": "Lon Earls Court Stn Kiosk", "brand": "Costa Coffee"}, "geometry": {"type": "Point", "coordinates": [-0.193956, 51.4916]}},
{"type": "Feature", "id": "YNsM1H6FUfVkokiZ5CZbYn31aSs=", "properties": {"ref": "60016589", "@spider": "costacoffee", "addr:full": "74 Upper Richmond Road", "addr:city": "London", "addr:postcode": "SW15 2SU", "addr:country": "GBR", "name": "Sainsburys Local Costa @ East Putney Stn 4484", "brand": "Costa Coffee"}, "geometry": {"type": "Point", "coordinates": [-0.209044, 51.4591]}},
{"type": "Feature", "id": "Rmm8wRvsUp8HkNJJerm1kcIE5bQ=", "properties": {"ref": "600021306", "@spider": "costacoffee", "addr:full": "Fulhm Sherbrke Rd Exp", "addr:city": "Fulham", "addr:postcode": "SW6 7HX", "addr:country": "GB", "name": "Tesco Express Costa @ Sherbrooke Rd Fulham 6256", "brand": "Costa Coffee"}, "geometry": {"type": "Point", "coordinates": [-0.20678, 51.4809]}},
{"type": "Feature", "id": "EG56g2dDcSejOA7ZUQG-idSmrVg=", "properties": {"ref": "60005328", "@spider": "costacoffee", "addr:full": "210-212 Earls Court Road Earls Court, Kensington Earls Court, Kensington", "addr:city": "London", "addr:postcode": "SW5 9QB", "addr:country": "GB", "name": "Co Op @ Earls Court", "brand": "Costa Coffee"}, "geometry": {"type": "Point", "coordinates": [-0.19353, 51.4923]}},
{"type": "Feature", "id": "3L9AzrAZ6HDgX0uxs7k2ZP97JbQ=", "properties": {"ref": "60183044", "@spider": "costacoffee", "addr:full": "The Triangle Wandsworth Wandsworth", "addr:city": "London", "addr:postcode": "SW18 5JS", "addr:country": "GB", "name": "HKS @ Riversdale", "brand": "Costa Coffee"}, "geometry": {"type": "Point", "coordinates": [-0.199151, 51.4464]}},
{"type": "Feature", "id": "GBuXjrVaorFhP3_Kl3tLv-BgAyk=", "properties": {"ref": "60022144", "@spider": "costacoffee", "addr:full": "63/69 Sternhold Avenue", "addr:city": "Streatham", "addr:postcode": "SW2 4PB", "addr:country": "GB", "name": "MFG @ Murco Streatham SS FS107", "brand": "Costa Coffee"}, "geometry": {"type": "Point", "coordinates": [-0.129982, 51.4392]}},
{"type": "Feature", "id": "WoQoWWSW-l-T_18E4hilqVHaH0U=", "properties": {"ref": "43032095", "@spider": "costacoffee", "addr:full": "198 Earls Court Road", "addr:postcode": "SW5 9QF", "addr:country": "Middlesex", "name": "Earls Court", "brand": "Costa Coffee"}, "geometry": {"type": "Point", "coordinates": [-0.194061, 51.4927]}},
{"type": "Feature", "id": "YJmHQ_NMMoBq_BQQ63kzPCxfMLQ=", "properties": {"ref": "63342001", "@spider": "costacoffee", "addr:full": "Unit 2 9B Albert Embankment", "addr:city": "Embankment", "addr:postcode": "SE1 7SP", "addr:country": "GB", "name": "Embankment Grocery Ltd @ Embankment", "brand": "Costa Coffee"}, "geometry": {"type": "Point", "coordinates": [-0.120961, 51.4921]}},
{"type": "Feature", "id": "0Bs_SKPyG6fzIy9gffO0aya65Ts=", "properties": {"ref": "43035030", "@spider": "costacoffee", "addr:full": "Unit C1, 77-83 Upper Richmond Rd Putney Putney", "addr:postcode": "SW15 2TT", "addr:country": "Greater London", "name": "Lon East Putney", "brand": "Costa Coffee"}, "geometry": {"type": "Point", "coordinates": [-0.210839, 51.459]}},
{"type": "Feature", "id": "6six8UmRD29Mwj1ZLu2FxH9TVOU=", "properties": {"ref": "600022004", "@spider": "costacoffee", "addr:full": "St Georges Grove Tooting Tooting", "addr:city": "London", "addr:postcode": "SW17 0PZ", "addr:country": "GB", "name": "Tesco Express @ Tooting 4836", "brand": "Costa Coffee"}, "geometry": {"type": "Point", "coordinates": [-0.17718, 51.4358]}},
{"type": "Feature", "id": "M0rdRGpHCVeiAk2QBMdJWXVbnjc=", "properties": {"ref": "60016659", "@spider": "costacoffee", "addr:full": "47a Streatham Hill", "addr:city": "London", "addr:postcode": "SW2 4TS", "addr:country": "GBR", "name": "Sainsburys Local Costa @ Streatham Hill 4099", "brand": "Costa Coffee"}, "geometry": {"type": "Point", "coordinates": [-0.125013, 51.4406]}},
{"type": "Feature", "id": "ZShD_vCB-SVDDFOAvB8DCz7uYko=", "properties": {"ref": "600021411", "@spider": "costacoffee", "addr:full": "242-248 Coldharbour Ln", "addr:city": "London", "addr:postcode": "SW9 8SE", "addr:country": "GB", "name": "Tesco Express Costa @ Brixton Coldha Ln Exp 6567", "brand": "Costa Coffee"}, "geometry": {"type": "Point", "coordinates": [-0.103382, 51.4652]}},
{"type": "Feature", "id": "S5E7WzFhciDE6ETkkxjuqWDMJbg=", "properties": {"ref": "60002197", "@spider": "costacoffee", "addr:full": "109 Tulse Hill,Brixton", "addr:city": "London", "addr:postcode": "SW2 2QB", "addr:country": "GBR", "name": "Tesco Express Costa @ Tulse Hill 3317", "brand": "Costa Coffee"}, "geometry": {"type": "Point", "coordinates": [-0.112584, 51.4479]}},
{"type": "Feature", "id": "06NW0TEjjydyliv8frnC5XqJgW4=", "properties": {"ref": "63240002", "@spider": "costacoffee", "addr:full": "407 Kennington Road", "addr:city": "London", "addr:postcode": "SE11 4PT", "addr:country": "GB", "name": "F.A.B Retail Limited @ Nisa Kennington Road", "brand": "Costa Coffee"}, "geometry": {"type": "Point", "coordinates": [-0.110076, 51.485]}},
{"type": "Feature", "id": "ahrWkIUFpVIjr8XP1KBjwjanNJg=", "properties": {"ref": "43033060", "@spider": "costacoffee", "addr:full": "26 Putney High Street,", "addr:postcode": "SW15 1SN", "name": "Odeon Cinemas Ltd - Putney 31920", "brand": "Costa Coffee"}, "geometry": {"type": "Point", "coordinates": [-0.214239, 51.4652]}},
{"type": "Feature", "id": "6CutMK1jpGyS0jB9liK6iFKIHfM=", "properties": {"ref": "600021827", "@spider": "costacoffee", "addr:full": "130 Upper Tooting Road Tooting Tooting", "addr:city": "London", "addr:postcode": "SW17 7EN", "addr:country": "GB", "name": "Tesco Express Costa @ Upper Tooting Rd 5420", "brand": "Costa Coffee"}, "geometry": {"type": "Point", "coordinates": [-0.164008, 51.4328]}},
{"type": "Feature", "id": "rgksbke13hH3156hv0NZietamsQ=", "properties": {"ref": "600051351", "@spider": "costacoffee", "addr:full": "176 - 178 Sternhold Avenue,Streatham", "addr:city": "London", "addr:postcode": "SW2 4RU", "addr:country": "GBR", "name": "Co Op @ Streatham", "brand": "Costa Coffee"}, "geometry": {"type": "Point", "coordinates": [-0.126955, 51.4385]}},
{"type": "Feature", "id": "V-t2xbPlNFu89qgnMHpDuWKy7ts=", "properties": {"ref": "43048220", "@spider": "costacoffee", "addr:full": "Shell Putney Service Station 134 West Hill 134 West Hill", "addr:postcode": "SW15 2UE", "name": "Costa Coffee Putney Service Station ", "brand": "Costa Coffee"}, "geometry": {"type": "Point", "coordinates": [-0.211107, 51.4542]}},
{"type": "Feature", "id": "TG_nk7bOLparTDe5nddhMibFLt8=", "properties": {"ref": "60022798", "@spider": "costacoffee", "addr:full": "Esso Putney Service Station 134 West Hill 134 West Hill", "addr:city": "Putney", "addr:postcode": "SW15 2UE", "addr:country": "GB", "name": "MFG @ Putney FS743", "brand": "Costa Coffee"}, "geometry": {"type": "Point", "coordinates": [-0.211084, 51.4542]}},
{"type": "Feature", "id": "j3uwBCeWOvut6k0tbjpwtaeN2XM=", "properties": {"ref": "60399023", "@spider": "costacoffee", "addr:full": "134 West HillPutney", "addr:city": "London", "addr:postcode": "SW15 2UE", "addr:country": "GBR", "name": "Peregrine Retail @ Putney", "brand": "Costa Coffee"}, "geometry": {"type": "Point", "coordinates": [-0.211087, 51.4542]}},
{"type": "Feature", "id": "TFc5Xt35nb4RJOG5Uxv4TUnw5I0=", "properties": {"ref": "43035965", "@spider": "costacoffee", "addr:full": "34 Broadway, St James's Park", "addr:postcode": "SW1H 0BH", "addr:country": "Middlesex", "name": "Lon St James Park", "brand": "Costa Coffee"}, "geometry": {"type": "Point", "coordinates": [-0.132735, 51.4996]}},
{"type": "Feature", "id": "XMtRsl0QvNb2LVSGynaJeznFP_w=", "properties": {"ref": "600021826", "@spider": "costacoffee", "addr:full": "42 - 50 Streatham High Street", "addr:city": "London", "addr:postcode": "SW16 1DA", "addr:country": "GB", "name": "Tesco Express Costa @ Streatham High St 5494", "brand": "Costa Coffee"}, "geometry": {"type": "Point", "coordinates": [-0.128057, 51.437]}},
{"type": "Feature", "id": "zuh2xgLSmIcTp9bofK4LzrFSge8=", "properties": {"ref": "60005437", "@spider": "costacoffee", "addr:full": "227-233 Munster Road", "addr:city": "London", "addr:postcode": "SW6 6BT", "addr:country": "GB", "name": "Co Op @ Fulham - Munster Road", "brand": "Costa Coffee"}, "geometry": {"type": "Point", "coordinates": [-0.212447, 51.4804]}},
{"type": "Feature", "id": "0UD4kSK0G3NDY3CwMe6FNyq25NQ=", "properties": {"ref": "60005243", "@spider": "costacoffee", "addr:full": "177/183 Camberwell New Road", "addr:city": "Camberwell", "addr:postcode": "SE5 0TJ", "addr:country": "GBR", "name": "Co Op @ Camberwell", "brand": "Costa Coffee"}, "geometry": {"type": "Point", "coordinates": [-0.102877, 51.4783]}},
{"type": "Feature", "id": "bkKBOCsgWyJz2sO2vN4gv4Z2L0Y=", "properties": {"ref": "63240003", "@spider": "costacoffee", "addr:full": "188-190 Coldharbour Lane", "addr:city": "London", "addr:postcode": "SE5 9QH", "addr:country": "GB", "name": "F.A.B Retail Limited @ Nisa Coldharbour Road", "brand": "Costa Coffee"}, "geometry": {"type": "Point", "coordinates": [-0.100101, 51.4672]}},
{"type": "Feature", "id": "WhmiDqdwuV1OxwhJoCguJywHeW4=", "properties": {"ref": "600021978", "@spider": "costacoffee", "addr:full": "112 North End Rd", "addr:city": "London", "addr:postcode": "W14 9PP", "addr:country": "GB", "name": "Tesco Express Costa @ Hammersmith North End 5103", "brand": "Costa Coffee"}, "geometry": {"type": "Point", "coordinates": [-0.205762, 51.4889]}},
{"type": "Feature", "id": "jHEWfqTt0GJefQk57sstfOKnEJI=", "properties": {"ref": "43040525", "@spider": "costacoffee", "addr:full": "Unit 23a & 24, Putney Exchange Putney High St Putney High St", "addr:postcode": "SW15 1TW", "addr:country": "Surrey", "name": "Putney Exchange SC", "brand": "Costa Coffee"}, "geometry": {"type": "Point", "coordinates": [-0.216696, 51.4641]}},
{"type": "Feature", "id": "scrFxmP4n_JZawz5BPQxSbWdeMU=", "properties": {"ref": "600022334", "@spider": "costacoffee", "addr:full": "West Cromwell Rd,Kensington", "addr:city": "London", "addr:postcode": "W14 8PB", "addr:country": "GBR", "name": "Tesco Superstore Costa @ Kensington 2765", "brand": "Costa Coffee"}, "geometry": {"type": "Point", "coordinates": [-0.201246, 51.4929]}},
{"type": "Feature", "id": "YCxl40FTWeMYIfXgcTkxxpcXORY=", "properties": {"ref": "43036530", "@spider": "costacoffee", "addr:full": "Putney Station 165A Putney High Street 165A Putney High Street", "addr:postcode": "SW15 1RT", "addr:country": "Surrey", "name": "Lon Putney 2", "brand": "Costa Coffee"}, "geometry": {"type": "Point", "coordinates": [-0.216526, 51.4612]}},
{"type": "Feature", "id": "Rte9mWea8myuiHNNs4gWivXADLA=", "properties": {"ref": "60055004", "@spider": "costacoffee", "addr:full": "222-224 Fulham Palace Road Hammersmith Hammersmith", "addr:city": "London", "addr:postcode": "W6 9NT", "addr:country": "GB", "name": "Shell UK @ Fulham Cross Core", "brand": "Costa Coffee"}, "geometry": {"type": "Point", "coordinates": [-0.213421, 51.4816]}},
{"type": "Feature", "id": "DsgVAV73czX-GL4ZCY_Xw0jtOkU=", "properties": {"ref": "43038065", "@spider": "costacoffee", "addr:full": "92 North End Road", "addr:postcode": "W14 9EX", "name": "North End Road", "brand": "Costa Coffee"}, "geometry": {"type": "Point", "coordinates": [-0.20669, 51.49]}},
{"type": "Feature", "id": "CmdIR44sB6nanX0IoUxDVV0e75g=", "properties": {"ref": "63696001", "@spider": "costacoffee", "addr:full": "112-114 Coldharbour Lane", "addr:city": "London", "addr:postcode": "SE5 9PZ", "addr:country": "GBR", "name": "Karen Cowley @ Budgens Camberwell", "brand": "Costa Coffee"}, "geometry": {"type": "Point", "coordinates": [-0.097754, 51.4692]}},
{"type": "Feature", "id": "xAol7RWkCA9QE5EEAhwRwU9pPtk=", "properties": {"ref": "60002688", "@spider": "costacoffee", "addr:full": "646 Garratt Lane Summerstown Summerstown", "addr:city": "London", "addr:postcode": "SW17 0NT", "addr:country": "GB", "name": "Tesco Express Costa @ Summerstown Grrat 6790", "brand": "Costa Coffee"}, "geometry": {"type": "Point", "coordinates": [-0.18549, 51.4338]}},
{"type": "Feature", "id": "zuZreMp5Z5FLyVZk_0E7dbs35cc=", "properties": {"ref": "60002529", "@spider": "costacoffee", "addr:full": "128 Herne Hill Herne Hill Herne Hill", "addr:city": "London", "addr:postcode": "SE24 0AH", "addr:country": "GB", "name": "Tesco Express Costa @ Herne Hill 6851", "brand": "Costa Coffee"}, "geometry": {"type": "Point", "coordinates": [-0.101702, 51.4536]}},
{"type": "Feature", "id": "imHRCSJVeJ6VjOzAyySt1CiFLwQ=", "properties": {"ref": "62614001", "@spider": "costacoffee", "addr:full": "668-678 Garratt Lane Summerstown Summerstown", "addr:city": "Summerstown", "addr:postcode": "SW17 0NP", "addr:country": "GBR", "name": "Rontec @ Garratt Lane", "brand": "Costa Coffee"}, "geometry": {"type": "Point", "coordinates": [-0.184558, 51.4332]}},
{"type": "Feature", "id": "QI9NtDhbXjIFVPhApGhNNiEqJyg=", "properties": {"ref": "43041135", "@spider": "costacoffee", "addr:full": "271 Wimbledon Park Road Southfields Southfields", "addr:postcode": "SW19 6NW", "addr:country": "Surrey", "name": "Southfields", "brand": "Costa Coffee"}, "geometry": {"type": "Point", "coordinates": [-0.207052, 51.444]}},
{"type": "Feature", "id": "XJuLKeRX8wOjzg1iWFoOSWoq_qo=", "properties": {"ref": "43039525", "@spider": "costacoffee", "addr:full": "Westminster Station, Eastbound Platform Bridge Street Bridge Street", "addr:postcode": "SW1A 2JR", "addr:country": "Middlesex", "name": "Lon Westminster East", "brand": "Costa Coffee"}, "geometry": {"type": "Point", "coordinates": [-0.124841, 51.5013]}},
{"type": "Feature", "id": "k7FC_-ITZImzjlzHJ3SQJ-fP7kY=", "properties": {"ref": "600022998", "@spider": "costacoffee", "addr:full": "Kennington Lane", "addr:city": "London", "addr:postcode": "SE11 5AQ", "addr:country": "GBR", "name": "Tesco Express Costa @ Kennington 4756", "brand": "Costa Coffee"}, "geometry": {"type": "Point", "coordinates": [-0.105131, 51.4896]}},
{"type": "Feature", "id": "Y_ubLx4FEnYWvu6jeARx6zT3HXE=", "properties": {"ref": "600021672", "@spider": "costacoffee", "addr:full": "316 - 322 Camberwell", "addr:city": "London", "addr:postcode": "SE5 0RW", "addr:country": "GB", "name": "Tesco Express Costa @ Camberwell New Rd 6560", "brand": "Costa Coffee"}, "geometry": {"type": "Point", "coordinates": [-0.0949582, 51.4746]}},
{"type": "Feature", "id": "CnKnaWUUkXq-JeYUbz_RRbBeeQk=", "properties": {"ref": "43046220", "@spider": "costacoffee", "addr:full": "59-61 Streatham High Road Streatham Streatham", "addr:postcode": "SW16 1PN", "name": "Streatham", "brand": "Costa Coffee"}, "geometry": {"type": "Point", "coordinates": [-0.12906, 51.4318]}},
{"type": "Feature", "id": "2Rh0ulP-G_RsMpvUr-QCSAZET_I=", "properties": {"ref": "43043125", "@spider": "costacoffee", "addr:full": "Kings College Hospital, Denmark Hill London London", "addr:postcode": "SE5 9RS", "name": "Kings College Hospital Hambledon Wing Staff/ Visitors Only", "brand": "Costa Coffee"}, "geometry": {"type": "Point", "coordinates": [-0.0938193, 51.4678]}},
{"type": "Feature", "id": "246BBVMXVUj0Ion41nF3m0mZc5I=", "properties": {"ref": "43029890", "@spider": "costacoffee", "addr:full": "380 Kensington High Street London London", "addr:postcode": "W14 8NL", "name": "Costa Hilton London Olympia", "brand": "Costa Coffee"}, "geometry": {"type": "Point", "coordinates": [-0.201308, 51.4978]}},
{"type": "Feature", "id": "AdxIkWR2HUPDzI5zj_1WBwZOL0k=", "properties": {"ref": "60005244", "@spider": "costacoffee", "addr:full": "177-187 Arthur Road Wimbledon Park Wimbledon Park", "addr:city": "Wimbledon", "addr:postcode": "SW19 8AE", "addr:country": "GB", "name": "Co Op @ Arthur Road - Wimbledon", "brand": "Costa Coffee"}, "geometry": {"type": "Point", "coordinates": [-0.197666, 51.4351]}},
{"type": "Feature", "id": "n5l9ddJmV1kcmBGztPP1Ha8Vcg8=", "properties": {"ref": "43037095", "@spider": "costacoffee", "addr:full": "52-54 Denmark Hill", "addr:postcode": "SE5 8RZ", "addr:country": "Surrey", "name": "Lon Denmark Hill", "brand": "Costa Coffee"}, "geometry": {"type": "Point", "coordinates": [-0.0933096, 51.4729]}},
{"type": "Feature", "id": "qFukrxugNOEcRuDy-XmHngntxcA=", "properties": {"ref": "63820001", "@spider": "costacoffee", "addr:full": "240-252 Camberwell Road", "addr:city": "London", "addr:postcode": "SE5 0DP", "addr:country": "GBR", "name": "Napoli Stores Ltd @ Budgens Camberwell", "brand": "Costa Coffee"}, "geometry": {"type": "Point", "coordinates": [-0.0942196, 51.4773]}},
{"type": "Feature", "id": "BaeDLyWK4cBROFVDVn8e0xv3pbM=", "properties": {"ref": "60107011", "@spider": "costacoffee", "addr:full": "59 Plough Lane Wimbledon Wimbledon", "addr:city": "London", "addr:postcode": "SW17 0BW", "addr:country": "GB", "name": "Shell UK @ Plough Lane Core", "brand": "Costa Coffee"}, "geometry": {"type": "Point", "coordinates": [-0.185824, 51.43]}},
{"type": "Feature", "id": "2AKyg6hqqbAi31ahXj-7pSvGPAo=", "properties": {"ref": "60022800", "@spider": "costacoffee", "addr:full": "Esso Park Lane Service Station 77 - 83 Park Lane 77 - 83 Park Lane", "addr:city": "Mayfair, Soho", "addr:postcode": "W1K 7HB", "addr:country": "GB", "name": "MFG @ Park Lane FS886", "brand": "Costa Coffee"}, "geometry": {"type": "Point", "coordinates": [-0.154283, 51.5089]}},
{"type": "Feature", "id": "hspW11HujKM2LHe-iHIGiRscdrE=", "properties": {"ref": "60016458", "@spider": "costacoffee", "addr:full": "107 Westminster Bridge Road Lambeth Lambeth", "addr:city": "London", "addr:postcode": "SE1 7HR", "addr:country": "GB", "name": "Sainsburys Local Costa @ Lambeth North 6213", "brand": "Costa Coffee"}, "geometry": {"type": "Point", "coordinates": [-0.113138, 51.4991]}},
{"type": "Feature", "id": "aIjk18acMRLgdDKm0rwuXTx7XRU=", "properties": {"ref": "600022014", "@spider": "costacoffee", "addr:full": "Denmark Hill", "addr:city": "London", "addr:postcode": "SE5 8EJ", "addr:country": "GB", "name": "Tesco Express @ Denmark Hill 4835", "brand": "Costa Coffee"}, "geometry": {"type": "Point", "coordinates": [-0.0904478, 51.4669]}},
{"type": "Feature", "id": "YNJnudV05hNBzerzRVo8vxZ_YQY=", "properties": {"ref": "60005992", "@spider": "costacoffee", "addr:full": "Dover House 170a Westminster Bridge Road Lambeth Lambeth", "addr:city": "London", "addr:postcode": "SE1 7RW", "addr:country": "GB", "name": "Co Op @ Dover House - Lower Marsh", "brand": "Costa Coffee"}, "geometry": {"type": "Point", "coordinates": [-0.114208, 51.4999]}},
{"type": "Feature", "id": "O7hlRjsy8f1mvpMZXAWqeXenE5o=", "properties": {"ref": "43031850", "@spider": "costacoffee", "addr:full": "118 Westminster Bridge Road", "addr:postcode": "SE1 7RW", "name": "Westminster Bridge Rd", "brand": "Costa Coffee"}, "geometry": {"type": "Point", "coordinates": [-0.11244, 51.4991]}},
{"type": "Feature", "id": "1BtRWK5sOy98NaAjy4Z83b_uQG0=", "properties": {"ref": "60002086", "@spider": "costacoffee", "addr:full": "168-188 Fulham Palace Road Fulham Fulham", "addr:city": "London", "addr:postcode": "W6 9PA", "addr:country": "GB", "name": "Tesco Express Costa @ Fulham Palace Road 2749", "brand": "Costa Coffee"}, "geometry": {"type": "Point", "coordinates": [-0.220452, 51.4853]}},
{"type": "Feature", "id": "bqWM99U7aaQwKo0QVJOHxb7gE0g=", "properties": {"ref": "60005867", "@spider": "costacoffee", "addr:full": "178 Norwood Road", "addr:city": "Tulse Hill", "addr:postcode": "SE27 9AU", "addr:country": "GBR", "name": "Co Op @ Tulse Hill", "brand": "Costa Coffee"}, "geometry": {"type": "Point", "coordinates": [-0.106462, 51.44]}},
{"type": "Feature", "id": "FLHRav4KnperBZ7jbNjMzrBQ-Ek=", "properties": {"ref": "600021839", "@spider": "costacoffee", "addr:full": "129 - 133 Mitcham Road Tooting Tooting", "addr:city": "London", "addr:postcode": "SW17 9PE", "addr:country": "GB", "name": "Tesco Express Costa @ Tooting Broadway 5560", "brand": "Costa Coffee"}, "geometry": {"type": "Point", "coordinates": [-0.163789, 51.4252]}},
{"type": "Feature", "id": "RF0Sm-9v4XSJqDd1GCcFMoRuofw=", "properties": {"ref": "62881001", "@spider": "costacoffee", "addr:full": "127-129 Half Moon Lane Dulwich Dulwich", "addr:city": "London", "addr:postcode": "SE24 9JY", "addr:country": "GB", "name": "Shivam Capital Ltd @ Budgens Dulwich", "brand": "Costa Coffee"}, "geometry": {"type": "Point", "coordinates": [-0.0940225, 51.4533]}},
{"type": "Feature", "id": "Sxt-i4N1LJUPvMpIej3WNrcQKes=", "properties": {"ref": "43033760", "@spider": "costacoffee", "addr:full": "Amigo Shop, Ground Floor Fulham Palace Road Fulham Palace Road", "addr:postcode": "W6 8RF", "name": "Charring Cross Hospital, Staff / Visitors only", "brand": "Costa Coffee"}, "geometry": {"type": "Point", "coordinates": [-0.219537, 51.4869]}},
{"type": "Feature", "id": "nbTOt8WTyK6UdvnWx4vYSmSu3cA=", "properties": {"ref": "60002812", "@spider": "costacoffee", "addr:full": "69-77 Hammersmith Road", "addr:city": "London", "addr:postcode": "W14 8UZ", "addr:country": "GB", "name": "Tesco Express Costa @ Olympia Hammersmith 5468", "brand": "Costa Coffee"}, "geometry": {"type": "Point", "coordinates": [-0.211045, 51.4951]}},
{"type": "Feature", "id": "QwdH5bqmmFIHR92ceEcwjrkJj2A=", "properties": {"ref": "60021006", "@spider": "costacoffee", "addr:full": "Belvedere Road", "addr:city": "London", "addr:postcode": "SE1 7PB", "addr:country": "GB", "name": "Premier Inn @ London County Hall", "brand": "Costa Coffee"}, "geometry": {"type": "Point", "coordinates": [-0.118071, 51.5025]}},
{"type": "Feature", "id": "qk5Cjjpl6FqfvhCQmDu0sUI-jNA=", "properties": {"ref": "600022616", "@spider": "costacoffee", "addr:full": "100 Baylis Rd Waterloo Waterloo", "addr:city": "London", "addr:postcode": "SE1 7AA", "addr:country": "GB", "name": "Tesco Express Costa @ Waterloo Baylis 6860", "brand": "Costa Coffee"}, "geometry": {"type": "Point", "coordinates": [-0.111929, 51.4997]}},
{"type": "Feature", "id": "3z1LVTqNHPSRdvssXSsLClGG5D8=", "properties": {"ref": "60022846", "@spider": "costacoffee", "addr:full": "Esso Streatham Service Station 120 Leigham Court Road  120 Leigham Court Road", "addr:city": "Streatham", "addr:postcode": "SW16 2RW", "addr:country": "GB", "name": "MFG @ Streatham FS107", "brand": "Costa Coffee"}, "geometry": {"type": "Point", "coordinates": [-0.117258, 51.4327]}},
{"type": "Feature", "id": "-iU0-aJG1N-NsHiHqlWCaH-MUWc=", "properties": {"ref": "600021671", "@spider": "costacoffee", "addr:full": "364 - 368 Walworth Road Camberwel Camberwel", "addr:city": "London", "addr:postcode": "SE17 2NF", "addr:country": "GB", "name": "Tesco Express Costa @ Camberwell 6291", "brand": "Costa Coffee"}, "geometry": {"type": "Point", "coordinates": [-0.094071, 51.4851]}},
{"type": "Feature", "id": "XSzb73WjqSv9_sACZk1zBKjxxvQ=", "properties": {"ref": "43025780", "@spider": "costacoffee", "addr:full": "15 Regent Street", "addr:postcode": "SW1Y 4LR", "addr:country": "Middlesex", "name": "London Regent Street", "brand": "Costa Coffee"}, "geometry": {"type": "Point", "coordinates": [-0.13423, 51.5088]}},
{"type": "Feature", "id": "z0Tre5IxpVg3Ob05WdeSNUajygc=", "properties": {"ref": "43044925", "@spider": "costacoffee", "addr:full": "Drive Thru, Unit 6, London Road Retail Park London Road London Road", "addr:postcode": "CA1 2PD", "addr:country": "Cumberland", "name": "Carlisle London Rd RP DT", "brand": "Costa Coffee"}, "geometry": {"type": "Point", "coordinates": [-0.127586, 51.5072]}},
{"type": "Feature", "id": "BCStHOvaYI051gDVz2ofHwe8tiE=", "properties": {"ref": "600021304", "@spider": "costacoffee", "addr:full": "224 Walworth Rd Exp", "addr:city": "London", "addr:postcode": "SE17 1JE", "addr:country": "GB", "name": "Tesco Express Costa @ Walworth Rd 5784", "brand": "Costa Coffee"}, "geometry": {"type": "Point", "coordinates": [-0.0962241, 51.4888]}},
{"type": "Feature", "id": "P001WM3IFc4GhP8MeQXRmqWiqEY=", "properties": {"ref": "60022805", "@spider": "costacoffee", "addr:full": "Esso Ryton Service Station 725 London Road 725 London Road", "addr:city": "Ryton", "addr:postcode": "CV3 4EX", "addr:country": "GB", "name": "MFG @ Ryton FS746", "brand": "Costa Coffee"}, "geometry": {"type": "Point", "coordinates": [-0.127758, 51.5074]}},
{"type": "Feature", "id": "y5GcaP7mn_x9a15cSspBfoViIpo=", "properties": {"ref": "43044910", "@spider": "costacoffee", "addr:full": "269-271 Walworth Road", "addr:postcode": "SE17 1RL", "addr:country": "Surrey", "name": "Lon Walworth Rd", "brand": "Costa Coffee"}, "geometry": {"type": "Point", "coordinates": [-0.0952069, 51.488]}},
{"type": "Feature", "id": "ML-lF0wv64GD0V0AmGDzNsiaoUk=", "properties": {"ref": "600051540", "@spider": "costacoffee", "addr:full": "156-164 Walworth Road Kennington Kennington", "addr:city": "London", "addr:postcode": "SE17 1JL", "addr:country": "GB", "name": "Co Op @ Kennington, Walworth Road 3647", "brand": "Costa Coffee"}, "geometry": {"type": "Point", "coordinates": [-0.0974483, 51.4905]}},
{"type": "Feature", "id": "4JYl-TTSZwq_0L9NZsqV-TROxa8=", "properties": {"ref": "60005629", "@spider": "costacoffee", "addr:full": "Haydons Road Wimbledon Wimbledon", "addr:city": "London", "addr:postcode": "SW19 8JZ", "addr:country": "GB", "name": "Co Op @ Wimbledon, Haydons Road", "brand": "Costa Coffee"}, "geometry": {"type": "Point", "coordinates": [-0.190731, 51.4267]}},
{"type": "Feature", "id": "WBZ5L2DHKhKw_Gy8kUaShNkASAk=", "properties": {"ref": "43018075", "@spider": "costacoffee", "addr:full": "Station Concourse Opposite Pla Waterloo Station Waterloo Station", "addr:postcode": "SE1 7LY", "addr:country": "Surrey", "name": "Waterloo Mainline", "brand": "Costa Coffee"}, "geometry": {"type": "Point", "coordinates": [-0.112305, 51.5032]}},
{"type": "Feature", "id": "SrVybS9B7F32J2eTLgwYWFu90OQ=", "properties": {"ref": "43012610", "@spider": "costacoffee", "addr:full": "17 Embankment Place", "addr:postcode": "WC2N 6NN", "addr:country": "Middlesex", "name": "Embankment", "brand": "Costa Coffee"}, "geometry": {"type": "Point", "coordinates": [-0.123206, 51.5079]}},
{"type": "Feature", "id": "OMrD0HQ4qT4jb1MvAUUS5PLFAjU=", "properties": {"ref": "60002570", "@spider": "costacoffee", "addr:full": "103 - 107 Waterloo Road", "addr:city": "Waterloo", "addr:postcode": "SE1 8UL", "addr:country": "GB", "name": "Tesco Express Costa @ Waterloo Road 4521", "brand": "Costa Coffee"}, "geometry": {"type": "Point", "coordinates": [-0.110427, 51.5029]}},
{"type": "Feature", "id": "52bH3jAY6wIFusHmjk4hITJgvu4=", "properties": {"ref": "43047045", "@spider": "costacoffee", "addr:full": "Odeon Cinema 22-24 Leicester Square 22-24 Leicester Square", "addr:postcode": "WC2H 7AL", "name": "Odeon Cinemas Ltd - Leicester Square 31680", "brand": "Costa Coffee"}, "geometry": {"type": "Point", "coordinates": [-0.130063, 51.5104]}},
{"type": "Feature", "id": "_OVJzcmdbYb3rp7U9afEbcYRXyY=", "properties": {"ref": "60002655", "@spider": "costacoffee", "addr:full": "Fulham Reach", "addr:city": "London", "addr:postcode": "W6 9RS", "addr:country": "GB", "name": "Tesco Express Costa @ Fulham Reach 4626", "brand": "Costa Coffee"}, "geometry": {"type": "Point", "coordinates": [-0.225773, 51.4875]}},
{"type": "Feature", "id": "AvWueDxiQOukbCeKxCkPNIwgd5w=", "properties": {"ref": "43035425", "@spider": "costacoffee", "addr:full": "22-24 Leicester Square", "addr:postcode": "WC2H 7JY", "name": "Odeon Cinemas Ltd - Leicester Square 31680", "brand": "Costa Coffee"}, "geometry": {"type": "Point", "coordinates": [-0.129325, 51.5105]}},
{"type": "Feature", "id": "pZtNQdy5LKTjlc_LTE2jOtbgF9o=", "properties": {"ref": "43035420", "@spider": "costacoffee", "addr:full": "1 Charlie Chaplin Walk Waterloo Waterloo", "addr:postcode": "SE1 8XR", "name": "Odeon Cinemas Ltd - IMAX Waterloo 31180", "brand": "Costa Coffee"}, "geometry": {"type": "Point", "coordinates": [-0.113529, 51.505]}},
{"type": "Feature", "id": "6lfLZbO1PCF65HXKgxoDzUJyuo4=", "properties": {"ref": "43033545", "@spider": "costacoffee", "addr:full": "GLH Hotels - Amba Hotel Marble Arch Costa Store Bryanston Street, Marble Arch Bryanston Street, Marble Arch", "addr:postcode": "W1H 7EH", "name": "Amba Marble Arch", "brand": "Costa Coffee"}, "geometry": {"type": "Point", "coordinates": [-0.156551, 51.5144]}},
{"type": "Feature", "id": "jX1EN6_ECkT0TF_ehMebyzfAJO8=", "properties": {"ref": "43039530", "@spider": "costacoffee", "addr:full": "Westminster Station, Westbound Platform Bridge Street Bridge Street", "addr:postcode": "SW1A 2JR", "addr:country": "Middlesex", "name": "Lon Westminster West", "brand": "Costa Coffee"}, "geometry": {"type": "Point", "coordinates": [-0.159539, 51.5145]}},
{"type": "Feature", "id": "6-y9Hd86n-RMYcHRgwLep5sDBYE=", "properties": {"ref": "43013380", "@spider": "costacoffee", "addr:full": "Unit 24b Broadway Shopping Cen Hammersmith Broadway Hammersmi Hammersmith Broadway Hammersmi", "addr:postcode": "W6 9YD", "addr:country": "Middlesex", "name": "Hammersmith", "brand": "Costa Coffee"}, "geometry": {"type": "Point", "coordinates": [-0.223795, 51.4918]}},
{"type": "Feature", "id": "PD9FEmOmaqCXtnF51N1Tc038RlM=", "properties": {"ref": "43040535", "@spider": "costacoffee", "addr:full": "529 Norwood Road", "addr:postcode": "SE27 9DL", "addr:country": "Surrey", "name": "Lon Norwood Road", "brand": "Costa Coffee"}, "geometry": {"type": "Point", "coordinates": [-0.103574, 51.4346]}},
{"type": "Feature", "id": "Up2ybOu7gAfwCdDKMclElle8_nE=", "properties": {"ref": "60016482", "@spider": "costacoffee", "addr:full": "364-366 Norwood Road", "addr:city": "London", "addr:postcode": "SE27 9AA", "addr:country": "GB", "name": "Sainsburys Local Costa @ West Norwood 4931", "brand": "Costa Coffee"}, "geometry": {"type": "Point", "coordinates": [-0.104085, 51.4341]}},
{"type": "Feature", "id": "nQagBh-2-6ffxFpOdI3fOgHbjBo=", "properties": {"ref": "600051438", "@spider": "costacoffee", "addr:full": "104-105 Berwick Street,Soho", "addr:city": "London", "addr:postcode": "W1F 0QS", "addr:country": "GBR", "name": "Co Op @ Soho, 104-105 Berwick St 5186", "brand": "Costa Coffee"}, "geometry": {"type": "Point", "coordinates": [-0.134379, 51.5128]}},
{"type": "Feature", "id": "Esm2-2LJ2EmRSjESSWttJrhuid8=", "properties": {"ref": "600021280", "@spider": "costacoffee", "addr:full": "Borough Rd Ldn Exp", "addr:city": "Borough", "addr:postcode": "SE1 0AJ", "addr:country": "GB", "name": "Tesco Express Costa @ Borough Rd 6319", "brand": "Costa Coffee"}, "geometry": {"type": "Point", "coordinates": [-0.100469, 51.4993]}},
{"type": "Feature", "id": "NCQOE6X0pgrWeqYlT1aNldzV3pc=", "properties": {"ref": "43038750", "@spider": "costacoffee", "addr:full": "42-48 The Cut", "addr:postcode": "SE1 8LP", "addr:country": "Surrey", "name": "Lon Southwark", "brand": "Costa Coffee"}, "geometry": {"type": "Point", "coordinates": [-0.106578, 51.5035]}},
{"type": "Feature", "id": "sx49O5n0yCrtcEF2ts2mTdW1M2g=", "properties": {"ref": "600021856", "@spider": "costacoffee", "addr:full": "22 - 25 Bedford Street Covent Garden Covent Garden", "addr:city": "London", "addr:postcode": "WC2E 9EQ", "addr:country": "GB", "name": "Tesco Metro Costa @ Covent Garden 2299", "brand": "Costa Coffee"}, "geometry": {"type": "Point", "coordinates": [-0.12511, 51.5112]}},
{"type": "Feature", "id": "RKIYwrQRUyI35r0kYwYo0ScyMLM=", "properties": {"ref": "60005670", "@spider": "costacoffee", "addr:full": "62 High Street", "addr:city": "Colliers Wood", "addr:postcode": "SW19 2BY", "addr:country": "GB", "name": "Co Op @ High Street - Colliers Wood", "brand": "Costa Coffee"}, "geometry": {"type": "Point", "coordinates": [-0.175899, 51.4206]}},
{"type": "Feature", "id": "ZDqUew0eSiBrz5scajyGXbkluGc=", "properties": {"ref": "43035615", "@spider": "costacoffee", "addr:full": "14 Great Marlborough Street", "addr:postcode": "W1F 7HP", "addr:country": "Middlesex", "name": "Lon Grt Marlborough", "brand": "Costa Coffee"}, "geometry": {"type": "Point", "coordinates": [-0.13887, 51.5146]}},
{"type": "Feature", "id": "pM2puHvfIDmJArro8sTpcF3znyM=", "properties": {"ref": "43010385", "@spider": "costacoffee", "addr:full": "11 Argyll Street", "addr:postcode": "W1F 7TX", "addr:country": "Greater London", "name": "Argyll Street", "brand": "Costa Coffee"}, "geometry": {"type": "Point", "coordinates": [-0.140707, 51.5149]}},
{"type": "Feature", "id": "uRxLPwxWmJ1VdCT2UMMdDgLu_ww=", "properties": {"ref": "43018410", "@spider": "costacoffee", "addr:full": "69 Wigmore Street", "addr:postcode": "W1U 1PZ", "addr:country": "Middlesex", "name": "Wigmore Street", "brand": "Costa Coffee"}, "geometry": {"type": "Point", "coordinates": [-0.15033, 51.516]}},
{"type": "Feature", "id": "vJUnHgqcv1yk8IRvX2_g5-1g1Oc=", "properties": {"ref": "43043310", "@spider": "costacoffee", "addr:full": "37 Southampton Street", "addr:postcode": "WC2E 7HG", "addr:country": "Middlesex", "name": "Lon Southampton St", "brand": "Costa Coffee"}, "geometry": {"type": "Point", "coordinates": [-0.121901, 51.5107]}},
{"type": "Feature", "id": "S70pxsITEpG2UFfeRP5hi3Y_XjY=", "properties": {"ref": "600021828", "@spider": "costacoffee", "addr:full": "191 - 199 Southampton Way Peckham Peckham", "addr:city": "London", "addr:postcode": "SE5 7EJ", "addr:country": "GB", "name": "Tesco Express Costa @ Southampton Way 5688", "brand": "Costa Coffee"}, "geometry": {"type": "Point", "coordinates": [-0.0816191, 51.4779]}},
{"type": "Feature", "id": "uSiwZ6zQqCCM4aUiTfwENbHnGyY=", "properties": {"ref": "600021293", "@spider": "costacoffee", "addr:full": "Borough New Kt Rd Exp", "addr:city": "Borough", "addr:postcode": "SE1 4AG", "addr:country": "GB", "name": "Tesco Express Costa @ Borough New Kent Rd 6568", "brand": "Costa Coffee"}, "geometry": {"type": "Point", "coordinates": [-0.0926569, 51.4944]}},
{"type": "Feature", "id": "Sa0xrkePBKm3sE0bwNH_MYzRIhM=", "properties": {"ref": "69990060", "@spider": "costacoffee", "addr:full": "1A Wimpole Street Marylebone Marylebone", "addr:city": "London", "addr:postcode": "W1G 0EA", "addr:country": "GB", "name": "Coke Office @ Wimpole Street", "brand": "Costa Coffee"}, "geometry": {"type": "Point", "coordinates": [-0.147174, 51.5162]}},
{"type": "Feature", "id": "b5iSuRgPZyqsK5WGQfrU8QEilPo=", "properties": {"ref": "43032010", "@spider": "costacoffee", "addr:full": "137-139 Praed St", "addr:postcode": "W2 1RL", "addr:country": "Middlesex", "name": "Praed St Paddington", "brand": "Costa Coffee"}, "geometry": {"type": "Point", "coordinates": [-0.174021, 51.5164]}},
{"type": "Feature", "id": "NyLPlcXyC5EhRyE6w-X_VHCi4J4=", "properties": {"ref": "43042630", "@spider": "costacoffee", "addr:full": "Unit 33, The Lawn, Station Concourse Paddington Station, Praed Street Paddington Station, Praed Street", "addr:postcode": "W2 1HB", "addr:country": "Middlesex", "name": "Lon Paddington U33", "brand": "Costa Coffee"}, "geometry": {"type": "Point", "coordinates": [-0.176515, 51.5162]}},
{"type": "Feature", "id": "wR-5QnI6xVUaGlrnJbQdpMOege4=", "properties": {"ref": "60022772", "@spider": "costacoffee", "addr:full": "Esso Newington Service Station 197-209 New Kent Road 197-209 New Kent Road", "addr:city": "London", "addr:postcode": "SE1 4AG", "addr:country": "GB", "name": "MFG @ Newington FS676", "brand": "Costa Coffee"}, "geometry": {"type": "Point", "coordinates": [-0.0907538, 51.4944]}},
{"type": "Feature", "id": "DJL5gJDkMVL_7tdyq2WcrIKv58w=", "properties": {"ref": "43047310", "@spider": "costacoffee", "addr:full": "Esso Service Station New Kent Road  New Kent Road", "addr:postcode": "SE1 4AG", "name": "NEWINGTON", "brand": "Costa Coffee"}, "geometry": {"type": "Point", "coordinates": [-0.0903814, 51.4943]}},
{"type": "Feature", "id": "zkvQ74YjUqlfXEtepC43Rxd91FQ=", "properties": {"ref": "43030360", "@spider": "costacoffee", "addr:full": "4 Great Portland Street", "addr:postcode": "W1W 8QJ", "addr:country": "Middlesex", "name": "Great Portland St", "brand": "Costa Coffee"}, "geometry": {"type": "Point", "coordinates": [-0.141279, 51.5166]}},
{"type": "Feature", "id": "D9nIP9bRVH2uW0Fmm3AL3G0zX7w=", "properties": {"ref": "43045395", "@spider": "costacoffee", "addr:full": "NEXT, The Plaza 120 Oxford Street 120 Oxford Street", "addr:postcode": "W1D 1LT", "addr:country": "Middlesex", "name": "Next Lon Oxford St", "brand": "Costa Coffee"}, "geometry": {"type": "Point", "coordinates": [-0.136601, 51.5159]}},
{"type": "Feature", "id": "7LOiYkF17U66BFGOYdiTLEqmkqs=", "properties": {"ref": "43037570", "@spider": "costacoffee", "addr:full": "44 Kings Mall Kings Street Kings Street", "addr:postcode": "W6 0PZ", "addr:country": "Middlesex", "name": "Lon Hammersmith 2", "brand": "Costa Coffee"}, "geometry": {"type": "Point", "coordinates": [-0.227843, 51.4931]}},
{"type": "Feature", "id": "0pAYXYuckvjlZdAiujGsR62mcMk=", "properties": {"ref": "43037535", "@spider": "costacoffee", "addr:full": "38 Eastcastle St", "addr:postcode": "W1W 8DS", "addr:country": "Middlesex", "name": "Lon Eastcastle St", "brand": "Costa Coffee"}, "geometry": {"type": "Point", "coordinates": [-0.139356, 51.5165]}},
{"type": "Feature", "id": "CfsMFmwqTtZYk4K7_QesyHTf45Q=", "properties": {"ref": "600023013", "@spider": "costacoffee", "addr:full": "2-4 Dean Street", "addr:city": "London", "addr:postcode": "W1D 3RF", "addr:country": "GBR", "name": "Tesco Metro Costa @ Dean Street 2377", "brand": "Costa Coffee"}, "geometry": {"type": "Point", "coordinates": [-0.133534, 51.5155]}},
{"type": "Feature", "id": "-eOr7iIzGs3CloUv9J49PgJ6zpE=", "properties": {"ref": "60002056", "@spider": "costacoffee", "addr:full": "164-168 High Street Colliers Wood Colliers Wood", "addr:city": "London", "addr:postcode": "SW19 2BN", "addr:country": "GB", "name": "Tesco Express Costa @ Colliers Wood 2342", "brand": "Costa Coffee"}, "geometry": {"type": "Point", "coordinates": [-0.178225, 51.4188]}},
{"type": "Feature", "id": "IiEWm5xjNE5PWG25pzd_SZiKqqY=", "properties": {"ref": "43038915", "@spider": "costacoffee", "addr:full": "Kiosk, Paddington Station Hammersmith & City Line Underground Ticket Hall Hammersmith & City Line Underground Ticket Hall", "addr:postcode": "W2 1HQ", "addr:country": "Greater London", "name": "Lon Paddington Kiosk", "brand": "Costa Coffee"}, "geometry": {"type": "Point", "coordinates": [-0.176933, 51.5167]}},
{"type": "Feature", "id": "3PHbxFXfv83ekJDSjnVfD5NWCh4=", "properties": {"ref": "60002013", "@spider": "costacoffee", "addr:full": "159-167 Castelnau Barnes Barnes", "addr:city": "London", "addr:postcode": "SW13 9EW", "addr:country": "GB", "name": "Tesco Express Costa @ Barnes 2066", "brand": "Costa Coffee"}, "geometry": {"type": "Point", "coordinates": [-0.234436, 51.4848]}},
{"type": "Feature", "id": "0tkwzVaHOk50OgepiJKh2J-hRC8=", "properties": {"ref": "60002648", "@spider": "costacoffee", "addr:full": "Bayswater", "addr:city": "London", "addr:postcode": "W2 6LS", "addr:country": "GB", "name": "Tesco Express Costa @ Queensway 4447", "brand": "Costa Coffee"}, "geometry": {"type": "Point", "coordinates": [-0.187747, 51.5147]}},
{"type": "Feature", "id": "ScKYzQcQnydVxcXMAwVWQYfI31c=", "properties": {"ref": "43032300", "@spider": "costacoffee", "addr:full": "39 Shelton St, Covent Garden", "addr:postcode": "WC2H 9HJ", "addr:country": "Middlesex", "name": "Shelton Street", "brand": "Costa Coffee"}, "geometry": {"type": "Point", "coordinates": [-0.124687, 51.5141]}},
{"type": "Feature", "id": "1FX-3wCWEAOUnNblMvGReOzpPZ8=", "properties": {"ref": "600022779", "@spider": "costacoffee", "addr:full": "Corner of Endell,Shelton Street", "addr:city": "London", "addr:postcode": "WC2H 9HJ", "addr:country": "GBR", "name": "Tesco Express Costa @ Endwells St Covent Grdn 4850", "brand": "Costa Coffee"}, "geometry": {"type": "Point", "coordinates": [-0.124571, 51.5144]}},
{"type": "Feature", "id": "mguYtTWq8EGRjDWg3mg0x8gsKEk=", "properties": {"ref": "60002149", "@spider": "costacoffee", "addr:full": "West End Quay Paddington Paddington", "addr:city": "London", "addr:postcode": "W2 1EE", "addr:country": "GB", "name": "Tesco Express Costa @ Paddington 3276", "brand": "Costa Coffee"}, "geometry": {"type": "Point", "coordinates": [-0.171219, 51.5184]}},
{"type": "Feature", "id": "oVfhb4SzhVooA1bpx5s-WLegDlA=", "properties": {"ref": "60005708", "@spider": "costacoffee", "addr:full": "Unit 5/11 Christchurch Road Colliers Wood Colliers Wood", "addr:city": "London", "addr:postcode": "SW19 2FA", "addr:country": "GB", "name": "Co Op @ Colliers Wood Station", "brand": "Costa Coffee"}, "geometry": {"type": "Point", "coordinates": [-0.178309, 51.4176]}},
{"type": "Feature", "id": "ZQ67pbP83tr1hggtZsS-DZg8CJU=", "properties": {"ref": "600022129", "@spider": "costacoffee", "addr:full": "Unit 1 Great Suffolk", "addr:city": "Southwark", "addr:postcode": "SE1 0NZ", "addr:country": "GB", "name": "Tesco Express Costa @ Great Suffolk St 6390", "brand": "Costa Coffee"}, "geometry": {"type": "Point", "coordinates": [-0.101221, 51.505]}},
{"type": "Feature", "id": "l7taKthtRroJx2u8KQNWb_MUk98=", "properties": {"ref": "43036890", "@spider": "costacoffee", "addr:full": "18 Great Suffolk Street", "addr:postcode": "SE1 0UG", "addr:country": "Surrey", "name": "Lon Gt Suffolk St", "brand": "Costa Coffee"}, "geometry": {"type": "Point", "coordinates": [-0.101197, 51.505]}},
{"type": "Feature", "id": "FPdaXoWUDsSziRswdWr1OUH_2uc=", "properties": {"ref": "60023036", "@spider": "costacoffee", "addr:full": "275 Streatham High Road", "addr:city": "Streatham", "addr:postcode": "SW16 3BS", "addr:country": "GB", "name": "Petrogas Group @ Applegreen Streatham Common", "brand": "Costa Coffee"}, "geometry": {"type": "Point", "coordinates": [-0.12769, 51.4196]}},
{"type": "Feature", "id": "o0tmY8wBl9586JXVsZSAbch9LdM=", "properties": {"ref": "43043290", "@spider": "costacoffee", "addr:full": "Unit 2B, The Tower, 125 High Street", "addr:postcode": "SW19 2JG", "addr:country": "Greater London", "name": "Colliers Wood Tower", "brand": "Costa Coffee"}, "geometry": {"type": "Point", "coordinates": [-0.178336, 51.4174]}},
{"type": "Feature", "id": "PjatELg9j2bIZhyMP8rkZspjV40=", "properties": {"ref": "43041140", "@spider": "costacoffee", "addr:full": "51 Westbourne Grove", "addr:postcode": "W2 4UA", "addr:country": "Middlesex", "name": "Lon Westbourne Grove", "brand": "Costa Coffee"}, "geometry": {"type": "Point", "coordinates": [-0.190666, 51.5154]}},
{"type": "Feature", "id": "SD8TyAOU8y_B4muHS4Ipfsk_Qtc=", "properties": {"ref": "61207010", "@spider": "costacoffee", "addr:full": "C Chelvam Grove Vale Grove Vale", "addr:city": "London", "addr:postcode": "SE22 8EN", "addr:country": "GB", "name": "Grove Retail @ Texaco Grove Vale Filling Station", "brand": "Costa Coffee"}, "geometry": {"type": "Point", "coordinates": [-0.0757108, 51.4613]}},
{"type": "Feature", "id": "1gk-e1CKsDdcwNEQ73pAXmrLA3Y=", "properties": {"ref": "43023020", "@spider": "costacoffee", "addr:full": "254 Edgware Road", "addr:postcode": "W2 1DS", "name": "Edgware Road", "brand": "Costa Coffee"}, "geometry": {"type": "Point", "coordinates": [-0.168639, 51.5192]}},
{"type": "Feature", "id": "S7pRW2_qHZ6fZJk7jAEEIliQWB0=", "properties": {"ref": "60016282", "@spider": "costacoffee", "addr:full": "58 Great Dover Street", "addr:city": "London", "addr:postcode": "SE1 4YF", "addr:country": "GBR", "name": "Sainsburys Local Costa @ Southwark Great Dover St", "brand": "Costa Coffee"}, "geometry": {"type": "Point", "coordinates": [-0.089901, 51.4975]}},
{"type": "Feature", "id": "mAyfyDUe_wLMaUa9Sqlg3zF87co=", "properties": {"ref": "61280020", "@spider": "costacoffee", "addr:full": "New Broadcasting House Peel Wing, Portland Place Peel Wing, Portland Place", "addr:city": "London", "addr:postcode": "W1A 1AA", "addr:country": "GB", "name": "Baxter Storey @ BBC NBH", "brand": "Costa Coffee"}, "geometry": {"type": "Point", "coordinates": [-0.143931, 51.5189]}},
{"type": "Feature", "id": "HYujEjgF41du9Lcn_v-XFUy6h2Q=", "properties": {"ref": "43039950", "@spider": "costacoffee", "addr:full": "34 Rathbone Place", "addr:postcode": "W1T 1JN", "addr:country": "Middlesex", "name": "Lon Rathbone Place", "brand": "Costa Coffee"}, "geometry": {"type": "Point", "coordinates": [-0.134362, 51.5176]}},
{"type": "Feature", "id": "Pi-Xlw7ySlry__boub3jTPB7FYM=", "properties": {"ref": "600021140", "@spider": "costacoffee", "addr:full": "Unit 1, Blackfriars Circus", "addr:city": "London", "addr:postcode": "SE1 8EQ", "addr:country": "GB", "name": "Tesco Express Costa @ Blackfriars Circus 4916", "brand": "Costa Coffee"}, "geometry": {"type": "Point", "coordinates": [-0.10484, 51.5079]}},
{"type": "Feature", "id": "n8w9oSgVNRdeCI8yB6CQd7OOPb0=", "properties": {"ref": "43026700", "@spider": "costacoffee", "addr:full": "Kean House 9-11 Kingsway 9-11 Kingsway", "addr:postcode": "WC2B 6UN", "addr:country": "Middlesex", "name": "London Kingsway", "brand": "Costa Coffee"}, "geometry": {"type": "Point", "coordinates": [-0.118132, 51.5136]}},
{"type": "Feature", "id": "_qQqfcMZh2FAvKFNLIbazO4MUXg=", "properties": {"ref": "43040530", "@spider": "costacoffee", "addr:full": "104 New Oxford Street", "addr:postcode": "WC1A 1HB", "addr:country": "Middlesex", "name": "Lon New Oxford St", "brand": "Costa Coffee"}, "geometry": {"type": "Point", "coordinates": [-0.128875, 51.5168]}},
{"type": "Feature", "id": "3WfCqjRbkYNU80xYJ-t3Ly6B0ok=", "properties": {"ref": "60005809", "@spider": "costacoffee", "addr:full": "56-62 Lordship Lane Dulwich Dulwich", "addr:city": "London", "addr:postcode": "SE22 8HJ", "addr:country": "GB", "name": "Co Op @ Dulwich - Lordship Lane", "brand": "Costa Coffee"}, "geometry": {"type": "Point", "coordinates": [-0.0752276, 51.4587]}},
{"type": "Feature", "id": "Wo7bfYkTR91CJb8x6_pd250Ask4=", "properties": {"ref": "11805504", "@spider": "costacoffee", "addr:full": "104 New Oxford Street PRODTest 1 PRODTest 1", "addr:city": "London", "addr:postcode": "LU1 5FA", "name": "Sample Test Production", "brand": "Costa Coffee"}, "geometry": {"type": "Point", "coordinates": [-0.128517, 51.5168]}},
{"type": "Feature", "id": "DSqG5adF9qbltz3z46R6RWaRZcE=", "properties": {"ref": "600051319", "@spider": "costacoffee", "addr:full": "108 Westbourne Grove Westminster Westminster", "addr:city": "London", "addr:postcode": "W2 5RU", "addr:country": "GB", "name": "Co Op @ Westminster, Westbourne Grove", "brand": "Costa Coffee"}, "geometry": {"type": "Point", "coordinates": [-0.194623, 51.5152]}},
{"type": "Feature", "id": "mbuWp7mD2mcvrrXPIIR9LDWE7xQ=", "properties": {"ref": "43013650", "@spider": "costacoffee", "addr:full": "226 High Holborn", "addr:postcode": "WC1V 7DZ", "addr:country": "Middlesex", "name": "High Holborn", "brand": "Costa Coffee"}, "geometry": {"type": "Point", "coordinates": [-0.124751, 51.516]}},
{"type": "Feature", "id": "xE6S1-hnYJSy6nm1o9As2SgrbAI=", "properties": {"ref": "60005356", "@spider": "costacoffee", "addr:full": "18 Kingsway Mid Town Mid Town", "addr:city": "London", "addr:postcode": "WC2B 6LH", "addr:country": "GB", "name": "Co Op @ Holborn - Kingsway", "brand": "Costa Coffee"}, "geometry": {"type": "Point", "coordinates": [-0.117725, 51.514]}},
{"type": "Feature", "id": "83HLaP_MBuuSr6VEUhS1zHlgcMg=", "properties": {"ref": "61020002", "@spider": "costacoffee", "addr:full": "54 Uxbridge Road", "addr:city": "Shepherds Bush", "addr:postcode": "W12 8LP", "addr:country": "GB", "name": "Niza Enterprises @  Londis Shepherds Bush", "brand": "Costa Coffee"}, "geometry": {"type": "Point", "coordinates": [-0.219105, 51.5045]}},
{"type": "Feature", "id": "Z8xePVjOy-HzbZ_1HaQ0G8SPVW8=", "properties": {"ref": "60055012", "@spider": "costacoffee", "addr:full": "101-103 Southwark Bridge Road", "addr:city": "London", "addr:postcode": "SE1 0AX", "addr:country": "GB", "name": "Shell UK @ Southwark Bridge Core", "brand": "Costa Coffee"}, "geometry": {"type": "Point", "coordinates": [-0.095519, 51.5034]}},
{"type": "Feature", "id": "-GZQ0keVWP_aroUuLnr3euV6Aig=", "properties": {"ref": "60005254", "@spider": "costacoffee", "addr:full": "Great Portland Street", "addr:city": "London", "addr:postcode": "W1W 6PS", "addr:country": "GB", "name": "Co Op @ London - Great Portland", "brand": "Costa Coffee"}, "geometry": {"type": "Point", "coordinates": [-0.142377, 51.5197]}},
{"type": "Feature", "id": "k3f9S5d8EQLx0k2_cPrFoYDJWjM=", "properties": {"ref": "43045320", "@spider": "costacoffee", "addr:full": "Costa Coffee, Queen Mary Hospital Roehampton Lane Roehampton Lane", "addr:postcode": "SW15 5PN", "name": "Sodexo @ Roehampton hospital GB343115", "brand": "Costa Coffee"}, "geometry": {"type": "Point", "coordinates": [-0.241158, 51.4553]}},
{"type": "Feature", "id": "ord7OSYnxOxY7v5MxfLlMdCTu6k=", "properties": {"ref": "43027540", "@spider": "costacoffee", "addr:full": "72 Uxbridge Road Shepherds Bush Shepherds Bush", "addr:postcode": "W12 8LP", "name": "Shepherds Bush", "brand": "Costa Coffee"}, "geometry": {"type": "Point", "coordinates": [-0.21989, 51.5046]}},
{"type": "Feature", "id": "UEImT_SI0KtE7w5Bg1qCSo1Y5Uo=", "properties": {"ref": "60002194", "@spider": "costacoffee", "addr:full": "34 Long Lane Tabbard Square Tabbard Square", "addr:city": "London", "addr:postcode": "SE1 4AU", "addr:country": "GB", "name": "Tesco Express Costa @ Tabbard Square 5518", "brand": "Costa Coffee"}, "geometry": {"type": "Point", "coordinates": [-0.0911634, 51.501]}},
{"type": "Feature", "id": "5IJMwGff1t43SweJHN-HZdxSBBo=", "properties": {"ref": "43010555", "@spider": "costacoffee", "addr:full": "124 Baker Street", "addr:postcode": "W1M 9XX", "addr:country": "Greater London", "name": "Baker Street", "brand": "Costa Coffee"}, "geometry": {"type": "Point", "coordinates": [-0.156888, 51.5215]}},
{"type": "Feature", "id": "yO1EwwEr-PHPfmpG8GHr1Hb8vAU=", "properties": {"ref": "43023435", "@spider": "costacoffee", "addr:full": "134-138 Borough High Street Borough Borough", "addr:postcode": "SE1 1LB", "name": "Borough", "brand": "Costa Coffee"}, "geometry": {"type": "Point", "coordinates": [-0.0924055, 51.5025]}},
{"type": "Feature", "id": "UgNN41LVKwtqoJ18ZMMybKJJQZY=", "properties": {"ref": "600022225", "@spider": "costacoffee", "addr:full": "101 New Cavendish St", "addr:city": "London", "addr:postcode": "W1W 6BE", "addr:country": "GB", "name": "Tesco Express Costa @ New Cavendish 6668", "brand": "Costa Coffee"}, "geometry": {"type": "Point", "coordinates": [-0.140974, 51.5206]}},
{"type": "Feature", "id": "KYPiXicWHfVPZUqD1qyzGpEUMIg=", "properties": {"ref": "43035310", "@spider": "costacoffee", "addr:full": "55 Goldhawk Rd", "addr:postcode": "W12 8QP", "addr:country": "Middlesex", "name": "London Shepherd Bush", "brand": "Costa Coffee"}, "geometry": {"type": "Point", "coordinates": [-0.223936, 51.5032]}},
{"type": "Feature", "id": "ydR4djIGzhZfwZRI7YwKjeuZT0k=", "properties": {"ref": "43018455", "@spider": "costacoffee", "addr:full": "Unit 305 Centre Court Shopping Wimbledon Wimbledon", "addr:postcode": "SW19 5YE", "addr:country": "Greater London", "name": "Wimbledon", "brand": "Costa Coffee"}, "geometry": {"type": "Point", "coordinates": [-0.204613, 51.4213]}},
{"type": "Feature", "id": "Iln4WyZSV4_e6fbQhX_dAit45Mk=", "properties": {"ref": "43036495", "@spider": "costacoffee", "addr:full": "Blackfriars Station, Platform 2 Northern Entrance, Queen Victoria Street Northern Entrance, Queen Victoria Street", "addr:postcode": "EC4V 4DY", "addr:country": "Middlesex", "name": "Lon Blackfriars Rail", "brand": "Costa Coffee"}, "geometry": {"type": "Point", "coordinates": [-0.10325, 51.5102]}},
{"type": "Feature", "id": "BB30zPWlucSuP0Au5JMc7_vm8Cg=", "properties": {"ref": "60022644", "@spider": "costacoffee", "addr:full": "Shell Dorset House Service Station,170 Marylebone Road", "addr:city": "London", "addr:postcode": "NW1 5AR", "addr:country": "GBR", "name": "MFG @ Dorset House FS993", "brand": "Costa Coffee"}, "geometry": {"type": "Point", "coordinates": [-0.159209, 51.5224]}},
{"type": "Feature", "id": "bd6q-By_29UW-_hF1sOPtc7Isew=", "properties": {"ref": "60002212", "@spider": "costacoffee", "addr:full": "194 Merton Road Wimbledon Wimbledon", "addr:city": "London", "addr:postcode": "SW19 1EQ", "addr:country": "GB", "name": "Tesco Express Costa @ Wimbledon 3402", "brand": "Costa Coffee"}, "geometry": {"type": "Point", "coordinates": [-0.192113, 51.417]}},
{"type": "Feature", "id": "Ss3RnrqF4FUAMBmUjnr2ImZfJsc=", "properties": {"ref": "60002863", "@spider": "costacoffee", "addr:full": "127-143 Borough High Street London Bridge London Bridge", "addr:city": "London", "addr:postcode": "SE1 1LN", "addr:country": "GB", "name": "Tesco Express Costa @ London Bridge High St 4634", "brand": "Costa Coffee"}, "geometry": {"type": "Point", "coordinates": [-0.091301, 51.5035]}},
{"type": "Feature", "id": "6CLnGvnv5Ncsrs416c6umKSpUlo=", "properties": {"ref": "60016047", "@spider": "costacoffee", "addr:full": "202 Great Portland Street", "addr:city": "London", "addr:postcode": "W1W 5QQ", "addr:country": "GB", "name": "Sainsburys Local Costa @ Great Portland Street4920", "brand": "Costa Coffee"}, "geometry": {"type": "Point", "coordinates": [-0.14335, 51.5219]}},
{"type": "Feature", "id": "qbu_VJK1HHSSzFV_8bQ7QfQEOS4=", "properties": {"ref": "43032060", "@spider": "costacoffee", "addr:full": "37 Melcombe St", "addr:postcode": "NW1 6AG", "addr:country": "Middlesex", "name": "Melcombe Street", "brand": "Costa Coffee"}, "geometry": {"type": "Point", "coordinates": [-0.159421, 51.5228]}},
{"type": "Feature", "id": "AJp4kt5rlbimYJAhnTy70rT3FwA=", "properties": {"ref": "60002686", "@spider": "costacoffee", "addr:full": "26-46 Lisson Grove", "addr:city": "Marylebone", "addr:postcode": "NW1 6TU", "addr:country": "GB", "name": "Tesco Express Costa @ Lisson Grove 5565", "brand": "Costa Coffee"}, "geometry": {"type": "Point", "coordinates": [-0.165073, 51.5226]}},
{"type": "Feature", "id": "I8Nji46Lt8FwFrfITM4KgHcN2w8=", "properties": {"ref": "43034070", "@spider": "costacoffee", "addr:full": "RU3 Lower Concourse, Wimbledon Station, The Broadway Station, The Broadway", "addr:postcode": "SW19 7NL", "addr:country": "Surrey", "name": "Wimbledon Station", "brand": "Costa Coffee"}, "geometry": {"type": "Point", "coordinates": [-0.206649, 51.4214]}},
{"type": "Feature", "id": "VCyHCeRUzOXiRRkvE25Vr3sqxWI=", "properties": {"ref": "600022994", "@spider": "costacoffee", "addr:full": "34 Rye Lane", "addr:city": "London", "addr:postcode": "SE15 5BS", "addr:country": "GBR", "name": "Tesco Superstore Costa @ Peckham High Street 4754", "brand": "Costa Coffee"}, "geometry": {"type": "Point", "coordinates": [-0.069926, 51.4718]}},
{"type": "Feature", "id": "fXXli5SGLTV5V5hR6YMbC24cdvQ=", "properties": {"ref": "43048255", "@spider": "costacoffee", "addr:full": "79 Tottenham Court Road", "addr:postcode": "W1T 4TB", "addr:country": "Greater London", "name": "Lon Tottenham Court Rd 79", "brand": "Costa Coffee"}, "geometry": {"type": "Point", "coordinates": [-0.134933, 51.5209]}},
{"type": "Feature", "id": "q2qbAW7JViKPtZoUVM8mF3xzHUk=", "properties": {"ref": "60022323", "@spider": "costacoffee", "addr:full": "BP Cromwell North Great West Road Great West Road", "addr:city": "London", "addr:postcode": "W6 9TQ", "addr:country": "GB", "name": "MFG @ Cromwell Road", "brand": "Costa Coffee"}, "geometry": {"type": "Point", "coordinates": [-0.239025, 51.4911]}},
{"type": "Feature", "id": "2XZ3qE-weLDDDWNj8e23dwTpj1Q=", "properties": {"ref": "60028061", "@spider": "costacoffee", "addr:full": "York Road", "addr:city": "London", "addr:postcode": "SE1 7NA", "addr:country": "GB", "name": "Sodexo @ Shell Centre", "brand": "Costa Coffee"}, "geometry": {"type": "Point", "coordinates": [-0.120987, 51.518]}},
{"type": "Feature", "id": "2aCu9ww57MMcNCmMMGDRy3AmHY0=", "properties": {"ref": "43042485", "@spider": "costacoffee", "addr:full": "Unit 1, Aylesham Centre, Rye Lane", "addr:postcode": "SE15 5EW", "addr:country": "Surrey", "name": "Peckham Rye Lane", "brand": "Costa Coffee"}, "geometry": {"type": "Point", "coordinates": [-0.0695655, 51.4724]}},
{"type": "Feature", "id": "F7dmFYOvQJeKdC3Yrkn5AMLbyK0=", "properties": {"ref": "60022299", "@spider": "costacoffee", "addr:full": "13 - 19 East Dulwich Road", "addr:city": "Dulwich", "addr:postcode": "SE22 9BD", "addr:country": "GB", "name": "MFG @ Murco Dulwich SS FS214", "brand": "Costa Coffee"}, "geometry": {"type": "Point", "coordinates": [-0.0690085, 51.4619]}},
{"type": "Feature", "id": "nxc-E4_4c3htAFt4Mysw3C_hhUk=", "properties": {"ref": "43036925", "@spider": "costacoffee", "addr:full": "3 Southwark Street", "addr:postcode": "SE1 1RQ", "name": "Southwark Street", "brand": "Costa Coffee"}, "geometry": {"type": "Point", "coordinates": [-0.0908451, 51.5046]}},
{"type": "Feature", "id": "kjxCgScZc5R3NQmzU9JNCLfhYNQ=", "properties": {"ref": "61079164", "@spider": "costacoffee", "addr:full": "Petrol Filling Station, Aylesham Centre", "addr:city": "Peckham", "addr:postcode": "SE15 5EW", "addr:country": "GB", "name": "WM Morrisons @ London Peckham PFS 306", "brand": "Costa Coffee"}, "geometry": {"type": "Point", "coordinates": [-0.0687485, 51.4728]}},
{"type": "Feature", "id": "Qcr2dH8I_VxmXGgbOA5OgisDBw0=", "properties": {"ref": "60022865", "@spider": "costacoffee", "addr:full": "Esso The Vale Service Station 383-393 Edgware Road 383-393 Edgware Road", "addr:city": "Paddington", "addr:postcode": "W2 1BT", "addr:country": "GB", "name": "MFG @ The Vale FS867", "brand": "Costa Coffee"}, "geometry": {"type": "Point", "coordinates": [-0.17452, 51.5228]}},
{"type": "Feature", "id": "hfPJiWzN6qfWYudDQvZ21CluhpQ=", "properties": {"ref": "60016605", "@spider": "costacoffee", "addr:full": "7 - 11 Kingston Road", "addr:city": "London", "addr:postcode": "SW19 1JX", "addr:country": "GBR", "name": "Sainsburys Local Costa @ South Wimbledon Stn 4215", "brand": "Costa Coffee"}, "geometry": {"type": "Point", "coordinates": [-0.193312, 51.4157]}},
{"type": "Feature", "id": "grZjZmkc_HVTqrQq_q4xODHpvoA=", "properties": {"ref": "60005357", "@spider": "costacoffee", "addr:full": "Kenilworth Castle St. Anns Road St. Anns Road", "addr:city": "London", "addr:postcode": "W11 4BU", "addr:country": "GB", "name": "Co Op @ Notting Hill - St Anns Road", "brand": "Costa Coffee"}, "geometry": {"type": "Point", "coordinates": [-0.216473, 51.5107]}},
{"type": "Feature", "id": "jl-l2cbjgYAjI2i1oO4HrhWU5u4=", "properties": {"ref": "43041025", "@spider": "costacoffee", "addr:full": "2 Morden Road South Wimbledon  South Wimbledon", "addr:postcode": "SW19 3BH", "name": "South Wimbledon", "brand": "Costa Coffee"}, "geometry": {"type": "Point", "coordinates": [-0.192719, 51.4155]}},
{"type": "Feature", "id": "4TFTd9ng9XjD1-9f7oXW-F214eo=", "properties": {"ref": "60002339", "@spider": "costacoffee", "addr:full": "2 Morden Road South Wimbledon South Wimbledon", "addr:city": "London", "addr:postcode": "SW19 3BH", "addr:country": "GB", "name": "Tesco Express Costa @ Wimbledon Morden 6725", "brand": "Costa Coffee"}, "geometry": {"type": "Point", "coordinates": [-0.192719, 51.4155]}},
{"type": "Feature", "id": "bidyuMlAB_Y6SLu_EkgeBjK6v14=", "properties": {"ref": "60107012", "@spider": "costacoffee", "addr:full": "Shell Palestine Grove, 231 Western Road Mitcham Mitcham", "addr:city": "London", "addr:postcode": "SW19 2QD", "addr:country": "GB", "name": "Shell UK @ Western Road Core", "brand": "Costa Coffee"}, "geometry": {"type": "Point", "coordinates": [-0.178261, 51.4125]}},
{"type": "Feature", "id": "en8pn-IZkZJxq-nbXhEvFSQVmzY=", "properties": {"ref": "600022270", "@spider": "costacoffee", "addr:full": "120 Wimbledon Hill Ro", "addr:city": "London", "addr:postcode": "SW19 7QU", "addr:country": "GB", "name": "Tesco Express Costa @ Wimbledon Hill 5214", "brand": "Costa Coffee"}, "geometry": {"type": "Point", "coordinates": [-0.215679, 51.4238]}},
{"type": "Feature", "id": "QSgU-_OQW3mZeq-9nTSyM5ouXvI=", "properties": {"ref": "43015300", "@spider": "costacoffee", "addr:full": "13 New Bridge Street", "addr:postcode": "EC4V 6AF", "addr:country": "Middlesex", "name": "New Bridge Street", "brand": "Costa Coffee"}, "geometry": {"type": "Point", "coordinates": [-0.104442, 51.5131]}},
{"type": "Feature", "id": "BVif39QdHuk-4QGwuEXr9cbbcPU=", "properties": {"ref": "60055015", "@spider": "costacoffee", "addr:full": "223 Harrow Road Paddington Paddington", "addr:city": "London", "addr:postcode": "W2 5EH", "addr:country": "GB", "name": "Shell UK @ Westbourne Core", "brand": "Costa Coffee"}, "geometry": {"type": "Point", "coordinates": [-0.191412, 51.5203]}},
{"type": "Feature", "id": "hI8cap-5aIbC8_XyeE1xVy-LLxA=", "properties": {"ref": "60016597", "@spider": "costacoffee", "addr:full": "188-199 Portobello Road", "addr:city": "London", "addr:postcode": "W11 1LA", "addr:country": "GBR", "name": "Sainsburys Local Costa @ KC Portobello Rd 4273", "brand": "Costa Coffee"}, "geometry": {"type": "Point", "coordinates": [-0.204908, 51.5162]}},
{"type": "Feature", "id": "wVEtGXlTdkreZnEwXm6hP_WGjeU=", "properties": {"ref": "60016574", "@spider": "costacoffee", "addr:full": "11 Barnes High Street", "addr:city": "London", "addr:postcode": "SW13 9LW", "addr:country": "GBR", "name": "Sainsburys Local Costa @ Barnes High St 4226", "brand": "Costa Coffee"}, "geometry": {"type": "Point", "coordinates": [-0.248941, 51.4736]}},
{"type": "Feature", "id": "-5kxs5P7La_ovqEJlYJB2f_GEAw=", "properties": {"ref": "60016500", "@spider": "costacoffee", "addr:full": "13-14 Bermondsey Square", "addr:city": "London", "addr:postcode": "SE1 3UN", "addr:country": "GB", "name": "Sainsburys Local Costa @ Bermondsey Square 4820", "brand": "Costa Coffee"}, "geometry": {"type": "Point", "coordinates": [-0.0805889, 51.4975]}},
{"type": "Feature", "id": "kMishFEQgN1iyuwYDuzylsJfxk4=", "properties": {"ref": "61304001", "@spider": "costacoffee", "addr:full": "Lower Mortlake Road Richmond Richmond", "addr:city": "London", "addr:postcode": "TW9 2LL", "addr:country": "GB", "name": "NTS Retail Limited @ Beacon SS", "brand": "Costa Coffee"}, "geometry": {"type": "Point", "coordinates": [-0.195803, 51.4155]}},
{"type": "Feature", "id": "0IVWkC7RdTn7JItDZOhzMFfACvs=", "properties": {"ref": "43043775", "@spider": "costacoffee", "addr:full": "214 Uxbridge Road Shepherd's Bush Shepherd's Bush", "addr:postcode": "W12 7JD", "name": "Shepherd's Bush Market", "brand": "Costa Coffee"}, "geometry": {"type": "Point", "coordinates": [-0.226943, 51.5057]}},
{"type": "Feature", "id": "p3eoCK2KFSY4otDrFpL4vuu_eHo=", "properties": {"ref": "63454001", "@spider": "costacoffee", "addr:full": "Spar, 52 High Street Wimbledon Wimbledon", "addr:city": "London", "addr:postcode": "SW19 5AX", "addr:country": "GB", "name": "Checkout (Wimbledon) Limited @ Spar Wimbledon", "brand": "Costa Coffee"}, "geometry": {"type": "Point", "coordinates": [-0.220678, 51.4254]}},
{"type": "Feature", "id": "9Cb3L2o3It9tgXAIZGSRFehJx9s=", "properties": {"ref": "43025125", "@spider": "costacoffee", "addr:full": "112 Southampton Row", "addr:postcode": "WC1B 4BL", "name": "Southampton Row", "brand": "Costa Coffee"}, "geometry": {"type": "Point", "coordinates": [-0.122636, 51.5205]}},
{"type": "Feature", "id": "FFf0ryu4SbbtXM5og39D2ixnbQo=", "properties": {"ref": "62404001", "@spider": "costacoffee", "addr:full": "Unit 4 Milliners House Milliners House", "addr:city": "Wandsworth", "addr:postcode": "SW18 1LP", "addr:country": "GB", "name": "Soft Trading Ltd @ Nisa Hudsons Milliners House", "brand": "Costa Coffee"}, "geometry": {"type": "Point", "coordinates": [-0.0809052, 51.499]}},
{"type": "Feature", "id": "m-aOymQYk8rOo7SI6UKLf-mvTa0=", "properties": {"ref": "43047830", "@spider": "costacoffee", "addr:full": "Westfield London, Ground Floor Unit 1079A, Ariel Way Unit 1079A, Ariel Way", "addr:postcode": "W12 7GA", "addr:country": "Middlesex", "name": "Lon Westfield SC", "brand": "Costa Coffee"}, "geometry": {"type": "Point", "coordinates": [-0.222535, 51.509]}},
{"type": "Feature", "id": "Jn_83dzwPpYGJ_tpUK9XLUBq6AM=", "properties": {"ref": "600021291", "@spider": "costacoffee", "addr:full": "124 Tottenham Crt Exp", "addr:city": "London", "addr:postcode": "W1T 5AS", "addr:country": "GB", "name": "Tesco Express Costa @ 124 Tottenham Ct Rd 2775", "brand": "Costa Coffee"}, "geometry": {"type": "Point", "coordinates": [-0.137678, 51.5238]}},
{"type": "Feature", "id": "UKJva4p_RFWkAO3tgMqQO3FCfR4=", "properties": {"ref": "600022576", "@spider": "costacoffee", "addr:full": "327-343 King Street", "addr:city": "Hammersmith", "addr:postcode": "W6 9NH", "addr:country": "GB", "name": "Tesco Express Costa @ King St Hammersmith 2778", "brand": "Costa Coffee"}, "geometry": {"type": "Point", "coordinates": [-0.241682, 51.4932]}},
{"type": "Feature", "id": "AEex8GiPRsbH69z2xjGyyjYZvK8=", "properties": {"ref": "63240004", "@spider": "costacoffee", "addr:full": "238-240 Uxbridge Road", "addr:city": "London", "addr:postcode": "W12 7JD", "addr:country": "GB", "name": "F.A.B Retail Ltd @ Nisa Uxbridge Road", "brand": "Costa Coffee"}, "geometry": {"type": "Point", "coordinates": [-0.228104, 51.5059]}},
{"type": "Feature", "id": "1ymh56_kE4WAKWVDBsQnB2e5PS0=", "properties": {"ref": "61950001", "@spider": "costacoffee", "addr:full": "Simply Fresh 74-75 Warren Street 74-75 Warren Street", "addr:city": "London", "addr:postcode": "W1T 5PF", "addr:country": "GB", "name": "Simply Fresh @ Warren Street", "brand": "Costa Coffee"}, "geometry": {"type": "Point", "coordinates": [-0.138635, 51.5246]}},
{"type": "Feature", "id": "NC5j3J75oHUV8LHVCDrKRKwZv6E=", "properties": {"ref": "60009025", "@spider": "costacoffee", "addr:full": "20 Bedford Way", "addr:city": "London", "addr:postcode": "WC1H 0AL", "addr:country": "GB", "name": "Aramark @ Institute of Education 3281", "brand": "Costa Coffee"}, "geometry": {"type": "Point", "coordinates": [-0.127927, 51.5229]}},
{"type": "Feature", "id": "PHwhAnovvKne6xaiVdWGrB7-5IY=", "properties": {"ref": "43041930", "@spider": "costacoffee", "addr:full": "London Bridge Station, Railway Approach", "addr:postcode": "SE1 9SP", "addr:country": "Surrey", "name": "Lon London Bridge", "brand": "Costa Coffee"}, "geometry": {"type": "Point", "coordinates": [-0.0847756, 51.5043]}},
{"type": "Feature", "id": "0RM6btThCmkD7NJF3CmFlEZgB0w=", "properties": {"ref": "43044935", "@spider": "costacoffee", "addr:full": "Unit 66, London Bridge Station London Bridge Street London Bridge Street", "addr:postcode": "SE1 9GP", "addr:country": "Surrey", "name": "Lon London Bridge Stn U66", "brand": "Costa Coffee"}, "geometry": {"type": "Point", "coordinates": [-0.0847756, 51.5043]}},
{"type": "Feature", "id": "UnDf0MAhS1OPai6Zx1o9EsBXW0g=", "properties": {"ref": "60016545", "@spider": "costacoffee", "addr:full": "383 King Street", "addr:city": "London", "addr:postcode": "W6 9NJ", "addr:country": "GBR", "name": "Sainsburys Local Costa @ Hammersmith King St 4388", "brand": "Costa Coffee"}, "geometry": {"type": "Point", "coordinates": [-0.243507, 51.4933]}},
{"type": "Feature", "id": "KMfqwCnPjYpSxxHLMfMD0vMSZac=", "properties": {"ref": "60005742", "@spider": "costacoffee", "addr:full": "Retail Unit, Ground Floor 117 Bramley Road 117 Bramley Road", "addr:city": "London", "addr:postcode": "W10 6SZ", "addr:country": "GB", "name": "Co Op @ Latimer Road Station", "brand": "Costa Coffee"}, "geometry": {"type": "Point", "coordinates": [-0.217952, 51.5136]}},
{"type": "Feature", "id": "90kK4GNVO0fu1SQX1xERZ5UcpGc=", "properties": {"ref": "600022181", "@spider": "costacoffee", "addr:full": "21-29 Clifton Road", "addr:city": "Maida Vale", "addr:postcode": "W9 1SY", "addr:country": "GB", "name": "Tesco Express Costa @ Maida Vale Clifton Rd 2717", "brand": "Costa Coffee"}, "geometry": {"type": "Point", "coordinates": [-0.179404, 51.5253]}},
{"type": "Feature", "id": "Q35tz34DWIy5tfJZK1TKgap99cs=", "properties": {"ref": "60002170", "@spider": "costacoffee", "addr:full": "40 Bernard Street,Russell Square", "addr:city": "London", "addr:postcode": "WC1N 1QJ", "addr:country": "GBR", "name": "Tesco Express Costa @ Russell Square 2720", "brand": "Costa Coffee"}, "geometry": {"type": "Point", "coordinates": [-0.124477, 51.5233]}},
{"type": "Feature", "id": "L0obRdL6PKgUNgmDxx7T2GBcDuQ=", "properties": {"ref": "60016081", "@spider": "costacoffee", "addr:full": "161 - 165 Ladbroke Grove", "addr:city": "London", "addr:postcode": "W10 6HJ", "addr:country": "GB", "name": "Sainsburys Local Costa @ Ladbroke Grove Stn", "brand": "Costa Coffee"}, "geometry": {"type": "Point", "coordinates": [-0.210348, 51.5176]}},
{"type": "Feature", "id": "XSrrrOvwml4V3C2oD_Cz4tCynfk=", "properties": {"ref": "600021894", "@spider": "costacoffee", "addr:full": "21 High Holborn", "addr:city": "London", "addr:postcode": "WC1V 6BS", "addr:country": "GBR", "name": "Tesco Express Costa @ High Holborn 4851", "brand": "Costa Coffee"}, "geometry": {"type": "Point", "coordinates": [-0.10408, 51.5167]}},
{"type": "Feature", "id": "QmLzJe-Yvec9GDVQlIee04_afNs=", "properties": {"ref": "60691001", "@spider": "costacoffee", "addr:full": "Norbury Hill Service Station 78-80 Dunstble Road 78-80 Dunstble Road", "addr:city": "Toddington", "addr:postcode": "LU5 6DR", "addr:country": "GB", "name": "C R Pearce Garages Ltd @ Norbury Hill SS", "brand": "Costa Coffee"}, "geometry": {"type": "Point", "coordinates": [-0.109896, 51.4162]}},
{"type": "Feature", "id": "DufmGO2ScQ2_yHiTRBRdmiGUQWA=", "properties": {"ref": "60002505", "@spider": "costacoffee", "addr:full": "15-155 Queens Road", "addr:city": "Peckham", "addr:postcode": "SE15 2ND", "addr:country": "GB", "name": "Tesco Express Costa @ Peckham 6044", "brand": "Costa Coffee"}, "geometry": {"type": "Point", "coordinates": [-0.0631011, 51.474]}},
{"type": "Feature", "id": "Z75Oc_GOy17_2cJqasnLMe4ib8Y=", "properties": {"ref": "60005364", "@spider": "costacoffee", "addr:full": "Goldhawk Road Hammersmith Hammersmith", "addr:city": "London", "addr:postcode": "W12 8EU", "addr:country": "GB", "name": "Co Op @ London - 260 Goldhawk Road", "brand": "Costa Coffee"}, "geometry": {"type": "Point", "coordinates": [-0.238873, 51.5]}},
{"type": "Feature", "id": "RLEUFf4bQTyz1o6BqQSxdi-3MfY=", "properties": {"ref": "60022163", "@spider": "costacoffee", "addr:full": "7 Rowan Road", "addr:city": "Merton", "addr:postcode": "SW16 5JF", "addr:country": "GB", "name": "MFG @ Rowan Road FS370", "brand": "Costa Coffee"}, "geometry": {"type": "Point", "coordinates": [-0.1425, 51.4082]}},
{"type": "Feature", "id": "Mgv92fOudAGGE1LC3z8Ovit5jKE=", "properties": {"ref": "600022176", "@spider": "costacoffee", "addr:full": "177 Ladbroke Grove", "addr:city": "Ladbroke Grove", "addr:postcode": "W10 6HH", "addr:country": "GB", "name": "Tesco Express Costa @ Ladbroke Grove 4393", "brand": "Costa Coffee"}, "geometry": {"type": "Point", "coordinates": [-0.210824, 51.5184]}},
{"type": "Feature", "id": "5LAp0G-SFxJVzpk_zmOljzZK4mM=", "properties": {"ref": "43038710", "@spider": "costacoffee", "addr:full": "Unit 20-21, Hays Galleria, Counter Street", "addr:postcode": "SE1 2HD", "addr:country": "Surrey", "name": "Hays Galleria", "brand": "Costa Coffee"}, "geometry": {"type": "Point", "coordinates": [-0.0837156, 51.5062]}},
{"type": "Feature", "id": "TmypRLZNOh776VhTW_g5IzHlg5c=", "properties": {"ref": "60016533", "@spider": "costacoffee", "addr:full": "9-11 White Hart Lane", "addr:city": "London", "addr:postcode": "SW13 0PX", "addr:country": "GBR", "name": "Sainsburys Local Costa @ Barnes White Hart Ln 4818", "brand": "Costa Coffee"}, "geometry": {"type": "Point", "coordinates": [-0.255294, 51.4705]}},
{"type": "Feature", "id": "zs6br7vrg80WSDjOnY28IXll2Bo=", "properties": {"ref": "43034325", "@spider": "costacoffee", "addr:full": "7 More London PI, UE Unit E, 7 More London PI Unit E, 7 More London PI", "addr:postcode": "SE1 2AF", "addr:country": "Surrey", "name": "London Tooley Street", "brand": "Costa Coffee"}, "geometry": {"type": "Point", "coordinates": [-0.0811399, 51.5044]}},
{"type": "Feature", "id": "qBqO3zGgHTSSS8kZfQNvQJK3Co8=", "properties": {"ref": "43011685", "@spider": "costacoffee", "addr:full": "Dining Wall 138 Cheapside 138 Cheapside", "addr:postcode": "EC2V 6LB", "addr:country": "Greater London", "name": "Cheapside 2", "brand": "Costa Coffee"}, "geometry": {"type": "Point", "coordinates": [-0.0975405, 51.5149]}},
{"type": "Feature", "id": "Tl7ma0zlizbLA4ffdq_BOWQgu0o=", "properties": {"ref": "60005158", "@spider": "costacoffee", "addr:full": "29 Roehampton Vale Roehampton Roehampton", "addr:city": "London", "addr:postcode": "SW15 3DX", "addr:country": "GB", "name": "Co Op @ Petrol Roehampton Vale", "brand": "Costa Coffee"}, "geometry": {"type": "Point", "coordinates": [-0.245067, 51.4401]}},
{"type": "Feature", "id": "QVeVplUNEZCNSLZqcKO9TA4Ao5g=", "properties": {"ref": "43033820", "@spider": "costacoffee", "addr:full": "86 Hatton Garden", "addr:postcode": "EC1N 8QQ", "addr:country": "Middlesex", "name": "Hatton Garden", "brand": "Costa Coffee"}, "geometry": {"type": "Point", "coordinates": [-0.108511, 51.5197]}},
{"type": "Feature", "id": "GFAXcCW0ySA1xImd5nB_9VzQ3cw=", "properties": {"ref": "43037290", "@spider": "costacoffee", "addr:full": "126 Cannon Street", "addr:postcode": "EC4N 6AS", "addr:country": "Middlesex", "name": "Lon Cannon St", "brand": "Costa Coffee"}, "geometry": {"type": "Point", "coordinates": [-0.0903503, 51.5111]}},
{"type": "Feature", "id": "evyC-Ph6Gyk8lXNRbP02cbvElWg=", "properties": {"ref": "60055010", "@spider": "costacoffee", "addr:full": "372 Goldhawk Road Hammersmith Hammersmith", "addr:city": "London", "addr:postcode": "W6 0XF", "addr:country": "GB", "name": "Shell UK @ Hammersmith Core", "brand": "Costa Coffee"}, "geometry": {"type": "Point", "coordinates": [-0.244717, 51.4959]}},
{"type": "Feature", "id": "i3Mfvv3YDpzx0JA0yQccDbRs1rE=", "properties": {"ref": "43044480", "@spider": "costacoffee", "addr:full": "London Cannon Street Underground Station Cannon Street Cannon Street", "addr:postcode": "EC4N 6AP", "addr:country": "Middlesex", "name": "Lon Cannon St Tube", "brand": "Costa Coffee"}, "geometry": {"type": "Point", "coordinates": [-0.0903167, 51.5113]}},
{"type": "Feature", "id": "g4MDDxdDRrYCtKUga_vZKd9rgJU=", "properties": {"ref": "60005324", "@spider": "costacoffee", "addr:full": "34-49 Grays Inn Road", "addr:city": "London", "addr:postcode": "WC1X 8PR", "addr:country": "GB", "name": "Co Op @ London - 39-43 Grays Inn Road", "brand": "Costa Coffee"}, "geometry": {"type": "Point", "coordinates": [-0.113708, 51.5218]}},
{"type": "Feature", "id": "P4cS9A7Pz3Kcyh4ulh4ue4QGLXs=", "properties": {"ref": "60016603", "@spider": "costacoffee", "addr:full": "83 - 89 Queens Road", "addr:city": "London", "addr:postcode": "SE15 2EZ", "addr:country": "GBR", "name": "Sainsburys Local Costa @ Peckhm Queens Rd 6494", "brand": "Costa Coffee"}, "geometry": {"type": "Point", "coordinates": [-0.0609458, 51.4741]}},
{"type": "Feature", "id": "yO6swIoeKVPWMX2HypCtqcOCJFE=", "properties": {"ref": "43029860", "@spider": "costacoffee", "addr:full": "55 Marchmont Street", "addr:postcode": "WC1N 1AP", "name": "Marchmont Street", "brand": "Costa Coffee"}, "geometry": {"type": "Point", "coordinates": [-0.125389, 51.5251]}},
{"type": "Feature", "id": "QINR2fJyK20e0w9uoGJ0qeDgh2c=", "properties": {"ref": "60002349", "@spider": "costacoffee", "addr:full": "10 Smithfield Street", "addr:city": "London", "addr:postcode": "EC1A 9LA", "addr:country": "GB", "name": "Tesco Express Costa @ Smithfield 5152", "brand": "Costa Coffee"}, "geometry": {"type": "Point", "coordinates": [-0.102934, 51.5181]}},
{"type": "Feature", "id": "KZ3i3Ck_tkjtU3PjflKt0nqLYl8=", "properties": {"ref": "600051580", "@spider": "costacoffee", "addr:full": "1485-1489 London Road", "addr:city": "London", "addr:postcode": "SW16 4AE", "addr:country": "GB", "name": "Co Op @ Norbury - London Road 5662", "brand": "Costa Coffee"}, "geometry": {"type": "Point", "coordinates": [-0.123038, 51.4104]}},
{"type": "Feature", "id": "Jw095Te0XBUarcQ43SlGofDCZsk=", "properties": {"ref": "60016457", "@spider": "costacoffee", "addr:full": "1 Tower Bridge Road Southwark Southwark", "addr:city": "London", "addr:postcode": "SE1 2HZ", "addr:country": "GB", "name": "Sainsburys Local Costa @ Southwark 4545", "brand": "Costa Coffee"}, "geometry": {"type": "Point", "coordinates": [-0.0773316, 51.503]}},
{"type": "Feature", "id": "SrVwOLr1gTW68Di0SdFLchR8lns=", "properties": {"ref": "60016554", "@spider": "costacoffee", "addr:full": "167-181 Askew Road", "addr:city": "London", "addr:postcode": "W12 9AX", "addr:country": "GBR", "name": "Sainsburys Local Costa @ London Askew Road 4925", "brand": "Costa Coffee"}, "geometry": {"type": "Point", "coordinates": [-0.241134, 51.5018]}},
{"type": "Feature", "id": "4PNnyvGTJvFjcUFOxP33vtGQkZg=", "properties": {"ref": "60002485", "@spider": "costacoffee", "addr:full": "43 - 45 Farringdon Road", "addr:city": "London", "addr:postcode": "EC1M 3JB", "addr:country": "GB", "name": "Tesco Express Costa @ Farringdon Road 5926", "brand": "Costa Coffee"}, "geometry": {"type": "Point", "coordinates": [-0.106091, 51.5203]}},
{"type": "Feature", "id": "OEqMcg9OjpN5SUYpqsRdw9sb644=", "properties": {"ref": "600021849", "@spider": "costacoffee", "addr:full": "80B Cheapside", "addr:city": "London", "addr:postcode": "EC2V 6EE", "addr:country": "GB", "name": "Tesco Metro Costa @ Cheapside 2265", "brand": "Costa Coffee"}, "geometry": {"type": "Point", "coordinates": [-0.0916298, 51.5136]}},
{"type": "Feature", "id": "2oEQnKNEBV1DBG2fmmXMIurEdEM=", "properties": {"ref": "43012035", "@spider": "costacoffee", "addr:full": "46 Cowcross Street", "addr:postcode": "EC1M 6BY", "addr:country": "Middlesex", "name": "Cowcross Street", "brand": "Costa Coffee"}, "geometry": {"type": "Point", "coordinates": [-0.105087, 51.52]}},
{"type": "Feature", "id": "jXO5fGNSnIyZu4kVQ4kOIT6HnzE=", "properties": {"ref": "60016429", "@spider": "costacoffee", "addr:full": "Jameson House Clerkenwell Rd, Holborn Clerkenwell Rd, Holborn", "addr:city": "London", "addr:postcode": "EC1R 5DG", "addr:country": "GB", "name": "Sainsburys Local Costa @ Clerkenwell Road 4473", "brand": "Costa Coffee"}, "geometry": {"type": "Point", "coordinates": [-0.109953, 51.5222]}},
{"type": "Feature", "id": "s6DeRgIwBfcxNoWZjOAi3e7zNXE=", "properties": {"ref": "43038490", "@spider": "costacoffee", "addr:full": "351 Harrow Road", "addr:postcode": "W9 3RA", "name": "Harrow Road ", "brand": "Costa Coffee"}, "geometry": {"type": "Point", "coordinates": [-0.201572, 51.524]}},
{"type": "Feature", "id": "vp0mSMCL28yQ5g9z_BR9iSrRApU=", "properties": {"ref": "60002122", "@spider": "costacoffee", "addr:full": "115 Sutherland Avenue Maida Vale Maida Vale", "addr:city": "London", "addr:postcode": "W9 1UP", "addr:country": "GB", "name": "Tesco Express Costa @ Maida Vale 2861", "brand": "Costa Coffee"}, "geometry": {"type": "Point", "coordinates": [-0.181932, 51.5284]}},
{"type": "Feature", "id": "qldTL3xeaKPBQlEwNYSpoPeOazU=", "properties": {"ref": "43032110", "@spider": "costacoffee", "addr:full": "111 Guilford Street", "addr:postcode": "WC1N 1DP", "name": "Guilford Street", "brand": "Costa Coffee"}, "geometry": {"type": "Point", "coordinates": [-0.116223, 51.5245]}},
{"type": "Feature", "id": "X7oYIjy5Qs4e5SOzGi4KF6fPUqU=", "properties": {"ref": "600021413", "@spider": "costacoffee", "addr:full": "186-188 Southwark Park Rd Bermondsey Bermondsey", "addr:city": "London", "addr:postcode": "SE16 3RP", "addr:country": "GB", "name": "Tesco Express Costa @ Bermondsey Park Exp 6070", "brand": "Costa Coffee"}, "geometry": {"type": "Point", "coordinates": [-0.0655787, 51.4921]}},
{"type": "Feature", "id": "XhxgkLb6HmeVy32NeZZlttsH0u0=", "properties": {"ref": "43025380", "@spider": "costacoffee", "addr:full": "1 Dukes Road Euston Euston", "addr:postcode": "WC1H 9PJ", "name": "PI - (Costa Franchise) Euston 44512655", "brand": "Costa Coffee"}, "geometry": {"type": "Point", "coordinates": [-0.129174, 51.5278]}},
{"type": "Feature", "id": "WCiMwkf_vAFsTEBiygGXoevKCKQ=", "properties": {"ref": "43041245", "@spider": "costacoffee", "addr:full": "1411 - 1413 London Road Norbury Norbury", "addr:postcode": "SW16 4AH", "name": "Norbury", "brand": "Costa Coffee"}, "geometry": {"type": "Point", "coordinates": [-0.122251, 51.4088]}},
{"type": "Feature", "id": "K0HDFSLL0AwwBTOfC9G66TPsJy4=", "properties": {"ref": "60022119", "@spider": "costacoffee", "addr:full": "747-759 Old Kent Road", "addr:city": "London", "addr:postcode": "SE15 1NZ", "addr:country": "GB", "name": "MFG @ Murco Hopfield SS FS170", "brand": "Costa Coffee"}, "geometry": {"type": "Point", "coordinates": [-0.0591698, 51.4807]}},
{"type": "Feature", "id": "UhvvChHvkBqp_HQKDEiiKDDa1yI=", "properties": {"ref": "43039625", "@spider": "costacoffee", "addr:full": "120 Askew Road Shepherds Bush Shepherds Bush", "addr:postcode": "W12 9BL", "name": "Askew Road", "brand": "Costa Coffee"}, "geometry": {"type": "Point", "coordinates": [-0.2428, 51.5026]}},
{"type": "Feature", "id": "ygv0wbInZygzaSNopiL-UVUz6YM=", "properties": {"ref": "600021379", "@spider": "costacoffee", "addr:full": "Bbc Media Centre 201 Wood Lane 201 Wood Lane", "addr:city": "White City", "addr:postcode": "W12 7TU", "addr:country": "GB", "name": "Tesco Express Costa @ White City 3458", "brand": "Costa Coffee"}, "geometry": {"type": "Point", "coordinates": [-0.227281, 51.514]}},
{"type": "Feature", "id": "C2I-aId6UW8bRUNWnz4FqX4GZ5I=", "properties": {"ref": "600021973", "@spider": "costacoffee", "addr:full": "93 Askew Rd Shepherds Bush Shepherds Bush", "addr:city": "London", "addr:postcode": "W12 9AS", "addr:country": "GB", "name": "Tesco Express Costa @ Askew Rd Shep Bush 6215", "brand": "Costa Coffee"}, "geometry": {"type": "Point", "coordinates": [-0.243136, 51.5026]}},
{"type": "Feature", "id": "VDnTAfkD54wclC-MCTSsGw_MRbc=", "properties": {"ref": "60038012", "@spider": "costacoffee", "addr:full": "112-122 Gypsy Hill Crystal Palace Crystal Palace", "addr:city": "London", "addr:postcode": "SE19 1PL", "addr:country": "GB", "name": "Shell UK @ Gypsy Hill Core", "brand": "Costa Coffee"}, "geometry": {"type": "Point", "coordinates": [-0.083314, 51.4239]}},
{"type": "Feature", "id": "2nmTOoCEYL6ncim1su86WpGGMJo=", "properties": {"ref": "43032365", "@spider": "costacoffee", "addr:full": "The Cafe, Tower Vaults 1 Tower Hill Terrace 1 Tower Hill Terrace", "addr:postcode": "EC3N 4EE", "addr:country": "Middlesex", "name": "London Tower Vaults", "brand": "Costa Coffee"}, "geometry": {"type": "Point", "coordinates": [-0.078698, 51.509]}},
{"type": "Feature", "id": "f2xtLF4RqKPTtGv7sPYUQwgrapI=", "properties": {"ref": "63582001", "@spider": "costacoffee", "addr:full": "235-239 Wood Lane", "addr:city": "Shepherds Bush", "addr:postcode": "W12 0HL", "addr:country": "GB", "name": "Temka Ltd @ Nisa Woodlane", "brand": "Costa Coffee"}, "geometry": {"type": "Point", "coordinates": [-0.22707, 51.5163]}},
{"type": "Feature", "id": "W6hbc3KmuE2fMSsb_RQVpWQLUKg=", "properties": {"ref": "60002012", "@spider": "costacoffee", "addr:full": "131 Aldersgate Street Barbican Barbican", "addr:city": "London", "addr:postcode": "EC1A 4JQ", "addr:country": "GB", "name": "Tesco Express Costa @ Barbican 5380", "brand": "Costa Coffee"}, "geometry": {"type": "Point", "coordinates": [-0.0977477, 51.5206]}},
{"type": "Feature", "id": "7-oSNzjgIToQRb066eNMEAsHmo4=", "properties": {"ref": "62011001", "@spider": "costacoffee", "addr:full": "Londis 57 - 59 Church Road 57 - 59 Church Road", "addr:city": "Mitcham", "addr:postcode": "CR4 3BF", "addr:country": "GB", "name": "Barrack Superstore Ltd @ Londis PO Chrch Rd", "brand": "Costa Coffee"}, "geometry": {"type": "Point", "coordinates": [-0.176218, 51.4035]}},
{"type": "Feature", "id": "HWxBH85gInhv26VijX-g8sNhHko=", "properties": {"ref": "60022741", "@spider": "costacoffee", "addr:full": "BP Lords Service Station 21-41 Wellington Road 21-41 Wellington Road", "addr:city": "St Johns Wood", "addr:postcode": "NW8 9SQ", "addr:country": "GB", "name": "MFG @ Lords FS594", "brand": "Costa Coffee"}, "geometry": {"type": "Point", "coordinates": [-0.172012, 51.5322]}},
{"type": "Feature", "id": "-Gs5z1_t9cDWgAwIlI150Sfkulw=", "properties": {"ref": "43035280", "@spider": "costacoffee", "addr:full": "257-259 Grays Inn Road", "addr:postcode": "WC1X 8QT", "addr:country": "Middlesex", "name": "London Grays Inn Rd", "brand": "Costa Coffee"}, "geometry": {"type": "Point", "coordinates": [-0.119963, 51.5289]}},
{"type": "Feature", "id": "2ABHnMnJVkIR76umetovROMUm_4=", "properties": {"ref": "60005262", "@spider": "costacoffee", "addr:full": "275 Grays Inn Road", "addr:city": "London", "addr:postcode": "WC1H 8BD", "addr:country": "GB", "name": "Co Op @ London - 275 Grays Inn Road", "brand": "Costa Coffee"}, "geometry": {"type": "Point", "coordinates": [-0.120137, 51.5292]}},
{"type": "Feature", "id": "EAWL2Dll0fAnkTaKhlt_0b6hy7o=", "properties": {"ref": "61207001", "@spider": "costacoffee", "addr:full": "2-4 New Cross Road", "addr:city": "London", "addr:postcode": "SE14 5BE", "addr:country": "GB", "name": "Grove Retail @ Southwark SS", "brand": "Costa Coffee"}, "geometry": {"type": "Point", "coordinates": [-0.0533884, 51.4781]}},
{"type": "Feature", "id": "9o3xi6CAlDGwM51UtQ9fQ3EieBs=", "properties": {"ref": "600022095", "@spider": "costacoffee", "addr:full": "Brewnhouse Yard St John Street St John Street", "addr:city": "Clerkenwell", "addr:postcode": "EC1V 4JD", "addr:country": "GB", "name": "Tesco Express Costa @ Clerkenwell 5222", "brand": "Costa Coffee"}, "geometry": {"type": "Point", "coordinates": [-0.10254, 51.524]}},
{"type": "Feature", "id": "EFydNPxc0OE9ZJzoYA0ms1K3bes=", "properties": {"ref": "63471004", "@spider": "costacoffee", "addr:full": "297-307 Southwark Park Road", "addr:city": "London", "addr:postcode": "SE16 2JN", "addr:country": "GB", "name": "Shell UK @ Southwark Park Core", "brand": "Costa Coffee"}, "geometry": {"type": "Point", "coordinates": [-0.0597625, 51.4926]}},
{"type": "Feature", "id": "vvluN8EQGMO-1Q2wv0DMFmWbCOc=", "properties": {"ref": "60002439", "@spider": "costacoffee", "addr:full": "St Katherine Dock St Katherine Way St Katherine Way", "addr:city": "London", "addr:postcode": "E1W 1LE", "addr:country": "GB", "name": "Tesco Express Costa @ St Katherine 2249", "brand": "Costa Coffee"}, "geometry": {"type": "Point", "coordinates": [-0.0718167, 51.5064]}},
{"type": "Feature", "id": "fZ5u6BT1x6n53RuTyRWcmvimgO8=", "properties": {"ref": "60005455", "@spider": "costacoffee", "addr:full": "1-7 Tysoe Street Finsbury Finsbury", "addr:city": "London", "addr:postcode": "EC1R 4SA", "addr:country": "GB", "name": "Co Op @ Finsbury - Tysoe Street", "brand": "Costa Coffee"}, "geometry": {"type": "Point", "coordinates": [-0.108573, 51.5264]}},
{"type": "Feature", "id": "_a4hksq_Z4YAatCZHUEzpwXKf6g=", "properties": {"ref": "600051564", "@spider": "costacoffee", "addr:full": "94-98 Turnmill Street Farringdon Farringdon", "addr:city": "London", "addr:postcode": "EC1M 5QP", "addr:country": "GB", "name": "Co Op @ Farringdon 3612", "brand": "Costa Coffee"}, "geometry": {"type": "Point", "coordinates": [-0.108618, 51.5265]}},
{"type": "Feature", "id": "55EsfUN6eyggurAz599cgryyxpA=", "properties": {"ref": "60038007", "@spider": "costacoffee", "addr:full": "4 Crystal Palace Parade. Upper Norwood Upper Norwood", "addr:city": "London", "addr:postcode": "SE19 1UN", "addr:country": "GB", "name": "Shell UK @ Crystal Palace Core", "brand": "Costa Coffee"}, "geometry": {"type": "Point", "coordinates": [-0.07569, 51.4251]}},
{"type": "Feature", "id": "zel-bqHjIExYuC9bTmcUvQcV0qc=", "properties": {"ref": "43029540", "@spider": "costacoffee", "addr:full": "Unit 3 Kings Cross & St Pancra Euston Road Euston Road", "addr:postcode": "N1 9AL", "addr:country": "Greater London", "name": "London Euston Road", "brand": "Costa Coffee"}, "geometry": {"type": "Point", "coordinates": [-0.126133, 51.5314]}},
{"type": "Feature", "id": "MDkg4P6-TcK_uhZWiUry4H1SdUo=", "properties": {"ref": "63492001", "@spider": "costacoffee", "addr:full": "Welcome Co-op 15-17 Central Hill 15-17 Central Hill", "addr:city": "Upper Norwood", "addr:postcode": "SE19 1BG", "addr:country": "GB", "name": "Jala Ashish Ltd @ Welcome Co-Op Central Hill", "brand": "Costa Coffee"}, "geometry": {"type": "Point", "coordinates": [-0.0837608, 51.4195]}},
{"type": "Feature", "id": "EFc1ylWlRxnecqyXjcSyuJiV7iI=", "properties": {"ref": "43037740", "@spider": "costacoffee", "addr:full": "246 Chiswick High Rd", "addr:postcode": "W4 1PD", "addr:country": "Middlesex", "name": "Lon Chiswick", "brand": "Costa Coffee"}, "geometry": {"type": "Point", "coordinates": [-0.258364, 51.4927]}},
{"type": "Feature", "id": "FBG0wDd2sOujC96h6-lRQlZlCOk=", "properties": {"ref": "43013175", "@spider": "costacoffee", "addr:full": "68 Goswell Road", "addr:postcode": "EC1M 7AD", "addr:country": "Middlesex", "name": "Goswell Road", "brand": "Costa Coffee"}, "geometry": {"type": "Point", "coordinates": [-0.0980556, 51.5233]}},
{"type": "Feature", "id": "I-sIDhk3-JasJ7qed1Vt8k68P8w=", "properties": {"ref": "63319001", "@spider": "costacoffee", "addr:full": "41-45 Charlbert Street", "addr:city": "London", "addr:postcode": "NW8 6JN", "addr:country": "GB", "name": "Unistar Wholesale Ltd @ St Johns Wood Supermarket", "brand": "Costa Coffee"}, "geometry": {"type": "Point", "coordinates": [-0.168499, 51.5345]}},
{"type": "Feature", "id": "0Mxp3UmfEV7ka9SY0r6CpTmvdcY=", "properties": {"ref": "60002080", "@spider": "costacoffee", "addr:full": "86 London Road Forest Hill Forest Hill", "addr:city": "London", "addr:postcode": "SE23 3PE", "addr:country": "GB", "name": "Tesco Express Costa @ Forest Hill 2556", "brand": "Costa Coffee"}, "geometry": {"type": "Point", "coordinates": [-0.0594277, 51.4408]}},
{"type": "Feature", "id": "CD2ywHsvtCav-vK_zQg7GPb-K4E=", "properties": {"ref": "600022124", "@spider": "costacoffee", "addr:full": "248 Chiswick High Roa", "addr:city": "Chiswick", "addr:postcode": "W4 1PD", "addr:country": "GB", "name": "Tesco Express Costa @ Chiswick 2725", "brand": "Costa Coffee"}, "geometry": {"type": "Point", "coordinates": [-0.258484, 51.4927]}},
{"type": "Feature", "id": "THS1aOqkOs0LRlQYeljecGLrJ3A=", "properties": {"ref": "60002132", "@spider": "costacoffee", "addr:full": "39-41 Sheen Lane Mortlake Mortlake", "addr:city": "London", "addr:postcode": "SW14 8AB", "addr:country": "GB", "name": "Tesco Express Costa @ Mortlake 6032", "brand": "Costa Coffee"}, "geometry": {"type": "Point", "coordinates": [-0.266346, 51.4676]}},
{"type": "Feature", "id": "hZB5HuErGTe06mZ-zuUF-_hLpvQ=", "properties": {"ref": "43041030", "@spider": "costacoffee", "addr:full": "363-365 Kingston Road Wimbledon Chase Wimbledon Chase", "addr:postcode": "SW20 8JX", "name": "Wimbledon Chase", "brand": "Costa Coffee"}, "geometry": {"type": "Point", "coordinates": [-0.213161, 51.4096]}},
{"type": "Feature", "id": "JFkYFnIipnh5ghi6JIA88DVxUng=", "properties": {"ref": "60005877", "@spider": "costacoffee", "addr:full": "276-288 Kingston Road Wimbledon Chase Wimbledon Chase", "addr:city": "London", "addr:postcode": "SW20 8LX", "addr:country": "GB", "name": "Co Op @ Wimbledon Chase", "brand": "Costa Coffee"}, "geometry": {"type": "Point", "coordinates": [-0.212824, 51.4094]}},
{"type": "Feature", "id": "1sHh0u8l62OTK6u5clLe19Ub7Fs=", "properties": {"ref": "600022642", "@spider": "costacoffee", "addr:full": "367-373 Kingston Rd Wimbledon Chase Wimbledon Chase", "addr:city": "London", "addr:postcode": "SW20 8JX", "addr:country": "GB", "name": "Tesco Express Costa @ Wimbledon Chase 6071", "brand": "Costa Coffee"}, "geometry": {"type": "Point", "coordinates": [-0.213513, 51.4096]}},
{"type": "Feature", "id": "rAtjuwBDqz2r3lluQmdjTLrP1WY=", "properties": {"ref": "60022758", "@spider": "costacoffee", "addr:full": "Esso Mortlake Service Station 16-26 Sheen Lane 16-26 Sheen Lane", "addr:city": "Mortlake", "addr:postcode": "SW14 8LW", "addr:country": "GB", "name": "MFG @ Mortlake FS860", "brand": "Costa Coffee"}, "geometry": {"type": "Point", "coordinates": [-0.266858, 51.4673]}},
{"type": "Feature", "id": "U3gHZ2xfC_NGiGjhjRoWhanOTyQ=", "properties": {"ref": "43045050", "@spider": "costacoffee", "addr:full": "Unit M1, West Side Kings Cross Station, Pancras Road Kings Cross Station, Pancras Road", "addr:postcode": "N1C 4AP", "addr:country": "Middlesex", "name": "Lon Kings Cross Stn", "brand": "Costa Coffee"}, "geometry": {"type": "Point", "coordinates": [-0.123474, 51.5318]}},
{"type": "Feature", "id": "bYlKt0rWP0h-S00Qd7ZbsforaR4=", "properties": {"ref": "43024185", "@spider": "costacoffee", "addr:full": "3 Millbrook Place Mornington Crescent Mornington Crescent", "addr:postcode": "NW1 2JA", "name": "Mornington Crescent", "brand": "Costa Coffee"}, "geometry": {"type": "Point", "coordinates": [-0.138727, 51.5344]}},
{"type": "Feature", "id": "wtUDMCJJIB9xuBlRbazfUJLqSGs=", "properties": {"ref": "43041950", "@spider": "costacoffee", "addr:full": "1 Aldgate", "addr:postcode": "EC3N 1RE", "addr:country": "Middlesex", "name": "Lon Aldgate", "brand": "Costa Coffee"}, "geometry": {"type": "Point", "coordinates": [-0.0770716, 51.5133]}},
{"type": "Feature", "id": "P0fqrhVKUgVqN5xFXewUfGd9RGs=", "properties": {"ref": "43027980", "@spider": "costacoffee", "addr:full": "9 Eldon Street Broadgate Broadgate", "addr:postcode": "EC2M 7LS", "addr:country": "Middlesex", "name": "Eldon Street", "brand": "Costa Coffee"}, "geometry": {"type": "Point", "coordinates": [-0.0858569, 51.5188]}},
{"type": "Feature", "id": "hdNnJfFKt62z5Kj7ziRecXcL1d8=", "properties": {"ref": "43025355", "@spider": "costacoffee", "addr:full": "26 - 30 York Way Kings Cross Kings Cross", "addr:postcode": "N1 9AA", "name": "PI - (Costa Franchise) Kings Cross 44521675", "brand": "Costa Coffee"}, "geometry": {"type": "Point", "coordinates": [-0.122163, 51.532]}},
{"type": "Feature", "id": "DTA4AVZJsRAi7Qnl9gVMA0sdo2k=", "properties": {"ref": "600022347", "@spider": "costacoffee", "addr:full": "385-387 Upper Richmond Rd W East Sheen East Sheen", "addr:city": "London", "addr:postcode": "SW14 7NX", "addr:country": "GB", "name": "Tesco Express Costa @ East Sheen 5934", "brand": "Costa Coffee"}, "geometry": {"type": "Point", "coordinates": [-0.267754, 51.4643]}},
{"type": "Feature", "id": "tHoVghAit-ow8h-lSUOANMbCy-E=", "properties": {"ref": "60022246", "@spider": "costacoffee", "addr:full": "30 The Vale Acton Acton", "addr:city": "London", "addr:postcode": "W3 7RS", "addr:country": "GB", "name": "MFG @ Acton Vale FS", "brand": "Costa Coffee"}, "geometry": {"type": "Point", "coordinates": [-0.249072, 51.5059]}},
{"type": "Feature", "id": "pmqG-TrSCgWT3d6hkOUfo9ToR0w=", "properties": {"ref": "43014495", "@spider": "costacoffee", "addr:full": "17-18 Liverpool Street", "addr:postcode": "EC2M 7PD", "addr:country": "Middlesex", "name": "Liverpool Street", "brand": "Costa Coffee"}, "geometry": {"type": "Point", "coordinates": [-0.0834979, 51.5175]}},
{"type": "Feature", "id": "2tYjFcG3Sbaa8-IOJJCuYTjtdRU=", "properties": {"ref": "600021098", "@spider": "costacoffee", "addr:full": "21 Caledonian Road", "addr:city": "London", "addr:postcode": "N1 9DX", "addr:country": "GB", "name": "Tesco Metro Costa @ Kings Cross 2789", "brand": "Costa Coffee"}, "geometry": {"type": "Point", "coordinates": [-0.121042, 51.5318]}},
{"type": "Feature", "id": "AoaPmh0mdL91_0KTHcURMiETcKQ=", "properties": {"ref": "60002049", "@spider": "costacoffee", "addr:full": "24 Chiswell Street", "addr:city": "London", "addr:postcode": "EC1Y 4TY", "addr:country": "GB", "name": "Tesco Express Costa @ Chiswell St 6545", "brand": "Costa Coffee"}, "geometry": {"type": "Point", "coordinates": [-0.0896528, 51.5209]}},
{"type": "Feature", "id": "yzYHio0LRQ9h9DqC6_kMJnG4oig=", "properties": {"ref": "43022330", "@spider": "costacoffee", "addr:full": "389 Upper Richmond Road West East Sheen East Sheen", "addr:postcode": "SW14 7NX", "addr:country": "Surrey", "name": "East Sheen", "brand": "Costa Coffee"}, "geometry": {"type": "Point", "coordinates": [-0.26792, 51.4643]}},
{"type": "Feature", "id": "2bmGiwGl-ImCxa43yEmvJyDpevc=", "properties": {"ref": "43047980", "@spider": "costacoffee", "addr:full": "64 London Road Morden Morden", "addr:postcode": "SM4 5BE", "name": "Morden", "brand": "Costa Coffee"}, "geometry": {"type": "Point", "coordinates": [-0.19421, 51.4025]}},
{"type": "Feature", "id": "o-uGxUuMZLknKfESFqppZ47OfoU=", "properties": {"ref": "60002355", "@spider": "costacoffee", "addr:full": "90 Mansell Street", "addr:city": "London", "addr:postcode": "E1 8AL", "addr:country": "GB", "name": "Tesco Express Costa @ Mansell 5956", "brand": "Costa Coffee"}, "geometry": {"type": "Point", "coordinates": [-0.073472, 51.512]}},
{"type": "Feature", "id": "0YtepGQxJAjPvOb6lFm-gypd4dY=", "properties": {"ref": "60002187", "@spider": "costacoffee", "addr:full": "142 Houndsditch Aldgate Aldgate", "addr:city": "London", "addr:postcode": "EC3A 7DH", "addr:country": "GB", "name": "Tesco Express Costa @ St Botolphs 6346", "brand": "Costa Coffee"}, "geometry": {"type": "Point", "coordinates": [-0.0768507, 51.5144]}},
{"type": "Feature", "id": "CGSECR9g081Gf1DkVyKl0cC1QNQ=", "properties": {"ref": "60005652", "@spider": "costacoffee", "addr:full": "Station Parade", "addr:city": "Chiswick", "addr:postcode": "W4 3HD", "addr:country": "GB", "name": "Co-op @ Chiswick, Station Parade", "brand": "Costa Coffee"}, "geometry": {"type": "Point", "coordinates": [-0.267901, 51.4815]}},
{"type": "Feature", "id": "MHFW685gYals6i-ulo6smZqTNQ4=", "properties": {"ref": "600022551", "@spider": "costacoffee", "addr:full": "Central Street", "addr:city": "Clerkenwell", "addr:postcode": "EC1V 3AF", "addr:country": "GB", "name": "Tesco Express Costa @ Clerkenwell Central 6787", "brand": "Costa Coffee"}, "geometry": {"type": "Point", "coordinates": [-0.0965354, 51.5259]}},
{"type": "Feature", "id": "qwOPWwmbgqxQja7RyZWEAz1hFmE=", "properties": {"ref": "63814001", "@spider": "costacoffee", "addr:full": "395-397 London Road", "addr:city": "Mitcham", "addr:postcode": "CR4 4BG", "addr:country": "GBR", "name": "Uthayakumar Kanagarajah @ Nisa Local Mitcham", "brand": "Costa Coffee"}, "geometry": {"type": "Point", "coordinates": [-0.171976, 51.3983]}},
{"type": "Feature", "id": "DX1ViUgf-MHLDTdJDNpdSbULzkA=", "properties": {"ref": "600021890", "@spider": "costacoffee", "addr:full": "122-128 Pentonville Road", "addr:city": "London", "addr:postcode": "N1 9TT", "addr:country": "GB", "name": "Tesco Express Costa @ Pentonville Road", "brand": "Costa Coffee"}, "geometry": {"type": "Point", "coordinates": [-0.112627, 51.5317]}},
{"type": "Feature", "id": "hSx6sEIkk5hYncLDfXQoJIAZNCY=", "properties": {"ref": "60016428", "@spider": "costacoffee", "addr:full": "33 Mansell Street", "addr:city": "London", "addr:postcode": "E1 8AA", "addr:country": "GB", "name": "Sainsburys Local Costa @ Mansell Street 4210", "brand": "Costa Coffee"}, "geometry": {"type": "Point", "coordinates": [-0.0730194, 51.5134]}},
{"type": "Feature", "id": "x-kZxW_xxlkLHkqaDy9Zba5Fi5Y=", "properties": {"ref": "60016518", "@spider": "costacoffee", "addr:full": "Unit 1, 154 Vaughan Way", "addr:city": "London", "addr:postcode": "E1W 2AF", "addr:country": "GBR", "name": "Sainsburys Local Costa @ Wapping London Dock 6040", "brand": "Costa Coffee"}, "geometry": {"type": "Point", "coordinates": [-0.0669962, 51.5091]}},
{"type": "Feature", "id": "pyJG4QSRQ7tSHTRcpBfj79uZnFw=", "properties": {"ref": "43044345", "@spider": "costacoffee", "addr:full": "Esso Service Station Shannon Corner Shannon Corner", "addr:postcode": "KT3 6HF", "name": "KINGSTON", "brand": "Costa Coffee"}, "geometry": {"type": "Point", "coordinates": [-0.267929, 51.4849]}},
{"type": "Feature", "id": "T8nE3jNNxDqZJqXMYX_GrqJfxn0=", "properties": {"ref": "43045010", "@spider": "costacoffee", "addr:full": "7 London Road Forest Hill Forest Hill", "addr:postcode": "SE23 3TW", "addr:country": "Kent", "name": "Lon Forest Hill", "brand": "Costa Coffee"}, "geometry": {"type": "Point", "coordinates": [-0.0545829, 51.439]}},
{"type": "Feature", "id": "A1OPPRHn7ab--JmTrA10nsCMVT4=", "properties": {"ref": "600022108", "@spider": "costacoffee", "addr:full": "1-23 City Road", "addr:city": "London", "addr:postcode": "EC1Y 1AG", "addr:country": "GB", "name": "Tesco Express Costa @ City Rd 5912", "brand": "Costa Coffee"}, "geometry": {"type": "Point", "coordinates": [-0.0869646, 51.5228]}},
{"type": "Feature", "id": "hGYOYZjWIPFxBZML0MHQDteDvM4=", "properties": {"ref": "60100009", "@spider": "costacoffee", "addr:full": "Worple Road Raynes Park Raynes Park", "addr:city": "London", "addr:postcode": "SW20 8RE", "addr:country": "GB", "name": "Shell UK @ Pepys Corner Core", "brand": "Costa Coffee"}, "geometry": {"type": "Point", "coordinates": [-0.227744, 51.411]}},
{"type": "Feature", "id": "Nh5OYTO_Q8BXKfrh3Kh5MYy7jls=", "properties": {"ref": "43032920", "@spider": "costacoffee", "addr:full": "126 Whitechapel High St", "addr:postcode": "E1 7PU", "addr:country": "Greater London", "name": "Whitechapel", "brand": "Costa Coffee"}, "geometry": {"type": "Point", "coordinates": [-0.0729395, 51.515]}},
{"type": "Feature", "id": "EwpKgQcC7zsPEPeL3q49gDKg1jo=", "properties": {"ref": "600022068", "@spider": "costacoffee", "addr:full": "159-165 Camden High Street Camden Camden", "addr:city": "London", "addr:postcode": "NW1 7JY", "addr:country": "GB", "name": "Tesco Express Costa @ Camden High Street 4910", "brand": "Costa Coffee"}, "geometry": {"type": "Point", "coordinates": [-0.142378, 51.5382]}},
{"type": "Feature", "id": "8o-v40kjAUz8lvasLwQBrapYI7M=", "properties": {"ref": "600021375", "@spider": "costacoffee", "addr:full": "139-145 Kirkdale", "addr:city": "Sydenham", "addr:postcode": "SE26 4QJ", "addr:country": "GB", "name": "Tesco Express Costa @ Sydenham Exp 5729", "brand": "Costa Coffee"}, "geometry": {"type": "Point", "coordinates": [-0.0597998, 51.4313]}},
{"type": "Feature", "id": "8_g_e__MpeqFhyPkC-UvXsFQJ6c=", "properties": {"ref": "60022055", "@spider": "costacoffee", "addr:full": "70 South Parade", "addr:city": "Chiswick", "addr:postcode": "W4 5LG", "addr:country": "GB", "name": "MFG @ Chiswick", "brand": "Costa Coffee"}, "geometry": {"type": "Point", "coordinates": [-0.263553, 51.4963]}},
{"type": "Feature", "id": "NuDrqo4BPgFHazjufe32zRqsz-A=", "properties": {"ref": "60016076", "@spider": "costacoffee", "addr:full": "31 Bell Lane", "addr:city": "London", "addr:postcode": "E1 7LA", "addr:country": "GB", "name": "Sainsburys Local Costa @ Bell Lane", "brand": "Costa Coffee"}, "geometry": {"type": "Point", "coordinates": [-0.0763147, 51.5177]}},
{"type": "Feature", "id": "aOO_LjEsz0o-5M5yNhgAwtfzF6s=", "properties": {"ref": "43011500", "@spider": "costacoffee", "addr:full": "181 Camden High Street", "addr:postcode": "NW1 7JY", "addr:country": "Middlesex", "name": "Camden", "brand": "Costa Coffee"}, "geometry": {"type": "Point", "coordinates": [-0.142558, 51.5387]}},
{"type": "Feature", "id": "eZ79ej5XL93RoepWgNAFW7Xvc-4=", "properties": {"ref": "60005163", "@spider": "costacoffee", "addr:full": "185 Old Street Shoreditch Shoreditch", "addr:city": "London", "addr:postcode": "EC1V 9NP", "addr:country": "GB", "name": "Co Op @ Old Street", "brand": "Costa Coffee"}, "geometry": {"type": "Point", "coordinates": [-0.0905264, 51.5256]}},
{"type": "Feature", "id": "CencT1PeXMwSS1lal6CqCsd07rY=", "properties": {"ref": "62755001", "@spider": "costacoffee", "addr:full": "198-208 Old Street", "addr:city": "London", "addr:postcode": "EC1V 9BP", "addr:country": "GB", "name": "Shell UK @ Old Street Core", "brand": "Costa Coffee"}, "geometry": {"type": "Point", "coordinates": [-0.0889752, 51.5253]}},
{"type": "Feature", "id": "BGBs8rdxjHtMAVd-yD_EdRGyGEw=", "properties": {"ref": "43032280", "@spider": "costacoffee", "addr:full": "Units 14-15. Bishops Square Brushfield St Brushfield St", "addr:postcode": "E1 6EG", "addr:country": "Middlesex", "name": "Spitalfields", "brand": "Costa Coffee"}, "geometry": {"type": "Point", "coordinates": [-0.0775789, 51.5197]}},
{"type": "Feature", "id": "EYKzmSNm4XM0njbEp72NWkIprPg=", "properties": {"ref": "43034810", "@spider": "costacoffee", "addr:full": "Unit A 213 Worple Rd, Raynes Park 213 Worple Rd, Raynes Park", "addr:postcode": "SW20 8QY", "addr:country": "Surrey", "name": "Raynes Park", "brand": "Costa Coffee"}, "geometry": {"type": "Point", "coordinates": [-0.229728, 51.4105]}}]}