{"type":"FeatureCollection","features":[{"type": "Feature", "id": "vcEFsm5FlkT_1QwXtT6Wqfm2xMo=", "properties": {"ref": "https://www.mycountymarket.com/shop/store-locator/byron/", "@spider": "county_market", "addr:full": "201 W. Blackhawk Dr.", "addr:city": "Byron", "addr:state": "IL", "addr:postcode": "61010", "phone": "815-234-2311", "website": "https://www.mycountymarket.com/shop/store-locator/byron/", "brand": "County Market"}},
{"type": "Feature", "id": "36mex3UewdNBZXM1kos1dwGAS6U=", "properties": {"ref": "https://www.mycountymarket.com/shop/store-locator/chatham/", "@spider": "county_market", "addr:full": "1099 Jason Place", "addr:city": "Chatham", "addr:state": "IL", "addr:postcode": "62629", "phone": "217-483-9053", "website": "https://www.mycountymarket.com/shop/store-locator/chatham/", "opening_hours": "Mo-Su 6:00-11:00", "brand": "County Market"}},
{"type": "Feature", "id": "HvECBz38uIsStAAE3pxuDbCXFB8=", "properties": {"ref": "https://www.mycountymarket.com/shop/store-locator/champaign-kirby/", "@spider": "county_market", "addr:full": "2901 West Kirby", "addr:city": "Champaign", "addr:state": "IL", "addr:postcode": "61821", "phone": "217-351-8600", "website": "https://www.mycountymarket.com/shop/store-locator/champaign-kirby/", "opening_hours": "Mo-Su 6:00:00-11:00:00", "brand": "County Market"}},
{"type": "Feature", "id": "wx2TXf0M2BdGyPO3LuemuDoYiew=", "properties": {"ref": "https://www.mycountymarket.com/shop/store-locator/springfield-wmonroe/", "@spider": "county_market", "addr:full": "1903 W. Monroe St.", "addr:city": "Springfield", "addr:state": "IL", "addr:postcode": "62704-153", "phone": "217-546-8671", "website": "https://www.mycountymarket.com/shop/store-locator/springfield-wmonroe/", "opening_hours": "Mo-Su 6:00:00-11:00:00", "brand": "County Market"}},
{"type": "Feature", "id": "tqXwRPOnViQyycRWiNzYpchuPos=", "properties": {"ref": "https://www.mycountymarket.com/shop/store-locator/charleston/", "@spider": "county_market", "addr:full": "551 West Lincoln Ave.", "addr:city": "Charleston", "addr:state": "IL", "addr:postcode": "61920", "phone": "217-345-7031", "website": "https://www.mycountymarket.com/shop/store-locator/charleston/", "opening_hours": "Mo-Su 6:00-11:00", "brand": "County Market"}},
{"type": "Feature", "id": "Is0dl16Wuu5r3WCJUVrkjxodB9o=", "properties": {"ref": "https://www.mycountymarket.com/shop/store-locator/springfield-6thstreet/", "@spider": "county_market", "addr:full": "2777 S. 6th Street", "addr:city": "Springfield", "addr:state": "IL", "addr:postcode": "62703-407", "phone": "217-744-2290", "website": "https://www.mycountymarket.com/shop/store-locator/springfield-6thstreet/", "opening_hours": "Mo-Su 6:00:00-11:00:00", "brand": "County Market"}},
{"type": "Feature", "id": "6WDFSescPmnuvSHRVZ_i3PwVEXY=", "properties": {"ref": "https://www.mycountymarket.com/shop/store-locator/champaign-stoughton/", "@spider": "county_market", "addr:full": "331 Stoughton Street", "addr:city": "Champaign", "addr:state": "IL", "addr:postcode": "61820", "phone": "217-352-4123", "website": "https://www.mycountymarket.com/shop/store-locator/champaign-stoughton/", "opening_hours": "Mo-Su 7:00:00-11:00:00", "brand": "County Market"}},
{"type": "Feature", "id": "571SFsY4qO4uYb9bCdyCKzqOsrw=", "properties": {"ref": "https://www.mycountymarket.com/shop/store-locator/carthage/", "@spider": "county_market", "addr:full": "408 Walnut Street", "addr:city": "Carthage", "addr:state": "IL", "addr:postcode": "62321", "phone": "217-357-2836", "website": "https://www.mycountymarket.com/shop/store-locator/carthage/", "opening_hours": "Mo-Su 6:00-10:00", "brand": "County Market"}},
{"type": "Feature", "id": "gGaV7qHq0AdrNgeFTdIpj8wQmeE=", "properties": {"ref": "https://www.mycountymarket.com/shop/store-locator/sherman/", "@spider": "county_market", "addr:full": "109 Illini Boulevard", "addr:city": "Sherman ", "addr:state": "IL", "addr:postcode": "62684", "phone": "217-496-2817", "website": "https://www.mycountymarket.com/shop/store-locator/sherman/", "opening_hours": "Mo-Su 6:00-11:00", "brand": "County Market"}},
{"type": "Feature", "id": "QXb2s2Q1zYYse5eK9pUer-68Zy4=", "properties": {"ref": "https://www.mycountymarket.com/shop/store-locator/rushville/", "@spider": "county_market", "addr:full": "520 West Clinton Street", "addr:city": "Rushville", "addr:state": "IL", "addr:postcode": "62681", "phone": "217-322-4395", "website": "https://www.mycountymarket.com/shop/store-locator/rushville/", "opening_hours": "Mo-Su 6:00-10:00", "brand": "County Market"}},
{"type": "Feature", "id": "vyKLEMTe77nCwH3-1cMnFpzywH4=", "properties": {"ref": "https://www.mycountymarket.com/shop/store-locator/rantoul/", "@spider": "county_market", "addr:full": "1201 East Grove Ave.", "addr:city": "Rantoul", "addr:state": "IL", "addr:postcode": "61866", "phone": "217-893-4186", "website": "https://www.mycountymarket.com/shop/store-locator/rantoul/", "opening_hours": "Mo-Su 6:00-11:00", "brand": "County Market"}},
{"type": "Feature", "id": "JzbrkuGyR9goFxKBYOTb-rjB8Lw=", "properties": {"ref": "https://www.mycountymarket.com/shop/store-locator/quincy-24thstreet/", "@spider": "county_market", "addr:full": "520 N 24th Street", "addr:city": "Quincy", "addr:state": "IL", "addr:postcode": "62301", "phone": "217-222-0190", "website": "https://www.mycountymarket.com/shop/store-locator/quincy-24thstreet/", "opening_hours": "Mo-Su 6:00:00-11:00:00", "brand": "County Market"}},
{"type": "Feature", "id": "P-_-6c3FUVB0MIYLlD0DfyqFQcc=", "properties": {"ref": "https://www.mycountymarket.com/shop/store-locator/quincy-broadway/", "@spider": "county_market", "addr:full": "4830 Broadway", "addr:city": "Quincy", "addr:state": "IL", "addr:postcode": "62301", "phone": "217-223-4829", "website": "https://www.mycountymarket.com/shop/store-locator/quincy-broadway/", "opening_hours": "Mo-Su 6:00:00-11:00:00", "brand": "County Market"}},
{"type": "Feature", "id": "-4pdegBZPhSBdCeH8nu1Nh0HkgI=", "properties": {"ref": "https://www.mycountymarket.com/shop/store-locator/pontiac/", "@spider": "county_market", "addr:full": "406 West Madison", "addr:city": "Pontiac", "addr:state": "IL", "addr:postcode": "61764", "phone": "815-844-7158", "website": "https://www.mycountymarket.com/shop/store-locator/pontiac/", "opening_hours": "Mo-Su O:00en6:00:00-10:30:00", "brand": "County Market"}},
{"type": "Feature", "id": "Y62Z6oI602VbDKfhg-L5nedNcNQ=", "properties": {"ref": "https://www.mycountymarket.com/shop/store-locator/pittsfield/", "@spider": "county_market", "addr:full": "825 West Washington", "addr:city": "Pittsfield", "addr:state": "IL", "addr:postcode": "62363", "phone": "217-285-4453", "website": "https://www.mycountymarket.com/shop/store-locator/pittsfield/", "opening_hours": "Mo-Su 6:00-11:00", "brand": "County Market"}},
{"type": "Feature", "id": "67DmMTGEloLYZtMZ-ZlREsyq__c=", "properties": {"ref": "https://www.mycountymarket.com/shop/store-locator/petersburg/", "@spider": "county_market", "addr:full": "500 E.  Sangamon Ave.", "addr:city": "Petersburg", "addr:state": "IL", "addr:postcode": "62675", "phone": "217-632-3896", "website": "https://www.mycountymarket.com/shop/store-locator/petersburg/", "opening_hours": "Mo-Su 6:00-11:00", "brand": "County Market"}},
{"type": "Feature", "id": "yp1NddlmX_CL0GHTBcUKJCCAe7Q=", "properties": {"ref": "https://www.mycountymarket.com/shop/store-locator/winfield/", "@spider": "county_market", "addr:full": "#11 Winfield Plaza", "addr:city": "Winfield", "addr:state": "MO", "addr:postcode": "63389", "phone": "636-668-6700", "website": "https://www.mycountymarket.com/shop/store-locator/winfield/", "opening_hours": "Mo-Su 6:00-10:00", "brand": "County Market"}},
{"type": "Feature", "id": "Ob1sndLtcU488Ar2Nb75MiE7iMs=", "properties": {"ref": "https://www.mycountymarket.com/shop/store-locator/vandalia/", "@spider": "county_market", "addr:full": "1555 Highway 54 West Ste 20", "addr:city": "Vandalia", "addr:state": "MO", "addr:postcode": "63382", "phone": "573-594-6430", "website": "https://www.mycountymarket.com/shop/store-locator/vandalia/", "opening_hours": "Mo-Su 6:00-10:00", "brand": "County Market"}},
{"type": "Feature", "id": "tZAbetv_KSH6EyfhbPKRt2dRmWM=", "properties": {"ref": "https://www.mycountymarket.com/shop/store-locator/palmyra/", "@spider": "county_market", "addr:full": "1208 South Main", "addr:city": "Palmyra", "addr:state": "MO", "addr:postcode": "63461", "phone": "573-769-0341", "website": "https://www.mycountymarket.com/shop/store-locator/palmyra/", "opening_hours": "Mo-Su 6:00-11:00", "brand": "County Market"}},
{"type": "Feature", "id": "8-hqPQSB_IILAheupiylblznhJc=", "properties": {"ref": "https://www.mycountymarket.com/shop/store-locator/louisiana/", "@spider": "county_market", "addr:full": "3328 Georgia Street", "addr:city": "Louisiana", "addr:state": "MO", "addr:postcode": "63353", "phone": "(573) 754-6299", "website": "https://www.mycountymarket.com/shop/store-locator/louisiana/", "brand": "County Market"}},
{"type": "Feature", "id": "rRNIgoEH_UBwlk-US4KnaVWjRh0=", "properties": {"ref": "https://www.mycountymarket.com/shop/store-locator/hannibal/", "@spider": "county_market", "addr:full": "202 Steamboat Bend", "addr:city": "Hannibal", "addr:state": "MO", "addr:postcode": "63401", "phone": "573-248-0511", "website": "https://www.mycountymarket.com/shop/store-locator/hannibal/", "opening_hours": "Mo-Su 6:00:00-11:00:00", "brand": "County Market"}},
{"type": "Feature", "id": "PGxiXOwmHhDkIKZ91KqE4gfjD7w=", "properties": {"ref": "https://www.mycountymarket.com/shop/store-locator/canton/", "@spider": "county_market", "addr:full": "1805 Elm Street", "addr:city": "Canton", "addr:state": "MO", "addr:postcode": "63435", "phone": "573-288-5151", "website": "https://www.mycountymarket.com/shop/store-locator/canton/", "opening_hours": "Mo-Su 6:00-11:00", "brand": "County Market"}},
{"type": "Feature", "id": "FZY5EJipuTkjCwFZKWc99cq3UCc=", "properties": {"ref": "https://www.mycountymarket.com/shop/store-locator/covington/", "@spider": "county_market", "addr:full": "301 3rd Street", "addr:city": "Covington", "addr:state": "IN", "addr:postcode": "47932", "phone": "765-793-2352", "website": "https://www.mycountymarket.com/shop/store-locator/covington/", "opening_hours": "Mo-Su 6:00-10:00", "brand": "County Market"}},
{"type": "Feature", "id": "_4ZMRC4ruDJ7nm4GvRTJ88kHlXE=", "properties": {"ref": "https://www.mycountymarket.com/shop/store-locator/attica/", "@spider": "county_market", "addr:full": "109 W. Jackson Street", "addr:city": "Attica", "addr:state": "IN", "addr:postcode": "47918", "phone": "765-762-2337", "website": "https://www.mycountymarket.com/shop/store-locator/attica/", "opening_hours": "Mo-Su 6:00:00-10:00:00", "brand": "County Market"}},
{"type": "Feature", "id": "8Lon_Zw4nrX3ozBCTR1QSbnHqpM=", "properties": {"ref": "https://www.mycountymarket.com/shop/store-locator/tilton/", "@spider": "county_market", "addr:full": "1628 Georgetown Road", "addr:city": "Tilton", "addr:state": "IL", "addr:postcode": "61833", "phone": "217-443-3209", "website": "https://www.mycountymarket.com/shop/store-locator/tilton/", "opening_hours": "Mo-Su 6:00:00-11:00:00", "brand": "County Market"}},
{"type": "Feature", "id": "KWdoEAvQprQizGlyj0KNp_PGPfo=", "properties": {"ref": "https://www.mycountymarket.com/shop/store-locator/sterling/", "@spider": "county_market", "addr:full": "210 West 3rd. St.", "addr:city": "Sterling", "addr:state": "IL", "addr:postcode": "61081", "phone": "815-622-0180", "website": "https://www.mycountymarket.com/shop/store-locator/sterling/", "opening_hours": "Mo-Su 6:00:00-11:00:00", "brand": "County Market"}},
{"type": "Feature", "id": "dKxFo5RrLZYMtPUvqjK3PGLm_9g=", "properties": {"ref": "https://www.mycountymarket.com/shop/store-locator/springfield-dirksen/", "@spider": "county_market", "addr:full": "1501 S Dirksen Pkwy", "addr:city": "Springfield", "addr:state": "IL", "addr:postcode": "62703", "phone": "217-525-2372", "website": "https://www.mycountymarket.com/shop/store-locator/springfield-dirksen/", "opening_hours": "Mo-Su 6:00:00-11:00:00", "brand": "County Market"}},
{"type": "Feature", "id": "-k3Jrx36qGoJsgeaGmniwjjuNto=", "properties": {"ref": "https://www.mycountymarket.com/shop/store-locator/springfield-downtown/", "@spider": "county_market", "addr:full": "210 East Carpenter St.", "addr:city": "Springfield", "addr:state": "IL", "addr:postcode": "62702", "phone": "217-528-3145", "website": "https://www.mycountymarket.com/shop/store-locator/springfield-downtown/", "opening_hours": "Mo-Su 6:00:00-11:00:00", "brand": "County Market"}},
{"type": "Feature", "id": "MuN8t4SiJSRwEO5D3tJuEET4L8g=", "properties": {"ref": "https://www.mycountymarket.com/shop/store-locator/pana/", "@spider": "county_market", "addr:full": "6 North Poplar Street", "addr:city": "Pana", "addr:state": "IL", "addr:postcode": "62557", "phone": "217-562-4441", "website": "https://www.mycountymarket.com/shop/store-locator/pana/", "opening_hours": "Mo-Su 6:00-11:00", "brand": "County Market"}},
{"type": "Feature", "id": "xqDjpp6-hbTUBqqWL4Mb0uIS728=", "properties": {"ref": "https://www.mycountymarket.com/shop/store-locator/monticello/", "@spider": "county_market", "addr:full": "422 South Market", "addr:city": "Monticello", "addr:state": "IL", "addr:postcode": "61856", "phone": "217-762-3161", "website": "https://www.mycountymarket.com/shop/store-locator/monticello/", "opening_hours": "Mo-Su 6:00-11:00", "brand": "County Market"}},
{"type": "Feature", "id": "p6-XlM0yWUliawwdECGBmYKv974=", "properties": {"ref": "https://www.mycountymarket.com/shop/store-locator/monmouth/", "@spider": "county_market", "addr:full": "1120 N. 6th Street", "addr:city": "Monmouth", "addr:state": "IL", "addr:postcode": "61462", "phone": "309-734-7393", "website": "https://www.mycountymarket.com/shop/store-locator/monmouth/", "opening_hours": "Mo-Su 6:00-11:00", "brand": "County Market"}},
{"type": "Feature", "id": "1QhPnLA1YakFhp5kOzh6TgcaSF4=", "properties": {"ref": "https://www.mycountymarket.com/shop/store-locator/mattoon/", "@spider": "county_market", "addr:full": "2000 Western Ave", "addr:city": "Mattoon", "addr:state": "IL", "addr:postcode": "61938", "phone": "217-235-5444", "website": "https://www.mycountymarket.com/shop/store-locator/mattoon/", "opening_hours": "Mo-Su 6:00:00-11:00:00", "brand": "County Market"}},
{"type": "Feature", "id": "gAlvgQhzM9U4aWMS3V7U3hUwPvo=", "properties": {"ref": "https://www.mycountymarket.com/shop/store-locator/lewistown/", "@spider": "county_market", "addr:full": "518 South Main Street", "addr:city": "Lewistown", "addr:state": "IL", "addr:postcode": "61542", "phone": "309-547-7181", "website": "https://www.mycountymarket.com/shop/store-locator/lewistown/", "opening_hours": "Mo-Su 6:00-11:00", "brand": "County Market"}},
{"type": "Feature", "id": "c8NAfOgsQl1lESTr4nsKxrEbJzg=", "properties": {"ref": "https://www.mycountymarket.com/shop/store-locator/jacksonville/", "@spider": "county_market", "addr:full": "1255 West Morton Ave.", "addr:city": "Jacksonville", "addr:state": "IL", "addr:postcode": "62650", "phone": "217-243-8615", "website": "https://www.mycountymarket.com/shop/store-locator/jacksonville/", "opening_hours": "24/7", "brand": "County Market"}},
{"type": "Feature", "id": "5EjnkbaBKY1AJXEUNbxntz66Pkk=", "properties": {"ref": "https://www.mycountymarket.com/shop/store-locator/havana/", "@spider": "county_market", "addr:full": "943 East Laurel Avenue", "addr:city": "Havana", "addr:state": "IL", "addr:postcode": "62644", "phone": "309-543-3304", "website": "https://www.mycountymarket.com/shop/store-locator/havana/", "opening_hours": "Mo-Su 6:00-10:00", "brand": "County Market"}},
{"type": "Feature", "id": "gjUMwr7gkpSx-ANriv81LR0Wu9U=", "properties": {"ref": "https://www.mycountymarket.com/shop/store-locator/girard/", "@spider": "county_market", "addr:full": "619 N. 3rd Street", "addr:city": "Girard", "addr:state": "IL", "addr:postcode": "62640", "phone": "217-627-2011", "website": "https://www.mycountymarket.com/shop/store-locator/girard/", "opening_hours": "Mo-Su 6:00-11:00", "brand": "County Market"}},
{"type": "Feature", "id": "7OcjcEkcGfqCcjNg9V-kjFYbDq0=", "properties": {"ref": "https://www.mycountymarket.com/shop/store-locator/gibson-city/", "@spider": "county_market", "addr:full": "415 E 1st. St.", "addr:city": "Gibson City", "addr:state": "IL", "addr:postcode": "60936", "phone": "217-784-8108", "website": "https://www.mycountymarket.com/shop/store-locator/gibson-city/", "opening_hours": "Mo-Su 6:00-10:00", "brand": "County Market"}},
{"type": "Feature", "id": "eW01Jcamzn_QP_-ZDZQS_E1RXnI=", "properties": {"ref": "https://www.mycountymarket.com/shop/store-locator/farmington/", "@spider": "county_market", "addr:full": "1090 East Fort Street", "addr:city": "Farmington", "addr:state": "IL", "addr:postcode": "61531", "phone": "309-245-2122", "website": "https://www.mycountymarket.com/shop/store-locator/farmington/", "opening_hours": "Mo-Su 6:00-10:00", "brand": "County Market"}},
{"type": "Feature", "id": "I5VZ3COjHeMDYQGOf4X_B5Hu4fc=", "properties": {"ref": "https://www.mycountymarket.com/shop/store-locator/dixon/", "@spider": "county_market", "addr:full": "1380 N Galena Avenue", "addr:city": "Dixon", "addr:state": "IL", "addr:postcode": "61021", "phone": "815-288-2112", "website": "https://www.mycountymarket.com/shop/store-locator/dixon/", "opening_hours": "Mo-Su 6:00-11:00", "brand": "County Market"}},
{"type": "Feature", "id": "c3dQPTuyVVcO75vb1S_QWv2LfNQ=", "properties": {"ref": "https://www.mycountymarket.com/shop/store-locator/decatur-west/", "@spider": "county_market", "addr:full": "1185 West Grand Ave.", "addr:city": "Decatur", "addr:state": "IL", "addr:postcode": "62522", "phone": "217-428-0382", "website": "https://www.mycountymarket.com/shop/store-locator/decatur-west/", "opening_hours": "Mo-Su 6:00-11:00", "brand": "County Market"}},
{"type": "Feature", "id": "E5Z5y_7V9ixA2EhvWetVNd4SEy8=", "properties": {"ref": "https://www.mycountymarket.com/shop/store-locator/danville-mall/", "@spider": "county_market", "addr:full": "2917 N. Vermillion S.", "addr:city": "Danville", "addr:state": "IL", "addr:postcode": "61832", "phone": "217-443-8246", "website": "https://www.mycountymarket.com/shop/store-locator/danville-mall/", "opening_hours": "Mo-Su 6:00:00-11:00:00", "brand": "County Market"}}]}