{"type":"FeatureCollection","features":[{"type": "Feature", "id": "N0kJSPypTf8Bnz1cQkg8I4e4ZYQ=", "properties": {"ref": "f1210f70-6255-11eb-8754-57f79d76a016:Store", "@spider": "crumbl_cookies", "addr:full": "4027 W 41st St, Sioux Falls, South Dakota 57106", "addr:city": "Sioux Falls", "addr:state": "South Dakota", "name": "41st Street", "phone": "(605) 305-4018", "brand": "Crumbl Cookies", "brand:wikidata": "Q106924414"}, "geometry": {"type": "Point", "coordinates": [-96.7750692, 43.5134552]}},
{"type": "Feature", "id": "BK9WO1Zb42HXH0lzzF0MZKKte7I=", "properties": {"ref": "5a61e500-5e6e-11ea-ac15-4dfeebe00dcc:Store", "@spider": "crumbl_cookies", "addr:full": "2300 W 7th St, Fort Worth, Texas 76107", "addr:city": "Fort Worth", "addr:state": "Texas", "name": "7th Street", "phone": "(682) 285-2798", "brand": "Crumbl Cookies", "brand:wikidata": "Q106924414"}, "geometry": {"type": "Point", "coordinates": [-97.35001, 32.75165]}},
{"type": "Feature", "id": "1zTP_7QKFY_qYiZx-YdEyjTwk7g=", "properties": {"ref": "78f6ea90-657c-11eb-8f73-b73c208a1af3:Store", "@spider": "crumbl_cookies", "addr:full": "14891 Preston Rd, Ste. 100, Dallas, Texas 75254", "addr:city": "Dallas", "addr:state": "Texas", "name": "Addison", "phone": "(469) 825-3974", "brand": "Crumbl Cookies", "brand:wikidata": "Q106924414"}, "geometry": {"type": "Point", "coordinates": [-96.8064351, 32.9506177]}},
{"type": "Feature", "id": "XL03AAxU3VPCeIAF_HwTFuXHAz0=", "properties": {"ref": "512898d0-5e6e-11ea-ac15-4dfeebe00dcc:Store", "@spider": "crumbl_cookies", "addr:full": "4910 E Ray Rd, Suite 7, Phoenix, Arizona 85044", "addr:city": "Phoenix", "addr:state": "Arizona", "name": "Ahwatukee", "phone": "(480) 877-9677", "brand": "Crumbl Cookies", "brand:wikidata": "Q106924414"}, "geometry": {"type": "Point", "coordinates": [-111.9775, 33.3204782]}},
{"type": "Feature", "id": "JG5e_e844ntdf_6_LZvOn7IM0vY=", "properties": {"ref": "1adb5bd0-5aeb-11eb-b4c2-e5a56d68abf2:Store", "@spider": "crumbl_cookies", "addr:full": "5531 W Loop 1604 N, San Antonio, Texas 78253", "addr:city": "San Antonio", "addr:state": "Texas", "name": "Alamo Ranch", "phone": "(830) 346-1314", "brand": "Crumbl Cookies", "brand:wikidata": "Q106924414"}, "geometry": {"type": "Point", "coordinates": [-98.7098326, 29.4909191]}},
{"type": "Feature", "id": "stoRCoJJS4EyY_wQMqEnWQiMI18=", "properties": {"ref": "d909b5e0-60ed-11eb-8d01-472965f0b64a:Store", "@spider": "crumbl_cookies", "addr:full": "10445 West Grand Parkway South, Suite 130, Richmond, Texas 77407", "addr:city": "Richmond", "addr:state": "Texas", "name": "Aliana", "phone": "(346) 322-1096", "brand": "Crumbl Cookies", "brand:wikidata": "Q106924414"}, "geometry": {"type": "Point", "coordinates": [-95.70822411456592, 29.65404887669803]}},
{"type": "Feature", "id": "n7fvHJUVvI4b5S4u_AVtbRVzyuI=", "properties": {"ref": "ff9aa0e0-6258-11eb-9197-2d4d6ca296f0:Store", "@spider": "crumbl_cookies", "addr:full": "24032 Aliso Creek Rd, Laguna Niguel, California 92677", "addr:city": "Laguna Niguel", "addr:state": "California", "name": "Aliso Viejo", "phone": "(949) 339-1548", "brand": "Crumbl Cookies", "brand:wikidata": "Q106924414"}, "geometry": {"type": "Point", "coordinates": [-117.7113671, 33.5547983]}},
{"type": "Feature", "id": "p1gl9DvXi785mHvOSLytcVWpURc=", "properties": {"ref": "6780fa30-99f3-11ea-9b33-0333ed5d2ffd:Store", "@spider": "crumbl_cookies", "addr:full": "845 W Stacy Road, Building A, Suite 145, Allen, Texas 75013", "addr:city": "Allen", "addr:state": "Texas", "name": "Allen", "phone": "(469) 290-5993", "brand": "Crumbl Cookies", "brand:wikidata": "Q106924414"}, "geometry": {"type": "Point", "coordinates": [-96.6645559, 33.1299481]}},
{"type": "Feature", "id": "aQrCmkppcnNsQtB6PrP6TKxm8tg=", "properties": {"ref": "6f299050-9479-11ea-825f-dbf5d1c84c39:Store", "@spider": "crumbl_cookies", "addr:full": "4190 Old Milton Pwky, Suite 2L, Alpharetta, Georgia 30005", "addr:city": "Alpharetta", "addr:state": "Georgia", "name": "Alpharetta", "phone": "(470) 281-9209", "brand": "Crumbl Cookies", "brand:wikidata": "Q106924414"}, "geometry": {"type": "Point", "coordinates": [-84.2346861, 34.0592447]}},
{"type": "Feature", "id": "A2ilIS_bHwjlKvSaMooED3GZu6E=", "properties": {"ref": "5c14c520-5e6e-11ea-ac15-4dfeebe00dcc:Store", "@spider": "crumbl_cookies", "addr:full": "586 N 900 W, Suite 6, American Fork, Utah 84003", "addr:city": "American Fork", "addr:state": "Utah", "name": "American Fork", "phone": "(801) 609-1992", "brand": "Crumbl Cookies", "brand:wikidata": "Q106924414"}, "geometry": {"type": "Point", "coordinates": [-111.8231046, 40.3887584]}},
{"type": "Feature", "id": "JsI6JGR9YtarTUUqe4Jw4oxkf5s=", "properties": {"ref": "526892e0-5e6e-11ea-ac15-4dfeebe00dcc:Store", "@spider": "crumbl_cookies", "addr:full": "2656 E Sunnyside Rd, Ammon, Idaho 83406", "addr:city": "Ammon", "addr:state": "Idaho", "name": "Ammon", "phone": "(208) 268-8222", "brand": "Crumbl Cookies", "brand:wikidata": "Q106924414"}, "geometry": {"type": "Point", "coordinates": [-111.981298, 43.467858]}},
{"type": "Feature", "id": "6PTlqUyZia1VOalYQES8-s871YM=", "properties": {"ref": "e6a71960-fc2d-11ea-917a-fba48871f88e:Store", "@spider": "crumbl_cookies", "addr:full": "215 N Maple Rd. Suite A-2, Ann Arbor, Michigan 48103", "addr:city": "Ann Arbor", "addr:state": "Michigan", "name": "Ann Arbor", "phone": "(734) 274-6623", "brand": "Crumbl Cookies", "brand:wikidata": "Q106924414"}, "geometry": {"type": "Point", "coordinates": [-83.783562, 42.28307]}},
{"type": "Feature", "id": "ZDspURUYaj-LmeJuSawmB4TlSPw=", "properties": {"ref": "d845d0f0-04e8-11eb-97e0-83075b1f3209:Store", "@spider": "crumbl_cookies", "addr:full": "15052 Gleason Path Suite #105, Apple Valley, Minnesota 55124", "addr:city": "Apple Valley", "addr:state": "Minnesota", "name": "Apple Valley", "phone": "(612) 474-4217", "brand": "Crumbl Cookies", "brand:wikidata": "Q106924414"}, "geometry": {"type": "Point", "coordinates": [-93.214094, 44.731122]}},
{"type": "Feature", "id": "eqZpynKY5lu71St9hpOWhXlNCPQ=", "properties": {"ref": "5fe78260-ca0f-11eb-a2ce-51d7983914e8:Store", "@spider": "crumbl_cookies", "addr:full": "4353 W Wisconsin Ave, Appleton, Wisconsin 54913", "addr:city": "Appleton", "addr:state": "Wisconsin", "name": "Appleton", "phone": "(920) 221-1980", "brand": "Crumbl Cookies", "brand:wikidata": "Q106924414"}, "geometry": {"type": "Point", "coordinates": [-88.4716, 44.27254]}},
{"type": "Feature", "id": "nj5x11dhB77ojE7w81B9CfpGM1U=", "properties": {"ref": "5b54a970-5e6e-11ea-bdc8-4f8d0b878ff3:Store", "@spider": "crumbl_cookies", "addr:full": "3736 E Indian School Rd, Phoenix, Arizona 85018", "addr:city": "Phoenix", "addr:state": "Arizona", "name": "Arcadia", "phone": "(602) 661-3777", "brand": "Crumbl Cookies", "brand:wikidata": "Q106924414"}, "geometry": {"type": "Point", "coordinates": [-112.000707, 33.495815]}},
{"type": "Feature", "id": "vGdckaVBYk0TyUhxY5KD31XFRzw=", "properties": {"ref": "f7660030-7ad2-11eb-87b9-f31c8acac939:Store", "@spider": "crumbl_cookies", "addr:full": "3833 Lexington Ave. N., Suite 104, Arden Hills, Minnesota 55126", "addr:city": "Arden Hills", "addr:state": "Minnesota", "name": "Arden Hills", "phone": "(612) 564-5940", "brand": "Crumbl Cookies", "brand:wikidata": "Q106924414"}, "geometry": {"type": "Point", "coordinates": [-93.14784, 45.05701]}},
{"type": "Feature", "id": "pUpRN-jgH08kJDH4wABC5dPW3pc=", "properties": {"ref": "2ec13470-6258-11eb-a324-8dc1fdbdf032:Store", "@spider": "crumbl_cookies", "addr:full": "44110 Ashburn Village Blvd #180, Ashburn, Virginia 20147", "addr:city": "Ashburn", "addr:state": "Virginia", "name": "Ashburn", "phone": "(571) 491-4084", "brand": "Crumbl Cookies", "brand:wikidata": "Q106924414"}, "geometry": {"type": "Point", "coordinates": [-77.4758814, 39.0444456]}},
{"type": "Feature", "id": "u0nZRacuAHm1P-kNtjOikveYAls=", "properties": {"ref": "4acbf860-973e-11eb-9751-6b528c6cda50:Store", "@spider": "crumbl_cookies", "addr:full": "1813 Nagel Rd., Suite 300, Avon, Ohio 44011", "addr:city": "Avon", "addr:state": "Ohio", "name": "Avon", "phone": "(440) 517-1609", "brand": "Crumbl Cookies", "brand:wikidata": "Q106924414"}, "geometry": {"type": "Point", "coordinates": [-81.98798, 41.46033]}},
{"type": "Feature", "id": "SiRoOxzw-U2UJBFN2zHFOQNwLKc=", "properties": {"ref": "522ff6b0-5e6e-11ea-bdc8-4f8d0b878ff3:Store", "@spider": "crumbl_cookies", "addr:full": "10120 W McDowell Rd, Suite 150, Avondale, Arizona 85392", "addr:city": "Avondale", "addr:state": "Arizona", "name": "Avondale", "phone": "(480) 937-0396", "brand": "Crumbl Cookies", "brand:wikidata": "Q106924414"}, "geometry": {"type": "Point", "coordinates": [-112.279037, 33.468208]}},
{"type": "Feature", "id": "WaU743l4P8ULJfBUCOCPflRrJ8Y=", "properties": {"ref": "3041d890-d801-11ea-b415-3b171d562908:Store", "@spider": "crumbl_cookies", "addr:full": "10530 Stockdale Hwy, Unit Q100, Bakersfield, California 93311", "addr:city": "Bakersfield", "addr:state": "California", "name": "Bakersfield", "phone": "(661) 241-0903", "brand": "Crumbl Cookies", "brand:wikidata": "Q106924414"}, "geometry": {"type": "Point", "coordinates": [-119.119646, 35.352562]}},
{"type": "Feature", "id": "dV9lJqcEZqfFMa80T-oKoB_Fti8=", "properties": {"ref": "3380a960-c3e1-11eb-86b3-0babf7caaeec:Store", "@spider": "crumbl_cookies", "addr:full": "6668 Thomasville Rd, Tallahassee, Florida 32312", "addr:city": "Tallahassee", "addr:state": "Florida", "name": "Bannerman", "phone": "(850) 296-9801", "brand": "Crumbl Cookies", "brand:wikidata": "Q106924414"}, "geometry": {"type": "Point", "coordinates": [-84.21951, 30.56089]}},
{"type": "Feature", "id": "HsGI0Fm7QRQ49wpxjxo2jwHO-24=", "properties": {"ref": "18bdf040-5b7e-11eb-897b-a7cda334d2e8:Store", "@spider": "crumbl_cookies", "addr:full": "6555 Siegen Ln, Suite 10, Baton Rouge, Louisiana 70809", "addr:city": "Baton Rouge", "addr:state": "Louisiana", "name": "Baton Rouge", "phone": "(225) 228-0120", "brand": "Crumbl Cookies", "brand:wikidata": "Q106924414"}, "geometry": {"type": "Point", "coordinates": [-91.061072, 30.387446]}},
{"type": "Feature", "id": "UgvW4dHuQzZDMNVX-mZzkhGxjmg=", "properties": {"ref": "92f98e30-6256-11eb-a1d8-23655c641156:Store", "@spider": "crumbl_cookies", "addr:full": "3267 Hodges Boulevard, #2, Jacksonville, Florida 32224", "addr:city": "Jacksonville", "addr:state": "Florida", "name": "Beach Haven", "phone": "(904) 373-4947", "brand": "Crumbl Cookies", "brand:wikidata": "Q106924414"}, "geometry": {"type": "Point", "coordinates": [-81.458277, 30.286457]}},
{"type": "Feature", "id": "cAaFEg0fr6VtAymM0VF9qtmPhWQ=", "properties": {"ref": "596f2090-5e6e-11ea-ac15-4dfeebe00dcc:Store", "@spider": "crumbl_cookies", "addr:full": "2725 SW Cedar Hills Blvd, Beaverton, Oregon 97005", "addr:city": "Beaverton", "addr:state": "Oregon", "name": "Beaverton", "phone": "(503) 985-6934", "brand": "Crumbl Cookies", "brand:wikidata": "Q106924414"}, "geometry": {"type": "Point", "coordinates": [-122.80936, 45.49552]}},
{"type": "Feature", "id": "WRFobs3XP6Ofj5c2GtFnsZtfohA=", "properties": {"ref": "e4c291f0-a4f9-11ea-95d9-c96544a378ec:Store", "@spider": "crumbl_cookies", "addr:full": "5103 Bellaire Blvd, Suite 140, Bellaire, Texas 77401", "addr:city": "Bellaire", "addr:state": "Texas", "name": "Bellaire", "phone": "(281) 937-2100", "brand": "Crumbl Cookies", "brand:wikidata": "Q106924414"}, "geometry": {"type": "Point", "coordinates": [-95.4681702, 29.7050968]}},
{"type": "Feature", "id": "kOA_o1oSs67d7Va-U-Tcn-6372A=", "properties": {"ref": "8c7aac70-7862-11eb-9cbe-6bf7bfcb0003:Store", "@spider": "crumbl_cookies", "addr:full": "200 Rock Hill Dr., Bensalem, Pennsylvania 19020", "addr:city": "Bensalem", "addr:state": "Pennsylvania", "name": "Bensalem", "phone": "267) 563-8017", "brand": "Crumbl Cookies", "brand:wikidata": "Q106924414"}, "geometry": {"type": "Point", "coordinates": [-74.9601146, 40.1358065]}},
{"type": "Feature", "id": "R0CbiEA-9iaVOlsPVKHzONlzEHE=", "properties": {"ref": "fdf8e560-dd9e-11ea-a3fb-25542e5d3c49:Store", "@spider": "crumbl_cookies", "addr:full": "500 SE Walton Blvd, Suite 10, Bentonville, Arkansas 72712", "addr:city": "Bentonville", "addr:state": "Arkansas", "name": "Bentonville", "phone": "(479) 326-8304", "brand": "Crumbl Cookies", "brand:wikidata": "Q106924414"}, "geometry": {"type": "Point", "coordinates": [-94.20533, 36.33481]}},
{"type": "Feature", "id": "EbNJcBpvNtY81NOzodu9ztCzMWc=", "properties": {"ref": "5b289060-5e6e-11ea-ac15-4dfeebe00dcc:Store", "@spider": "crumbl_cookies", "addr:full": "27 Shiloh Rd, Suite 6, Billings, Montana 59106", "addr:city": "Billings", "addr:state": "Montana", "name": "Billings", "phone": "(406) 530-7327", "brand": "Crumbl Cookies", "brand:wikidata": "Q106924414"}, "geometry": {"type": "Point", "coordinates": [-108.617003, 45.771149]}},
{"type": "Feature", "id": "ddhMkDtuVZsO2K7MPsn1j81_V5g=", "properties": {"ref": "2fecb450-283d-11eb-b908-8758a6159852:Store", "@spider": "crumbl_cookies", "addr:full": "820 43rd Avenue NE, Suite 120 , Bismarck, North Dakota 58503", "addr:city": "Bismarck", "addr:state": "North Dakota", "name": "Bismarck", "phone": "(701) 557-3103", "brand": "Crumbl Cookies", "brand:wikidata": "Q106924414"}, "geometry": {"type": "Point", "coordinates": [-100.7818649, 46.853198]}},
{"type": "Feature", "id": "iO10vFkzjnvdFbAMJ0Gg9VWBTsw=", "properties": {"ref": "5497f510-851e-11eb-a1ad-15711b22611c:Store", "@spider": "crumbl_cookies", "addr:full": "1155 S College Mall Rd, Suite B., Bloomington, Indiana 47401", "addr:city": "Bloomington", "addr:state": "Indiana", "name": "Bloomington", "phone": "812)668-7779", "brand": "Crumbl Cookies", "brand:wikidata": "Q106924414"}, "geometry": {"type": "Point", "coordinates": [-86.4993559, 39.1541039]}},
{"type": "Feature", "id": "wU8OxCyd3niWQie6ygP1zwSSHp0=", "properties": {"ref": "52ccabe0-5e6e-11ea-bdc8-4f8d0b878ff3:Store", "@spider": "crumbl_cookies", "addr:full": "8085 Blue Diamond Rd, Las Vegas, Nevada 89178", "addr:city": "Las Vegas", "addr:state": "Nevada", "name": "Blue Diamond", "phone": "(702) 660-0233", "brand": "Crumbl Cookies", "brand:wikidata": "Q106924414"}, "geometry": {"type": "Point", "coordinates": [-115.269735, 36.0199759]}},
{"type": "Feature", "id": "cmtpLN_FZsYg3d0SHDMwSFdx05w=", "properties": {"ref": "599f7f60-5e6e-11ea-bdc8-4f8d0b878ff3:Store", "@spider": "crumbl_cookies", "addr:full": "8665 West Franklin Road, Boise, Idaho 83709", "addr:city": "Boise", "addr:state": "Idaho", "name": "Boise", "phone": "(208) 922-7297", "brand": "Crumbl Cookies", "brand:wikidata": "Q106924414"}, "geometry": {"type": "Point", "coordinates": [-116.2866271, 43.6049271]}},
{"type": "Feature", "id": "WDGIW80WjNnQEWjXYfvm20T0qZI=", "properties": {"ref": "5afc8ef0-6257-11eb-b6df-2d88de720673:Store", "@spider": "crumbl_cookies", "addr:full": "2003 Huguenot Rd, Suite 103, Richmond, Virginia 23235", "addr:city": "Richmond", "addr:state": "Virginia", "name": "Bon Air", "phone": "(804) 302-0162", "brand": "Crumbl Cookies", "brand:wikidata": "Q106924414"}, "geometry": {"type": "Point", "coordinates": [-77.6150001, 37.5205767]}},
{"type": "Feature", "id": "FuyIOxMiSOG5yJpTxOxjeu9a8jM=", "properties": {"ref": "658b63e0-60f5-11eb-8b46-3b2193a6ac38:Store", "@spider": "crumbl_cookies", "addr:full": "20411 98th St E, Bonney Lake, Washington 98391", "addr:city": "Bonney Lake", "addr:state": "Washington", "name": "Bonney Lake", "phone": "(253) 321-5796", "brand": "Crumbl Cookies", "brand:wikidata": "Q106924414"}, "geometry": {"type": "Point", "coordinates": [-122.1586732, 47.1673508]}},
{"type": "Feature", "id": "3K_wfqfSd5wbXZtZjnUh9eGzbG0=", "properties": {"ref": "53023ad0-5e6e-11ea-ac15-4dfeebe00dcc:Store", "@spider": "crumbl_cookies", "addr:full": "1805 29th St, Suite 1136, Boulder, Colorado 80301", "addr:city": "Boulder", "addr:state": "Colorado", "name": "Boulder", "phone": "(720) 727-0353", "brand": "Crumbl Cookies", "brand:wikidata": "Q106924414"}, "geometry": {"type": "Point", "coordinates": [-105.2568023, 40.0186924]}},
{"type": "Feature", "id": "lR74BXUqLL5XVrhh81QK7fxtwKc=", "properties": {"ref": "5999da10-5e6e-11ea-ac15-4dfeebe00dcc:Store", "@spider": "crumbl_cookies", "addr:full": "463 S Main St, Bountiful, Utah 84010", "addr:city": "Bountiful", "addr:state": "Utah", "name": "Bountiful", "phone": "(385) 399-9899", "brand": "Crumbl Cookies", "brand:wikidata": "Q106924414"}, "geometry": {"type": "Point", "coordinates": [-111.8826346, 40.8847696]}},
{"type": "Feature", "id": "xUdORAFR2X102ELoX0yp-wEiYzw=", "properties": {"ref": "0929afb0-12f0-11eb-994f-d7f32a3d1f51:Store", "@spider": "crumbl_cookies", "addr:full": "1060 Fowler Ave, Bozeman, Montana 59718", "addr:city": "Bozeman", "addr:state": "Montana", "name": "Bozeman", "phone": "(406) 351-4589", "brand": "Crumbl Cookies", "brand:wikidata": "Q106924414"}, "geometry": {"type": "Point", "coordinates": [-111.08231, 45.66862]}},
{"type": "Feature", "id": "aJwlomLNQs1zBqJ5amW_K8YwBo4=", "properties": {"ref": "2c037650-60df-11eb-aad5-4773b491c06f:Store", "@spider": "crumbl_cookies", "addr:full": "10963 Causeway Blvd Suite B, Brandon , Florida 33511", "addr:city": "Brandon ", "addr:state": "Florida", "name": "Brandon", "phone": "(813) 540-0776", "brand": "Crumbl Cookies", "brand:wikidata": "Q106924414"}, "geometry": {"type": "Point", "coordinates": [-82.3293415, 27.9223915]}},
{"type": "Feature", "id": "W9rgkelRw5x0KHImrqUNwP95iOE=", "properties": {"ref": "3fd88f20-3b33-11eb-acc3-89381599ee3e:Store", "@spider": "crumbl_cookies", "addr:full": "955 E Birch St, Brea, California 92821", "addr:city": "Brea", "addr:state": "California", "name": "Brea", "phone": "(562) 371-8973", "brand": "Crumbl Cookies", "brand:wikidata": "Q106924414"}, "geometry": {"type": "Point", "coordinates": [-117.88601, 33.91893]}},
{"type": "Feature", "id": "fS6AHuIDomhFw_js4HrCF4eapYI=", "properties": {"ref": "5b333ec0-5e6e-11ea-bdc8-4f8d0b878ff3:Store", "@spider": "crumbl_cookies", "addr:full": "18 Cadillac Dr, Suite 4 , Brentwood, Tennessee 37027", "addr:city": "Brentwood", "addr:state": "Tennessee", "name": "Brentwood", "phone": "(615) 267-3161", "brand": "Crumbl Cookies", "brand:wikidata": "Q106924414"}, "geometry": {"type": "Point", "coordinates": [-86.8035949, 36.0360568]}},
{"type": "Feature", "id": "OH5ciF0Zx-G7VwFjUBFYa0LGNOw=", "properties": {"ref": "1e93f380-130c-11eb-be40-4bd5be5d7b6f:Store", "@spider": "crumbl_cookies", "addr:full": "5421 Lone Tree Way, Suite 130, Brentwood, California 94513", "addr:city": "Brentwood", "addr:state": "California", "name": "Brentwood", "phone": "(925) 308-5057", "brand": "Crumbl Cookies", "brand:wikidata": "Q106924414"}, "geometry": {"type": "Point", "coordinates": [-121.74963, 37.960745]}},
{"type": "Feature", "id": "_bB2Ij23-N7qc8fO_KqPwMUQXn0=", "properties": {"ref": "e1486040-61af-11eb-8859-a91cea878c70:Store", "@spider": "crumbl_cookies", "addr:full": "8531 Brier Creek Pkwy Ste 115, Raleigh, NC 27617, Raleigh , North Carolina 27617", "addr:city": "Raleigh ", "addr:state": "North Carolina", "name": "Brier Creek", "phone": "(984) 201-1194", "brand": "Crumbl Cookies", "brand:wikidata": "Q106924414"}, "geometry": {"type": "Point", "coordinates": [-78.7843947, 35.9051565]}},
{"type": "Feature", "id": "dFeyJRjCGHpdCIX_NXhKSwLHdMI=", "properties": {"ref": "4659f490-8979-11ea-bedd-8d78ce5b9a90:Store", "@spider": "crumbl_cookies", "addr:full": "725 W 1200 S, Suite B1, Perry, Utah 84302", "addr:city": "Perry", "addr:state": "Utah", "name": "Brigham City", "phone": "(435) 339-0101", "brand": "Crumbl Cookies", "brand:wikidata": "Q106924414"}, "geometry": {"type": "Point", "coordinates": [-112.0276737, 41.4840096]}},
{"type": "Feature", "id": "E_97JNZy6_GC_KNB8p5LEIqteG0=", "properties": {"ref": "50b53d90-5e6e-11ea-ac15-4dfeebe00dcc:Store", "@spider": "crumbl_cookies", "addr:full": "2325 Prairie Center Pkwy, Unit E, Brighton, Colorado 80601", "addr:city": "Brighton", "addr:state": "Colorado", "name": "Brighton", "phone": "(720) 727-0953", "brand": "Crumbl Cookies", "brand:wikidata": "Q106924414"}, "geometry": {"type": "Point", "coordinates": [-104.77773, 39.95439]}},
{"type": "Feature", "id": "95YnZ8-SxHrDkQ4pV0M6fu2WJsk=", "properties": {"ref": "09fa79f0-7237-11eb-bc45-d171933c7f88:Store", "@spider": "crumbl_cookies", "addr:full": "9942 Sowder Village Square, Manassas, Virginia 20109", "addr:city": "Manassas", "addr:state": "Virginia", "name": "Bristow", "phone": "(571) 358-8925", "brand": "Crumbl Cookies", "brand:wikidata": "Q106924414"}, "geometry": {"type": "Point", "coordinates": [-77.5356496, 38.7394378]}},
{"type": "Feature", "id": "2ZwM910ijaU0_KCbJ_kAfOmnT2Y=", "properties": {"ref": "e4735d60-5b4c-11eb-8f37-0beebe09e0f3:Store", "@spider": "crumbl_cookies", "addr:full": "1340 east Hillside Drive , Broken Arrow, Oklahoma 74012", "addr:city": "Broken Arrow", "addr:state": "Oklahoma", "name": "Broken Arrow", "phone": "(539) 600-2093", "brand": "Crumbl Cookies", "brand:wikidata": "Q106924414"}, "geometry": {"type": "Point", "coordinates": [-95.7748, 36.065475]}},
{"type": "Feature", "id": "rWON1La6Q5a7RSO6by7_UDHkFTA=", "properties": {"ref": "40220020-8c04-11eb-817a-6dc3c58e8bfd:Store", "@spider": "crumbl_cookies", "addr:full": "804 Town Blvd Suite A1035 , Atlanta, Georgia 30319", "addr:city": "Atlanta", "addr:state": "Georgia", "name": "Brookhaven", "phone": "470) 668-5045", "brand": "Crumbl Cookies", "brand:wikidata": "Q106924414"}, "geometry": {"type": "Point", "coordinates": [-84.3381836, 33.8702168]}},
{"type": "Feature", "id": "hQl2CC0EM7NZ2sMU06pCiNjWA-k=", "properties": {"ref": "f099c3d0-5f30-11eb-911d-178323049088:Store", "@spider": "crumbl_cookies", "addr:full": "140 NORTHWEST JOHN JONES DRIVE, #108, Burleson, Texas 76028", "addr:city": "Burleson", "addr:state": "Texas", "name": "Burleson", "phone": "(682) 200-3423", "brand": "Crumbl Cookies", "brand:wikidata": "Q106924414"}, "geometry": {"type": "Point", "coordinates": [-97.34863, 32.52332]}},
{"type": "Feature", "id": "MXoA1hENcaHGbThQqOErWHRnbIY=", "properties": {"ref": "59657f90-99f6-11ea-9b6d-85032fbdec44:Store", "@spider": "crumbl_cookies", "addr:full": "2598 E Craig Rd, Suite 100, North Las Vegas, Nevada 89030", "addr:city": "North Las Vegas", "addr:state": "Nevada", "name": "Cannery", "phone": "(702) 623-5110", "brand": "Crumbl Cookies", "brand:wikidata": "Q106924414"}, "geometry": {"type": "Point", "coordinates": [-115.1148467, 36.2402485]}},
{"type": "Feature", "id": "jMvJ73eAosdxPrOlGiT_WAdHFXo=", "properties": {"ref": "ded0dc30-a4e4-11ea-acf5-bd829a831ff1:Store", "@spider": "crumbl_cookies", "addr:full": "5030 E 2nd St, Suite 5, Casper, Wyoming 82609", "addr:city": "Casper", "addr:state": "Wyoming", "name": "Casper", "phone": "(307) 215-3319", "brand": "Crumbl Cookies", "brand:wikidata": "Q106924414"}, "geometry": {"type": "Point", "coordinates": [-106.2572249, 42.8481429]}},
{"type": "Feature", "id": "zoqy8-DI_REEwd6i5Th98cY2ijk=", "properties": {"ref": "4f5cf8c0-04ef-11eb-b45d-a727f070328e:Store", "@spider": "crumbl_cookies", "addr:full": "323 Metzler Dr., Ste. 102, Castle Rock, Colorado 80108", "addr:city": "Castle Rock", "addr:state": "Colorado", "name": "Castle Rock", "phone": "(720) 466-3009.", "brand": "Crumbl Cookies", "brand:wikidata": "Q106924414"}, "geometry": {"type": "Point", "coordinates": [-104.85906, 39.409272]}},
{"type": "Feature", "id": "NaFIsr_GyHJK3FF7EVHYOGweVVg=", "properties": {"ref": "5bbcba10-5e6e-11ea-ac15-4dfeebe00dcc:Store", "@spider": "crumbl_cookies", "addr:full": "1233 Sage Dr, Cedar City, Utah 84720", "addr:city": "Cedar City", "addr:state": "Utah", "name": "Cedar City", "phone": "(435) 383-2400", "brand": "Crumbl Cookies", "brand:wikidata": "Q106924414"}, "geometry": {"type": "Point", "coordinates": [-113.0858982, 37.655771]}},
{"type": "Feature", "id": "-jX2r-CE2IfJkWVfWzT0GL8tWuc=", "properties": {"ref": "821ad300-60e7-11eb-ad32-e934a4c7b0b7:Store", "@spider": "crumbl_cookies", "addr:full": "1005 Blairs Ferry Road NE Suite 50, Cedar Rapids, Iowa 52402", "addr:city": "Cedar Rapids", "addr:state": "Iowa", "name": "Cedar Rapids", "phone": "(319) 259-6347", "brand": "Crumbl Cookies", "brand:wikidata": "Q106924414"}, "geometry": {"type": "Point", "coordinates": [-91.6513636, 42.0344685]}},
{"type": "Feature", "id": "8e4Jhzo-wJ-nLFPZjb8Mei-rEes=", "properties": {"ref": "5a0fa650-5e6e-11ea-ac15-4dfeebe00dcc:Store", "@spider": "crumbl_cookies", "addr:full": "5590 Painted Mirage Rd, Las Vegas, Nevada 89149", "addr:city": "Las Vegas", "addr:state": "Nevada", "name": "Centennial", "phone": "(702) 707-9822", "brand": "Crumbl Cookies", "brand:wikidata": "Q106924414"}, "geometry": {"type": "Point", "coordinates": [-115.2583032, 36.2626527]}},
{"type": "Feature", "id": "sUwLmwVZqBETpHyJe9ofCZK2ErE=", "properties": {"ref": "2aba0610-3b32-11eb-9d03-0f57b734cbcb:Store", "@spider": "crumbl_cookies", "addr:full": "356 Market Place Dr, Centerville, UT, Centerville, Utah 84014", "addr:city": "Centerville", "addr:state": "Utah", "name": "Centerville", "phone": "(385) 200-2179", "brand": "Crumbl Cookies", "brand:wikidata": "Q106924414"}, "geometry": {"type": "Point", "coordinates": [-111.88717, 40.9206]}},
{"type": "Feature", "id": "kRB3Tw3R7yfgRiWHcD4V6e3uSTE=", "properties": {"ref": "526648f0-5e6e-11ea-bdc8-4f8d0b878ff3:Store", "@spider": "crumbl_cookies", "addr:full": "2780 W Chandler Blvd #5, Chandler, Arizona 85224", "addr:city": "Chandler", "addr:state": "Arizona", "name": "Chandler", "phone": "(480) 561-0229", "brand": "Crumbl Cookies", "brand:wikidata": "Q106924414"}, "geometry": {"type": "Point", "coordinates": [-111.8931888, 33.3064669]}},
{"type": "Feature", "id": "hF74ZTRIZijNQFg9qjEhklcwLdk=", "properties": {"ref": "438cf610-fc31-11ea-abe8-91914ed724ac:Store", "@spider": "crumbl_cookies", "addr:full": "7918A Rea Road, Charlotte, North Carolina 28277", "addr:city": "Charlotte", "addr:state": "North Carolina", "name": "Charlotte", "phone": "(704) 781-8111", "brand": "Crumbl Cookies", "brand:wikidata": "Q106924414"}, "geometry": {"type": "Point", "coordinates": [-80.81311, 35.05903]}},
{"type": "Feature", "id": "2yaP91LZIeMMFjphVgdNV6hVtxI=", "properties": {"ref": "53678c50-5e6e-11ea-bdc8-4f8d0b878ff3:Store", "@spider": "crumbl_cookies", "addr:full": "8021 E Brainerd Rd, Suite 103, Chattanooga, Tennessee 37421", "addr:city": "Chattanooga", "addr:state": "Tennessee", "name": "Chattanooga", "phone": "(423) 225-6001", "brand": "Crumbl Cookies", "brand:wikidata": "Q106924414"}, "geometry": {"type": "Point", "coordinates": [-85.150605, 35.00492]}},
{"type": "Feature", "id": "a8fhfIFq_1BN6q7mO3sCQRMvFa8=", "properties": {"ref": "2cb09400-3b34-11eb-abd7-87a39c9800f6:Store", "@spider": "crumbl_cookies", "addr:full": "855 East Ave Ste 220, Chico, California 95926", "addr:city": "Chico", "addr:state": "California", "name": "Chico", "phone": "(530) 230-9361", "brand": "Crumbl Cookies", "brand:wikidata": "Q106924414"}, "geometry": {"type": "Point", "coordinates": [-121.84393, 39.76064]}},
{"type": "Feature", "id": "rtH55h2Kyvn0VZudCT2XHtteo5U=", "properties": {"ref": "24d82f60-0365-11eb-924e-91f37a3d8866:Store", "@spider": "crumbl_cookies", "addr:full": "13004 N Pennsylvania Ave, Oklahoma City, Oklahoma 73114", "addr:city": "Oklahoma City", "addr:state": "Oklahoma", "name": "Chisholm Creek", "phone": "(405) 463-1802", "brand": "Crumbl Cookies", "brand:wikidata": "Q106924414"}, "geometry": {"type": "Point", "coordinates": [-97.548766, 35.602297]}},
{"type": "Feature", "id": "lo6I86k7j_7U7nce-zggfhVPnyo=", "properties": {"ref": "7b9c32d0-12ef-11eb-9c0a-b30e4b3c2c91:Store", "@spider": "crumbl_cookies", "addr:full": "9613 Ten Gallon Drive, Fort Worth, Texas  76123", "addr:city": "Fort Worth", "addr:state": "Texas", "name": "Chisholm Trail", "phone": "(682) 207-3697", "brand": "Crumbl Cookies", "brand:wikidata": "Q106924414"}, "geometry": {"type": "Point", "coordinates": [-97.4103, 32.60484]}},
{"type": "Feature", "id": "LLum8MUHa9lU9pS-dlWEM9Nt9Fk=", "properties": {"ref": "5b87ee70-5e6e-11ea-bdc8-4f8d0b878ff3:Store", "@spider": "crumbl_cookies", "addr:full": "23730 Westheimer Pkwy, Suite J, Katy, Texas 77494", "addr:city": "Katy", "addr:state": "Texas", "name": "Cinco Ranch", "phone": "(281) 937-4101", "brand": "Crumbl Cookies", "brand:wikidata": "Q106924414"}, "geometry": {"type": "Point", "coordinates": [-95.776958, 29.736555]}},
{"type": "Feature", "id": "KtL6Y0HMyAwZpucprU-ZMOXj8l8=", "properties": {"ref": "1e86ae50-8521-11eb-8e8a-ebe55b176e25:Store", "@spider": "crumbl_cookies", "addr:full": "17501 colima road, City of Industry, California 91748", "addr:city": "City of Industry", "addr:state": "California", "name": "City of Industry", "phone": "(626) 559-0160", "brand": "Crumbl Cookies", "brand:wikidata": "Q106924414"}, "geometry": {"type": "Point", "coordinates": [-117.9268143, 33.9910145]}},
{"type": "Feature", "id": "MKAaKI3haTtlctWQ-qoUhMfVC8w=", "properties": {"ref": "387860c0-9f98-11ea-95bd-e597226801a4:Store", "@spider": "crumbl_cookies", "addr:full": "8946 SE Sunnyside Rd, Clackamas, Oregon 97015", "addr:city": "Clackamas", "addr:state": "Oregon", "name": "Clackamas", "phone": "(503) 583-8500", "brand": "Crumbl Cookies", "brand:wikidata": "Q106924414"}, "geometry": {"type": "Point", "coordinates": [-122.571811651, 45.4309332]}},
{"type": "Feature", "id": "OlM_2LhKFZqOEWohb2ZPrXtraWo=", "properties": {"ref": "f0bf9cf0-96f7-11eb-8fcd-1dfca2ae952d:Store", "@spider": "crumbl_cookies", "addr:full": "440 Bridge St , Clarkston, Washington 99403", "addr:city": "Clarkston", "addr:state": "Washington", "name": "Clarkston", "phone": "(509) 596-0211", "brand": "Crumbl Cookies", "brand:wikidata": "Q106924414"}, "geometry": {"type": "Point", "coordinates": [-117.0458018, 46.4211032]}},
{"type": "Feature", "id": "GMklRWeKB4qOa5Qhcr-XM28Ue4M=", "properties": {"ref": "cdc38060-785f-11eb-b113-6f1fddd73c5f:Store", "@spider": "crumbl_cookies", "addr:full": "2719 Gulf to Bay Blvd. Suite 1120,, Clearwater, Florida 33759", "addr:city": "Clearwater", "addr:state": "Florida", "name": "Clearwater", "phone": "727) 371-8779", "brand": "Crumbl Cookies", "brand:wikidata": "Q106924414"}, "geometry": {"type": "Point", "coordinates": [-82.7273667, 27.9600912]}},
{"type": "Feature", "id": "6HE2JiZdjeZoTZR9Rh1vQjp0r5s=", "properties": {"ref": "5e525bd0-04f0-11eb-b199-a13548916175:Store", "@spider": "crumbl_cookies", "addr:full": "615 Paul Huff Parkway, Suite 106, Cleveland, Tennessee 37312", "addr:city": "Cleveland", "addr:state": "Tennessee", "name": "Cleveland", "phone": "(423) 244-0430", "brand": "Crumbl Cookies", "brand:wikidata": "Q106924414"}, "geometry": {"type": "Point", "coordinates": [-84.859413, 35.210346]}},
{"type": "Feature", "id": "CcEgZMGIM8suAxf7OI8qTNas_fM=", "properties": {"ref": "457fd590-e0cb-11ea-b9db-a74045a822a3:Store", "@spider": "crumbl_cookies", "addr:full": "1850 Herndon Ave, #109, Clovis, California 93611", "addr:city": "Clovis", "addr:state": "California", "name": "Clovis", "phone": "(559) 345-5304", "brand": "Crumbl Cookies", "brand:wikidata": "Q106924414"}, "geometry": {"type": "Point", "coordinates": [-119.68223, 36.836981]}},
{"type": "Feature", "id": "8sOC9nvRtmYsSU_xijObrtT_eSM=", "properties": {"ref": "40f885b0-04db-11eb-a473-ebcd1eadd1e2:Store", "@spider": "crumbl_cookies", "addr:full": "3524 N Government Way, Coeur d'Alene, Idaho 83815", "addr:city": "Coeur d'Alene", "addr:state": "Idaho", "name": "Coeur d'Alene", "phone": "(208) 408-0685", "brand": "Crumbl Cookies", "brand:wikidata": "Q106924414"}, "geometry": {"type": "Point", "coordinates": [-116.78504, 47.70806]}},
{"type": "Feature", "id": "oTURfOKV-uiBaZkvi19tkpogD9g=", "properties": {"ref": "6de78260-60e8-11eb-8991-bffad902d89a:Store", "@spider": "crumbl_cookies", "addr:full": "707 South Park BLVD. Suit 4 , Colonial Heights, Virginia 23834", "addr:city": "Colonial Heights", "addr:state": "Virginia", "name": "Colonial Heights", "phone": "(804) 302-0345", "brand": "Crumbl Cookies", "brand:wikidata": "Q106924414"}, "geometry": {"type": "Point", "coordinates": [-77.3901518, 37.2476646]}},
{"type": "Feature", "id": "n3zSZrsomZJhcCOMM1RFrz115Zo=", "properties": {"ref": "5a2acf70-5e6e-11ea-bdc8-4f8d0b878ff3:Store", "@spider": "crumbl_cookies", "addr:full": "5102 N Nevada Ave, Suite 120, Colorado Springs, Colorado 80918", "addr:city": "Colorado Springs", "addr:state": "Colorado", "name": "Colorado Springs", "phone": "(719) 401-0030", "brand": "Crumbl Cookies", "brand:wikidata": "Q106924414"}, "geometry": {"type": "Point", "coordinates": [-104.81809, 38.9027]}},
{"type": "Feature", "id": "uMyR3XVjzwUWwX5rIasgk1R20hY=", "properties": {"ref": "ea8379d0-04ec-11eb-84cd-db8044f0f9ed:Store", "@spider": "crumbl_cookies", "addr:full": "21 Conley Rd. Suite R, Columbia, Missouri 65201", "addr:city": "Columbia", "addr:state": "Missouri", "name": "Columbia", "phone": "(573) 355-5787", "brand": "Crumbl Cookies", "brand:wikidata": "Q106924414"}, "geometry": {"type": "Point", "coordinates": [-92.296238, 38.94885]}},
{"type": "Feature", "id": "Dk-LJ9rK3mqYy1ESqd7o44nwDSs=", "properties": {"ref": "75532680-5ce2-11eb-8958-7d4f8a3295bc:Store", "@spider": "crumbl_cookies", "addr:full": "2015 Diamond Boulevard, Suite E-150, Concord, California 94520", "addr:city": "Concord", "addr:state": "California", "name": "Concord", "phone": "(925) 476-4996", "brand": "Crumbl Cookies", "brand:wikidata": "Q106924414"}, "geometry": {"type": "Point", "coordinates": [-122.0574, 37.97322]}},
{"type": "Feature", "id": "pVjwd9Jxfy3V_3eHx5fXSdAsPhI=", "properties": {"ref": "1f271e10-6656-11eb-9ad4-ef0d84800e3c:Store", "@spider": "crumbl_cookies", "addr:full": "8915 Christenbury Parkway, Suite 20, Concord, North Carolina 28027", "addr:city": "Concord", "addr:state": "North Carolina", "name": "Concord Mills", "phone": "(980) 825-7022", "brand": "Crumbl Cookies", "brand:wikidata": "Q106924414"}, "geometry": {"type": "Point", "coordinates": [-80.7360579, 35.3753689]}},
{"type": "Feature", "id": "fLC-_auPLQVCxfB-n8ysXE2oT0c=", "properties": {"ref": "53cae6c0-04da-11eb-8a2a-4d3151003ef9:Store", "@spider": "crumbl_cookies", "addr:full": "6071 Coral Ridge Drive, Coral Springs, Florida 33076", "addr:city": "Coral Springs", "addr:state": "Florida", "name": "Coral Springs", "phone": "(754) 241-0237", "brand": "Crumbl Cookies", "brand:wikidata": "Q106924414"}, "geometry": {"type": "Point", "coordinates": [-80.27799, 26.305926]}},
{"type": "Feature", "id": "rEl1y8lgJ_gekTQbNZmxL6jDaHE=", "properties": {"ref": "88c43620-6253-11eb-a770-41eb71bd785f:Store", "@spider": "crumbl_cookies", "addr:full": "1705 NW 9th St, Corvallis, OR 97330, Corvallis, Oregon 97330", "addr:city": "Corvallis", "addr:state": "Oregon", "name": "Corvallis", "phone": "(541) 286-6611", "brand": "Crumbl Cookies", "brand:wikidata": "Q106924414"}, "geometry": {"type": "Point", "coordinates": [-123.2579719, 44.583417]}},
{"type": "Feature", "id": "b02U5aaKyxc6Jxk1qcV9tYM62Ig=", "properties": {"ref": "50cec550-77bb-11eb-99cd-1bd9f33aaf2f:Store", "@spider": "crumbl_cookies", "addr:full": "8240 Delta Shores Circle South, Suite 120, Sacramento, California 95832", "addr:city": "Sacramento", "addr:state": "California", "name": "Cosumnes River", "phone": "(279) 895-7022", "brand": "Crumbl Cookies", "brand:wikidata": "Q106924414"}, "geometry": {"type": "Point", "coordinates": [-121.4940869, 38.4613378]}},
{"type": "Feature", "id": "NZ4YgZh6kU8pZRsgYFWOzMf7uk0=", "properties": {"ref": "e8e72dc0-0743-11eb-9a7a-27bee6e3e84e:Store", "@spider": "crumbl_cookies", "addr:full": "6079 Mid Rivers Mall Dr. , Cottleville, Missouri 63304", "addr:city": "Cottleville", "addr:state": "Missouri", "name": "Cottleville", "phone": "(636) 706-5076", "brand": "Crumbl Cookies", "brand:wikidata": "Q106924414"}, "geometry": {"type": "Point", "coordinates": [-90.63499, 38.74654]}},
{"type": "Feature", "id": "9BDTdzxkTCTaDX1JF7dx3JQigsc=", "properties": {"ref": "4ef53e10-5e6e-11ea-879c-1d041e321f2b:Store", "@spider": "crumbl_cookies", "addr:full": "1844 Fort Union Blvd, Cottonwood Heights, Utah 84121", "addr:city": "Cottonwood Heights", "addr:state": "Utah", "name": "Cottonwood", "phone": "(385) 246-1004", "brand": "Crumbl Cookies", "brand:wikidata": "Q106924414"}, "geometry": {"type": "Point", "coordinates": [-111.8386465, 40.6240555]}},
{"type": "Feature", "id": "jAoHZHN_tBHGvBgsiTeIzWurK6Q=", "properties": {"ref": "413db280-3b35-11eb-9d58-d5f3f8cca02b:Store", "@spider": "crumbl_cookies", "addr:full": "10420 Coors Bypass NW  Suite 104-B  , Albuquerque, New Mexico 87114", "addr:city": "Albuquerque", "addr:state": "New Mexico", "name": "Cottonwood", "phone": "(505) 357-3640", "brand": "Crumbl Cookies", "brand:wikidata": "Q106924414"}, "geometry": {"type": "Point", "coordinates": [-106.65334, 35.20952]}},
{"type": "Feature", "id": "2HI8i4TuO53DIeJnSBMBTk15N0Y=", "properties": {"ref": "a94267b0-04e7-11eb-91ea-211786d6b4ce:Store", "@spider": "crumbl_cookies", "addr:full": "16915 SE 272nd St, Ste 102, Covington, Washington 98042", "addr:city": "Covington", "addr:state": "Washington", "name": "Covington", "phone": "(253) 235-9542", "brand": "Crumbl Cookies", "brand:wikidata": "Q106924414"}, "geometry": {"type": "Point", "coordinates": [-122.116051, 47.35633]}},
{"type": "Feature", "id": "wAmGcDZOtrpD7IWwHY59Dt5Kc7E=", "properties": {"ref": "f14cce10-ec9b-11ea-931f-c1b9538825db:Store", "@spider": "crumbl_cookies", "addr:full": "405 Peachtree Pkwy, Suite 120, Cumming, Georgia 30041", "addr:city": "Cumming", "addr:state": "Georgia", "name": "Cumming", "phone": "(470) 239-1986", "brand": "Crumbl Cookies", "brand:wikidata": "Q106924414"}, "geometry": {"type": "Point", "coordinates": [-84.173176, 34.153211]}},
{"type": "Feature", "id": "SlCam42sSQc5k17SXKNWY4ghrfw=", "properties": {"ref": "50b98350-5e6e-11ea-bdc8-4f8d0b878ff3:Store", "@spider": "crumbl_cookies", "addr:full": "28610 US-290 Suite F-15, Cypress, Texas 77433", "addr:city": "Cypress", "addr:state": "Texas", "name": "Cypress", "phone": "(281) 694-4220", "brand": "Crumbl Cookies", "brand:wikidata": "Q106924414"}, "geometry": {"type": "Point", "coordinates": [-95.746348, 29.993227]}},
{"type": "Feature", "id": "nkF1WYyqriy9IPSOzqfJ8IWrA2c=", "properties": {"ref": "31f4a530-5b75-11eb-9976-e7f8bf667c3e:Store", "@spider": "crumbl_cookies", "addr:full": "2272 S. University Drive, Davie, Florida 33324", "addr:city": "Davie", "addr:state": "Florida", "name": "Davie", "phone": "(754) 241-9835", "brand": "Crumbl Cookies", "brand:wikidata": "Q106924414"}, "geometry": {"type": "Point", "coordinates": [-80.25114, 26.0940653]}},
{"type": "Feature", "id": "xJN_tq2_YYRUmCp8sjlrVZJo2Fo=", "properties": {"ref": "e35a3550-5b85-11eb-b49e-d9e8cbc41fbb:Store", "@spider": "crumbl_cookies", "addr:full": "2926 Golf Road, Delafield, Wisconsin 53018", "addr:city": "Delafield", "addr:state": "Wisconsin", "name": "Delafield", "phone": "(262) 256-0250", "brand": "Crumbl Cookies", "brand:wikidata": "Q106924414"}, "geometry": {"type": "Point", "coordinates": [-88.36843, 43.05316]}},
{"type": "Feature", "id": "fCPHt8TdagL2dqQSpcuJHY-WToU=", "properties": {"ref": "5f0978b0-dce1-11ea-bf09-8704f375f048:Store", "@spider": "crumbl_cookies", "addr:full": "820 Sunbury Road, Unit 622, Delaware, Ohio 43015", "addr:city": "Delaware", "addr:state": "Ohio", "name": "Delaware", "phone": "(740) 206-8375", "brand": "Crumbl Cookies", "brand:wikidata": "Q106924414"}, "geometry": {"type": "Point", "coordinates": [-83.037478, 40.293047]}},
{"type": "Feature", "id": "Gtp21GJoVxJPY3LE3UTWuKoUJzg=", "properties": {"ref": "dcb5c320-09a7-11eb-98ff-7115dabbec5b:Store", "@spider": "crumbl_cookies", "addr:full": "1918 N Rock Rd #700, Derby, Kansas 67037", "addr:city": "Derby", "addr:state": "Kansas", "name": "Derby", "phone": "(316) 252-3848", "brand": "Crumbl Cookies", "brand:wikidata": "Q106924414"}, "geometry": {"type": "Point", "coordinates": [-97.24351, 37.56762]}},
{"type": "Feature", "id": "4OVf5rzi7NUpMsFVZ-EN7NgZ6yY=", "properties": {"ref": "5c4daf70-5e6e-11ea-ac15-4dfeebe00dcc:Store", "@spider": "crumbl_cookies", "addr:full": "1223 E Draper Pkwy, Draper, Utah 84020", "addr:city": "Draper", "addr:state": "Utah", "name": "Draper", "phone": "(385) 237-1430", "brand": "Crumbl Cookies", "brand:wikidata": "Q106924414"}, "geometry": {"type": "Point", "coordinates": [-111.8558578, 40.5293405]}},
{"type": "Feature", "id": "Clrs3rfubVPyHQjCW1L8UXQfBcE=", "properties": {"ref": "b94a2b70-d751-11ea-811b-593daae5dae9:Store", "@spider": "crumbl_cookies", "addr:full": "6780 Perimeter Loop Rd, Dublin, Ohio 43017", "addr:city": "Dublin", "addr:state": "Ohio", "name": "Dublin", "phone": "(614) 465-3888", "brand": "Crumbl Cookies", "brand:wikidata": "Q106924414"}, "geometry": {"type": "Point", "coordinates": [-83.15748, 40.10394]}},
{"type": "Feature", "id": "vn2Xsob55bmNMZ47mcXeO2MduUk=", "properties": {"ref": "524e2d10-5e6e-11ea-ac15-4dfeebe00dcc:Store", "@spider": "crumbl_cookies", "addr:full": "6255 S Durango Dr, Nevada, Nevada 89113", "addr:city": "Nevada", "addr:state": "Nevada", "name": "Durango", "phone": "(702) 613-4667", "brand": "Crumbl Cookies", "brand:wikidata": "Q106924414"}, "geometry": {"type": "Point", "coordinates": [-115.28003, 36.07504]}},
{"type": "Feature", "id": "eyJglYFASWnabRhtiXgVJIVkm_E=", "properties": {"ref": "3b8cd6d0-60f2-11eb-88fa-610ae9de7517:Store", "@spider": "crumbl_cookies", "addr:full": "3116 East State Street , Eagle, Idaho 83616", "addr:city": "Eagle", "addr:state": "Idaho", "name": "Eagle", "phone": "(208) 370-2638", "brand": "Crumbl Cookies", "brand:wikidata": "Q106924414"}, "geometry": {"type": "Point", "coordinates": [-116.3168472, 43.6837738]}},
{"type": "Feature", "id": "NuGpVZj-g8o382mrQLLw5q3JRw4=", "properties": {"ref": "2b947f70-61b1-11eb-be5a-1bcfb817aa11:Store", "@spider": "crumbl_cookies", "addr:full": "711 South Mendenhall Road Memphis TN 38117, Memphis, Tennessee 38117", "addr:city": "Memphis", "addr:state": "Tennessee", "name": "East Memphis", "phone": "(901) 410 - 1950", "brand": "Crumbl Cookies", "brand:wikidata": "Q106924414"}, "geometry": {"type": "Point", "coordinates": [-89.8986942, 35.1117544]}},
{"type": "Feature", "id": "CHvt_-MP4YhkAi3QgUVEwdfy3TY=", "properties": {"ref": "9f503000-60e2-11eb-b68b-ad8e6037f542:Store", "@spider": "crumbl_cookies", "addr:full": "1931 Sheridan Blvd , Edgewater, Colorado 80214", "addr:city": "Edgewater", "addr:state": "Colorado", "name": "Edgewater", "phone": "(720) 798-5642", "brand": "Crumbl Cookies", "brand:wikidata": "Q106924414"}, "geometry": {"type": "Point", "coordinates": [-105.0544262, 39.7473275]}},
{"type": "Feature", "id": "GdFh8TOR4XpTuDs4xU2WsxavlSc=", "properties": {"ref": "55a0fc80-0a4f-11eb-bf21-63bd41a9c5ca:Store", "@spider": "crumbl_cookies", "addr:full": "7560 Elk Grove Blvd, Elk Grove, California 95757", "addr:city": "Elk Grove", "addr:state": "California", "name": "Elk Grove", "phone": "(916) 318-0224", "brand": "Crumbl Cookies", "brand:wikidata": "Q106924414"}, "geometry": {"type": "Point", "coordinates": [-121.414963, 38.408399]}},
{"type": "Feature", "id": "pnh_rzzIAc2TiSnzXqvRi4q8bMM=", "properties": {"ref": "8fc69100-6940-11ea-a50b-5188e6e68188:Store", "@spider": "crumbl_cookies", "addr:full": "207 Coburg Rd, Suite 107, Eugene, Oregon 97401", "addr:city": "Eugene", "addr:state": "Oregon", "name": "Eugene", "phone": "(541) 246-6565", "brand": "Crumbl Cookies", "brand:wikidata": "Q106924414"}, "geometry": {"type": "Point", "coordinates": [-123.0757667, 44.0641149]}},
{"type": "Feature", "id": "72E20U_20B34aoZ4BwHFUrCcm5s=", "properties": {"ref": "c43738c0-6022-11eb-ae5e-8f41c470bc3f:Store", "@spider": "crumbl_cookies", "addr:full": "939 N. Burkhardt Road, STE B, Evansville, Indiana 47715", "addr:city": "Evansville", "addr:state": "Indiana", "name": "Evansville", "phone": "(812) 965-4133", "brand": "Crumbl Cookies", "brand:wikidata": "Q106924414"}, "geometry": {"type": "Point", "coordinates": [-87.4736865, 37.9849501]}},
{"type": "Feature", "id": "XM2OL5W4xmQCurQWB6KSUAvtMK4=", "properties": {"ref": "7776d650-786c-11eb-90e3-b173c0317e83:Store", "@spider": "crumbl_cookies", "addr:full": "1812 S 320th St, Suite B, , Federal Way, Washington 98003", "addr:city": "Federal Way", "addr:state": "Washington", "name": "Federal Way", "phone": "(253) 218-1019", "brand": "Crumbl Cookies", "brand:wikidata": "Q106924414"}, "geometry": {"type": "Point", "coordinates": [-122.3125366, 47.3168238]}},
{"type": "Feature", "id": "hoX37wBbG022IQnf4rTilQmVZ8Y=", "properties": {"ref": "fd404660-12e9-11eb-a8df-859e869ed772:Store", "@spider": "crumbl_cookies", "addr:full": "8395 E 116th St, Fishers, Indiana 46038", "addr:city": "Fishers", "addr:state": "Indiana", "name": "Fishers", "phone": "(317) 284-9311", "brand": "Crumbl Cookies", "brand:wikidata": "Q106924414"}, "geometry": {"type": "Point", "coordinates": [-86.020378, 39.95636]}},
{"type": "Feature", "id": "ljRo_7gOf4bzQH0H8Vb0OXk72Fc=", "properties": {"ref": "5afaf0b0-5e6e-11ea-bdc8-4f8d0b878ff3:Store", "@spider": "crumbl_cookies", "addr:full": "319 S Regent St, Suite 203, Flagstaff, Arizona 86001", "addr:city": "Flagstaff", "addr:state": "Arizona", "name": "Flagstaff", "phone": "(928) 235-2500", "brand": "Crumbl Cookies", "brand:wikidata": "Q106924414"}, "geometry": {"type": "Point", "coordinates": [-111.64267, 35.191921]}},
{"type": "Feature", "id": "jN662Tgr8zPOzo-gf8MA4sNCF_Y=", "properties": {"ref": "bd8ff710-61ac-11eb-89e1-4b8254e36c13:Store", "@spider": "crumbl_cookies", "addr:full": "2550 Cross Timbers Road Suite 108, Flower Mound, Texas 75028", "addr:city": "Flower Mound", "addr:state": "Texas", "name": "Flower Mound", "phone": "(469) 240-1038", "brand": "Crumbl Cookies", "brand:wikidata": "Q106924414"}, "geometry": {"type": "Point", "coordinates": [-97.06847, 33.03618]}},
{"type": "Feature", "id": "L4n4lljZQCGhFRd2WCccpskS570=", "properties": {"ref": "01f9f710-358a-11eb-9acb-c96b098512b5:Store", "@spider": "crumbl_cookies", "addr:full": "195 Placerville Road, #120, Folsom, California 95630", "addr:city": "Folsom", "addr:state": "California", "name": "Folsom", "phone": "(916) 238-6302", "brand": "Crumbl Cookies", "brand:wikidata": "Q106924414"}, "geometry": {"type": "Point", "coordinates": [-121.11334, 38.64611]}},
{"type": "Feature", "id": "H6ZGr99_mzZMLjRBvehteiJ-JVg=", "properties": {"ref": "5b596460-5e6e-11ea-ac15-4dfeebe00dcc:Store", "@spider": "crumbl_cookies", "addr:full": "3300 S College Ave, Suite 120, Fort Collins, Colorado 80525", "addr:city": "Fort Collins", "addr:state": "Colorado", "name": "Fort Collins", "phone": "(720) 727-1058", "brand": "Crumbl Cookies", "brand:wikidata": "Q106924414"}, "geometry": {"type": "Point", "coordinates": [-105.07644, 40.54173]}},
{"type": "Feature", "id": "YrvDchxV9Mj4svNAOYlKrk2FgjU=", "properties": {"ref": "5956b690-5e6e-11ea-ac15-4dfeebe00dcc:Store", "@spider": "crumbl_cookies", "addr:full": "539 Cool Springs Blvd, Suite 110-A, Franklin, Tennessee 37067", "addr:city": "Franklin", "addr:state": "Tennessee", "name": "Franklin", "phone": "(615) 422-7722", "brand": "Crumbl Cookies", "brand:wikidata": "Q106924414"}, "geometry": {"type": "Point", "coordinates": [-86.825279, 35.947361]}},
{"type": "Feature", "id": "DfCSHNXcm3wio_Jkb1h8uOc_FTU=", "properties": {"ref": "491546a0-38d6-11eb-9c7e-8346da2a386f:Store", "@spider": "crumbl_cookies", "addr:full": "1460 Central Park Blvd Suite 106, Fredericksburg, Virginia 22401", "addr:city": "Fredericksburg", "addr:state": "Virginia", "name": "Fredericksburg", "phone": "(540) 368-6747", "brand": "Crumbl Cookies", "brand:wikidata": "Q106924414"}, "geometry": {"type": "Point", "coordinates": [-77.511868, 38.304399]}},
{"type": "Feature", "id": "1Dlf3kuIFfNY3O6aDrUtvtGckLc=", "properties": {"ref": "2b4baf20-60cb-11eb-bc21-99edbe9b7b63:Store", "@spider": "crumbl_cookies", "addr:full": "7969 N Blackstone Ave, Fresno, California 93711", "addr:city": "Fresno", "addr:state": "California", "name": "Fresno", "phone": "(559) 321-7024", "brand": "Crumbl Cookies", "brand:wikidata": "Q106924414"}, "geometry": {"type": "Point", "coordinates": [-119.792128, 36.851503]}},
{"type": "Feature", "id": "tpn7ghdguCI8T6VSRB-0mm2Tlyo=", "properties": {"ref": "9f337070-04f1-11eb-b5b6-7fe65272902c:Store", "@spider": "crumbl_cookies", "addr:full": "5345 N Garland Avenue, Ste. 310 Garland, TX 75040, Garland, Texas 75040", "addr:city": "Garland", "addr:state": "Texas", "name": "Garland", "phone": "(469) 750-0748", "brand": "Crumbl Cookies", "brand:wikidata": "Q106924414"}, "geometry": {"type": "Point", "coordinates": [-96.644431, 32.964489]}},
{"type": "Feature", "id": "vxKE1xbGbilsGz5kCjQCNwAqlYk=", "properties": {"ref": "83097ae0-ec8a-11ea-8862-f1db65b0f54f:Store", "@spider": "crumbl_cookies", "addr:full": "1013 W University Ave, Unit 130, Georgetown, Texas 78628", "addr:city": "Georgetown", "addr:state": "Texas", "name": "Georgetown", "phone": "(512) 630-0363", "brand": "Crumbl Cookies", "brand:wikidata": "Q106924414"}, "geometry": {"type": "Point", "coordinates": [-97.69501, 30.6317]}},
{"type": "Feature", "id": "j3xfxzf45YVv470QBRjwdNuuFAA=", "properties": {"ref": "022edc50-7fd1-11eb-be12-8585eca4bc1b:Store", "@spider": "crumbl_cookies", "addr:full": "4784 Borgen Blvd, Suite E, Gig Harbor , Washington 98335", "addr:city": "Gig Harbor ", "addr:state": "Washington", "name": "Gig Harbor", "phone": "2533036300", "brand": "Crumbl Cookies", "brand:wikidata": "Q106924414"}, "geometry": {"type": "Point", "coordinates": [-122.6048386, 47.3595709]}},
{"type": "Feature", "id": "ghBdMv3WGGH-fWc8apE2Fj-d5KE=", "properties": {"ref": "5bf3cfa0-5e6e-11ea-ac15-4dfeebe00dcc:Store", "@spider": "crumbl_cookies", "addr:full": "2743 S Market St, Gilbert, Arizona 85295", "addr:city": "Gilbert", "addr:state": "Arizona", "name": "Gilbert", "phone": "(480) 645-9555", "brand": "Crumbl Cookies", "brand:wikidata": "Q106924414"}, "geometry": {"type": "Point", "coordinates": [-111.7434493, 33.3005]}},
{"type": "Feature", "id": "KG4wZfbiyalsSEPRt_RkNXsdTUw=", "properties": {"ref": "52e738c0-5e6e-11ea-bdc8-4f8d0b878ff3:Store", "@spider": "crumbl_cookies", "addr:full": "9390 W Hanna Ln, Unit B-103, Glendale, Arizona 85305", "addr:city": "Glendale", "addr:state": "Arizona", "name": "Glendale", "phone": " (602)-675-9555", "brand": "Crumbl Cookies", "brand:wikidata": "Q106924414"}, "geometry": {"type": "Point", "coordinates": [-112.2608787, 33.5351585]}},
{"type": "Feature", "id": "PU7MSdwvz0xVURgV-fqi_viV_1M=", "properties": {"ref": "8f4e06d0-6260-11eb-a46e-abb30e01a929:Store", "@spider": "crumbl_cookies", "addr:full": "1365 E. Gladstone St. #500, Glendora, California 91740", "addr:city": "Glendora", "addr:state": "California", "name": "Glendora", "phone": "(626) 385-6756", "brand": "Crumbl Cookies", "brand:wikidata": "Q106924414"}, "geometry": {"type": "Point", "coordinates": [-117.8364096, 34.116399]}},
{"type": "Feature", "id": "unK1yii9-c6-jp6hnSI-UXapQVs=", "properties": {"ref": "f38770d0-3b34-11eb-ad90-4339f914b84a:Store", "@spider": "crumbl_cookies", "addr:full": "790 N Estrella Pkwy STE F, Goodyear, Arizona 85338", "addr:city": "Goodyear", "addr:state": "Arizona", "name": "Goodyear", "phone": "(623) 259-4311", "brand": "Crumbl Cookies", "brand:wikidata": "Q106924414"}, "geometry": {"type": "Point", "coordinates": [-112.39316, 33.45556]}},
{"type": "Feature", "id": "r6kozHx2cL8Nrl61AjMTOlMi5NA=", "properties": {"ref": "6b095a50-5e6e-11ea-974d-77186d339622:Store", "@spider": "crumbl_cookies", "addr:full": "2546 Rimrock Ave, Suite 400, Grand Junction, Colorado 81505", "addr:city": "Grand Junction", "addr:state": "Colorado", "name": "Grand Junction", "phone": "(970) 368-5033", "brand": "Crumbl Cookies", "brand:wikidata": "Q106924414"}, "geometry": {"type": "Point", "coordinates": [-108.5832452, 39.0788568]}},
{"type": "Feature", "id": "Ado1DNzPQyMwTz4EH6QaZEfBvAU=", "properties": {"ref": "6ec36940-0d7f-11eb-80f6-4f48e0633614:Store", "@spider": "crumbl_cookies", "addr:full": "5220 S State Hwy 360, Suite 160, Grand Prairie, Texas 75052", "addr:city": "Grand Prairie", "addr:state": "Texas", "name": "Grand Prairie", "phone": "(682) 777-4658", "brand": "Crumbl Cookies", "brand:wikidata": "Q106924414"}, "geometry": {"type": "Point", "coordinates": [-97.05987, 32.64471]}},
{"type": "Feature", "id": "PP3dlPqti2xzlW6moJm5QUgQ0IU=", "properties": {"ref": "337ac7a0-5b83-11eb-af96-f7b29a469945:Store", "@spider": "crumbl_cookies", "addr:full": "3577 28th Street SE, Suite G4, Grand Rapids, Michigan 49512", "addr:city": "Grand Rapids", "addr:state": "Michigan", "name": "Grand Rapids", "phone": "(616) 803-8734", "brand": "Crumbl Cookies", "brand:wikidata": "Q106924414"}, "geometry": {"type": "Point", "coordinates": [-85.57906, 42.91286]}},
{"type": "Feature", "id": "mmI1On3UKkP2PRecAGQDe400qG0=", "properties": {"ref": "514373d0-5e6e-11ea-ac15-4dfeebe00dcc:Store", "@spider": "crumbl_cookies", "addr:full": "4421 Centerplace Dr. Suite B, Greeley, Colorado 80634", "addr:city": "Greeley", "addr:state": "Colorado", "name": "Greeley", "phone": "(720) 727-1296", "brand": "Crumbl Cookies", "brand:wikidata": "Q106924414"}, "geometry": {"type": "Point", "coordinates": [-104.75331, 40.3941]}},
{"type": "Feature", "id": "E5kpt5JLggdXqEijW6i0peojjR8=", "properties": {"ref": "eca763a0-6254-11eb-b884-77fa123c68bf:Store", "@spider": "crumbl_cookies", "addr:full": "1218 Bridford Parkway Unit A Greensboro, NC 27407, Greensboro, North Carolina 27407", "addr:city": "Greensboro", "addr:state": "North Carolina", "name": "Greensboro", "phone": "(336) 316-6599", "brand": "Crumbl Cookies", "brand:wikidata": "Q106924414"}, "geometry": {"type": "Point", "coordinates": [-79.9066346, 36.0565367]}},
{"type": "Feature", "id": "OtykLYKPfSqxWb8XhwmjOJjkdUc=", "properties": {"ref": "83aa3fb0-f2d5-11ea-b0b4-afe62af918de:Store", "@spider": "crumbl_cookies", "addr:full": "1118 Woodruff Rd, Unit B , Greenville, South Carolina 29607", "addr:city": "Greenville", "addr:state": "South Carolina", "name": "Greenville", "phone": "(864) 881-2250", "brand": "Crumbl Cookies", "brand:wikidata": "Q106924414"}, "geometry": {"type": "Point", "coordinates": [-82.30533, 34.82964]}},
{"type": "Feature", "id": "az43JeqxIgJqwcaFqDe3edJcGwY=", "properties": {"ref": "ce7c0490-61ae-11eb-88b0-47e1c4b4c01a:Store", "@spider": "crumbl_cookies", "addr:full": "1675 W. Smith Valley Road, Suite D4B, Greenwood, Indiana 46142", "addr:city": "Greenwood", "addr:state": "Indiana", "name": "Greenwood", "phone": "(463) 200-5249", "brand": "Crumbl Cookies", "brand:wikidata": "Q106924414"}, "geometry": {"type": "Point", "coordinates": [-86.1566425, 39.6047975]}},
{"type": "Feature", "id": "k1n9FRfjno0rclc26kWDQJyTX8E=", "properties": {"ref": "5a7a9d20-5e6e-11ea-ac15-4dfeebe00dcc:Store", "@spider": "crumbl_cookies", "addr:full": "8547 E Arapahoe Rd, Unit C, Greenwood Village, Colorado 80112", "addr:city": "Greenwood Village", "addr:state": "Colorado", "name": "Greenwood Village", "phone": "(720) 442-8083", "brand": "Crumbl Cookies", "brand:wikidata": "Q106924414"}, "geometry": {"type": "Point", "coordinates": [-104.89128, 39.59632]}},
{"type": "Feature", "id": "hbMuhCbpx4YG4nNKg-lojlZ_KTA=", "properties": {"ref": "9b031400-c2ed-11eb-9624-2be422cd911e:Store", "@spider": "crumbl_cookies", "addr:full": "15520 Daniel BLVD suite D, Gulfport, Mississippi 39503", "addr:city": "Gulfport", "addr:state": "Mississippi", "name": "Gulfport", "phone": "(228) 277-1004", "brand": "Crumbl Cookies", "brand:wikidata": "Q106924414"}, "geometry": {"type": "Point", "coordinates": [-89.1012477, 30.4364883]}},
{"type": "Feature", "id": "G2GLZf89-UwQRmYrmoNH6T-F69U=", "properties": {"ref": "e37cbaf0-6d6c-11eb-8537-9723ee061b8e:Store", "@spider": "crumbl_cookies", "addr:full": "3977 Kilgore Ave Ste 204, , Hampton, Virginia 23666", "addr:city": "Hampton", "addr:state": "Virginia", "name": "Hampton", "phone": "(757) 504-0256", "brand": "Crumbl Cookies", "brand:wikidata": "Q106924414"}, "geometry": {"type": "Point", "coordinates": [-76.3959407, 37.0447923]}},
{"type": "Feature", "id": "JF2KtHASt9XwDyVx-eJqaEZ4LUE=", "properties": {"ref": "ac756810-8ae9-11ea-92b2-d72f0650854a:Store", "@spider": "crumbl_cookies", "addr:full": "75 W 1000 S, #500, Heber City, Utah 84032", "addr:city": "Heber City", "addr:state": "Utah", "name": "Heber City", "phone": "(435) 709-2623", "brand": "Crumbl Cookies", "brand:wikidata": "Q106924414"}, "geometry": {"type": "Point", "coordinates": [-111.415073, 40.494239]}},
{"type": "Feature", "id": "lsqdKK3jrWXvOxsZ7SfBDOQq2M4=", "properties": {"ref": "191bbf10-5c2b-11eb-a5df-c764b53b797d:Store", "@spider": "crumbl_cookies", "addr:full": "10575 S Eastern Ave Suite 190, Henderson, Nevada 89052", "addr:city": "Henderson", "addr:state": "Nevada", "name": "Henderson", "phone": "(702) 623-7348", "brand": "Crumbl Cookies", "brand:wikidata": "Q106924414"}, "geometry": {"type": "Point", "coordinates": [-115.106, 35.99927]}},
{"type": "Feature", "id": "NHuz2uPGYSZTF_RuuBfQVpkd_Mw=", "properties": {"ref": "95210d20-12f9-11eb-930a-0daba0fccf2b:Store", "@spider": "crumbl_cookies", "addr:full": "280 Indian Lake Blvd Ste 110, Hendersonville, Tennessee 37075", "addr:city": "Hendersonville", "addr:state": "Tennessee", "name": "Hendersonville", "phone": "(615) 912-9009", "brand": "Crumbl Cookies", "brand:wikidata": "Q106924414"}, "geometry": {"type": "Point", "coordinates": [-86.593476, 36.327795]}},
{"type": "Feature", "id": "aorK1nBFA3j_nAzFCKTZLQYvaKU=", "properties": {"ref": "64b773f0-7860-11eb-ba11-d9901527f42a:Store", "@spider": "crumbl_cookies", "addr:full": "100 Marketplace Dr, Suite 120, Henrietta, New York 14623", "addr:city": "Henrietta", "addr:state": "New York", "name": "Henrietta", "phone": "(585) 358-0049", "brand": "Crumbl Cookies", "brand:wikidata": "Q106924414"}, "geometry": {"type": "Point", "coordinates": [-77.626229, 43.0864926]}},
{"type": "Feature", "id": "Je1Cc-NoKoAKhy69GkFzAdw7DR0=", "properties": {"ref": "d573a730-0d85-11eb-9e5d-0dbc9c9d7770:Store", "@spider": "crumbl_cookies", "addr:full": "9557 S University Blvd, Ste 102, Highlands Ranch, Colorado 80126", "addr:city": "Highlands Ranch", "addr:state": "Colorado", "name": "Highlands Ranch", "phone": "(720) 358-0860", "brand": "Crumbl Cookies", "brand:wikidata": "Q106924414"}, "geometry": {"type": "Point", "coordinates": [-104.945432, 39.542261]}},
{"type": "Feature", "id": "ReaenvYNjw6AFLWB7-i2zeNk5Vg=", "properties": {"ref": "95b77460-ad02-11eb-80ff-476f982ae332:Store", "@spider": "crumbl_cookies", "addr:full": "5466 Westpointe Plaza Dr, Columbus, Ohio 43228", "addr:city": "Columbus", "addr:state": "Ohio", "name": "Hilliard", "phone": "(380) 888-6055", "brand": "Crumbl Cookies", "brand:wikidata": "Q106924414"}, "geometry": {"type": "Point", "coordinates": [-83.14954, 39.98523]}},
{"type": "Feature", "id": "2eRmYQQ0RQMv_lLTLiBFVfWterk=", "properties": {"ref": "6a7e55e0-7fd8-11eb-84bd-ab163f932224:Store", "@spider": "crumbl_cookies", "addr:full": "2559 SE Tualatin Valley Hwy, Hillsboro, Oregon 97123", "addr:city": "Hillsboro", "addr:state": "Oregon", "name": "Hillsboro", "phone": "(971) 268-7058", "brand": "Crumbl Cookies", "brand:wikidata": "Q106924414"}, "geometry": {"type": "Point", "coordinates": [-122.9563016, 45.5055971]}},
{"type": "Feature", "id": "KCdPzSj7Q63sCTJkWystlWe9sGE=", "properties": {"ref": "12a05f50-0745-11eb-a5af-05f8018af7b0:Store", "@spider": "crumbl_cookies", "addr:full": "1716 21st Avenue S, Nashville, Tennessee 37212", "addr:city": "Nashville", "addr:state": "Tennessee", "name": "Hillsboro Village", "phone": "(615) 422-7774", "brand": "Crumbl Cookies", "brand:wikidata": "Q106924414"}, "geometry": {"type": "Point", "coordinates": [-86.800629, 36.137218]}},
{"type": "Feature", "id": "511M-6N2fmtmLNWl7pDZzkNe0kA=", "properties": {"ref": "891f6e10-bd6f-11eb-9da4-d3642c32a159:Store", "@spider": "crumbl_cookies", "addr:full": "5513 Highway 153, Suite 105, Hixson, Tennessee 37343", "addr:city": "Hixson", "addr:state": "Tennessee", "name": "Hixson", "phone": "(423) 243-0209", "brand": "Crumbl Cookies", "brand:wikidata": "Q106924414"}, "geometry": {"type": "Point", "coordinates": [-85.2520844, 35.1440291]}},
{"type": "Feature", "id": "KMLxbbD6q41ZTTEXWzmWh_26EwU=", "properties": {"ref": "50d26280-5e6e-11ea-bdc8-4f8d0b878ff3:Store", "@spider": "crumbl_cookies", "addr:full": "7072 FM 1960 East #3, Humble, Texas 77346", "addr:city": "Humble", "addr:state": "Texas", "name": "Humble", "phone": "(281) 937-2255", "brand": "Crumbl Cookies", "brand:wikidata": "Q106924414"}, "geometry": {"type": "Point", "coordinates": [-95.1728028, 29.9972469]}},
{"type": "Feature", "id": "2KoMX1loAvj_AwMH7uke1ragoZA=", "properties": {"ref": "4c442e20-29dd-11eb-8d78-df2e004a2f3c:Store", "@spider": "crumbl_cookies", "addr:full": "10109 Northcross center ct suite 130, Huntersville, North Carolina 28708", "addr:city": "Huntersville", "addr:state": "North Carolina", "name": "Huntersville", "phone": "(704) 274-3480", "brand": "Crumbl Cookies", "brand:wikidata": "Q106924414"}, "geometry": {"type": "Point", "coordinates": [-80.85959, 35.44311]}},
{"type": "Feature", "id": "8exuXoid-GCnQxm-qOKq11x_IIU=", "properties": {"ref": "04d74380-8354-11eb-8cc9-c1943390afa7:Store", "@spider": "crumbl_cookies", "addr:full": "1319 Union University Drive, Unit E, Jackson, Tennessee 38305", "addr:city": "Jackson", "addr:state": "Tennessee", "name": "Jackson", "phone": "(731) 298-0910", "brand": "Crumbl Cookies", "brand:wikidata": "Q106924414"}, "geometry": {"type": "Point", "coordinates": [-88.86127, 35.68474]}},
{"type": "Feature", "id": "ib-fKFUYeZ2Tx5wlI0mo-1Vm4pw=", "properties": {"ref": "a1f1cd40-602f-11eb-91fc-a7f87baae82a:Store", "@spider": "crumbl_cookies", "addr:full": "1595 The Fairway, Jenkintown, Pennsylvania 19046", "addr:city": "Jenkintown", "addr:state": "Pennsylvania", "name": "Jenkintown", "phone": "(267) 536-5131", "brand": "Crumbl Cookies", "brand:wikidata": "Q106924414"}, "geometry": {"type": "Point", "coordinates": [-75.1210037, 40.1071684]}},
{"type": "Feature", "id": "ENN-8SO7S-coJ2xudv20LOb21jk=", "properties": {"ref": "4a505400-80d1-11ea-97ed-ad5ef72762a2:Store", "@spider": "crumbl_cookies", "addr:full": "4948 Thompson Pkwy, Johnstown, Colorado 80534", "addr:city": "Johnstown", "addr:state": "Colorado", "name": "Johnstown", "phone": "(970) 399-5558", "brand": "Crumbl Cookies", "brand:wikidata": "Q106924414"}, "geometry": {"type": "Point", "coordinates": [-104.9823096, 40.405333]}},
{"type": "Feature", "id": "ZjMUkwEnaC5dYuCJIZ_qgjU8Y2o=", "properties": {"ref": "57ff9200-60eb-11eb-90a5-3367c716d528:Store", "@spider": "crumbl_cookies", "addr:full": "2750 Carl T Jones Dr SE , Huntsville, Alabama 35802", "addr:city": "Huntsville", "addr:state": "Alabama", "name": "Jones Valley", "phone": "(256) 469-1291", "brand": "Crumbl Cookies", "brand:wikidata": "Q106924414"}, "geometry": {"type": "Point", "coordinates": [-86.5461974, 34.6749057]}},
{"type": "Feature", "id": "aNyo0R_YP5wi5F_HBlUADiFQHX8=", "properties": {"ref": "b7fbec60-65a2-11eb-b458-a1b19e815f79:Store", "@spider": "crumbl_cookies", "addr:full": "5097 Century Ave, Kalamazoo, Michigan 49006", "addr:city": "Kalamazoo", "addr:state": "Michigan", "name": "Kalamazoo", "phone": "(269) 888-5427", "brand": "Crumbl Cookies", "brand:wikidata": "Q106924414"}, "geometry": {"type": "Point", "coordinates": [-85.6505, 42.27087]}},
{"type": "Feature", "id": "NN8SfQMrO1bpKONQwEL3Paugppo=", "properties": {"ref": "315bddf0-5f62-11eb-8797-79f4a4500f56:Store", "@spider": "crumbl_cookies", "addr:full": "13520 SW 120th Street, Suite 106, Miami, Florida 33186", "addr:city": "Miami", "addr:state": "Florida", "name": "Kendall", "phone": "(786) 633-0337", "brand": "Crumbl Cookies", "brand:wikidata": "Q106924414"}, "geometry": {"type": "Point", "coordinates": [-80.414591, 25.6556439]}},
{"type": "Feature", "id": "6FhqLCkjfTCkHsHKHoTdTr7uoRY=", "properties": {"ref": "d54f1970-5f2d-11eb-a497-5942da156675:Store", "@spider": "crumbl_cookies", "addr:full": "1300 Ernest Barrett Parkway Unit 11, Kennesaw, Georgia 30144", "addr:city": "Kennesaw", "addr:state": "Georgia", "name": "Kennesaw", "phone": "(470) 523-9384", "brand": "Crumbl Cookies", "brand:wikidata": "Q106924414"}, "geometry": {"type": "Point", "coordinates": [-84.59043, 33.99855]}},
{"type": "Feature", "id": "BVI_zwKcbeBNDN4lSBYGYlmpSJI=", "properties": {"ref": "9cf6a430-88e5-11eb-838f-4b5d52762daa:Store", "@spider": "crumbl_cookies", "addr:full": "1102 N Columbia center Blvd. Suite B , Kennewick, Washington 99336", "addr:city": "Kennewick", "addr:state": "Washington", "name": "Kennewick", "phone": "(509) 873-3309", "brand": "Crumbl Cookies", "brand:wikidata": "Q106924414"}, "geometry": {"type": "Point", "coordinates": [-119.2254299, 46.2211187]}},
{"type": "Feature", "id": "Swxlv7rLCs0x2I0qu9CS-AgMgJM=", "properties": {"ref": "89101bb0-40b3-11eb-9a81-019413e85891:Store", "@spider": "crumbl_cookies", "addr:full": "3329 E. 86th Street, Indianapolis, Indiana 46240", "addr:city": "Indianapolis", "addr:state": "Indiana", "name": "Keystone Shoppes", "phone": "(317) 343-0446", "brand": "Crumbl Cookies", "brand:wikidata": "Q106924414"}, "geometry": {"type": "Point", "coordinates": [-86.1089747, 39.910743]}},
{"type": "Feature", "id": "JVyw8oxT5feDF6gqaZ0aeTqo1XQ=", "properties": {"ref": "377782a0-283c-11eb-9832-f3c77de32220:Store", "@spider": "crumbl_cookies", "addr:full": "1180 W Osceola Pkwy, Kissimmee, Florida 33418", "addr:city": "Kissimmee", "addr:state": "Florida", "name": "Kissimmee", "phone": "(407) 794-0631", "brand": "Crumbl Cookies", "brand:wikidata": "Q106924414"}, "geometry": {"type": "Point", "coordinates": [-81.415339, 28.341101]}},
{"type": "Feature", "id": "XvRnF4LjXkvsYm-XMaSkS83TCEg=", "properties": {"ref": "966f75b0-3b33-11eb-a377-3325d3be1bdc:Store", "@spider": "crumbl_cookies", "addr:full": "1901 W Imperial Hwy Suite C, La Habra, California 90631", "addr:city": "La Habra", "addr:state": "California", "name": "La Habra", "phone": "(657) 577-9702", "brand": "Crumbl Cookies", "brand:wikidata": "Q106924414"}, "geometry": {"type": "Point", "coordinates": [-117.96647, 33.91777]}},
{"type": "Feature", "id": "E1IRWb3zfNo3bwSj1B6DhH125xI=", "properties": {"ref": "4835a5f0-6260-11eb-a10a-6dfd72ec3684:Store", "@spider": "crumbl_cookies", "addr:full": "23702 El Toro Rd Suite B Lake Forest, CA, 92632, Lake Forest, California 92632", "addr:city": "Lake Forest", "addr:state": "California", "name": "Lake Forest", "phone": "(949) 519-0791", "brand": "Crumbl Cookies", "brand:wikidata": "Q106924414"}, "geometry": {"type": "Point", "coordinates": [-117.7024221, 33.6179249]}},
{"type": "Feature", "id": "j6z82CnI9Yhx99oVLGlILfnFM9A=", "properties": {"ref": "5be46650-5e6e-11ea-bdc8-4f8d0b878ff3:Store", "@spider": "crumbl_cookies", "addr:full": "6186 Retail Rd, Suite 110, Dallas, Texas 75231", "addr:city": "Dallas", "addr:state": "Texas", "name": "Lake Highlands", "phone": "(469) 342-1499", "brand": "Crumbl Cookies", "brand:wikidata": "Q106924414"}, "geometry": {"type": "Point", "coordinates": [-96.7539576, 32.8611278]}},
{"type": "Feature", "id": "BJqAVMqs2qvPuOBI4wDM2uhhKrc=", "properties": {"ref": "fb60d020-ab2f-11ea-bc33-b75c34decc34:Store", "@spider": "crumbl_cookies", "addr:full": "245 Wheelhouse Lane, Suite 1441, Lake Mary, Florida 32746", "addr:city": "Lake Mary", "addr:state": "Florida", "name": "Lake Mary", "phone": "(321) 233-4552", "brand": "Crumbl Cookies", "brand:wikidata": "Q106924414"}, "geometry": {"type": "Point", "coordinates": [-81.3345427, 28.7545546]}},
{"type": "Feature", "id": "AMv49J5XTHG3hGPUn4NBhjNUq3g=", "properties": {"ref": "51ef9250-5e6e-11ea-ac15-4dfeebe00dcc:Store", "@spider": "crumbl_cookies", "addr:full": "4836 Meadows Rd, Suite 141, Lake Oswego, Oregon 97035", "addr:city": "Lake Oswego", "addr:state": "Oregon", "name": "Lake Oswego", "phone": "(503) 673-1667", "brand": "Crumbl Cookies", "brand:wikidata": "Q106924414"}, "geometry": {"type": "Point", "coordinates": [-122.724713, 45.417981]}},
{"type": "Feature", "id": "8A8tRffnX5K-39ZPPtPh7ygetfM=", "properties": {"ref": "5b995390-5e6e-11ea-ac15-4dfeebe00dcc:Store", "@spider": "crumbl_cookies", "addr:full": "14650 W Colfax Ave, Unit 130, Lakewood, Colorado 80401", "addr:city": "Lakewood", "addr:state": "Colorado", "name": "Lakewood", "phone": "(720) 647-7297", "brand": "Crumbl Cookies", "brand:wikidata": "Q106924414"}, "geometry": {"type": "Point", "coordinates": [-105.163797, 39.731231]}},
{"type": "Feature", "id": "J3YsQLR6PXNLOZPZwrUHsaatgs4=", "properties": {"ref": "ba1076b0-60cf-11eb-89f8-9f5927be21ec:Store", "@spider": "crumbl_cookies", "addr:full": "5130 W Baseline Rd STE 113 , Laveen, Arizona 85339", "addr:city": "Laveen", "addr:state": "Arizona", "name": "Laveen", "phone": "(602) 675-9553", "brand": "Crumbl Cookies", "brand:wikidata": "Q106924414"}, "geometry": {"type": "Point", "coordinates": [-112.169196, 33.379351]}},
{"type": "Feature", "id": "8-L6m2H9TLbC8zhURSQVZstR2Cg=", "properties": {"ref": "86af9e50-5f2f-11eb-b4d5-5fc4ee2e898a:Store", "@spider": "crumbl_cookies", "addr:full": "875 Lawrenceville - Suwanee Rd., Lawrenceville, Georgia 30043", "addr:city": "Lawrenceville", "addr:state": "Georgia", "name": "Lawrenceville", "phone": "(470) 326-0369", "brand": "Crumbl Cookies", "brand:wikidata": "Q106924414"}, "geometry": {"type": "Point", "coordinates": [-84.01691, 33.97085]}},
{"type": "Feature", "id": "ikjk4dsbBrgfBN2VasxcYrG4GqY=", "properties": {"ref": "520cb740-5e6e-11ea-bdc8-4f8d0b878ff3:Store", "@spider": "crumbl_cookies", "addr:full": "448 W Antelope Dr, Layton, Utah 84041", "addr:city": "Layton", "addr:state": "Utah", "name": "Layton", "phone": "(801) 252-5991", "brand": "Crumbl Cookies", "brand:wikidata": "Q106924414"}, "geometry": {"type": "Point", "coordinates": [-111.9767481, 41.0897643]}},
{"type": "Feature", "id": "-CNFgN5p8ipbYC3vWGQUOyCqilA=", "properties": {"ref": "06397eb0-5509-11eb-8ad8-edb854f77bc7:Store", "@spider": "crumbl_cookies", "addr:full": "1008 Edwards Ferry Rd NE, Suite 135, Leesburg, Virginia 20176", "addr:city": "Leesburg", "addr:state": "Virginia", "name": "Leesburg", "phone": "(571) 440-7006", "brand": "Crumbl Cookies", "brand:wikidata": "Q106924414"}, "geometry": {"type": "Point", "coordinates": [-77.535688, 39.11419]}},
{"type": "Feature", "id": "NDYxEjOm9289WSKd2LCCdeOprNo=", "properties": {"ref": "5abbc4d0-5e6e-11ea-ac15-4dfeebe00dcc:Store", "@spider": "crumbl_cookies", "addr:full": "1820 W Traverse Pkwy, Lehi, Utah 84043", "addr:city": "Lehi", "addr:state": "Utah", "name": "Lehi", "phone": "(801) 823-1272", "brand": "Crumbl Cookies", "brand:wikidata": "Q106924414"}, "geometry": {"type": "Point", "coordinates": [-111.8812932, 40.4324575]}},
{"type": "Feature", "id": "22X-NEzKrnrkaFHYVEmOgLux_pk=", "properties": {"ref": "5ac68f80-12f2-11eb-8422-c91e2b499506:Store", "@spider": "crumbl_cookies", "addr:full": "5135 Sunset Blvd, Suite J, Lexington, South Carolina 29072", "addr:city": "Lexington", "addr:state": "South Carolina", "name": "Lexington", "phone": "(803) 756-3294", "brand": "Crumbl Cookies", "brand:wikidata": "Q106924414"}, "geometry": {"type": "Point", "coordinates": [-81.194662, 34.006437]}},
{"type": "Feature", "id": "RnqFCBCy-Xh3sHP5H2p3Yli7pgc=", "properties": {"ref": "6cbc0240-5c28-11eb-a96b-a7194fa89b5e:Store", "@spider": "crumbl_cookies", "addr:full": "2160 Sir Barton Way, Suite 141, Lexington, Kentucky 40509", "addr:city": "Lexington", "addr:state": "Kentucky", "name": "Lexington", "phone": "(859) 977-9525", "brand": "Crumbl Cookies", "brand:wikidata": "Q106924414"}, "geometry": {"type": "Point", "coordinates": [-84.41935, 38.02175]}},
{"type": "Feature", "id": "UpY_waG5WbwXzV_IDqeWsOdDdCk=", "properties": {"ref": "59d9f050-5e6e-11ea-ac15-4dfeebe00dcc:Store", "@spider": "crumbl_cookies", "addr:full": "677 N State St, Lindon, Utah 84042", "addr:city": "Lindon", "addr:state": "Utah", "name": "Lindon", "phone": "(801) 609-1960", "brand": "Crumbl Cookies", "brand:wikidata": "Q106924414"}, "geometry": {"type": "Point", "coordinates": [-111.733751, 40.3511887]}},
{"type": "Feature", "id": "9Ke-p5E9pbBZE6LUcsmHDwXrP6k=", "properties": {"ref": "14c9f100-6024-11eb-a145-8755202f36ab:Store", "@spider": "crumbl_cookies", "addr:full": "2624 W Kettleman Ln Ste 150 , Lodi, California 95242", "addr:city": "Lodi", "addr:state": "California", "name": "Lodi", "phone": "(209) 280-0957", "brand": "Crumbl Cookies", "brand:wikidata": "Q106924414"}, "geometry": {"type": "Point", "coordinates": [-121.3106869, 38.1150782]}},
{"type": "Feature", "id": "sNhym75N4hb-a46kZ8EeyKgStu8=", "properties": {"ref": "5bb7d810-5e6e-11ea-bdc8-4f8d0b878ff3:Store", "@spider": "crumbl_cookies", "addr:full": "1309 N Main St, Logan, Utah 84341", "addr:city": "Logan", "addr:state": "Utah", "name": "Logan", "phone": "(435) 363-9997", "brand": "Crumbl Cookies", "brand:wikidata": "Q106924414"}, "geometry": {"type": "Point", "coordinates": [-111.8369266, 41.755931]}},
{"type": "Feature", "id": "3P2ulb4d9GtSegraYm1ucixW5s0=", "properties": {"ref": "d746f4c0-3b31-11eb-9244-d368b7a9cd38:Store", "@spider": "crumbl_cookies", "addr:full": "981 South Main Suite 180, Logan, Utah 84341", "addr:city": "Logan", "addr:state": "Utah", "name": "Logan South", "phone": "(435) 932-0305", "brand": "Crumbl Cookies", "brand:wikidata": "Q106924414"}, "geometry": {"type": "Point", "coordinates": [-111.835388, 41.714928]}},
{"type": "Feature", "id": "Q4P4MzKjm0TSU0fbLOAM2kK3gIo=", "properties": {"ref": "e31fb700-67a6-11ea-9057-5d66f097569b:Store", "@spider": "crumbl_cookies", "addr:full": "6076 Marsha Sharp Freeway, #450, Lubbock, Texas 79407", "addr:city": "Lubbock", "addr:state": "Texas", "name": "Lubbock", "phone": "(806) 318-2444", "brand": "Crumbl Cookies", "brand:wikidata": "Q106924414"}, "geometry": {"type": "Point", "coordinates": [-101.9546891, 33.54718]}},
{"type": "Feature", "id": "FI2FcM16nJiy6gtL3pTi9RvuVmo=", "properties": {"ref": "642ab4c0-0366-11eb-969b-4fda5e160106:Store", "@spider": "crumbl_cookies", "addr:full": "25922 Sierra Center Blvd, Lutz, Florida 33559", "addr:city": "Lutz", "addr:state": "Florida", "name": "Lutz", "phone": "(813) 445-6552", "brand": "Crumbl Cookies", "brand:wikidata": "Q106924414"}, "geometry": {"type": "Point", "coordinates": [-82.393838, 28.194765]}},
{"type": "Feature", "id": "_vdJ34EAMgGtWHujdy3g6oCH6Tw=", "properties": {"ref": "23b49d70-9bb4-11eb-90c6-ad41b745798a:Store", "@spider": "crumbl_cookies", "addr:full": "18411 Alderwood Mall Parkway, Lynnwood, Washington 98037", "addr:city": "Lynnwood", "addr:state": "Washington", "name": "Lynnwood", "phone": "(425) 510-0526", "brand": "Crumbl Cookies", "brand:wikidata": "Q106924414"}, "geometry": {"type": "Point", "coordinates": [-122.2701668, 47.8314952]}},
{"type": "Feature", "id": "OXUwdaRniKemjEqbFefIZndGchU=", "properties": {"ref": "a04a8d20-cf91-11eb-bf26-e525ed3a69b5:Store", "@spider": "crumbl_cookies", "addr:full": "111 Colony Crossing Way, Unit 120 , Madison, Mississippi 39110", "addr:city": "Madison", "addr:state": "Mississippi", "name": "Madison", "phone": "(601) 401-0316", "brand": "Crumbl Cookies", "brand:wikidata": "Q106924414"}, "geometry": {"type": "Point", "coordinates": [-90.144228, 32.4754801]}},
{"type": "Feature", "id": "K-ANLUyIz50okcTot_Z_y-EoCY0=", "properties": {"ref": "10a71ce0-a9ba-11ea-a915-abab6105b190:Store", "@spider": "crumbl_cookies", "addr:full": "8141 Hwy 72 W, Suite D, Madison, Alabama 35758", "addr:city": "Madison", "addr:state": "Alabama", "name": "Madison", "phone": "(256) 258-8153", "brand": "Crumbl Cookies", "brand:wikidata": "Q106924414"}, "geometry": {"type": "Point", "coordinates": [-86.7546047, 34.7497214]}},
{"type": "Feature", "id": "jC5FHh2wTgMl--9LBnWF4kziV98=", "properties": {"ref": "c4dc6b50-3b34-11eb-b891-1f86204d0a7f:Store", "@spider": "crumbl_cookies", "addr:full": "4010 University Ave, Madison, Wisconsin 53705", "addr:city": "Madison", "addr:state": "Wisconsin", "name": "Madison", "phone": "(608) 440-8578", "brand": "Crumbl Cookies", "brand:wikidata": "Q106924414"}, "geometry": {"type": "Point", "coordinates": [-89.4544, 43.07634]}},
{"type": "Feature", "id": "AzV46ZMQ8cC5jc_wHOpTMFBA5pw=", "properties": {"ref": "4150dcf0-60f3-11eb-895f-3776a7875ca8:Store", "@spider": "crumbl_cookies", "addr:full": "33020 FM 2978 #521 , Magnolia, Texas 77354", "addr:city": "Magnolia", "addr:state": "Texas", "name": "Magnolia", "phone": "(281) 789-8372", "brand": "Crumbl Cookies", "brand:wikidata": "Q106924414"}, "geometry": {"type": "Point", "coordinates": [-95.5696391, 30.219437]}},
{"type": "Feature", "id": "HRC0YOvR0xedhBbZJwUeATbdgRM=", "properties": {"ref": "fab56ad0-5f5e-11eb-9e8e-b9aee380ab0d:Store", "@spider": "crumbl_cookies", "addr:full": "11406 San Jose Blvd #3, Jacksonville, Florida 32223", "addr:city": "Jacksonville", "addr:state": "Florida", "name": "Mandarin", "phone": "(904) 592-9059", "brand": "Crumbl Cookies", "brand:wikidata": "Q106924414"}, "geometry": {"type": "Point", "coordinates": [-81.63346, 30.16646]}},
{"type": "Feature", "id": "W5F5NUBzjeLfLUkSPyuHCX_VQ10=", "properties": {"ref": "4c1e2850-0d7d-11eb-ba71-e1735cd9fd72:Store", "@spider": "crumbl_cookies", "addr:full": "1530 E Debbie Lane, Suite 128, Mansfield, Texas 76063", "addr:city": "Mansfield", "addr:state": "Texas", "name": "Mansfield", "phone": "(817) 779-4775", "brand": "Crumbl Cookies", "brand:wikidata": "Q106924414"}, "geometry": {"type": "Point", "coordinates": [-97.1133027, 32.60606]}},
{"type": "Feature", "id": "mZpYpDJbw2tuMjizCttyT0fiZpM=", "properties": {"ref": "7c3c1b40-13be-11eb-8cbe-891cc7c4f1d2:Store", "@spider": "crumbl_cookies", "addr:full": "11623 Fountains Dr, Maple Grove, Minnesota 55369", "addr:city": "Maple Grove", "addr:state": "Minnesota", "name": "Maple Grove", "phone": "763-777-7527", "brand": "Crumbl Cookies", "brand:wikidata": "Q106924414"}, "geometry": {"type": "Point", "coordinates": [-93.42743, 45.0929]}},
{"type": "Feature", "id": "NAphgtac6hIiKPUFZ4bcp8KnrMs=", "properties": {"ref": "4f5b02e0-0a53-11eb-8243-b97a55f240bf:Store", "@spider": "crumbl_cookies", "addr:full": "2607 Marconi Avenue, Sacramento, California 95821", "addr:city": "Sacramento", "addr:state": "California", "name": "Marconi", "phone": "(916) 407-1155", "brand": "Crumbl Cookies", "brand:wikidata": "Q106924414"}, "geometry": {"type": "Point", "coordinates": [-121.400633, 38.618478]}},
{"type": "Feature", "id": "cHXc0CIk6N8WrIQ0WfRbFqdDLwA=", "properties": {"ref": "49fa8100-d7f3-11ea-81d4-4b60fe1ca462:Store", "@spider": "crumbl_cookies", "addr:full": "3460 Sandy Plains Road, Suite 510, Marietta, Georgia 30066", "addr:city": "Marietta", "addr:state": "Georgia", "name": "Marietta", "phone": "(678) 203-8885", "brand": "Crumbl Cookies", "brand:wikidata": "Q106924414"}, "geometry": {"type": "Point", "coordinates": [-84.463984, 34.033712]}},
{"type": "Feature", "id": "9LJMR3d3PbbEiBYJLALisgajG0E=", "properties": {"ref": "fbf799c0-5c27-11eb-851e-b7cfa2232375:Store", "@spider": "crumbl_cookies", "addr:full": "2701 171st Pl NE. #203 , Marysville, Washington 98271", "addr:city": "Marysville", "addr:state": "Washington", "name": "Marysville", "phone": "(360) 386-1767", "brand": "Crumbl Cookies", "brand:wikidata": "Q106924414"}, "geometry": {"type": "Point", "coordinates": [-122.1948289, 48.1512768]}},
{"type": "Feature", "id": "10FmvAjlx8oJabs3gAvSXvC6zbA=", "properties": {"ref": "9c1da2e0-6020-11eb-8f38-59a0094a41b9:Store", "@spider": "crumbl_cookies", "addr:full": "2217 Matthews Township Pkwy Ste E, Matthews, North Carolina 28105", "addr:city": "Matthews", "addr:state": "North Carolina", "name": "Matthews", "phone": "(980) 245-4663 ", "brand": "Crumbl Cookies", "brand:wikidata": "Q106924414"}, "geometry": {"type": "Point", "coordinates": [-80.702949, 35.129242]}},
{"type": "Feature", "id": "koAU5Eolf_-566rSKGG3FmnqyS8=", "properties": {"ref": "287a72e0-124c-11eb-a0b2-634a415d5e23:Store", "@spider": "crumbl_cookies", "addr:full": "7600 N 10th St, McAllen, Texas 78504", "addr:city": "McAllen", "addr:state": "Texas", "name": "McAllen", "phone": "(956) 316-6854", "brand": "Crumbl Cookies", "brand:wikidata": "Q106924414"}, "geometry": {"type": "Point", "coordinates": [-98.216301, 26.271391]}},
{"type": "Feature", "id": "zJt1p7QRP0YqsYw0Lhc1aHkEgVQ=", "properties": {"ref": "61e2c190-6021-11eb-af04-69c032a3f238:Store", "@spider": "crumbl_cookies", "addr:full": "3194 W University Dr Suite #200, McKinney, Texas 75071", "addr:city": "McKinney", "addr:state": "Texas", "name": "McKinney", "phone": "(469) 715-5983", "brand": "Crumbl Cookies", "brand:wikidata": "Q106924414"}, "geometry": {"type": "Point", "coordinates": [-96.65542, 33.21764]}},
{"type": "Feature", "id": "EEHZINj4ZPta9AVVpc1cdCzsKFA=", "properties": {"ref": "51ec82c0-5b5e-11eb-97bf-df2e8183a85a:Store", "@spider": "crumbl_cookies", "addr:full": "7316 Bell Creek Road , Mechanicsville, Virginia 23111", "addr:city": "Mechanicsville", "addr:state": "Virginia", "name": "Mechanicsville", "phone": "(804) 522-5043", "brand": "Crumbl Cookies", "brand:wikidata": "Q106924414"}, "geometry": {"type": "Point", "coordinates": [-77.3555381, 37.6043179]}},
{"type": "Feature", "id": "UKRlH5Jk_CraHaE1V_rYw4Yfu80=", "properties": {"ref": "5bff8f70-5e6e-11ea-bdc8-4f8d0b878ff3:Store", "@spider": "crumbl_cookies", "addr:full": "1250 Biddle Rd, Suite H, Medford, Oregon 97504", "addr:city": "Medford", "addr:state": "Oregon", "name": "Medford", "phone": "(541) 292-5653", "brand": "Crumbl Cookies", "brand:wikidata": "Q106924414"}, "geometry": {"type": "Point", "coordinates": [-122.87292, 42.34195]}},
{"type": "Feature", "id": "191FKzsmaCQkN7mlddN4ik584YM=", "properties": {"ref": "0cded870-7177-11eb-9447-991dffa61fdc:Store", "@spider": "crumbl_cookies", "addr:full": "9662 Mentor Avenue, Mentor, Ohio 44060", "addr:city": "Mentor", "addr:state": "Ohio", "name": "Mentor", "phone": "(440) 754-0601", "brand": "Crumbl Cookies", "brand:wikidata": "Q106924414"}, "geometry": {"type": "Point", "coordinates": [-81.29349, 41.68392]}},
{"type": "Feature", "id": "9vj-xQyMIk33IxRBk0hbMmL7hXg=", "properties": {"ref": "59f7ffa0-5e6e-11ea-bdc8-4f8d0b878ff3:Store", "@spider": "crumbl_cookies", "addr:full": "3340 N Eagle Rd, Meridian, Idaho 83646", "addr:city": "Meridian", "addr:state": "Idaho", "name": "Meridian", "phone": "(208) 268-8533", "brand": "Crumbl Cookies", "brand:wikidata": "Q106924414"}, "geometry": {"type": "Point", "coordinates": [-116.35363, 43.63482]}},
{"type": "Feature", "id": "xxa2zgbFzWunhgEP6qjJIenRi38=", "properties": {"ref": "51a91370-5e6e-11ea-bdc8-4f8d0b878ff3:Store", "@spider": "crumbl_cookies", "addr:full": "1240 E Baseline Rd, Suite 105 , Mesa, Arizona 85204", "addr:city": "Mesa", "addr:state": "Arizona", "name": "Mesa Grand", "phone": "(602) 661-2500", "brand": "Crumbl Cookies", "brand:wikidata": "Q106924414"}, "geometry": {"type": "Point", "coordinates": [-111.806792, 33.3793975]}},
{"type": "Feature", "id": "VA9z1KzL6B2vPZCrJKCV6-Ag-tU=", "properties": {"ref": "12a24f50-3b33-11eb-a88c-2dbe5d43af5c:Store", "@spider": "crumbl_cookies", "addr:full": "1911 E. Brown Road STE 3, Mesa, Arizona 85203", "addr:city": "Mesa", "addr:state": "Arizona", "name": "Mesa Groves", "phone": "(480) 530-0185", "brand": "Crumbl Cookies", "brand:wikidata": "Q106924414"}, "geometry": {"type": "Point", "coordinates": [-111.78977, 33.43686]}},
{"type": "Feature", "id": "fBHLSO45AJNa90zR76Fo90fR74I=", "properties": {"ref": "c739afe0-8bff-11eb-9ab3-5b01dda3dd1f:Store", "@spider": "crumbl_cookies", "addr:full": "2701 Airline Dr. Unit I, Metairie, Louisiana 70001", "addr:city": "Metairie", "addr:state": "Louisiana", "name": "Metairie", "phone": "(504) 332-2058", "brand": "Crumbl Cookies", "brand:wikidata": "Q106924414"}, "geometry": {"type": "Point", "coordinates": [-90.1531504, 29.975056]}},
{"type": "Feature", "id": "OGZddM_L5AvJA8fATKm_ylhfEXw=", "properties": {"ref": "e51cd3c0-04dc-11eb-8e15-f3753277f8c2:Store", "@spider": "crumbl_cookies", "addr:full": "90 Pleasant Valley St, Unit 170, Methuen, Massachusetts 01844", "addr:city": "Methuen", "addr:state": "Massachusetts", "name": "Methuen", "phone": "(978) 291-6956", "brand": "Crumbl Cookies", "brand:wikidata": "Q106924414"}, "geometry": {"type": "Point", "coordinates": [-71.157584, 42.744119]}},
{"type": "Feature", "id": "Ju69S1pFzNe-V_PlKu-Z0doJ6CM=", "properties": {"ref": "5ab86970-5e6e-11ea-bdc8-4f8d0b878ff3:Store", "@spider": "crumbl_cookies", "addr:full": "2827 West Peoria Ave, Phoenix, Arizona 85029", "addr:city": "Phoenix", "addr:state": "Arizona", "name": "Metro", "phone": "(480) 937-0381", "brand": "Crumbl Cookies", "brand:wikidata": "Q106924414"}, "geometry": {"type": "Point", "coordinates": [-112.12377, 33.581064]}},
{"type": "Feature", "id": "zGBmCMRKp7cAqw1X5ltq5i87S3c=", "properties": {"ref": "9dba31a0-5769-11eb-a1bb-a7e7f7783762:Store", "@spider": "crumbl_cookies", "addr:full": "12949 Shelbyville Road, Suite 102, Louisville, Kentucky 40243", "addr:city": "Louisville", "addr:state": "Kentucky", "name": "Middletown", "phone": "(502) 405-8156", "brand": "Crumbl Cookies", "brand:wikidata": "Q106924414"}, "geometry": {"type": "Point", "coordinates": [-85.5114413, 38.2432508]}},
{"type": "Feature", "id": "bZrTXoCpI3HD3qA_ELmDBBWdqkY=", "properties": {"ref": "0ae25c10-5b45-11eb-87b8-e920b9ca4913:Store", "@spider": "crumbl_cookies", "addr:full": "4400 Midland Dr. Suite 501 , Midland, Texas 79707", "addr:city": "Midland", "addr:state": "Texas", "name": "Midland", "phone": "(432) 237-0380", "brand": "Crumbl Cookies", "brand:wikidata": "Q106924414"}, "geometry": {"type": "Point", "coordinates": [-102.144305, 32.027678]}},
{"type": "Feature", "id": "vylc_ijEYv02Ow69OakqNdwc6Yo=", "properties": {"ref": "531d63f0-5e6e-11ea-bdc8-4f8d0b878ff3:Store", "@spider": "crumbl_cookies", "addr:full": "3075 N Reserve St, Suite J , Missoula, Montana 59808", "addr:city": "Missoula", "addr:state": "Montana", "name": "Missoula", "phone": "(406) 351-0900", "brand": "Crumbl Cookies", "brand:wikidata": "Q106924414"}, "geometry": {"type": "Point", "coordinates": [-114.04093, 46.89321]}},
{"type": "Feature", "id": "Z0-Gf9b5v0bRSS_wsMN5kvlsTC8=", "properties": {"ref": "887735b0-5b4f-11eb-8b45-73373234d1db:Store", "@spider": "crumbl_cookies", "addr:full": "660 SW 19th St Suite E, Moore, Oklahoma 73160", "addr:city": "Moore", "addr:state": "Oklahoma", "name": "Moore", "phone": "(405) 300-0255moore@crumbl.com", "brand": "Crumbl Cookies", "brand:wikidata": "Q106924414"}, "geometry": {"type": "Point", "coordinates": [-97.497917, 35.3191493]}},
{"type": "Feature", "id": "JVfMNSxBSeqenJ3nhDIQ6xWXspc=", "properties": {"ref": "51c69bb0-899e-11ea-b9bc-31fb5a135b90:Store", "@spider": "crumbl_cookies", "addr:full": "1105 Market Center Dr, Morrisville, North Carolina 27560", "addr:city": "Morrisville", "addr:state": "North Carolina", "name": "Morrisville", "phone": "(919) 364-1100", "brand": "Crumbl Cookies", "brand:wikidata": "Q106924414"}, "geometry": {"type": "Point", "coordinates": [-78.8142535, 35.8076324]}},
{"type": "Feature", "id": "rOjxxau4wikFkOoyFKyOM37AbHA=", "properties": {"ref": "63610070-a02f-11ea-81f2-57a76d913799:Store", "@spider": "crumbl_cookies", "addr:full": "401 S Mt Juliet Rd, Suite 247, Mount Juliet, Tennessee 37122", "addr:city": "Mount Juliet", "addr:state": "Tennessee", "name": "Mt. Juliet", "phone": "(615) 433-5669", "brand": "Crumbl Cookies", "brand:wikidata": "Q106924414"}, "geometry": {"type": "Point", "coordinates": [-86.5102586, 36.1667026]}},
{"type": "Feature", "id": "uyPojGwPJvyI4Fpky0iWbFe9Uug=", "properties": {"ref": "5b40fa60-5e6e-11ea-ac15-4dfeebe00dcc:Store", "@spider": "crumbl_cookies", "addr:full": "2839 Medical Center Pkwy, Murfreesboro, Tennessee 37129", "addr:city": "Murfreesboro", "addr:state": "Tennessee", "name": "Murfreesboro", "phone": "(615) 551-2160", "brand": "Crumbl Cookies", "brand:wikidata": "Q106924414"}, "geometry": {"type": "Point", "coordinates": [-86.4466172, 35.8638232]}},
{"type": "Feature", "id": "2syqgDi0ZRZ-WUQieaupUvUDgVc=", "properties": {"ref": "7dcebd60-7fd3-11eb-9258-319922b927c5:Store", "@spider": "crumbl_cookies", "addr:full": "106 Sayebrook Pkwy Suite 5, Myrtle Beach, South Carolina 29588", "addr:city": "Myrtle Beach", "addr:state": "South Carolina", "name": "Myrtle Beach", "phone": "(843) 582-0333", "brand": "Crumbl Cookies", "brand:wikidata": "Q106924414"}, "geometry": {"type": "Point", "coordinates": [-78.9856706, 33.6520868]}},
{"type": "Feature", "id": "LKDSRRsEELzgx2l44LNuxpx1QA8=", "properties": {"ref": "534d74a0-5e6e-11ea-ac15-4dfeebe00dcc:Store", "@spider": "crumbl_cookies", "addr:full": "16391 N Marketplace Blvd, Nampa, Idaho 83687", "addr:city": "Nampa", "addr:state": "Idaho", "name": "Nampa", "phone": "(208) 505-6256", "brand": "Crumbl Cookies", "brand:wikidata": "Q106924414"}, "geometry": {"type": "Point", "coordinates": [-116.59321, 43.61433]}},
{"type": "Feature", "id": "71OxE3w85wl7k05nU8OSJrEnz48=", "properties": {"ref": "536d5440-5cfc-11eb-9383-35ad2a658bde:Store", "@spider": "crumbl_cookies", "addr:full": "2936 Showplace Dr #112, Naperville, Illinois 60564", "addr:city": "Naperville", "addr:state": "Illinois", "name": "Naperville", "phone": "(331) 213-2840", "brand": "Crumbl Cookies", "brand:wikidata": "Q106924414"}, "geometry": {"type": "Point", "coordinates": [-88.207917, 41.7106473]}},
{"type": "Feature", "id": "fX4baS1lBSkPAsEQm5fCMMlhp3E=", "properties": {"ref": "4f5a98c0-5c18-11eb-bfcb-f57d12d60953:Store", "@spider": "crumbl_cookies", "addr:full": "256A Daniel Webster Hwy, Nashua NH , Nashua, New Hampshire 03060", "addr:city": "Nashua", "addr:state": "New Hampshire", "name": "Nashua", "phone": "(603) 821-0889", "brand": "Crumbl Cookies", "brand:wikidata": "Q106924414"}, "geometry": {"type": "Point", "coordinates": [-71.4405314, 42.7079573]}},
{"type": "Feature", "id": "aZpci9wjtwyHn5Yax3q0VMKFzfc=", "properties": {"ref": "5691e750-60e2-11eb-8378-7f97266cf4b5:Store", "@spider": "crumbl_cookies", "addr:full": "6326 E Dublin Granville Rd, Westerville, Ohio 43081", "addr:city": "Westerville", "addr:state": "Ohio", "name": "New Albany", "phone": "(614) 392-7020", "brand": "Crumbl Cookies", "brand:wikidata": "Q106924414"}, "geometry": {"type": "Point", "coordinates": [-82.849133, 40.079196]}},
{"type": "Feature", "id": "fktt0fUEL6RESY9lzwijYMXUSUw=", "properties": {"ref": "58ec0f80-6561-11ea-8a63-5fc08598f332:Store", "@spider": "crumbl_cookies", "addr:full": "2450 W Happy Valley Rd, Suite 1151, Phoenix, Arizona 85085", "addr:city": "Phoenix", "addr:state": "Arizona", "name": "Norterra", "phone": "(602) 726-5008", "brand": "Crumbl Cookies", "brand:wikidata": "Q106924414"}, "geometry": {"type": "Point", "coordinates": [-112.1121198, 33.7145547]}},
{"type": "Feature", "id": "-2ZOvB8S2AGh0A_qXSGcxdK0c60=", "properties": {"ref": "abff50d0-8e7b-11eb-931e-f15842c1349f:Store", "@spider": "crumbl_cookies", "addr:full": "3333 Northlake Blvd Ste 4, Palm Beach Gardens, Florida 3340333403", "addr:city": "Palm Beach Gardens", "addr:state": "Florida", "name": "Northlake Blvd", "phone": "561) 377-2118", "brand": "Crumbl Cookies", "brand:wikidata": "Q106924414"}, "geometry": {"type": "Point", "coordinates": [-80.0908842, 26.8089136]}},
{"type": "Feature", "id": "Vb0DMC5q4HHQeRDW3xNlFZI5juA=", "properties": {"ref": "dd7bd910-7230-11eb-9a45-31f8ab10ef0c:Store", "@spider": "crumbl_cookies", "addr:full": "26060 Ingersol Drive, Novi, Michigan 48375", "addr:city": "Novi", "addr:state": "Michigan", "name": "Novi", "phone": "248) 916-9450", "brand": "Crumbl Cookies", "brand:wikidata": "Q106924414"}, "geometry": {"type": "Point", "coordinates": [-83.4747823, 42.48168]}},
{"type": "Feature", "id": "NPocpgN7ypEfFr4Gt8XctPu33EQ=", "properties": {"ref": "80e3ae60-60ee-11eb-9e1e-7b572150a9c7:Store", "@spider": "crumbl_cookies", "addr:full": "160 W Town Square Way, Suite 400, Oak Creek, Wisconsin 53154", "addr:city": "Oak Creek", "addr:state": "Wisconsin", "name": "Oak Creek", "phone": "(262) 320-7002", "brand": "Crumbl Cookies", "brand:wikidata": "Q106924414"}, "geometry": {"type": "Point", "coordinates": [-87.91476, 42.90054]}},
{"type": "Feature", "id": "FU_RLUDwko375-dZQ4RomyOYx20=", "properties": {"ref": "777f4670-60e1-11eb-b9e1-dfe0c86bffe5:Store", "@spider": "crumbl_cookies", "addr:full": "3321 Vandercar Way, Cincinnati, Ohio 45209", "addr:city": "Cincinnati", "addr:state": "Ohio", "name": "Oakley", "phone": "(513) 580-7711", "brand": "Crumbl Cookies", "brand:wikidata": "Q106924414"}, "geometry": {"type": "Point", "coordinates": [-84.4253952, 39.1580598]}},
{"type": "Feature", "id": "2hJCpGQATVYCX4YqZZQjEEUbllQ=", "properties": {"ref": "5bd57230-5e6e-11ea-ac15-4dfeebe00dcc:Store", "@spider": "crumbl_cookies", "addr:full": "809 W Riverdale Rd, Riverdale, Utah 84405", "addr:city": "Riverdale", "addr:state": "Utah", "name": "Ogden", "phone": "(801) 695-4054", "brand": "Crumbl Cookies", "brand:wikidata": "Q106924414"}, "geometry": {"type": "Point", "coordinates": [-111.995092, 41.180119]}},
{"type": "Feature", "id": "K8O-QF7QoMfEIysZU6fUoA8fnvA=", "properties": {"ref": "4e88f710-60dd-11eb-bdb4-6d50be186102:Store", "@spider": "crumbl_cookies", "addr:full": "15159 W 119th, Olathe, Kansas 66062", "addr:city": "Olathe", "addr:state": "Kansas", "name": "Olathe", "phone": "(913) 361-7073", "brand": "Crumbl Cookies", "brand:wikidata": "Q106924414"}, "geometry": {"type": "Point", "coordinates": [-94.7656254, 38.9118254]}},
{"type": "Feature", "id": "pCKC9uHL3BAPOCjmLVULsOWp3j8=", "properties": {"ref": "fbb84320-3b33-11eb-b41e-adec3b565fdc:Store", "@spider": "crumbl_cookies", "addr:full": "1500 East Village Way, Suite F19A, Orange, California 92865", "addr:city": "Orange", "addr:state": "California", "name": "Orange", "phone": "(657) 549-4575", "brand": "Crumbl Cookies", "brand:wikidata": "Q106924414"}, "geometry": {"type": "Point", "coordinates": [-117.8405129, 33.8263977]}},
{"type": "Feature", "id": "D_CiT-b27rfZHKcbMbYEKnp6qjs=", "properties": {"ref": "1b4ffbc0-b270-11eb-a6e5-9f610d36d6ae:Store", "@spider": "crumbl_cookies", "addr:full": "7805 N. Oracle Road, Suite 151 , Oro Valley, Arizona 85704", "addr:city": "Oro Valley", "addr:state": "Arizona", "name": "Oro Valley", "phone": "(520) 355-3848", "brand": "Crumbl Cookies", "brand:wikidata": "Q106924414"}, "geometry": {"type": "Point", "coordinates": [-110.9782562, 32.3491865]}},
{"type": "Feature", "id": "WSekM_Shl1M2Ss4C7Mc8ipBNmNM=", "properties": {"ref": "5a9a3310-5e6e-11ea-ac15-4dfeebe00dcc:Store", "@spider": "crumbl_cookies", "addr:full": "5385 N Virginia Dare Trail, #4, Southern Shores, North Carolina 27949", "addr:city": "Southern Shores", "addr:state": "North Carolina", "name": "Outer Banks", "phone": "(252) 573-3366", "brand": "Crumbl Cookies", "brand:wikidata": "Q106924414"}, "geometry": {"type": "Point", "coordinates": [-75.7178882, 36.1007968]}},
{"type": "Feature", "id": "V373nITT39zMoVNRcykbhuZkyLs=", "properties": {"ref": "85411290-3b32-11eb-8f01-6d36733bac84:Store", "@spider": "crumbl_cookies", "addr:full": "6780 W 135th St, Overland Park, Kansas 66223", "addr:city": "Overland Park", "addr:state": "Kansas", "name": "Overland Park", "phone": "(913) 361-7072", "brand": "Crumbl Cookies", "brand:wikidata": "Q106924414"}, "geometry": {"type": "Point", "coordinates": [-94.6641311, 38.885336]}},
{"type": "Feature", "id": "zRvNv9z0QGmL9WjdXdXN-boWdA0=", "properties": {"ref": "dfa145a0-2838-11eb-9980-09f7a136e499:Store", "@spider": "crumbl_cookies", "addr:full": "5240 Donald Ross Rd, Suite 105, Palm Beach Gardens, Florida 33418", "addr:city": "Palm Beach Gardens", "addr:state": "Florida", "name": "Palm Beach Gardens", "phone": "(561) 484-5063", "brand": "Crumbl Cookies", "brand:wikidata": "Q106924414"}, "geometry": {"type": "Point", "coordinates": [-80.11542, 26.88253]}},
{"type": "Feature", "id": "cOwZICznQf5T72rzeURM-uYx-7U=", "properties": {"ref": "6b3b8a10-09a5-11eb-ab55-b910858fd547:Store", "@spider": "crumbl_cookies", "addr:full": "11153 S. Parker Rd, Unit B, Parker, Colorado 80134", "addr:city": "Parker", "addr:state": "Colorado", "name": "Parker", "phone": "(720) 386-1263", "brand": "Crumbl Cookies", "brand:wikidata": "Q106924414"}, "geometry": {"type": "Point", "coordinates": [-104.765417, 39.51216]}},
{"type": "Feature", "id": "-t8xv1A6kHRWWNbJJcM6H1oOsNs=", "properties": {"ref": "84ed9400-3b35-11eb-874c-c30311c4f029:Store", "@spider": "crumbl_cookies", "addr:full": "5765 Fairmont Parkway Suite 100, Pasadena, Texas 77505", "addr:city": "Pasadena", "addr:state": "Texas", "name": "Pasadena", "phone": "(832) 553 0015", "brand": "Crumbl Cookies", "brand:wikidata": "Q106924414"}, "geometry": {"type": "Point", "coordinates": [-95.1545792, 29.6504793]}},
{"type": "Feature", "id": "ilhmMQ1Ne65gYlMfoeHlNok1VPA=", "properties": {"ref": "d952be40-9bb0-11eb-b6bd-3bf8feb1442b:Store", "@spider": "crumbl_cookies", "addr:full": "855 Turf Farm Rd Suite G, Payson, Utah 84651", "addr:city": "Payson", "addr:state": "Utah", "name": "Payson", "phone": "(385) 404-0158", "brand": "Crumbl Cookies", "brand:wikidata": "Q106924414"}, "geometry": {"type": "Point", "coordinates": [-111.7552304, 40.0309837]}},
{"type": "Feature", "id": "36HjY5eVNjuGNnWj1LBX6xRhyvo=", "properties": {"ref": "531db210-5e6e-11ea-ac15-4dfeebe00dcc:Store", "@spider": "crumbl_cookies", "addr:full": "15999 Pines Blvd #103, Pembroke Pines, Florida 33027", "addr:city": "Pembroke Pines", "addr:state": "Florida", "name": "Pembroke Pines", "phone": "(754) 220-3030", "brand": "Crumbl Cookies", "brand:wikidata": "Q106924414"}, "geometry": {"type": "Point", "coordinates": [-80.3605145, 26.0114272]}},
{"type": "Feature", "id": "nDx4KrtXKnyFVqUtTSf6i_N3cXM=", "properties": {"ref": "ec7e3fc0-334c-11eb-9ea4-29dab0c6bbd3:Store", "@spider": "crumbl_cookies", "addr:full": "1670 E Nine Mile Road, Pensacola, Florida 32514", "addr:city": "Pensacola", "addr:state": "Florida", "name": "Pensacola", "phone": "(850) 905-6414", "brand": "Crumbl Cookies", "brand:wikidata": "Q106924414"}, "geometry": {"type": "Point", "coordinates": [-87.2303141, 30.5324532]}},
{"type": "Feature", "id": "g0dYxHVR5QQuiZ-VSJs1WLGaIMU=", "properties": {"ref": "5124ef50-5e6e-11ea-bdc8-4f8d0b878ff3:Store", "@spider": "crumbl_cookies", "addr:full": "18817 Limestone Commercial Dr, Suite 200, Pflugerville, Texas 78660", "addr:city": "Pflugerville", "addr:state": "Texas", "name": "Pflugerville", "phone": "(512) 649-4770", "brand": "Crumbl Cookies", "brand:wikidata": "Q106924414"}, "geometry": {"type": "Point", "coordinates": [-97.59557, 30.46891]}},
{"type": "Feature", "id": "apF1iRWqZCKGfYCUkbJ4M--PlB4=", "properties": {"ref": "5c362fd0-5e6e-11ea-ac15-4dfeebe00dcc:Store", "@spider": "crumbl_cookies", "addr:full": "6100 W Park Blvd Suite 100B, Plano, TX 75093, Plano, Texas 75093", "addr:city": "Plano", "addr:state": "Texas", "name": "Plano", "phone": "(469) 200-6537", "brand": "Crumbl Cookies", "brand:wikidata": "Q106924414"}, "geometry": {"type": "Point", "coordinates": [-96.8333945, 33.0269178]}},
{"type": "Feature", "id": "Rd7sVSPjF4YDlxmpW_-mBDlplxo=", "properties": {"ref": "7f81d7d0-ca12-11eb-9a43-57411369fbac:Store", "@spider": "crumbl_cookies", "addr:full": "9901 77th Street, #820 , Pleasant Prairie, Wisconsin 53158", "addr:city": "Pleasant Prairie", "addr:state": "Wisconsin", "name": "Pleasant Prairie", "phone": "(262) 425-0008", "brand": "Crumbl Cookies", "brand:wikidata": "Q106924414"}, "geometry": {"type": "Point", "coordinates": [-87.9319155, 42.5653281]}},
{"type": "Feature", "id": "V0AvbgbXDKjsg10EUt5sYhlXooM=", "properties": {"ref": "5a497b00-5e6e-11ea-ac15-4dfeebe00dcc:Store", "@spider": "crumbl_cookies", "addr:full": "231 W Quinn Rd, Suite E, Pocatello, Idaho 83202", "addr:city": "Pocatello", "addr:state": "Idaho", "name": "Pocatello", "phone": "(208) 242-2303", "brand": "Crumbl Cookies", "brand:wikidata": "Q106924414"}, "geometry": {"type": "Point", "coordinates": [-112.46986, 42.90574]}},
{"type": "Feature", "id": "NLpJx6dypvgcc26nURwWotDT4rQ=", "properties": {"ref": "518add10-5e6e-11ea-ac15-4dfeebe00dcc:Store", "@spider": "crumbl_cookies", "addr:full": "2990 Midway Dr, Suite B, San Diego, California 92110", "addr:city": "San Diego", "addr:state": "California", "name": "Point Loma", "phone": "(619) 633-3770", "brand": "Crumbl Cookies", "brand:wikidata": "Q106924414"}, "geometry": {"type": "Point", "coordinates": [-117.205632, 32.749683]}},
{"type": "Feature", "id": "h7sd4vYAF7xLOTvhbRU3ukI6wY4=", "properties": {"ref": "53322470-5e6e-11ea-ac15-4dfeebe00dcc:Store", "@spider": "crumbl_cookies", "addr:full": "14900 SW Barrows Rd, Suite 104, Beaverton, Oregon 97007", "addr:city": "Beaverton", "addr:state": "Oregon", "name": "Progress Ridge", "phone": "(971) 317-9412", "brand": "Crumbl Cookies", "brand:wikidata": "Q106924414"}, "geometry": {"type": "Point", "coordinates": [-122.82884, 45.42975]}},
{"type": "Feature", "id": "33DMrFIF3B2FKCfmGGZ5cdC6B4k=", "properties": {"ref": "5ad6edf0-5e6e-11ea-bdc8-4f8d0b878ff3:Store", "@spider": "crumbl_cookies", "addr:full": "154 W 1230 N, Provo, Utah 84604", "addr:city": "Provo", "addr:state": "Utah", "name": "Provo", "phone": "(801) 823-1544", "brand": "Crumbl Cookies", "brand:wikidata": "Q106924414"}, "geometry": {"type": "Point", "coordinates": [-111.6615833, 40.2510024]}},
{"type": "Feature", "id": "Cxyt-iVx0GWKqmAm5-TThHvhkks=", "properties": {"ref": "fc4ecce0-0a56-11eb-8f02-abc9d6392a0e:Store", "@spider": "crumbl_cookies", "addr:full": "10301 156th St. E. Suite B5 106, Puyallup, Washington 98374", "addr:city": "Puyallup", "addr:state": "Washington", "name": "Puyallup", "phone": "(253) 242-5232", "brand": "Crumbl Cookies", "brand:wikidata": "Q106924414"}, "geometry": {"type": "Point", "coordinates": [-122.291496, 47.115026]}},
{"type": "Feature", "id": "KMdiJOjIlPezvzm34QajCouLeCo=", "properties": {"ref": "5b130c90-5e6e-11ea-bdc8-4f8d0b878ff3:Store", "@spider": "crumbl_cookies", "addr:full": "21172 S Ellsworth Loop Rd, #102, Queen Creek, Arizona 85142", "addr:city": "Queen Creek", "addr:state": "Arizona", "name": "Queen Creek", "phone": "(480) 565-7737", "brand": "Crumbl Cookies", "brand:wikidata": "Q106924414"}, "geometry": {"type": "Point", "coordinates": [-111.639137, 33.256135]}},
{"type": "Feature", "id": "O_WSXC_9m9pZxgAQyQ5JtbVgpSY=", "properties": {"ref": "5bd04210-5e6e-11ea-bdc8-4f8d0b878ff3:Store", "@spider": "crumbl_cookies", "addr:full": "2920 Sherman Oak Place, Suite 100 , Raleigh, North Carolina 27609", "addr:city": "Raleigh", "addr:state": "North Carolina", "name": "Raleigh", "phone": "(919) 249-1333", "brand": "Crumbl Cookies", "brand:wikidata": "Q106924414"}, "geometry": {"type": "Point", "coordinates": [-78.620847, 35.821631]}},
{"type": "Feature", "id": "idkAkJNA92tEoFsPo8exOwRREGY=", "properties": {"ref": "8a3041b0-0a4d-11eb-a387-8dbfc6611592:Store", "@spider": "crumbl_cookies", "addr:full": "22342 El Paseo, Rancho Santa Margarita, California 92688", "addr:city": "Rancho Santa Margarita", "addr:state": "California", "name": "Rancho Santa Margarita", "phone": "(949) 298-5540", "brand": "Crumbl Cookies", "brand:wikidata": "Q106924414"}, "geometry": {"type": "Point", "coordinates": [-117.594806, 33.640364]}},
{"type": "Feature", "id": "bpvMnS9BMTo36ofJUcieSiv7GJE=", "properties": {"ref": "ddae9100-916d-11eb-8470-71c16e4d41a9:Store", "@spider": "crumbl_cookies", "addr:full": "1745 Eglin St, Suite 440  , Rapid City, South Dakota 57701", "addr:city": "Rapid City", "addr:state": "South Dakota", "name": "Rapid City", "phone": "(605) 291-4040", "brand": "Crumbl Cookies", "brand:wikidata": "Q106924414"}, "geometry": {"type": "Point", "coordinates": [-103.182496, 44.096308]}},
{"type": "Feature", "id": "I-sKI_Ufvw8zoQCtSnZZcv3V5W4=", "properties": {"ref": "5a6b33d0-5e6e-11ea-bdc8-4f8d0b878ff3:Store", "@spider": "crumbl_cookies", "addr:full": "5942 E Longbow Pkwy, Suite 103, Mesa, Arizona 85215", "addr:city": "Mesa", "addr:state": "Arizona", "name": "Red Mountain", "phone": "(480) 645-9966", "brand": "Crumbl Cookies", "brand:wikidata": "Q106924414"}, "geometry": {"type": "Point", "coordinates": [-111.70276, 33.47193]}},
{"type": "Feature", "id": "_6SUXeA8NhX0RL4QDKCW_d-0gO4=", "properties": {"ref": "b0dcd0f0-61ad-11eb-a964-ad7116ea577f:Store", "@spider": "crumbl_cookies", "addr:full": "9901 West Charleston Blvd., Suite #2, Las Vegas, Nevada 89117", "addr:city": "Las Vegas", "addr:state": "Nevada", "name": "Red Rock", "phone": "(702) 846-1089", "brand": "Crumbl Cookies", "brand:wikidata": "Q106924414"}, "geometry": {"type": "Point", "coordinates": [-115.31297, 36.15827]}},
{"type": "Feature", "id": "gvCvXq1BDwg8iJjVF-XAWj9mjcI=", "properties": {"ref": "a31355b0-60e6-11eb-890f-d712f5c7a7db:Store", "@spider": "crumbl_cookies", "addr:full": "27510 W Lugonia Ave. Suite C, Redlands, California 92374", "addr:city": "Redlands", "addr:state": "California", "name": "Redlands", "phone": "(909) 312-0793", "brand": "Crumbl Cookies", "brand:wikidata": "Q106924414"}, "geometry": {"type": "Point", "coordinates": [-117.2066411, 34.0711049]}},
{"type": "Feature", "id": "pfy7vu38y5eO3N_eTyMy7tgufGI=", "properties": {"ref": "52b35780-5e6e-11ea-bdc8-4f8d0b878ff3:Store", "@spider": "crumbl_cookies", "addr:full": "160 W 2nd S, Suite 102, Rexburg, Idaho 83440", "addr:city": "Rexburg", "addr:state": "Idaho", "name": "Rexburg", "phone": "(208) 254-5556", "brand": "Crumbl Cookies", "brand:wikidata": "Q106924414"}, "geometry": {"type": "Point", "coordinates": [-111.7883524, 43.822102]}},
{"type": "Feature", "id": "QAmDtoTVk5XlRdqNxpxPw9CibF8=", "properties": {"ref": "ae2347c0-12f4-11eb-bfff-fb7bbf0441ae:Store", "@spider": "crumbl_cookies", "addr:full": "2665 Queensgate Drive, Richland, Washington 99352", "addr:city": "Richland", "addr:state": "Washington", "name": "Richland", "phone": "(509) 289-4267", "brand": "Crumbl Cookies", "brand:wikidata": "Q106924414"}, "geometry": {"type": "Point", "coordinates": [-119.310832, 46.25877]}},
{"type": "Feature", "id": "4bYm8I0dK0h69VlBRN1MU8H8Q1k=", "properties": {"ref": "dba7d5d0-60ec-11eb-bc1b-a3db734c0434:Store", "@spider": "crumbl_cookies", "addr:full": "2207 Claribel Rd Suite D. , Riverbank, California 95367", "addr:city": "Riverbank", "addr:state": "California", "name": "Riverbank", "phone": "(209) 719-1011", "brand": "Crumbl Cookies", "brand:wikidata": "Q106924414"}, "geometry": {"type": "Point", "coordinates": [-120.9601522, 37.7114285]}},
{"type": "Feature", "id": "5XCjIYMYhBtBRTN5rTLDD3PAvxU=", "properties": {"ref": "e2f76880-60ee-11eb-bcd8-4d5d692f9c22:Store", "@spider": "crumbl_cookies", "addr:full": "3540 Riverside Plaza Dr Ste 312, Riverside, California 92506", "addr:city": "Riverside", "addr:state": "California", "name": "Riverside", "phone": "(951) 335-0635", "brand": "Crumbl Cookies", "brand:wikidata": "Q106924414"}, "geometry": {"type": "Point", "coordinates": [-117.390466, 33.955148]}},
{"type": "Feature", "id": "v5de2rpTSYesBC5mTPgOAB92yxY=", "properties": {"ref": "5106e000-5e6e-11ea-ac15-4dfeebe00dcc:Store", "@spider": "crumbl_cookies", "addr:full": "2778 W 12600 S, Riverton, Utah 84065", "addr:city": "Riverton", "addr:state": "Utah", "name": "Riverton", "phone": "(801) 747-9970", "brand": "Crumbl Cookies", "brand:wikidata": "Q106924414"}, "geometry": {"type": "Point", "coordinates": [-111.9615641, 40.5228525]}},
{"type": "Feature", "id": "9gcV46qd1xYPI91fOa-QrD0yzlc=", "properties": {"ref": "20ed9ac0-5c25-11eb-8c5a-7536ab0b73f0:Store", "@spider": "crumbl_cookies", "addr:full": "2665 Commerce Dr. NW, Suite 200, Rochester, Minnesota 55901", "addr:city": "Rochester", "addr:state": "Minnesota", "name": "Rochester", "phone": "(507) 328-0636", "brand": "Crumbl Cookies", "brand:wikidata": "Q106924414"}, "geometry": {"type": "Point", "coordinates": [-92.5233268, 44.0514152]}},
{"type": "Feature", "id": "SYJaSEvM2qv1RQx2GSHoVGkfkuI=", "properties": {"ref": "66b3f520-3b34-11eb-a867-b54ffef027ee:Store", "@spider": "crumbl_cookies", "addr:full": "2575 S. Rochester Rd, Rochester Hills, Michigan 48307", "addr:city": "Rochester Hills", "addr:state": "Michigan", "name": "Rochester Hills", "phone": "(947) 218-0413", "brand": "Crumbl Cookies", "brand:wikidata": "Q106924414"}, "geometry": {"type": "Point", "coordinates": [-83.13202, 42.64326]}},
{"type": "Feature", "id": "oS8pzw0Bhl50dDgalwf3_3ylCfE=", "properties": {"ref": "ef891300-60e4-11eb-99b3-691181d275b3:Store", "@spider": "crumbl_cookies", "addr:full": "5194 Commons Drive Suite # 107 , Rocklin, California 95677", "addr:city": "Rocklin", "addr:state": "California", "name": "Rocklin", "phone": "(279) 999-1003", "brand": "Crumbl Cookies", "brand:wikidata": "Q106924414"}, "geometry": {"type": "Point", "coordinates": [-121.208748, 38.8044039]}},
{"type": "Feature", "id": "4VSZrXtnLbHIFvnPthO9NjS_D10=", "properties": {"ref": "dccba680-fc3d-11ea-b9f4-b15f383103cd:Store", "@spider": "crumbl_cookies", "addr:full": "12266 Rockville Pike Suite K, Rockville, Maryland 20852", "addr:city": "Rockville", "addr:state": "Maryland", "name": "Rockville", "phone": "(240) 406-7655", "brand": "Crumbl Cookies", "brand:wikidata": "Q106924414"}, "geometry": {"type": "Point", "coordinates": [-77.124571, 39.057319]}},
{"type": "Feature", "id": "joTjRO3Uw_zc5OfQXRAZ56o43QM=", "properties": {"ref": "21ab24c0-9ba7-11eb-81a4-b7cb7a072e17:Store", "@spider": "crumbl_cookies", "addr:full": "951 E I-30 Suite 105 Rockwall , Rockwall, Texas 75087", "addr:city": "Rockwall", "addr:state": "Texas", "name": "Rockwall", "phone": "(469) 264-5180", "brand": "Crumbl Cookies", "brand:wikidata": "Q106924414"}, "geometry": {"type": "Point", "coordinates": [-96.4567778, 32.9025874]}},
{"type": "Feature", "id": "gueidX3Wtg9VHDfla8I-CZMoyfY=", "properties": {"ref": "a1d56e70-625a-11eb-ad45-ef69e8f07f5a:Store", "@spider": "crumbl_cookies", "addr:full": "1500 NW Mulholland Drive, Ste 105, Roseburg, Oregon 97470", "addr:city": "Roseburg", "addr:state": "Oregon", "name": "Roseburg", "phone": "(541) 671-5512", "brand": "Crumbl Cookies", "brand:wikidata": "Q106924414"}, "geometry": {"type": "Point", "coordinates": [-123.3623435, 43.2284359]}},
{"type": "Feature", "id": "P-pDy62MacPElbfWFdymWpSYM8o=", "properties": {"ref": "3b705540-09aa-11eb-850a-773d07db1466:Store", "@spider": "crumbl_cookies", "addr:full": "6726 Stanford Ranch Rd #5, Roseville, California 95678", "addr:city": "Roseville", "addr:state": "California", "name": "Roseville", "phone": "(916) 846-9682", "brand": "Crumbl Cookies", "brand:wikidata": "Q106924414"}, "geometry": {"type": "Point", "coordinates": [-121.267085, 38.783032]}},
{"type": "Feature", "id": "P4vtWlQR7xB1B1eO2tKJR3wH5hM=", "properties": {"ref": "585c2890-ec22-11eb-aecc-35b416ffa504:Store", "@spider": "crumbl_cookies", "addr:full": "2 Cellu Dr, unit 101, Nashua, New Hampshire 03063", "addr:city": "Nashua", "addr:state": "New Hampshire", "name": "Round Pond", "phone": "(603) 821-0058", "brand": "Crumbl Cookies", "brand:wikidata": "Q106924414"}, "geometry": {"type": "Point", "coordinates": [-71.5357984, 42.7979376]}},
{"type": "Feature", "id": "NEugyljSoq6we-DnyN4rpqlj-u4=", "properties": {"ref": "510a6270-5e6e-11ea-bdc8-4f8d0b878ff3:Store", "@spider": "crumbl_cookies", "addr:full": "2654 Red Cliffs Dr, St George, Utah 84790", "addr:city": "St George", "addr:state": "Utah", "name": "Saint George", "phone": "(435) 359-2119", "brand": "Crumbl Cookies", "brand:wikidata": "Q106924414"}, "geometry": {"type": "Point", "coordinates": [-113.5319256, 37.1243121]}},
{"type": "Feature", "id": "mY8X1WU7ZQyN0jJnn4HePNU4plM=", "properties": {"ref": "ceb1d750-12ee-11eb-994f-d7f32a3d1f51:Store", "@spider": "crumbl_cookies", "addr:full": "1333 Auto Mall Dr Ste 307, St. George, UT 84770, Saint George, Utah 84790", "addr:city": "Saint George", "addr:state": "Utah", "name": "Saint George Bluff", "phone": "(435) 272-4238", "brand": "Crumbl Cookies", "brand:wikidata": "Q106924414"}, "geometry": {"type": "Point", "coordinates": [-113.58821, 37.08139]}},
{"type": "Feature", "id": "Fars6le3xwT3jQNryTPMUQtoO3w=", "properties": {"ref": "3c22cce0-bafc-11ea-a7d4-272945fd96a5:Store", "@spider": "crumbl_cookies", "addr:full": "717 Lancaster Dr NE, Salem, Oregon 97301", "addr:city": "Salem", "addr:state": "Oregon", "name": "Salem", "phone": "(503) 877-1502", "brand": "Crumbl Cookies", "brand:wikidata": "Q106924414"}, "geometry": {"type": "Point", "coordinates": [-122.9837343, 44.9399529]}},
{"type": "Feature", "id": "hryTNa-3F5utKfQrSMXFUIn137o=", "properties": {"ref": "51a80200-5e6e-11ea-ac15-4dfeebe00dcc:Store", "@spider": "crumbl_cookies", "addr:full": "675 E 2100 S , Salt Lake City, Utah 84105", "addr:city": "Salt Lake City", "addr:state": "Utah", "name": "Salt Lake City", "phone": "(385) 501-1777", "brand": "Crumbl Cookies", "brand:wikidata": "Q106924414"}, "geometry": {"type": "Point", "coordinates": [-111.872066, 40.725337]}},
{"type": "Feature", "id": "Yi7Sc-XGYrGL1orNn0H_Rz3c2Rs=", "properties": {"ref": "ed24a5d0-0742-11eb-ba0a-775344bc9413:Store", "@spider": "crumbl_cookies", "addr:full": "5651 Sherwood Way, San Angelo, Texas 76904", "addr:city": "San Angelo", "addr:state": "Texas", "name": "San Angelo", "phone": "(325) 939-8261", "brand": "Crumbl Cookies", "brand:wikidata": "Q106924414"}, "geometry": {"type": "Point", "coordinates": [-100.5116, 31.42734]}},
{"type": "Feature", "id": "kjiYDURDnK_4dfMDQejApsuN7fA=", "properties": {"ref": "51ec0fe0-5e6e-11ea-bdc8-4f8d0b878ff3:Store", "@spider": "crumbl_cookies", "addr:full": "11619 Bandera Rd, Suite 103, San Antonio, Texas 78250", "addr:city": "San Antonio", "addr:state": "Texas", "name": "San Antonio", "phone": "(210) 741-6193", "brand": "Crumbl Cookies", "brand:wikidata": "Q106924414"}, "geometry": {"type": "Point", "coordinates": [-98.666191, 29.5494886]}},
{"type": "Feature", "id": "a_LqZ8P28ehlqY-_ddObHBIY4W4=", "properties": {"ref": "2e4b3d80-2836-11eb-8239-bf4f067b689c:Store", "@spider": "crumbl_cookies", "addr:full": "410 Camino De Estrella, San Clemente, California 92672", "addr:city": "San Clemente", "addr:state": "California", "name": "San Clemente", "phone": "949-234-7797", "brand": "Crumbl Cookies", "brand:wikidata": "Q106924414"}, "geometry": {"type": "Point", "coordinates": [-117.657071, 33.456007]}},
{"type": "Feature", "id": "0WNLCGmXxu5iGElcXEAWBLCmEIg=", "properties": {"ref": "782ef200-601e-11eb-a534-bd6dfcce3b83:Store", "@spider": "crumbl_cookies", "addr:full": "152 Sunset Dr, San Ramon, California 94583", "addr:city": "San Ramon", "addr:state": "California", "name": "San Ramon", "phone": "(925) 361-2104", "brand": "Crumbl Cookies", "brand:wikidata": "Q106924414"}, "geometry": {"type": "Point", "coordinates": [-121.96107, 37.7632]}},
{"type": "Feature", "id": "RExOkfjYRctNdP__NN0AYJk8ByA=", "properties": {"ref": "07f46920-5ce0-11eb-bf3f-e98c97cbf5b8:Store", "@spider": "crumbl_cookies", "addr:full": "2154 Santa Rosa Ave, Santa Rosa, California 95407", "addr:city": "Santa Rosa", "addr:state": "California", "name": "Santa Rosa", "phone": "(707) 324-1781", "brand": "Crumbl Cookies", "brand:wikidata": "Q106924414"}, "geometry": {"type": "Point", "coordinates": [-122.71349, 38.41719]}},
{"type": "Feature", "id": "0ZsPNnABLi57WQsZnLzbt7yHY-Y=", "properties": {"ref": "f7282bb0-873a-11eb-8a13-6fe29d066d9e:Store", "@spider": "crumbl_cookies", "addr:full": "9862 Mission Gorge Rd. Ste. B, Santee, California 92071", "addr:city": "Santee", "addr:state": "California", "name": "Santee", "phone": "(619) 728-4625", "brand": "Crumbl Cookies", "brand:wikidata": "Q106924414"}, "geometry": {"type": "Point", "coordinates": [-116.9822514, 32.8411822]}},
{"type": "Feature", "id": "DNg2bVHryKCHbuesnrVH9zMvozU=", "properties": {"ref": "52162d20-5e6e-11ea-ac15-4dfeebe00dcc:Store", "@spider": "crumbl_cookies", "addr:full": "24 W Pioneer Crossing, Suite 110, Saratoga Springs, Utah 84045", "addr:city": "Saratoga Springs", "addr:state": "Utah", "name": "Saratoga", "phone": "(801) 823-1630", "brand": "Crumbl Cookies", "brand:wikidata": "Q106924414"}, "geometry": {"type": "Point", "coordinates": [-111.9171963, 40.3732175]}},
{"type": "Feature", "id": "CVGx8VfWU5yr12eI0oz5jWBbpVQ=", "properties": {"ref": "9bb57d30-a145-11eb-a69c-499dfb852268:Store", "@spider": "crumbl_cookies", "addr:full": "358 Broadway, Saugus, Massachusetts 01906", "addr:city": "Saugus", "addr:state": "Massachusetts", "name": "Saugus", "phone": "(339) 210-5052", "brand": "Crumbl Cookies", "brand:wikidata": "Q106924414"}, "geometry": {"type": "Point", "coordinates": [-71.0197427, 42.4834902]}},
{"type": "Feature", "id": "Zj4kynOELsDLEZfsHDacba2zgGc=", "properties": {"ref": "72a55940-5aed-11eb-b1e9-8d959f3deb15:Store", "@spider": "crumbl_cookies", "addr:full": "106 E Golf Rd, Schaumburg, Illinois 60173", "addr:city": "Schaumburg", "addr:state": "Illinois", "name": "Schaumburg", "phone": "(224) 377-0925", "brand": "Crumbl Cookies", "brand:wikidata": "Q106924414"}, "geometry": {"type": "Point", "coordinates": [-88.0790455, 42.0504818]}},
{"type": "Feature", "id": "QCLCnhuSRJGy3Iplyh_omC9zzPA=", "properties": {"ref": "5c158870-5e6e-11ea-bdc8-4f8d0b878ff3:Store", "@spider": "crumbl_cookies", "addr:full": "7300 N V\u00eda Paseo Del Sur, Suite 106 , Scottsdale, Arizona 85258", "addr:city": "Scottsdale", "addr:state": "Arizona", "name": "Scottsdale", "phone": "(602) 675-9550", "brand": "Crumbl Cookies", "brand:wikidata": "Q106924414"}, "geometry": {"type": "Point", "coordinates": [-111.90691, 33.54359]}},
{"type": "Feature", "id": "108WPbJWbeM25RHXc8lBxwmCsoM=", "properties": {"ref": "62bd3eb0-786d-11eb-b504-b34e8d38acce:Store", "@spider": "crumbl_cookies", "addr:full": "11167 Unit E Park Boulevard North, Seminole, Florida 33772", "addr:city": "Seminole", "addr:state": "Florida", "name": "Seminole", "phone": "727) 371-8758", "brand": "Crumbl Cookies", "brand:wikidata": "Q106924414"}, "geometry": {"type": "Point", "coordinates": [-82.7968297, 27.841368]}},
{"type": "Feature", "id": "Kf9AID467bLHtmXeAAjWfcrkfsk=", "properties": {"ref": "65a77550-5f5e-11eb-9d9d-4d3a532613d7:Store", "@spider": "crumbl_cookies", "addr:full": "21260 SW Langer Farms Parkway, Suite 110, Sherwood, Oregon 97140", "addr:city": "Sherwood", "addr:state": "Oregon", "name": "Sherwood", "phone": "(971) 979-0001", "brand": "Crumbl Cookies", "brand:wikidata": "Q106924414"}, "geometry": {"type": "Point", "coordinates": [-122.835791, 45.366705]}},
{"type": "Feature", "id": "-GYrOOHT_hZT0CFKKaPMeNDDm8M=", "properties": {"ref": "5304d2e0-5e6e-11ea-bdc8-4f8d0b878ff3:Store", "@spider": "crumbl_cookies", "addr:full": "1804 S. Signal Butte Rd, Suite 103, Mesa, Arizona 85209", "addr:city": "Mesa", "addr:state": "Arizona", "name": "Signal Butte", "phone": "(602) 661 2799", "brand": "Crumbl Cookies", "brand:wikidata": "Q106924414"}, "geometry": {"type": "Point", "coordinates": [-111.6025381, 33.3822423]}},
{"type": "Feature", "id": "d8ssxMSulghxXR83l795gTv8K_g=", "properties": {"ref": "453823c0-7861-11eb-91b4-d7ea0c981ea4:Store", "@spider": "crumbl_cookies", "addr:full": "702 Fairview Rd. Suite 103, Simpsonville, South Carolina 29680", "addr:city": "Simpsonville", "addr:state": "South Carolina", "name": "Simpsonville", "phone": "864) 881-2684", "brand": "Crumbl Cookies", "brand:wikidata": "Q106924414"}, "geometry": {"type": "Point", "coordinates": [-82.2620886, 34.7033153]}},
{"type": "Feature", "id": "IEio714I3lvRP7bQXhlt-Bf_hiQ=", "properties": {"ref": "74bf9c30-8e7e-11eb-ae04-d1990e1bd798:Store", "@spider": "crumbl_cookies", "addr:full": "817 Industrial Blvd SPC #900, Smyrna, Tennessee 37167", "addr:city": "Smyrna", "addr:state": "Tennessee", "name": "Smyrna", "phone": "(615) 625-2447", "brand": "Crumbl Cookies", "brand:wikidata": "Q106924414"}, "geometry": {"type": "Point", "coordinates": [-86.5704939, 35.9811382]}},
{"type": "Feature", "id": "VJKSUCsgVEOkqdYYkAi8IgzGArM=", "properties": {"ref": "538881d0-5e6e-11ea-ac15-4dfeebe00dcc:Store", "@spider": "crumbl_cookies", "addr:full": "1516 E Southlake Blvd, Southlake, Texas 76092", "addr:city": "Southlake", "addr:state": "Texas", "name": "South Lake", "phone": "(817) 601-8162", "brand": "Crumbl Cookies", "brand:wikidata": "Q106924414"}, "geometry": {"type": "Point", "coordinates": [-97.128708, 32.941079]}},
{"type": "Feature", "id": "T9LCozBzYIAifMRhODUqlDehzj4=", "properties": {"ref": "2c071640-040d-11eb-b5dd-b964cef8ec26:Store", "@spider": "crumbl_cookies", "addr:full": "2160 E Baseline Rd #124, Phoenix, Arizona 85042", "addr:city": "Phoenix", "addr:state": "Arizona", "name": "South Mountain", "phone": "(623) 289-2660", "brand": "Crumbl Cookies", "brand:wikidata": "Q106924414"}, "geometry": {"type": "Point", "coordinates": [-112.032985, 33.379232]}},
{"type": "Feature", "id": "5MqgAoIEknUgUWS-U5Wtk2WFD8k=", "properties": {"ref": "1a65a4e0-c625-11ea-a90b-c7bd014b073e:Store", "@spider": "crumbl_cookies", "addr:full": "9600 S IH-35, Suite 31, Austin, Texas 78748", "addr:city": "Austin", "addr:state": "Texas", "name": "Southpark Meadows", "phone": "(512) 649-4555", "brand": "Crumbl Cookies", "brand:wikidata": "Q106924414"}, "geometry": {"type": "Point", "coordinates": [-97.7924013, 30.1607196]}},
{"type": "Feature", "id": "P52UBsI-fnyTLBuxtEd40DYtsdM=", "properties": {"ref": "441691e0-8e80-11eb-9cb2-ff5e4c66b683:Store", "@spider": "crumbl_cookies", "addr:full": "8128 Renaissance Pkwy, #113, Durham, North Carolina 27713", "addr:city": "Durham", "addr:state": "North Carolina", "name": "Southpoint", "phone": "(984) 666-1671", "brand": "Crumbl Cookies", "brand:wikidata": "Q106924414"}, "geometry": {"type": "Point", "coordinates": [-78.9551075, 35.9033212]}},
{"type": "Feature", "id": "HaOpoX2ADUODX-7PJuYGdwVw_SU=", "properties": {"ref": "52d696f0-5e6e-11ea-ac15-4dfeebe00dcc:Store", "@spider": "crumbl_cookies", "addr:full": "330 N Main St, Spanish Fork, Utah 84660", "addr:city": "Spanish Fork", "addr:state": "Utah", "name": "Spanish Fork", "phone": "(385) 448-1137", "brand": "Crumbl Cookies", "brand:wikidata": "Q106924414"}, "geometry": {"type": "Point", "coordinates": [-111.6566438, 40.1141765]}},
{"type": "Feature", "id": "ETSc-bjcm6Kt-FsQv5bHLD8XczY=", "properties": {"ref": "f4c72d30-9bb2-11eb-98fb-4b3890f3e151:Store", "@spider": "crumbl_cookies", "addr:full": "1129 W 400 S, Springville, Utah 84663", "addr:city": "Springville", "addr:state": "Utah", "name": "Springville", "phone": "(385) 327-0308", "brand": "Crumbl Cookies", "brand:wikidata": "Q106924414"}, "geometry": {"type": "Point", "coordinates": [-111.63015372173646, 40.16103443202349]}},
{"type": "Feature", "id": "vKUHT_F9QSSCofy1TYrCVsxert4=", "properties": {"ref": "53d5a120-7233-11eb-8965-ffa08b95d9fa:Store", "@spider": "crumbl_cookies", "addr:full": "14844 Hall Road, Sterling Heights, Michigan 48313", "addr:city": "Sterling Heights", "addr:state": "Michigan", "name": "Sterling Heights", "phone": "(586) 580-1270", "brand": "Crumbl Cookies", "brand:wikidata": "Q106924414"}, "geometry": {"type": "Point", "coordinates": [-82.977562, 42.626612]}},
{"type": "Feature", "id": "j_7oe0gdcOxnX_tKp94PkU9bkR0=", "properties": {"ref": "1449e400-786c-11eb-80f4-138afea908e5:Store", "@spider": "crumbl_cookies", "addr:full": "864 W. Benjamin Holt, Stockton, California 95207", "addr:city": "Stockton", "addr:state": "California", "name": "Stockton", "phone": "209) 337-3337", "brand": "Crumbl Cookies", "brand:wikidata": "Q106924414"}, "geometry": {"type": "Point", "coordinates": [-121.3240897, 38.010249]}},
{"type": "Feature", "id": "9zg2FmcvtPfZCre1Py9NxePzxfk=", "properties": {"ref": "f307c5d0-2836-11eb-9519-af26ff50d77c:Store", "@spider": "crumbl_cookies", "addr:full": "214 Azalea Square Blvd, Summerville, South Carolina 29483", "addr:city": "Summerville", "addr:state": "South Carolina", "name": "Summerville", "phone": "(843) 900-0622", "brand": "Crumbl Cookies", "brand:wikidata": "Q106924414"}, "geometry": {"type": "Point", "coordinates": [-80.15727, 33.03816]}},
{"type": "Feature", "id": "lpAG_y1B9y9QYneoDr68zpiJXys=", "properties": {"ref": "9976a5c0-3b34-11eb-874c-c30311c4f029:Store", "@spider": "crumbl_cookies", "addr:full": "2808 Prairie Lakes Dr., Bldg E, Ste. 102, Sun Prairie WI, , Sun Prairie, Wisconsin 53590", "addr:city": "Sun Prairie", "addr:state": "Wisconsin", "name": "Sun Prairie", "phone": "(608) 912-0015", "brand": "Crumbl Cookies", "brand:wikidata": "Q106924414"}, "geometry": {"type": "Point", "coordinates": [-89.27007, 43.16786]}},
{"type": "Feature", "id": "riBcmUBPm9eN3Yq_iAcVhoMzIJU=", "properties": {"ref": "524fb3b0-5e6e-11ea-bdc8-4f8d0b878ff3:Store", "@spider": "crumbl_cookies", "addr:full": "5207 Brodie Ln, Suite 110, Austin, Texas 78745", "addr:city": "Austin", "addr:state": "Texas", "name": "Sunset Valley", "phone": "(512) 649-4488", "brand": "Crumbl Cookies", "brand:wikidata": "Q106924414"}, "geometry": {"type": "Point", "coordinates": [-97.8149562, 30.2306535]}},
{"type": "Feature", "id": "IpulcmJCbR0auehVlSWkjGAhP10=", "properties": {"ref": "1a126250-0a61-11eb-a8dd-c993e62f2288:Store", "@spider": "crumbl_cookies", "addr:full": "302 Center Dr, Superior, Colorado 80027", "addr:city": "Superior", "addr:state": "Colorado", "name": "Superior", "phone": "(720) 727-0199", "brand": "Crumbl Cookies", "brand:wikidata": "Q106924414"}, "geometry": {"type": "Point", "coordinates": [-105.174179, 39.956437]}},
{"type": "Feature", "id": "6BW9rBQ2JGPSQhl7dzmcqMgJLWI=", "properties": {"ref": "b0f1bc70-3b35-11eb-b768-c18a21b8e727:Store", "@spider": "crumbl_cookies", "addr:full": "13983 W. Waddell Rd. Suite 100, Surprise, Arizona 85379", "addr:city": "Surprise", "addr:state": "Arizona", "name": "Surprise", "phone": "(623) 246-1774", "brand": "Crumbl Cookies", "brand:wikidata": "Q106924414"}, "geometry": {"type": "Point", "coordinates": [-112.3606712, 33.6107112]}},
{"type": "Feature", "id": "fdN-4Dd-Ktl7ZnR0kH_w53Rk090=", "properties": {"ref": "91c34e10-12f7-11eb-8dd8-8fcd3a7fed18:Store", "@spider": "crumbl_cookies", "addr:full": "2251 NW 185th Ave, Hillsboro, Oregon 97124", "addr:city": "Hillsboro", "addr:state": "Oregon", "name": "Tanasbourne", "phone": "(971) 220-8199", "brand": "Crumbl Cookies", "brand:wikidata": "Q106924414"}, "geometry": {"type": "Point", "coordinates": [-122.869183, 45.536549]}},
{"type": "Feature", "id": "3rctYnqfYom_p5aA_6CMzwpWExU=", "properties": {"ref": "4ee9cc60-5e6e-11ea-b0ac-27e3235c49b4:Store", "@spider": "crumbl_cookies", "addr:full": "4747 E Bell Rd, Suite 9, Phoenix, Arizona 85032", "addr:city": "Phoenix", "addr:state": "Arizona", "name": "Tatum", "phone": "(602) 607-0937", "brand": "Crumbl Cookies", "brand:wikidata": "Q106924414"}, "geometry": {"type": "Point", "coordinates": [-111.978534, 33.64003]}},
{"type": "Feature", "id": "qVzjHaLveaopSodEFZFnwVaGUpg=", "properties": {"ref": "c62dbb30-d1d0-11ea-998b-63eb662ce9f4:Store", "@spider": "crumbl_cookies", "addr:full": "2435 Hwy 160, Suite 108, Fort Mill, South Carolina 29708", "addr:city": "Fort Mill", "addr:state": "South Carolina", "name": "Tegacay", "phone": "(803) 402-4626", "brand": "Crumbl Cookies", "brand:wikidata": "Q106924414"}, "geometry": {"type": "Point", "coordinates": [-80.991592, 35.04648]}},
{"type": "Feature", "id": "ix-8IidUTHOEppMvZSdpPOzHIgE=", "properties": {"ref": "e021ebb0-0d7b-11eb-866f-59844159fcf4:Store", "@spider": "crumbl_cookies", "addr:full": "9017 Tehama Ridge, Fort Worth, Texas 76177", "addr:city": "Fort Worth", "addr:state": "Texas", "name": "Tehama Ridge Parkway", "phone": "(682) 514-9970", "brand": "Crumbl Cookies", "brand:wikidata": "Q106924414"}, "geometry": {"type": "Point", "coordinates": [-97.32343, 32.90501]}},
{"type": "Feature", "id": "Wux5TbNrvRcSBkJyhAXiyy-Qyv4=", "properties": {"ref": "1433b940-9475-11ea-9faa-41f6926ddb7f:Store", "@spider": "crumbl_cookies", "addr:full": "430 N Scottsdale Rd, Suite 112, Tempe, Arizona 85281", "addr:city": "Tempe", "addr:state": "Arizona", "name": "Tempe", "phone": "(602) 726-4553", "brand": "Crumbl Cookies", "brand:wikidata": "Q106924414"}, "geometry": {"type": "Point", "coordinates": [-111.927284, 33.434104]}},
{"type": "Feature", "id": "Iq3mk-jJLEanyOx3sXxDwePmry4=", "properties": {"ref": "514150f0-5e6e-11ea-bdc8-4f8d0b878ff3:Store", "@spider": "crumbl_cookies", "addr:full": "14332 Lincoln St, Thornton, Colorado 80023", "addr:city": "Thornton", "addr:state": "Colorado", "name": "Thornton", "phone": "(720) 791-6977", "brand": "Crumbl Cookies", "brand:wikidata": "Q106924414"}, "geometry": {"type": "Point", "coordinates": [-104.986835, 39.955594]}},
{"type": "Feature", "id": "wROg0XTV9k-2Wz-R1DQOQQv9b3M=", "properties": {"ref": "509c8570-5e6e-11ea-bdc8-4f8d0b878ff3:Store", "@spider": "crumbl_cookies", "addr:full": "1351 N Main St, Tooele, Utah 84074", "addr:city": "Tooele", "addr:state": "Utah", "name": "Tooele", "phone": "(435) 728-2025", "brand": "Crumbl Cookies", "brand:wikidata": "Q106924414"}, "geometry": {"type": "Point", "coordinates": [-112.2997695, 40.557378]}},
{"type": "Feature", "id": "VRIyo-urcOA5SuoniiM_KA58YGs=", "properties": {"ref": "591fdb70-f2d4-11ea-b0b4-afe62af918de:Store", "@spider": "crumbl_cookies", "addr:full": "9915 Barker Cypress Rd, Suite 155, Cypress, Texas 77433", "addr:city": "Cypress", "addr:state": "Texas", "name": "Towne Lake", "phone": "(346) 278-2112", "brand": "Crumbl Cookies", "brand:wikidata": "Q106924414"}, "geometry": {"type": "Point", "coordinates": [-95.688558, 29.922427]}},
{"type": "Feature", "id": "_R-23bgfNb79KCfM1ZvTo2_isXc=", "properties": {"ref": "4b1e12f0-99f9-11ea-b539-d3383e63eead:Store", "@spider": "crumbl_cookies", "addr:full": "2745 Countryside Dr, Suite A, Turlock, California 95380", "addr:city": "Turlock", "addr:state": "California", "name": "Turlock", "phone": "(209) 336-6449", "brand": "Crumbl Cookies", "brand:wikidata": "Q106924414"}, "geometry": {"type": "Point", "coordinates": [-120.8794035, 37.5162871]}},
{"type": "Feature", "id": "z_R5Qg8LNhItATuPbgbguVnJiDY=", "properties": {"ref": "53481d70-5e6e-11ea-bdc8-4f8d0b878ff3:Store", "@spider": "crumbl_cookies", "addr:full": "799 Cheney Dr, Unit 30C, Twin Falls, Idaho 83301", "addr:city": "Twin Falls", "addr:state": "Idaho", "name": "Twin Falls", "phone": "(208) 329-5800", "brand": "Crumbl Cookies", "brand:wikidata": "Q106924414"}, "geometry": {"type": "Point", "coordinates": [-114.4619136, 42.5889035]}},
{"type": "Feature", "id": "mG6bGxFuU_Zh8JiAbTKNmNmHlhU=", "properties": {"ref": "0d740750-af4a-11ea-ad8b-a70d48336e77:Store", "@spider": "crumbl_cookies", "addr:full": "8982 S Broadway Ave, Suite 110, Tyler, Texas 75703", "addr:city": "Tyler", "addr:state": "Texas", "name": "Tyler", "phone": "(430) 201-6110", "brand": "Crumbl Cookies", "brand:wikidata": "Q106924414"}, "geometry": {"type": "Point", "coordinates": [-95.3077592, 32.2497978]}},
{"type": "Feature", "id": "FftZMJ1d0s7pwV45RL1thavaa9A=", "properties": {"ref": "5b70bcf0-5e6e-11ea-ac15-4dfeebe00dcc:Store", "@spider": "crumbl_cookies", "addr:full": "4700 Maryland Pkwy #135, Las Vegas, Nevada 89119", "addr:city": "Las Vegas", "addr:state": "Nevada", "name": "UNLV", "phone": "(702) 323-8005", "brand": "Crumbl Cookies", "brand:wikidata": "Q106924414"}, "geometry": {"type": "Point", "coordinates": [-115.13623, 36.10396]}},
{"type": "Feature", "id": "Ms6BClZUh7TO7OP5yUXhK8UyHO4=", "properties": {"ref": "c4df2260-60ef-11eb-a4b6-e18772606843:Store", "@spider": "crumbl_cookies", "addr:full": "1071 E 19th St. Suite B, Upland, California 91784", "addr:city": "Upland", "addr:state": "California", "name": "Upland", "phone": "(909) 493-5109", "brand": "Crumbl Cookies", "brand:wikidata": "Q106924414"}, "geometry": {"type": "Point", "coordinates": [-117.6361795, 34.1323319]}},
{"type": "Feature", "id": "A-f4AikHJVINw_1b28Fk3bwQzO4=", "properties": {"ref": "1e317e60-5cdd-11eb-91b4-272ecc5c0b26:Store", "@spider": "crumbl_cookies", "addr:full": "2000 Harbison Dr, Suite C, Vacaville, California 95687", "addr:city": "Vacaville", "addr:state": "California", "name": "Vacaville", "phone": "(707) 359-7027", "brand": "Crumbl Cookies", "brand:wikidata": "Q106924414"}, "geometry": {"type": "Point", "coordinates": [-121.96412, 38.36318]}},
{"type": "Feature", "id": "Im3GP8pbx2VHFhpCv877sTPcJBs=", "properties": {"ref": "15777ff0-60f1-11eb-a364-0b059595a76e:Store", "@spider": "crumbl_cookies", "addr:full": "27021 McBean Parkway, Valencia, California 91355", "addr:city": "Valencia", "addr:state": "California", "name": "Valencia", "phone": "(661) 383-0454", "brand": "Crumbl Cookies", "brand:wikidata": "Q106924414"}, "geometry": {"type": "Point", "coordinates": [-118.5673735, 34.4211846]}},
{"type": "Feature", "id": "srF6gIf5WChYfuGrPTVChLlFv9k=", "properties": {"ref": "5353f3b0-0a59-11eb-8138-51e9c644fb34:Store", "@spider": "crumbl_cookies", "addr:full": "616 NE 81st St E, Vancouver, Washington 98665", "addr:city": "Vancouver", "addr:state": "Washington", "name": "Vancouver", "phone": "(360) 859-0811", "brand": "Crumbl Cookies", "brand:wikidata": "Q106924414"}, "geometry": {"type": "Point", "coordinates": [-122.665466, 45.680974]}},
{"type": "Feature", "id": "-IDXOrKdqk7lT4_iTxYCDRnmpYU=", "properties": {"ref": "23ba1780-1303-11eb-ba0e-6bfe18b79d30:Store", "@spider": "crumbl_cookies", "addr:full": "708 Montgomery Highway, Suite 116, Vestavia Hills, Alabama 35216", "addr:city": "Vestavia Hills", "addr:state": "Alabama", "name": "Vestavia Hills", "phone": "(205) 379-0293", "brand": "Crumbl Cookies", "brand:wikidata": "Q106924414"}, "geometry": {"type": "Point", "coordinates": [-86.792539, 33.446783]}},
{"type": "Feature", "id": "AtxGI0wYXE1qoUWYfOjKX85_hyU=", "properties": {"ref": "50d93f30-e648-11ea-b5f1-fb2c44cae313:Store", "@spider": "crumbl_cookies", "addr:full": "203 Maple Ave E, Vienna, Virginia 22180", "addr:city": "Vienna", "addr:state": "Virginia", "name": "Vienna", "phone": "(571) 295-4264", "brand": "Crumbl Cookies", "brand:wikidata": "Q106924414"}, "geometry": {"type": "Point", "coordinates": [-77.2623, 38.90333]}},
{"type": "Feature", "id": "zCrWkJAjRHBCwIQfYMIBRqK6BEQ=", "properties": {"ref": "a49a8ab0-b745-11eb-9ccd-8f4e5d9646d6:Store", "@spider": "crumbl_cookies", "addr:full": "11561 Regency Village Dr, Orlando, Florida 32821", "addr:city": "Orlando", "addr:state": "Florida", "name": "Vineland", "phone": "(321) 401-6160`", "brand": "Crumbl Cookies", "brand:wikidata": "Q106924414"}, "geometry": {"type": "Point", "coordinates": [-81.4873392, 28.3944949]}},
{"type": "Feature", "id": "9gus4Apkmo9C6dj39OQU5ctQwUA=", "properties": {"ref": "024c43a0-7863-11eb-a4ed-cba4144ddc9b:Store", "@spider": "crumbl_cookies", "addr:full": "737 First Colonial Road Suite 214, Virginia Beach, Virginia 23451", "addr:city": "Virginia Beach", "addr:state": "Virginia", "name": "Virginia Beach", "phone": "757) 916-5700", "brand": "Crumbl Cookies", "brand:wikidata": "Q106924414"}, "geometry": {"type": "Point", "coordinates": [-76.0271452, 36.851601]}},
{"type": "Feature", "id": "CyDrCe8TOKSKf2GNLKLZoacXybo=", "properties": {"ref": "81e80530-040b-11eb-8e17-313cabb2850e:Store", "@spider": "crumbl_cookies", "addr:full": "2444 W Loop 340 #A15, Waco, Texas 76711", "addr:city": "Waco", "addr:state": "Texas", "name": "Waco", "phone": "(254) 265-7278", "brand": "Crumbl Cookies", "brand:wikidata": "Q106924414"}, "geometry": {"type": "Point", "coordinates": [-97.159143, 31.49945]}},
{"type": "Feature", "id": "MWU7PVclFoPPn_Z5ItqeheVKEdE=", "properties": {"ref": "157de740-625f-11eb-b10b-23223a972cb0:Store", "@spider": "crumbl_cookies", "addr:full": "2815 Rogers Rd, Ste. 101 Wake Forest NC 27587, Wake Forest, North Carolina 27587", "addr:city": "Wake Forest", "addr:state": "North Carolina", "name": "Wake Forest", "phone": "(919) 263-0584", "brand": "Crumbl Cookies", "brand:wikidata": "Q106924414"}, "geometry": {"type": "Point", "coordinates": [-78.5247327, 35.953326]}},
{"type": "Feature", "id": "zjhOp4gfDlLYXWDjKIXWo8GiVYs=", "properties": {"ref": "d52a65b0-9c7e-11eb-8994-57be4663ef25:Store", "@spider": "crumbl_cookies", "addr:full": "455 N. Alafaya Trail, Orlando, Florida 32828", "addr:city": "Orlando", "addr:state": "Florida", "name": "Waterford Lakes", "phone": "(321) 244-4048", "brand": "Crumbl Cookies", "brand:wikidata": "Q106924414"}, "geometry": {"type": "Point", "coordinates": [-81.20288, 28.55337]}},
{"type": "Feature", "id": "RG5c746yObqNvKZHQMEZ3Xzp4Y4=", "properties": {"ref": "ba6a6010-60db-11eb-87c1-b5ad5f20c263:Store", "@spider": "crumbl_cookies", "addr:full": "1410 S Main Chapel Way Suite 116, Gambrills, Maryland 21054", "addr:city": "Gambrills", "addr:state": "Maryland", "name": "Waugh Chapel", "phone": "(240) 449-4748", "brand": "Crumbl Cookies", "brand:wikidata": "Q106924414"}, "geometry": {"type": "Point", "coordinates": [-76.689095, 39.0343089]}},
{"type": "Feature", "id": "xwAh26mBkRg7RfVPK8Zbqz6sfOs=", "properties": {"ref": "29215590-869d-11eb-8967-73c9f36787ee:Store", "@spider": "crumbl_cookies", "addr:full": "1620 N Hwy 77 Suite #400, Waxahachie, Texas 75165", "addr:city": "Waxahachie", "addr:state": "Texas", "name": "Waxahachie", "phone": "(469) 527-9235", "brand": "Crumbl Cookies", "brand:wikidata": "Q106924414"}, "geometry": {"type": "Point", "coordinates": [-96.8400942, 32.4296633]}},
{"type": "Feature", "id": "uk6uftu3Kqu6CCAFdCgTQE5gers=", "properties": {"ref": "a3ff7870-04e6-11eb-8c66-af54b618251c:Store", "@spider": "crumbl_cookies", "addr:full": "13335 Manchester Rd, Des Peres, Missouri 63131", "addr:city": "Des Peres", "addr:state": "Missouri", "name": "West County", "phone": "(314) 347-1436", "brand": "Crumbl Cookies", "brand:wikidata": "Q106924414"}, "geometry": {"type": "Point", "coordinates": [-90.46707, 38.6012]}},
{"type": "Feature", "id": "tZnjRrX6IXSb25EXjrN15UtiLnE=", "properties": {"ref": "4f288310-5e6e-11ea-ac15-4dfeebe00dcc:Store", "@spider": "crumbl_cookies", "addr:full": "7626 S Campus View Dr, Suite 130, West Jordan, Utah 84084", "addr:city": "West Jordan", "addr:state": "Utah", "name": "West Jordan", "phone": "(385) 434-3777", "brand": "Crumbl Cookies", "brand:wikidata": "Q106924414"}, "geometry": {"type": "Point", "coordinates": [-111.982236, 40.611883]}},
{"type": "Feature", "id": "CdzWRCzauqzdA9nWLovXx8hEZco=", "properties": {"ref": "4f3a8470-5e6e-11ea-bdc8-4f8d0b878ff3:Store", "@spider": "crumbl_cookies", "addr:full": "3515 W 3500 S, West Valley City, Utah 84119", "addr:city": "West Valley City", "addr:state": "Utah", "name": "West Valley", "phone": "(385) 388-8325", "brand": "Crumbl Cookies", "brand:wikidata": "Q106924414"}, "geometry": {"type": "Point", "coordinates": [-111.9771572, 40.6965175]}},
{"type": "Feature", "id": "nyIzjDHBQmh3ueZYhssR30pGLME=", "properties": {"ref": "0cbfe900-8d5d-11ea-8a5e-b31de66fad71:Store", "@spider": "crumbl_cookies", "addr:full": "2564 N Greenwich Rd, Suite 500, Wichita, Kansas 67226", "addr:city": "Wichita", "addr:state": "Kansas", "name": "Wichita", "phone": "(316) 778 8862", "brand": "Crumbl Cookies", "brand:wikidata": "Q106924414"}, "geometry": {"type": "Point", "coordinates": [-97.2091276, 37.7288651]}},
{"type": "Feature", "id": "FmWVyXE6Lj8OuqXp_kTi6BP4ijo=", "properties": {"ref": "04b2aab0-12e9-11eb-8807-ff2360300d06:Store", "@spider": "crumbl_cookies", "addr:full": "3201 Lawrence Rd, Suite 530, Wichita Falls, Texas 76308", "addr:city": "Wichita Falls", "addr:state": "Texas", "name": "Wichita Falls", "phone": "(940) 249-5943", "brand": "Crumbl Cookies", "brand:wikidata": "Q106924414"}, "geometry": {"type": "Point", "coordinates": [-98.538103, 33.875621]}},
{"type": "Feature", "id": "Fs-wpkK7dwRzd-gxss3EvU4I8o8=", "properties": {"ref": "c235df10-12f5-11eb-b8fa-a97cdfdf39d7:Store", "@spider": "crumbl_cookies", "addr:full": "1513 n Milwaukee Ave, Chicago, Illinois 60622", "addr:city": "Chicago", "addr:state": "Illinois", "name": "Wicker Park", "phone": "(773) 598-6908", "brand": "Crumbl Cookies", "brand:wikidata": "Q106924414"}, "geometry": {"type": "Point", "coordinates": [-87.6751, 41.909041]}},
{"type": "Feature", "id": "_ZzlbTG1NclPJ86OHplX6xYEOZM=", "properties": {"ref": "950aea60-0a64-11eb-a748-4ba40cb396ba:Store", "@spider": "crumbl_cookies", "addr:full": "311 S College Road, Wilmington, North Carolina 28403", "addr:city": "Wilmington", "addr:state": "North Carolina", "name": "Wilmington", "phone": "(910) 679-6615", "brand": "Crumbl Cookies", "brand:wikidata": "Q106924414"}, "geometry": {"type": "Point", "coordinates": [-77.87122, 34.236428]}},
{"type": "Feature", "id": "lD_m5FFhuN0H1Rluo5ZCbFfcvbQ=", "properties": {"ref": "e4348e80-17d3-11eb-9b43-3df768aeb821:Store", "@spider": "crumbl_cookies", "addr:full": "8249 SW Wilsonville Road, Suite B , Wilsonville, Oregon 97070", "addr:city": "Wilsonville", "addr:state": "Oregon", "name": "Wilsonville", "phone": "(971) 364-0006", "brand": "Crumbl Cookies", "brand:wikidata": "Q106924414"}, "geometry": {"type": "Point", "coordinates": [-122.761989, 45.303945]}},
{"type": "Feature", "id": "Unh6YhsobHyv3vFm_DQjOslt8Lc=", "properties": {"ref": "46f015a0-60f7-11eb-836b-0fb099a8507f:Store", "@spider": "crumbl_cookies", "addr:full": "1039 Hanes Mall Boulevard , Winston-Salem, North Carolina 27103", "addr:city": "Winston-Salem", "addr:state": "North Carolina", "name": "Winston-Salem", "phone": "(336) 448-4794", "brand": "Crumbl Cookies", "brand:wikidata": "Q106924414"}, "geometry": {"type": "Point", "coordinates": [-80.3162482, 36.0658577]}},
{"type": "Feature", "id": "bNSZN-088bBqvY6JaSWYNC5oDkg=", "properties": {"ref": "cd523390-8108-11eb-9db7-5530938d257e:Store", "@spider": "crumbl_cookies", "addr:full": "501 N Orlando Ave Suite 309, Winter Park, Florida 32789", "addr:city": "Winter Park", "addr:state": "Florida", "name": "Winter Park", "phone": "(689) 206-9099", "brand": "Crumbl Cookies", "brand:wikidata": "Q106924414"}, "geometry": {"type": "Point", "coordinates": [-81.365318, 28.604031]}},
{"type": "Feature", "id": "4T3qPuiiD82Xrwb5ZVPf-jjMNms=", "properties": {"ref": "f444fe10-09a8-11eb-ab27-a1b64abe7d80:Store", "@spider": "crumbl_cookies", "addr:full": "1425 Tuskawilla Rd, Unit #263, Winter Springs, Florida 32708", "addr:city": "Winter Springs", "addr:state": "Florida", "name": "Winter Springs", "phone": "(407) 674-9997", "brand": "Crumbl Cookies", "brand:wikidata": "Q106924414"}, "geometry": {"type": "Point", "coordinates": [-81.26657, 28.646632]}},
{"type": "Feature", "id": "g98alcZ2sOANKaY6jg0hWo3tWqE=", "properties": {"ref": "03dc00d0-7862-11eb-956f-6bb11995f085:Store", "@spider": "crumbl_cookies", "addr:full": "300 Mishawum Road Unit 410, Woburn, Massachusetts 01801", "addr:city": "Woburn", "addr:state": "Massachusetts", "name": "Woburn", "phone": "(339) 298-7054", "brand": "Crumbl Cookies", "brand:wikidata": "Q106924414"}, "geometry": {"type": "Point", "coordinates": [-71.134386, 42.5042626]}},
{"type": "Feature", "id": "9hYb927E8XNCMlKpyJYZmRA9Xb8=", "properties": {"ref": "61dfea90-6bd6-11eb-b557-6daadf16dc5c:Store", "@spider": "crumbl_cookies", "addr:full": "345 Radio Drive, Suite B, Woodbury, Minnesota 55125", "addr:city": "Woodbury", "addr:state": "Minnesota", "name": "Woodbury", "phone": "(651) 321-1177", "brand": "Crumbl Cookies", "brand:wikidata": "Q106924414"}, "geometry": {"type": "Point", "coordinates": [-92.93398, 44.94307]}},
{"type": "Feature", "id": "3CRLqCswUkDYje69ld0wwo_Utso=", "properties": {"ref": "6cb06210-5f60-11eb-909e-a9efb8349c9e:Store", "@spider": "crumbl_cookies", "addr:full": "809 Woodbridge Parkway, Suite 400, Wylie, Texas 75098", "addr:city": "Wylie", "addr:state": "Texas", "name": "Wylie", "phone": "(469) 440-9004", "brand": "Crumbl Cookies", "brand:wikidata": "Q106924414"}, "geometry": {"type": "Point", "coordinates": [-96.57363, 33.00983]}},
{"type": "Feature", "id": "7slBfNVBgrKP4NycnPlnxkgoq_E=", "properties": {"ref": "31dbfad0-7173-11eb-bd0e-f91ee7d7fb8b:Store", "@spider": "crumbl_cookies", "addr:full": "1054 Harter Pkwy Ste #6, Yuba City, California 95993", "addr:city": "Yuba City", "addr:state": "California", "name": "Yuba City", "phone": "(530) 645-3364", "brand": "Crumbl Cookies", "brand:wikidata": "Q106924414"}, "geometry": {"type": "Point", "coordinates": [-121.65543, 39.14388]}}]}