{"type":"FeatureCollection","features":[{"type": "Feature", "id": "vaXefP7zUxhpMHosizp8cOOXaLM=", "properties": {"ref": "https://locations.dennys.com/CA/STOCKTON/246881", "@spider": "dennys", "addr:full": "4747 Pacific Ave.", "addr:city": "Stockton", "addr:state": "CA", "addr:postcode": "95207", "phone": "(209) 951-5805", "website": "https://locations.dennys.com/CA/STOCKTON/246881", "brand": "Denny's"}, "geometry": {"type": "Point", "coordinates": [-121.31367713212967, 37.99268975532321]}},
{"type": "Feature", "id": "GiWX71vAcURK33HAs6yHEpPYdkw=", "properties": {"ref": "https://locations.dennys.com/CA/PLEASANTON/9642", "@spider": "dennys", "addr:full": "5331 Hopyard Rd", "addr:city": "Pleasanton", "addr:state": "CA", "addr:postcode": "94588", "phone": "(949) 446-6649", "website": "https://locations.dennys.com/CA/PLEASANTON/9642", "brand": "Denny's"}, "geometry": {"type": "Point", "coordinates": [-121.904812, 37.699964]}},
{"type": "Feature", "id": "bGio8ZZzjYszAWJdOU33JxkzSS0=", "properties": {"ref": "https://locations.dennys.com/CA/REDLANDS/247284", "@spider": "dennys", "addr:full": "110 W REDLANDS BLVD", "addr:city": "REDLANDS", "addr:state": "CA", "addr:postcode": "92373", "phone": "(909) 335-9396", "website": "https://locations.dennys.com/CA/REDLANDS/247284", "brand": "Denny's"}, "geometry": {"type": "Point", "coordinates": [-117.1838534051617, 34.057585059345065]}},
{"type": "Feature", "id": "uRwX0G3MM3EjNIZEBnuRhuHbd8c=", "properties": {"ref": "https://locations.dennys.com/PA/HANOVER/249582", "@spider": "dennys", "addr:full": "199 Eisenhower Blvd", "addr:city": "Hanover", "addr:state": "PA", "addr:postcode": "17331", "phone": "(717) 646-0001", "website": "https://locations.dennys.com/PA/HANOVER/249582", "brand": "Denny's"}, "geometry": {"type": "Point", "coordinates": [-76.98915959081774, 39.824730371945456]}},
{"type": "Feature", "id": "ItACUv33Gi_OtizAZy7ZC4xxR2k=", "properties": {"ref": "https://locations.dennys.com/CA/ARCADIA/249600", "@spider": "dennys", "addr:full": "7 East Huntington Dr", "addr:city": "Arcadia", "addr:state": "CA", "addr:postcode": "91006", "phone": "(626) 446-3401", "website": "https://locations.dennys.com/CA/ARCADIA/249600", "brand": "Denny's"}, "geometry": {"type": "Point", "coordinates": [-118.0311307311058, 34.14030048719498]}},
{"type": "Feature", "id": "ZJzzH-wrWHPdFOZTHLSGayT1TZk=", "properties": {"ref": "https://locations.dennys.com/AL/HUNTSVILLE/248545", "@spider": "dennys", "addr:full": "4874 University Drive", "addr:city": "Huntsville", "addr:state": "AL", "addr:postcode": "35816", "phone": "(256) 830-5612", "website": "https://locations.dennys.com/AL/HUNTSVILLE/248545", "brand": "Denny's"}, "geometry": {"type": "Point", "coordinates": [-86.65481375889445, 34.738270262875474]}},
{"type": "Feature", "id": "vvHCH7pEBZyOFjaC56DDiWsjbDM=", "properties": {"ref": "https://locations.dennys.com/NV/PRIMM/248648", "@spider": "dennys", "addr:full": "31900 S Las Vegas Blvd.", "addr:city": "Primm", "addr:state": "NV", "addr:postcode": "89019", "phone": "(702) 679-7577", "website": "https://locations.dennys.com/NV/PRIMM/248648", "brand": "Denny's"}, "geometry": {"type": "Point", "coordinates": [-115.3847274, 35.6149024]}},
{"type": "Feature", "id": "fbjMCLJi3ux3_0oYltRQZNOtBp0=", "properties": {"ref": "https://locations.dennys.com/NV/NORTH-LAS-VEGAS/248096", "@spider": "dennys", "addr:full": "2400 North Rancho Dr", "addr:city": "North Las Vegas", "addr:state": "NV", "addr:postcode": "89130", "phone": "(702) 636-4100", "website": "https://locations.dennys.com/NV/NORTH-LAS-VEGAS/248096", "brand": "Denny's"}, "geometry": {"type": "Point", "coordinates": [-115.1957448, 36.2013669]}},
{"type": "Feature", "id": "7xBBIsh8yL0uE1hHVabq8B3ysuA=", "properties": {"ref": "https://locations.dennys.com/TX/EL-PASO/246910", "@spider": "dennys", "addr:full": "6144 Gateway Blvd. E", "addr:city": "El Paso", "addr:state": "TX", "addr:postcode": "79905", "phone": "(915) 772-1908", "website": "https://locations.dennys.com/TX/EL-PASO/246910", "brand": "Denny's"}, "geometry": {"type": "Point", "coordinates": [-106.4078477025032, 31.780841313813497]}},
{"type": "Feature", "id": "U89M6ArzBBV8LvkkQshn5eazcMo=", "properties": {"ref": "https://locations.dennys.com/TX/AUSTIN/249512", "@spider": "dennys", "addr:full": "13216 N IH-35 SVRD SB", "addr:city": "Austin", "addr:state": "TX", "addr:postcode": "78753", "phone": "(737) 222-5760", "website": "https://locations.dennys.com/TX/AUSTIN/249512", "brand": "Denny's"}, "geometry": {"type": "Point", "coordinates": [-97.67430975327088, 30.411905349732187]}},
{"type": "Feature", "id": "w4nF1nMCQw41bdis1AVuILcpbu8=", "properties": {"ref": "https://locations.dennys.com/MA/CHICOPEE-FALLS/247613", "@spider": "dennys", "addr:full": "467 Memorial Dr", "addr:city": "Chicopee Falls", "addr:state": "MA", "addr:postcode": "01020", "phone": "(413) 592-6059", "website": "https://locations.dennys.com/MA/CHICOPEE-FALLS/247613", "brand": "Denny's"}, "geometry": {"type": "Point", "coordinates": [-72.57681265886276, 42.170659696657175]}}]}