{"type":"FeatureCollection","features":[{"type": "Feature", "id": "p9d9yxzy10vlkGOzZ3rM53oKE0U=", "properties": {"ref": "vitre_35500", "@spider": "dominos_pizza_fr", "addr:full": "18 Rue De La Libert\u00e9", "addr:city": "VITRE", "addr:postcode": "35500", "addr:country": "fr", "website": "https://www.dominos.fr/magasin/vitre_35500", "brand": "Dominos Pizza France"}, "geometry": {"type": "Point", "coordinates": [-1.210768, 48.123138]}},
{"type": "Feature", "id": "lgk34q8b159H2fypimdbSHLsQlQ=", "properties": {"ref": "sotteville-les-rouen_76300", "@spider": "dominos_pizza_fr", "addr:full": "81 Avenue Des Canadiens", "addr:city": "SOTTEVILLE-LES-ROUEN", "addr:postcode": "76300", "addr:country": "fr", "website": "https://www.dominos.fr/magasin/sotteville-les-rouen_76300", "brand": "Dominos Pizza France"}, "geometry": {"type": "Point", "coordinates": [1.07174, 49.41067]}},
{"type": "Feature", "id": "j7WXGWQAWctnUSk5IQ4OJxXeJfU=", "properties": {"ref": "strasbourg-neudorf_67100", "@spider": "dominos_pizza_fr", "addr:full": "89 Avenue De Colmar", "addr:city": "STRASBOURG", "addr:postcode": "67100", "addr:country": "fr", "website": "https://www.dominos.fr/magasin/strasbourg-neudorf_67100", "brand": "Dominos Pizza France"}, "geometry": {"type": "Point", "coordinates": [7.75278, 48.5686]}},
{"type": "Feature", "id": "HJ9o0GD4h2lX8jHMDXrYPdTQd5k=", "properties": {"ref": "villenave-d-ornon_33140", "@spider": "dominos_pizza_fr", "addr:full": "38 Route De L\u00e9ognan", "addr:city": "D'ORNON", "addr:postcode": "33140 VILLENAVE", "addr:country": "fr", "website": "https://www.dominos.fr/magasin/villenave-d-ornon_33140", "brand": "Dominos Pizza France"}, "geometry": {"type": "Point", "coordinates": [-0.579804, 44.767792]}},
{"type": "Feature", "id": "Drhod0SRH_0DJKk2eNTgeGmadYA=", "properties": {"ref": "saint-lo-plage-verte_50000", "@spider": "dominos_pizza_fr", "addr:full": "4 Rue De Villedieu", "addr:city": "SAINT-LO", "addr:postcode": "50000", "addr:country": "fr", "website": "https://www.dominos.fr/magasin/saint-lo-plage-verte_50000", "brand": "Dominos Pizza France"}, "geometry": {"type": "Point", "coordinates": [-1.098825, 49.114048]}},
{"type": "Feature", "id": "TCXeQdoJItCxdRs7TJ125QOBiI8=", "properties": {"ref": "vitrolles_13127", "@spider": "dominos_pizza_fr", "addr:full": "3 Rue Antoine Biancardini", "addr:city": "VITROLLES", "addr:postcode": "13127", "addr:country": "fr", "website": "https://www.dominos.fr/magasin/vitrolles_13127", "brand": "Dominos Pizza France"}, "geometry": {"type": "Point", "coordinates": [5.25557, 43.4385]}},
{"type": "Feature", "id": "KWRudAGqCT8xzJkMcXKUsWFIt_A=", "properties": {"ref": "touques_14800", "@spider": "dominos_pizza_fr", "addr:full": "2 Rue Saint Andreasberg", "addr:city": "Touques", "addr:postcode": "14800", "addr:country": "fr", "website": "https://www.dominos.fr/magasin/touques_14800", "brand": "Dominos Pizza France"}, "geometry": {"type": "Point", "coordinates": [0.103328, 49.340465]}},
{"type": "Feature", "id": "Mmq9p3LGuaOfPPxoSVQzT0a8ZQU=", "properties": {"ref": "vichy_03200", "@spider": "dominos_pizza_fr", "addr:full": "51 Avenue Gramont", "addr:city": "VICHY", "addr:postcode": "03200", "addr:country": "fr", "website": "https://www.dominos.fr/magasin/vichy_03200", "brand": "Dominos Pizza France"}, "geometry": {"type": "Point", "coordinates": [3.432314, 46.129989]}},
{"type": "Feature", "id": "bxi4SOeZdiWVtrKkMOtjQfM57Ug=", "properties": {"ref": "saint-quentin_02100", "@spider": "dominos_pizza_fr", "addr:full": "11 Boulevard Richelieu", "addr:city": "SAINT-QUENTIN", "addr:postcode": "02100", "addr:country": "fr", "website": "https://www.dominos.fr/magasin/saint-quentin_02100", "brand": "Dominos Pizza France"}, "geometry": {"type": "Point", "coordinates": [3.28496, 49.8516]}},
{"type": "Feature", "id": "deWB9cGoZOU5mYOa0ZG7EdvWAHA=", "properties": {"ref": "villefranche-sur-saone_69400", "@spider": "dominos_pizza_fr", "addr:full": "109 Rue D'anse", "addr:city": "VILLEFRANCHE-SUR-SAONE", "addr:postcode": "69400", "addr:country": "fr", "website": "https://www.dominos.fr/magasin/villefranche-sur-saone_69400", "brand": "Dominos Pizza France"}, "geometry": {"type": "Point", "coordinates": [4.7181, 45.9846]}},
{"type": "Feature", "id": "WDaw1J-2JlnyZSmzcvbXki_XuC0=", "properties": {"ref": "st-brevin-les-pins_44250", "@spider": "dominos_pizza_fr", "addr:full": "3 Avenue Des Vingts Moulins", "addr:city": "PINS", "addr:postcode": "44250 SAINT BREVIN LES", "addr:country": "fr", "website": "https://www.dominos.fr/magasin/st-brevin-les-pins_44250", "brand": "Dominos Pizza France"}, "geometry": {"type": "Point", "coordinates": [-2.156808, 47.243092]}},
{"type": "Feature", "id": "Sv4b8wqn226YpRoIyI4ZLncg1BE=", "properties": {"ref": "villeurbanne-cusset_69100", "@spider": "dominos_pizza_fr", "addr:full": "288 Cours Emile Zola", "addr:city": "VILLEURBANNE", "addr:postcode": "69100", "addr:country": "fr", "website": "https://www.dominos.fr/magasin/villeurbanne-cusset_69100", "brand": "Dominos Pizza France"}, "geometry": {"type": "Point", "coordinates": [4.89289, 45.7671]}},
{"type": "Feature", "id": "1JZyNLEY2gm9sLjjPuYRjvZM6qs=", "properties": {"ref": "st-andre-de-la-marche_49450", "@spider": "dominos_pizza_fr", "addr:full": "1 Rue L\u00e9onard De Vinci", "addr:city": "MARCHE", "addr:postcode": "49450 SAINT ANDRE DE LA", "addr:country": "fr", "website": "https://www.dominos.fr/magasin/st-andre-de-la-marche_49450", "brand": "Dominos Pizza France"}, "geometry": {"type": "Point", "coordinates": [-1.00362, 47.093811]}},
{"type": "Feature", "id": "QKePtME0rYrCmlyaiM0B0O_adJA=", "properties": {"ref": "savenay_44260", "@spider": "dominos_pizza_fr", "addr:full": "37 Rue De Nantes", "addr:city": "SAVENAY", "addr:postcode": "44260", "addr:country": "fr", "website": "https://www.dominos.fr/magasin/savenay_44260", "brand": "Dominos Pizza France"}, "geometry": {"type": "Point", "coordinates": [-1.94203, 47.3615]}},
{"type": "Feature", "id": "Q7F3pWI3KVbaG87DWTMknW63IyE=", "properties": {"ref": "saint-sebastien-sur-loire_44230", "@spider": "dominos_pizza_fr", "addr:full": "437 Route De Clisson", "addr:city": "SAINT-SEBASTIEN-SUR-LOIRE", "addr:postcode": "44230", "addr:country": "fr", "website": "https://www.dominos.fr/magasin/saint-sebastien-sur-loire_44230", "brand": "Dominos Pizza France"}, "geometry": {"type": "Point", "coordinates": [-1.47783, 47.187]}},
{"type": "Feature", "id": "G9lXiv00yzmQGEWmlAdl56Mcoqw=", "properties": {"ref": "saumur_49400", "@spider": "dominos_pizza_fr", "addr:full": "127 Route De Rouen", "addr:city": "SAUMUR", "addr:postcode": "49400", "addr:country": "fr", "website": "https://www.dominos.fr/magasin/saumur_49400", "brand": "Dominos Pizza France"}, "geometry": {"type": "Point", "coordinates": [-0.063385, 47.273217]}},
{"type": "Feature", "id": "2NktV6WklcQkGmWTOrPK-LFOLFc=", "properties": {"ref": "saint-nazaire-ouest_44600", "@spider": "dominos_pizza_fr", "addr:full": "90 Rue Ambroise Par\u00e9", "addr:city": "NAZAIRE", "addr:postcode": "44600 ST", "addr:country": "fr", "website": "https://www.dominos.fr/magasin/saint-nazaire-ouest_44600", "brand": "Dominos Pizza France"}, "geometry": {"type": "Point", "coordinates": [-2.23821, 47.26239]}},
{"type": "Feature", "id": "DXSQiiN3gvQgg6XFsDqrUFROCDg=", "properties": {"ref": "st-herblain-centre_44800", "@spider": "dominos_pizza_fr", "addr:full": "12 Place De La Paix", "addr:city": "SAINT-HERBLAIN", "addr:postcode": "44800", "addr:country": "fr", "website": "https://www.dominos.fr/magasin/st-herblain-centre_44800", "brand": "Dominos Pizza France"}, "geometry": {"type": "Point", "coordinates": [-1.653029, 47.211658]}},
{"type": "Feature", "id": "YZF8tLHmIOHVdAU_CqSEDp819KA=", "properties": {"ref": "thouars_79100", "@spider": "dominos_pizza_fr", "addr:full": "70 Bis Avenue Victor Leclerc", "addr:city": "THOUARS", "addr:postcode": "79100", "addr:country": "fr", "website": "https://www.dominos.fr/magasin/thouars_79100", "brand": "Dominos Pizza France"}, "geometry": {"type": "Point", "coordinates": [-0.211859, 46.9832]}},
{"type": "Feature", "id": "RtJYB-KdkAWj2WQVEuK77UH6RFk=", "properties": {"ref": "saint-philbert-de-grand-lieu_44310", "@spider": "dominos_pizza_fr", "addr:full": "32 Avenue De Nantes", "addr:city": "SAINT-PHILBERT-DE-GRAND-LIEU", "addr:postcode": "44310", "addr:country": "fr", "website": "https://www.dominos.fr/magasin/saint-philbert-de-grand-lieu_44310", "brand": "Dominos Pizza France"}, "geometry": {"type": "Point", "coordinates": [-1.6369, 47.0473]}},
{"type": "Feature", "id": "rBR-fK593ouJZvCy2jHgvRf9w1I=", "properties": {"ref": "saintes_17100", "@spider": "dominos_pizza_fr", "addr:full": "30 Cours Du Mar\u00e9chal Leclerc", "addr:city": "SAINTES", "addr:postcode": "17100", "addr:country": "fr", "website": "https://www.dominos.fr/magasin/saintes_17100", "brand": "Dominos Pizza France"}, "geometry": {"type": "Point", "coordinates": [-0.650695, 45.751972]}},
{"type": "Feature", "id": "o1QzwaduXzwzVtTLNDxnDhUA8-g=", "properties": {"ref": "besancon_25000", "@spider": "dominos_pizza_fr", "addr:full": "22 Rue De Belfort", "addr:city": "BESANCON", "addr:postcode": "25000", "addr:country": "fr", "website": "https://www.dominos.fr/magasin/besancon_25000", "brand": "Dominos Pizza France"}, "geometry": {"type": "Point", "coordinates": [6.02726, 47.2471]}},
{"type": "Feature", "id": "IFTMbWFEugj8arVoAXN4ZQj1jsY=", "properties": {"ref": "belfort_90000", "@spider": "dominos_pizza_fr", "addr:full": "12 Faubourg De Montbeliard", "addr:city": "BELFORT", "addr:postcode": "90000", "addr:country": "fr", "website": "https://www.dominos.fr/magasin/belfort_90000", "brand": "Dominos Pizza France"}, "geometry": {"type": "Point", "coordinates": [6.85769, 47.63638]}},
{"type": "Feature", "id": "9yoiApt5Jr3zAi6Ww4BPT5G1O5M=", "properties": {"ref": "villeurbanne-charpennes_69100", "@spider": "dominos_pizza_fr", "addr:full": "29 Rue Des Charmettes", "addr:city": "VILLEURBANNE", "addr:postcode": "69100", "addr:country": "fr", "website": "https://www.dominos.fr/magasin/villeurbanne-charpennes_69100", "brand": "Dominos Pizza France"}, "geometry": {"type": "Point", "coordinates": [4.86735, 45.7702]}},
{"type": "Feature", "id": "rKbDCCsGFMYETevsgwhvmW79lKA=", "properties": {"ref": "poitiers-av-de-nantes_86000", "@spider": "dominos_pizza_fr", "addr:full": "179 Avenue De Nantes", "addr:city": "POITIERS", "addr:postcode": "86000", "addr:country": "fr", "website": "https://www.dominos.fr/magasin/poitiers-av-de-nantes_86000", "brand": "Dominos Pizza France"}, "geometry": {"type": "Point", "coordinates": [0.33026, 46.58518]}},
{"type": "Feature", "id": "X8jjUigRosCe0ZcEVBUW0Nqn28w=", "properties": {"ref": "niort-clou-bouchet_79000", "@spider": "dominos_pizza_fr", "addr:full": "176 Avenue De La Rochelle", "addr:city": "NIORT", "addr:postcode": "79000", "addr:country": "fr", "website": "https://www.dominos.fr/magasin/niort-clou-bouchet_79000", "brand": "Dominos Pizza France"}, "geometry": {"type": "Point", "coordinates": [-0.47535, 46.31463]}},
{"type": "Feature", "id": "S0wrV-Rn9ZcRsOKvP5X07Cd40Qo=", "properties": {"ref": "niort-centre_79000", "@spider": "dominos_pizza_fr", "addr:full": "18 Bis Avenue De Paris", "addr:city": "NIORT", "addr:postcode": "79000", "addr:country": "fr", "website": "https://www.dominos.fr/magasin/niort-centre_79000", "brand": "Dominos Pizza France"}, "geometry": {"type": "Point", "coordinates": [-0.45673, 46.32412]}},
{"type": "Feature", "id": "M7qeaKdj9OgG37eAvoX0Zp-9L60=", "properties": {"ref": "poitiers-sud_86000", "@spider": "dominos_pizza_fr", "addr:full": "142 Avenue Du 8 Mai 1945", "addr:city": "POITIERS", "addr:postcode": "86000", "addr:country": "fr", "website": "https://www.dominos.fr/magasin/poitiers-sud_86000", "brand": "Dominos Pizza France"}, "geometry": {"type": "Point", "coordinates": [0.309406, 46.5568]}},
{"type": "Feature", "id": "c62GraRbf42mVPsk7ncaWbnl0dQ=", "properties": {"ref": "la-rochelle-centre_17000", "@spider": "dominos_pizza_fr", "addr:full": "69 Rue Alcide D'orbigny", "addr:city": "ROCHELLE", "addr:postcode": "17000 LA", "addr:country": "fr", "website": "https://www.dominos.fr/magasin/la-rochelle-centre_17000", "brand": "Dominos Pizza France"}, "geometry": {"type": "Point", "coordinates": [-1.14601, 46.1633]}},
{"type": "Feature", "id": "a5nK0ZPIB81O3ziSkMRH565bRL0=", "properties": {"ref": "la-rochelle-port-neuf_17000", "@spider": "dominos_pizza_fr", "addr:full": "305 Avenue Jean Guiton", "addr:city": "ROCHELLE", "addr:postcode": "17000 LA", "addr:country": "fr", "website": "https://www.dominos.fr/magasin/la-rochelle-port-neuf_17000", "brand": "Dominos Pizza France"}, "geometry": {"type": "Point", "coordinates": [-1.171893, 46.160671]}},
{"type": "Feature", "id": "fze_i3bb1IJkklZX0MN2dgxw6lA=", "properties": {"ref": "cognac_16100", "@spider": "dominos_pizza_fr", "addr:full": "183 Avenue Victor Hugo", "addr:city": "COGNAC", "addr:postcode": "16100", "addr:country": "fr", "website": "https://www.dominos.fr/magasin/cognac_16100", "brand": "Dominos Pizza France"}, "geometry": {"type": "Point", "coordinates": [-0.315586, 45.688886]}},
{"type": "Feature", "id": "JO3omf1JqVdjnQtIERmTFOsPFc8=", "properties": {"ref": "la-rochelle-les-minimes_17000", "@spider": "dominos_pizza_fr", "addr:full": "17 Avenue Du Lazaret", "addr:city": "ROCHELLE", "addr:postcode": "17000 LA", "addr:country": "fr", "website": "https://www.dominos.fr/magasin/la-rochelle-les-minimes_17000", "brand": "Dominos Pizza France"}, "geometry": {"type": "Point", "coordinates": [-1.16601, 46.14063]}},
{"type": "Feature", "id": "97wuOOr62W1r5uR5koD9Qcg3j-g=", "properties": {"ref": "poitiers-pont-neuf_86000", "@spider": "dominos_pizza_fr", "addr:full": "188 Rue Du Faubourg Du Pont Neuf", "addr:city": "POITIERS", "addr:postcode": "86000", "addr:country": "fr", "website": "https://www.dominos.fr/magasin/poitiers-pont-neuf_86000", "brand": "Dominos Pizza France"}, "geometry": {"type": "Point", "coordinates": [0.36176, 46.57261]}},
{"type": "Feature", "id": "3gxh9swJi-WgOq-Gq616aPGOQhw=", "properties": {"ref": "chatellerault_86100", "@spider": "dominos_pizza_fr", "addr:full": "55 Avenue Du Pr\u00e9sident Wilson", "addr:city": "CHATELLERAULT", "addr:postcode": "86100", "addr:country": "fr", "website": "https://www.dominos.fr/magasin/chatellerault_86100", "brand": "Dominos Pizza France"}, "geometry": {"type": "Point", "coordinates": [0.54359, 46.8144]}},
{"type": "Feature", "id": "YZrQwrfIUnLxsNWebgLieg1ku0E=", "properties": {"ref": "montbeliard_25200", "@spider": "dominos_pizza_fr", "addr:full": "1 Faubourg De Besan\u00e7on", "addr:city": "MONTBELIARD", "addr:postcode": "25200", "addr:country": "fr", "website": "https://www.dominos.fr/magasin/montbeliard_25200", "brand": "Dominos Pizza France"}, "geometry": {"type": "Point", "coordinates": [6.78623, 47.509204]}},
{"type": "Feature", "id": "sj_HOGWcVOsNWCEcG_Pqz9sOXRs=", "properties": {"ref": "angouleme_16000", "@spider": "dominos_pizza_fr", "addr:full": "5 Boulevard Du 8 Mai 1945", "addr:city": "ANGOULEME", "addr:postcode": "16000", "addr:country": "fr", "website": "https://www.dominos.fr/magasin/angouleme_16000", "brand": "Dominos Pizza France"}, "geometry": {"type": "Point", "coordinates": [0.167319, 45.65932]}},
{"type": "Feature", "id": "CjBgMjZQfSP19PPzVXu8UJuGySw=", "properties": {"ref": "saint-herblain-dervallieres_44800", "@spider": "dominos_pizza_fr", "addr:full": "262 Bis Boulevard Du Massacre", "addr:city": "SAINT-HERBLAIN", "addr:postcode": "44800", "addr:country": "fr", "website": "https://www.dominos.fr/magasin/saint-herblain-dervallieres_44800", "brand": "Dominos Pizza France"}, "geometry": {"type": "Point", "coordinates": [-1.60314, 47.2246]}},
{"type": "Feature", "id": "ysBHVXM03etWa_t2WJiAcqBrv1E=", "properties": {"ref": "sainte-pazanne_44680", "@spider": "dominos_pizza_fr", "addr:full": "3 Rue Des Fr\u00eanes", "addr:city": "PAZANNE", "addr:postcode": "44680 SAINTE", "addr:country": "fr", "website": "https://www.dominos.fr/magasin/sainte-pazanne_44680", "brand": "Dominos Pizza France"}, "geometry": {"type": "Point", "coordinates": [-1.799283, 47.103474]}},
{"type": "Feature", "id": "hsH6MwiNJ_Z6iMDDvFz91E6uQTc=", "properties": {"ref": "reze_44400", "@spider": "dominos_pizza_fr", "addr:full": "Pont Rousseau", "addr:city": "R\u00e9publique", "addr:postcode": "17 Avenue De La Iv\u00e8me", "addr:country": "fr", "website": "https://www.dominos.fr/magasin/reze_44400", "brand": "Dominos Pizza France"}, "geometry": {"type": "Point", "coordinates": [-1.54458, 47.1947]}},
{"type": "Feature", "id": "N9vuJBbwm27cK9k_q5ZHnaB_pXE=", "properties": {"ref": "saint-nazaire-nord_44600", "@spider": "dominos_pizza_fr", "addr:full": "117 Boulevard Jean De Neyman", "addr:city": "SAINT-NAZAIRE", "addr:postcode": "44600", "addr:country": "fr", "website": "https://www.dominos.fr/magasin/saint-nazaire-nord_44600", "brand": "Dominos Pizza France"}, "geometry": {"type": "Point", "coordinates": [-2.236189, 47.277507]}},
{"type": "Feature", "id": "x_uhDJ0lPk9kvoHss-myM70lnjc=", "properties": {"ref": "orvault_44700", "@spider": "dominos_pizza_fr", "addr:full": "47 Route De Rennes", "addr:city": "ORVAULT", "addr:postcode": "44700", "addr:country": "fr", "website": "https://www.dominos.fr/magasin/orvault_44700", "brand": "Dominos Pizza France"}, "geometry": {"type": "Point", "coordinates": [-1.57677, 47.2503]}},
{"type": "Feature", "id": "iPzcajNcqlnz04yoXS7cUjNM7Gs=", "properties": {"ref": "pornic_44210", "@spider": "dominos_pizza_fr", "addr:full": "19 Bis Rue Jean Monnet", "addr:city": "PORNIC", "addr:postcode": "44210", "addr:country": "fr", "website": "https://www.dominos.fr/magasin/pornic_44210", "brand": "Dominos Pizza France"}, "geometry": {"type": "Point", "coordinates": [-2.118054, 47.125057]}},
{"type": "Feature", "id": "86CGITbWtCOTqrxAerPYpuOmUag=", "properties": {"ref": "reze-ragon_44400", "@spider": "dominos_pizza_fr", "addr:full": "64 Rue Ernest Sauvestre", "addr:city": "REZE", "addr:postcode": "44400", "addr:country": "fr", "website": "https://www.dominos.fr/magasin/reze-ragon_44400", "brand": "Dominos Pizza France"}, "geometry": {"type": "Point", "coordinates": [-1.5424, 47.1641]}},
{"type": "Feature", "id": "eibcnZEyrizdjRE8zvPemJRS9pg=", "properties": {"ref": "viroflay_78220", "@spider": "dominos_pizza_fr", "addr:full": "201 Ter Avenue Du G\u00e9n\u00e9ral Leclerc", "addr:city": "VIROFLAY", "addr:postcode": "78220", "addr:country": "fr", "website": "https://www.dominos.fr/magasin/viroflay_78220", "brand": "Dominos Pizza France"}, "geometry": {"type": "Point", "coordinates": [2.15949, 48.7992]}},
{"type": "Feature", "id": "jdbnKbjpcZ58GYIj0Nivi-Nz2Uk=", "properties": {"ref": "yerres_91330", "@spider": "dominos_pizza_fr", "addr:full": "3 Avenue De La R\u00e9sistance", "addr:city": "YERRES", "addr:postcode": "91330", "addr:country": "fr", "website": "https://www.dominos.fr/magasin/yerres_91330", "brand": "Dominos Pizza France"}, "geometry": {"type": "Point", "coordinates": [2.473161, 48.697243]}},
{"type": "Feature", "id": "lHXQ16DoGoqMVZCfwXlhjTU2Phk=", "properties": {"ref": "saint-nazaire-centre_44600", "@spider": "dominos_pizza_fr", "addr:full": "28 Boulevard Victor Hugo", "addr:city": "SAINT-NAZAIRE", "addr:postcode": "44600", "addr:country": "fr", "website": "https://www.dominos.fr/magasin/saint-nazaire-centre_44600", "brand": "Dominos Pizza France"}, "geometry": {"type": "Point", "coordinates": [-2.21675, 47.2792]}},
{"type": "Feature", "id": "7xVlAIkcOEVGQ1VA2C9G2VFfMTg=", "properties": {"ref": "vendome_41100", "@spider": "dominos_pizza_fr", "addr:full": "2 Avenue G\u00e9rard Yvon", "addr:city": "VENDOME", "addr:postcode": "41100", "addr:country": "fr", "website": "https://www.dominos.fr/magasin/vendome_41100", "brand": "Dominos Pizza France"}, "geometry": {"type": "Point", "coordinates": [1.068587, 47.798713]}},
{"type": "Feature", "id": "LAHK4TfHa1EcBPYfpeR5TLcpTuk=", "properties": {"ref": "villemomble_93250", "@spider": "dominos_pizza_fr", "addr:full": "155 Grand Rue", "addr:city": "VILLEMOMBLE", "addr:postcode": "93250", "addr:country": "fr", "website": "https://www.dominos.fr/magasin/villemomble_93250", "brand": "Dominos Pizza France"}, "geometry": {"type": "Point", "coordinates": [2.52486, 48.8825]}},
{"type": "Feature", "id": "XwjZ0h3iZM2CV43itTP01XSNado=", "properties": {"ref": "tours-grammont_37000", "@spider": "dominos_pizza_fr", "addr:full": "36 Avenue De Grammont", "addr:city": "TOURS", "addr:postcode": "37000", "addr:country": "fr", "website": "https://www.dominos.fr/magasin/tours-grammont_37000", "brand": "Dominos Pizza France"}, "geometry": {"type": "Point", "coordinates": [0.690535, 47.3867]}},
{"type": "Feature", "id": "HIipp-UZW8QlBegFrxvrIx-GQYg=", "properties": {"ref": "tours-les-halles_37000", "@spider": "dominos_pizza_fr", "addr:full": "2 Place Des Halles", "addr:city": "TOURS", "addr:postcode": "37000", "addr:country": "fr", "website": "https://www.dominos.fr/magasin/tours-les-halles_37000", "brand": "Dominos Pizza France"}, "geometry": {"type": "Point", "coordinates": [0.67876, 47.392891]}},
{"type": "Feature", "id": "FPB0ahM9MKAGIsoqpy0pyncOwnU=", "properties": {"ref": "tours-nord_37000", "@spider": "dominos_pizza_fr", "addr:full": "158 Avenue De La Tranch\u00e9e", "addr:city": "TOURS", "addr:postcode": "37000", "addr:country": "fr", "website": "https://www.dominos.fr/magasin/tours-nord_37000", "brand": "Dominos Pizza France"}, "geometry": {"type": "Point", "coordinates": [0.682891, 47.405]}},
{"type": "Feature", "id": "0JVWSda_AUBpzwEVkDEbP1T4Ljc=", "properties": {"ref": "saint-gervais-la-foret_41350", "@spider": "dominos_pizza_fr", "addr:full": "71 Route Nationale", "addr:city": "SAINT-GERVAIS-LA-FORET", "addr:postcode": "41350", "addr:country": "fr", "website": "https://www.dominos.fr/magasin/saint-gervais-la-foret_41350", "brand": "Dominos Pizza France"}, "geometry": {"type": "Point", "coordinates": [1.364065, 47.567108]}},
{"type": "Feature", "id": "G-9NC088qST8bFV9CWyfTEk7Igs=", "properties": {"ref": "saint-pierre-des-corps_37700", "@spider": "dominos_pizza_fr", "addr:full": "48 Avenue De La R\u00e9publique", "addr:city": "CORPS", "addr:postcode": "37700 SAINT PIERRE DES", "addr:country": "fr", "website": "https://www.dominos.fr/magasin/saint-pierre-des-corps_37700", "brand": "Dominos Pizza France"}, "geometry": {"type": "Point", "coordinates": [0.74849, 47.38623]}},
{"type": "Feature", "id": "MRI6f8_d_drm7QLhAAElNySXQII=", "properties": {"ref": "viry-chatillon_91170", "@spider": "dominos_pizza_fr", "addr:full": "124 Avenue Du G\u00e9n\u00e9ral De Gaulle", "addr:city": "VIRY-CHATILLON", "addr:postcode": "91170", "addr:country": "fr", "website": "https://www.dominos.fr/magasin/viry-chatillon_91170", "brand": "Dominos Pizza France"}, "geometry": {"type": "Point", "coordinates": [2.37601, 48.6838]}},
{"type": "Feature", "id": "Lj6_OdRocagcCx3aA7s0P_mOTe8=", "properties": {"ref": "orleans-centre_45000", "@spider": "dominos_pizza_fr", "addr:full": "13 Place Chatelet", "addr:city": "ORLEANS", "addr:postcode": "45000", "addr:country": "fr", "website": "https://www.dominos.fr/magasin/orleans-centre_45000", "brand": "Dominos Pizza France"}, "geometry": {"type": "Point", "coordinates": [1.90498, 47.8985]}},
{"type": "Feature", "id": "q5Myu6h-HSf0BNQZBeiRz7_61xo=", "properties": {"ref": "troyes_10000", "@spider": "dominos_pizza_fr", "addr:full": "2 Bis Carrefour Du Vouldy", "addr:city": "TROYES", "addr:postcode": "10000", "addr:country": "fr", "website": "https://www.dominos.fr/magasin/troyes_10000", "brand": "Dominos Pizza France"}, "geometry": {"type": "Point", "coordinates": [4.08113, 48.2949]}},
{"type": "Feature", "id": "yuqJMOrcNTUtgZkbPumBQY0dmT4=", "properties": {"ref": "reims-3_51100", "@spider": "dominos_pizza_fr", "addr:full": "59 Rue De Cernay", "addr:city": "REIMS", "addr:postcode": "51100", "addr:country": "fr", "website": "https://www.dominos.fr/magasin/reims-3_51100", "brand": "Dominos Pizza France"}, "geometry": {"type": "Point", "coordinates": [4.047545, 49.257475]}},
{"type": "Feature", "id": "tUsuM2HsnF2j69x7w8WAgpwkKx8=", "properties": {"ref": "sens_89100", "@spider": "dominos_pizza_fr", "addr:full": "69 Boulevard Du Mail", "addr:city": "SENS", "addr:postcode": "89100", "addr:country": "fr", "website": "https://www.dominos.fr/magasin/sens_89100", "brand": "Dominos Pizza France"}, "geometry": {"type": "Point", "coordinates": [3.29019, 48.19901]}},
{"type": "Feature", "id": "LFApibDPRyxN1ocvsFpnOunu-zw=", "properties": {"ref": "nevers_58000", "@spider": "dominos_pizza_fr", "addr:full": "2 Boulevard Du Mar\u00e9chal Juin", "addr:city": "NEVERS", "addr:postcode": "58000", "addr:country": "fr", "website": "https://www.dominos.fr/magasin/nevers_58000", "brand": "Dominos Pizza France"}, "geometry": {"type": "Point", "coordinates": [3.15531, 47.0012]}},
{"type": "Feature", "id": "lStsLsPW3FMHld9vkilfH7lQI5M=", "properties": {"ref": "sainte-savine_10300", "@spider": "dominos_pizza_fr", "addr:full": "33 Avenue Du G\u00e9n\u00e9ral Leclerc", "addr:city": "SAINTE-SAVINE", "addr:postcode": "10300", "addr:country": "fr", "website": "https://www.dominos.fr/magasin/sainte-savine_10300", "brand": "Dominos Pizza France"}, "geometry": {"type": "Point", "coordinates": [4.038376, 48.291915]}},
{"type": "Feature", "id": "xAPQerdhGjG_62DOibsYWonRsOY=", "properties": {"ref": "romorantin_41200", "@spider": "dominos_pizza_fr", "addr:full": "31 Rue Georges Clemenceau", "addr:city": "ROMORANTIN", "addr:postcode": "41200", "addr:country": "fr", "website": "https://www.dominos.fr/magasin/romorantin_41200", "brand": "Dominos Pizza France"}, "geometry": {"type": "Point", "coordinates": [1.744507, 47.358364]}},
{"type": "Feature", "id": "jDPfblyBAH8U_v5qjbaW63-1rmg=", "properties": {"ref": "saint-jean-de-braye_45800", "@spider": "dominos_pizza_fr", "addr:full": "78 Bis Avenue Louis Joseph Soulas", "addr:city": "SAINT-JEAN-DE-BRAYE", "addr:postcode": "45800", "addr:country": "fr", "website": "https://www.dominos.fr/magasin/saint-jean-de-braye_45800", "brand": "Dominos Pizza France"}, "geometry": {"type": "Point", "coordinates": [1.96711, 47.9079]}},
{"type": "Feature", "id": "yHxYho5JqdrML2QwEJXxuPlXBG8=", "properties": {"ref": "vierzon_18100", "@spider": "dominos_pizza_fr", "addr:full": "1 Avenue De La R\u00e9publique", "addr:city": "VIERZON", "addr:postcode": "18100", "addr:country": "fr", "website": "https://www.dominos.fr/magasin/vierzon_18100", "brand": "Dominos Pizza France"}, "geometry": {"type": "Point", "coordinates": [2.067619, 47.222344]}},
{"type": "Feature", "id": "FRAr8E5tGGtj0rNwYZKQqI4YzyI=", "properties": {"ref": "dijon-auxonne_21000", "@spider": "dominos_pizza_fr", "addr:full": "74 Rue D'auxonne", "addr:city": "DIJON", "addr:postcode": "21000", "addr:country": "fr", "website": "https://www.dominos.fr/magasin/dijon-auxonne_21000", "brand": "Dominos Pizza France"}, "geometry": {"type": "Point", "coordinates": [5.05071, 47.3128]}},
{"type": "Feature", "id": "43voIkc62dUOSMHoyRNo_zh_3OM=", "properties": {"ref": "auxerre_89000", "@spider": "dominos_pizza_fr", "addr:full": "140 Rue De Paris", "addr:city": "AUXERRE", "addr:postcode": "89000", "addr:country": "fr", "website": "https://www.dominos.fr/magasin/auxerre_89000", "brand": "Dominos Pizza France"}, "geometry": {"type": "Point", "coordinates": [3.56839, 47.8002]}},
{"type": "Feature", "id": "hULgGrVn8UpgCBt4ZRjiYCHcNLA=", "properties": {"ref": "epernay_51200", "@spider": "dominos_pizza_fr", "addr:full": "2 Rue Pierre Semard", "addr:city": "EPERNAY", "addr:postcode": "51200", "addr:country": "fr", "website": "https://www.dominos.fr/magasin/epernay_51200", "brand": "Dominos Pizza France"}, "geometry": {"type": "Point", "coordinates": [3.96045, 49.045608]}},
{"type": "Feature", "id": "gsVnO995orfwCAHprcozGDt8bhU=", "properties": {"ref": "reims-2_51100", "@spider": "dominos_pizza_fr", "addr:full": "9 Avenue De Paris", "addr:city": "REIMS", "addr:postcode": "51100", "addr:country": "fr", "website": "https://www.dominos.fr/magasin/reims-2_51100", "brand": "Dominos Pizza France"}, "geometry": {"type": "Point", "coordinates": [4.014701, 49.248936]}},
{"type": "Feature", "id": "FD7hZ_U1A117ZKaN1DAoqAMNFew=", "properties": {"ref": "dijon-drapeau_21000", "@spider": "dominos_pizza_fr", "addr:full": "57 Avenue Du Drapeau", "addr:city": "DIJON", "addr:postcode": "21000", "addr:country": "fr", "website": "https://www.dominos.fr/magasin/dijon-drapeau_21000", "brand": "Dominos Pizza France"}, "geometry": {"type": "Point", "coordinates": [5.04376, 47.3336]}},
{"type": "Feature", "id": "FNsDnB93g6gm1Viyfl2iby7BpeQ=", "properties": {"ref": "dijon-mariotte_21000", "@spider": "dominos_pizza_fr", "addr:full": "2 Bis Rue Mariotte", "addr:city": "DIJON", "addr:postcode": "21000", "addr:country": "fr", "website": "https://www.dominos.fr/magasin/dijon-mariotte_21000", "brand": "Dominos Pizza France"}, "geometry": {"type": "Point", "coordinates": [5.03304, 47.3218]}},
{"type": "Feature", "id": "V5JUdTGv4xlWNfBFR-4ieM33Cr4=", "properties": {"ref": "olivet-centre_45160", "@spider": "dominos_pizza_fr", "addr:full": "560 Rue Marcel Belot", "addr:city": "OLIVET", "addr:postcode": "45160", "addr:country": "fr", "website": "https://www.dominos.fr/magasin/olivet-centre_45160", "brand": "Dominos Pizza France"}, "geometry": {"type": "Point", "coordinates": [1.90048, 47.863]}},
{"type": "Feature", "id": "5L9haeFVR8Nvi5iDg4gNotVDJTs=", "properties": {"ref": "montargis_45200", "@spider": "dominos_pizza_fr", "addr:full": "55 Avenue Du G\u00e9n\u00e9ral De Gaulle", "addr:city": "MONTARGIS", "addr:postcode": "45200", "addr:country": "fr", "website": "https://www.dominos.fr/magasin/montargis_45200", "brand": "Dominos Pizza France"}, "geometry": {"type": "Point", "coordinates": [2.73738, 48.0046]}},
{"type": "Feature", "id": "iRaKq9rzERtJKjqWlc21fjF1Zzo=", "properties": {"ref": "chalons-en-champagne_51100", "@spider": "dominos_pizza_fr", "addr:full": "53 Rue Jean Jaur\u00e8s", "addr:city": "CHALONS-EN-CHAMPAGNE", "addr:postcode": "51100", "addr:country": "fr", "website": "https://www.dominos.fr/magasin/chalons-en-champagne_51100", "brand": "Dominos Pizza France"}, "geometry": {"type": "Point", "coordinates": [4.362479, 48.955235]}},
{"type": "Feature", "id": "p8bZmKDkcsg9UXrbidjv718Orx8=", "properties": {"ref": "fleury-les-aubrais_45400", "@spider": "dominos_pizza_fr", "addr:full": "364 Rue Du Faubourg Bannier", "addr:city": "FLEURY-LES-AUBRAIS", "addr:postcode": "45400", "addr:country": "fr", "website": "https://www.dominos.fr/magasin/fleury-les-aubrais_45400", "brand": "Dominos Pizza France"}, "geometry": {"type": "Point", "coordinates": [1.89548, 47.9309]}},
{"type": "Feature", "id": "EzixfIePSSlhsO9nb_hHj2CEnxQ=", "properties": {"ref": "chateaudun_28200", "@spider": "dominos_pizza_fr", "addr:full": "9 Place Du 18 Octobre", "addr:city": "CHATEAUDUN", "addr:postcode": "28200", "addr:country": "fr", "website": "https://www.dominos.fr/magasin/chateaudun_28200", "brand": "Dominos Pizza France"}, "geometry": {"type": "Point", "coordinates": [1.328034, 48.069819]}},
{"type": "Feature", "id": "Cp8xRhn96_lLv6KNOUMqiB1QJY8=", "properties": {"ref": "chartres_28000", "@spider": "dominos_pizza_fr", "addr:full": "44 Boulevard Du Mar\u00e9chal Foch", "addr:city": "CHARTRES", "addr:postcode": "28000", "addr:country": "fr", "website": "https://www.dominos.fr/magasin/chartres_28000", "brand": "Dominos Pizza France"}, "geometry": {"type": "Point", "coordinates": [1.49188, 48.449951]}},
{"type": "Feature", "id": "r5SOHvisZ-Az8XpYd44Apc3FQy0=", "properties": {"ref": "bourges-gare_18000", "@spider": "dominos_pizza_fr", "addr:full": "6 Place Du G\u00e9n\u00e9ral Leclerc", "addr:city": "BOURGES", "addr:postcode": "18000", "addr:country": "fr", "website": "https://www.dominos.fr/magasin/bourges-gare_18000", "brand": "Dominos Pizza France"}, "geometry": {"type": "Point", "coordinates": [2.394273, 47.093502]}},
{"type": "Feature", "id": "Y7N9TGt2OkGo0AJtLQnhGjJwALE=", "properties": {"ref": "chaumont_52000", "@spider": "dominos_pizza_fr", "addr:full": "2 Place De La Loge", "addr:city": "CHAUMONT", "addr:postcode": "52000", "addr:country": "fr", "website": "https://www.dominos.fr/magasin/chaumont_52000", "brand": "Dominos Pizza France"}, "geometry": {"type": "Point", "coordinates": [5.136954, 48.10946]}},
{"type": "Feature", "id": "XkdPakFpk_k050xa6fmdsspFjR0=", "properties": {"ref": "blois_41000", "@spider": "dominos_pizza_fr", "addr:full": "32 Avenue Gambetta", "addr:city": "BLOIS", "addr:postcode": "41000", "addr:country": "fr", "website": "https://www.dominos.fr/magasin/blois_41000", "brand": "Dominos Pizza France"}, "geometry": {"type": "Point", "coordinates": [1.32087, 47.5839]}},
{"type": "Feature", "id": "2kxcW8nxyO9lXQ8yfW88X044UWA=", "properties": {"ref": "bourges-centre_18000", "@spider": "dominos_pizza_fr", "addr:full": "11 Place Planchat", "addr:city": "BOURGES", "addr:postcode": "18000", "addr:country": "fr", "website": "https://www.dominos.fr/magasin/bourges-centre_18000", "brand": "Dominos Pizza France"}, "geometry": {"type": "Point", "coordinates": [2.39318, 47.0858]}},
{"type": "Feature", "id": "PZ6nTyhcdJWybuC2D9vekicFWjs=", "properties": {"ref": "reims_51100", "@spider": "dominos_pizza_fr", "addr:full": "12 Bis Avenue De Laon", "addr:city": "REIMS", "addr:postcode": "51100", "addr:country": "fr", "website": "https://www.dominos.fr/magasin/reims_51100", "brand": "Dominos Pizza France"}, "geometry": {"type": "Point", "coordinates": [4.02777, 49.2636]}},
{"type": "Feature", "id": "n7l4Kj4FqQqsx_OGTtvFIOs-t88=", "properties": {"ref": "villejuif_94800", "@spider": "dominos_pizza_fr", "addr:full": "84 Avenue De Paris", "addr:city": "VILLEJUIF", "addr:postcode": "94800", "addr:country": "fr", "website": "https://www.dominos.fr/magasin/villejuif_94800", "brand": "Dominos Pizza France"}, "geometry": {"type": "Point", "coordinates": [2.364401, 48.80318]}},
{"type": "Feature", "id": "AwpfIwNY9B3GMzp1Xeb66sSVXPE=", "properties": {"ref": "joue-les-tours_37300", "@spider": "dominos_pizza_fr", "addr:full": "127 Boulevard Jean Jaur\u00e8s", "addr:city": "JOUE-LES-TOURS", "addr:postcode": "37300", "addr:country": "fr", "website": "https://www.dominos.fr/magasin/joue-les-tours_37300", "brand": "Dominos Pizza France"}, "geometry": {"type": "Point", "coordinates": [0.659436, 47.3484]}},
{"type": "Feature", "id": "o-UzbE4bjo6AIkwMZXIhX8BKi_0=", "properties": {"ref": "chateauroux_36000", "@spider": "dominos_pizza_fr", "addr:full": "9 Place Gambetta", "addr:city": "CHATEAUROUX", "addr:postcode": "36000", "addr:country": "fr", "website": "https://www.dominos.fr/magasin/chateauroux_36000", "brand": "Dominos Pizza France"}, "geometry": {"type": "Point", "coordinates": [1.69639, 46.81236]}},
{"type": "Feature", "id": "H7zKhqBfiMffN8gGwycxswkxCn8=", "properties": {"ref": "rochefort_17300", "@spider": "dominos_pizza_fr", "addr:full": "21 Avenue Lafayette", "addr:city": "ROCHEFORT", "addr:postcode": "17300", "addr:country": "fr", "website": "https://www.dominos.fr/magasin/rochefort_17300", "brand": "Dominos Pizza France"}, "geometry": {"type": "Point", "coordinates": [-0.961164, 45.9349]}},
{"type": "Feature", "id": "u3XfADEk-ZKmJJNzyE_qfsJIxfM=", "properties": {"ref": "sucy-en-brie_94370", "@spider": "dominos_pizza_fr", "addr:full": "209 Rue De Boissy", "addr:city": "SUCY-EN-BRIE", "addr:postcode": "94370", "addr:country": "fr", "website": "https://www.dominos.fr/magasin/sucy-en-brie_94370", "brand": "Dominos Pizza France"}, "geometry": {"type": "Point", "coordinates": [2.52755, 48.7573]}},
{"type": "Feature", "id": "TKUNXOH_u_Slz271W9nqqokLOSI=", "properties": {"ref": "sevres_92310", "@spider": "dominos_pizza_fr", "addr:full": "160 Grande Rue", "addr:city": "SEVRES", "addr:postcode": "92310", "addr:country": "fr", "website": "https://www.dominos.fr/magasin/sevres_92310", "brand": "Dominos Pizza France"}, "geometry": {"type": "Point", "coordinates": [2.20638, 48.822093]}},
{"type": "Feature", "id": "fY25C9JsfCdc_JeGeFwRtXriuDU=", "properties": {"ref": "torcy_77200", "@spider": "dominos_pizza_fr", "addr:full": "7 Avenue Jacques Pr\u00e9vert", "addr:city": "TORCY", "addr:postcode": "77200", "addr:country": "fr", "website": "https://www.dominos.fr/magasin/torcy_77200", "brand": "Dominos Pizza France"}, "geometry": {"type": "Point", "coordinates": [2.65113, 48.8474]}},
{"type": "Feature", "id": "dZ8Ou8oUYyzKfqDHCADCJ7DQiAo=", "properties": {"ref": "savigny-le-temple_77176", "@spider": "dominos_pizza_fr", "addr:full": "Place Du 19 Mars 1962", "addr:city": "SAVIGNY-LE-TEMPLE", "addr:postcode": "77176", "addr:country": "fr", "website": "https://www.dominos.fr/magasin/savigny-le-temple_77176", "brand": "Dominos Pizza France"}, "geometry": {"type": "Point", "coordinates": [2.58335, 48.59516]}},
{"type": "Feature", "id": "7X0Vu3xUlO04dTHVF8aXMdUHjU0=", "properties": {"ref": "santeny_94440", "@spider": "dominos_pizza_fr", "addr:full": "14 Route De Paris", "addr:city": "SANTENY", "addr:postcode": "94440", "addr:country": "fr", "website": "https://www.dominos.fr/magasin/santeny_94440", "brand": "Dominos Pizza France"}, "geometry": {"type": "Point", "coordinates": [2.57273, 48.7162]}},
{"type": "Feature", "id": "-Jp5UMy4zmyGItyoPNy97UynYco=", "properties": {"ref": "saint-ouen_93400", "@spider": "dominos_pizza_fr", "addr:full": "107 Avenue Gabriel P\u00e9ri", "addr:city": "SAINT-OUEN", "addr:postcode": "93400", "addr:country": "fr", "website": "https://www.dominos.fr/magasin/saint-ouen_93400", "brand": "Dominos Pizza France"}, "geometry": {"type": "Point", "coordinates": [2.33105, 48.9033]}},
{"type": "Feature", "id": "FiDpb77WdHMSxw341DYxnz776jY=", "properties": {"ref": "sartrouville_78500", "@spider": "dominos_pizza_fr", "addr:full": "6 Rue De Stalingrad", "addr:city": "SARTROUVILLE", "addr:postcode": "78500", "addr:country": "fr", "website": "https://www.dominos.fr/magasin/sartrouville_78500", "brand": "Dominos Pizza France"}, "geometry": {"type": "Point", "coordinates": [2.16357, 48.94256]}},
{"type": "Feature", "id": "RBAhRRO8zd3YwsutQxae4aEpBKc=", "properties": {"ref": "saint-mande_94160", "@spider": "dominos_pizza_fr", "addr:full": "67 Avenue De Paris", "addr:city": "SAINT-MANDE", "addr:postcode": "94160", "addr:country": "fr", "website": "https://www.dominos.fr/magasin/saint-mande_94160", "brand": "Dominos Pizza France"}, "geometry": {"type": "Point", "coordinates": [2.42756, 48.8454]}},
{"type": "Feature", "id": "DfHsoxl-4vOvEAAb8eTNlUeqlmM=", "properties": {"ref": "saint-gratien_95210", "@spider": "dominos_pizza_fr", "addr:full": "70 Rue Berthie Albrecht", "addr:city": "SAINT-GRATIEN", "addr:postcode": "95210", "addr:country": "fr", "website": "https://www.dominos.fr/magasin/saint-gratien_95210", "brand": "Dominos Pizza France"}, "geometry": {"type": "Point", "coordinates": [2.28352, 48.96603]}},
{"type": "Feature", "id": "V3-Z3D8sOqpg-TWAv5ApdTc5YwI=", "properties": {"ref": "saint-germain-en-laye_78100", "@spider": "dominos_pizza_fr", "addr:full": "143 Rue Du Pdt Roosvelt", "addr:city": "SAINT-GERMAIN-EN-LAYE", "addr:postcode": "78100", "addr:country": "fr", "website": "https://www.dominos.fr/magasin/saint-germain-en-laye_78100", "brand": "Dominos Pizza France"}, "geometry": {"type": "Point", "coordinates": [2.07852, 48.8994]}},
{"type": "Feature", "id": "x9Fzn6uoNtRO7vagRZJfjGkycJM=", "properties": {"ref": "sceaux_92330", "@spider": "dominos_pizza_fr", "addr:full": "180 Rue Houdan", "addr:city": "SCEAUX", "addr:postcode": "92330", "addr:country": "fr", "website": "https://www.dominos.fr/magasin/sceaux_92330", "brand": "Dominos Pizza France"}, "geometry": {"type": "Point", "coordinates": [2.28296, 48.779]}},
{"type": "Feature", "id": "UKcfg08pABP16j3gbwfvA3Dihek=", "properties": {"ref": "vigneux-sur-seine_91270", "@spider": "dominos_pizza_fr", "addr:full": "54 Bis Rue Pierre Marin", "addr:city": "VIGNEUX-SUR-SEINE", "addr:postcode": "91270", "addr:country": "fr", "website": "https://www.dominos.fr/magasin/vigneux-sur-seine_91270", "brand": "Dominos Pizza France"}, "geometry": {"type": "Point", "coordinates": [2.416876, 48.699402]}},
{"type": "Feature", "id": "OoM1POPmqB4yyzKL87-yikER_zc=", "properties": {"ref": "rambouillet_78120", "@spider": "dominos_pizza_fr", "addr:full": "21 Rue Sadi Carnot", "addr:city": "RAMBOUILLET", "addr:postcode": "78120", "addr:country": "fr", "website": "https://www.dominos.fr/magasin/rambouillet_78120", "brand": "Dominos Pizza France"}, "geometry": {"type": "Point", "coordinates": [1.83041, 48.64479]}},
{"type": "Feature", "id": "3sNDNMSsLkGVUhYXgb58X5sXP1Y=", "properties": {"ref": "puteaux_92800", "@spider": "dominos_pizza_fr", "addr:full": "82 Rue Jean Jaur\u00e8s", "addr:city": "PUTEAUX", "addr:postcode": "92800", "addr:country": "fr", "website": "https://www.dominos.fr/magasin/puteaux_92800", "brand": "Dominos Pizza France"}, "geometry": {"type": "Point", "coordinates": [2.24284, 48.88341]}},
{"type": "Feature", "id": "UJxYLU8wFlvUUQQHp7ihkXDc6bo=", "properties": {"ref": "rueil-malmaison_92500", "@spider": "dominos_pizza_fr", "addr:full": "90 Avenue Paul Doumer", "addr:city": "RUEIL-MALMAISON", "addr:postcode": "92500", "addr:country": "fr", "website": "https://www.dominos.fr/magasin/rueil-malmaison_92500", "brand": "Dominos Pizza France"}, "geometry": {"type": "Point", "coordinates": [2.18572, 48.8818]}},
{"type": "Feature", "id": "bHCDLEIR5aH-LOsq4BSkVXzSvXE=", "properties": {"ref": "saint-denis_93200", "@spider": "dominos_pizza_fr", "addr:full": "23 Boulevard Carnot", "addr:city": "SAINT-DENIS", "addr:postcode": "93200", "addr:country": "fr", "website": "https://www.dominos.fr/magasin/saint-denis_93200", "brand": "Dominos Pizza France"}, "geometry": {"type": "Point", "coordinates": [2.353079, 48.938274]}},
{"type": "Feature", "id": "sVQIjmtMJkxj-quKpKEzVW_unYE=", "properties": {"ref": "roissy-en-brie_77860", "@spider": "dominos_pizza_fr", "addr:full": "31 Avenue Du G\u00e9n\u00e9ral Leclerc", "addr:city": "ROISSY-EN-BRIE", "addr:postcode": "77860", "addr:country": "fr", "website": "https://www.dominos.fr/magasin/roissy-en-brie_77860", "brand": "Dominos Pizza France"}, "geometry": {"type": "Point", "coordinates": [2.662479, 48.790909]}},
{"type": "Feature", "id": "-PN4vcyzHGK_5HOAcK5qdV_qKic=", "properties": {"ref": "villemoisson-sur-orge_91360", "@spider": "dominos_pizza_fr", "addr:full": "138 Route De Corbeil", "addr:city": "Villemoisson-sur-Orge", "addr:postcode": "91360", "addr:country": "fr", "website": "https://www.dominos.fr/magasin/villemoisson-sur-orge_91360", "brand": "Dominos Pizza France"}, "geometry": {"type": "Point", "coordinates": [2.333315, 48.640953]}},
{"type": "Feature", "id": "nlebPpPxRvvghstQ-o3HxkD_pTk=", "properties": {"ref": "villeparisis_77270", "@spider": "dominos_pizza_fr", "addr:full": "15 Rue Jean Jaur\u00e8s", "addr:city": "VILLEPARISIS", "addr:postcode": "77270", "addr:country": "fr", "website": "https://www.dominos.fr/magasin/villeparisis_77270", "brand": "Dominos Pizza France"}, "geometry": {"type": "Point", "coordinates": [2.6144, 48.93919]}},
{"type": "Feature", "id": "eOd3EXF-a3lxmAvvOps06K098CA=", "properties": {"ref": "paris-20-gambetta_75020", "@spider": "dominos_pizza_fr", "addr:full": "27 Rue Gambetta", "addr:city": "PARIS", "addr:postcode": "75020", "addr:country": "fr", "website": "https://www.dominos.fr/magasin/paris-20-gambetta_75020", "brand": "Dominos Pizza France"}, "geometry": {"type": "Point", "coordinates": [2.391395, 48.864072]}},
{"type": "Feature", "id": "XYFtUg-FAfFq1nLN5rFFiu-BpM8=", "properties": {"ref": "paris-7_75007", "@spider": "dominos_pizza_fr", "addr:full": "65 Rue Saint-Dominique", "addr:city": "PARIS", "addr:postcode": "75007", "addr:country": "fr", "website": "https://www.dominos.fr/magasin/paris-7_75007", "brand": "Dominos Pizza France"}, "geometry": {"type": "Point", "coordinates": [2.31089, 48.85988]}},
{"type": "Feature", "id": "cVJkI3xlMT8jwQ4rzi1_rn-4efM=", "properties": {"ref": "paris-9_75009", "@spider": "dominos_pizza_fr", "addr:full": "4 Bis Rue De Ch\u00e2teaudun", "addr:city": "PARIS", "addr:postcode": "75009", "addr:country": "fr", "website": "https://www.dominos.fr/magasin/paris-9_75009", "brand": "Dominos Pizza France"}, "geometry": {"type": "Point", "coordinates": [2.34225, 48.875841]}},
{"type": "Feature", "id": "AoY3_4u8ekatr8XdyDyq_e9vUOg=", "properties": {"ref": "poissy_78300", "@spider": "dominos_pizza_fr", "addr:full": "7 Avenue Des Ursulines", "addr:city": "POISSY", "addr:postcode": "78300", "addr:country": "fr", "website": "https://www.dominos.fr/magasin/poissy_78300", "brand": "Dominos Pizza France"}, "geometry": {"type": "Point", "coordinates": [2.04234, 48.929]}},
{"type": "Feature", "id": "I05ytx-4iQSNyg_bbU2PW4nPFBg=", "properties": {"ref": "pontault-combault_77340", "@spider": "dominos_pizza_fr", "addr:full": "38 Avenue Charles Rouxel", "addr:city": "PONTAULT-COMBAULT", "addr:postcode": "77340", "addr:country": "fr", "website": "https://www.dominos.fr/magasin/pontault-combault_77340", "brand": "Dominos Pizza France"}, "geometry": {"type": "Point", "coordinates": [2.60433, 48.7957]}},
{"type": "Feature", "id": "u7uPny1Sg0KzMGKoU8nU-vZQXQ0=", "properties": {"ref": "paris-19-flandre_75019", "@spider": "dominos_pizza_fr", "addr:full": "72 Avenue De Flandre", "addr:city": "PARIS", "addr:postcode": "75019", "addr:country": "fr", "website": "https://www.dominos.fr/magasin/paris-19-flandre_75019", "brand": "Dominos Pizza France"}, "geometry": {"type": "Point", "coordinates": [2.37507, 48.88898]}},
{"type": "Feature", "id": "0KDB4OUMAXCe0iYz8e4985KprDU=", "properties": {"ref": "paris-18-stephenson_75018", "@spider": "dominos_pizza_fr", "addr:full": "61 Rue Stephenson", "addr:city": "PARIS", "addr:postcode": "75018", "addr:country": "fr", "website": "https://www.dominos.fr/magasin/paris-18-stephenson_75018", "brand": "Dominos Pizza France"}, "geometry": {"type": "Point", "coordinates": [2.35582, 48.8904]}},
{"type": "Feature", "id": "cnt7mWUGr77eEQWF9xOm21FVzl0=", "properties": {"ref": "saint-maur_94100", "@spider": "dominos_pizza_fr", "addr:full": "37 Avenue Du Bac", "addr:city": "SAINT-MAUR-DES-FOSSES", "addr:postcode": "94100", "addr:country": "fr", "website": "https://www.dominos.fr/magasin/saint-maur_94100", "brand": "Dominos Pizza France"}, "geometry": {"type": "Point", "coordinates": [2.50781, 48.796]}},
{"type": "Feature", "id": "qakZAmUt1RsS_SlJaArKALblWeY=", "properties": {"ref": "paris-18-damremont_75018", "@spider": "dominos_pizza_fr", "addr:full": "68 Rue Damr\u00e9mont", "addr:city": "PARIS", "addr:postcode": "75018", "addr:country": "fr", "website": "https://www.dominos.fr/magasin/paris-18-damremont_75018", "brand": "Dominos Pizza France"}, "geometry": {"type": "Point", "coordinates": [2.3347, 48.89102]}},
{"type": "Feature", "id": "NoNrYKDTg-WA0Zn4mny0VVpRhVQ=", "properties": {"ref": "paris-19-jaures_75019", "@spider": "dominos_pizza_fr", "addr:full": "170 Avenue Jean Jaur\u00e8s", "addr:city": "PARIS", "addr:postcode": "75019", "addr:country": "fr", "website": "https://www.dominos.fr/magasin/paris-19-jaures_75019", "brand": "Dominos Pizza France"}, "geometry": {"type": "Point", "coordinates": [2.38881, 48.8876]}},
{"type": "Feature", "id": "ugEQ2E9m9Vxn9_0AaNtNvdLWqg8=", "properties": {"ref": "paris-17-batignolles_75017", "@spider": "dominos_pizza_fr", "addr:full": "58 Rue Legendre", "addr:city": "PARIS", "addr:postcode": "75017", "addr:country": "fr", "website": "https://www.dominos.fr/magasin/paris-17-batignolles_75017", "brand": "Dominos Pizza France"}, "geometry": {"type": "Point", "coordinates": [2.31623, 48.8853]}},
{"type": "Feature", "id": "4TaNuqUXy62DprwC7VSR_6s7OGI=", "properties": {"ref": "paris-16-sud_75016", "@spider": "dominos_pizza_fr", "addr:full": "1 Rue Bosio", "addr:city": "PARIS", "addr:postcode": "75016", "addr:country": "fr", "website": "https://www.dominos.fr/magasin/paris-16-sud_75016", "brand": "Dominos Pizza France"}, "geometry": {"type": "Point", "coordinates": [2.26517, 48.84905]}},
{"type": "Feature", "id": "TI7ydbX-ysQXl8BHScwoc7tB_qE=", "properties": {"ref": "paris-16-nord_75016", "@spider": "dominos_pizza_fr", "addr:full": "50 Rue Desbordes Valmore", "addr:city": "PARIS", "addr:postcode": "75016", "addr:country": "fr", "website": "https://www.dominos.fr/magasin/paris-16-nord_75016", "brand": "Dominos Pizza France"}, "geometry": {"type": "Point", "coordinates": [2.27618, 48.8594]}},
{"type": "Feature", "id": "ksT5wVQ6zpvsErbV2QKwVYIe3E4=", "properties": {"ref": "paris-15-lecoq_75015", "@spider": "dominos_pizza_fr", "addr:full": "15 Rue Charles Lecocq", "addr:city": "PARIS", "addr:postcode": "75015", "addr:country": "fr", "website": "https://www.dominos.fr/magasin/paris-15-lecoq_75015", "brand": "Dominos Pizza France"}, "geometry": {"type": "Point", "coordinates": [2.29445, 48.84106]}},
{"type": "Feature", "id": "9xCbsHjrY1HwuakeQp3Izt9ih4g=", "properties": {"ref": "paris-2_75002", "@spider": "dominos_pizza_fr", "addr:full": "14 Rue Saint-Marc", "addr:city": "PARIS", "addr:postcode": "75002", "addr:country": "fr", "website": "https://www.dominos.fr/magasin/paris-2_75002", "brand": "Dominos Pizza France"}, "geometry": {"type": "Point", "coordinates": [2.34065, 48.8704]}},
{"type": "Feature", "id": "z_H1FiSXqMyW0T1ZVHc_3Cvv8xY=", "properties": {"ref": "paris-20-avron_75020", "@spider": "dominos_pizza_fr", "addr:full": "71 Rue D'avron", "addr:city": "PARIS", "addr:postcode": "75020", "addr:country": "fr", "website": "https://www.dominos.fr/magasin/paris-20-avron_75020", "brand": "Dominos Pizza France"}, "geometry": {"type": "Point", "coordinates": [2.40145, 48.8519]}},
{"type": "Feature", "id": "jJQXX0F8fn6kDmde7hKNSk3iul8=", "properties": {"ref": "paris-14-sud_75014", "@spider": "dominos_pizza_fr", "addr:full": "97 Rue Didot", "addr:city": "PARIS", "addr:postcode": "75014", "addr:country": "fr", "website": "https://www.dominos.fr/magasin/paris-14-sud_75014", "brand": "Dominos Pizza France"}, "geometry": {"type": "Point", "coordinates": [2.31635, 48.8286]}},
{"type": "Feature", "id": "bkyxkslr_E_NG_mpFCwpEpPDae4=", "properties": {"ref": "paris-17-place-des-ternes_75017", "@spider": "dominos_pizza_fr", "addr:full": "8 Rue Lebon", "addr:city": "PARIS", "addr:postcode": "75017", "addr:country": "fr", "website": "https://www.dominos.fr/magasin/paris-17-place-des-ternes_75017", "brand": "Dominos Pizza France"}, "geometry": {"type": "Point", "coordinates": [2.29213, 48.8809]}},
{"type": "Feature", "id": "XbP_uA_vj4Kvcyj3weKB_nzgiAc=", "properties": {"ref": "paris-13-tolbiac_75013", "@spider": "dominos_pizza_fr", "addr:full": "201 Rue De Tolbiac", "addr:city": "PARIS", "addr:postcode": "75013", "addr:country": "fr", "website": "https://www.dominos.fr/magasin/paris-13-tolbiac_75013", "brand": "Dominos Pizza France"}, "geometry": {"type": "Point", "coordinates": [2.34908, 48.8257]}},
{"type": "Feature", "id": "A46GV8IaBbXy-naWIWCq-O89WSo=", "properties": {"ref": "paris-15-cambronne_75015", "@spider": "dominos_pizza_fr", "addr:full": "27 Rue Cambronne", "addr:city": "PARIS", "addr:postcode": "75015", "addr:country": "fr", "website": "https://www.dominos.fr/magasin/paris-15-cambronne_75015", "brand": "Dominos Pizza France"}, "geometry": {"type": "Point", "coordinates": [2.30207, 48.84586]}},
{"type": "Feature", "id": "jaFHKUYhzAfWNpUllXSubyBYLlA=", "properties": {"ref": "paris-12-bizot_75012", "@spider": "dominos_pizza_fr", "addr:full": "55 Avenue Du G\u00e9n\u00e9ral Michel Bizot", "addr:city": "PARIS", "addr:postcode": "75012", "addr:country": "fr", "website": "https://www.dominos.fr/magasin/paris-12-bizot_75012", "brand": "Dominos Pizza France"}, "geometry": {"type": "Point", "coordinates": [2.40164, 48.83542]}},
{"type": "Feature", "id": "_rw8JRmCF2c242Ptrrcuthz-9Kw=", "properties": {"ref": "paris-11-parmentier_75011", "@spider": "dominos_pizza_fr", "addr:full": "124 Avenue Parmentier", "addr:city": "PARIS", "addr:postcode": "75011", "addr:country": "fr", "website": "https://www.dominos.fr/magasin/paris-11-parmentier_75011", "brand": "Dominos Pizza France"}, "geometry": {"type": "Point", "coordinates": [2.372764, 48.867991]}},
{"type": "Feature", "id": "1KrdsGXK1w_WK1ap0S5Zq5WM4UI=", "properties": {"ref": "palaiseau_91120", "@spider": "dominos_pizza_fr", "addr:full": "2 Avenue Du G\u00e9n\u00e9ral Leclerc", "addr:city": "PALAISEAU", "addr:postcode": "91120", "addr:country": "fr", "website": "https://www.dominos.fr/magasin/palaiseau_91120", "brand": "Dominos Pizza France"}, "geometry": {"type": "Point", "coordinates": [2.23843, 48.70663]}},
{"type": "Feature", "id": "kpo74ZU32KDoxxd77zknGqg-yOs=", "properties": {"ref": "paris-11-p.-auguste_75011", "@spider": "dominos_pizza_fr", "addr:full": "52 Avenue Philippe Auguste", "addr:city": "PARIS", "addr:postcode": "75011", "addr:country": "fr", "website": "https://www.dominos.fr/magasin/paris-11-p.-auguste_75011", "brand": "Dominos Pizza France"}, "geometry": {"type": "Point", "coordinates": [2.393422, 48.852356]}},
{"type": "Feature", "id": "ao4UI1d041CGYsCL1biuafJOGT0=", "properties": {"ref": "paris-12-charenton_75012", "@spider": "dominos_pizza_fr", "addr:full": "204 Rue De Charenton", "addr:city": "PARIS", "addr:postcode": "75012", "addr:country": "fr", "website": "https://www.dominos.fr/magasin/paris-12-charenton_75012", "brand": "Dominos Pizza France"}, "geometry": {"type": "Point", "coordinates": [2.38694, 48.84146]}},
{"type": "Feature", "id": "M36hR6rXD0zCgbL3y9YRyns3TCI=", "properties": {"ref": "paris-10_75010", "@spider": "dominos_pizza_fr", "addr:full": "118 Boulevard De Magenta", "addr:city": "PARIS", "addr:postcode": "75010", "addr:country": "fr", "website": "https://www.dominos.fr/magasin/paris-10_75010", "brand": "Dominos Pizza France"}, "geometry": {"type": "Point", "coordinates": [2.353733, 48.879194]}},
{"type": "Feature", "id": "YUDBafWGuUT-iDcdsInol0RdQW0=", "properties": {"ref": "noisy-le-grand_93160", "@spider": "dominos_pizza_fr", "addr:full": "10 Porte De Neuilly", "addr:city": "NOISY-LE-GRAND", "addr:postcode": "93160", "addr:country": "fr", "website": "https://www.dominos.fr/magasin/noisy-le-grand_93160", "brand": "Dominos Pizza France"}, "geometry": {"type": "Point", "coordinates": [2.5443, 48.8427]}},
{"type": "Feature", "id": "t3hvlMusQ_XwMDr2tzoUG6u5pGk=", "properties": {"ref": "noisy-le-sec_93130", "@spider": "dominos_pizza_fr", "addr:full": "117 Rue Jean Jaur\u00e8s", "addr:city": "NOISY-LE-SEC", "addr:postcode": "93130", "addr:country": "fr", "website": "https://www.dominos.fr/magasin/noisy-le-sec_93130", "brand": "Dominos Pizza France"}, "geometry": {"type": "Point", "coordinates": [2.460113, 48.895859]}},
{"type": "Feature", "id": "ASVJb0gacSCZubqMd-CHh8CKq2U=", "properties": {"ref": "orly_94310", "@spider": "dominos_pizza_fr", "addr:full": "62 Avenue Adrien Raynal", "addr:city": "ORLY", "addr:postcode": "94310", "addr:country": "fr", "website": "https://www.dominos.fr/magasin/orly_94310", "brand": "Dominos Pizza France"}, "geometry": {"type": "Point", "coordinates": [2.40879, 48.74501]}},
{"type": "Feature", "id": "S-htxz_Ztr6yYoPtWdpbN3YVUdQ=", "properties": {"ref": "nanterre_92000", "@spider": "dominos_pizza_fr", "addr:full": "69 Rue Maurice Thorez", "addr:city": "NANTERRE", "addr:postcode": "92000", "addr:country": "fr", "website": "https://www.dominos.fr/magasin/nanterre_92000", "brand": "Dominos Pizza France"}, "geometry": {"type": "Point", "coordinates": [2.19585, 48.8939]}},
{"type": "Feature", "id": "svXpVKks_uMPo74IlNAF4ePKxTc=", "properties": {"ref": "neuilly-plaisance_93360", "@spider": "dominos_pizza_fr", "addr:full": "22 Boulevard Galli\u00e9ni", "addr:city": "NEUILLY-PLAISANCE", "addr:postcode": "93360", "addr:country": "fr", "website": "https://www.dominos.fr/magasin/neuilly-plaisance_93360", "brand": "Dominos Pizza France"}, "geometry": {"type": "Point", "coordinates": [2.51445, 48.853]}},
{"type": "Feature", "id": "sgMqcafWhRKvCd8N-KzLUr3CHK8=", "properties": {"ref": "orsay_91400", "@spider": "dominos_pizza_fr", "addr:full": "24 Rue Charles De Gaulle", "addr:city": "ORSAY", "addr:postcode": "91400", "addr:country": "fr", "website": "https://www.dominos.fr/magasin/orsay_91400", "brand": "Dominos Pizza France"}, "geometry": {"type": "Point", "coordinates": [2.19186, 48.70355]}},
{"type": "Feature", "id": "6wR9I_d0ZcBkwSwrYhH-YKBkB3A=", "properties": {"ref": "montigny-le-bretonneux_78180", "@spider": "dominos_pizza_fr", "addr:full": "49 Bis Rue Joseph Kessel", "addr:city": "MONTIGNY-LE-BRETONNEUX", "addr:postcode": "78180", "addr:country": "fr", "website": "https://www.dominos.fr/magasin/montigny-le-bretonneux_78180", "brand": "Dominos Pizza France"}, "geometry": {"type": "Point", "coordinates": [2.04614, 48.7708]}},
{"type": "Feature", "id": "Xlyu_4zeR9f87J0elKyDKfqnqRA=", "properties": {"ref": "montereau-fault-yonne_77130", "@spider": "dominos_pizza_fr", "addr:full": "Route De Sens", "addr:city": "Sucrerie", "addr:postcode": "Zac De La", "addr:country": "fr", "website": "https://www.dominos.fr/magasin/montereau-fault-yonne_77130", "brand": "Dominos Pizza France"}, "geometry": {"type": "Point", "coordinates": [2.95665, 48.37665]}},
{"type": "Feature", "id": "ywtF9k9ks_2FFswu8mUAUyeP-F0=", "properties": {"ref": "montrouge_92120", "@spider": "dominos_pizza_fr", "addr:full": "5 Avenue De La Marne", "addr:city": "MONTROUGE", "addr:postcode": "92120", "addr:country": "fr", "website": "https://www.dominos.fr/magasin/montrouge_92120", "brand": "Dominos Pizza France"}, "geometry": {"type": "Point", "coordinates": [2.30822, 48.8177]}},
{"type": "Feature", "id": "DE9yiyVSeaZ0Ijfdfe3VeWUefXc=", "properties": {"ref": "meaux_77100", "@spider": "dominos_pizza_fr", "addr:full": "31 Rue Du Comandant Berge", "addr:city": "MEAUX", "addr:postcode": "77100", "addr:country": "fr", "website": "https://www.dominos.fr/magasin/meaux_77100", "brand": "Dominos Pizza France"}, "geometry": {"type": "Point", "coordinates": [2.87969, 48.9565]}},
{"type": "Feature", "id": "AS5-twZCEEc4ZGj-ZnaeYLZXlmA=", "properties": {"ref": "neuilly-sur-seine_92200", "@spider": "dominos_pizza_fr", "addr:full": "47 Bis Rue De La Madeleine Michelis", "addr:city": "NEUILLY-SUR-SEINE", "addr:postcode": "92200", "addr:country": "fr", "website": "https://www.dominos.fr/magasin/neuilly-sur-seine_92200", "brand": "Dominos Pizza France"}, "geometry": {"type": "Point", "coordinates": [2.27819, 48.88446]}},
{"type": "Feature", "id": "LPHfQ-b3fqDqcAuieazJkgkMLhs=", "properties": {"ref": "melun_77000", "@spider": "dominos_pizza_fr", "addr:full": "41 Avenue Thiers", "addr:city": "MELUN", "addr:postcode": "77000", "addr:country": "fr", "website": "https://www.dominos.fr/magasin/melun_77000", "brand": "Dominos Pizza France"}, "geometry": {"type": "Point", "coordinates": [2.65502, 48.53]}},
{"type": "Feature", "id": "Yh_-Ev92WRspUKTVY3z0FJQEWDE=", "properties": {"ref": "maisons-alfort_94700", "@spider": "dominos_pizza_fr", "addr:full": "177 Avenue Du G\u00e9n\u00e9ral Leclerc", "addr:city": "MAISONS-ALFORT", "addr:postcode": "94700", "addr:country": "fr", "website": "https://www.dominos.fr/magasin/maisons-alfort_94700", "brand": "Dominos Pizza France"}, "geometry": {"type": "Point", "coordinates": [2.43832, 48.8073]}},
{"type": "Feature", "id": "mM3m8tD1Dj9xHQXjcF-XIizFe5o=", "properties": {"ref": "marly-le-roi_78160", "@spider": "dominos_pizza_fr", "addr:full": "Centre Commercial Les Grandes Terres Avenue De L'amiral Lemonnier", "addr:city": "MARLY-LE-ROI", "addr:postcode": "78160", "addr:country": "fr", "website": "https://www.dominos.fr/magasin/marly-le-roi_78160", "brand": "Dominos Pizza France"}, "geometry": {"type": "Point", "coordinates": [2.1005, 48.87899]}},
{"type": "Feature", "id": "BKzbJwR0GW7HFMt2NLF4vA-3HKQ=", "properties": {"ref": "longjumeau_91160", "@spider": "dominos_pizza_fr", "addr:full": "56 Rue Du Pr\u00e9sident Fran\u00e7ois Mitterrand", "addr:city": "LONGJUMEAU", "addr:postcode": "91160", "addr:country": "fr", "website": "https://www.dominos.fr/magasin/longjumeau_91160", "brand": "Dominos Pizza France"}, "geometry": {"type": "Point", "coordinates": [2.29492, 48.6966]}},
{"type": "Feature", "id": "qASOmuYnzNuD1tjQuzghFlkfYps=", "properties": {"ref": "levallois-perret_92300", "@spider": "dominos_pizza_fr", "addr:full": "99 Rue Aristide Briand", "addr:city": "LEVALLOIS-PERRET", "addr:postcode": "92300", "addr:country": "fr", "website": "https://www.dominos.fr/magasin/levallois-perret_92300", "brand": "Dominos Pizza France"}, "geometry": {"type": "Point", "coordinates": [2.29277, 48.8943]}},
{"type": "Feature", "id": "nDpI1Wy4mcxymT_q3szIbkvOZ1Y=", "properties": {"ref": "les-pavillons-sous-bois_93320", "@spider": "dominos_pizza_fr", "addr:full": "62 Avenue Aristide Briand", "addr:city": "PAVILLONS-SOUS-BOIS", "addr:postcode": "93320", "addr:country": "fr", "website": "https://www.dominos.fr/magasin/les-pavillons-sous-bois_93320", "brand": "Dominos Pizza France"}, "geometry": {"type": "Point", "coordinates": [2.49586, 48.9079]}},
{"type": "Feature", "id": "wHyR2_OQeZg-qG8LB04gitQ75GI=", "properties": {"ref": "les-lilas_93260", "@spider": "dominos_pizza_fr", "addr:full": "144 Rue De Paris", "addr:city": "LILAS", "addr:postcode": "93260 LES", "addr:country": "fr", "website": "https://www.dominos.fr/magasin/les-lilas_93260", "brand": "Dominos Pizza France"}, "geometry": {"type": "Point", "coordinates": [2.41879, 48.8806]}},
{"type": "Feature", "id": "X8q45qNyyfl4c-ntIrXPVS8Wsu4=", "properties": {"ref": "montreuil_93100", "@spider": "dominos_pizza_fr", "addr:full": "38 Rue Franklin", "addr:city": "MONTREUIL", "addr:postcode": "93100", "addr:country": "fr", "website": "https://www.dominos.fr/magasin/montreuil_93100", "brand": "Dominos Pizza France"}, "geometry": {"type": "Point", "coordinates": [2.44403, 48.8627]}},
{"type": "Feature", "id": "AFmI0KX8Lg4tC5kOAM3vPAcwrcY=", "properties": {"ref": "mantes-la-jolie_78200", "@spider": "dominos_pizza_fr", "addr:full": "42 Rue De Lorraine", "addr:city": "JOLIE", "addr:postcode": "78200 MANTES LA", "addr:country": "fr", "website": "https://www.dominos.fr/magasin/mantes-la-jolie_78200", "brand": "Dominos Pizza France"}, "geometry": {"type": "Point", "coordinates": [1.71208, 48.989]}},
{"type": "Feature", "id": "5lyeZMdiWHDzWdIiljmtfH5s3A4=", "properties": {"ref": "bressuire_79300", "@spider": "dominos_pizza_fr", "addr:full": "4 Rue Dolo", "addr:city": "bressuire", "addr:postcode": "79300", "addr:country": "fr", "website": "https://www.dominos.fr/magasin/bressuire_79300", "brand": "Dominos Pizza France"}, "geometry": {"type": "Point", "coordinates": [-0.49228, 46.84086]}},
{"type": "Feature", "id": "fYeFikle0mt55tj2tf4cG2b9ziQ=", "properties": {"ref": "lagny-sur-marne_77400", "@spider": "dominos_pizza_fr", "addr:full": "117 Rue Saint Denis", "addr:city": "LAGNY-SUR-MARNE", "addr:postcode": "77400", "addr:country": "fr", "website": "https://www.dominos.fr/magasin/lagny-sur-marne_77400", "brand": "Dominos Pizza France"}, "geometry": {"type": "Point", "coordinates": [2.70546, 48.8785]}},
{"type": "Feature", "id": "INx55qWa2hgVJ3Rgbyu8nL2gsbk=", "properties": {"ref": "les-clayes-sous-bois_78340", "@spider": "dominos_pizza_fr", "addr:full": "Avenue Henri Barbusse", "addr:city": "Ii", "addr:postcode": "Centre Commercial Alpha Park", "addr:country": "fr", "website": "https://www.dominos.fr/magasin/les-clayes-sous-bois_78340", "brand": "Dominos Pizza France"}, "geometry": {"type": "Point", "coordinates": [1.974201, 48.829034]}},
{"type": "Feature", "id": "ddK_s4ZJXu-GDvujp8CuzLbnTgs=", "properties": {"ref": "la-ville-du-bois_91620", "@spider": "dominos_pizza_fr", "addr:full": "43 Avenue De La Division Leclerc", "addr:city": "VILLE-DU-BOIS", "addr:postcode": "91620 LA", "addr:country": "fr", "website": "https://www.dominos.fr/magasin/la-ville-du-bois_91620", "brand": "Dominos Pizza France"}, "geometry": {"type": "Point", "coordinates": [2.275695, 48.659906]}},
{"type": "Feature", "id": "mt9PKTGcUYjrt0O4h2CNLSCBGes=", "properties": {"ref": "la-garenne-colombes_92250", "@spider": "dominos_pizza_fr", "addr:full": "17 Avenue Du G\u00e9n\u00e9ral De Gaulle", "addr:city": "GARENNE-COLOMBES", "addr:postcode": "92250 LA", "addr:country": "fr", "website": "https://www.dominos.fr/magasin/la-garenne-colombes_92250", "brand": "Dominos Pizza France"}, "geometry": {"type": "Point", "coordinates": [2.25406, 48.9121]}},
{"type": "Feature", "id": "Q1q99p9D3yZJLBQSh-Ga3xgHC0A=", "properties": {"ref": "issy-les-moulineaux_92130", "@spider": "dominos_pizza_fr", "addr:full": "41 Avenue Victor Cresson", "addr:city": "ISSY-LES-MOULINEAUX", "addr:postcode": "92130", "addr:country": "fr", "website": "https://www.dominos.fr/magasin/issy-les-moulineaux_92130", "brand": "Dominos Pizza France"}, "geometry": {"type": "Point", "coordinates": [2.26278, 48.8215]}},
{"type": "Feature", "id": "HilDuqaK1YjbmChh-UpxOTsrOsw=", "properties": {"ref": "guyancourt_78280", "@spider": "dominos_pizza_fr", "addr:full": "5 Place Charlotte Perriand", "addr:city": "GUYANCOURT", "addr:postcode": "78280", "addr:country": "fr", "website": "https://www.dominos.fr/magasin/guyancourt_78280", "brand": "Dominos Pizza France"}, "geometry": {"type": "Point", "coordinates": [2.079025, 48.766075]}},
{"type": "Feature", "id": "ibGatkfJhIhfOywz4KxiGqbNc2Q=", "properties": {"ref": "la-celle-saint-cloud_78170", "@spider": "dominos_pizza_fr", "addr:full": "Centre Commercial \u00c9lys\u00e9e 2 - 1Er \u00c9tage Cellule 4433", "addr:city": "CLOUD", "addr:postcode": "78170 LA CELLE SAINT", "addr:country": "fr", "website": "https://www.dominos.fr/magasin/la-celle-saint-cloud_78170", "brand": "Dominos Pizza France"}, "geometry": {"type": "Point", "coordinates": [2.148751, 48.860588]}},
{"type": "Feature", "id": "fSJe50FMxf6TZFfbMm9dmW-O9qU=", "properties": {"ref": "fontenay-le-fleury_78330", "@spider": "dominos_pizza_fr", "addr:full": "53 Rue Victor Hugo", "addr:city": "FONTENAY-LE-FLEURY", "addr:postcode": "78330", "addr:country": "fr", "website": "https://www.dominos.fr/magasin/fontenay-le-fleury_78330", "brand": "Dominos Pizza France"}, "geometry": {"type": "Point", "coordinates": [2.04386, 48.8131]}},
{"type": "Feature", "id": "ruhdgiMsQIfC0VRcHrf-ZbEX-1U=", "properties": {"ref": "le-kremlin-bicetre_94270", "@spider": "dominos_pizza_fr", "addr:full": "63 Avenue De Fontainebleau", "addr:city": "KREMLIN-BICETRE", "addr:postcode": "94270 LE", "addr:country": "fr", "website": "https://www.dominos.fr/magasin/le-kremlin-bicetre_94270", "brand": "Dominos Pizza France"}, "geometry": {"type": "Point", "coordinates": [2.36194, 48.81193]}},
{"type": "Feature", "id": "qRIWV8cqKlDl7vv36ZXAHmgOHT8=", "properties": {"ref": "gennevilliers_92230", "@spider": "dominos_pizza_fr", "addr:full": "4 Rue Olympe De Gouges", "addr:city": "GENNEVILLIERS", "addr:postcode": "92230", "addr:country": "fr", "website": "https://www.dominos.fr/magasin/gennevilliers_92230", "brand": "Dominos Pizza France"}, "geometry": {"type": "Point", "coordinates": [2.315586, 48.922546]}},
{"type": "Feature", "id": "Ysv6Ku8Ht0PZsbdnXW_O1qjWrCw=", "properties": {"ref": "evry-universite_91080", "@spider": "dominos_pizza_fr", "addr:full": "503-505 Place Des Champs Elys\u00e9es", "addr:city": "COURCOURONNES", "addr:postcode": "91080", "addr:country": "fr", "website": "https://www.dominos.fr/magasin/evry-universite_91080", "brand": "Dominos Pizza France"}, "geometry": {"type": "Point", "coordinates": [2.42252, 48.623198]}},
{"type": "Feature", "id": "EWsj4h1Ly5RBl8DVpiDQnyuevC0=", "properties": {"ref": "fontainebleau_77300", "@spider": "dominos_pizza_fr", "addr:full": "14 Rue Aristide Briand", "addr:city": "FONTAINEBLEAU", "addr:postcode": "77300", "addr:country": "fr", "website": "https://www.dominos.fr/magasin/fontainebleau_77300", "brand": "Dominos Pizza France"}, "geometry": {"type": "Point", "coordinates": [2.7041, 48.4082]}},
{"type": "Feature", "id": "h2MBriYCcZKiIYnul427GwLd2P0=", "properties": {"ref": "evry-clinique_91000", "@spider": "dominos_pizza_fr", "addr:full": "41 Rue Paul Claudel", "addr:city": "EVRY", "addr:postcode": "91000", "addr:country": "fr", "website": "https://www.dominos.fr/magasin/evry-clinique_91000", "brand": "Dominos Pizza France"}, "geometry": {"type": "Point", "coordinates": [2.42548, 48.6351]}},
{"type": "Feature", "id": "0IyaOhltfvPSbKiv2bdAoMgoCvQ=", "properties": {"ref": "elancourt_78990", "@spider": "dominos_pizza_fr", "addr:full": "6 Rue Du Chemin Aux B\u0153ufs", "addr:city": "ELANCOURT", "addr:postcode": "78990", "addr:country": "fr", "website": "https://www.dominos.fr/magasin/elancourt_78990", "brand": "Dominos Pizza France"}, "geometry": {"type": "Point", "coordinates": [1.94973, 48.766644]}},
{"type": "Feature", "id": "PtHQI6PLkMA9sNTb56SXXu-qRmw=", "properties": {"ref": "eaubonne_95600", "@spider": "dominos_pizza_fr", "addr:full": "22 Avenue De Paris", "addr:city": "EAUBONNE", "addr:postcode": "95600", "addr:country": "fr", "website": "https://www.dominos.fr/magasin/eaubonne_95600", "brand": "Dominos Pizza France"}, "geometry": {"type": "Point", "coordinates": [2.28382, 48.99264]}},
{"type": "Feature", "id": "RHPpaRQAitQiFPfOLWoBOC56Fdw=", "properties": {"ref": "drancy_93700", "@spider": "dominos_pizza_fr", "addr:full": "45 Avenue Henri Barbusse", "addr:city": "DRANCY", "addr:postcode": "93700", "addr:country": "fr", "website": "https://www.dominos.fr/magasin/drancy_93700", "brand": "Dominos Pizza France"}, "geometry": {"type": "Point", "coordinates": [2.44431, 48.91656]}},
{"type": "Feature", "id": "b-59EIER0rGNuMgBq7AESPVabOw=", "properties": {"ref": "creteil_94000", "@spider": "dominos_pizza_fr", "addr:full": "6/10 Rue Pierre Brossolette", "addr:city": "CRETEIL", "addr:postcode": "94000", "addr:country": "fr", "website": "https://www.dominos.fr/magasin/creteil_94000", "brand": "Dominos Pizza France"}, "geometry": {"type": "Point", "coordinates": [2.46147, 48.79275]}},
{"type": "Feature", "id": "wv8o86Sr9seksS9dpuPS8J-Ai-s=", "properties": {"ref": "paris-13-bnf_75013", "@spider": "dominos_pizza_fr", "addr:full": "40 Rue Tolbiac", "addr:city": "PARIS", "addr:postcode": "75013", "addr:country": "fr", "website": "https://www.dominos.fr/magasin/paris-13-bnf_75013", "brand": "Dominos Pizza France"}, "geometry": {"type": "Point", "coordinates": [2.37201, 48.8281]}},
{"type": "Feature", "id": "Nwbnp0FFNILVGMHAVEBQ6a2tefw=", "properties": {"ref": "etampes_91150", "@spider": "dominos_pizza_fr", "addr:full": "4 Rue De La R\u00e9publique", "addr:city": "ETAMPES", "addr:postcode": "91150", "addr:country": "fr", "website": "https://www.dominos.fr/magasin/etampes_91150", "brand": "Dominos Pizza France"}, "geometry": {"type": "Point", "coordinates": [2.165674, 48.433983]}},
{"type": "Feature", "id": "s_5pWf7RBeF3xPYkywUXVLoBWKg=", "properties": {"ref": "fresnes_94260", "@spider": "dominos_pizza_fr", "addr:full": "18 Rue Du Docteur Charcot \nZ.A. Charcot Zola", "addr:city": "FRESNES", "addr:postcode": "94260", "addr:country": "fr", "website": "https://www.dominos.fr/magasin/fresnes_94260", "brand": "Dominos Pizza France"}, "geometry": {"type": "Point", "coordinates": [2.32737, 48.762569]}},
{"type": "Feature", "id": "dXcQr0Z9TEDc5IlLwis_TP2dcbE=", "properties": {"ref": "clamart_92140", "@spider": "dominos_pizza_fr", "addr:full": "32 Avenue Victor Hugo", "addr:city": "CLAMART", "addr:postcode": "92140", "addr:country": "fr", "website": "https://www.dominos.fr/magasin/clamart_92140", "brand": "Dominos Pizza France"}, "geometry": {"type": "Point", "coordinates": [2.26709, 48.80385]}},
{"type": "Feature", "id": "OupHyJxApBLeE4Vg0K32aKW_rhk=", "properties": {"ref": "choisy-le-roi_94600", "@spider": "dominos_pizza_fr", "addr:full": "42 Boulevard De Stalingrad", "addr:city": "CHOISY-LE-ROI", "addr:postcode": "94600", "addr:country": "fr", "website": "https://www.dominos.fr/magasin/choisy-le-roi_94600", "brand": "Dominos Pizza France"}, "geometry": {"type": "Point", "coordinates": [2.40173, 48.77047]}},
{"type": "Feature", "id": "ziIu1F9ueaA44R84kgCDyf-M6p8=", "properties": {"ref": "clichy-la-garenne_92110", "@spider": "dominos_pizza_fr", "addr:full": "59 Boulevard Victor Hugo", "addr:city": "CLICHY", "addr:postcode": "92110", "addr:country": "fr", "website": "https://www.dominos.fr/magasin/clichy-la-garenne_92110", "brand": "Dominos Pizza France"}, "geometry": {"type": "Point", "coordinates": [2.31288, 48.8989]}},
{"type": "Feature", "id": "r3Fi8hYXB6BdkqQJc2O0K3mtHT0=", "properties": {"ref": "combs-la-ville_77380", "@spider": "dominos_pizza_fr", "addr:full": "1 Avenue De La Gare", "addr:city": "COMBS-LA-VILLE", "addr:postcode": "77380", "addr:country": "fr", "website": "https://www.dominos.fr/magasin/combs-la-ville_77380", "brand": "Dominos Pizza France"}, "geometry": {"type": "Point", "coordinates": [2.54862, 48.66567]}},
{"type": "Feature", "id": "M1floqqi2rIYToEbiz04E-NuPvU=", "properties": {"ref": "chatou_78400", "@spider": "dominos_pizza_fr", "addr:full": "85 Avenue Du Mar\u00e9chal Foch", "addr:city": "CHATOU", "addr:postcode": "78400", "addr:country": "fr", "website": "https://www.dominos.fr/magasin/chatou_78400", "brand": "Dominos Pizza France"}, "geometry": {"type": "Point", "coordinates": [2.15238, 48.8907]}},
{"type": "Feature", "id": "iwJ5E5ekQOYH_LW4JpciHH4fvZo=", "properties": {"ref": "chennevieres-sur-marne_94430", "@spider": "dominos_pizza_fr", "addr:full": "23 Route De La Lib\u00e9ration", "addr:city": "CHENNEVIERES-SUR-MARNE", "addr:postcode": "94430", "addr:country": "fr", "website": "https://www.dominos.fr/magasin/chennevieres-sur-marne_94430", "brand": "Dominos Pizza France"}, "geometry": {"type": "Point", "coordinates": [2.5411, 48.8015]}},
{"type": "Feature", "id": "1O6Q5AKUCW5TQJj618mKiytWY88=", "properties": {"ref": "champigny-sur-marne_94500", "@spider": "dominos_pizza_fr", "addr:full": "107 Avenue Du G\u00e9n\u00e9ral De Gaulle", "addr:city": "CHAMPIGNY-SUR-MARNE", "addr:postcode": "94500", "addr:country": "fr", "website": "https://www.dominos.fr/magasin/champigny-sur-marne_94500", "brand": "Dominos Pizza France"}, "geometry": {"type": "Point", "coordinates": [2.49342, 48.8231]}},
{"type": "Feature", "id": "DFk3ywxt-RdifZ6JErNa5SOfUSo=", "properties": {"ref": "cergy-pontoise_95000", "@spider": "dominos_pizza_fr", "addr:full": "12 Place Des Cerclades", "addr:city": "CERGY-PONTOISE", "addr:postcode": "95000", "addr:country": "fr", "website": "https://www.dominos.fr/magasin/cergy-pontoise_95000", "brand": "Dominos Pizza France"}, "geometry": {"type": "Point", "coordinates": [2.08084, 49.0367]}},
{"type": "Feature", "id": "OSX5RIzXtGT_nDkSagVy-6VTxzU=", "properties": {"ref": "brie-comte-robert_77170", "@spider": "dominos_pizza_fr", "addr:full": "16 Rue De La Chauss\u00e9e", "addr:city": "BRIE-COMTE-ROBERT", "addr:postcode": "77170", "addr:country": "fr", "website": "https://www.dominos.fr/magasin/brie-comte-robert_77170", "brand": "Dominos Pizza France"}, "geometry": {"type": "Point", "coordinates": [2.609413, 48.693505]}},
{"type": "Feature", "id": "YuYSlMwTUl59vBxznqEJWuycH50=", "properties": {"ref": "corbeil-essonnes_91100", "@spider": "dominos_pizza_fr", "addr:full": "9 Rue De Paris", "addr:city": "CORBEIL-ESSONNES", "addr:postcode": "91100", "addr:country": "fr", "website": "https://www.dominos.fr/magasin/corbeil-essonnes_91100", "brand": "Dominos Pizza France"}, "geometry": {"type": "Point", "coordinates": [2.46774, 48.6045]}},
{"type": "Feature", "id": "3dxVAKDlZP_vsXu9VjO1bEjXKvE=", "properties": {"ref": "deuil-la-barre_95170", "@spider": "dominos_pizza_fr", "addr:full": "1 Et 3 Rue Nelson Mandela", "addr:city": "DEUIL-LA-BARRE", "addr:postcode": "95170", "addr:country": "fr", "website": "https://www.dominos.fr/magasin/deuil-la-barre_95170", "brand": "Dominos Pizza France"}, "geometry": {"type": "Point", "coordinates": [2.32589, 48.96232]}},
{"type": "Feature", "id": "fP5Y6ylmsGKKBQ9VUxYQCSrNbd8=", "properties": {"ref": "bourg-la-reine_92340", "@spider": "dominos_pizza_fr", "addr:full": "1 Avenue Du G\u00e9n\u00e9ral Leclerc", "addr:city": "BOURG-LA-REINE", "addr:postcode": "92340", "addr:country": "fr", "website": "https://www.dominos.fr/magasin/bourg-la-reine_92340", "brand": "Dominos Pizza France"}, "geometry": {"type": "Point", "coordinates": [2.31878, 48.7878]}},
{"type": "Feature", "id": "hSYfWgN88nAOFTnjpS1r0Jk1dfk=", "properties": {"ref": "boulogne-billancourt_92100", "@spider": "dominos_pizza_fr", "addr:full": "103 Avenue Victor Hugo", "addr:city": "BOULOGNE-BILLANCOURT", "addr:postcode": "92100", "addr:country": "fr", "website": "https://www.dominos.fr/magasin/boulogne-billancourt_92100", "brand": "Dominos Pizza France"}, "geometry": {"type": "Point", "coordinates": [2.2448, 48.8356]}},
{"type": "Feature", "id": "TkklSsJMNxHXgG7KnJYMaWVMxjs=", "properties": {"ref": "le-chesnay_78150", "@spider": "dominos_pizza_fr", "addr:full": "3 Avenue De Rocquencourt", "addr:city": "CHESNAY", "addr:postcode": "78150 LE", "addr:country": "fr", "website": "https://www.dominos.fr/magasin/le-chesnay_78150", "brand": "Dominos Pizza France"}, "geometry": {"type": "Point", "coordinates": [2.12795, 48.822]}},
{"type": "Feature", "id": "TLEehSsBC8_aNMSi4TK4rIsjdmY=", "properties": {"ref": "paris-20-belleville_75020", "@spider": "dominos_pizza_fr", "addr:full": "391 Rue Des Pyr\u00e9n\u00e9es", "addr:city": "PARIS", "addr:postcode": "75020", "addr:country": "fr", "website": "https://www.dominos.fr/magasin/paris-20-belleville_75020", "brand": "Dominos Pizza France"}, "geometry": {"type": "Point", "coordinates": [2.3885, 48.8738]}},
{"type": "Feature", "id": "62C_Nb-j7fK1nvdu1MIhjZLvUdk=", "properties": {"ref": "paris-5_75005", "@spider": "dominos_pizza_fr", "addr:full": "40 Boulevard Saint-Marcel", "addr:city": "PARIS", "addr:postcode": "75005", "addr:country": "fr", "website": "https://www.dominos.fr/magasin/paris-5_75005", "brand": "Dominos Pizza France"}, "geometry": {"type": "Point", "coordinates": [2.35701, 48.8384]}},
{"type": "Feature", "id": "5L-qjiN0L7IyfAhtOrU-0gWk8kI=", "properties": {"ref": "bezons_95870", "@spider": "dominos_pizza_fr", "addr:full": "82 Rue Edouard Vaillant", "addr:city": "BEZONS", "addr:postcode": "95870", "addr:country": "fr", "website": "https://www.dominos.fr/magasin/bezons_95870", "brand": "Dominos Pizza France"}, "geometry": {"type": "Point", "coordinates": [2.21306, 48.9263]}},
{"type": "Feature", "id": "zHr6rlWjo7W3SI26S37zanffg_I=", "properties": {"ref": "chatillon_92320", "@spider": "dominos_pizza_fr", "addr:full": "44 Avenue De Paris", "addr:city": "CH\u00c2TILLON", "addr:postcode": "92320", "addr:country": "fr", "website": "https://www.dominos.fr/magasin/chatillon_92320", "brand": "Dominos Pizza France"}, "geometry": {"type": "Point", "coordinates": [2.29182, 48.8059]}},
{"type": "Feature", "id": "OZ63tA8aGXWa7jABXGlr21IGlo8=", "properties": {"ref": "antony_92160", "@spider": "dominos_pizza_fr", "addr:full": "99 Avenue De La Division Leclerc", "addr:city": "ANTONY", "addr:postcode": "92160", "addr:country": "fr", "website": "https://www.dominos.fr/magasin/antony_92160", "brand": "Dominos Pizza France"}, "geometry": {"type": "Point", "coordinates": [2.30362, 48.74554]}},
{"type": "Feature", "id": "BmzR7r5off9tef4IB598ty6Nc3o=", "properties": {"ref": "nort-sur-erdre_44390", "@spider": "dominos_pizza_fr", "addr:full": "1 Place Du Champ De Foire", "addr:city": "NORT-SUR-ERDRE", "addr:postcode": "44390", "addr:country": "fr", "website": "https://www.dominos.fr/magasin/nort-sur-erdre_44390", "brand": "Dominos Pizza France"}, "geometry": {"type": "Point", "coordinates": [-1.500099, 47.4378]}},
{"type": "Feature", "id": "TqzMVSrA2h7AmqKiG6qHhwXtMlo=", "properties": {"ref": "nantes-est_44300", "@spider": "dominos_pizza_fr", "addr:full": "144 Boulevard Jules Verne", "addr:city": "NANTES", "addr:postcode": "44300", "addr:country": "fr", "website": "https://www.dominos.fr/magasin/nantes-est_44300", "brand": "Dominos Pizza France"}, "geometry": {"type": "Point", "coordinates": [-1.52631, 47.2442]}},
{"type": "Feature", "id": "Cbk2O-xA7hf2WCC42QkPGnwOxgQ=", "properties": {"ref": "arcueil_94110", "@spider": "dominos_pizza_fr", "addr:full": "109 Avenue Aristide Briand", "addr:city": "ARCUEIL", "addr:postcode": "94110", "addr:country": "fr", "website": "https://www.dominos.fr/magasin/arcueil_94110", "brand": "Dominos Pizza France"}, "geometry": {"type": "Point", "coordinates": [2.325895, 48.806266]}},
{"type": "Feature", "id": "ILK0tv00MDWnm_kzByVThIrpOsc=", "properties": {"ref": "alfortville_94140", "@spider": "dominos_pizza_fr", "addr:full": "26 Rue Charles De Gaulle", "addr:city": "Alfortville", "addr:postcode": "94140", "addr:country": "fr", "website": "https://www.dominos.fr/magasin/alfortville_94140", "brand": "Dominos Pizza France"}, "geometry": {"type": "Point", "coordinates": [2.414832, 48.814161]}},
{"type": "Feature", "id": "11fqkB7xRJvf3DaDZRbiEIESMhY=", "properties": {"ref": "argenteuil_95100", "@spider": "dominos_pizza_fr", "addr:full": "81 Rue Paul Vaillant Couturier", "addr:city": "ARGENTEUIL", "addr:postcode": "95100", "addr:country": "fr", "website": "https://www.dominos.fr/magasin/argenteuil_95100", "brand": "Dominos Pizza France"}, "geometry": {"type": "Point", "coordinates": [2.25009, 48.9439]}},
{"type": "Feature", "id": "oL907BL8RuOIHZiqQas1UFHqjwQ=", "properties": {"ref": "asnieres-sur-seine_92600", "@spider": "dominos_pizza_fr", "addr:full": "16 Rue De Colombes", "addr:city": "ASNIERES-SUR-SEINE", "addr:postcode": "92600", "addr:country": "fr", "website": "https://www.dominos.fr/magasin/asnieres-sur-seine_92600", "brand": "Dominos Pizza France"}, "geometry": {"type": "Point", "coordinates": [2.28128, 48.9137]}},
{"type": "Feature", "id": "hAyAtyI4uHyucBjrrwMDQseUEaI=", "properties": {"ref": "le-mans-maillets_72000", "@spider": "dominos_pizza_fr", "addr:full": "193 B Rue Des Maillets", "addr:city": "MANS", "addr:postcode": "72000 LE", "addr:country": "fr", "website": "https://www.dominos.fr/magasin/le-mans-maillets_72000", "brand": "Dominos Pizza France"}, "geometry": {"type": "Point", "coordinates": [0.214368, 48.016191]}},
{"type": "Feature", "id": "rKccaaTRd2rKaR4DW7MU8tXRn30=", "properties": {"ref": "les-herbiers_85500", "@spider": "dominos_pizza_fr", "addr:full": "49 Rue Brandon", "addr:city": "HERBIERS", "addr:postcode": "85500 LES", "addr:country": "fr", "website": "https://www.dominos.fr/magasin/les-herbiers_85500", "brand": "Dominos Pizza France"}, "geometry": {"type": "Point", "coordinates": [-1.017013, 46.870651]}},
{"type": "Feature", "id": "Qh2WAqHOanz2CuLAoDRmkVEC22U=", "properties": {"ref": "le-mans-jean-jaures_72000", "@spider": "dominos_pizza_fr", "addr:full": "25 Avenue Jean Jaur\u00e8s", "addr:city": "MANS", "addr:postcode": "72000 LE", "addr:country": "fr", "website": "https://www.dominos.fr/magasin/le-mans-jean-jaures_72000", "brand": "Dominos Pizza France"}, "geometry": {"type": "Point", "coordinates": [0.20434, 47.9927]}},
{"type": "Feature", "id": "b_UEswdRNkUowr-DY9GqLhm89BU=", "properties": {"ref": "le-mans-chasse-royale_72000", "@spider": "dominos_pizza_fr", "addr:full": "154 Rue Voltaire", "addr:city": "MANS", "addr:postcode": "72000 LE", "addr:country": "fr", "website": "https://www.dominos.fr/magasin/le-mans-chasse-royale_72000", "brand": "Dominos Pizza France"}, "geometry": {"type": "Point", "coordinates": [0.18749, 48.0138]}},
{"type": "Feature", "id": "mjKJjk5mMt1TmjB5yeG03-cANgE=", "properties": {"ref": "la-roche-sur-yon_85000", "@spider": "dominos_pizza_fr", "addr:full": "17 Rue Du Mar\u00e9chal Foch", "addr:city": "ROCHE-SUR-YON", "addr:postcode": "85000 LA", "addr:country": "fr", "website": "https://www.dominos.fr/magasin/la-roche-sur-yon_85000", "brand": "Dominos Pizza France"}, "geometry": {"type": "Point", "coordinates": [-1.42788, 46.673]}},
{"type": "Feature", "id": "Bvd6-2koZmKGtn_aIqTUli5hFjw=", "properties": {"ref": "guerande_44350", "@spider": "dominos_pizza_fr", "addr:full": "32 Boulevard Emile Pourieux", "addr:city": "GUERANDE", "addr:postcode": "44350", "addr:country": "fr", "website": "https://www.dominos.fr/magasin/guerande_44350", "brand": "Dominos Pizza France"}, "geometry": {"type": "Point", "coordinates": [-2.42628, 47.32904]}},
{"type": "Feature", "id": "Q9FWqsdM_sLJpN_kw6BmM1dXC9g=", "properties": {"ref": "la-chapelle-sur-erdre_44240", "@spider": "dominos_pizza_fr", "addr:full": "53 Rue Martin Luther King", "addr:city": "CHAPELLE-SUR-ERDRE", "addr:postcode": "44240 LA", "addr:country": "fr", "website": "https://www.dominos.fr/magasin/la-chapelle-sur-erdre_44240", "brand": "Dominos Pizza France"}, "geometry": {"type": "Point", "coordinates": [-1.552705, 47.295967]}},
{"type": "Feature", "id": "o28S6e9qyJ84PxaYBflSgAbDYKo=", "properties": {"ref": "fontenay-le-comte_85200", "@spider": "dominos_pizza_fr", "addr:full": "23 Rue Du Port", "addr:city": "COMTE", "addr:postcode": "85200 FONTENAY LE", "addr:country": "fr", "website": "https://www.dominos.fr/magasin/fontenay-le-comte_85200", "brand": "Dominos Pizza France"}, "geometry": {"type": "Point", "coordinates": [-0.8021, 46.464017]}},
{"type": "Feature", "id": "KQVAGBYbZCLViaYKagfU1fH3NP8=", "properties": {"ref": "cholet_49300", "@spider": "dominos_pizza_fr", "addr:full": "33 Avenue De La Lib\u00e9ration", "addr:city": "CHOLET", "addr:postcode": "49300", "addr:country": "fr", "website": "https://www.dominos.fr/magasin/cholet_49300", "brand": "Dominos Pizza France"}, "geometry": {"type": "Point", "coordinates": [-0.881952, 47.0532]}},
{"type": "Feature", "id": "qmlsY721RzsaRvRDMyr5KBmEIVc=", "properties": {"ref": "chateaubriant_44110", "@spider": "dominos_pizza_fr", "addr:full": "3 Rue De La Gare", "addr:city": "CHATEAUBRIANT", "addr:postcode": "44110", "addr:country": "fr", "website": "https://www.dominos.fr/magasin/chateaubriant_44110", "brand": "Dominos Pizza France"}, "geometry": {"type": "Point", "coordinates": [-1.37209, 47.71809]}},
{"type": "Feature", "id": "XDAlqAcBLLDxRld9L51SO9nwqiw=", "properties": {"ref": "challans_85300", "@spider": "dominos_pizza_fr", "addr:full": "57 Rue De St Jean De Monts", "addr:city": "CHALLANS", "addr:postcode": "85300", "addr:country": "fr", "website": "https://www.dominos.fr/magasin/challans_85300", "brand": "Dominos Pizza France"}, "geometry": {"type": "Point", "coordinates": [-1.890197, 46.84312]}},
{"type": "Feature", "id": "_nZm0Zx0OKN33HxV3vMQ_L8DcrU=", "properties": {"ref": "angers-patton_49100", "@spider": "dominos_pizza_fr", "addr:full": "76 Avenue Du G\u00e9n\u00e9ral Patton", "addr:city": "ANGERS", "addr:postcode": "49100", "addr:country": "fr", "website": "https://www.dominos.fr/magasin/angers-patton_49100", "brand": "Dominos Pizza France"}, "geometry": {"type": "Point", "coordinates": [-0.589187, 47.473464]}},
{"type": "Feature", "id": "p3SurVmd5WXHrc9hIfJcNg8xHVU=", "properties": {"ref": "angers-les-justices_49000", "@spider": "dominos_pizza_fr", "addr:full": "271 Rue Saumuroise", "addr:city": "ANGERS", "addr:postcode": "49000", "addr:country": "fr", "website": "https://www.dominos.fr/magasin/angers-les-justices_49000", "brand": "Dominos Pizza France"}, "geometry": {"type": "Point", "coordinates": [-0.526134, 47.4535]}},
{"type": "Feature", "id": "0sxzmKMAZkpvdUL59p4Z94N4uJg=", "properties": {"ref": "angers-chateau_49100", "@spider": "dominos_pizza_fr", "addr:full": "11 Place De L'acad\u00e9mie", "addr:city": "ANGERS", "addr:postcode": "49100", "addr:country": "fr", "website": "https://www.dominos.fr/magasin/angers-chateau_49100", "brand": "Dominos Pizza France"}, "geometry": {"type": "Point", "coordinates": [-0.55901, 47.4679]}},
{"type": "Feature", "id": "iPe_9ww_-o2rwI1E6Atl98OIRa0=", "properties": {"ref": "ancenis_44150", "@spider": "dominos_pizza_fr", "addr:full": "800 Blv Pasteur", "addr:city": "ANCENIS", "addr:postcode": "44150", "addr:country": "fr", "website": "https://www.dominos.fr/magasin/ancenis_44150", "brand": "Dominos Pizza France"}, "geometry": {"type": "Point", "coordinates": [-1.178765, 47.373272]}},
{"type": "Feature", "id": "64sfx9PGZFDNx8foL0E2RF-iPUU=", "properties": {"ref": "aigrefeuille_44140", "@spider": "dominos_pizza_fr", "addr:full": "4 Et 6 Rue Marie Curie", "addr:city": "AIGREFEUILLE", "addr:postcode": "44140", "addr:country": "fr", "website": "https://www.dominos.fr/magasin/aigrefeuille_44140", "brand": "Dominos Pizza France"}, "geometry": {"type": "Point", "coordinates": [-1.41261, 47.0817]}},
{"type": "Feature", "id": "C3b8eCWhGz23Uo8JeF8HodU5bQI=", "properties": {"ref": "coueron_44220", "@spider": "dominos_pizza_fr", "addr:full": "33 Boulevard Des Martyrs De La R\u00e9sistance", "addr:city": "COUERON", "addr:postcode": "44220", "addr:country": "fr", "website": "https://www.dominos.fr/magasin/coueron_44220", "brand": "Dominos Pizza France"}, "geometry": {"type": "Point", "coordinates": [-1.71377, 47.2126]}},
{"type": "Feature", "id": "EMdgXeT9uQHwYnpPQ2PMkyI8Y-8=", "properties": {"ref": "les-sables-d-olonne_85100", "@spider": "dominos_pizza_fr", "addr:full": "5 Place Louis Xi", "addr:city": "d'Olonne", "addr:postcode": "85100 Les Sables", "addr:country": "fr", "website": "https://www.dominos.fr/magasin/les-sables-d-olonne_85100", "brand": "Dominos Pizza France"}, "geometry": {"type": "Point", "coordinates": [-1.777256, 46.498352]}},
{"type": "Feature", "id": "qICgcXY-zKWfOWBhdRraneV5Ouk=", "properties": {"ref": "nantes-buat_44000", "@spider": "dominos_pizza_fr", "addr:full": "35 Rue Du G\u00e9n\u00e9ral Buat", "addr:city": "NANTES", "addr:postcode": "44000", "addr:country": "fr", "website": "https://www.dominos.fr/magasin/nantes-buat_44000", "brand": "Dominos Pizza France"}, "geometry": {"type": "Point", "coordinates": [-1.537751, 47.231937]}},
{"type": "Feature", "id": "Ti35mZAIrHqhdihTUYyc94zwgf8=", "properties": {"ref": "saint-etienne-bergson_42000", "@spider": "dominos_pizza_fr", "addr:full": "177 Bis Rue Bergson", "addr:city": "SAINT-ETIENNE", "addr:postcode": "42000", "addr:country": "fr", "website": "https://www.dominos.fr/magasin/saint-etienne-bergson_42000", "brand": "Dominos Pizza France"}, "geometry": {"type": "Point", "coordinates": [4.38085, 45.4615]}},
{"type": "Feature", "id": "FVrgUPhs75uHvQ5BkMwa4rKV0Tk=", "properties": {"ref": "nantes-centre_44000", "@spider": "dominos_pizza_fr", "addr:full": "31 Place Viarme", "addr:city": "NANTES", "addr:postcode": "44000", "addr:country": "fr", "website": "https://www.dominos.fr/magasin/nantes-centre_44000", "brand": "Dominos Pizza France"}, "geometry": {"type": "Point", "coordinates": [-1.56285, 47.2205]}},
{"type": "Feature", "id": "1dSMOpTT7waAkmWzgQGYEo3f714=", "properties": {"ref": "arpajon_91290", "@spider": "dominos_pizza_fr", "addr:full": "72 Grande Rue", "addr:city": "ARPAJON", "addr:postcode": "91290", "addr:country": "fr", "website": "https://www.dominos.fr/magasin/arpajon_91290", "brand": "Dominos Pizza France"}, "geometry": {"type": "Point", "coordinates": [2.24843, 48.590066]}},
{"type": "Feature", "id": "WniaYaYzfkMuxRNgzogkaAVb0sQ=", "properties": {"ref": "aulnay-sous-bois_93600", "@spider": "dominos_pizza_fr", "addr:full": "42 Bis Rue Jules Princet", "addr:city": "AULNAY-SOUS-BOIS", "addr:postcode": "93600", "addr:country": "fr", "website": "https://www.dominos.fr/magasin/aulnay-sous-bois_93600", "brand": "Dominos Pizza France"}, "geometry": {"type": "Point", "coordinates": [2.50074, 48.9378]}},
{"type": "Feature", "id": "1YLL6kohZYs6K4GmPgl7DOopa7o=", "properties": {"ref": "oullins_69600", "@spider": "dominos_pizza_fr", "addr:full": "9 Rue Pierre Semard", "addr:city": "OULLINS", "addr:postcode": "69600", "addr:country": "fr", "website": "https://www.dominos.fr/magasin/oullins_69600", "brand": "Dominos Pizza France"}, "geometry": {"type": "Point", "coordinates": [4.810402, 45.71735]}},
{"type": "Feature", "id": "uQkowG7jsBukIJnv3c6isD6I9Nw=", "properties": {"ref": "macon_71000", "@spider": "dominos_pizza_fr", "addr:full": "174 Quai Jean Jaures", "addr:city": "MACON", "addr:postcode": "71000", "addr:country": "fr", "website": "https://www.dominos.fr/magasin/macon_71000", "brand": "Dominos Pizza France"}, "geometry": {"type": "Point", "coordinates": [4.836869, 46.307787]}},
{"type": "Feature", "id": "QgX3aOQ4p3Ns9q7OCvNxnJhQiV8=", "properties": {"ref": "lyon-9_69009", "@spider": "dominos_pizza_fr", "addr:full": "36 Rue Marietton", "addr:city": "LYON", "addr:postcode": "69009", "addr:country": "fr", "website": "https://www.dominos.fr/magasin/lyon-9_69009", "brand": "Dominos Pizza France"}, "geometry": {"type": "Point", "coordinates": [4.80391, 45.77555]}},
{"type": "Feature", "id": "79IZlxn_enku0tOFE26t5XWYrDg=", "properties": {"ref": "lyon-8-mermoz_69008", "@spider": "dominos_pizza_fr", "addr:full": "25 Avenue Jean Mermoz", "addr:city": "LYON", "addr:postcode": "69008", "addr:country": "fr", "website": "https://www.dominos.fr/magasin/lyon-8-mermoz_69008", "brand": "Dominos Pizza France"}, "geometry": {"type": "Point", "coordinates": [4.866384, 45.733578]}},
{"type": "Feature", "id": "eAyuwzC7KgMa0vl5iuo0O9eJtHw=", "properties": {"ref": "rillieux-la-pape_69140", "@spider": "dominos_pizza_fr", "addr:full": "62 Avenue De L'europe", "addr:city": "RILLIEUX-LA-PAPE", "addr:postcode": "69140", "addr:country": "fr", "website": "https://www.dominos.fr/magasin/rillieux-la-pape_69140", "brand": "Dominos Pizza France"}, "geometry": {"type": "Point", "coordinates": [4.9038, 45.81806]}},
{"type": "Feature", "id": "lqikKCWfMxCCevPzCvt0AYdAQfA=", "properties": {"ref": "lyon-8-lumiere-monplaisir_69008", "@spider": "dominos_pizza_fr", "addr:full": "121 Avenue Des Fr\u00e8res Lumi\u00e8res", "addr:city": "LYON", "addr:postcode": "69008", "addr:country": "fr", "website": "https://www.dominos.fr/magasin/lyon-8-lumiere-monplaisir_69008", "brand": "Dominos Pizza France"}, "geometry": {"type": "Point", "coordinates": [4.87285, 45.7436]}},
{"type": "Feature", "id": "_Wh0-xdkarQSDwTRCCmE6AgTfoY=", "properties": {"ref": "lyon-7-sud_69007", "@spider": "dominos_pizza_fr", "addr:full": "22-24 Rue Simone De Beauvoir", "addr:city": "LYON", "addr:postcode": "69007", "addr:country": "fr", "website": "https://www.dominos.fr/magasin/lyon-7-sud_69007", "brand": "Dominos Pizza France"}, "geometry": {"type": "Point", "coordinates": [4.83392, 45.7363]}},
{"type": "Feature", "id": "V64Y3jC3iEuHSdk_o_SCHL0XZwE=", "properties": {"ref": "lyon-7-nord_69007", "@spider": "dominos_pizza_fr", "addr:full": "61 Rue Chevreul", "addr:city": "LYON", "addr:postcode": "69007", "addr:country": "fr", "website": "https://www.dominos.fr/magasin/lyon-7-nord_69007", "brand": "Dominos Pizza France"}, "geometry": {"type": "Point", "coordinates": [4.84149, 45.748]}},
{"type": "Feature", "id": "QJUQbld_hOPE0Cjz3c3Mz2AwxGY=", "properties": {"ref": "lyon-5_69005", "@spider": "dominos_pizza_fr", "addr:full": "129 Rue Joliot Curie", "addr:city": "LYON", "addr:postcode": "69005", "addr:country": "fr", "website": "https://www.dominos.fr/magasin/lyon-5_69005", "brand": "Dominos Pizza France"}, "geometry": {"type": "Point", "coordinates": [4.78481, 45.7544]}},
{"type": "Feature", "id": "MJh-MLVoy4hOuQarjPUq3LRyA4g=", "properties": {"ref": "lyon-6_69006", "@spider": "dominos_pizza_fr", "addr:full": "110 Rue Garibaldi", "addr:city": "LYON", "addr:postcode": "69006", "addr:country": "fr", "website": "https://www.dominos.fr/magasin/lyon-6_69006", "brand": "Dominos Pizza France"}, "geometry": {"type": "Point", "coordinates": [4.85065, 45.7665]}},
{"type": "Feature", "id": "6E7uI7E009QJTC46RlLM5dUmhcE=", "properties": {"ref": "lyon-3-ouest_69003", "@spider": "dominos_pizza_fr", "addr:full": "256 Rue Paul Bert", "addr:city": "LYON", "addr:postcode": "69003", "addr:country": "fr", "website": "https://www.dominos.fr/magasin/lyon-3-ouest_69003", "brand": "Dominos Pizza France"}, "geometry": {"type": "Point", "coordinates": [4.86838, 45.7566]}},
{"type": "Feature", "id": "MMG9xnxgZP0MCi6HnImSif3xrkE=", "properties": {"ref": "lyon-2-sud_69002", "@spider": "dominos_pizza_fr", "addr:full": "13 Cours Suchet", "addr:city": "LYON", "addr:postcode": "69002", "addr:country": "fr", "website": "https://www.dominos.fr/magasin/lyon-2-sud_69002", "brand": "Dominos Pizza France"}, "geometry": {"type": "Point", "coordinates": [4.82343, 45.7472]}},
{"type": "Feature", "id": "LWjRJZWqS_fUPZVUGCK42EketwA=", "properties": {"ref": "lyon-4-caluire_69300", "@spider": "dominos_pizza_fr", "addr:full": "7 Rue Des Margnolles", "addr:city": "CALUIRE-ET-CUIRE", "addr:postcode": "69300", "addr:country": "fr", "website": "https://www.dominos.fr/magasin/lyon-4-caluire_69300", "brand": "Dominos Pizza France"}, "geometry": {"type": "Point", "coordinates": [4.83369, 45.7824]}},
{"type": "Feature", "id": "nNYcVhJb1J4yP4ulJ4raHRYJdfA=", "properties": {"ref": "lyon-1-lyon-2-nord_69002", "@spider": "dominos_pizza_fr", "addr:full": "7 Rue Dubois", "addr:city": "LYON", "addr:postcode": "69002", "addr:country": "fr", "website": "https://www.dominos.fr/magasin/lyon-1-lyon-2-nord_69002", "brand": "Dominos Pizza France"}, "geometry": {"type": "Point", "coordinates": [4.83306, 45.7638]}},
{"type": "Feature", "id": "zpkmWcDwRZAuW6kzzwKexWD78V4=", "properties": {"ref": "saint-genis-laval_69230", "@spider": "dominos_pizza_fr", "addr:full": "35 Avenue Georges Cl\u00e9menceau", "addr:city": "LAVAL", "addr:postcode": "69230 SAINT GENIS", "addr:country": "fr", "website": "https://www.dominos.fr/magasin/saint-genis-laval_69230", "brand": "Dominos Pizza France"}, "geometry": {"type": "Point", "coordinates": [4.7934, 45.6956]}},
{"type": "Feature", "id": "TO-Upvgtb83Ngk_wA5aCKiUwnUI=", "properties": {"ref": "grenoble-jaures_38000", "@spider": "dominos_pizza_fr", "addr:full": "40 Cours Jean Jaur\u00e8s", "addr:city": "GRENOBLE", "addr:postcode": "38000", "addr:country": "fr", "website": "https://www.dominos.fr/magasin/grenoble-jaures_38000", "brand": "Dominos Pizza France"}, "geometry": {"type": "Point", "coordinates": [5.71923, 45.1892]}},
{"type": "Feature", "id": "nqL9FJbJOe85x1Gk-jQ6wzQroqA=", "properties": {"ref": "grenoble-jean-pain_38000", "@spider": "dominos_pizza_fr", "addr:full": "28 Place Paul Vallier", "addr:city": "GRENOBLE", "addr:postcode": "38000", "addr:country": "fr", "website": "https://www.dominos.fr/magasin/grenoble-jean-pain_38000", "brand": "Dominos Pizza France"}, "geometry": {"type": "Point", "coordinates": [5.73322, 45.186]}},
{"type": "Feature", "id": "YGNOb5-iVlbNPd5d2ZynhHEgD6k=", "properties": {"ref": "chambery_73000", "@spider": "dominos_pizza_fr", "addr:full": "570 Avenue De Turin", "addr:city": "CHAMBERY", "addr:postcode": "73000", "addr:country": "fr", "website": "https://www.dominos.fr/magasin/chambery_73000", "brand": "Dominos Pizza France"}, "geometry": {"type": "Point", "coordinates": [5.93704, 45.5704]}},
{"type": "Feature", "id": "hoYCQq9Bpg1O9kCk1tN91ws3C6M=", "properties": {"ref": "annemasse_74100", "@spider": "dominos_pizza_fr", "addr:full": "33 Rue Du Parc", "addr:city": "ANNEMASSE", "addr:postcode": "74100", "addr:country": "fr", "website": "https://www.dominos.fr/magasin/annemasse_74100", "brand": "Dominos Pizza France"}, "geometry": {"type": "Point", "coordinates": [6.22872, 46.1936]}},
{"type": "Feature", "id": "g9Fpro8PsRxLaM963MS0sLI7YoY=", "properties": {"ref": "craponne_69290", "@spider": "dominos_pizza_fr", "addr:full": "35 Avenue Edouard Millaud", "addr:city": "CRAPONNE", "addr:postcode": "69290", "addr:country": "fr", "website": "https://www.dominos.fr/magasin/craponne_69290", "brand": "Dominos Pizza France"}, "geometry": {"type": "Point", "coordinates": [4.733284, 45.747269]}},
{"type": "Feature", "id": "qtfsBCI6fI2n9WBWD73tT4oYrwk=", "properties": {"ref": "roanne_42300", "@spider": "dominos_pizza_fr", "addr:full": "64 Avenue De Paris", "addr:city": "ROANNE", "addr:postcode": "42300", "addr:country": "fr", "website": "https://www.dominos.fr/magasin/roanne_42300", "brand": "Dominos Pizza France"}, "geometry": {"type": "Point", "coordinates": [4.06997, 46.04624]}},
{"type": "Feature", "id": "0t3a6J92xLl5csVpJNSNQgIOix4=", "properties": {"ref": "saint-etienne-centre-deux_42000", "@spider": "dominos_pizza_fr", "addr:full": "82 Rue Du 11 Novembre", "addr:city": "SAINT-ETIENNE", "addr:postcode": "42000", "addr:country": "fr", "website": "https://www.dominos.fr/magasin/saint-etienne-centre-deux_42000", "brand": "Dominos Pizza France"}, "geometry": {"type": "Point", "coordinates": [4.3914, 45.4239]}},
{"type": "Feature", "id": "IjIu2r35Xql6Fw_EMoNUsQzjyC0=", "properties": {"ref": "bourgoin-jallieu_38300", "@spider": "dominos_pizza_fr", "addr:full": "51 Boulevard St Michel", "addr:city": "JALLIEU", "addr:postcode": "38300 BOURGOIN", "addr:country": "fr", "website": "https://www.dominos.fr/magasin/bourgoin-jallieu_38300", "brand": "Dominos Pizza France"}, "geometry": {"type": "Point", "coordinates": [5.274857, 45.589038]}},
{"type": "Feature", "id": "AVTyIZs1EVUUE_0c_YhGzu-7cHY=", "properties": {"ref": "beauvais_60000", "@spider": "dominos_pizza_fr", "addr:full": "28 Rue Jeanne D'arc", "addr:city": "Beauvais", "addr:postcode": "60000", "addr:country": "fr", "website": "https://www.dominos.fr/magasin/beauvais_60000", "brand": "Dominos Pizza France"}, "geometry": {"type": "Point", "coordinates": [2.08692, 49.432087]}},
{"type": "Feature", "id": "Ica-9mGuCCDNnsJ289mJlFpBv7w=", "properties": {"ref": "compiegne_60200", "@spider": "dominos_pizza_fr", "addr:full": "5 Rue De Clermont", "addr:city": "COMPIEGNE", "addr:postcode": "60200", "addr:country": "fr", "website": "https://www.dominos.fr/magasin/compiegne_60200", "brand": "Dominos Pizza France"}, "geometry": {"type": "Point", "coordinates": [2.81987, 49.4193]}},
{"type": "Feature", "id": "gatJ2tgkIH__eXe7Rop4IZRPeEs=", "properties": {"ref": "saint-priest_69800", "@spider": "dominos_pizza_fr", "addr:full": "42 Bis Rue Henri Mar\u00e9chal", "addr:city": "SAINT-PRIEST", "addr:postcode": "69800", "addr:country": "fr", "website": "https://www.dominos.fr/magasin/saint-priest_69800", "brand": "Dominos Pizza France"}, "geometry": {"type": "Point", "coordinates": [4.93955, 45.6927]}},
{"type": "Feature", "id": "HZ_1UD7qVkCg4uc1tLqTehqZvXE=", "properties": {"ref": "amiens-centre_80000", "@spider": "dominos_pizza_fr", "addr:full": "27 Place Alphonse Fiquet", "addr:city": "AMIENS", "addr:postcode": "80000", "addr:country": "fr", "website": "https://www.dominos.fr/magasin/amiens-centre_80000", "brand": "Dominos Pizza France"}, "geometry": {"type": "Point", "coordinates": [2.30736, 49.8904]}},
{"type": "Feature", "id": "BJojUJfz3stqtj7d0Fh_XHjJuiU=", "properties": {"ref": "nogent-sur-oise_60180", "@spider": "dominos_pizza_fr", "addr:full": "26 Rue Du Pont Royal", "addr:city": "OISE", "addr:postcode": "60180 NOGENT SUR", "addr:country": "fr", "website": "https://www.dominos.fr/magasin/nogent-sur-oise_60180", "brand": "Dominos Pizza France"}, "geometry": {"type": "Point", "coordinates": [2.472431, 49.268634]}},
{"type": "Feature", "id": "OTpowDNIEGHA4equkfopKpBqWlo=", "properties": {"ref": "amiens-dury_80000", "@spider": "dominos_pizza_fr", "addr:full": "2 Avenue Paul Claudel", "addr:city": "AMIENS", "addr:postcode": "80000", "addr:country": "fr", "website": "https://www.dominos.fr/magasin/amiens-dury_80000", "brand": "Dominos Pizza France"}, "geometry": {"type": "Point", "coordinates": [2.278891, 49.875259]}},
{"type": "Feature", "id": "MVU5WxCHjmaFR-DKk_TTx18JLS0=", "properties": {"ref": "riom_63200", "@spider": "dominos_pizza_fr", "addr:full": "19 Boulevard De La R\u00e9publique", "addr:city": "RIOM", "addr:postcode": "63200", "addr:country": "fr", "website": "https://www.dominos.fr/magasin/riom_63200", "brand": "Dominos Pizza France"}, "geometry": {"type": "Point", "coordinates": [3.109407, 45.89328]}},
{"type": "Feature", "id": "6fcBUHWBYUBPNimysI9GcFvyp_E=", "properties": {"ref": "abbeville_80100", "@spider": "dominos_pizza_fr", "addr:full": "26 - 28 Place Du Pilori", "addr:city": "ABBEVILLE", "addr:postcode": "80100", "addr:country": "fr", "website": "https://www.dominos.fr/magasin/abbeville_80100", "brand": "Dominos Pizza France"}, "geometry": {"type": "Point", "coordinates": [1.83605, 50.075]}},
{"type": "Feature", "id": "T1gFLXVvNaXLe6UBVdNsD6pySdQ=", "properties": {"ref": "annecy-centre_74000", "@spider": "dominos_pizza_fr", "addr:full": "24 Avenue Chamb\u00e9ry", "addr:city": "ANNECY", "addr:postcode": "74000", "addr:country": "fr", "website": "https://www.dominos.fr/magasin/annecy-centre_74000", "brand": "Dominos Pizza France"}, "geometry": {"type": "Point", "coordinates": [6.11599, 45.8981]}},
{"type": "Feature", "id": "vKw8-qASfdKlt1IgiPUW6QWK5BI=", "properties": {"ref": "montlucon_03100", "@spider": "dominos_pizza_fr", "addr:full": "32 Avenue De La R\u00e9publique", "addr:city": "MONTLUCON", "addr:postcode": "03100", "addr:country": "fr", "website": "https://www.dominos.fr/magasin/montlucon_03100", "brand": "Dominos Pizza France"}, "geometry": {"type": "Point", "coordinates": [2.598744, 46.344711]}},
{"type": "Feature", "id": "pZAUHJ37yxr8GO3puscFXAnZm0w=", "properties": {"ref": "clermont-ferrand-lafayette_63000", "@spider": "dominos_pizza_fr", "addr:full": "158 Boulevard Lafayette", "addr:city": "CLERMONT-FERRAND", "addr:postcode": "63000", "addr:country": "fr", "website": "https://www.dominos.fr/magasin/clermont-ferrand-lafayette_63000", "brand": "Dominos Pizza France"}, "geometry": {"type": "Point", "coordinates": [3.10806, 45.7661]}},
{"type": "Feature", "id": "N5Rhq5Avtf8n_uwQnUkbp4sv5NQ=", "properties": {"ref": "toulon-est_83000", "@spider": "dominos_pizza_fr", "addr:full": "7 Avenue Franklin Roosevelt", "addr:city": "TOULON", "addr:postcode": "83000", "addr:country": "fr", "website": "https://www.dominos.fr/magasin/toulon-est_83000", "brand": "Dominos Pizza France"}, "geometry": {"type": "Point", "coordinates": [5.94072, 43.121]}},
{"type": "Feature", "id": "GplyioZGZM_J5ZuNKpIwFhbuSb8=", "properties": {"ref": "clermont-ferrand-trudaine_63000", "@spider": "dominos_pizza_fr", "addr:full": "65 Boulevard Trudaine", "addr:city": "CLERMONT-FERRAND", "addr:postcode": "63000", "addr:country": "fr", "website": "https://www.dominos.fr/magasin/clermont-ferrand-trudaine_63000", "brand": "Dominos Pizza France"}, "geometry": {"type": "Point", "coordinates": [3.09023, 45.7771]}},
{"type": "Feature", "id": "zI4YrPE309LDFPs-hZL23XFsy00=", "properties": {"ref": "annecy-les-teppes_74000", "@spider": "dominos_pizza_fr", "addr:full": "Centre Commercial Des Teppes", "addr:city": "Maquis", "addr:postcode": "5 Place Des Rhododendrons (Chemin Du", "addr:country": "fr", "website": "https://www.dominos.fr/magasin/annecy-les-teppes_74000", "brand": "Dominos Pizza France"}, "geometry": {"type": "Point", "coordinates": [6.128647, 45.919281]}},
{"type": "Feature", "id": "Dq18Hn4WREShfMfGmgTU5EZhi6M=", "properties": {"ref": "nice-est_06000", "@spider": "dominos_pizza_fr", "addr:full": "14 Boulevard Riquier", "addr:city": "NICE", "addr:postcode": "06000", "addr:country": "fr", "website": "https://www.dominos.fr/magasin/nice-est_06000", "brand": "Dominos Pizza France"}, "geometry": {"type": "Point", "coordinates": [7.288398, 43.701474]}},
{"type": "Feature", "id": "vAMoFB9THteSOKTji9RG1U4o5tw=", "properties": {"ref": "marseille-8_13008", "@spider": "dominos_pizza_fr", "addr:full": "199 Avenue De Mazargues", "addr:city": "MARSEILLE", "addr:postcode": "13008", "addr:country": "fr", "website": "https://www.dominos.fr/magasin/marseille-8_13008", "brand": "Dominos Pizza France"}, "geometry": {"type": "Point", "coordinates": [5.39159, 43.2648]}},
{"type": "Feature", "id": "1cSorS67y9uQSzIBkkwiJQQtaa0=", "properties": {"ref": "nice_06000", "@spider": "dominos_pizza_fr", "addr:full": "77 Boulevard Gambetta", "addr:city": "NICE", "addr:postcode": "06000", "addr:country": "fr", "website": "https://www.dominos.fr/magasin/nice_06000", "brand": "Dominos Pizza France"}, "geometry": {"type": "Point", "coordinates": [7.255858, 43.702795]}},
{"type": "Feature", "id": "yZJe7JxvDYDlrrs7BkbQkNyGHnc=", "properties": {"ref": "salon-de-provence_13300", "@spider": "dominos_pizza_fr", "addr:full": "144 All\u00e9e De Craponne", "addr:city": "SALON-DE-PROVENCE", "addr:postcode": "13300", "addr:country": "fr", "website": "https://www.dominos.fr/magasin/salon-de-provence_13300", "brand": "Dominos Pizza France"}, "geometry": {"type": "Point", "coordinates": [5.099442, 43.63639]}},
{"type": "Feature", "id": "goyyu_4MM-m-yX03edMKWt-WnzE=", "properties": {"ref": "moulins_03000", "@spider": "dominos_pizza_fr", "addr:full": "24 Rue Du Pont", "addr:city": "MOULINS", "addr:postcode": "03000", "addr:country": "fr", "website": "https://www.dominos.fr/magasin/moulins_03000", "brand": "Dominos Pizza France"}, "geometry": {"type": "Point", "coordinates": [3.33251, 46.56441]}},
{"type": "Feature", "id": "71MlA4IVESBwVzFsj0UljXZnlFE=", "properties": {"ref": "marseille-5_13005", "@spider": "dominos_pizza_fr", "addr:full": "175 Boulevard Baille", "addr:city": "MARSEILLE", "addr:postcode": "13005", "addr:country": "fr", "website": "https://www.dominos.fr/magasin/marseille-5_13005", "brand": "Dominos Pizza France"}, "geometry": {"type": "Point", "coordinates": [5.39857, 43.2899]}},
{"type": "Feature", "id": "Ak50_8kN5zxJHc5bs1RthDWWJPI=", "properties": {"ref": "clermont-ferrand-fontaine_63100", "@spider": "dominos_pizza_fr", "addr:full": "Place De La Fontaine", "addr:city": "CLERMONT-FERRAND", "addr:postcode": "63100", "addr:country": "fr", "website": "https://www.dominos.fr/magasin/clermont-ferrand-fontaine_63100", "brand": "Dominos Pizza France"}, "geometry": {"type": "Point", "coordinates": [3.113215, 45.790903]}},
{"type": "Feature", "id": "FD2Mdvpgwb3mEev9PnTUklzwWoI=", "properties": {"ref": "cavaillon_84300", "@spider": "dominos_pizza_fr", "addr:full": "295 Avenue Georges Clemenceau", "addr:city": "CAVAILLON", "addr:postcode": "84300", "addr:country": "fr", "website": "https://www.dominos.fr/magasin/cavaillon_84300", "brand": "Dominos Pizza France"}, "geometry": {"type": "Point", "coordinates": [5.037942, 43.841171]}},
{"type": "Feature", "id": "14Fw6hc0PgGE26nAhz9jxO2pYtk=", "properties": {"ref": "valence_26000", "@spider": "dominos_pizza_fr", "addr:full": "20 Avenue Pierre S\u00e9mard", "addr:city": "VALENCE", "addr:postcode": "26000", "addr:country": "fr", "website": "https://www.dominos.fr/magasin/valence_26000", "brand": "Dominos Pizza France"}, "geometry": {"type": "Point", "coordinates": [4.891527, 44.928464]}},
{"type": "Feature", "id": "kPgUOu-dKH-jCIMxFOMi-soPOTs=", "properties": {"ref": "aix-en-provence-gambetta_13100", "@spider": "dominos_pizza_fr", "addr:full": "5 Cours Gambetta", "addr:city": "AIX-EN-PROVENCE", "addr:postcode": "13100", "addr:country": "fr", "website": "https://www.dominos.fr/magasin/aix-en-provence-gambetta_13100", "brand": "Dominos Pizza France"}, "geometry": {"type": "Point", "coordinates": [5.454734, 43.524792]}},
{"type": "Feature", "id": "01PyKlmm40Xg0d-Cn54Jvt224Wo=", "properties": {"ref": "avignon_84000", "@spider": "dominos_pizza_fr", "addr:full": "16 Bis Avenue Pierre S\u00e9mard", "addr:city": "AVIGNON", "addr:postcode": "84000", "addr:country": "fr", "website": "https://www.dominos.fr/magasin/avignon_84000", "brand": "Dominos Pizza France"}, "geometry": {"type": "Point", "coordinates": [4.81554, 43.94298]}},
{"type": "Feature", "id": "k2M58sqx3TsNW_yQ71e7v73Fnag=", "properties": {"ref": "la-seyne-sur-mer_83500", "@spider": "dominos_pizza_fr", "addr:full": "49 Rue Camille Pelletan", "addr:city": "SEYNE-SUR-MER", "addr:postcode": "83500 LA", "addr:country": "fr", "website": "https://www.dominos.fr/magasin/la-seyne-sur-mer_83500", "brand": "Dominos Pizza France"}, "geometry": {"type": "Point", "coordinates": [5.884235, 43.100697]}},
{"type": "Feature", "id": "3-fSxDx-OhqDQa--047OjGLc9Hw=", "properties": {"ref": "marseille-4_13004", "@spider": "dominos_pizza_fr", "addr:full": "33 Boulevard Philippon", "addr:city": "MARSEILLE", "addr:postcode": "13004", "addr:country": "fr", "website": "https://www.dominos.fr/magasin/marseille-4_13004", "brand": "Dominos Pizza France"}, "geometry": {"type": "Point", "coordinates": [5.396289, 43.302895]}},
{"type": "Feature", "id": "vrLwXHqGkiYMdRjqeHkq-TnW_do=", "properties": {"ref": "saint-lo-est_50000", "@spider": "dominos_pizza_fr", "addr:full": "107 Rue Mar\u00e9chal Delattre De Tassigny", "addr:city": "SAINT-LO", "addr:postcode": "50000", "addr:country": "fr", "website": "https://www.dominos.fr/magasin/saint-lo-est_50000", "brand": "Dominos Pizza France"}, "geometry": {"type": "Point", "coordinates": [-1.07743, 49.11193]}},
{"type": "Feature", "id": "qiRWBaeuc1hkXIzXFKS_8Bk0Vts=", "properties": {"ref": "aix-en-provence_13090", "@spider": "dominos_pizza_fr", "addr:full": "500 Route De Berre", "addr:city": "AIX-EN-PROVENCE", "addr:postcode": "13090", "addr:country": "fr", "website": "https://www.dominos.fr/magasin/aix-en-provence_13090", "brand": "Dominos Pizza France"}, "geometry": {"type": "Point", "coordinates": [5.41119, 43.53479]}},
{"type": "Feature", "id": "S7QD2x6-0_a8iQYUrcpL0SeUKDU=", "properties": {"ref": "flers_61100", "@spider": "dominos_pizza_fr", "addr:full": "18 Rue De Domfront", "addr:city": "FLERS", "addr:postcode": "61100", "addr:country": "fr", "website": "https://www.dominos.fr/magasin/flers_61100", "brand": "Dominos Pizza France"}, "geometry": {"type": "Point", "coordinates": [-0.56987, 48.74709]}},
{"type": "Feature", "id": "ma5JcvesIlnTs0lGLnnTyQAR_R8=", "properties": {"ref": "cherbourg-equeurdreville_50120", "@spider": "dominos_pizza_fr", "addr:full": "43 Rue Gambetta", "addr:city": "COTENTIN", "addr:postcode": "50120 CHERBOURG EN", "addr:country": "fr", "website": "https://www.dominos.fr/magasin/cherbourg-equeurdreville_50120", "brand": "Dominos Pizza France"}, "geometry": {"type": "Point", "coordinates": [-1.646462, 49.647315]}},
{"type": "Feature", "id": "xOm7IX9c2lDPAgVBeiKFggE2n8Q=", "properties": {"ref": "coutances_50200", "@spider": "dominos_pizza_fr", "addr:full": "8 Boulevard D'alsace Lorraine", "addr:city": "COUTANCES", "addr:postcode": "50200", "addr:country": "fr", "website": "https://www.dominos.fr/magasin/coutances_50200", "brand": "Dominos Pizza France"}, "geometry": {"type": "Point", "coordinates": [-1.444744, 49.051334]}},
{"type": "Feature", "id": "FbMnW4neKQ06c7HsDFwSpx8KoH8=", "properties": {"ref": "granville_50400", "@spider": "dominos_pizza_fr", "addr:full": "5 Place Alsace Lorraine", "addr:city": "GRANVILLE", "addr:postcode": "50400", "addr:country": "fr", "website": "https://www.dominos.fr/magasin/granville_50400", "brand": "Dominos Pizza France"}, "geometry": {"type": "Point", "coordinates": [-1.58506, 48.838258]}},
{"type": "Feature", "id": "1Xn281pB075iRkTUeb8bU7RVuYE=", "properties": {"ref": "caen-clemenceau_14000", "@spider": "dominos_pizza_fr", "addr:full": "143 Avenue Du G\u00e9n\u00e9ral Cl\u00e9menceau", "addr:city": "CAEN", "addr:postcode": "14000", "addr:country": "fr", "website": "https://www.dominos.fr/magasin/caen-clemenceau_14000", "brand": "Dominos Pizza France"}, "geometry": {"type": "Point", "coordinates": [-0.342945, 49.1907]}},
{"type": "Feature", "id": "Ds3xLrIVnvYTOUWdIEHcx3Ms_5w=", "properties": {"ref": "caen-falaise_14000", "@spider": "dominos_pizza_fr", "addr:full": "114 Rue De Falaise", "addr:city": "CAEN", "addr:postcode": "14000", "addr:country": "fr", "website": "https://www.dominos.fr/magasin/caen-falaise_14000", "brand": "Dominos Pizza France"}, "geometry": {"type": "Point", "coordinates": [-0.352309, 49.1687]}},
{"type": "Feature", "id": "k9NI0zT8wzOPs4-s2IbjBJOTq88=", "properties": {"ref": "cherbourg-octeville_50100", "@spider": "dominos_pizza_fr", "addr:full": "23 Rue Du Val De Saire", "addr:city": "CHERBOURG-OCTEVILLE", "addr:postcode": "50100", "addr:country": "fr", "website": "https://www.dominos.fr/magasin/cherbourg-octeville_50100", "brand": "Dominos Pizza France"}, "geometry": {"type": "Point", "coordinates": [-1.6179, 49.63901]}},
{"type": "Feature", "id": "nVDMWrc2zRzMxf8VyT-5rDftzuE=", "properties": {"ref": "strasbourg-la-marne_67000", "@spider": "dominos_pizza_fr", "addr:full": "13 Boulevard De La Marne", "addr:city": "STRASBOURG", "addr:postcode": "67000", "addr:country": "fr", "website": "https://www.dominos.fr/magasin/strasbourg-la-marne_67000", "brand": "Dominos Pizza France"}, "geometry": {"type": "Point", "coordinates": [7.77325, 48.5841]}},
{"type": "Feature", "id": "vMCI4qP_AXjoU5FwKUUSOwKrEEo=", "properties": {"ref": "alencon_61000", "@spider": "dominos_pizza_fr", "addr:full": "82 Rue De Bretagne", "addr:city": "ALENCON", "addr:postcode": "61000", "addr:country": "fr", "website": "https://www.dominos.fr/magasin/alencon_61000", "brand": "Dominos Pizza France"}, "geometry": {"type": "Point", "coordinates": [0.076088, 48.431977]}},
{"type": "Feature", "id": "9gdYK-v0ht58KqEVZ_Te2DGFjf4=", "properties": {"ref": "selestat_67600", "@spider": "dominos_pizza_fr", "addr:full": "32 Route De Strasbourg", "addr:city": "SELESTAT", "addr:postcode": "67600", "addr:country": "fr", "website": "https://www.dominos.fr/magasin/selestat_67600", "brand": "Dominos Pizza France"}, "geometry": {"type": "Point", "coordinates": [7.456201, 48.267501]}},
{"type": "Feature", "id": "9tmbcNJDeQ-zlkHE_sic3jvMkf8=", "properties": {"ref": "strasbourg-koenigshoffen_67200", "@spider": "dominos_pizza_fr", "addr:full": "69 Route Des Romains", "addr:city": "KOENIGSHOFFEN", "addr:postcode": "67200", "addr:country": "fr", "website": "https://www.dominos.fr/magasin/strasbourg-koenigshoffen_67200", "brand": "Dominos Pizza France"}, "geometry": {"type": "Point", "coordinates": [7.71233, 48.5787]}},
{"type": "Feature", "id": "riR3h-dsGiREua654j5JQwCrGYo=", "properties": {"ref": "schiltigheim_67300", "@spider": "dominos_pizza_fr", "addr:full": "49 Rue De Mundolsheim", "addr:city": "SCHILTIGHEIM", "addr:postcode": "67300", "addr:country": "fr", "website": "https://www.dominos.fr/magasin/schiltigheim_67300", "brand": "Dominos Pizza France"}, "geometry": {"type": "Point", "coordinates": [7.745, 48.602]}},
{"type": "Feature", "id": "pJw4GukfHzheqLmIZDPJ6X5vbLc=", "properties": {"ref": "schiltigheim-bischheim_67300", "@spider": "dominos_pizza_fr", "addr:full": "103 Route De Bischwiller", "addr:city": "SCHILTIGHEIM", "addr:postcode": "67300", "addr:country": "fr", "website": "https://www.dominos.fr/magasin/schiltigheim-bischheim_67300", "brand": "Dominos Pizza France"}, "geometry": {"type": "Point", "coordinates": [7.75093, 48.61167]}},
{"type": "Feature", "id": "0mJuTSTH10zYVwFfC0IHyLEx5Xg=", "properties": {"ref": "rixheim_68170", "@spider": "dominos_pizza_fr", "addr:full": "29 D Rue De Mulhouse", "addr:city": "RIXHEIM", "addr:postcode": "68170", "addr:country": "fr", "website": "https://www.dominos.fr/magasin/rixheim_68170", "brand": "Dominos Pizza France"}, "geometry": {"type": "Point", "coordinates": [7.40103, 47.75182]}},
{"type": "Feature", "id": "unoiBt0UjqLND2P3beAM79X5-qg=", "properties": {"ref": "mulhouse-franklin_68200", "@spider": "dominos_pizza_fr", "addr:full": "44 Rue Franklin", "addr:city": "MULHOUSE", "addr:postcode": "68200", "addr:country": "fr", "website": "https://www.dominos.fr/magasin/mulhouse-franklin_68200", "brand": "Dominos Pizza France"}, "geometry": {"type": "Point", "coordinates": [7.333224, 47.751614]}},
{"type": "Feature", "id": "Q86pt14dPnf-B981tw0hxQZBec8=", "properties": {"ref": "morschwiller_68790", "@spider": "dominos_pizza_fr", "addr:full": "69A Rue De Mulhouse", "addr:city": "MORSCHWILLER-LE-BAS", "addr:postcode": "68790", "addr:country": "fr", "website": "https://www.dominos.fr/magasin/morschwiller_68790", "brand": "Dominos Pizza France"}, "geometry": {"type": "Point", "coordinates": [7.297, 47.7382]}},
{"type": "Feature", "id": "0QmYzpcmmaVOOyEu3_pe6h1avmc=", "properties": {"ref": "mulhouse-pasteur_68200", "@spider": "dominos_pizza_fr", "addr:full": "3 Rue Louis Pasteur", "addr:city": "MULHOUSE", "addr:postcode": "68200", "addr:country": "fr", "website": "https://www.dominos.fr/magasin/mulhouse-pasteur_68200", "brand": "Dominos Pizza France"}, "geometry": {"type": "Point", "coordinates": [7.34217, 47.7478]}},
{"type": "Feature", "id": "hbMNm969icclDBVTCc79QgTw8ts=", "properties": {"ref": "kingersheim_68260", "@spider": "dominos_pizza_fr", "addr:full": "163 Faubourg De Mulhouse", "addr:city": "KINGERSHEIM", "addr:postcode": "68260", "addr:country": "fr", "website": "https://www.dominos.fr/magasin/kingersheim_68260", "brand": "Dominos Pizza France"}, "geometry": {"type": "Point", "coordinates": [7.33701, 47.8005]}},
{"type": "Feature", "id": "A8Aqw16ASlSVWP609kqgawDWY38=", "properties": {"ref": "hesingue_68220", "@spider": "dominos_pizza_fr", "addr:full": "39 Rue De St Louis", "addr:city": "HESINGUE", "addr:postcode": "68220", "addr:country": "fr", "website": "https://www.dominos.fr/magasin/hesingue_68220", "brand": "Dominos Pizza France"}, "geometry": {"type": "Point", "coordinates": [7.52908, 47.57731]}},
{"type": "Feature", "id": "xaka1MHIVrcI-9EEyEk-GS5IM_g=", "properties": {"ref": "chelles_77500", "@spider": "dominos_pizza_fr", "addr:full": "17 Rue Auguste Meunier", "addr:city": "CHELLES", "addr:postcode": "77500", "addr:country": "fr", "website": "https://www.dominos.fr/magasin/chelles_77500", "brand": "Dominos Pizza France"}, "geometry": {"type": "Point", "coordinates": [2.58938, 48.8722]}},
{"type": "Feature", "id": "IqY7kgcOjJDFzv7brFc8sFQ13Bg=", "properties": {"ref": "colmar_68000", "@spider": "dominos_pizza_fr", "addr:full": "3A Route D'ingersheim", "addr:city": "COLMAR", "addr:postcode": "68000", "addr:country": "fr", "website": "https://www.dominos.fr/magasin/colmar_68000", "brand": "Dominos Pizza France"}, "geometry": {"type": "Point", "coordinates": [7.3527, 48.082]}},
{"type": "Feature", "id": "m0EjDyszDter5BXCt9XfVN3mT0c=", "properties": {"ref": "illkirch-graffenstaden_67400", "@spider": "dominos_pizza_fr", "addr:full": "97 Route De Lyon", "addr:city": "ILLKIRCH-GRAFFENSTADEN", "addr:postcode": "67400", "addr:country": "fr", "website": "https://www.dominos.fr/magasin/illkirch-graffenstaden_67400", "brand": "Dominos Pizza France"}, "geometry": {"type": "Point", "coordinates": [7.72113, 48.5331]}},
{"type": "Feature", "id": "UVLTvOSbD7gDBHLb-N-50gtOnjg=", "properties": {"ref": "saint-medard-en-jalles_33160", "@spider": "dominos_pizza_fr", "addr:full": "111 Avenue Montaigne", "addr:city": "JALLES", "addr:postcode": "33160 SAINT MEDARD EN", "addr:country": "fr", "website": "https://www.dominos.fr/magasin/saint-medard-en-jalles_33160", "brand": "Dominos Pizza France"}, "geometry": {"type": "Point", "coordinates": [-0.707849, 44.890926]}},
{"type": "Feature", "id": "e97TjVT597p7KqfjA7a9UFp4urc=", "properties": {"ref": "cernay_68700", "@spider": "dominos_pizza_fr", "addr:full": "La Croisi\u00e8re De Cernay", "addr:city": "D'alsace", "addr:postcode": "1 Avenue", "addr:country": "fr", "website": "https://www.dominos.fr/magasin/cernay_68700", "brand": "Dominos Pizza France"}, "geometry": {"type": "Point", "coordinates": [7.17152, 47.7934]}},
{"type": "Feature", "id": "KZvuTgVbOCg9foBusoswy4aIsyg=", "properties": {"ref": "perigueux_24000", "@spider": "dominos_pizza_fr", "addr:full": "60 Avenue Du Mar\u00e9chal Juin", "addr:city": "PERIGUEUX", "addr:postcode": "24000", "addr:country": "fr", "website": "https://www.dominos.fr/magasin/perigueux_24000", "brand": "Dominos Pizza France"}, "geometry": {"type": "Point", "coordinates": [0.71224, 45.185448]}},
{"type": "Feature", "id": "pMwIAxM3dUBW66zGlehrCir1Huw=", "properties": {"ref": "haguenau_67500", "@spider": "dominos_pizza_fr", "addr:full": "8 Boulevard Du 2\u00c8me R\u00e9giment De Dragons", "addr:city": "HAGUENAU", "addr:postcode": "67500", "addr:country": "fr", "website": "https://www.dominos.fr/magasin/haguenau_67500", "brand": "Dominos Pizza France"}, "geometry": {"type": "Point", "coordinates": [7.78533, 48.8114]}},
{"type": "Feature", "id": "OtGxQ_LaXnWexWxvi2LGHtms18k=", "properties": {"ref": "caen-bayeux_14000", "@spider": "dominos_pizza_fr", "addr:full": "228 Rue De Bayeux", "addr:city": "CAEN", "addr:postcode": "14000", "addr:country": "fr", "website": "https://www.dominos.fr/magasin/caen-bayeux_14000", "brand": "Dominos Pizza France"}, "geometry": {"type": "Point", "coordinates": [-0.395493, 49.1851]}},
{"type": "Feature", "id": "4b7BGwJtAkAz6BdyZu_JDauaqfo=", "properties": {"ref": "lisieux_14100", "@spider": "dominos_pizza_fr", "addr:full": "61 Boulevard Saint-Anne", "addr:city": "LISIEUX", "addr:postcode": "14100", "addr:country": "fr", "website": "https://www.dominos.fr/magasin/lisieux_14100", "brand": "Dominos Pizza France"}, "geometry": {"type": "Point", "coordinates": [0.22161, 49.14373]}},
{"type": "Feature", "id": "TvSTGEnRkvkp9JdGzbfffztrr_g=", "properties": {"ref": "gujan-mestras_33470", "@spider": "dominos_pizza_fr", "addr:full": "102 Cours De Verdun", "addr:city": "MESTRAS", "addr:postcode": "33470 GUJAN", "addr:country": "fr", "website": "https://www.dominos.fr/magasin/gujan-mestras_33470", "brand": "Dominos Pizza France"}, "geometry": {"type": "Point", "coordinates": [-1.08123, 44.63648]}},
{"type": "Feature", "id": "MO_fa-LGNlF64N7sQLJ65aP_ilQ=", "properties": {"ref": "le-bouscat_33110", "@spider": "dominos_pizza_fr", "addr:full": "5 Boulevard Pierre 1Er", "addr:city": "BOUSCAT", "addr:postcode": "33110 LE", "addr:country": "fr", "website": "https://www.dominos.fr/magasin/le-bouscat_33110", "brand": "Dominos Pizza France"}, "geometry": {"type": "Point", "coordinates": [-0.5934, 44.85415]}},
{"type": "Feature", "id": "xocL07CAWrlP0uvuvRM9SM9jC0s=", "properties": {"ref": "mont-de-marsan_40000", "@spider": "dominos_pizza_fr", "addr:full": "370 Avenue Du Mar\u00e9chal Juin", "addr:city": "MONT-DE-MARSAN", "addr:postcode": "40000", "addr:country": "fr", "website": "https://www.dominos.fr/magasin/mont-de-marsan_40000", "brand": "Dominos Pizza France"}, "geometry": {"type": "Point", "coordinates": [-0.484067, 43.900005]}},
{"type": "Feature", "id": "VwKAsdPYERaBOAY59462XkgCP_k=", "properties": {"ref": "bordeaux-begles_33130", "@spider": "dominos_pizza_fr", "addr:full": "84 Rue Chevalier De La Barre", "addr:city": "BEGLES", "addr:postcode": "33130", "addr:country": "fr", "website": "https://www.dominos.fr/magasin/bordeaux-begles_33130", "brand": "Dominos Pizza France"}, "geometry": {"type": "Point", "coordinates": [-0.54615, 44.8029]}},
{"type": "Feature", "id": "YWb1_DkX6f1JLRBNE9hL7p4_2iU=", "properties": {"ref": "parthenay_79200", "@spider": "dominos_pizza_fr", "addr:full": "25 Avenue Du 114\u00c8me R\u00e9giment", "addr:city": "PARTHENAY", "addr:postcode": "79200", "addr:country": "fr", "website": "https://www.dominos.fr/magasin/parthenay_79200", "brand": "Dominos Pizza France"}, "geometry": {"type": "Point", "coordinates": [-0.252017, 46.645236]}},
{"type": "Feature", "id": "XM2fv3E62RuAzFy8FA7iOtxHah0=", "properties": {"ref": "pau_64000", "@spider": "dominos_pizza_fr", "addr:full": "57 Ter Boulevard Alsace Lorraine", "addr:city": "PAU", "addr:postcode": "64000", "addr:country": "fr", "website": "https://www.dominos.fr/magasin/pau_64000", "brand": "Dominos Pizza France"}, "geometry": {"type": "Point", "coordinates": [-0.367927, 43.30434]}},
{"type": "Feature", "id": "CtiSfpS9x6O4nndpULanpKSm1o4=", "properties": {"ref": "bordeaux-pessac_33600", "@spider": "dominos_pizza_fr", "addr:full": "61 Avenue Jean Jaur\u00e8s", "addr:city": "PESSAC", "addr:postcode": "33600", "addr:country": "fr", "website": "https://www.dominos.fr/magasin/bordeaux-pessac_33600", "brand": "Dominos Pizza France"}, "geometry": {"type": "Point", "coordinates": [-0.624055, 44.8088]}},
{"type": "Feature", "id": "zIH9ao8Qzk2lV3vIVvMpM9PvhTs=", "properties": {"ref": "bordeaux-saint-seurin_33000", "@spider": "dominos_pizza_fr", "addr:full": "4 Rue Capdeville", "addr:city": "BORDEAUX", "addr:postcode": "33000", "addr:country": "fr", "website": "https://www.dominos.fr/magasin/bordeaux-saint-seurin_33000", "brand": "Dominos Pizza France"}, "geometry": {"type": "Point", "coordinates": [-0.5869, 44.8437]}},
{"type": "Feature", "id": "shy1wAoy2VPXDedqX4IpqUWzOLg=", "properties": {"ref": "dax_40100", "@spider": "dominos_pizza_fr", "addr:full": "104 Avenue St Vincent De Paul", "addr:city": "DAX", "addr:postcode": "40100", "addr:country": "fr", "website": "https://www.dominos.fr/magasin/dax_40100", "brand": "Dominos Pizza France"}, "geometry": {"type": "Point", "coordinates": [-1.00662, 43.74431]}},
{"type": "Feature", "id": "2qLSoNCH4ixKBqqlVlZOAzU3quQ=", "properties": {"ref": "bordeaux-cenon_33150", "@spider": "dominos_pizza_fr", "addr:full": "14 Rue Camille Pelletan", "addr:city": "CENON", "addr:postcode": "33150", "addr:country": "fr", "website": "https://www.dominos.fr/magasin/bordeaux-cenon_33150", "brand": "Dominos Pizza France"}, "geometry": {"type": "Point", "coordinates": [-0.519406, 44.862926]}},
{"type": "Feature", "id": "0u_Fyx4FtK07f6hbjRGGSlfd3UY=", "properties": {"ref": "agen_47000", "@spider": "dominos_pizza_fr", "addr:full": "29 Place Du 14 Juillet", "addr:city": "AGEN", "addr:postcode": "47000", "addr:country": "fr", "website": "https://www.dominos.fr/magasin/agen_47000", "brand": "Dominos Pizza France"}, "geometry": {"type": "Point", "coordinates": [0.626544, 44.204132]}},
{"type": "Feature", "id": "PmzvZUWF7hT_xriCNsGENjYg3QQ=", "properties": {"ref": "bordeaux-chartrons_33000", "@spider": "dominos_pizza_fr", "addr:full": "7 Quai De Bacalan", "addr:city": "BORDEAUX", "addr:postcode": "33000", "addr:country": "fr", "website": "https://www.dominos.fr/magasin/bordeaux-chartrons_33000", "brand": "Dominos Pizza France"}, "geometry": {"type": "Point", "coordinates": [-0.561158, 44.857]}},
{"type": "Feature", "id": "X5sYHmE4t6xpa-CQPBc88G4EmG4=", "properties": {"ref": "rouen-centre_76000", "@spider": "dominos_pizza_fr", "addr:full": "100 Rue De La R\u00e9publique", "addr:city": "ROUEN", "addr:postcode": "76000", "addr:country": "fr", "website": "https://www.dominos.fr/magasin/rouen-centre_76000", "brand": "Dominos Pizza France"}, "geometry": {"type": "Point", "coordinates": [1.098478, 49.442214]}},
{"type": "Feature", "id": "AV0aiVwqopiVyOHYs91UqAnaBlA=", "properties": {"ref": "bordeaux-barriere-saint-genes_33000", "@spider": "dominos_pizza_fr", "addr:full": "9 Place Louis Barthou", "addr:city": "BORDEAUX", "addr:postcode": "33000", "addr:country": "fr", "website": "https://www.dominos.fr/magasin/bordeaux-barriere-saint-genes_33000", "brand": "Dominos Pizza France"}, "geometry": {"type": "Point", "coordinates": [-0.5828, 44.82154]}},
{"type": "Feature", "id": "ON1jDHZzcSD4qTH5dHC__AgGDgk=", "properties": {"ref": "bordeaux-eysines_33320", "@spider": "dominos_pizza_fr", "addr:full": "65 Avenue De L'hippodrome", "addr:city": "EYSINES", "addr:postcode": "33320", "addr:country": "fr", "website": "https://www.dominos.fr/magasin/bordeaux-eysines_33320", "brand": "Dominos Pizza France"}, "geometry": {"type": "Point", "coordinates": [-0.629345, 44.874]}},
{"type": "Feature", "id": "LI3birqKaIfKFlc1DETygdx3rjc=", "properties": {"ref": "le-mesnil-esnard_76240", "@spider": "dominos_pizza_fr", "addr:full": "57 Route De Paris", "addr:city": "MESNIL-ESNARD", "addr:postcode": "76240 LE", "addr:country": "fr", "website": "https://www.dominos.fr/magasin/le-mesnil-esnard_76240", "brand": "Dominos Pizza France"}, "geometry": {"type": "Point", "coordinates": [1.14382, 49.40927]}},
{"type": "Feature", "id": "UxR39yY4f0S38kpSJhDde5OK9uU=", "properties": {"ref": "le-havre-gare_76600", "@spider": "dominos_pizza_fr", "addr:full": "132 Cours De La R\u00e9publique", "addr:city": "HAVRE", "addr:postcode": "76600 LE", "addr:country": "fr", "website": "https://www.dominos.fr/magasin/le-havre-gare_76600", "brand": "Dominos Pizza France"}, "geometry": {"type": "Point", "coordinates": [0.12893, 49.4986]}},
{"type": "Feature", "id": "ay5zovcCpYVDczavSKV9WYhmxUU=", "properties": {"ref": "evreux_27000", "@spider": "dominos_pizza_fr", "addr:full": "41 Boulevard Gambetta", "addr:city": "EVREUX", "addr:postcode": "27000", "addr:country": "fr", "website": "https://www.dominos.fr/magasin/evreux_27000", "brand": "Dominos Pizza France"}, "geometry": {"type": "Point", "coordinates": [1.14911, 49.01916]}},
{"type": "Feature", "id": "WQe4yOa_8lzwtcOwXtRAd09UOqw=", "properties": {"ref": "bordeaux-merignac_33700", "@spider": "dominos_pizza_fr", "addr:full": "39 Bis Avenue De L'yser", "addr:city": "MERIGNAC", "addr:postcode": "33700", "addr:country": "fr", "website": "https://www.dominos.fr/magasin/bordeaux-merignac_33700", "brand": "Dominos Pizza France"}, "geometry": {"type": "Point", "coordinates": [-0.653744, 44.8413]}},
{"type": "Feature", "id": "npG-LE6ucIII989PEGBSVsZwl3o=", "properties": {"ref": "cagnes-sur-mer_06800", "@spider": "dominos_pizza_fr", "addr:full": "9 Avenue Cyrille Besset", "addr:city": "CAGNES-SUR-MER", "addr:postcode": "06800", "addr:country": "fr", "website": "https://www.dominos.fr/magasin/cagnes-sur-mer_06800", "brand": "Dominos Pizza France"}, "geometry": {"type": "Point", "coordinates": [7.154543, 43.66463]}},
{"type": "Feature", "id": "FHMGqUpGimw8mFeFw-91K8ILjdQ=", "properties": {"ref": "vern-sur-seiche_35770", "@spider": "dominos_pizza_fr", "addr:full": "5 Rue De La Lib\u00e9ration", "addr:city": "VERN-SUR-SEICHE", "addr:postcode": "35770", "addr:country": "fr", "website": "https://www.dominos.fr/magasin/vern-sur-seiche_35770", "brand": "Dominos Pizza France"}, "geometry": {"type": "Point", "coordinates": [-1.60555, 48.04864]}},
{"type": "Feature", "id": "uKhljTJeyDWtlk3o0lV5JiDMmdM=", "properties": {"ref": "elbeuf_76500", "@spider": "dominos_pizza_fr", "addr:full": "6 Rue Des Martyrs", "addr:city": "ELBEUF", "addr:postcode": "76500", "addr:country": "fr", "website": "https://www.dominos.fr/magasin/elbeuf_76500", "brand": "Dominos Pizza France"}, "geometry": {"type": "Point", "coordinates": [1.006206, 49.288734]}},
{"type": "Feature", "id": "8BO1EhRJbO3TROT38RN0ZQTWAhw=", "properties": {"ref": "vannes-la-paix_56000", "@spider": "dominos_pizza_fr", "addr:full": "51 Boulevard De La Paix", "addr:city": "VANNES", "addr:postcode": "56000", "addr:country": "fr", "website": "https://www.dominos.fr/magasin/vannes-la-paix_56000", "brand": "Dominos Pizza France"}, "geometry": {"type": "Point", "coordinates": [-2.75322, 47.6601]}},
{"type": "Feature", "id": "RKvevdYfQuKw5SBTDSQ6A06TX3I=", "properties": {"ref": "vannes-menimur_56000", "@spider": "dominos_pizza_fr", "addr:full": "60 Avenue Paul C\u00e9zanne", "addr:city": "VANNES", "addr:postcode": "56000", "addr:country": "fr", "website": "https://www.dominos.fr/magasin/vannes-menimur_56000", "brand": "Dominos Pizza France"}, "geometry": {"type": "Point", "coordinates": [-2.769682, 47.674182]}},
{"type": "Feature", "id": "oQv8sWXu8U3m_6PbDzTpPYc4WAg=", "properties": {"ref": "marseille-7_13007", "@spider": "dominos_pizza_fr", "addr:full": "44 Boulevard De La Corderie", "addr:city": "MARSEILLE", "addr:postcode": "13007", "addr:country": "fr", "website": "https://www.dominos.fr/magasin/marseille-7_13007", "brand": "Dominos Pizza France"}, "geometry": {"type": "Point", "coordinates": [5.370315, 43.290504]}},
{"type": "Feature", "id": "g141d6tFX3dp5Hme4_zdlwiqduw=", "properties": {"ref": "gueret_23000", "@spider": "dominos_pizza_fr", "addr:full": "16 Avenue De Berry", "addr:city": "GUERET", "addr:postcode": "23000", "addr:country": "fr", "website": "https://www.dominos.fr/magasin/gueret_23000", "brand": "Dominos Pizza France"}, "geometry": {"type": "Point", "coordinates": [1.875333, 46.176166]}},
{"type": "Feature", "id": "Vkna-3qYtPbN_qLEdlajZDPMaG0=", "properties": {"ref": "saint-malo-la-madeleine_35400", "@spider": "dominos_pizza_fr", "addr:full": "46 Rue Du G\u00e9n\u00e9ral Patton", "addr:city": "SAINT-MALO", "addr:postcode": "35400", "addr:country": "fr", "website": "https://www.dominos.fr/magasin/saint-malo-la-madeleine_35400", "brand": "Dominos Pizza France"}, "geometry": {"type": "Point", "coordinates": [-1.994756, 48.622227]}},
{"type": "Feature", "id": "DR5bTRhbT7o6IO7DkuhK953KsdQ=", "properties": {"ref": "saint-malo-gare_35400", "@spider": "dominos_pizza_fr", "addr:full": "24 Bd Des Talards", "addr:city": "SAINT-MALO", "addr:postcode": "35400", "addr:country": "fr", "website": "https://www.dominos.fr/magasin/saint-malo-gare_35400", "brand": "Dominos Pizza France"}, "geometry": {"type": "Point", "coordinates": [-2.00861, 48.64582]}},
{"type": "Feature", "id": "Jw0gKlaNFxVAhFk9sDQAnmirNNI=", "properties": {"ref": "saint-gregoire_35760", "@spider": "dominos_pizza_fr", "addr:full": "15 Route De Saint-Malo-La-Brosse", "addr:city": "SAINT-GREGOIRE", "addr:postcode": "35760", "addr:country": "fr", "website": "https://www.dominos.fr/magasin/saint-gregoire_35760", "brand": "Dominos Pizza France"}, "geometry": {"type": "Point", "coordinates": [-1.721992, 48.177238]}},
{"type": "Feature", "id": "rWBly52IJF4HndRJk6pUpTs3cl0=", "properties": {"ref": "saint-brieuc-les-villages_22000", "@spider": "dominos_pizza_fr", "addr:full": "80 Rue Th\u00e9odule Ribot", "addr:city": "SAINT-BRIEUC", "addr:postcode": "22000", "addr:country": "fr", "website": "https://www.dominos.fr/magasin/saint-brieuc-les-villages_22000", "brand": "Dominos Pizza France"}, "geometry": {"type": "Point", "coordinates": [-2.783495, 48.518669]}},
{"type": "Feature", "id": "ZA2uk0OsPz482KJOKdXg7gKy0Qg=", "properties": {"ref": "saint-malo-parame_35400", "@spider": "dominos_pizza_fr", "addr:full": "2 Place Georges Coudray", "addr:city": "SAINT-MALO", "addr:postcode": "35400", "addr:country": "fr", "website": "https://www.dominos.fr/magasin/saint-malo-parame_35400", "brand": "Dominos Pizza France"}, "geometry": {"type": "Point", "coordinates": [-1.982624, 48.657744]}},
{"type": "Feature", "id": "NouSzMBP-Zd7mGkcRA8lTuaIRbs=", "properties": {"ref": "thorigne-fouillard_35235", "@spider": "dominos_pizza_fr", "addr:full": "2 Rue Beaumanoir", "addr:city": "THORIGNE-FOUILLARD", "addr:postcode": "35235", "addr:country": "fr", "website": "https://www.dominos.fr/magasin/thorigne-fouillard_35235", "brand": "Dominos Pizza France"}, "geometry": {"type": "Point", "coordinates": [-1.58001, 48.15394]}},
{"type": "Feature", "id": "6o3gbRt6MbbVL8wKz8xYcUTnVsw=", "properties": {"ref": "saint-brieuc-beaufeuillage_22000", "@spider": "dominos_pizza_fr", "addr:full": "2 Rue De Paris", "addr:city": "SAINT-BRIEUC", "addr:postcode": "22000", "addr:country": "fr", "website": "https://www.dominos.fr/magasin/saint-brieuc-beaufeuillage_22000", "brand": "Dominos Pizza France"}, "geometry": {"type": "Point", "coordinates": [-2.74416, 48.5053]}},
{"type": "Feature", "id": "56Mzn3i9xlfcww23HS0W2-HYxqA=", "properties": {"ref": "rennes-ouest_35000", "@spider": "dominos_pizza_fr", "addr:full": "90 Rue De Saint Brieuc", "addr:city": "RENNES", "addr:postcode": "35000", "addr:country": "fr", "website": "https://www.dominos.fr/magasin/rennes-ouest_35000", "brand": "Dominos Pizza France"}, "geometry": {"type": "Point", "coordinates": [-1.70698, 48.1151]}},
{"type": "Feature", "id": "_Tbw-q0VPNKOLM6jYh6WOlI4Hs4=", "properties": {"ref": "rennes-centre_35000", "@spider": "dominos_pizza_fr", "addr:full": "3 Rue De St Malo", "addr:city": "RENNES", "addr:postcode": "35000", "addr:country": "fr", "website": "https://www.dominos.fr/magasin/rennes-centre_35000", "brand": "Dominos Pizza France"}, "geometry": {"type": "Point", "coordinates": [-1.68085, 48.1171]}},
{"type": "Feature", "id": "UfwolYza4iAMxRmWEAXjO5ijc9I=", "properties": {"ref": "rennes-nord_35000", "@spider": "dominos_pizza_fr", "addr:full": "258 Bis Rue De Foug\u00e8res", "addr:city": "RENNES", "addr:postcode": "35000", "addr:country": "fr", "website": "https://www.dominos.fr/magasin/rennes-nord_35000", "brand": "Dominos Pizza France"}, "geometry": {"type": "Point", "coordinates": [-1.647713, 48.128395]}},
{"type": "Feature", "id": "U9-RJuGazU2gIheoV8Es4XhUVLM=", "properties": {"ref": "rennes-sud_35200", "@spider": "dominos_pizza_fr", "addr:full": "34 Rue Sully Prud'homme", "addr:city": "RENNES", "addr:postcode": "35200", "addr:country": "fr", "website": "https://www.dominos.fr/magasin/rennes-sud_35200", "brand": "Dominos Pizza France"}, "geometry": {"type": "Point", "coordinates": [-1.66754, 48.0939]}},
{"type": "Feature", "id": "RSb_iZPmMNMwP9uyWjoAaqKKhyY=", "properties": {"ref": "vannes-la-marne_56000", "@spider": "dominos_pizza_fr", "addr:full": "9 Avenue De La Marne", "addr:city": "VANNES", "addr:postcode": "56000", "addr:country": "fr", "website": "https://www.dominos.fr/magasin/vannes-la-marne_56000", "brand": "Dominos Pizza France"}, "geometry": {"type": "Point", "coordinates": [-2.77465, 47.65915]}},
{"type": "Feature", "id": "q8_E_vuDiTKSHhkwOf89juMhHoQ=", "properties": {"ref": "quimper-kerfeunten_29000", "@spider": "dominos_pizza_fr", "addr:full": "12 Avenue De La France Libre", "addr:city": "QUIMPER", "addr:postcode": "29000", "addr:country": "fr", "website": "https://www.dominos.fr/magasin/quimper-kerfeunten_29000", "brand": "Dominos Pizza France"}, "geometry": {"type": "Point", "coordinates": [-4.09824, 48.0041]}},
{"type": "Feature", "id": "jwEg4JWrTrZDmoUg0boPGBNvXt8=", "properties": {"ref": "pontivy_56300", "@spider": "dominos_pizza_fr", "addr:full": "47 Rue Albert De Mun", "addr:city": "PONTIVY", "addr:postcode": "56300", "addr:country": "fr", "website": "https://www.dominos.fr/magasin/pontivy_56300", "brand": "Dominos Pizza France"}, "geometry": {"type": "Point", "coordinates": [-2.96034, 48.05447]}},
{"type": "Feature", "id": "_LvnVo_ZvomcdyCprIAdFUlYFpQ=", "properties": {"ref": "pontchateau_44160", "@spider": "dominos_pizza_fr", "addr:full": "13 Rue De Nantes", "addr:city": "PONTCHATEAU", "addr:postcode": "44160", "addr:country": "fr", "website": "https://www.dominos.fr/magasin/pontchateau_44160", "brand": "Dominos Pizza France"}, "geometry": {"type": "Point", "coordinates": [-2.090407, 47.437021]}},
{"type": "Feature", "id": "7Lk57eYZL546-oCG8mFSmm2kW6A=", "properties": {"ref": "dieppe_76200", "@spider": "dominos_pizza_fr", "addr:full": "8-12-14 Quai Duquesne", "addr:city": "DIEPPE", "addr:postcode": "76200", "addr:country": "fr", "website": "https://www.dominos.fr/magasin/dieppe_76200", "brand": "Dominos Pizza France"}, "geometry": {"type": "Point", "coordinates": [1.0807, 49.92489]}},
{"type": "Feature", "id": "IJIke-ZadSz3bvZTChf-c1ANmCU=", "properties": {"ref": "ploufragan_22440", "@spider": "dominos_pizza_fr", "addr:full": "3 Bis Rue Du Calvaire", "addr:city": "PLOUFRAGAN", "addr:postcode": "22440", "addr:country": "fr", "website": "https://www.dominos.fr/magasin/ploufragan_22440", "brand": "Dominos Pizza France"}, "geometry": {"type": "Point", "coordinates": [-2.79226, 48.49112]}},
{"type": "Feature", "id": "raR9PQ8BQxRrUqs4w_WdULLzwZk=", "properties": {"ref": "noyal-sur-vilaine_35530", "@spider": "dominos_pizza_fr", "addr:full": "28 Avenue Du G\u00e9n\u00e9ral De Gaulle", "addr:city": "VILAINE", "addr:postcode": "35530 NOYAL SUR", "addr:country": "fr", "website": "https://www.dominos.fr/magasin/noyal-sur-vilaine_35530", "brand": "Dominos Pizza France"}, "geometry": {"type": "Point", "coordinates": [-1.524474, 48.109668]}},
{"type": "Feature", "id": "VHLRq5po1AQuTaNaMDY8vxfBcFM=", "properties": {"ref": "pace_35740", "@spider": "dominos_pizza_fr", "addr:full": "3 Place Saint-M\u00e9laine", "addr:city": "PACE", "addr:postcode": "35740", "addr:country": "fr", "website": "https://www.dominos.fr/magasin/pace_35740", "brand": "Dominos Pizza France"}, "geometry": {"type": "Point", "coordinates": [-1.77253, 48.14752]}},
{"type": "Feature", "id": "S4yBV3Nzhpvb2XgDtIup7XhEqqI=", "properties": {"ref": "mordelles_35310", "@spider": "dominos_pizza_fr", "addr:full": "16 Place Saint-Pierre", "addr:city": "Mordelles", "addr:postcode": "35310", "addr:country": "fr", "website": "https://www.dominos.fr/magasin/mordelles_35310", "brand": "Dominos Pizza France"}, "geometry": {"type": "Point", "coordinates": [-1.84994, 48.07209]}},
{"type": "Feature", "id": "_5_OJqlF3tiLms3W9Fa3HNM4CrQ=", "properties": {"ref": "ploermel_56800", "@spider": "dominos_pizza_fr", "addr:full": "28 Rue Du Val", "addr:city": "PLOERMEL", "addr:postcode": "56800", "addr:country": "fr", "website": "https://www.dominos.fr/magasin/ploermel_56800", "brand": "Dominos Pizza France"}, "geometry": {"type": "Point", "coordinates": [-2.398799, 47.934904]}},
{"type": "Feature", "id": "FKTfe8sRtbM2zZ94bWjXFMmKMI0=", "properties": {"ref": "melesse_35520", "@spider": "dominos_pizza_fr", "addr:full": "2 Rue De Rennes", "addr:city": "MELESSE", "addr:postcode": "35520", "addr:country": "fr", "website": "https://www.dominos.fr/magasin/melesse_35520", "brand": "Dominos Pizza France"}, "geometry": {"type": "Point", "coordinates": [-1.69734, 48.21695]}},
{"type": "Feature", "id": "wToJVVdonQp37kzMp4f2BJfUQCM=", "properties": {"ref": "quimper-frugy-locmaria_29000", "@spider": "dominos_pizza_fr", "addr:full": "34 Rue De Benodet", "addr:city": "QUIMPER", "addr:postcode": "29000", "addr:country": "fr", "website": "https://www.dominos.fr/magasin/quimper-frugy-locmaria_29000", "brand": "Dominos Pizza France"}, "geometry": {"type": "Point", "coordinates": [-4.107662, 47.987274]}},
{"type": "Feature", "id": "hRTCka5hYQOdcZrEZGzaRDWHCEk=", "properties": {"ref": "montfort-sur-meu_35160", "@spider": "dominos_pizza_fr", "addr:full": "46 Rue Saint-Nicolas", "addr:city": "MONTFORT-SUR-MEU", "addr:postcode": "35160", "addr:country": "fr", "website": "https://www.dominos.fr/magasin/montfort-sur-meu_35160", "brand": "Dominos Pizza France"}, "geometry": {"type": "Point", "coordinates": [-1.95246, 48.13853]}},
{"type": "Feature", "id": "0W5O9n3b4uEV61rRx2Nags21Nt0=", "properties": {"ref": "morlaix_29600", "@spider": "dominos_pizza_fr", "addr:full": "2 Bis Route De Paris", "addr:city": "MORLAIX", "addr:postcode": "29600", "addr:country": "fr", "website": "https://www.dominos.fr/magasin/morlaix_29600", "brand": "Dominos Pizza France"}, "geometry": {"type": "Point", "coordinates": [-3.820851, 48.576151]}},
{"type": "Feature", "id": "BZZtgobEFjWeiBiJ1AkHw25BnvE=", "properties": {"ref": "le-rheu_35650", "@spider": "dominos_pizza_fr", "addr:full": "3 Rue De Ch\u00e2tel", "addr:city": "RHEU", "addr:postcode": "35650 LE", "addr:country": "fr", "website": "https://www.dominos.fr/magasin/le-rheu_35650", "brand": "Dominos Pizza France"}, "geometry": {"type": "Point", "coordinates": [-1.793493, 48.100257]}},
{"type": "Feature", "id": "pG7StRHPkl1WTv1CBhPcAryqRtc=", "properties": {"ref": "lorient-keryado_56100", "@spider": "dominos_pizza_fr", "addr:full": "80 Rue Du Colonel Jean Muller", "addr:city": "LORIENT", "addr:postcode": "56100", "addr:country": "fr", "website": "https://www.dominos.fr/magasin/lorient-keryado_56100", "brand": "Dominos Pizza France"}, "geometry": {"type": "Point", "coordinates": [-3.39614, 47.763715]}},
{"type": "Feature", "id": "nIH_uL6sBicPi3peALx5HpcnypU=", "properties": {"ref": "lanester_56600", "@spider": "dominos_pizza_fr", "addr:full": "83 Rue Jean Jaures", "addr:city": "LANESTER", "addr:postcode": "56600", "addr:country": "fr", "website": "https://www.dominos.fr/magasin/lanester_56600", "brand": "Dominos Pizza France"}, "geometry": {"type": "Point", "coordinates": [-3.358756, 47.765335]}},
{"type": "Feature", "id": "HVyHzP_whQ-TvqgwIb2s5CHgarw=", "properties": {"ref": "loudeac_22600", "@spider": "dominos_pizza_fr", "addr:full": "36 Boulevard Victor Etienne", "addr:city": "LOUDEAC", "addr:postcode": "22600", "addr:country": "fr", "website": "https://www.dominos.fr/magasin/loudeac_22600", "brand": "Dominos Pizza France"}, "geometry": {"type": "Point", "coordinates": [-2.74987, 48.17246]}},
{"type": "Feature", "id": "nTfm_-OQZKngR4LlkBoLuWkpU3I=", "properties": {"ref": "lannion_22300", "@spider": "dominos_pizza_fr", "addr:full": "6 Bis Quai Des Viarmes", "addr:city": "Lannion", "addr:postcode": "22300", "addr:country": "fr", "website": "https://www.dominos.fr/magasin/lannion_22300", "brand": "Dominos Pizza France"}, "geometry": {"type": "Point", "coordinates": [-3.46463, 48.73232]}},
{"type": "Feature", "id": "jvmuwDl04khOx1UdAJAdkTGSkBM=", "properties": {"ref": "lamballe_22400", "@spider": "dominos_pizza_fr", "addr:full": "19 Boulevard Jobert", "addr:city": "lamballe", "addr:postcode": "22400", "addr:country": "fr", "website": "https://www.dominos.fr/magasin/lamballe_22400", "brand": "Dominos Pizza France"}, "geometry": {"type": "Point", "coordinates": [-2.5126, 48.46649]}},
{"type": "Feature", "id": "D-IejctVPiK4eVhqIWBVqJb42EQ=", "properties": {"ref": "landerneau_29800", "@spider": "dominos_pizza_fr", "addr:full": "21 Rue De La Tour D'auvergne", "addr:city": "LANDERNEAU", "addr:postcode": "29800", "addr:country": "fr", "website": "https://www.dominos.fr/magasin/landerneau_29800", "brand": "Dominos Pizza France"}, "geometry": {"type": "Point", "coordinates": [-4.248516, 48.451436]}},
{"type": "Feature", "id": "4hIugNaXa9E-oNjZ0PouYYHapho=", "properties": {"ref": "la-guerche-de-bretagne_35130", "@spider": "dominos_pizza_fr", "addr:full": "1 Promenade Du Grand Mail", "addr:city": "GUERCHE-DE-BRETAGNE", "addr:postcode": "35130 LA", "addr:country": "fr", "website": "https://www.dominos.fr/magasin/la-guerche-de-bretagne_35130", "brand": "Dominos Pizza France"}, "geometry": {"type": "Point", "coordinates": [-1.23245, 47.94265]}},
{"type": "Feature", "id": "-fjFw68f5ANijhpxqLp_U6FzMsg=", "properties": {"ref": "lorient_56100", "@spider": "dominos_pizza_fr", "addr:full": "39 Rue Kerjulaude", "addr:city": "LORIENT", "addr:postcode": "56100", "addr:country": "fr", "website": "https://www.dominos.fr/magasin/lorient_56100", "brand": "Dominos Pizza France"}, "geometry": {"type": "Point", "coordinates": [-3.38116, 47.7437]}},
{"type": "Feature", "id": "PfpQILLhXkN-ftcHtQj0cmcQ9uM=", "properties": {"ref": "laille_35890", "@spider": "dominos_pizza_fr", "addr:full": "4 Rue De L'h\u00f4tel De Ville", "addr:city": "LAILLE", "addr:postcode": "35890", "addr:country": "fr", "website": "https://www.dominos.fr/magasin/laille_35890", "brand": "Dominos Pizza France"}, "geometry": {"type": "Point", "coordinates": [-1.72191, 47.97815]}},
{"type": "Feature", "id": "D067hahLxKYimSQLe9p8lJ9qOAk=", "properties": {"ref": "redon_35600", "@spider": "dominos_pizza_fr", "addr:full": "14 Rue Victor Hugo", "addr:city": "REDON", "addr:postcode": "35600", "addr:country": "fr", "website": "https://www.dominos.fr/magasin/redon_35600", "brand": "Dominos Pizza France"}, "geometry": {"type": "Point", "coordinates": [-2.086741, 47.65089]}},
{"type": "Feature", "id": "nYEdOkjrCd0Pz3kAoeHhBKxih5k=", "properties": {"ref": "hennebont_56700", "@spider": "dominos_pizza_fr", "addr:full": "11 Avenue De La Lib\u00e9ration", "addr:city": "HENNEBONT", "addr:postcode": "56700", "addr:country": "fr", "website": "https://www.dominos.fr/magasin/hennebont_56700", "brand": "Dominos Pizza France"}, "geometry": {"type": "Point", "coordinates": [-3.278176, 47.804302]}},
{"type": "Feature", "id": "uXXgspL7XQwRGs8NrlNfuWv9Qr0=", "properties": {"ref": "guingamp_22200", "@spider": "dominos_pizza_fr", "addr:full": "3 Bd Cl\u00e9menceau", "addr:city": "GUINGAMP", "addr:postcode": "22200", "addr:country": "fr", "website": "https://www.dominos.fr/magasin/guingamp_22200", "brand": "Dominos Pizza France"}, "geometry": {"type": "Point", "coordinates": [-3.14421, 48.55812]}},
{"type": "Feature", "id": "baY3HYyopqdmpqIknHcHu3mdDqI=", "properties": {"ref": "guichen_35580", "@spider": "dominos_pizza_fr", "addr:city": "Edet", "addr:postcode": "19 Boulevard Victor", "addr:country": "fr", "website": "https://www.dominos.fr/magasin/guichen_35580", "brand": "Dominos Pizza France"}, "geometry": {"type": "Point", "coordinates": [-1.798508, 47.968219]}},
{"type": "Feature", "id": "fLbhe6gIG1EC8vQbr3i46ZQ-DA0=", "properties": {"ref": "janze_35150", "@spider": "dominos_pizza_fr", "addr:full": "24 Bis Rue De Bain", "addr:city": "Janz", "addr:postcode": "35150", "addr:country": "fr", "website": "https://www.dominos.fr/magasin/janze_35150", "brand": "Dominos Pizza France"}, "geometry": {"type": "Point", "coordinates": [-1.500248, 47.956301]}},
{"type": "Feature", "id": "M_Ym6atlEvPVZpakyaiQ2sFZKio=", "properties": {"ref": "dinard_35800", "@spider": "dominos_pizza_fr", "addr:full": "23 Bd F\u00e9ard", "addr:city": "DINARD", "addr:postcode": "35800", "addr:country": "fr", "website": "https://www.dominos.fr/magasin/dinard_35800", "brand": "Dominos Pizza France"}, "geometry": {"type": "Point", "coordinates": [-2.054711, 48.633229]}},
{"type": "Feature", "id": "qL85VUMEpTjTUUqzwCu8FrGHEWw=", "properties": {"ref": "le-havre-plage_76600", "@spider": "dominos_pizza_fr", "addr:full": "42/44 Boulevard Albert 1Er", "addr:city": "HAVRE", "addr:postcode": "76600 LE", "addr:country": "fr", "website": "https://www.dominos.fr/magasin/le-havre-plage_76600", "brand": "Dominos Pizza France"}, "geometry": {"type": "Point", "coordinates": [0.092553, 49.4973]}},
{"type": "Feature", "id": "mwbjaVZXm95r1RGpydhe6RLlBZI=", "properties": {"ref": "dinan_22100", "@spider": "dominos_pizza_fr", "addr:full": "6 Bis Rue De Brest", "addr:city": "DINAN", "addr:postcode": "22100", "addr:country": "fr", "website": "https://www.dominos.fr/magasin/dinan_22100", "brand": "Dominos Pizza France"}, "geometry": {"type": "Point", "coordinates": [-2.05158, 48.45392]}},
{"type": "Feature", "id": "he7RBFRdiX9VpVeNyyOq6q4zdg4=", "properties": {"ref": "chateaugiron_35410", "@spider": "dominos_pizza_fr", "addr:full": "13 Rue De Rennes", "addr:city": "CHATEAUGIRON", "addr:postcode": "35410", "addr:country": "fr", "website": "https://www.dominos.fr/magasin/chateaugiron_35410", "brand": "Dominos Pizza France"}, "geometry": {"type": "Point", "coordinates": [-1.51105, 48.05318]}},
{"type": "Feature", "id": "cA0W7Pr9SAeybJLj_4SRLWignHQ=", "properties": {"ref": "concarneau_29900", "@spider": "dominos_pizza_fr", "addr:full": "18 Avenue De La Gare", "addr:city": "CONCARNEAU", "addr:postcode": "29900", "addr:country": "fr", "website": "https://www.dominos.fr/magasin/concarneau_29900", "brand": "Dominos Pizza France"}, "geometry": {"type": "Point", "coordinates": [-3.918939, 47.875281]}},
{"type": "Feature", "id": "MPFxIJcIU8bgSzt43F5P0nqW30k=", "properties": {"ref": "chateaubourg_35220", "@spider": "dominos_pizza_fr", "addr:full": "16 Rue De Paris", "addr:city": "Chateaubourg", "addr:postcode": "35220", "addr:country": "fr", "website": "https://www.dominos.fr/magasin/chateaubourg_35220", "brand": "Dominos Pizza France"}, "geometry": {"type": "Point", "coordinates": [-1.40263, 48.10896]}},
{"type": "Feature", "id": "_S7sp2Yv8sZBegHjVTWFdkhfxCU=", "properties": {"ref": "cesson-sevigne_35510", "@spider": "dominos_pizza_fr", "addr:full": "9 Rue De Rennes", "addr:city": "CESSON-SEVIGNE", "addr:postcode": "35510", "addr:country": "fr", "website": "https://www.dominos.fr/magasin/cesson-sevigne_35510", "brand": "Dominos Pizza France"}, "geometry": {"type": "Point", "coordinates": [-1.61139, 48.1142]}},
{"type": "Feature", "id": "m2neO7yfEqWGtfsHGXfU1wThMlQ=", "properties": {"ref": "dol-de-bretagne_35120", "@spider": "dominos_pizza_fr", "addr:full": "4 Place Toulliers", "addr:city": "BRETAGNE", "addr:postcode": "35120 DOL DE", "addr:country": "fr", "website": "https://www.dominos.fr/magasin/dol-de-bretagne_35120", "brand": "Dominos Pizza France"}, "geometry": {"type": "Point", "coordinates": [-1.75689, 48.5493]}},
{"type": "Feature", "id": "YPDiEcYorx-H8aeGqawmjls8fdQ=", "properties": {"ref": "brest-coataudon_29490", "@spider": "dominos_pizza_fr", "addr:full": "127 Boulevard De Coataudon", "addr:city": "GUIPAVAS", "addr:postcode": "29490", "addr:country": "fr", "website": "https://www.dominos.fr/magasin/brest-coataudon_29490", "brand": "Dominos Pizza France"}, "geometry": {"type": "Point", "coordinates": [-4.44397, 48.4137]}},
{"type": "Feature", "id": "ECD5k_zU3vqbujvHewO3pRIozuw=", "properties": {"ref": "brest-rive-gauche_29200", "@spider": "dominos_pizza_fr", "addr:full": "Place Albert 1Er", "addr:city": "BREST", "addr:postcode": "29200", "addr:country": "fr", "website": "https://www.dominos.fr/magasin/brest-rive-gauche_29200", "brand": "Dominos Pizza France"}, "geometry": {"type": "Point", "coordinates": [-4.48892, 48.3975]}},
{"type": "Feature", "id": "HCjRFYmHaRawdouonYGFqNctlj4=", "properties": {"ref": "brest-rive-droite_29200", "@spider": "dominos_pizza_fr", "addr:full": "Place De La Porte", "addr:city": "BREST", "addr:postcode": "29200", "addr:country": "fr", "website": "https://www.dominos.fr/magasin/brest-rive-droite_29200", "brand": "Dominos Pizza France"}, "geometry": {"type": "Point", "coordinates": [-4.49848, 48.3841]}},
{"type": "Feature", "id": "c9TBmHxdprCh5sLI5jTFi83QEhs=", "properties": {"ref": "fougeres_35300", "@spider": "dominos_pizza_fr", "addr:full": "5 Place De La R\u00e9publique", "addr:city": "FOUGERES", "addr:postcode": "35300", "addr:country": "fr", "website": "https://www.dominos.fr/magasin/fougeres_35300", "brand": "Dominos Pizza France"}, "geometry": {"type": "Point", "coordinates": [-1.195682, 48.350767]}},
{"type": "Feature", "id": "UUZJhQ_Oj_wPqh0AM7mfn4c-45A=", "properties": {"ref": "brest-plymouth_29200", "@spider": "dominos_pizza_fr", "addr:full": "114 Boulevard Plymouth", "addr:city": "BREST", "addr:postcode": "29200", "addr:country": "fr", "website": "https://www.dominos.fr/magasin/brest-plymouth_29200", "brand": "Dominos Pizza France"}, "geometry": {"type": "Point", "coordinates": [-4.532151, 48.386321]}},
{"type": "Feature", "id": "H5rDFFIFiwhCSCJBE1wXVeebBz8=", "properties": {"ref": "bain-de-bretagne_35470", "@spider": "dominos_pizza_fr", "addr:full": "22 Rue De L'h\u00f4tel De Ville", "addr:city": "BAIN-DE-BRETAGNE", "addr:postcode": "35470", "addr:country": "fr", "website": "https://www.dominos.fr/magasin/bain-de-bretagne_35470", "brand": "Dominos Pizza France"}, "geometry": {"type": "Point", "coordinates": [-1.683116, 47.842775]}},
{"type": "Feature", "id": "IYeN8bkzPAM-sbt762s-ufHdXfE=", "properties": {"ref": "betton_35830", "@spider": "dominos_pizza_fr", "addr:full": "12 Bis Rue De Rennes", "addr:city": "BETTON", "addr:postcode": "35830", "addr:country": "fr", "website": "https://www.dominos.fr/magasin/betton_35830", "brand": "Dominos Pizza France"}, "geometry": {"type": "Point", "coordinates": [-1.63751, 48.17971]}},
{"type": "Feature", "id": "eFpZQ6iyltBcwuzYcNi76uBRzzI=", "properties": {"ref": "bruz_35170", "@spider": "dominos_pizza_fr", "addr:full": "13 Avenue Jules Tricault", "addr:city": "BRUZ", "addr:postcode": "35170", "addr:country": "fr", "website": "https://www.dominos.fr/magasin/bruz_35170", "brand": "Dominos Pizza France"}, "geometry": {"type": "Point", "coordinates": [-1.74839, 48.026]}},
{"type": "Feature", "id": "sFHIFQXpQ6cVkkNqn1dwEprm2LY=", "properties": {"ref": "auray_56400", "@spider": "dominos_pizza_fr", "addr:full": "38 Rue Aristide Briand", "addr:city": "Auray", "addr:postcode": "56400", "addr:country": "fr", "website": "https://www.dominos.fr/magasin/auray_56400", "brand": "Dominos Pizza France"}, "geometry": {"type": "Point", "coordinates": [-2.989965, 47.670206]}},
{"type": "Feature", "id": "90W2Ek5izy2-LiqOER8irdkL3mE=", "properties": {"ref": "limoges-perrin_87000", "@spider": "dominos_pizza_fr", "addr:full": "303 Rue Fran\u00e7ois Perrin", "addr:city": "LIMOGES", "addr:postcode": "87000", "addr:country": "fr", "website": "https://www.dominos.fr/magasin/limoges-perrin_87000", "brand": "Dominos Pizza France"}, "geometry": {"type": "Point", "coordinates": [1.22539, 45.824]}},
{"type": "Feature", "id": "CcfWuEj7D4buVRBXzwE0feKCzn8=", "properties": {"ref": "geveze_35850", "@spider": "dominos_pizza_fr", "addr:full": "3 Rue De Dinan", "addr:city": "GEVEZE", "addr:postcode": "35850", "addr:country": "fr", "website": "https://www.dominos.fr/magasin/geveze_35850", "brand": "Dominos Pizza France"}, "geometry": {"type": "Point", "coordinates": [-1.790407, 48.221156]}},
{"type": "Feature", "id": "Kn7Y3KzC8FH3SjO3k2-7HDpxKQc=", "properties": {"ref": "thionville_57100", "@spider": "dominos_pizza_fr", "addr:full": "73 Boulevard Foch", "addr:city": "THIONVILLE", "addr:postcode": "57100", "addr:country": "fr", "website": "https://www.dominos.fr/magasin/thionville_57100", "brand": "Dominos Pizza France"}, "geometry": {"type": "Point", "coordinates": [6.164308, 49.360744]}},
{"type": "Feature", "id": "id4nkqNsT4UBPw1MCHk5J1Jml3Y=", "properties": {"ref": "brive-la-gaillarde_19100", "@spider": "dominos_pizza_fr", "addr:full": "28 Avenue Pierre Semard", "addr:city": "BRIVE-LA-GAILLARDE", "addr:postcode": "19100", "addr:country": "fr", "website": "https://www.dominos.fr/magasin/brive-la-gaillarde_19100", "brand": "Dominos Pizza France"}, "geometry": {"type": "Point", "coordinates": [1.5215, 45.15688]}},
{"type": "Feature", "id": "W2ihdaIIJd7Ajc80-rH66FL42sI=", "properties": {"ref": "nancy-centre_54000", "@spider": "dominos_pizza_fr", "addr:full": "6 Place Des Vosges", "addr:city": "NANCY", "addr:postcode": "54000", "addr:country": "fr", "website": "https://www.dominos.fr/magasin/nancy-centre_54000", "brand": "Dominos Pizza France"}, "geometry": {"type": "Point", "coordinates": [6.186581, 48.685109]}},
{"type": "Feature", "id": "nYiAjS3fcjmivCwrd8KbmEXFExQ=", "properties": {"ref": "nancy-haussonville_54000", "@spider": "dominos_pizza_fr", "addr:full": "193 Boulevard D'haussonville", "addr:city": "NANCY", "addr:postcode": "54000", "addr:country": "fr", "website": "https://www.dominos.fr/magasin/nancy-haussonville_54000", "brand": "Dominos Pizza France"}, "geometry": {"type": "Point", "coordinates": [6.169065, 48.669125]}},
{"type": "Feature", "id": "D0gr5BdgpmKhNqTNKZBVh7eamdE=", "properties": {"ref": "maromme_76150", "@spider": "dominos_pizza_fr", "addr:full": "138 Rue Des Martyrs De La R\u00e9sistance", "addr:city": "MAROMME", "addr:postcode": "76150", "addr:country": "fr", "website": "https://www.dominos.fr/magasin/maromme_76150", "brand": "Dominos Pizza France"}, "geometry": {"type": "Point", "coordinates": [1.04688, 49.48093]}},
{"type": "Feature", "id": "Fk4UA7mpuIj_LjYe0thvoFTHunU=", "properties": {"ref": "nancy-liberation_54000", "@spider": "dominos_pizza_fr", "addr:full": "357 Avenue De La Lib\u00e9ration", "addr:city": "NANCY", "addr:postcode": "54000", "addr:country": "fr", "website": "https://www.dominos.fr/magasin/nancy-liberation_54000", "brand": "Dominos Pizza France"}, "geometry": {"type": "Point", "coordinates": [6.147395, 48.696503]}},
{"type": "Feature", "id": "O_ZTwdVOskkqdbV8NUA4ZbMzHMk=", "properties": {"ref": "metz_57000", "@spider": "dominos_pizza_fr", "addr:full": "6 Rue De Paris", "addr:city": "METZ", "addr:postcode": "57000", "addr:country": "fr", "website": "https://www.dominos.fr/magasin/metz_57000", "brand": "Dominos Pizza France"}, "geometry": {"type": "Point", "coordinates": [6.16524, 49.1239]}},
{"type": "Feature", "id": "n0Zvvrb1ExPVcA6Hsf3h2Vxptms=", "properties": {"ref": "limoges-beaublanc_87000", "@spider": "dominos_pizza_fr", "addr:full": "51 Rue De Bellac", "addr:city": "LIMOGES", "addr:postcode": "87000", "addr:country": "fr", "website": "https://www.dominos.fr/magasin/limoges-beaublanc_87000", "brand": "Dominos Pizza France"}, "geometry": {"type": "Point", "coordinates": [1.24556, 45.847]}},
{"type": "Feature", "id": "ssL0AOL1G486qVOQlaOB-rK7v6k=", "properties": {"ref": "limoges-fleurus_87000", "@spider": "dominos_pizza_fr", "addr:full": "3 Bis Avenue Garibaldi", "addr:city": "LIMOGES", "addr:postcode": "87000", "addr:country": "fr", "website": "https://www.dominos.fr/magasin/limoges-fleurus_87000", "brand": "Dominos Pizza France"}, "geometry": {"type": "Point", "coordinates": [1.26391, 45.8313]}},
{"type": "Feature", "id": "RfuRJkj5zQHvtf3GcxzezqtHl6s=", "properties": {"ref": "villeneuve-d-ascq-v2_59650", "@spider": "dominos_pizza_fr", "addr:full": "79 Boulevard De Valmy", "addr:city": "VILLENEUVE-D'ASCQ", "addr:postcode": "59650", "addr:country": "fr", "website": "https://www.dominos.fr/magasin/villeneuve-d-ascq-v2_59650", "brand": "Dominos Pizza France"}, "geometry": {"type": "Point", "coordinates": [3.1313, 50.6157]}},
{"type": "Feature", "id": "aZVz4r1LgRUUrZLbP9cWijBwq-Q=", "properties": {"ref": "essey-les-nancy_54270", "@spider": "dominos_pizza_fr", "addr:full": "75 Bis Avenue Foch", "addr:city": "ESSEY-LES-NANCY", "addr:postcode": "54270", "addr:country": "fr", "website": "https://www.dominos.fr/magasin/essey-les-nancy_54270", "brand": "Dominos Pizza France"}, "geometry": {"type": "Point", "coordinates": [6.223967, 48.705763]}},
{"type": "Feature", "id": "-plSKDZstU_Vt-WFAX5u3qI7JZ8=", "properties": {"ref": "montigny-les-metz_57950", "@spider": "dominos_pizza_fr", "addr:full": "110 Rue De Pont \u00c0 Mousson", "addr:city": "MONTIGNY-LES-METZ", "addr:postcode": "57950", "addr:country": "fr", "website": "https://www.dominos.fr/magasin/montigny-les-metz_57950", "brand": "Dominos Pizza France"}, "geometry": {"type": "Point", "coordinates": [6.15648, 49.1014]}},
{"type": "Feature", "id": "RN6ais4br7Yepe_GI1FUlTybmbQ=", "properties": {"ref": "villeneuve-d-ascq_59650", "@spider": "dominos_pizza_fr", "addr:full": "177 Avenue Jean Jaur\u00e8s", "addr:city": "VILLENEUVE-D'ASCQ", "addr:postcode": "59650", "addr:country": "fr", "website": "https://www.dominos.fr/magasin/villeneuve-d-ascq_59650", "brand": "Dominos Pizza France"}, "geometry": {"type": "Point", "coordinates": [3.14177, 50.6666]}},
{"type": "Feature", "id": "cyh8HU0OvtQfjY5R4kZg7C9ALv0=", "properties": {"ref": "tourcoing_59200", "@spider": "dominos_pizza_fr", "addr:full": "71 Rue Saint Jacques", "addr:city": "TOURCOING", "addr:postcode": "59200", "addr:country": "fr", "website": "https://www.dominos.fr/magasin/tourcoing_59200", "brand": "Dominos Pizza France"}, "geometry": {"type": "Point", "coordinates": [3.1565, 50.7252]}},
{"type": "Feature", "id": "aY6BbEuo5UrImvDwXOuNBuDhyF0=", "properties": {"ref": "golbey_88190", "@spider": "dominos_pizza_fr", "addr:full": "4 Rue Du G\u00e9n\u00e9ral Leclerc", "addr:city": "GOLBEY", "addr:postcode": "88190", "addr:country": "fr", "website": "https://www.dominos.fr/magasin/golbey_88190", "brand": "Dominos Pizza France"}, "geometry": {"type": "Point", "coordinates": [6.437509, 48.1927]}},
{"type": "Feature", "id": "Nak1Sx3mlJancBoXt_KBNPTMlvY=", "properties": {"ref": "guipavas_29490", "@spider": "dominos_pizza_fr", "addr:full": "9B - 11 Rue De Brest", "addr:city": "GUIPAVAS", "addr:postcode": "29490", "addr:country": "fr", "website": "https://www.dominos.fr/magasin/guipavas_29490", "brand": "Dominos Pizza France"}, "geometry": {"type": "Point", "coordinates": [-4.40229, 48.433654]}},
{"type": "Feature", "id": "D1xzhiLbAXhNNBAryyZtRLL71W8=", "properties": {"ref": "rouen-corneille_76000", "@spider": "dominos_pizza_fr", "addr:full": "20 Quai Pierre Corneille", "addr:city": "ROUEN", "addr:postcode": "76000", "addr:country": "fr", "website": "https://www.dominos.fr/magasin/rouen-corneille_76000", "brand": "Dominos Pizza France"}, "geometry": {"type": "Point", "coordinates": [1.0932, 49.4379]}},
{"type": "Feature", "id": "ri1Er6LMM5bLD5t5QrOPfJt6ZX0=", "properties": {"ref": "raismes_59590", "@spider": "dominos_pizza_fr", "addr:full": "35 Rue Henri Durre", "addr:city": "RAISMES", "addr:postcode": "59590", "addr:country": "fr", "website": "https://www.dominos.fr/magasin/raismes_59590", "brand": "Dominos Pizza France"}, "geometry": {"type": "Point", "coordinates": [3.486018, 50.390919]}},
{"type": "Feature", "id": "HZRnXJOIS-vSkcLmzE8ezPWbkWM=", "properties": {"ref": "outreau_62230", "@spider": "dominos_pizza_fr", "addr:full": "39 Boulevard De La Libert\u00e9", "addr:city": "OUTREAU", "addr:postcode": "62230", "addr:country": "fr", "website": "https://www.dominos.fr/magasin/outreau_62230", "brand": "Dominos Pizza France"}, "geometry": {"type": "Point", "coordinates": [1.59112, 50.7107]}},
{"type": "Feature", "id": "gKXYe-g24wHm1GgDyDk5aDUj3ZE=", "properties": {"ref": "roubaix_59100", "@spider": "dominos_pizza_fr", "addr:full": "121 Boulevard Gambetta", "addr:city": "ROUBAIX", "addr:postcode": "59100", "addr:country": "fr", "website": "https://www.dominos.fr/magasin/roubaix_59100", "brand": "Dominos Pizza France"}, "geometry": {"type": "Point", "coordinates": [3.184139, 50.69249]}},
{"type": "Feature", "id": "0ZaAFKLuEWP5KtZCRpeMlaAyGBY=", "properties": {"ref": "marcq-en-baroeul_59700", "@spider": "dominos_pizza_fr", "addr:full": "56 Rue Nationale", "addr:city": "MARCQ-EN-BAROEUL", "addr:postcode": "59700", "addr:country": "fr", "website": "https://www.dominos.fr/magasin/marcq-en-baroeul_59700", "brand": "Dominos Pizza France"}, "geometry": {"type": "Point", "coordinates": [3.07611, 50.6659]}},
{"type": "Feature", "id": "C5WlENS_m7u9sMmzlzqIdxr6izs=", "properties": {"ref": "lys-lez-lannoy_59390", "@spider": "dominos_pizza_fr", "addr:full": "158 Rue Jules Guesde", "addr:city": "LANNOY", "addr:postcode": "59390 LYS LEZ", "addr:country": "fr", "website": "https://www.dominos.fr/magasin/lys-lez-lannoy_59390", "brand": "Dominos Pizza France"}, "geometry": {"type": "Point", "coordinates": [3.20374, 50.67484]}},
{"type": "Feature", "id": "zON7f1vaLP217RzHABc3dNC7W94=", "properties": {"ref": "loos_59120", "@spider": "dominos_pizza_fr", "addr:full": "155 Rue Du Mar\u00e9chal Foch", "addr:city": "LOOS", "addr:postcode": "59120", "addr:country": "fr", "website": "https://www.dominos.fr/magasin/loos_59120", "brand": "Dominos Pizza France"}, "geometry": {"type": "Point", "coordinates": [3.01426, 50.6147]}},
{"type": "Feature", "id": "YLJiqHReXZ0ZH_U_n-Rzl74zP8k=", "properties": {"ref": "noeux-les-mines_62290", "@spider": "dominos_pizza_fr", "addr:full": "Rue L\u00e9on Blum", "addr:city": "MINES", "addr:postcode": "62290 NOEUX LES", "addr:country": "fr", "website": "https://www.dominos.fr/magasin/noeux-les-mines_62290", "brand": "Dominos Pizza France"}, "geometry": {"type": "Point", "coordinates": [2.671771, 50.479032]}},
{"type": "Feature", "id": "8Zk_ydr0km99r3tZKF51A49phhk=", "properties": {"ref": "noyelles-sous-lens_62221", "@spider": "dominos_pizza_fr", "addr:full": "127 Rue Du Dr Schaffner", "addr:city": "LENS", "addr:postcode": "62221 NOYELLES SOUS", "addr:country": "fr", "website": "https://www.dominos.fr/magasin/noyelles-sous-lens_62221", "brand": "Dominos Pizza France"}, "geometry": {"type": "Point", "coordinates": [2.865637, 50.429603]}},
{"type": "Feature", "id": "TIqYrmEok1SBanLyxAG8fuDFayg=", "properties": {"ref": "lille-ronchin_59000", "@spider": "dominos_pizza_fr", "addr:full": "70 Rue Armand Carrel", "addr:city": "LILLE", "addr:postcode": "59000", "addr:country": "fr", "website": "https://www.dominos.fr/magasin/lille-ronchin_59000", "brand": "Dominos Pizza France"}, "geometry": {"type": "Point", "coordinates": [3.074638, 50.613616]}},
{"type": "Feature", "id": "QDzkDDWa1XVzwXMqpunwB0jGDOU=", "properties": {"ref": "lille-belfort_59000", "@spider": "dominos_pizza_fr", "addr:full": "13 Boulevard De Belfort", "addr:city": "LILLE", "addr:postcode": "59000", "addr:country": "fr", "website": "https://www.dominos.fr/magasin/lille-belfort_59000", "brand": "Dominos Pizza France"}, "geometry": {"type": "Point", "coordinates": [3.079461, 50.621964]}},
{"type": "Feature", "id": "2mkL5_7j_ldFfRk3qHzWzE8q8Co=", "properties": {"ref": "lille-nationale_59000", "@spider": "dominos_pizza_fr", "addr:full": "108 Rue Nationale", "addr:city": "LILLE", "addr:postcode": "59000", "addr:country": "fr", "website": "https://www.dominos.fr/magasin/lille-nationale_59000", "brand": "Dominos Pizza France"}, "geometry": {"type": "Point", "coordinates": [3.05721, 50.635]}},
{"type": "Feature", "id": "KgpT7b6BaqkTT5YUbTJI1jnCJs0=", "properties": {"ref": "lille-hellemmes_59260", "@spider": "dominos_pizza_fr", "addr:full": "224 Rue Roger Salengro", "addr:city": "HELLEMMES", "addr:postcode": "59260", "addr:country": "fr", "website": "https://www.dominos.fr/magasin/lille-hellemmes_59260", "brand": "Dominos Pizza France"}, "geometry": {"type": "Point", "coordinates": [3.11206, 50.62594]}},
{"type": "Feature", "id": "baqnHO3SK7--9KEn4Y6p7KJvu4U=", "properties": {"ref": "lievin_62800", "@spider": "dominos_pizza_fr", "addr:full": "92 Rue Jean-Baptise Defernez", "addr:city": "LIEVIN", "addr:postcode": "62800", "addr:country": "fr", "website": "https://www.dominos.fr/magasin/lievin_62800", "brand": "Dominos Pizza France"}, "geometry": {"type": "Point", "coordinates": [2.77752, 50.4209]}},
{"type": "Feature", "id": "AxlnmY52Lbn_5ckUTNkvLu4DHKE=", "properties": {"ref": "lambersart_59130", "@spider": "dominos_pizza_fr", "addr:full": "236 Avenue De Dunkerque", "addr:city": "LAMBERSART", "addr:postcode": "59130", "addr:country": "fr", "website": "https://www.dominos.fr/magasin/lambersart_59130", "brand": "Dominos Pizza France"}, "geometry": {"type": "Point", "coordinates": [3.02568, 50.6366]}},
{"type": "Feature", "id": "RhajnzTY1C_n7yh98-Yv7e5VQow=", "properties": {"ref": "dunkerque_59140", "@spider": "dominos_pizza_fr", "addr:full": "35 Avenue Des Bains", "addr:city": "DUNKERQUE", "addr:postcode": "59140", "addr:country": "fr", "website": "https://www.dominos.fr/magasin/dunkerque_59140", "brand": "Dominos Pizza France"}, "geometry": {"type": "Point", "coordinates": [2.38282, 51.0424]}},
{"type": "Feature", "id": "Xo2ce7_7SD8llU3eB16YIlVePrY=", "properties": {"ref": "douai_59500", "@spider": "dominos_pizza_fr", "addr:full": "9 Place Carnot", "addr:city": "DOUAI", "addr:postcode": "59500", "addr:country": "fr", "website": "https://www.dominos.fr/magasin/douai_59500", "brand": "Dominos Pizza France"}, "geometry": {"type": "Point", "coordinates": [3.084995, 50.371911]}},
{"type": "Feature", "id": "p7Whzjggfc15A6y95EAk4BbA09Q=", "properties": {"ref": "lens_62300", "@spider": "dominos_pizza_fr", "addr:full": "30 Route De B\u00e9thune", "addr:city": "LENS", "addr:postcode": "62300", "addr:country": "fr", "website": "https://www.dominos.fr/magasin/lens_62300", "brand": "Dominos Pizza France"}, "geometry": {"type": "Point", "coordinates": [2.82106, 50.4335]}},
{"type": "Feature", "id": "Nucm8g-fZHtNL01xO84_dyVDvqA=", "properties": {"ref": "calais-2_62100", "@spider": "dominos_pizza_fr", "addr:full": "245 Avenue Saint-Exup\u00e9ry", "addr:city": "CALAIS", "addr:postcode": "62100", "addr:country": "fr", "website": "https://www.dominos.fr/magasin/calais-2_62100", "brand": "Dominos Pizza France"}, "geometry": {"type": "Point", "coordinates": [1.90023, 50.946622]}},
{"type": "Feature", "id": "QMClIrFZ0HLnsCyGZzi0ZSeQens=", "properties": {"ref": "cambrai_59400", "@spider": "dominos_pizza_fr", "addr:full": "51 Rue De Lille", "addr:city": "CAMBRAI", "addr:postcode": "59400", "addr:country": "fr", "website": "https://www.dominos.fr/magasin/cambrai_59400", "brand": "Dominos Pizza France"}, "geometry": {"type": "Point", "coordinates": [3.24025, 50.1768]}},
{"type": "Feature", "id": "Rg_znx3bv4woeq8djwKgZ-GnByI=", "properties": {"ref": "bethune_62400", "@spider": "dominos_pizza_fr", "addr:full": "Place Saint Eloi", "addr:city": "BETHUNE", "addr:postcode": "62400", "addr:country": "fr", "website": "https://www.dominos.fr/magasin/bethune_62400", "brand": "Dominos Pizza France"}, "geometry": {"type": "Point", "coordinates": [2.64242, 50.5281]}},
{"type": "Feature", "id": "4P0eOVKXDdd_JtNGLlS0RxuB__E=", "properties": {"ref": "arras_62000", "@spider": "dominos_pizza_fr", "addr:full": "18 Rue L\u00e9on Gambetta", "addr:city": "ARRAS", "addr:postcode": "62000", "addr:country": "fr", "website": "https://www.dominos.fr/magasin/arras_62000", "brand": "Dominos Pizza France"}, "geometry": {"type": "Point", "coordinates": [2.77858, 50.288]}},
{"type": "Feature", "id": "fWVKJV-5CUkU1jg9nKGlQsDfmxY=", "properties": {"ref": "calais_62100", "@spider": "dominos_pizza_fr", "addr:full": "60 Boulevard Gambetta", "addr:city": "CALAIS", "addr:postcode": "62100", "addr:country": "fr", "website": "https://www.dominos.fr/magasin/calais_62100", "brand": "Dominos Pizza France"}, "geometry": {"type": "Point", "coordinates": [1.85121, 50.9474]}},
{"type": "Feature", "id": "m1P2Qlnt_UjzgjSldLLFWTMuYQE=", "properties": {"ref": "armentieres_59280", "@spider": "dominos_pizza_fr", "addr:full": "16 Place Du G\u00e9n\u00e9ral De Gaulle", "addr:city": "ARMENTIERES", "addr:postcode": "59280", "addr:country": "fr", "website": "https://www.dominos.fr/magasin/armentieres_59280", "brand": "Dominos Pizza France"}, "geometry": {"type": "Point", "coordinates": [2.879814, 50.686659]}},
{"type": "Feature", "id": "LGwZNtbcGJS7W7tqbMYoZTEHt0k=", "properties": {"ref": "lille-gambetta_59800", "@spider": "dominos_pizza_fr", "addr:full": "248 Rue L\u00e9on Gambetta", "addr:city": "LILLE", "addr:postcode": "59800", "addr:country": "fr", "website": "https://www.dominos.fr/magasin/lille-gambetta_59800", "brand": "Dominos Pizza France"}, "geometry": {"type": "Point", "coordinates": [3.051691, 50.628555]}},
{"type": "Feature", "id": "OXRqg2aJRNsOztSkDNyd4OuAt9I=", "properties": {"ref": "mouvaux_59420", "@spider": "dominos_pizza_fr", "addr:full": "44 Rue Franklin Roosevelt", "addr:city": "MOUVAUX", "addr:postcode": "59420", "addr:country": "fr", "website": "https://www.dominos.fr/magasin/mouvaux_59420", "brand": "Dominos Pizza France"}, "geometry": {"type": "Point", "coordinates": [3.136033, 50.700363]}},
{"type": "Feature", "id": "zTihNCXAdDFlHHrK4Ts3HggOPHY=", "properties": {"ref": "saint-martin-les-boulogne_62280", "@spider": "dominos_pizza_fr", "addr:full": "1 Route De Saint-Omer", "addr:city": "SAINT-MARTIN-BOULOGNE", "addr:postcode": "62280", "addr:country": "fr", "website": "https://www.dominos.fr/magasin/saint-martin-les-boulogne_62280", "brand": "Dominos Pizza France"}, "geometry": {"type": "Point", "coordinates": [1.62132, 50.7267]}},
{"type": "Feature", "id": "SIpl7qdHoIkBtmC0WlGfF2f5rFM=", "properties": {"ref": "saint-omer_62500", "@spider": "dominos_pizza_fr", "addr:full": "16 Avenue De Saint-Martin-Au-Laert", "addr:city": "SAINT-OMER", "addr:postcode": "62500", "addr:country": "fr", "website": "https://www.dominos.fr/magasin/saint-omer_62500", "brand": "Dominos Pizza France"}, "geometry": {"type": "Point", "coordinates": [2.243603, 50.754568]}},
{"type": "Feature", "id": "BxxwIerXfWh960w8g3QRYPYQbE4=", "properties": {"ref": "valenciennes_59300", "@spider": "dominos_pizza_fr", "addr:full": "27 Boulevard Froissard", "addr:city": "VALENCIENNES", "addr:postcode": "59300", "addr:country": "fr", "website": "https://www.dominos.fr/magasin/valenciennes_59300", "brand": "Dominos Pizza France"}, "geometry": {"type": "Point", "coordinates": [3.5198, 50.3626]}},
{"type": "Feature", "id": "O-bChofwr9X5E-Abpotevqq4Ef8=", "properties": {"ref": "perpignan_66000", "@spider": "dominos_pizza_fr", "addr:full": "8 Avenue Du G\u00e9n\u00e9ral Leclerc", "addr:city": "PERPIGNAN", "addr:postcode": "66000", "addr:country": "fr", "website": "https://www.dominos.fr/magasin/perpignan_66000", "brand": "Dominos Pizza France"}, "geometry": {"type": "Point", "coordinates": [2.8928, 42.70167]}},
{"type": "Feature", "id": "RFRwpga9jmGqVmD3GUF5eCCccgw=", "properties": {"ref": "nimes-mas-carbonnel_30900", "@spider": "dominos_pizza_fr", "addr:full": "288 All\u00e9e Am\u00e9rique Latine", "addr:city": "NIMES", "addr:postcode": "30900", "addr:country": "fr", "website": "https://www.dominos.fr/magasin/nimes-mas-carbonnel_30900", "brand": "Dominos Pizza France"}, "geometry": {"type": "Point", "coordinates": [4.36097, 43.8206]}},
{"type": "Feature", "id": "WMrBdgmk5D2e7bEZTP3a4zDTxSw=", "properties": {"ref": "montpellier-pompignane_34000", "@spider": "dominos_pizza_fr", "addr:full": "1603 Avenue De La Pompignane", "addr:city": "MONTPELLIER", "addr:postcode": "34000", "addr:country": "fr", "website": "https://www.dominos.fr/magasin/montpellier-pompignane_34000", "brand": "Dominos Pizza France"}, "geometry": {"type": "Point", "coordinates": [3.89739, 43.62046]}},
{"type": "Feature", "id": "0oZOzpm2gf1lMyJXOVJCmqmVaas=", "properties": {"ref": "montpellier-centre_34000", "@spider": "dominos_pizza_fr", "addr:full": "19 Quai Des Tanneurs", "addr:city": "MONTPELLIER", "addr:postcode": "34000", "addr:country": "fr", "website": "https://www.dominos.fr/magasin/montpellier-centre_34000", "brand": "Dominos Pizza France"}, "geometry": {"type": "Point", "coordinates": [3.877, 43.61565]}},
{"type": "Feature", "id": "dr9lF6X2POY7s1Ub4DNzvN3cGY8=", "properties": {"ref": "montpellier-ouest_34070", "@spider": "dominos_pizza_fr", "addr:full": "1 Place Corot", "addr:city": "MONTPELLIER", "addr:postcode": "34070", "addr:country": "fr", "website": "https://www.dominos.fr/magasin/montpellier-ouest_34070", "brand": "Dominos Pizza France"}, "geometry": {"type": "Point", "coordinates": [3.844722, 43.61816]}},
{"type": "Feature", "id": "CpAbxjFoK8AI_tgaar4jwtASQCs=", "properties": {"ref": "montpellier-nord_34090", "@spider": "dominos_pizza_fr", "addr:full": "467 Avenue Du Major Flandre", "addr:city": "MONTPELLIER", "addr:postcode": "34090", "addr:country": "fr", "website": "https://www.dominos.fr/magasin/montpellier-nord_34090", "brand": "Dominos Pizza France"}, "geometry": {"type": "Point", "coordinates": [3.87115, 43.62936]}},
{"type": "Feature", "id": "YpER_-3IhZlapWpU1XWQ-TjAlPA=", "properties": {"ref": "carcassonne_11000", "@spider": "dominos_pizza_fr", "addr:full": "35 Avenue Franklin Roosevelt", "addr:city": "CARCASSONE", "addr:postcode": "11000", "addr:country": "fr", "website": "https://www.dominos.fr/magasin/carcassonne_11000", "brand": "Dominos Pizza France"}, "geometry": {"type": "Point", "coordinates": [2.34614, 43.2175]}},
{"type": "Feature", "id": "Wz69w-hIKDvCeSANlhcNozNoNvg=", "properties": {"ref": "montpellier-port-marianne_34000", "@spider": "dominos_pizza_fr", "addr:full": "165 Avenue Th\u00e9roigne De M\u00e9ricourt", "addr:city": "MONTPELLIER", "addr:postcode": "34000", "addr:country": "fr", "website": "https://www.dominos.fr/magasin/montpellier-port-marianne_34000", "brand": "Dominos Pizza France"}, "geometry": {"type": "Point", "coordinates": [3.90157, 43.597702]}},
{"type": "Feature", "id": "8njhTDjXWqRAC3owez6xtYlaHYE=", "properties": {"ref": "beziers_34500", "@spider": "dominos_pizza_fr", "addr:full": "56 Avenue Georges Clemenceau", "addr:city": "BEZIERS", "addr:postcode": "34500", "addr:country": "fr", "website": "https://www.dominos.fr/magasin/beziers_34500", "brand": "Dominos Pizza France"}, "geometry": {"type": "Point", "coordinates": [3.21845, 43.34707]}},
{"type": "Feature", "id": "eZ4atyhzmuROx-91tzdaVz47pTk=", "properties": {"ref": "montpellier-sud_34070", "@spider": "dominos_pizza_fr", "addr:full": "3 Avenue De Toulouse", "addr:city": "MONTPELLIER", "addr:postcode": "34070", "addr:country": "fr", "website": "https://www.dominos.fr/magasin/montpellier-sud_34070", "brand": "Dominos Pizza France"}, "geometry": {"type": "Point", "coordinates": [3.86747, 43.6004]}},
{"type": "Feature", "id": "KCTK2KYJI_hI8QRkLYQW5V42Po8=", "properties": {"ref": "narbonne_11100", "@spider": "dominos_pizza_fr", "addr:full": "2 Bld Du G\u00e9n\u00e9ral De Gaulle", "addr:city": "NARBONNE", "addr:postcode": "11100", "addr:country": "fr", "website": "https://www.dominos.fr/magasin/narbonne_11100", "brand": "Dominos Pizza France"}, "geometry": {"type": "Point", "coordinates": [3.008223, 43.186983]}},
{"type": "Feature", "id": "2KaL8vomHLjI8yr7q0wv_kg4NRI=", "properties": {"ref": "nimes-gambetta-coupole_30000", "@spider": "dominos_pizza_fr", "addr:full": "17 Boulevard Gambetta", "addr:city": "NIMES", "addr:postcode": "30000", "addr:country": "fr", "website": "https://www.dominos.fr/magasin/nimes-gambetta-coupole_30000", "brand": "Dominos Pizza France"}, "geometry": {"type": "Point", "coordinates": [4.35917, 43.8406]}}]}