{"type":"FeatureCollection","features":[{"type": "Feature", "id": "QJrZhox_DbFO7tAiKPt4ojzYtOE=", "properties": {"ref": "33767", "@spider": "dominos_pizza_de", "addr:full": "Stengelstra\u00dfe 3", "addr:city": "Saarbr\u00fccken", "addr:postcode": "66117", "addr:country": "de", "name": "Domino's Pizza Saarbr\u00fccken Alt-Saarbr\u00fccken", "website": "https://www.dominos.de/filiale/de-saarbrckenaltsaarbrcken-33767", "brand": "Dominos Pizza Germany"}, "geometry": {"type": "Point", "coordinates": [6.989187, 49.233379]}},
{"type": "Feature", "id": "G8Xm-TmNUGr_WfF1caPVs1nRj-w=", "properties": {"ref": "33875", "@spider": "dominos_pizza_de", "addr:full": "Bahnhofstr. 36", "addr:city": "WIESBADEN", "addr:postcode": "65185", "addr:country": "de", "name": "Domino's Pizza Wiesbaden Mitte", "website": "https://www.dominos.de/filiale/de-wiesbadenmitte-33875", "brand": "Dominos Pizza Germany"}, "geometry": {"type": "Point", "coordinates": [8.242784, 50.075593]}},
{"type": "Feature", "id": "uG94jGD1ZWPjX82laPwIZtFezR0=", "properties": {"ref": "33745", "@spider": "dominos_pizza_de", "addr:full": "Jarrestra\u00dfe 24", "addr:city": "HAMBURG", "addr:postcode": "22303", "addr:country": "de", "name": "Domino's Pizza Hamburg Winterhude S\u00fcd", "website": "https://www.dominos.de/filiale/de-hamburgwinterhudesd-33745", "brand": "Dominos Pizza Germany"}, "geometry": {"type": "Point", "coordinates": [10.022575, 53.584314]}},
{"type": "Feature", "id": "EoXTW1kXiOLQvsi6X2P_aG8_Qvg=", "properties": {"ref": "34168", "@spider": "dominos_pizza_de", "addr:full": "Erfurter Str. 51", "addr:city": "Weimar", "addr:postcode": "99423", "addr:country": "de", "name": "Domino's Pizza Weimar, Erfurter Strasse", "website": "https://www.dominos.de/filiale/de-weimarerfurterstrasse-34168", "brand": "Dominos Pizza Germany"}, "geometry": {"type": "Point", "coordinates": [11.313834, 50.980755]}},
{"type": "Feature", "id": "5yqo1QmtEMEN0yAmpJyEO6tC2dY=", "properties": {"ref": "33915", "@spider": "dominos_pizza_de", "addr:full": "Georgstr. 38", "addr:city": "Bremerhaven", "addr:postcode": "27570", "addr:country": "de", "name": "Domino's Pizza Bremerhaven S\u00fcd", "website": "https://www.dominos.de/filiale/dehb-bremerhavensd-33915", "brand": "Dominos Pizza Germany"}, "geometry": {"type": "Point", "coordinates": [8.589239, 53.532501]}},
{"type": "Feature", "id": "ia9QrKtxI4SvTF9LjLR_EklfUgU=", "properties": {"ref": "34117", "@spider": "dominos_pizza_de", "addr:full": "Kaiserstr. 32", "addr:city": "W\u00fcrselen", "addr:postcode": "52146", "addr:country": "de", "name": "Domino's Pizza W\u00fcrselen", "website": "https://www.dominos.de/filiale/de-wrselen-34117", "brand": "Dominos Pizza Germany"}, "geometry": {"type": "Point", "coordinates": [6.131912, 50.819773]}},
{"type": "Feature", "id": "CmbzptQMnJk6-YqbfUMW6v-8gx8=", "properties": {"ref": "34191", "@spider": "dominos_pizza_de", "addr:full": "Luisenstra\u00dfe 1", "addr:city": "ZWICKAU", "addr:postcode": "08060", "addr:country": "de", "name": "Domino's Pizza Zwickau Marienthal", "website": "https://www.dominos.de/filiale/de-zwickaumarienthal-34191", "brand": "Dominos Pizza Germany"}, "geometry": {"type": "Point", "coordinates": [12.467291, 50.719844]}},
{"type": "Feature", "id": "lVXC93o5E8vP7WBrNlFzvhEPZfc=", "properties": {"ref": "34205", "@spider": "dominos_pizza_de", "addr:full": "Hindenburgstra\u00dfe 16", "addr:city": "Wunstorf", "addr:postcode": "31515", "addr:country": "de", "name": "Domino's Pizza Wunstorf", "website": "https://www.dominos.de/filiale/de-wunstorf-34205", "brand": "Dominos Pizza Germany"}, "geometry": {"type": "Point", "coordinates": [9.435095, 52.423968]}},
{"type": "Feature", "id": "_igpgODlSbNrglaLW6S8gu5dgvM=", "properties": {"ref": "33827", "@spider": "dominos_pizza_de", "addr:full": "Randersackerer Stra\u00dfe 47", "addr:city": "W\u00fcrzburg", "addr:postcode": "97072", "addr:country": "de", "name": "Domino's Pizza W\u00fcrzburg S\u00fcd", "website": "https://www.dominos.de/filiale/de-wrzburgsd-33827", "brand": "Dominos Pizza Germany"}, "geometry": {"type": "Point", "coordinates": [9.94068, 49.776424]}},
{"type": "Feature", "id": "_0MyxDyxREbPU-xGo3GgHLB1Mpk=", "properties": {"ref": "34165", "@spider": "dominos_pizza_de", "addr:full": "Stadtfeld 2", "addr:city": "Schleswig", "addr:postcode": "24837", "addr:country": "de", "name": "Domino's Pizza Schleswig", "website": "https://www.dominos.de/filiale/de-schleswig-34165", "brand": "Dominos Pizza Germany"}, "geometry": {"type": "Point", "coordinates": [9.564014, 54.521447]}},
{"type": "Feature", "id": "bCaQzQ98NaNJ_4QMl9frJiang0s=", "properties": {"ref": "33868", "@spider": "dominos_pizza_de", "addr:full": "Uhlandstra\u00dfe 87", "addr:city": "Berlin", "addr:postcode": "10717", "addr:country": "de", "name": "Domino's Pizza Berlin Wilmersdorf", "website": "https://www.dominos.de/filiale/de-berlinwilmersdorf-33868", "brand": "Dominos Pizza Germany"}, "geometry": {"type": "Point", "coordinates": [13.322461, 52.488468]}},
{"type": "Feature", "id": "sGAEFzAstSPEsMsj131dLHocRZU=", "properties": {"ref": "33783", "@spider": "dominos_pizza_de", "addr:full": "Rollgasse 13", "addr:city": "Weimar", "addr:postcode": "99423", "addr:country": "de", "name": "Domino's Pizza Weimar, Rollgasse", "website": "https://www.dominos.de/filiale/de-weimarrollgasse-33783", "brand": "Dominos Pizza Germany"}, "geometry": {"type": "Point", "coordinates": [11.326156, 50.984179]}},
{"type": "Feature", "id": "cUAZZrVZQd12c_oBeK3BCVTgOac=", "properties": {"ref": "33926", "@spider": "dominos_pizza_de", "addr:full": "Potsdamer Str. 70", "addr:city": "BERLIN", "addr:postcode": "10785", "addr:country": "de", "name": "Domino's Pizza Berlin Sch\u00f6neberg-Nord", "website": "https://www.dominos.de/filiale/de-berlinschnebergnord-33926", "brand": "Dominos Pizza Germany"}, "geometry": {"type": "Point", "coordinates": [13.366724, 52.50448]}},
{"type": "Feature", "id": "8Tn28ynvCNApQUII55bwyvdD5Lw=", "properties": {"ref": "34178", "@spider": "dominos_pizza_de", "addr:full": "Seeburger Str. 11", "addr:city": "BERLIN", "addr:postcode": "13581", "addr:country": "de", "name": "Domino's Pizza Berlin Spandau", "website": "https://www.dominos.de/filiale/de-berlinspandau-34178", "brand": "Dominos Pizza Germany"}, "geometry": {"type": "Point", "coordinates": [13.190749, 52.528476]}},
{"type": "Feature", "id": "lERGK_IhctZmm1OIe5MrqNzoOOI=", "properties": {"ref": "34183", "@spider": "dominos_pizza_de", "addr:full": "Dominicusstr. 46", "addr:city": "BERLIN", "addr:postcode": "10827", "addr:country": "de", "name": "Domino's Pizza Berlin Sch\u00f6neberg S\u00fcd", "website": "https://www.dominos.de/filiale/de-berlinschnebergsd-34183", "brand": "Dominos Pizza Germany"}, "geometry": {"type": "Point", "coordinates": [13.350697, 52.480101]}},
{"type": "Feature", "id": "yAiZ7QjLVZUKZpC_3f5WzMO5lFI=", "properties": {"ref": "34204", "@spider": "dominos_pizza_de", "addr:full": "Waltersdorfer Chaussee 174", "addr:city": "BERLIN", "addr:postcode": "12355", "addr:country": "de", "name": "Domino's Pizza Berlin Rudow S\u00fcd", "website": "https://www.dominos.de/filiale/de-berlinrudowsd-34204", "brand": "Dominos Pizza Germany"}, "geometry": {"type": "Point", "coordinates": [13.511577, 52.402866]}},
{"type": "Feature", "id": "D36FNF0e7g699UWWfgxQtUuBKzw=", "properties": {"ref": "33813", "@spider": "dominos_pizza_de", "addr:full": "Prenzlauer Allee 231", "addr:city": "BERLIN", "addr:postcode": "10405", "addr:country": "de", "name": "Domino's Pizza Berlin Prenzlauer Berg S\u00fcd", "website": "https://www.dominos.de/filiale/de-berlinprenzlauerbergsd-33813", "brand": "Dominos Pizza Germany"}, "geometry": {"type": "Point", "coordinates": [13.419911, 52.532412]}},
{"type": "Feature", "id": "CV8JSNv9p5ou2V5BeiD8X7dZzVM=", "properties": {"ref": "33912", "@spider": "dominos_pizza_de", "addr:full": "Rheinstr. 23", "addr:city": "Berlin", "addr:postcode": "12161", "addr:country": "de", "name": "Domino's Pizza Berlin Steglitz", "website": "https://www.dominos.de/filiale/de-berlinsteglitz-33912", "brand": "Dominos Pizza Germany"}, "geometry": {"type": "Point", "coordinates": [13.331527, 52.468228]}},
{"type": "Feature", "id": "jgpKQDr7JhR-GP0nC9nXduL4yYc=", "properties": {"ref": "33981", "@spider": "dominos_pizza_de", "addr:full": "Potsdamer Str. 53", "addr:city": "Teltow", "addr:postcode": "14513", "addr:country": "de", "name": "Domino's Pizza Teltow", "website": "https://www.dominos.de/filiale/de-teltow-33981", "brand": "Dominos Pizza Germany"}, "geometry": {"type": "Point", "coordinates": [13.259313, 52.401711]}},
{"type": "Feature", "id": "NB2USHb27czXHWNGnoGzXI19wZ8=", "properties": {"ref": "33819", "@spider": "dominos_pizza_de", "addr:full": "Mauerstra\u00dfe 23", "addr:city": "Wittenberg", "addr:postcode": "06886", "addr:country": "de", "name": "Domino's Pizza Wittenberg", "website": "https://www.dominos.de/filiale/de-wittenberg-33819", "brand": "Dominos Pizza Germany"}, "geometry": {"type": "Point", "coordinates": [12.647519, 51.867862]}},
{"type": "Feature", "id": "7cSq1qkz64EiXH-SA3j1At_uN0M=", "properties": {"ref": "33826", "@spider": "dominos_pizza_de", "addr:full": "L\u00fcbsche Stra\u00dfe 178A", "addr:city": "Wismar", "addr:postcode": "23966", "addr:country": "de", "name": "Domino's Pizza Wismar West", "website": "https://www.dominos.de/filiale/de-wismarwest-33826", "brand": "Dominos Pizza Germany"}, "geometry": {"type": "Point", "coordinates": [11.427506, 53.895504]}},
{"type": "Feature", "id": "cMeLyVi2QkgxZdYvkR6n-X0ZlJQ=", "properties": {"ref": "33946", "@spider": "dominos_pizza_de", "addr:full": "Alzeyer Str. 65C", "addr:city": "Worms", "addr:postcode": "67549", "addr:country": "de", "name": "Domino's Pizza Worms", "website": "https://www.dominos.de/filiale/de-worms-33946", "brand": "Dominos Pizza Germany"}, "geometry": {"type": "Point", "coordinates": [8.343652, 49.632093]}},
{"type": "Feature", "id": "pSHmdXnbmTAQctzlp8jXLi0S5Uw=", "properties": {"ref": "33801", "@spider": "dominos_pizza_de", "addr:full": "G\u00fcterstra\u00dfe 55", "addr:city": "Trier", "addr:postcode": "54295", "addr:country": "de", "name": "Domino's Pizza Trier Nord", "website": "https://www.dominos.de/filiale/de-triernord-33801", "brand": "Dominos Pizza Germany"}, "geometry": {"type": "Point", "coordinates": [6.653893, 49.756766]}},
{"type": "Feature", "id": "C02BCjJN-xtidT_HBSGgfxdIBRI=", "properties": {"ref": "33899", "@spider": "dominos_pizza_de", "addr:full": "Raiffeisenstr. 14", "addr:city": "Speyer", "addr:postcode": "67346", "addr:country": "de", "name": "Domino's Pizza Speyer", "website": "https://www.dominos.de/filiale/de-speyer-33899", "brand": "Dominos Pizza Germany"}, "geometry": {"type": "Point", "coordinates": [8.436501, 49.325768]}},
{"type": "Feature", "id": "Zt8X7vCglhJmA9pFqG3U0l-HW88=", "properties": {"ref": "33833", "@spider": "dominos_pizza_de", "addr:full": "Goerdelerplatz 11", "addr:city": "Ludwigshafen", "addr:postcode": "67063", "addr:country": "de", "name": "Domino's Pizza Ludwigshafen", "website": "https://www.dominos.de/filiale/de-ludwigshafen-33833", "brand": "Dominos Pizza Germany"}, "geometry": {"type": "Point", "coordinates": [8.432847, 49.488471]}},
{"type": "Feature", "id": "_f6ZJk2WGDbLVo9EgRg-EB8QB2Q=", "properties": {"ref": "33984", "@spider": "dominos_pizza_de", "addr:full": "Moselwei\u00dfer Str. 7", "addr:city": "Koblenz", "addr:postcode": "56073", "addr:country": "de", "name": "Domino's Pizza Koblenz", "website": "https://www.dominos.de/filiale/de-koblenz-33984", "brand": "Dominos Pizza Germany"}, "geometry": {"type": "Point", "coordinates": [7.585896, 50.361153]}},
{"type": "Feature", "id": "X5EIuxL4j84Mz_DafsB7Y69mtIs=", "properties": {"ref": "33883", "@spider": "dominos_pizza_de", "addr:full": "Frauenstra\u00dfe 38/40", "addr:city": "Ulm", "addr:postcode": "89073", "addr:country": "de", "name": "Domino's Pizza Ulm Ost", "website": "https://www.dominos.de/filiale/de-ulmost-33883", "brand": "Dominos Pizza Germany"}, "geometry": {"type": "Point", "coordinates": [9.996855, 48.400211]}},
{"type": "Feature", "id": "irVXunS9AKhv1kathQmtBwTH1og=", "properties": {"ref": "33773", "@spider": "dominos_pizza_de", "addr:full": "Spittelstr. 3", "addr:city": "Kaiserslautern", "addr:postcode": "67655", "addr:country": "de", "name": "Domino's Pizza Kaiserslautern Ost", "website": "https://www.dominos.de/filiale/de-kaiserslauternost-33773", "brand": "Dominos Pizza Germany"}, "geometry": {"type": "Point", "coordinates": [7.771967, 49.445265]}},
{"type": "Feature", "id": "Jlcm7NWXXzJ9ycfa9nNNMnh9UfI=", "properties": {"ref": "33935", "@spider": "dominos_pizza_de", "addr:full": "Tempelhofer Damm 206", "addr:city": "Berlin", "addr:postcode": "12099", "addr:country": "de", "name": "Domino's Pizza Berlin Tempelhof", "website": "https://www.dominos.de/filiale/de-berlintempelhof-33935", "brand": "Dominos Pizza Germany"}, "geometry": {"type": "Point", "coordinates": [13.383887, 52.457868]}},
{"type": "Feature", "id": "zSF4CjxiisneJue_RVyK68NWeZY=", "properties": {"ref": "33987", "@spider": "dominos_pizza_de", "addr:full": "Maxim-Gorki-Str. 32", "addr:city": "STRALSUND", "addr:postcode": "18435", "addr:country": "de", "name": "Domino's Pizza Stralsund Nord", "website": "https://www.dominos.de/filiale/de-stralsundnord-33987", "brand": "Dominos Pizza Germany"}, "geometry": {"type": "Point", "coordinates": [13.054663, 54.324671]}},
{"type": "Feature", "id": "sltK91_iCbonS-og8ep4FmUK73o=", "properties": {"ref": "33840", "@spider": "dominos_pizza_de", "addr:full": "Judenstra\u00dfe 2", "addr:city": "Stralsund", "addr:postcode": "18439", "addr:country": "de", "name": "Domino's Pizza Stralsund Altstadt", "website": "https://www.dominos.de/filiale/de-stralsundaltstadt-33840", "brand": "Dominos Pizza Germany"}, "geometry": {"type": "Point", "coordinates": [13.090202, 54.312]}},
{"type": "Feature", "id": "HIJQc6m43nwl3dxI4GxiDrxR92o=", "properties": {"ref": "33800", "@spider": "dominos_pizza_de", "addr:full": "Wallstra\u00dfe 66", "addr:city": "Schwerin", "addr:postcode": "19053", "addr:country": "de", "name": "Domino's Pizza Schwerin Stadt", "website": "https://www.dominos.de/filiale/de-schwerinstadt-33800", "brand": "Dominos Pizza Germany"}, "geometry": {"type": "Point", "coordinates": [11.401969, 53.624651]}},
{"type": "Feature", "id": "DY26StGSpcEsEe6c8VRdfgesi3I=", "properties": {"ref": "33910", "@spider": "dominos_pizza_de", "addr:full": "Pariser Str. 162", "addr:city": "Kaiserslautern", "addr:postcode": "67655", "addr:country": "de", "name": "Domino's Pizza Kaiserslautern West", "website": "https://www.dominos.de/filiale/de-kaiserslauternwest-33910", "brand": "Dominos Pizza Germany"}, "geometry": {"type": "Point", "coordinates": [7.748511, 49.442658]}},
{"type": "Feature", "id": "gH_MiEaqdaax1NTlfV8NFaTeafY=", "properties": {"ref": "33931", "@spider": "dominos_pizza_de", "addr:full": "B\u00fcrgermeister-Bade-Platz 5", "addr:city": "Schwerin", "addr:postcode": "19055", "addr:country": "de", "name": "Domino's Pizza Schwerin Nord", "website": "https://www.dominos.de/filiale/de-schwerinnord-33931", "brand": "Dominos Pizza Germany"}, "geometry": {"type": "Point", "coordinates": [11.410031, 53.637854]}},
{"type": "Feature", "id": "Yqd9gt-Q8Q4ZFDJXjif0hm1_zB0=", "properties": {"ref": "33905", "@spider": "dominos_pizza_de", "addr:full": "Tschaikowskistra\u00dfe 58", "addr:city": "Rostock", "addr:postcode": "18069", "addr:country": "de", "name": "Domino's Pizza Rostock Reutershagen", "website": "https://www.dominos.de/filiale/de-rostockreutershagen-33905", "brand": "Dominos Pizza Germany"}, "geometry": {"type": "Point", "coordinates": [12.089727, 54.09143]}},
{"type": "Feature", "id": "mP7t7U0-fzs3mieZc3XIX_bH-9c=", "properties": {"ref": "33818", "@spider": "dominos_pizza_de", "addr:full": "L\u00fcbsche Str. 21", "addr:city": "Wismar", "addr:postcode": "23966", "addr:country": "de", "name": "Domino's Pizza Wismar Ost", "website": "https://www.dominos.de/filiale/de-wismarost-33818", "brand": "Dominos Pizza Germany"}, "geometry": {"type": "Point", "coordinates": [11.462719, 53.892249]}},
{"type": "Feature", "id": "GKbSa-la7EaI2OiVAQakKN7x8ho=", "properties": {"ref": "33790", "@spider": "dominos_pizza_de", "addr:full": "Fritz-Reuter-Stra\u00dfe 67", "addr:city": "Rostock", "addr:postcode": "18057", "addr:country": "de", "name": "Domino's Pizza Rostock KTV", "website": "https://www.dominos.de/filiale/de-rostockktv-33790", "brand": "Dominos Pizza Germany"}, "geometry": {"type": "Point", "coordinates": [12.113634, 54.089279]}},
{"type": "Feature", "id": "8q7W76SSVaOzSO7CpAA18GdCP_s=", "properties": {"ref": "33786", "@spider": "dominos_pizza_de", "addr:full": "Richard Wagner Stra\u00dfe 17", "addr:city": "Rostock", "addr:postcode": "18055", "addr:country": "de", "name": "Domino's Pizza Rostock City", "website": "https://www.dominos.de/filiale/de-rostockcity-33786", "brand": "Dominos Pizza Germany"}, "geometry": {"type": "Point", "coordinates": [12.140896, 54.084977]}},
{"type": "Feature", "id": "5WJ89oEzKHIvDSCp4_zZZ87hAbs=", "properties": {"ref": "33809", "@spider": "dominos_pizza_de", "addr:full": "Am Gr\u00fcnen Tal 31", "addr:city": "SCHWERIN", "addr:postcode": "19063", "addr:country": "de", "name": "Domino's Pizza Schwerin Dreesch", "website": "https://www.dominos.de/filiale/de-schwerindreesch-33809", "brand": "Dominos Pizza Germany"}, "geometry": {"type": "Point", "coordinates": [11.439601, 53.597385]}},
{"type": "Feature", "id": "NYQjEiNSmdrMDfIjqNo1e8pCfQc=", "properties": {"ref": "34215", "@spider": "dominos_pizza_de", "addr:full": "Eisenbahnstra\u00dfe 3", "addr:city": "G\u00fcstrow", "addr:postcode": "18273", "addr:country": "de", "name": "Domino's Pizza G\u00fcstrow", "website": "https://www.dominos.de/filiale/de-gstrow-34215", "brand": "Dominos Pizza Germany"}, "geometry": {"type": "Point", "coordinates": [12.171767, 53.796849]}},
{"type": "Feature", "id": "NU3NRAo7Uv1lCYhEx7wR8WiwaPA=", "properties": {"ref": "33804", "@spider": "dominos_pizza_de", "addr:full": "Katharinenstra\u00dfe 40", "addr:city": "Neubrandenburg", "addr:postcode": "17033", "addr:country": "de", "name": "Domino's Pizza Neubrandenburg", "website": "https://www.dominos.de/filiale/de-neubrandenburg-33804", "brand": "Dominos Pizza Germany"}, "geometry": {"type": "Point", "coordinates": [13.275065, 53.556628]}},
{"type": "Feature", "id": "OuLOz3X9n-jc0DZ0Tlzjy7T584Y=", "properties": {"ref": "33841", "@spider": "dominos_pizza_de", "addr:full": "Wolgaster Str. 85/86", "addr:city": "Greifswald", "addr:postcode": "17489", "addr:country": "de", "name": "Domino's Pizza Greifswald", "website": "https://www.dominos.de/filiale/de-greifswald-33841", "brand": "Dominos Pizza Germany"}, "geometry": {"type": "Point", "coordinates": [13.407033, 54.094027]}},
{"type": "Feature", "id": "tiE71lutlzF3ZaE_-eeFcynC4gU=", "properties": {"ref": "34190", "@spider": "dominos_pizza_de", "addr:full": "Merseburger Str. 5", "addr:city": "Wei\u00dfenfels", "addr:postcode": "06667", "addr:country": "de", "name": "Domino's Pizza Wei\u00dfenfels", "website": "https://www.dominos.de/filiale/de-weienfels-34190", "brand": "Dominos Pizza Germany"}, "geometry": {"type": "Point", "coordinates": [11.9676, 51.204957]}},
{"type": "Feature", "id": "aL2yoSH5PzKt7dCdY-y9cd-iHRg=", "properties": {"ref": "33779", "@spider": "dominos_pizza_de", "addr:full": "Markstr. 23-24", "addr:city": "Berlin", "addr:postcode": "13409", "addr:country": "de", "name": "Domino's Pizza Berlin Reinickendorf", "website": "https://www.dominos.de/filiale/de-berlinreinickendorf-33779", "brand": "Dominos Pizza Germany"}, "geometry": {"type": "Point", "coordinates": [13.365522, 52.558692]}},
{"type": "Feature", "id": "xiwni470LcT4y4akXQ6IEuqvx_k=", "properties": {"ref": "33791", "@spider": "dominos_pizza_de", "addr:full": "Stockholmer Stra\u00dfe 1", "addr:city": "Rostock", "addr:postcode": "18107", "addr:country": "de", "name": "Domino's Pizza Rostock Nordwesten", "website": "https://www.dominos.de/filiale/de-rostocknordwesten-33791", "brand": "Dominos Pizza Germany"}, "geometry": {"type": "Point", "coordinates": [12.052508, 54.135073]}},
{"type": "Feature", "id": "o7e_uGDbkIc-otYUOBO1um9aH2U=", "properties": {"ref": "34017", "@spider": "dominos_pizza_de", "addr:full": "Gerichtstr. 41", "addr:city": "BERLIN", "addr:postcode": "13347", "addr:country": "de", "name": "Domino's Pizza Berlin Wedding", "website": "https://www.dominos.de/filiale/de-berlinwedding-34017", "brand": "Dominos Pizza Germany"}, "geometry": {"type": "Point", "coordinates": [13.363386, 52.545061]}},
{"type": "Feature", "id": "8sJ0n5gPaI7sfJ0MB4ET4ubw7Fs=", "properties": {"ref": "33852", "@spider": "dominos_pizza_de", "addr:full": "Olvenstedter Stra\u00dfe 28", "addr:city": "Magdeburg", "addr:postcode": "39108", "addr:country": "de", "name": "Domino's Pizza Magdeburg Nord-West", "website": "https://www.dominos.de/filiale/de-magdeburgnordwest-33852", "brand": "Dominos Pizza Germany"}, "geometry": {"type": "Point", "coordinates": [11.613741, 52.135763]}},
{"type": "Feature", "id": "WRSHRKt33qMHjefdIVxHbLj6B4w=", "properties": {"ref": "33961", "@spider": "dominos_pizza_de", "addr:full": "Breiter Weg 255", "addr:city": "MAGDEBURG", "addr:postcode": "39104", "addr:country": "de", "name": "Domino's Pizza Magdeburg Altstadt", "website": "https://www.dominos.de/filiale/de-magdeburgaltstadt-33961", "brand": "Dominos Pizza Germany"}, "geometry": {"type": "Point", "coordinates": [11.629552, 52.121565]}},
{"type": "Feature", "id": "W2edWGug-PMXdw9UMiS7t7XCwGc=", "properties": {"ref": "34207", "@spider": "dominos_pizza_de", "addr:full": "Weintraubenstr. 14", "addr:city": "K\u00f6then", "addr:postcode": "06366", "addr:country": "de", "name": "Domino's Pizza K\u00f6then", "website": "https://www.dominos.de/filiale/de-kthen-34207", "brand": "Dominos Pizza Germany"}, "geometry": {"type": "Point", "coordinates": [11.981506, 51.751508]}},
{"type": "Feature", "id": "mYlbfjrsJ_xlgeSQFwLweqzL21g=", "properties": {"ref": "33894", "@spider": "dominos_pizza_de", "addr:full": "L\u00fcbecker Str. 4", "addr:city": "Magdeburg", "addr:postcode": "39124", "addr:country": "de", "name": "Domino's Pizza Magdeburg Nord-Ost", "website": "https://www.dominos.de/filiale/de-magdeburgnordost-33894", "brand": "Dominos Pizza Germany"}, "geometry": {"type": "Point", "coordinates": [11.638662, 52.149745]}},
{"type": "Feature", "id": "kqeqty1jtO1Nj7s7zDewz2zvzyc=", "properties": {"ref": "33831", "@spider": "dominos_pizza_de", "addr:full": "H\u00e4ndelstra\u00dfe 38", "addr:city": "Halle", "addr:postcode": "06114", "addr:country": "de", "name": "Domino's Pizza Halle Reileck", "website": "https://www.dominos.de/filiale/de-hallereileck-33831", "brand": "Dominos Pizza Germany"}, "geometry": {"type": "Point", "coordinates": [11.965737, 51.495113]}},
{"type": "Feature", "id": "38119B-OHnHsOyXfkQvVrc9yBzc=", "properties": {"ref": "34153", "@spider": "dominos_pizza_de", "addr:full": "K\u00f6thener Str. 13", "addr:city": "HALLE", "addr:postcode": "06118", "addr:country": "de", "name": "Domino's Pizza Halle Nord", "website": "https://www.dominos.de/filiale/de-hallenord-34153", "brand": "Dominos Pizza Germany"}, "geometry": {"type": "Point", "coordinates": [11.956644, 51.520395]}},
{"type": "Feature", "id": "x7YswDNF4oqM7WDQD4hrfLLcDvo=", "properties": {"ref": "34201", "@spider": "dominos_pizza_de", "addr:full": "Am Treff 5", "addr:city": "(Saale", "addr:postcode": "06124 Halle", "addr:country": "de", "name": "Domino's Pizza Halle Neustadt", "website": "https://www.dominos.de/filiale/de-halleneustadt-34201", "brand": "Dominos Pizza Germany"}, "geometry": {"type": "Point", "coordinates": [11.93012, 51.476838]}},
{"type": "Feature", "id": "umLi4ese97rMUz8LqX24TVJGWHQ=", "properties": {"ref": "33923", "@spider": "dominos_pizza_de", "addr:full": "Alt-Moabit 79", "addr:city": "BERLIN", "addr:postcode": "10555", "addr:country": "de", "name": "Domino's Pizza Berlin Tiergarten", "website": "https://www.dominos.de/filiale/de-berlintiergarten-33923", "brand": "Dominos Pizza Germany"}, "geometry": {"type": "Point", "coordinates": [13.334857, 52.524528]}},
{"type": "Feature", "id": "TP6vB6TTT27BAzaVNfsWkWsog90=", "properties": {"ref": "33982", "@spider": "dominos_pizza_de", "addr:full": "Breite Str. 93/94", "addr:city": "Bernburg", "addr:postcode": "06406", "addr:country": "de", "name": "Domino's Pizza Bernburg", "website": "https://www.dominos.de/filiale/de-bernburg-33982", "brand": "Dominos Pizza Germany"}, "geometry": {"type": "Point", "coordinates": [11.733195, 51.801115]}},
{"type": "Feature", "id": "FxbAORcidee6kUQ7cTi5OJk5MbE=", "properties": {"ref": "33794", "@spider": "dominos_pizza_de", "addr:full": "Kavalierstra\u00dfe 63", "addr:city": "Dessau", "addr:postcode": "06844", "addr:country": "de", "name": "Domino's Pizza Dessau Zentrum", "website": "https://www.dominos.de/filiale/de-dessauzentrum-33794", "brand": "Dominos Pizza Germany"}, "geometry": {"type": "Point", "coordinates": [12.242915, 51.832732]}},
{"type": "Feature", "id": "2-q9gagifMD6tqsjfkJciZ0rJ7A=", "properties": {"ref": "33992", "@spider": "dominos_pizza_de", "addr:full": "Holzmarkt 4", "addr:city": "Aschersleben", "addr:postcode": "06449", "addr:country": "de", "name": "Domino's Pizza Aschersleben", "website": "https://www.dominos.de/filiale/de-aschersleben-33992", "brand": "Dominos Pizza Germany"}, "geometry": {"type": "Point", "coordinates": [11.457436, 51.755136]}},
{"type": "Feature", "id": "-92NYKoCU5p4r1ndQAsXJ1UozxE=", "properties": {"ref": "34027", "@spider": "dominos_pizza_de", "addr:full": "Badergasse 5", "addr:city": "Spremberg", "addr:postcode": "03130", "addr:country": "de", "name": "Domino's Pizza Spremberg", "website": "https://www.dominos.de/filiale/de-spremberg-34027", "brand": "Dominos Pizza Germany"}, "geometry": {"type": "Point", "coordinates": [14.378154, 51.572222]}},
{"type": "Feature", "id": "lWIjvajUhUASt0uKhDGMiImxpiw=", "properties": {"ref": "34148", "@spider": "dominos_pizza_de", "addr:full": "Bahnhofstr. 28", "addr:city": "Senftenberg", "addr:postcode": "01968", "addr:country": "de", "name": "Domino's Pizza Senftenberg", "website": "https://www.dominos.de/filiale/de-senftenberg-34148", "brand": "Dominos Pizza Germany"}, "geometry": {"type": "Point", "coordinates": [14.00409, 51.522352]}},
{"type": "Feature", "id": "gCBbPKI7SgUfPGRGM8sqjL6dSpc=", "properties": {"ref": "34199", "@spider": "dominos_pizza_de", "addr:full": "Geschwister-Scholl-Str. 89", "addr:city": "POTSDAM", "addr:postcode": "14471", "addr:country": "de", "name": "Domino's Pizza Potsdam West", "website": "https://www.dominos.de/filiale/de-potsdamwest-34199", "brand": "Dominos Pizza Germany"}, "geometry": {"type": "Point", "coordinates": [13.036868, 52.394082]}},
{"type": "Feature", "id": "nrt0fbeqwN_o0wgeWhzjh7-VV-o=", "properties": {"ref": "34219", "@spider": "dominos_pizza_de", "addr:full": "M\u00e4rkischer Platz 2", "addr:city": "Rathenow", "addr:postcode": "14712", "addr:country": "de", "name": "Domino's Pizza Rathenow", "website": "https://www.dominos.de/filiale/de-rathenow-34219", "brand": "Dominos Pizza Germany"}, "geometry": {"type": "Point", "coordinates": [12.341802, 52.60614]}},
{"type": "Feature", "id": "64NTMasgSof2zQoPRxZ6iSqtZkE=", "properties": {"ref": "34025", "@spider": "dominos_pizza_de", "addr:full": "Berliner Str. 40", "addr:city": "Oranienburg", "addr:postcode": "16515", "addr:country": "de", "name": "Domino's Pizza Oranienburg", "website": "https://www.dominos.de/filiale/de-oranienburg-34025", "brand": "Dominos Pizza Germany"}, "geometry": {"type": "Point", "coordinates": [13.237544, 52.749837]}},
{"type": "Feature", "id": "WSfpGvCbYJMKAGhJCfpGWm1iHUw=", "properties": {"ref": "34024", "@spider": "dominos_pizza_de", "addr:full": "Alte Huttung 4", "addr:city": "L\u00fcbbenau", "addr:postcode": "03222", "addr:country": "de", "name": "Domino's Pizza L\u00fcbbenau", "website": "https://www.dominos.de/filiale/de-lbbenau-34024", "brand": "Dominos Pizza Germany"}, "geometry": {"type": "Point", "coordinates": [13.952001, 51.85685]}},
{"type": "Feature", "id": "GhJ-rX4j3B5cfGjywfvp7mEzUbQ=", "properties": {"ref": "34023", "@spider": "dominos_pizza_de", "addr:full": "Breite Str. 4", "addr:city": "L\u00fcbben", "addr:postcode": "15907", "addr:country": "de", "name": "Domino's Pizza L\u00fcbben", "website": "https://www.dominos.de/filiale/de-lbben-34023", "brand": "Dominos Pizza Germany"}, "geometry": {"type": "Point", "coordinates": [13.891921, 51.940898]}},
{"type": "Feature", "id": "yQNHUXJK_mlARjQsES6Ohc_XNXI=", "properties": {"ref": "33944", "@spider": "dominos_pizza_de", "addr:full": "Rudolf-Breitscheid Str. 29-35", "addr:city": "Potsdam", "addr:postcode": "14482", "addr:country": "de", "name": "Domino's Pizza Potsdam Babelsberg", "website": "https://www.dominos.de/filiale/de-potsdambabelsberg-33944", "brand": "Dominos Pizza Germany"}, "geometry": {"type": "Point", "coordinates": [13.092042, 52.391695]}},
{"type": "Feature", "id": "cbP32kCkiwerEwVzVr4ucb4tGoc=", "properties": {"ref": "34176", "@spider": "dominos_pizza_de", "addr:full": "Karl-Liebknecht-Stra\u00dfe 63A", "addr:city": "Frankfurt/Oder", "addr:postcode": "15230", "addr:country": "de", "name": "Domino's Pizza Frankfurt/Oder Mitte", "website": "https://www.dominos.de/filiale/debb-frankfurtodermitte-34176", "brand": "Dominos Pizza Germany"}, "geometry": {"type": "Point", "coordinates": [14.535188, 52.345037]}},
{"type": "Feature", "id": "5eFRXQVSAKlNmkCwtlzJmenvrUA=", "properties": {"ref": "33994", "@spider": "dominos_pizza_de", "addr:full": "Thierbacher Str.12B", "addr:city": "COTTBUS", "addr:postcode": "03048", "addr:country": "de", "name": "Domino's Pizza Cottbus S\u00fcd", "website": "https://www.dominos.de/filiale/de-cottbussd-33994", "brand": "Dominos Pizza Germany"}, "geometry": {"type": "Point", "coordinates": [14.326293, 51.729028]}},
{"type": "Feature", "id": "ZNYpoSKYgwUVuTR6B6-p8ktyw-8=", "properties": {"ref": "34202", "@spider": "dominos_pizza_de", "addr:full": "Ernst-Zindel-Str. 2", "addr:city": "Dessau", "addr:postcode": "06847", "addr:country": "de", "name": "Domino's Pizza Dessau Junkerspark", "website": "https://www.dominos.de/filiale/de-dessaujunkerspark-34202", "brand": "Dominos Pizza Germany"}, "geometry": {"type": "Point", "coordinates": [12.181082, 51.817642]}},
{"type": "Feature", "id": "Wryn-6Iuye8N5xU9hiUVI5zNapk=", "properties": {"ref": "34021", "@spider": "dominos_pizza_de", "addr:full": "Karl-Liebknecht-Str. 136", "addr:city": "Cottbus", "addr:postcode": "03046", "addr:country": "de", "name": "Domino's Pizza Cottbus Mitte", "website": "https://www.dominos.de/filiale/de-cottbusmitte-34021", "brand": "Dominos Pizza Germany"}, "geometry": {"type": "Point", "coordinates": [14.33143, 51.758311]}},
{"type": "Feature", "id": "gmLC-aACyN4X9D-neZHtKOFZTbw=", "properties": {"ref": "33997", "@spider": "dominos_pizza_de", "addr:full": "Willi-S\u00e4nger-Str. 15A", "addr:city": "Havel", "addr:postcode": "14770 Brandenburg an der", "addr:country": "de", "name": "Domino's Pizza Brandenburg an der Havel", "website": "https://www.dominos.de/filiale/de-brandenburganderhavel-33997", "brand": "Dominos Pizza Germany"}, "geometry": {"type": "Point", "coordinates": [12.551805, 52.417727]}},
{"type": "Feature", "id": "fhZf5nIMigepm9tKqtrw7BNg8Yk=", "properties": {"ref": "34189", "@spider": "dominos_pizza_de", "addr:full": "Feldstr. 2", "addr:city": "Hennigsdorf", "addr:postcode": "16761", "addr:country": "de", "name": "Domino's Pizza Hennigsdorf", "website": "https://www.dominos.de/filiale/de-hennigsdorf-34189", "brand": "Dominos Pizza Germany"}, "geometry": {"type": "Point", "coordinates": [13.206347, 52.640734]}},
{"type": "Feature", "id": "-5uffZQoCThb_2xBZ74zPVJEMMo=", "properties": {"ref": "33814", "@spider": "dominos_pizza_de", "addr:full": "Gablenberger Hauptstra\u00dfe 54", "addr:city": "Stuttgart", "addr:postcode": "70186", "addr:country": "de", "name": "Domino's Pizza Stuttgart Ost", "website": "https://www.dominos.de/filiale/de-stuttgartost-33814", "brand": "Dominos Pizza Germany"}, "geometry": {"type": "Point", "coordinates": [9.206598, 48.778126]}},
{"type": "Feature", "id": "dRmEg6RdOr8HR2Hm94cbuoFWizw=", "properties": {"ref": "33906", "@spider": "dominos_pizza_de", "addr:full": "Unter Den Linden 28", "addr:city": "Reutlingen", "addr:postcode": "72762", "addr:country": "de", "name": "Domino's Pizza Reutlingen", "website": "https://www.dominos.de/filiale/de-reutlingen-33906", "brand": "Dominos Pizza Germany"}, "geometry": {"type": "Point", "coordinates": [9.207235, 48.495441]}},
{"type": "Feature", "id": "nlblReOPnRVCu0GrS1NXN8P0_C4=", "properties": {"ref": "33930", "@spider": "dominos_pizza_de", "addr:full": "Eichborndamm 292", "addr:city": "BERLIN", "addr:postcode": "13437", "addr:country": "de", "name": "Domino's Pizza Berlin Wittenau Tegel", "website": "https://www.dominos.de/filiale/de-berlinwittenautegel-33930", "brand": "Dominos Pizza Germany"}, "geometry": {"type": "Point", "coordinates": [13.331267, 52.594774]}},
{"type": "Feature", "id": "uwnKt6Vbgai1HYY-MwEAH8GWZ0U=", "properties": {"ref": "33901", "@spider": "dominos_pizza_de", "addr:full": "Waldstra\u00dfe 162 / Eingang Schwalbacher Str.", "addr:city": "Mannheim", "addr:postcode": "68305", "addr:country": "de", "name": "Domino's Pizza Mannheim Nord", "website": "https://www.dominos.de/filiale/de-mannheimnord-33901", "brand": "Dominos Pizza Germany"}, "geometry": {"type": "Point", "coordinates": [8.500759, 49.523937]}},
{"type": "Feature", "id": "m0u0jKhRmv7DvqZoghXctNe3g50=", "properties": {"ref": "33835", "@spider": "dominos_pizza_de", "addr:full": "Herrenberger Stra\u00dfe 68", "addr:city": "T\u00dcBINGEN", "addr:postcode": "72070", "addr:country": "de", "name": "Domino's Pizza T\u00fcbingen Nord", "website": "https://www.dominos.de/filiale/de-tbingennord-33835", "brand": "Dominos Pizza Germany"}, "geometry": {"type": "Point", "coordinates": [9.04288, 48.524036]}},
{"type": "Feature", "id": "9Zk-kvaxJJOj4-9cuK7P0dkN038=", "properties": {"ref": "33784", "@spider": "dominos_pizza_de", "addr:full": "S 6 21", "addr:city": "Mannheim", "addr:postcode": "68161", "addr:country": "de", "name": "Domino's Pizza Mannheim Mitte", "website": "https://www.dominos.de/filiale/de-mannheimmitte-33784", "brand": "Dominos Pizza Germany"}, "geometry": {"type": "Point", "coordinates": [8.475774, 49.487582]}},
{"type": "Feature", "id": "xK5cNMMTAMJSmFNK2bb2XxtELvc=", "properties": {"ref": "33832", "@spider": "dominos_pizza_de", "addr:full": "Hechinger Stra\u00dfe 64", "addr:city": "T\u00fcbingen", "addr:postcode": "72072", "addr:country": "de", "name": "Domino's Pizza T\u00fcbingen S\u00fcd", "website": "https://www.dominos.de/filiale/de-tbingensd-33832", "brand": "Dominos Pizza Germany"}, "geometry": {"type": "Point", "coordinates": [9.059425, 48.509479]}},
{"type": "Feature", "id": "MWB7PdCIax50Iw7Ub04prA53iNA=", "properties": {"ref": "33863", "@spider": "dominos_pizza_de", "addr:full": "Spitalstra\u00dfe 19", "addr:city": "L\u00f6rrach", "addr:postcode": "79539", "addr:country": "de", "name": "Domino's Pizza L\u00f6rrach", "website": "https://www.dominos.de/filiale/de-lrrach-33863", "brand": "Dominos Pizza Germany"}, "geometry": {"type": "Point", "coordinates": [7.659465, 47.613436]}},
{"type": "Feature", "id": "WyqH21Wk_DHY638zDb3QTmHA6Qc=", "properties": {"ref": "33896", "@spider": "dominos_pizza_de", "addr:full": "Luisenstr. 38", "addr:city": "Mannheim", "addr:postcode": "68199", "addr:country": "de", "name": "Domino's Pizza Mannheim Neckarau", "website": "https://www.dominos.de/filiale/de-mannheimneckarau-33896", "brand": "Dominos Pizza Germany"}, "geometry": {"type": "Point", "coordinates": [8.488723, 49.455109]}},
{"type": "Feature", "id": "WMG2tWQLRNHu_soF-KjgFGfY_-A=", "properties": {"ref": "33954", "@spider": "dominos_pizza_de", "addr:full": "Honsellstra\u00dfe 1B", "addr:city": "Karlsruhe", "addr:postcode": "76185", "addr:country": "de", "name": "Domino's Pizza Karlsruhe West", "website": "https://www.dominos.de/filiale/de-karlsruhewest-33954", "brand": "Dominos Pizza Germany"}, "geometry": {"type": "Point", "coordinates": [8.354343, 49.013046]}},
{"type": "Feature", "id": "iM5aKD6xMKwe1N9gcIXHXAzn_Y8=", "properties": {"ref": "33895", "@spider": "dominos_pizza_de", "addr:full": "Durlacher Allee 4", "addr:city": "Karlsruhe", "addr:postcode": "76131", "addr:country": "de", "name": "Domino's Pizza Karlsruhe Mitte", "website": "https://www.dominos.de/filiale/de-karlsruhemitte-33895", "brand": "Dominos Pizza Germany"}, "geometry": {"type": "Point", "coordinates": [8.417752, 49.008675]}},
{"type": "Feature", "id": "mPHfgC2KX_MqC0MwAHVeXdklrh8=", "properties": {"ref": "33919", "@spider": "dominos_pizza_de", "addr:full": "M\u00f6rikestr. 2", "addr:city": "Ludwigsburg", "addr:postcode": "71636", "addr:country": "de", "name": "Domino's Pizza Ludwigsburg Ost (Kornwestheim)", "website": "https://www.dominos.de/filiale/de-ludwigsburgostkornwestheim-33919", "brand": "Dominos Pizza Germany"}, "geometry": {"type": "Point", "coordinates": [9.180144, 48.894754]}},
{"type": "Feature", "id": "dVQSn6dOvY-W2IoL9Yf8m-Y6etk=", "properties": {"ref": "33785", "@spider": "dominos_pizza_de", "addr:full": "Rathausstr. 8", "addr:city": "Heidelberg", "addr:postcode": "69126", "addr:country": "de", "name": "Domino's Pizza Heidelberg S\u00fcd", "website": "https://www.dominos.de/filiale/de-heidelbergsd-33785", "brand": "Dominos Pizza Germany"}, "geometry": {"type": "Point", "coordinates": [8.688172, 49.379896]}},
{"type": "Feature", "id": "OTmpq4CRPI9soxIRuvywSt6PthY=", "properties": {"ref": "33937", "@spider": "dominos_pizza_de", "addr:full": "Bahnhofstr. 81", "addr:city": "Fellbach", "addr:postcode": "70736", "addr:country": "de", "name": "Domino's Pizza Fellbach", "website": "https://www.dominos.de/filiale/de-fellbach-33937", "brand": "Dominos Pizza Germany"}, "geometry": {"type": "Point", "coordinates": [9.273643, 48.815469]}},
{"type": "Feature", "id": "0wYVLIyxUlIq0WxXg5fVmrlLgoc=", "properties": {"ref": "33881", "@spider": "dominos_pizza_de", "addr:full": "Paulinenstr. 12", "addr:city": "Heilbronn", "addr:postcode": "74076", "addr:country": "de", "name": "Domino's Pizza Heilbronn Ost", "website": "https://www.dominos.de/filiale/de-heilbronnost-33881", "brand": "Dominos Pizza Germany"}, "geometry": {"type": "Point", "coordinates": [9.221472, 49.147507]}},
{"type": "Feature", "id": "ENGB-kfEBHr5xDJ5NoCTQiSgaMI=", "properties": {"ref": "33956", "@spider": "dominos_pizza_de", "addr:full": "Leonardo-Da-Vinci-Platz 7", "addr:city": "B\u00f6blingen", "addr:postcode": "71034", "addr:country": "de", "name": "Domino's Pizza B\u00f6blingen", "website": "https://www.dominos.de/filiale/de-bblingen-33956", "brand": "Dominos Pizza Germany"}, "geometry": {"type": "Point", "coordinates": [8.9971, 48.687667]}},
{"type": "Feature", "id": "hUW30eIQOxwKOmb6Y6w_09CuZB8=", "properties": {"ref": "34011", "@spider": "dominos_pizza_de", "addr:full": "Gustav-Adolf-Str. 1", "addr:city": "Berlin", "addr:postcode": "13086", "addr:country": "de", "name": "Domino's Pizza Berlin Prenzlauer Berg Nord", "website": "https://www.dominos.de/filiale/de-berlinprenzlauerbergnord-34011", "brand": "Dominos Pizza Germany"}, "geometry": {"type": "Point", "coordinates": [13.430837, 52.551693]}},
{"type": "Feature", "id": "xbKz9Ww3kNq9LtAJwn5NfGEHi2w=", "properties": {"ref": "34010", "@spider": "dominos_pizza_de", "addr:full": "Kastanienallee 58A", "addr:city": "BERLIN", "addr:postcode": "13158", "addr:country": "de", "name": "Domino's Pizza Berlin Pankow", "website": "https://www.dominos.de/filiale/de-berlinpankow-34010", "brand": "Dominos Pizza Germany"}, "geometry": {"type": "Point", "coordinates": [13.376751, 52.591158]}},
{"type": "Feature", "id": "cGcL9IFMvk2bMW6keRDdyIUCehg=", "properties": {"ref": "33991", "@spider": "dominos_pizza_de", "addr:full": "Am Elzdamm 36", "addr:city": "Emmendingen", "addr:postcode": "79312", "addr:country": "de", "name": "Domino's Pizza Emmendingen", "website": "https://www.dominos.de/filiale/de-emmendingen-33991", "brand": "Dominos Pizza Germany"}, "geometry": {"type": "Point", "coordinates": [7.832531, 48.124307]}},
{"type": "Feature", "id": "1ee2mCFc91jLVRKa6M4AqWXqdD8=", "properties": {"ref": "33715", "@spider": "dominos_pizza_de", "addr:full": "Schumannstra\u00dfe 19", "addr:city": "Berlin", "addr:postcode": "10117", "addr:country": "de", "name": "Domino's Pizza Berlin Mitte", "website": "https://www.dominos.de/filiale/debe-berlinmitte-33715", "brand": "Dominos Pizza Germany"}, "geometry": {"type": "Point", "coordinates": [13.379845, 52.523792]}},
{"type": "Feature", "id": "-9iWTzi66N5emBGwQzHO7_tw6PM=", "properties": {"ref": "34179", "@spider": "dominos_pizza_de", "addr:full": "Oberwei\u00dfbacher Str. 9", "addr:city": "BERLIN", "addr:postcode": "12681", "addr:country": "de", "name": "Domino's Pizza Berlin Marzahn", "website": "https://www.dominos.de/filiale/de-berlinmarzahn-34179", "brand": "Dominos Pizza Germany"}, "geometry": {"type": "Point", "coordinates": [13.570459, 52.556951]}},
{"type": "Feature", "id": "pXBi1_jUzkeKxRhqxaKlA3k3xRw=", "properties": {"ref": "34015", "@spider": "dominos_pizza_de", "addr:full": "Mariendorfer Damm 103", "addr:city": "BERLIN", "addr:postcode": "12109", "addr:country": "de", "name": "Domino's Pizza Berlin Mariendorf", "website": "https://www.dominos.de/filiale/de-berlinmariendorf-34015", "brand": "Dominos Pizza Germany"}, "geometry": {"type": "Point", "coordinates": [13.386528, 52.443495]}},
{"type": "Feature", "id": "H0YKvShAOHhvLdCk1tuYLFhOA-4=", "properties": {"ref": "34003", "@spider": "dominos_pizza_de", "addr:full": "H\u00f6nower Str. 171", "addr:city": "BERLIN", "addr:postcode": "12623", "addr:country": "de", "name": "Domino's Pizza Berlin Mahlsdorf", "website": "https://www.dominos.de/filiale/de-berlinmahlsdorf-34003", "brand": "Dominos Pizza Germany"}, "geometry": {"type": "Point", "coordinates": [13.617273, 52.520292]}},
{"type": "Feature", "id": "MhhtMI6x6D_7OZaymJOWe6PWu-w=", "properties": {"ref": "33879", "@spider": "dominos_pizza_de", "addr:full": "Hindenburgdamm 3", "addr:city": "Berlin", "addr:postcode": "12203", "addr:country": "de", "name": "Domino's Pizza Berlin Lichterfelde", "website": "https://www.dominos.de/filiale/de-berlinlichterfelde-33879", "brand": "Dominos Pizza Germany"}, "geometry": {"type": "Point", "coordinates": [13.311104, 52.432571]}},
{"type": "Feature", "id": "J2iuRASWJ_DXsj4SzxB2ZekPsLI=", "properties": {"ref": "33952", "@spider": "dominos_pizza_de", "addr:full": "Frankfurter Allee 199", "addr:city": "Berlin", "addr:postcode": "10365", "addr:country": "de", "name": "Domino's Pizza Berlin Lichtenberg", "website": "https://www.dominos.de/filiale/de-berlinlichtenberg-33952", "brand": "Dominos Pizza Germany"}, "geometry": {"type": "Point", "coordinates": [13.489982, 52.512386]}},
{"type": "Feature", "id": "Wg7jv17C9nEg_Zz_PtVVPiIK3N4=", "properties": {"ref": "33983", "@spider": "dominos_pizza_de", "addr:full": "Wilhelminenhofstr. 47A", "addr:city": "BERLIN", "addr:postcode": "12459", "addr:country": "de", "name": "Domino's Pizza Berlin Obersch\u00f6neweide", "website": "https://www.dominos.de/filiale/de-berlinoberschneweide-33983", "brand": "Dominos Pizza Germany"}, "geometry": {"type": "Point", "coordinates": [13.523304, 52.460003]}},
{"type": "Feature", "id": "vVRcYcdtwh7noxY132UgXx5cO-c=", "properties": {"ref": "34008", "@spider": "dominos_pizza_de", "addr:full": "Brachvogelstr. 1", "addr:city": "BERLIN", "addr:postcode": "10961", "addr:country": "de", "name": "Domino's Pizza Berlin Kreuzberg S\u00fcd", "website": "https://www.dominos.de/filiale/de-berlinkreuzbergsd-34008", "brand": "Dominos Pizza Germany"}, "geometry": {"type": "Point", "coordinates": [13.398007, 52.495388]}},
{"type": "Feature", "id": "R8YJH9gylhx3yQZYJTuSY3dE42U=", "properties": {"ref": "33927", "@spider": "dominos_pizza_de", "addr:full": "Oranienstra\u00dfe 52", "addr:city": "BERLIN", "addr:postcode": "10969", "addr:country": "de", "name": "Domino's Pizza Berlin Kreuzberg Nord", "website": "https://www.dominos.de/filiale/de-berlinkreuzbergnord-33927", "brand": "Dominos Pizza Germany"}, "geometry": {"type": "Point", "coordinates": [13.411917, 52.503407]}},
{"type": "Feature", "id": "zo8VG267xq9OEUqM3SpZ2iU8LuQ=", "properties": {"ref": "34006", "@spider": "dominos_pizza_de", "addr:full": "Kaulsdorfer Str. 133", "addr:city": "Berlin", "addr:postcode": "12555", "addr:country": "de", "name": "Domino's Pizza Berlin Kaulsdorf", "website": "https://www.dominos.de/filiale/de-berlinkaulsdorf-34006", "brand": "Dominos Pizza Germany"}, "geometry": {"type": "Point", "coordinates": [13.572613, 52.471336]}},
{"type": "Feature", "id": "b7DHja1IWsRwZWE12ssSgq3hUIk=", "properties": {"ref": "34007", "@spider": "dominos_pizza_de", "addr:full": "Puchanstr. 22", "addr:city": "Berlin", "addr:postcode": "12555", "addr:country": "de", "name": "Domino's Pizza Berlin K\u00f6penick", "website": "https://www.dominos.de/filiale/de-berlinkpenick-34007", "brand": "Dominos Pizza Germany"}, "geometry": {"type": "Point", "coordinates": [13.577832, 52.454212]}},
{"type": "Feature", "id": "MbRAteD7VmsQ2JA0B5s_OgcIJ7A=", "properties": {"ref": "33823", "@spider": "dominos_pizza_de", "addr:full": "Z\u00e4hringerplatz 15", "addr:city": "Konstanz", "addr:postcode": "78464", "addr:country": "de", "name": "Domino's Pizza Konstanz", "website": "https://www.dominos.de/filiale/de-konstanz-33823", "brand": "Dominos Pizza Germany"}, "geometry": {"type": "Point", "coordinates": [9.183536, 47.673372]}},
{"type": "Feature", "id": "tU5wxu7r4PbA-vGyaUGDNscCyNU=", "properties": {"ref": "34005", "@spider": "dominos_pizza_de", "addr:full": "Bahnhofstr. 33D", "addr:city": "Berlin", "addr:postcode": "13125", "addr:country": "de", "name": "Domino's Pizza Berlin Karow", "website": "https://www.dominos.de/filiale/de-berlinkarow-34005", "brand": "Dominos Pizza Germany"}, "geometry": {"type": "Point", "coordinates": [13.480429, 52.609835]}},
{"type": "Feature", "id": "OiFR4OZQx4231LDE2Iw4dVlUS_g=", "properties": {"ref": "33902", "@spider": "dominos_pizza_de", "addr:full": "Fritz-Lang-Str. 8", "addr:city": "Berlin", "addr:postcode": "12627", "addr:country": "de", "name": "Domino's Pizza Berlin Hellersdorf", "website": "https://www.dominos.de/filiale/de-berlinhellersdorf-33902", "brand": "Dominos Pizza Germany"}, "geometry": {"type": "Point", "coordinates": [13.602639, 52.538186]}},
{"type": "Feature", "id": "K_iiP9cPobbXJvj2UnfOpvidvt0=", "properties": {"ref": "33980", "@spider": "dominos_pizza_de", "addr:full": "Schierker Str. 23", "addr:city": "BERLIN", "addr:postcode": "12051", "addr:country": "de", "name": "Domino's Pizza Berlin Hermannstrasse", "website": "https://www.dominos.de/filiale/de-berlinhermannstrasse-33980", "brand": "Dominos Pizza Germany"}, "geometry": {"type": "Point", "coordinates": [13.431663, 52.470186]}},
{"type": "Feature", "id": "HoPc8kYpicjzP1iP8-1U1IWEUms=", "properties": {"ref": "34020", "@spider": "dominos_pizza_de", "addr:full": "Oranienburger Chaussee 6", "addr:city": "Glienicke", "addr:postcode": "16548", "addr:country": "de", "name": "Domino's Pizza Berlin Glienicke", "website": "https://www.dominos.de/filiale/de-berlinglienicke-34020", "brand": "Dominos Pizza Germany"}, "geometry": {"type": "Point", "coordinates": [13.311323, 52.628733]}},
{"type": "Feature", "id": "7UJ7BfqyjX0PTDDz5sebJ4RJM9s=", "properties": {"ref": "33917", "@spider": "dominos_pizza_de", "addr:full": "Boxhagener Str. 109", "addr:city": "Berlin", "addr:postcode": "10245", "addr:country": "de", "name": "Domino's Pizza Berlin Frankfurter Tor", "website": "https://www.dominos.de/filiale/de-berlinfrankfurtertor-33917", "brand": "Dominos Pizza Germany"}, "geometry": {"type": "Point", "coordinates": [13.457471, 52.512992]}},
{"type": "Feature", "id": "Me1cljMvSIp5vy75Kmi-fgbtOxs=", "properties": {"ref": "33877", "@spider": "dominos_pizza_de", "addr:full": "Kaiserdamm 14", "addr:city": "Berlin", "addr:postcode": "14057", "addr:country": "de", "name": "Domino's Pizza Berlin Charlottenburg S\u00fcd", "website": "https://www.dominos.de/filiale/de-berlincharlottenburgsd-33877", "brand": "Dominos Pizza Germany"}, "geometry": {"type": "Point", "coordinates": [13.288412, 52.510605]}},
{"type": "Feature", "id": "c00j8qRJUOcISwuN5H7qV7eg3UE=", "properties": {"ref": "33924", "@spider": "dominos_pizza_de", "addr:full": "Weitlingstr. 71", "addr:city": "Berlin", "addr:postcode": "10317", "addr:country": "de", "name": "Domino's Pizza Berlin Friedrichsfelde", "website": "https://www.dominos.de/filiale/de-berlinfriedrichsfelde-33924", "brand": "Dominos Pizza Germany"}, "geometry": {"type": "Point", "coordinates": [13.495364, 52.504876]}},
{"type": "Feature", "id": "SGElaQTCEmmLWy677gAvGxhyU5g=", "properties": {"ref": "34208", "@spider": "dominos_pizza_de", "addr:full": "Berliner Chaussee 48 - 50", "addr:city": "MAGDEBURG", "addr:postcode": "39114", "addr:country": "de", "name": "Domino's Pizza Magdeburg Cracau", "website": "https://www.dominos.de/filiale/de-magdeburgcracau-34208", "brand": "Dominos Pizza Germany"}, "geometry": {"type": "Point", "coordinates": [11.671732, 52.129381]}},
{"type": "Feature", "id": "KHYgm6TsBD4qhbDI54dlfHQJDpI=", "properties": {"ref": "34002", "@spider": "dominos_pizza_de", "addr:full": "Boxhagener Str. 102", "addr:city": "Berlin", "addr:postcode": "10245", "addr:country": "de", "name": "Domino's Pizza Berlin Boxhagener Platz", "website": "https://www.dominos.de/filiale/de-berlinboxhagenerplatz-34002", "brand": "Dominos Pizza Germany"}, "geometry": {"type": "Point", "coordinates": [13.459886, 52.512574]}},
{"type": "Feature", "id": "d-Ygzqy8oQigLVPU1vnJJBv-t7M=", "properties": {"ref": "34004", "@spider": "dominos_pizza_de", "addr:full": "Grevesm\u00fchlener Str. 30", "addr:city": "Berlin", "addr:postcode": "13059", "addr:country": "de", "name": "Domino's Pizza Berlin Hohensch\u00f6nhausen", "website": "https://www.dominos.de/filiale/de-berlinhohenschnhausen-34004", "brand": "Dominos Pizza Germany"}, "geometry": {"type": "Point", "coordinates": [13.517291, 52.569215]}},
{"type": "Feature", "id": "NadFd4ahL4vxebJAcQrYfdt_cJU=", "properties": {"ref": "34196", "@spider": "dominos_pizza_de", "addr:full": "N\u00fcrnberger Str. 90", "addr:city": "W\u00dcRZBURG", "addr:postcode": "97076", "addr:country": "de", "name": "Domino's Pizza W\u00fcrzburg Ost", "website": "https://www.dominos.de/filiale/de-wrzburgost-34196", "brand": "Dominos Pizza Germany"}, "geometry": {"type": "Point", "coordinates": [9.980331, 49.796039]}},
{"type": "Feature", "id": "8a0BpMp74XeRr29xMjNLVh9IQmc=", "properties": {"ref": "33876", "@spider": "dominos_pizza_de", "addr:full": "Luitpoldstra\u00dfe 19", "addr:city": "Schweinfurt", "addr:postcode": "97421", "addr:country": "de", "name": "Domino's Pizza Schweinfurt", "website": "https://www.dominos.de/filiale/de-schweinfurt-33876", "brand": "Dominos Pizza Germany"}, "geometry": {"type": "Point", "coordinates": [10.224068, 50.040806]}},
{"type": "Feature", "id": "QJrew4T8gZZbYRRo1BfrsoQbqYA=", "properties": {"ref": "33817", "@spider": "dominos_pizza_de", "addr:full": "Berliner Platz 5", "addr:city": "W\u00fcrzburg", "addr:postcode": "97080", "addr:country": "de", "name": "Domino's Pizza W\u00fcrzburg Nord", "website": "https://www.dominos.de/filiale/de-wrzburgnord-33817", "brand": "Dominos Pizza Germany"}, "geometry": {"type": "Point", "coordinates": [9.941886, 49.798628]}},
{"type": "Feature", "id": "11p9eBXMKPgaHQbZ5MHwkWO6uXQ=", "properties": {"ref": "33805", "@spider": "dominos_pizza_de", "addr:full": "Landgrabenstr. 40", "addr:city": "N\u00fcrnberg", "addr:postcode": "90443", "addr:country": "de", "name": "Domino's Pizza N\u00fcrnberg S\u00fcdstadt", "website": "https://www.dominos.de/filiale/de-nrnbergsdstadt-33805", "brand": "Dominos Pizza Germany"}, "geometry": {"type": "Point", "coordinates": [11.066969, 49.439384]}},
{"type": "Feature", "id": "DkGY9OxqhOLOyvxvccfor_DdSss=", "properties": {"ref": "34000", "@spider": "dominos_pizza_de", "addr:full": "Am Falkenberg 108", "addr:city": "Berlin", "addr:postcode": "12524", "addr:country": "de", "name": "Domino's Pizza Berlin Altglienicke", "website": "https://www.dominos.de/filiale/de-berlinaltglienicke-34000", "brand": "Dominos Pizza Germany"}, "geometry": {"type": "Point", "coordinates": [13.564377, 52.413105]}},
{"type": "Feature", "id": "QgX18Wwgf9cyI8d3t93gvnX5Noo=", "properties": {"ref": "33845", "@spider": "dominos_pizza_de", "addr:full": "Lindwurmstr. 112", "addr:city": "M\u00fcnchen", "addr:postcode": "80337", "addr:country": "de", "name": "Domino's Pizza M\u00fcnchen Sendling", "website": "https://www.dominos.de/filiale/de-mnchensendling-33845", "brand": "Dominos Pizza Germany"}, "geometry": {"type": "Point", "coordinates": [11.545128, 48.12265]}},
{"type": "Feature", "id": "FGZgPgXokjWZl7TNt9Nwoqb9K7k=", "properties": {"ref": "33848", "@spider": "dominos_pizza_de", "addr:full": "Steinweg 19A", "addr:city": "Halle", "addr:postcode": "06110", "addr:country": "de", "name": "Domino's Pizza Halle Steinweg", "website": "https://www.dominos.de/filiale/de-hallesteinweg-33848", "brand": "Dominos Pizza Germany"}, "geometry": {"type": "Point", "coordinates": [11.970438, 51.47575]}},
{"type": "Feature", "id": "Q453fhGdeV2NIEBTtgCYKf7uGaI=", "properties": {"ref": "33951", "@spider": "dominos_pizza_de", "addr:full": "Glei\u00dfb\u00fchlstr. 12-14", "addr:city": "N\u00fcrnberg", "addr:postcode": "90402", "addr:country": "de", "name": "Domino's Pizza N\u00fcrnberg Mitte", "website": "https://www.dominos.de/filiale/de-nrnbergmitte-33951", "brand": "Dominos Pizza Germany"}, "geometry": {"type": "Point", "coordinates": [11.083958, 49.448528]}},
{"type": "Feature", "id": "8-bXK4tTekbWAOxSHrLq8bmNphI=", "properties": {"ref": "33950", "@spider": "dominos_pizza_de", "addr:full": "Albert-Schweitzer-Str. 70", "addr:city": "M\u00fcnchen", "addr:postcode": "81735", "addr:country": "de", "name": "Domino's Pizza M\u00fcnchen Perlach", "website": "https://www.dominos.de/filiale/de-mnchenperlach-33950", "brand": "Dominos Pizza Germany"}, "geometry": {"type": "Point", "coordinates": [11.646109, 48.106482]}},
{"type": "Feature", "id": "Zq2LVqjv1rDFjQzu3p6eFUfbf18=", "properties": {"ref": "33851", "@spider": "dominos_pizza_de", "addr:full": "Friedenstra\u00dfe 14", "addr:city": "Regensburg", "addr:postcode": "93053", "addr:country": "de", "name": "Domino's Pizza Regensburg", "website": "https://www.dominos.de/filiale/de-regensburg-33851", "brand": "Dominos Pizza Germany"}, "geometry": {"type": "Point", "coordinates": [12.097135, 49.009957]}},
{"type": "Feature", "id": "zsfRQVdNh8W8j4Do7NP7hG5i8R4=", "properties": {"ref": "33979", "@spider": "dominos_pizza_de", "addr:full": "B\u00e4ckerstra\u00dfe 3", "addr:city": "M\u00fcnchen", "addr:postcode": "81241", "addr:country": "de", "name": "Domino's Pizza M\u00fcnchen Pasing", "website": "https://www.dominos.de/filiale/de-mnchenpasing-33979", "brand": "Dominos Pizza Germany"}, "geometry": {"type": "Point", "coordinates": [11.461514, 48.147953]}},
{"type": "Feature", "id": "gvfmXKGM_vuiyZDZoqlBSyUNiu0=", "properties": {"ref": "33942", "@spider": "dominos_pizza_de", "addr:full": "Boschetsrieder Str. 136", "addr:city": "M\u00fcnchen", "addr:postcode": "81379", "addr:country": "de", "name": "Domino's Pizza M\u00fcnchen Obersendling", "website": "https://www.dominos.de/filiale/de-mnchenobersendling-33942", "brand": "Dominos Pizza Germany"}, "geometry": {"type": "Point", "coordinates": [11.511716, 48.09845]}},
{"type": "Feature", "id": "ghwpCT0l1nDulhaSYeF4xLptQ5I=", "properties": {"ref": "33907", "@spider": "dominos_pizza_de", "addr:full": "Pelkovenstr. 42", "addr:city": "M\u00fcnchen", "addr:postcode": "80992", "addr:country": "de", "name": "Domino's Pizza M\u00fcnchen Moosach", "website": "https://www.dominos.de/filiale/de-mnchenmoosach-33907", "brand": "Dominos Pizza Germany"}, "geometry": {"type": "Point", "coordinates": [11.512191, 48.181189]}},
{"type": "Feature", "id": "gpxEYeBPkQMQCbU0J3MYl2WtvBo=", "properties": {"ref": "33925", "@spider": "dominos_pizza_de", "addr:full": "Stralsunder Str. 61", "addr:city": "BERLIN", "addr:postcode": "13355", "addr:country": "de", "name": "Domino's Pizza Berlin Brunnenviertel", "website": "https://www.dominos.de/filiale/de-berlinbrunnenviertel-33925", "brand": "Dominos Pizza Germany"}, "geometry": {"type": "Point", "coordinates": [13.395898, 52.539764]}},
{"type": "Feature", "id": "cAo87WBgCUkcF3Dtc5wZwVpjio8=", "properties": {"ref": "34019", "@spider": "dominos_pizza_de", "addr:full": "Rosenheimer Landstr. 60", "addr:city": "Ottobrunn", "addr:postcode": "85521", "addr:country": "de", "name": "Domino's Pizza M\u00fcnchen Ottobrunn", "website": "https://www.dominos.de/filiale/de-mnchenottobrunn-34019", "brand": "Dominos Pizza Germany"}, "geometry": {"type": "Point", "coordinates": [11.662335, 48.062948]}},
{"type": "Feature", "id": "Eps8u0tqHvM9jNkbYsswVv5eDn0=", "properties": {"ref": "33922", "@spider": "dominos_pizza_de", "addr:full": "Heidemannstr. 5B", "addr:city": "M\u00fcnchen", "addr:postcode": "80939", "addr:country": "de", "name": "Domino's Pizza M\u00fcnchen Milbertshofen-Am Hart", "website": "https://www.dominos.de/filiale/de-mnchenmilbertshofenamhart-33922", "brand": "Dominos Pizza Germany"}, "geometry": {"type": "Point", "coordinates": [11.585603, 48.201099]}},
{"type": "Feature", "id": "GBCwrOUNdt0S8Gz58U3Mo3b0zvw=", "properties": {"ref": "33842", "@spider": "dominos_pizza_de", "addr:full": "Westendstr. 193", "addr:city": "M\u00fcnchen", "addr:postcode": "80686", "addr:country": "de", "name": "Domino's Pizza M\u00fcnchen Laim", "website": "https://www.dominos.de/filiale/de-mnchenlaim-33842", "brand": "Dominos Pizza Germany"}, "geometry": {"type": "Point", "coordinates": [11.521983, 48.133602]}},
{"type": "Feature", "id": "a0QwWjfGp_lTrY35s6CO3DSV32Y=", "properties": {"ref": "33897", "@spider": "dominos_pizza_de", "addr:full": "Asamstra\u00dfe 2", "addr:city": "Ingolstadt", "addr:postcode": "85053", "addr:country": "de", "name": "Domino's Pizza Ingolstadt", "website": "https://www.dominos.de/filiale/de-ingolstadt-33897", "brand": "Dominos Pizza Germany"}, "geometry": {"type": "Point", "coordinates": [11.437878, 48.756518]}},
{"type": "Feature", "id": "96myCmTpVKOCFul585BNwJ8tB4U=", "properties": {"ref": "33874", "@spider": "dominos_pizza_de", "addr:full": "Nymphenburger Str. 90E", "addr:city": "M\u00fcnchen", "addr:postcode": "80636", "addr:country": "de", "name": "Domino's Pizza M\u00fcnchen Neuhausen-Nymphenburg", "website": "https://www.dominos.de/filiale/de-mnchenneuhausennymphenburg-33874", "brand": "Dominos Pizza Germany"}, "geometry": {"type": "Point", "coordinates": [11.545494, 48.150159]}},
{"type": "Feature", "id": "4MabyS3RTw7R6ICLimkwviz0bTU=", "properties": {"ref": "33847", "@spider": "dominos_pizza_de", "addr:full": "Brennecke Str. 46F", "addr:city": "MAGDEBURG", "addr:postcode": "39118", "addr:country": "de", "name": "Domino's Pizza Magdeburg S\u00fcd", "website": "https://www.dominos.de/filiale/de-magdeburgsd-33847", "brand": "Dominos Pizza Germany"}, "geometry": {"type": "Point", "coordinates": [11.606454, 52.112355]}},
{"type": "Feature", "id": "e5Fn-rvFrod0L9xyOSAYywwk1Aw=", "properties": {"ref": "33828", "@spider": "dominos_pizza_de", "addr:full": "Luitpoldstra\u00dfe 17", "addr:city": "Erlangen", "addr:postcode": "91054", "addr:country": "de", "name": "Domino's Pizza Erlangen Innenstadt", "website": "https://www.dominos.de/filiale/de-erlangeninnenstadt-33828", "brand": "Dominos Pizza Germany"}, "geometry": {"type": "Point", "coordinates": [11.015073, 49.596682]}},
{"type": "Feature", "id": "u-6l-ukFvaxFW42psjBF2FPNTZU=", "properties": {"ref": "33855", "@spider": "dominos_pizza_de", "addr:full": "W\u00f6lfelstra\u00dfe 16", "addr:city": "Bayreuth", "addr:postcode": "95444", "addr:country": "de", "name": "Domino's Pizza Bayreuth", "website": "https://www.dominos.de/filiale/de-bayreuth-33855", "brand": "Dominos Pizza Germany"}, "geometry": {"type": "Point", "coordinates": [11.579208, 49.945455]}},
{"type": "Feature", "id": "Rlo6st4rna3RT0MwAW7pJM6C088=", "properties": {"ref": "34232", "@spider": "dominos_pizza_de", "addr:full": "Heinrichsdamm 1", "addr:city": "BAMBERG", "addr:postcode": "96047", "addr:country": "de", "name": "Domino's Pizza Bamberg West", "website": "https://www.dominos.de/filiale/de-bambergwest-34232", "brand": "Dominos Pizza Germany"}, "geometry": {"type": "Point", "coordinates": [10.891145, 49.895711]}},
{"type": "Feature", "id": "dwfwHtyRKNVerFrR0t4WV3zPE8s=", "properties": {"ref": "33760", "@spider": "dominos_pizza_de", "addr:full": "Osterbrooksweg 69-71", "addr:city": "Schenefeld", "addr:postcode": "22869", "addr:country": "de", "name": "Domino's Pizza Schenefeld", "website": "https://www.dominos.de/filiale/de-schenefeld-33760", "brand": "Dominos Pizza Germany"}, "geometry": {"type": "Point", "coordinates": [9.833253, 53.591438]}},
{"type": "Feature", "id": "fJ6PPsFRaIXXJ_3_zyjaVFwWb2M=", "properties": {"ref": "34029", "@spider": "dominos_pizza_de", "addr:full": "Moltkestr. 30", "addr:city": "Offenburg", "addr:postcode": "77654", "addr:country": "de", "name": "Domino's Pizza Offenburg", "website": "https://www.dominos.de/filiale/de-offenburg-34029", "brand": "Dominos Pizza Germany"}, "geometry": {"type": "Point", "coordinates": [7.952953, 48.471465]}},
{"type": "Feature", "id": "x9Y70YS-MOW5j08YVoThX5heXYU=", "properties": {"ref": "34164", "@spider": "dominos_pizza_de", "addr:full": "Grafenstr. 2", "addr:city": "Rendsburg", "addr:postcode": "24768", "addr:country": "de", "name": "Domino's Pizza Rendsburg", "website": "https://www.dominos.de/filiale/de-rendsburg-34164", "brand": "Dominos Pizza Germany"}, "geometry": {"type": "Point", "coordinates": [9.663192, 54.297589]}},
{"type": "Feature", "id": "8jfkaUGSgwURj7YJ_P0Uk3lYgRA=", "properties": {"ref": "33878", "@spider": "dominos_pizza_de", "addr:full": "Bamberger Stra\u00dfe 34", "addr:city": "Coburg", "addr:postcode": "96450", "addr:country": "de", "name": "Domino's Pizza Coburg", "website": "https://www.dominos.de/filiale/de-coburg-33878", "brand": "Dominos Pizza Germany"}, "geometry": {"type": "Point", "coordinates": [10.964143, 50.248802]}},
{"type": "Feature", "id": "KcbHpqsKN-zpkd4A16DcSCBXGdU=", "properties": {"ref": "34182", "@spider": "dominos_pizza_de", "addr:full": "Kieler Str. 67", "addr:city": "QUICKBORN", "addr:postcode": "25451", "addr:country": "de", "name": "Domino's Pizza Quickborn", "website": "https://www.dominos.de/filiale/de-quickborn-34182", "brand": "Dominos Pizza Germany"}, "geometry": {"type": "Point", "coordinates": [9.897503, 53.729124]}},
{"type": "Feature", "id": "5X4ySySmpm-1Whypcr801Crao8I=", "properties": {"ref": "33967", "@spider": "dominos_pizza_de", "addr:full": "Sophienstr. 2A", "addr:city": "Reinbek", "addr:postcode": "21465", "addr:country": "de", "name": "Domino's Pizza Reinbek", "website": "https://www.dominos.de/filiale/de-reinbek-33967", "brand": "Dominos Pizza Germany"}, "geometry": {"type": "Point", "coordinates": [10.251246, 53.508075]}},
{"type": "Feature", "id": "EojEepXMeQy6yOQOQGGbPtjO024=", "properties": {"ref": "33761", "@spider": "dominos_pizza_de", "addr:full": "Altonaer Stra\u00dfe 5 A", "addr:city": "Neum\u00fcnster", "addr:postcode": "24534", "addr:country": "de", "name": "Domino's Pizza Neum\u00fcnster", "website": "https://www.dominos.de/filiale/de-neumnster-33761", "brand": "Dominos Pizza Germany"}, "geometry": {"type": "Point", "coordinates": [9.988857, 54.068452]}},
{"type": "Feature", "id": "7FSZWmaedlzBtTmRfsYBA_Dm54M=", "properties": {"ref": "33775", "@spider": "dominos_pizza_de", "addr:full": "Ulzburger Stra\u00dfe 283", "addr:city": "Norderstedt", "addr:postcode": "22846", "addr:country": "de", "name": "Domino's Pizza Norderstedt", "website": "https://www.dominos.de/filiale/de-norderstedt-33775", "brand": "Dominos Pizza Germany"}, "geometry": {"type": "Point", "coordinates": [9.996645, 53.705959]}},
{"type": "Feature", "id": "HldvMXXXUSXI1P6A9qG1KhYXrTs=", "properties": {"ref": "33766", "@spider": "dominos_pizza_de", "addr:full": "Elmshorner Str. 7-11", "addr:city": "Pinneberg", "addr:postcode": "25421", "addr:country": "de", "name": "Domino's Pizza Pinneberg", "website": "https://www.dominos.de/filiale/de-pinneberg-33766", "brand": "Dominos Pizza Germany"}, "geometry": {"type": "Point", "coordinates": [9.792444, 53.662831]}},
{"type": "Feature", "id": "nBfTrM4Jc7vP7obRh3BOtdJeG2c=", "properties": {"ref": "33928", "@spider": "dominos_pizza_de", "addr:full": "St.-J\u00fcrgen-Ring 64", "addr:city": "L\u00fcbeck", "addr:postcode": "23564", "addr:country": "de", "name": "Domino's Pizza L\u00fcbeck St. J\u00fcrgen", "website": "https://www.dominos.de/filiale/de-lbeckstjrgen-33928", "brand": "Dominos Pizza Germany"}, "geometry": {"type": "Point", "coordinates": [10.698561, 53.851539]}},
{"type": "Feature", "id": "m9UDotFK_nmqEmRv6Cf2cXQUguU=", "properties": {"ref": "33753", "@spider": "dominos_pizza_de", "addr:full": "Bei Der Lohm\u00fchle 21 A", "addr:city": "L\u00fcbeck", "addr:postcode": "23554", "addr:country": "de", "name": "Domino's Pizza L\u00fcbeck Lohm\u00fchle", "website": "https://www.dominos.de/filiale/de-lbecklohmhle-33753", "brand": "Dominos Pizza Germany"}, "geometry": {"type": "Point", "coordinates": [10.67339, 53.880194]}},
{"type": "Feature", "id": "3Kfo2bo2Xr-mB-eOavYFjJhs9Ac=", "properties": {"ref": "34203", "@spider": "dominos_pizza_de", "addr:full": "Bahnhofstr. 20", "addr:city": "Amberg", "addr:postcode": "92224", "addr:country": "de", "name": "Domino's Pizza Amberg", "website": "https://www.dominos.de/filiale/de-amberg-34203", "brand": "Dominos Pizza Germany"}, "geometry": {"type": "Point", "coordinates": [11.861816, 49.446257]}},
{"type": "Feature", "id": "zrj-aYgHolx7MjnrfqMGiZTgl2A=", "properties": {"ref": "34162", "@spider": "dominos_pizza_de", "addr:full": "Parkstr. 6", "addr:city": "Krummbek", "addr:postcode": "24217", "addr:country": "de", "name": "Domino's Pizza Krummbek", "website": "https://www.dominos.de/filiale/de-krummbek-34162", "brand": "Dominos Pizza Germany"}, "geometry": {"type": "Point", "coordinates": [10.401485, 54.379435]}},
{"type": "Feature", "id": "tciwxttXPf3CR2oteTOg79w7t9k=", "properties": {"ref": "33880", "@spider": "dominos_pizza_de", "addr:full": "Am Burgfeld 1", "addr:city": "L\u00dcBECK", "addr:postcode": "23568", "addr:country": "de", "name": "Domino's Pizza L\u00fcbeck Am Burgfeld", "website": "https://www.dominos.de/filiale/de-lbeckamburgfeld-33880", "brand": "Dominos Pizza Germany"}, "geometry": {"type": "Point", "coordinates": [10.695033, 53.876203]}},
{"type": "Feature", "id": "3pNrxv7lR54Y8V31nfQPiZVs824=", "properties": {"ref": "34161", "@spider": "dominos_pizza_de", "addr:full": "Schleusenstr. 3", "addr:city": "KIEL", "addr:postcode": "24106", "addr:country": "de", "name": "Domino's Pizza Kiel Schleusenstra\u00dfe", "website": "https://www.dominos.de/filiale/de-kielschleusenstrae-34161", "brand": "Dominos Pizza Germany"}, "geometry": {"type": "Point", "coordinates": [10.130435, 54.361597]}},
{"type": "Feature", "id": "tj3EeqgfZiDhxTq5vlD9yXrtCzg=", "properties": {"ref": "33755", "@spider": "dominos_pizza_de", "addr:full": "Rendsburger Landstr. 206-208", "addr:city": "Kiel", "addr:postcode": "24113", "addr:country": "de", "name": "Domino's Pizza Kiel Rendsburger Landstra\u00dfe", "website": "https://www.dominos.de/filiale/de-kielrendsburgerlandstrae-33755", "brand": "Dominos Pizza Germany"}, "geometry": {"type": "Point", "coordinates": [10.09234, 54.300581]}},
{"type": "Feature", "id": "QTVjFNA4UuhRlue_qtgeKB7ns7U=", "properties": {"ref": "34197", "@spider": "dominos_pizza_de", "addr:full": "Kieler Str. 48", "addr:city": "KRONSHAGEN", "addr:postcode": "24119", "addr:country": "de", "name": "Domino's Pizza Kiel Kronshagen", "website": "https://www.dominos.de/filiale/de-kielkronshagen-34197", "brand": "Dominos Pizza Germany"}, "geometry": {"type": "Point", "coordinates": [10.088868, 54.330536]}},
{"type": "Feature", "id": "NifXv2ykzbcjK2Pv7xlDsLRIawY=", "properties": {"ref": "33754", "@spider": "dominos_pizza_de", "addr:full": "Knooper Weg 111", "addr:city": "Kiel", "addr:postcode": "24118", "addr:country": "de", "name": "Domino's Pizza Kiel Knooper Weg", "website": "https://www.dominos.de/filiale/de-kielknooperweg-33754", "brand": "Dominos Pizza Germany"}, "geometry": {"type": "Point", "coordinates": [10.127794, 54.331197]}},
{"type": "Feature", "id": "1uE91rrJ_2vIiki9iCUBWmYbRa8=", "properties": {"ref": "33998", "@spider": "dominos_pizza_de", "addr:full": "Holstenstr. 8", "addr:city": "Kaltenkirchen", "addr:postcode": "24568", "addr:country": "de", "name": "Domino's Pizza Kaltenkirchen", "website": "https://www.dominos.de/filiale/de-kaltenkirchen-33998", "brand": "Dominos Pizza Germany"}, "geometry": {"type": "Point", "coordinates": [9.95999, 53.837805]}},
{"type": "Feature", "id": "0MypFaXlPVSNfHdH38iEhVfTjPU=", "properties": {"ref": "33972", "@spider": "dominos_pizza_de", "addr:full": "Viktoriastr. 11", "addr:city": "Itzehoe", "addr:postcode": "25524", "addr:country": "de", "name": "Domino's Pizza Itzehoe", "website": "https://www.dominos.de/filiale/de-itzehoe-33972", "brand": "Dominos Pizza Germany"}, "geometry": {"type": "Point", "coordinates": [9.514613, 53.92344]}},
{"type": "Feature", "id": "d7Q5afQcN-Mm3937Pic2A9F6VNE=", "properties": {"ref": "34159", "@spider": "dominos_pizza_de", "addr:full": "Ostuferhafen Geb\u00e4ude 15", "addr:city": "KIEL", "addr:postcode": "24149", "addr:country": "de", "name": "Domino's Pizza Kiel Ostuferhafen", "website": "https://www.dominos.de/filiale/de-kielostuferhafen-34159", "brand": "Dominos Pizza Germany"}, "geometry": {"type": "Point", "coordinates": [10.175991, 54.333103]}},
{"type": "Feature", "id": "5e-kjExRxW0fMDtFW4-HFGM6JEg=", "properties": {"ref": "34158", "@spider": "dominos_pizza_de", "addr:full": "Berliner Str. 79-81", "addr:city": "Geesthacht", "addr:postcode": "21502", "addr:country": "de", "name": "Domino's Pizza Geesthacht", "website": "https://www.dominos.de/filiale/de-geesthacht-34158", "brand": "Dominos Pizza Germany"}, "geometry": {"type": "Point", "coordinates": [10.381728, 53.435688]}},
{"type": "Feature", "id": "Ghxec2YBvI-G2t1wBilftIyWmHU=", "properties": {"ref": "34157", "@spider": "dominos_pizza_de", "addr:full": "Schleswiger Str. 60A", "addr:city": "Flensburg", "addr:postcode": "24941", "addr:country": "de", "name": "Domino's Pizza Flensburg", "website": "https://www.dominos.de/filiale/de-flensburg-34157", "brand": "Dominos Pizza Germany"}, "geometry": {"type": "Point", "coordinates": [9.4345, 54.771159]}},
{"type": "Feature", "id": "87RnPE2ZMaFvBfSNmTU--WjoP_s=", "properties": {"ref": "34185", "@spider": "dominos_pizza_de", "addr:full": "S\u00fcderstra\u00dfe 36", "addr:city": "Heide", "addr:postcode": "25746", "addr:country": "de", "name": "Domino's Pizza Heide", "website": "https://www.dominos.de/filiale/de-heide-34185", "brand": "Dominos Pizza Germany"}, "geometry": {"type": "Point", "coordinates": [9.090679, 54.192412]}},
{"type": "Feature", "id": "LlakrINLC8GH5Y1x96SI7pupKB0=", "properties": {"ref": "34156", "@spider": "dominos_pizza_de", "addr:full": "Domstag 39C", "addr:city": "Eckernf\u00f6rde", "addr:postcode": "24340", "addr:country": "de", "name": "Domino's Pizza Eckernf\u00f6rde", "website": "https://www.dominos.de/filiale/de-eckernfrde-34156", "brand": "Dominos Pizza Germany"}, "geometry": {"type": "Point", "coordinates": [9.84242, 54.453803]}},
{"type": "Feature", "id": "WczmwIn3_4ZGSWHKu5CTv8IyzWQ=", "properties": {"ref": "33796", "@spider": "dominos_pizza_de", "addr:full": "Flamweg 54", "addr:city": "Elmshorn", "addr:postcode": "25335", "addr:country": "de", "name": "Domino's Pizza Elmshorn", "website": "https://www.dominos.de/filiale/de-elmshorn-33796", "brand": "Dominos Pizza Germany"}, "geometry": {"type": "Point", "coordinates": [9.648237, 53.755603]}},
{"type": "Feature", "id": "TQyCIToa5nNsavUDqUwSdU7Vwh4=", "properties": {"ref": "33985", "@spider": "dominos_pizza_de", "addr:full": "Hamburger Str. 169", "addr:city": "AHRENSBURG", "addr:postcode": "22926", "addr:country": "de", "name": "Domino's Pizza Ahrensburg", "website": "https://www.dominos.de/filiale/de-ahrensburg-33985", "brand": "Dominos Pizza Germany"}, "geometry": {"type": "Point", "coordinates": [10.219444, 53.662971]}},
{"type": "Feature", "id": "wnUJ8-BqTNe1rKyO0mD7wOM12f0=", "properties": {"ref": "34212", "@spider": "dominos_pizza_de", "addr:full": "Brunnenstra\u00dfe 1", "addr:city": "Oldesloe", "addr:postcode": "23843 Bad", "addr:country": "de", "name": "Domino's Pizza Bad Oldesloe", "website": "https://www.dominos.de/filiale/de-badoldesloe-34212", "brand": "Dominos Pizza Germany"}, "geometry": {"type": "Point", "coordinates": [10.377616, 53.808118]}},
{"type": "Feature", "id": "S9mURjYKfN_jso34gnTyhAH8Bcc=", "properties": {"ref": "33977", "@spider": "dominos_pizza_de", "addr:full": "\u00c4u\u00dfere Plauensche Str. 21", "addr:city": "Zwickau", "addr:postcode": "08056", "addr:country": "de", "name": "Domino's Pizza Zwickau Innenstadt", "website": "https://www.dominos.de/filiale/de-zwickauinnenstadt-33977", "brand": "Dominos Pizza Germany"}, "geometry": {"type": "Point", "coordinates": [12.490367, 50.719539]}},
{"type": "Feature", "id": "Ctca2YDUSVAjguj_qMGQ3QqlV-4=", "properties": {"ref": "34147", "@spider": "dominos_pizza_de", "addr:full": "Dr.-Scheider-Str. 36", "addr:city": "Riesa", "addr:postcode": "01589", "addr:country": "de", "name": "Domino's Pizza Riesa", "website": "https://www.dominos.de/filiale/de-riesa-34147", "brand": "Dominos Pizza Germany"}, "geometry": {"type": "Point", "coordinates": [13.306729, 51.298899]}},
{"type": "Feature", "id": "djIGHHTuRuCcqv-QdC9gcGkd4B0=", "properties": {"ref": "33964", "@spider": "dominos_pizza_de", "addr:full": "Hellerstr. 23", "addr:city": "Radebeul", "addr:postcode": "01445", "addr:country": "de", "name": "Domino's Pizza Radebeul", "website": "https://www.dominos.de/filiale/de-radebeul-33964", "brand": "Dominos Pizza Germany"}, "geometry": {"type": "Point", "coordinates": [13.687526, 51.099242]}},
{"type": "Feature", "id": "lGT_B28lUMeN5Z4ASovox99JjVI=", "properties": {"ref": "34150", "@spider": "dominos_pizza_de", "addr:full": "Reichenberger Str. 45", "addr:city": "Zittau", "addr:postcode": "02763", "addr:country": "de", "name": "Domino's Pizza Zittau", "website": "https://www.dominos.de/filiale/de-zittau-34150", "brand": "Dominos Pizza Germany"}, "geometry": {"type": "Point", "coordinates": [14.808882, 50.894223]}},
{"type": "Feature", "id": "C-uGwHcBfGumNzUPw-S2r2c0acc=", "properties": {"ref": "34143", "@spider": "dominos_pizza_de", "addr:full": "Poststr. 11", "addr:city": "Mei\u00dfen", "addr:postcode": "01662", "addr:country": "de", "name": "Domino's Pizza Mei\u00dfen", "website": "https://www.dominos.de/filiale/de-meien-34143", "brand": "Dominos Pizza Germany"}, "geometry": {"type": "Point", "coordinates": [13.475134, 51.162229]}},
{"type": "Feature", "id": "eIRx8CpAZYXSblq4if1Lw9-1_EQ=", "properties": {"ref": "34145", "@spider": "dominos_pizza_de", "addr:full": "Pestalozzistra\u00dfe 40", "addr:city": "Plauen", "addr:postcode": "08523", "addr:country": "de", "name": "Domino's Pizza Plauen", "website": "https://www.dominos.de/filiale/de-plauen-34145", "brand": "Dominos Pizza Germany"}, "geometry": {"type": "Point", "coordinates": [12.122991, 50.493234]}},
{"type": "Feature", "id": "udNToDsGLGn_SUqIj2ExtHlj0fc=", "properties": {"ref": "33858", "@spider": "dominos_pizza_de", "addr:full": "Shakespearestr. 2", "addr:city": "Leipzig", "addr:postcode": "04107", "addr:country": "de", "name": "Domino's Pizza Leipzig S\u00fcd", "website": "https://www.dominos.de/filiale/de-leipzigsd-33858", "brand": "Dominos Pizza Germany"}, "geometry": {"type": "Point", "coordinates": [12.374355, 51.326601]}},
{"type": "Feature", "id": "gMuQqHS775MQYn_f0RRvQrDHgMk=", "properties": {"ref": "33990", "@spider": "dominos_pizza_de", "addr:full": "Reichelstr. 1", "addr:city": "LEIPZIG", "addr:postcode": "04109", "addr:country": "de", "name": "Domino's Pizza Leipzig Zentrum West", "website": "https://www.dominos.de/filiale/de-leipzigzentrumwest-33990", "brand": "Dominos Pizza Germany"}, "geometry": {"type": "Point", "coordinates": [12.367961, 51.337388]}},
{"type": "Feature", "id": "pQR8qRlUAN_u_zVnn5WsLvfZL3k=", "properties": {"ref": "34160", "@spider": "dominos_pizza_de", "addr:full": "Tonberg 15", "addr:city": "Kiel", "addr:postcode": "24113", "addr:country": "de", "name": "Domino's Pizza Kiel Tonberg", "website": "https://www.dominos.de/filiale/de-kieltonberg-34160", "brand": "Dominos Pizza Germany"}, "geometry": {"type": "Point", "coordinates": [10.130986, 54.301918]}},
{"type": "Feature", "id": "z6OTu2nid6TMuSGQ-Ux-n4-VE2s=", "properties": {"ref": "33913", "@spider": "dominos_pizza_de", "addr:full": "Zschochersche Str. 30", "addr:city": "Leipzig", "addr:postcode": "04229", "addr:country": "de", "name": "Domino's Pizza Leipzig Plagwitz", "website": "https://www.dominos.de/filiale/de-leipzigplagwitz-33913", "brand": "Dominos Pizza Germany"}, "geometry": {"type": "Point", "coordinates": [12.337663, 51.330799]}},
{"type": "Feature", "id": "gE85RRq_LGoZ3mLKi866tHA-JiM=", "properties": {"ref": "33795", "@spider": "dominos_pizza_de", "addr:full": "Mockauer Str. 49", "addr:city": "Leipzig", "addr:postcode": "04357", "addr:country": "de", "name": "Domino's Pizza Leipzig Mockau", "website": "https://www.dominos.de/filiale/de-leipzigmockau-33795", "brand": "Dominos Pizza Germany"}, "geometry": {"type": "Point", "coordinates": [12.406337, 51.36899]}},
{"type": "Feature", "id": "yAbr__MmamRvYTwuKbj6VbXjbCw=", "properties": {"ref": "33889", "@spider": "dominos_pizza_de", "addr:full": "Georg Schumann Str. 205", "addr:city": "Leipzig", "addr:postcode": "04159", "addr:country": "de", "name": "Domino's Pizza Leipzig Nord", "website": "https://www.dominos.de/filiale/de-leipzignord-33889", "brand": "Dominos Pizza Germany"}, "geometry": {"type": "Point", "coordinates": [12.347711, 51.366441]}},
{"type": "Feature", "id": "sfhxk-JuDuC9vd1K1ip19ic8UvM=", "properties": {"ref": "34001", "@spider": "dominos_pizza_de", "addr:full": "Spandauer Damm 127", "addr:city": "BERLIN", "addr:postcode": "14050", "addr:country": "de", "name": "Domino's Pizza Berlin Charlottenburg Nord", "website": "https://www.dominos.de/filiale/de-berlincharlottenburgnord-34001", "brand": "Dominos Pizza Germany"}, "geometry": {"type": "Point", "coordinates": [13.277614, 52.518292]}},
{"type": "Feature", "id": "Hf1AbcUBE2O9cRD8M3jAElzeeI0=", "properties": {"ref": "33962", "@spider": "dominos_pizza_de", "addr:full": "Wittenberger Str. 85", "addr:city": "LEIPZIG", "addr:postcode": "04129", "addr:country": "de", "name": "Domino's Pizza Leipzig Eutritzsch Zentrum", "website": "https://www.dominos.de/filiale/de-leipzigeutritzschzentrum-33962", "brand": "Dominos Pizza Germany"}, "geometry": {"type": "Point", "coordinates": [12.384701, 51.36467]}},
{"type": "Feature", "id": "jnQD0WfBmhyioD-7ec521NZNwPE=", "properties": {"ref": "34193", "@spider": "dominos_pizza_de", "addr:full": "Bornaische Str. 10-16", "addr:city": "LEIPZIG", "addr:postcode": "04277", "addr:country": "de", "name": "Domino's Pizza Leipzig Connewitz", "website": "https://www.dominos.de/filiale/de-leipzigconnewitz-34193", "brand": "Dominos Pizza Germany"}, "geometry": {"type": "Point", "coordinates": [12.374337, 51.309455]}},
{"type": "Feature", "id": "UMeLPgtZ-Vve0it9qkg_-wvOez4=", "properties": {"ref": "34135", "@spider": "dominos_pizza_de", "addr:full": "Friedrichsstr. 12", "addr:city": "Hoyerswerda", "addr:postcode": "02977", "addr:country": "de", "name": "Domino's Pizza Hoyerswerda", "website": "https://www.dominos.de/filiale/de-hoyerswerda-34135", "brand": "Dominos Pizza Germany"}, "geometry": {"type": "Point", "coordinates": [14.239611, 51.435449]}},
{"type": "Feature", "id": "hmE9y6WUV2XgscunoM193lJibDA=", "properties": {"ref": "34134", "@spider": "dominos_pizza_de", "addr:full": "Jakobstr. 15", "addr:city": "G\u00f6rlitz", "addr:postcode": "02826", "addr:country": "de", "name": "Domino's Pizza G\u00f6rlitz", "website": "https://www.dominos.de/filiale/de-grlitz-34134", "brand": "Dominos Pizza Germany"}, "geometry": {"type": "Point", "coordinates": [14.982561, 51.147267]}},
{"type": "Feature", "id": "0IhJiEqd2Pq-ENC9uHoruKL80uU=", "properties": {"ref": "33958", "@spider": "dominos_pizza_de", "addr:full": "Stuttgarter Allee 18", "addr:city": "Leipzig", "addr:postcode": "04209", "addr:country": "de", "name": "Domino's Pizza Leipzig Gr\u00fcnau", "website": "https://www.dominos.de/filiale/desn-leipziggrnau-33958", "brand": "Dominos Pizza Germany"}, "geometry": {"type": "Point", "coordinates": [12.29168, 51.316076]}},
{"type": "Feature", "id": "QYd3n-LOZ1_3SD7k5IOJ-jphpV8=", "properties": {"ref": "34200", "@spider": "dominos_pizza_de", "addr:full": "St. Georgener Stra\u00dfe 9", "addr:city": "FREIBURG", "addr:postcode": "79111", "addr:country": "de", "name": "Domino's Pizza Freiburg S\u00fcdwest", "website": "https://www.dominos.de/filiale/de-freiburgsdwest-34200", "brand": "Dominos Pizza Germany"}, "geometry": {"type": "Point", "coordinates": [7.800158, 47.988253]}},
{"type": "Feature", "id": "b-W6J9GuXWGo_RI9AkUaZJ5nvGM=", "properties": {"ref": "34181", "@spider": "dominos_pizza_de", "addr:full": "Teplitzer Str. 76/78", "addr:city": "DRESDEN", "addr:postcode": "01219", "addr:country": "de", "name": "Domino's Pizza Dresden Strehlen", "website": "https://www.dominos.de/filiale/de-dresdenstrehlen-34181", "brand": "Dominos Pizza Germany"}, "geometry": {"type": "Point", "coordinates": [13.762497, 51.022014]}},
{"type": "Feature", "id": "pY8F7ewZvYi2ivShH8TnTo4KyFg=", "properties": {"ref": "34131", "@spider": "dominos_pizza_de", "addr:full": "Schl\u00fcterstr. 28A", "addr:city": "Dresden", "addr:postcode": "01277", "addr:country": "de", "name": "Domino's Pizza Dresden Striesen", "website": "https://www.dominos.de/filiale/de-dresdenstriesen-34131", "brand": "Dominos Pizza Germany"}, "geometry": {"type": "Point", "coordinates": [13.792639, 51.03951]}},
{"type": "Feature", "id": "6LYAQNRrK7mVehUY0Inr5cThKoo=", "properties": {"ref": "34129", "@spider": "dominos_pizza_de", "addr:full": "Leipziger Str. 112", "addr:city": "DRESDEN", "addr:postcode": "01127", "addr:country": "de", "name": "Domino's Pizza Dresden Pieschen", "website": "https://www.dominos.de/filiale/de-dresdenpieschen-34129", "brand": "Dominos Pizza Germany"}, "geometry": {"type": "Point", "coordinates": [13.71881, 51.077185]}},
{"type": "Feature", "id": "QGArFg6otgZYN3jyvgygml-Chlo=", "properties": {"ref": "34171", "@spider": "dominos_pizza_de", "addr:full": "Alaunstr. 104", "addr:city": "Dresden", "addr:postcode": "01099", "addr:country": "de", "name": "Domino's Pizza Dresden Neustadt", "website": "https://www.dominos.de/filiale/de-dresdenneustadt-34171", "brand": "Dominos Pizza Germany"}, "geometry": {"type": "Point", "coordinates": [13.754865, 51.06994]}},
{"type": "Feature", "id": "snOIw-UPvu-Iq94G7ZOZ8pXIs10=", "properties": {"ref": "34127", "@spider": "dominos_pizza_de", "addr:full": "\u00d6sterreicher Str. 39", "addr:city": "Dresden", "addr:postcode": "01279", "addr:country": "de", "name": "Domino's Pizza Dresden Laubegast", "website": "https://www.dominos.de/filiale/de-dresdenlaubegast-34127", "brand": "Dominos Pizza Germany"}, "geometry": {"type": "Point", "coordinates": [13.837567, 51.025584]}},
{"type": "Feature", "id": "MlOE1vbLvOq417Zv9B2CqTx4420=", "properties": {"ref": "33929", "@spider": "dominos_pizza_de", "addr:full": "Nordendstr. 62", "addr:city": "M\u00fcnchen", "addr:postcode": "80801", "addr:country": "de", "name": "Domino's Pizza M\u00fcnchen Schwabing S\u00fcd", "website": "https://www.dominos.de/filiale/de-mnchenschwabingsd-33929", "brand": "Dominos Pizza Germany"}, "geometry": {"type": "Point", "coordinates": [11.574972, 48.158923]}},
{"type": "Feature", "id": "H6e8_8904xhlBCq5jX487xWx3mc=", "properties": {"ref": "34126", "@spider": "dominos_pizza_de", "addr:full": "Karl-Marx-Str. 4", "addr:city": "Dresden", "addr:postcode": "01109", "addr:country": "de", "name": "Domino's Pizza Dresden Klotzsche", "website": "https://www.dominos.de/filiale/de-dresdenklotzsche-34126", "brand": "Dominos Pizza Germany"}, "geometry": {"type": "Point", "coordinates": [13.775264, 51.111008]}},
{"type": "Feature", "id": "fYo_p-avmxyeb54QzhAARgMcaCM=", "properties": {"ref": "34214", "@spider": "dominos_pizza_de", "addr:full": "Merianplatz 3", "addr:city": "DRESDEN", "addr:postcode": "01169", "addr:country": "de", "name": "Domino's Pizza Dresden Sachsen Forum", "website": "https://www.dominos.de/filiale/de-dresdensachsenforum-34214", "brand": "Dominos Pizza Germany"}, "geometry": {"type": "Point", "coordinates": [13.668761, 51.045957]}},
{"type": "Feature", "id": "DuFRSYZejPv-VZkSssddi0YM_cQ=", "properties": {"ref": "34125", "@spider": "dominos_pizza_de", "addr:full": "Sch\u00e4ferstr. 64", "addr:city": "Dresden", "addr:postcode": "01067", "addr:country": "de", "name": "Domino's Pizza Dresden Friedrichstadt", "website": "https://www.dominos.de/filiale/de-dresdenfriedrichstadt-34125", "brand": "Dominos Pizza Germany"}, "geometry": {"type": "Point", "coordinates": [13.711104, 51.057935]}},
{"type": "Feature", "id": "bm9rs8HwoKz9eeATVIwI_36danc=", "properties": {"ref": "34124", "@spider": "dominos_pizza_de", "addr:full": "Bautzner Landstr. 138", "addr:city": "Dresden", "addr:postcode": "01324", "addr:country": "de", "name": "Domino's Pizza Dresden B\u00fchlau", "website": "https://www.dominos.de/filiale/de-dresdenbhlau-34124", "brand": "Dominos Pizza Germany"}, "geometry": {"type": "Point", "coordinates": [13.850317, 51.061622]}},
{"type": "Feature", "id": "jeTDdEAUrBgOfg9pSY5sjLNzvYg=", "properties": {"ref": "34170", "@spider": "dominos_pizza_de", "addr:full": "Hertha-Lindner-Str. 12", "addr:city": "Dresden", "addr:postcode": "01067", "addr:country": "de", "name": "Domino's Pizza Dresden Altstadt", "website": "https://www.dominos.de/filiale/de-dresdenaltstadt-34170", "brand": "Dominos Pizza Germany"}, "geometry": {"type": "Point", "coordinates": [13.728879, 51.051015]}},
{"type": "Feature", "id": "7Cc9dY6GCtHbt6_vg9pbHB0-pKs=", "properties": {"ref": "33999", "@spider": "dominos_pizza_de", "addr:full": "Zwickauer Str. 452", "addr:city": "CHEMNITZ", "addr:postcode": "09117", "addr:country": "de", "name": "Domino's Pizza Chemnitz Siegmar", "website": "https://www.dominos.de/filiale/de-chemnitzsiegmar-33999", "brand": "Dominos Pizza Germany"}, "geometry": {"type": "Point", "coordinates": [12.841629, 50.816785]}},
{"type": "Feature", "id": "E5o-RhZ3G7YzAExCZndzYuBtm0I=", "properties": {"ref": "34122", "@spider": "dominos_pizza_de", "addr:full": "Matthesstr. 70", "addr:city": "CHEMNITZ", "addr:postcode": "09113", "addr:country": "de", "name": "Domino's Pizza Chemnitz Schlo\u00dfchemnitz", "website": "https://www.dominos.de/filiale/de-chemnitzschlochemnitz-34122", "brand": "Dominos Pizza Germany"}, "geometry": {"type": "Point", "coordinates": [12.900812, 50.840344]}},
{"type": "Feature", "id": "kb26yP27K_IBcoJp0vwRYn0mZCw=", "properties": {"ref": "34123", "@spider": "dominos_pizza_de", "addr:full": "Hainstr. 108", "addr:city": "CHEMNITZ", "addr:postcode": "09130", "addr:country": "de", "name": "Domino's Pizza Chemnitz Sonnenberg", "website": "https://www.dominos.de/filiale/de-chemnitzsonnenberg-34123", "brand": "Dominos Pizza Germany"}, "geometry": {"type": "Point", "coordinates": [12.937261, 50.842522]}},
{"type": "Feature", "id": "TA3W2-i__9RsaEXvKp5qLgmRJk0=", "properties": {"ref": "33838", "@spider": "dominos_pizza_de", "addr:full": "Breslauer Stra\u00dfe 31", "addr:city": "Wolfsburg", "addr:postcode": "38440", "addr:country": "de", "name": "Domino's Pizza Wolfsburg West", "website": "https://www.dominos.de/filiale/de-wolfsburgwest-33838", "brand": "Dominos Pizza Germany"}, "geometry": {"type": "Point", "coordinates": [10.757234, 52.419913]}},
{"type": "Feature", "id": "qOWZbuc--oOCfMtgKWTXvcqUv0g=", "properties": {"ref": "33812", "@spider": "dominos_pizza_de", "addr:full": "Schlierseestr. 31", "addr:city": "M\u00fcnchen", "addr:postcode": "81539", "addr:country": "de", "name": "Domino's Pizza M\u00fcnchen Giesing", "website": "https://www.dominos.de/filiale/de-mnchengiesing-33812", "brand": "Dominos Pizza Germany"}, "geometry": {"type": "Point", "coordinates": [11.592798, 48.114612]}},
{"type": "Feature", "id": "TykQKYbN6ZltXo9VyCFS_wjz10Y=", "properties": {"ref": "33988", "@spider": "dominos_pizza_de", "addr:full": "Lange Str. 8A", "addr:city": "WOLFSBURG", "addr:postcode": "38448", "addr:country": "de", "name": "Domino's Pizza Wolfsburg Ost", "website": "https://www.dominos.de/filiale/de-wolfsburgost-33988", "brand": "Dominos Pizza Germany"}, "geometry": {"type": "Point", "coordinates": [10.839446, 52.438217]}},
{"type": "Feature", "id": "xPlQVXWPTMKkoLhN8oVitBhjWeA=", "properties": {"ref": "33968", "@spider": "dominos_pizza_de", "addr:full": "Berg Am Laim Stra. 43-47", "addr:city": "M\u00dcNCHEN", "addr:postcode": "81673", "addr:country": "de", "name": "Domino's Pizza M\u00fcnchen Berg am Laim", "website": "https://www.dominos.de/filiale/de-mnchenbergamlaim-33968", "brand": "Dominos Pizza Germany"}, "geometry": {"type": "Point", "coordinates": [11.614655, 48.131351]}},
{"type": "Feature", "id": "RTWn6Uy6tW4PYx1kn5YQKCEiMEk=", "properties": {"ref": "33885", "@spider": "dominos_pizza_de", "addr:full": "Porschestr. 1", "addr:city": "Wolfsburg", "addr:postcode": "38440", "addr:country": "de", "name": "Domino's Pizza Wolfsburg Mitte", "website": "https://www.dominos.de/filiale/de-wolfsburgmitte-33885", "brand": "Dominos Pizza Germany"}, "geometry": {"type": "Point", "coordinates": [10.790462, 52.427684]}},
{"type": "Feature", "id": "xVx_XSZ4PYVhn3PUwUY7aDYL5mc=", "properties": {"ref": "33904", "@spider": "dominos_pizza_de", "addr:full": "Dr. Heinrich Jasper Str. 35", "addr:city": "WOLFENB\u00dcTTEL", "addr:postcode": "38304", "addr:country": "de", "name": "Domino's Pizza Wolfenb\u00fcttel", "website": "https://www.dominos.de/filiale/de-wolfenbttel-33904", "brand": "Dominos Pizza Germany"}, "geometry": {"type": "Point", "coordinates": [10.522231, 52.164253]}},
{"type": "Feature", "id": "PFcRepBnU2mZlahI3g6DgjkY7gg=", "properties": {"ref": "34184", "@spider": "dominos_pizza_de", "addr:full": "Eckermannstr. 6", "addr:city": "Winsen/Luhe", "addr:postcode": "21423", "addr:country": "de", "name": "Domino's Pizza Winsen/Luhe", "website": "https://www.dominos.de/filiale/de-winsenluhe-34184", "brand": "Dominos Pizza Germany"}, "geometry": {"type": "Point", "coordinates": [10.207256, 53.362251]}},
{"type": "Feature", "id": "gkz92gXF6lsvGaWF5z8GreY4CeE=", "properties": {"ref": "33965", "@spider": "dominos_pizza_de", "addr:full": "Gl\u00fcsinger Str. 22", "addr:city": "SEEVETAL", "addr:postcode": "21217", "addr:country": "de", "name": "Domino's Pizza Seevetal", "website": "https://www.dominos.de/filiale/de-seevetal-33965", "brand": "Dominos Pizza Germany"}, "geometry": {"type": "Point", "coordinates": [10.020943, 53.420042]}},
{"type": "Feature", "id": "jMXTwp6BH58Q8FNNw1mp4mFu9nE=", "properties": {"ref": "34054", "@spider": "dominos_pizza_de", "addr:full": "G\u00f6kerstra\u00dfe 75", "addr:city": "Wilhelmshaven", "addr:postcode": "26384", "addr:country": "de", "name": "Domino's Pizza Wilhelmshaven", "website": "https://www.dominos.de/filiale/de-wilhelmshaven-34054", "brand": "Dominos Pizza Germany"}, "geometry": {"type": "Point", "coordinates": [8.12639, 53.530334]}},
{"type": "Feature", "id": "SWK8fyZKo77GQjLsM2NpaIrEDV8=", "properties": {"ref": "34195", "@spider": "dominos_pizza_de", "addr:full": "Steinstr. 19A", "addr:city": "Bautzen", "addr:postcode": "02625", "addr:country": "de", "name": "Domino's Pizza Bautzen", "website": "https://www.dominos.de/filiale/de-bautzen-34195", "brand": "Dominos Pizza Germany"}, "geometry": {"type": "Point", "coordinates": [14.430016, 51.181151]}},
{"type": "Feature", "id": "x9ctpUaA7OFx_5ZHIwkqCGHOVTk=", "properties": {"ref": "34187", "@spider": "dominos_pizza_de", "addr:full": "Berliner Str. 76", "addr:city": "Salzgitter", "addr:postcode": "38226", "addr:country": "de", "name": "Domino's Pizza Salzgitter", "website": "https://www.dominos.de/filiale/de-salzgitter-34187", "brand": "Dominos Pizza Germany"}, "geometry": {"type": "Point", "coordinates": [10.335262, 52.157198]}},
{"type": "Feature", "id": "9SdKazOJGDtL0mygvp0QrPppMhw=", "properties": {"ref": "33916", "@spider": "dominos_pizza_de", "addr:full": "Rosenplatz 1", "addr:city": "Osnabr\u00fcck", "addr:postcode": "49074", "addr:country": "de", "name": "Domino's Pizza Osnabr\u00fcck", "website": "https://www.dominos.de/filiale/de-osnabrck-33916", "brand": "Dominos Pizza Germany"}, "geometry": {"type": "Point", "coordinates": [8.053334, 52.265986]}},
{"type": "Feature", "id": "gt0uREwuWe35UQKnVaCBY-vrj1k=", "properties": {"ref": "34186", "@spider": "dominos_pizza_de", "addr:full": "Hagen Str. 25", "addr:city": "Peine", "addr:postcode": "31224", "addr:country": "de", "name": "Domino's Pizza Peine", "website": "https://www.dominos.de/filiale/de-peine-34186", "brand": "Dominos Pizza Germany"}, "geometry": {"type": "Point", "coordinates": [10.229491, 52.324105]}},
{"type": "Feature", "id": "B0dssh8TYjrf6hxkm6N8SAVRr7o=", "properties": {"ref": "34175", "@spider": "dominos_pizza_de", "addr:full": "Bruno-Granz-Str. 24", "addr:city": "CHEMNITZ", "addr:postcode": "09122", "addr:country": "de", "name": "Domino's Pizza Chemnitz Markersdorf", "website": "https://www.dominos.de/filiale/de-chemnitzmarkersdorf-34175", "brand": "Dominos Pizza Germany"}, "geometry": {"type": "Point", "coordinates": [12.885261, 50.792977]}},
{"type": "Feature", "id": "aG7t-TklvFZGqWrE3I0QnQllPkk=", "properties": {"ref": "34222", "@spider": "dominos_pizza_de", "addr:full": "Nadorster Str. 228", "addr:city": "OLDENBURG", "addr:postcode": "26123", "addr:country": "de", "name": "Domino's Pizza Oldenburg Nadorst", "website": "https://www.dominos.de/filiale/de-oldenburgnadorst-34222", "brand": "Dominos Pizza Germany"}, "geometry": {"type": "Point", "coordinates": [8.226673, 53.162431]}},
{"type": "Feature", "id": "iFPITlj9Xg51EN8PdEppZG00SZM=", "properties": {"ref": "33772", "@spider": "dominos_pizza_de", "addr:full": "Altenbr\u00fcckertorstra\u00dfe 7B", "addr:city": "L\u00fcneburg", "addr:postcode": "21335", "addr:country": "de", "name": "Domino's Pizza L\u00fcneburg Ost", "website": "https://www.dominos.de/filiale/de-lneburgost-33772", "brand": "Dominos Pizza Germany"}, "geometry": {"type": "Point", "coordinates": [10.417617, 53.247789]}},
{"type": "Feature", "id": "ZYHp_c3OSlz9rnQQzw5KXuq3k-Y=", "properties": {"ref": "34133", "@spider": "dominos_pizza_de", "addr:full": "Dresdner Str. 206", "addr:city": "Freital", "addr:postcode": "01705", "addr:country": "de", "name": "Domino's Pizza Freital", "website": "https://www.dominos.de/filiale/de-freital-34133", "brand": "Dominos Pizza Germany"}, "geometry": {"type": "Point", "coordinates": [13.647002, 50.996909]}},
{"type": "Feature", "id": "LPrL2SvvKzZtkCHvOxOS-_LHQgo=", "properties": {"ref": "34192", "@spider": "dominos_pizza_de", "addr:full": "Am Springintgut 16", "addr:city": "L\u00fcneburg", "addr:postcode": "21335", "addr:country": "de", "name": "Domino's Pizza L\u00fcneburg West", "website": "https://www.dominos.de/filiale/de-lneburgwest-34192", "brand": "Dominos Pizza Germany"}, "geometry": {"type": "Point", "coordinates": [10.400513, 53.252408]}},
{"type": "Feature", "id": "rJl-JEcnKDjhVB0b6n3dBONWiuI=", "properties": {"ref": "33808", "@spider": "dominos_pizza_de", "addr:full": "Stresemannstra\u00dfe 27", "addr:city": "HILDESHEIM", "addr:postcode": "31135", "addr:country": "de", "name": "Domino's Pizza Hildesheim Ost", "website": "https://www.dominos.de/filiale/de-hildesheimost-33808", "brand": "Dominos Pizza Germany"}, "geometry": {"type": "Point", "coordinates": [9.962623, 52.160359]}},
{"type": "Feature", "id": "0C6SCablDBWZArucLCnemvuxFn4=", "properties": {"ref": "33856", "@spider": "dominos_pizza_de", "addr:full": "Stau 39-41", "addr:city": "Oldenburg", "addr:postcode": "26122", "addr:country": "de", "name": "Domino's Pizza Oldenburg", "website": "https://www.dominos.de/filiale/de-oldenburg-33856", "brand": "Dominos Pizza Germany"}, "geometry": {"type": "Point", "coordinates": [8.22137, 53.141049]}},
{"type": "Feature", "id": "iWRBFRJ0MCCzZ4IZnMMtROQgIJ4=", "properties": {"ref": "33859", "@spider": "dominos_pizza_de", "addr:full": "Rathenaustra\u00dfe 2", "addr:city": "Langenhagen", "addr:postcode": "30853", "addr:country": "de", "name": "Domino's Pizza Langenhagen", "website": "https://www.dominos.de/filiale/de-langenhagen-33859", "brand": "Dominos Pizza Germany"}, "geometry": {"type": "Point", "coordinates": [9.735111, 52.44018]}},
{"type": "Feature", "id": "uoJrReVD-zpJ0RfSy_yOlBNsdfI=", "properties": {"ref": "33843", "@spider": "dominos_pizza_de", "addr:full": "Hildesheimer Stra\u00dfe 201", "addr:city": "hannover", "addr:postcode": "30519", "addr:country": "de", "name": "Domino's Pizza Hannover W\u00fclfel", "website": "https://www.dominos.de/filiale/de-hannoverwlfel-33843", "brand": "Dominos Pizza Germany"}, "geometry": {"type": "Point", "coordinates": [9.761841, 52.34616]}},
{"type": "Feature", "id": "lk0_RW5HY-iEfqB1nYxplfC1a1g=", "properties": {"ref": "33802", "@spider": "dominos_pizza_de", "addr:full": "G\u00f6ttinger Chaussee 164", "addr:city": "HANNOVER", "addr:postcode": "30459", "addr:country": "de", "name": "Domino's Pizza Hannover Ricklingen", "website": "https://www.dominos.de/filiale/de-hannoverricklingen-33802", "brand": "Dominos Pizza Germany"}, "geometry": {"type": "Point", "coordinates": [9.71686, 52.338468]}},
{"type": "Feature", "id": "Vs_CBpOIkaT7R8h6F7HUEL3TVdU=", "properties": {"ref": "33911", "@spider": "dominos_pizza_de", "addr:full": "Phoenixstra\u00dfe 5", "addr:city": "HILDESHEIM", "addr:postcode": "31137", "addr:country": "de", "name": "Domino's Pizza Hildesheim West", "website": "https://www.dominos.de/filiale/de-hildesheimwest-33911", "brand": "Dominos Pizza Germany"}, "geometry": {"type": "Point", "coordinates": [9.930292, 52.150385]}},
{"type": "Feature", "id": "R_gq7n6DVVSUvxbOMSsKscip9gg=", "properties": {"ref": "33865", "@spider": "dominos_pizza_de", "addr:full": "Buchholzer Str. 2", "addr:city": "Hannover", "addr:postcode": "30629", "addr:country": "de", "name": "Domino's Pizza Hannover Misburg", "website": "https://www.dominos.de/filiale/de-hannovermisburg-33865", "brand": "Dominos Pizza Germany"}, "geometry": {"type": "Point", "coordinates": [9.852031, 52.391141]}},
{"type": "Feature", "id": "v0g8O1ZvMGjH7r_D06rf5kY3ZkU=", "properties": {"ref": "33811", "@spider": "dominos_pizza_de", "addr:full": "Dresdner Str. 69", "addr:city": "Leipzig", "addr:postcode": "04317", "addr:country": "de", "name": "Domino's Pizza Leipzig Ost", "website": "https://www.dominos.de/filiale/de-leipzigost-33811", "brand": "Dominos Pizza Germany"}, "geometry": {"type": "Point", "coordinates": [12.404348, 51.33846]}},
{"type": "Feature", "id": "gaAUMm21k7XZXl8P6HEIIcqJMbU=", "properties": {"ref": "33909", "@spider": "dominos_pizza_de", "addr:full": "Ferdinand-Wallbrecht-Str. 57", "addr:city": "Hannover", "addr:postcode": "30163", "addr:country": "de", "name": "Domino's Pizza Hannover List", "website": "https://www.dominos.de/filiale/de-hannoverlist-33909", "brand": "Dominos Pizza Germany"}, "geometry": {"type": "Point", "coordinates": [9.744432, 52.394989]}},
{"type": "Feature", "id": "iZ9suoutJ7kbGJnj5SCNS2b1jtE=", "properties": {"ref": "34163", "@spider": "dominos_pizza_de", "addr:full": "Krempelsdorfer Allee 22", "addr:city": "L\u00dcBECK", "addr:postcode": "23556", "addr:country": "de", "name": "Domino's Pizza L\u00fcbeck Krempelsdorfer Allee", "website": "https://www.dominos.de/filiale/de-lbeckkrempelsdorferallee-34163", "brand": "Dominos Pizza Germany"}, "geometry": {"type": "Point", "coordinates": [10.659675, 53.87983]}},
{"type": "Feature", "id": "n8Mh5tgNDUJMIMuxrM1CBLuxMO0=", "properties": {"ref": "33798", "@spider": "dominos_pizza_de", "addr:full": "Sutelstra\u00dfe 2", "addr:city": "Hannover", "addr:postcode": "30659", "addr:country": "de", "name": "Domino's Pizza Hannover Bothfeld", "website": "https://www.dominos.de/filiale/de-hannoverbothfeld-33798", "brand": "Dominos Pizza Germany"}, "geometry": {"type": "Point", "coordinates": [9.80001, 52.407497]}},
{"type": "Feature", "id": "2YyklgibCsf-p8MHStvRhYMy8gY=", "properties": {"ref": "33768", "@spider": "dominos_pizza_de", "addr:full": "F\u00f6ssestra\u00dfe 77", "addr:city": "Hannover", "addr:postcode": "30451", "addr:country": "de", "name": "Domino's Pizza Hannover Linden Nord", "website": "https://www.dominos.de/filiale/de-hannoverlindennord-33768", "brand": "Dominos Pizza Germany"}, "geometry": {"type": "Point", "coordinates": [9.704475, 52.369605]}},
{"type": "Feature", "id": "xwUsLYxB2Jb9irR-QWNm98Uh6ig=", "properties": {"ref": "33774", "@spider": "dominos_pizza_de", "addr:full": "Bahnhofstr. 4", "addr:city": "Stade", "addr:postcode": "21682", "addr:country": "de", "name": "Domino's Pizza Stade", "website": "https://www.dominos.de/filiale/de-stade-33774", "brand": "Dominos Pizza Germany"}, "geometry": {"type": "Point", "coordinates": [9.475302, 53.597723]}},
{"type": "Feature", "id": "tZuoW5nAYcrKUscPSD9bmWP4-8A=", "properties": {"ref": "33797", "@spider": "dominos_pizza_de", "addr:full": "Haltenhoffstra\u00dfe 160", "addr:city": "Hannover", "addr:postcode": "30419", "addr:country": "de", "name": "Domino's Pizza Hannover Herrenhausen", "website": "https://www.dominos.de/filiale/de-hannoverherrenhausen-33797", "brand": "Dominos Pizza Germany"}, "geometry": {"type": "Point", "coordinates": [9.692298, 52.396725]}},
{"type": "Feature", "id": "OipsnNQOtCh4Yy98HijU38WkXFI=", "properties": {"ref": "33816", "@spider": "dominos_pizza_de", "addr:full": "An Der Lutter 22", "addr:city": "G\u00f6ttingen", "addr:postcode": "37075", "addr:country": "de", "name": "Domino's Pizza G\u00f6ttingen Nord", "website": "https://www.dominos.de/filiale/de-gttingennord-33816", "brand": "Dominos Pizza Germany"}, "geometry": {"type": "Point", "coordinates": [9.939831, 51.556205]}},
{"type": "Feature", "id": "Tnb08ZIZSEoksE0QsHmO76mUP24=", "properties": {"ref": "33890", "@spider": "dominos_pizza_de", "addr:full": "Fallerslebener Str. 8", "addr:city": "Gifhorn", "addr:postcode": "38518", "addr:country": "de", "name": "Domino's Pizza Gifhorn", "website": "https://www.dominos.de/filiale/de-gifhorn-33890", "brand": "Dominos Pizza Germany"}, "geometry": {"type": "Point", "coordinates": [10.545916, 52.481743]}},
{"type": "Feature", "id": "pz6mxARtRennGRVITFDs_ZVq-YE=", "properties": {"ref": "33825", "@spider": "dominos_pizza_de", "addr:full": "Rathausplatz 9-10", "addr:city": "Garbsen", "addr:postcode": "30823", "addr:country": "de", "name": "Domino's Pizza Garbsen", "website": "https://www.dominos.de/filiale/de-garbsen-33825", "brand": "Dominos Pizza Germany"}, "geometry": {"type": "Point", "coordinates": [9.592894, 52.426669]}},
{"type": "Feature", "id": "YpbQ5T-IQQOtWdpaUw7YbKc7i8Y=", "properties": {"ref": "33966", "@spider": "dominos_pizza_de", "addr:full": "Bremer Str. 15", "addr:city": "Delmenhorst", "addr:postcode": "27749", "addr:country": "de", "name": "Domino's Pizza Delmenhorst", "website": "https://www.dominos.de/filiale/de-delmenhorst-33966", "brand": "Dominos Pizza Germany"}, "geometry": {"type": "Point", "coordinates": [8.636646, 53.051229]}},
{"type": "Feature", "id": "JraXJbaqgIw__9MOI6h-1aLIoWk=", "properties": {"ref": "34206", "@spider": "dominos_pizza_de", "addr:full": "Hildesheimer Stra\u00dfe 53", "addr:city": "Goslar", "addr:postcode": "38640", "addr:country": "de", "name": "Domino's Pizza Goslar", "website": "https://www.dominos.de/filiale/de-goslar-34206", "brand": "Dominos Pizza Germany"}, "geometry": {"type": "Point", "coordinates": [10.423972, 51.910391]}},
{"type": "Feature", "id": "ELxFFpixMuHQvEkL2M0db9n_46w=", "properties": {"ref": "33759", "@spider": "dominos_pizza_de", "addr:full": "Harburger Stra\u00dfe 55", "addr:city": "Celle", "addr:postcode": "29223", "addr:country": "de", "name": "Domino's Pizza Celle", "website": "https://www.dominos.de/filiale/de-celle-33759", "brand": "Dominos Pizza Germany"}, "geometry": {"type": "Point", "coordinates": [10.080638, 52.632657]}},
{"type": "Feature", "id": "7u8tMrKagIo8yuVw5-Md8z6eJi4=", "properties": {"ref": "33903", "@spider": "dominos_pizza_de", "addr:full": "Bahnhofstra\u00dfe 34 - 36", "addr:city": "Buxtehude", "addr:postcode": "21614", "addr:country": "de", "name": "Domino's Pizza Buxtehude", "website": "https://www.dominos.de/filiale/de-buxtehude-33903", "brand": "Dominos Pizza Germany"}, "geometry": {"type": "Point", "coordinates": [9.692176, 53.472405]}},
{"type": "Feature", "id": "7i4LAbHw-zqY7KmtTtA_5MGGEp8=", "properties": {"ref": "33769", "@spider": "dominos_pizza_de", "addr:full": "Rudolfplatz 15", "addr:city": "Braunschweig", "addr:postcode": "38118", "addr:country": "de", "name": "Domino's Pizza Braunschweig West", "website": "https://www.dominos.de/filiale/de-braunschweigwest-33769", "brand": "Dominos Pizza Germany"}, "geometry": {"type": "Point", "coordinates": [10.501394, 52.270694]}},
{"type": "Feature", "id": "y6uUDND4gVaowB1_6lqGPX29qw8=", "properties": {"ref": "33973", "@spider": "dominos_pizza_de", "addr:full": "Lindenstr. 2-10", "addr:city": "Nordheide", "addr:postcode": "21244 Buchholz in der", "addr:country": "de", "name": "Domino's Pizza Buchholz in der Nordheide", "website": "https://www.dominos.de/filiale/de-buchholzindernordheide-33973", "brand": "Dominos Pizza Germany"}, "geometry": {"type": "Point", "coordinates": [9.878576, 53.325369]}},
{"type": "Feature", "id": "aW-tTJJB7x9Du08bEuzOCjIEG0Q=", "properties": {"ref": "33846", "@spider": "dominos_pizza_de", "addr:full": "Geismar Landstra\u00dfe 36", "addr:city": "G\u00f6ttingen", "addr:postcode": "37083", "addr:country": "de", "name": "Domino's Pizza G\u00f6ttingen S\u00fcd", "website": "https://www.dominos.de/filiale/de-gttingensd-33846", "brand": "Dominos Pizza Germany"}, "geometry": {"type": "Point", "coordinates": [9.946623, 51.525696]}},
{"type": "Feature", "id": "pvLAQAoynSjv1kLlWUgU-bxBHtQ=", "properties": {"ref": "33764", "@spider": "dominos_pizza_de", "addr:full": "Leonhardstra\u00dfe 59", "addr:city": "Braunschweig", "addr:postcode": "38102", "addr:country": "de", "name": "Domino's Pizza Braunschweig Ost", "website": "https://www.dominos.de/filiale/de-braunschweigost-33764", "brand": "Dominos Pizza Germany"}, "geometry": {"type": "Point", "coordinates": [10.535783, 52.259979]}},
{"type": "Feature", "id": "aHIOwsMhCAftTuwIR7gINRT7W2s=", "properties": {"ref": "34031", "@spider": "dominos_pizza_de", "addr:full": "In Der Vahr 61-63", "addr:city": "BREMEN", "addr:postcode": "28329", "addr:country": "de", "name": "Domino's Pizza Bremen Vahr", "website": "https://www.dominos.de/filiale/de-bremenvahr-34031", "brand": "Dominos Pizza Germany"}, "geometry": {"type": "Point", "coordinates": [8.877152, 53.0799]}},
{"type": "Feature", "id": "vwsZVPlXk84tfRtRxT5gowdhbL0=", "properties": {"ref": "33914", "@spider": "dominos_pizza_de", "addr:full": "Hans-Sommer-Str. 79", "addr:city": "Braunschweig", "addr:postcode": "38106", "addr:country": "de", "name": "Domino's Pizza Braunschweig Nord", "website": "https://www.dominos.de/filiale/de-braunschweignord-33914", "brand": "Dominos Pizza Germany"}, "geometry": {"type": "Point", "coordinates": [10.536003, 52.275427]}},
{"type": "Feature", "id": "sq5Ey44c-ajYkJvmnRj0LP1S0X4=", "properties": {"ref": "33849", "@spider": "dominos_pizza_de", "addr:full": "K\u00f6nigsallee 72A", "addr:city": "G\u00f6ttingen", "addr:postcode": "37081", "addr:country": "de", "name": "Domino's Pizza G\u00f6ttingen West", "website": "https://www.dominos.de/filiale/de-gttingenwest-33849", "brand": "Dominos Pizza Germany"}, "geometry": {"type": "Point", "coordinates": [9.914246, 51.542392]}},
{"type": "Feature", "id": "xDSvSEFPMot-g2lYoQR5oBVqJ84=", "properties": {"ref": "33947", "@spider": "dominos_pizza_de", "addr:full": "Waller Heerstra\u00dfe 74", "addr:city": "Bremen", "addr:postcode": "28219", "addr:country": "de", "name": "Domino's Pizza Bremen Walle", "website": "https://www.dominos.de/filiale/dehb-bremenwalle-33947", "brand": "Dominos Pizza Germany"}, "geometry": {"type": "Point", "coordinates": [8.786971, 53.099863]}},
{"type": "Feature", "id": "-f6wZx8PztpfRtrEchNHZTjbFnA=", "properties": {"ref": "33844", "@spider": "dominos_pizza_de", "addr:full": "Erichstr.1", "addr:city": "Hameln", "addr:postcode": "31785", "addr:country": "de", "name": "Domino's Pizza Hameln", "website": "https://www.dominos.de/filiale/de-hameln-33844", "brand": "Dominos Pizza Germany"}, "geometry": {"type": "Point", "coordinates": [9.355222, 52.108065]}},
{"type": "Feature", "id": "NxeADNox8TrYMyNEVghJibDd7q0=", "properties": {"ref": "34116", "@spider": "dominos_pizza_de", "addr:full": "Kaiserstr. 95", "addr:city": "WUPPERTAL", "addr:postcode": "42329", "addr:country": "de", "name": "Domino's Pizza Wuppertal Vohwinkel", "website": "https://www.dominos.de/filiale/de-wuppertalvohwinkel-34116", "brand": "Dominos Pizza Germany"}, "geometry": {"type": "Point", "coordinates": [7.080368, 51.234965]}},
{"type": "Feature", "id": "b4vKxue2QPMBFMXVPMuo9vMZyL8=", "properties": {"ref": "33989", "@spider": "dominos_pizza_de", "addr:full": "Lange Str. 54", "addr:city": "BREMERHAVEN", "addr:postcode": "27580", "addr:country": "de", "name": "Domino's Pizza Bremerhaven Nord", "website": "https://www.dominos.de/filiale/de-bremerhavennord-33989", "brand": "Dominos Pizza Germany"}, "geometry": {"type": "Point", "coordinates": [8.593101, 53.568477]}},
{"type": "Feature", "id": "DA6dmkeIjTio2wJ5pskmT3LcSQU=", "properties": {"ref": "34115", "@spider": "dominos_pizza_de", "addr:full": "Erbschl\u00f6er Str. 80", "addr:city": "WUPPERTAL", "addr:postcode": "42369", "addr:country": "de", "name": "Domino's Pizza Wuppertal Ronsdorf", "website": "https://www.dominos.de/filiale/de-wuppertalronsdorf-34115", "brand": "Dominos Pizza Germany"}, "geometry": {"type": "Point", "coordinates": [7.207883, 51.230675]}},
{"type": "Feature", "id": "17LcIGEV0pNTghXToaxDVqTuI7U=", "properties": {"ref": "34113", "@spider": "dominos_pizza_de", "addr:full": "Uellendahler Str. 332", "addr:city": "WUPPERTAL", "addr:postcode": "42109", "addr:country": "de", "name": "Domino's Pizza Wuppertal Elberfeld-Nord", "website": "https://www.dominos.de/filiale/de-wuppertalelberfeldnord-34113", "brand": "Dominos Pizza Germany"}, "geometry": {"type": "Point", "coordinates": [7.15967, 51.277586]}},
{"type": "Feature", "id": "Q1I1V0LF-enAN_seh1k7Fc31sw4=", "properties": {"ref": "33861", "@spider": "dominos_pizza_de", "addr:full": "Friedrich-Ebert-Str. 16", "addr:city": "Bremen", "addr:postcode": "28199", "addr:country": "de", "name": "Domino's Pizza Bremen Neustadt", "website": "https://www.dominos.de/filiale/dehb-bremenneustadt-33861", "brand": "Dominos Pizza Germany"}, "geometry": {"type": "Point", "coordinates": [8.800576, 53.070662]}},
{"type": "Feature", "id": "hQ59JA5Mjcunjkyi-NxdOPESPx8=", "properties": {"ref": "33854", "@spider": "dominos_pizza_de", "addr:full": "Berliner Allee 65", "addr:city": "Hannover", "addr:postcode": "30175", "addr:country": "de", "name": "Domino's Pizza Hannover Mitte", "website": "https://www.dominos.de/filiale/de-hannovermitte-33854", "brand": "Dominos Pizza Germany"}, "geometry": {"type": "Point", "coordinates": [9.752903, 52.370456]}},
{"type": "Feature", "id": "UoIJ23kX8KZND4UL1QNNcp5hTDg=", "properties": {"ref": "34112", "@spider": "dominos_pizza_de", "addr:full": "Hoeftstr. 29-31", "addr:city": "WUPPERTAL", "addr:postcode": "42103", "addr:country": "de", "name": "Domino's Pizza Wuppertal Elberfeld", "website": "https://www.dominos.de/filiale/de-wuppertalelberfeld-34112", "brand": "Dominos Pizza Germany"}, "geometry": {"type": "Point", "coordinates": [7.139467, 51.251081]}},
{"type": "Feature", "id": "XD9plTHv9Y28J7PPTPJyM2lfzZs=", "properties": {"ref": "34110", "@spider": "dominos_pizza_de", "addr:full": "Hauptstra\u00dfe 33", "addr:city": "Witten", "addr:postcode": "58452", "addr:country": "de", "name": "Domino's Pizza Witten", "website": "https://www.dominos.de/filiale/de-witten-34110", "brand": "Dominos Pizza Germany"}, "geometry": {"type": "Point", "coordinates": [7.335579, 51.441844]}},
{"type": "Feature", "id": "GpWl2h13r9zCRqssaVnkei9PDCY=", "properties": {"ref": "34114", "@spider": "dominos_pizza_de", "addr:full": "Schwelmer Str. 51", "addr:city": "Wuppertal", "addr:postcode": "42389", "addr:country": "de", "name": "Domino's Pizza Wuppertal Langerfeld", "website": "https://www.dominos.de/filiale/de-wuppertallangerfeld-34114", "brand": "Dominos Pizza Germany"}, "geometry": {"type": "Point", "coordinates": [7.249604, 51.275704]}},
{"type": "Feature", "id": "QboYq3LzzaZn8XAnA7jo12A0Qr8=", "properties": {"ref": "33960", "@spider": "dominos_pizza_de", "addr:full": "Bemeroder Rathausplatz 2", "addr:city": "Hannover", "addr:postcode": "30539", "addr:country": "de", "name": "Domino's Pizza Hannover Bemerode", "website": "https://www.dominos.de/filiale/deni-hannoverbemerode-33960", "brand": "Dominos Pizza Germany"}, "geometry": {"type": "Point", "coordinates": [9.828424, 52.346842]}},
{"type": "Feature", "id": "-u5cRCv3rM1UMVcmQ18O1-W7jGA=", "properties": {"ref": "34107", "@spider": "dominos_pizza_de", "addr:full": "Sandstr. 173", "addr:city": "Siegen", "addr:postcode": "57072", "addr:country": "de", "name": "Domino's Pizza Siegen", "website": "https://www.dominos.de/filiale/de-siegen-34107", "brand": "Dominos Pizza Germany"}, "geometry": {"type": "Point", "coordinates": [8.029022, 50.881869]}},
{"type": "Feature", "id": "HxKzoqo0pZkDqUU2inR90FAnSts=", "properties": {"ref": "34111", "@spider": "dominos_pizza_de", "addr:full": "Steinweg 23", "addr:city": "WUPPERTAL", "addr:postcode": "42275", "addr:country": "de", "name": "Domino's Pizza Wuppertal Barmen", "website": "https://www.dominos.de/filiale/de-wuppertalbarmen-34111", "brand": "Dominos Pizza Germany"}, "geometry": {"type": "Point", "coordinates": [7.193981, 51.272241]}},
{"type": "Feature", "id": "52jdXn0zySdWiYXBh-KJTSB9JCI=", "properties": {"ref": "34106", "@spider": "dominos_pizza_de", "addr:full": "Neuenkamper Str. 62", "addr:city": "Remscheid", "addr:postcode": "42855", "addr:country": "de", "name": "Domino's Pizza Remscheid", "website": "https://www.dominos.de/filiale/de-remscheid-34106", "brand": "Dominos Pizza Germany"}, "geometry": {"type": "Point", "coordinates": [7.219797, 51.177403]}},
{"type": "Feature", "id": "pHKpS2NBTW5gOeO-VAeSyF1JbNE=", "properties": {"ref": "34108", "@spider": "dominos_pizza_de", "addr:full": "Rathausstr. 25", "addr:city": "Stolberg", "addr:postcode": "52222", "addr:country": "de", "name": "Domino's Pizza Stolberg", "website": "https://www.dominos.de/filiale/de-stolberg-34108", "brand": "Dominos Pizza Germany"}, "geometry": {"type": "Point", "coordinates": [6.228241, 50.770681]}},
{"type": "Feature", "id": "tcbB7JAoC7NRFe7cIezrflA7R3c=", "properties": {"ref": "34105", "@spider": "dominos_pizza_de", "addr:full": "Kemnastra\u00dfe 19", "addr:city": "Recklinghausen", "addr:postcode": "45657", "addr:country": "de", "name": "Domino's Pizza Recklinghausen Kemnastra\u00dfe", "website": "https://www.dominos.de/filiale/de-recklinghausenkemnastrae-34105", "brand": "Dominos Pizza Germany"}, "geometry": {"type": "Point", "coordinates": [7.192604, 51.610058]}},
{"type": "Feature", "id": "0CaC9AK0_SuKlYkBSPancqVU8Ic=", "properties": {"ref": "34109", "@spider": "dominos_pizza_de", "addr:full": "Heidestr. 139", "addr:city": "Velbert", "addr:postcode": "42549", "addr:country": "de", "name": "Domino's Pizza Velbert", "website": "https://www.dominos.de/filiale/de-velbert-34109", "brand": "Dominos Pizza Germany"}, "geometry": {"type": "Point", "coordinates": [7.035181, 51.331677]}},
{"type": "Feature", "id": "-32z6Ko5xblgdiw9q8-ktXfWaP8=", "properties": {"ref": "33871", "@spider": "dominos_pizza_de", "addr:full": "Liboristr. 5", "addr:city": "PADERBORN", "addr:postcode": "33098", "addr:country": "de", "name": "Domino's Pizza Paderborn", "website": "https://www.dominos.de/filiale/de-paderborn-33871", "brand": "Dominos Pizza Germany"}, "geometry": {"type": "Point", "coordinates": [8.756915, 51.71584]}},
{"type": "Feature", "id": "ssR1r8KtSzBPjgQSLI9W41TQ5zs=", "properties": {"ref": "34209", "@spider": "dominos_pizza_de", "addr:full": "Bielefelder Str. 16", "addr:city": "PADERBORN", "addr:postcode": "33104", "addr:country": "de", "name": "Domino's Pizza Paderborn Schloss Neuhaus", "website": "https://www.dominos.de/filiale/de-paderbornschlossneuhaus-34209", "brand": "Dominos Pizza Germany"}, "geometry": {"type": "Point", "coordinates": [8.714901, 51.747161]}},
{"type": "Feature", "id": "gnymkNUlMCAu19QghzN7u-vIszg=", "properties": {"ref": "33971", "@spider": "dominos_pizza_de", "addr:full": "Bergiusstr. 2", "addr:city": "M\u00dcNSTER", "addr:postcode": "48165", "addr:country": "de", "name": "Domino's Pizza M\u00fcnster Hiltrup", "website": "https://www.dominos.de/filiale/de-mnsterhiltrup-33971", "brand": "Dominos Pizza Germany"}, "geometry": {"type": "Point", "coordinates": [7.652165, 51.904029]}},
{"type": "Feature", "id": "01J5TtlehcJNyaz6_VYOs4fzY9Y=", "properties": {"ref": "33776", "@spider": "dominos_pizza_de", "addr:full": "Warendorfer Stra\u00dfe 178", "addr:city": "M\u00dcNSTER", "addr:postcode": "48145", "addr:country": "de", "name": "Domino's Pizza M\u00fcnster Mitte-Ost", "website": "https://www.dominos.de/filiale/de-mnstermitteost-33776", "brand": "Dominos Pizza Germany"}, "geometry": {"type": "Point", "coordinates": [7.65893, 51.966904]}},
{"type": "Feature", "id": "z6MHWxzJxNgIVAErpztpb3sS5tY=", "properties": {"ref": "33887", "@spider": "dominos_pizza_de", "addr:full": "Friedrichstra\u00dfe 2", "addr:city": "Ruhr", "addr:postcode": "45468 M\u00fclheim an der", "addr:country": "de", "name": "Domino's Pizza M\u00fclheim an der Ruhr", "website": "https://www.dominos.de/filiale/de-mlheimanderruhr-33887", "brand": "Dominos Pizza Germany"}, "geometry": {"type": "Point", "coordinates": [6.881363, 51.426213]}},
{"type": "Feature", "id": "R25DVgY1CQBngkX9gcln10Kk5-U=", "properties": {"ref": "34103", "@spider": "dominos_pizza_de", "addr:full": "Konrad-Adenauer-Platz 20", "addr:city": "Ratingen", "addr:postcode": "40885", "addr:country": "de", "name": "Domino's Pizza Ratingen", "website": "https://www.dominos.de/filiale/de-ratingen-34103", "brand": "Dominos Pizza Germany"}, "geometry": {"type": "Point", "coordinates": [6.8289, 51.333267]}},
{"type": "Feature", "id": "GPIidThD6-KWziB8I0tdw9BZy-Y=", "properties": {"ref": "34099", "@spider": "dominos_pizza_de", "addr:full": "Moerser Str. 76", "addr:city": "Meerbusch", "addr:postcode": "40667", "addr:country": "de", "name": "Domino's Pizza Meerbusch", "website": "https://www.dominos.de/filiale/de-meerbusch-34099", "brand": "Dominos Pizza Germany"}, "geometry": {"type": "Point", "coordinates": [6.681587, 51.257716]}},
{"type": "Feature", "id": "wBJe3lgLHFHnkysGjm_KmsipC2I=", "properties": {"ref": "33948", "@spider": "dominos_pizza_de", "addr:full": "Bismarckstr. 153", "addr:city": "Bremen", "addr:postcode": "28203", "addr:country": "de", "name": "Domino's Pizza Bremen Schwachhausen", "website": "https://www.dominos.de/filiale/dehb-bremenschwachhausen-33948", "brand": "Dominos Pizza Germany"}, "geometry": {"type": "Point", "coordinates": [8.836275, 53.07693]}},
{"type": "Feature", "id": "ag4eRGtJx4vxXytw_4IyII-FI7s=", "properties": {"ref": "33722", "@spider": "dominos_pizza_de", "addr:full": "Ludgeriplatz 9", "addr:city": "M\u00dcNSTER", "addr:postcode": "48151", "addr:country": "de", "name": "Domino's Pizza M\u00fcnster S\u00fcdwest", "website": "https://www.dominos.de/filiale/de-mnstersdwest-33722", "brand": "Dominos Pizza Germany"}, "geometry": {"type": "Point", "coordinates": [7.623381, 51.9552]}},
{"type": "Feature", "id": "FNALM030OhrAE_cTLp1uRta_fws=", "properties": {"ref": "34104", "@spider": "dominos_pizza_de", "addr:full": "Bochumer Str. 155", "addr:city": "Recklinghausen", "addr:postcode": "45661", "addr:country": "de", "name": "Domino's Pizza Recklinghausen Bochumer Str.", "website": "https://www.dominos.de/filiale/de-recklinghausenbochumerstr-34104", "brand": "Dominos Pizza Germany"}, "geometry": {"type": "Point", "coordinates": [7.212223, 51.569963]}},
{"type": "Feature", "id": "Pl2AnHn9F_e4p7IOi33t46vr7rs=", "properties": {"ref": "34098", "@spider": "dominos_pizza_de", "addr:full": "Hauptstr. 24", "addr:city": "Langenfeld", "addr:postcode": "40764", "addr:country": "de", "name": "Domino's Pizza Langenfeld", "website": "https://www.dominos.de/filiale/de-langenfeld-34098", "brand": "Dominos Pizza Germany"}, "geometry": {"type": "Point", "coordinates": [6.94649, 51.101248]}},
{"type": "Feature", "id": "yok7LFjbbYuw0YJ8Max34CIUElg=", "properties": {"ref": "34096", "@spider": "dominos_pizza_de", "addr:full": "H\u00fclser Str. 88", "addr:city": "Krefeld", "addr:postcode": "47803", "addr:country": "de", "name": "Domino's Pizza Krefeld Inrath", "website": "https://www.dominos.de/filiale/de-krefeldinrath-34096", "brand": "Dominos Pizza Germany"}, "geometry": {"type": "Point", "coordinates": [6.553942, 51.342389]}},
{"type": "Feature", "id": "EbsxTWMfTxkrkU_dXkPc4Sb4SZ4=", "properties": {"ref": "34100", "@spider": "dominos_pizza_de", "addr:full": "Xantener Str. 24B", "addr:city": "Moers", "addr:postcode": "47441", "addr:country": "de", "name": "Domino's Pizza Moers", "website": "https://www.dominos.de/filiale/de-moers-34100", "brand": "Dominos Pizza Germany"}, "geometry": {"type": "Point", "coordinates": [6.63946, 51.447067]}},
{"type": "Feature", "id": "pt6xrm6Bv6b7f4O5MqoD5YTSOHk=", "properties": {"ref": "34097", "@spider": "dominos_pizza_de", "addr:full": "Feldstr. 23", "addr:city": "KREUZAU", "addr:postcode": "52372", "addr:country": "de", "name": "Domino's Pizza Kreuzau", "website": "https://www.dominos.de/filiale/de-kreuzau-34097", "brand": "Dominos Pizza Germany"}, "geometry": {"type": "Point", "coordinates": [6.490567, 50.747891]}},
{"type": "Feature", "id": "_nqqqr3XIy5Vqs0Aemoc0QyJb1Q=", "properties": {"ref": "34095", "@spider": "dominos_pizza_de", "addr:full": "Uerdinger Str. 713", "addr:city": "Krefeld", "addr:postcode": "47800", "addr:country": "de", "name": "Domino's Pizza Krefeld Bockum", "website": "https://www.dominos.de/filiale/de-krefeldbockum-34095", "brand": "Dominos Pizza Germany"}, "geometry": {"type": "Point", "coordinates": [6.626467, 51.348899]}},
{"type": "Feature", "id": "m4OpDpq3nJ13dzMxYm2cd5ZpTQc=", "properties": {"ref": "33888", "@spider": "dominos_pizza_de", "addr:full": "Hohenstaufenring 3", "addr:city": "K\u00d6LN", "addr:postcode": "50674", "addr:country": "de", "name": "Domino's Pizza K\u00f6ln Innenstadt", "website": "https://www.dominos.de/filiale/de-klninnenstadt-33888", "brand": "Dominos Pizza Germany"}, "geometry": {"type": "Point", "coordinates": [6.941114, 50.929655]}},
{"type": "Feature", "id": "BKG8xGKhT3X-sqPPh9bYj0c3r1Q=", "properties": {"ref": "33719", "@spider": "dominos_pizza_de", "addr:full": "Bergisch Gladbacher Stra\u00dfe 567", "addr:city": "K\u00d6LN", "addr:postcode": "51067", "addr:country": "de", "name": "Domino's Pizza K\u00f6ln Holweide", "website": "https://www.dominos.de/filiale/de-klnholweide-33719", "brand": "Dominos Pizza Germany"}, "geometry": {"type": "Point", "coordinates": [7.043154, 50.969845]}},
{"type": "Feature", "id": "QCwNiR23-NWX-Pnj0q0zsSb_DJ8=", "properties": {"ref": "34090", "@spider": "dominos_pizza_de", "addr:full": "J\u00fclicher Str. 14", "addr:city": "H\u00fcckelhoven", "addr:postcode": "41836", "addr:country": "de", "name": "Domino's Pizza H\u00fcckelhoven", "website": "https://www.dominos.de/filiale/de-hckelhoven-34090", "brand": "Dominos Pizza Germany"}, "geometry": {"type": "Point", "coordinates": [6.225985, 51.048828]}},
{"type": "Feature", "id": "3_y_0E2pjm_KYDPshwhtq42COtg=", "properties": {"ref": "34093", "@spider": "dominos_pizza_de", "addr:full": "Wei\u00dfer Str. 59", "addr:city": "K\u00f6ln", "addr:postcode": "50996", "addr:country": "de", "name": "Domino's Pizza K\u00f6ln Rodenkirchen", "website": "https://www.dominos.de/filiale/de-klnrodenkirchen-34093", "brand": "Dominos Pizza Germany"}, "geometry": {"type": "Point", "coordinates": [7.001897, 50.887416]}},
{"type": "Feature", "id": "OK_37qqUtOXwsKGgXApupEc0Bzw=", "properties": {"ref": "33735", "@spider": "dominos_pizza_de", "addr:full": "Waldstra\u00dfe 7", "addr:city": "K\u00d6LN", "addr:postcode": "51145", "addr:country": "de", "name": "Domino's Pizza K\u00f6ln Porz", "website": "https://www.dominos.de/filiale/de-klnporz-33735", "brand": "Dominos Pizza Germany"}, "geometry": {"type": "Point", "coordinates": [7.080997, 50.881533]}},
{"type": "Feature", "id": "QpzXmH1Qs_3RU_X2i_8XZmqkYBA=", "properties": {"ref": "34087", "@spider": "dominos_pizza_de", "addr:full": "Kurhausstr. 73", "addr:city": "Herne", "addr:postcode": "44652", "addr:country": "de", "name": "Domino's Pizza Herne Eickel", "website": "https://www.dominos.de/filiale/de-herneeickel-34087", "brand": "Dominos Pizza Germany"}, "geometry": {"type": "Point", "coordinates": [7.168091, 51.52406]}},
{"type": "Feature", "id": "hT7KpJYZOOD0SKTUG98196_MYWk=", "properties": {"ref": "34088", "@spider": "dominos_pizza_de", "addr:full": "Suedstr. 122", "addr:city": "Herzogenrath", "addr:postcode": "52134", "addr:country": "de", "name": "Domino's Pizza Herzogenrath Kohlscheid", "website": "https://www.dominos.de/filiale/de-herzogenrathkohlscheid-34088", "brand": "Dominos Pizza Germany"}, "geometry": {"type": "Point", "coordinates": [6.091435, 50.830409]}},
{"type": "Feature", "id": "x4KpmR9y2p8IsIPBRNrbVekhMGk=", "properties": {"ref": "34177", "@spider": "dominos_pizza_de", "addr:full": "Vorgebirgstr. 332", "addr:city": "K\u00d6LN", "addr:postcode": "50969", "addr:country": "de", "name": "Domino's Pizza K\u00f6ln Zollstock", "website": "https://www.dominos.de/filiale/de-klnzollstock-34177", "brand": "Dominos Pizza Germany"}, "geometry": {"type": "Point", "coordinates": [6.945225, 50.904373]}},
{"type": "Feature", "id": "UjFsga9cLanZqpyLcY_4VZ56jbQ=", "properties": {"ref": "34084", "@spider": "dominos_pizza_de", "addr:full": "Altenhagener Str. 51", "addr:city": "Hagen", "addr:postcode": "58097", "addr:country": "de", "name": "Domino's Pizza Hagen Altenhagen", "website": "https://www.dominos.de/filiale/de-hagenaltenhagen-34084", "brand": "Dominos Pizza Germany"}, "geometry": {"type": "Point", "coordinates": [7.463375, 51.368082]}},
{"type": "Feature", "id": "UGA12zOOdGBanbND_KBeqJNel3M=", "properties": {"ref": "34081", "@spider": "dominos_pizza_de", "addr:full": "Ottestr. 8", "addr:city": "Gelsenkirchen", "addr:postcode": "45896", "addr:country": "de", "name": "Domino's Pizza Gelsenkirchen Hassel", "website": "https://www.dominos.de/filiale/de-gelsenkirchenhassel-34081", "brand": "Dominos Pizza Germany"}, "geometry": {"type": "Point", "coordinates": [7.055281, 51.602369]}},
{"type": "Feature", "id": "l1AZxli-62s5xp4siJ8mz9YLllg=", "properties": {"ref": "34213", "@spider": "dominos_pizza_de", "addr:full": "Hauptstra\u00dfe 191 - 193", "addr:city": "Frechen", "addr:postcode": "50226", "addr:country": "de", "name": "Domino's Pizza Frechen", "website": "https://www.dominos.de/filiale/de-frechen-34213", "brand": "Dominos Pizza Germany"}, "geometry": {"type": "Point", "coordinates": [6.802586, 50.909218]}},
{"type": "Feature", "id": "M3uKFvQu2UZhXqD3Wn7hozh09Bk=", "properties": {"ref": "33866", "@spider": "dominos_pizza_de", "addr:full": "Nevinghoff 16", "addr:city": "M\u00dcNSTER", "addr:postcode": "48147", "addr:country": "de", "name": "Domino's Pizza M\u00fcnster Zentrum-Nord", "website": "https://www.dominos.de/filiale/de-mnsterzentrumnord-33866", "brand": "Dominos Pizza Germany"}, "geometry": {"type": "Point", "coordinates": [7.634116, 51.983757]}},
{"type": "Feature", "id": "K3mlYALjNrqRlfIp5rw39WU5n1g=", "properties": {"ref": "34080", "@spider": "dominos_pizza_de", "addr:full": "Rellinghauser Str. 266", "addr:city": "Essen", "addr:postcode": "45136", "addr:country": "de", "name": "Domino's Pizza Essen Bergerhausen", "website": "https://www.dominos.de/filiale/de-essenbergerhausen-34080", "brand": "Dominos Pizza Germany"}, "geometry": {"type": "Point", "coordinates": [7.031539, 51.436848]}},
{"type": "Feature", "id": "_EmsTf7oAGy4Vge4SjLD4Zvaly4=", "properties": {"ref": "34083", "@spider": "dominos_pizza_de", "addr:full": "Hagener Str. 405", "addr:city": "Gevelsberg", "addr:postcode": "58285", "addr:country": "de", "name": "Domino's Pizza Gevelsberg", "website": "https://www.dominos.de/filiale/de-gevelsberg-34083", "brand": "Dominos Pizza Germany"}, "geometry": {"type": "Point", "coordinates": [7.388222, 51.337494]}},
{"type": "Feature", "id": "yTIbydhx86WiRy-D69t8Rehm1O4=", "properties": {"ref": "34079", "@spider": "dominos_pizza_de", "addr:full": "Indestr. 53", "addr:city": "Eschweiler", "addr:postcode": "52249", "addr:country": "de", "name": "Domino's Pizza Eschweiler", "website": "https://www.dominos.de/filiale/de-eschweiler-34079", "brand": "Dominos Pizza Germany"}, "geometry": {"type": "Point", "coordinates": [6.261724, 50.820609]}},
{"type": "Feature", "id": "6NtfPVDght4AHgPa4exAULHQS5E=", "properties": {"ref": "34076", "@spider": "dominos_pizza_de", "addr:full": "K\u00f6lner Str. 114", "addr:city": "Ennepetal", "addr:postcode": "58256", "addr:country": "de", "name": "Domino's Pizza Ennepetal", "website": "https://www.dominos.de/filiale/de-ennepetal-34076", "brand": "Dominos Pizza Germany"}, "geometry": {"type": "Point", "coordinates": [7.342595, 51.299831]}},
{"type": "Feature", "id": "-qvMorzq6EO98jO5gFls4DRRafQ=", "properties": {"ref": "34073", "@spider": "dominos_pizza_de", "addr:full": "Lanker Str. 36", "addr:city": "D\u00fcsseldorf", "addr:postcode": "40545", "addr:country": "de", "name": "Domino's Pizza D\u00fcsseldorf Oberkassel", "website": "https://www.dominos.de/filiale/de-dsseldorfoberkassel-34073", "brand": "Dominos Pizza Germany"}, "geometry": {"type": "Point", "coordinates": [6.747649, 51.233356]}},
{"type": "Feature", "id": "DmP0HRGrYujl9ucfiTOWXX0m1mQ=", "properties": {"ref": "33974", "@spider": "dominos_pizza_de", "addr:full": "Luisenstr. 5", "addr:city": "Hamm", "addr:postcode": "59065", "addr:country": "de", "name": "Domino's Pizza Hamm / Westf.", "website": "https://www.dominos.de/filiale/de-hammwestf-33974", "brand": "Dominos Pizza Germany"}, "geometry": {"type": "Point", "coordinates": [7.810323, 51.679127]}},
{"type": "Feature", "id": "PM5CX3nD0gjsxZGTGFvf9TXt7qQ=", "properties": {"ref": "34072", "@spider": "dominos_pizza_de", "addr:full": "Elbruchstr. 5", "addr:city": "D\u00fcsseldorf", "addr:postcode": "40589", "addr:country": "de", "name": "Domino's Pizza D\u00fcsseldorf Holthausen", "website": "https://www.dominos.de/filiale/de-dsseldorfholthausen-34072", "brand": "Dominos Pizza Germany"}, "geometry": {"type": "Point", "coordinates": [6.827509, 51.178649]}},
{"type": "Feature", "id": "D46mT79VVYa0fS7UoO0XGvCN09Q=", "properties": {"ref": "34070", "@spider": "dominos_pizza_de", "addr:full": "Josef-Kleesattel-Str. 19", "addr:city": "D\u00fcsseldorf", "addr:postcode": "40595", "addr:country": "de", "name": "Domino's Pizza D\u00fcsseldorf Garath", "website": "https://www.dominos.de/filiale/de-dsseldorfgarath-34070", "brand": "Dominos Pizza Germany"}, "geometry": {"type": "Point", "coordinates": [6.889483, 51.145375]}},
{"type": "Feature", "id": "DaBId9qMqSRTKzU1Okth9nFp8c8=", "properties": {"ref": "34077", "@spider": "dominos_pizza_de", "addr:full": "Paul-R\u00fcttchen-Stra\u00dfe 19", "addr:city": "Erkelenz", "addr:postcode": "41812", "addr:country": "de", "name": "Domino's Pizza Erkelenz", "website": "https://www.dominos.de/filiale/de-erkelenz-34077", "brand": "Dominos Pizza Germany"}, "geometry": {"type": "Point", "coordinates": [6.305202, 51.075133]}},
{"type": "Feature", "id": "gXqtqosiUq4LLEO9r9htNgLymrw=", "properties": {"ref": "34086", "@spider": "dominos_pizza_de", "addr:full": "Rennstra\u00dfe 4B", "addr:city": "Herford", "addr:postcode": "32052", "addr:country": "de", "name": "Domino's Pizza Herford", "website": "https://www.dominos.de/filiale/de-herford-34086", "brand": "Dominos Pizza Germany"}, "geometry": {"type": "Point", "coordinates": [8.673073, 52.111803]}},
{"type": "Feature", "id": "_Qj9C4nMaS289GRPU5aVcm_KRBI=", "properties": {"ref": "33957", "@spider": "dominos_pizza_de", "addr:full": "Herzogstr. 102", "addr:city": "D\u00dcSSELDORF", "addr:postcode": "40215", "addr:country": "de", "name": "Domino's Pizza D\u00fcsseldorf Friedrichstadt/Bilk", "website": "https://www.dominos.de/filiale/de-dsseldorffriedrichstadtbilk-33957", "brand": "Dominos Pizza Germany"}, "geometry": {"type": "Point", "coordinates": [6.784849, 51.215539]}},
{"type": "Feature", "id": "xaARg_b1XvD-XtnydWDP18myfko=", "properties": {"ref": "34067", "@spider": "dominos_pizza_de", "addr:full": "Friedrich-Ebert-Platz 22-24", "addr:city": "D\u00dcREN", "addr:postcode": "52351", "addr:country": "de", "name": "Domino's Pizza D\u00fcren Ost", "website": "https://www.dominos.de/filiale/de-drenost-34067", "brand": "Dominos Pizza Germany"}, "geometry": {"type": "Point", "coordinates": [6.493832, 50.805927]}},
{"type": "Feature", "id": "uUk1TL1fvSNsaeFdt-4oB1I8108=", "properties": {"ref": "33886", "@spider": "dominos_pizza_de", "addr:full": "Tonhallenstr. 19", "addr:city": "Duisburg", "addr:postcode": "47051", "addr:country": "de", "name": "Domino's Pizza Duisburg Mitte", "website": "https://www.dominos.de/filiale/de-duisburgmitte-33886", "brand": "Dominos Pizza Germany"}, "geometry": {"type": "Point", "coordinates": [6.769217, 51.430569]}},
{"type": "Feature", "id": "D6fUALWHIDDtJ6PYLlrcuSjvsgU=", "properties": {"ref": "34062", "@spider": "dominos_pizza_de", "addr:full": "Friedrich-Ebert-Str. 4", "addr:city": "Bochum", "addr:postcode": "44866", "addr:country": "de", "name": "Domino's Pizza Bochum Wattenscheid", "website": "https://www.dominos.de/filiale/de-bochumwattenscheid-34062", "brand": "Dominos Pizza Germany"}, "geometry": {"type": "Point", "coordinates": [7.137506, 51.481947]}},
{"type": "Feature", "id": "iklsdzFSeRhaBF3SgupGs96NFNc=", "properties": {"ref": "33712", "@spider": "dominos_pizza_de", "addr:full": "Mittelstra\u00dfe 1", "addr:city": "Bonn", "addr:postcode": "53175", "addr:country": "de", "name": "Domino's Pizza Bonn Bad Godesberg", "website": "https://www.dominos.de/filiale/de-bonnbadgodesberg-33712", "brand": "Dominos Pizza Germany"}, "geometry": {"type": "Point", "coordinates": [7.161119, 50.695801]}},
{"type": "Feature", "id": "GCBUmUJl2wENo2yTFlCF_xDpi2g=", "properties": {"ref": "33884", "@spider": "dominos_pizza_de", "addr:full": "Hattinger Str. 22", "addr:city": "Bochum", "addr:postcode": "44789", "addr:country": "de", "name": "Domino's Pizza Bochum Mitte", "website": "https://www.dominos.de/filiale/de-bochummitte-33884", "brand": "Dominos Pizza Germany"}, "geometry": {"type": "Point", "coordinates": [7.213628, 51.471969]}},
{"type": "Feature", "id": "LPR3uqypktbXXdYKSspkbeaolkc=", "properties": {"ref": "33726", "@spider": "dominos_pizza_de", "addr:full": "Am Burgweiher 12", "addr:city": "BONN", "addr:postcode": "53123", "addr:country": "de", "name": "Domino's Pizza Bonn Duisdorf", "website": "https://www.dominos.de/filiale/de-bonnduisdorf-33726", "brand": "Dominos Pizza Germany"}, "geometry": {"type": "Point", "coordinates": [7.047338, 50.716287]}},
{"type": "Feature", "id": "NaJZw-iJDResWRRg9eVMuL5hydU=", "properties": {"ref": "34089", "@spider": "dominos_pizza_de", "addr:full": "Hauptstr. 106", "addr:city": "Herzogenrath", "addr:postcode": "52134", "addr:country": "de", "name": "Domino's Pizza Herzogenrath Merkstein", "website": "https://www.dominos.de/filiale/de-herzogenrathmerkstein-34089", "brand": "Dominos Pizza Germany"}, "geometry": {"type": "Point", "coordinates": [6.102238, 50.88537]}},
{"type": "Feature", "id": "f2RodXuEio-KQHajNUjAUvjwcV8=", "properties": {"ref": "33882", "@spider": "dominos_pizza_de", "addr:full": "Otto-Brenner-Str. 9", "addr:city": "Bielefeld", "addr:postcode": "33607", "addr:country": "de", "name": "Domino's Pizza Bielefeld Mitte-Ost", "website": "https://www.dominos.de/filiale/de-bielefeldmitteost-33882", "brand": "Dominos Pizza Germany"}, "geometry": {"type": "Point", "coordinates": [8.565862, 52.023152]}},
{"type": "Feature", "id": "mq9m9r9OtNpPTrtncf_JVltVG_o=", "properties": {"ref": "34074", "@spider": "dominos_pizza_de", "addr:full": "Unterrather Str. 160", "addr:city": "D\u00fcsseldorf", "addr:postcode": "40468", "addr:country": "de", "name": "Domino's Pizza D\u00fcsseldorf Unterrath", "website": "https://www.dominos.de/filiale/de-dsseldorfunterrath-34074", "brand": "Dominos Pizza Germany"}, "geometry": {"type": "Point", "coordinates": [6.77785, 51.272826]}},
{"type": "Feature", "id": "0POuUJaN3lZ2flmnsZGPKK7XidY=", "properties": {"ref": "33867", "@spider": "dominos_pizza_de", "addr:full": "Industriestr. 32", "addr:city": "Bocholt", "addr:postcode": "46395", "addr:country": "de", "name": "Domino's Pizza Bocholt", "website": "https://www.dominos.de/filiale/de-bocholt-33867", "brand": "Dominos Pizza Germany"}, "geometry": {"type": "Point", "coordinates": [6.625982, 51.833441]}},
{"type": "Feature", "id": "eut2wBQ__bFfxsPlQQTYtvdRx2U=", "properties": {"ref": "34091", "@spider": "dominos_pizza_de", "addr:full": "Friedrich-Ebert-Str. 34", "addr:city": "H\u00fcrth", "addr:postcode": "50354", "addr:country": "de", "name": "Domino's Pizza H\u00fcrth", "website": "https://www.dominos.de/filiale/de-hrth-34091", "brand": "Dominos Pizza Germany"}, "geometry": {"type": "Point", "coordinates": [6.880488, 50.879742]}},
{"type": "Feature", "id": "tcK1bQjKHI07fohRXzgY6Pw2ICI=", "properties": {"ref": "34180", "@spider": "dominos_pizza_de", "addr:full": "Otto-Wels-Str. 6", "addr:city": "Alsdorf", "addr:postcode": "52477", "addr:country": "de", "name": "Domino's Pizza Alsdorf", "website": "https://www.dominos.de/filiale/de-alsdorf-34180", "brand": "Dominos Pizza Germany"}, "geometry": {"type": "Point", "coordinates": [6.16735, 50.87408]}},
{"type": "Feature", "id": "3lO4Y1_1IGv1xHemk5o5_uX2Z9M=", "properties": {"ref": "34059", "@spider": "dominos_pizza_de", "addr:full": "Vaalser Str. 119", "addr:city": "Aachen", "addr:postcode": "52074", "addr:country": "de", "name": "Domino's Pizza Aachen Westpark", "website": "https://www.dominos.de/filiale/de-aachenwestpark-34059", "brand": "Dominos Pizza Germany"}, "geometry": {"type": "Point", "coordinates": [6.064343, 50.770109]}},
{"type": "Feature", "id": "4SB_sZ76NJa80_WgnI7Z1RUIkPk=", "properties": {"ref": "33724", "@spider": "dominos_pizza_de", "addr:full": "Triererstra\u00dfe 80-82", "addr:city": "AACHEN", "addr:postcode": "52078", "addr:country": "de", "name": "Domino's Pizza Aachen Rothe Erde", "website": "https://www.dominos.de/filiale/de-aachenrotheerde-33724", "brand": "Dominos Pizza Germany"}, "geometry": {"type": "Point", "coordinates": [6.119647, 50.768084]}},
{"type": "Feature", "id": "g2GOp5hYT61c-ywvyA0w7jWp4EM=", "properties": {"ref": "33975", "@spider": "dominos_pizza_de", "addr:full": "Gro\u00dfe-Kurf\u00fcrsten-Stra\u00dfe 65", "addr:city": "BIELEFELD", "addr:postcode": "33615", "addr:country": "de", "name": "Domino's Pizza Bielefeld Mitte-West", "website": "https://www.dominos.de/filiale/de-bielefeldmittewest-33975", "brand": "Dominos Pizza Germany"}, "geometry": {"type": "Point", "coordinates": [8.526259, 52.026631]}},
{"type": "Feature", "id": "x8Q5RDGqJr226z9d6CMTGiWj0IA=", "properties": {"ref": "33782", "@spider": "dominos_pizza_de", "addr:full": "Georg-Wilhelm-Stra\u00dfe 104", "addr:city": "Hamburg", "addr:postcode": "21107", "addr:country": "de", "name": "Domino's Pizza Hamburg Wilhelmsburg Steinwerder Hafen", "website": "https://www.dominos.de/filiale/dehh-hamburgwilhelmsburgsteinwerderhafen-33782", "brand": "Dominos Pizza Germany"}, "geometry": {"type": "Point", "coordinates": [9.992397, 53.505818]}},
{"type": "Feature", "id": "oeiPSsydjVxToibjggXXR8wjqEw=", "properties": {"ref": "33716", "@spider": "dominos_pizza_de", "addr:full": "Templergraben 42", "addr:city": "Aachen", "addr:postcode": "52062", "addr:country": "de", "name": "Domino's Pizza Aachen Zentrum", "website": "https://www.dominos.de/filiale/de-aachenzentrum-33716", "brand": "Dominos Pizza Germany"}, "geometry": {"type": "Point", "coordinates": [6.075222, 50.776786]}},
{"type": "Feature", "id": "xIot9kt4xlioOiVl8Cn6FJE1x2w=", "properties": {"ref": "33788", "@spider": "dominos_pizza_de", "addr:full": "Wandsbeker Marktstra\u00dfe 141", "addr:city": "HAMBURG", "addr:postcode": "22041", "addr:country": "de", "name": "Domino's Pizza Hamburg Wandsbek", "website": "https://www.dominos.de/filiale/de-hamburgwandsbek-33788", "brand": "Dominos Pizza Germany"}, "geometry": {"type": "Point", "coordinates": [10.070344, 53.57333]}},
{"type": "Feature", "id": "rKCJJHzW3aXq7xUXSAqNBZNMA_k=", "properties": {"ref": "33756", "@spider": "dominos_pizza_de", "addr:full": "Saseler Chaussee 164", "addr:city": "Hamburg", "addr:postcode": "22393", "addr:country": "de", "name": "Domino's Pizza Hamburg Sasel", "website": "https://www.dominos.de/filiale/dehh-hamburgsasel-33756", "brand": "Dominos Pizza Germany"}, "geometry": {"type": "Point", "coordinates": [10.10575, 53.651633]}},
{"type": "Feature", "id": "oOq3SnYbFpZEAsltobUb45BVSZM=", "properties": {"ref": "34047", "@spider": "dominos_pizza_de", "addr:full": "Frohmestr. 86", "addr:city": "HAMBURG", "addr:postcode": "22459", "addr:country": "de", "name": "Domino's Pizza Hamburg Schnelsen", "website": "https://www.dominos.de/filiale/de-hamburgschnelsen-34047", "brand": "Dominos Pizza Germany"}, "geometry": {"type": "Point", "coordinates": [9.926834, 53.629894]}},
{"type": "Feature", "id": "BtDYM0QCmDagdYF7SUxWEB5KdP4=", "properties": {"ref": "34057", "@spider": "dominos_pizza_de", "addr:full": "Gut-D\u00e4mme-Str. 10-12", "addr:city": "Aachen", "addr:postcode": "52070", "addr:country": "de", "name": "Domino's Pizza Aachen Kalkofen", "website": "https://www.dominos.de/filiale/de-aachenkalkofen-34057", "brand": "Dominos Pizza Germany"}, "geometry": {"type": "Point", "coordinates": [6.103993, 50.796035]}},
{"type": "Feature", "id": "podbtTsXnkpjUnRdDzG2IfeoXUE=", "properties": {"ref": "33908", "@spider": "dominos_pizza_de", "addr:full": "Grindelallee 182", "addr:city": "HAMBURG", "addr:postcode": "20144", "addr:country": "de", "name": "Domino's Pizza Hamburg Rotherbaum / Harvestehude", "website": "https://www.dominos.de/filiale/de-hamburgrotherbaumharvestehude-33908", "brand": "Dominos Pizza Germany"}, "geometry": {"type": "Point", "coordinates": [9.978793, 53.571697]}},
{"type": "Feature", "id": "sxRGn-Msh4rwMV0otW0z-dpF9DU=", "properties": {"ref": "34035", "@spider": "dominos_pizza_de", "addr:full": "Max-Brauer-Allee 36", "addr:city": "HAMBURG", "addr:postcode": "22765", "addr:country": "de", "name": "Domino's Pizza Hamburg Ottensen", "website": "https://www.dominos.de/filiale/de-hamburgottensen-34035", "brand": "Dominos Pizza Germany"}, "geometry": {"type": "Point", "coordinates": [9.936431, 53.549484]}},
{"type": "Feature", "id": "Yp97H_NOVVMQhuFt2tbmGPECwEw=", "properties": {"ref": "33743", "@spider": "dominos_pizza_de", "addr:full": "Winterhuder Weg 78", "addr:city": "HAMBURG", "addr:postcode": "22085", "addr:country": "de", "name": "Domino's Pizza Hamburg Uhlenhorst", "website": "https://www.dominos.de/filiale/de-hamburguhlenhorst-33743", "brand": "Dominos Pizza Germany"}, "geometry": {"type": "Point", "coordinates": [10.02052, 53.574432]}},
{"type": "Feature", "id": "np2boKdMd_PRMOgEa18ABXFQAsA=", "properties": {"ref": "33751", "@spider": "dominos_pizza_de", "addr:full": "Julius-Brecht-Stra\u00dfe 4-6", "addr:city": "Hamburg", "addr:postcode": "22609", "addr:country": "de", "name": "Domino's Pizza Hamburg Osdorf", "website": "https://www.dominos.de/filiale/dehh-hamburgosdorf-33751", "brand": "Dominos Pizza Germany"}, "geometry": {"type": "Point", "coordinates": [9.864717, 53.570147]}},
{"type": "Feature", "id": "VDLHs0CzsGCwz6GA-WpegWFk9Gg=", "properties": {"ref": "33803", "@spider": "dominos_pizza_de", "addr:full": "Quedlinburger Weg 78", "addr:city": "Hamburg", "addr:postcode": "22455", "addr:country": "de", "name": "Domino's Pizza Hamburg Niendorf", "website": "https://www.dominos.de/filiale/de-hamburgniendorf-33803", "brand": "Dominos Pizza Germany"}, "geometry": {"type": "Point", "coordinates": [9.944272, 53.635965]}},
{"type": "Feature", "id": "fkRBh9mAW-fcxp1jNI9WcfHvjrQ=", "properties": {"ref": "34046", "@spider": "dominos_pizza_de", "addr:full": "Meiendorfer Stra\u00dfe 109", "addr:city": "HAMBURG", "addr:postcode": "22145", "addr:country": "de", "name": "Domino's Pizza Hamburg Meiendorf", "website": "https://www.dominos.de/filiale/de-hamburgmeiendorf-34046", "brand": "Dominos Pizza Germany"}, "geometry": {"type": "Point", "coordinates": [10.167087, 53.623744]}},
{"type": "Feature", "id": "ZOLMJp8dG1InW5-18ksApyU5gVA=", "properties": {"ref": "34045", "@spider": "dominos_pizza_de", "addr:full": "Luruper Hauptstr. 274", "addr:city": "HAMBURG", "addr:postcode": "22547", "addr:country": "de", "name": "Domino's Pizza Hamburg Lurup", "website": "https://www.dominos.de/filiale/de-hamburglurup-34045", "brand": "Dominos Pizza Germany"}, "geometry": {"type": "Point", "coordinates": [9.861882, 53.597594]}},
{"type": "Feature", "id": "SjTtqX2OQKx_tE7vl7RCUTDhYAo=", "properties": {"ref": "33762", "@spider": "dominos_pizza_de", "addr:full": "Cuxhavener Stra\u00dfe 401", "addr:city": "HAMBURG", "addr:postcode": "21149", "addr:country": "de", "name": "Domino's Pizza Hamburg Neugraben", "website": "https://www.dominos.de/filiale/de-hamburgneugraben-33762", "brand": "Dominos Pizza Germany"}, "geometry": {"type": "Point", "coordinates": [9.839843, 53.472141]}},
{"type": "Feature", "id": "h_P3ULvJmB-tE7mM8w9-ywcyb0s=", "properties": {"ref": "33749", "@spider": "dominos_pizza_de", "addr:full": "Langenhorner Chaussee 122", "addr:city": "Hamburg", "addr:postcode": "22415", "addr:country": "de", "name": "Domino's Pizza Hamburg Langenhorn S\u00fcd", "website": "https://www.dominos.de/filiale/de-hamburglangenhornsd-33749", "brand": "Dominos Pizza Germany"}, "geometry": {"type": "Point", "coordinates": [10.013006, 53.642701]}},
{"type": "Feature", "id": "dnUhi51BlSZ67y0zhC3yY3vb9KU=", "properties": {"ref": "34044", "@spider": "dominos_pizza_de", "addr:full": "K\u00e4kenflur 14B", "addr:city": "HAMBURG", "addr:postcode": "22419", "addr:country": "de", "name": "Domino's Pizza Hamburg Langenhorn Nord", "website": "https://www.dominos.de/filiale/de-hamburglangenhornnord-34044", "brand": "Dominos Pizza Germany"}, "geometry": {"type": "Point", "coordinates": [10.000135, 53.67192]}},
{"type": "Feature", "id": "8WZFPG8M9UUAPvWnMBbv3M6kGYo=", "properties": {"ref": "34043", "@spider": "dominos_pizza_de", "addr:full": "Sch\u00f6neberger Str. 22", "addr:city": "HAMBURG", "addr:postcode": "22045", "addr:country": "de", "name": "Domino's Pizza Hamburg Jenfeld", "website": "https://www.dominos.de/filiale/de-hamburgjenfeld-34043", "brand": "Dominos Pizza Germany"}, "geometry": {"type": "Point", "coordinates": [10.138096, 53.584322]}},
{"type": "Feature", "id": "z5HVeqGt6RLpsvj-0n8oQ2Z4rPw=", "properties": {"ref": "33758", "@spider": "dominos_pizza_de", "addr:full": "Bargteheider Stra\u00dfe 75", "addr:city": "Hamburg", "addr:postcode": "22143", "addr:country": "de", "name": "Domino's Pizza Hamburg Rahlstedt", "website": "https://www.dominos.de/filiale/de-hamburgrahlstedt-33758", "brand": "Dominos Pizza Germany"}, "geometry": {"type": "Point", "coordinates": [10.14609, 53.603495]}},
{"type": "Feature", "id": "_DQHWYVa3aIDGr2whn2eAi-yW8A=", "properties": {"ref": "34048", "@spider": "dominos_pizza_de", "addr:full": "Neuenfelder Str. 31", "addr:city": "HAMBURG", "addr:postcode": "21109", "addr:country": "de", "name": "Domino's Pizza Hamburg Wilhelmsburg Inselpark", "website": "https://www.dominos.de/filiale/de-hamburgwilhelmsburginselpark-34048", "brand": "Dominos Pizza Germany"}, "geometry": {"type": "Point", "coordinates": [10.004395, 53.497044]}},
{"type": "Feature", "id": "bk-uCocDMGVCAn9Gjq-GPKReB9E=", "properties": {"ref": "33771", "@spider": "dominos_pizza_de", "addr:full": "L\u00fcbecker Str. 115", "addr:city": "HAMBURG", "addr:postcode": "22087", "addr:country": "de", "name": "Domino's Pizza Hamburg Hohenfelde / Eilbek", "website": "https://www.dominos.de/filiale/de-hamburghohenfeldeeilbek-33771", "brand": "Dominos Pizza Germany"}, "geometry": {"type": "Point", "coordinates": [10.032526, 53.562474]}},
{"type": "Feature", "id": "Nn7jv348QQYuHkA4HD7MInBYymM=", "properties": {"ref": "33748", "@spider": "dominos_pizza_de", "addr:full": "Wilstorfer Stra\u00dfe 54", "addr:city": "Hamburg", "addr:postcode": "21073", "addr:country": "de", "name": "Domino's Pizza Hamburg Harburg Phoenix Viertel", "website": "https://www.dominos.de/filiale/de-hamburgharburgphoenixviertel-33748", "brand": "Dominos Pizza Germany"}, "geometry": {"type": "Point", "coordinates": [9.985573, 53.45641]}},
{"type": "Feature", "id": "Fa4jxGorycPVFHCdsk03m0KSPwY=", "properties": {"ref": "33763", "@spider": "dominos_pizza_de", "addr:full": "Manshardstr. 107", "addr:city": "Hamburg", "addr:postcode": "22119", "addr:country": "de", "name": "Domino's Pizza Hamburg Horn", "website": "https://www.dominos.de/filiale/de-hamburghorn-33763", "brand": "Dominos Pizza Germany"}, "geometry": {"type": "Point", "coordinates": [10.106228, 53.559039]}},
{"type": "Feature", "id": "1qTBRO8MD4lmsIDJh3LaPr7aYZA=", "properties": {"ref": "33757", "@spider": "dominos_pizza_de", "addr:full": "Ohlsdorfer Str. 1-3", "addr:city": "Hamburg", "addr:postcode": "22299", "addr:country": "de", "name": "Domino's Pizza Hamburg Winterhude Nord", "website": "https://www.dominos.de/filiale/dehh-hamburgwinterhudenord-33757", "brand": "Dominos Pizza Germany"}, "geometry": {"type": "Point", "coordinates": [10.000502, 53.595283]}},
{"type": "Feature", "id": "-TJyw7tZACQnM-gNlP8l04hMXBY=", "properties": {"ref": "33777", "@spider": "dominos_pizza_de", "addr:full": "Valentinskamp 30", "addr:city": "Hamburg", "addr:postcode": "20355", "addr:country": "de", "name": "Domino's Pizza Hamburg Innenstadt", "website": "https://www.dominos.de/filiale/de-hamburginnenstadt-33777", "brand": "Dominos Pizza Germany"}, "geometry": {"type": "Point", "coordinates": [9.983823, 53.555566]}},
{"type": "Feature", "id": "IU87EtOoKnMszH_4d35vhHPSZ0E=", "properties": {"ref": "33830", "@spider": "dominos_pizza_de", "addr:full": "August-Klotz-Stra\u00dfe 26", "addr:city": "D\u00fcren", "addr:postcode": "52349", "addr:country": "de", "name": "Domino's Pizza D\u00fcren Mitte", "website": "https://www.dominos.de/filiale/de-drenmitte-33830", "brand": "Dominos Pizza Germany"}, "geometry": {"type": "Point", "coordinates": [6.478823, 50.799854]}},
{"type": "Feature", "id": "cEbug_OSRNO_bYxa5YzIT4eTezc=", "properties": {"ref": "34041", "@spider": "dominos_pizza_de", "addr:full": "Eiffestr. 127", "addr:city": "HAMBURG", "addr:postcode": "20537", "addr:country": "de", "name": "Domino's Pizza Hamburg Hamm", "website": "https://www.dominos.de/filiale/de-hamburghamm-34041", "brand": "Dominos Pizza Germany"}, "geometry": {"type": "Point", "coordinates": [10.046303, 53.552857]}},
{"type": "Feature", "id": "a-aJU1OY3fLCjoyj9tFyo4DOW2o=", "properties": {"ref": "33806", "@spider": "dominos_pizza_de", "addr:full": "Wedeler Landstra\u00dfe 58", "addr:city": "Hamburg", "addr:postcode": "22559", "addr:country": "de", "name": "Domino's Pizza Hamburg Rissen", "website": "https://www.dominos.de/filiale/dehh-hamburgrissen-33806", "brand": "Dominos Pizza Germany"}, "geometry": {"type": "Point", "coordinates": [9.754013, 53.582685]}},
{"type": "Feature", "id": "RX8HlZnAyAEztXGFZfGZacqVfxI=", "properties": {"ref": "33799", "@spider": "dominos_pizza_de", "addr:full": "Eppendorfer Weg 138", "addr:city": "Hamburg", "addr:postcode": "20253", "addr:country": "de", "name": "Domino's Pizza Hamburg Eppendorf", "website": "https://www.dominos.de/filiale/de-hamburgeppendorf-33799", "brand": "Dominos Pizza Germany"}, "geometry": {"type": "Point", "coordinates": [9.963898, 53.577885]}},
{"type": "Feature", "id": "FuwxOzBFd6vwIVd4GM31rIzM18U=", "properties": {"ref": "34188", "@spider": "dominos_pizza_de", "addr:full": "Methfesselstr. 58 / Ecke Osterstrasse", "addr:city": "Hamburg", "addr:postcode": "20527", "addr:country": "de", "name": "Domino's Pizza Hamburg Eimsb\u00fcttel Osterstrasse", "website": "https://www.dominos.de/filiale/de-hamburgeimsbttelosterstrasse-34188", "brand": "Dominos Pizza Germany"}, "geometry": {"type": "Point", "coordinates": [9.94614, 53.57954]}},
{"type": "Feature", "id": "zWGX_Yb1GnmOS8JLKHUobO5fLd0=", "properties": {"ref": "33747", "@spider": "dominos_pizza_de", "addr:full": "Eidelstedter Platz 24", "addr:city": "Hamburg", "addr:postcode": "22523", "addr:country": "de", "name": "Domino's Pizza Hamburg Eidelstedt", "website": "https://www.dominos.de/filiale/de-hamburgeidelstedt-33747", "brand": "Dominos Pizza Germany"}, "geometry": {"type": "Point", "coordinates": [9.905304, 53.608409]}},
{"type": "Feature", "id": "2fQBMH98NI7E2wohUQM16Q9H1L0=", "properties": {"ref": "33969", "@spider": "dominos_pizza_de", "addr:full": "Singapurstr. 4", "addr:city": "HAMBURG", "addr:postcode": "20457", "addr:country": "de", "name": "Domino's Pizza Hamburg Hafencity", "website": "https://www.dominos.de/filiale/de-hamburghafencity-33969", "brand": "Dominos Pizza Germany"}, "geometry": {"type": "Point", "coordinates": [9.996603, 53.542968]}},
{"type": "Feature", "id": "yNy8zQLW0GpjcJ8C1t33-iHzCWY=", "properties": {"ref": "34038", "@spider": "dominos_pizza_de", "addr:full": "Schiffbeker Weg 94", "addr:city": "Hamburg", "addr:postcode": "22119", "addr:country": "de", "name": "Domino's Pizza Hamburg Billstedt", "website": "https://www.dominos.de/filiale/de-hamburgbillstedt-34038", "brand": "Dominos Pizza Germany"}, "geometry": {"type": "Point", "coordinates": [10.10885, 53.548748]}},
{"type": "Feature", "id": "ncPO7sLzxejVPpQo5R7iN1y1cRQ=", "properties": {"ref": "33744", "@spider": "dominos_pizza_de", "addr:full": "Hellkamp 23", "addr:city": "Hamburg", "addr:postcode": "20255", "addr:country": "de", "name": "Domino's Pizza Hamburg Eimsb\u00fcttel Hellkamp", "website": "https://www.dominos.de/filiale/de-hamburgeimsbttelhellkamp-33744", "brand": "Dominos Pizza Germany"}, "geometry": {"type": "Point", "coordinates": [9.947999, 53.578015]}},
{"type": "Feature", "id": "WAHZf1afRzx7Lrod2HOpW_bpXcU=", "properties": {"ref": "34037", "@spider": "dominos_pizza_de", "addr:full": "Bergedorfer Str. 150", "addr:city": "HAMBURG", "addr:postcode": "21029", "addr:country": "de", "name": "Domino's Pizza Hamburg Bergedorf-Mitte", "website": "https://www.dominos.de/filiale/de-hamburgbergedorfmitte-34037", "brand": "Dominos Pizza Germany"}, "geometry": {"type": "Point", "coordinates": [10.214382, 53.486023]}},
{"type": "Feature", "id": "ETvaGGr7MpdHPApKboc_vmenivA=", "properties": {"ref": "33778", "@spider": "dominos_pizza_de", "addr:full": "Stresemannstr. 390/ Bahrenfelder Steindamm 110", "addr:city": "Hamburg", "addr:postcode": "22761", "addr:country": "de", "name": "Domino's Pizza Hamburg Bahrenfeld", "website": "https://www.dominos.de/filiale/de-hamburgbahrenfeld-33778", "brand": "Dominos Pizza Germany"}, "geometry": {"type": "Point", "coordinates": [9.919765, 53.56363]}},
{"type": "Feature", "id": "9B2wYtY9PSm_cW3xMcY_-UGw5I4=", "properties": {"ref": "33921", "@spider": "dominos_pizza_de", "addr:full": "Spaldingstr. 110", "addr:city": "HAMBURG", "addr:postcode": "20097", "addr:country": "de", "name": "Domino's Pizza Hamburg Hammerbrook", "website": "https://www.dominos.de/filiale/de-hamburghammerbrook-33921", "brand": "Dominos Pizza Germany"}, "geometry": {"type": "Point", "coordinates": [10.018565, 53.549702]}},
{"type": "Feature", "id": "xrtM6f55CqFjt8cO_7EOriW5nig=", "properties": {"ref": "33752", "@spider": "dominos_pizza_de", "addr:full": "Lohbr\u00fcgger Landstra\u00dfe 13", "addr:city": "Hamburg", "addr:postcode": "21031", "addr:country": "de", "name": "Domino's Pizza Hamburg Bergedorf-Lohbr\u00fcgge", "website": "https://www.dominos.de/filiale/de-hamburgbergedorflohbrgge-33752", "brand": "Dominos Pizza Germany"}, "geometry": {"type": "Point", "coordinates": [10.205253, 53.495599]}},
{"type": "Feature", "id": "szQTNi-VLA6-qNLVUHyld3V9VJc=", "properties": {"ref": "33750", "@spider": "dominos_pizza_de", "addr:full": "Jessenstr. 10 / Ecke Lawaetzweg 4", "addr:city": "Hamburg", "addr:postcode": "22767", "addr:country": "de", "name": "Domino's Pizza Hamburg Altona-Altstadt", "website": "https://www.dominos.de/filiale/de-hamburgaltonaaltstadt-33750", "brand": "Dominos Pizza Germany"}, "geometry": {"type": "Point", "coordinates": [9.944232, 53.550822]}},
{"type": "Feature", "id": "OULskzmCvBbOcbUy7cjWVagmvNA=", "properties": {"ref": "33746", "@spider": "dominos_pizza_de", "addr:full": "Bramfelder Chaussee 69", "addr:city": "HAMBURG", "addr:postcode": "22177", "addr:country": "de", "name": "Domino's Pizza Hamburg Bramfeld S\u00fcd", "website": "https://www.dominos.de/filiale/de-hamburgbramfeldsd-33746", "brand": "Dominos Pizza Germany"}, "geometry": {"type": "Point", "coordinates": [10.065929, 53.598615]}},
{"type": "Feature", "id": "SjVntd_bb99Z0nJXDIcxbM6-_bw=", "properties": {"ref": "34039", "@spider": "dominos_pizza_de", "addr:full": "Bramfelder Chaussee 340", "addr:city": "HAMBURG", "addr:postcode": "22175", "addr:country": "de", "name": "Domino's Pizza Hamburg Bramfeld Nord", "website": "https://www.dominos.de/filiale/de-hamburgbramfeldnord-34039", "brand": "Dominos Pizza Germany"}, "geometry": {"type": "Point", "coordinates": [10.081656, 53.619934]}},
{"type": "Feature", "id": "8Kjh8rfDM_AH4TglJNqLl_ov1Ps=", "properties": {"ref": "33920", "@spider": "dominos_pizza_de", "addr:full": "Kurt-Wolters-Str. 2-4", "addr:city": "Kassel", "addr:postcode": "34117", "addr:country": "de", "name": "Domino's Pizza Kassel Wesertor", "website": "https://www.dominos.de/filiale/de-kasselwesertor-33920", "brand": "Dominos Pizza Germany"}, "geometry": {"type": "Point", "coordinates": [9.503059, 51.320735]}},
{"type": "Feature", "id": "UwokZ9YikKkd1_qjjFGCQkSliDk=", "properties": {"ref": "34033", "@spider": "dominos_pizza_de", "addr:full": "Wilhelmsh\u00f6her Allee 18", "addr:city": "Kassel", "addr:postcode": "34117", "addr:country": "de", "name": "Domino's Pizza Kassel Mitte", "website": "https://www.dominos.de/filiale/de-kasselmitte-34033", "brand": "Dominos Pizza Germany"}, "geometry": {"type": "Point", "coordinates": [9.485901, 51.311723]}},
{"type": "Feature", "id": "JR2UIU9Ga24myM7cbMhOOKPPEIw=", "properties": {"ref": "33860", "@spider": "dominos_pizza_de", "addr:full": "Alicenstr. 14", "addr:city": "GIE\u00dfEN", "addr:postcode": "35390", "addr:country": "de", "name": "Domino's Pizza Gie\u00dfen", "website": "https://www.dominos.de/filiale/de-gieen-33860", "brand": "Dominos Pizza Germany"}, "geometry": {"type": "Point", "coordinates": [8.668668, 50.581382]}},
{"type": "Feature", "id": "qaARLUYZ4PisfFpsx_MmrfF-WO8=", "properties": {"ref": "33765", "@spider": "dominos_pizza_de", "addr:full": "Wilhelmsh\u00f6her Allee 137", "addr:city": "Kassel", "addr:postcode": "34121", "addr:country": "de", "name": "Domino's Pizza Kassel West", "website": "https://www.dominos.de/filiale/de-kasselwest-33765", "brand": "Dominos Pizza Germany"}, "geometry": {"type": "Point", "coordinates": [9.462655, 51.31251]}},
{"type": "Feature", "id": "ocE2k8O-mJWplVr4vjf1LrJjf3g=", "properties": {"ref": "33872", "@spider": "dominos_pizza_de", "addr:full": "Reuterweg 80", "addr:city": "Frankfurt", "addr:postcode": "60323", "addr:country": "de", "name": "Domino's Pizza Frankfurt Mitte", "website": "https://www.dominos.de/filiale/de-frankfurtmitte-33872", "brand": "Dominos Pizza Germany"}, "geometry": {"type": "Point", "coordinates": [8.67047, 50.122106]}},
{"type": "Feature", "id": "ybQ-EVHNEBWg2Cu_6RZ10ZDmad0=", "properties": {"ref": "33900", "@spider": "dominos_pizza_de", "addr:full": "Mainzer Landstr. 181", "addr:city": "Frankfurt", "addr:postcode": "60327", "addr:country": "de", "name": "Domino's Pizza Frankfurt Gallus", "website": "https://www.dominos.de/filiale/de-frankfurtgallus-33900", "brand": "Dominos Pizza Germany"}, "geometry": {"type": "Point", "coordinates": [8.65146, 50.105676]}},
{"type": "Feature", "id": "Z8zre4VVvMa2GnJsBf7gLiWrvk4=", "properties": {"ref": "33792", "@spider": "dominos_pizza_de", "addr:full": "Eschersheimer Landstr. 311", "addr:city": "Frankfurt", "addr:postcode": "60320", "addr:country": "de", "name": "Domino's Pizza Frankfurt Dornbusch", "website": "https://www.dominos.de/filiale/de-frankfurtdornbusch-33792", "brand": "Dominos Pizza Germany"}, "geometry": {"type": "Point", "coordinates": [8.66969, 50.139781]}},
{"type": "Feature", "id": "jYouKAMmQLktJEJ8OzRLnFUNnn0=", "properties": {"ref": "33820", "@spider": "dominos_pizza_de", "addr:full": "Rh\u00f6nstr. 77", "addr:city": "Frankfurt", "addr:postcode": "60385", "addr:country": "de", "name": "Domino's Pizza Frankfurt Bornheim-Ost", "website": "https://www.dominos.de/filiale/de-frankfurtbornheimost-33820", "brand": "Dominos Pizza Germany"}, "geometry": {"type": "Point", "coordinates": [8.708533, 50.117505]}},
{"type": "Feature", "id": "2RACHZxhj4egMnLdVEq1UZSEgno=", "properties": {"ref": "33839", "@spider": "dominos_pizza_de", "addr:full": "Schlo\u00dfstr. 13-15", "addr:city": "Frankfurt", "addr:postcode": "60486", "addr:country": "de", "name": "Domino's Pizza Frankfurt Bockenheim", "website": "https://www.dominos.de/filiale/de-frankfurtbockenheim-33839", "brand": "Dominos Pizza Germany"}, "geometry": {"type": "Point", "coordinates": [8.63723, 50.123213]}},
{"type": "Feature", "id": "gaQ93PW88C54Co8j1_NuHDMASXk=", "properties": {"ref": "34034", "@spider": "dominos_pizza_de", "addr:full": "Gisselberger Str. 27", "addr:city": "Marburg", "addr:postcode": "35037", "addr:country": "de", "name": "Domino's Pizza Marburg", "website": "https://www.dominos.de/filiale/de-marburg-34034", "brand": "Dominos Pizza Germany"}, "geometry": {"type": "Point", "coordinates": [8.760507, 50.796574]}},
{"type": "Feature", "id": "nb3ozyD1K_fQbE0ZAMO6o-jZWbk=", "properties": {"ref": "33976", "@spider": "dominos_pizza_de", "addr:full": "Dietigheimer Str. 23", "addr:city": "Homburg", "addr:postcode": "61350 Bad", "addr:country": "de", "name": "Domino's Pizza Bad Homburg", "website": "https://www.dominos.de/filiale/de-badhomburg-33976", "brand": "Dominos Pizza Germany"}, "geometry": {"type": "Point", "coordinates": [8.608041, 50.231239]}},
{"type": "Feature", "id": "xbSGTTui1sYbygnnzX6kUDonodU=", "properties": {"ref": "33857", "@spider": "dominos_pizza_de", "addr:full": "Kirchgasse 14", "addr:city": "Suhl", "addr:postcode": "98527", "addr:country": "de", "name": "Domino's Pizza Suhl", "website": "https://www.dominos.de/filiale/de-suhl-33857", "brand": "Dominos Pizza Germany"}, "geometry": {"type": "Point", "coordinates": [10.694012, 50.609962]}},
{"type": "Feature", "id": "RZ32s8VBOrR3Y3S3U_-AYZeESUA=", "properties": {"ref": "33993", "@spider": "dominos_pizza_de", "addr:full": "Ernst-Leitz-Str. 34", "addr:city": "Wetzlar", "addr:postcode": "35576", "addr:country": "de", "name": "Domino's Pizza Wetzlar", "website": "https://www.dominos.de/filiale/de-wetzlar-33993", "brand": "Dominos Pizza Germany"}, "geometry": {"type": "Point", "coordinates": [8.497418, 50.552125]}},
{"type": "Feature", "id": "MLs0KshEHP-gz8A9bz4O8Ss0ALo=", "properties": {"ref": "33781", "@spider": "dominos_pizza_de", "addr:full": "Bessunger Stra\u00dfe 122", "addr:city": "Darmstadt", "addr:postcode": "64285", "addr:country": "de", "name": "Domino's Pizza Darmstadt S\u00fcd", "website": "https://www.dominos.de/filiale/de-darmstadtsd-33781", "brand": "Dominos Pizza Germany"}, "geometry": {"type": "Point", "coordinates": [8.644777, 49.858295]}},
{"type": "Feature", "id": "5yWMaEQNgoy07qv1lDFP03bNrtI=", "properties": {"ref": "33810", "@spider": "dominos_pizza_de", "addr:full": "Erfurter Stra\u00dfe 2", "addr:city": "Jena", "addr:postcode": "07743", "addr:country": "de", "name": "Domino's Pizza Jena West", "website": "https://www.dominos.de/filiale/de-jenawest-33810", "brand": "Dominos Pizza Germany"}, "geometry": {"type": "Point", "coordinates": [11.571974, 50.932516]}},
{"type": "Feature", "id": "CA-FpVwkc7THR07Rzg0E7NzVWnQ=", "properties": {"ref": "34198", "@spider": "dominos_pizza_de", "addr:full": "Stra\u00dfe Der Republik 34", "addr:city": "WIESBADEN", "addr:postcode": "65203", "addr:country": "de", "name": "Domino's Pizza Wiesbaden Biebrich", "website": "https://www.dominos.de/filiale/de-wiesbadenbiebrich-34198", "brand": "Dominos Pizza Germany"}, "geometry": {"type": "Point", "coordinates": [8.240638, 50.047468]}},
{"type": "Feature", "id": "l2V_CsFS3sdnDl9Z55QwFMVkRFo=", "properties": {"ref": "34194", "@spider": "dominos_pizza_de", "addr:full": "Franz-Petrich-Str. 2", "addr:city": "Gera", "addr:postcode": "07545", "addr:country": "de", "name": "Domino's Pizza Gera Franz-Petrich-Stra\u00dfe", "website": "https://www.dominos.de/filiale/de-gerafranzpetrichstrae-34194", "brand": "Dominos Pizza Germany"}, "geometry": {"type": "Point", "coordinates": [12.082718, 50.886054]}},
{"type": "Feature", "id": "33WW7iq8Cp5vA3SQdiONaa5Z0AA=", "properties": {"ref": "33940", "@spider": "dominos_pizza_de", "addr:full": "Nonnenrain 65", "addr:city": "Erfurt", "addr:postcode": "99099", "addr:country": "de", "name": "Domino's Pizza Erfurt S\u00fcd", "website": "https://www.dominos.de/filiale/de-erfurtsd-33940", "brand": "Dominos Pizza Germany"}, "geometry": {"type": "Point", "coordinates": [11.043296, 50.971117]}},
{"type": "Feature", "id": "S_t8lcwYYhRh_IsMSdkwcqeE9v4=", "properties": {"ref": "33836", "@spider": "dominos_pizza_de", "addr:full": "W\u00f6llnitzer Stra\u00dfe 34", "addr:city": "Jena", "addr:postcode": "07749", "addr:country": "de", "name": "Domino's Pizza Jena Ost", "website": "https://www.dominos.de/filiale/de-jenaost-33836", "brand": "Dominos Pizza Germany"}, "geometry": {"type": "Point", "coordinates": [11.591583, 50.920896]}},
{"type": "Feature", "id": "ZPYOKjX1Ui6Bo3ej3bHIgEqn5BI=", "properties": {"ref": "34167", "@spider": "dominos_pizza_de", "addr:full": "Heinrichstr. 86", "addr:city": "Gera", "addr:postcode": "07545", "addr:country": "de", "name": "Domino's Pizza Gera Heinrichstra\u00dfe", "website": "https://www.dominos.de/filiale/de-geraheinrichstrae-34167", "brand": "Dominos Pizza Germany"}, "geometry": {"type": "Point", "coordinates": [12.075528, 50.872302]}},
{"type": "Feature", "id": "ylixTe-e8nNCq9SlzQx0Ql-K_LQ=", "properties": {"ref": "34169", "@spider": "dominos_pizza_de", "addr:full": "Humboldtstra\u00dfe 13", "addr:city": "Gera", "addr:postcode": "07545", "addr:country": "de", "name": "Domino's Pizza Gera Humboldtstra\u00dfe", "website": "https://www.dominos.de/filiale/de-gerahumboldtstrae-34169", "brand": "Dominos Pizza Germany"}, "geometry": {"type": "Point", "coordinates": [12.083023, 50.878926]}},
{"type": "Feature", "id": "BDYznHdh40FqRobmg6vHXjjsTLk=", "properties": {"ref": "33959", "@spider": "dominos_pizza_de", "addr:full": "M\u00f6nchelsstr. 37", "addr:city": "Gotha", "addr:postcode": "99867", "addr:country": "de", "name": "Domino's Pizza Gotha Zentrum", "website": "https://www.dominos.de/filiale/deth-gothazentrum-33959", "brand": "Dominos Pizza Germany"}, "geometry": {"type": "Point", "coordinates": [10.707225, 50.949854]}},
{"type": "Feature", "id": "HlPDOz-v_nH1BioIQ3M9f-swkKg=", "properties": {"ref": "33829", "@spider": "dominos_pizza_de", "addr:full": "Pistoriusstr. 41", "addr:city": "Berlin", "addr:postcode": "13086", "addr:country": "de", "name": "Domino's Pizza Berlin Wei\u00dfensee", "website": "https://www.dominos.de/filiale/de-berlinweiensee-33829", "brand": "Dominos Pizza Germany"}, "geometry": {"type": "Point", "coordinates": [13.445827, 52.553837]}},
{"type": "Feature", "id": "5QtsA-7_-rIqEyRY5p8XAn05_fk=", "properties": {"ref": "34040", "@spider": "dominos_pizza_de", "addr:full": "Eimsb\u00fcttler Chaussee 47", "addr:city": "HAMBURG", "addr:postcode": "20259", "addr:country": "de", "name": "Domino's Pizza Hamburg Altona Nord", "website": "https://www.dominos.de/filiale/de-hamburgaltonanord-34040", "brand": "Dominos Pizza Germany"}, "geometry": {"type": "Point", "coordinates": [9.955977, 53.567956]}},
{"type": "Feature", "id": "MVnNn6RnXujUXsCDSeftMp8txdg=", "properties": {"ref": "33770", "@spider": "dominos_pizza_de", "addr:full": "Friedrich-Engels-Stra\u00dfe 11", "addr:city": "Erfurt", "addr:postcode": "99086", "addr:country": "de", "name": "Domino's Pizza Erfurt Steinplatz", "website": "https://www.dominos.de/filiale/de-erfurtsteinplatz-33770", "brand": "Dominos Pizza Germany"}, "geometry": {"type": "Point", "coordinates": [11.035625, 50.987321]}},
{"type": "Feature", "id": "GKz0U-rGjo-U2bFyTvUMtCFqHBk=", "properties": {"ref": "34042", "@spider": "dominos_pizza_de", "addr:full": "Bremer Str. 44", "addr:city": "Hamburg", "addr:postcode": "21073", "addr:country": "de", "name": "Domino's Pizza Hamburg Harburg Ei\u00dfendorf", "website": "https://www.dominos.de/filiale/de-hamburgharburgeiendorf-34042", "brand": "Dominos Pizza Germany"}, "geometry": {"type": "Point", "coordinates": [9.976279, 53.455224]}},
{"type": "Feature", "id": "0NxfQXhTFGLH_wavaJ-YsvjlSU0=", "properties": {"ref": "33978", "@spider": "dominos_pizza_de", "addr:full": "Berliner Platz 3A", "addr:city": "ERFURT", "addr:postcode": "99091", "addr:country": "de", "name": "Domino's Pizza Erfurt Berliner Platz", "website": "https://www.dominos.de/filiale/de-erfurtberlinerplatz-33978", "brand": "Dominos Pizza Germany"}, "geometry": {"type": "Point", "coordinates": [11.004679, 51.003585]}},
{"type": "Feature", "id": "MOXhsiDvqjV0WXDcNRETf465LPE=", "properties": {"ref": "33793", "@spider": "dominos_pizza_de", "addr:full": "Juri-Gagarin-Ring 100", "addr:city": "Erfurt", "addr:postcode": "99084", "addr:country": "de", "name": "Domino's Pizza Erfurt Mitte", "website": "https://www.dominos.de/filiale/de-erfurtmitte-33793", "brand": "Dominos Pizza Germany"}, "geometry": {"type": "Point", "coordinates": [11.035766, 50.973983]}}]}