{"type":"FeatureCollection","features":[{"type": "Feature", "id": "doa5yKDbOsEVC3Z9D_ZJsMrbzAU=", "properties": {"ref": "nl-weert-30666", "@spider": "dominos_pizza_nl", "addr:full": "Dries 8", "addr:city": "WEERT", "addr:postcode": "6006HS", "addr:country": "nl", "name": "Domino's Pizza Weert", "website": "https://www.dominos.nl/winkel/nl-weert-30666", "brand": "Dominos Pizza Netherlands"}, "geometry": {"type": "Point", "coordinates": [5.701867, 51.247504]}},
{"type": "Feature", "id": "1w8XH2v2VdUHN5AHYaqREyHu2Rk=", "properties": {"ref": "nl-bredakesterenlaan-30550", "@spider": "dominos_pizza_nl", "addr:full": "Kesterenlaan 170", "addr:city": "BREDA", "addr:postcode": "4822WK", "addr:country": "nl", "name": "Domino's Pizza Breda Kesterenlaan", "website": "https://www.dominos.nl/winkel/nl-bredakesterenlaan-30550", "brand": "Dominos Pizza Netherlands"}, "geometry": {"type": "Point", "coordinates": [4.722931, 51.613578]}},
{"type": "Feature", "id": "n_UO_d9NW-Th1F21_CcIPA30fXQ=", "properties": {"ref": "nl-zeewolde-30854", "@spider": "dominos_pizza_nl", "addr:full": "Horsterweg 28", "addr:city": "Zeewolde", "addr:postcode": "3891EV", "addr:country": "nl", "name": "Domino's Pizza Zeewolde", "website": "https://www.dominos.nl/winkel/nl-zeewolde-30854", "brand": "Dominos Pizza Netherlands"}, "geometry": {"type": "Point", "coordinates": [5.54147, 52.32993]}},
{"type": "Feature", "id": "G8GK9u9qTpC0Q-MANz7HvkHuAJ0=", "properties": {"ref": "nl-zandvoort-30815", "@spider": "dominos_pizza_nl", "addr:full": "Grote Krocht 24", "addr:city": "Zandvoort", "addr:postcode": "2042LW", "addr:country": "nl", "name": "Domino's Pizza Zandvoort", "website": "https://www.dominos.nl/winkel/nl-zandvoort-30815", "brand": "Dominos Pizza Netherlands"}, "geometry": {"type": "Point", "coordinates": [4.531022, 52.371486]}},
{"type": "Feature", "id": "V9IPf0QkGgGJAdW6hL7koHkho6I=", "properties": {"ref": "nl-zutphen-30750", "@spider": "dominos_pizza_nl", "addr:full": "Emmerikseweg 52", "addr:city": "Zutphen", "addr:postcode": "7204 SM", "addr:country": "nl", "name": "Domino's Pizza Zutphen", "website": "https://www.dominos.nl/winkel/nl-zutphen-30750", "brand": "Dominos Pizza Netherlands"}, "geometry": {"type": "Point", "coordinates": [6.202495, 52.133782]}},
{"type": "Feature", "id": "JT-_vPN4tU7DEm3pFJhQ3hFabeU=", "properties": {"ref": "nl-winschoten-30777", "@spider": "dominos_pizza_nl", "addr:full": "Oldambtplein 10", "addr:city": "Winschoten", "addr:postcode": "9671PP", "addr:country": "nl", "name": "Domino's Pizza Winschoten", "website": "https://www.dominos.nl/winkel/nl-winschoten-30777", "brand": "Dominos Pizza Netherlands"}, "geometry": {"type": "Point", "coordinates": [7.033285, 53.146465]}},
{"type": "Feature", "id": "VfdPaHgilALmxjyWMCdaYH92d0g=", "properties": {"ref": "nl-waalwijk-30603", "@spider": "dominos_pizza_nl", "addr:full": "Mozartlaan 17A", "addr:city": "Waalwijk", "addr:postcode": "5144 XW", "addr:country": "nl", "name": "Domino's Pizza Waalwijk", "website": "https://www.dominos.nl/winkel/nl-waalwijk-30603", "brand": "Dominos Pizza Netherlands"}, "geometry": {"type": "Point", "coordinates": [5.067113, 51.6788]}},
{"type": "Feature", "id": "uMS1cZ_wEv-nemscexWWR2pG84c=", "properties": {"ref": "nl-zeist-30624", "@spider": "dominos_pizza_nl", "addr:full": "Montaubanstraat 251", "addr:city": "ZEIST", "addr:postcode": "3701HN", "addr:country": "nl", "name": "Domino's Pizza Zeist", "website": "https://www.dominos.nl/winkel/nl-zeist-30624", "brand": "Dominos Pizza Netherlands"}, "geometry": {"type": "Point", "coordinates": [5.238661, 52.08641]}},
{"type": "Feature", "id": "iAZiOpqlCd77rWIX5xobCSPReFg=", "properties": {"ref": "nl-roden-30860", "@spider": "dominos_pizza_nl", "addr:full": "Raadhuisstraat 22", "addr:city": "Roden", "addr:postcode": "9301AB", "addr:country": "nl", "name": "Domino's Pizza Roden", "website": "https://www.dominos.nl/winkel/nl-roden-30860", "brand": "Dominos Pizza Netherlands"}, "geometry": {"type": "Point", "coordinates": [6.43257, 53.13708]}},
{"type": "Feature", "id": "qE2U3sonRvfid1HZLr1Ewj7mBTg=", "properties": {"ref": "nl-zwollepatriottenlaan-30806", "@spider": "dominos_pizza_nl", "addr:full": "Patriottenlaan 6", "addr:city": "ZWOLLE", "addr:postcode": "8014XP", "addr:country": "nl", "name": "Domino's Pizza Zwolle Patriottenlaan", "website": "https://www.dominos.nl/winkel/nl-zwollepatriottenlaan-30806", "brand": "Dominos Pizza Netherlands"}, "geometry": {"type": "Point", "coordinates": [6.111907, 52.481815]}},
{"type": "Feature", "id": "Wtz--AXh0zJ4XWIod7x6or1Affs=", "properties": {"ref": "nl-klazienaveen-30915", "@spider": "dominos_pizza_nl", "addr:full": "Brugstraat 157", "addr:city": "Klazienaveen", "addr:postcode": "7891AV", "addr:country": "nl", "name": "Domino's Pizza Klazienaveen", "website": "https://www.dominos.nl/winkel/nl-klazienaveen-30915", "brand": "Dominos Pizza Netherlands"}, "geometry": {"type": "Point", "coordinates": [6.98589, 52.72577]}},
{"type": "Feature", "id": "RdYItG_0E8t4gydpvfQM_qimWx8=", "properties": {"ref": "nl-hoogeveen-30745", "@spider": "dominos_pizza_nl", "addr:full": "Nije Nering 22", "addr:city": "Hoogeveen", "addr:postcode": "7906EW", "addr:country": "nl", "name": "Domino's Pizza Hoogeveen", "website": "https://www.dominos.nl/winkel/nl-hoogeveen-30745", "brand": "Dominos Pizza Netherlands"}, "geometry": {"type": "Point", "coordinates": [6.483978, 52.716423]}},
{"type": "Feature", "id": "NMs4WovWOdeiMD5AdhFYcRY6OqU=", "properties": {"ref": "nl-vlissingen-30664", "@spider": "dominos_pizza_nl", "addr:full": "Badhuisstraat 1", "addr:city": "VLISSINGEN", "addr:postcode": "4381LM", "addr:country": "nl", "name": "Domino's Pizza Vlissingen", "website": "https://www.dominos.nl/winkel/nl-vlissingen-30664", "brand": "Dominos Pizza Netherlands"}, "geometry": {"type": "Point", "coordinates": [3.57181, 51.445343]}},
{"type": "Feature", "id": "z819KTNCqaTA6FJNYrg0p2BoSeA=", "properties": {"ref": "nl-osdorp-30635", "@spider": "dominos_pizza_nl", "addr:full": "Pieter Calandlaan 212 E", "addr:city": "Osdorp", "addr:postcode": "1069LA", "addr:country": "nl", "name": "Domino's Pizza Osdorp", "website": "https://www.dominos.nl/winkel/nl-osdorp-30635", "brand": "Dominos Pizza Netherlands"}, "geometry": {"type": "Point", "coordinates": [4.798798, 52.352025]}},
{"type": "Feature", "id": "TOwFQF2vFmkErn4z2YF7e162Lfg=", "properties": {"ref": "nl-emmenstationspleinstation-30699", "@spider": "dominos_pizza_nl", "addr:full": "Stationsplein 6", "addr:city": "EMMEN", "addr:postcode": "7811GW", "addr:country": "nl", "name": "Domino's Pizza Emmen - Stationsplein - Station", "website": "https://www.dominos.nl/winkel/nl-emmenstationspleinstation-30699", "brand": "Dominos Pizza Netherlands"}, "geometry": {"type": "Point", "coordinates": [6.899387, 52.790219]}},
{"type": "Feature", "id": "R-s7uSHBG78xVIBSGQzBhGFtwXY=", "properties": {"ref": "nl-zwijndrecht-30599", "@spider": "dominos_pizza_nl", "addr:full": "Burgemeester Jansenlaan 49", "addr:city": "ZWIJNDRECHT", "addr:postcode": "3331HD", "addr:country": "nl", "name": "Domino's Pizza Zwijndrecht", "website": "https://www.dominos.nl/winkel/nl-zwijndrecht-30599", "brand": "Dominos Pizza Netherlands"}, "geometry": {"type": "Point", "coordinates": [4.638674, 51.822342]}},
{"type": "Feature", "id": "UpAlwsxIcUTZV_EzYQHmTQcgsdc=", "properties": {"ref": "nl-schiebroekhillegersberg-30654", "@spider": "dominos_pizza_nl", "addr:full": "Peppelweg 93 A", "addr:city": "ROTTERDAM", "addr:postcode": "3053GE", "addr:country": "nl", "name": "Domino's Pizza Schiebroek-Hillegersberg", "website": "https://www.dominos.nl/winkel/nl-schiebroekhillegersberg-30654", "brand": "Dominos Pizza Netherlands"}, "geometry": {"type": "Point", "coordinates": [4.471327, 51.960102]}},
{"type": "Feature", "id": "z_Zk3b5DhLQqZBAVyU8HSSjcHiA=", "properties": {"ref": "nl-wateringen-30759", "@spider": "dominos_pizza_nl", "addr:full": "Kerklaan 5", "addr:city": "WATERINGEN", "addr:postcode": "2291CD", "addr:country": "nl", "name": "Domino's Pizza Wateringen", "website": "https://www.dominos.nl/winkel/nl-wateringen-30759", "brand": "Dominos Pizza Netherlands"}, "geometry": {"type": "Point", "coordinates": [4.273185, 52.02599]}},
{"type": "Feature", "id": "_MlILhrhZ_46xNbziztklLuumCQ=", "properties": {"ref": "nl-zoetermeer-30553", "@spider": "dominos_pizza_nl", "addr:full": "Van Leeuwenhoeklaan 10", "addr:city": "ZOETERMEER", "addr:postcode": "2713RB", "addr:country": "nl", "name": "Domino's Pizza Zoetermeer", "website": "https://www.dominos.nl/winkel/nl-zoetermeer-30553", "brand": "Dominos Pizza Netherlands"}, "geometry": {"type": "Point", "coordinates": [4.486732, 52.057259]}},
{"type": "Feature", "id": "8BkZ-DmCP-nFM3NeerbGnd2USJc=", "properties": {"ref": "nl-emmenstatenwegangelslo-30883", "@spider": "dominos_pizza_nl", "addr:full": "Statenweg 41", "addr:city": "Emmen", "addr:postcode": "7824 CS", "addr:country": "nl", "name": "Domino's Pizza Emmen - Statenweg - Angelslo", "website": "https://www.dominos.nl/winkel/nl-emmenstatenwegangelslo-30883", "brand": "Dominos Pizza Netherlands"}, "geometry": {"type": "Point", "coordinates": [6.92285, 52.77972]}},
{"type": "Feature", "id": "cccsDjqO5MeOPFSwljGDfhY9Vbo=", "properties": {"ref": "nl-waddinxveen-30758", "@spider": "dominos_pizza_nl", "addr:full": "Koningin Wilhelminaplein 8", "addr:city": "Waddinxveen", "addr:postcode": "2741 EA", "addr:country": "nl", "name": "Domino's Pizza Waddinxveen", "website": "https://www.dominos.nl/winkel/nl-waddinxveen-30758", "brand": "Dominos Pizza Netherlands"}, "geometry": {"type": "Point", "coordinates": [4.653987, 52.049681]}},
{"type": "Feature", "id": "yEIGaoyH28LvdYK7f0oUUe4wuFI=", "properties": {"ref": "nl-wassenaar-30612", "@spider": "dominos_pizza_nl", "addr:full": "Oostdorperweg 45", "addr:city": "WASSENAAR", "addr:postcode": "2242NE", "addr:country": "nl", "name": "Domino's Pizza Wassenaar", "website": "https://www.dominos.nl/winkel/nl-wassenaar-30612", "brand": "Dominos Pizza Netherlands"}, "geometry": {"type": "Point", "coordinates": [4.395039, 52.148867]}},
{"type": "Feature", "id": "O9VjMH9eXkYR-74JiUM_VKbIusA=", "properties": {"ref": "nl-voorburg-30548", "@spider": "dominos_pizza_nl", "addr:full": "Koningin Julianalaan 234", "addr:city": "VOORBURG", "addr:postcode": "2274JR", "addr:country": "nl", "name": "Domino's Pizza Voorburg", "website": "https://www.dominos.nl/winkel/nl-voorburg-30548", "brand": "Dominos Pizza Netherlands"}, "geometry": {"type": "Point", "coordinates": [4.35496, 52.076528]}},
{"type": "Feature", "id": "nx2G0mGJj3vZhrQ2Q9RYh94a5_s=", "properties": {"ref": "nl-vlaardingenwesthavenkade-30838", "@spider": "dominos_pizza_nl", "addr:full": "Westhavenkade 19", "addr:city": "VLAARDINGEN", "addr:postcode": "3131AB", "addr:country": "nl", "name": "Domino's Pizza Vlaardingen Westhavenkade", "website": "https://www.dominos.nl/winkel/nl-vlaardingenwesthavenkade-30838", "brand": "Dominos Pizza Netherlands"}, "geometry": {"type": "Point", "coordinates": [4.34411, 51.908306]}},
{"type": "Feature", "id": "9RGdPQKy-chiYjyw1x-bUYp_Ihc=", "properties": {"ref": "nl-vlaardingen-30559", "@spider": "dominos_pizza_nl", "addr:full": "Van Hogendorplaan 19A", "addr:city": "VLAARDINGEN", "addr:postcode": "3135BB", "addr:country": "nl", "name": "Domino's Pizza Vlaardingen", "website": "https://www.dominos.nl/winkel/nl-vlaardingen-30559", "brand": "Dominos Pizza Netherlands"}, "geometry": {"type": "Point", "coordinates": [4.35667, 51.919434]}},
{"type": "Feature", "id": "ua906-pfIfRCfVdUkkr4fYsA9lw=", "properties": {"ref": "nl-spijkenisse-30593", "@spider": "dominos_pizza_nl", "addr:full": "Gorsstraat 16", "addr:city": "SPIJKENISSE", "addr:postcode": "3201DB", "addr:country": "nl", "name": "Domino's Pizza Spijkenisse", "website": "https://www.dominos.nl/winkel/nl-spijkenisse-30593", "brand": "Dominos Pizza Netherlands"}, "geometry": {"type": "Point", "coordinates": [4.331257, 51.850682]}},
{"type": "Feature", "id": "YdU8icVspxlDjdKAYIkE2mJ-p3M=", "properties": {"ref": "nl-spijkenisseakkerhof-30864", "@spider": "dominos_pizza_nl", "addr:full": "Zomerakker 42", "addr:city": "SPIJKENISSE", "addr:postcode": "3206TH", "addr:country": "nl", "name": "Domino's Pizza Spijkenisse Akkerhof", "website": "https://www.dominos.nl/winkel/nl-spijkenisseakkerhof-30864", "brand": "Dominos Pizza Netherlands"}, "geometry": {"type": "Point", "coordinates": [4.31925, 51.83319]}},
{"type": "Feature", "id": "ur4y0LBw_1-yfIbLYUqgMK5eQWQ=", "properties": {"ref": "nl-zoetermeerwesterschelde-30764", "@spider": "dominos_pizza_nl", "addr:full": "Westerschelde 278", "addr:city": "ZOETERMEER", "addr:postcode": "2721NM", "addr:country": "nl", "name": "Domino's Pizza Zoetermeer Westerschelde", "website": "https://www.dominos.nl/winkel/nl-zoetermeerwesterschelde-30764", "brand": "Dominos Pizza Netherlands"}, "geometry": {"type": "Point", "coordinates": [4.539561, 52.060647]}},
{"type": "Feature", "id": "UhXIUzPgaGlqmKbxQqckkw12Uks=", "properties": {"ref": "nl-scheveningen-30679", "@spider": "dominos_pizza_nl", "addr:full": "Zeesluisweg 6", "addr:city": "Scheveningen", "addr:postcode": "2583DR", "addr:country": "nl", "name": "Domino's Pizza Scheveningen", "website": "https://www.dominos.nl/winkel/nl-scheveningen-30679", "brand": "Dominos Pizza Netherlands"}, "geometry": {"type": "Point", "coordinates": [4.273531, 52.10137]}},
{"type": "Feature", "id": "NzZ8DwUYiRk6STTygwvG0Zu5sHM=", "properties": {"ref": "nl-sliedrecht-30810", "@spider": "dominos_pizza_nl", "addr:full": "Rembrandtlaan 53", "addr:city": "SLIEDRECHT", "addr:postcode": "3362AD", "addr:country": "nl", "name": "Domino's Pizza Sliedrecht", "website": "https://www.dominos.nl/winkel/nl-sliedrecht-30810", "brand": "Dominos Pizza Netherlands"}, "geometry": {"type": "Point", "coordinates": [4.776492, 51.821863]}},
{"type": "Feature", "id": "mQuUvSN5hb3jy7RACLBp-0mZR-4=", "properties": {"ref": "nl-voorschoten-30569", "@spider": "dominos_pizza_nl", "addr:full": "Planciusplantsoen 26B", "addr:city": "VOORSCHOTEN", "addr:postcode": "2253TS", "addr:country": "nl", "name": "Domino's Pizza Voorschoten", "website": "https://www.dominos.nl/winkel/nl-voorschoten-30569", "brand": "Dominos Pizza Netherlands"}, "geometry": {"type": "Point", "coordinates": [4.46164, 52.142491]}},
{"type": "Feature", "id": "k_Cn7WW9T264tpdNsbg5kgNLtd0=", "properties": {"ref": "nl-ridderkerk-30595", "@spider": "dominos_pizza_nl", "addr:full": "Irisstraat 4", "addr:city": "Ridderkerk", "addr:postcode": "2981BN", "addr:country": "nl", "name": "Domino's Pizza Ridderkerk", "website": "https://www.dominos.nl/winkel/nl-ridderkerk-30595", "brand": "Dominos Pizza Netherlands"}, "geometry": {"type": "Point", "coordinates": [4.594689, 51.864995]}},
{"type": "Feature", "id": "wYZTLfsEdqoQVClRjNEdIscpmtM=", "properties": {"ref": "nl-pijnacker-30771", "@spider": "dominos_pizza_nl", "addr:full": "Oostlaan 5", "addr:city": "Pijnacker", "addr:postcode": "2641DK", "addr:country": "nl", "name": "Domino's Pizza Pijnacker", "website": "https://www.dominos.nl/winkel/nl-pijnacker-30771", "brand": "Dominos Pizza Netherlands"}, "geometry": {"type": "Point", "coordinates": [4.43022, 52.019209]}},
{"type": "Feature", "id": "Ij5ORR7hKgv-a2k5L4KlThcWk-Q=", "properties": {"ref": "nl-rijswijk-30581", "@spider": "dominos_pizza_nl", "addr:full": "Generaal Eisenhouwerplein 4", "addr:city": "RIJSWIJK", "addr:postcode": "2284XV", "addr:country": "nl", "name": "Domino's Pizza Rijswijk", "website": "https://www.dominos.nl/winkel/nl-rijswijk-30581", "brand": "Dominos Pizza Netherlands"}, "geometry": {"type": "Point", "coordinates": [4.321935, 52.037784]}},
{"type": "Feature", "id": "gnyn-VSMGL-JM4jOoiBePb5zqEE=", "properties": {"ref": "nl-oudbeijerland-30700", "@spider": "dominos_pizza_nl", "addr:full": "Beijerse Hof 3", "addr:city": "Oud Beijerland", "addr:postcode": "3262VR", "addr:country": "nl", "name": "Domino's Pizza Oud Beijerland", "website": "https://www.dominos.nl/winkel/nl-oudbeijerland-30700", "brand": "Dominos Pizza Netherlands"}, "geometry": {"type": "Point", "coordinates": [4.404524, 51.819908]}},
{"type": "Feature", "id": "_zssVqjKv65VCUPo2iSDrcv3u3U=", "properties": {"ref": "nl-papendrecht-30639", "@spider": "dominos_pizza_nl", "addr:full": "P S Gerbrandystraat 64", "addr:city": "PAPENDRECHT", "addr:postcode": "3354BW", "addr:country": "nl", "name": "Domino's Pizza Papendrecht", "website": "https://www.dominos.nl/winkel/nl-papendrecht-30639", "brand": "Dominos Pizza Netherlands"}, "geometry": {"type": "Point", "coordinates": [4.699382, 51.828904]}},
{"type": "Feature", "id": "5si7g-theXqfGLeKcMXgEY1JlRA=", "properties": {"ref": "nl-sassenheim-30789", "@spider": "dominos_pizza_nl", "addr:full": "Teijlingerlaan 9C", "addr:city": "Sassenheim", "addr:postcode": "2171 CB", "addr:country": "nl", "name": "Domino's Pizza Sassenheim", "website": "https://www.dominos.nl/winkel/nl-sassenheim-30789", "brand": "Dominos Pizza Netherlands"}, "geometry": {"type": "Point", "coordinates": [4.5241, 52.22843]}},
{"type": "Feature", "id": "77J4gc__2cP-S9jRKX4GtkX0TYk=", "properties": {"ref": "nl-noordwijk-30714", "@spider": "dominos_pizza_nl", "addr:full": "Kerkstraat 40", "addr:city": "NOORDWIJK", "addr:postcode": "2201KN", "addr:country": "nl", "name": "Domino's Pizza Noordwijk", "website": "https://www.dominos.nl/winkel/nl-noordwijk-30714", "brand": "Dominos Pizza Netherlands"}, "geometry": {"type": "Point", "coordinates": [4.445931, 52.234794]}},
{"type": "Feature", "id": "rspR7k8gudfQvey-ndlza1R3qbY=", "properties": {"ref": "nl-nieuwerkerkaandenijssel-30808", "@spider": "dominos_pizza_nl", "addr:full": "Reigerhof 163", "addr:city": "NIEUWERKERK AAN DEN IJSSEL", "addr:postcode": "2914KE", "addr:country": "nl", "name": "Domino's Pizza Nieuwerkerk aan den IJssel", "website": "https://www.dominos.nl/winkel/nl-nieuwerkerkaandenijssel-30808", "brand": "Dominos Pizza Netherlands"}, "geometry": {"type": "Point", "coordinates": [4.619055, 51.967855]}},
{"type": "Feature", "id": "PxIxzmYHnKak0GCfVADc0woeums=", "properties": {"ref": "nl-naaldwijk-30656", "@spider": "dominos_pizza_nl", "addr:full": "S-Gravenzandseweg 18", "addr:city": "NAALDWIJK", "addr:postcode": "2671JN", "addr:country": "nl", "name": "Domino's Pizza Naaldwijk", "website": "https://www.dominos.nl/winkel/nl-naaldwijk-30656", "brand": "Dominos Pizza Netherlands"}, "geometry": {"type": "Point", "coordinates": [4.205088, 51.991514]}},
{"type": "Feature", "id": "fGdhbbz9iUB5ticHZEhRHUSlHgw=", "properties": {"ref": "nl-maassluis-30660", "@spider": "dominos_pizza_nl", "addr:full": "Pc Hooftlaan 8", "addr:city": "MAASSLUIS", "addr:postcode": "3142GH", "addr:country": "nl", "name": "Domino's Pizza Maassluis", "website": "https://www.dominos.nl/winkel/nl-maassluis-30660", "brand": "Dominos Pizza Netherlands"}, "geometry": {"type": "Point", "coordinates": [4.25679, 51.922896]}},
{"type": "Feature", "id": "AuS5vdVWDO7Cf6CWMBiPO13NrZw=", "properties": {"ref": "nl-leidschendam-30582", "@spider": "dominos_pizza_nl", "addr:full": "Damplein 16", "addr:city": "LEIDSCHENDAM", "addr:postcode": "2265AC", "addr:country": "nl", "name": "Domino's Pizza Leidschendam", "website": "https://www.dominos.nl/winkel/nl-leidschendam-30582", "brand": "Dominos Pizza Netherlands"}, "geometry": {"type": "Point", "coordinates": [4.39663, 52.080996]}},
{"type": "Feature", "id": "6Ja4bmsgoLXg-q8rY0aoUKizkCM=", "properties": {"ref": "nl-nootdorp-30611", "@spider": "dominos_pizza_nl", "addr:full": "Koningin Julianastraat 24", "addr:city": "Nootdorp", "addr:postcode": "2631BM", "addr:country": "nl", "name": "Domino's Pizza Nootdorp", "website": "https://www.dominos.nl/winkel/nl-nootdorp-30611", "brand": "Dominos Pizza Netherlands"}, "geometry": {"type": "Point", "coordinates": [4.393032, 52.044891]}},
{"type": "Feature", "id": "XNOLXV7ZBeuwSeVU3ZVZnKiMeKg=", "properties": {"ref": "nl-oegstgeest-30742", "@spider": "dominos_pizza_nl", "addr:full": "Lange Voort 2A", "addr:city": "Oegstgeest", "addr:postcode": "2341 KA", "addr:country": "nl", "name": "Domino's Pizza Oegstgeest", "website": "https://www.dominos.nl/winkel/nl-oegstgeest-30742", "brand": "Dominos Pizza Netherlands"}, "geometry": {"type": "Point", "coordinates": [4.470408, 52.185758]}},
{"type": "Feature", "id": "4Algy_iEH0JOQ5hq_y4hYUEhi2U=", "properties": {"ref": "nl-katwijkaanzee-30783", "@spider": "dominos_pizza_nl", "addr:full": "Badstraat 17A", "addr:city": "Katwijk aan Zee", "addr:postcode": "2225BL", "addr:country": "nl", "name": "Domino's Pizza Katwijk aan Zee", "website": "https://www.dominos.nl/winkel/nl-katwijkaanzee-30783", "brand": "Dominos Pizza Netherlands"}, "geometry": {"type": "Point", "coordinates": [4.39639, 52.20469]}},
{"type": "Feature", "id": "4NsdTSHJJKDI21kPWCnwiexCWQg=", "properties": {"ref": "nl-hillegom-30749", "@spider": "dominos_pizza_nl", "addr:full": "\ufeffHenri Dunantplein 22B", "addr:city": "Hillegom", "addr:postcode": "2181 EM", "addr:country": "nl", "name": "Domino's Pizza Hillegom", "website": "https://www.dominos.nl/winkel/nl-hillegom-30749", "brand": "Dominos Pizza Netherlands"}, "geometry": {"type": "Point", "coordinates": [4.578328, 52.292922]}},
{"type": "Feature", "id": "aTEi2hZv0KypMCRDOJBbPGm4VY4=", "properties": {"ref": "nl-krimpenaandenijssel-30711", "@spider": "dominos_pizza_nl", "addr:full": "Raadhuisplein 133A", "addr:city": "KRIMPEN AAN DEN IJSSEL", "addr:postcode": "2922AL", "addr:country": "nl", "name": "Domino's Pizza Krimpen aan den IJssel", "website": "https://www.dominos.nl/winkel/nl-krimpenaandenijssel-30711", "brand": "Dominos Pizza Netherlands"}, "geometry": {"type": "Point", "coordinates": [4.587079, 51.914589]}},
{"type": "Feature", "id": "CoL71xH2t8uv09oAqAuRuXQb4As=", "properties": {"ref": "nl-gouda-30565", "@spider": "dominos_pizza_nl", "addr:full": "Burgemeester Jamessingel 21", "addr:city": "GOUDA", "addr:postcode": "2803WV", "addr:country": "nl", "name": "Domino's Pizza Gouda", "website": "https://www.dominos.nl/winkel/nl-gouda-30565", "brand": "Dominos Pizza Netherlands"}, "geometry": {"type": "Point", "coordinates": [4.70606, 52.01815]}},
{"type": "Feature", "id": "ByZqTAuejg2fRT2iA-46gz0jQA8=", "properties": {"ref": "nl-hendrikidoambacht-30882", "@spider": "dominos_pizza_nl", "addr:full": "Schoof 234", "addr:city": "HENDRIK-IDO-AMBACHT", "addr:postcode": "3341EB", "addr:country": "nl", "name": "Domino's Pizza Hendrik-Ido-Ambacht", "website": "https://www.dominos.nl/winkel/nl-hendrikidoambacht-30882", "brand": "Dominos Pizza Netherlands"}, "geometry": {"type": "Point", "coordinates": [4.64381, 51.84819]}},
{"type": "Feature", "id": "aaY9lXoTb4LqJt4kOHIGMDvf9-c=", "properties": {"ref": "nl-gorinchemhoogdalem-30827", "@spider": "dominos_pizza_nl", "addr:full": "De Linie 62", "addr:city": "GORINCHEM", "addr:postcode": "4208DE", "addr:country": "nl", "name": "Domino's Pizza Gorinchem Hoog-Dalem", "website": "https://www.dominos.nl/winkel/nl-gorinchemhoogdalem-30827", "brand": "Dominos Pizza Netherlands"}, "geometry": {"type": "Point", "coordinates": [5.00705, 51.836441]}},
{"type": "Feature", "id": "qC14yjGIeJ8plD44IjKrks4uqe0=", "properties": {"ref": "nl-delftpapsouwselaan-30552", "@spider": "dominos_pizza_nl", "addr:full": "Papsouwselaan 123B", "addr:city": "Delft", "addr:postcode": "2624AK", "addr:country": "nl", "name": "Domino's Pizza Delft Papsouwselaan", "website": "https://www.dominos.nl/winkel/nl-delftpapsouwselaan-30552", "brand": "Dominos Pizza Netherlands"}, "geometry": {"type": "Point", "coordinates": [4.355189, 51.999185]}},
{"type": "Feature", "id": "oDS5BfKuOB-vYytby3pOr1Uo20c=", "properties": {"ref": "nl-gorinchemgildenweg-30641", "@spider": "dominos_pizza_nl", "addr:full": "Gildenweg 119", "addr:city": "GORINCHEM", "addr:postcode": "4204GE", "addr:country": "nl", "name": "Domino's Pizza Gorinchem Gildenweg", "website": "https://www.dominos.nl/winkel/nl-gorinchemgildenweg-30641", "brand": "Dominos Pizza Netherlands"}, "geometry": {"type": "Point", "coordinates": [4.951356, 51.837154]}},
{"type": "Feature", "id": "FT45ggRZ3GDbxYaBziHsS5CzyX0=", "properties": {"ref": "nl-capelleadyssel-30574", "@spider": "dominos_pizza_nl", "addr:full": "Slotplein 22", "addr:city": "Capelle a/d Yssel", "addr:postcode": "2902HP", "addr:country": "nl", "name": "Domino's Pizza Capelle a/d Yssel", "website": "https://www.dominos.nl/winkel/nl-capelleadyssel-30574", "brand": "Dominos Pizza Netherlands"}, "geometry": {"type": "Point", "coordinates": [4.583932, 51.923885]}},
{"type": "Feature", "id": "f9cWblR3Y1A62pGgpMbaf0LCZy0=", "properties": {"ref": "nl-bodegraven-30819", "@spider": "dominos_pizza_nl", "addr:full": "Marktstraat 19", "addr:city": "Bodegraven", "addr:postcode": "2411BE", "addr:country": "nl", "name": "Domino's Pizza Bodegraven", "website": "https://www.dominos.nl/winkel/nl-bodegraven-30819", "brand": "Dominos Pizza Netherlands"}, "geometry": {"type": "Point", "coordinates": [4.74829, 52.085833]}},
{"type": "Feature", "id": "ZTwj31u7QOUktF3B8WbifOBfONg=", "properties": {"ref": "nl-berkelenrodenrijs-30672", "@spider": "dominos_pizza_nl", "addr:full": "Wilhelminastraat 14", "addr:city": "BERKEL EN RODENRIJS", "addr:postcode": "2651DL", "addr:country": "nl", "name": "Domino's Pizza Berkel en Rodenrijs", "website": "https://www.dominos.nl/winkel/nl-berkelenrodenrijs-30672", "brand": "Dominos Pizza Netherlands"}, "geometry": {"type": "Point", "coordinates": [4.480358, 51.99413]}},
{"type": "Feature", "id": "a3b0Y4vHqlqq47ANtSlb8ysoqCA=", "properties": {"ref": "nl-barendrecht-30668", "@spider": "dominos_pizza_nl", "addr:full": "T Vlak 10", "addr:city": "BARENDRECHT", "addr:postcode": "2991EP", "addr:country": "nl", "name": "Domino's Pizza Barendrecht", "website": "https://www.dominos.nl/winkel/nl-barendrecht-30668", "brand": "Dominos Pizza Netherlands"}, "geometry": {"type": "Point", "coordinates": [4.53977, 51.855334]}},
{"type": "Feature", "id": "ktPfxFUhJst8XdDoq4G6GqlxY38=", "properties": {"ref": "nl-schiedam-30577", "@spider": "dominos_pizza_nl", "addr:full": "Oranjestraat 7", "addr:city": "SCHIEDAM", "addr:postcode": "3111AM", "addr:country": "nl", "name": "Domino's Pizza Schiedam", "website": "https://www.dominos.nl/winkel/nl-schiedam-30577", "brand": "Dominos Pizza Netherlands"}, "geometry": {"type": "Point", "coordinates": [4.400331, 51.912855]}},
{"type": "Feature", "id": "wN9XjJOC_MzQrH8gz0RHhC01Ts0=", "properties": {"ref": "nl-sgravenzande-30775", "@spider": "dominos_pizza_nl", "addr:full": "Langestraat 227", "addr:city": "'S-GRAVENZANDE", "addr:postcode": "2691BG", "addr:country": "nl", "name": "Domino's Pizza s-Gravenzande", "website": "https://www.dominos.nl/winkel/nl-sgravenzande-30775", "brand": "Dominos Pizza Netherlands"}, "geometry": {"type": "Point", "coordinates": [4.16196, 52.00127]}},
{"type": "Feature", "id": "waS7UQMhwSwAkxnvrCwTaR1a6g0=", "properties": {"ref": "nl-alblasserdam-30831", "@spider": "dominos_pizza_nl", "addr:full": "Plantageweg 25D", "addr:city": "ALBLASSERDAM", "addr:postcode": "2951GN", "addr:country": "nl", "name": "Domino's Pizza Alblasserdam", "website": "https://www.dominos.nl/winkel/nl-alblasserdam-30831", "brand": "Dominos Pizza Netherlands"}, "geometry": {"type": "Point", "coordinates": [4.66118, 51.8624]}},
{"type": "Feature", "id": "4AOlhIO01zxhdQML6ZkwloF_Tks=", "properties": {"ref": "nl-alphenaandenrijnconcertweg-30631", "@spider": "dominos_pizza_nl", "addr:full": "Concertweg 5", "addr:city": "ALPHEN AAN DEN RIJN", "addr:postcode": "2402JG", "addr:country": "nl", "name": "Domino's Pizza Alphen aan den Rijn Concertweg", "website": "https://www.dominos.nl/winkel/nl-alphenaandenrijnconcertweg-30631", "brand": "Dominos Pizza Netherlands"}, "geometry": {"type": "Point", "coordinates": [4.6596, 52.14897]}},
{"type": "Feature", "id": "3YJGbop7rAW3WNSA1K_T5RDZTZ0=", "properties": {"ref": "nl-alphenaandenrijndebaronie-30735", "@spider": "dominos_pizza_nl", "addr:full": "De Baronie 98", "addr:city": "Alphen aan den Rijn", "addr:postcode": "2404 XH", "addr:country": "nl", "name": "Domino's Pizza Alphen aan den Rijn de Baronie", "website": "https://www.dominos.nl/winkel/nl-alphenaandenrijndebaronie-30735", "brand": "Dominos Pizza Netherlands"}, "geometry": {"type": "Point", "coordinates": [4.648854, 52.135206]}},
{"type": "Feature", "id": "uZ7pUXjf7jX7W_Yj7XUM4STlwtE=", "properties": {"ref": "nl-coevorden-30874", "@spider": "dominos_pizza_nl", "addr:full": "Stationsplein 1", "addr:city": "Coevorden", "addr:postcode": "7741 GZ", "addr:country": "nl", "name": "Domino's Pizza Coevorden", "website": "https://www.dominos.nl/winkel/nl-coevorden-30874", "brand": "Dominos Pizza Netherlands"}, "geometry": {"type": "Point", "coordinates": [6.73605, 52.66294]}},
{"type": "Feature", "id": "qbKFk2M5as5P826_NKncrveSt3c=", "properties": {"ref": "nl-meppel-30697", "@spider": "dominos_pizza_nl", "addr:full": "Prinsengracht 13", "addr:city": "Meppel", "addr:postcode": "7941 KD", "addr:country": "nl", "name": "Domino's Pizza Meppel", "website": "https://www.dominos.nl/winkel/nl-meppel-30697", "brand": "Dominos Pizza Netherlands"}, "geometry": {"type": "Point", "coordinates": [6.194045, 52.695985]}},
{"type": "Feature", "id": "myhRdU-pG4k4rqu5I32fQAVwOcY=", "properties": {"ref": "nl-bredaroeselarestraat-30739", "@spider": "dominos_pizza_nl", "addr:full": "Roeselarestraat 642", "addr:city": "Breda", "addr:postcode": "4826 JW", "addr:country": "nl", "name": "Domino's Pizza Breda Roeselarestraat", "website": "https://www.dominos.nl/winkel/nl-bredaroeselarestraat-30739", "brand": "Dominos Pizza Netherlands"}, "geometry": {"type": "Point", "coordinates": [4.788524, 51.609167]}},
{"type": "Feature", "id": "2zYt3BV2a4LZZ83HOu1agAHedJE=", "properties": {"ref": "nl-amsterdamwaterlandplein-30763", "@spider": "dominos_pizza_nl", "addr:full": "Waterlandplein 19", "addr:city": "Amsterdam", "addr:postcode": "1024 LL", "addr:country": "nl", "name": "Domino's Pizza Amsterdam Waterlandplein", "website": "https://www.dominos.nl/winkel/nl-amsterdamwaterlandplein-30763", "brand": "Dominos Pizza Netherlands"}, "geometry": {"type": "Point", "coordinates": [4.955082, 52.392066]}},
{"type": "Feature", "id": "fNNPJGty7i1deU-Nw8vqoxXUHp4=", "properties": {"ref": "nl-delftbinnenwatersloot-30580", "@spider": "dominos_pizza_nl", "addr:full": "Binnenwatersloot 12A", "addr:city": "Delft", "addr:postcode": "2611BK", "addr:country": "nl", "name": "Domino's Pizza Delft Binnenwatersloot", "website": "https://www.dominos.nl/winkel/nl-delftbinnenwatersloot-30580", "brand": "Dominos Pizza Netherlands"}, "geometry": {"type": "Point", "coordinates": [4.355981, 52.009731]}},
{"type": "Feature", "id": "G02AbPeqWaF8VoXPM9lEjJcmuIk=", "properties": {"ref": "nl-hellevoetsluis-30637", "@spider": "dominos_pizza_nl", "addr:full": "Bruggehoofd 1B", "addr:city": "Hellevoetsluis", "addr:postcode": "3223 DB", "addr:country": "nl", "name": "Domino's Pizza Hellevoetsluis", "website": "https://www.dominos.nl/winkel/nl-hellevoetsluis-30637", "brand": "Dominos Pizza Netherlands"}, "geometry": {"type": "Point", "coordinates": [4.144435, 51.834153]}},
{"type": "Feature", "id": "wg2x2tRXz7qFGd3ZmJYWTT5CtW8=", "properties": {"ref": "nl-amsterdamoostelijkehandelskade-30609", "@spider": "dominos_pizza_nl", "addr:full": "Oostelijke Handelskade 142", "addr:city": "AMSTERDAM", "addr:postcode": "1019BP", "addr:country": "nl", "name": "Domino's Pizza Amsterdam Oostelijke Handelskade", "website": "https://www.dominos.nl/winkel/nl-amsterdamoostelijkehandelskade-30609", "brand": "Dominos Pizza Netherlands"}, "geometry": {"type": "Point", "coordinates": [4.937983, 52.373703]}},
{"type": "Feature", "id": "3RT68sbYDijSNtBeUoXi45Thnqg=", "properties": {"ref": "nl-amsterdamnoord-30645", "@spider": "dominos_pizza_nl", "addr:full": "Kamperfoelieweg 40", "addr:city": "AMSTERDAM", "addr:postcode": "1032HP", "addr:country": "nl", "name": "Domino's Pizza Amsterdam Noord", "website": "https://www.dominos.nl/winkel/nl-amsterdamnoord-30645", "brand": "Dominos Pizza Netherlands"}, "geometry": {"type": "Point", "coordinates": [4.9147, 52.394232]}},
{"type": "Feature", "id": "Tn03KXtezsWA0cl3iQqYqgOIO24=", "properties": {"ref": "nl-amsterdamlinnaeusstraat-30791", "@spider": "dominos_pizza_nl", "addr:full": "Linnaeusstraat 96", "addr:city": "Amsterdam", "addr:postcode": "1092 CP", "addr:country": "nl", "name": "Domino's Pizza Amsterdam Linnaeusstraat", "website": "https://www.dominos.nl/winkel/nl-amsterdamlinnaeusstraat-30791", "brand": "Dominos Pizza Netherlands"}, "geometry": {"type": "Point", "coordinates": [4.927539, 52.35602]}},
{"type": "Feature", "id": "N_DMn5e4Oc0qEk0RVeCEA1lcaNg=", "properties": {"ref": "nl-amsterdamovertoom-30571", "@spider": "dominos_pizza_nl", "addr:full": "Overtoom 71", "addr:city": "AMSTERDAM", "addr:postcode": "1054HC", "addr:country": "nl", "name": "Domino's Pizza Amsterdam Overtoom", "website": "https://www.dominos.nl/winkel/nl-amsterdamovertoom-30571", "brand": "Dominos Pizza Netherlands"}, "geometry": {"type": "Point", "coordinates": [4.876261, 52.362804]}},
{"type": "Feature", "id": "HvzRkjAxS57tI6kPY7dam1m8SlE=", "properties": {"ref": "nl-amsterdamijburg-30832", "@spider": "dominos_pizza_nl", "addr:full": "Pampuslaan 34", "addr:city": "Amsterdam", "addr:postcode": "1087 LA", "addr:country": "nl", "name": "Domino's Pizza Amsterdam IJburg", "website": "https://www.dominos.nl/winkel/nl-amsterdamijburg-30832", "brand": "Dominos Pizza Netherlands"}, "geometry": {"type": "Point", "coordinates": [5.008004, 52.351788]}},
{"type": "Feature", "id": "dnYtEC21hR4QBgx6mp_uMPrL3T8=", "properties": {"ref": "nl-amsterdamhaarlemmerdijk-30816", "@spider": "dominos_pizza_nl", "addr:full": "Haarlemmerdijk 174", "addr:city": "Amsterdam", "addr:postcode": "1013 JE", "addr:country": "nl", "name": "Domino's Pizza Amsterdam Haarlemmerdijk", "website": "https://www.dominos.nl/winkel/nl-amsterdamhaarlemmerdijk-30816", "brand": "Dominos Pizza Netherlands"}, "geometry": {"type": "Point", "coordinates": [4.88498, 52.38414]}},
{"type": "Feature", "id": "wm4DBPzl-93emqO3sKMyUxv0kSY=", "properties": {"ref": "nl-amsterdamrozengracht-30778", "@spider": "dominos_pizza_nl", "addr:full": "Rozengracht 166", "addr:city": "Amsterdam", "addr:postcode": "1016 NK", "addr:country": "nl", "name": "Domino's Pizza Amsterdam Rozengracht", "website": "https://www.dominos.nl/winkel/nl-amsterdamrozengracht-30778", "brand": "Dominos Pizza Netherlands"}, "geometry": {"type": "Point", "coordinates": [4.87802, 52.37288]}},
{"type": "Feature", "id": "ZSdXvlek8NMH6qZ0y1WhjcWlMN0=", "properties": {"ref": "nl-amsterdamzuidoost-30741", "@spider": "dominos_pizza_nl", "addr:full": "Bijlmerplein 997", "addr:city": "Amsterdam", "addr:postcode": "1102 MK", "addr:country": "nl", "name": "Domino's Pizza Amsterdam Zuidoost", "website": "https://www.dominos.nl/winkel/nl-amsterdamzuidoost-30741", "brand": "Dominos Pizza Netherlands"}, "geometry": {"type": "Point", "coordinates": [4.950565, 52.313298]}},
{"type": "Feature", "id": "JGKUUtwzAYxo2rDQ-5kJTH86usk=", "properties": {"ref": "nl-amsterdamstadionplein-30916", "@spider": "dominos_pizza_nl", "addr:full": "Stadionplein 1", "addr:city": "AMSTERDAM", "addr:postcode": "1076CE", "addr:country": "nl", "name": "Domino's Pizza Amsterdam Stadionplein", "website": "https://www.dominos.nl/winkel/nl-amsterdamstadionplein-30916", "brand": "Dominos Pizza Netherlands"}, "geometry": {"type": "Point", "coordinates": [4.85832, 52.34474]}},
{"type": "Feature", "id": "4ZMb9yLeCW1rxPHZiMHMcbeTR58=", "properties": {"ref": "nl-assen-30685", "@spider": "dominos_pizza_nl", "addr:full": "Troelstralaan 199 A", "addr:city": "ASSEN", "addr:postcode": "9402BG", "addr:country": "nl", "name": "Domino's Pizza Assen", "website": "https://www.dominos.nl/winkel/nl-assen-30685", "brand": "Dominos Pizza Netherlands"}, "geometry": {"type": "Point", "coordinates": [6.553981, 52.998092]}},
{"type": "Feature", "id": "Y4If-lIg7DWSphsuhUEGwTUZaFY=", "properties": {"ref": "nl-emmenbalingerbrinkbargeres-30889", "@spider": "dominos_pizza_nl", "addr:full": "Balingerbrink 247", "addr:city": "EMMEN", "addr:postcode": "7812SJ", "addr:country": "nl", "name": "Domino's Pizza Emmen  - Balingerbrink - Bargeres", "website": "https://www.dominos.nl/winkel/nl-emmenbalingerbrinkbargeres-30889", "brand": "Dominos Pizza Netherlands"}, "geometry": {"type": "Point", "coordinates": [6.887766, 52.764795]}},
{"type": "Feature", "id": "S1dmzwRQSToFMew3B0PBZ-c9cv0=", "properties": {"ref": "nl-hulst-30917", "@spider": "dominos_pizza_nl", "addr:full": "Grote Markt 8", "addr:city": "Hulst", "addr:postcode": "4561EB", "addr:country": "nl", "name": "Domino's Pizza Hulst", "website": "https://www.dominos.nl/winkel/nl-hulst-30917", "brand": "Dominos Pizza Netherlands"}, "geometry": {"type": "Point", "coordinates": [4.052969, 51.280039]}},
{"type": "Feature", "id": "pX1_idhUuw5M5C17iLG-YnPZ6H4=", "properties": {"ref": "nl-goes-30694", "@spider": "dominos_pizza_nl", "addr:full": "Zusterstraat 7", "addr:city": "GOES", "addr:postcode": "4461JA", "addr:country": "nl", "name": "Domino's Pizza Goes", "website": "https://www.dominos.nl/winkel/nl-goes-30694", "brand": "Dominos Pizza Netherlands"}, "geometry": {"type": "Point", "coordinates": [3.888868, 51.502662]}},
{"type": "Feature", "id": "qaUzHGUjiPDUomF3EKeVsfik4HE=", "properties": {"ref": "nl-rotterdamvuurplaat-30682", "@spider": "dominos_pizza_nl", "addr:full": "Vuurplaat 328-330", "addr:city": "ROTTERDAM", "addr:postcode": "3071AR", "addr:country": "nl", "name": "Domino's Pizza Rotterdam Vuurplaat", "website": "https://www.dominos.nl/winkel/nl-rotterdamvuurplaat-30682", "brand": "Dominos Pizza Netherlands"}, "geometry": {"type": "Point", "coordinates": [4.504, 51.904789]}},
{"type": "Feature", "id": "_K7qyafhW6ZZNrYmP9nOoWdLywM=", "properties": {"ref": "nl-rotterdamspinozaweg-30756", "@spider": "dominos_pizza_nl", "addr:full": "Spinozaweg 409-411", "addr:city": "Rotterdam", "addr:postcode": "3076 ET", "addr:country": "nl", "name": "Domino's Pizza Rotterdam Spinozaweg", "website": "https://www.dominos.nl/winkel/nl-rotterdamspinozaweg-30756", "brand": "Dominos Pizza Netherlands"}, "geometry": {"type": "Point", "coordinates": [4.517394, 51.87724]}},
{"type": "Feature", "id": "DD6_AA0zhqbaMkAePOeIX49-n0c=", "properties": {"ref": "nl-middelburg-30650", "@spider": "dominos_pizza_nl", "addr:full": "Pottenbakkerssingel 14", "addr:city": "MIDDELBURG", "addr:postcode": "4331NA", "addr:country": "nl", "name": "Domino's Pizza Middelburg", "website": "https://www.dominos.nl/winkel/nl-middelburg-30650", "brand": "Dominos Pizza Netherlands"}, "geometry": {"type": "Point", "coordinates": [3.608689, 51.495788]}},
{"type": "Feature", "id": "_ri-El0D0zYs9BKUJ4TCfPV9jxs=", "properties": {"ref": "nl-rotterdammariniersweg-30622", "@spider": "dominos_pizza_nl", "addr:full": "Mariniersweg 70A", "addr:city": "ROTTERDAM", "addr:postcode": "3011NS", "addr:country": "nl", "name": "Domino's Pizza Rotterdam Mariniersweg", "website": "https://www.dominos.nl/winkel/nl-rotterdammariniersweg-30622", "brand": "Dominos Pizza Netherlands"}, "geometry": {"type": "Point", "coordinates": [4.489941, 51.922756]}},
{"type": "Feature", "id": "Lge4-LHnJzjXAor0tVL0ukgnC0Y=", "properties": {"ref": "nl-rotterdamkralingen-30817", "@spider": "dominos_pizza_nl", "addr:full": "Willem Ruyslaan 26A-28A", "addr:city": "Rotterdam", "addr:postcode": "3063 ES", "addr:country": "nl", "name": "Domino's Pizza Rotterdam Kralingen", "website": "https://www.dominos.nl/winkel/nl-rotterdamkralingen-30817", "brand": "Dominos Pizza Netherlands"}, "geometry": {"type": "Point", "coordinates": [4.50618, 51.92112]}},
{"type": "Feature", "id": "nsZ5P7pBBrN8XjAUe5HeyFaD6tQ=", "properties": {"ref": "nl-rotterdamsamuelesmeijerplein-30848", "@spider": "dominos_pizza_nl", "addr:full": "Samuel Esmeijerplein 29", "addr:city": "ROTTERDAM", "addr:postcode": "3067AP", "addr:country": "nl", "name": "Domino's Pizza Rotterdam Samuel Esmeijerplein", "website": "https://www.dominos.nl/winkel/nl-rotterdamsamuelesmeijerplein-30848", "brand": "Dominos Pizza Netherlands"}, "geometry": {"type": "Point", "coordinates": [4.548657, 51.939839]}},
{"type": "Feature", "id": "Tw7PiKE9slGODLTMpWaR-ytifCM=", "properties": {"ref": "nl-rotterdamijsselmonde-30680", "@spider": "dominos_pizza_nl", "addr:full": "Kerstendijk 1", "addr:city": "Rotterdam", "addr:postcode": "3079 ET", "addr:country": "nl", "name": "Domino's Pizza Rotterdam IJsselmonde", "website": "https://www.dominos.nl/winkel/nl-rotterdamijsselmonde-30680", "brand": "Dominos Pizza Netherlands"}, "geometry": {"type": "Point", "coordinates": [4.543625, 51.881446]}},
{"type": "Feature", "id": "Ud97EiT9GeQ75yyhL2YIGwNYbhA=", "properties": {"ref": "nl-rotterdamblijdorp-30556", "@spider": "dominos_pizza_nl", "addr:full": "Stadhoudersweg 72A", "addr:city": "Rotterdam", "addr:postcode": "3039CG", "addr:country": "nl", "name": "Domino's Pizza Rotterdam Blijdorp", "website": "https://www.dominos.nl/winkel/nl-rotterdamblijdorp-30556", "brand": "Dominos Pizza Netherlands"}, "geometry": {"type": "Point", "coordinates": [4.461893, 51.931049]}},
{"type": "Feature", "id": "nRoXORHhnrpUzEUPyBi8lpwaUiQ=", "properties": {"ref": "nl-rotterdamaelbrechtskade-30782", "@spider": "dominos_pizza_nl", "addr:full": "Aelbrechtskade 206", "addr:city": "Rotterdam", "addr:postcode": "3023 JM", "addr:country": "nl", "name": "Domino's Pizza Rotterdam Aelbrechtskade", "website": "https://www.dominos.nl/winkel/nl-rotterdamaelbrechtskade-30782", "brand": "Dominos Pizza Netherlands"}, "geometry": {"type": "Point", "coordinates": [4.44977, 51.91029]}},
{"type": "Feature", "id": "j90uMPi_z3WgBgFgt6DABB3Xe5M=", "properties": {"ref": "nl-wolvega-30908", "@spider": "dominos_pizza_nl", "addr:full": "Van Harenstraat 4C", "addr:city": "WOLVEGA", "addr:postcode": "8471JD", "addr:country": "nl", "name": "Domino's Pizza Wolvega", "website": "https://www.dominos.nl/winkel/nl-wolvega-30908", "brand": "Dominos Pizza Netherlands"}, "geometry": {"type": "Point", "coordinates": [6.00134, 52.87636]}},
{"type": "Feature", "id": "1ueKwUO2TpF8ZMK40ILdFH6S_x0=", "properties": {"ref": "nl-sneek-30669", "@spider": "dominos_pizza_nl", "addr:full": "Gedempte Pol 32", "addr:city": "SNEEK", "addr:postcode": "8601BZ", "addr:country": "nl", "name": "Domino's Pizza Sneek", "website": "https://www.dominos.nl/winkel/nl-sneek-30669", "brand": "Dominos Pizza Netherlands"}, "geometry": {"type": "Point", "coordinates": [5.661819, 53.033767]}},
{"type": "Feature", "id": "tfeDVRQHK0XpCoXbrInIRDWA8fE=", "properties": {"ref": "nl-leeuwardenoostergrachtswalcentrum-30655", "@spider": "dominos_pizza_nl", "addr:full": "Oostergrachtswal 5", "addr:city": "LEEUWARDEN", "addr:postcode": "8921AA", "addr:country": "nl", "name": "Domino's Pizza Leeuwarden - Oostergrachtswal - Centrum", "website": "https://www.dominos.nl/winkel/nl-leeuwardenoostergrachtswalcentrum-30655", "brand": "Dominos Pizza Netherlands"}, "geometry": {"type": "Point", "coordinates": [5.803655, 53.20246]}},
{"type": "Feature", "id": "y40LTYeZACes3z-wYs-SptRyTC4=", "properties": {"ref": "nl-rotterdamairport-30797", "@spider": "dominos_pizza_nl", "addr:full": "Rotterdam Airportplein 55", "addr:city": "Rotterdam", "addr:postcode": "3045 AP", "addr:country": "nl", "name": "Domino's Pizza Rotterdam Airport", "website": "https://www.dominos.nl/winkel/nl-rotterdamairport-30797", "brand": "Dominos Pizza Netherlands"}, "geometry": {"type": "Point", "coordinates": [4.435516, 51.948136]}},
{"type": "Feature", "id": "6DIlQmuDwQo8NU9CxMB8AZDNOp0=", "properties": {"ref": "nl-rotterdamzuidplein-30715", "@spider": "dominos_pizza_nl", "addr:full": "Zuidplein 117", "addr:city": "Rotterdam", "addr:postcode": "3083 CN", "addr:country": "nl", "name": "Domino's Pizza Rotterdam Zuidplein", "website": "https://www.dominos.nl/winkel/nl-rotterdamzuidplein-30715", "brand": "Dominos Pizza Netherlands"}, "geometry": {"type": "Point", "coordinates": [4.489396, 51.889624]}},
{"type": "Feature", "id": "MAnFNRIHhDnAiY_wrEj73FbzcYs=", "properties": {"ref": "nl-rotterdamzevenkamp-30643", "@spider": "dominos_pizza_nl", "addr:full": "Zevenkampsering 303 B", "addr:city": "ROTTERDAM", "addr:postcode": "3068HG", "addr:country": "nl", "name": "Domino's Pizza Rotterdam Zevenkamp", "website": "https://www.dominos.nl/winkel/nl-rotterdamzevenkamp-30643", "brand": "Dominos Pizza Netherlands"}, "geometry": {"type": "Point", "coordinates": [4.571802, 51.964289]}},
{"type": "Feature", "id": "hcN8HgJiugdW2RvMwiyFAHf8sjs=", "properties": {"ref": "nl-joure-30923", "@spider": "dominos_pizza_nl", "addr:full": "Midstraat 106", "addr:city": "JOURE", "addr:postcode": "8501AT", "addr:country": "nl", "name": "Domino's Pizza Joure", "website": "https://www.dominos.nl/winkel/nl-joure-30923", "brand": "Dominos Pizza Netherlands"}, "geometry": {"type": "Point", "coordinates": [5.79693, 52.96669]}},
{"type": "Feature", "id": "nqCKCUI65UBAwflVkt-6EDSmF2g=", "properties": {"ref": "nl-leeuwardenlieuwenburgcamminghaburen-30867", "@spider": "dominos_pizza_nl", "addr:full": "Lieuwenburg 98", "addr:city": "LEEUWARDEN", "addr:postcode": "8925CL", "addr:country": "nl", "name": "Domino's Pizza Leeuwarden - Lieuwenburg - Camminghaburen", "website": "https://www.dominos.nl/winkel/nl-leeuwardenlieuwenburgcamminghaburen-30867", "brand": "Dominos Pizza Netherlands"}, "geometry": {"type": "Point", "coordinates": [5.83865, 53.21112]}},
{"type": "Feature", "id": "mk5ZXMj6cDvWs_P8eGBjIPz2wkk=", "properties": {"ref": "nl-harlingen-30861", "@spider": "dominos_pizza_nl", "addr:full": "Grote Bredeplaats 8A", "addr:city": "Harlingen", "addr:postcode": "8861BB", "addr:country": "nl", "name": "Domino's Pizza Harlingen", "website": "https://www.dominos.nl/winkel/nl-harlingen-30861", "brand": "Dominos Pizza Netherlands"}, "geometry": {"type": "Point", "coordinates": [5.41471, 53.17473]}},
{"type": "Feature", "id": "lg9QBeyFdIBARCd3zgOk4U7PC60=", "properties": {"ref": "nl-drachten-30663", "@spider": "dominos_pizza_nl", "addr:full": "Noordkade 56", "addr:city": "DRACHTEN", "addr:postcode": "9203CE", "addr:country": "nl", "name": "Domino's Pizza Drachten", "website": "https://www.dominos.nl/winkel/nl-drachten-30663", "brand": "Dominos Pizza Netherlands"}, "geometry": {"type": "Point", "coordinates": [6.104403, 53.107158]}},
{"type": "Feature", "id": "EaiIqcbzkijslPurQNFYFMsgKMY=", "properties": {"ref": "nl-hoogvliet-30649", "@spider": "dominos_pizza_nl", "addr:full": "In De Fuik 90", "addr:city": "Rotterdam", "addr:postcode": "3192HD", "addr:country": "nl", "name": "Domino's Pizza Hoogvliet", "website": "https://www.dominos.nl/winkel/nl-hoogvliet-30649", "brand": "Dominos Pizza Netherlands"}, "geometry": {"type": "Point", "coordinates": [4.368017, 51.850656]}},
{"type": "Feature", "id": "-YFHsmZQv0ybaDBZ7jejpdoCwqQ=", "properties": {"ref": "nl-heerenveen-30658", "@spider": "dominos_pizza_nl", "addr:full": "Trambaan 11", "addr:city": "HEERENVEEN", "addr:postcode": "8441BH", "addr:country": "nl", "name": "Domino's Pizza Heerenveen", "website": "https://www.dominos.nl/winkel/nl-heerenveen-30658", "brand": "Dominos Pizza Netherlands"}, "geometry": {"type": "Point", "coordinates": [5.915979, 52.960601]}},
{"type": "Feature", "id": "poAoqJJi92UCEuMaEkCa3hCp4qs=", "properties": {"ref": "nl-leeuwardenharlingerstraatwegwesteinde-30765", "@spider": "dominos_pizza_nl", "addr:full": "Harlingerstraatweg 80", "addr:city": "Leeuwarden", "addr:postcode": "8915 CN", "addr:country": "nl", "name": "Domino's Pizza Leeuwarden - Harlingerstraatweg - Westeinde", "website": "https://www.dominos.nl/winkel/nl-leeuwardenharlingerstraatwegwesteinde-30765", "brand": "Dominos Pizza Netherlands"}, "geometry": {"type": "Point", "coordinates": [5.774428, 53.20567]}},
{"type": "Feature", "id": "RBUvhvahCvnWW0T1HeM0yDyqHBw=", "properties": {"ref": "nl-zwolle-30616", "@spider": "dominos_pizza_nl", "addr:full": "Diezerkade 5", "addr:city": "ZWOLLE", "addr:postcode": "8021CW", "addr:country": "nl", "name": "Domino's Pizza Zwolle", "website": "https://www.dominos.nl/winkel/nl-zwolle-30616", "brand": "Dominos Pizza Netherlands"}, "geometry": {"type": "Point", "coordinates": [6.100677, 52.515418]}},
{"type": "Feature", "id": "VrpueZsyAvbyXx_9RHXGYqEoCIw=", "properties": {"ref": "nl-dokkum-30922", "@spider": "dominos_pizza_nl", "addr:full": "Koophandel 17", "addr:city": "Dokkum", "addr:postcode": "9101 WZ", "addr:country": "nl", "name": "Domino's Pizza Dokkum", "website": "https://www.dominos.nl/winkel/nl-dokkum-30922", "brand": "Dominos Pizza Netherlands"}, "geometry": {"type": "Point", "coordinates": [6.00935, 53.323]}},
{"type": "Feature", "id": "JLolgLVwZ9uQP-Tk2l3WOTJJqP4=", "properties": {"ref": "nl-steenwijk-30840", "@spider": "dominos_pizza_nl", "addr:full": "Scholestraat 42", "addr:city": "Steenwijk", "addr:postcode": "8331HS", "addr:country": "nl", "name": "Domino's Pizza Steenwijk", "website": "https://www.dominos.nl/winkel/nl-steenwijk-30840", "brand": "Dominos Pizza Netherlands"}, "geometry": {"type": "Point", "coordinates": [6.120107, 52.787209]}},
{"type": "Feature", "id": "3egQURJTmsaiTAINLDSa1nNtjs0=", "properties": {"ref": "nl-wierden-30924", "@spider": "dominos_pizza_nl", "addr:full": "Stationsstraat 18", "addr:city": "Wierden", "addr:postcode": "7641 BW", "addr:country": "nl", "name": "Domino's Pizza Wierden", "website": "https://www.dominos.nl/winkel/nl-wierden-30924", "brand": "Dominos Pizza Netherlands"}, "geometry": {"type": "Point", "coordinates": [6.592163, 52.3589]}},
{"type": "Feature", "id": "Cs4yT9ujHeWWyWaDv_9Q8H2mbf8=", "properties": {"ref": "nl-oldenzaal-30869", "@spider": "dominos_pizza_nl", "addr:full": "Ootmarsumsestraat 3", "addr:city": "Oldenzaal", "addr:postcode": "7572AA", "addr:country": "nl", "name": "Domino's Pizza Oldenzaal", "website": "https://www.dominos.nl/winkel/nl-oldenzaal-30869", "brand": "Dominos Pizza Netherlands"}, "geometry": {"type": "Point", "coordinates": [6.93032, 52.31549]}},
{"type": "Feature", "id": "TXGUApKOwdtvrYn5BYQvtgIVuGo=", "properties": {"ref": "nl-nijverdal-30732", "@spider": "dominos_pizza_nl", "addr:full": "Rijssensestraat 49A", "addr:city": "Nijverdal", "addr:postcode": "7442MR", "addr:country": "nl", "name": "Domino's Pizza Nijverdal", "website": "https://www.dominos.nl/winkel/nl-nijverdal-30732", "brand": "Dominos Pizza Netherlands"}, "geometry": {"type": "Point", "coordinates": [6.460359, 52.363091]}},
{"type": "Feature", "id": "Oqhl5gISYCsg2dTrhOR_BU2ZLHg=", "properties": {"ref": "nl-zwollebachplein-30690", "@spider": "dominos_pizza_nl", "addr:full": "Bachplein 8", "addr:city": "ZWOLLE", "addr:postcode": "8031HR", "addr:country": "nl", "name": "Domino's Pizza Zwolle Bachplein", "website": "https://www.dominos.nl/winkel/nl-zwollebachplein-30690", "brand": "Dominos Pizza Netherlands"}, "geometry": {"type": "Point", "coordinates": [6.078904, 52.526053]}},
{"type": "Feature", "id": "eSRCq6eAbKaj-VWtuz3NPvnH4q0=", "properties": {"ref": "nl-hengelouitslagsweg-30824", "@spider": "dominos_pizza_nl", "addr:full": "Uitslagsweg 99-5", "addr:city": "Hengelo", "addr:postcode": "7556 LN", "addr:country": "nl", "name": "Domino's Pizza Hengelo Uitslagsweg", "website": "https://www.dominos.nl/winkel/nl-hengelouitslagsweg-30824", "brand": "Dominos Pizza Netherlands"}, "geometry": {"type": "Point", "coordinates": [6.793229, 52.276777]}},
{"type": "Feature", "id": "d11YAFjZwBVFV6jsfEQhEZJCS90=", "properties": {"ref": "nl-kampen-30638", "@spider": "dominos_pizza_nl", "addr:full": "Buitennieuwstraat 9", "addr:city": "KAMPEN", "addr:postcode": "8261AP", "addr:country": "nl", "name": "Domino's Pizza Kampen", "website": "https://www.dominos.nl/winkel/nl-kampen-30638", "brand": "Dominos Pizza Netherlands"}, "geometry": {"type": "Point", "coordinates": [5.915303, 52.558989]}},
{"type": "Feature", "id": "54xk-T9eeAP_k_0e_7i9NRUGQkc=", "properties": {"ref": "nl-hardenberg-30811", "@spider": "dominos_pizza_nl", "addr:full": "Fortuinstraat 18", "addr:city": "Hardenberg", "addr:postcode": "7772BM", "addr:country": "nl", "name": "Domino's Pizza Hardenberg", "website": "https://www.dominos.nl/winkel/nl-hardenberg-30811", "brand": "Dominos Pizza Netherlands"}, "geometry": {"type": "Point", "coordinates": [6.61889, 52.574708]}},
{"type": "Feature", "id": "70Tt82mUUt8wiDiiQv22QZnLTnw=", "properties": {"ref": "nl-hengeloboekeloseweg-30673", "@spider": "dominos_pizza_nl", "addr:full": "Boekeloseweg 11", "addr:city": "HENGELO", "addr:postcode": "7553DK", "addr:country": "nl", "name": "Domino's Pizza Hengelo Boekeloseweg", "website": "https://www.dominos.nl/winkel/nl-hengeloboekeloseweg-30673", "brand": "Dominos Pizza Netherlands"}, "geometry": {"type": "Point", "coordinates": [6.786396, 52.255729]}},
{"type": "Feature", "id": "C7l2FPzfp7B3EoO_K71byNifXAs=", "properties": {"ref": "nl-deventerkareldegroteplein-30822", "@spider": "dominos_pizza_nl", "addr:full": "Karel De Grote Plein 33", "addr:city": "DEVENTER", "addr:postcode": "7415DH", "addr:country": "nl", "name": "Domino's Pizza Deventer  - Karel de Groteplein", "website": "https://www.dominos.nl/winkel/nl-deventerkareldegroteplein-30822", "brand": "Dominos Pizza Netherlands"}, "geometry": {"type": "Point", "coordinates": [6.158291, 52.267646]}},
{"type": "Feature", "id": "poHodxiWLvh54tTxSxf8a5K5nlk=", "properties": {"ref": "nl-haaksbergen-30786", "@spider": "dominos_pizza_nl", "addr:full": "Molenstraat 25-27", "addr:city": "Haaksbergen", "addr:postcode": "7481GK", "addr:country": "nl", "name": "Domino's Pizza Haaksbergen", "website": "https://www.dominos.nl/winkel/nl-haaksbergen-30786", "brand": "Dominos Pizza Netherlands"}, "geometry": {"type": "Point", "coordinates": [6.741696, 52.153164]}},
{"type": "Feature", "id": "amK6rZx2eRTMXMyVrj4vjo3Tgwo=", "properties": {"ref": "nl-deventerachterdebroederen-30557", "@spider": "dominos_pizza_nl", "addr:full": "Achter De Broederen 13", "addr:city": "Deventer", "addr:postcode": "7411 PS", "addr:country": "nl", "name": "Domino's Pizza Deventer  - Achter de Broederen", "website": "https://www.dominos.nl/winkel/nl-deventerachterdebroederen-30557", "brand": "Dominos Pizza Netherlands"}, "geometry": {"type": "Point", "coordinates": [6.157252, 52.254878]}},
{"type": "Feature", "id": "y9Ioi1OX-BBhq8zFLRcTnptX2ws=", "properties": {"ref": "nl-deventerandriessenplein-30807", "@spider": "dominos_pizza_nl", "addr:full": "Andriessenplein 41", "addr:city": "DEVENTER", "addr:postcode": "7425GZ", "addr:country": "nl", "name": "Domino's Pizza Deventer  - Andriessenplein", "website": "https://www.dominos.nl/winkel/nl-deventerandriessenplein-30807", "brand": "Dominos Pizza Netherlands"}, "geometry": {"type": "Point", "coordinates": [6.224712, 52.261024]}},
{"type": "Feature", "id": "Z3oluVXsrCX2-w7YV1AAjK_np6M=", "properties": {"ref": "nl-almelovincentvangoghplein-30674", "@spider": "dominos_pizza_nl", "addr:full": "Vincent Van Goghplein 12", "addr:city": "ALMELO", "addr:postcode": "7606HP", "addr:country": "nl", "name": "Domino's Pizza Almelo Vincent van Goghplein", "website": "https://www.dominos.nl/winkel/nl-almelovincentvangoghplein-30674", "brand": "Dominos Pizza Netherlands"}, "geometry": {"type": "Point", "coordinates": [6.644602, 52.346019]}},
{"type": "Feature", "id": "N60HDL2IP93tpkFeE79Tu5Dh_g8=", "properties": {"ref": "nl-almeloeskerplein-30851", "@spider": "dominos_pizza_nl", "addr:full": "Eskerplein 17A", "addr:city": "ALMELO", "addr:postcode": "7603WH", "addr:country": "nl", "name": "Domino's Pizza Almelo Eskerplein", "website": "https://www.dominos.nl/winkel/nl-almeloeskerplein-30851", "brand": "Dominos Pizza Netherlands"}, "geometry": {"type": "Point", "coordinates": [6.6787, 52.3656]}},
{"type": "Feature", "id": "wl7LZF5eq85kdQ9Gn8uLRaL2J0M=", "properties": {"ref": "nl-denhaagtheresiastraat-30880", "@spider": "dominos_pizza_nl", "addr:full": "Theresiastraat 36", "addr:city": "Den Haag", "addr:postcode": "2593AP", "addr:country": "nl", "name": "Domino's Pizza Den Haag Theresiastraat", "website": "https://www.dominos.nl/winkel/nl-denhaagtheresiastraat-30880", "brand": "Dominos Pizza Netherlands"}, "geometry": {"type": "Point", "coordinates": [4.33304, 52.08456]}},
{"type": "Feature", "id": "OTnm1AfkvDZ8cux1BGvLE_CNpag=", "properties": {"ref": "nl-denhaagoudehaagweg-30573", "@spider": "dominos_pizza_nl", "addr:full": "Oude Haagweg 36", "addr:city": "DEN HAAG", "addr:postcode": "2552EP", "addr:country": "nl", "name": "Domino's Pizza Den Haag Oude Haagweg", "website": "https://www.dominos.nl/winkel/nl-denhaagoudehaagweg-30573", "brand": "Dominos Pizza Netherlands"}, "geometry": {"type": "Point", "coordinates": [4.244961, 52.056022]}},
{"type": "Feature", "id": "AI9u-QfKMbNUgrNhooCvuP7mgTE=", "properties": {"ref": "nl-denhaaghollandsspoor-30567", "@spider": "dominos_pizza_nl", "addr:full": "Waldorpstraat 27A", "addr:city": "Den Haag", "addr:postcode": "2521CA", "addr:country": "nl", "name": "Domino's Pizza Den Haag Hollands Spoor", "website": "https://www.dominos.nl/winkel/nl-denhaaghollandsspoor-30567", "brand": "Dominos Pizza Netherlands"}, "geometry": {"type": "Point", "coordinates": [4.32218, 52.06883]}},
{"type": "Feature", "id": "BASjosFgrc9wGoIw7S8qxvyLq5Q=", "properties": {"ref": "nl-borne-30820", "@spider": "dominos_pizza_nl", "addr:full": "Nieuwe Markt 5C", "addr:city": "Borne", "addr:postcode": "7622DD", "addr:country": "nl", "name": "Domino's Pizza Borne", "website": "https://www.dominos.nl/winkel/nl-borne-30820", "brand": "Dominos Pizza Netherlands"}, "geometry": {"type": "Point", "coordinates": [6.757179, 52.300922]}},
{"type": "Feature", "id": "GCVjC3CgI5IuCUKOnsejdIxK6AA=", "properties": {"ref": "nl-vught-30724", "@spider": "dominos_pizza_nl", "addr:full": "Secretaris Van Rooijstraat 2A", "addr:city": "Vught", "addr:postcode": "5261EP", "addr:country": "nl", "name": "Domino's Pizza Vught", "website": "https://www.dominos.nl/winkel/nl-vught-30724", "brand": "Dominos Pizza Netherlands"}, "geometry": {"type": "Point", "coordinates": [5.29899, 51.656983]}},
{"type": "Feature", "id": "W0kO3Ai4Wh0IBpBiRrAYUgcOvlE=", "properties": {"ref": "nl-veldhoven-30594", "@spider": "dominos_pizza_nl", "addr:full": "Burgemeester Van Hoofflaan 67", "addr:city": "VELDHOVEN", "addr:postcode": "5503BK", "addr:country": "nl", "name": "Domino's Pizza Veldhoven", "website": "https://www.dominos.nl/winkel/nl-veldhoven-30594", "brand": "Dominos Pizza Netherlands"}, "geometry": {"type": "Point", "coordinates": [5.40766, 51.413362]}},
{"type": "Feature", "id": "iKO-wdFgeoCQ5IPkW7Rjq2JLDqM=", "properties": {"ref": "nl-denhaaggoudenregenplein-30566", "@spider": "dominos_pizza_nl", "addr:full": "Goudenregenplein 3", "addr:city": "DEN HAAG", "addr:postcode": "2565GH", "addr:country": "nl", "name": "Domino's Pizza Den Haag Goudenregenplein", "website": "https://www.dominos.nl/winkel/nl-denhaaggoudenregenplein-30566", "brand": "Dominos Pizza Netherlands"}, "geometry": {"type": "Point", "coordinates": [4.263779, 52.077019]}},
{"type": "Feature", "id": "R-dKlHCbgeXi2iussQMXvD-0IC4=", "properties": {"ref": "nl-veghel-30665", "@spider": "dominos_pizza_nl", "addr:full": "Bolkenplein 9/10", "addr:city": "VEGHEL", "addr:postcode": "5461HH", "addr:country": "nl", "name": "Domino's Pizza Veghel", "website": "https://www.dominos.nl/winkel/nl-veghel-30665", "brand": "Dominos Pizza Netherlands"}, "geometry": {"type": "Point", "coordinates": [5.546759, 51.617483]}},
{"type": "Feature", "id": "pGzkXDr15JYn5wyCGXCDG4-OXM0=", "properties": {"ref": "nl-uden-30689", "@spider": "dominos_pizza_nl", "addr:full": "Oranjestraat 19/21", "addr:city": "UDEN", "addr:postcode": "5401CB", "addr:country": "nl", "name": "Domino's Pizza Uden", "website": "https://www.dominos.nl/winkel/nl-uden-30689", "brand": "Dominos Pizza Netherlands"}, "geometry": {"type": "Point", "coordinates": [5.614928, 51.656245]}},
{"type": "Feature", "id": "RkdcVnv344FnTTahjcaXdrZZ4fc=", "properties": {"ref": "nl-valkenswaard-30713", "@spider": "dominos_pizza_nl", "addr:full": "Dommelseweg 5", "addr:city": "Valkenswaard", "addr:postcode": "5554NL", "addr:country": "nl", "name": "Domino's Pizza Valkenswaard", "website": "https://www.dominos.nl/winkel/nl-valkenswaard-30713", "brand": "Dominos Pizza Netherlands"}, "geometry": {"type": "Point", "coordinates": [5.455442, 51.349006]}},
{"type": "Feature", "id": "OPCFuklzGzF75c87TmC1hvMUygA=", "properties": {"ref": "nl-raalte-30833", "@spider": "dominos_pizza_nl", "addr:full": "Domineeskamp 4", "addr:city": "Raalte", "addr:postcode": "8102CC", "addr:country": "nl", "name": "Domino's Pizza Raalte", "website": "https://www.dominos.nl/winkel/nl-raalte-30833", "brand": "Dominos Pizza Netherlands"}, "geometry": {"type": "Point", "coordinates": [6.27461, 52.38446]}},
{"type": "Feature", "id": "Zm9VEqnCmLQVvSGLSSvls2dXZkE=", "properties": {"ref": "nl-rijssen-30799", "@spider": "dominos_pizza_nl", "addr:full": "Hoge Pad 1-70", "addr:city": "Rijssen", "addr:postcode": "7462TA", "addr:country": "nl", "name": "Domino's Pizza Rijssen", "website": "https://www.dominos.nl/winkel/nl-rijssen-30799", "brand": "Dominos Pizza Netherlands"}, "geometry": {"type": "Point", "coordinates": [6.518285, 52.306686]}},
{"type": "Feature", "id": "g782svWrMTVSESWcEWfJ_q5ezqA=", "properties": {"ref": "nl-schijndel-30839", "@spider": "dominos_pizza_nl", "addr:full": "Markt 5", "addr:city": "SCHIJNDEL", "addr:postcode": "5482NE", "addr:country": "nl", "name": "Domino's Pizza Schijndel", "website": "https://www.dominos.nl/winkel/nl-schijndel-30839", "brand": "Dominos Pizza Netherlands"}, "geometry": {"type": "Point", "coordinates": [5.434202, 51.619183]}},
{"type": "Feature", "id": "3RLT-LJqNRPvMJLRHs-vXpC5ZzM=", "properties": {"ref": "nl-rosmalen-30746", "@spider": "dominos_pizza_nl", "addr:full": "Oude Baan 7", "addr:city": "Rosmalen", "addr:postcode": "5242 HT", "addr:country": "nl", "name": "Domino's Pizza Rosmalen", "website": "https://www.dominos.nl/winkel/nl-rosmalen-30746", "brand": "Dominos Pizza Netherlands"}, "geometry": {"type": "Point", "coordinates": [5.363911, 51.708265]}},
{"type": "Feature", "id": "6sFQtugpwoXBy_WFyQ4MhP1OeCw=", "properties": {"ref": "nl-roosendaallindenburg-30853", "@spider": "dominos_pizza_nl", "addr:full": "Lindenburg 25", "addr:city": "ROOSENDAAL", "addr:postcode": "4707CR", "addr:country": "nl", "name": "Domino's Pizza Roosendaal Lindenburg", "website": "https://www.dominos.nl/winkel/nl-roosendaallindenburg-30853", "brand": "Dominos Pizza Netherlands"}, "geometry": {"type": "Point", "coordinates": [4.47296, 51.520535]}},
{"type": "Feature", "id": "o_4Ib2-BAAcpnzf0SF32bN3Zk2I=", "properties": {"ref": "nl-roosendaal-30562", "@spider": "dominos_pizza_nl", "addr:full": "Boulevard 8", "addr:city": "ROOSENDAAL", "addr:postcode": "4701EV", "addr:country": "nl", "name": "Domino's Pizza Roosendaal", "website": "https://www.dominos.nl/winkel/nl-roosendaal-30562", "brand": "Dominos Pizza Netherlands"}, "geometry": {"type": "Point", "coordinates": [4.464375, 51.535963]}},
{"type": "Feature", "id": "pJ8Mmh-E5WgMFfFnqxcK0kbYSnE=", "properties": {"ref": "nl-raamsdonksveer-30802", "@spider": "dominos_pizza_nl", "addr:full": "Keizersdijk 22", "addr:city": "Raamsdonksveer", "addr:postcode": "4941GE", "addr:country": "nl", "name": "Domino's Pizza Raamsdonksveer", "website": "https://www.dominos.nl/winkel/nl-raamsdonksveer-30802", "brand": "Dominos Pizza Netherlands"}, "geometry": {"type": "Point", "coordinates": [4.874046, 51.697205]}},
{"type": "Feature", "id": "OhaPJaTBGeRIqSOSXgUUtL57KP4=", "properties": {"ref": "nl-terneuzen-30642", "@spider": "dominos_pizza_nl", "addr:full": "Axelsestraat 68", "addr:city": "TERNEUZEN", "addr:postcode": "4537AL", "addr:country": "nl", "name": "Domino's Pizza Terneuzen", "website": "https://www.dominos.nl/winkel/nl-terneuzen-30642", "brand": "Dominos Pizza Netherlands"}, "geometry": {"type": "Point", "coordinates": [3.833193, 51.331377]}},
{"type": "Feature", "id": "UG83YK2PVWzdZTs2VW8gDZXddk0=", "properties": {"ref": "nl-amsterdambosenlommerweg-30585", "@spider": "dominos_pizza_nl", "addr:full": "Bos En Lommerweg 215", "addr:city": "AMSTERDAM", "addr:postcode": "1055DT", "addr:country": "nl", "name": "Domino's Pizza Amsterdam Bos en Lommerweg", "website": "https://www.dominos.nl/winkel/nl-amsterdambosenlommerweg-30585", "brand": "Dominos Pizza Netherlands"}, "geometry": {"type": "Point", "coordinates": [4.851752, 52.378869]}},
{"type": "Feature", "id": "8mU27-TWncCatXYP0tENeQ3sBBk=", "properties": {"ref": "nl-oosterhout-30575", "@spider": "dominos_pizza_nl", "addr:full": "Heuveleind 13", "addr:city": "OOSTERHOUT", "addr:postcode": "4901LL", "addr:country": "nl", "name": "Domino's Pizza Oosterhout", "website": "https://www.dominos.nl/winkel/nl-oosterhout-30575", "brand": "Dominos Pizza Netherlands"}, "geometry": {"type": "Point", "coordinates": [4.855222, 51.643297]}},
{"type": "Feature", "id": "wn2nSekMtfknl76DHCKp1335NSU=", "properties": {"ref": "nl-ossklaphekkenstraat-30579", "@spider": "dominos_pizza_nl", "addr:full": "Klaphekkenstraat 5A", "addr:city": "OSS", "addr:postcode": "5341CH", "addr:country": "nl", "name": "Domino's Pizza Oss Klaphekkenstraat", "website": "https://www.dominos.nl/winkel/nl-ossklaphekkenstraat-30579", "brand": "Dominos Pizza Netherlands"}, "geometry": {"type": "Point", "coordinates": [5.528446, 51.768864]}},
{"type": "Feature", "id": "0HOir_O5qEkQ1729Ia6zvnYRrxU=", "properties": {"ref": "nl-ossschaepmanlaan-30761", "@spider": "dominos_pizza_nl", "addr:full": "Schaepmanlaan 87A", "addr:city": "OSS", "addr:postcode": "5344BB", "addr:country": "nl", "name": "Domino's Pizza Oss Schaepmanlaan", "website": "https://www.dominos.nl/winkel/nl-ossschaepmanlaan-30761", "brand": "Dominos Pizza Netherlands"}, "geometry": {"type": "Point", "coordinates": [5.500887, 51.75267]}},
{"type": "Feature", "id": "a7uGlApvSrPKyuCcddBGvwGcO0c=", "properties": {"ref": "nl-sintwillebrord-30842", "@spider": "dominos_pizza_nl", "addr:full": "Kievitstraat 23", "addr:city": "Sint Willebrord", "addr:postcode": "4711KH", "addr:country": "nl", "name": "Domino's Pizza Sint Willebrord", "website": "https://www.dominos.nl/winkel/nl-sintwillebrord-30842", "brand": "Dominos Pizza Netherlands"}, "geometry": {"type": "Point", "coordinates": [4.59035, 51.54595]}},
{"type": "Feature", "id": "gGwOweTuqMASoIRIeqAr1tqC3TA=", "properties": {"ref": "nl-nuenen-30787", "@spider": "dominos_pizza_nl", "addr:full": "Parkhof 24", "addr:city": "Nuenen", "addr:postcode": "5671EX", "addr:country": "nl", "name": "Domino's Pizza Nuenen", "website": "https://www.dominos.nl/winkel/nl-nuenen-30787", "brand": "Dominos Pizza Netherlands"}, "geometry": {"type": "Point", "coordinates": [5.545591, 51.473337]}},
{"type": "Feature", "id": "qG9oitigaWMYpMkE9VpYB9kEECw=", "properties": {"ref": "nl-hoogerheide-30886", "@spider": "dominos_pizza_nl", "addr:full": "Raadhuisstraat 133", "addr:city": "Hoogerheide", "addr:postcode": "4631ND", "addr:country": "nl", "name": "Domino's Pizza Hoogerheide", "website": "https://www.dominos.nl/winkel/nl-hoogerheide-30886", "brand": "Dominos Pizza Netherlands"}, "geometry": {"type": "Point", "coordinates": [4.32353, 51.42303]}},
{"type": "Feature", "id": "f_vqoeaHdKfu4TZHowxz-9nFTJk=", "properties": {"ref": "nl-helmondkoninginnewal-30561", "@spider": "dominos_pizza_nl", "addr:full": "Noord Koninginnewal 23", "addr:city": "HELMOND", "addr:postcode": "5701NJ", "addr:country": "nl", "name": "Domino's Pizza Helmond Koninginnewal", "website": "https://www.dominos.nl/winkel/nl-helmondkoninginnewal-30561", "brand": "Dominos Pizza Netherlands"}, "geometry": {"type": "Point", "coordinates": [5.657519, 51.479672]}},
{"type": "Feature", "id": "h9ZJxSggc2Wz5gRydfxw137Q1Vg=", "properties": {"ref": "nl-kaatsheuvel-30855", "@spider": "dominos_pizza_nl", "addr:full": "Anton Pieckplein 117B", "addr:city": "KAATSHEUVEL", "addr:postcode": "5171CV", "addr:country": "nl", "name": "Domino's Pizza Kaatsheuvel", "website": "https://www.dominos.nl/winkel/nl-kaatsheuvel-30855", "brand": "Dominos Pizza Netherlands"}, "geometry": {"type": "Point", "coordinates": [5.03192, 51.65994]}},
{"type": "Feature", "id": "OILMItQ6KdYFeFHZlQg7MTxuz9M=", "properties": {"ref": "nl-goirle-30909", "@spider": "dominos_pizza_nl", "addr:full": "Kloosterplein 1", "addr:city": "GOIRLE", "addr:postcode": "5051AR", "addr:country": "nl", "name": "Domino's Pizza Goirle", "website": "https://www.dominos.nl/winkel/nl-goirle-30909", "brand": "Dominos Pizza Netherlands"}, "geometry": {"type": "Point", "coordinates": [5.06705, 51.52009]}},
{"type": "Feature", "id": "uz793uzJjsajQqWTESiW6nFOsX8=", "properties": {"ref": "nl-made-30911", "@spider": "dominos_pizza_nl", "addr:full": "Marktstraat 2", "addr:city": "Made", "addr:postcode": "4921 BG", "addr:country": "nl", "name": "Domino's Pizza Made", "website": "https://www.dominos.nl/winkel/nl-made-30911", "brand": "Dominos Pizza Netherlands"}, "geometry": {"type": "Point", "coordinates": [4.79329, 51.67747]}},
{"type": "Feature", "id": "vNINrZMYdo2OnIiw1qjWALJm8Kc=", "properties": {"ref": "nl-geldrop-30688", "@spider": "dominos_pizza_nl", "addr:full": "Dommeldalseweg 2B", "addr:city": "GELDROP", "addr:postcode": "5664RP", "addr:country": "nl", "name": "Domino's Pizza Geldrop", "website": "https://www.dominos.nl/winkel/nl-geldrop-30688", "brand": "Dominos Pizza Netherlands"}, "geometry": {"type": "Point", "coordinates": [5.561419, 51.421412]}},
{"type": "Feature", "id": "TpbDbTuglt6lQrz4_ZJfCwdLm58=", "properties": {"ref": "nl-drunen-30899", "@spider": "dominos_pizza_nl", "addr:full": "Grotestraat 145", "addr:city": "DRUNEN", "addr:postcode": "5151BK", "addr:country": "nl", "name": "Domino's Pizza Drunen", "website": "https://www.dominos.nl/winkel/nl-drunen-30899", "brand": "Dominos Pizza Netherlands"}, "geometry": {"type": "Point", "coordinates": [5.13381, 51.68617]}},
{"type": "Feature", "id": "ccHFbCy5SSXUbYxshcl9iXeXIDg=", "properties": {"ref": "nl-helmondbrandevoort-30706", "@spider": "dominos_pizza_nl", "addr:full": "De Plaetse 91", "addr:city": "HELMOND", "addr:postcode": "5708ZK", "addr:country": "nl", "name": "Domino's Pizza Helmond Brandevoort", "website": "https://www.dominos.nl/winkel/nl-helmondbrandevoort-30706", "brand": "Dominos Pizza Netherlands"}, "geometry": {"type": "Point", "coordinates": [5.610768, 51.459165]}},
{"type": "Feature", "id": "LcTavJo9PUIMPOJsmhusVhrsPpc=", "properties": {"ref": "nl-oisterwijk-30737", "@spider": "dominos_pizza_nl", "addr:full": "Dorpsstraat 11H", "addr:city": "Oisterwijk", "addr:postcode": "5061HH", "addr:country": "nl", "name": "Domino's Pizza Oisterwijk", "website": "https://www.dominos.nl/winkel/nl-oisterwijk-30737", "brand": "Dominos Pizza Netherlands"}, "geometry": {"type": "Point", "coordinates": [5.192326, 51.580479]}},
{"type": "Feature", "id": "1c3awx-rw7BAcXCl4MYgqIJ86C0=", "properties": {"ref": "nl-sonenbreugel-30857", "@spider": "dominos_pizza_nl", "addr:full": "Raadhuisplein 2", "addr:city": "SON EN BREUGEL", "addr:postcode": "5691AM", "addr:country": "nl", "name": "Domino's Pizza Son en Breugel", "website": "https://www.dominos.nl/winkel/nl-sonenbreugel-30857", "brand": "Dominos Pizza Netherlands"}, "geometry": {"type": "Point", "coordinates": [5.49152, 51.51014]}},
{"type": "Feature", "id": "mT5pwHLPOs2cVBmCXguAOOvFrzE=", "properties": {"ref": "nl-denboschempel-30653", "@spider": "dominos_pizza_nl", "addr:full": "Burg.Godschalxstraat 42", "addr:city": "DEN BOSCH", "addr:postcode": "5236AC", "addr:country": "nl", "name": "Domino's Pizza Den Bosch Empel", "website": "https://www.dominos.nl/winkel/nl-denboschempel-30653", "brand": "Dominos Pizza Netherlands"}, "geometry": {"type": "Point", "coordinates": [5.325682, 51.730544]}},
{"type": "Feature", "id": "ZVdwJRXxBEYu9-Y0aAKi4B1IiOs=", "properties": {"ref": "nl-dongen-30695", "@spider": "dominos_pizza_nl", "addr:full": "Europaplein 53", "addr:city": "DONGEN", "addr:postcode": "5101VW", "addr:country": "nl", "name": "Domino's Pizza Dongen", "website": "https://www.dominos.nl/winkel/nl-dongen-30695", "brand": "Dominos Pizza Netherlands"}, "geometry": {"type": "Point", "coordinates": [4.921733, 51.627202]}},
{"type": "Feature", "id": "5wsme2jkRIzg8utHrtzCryDobR4=", "properties": {"ref": "nl-gemert-30859", "@spider": "dominos_pizza_nl", "addr:full": "Nieuwstraat 30B", "addr:city": "Gemert", "addr:postcode": "5421KP", "addr:country": "nl", "name": "Domino's Pizza Gemert", "website": "https://www.dominos.nl/winkel/nl-gemert-30859", "brand": "Dominos Pizza Netherlands"}, "geometry": {"type": "Point", "coordinates": [5.68194, 51.55733]}},
{"type": "Feature", "id": "4VpW_GMLasdpgYfFeTJ4IzILQZA=", "properties": {"ref": "nl-amsterdambuitenveldertzuidas-30681", "@spider": "dominos_pizza_nl", "addr:full": "A.J. Ernststraat 191", "addr:city": "AMSTERDAM", "addr:postcode": "1083GV", "addr:country": "nl", "name": "Domino's Pizza Amsterdam Buitenveldert (Zuidas)", "website": "https://www.dominos.nl/winkel/nl-amsterdambuitenveldertzuidas-30681", "brand": "Dominos Pizza Netherlands"}, "geometry": {"type": "Point", "coordinates": [4.883902, 52.331934]}},
{"type": "Feature", "id": "WgAvKM669XIaUsS3lopSuJpfZpw=", "properties": {"ref": "nl-amsterdamceintuurbaan-30578", "@spider": "dominos_pizza_nl", "addr:full": "Ceintuurbaan 314", "addr:city": "AMSTERDAM", "addr:postcode": "1072GL", "addr:country": "nl", "name": "Domino's Pizza Amsterdam Ceintuurbaan", "website": "https://www.dominos.nl/winkel/nl-amsterdamceintuurbaan-30578", "brand": "Dominos Pizza Netherlands"}, "geometry": {"type": "Point", "coordinates": [4.89286, 52.352801]}},
{"type": "Feature", "id": "3k4X2bBShadXN3eH28_taCyqk9E=", "properties": {"ref": "nl-cuijk-30821", "@spider": "dominos_pizza_nl", "addr:full": "Vorstendom 2-14/15", "addr:city": "Cuijk", "addr:postcode": "5431 DD", "addr:country": "nl", "name": "Domino's Pizza Cuijk", "website": "https://www.dominos.nl/winkel/nl-cuijk-30821", "brand": "Dominos Pizza Netherlands"}, "geometry": {"type": "Point", "coordinates": [5.88068, 51.731138]}},
{"type": "Feature", "id": "rglQ3BgCYLFOjS1g0QL1IGxbYJA=", "properties": {"ref": "nl-denbosch-30589", "@spider": "dominos_pizza_nl", "addr:full": "Leonardo Da Vinciplein 44", "addr:city": "Den Bosch", "addr:postcode": "5223DR", "addr:country": "nl", "name": "Domino's Pizza Den Bosch", "website": "https://www.dominos.nl/winkel/nl-denbosch-30589", "brand": "Dominos Pizza Netherlands"}, "geometry": {"type": "Point", "coordinates": [5.291909, 51.691224]}},
{"type": "Feature", "id": "nMSX94Z-q2aIJLori1I-rWhoJh0=", "properties": {"ref": "nl-best-30725", "@spider": "dominos_pizza_nl", "addr:full": "Nieuwstraat 65", "addr:city": "Best", "addr:postcode": "5683KB", "addr:country": "nl", "name": "Domino's Pizza Best", "website": "https://www.dominos.nl/winkel/nl-best-30725", "brand": "Dominos Pizza Netherlands"}, "geometry": {"type": "Point", "coordinates": [5.398615, 51.515261]}},
{"type": "Feature", "id": "RRTPzASEuPVknJ65rxP-NJrYHj4=", "properties": {"ref": "nl-denboschvanruusbroecstraat-30896", "@spider": "dominos_pizza_nl", "addr:full": "Van Ruusbroecstraat 65", "addr:city": "Den Bosch", "addr:postcode": "5216HZ", "addr:country": "nl", "name": "Domino's Pizza Den Bosch Van Ruusbroecstraat", "website": "https://www.dominos.nl/winkel/nl-denboschvanruusbroecstraat-30896", "brand": "Dominos Pizza Netherlands"}, "geometry": {"type": "Point", "coordinates": [5.3243, 51.684761]}},
{"type": "Feature", "id": "noEZEGY-Y7oJaTStNp26w2-lcos=", "properties": {"ref": "nl-deurne-30762", "@spider": "dominos_pizza_nl", "addr:full": "Molenstraat 9", "addr:city": "Deurne", "addr:postcode": "5751LA", "addr:country": "nl", "name": "Domino's Pizza Deurne", "website": "https://www.dominos.nl/winkel/nl-deurne-30762", "brand": "Dominos Pizza Netherlands"}, "geometry": {"type": "Point", "coordinates": [5.795767, 51.463648]}},
{"type": "Feature", "id": "SHgcCsX2ABLYXtdKIatkOjBJBbk=", "properties": {"ref": "nl-lelystad-30647", "@spider": "dominos_pizza_nl", "addr:full": "Weverstraat 26A", "addr:city": "LELYSTAD", "addr:postcode": "8223AC", "addr:country": "nl", "name": "Domino's Pizza Lelystad", "website": "https://www.dominos.nl/winkel/nl-lelystad-30647", "brand": "Dominos Pizza Netherlands"}, "geometry": {"type": "Point", "coordinates": [5.482975, 52.519775]}},
{"type": "Feature", "id": "jQvMpiGlx-vOBAJqao5DAffhyD0=", "properties": {"ref": "nl-lelystadvoorstraat-30877", "@spider": "dominos_pizza_nl", "addr:full": "Voorstraat 285", "addr:city": "LELYSTAD", "addr:postcode": "8226HD", "addr:country": "nl", "name": "Domino's Pizza Lelystad Voorstraat", "website": "https://www.dominos.nl/winkel/nl-lelystadvoorstraat-30877", "brand": "Dominos Pizza Netherlands"}, "geometry": {"type": "Point", "coordinates": [5.49085, 52.49416]}},
{"type": "Feature", "id": "Y4j6Bx8bI4E3AK6LgmwP4Egbk2s=", "properties": {"ref": "nl-beekendonk-30858", "@spider": "dominos_pizza_nl", "addr:full": "Koppelstraat 70", "addr:city": "Beek en Donk", "addr:postcode": "5741GD", "addr:country": "nl", "name": "Domino's Pizza Beek en Donk", "website": "https://www.dominos.nl/winkel/nl-beekendonk-30858", "brand": "Dominos Pizza Netherlands"}, "geometry": {"type": "Point", "coordinates": [5.63055, 51.53832]}},
{"type": "Feature", "id": "UvV6bvN2yDfd3NSq3lMFvRfFkbo=", "properties": {"ref": "nl-bergenopzoom-30576", "@spider": "dominos_pizza_nl", "addr:full": "Antwerpsestraat 2", "addr:city": "BERGEN OP ZOOM", "addr:postcode": "4611AG", "addr:country": "nl", "name": "Domino's Pizza Bergen op Zoom", "website": "https://www.dominos.nl/winkel/nl-bergenopzoom-30576", "brand": "Dominos Pizza Netherlands"}, "geometry": {"type": "Point", "coordinates": [4.287777, 51.492041]}},
{"type": "Feature", "id": "MVb9nIq_dag1GG2lHtn1lIglgmk=", "properties": {"ref": "nl-bergenopzoomvogelaar-30868", "@spider": "dominos_pizza_nl", "addr:full": "Vogelaar 26", "addr:city": "BERGEN OP ZOOM", "addr:postcode": "4617LG", "addr:country": "nl", "name": "Domino's Pizza Bergen op Zoom Vogelaar", "website": "https://www.dominos.nl/winkel/nl-bergenopzoomvogelaar-30868", "brand": "Dominos Pizza Netherlands"}, "geometry": {"type": "Point", "coordinates": [4.28166, 51.48009]}},
{"type": "Feature", "id": "F_kPAUQ9wrO0i07MRtJ46oIxAMQ=", "properties": {"ref": "nl-zaandam-30675", "@spider": "dominos_pizza_nl", "addr:full": "Rozengracht 69", "addr:city": "ZAANDAM", "addr:postcode": "1506SH", "addr:country": "nl", "name": "Domino's Pizza Zaandam", "website": "https://www.dominos.nl/winkel/nl-zaandam-30675", "brand": "Dominos Pizza Netherlands"}, "geometry": {"type": "Point", "coordinates": [4.81872, 52.4382]}},
{"type": "Feature", "id": "_ZqGGJlPllMfeunvF8LxD0iSzoU=", "properties": {"ref": "nl-dronten-30828", "@spider": "dominos_pizza_nl", "addr:full": "De Helling 9", "addr:city": "Dronten", "addr:postcode": "8251GH", "addr:country": "nl", "name": "Domino's Pizza Dronten", "website": "https://www.dominos.nl/winkel/nl-dronten-30828", "brand": "Dominos Pizza Netherlands"}, "geometry": {"type": "Point", "coordinates": [5.718306, 52.526014]}},
{"type": "Feature", "id": "-iccj2L2myjJXR8CuZwufNrTcy4=", "properties": {"ref": "nl-purmerend-30657", "@spider": "dominos_pizza_nl", "addr:full": "Wormerplein 89", "addr:city": "PURMEREND", "addr:postcode": "1442CD", "addr:country": "nl", "name": "Domino's Pizza Purmerend", "website": "https://www.dominos.nl/winkel/nl-purmerend-30657", "brand": "Dominos Pizza Netherlands"}, "geometry": {"type": "Point", "coordinates": [4.958783, 52.51268]}},
{"type": "Feature", "id": "ya0D2cVDqp8j05caREcPnCCI1vw=", "properties": {"ref": "nl-nieuwvennep-30773", "@spider": "dominos_pizza_nl", "addr:full": "Schoolstraat 7A", "addr:city": "NIEUW-VENNEP", "addr:postcode": "2151AA", "addr:country": "nl", "name": "Domino's Pizza Nieuw-Vennep", "website": "https://www.dominos.nl/winkel/nl-nieuwvennep-30773", "brand": "Dominos Pizza Netherlands"}, "geometry": {"type": "Point", "coordinates": [4.63297, 52.26497]}},
{"type": "Feature", "id": "lKwODhGdj6tob1GvGTOD0r29wnI=", "properties": {"ref": "nl-schagen-30743", "@spider": "dominos_pizza_nl", "addr:full": "Nieuwstraat 1A", "addr:city": "Schagen", "addr:postcode": "1741BT", "addr:country": "nl", "name": "Domino's Pizza Schagen", "website": "https://www.dominos.nl/winkel/nl-schagen-30743", "brand": "Dominos Pizza Netherlands"}, "geometry": {"type": "Point", "coordinates": [4.79674, 52.7871]}},
{"type": "Feature", "id": "rmYYIBCBRwO6KZJxTKG349yB-8M=", "properties": {"ref": "nl-volendam-30813", "@spider": "dominos_pizza_nl", "addr:full": "Zeestraat 8C", "addr:city": "Volendam", "addr:postcode": "1131ZE", "addr:country": "nl", "name": "Domino's Pizza Volendam", "website": "https://www.dominos.nl/winkel/nl-volendam-30813", "brand": "Dominos Pizza Netherlands"}, "geometry": {"type": "Point", "coordinates": [5.073258, 52.494223]}},
{"type": "Feature", "id": "ua25bEN6iOG5wivXQPfUpYRnlJ4=", "properties": {"ref": "nl-wormerveer-30774", "@spider": "dominos_pizza_nl", "addr:full": "Stationstraat 4B", "addr:city": "Wormerveer", "addr:postcode": "1521 DT", "addr:country": "nl", "name": "Domino's Pizza Wormerveer", "website": "https://www.dominos.nl/winkel/nl-wormerveer-30774", "brand": "Dominos Pizza Netherlands"}, "geometry": {"type": "Point", "coordinates": [4.793077, 52.489913]}},
{"type": "Feature", "id": "g9rtog_U_swPDvk56aHK6T-SerQ=", "properties": {"ref": "nl-emmeloord-30795", "@spider": "dominos_pizza_nl", "addr:full": "Noordzijde 16A", "addr:city": "Emmeloord", "addr:postcode": "8302GL", "addr:country": "nl", "name": "Domino's Pizza Emmeloord", "website": "https://www.dominos.nl/winkel/nl-emmeloord-30795", "brand": "Dominos Pizza Netherlands"}, "geometry": {"type": "Point", "coordinates": [5.754228, 52.71187]}},
{"type": "Feature", "id": "7Gagj4x22NjhiPh3ZVZrHjbGzOU=", "properties": {"ref": "nl-bladel-30885", "@spider": "dominos_pizza_nl", "addr:full": "Sniederslaan 53A", "addr:city": "Bladel", "addr:postcode": "5531EH", "addr:country": "nl", "name": "Domino's Pizza Bladel", "website": "https://www.dominos.nl/winkel/nl-bladel-30885", "brand": "Dominos Pizza Netherlands"}, "geometry": {"type": "Point", "coordinates": [5.22097, 51.36766]}},
{"type": "Feature", "id": "GkmKMWFySWRIdOyWO7ylyA58Wt4=", "properties": {"ref": "nl-boxtel-30726", "@spider": "dominos_pizza_nl", "addr:full": "Stationplein 16", "addr:city": "Boxtel", "addr:postcode": "5281gh", "addr:country": "nl", "name": "Domino's Pizza Boxtel", "website": "https://www.dominos.nl/winkel/nl-boxtel-30726", "brand": "Dominos Pizza Netherlands"}, "geometry": {"type": "Point", "coordinates": [5.318935, 51.585401]}},
{"type": "Feature", "id": "hJfmHfFf_lftgQ4c78Yddd7JTkY=", "properties": {"ref": "nl-ettenleur-30608", "@spider": "dominos_pizza_nl", "addr:full": "Markt 99B", "addr:city": "ETTEN LEUR", "addr:postcode": "4875CD", "addr:country": "nl", "name": "Domino's Pizza Etten Leur", "website": "https://www.dominos.nl/winkel/nl-ettenleur-30608", "brand": "Dominos Pizza Netherlands"}, "geometry": {"type": "Point", "coordinates": [4.632978, 51.572922]}},
{"type": "Feature", "id": "aEQ5SifsQNj7jWMeQHolBcEoB5g=", "properties": {"ref": "nl-ijmuiden-30651", "@spider": "dominos_pizza_nl", "addr:full": "Kennemerlaan 77", "addr:city": "IJMUIDEN", "addr:postcode": "1972EJ", "addr:country": "nl", "name": "Domino's Pizza IJmuiden", "website": "https://www.dominos.nl/winkel/nl-ijmuiden-30651", "brand": "Dominos Pizza Netherlands"}, "geometry": {"type": "Point", "coordinates": [4.607841, 52.460512]}},
{"type": "Feature", "id": "YlnLUnvwg3YSdnGtptBWMNhFRQ0=", "properties": {"ref": "nl-hoofddorpalmkerkpleinfloriande-30633", "@spider": "dominos_pizza_nl", "addr:full": "Almkerkplein 2", "addr:city": "HOOFDDORP", "addr:postcode": "2134DR", "addr:country": "nl", "name": "Domino's Pizza Hoofddorp - Almkerkplein - Floriande", "website": "https://www.dominos.nl/winkel/nl-hoofddorpalmkerkpleinfloriande-30633", "brand": "Dominos Pizza Netherlands"}, "geometry": {"type": "Point", "coordinates": [4.639715, 52.307458]}},
{"type": "Feature", "id": "LMMwqgWbTvQR703C5fowdbn-JYI=", "properties": {"ref": "nl-heerhugowaard-30652", "@spider": "dominos_pizza_nl", "addr:full": "Raadhuisstraat 14", "addr:city": "HEERHUGOWAARD", "addr:postcode": "1701EK", "addr:country": "nl", "name": "Domino's Pizza Heerhugowaard", "website": "https://www.dominos.nl/winkel/nl-heerhugowaard-30652", "brand": "Dominos Pizza Netherlands"}, "geometry": {"type": "Point", "coordinates": [4.844694, 52.670032]}},
{"type": "Feature", "id": "vPMlyc2ZBylJKYGXb7D12wfr9M8=", "properties": {"ref": "nl-heemstede-30752", "@spider": "dominos_pizza_nl", "addr:full": "Binnenweg 181", "addr:city": "HEEMSTEDE", "addr:postcode": "2101JJ", "addr:country": "nl", "name": "Domino's Pizza Heemstede", "website": "https://www.dominos.nl/winkel/nl-heemstede-30752", "brand": "Dominos Pizza Netherlands"}, "geometry": {"type": "Point", "coordinates": [4.621109, 52.35589]}},
{"type": "Feature", "id": "v78IFa9YwjOiH37KNyuylwd9FdY=", "properties": {"ref": "nl-hilversum-30564", "@spider": "dominos_pizza_nl", "addr:full": "Havenstraat 12", "addr:city": "HILVERSUM", "addr:postcode": "1211KL", "addr:country": "nl", "name": "Domino's Pizza Hilversum", "website": "https://www.dominos.nl/winkel/nl-hilversum-30564", "brand": "Dominos Pizza Netherlands"}, "geometry": {"type": "Point", "coordinates": [5.168996, 52.222206]}},
{"type": "Feature", "id": "6xh1WfH49fskyqql8yXB7AjjgaY=", "properties": {"ref": "nl-haarlemtesselschadeplein-30600", "@spider": "dominos_pizza_nl", "addr:full": "Tesselschadeplein 1", "addr:city": "HAARLEM", "addr:postcode": "2026SV", "addr:country": "nl", "name": "Domino's Pizza Haarlem  - Tesselschadeplein", "website": "https://www.dominos.nl/winkel/nl-haarlemtesselschadeplein-30600", "brand": "Dominos Pizza Netherlands"}, "geometry": {"type": "Point", "coordinates": [4.649607, 52.416856]}},
{"type": "Feature", "id": "vBggY7fusIwoV9u4Yb2bM1UESJg=", "properties": {"ref": "nl-heemskerk-30662", "@spider": "dominos_pizza_nl", "addr:full": "Bachplein 21", "addr:city": "HEEMSKERK", "addr:postcode": "1962CE", "addr:country": "nl", "name": "Domino's Pizza Heemskerk", "website": "https://www.dominos.nl/winkel/nl-heemskerk-30662", "brand": "Dominos Pizza Netherlands"}, "geometry": {"type": "Point", "coordinates": [4.672053, 52.514828]}},
{"type": "Feature", "id": "bXyHsE1fJA2o3scSsd2qskXM0Mc=", "properties": {"ref": "nl-haarlemgedempteoudegracht-30754", "@spider": "dominos_pizza_nl", "addr:full": "Gedempte Oude Gracht 116 Zw", "addr:city": "Haarlem", "addr:postcode": "2011 GW", "addr:country": "nl", "name": "Domino's Pizza Haarlem  - Gedempte Oude Gracht", "website": "https://www.dominos.nl/winkel/nl-haarlemgedempteoudegracht-30754", "brand": "Dominos Pizza Netherlands"}, "geometry": {"type": "Point", "coordinates": [4.635197, 52.378206]}},
{"type": "Feature", "id": "GuKiCW0df2MPlT6t-qmazIBzdWA=", "properties": {"ref": "nl-hoofddorpmarktpleincentrum-30918", "@spider": "dominos_pizza_nl", "addr:full": "Marktplein 102", "addr:city": "HOOFDDORP", "addr:postcode": "2132DD", "addr:country": "nl", "name": "Domino's Pizza Hoofddorp - Marktplein - Centrum", "website": "https://www.dominos.nl/winkel/nl-hoofddorpmarktpleincentrum-30918", "brand": "Dominos Pizza Netherlands"}, "geometry": {"type": "Point", "coordinates": [4.692804, 52.304156]}},
{"type": "Feature", "id": "hpuSGAXIH5qdXlimt1tsjsO2SjY=", "properties": {"ref": "nl-diemen-30630", "@spider": "dominos_pizza_nl", "addr:full": "Burgemeester De Kievietstraat 13", "addr:city": "DIEMEN", "addr:postcode": "1111GJ", "addr:country": "nl", "name": "Domino's Pizza Diemen", "website": "https://www.dominos.nl/winkel/nl-diemen-30630", "brand": "Dominos Pizza Netherlands"}, "geometry": {"type": "Point", "coordinates": [4.963112, 52.338792]}},
{"type": "Feature", "id": "MG-PeTpzKXXs1HeA2EDmuVHeyNc=", "properties": {"ref": "nl-hoogkarspel-30930", "@spider": "dominos_pizza_nl", "addr:full": "Raadhuisplein 45", "addr:city": "Hoogkarspel", "addr:postcode": "1616 AV", "addr:country": "nl", "name": "Domino's Pizza Hoogkarspel", "website": "https://www.dominos.nl/winkel/nl-hoogkarspel-30930", "brand": "Dominos Pizza Netherlands"}, "geometry": {"type": "Point", "coordinates": [5.17735, 52.69514]}},
{"type": "Feature", "id": "hU70MHVED72EWpHPwREqxgDojHg=", "properties": {"ref": "nl-hoorn-30629", "@spider": "dominos_pizza_nl", "addr:full": "Veemarkt 45-47", "addr:city": "HOORN", "addr:postcode": "1621JB", "addr:country": "nl", "name": "Domino's Pizza Hoorn", "website": "https://www.dominos.nl/winkel/nl-hoorn-30629", "brand": "Dominos Pizza Netherlands"}, "geometry": {"type": "Point", "coordinates": [5.053015, 52.644081]}},
{"type": "Feature", "id": "2Cve2po0KbxkTGaZnVBYpwgkSqM=", "properties": {"ref": "nl-enkhuizen-30788", "@spider": "dominos_pizza_nl", "addr:full": "Venedie 11", "addr:city": "Enkhuizen", "addr:postcode": "1601HA", "addr:country": "nl", "name": "Domino's Pizza Enkhuizen", "website": "https://www.dominos.nl/winkel/nl-enkhuizen-30788", "brand": "Dominos Pizza Netherlands"}, "geometry": {"type": "Point", "coordinates": [5.29034, 52.70345]}},
{"type": "Feature", "id": "HcY7-67a2_RQ2aOkyT0kNyG5DMs=", "properties": {"ref": "nl-bussum-30625", "@spider": "dominos_pizza_nl", "addr:full": "De Clinge 1", "addr:city": "BUSSUM", "addr:postcode": "1401EV", "addr:country": "nl", "name": "Domino's Pizza Bussum", "website": "https://www.dominos.nl/winkel/nl-bussum-30625", "brand": "Dominos Pizza Netherlands"}, "geometry": {"type": "Point", "coordinates": [5.166535, 52.274235]}},
{"type": "Feature", "id": "591fXA9vgffVdw3KiGfX0p2p44Q=", "properties": {"ref": "nl-amsterdamslotermeerlaan-30876", "@spider": "dominos_pizza_nl", "addr:full": "Slotermeerlaan 105A", "addr:city": "AMSTERDAM", "addr:postcode": "1063JN", "addr:country": "nl", "name": "Domino's Pizza Amsterdam Slotermeerlaan", "website": "https://www.dominos.nl/winkel/nl-amsterdamslotermeerlaan-30876", "brand": "Dominos Pizza Netherlands"}, "geometry": {"type": "Point", "coordinates": [4.82024, 52.37985]}},
{"type": "Feature", "id": "CNS08dHXHVL8w9UOkOZqBo24CGw=", "properties": {"ref": "nl-assendelft-30919", "@spider": "dominos_pizza_nl", "addr:full": "Kaaikhof 23", "addr:city": "ASSENDELFT", "addr:postcode": "1567JP", "addr:country": "nl", "name": "Domino's Pizza Assendelft", "website": "https://www.dominos.nl/winkel/nl-assendelft-30919", "brand": "Dominos Pizza Netherlands"}, "geometry": {"type": "Point", "coordinates": [4.751743, 52.488286]}},
{"type": "Feature", "id": "gtWb4HCOY0TPqpmA5AulLopVO8I=", "properties": {"ref": "nl-denhelder-30644", "@spider": "dominos_pizza_nl", "addr:full": "Marsdiepstraat 172", "addr:city": "DEN HELDER", "addr:postcode": "1784AT", "addr:country": "nl", "name": "Domino's Pizza Den Helder", "website": "https://www.dominos.nl/winkel/nl-denhelder-30644", "brand": "Dominos Pizza Netherlands"}, "geometry": {"type": "Point", "coordinates": [4.742961, 52.945566]}},
{"type": "Feature", "id": "HOw-jsiRyBnF4PGJrzWQts9MUEM=", "properties": {"ref": "nl-alkmaarvondelstraat-30619", "@spider": "dominos_pizza_nl", "addr:full": "Vondelstraat 61", "addr:city": "ALKMAAR", "addr:postcode": "1813BA", "addr:country": "nl", "name": "Domino's Pizza Alkmaar Vondelstraat", "website": "https://www.dominos.nl/winkel/nl-alkmaarvondelstraat-30619", "brand": "Dominos Pizza Netherlands"}, "geometry": {"type": "Point", "coordinates": [4.747252, 52.619603]}},
{"type": "Feature", "id": "wMZgxE-D5dFbSaTz8ei6Tjh8rFA=", "properties": {"ref": "nl-alkmaareuropaboulevard-30760", "@spider": "dominos_pizza_nl", "addr:full": "Europaboulevard 55", "addr:city": "ALKMAAR", "addr:postcode": "1825RB", "addr:country": "nl", "name": "Domino's Pizza Alkmaar Europaboulevard", "website": "https://www.dominos.nl/winkel/nl-alkmaareuropaboulevard-30760", "brand": "Dominos Pizza Netherlands"}, "geometry": {"type": "Point", "coordinates": [4.75796, 52.654327]}},
{"type": "Feature", "id": "mA5UlpQPo6bn2xJNTduqQPlHuFM=", "properties": {"ref": "nl-aalsmeer-30755", "@spider": "dominos_pizza_nl", "addr:full": "Ophelialaan 94", "addr:city": "Aalsmeer", "addr:postcode": "1431 HL", "addr:country": "nl", "name": "Domino's Pizza Aalsmeer", "website": "https://www.dominos.nl/winkel/nl-aalsmeer-30755", "brand": "Dominos Pizza Netherlands"}, "geometry": {"type": "Point", "coordinates": [4.76067, 52.263767]}},
{"type": "Feature", "id": "_OitCG-JjcP_7tJWBfIct_d3uCQ=", "properties": {"ref": "nl-huizen-30781", "@spider": "dominos_pizza_nl", "addr:full": "Kerkstraat 14", "addr:city": "Huizen", "addr:postcode": "1271RL", "addr:country": "nl", "name": "Domino's Pizza Huizen", "website": "https://www.dominos.nl/winkel/nl-huizen-30781", "brand": "Dominos Pizza Netherlands"}, "geometry": {"type": "Point", "coordinates": [5.23299, 52.29738]}},
{"type": "Feature", "id": "TuHGXteunRewmxTlqAzGeyqgr3A=", "properties": {"ref": "nl-naarden-30823", "@spider": "dominos_pizza_nl", "addr:full": "E. De Bruijnstraat 25A", "addr:city": "NAARDEN", "addr:postcode": "1411SX", "addr:country": "nl", "name": "Domino's Pizza Naarden", "website": "https://www.dominos.nl/winkel/nl-naarden-30823", "brand": "Dominos Pizza Netherlands"}, "geometry": {"type": "Point", "coordinates": [5.146817, 52.298638]}},
{"type": "Feature", "id": "Eewe5QUjzzff9-75lJ2Z6dXIWpI=", "properties": {"ref": "nl-tegelen-30769", "@spider": "dominos_pizza_nl", "addr:full": "Raadhuislaan 156", "addr:city": "Tegelen", "addr:postcode": "5931NS", "addr:country": "nl", "name": "Domino's Pizza Tegelen", "website": "https://www.dominos.nl/winkel/nl-tegelen-30769", "brand": "Dominos Pizza Netherlands"}, "geometry": {"type": "Point", "coordinates": [6.141831, 51.340998]}},
{"type": "Feature", "id": "luBVZim0tj_whvVz5aihJlnmmzA=", "properties": {"ref": "nl-venlokoninginnesingelcentrum-30670", "@spider": "dominos_pizza_nl", "addr:full": "Koninginnesingel 80", "addr:city": "VENLO", "addr:postcode": "5911KG", "addr:country": "nl", "name": "Domino's Pizza Venlo - Koninginnesingel - Centrum", "website": "https://www.dominos.nl/winkel/nl-venlokoninginnesingelcentrum-30670", "brand": "Dominos Pizza Netherlands"}, "geometry": {"type": "Point", "coordinates": [6.17068, 51.366372]}},
{"type": "Feature", "id": "9pNUCDM_IJsMy6GfyThWlUpxfPs=", "properties": {"ref": "nl-amstelveen-30592", "@spider": "dominos_pizza_nl", "addr:full": "Hueseplein 4", "addr:city": "AMSTELVEEN", "addr:postcode": "1185HH", "addr:country": "nl", "name": "Domino's Pizza Amstelveen", "website": "https://www.dominos.nl/winkel/nl-amstelveen-30592", "brand": "Dominos Pizza Netherlands"}, "geometry": {"type": "Point", "coordinates": [4.854293, 52.296749]}},
{"type": "Feature", "id": "YxWtBNM2GgdnliBchA-Th4xguPE=", "properties": {"ref": "nl-venlowitherenstraatblerick-30814", "@spider": "dominos_pizza_nl", "addr:full": "Witherenstraat 2", "addr:city": "VENLO", "addr:postcode": "5921GC", "addr:country": "nl", "name": "Domino's Pizza Venlo - Witherenstraat \u2013 Blerick", "website": "https://www.dominos.nl/winkel/nl-venlowitherenstraatblerick-30814", "brand": "Dominos Pizza Netherlands"}, "geometry": {"type": "Point", "coordinates": [6.150601, 51.367166]}},
{"type": "Feature", "id": "AN7VvqHu5Woi1cfRrxKY7OmRzQ0=", "properties": {"ref": "nl-venray-30703", "@spider": "dominos_pizza_nl", "addr:full": "Julianasingel 8D", "addr:city": "Venray", "addr:postcode": "5802av", "addr:country": "nl", "name": "Domino's Pizza Venray", "website": "https://www.dominos.nl/winkel/nl-venray-30703", "brand": "Dominos Pizza Netherlands"}, "geometry": {"type": "Point", "coordinates": [5.97693, 51.527014]}},
{"type": "Feature", "id": "L1HCiM9Bz7LnREvNJ9dK0kud-hk=", "properties": {"ref": "nl-maastrichthoenderstraat-30834", "@spider": "dominos_pizza_nl", "addr:full": "Hoenderstraat 20", "addr:city": "MAASTRICHT", "addr:postcode": "6211EM", "addr:country": "nl", "name": "Domino's Pizza Maastricht Hoenderstraat", "website": "https://www.dominos.nl/winkel/nl-maastrichthoenderstraat-30834", "brand": "Dominos Pizza Netherlands"}, "geometry": {"type": "Point", "coordinates": [5.69307, 50.85126]}},
{"type": "Feature", "id": "JMhqAHl_4fV_Y8wpyMhBDuNKoqo=", "properties": {"ref": "nl-roermond-30687", "@spider": "dominos_pizza_nl", "addr:full": "Stationsplein 14", "addr:city": "ROERMOND", "addr:postcode": "6041GN", "addr:country": "nl", "name": "Domino's Pizza Roermond", "website": "https://www.dominos.nl/winkel/nl-roermond-30687", "brand": "Dominos Pizza Netherlands"}, "geometry": {"type": "Point", "coordinates": [5.992087, 51.193277]}},
{"type": "Feature", "id": "2g_X_hpqnUSqk5BaaaMOjkBwRkA=", "properties": {"ref": "nl-maastrichtamby-30740", "@spider": "dominos_pizza_nl", "addr:full": "Ambyerstraat Noord 46", "addr:city": "Maastricht", "addr:postcode": "6225 EE", "addr:country": "nl", "name": "Domino's Pizza Maastricht Amby", "website": "https://www.dominos.nl/winkel/nl-maastrichtamby-30740", "brand": "Dominos Pizza Netherlands"}, "geometry": {"type": "Point", "coordinates": [5.732566, 50.863246]}},
{"type": "Feature", "id": "MInN9tHB-VrW-OAGfkNO2MBFw1c=", "properties": {"ref": "nl-kerkradetheaterplein-30835", "@spider": "dominos_pizza_nl", "addr:full": "Theaterplein 1", "addr:city": "Kerkrade", "addr:postcode": "6461DT", "addr:country": "nl", "name": "Domino's Pizza Kerkrade Theaterplein", "website": "https://www.dominos.nl/winkel/nl-kerkradetheaterplein-30835", "brand": "Dominos Pizza Netherlands"}, "geometry": {"type": "Point", "coordinates": [6.06343, 50.86635]}},
{"type": "Feature", "id": "H-1W2v7P_o5IFWDgIzKPZcpkL7Q=", "properties": {"ref": "nl-landgraaf-30705", "@spider": "dominos_pizza_nl", "addr:full": "Hoogstraat 54", "addr:city": "landgraaf", "addr:postcode": "6373HW", "addr:country": "nl", "name": "Domino's Pizza Landgraaf", "website": "https://www.dominos.nl/winkel/nl-landgraaf-30705", "brand": "Dominos Pizza Netherlands"}, "geometry": {"type": "Point", "coordinates": [6.029709, 50.908255]}},
{"type": "Feature", "id": "YkvVhfj_jyS2rqyFqTuo69dEFYg=", "properties": {"ref": "nl-stein-30926", "@spider": "dominos_pizza_nl", "addr:full": "Raadhuisplein 85", "addr:city": "Stein", "addr:postcode": "6171 JC", "addr:country": "nl", "name": "Domino's Pizza Stein", "website": "https://www.dominos.nl/winkel/nl-stein-30926", "brand": "Dominos Pizza Netherlands"}, "geometry": {"type": "Point", "coordinates": [5.76756, 50.96857]}},
{"type": "Feature", "id": "5JQfwjW2zIYMsy9SvRgyz1K4BHo=", "properties": {"ref": "nl-castricum-30804", "@spider": "dominos_pizza_nl", "addr:full": "Dorpsstraat 75", "addr:city": "Castricum", "addr:postcode": "1901EJ", "addr:country": "nl", "name": "Domino's Pizza Castricum", "website": "https://www.dominos.nl/winkel/nl-castricum-30804", "brand": "Dominos Pizza Netherlands"}, "geometry": {"type": "Point", "coordinates": [4.66561, 52.547014]}},
{"type": "Feature", "id": "Ehi4vozcOAZ3AXTxCXb4t-PXv1k=", "properties": {"ref": "nl-kerkraderodajcstadion-30872", "@spider": "dominos_pizza_nl", "addr:full": "Roda J.C. Ring 65", "addr:city": "Kerkrade", "addr:postcode": "6466NH", "addr:country": "nl", "name": "Domino's Pizza Kerkrade Roda JC Stadion", "website": "https://www.dominos.nl/winkel/nl-kerkraderodajcstadion-30872", "brand": "Dominos Pizza Netherlands"}, "geometry": {"type": "Point", "coordinates": [6.00579, 50.85619]}},
{"type": "Feature", "id": "pHJxJ4FsUPw0vgykhK0NzB7tGP8=", "properties": {"ref": "nl-maastrichtkoninginemmaplein-30621", "@spider": "dominos_pizza_nl", "addr:full": "Koningin Emmaplein 18", "addr:city": "Maastricht", "addr:postcode": "6211NG", "addr:country": "nl", "name": "Domino's Pizza Maastricht Koningin Emmaplein", "website": "https://www.dominos.nl/winkel/nl-maastrichtkoninginemmaplein-30621", "brand": "Dominos Pizza Netherlands"}, "geometry": {"type": "Point", "coordinates": [5.678361, 50.849148]}},
{"type": "Feature", "id": "PVDQSbFeTJMF33xHMX6DTS4tJd0=", "properties": {"ref": "nl-sittard-30692", "@spider": "dominos_pizza_nl", "addr:full": "Stationsstraat 49", "addr:city": "SITTARD", "addr:postcode": "6131AX", "addr:country": "nl", "name": "Domino's Pizza Sittard", "website": "https://www.dominos.nl/winkel/nl-sittard-30692", "brand": "Dominos Pizza Netherlands"}, "geometry": {"type": "Point", "coordinates": [5.859859, 51.001832]}},
{"type": "Feature", "id": "T3QqJjq3oOfD9V5BqwirFEVin70=", "properties": {"ref": "nl-amstelveenrembrandtweg-30871", "@spider": "dominos_pizza_nl", "addr:full": "Rembrandtweg 157", "addr:city": "AMSTELVEEN", "addr:postcode": "1181GG", "addr:country": "nl", "name": "Domino's Pizza Amstelveen Rembrandtweg", "website": "https://www.dominos.nl/winkel/nl-amstelveenrembrandtweg-30871", "brand": "Dominos Pizza Netherlands"}, "geometry": {"type": "Point", "coordinates": [4.86179, 52.30546]}},
{"type": "Feature", "id": "EZfHaC7L4_SsG51DoW1NvRpqFXY=", "properties": {"ref": "nl-zevenaar-30728", "@spider": "dominos_pizza_nl", "addr:full": "Vondellaan 35", "addr:city": "Zevenaar", "addr:postcode": "6901MB", "addr:country": "nl", "name": "Domino's Pizza Zevenaar", "website": "https://www.dominos.nl/winkel/nl-zevenaar-30728", "brand": "Dominos Pizza Netherlands"}, "geometry": {"type": "Point", "coordinates": [6.084208, 51.929195]}},
{"type": "Feature", "id": "NCvxv8vhxpgNEC-GkaGqPNzYheg=", "properties": {"ref": "nl-wijchen-30693", "@spider": "dominos_pizza_nl", "addr:full": "Touwslagersbaan 7B", "addr:city": "WIJCHEN", "addr:postcode": "6602AH", "addr:country": "nl", "name": "Domino's Pizza Wijchen", "website": "https://www.dominos.nl/winkel/nl-wijchen-30693", "brand": "Dominos Pizza Netherlands"}, "geometry": {"type": "Point", "coordinates": [5.725203, 51.807014]}},
{"type": "Feature", "id": "O9LU433F-Mqa0zmJzc6b07YoFsU=", "properties": {"ref": "nl-zaltbommel-30845", "@spider": "dominos_pizza_nl", "addr:full": "De Schans 4", "addr:city": "Zaltbommel", "addr:postcode": "5301DL", "addr:country": "nl", "name": "Domino's Pizza Zaltbommel", "website": "https://www.dominos.nl/winkel/nl-zaltbommel-30845", "brand": "Dominos Pizza Netherlands"}, "geometry": {"type": "Point", "coordinates": [5.2325, 51.80427]}},
{"type": "Feature", "id": "9jdHZfEVFgz0_9owSb7uYREICC0=", "properties": {"ref": "nl-wageningen-30676", "@spider": "dominos_pizza_nl", "addr:full": "Stadsbrink 26-28", "addr:city": "WAGENINGEN", "addr:postcode": "6701AL", "addr:country": "nl", "name": "Domino's Pizza Wageningen", "website": "https://www.dominos.nl/winkel/nl-wageningen-30676", "brand": "Dominos Pizza Netherlands"}, "geometry": {"type": "Point", "coordinates": [5.666826, 51.968869]}},
{"type": "Feature", "id": "7OLe62TYjpgob8eFQrJNapcRDzU=", "properties": {"ref": "nl-velp-30683", "@spider": "dominos_pizza_nl", "addr:full": "Churchillplein 71", "addr:city": "VELP", "addr:postcode": "6883EW", "addr:country": "nl", "name": "Domino's Pizza Velp", "website": "https://www.dominos.nl/winkel/nl-velp-30683", "brand": "Dominos Pizza Netherlands"}, "geometry": {"type": "Point", "coordinates": [5.979888, 51.986872]}},
{"type": "Feature", "id": "TAKgMscfIBdS_kLlf2mExUjmj0M=", "properties": {"ref": "nl-tiel-30667", "@spider": "dominos_pizza_nl", "addr:full": "Plein 53", "addr:city": "TIEL", "addr:postcode": "4001LH", "addr:country": "nl", "name": "Domino's Pizza Tiel", "website": "https://www.dominos.nl/winkel/nl-tiel-30667", "brand": "Dominos Pizza Netherlands"}, "geometry": {"type": "Point", "coordinates": [5.439726, 51.886802]}},
{"type": "Feature", "id": "osezs7XaA10AheBlJcC6hIy0iIg=", "properties": {"ref": "nl-ulft-30927", "@spider": "dominos_pizza_nl", "addr:full": "Middelgraaf 40B", "addr:city": "Ulft", "addr:postcode": "7071WT", "addr:country": "nl", "name": "Domino's Pizza Ulft", "website": "https://www.dominos.nl/winkel/nl-ulft-30927", "brand": "Dominos Pizza Netherlands"}, "geometry": {"type": "Point", "coordinates": [6.37971, 51.89044]}},
{"type": "Feature", "id": "vbl3OCo8UlE7W983NwPZgT2SfBU=", "properties": {"ref": "nl-putten-30836", "@spider": "dominos_pizza_nl", "addr:full": "Poststraat 12", "addr:city": "Putten", "addr:postcode": "3881BM", "addr:country": "nl", "name": "Domino's Pizza Putten", "website": "https://www.dominos.nl/winkel/nl-putten-30836", "brand": "Dominos Pizza Netherlands"}, "geometry": {"type": "Point", "coordinates": [5.60958, 52.260965]}},
{"type": "Feature", "id": "ENcgeBnBbetGCxqeZRqE2JprL2A=", "properties": {"ref": "nl-brunssum-30704", "@spider": "dominos_pizza_nl", "addr:full": "Schiffelerstraat 15-17", "addr:city": "Brunssum", "addr:postcode": "6441CN", "addr:country": "nl", "name": "Domino's Pizza Brunssum", "website": "https://www.dominos.nl/winkel/nl-brunssum-30704", "brand": "Dominos Pizza Netherlands"}, "geometry": {"type": "Point", "coordinates": [5.970327, 50.945996]}},
{"type": "Feature", "id": "0WnfoWPJC5aEIgsuVsyX2mJiRQE=", "properties": {"ref": "nl-geleen-30702", "@spider": "dominos_pizza_nl", "addr:full": "Rijksweg Centrum 68", "addr:city": "GELEEN", "addr:postcode": "6161EH", "addr:country": "nl", "name": "Domino's Pizza Geleen", "website": "https://www.dominos.nl/winkel/nl-geleen-30702", "brand": "Dominos Pizza Netherlands"}, "geometry": {"type": "Point", "coordinates": [5.828346, 50.967985]}},
{"type": "Feature", "id": "z784XWI0HlAq_yBXHZGXnJVf4Zg=", "properties": {"ref": "nl-heerlenbongerd-30920", "@spider": "dominos_pizza_nl", "addr:full": "Bongerd 22", "addr:city": "HEERLEN", "addr:postcode": "6411JM", "addr:country": "nl", "name": "Domino's Pizza Heerlen Bongerd", "website": "https://www.dominos.nl/winkel/nl-heerlenbongerd-30920", "brand": "Dominos Pizza Netherlands"}, "geometry": {"type": "Point", "coordinates": [5.97959, 50.88812]}},
{"type": "Feature", "id": "xYUorWF0VrbH3Ibyw030Jl1dKFE=", "properties": {"ref": "nl-epe-30844", "@spider": "dominos_pizza_nl", "addr:full": "Pastoor Somstraat 1", "addr:city": "Epe", "addr:postcode": "8162AK", "addr:country": "nl", "name": "Domino's Pizza Epe", "website": "https://www.dominos.nl/winkel/nl-epe-30844", "brand": "Dominos Pizza Netherlands"}, "geometry": {"type": "Point", "coordinates": [5.983872, 52.349276]}},
{"type": "Feature", "id": "dV3fUSeke0iZv-j7ScEUU3oBq_E=", "properties": {"ref": "nl-ermelo-30929", "@spider": "dominos_pizza_nl", "addr:full": "Stationsstraat 54", "addr:city": "ERMELO", "addr:postcode": "3851NJ", "addr:country": "nl", "name": "Domino's Pizza Ermelo", "website": "https://www.dominos.nl/winkel/nl-ermelo-30929", "brand": "Dominos Pizza Netherlands"}, "geometry": {"type": "Point", "coordinates": [5.62395, 52.30046]}},
{"type": "Feature", "id": "8UGGHatRgL4N-4LyNG9g3BS_FLc=", "properties": {"ref": "nl-harderwijk-30659", "@spider": "dominos_pizza_nl", "addr:full": "Vondellaan 90", "addr:city": "HARDERWIJK", "addr:postcode": "3842EJ", "addr:country": "nl", "name": "Domino's Pizza Harderwijk", "website": "https://www.dominos.nl/winkel/nl-harderwijk-30659", "brand": "Dominos Pizza Netherlands"}, "geometry": {"type": "Point", "coordinates": [5.636373, 52.343836]}},
{"type": "Feature", "id": "ee90H86Qwqwwhb0-zv5eQcLMdXs=", "properties": {"ref": "nl-nunspeet-30794", "@spider": "dominos_pizza_nl", "addr:full": "Haverkamp 7", "addr:city": "Nunspeet", "addr:postcode": "8071CB", "addr:country": "nl", "name": "Domino's Pizza Nunspeet", "website": "https://www.dominos.nl/winkel/nl-nunspeet-30794", "brand": "Dominos Pizza Netherlands"}, "geometry": {"type": "Point", "coordinates": [5.78123, 52.37506]}},
{"type": "Feature", "id": "mPElvyVE88zPER0YqNizsKRjfEI=", "properties": {"ref": "nl-doetinchemplantsoenstraat-30852", "@spider": "dominos_pizza_nl", "addr:full": "Plantsoenstraat 1A", "addr:city": "Doetinchem", "addr:postcode": "7001AA", "addr:country": "nl", "name": "Domino's Pizza Doetinchem Plantsoenstraat", "website": "https://www.dominos.nl/winkel/nl-doetinchemplantsoenstraat-30852", "brand": "Dominos Pizza Netherlands"}, "geometry": {"type": "Point", "coordinates": [6.29078, 51.96636]}},
{"type": "Feature", "id": "oCm7p9mGvbTBA8o18vbAtLhPIeE=", "properties": {"ref": "nl-geldermalsen-30902", "@spider": "dominos_pizza_nl", "addr:full": "Kerkstraat 49", "addr:city": "Geldermalsen", "addr:postcode": "4191AA", "addr:country": "nl", "name": "Domino's Pizza Geldermalsen", "website": "https://www.dominos.nl/winkel/nl-geldermalsen-30902", "brand": "Dominos Pizza Netherlands"}, "geometry": {"type": "Point", "coordinates": [5.28857, 51.88259]}},
{"type": "Feature", "id": "i9-u8z1iGXZWVRDRflxsKwvRDDM=", "properties": {"ref": "nl-culemborg-30744", "@spider": "dominos_pizza_nl", "addr:full": "Chopinplein 2", "addr:city": "Culemborg", "addr:postcode": "4102 CV", "addr:country": "nl", "name": "Domino's Pizza Culemborg", "website": "https://www.dominos.nl/winkel/nl-culemborg-30744", "brand": "Dominos Pizza Netherlands"}, "geometry": {"type": "Point", "coordinates": [5.237807, 51.952295]}},
{"type": "Feature", "id": "jfUQuthsVv8RBZ1SdpFPmoZAu6I=", "properties": {"ref": "nl-duiven-30736", "@spider": "dominos_pizza_nl", "addr:full": "Rijksweg 42D", "addr:city": "DUIVEN", "addr:postcode": "6921AH", "addr:country": "nl", "name": "Domino's Pizza Duiven", "website": "https://www.dominos.nl/winkel/nl-duiven-30736", "brand": "Dominos Pizza Netherlands"}, "geometry": {"type": "Point", "coordinates": [6.023307, 51.949898]}},
{"type": "Feature", "id": "540xTmAFgp3w6s8N_36ImZH_ih0=", "properties": {"ref": "nl-arnhemschuytgraaf-30767", "@spider": "dominos_pizza_nl", "addr:full": "Fortunastraat 34", "addr:city": "Arnhem", "addr:postcode": "6846XZ", "addr:country": "nl", "name": "Domino's Pizza Arnhem Schuytgraaf", "website": "https://www.dominos.nl/winkel/nl-arnhemschuytgraaf-30767", "brand": "Dominos Pizza Netherlands"}, "geometry": {"type": "Point", "coordinates": [5.84724, 51.95356]}},
{"type": "Feature", "id": "vaHhRhaz3TH1-10EpwxG59JxSe0=", "properties": {"ref": "nl-barneveld-30751", "@spider": "dominos_pizza_nl", "addr:full": "Langstraat 109", "addr:city": "Barneveld", "addr:postcode": "3771 BD", "addr:country": "nl", "name": "Domino's Pizza Barneveld", "website": "https://www.dominos.nl/winkel/nl-barneveld-30751", "brand": "Dominos Pizza Netherlands"}, "geometry": {"type": "Point", "coordinates": [5.588561, 52.137963]}},
{"type": "Feature", "id": "IchrCvZXqB6jfpbw-Be5vfxUJiw=", "properties": {"ref": "nl-arnhemcentrum-30671", "@spider": "dominos_pizza_nl", "addr:full": "Jansbinnensingel 27", "addr:city": "ARNHEM", "addr:postcode": "6811AL", "addr:country": "nl", "name": "Domino's Pizza Arnhem Centrum", "website": "https://www.dominos.nl/winkel/nl-arnhemcentrum-30671", "brand": "Dominos Pizza Netherlands"}, "geometry": {"type": "Point", "coordinates": [5.910805, 51.983846]}},
{"type": "Feature", "id": "MN6cebLIJnCnrQ8QbMXu2QcjojM=", "properties": {"ref": "nl-aalten-30903", "@spider": "dominos_pizza_nl", "addr:full": "Dijkstraat 62B", "addr:city": "Aalten", "addr:postcode": "7121EW", "addr:country": "nl", "name": "Domino's Pizza Aalten", "website": "https://www.dominos.nl/winkel/nl-aalten-30903", "brand": "Dominos Pizza Netherlands"}, "geometry": {"type": "Point", "coordinates": [6.58065, 51.92216]}},
{"type": "Feature", "id": "-sNzpwGJ90T_xeFCRJv5fmBgXMk=", "properties": {"ref": "nl-veendam-30710", "@spider": "dominos_pizza_nl", "addr:full": "Kerkstraat 66", "addr:city": "Veendam", "addr:postcode": "9641 AV", "addr:country": "nl", "name": "Domino's Pizza Veendam", "website": "https://www.dominos.nl/winkel/nl-veendam-30710", "brand": "Dominos Pizza Netherlands"}, "geometry": {"type": "Point", "coordinates": [6.874479, 53.106364]}},
{"type": "Feature", "id": "1dKfVM_0EOSbKaYpuMBRsBrB5a0=", "properties": {"ref": "nl-dieren-30809", "@spider": "dominos_pizza_nl", "addr:full": "Callunaplein 42", "addr:city": "Dieren", "addr:postcode": "6951CR", "addr:country": "nl", "name": "Domino's Pizza Dieren", "website": "https://www.dominos.nl/winkel/nl-dieren-30809", "brand": "Dominos Pizza Netherlands"}, "geometry": {"type": "Point", "coordinates": [6.101619, 52.050083]}},
{"type": "Feature", "id": "2zBKg4NDMNJINS0RFCBr_1xQg3w=", "properties": {"ref": "nl-arnhem-30627", "@spider": "dominos_pizza_nl", "addr:full": "Middelgraaflaan 65", "addr:city": "ARNHEM", "addr:postcode": "6832AP", "addr:country": "nl", "name": "Domino's Pizza Arnhem", "website": "https://www.dominos.nl/winkel/nl-arnhem-30627", "brand": "Dominos Pizza Netherlands"}, "geometry": {"type": "Point", "coordinates": [5.908513, 51.966819]}},
{"type": "Feature", "id": "6o7DME9O1P5867YK7lthCqB4x4g=", "properties": {"ref": "nl-haren-30891", "@spider": "dominos_pizza_nl", "addr:full": "Rijksstraatweg 144", "addr:city": "Haren", "addr:postcode": "9752 BM", "addr:country": "nl", "name": "Domino's Pizza Haren", "website": "https://www.dominos.nl/winkel/nl-haren-30891", "brand": "Dominos Pizza Netherlands"}, "geometry": {"type": "Point", "coordinates": [6.60236, 53.17385]}},
{"type": "Feature", "id": "5xHCJnbJSBuCL__tGtfKFe3boC0=", "properties": {"ref": "nl-delfzijl-30708", "@spider": "dominos_pizza_nl", "addr:full": "De Wending 7", "addr:city": "delfzijl", "addr:postcode": "9933KM", "addr:country": "nl", "name": "Domino's Pizza Delfzijl", "website": "https://www.dominos.nl/winkel/nl-delfzijl-30708", "brand": "Dominos Pizza Netherlands"}, "geometry": {"type": "Point", "coordinates": [6.910905, 53.335827]}},
{"type": "Feature", "id": "iWQbeLtv1uUWAsFJqML2-B8gpNM=", "properties": {"ref": "nl-hoogezand-30709", "@spider": "dominos_pizza_nl", "addr:full": "Gorecht-Oost 76", "addr:city": "Hoogezand", "addr:postcode": "9603 AC", "addr:country": "nl", "name": "Domino's Pizza Hoogezand", "website": "https://www.dominos.nl/winkel/nl-hoogezand-30709", "brand": "Dominos Pizza Netherlands"}, "geometry": {"type": "Point", "coordinates": [6.756417, 53.154684]}},
{"type": "Feature", "id": "4xn_zMZWAw4AlxHRTS4BNxA9Icg=", "properties": {"ref": "nl-ederozenplein-30587", "@spider": "dominos_pizza_nl", "addr:full": "Rozenplein 62", "addr:city": "Ede", "addr:postcode": "6713EN", "addr:country": "nl", "name": "Domino's Pizza Ede Rozenplein", "website": "https://www.dominos.nl/winkel/nl-ederozenplein-30587", "brand": "Dominos Pizza Netherlands"}, "geometry": {"type": "Point", "coordinates": [5.655813, 52.038538]}},
{"type": "Feature", "id": "QpZRkhEMkZDFRHGxDGoWqJfgjn8=", "properties": {"ref": "nl-eerbeek-30925", "@spider": "dominos_pizza_nl", "addr:full": "Stuijvenburchstraat 44A", "addr:city": "Eerbeek", "addr:postcode": "6961 CW", "addr:country": "nl", "name": "Domino's Pizza Eerbeek", "website": "https://www.dominos.nl/winkel/nl-eerbeek-30925", "brand": "Dominos Pizza Netherlands"}, "geometry": {"type": "Point", "coordinates": [6.06553, 52.10532]}},
{"type": "Feature", "id": "H_AbolHyD_qwGfZ5KFYtETEG__Q=", "properties": {"ref": "nl-edestadspoort-30825", "@spider": "dominos_pizza_nl", "addr:full": "Stadspoort 43", "addr:city": "Ede", "addr:postcode": "6716 RH", "addr:country": "nl", "name": "Domino's Pizza Ede Stadspoort", "website": "https://www.dominos.nl/winkel/nl-edestadspoort-30825", "brand": "Dominos Pizza Netherlands"}, "geometry": {"type": "Point", "coordinates": [5.649349, 52.017606]}},
{"type": "Feature", "id": "h8ax8k75o4cUo5iyQftjuNs7H78=", "properties": {"ref": "nl-vianen-30862", "@spider": "dominos_pizza_nl", "addr:full": "Voorstraat 48", "addr:city": "Vianen", "addr:postcode": "4132AS", "addr:country": "nl", "name": "Domino's Pizza Vianen", "website": "https://www.dominos.nl/winkel/nl-vianen-30862", "brand": "Dominos Pizza Netherlands"}, "geometry": {"type": "Point", "coordinates": [5.09252, 51.994492]}},
{"type": "Feature", "id": "onBC-zWjbSWlF25YKATbEGqLz30=", "properties": {"ref": "nl-heerlenheerlerheide-30721", "@spider": "dominos_pizza_nl", "addr:full": "Groeet Genhei 6", "addr:city": "HEERLEN", "addr:postcode": "6413GN", "addr:country": "nl", "name": "Domino's Pizza Heerlen Heerlerheide", "website": "https://www.dominos.nl/winkel/nl-heerlenheerlerheide-30721", "brand": "Dominos Pizza Netherlands"}, "geometry": {"type": "Point", "coordinates": [5.955447, 50.916884]}},
{"type": "Feature", "id": "kp3f9F_MiHf7B1UOzpgyKz9iYHI=", "properties": {"ref": "nl-haarlemstationkennemerplein-30850", "@spider": "dominos_pizza_nl", "addr:full": "Kennemerplein 12", "addr:city": "HAARLEM", "addr:postcode": "2011MJ", "addr:country": "nl", "name": "Domino's Pizza Haarlem  - Station Kennemerplein", "website": "https://www.dominos.nl/winkel/nl-haarlemstationkennemerplein-30850", "brand": "Dominos Pizza Netherlands"}, "geometry": {"type": "Point", "coordinates": [4.6392, 52.3884]}},
{"type": "Feature", "id": "rYK1ubKo4SSl6kynLTcqQU6Gd8E=", "properties": {"ref": "nl-nieuwegein-30601", "@spider": "dominos_pizza_nl", "addr:full": "Noordstedeweg 192", "addr:city": "NIEUWEGEIN", "addr:postcode": "3431KC", "addr:country": "nl", "name": "Domino's Pizza Nieuwegein", "website": "https://www.dominos.nl/winkel/nl-nieuwegein-30601", "brand": "Dominos Pizza Netherlands"}, "geometry": {"type": "Point", "coordinates": [5.084632, 52.02898]}},
{"type": "Feature", "id": "RlE3Ko8nq7XzRTfwcr20x6bj3YE=", "properties": {"ref": "nl-wijkbijduurstede-30843", "@spider": "dominos_pizza_nl", "addr:full": "Singel 32", "addr:city": "Wijk bij Duurstede", "addr:postcode": "3961CG", "addr:country": "nl", "name": "Domino's Pizza Wijk bij Duurstede", "website": "https://www.dominos.nl/winkel/nl-wijkbijduurstede-30843", "brand": "Dominos Pizza Netherlands"}, "geometry": {"type": "Point", "coordinates": [5.344749, 51.974351]}},
{"type": "Feature", "id": "yS1wMt--l1N8MU7y3PNNFP6mmpM=", "properties": {"ref": "nl-woerden-30568", "@spider": "dominos_pizza_nl", "addr:full": "Leidsestraatweg 12", "addr:city": "WOERDEN", "addr:postcode": "3443BV", "addr:country": "nl", "name": "Domino's Pizza Woerden", "website": "https://www.dominos.nl/winkel/nl-woerden-30568", "brand": "Dominos Pizza Netherlands"}, "geometry": {"type": "Point", "coordinates": [4.879612, 52.087998]}},
{"type": "Feature", "id": "FRFW8lCVR9E_TK_fEWtYfq13KzI=", "properties": {"ref": "nl-stadskanaal-30779", "@spider": "dominos_pizza_nl", "addr:full": "Hoofdstraat 28C", "addr:city": "Stadskanaal", "addr:postcode": "9501 CM", "addr:country": "nl", "name": "Domino's Pizza Stadskanaal", "website": "https://www.dominos.nl/winkel/nl-stadskanaal-30779", "brand": "Dominos Pizza Netherlands"}, "geometry": {"type": "Point", "coordinates": [6.950668, 52.988632]}},
{"type": "Feature", "id": "0kkcBL3qeKGo--LnXT1jR11Gj9A=", "properties": {"ref": "nl-ijsselstein-30780", "@spider": "dominos_pizza_nl", "addr:full": "Achtersloot 3", "addr:city": "IJSSELSTEIN", "addr:postcode": "3401NR", "addr:country": "nl", "name": "Domino's Pizza IJsselstein", "website": "https://www.dominos.nl/winkel/nl-ijsselstein-30780", "brand": "Dominos Pizza Netherlands"}, "geometry": {"type": "Point", "coordinates": [5.03973, 52.01835]}},
{"type": "Feature", "id": "d1iDqUX9Og_-2-9iwL3p2Lr9NdA=", "properties": {"ref": "nl-leusden-30818", "@spider": "dominos_pizza_nl", "addr:full": "Biezenkamp 11-13", "addr:city": "LEUSDEN", "addr:postcode": "3831JA", "addr:country": "nl", "name": "Domino's Pizza Leusden", "website": "https://www.dominos.nl/winkel/nl-leusden-30818", "brand": "Dominos Pizza Netherlands"}, "geometry": {"type": "Point", "coordinates": [5.428103, 52.137666]}},
{"type": "Feature", "id": "rQnNelRkey1N2Zdc0L11JqBC1lQ=", "properties": {"ref": "nl-houtenlangeschaft-30939", "@spider": "dominos_pizza_nl", "addr:full": "Lange Schaft 13B", "addr:city": "HOUTEN", "addr:postcode": "3991AP", "addr:country": "nl", "name": "Domino's Pizza Houten Lange Schaft", "website": "https://www.dominos.nl/winkel/nl-houtenlangeschaft-30939", "brand": "Dominos Pizza Netherlands"}, "geometry": {"type": "Point", "coordinates": [5.16989, 52.021259]}},
{"type": "Feature", "id": "xRqDIv0iwiWIIwVC6wdiaB3oN74=", "properties": {"ref": "nl-houten-30636", "@spider": "dominos_pizza_nl", "addr:full": "Het Rond 71", "addr:city": "HOUTEN", "addr:postcode": "3995DL", "addr:country": "nl", "name": "Domino's Pizza Houten", "website": "https://www.dominos.nl/winkel/nl-houten-30636", "brand": "Dominos Pizza Netherlands"}, "geometry": {"type": "Point", "coordinates": [5.17041, 52.03549]}},
{"type": "Feature", "id": "dU8Tf2gfcE4xgkUZJCLwbE7XVxg=", "properties": {"ref": "nl-debilt-30753", "@spider": "dominos_pizza_nl", "addr:full": "Looydijk 128", "addr:city": "De Bilt", "addr:postcode": "3732 VH", "addr:country": "nl", "name": "Domino's Pizza De Bilt", "website": "https://www.dominos.nl/winkel/nl-debilt-30753", "brand": "Dominos Pizza Netherlands"}, "geometry": {"type": "Point", "coordinates": [5.181572, 52.109196]}},
{"type": "Feature", "id": "pmJGRDR681T01EcwCoC_BHXLu-M=", "properties": {"ref": "nl-bunschotenspakenburg-30887", "@spider": "dominos_pizza_nl", "addr:full": "De Ziel 2", "addr:city": "Bunschoten", "addr:postcode": "3751BT", "addr:country": "nl", "name": "Domino's Pizza Bunschoten-Spakenburg", "website": "https://www.dominos.nl/winkel/nl-bunschotenspakenburg-30887", "brand": "Dominos Pizza Netherlands"}, "geometry": {"type": "Point", "coordinates": [5.37828, 52.252331]}},
{"type": "Feature", "id": "mW5mpN3qWqgOuSc0Z8AqzXlEk6g=", "properties": {"ref": "nl-baarn-30841", "@spider": "dominos_pizza_nl", "addr:full": "Laanstraat 132", "addr:city": "BAARN", "addr:postcode": "3743BJ", "addr:country": "nl", "name": "Domino's Pizza Baarn", "website": "https://www.dominos.nl/winkel/nl-baarn-30841", "brand": "Dominos Pizza Netherlands"}, "geometry": {"type": "Point", "coordinates": [5.283247, 52.212865]}},
{"type": "Feature", "id": "I1bX6nhICvujMcV2DIk0CG2Fvx0=", "properties": {"ref": "nl-amersfoortvathorst-30648", "@spider": "dominos_pizza_nl", "addr:full": "Wouda 11", "addr:city": "AMERSFOORT", "addr:postcode": "3825MA", "addr:country": "nl", "name": "Domino's Pizza Amersfoort Vathorst", "website": "https://www.dominos.nl/winkel/nl-amersfoortvathorst-30648", "brand": "Dominos Pizza Netherlands"}, "geometry": {"type": "Point", "coordinates": [5.431244, 52.195241]}},
{"type": "Feature", "id": "U-gbYoow7d-aWbx77Vq_4rmDaGo=", "properties": {"ref": "nl-amersfoortemiclaer-30856", "@spider": "dominos_pizza_nl", "addr:full": "Laan Naar Emiclaer 85", "addr:city": "AMERSFOORT", "addr:postcode": "3823EG", "addr:country": "nl", "name": "Domino's Pizza Amersfoort Emiclaer", "website": "https://www.dominos.nl/winkel/nl-amersfoortemiclaer-30856", "brand": "Dominos Pizza Netherlands"}, "geometry": {"type": "Point", "coordinates": [5.3988, 52.18569]}},
{"type": "Feature", "id": "aRWglyqkXS_8st8444IduCUwGz8=", "properties": {"ref": "nl-leerdam-30879", "@spider": "dominos_pizza_nl", "addr:full": "Kerkstraat 29", "addr:city": "Leerdam", "addr:postcode": "4141AT", "addr:country": "nl", "name": "Domino's Pizza Leerdam", "website": "https://www.dominos.nl/winkel/nl-leerdam-30879", "brand": "Dominos Pizza Netherlands"}, "geometry": {"type": "Point", "coordinates": [5.09378, 51.89093]}},
{"type": "Feature", "id": "kwy81jRQAWvtrLgvjseN12SuOBw=", "properties": {"ref": "nl-maarssen-30686", "@spider": "dominos_pizza_nl", "addr:full": "Bisonspoor 1190", "addr:city": "MAARSSEN", "addr:postcode": "3605KX", "addr:country": "nl", "name": "Domino's Pizza Maarssen", "website": "https://www.dominos.nl/winkel/nl-maarssen-30686", "brand": "Dominos Pizza Netherlands"}, "geometry": {"type": "Point", "coordinates": [5.031028, 52.135628]}},
{"type": "Feature", "id": "RjwjtdeCmT0Nnv4iGUz6k9Yq2Yc=", "properties": {"ref": "nl-bredadeburcht-30772", "@spider": "dominos_pizza_nl", "addr:full": "Lunenburgstraat 5", "addr:city": "Breda", "addr:postcode": "4834 HG", "addr:country": "nl", "name": "Domino's Pizza Breda de Burcht", "website": "https://www.dominos.nl/winkel/nl-bredadeburcht-30772", "brand": "Dominos Pizza Netherlands"}, "geometry": {"type": "Point", "coordinates": [4.805457, 51.571709]}},
{"type": "Feature", "id": "x2WjfriUfh245-IV60PZ_ffkc4w=", "properties": {"ref": "nl-bredagraafhendrikiiiplein-30540", "@spider": "dominos_pizza_nl", "addr:full": "Graaf Hendrik Iii Plein 51", "addr:city": "BREDA", "addr:postcode": "4819CK", "addr:country": "nl", "name": "Domino's Pizza Breda Graaf Hendrik III Plein", "website": "https://www.dominos.nl/winkel/nl-bredagraafhendrikiiiplein-30540", "brand": "Dominos Pizza Netherlands"}, "geometry": {"type": "Point", "coordinates": [4.771072, 51.576964]}},
{"type": "Feature", "id": "JOTdLUDDwMxG1ieD1VnSb2_ce2E=", "properties": {"ref": "nl-amersfoort-30606", "@spider": "dominos_pizza_nl", "addr:full": "Prinses Julianaplein 3", "addr:city": "AMERSFOORT", "addr:postcode": "3811NM", "addr:country": "nl", "name": "Domino's Pizza Amersfoort", "website": "https://www.dominos.nl/winkel/nl-amersfoort-30606", "brand": "Dominos Pizza Netherlands"}, "geometry": {"type": "Point", "coordinates": [5.384691, 52.15054]}},
{"type": "Feature", "id": "Xnuh4j13VKIJ15N1-hK-ew8ZUPs=", "properties": {"ref": "nl-mijdrecht-30894", "@spider": "dominos_pizza_nl", "addr:full": "Dorpsstraat 65", "addr:city": "Mijdrecht", "addr:postcode": "3641EB", "addr:country": "nl", "name": "Domino's Pizza Mijdrecht", "website": "https://www.dominos.nl/winkel/nl-mijdrecht-30894", "brand": "Dominos Pizza Netherlands"}, "geometry": {"type": "Point", "coordinates": [4.86629, 52.208931]}},
{"type": "Feature", "id": "FHUoTzMX-67PPPtHvKnyS6jWRNE=", "properties": {"ref": "nl-rhenen-30910", "@spider": "dominos_pizza_nl", "addr:full": "Frederik Van Paltshof 19A", "addr:city": "RHENEN", "addr:postcode": "3911 LA", "addr:country": "nl", "name": "Domino's Pizza Rhenen", "website": "https://www.dominos.nl/winkel/nl-rhenen-30910", "brand": "Dominos Pizza Netherlands"}, "geometry": {"type": "Point", "coordinates": [5.56462, 51.95806]}},
{"type": "Feature", "id": "YSIEJC57BoV2T3uhvOVChW5rVIM=", "properties": {"ref": "nl-soest-30617", "@spider": "dominos_pizza_nl", "addr:full": "Steenhoffstraat 16", "addr:city": "SOEST", "addr:postcode": "3764BL", "addr:country": "nl", "name": "Domino's Pizza Soest", "website": "https://www.dominos.nl/winkel/nl-soest-30617", "brand": "Dominos Pizza Netherlands"}, "geometry": {"type": "Point", "coordinates": [5.302529, 52.182665]}},
{"type": "Feature", "id": "cKVEzocAnCUSNzWG3JOgzwU5e3Q=", "properties": {"ref": "nl-veenendaal-30610", "@spider": "dominos_pizza_nl", "addr:full": "Nieuweweg 87", "addr:city": "Veenendaal", "addr:postcode": "3905LH", "addr:country": "nl", "name": "Domino's Pizza Veenendaal", "website": "https://www.dominos.nl/winkel/nl-veenendaal-30610", "brand": "Dominos Pizza Netherlands"}, "geometry": {"type": "Point", "coordinates": [5.553043, 52.033644]}}]}