{"type":"FeatureCollection","features":[{"type": "Feature", "id": "JfZ7_LPsSBhp4zc9enECjDBBhHU=", "properties": {"ref": "Grassland Shopping Center", "@spider": "dsw", "addr:full": "4882 Gordon Road", "addr:city": "Regina", "addr:state": "SK", "addr:postcode": "S4W 0B7", "phone": "(639) 739-0292", "website": "https://stores.dsw.ca/sk/regina/4882-gordon-road", "opening_hours": "Mo-Sa 10:00-18:00; Su 11:00-17:00", "brand": "Designer Shoe Warehouse", "brand:wikidata": "Q5206207"}, "geometry": {"type": "Point", "coordinates": [-104.65082738122214, 50.40614178548068]}},
{"type": "Feature", "id": "kN601d4wl8-rx6tCgwHZalZrrrs=", "properties": {"ref": "Chain Lake Drive Plaza", "@spider": "dsw", "addr:full": "201 Chain Lake Drive", "addr:city": "Halifax", "addr:state": "NS", "addr:postcode": "B3S 1C8", "phone": "(902) 442-3897", "website": "https://stores.dsw.ca/ns/halifax/201-chain-lake-drive", "opening_hours": "Mo-Fr 10:00-20:00; Sa 09:30-18:00; Su 10:00-18:00", "brand": "Designer Shoe Warehouse", "brand:wikidata": "Q5206207"}, "geometry": {"type": "Point", "coordinates": [-63.67713297362804, 44.64900537360007]}},
{"type": "Feature", "id": "knDotJ3vv8S5ui_0uk1a27H-JHs=", "properties": {"ref": "Mapleton Centre", "@spider": "dsw", "addr:full": "79 Wyse Street", "addr:city": "Moncton", "addr:state": "NB", "addr:postcode": "E1G 5R1", "phone": "(506) 800-1057", "website": "https://stores.dsw.ca/nb/moncton/79-wyse-street", "opening_hours": "Mo-Fr 10:00-20:00; Sa 09:30-18:00; Su 10:00-18:00", "brand": "Designer Shoe Warehouse", "brand:wikidata": "Q5206207"}, "geometry": {"type": "Point", "coordinates": [-64.82515552399462, 46.11911441204227]}},
{"type": "Feature", "id": "lIWgdD3u948M-KCP7Vhxm9MJr9g=", "properties": {"ref": "Winnipeg Outlet Collection", "@spider": "dsw", "addr:full": "555 Sterling Lyon Parkway", "addr:city": "Winnipeg", "addr:state": "MB", "addr:postcode": "R3P 1E9", "phone": "(204) 815-5254", "website": "https://stores.dsw.ca/mb/winnipeg/555-sterling-lyon-parkway", "opening_hours": "Mo-Fr 11:00-19:00; Sa 10:30-19:00; Su 11:00-18:00", "brand": "Designer Shoe Warehouse", "brand:wikidata": "Q5206207"}, "geometry": {"type": "Point", "coordinates": [-97.2154623, 49.8448259]}},
{"type": "Feature", "id": "24Svn8VCSbiRWaTbb_mdXBLs9-A=", "properties": {"ref": "Franklin Town Plaza", "@spider": "dsw", "addr:full": "8501 West Franklin Road", "addr:city": "Boise", "addr:state": "ID", "addr:postcode": "83709", "phone": "(208) 323-1201", "website": "https://stores.dsw.com/usa/id/boise/dsw-designer-shoe-warehouse-franklin-town-plaza.html", "opening_hours": "Mo-Th 10:00-20:00; Fr 10:00-21:00; Sa 09:00-21:00; Su 10:00-19:00", "brand": "Designer Shoe Warehouse", "brand:wikidata": "Q5206207"}, "geometry": {"type": "Point", "coordinates": [-116.287332, 43.603571]}},
{"type": "Feature", "id": "89C0cBOEtk-jRuHHXdvddpkcq_4=", "properties": {"ref": "Christiana Fashion Center", "@spider": "dsw", "addr:full": "2600 Fashion Center Blvd", "addr:city": "Newark", "addr:state": "DE", "addr:postcode": "19702", "phone": "(302) 317-5987", "website": "https://stores.dsw.com/usa/de/newark/dsw-designer-shoe-warehouse-christiana-fashion-center.html", "opening_hours": "Mo-Th 10:00-20:00; Fr-Sa 10:00-21:00; Su 10:00-19:00", "brand": "Designer Shoe Warehouse", "brand:wikidata": "Q5206207"}, "geometry": {"type": "Point", "coordinates": [-75.647559, 39.672947]}},
{"type": "Feature", "id": "ZM7HIt8S5j5F0AyIFJ4bNaakwug=", "properties": {"ref": "Thickson Ridge", "@spider": "dsw", "addr:full": "1650 Victoria Street East", "addr:city": "Whitby", "addr:state": "ON", "addr:postcode": "L1N 9L4", "phone": "(289) 481-1352", "website": "https://stores.dsw.ca/on/whitby/1650-victoria-street-east", "opening_hours": "Mo-Fr 10:00-20:00; Sa 09:30-18:00; Su 10:00-18:00", "brand": "Designer Shoe Warehouse", "brand:wikidata": "Q5206207"}, "geometry": {"type": "Point", "coordinates": [-78.90318933002472, 43.866967337409356]}},
{"type": "Feature", "id": "tPtvFokqgdLW3YzYqJ7eGYhgDmk=", "properties": {"ref": "Warden & Eglinton", "@spider": "dsw", "addr:full": "1920 Eglinton Avenue East", "addr:city": "Scarborough", "addr:state": "ON", "addr:postcode": "M1L 2L9", "phone": "(647) 260-1576", "website": "https://stores.dsw.ca/on/scarborough/1920-eglinton-avenue-east", "opening_hours": "Mo-Fr 10:00-20:00; Sa 09:30-18:00; Su 10:00-18:00", "brand": "Designer Shoe Warehouse", "brand:wikidata": "Q5206207"}, "geometry": {"type": "Point", "coordinates": [-79.2908297, 43.7279151]}},
{"type": "Feature", "id": "RhTDwoeMFPfHJZuWCtXKzNXVBHg=", "properties": {"ref": "Island Home Centre", "@spider": "dsw", "addr:full": "805 Cloverdale Avenue", "addr:city": "Victoria", "addr:state": "BC", "addr:postcode": "V8X 2S9", "phone": "(250) 412-5693", "website": "https://stores.dsw.ca/bc/victoria/805-cloverdale-avenue", "opening_hours": "Mo-Fr 10:00-20:00; Sa 10:00-19:00; Su 10:00-18:00", "brand": "Designer Shoe Warehouse", "brand:wikidata": "Q5206207"}, "geometry": {"type": "Point", "coordinates": [-123.36992548781124, 48.4498481]}},
{"type": "Feature", "id": "kNkv4F_2zXWm375tj_qkXBGgmaQ=", "properties": {"ref": "Tsawwassen Mills", "@spider": "dsw", "addr:full": "5000 Canoe Pass Way", "addr:city": "Tsawwassen", "addr:state": "BC", "addr:postcode": "V4M 0B3", "phone": "(778) 372-6622", "website": "https://stores.dsw.ca/bc/tsawwassen/5000-canoe-pass-way", "opening_hours": "Mo-We 10:00-19:00; Th-Sa 10:00-21:00; Su 11:00-19:00", "brand": "Designer Shoe Warehouse", "brand:wikidata": "Q5206207"}, "geometry": {"type": "Point", "coordinates": [-123.08535762770188, 49.0383077913343]}},
{"type": "Feature", "id": "Pfz1ahxIvXnKRFvIUSUHu1vL5MM=", "properties": {"ref": "Shops on Main", "@spider": "dsw", "addr:full": "131 US Highway 41", "addr:city": "Schererville", "addr:state": "IN", "addr:postcode": "46375", "phone": "(219) 515-3408", "website": "https://stores.dsw.com/usa/in/schererville/dsw-designer-shoe-warehouse-shops-on-main.html", "opening_hours": "Mo-Sa 10:00-21:00; Su 10:00-19:00", "brand": "Designer Shoe Warehouse", "brand:wikidata": "Q5206207"}, "geometry": {"type": "Point", "coordinates": [-87.4679303169251, 41.52049918799569]}},
{"type": "Feature", "id": "Sw8jLgZGHEBiZShubm314oLI_K8=", "properties": {"ref": "The Shops at Perry Crossing", "@spider": "dsw", "addr:full": "314 Metropolis Mile", "addr:city": "Plainfield", "addr:state": "IN", "addr:postcode": "46168", "phone": "(317) 838-8379", "website": "https://stores.dsw.com/usa/in/plainfield/dsw-designer-shoe-warehouse-the-shops-at-perry-crossing.html", "opening_hours": "Mo-Th 10:00-21:00; Fr-Sa 09:00-22:00; Su 10:00-19:00", "brand": "Designer Shoe Warehouse", "brand:wikidata": "Q5206207"}, "geometry": {"type": "Point", "coordinates": [-86.358985, 39.713046]}},
{"type": "Feature", "id": "VJIbtyHMZZ2V4BH3u0cs-F4FQWA=", "properties": {"ref": "Market Place", "@spider": "dsw", "addr:full": "413 North Milwaukee Avenue", "addr:city": "Vernon Hills", "addr:state": "IL", "addr:postcode": "60061", "phone": "(847) 549-9050", "website": "https://stores.dsw.com/usa/il/vernonhills/dsw-designer-shoe-warehouse-market-place.html", "opening_hours": "Mo-Sa 10:00-21:00; Su 11:00-18:00", "brand": "Designer Shoe Warehouse", "brand:wikidata": "Q5206207"}, "geometry": {"type": "Point", "coordinates": [-87.9397303, 42.2338899]}},
{"type": "Feature", "id": "qm7FT8pyidfjHmZDdS6K_8ar7wA=", "properties": {"ref": "Southwest Plaza", "@spider": "dsw", "addr:full": "3175 S. Veteran Parkway", "addr:city": "Springfield", "addr:state": "IL", "addr:postcode": "62704", "phone": "(217) 717-4356", "website": "https://stores.dsw.com/usa/il/springfield/dsw-designer-shoe-warehouse-southwest-plaza.html", "opening_hours": "Mo-Th 10:00-20:00; Fr-Sa 10:00-21:00; Su 10:00-19:00", "brand": "Designer Shoe Warehouse", "brand:wikidata": "Q5206207"}, "geometry": {"type": "Point", "coordinates": [-89.7081543, 39.7602985]}},
{"type": "Feature", "id": "xixBOUhHkPWlHkW0Lhh3Z3xggGc=", "properties": {"ref": "Arboretum of South Barrington", "@spider": "dsw", "addr:full": "100 West Higgins Road", "addr:city": "South Barrington", "addr:state": "IL", "addr:postcode": "60010", "phone": "(847) 551-3335", "website": "https://stores.dsw.com/usa/il/southbarrington/dsw-designer-shoe-warehouse-arboretum-of-south-barrington.html", "opening_hours": "Mo-Su 10:00-19:00", "brand": "Designer Shoe Warehouse", "brand:wikidata": "Q5206207"}, "geometry": {"type": "Point", "coordinates": [-88.1873322, 42.0745636]}},
{"type": "Feature", "id": "owxdaJP5uXA-ZvXm2u08VRYDNFw=", "properties": {"ref": "Old Orchard", "@spider": "dsw", "addr:full": "9601 Skokie Boulevard", "addr:city": "Skokie", "addr:state": "IL", "addr:postcode": "60077", "phone": "(847) 674-2772", "website": "https://stores.dsw.com/usa/il/skokie/dsw-designer-shoe-warehouse-old-orchard.html", "opening_hours": "Mo-Sa 10:00-21:00; Su 10:00-19:00", "brand": "Designer Shoe Warehouse", "brand:wikidata": "Q5206207"}, "geometry": {"type": "Point", "coordinates": [-87.744932, 42.055611]}},
{"type": "Feature", "id": "wMJ8tRaDYNMyFyKw1wK9C1vY5_8=", "properties": {"ref": "Center of Winter Park", "@spider": "dsw", "addr:full": "501 N. Orlando Ave", "addr:city": "Winter Park", "addr:state": "FL", "addr:postcode": "32789", "phone": "(407) 853-7279", "website": "https://stores.dsw.com/usa/fl/winterpark/dsw-designer-shoe-warehouse-center-of-winter-park.html", "opening_hours": "Mo-Sa 10:00-20:00; Su 10:00-19:00", "brand": "Designer Shoe Warehouse", "brand:wikidata": "Q5206207"}, "geometry": {"type": "Point", "coordinates": [-81.3677828, 28.6031507]}},
{"type": "Feature", "id": "LnFcuXcKMf8oI8wsuhl3LeTwn-0=", "properties": {"ref": "Palm Beach Center", "@spider": "dsw", "addr:full": "1855 Palm Beach Lakes Blvd", "addr:city": "West Palm Beach", "addr:state": "FL", "addr:postcode": "33401", "phone": "(561) 494-7186", "website": "https://stores.dsw.com/usa/fl/westpalmbeach/dsw-designer-shoe-warehouse-palm-beach-center.html", "opening_hours": "Mo-Sa 10:00-20:00; Su 11:00-19:00", "brand": "Designer Shoe Warehouse", "brand:wikidata": "Q5206207"}, "geometry": {"type": "Point", "coordinates": [-80.0896265, 26.7219743]}},
{"type": "Feature", "id": "i8c8Oj1j68MNUUkmDPDJx6CF2oc=", "properties": {"ref": "Apalachee Parkway", "@spider": "dsw", "addr:full": "1302 Appalachee Parkway", "addr:city": "Tallahassee", "addr:state": "FL", "addr:postcode": "32301", "phone": "(850) 270-0041", "website": "https://stores.dsw.com/usa/fl/tallahassee/dsw-designer-shoe-warehouse-apalachee-parkway.html", "opening_hours": "Mo-Sa 10:00-20:00; Su 10:00-18:00", "brand": "Designer Shoe Warehouse", "brand:wikidata": "Q5206207"}, "geometry": {"type": "Point", "coordinates": [-84.2606405, 30.437583]}},
{"type": "Feature", "id": "rH0SrO5c6Ay9Wd0eVaWc9vBm58A=", "properties": {"ref": "Waterford Commons", "@spider": "dsw", "addr:full": "917 Hartford Turnpike", "addr:city": "Waterford", "addr:state": "CT", "addr:postcode": "06385", "phone": "(860) 437-9784", "website": "https://stores.dsw.com/usa/ct/waterford/dsw-designer-shoe-warehouse-waterford-commons.html", "opening_hours": "Mo-We 10:00-20:00; Th-Sa 10:00-21:00; Su 10:00-18:00", "brand": "Designer Shoe Warehouse", "brand:wikidata": "Q5206207"}, "geometry": {"type": "Point", "coordinates": [-72.14966, 41.3822124]}},
{"type": "Feature", "id": "8LsJAdbrXuvKQ0nRAKCwssp78fU=", "properties": {"ref": "City Center Marketplace", "@spider": "dsw", "addr:full": "9380 Sheridan Boulevard", "addr:city": "Westminster", "addr:state": "CO", "addr:postcode": "80031", "phone": "(303) 412-1224", "website": "https://stores.dsw.com/usa/co/westminster/dsw-designer-shoe-warehouse-city-center-marketplace.html", "opening_hours": "Mo-Sa 10:00-20:00; Su 10:00-19:00", "brand": "Designer Shoe Warehouse", "brand:wikidata": "Q5206207"}, "geometry": {"type": "Point", "coordinates": [-105.0511341, 39.867715]}},
{"type": "Feature", "id": "ZScH6aqqCCARDVBK6yzkPYIvEpA=", "properties": {"ref": "Harvest Junction", "@spider": "dsw", "addr:full": "180 Ken Pratt Boulevard", "addr:city": "Longmont", "addr:state": "CO", "addr:postcode": "80501", "phone": "(303) 702-5191", "website": "https://stores.dsw.com/usa/co/longmont/dsw-designer-shoe-warehouse-harvest-junction.html", "opening_hours": "Mo-Sa 10:00-21:00; Su 10:00-19:00", "brand": "Designer Shoe Warehouse", "brand:wikidata": "Q5206207"}, "geometry": {"type": "Point", "coordinates": [-105.095625, 40.153798]}},
{"type": "Feature", "id": "iGNC4CT2Y9ahTnI3IiF-jMt_g1I=", "properties": {"ref": "Westminster Mall", "@spider": "dsw", "addr:full": "1044 Westminster Mall", "addr:city": "Westminster", "addr:state": "CA", "addr:postcode": "92683", "phone": "(714) 893-4020", "website": "https://stores.dsw.com/usa/ca/westminster/dsw-designer-shoe-warehouse-westminster-mall.html", "opening_hours": "Mo-Sa 10:00-20:00; Su 11:00-19:00", "brand": "Designer Shoe Warehouse", "brand:wikidata": "Q5206207"}, "geometry": {"type": "Point", "coordinates": [-118.011088, 33.7473]}},
{"type": "Feature", "id": "rIzdvp1OkfoYzBKB4Phwis9b2jU=", "properties": {"ref": "Mayfair Collection", "@spider": "dsw", "addr:full": "11500 Burleigh Street", "addr:city": "Wauwatosa", "addr:state": "WI", "addr:postcode": "53222", "phone": "(414) 208-4480", "website": "https://stores.dsw.com/usa/wi/wauwatosa/dsw-designer-shoe-warehouse-mayfair-collection.html", "opening_hours": "Mo-Sa 10:00-21:00; Su 10:00-19:00", "brand": "Designer Shoe Warehouse", "brand:wikidata": "Q5206207"}, "geometry": {"type": "Point", "coordinates": [-88.05652634389787, 43.07968335267696]}},
{"type": "Feature", "id": "WWYyinpIRwh3U4IqjRUJxLuuMqI=", "properties": {"ref": "Regency Point Shopping Center", "@spider": "dsw", "addr:full": "2406 S Greenbay Road", "addr:city": "Racine", "addr:state": "WI", "addr:postcode": "53406", "phone": "(262) 456-3334", "website": "https://stores.dsw.com/usa/wi/racine/dsw-designer-shoe-warehouse-regency-point-shopping-center.html", "opening_hours": "Mo-Th 10:00-20:00; Fr-Sa 10:00-21:00; Su 10:00-18:00", "brand": "Designer Shoe Warehouse", "brand:wikidata": "Q5206207"}, "geometry": {"type": "Point", "coordinates": [-87.85532981157303, 42.702851507331616]}},
{"type": "Feature", "id": "Ax-5KqSsaS30jlDXr9ZMnV-0fpg=", "properties": {"ref": "Greenway Station", "@spider": "dsw", "addr:full": "1700 Deming Way", "addr:city": "Middleton", "addr:state": "WI", "addr:postcode": "53562", "phone": "(608) 440-7643", "website": "https://stores.dsw.com/usa/wi/middleton/dsw-designer-shoe-warehouse-greenway-station.html", "opening_hours": "Mo 11:00-19:00; Tu-Sa 10:00-19:00", "brand": "Designer Shoe Warehouse", "brand:wikidata": "Q5206207"}, "geometry": {"type": "Point", "coordinates": [-89.529246, 43.092738]}},
{"type": "Feature", "id": "WczJJ-zYR3EX6Nn6HK06mVZKbrQ=", "properties": {"ref": "Mequon Pavillions", "@spider": "dsw", "addr:full": "11048 North Port Washington Road", "addr:city": "Mequon", "addr:state": "WI", "addr:postcode": "53092", "website": "https://stores.dsw.com/usa/wi/mequon/dsw-designer-shoe-warehouse-mequon-pavillions.html", "opening_hours": "Mo-Sa 10:00-19:00; Su 10:00-18:00", "brand": "Designer Shoe Warehouse", "brand:wikidata": "Q5206207"}, "geometry": {"type": "Point", "coordinates": [-87.9229328, 43.2196938]}},
{"type": "Feature", "id": "n75S17dyeYjABQ9InOFd-Xnth5E=", "properties": {"ref": "East Town Plaza", "@spider": "dsw", "addr:full": "2173 Zeier Rd.", "addr:city": "Madison", "addr:state": "WI", "addr:postcode": "53704", "phone": "(608) 807-0053", "website": "https://stores.dsw.com/usa/wi/madison/dsw-designer-shoe-warehouse-east-town-plaza.html", "opening_hours": "Mo-Sa 10:00-21:00; Su 10:00-19:00", "brand": "Designer Shoe Warehouse", "brand:wikidata": "Q5206207"}, "geometry": {"type": "Point", "coordinates": [-89.3014132976532, 43.12839652413582]}},
{"type": "Feature", "id": "hihXFwhCP5ri7Jeu8XdoOF7yKtg=", "properties": {"ref": "Southridge Mall", "@spider": "dsw", "addr:full": "5250 South 76th Street", "addr:city": "Greendale", "addr:state": "WI", "addr:postcode": "53129", "phone": "(414) 377-4060", "website": "https://stores.dsw.com/usa/wi/greendale/dsw-designer-shoe-warehouse-southridge-mall.html", "opening_hours": "Mo-Th 10:00-20:00; Fr-Sa 10:00-21:00; Su 10:00-18:00", "brand": "Designer Shoe Warehouse", "brand:wikidata": "Q5206207"}, "geometry": {"type": "Point", "coordinates": [-88.00786435604095, 42.94879368732022]}},
{"type": "Feature", "id": "zRAdY998WKV967K1hug1yJ2HObk=", "properties": {"ref": "Oak Pointe Plaza", "@spider": "dsw", "addr:full": "4076 Commonwealth Ave.", "addr:city": "Eau Claire", "addr:state": "WI", "addr:postcode": "54701", "phone": "(715) 318-4478", "website": "https://stores.dsw.com/usa/wi/eauclaire/dsw-designer-shoe-warehouse-oak-pointe-plaza.html", "opening_hours": "Mo-Sa 10:00-20:00; Su 11:00-19:00", "brand": "Designer Shoe Warehouse", "brand:wikidata": "Q5206207"}, "geometry": {"type": "Point", "coordinates": [-91.4331187, 44.773247]}},
{"type": "Feature", "id": "TOK7pOyy7rsrCm-z2x2KHMvFH8U=", "properties": {"ref": "Calhoun Crossing", "@spider": "dsw", "addr:full": "17300 W. Bluemound Road", "addr:city": "Brookfield", "addr:state": "WI", "addr:postcode": "53045", "phone": "(262) 393-7000", "website": "https://stores.dsw.com/usa/wi/brookfield/dsw-designer-shoe-warehouse-calhoun-crossing.html", "opening_hours": "Mo-Sa 10:00-21:00; Su 10:00-19:00", "brand": "Designer Shoe Warehouse", "brand:wikidata": "Q5206207"}, "geometry": {"type": "Point", "coordinates": [-88.1288253, 43.0378416]}},
{"type": "Feature", "id": "dPwpenyRHbS5Rva0tsBoaZmChcM=", "properties": {"ref": "Village at Bay Park", "@spider": "dsw", "addr:full": "800 Willard Drive", "addr:city": "Ashwaubenon", "addr:state": "WI", "addr:postcode": "54304", "phone": "(920) 405-9940", "website": "https://stores.dsw.com/usa/wi/ashwaubenon/dsw-designer-shoe-warehouse-village-at-bay-park.html", "opening_hours": "Mo-Sa 10:00-20:00; Su 10:00-18:00", "brand": "Designer Shoe Warehouse", "brand:wikidata": "Q5206207"}, "geometry": {"type": "Point", "coordinates": [-88.0614479, 44.4872629]}},
{"type": "Feature", "id": "p-1qYgWU94iw3WMqvF8QvWXTr-Q=", "properties": {"ref": "Fox River Plaza", "@spider": "dsw", "addr:full": "670 North Casaloma Drive", "addr:city": "Appleton", "addr:state": "WI", "addr:postcode": "54913", "phone": "(920) 733-7422", "website": "https://stores.dsw.com/usa/wi/appleton/dsw-designer-shoe-warehouse-fox-river-plaza.html", "opening_hours": "Mo-Sa 10:00-19:00; Su 11:00-18:00", "brand": "Designer Shoe Warehouse", "brand:wikidata": "Q5206207"}, "geometry": {"type": "Point", "coordinates": [-88.475727, 44.26878]}},
{"type": "Feature", "id": "DlFyB9dXAM1dB7kdV5qkUvsf0aA=", "properties": {"ref": "Westfield Eastland", "@spider": "dsw", "addr:full": "2753 E. Eastland Center Drive", "addr:city": "West Covina", "addr:state": "CA", "addr:postcode": "91791", "phone": "(626) 593-7466", "website": "https://stores.dsw.com/usa/ca/westcovina/dsw-designer-shoe-warehouse-westfield-eastland.html", "opening_hours": "Mo-Sa 10:00-20:00; Su 11:00-19:00", "brand": "Designer Shoe Warehouse", "brand:wikidata": "Q5206207"}, "geometry": {"type": "Point", "coordinates": [-117.88561, 34.0732381]}},
{"type": "Feature", "id": "viPvJRSPv-asA24MAKtKH023MQQ=", "properties": {"ref": "Gateway Plaza", "@spider": "dsw", "addr:full": "3725 S. Mooney Blvd", "addr:city": "Visalia", "addr:state": "CA", "addr:postcode": "93277", "phone": "(559) 308-7000", "website": "https://stores.dsw.com/usa/ca/visalia/dsw-designer-shoe-warehouse-gateway-plaza.html", "brand": "Designer Shoe Warehouse", "brand:wikidata": "Q5206207"}, "geometry": {"type": "Point", "coordinates": [-119.3154494, 36.2967793]}},
{"type": "Feature", "id": "oPLgpqySW7N7E3nFToPQCa6rhb0=", "properties": {"ref": "Westgate", "@spider": "dsw", "addr:full": "17502 Hawthorne Boulevard", "addr:city": "Torrance", "addr:state": "CA", "addr:postcode": "90504", "phone": "(310) 370-9918", "website": "https://stores.dsw.com/usa/ca/torrance/dsw-designer-shoe-warehouse-westgate.html", "opening_hours": "Mo-Sa 10:00-20:00; Su 11:00-18:00", "brand": "Designer Shoe Warehouse", "brand:wikidata": "Q5206207"}, "geometry": {"type": "Point", "coordinates": [-118.3508643, 33.8717391]}},
{"type": "Feature", "id": "BzovtBCZ97jzZGYd7_uxDLpeHVo=", "properties": {"ref": "Janss Marketplace", "@spider": "dsw", "addr:full": "145 W Hillcrest Drive", "addr:city": "Thousand Oaks", "addr:state": "CA", "addr:postcode": "91360", "phone": "(805) 719-5000", "website": "https://stores.dsw.com/usa/ca/thousandoaks/dsw-designer-shoe-warehouse-janss-marketplace.html", "opening_hours": "Mo-We 10:00-20:00; Th 10:00-21:00; Fr 10:00-20:00; Sa 11:00-20:00; Su 11:00-19:00", "brand": "Designer Shoe Warehouse", "brand:wikidata": "Q5206207"}, "geometry": {"type": "Point", "coordinates": [-118.8794692, 34.1815811]}},
{"type": "Feature", "id": "ZsXfx3nGPr7pICpxkBSNzDH5zUU=", "properties": {"ref": "Commons at Temecula", "@spider": "dsw", "addr:full": "40436 Winchester Rd", "addr:city": "Temecula", "addr:state": "CA", "addr:postcode": "92591", "phone": "(951) 348-3020", "website": "https://stores.dsw.com/usa/ca/temecula/dsw-designer-shoe-warehouse-commons-at-temecula.html", "opening_hours": "Mo-Sa 10:00-21:00; Su 10:00-19:00", "brand": "Designer Shoe Warehouse", "brand:wikidata": "Q5206207"}, "geometry": {"type": "Point", "coordinates": [-117.150948, 33.529585]}},
{"type": "Feature", "id": "gJnmx7t1W8a1m-uzugl4ehZ3QRk=", "properties": {"ref": "Sherman Oaks Galleria", "@spider": "dsw", "addr:full": "15301 Ventura Boulevard", "addr:city": "Sherman Oaks", "addr:state": "CA", "addr:postcode": "91403", "phone": "(818) 981-2377", "website": "https://stores.dsw.com/usa/ca/shermanoaks/dsw-designer-shoe-warehouse-sherman-oaks-galleria.html", "opening_hours": "Mo-Th 10:00-20:00; Fr-Sa 10:00-21:00; Su 11:00-19:00", "brand": "Designer Shoe Warehouse", "brand:wikidata": "Q5206207"}, "geometry": {"type": "Point", "coordinates": [-118.4672819, 34.1542509]}},
{"type": "Feature", "id": "Ttm4C06yzLaVWDzkUgWqqCVFUt8=", "properties": {"ref": "Trolley Square", "@spider": "dsw", "addr:full": "9902 Mission Gorge Road", "addr:city": "Santee", "addr:state": "CA", "addr:postcode": "92071", "phone": "(619) 383-7002", "website": "https://stores.dsw.com/usa/ca/santee/dsw-designer-shoe-warehouse-trolley-square.html", "opening_hours": "Mo-Sa 10:00-20:00; Su 11:00-19:00", "brand": "Designer Shoe Warehouse", "brand:wikidata": "Q5206207"}, "geometry": {"type": "Point", "coordinates": [-116.979874, 32.841479]}},
{"type": "Feature", "id": "PQadFVub0TayjwrH0xPGl72XTtk=", "properties": {"ref": "Santa Rosa", "@spider": "dsw", "addr:full": "2663 Santa Rosa Avenue", "addr:city": "Santa Rosa", "addr:state": "CA", "addr:postcode": "95404", "phone": "(707) 560-0001", "website": "https://stores.dsw.com/usa/ca/santarosa/dsw-designer-shoe-warehouse-2663-santa-rosa-avenue.html", "opening_hours": "Mo-Su 10:00-19:00", "brand": "Designer Shoe Warehouse", "brand:wikidata": "Q5206207"}, "geometry": {"type": "Point", "coordinates": [-122.71432647694901, 38.41274337833017]}},
{"type": "Feature", "id": "-Vy1kVwD_jXAMhvkzspwSghsgfo=", "properties": {"ref": "Hillsdale Shopping Center", "@spider": "dsw", "addr:full": "21 W. Hillsdale Blvd", "addr:city": "San Mateo", "addr:state": "CA", "addr:postcode": "94403", "phone": "(650) 212-7545", "website": "https://stores.dsw.com/usa/ca/sanmateo/dsw-designer-shoe-warehouse-hillsdale-shopping-center.html", "opening_hours": "Mo-Sa 10:00-21:00; Su 11:00-19:00", "brand": "Designer Shoe Warehouse", "brand:wikidata": "Q5206207"}, "geometry": {"type": "Point", "coordinates": [-122.2975977, 37.5360138]}},
{"type": "Feature", "id": "njS2YxdtY2WA2TblVHNxt6-wnyg=", "properties": {"ref": "Madonna Plaza", "@spider": "dsw", "addr:full": "243 Madonna Rd", "addr:city": "San Luis Obispo", "addr:state": "CA", "addr:postcode": "93405", "phone": "(805) 250-8389", "website": "https://stores.dsw.com/usa/ca/sanluisobispo/dsw-designer-shoe-warehouse-madonna-plaza.html", "opening_hours": "Mo-Sa 10:00-21:00; Su 11:00-19:00", "brand": "Designer Shoe Warehouse", "brand:wikidata": "Q5206207"}, "geometry": {"type": "Point", "coordinates": [-120.67442625761032, 35.26235733292444]}},
{"type": "Feature", "id": "Jc_zSBQ21vPod5xnlYpOz-zv9qI=", "properties": {"ref": "Bayfair Center", "@spider": "dsw", "addr:full": "15555 E 14th St", "addr:city": "San Leandro", "addr:state": "CA", "addr:postcode": "94578", "phone": "(510) 935-7005", "website": "https://stores.dsw.com/usa/ca/sanleandro/dsw-designer-shoe-warehouse-bayfair-center.html", "brand": "Designer Shoe Warehouse", "brand:wikidata": "Q5206207"}, "geometry": {"type": "Point", "coordinates": [-122.1243865, 37.7011868]}},
{"type": "Feature", "id": "NJGfbOpplHIXmpqXyRIlYR65Bk4=", "properties": {"ref": "Union Square", "@spider": "dsw", "addr:full": "400 Post Street", "addr:city": "San Francisco", "addr:state": "CA", "addr:postcode": "94102", "website": "https://stores.dsw.com/usa/ca/sanfrancisco/dsw-designer-shoe-warehouse-union-square.html", "brand": "Designer Shoe Warehouse", "brand:wikidata": "Q5206207"}, "geometry": {"type": "Point", "coordinates": [-122.4086332, 37.7885363]}},
{"type": "Feature", "id": "pZOeSzAlWNUVeQzpEqbmDrww-NI=", "properties": {"ref": "Westfield Shoppingtown Mission Valley", "@spider": "dsw", "addr:full": "836 Camino Del Rio North", "addr:city": "San Diego", "addr:state": "CA", "addr:postcode": "92108", "phone": "(619) 296-4079", "website": "https://stores.dsw.com/usa/ca/sandiego/dsw-designer-shoe-warehouse-westfield-shoppingtown-mission-valley.html", "opening_hours": "Mo-Sa 10:00-20:00; Su 10:00-19:00", "brand": "Designer Shoe Warehouse", "brand:wikidata": "Q5206207"}, "geometry": {"type": "Point", "coordinates": [-117.156325, 32.7657776]}},
{"type": "Feature", "id": "tnMWqTNqtp7bKdpGoqickfYUihA=", "properties": {"ref": "Northridge Mall", "@spider": "dsw", "addr:full": "870 Northridge Center", "addr:city": "Salinas", "addr:state": "CA", "addr:postcode": "93906", "phone": "(831) 975-2551", "website": "https://stores.dsw.com/usa/ca/salinas/dsw-designer-shoe-warehouse-northridge-mall.html", "opening_hours": "Mo-Sa 10:00-19:00; Su 11:00-19:00", "brand": "Designer Shoe Warehouse", "brand:wikidata": "Q5206207"}, "geometry": {"type": "Point", "coordinates": [-121.657846, 36.7208275]}},
{"type": "Feature", "id": "uNKIzZoZHIEdLDRbVs6re-FAktI=", "properties": {"ref": "Arden Way", "@spider": "dsw", "addr:full": "1901 Arden Way", "addr:city": "Sacramento", "addr:state": "CA", "addr:postcode": "95815", "phone": "(916) 923-9557", "website": "https://stores.dsw.com/usa/ca/sacramento/dsw-designer-shoe-warehouse-arden-way.html", "opening_hours": "Mo-Su 10:00-18:00", "brand": "Designer Shoe Warehouse", "brand:wikidata": "Q5206207"}, "geometry": {"type": "Point", "coordinates": [-121.42095208168024, 38.59863548330489]}},
{"type": "Feature", "id": "E9Q4p7Jy4kEdd0M3OHBrBB082Qs=", "properties": {"ref": "Fountains at Roseville", "@spider": "dsw", "addr:full": "1021 Galleria Boulevard", "addr:city": "Roseville", "addr:state": "CA", "addr:postcode": "95678", "phone": "(916) 784-2001", "website": "https://stores.dsw.com/usa/ca/roseville/dsw-designer-shoe-warehouse-fountains-at-roseville.html", "opening_hours": "Mo-Sa 10:00-20:00; Su 10:00-19:00", "brand": "Designer Shoe Warehouse", "brand:wikidata": "Q5206207"}, "geometry": {"type": "Point", "coordinates": [-121.2704731, 38.7677172]}},
{"type": "Feature", "id": "x-C1UXl4yZ7zMtUl1TkpwDmQk3A=", "properties": {"ref": "Citrus Plaza", "@spider": "dsw", "addr:full": "27536 Lugonia Avenue", "addr:city": "Redlands", "addr:state": "CA", "addr:postcode": "92374", "phone": "(909) 792-5020", "website": "https://stores.dsw.com/usa/ca/redlands/dsw-designer-shoe-warehouse-citrus-plaza.html", "opening_hours": "Mo-Sa 10:00-20:00; Su 11:00-19:00", "brand": "Designer Shoe Warehouse", "brand:wikidata": "Q5206207"}, "geometry": {"type": "Point", "coordinates": [-117.2035386, 34.0729256]}},
{"type": "Feature", "id": "4xCu3W9tgLP8U0OZuAEWRPR52Rs=", "properties": {"ref": "Crossroads Shopping Center", "@spider": "dsw", "addr:full": "2316 Monument Blvd", "addr:city": "Pleasant Hill", "addr:state": "CA", "addr:postcode": "94523", "phone": "(925) 521-6604", "website": "https://stores.dsw.com/usa/ca/pleasanthill/dsw-designer-shoe-warehouse-crossroads-shopping-center.html", "opening_hours": "Mo-Sa 10:00-20:00; Su 10:00-19:00", "brand": "Designer Shoe Warehouse", "brand:wikidata": "Q5206207"}, "geometry": {"type": "Point", "coordinates": [-122.0585956, 37.9419252]}},
{"type": "Feature", "id": "sLWS93qhyKCNWPxD9Q4Q3s4Pza4=", "properties": {"ref": "Paseo Colorado", "@spider": "dsw", "addr:full": "300 East Colorado Boulevard", "addr:city": "Pasadena", "addr:state": "CA", "addr:postcode": "91101", "phone": "(626) 578-7530", "website": "https://stores.dsw.com/usa/ca/pasadena/dsw-designer-shoe-warehouse-paseo-colorado.html", "opening_hours": "Mo-Sa 10:00-20:00; Su 11:00-19:00", "brand": "Designer Shoe Warehouse", "brand:wikidata": "Q5206207"}, "geometry": {"type": "Point", "coordinates": [-118.1425745, 34.1456547]}},
{"type": "Feature", "id": "29j8nBLsHaCkkL4oe4cA-eop7_I=", "properties": {"ref": "Desert Crossing", "@spider": "dsw", "addr:full": "72-399 Highway 111", "addr:city": "Palm Desert", "addr:state": "CA", "addr:postcode": "92260", "phone": "(760) 340-3217", "website": "https://stores.dsw.com/usa/ca/palmdesert/dsw-designer-shoe-warehouse-desert-crossing.html", "opening_hours": "Mo-Sa 10:00-17:00; Su 11:00-17:00", "brand": "Designer Shoe Warehouse", "brand:wikidata": "Q5206207"}, "geometry": {"type": "Point", "coordinates": [-116.4045326, 33.7262967]}},
{"type": "Feature", "id": "-sWD-ESB0n6gdc1-TP58fPG-gLw=", "properties": {"ref": "Ontario Piedmont", "@spider": "dsw", "addr:full": "4120 East Fourth Street", "addr:city": "Ontario", "addr:state": "CA", "addr:postcode": "91764", "phone": "(909) 466-0345", "website": "https://stores.dsw.com/usa/ca/ontario/dsw-designer-shoe-warehouse-ontario-piedmont.html", "opening_hours": "Mo-Sa 10:00-21:00; Su 11:00-19:00", "brand": "Designer Shoe Warehouse", "brand:wikidata": "Q5206207"}, "geometry": {"type": "Point", "coordinates": [-117.5623498, 34.0755411]}},
{"type": "Feature", "id": "sjiiaj1xqgKhUdPE9YupcHkaiZM=", "properties": {"ref": "Vintage Oaks Mall", "@spider": "dsw", "addr:full": "136 Vintage Way", "addr:city": "Novato", "addr:state": "CA", "addr:postcode": "94945", "phone": "(415) 897-5718", "website": "https://stores.dsw.com/usa/ca/novato/dsw-designer-shoe-warehouse-vintage-oaks-mall.html", "opening_hours": "Mo-Su 11:00-18:00", "brand": "Designer Shoe Warehouse", "brand:wikidata": "Q5206207"}, "geometry": {"type": "Point", "coordinates": [-122.5549310445785, 38.090813083977665]}},
{"type": "Feature", "id": "5KijhQaovqaGP4xMRZubscQ08KE=", "properties": {"ref": "Plaza de Northridge", "@spider": "dsw", "addr:full": "19500 Plummer Street", "addr:city": "Northridge", "addr:state": "CA", "addr:postcode": "91324", "phone": "(818) 727-1470", "website": "https://stores.dsw.com/usa/ca/northridge/dsw-designer-shoe-warehouse-plaza-de-northridge.html", "opening_hours": "Mo-Sa 10:00-21:00; Su 11:00-19:00", "brand": "Designer Shoe Warehouse", "brand:wikidata": "Q5206207"}, "geometry": {"type": "Point", "coordinates": [-118.558519, 34.241192]}},
{"type": "Feature", "id": "RjYIhoMibzlY9xs6XEAIla2Bd6c=", "properties": {"ref": "Morgan Hill", "@spider": "dsw", "addr:full": "1015 Cochrane Road", "addr:city": "Morgan Hill", "addr:state": "CA", "addr:postcode": "95037", "phone": "(408) 465-2025", "website": "https://stores.dsw.com/usa/ca/morganhill/dsw-designer-shoe-warehouse-morgan-hill.html", "opening_hours": "Mo-Sa 10:00-21:00; Su 11:00-19:00", "brand": "Designer Shoe Warehouse", "brand:wikidata": "Q5206207"}, "geometry": {"type": "Point", "coordinates": [-121.6524918, 37.1549724]}},
{"type": "Feature", "id": "YNO4pND-vUBhWm_VjmoWed5CpR0=", "properties": {"ref": "Vintage Commons", "@spider": "dsw", "addr:full": "3900 Sisk Road", "addr:city": "Modesto", "addr:state": "CA", "addr:postcode": "95356", "phone": "(209) 846-2682", "website": "https://stores.dsw.com/usa/ca/modesto/dsw-designer-shoe-warehouse-vintage-commons.html", "opening_hours": "Mo-Sa 10:00-21:00; Su 10:00-19:00", "brand": "Designer Shoe Warehouse", "brand:wikidata": "Q5206207"}, "geometry": {"type": "Point", "coordinates": [-121.06235951185226, 37.69366683192727]}},
{"type": "Feature", "id": "eTxeKBM8L5jKuY32F1cv1KFbS18=", "properties": {"ref": "Mission Viejo Town Center", "@spider": "dsw", "addr:full": "28341 Marguerite Parkway", "addr:city": "Mission Viejo", "addr:state": "CA", "addr:postcode": "92692", "phone": "(949) 392-7063", "website": "https://stores.dsw.com/usa/ca/missionviejo/dsw-designer-shoe-warehouse-mission-viejo-town-center.html", "brand": "Designer Shoe Warehouse", "brand:wikidata": "Q5206207"}, "geometry": {"type": "Point", "coordinates": [-117.67202036441807, 33.551140411331595]}},
{"type": "Feature", "id": "T-muPpmPkbHfEhBiRodsokR9P6E=", "properties": {"ref": "Villa Marina", "@spider": "dsw", "addr:full": "13450 Maxella Avenue", "addr:city": "Marina Del Rey", "addr:state": "CA", "addr:postcode": "90292", "phone": "(310) 823-0600", "website": "https://stores.dsw.com/usa/ca/marinadelrey/dsw-designer-shoe-warehouse-villa-marina.html", "opening_hours": "Mo-Sa 10:00-21:00; Su 11:00-19:00", "brand": "Designer Shoe Warehouse", "brand:wikidata": "Q5206207"}, "geometry": {"type": "Point", "coordinates": [-118.441318, 33.986249]}},
{"type": "Feature", "id": "YW-GVeu0Ke5yTPiiq1ZTC8QCIr0=", "properties": {"ref": "Pavilion at La Quinta", "@spider": "dsw", "addr:full": "79150 Highway 111", "addr:city": "La Quinta", "addr:state": "CA", "addr:postcode": "92253", "phone": "(760) 564-4702", "website": "https://stores.dsw.com/usa/ca/laquinta/dsw-designer-shoe-warehouse-pavilion-at-la-quinta.html", "opening_hours": "Mo-Sa 10:00-19:00; Su 11:00-19:00", "brand": "Designer Shoe Warehouse", "brand:wikidata": "Q5206207"}, "geometry": {"type": "Point", "coordinates": [-116.28348380327225, 33.70915640928185]}},
{"type": "Feature", "id": "PXR3gpWig5ZCTcyALqezHSQguhM=", "properties": {"ref": "La Jolla Village", "@spider": "dsw", "addr:full": "8657 Villa La Jolla Drive", "addr:city": "La Jolla", "addr:state": "CA", "addr:postcode": "92037", "phone": "(858) 657-0314", "website": "https://stores.dsw.com/usa/ca/lajolla/dsw-designer-shoe-warehouse-la-jolla-village.html", "opening_hours": "Mo-Sa 10:00-21:00; Su 11:00-19:00", "brand": "Designer Shoe Warehouse", "brand:wikidata": "Q5206207"}, "geometry": {"type": "Point", "coordinates": [-117.231188, 32.864829]}},
{"type": "Feature", "id": "2pvYuf7_8AB17e1rFBNp5BFvADM=", "properties": {"ref": "Glendale Marketplace", "@spider": "dsw", "addr:full": "106 S. Brand Blvd", "addr:city": "Glendale", "addr:state": "CA", "addr:postcode": "91204", "website": "https://stores.dsw.com/usa/ca/glendale/dsw-designer-shoe-warehouse-glendale-marketplace.html", "brand": "Designer Shoe Warehouse", "brand:wikidata": "Q5206207"}, "geometry": {"type": "Point", "coordinates": [-118.254784, 34.1457008]}},
{"type": "Feature", "id": "XzR33Dc-Bp8M6AJ4DdkoDn-hN2o=", "properties": {"ref": "Villaggio", "@spider": "dsw", "addr:full": "7923 Blackstone Ave", "addr:city": "Fresno", "addr:state": "CA", "addr:postcode": "93720", "phone": "(559) 777-6089", "website": "https://stores.dsw.com/usa/ca/fresno/dsw-designer-shoe-warehouse-villaggio.html", "opening_hours": "Mo-Sa 10:00-21:00; Su 11:00-19:00", "brand": "Designer Shoe Warehouse", "brand:wikidata": "Q5206207"}, "geometry": {"type": "Point", "coordinates": [-119.7944305, 36.8508439]}},
{"type": "Feature", "id": "mGrcwCPZc8Wsyr3p0lkIA0096uM=", "properties": {"ref": "Pacific Commons", "@spider": "dsw", "addr:full": "43530 Christy Street", "addr:city": "Fremont", "addr:state": "CA", "addr:postcode": "94538", "phone": "(510) 623-0310", "website": "https://stores.dsw.com/usa/ca/fremont/dsw-designer-shoe-warehouse-pacific-commons.html", "opening_hours": "Mo-Sa 10:00-21:00; Su 11:00-19:00", "brand": "Designer Shoe Warehouse", "brand:wikidata": "Q5206207"}, "geometry": {"type": "Point", "coordinates": [-121.9690145, 37.505436]}},
{"type": "Feature", "id": "6XBgboYJ8iGeQ-y5etaO1qzDpbE=", "properties": {"ref": "Folsom Gateway", "@spider": "dsw", "addr:full": "2395 Iron Point Road", "addr:city": "Folsom", "addr:state": "CA", "addr:postcode": "95630", "phone": "(916) 984-0229", "website": "https://stores.dsw.com/usa/ca/folsom/dsw-designer-shoe-warehouse-folsom-gateway.html", "opening_hours": "Mo-Sa 10:00-20:00; Su 10:00-19:00", "brand": "Designer Shoe Warehouse", "brand:wikidata": "Q5206207"}, "geometry": {"type": "Point", "coordinates": [-121.122188, 38.643962]}},
{"type": "Feature", "id": "bDOb7mpfquDiTWhhetJH9JfFQh8=", "properties": {"ref": "Laguna Crossroads", "@spider": "dsw", "addr:full": "7415 Laguna Blvd", "addr:city": "Elk Grove", "addr:state": "CA", "addr:postcode": "95758", "phone": "(916) 525-8715", "website": "https://stores.dsw.com/usa/ca/elkgrove/dsw-designer-shoe-warehouse-laguna-crossroads.html", "opening_hours": "Mo-Sa 10:00-21:00; Su 10:00-19:00", "brand": "Designer Shoe Warehouse", "brand:wikidata": "Q5206207"}, "geometry": {"type": "Point", "coordinates": [-121.4171641, 38.4241919]}},
{"type": "Feature", "id": "gze4xx0OrW9HyWZVW_lwNn9_E_I=", "properties": {"ref": "Plaza Imperial Valley", "@spider": "dsw", "addr:full": "572 East Danenberg Drive", "addr:city": "El Centro", "addr:state": "CA", "addr:postcode": "92243", "phone": "(760) 337-8308", "website": "https://stores.dsw.com/usa/ca/elcentro/dsw-designer-shoe-warehouse-plaza-imperial-valley.html", "brand": "Designer Shoe Warehouse", "brand:wikidata": "Q5206207"}, "geometry": {"type": "Point", "coordinates": [-115.5317051, 32.7680972]}},
{"type": "Feature", "id": "5CYVVg_V2mV_aPaOdwLzq7SFy-4=", "properties": {"ref": "Dublin Retail Center", "@spider": "dsw", "addr:full": "7896 Dublin Boulevard", "addr:city": "Dublin", "addr:state": "CA", "addr:postcode": "94568", "phone": "(925) 833-1590", "website": "https://stores.dsw.com/usa/ca/dublin/dsw-designer-shoe-warehouse-dublin-retail-center.html", "opening_hours": "Mo-Sa 11:00-20:00; Su 11:00-18:00", "brand": "Designer Shoe Warehouse", "brand:wikidata": "Q5206207"}, "geometry": {"type": "Point", "coordinates": [-121.9324355, 37.7017587]}},
{"type": "Feature", "id": "vxJHXCG21Qn9CUCsu-TnSrj_b7A=", "properties": {"ref": "Downey Landing", "@spider": "dsw", "addr:full": "12058 Lakewood Boulevard", "addr:city": "Downey", "addr:state": "CA", "addr:postcode": "90242", "phone": "(562) 803-3474", "website": "https://stores.dsw.com/usa/ca/downey/dsw-designer-shoe-warehouse-downey-landing.html", "opening_hours": "Mo-Sa 10:00-21:00; Su 11:00-19:00", "brand": "Designer Shoe Warehouse", "brand:wikidata": "Q5206207"}, "geometry": {"type": "Point", "coordinates": [-118.126275, 33.926869]}},
{"type": "Feature", "id": "R1t6POAqglDYYB78G84Izeh7PLQ=", "properties": {"ref": "Westlake Village", "@spider": "dsw", "addr:full": "306 Westlake Village", "addr:city": "Daly City", "addr:state": "CA", "addr:postcode": "94015", "phone": "(650) 755-0270", "website": "https://stores.dsw.com/usa/ca/dalycity/dsw-designer-shoe-warehouse-westlake-village.html", "opening_hours": "Mo-Su 10:00-18:00", "brand": "Designer Shoe Warehouse", "brand:wikidata": "Q5206207"}, "geometry": {"type": "Point", "coordinates": [-122.4839623, 37.7004036]}},
{"type": "Feature", "id": "NpMnTGpW17h0u30-7CqKOfi_5jA=", "properties": {"ref": "Metro Point at South Coast", "@spider": "dsw", "addr:full": "901-B South Coast Drive", "addr:city": "Costa Mesa", "addr:state": "CA", "addr:postcode": "92626", "phone": "(714) 668-9631", "website": "https://stores.dsw.com/usa/ca/costamesa/dsw-designer-shoe-warehouse-metro-point-at-south-coast.html", "opening_hours": "Mo-Sa 10:00-19:00; Su 11:00-19:00", "brand": "Designer Shoe Warehouse", "brand:wikidata": "Q5206207"}, "geometry": {"type": "Point", "coordinates": [-117.895744, 33.688958]}},
{"type": "Feature", "id": "NX2rkIjEc-eAvNUYwcqvq_acsQY=", "properties": {"ref": "Otay Ranch Town Center", "@spider": "dsw", "addr:full": "2015 Birch Road", "addr:city": "Chula Vista", "addr:state": "CA", "addr:postcode": "91915", "phone": "(619) 421-8632", "website": "https://stores.dsw.com/usa/ca/chulavista/dsw-designer-shoe-warehouse-otay-ranch-town-center.html", "opening_hours": "Mo-Th 10:00-20:00; Fr-Sa 10:00-21:00; Su 11:00-19:00", "brand": "Designer Shoe Warehouse", "brand:wikidata": "Q5206207"}, "geometry": {"type": "Point", "coordinates": [-116.9681564, 32.6231735]}},
{"type": "Feature", "id": "iz5Pl7sHV05I_xJ3JgTdVQ8BSOc=", "properties": {"ref": "Chino Spectrum TC", "@spider": "dsw", "addr:full": "4049 Grand Ave", "addr:city": "Chino", "addr:state": "CA", "addr:postcode": "91710", "phone": "(909) 315-7026", "website": "https://stores.dsw.com/usa/ca/chino/dsw-designer-shoe-warehouse-chino-spectrum-tc.html", "opening_hours": "Mo-Sa 10:00-21:00; Su 11:00-19:00", "brand": "Designer Shoe Warehouse", "brand:wikidata": "Q5206207"}, "geometry": {"type": "Point", "coordinates": [-117.7164605, 33.9958356]}},
{"type": "Feature", "id": "-DkTQEQ3eA2cR2fUdN9AhQ83ieo=", "properties": {"ref": "Woodland Hills", "@spider": "dsw", "addr:full": "6510 Canoga Avenue", "addr:city": "Canoga Park", "addr:state": "CA", "addr:postcode": "91303", "phone": "(818) 264-4235", "website": "https://stores.dsw.com/usa/ca/canogapark/dsw-designer-shoe-warehouse-woodland-hills.html", "opening_hours": "Mo-Sa 10:00-21:00; Su 11:00-19:00", "brand": "Designer Shoe Warehouse", "brand:wikidata": "Q5206207"}, "geometry": {"type": "Point", "coordinates": [-118.5954843, 34.1887275]}},
{"type": "Feature", "id": "ZQqPhb8SiKEQSGb_rr8d0pp_HYk=", "properties": {"ref": "Buena Park Mall", "@spider": "dsw", "addr:full": "8251 On the Mall", "addr:city": "Buena Park", "addr:state": "CA", "addr:postcode": "90620", "phone": "(714) 226-0429", "website": "https://stores.dsw.com/usa/ca/buenapark/dsw-designer-shoe-warehouse-buena-park-mall.html", "opening_hours": "Mo-Sa 10:00-21:00; Su 11:00-19:00", "brand": "Designer Shoe Warehouse", "brand:wikidata": "Q5206207"}, "geometry": {"type": "Point", "coordinates": [-117.9896816, 33.8453768]}},
{"type": "Feature", "id": "ZgygVnxV7druduhyTjrRyrEZU8g=", "properties": {"ref": "Streets of Brentwood", "@spider": "dsw", "addr:full": "2555 Sand Creek Road", "addr:city": "Brentwood", "addr:state": "CA", "addr:postcode": "94513", "phone": "(925) 513-8752", "website": "https://stores.dsw.com/usa/ca/brentwood/dsw-designer-shoe-warehouse-streets-of-brentwood.html", "opening_hours": "Mo-Sa 10:00-20:00; Su 10:00-18:00", "brand": "Designer Shoe Warehouse", "brand:wikidata": "Q5206207"}, "geometry": {"type": "Point", "coordinates": [-121.73776924610138, 37.94665957190666]}},
{"type": "Feature", "id": "f4u4buZDnDJAA91LFBE5FSW7N5k=", "properties": {"ref": "Brea Plaza", "@spider": "dsw", "addr:full": "431 Associated Road", "addr:city": "Brea", "addr:state": "CA", "addr:postcode": "92821", "phone": "(714) 494-1286", "website": "https://stores.dsw.com/usa/ca/brea/dsw-designer-shoe-warehouse-brea-plaza.html", "opening_hours": "Mo-Sa 10:00-21:00; Su 11:00-19:00", "brand": "Designer Shoe Warehouse", "brand:wikidata": "Q5206207"}, "geometry": {"type": "Point", "coordinates": [-117.88120061159134, 33.912685405302796]}},
{"type": "Feature", "id": "QBHyJBpmcXnltMpNz2KoleLzSTE=", "properties": {"ref": "Shops at Riverwalk", "@spider": "dsw", "addr:full": "10540 Stockdale Highway", "addr:city": "Bakersfield", "addr:state": "CA", "addr:postcode": "93311", "phone": "(661) 473-2045", "website": "https://stores.dsw.com/usa/ca/bakersfield/dsw-designer-shoe-warehouse-shops-at-riverwalk.html", "opening_hours": "Mo-Sa 10:00-21:00; Su 11:00-19:00", "brand": "Designer Shoe Warehouse", "brand:wikidata": "Q5206207"}, "geometry": {"type": "Point", "coordinates": [-119.1200866, 35.3522491]}},
{"type": "Feature", "id": "V4KswOxiswGPXoUTy8WIP5_RfsY=", "properties": {"ref": "Front Range Village", "@spider": "dsw", "addr:full": "4431 Corbett Drive", "addr:city": "Fort Collins", "addr:state": "CO", "addr:postcode": "80528", "phone": "(970) 223-2399", "website": "https://stores.dsw.com/usa/co/fortcollins/dsw-designer-shoe-warehouse-front-range-village.html", "opening_hours": "Mo-Sa 10:00-21:00; Su 10:00-19:00", "brand": "Designer Shoe Warehouse", "brand:wikidata": "Q5206207"}, "geometry": {"type": "Point", "coordinates": [-105.0272952, 40.5250765]}},
{"type": "Feature", "id": "ZTJPaTkRy6yTa4nUtG7PPxjYe58=", "properties": {"ref": "Cherry Creek", "@spider": "dsw", "addr:full": "4100 East Mexico Avenue", "addr:city": "Denver", "addr:state": "CO", "addr:postcode": "80222", "phone": "(303) 758-1733", "website": "https://stores.dsw.com/usa/co/denver/dsw-designer-shoe-warehouse-cherry-creek.html", "opening_hours": "Mo-Sa 10:00-20:00; Su 10:00-19:00", "brand": "Designer Shoe Warehouse", "brand:wikidata": "Q5206207"}, "geometry": {"type": "Point", "coordinates": [-104.9384904, 39.6842631]}},
{"type": "Feature", "id": "qBsBYMbd1NBA87G3IxDhJdqoVGE=", "properties": {"ref": "Market at Chapel Hills", "@spider": "dsw", "addr:full": "7639 North Academy Boulevard", "addr:city": "Colorado Springs", "addr:state": "CO", "addr:postcode": "80920", "phone": "(719) 264-8007", "website": "https://stores.dsw.com/usa/co/coloradosprings/dsw-designer-shoe-warehouse-market-at-chapel-hills.html", "opening_hours": "Mo-Sa 10:00-21:00; Su 10:00-19:00", "brand": "Designer Shoe Warehouse", "brand:wikidata": "Q5206207"}, "geometry": {"type": "Point", "coordinates": [-104.7973878, 38.9424641]}},
{"type": "Feature", "id": "FlpOHb2MQ2a8dqL8lrgTXzkL_EQ=", "properties": {"ref": "Main Street at Flatirons", "@spider": "dsw", "addr:full": "595 Flatiron Boulevard", "addr:city": "Broomfield", "addr:state": "CO", "addr:postcode": "80021", "phone": "(303) 466-3594", "website": "https://stores.dsw.com/usa/co/broomfield/dsw-designer-shoe-warehouse-main-street-at-flatirons.html", "opening_hours": "Mo-Sa 10:00-20:00; Su 10:00-19:00", "brand": "Designer Shoe Warehouse", "brand:wikidata": "Q5206207"}, "geometry": {"type": "Point", "coordinates": [-105.130964, 39.928561]}},
{"type": "Feature", "id": "tw1ZS2augJnz4MQOu6aAcwIfrNs=", "properties": {"ref": "Cornerstar", "@spider": "dsw", "addr:full": "15600 East Briarwood Circle", "addr:city": "Aurora", "addr:state": "CO", "addr:postcode": "80016", "phone": "(303) 400-0236", "website": "https://stores.dsw.com/usa/co/aurora/dsw-designer-shoe-warehouse-cornerstar.html", "opening_hours": "Mo-Sa 10:00-20:00; Su 10:00-19:00", "brand": "Designer Shoe Warehouse", "brand:wikidata": "Q5206207"}, "geometry": {"type": "Point", "coordinates": [-104.8058387, 39.5916835]}},
{"type": "Feature", "id": "WG9-Jqnb2izjAgOu0MQv_lX8YNk=", "properties": {"ref": "High Ridge Center", "@spider": "dsw", "addr:full": "1145 High Ridge Rd", "addr:city": "Stamford", "addr:state": "CT", "addr:postcode": "06905", "phone": "(203) 350-4002", "website": "https://stores.dsw.com/usa/ct/stamford/dsw-designer-shoe-warehouse-high-ridge-center.html", "opening_hours": "Mo-Sa 10:00-21:00; Su 10:00-20:00", "brand": "Designer Shoe Warehouse", "brand:wikidata": "Q5206207"}, "geometry": {"type": "Point", "coordinates": [-73.5469989, 41.1091577]}},
{"type": "Feature", "id": "2IHQZt7_RK7YcECYWaJhPb9YnYA=", "properties": {"ref": "Connecticut Commons", "@spider": "dsw", "addr:full": "276 New Britain Avenue", "addr:city": "Plainville", "addr:state": "CT", "addr:postcode": "06062", "phone": "(860) 747-6900", "website": "https://stores.dsw.com/usa/ct/plainville/dsw-designer-shoe-warehouse-connecticut-commons.html", "opening_hours": "Mo-Sa 10:00-21:00; Su 11:00-19:00", "brand": "Designer Shoe Warehouse", "brand:wikidata": "Q5206207"}, "geometry": {"type": "Point", "coordinates": [-72.8410875, 41.673356]}},
{"type": "Feature", "id": "EvbfyPq7P14N2tpgJeB1OHjmUMo=", "properties": {"ref": "Raymour Flannigan Center", "@spider": "dsw", "addr:full": "538 Boston Post Road", "addr:city": "Orange", "addr:state": "CT", "addr:postcode": "06477", "phone": "(203) 795-4201", "website": "https://stores.dsw.com/usa/ct/orange/dsw-designer-shoe-warehouse-raymour-flannigan-center.html", "opening_hours": "Mo-Sa 10:00-20:00; Su 11:00-19:00", "brand": "Designer Shoe Warehouse", "brand:wikidata": "Q5206207"}, "geometry": {"type": "Point", "coordinates": [-73.016165, 41.25246]}},
{"type": "Feature", "id": "aXhEQmgzE-rWtfzlj9OZnDTb-hY=", "properties": {"ref": "North Haven Crossing", "@spider": "dsw", "addr:full": "410 Universal Drive N", "addr:city": "North Haven", "addr:state": "CT", "addr:postcode": "06473", "phone": "(203) 985-8241", "website": "https://stores.dsw.com/usa/ct/northhaven/dsw-designer-shoe-warehouse-north-haven-crossing.html", "opening_hours": "Mo-Sa 10:00-21:00; Su 10:00-18:00", "brand": "Designer Shoe Warehouse", "brand:wikidata": "Q5206207"}, "geometry": {"type": "Point", "coordinates": [-72.873136, 41.355953]}},
{"type": "Feature", "id": "3R6yY6BRfW--tj8pcyXAE5EjU4Y=", "properties": {"ref": "Slater Street", "@spider": "dsw", "addr:full": "110B Slater Street", "addr:city": "Manchester", "addr:state": "CT", "addr:postcode": "06040", "phone": "(860) 644-6200", "website": "https://stores.dsw.com/usa/ct/manchester/dsw-designer-shoe-warehouse-slater-street.html", "opening_hours": "Mo-Sa 10:00-21:00; Su 10:00-19:00", "brand": "Designer Shoe Warehouse", "brand:wikidata": "Q5206207"}, "geometry": {"type": "Point", "coordinates": [-72.5358536, 41.8071864]}},
{"type": "Feature", "id": "m9mKr7Fvyj82nm8pJfAkvIM9qKw=", "properties": {"ref": "Guilford Commons", "@spider": "dsw", "addr:full": "1919 Boston Post Road", "addr:city": "Guilford", "addr:state": "CT", "addr:postcode": "06437", "phone": "(203) 738-7013", "website": "https://stores.dsw.com/usa/ct/guilford/dsw-designer-shoe-warehouse-guilford-commons.html", "opening_hours": "Mo-We 10:00-20:00; Th-Sa 10:00-21:00; Su 11:00-18:00", "brand": "Designer Shoe Warehouse", "brand:wikidata": "Q5206207"}, "geometry": {"type": "Point", "coordinates": [-72.7074218, 41.3000682]}},
{"type": "Feature", "id": "kqqk-wMTozgrOTGwkv-LpoA96JE=", "properties": {"ref": "Newington West Farms Center", "@spider": "dsw", "addr:full": "1595 CT Route 71", "addr:city": "Farmington", "addr:state": "CT", "addr:postcode": "06032", "phone": "(860) 421-7020", "website": "https://stores.dsw.com/usa/ct/farmington/dsw-designer-shoe-warehouse-newington-west-farms-center.html", "opening_hours": "Mo-Sa 10:00-21:00; Su 10:00-19:00", "brand": "Designer Shoe Warehouse", "brand:wikidata": "Q5206207"}, "geometry": {"type": "Point", "coordinates": [-72.761025, 41.7178166]}},
{"type": "Feature", "id": "SwBwQenG__6JcvAIbTVgRXy18to=", "properties": {"ref": "Fairfield Centre", "@spider": "dsw", "addr:full": "696 Post Road", "addr:city": "Fairfield", "addr:state": "CT", "addr:postcode": "06824", "phone": "(475) 999-7000", "website": "https://stores.dsw.com/usa/ct/fairfield/dsw-designer-shoe-warehouse-fairfield-centre.html", "opening_hours": "Mo-Sa 09:30-21:00; Su 10:00-19:00", "brand": "Designer Shoe Warehouse", "brand:wikidata": "Q5206207"}, "geometry": {"type": "Point", "coordinates": [-73.2472550868988, 41.149564796497245]}},
{"type": "Feature", "id": "JJGi43oW_eud8nD0oSgSDSlK37c=", "properties": {"ref": "Enfield Commons", "@spider": "dsw", "addr:full": "25 Hazard Ave.", "addr:city": "Enfield", "addr:state": "CT", "addr:postcode": "06082", "phone": "(860) 265-1172", "website": "https://stores.dsw.com/usa/ct/enfield/dsw-designer-shoe-warehouse-enfield-commons.html", "opening_hours": "Mo-Sa 10:00-21:00; Su 10:00-19:00", "brand": "Designer Shoe Warehouse", "brand:wikidata": "Q5206207"}, "geometry": {"type": "Point", "coordinates": [-72.581174, 41.991503]}},
{"type": "Feature", "id": "OVbwLDBLNv1-Uq3HWOBPgu0gIig=", "properties": {"ref": "Danbury Green", "@spider": "dsw", "addr:full": "113 Mill Plain Road", "addr:city": "Danbury", "addr:state": "CT", "addr:postcode": "06811", "phone": "(203) 794-0074", "website": "https://stores.dsw.com/usa/ct/danbury/dsw-designer-shoe-warehouse-danbury-green.html", "opening_hours": "Mo-Sa 10:00-21:00; Su 10:00-19:00", "brand": "Designer Shoe Warehouse", "brand:wikidata": "Q5206207"}, "geometry": {"type": "Point", "coordinates": [-73.520853, 41.3929855]}},
{"type": "Feature", "id": "asYOuv38nP2WLLhgNBXKDoxbLTE=", "properties": {"ref": "Tyrone Square", "@spider": "dsw", "addr:full": "6999 Tyrone Square", "addr:city": "St. Petersburg", "addr:state": "FL", "addr:postcode": "33710", "phone": "(727) 362-6540", "website": "https://stores.dsw.com/usa/fl/st.petersburg/dsw-designer-shoe-warehouse-tyrone-square.html", "opening_hours": "Mo-Sa 10:00-20:00; Su 10:00-19:00", "brand": "Designer Shoe Warehouse", "brand:wikidata": "Q5206207"}, "geometry": {"type": "Point", "coordinates": [-82.734211, 27.79495]}},
{"type": "Feature", "id": "NSSelh9Sl9-rGV7rvqbCDwv9LJ0=", "properties": {"ref": "University Town Center", "@spider": "dsw", "addr:full": "151 N. Cattlemen Road", "addr:city": "Sarasota", "addr:state": "FL", "addr:postcode": "34243", "phone": "(941) 702-7005", "website": "https://stores.dsw.com/usa/fl/sarasota/dsw-designer-shoe-warehouse-university-town-center.html", "opening_hours": "Mo-Sa 10:00-20:00; Su 10:00-19:00", "brand": "Designer Shoe Warehouse", "brand:wikidata": "Q5206207"}, "geometry": {"type": "Point", "coordinates": [-82.4579196, 27.3826437]}},
{"type": "Feature", "id": "dk80QsZEtsK8hk5cWTleFU-xI-s=", "properties": {"ref": "The Landing at Tradition", "@spider": "dsw", "addr:full": "10902 SW Village Pkwy", "addr:city": "Port St. Lucie", "addr:state": "FL", "addr:postcode": "34987", "phone": "(772) 402-0060", "website": "https://stores.dsw.com/usa/fl/portst.lucie/dsw-designer-shoe-warehouse-the-landing-at-tradition.html", "opening_hours": "Mo-Sa 10:00-20:00; Su 10:00-19:00", "brand": "Designer Shoe Warehouse", "brand:wikidata": "Q5206207"}, "geometry": {"type": "Point", "coordinates": [-80.4275815, 27.2665026]}},
{"type": "Feature", "id": "Qcp-3VtMsr7fVHvVqS04f4oMTeA=", "properties": {"ref": "Port Charlotte Town Center", "@spider": "dsw", "addr:full": "1441 Tamiami Trail", "addr:city": "Port Charlotte", "addr:state": "FL", "addr:postcode": "33948", "phone": "(941) 625-4688", "website": "https://stores.dsw.com/usa/fl/portcharlotte/dsw-designer-shoe-warehouse-port-charlotte-town-center.html", "opening_hours": "Mo-Sa 10:00-20:00; Su 11:00-19:00", "brand": "Designer Shoe Warehouse", "brand:wikidata": "Q5206207"}, "geometry": {"type": "Point", "coordinates": [-82.145389, 27.009154]}},
{"type": "Feature", "id": "U5j4YcgnBjpu8ezzn-COCIAt0hQ=", "properties": {"ref": "Cordova Commons", "@spider": "dsw", "addr:full": "1650 Airport Blvd.", "addr:city": "Pensacola", "addr:state": "FL", "addr:postcode": "32504", "phone": "(850) 512-1395", "website": "https://stores.dsw.com/usa/fl/pensacola/dsw-designer-shoe-warehouse-cordova-commons.html", "opening_hours": "Mo-Sa 10:00-20:00; Su 10:00-19:00", "brand": "Designer Shoe Warehouse", "brand:wikidata": "Q5206207"}, "geometry": {"type": "Point", "coordinates": [-87.208049, 30.481837]}},
{"type": "Feature", "id": "aL_lQhR47WK_wovo_OAJOW3o9lg=", "properties": {"ref": "Shoppes at Pembroke Gardens", "@spider": "dsw", "addr:full": "630 Southwest 145 Terrace", "addr:city": "Pembroke Pines", "addr:state": "FL", "addr:postcode": "33027", "phone": "(954) 431-7672", "website": "https://stores.dsw.com/usa/fl/pembrokepines/dsw-designer-shoe-warehouse-shoppes-at-pembroke-gardens.html", "opening_hours": "Mo-Sa 10:00-20:00; Su 10:00-19:00", "brand": "Designer Shoe Warehouse", "brand:wikidata": "Q5206207"}, "geometry": {"type": "Point", "coordinates": [-80.33712381349181, 26.002277946466897]}},
{"type": "Feature", "id": "diUovZFijh0B4GeizxwOneestwE=", "properties": {"ref": "Millenia Center", "@spider": "dsw", "addr:full": "4021 Conroy Road", "addr:city": "Orlando", "addr:state": "FL", "addr:postcode": "32839", "phone": "(407) 903-0832", "website": "https://stores.dsw.com/usa/fl/orlando/dsw-designer-shoe-warehouse-millenia-center.html", "opening_hours": "Mo-Sa 10:00-20:00; Su 11:00-19:00", "brand": "Designer Shoe Warehouse", "brand:wikidata": "Q5206207"}, "geometry": {"type": "Point", "coordinates": [-81.4271302, 28.4876229]}},
{"type": "Feature", "id": "0pgmhYhO_QJ-FyAK4Fv3QIFka9w=", "properties": {"ref": "Market Street at Heathbrook", "@spider": "dsw", "addr:full": "4414 Southwest College Road", "addr:city": "Ocala", "addr:state": "FL", "addr:postcode": "34474", "phone": "(352) 237-1356", "website": "https://stores.dsw.com/usa/fl/ocala/dsw-designer-shoe-warehouse-market-street-at-heathbrook.html", "opening_hours": "Mo-Sa 10:00-20:00; Su 10:00-19:00", "brand": "Designer Shoe Warehouse", "brand:wikidata": "Q5206207"}, "geometry": {"type": "Point", "coordinates": [-82.1918749, 29.1413068]}},
{"type": "Feature", "id": "vsqU_RvevW3TVvNsVUqlhiHpzAo=", "properties": {"ref": "Sherwood Park Mall", "@spider": "dsw", "addr:full": "2020 Sherwood Dr", "addr:city": "Sherwood Park", "addr:state": "AB", "addr:postcode": "T8A 3H9", "phone": "(587) 957-1200", "website": "https://stores.dsw.ca/ab/sherwood-park/2020-sherwood-dr", "opening_hours": "Mo-We 10:00-18:00; Th-Fr 10:00-20:00; Sa 10:00-18:00; Su 11:00-17:00", "brand": "Designer Shoe Warehouse", "brand:wikidata": "Q5206207"}, "geometry": {"type": "Point", "coordinates": [-113.29387316931152, 53.53033103515794]}},
{"type": "Feature", "id": "VYuD1-lW51XETF74mURgpl0Virw=", "properties": {"ref": "Crossiron Mills", "@spider": "dsw", "addr:full": "261055 Crossiron Blvd", "addr:city": "Rocky View County", "addr:state": "AB", "addr:postcode": "T4A 0G3", "phone": "(403) 351-6543", "website": "https://stores.dsw.ca/ab/rocky-view-county/261055-crossiron-blvd", "opening_hours": "Mo-Sa 10:00-21:00; Su 11:00-18:00", "brand": "Designer Shoe Warehouse", "brand:wikidata": "Q5206207"}, "geometry": {"type": "Point", "coordinates": [-113.992808, 51.205427]}},
{"type": "Feature", "id": "tQ61k4C6RN0EfgCmdvox1RZbpaU=", "properties": {"ref": "Loop West", "@spider": "dsw", "addr:full": "2571 West Osceola Parkway", "addr:city": "Kissimmee", "addr:state": "FL", "addr:postcode": "34741", "phone": "(407) 343-7449", "website": "https://stores.dsw.com/usa/fl/kissimmee/dsw-designer-shoe-warehouse-loop-west.html", "opening_hours": "Mo-Sa 10:00-20:00; Su 11:00-19:00", "brand": "Designer Shoe Warehouse", "brand:wikidata": "Q5206207"}, "geometry": {"type": "Point", "coordinates": [-81.4302391, 28.3429617]}},
{"type": "Feature", "id": "_HD3cs3LUEsKYiF1HbBs-6YAoxs=", "properties": {"ref": "Premium Outlet Collection", "@spider": "dsw", "addr:full": "1 Outlet Collection Way", "addr:city": "Edmonton International Airport", "addr:state": "AB", "addr:postcode": "T9E 1J5", "phone": "(780) 701-7291", "website": "https://stores.dsw.ca/ab/edmonton-international-airport/1-outlet-collection-way", "opening_hours": "Mo-We 11:00-19:00; Th-Sa 11:00-21:00; Su 12:00-17:00", "brand": "Designer Shoe Warehouse", "brand:wikidata": "Q5206207"}, "geometry": {"type": "Point", "coordinates": [-113.55299146692943, 53.30072067283997]}},
{"type": "Feature", "id": "FyOiN-fFM0RPzi3ig1oLFVHh0ro=", "properties": {"ref": "Oaks Square", "@spider": "dsw", "addr:full": "6837 West Newberry Road", "addr:city": "Gainesville", "addr:state": "FL", "addr:postcode": "32605", "phone": "(352) 332-7086", "website": "https://stores.dsw.com/usa/fl/gainesville/dsw-designer-shoe-warehouse-oaks-square.html", "opening_hours": "Mo-Sa 10:00-20:00; Su 10:00-19:00", "brand": "Designer Shoe Warehouse", "brand:wikidata": "Q5206207"}, "geometry": {"type": "Point", "coordinates": [-82.41557657718658, 29.65851753058367]}},
{"type": "Feature", "id": "9sdCYbRU7wAOERVUbd7TKbWoNL0=", "properties": {"ref": "Sunridge Mall", "@spider": "dsw", "addr:full": "2525 36 St NE", "addr:city": "Calgary", "addr:state": "AB", "addr:postcode": "T1Y 5T4", "phone": "(403) 351-6544", "website": "https://stores.dsw.ca/ab/calgary/2525-36-st-ne", "opening_hours": "Mo-Sa 10:00-20:00; Su 11:00-17:00", "brand": "Designer Shoe Warehouse", "brand:wikidata": "Q5206207"}, "geometry": {"type": "Point", "coordinates": [-113.98563046296032, 51.074341097213136]}},
{"type": "Feature", "id": "gpzSIjo-mBWBRJ6RHYtTj4qF3C0=", "properties": {"ref": "Market Square", "@spider": "dsw", "addr:full": "13711 South Tamiami Trail", "addr:city": "Fort Myers", "addr:state": "FL", "addr:postcode": "33912", "phone": "(239) 432-2765", "website": "https://stores.dsw.com/usa/fl/fortmyers/dsw-designer-shoe-warehouse-market-square.html", "opening_hours": "Mo-Su 10:00-20:00", "brand": "Designer Shoe Warehouse", "brand:wikidata": "Q5206207"}, "geometry": {"type": "Point", "coordinates": [-81.868477, 26.543913]}},
{"type": "Feature", "id": "uWBFWLDKl4YLpk94UtuFLX58Bfc=", "properties": {"ref": "Central at Garden City", "@spider": "dsw", "addr:full": "2202-4751 McClelland Rd", "addr:city": "Richmond", "addr:state": "BC", "addr:postcode": "V6X 0M5", "phone": "(778) 329-0545", "website": "https://stores.dsw.ca/bc/richmond/2202-4751-mcclelland-rd", "opening_hours": "Mo-Fr 10:00-20:00; Sa-Su 10:00-18:00", "brand": "Designer Shoe Warehouse", "brand:wikidata": "Q5206207"}, "geometry": {"type": "Point", "coordinates": [-123.12398892713277, 49.17841066993671]}},
{"type": "Feature", "id": "2mBBToAXMBr8hP7Yg20kS8wZ9rI=", "properties": {"ref": "Bal Harbour Square", "@spider": "dsw", "addr:full": "1740 North Federal Highway", "addr:city": "Fort Lauderdale", "addr:state": "FL", "addr:postcode": "33305", "phone": "(954) 809-6999", "website": "https://stores.dsw.com/usa/fl/fortlauderdale/dsw-designer-shoe-warehouse-bal-harbour-square.html", "opening_hours": "Mo-Sa 10:00-20:00; Su 10:00-19:00", "brand": "Designer Shoe Warehouse", "brand:wikidata": "Q5206207"}, "geometry": {"type": "Point", "coordinates": [-80.1185104, 26.1506736]}},
{"type": "Feature", "id": "op9BL2hBc7DdsgjgULn0uPnvL9A=", "properties": {"ref": "Coconut Point", "@spider": "dsw", "addr:full": "8050 Mediterranian Drive", "addr:city": "Estero", "addr:state": "FL", "addr:postcode": "33928", "phone": "(239) 948-6538", "website": "https://stores.dsw.com/usa/fl/estero/dsw-designer-shoe-warehouse-coconut-point.html", "opening_hours": "Mo-Sa 10:00-20:00; Su 10:00-19:00", "brand": "Designer Shoe Warehouse", "brand:wikidata": "Q5206207"}, "geometry": {"type": "Point", "coordinates": [-81.806358, 26.405461]}},
{"type": "Feature", "id": "L3UuykFRib5vqpbkAUbQXqe8AuU=", "properties": {"ref": "Davie Tower Shops", "@spider": "dsw", "addr:full": "2112 South University Drive", "addr:city": "Davie", "addr:state": "FL", "addr:postcode": "33324", "phone": "(954) 472-0351", "website": "https://stores.dsw.com/usa/fl/davie/dsw-designer-shoe-warehouse-davie-tower-shops.html", "opening_hours": "Mo-Sa 10:00-20:00; Su 10:00-19:00", "brand": "Designer Shoe Warehouse", "brand:wikidata": "Q5206207"}, "geometry": {"type": "Point", "coordinates": [-80.2471854, 26.0934627]}},
{"type": "Feature", "id": "QIG6aP9fCsTy2LCyfbPQBPBg7e8=", "properties": {"ref": "Promenade at Coconut Creek", "@spider": "dsw", "addr:full": "4401 Lyons Road", "addr:city": "Coconut Creek", "addr:state": "FL", "addr:postcode": "33073", "phone": "(954) 975-8067", "website": "https://stores.dsw.com/usa/fl/coconutcreek/dsw-designer-shoe-warehouse-promenade-at-coconut-creek.html", "opening_hours": "Mo-Sa 10:00-20:00; Su 10:00-19:00", "brand": "Designer Shoe Warehouse", "brand:wikidata": "Q5206207"}, "geometry": {"type": "Point", "coordinates": [-80.187314, 26.282564]}},
{"type": "Feature", "id": "_Qa1GRQWVabYikW345yyNe25uiY=", "properties": {"ref": "Clearwater", "@spider": "dsw", "addr:full": "23668 US Hwy. 19 N.", "addr:city": "Clearwater", "addr:state": "FL", "addr:postcode": "33765", "phone": "(727) 223-7308", "website": "https://stores.dsw.com/usa/fl/clearwater/dsw-designer-shoe-warehouse-clearwater.html", "opening_hours": "Mo-Sa 10:00-20:00; Su 11:00-19:00", "brand": "Designer Shoe Warehouse", "brand:wikidata": "Q5206207"}, "geometry": {"type": "Point", "coordinates": [-82.7323404409218, 27.988631710648324]}},
{"type": "Feature", "id": "rMclwE-bWelIYlefjOrfujHhLws=", "properties": {"ref": "Westfield Shoppingtown Brandon", "@spider": "dsw", "addr:full": "949 Brandon Town Center Mall", "addr:city": "Brandon", "addr:state": "FL", "addr:postcode": "33511", "phone": "(813) 681-8054", "website": "https://stores.dsw.com/usa/fl/brandon/dsw-designer-shoe-warehouse-westfield-shoppingtown-brandon.html", "opening_hours": "Mo-Sa 10:00-20:00; Su 10:00-19:00", "brand": "Designer Shoe Warehouse", "brand:wikidata": "Q5206207"}, "geometry": {"type": "Point", "coordinates": [-82.3276396, 27.9332757]}},
{"type": "Feature", "id": "2RiMIl0A1VNuxT6gWft10suoW7g=", "properties": {"ref": "Westwind Plaza", "@spider": "dsw", "addr:full": "9870 Glades Road", "addr:city": "Boca Raton", "addr:state": "FL", "addr:postcode": "33434", "phone": "(561) 483-1345", "website": "https://stores.dsw.com/usa/fl/bocaraton/dsw-designer-shoe-warehouse-westwind-plaza.html", "opening_hours": "Mo-Sa 10:00-20:00; Su 10:00-19:00", "brand": "Designer Shoe Warehouse", "brand:wikidata": "Q5206207"}, "geometry": {"type": "Point", "coordinates": [-80.2018701, 26.3650635]}},
{"type": "Feature", "id": "HsoCBP-mER-bs0cpjVEW8m3xxE0=", "properties": {"ref": "Biscayne Boulevard Plaza", "@spider": "dsw", "addr:full": "19135 Biscayne Boulevard", "addr:city": "Aventura", "addr:state": "FL", "addr:postcode": "33180", "phone": "(305) 932-1991", "website": "https://stores.dsw.com/usa/fl/aventura/dsw-designer-shoe-warehouse-biscayne-boulevard-plaza.html", "opening_hours": "Mo-Sa 10:00-20:00; Su 10:00-19:00", "brand": "Designer Shoe Warehouse", "brand:wikidata": "Q5206207"}, "geometry": {"type": "Point", "coordinates": [-80.144967, 25.952651]}},
{"type": "Feature", "id": "kgEPncFpOVcj67mXmf2otR2VxG4=", "properties": {"ref": "Renaissance Center", "@spider": "dsw", "addr:full": "375 East Altamonte Drive", "addr:city": "Altamonte Springs", "addr:state": "FL", "addr:postcode": "32701", "phone": "(407) 831-1152", "website": "https://stores.dsw.com/usa/fl/altamontesprings/dsw-designer-shoe-warehouse-renaissance-center.html", "opening_hours": "Mo-Sa 10:00-20:00; Su 10:00-19:00", "brand": "Designer Shoe Warehouse", "brand:wikidata": "Q5206207"}, "geometry": {"type": "Point", "coordinates": [-81.3803924, 28.6649467]}},
{"type": "Feature", "id": "vEpOuKppL77FirmazgqEiNCX_RY=", "properties": {"ref": "The Meridian at Tucker", "@spider": "dsw", "addr:full": "4310 Lavista Rd", "addr:city": "Tucker", "addr:state": "GA", "addr:postcode": "30084", "phone": "(770) 462-7467", "website": "https://stores.dsw.com/usa/ga/tucker/dsw-designer-shoe-warehouse-the-meridian-at-tucker.html", "opening_hours": "Mo-Sa 11:00-17:00; Su 12:00-17:00", "brand": "Designer Shoe Warehouse", "brand:wikidata": "Q5206207"}, "geometry": {"type": "Point", "coordinates": [-84.2425176, 33.8497903]}},
{"type": "Feature", "id": "UxbsdLmiZl8tCGaqXYBx4emnGb4=", "properties": {"ref": "Oglethorpe Mall", "@spider": "dsw", "addr:full": "7804 Abercorn St", "addr:city": "Savannah", "addr:state": "GA", "addr:postcode": "31406", "phone": "(912) 417-7062", "website": "https://stores.dsw.com/usa/ga/savannah/dsw-designer-shoe-warehouse-oglethorpe-mall.html", "opening_hours": "Mo-Sa 11:00-18:00; Su 12:00-17:00", "brand": "Designer Shoe Warehouse", "brand:wikidata": "Q5206207"}, "geometry": {"type": "Point", "coordinates": [-81.1159276, 32.0035006]}},
{"type": "Feature", "id": "76Y406PmK_Gz4mN3tBF0-hhUDS0=", "properties": {"ref": "The Forum at Ashley Park", "@spider": "dsw", "addr:full": "346 Newnan Crossing Bypass", "addr:city": "Newnan", "addr:state": "GA", "addr:postcode": "30265", "phone": "(678) 423-8536", "website": "https://stores.dsw.com/usa/ga/newnan/dsw-designer-shoe-warehouse-the-forum-at-ashley-park.html", "opening_hours": "Mo-Sa 10:00-20:00; Su 11:00-19:00", "brand": "Designer Shoe Warehouse", "brand:wikidata": "Q5206207"}, "geometry": {"type": "Point", "coordinates": [-84.7646985, 33.390067]}},
{"type": "Feature", "id": "Lvidh2LYxwQq8cVccBA2pa7KPuc=", "properties": {"ref": "Marietta", "@spider": "dsw", "addr:full": "1287 Johnson Ferry Rd", "addr:city": "Marietta", "addr:state": "GA", "addr:postcode": "30068", "phone": "(770) 694-7266", "website": "https://stores.dsw.com/usa/ga/marietta/dsw-designer-shoe-warehouse-1287-johnson-ferry-rd.html", "opening_hours": "Mo-Sa 10:00-20:00; Su 11:00-19:00", "brand": "Designer Shoe Warehouse", "brand:wikidata": "Q5206207"}, "geometry": {"type": "Point", "coordinates": [-84.42554827976227, 33.97911889679457]}},
{"type": "Feature", "id": "1cArGzf51fvBiyIbCiOD1RZwojU=", "properties": {"ref": "Shoppes at River Crossing", "@spider": "dsw", "addr:full": "5080 Riverside Drive", "addr:city": "Macon", "addr:state": "GA", "addr:postcode": "31210", "phone": "(478) 474-6228", "website": "https://stores.dsw.com/usa/ga/macon/dsw-designer-shoe-warehouse-shoppes-at-river-crossing.html", "opening_hours": "Mo-Sa 10:00-20:00; Su 11:00-19:00", "brand": "Designer Shoe Warehouse", "brand:wikidata": "Q5206207"}, "geometry": {"type": "Point", "coordinates": [-83.714894, 32.9240879]}},
{"type": "Feature", "id": "xPCN4FJ09TI9GbKM4d7-88wTV9s=", "properties": {"ref": "Stonecrest Marketplace", "@spider": "dsw", "addr:full": "8110 Mall Parkway", "addr:city": "Lithonia", "addr:state": "GA", "addr:postcode": "30038", "phone": "(678) 526-8550", "website": "https://stores.dsw.com/usa/ga/lithonia/dsw-designer-shoe-warehouse-stonecrest-marketplace.html", "opening_hours": "Mo-Fr 11:00-18:00; Sa 11:00-19:00; Su 12:00-18:00", "brand": "Designer Shoe Warehouse", "brand:wikidata": "Q5206207"}, "geometry": {"type": "Point", "coordinates": [-84.0934294, 33.6941798]}},
{"type": "Feature", "id": "-KZbnf2kBeDjQLcelJFSFdOtgkM=", "properties": {"ref": "The Shoppes at Webb Gin", "@spider": "dsw", "addr:full": "1250 Scenic Highway", "addr:city": "Lawrenceville", "addr:state": "GA", "addr:postcode": "30045", "phone": "(770) 979-6610", "website": "https://stores.dsw.com/usa/ga/lawrenceville/dsw-designer-shoe-warehouse-the-shoppes-at-webb-gin.html", "opening_hours": "Mo-Sa 10:00-20:00; Su 11:00-19:00", "brand": "Designer Shoe Warehouse", "brand:wikidata": "Q5206207"}, "geometry": {"type": "Point", "coordinates": [-84.0033878, 33.9004343]}},
{"type": "Feature", "id": "NXUkI28rOcMC2c4lXIYVYxn1qFw=", "properties": {"ref": "Cobb Place", "@spider": "dsw", "addr:full": "840 Ernest Barrett Parkway", "addr:city": "Kennesaw", "addr:state": "GA", "addr:postcode": "30144", "phone": "(678) 290-8100", "website": "https://stores.dsw.com/usa/ga/kennesaw/dsw-designer-shoe-warehouse-cobb-place.html", "opening_hours": "Mo-Sa 10:00-20:00; Su 11:00-19:00", "brand": "Designer Shoe Warehouse", "brand:wikidata": "Q5206207"}, "geometry": {"type": "Point", "coordinates": [-84.576622, 34.0060744]}},
{"type": "Feature", "id": "HuOeXNO-q-eXuSjLeCKANnTUphQ=", "properties": {"ref": "Fayetteville", "@spider": "dsw", "addr:full": "121 Pavillion Pkwy", "addr:city": "Fayetteville", "addr:state": "GA", "addr:postcode": "30214", "phone": "(678) 632-7883", "website": "https://stores.dsw.com/usa/ga/fayetteville/dsw-designer-shoe-warehouse-121-pavillion-pkwy.html", "opening_hours": "Mo-Fr 11:00-20:00; Sa 10:00-20:00; Su 11:00-18:00", "brand": "Designer Shoe Warehouse", "brand:wikidata": "Q5206207"}, "geometry": {"type": "Point", "coordinates": [-84.44158843684006, 33.48188531127906]}},
{"type": "Feature", "id": "_v3ghhJNBOmQU-LfQMap3O3c-vk=", "properties": {"ref": "Perimeter Village", "@spider": "dsw", "addr:full": "4741 Ashford Dunwoody Road", "addr:city": "Dunwoody", "addr:state": "GA", "addr:postcode": "30338", "phone": "(770) 392-9880", "website": "https://stores.dsw.com/usa/ga/dunwoody/dsw-designer-shoe-warehouse-perimeter-village.html", "opening_hours": "Mo-Sa 11:00-18:00; Su 12:00-18:00", "brand": "Designer Shoe Warehouse", "brand:wikidata": "Q5206207"}, "geometry": {"type": "Point", "coordinates": [-84.3353313, 33.9334331]}},
{"type": "Feature", "id": "dhXdrJWQKQg4qQtEJWOJywj7zbo=", "properties": {"ref": "The Collection at Forsyth", "@spider": "dsw", "addr:full": "410 Peachtree Parkway", "addr:city": "Cumming", "addr:state": "GA", "addr:postcode": "30041", "phone": "(678) 947-6180", "website": "https://stores.dsw.com/usa/ga/cumming/dsw-designer-shoe-warehouse-the-collection-at-forsyth.html", "opening_hours": "Mo-Sa 10:00-20:00; Su 11:00-19:00", "brand": "Designer Shoe Warehouse", "brand:wikidata": "Q5206207"}, "geometry": {"type": "Point", "coordinates": [-84.178928, 34.1534142]}},
{"type": "Feature", "id": "_IcVs9DsEZnDOI1-HqwDloMx9io=", "properties": {"ref": "Marketplace at Mill Creek", "@spider": "dsw", "addr:full": "1705 Mall of Georgia Blvd", "addr:city": "Buford", "addr:state": "GA", "addr:postcode": "30519", "phone": "(678) 804-8082", "website": "https://stores.dsw.com/usa/ga/buford/dsw-designer-shoe-warehouse-marketplace-at-mill-creek.html", "opening_hours": "Mo-Sa 10:00-20:00; Su 11:00-19:00", "brand": "Designer Shoe Warehouse", "brand:wikidata": "Q5206207"}, "geometry": {"type": "Point", "coordinates": [-83.9930986, 34.0602493]}},
{"type": "Feature", "id": "UrrTJSlMY0s-8qJwMhfiEoH738k=", "properties": {"ref": "Washington Crossing", "@spider": "dsw", "addr:full": "2907 Washington Rd. Building 100", "addr:city": "Augusta", "addr:state": "GA", "addr:postcode": "30909", "phone": "(706) 993-3734", "website": "https://stores.dsw.com/usa/ga/augusta/dsw-designer-shoe-warehouse-washington-crossing.html", "opening_hours": "Mo-Sa 10:00-18:00; Su 11:00-18:00", "brand": "Designer Shoe Warehouse", "brand:wikidata": "Q5206207"}, "geometry": {"type": "Point", "coordinates": [-82.0395135, 33.5133265]}},
{"type": "Feature", "id": "Oi-SMUTaNQkQ-xO6tJVgKIEBcHo=", "properties": {"ref": "Mansell Crossing", "@spider": "dsw", "addr:full": "7361 North Point Parkway", "addr:city": "Alpharetta", "addr:state": "GA", "addr:postcode": "30022", "phone": "(770) 998-7930", "website": "https://stores.dsw.com/usa/ga/alpharetta/dsw-designer-shoe-warehouse-mansell-crossing.html", "opening_hours": "Mo-Sa 11:00-17:00; Su 12:00-17:00", "brand": "Designer Shoe Warehouse", "brand:wikidata": "Q5206207"}, "geometry": {"type": "Point", "coordinates": [-84.3041088, 34.0439836]}},
{"type": "Feature", "id": "Q43dbheFes8AefMCRZ0Skl-Uh4w=", "properties": {"ref": "Woodfield", "@spider": "dsw", "addr:full": "901 Perimeter Drive", "addr:city": "Schaumburg", "addr:state": "IL", "addr:postcode": "60173", "phone": "(847) 240-1594", "website": "https://stores.dsw.com/usa/il/schaumburg/dsw-designer-shoe-warehouse-woodfield.html", "opening_hours": "Mo-Sa 10:00-21:00; Su 10:00-19:00", "brand": "Designer Shoe Warehouse", "brand:wikidata": "Q5206207"}, "geometry": {"type": "Point", "coordinates": [-88.031603, 42.045457]}},
{"type": "Feature", "id": "hosTDAy11C19AevSuqZULpETT_w=", "properties": {"ref": "Rockford Crossing", "@spider": "dsw", "addr:full": "6636 East State Street", "addr:city": "Rockford", "addr:state": "IL", "addr:postcode": "61108", "phone": "(815) 315-1063", "website": "https://stores.dsw.com/usa/il/rockford/dsw-designer-shoe-warehouse-rockford-crossing.html", "opening_hours": "Mo-Sa 10:00-21:00; Su 11:00-18:00", "brand": "Designer Shoe Warehouse", "brand:wikidata": "Q5206207"}, "geometry": {"type": "Point", "coordinates": [-88.98676872253412, 42.2701917404338]}},
{"type": "Feature", "id": "Q059FX-mIpGtVvqw7zKnFTHgq-8=", "properties": {"ref": "River Forest Town Center", "@spider": "dsw", "addr:full": "7321 West Lake Street", "addr:city": "River Forest", "addr:state": "IL", "addr:postcode": "60305", "phone": "(708) 689-4146", "website": "https://stores.dsw.com/usa/il/riverforest/dsw-designer-shoe-warehouse-river-forest-town-center.html", "opening_hours": "Mo-Sa 10:00-20:00; Su 10:00-19:00", "brand": "Designer Shoe Warehouse", "brand:wikidata": "Q5206207"}, "geometry": {"type": "Point", "coordinates": [-87.808136343956, 41.887446595109786]}},
{"type": "Feature", "id": "gBgRJfYQlMQlS6zbI-eWLmUgPRM=", "properties": {"ref": "Shoppes at Grand Prairie", "@spider": "dsw", "addr:full": "5201 W. War Memorial Drive", "addr:city": "Peoria", "addr:state": "IL", "addr:postcode": "61615", "phone": "(309) 691-2376", "website": "https://stores.dsw.com/usa/il/peoria/dsw-designer-shoe-warehouse-shoppes-at-grand-prairie.html", "opening_hours": "Mo-Sa 10:00-21:00; Su 10:00-19:00", "brand": "Designer Shoe Warehouse", "brand:wikidata": "Q5206207"}, "geometry": {"type": "Point", "coordinates": [-89.674409, 40.7787605]}},
{"type": "Feature", "id": "Ts-B3K0oNWjBHCn09UGcOP1-7tk=", "properties": {"ref": "Prairie Market Shopping Center", "@spider": "dsw", "addr:full": "2590 U.S. Route 34", "addr:city": "Oswego", "addr:state": "IL", "addr:postcode": "60543", "phone": "(331) 216-6000", "website": "https://stores.dsw.com/usa/il/oswego/dsw-designer-shoe-warehouse-prairie-market-shopping-center.html", "brand": "Designer Shoe Warehouse", "brand:wikidata": "Q5206207"}, "geometry": {"type": "Point", "coordinates": [-88.309435, 41.701166]}},
{"type": "Feature", "id": "BEotu_dT1H27avZPllLk-m-xwlE=", "properties": {"ref": "Orland Park Place", "@spider": "dsw", "addr:full": "202 Orland Park Place", "addr:city": "Orland Park", "addr:state": "IL", "addr:postcode": "60462", "phone": "(708) 460-3168", "website": "https://stores.dsw.com/usa/il/orlandpark/dsw-designer-shoe-warehouse-orland-park-place.html", "opening_hours": "Mo-Sa 10:00-21:00; Su 10:00-19:00", "brand": "Designer Shoe Warehouse", "brand:wikidata": "Q5206207"}, "geometry": {"type": "Point", "coordinates": [-87.8508658, 41.6114893]}},
{"type": "Feature", "id": "jI9JQdykqzAmymTlDgwg82_Bsww=", "properties": {"ref": "Shops at Oakbrook Place", "@spider": "dsw", "addr:full": "2155 West 22nd Street", "addr:city": "Oak Brook", "addr:state": "IL", "addr:postcode": "60523", "phone": "(630) 599-7158", "website": "https://stores.dsw.com/usa/il/oakbrook/dsw-designer-shoe-warehouse-shops-at-oakbrook-place.html", "opening_hours": "Tu-Sa 10:00-21:00; Su 10:00-19:00", "brand": "Designer Shoe Warehouse", "brand:wikidata": "Q5206207"}, "geometry": {"type": "Point", "coordinates": [-87.9676651, 41.8452577]}},
{"type": "Feature", "id": "vRMsLck1QsBBa4tUcONHoQJk8NQ=", "properties": {"ref": "Village Square of Northbrook", "@spider": "dsw", "addr:full": "181 Skokie Blvd", "addr:city": "Northbrook", "addr:state": "IL", "addr:postcode": "60062", "phone": "(224) 501-7018", "website": "https://stores.dsw.com/usa/il/northbrook/dsw-designer-shoe-warehouse-village-square-of-northbrook.html", "opening_hours": "Mo-Su 10:00-19:00", "brand": "Designer Shoe Warehouse", "brand:wikidata": "Q5206207"}, "geometry": {"type": "Point", "coordinates": [-87.79792785644531, 42.14971158928673]}},
{"type": "Feature", "id": "O6HEkwrSyrEz0Wv5uT1MRau9XTs=", "properties": {"ref": "Norridge", "@spider": "dsw", "addr:full": "4200 N Harlem Ave", "addr:city": "Norridge", "addr:state": "IL", "addr:postcode": "60706", "phone": "(708) 716-7001", "website": "https://stores.dsw.com/usa/il/norridge/dsw-designer-shoe-warehouse-4200-n-harlem-ave.html", "opening_hours": "Mo-Fr 10:00-21:00; Sa 09:00-22:00; Su 11:00-18:00", "brand": "Designer Shoe Warehouse", "brand:wikidata": "Q5206207"}, "geometry": {"type": "Point", "coordinates": [-87.80855958450621, 41.95592532363261]}},
{"type": "Feature", "id": "xEUmNO6V2dqecJ71T2BT6Xms3AU=", "properties": {"ref": "Springbrook Prairie Pavilion", "@spider": "dsw", "addr:full": "2515 West 75th Street", "addr:city": "Naperville", "addr:state": "IL", "addr:postcode": "60540", "phone": "(630) 357-8148", "website": "https://stores.dsw.com/usa/il/naperville/dsw-designer-shoe-warehouse-springbrook-prairie-pavilion.html", "opening_hours": "Mo-Sa 10:00-21:00; Su 10:00-19:00", "brand": "Designer Shoe Warehouse", "brand:wikidata": "Q5206207"}, "geometry": {"type": "Point", "coordinates": [-88.197598, 41.749053]}},
{"type": "Feature", "id": "uNfcQ5t2qvf_sRyn0vM0EFMh0X4=", "properties": {"ref": "Moline", "@spider": "dsw", "addr:full": "750 42nd AVE Dr", "addr:city": "Moline", "addr:state": "IL", "addr:postcode": "61265", "phone": "(309) 757-1085", "website": "https://stores.dsw.com/usa/il/moline/dsw-designer-shoe-warehouse-750-42nd-ave-dr.html", "opening_hours": "Mo-Sa 09:00-20:00; Su 10:00-19:00", "brand": "Designer Shoe Warehouse", "brand:wikidata": "Q5206207"}, "geometry": {"type": "Point", "coordinates": [-90.5267928252005, 41.46868256838521]}},
{"type": "Feature", "id": "BnvI8P6fwK-qWKBQv5dqras9EfY=", "properties": {"ref": "The Shops at Fox River", "@spider": "dsw", "addr:full": "3356 Shoppers Ave.", "addr:city": "McHenry", "addr:state": "IL", "addr:postcode": "60050", "phone": "(815) 322-4002", "website": "https://stores.dsw.com/usa/il/mchenry/dsw-designer-shoe-warehouse-the-shops-at-fox-river.html", "opening_hours": "Mo-Sa 10:00-21:00; Su 10:00-19:00", "brand": "Designer Shoe Warehouse", "brand:wikidata": "Q5206207"}, "geometry": {"type": "Point", "coordinates": [-88.263384, 42.3665837]}},
{"type": "Feature", "id": "pYosFWYyjA29D8mfXpRU_s9P3mE=", "properties": {"ref": "Lincolnshire Commons", "@spider": "dsw", "addr:full": "970 Milwaukee Avenue", "addr:city": "Lincolnshire", "addr:state": "IL", "addr:postcode": "60069", "phone": "(847) 478-8324", "website": "https://stores.dsw.com/usa/il/lincolnshire/dsw-designer-shoe-warehouse-lincolnshire-commons.html", "opening_hours": "Mo-Th 11:00-19:00; Fr-Sa 10:00-20:00; Su 11:00-18:00", "brand": "Designer Shoe Warehouse", "brand:wikidata": "Q5206207"}, "geometry": {"type": "Point", "coordinates": [-87.926758, 42.181704]}},
{"type": "Feature", "id": "N69UIoT0Z036CgdnHVHrKT-hf0A=", "properties": {"ref": "Kildeer Village Square", "@spider": "dsw", "addr:full": "20393 N. Rand Road", "addr:city": "Kildeer", "addr:state": "IL", "addr:postcode": "60074", "phone": "(847) 786-7002", "website": "https://stores.dsw.com/usa/il/kildeer/dsw-designer-shoe-warehouse-kildeer-village-square.html", "opening_hours": "Mo-Fr 10:00-21:00; Sa-Su 10:00-19:00", "brand": "Designer Shoe Warehouse", "brand:wikidata": "Q5206207"}, "geometry": {"type": "Point", "coordinates": [-88.0470389, 42.1615288]}},
{"type": "Feature", "id": "je6xCYhhpL-yTF_0hj8lZZkeIoE=", "properties": {"ref": "Joliet Commons", "@spider": "dsw", "addr:full": "2601 Plainfield Road", "addr:city": "Joliet", "addr:state": "IL", "addr:postcode": "60435", "phone": "(815) 733-4002", "website": "https://stores.dsw.com/usa/il/joliet/dsw-designer-shoe-warehouse-joliet-commons.html", "opening_hours": "Mo-Sa 10:00-21:00; Su 10:00-19:00", "brand": "Designer Shoe Warehouse", "brand:wikidata": "Q5206207"}, "geometry": {"type": "Point", "coordinates": [-88.152893, 41.5748977]}},
{"type": "Feature", "id": "2Lr82LfhJ06ElHkBNH34wFH-tmg=", "properties": {"ref": "Gurnee Town Center", "@spider": "dsw", "addr:full": "6971 Grand Ave.", "addr:city": "Gurnee", "addr:state": "IL", "addr:postcode": "60031", "phone": "(847) 693-4954", "website": "https://stores.dsw.com/usa/il/gurnee/dsw-designer-shoe-warehouse-gurnee-town-center.html", "opening_hours": "Mo-Sa 10:00-21:00; Su 10:00-19:00", "brand": "Designer Shoe Warehouse", "brand:wikidata": "Q5206207"}, "geometry": {"type": "Point", "coordinates": [-87.9768902, 42.3846972]}},
{"type": "Feature", "id": "UtRAQmsRCxDqlMYcfn-yUOjFbo0=", "properties": {"ref": "Shoppes at Geneva Commons", "@spider": "dsw", "addr:full": "702 Commons Drive", "addr:city": "Geneva", "addr:state": "IL", "addr:postcode": "60134", "phone": "(630) 208-1915", "website": "https://stores.dsw.com/usa/il/geneva/dsw-designer-shoe-warehouse-shoppes-at-geneva-commons.html", "opening_hours": "Mo-Sa 10:00-21:00; Su 10:00-19:00", "brand": "Designer Shoe Warehouse", "brand:wikidata": "Q5206207"}, "geometry": {"type": "Point", "coordinates": [-88.343726, 41.8959059]}},
{"type": "Feature", "id": "s6v6e02G_6KtE7JmEn2StTsXZcI=", "properties": {"ref": "Fairview Center", "@spider": "dsw", "addr:full": "6601 N. Illinois", "addr:city": "Fairview Heights", "addr:state": "IL", "addr:postcode": "62208", "phone": "(618) 688-0044", "website": "https://stores.dsw.com/usa/il/fairviewheights/dsw-designer-shoe-warehouse-fairview-center.html", "opening_hours": "Mo-Sa 10:00-21:00; Su 10:00-19:00", "brand": "Designer Shoe Warehouse", "brand:wikidata": "Q5206207"}, "geometry": {"type": "Point", "coordinates": [-89.9874637, 38.5958897]}},
{"type": "Feature", "id": "JLleH8WRzIwVNHsHreUIdA9LvaM=", "properties": {"ref": "Train Yards", "@spider": "dsw", "addr:full": "595 Industrial Avenue", "addr:city": "Ottawa", "addr:state": "ON", "addr:postcode": "K1G 0Z1", "phone": "(613) 482-6630", "website": "https://stores.dsw.ca/on/ottawa/595-industrial-avenue", "opening_hours": "Mo-Fr 10:00-20:00; Sa 09:30-18:00; Su 10:00-18:00", "brand": "Designer Shoe Warehouse", "brand:wikidata": "Q5206207"}, "geometry": {"type": "Point", "coordinates": [-75.64187585890454, 45.41165524490495]}},
{"type": "Feature", "id": "n3HioMV0yjgmg91MoxCh53LNTTM=", "properties": {"ref": "Evergreen Plaza", "@spider": "dsw", "addr:full": "9690 S. Western Ave.", "addr:city": "Evergreen Park", "addr:state": "IL", "addr:postcode": "60805", "phone": "(708) 576-7244", "website": "https://stores.dsw.com/usa/il/evergreenpark/dsw-designer-shoe-warehouse-evergreen-plaza.html", "opening_hours": "Mo-Sa 10:00-20:00; Su 10:00-19:00", "brand": "Designer Shoe Warehouse", "brand:wikidata": "Q5206207"}, "geometry": {"type": "Point", "coordinates": [-87.6844882, 41.7163411]}},
{"type": "Feature", "id": "1IOtaG-ZXEl72uYr5KOYHPaUhGs=", "properties": {"ref": "Dorval Crossings", "@spider": "dsw", "addr:full": "310 North Service Road West", "addr:city": "Oakville", "addr:state": "ON", "addr:postcode": "L6M 2R7", "phone": "(289) 430-7242", "website": "https://stores.dsw.ca/on/oakville/310-north-service-road-west", "opening_hours": "Mo-Fr 10:00-20:00; Sa 09:30-18:00; Su 10:00-18:00", "brand": "Designer Shoe Warehouse", "brand:wikidata": "Q5206207"}, "geometry": {"type": "Point", "coordinates": [-79.70283342099725, 43.44623355761463]}},
{"type": "Feature", "id": "DQcY9N2srAMlEeK_vMgTlXWzWxI=", "properties": {"ref": "Oakland Place", "@spider": "dsw", "addr:full": "2347 Sycamore Rd", "addr:city": "DeKalb", "addr:state": "IL", "addr:postcode": "60115", "phone": "(815) 981-8282", "website": "https://stores.dsw.com/usa/il/dekalb/dsw-designer-shoe-warehouse-oakland-place.html", "opening_hours": "Mo-Sa 10:00-21:00; Su 10:00-19:00", "brand": "Designer Shoe Warehouse", "brand:wikidata": "Q5206207"}, "geometry": {"type": "Point", "coordinates": [-88.726835846901, 41.95333465679275]}},
{"type": "Feature", "id": "eAL9sAhkiEGuVmO8BUZ-1Qu1tXQ=", "properties": {"ref": "Heartland Centre", "@spider": "dsw", "addr:full": "5930 Rodeo Drive", "addr:city": "Mississauga", "addr:state": "ON", "addr:postcode": "L5R 3S9", "phone": "(905) 712-4141", "website": "https://stores.dsw.ca/on/mississauga/5930-rodeo-drive", "opening_hours": "Mo-Fr 10:00-20:00; Sa 09:30-18:00; Su 10:00-18:00", "brand": "Designer Shoe Warehouse", "brand:wikidata": "Q5206207"}, "geometry": {"type": "Point", "coordinates": [-79.69033341568486, 43.613161515547425]}},
{"type": "Feature", "id": "2sKmAEH3DCYJni_DdcLUvMcChaA=", "properties": {"ref": "The Promenade", "@spider": "dsw", "addr:full": "635 East Boughton Road", "addr:city": "Bolingbrook", "addr:state": "IL", "addr:postcode": "60440", "phone": "(630) 783-0272", "website": "https://stores.dsw.com/usa/il/bolingbrook/dsw-designer-shoe-warehouse-the-promenade.html", "opening_hours": "Mo-Sa 10:00-21:00; Su 10:00-19:00", "brand": "Designer Shoe Warehouse", "brand:wikidata": "Q5206207"}, "geometry": {"type": "Point", "coordinates": [-88.040944, 41.718046]}},
{"type": "Feature", "id": "aUMWL59MPHN2yuBmkvls3QezyzU=", "properties": {"ref": "Empire Crossing", "@spider": "dsw", "addr:full": "1500 E. Empire Street", "addr:city": "Bloomington", "addr:state": "IL", "addr:postcode": "61701", "phone": "(309) 606-7014", "website": "https://stores.dsw.com/usa/il/bloomington/dsw-designer-shoe-warehouse-empire-crossing.html", "opening_hours": "Mo-Th 10:00-20:00; Fr-Sa 10:00-21:00; Su 10:00-19:00", "brand": "Designer Shoe Warehouse", "brand:wikidata": "Q5206207"}, "geometry": {"type": "Point", "coordinates": [-88.9579126, 40.490849]}},
{"type": "Feature", "id": "9MtmQp13wI8GlmFOnLADmqVFxNM=", "properties": {"ref": "Westwood Power Centre", "@spider": "dsw", "addr:full": "3198 Wonderland South", "addr:city": "London", "addr:state": "ON", "addr:postcode": "N6L 1A1", "phone": "(519) 937-1413", "website": "https://stores.dsw.ca/on/london/3198-wonderland-south", "opening_hours": "Mo-Fr 10:00-20:00; Sa 09:30-18:00; Su 10:00-18:00", "brand": "Designer Shoe Warehouse", "brand:wikidata": "Q5206207"}, "geometry": {"type": "Point", "coordinates": [-81.2779857830691, 42.933538681529484]}},
{"type": "Feature", "id": "oHW4AG6s6ka993bI_97OYws7srw=", "properties": {"ref": "North Queen", "@spider": "dsw", "addr:full": "170 North Queen Street", "addr:city": "Etobicoke", "addr:state": "ON", "addr:postcode": "M9C 1A8", "phone": "(647) 925-3026", "website": "https://stores.dsw.ca/on/etobicoke/170-north-queen-street", "opening_hours": "Mo-Fr 10:00-20:00; Sa 09:30-18:00; Su 10:00-18:00", "brand": "Designer Shoe Warehouse", "brand:wikidata": "Q5206207"}, "geometry": {"type": "Point", "coordinates": [-79.5582829, 43.6191906]}},
{"type": "Feature", "id": "HQ7m3IwOqL5KI8iiTUafWOpAeX0=", "properties": {"ref": "Algonquin Commons", "@spider": "dsw", "addr:full": "1820 South Randall Road", "addr:city": "Algonquin", "addr:state": "IL", "addr:postcode": "60102", "phone": "(847) 658-3895", "website": "https://stores.dsw.com/usa/il/algonquin/dsw-designer-shoe-warehouse-algonquin-commons.html", "opening_hours": "Mo-Sa 10:00-21:00; Su 10:00-19:00", "brand": "Designer Shoe Warehouse", "brand:wikidata": "Q5206207"}, "geometry": {"type": "Point", "coordinates": [-88.339754, 42.150947]}},
{"type": "Feature", "id": "TQ3OT0J1qBcUjX_TOzlDk8gXvGc=", "properties": {"ref": "Vaughan Mills", "@spider": "dsw", "addr:full": "1 Bass Pro Mills Rd", "addr:city": "Concord", "addr:state": "ON", "addr:postcode": "L4K 5W4", "phone": "(289) 510-0206", "website": "https://stores.dsw.ca/on/concord/1-bass-pro-mills-rd", "opening_hours": "Mo-Sa 10:00-20:00; Su 11:00-19:00", "brand": "Designer Shoe Warehouse", "brand:wikidata": "Q5206207"}, "geometry": {"type": "Point", "coordinates": [-79.535897, 43.8252492]}},
{"type": "Feature", "id": "xQ0KA74ofM8O4Cs544BHpBfV3MI=", "properties": {"ref": "Hamilton Town Center", "@spider": "dsw", "addr:full": "14139 Town Center Boulevard", "addr:city": "Noblesville", "addr:state": "IN", "addr:postcode": "46060", "phone": "(317) 773-3753", "website": "https://stores.dsw.com/usa/in/noblesville/dsw-designer-shoe-warehouse-hamilton-town-center.html", "opening_hours": "Mo-Sa 10:00-21:00; Su 10:00-19:00", "brand": "Designer Shoe Warehouse", "brand:wikidata": "Q5206207"}, "geometry": {"type": "Point", "coordinates": [-85.9325137, 39.9938574]}},
{"type": "Feature", "id": "MA8k9GTZ3_K1o5ZGZQoEbEw1NL0=", "properties": {"ref": "Burlington Mall", "@spider": "dsw", "addr:full": "3091 Appleby Line", "addr:city": "Burlington", "addr:state": "ON", "addr:postcode": "L7M 0V7", "phone": "(289) 427-5262", "website": "https://stores.dsw.ca/on/burlington/3091-appleby-line", "opening_hours": "Mo-Fr 10:00-20:00; Sa 09:30-18:00; Su 10:00-18:00", "brand": "Designer Shoe Warehouse", "brand:wikidata": "Q5206207"}, "geometry": {"type": "Point", "coordinates": [-79.80990695095883, 43.41013300198328]}},
{"type": "Feature", "id": "qpHhPKBxR3NEzWnzf5ZXhWVmFkI=", "properties": {"ref": "Wilshire Plaza", "@spider": "dsw", "addr:full": "5620 Grape Road", "addr:city": "Mishawaka", "addr:state": "IN", "addr:postcode": "46545", "phone": "(574) 207-7017", "website": "https://stores.dsw.com/usa/in/mishawaka/dsw-designer-shoe-warehouse-wilshire-plaza.html", "opening_hours": "Mo-Sa 10:00-21:00; Su 10:00-19:00", "brand": "Designer Shoe Warehouse", "brand:wikidata": "Q5206207"}, "geometry": {"type": "Point", "coordinates": [-86.1841876, 41.7110079]}},
{"type": "Feature", "id": "Qc_ZWcWZAmFCw_4CRNfWQmYoYPk=", "properties": {"ref": "Trinity Common Brampton", "@spider": "dsw", "addr:full": "80 Great Lakes Dr", "addr:city": "Brampton", "addr:state": "ON", "addr:postcode": "L6R 2K7", "phone": "(289) 298-5088", "website": "https://stores.dsw.ca/on/brampton/80-great-lakes-dr", "opening_hours": "Mo-Fr 10:00-20:00; Sa 09:30-18:00; Su 10:00-18:00", "brand": "Designer Shoe Warehouse", "brand:wikidata": "Q5206207"}, "geometry": {"type": "Point", "coordinates": [-79.76539415706483, 43.728532667188844]}},
{"type": "Feature", "id": "gtu1BLnNgGQXedvjSJOs7_bapj0=", "properties": {"ref": "Crossings at Hobart", "@spider": "dsw", "addr:full": "2114 East 80th Avenue", "addr:city": "Merrillville", "addr:state": "IN", "addr:postcode": "46410", "phone": "(219) 791-0446", "website": "https://stores.dsw.com/usa/in/merrillville/dsw-designer-shoe-warehouse-crossings-at-hobart.html", "opening_hours": "Mo-Sa 10:00-21:00; Su 10:00-19:00", "brand": "Designer Shoe Warehouse", "brand:wikidata": "Q5206207"}, "geometry": {"type": "Point", "coordinates": [-87.3106703, 41.4726598]}},
{"type": "Feature", "id": "yoePP_26qzmomt47fMcziAWKKm8=", "properties": {"ref": "Park Place", "@spider": "dsw", "addr:full": "80 Concert Way", "addr:city": "Barrie", "addr:state": "ON", "addr:postcode": "L4N 6N5", "phone": "(705) 408-0155", "website": "https://stores.dsw.ca/on/barrie/80-concert-way", "opening_hours": "Mo-Fr 10:00-20:00; Sa 09:30-18:00; Su 10:00-18:00", "brand": "Designer Shoe Warehouse", "brand:wikidata": "Q5206207"}, "geometry": {"type": "Point", "coordinates": [-79.6825775, 44.3392178]}},
{"type": "Feature", "id": "XfzthTLG9IyK0FYHdI20L1EwP_4=", "properties": {"ref": "Meadowlands", "@spider": "dsw", "addr:full": "3 60 Martindale Cres", "addr:city": "Ancaster", "addr:state": "ON", "addr:postcode": "L9K 1J9", "phone": "(289) 445-1083", "website": "https://stores.dsw.ca/on/ancaster/3-60-martindale-cres", "opening_hours": "Mo-Fr 10:00-20:00; Sa 09:30-18:00; Su 10:00-18:00", "brand": "Designer Shoe Warehouse", "brand:wikidata": "Q5206207"}, "geometry": {"type": "Point", "coordinates": [-79.94240380027833, 43.23032543665616]}},
{"type": "Feature", "id": "Qu85MAEu8uCpGGtOeL7zfgbSFCE=", "properties": {"ref": "Greendale Centre", "@spider": "dsw", "addr:full": "723 US 31 North", "addr:city": "Greenwood", "addr:state": "IN", "addr:postcode": "46142", "phone": "(317) 889-2938", "website": "https://stores.dsw.com/usa/in/greenwood/dsw-designer-shoe-warehouse-greendale-centre.html", "opening_hours": "Mo 10:00-20:00; Tu-Th 10:00-21:00; Fr-Sa 11:00-20:00; Su 11:00-18:00", "brand": "Designer Shoe Warehouse", "brand:wikidata": "Q5206207"}, "geometry": {"type": "Point", "coordinates": [-86.118714, 39.626786]}},
{"type": "Feature", "id": "xbHMNg_eSqFC2LXTHaXiPFF4ChM=", "properties": {"ref": "RioCan Durham Centre", "@spider": "dsw", "addr:full": "100 Kingston Rd E", "addr:city": "Ajax", "addr:state": "ON", "addr:postcode": "L1Z 1G1", "phone": "(905) 231-1905", "website": "https://stores.dsw.ca/on/ajax/100-kingston-rd-e", "opening_hours": "Mo-Fr 10:00-20:00; Sa 09:30-18:00; Su 10:00-18:00", "brand": "Designer Shoe Warehouse", "brand:wikidata": "Q5206207"}, "geometry": {"type": "Point", "coordinates": [-79.02183821118628, 43.865421609511785]}},
{"type": "Feature", "id": "pfdBFTqpEuG01eSaskRfNdFs6GE=", "properties": {"ref": "Coldwater Road", "@spider": "dsw", "addr:full": "4310 Coldwater Road", "addr:city": "Fort Wayne", "addr:state": "IN", "addr:postcode": "46805", "phone": "(260) 440-7239", "website": "https://stores.dsw.com/usa/in/fortwayne/dsw-designer-shoe-warehouse-coldwater-road.html", "opening_hours": "Mo-Sa 10:00-21:00; Su 10:00-19:00", "brand": "Designer Shoe Warehouse", "brand:wikidata": "Q5206207"}, "geometry": {"type": "Point", "coordinates": [-85.1342038, 41.1172203]}},
{"type": "Feature", "id": "J1x0cX3tCFkSE34vmYPtf1G8hNU=", "properties": {"ref": "Evansville Pavilion", "@spider": "dsw", "addr:full": "6401 E. Lloyd Expressway", "addr:city": "Evansville", "addr:state": "IN", "addr:postcode": "47715", "phone": "(812) 213-4106", "website": "https://stores.dsw.com/usa/in/evansville/dsw-designer-shoe-warehouse-evansville-pavilion.html", "opening_hours": "Mo-Th 10:00-20:00; Fr-Sa 10:00-21:00; Su 10:00-19:00", "brand": "Designer Shoe Warehouse", "brand:wikidata": "Q5206207"}, "geometry": {"type": "Point", "coordinates": [-87.4733856, 37.9757514]}},
{"type": "Feature", "id": "pqhz4porZSTaXXxUOggR5_3tKFI=", "properties": {"ref": "Clearwater Village", "@spider": "dsw", "addr:full": "4619 East 82nd Street", "addr:city": "Castleton", "addr:state": "IN", "addr:postcode": "46250", "phone": "(317) 570-1937", "website": "https://stores.dsw.com/usa/in/castleton/dsw-designer-shoe-warehouse-clearwater-village.html", "opening_hours": "Mo-Sa 10:00-20:00; Su 10:00-18:00", "brand": "Designer Shoe Warehouse", "brand:wikidata": "Q5206207"}, "geometry": {"type": "Point", "coordinates": [-86.091037, 39.904898]}},
{"type": "Feature", "id": "PDEORsi-9ccByUfpIFzQBJeyD1E=", "properties": {"ref": "Clay Terrace", "@spider": "dsw", "addr:full": "14477 Clay Terrace Boulevard", "addr:city": "Carmel", "addr:state": "IN", "addr:postcode": "46032", "phone": "(317) 846-8410", "website": "https://stores.dsw.com/usa/in/carmel/dsw-designer-shoe-warehouse-clay-terrace.html", "opening_hours": "Mo-Sa 10:00-21:00; Su 10:00-19:00", "brand": "Designer Shoe Warehouse", "brand:wikidata": "Q5206207"}, "geometry": {"type": "Point", "coordinates": [-86.128581, 39.998628]}},
