{"type":"FeatureCollection","features":[{"type": "Feature", "id": "1V544S13dqJiqdt3va16BBMy4PE=", "properties": {"ref": "016", "@spider": "duluthtrading", "addr:street": "11242 Bulloch Dr.", "addr:city": "Manassas", "addr:state": "VA", "addr:postcode": "20109", "addr:country": "United States", "name": "Manassas, VA", "phone": "703-659-0044", "website": "https://www.duluthtrading.com/locations/?StoreID=016&street-address=11242 Bulloch Dr.&city=Manassas", "brand": "Duluth Trading"}, "geometry": {"type": "Point", "coordinates": [-77.527621, 38.802763]}},
{"type": "Feature", "id": "ULQnvmEa2KnF8cFxRg0kdbfQZF0=", "properties": {"ref": "063", "@spider": "duluthtrading", "addr:street": "12260 West Broad Street", "addr:city": "Henrico", "addr:state": "VA", "addr:postcode": "23233", "addr:country": "United States", "name": "Short Pump, VA", "phone": "804-773-3020", "website": "https://www.duluthtrading.com/locations/?StoreID=063&street-address=12260 West Broad Street&city=Henrico", "brand": "Duluth Trading"}, "geometry": {"type": "Point", "coordinates": [-77.646868, 37.65956]}},
{"type": "Feature", "id": "nInJLsarJL9ZXk6Ui29IawDOOR4=", "properties": {"ref": "015", "@spider": "duluthtrading", "addr:street": "197 E. Dekalb Pike", "addr:city": "King of Prussia", "addr:state": "PA", "addr:postcode": "19406", "addr:country": "United States", "name": "King of Prussia, PA", "phone": "484-393-4701", "website": "https://www.duluthtrading.com/locations/?StoreID=015&street-address=197 E. Dekalb Pike&city=King of Prussia", "brand": "Duluth Trading"}, "geometry": {"type": "Point", "coordinates": [-75.359029, 40.094805]}},
{"type": "Feature", "id": "4xEaqlbrdPjZKuGj7VRyYtwSZTQ=", "properties": {"ref": "067", "@spider": "duluthtrading", "addr:street": "850 Garden Park Blvd., Suite A1", "addr:city": "Cherry Hill", "addr:state": "NJ", "addr:postcode": "08002", "addr:country": "United States", "name": "Cherry Hill, NJ", "phone": "856-792-7244", "website": "https://www.duluthtrading.com/locations/?StoreID=067&street-address=850 Garden Park Blvd., Suite A1&city=Cherry Hill", "brand": "Duluth Trading"}, "geometry": {"type": "Point", "coordinates": [-75.042393, 39.926944]}},
{"type": "Feature", "id": "bc28aMpFxmj1CP1FsPd_N_WNPlM=", "properties": {"ref": "023", "@spider": "duluthtrading", "addr:street": "1100 Robinson Centre Dr.", "addr:city": "Pittsburgh", "addr:state": "PA", "addr:postcode": "15205", "addr:country": "United States", "name": "Pittsburgh, PA", "phone": "412-200-5730", "website": "https://www.duluthtrading.com/locations/?StoreID=023&street-address=1100 Robinson Centre Dr.&city=Pittsburgh", "brand": "Duluth Trading"}, "geometry": {"type": "Point", "coordinates": [-80.165155, 40.449836]}},
{"type": "Feature", "id": "qJh8mVfnu38GWW2spxb-Id5GEmE=", "properties": {"ref": "043", "@spider": "duluthtrading", "addr:street": "1300 NJ-17", "addr:city": "Ramsey", "addr:state": "NJ", "addr:postcode": "07446", "addr:country": "United States", "name": "Ramsey, NJ", "phone": "201-335-0405", "website": "https://www.duluthtrading.com/locations/?StoreID=043&street-address=1300 NJ-17&city=Ramsey", "brand": "Duluth Trading"}, "geometry": {"type": "Point", "coordinates": [-74.140941, 41.072452]}},
{"type": "Feature", "id": "52RJdQXffXuYNyXeOq0vTqby6oI=", "properties": {"ref": "048", "@spider": "duluthtrading", "addr:street": "301 Crossroads Blvd.", "addr:city": "Cary", "addr:state": "NC", "addr:postcode": "27518", "addr:country": "United States", "name": "Cary, NC", "phone": "919-650-6910", "website": "https://www.duluthtrading.com/locations/?StoreID=048&street-address=301 Crossroads Blvd.&city=Cary", "brand": "Duluth Trading"}, "geometry": {"type": "Point", "coordinates": [-78.740638, 35.761213]}},
{"type": "Feature", "id": "BcmjcXDi_ZUniruD_6doBDA6Q3w=", "properties": {"ref": "044", "@spider": "duluthtrading", "addr:street": "5445 Whipple Ave. NW", "addr:city": "North Canton", "addr:state": "OH", "addr:postcode": "44720", "addr:country": "United States", "name": "North Canton, OH", "phone": "330-470-4799", "website": "https://www.duluthtrading.com/locations/?StoreID=044&street-address=5445 Whipple Ave. NW&city=North Canton", "brand": "Duluth Trading"}, "geometry": {"type": "Point", "coordinates": [-81.426942, 40.861348]}},
{"type": "Feature", "id": "h0ZcRW_wr139fp69CBDs585JiPI=", "properties": {"ref": "047", "@spider": "duluthtrading", "addr:street": "5400 Hornaday Rd.", "addr:city": "Greensboro", "addr:state": "NC", "addr:postcode": "27407", "addr:country": "United States", "name": "Greensboro, NC", "phone": "336-790-8600", "website": "https://www.duluthtrading.com/locations/?StoreID=047&street-address=5400 Hornaday Rd.&city=Greensboro", "brand": "Duluth Trading"}, "geometry": {"type": "Point", "coordinates": [-79.906172, 36.060062]}},
{"type": "Feature", "id": "20TfOaYko24XuQA_1aQl4I7q9pY=", "properties": {"ref": "054", "@spider": "duluthtrading", "addr:street": "3 Sugar Hollow Rd Suite 3A", "addr:city": "Danbury", "addr:state": "CT", "addr:postcode": "06810", "addr:country": "United States", "name": "Danbury, CT", "phone": "203-885-1001", "website": "https://www.duluthtrading.com/locations/?StoreID=054&street-address=3 Sugar Hollow Rd Suite 3A&city=Danbury", "brand": "Duluth Trading"}, "geometry": {"type": "Point", "coordinates": [-73.475013, 41.378682]}},
{"type": "Feature", "id": "E14HkdLf1iok2e8XQLfEFyVaKSg=", "properties": {"ref": "028", "@spider": "duluthtrading", "addr:street": "35455 Chester Rd.", "addr:city": "Avon", "addr:state": "OH", "addr:postcode": "44011", "addr:country": "United States", "name": "Avon, OH", "phone": "440-695-3768", "website": "https://www.duluthtrading.com/locations/?StoreID=028&street-address=35455 Chester Rd.&city=Avon", "brand": "Duluth Trading"}, "geometry": {"type": "Point", "coordinates": [-82.009786, 41.467163]}},
{"type": "Feature", "id": "nBYyyX9OJJN9jJ42KNZ7XSY5pBw=", "properties": {"ref": "039", "@spider": "duluthtrading", "addr:street": "9061 Lyra Dr.", "addr:city": "Columbus", "addr:state": "OH", "addr:postcode": "43240", "addr:country": "United States", "name": "Columbus, OH", "phone": "614-633-4900", "website": "https://www.duluthtrading.com/locations/?StoreID=039&street-address=9061 Lyra Dr.&city=Columbus", "brand": "Duluth Trading"}, "geometry": {"type": "Point", "coordinates": [-82.977131, 40.149998]}},
{"type": "Feature", "id": "crCLT__sqq3f8EYld06OInywIhg=", "properties": {"ref": "021", "@spider": "duluthtrading", "addr:street": "1000 Bald Hill Road", "addr:city": "Warwick", "addr:state": "RI", "addr:postcode": "02886", "addr:country": "United States", "name": "Warwick, RI", "phone": "401-250-5777", "website": "https://www.duluthtrading.com/locations/?StoreID=021&street-address=1000 Bald Hill Road&city=Warwick", "brand": "Duluth Trading"}, "geometry": {"type": "Point", "coordinates": [-71.490078, 41.712269]}},
{"type": "Feature", "id": "1-fOmA1wJqUDlDWkTb83Q4B7G6A=", "properties": {"ref": "022", "@spider": "duluthtrading", "addr:street": "9578 Civic Centre Blvd.", "addr:city": "West Chester", "addr:state": "OH", "addr:postcode": "45069", "addr:country": "United States", "name": "West Chester, OH", "phone": "513-342-1400", "website": "https://www.duluthtrading.com/locations/?StoreID=022&street-address=9578 Civic Centre Blvd.&city=West Chester", "brand": "Duluth Trading"}, "geometry": {"type": "Point", "coordinates": [-84.427424, 39.318899]}},
{"type": "Feature", "id": "zfrVkF1O-13Z9irXvKRRf7tu4Wg=", "properties": {"ref": "020", "@spider": "duluthtrading", "addr:street": "18493 Hall Road", "addr:city": "Macomb", "addr:state": "MI", "addr:postcode": "48044", "addr:country": "United States", "name": "Macomb, MI", "phone": "586-690-6808", "website": "https://www.duluthtrading.com/locations/?StoreID=020&street-address=18493 Hall Road&city=Macomb", "brand": "Duluth Trading"}, "geometry": {"type": "Point", "coordinates": [-82.939576, 42.629403]}},
{"type": "Feature", "id": "gN-MiK4EmaB2zEU-BfdCjR8EOxg=", "properties": {"ref": "066", "@spider": "duluthtrading", "addr:street": "390 Meijer Drive", "addr:city": "Florence", "addr:state": "KY", "addr:postcode": "41042", "addr:country": "United States", "name": "Florence, KY", "phone": "859-818-0229", "website": "https://www.duluthtrading.com/locations/?StoreID=066&street-address=390 Meijer Drive&city=Florence", "brand": "Duluth Trading"}, "geometry": {"type": "Point", "coordinates": [-84.638279, 39.01097]}},
{"type": "Feature", "id": "0DBUWx2p026vSD69kYZOfMhYtps=", "properties": {"ref": "030", "@spider": "duluthtrading", "addr:street": "10900 Assembly Park Dr.", "addr:city": "Wixom", "addr:state": "MI", "addr:postcode": "48393", "addr:country": "United States", "name": "Wixom, MI", "phone": "313-202-9423", "website": "https://www.duluthtrading.com/locations/?StoreID=030&street-address=10900 Assembly Park Dr.&city=Wixom", "brand": "Duluth Trading"}, "geometry": {"type": "Point", "coordinates": [-83.543593, 42.499658]}},
{"type": "Feature", "id": "ZK1kB03AzWMgxVNfBiJOB11HONc=", "properties": {"ref": "019", "@spider": "duluthtrading", "addr:street": "112 Burlington Mall Rd. Unit #2", "addr:city": "Burlington", "addr:state": "MA", "addr:postcode": "01803", "addr:country": "United States", "name": "Burlington, MA", "phone": "781-262-0901", "website": "https://www.duluthtrading.com/locations/?StoreID=019&street-address=112 Burlington Mall Rd. Unit #2&city=Burlington", "brand": "Duluth Trading"}, "geometry": {"type": "Point", "coordinates": [-71.221099, 42.485463]}},
{"type": "Feature", "id": "pXCdWRGVZ30_5aAUhCJH3VJcQSo=", "properties": {"ref": "061", "@spider": "duluthtrading", "addr:street": "116 N. Cedar Bluff Rd.", "addr:city": "Knoxville", "addr:state": "TN", "addr:postcode": "37923", "addr:country": "United States", "name": "Knoxville, TN", "phone": "615-716-1058", "website": "https://www.duluthtrading.com/locations/?StoreID=061&street-address=116 N. Cedar Bluff Rd.&city=Knoxville", "brand": "Duluth Trading"}, "geometry": {"type": "Point", "coordinates": [-84.086711, 35.912205]}},
{"type": "Feature", "id": "acCVI46VhkOZ55hwTLi0JKv8MxQ=", "properties": {"ref": "029", "@spider": "duluthtrading", "addr:street": "111 W. Main St., Suite 115", "addr:city": "Louisville", "addr:state": "KY", "addr:postcode": "40202", "addr:country": "United States", "name": "Louisville, KY", "phone": "502-890-8222", "website": "https://www.duluthtrading.com/locations/?StoreID=029&street-address=111 W. Main St., Suite 115&city=Louisville", "brand": "Duluth Trading"}, "geometry": {"type": "Point", "coordinates": [-85.754234, 38.256527]}},
{"type": "Feature", "id": "qK9vJwBNtR6d3e4OZOIZKooo2nQ=", "properties": {"ref": "018", "@spider": "duluthtrading", "addr:street": "13890 Cabela Pkwy", "addr:city": "Noblesville", "addr:state": "IN", "addr:postcode": "46060", "addr:country": "United States", "name": "Noblesville, IN", "phone": "317-565-6000", "website": "https://www.duluthtrading.com/locations/?StoreID=018&street-address=13890 Cabela Pkwy&city=Noblesville", "brand": "Duluth Trading"}, "geometry": {"type": "Point", "coordinates": [-85.936662, 39.988884]}},
{"type": "Feature", "id": "T6aK12xGwDulTEGIiscyGgzvaOE=", "properties": {"ref": "045", "@spider": "duluthtrading", "addr:street": "55 Maine Mall Rd", "addr:city": "South Portland", "addr:state": "ME", "addr:postcode": "04106", "addr:country": "United States", "name": "South Portland, ME", "phone": "207-618-8166", "website": "https://www.duluthtrading.com/locations/?StoreID=045&street-address=55 Maine Mall Rd&city=South Portland", "brand": "Duluth Trading"}, "geometry": {"type": "Point", "coordinates": [-70.334007, 43.643196]}},
{"type": "Feature", "id": "oFvtnbbRQwpMfPotbKEh0R_l6JE=", "properties": {"ref": "032", "@spider": "duluthtrading", "addr:street": "3990 Rivertown Pkwy.", "addr:city": "Grandville", "addr:state": "MI", "addr:postcode": "49418", "addr:country": "United States", "name": "Grandville, MI", "phone": "616-432-2881", "website": "https://www.duluthtrading.com/locations/?StoreID=032&street-address=3990 Rivertown Pkwy.&city=Grandville", "brand": "Duluth Trading"}, "geometry": {"type": "Point", "coordinates": [-85.764508, 42.882258]}},
{"type": "Feature", "id": "A0kAQ1aeQTUDw9ar9U0rDINOHJc=", "properties": {"ref": "056", "@spider": "duluthtrading", "addr:street": "860 Cobb Place Blvd. NW, Ste 350", "addr:city": "Kennesaw", "addr:state": "GA", "addr:postcode": "30144", "addr:country": "United States", "name": "Kennesaw, GA", "phone": "470-412-3838", "website": "https://www.duluthtrading.com/locations/?StoreID=056&street-address=860 Cobb Place Blvd. NW, Ste 350&city=Kennesaw", "brand": "Duluth Trading"}, "geometry": {"type": "Point", "coordinates": [-84.570653, 34.012184]}},
{"type": "Feature", "id": "6_dFVO7OaZa_31TntAIzcjPBP2Q=", "properties": {"ref": "060", "@spider": "duluthtrading", "addr:street": "1725 Galleria Blvd.", "addr:city": "Franklin", "addr:state": "TN", "addr:postcode": "37067", "addr:country": "United States", "name": "Franklin, TN", "phone": "615-716-1123", "website": "https://www.duluthtrading.com/locations/?StoreID=060&street-address=1725 Galleria Blvd.&city=Franklin", "brand": "Duluth Trading"}, "geometry": {"type": "Point", "coordinates": [-86.813728, 35.963315]}},
{"type": "Feature", "id": "L5B2ITR25v4z-1DY3yfVZjhWNvQ=", "properties": {"ref": "065", "@spider": "duluthtrading", "addr:street": "29 Orland Square Drive", "addr:city": "Orland Park", "addr:state": "IL", "addr:postcode": "60462", "addr:country": "United States", "name": "Orland Park, IL", "phone": "708-675-2060", "website": "https://www.duluthtrading.com/locations/?StoreID=065&street-address=29 Orland Square Drive&city=Orland Park", "brand": "Duluth Trading"}, "geometry": {"type": "Point", "coordinates": [-87.855092, 41.619167]}},
{"type": "Feature", "id": "vPmwi-yNt2vLSvw2V2y57l4calw=", "properties": {"ref": "014", "@spider": "duluthtrading", "addr:street": "2966 Finley Rd. ", "addr:city": "Downers Grove", "addr:state": "IL", "addr:postcode": "60515", "addr:country": "United States", "name": "Downers Grove, IL", "phone": "630-487-3700", "website": "https://www.duluthtrading.com/locations/?StoreID=014&street-address=2966 Finley Rd. &city=Downers Grove", "brand": "Duluth Trading"}, "geometry": {"type": "Point", "coordinates": [-88.029274, 41.834128]}},
{"type": "Feature", "id": "6CdfD-FRilFixA0xWYwFm0F1ej0=", "properties": {"ref": "055", "@spider": "duluthtrading", "addr:street": "100 Angry Beaver Way", "addr:city": "Madison", "addr:state": "AL", "addr:postcode": "35758", "addr:country": "United States", "name": "Madison, AL", "phone": "256-850-0809", "website": "https://www.duluthtrading.com/locations/?StoreID=055&street-address=100 Angry Beaver Way&city=Madison", "brand": "Duluth Trading"}, "geometry": {"type": "Point", "coordinates": [-86.747716, 34.675146]}},
{"type": "Feature", "id": "1J7sdwZGt3p6qgn65RMzKMrnZiY=", "properties": {"ref": "013", "@spider": "duluthtrading", "addr:street": "5190 Hoffman Blvd.", "addr:city": "Hoffman Estates", "addr:state": "IL", "addr:postcode": "60192", "addr:country": "United States", "name": "Hoffman Estates, IL", "phone": "224-699-4140", "website": "https://www.duluthtrading.com/locations/?StoreID=013&street-address=5190 Hoffman Blvd.&city=Hoffman Estates", "brand": "Duluth Trading"}, "geometry": {"type": "Point", "coordinates": [-88.201312, 42.068021]}},
{"type": "Feature", "id": "Zveo0J8lrzE0iXCXpywqFc0yZgA=", "properties": {"ref": "002", "@spider": "duluthtrading", "addr:street": "108 N. Franklin St.", "addr:city": "Port Washington", "addr:state": "WI", "addr:postcode": "53074", "addr:country": "United States", "name": "Port Washington, WI ", "phone": "262-268-1305", "website": "https://www.duluthtrading.com/locations/?StoreID=002&street-address=108 N. Franklin St.&city=Port Washington", "brand": "Duluth Trading"}, "geometry": {"type": "Point", "coordinates": [-87.869077, 43.387828]}},
{"type": "Feature", "id": "dvjX0tnNSxxVyXBYhY41fPfNiNg=", "properties": {"ref": "031", "@spider": "duluthtrading", "addr:street": "2310 W Bluemound Rd.", "addr:city": "Waukesha", "addr:state": "WI", "addr:postcode": "53186", "addr:country": "United States", "name": "Waukesha, WI", "phone": "262-373-6140", "website": "https://www.duluthtrading.com/locations/?StoreID=031&street-address=2310 W Bluemound Rd.&city=Waukesha", "brand": "Duluth Trading"}, "geometry": {"type": "Point", "coordinates": [-88.184047, 43.036393]}},
{"type": "Feature", "id": "7oJwSNXATvpBcP_slyHdFuO6OUw=", "properties": {"ref": "052", "@spider": "duluthtrading", "addr:street": "13000 City Station Dr.", "addr:city": "Jacksonville", "addr:state": "FL", "addr:postcode": "32218", "addr:country": "United States", "name": "Jacksonville, FL", "phone": "904-903-2350", "website": "https://www.duluthtrading.com/locations/?StoreID=052&street-address=13000 City Station Dr.&city=Jacksonville", "brand": "Duluth Trading"}, "geometry": {"type": "Point", "coordinates": [-81.647186, 30.472561]}},
{"type": "Feature", "id": "_OzPTWgFcI7A5G3TTgINH0UREeE=", "properties": {"ref": "059", "@spider": "duluthtrading", "addr:street": "5101 Fire Hose Drive", "addr:city": "Hoover", "addr:state": "AL", "addr:postcode": "35244", "addr:country": "United States", "name": "Hoover, AL", "phone": "205-583-0140", "website": "https://www.duluthtrading.com/locations/?StoreID=059&street-address=5101 Fire Hose Drive&city=Hoover", "brand": "Duluth Trading"}, "geometry": {"type": "Point", "coordinates": [-86.851259, 33.35505]}},
{"type": "Feature", "id": "alOdfJvHDPKW3YWCMC8cInCiupk=", "properties": {"ref": "009", "@spider": "duluthtrading", "addr:street": "1132 S. Koeller St.", "addr:city": "Oshkosh", "addr:state": "WI", "addr:postcode": "54902", "addr:country": "United States", "name": "Oshkosh, WI", "phone": "920-376-9235", "website": "https://www.duluthtrading.com/locations/?StoreID=009&street-address=1132 S. Koeller St.&city=Oshkosh", "brand": "Duluth Trading"}, "geometry": {"type": "Point", "coordinates": [-88.582291, 44.008227]}},
{"type": "Feature", "id": "0aU-iKEmJN6UHwn6OYBnahfExw0=", "properties": {"ref": "004", "@spider": "duluthtrading", "addr:street": "1107 River St.", "addr:city": "Belleville", "addr:state": "WI", "addr:postcode": "53508", "addr:country": "United States", "name": "Belleville, WI Outlet", "phone": "608-424-1227", "website": "https://www.duluthtrading.com/locations/?StoreID=004&street-address=1107 River St.&city=Belleville", "brand": "Duluth Trading"}, "geometry": {"type": "Point", "coordinates": [-89.533679, 42.876992]}},
{"type": "Feature", "id": "UJtj9wZDMsZ3ZkzrVLhqx9edssM=", "properties": {"ref": "001", "@spider": "duluthtrading", "addr:street": "100 W. Main St.", "addr:city": "Mount Horeb", "addr:state": "WI", "addr:postcode": "53572", "addr:country": "United States", "name": "Mount Horeb, WI ", "phone": "608-437-8655", "website": "https://www.duluthtrading.com/locations/?StoreID=001&street-address=100 W. Main St.&city=Mount Horeb", "brand": "Duluth Trading"}, "geometry": {"type": "Point", "coordinates": [-89.742147, 43.008832]}},
{"type": "Feature", "id": "0Hgyv5XSS6FD_r4_c59bSVXEcAU=", "properties": {"ref": "025", "@spider": "duluthtrading", "addr:street": "1439 Bass Pro Dr.", "addr:city": "Saint Charles", "addr:state": "MO", "addr:postcode": "63301", "addr:country": "United States", "name": "St. Charles, MO", "phone": "314-888-5466", "website": "https://www.duluthtrading.com/locations/?StoreID=025&street-address=1439 Bass Pro Dr.&city=Saint Charles", "brand": "Duluth Trading"}, "geometry": {"type": "Point", "coordinates": [-90.500708, 38.772902]}},
{"type": "Feature", "id": "4upmn0v9Q1Jx1Yn2R8-jJhOxF7c=", "properties": {"ref": "011", "@spider": "duluthtrading", "addr:street": "400 Main St. ", "addr:city": "La Crosse", "addr:state": "WI", "addr:postcode": "54601", "addr:country": "United States", "name": "La Crosse, WI", "phone": "608-790-9374", "website": "https://www.duluthtrading.com/locations/?StoreID=011&street-address=400 Main St. &city=La Crosse", "brand": "Duluth Trading"}, "geometry": {"type": "Point", "coordinates": [-91.251124, 43.812122]}},
{"type": "Feature", "id": "2OMlLy6eK5KqDzyOdic5A2st26s=", "properties": {"ref": "024", "@spider": "duluthtrading", "addr:street": "307 Main St., Red Wing", "addr:city": "Red Wing", "addr:state": "MN", "addr:postcode": "55066", "addr:country": "United States", "name": "Red Wing, MN", "phone": "651-212-2261", "website": "https://www.duluthtrading.com/locations/?StoreID=024&street-address=307 Main St., Red Wing&city=Red Wing", "brand": "Duluth Trading"}, "geometry": {"type": "Point", "coordinates": [-92.536375, 44.566215]}},
{"type": "Feature", "id": "nRaOK7cts20xvuyTICn1w-qEKHw=", "properties": {"ref": "008", "@spider": "duluthtrading", "addr:street": "2732 SE Delaware Ave", "addr:city": "Ankeny", "addr:state": "IA", "addr:postcode": "50021", "addr:country": "United States", "name": "Ankeny, IA ", "phone": "515-446-2512", "website": "https://www.duluthtrading.com/locations/?StoreID=008&street-address=2732 SE Delaware Ave&city=Ankeny", "brand": "Duluth Trading"}, "geometry": {"type": "Point", "coordinates": [-93.584782, 41.700769]}},
{"type": "Feature", "id": "R7sa-htFawDBWGxV4WqJN6LDMy4=", "properties": {"ref": "033", "@spider": "duluthtrading", "addr:street": "9320 Hudson Rd.", "addr:city": "Woodbury", "addr:state": "MN", "addr:postcode": "55125", "addr:country": "United States", "name": "Woodbury, MN", "phone": "952-225-5410", "website": "https://www.duluthtrading.com/locations/?StoreID=033&street-address=9320 Hudson Rd.&city=Woodbury", "brand": "Duluth Trading"}, "geometry": {"type": "Point", "coordinates": [-92.918255, 44.947738]}},
{"type": "Feature", "id": "75sFXCsYWLKcYRDexxdFJIL-Fnk=", "properties": {"ref": "005", "@spider": "duluthtrading", "addr:street": "9801 Lyndale Ave S", "addr:city": "Bloomington", "addr:state": "MN", "addr:postcode": "55420", "addr:country": "United States", "name": "Bloomington, MN ", "phone": "952-884-3561", "website": "https://www.duluthtrading.com/locations/?StoreID=005&street-address=9801 Lyndale Ave S&city=Bloomington", "brand": "Duluth Trading"}, "geometry": {"type": "Point", "coordinates": [-93.290221, 44.825912]}},
{"type": "Feature", "id": "tJ2aDWe1chZTqSvNrdnWiC5Rzio=", "properties": {"ref": "017", "@spider": "duluthtrading", "addr:street": "18101 East Bass Pro Drive", "addr:city": "Independence", "addr:state": "MO", "addr:postcode": "64055", "addr:country": "United States", "name": "Independence, MO", "phone": "816-448-8338", "website": "https://www.duluthtrading.com/locations/?StoreID=017&street-address=18101 East Bass Pro Drive&city=Independence", "brand": "Duluth Trading"}, "geometry": {"type": "Point", "coordinates": [-94.369279, 39.039673]}},
{"type": "Feature", "id": "RAi2FywwF5tRfxREkY8_-NU2-8w=", "properties": {"ref": "007", "@spider": "duluthtrading", "addr:street": "252 57th Ave NE", "addr:city": "Fridley", "addr:state": "MN", "addr:postcode": "55432", "addr:country": "United States", "name": "Fridley, MN", "phone": "612-255-5201", "website": "https://www.duluthtrading.com/locations/?StoreID=007&street-address=252 57th Ave NE&city=Fridley", "brand": "Duluth Trading"}, "geometry": {"type": "Point", "coordinates": [-93.268291, 45.070309]}},
{"type": "Feature", "id": "w3e_gkU9MC3Q2YGGuRvFOrmyIww=", "properties": {"ref": "006", "@spider": "duluthtrading", "addr:street": "300 E. Superior Street", "addr:city": "Duluth", "addr:state": "MN", "addr:postcode": "55802", "addr:country": "United States", "name": "Downtown Duluth, MN", "phone": "218-481-7580", "website": "https://www.duluthtrading.com/locations/?StoreID=006&street-address=300 E. Superior Street&city=Duluth", "brand": "Duluth Trading"}, "geometry": {"type": "Point", "coordinates": [-92.096141, 46.789779]}},
{"type": "Feature", "id": "fvDLZawWaTkImQZ9AXLEiNKUpho=", "properties": {"ref": "053", "@spider": "duluthtrading", "addr:street": "3200 S. 27th St.", "addr:city": "Rogers", "addr:state": "AR", "addr:postcode": "72758", "addr:country": "United States", "name": "Rogers, AR", "phone": "479-282-1234", "website": "https://www.duluthtrading.com/locations/?StoreID=053&street-address=3200 S. 27th St.&city=Rogers", "brand": "Duluth Trading"}, "geometry": {"type": "Point", "coordinates": [-94.162375, 36.308304]}},
{"type": "Feature", "id": "ztx61V38_TeOHAqZuBhSs7KiJew=", "properties": {"ref": "012", "@spider": "duluthtrading", "addr:street": "151 N. 78th St., Suite 151 ", "addr:city": "Omaha", "addr:state": "NE", "addr:postcode": "68114", "addr:country": "United States", "name": "Omaha, NE", "phone": "402-253-0887", "website": "https://www.duluthtrading.com/locations/?StoreID=012&street-address=151 N. 78th St., Suite 151 &city=Omaha", "brand": "Duluth Trading"}, "geometry": {"type": "Point", "coordinates": [-96.035198, 41.260636]}},
{"type": "Feature", "id": "jSobjoUaQUzuq4_5MtI9nAsvLPs=", "properties": {"ref": "010", "@spider": "duluthtrading", "addr:street": "320 S. Phillips Ave., Suite 100", "addr:city": "Sioux Falls", "addr:state": "SD", "addr:postcode": "57104", "addr:country": "United States", "name": "Sioux Falls, SD", "phone": "605-988-6043", "website": "https://www.duluthtrading.com/locations/?StoreID=010&street-address=320 S. Phillips Ave., Suite 100&city=Sioux Falls", "brand": "Duluth Trading"}, "geometry": {"type": "Point", "coordinates": [-96.728575, 43.543951]}},
{"type": "Feature", "id": "eW7M0FBZh4zLpyjsMmI_Lj6jyyw=", "properties": {"ref": "050", "@spider": "duluthtrading", "addr:street": "2628 N. Greenwich Ct.", "addr:city": "Wichita", "addr:state": "KS", "addr:postcode": "67226", "addr:country": "United States", "name": "Wichita, KS", "phone": "316-221-7750", "website": "https://www.duluthtrading.com/locations/?StoreID=050&street-address=2628 N. Greenwich Ct.&city=Wichita", "brand": "Duluth Trading"}, "geometry": {"type": "Point", "coordinates": [-97.207977, 37.730785]}},
{"type": "Feature", "id": "gogyAgyHLYUPw0ui-7nc5E3FhpA=", "properties": {"ref": "035", "@spider": "duluthtrading", "addr:street": "2261 Rustad Lane East", "addr:city": "West Fargo", "addr:state": "ND", "addr:postcode": "58078", "addr:country": "United States", "name": "West Fargo, ND", "phone": "701-540-5040", "website": "https://www.duluthtrading.com/locations/?StoreID=035&street-address=2261 Rustad Lane East&city=West Fargo", "brand": "Duluth Trading"}, "geometry": {"type": "Point", "coordinates": [-96.889619, 46.845511]}},
{"type": "Feature", "id": "3WR7TlXT0hTDSkP_fu-Wi90PM9w=", "properties": {"ref": "041", "@spider": "duluthtrading", "addr:street": "6617 SW 3rd St", "addr:city": "Oklahoma City", "addr:state": "OK", "addr:postcode": "73128", "addr:country": "United States", "name": "Oklahoma City, OK", "phone": "405-622-8040", "website": "https://www.duluthtrading.com/locations/?StoreID=041&street-address=6617 SW 3rd St&city=Oklahoma City", "brand": "Duluth Trading"}, "geometry": {"type": "Point", "coordinates": [-97.632611, 35.463061]}},
{"type": "Feature", "id": "GA5J6dNTCcgxkZxszMwPBSNrMdU=", "properties": {"ref": "037", "@spider": "duluthtrading", "addr:street": "3651 Interstate 35 North", "addr:city": "Denton", "addr:state": "TX", "addr:postcode": "76207", "addr:country": "United States", "name": "Denton, TX", "phone": "940-220-7200", "website": "https://www.duluthtrading.com/locations/?StoreID=037&street-address=3651 Interstate 35 North&city=Denton", "brand": "Duluth Trading"}, "geometry": {"type": "Point", "coordinates": [-97.17498, 33.226114]}},
{"type": "Feature", "id": "idnOB5c3Q4JY6AUzddcyhBlqmfs=", "properties": {"ref": "040", "@spider": "duluthtrading", "addr:street": "620 E. Interstate 20", "addr:city": "Arlington", "addr:state": "TX", "addr:postcode": "76018", "addr:country": "United States", "name": "Arlington, TX", "phone": "682-300-2777", "website": "https://www.duluthtrading.com/locations/?StoreID=040&street-address=620 E. Interstate 20&city=Arlington", "brand": "Duluth Trading"}, "geometry": {"type": "Point", "coordinates": [-97.102238, 32.675686]}},
{"type": "Feature", "id": "qIDyq_--wV0L_hPnrdG8fSRzeuA=", "properties": {"ref": "046", "@spider": "duluthtrading", "addr:street": "18730 Gulf Freeway", "addr:city": "Friendswood", "addr:state": "TX", "addr:postcode": "77546", "addr:country": "United States", "name": "Friendswood, TX", "phone": "281-816-3818", "website": "https://www.duluthtrading.com/locations/?StoreID=046&street-address=18730 Gulf Freeway&city=Friendswood", "brand": "Duluth Trading"}, "geometry": {"type": "Point", "coordinates": [-95.15402, 29.547889]}},
{"type": "Feature", "id": "8rDlq2m3iug_CjTp__sTVjTKVhs=", "properties": {"ref": "049", "@spider": "duluthtrading", "addr:street": "24731 Katy Freeway", "addr:city": "Katy", "addr:state": "TX", "addr:postcode": "77494", "addr:country": "United States", "name": "Katy, TX", "phone": "281-394-4448", "website": "https://www.duluthtrading.com/locations/?StoreID=049&street-address=24731 Katy Freeway&city=Katy", "brand": "Duluth Trading"}, "geometry": {"type": "Point", "coordinates": [-95.801476, 29.78329]}},
{"type": "Feature", "id": "OYGxUnfZ5JV890OMMqSn0xN3wlk=", "properties": {"ref": "057", "@spider": "duluthtrading", "addr:street": "4401 N. Interstate-35 STE 2001", "addr:city": "Round Rock", "addr:state": "TX", "addr:postcode": "78664", "addr:country": "United States", "name": "Round Rock, TX", "phone": "737-808-4860", "website": "https://www.duluthtrading.com/locations/?StoreID=057&street-address=4401 N. Interstate-35 STE 2001&city=Round Rock", "brand": "Duluth Trading"}, "geometry": {"type": "Point", "coordinates": [-97.692732, 30.563609]}},
{"type": "Feature", "id": "Wk5U40v6vumHEfd3jkMMb2OOnKk=", "properties": {"ref": "036", "@spider": "duluthtrading", "addr:street": "2510 W. Loop 289", "addr:city": "Lubbock", "addr:state": "TX", "addr:postcode": "79407", "addr:country": "United States", "name": "Lubbock, TX", "phone": "806-589-2776", "website": "https://www.duluthtrading.com/locations/?StoreID=036&street-address=2510 W. Loop 289&city=Lubbock", "brand": "Duluth Trading"}, "geometry": {"type": "Point", "coordinates": [-101.948881, 33.572294]}},
{"type": "Feature", "id": "sVFc1FOaJjyQqGAOHVp4Z3sC7h8=", "properties": {"ref": "026", "@spider": "duluthtrading", "addr:street": "16557 Washington St.", "addr:city": "Thornton", "addr:state": "CO", "addr:postcode": "80023", "addr:country": "United States", "name": "Thornton, CO", "phone": "720-465-8839", "website": "https://www.duluthtrading.com/locations/?StoreID=026&street-address=16557 Washington St.&city=Thornton", "brand": "Duluth Trading"}, "geometry": {"type": "Point", "coordinates": [-104.980006, 39.997947]}},
{"type": "Feature", "id": "0oduKBJdNUY5llIzFApxHvrIOqc=", "properties": {"ref": "038", "@spider": "duluthtrading", "addr:street": "5318 N. Nevada Ave.", "addr:city": "Colorado Springs", "addr:state": "CO", "addr:postcode": "80918", "addr:country": "United States", "name": "Colorado Springs, CO", "phone": "719-355-7239", "website": "https://www.duluthtrading.com/locations/?StoreID=038&street-address=5318 N. Nevada Ave.&city=Colorado Springs", "brand": "Duluth Trading"}, "geometry": {"type": "Point", "coordinates": [-104.819968, 38.907149]}},
{"type": "Feature", "id": "zmWsWzyjPy0B2aaurdjmkMnccOI=", "properties": {"ref": "042", "@spider": "duluthtrading", "addr:street": "16630 W Colfax Ave.", "addr:city": "Golden", "addr:state": "CO", "addr:postcode": "80401", "addr:country": "United States", "name": "Golden, CO", "phone": "720-636-7660", "website": "https://www.duluthtrading.com/locations/?StoreID=042&street-address=16630 W Colfax Ave.&city=Golden", "brand": "Duluth Trading"}, "geometry": {"type": "Point", "coordinates": [-105.185563, 39.724748]}},
{"type": "Feature", "id": "mXgWD6CWz6cg2TugZI2b8YOLBsE=", "properties": {"ref": "058", "@spider": "duluthtrading", "addr:street": "154 W 11400 S", "addr:city": "Sandy", "addr:state": "UT", "addr:postcode": "84070", "addr:country": "United States", "name": "Sandy, UT", "phone": "385-787-5111", "website": "https://www.duluthtrading.com/locations/?StoreID=058&street-address=154 W 11400 S&city=Sandy", "brand": "Duluth Trading"}, "geometry": {"type": "Point", "coordinates": [-111.89553, 40.544851]}},
{"type": "Feature", "id": "omDvp7tlMrFPeebNyOFNPGrMYAQ=", "properties": {"ref": "051", "@spider": "duluthtrading", "addr:street": "16314 E. Indiana Ave.", "addr:city": "Spokane Valley", "addr:state": "WA", "addr:postcode": "99216", "addr:country": "United States", "name": "Spokane Valley, WA", "phone": "509-558-8980", "website": "https://www.duluthtrading.com/locations/?StoreID=051&street-address=16314 E. Indiana Ave.&city=Spokane Valley", "brand": "Duluth Trading"}, "geometry": {"type": "Point", "coordinates": [-117.186076, 47.668401]}},
{"type": "Feature", "id": "b-hSNIluERrobluXGt2oMSEKr-U=", "properties": {"ref": "034", "@spider": "duluthtrading", "addr:street": "12300 N. Parker Ave.", "addr:city": "Portland", "addr:state": "OR", "addr:postcode": "97217", "addr:country": "United States", "name": "Portland, OR", "phone": "503-867-8839", "website": "https://www.duluthtrading.com/locations/?StoreID=034&street-address=12300 N. Parker Ave.&city=Portland", "brand": "Duluth Trading"}, "geometry": {"type": "Point", "coordinates": [-122.684437, 45.611857]}},
{"type": "Feature", "id": "ME1YzGLm4LCgWpm9wSwzx6Vq6Yk=", "properties": {"ref": "064", "@spider": "duluthtrading", "addr:street": "3320 Gateway Street", "addr:city": "Springfield", "addr:state": "OR", "addr:postcode": "97477", "addr:country": "United States", "name": "Springfield, OR", "phone": "458-221-9101", "website": "https://www.duluthtrading.com/locations/?StoreID=064&street-address=3320 Gateway Street&city=Springfield", "brand": "Duluth Trading"}, "geometry": {"type": "Point", "coordinates": [-123.046068, 44.082508]}},
{"type": "Feature", "id": "qgJkC6q88WFEyDjkJTK0g1z_Yi4=", "properties": {"ref": "027", "@spider": "duluthtrading", "addr:street": "8931 Old Seward Hwy., Suite A", "addr:city": "Anchorage", "addr:state": "AK", "addr:postcode": "99515", "addr:country": "United States", "name": "Anchorage, AK", "phone": "907-313-8250", "website": "https://www.duluthtrading.com/locations/?StoreID=027&street-address=8931 Old Seward Hwy., Suite A&city=Anchorage", "brand": "Duluth Trading"}, "geometry": {"type": "Point", "coordinates": [-149.858897, 61.138958]}}]}