{"type":"FeatureCollection","features":[{"type": "Feature", "id": "gYViffjY5ehoq3l93-G9rt9TG2U=", "properties": {"ref": "afghanistan#kabul", "@spider": "ernst_young", "addr:full": "House 1013, Street 2, Shirpoor Road", "addr:city": "Kabul", "addr:country": "Afghanistan", "name": "EY", "phone": "+93 75 2055025", "website": "https://www.ey.com/locations/afghanistan#kabul", "brand": "Ernst & Young"}, "geometry": {"type": "Point", "coordinates": [69.203177, 34.590703]}},
{"type": "Feature", "id": "LYN9Ra3JfuAtKCr4GjiO-B0DUOU=", "properties": {"ref": "albania#prishtine", "@spider": "ernst_young", "addr:full": "Ernst and Young Kosovo, Str. Bajram Kelmendi 92, 3rd floor", "addr:city": "Prishtine", "addr:state": "Kosovo", "addr:postcode": "10000", "addr:country": "Albania", "name": "Ernst & Young Certified Auditors Ltd Kosovo", "phone": "+383 38 220- 155", "website": "https://www.ey.com/locations/albania#prishtine", "brand": "Ernst & Young"}, "geometry": {"type": "Point", "coordinates": [21.166191, 42.667542]}},
{"type": "Feature", "id": "4o3Lj09wPDCb9iPd-EEKJY6huKo=", "properties": {"ref": "albania#tirana", "@spider": "ernst_young", "addr:full": "\"Ibrahim Rugova\" Str., Sky Tower, 6th floor", "addr:city": "Tirana", "addr:postcode": "1001", "addr:country": "Albania", "name": "EY", "phone": "+ 355 4 24 19 571", "website": "https://www.ey.com/locations/albania#tirana", "brand": "Ernst & Young"}, "geometry": {"type": "Point", "coordinates": [19.8180936, 41.3224143]}},
{"type": "Feature", "id": "uubw19ek0kTxOkROcwfmT_MH54c=", "properties": {"ref": "algeria#alger", "@spider": "ernst_young", "addr:full": "Oriental Business Park, Quartier des affaires d\u2019Alger, Bab Ezzouar", "addr:city": "Alger", "addr:postcode": "16320", "addr:country": "Algeria", "name": "EY", "phone": "+ 213 (0) 21 24 93 92", "website": "https://www.ey.com/locations/algeria#alger", "brand": "Ernst & Young"}, "geometry": {"type": "Point", "coordinates": [3.154732, 36.737627]}},
{"type": "Feature", "id": "L72_46a5CYI6a25OPu0iCQk0O5E=", "properties": {"ref": "angola#luanda", "@spider": "ernst_young", "addr:full": "Presidente Business Center, Largo 17 de Setembro, n\u00b0 3\u00b0 Piso - Sala 341", "addr:city": "Luanda", "addr:country": "Angola", "name": "EY Angola, Lda.", "phone": "+244 227 280 461/2/3/4", "website": "https://www.ey.com/locations/angola#luanda", "brand": "Ernst & Young"}, "geometry": {"type": "Point", "coordinates": [13.2421944, -8.8035736]}},
{"type": "Feature", "id": "wkzWkUv5GON0mXAChv03BvAl_VA=", "properties": {"ref": "argentina#buenos-aires", "@spider": "ernst_young", "addr:full": "25 de Mayo 487, Capital Federal", "addr:city": "Buenos Aires", "addr:postcode": "1002", "addr:country": "Argentina", "name": "EY", "phone": "+54 11 4318 1600", "website": "https://www.ey.com/locations/argentina#buenos-aires", "brand": "Ernst & Young"}, "geometry": {"type": "Point", "coordinates": [-58.3710547, -34.6022286]}},
{"type": "Feature", "id": "Qx-8sRIPCDDncO2eXkazIgdMsvc=", "properties": {"ref": "argentina#25-de-mayo-476", "@spider": "ernst_young", "addr:full": "25 de Mayo 476, Capital Federal", "addr:city": "Buenos Aires", "addr:postcode": "1002", "addr:country": "Argentina", "name": "EY", "phone": "+54 11 4318 1600", "website": "https://www.ey.com/locations/argentina#25-de-mayo-476", "brand": "Ernst & Young"}, "geometry": {"type": "Point", "coordinates": [-58.371359, -34.602242]}},
{"type": "Feature", "id": "2QySd0fezqaUCqHAt_4iMxqQHXw=", "properties": {"ref": "argentina#luna-49", "@spider": "ernst_young", "addr:full": "Luna 49, Capital Federal", "addr:city": "Buenos Aires", "addr:postcode": "1437", "addr:country": "Argentina", "name": "EY", "phone": "54 11 4318 1600", "website": "https://www.ey.com/locations/argentina#luna-49", "brand": "Ernst & Young"}, "geometry": {"type": "Point", "coordinates": [-58.400559, -34.636864]}},
{"type": "Feature", "id": "T7baP2l1wvVSVpbY3BA1wevTDts=", "properties": {"ref": "argentina#av--leandro-n--alem-518", "@spider": "ernst_young", "addr:full": "Av. Leandro N. Alem 518, Capital Federal", "addr:city": "Buenos Aires", "addr:postcode": "1002", "addr:country": "Argentina", "name": "EY", "phone": "+54 11 4517 3300", "website": "https://www.ey.com/locations/argentina#av--leandro-n--alem-518", "brand": "Ernst & Young"}, "geometry": {"type": "Point", "coordinates": [-58.370824, -34.601666]}},
{"type": "Feature", "id": "UuHikS1OAkWkrWD1wm2NUCIwxjg=", "properties": {"ref": "argentina#bs-as-distrito-tecnologico", "@spider": "ernst_young", "addr:full": "Luna 49, Pisos 3, 4 y 5", "addr:city": "Buenos Aires", "addr:postcode": "1437", "addr:country": "Argentina", "name": "Bs As-Distrito Tecnol\u00f3gico", "website": "https://www.ey.com/locations/argentina#bs-as-distrito-tecnologico", "brand": "Ernst & Young"}, "geometry": {"type": "Point", "coordinates": [-58.400707, -34.636656]}},
{"type": "Feature", "id": "8DsaGOCGTuCMqrjUgSv1aQQwMro=", "properties": {"ref": "argentina#cordoba", "@spider": "ernst_young", "addr:full": "Av. Col\u00f3n, 778 \u2013 Piso 12, Ciudad de C\u00f3rdoba", "addr:city": "C\u00f3rdoba", "addr:postcode": "5000", "addr:country": "Argentina", "name": "EY", "phone": "+54 351 427 8600 ", "website": "https://www.ey.com/locations/argentina#cordoba", "brand": "Ernst & Young"}, "geometry": {"type": "Point", "coordinates": [-64.1935228, -31.4104181]}},
{"type": "Feature", "id": "t6XV_Abyy4wpYvi8JNcpeWh0nY0=", "properties": {"ref": "armenia#yerevan", "@spider": "ernst_young", "addr:full": "Ernst & Young CJSC, 1 Northern ave., Nord Business Center, Office 27", "addr:city": "Yerevan", "addr:postcode": "0001", "addr:country": "Armenia", "name": "EY", "phone": "+374 10 500790", "website": "https://www.ey.com/locations/armenia#yerevan", "brand": "Ernst & Young"}, "geometry": {"type": "Point", "coordinates": [44.5151001, 40.1835473]}},
{"type": "Feature", "id": "7smg_0R1cAKZrduPrxyqJwTCh7k=", "properties": {"ref": "aruba#oranjestad", "@spider": "ernst_young", "addr:full": "Vondellaan 4", "addr:city": "Oranjestad", "addr:country": "Aruba", "name": "Ernst & Young Dutch Caribbean", "phone": "+297 521 4400", "website": "https://www.ey.com/locations/aruba#oranjestad", "brand": "Ernst & Young"}, "geometry": {"type": "Point", "coordinates": [-70.0270821, 12.5106713]}},
{"type": "Feature", "id": "5qpIY0ojJj8SqeLMqCAZT5kN5kc=", "properties": {"ref": "australia#adelaide", "@spider": "ernst_young", "addr:full": "Level 12, EY Building 121, King William Street", "addr:city": "Adelaide", "addr:state": "SA", "addr:postcode": "5000", "addr:country": "Australia", "name": "EY", "phone": "+61 8 8417 1600", "website": "https://www.ey.com/locations/australia#adelaide", "brand": "Ernst & Young"}, "geometry": {"type": "Point", "coordinates": [138.5993703, -34.9260531]}},
{"type": "Feature", "id": "w6E_lEap9qRrMPMvRW_RiSQkR_s=", "properties": {"ref": "australia#brisbane", "@spider": "ernst_young", "addr:full": "Level 51, 111 Eagle Street", "addr:city": "Brisbane", "addr:state": "QLD", "addr:postcode": "4000", "addr:country": "Australia", "name": "EY", "phone": "+61 7 3011 3333", "website": "https://www.ey.com/locations/australia#brisbane", "brand": "Ernst & Young"}, "geometry": {"type": "Point", "coordinates": [153.0304022, -27.4676737]}},
{"type": "Feature", "id": "fdJY5RLTFRiokEJAX2TnZPflLe0=", "properties": {"ref": "australia#ey-parthenon-brisbane", "@spider": "ernst_young", "addr:full": "Level 51, 111 Eagle Street", "addr:city": "Brisbane", "addr:state": "QLD", "addr:postcode": "4000", "addr:country": "Australia", "name": "EY-Parthenon Brisbane", "website": "https://www.ey.com/locations/australia#ey-parthenon-brisbane", "brand": "Ernst & Young"}, "geometry": {"type": "Point", "coordinates": [153.030335, -27.467316]}},
{"type": "Feature", "id": "8kMsXBjbGeL_RM03BW5caT5BeoU=", "properties": {"ref": "australia#canberra", "@spider": "ernst_young", "addr:full": "121 Marcus Clarke Street", "addr:city": "Canberra", "addr:state": "ACT", "addr:postcode": "2601", "addr:country": "Australia", "name": "EY", "phone": "+61 2 6267 3888", "website": "https://www.ey.com/locations/australia#canberra", "brand": "Ernst & Young"}, "geometry": {"type": "Point", "coordinates": [149.1256424, -35.2778945]}},
{"type": "Feature", "id": "POjynhaiIZMavX-_F0tNvWbskBU=", "properties": {"ref": "australia#darwin", "@spider": "ernst_young", "addr:full": "Level 17, 19 The Mall, Smith Street", "addr:city": "Darwin", "addr:state": "NT", "addr:postcode": "0800", "addr:country": "Australia", "name": "EY", "phone": "+08 8946 4200", "website": "https://www.ey.com/locations/australia#darwin", "brand": "Ernst & Young"}, "geometry": {"type": "Point", "coordinates": [130.8432157, -12.4645561]}},
{"type": "Feature", "id": "WP8hisc5WN77LOQzklg435UKptQ=", "properties": {"ref": "australia#melbourne", "@spider": "ernst_young", "addr:full": "Level 23, 8 Exhibition Street", "addr:city": "Melbourne", "addr:state": "VIC", "addr:postcode": "3000", "addr:country": "Australia", "name": "EY", "phone": "+61 3 9288 8000", "website": "https://www.ey.com/locations/australia#melbourne", "brand": "Ernst & Young"}, "geometry": {"type": "Point", "coordinates": [144.9727915, -37.8153916]}},
{"type": "Feature", "id": "4WyeW2H15FykmZljjxh2m2KrNEs=", "properties": {"ref": "australia#ey-parthenon-melbourne", "@spider": "ernst_young", "addr:full": "The EY Building, 8 Exhibition Street", "addr:city": "Melbourne", "addr:state": "VIC", "addr:postcode": "3000", "addr:country": "Australia", "name": "EY-Parthenon Melbourne", "phone": "+61 3 8650 7699", "website": "https://www.ey.com/locations/australia#ey-parthenon-melbourne", "brand": "Ernst & Young"}, "geometry": {"type": "Point", "coordinates": [144.972759, -37.815154]}},
{"type": "Feature", "id": "B-GG0soRHR_BSSvlSHWFhdiTsyc=", "properties": {"ref": "australia#perth", "@spider": "ernst_young", "addr:full": "EY Building, 11 Mounts Bay Road", "addr:city": "Perth", "addr:state": "WA", "addr:postcode": "6000", "addr:country": "Australia", "name": "EY", "phone": "+61 8 9429 2222", "website": "https://www.ey.com/locations/australia#perth", "brand": "Ernst & Young"}, "geometry": {"type": "Point", "coordinates": [115.8546578, -31.9561324]}},
{"type": "Feature", "id": "kYz1cPCgxvcmRCNo3YOaR_BrTrk=", "properties": {"ref": "australia#sydney", "@spider": "ernst_young", "addr:full": "The EY Centre Level 34, 200 George Street", "addr:city": "Sydney", "addr:state": "NSW", "addr:postcode": "2000", "addr:country": "Australia", "name": "EY", "phone": "+61 2 9248 5555", "website": "https://www.ey.com/locations/australia#sydney", "brand": "Ernst & Young"}, "geometry": {"type": "Point", "coordinates": [151.2078614, -33.8625063]}},
{"type": "Feature", "id": "UDJzVYTd2yWDa2G4uXfR2PzFOWk=", "properties": {"ref": "australia#sydney-wavespace", "@spider": "ernst_young", "addr:full": "200 George Street", "addr:city": "Sydney", "addr:state": "NSW", "addr:postcode": "NSW 2000", "addr:country": "Australia", "name": "EY wavespace Sydney", "phone": "+61 2 9248 5555", "website": "https://www.ey.com/locations/australia#sydney-wavespace", "brand": "Ernst & Young"}, "geometry": {"type": "Point", "coordinates": [151.207726, -33.862264]}},
{"type": "Feature", "id": "Z2ppb0bb668S02ylOiejfFZQl6Q=", "properties": {"ref": "australia#ey-parthenon-sydney", "@spider": "ernst_young", "addr:full": "The EY Centre Level 34, 200 George Street", "addr:city": "Sydney", "addr:state": "NSW", "addr:postcode": "2000", "addr:country": "Australia", "name": "EY-Parthenon Sydney", "phone": "+61 2 9248 5555", "website": "https://www.ey.com/locations/australia#ey-parthenon-sydney", "brand": "Ernst & Young"}, "geometry": {"type": "Point", "coordinates": [151.207892, -33.862197]}},
{"type": "Feature", "id": "ZF9gAaSzAU24-dk5vMFlivqLQFI=", "properties": {"ref": "austria#klagenfurt", "@spider": "ernst_young", "addr:full": "Eiskellerstrasse 5", "addr:city": "Klagenfurt", "addr:postcode": "9020", "addr:country": "Austria", "name": "EY", "phone": "+43 463 50 10 00", "website": "https://www.ey.com/locations/austria#klagenfurt", "brand": "Ernst & Young"}, "geometry": {"type": "Point", "coordinates": [14.2903609, 46.6412643]}},
{"type": "Feature", "id": "VIyBPFPZKJAok3a_r7Bo2UZgP48=", "properties": {"ref": "austria#linz", "@spider": "ernst_young", "addr:full": "Blumauerstra\u00dfe 46, Blumau Tower", "addr:city": "Linz", "addr:postcode": "4020", "addr:country": "Austria", "name": "EY", "phone": "+43 732 790 790", "website": "https://www.ey.com/locations/austria#linz", "brand": "Ernst & Young"}, "geometry": {"type": "Point", "coordinates": [14.3021305, 48.2973241]}},
{"type": "Feature", "id": "SkxpHFDWpqyfJfQMySKZet6ue4w=", "properties": {"ref": "austria#salzburg", "@spider": "ernst_young", "addr:full": "Sterneckstrasse 33", "addr:city": "Salzburg", "addr:postcode": "5020", "addr:country": "Austria", "name": "EY", "phone": "+43 662 2055", "website": "https://www.ey.com/locations/austria#salzburg", "brand": "Ernst & Young"}, "geometry": {"type": "Point", "coordinates": [13.0568291, 47.8093585]}},
{"type": "Feature", "id": "mjO-Kadlljcurc-izGTmgPShYfM=", "properties": {"ref": "austria#vienna", "@spider": "ernst_young", "addr:full": "Wagramer Strasse 19, IZD Tower", "addr:city": "Wien", "addr:postcode": "1220", "addr:country": "Austria", "name": "EY", "phone": "+43 1 211 70 0", "website": "https://www.ey.com/locations/austria#vienna", "brand": "Ernst & Young"}, "geometry": {"type": "Point", "coordinates": [16.4206471, 48.2348145]}},
{"type": "Feature", "id": "WX4iCLQv6wYgpsxqDLJ4E5ykK14=", "properties": {"ref": "azerbaijan#baku", "@spider": "ernst_young", "addr:full": "Port Baku Towers Business Centre, South Tower, 9th floor, 153 Neftchilar avenue Baku", "addr:city": "Baku", "addr:postcode": "AZ1010", "addr:country": "Azerbaijan", "name": "EY", "phone": "+994 12 4907020", "website": "https://www.ey.com/locations/azerbaijan#baku", "brand": "Ernst & Young"}, "geometry": {"type": "Point", "coordinates": [49.8617809, 40.3754742]}},
{"type": "Feature", "id": "0bx_Xcjji7h1w_LTp0tK_3qL8go=", "properties": {"ref": "bahamas#nassau", "@spider": "ernst_young", "addr:full": "P.O. Box N-3231", "addr:city": "Nassau", "addr:postcode": "\u2013 Bahamas", "addr:country": "Bahamas", "name": "Ernst & Young", "phone": "+1 242 502 6000", "website": "https://www.ey.com/locations/bahamas#nassau", "brand": "Ernst & Young"}, "geometry": {"type": "Point", "coordinates": [-77.308281, 25.0715153]}},
{"type": "Feature", "id": "OyGxUTFZ3uOlE74fsyEyS6tq8wU=", "properties": {"ref": "bahamas#bahamas-wavespace", "@spider": "ernst_young", "addr:full": "Caves Corporate Centre, West Bay Street & Blake Road,  P.O. Box N-3231", "addr:city": "Nassau", "addr:country": "Bahamas", "name": "EY wavespace Bahamas", "phone": "+242 502 6000", "website": "https://www.ey.com/locations/bahamas#bahamas-wavespace", "brand": "Ernst & Young"}, "geometry": {"type": "Point", "coordinates": [-77.45343193750317, 25.067274288624702]}},
{"type": "Feature", "id": "aOH6b0ECeXSF7axSUgIhnuQRKZg=", "properties": {"ref": "bahrain#bahrain-world-trade-centre", "@spider": "ernst_young", "addr:full": "Bahrain World Trade Centre, East Tower, 10th Floor Manama", "addr:city": "Manama", "addr:postcode": "140", "addr:country": "Bahrain", "name": "EY", "phone": "+97317535455", "website": "https://www.ey.com/locations/bahrain#bahrain-world-trade-centre", "brand": "Ernst & Young"}, "geometry": {"type": "Point", "coordinates": [50.581388, 26.239167]}},
{"type": "Feature", "id": "hKSlyBmn5u8Kw2T79bVLJa5_E2I=", "properties": {"ref": "bangladesh#dhaka", "@spider": "ernst_young", "addr:full": "Ernst & Young Advisory Services Bangladesh Ltd, Navana Pristine Pavilion, 128, Gulshan Avenue, Level # 9, Block-CEN (H)-2, Gulshan-2", "addr:city": "Dhaka", "addr:postcode": "1212", "addr:country": "Bangladesh", "name": "EY", "phone": "+88 0258816623", "website": "https://www.ey.com/locations/bangladesh#dhaka", "brand": "Ernst & Young"}, "geometry": {"type": "Point", "coordinates": [90.41638, 23.79036]}},
{"type": "Feature", "id": "75BZVaiUxsRn-AW0R7S0Q08_slQ=", "properties": {"ref": "barbados#welches", "@spider": "ernst_young", "addr:full": "One Welches, Welches, St. Thomas", "addr:city": "Welches", "addr:postcode": "BB22025", "addr:country": "Barbados", "name": "EY", "phone": "+1 246 430 3900", "website": "https://www.ey.com/locations/barbados#welches", "brand": "Ernst & Young"}, "geometry": {"type": "Point", "coordinates": [-59.613554, 13.154776]}},
{"type": "Feature", "id": "vy7sBfBaatmsnEgK8JVscIIK8M4=", "properties": {"ref": "belarus#minsk", "@spider": "ernst_young", "addr:full": "Klary Tsetkin st., 51A, 15th floor", "addr:city": "Minsk", "addr:postcode": "220004", "addr:country": " Belarus", "name": "EY", "phone": "+375 17 240 4242", "website": "https://www.ey.com/locations/belarus#minsk", "brand": "Ernst & Young"}, "geometry": {"type": "Point", "coordinates": [27.5328075, 53.9043684]}},
{"type": "Feature", "id": "K-Ldrli-i2916Pw6SUiHxD5lt_g=", "properties": {"ref": "belgium#antwerp", "@spider": "ernst_young", "addr:full": "Borsbeeksebrug 26 B2600 Antwerp", "addr:city": "Antwerp", "addr:postcode": "B2600", "addr:country": "Belgium", "name": "EY", "phone": "+32 3 270 12 00", "website": "https://www.ey.com/locations/belgium#antwerp", "brand": "Ernst & Young"}, "geometry": {"type": "Point", "coordinates": [4.436188, 51.200734]}},
{"type": "Feature", "id": "JpXG_cPNcEfv5SPV8qWAt20JprA=", "properties": {"ref": "belgium#antwerp-wavespace", "@spider": "ernst_young", "addr:full": "Borsbeeksebrug, 26 B-2600", "addr:city": "Antwerp", "addr:postcode": "2600", "addr:country": "Belgium", "name": "EY- wavespace Antwerp", "website": "https://www.ey.com/locations/belgium#antwerp-wavespace", "brand": "Ernst & Young"}, "geometry": {"type": "Point", "coordinates": [4.436188, 51.200734]}},
{"type": "Feature", "id": "HWCQ8bZBt7WUpb_t0mAc86eZvsU=", "properties": {"ref": "belgium#brugge", "@spider": "ernst_young", "addr:full": "Gistelse Steenweg 300", "addr:city": "Bruges", "addr:postcode": "B8200", "addr:country": "Belgium", "name": "EY", "phone": "+32 50 30 31 00", "website": "https://www.ey.com/locations/belgium#brugge", "brand": "Ernst & Young"}, "geometry": {"type": "Point", "coordinates": [3.1941849, 51.2000156]}},
{"type": "Feature", "id": "W_AWpY46MABALiKLEH8oV9g6keI=", "properties": {"ref": "belgium#diegem", "@spider": "ernst_young", "addr:full": "De Kleetlaan 2", "addr:city": "Diegem", "addr:postcode": "B1831", "addr:country": "Belgium", "name": "EY", "phone": "+32 2 774 91 11", "website": "https://www.ey.com/locations/belgium#diegem", "brand": "Ernst & Young"}, "geometry": {"type": "Point", "coordinates": [4.4500011, 50.8871901]}},
{"type": "Feature", "id": "U7Vq_ZVFmKCI5WTDuX1OIcv37U8=", "properties": {"ref": "belgium#ghent", "@spider": "ernst_young", "addr:full": "Pauline Van Pottelsberghelaan 12 B9051 Ghent", "addr:city": "Ghent", "addr:postcode": "B9051", "addr:country": "Belgium", "name": "EY", "phone": "+32 9 242 51 11", "website": "https://www.ey.com/locations/belgium#ghent", "brand": "Ernst & Young"}, "geometry": {"type": "Point", "coordinates": [3.687104, 51.02772]}},
{"type": "Feature", "id": "hOCizj_AwcXz0H9wF2fl0H5vJWs=", "properties": {"ref": "belgium#gosselies", "@spider": "ernst_young", "addr:full": "Rue Antoine de Saint-Exup\u00e9ry 18, 3e \u00e9tage", "addr:city": "Gosselies", "addr:postcode": "6041", "addr:country": "Belgium", "name": "EY", "phone": "+32 71 797211", "website": "https://www.ey.com/locations/belgium#gosselies", "brand": "Ernst & Young"}, "geometry": {"type": "Point", "coordinates": [4.4641382, 50.4701098]}},
{"type": "Feature", "id": "cg_Qk5YuTxjfW3a8sqW_LuvPCs0=", "properties": {"ref": "belgium#hasselt", "@spider": "ernst_young", "addr:full": "Corda Campus Kempische Steenweg 307 bus 5.1", "addr:city": "Hasselt", "addr:postcode": "B3500", "addr:country": "Belgium", "name": "EY", "phone": "+32 11 28 83 83", "website": "https://www.ey.com/locations/belgium#hasselt", "brand": "Ernst & Young"}, "geometry": {"type": "Point", "coordinates": [5.350509, 50.951516]}},
{"type": "Feature", "id": "zUGgCgggVrzTOS8SEKNXcV0NqqA=", "properties": {"ref": "belgium#liege", "@spider": "ernst_young", "addr:full": "Li\u00e8ge Office Center,  Rue des Guillemins 129, bte3", "addr:city": "Li\u00e8ge", "addr:postcode": "4000", "addr:country": "Belgium", "name": "EY", "phone": "+32 4 273 76 00", "website": "https://www.ey.com/locations/belgium#liege", "brand": "Ernst & Young"}, "geometry": {"type": "Point", "coordinates": [5.56639, 50.626436]}},
{"type": "Feature", "id": "85tGsHasqE-cxlBE6yZUPPhv-aQ=", "properties": {"ref": "belgium#roeselare", "@spider": "ernst_young", "addr:full": "Accent Businesspark KWADESTRAAT 149 A BUS 2.3", "addr:city": "Roeselare", "addr:postcode": "B8800", "addr:country": "Belgium", "name": "EY", "phone": "+32 51 24 23 63", "website": "https://www.ey.com/locations/belgium#roeselare", "brand": "Ernst & Young"}, "geometry": {"type": "Point", "coordinates": [3.1733439, 50.9201845]}},
{"type": "Feature", "id": "O0MqAVf8jUe6ZYqQpr0F1lmvf7k=", "properties": {"ref": "belgium#ronse", "@spider": "ernst_young", "addr:full": "Priestersstraat 3", "addr:city": "Ronse", "addr:postcode": "B9600", "addr:country": "Belgium", "name": "EY", "phone": "+32 55 23 77 55", "website": "https://www.ey.com/locations/belgium#ronse", "brand": "Ernst & Young"}, "geometry": {"type": "Point", "coordinates": [3.6020454, 50.74861]}},
{"type": "Feature", "id": "n-UZLm5PPH_3ilN3iAJc4Zw9Y6E=", "properties": {"ref": "belgium#sint-niklaas", "@spider": "ernst_young", "addr:full": "Bellestraat 30", "addr:city": "Sint-Niklaas", "addr:postcode": "B9100", "addr:country": "Belgium", "name": "EY", "phone": "+32 3 780 48 00", "website": "https://www.ey.com/locations/belgium#sint-niklaas", "brand": "Ernst & Young"}, "geometry": {"type": "Point", "coordinates": [4.168411, 51.1736291]}},
{"type": "Feature", "id": "0aBG3pP8_6Tp_DKu8KCoOKPKzsQ=", "properties": {"ref": "belgium#tournai", "@spider": "ernst_young", "addr:full": "Rue Terre \u00e0 Briques 29 bloc D", "addr:city": "Tournai", "addr:postcode": "B7522", "addr:country": "Belgium", "name": "EY", "phone": "+32 69 64 66 60", "website": "https://www.ey.com/locations/belgium#tournai", "brand": "Ernst & Young"}, "geometry": {"type": "Point", "coordinates": [3.3332565, 50.6148777]}},
{"type": "Feature", "id": "MUph1l29cJgQRtkpsAQI4E1vp18=", "properties": {"ref": "belgium#brussels", "@spider": "ernst_young", "addr:full": "Belliardstraat 40", "addr:city": "Brussels", "addr:postcode": "1040", "addr:country": "Belgium", "name": "EY", "phone": "+32 2 774 64 40", "website": "https://www.ey.com/locations/belgium#brussels", "brand": "Ernst & Young"}, "geometry": {"type": "Point", "coordinates": [4.371864, 50.842179]}},
{"type": "Feature", "id": "sk1d4EPEru60K0mLUEgPvdiRtwM=", "properties": {"ref": "bermuda#hamilton", "@spider": "ernst_young", "addr:full": "3 Bermudiana Road", "addr:city": "Hamilton", "addr:postcode": ", HM08 Bermuda", "addr:country": "Bermuda", "name": "EY Bermuda Ltd.", "phone": "+1 441 295 7000", "website": "https://www.ey.com/locations/bermuda#hamilton", "brand": "Ernst & Young"}, "geometry": {"type": "Point", "coordinates": [-64.7880326, 32.2926642]}},
{"type": "Feature", "id": "ImchsKJqSjcfT8hLlK6ejjNXhXs=", "properties": {"ref": "bermuda#bermuda-wavespace", "@spider": "ernst_young", "addr:full": "3 Bermudiana Road", "addr:city": "Hamilton", "addr:postcode": "HM08", "addr:country": "Bermuda", "name": "EY wavespace Bermuda", "phone": "+1 441 295 7000", "website": "https://www.ey.com/locations/bermuda#bermuda-wavespace", "brand": "Ernst & Young"}, "geometry": {"type": "Point", "coordinates": [-64.78810660742107, 32.292700496449136]}},
{"type": "Feature", "id": "Jv9m9-6b6wBDVv_Jjr_e2t40Hlo=", "properties": {"ref": "bolivia#la-paz", "@spider": "ernst_young", "addr:full": "Zona Sopocachi, Av. 20 de Octubre # 2665, Edificio Torre Azul, Piso 16", "addr:city": "La Paz", "addr:country": "Bolivia", "name": "EY", "phone": "+591 2 243 4313", "website": "https://www.ey.com/locations/bolivia#la-paz", "brand": "Ernst & Young"}, "geometry": {"type": "Point", "coordinates": [-68.1235099, -16.5132121]}},
{"type": "Feature", "id": "PcRtEJNvsDk7BwWda4srsMzXrUE=", "properties": {"ref": "bolivia#santa-cruz", "@spider": "ernst_young", "addr:full": "Av. Cristo Redentor 4to Anillo, Edificio Torre Empresarial MSC, Piso13, Oficina 13-B", "addr:city": "Santa Cruz", "addr:country": "Bolivia", "name": "EY", "phone": "+3 3423288", "website": "https://www.ey.com/locations/bolivia#santa-cruz", "brand": "Ernst & Young"}, "geometry": {"type": "Point", "coordinates": [-63.17525208765234, -17.748783624626753]}},
{"type": "Feature", "id": "atlWGKIsYKuZ2mAO0d30fLdiGT8=", "properties": {"ref": "bosnia-and-herzegovina#sarajevo", "@spider": "ernst_young", "addr:full": "Vrbanja 1, SCC \u2013 Sarajevo City Center", "addr:city": "Sarajevo", "addr:postcode": "71000", "addr:country": "Bosnia and Herzegovina", "name": "EY", "phone": "+387 33 870 014", "website": "https://www.ey.com/locations/bosnia-and-herzegovina#sarajevo", "brand": "Ernst & Young"}, "geometry": {"type": "Point", "coordinates": [18.4060467, 43.8571315]}},
{"type": "Feature", "id": "WbrAbryxTCPsBBybnWsS_qnY484=", "properties": {"ref": "bosnia-and-herzegovina#banja-luka", "@spider": "ernst_young", "addr:full": "Sime \u0160olaje 1A", "addr:city": "Banja Luka", "addr:postcode": "78000", "addr:country": "Bosnia and Herzegovina", "name": "Ernst & Young d.o.o. Sarajevo \u2013 Podru\u017enica u Banjaluci", "website": "https://www.ey.com/locations/bosnia-and-herzegovina#banja-luka", "brand": "Ernst & Young"}, "geometry": {"type": "Point", "coordinates": [17.17779835273826, 44.89973573272904]}},
{"type": "Feature", "id": "TxkubAtedyn3Vwk0OfXDcGonrko=", "properties": {"ref": "botswana#gaborone", "@spider": "ernst_young", "addr:full": "2nd Floor, Plot 22, Khama Crescent", "addr:city": "Gaborone", "addr:country": "Botswana", "name": "EY", "phone": "+267-3974078", "website": "https://www.ey.com/locations/botswana#gaborone", "brand": "Ernst & Young"}, "geometry": {"type": "Point", "coordinates": [25.9119143, -24.6552324]}},
{"type": "Feature", "id": "ZAOqcvcPqJy3pZgLzsOYzetMj7M=", "properties": {"ref": "brazil#belo-horizonte", "@spider": "ernst_young", "addr:full": "Edif\u00edcio Phelps Offices Tower, Rua Ant\u00f4nio De Albuquerque 156 - 5\u00ba, 10\u00ba e 11\u00ba andares, Bairro Funcion\u00e1rios", "addr:city": "Belo Horizonte", "addr:postcode": "30112-010", "addr:country": "Brazil", "name": "EY", "phone": "+31 3232 2100", "website": "https://www.ey.com/locations/brazil#belo-horizonte", "brand": "Ernst & Young"}, "geometry": {"type": "Point", "coordinates": [-43.9320319, -19.9388771]}},
{"type": "Feature", "id": "QWzpdCDUlg-28P7VuNRifzSbX3Y=", "properties": {"ref": "brazil#blumenau", "@spider": "ernst_young", "addr:full": "Edif\u00edcio California Center, Rua Doutor Amadeu da Luz, 100 - 8\u00b0 andar \u2013Conjunto 801, Centro", "addr:city": "Blumenau", "addr:postcode": "89010-910", "addr:country": "Brazil", "name": "EY", "phone": "+55 47 2111 0700", "website": "https://www.ey.com/locations/brazil#blumenau", "brand": "Ernst & Young"}, "geometry": {"type": "Point", "coordinates": [-49.0704402, -26.9154454]}},
{"type": "Feature", "id": "8TIBM5b30SFBesr-a3WUgleRajM=", "properties": {"ref": "brazil#brasilia", "@spider": "ernst_young", "addr:full": "SHS - Quadra 06 - Conjunto A - Bloco A, Edif\u00edcio Brasil 21 - Sala 105 - 1 andar", "addr:city": "Brasilia", "addr:postcode": "70316-000", "addr:country": "Brazil", "name": "EY", "phone": "+55 61 2104 0100", "website": "https://www.ey.com/locations/brazil#brasilia", "brand": "Ernst & Young"}, "geometry": {"type": "Point", "coordinates": [47.8929111, 15.7931843]}},
{"type": "Feature", "id": "mmO6ofouYQUjN99Dc_1Jv3Igj2I=", "properties": {"ref": "brazil#campinas", "@spider": "ernst_young", "addr:full": "Edif\u00edcio Trade Tower, Av. Jos\u00e9 de Souza Campos, 900, 1\u00ba e 3\u00ba andares - Nova Campinas", "addr:city": "Campinas", "addr:postcode": "13092-123", "addr:country": "Brazil", "name": "EY", "phone": "+55 19 3322 0500", "website": "https://www.ey.com/locations/brazil#campinas", "brand": "Ernst & Young"}, "geometry": {"type": "Point", "coordinates": [-47.0469515, -22.8977577]}},
{"type": "Feature", "id": "jZXASbjkUTcGbQaKwZg3L_XRqsQ=", "properties": {"ref": "brazil#curitiba", "@spider": "ernst_young", "addr:full": "Condom\u00ednio Centro S\u00e9culo XXI, Rua Visconde de Nacar, 1440 - 14\u00ba andar, Centro", "addr:city": "Curitiba", "addr:postcode": "80410-201", "addr:country": "Brazil", "name": "EY", "phone": "+55 41 3593 0700", "website": "https://www.ey.com/locations/brazil#curitiba", "brand": "Ernst & Young"}, "geometry": {"type": "Point", "coordinates": [-49.2764598, -25.4350661]}},
{"type": "Feature", "id": "0TwWVKM0WfT-8Q-RYgeNar3sBbM=", "properties": {"ref": "brazil#fortaleza", "@spider": "ernst_young", "addr:full": "Centro Empresarial Iguatemi, Av. Washington Soares, 55, 5\u00ba andar - Sala 508, Edson Queiroz", "addr:city": "Fortaleza", "addr:postcode": "60811-341", "addr:country": "Brazil", "name": "EY", "phone": "55 85 3392 5600", "website": "https://www.ey.com/locations/brazil#fortaleza", "brand": "Ernst & Young"}, "geometry": {"type": "Point", "coordinates": [-38.4906837, -3.7537963]}},
{"type": "Feature", "id": "iqwJhZnrOjwJeInGXf91eB8VHd0=", "properties": {"ref": "brazil#goiania", "@spider": "ernst_young", "addr:full": "Walk Bueno Condominium, Rua T-55, Bloco 99, 11 andar", "addr:city": "Goiania", "addr:postcode": "74215-170", "addr:country": "Brazil", "name": "EY", "website": "https://www.ey.com/locations/brazil#goiania", "brand": "Ernst & Young"}, "geometry": {"type": "Point", "coordinates": [-49.2711938, -16.705448]}},
{"type": "Feature", "id": "-sLKuNHPuqJMFw8HKwFFkURbcSA=", "properties": {"ref": "brazil#centro-empresarial-mostardeiro", "@spider": "ernst_young", "addr:full": "Centro Empresarial Mostardeiro, Avenida Mostardeiro, 322 - 10 andar, Moinhos de Vento", "addr:city": "Porto Alegre", "addr:postcode": "90430-000", "addr:country": "Brazil", "name": "EY", "phone": "+55 51 3204 5500", "website": "https://www.ey.com/locations/brazil#centro-empresarial-mostardeiro", "brand": "Ernst & Young"}, "geometry": {"type": "Point", "coordinates": [-51.2040304, -30.0283229]}},
{"type": "Feature", "id": "c4_SJ2HsFUs2SJBVN4YEYHVBzvQ=", "properties": {"ref": "brazil#-iguatemi-office-tower", "@spider": "ernst_young", "addr:full": "Iguatemi Office Tower, Avenida Nilo Pe\u00e7anha 2900", "addr:city": "Porto Alegre", "addr:postcode": "90470-000", "addr:country": "Brazil", "name": "EY", "website": "https://www.ey.com/locations/brazil#-iguatemi-office-tower", "brand": "Ernst & Young"}, "geometry": {"type": "Point", "coordinates": [-51.161275, -30.026934]}},
{"type": "Feature", "id": "cxHdiqyox2qtkffyzJ-EfmQD2XM=", "properties": {"ref": "brazil#recife", "@spider": "ernst_young", "addr:full": "Rua Padre Carapuceiro 858, Salas 801/802, Centro Emp Queir\u00f3z Galv\u00e3o", "addr:city": "Recife", "addr:postcode": "51020-280", "addr:country": "Brazil", "name": "EY", "phone": "+55 81 3201 4800", "website": "https://www.ey.com/locations/brazil#recife", "brand": "Ernst & Young"}, "geometry": {"type": "Point", "coordinates": [-34.9026854, -8.1180559]}},
{"type": "Feature", "id": "ubAv3E-9j1v_Kw6MHepLzjyC59A=", "properties": {"ref": "brazil#av-evandro-lins-e-silva-840", "@spider": "ernst_young", "addr:full": "Av. Evandro Lins e Silva, 840, 17\u00ba andar - salas 1.710/1.711/1.712, Barra da Tijuca", "addr:city": "Rio de Janeiro", "addr:postcode": "22631-470", "addr:country": "Brazil", "name": "EY", "phone": "+ 55 21 21782446", "website": "https://www.ey.com/locations/brazil#av-evandro-lins-e-silva-840", "brand": "Ernst & Young"}, "geometry": {"type": "Point", "coordinates": [-43.3263122, -23.0037324]}},
{"type": "Feature", "id": "c_3QlGhRnQUy8emM9WIv-RczQFA=", "properties": {"ref": "brazil#praia-de-botafogo-370", "@spider": "ernst_young", "addr:full": "Praia de Botafogo, 370, 5\u00ba a 10\u00ba andares, Botafogo", "addr:city": "Rio de Janeiro", "addr:postcode": "22250-040", "addr:country": "Brazil", "name": "EY", "phone": "+55 21 3263 7000", "website": "https://www.ey.com/locations/brazil#praia-de-botafogo-370", "brand": "Ernst & Young"}, "geometry": {"type": "Point", "coordinates": [-43.1829376, -22.9469861]}},
{"type": "Feature", "id": "W6w71xOVDWtRe10X8hfb_29wlxI=", "properties": {"ref": "brazil#rio-de-janeiro-cacn", "@spider": "ernst_young", "addr:full": "Centro Administrativo Cidade Nova, Rua Acad\u00eamico Dom Marcos Barbosa, Conjunto 202, 2 pavto Ala A, Lote I Quadra 7", "addr:city": "Rio de Janeiro (CACN)", "addr:postcode": "20211-178", "addr:country": "Brazil", "name": "EY", "website": "https://www.ey.com/locations/brazil#rio-de-janeiro-cacn", "brand": "Ernst & Young"}, "geometry": {"type": "Point", "coordinates": [-43.2061906, -22.912552]}},
{"type": "Feature", "id": "McbVNqlGxhdUSe7MrE9Q8dbtABo=", "properties": {"ref": "brazil#salvador", "@spider": "ernst_young", "addr:full": "Edificio Guimaraes Trade, Av. Tancredo Neves, 1189 - 17 andar, Pituba", "addr:city": "Salvador", "addr:postcode": "41820-021", "addr:country": "Brazil", "name": "EY", "phone": "+55 71 3501 9000", "website": "https://www.ey.com/locations/brazil#salvador", "brand": "Ernst & Young"}, "geometry": {"type": "Point", "coordinates": [-38.4559663, -12.9806751]}},
{"type": "Feature", "id": "ahF4AhKppnrJcFvxF3nvP5nEvyg=", "properties": {"ref": "brazil#sao-paulo-jk", "@spider": "ernst_young", "addr:full": "Avenida Presidente Juscelino Kubitschek, 1909, Torre Norte, 6\u00ba ao 10\u00ba andar, Itaim Bibi", "addr:city": "Sao Paulo", "addr:postcode": "04543-011", "addr:country": "Brazil", "name": "EY", "phone": "+55 11 2573 3000", "website": "https://www.ey.com/locations/brazil#sao-paulo-jk", "brand": "Ernst & Young"}, "geometry": {"type": "Point", "coordinates": [-46.6828086, -23.5911842]}},
{"type": "Feature", "id": "msYszRG41SUDpO3350nQX47WjDQ=", "properties": {"ref": "brazil#ey-parthenon-sao-paulo", "@spider": "ernst_young", "addr:full": "Avenida Presidente Juscelino Kubitschek, 1909 Torre Norte - Itaim Bibi", "addr:city": "Sao Paulo", "addr:postcode": "04543-011", "addr:country": "Brazil", "name": "EY-Parthenon Sao Paulo", "phone": "+55 11 2573 5644", "website": "https://www.ey.com/locations/brazil#ey-parthenon-sao-paulo", "brand": "Ernst & Young"}, "geometry": {"type": "Point", "coordinates": [-46.687815, -23.591411]}},
{"type": "Feature", "id": "nHIuKq7-IPXi8Ky_l0fvA9UC_sA=", "properties": {"ref": "brazil#sao-paulo-cenesp", "@spider": "ernst_young", "addr:full": "Centro Empresarial de Sao Paulo - CENESP, Av. Maria Coelho Aguiar, 215, Bloco B, 4 Andar, Jardim Sao Luiz", "addr:city": "S\u00e3o Paulo (CENESP)", "addr:postcode": "05804-900", "addr:country": "Brazil", "name": "EY", "phone": "+55 11 2573 3000", "website": "https://www.ey.com/locations/brazil#sao-paulo-cenesp", "brand": "Ernst & Young"}, "geometry": {"type": "Point", "coordinates": [-46.7298274, -23.6494043]}},
{"type": "Feature", "id": "I_NIIilnJH7f9onjTAjwHypQeMY=", "properties": {"ref": "british-virgin-islands#road-town", "@spider": "ernst_young", "addr:full": "Ritter House, Wickhams Cay 2", "addr:city": "Road Town", "addr:postcode": "Tortola, VG1110, British Virgin Islands", "addr:country": "British Virgin Islands", "name": "Ernst & Young Ltd.", "phone": "+1 284 852 5450", "website": "https://www.ey.com/locations/british-virgin-islands#road-town", "brand": "Ernst & Young"}, "geometry": {"type": "Point", "coordinates": [-64.6184657, 18.4286115]}},
{"type": "Feature", "id": "dTP8tVBXYWUeRPhy1ujBZjGgZds=", "properties": {"ref": "brunei#bandar-seri-begawan", "@spider": "ernst_young", "addr:full": "Room 309A, 3rd Floor, Wisma Jaya, Jalan Pemancha", "addr:city": "Bandar Seri Begawan", "addr:postcode": "BS8811", "addr:country": "Brunei", "name": "EY", "phone": "+673 2 239139", "website": "https://www.ey.com/locations/brunei#bandar-seri-begawan", "brand": "Ernst & Young"}, "geometry": {"type": "Point", "coordinates": [114.9436219, 4.8887119]}},
{"type": "Feature", "id": "kjyLp-aRYPmtOt2Qu-xb1yGekFQ=", "properties": {"ref": "brunei#kuala-belait", "@spider": "ernst_young", "addr:full": "2nd Floor, Room 3C, Bangunan Maju, Lot 308, Jalan Bunga Raya", "addr:city": "Kuala Belait", "addr:postcode": "KA1131", "addr:country": "Brunei", "name": "EY", "phone": "+673 3 331439", "website": "https://www.ey.com/locations/brunei#kuala-belait", "brand": "Ernst & Young"}, "geometry": {"type": "Point", "coordinates": [114.19712, 4.583552]}},
{"type": "Feature", "id": "Pi6x1yREI0pySZjAqCPtMYQtt2U=", "properties": {"ref": "bulgaria#sofia", "@spider": "ernst_young", "addr:full": "Polygraphia Office Center floor 4, Tsarigradsko shose blvd 47A", "addr:city": "Sofia", "addr:postcode": "1124", "addr:country": "Bulgaria", "name": "EY", "phone": "+359 2 8177 100", "website": "https://www.ey.com/locations/bulgaria#sofia", "brand": "Ernst & Young"}, "geometry": {"type": "Point", "coordinates": [23.3440051, 42.6865855]}},
{"type": "Feature", "id": "mTvBihpquWAqrstWdtQsLDwoAh8=", "properties": {"ref": "cambodia#phnom-penh", "@spider": "ernst_young", "addr:full": "5th Floor, Emerald Building, #64 Norodom Boulevard corner Street, 178, Sangkat Chey Chumneah, Khan Daun, Penh, 12206 Phnom Penh", "addr:city": "Phnom Penh", "addr:postcode": "855", "addr:country": "Cambodia", "name": "EY", "phone": "+855 23 860 450/451", "website": "https://www.ey.com/locations/cambodia#phnom-penh", "brand": "Ernst & Young"}, "geometry": {"type": "Point", "coordinates": [104.9258128, 11.5649791]}},
{"type": "Feature", "id": "RaOsCInWiQ12UEtNVJwup94SSGI=", "properties": {"ref": "cameroon#douala", "@spider": "ernst_young", "addr:full": "1602/1606 Boulevard de la Libert\u00e9, Akwa", "addr:city": "Douala", "addr:country": "Cameroon", "name": "EY", "website": "https://www.ey.com/locations/cameroon#douala", "brand": "Ernst & Young"}, "geometry": {"type": "Point", "coordinates": [9.6982454, 4.0543184]}},
{"type": "Feature", "id": "_OkgIuisH7c1fSmWhI0forCiSes=", "properties": {"ref": "canada#dieppe", "@spider": "ernst_young", "addr:full": "11 Englehart Street", "addr:city": "Dieppe", "addr:state": "NB", "addr:postcode": ", NB E1A 7Y7", "addr:country": "Canada", "name": "EY", "phone": "+1 506 853 3097", "website": "https://www.ey.com/locations/canada#dieppe", "brand": "Ernst & Young"}, "geometry": {"type": "Point", "coordinates": [-64.7046273, 46.0993973]}},
{"type": "Feature", "id": "HJ0oWb52v9_HRafJf6F-y7vkRh0=", "properties": {"ref": "canada#st-johns", "@spider": "ernst_young", "addr:full": "Fortis Place, 5 Springdale street, Suite 800, 5th Floor", "addr:city": "St John's", "addr:state": "NB", "addr:postcode": ", NL A1E 0E4", "addr:country": "Canada", "name": "EY", "phone": "+1  709 726 2840", "website": "https://www.ey.com/locations/canada#st-johns", "brand": "Ernst & Young"}, "geometry": {"type": "Point", "coordinates": [-52.713441, 47.55736]}},
{"type": "Feature", "id": "fuXoPY9WfbVsuQRSYuZJqGvHOvA=", "properties": {"ref": "canada#calgary", "@spider": "ernst_young", "addr:full": "Calgary City Centre, 2200 \u2013 215 2nd Street SW", "addr:city": "Calgary", "addr:state": "AB", "addr:postcode": ", AB T2P 1M4", "addr:country": "Canada", "name": "EY", "phone": "+1 403 290 4100", "website": "https://www.ey.com/locations/canada#calgary", "brand": "Ernst & Young"}, "geometry": {"type": "Point", "coordinates": [-114.0680231, 51.0508473]}},
{"type": "Feature", "id": "KHCwj4BoFIdpE9B3f-lgjJNMqS8=", "properties": {"ref": "canada#edmonton", "@spider": "ernst_young", "addr:full": "EPCOR Tower, Suite 1400, 10423 - 101th Street", "addr:city": "Edmonton", "addr:state": "AB", "addr:postcode": ", AB T5H 0E7", "addr:country": "Canada", "name": "EY", "phone": "+1 780 423 5811", "website": "https://www.ey.com/locations/canada#edmonton", "brand": "Ernst & Young"}, "geometry": {"type": "Point", "coordinates": [-113.4927878, 53.5474518]}},
{"type": "Feature", "id": "hpEB-IrPc5dWJAYIKOXxJu9TrG8=", "properties": {"ref": "canada#halifax", "@spider": "ernst_young", "addr:full": "RBC Waterside Centre, 1871 Hollis St., Suite 500", "addr:city": "Halifax", "addr:state": "NS", "addr:postcode": ", NS B3J 0C3", "addr:country": "Canada", "name": "EY", "phone": "+1 902 420 1080", "website": "https://www.ey.com/locations/canada#halifax", "brand": "Ernst & Young"}, "geometry": {"type": "Point", "coordinates": [-63.5736849, 44.649757]}},
{"type": "Feature", "id": "HUC6UHNHWUa3tdQkZ8ZRit-mHXk=", "properties": {"ref": "canada#london", "@spider": "ernst_young", "addr:full": "One London Place,   255 Queens Ave #2300", "addr:city": "London", "addr:state": "ON", "addr:postcode": ", ON N6A 5R8", "addr:country": "Canada", "name": "EY", "phone": "+1 519 672 6100", "website": "https://www.ey.com/locations/canada#london", "brand": "Ernst & Young"}, "geometry": {"type": "Point", "coordinates": [-81.24671, 42.98576]}},
{"type": "Feature", "id": "v5mVnlhlU0yiUXj90YEb_tEJtXs=", "properties": {"ref": "canada#ottawa", "@spider": "ernst_young", "addr:full": "99 Bank Street, Suite 1200", "addr:city": "Ottawa", "addr:state": "ON", "addr:postcode": ", ON K1P 6B9", "addr:country": "Canada", "name": "EY", "phone": "+1 613-232-1511", "website": "https://www.ey.com/locations/canada#ottawa", "brand": "Ernst & Young"}, "geometry": {"type": "Point", "coordinates": [-75.7000906, 45.4204966]}},
{"type": "Feature", "id": "iymObywHE1DnlMw60tZc3pjhHdw=", "properties": {"ref": "canada#toronto", "@spider": "ernst_young", "addr:full": "EY Tower, 100 Adelaide Street West", "addr:city": "Toronto", "addr:state": "ON", "addr:postcode": ", ON M5H 0B3", "addr:country": "Canada", "name": "EY", "phone": "+1 416 864 1234", "website": "https://www.ey.com/locations/canada#toronto", "brand": "Ernst & Young"}, "geometry": {"type": "Point", "coordinates": [-79.382392, 43.649695]}},
{"type": "Feature", "id": "PT-Kemt6Sp_fmrTqfqTIg-r4-i4=", "properties": {"ref": "canada#waterloo", "@spider": "ernst_young", "addr:full": "Evolv1 420 Wes Graham Way, Suite 300", "addr:city": "Waterloo", "addr:state": "ON", "addr:postcode": ", ON N2L 0J6", "addr:country": "Canada", "name": "EY", "website": "https://www.ey.com/locations/canada#waterloo", "brand": "Ernst & Young"}, "geometry": {"type": "Point", "coordinates": [-80.54643, 43.48079]}},
{"type": "Feature", "id": "8TftXyYqQCe2X_PHD86zMjKYBLs=", "properties": {"ref": "canada#montreal", "@spider": "ernst_young", "addr:full": "900 Boulevard de Maisonneuve Ouest, Bureau 2300", "addr:city": "Montr\u00e9al", "addr:state": "QC", "addr:postcode": ", QC H3A 0A8", "addr:country": "Canada", "name": "EY", "phone": "+1 514 875 6060", "website": "https://www.ey.com/locations/canada#montreal", "brand": "Ernst & Young"}, "geometry": {"type": "Point", "coordinates": [-73.572182, 45.50349]}},
{"type": "Feature", "id": "ncW6yllgdwzFwJVFsc60YYpkxqg=", "properties": {"ref": "canada#quebec-city", "@spider": "ernst_young", "addr:full": "Delta III, 2875 boul Laurier, Bureau 410", "addr:city": "Qu\u00e9bec City", "addr:state": "QC", "addr:postcode": ", QC G1V 0C7", "addr:country": "Canada", "name": "EY", "phone": "418 524 5151", "website": "https://www.ey.com/locations/canada#quebec-city", "brand": "Ernst & Young"}, "geometry": {"type": "Point", "coordinates": [-71.2889373, 46.76629]}},
{"type": "Feature", "id": "29D-H04WQDSvCgXpfc0a-20SJ3M=", "properties": {"ref": "canada#saskatoon", "@spider": "ernst_young", "addr:full": "409 3 Ave S #900", "addr:city": "Saskatoon", "addr:state": "SK", "addr:postcode": ", SK S7K 5R5", "addr:country": "Canada", "name": "EY", "phone": "+1 306 934 8000", "website": "https://www.ey.com/locations/canada#saskatoon", "brand": "Ernst & Young"}, "geometry": {"type": "Point", "coordinates": [-106.6597127, 52.1283588]}},
{"type": "Feature", "id": "jj4JRBeyU_9uifOuoMZa7gQ3DGA=", "properties": {"ref": "canada#vancouver", "@spider": "ernst_young", "addr:full": "Pacific Centre, 700 West Georgia Street", "addr:city": "Vancouver", "addr:state": "BC", "addr:postcode": ", BC V7Y 1C7", "addr:country": "Canada", "name": "EY", "phone": "+1 604 891 8200", "website": "https://www.ey.com/locations/canada#vancouver", "brand": "Ernst & Young"}, "geometry": {"type": "Point", "coordinates": [-123.1173795, 49.2834375]}},
{"type": "Feature", "id": "KORKlV-7qJzO0s8s69rOMC-Q1YQ=", "properties": {"ref": "canada#winnipeg", "@spider": "ernst_young", "addr:full": "2700 Commodity Exchange Tower, 360 Main Street", "addr:city": "Winnipeg", "addr:state": "MB", "addr:postcode": ", MB R3C 4G9", "addr:country": "Canada", "name": "EY", "phone": "+1 204 947 6519", "website": "https://www.ey.com/locations/canada#winnipeg", "brand": "Ernst & Young"}, "geometry": {"type": "Point", "coordinates": [-97.138431, 49.894455]}},
{"type": "Feature", "id": "jXBOnb6iBpeMBjJpVJeNvcAQ5GQ=", "properties": {"ref": "canada#saint-john", "@spider": "ernst_young", "addr:full": "Red Rose Tea Building, 12 Smythe Street, 5th Floor", "addr:city": "Saint John", "addr:state": "SJ", "addr:postcode": ", NB E2L 5G5", "addr:country": "Canada", "name": "EY", "website": "https://www.ey.com/locations/canada#saint-john", "brand": "Ernst & Young"}, "geometry": {"type": "Point", "coordinates": [-66.067807, 45.2746722]}},
{"type": "Feature", "id": "uXcyF55KGS0dLtJVfsAl9uc5g1o=", "properties": {"ref": "canada#880-douglas-street", "@spider": "ernst_young", "addr:full": "Suite 706 880 Douglas Street", "addr:city": "Victoria", "addr:postcode": ", BC V8W 2B7", "addr:country": "Canada", "name": "EY", "phone": "+ 1 250 294 8370", "website": "https://www.ey.com/locations/canada#880-douglas-street", "brand": "Ernst & Young"}, "geometry": {"type": "Point", "coordinates": [-123.36618, 48.423037]}},
{"type": "Feature", "id": "QOSnxK0Xyaihs7Ms2kEHMKq3XXc=", "properties": {"ref": "cayman-islands#grand-cayman", "@spider": "ernst_young", "addr:full": "62 Forum Lane Camana Bay P.O. Box 510", "addr:city": "Grand Cayman", "addr:postcode": "KY11106 Cayman Islands", "addr:country": "Cayman Islands", "name": "EY Cayman Ltd.", "phone": "+1 345 949 8444", "website": "https://www.ey.com/locations/cayman-islands#grand-cayman", "brand": "Ernst & Young"}, "geometry": {"type": "Point", "coordinates": [-81.3781114, 19.3219776]}},
{"type": "Feature", "id": "5xuympLXBesAe0ldE6cmg2_jFRY=", "properties": {"ref": "cayman-islands#cayman-islands-wavespace", "@spider": "ernst_young", "addr:full": "1 Nexus Way Camana Bay P.O. Box 510", "addr:city": "Grand Cayman", "addr:postcode": "KY1-1106", "addr:country": "Cayman Islands", "name": "EY wavespace Cayman", "phone": "345 949 8444", "website": "https://www.ey.com/locations/cayman-islands#cayman-islands-wavespace", "brand": "Ernst & Young"}, "geometry": {"type": "Point", "coordinates": [-81.37773575416124, 19.320581306284886]}},
{"type": "Feature", "id": "rDY02dHm8elEr17Q3fRTp37_tm0=", "properties": {"ref": "chad#n-djamena", "@spider": "ernst_young", "addr:full": "ECA EY Chad, Av. Idriss Miskine", "addr:city": "N'Djamena", "addr:country": "Chad", "name": "EY", "phone": "+235 22 52 36 20", "website": "https://www.ey.com/locations/chad#n-djamena", "brand": "Ernst & Young"}, "geometry": {"type": "Point", "coordinates": [15.0557415, 12.1348457]}},
{"type": "Feature", "id": "96u6dW6Tq6wAIXsk3odwkdOklho=", "properties": {"ref": "chile#concepcion", "@spider": "ernst_young", "addr:full": "Rengo N\u00b0 94, 2\u00b0 Floor", "addr:city": "Concepci\u00f3n", "addr:postcode": "4030000", "addr:country": "Chile", "name": "EY", "phone": "+56 02 676 1000", "website": "https://www.ey.com/locations/chile#concepcion", "brand": "Ernst & Young"}, "geometry": {"type": "Point", "coordinates": [-73.0496867, -36.8314197]}},
{"type": "Feature", "id": "tug7IuIhTZYb160c55Cpsejz1cI=", "properties": {"ref": "chile#puerto-montt", "@spider": "ernst_young", "addr:full": "Concepci\u00f3n N\u00b0 120, 9\u00b0 Floor. Oficina 906", "addr:city": "Puerto Montt", "addr:postcode": "5480000", "addr:country": "Chile", "name": "EY", "phone": "+56 65 228 5700", "website": "https://www.ey.com/locations/chile#puerto-montt", "brand": "Ernst & Young"}, "geometry": {"type": "Point", "coordinates": [-72.94574, -41.473297]}},
{"type": "Feature", "id": "yP7gJL6HQTOrd4xWlwg-v6Aaqyg=", "properties": {"ref": "chile#santiago", "@spider": "ernst_young", "addr:full": "Presidente Riesco 5435, - 4\u00b0 Floor, Las Condes", "addr:city": "Santiago", "addr:postcode": "7550000", "addr:country": "Chile", "name": "EY", "phone": "+56 02 676 1000", "website": "https://www.ey.com/locations/chile#santiago", "brand": "Ernst & Young"}, "geometry": {"type": "Point", "coordinates": [-70.575535, -33.4049798]}},
{"type": "Feature", "id": "Q9WRFxRvHVuxyMSAomGPWN3OuJg=", "properties": {"ref": "chile#vina-del-mar", "@spider": "ernst_young", "addr:full": "Avenida Nueva Libertad 1405, 20\u00b0 Floor", "addr:city": "Vi\u00f1a del Mar", "addr:postcode": "2520000", "addr:country": "Chile", "name": "EY", "phone": "+56 02 676 1000", "website": "https://www.ey.com/locations/chile#vina-del-mar", "brand": "Ernst & Young"}, "geometry": {"type": "Point", "coordinates": [-71.5487953, -33.0076823]}},
{"type": "Feature", "id": "V3JmbMavxO7Qy8qaE7h56BPBTiY=", "properties": {"ref": "greater-china#taoyuan", "@spider": "ernst_young", "addr:full": "27F, No. 1088, Zhongzheng Road", "addr:city": "Taoyuan", "addr:state": "TW", "addr:postcode": "33045", "addr:country": "Greater China", "name": "EY Taoyuan ", "phone": "+886 3 319 8888", "website": "https://www.ey.com/locations/greater-china#taoyuan", "brand": "Ernst & Young"}, "geometry": {"type": "Point", "coordinates": [121.2993956, 25.014803]}},
{"type": "Feature", "id": "gOk0t_SvWVOQDyF-swnAkIIlz9s=", "properties": {"ref": "greater-china#kaohsiung", "@spider": "ernst_young", "addr:full": "17/F, No.2, Zhongzheng 3rd Road", "addr:city": "Kaohsiung", "addr:state": "TW", "addr:postcode": "80052", "addr:country": "Greater China", "name": "EY Kaohsiung ", "phone": "+886 7 238 0011", "website": "https://www.ey.com/locations/greater-china#kaohsiung", "brand": "Ernst & Young"}, "geometry": {"type": "Point", "coordinates": [120.3128169, 22.6308389]}},
{"type": "Feature", "id": "kvWPuxna9P1Zdv1kjoedUbk38YE=", "properties": {"ref": "greater-china#taichung", "@spider": "ernst_young", "addr:full": "26F, No.186, Shizheng N. 7th Road", "addr:city": "Taichung", "addr:state": "TW", "addr:postcode": "40756", "addr:country": "Greater China", "name": "EY Taichung ", "phone": "+886 4 2259 8999", "website": "https://www.ey.com/locations/greater-china#taichung", "brand": "Ernst & Young"}, "geometry": {"type": "Point", "coordinates": [120.6414917, 24.1648272]}},
{"type": "Feature", "id": "KuiCOnkfa_GpQl-5AxEqNZTZ8PU=", "properties": {"ref": "greater-china#tainan", "@spider": "ernst_young", "addr:full": "11F, No.189, Sec. 1, Yongfu Road", "addr:city": "Tainan", "addr:state": "TW", "addr:postcode": "70051", "addr:country": "Greater China", "name": "EY Tainan", "phone": "+886 6 292 5888", "website": "https://www.ey.com/locations/greater-china#tainan", "brand": "Ernst & Young"}, "geometry": {"type": "Point", "coordinates": [120.1995991, 22.9881441]}},
{"type": "Feature", "id": "wqAx_GKe5tiTGDIuhqlEmerWQrM=", "properties": {"ref": "greater-china#taipei", "@spider": "ernst_young", "addr:full": "9/F, No. 333, Sec.1 Keelung Road", "addr:city": "Taipei", "addr:state": "TW", "addr:postcode": "11012", "addr:country": "Greater China", "name": "Taipei ", "phone": "+886 2 2757 8888", "website": "https://www.ey.com/locations/greater-china#taipei", "brand": "Ernst & Young"}, "geometry": {"type": "Point", "coordinates": [121.5609195, 25.0345254]}},
{"type": "Feature", "id": "SRpfDVWWNp6mBnzWs13RXMJ8r-M=", "properties": {"ref": "greater-china#hsinchu-city", "@spider": "ernst_young", "addr:full": "E-3, No.1, Lixing 1st Rd., Hsinchu Science Park", "addr:city": "Hsinchu", "addr:state": "TW", "addr:postcode": "30078", "addr:country": "Greater China", "name": "EY Hsinchu", "phone": "+886 3 688 5678", "website": "https://www.ey.com/locations/greater-china#hsinchu-city", "brand": "Ernst & Young"}, "geometry": {"type": "Point", "coordinates": [121.0178905, 24.7737632]}},
{"type": "Feature", "id": "IROc8LaEAOlnk8vhPu9ck8OFCFc=", "properties": {"ref": "greater-china#ulaanbaatar", "@spider": "ernst_young", "addr:full": "Suite 200, 8 Zovkhis Building, Seoul Street 21", "addr:city": "Ulaanbaatar", "addr:state": "MNG", "addr:postcode": "14251", "addr:country": "Greater China", "name": "EY", "phone": "+976 11 314032", "website": "https://www.ey.com/locations/greater-china#ulaanbaatar", "brand": "Ernst & Young"}, "geometry": {"type": "Point", "coordinates": [106.9115067, 47.9147323]}},
{"type": "Feature", "id": "M0lz1CqVDRJn45Axl0QoX_BuRnc=", "properties": {"ref": "greater-china#level-16-ey-tower", "@spider": "ernst_young", "addr:full": "Level 16, Ernst & Young Tower, Oriental Plaza, No.1 East Changan Ave. Dongcheng District", "addr:city": "Beijing", "addr:postcode": "100738", "addr:country": "Greater China", "name": "EY", "phone": "+86 10 5815 3000", "website": "https://www.ey.com/locations/greater-china#level-16-ey-tower", "brand": "Ernst & Young"}, "geometry": {"type": "Point", "coordinates": [116.4119033, 39.909369]}},
{"type": "Feature", "id": "-hHokReB1c1auJFIAz6HRw97zj0=", "properties": {"ref": "greater-china#no-10-wangjing-street", "@spider": "ernst_young", "addr:full": "No.10 WangJing Street, Chaoyang District", "addr:city": "Beijing", "addr:postcode": "100102", "addr:country": "Greater China", "name": "EY", "website": "https://www.ey.com/locations/greater-china#no-10-wangjing-street", "brand": "Ernst & Young"}, "geometry": {"type": "Point", "coordinates": [116.480725, 39.99833]}},
{"type": "Feature", "id": "GDK37Ad8BuRo8gcgFjJUx6ameYY=", "properties": {"ref": "greater-china#ey-parthenon-beijing", "@spider": "ernst_young", "addr:full": "Level 18, Ernst & Young Tower, Oriental Plaza, No.1 East Changan Ave., Dongcheng District", "addr:city": "Beijing", "addr:postcode": "100738", "addr:country": "Greater China", "name": "EY-Parthenon Beijing", "phone": " +86 10 5815 3000", "website": "https://www.ey.com/locations/greater-china#ey-parthenon-beijing", "brand": "Ernst & Young"}, "geometry": {"type": "Point", "coordinates": [116.413106, 39.909007]}},
{"type": "Feature", "id": "OIRDlyeGnnfQCZv2JTIF7KRAlHY=", "properties": {"ref": "greater-china#changsha", "@spider": "ernst_young", "addr:full": "Unit 2501, 25F, Block C, Kailin Commercial Center, 53 Binjiang Road, Yuelu District", "addr:city": "Changsha", "addr:postcode": "410006", "addr:country": "Greater China", "name": "EY", "phone": "+86 731 8973 7800", "website": "https://www.ey.com/locations/greater-china#changsha", "brand": "Ernst & Young"}, "geometry": {"type": "Point", "coordinates": [112.962382, 28.235658]}},
{"type": "Feature", "id": "l4H-bgAzKaq1euVDrNNKP3F8Ask=", "properties": {"ref": "greater-china#chengdu", "@spider": "ernst_young", "addr:full": "17/F, The Office Tower, Chengdu Shangri-La Center, Block B, No.9 Binjiang Dong Road", "addr:city": "Chengdu", "addr:postcode": "610021", "addr:country": "Greater China", "name": "EY", "phone": "+86 28 8462 7000", "website": "https://www.ey.com/locations/greater-china#chengdu", "brand": "Ernst & Young"}, "geometry": {"type": "Point", "coordinates": [104.08553, 30.643185]}},
{"type": "Feature", "id": "JJib5ZTr48nV9-LGIi6wpz4O0CU=", "properties": {"ref": "greater-china#dalian", "@spider": "ernst_young", "addr:full": "28F Eton International Tower, 280 Changjiang Road Zhongshan District", "addr:city": "Dalian", "addr:postcode": "116000", "addr:country": "Greater China", "name": "EY", "phone": "+86 411 8252 8888", "website": "https://www.ey.com/locations/greater-china#dalian", "brand": "Ernst & Young"}, "geometry": {"type": "Point", "coordinates": [121.64773, 38.92238]}},
{"type": "Feature", "id": "P8neGPCpIs6cYT1bZqzAZSd6d3U=", "properties": {"ref": "greater-china#guangzhou", "@spider": "ernst_young", "addr:full": "18th Floor, EY Tower, 13 Zhujiang East Road, Tianhe District", "addr:city": "Guangzhou", "addr:postcode": "510623", "addr:country": "Greater China", "name": "EY", "phone": "+86 20 2881 2888", "website": "https://www.ey.com/locations/greater-china#guangzhou", "brand": "Ernst & Young"}, "geometry": {"type": "Point", "coordinates": [113.3260252, 23.1202957]}},
{"type": "Feature", "id": "JrAW__1coK-pK1HyhleD1LAzrrc=", "properties": {"ref": "greater-china#hangzhou", "@spider": "ernst_young", "addr:full": "10/F, Tower B, UDC Building, 8 Xinye Road, Qianjiang CBD", "addr:city": "Hangzhou", "addr:postcode": "310016", "addr:country": "Greater China", "name": "EY", "phone": "+86 571 8736 5000", "website": "https://www.ey.com/locations/greater-china#hangzhou", "brand": "Ernst & Young"}, "geometry": {"type": "Point", "coordinates": [120.21629, 30.246041]}},
{"type": "Feature", "id": "aV-ya7LwOaTZ58zcCLGA8p0TFVg=", "properties": {"ref": "greater-china#hong-kong", "@spider": "ernst_young", "addr:full": "27/F One Taikoo Place, 979 King\u2019s Road, Quarry Bay", "addr:city": "Hong Kong SAR", "addr:country": "Greater China", "name": "EY", "phone": "+852 2846 9888", "website": "https://www.ey.com/locations/greater-china#hong-kong", "brand": "Ernst & Young"}, "geometry": {"type": "Point", "coordinates": [114.21275048698153, 22.287695704105072]}},
{"type": "Feature", "id": "AT9LU4jFwlkKb_u86QCeX9cPq-w=", "properties": {"ref": "greater-china#hk-sar-wavespace", "@spider": "ernst_young", "addr:full": "22/F, CITIC Tower, 1 Tim Mei Avenue, Central", "addr:city": "Hong Kong SAR", "addr:country": "Greater China", "name": "EY wavespace Hong Kong", "phone": "+852 2629 3097", "website": "https://www.ey.com/locations/greater-china#hk-sar-wavespace", "brand": "Ernst & Young"}, "geometry": {"type": "Point", "coordinates": [114.16716556730036, 22.28083455777561]}},
{"type": "Feature", "id": "W91mpjWI3WGZSitT8RERHk_isdQ=", "properties": {"ref": "greater-china#ey-parthenon-hong-kong", "@spider": "ernst_young", "addr:full": "27/F One Taikoo Place, 979 King\u2019s Road, Quarry Bay", "addr:city": "Hong Kong SAR", "addr:country": "Greater China", "name": "EY-Parthenon", "website": "https://www.ey.com/locations/greater-china#ey-parthenon-hong-kong", "brand": "Ernst & Young"}, "geometry": {"type": "Point", "coordinates": [114.21275048698153, 22.287695704105072]}},
{"type": "Feature", "id": "llm2LSfafs72hd4muZ4AcTG6kJ4=", "properties": {"ref": "greater-china#macau", "@spider": "ernst_young", "addr:full": "21/F, 39 Avenida de Almeida Ribeiro", "addr:city": "Macau SAR", "addr:country": "Greater China", "name": "EY", "phone": "+853 8506 1888", "website": "https://www.ey.com/locations/greater-china#macau", "brand": "Ernst & Young"}, "geometry": {"type": "Point", "coordinates": [113.5403651, 22.1923868]}},
{"type": "Feature", "id": "YwDWpkrNLi-b6tqIWRfZ-2mC0PM=", "properties": {"ref": "greater-china#nanjing", "@spider": "ernst_young", "addr:full": "Room 2201-06 & 16, 22/F, Nanjing Two IFC 111 Hexi Street, Jianye District", "addr:city": "Nanjing", "addr:postcode": "210019", "addr:country": "Greater China", "name": "EY", "phone": "+86 25 5768 8666", "website": "https://www.ey.com/locations/greater-china#nanjing", "brand": "Ernst & Young"}, "geometry": {"type": "Point", "coordinates": [118.72622306472256, 31.99281597330017]}},
{"type": "Feature", "id": "AlbKXMZhB18R35jMQoye9Dr8Qho=", "properties": {"ref": "greater-china#qingdao", "@spider": "ernst_young", "addr:full": "Unit 3401, Block B, China Resources Building, No.6 Shandong Road, Shinan District", "addr:city": "Qingdao", "addr:postcode": "266071", "addr:country": "Greater China", "name": "EY", "phone": "+86 532 8904 6000", "website": "https://www.ey.com/locations/greater-china#qingdao", "brand": "Ernst & Young"}, "geometry": {"type": "Point", "coordinates": [120.3965109, 36.0658983]}},
{"type": "Feature", "id": "bgLB_GrnL0hZv7nxOzqW6nJCt6w=", "properties": {"ref": "greater-china#shanghai", "@spider": "ernst_young", "addr:full": "50/F, Shanghai World Financial Center, 100 Century Avenue, Pudong New Area", "addr:city": "Shanghai ", "addr:postcode": "200120", "addr:country": "Greater China", "name": "EY", "phone": "+86 21 2228 8888", "website": "https://www.ey.com/locations/greater-china#shanghai", "brand": "Ernst & Young"}, "geometry": {"type": "Point", "coordinates": [121.5074394, 31.2345644]}},
{"type": "Feature", "id": "cxXVn6mIpKAtRMYWoYtFyubILqU=", "properties": {"ref": "greater-china#shanghai-wavespace", "@spider": "ernst_young", "addr:full": "43/F, Shanghai World Financial Center, 100 Century Avenue, Pudong New Area", "addr:city": "Shanghai ", "addr:postcode": "200120", "addr:country": "Greater China", "name": "EY wavespace Shanghai", "phone": "+86 21 2228 8888", "website": "https://www.ey.com/locations/greater-china#shanghai-wavespace", "brand": "Ernst & Young"}, "geometry": {"type": "Point", "coordinates": [121.507437, 31.234788]}},
{"type": "Feature", "id": "Cb3qO-7FGkXT23BF5H0U49Y_58U=", "properties": {"ref": "greater-china#ey-parthenon-shanghai", "@spider": "ernst_young", "addr:full": "50/F, Shanghai World Financial Center, 100 Century Avenue, Pudong New Area", "addr:city": "Shanghai ", "addr:postcode": "200120", "addr:country": "Greater China", "name": "EY-Parthenon Shanghai", "phone": "+86 21 2228 8888", "website": "https://www.ey.com/locations/greater-china#ey-parthenon-shanghai", "brand": "Ernst & Young"}, "geometry": {"type": "Point", "coordinates": [121.507225, 31.234297]}},
{"type": "Feature", "id": "DWmZMdRRDtAsooX_vs_F9bgqCHo=", "properties": {"ref": "greater-china#shenyang", "@spider": "ernst_young", "addr:full": "Unit 1708 17/F, Tower A, Chamber of Commerce Headquarters Mansion, No. 51-1 Qingnian Street Shenhe District", "addr:city": "Shenyang", "addr:postcode": "110014", "addr:country": "Greater China", "name": "EY", "phone": "+86 24 3128 3366", "website": "https://www.ey.com/locations/greater-china#shenyang", "brand": "Ernst & Young"}, "geometry": {"type": "Point", "coordinates": [123.4329264, 41.7960204]}},
{"type": "Feature", "id": "w4id508dNJ9fZwHFZM0Ue07H-is=", "properties": {"ref": "greater-china#shenzhen", "@spider": "ernst_young", "addr:full": "21/F, China Resources Building, No. 5001 Shennan Dong Road", "addr:city": "Shenzhen", "addr:postcode": "518001", "addr:country": "Greater China", "name": "EY", "phone": "+86 755 2502 8288", "website": "https://www.ey.com/locations/greater-china#shenzhen", "brand": "Ernst & Young"}, "geometry": {"type": "Point", "coordinates": [114.106766, 22.542042]}},
{"type": "Feature", "id": "IkR9NrAMN3fkGnW3jWYbvdHHUDs=", "properties": {"ref": "greater-china#suzhou", "@spider": "ernst_young", "addr:full": "Suite A, 28/F, Modern Media Plaza, No. 265, Suzhou Avenue East Suzhou Industrial Park, Jiangsu", "addr:city": "Suzhou", "addr:postcode": "215028", "addr:country": "Greater China", "name": "EY", "phone": "+86 512 6763 3200", "website": "https://www.ey.com/locations/greater-china#suzhou", "brand": "Ernst & Young"}, "geometry": {"type": "Point", "coordinates": [120.733988, 31.323787]}},
{"type": "Feature", "id": "-nPXdW1cq1wlpA-MfA6OkWY5FyQ=", "properties": {"ref": "greater-china#tianjin", "@spider": "ernst_young", "addr:full": "Unit 1705-08, 17/F, Metropolitan Tower No. 183 Nanjing Road Heping District", "addr:city": "Tianjin", "addr:postcode": "300051", "addr:country": "Greater China", "name": "EY", "phone": "+86 22 5819 3535", "website": "https://www.ey.com/locations/greater-china#tianjin", "brand": "Ernst & Young"}, "geometry": {"type": "Point", "coordinates": [117.198515, 39.117437]}},
{"type": "Feature", "id": "mb13xlhD5d7aGbOXdHb42XThcyA=", "properties": {"ref": "greater-china#wuhan", "@spider": "ernst_young", "addr:full": "31F, China Minsheng Bank Building, 396 Xinhua Road", "addr:city": "Wuhan", "addr:postcode": "430022", "addr:country": "Greater China", "name": "EY", "phone": "+86 27 8261 2688", "website": "https://www.ey.com/locations/greater-china#wuhan", "brand": "Ernst & Young"}, "geometry": {"type": "Point", "coordinates": [114.27275, 30.594394]}},
{"type": "Feature", "id": "dAYKmSGPvh6mHy-S00fIqkp4Rkk=", "properties": {"ref": "greater-china#xiamen", "@spider": "ernst_young", "addr:full": "Room 1602-03, Century Wealth Center, No. 158 Taidong Road Siming District", "addr:city": "Xiamen", "addr:postcode": "361008", "addr:country": "Greater China", "name": "EY", "phone": "+86 592 3293 000", "website": "https://www.ey.com/locations/greater-china#xiamen", "brand": "Ernst & Young"}, "geometry": {"type": "Point", "coordinates": [118.0875317, 24.4774956]}},
{"type": "Feature", "id": "wdv-9KVlrgmgy60acpMQC7YO1RM=", "properties": {"ref": "greater-china#xi-an", "@spider": "ernst_young", "addr:full": "Suite 1607A, Building C, Urban Portal 1 Jinye Road, High-tech Zone", "addr:city": "Xi'an", "addr:postcode": "710065", "addr:country": "Greater China", "name": "EY", "phone": "+86 29 8783 7388", "website": "https://www.ey.com/locations/greater-china#xi-an", "brand": "Ernst & Young"}, "geometry": {"type": "Point", "coordinates": [108.93977, 34.341574]}},
{"type": "Feature", "id": "QS_Io8VsoNRaJYQ2mVHHvOyqEGE=", "properties": {"ref": "greater-china#zhengzhou", "@spider": "ernst_young", "addr:full": "11/F, Block 8, North Zone, Kineer Business Center, 51 Jinshui East Road", "addr:city": "Zhengzhou", "addr:postcode": "450046", "addr:country": "Greater China", "name": "EY", "phone": "+86 371 6187 2288", "website": "https://www.ey.com/locations/greater-china#zhengzhou", "brand": "Ernst & Young"}, "geometry": {"type": "Point", "coordinates": [113.7745438, 34.770006]}},
{"type": "Feature", "id": "m6ynK7me_bTpCrQSKtELiXz47RM=", "properties": {"ref": "greater-china#haikou", "@spider": "ernst_young", "addr:full": "Unit 2901A, 29/F, Internet Financial Tower No. 3, Guoxing Avenue", "addr:city": "Haikou", "addr:postcode": "570100", "addr:country": "Greater China", "name": "EY", "phone": "+86 898 3660 8880", "website": "https://www.ey.com/locations/greater-china#haikou", "brand": "Ernst & Young"}, "geometry": {"type": "Point", "coordinates": [110.34065, 20.04171]}},
{"type": "Feature", "id": "LUgXMwqhni93dyxVr4gSfHpdhDU=", "properties": {"ref": "greater-china#chongqing", "@spider": "ernst_young", "addr:full": "Unit 1-2, 56/F, World Financial Centre, 188 Minzu Road, Yuzhong District", "addr:city": "Chongqing", "addr:postcode": "400010", "addr:country": "Greater China", "name": "EY", "phone": "+86 23 6273 6199", "website": "https://www.ey.com/locations/greater-china#chongqing", "brand": "Ernst & Young"}, "geometry": {"type": "Point", "coordinates": [106.577, 29.559]}},
{"type": "Feature", "id": "JeRXhJCIYjqZuTAcYQKz6Kj-Ic8=", "properties": {"ref": "greater-china#kunming", "@spider": "ernst_young", "addr:full": "Unit 2701-09 & 12, 27F, Spring City 66 Office Tower, 23 Dongfeng East Road, Panlong District", "addr:city": "Kunming", "addr:postcode": "650051", "addr:country": "Greater China", "name": "EY", "phone": "+86 871 6363 6306", "website": "https://www.ey.com/locations/greater-china#kunming", "brand": "Ernst & Young"}, "geometry": {"type": "Point", "coordinates": [102.716666, 25.033333]}},
{"type": "Feature", "id": "KVkD6bjJjwo7wa5Gys63s2eQXjQ=", "properties": {"ref": "greater-china#jinan", "@spider": "ernst_young", "addr:full": "Unit 1906,19/F, South Building China Life Tower, 11001 Jingshi Road, Lixia District", "addr:city": "Jinan", "addr:postcode": "250014", "addr:country": "Greater China", "name": "EY", "phone": "+86 531 5580 7088", "website": "https://www.ey.com/locations/greater-china#jinan", "brand": "Ernst & Young"}, "geometry": {"type": "Point", "coordinates": [117.10571543754233, 36.65960874899375]}},
{"type": "Feature", "id": "fSZOfgN32GY3YcDEBqTgCoGU61Q=", "properties": {"ref": "colombia#barranquilla", "@spider": "ernst_young", "addr:full": "Cll 77B No. 59-61 - Oficina 311, Centro Empresarial de Las Americas II", "addr:city": "Barranquilla", "addr:country": "Colombia", "name": "EY", "phone": "+57 (605) 385 2201", "website": "https://www.ey.com/locations/colombia#barranquilla", "brand": "Ernst & Young"}, "geometry": {"type": "Point", "coordinates": [-74.8026795, 11.0079159]}},
{"type": "Feature", "id": "KxvdcV2R6wB4Z4AUgSPw9gotq-k=", "properties": {"ref": "colombia#bogota", "@spider": "ernst_young", "addr:full": "Carrera 11 No. 98 - 07 Piso 3, Green Office", "addr:city": "Bogot\u00e1", "addr:country": "Colombia", "name": "EY", "phone": "+57 (601) 484 7000", "website": "https://www.ey.com/locations/colombia#bogota", "brand": "Ernst & Young"}, "geometry": {"type": "Point", "coordinates": [-74.04431070000001, 4.681139]}},
{"type": "Feature", "id": "NNFhA81xfGs_cPeY06Zp1iAC07k=", "properties": {"ref": "colombia#cali", "@spider": "ernst_young", "addr:full": "Avenida 4 Norte No. 6N-61, Oficina 502/503, Edificio Siglo XXI", "addr:city": "Cali", "addr:country": "Colombia", "name": "EY", "phone": "+57 (602) 485 6280", "website": "https://www.ey.com/locations/colombia#cali", "brand": "Ernst & Young"}, "geometry": {"type": "Point", "coordinates": [-76.537748, 3.454381]}},
{"type": "Feature", "id": "-XbwEvp53Asf06TJ5eed_qblTi4=", "properties": {"ref": "colombia#medellin", "@spider": "ernst_young", "addr:full": "Centro Empresarial Milla de Oro, Carrera 43 A # 3 Sur - 130, Piso 14", "addr:city": "Medellin", "addr:country": "Colombia", "name": "EY", "phone": "+57 (604) 369 8400", "website": "https://www.ey.com/locations/colombia#medellin", "brand": "Ernst & Young"}, "geometry": {"type": "Point", "coordinates": [-75.5727742, 6.2007734]}},
{"type": "Feature", "id": "d0bPJwOoSLdEsX8BxC9jWGt86rQ=", "properties": {"ref": "congo#brazzaville", "@spider": "ernst_young", "addr:full": "Immeuble CFAO, Avenue Paul Doumer M'Pila, 2e \u00e9tage", "addr:city": "Brazzaville", "addr:postcode": "84", "addr:country": "Congo", "name": "EY", "phone": "+242 666 66 61", "website": "https://www.ey.com/locations/congo#brazzaville", "brand": "Ernst & Young"}, "geometry": {"type": "Point", "coordinates": [15.2918895, -4.2684222]}},
{"type": "Feature", "id": "AxyzecxJO1UwwQ3mendyA6hb77U=", "properties": {"ref": "costa-rica#san-jose", "@spider": "ernst_young", "addr:full": "Edificio Meridiano, 2 Piso Guachipelin, Escazu", "addr:city": "San Jos\u00e9", "addr:postcode": "10203", "addr:country": "Costa Rica", "name": "EY", "phone": "+506 2208 9800", "website": "https://www.ey.com/locations/costa-rica#san-jose", "brand": "Ernst & Young"}, "geometry": {"type": "Point", "coordinates": [-84.1529942, 9.9426323]}},
{"type": "Feature", "id": "N2kDid4oziimvB5d1DLUdg1GMi4=", "properties": {"ref": "costa-rica#forum-1", "@spider": "ernst_young", "addr:full": "Condominio Parque Empresarial F\u00f3rum 1, Edificio D Bloque Norte, Sexta Etapa General, 1er piso, Santa Ana", "addr:city": "San Jos\u00e9", "addr:country": "Costa Rica", "name": "EY", "phone": "(506) 4100-3922", "website": "https://www.ey.com/locations/costa-rica#forum-1", "brand": "Ernst & Young"}, "geometry": {"type": "Point", "coordinates": [-84.19374, 9.945462]}},
{"type": "Feature", "id": "_s0ySTIDrTBDEjPe-yzJx739fDk=", "properties": {"ref": "costa-rica#forum-2", "@spider": "ernst_young", "addr:full": "Parque Empresarial F\u00f3rum 2, Edificio A, 4to Piso, Lindora, Santa Ana", "addr:city": "San Jos\u00e9", "addr:country": "Costa Rica", "name": "EY", "phone": "(506) 2505-0900", "website": "https://www.ey.com/locations/costa-rica#forum-2", "brand": "Ernst & Young"}, "geometry": {"type": "Point", "coordinates": [-84.19389, 9.955064]}},
{"type": "Feature", "id": "3XWwyMSU2hPZr9z950G08vYYSj4=", "properties": {"ref": "costa-rica#escazu-city", "@spider": "ernst_young", "addr:full": "San Jos\u00e9 Epic Corporate Center, 200 metros al oeste del cruce de San Rafael de Escaz\u00fa", "addr:city": "San Jos\u00e9", "addr:postcode": "10203", "addr:country": "Costa Rica", "name": "EY", "phone": "(506) 2208 9800", "website": "https://www.ey.com/locations/costa-rica#escazu-city", "brand": "Ernst & Young"}, "geometry": {"type": "Point", "coordinates": [-84.130717, 9.933774]}},
{"type": "Feature", "id": "21XfFCfk4hU8dVYkBKSXt9iFG-s=", "properties": {"ref": "croatia#zagreb", "@spider": "ernst_young", "addr:full": "Radnicka cesta 50", "addr:city": "Zagreb", "addr:postcode": "10000", "addr:country": "Croatia", "name": "EY", "phone": "+ 385 1 5800 800", "website": "https://www.ey.com/locations/croatia#zagreb", "brand": "Ernst & Young"}, "geometry": {"type": "Point", "coordinates": [16.0021064, 45.8024441]}},
{"type": "Feature", "id": "scKKPWmNmY24CSUjDSnDstWfD50=", "properties": {"ref": "croatia#ey-parthenon-zagreb", "@spider": "ernst_young", "addr:full": "Radnicka cesta 50", "addr:city": "Zagreb", "addr:postcode": "10000", "addr:country": "Croatia", "name": "EY-Parthenon Zagreb", "phone": "+385 1 5800 800", "website": "https://www.ey.com/locations/croatia#ey-parthenon-zagreb", "brand": "Ernst & Young"}, "geometry": {"type": "Point", "coordinates": [16.002171, 45.802639]}},
{"type": "Feature", "id": "B7giSaj5J7qVwNFMAeZ04EXiZ9I=", "properties": {"ref": "curacao#curacao", "@spider": "ernst_young", "addr:full": "Zeelandia Office Park, Kaya W.F.G. (Jombi) Mensing 16, P.O. Box 3626, Willemstad", "addr:city": "Cura\u00e7ao", "addr:country": "Curacao", "name": "EY", "phone": "+599 9 430 5000", "website": "https://www.ey.com/locations/curacao#curacao", "brand": "Ernst & Young"}, "geometry": {"type": "Point", "coordinates": [-68.9024271, 12.1150464]}},
{"type": "Feature", "id": "_aqTFuISLq7IL9AiMx3AlRIMrso=", "properties": {"ref": "curacao#paramaribo", "@spider": "ernst_young", "addr:full": "Cornelis Jongbawstraat 17, Paramaribo, Suriname", "addr:city": "Paramaribo", "addr:country": "Curacao", "name": "EY", "website": "https://www.ey.com/locations/curacao#paramaribo", "brand": "Ernst & Young"}, "geometry": {"type": "Point", "coordinates": [-55.145283, 5.829708]}},
{"type": "Feature", "id": "0IRvgQcXpS5kxh-ODv1etE-X5eY=", "properties": {"ref": "cyprus#limassol", "@spider": "ernst_young", "addr:full": "Ernst & Young House, 27-29 Spyrou Kyprianou Avenue, Mesa Yitonia, 4003 Limassol, Cyprus P.O Box 50123 3601 Limassol, Cyprus", "addr:city": "Limassol", "addr:postcode": "4003", "addr:country": "Cyprus", "name": "EY", "phone": "+357 25 209 999", "website": "https://www.ey.com/locations/cyprus#limassol", "brand": "Ernst & Young"}, "geometry": {"type": "Point", "coordinates": [33.0436637, 34.6982569]}},
{"type": "Feature", "id": "eEutChmtaKMeMRpSLvY2xHPLMtk=", "properties": {"ref": "cyprus#nicosia", "@spider": "ernst_young", "addr:full": "Jean Nouvel Tower,  6 Stasinou Avenue, 1060 Nicosia, Cyprus  P.O Box 21656 1511 Nicosia, Cyprus", "addr:city": "Nicosia", "addr:postcode": "1060", "addr:country": "Cyprus", "name": "EY", "phone": "+357 22 209 999", "website": "https://www.ey.com/locations/cyprus#nicosia", "brand": "Ernst & Young"}, "geometry": {"type": "Point", "coordinates": [33.360554, 35.168669]}},
{"type": "Feature", "id": "UqwTOwz7PwVML9-Fj0bTSjPoI74=", "properties": {"ref": "czech-republic#brno", "@spider": "ernst_young", "addr:full": "Orl\u00ed 36", "addr:city": "Brno", "addr:postcode": "602 00", "addr:country": "Czech Republic", "name": "EY", "phone": "+420 541 636 424", "website": "https://www.ey.com/locations/czech-republic#brno", "brand": "Ernst & Young"}, "geometry": {"type": "Point", "coordinates": [16.6140478, 49.1945467]}},
{"type": "Feature", "id": "GChCZkXck1I37yRJqAZAH5zx7_A=", "properties": {"ref": "czech-republic#ostrava", "@spider": "ernst_young", "addr:full": "28. \u0159\u00edjna 2663/150", "addr:city": "Ostrava", "addr:postcode": "702 00", "addr:country": "Czech Republic", "name": "EY", "phone": "+420 595 636 327", "website": "https://www.ey.com/locations/czech-republic#ostrava", "brand": "Ernst & Young"}, "geometry": {"type": "Point", "coordinates": [18.2659895, 49.8300964]}},
{"type": "Feature", "id": "uTcbjYBoRn_99PLBQLJkiehuxGw=", "properties": {"ref": "czech-republic#prague", "@spider": "ernst_young", "addr:full": "Na Florenci 2116/15", "addr:city": "Prague", "addr:postcode": "110 00", "addr:country": "Czech Republic", "name": "EY", "phone": "+420 225 335 111", "website": "https://www.ey.com/locations/czech-republic#prague", "brand": "Ernst & Young"}, "geometry": {"type": "Point", "coordinates": [14.4352864, 50.0888857]}},
{"type": "Feature", "id": "Lotrx6rDjnZS9oE6niu6hv35s9A=", "properties": {"ref": "denmark#aabenraa", "@spider": "ernst_young", "addr:full": "Skibbroen 16", "addr:city": "Aabenraa", "addr:postcode": "6200", "addr:country": "Denmark", "name": "EY", "phone": "+45 7323 3000", "website": "https://www.ey.com/locations/denmark#aabenraa", "brand": "Ernst & Young"}, "geometry": {"type": "Point", "coordinates": [9.4221145, 55.0421482]}},
{"type": "Feature", "id": "Anq2atVU_egRyRW6uJR05WOFTV4=", "properties": {"ref": "denmark#aalborg", "@spider": "ernst_young", "addr:full": "Vestre Havnepromenade 1A, Postboks 710", "addr:city": "Aalborg", "addr:postcode": "9100 Aalborg", "addr:country": "Denmark", "name": "EY", "phone": "+45 7323 3000", "website": "https://www.ey.com/locations/denmark#aalborg", "brand": "Ernst & Young"}, "geometry": {"type": "Point", "coordinates": [9.916645, 57.053314]}},
{"type": "Feature", "id": "zvGZHA7bzSWSk3nrxLEtEMwQGe8=", "properties": {"ref": "denmark#aarhus", "@spider": "ernst_young", "addr:full": "V\u00e6rkmestergade 25, Postboks 330", "addr:city": "Aarhus", "addr:postcode": "8000", "addr:country": "Denmark", "name": "EY", "phone": "+45 7323 3000", "website": "https://www.ey.com/locations/denmark#aarhus", "brand": "Ernst & Young"}, "geometry": {"type": "Point", "coordinates": [10.203921, 56.162939]}},
{"type": "Feature", "id": "napl150Yk5oFimrnWlFq1ayT-_4=", "properties": {"ref": "denmark#esbjerg", "@spider": "ernst_young", "addr:full": "Bavneh\u00f8jvej 5", "addr:city": "Esbjerg", "addr:postcode": "6700", "addr:country": "Denmark", "name": "EY", "phone": "+45 7323 3000", "website": "https://www.ey.com/locations/denmark#esbjerg", "brand": "Ernst & Young"}, "geometry": {"type": "Point", "coordinates": [8.456161, 55.463233]}},
{"type": "Feature", "id": "1PrAjzuRAOO2VOOszCfBA8PVZ18=", "properties": {"ref": "denmark#copenhagen", "@spider": "ernst_young", "addr:full": "Dirch Passers Alle 36, Postboks 250", "addr:city": "Copenhagen", "addr:postcode": "2000 Frederiksberg", "addr:country": "Denmark", "name": "EY", "phone": "+45 7323 3000", "website": "https://www.ey.com/locations/denmark#copenhagen", "brand": "Ernst & Young"}, "geometry": {"type": "Point", "coordinates": [12.502403, 55.68497]}},
{"type": "Feature", "id": "g-Wmw74HbY-83OUIriS7ogZbTeM=", "properties": {"ref": "denmark#ey-parthenon-copenhagen-2", "@spider": "ernst_young", "addr:full": "Dirch Passers All\u00e9 27, 4. sal, Postboks 250", "addr:city": "Copenhagen", "addr:postcode": "2000 Frederiksberg", "addr:country": "Denmark", "name": "EY-Parthenon Copenhagen 2", "phone": "+ 45 7323 3000", "website": "https://www.ey.com/locations/denmark#ey-parthenon-copenhagen-2", "brand": "Ernst & Young"}, "geometry": {"type": "Point", "coordinates": [12.500888, 55.684961]}},
{"type": "Feature", "id": "h2Ps9PZ52_NeVKyS9J3uWpulqlA=", "properties": {"ref": "denmark#haderslev", "@spider": "ernst_young", "addr:full": "Norgesvej 24B", "addr:city": "Haderslev", "addr:postcode": "6100", "addr:country": "Denmark", "name": "EY", "phone": "+45 7323 3000", "website": "https://www.ey.com/locations/denmark#haderslev", "brand": "Ernst & Young"}, "geometry": {"type": "Point", "coordinates": [9.485261, 55.2633249]}},
{"type": "Feature", "id": "WkpTSeRKvZq9MeA_fIQbm8USHT4=", "properties": {"ref": "denmark#herning", "@spider": "ernst_young", "addr:full": "Dalgasgade 27, 3", "addr:city": "Herning", "addr:postcode": "7400", "addr:country": "Denmark", "name": "EY", "phone": "+45 7323 3000", "website": "https://www.ey.com/locations/denmark#herning", "brand": "Ernst & Young"}, "geometry": {"type": "Point", "coordinates": [8.97109, 56.13432]}},
{"type": "Feature", "id": "dDew1jJl9ABrMNjudWbAPhuVhIs=", "properties": {"ref": "denmark#horsens", "@spider": "ernst_young", "addr:full": "Holmboes All\u00e9 12", "addr:city": "Horsens", "addr:postcode": "8700", "addr:country": "Denmark", "name": "EY", "phone": "+45 7323 3000", "website": "https://www.ey.com/locations/denmark#horsens", "brand": "Ernst & Young"}, "geometry": {"type": "Point", "coordinates": [9.8499655, 55.85539610000001]}},
{"type": "Feature", "id": "DaBhtV-SXM51sgFRmiQvE50Lcjw=", "properties": {"ref": "denmark#kolding", "@spider": "ernst_young", "addr:full": "Trindholmsgade 2, 2. sal", "addr:city": "Kolding", "addr:postcode": "6000", "addr:country": "Denmark", "name": "EY", "phone": "+45 7323 3000", "website": "https://www.ey.com/locations/denmark#kolding", "brand": "Ernst & Young"}, "geometry": {"type": "Point", "coordinates": [9.483239, 55.488209]}},
{"type": "Feature", "id": "qQHIwx-Vztsl5LMGo3FI_A2XFWc=", "properties": {"ref": "denmark#nyborg", "@spider": "ernst_young", "addr:full": "Gl. Torv 2, 2. sal", "addr:city": "Nyborg", "addr:postcode": "5800", "addr:country": "Denmark", "name": "EY", "phone": "+45 7323 3000", "website": "https://www.ey.com/locations/denmark#nyborg", "brand": "Ernst & Young"}, "geometry": {"type": "Point", "coordinates": [10.792466, 55.3116183]}},
{"type": "Feature", "id": "RihLvpYM5VJID-nvZTPu2h15sq4=", "properties": {"ref": "denmark#odense", "@spider": "ernst_young", "addr:full": "Englandsgade 25, Postboks 200", "addr:city": "Odense", "addr:postcode": "5100", "addr:country": "Denmark", "name": "EY", "phone": "+45 7323 3000", "website": "https://www.ey.com/locations/denmark#odense", "brand": "Ernst & Young"}, "geometry": {"type": "Point", "coordinates": [10.382263, 55.409104]}},
{"type": "Feature", "id": "IQDg_V9JtJG5XFMlZUz3ZCm_0e4=", "properties": {"ref": "denmark#sonderborg", "@spider": "ernst_young", "addr:full": "N\u00f8rre Havnegade 43", "addr:city": "S\u00f8nderborg", "addr:postcode": "6400", "addr:country": "Denmark", "name": "EY", "phone": "+45 7323 3000", "website": "https://www.ey.com/locations/denmark#sonderborg", "brand": "Ernst & Young"}, "geometry": {"type": "Point", "coordinates": [9.780627, 54.916496]}},
{"type": "Feature", "id": "N2A7zlubI9iGjQ74i3Vk4LnseQg=", "properties": {"ref": "denmark#svendborg", "@spider": "ernst_young", "addr:full": "F\u00e5borgvej 44", "addr:city": "Svendborg", "addr:postcode": "5700", "addr:country": "Denmark", "name": "EY", "phone": "+45 7323 3000", "website": "https://www.ey.com/locations/denmark#svendborg", "brand": "Ernst & Young"}, "geometry": {"type": "Point", "coordinates": [10.5790247, 55.0695188]}},
{"type": "Feature", "id": "1udnXtErZcaLOvwzURJPhV4YXxU=", "properties": {"ref": "denmark#vejle", "@spider": "ernst_young", "addr:full": "Lysholt All\u00e9 10", "addr:city": "Vejle", "addr:postcode": "7100", "addr:country": "Denmark", "name": "EY", "phone": "+45 7323 3000", "website": "https://www.ey.com/locations/denmark#vejle", "brand": "Ernst & Young"}, "geometry": {"type": "Point", "coordinates": [9.5799188, 55.7341327]}},
{"type": "Feature", "id": "joBFd3pHDedM784xTvoV0aWDX7g=", "properties": {"ref": "dominican-republic#santo-domingo", "@spider": "ernst_young", "addr:full": "Ave. Pedro Henriquez Urena No. 138, Torre Empresarial Reyna II, Suite 900, Ens. La Esperilla", "addr:city": "Santo Domingo", "addr:country": "Dominican Republic", "name": "EY", "phone": "+1 809 472 3973", "website": "https://www.ey.com/locations/dominican-republic#santo-domingo", "brand": "Ernst & Young"}, "geometry": {"type": "Point", "coordinates": [-69.9233866, 18.4659528]}},
{"type": "Feature", "id": "8f2px5SpGIjCdbs3oxYFi3ct5Rk=", "properties": {"ref": "ecuador#guayaquil", "@spider": "ernst_young", "addr:full": "Av. Francisco Orellana Edificio Centrum, Piso 14", "addr:city": "Guayaquil", "addr:country": "Ecuador", "name": "EY", "phone": "+ 593 4 263 4500", "website": "https://www.ey.com/locations/ecuador#guayaquil", "brand": "Ernst & Young"}, "geometry": {"type": "Point", "coordinates": [-79.9223592, -2.1709979]}},
{"type": "Feature", "id": "Hd7NMwEFwKgot16ovPzEJbM9Z7Y=", "properties": {"ref": "ecuador#quito", "@spider": "ernst_young", "addr:full": "Stratta Building, Inglaterra & Amazonas Avenue, 11th Floor", "addr:city": "Quito", "addr:country": "Ecuador", "name": "EY", "phone": "+593 2 255 5553", "website": "https://www.ey.com/locations/ecuador#quito", "brand": "Ernst & Young"}, "geometry": {"type": "Point", "coordinates": [-78.4844304, -0.2061997]}},
{"type": "Feature", "id": "WI9vXrfUYXa_JH2NTFda20-CECs=", "properties": {"ref": "egypt#cairo", "@spider": "ernst_young", "addr:full": "Ring Road,Zone #10A, Rama Tower, P.O. Box 20, Kattameya", "addr:city": "Cairo", "addr:postcode": "11936", "addr:country": "Egypt", "name": "EY", "phone": "+202 27260260", "website": "https://www.ey.com/locations/egypt#cairo", "brand": "Ernst & Young"}, "geometry": {"type": "Point", "coordinates": [31.340171, 29.980675]}},
{"type": "Feature", "id": "Wass0DNqHMGLEg1Y5X-z61ymqxk=", "properties": {"ref": "el-salvador#san-salvador", "@spider": "ernst_young", "addr:full": "Torre Futura, 87 Av. Norte y Calle El Mirador, Complejo World Trade Center, local 11-05", "addr:city": "San Salvador", "addr:country": "El Salvador", "name": "EY", "phone": "+503 2248 7000", "website": "https://www.ey.com/locations/el-salvador#san-salvador", "brand": "Ernst & Young"}, "geometry": {"type": "Point", "coordinates": [-89.2416134, 13.7086998]}},
{"type": "Feature", "id": "1VU67n4SHUpWGHFBWhBSu43_RwY=", "properties": {"ref": "estonia#tallinn", "@spider": "ernst_young", "addr:full": "Ravala 4", "addr:city": "Tallinn", "addr:postcode": "10143", "addr:country": "Estonia", "name": "EY", "phone": "+372 6 114 610", "website": "https://www.ey.com/locations/estonia#tallinn", "brand": "Ernst & Young"}, "geometry": {"type": "Point", "coordinates": [24.7583427, 59.4343575]}},
{"type": "Feature", "id": "69wY31xskCpGMoVt9ed0gIarc0E=", "properties": {"ref": "fiji#suva", "@spider": "ernst_young", "addr:full": "Level 7, Pacific House, 1 Butt Street", "addr:city": "Suva", "addr:country": "Fiji", "name": "EY", "phone": "+679 331 4166", "website": "https://www.ey.com/locations/fiji#suva", "brand": "Ernst & Young"}, "geometry": {"type": "Point", "coordinates": [178.4241785, -18.1413958]}},
{"type": "Feature", "id": "pOGIjFr1u3YUJCdQ1m9K2-ptEes=", "properties": {"ref": "finland#haemeenlinna", "@spider": "ernst_young", "addr:full": "Innopark 1, Vankanl\u00e4hde 7", "addr:city": "H\u00e4meenlinna", "addr:postcode": "FI13100", "addr:country": "Finland", "name": "EY", "phone": "+358 207 280 190", "website": "https://www.ey.com/locations/finland#haemeenlinna", "brand": "Ernst & Young"}, "geometry": {"type": "Point", "coordinates": [24.477583, 60.975611]}},
{"type": "Feature", "id": "gtVCeBMw70zCQKOMdIe86YNTUao=", "properties": {"ref": "finland#helsinki", "@spider": "ernst_young", "addr:full": "Alvar Aallon katu 5 C", "addr:city": "Helsinki", "addr:postcode": "FI00100", "addr:country": "Finland", "name": "EY", "phone": "+358 207 280 190", "website": "https://www.ey.com/locations/finland#helsinki", "brand": "Ernst & Young"}, "geometry": {"type": "Point", "coordinates": [24.9387154, 60.176875]}},
{"type": "Feature", "id": "kUo8g3ADdl_GkcPhVkvyvR2lE44=", "properties": {"ref": "finland#ey-parthenon-helsinki", "@spider": "ernst_young", "addr:full": "Alvar Aallon katu 5 C", "addr:city": "Helsinki", "addr:postcode": "FI00100", "addr:country": "Finland", "name": "EY-Parthenon Helsinki", "phone": "+ 358 0 207 280 190", "website": "https://www.ey.com/locations/finland#ey-parthenon-helsinki", "brand": "Ernst & Young"}, "geometry": {"type": "Point", "coordinates": [24.938592, 60.176906]}},
{"type": "Feature", "id": "4-zA4M8t_QC342DcUq_P7ogLWZU=", "properties": {"ref": "finland#joensuu", "@spider": "ernst_young", "addr:full": "Kauppakatu 15 a 1", "addr:city": "Joensuu", "addr:postcode": "80100", "addr:country": "Finland", "name": "EY", "phone": "+358 400 377 666", "website": "https://www.ey.com/locations/finland#joensuu", "brand": "Ernst & Young"}, "geometry": {"type": "Point", "coordinates": [29.75841, 62.5982336]}},
{"type": "Feature", "id": "0OcvkJ0hUWTIq6h-eh5A_riIO0o=", "properties": {"ref": "finland#jyvaeskylae", "@spider": "ernst_young", "addr:full": "Piippukatu 11 (8krs)", "addr:city": "Jyv\u00e4skyl\u00e4", "addr:postcode": "FI40100", "addr:country": "Finland", "name": "EY", "phone": "+358 207 280 190", "website": "https://www.ey.com/locations/finland#jyvaeskylae", "brand": "Ernst & Young"}, "geometry": {"type": "Point", "coordinates": [25.75733336177935, 62.241100255021195]}},
{"type": "Feature", "id": "X7rM8ABPSAuXZHOGeTgtQQmhtbQ=", "properties": {"ref": "finland#kokkola", "@spider": "ernst_young", "addr:full": "Isokatu 2", "addr:city": "Kokkola", "addr:postcode": "FI67100", "addr:country": "Finland", "name": "EY", "phone": "+358 40 554 0614", "website": "https://www.ey.com/locations/finland#kokkola", "brand": "Ernst & Young"}, "geometry": {"type": "Point", "coordinates": [23.1319197, 63.8353382]}},
{"type": "Feature", "id": "guz4OsekNZm1hS3iF-WPpLFYnaw=", "properties": {"ref": "finland#kouvola", "@spider": "ernst_young", "addr:full": "Ilmarinkuja 3", "addr:city": "Kouvola", "addr:postcode": "FI45100", "addr:country": "Finland", "name": "EY", "phone": "+358 207 280 190", "website": "https://www.ey.com/locations/finland#kouvola", "brand": "Ernst & Young"}, "geometry": {"type": "Point", "coordinates": [26.7127421, 60.8706274]}},
{"type": "Feature", "id": "5ajr3ceKV79HgGbovqLNST0AeXc=", "properties": {"ref": "finland#kuopio", "@spider": "ernst_young", "addr:full": "Puijonkatu 29 Lt. 4, C-rappu, 2. krs, 70100 Kuopio", "addr:city": "Kuopio", "addr:postcode": "70100", "addr:country": "Finland", "name": "EY", "phone": "+358 400 377 666", "website": "https://www.ey.com/locations/finland#kuopio", "brand": "Ernst & Young"}, "geometry": {"type": "Point", "coordinates": [27.6816073, 62.8944629]}},
{"type": "Feature", "id": "N6hXwE28PyEWHQiKM1oUtoNOlXM=", "properties": {"ref": "finland#lahti", "@spider": "ernst_young", "addr:full": "Aleksanterinkatu 17 A", "addr:city": "Lahti", "addr:postcode": "FI15110", "addr:country": "Finland", "name": "EY", "phone": "+358 207 280 190", "website": "https://www.ey.com/locations/finland#lahti", "brand": "Ernst & Young"}, "geometry": {"type": "Point", "coordinates": [25.6582217, 60.9827896]}},
{"type": "Feature", "id": "Q-WL94EI6B0nmrPPc9egUsuSG84=", "properties": {"ref": "finland#lappeenranta", "@spider": "ernst_young", "addr:full": "Kirkkokatu 14 B", "addr:city": "Lappeenranta", "addr:postcode": "FI53100", "addr:country": "Finland", "name": "EY", "phone": "+358 207 280 190", "website": "https://www.ey.com/locations/finland#lappeenranta", "brand": "Ernst & Young"}, "geometry": {"type": "Point", "coordinates": [28.189387, 61.0581417]}},
{"type": "Feature", "id": "CcuXcQtAIC3uE71CuuhM9ivx5KM=", "properties": {"ref": "finland#oulu-torikatu", "@spider": "ernst_young", "addr:full": "Torikatu 18, 2 krs.", "addr:city": "Oulu", "addr:postcode": "FI90100", "addr:country": "Finland", "name": "Ernst & Young Oy", "phone": "+358 020 728 0190", "website": "https://www.ey.com/locations/finland#oulu-torikatu", "brand": "Ernst & Young"}, "geometry": {"type": "Point", "coordinates": [25.46808, 65.01253]}},
{"type": "Feature", "id": "1KwtlTr1RFNyVON2p22KEfi5wj8=", "properties": {"ref": "finland#pietarsaari", "@spider": "ernst_young", "addr:full": "Runebergsgatan 11", "addr:city": "Pietarsaari", "addr:postcode": "FI68600", "addr:country": "Finland", "name": "EY", "phone": "+358 207 280 190", "website": "https://www.ey.com/locations/finland#pietarsaari", "brand": "Ernst & Young"}, "geometry": {"type": "Point", "coordinates": [22.7059469, 63.6749188]}},
{"type": "Feature", "id": "HtnKueYKXujA3eqWIpdyuNZvLy4=", "properties": {"ref": "finland#rauma", "@spider": "ernst_young", "addr:full": "Valtakatu 9-11", "addr:city": "Rauma", "addr:postcode": "FI26100", "addr:country": "Finland", "name": "EY", "phone": "+358 400 377 700", "website": "https://www.ey.com/locations/finland#rauma", "brand": "Ernst & Young"}, "geometry": {"type": "Point", "coordinates": [21.500045, 61.1312871]}},
{"type": "Feature", "id": "GuCwU3OO-DteYPCI6STfy9fkIYw=", "properties": {"ref": "finland#rovaniemi", "@spider": "ernst_young", "addr:full": "Koskikatu 27 B 502", "addr:city": "Rovaniemi", "addr:postcode": "FI96100", "addr:country": "Finland", "name": "EY", "phone": "+358 20 728 0190", "website": "https://www.ey.com/locations/finland#rovaniemi", "brand": "Ernst & Young"}, "geometry": {"type": "Point", "coordinates": [25.724192, 66.503804]}},
{"type": "Feature", "id": "MfzI2G4EW96bYEsJm4Lfog6qsW0=", "properties": {"ref": "finland#salo", "@spider": "ernst_young", "addr:full": "H\u00e4meentie 9", "addr:city": "Salo", "addr:postcode": "FI24100", "addr:country": "Finland", "name": "EY", "phone": "+358 400 217 777", "website": "https://www.ey.com/locations/finland#salo", "brand": "Ernst & Young"}, "geometry": {"type": "Point", "coordinates": [23.1258075, 60.388304]}},
{"type": "Feature", "id": "1byRh2AIhKFBrVG62XDhY_ptdaE=", "properties": {"ref": "finland#seinaejoki", "@spider": "ernst_young", "addr:full": "Tiedekatu 2 (D-talo)", "addr:city": "Sein\u00e4joki", "addr:postcode": "60320", "addr:country": "Finland", "name": "EY", "phone": "+358 207 280 190", "website": "https://www.ey.com/locations/finland#seinaejoki", "brand": "Ernst & Young"}, "geometry": {"type": "Point", "coordinates": [22.8194192, 62.7866838]}},
{"type": "Feature", "id": "P6NNWBqizXr70ozdPUf48nEyiI4=", "properties": {"ref": "finland#tampere", "@spider": "ernst_young", "addr:full": "Tulli Business Park, \u00c5kerlundinkatu 11 A", "addr:city": "Tampere", "addr:postcode": "FI33100", "addr:country": "Finland", "name": "EY", "phone": "+358 207 280 190", "website": "https://www.ey.com/locations/finland#tampere", "brand": "Ernst & Young"}, "geometry": {"type": "Point", "coordinates": [23.775393, 61.4951655]}},
{"type": "Feature", "id": "IbfH7omXKy6WGobGcdSp6vP5qAY=", "properties": {"ref": "finland#turku", "@spider": "ernst_young", "addr:full": "Linnankatu 3 a B", "addr:city": "Turku", "addr:postcode": "FI20100", "addr:country": "Finland", "name": "EY", "phone": "+358 400 217 777", "website": "https://www.ey.com/locations/finland#turku", "brand": "Ernst & Young"}, "geometry": {"type": "Point", "coordinates": [22.2729683, 60.4517284]}},
{"type": "Feature", "id": "sTI0k_Ux-McerxfNwAxejdFXFSU=", "properties": {"ref": "finland#vaasa", "@spider": "ernst_young", "addr:full": "Ernst & Young Oy, Pitk\u00e4katu 55", "addr:city": "Vaasa", "addr:postcode": "FI-65100", "addr:country": "Finland", "name": "EY", "phone": "+358 207 280 190", "website": "https://www.ey.com/locations/finland#vaasa", "brand": "Ernst & Young"}, "geometry": {"type": "Point", "coordinates": [21.6210323, 63.0940449]}},
{"type": "Feature", "id": "xUix27lKDLXM2X6dvnV_PIDqgcQ=", "properties": {"ref": "finland#varkaus", "@spider": "ernst_young", "addr:full": "Wredenkatu 2", "addr:city": "Varkaus", "addr:postcode": "FI78200", "addr:country": "Finland", "name": "EY", "phone": "+358 400 377 666", "website": "https://www.ey.com/locations/finland#varkaus", "brand": "Ernst & Young"}, "geometry": {"type": "Point", "coordinates": [27.8898196, 62.3115514]}},
{"type": "Feature", "id": "9DNn-MJlQRK8PealzGGE9E5JXco=", "properties": {"ref": "finland#ylivieska", "@spider": "ernst_young", "addr:full": "Juurikoskenkatu 6", "addr:city": "Ylivieska", "addr:postcode": "FI84100", "addr:country": "Finland", "name": "EY", "phone": "+358 405 053 732", "website": "https://www.ey.com/locations/finland#ylivieska", "brand": "Ernst & Young"}, "geometry": {"type": "Point", "coordinates": [24.5362273, 64.0732634]}},
{"type": "Feature", "id": "6nfCisDDFePMw5Uj0qeGwEYN2R8=", "properties": {"ref": "france#bayonne", "@spider": "ernst_young", "addr:full": "Espace Molini\u00e9, 15 All\u00e9e Marines", "addr:city": "Bayonne", "addr:postcode": "64100", "addr:country": "France", "name": "EY", "website": "https://www.ey.com/locations/france#bayonne", "brand": "Ernst & Young"}, "geometry": {"type": "Point", "coordinates": [-1.4815814, 43.4959411]}},
{"type": "Feature", "id": "zoUboIDKs_7-qemMHLuKAk_lb9c=", "properties": {"ref": "france#bordeaux", "@spider": "ernst_young", "addr:full": "Hangar 16, Quai de Bacalan", "addr:city": "Bordeaux", "addr:postcode": "33070", "addr:country": "France", "name": "EY", "phone": "+33 5 57 85 46 00", "website": "https://www.ey.com/locations/france#bordeaux", "brand": "Ernst & Young"}, "geometry": {"type": "Point", "coordinates": [-0.5609708, 44.8567757]}},
{"type": "Feature", "id": "mPiAs6yHgz_b9Sya_sSrnLxtdgs=", "properties": {"ref": "france#60-rue-des-berges", "@spider": "ernst_young", "addr:full": "60 Rue des Berges, Mini Parc Polytec-Batiment Tramontane", "addr:city": "Grenoble", "addr:postcode": "38027", "addr:country": "France", "name": "EY", "phone": "+33 4 76 85 18 00", "website": "https://www.ey.com/locations/france#60-rue-des-berges", "brand": "Ernst & Young"}, "geometry": {"type": "Point", "coordinates": [5.7018477, 45.2047333]}},
{"type": "Feature", "id": "HAAbtDycmA3GSPEeebROs6Kllwk=", "properties": {"ref": "france#60-rue-berges", "@spider": "ernst_young", "addr:full": "60 rue Berges", "addr:city": "Grenoble", "addr:postcode": "38000", "addr:country": "France", "name": "EY", "website": "https://www.ey.com/locations/france#60-rue-berges", "brand": "Ernst & Young"}, "geometry": {"type": "Point", "coordinates": [5.7018643, 45.2047339]}},
{"type": "Feature", "id": "vcKrH-VW4dTpTHD0ZJnJEX32Pfs=", "properties": {"ref": "france#lille", "@spider": "ernst_young", "addr:full": "27bis rue du Vieux Faubourg", "addr:city": "Lille", "addr:postcode": "59000", "addr:country": "France", "name": "EY", "website": "https://www.ey.com/locations/france#lille", "brand": "Ernst & Young"}, "geometry": {"type": "Point", "coordinates": [3.070071, 50.6382438]}},
{"type": "Feature", "id": "zX0PMf17TTLazie5fJNW--H9HD8=", "properties": {"ref": "france#lille-cedex", "@spider": "ernst_young", "addr:full": "14, rue du Vieux Faubourg", "addr:city": "Lille Cedex", "addr:postcode": "59042", "addr:country": "France", "name": "EY", "phone": "+33 3 28 04 35 00", "website": "https://www.ey.com/locations/france#lille-cedex", "brand": "Ernst & Young"}, "geometry": {"type": "Point", "coordinates": [3.0699332, 50.6374611]}},
{"type": "Feature", "id": "T3WyCz576ttGEr5F6hF5htcj5CE=", "properties": {"ref": "france#tour-oxygene", "@spider": "ernst_young", "addr:full": "Tour Oxyg\u00e8ne, 10-12 boulevard Marius Vivier Merle", "addr:city": "Lyon", "addr:postcode": "69393", "addr:country": "France", "name": "EY", "phone": "+33 4 78 63 16 16", "website": "https://www.ey.com/locations/france#tour-oxygene", "brand": "Ernst & Young"}, "geometry": {"type": "Point", "coordinates": [4.8570323, 45.7623071]}},
{"type": "Feature", "id": "okLuSaJ7B9XkGYVz5-tVXrewO7A=", "properties": {"ref": "france#10-boulevard-marius-vivier-merle", "@spider": "ernst_young", "addr:full": "10 boulevard Marius Vivier Merle, Cedex 3", "addr:city": "Lyon", "addr:postcode": "69393", "addr:country": "France", "name": "EY", "website": "https://www.ey.com/locations/france#10-boulevard-marius-vivier-merle", "brand": "Ernst & Young"}, "geometry": {"type": "Point", "coordinates": [4.8582211, 45.7597323]}},
{"type": "Feature", "id": "8aGDxRw7MHo9vWvjS0C_9OtqThM=", "properties": {"ref": "france#immeuble-le-calypso", "@spider": "ernst_young", "addr:full": "Immeuble le Calypso, Quartier Euromed, 48, Quai du Lazaret CS 80471", "addr:city": "Marseille", "addr:postcode": "13217", "addr:country": "France", "name": "EY", "phone": "+33 4 91 23 98 00", "website": "https://www.ey.com/locations/france#immeuble-le-calypso", "brand": "Ernst & Young"}, "geometry": {"type": "Point", "coordinates": [5.3674222, 43.3105416]}},
{"type": "Feature", "id": "-woC7kqvd1jfkigo16alfIay_fk=", "properties": {"ref": "france#48-quai-lazaret", "@spider": "ernst_young", "addr:full": "48 Quai Lazaret, CEDEX08", "addr:city": "Marseille", "addr:postcode": "13267", "addr:country": "France", "name": "EY", "website": "https://www.ey.com/locations/france#48-quai-lazaret", "brand": "Ernst & Young"}, "geometry": {"type": "Point", "coordinates": [5.3673614, 43.3110683]}},
{"type": "Feature", "id": "TpobXRVRkWUVPKfjNKCqREvcheY=", "properties": {"ref": "france#monaco", "@spider": "ernst_young", "addr:full": "7 rue de l'Industrie, Immeuble le Mercator", "addr:city": "Monaco", "addr:postcode": "98000", "addr:country": "France", "name": "EY", "website": "https://www.ey.com/locations/france#monaco", "brand": "Ernst & Young"}, "geometry": {"type": "Point", "coordinates": [7.4288358, 43.743414]}},
{"type": "Feature", "id": "kkLgu_r1ujW_8_Z49S9ajPwpoD8=", "properties": {"ref": "france#ey-montpellier-immeuble-le-blasco", "@spider": "ernst_young", "addr:full": "Immeuble Le Blasco 966, avenue Raymond Dugrand CS 66014", "addr:city": "Montpellier", "addr:postcode": "34060 ", "addr:country": "France", "name": "EY", "phone": "+33 4 67 13 31 00", "website": "https://www.ey.com/locations/france#ey-montpellier-immeuble-le-blasco", "brand": "Ernst & Young"}, "geometry": {"type": "Point", "coordinates": [3.9172148, 43.6090869]}},
{"type": "Feature", "id": "dLOiZ8tPSTQoR21sLHXh67D5Kqo=", "properties": {"ref": "france#nancy", "@spider": "ernst_young", "addr:full": "96 rue Saint Georges", "addr:city": "Nancy", "addr:postcode": "54000", "addr:country": "France", "name": "EY", "phone": "+33 3 83 36 30 30", "website": "https://www.ey.com/locations/france#nancy", "brand": "Ernst & Young"}, "geometry": {"type": "Point", "coordinates": [6.1892901, 48.6928036]}},
{"type": "Feature", "id": "YLWbMcvSdd7SYg-5m1283WeermE=", "properties": {"ref": "france#nantes", "@spider": "ernst_young", "addr:full": "3 Rue Emile Masson", "addr:city": "Nantes", "addr:postcode": "44000", "addr:country": "France", "name": "EY", "phone": "+33 2 51 17 43 00", "website": "https://www.ey.com/locations/france#nantes", "brand": "Ernst & Young"}, "geometry": {"type": "Point", "coordinates": [-1.5468656, 47.2137981]}},
{"type": "Feature", "id": "6Z2HJpQTBT8aNGU_QEWRjZFzCGY=", "properties": {"ref": "france#noumea", "@spider": "ernst_young", "addr:full": "9 Ter rue Jules Garnier, Immeuble le Bay view, Baie de, l'orphelinat, B.P. 9087", "addr:city": "Noum\u00e9a", "addr:postcode": "98807", "addr:country": "France", "name": "EY", "website": "https://www.ey.com/locations/france#noumea", "brand": "Ernst & Young"}, "geometry": {"type": "Point", "coordinates": [166.4346161, -22.2880609]}},
{"type": "Feature", "id": "ybQ7wNX90EhJOdZAufIvysYtv8g=", "properties": {"ref": "france#ey-parthenon-paris", "@spider": "ernst_young", "addr:full": "2 avenue Hoche", "addr:city": "Paris", "addr:postcode": "75008", "addr:country": "France", "name": "EY-Parthenon Paris", "phone": "+ 33 1 58 56 18 00", "website": "https://www.ey.com/locations/france#ey-parthenon-paris", "brand": "Ernst & Young"}, "geometry": {"type": "Point", "coordinates": [2.304369, 48.878455]}},
{"type": "Feature", "id": "ztIKFULve3LjwhM_Xsx7cgoULaY=", "properties": {"ref": "france#paris-la-defense", "@spider": "ernst_young", "addr:full": "Tour First, 1 place des Saisons, TSA 14444", "addr:city": "Paris La D\u00e9fense", "addr:postcode": "92037", "addr:country": "France", "name": "EY", "website": "https://www.ey.com/locations/france#paris-la-defense", "brand": "Ernst & Young"}, "geometry": {"type": "Point", "coordinates": [2.2517718, 48.8885516]}},
{"type": "Feature", "id": "AVQYDXILXSnl23t65tInF0d7VX4=", "properties": {"ref": "france#paris-la-defense-wavespace", "@spider": "ernst_young", "addr:full": "Tour First, 1 place des Saisons, TSA 14444", "addr:city": "Paris La D\u00e9fense", "addr:postcode": "92037 Cedex", "addr:country": "France", "name": "EY Lab", "website": "https://www.ey.com/locations/france#paris-la-defense-wavespace", "brand": "Ernst & Young"}, "geometry": {"type": "Point", "coordinates": [2.251869, 48.889064]}},
{"type": "Feature", "id": "pnnwzty-W9noDH_kY8tM0WibhGs=", "properties": {"ref": "france#ey-parthenon-", "@spider": "ernst_young", "addr:full": "Tour First, 1 place des Saisons, TSA 14444", "addr:city": "Paris La D\u00e9fense", "addr:postcode": "92037", "addr:country": "France", "name": "EY Parthenon", "phone": "+33 1 46 93 60 00", "website": "https://www.ey.com/locations/france#ey-parthenon-", "brand": "Ernst & Young"}, "geometry": {"type": "Point", "coordinates": [2.2517718, 48.8885516]}},
{"type": "Feature", "id": "oLeiojQoTBAUkZbjevWKzqAtPk8=", "properties": {"ref": "france#rennes", "@spider": "ernst_young", "addr:full": "Immeuble EOLIOS, 3 rue Louis Braille, CS 10847", "addr:city": "Rennes", "addr:postcode": "35000", "addr:country": "France", "name": "EY", "phone": "+33 2 99 57 26 00", "website": "https://www.ey.com/locations/france#rennes", "brand": "Ernst & Young"}, "geometry": {"type": "Point", "coordinates": [-1.7059007, 48.0922437]}},
{"type": "Feature", "id": "1uJkxmPhwERrOeeCvS7fpmUYJHY=", "properties": {"ref": "france#400-promenade-des-anglais", "@spider": "ernst_young", "addr:full": "400 Promenade des Anglais, BP 33124", "addr:city": "Sophia Antipolis", "addr:postcode": "06200", "addr:country": "France", "name": "EY", "phone": "+33497188080", "website": "https://www.ey.com/locations/france#400-promenade-des-anglais", "brand": "Ernst & Young"}, "geometry": {"type": "Point", "coordinates": [7.2207335, 43.6693441]}},
{"type": "Feature", "id": "tLYP66q3Ua56S-3jfmEI84Hr68A=", "properties": {"ref": "france#100-rue-albert-caquot", "@spider": "ernst_young", "addr:full": "100 rue Albert Caquot, Espace Berlioz", "addr:city": "Sophia Antipolis", "addr:postcode": "06410", "addr:country": "France", "name": "EY", "website": "https://www.ey.com/locations/france#100-rue-albert-caquot", "brand": "Ernst & Young"}, "geometry": {"type": "Point", "coordinates": [7.056839, 43.618942]}},
{"type": "Feature", "id": "VuzcohTwhAGqKDugSuM0L-zbvPo=", "properties": {"ref": "france#strasbourg", "@spider": "ernst_young", "addr:full": "Tour Europe, 20, place des Halles", "addr:city": "Strasbourg", "addr:postcode": "67081", "addr:country": "France", "name": "EY", "phone": "+33 3 88 15 24 40", "website": "https://www.ey.com/locations/france#strasbourg", "brand": "Ernst & Young"}, "geometry": {"type": "Point", "coordinates": [7.742601000000001, 48.587248]}},
{"type": "Feature", "id": "QbTCc91OC8r6C_k-gLoO_10J5ss=", "properties": {"ref": "france#toulouse", "@spider": "ernst_young", "addr:full": "Le Compans, Immeuble B, 1, place Alfonse Jourdain", "addr:city": "Toulouse", "addr:postcode": "31000", "addr:country": "France", "name": "EY", "phone": "+33 5 62 15 43 43", "website": "https://www.ey.com/locations/france#toulouse", "brand": "Ernst & Young"}, "geometry": {"type": "Point", "coordinates": [1.4301607, 43.6107468]}},
{"type": "Feature", "id": "NWv73cwhybMqhnyVYH7GJJt3c4o=", "properties": {"ref": "france#400-promenade-des-anglais--bp-33124", "@spider": "ernst_young", "addr:full": "400 Promenade des Anglais, BP 33124", "addr:city": "Nice", "addr:postcode": "06200", "addr:country": "France", "name": "EY", "phone": "+33497188080", "website": "https://www.ey.com/locations/france#400-promenade-des-anglais--bp-33124", "brand": "Ernst & Young"}, "geometry": {"type": "Point", "coordinates": [7.2207335, 43.6693441]}},
{"type": "Feature", "id": "t2sWMqplwWnsTF-6KQExmAVVrcA=", "properties": {"ref": "gabon#libreville", "@spider": "ernst_young", "addr:full": "Etages 2-3, Immeuble Premium, Avenue Du Colonel Parant, Centre-Ville", "addr:city": "Libreville", "addr:postcode": "B.P. 2278", "addr:country": "Gabon", "name": "EY", "phone": "00241 11 76 20 67 ", "website": "https://www.ey.com/locations/gabon#libreville", "brand": "Ernst & Young"}, "geometry": {"type": "Point", "coordinates": [9.447444, 0.386083]}},
{"type": "Feature", "id": "OieGQNlXszpYoEuqcYoGViRaRp8=", "properties": {"ref": "georgia#tbilisi", "@spider": "ernst_young", "addr:full": "Kote Abkhazi Street 44", "addr:city": "Tbilisi", "addr:postcode": "0105", "addr:country": "Georgia", "name": "EY", "phone": "+995 (32) 215 8811", "website": "https://www.ey.com/locations/georgia#tbilisi", "brand": "Ernst & Young"}, "geometry": {"type": "Point", "coordinates": [44.80876, 41.690146]}},
{"type": "Feature", "id": "Fvtm9v1pvdsZD_Q41is6maN_0LU=", "properties": {"ref": "germany#berlin", "@spider": "ernst_young", "addr:full": "Friedrichstra\u00dfe 140", "addr:city": "Berlin", "addr:postcode": "10117", "addr:country": "Germany", "name": "EY", "phone": "+49 30 25471 0", "website": "https://www.ey.com/locations/germany#berlin", "brand": "Ernst & Young"}, "geometry": {"type": "Point", "coordinates": [13.3877285, 52.5210703]}},
{"type": "Feature", "id": "e7eo6gdmbuJF8PzNvheKomWrUlY=", "properties": {"ref": "germany#berlin-wavesapce-1", "@spider": "ernst_young", "addr:full": "Mitte, Friedrichstra\u00dfe 140", "addr:city": "Berlin", "addr:postcode": "10117", "addr:country": "Germany", "name": "EY wavespace Berlin", "website": "https://www.ey.com/locations/germany#berlin-wavesapce-1", "brand": "Ernst & Young"}, "geometry": {"type": "Point", "coordinates": [13.387473, 52.521303]}},
{"type": "Feature", "id": "GWSDPjtuu0y5fTTupQzIsl16nU8=", "properties": {"ref": "germany#berlin-wavespace-2", "@spider": "ernst_young", "addr:full": "Kreuzberg, Ritterstra\u00dfe 24-27", "addr:city": "Berlin", "addr:postcode": "10969", "addr:country": "Germany", "name": "EY wavespace Berlin", "website": "https://www.ey.com/locations/germany#berlin-wavespace-2", "brand": "Ernst & Young"}, "geometry": {"type": "Point", "coordinates": [13.407892, 52.502485]}},
{"type": "Feature", "id": "1BMpADg7JbPtfJos5Ukro2nT_Ts=", "properties": {"ref": "germany#bremen", "@spider": "ernst_young", "addr:full": "Lloydstra\u00dfe 4-6", "addr:city": "Bremen", "addr:postcode": "28217", "addr:country": "Germany", "name": "EY", "phone": "+49 421 33 574 0", "website": "https://www.ey.com/locations/germany#bremen", "brand": "Ernst & Young"}, "geometry": {"type": "Point", "coordinates": [8.7878958, 53.0842977]}},
{"type": "Feature", "id": "5wuuKakO9bjoNibOcMrCUaYtvWk=", "properties": {"ref": "germany#dortmund", "@spider": "ernst_young", "addr:full": "Westfalendamm 11", "addr:city": "Dortmund", "addr:postcode": "44141", "addr:country": "Germany", "name": "EY", "phone": "+49 231 55011 0", "website": "https://www.ey.com/locations/germany#dortmund", "brand": "Ernst & Young"}, "geometry": {"type": "Point", "coordinates": [7.4851706, 51.5008202]}},
{"type": "Feature", "id": "67kZSENUle2IZkLsZHbls-gHmA0=", "properties": {"ref": "germany#dresden", "@spider": "ernst_young", "addr:full": "Forststra\u00dfe 2", "addr:city": "Dresden", "addr:postcode": "01099", "addr:country": "Germany", "name": "EY", "phone": "+49 351 4840 0", "website": "https://www.ey.com/locations/germany#dresden", "brand": "Ernst & Young"}, "geometry": {"type": "Point", "coordinates": [13.7635628, 51.0654414]}},
{"type": "Feature", "id": "4sP3QLpUBTU49wsJBYrjYM6N0tM=", "properties": {"ref": "germany#duesseldorf", "@spider": "ernst_young", "addr:full": "Graf-Adolf-Platz 15", "addr:city": "D\u00fcsseldorf", "addr:postcode": "40213", "addr:country": "Germany", "name": "EY", "phone": "+49 211 9352 0", "website": "https://www.ey.com/locations/germany#duesseldorf", "brand": "Ernst & Young"}, "geometry": {"type": "Point", "coordinates": [6.7762807, 51.2193324]}},
{"type": "Feature", "id": "SOc1OHYWXziYrWJl-kY_ca9JeI8=", "properties": {"ref": "germany#eschborn-frankfurt-main", "@spider": "ernst_young", "addr:full": "Mergenthalerallee 3-5", "addr:city": "Eschborn/Frankfurt (Main)", "addr:postcode": "65760", "addr:country": "Germany", "name": "EY", "phone": "+49 6196 996 0", "website": "https://www.ey.com/locations/germany#eschborn-frankfurt-main", "brand": "Ernst & Young"}, "geometry": {"type": "Point", "coordinates": [8.56837599, 50.1330871]}},
{"type": "Feature", "id": "6_9kAG39LRC6f28J4WJdxmdyzeg=", "properties": {"ref": "germany#essen", "@spider": "ernst_young", "addr:full": "Wittekindstrasse 1 A", "addr:city": "Essen", "addr:postcode": "45131", "addr:country": "Germany", "name": "EY", "phone": "+49 201 2421 0", "website": "https://www.ey.com/locations/germany#essen", "brand": "Ernst & Young"}, "geometry": {"type": "Point", "coordinates": [7.00712, 51.42955]}},
{"type": "Feature", "id": "HZPUOxlwBeRRtZjMxcV1j1yHvaw=", "properties": {"ref": "germany#freiburg", "@spider": "ernst_young", "addr:full": "Bismarckallee 15", "addr:city": "Freiburg", "addr:postcode": "79098", "addr:country": "Germany", "name": "EY", "phone": "+49 761 1508 0", "website": "https://www.ey.com/locations/germany#freiburg", "brand": "Ernst & Young"}, "geometry": {"type": "Point", "coordinates": [7.8430127, 47.9987722]}},
{"type": "Feature", "id": "ZoNd_otmVew9dwIuZ6TbjtSySmM=", "properties": {"ref": "germany#hamburg", "@spider": "ernst_young", "addr:full": "Rothenbaumchaussee 78", "addr:city": "Hamburg", "addr:postcode": "20148", "addr:country": "Germany", "name": "EY", "phone": "+49 40 36132 0", "website": "https://www.ey.com/locations/germany#hamburg", "brand": "Ernst & Young"}, "geometry": {"type": "Point", "coordinates": [9.98916, 53.57147]}},
{"type": "Feature", "id": "h8jz8iaDS7tueKleVhGiTJAlurA=", "properties": {"ref": "germany#ey-parthenon-gmbh", "@spider": "ernst_young", "addr:full": "Stra\u00dfenbahnring 3", "addr:city": "Hamburg", "addr:postcode": "20251", "addr:country": "Germany", "name": "EY-Parthenon GmbH", "website": "https://www.ey.com/locations/germany#ey-parthenon-gmbh", "brand": "Ernst & Young"}, "geometry": {"type": "Point", "coordinates": [9.97758, 53.581403]}},
{"type": "Feature", "id": "kpLNpWLDkA9Y5gomQy2TCEd-9DA=", "properties": {"ref": "germany#hannover", "@spider": "ernst_young", "addr:full": "Landschaftstra\u00dfe 8", "addr:city": "Hannover", "addr:postcode": "30159", "addr:country": "Germany", "name": "EY", "phone": "+49 511 8508 0", "website": "https://www.ey.com/locations/germany#hannover", "brand": "Ernst & Young"}, "geometry": {"type": "Point", "coordinates": [9.7432254, 52.3723843]}},
{"type": "Feature", "id": "njk6z7ZZpxnr-VJTmMRgxD2N3cM=", "properties": {"ref": "germany#titotstrasse-8", "@spider": "ernst_young", "addr:full": "Titotstrasse 8", "addr:city": "Heilbronn", "addr:postcode": "74072", "addr:country": "Germany", "name": "EY", "phone": "+49 7131 9391 0", "website": "https://www.ey.com/locations/germany#titotstrasse-8", "brand": "Ernst & Young"}, "geometry": {"type": "Point", "coordinates": [9.2220856, 49.1404939]}},
{"type": "Feature", "id": "PSv6SgTGGOeRj-DxNQgRtEcP0bo=", "properties": {"ref": "germany#titotstrasse-14", "@spider": "ernst_young", "addr:full": "Titotstrasse 14", "addr:city": "Heilbronn", "addr:postcode": "74072", "addr:country": "Germany", "name": "EY", "phone": "+49 7131 9391 0", "website": "https://www.ey.com/locations/germany#titotstrasse-14", "brand": "Ernst & Young"}, "geometry": {"type": "Point", "coordinates": [9.2237428, 49.1401535]}},
{"type": "Feature", "id": "Fklldhl3-iG4olr1NS-tA-7ML3c=", "properties": {"ref": "germany#koeln", "@spider": "ernst_young", "addr:full": "B\u00f6rsenplatz 1", "addr:city": "K\u00f6ln", "addr:postcode": "50667", "addr:country": "Germany", "name": "EY", "phone": "+49 221 2779 0", "website": "https://www.ey.com/locations/germany#koeln", "brand": "Ernst & Young"}, "geometry": {"type": "Point", "coordinates": [6.95160449, 50.9438403]}},
{"type": "Feature", "id": "YaW6dd4v9iNyOfOXK0KviSDBMoM=", "properties": {"ref": "germany#leipzig", "@spider": "ernst_young", "addr:full": "Grimmaische Strasse 25", "addr:city": "Leipzig", "addr:postcode": "04109", "addr:country": "Germany", "name": "EY", "phone": "+49 341 2526 0", "website": "https://www.ey.com/locations/germany#leipzig", "brand": "Ernst & Young"}, "geometry": {"type": "Point", "coordinates": [12.3787329, 51.33985]}},
{"type": "Feature", "id": "28urYSOvS5wCN3Pz1fdKQaUYcXg=", "properties": {"ref": "germany#gluecksteinallee-1", "@spider": "ernst_young", "addr:full": "Gl\u00fccksteinallee 1", "addr:city": "Mannheim", "addr:postcode": "68163", "addr:country": "Germany", "name": "EY", "phone": "+49 621 4208 0", "website": "https://www.ey.com/locations/germany#gluecksteinallee-1", "brand": "Ernst & Young"}, "geometry": {"type": "Point", "coordinates": [8.468573, 49.477973]}},
{"type": "Feature", "id": "kvAEM7Tdsl4UbccvLoPGhfSijZ4=", "properties": {"ref": "germany#willy-brandt-platz-5", "@spider": "ernst_young", "addr:full": "Willy-Brandt-Platz 5", "addr:city": "Mannheim", "addr:postcode": "68161", "addr:country": "Germany", "name": "EY", "phone": "+49 621 4208 45400", "website": "https://www.ey.com/locations/germany#willy-brandt-platz-5", "brand": "Ernst & Young"}, "geometry": {"type": "Point", "coordinates": [8.47097, 49.48009]}},
{"type": "Feature", "id": "7TUg9sbo0Tglj0DkWEaXXdgHm2g=", "properties": {"ref": "germany#muenchen", "@spider": "ernst_young", "addr:full": "Arnulfstra\u00dfe 59", "addr:city": "Munich", "addr:postcode": "80636", "addr:country": "Germany", "name": "EY", "phone": "+49 89 14331 0", "website": "https://www.ey.com/locations/germany#muenchen", "brand": "Ernst & Young"}, "geometry": {"type": "Point", "coordinates": [11.5375297, 48.145806]}},
{"type": "Feature", "id": "4NL4D9qAkqJYoVyc4EExt8GnZ7U=", "properties": {"ref": "germany#ey-wavespace-munich", "@spider": "ernst_young", "addr:full": "Arnulfstrasse 59", "addr:city": "Munich", "addr:postcode": "80636", "addr:country": "Germany", "name": "EY wavespace Munich", "website": "https://www.ey.com/locations/germany#ey-wavespace-munich", "brand": "Ernst & Young"}, "geometry": {"type": "Point", "coordinates": [11.5356235, 48.1457398]}},
{"type": "Feature", "id": "V5pP2LlJC7LjnJXF_jTwtWC3Yd8=", "properties": {"ref": "germany#nuernberg", "@spider": "ernst_young", "addr:full": "Am Tullnaupark 8", "addr:city": "N\u00fcrnberg", "addr:postcode": "90402", "addr:country": "Germany", "name": "EY", "phone": "+49 911 3958 0", "website": "https://www.ey.com/locations/germany#nuernberg", "brand": "Ernst & Young"}, "geometry": {"type": "Point", "coordinates": [11.1021848, 49.450148]}},
{"type": "Feature", "id": "iGzoAZOK8N1nmwQ-amGK1iG6f08=", "properties": {"ref": "germany#ravensburg", "@spider": "ernst_young", "addr:full": "Parkstra\u00dfe 40", "addr:city": "Ravensburg", "addr:postcode": "88212", "addr:country": "Germany", "name": "EY", "phone": "+49 751 3551 0", "website": "https://www.ey.com/locations/germany#ravensburg", "brand": "Ernst & Young"}, "geometry": {"type": "Point", "coordinates": [9.6218536, 47.7905662]}},
{"type": "Feature", "id": "TbG2A-cgENXCv7T1IxJ_up8iwHE=", "properties": {"ref": "germany#saarbruecken", "@spider": "ernst_young", "addr:full": "Heinrich-B\u00f6cking-Stra\u00dfe 6-8", "addr:city": "Saarbr\u00fccken", "addr:postcode": "66121", "addr:country": "Germany", "name": "EY", "phone": "+49 681 2104 0", "website": "https://www.ey.com/locations/germany#saarbruecken", "brand": "Ernst & Young"}, "geometry": {"type": "Point", "coordinates": [7.0113163, 49.2262688]}},
{"type": "Feature", "id": "FDJS6QayF4xmUq2puqPS93jFF5Y=", "properties": {"ref": "germany#stuttgart", "@spider": "ernst_young", "addr:full": "Flughafenstra\u00dfe 61", "addr:city": "Stuttgart", "addr:postcode": "70629", "addr:country": "Germany", "name": "EY", "phone": "+49 711 9881 0", "website": "https://www.ey.com/locations/germany#stuttgart", "brand": "Ernst & Young"}, "geometry": {"type": "Point", "coordinates": [9.1963245, 48.6926567]}},
{"type": "Feature", "id": "k2VIjWuDGWSq99jiM1NxtHlFVC8=", "properties": {"ref": "germany#villingen-schwenningen", "@spider": "ernst_young", "addr:full": "Max-Planck-Strasse 11", "addr:city": "Villingen-Schwenningen", "addr:postcode": "78052", "addr:country": "Germany", "name": "EY", "phone": "+49 7721 801 0", "website": "https://www.ey.com/locations/germany#villingen-schwenningen", "brand": "Ernst & Young"}, "geometry": {"type": "Point", "coordinates": [8.448140000000002, 48.07903]}},
{"type": "Feature", "id": "sG0iiwq010S-s-Ye5zM3Da3QHFc=", "properties": {"ref": "ghana#accra", "@spider": "ernst_young", "addr:full": "60 Rangoon Lane, Cantonments City", "addr:city": "Accra", "addr:country": "Ghana", "name": "EY", "phone": "0302772001", "website": "https://www.ey.com/locations/ghana#accra", "brand": "Ernst & Young"}, "geometry": {"type": "Point", "coordinates": [-0.18152380022125691, 5.574241130384726]}},
{"type": "Feature", "id": "OZmqw5QDT58avYo6Lo5fD3VkUbE=", "properties": {"ref": "gibraltar#gibraltar", "@spider": "ernst_young", "addr:full": "Regal House Queensway", "addr:city": "Gibraltar", "addr:postcode": "GX111AA", "addr:country": "Gibraltar", "name": "EY", "phone": "+350 200 13 200", "website": "https://www.ey.com/locations/gibraltar#gibraltar", "brand": "Ernst & Young"}, "geometry": {"type": "Point", "coordinates": [-5.355054, 36.142949]}},
{"type": "Feature", "id": "pfnWZUt9PRVJKu93oIBn8fwmuvo=", "properties": {"ref": "greece#athens", "@spider": "ernst_young", "addr:full": "8B Chimarras Str., Maroussi", "addr:city": "Athens", "addr:postcode": "15125", "addr:country": "Greece", "name": "EY", "phone": "+30 210 2886000", "website": "https://www.ey.com/locations/greece#athens", "brand": "Ernst & Young"}, "geometry": {"type": "Point", "coordinates": [23.8054456, 38.0408603]}},
{"type": "Feature", "id": "jCNPztEsG_VGkZtDbeM9hjf3WBY=", "properties": {"ref": "greece#thessaloniki", "@spider": "ernst_young", "addr:full": "4, Polytechneiou Street", "addr:city": "Thessaloniki", "addr:postcode": "54626", "addr:country": "Greece", "name": "EY", "phone": "+30 2310512515", "website": "https://www.ey.com/locations/greece#thessaloniki", "brand": "Ernst & Young"}, "geometry": {"type": "Point", "coordinates": [22.9349869, 40.6369443]}},
{"type": "Feature", "id": "MuL6bb9Z8z1ZrQCb2IGX-f1cvH0=", "properties": {"ref": "greenland#nuuk", "@spider": "ernst_young", "addr:full": "Postboks 370, Aqqusinersuaq 3A, 1. sal", "addr:city": "Nuuk", "addr:postcode": "3900", "addr:country": "Greenland", "name": "EY Gr\u00f8nland Godkendt Revisionsanpartsselskab", "phone": "+299 55 22 49", "website": "https://www.ey.com/locations/greenland#nuuk", "brand": "Ernst & Young"}, "geometry": {"type": "Point", "coordinates": [-51.7369956, 64.1741569]}},
{"type": "Feature", "id": "EQ8F-dPD6kn0-tslv1mkUG-713c=", "properties": {"ref": "guam#tamuning", "@spider": "ernst_young", "addr:full": "EY Building ,Suite 201, 231 Ypao Road", "addr:city": "Tamuning", "addr:postcode": "96913", "addr:country": "Guam", "name": "EY", "phone": "+671 649 3700", "website": "https://www.ey.com/locations/guam#tamuning", "brand": "Ernst & Young"}, "geometry": {"type": "Point", "coordinates": [144.7895321, 13.4943698]}},
{"type": "Feature", "id": "DJ8mdutg3TekOGHJPAHYnQkfpYE=", "properties": {"ref": "guatemala#ciudad-de-guatemala", "@spider": "ernst_young", "addr:full": "Europlaza World Business Center, Penthouse Torre I , Pisos 19 y 20, 5 avenida 5-55 zona 14", "addr:city": "Ciudad de Guatemala", "addr:postcode": "01014", "addr:country": "Guatemala", "name": "EY", "phone": "+502 2386 2400", "website": "https://www.ey.com/locations/guatemala#ciudad-de-guatemala", "brand": "Ernst & Young"}, "geometry": {"type": "Point", "coordinates": [-90.5140447, 14.5874622]}},
{"type": "Feature", "id": "NYK05mzj9jQ3LkDiV96kxO3oGaI=", "properties": {"ref": "guatemala#chimaltenango", "@spider": "ernst_young", "addr:full": "1ra calle, 9-200, zona 3 Chimaltenango, Guatemala", "addr:city": "Ciudad de Guatemala", "addr:country": "Guatemala", "name": "EY", "phone": "(502) 2386-2400", "website": "https://www.ey.com/locations/guatemala#chimaltenango", "brand": "Ernst & Young"}, "geometry": {"type": "Point", "coordinates": [-90.83161, 14.661568]}},
{"type": "Feature", "id": "zQxhYGDxsSgYb02Ko4udlAVA4lo=", "properties": {"ref": "guatemala#chimaltenango0", "@spider": "ernst_young", "addr:full": "Chimaltenango, Zona 3, 1\u00aa calle 9-200, Ciudad de Chimaltenango, Chimaltenango", "addr:city": "Ciudad de Guatemala", "addr:postcode": "4001", "addr:country": "Guatemala", "name": "Chimaltenango", "phone": "(502) 23862400", "website": "https://www.ey.com/locations/guatemala#chimaltenango0", "brand": "Ernst & Young"}, "geometry": {"type": "Point", "coordinates": [-90.831665, 14.662024]}},
{"type": "Feature", "id": "9qTshgYUxYBvH99-Wam75-CysTU=", "properties": {"ref": "guernsey#st-peter-port", "@spider": "ernst_young", "addr:full": "Royal Chambers, St. Julians Avenue", "addr:city": "St. Peter Port", "addr:postcode": "GY1 4AF", "addr:country": "Guernsey", "name": "EY", "phone": "+44 1481 717400", "website": "https://www.ey.com/locations/guernsey#st-peter-port", "brand": "Ernst & Young"}, "geometry": {"type": "Point", "coordinates": [-2.5356521, 49.459102]}},
{"type": "Feature", "id": "0UdArbuggFEBJCbKFh3putWJ6fI=", "properties": {"ref": "guinea#conakry", "@spider": "ernst_young", "addr:full": "Immeuble de l'Archev\u00each\u00e9, Corniche Sud, Port de p\u00eache artisanal de T\u00e9min\u00e9taye", "addr:city": "Conakry", "addr:country": "Guinea", "name": "EY", "phone": "+224 30 41 21 82", "website": "https://www.ey.com/locations/guinea#conakry", "brand": "Ernst & Young"}, "geometry": {"type": "Point", "coordinates": [-13.6812696, 9.5277527]}},
{"type": "Feature", "id": "ld55X5YoOzkQ1vY2j_oeXJtF_oQ=", "properties": {"ref": "guyana#georgetown", "@spider": "ernst_young", "addr:full": "The Pegasus Hotel, Suite 100 Seawall Road Kingston", "addr:city": "Georgetown", "addr:country": "Guyana", "name": "EY", "phone": "+011 (592) 225 2835", "website": "https://www.ey.com/locations/guyana#georgetown", "brand": "Ernst & Young"}, "geometry": {"type": "Point", "coordinates": [-58.1618232, 6.82521599]}},
{"type": "Feature", "id": "kHKhdam9zmISDKhespbYqs5sffw=", "properties": {"ref": "honduras#san-pedro-sula", "@spider": "ernst_young", "addr:full": "Altia Business Park, Torre 1, Km. 2, N.O., Boulevard Armenta, Piso 4, local 4E", "addr:city": "San Pedro Sula", "addr:country": "Honduras", "name": "EY", "phone": "+ 504 2580 7921", "website": "https://www.ey.com/locations/honduras#san-pedro-sula", "brand": "Ernst & Young"}, "geometry": {"type": "Point", "coordinates": [-88.0213275, 15.5616862]}},
{"type": "Feature", "id": "_nVC70DYAUBy-E3pBnwRBzGpebU=", "properties": {"ref": "honduras#tegucigalpa", "@spider": "ernst_young", "addr:full": "Centro Corporativo Los Pr\u00f3ceres, Torre 1, Piso 1, Oficina 1. Avenida La Paz, Tegucigalpa, Honduras", "addr:city": "Tegucigalpa", "addr:country": "Honduras", "name": "EY", "phone": "(504) 2232-9100 ext.:1900 ", "website": "https://www.ey.com/locations/honduras#tegucigalpa", "brand": "Ernst & Young"}, "geometry": {"type": "Point", "coordinates": [-87.178164, 14.102916]}},
{"type": "Feature", "id": "4JFRuGX8tSlB21cliygcXNFqnkM=", "properties": {"ref": "hungary#budapest", "@spider": "ernst_young", "addr:full": "1132 Budapest, V\u00e1ci \u00fat 20.", "addr:city": "Budapest", "addr:country": "Hungary", "name": "EY", "phone": "+36 1 451 8100", "website": "https://www.ey.com/locations/hungary#budapest", "brand": "Ernst & Young"}, "geometry": {"type": "Point", "coordinates": [19.0581187, 47.5141269]}},
{"type": "Feature", "id": "DxEEL0qNWgaeFmv9jxSdt0xCZV0=", "properties": {"ref": "hungary#debrecen", "@spider": "ernst_young", "addr:full": "4025 Debrecen, Piac utca 77.", "addr:city": "Debrecen", "addr:country": "Hungary", "name": "EY", "phone": "+36706409791", "website": "https://www.ey.com/locations/hungary#debrecen", "brand": "Ernst & Young"}, "geometry": {"type": "Point", "coordinates": [21.62635508866078, 47.52525095483332]}},
{"type": "Feature", "id": "o7-c2Cw5LtV8U6aL0gPZgS1J5Hc=", "properties": {"ref": "hungary#ey-pecs", "@spider": "ernst_young", "addr:full": "2, J\u00f3kai square", "addr:city": "P\u00e9cs", "addr:postcode": "7621", "addr:country": "Hungary", "name": "EY", "website": "https://www.ey.com/locations/hungary#ey-pecs", "brand": "Ernst & Young"}, "geometry": {"type": "Point", "coordinates": [18.228127338612317, 46.07563178837654]}},
{"type": "Feature", "id": "HCPd9WmVreYN8dOQhGf4_rRIyVc=", "properties": {"ref": "iceland#reykjavik", "@spider": "ernst_young", "addr:full": "Borgart\u00fan 30", "addr:city": "Reykjav\u00edk", "addr:postcode": "105", "addr:country": "Iceland", "name": "EY", "phone": "+354 5952500", "website": "https://www.ey.com/locations/iceland#reykjavik", "brand": "Ernst & Young"}, "geometry": {"type": "Point", "coordinates": [-21.8991903, 64.1459488]}},
{"type": "Feature", "id": "vsxwaZsaJins7iqC8KaGNhClrVU=", "properties": {"ref": "india#ahmedabad", "@spider": "ernst_young", "addr:full": "22nd Floor, B Wing, Privilon,  Ambli BRT Road, Behind Iskcon Temple, Off SG Highway", "addr:city": "Ahmedabad", "addr:postcode": "380 059", "addr:country": "India", "name": "EY", "phone": "+91 79 6608 3800", "website": "https://www.ey.com/locations/india#ahmedabad", "brand": "Ernst & Young"}, "geometry": {"type": "Point", "coordinates": [72.5511266, 23.0218981]}},
{"type": "Feature", "id": "kK2H88eoIf65AX2hpTas4c8kqNI=", "properties": {"ref": "india#ub-city-canberra-block", "@spider": "ernst_young", "addr:full": "6th, 12th & 13th floor, \"UB City\"Canberra Block, No.24, Vittal Mallya Road", "addr:city": "Bengaluru", "addr:postcode": "560001", "addr:country": "India", "name": "EY", "phone": "+91 80 6727 5000", "website": "https://www.ey.com/locations/india#ub-city-canberra-block", "brand": "Ernst & Young"}, "geometry": {"type": "Point", "coordinates": [77.5960762, 12.9718231]}},
{"type": "Feature", "id": "uI772h5J2U_i_-fx3pwD0rGDORg=", "properties": {"ref": "india#divyasree-chambers", "@spider": "ernst_young", "addr:full": "Ground Floor, \u2018A\u2019 wing, Divyasree Chambers,  # 11, O\u2019Shaughnessy Road, Langford Gardens", "addr:city": "Bengaluru", "addr:postcode": "560025", "addr:country": "India", "name": "EY", "phone": "+91 80 6727 5000", "website": "https://www.ey.com/locations/india#divyasree-chambers", "brand": "Ernst & Young"}, "geometry": {"type": "Point", "coordinates": [77.5996331, 12.9618989]}},
{"type": "Feature", "id": "shW9doXxqC6Bclx6gc9bm-qQaps=", "properties": {"ref": "india#chandigarh", "@spider": "ernst_young", "addr:full": "ELANTE OFFICES, Unit No. B 613-615, 6th Floor, Industrial & Business Park, Phase-I", "addr:city": "Chandigarh", "addr:postcode": "160002", "addr:country": "India", "name": "EY", "phone": "+91 172 671 7800", "website": "https://www.ey.com/locations/india#chandigarh", "brand": "Ernst & Young"}, "geometry": {"type": "Point", "coordinates": [76.7909801, 30.7419283]}},
{"type": "Feature", "id": "cgmxWccdsSCUEsxtADBt5UKHz3g=", "properties": {"ref": "india#tidel-park-6th-7th-floor", "@spider": "ernst_young", "addr:full": "6th & 7th Floor ''A'' Block , Tidel Park No 4 Rajiv Gandhi Salai, Taramani", "addr:city": "Chennai", "addr:postcode": "600113", "addr:country": "India", "name": "EY", "phone": "+91 44  6654 8100", "website": "https://www.ey.com/locations/india#tidel-park-6th-7th-floor", "brand": "Ernst & Young"}, "geometry": {"type": "Point", "coordinates": [80.24731, 13.00673]}},
{"type": "Feature", "id": "Lf93NjYYEALVmnhIjzxi4WiHm4s=", "properties": {"ref": "india#golf-view-corporate-tower-b", "@spider": "ernst_young", "addr:full": "Golf View Corporate Tower B Sector - 42, Sector Road, Haryana", "addr:city": "Gurugram", "addr:postcode": "122002", "addr:country": "India", "name": "EY", "phone": "+91 124 443 4000", "website": "https://www.ey.com/locations/india#golf-view-corporate-tower-b", "brand": "Ernst & Young"}, "geometry": {"type": "Point", "coordinates": [77.0983646, 28.4568569]}},
{"type": "Feature", "id": "Uee4NalzDuwUwZYeZT_akhGSGg8=", "properties": {"ref": "india#hyderabad1", "@spider": "ernst_young", "addr:full": "Laxmi Cyber City, Block-B, 6th Floor, Survey No-10, Kondapur", "addr:city": "Hyderabad", "addr:postcode": "500084", "addr:country": "India", "name": "EY", "phone": "91 40 6736 2200", "website": "https://www.ey.com/locations/india#hyderabad1", "brand": "Ernst & Young"}, "geometry": {"type": "Point", "coordinates": [78.38846, 17.4321042]}},
{"type": "Feature", "id": "KB1ktSIPv3gC16B2Fka5bRL4H7E=", "properties": {"ref": "india#skyview", "@spider": "ernst_young", "addr:full": "The Skyview 10, 18\u2019F Survey no 83/1, Raidurgam", "addr:city": "Hyderabad", "addr:postcode": "500032", "addr:country": "India", "name": "EY", "website": "https://www.ey.com/locations/india#skyview", "brand": "Ernst & Young"}, "geometry": {"type": "Point", "coordinates": [78.37557934429414, 17.432866069076503]}},
{"type": "Feature", "id": "UIsJ6v-BjMjstTF8KJUQlG4nqqY=", "properties": {"ref": "india#jamshedpur", "@spider": "ernst_young", "addr:full": "1st Floor, Shantiniketan Building, Holding No. 1, SB Shop Area, Bistupur", "addr:city": "Jamshedpur", "addr:postcode": "831001", "addr:country": "India", "name": "EY", "phone": "+91 657 663 1000", "website": "https://www.ey.com/locations/india#jamshedpur", "brand": "Ernst & Young"}, "geometry": {"type": "Point", "coordinates": [86.1839169, 22.7869299]}},
{"type": "Feature", "id": "LXnfzanKb4gCWpznjdCGMF2tNaQ=", "properties": {"ref": "india#abad-nucleus-9th-floor", "@spider": "ernst_young", "addr:full": "9th Floor, Abad Nucleus,  NH-49, Maradu, Kochi", "addr:city": "Kochi", "addr:postcode": "682304", "addr:country": "India", "name": "EY", "phone": "+91 484 433 4000", "website": "https://www.ey.com/locations/india#abad-nucleus-9th-floor", "brand": "Ernst & Young"}, "geometry": {"type": "Point", "coordinates": [76.3312017, 9.9401847]}},
{"type": "Feature", "id": "AruAkF0TwUStgk9aaJaGHJ8MdJg=", "properties": {"ref": "india#kolkata", "@spider": "ernst_young", "addr:full": "22, Camac Street, 3rd Floor, Block 'C'", "addr:city": "Kolkata", "addr:postcode": "700016", "addr:country": "India", "name": "EY", "phone": "+91 33 6615 3400", "website": "https://www.ey.com/locations/india#kolkata", "brand": "Ernst & Young"}, "geometry": {"type": "Point", "coordinates": [88.3531818, 22.5470029]}},
{"type": "Feature", "id": "xZ_wbWU3A9Ao_mKur0Y5Llnt4UU=", "properties": {"ref": "india#6th-floor-express-towers", "@spider": "ernst_young", "addr:full": "14th Floor, The Ruby, 29 Senapati Bapat Marg, Dadar (West)", "addr:city": "Mumbai", "addr:postcode": "400 028", "addr:country": "India", "name": "EY", "phone": "+ 91 22 6192 0000", "website": "https://www.ey.com/locations/india#6th-floor-express-towers", "brand": "Ernst & Young"}, "geometry": {"type": "Point", "coordinates": [72.8222833, 18.9281713]}},
{"type": "Feature", "id": "viU6ilPPcIUWDBfZCWcTPJcA3g8=", "properties": {"ref": "india#mumbai-nkp-goregaon-", "@spider": "ernst_young", "addr:full": "5th Floor Block B-2, Nirlon Knowledge Park, Off. Western Express Highway, Goregaon (E)", "addr:city": "Mumbai", "addr:postcode": "400063", "addr:country": "India", "name": "EY", "phone": "+91 22 6192 0000", "website": "https://www.ey.com/locations/india#mumbai-nkp-goregaon-", "brand": "Ernst & Young"}, "geometry": {"type": "Point", "coordinates": [72.85289390000001, 19.1549027]}},
{"type": "Feature", "id": "821hsgTk_Kz8xF1voLgjuuCbjQY=", "properties": {"ref": "india#14th-floor-the-ruby", "@spider": "ernst_young", "addr:full": "Office No.1404-1405, 14th Floor, Tower 1, One India Bulls Centre,\u00a0841 Jupiter Mills,\u00a0Off. Senapati Bapat Marg, Lower Parel", "addr:city": "Mumbai", "addr:postcode": "400013", "addr:country": "India", "name": "EY", "phone": "+91 22 6192 0000", "website": "https://www.ey.com/locations/india#14th-floor-the-ruby", "brand": "Ernst & Young"}, "geometry": {"type": "Point", "coordinates": [72.843757, 19.0243645]}},
{"type": "Feature", "id": "c_czwWyt7uS06wmQtzXKxBLNVCc=", "properties": {"ref": "india#14-mittal-chambers-1st-floor", "@spider": "ernst_young", "addr:full": "C Centric Solutions Pvt Ltd,  Ground Floor, MBC Centre, Plot No.143/A, Opp. Cine Wonder Cinema, Ghodbunder Road, Kapurbawdi,  Thane", "addr:city": "Mumbai", "addr:postcode": "400607", "addr:country": "India", "name": "EY", "phone": "+91 22 4923 8901", "website": "https://www.ey.com/locations/india#14-mittal-chambers-1st-floor", "brand": "Ernst & Young"}, "geometry": {"type": "Point", "coordinates": [72.82375, 18.932935]}},
{"type": "Feature", "id": "ZMqSMGg1CGlg0ydWNZVV2ZBB3DY=", "properties": {"ref": "india#new-delhi", "@spider": "ernst_young", "addr:full": "3rd & 6th Floor, Worldmark-1, IGI Airport Hospitality District, Aerocity", "addr:city": "New Delhi", "addr:postcode": "110037", "addr:country": "India", "name": "EY", "phone": "+91 11 4731 8000 ", "website": "https://www.ey.com/locations/india#new-delhi", "brand": "Ernst & Young"}, "geometry": {"type": "Point", "coordinates": [77.1220802, 28.5504197]}},
{"type": "Feature", "id": "MEPEbLX9g457dRsrIxkIJI6fcEA=", "properties": {"ref": "india#noida", "@spider": "ernst_young", "addr:full": "4th & 5th Floor, Plot No 2B, Tower 2, Sector 126, Gautam Budh Nagar, U.P.", "addr:city": "Noida", "addr:postcode": "201 304", "addr:country": "India", "name": "EY", "phone": "+91 120 671 7000", "website": "https://www.ey.com/locations/india#noida", "brand": "Ernst & Young"}, "geometry": {"type": "Point", "coordinates": [77.3439753, 28.5399704]}},
{"type": "Feature", "id": "6I8iX-ANWSbA0NkjSPwXV_fQSic=", "properties": {"ref": "india#c-401-4th-floor", "@spider": "ernst_young", "addr:full": "C-401, 4th Floor,  Panchshil Tech Park Yerwada,  ( Near Don Bosco School )", "addr:city": "Pune", "addr:postcode": "411 006", "addr:country": "India", "name": "EY", "phone": "+91 20 491 26000", "website": "https://www.ey.com/locations/india#c-401-4th-floor", "brand": "Ernst & Young"}, "geometry": {"type": "Point", "coordinates": [73.9179329, 18.5660985]}},
{"type": "Feature", "id": "n9JGLGvOUZdphHcgJ6O6MW6XPEI=", "properties": {"ref": "india#level-g-river-side-business-bay", "@spider": "ernst_young", "addr:full": "Suite-2, Level-6, Muttha Tower,  SR No. 103/123/1,  Yerwada, (Near Don Bosco School )", "addr:city": "Pune", "addr:postcode": "411006", "addr:country": "India", "name": "EY", "phone": "+91 20 491 26000 ", "website": "https://www.ey.com/locations/india#level-g-river-side-business-bay", "brand": "Ernst & Young"}, "geometry": {"type": "Point", "coordinates": [73.8621515, 18.5307749]}},
{"type": "Feature", "id": "SM8BEPzby1APG6d30T7d0AFMaH8=", "properties": {"ref": "india#muttha-towers-6th-floor", "@spider": "ernst_young", "addr:full": "7th Floor - IndiQube/ The Kode, S.No. 134, Hissa No. 1/38, CTS No. 2265 to 2273, Baner Pashan Link Road", "addr:city": "Pune", "addr:postcode": "411021", "addr:country": "India", "name": "EY", "phone": "+91 20 491 26000 ", "website": "https://www.ey.com/locations/india#muttha-towers-6th-floor", "brand": "Ernst & Young"}, "geometry": {"type": "Point", "coordinates": [73.8920525, 18.5522846]}},
{"type": "Feature", "id": "XhD-W-nudcOx5hJCxy9hcGw__kk=", "properties": {"ref": "india#wavespace-trivandrum", "@spider": "ernst_young", "addr:full": "Drishya, Ground floor, KINFRA Film & Video Park, Trivandrum, Kerala, India", "addr:city": "Trivandrum", "addr:country": "India", "name": "EY wavespace Trivandrum", "website": "https://www.ey.com/locations/india#wavespace-trivandrum", "brand": "Ernst & Young"}, "geometry": {"type": "Point", "coordinates": [76.8781315, 8.5804206]}},
{"type": "Feature", "id": "rcNa0UdeI5gXqoo0lYUe5XyLFE8=", "properties": {"ref": "indonesia#indonesia-stock-exchange-building", "@spider": "ernst_young", "addr:full": "Indonesia Stock Exchange Building,  Tower 1, 13th Floor,  Tower 2, 7th Floor, JL. Jend. Sudirman Kav. 52-53  South Jakarta", "addr:city": "Jakarta", "addr:postcode": "12190", "addr:country": "Indonesia", "name": "EY", "phone": "+62 21 5289 5000", "website": "https://www.ey.com/locations/indonesia#indonesia-stock-exchange-building", "brand": "Ernst & Young"}, "geometry": {"type": "Point", "coordinates": [106.8086851, -6.2235983]}},
{"type": "Feature", "id": "eiby3QpwTkm5oUSxz8cVTygnfok=", "properties": {"ref": "indonesia#plaza-bri-9th-floor", "@spider": "ernst_young", "addr:full": "Plaza BRI 9th Floor, Jl. Basuki Rachmat 122", "addr:city": "Surabaya", "addr:postcode": "60271", "addr:country": "Indonesia", "name": "EY", "phone": "+62 31 532 5577", "website": "https://www.ey.com/locations/indonesia#plaza-bri-9th-floor", "brand": "Ernst & Young"}, "geometry": {"type": "Point", "coordinates": [112.7415963, -7.27287918]}},
{"type": "Feature", "id": "ppzV3hyi1-KejY-JApMliejqvOM=", "properties": {"ref": "iraq#baghdad", "@spider": "ernst_young", "addr:full": "Block 609, Street 3, Villa 23, Al-Ameerat Street, Al-Mansour,", "addr:city": "Baghdad", "addr:country": "Iraq", "name": "EY", "phone": "+964 1 543 0357", "website": "https://www.ey.com/locations/iraq#baghdad", "brand": "Ernst & Young"}, "geometry": {"type": "Point", "coordinates": [44.3439746, 33.3109279]}},
{"type": "Feature", "id": "9julDVpS7eM6K_cIoGAVhK9nLAg=", "properties": {"ref": "iraq#erbil", "@spider": "ernst_young", "addr:full": "Gulan St. English Village/Villa- 284, Erbil- Kurdistan Region", "addr:city": "Erbil", "addr:country": "Iraq", "name": "EY", "phone": "+964 7509054444", "website": "https://www.ey.com/locations/iraq#erbil", "brand": "Ernst & Young"}, "geometry": {"type": "Point", "coordinates": [43.9752202, 36.1900226]}},
{"type": "Feature", "id": "WdEdtK1dB8tTvnAs0O_Abh5NrM4=", "properties": {"ref": "ireland#cork", "@spider": "ernst_young", "addr:full": "City Quarter, Lapps Quay", "addr:city": "Cork", "addr:country": "Ireland", "name": "EY", "phone": "+353 21 4805700", "website": "https://www.ey.com/locations/ireland#cork", "brand": "Ernst & Young"}, "geometry": {"type": "Point", "coordinates": [-8.4641913, 51.8989105]}},
{"type": "Feature", "id": "iYGOtBf-KFQDQm-ph-7IfJFtZDY=", "properties": {"ref": "ireland#dublin", "@spider": "ernst_young", "addr:full": "EY Building, Harcourt Centre, Harcourt Street", "addr:city": "Dublin", "addr:postcode": "2", "addr:country": "Ireland", "name": "EY", "phone": "+353 1 4750555", "website": "https://www.ey.com/locations/ireland#dublin", "brand": "Ernst & Young"}, "geometry": {"type": "Point", "coordinates": [-6.2632638, 53.3333419]}},
{"type": "Feature", "id": "dUJhWrltmjEvg8zlZLEL79zq2wE=", "properties": {"ref": "ireland#1st-floor", "@spider": "ernst_young", "addr:full": "1st Floor, Hibernian House, 45 Eyre Square", "addr:city": "Galway", "addr:country": "Ireland", "name": "EY", "phone": "+353 91864900", "website": "https://www.ey.com/locations/ireland#1st-floor", "brand": "Ernst & Young"}, "geometry": {"type": "Point", "coordinates": [-9.049744, 53.275328]}},
{"type": "Feature", "id": "mYM2_Amn38CDLXdXoPXCGVpvPfU=", "properties": {"ref": "ireland#limerick", "@spider": "ernst_young", "addr:full": "Riverview House, Harveys Quay", "addr:city": "Limerick", "addr:country": "Ireland", "name": "EY", "phone": "+353 61 319988", "website": "https://www.ey.com/locations/ireland#limerick", "brand": "Ernst & Young"}, "geometry": {"type": "Point", "coordinates": [-8.630221, 52.663999]}},
{"type": "Feature", "id": "rw3_syXcorGk5lZnvlzjRqxKyHc=", "properties": {"ref": "ireland#waterford", "@spider": "ernst_young", "addr:full": "The Atrium, Maritana Gate, Canada Street Waterford", "addr:city": "Waterford", "addr:country": "Ireland", "name": "EY", "phone": "+353 51 872094", "website": "https://www.ey.com/locations/ireland#waterford", "brand": "Ernst & Young"}, "geometry": {"type": "Point", "coordinates": [-7.10425, 52.257231]}},
{"type": "Feature", "id": "NBVrIfEXQ_qx6VMPZoJ52hBDSGI=", "properties": {"ref": "isle-of-man#douglas", "@spider": "ernst_young", "addr:full": "Rose House ,51-59 Circular Road", "addr:city": "Douglas", "addr:postcode": "IM1 1AZ", "addr:country": "Isle of Man", "name": "EY", "phone": "+44 1624 691800", "website": "https://www.ey.com/locations/isle-of-man#douglas", "brand": "Ernst & Young"}, "geometry": {"type": "Point", "coordinates": [-4.485758, 54.1494453]}},
{"type": "Feature", "id": "IsOmZZ9y5bexTnGbEs1Sydjwtg8=", "properties": {"ref": "israel#haifa", "@spider": "ernst_young", "addr:full": "Brosh Building, 2 Pal-Yam av.", "addr:city": "Haifa", "addr:postcode": "3309502", "addr:country": "Israel", "name": "EY", "phone": "+972 4 8654000", "website": "https://www.ey.com/locations/israel#haifa", "brand": "Ernst & Young"}, "geometry": {"type": "Point", "coordinates": [34.989571, 32.7940463]}},
{"type": "Feature", "id": "MvC_jQF1nMBiBWeRlJ73sA3qdZ0=", "properties": {"ref": "israel#jerusalem", "@spider": "ernst_young", "addr:full": "8 Hartom, Har Hotzvim", "addr:city": "Jerusalem", "addr:postcode": "9548301", "addr:country": "Israel", "name": "EY", "phone": "+972 2 6541550", "website": "https://www.ey.com/locations/israel#jerusalem", "brand": "Ernst & Young"}, "geometry": {"type": "Point", "coordinates": [35.2132238, 31.8025755]}},
{"type": "Feature", "id": "UDZvd0rArWsceX2orCj0uHZeLQA=", "properties": {"ref": "israel#tel-aviv", "@spider": "ernst_young", "addr:full": "144 Menachem Begin Road, Building A", "addr:city": "Tel Aviv", "addr:postcode": "67067", "addr:country": "Israel", "name": "EY", "phone": "+972 3 6232716", "website": "https://www.ey.com/locations/israel#tel-aviv", "brand": "Ernst & Young"}, "geometry": {"type": "Point", "coordinates": [34.792631, 32.0768528]}},
{"type": "Feature", "id": "xj1wgP0Xw1y42UgGgcfgbu1Pjg0=", "properties": {"ref": "israel#tel-aviv-wavespace", "@spider": "ernst_young", "addr:full": "144 Menachem Begin st", "addr:city": "Tel Aviv", "addr:country": "Israel", "name": "EY wavespace Tel Aviv", "phone": "+972 3 6270901", "website": "https://www.ey.com/locations/israel#tel-aviv-wavespace", "brand": "Ernst & Young"}, "geometry": {"type": "Point", "coordinates": [34.832246, 32.09331]}},
{"type": "Feature", "id": "Y_ginPtwOtoyKkIg1p0nzbDLv8Y=", "properties": {"ref": "israel#ey-parthenon-tel-aviv", "@spider": "ernst_young", "addr:full": "3 Aminadav St.", "addr:city": "Tel Aviv", "addr:postcode": "67067", "addr:country": "Israel", "name": "EY-Parthenon Tel Aviv", "phone": "+972 3 6232525", "website": "https://www.ey.com/locations/israel#ey-parthenon-tel-aviv", "brand": "Ernst & Young"}, "geometry": {"type": "Point", "coordinates": [34.792865, 32.065426]}},
{"type": "Feature", "id": "WGx3zsPY6QSY5xkG7akEwO1vNWo=", "properties": {"ref": "italy#ancona", "@spider": "ernst_young", "addr:full": "Via Thomas Edison 4/6", "addr:city": "Ancona", "addr:postcode": "60027", "addr:country": "Italy", "name": "EY", "phone": "+39 071 7108676", "website": "https://www.ey.com/locations/italy#ancona", "brand": "Ernst & Young"}, "geometry": {"type": "Point", "coordinates": [13.5133229, 43.5311158]}},
{"type": "Feature", "id": "IVoFsg_mYDBfUqxAdhPIBYsZujo=", "properties": {"ref": "italy#bari", "@spider": "ernst_young", "addr:full": "Via Gimma, 73", "addr:city": "Bari", "addr:postcode": "70121", "addr:country": "Italy", "name": "EY", "phone": "+39 080 5207411", "website": "https://www.ey.com/locations/italy#bari", "brand": "Ernst & Young"}, "geometry": {"type": "Point", "coordinates": [16.8690806, 41.1247667]}},
{"type": "Feature", "id": "RKYWNE58a8B6DFkGTkN4ykmJKHo=", "properties": {"ref": "italy#bergamo", "@spider": "ernst_young", "addr:full": "Viale Papa Giovanni XXIII, 48", "addr:city": "Bergamo", "addr:postcode": "24121", "addr:country": "Italy", "name": "EY", "phone": "+39 035 3592111", "website": "https://www.ey.com/locations/italy#bergamo", "brand": "Ernst & Young"}, "geometry": {"type": "Point", "coordinates": [9.6715637, 45.6931991]}},
{"type": "Feature", "id": "3rteKuB2-VAmkS0u6h4OPLvhWI4=", "properties": {"ref": "italy#via-g-b-de-rolandis-9", "@spider": "ernst_young", "addr:full": "Via G.B De Rolandis, 9", "addr:city": "Bologna", "addr:postcode": "40126", "addr:country": "Italy", "name": "EY", "website": "https://www.ey.com/locations/italy#via-g-b-de-rolandis-9", "brand": "Ernst & Young"}, "geometry": {"type": "Point", "coordinates": [11.3541683, 44.4984589]}},
{"type": "Feature", "id": "OBim-Z0wY6JAlgYiptQXPMZV8S4=", "properties": {"ref": "italy#via-m-d-azeglio-34", "@spider": "ernst_young", "addr:full": "Via M. D'Azeglio, 34", "addr:city": "Bologna", "addr:postcode": "40123", "addr:country": "Italy", "name": "EY", "phone": "+39 051 278311", "website": "https://www.ey.com/locations/italy#via-m-d-azeglio-34", "brand": "Ernst & Young"}, "geometry": {"type": "Point", "coordinates": [11.3417804, 44.4915028]}},
{"type": "Feature", "id": "ljJIdNb_2UEdJWhfsj_bDZoWR1s=", "properties": {"ref": "italy#corso-magenta-29", "@spider": "ernst_young", "addr:full": "Corso Magenta, 29", "addr:city": "Brescia", "addr:postcode": "25121", "addr:country": "Italy", "name": "EY", "phone": "+39 030 2896111", "website": "https://www.ey.com/locations/italy#corso-magenta-29", "brand": "Ernst & Young"}, "geometry": {"type": "Point", "coordinates": [10.2259698, 45.5359371]}},
{"type": "Feature", "id": "PCM5Ojo1mOgA2_j4bo2Wgfx9wKg=", "properties": {"ref": "italy#via-dante-snc-ang-via-de-gioannis", "@spider": "ernst_young", "addr:full": "Via Dante snc ang. Via De Gioannis", "addr:city": "Cagliari", "addr:postcode": "09128", "addr:country": "Italy", "name": "EY", "website": "https://www.ey.com/locations/italy#via-dante-snc-ang-via-de-gioannis", "brand": "Ernst & Young"}, "geometry": {"type": "Point", "coordinates": [-73.61195, 45.5350161]}},
{"type": "Feature", "id": "ghbRUHVri6b6TZaYefRPcu1sJKE=", "properties": {"ref": "italy#ca---via-g--mameli--106", "@spider": "ernst_young", "addr:full": "CA - Via G. Mameli, 106", "addr:city": "Cagliari", "addr:postcode": "09123", "addr:country": "Italy", "name": "EYG", "phone": "+39 070 657705", "website": "https://www.ey.com/locations/italy#ca---via-g--mameli--106", "brand": "Ernst & Young"}, "geometry": {"type": "Point", "coordinates": [9.10774, 39.21908]}},
{"type": "Feature", "id": "g9FRKAQikba2RqpE70Z4Ck2CqxU=", "properties": {"ref": "italy#piazza-della-liberta-9", "@spider": "ernst_young", "addr:full": "Piazza della Libert\u00e0, 9", "addr:city": "Firenze", "addr:postcode": "50129", "addr:country": "Italy", "name": "EY", "phone": "+39 055 552451", "website": "https://www.ey.com/locations/italy#piazza-della-liberta-9", "brand": "Ernst & Young"}, "geometry": {"type": "Point", "coordinates": [11.2615204, 43.7848364]}},
{"type": "Feature", "id": "nKf0uBdq-P_jeCT4b5WiJuB4pr8=", "properties": {"ref": "italy#piazza-della-liberta-11", "@spider": "ernst_young", "addr:full": "Piazza della Libert\u00e0, 11", "addr:city": "Firenze", "addr:postcode": "50129", "addr:country": "Italy", "name": "EY", "phone": "+39 055 552411", "website": "https://www.ey.com/locations/italy#piazza-della-liberta-11", "brand": "Ernst & Young"}, "geometry": {"type": "Point", "coordinates": [11.2617964, 43.7847176]}},
{"type": "Feature", "id": "fkhO_aCLdXcMTgGK41IHLVpevbQ=", "properties": {"ref": "italy#genova", "@spider": "ernst_young", "addr:full": "Via XX Settembre, 42", "addr:city": "Genova", "addr:postcode": "16121", "addr:country": "Italy", "name": "EY", "phone": "+39 010 5308111", "website": "https://www.ey.com/locations/italy#genova", "brand": "Ernst & Young"}, "geometry": {"type": "Point", "coordinates": [8.9356305, 44.4067353]}},
{"type": "Feature", "id": "kXIjalseNFHFmhh7Zktd5WL2dmk=", "properties": {"ref": "italy#milano", "@spider": "ernst_young", "addr:full": "Via Meravigli, 12/14", "addr:city": "Milano", "addr:postcode": "20123", "addr:country": "Italy", "name": "EY", "phone": "+39 02 722121", "website": "https://www.ey.com/locations/italy#milano", "brand": "Ernst & Young"}, "geometry": {"type": "Point", "coordinates": [9.18288789, 45.4661119]}},
{"type": "Feature", "id": "1iPtLvHPYGZGdxvtLyAE5djk5YI=", "properties": {"ref": "italy#milano-wavespace", "@spider": "ernst_young", "addr:full": "Via Manfredo Camperio, 3", "addr:city": "Milano", "addr:postcode": "20123 ", "addr:country": "Italy", "name": "EY wavespace Milan", "website": "https://www.ey.com/locations/italy#milano-wavespace", "brand": "Ernst & Young"}, "geometry": {"type": "Point", "coordinates": [9.183357, 45.46633]}},
{"type": "Feature", "id": "PlvRUPivUz4ArOrwHC4hecEkVbs=", "properties": {"ref": "italy#ey-parthenon-milan", "@spider": "ernst_young", "addr:full": "Via Meravigli, 12", "addr:city": "Milano", "addr:postcode": "20123", "addr:country": "Italy", "name": "EY-Parthenon Milan", "phone": "+39 02 722121", "website": "https://www.ey.com/locations/italy#ey-parthenon-milan", "brand": "Ernst & Young"}, "geometry": {"type": "Point", "coordinates": [9.182926, 45.466176]}},
{"type": "Feature", "id": "SDuM2d7P7Vz01VLkWulY71olbCk=", "properties": {"ref": "italy#napoli", "@spider": "ernst_young", "addr:full": "Via dei Mille, 40", "addr:city": "Napoli", "addr:postcode": "80121", "addr:country": "Italy", "name": "EY", "phone": "+39 081 2489111", "website": "https://www.ey.com/locations/italy#napoli", "brand": "Ernst & Young"}, "geometry": {"type": "Point", "coordinates": [14.2387387, 40.8369233]}},
{"type": "Feature", "id": "QCvDAZvGz7q7NuJ0xn126Fg_Fww=", "properties": {"ref": "italy#padova", "@spider": "ernst_young", "addr:full": "Via San Crispino 106", "addr:city": "Padova", "addr:postcode": "35129", "addr:country": "Italy", "name": "EY", "phone": "+39 049 7707411", "website": "https://www.ey.com/locations/italy#padova", "brand": "Ernst & Young"}, "geometry": {"type": "Point", "coordinates": [11.915988, 45.4086927]}},
{"type": "Feature", "id": "e9y9syuc0gEM1XABYmyJe_52z1M=", "properties": {"ref": "italy#perugia", "@spider": "ernst_young", "addr:full": "Via Bartolo 10", "addr:city": "Perugia", "addr:postcode": "06100", "addr:country": "Italy", "name": "EY", "phone": "+39 075 5750411", "website": "https://www.ey.com/locations/italy#perugia", "brand": "Ernst & Young"}, "geometry": {"type": "Point", "coordinates": [12.3893943, 43.1128933]}},
{"type": "Feature", "id": "O51NI8_Kn9Kcky5EORVC6vfJw9E=", "properties": {"ref": "italy#rm-via-po-31", "@spider": "ernst_young", "addr:full": "RM  - Via Lombardia, 31", "addr:city": "Roma", "addr:postcode": "00187", "addr:country": "Italy", "name": "EY wavespace Rome", "website": "https://www.ey.com/locations/italy#rm-via-po-31", "brand": "Ernst & Young"}, "geometry": {"type": "Point", "coordinates": [12.487768, 41.907919]}},
{"type": "Feature", "id": "k7vG2g3BmiT9eKRWBzQ9Bo1pcZQ=", "properties": {"ref": "italy#torino", "@spider": "ernst_young", "addr:full": "Via Confienza, 10", "addr:city": "Torino", "addr:postcode": "10128", "addr:country": "Italy", "name": "EY", "phone": "+39 011 5161611", "website": "https://www.ey.com/locations/italy#torino", "brand": "Ernst & Young"}, "geometry": {"type": "Point", "coordinates": [7.6755845, 45.0691318]}},
{"type": "Feature", "id": "ksZEq6CUFOtPpHWY6nYafvHNneE=", "properties": {"ref": "italy#treviso", "@spider": "ernst_young", "addr:full": "Viale Appiani, 20/B", "addr:city": "Treviso", "addr:postcode": "31100", "addr:country": "Italy", "name": "EY", "phone": "+39 0422 358811", "website": "https://www.ey.com/locations/italy#treviso", "brand": "Ernst & Young"}, "geometry": {"type": "Point", "coordinates": [12.2306516, 45.6653144]}},
{"type": "Feature", "id": "QIkVrvwxnZUPbbcMxDqUyYi7P_Y=", "properties": {"ref": "italy#trieste", "@spider": "ernst_young", "addr:full": "Largo D.F. Bonifacio, 1", "addr:city": "Trieste", "addr:postcode": "34125", "addr:country": "Italy", "name": "EY", "phone": "+39 040 7783011", "website": "https://www.ey.com/locations/italy#trieste", "brand": "Ernst & Young"}, "geometry": {"type": "Point", "coordinates": [13.77796, 45.65141]}},
{"type": "Feature", "id": "QJMgkrqpMcj5Dd-pDn3jrU2fQlE=", "properties": {"ref": "italy#verona", "@spider": "ernst_young", "addr:full": "Via Isonzo, 11", "addr:city": "Verona", "addr:postcode": "37126", "addr:country": "Italy", "name": "EY", "phone": "+39 045 8312511", "website": "https://www.ey.com/locations/italy#verona", "brand": "Ernst & Young"}, "geometry": {"type": "Point", "coordinates": [10.9895191, 45.4440462]}},
{"type": "Feature", "id": "XFMoapHMYmGvYJ7OX43y8zngWfg=", "properties": {"ref": "ivory-coast#abidjan", "@spider": "ernst_young", "addr:full": "5 avenue Marchand", "addr:city": "Abidjan", "addr:country": "Ivory Coast", "name": "EY", "phone": "+225 20 30 60 50", "website": "https://www.ey.com/locations/ivory-coast#abidjan", "brand": "Ernst & Young"}, "geometry": {"type": "Point", "coordinates": [-4.0219563, 5.3253709]}},
{"type": "Feature", "id": "XrvTM6RP9oS3_mIJ4Vdz71GKRlE=", "properties": {"ref": "jamaica#kingston", "@spider": "ernst_young", "addr:full": "8 Olivier Road", "addr:city": "Kingston", "addr:postcode": "8", "addr:country": "Jamaica", "name": "EY", "phone": "+876 925 2501", "website": "https://www.ey.com/locations/jamaica#kingston", "brand": "Ernst & Young"}, "geometry": {"type": "Point", "coordinates": [-76.7926628, 18.0492909]}},
{"type": "Feature", "id": "AaNWe4gTrVxVg-A9LpO_S3E-sEg=", "properties": {"ref": "japan#ja", "@spider": "ernst_young", "addr:full": "\u672d\u5e4c\u5e02\u4e2d\u592e\u533a\u5317\u4e00\u6761\u897f\u56db\u4e01\u76ee1\u756a\u57302\u3000\uff2a\uff06\uff33 \u308a\u305d\u306a\u30d3\u30eb", "addr:city": "Hokkaido", "addr:state": "HK", "addr:postcode": "\u3000060-0001", "addr:country": "Japan", "name": "EY\u65b0\u65e5\u672c\u6709\u9650\u8cac\u4efb\u76e3\u67fb\u6cd5\u4eba\u3000\u672d\u5e4c\u4e8b\u52d9\u6240", "phone": "011 221 1118", "website": "https://www.ey.com/locations/japan#ja", "brand": "Ernst & Young"}, "geometry": {"type": "Point", "coordinates": [141.35139271105845, 43.06166288497601]}},
{"type": "Feature", "id": "4uS9ONeQAJYVBvrBLEEuelpzr_o=", "properties": {"ref": "japan#ey-tax-nagoya", "@spider": "ernst_young", "addr:full": "\u540d\u53e4\u5c4b\u5e02\u4e2d\u6751\u533a\u540d\u99c5\u4e00\u4e01\u76ee1\u756a3\u53f7\u3000JR\u30b2\u30fc\u30c8\u30bf\u30ef\u30fc 42\u968e", "addr:city": "aichi", "addr:state": "AC", "addr:postcode": "\u3000450-6642", "addr:country": "Japan", "name": "EY\u7a0e\u7406\u58eb\u6cd5\u4eba\u3000\u540d\u53e4\u5c4b\u4e8b\u52d9\u6240", "phone": "052 588 8855", "website": "https://www.ey.com/locations/japan#ey-tax-nagoya", "brand": "Ernst & Young"}, "geometry": {"type": "Point", "coordinates": [136.882577, 35.172361]}},
{"type": "Feature", "id": "9B-ZoL0ZnTBOWk0bvCOVCCjgD88=", "properties": {"ref": "japan#ey-tax-co-okinawa", "@spider": "ernst_young", "addr:full": "The Terrace Office & Prtking, 7F 1-3-12 Omoromachi, Naha-shi,", "addr:city": "okinawa", "addr:state": "OK", "addr:postcode": "900-00006", "addr:country": "Japan", "name": "EY Tax Co.", "website": "https://www.ey.com/locations/japan#ey-tax-co-okinawa", "brand": "Ernst & Young"}, "geometry": {"type": "Point", "coordinates": [127.69330041394414, 26.224316739048867]}},
{"type": "Feature", "id": "aa4H-iC_ejB-9hMGdc0rNGZvvuc=", "properties": {"ref": "japan#chiba", "@spider": "ernst_young", "addr:full": "Sen City Building 1000 Shin-machi Chuo-ku", "addr:city": "Chiba", "addr:postcode": "260-0028", "addr:country": "Japan", "name": "EY ShinNihon LLC", "phone": "+81 43 238 7011", "website": "https://www.ey.com/locations/japan#chiba", "brand": "Ernst & Young"}, "geometry": {"type": "Point", "coordinates": [140.112839, 35.612543]}},
{"type": "Feature", "id": "O8GL3fxMyD50nx12ECR1pMto2GM=", "properties": {"ref": "japan#fukui-shi", "@spider": "ernst_young", "addr:full": "Meiji Yasuda Seimei Fukui Building 2-7-15 Ote", "addr:city": "Fukui-shi", "addr:postcode": "910-0005", "addr:country": "Japan", "name": "EY ShinNihon LLC", "phone": "+81 776 27 1815", "website": "https://www.ey.com/locations/japan#fukui-shi", "brand": "Ernst & Young"}, "geometry": {"type": "Point", "coordinates": [136.222018, 36.063368]}},
{"type": "Feature", "id": "rT0AX4kX-IgdqJHE34BzVDDQWJ0=", "properties": {"ref": "japan#fukuoka", "@spider": "ernst_young", "addr:full": "Tenjin Bldg., 2-12-1 Tenjin, Chuo-ku, Fukuoka-shi,  Fukuoka", "addr:city": "Fukuoka", "addr:postcode": "810-0001", "addr:country": "Japan", "name": "Ernst & Young ShinNihon LLC, Fukuoka office", "phone": "+81 92 781 7231", "website": "https://www.ey.com/locations/japan#fukuoka", "brand": "Ernst & Young"}, "geometry": {"type": "Point", "coordinates": [130.39828, 33.591894]}},
{"type": "Feature", "id": "Q0Q19UktFaNAHsrTSrsX6R744fo=", "properties": {"ref": "japan#ey-tax-fukuoka", "@spider": "ernst_young", "addr:full": "Tenjin Bldg., 2-12-1 Tenjin, Chuo-ku, Fukuoka-shi", "addr:city": "Fukuoka", "addr:postcode": "810-0001", "addr:country": "Japan", "name": "Ernst & Young Tax Co., Fukuoka office", "phone": "+81 92 752 5222", "website": "https://www.ey.com/locations/japan#ey-tax-fukuoka", "brand": "Ernst & Young"}, "geometry": {"type": "Point", "coordinates": [130.3984119, 33.5915977]}},
{"type": "Feature", "id": "0TAiQvawD4h0-d3JRu6rpUEW2j0=", "properties": {"ref": "japan#ey-tax-fukuoka1", "@spider": "ernst_young", "addr:full": "Tenjin Building, 7F 2-12-1 Tenjin, Chuo-ku Fukuoka , JAPAN", "addr:city": "Fukuoka", "addr:postcode": "810-0001", "addr:country": "Japan", "name": "Fukuoka office", "phone": "+81 92 752 5222", "website": "https://www.ey.com/locations/japan#ey-tax-fukuoka1", "brand": "Ernst & Young"}, "geometry": {"type": "Point", "coordinates": [130.3984119, 33.5915977]}},
{"type": "Feature", "id": "bwtWUoUguTZsQKDgKloFh_PwjaM=", "properties": {"ref": "japan#eyacc-fukuoka", "@spider": "ernst_young", "addr:full": "Tenjin Bldg., 2-12-1 Tenjin, Chuo-ku, Fukuoka-shi, Fukuoka, Japan", "addr:city": "Fukuoka", "addr:postcode": "810-0001", "addr:country": "Japan", "name": "EY Advisory & Consulting Co., Ltd. Fukuoka office", "phone": "092 781 9500 ", "website": "https://www.ey.com/locations/japan#eyacc-fukuoka", "brand": "Ernst & Young"}, "geometry": {"type": "Point", "coordinates": [130.39828, 33.591894]}},
{"type": "Feature", "id": "bwAvDMD9gRiU9duCTAJLDPaQF0M=", "properties": {"ref": "japan#ey-strategy-and-consulting-co-ltd-fukuoka", "@spider": "ernst_young", "addr:full": "Tenjin Bldg., 2-12-1 Tenjin, Chuo-ku, Fukuoka-shi", "addr:city": "Fukuoka", "addr:postcode": "810-0001", "addr:country": "Japan", "name": "EY Strategy and Consulting Co., Ltd. Fukuoka", "website": "https://www.ey.com/locations/japan#ey-strategy-and-consulting-co-ltd-fukuoka", "brand": "Ernst & Young"}, "geometry": {"type": "Point", "coordinates": [130.39828, 33.591894]}},
{"type": "Feature", "id": "OaB9iWYRzOLnpohka4ycbcwN_x0=", "properties": {"ref": "japan#fukushima", "@spider": "ernst_young", "addr:full": "Unix Bldg., 6-6 Sakae-machi, Fukushima-shi,  Fukushima", "addr:city": "Fukushima", "addr:postcode": "960-8031", "addr:country": "Japan", "name": "Ernst & Young ShinNihon LLC, Fukushima office", "phone": "+81 24 522 7531", "website": "https://www.ey.com/locations/japan#fukushima", "brand": "Ernst & Young"}, "geometry": {"type": "Point", "coordinates": [140.461818, 37.754978]}},
{"type": "Feature", "id": "6JeDFuUZumOHNmvDXpy3l7KDrmw=", "properties": {"ref": "japan#hamamatsu", "@spider": "ernst_young", "addr:full": "Act Tower 111-2 Itaya-machi, Naka-ku, Hamamatsu-shi,  Shizuoka", "addr:city": "Hamamatsu", "addr:postcode": "430-7721", "addr:country": "Japan", "name": "Ernst & Young ShinNihon LLC, Hamamatsu office", "phone": "+81 53 453 0390", "website": "https://www.ey.com/locations/japan#hamamatsu", "brand": "Ernst & Young"}, "geometry": {"type": "Point", "coordinates": [137.729494, 34.706047]}},
{"type": "Feature", "id": "va4XSwqvwQ3URL_uGY_Ta-ydcPI=", "properties": {"ref": "japan#hiroshima", "@spider": "ernst_young", "addr:full": "NBF Hiroshima Tatemachi Bldg., 2-27 Tatemachi, Naka-ku, Hiroshima-shi,  Hiroshima", "addr:city": "Hiroshima", "addr:postcode": "732-0032", "addr:country": "Japan", "name": "Ernst & Young ShinNihon LLC, Hiroshima office", "phone": "+81 82 248 0070", "website": "https://www.ey.com/locations/japan#hiroshima", "brand": "Ernst & Young"}, "geometry": {"type": "Point", "coordinates": [132.460516, 34.39435]}},
{"type": "Feature", "id": "l2iIG7jR8Kbi_5V1Krcctr_9NDM=", "properties": {"ref": "japan#kanazawa", "@spider": "ernst_young", "addr:full": "Polte Kanazawa Bldg., 2-15-1 Hon-machi, Kanazawa-shi,  Ishikawa", "addr:city": "Kanazawa", "addr:postcode": "920-0853", "addr:country": "Japan", "name": "Ernst & Young ShinNihon LLC, Kanazawa office", "phone": "+81 76 231 3066", "website": "https://www.ey.com/locations/japan#kanazawa", "brand": "Ernst & Young"}, "geometry": {"type": "Point", "coordinates": [136.649344, 36.576217]}},
{"type": "Feature", "id": "pssqNiO8AttpWRWLe46wJ7zbThI=", "properties": {"ref": "japan#kumamoto", "@spider": "ernst_young", "addr:full": "Mitsui Seimei Kumamoto Building 1-1 Hanabata-cho Chuo-ku", "addr:city": "Kumamoto", "addr:postcode": "860-0806", "addr:country": "Japan", "name": "EY ShinNihon LLC", "phone": "+81 96 324 0832", "website": "https://www.ey.com/locations/japan#kumamoto", "brand": "Ernst & Young"}, "geometry": {"type": "Point", "coordinates": [130.705845, 32.806386]}},
{"type": "Feature", "id": "2x00mm52_ocqZseuNlMmjjNbYoo=", "properties": {"ref": "japan#kyoto", "@spider": "ernst_young", "addr:full": "Shijo-karasuma FT Square 20 Naginataboko-cho Shijodori-karasuma-higashi-iru, Shimogyo-ku", "addr:city": "Kyoto", "addr:postcode": "600-8008", "addr:country": "Japan", "name": "EY ShinNihon LLC", "phone": "+81 75 213 3355", "website": "https://www.ey.com/locations/japan#kyoto", "brand": "Ernst & Young"}, "geometry": {"type": "Point", "coordinates": [135.758557, 35.0041]}},
{"type": "Feature", "id": "TzhogGQxRq9JrtJmeZmAM2kkoz4=", "properties": {"ref": "japan#matsumoto", "@spider": "ernst_young", "addr:full": "Matsumoto Bldg., 3-1-1 Ote, Matsumoto-shi,  Nagano", "addr:city": "Matsumoto", "addr:postcode": "390-0874", "addr:country": "Japan", "name": "Ernst & Young ShinNihon LLC, Matsumoto office", "phone": "+81 263 31 8720", "website": "https://www.ey.com/locations/japan#matsumoto", "brand": "Ernst & Young"}, "geometry": {"type": "Point", "coordinates": [137.969676, 36.235007]}},
{"type": "Feature", "id": "dsqq-071-ITdeAF74p_8g4dAjlk=", "properties": {"ref": "japan#matsuyama", "@spider": "ernst_young", "addr:full": "Meiji Yasuda Seimei Matsuyama Nibancho Building 3-6-5 Niban-cho", "addr:city": "Matsuyama", "addr:postcode": "790-0002", "addr:country": "Japan", "name": "EY ShinNihon LLC", "phone": "+81 89 933 5668", "website": "https://www.ey.com/locations/japan#matsuyama", "brand": "Ernst & Young"}, "geometry": {"type": "Point", "coordinates": [132.77113, 33.840281]}},
{"type": "Feature", "id": "3CTa3pvvE8Wx1LTvJT-6OMcHQpg=", "properties": {"ref": "japan#miyazaki", "@spider": "ernst_young", "addr:full": "Nipponkoa Miyazaki Building 2-5-16 Hiroshima", "addr:city": "Miyazaki", "addr:postcode": "880-0806", "addr:country": "Japan", "name": "EY ShinNihon LLC", "phone": "+81 985 23 5211", "website": "https://www.ey.com/locations/japan#miyazaki", "brand": "Ernst & Young"}, "geometry": {"type": "Point", "coordinates": [131.425855, 31.915544]}},
{"type": "Feature", "id": "pLBS9SVevABJqkUGK0cFrHgM3kk=", "properties": {"ref": "japan#nagano", "@spider": "ernst_young", "addr:full": "Nagano OS Building 1121-1 Kamichitose-machi", "addr:city": "Nagano", "addr:postcode": "380-0821", "addr:country": "Japan", "name": "EY ShinNihon LLC", "phone": "+81 26 267 6620", "website": "https://www.ey.com/locations/japan#nagano", "brand": "Ernst & Young"}, "geometry": {"type": "Point", "coordinates": [138.1947709, 36.6485829]}},
{"type": "Feature", "id": "_tXQzEeAyfX-fZQPnyBWWZAftUc=", "properties": {"ref": "japan#nagaoka", "@spider": "ernst_young", "addr:full": "Mitsuiseimei Nagaoka Building 2-1-1 Higashisakanoue-machi", "addr:city": "Nagaoka", "addr:postcode": "940-0066", "addr:country": "Japan", "name": "EY ShinNihon LLC", "phone": "+81 258 36 5736", "website": "https://www.ey.com/locations/japan#nagaoka", "brand": "Ernst & Young"}, "geometry": {"type": "Point", "coordinates": [138.849933, 37.446966]}},
{"type": "Feature", "id": "gWI8SZNlQ_jQtuRNdlfOpKP6cFY=", "properties": {"ref": "japan#nagoya-mitsui-building-main-bldg-4f", "@spider": "ernst_young", "addr:full": "42th Floor, JR Gate Tower 1-1-3 Meieki, Nakamura-ku, Nagoya-shi,  Aichi", "addr:city": "Nagoya", "addr:postcode": "450-6642", "addr:country": "Japan", "name": "Ernst & Young ShinNihon LLC, Nagoya office", "phone": "+81 52 566 1700", "website": "https://www.ey.com/locations/japan#nagoya-mitsui-building-main-bldg-4f", "brand": "Ernst & Young"}, "geometry": {"type": "Point", "coordinates": [136.882577, 35.172361]}},
{"type": "Feature", "id": "d3vuoZcOlZFTZm3OiKxUTWLKMP0=", "properties": {"ref": "japan#ey-tax-co--", "@spider": "ernst_young", "addr:full": "42th Floor, JR Gate Tower 1-1-3 Meieki, Nakamura-ku, Nagoya-shi", "addr:city": "Nagoya", "addr:postcode": "450-6642", "addr:country": "Japan", "name": "Ernst & Young Tax Co., Nagoya office", "phone": "+ 81 52 566 1700", "website": "https://www.ey.com/locations/japan#ey-tax-co--", "brand": "Ernst & Young"}, "geometry": {"type": "Point", "coordinates": [136.882577, 35.172361]}},
{"type": "Feature", "id": "zGjNB_6fu6s4-DgZEyUP1QZMtVI=", "properties": {"ref": "japan#mitsui-seimei-naha-building", "@spider": "ernst_young", "addr:full": "Taijuseimei Naha Bldg., 2-4-16 Kume, Naha-shi", "addr:city": "Naha", "addr:postcode": "900-0033", "addr:country": "Japan", "name": "Ernst & Young ShinNihon LLC, Okinawa office", "phone": "+81 98 951 0151", "website": "https://www.ey.com/locations/japan#mitsui-seimei-naha-building", "brand": "Ernst & Young"}, "geometry": {"type": "Point", "coordinates": [127.677853, 26.21572]}},
{"type": "Feature", "id": "gtZakTwMHa2rU8PeZ3Pitacs8os=", "properties": {"ref": "japan#the-terrace-office-parking-7f", "@spider": "ernst_young", "addr:full": "The Terrace Office & Parking, 7F 1-3-12 Omoromachi, Naha-shi", "addr:city": "Naha", "addr:postcode": "900-0006", "addr:country": "Japan", "name": "Ernst & Young Tax Co., Okinawa office", "phone": "+81 98 917 5461", "website": "https://www.ey.com/locations/japan#the-terrace-office-parking-7f", "brand": "Ernst & Young"}, "geometry": {"type": "Point", "coordinates": [127.693427, 26.224696]}},
{"type": "Feature", "id": "rEtnZrtICOU2t6R6UuXf3RRo5wA=", "properties": {"ref": "japan#niigata", "@spider": "ernst_young", "addr:full": "Taijuseimei Niigata Bldg., 1-3-10 Higashiodori, Chuo-ku, Niigata-shi,  Niigata", "addr:city": "Niigata", "addr:postcode": "950-0087", "addr:country": "Japan", "name": "Ernst & Young ShinNihon LLC, Niigata office", "phone": "+81 25 245 4611", "website": "https://www.ey.com/locations/japan#niigata", "brand": "Ernst & Young"}, "geometry": {"type": "Point", "coordinates": [139.060744, 37.91493]}},
{"type": "Feature", "id": "0K0BYnRQ9AfdpsDxIpv-JVJrNgw=", "properties": {"ref": "japan#omiya", "@spider": "ernst_young", "addr:full": "Sonic City Building 1-7-5 Sakuragi-cho Omiya-ku", "addr:city": "Omiya", "addr:postcode": "330-8669", "addr:country": "Japan", "name": "EY ShinNihon LLC", "phone": "+81 48 649 8461", "website": "https://www.ey.com/locations/japan#omiya", "brand": "Ernst & Young"}, "geometry": {"type": "Point", "coordinates": [139.6197239, 35.9052316]}},
{"type": "Feature", "id": "H1to_js971RRw2npwdJhngIHWvc=", "properties": {"ref": "japan#umeda-hankyu-bldg-office-tower", "@spider": "ernst_young", "addr:full": "Umeda Hankyu Bldg., 8-1 Kakuda-cho,  Kita-ku, Osaka-shi", "addr:city": "Osaka", "addr:postcode": "530-0017", "addr:country": "Japan", "name": "Ernst & Young ShinNihon LLC, Osaka office", "phone": "+81 6 6940 0100", "website": "https://www.ey.com/locations/japan#umeda-hankyu-bldg-office-tower", "brand": "Ernst & Young"}, "geometry": {"type": "Point", "coordinates": [135.500187, 34.703695]}},
{"type": "Feature", "id": "uEKi1jE8ZpNd1Sy6Nrzo4_udjt4=", "properties": {"ref": "japan#umeda-hankyu-bldg-office-tower-36f", "@spider": "ernst_young", "addr:full": "Umeda Hankyu Bldg., 8-1 Kakuda-cho, Kita-ku, Osaka-shi", "addr:city": "Osaka", "addr:postcode": "530-0017", "addr:country": "Japan", "name": "Ernst & Young Tax Co., Osaka office", "phone": "+81 6 6315 1181", "website": "https://www.ey.com/locations/japan#umeda-hankyu-bldg-office-tower-36f", "brand": "Ernst & Young"}, "geometry": {"type": "Point", "coordinates": [135.500187, 34.703695]}},
{"type": "Feature", "id": "q9jIaebgcqhC-6VmtwQeGTP7YMg=", "properties": {"ref": "japan#ey-tas-osaka", "@spider": "ernst_young", "addr:full": "Umeda Hankyu Bldg., 8-1 Kakuda-cho, Kita-ku, Osaka-shi", "addr:city": "Osaka", "addr:postcode": "530-0017", "addr:country": "Japan", "name": "EY Transaction Advisory Services Co., Ltd. Osaka Office", "website": "https://www.ey.com/locations/japan#ey-tas-osaka", "brand": "Ernst & Young"}, "geometry": {"type": "Point", "coordinates": [135.4987582983116, 34.70237129170769]}},
{"type": "Feature", "id": "Im-sUQZr7DatK5AbUdFDyNirjnc=", "properties": {"ref": "japan#ey-advisory-osaka", "@spider": "ernst_young", "addr:full": "Umeda Hankyu Bldg., 8-1 Kakuda-cho, Kita-ku, Osaka-shi", "addr:city": "Osaka", "addr:postcode": "530-0017", "addr:country": "Japan", "name": "EY Advisory & Consulting Co., Osaka office", "website": "https://www.ey.com/locations/japan#ey-advisory-osaka", "brand": "Ernst & Young"}, "geometry": {"type": "Point", "coordinates": [135.4987582983116, 34.70237129170769]}},
{"type": "Feature", "id": "qjoVcDi5Hf795AQ17P962FaNFQo=", "properties": {"ref": "japan#ey-strategy-and-consulting-co-ltd-osaka", "@spider": "ernst_young", "addr:full": "Umeda Hankyu Bldg., 8-1 Kakuda-cho, Kita-ku, Osaka-shi", "addr:city": "Osaka", "addr:postcode": "530-0017", "addr:country": "Japan", "name": "EY Strategy and Consulting Co., Ltd. Osaka", "website": "https://www.ey.com/locations/japan#ey-strategy-and-consulting-co-ltd-osaka", "brand": "Ernst & Young"}, "geometry": {"type": "Point", "coordinates": [135.4987582983116, 34.70237129170769]}},
{"type": "Feature", "id": "UG4vfHWRePisDDH82R8v__lA3r8=", "properties": {"ref": "japan#sapporo", "@spider": "ernst_young", "addr:full": "J&S Resona Bldg., 4-1-2 Kita1jyonishi, Chuo-ku, Sapporo-shi,  Hokkaido", "addr:city": "Sapporo", "addr:postcode": "060-0001", "addr:country": "Japan", "name": "Ernst & Young ShinNihon LLC, Sapporo office", "phone": "+81 11 221 1118", "website": "https://www.ey.com/locations/japan#sapporo", "brand": "Ernst & Young"}, "geometry": {"type": "Point", "coordinates": [141.351004, 43.062329]}},
{"type": "Feature", "id": "NTI3DhXUlhxmi47U6nV63HvdO4k=", "properties": {"ref": "japan#sendai", "@spider": "ernst_young", "addr:full": "AER Bldg., 1-3-1 Chuo, Aoba-ku, Sendai-shi,  Miyagi", "addr:city": "Sendai", "addr:postcode": "980-6111", "addr:country": "Japan", "name": "Ernst & Young ShinNihon LLC, Sendai office", "phone": "+81 22 262 0325", "website": "https://www.ey.com/locations/japan#sendai", "brand": "Ernst & Young"}, "geometry": {"type": "Point", "coordinates": [140.881972, 38.262799]}},
{"type": "Feature", "id": "Mua4revVYLxjUCKlTOPcCfxlz5o=", "properties": {"ref": "japan#shizuoka", "@spider": "ernst_young", "addr:full": "Excelward Shizuoka Bldg., 11-30 Miyuki-cho, Aoi-ku, Shizuoka-shi", "addr:city": "Shizuoka", "addr:postcode": "420-0857", "addr:country": "Japan", "name": "Ernst & Young ShinNihon LLC, Shizuoka office", "phone": "+81 54 254 6761", "website": "https://www.ey.com/locations/japan#shizuoka", "brand": "Ernst & Young"}, "geometry": {"type": "Point", "coordinates": [138.386705, 34.971967]}},
{"type": "Feature", "id": "qr01fW4UjwWA9fxjkt3sP_Wb5G4=", "properties": {"ref": "japan#takamatsu", "@spider": "ernst_young", "addr:full": "Tomei Bldg., 3-1 Furujin-machi, Takamatsu-shi,  Kagawa", "addr:city": "Takamatsu", "addr:postcode": "760-0025", "addr:country": "Japan", "name": "Ernst & Young ShinNihon LLC, Takamatsu office", "phone": "+81 87 822 0555", "website": "https://www.ey.com/locations/japan#takamatsu", "brand": "Ernst & Young"}, "geometry": {"type": "Point", "coordinates": [134.047999, 34.346102]}},
{"type": "Feature", "id": "FNuwHBILb4F6Xt9bZRdopsCBi38=", "properties": {"ref": "japan#takasaki", "@spider": "ernst_young", "addr:full": "Takasaki Daiichi Seimei Building 167 Ara-machi", "addr:city": "Takasaki", "addr:postcode": "370-0831", "addr:country": "Japan", "name": "EY ShinNihon LLC", "phone": "+81 27 328 7016", "website": "https://www.ey.com/locations/japan#takasaki", "brand": "Ernst & Young"}, "geometry": {"type": "Point", "coordinates": [139.007823, 36.321448]}},
{"type": "Feature", "id": "8YALnLdZ9DwHVIIfndEDCWj5G9c=", "properties": {"ref": "japan#hibiya-kokusai-building", "@spider": "ernst_young", "addr:full": "1-1-2 Yurakucho, Chiyoda-ku,  Tokyo Midtown Hibiya, Hibiya Mitsui Tower", "addr:city": "Tokyo", "addr:postcode": "100-0006", "addr:country": "Japan", "name": "EY ", "phone": "+81 3 3503 1100", "website": "https://www.ey.com/locations/japan#hibiya-kokusai-building", "brand": "Ernst & Young"}, "geometry": {"type": "Point", "coordinates": [139.759626, 35.673918]}},
{"type": "Feature", "id": "17LENN5L0IToNKW506sa78Je39U=", "properties": {"ref": "japan#tokyo-midtown-hibiya-ey-shinnihon-llc", "@spider": "ernst_young", "addr:full": "Tokyo Midtown Hibiya, Hibiya Mitsui Tower, 1-1-2 Yurakucho, Chiyoda-ku", "addr:city": "Tokyo", "addr:postcode": "100-0006", "addr:country": "Japan", "name": "Ernst & Young ShinNihon LLC", "phone": "+81 3 3503 1100", "website": "https://www.ey.com/locations/japan#tokyo-midtown-hibiya-ey-shinnihon-llc", "brand": "Ernst & Young"}, "geometry": {"type": "Point", "coordinates": [139.7591738136382, 35.67358531595592]}},
{"type": "Feature", "id": "Ud9QhnMnOef7MTG3FMdvzpB4fIU=", "properties": {"ref": "japan#tokyo-midtown-hibiya-ey-tax-co", "@spider": "ernst_young", "addr:full": "Tokyo Midtown Hibiya, Hibiya Mitsui Tower, 1-1-2 Yurakucho, Chiyoda-ku", "addr:city": "Tokyo", "addr:postcode": "100-0006", "addr:country": "Japan", "name": "Ernst & Young Tax Co.", "phone": "+81 3 3506 2411", "website": "https://www.ey.com/locations/japan#tokyo-midtown-hibiya-ey-tax-co", "brand": "Ernst & Young"}, "geometry": {"type": "Point", "coordinates": [139.7591738136382, 35.67358531595592]}},
{"type": "Feature", "id": "5iZ1oFRv06be_7zPpvukGj27MTE=", "properties": {"ref": "japan#tokyo-midtown-hibiyaey-transaction-advisory-services-co-ltd", "@spider": "ernst_young", "addr:full": "Tokyo Midtown Hibiya, Hibiya Mitsui Tower, 1-1-2 Yurakucho, Chiyoda-ku", "addr:city": "Tokyo", "addr:postcode": "100-0006", "addr:country": "Japan", "name": "EY Transaction Advisory Services Co., Ltd.", "phone": "+81 3 3503 3500", "website": "https://www.ey.com/locations/japan#tokyo-midtown-hibiyaey-transaction-advisory-services-co-ltd", "brand": "Ernst & Young"}, "geometry": {"type": "Point", "coordinates": [139.7591738136382, 35.67358531595592]}},
{"type": "Feature", "id": "dJZgA48HXIZulEL-mj1RsJKd3nA=", "properties": {"ref": "japan#tokyo-midtown-hibiya-ey-advisory-co-ltd", "@spider": "ernst_young", "addr:full": "Tokyo Midtown Hibiya, Hibiya Mitsui Tower, 1-1-2 Yurakucho, Chiyoda-ku", "addr:city": "Tokyo", "addr:postcode": "100-0006", "addr:country": "Japan", "name": "EY Advisory & Consulting Co., Ltd.", "phone": "+81 3 4582 6400", "website": "https://www.ey.com/locations/japan#tokyo-midtown-hibiya-ey-advisory-co-ltd", "brand": "Ernst & Young"}, "geometry": {"type": "Point", "coordinates": [139.7591738136382, 35.67358531595592]}},
{"type": "Feature", "id": "uLBgmg9uxwdD8QIC8jOtHlvbcp0=", "properties": {"ref": "japan#tokyo-midtown-hibiya-ey-japan-co-ltd", "@spider": "ernst_young", "addr:full": "Tokyo Midtown Hibiya, Hibiya Mitsui Tower, 1-1-2 Yurakucho, Chiyoda-ku", "addr:city": "Tokyo", "addr:postcode": "100-0006", "addr:country": "Japan", "name": "EY Japan Co., Ltd.", "website": "https://www.ey.com/locations/japan#tokyo-midtown-hibiya-ey-japan-co-ltd", "brand": "Ernst & Young"}, "geometry": {"type": "Point", "coordinates": [139.7591738136382, 35.67358531595592]}},
{"type": "Feature", "id": "5NX-BDwgxRvf4t6Was61c1H9iv0=", "properties": {"ref": "japan#tokyo-midtown-hibiya-ey-solutions-co-ltd", "@spider": "ernst_young", "addr:full": "515 Aios Nagata-cho 2-17-17 Nagata-cho, Chiyoda-ku", "addr:city": "Tokyo", "addr:postcode": "100-0014 ", "addr:country": "Japan", "name": "EY Solutions Co., Ltd.", "phone": "+81 3 3503 1116", "website": "https://www.ey.com/locations/japan#tokyo-midtown-hibiya-ey-solutions-co-ltd", "brand": "Ernst & Young"}, "geometry": {"type": "Point", "coordinates": [139.74066560567542, 35.6769890510477]}},
{"type": "Feature", "id": "ube8veA1LCeMdjbM--2e3zMDR1k=", "properties": {"ref": "japan#tokyo-midtown-hibiya-ey-law-co", "@spider": "ernst_young", "addr:full": "Tokyo Midtown Hibiya, Hibiya Mitsui Tower, 1-1-2 Yurakucho, Chiyoda-ku", "addr:city": "Tokyo", "addr:postcode": "100-0006", "addr:country": "Japan", "name": "EY Law Co.", "website": "https://www.ey.com/locations/japan#tokyo-midtown-hibiya-ey-law-co", "brand": "Ernst & Young"}, "geometry": {"type": "Point", "coordinates": [139.7591738136382, 35.67358531595592]}},
{"type": "Feature", "id": "aQUW_vkN0amiRxLgKRycdGJr3qk=", "properties": {"ref": "japan#tokyo-wavespace", "@spider": "ernst_young", "addr:full": "Tokyo Midtown Hibiya, Hibiya Mitsui Tower, 1-1-2 Yurakucho, Chiyoda-ku", "addr:city": "Tokyo", "addr:postcode": "100-0006", "addr:country": "Japan", "name": "EY wavespace Tokyo", "phone": "+81 7 0455 29943", "website": "https://www.ey.com/locations/japan#tokyo-wavespace", "brand": "Ernst & Young"}, "geometry": {"type": "Point", "coordinates": [139.7591738136382, 35.67358531595592]}},
{"type": "Feature", "id": "_lv0GN5yAztag8l6qXBshtFtqdU=", "properties": {"ref": "japan#ey-business-partner-co---ltd-", "@spider": "ernst_young", "addr:full": "Tokyo Midtown Hibiya, Hibiya Mitsui Tower, 1-1-2 Yurakucho, Chiyoda-ku", "addr:city": "Tokyo", "addr:postcode": "100-0006", "addr:country": "Japan", "name": "Ernst & Young Business Partner Co., Ltd.", "website": "https://www.ey.com/locations/japan#ey-business-partner-co---ltd-", "brand": "Ernst & Young"}, "geometry": {"type": "Point", "coordinates": [139.7591738136382, 35.67358531595592]}},
{"type": "Feature", "id": "sMdcO2JExrWqbNOSLWADFezD2qw=", "properties": {"ref": "japan#tokyo-midtown-hibiya-real-estate-advisors-", "@spider": "ernst_young", "addr:full": "1-1-2 Yurakucho, Chiyoda-ku, Tokyo Tokyo Midtown Hibiya, Hibiya Mitsui Tower", "addr:city": "Tokyo", "addr:postcode": "100-00106", "addr:country": "Japan", "name": "Ernst & Young Business Partner Co., Ltd.", "website": "https://www.ey.com/locations/japan#tokyo-midtown-hibiya-real-estate-advisors-", "brand": "Ernst & Young"}, "geometry": {"type": "Point", "coordinates": [139.7591738136382, 35.67358531595592]}}]}