{"type":"FeatureCollection","features":[{"type": "Feature", "id": "P7GbAJY-wa7zIQ-Pq6yOFj-m3JM=", "properties": {"ref": "https://locations.fazolis.com/va/chesapeake/1204-greenbrier-parkway.html", "@spider": "fazolis", "addr:full": "1204 Greenbrier Parkway", "addr:city": "Chesapeake", "addr:state": "VA", "addr:postcode": "23320", "phone": "(757) 548-0441", "website": "https://locations.fazolis.com/va/chesapeake/1204-greenbrier-parkway.html", "opening_hours": "Mo-Su 10:30-21:00", "brand": "Fazoli's", "brand:wikidata": "Q1399195"}, "geometry": {"type": "Point", "coordinates": [-76.22873961925507, 36.77038631985973]}},
{"type": "Feature", "id": "O2R2ezBKpSaxdCQYHzP4E1UBIF0=", "properties": {"ref": "https://locations.fazolis.com/sd/sioux-falls/4224-west-empire-place.html", "@spider": "fazolis", "addr:full": "4224 West Empire Place", "addr:city": "Sioux Falls", "addr:state": "SD", "addr:postcode": "57106", "phone": "(605) 681-8160", "website": "https://locations.fazolis.com/sd/sioux-falls/4224-west-empire-place.html", "opening_hours": "Mo-Su 10:30-22:00", "brand": "Fazoli's", "brand:wikidata": "Q1399195"}, "geometry": {"type": "Point", "coordinates": [-96.77730793254091, 43.51344124555178]}},
{"type": "Feature", "id": "A_rpbypuqY-am99dXeG71DhAVHk=", "properties": {"ref": "https://locations.fazolis.com/ms/southaven/215-e--goodman-road.html", "@spider": "fazolis", "addr:full": "215 E. Goodman Road", "addr:city": "Southaven", "addr:state": "MS", "addr:postcode": "38671", "phone": "(662) 536-2426", "website": "https://locations.fazolis.com/ms/southaven/215-e--goodman-road.html", "opening_hours": "Mo-Su 10:30-20:00", "brand": "Fazoli's", "brand:wikidata": "Q1399195"}, "geometry": {"type": "Point", "coordinates": [-89.9935331940651, 34.96215432134318]}},
{"type": "Feature", "id": "8kukh683kZNSSfd2y98GO-Yfh1E=", "properties": {"ref": "https://locations.fazolis.com/mn/rochester/5550-highway-52-n.html", "@spider": "fazolis", "addr:full": "5550 Highway 52 N", "addr:city": "Rochester", "addr:state": "MN", "addr:postcode": "55901", "phone": "(507) 286-8763", "website": "https://locations.fazolis.com/mn/rochester/5550-highway-52-n.html", "opening_hours": "Mo-Su 11:00-20:00", "brand": "Fazoli's", "brand:wikidata": "Q1399195"}, "geometry": {"type": "Point", "coordinates": [-92.50606439031799, 44.08086580756939]}},
{"type": "Feature", "id": "PgrHGNRCSun_nVefhDOuY4j2t8E=", "properties": {"ref": "https://locations.fazolis.com/co/arvada/5480-wadsworth-bypass.html", "@spider": "fazolis", "addr:full": "5480 Wadsworth Bypass", "addr:city": "Arvada", "addr:state": "CO", "addr:postcode": "80002", "phone": "(303) 423-8189", "website": "https://locations.fazolis.com/co/arvada/5480-wadsworth-bypass.html", "opening_hours": "Mo-Su 10:30-22:00", "brand": "Fazoli's", "brand:wikidata": "Q1399195"}, "geometry": {"type": "Point", "coordinates": [-105.07731786884506, 39.79545107104623]}},
{"type": "Feature", "id": "nvAN7NhH5mOYK6fQ7I4l1LKyT20=", "properties": {"ref": "https://locations.fazolis.com/co/northglenn/460-e--120th-ave-.html", "@spider": "fazolis", "addr:full": "460 E. 120th Ave.", "addr:city": "Northglenn", "addr:state": "CO", "addr:postcode": "80233", "phone": "(303) 452-9221", "website": "https://locations.fazolis.com/co/northglenn/460-e--120th-ave-.html", "opening_hours": "Mo-Su 10:30-22:00", "brand": "Fazoli's", "brand:wikidata": "Q1399195"}, "geometry": {"type": "Point", "coordinates": [-104.98168297488519, 39.913682299432594]}},
{"type": "Feature", "id": "wp5FX27L_1vhXHi43es8msuVDUk=", "properties": {"ref": "https://locations.fazolis.com/co/aurora/1012-s--abilene-st.html", "@spider": "fazolis", "addr:full": "1012 S. Abilene St", "addr:city": "Aurora", "addr:state": "CO", "addr:postcode": "80012", "phone": "(303) 745-6336", "website": "https://locations.fazolis.com/co/aurora/1012-s--abilene-st.html", "opening_hours": "Mo-Su 10:30-22:00", "brand": "Fazoli's", "brand:wikidata": "Q1399195"}, "geometry": {"type": "Point", "coordinates": [-104.82681423425674, 39.69918403477899]}},
{"type": "Feature", "id": "O1Fo6Y2fBgkoRh5aicGCe0Gkxm4=", "properties": {"ref": "https://locations.fazolis.com/tx/san-antonio/6170-interstate-10-east.html", "@spider": "fazolis", "addr:full": "6170 Interstate 10 East", "addr:city": "San Antonio", "addr:state": "TX", "addr:postcode": "78219", "phone": "(210) 310-0145", "website": "https://locations.fazolis.com/tx/san-antonio/6170-interstate-10-east.html", "opening_hours": "Mo-Su 10:00-20:00", "brand": "Fazoli's", "brand:wikidata": "Q1399195"}, "geometry": {"type": "Point", "coordinates": [-98.3615996342545, 29.44334681850809]}},
{"type": "Feature", "id": "zv1hvlNN6P7j_zrsXJBVZcLRjiw=", "properties": {"ref": "https://locations.fazolis.com/co/pueblo/1631-w-us-highway-50.html", "@spider": "fazolis", "addr:full": "1631 W US Highway 50", "addr:city": "Pueblo", "addr:state": "CO", "addr:postcode": "81008", "phone": "(719) 545-1123", "website": "https://locations.fazolis.com/co/pueblo/1631-w-us-highway-50.html", "opening_hours": "Mo-Su 10:30-22:00", "brand": "Fazoli's", "brand:wikidata": "Q1399195"}, "geometry": {"type": "Point", "coordinates": [-104.6291270822428, 38.30993672580274]}},
{"type": "Feature", "id": "auh9ZozfZjKcdgWXnc83haSskvs=", "properties": {"ref": "https://locations.fazolis.com/al/prattville/789-business-park-dr-.html", "@spider": "fazolis", "addr:full": "789 Business Park Dr.", "addr:city": "Prattville", "addr:state": "AL", "addr:postcode": "36066", "phone": "(334) 730-1203", "website": "https://locations.fazolis.com/al/prattville/789-business-park-dr-.html", "opening_hours": "Mo-Su 10:30-21:00", "brand": "Fazoli's", "brand:wikidata": "Q1399195"}, "geometry": {"type": "Point", "coordinates": [-86.4115527, 32.4873025]}},
{"type": "Feature", "id": "6zIjXo9YVR7YJXNZhmJ9ZiU4HTg=", "properties": {"ref": "https://locations.fazolis.com/al/montgomery/7123-eastchase-parkway.html", "@spider": "fazolis", "addr:full": "7123 Eastchase Parkway", "addr:city": "Montgomery", "addr:state": "AL", "addr:postcode": "36117", "phone": "(334) 239-9109", "website": "https://locations.fazolis.com/al/montgomery/7123-eastchase-parkway.html", "opening_hours": "Mo-Su 10:30-21:00", "brand": "Fazoli's", "brand:wikidata": "Q1399195"}, "geometry": {"type": "Point", "coordinates": [-86.1665573716163, 32.360811983490706]}},
{"type": "Feature", "id": "GQ1h4yjIZ-z7KN8ywp8LVg9rQHA=", "properties": {"ref": "https://locations.fazolis.com/al/dothan/3421-ross-clark-circle.html", "@spider": "fazolis", "addr:full": "3421 Ross Clark Circle", "addr:city": "Dothan", "addr:state": "AL", "addr:postcode": "36303", "phone": "(334) 446-4239", "website": "https://locations.fazolis.com/al/dothan/3421-ross-clark-circle.html", "opening_hours": "Mo-Su 10:30-21:00", "brand": "Fazoli's", "brand:wikidata": "Q1399195"}, "geometry": {"type": "Point", "coordinates": [-85.4296512473602, 31.24497728842995]}},
{"type": "Feature", "id": "9eLF7r0oukUe-m1VH-5TIQPsEaE=", "properties": {"ref": "https://locations.fazolis.com/wi/west-allis/10833-west-greenfield-avenue.html", "@spider": "fazolis", "addr:full": "10833 West Greenfield Avenue", "addr:city": "West Allis", "addr:state": "WI", "addr:postcode": "53214", "phone": "(414) 258-3411", "website": "https://locations.fazolis.com/wi/west-allis/10833-west-greenfield-avenue.html", "opening_hours": "Mo-Su 10:30-22:00", "brand": "Fazoli's", "brand:wikidata": "Q1399195"}, "geometry": {"type": "Point", "coordinates": [-88.04807743944366, 43.01586984998352]}},
{"type": "Feature", "id": "YIFmiwbaBLWXjKG8fw5vjbhVhxY=", "properties": {"ref": "https://locations.fazolis.com/wi/wausau/226422-rib-mountain-dr.html", "@spider": "fazolis", "addr:full": "226422 Rib Mountain Dr", "addr:city": "Wausau", "addr:state": "WI", "addr:postcode": "54401", "phone": "(715) 355-0801", "website": "https://locations.fazolis.com/wi/wausau/226422-rib-mountain-dr.html", "opening_hours": "Mo-Su 10:30-21:00", "brand": "Fazoli's", "brand:wikidata": "Q1399195"}, "geometry": {"type": "Point", "coordinates": [-89.65320512652397, 44.922269213806345]}},
{"type": "Feature", "id": "Cufef8kK6514ZVWj2h2LLLtg3pg=", "properties": {"ref": "https://locations.fazolis.com/ok/oklahoma-city/6821-nw-expressway.html", "@spider": "fazolis", "addr:full": "6821 NW Expressway", "addr:city": "Oklahoma City", "addr:state": "OK", "addr:postcode": "73132", "phone": "(405) 720-1343", "website": "https://locations.fazolis.com/ok/oklahoma-city/6821-nw-expressway.html", "opening_hours": "Mo-Su 10:30-22:00", "brand": "Fazoli's", "brand:wikidata": "Q1399195"}, "geometry": {"type": "Point", "coordinates": [-97.63550877571106, 35.557389405708385]}},
{"type": "Feature", "id": "jMYwBgToTu1Ifmx_bU0e2osgD94=", "properties": {"ref": "https://locations.fazolis.com/oh/zanesville/2580-maple-ave.html", "@spider": "fazolis", "addr:full": "2580 Maple Ave", "addr:city": "Zanesville", "addr:state": "OH", "addr:postcode": "43701", "phone": "(740) 617-0545", "website": "https://locations.fazolis.com/oh/zanesville/2580-maple-ave.html", "opening_hours": "Mo-Th 10:30-22:00; Fr-Sa 10:30-23:00; Su 10:30-22:00", "brand": "Fazoli's", "brand:wikidata": "Q1399195"}, "geometry": {"type": "Point", "coordinates": [-82.0099092, 39.9709365]}},
{"type": "Feature", "id": "AMun0BlHIUO5K2O7PkSaRWljTsk=", "properties": {"ref": "https://locations.fazolis.com/tx/san-marcos/927-highway-80.html", "@spider": "fazolis", "addr:full": "927 Highway 80", "addr:city": "San Marcos", "addr:state": "TX", "addr:postcode": "78666", "phone": "(512) 392-2884", "website": "https://locations.fazolis.com/tx/san-marcos/927-highway-80.html", "opening_hours": "Mo-Su 10:30-21:00", "brand": "Fazoli's", "brand:wikidata": "Q1399195"}, "geometry": {"type": "Point", "coordinates": [-97.91802725710113, 29.88242530934227]}},
{"type": "Feature", "id": "J4hk1R2RPdZB_FftaFBrDBUnOM8=", "properties": {"ref": "https://locations.fazolis.com/ky/bowling-green/2915-scottsville-road.html", "@spider": "fazolis", "addr:full": "2915 Scottsville Road", "addr:city": "Bowling Green", "addr:state": "KY", "addr:postcode": "42104", "phone": "(270) 796-3934", "website": "https://locations.fazolis.com/ky/bowling-green/2915-scottsville-road.html", "opening_hours": "Mo-Th 10:30-22:00; Fr-Sa 10:30-23:00; Su 10:30-22:00", "brand": "Fazoli's", "brand:wikidata": "Q1399195"}, "geometry": {"type": "Point", "coordinates": [-86.42358273267746, 36.94516946975383]}},
{"type": "Feature", "id": "w3vC0acWOQQWS42f7HXlzW8o-KA=", "properties": {"ref": "https://locations.fazolis.com/ky/bardstown/3796-east-john-rowan-boulevard.html", "@spider": "fazolis", "addr:full": "3796 East John Rowan Boulevard", "addr:city": "Bardstown", "addr:state": "KY", "addr:postcode": "40004", "phone": "(502) 348-0004", "website": "https://locations.fazolis.com/ky/bardstown/3796-east-john-rowan-boulevard.html", "opening_hours": "Mo-Su 10:30-22:00", "brand": "Fazoli's", "brand:wikidata": "Q1399195"}, "geometry": {"type": "Point", "coordinates": [-85.4329009158937, 37.80066938335855]}},
{"type": "Feature", "id": "wiHNakmgmO7zGtfBLCJ0q0y2UqU=", "properties": {"ref": "https://locations.fazolis.com/ky/ashland/499-winchester-avenue.html", "@spider": "fazolis", "addr:full": "499 Winchester Avenue", "addr:city": "Ashland", "addr:state": "KY", "addr:postcode": "41101", "phone": "(606) 324-9908", "website": "https://locations.fazolis.com/ky/ashland/499-winchester-avenue.html", "opening_hours": "Mo-Su 10:30-22:00", "brand": "Fazoli's", "brand:wikidata": "Q1399195"}, "geometry": {"type": "Point", "coordinates": [-82.65166729688644, 38.485185465652634]}},
{"type": "Feature", "id": "04wkuywkxsyb22_tSIjF85giOZ4=", "properties": {"ref": "https://locations.fazolis.com/ky/winchester/16-carol-road.html", "@spider": "fazolis", "addr:full": "16 Carol Road", "addr:city": "Winchester", "addr:state": "KY", "addr:postcode": "40391", "phone": "(859) 744-7997", "website": "https://locations.fazolis.com/ky/winchester/16-carol-road.html", "opening_hours": "Mo-Th 10:30-22:00; Fr-Sa 10:30-23:00; Su 10:30-22:00", "brand": "Fazoli's", "brand:wikidata": "Q1399195"}, "geometry": {"type": "Point", "coordinates": [-84.2089873552323, 38.008442365574965]}},
{"type": "Feature", "id": "YqTTOrMklqk-Dq3HmYwW0sU202g=", "properties": {"ref": "https://locations.fazolis.com/ky/somerset/3209-south-us-27.html", "@spider": "fazolis", "addr:full": "3209 South US 27", "addr:city": "Somerset", "addr:state": "KY", "addr:postcode": "42501", "phone": "(606) 679-3488", "website": "https://locations.fazolis.com/ky/somerset/3209-south-us-27.html", "opening_hours": "Mo-Th 10:30-22:00; Fr-Sa 10:30-23:00; Su 10:30-22:00", "brand": "Fazoli's", "brand:wikidata": "Q1399195"}, "geometry": {"type": "Point", "coordinates": [-84.626682906746, 37.04901747762226]}},
{"type": "Feature", "id": "vQoJTH8odJO4iJJyoGl6AylAeyI=", "properties": {"ref": "https://locations.fazolis.com/ky/shepherdsville/210-paroquet-springs-dr-.html", "@spider": "fazolis", "addr:full": "210 Paroquet Springs Dr.", "addr:city": "Shepherdsville", "addr:state": "KY", "addr:postcode": "40165", "phone": "(502) 543-4058", "website": "https://locations.fazolis.com/ky/shepherdsville/210-paroquet-springs-dr-.html", "opening_hours": "Mo-Su 10:30-22:00", "brand": "Fazoli's", "brand:wikidata": "Q1399195"}, "geometry": {"type": "Point", "coordinates": [-85.70577770173941, 37.988759079374695]}},
{"type": "Feature", "id": "aID3jHb6ZwZbX0CtwUTYlepygM0=", "properties": {"ref": "https://locations.fazolis.com/oh/westerville/807-south-state-street.html", "@spider": "fazolis", "addr:full": "807 South State Street", "addr:city": "Westerville", "addr:state": "OH", "addr:postcode": "43081", "phone": "(614) 794-3612", "website": "https://locations.fazolis.com/oh/westerville/807-south-state-street.html", "opening_hours": "Mo-Th 10:30-22:00; Fr-Sa 10:30-23:00; Su 10:30-22:00", "brand": "Fazoli's", "brand:wikidata": "Q1399195"}, "geometry": {"type": "Point", "coordinates": [-82.92545250572402, 40.10614788257943]}},
{"type": "Feature", "id": "FYvsunZ2LzC17-q88jKF2HiUDOU=", "properties": {"ref": "https://locations.fazolis.com/ky/danville/1560-hustonville-rd---397.html", "@spider": "fazolis", "addr:full": "1560 Hustonville Rd, #397", "addr:city": "Danville", "addr:state": "KY", "addr:postcode": "40422", "phone": "(859) 236-9265", "website": "https://locations.fazolis.com/ky/danville/1560-hustonville-rd---397.html", "opening_hours": "Mo-Th 10:30-22:00; Fr-Sa 10:30-23:00; Su 10:30-22:00", "brand": "Fazoli's", "brand:wikidata": "Q1399195"}, "geometry": {"type": "Point", "coordinates": [-84.7739403, 37.6181708]}},
{"type": "Feature", "id": "tCzs3-o3b9tFru2YH-OzD4KDJz0=", "properties": {"ref": "https://locations.fazolis.com/ia/ames/2435-grand-avenue.html", "@spider": "fazolis", "addr:full": "2435 Grand Avenue", "addr:city": "Ames", "addr:state": "IA", "addr:postcode": "50010", "phone": "(515) 232-6009", "website": "https://locations.fazolis.com/ia/ames/2435-grand-avenue.html", "opening_hours": "Mo-Su 10:30-22:00", "brand": "Fazoli's", "brand:wikidata": "Q1399195"}, "geometry": {"type": "Point", "coordinates": [-93.62101703882217, 42.04699215470726]}},
{"type": "Feature", "id": "KJCft4zdfJJNhQPEomHBvyECyCo=", "properties": {"ref": "https://locations.fazolis.com/ks/shawnee/6345-quivira-road.html", "@spider": "fazolis", "addr:full": "6345 Quivira Road", "addr:city": "Shawnee", "addr:state": "KS", "addr:postcode": "66216", "phone": "(913) 962-5814", "website": "https://locations.fazolis.com/ks/shawnee/6345-quivira-road.html", "opening_hours": "Mo-Su 10:30-22:00", "brand": "Fazoli's", "brand:wikidata": "Q1399195"}, "geometry": {"type": "Point", "coordinates": [-94.72331076562796, 39.013797715793515]}},
{"type": "Feature", "id": "y1kLasNNFY9cylGgunORLNSPDOA=", "properties": {"ref": "https://locations.fazolis.com/ks/overland-park/12045-metcalf-avenue.html", "@spider": "fazolis", "addr:full": "12045 Metcalf Avenue", "addr:city": "Overland Park", "addr:state": "KS", "addr:postcode": "66209", "phone": "(913) 663-3738", "website": "https://locations.fazolis.com/ks/overland-park/12045-metcalf-avenue.html", "opening_hours": "Mo-Su 10:30-22:00", "brand": "Fazoli's", "brand:wikidata": "Q1399195"}, "geometry": {"type": "Point", "coordinates": [-94.66709739484031, 38.91020247359391]}},
{"type": "Feature", "id": "SWABvZJrq4mc780yQ-sdebl-OGs=", "properties": {"ref": "https://locations.fazolis.com/co/colorado-springs/3607-austin-bluffs-pkwy.html", "@spider": "fazolis", "addr:full": "3607 Austin Bluffs Pkwy", "addr:city": "Colorado Springs", "addr:state": "CO", "addr:postcode": "80918", "phone": "(719) 535-0369", "website": "https://locations.fazolis.com/co/colorado-springs/3607-austin-bluffs-pkwy.html", "opening_hours": "Mo-Su 10:30-22:00", "brand": "Fazoli's", "brand:wikidata": "Q1399195"}, "geometry": {"type": "Point", "coordinates": [-104.7606706, 38.8903763]}},
{"type": "Feature", "id": "xg-qb_gzBXdqr3_-m6SnNGJrBPc=", "properties": {"ref": "https://locations.fazolis.com/co/colorado-springs/1790-e--cheyenne-mt--blvd.html", "@spider": "fazolis", "addr:full": "1790 E. Cheyenne Mt. Blvd", "addr:city": "Colorado Springs", "addr:state": "CO", "addr:postcode": "80906", "phone": "(719) 579-7522", "website": "https://locations.fazolis.com/co/colorado-springs/1790-e--cheyenne-mt--blvd.html", "opening_hours": "Mo-Su 10:30-22:00", "brand": "Fazoli's", "brand:wikidata": "Q1399195"}, "geometry": {"type": "Point", "coordinates": [-104.80276792943869, 38.79506145477285]}},
{"type": "Feature", "id": "W3Sq5kWOMrIW77bvl4tF1TbLLHw=", "properties": {"ref": "https://locations.fazolis.com/ia/sioux-city/3327-singing-hills-blvd.html", "@spider": "fazolis", "addr:full": "3327 Singing Hills Blvd", "addr:city": "Sioux City", "addr:state": "IA", "addr:postcode": "51106", "phone": "(712) 454-7505", "website": "https://locations.fazolis.com/ia/sioux-city/3327-singing-hills-blvd.html", "opening_hours": "Mo-Th 11:00-21:00; Fr-Sa 11:00-22:00; Su 11:00-21:00", "brand": "Fazoli's", "brand:wikidata": "Q1399195"}, "geometry": {"type": "Point", "coordinates": [-96.36503024785041, 42.436724652965516]}},
{"type": "Feature", "id": "2PAA1S_C9rUPiEM0aXgKNPMweJg=", "properties": {"ref": "https://locations.fazolis.com/ia/dubuque/1210-e--16th-street.html", "@spider": "fazolis", "addr:full": "1210 E. 16th Street", "addr:city": "Dubuque", "addr:state": "IA", "addr:postcode": "52001", "phone": "(563) 582-5072", "website": "https://locations.fazolis.com/ia/dubuque/1210-e--16th-street.html", "opening_hours": "Mo-Su 11:00-20:00", "brand": "Fazoli's", "brand:wikidata": "Q1399195"}, "geometry": {"type": "Point", "coordinates": [-90.6554304957009, 42.511236091294414]}},
{"type": "Feature", "id": "n_fEkM3-Eo2JuI1aTJBK_Z-2rXM=", "properties": {"ref": "https://locations.fazolis.com/tx/waco/919-s--6th-street.html", "@spider": "fazolis", "addr:full": "919 S. 6th Street", "addr:city": "Waco", "addr:state": "TX", "addr:postcode": "76706", "phone": "(254) 752-2929", "website": "https://locations.fazolis.com/tx/waco/919-s--6th-street.html", "opening_hours": "Mo-Su 10:30-23:00", "brand": "Fazoli's", "brand:wikidata": "Q1399195"}, "geometry": {"type": "Point", "coordinates": [-97.1249486476222, 31.548913311951242]}},
{"type": "Feature", "id": "nCEiARrBIPc4uspuQoozgY9CdEQ=", "properties": {"ref": "https://locations.fazolis.com/tx/waco/5201-w--waco-drive.html", "@spider": "fazolis", "addr:full": "5201 W. Waco Drive", "addr:city": "Waco", "addr:state": "TX", "addr:postcode": "76710", "phone": "(254) 776-1324", "website": "https://locations.fazolis.com/tx/waco/5201-w--waco-drive.html", "opening_hours": "Mo-Su 10:30-22:00", "brand": "Fazoli's", "brand:wikidata": "Q1399195"}, "geometry": {"type": "Point", "coordinates": [-97.18109569467742, 31.519489777248243]}},
{"type": "Feature", "id": "GQPPWP7PIf4enybBGWV54bbDGMY=", "properties": {"ref": "https://locations.fazolis.com/in/vincennes/2322-n--6th-street.html", "@spider": "fazolis", "addr:full": "2322 N. 6th Street", "addr:city": "Vincennes", "addr:state": "IN", "addr:postcode": "47591", "phone": "(812) 882-3583", "website": "https://locations.fazolis.com/in/vincennes/2322-n--6th-street.html", "opening_hours": "Mo-Th 10:30-22:00; Fr-Sa 10:30-23:00; Su 10:30-22:00", "brand": "Fazoli's", "brand:wikidata": "Q1399195"}, "geometry": {"type": "Point", "coordinates": [-87.5053296983242, 38.68963946710423]}},
{"type": "Feature", "id": "e0kA9jOIaMeiu8Mhdf_YIL1R8b4=", "properties": {"ref": "https://locations.fazolis.com/in/valparaiso/2809-calumet-ave-.html", "@spider": "fazolis", "addr:full": "2809 Calumet Ave.", "addr:city": "Valparaiso", "addr:state": "IN", "addr:postcode": "46383", "phone": "(219) 531-0001", "website": "https://locations.fazolis.com/in/valparaiso/2809-calumet-ave-.html", "opening_hours": "Mo-Su 10:30-22:00", "brand": "Fazoli's", "brand:wikidata": "Q1399195"}, "geometry": {"type": "Point", "coordinates": [-87.04608156979475, 41.49440522049483]}},
{"type": "Feature", "id": "bvrpRn8VgwoK8i3FI8BCag2DpyU=", "properties": {"ref": "https://locations.fazolis.com/in/shelbyville/2554-east-state-road-44.html", "@spider": "fazolis", "addr:full": "2554 East State Road 44", "addr:city": "Shelbyville", "addr:state": "IN", "addr:postcode": "46176", "phone": "(317) 825-0046", "website": "https://locations.fazolis.com/in/shelbyville/2554-east-state-road-44.html", "opening_hours": "Mo-Su 10:30-21:00", "brand": "Fazoli's", "brand:wikidata": "Q1399195"}, "geometry": {"type": "Point", "coordinates": [-85.74089348316187, 39.52511161648103]}},
{"type": "Feature", "id": "ZDwjrkrorjtuA-wqfO5xwAM66kI=", "properties": {"ref": "https://locations.fazolis.com/in/muncie/307-e--mcgalliard.html", "@spider": "fazolis", "addr:full": "307 E. McGalliard", "addr:city": "Muncie", "addr:state": "IN", "addr:postcode": "47303", "phone": "(765) 282-2607", "website": "https://locations.fazolis.com/in/muncie/307-e--mcgalliard.html", "opening_hours": "Mo-Th 10:30-22:00; Fr-Sa 10:30-23:00; Su 10:30-22:00", "brand": "Fazoli's", "brand:wikidata": "Q1399195"}, "geometry": {"type": "Point", "coordinates": [-85.38350254297262, 40.21869998705117]}},
{"type": "Feature", "id": "l8YPkOBtk14jANDOlvhBfTV03m0=", "properties": {"ref": "https://locations.fazolis.com/in/mishawaka/317-west-mc-kinley.html", "@spider": "fazolis", "addr:full": "317 West Mc Kinley", "addr:city": "Mishawaka", "addr:state": "IN", "addr:postcode": "46545", "phone": "(574) 255-2551", "website": "https://locations.fazolis.com/in/mishawaka/317-west-mc-kinley.html", "opening_hours": "Mo-Su 10:30-22:00", "brand": "Fazoli's", "brand:wikidata": "Q1399195"}, "geometry": {"type": "Point", "coordinates": [-86.18526577949524, 41.679935647777235]}},
{"type": "Feature", "id": "KkQxEA8O2BluB_xeW5JdcfMhJR4=", "properties": {"ref": "https://locations.fazolis.com/in/marion/2922-s-western-avenue.html", "@spider": "fazolis", "addr:full": "2922 S Western Avenue", "addr:city": "Marion", "addr:state": "IN", "addr:postcode": "46953", "phone": "(765) 668-7298", "website": "https://locations.fazolis.com/in/marion/2922-s-western-avenue.html", "opening_hours": "Mo-Su 10:30-21:00", "brand": "Fazoli's", "brand:wikidata": "Q1399195"}, "geometry": {"type": "Point", "coordinates": [-85.67447498141064, 40.53454639092552]}},
{"type": "Feature", "id": "t02XD2O7KMC5aWfY4xeIcWlljtY=", "properties": {"ref": "https://locations.fazolis.com/in/richmond/4711-e--national-rd-.html", "@spider": "fazolis", "addr:full": "4711 E. National Rd.", "addr:city": "Richmond", "addr:state": "IN", "addr:postcode": "47374", "phone": "(765) 935-6219", "website": "https://locations.fazolis.com/in/richmond/4711-e--national-rd-.html", "opening_hours": "Mo-Su 10:30-21:00", "brand": "Fazoli's", "brand:wikidata": "Q1399195"}, "geometry": {"type": "Point", "coordinates": [-84.8365600211946, 39.83074004163991]}},
{"type": "Feature", "id": "RS1bDQmiXcKv70oizrFhz5Xjzhs=", "properties": {"ref": "https://locations.fazolis.com/in/terre-haute/2940-s--third-street.html", "@spider": "fazolis", "addr:full": "2940 S. Third Street", "addr:city": "Terre Haute", "addr:state": "IN", "addr:postcode": "47802", "phone": "(812) 234-5364", "website": "https://locations.fazolis.com/in/terre-haute/2940-s--third-street.html", "opening_hours": "Mo-Th 10:30-21:00; Fr-Sa 10:30-22:00; Su 10:30-21:00", "brand": "Fazoli's", "brand:wikidata": "Q1399195"}, "geometry": {"type": "Point", "coordinates": [-87.41313546895981, 39.43455023515774]}},
{"type": "Feature", "id": "REhUTQb5vF7maHHJ2qQfhhu-9Yw=", "properties": {"ref": "https://locations.fazolis.com/in/lafayette/3457-state-rd--26-east.html", "@spider": "fazolis", "addr:full": "3457 State Rd. 26 East", "addr:city": "Lafayette", "addr:state": "IN", "addr:postcode": "47905", "phone": "(765) 449-1725", "website": "https://locations.fazolis.com/in/lafayette/3457-state-rd--26-east.html", "opening_hours": "Mo-Su 10:30-22:00", "brand": "Fazoli's", "brand:wikidata": "Q1399195"}, "geometry": {"type": "Point", "coordinates": [-86.85355394781027, 40.41698308335639]}},
{"type": "Feature", "id": "O_yven3LKBOCD5zxm3le6mE-Iwk=", "properties": {"ref": "https://locations.fazolis.com/in/jasper/703-third-st-.html", "@spider": "fazolis", "addr:full": "703 Third St.", "addr:city": "Jasper", "addr:state": "IN", "addr:postcode": "47546", "phone": "(812) 634-1574", "website": "https://locations.fazolis.com/in/jasper/703-third-st-.html", "opening_hours": "Mo-Th 10:30-21:00; Fr-Sa 10:30-22:00; Su 10:30-21:00", "brand": "Fazoli's", "brand:wikidata": "Q1399195"}, "geometry": {"type": "Point", "coordinates": [-86.91665157378111, 38.37895517469799]}},
{"type": "Feature", "id": "DspYHtBATSYKY2BJXTDNl5_8bvY=", "properties": {"ref": "https://locations.fazolis.com/in/greenwood/1695-meridian-oaks-dr-.html", "@spider": "fazolis", "addr:full": "1695 Meridian Oaks Dr.", "addr:city": "Greenwood", "addr:state": "IN", "addr:postcode": "46142", "phone": "(317) 888-4947", "website": "https://locations.fazolis.com/in/greenwood/1695-meridian-oaks-dr-.html", "opening_hours": "Mo-Th 10:30-22:00; Fr-Sa 10:30-23:00; Su 10:30-22:00", "brand": "Fazoli's", "brand:wikidata": "Q1399195"}, "geometry": {"type": "Point", "coordinates": [-86.15787506103516, 39.61437316595655]}},
{"type": "Feature", "id": "NqEUuN6mxc-qXJU_7lqDHNUjQMw=", "properties": {"ref": "https://locations.fazolis.com/ks/wichita/8520-west-central-avenue.html", "@spider": "fazolis", "addr:full": "8520 West Central Avenue", "addr:city": "Wichita", "addr:state": "KS", "addr:postcode": "67212", "phone": "(316) 721-1011", "website": "https://locations.fazolis.com/ks/wichita/8520-west-central-avenue.html", "opening_hours": "Mo-Su 10:30-22:00", "brand": "Fazoli's", "brand:wikidata": "Q1399195"}, "geometry": {"type": "Point", "coordinates": [-97.44141487315574, 37.694706961387155]}},
{"type": "Feature", "id": "8Lqu61UZJ1CxJRaQvmPdQMz_SGQ=", "properties": {"ref": "https://locations.fazolis.com/ks/wichita/3553-n--rock-road.html", "@spider": "fazolis", "addr:full": "3553 N. Rock Road", "addr:city": "Wichita", "addr:state": "KS", "addr:postcode": "67226", "phone": "(316) 634-1855", "website": "https://locations.fazolis.com/ks/wichita/3553-n--rock-road.html", "opening_hours": "Mo-Su 10:30-22:00", "brand": "Fazoli's", "brand:wikidata": "Q1399195"}, "geometry": {"type": "Point", "coordinates": [-97.24527656734381, 37.74836982505131]}},
{"type": "Feature", "id": "_qgwJVbsRwXt3P0nkzpkb3j9wtM=", "properties": {"ref": "https://locations.fazolis.com/in/kokomo/622-south-reed-road.html", "@spider": "fazolis", "addr:full": "622 South Reed Road", "addr:city": "Kokomo", "addr:state": "IN", "addr:postcode": "46902", "phone": "(765) 868-2538", "website": "https://locations.fazolis.com/in/kokomo/622-south-reed-road.html", "opening_hours": "Mo-Th 10:30-22:00; Fr-Sa 10:30-23:00; Su 10:30-22:00", "brand": "Fazoli's", "brand:wikidata": "Q1399195"}, "geometry": {"type": "Point", "coordinates": [-86.10694795846939, 40.48122197141915]}},
{"type": "Feature", "id": "W8zCrAh6S-gbugM2IlaIoFAJ1yM=", "properties": {"ref": "https://locations.fazolis.com/in/elkhart/1248-nappanee-street.html", "@spider": "fazolis", "addr:full": "1248 Nappanee street", "addr:city": "Elkhart", "addr:state": "IN", "addr:postcode": "46514", "phone": "(574) 262-9873", "website": "https://locations.fazolis.com/in/elkhart/1248-nappanee-street.html", "opening_hours": "Mo-Su 10:30-22:00", "brand": "Fazoli's", "brand:wikidata": "Q1399195"}, "geometry": {"type": "Point", "coordinates": [-86.00185377434173, 41.70103071740032]}},
{"type": "Feature", "id": "8iP60RaT6cdYDV0GbrndNblJ2_g=", "properties": {"ref": "https://locations.fazolis.com/in/franklin/2161-n-morton-st-.html", "@spider": "fazolis", "addr:full": "2161 N Morton St.", "addr:city": "Franklin", "addr:state": "IN", "addr:postcode": "46131", "phone": "(317) 560-5380", "website": "https://locations.fazolis.com/in/franklin/2161-n-morton-st-.html", "opening_hours": "Mo-Su 10:30-20:00", "brand": "Fazoli's", "brand:wikidata": "Q1399195"}, "geometry": {"type": "Point", "coordinates": [-86.06818339742858, 39.50374690697653]}},
{"type": "Feature", "id": "NiaaQi2A3SmYonOHvAnGcIzNSAo=", "properties": {"ref": "https://locations.fazolis.com/in/columbus/3041-national-road.html", "@spider": "fazolis", "addr:full": "3041 National Road", "addr:city": "Columbus", "addr:state": "IN", "addr:postcode": "47201", "phone": "(812) 372-3353", "website": "https://locations.fazolis.com/in/columbus/3041-national-road.html", "opening_hours": "Mo-Su 10:30-23:00", "brand": "Fazoli's", "brand:wikidata": "Q1399195"}, "geometry": {"type": "Point", "coordinates": [-85.9002193808555, 39.22934027417512]}},
{"type": "Feature", "id": "YJEOQRzSEmKC-VmE484J85erSFA=", "properties": {"ref": "https://locations.fazolis.com/in/clarksville/913-east-highway-131.html", "@spider": "fazolis", "addr:full": "913 East Highway 131", "addr:city": "Clarksville", "addr:state": "IN", "addr:postcode": "47129", "phone": "(812) 282-1234", "website": "https://locations.fazolis.com/in/clarksville/913-east-highway-131.html", "opening_hours": "Mo-Su 10:30-21:00", "brand": "Fazoli's", "brand:wikidata": "Q1399195"}, "geometry": {"type": "Point", "coordinates": [-85.76004713773733, 38.31587255896439]}},
{"type": "Feature", "id": "xdwY2eynK9YuJWKWogMJ1bTBcSo=", "properties": {"ref": "https://locations.fazolis.com/in/carmel/465-east-carmel-drive.html", "@spider": "fazolis", "addr:full": "465 East Carmel Drive", "addr:city": "Carmel", "addr:state": "IN", "addr:postcode": "46032", "phone": "(317) 573-9814", "website": "https://locations.fazolis.com/in/carmel/465-east-carmel-drive.html", "opening_hours": "Mo-Su 10:30-22:00", "brand": "Fazoli's", "brand:wikidata": "Q1399195"}, "geometry": {"type": "Point", "coordinates": [-86.11847445071135, 39.96152834163938]}},
{"type": "Feature", "id": "yDo3DUF0oTOwkER_vEUqhOm1GRk=", "properties": {"ref": "https://locations.fazolis.com/in/bloomington/315-college-mall-road.html", "@spider": "fazolis", "addr:full": "315 College Mall Road", "addr:city": "Bloomington", "addr:state": "IN", "addr:postcode": "47401", "phone": "(812) 332-3566", "website": "https://locations.fazolis.com/in/bloomington/315-college-mall-road.html", "opening_hours": "Mo-Th 10:30-22:00; Fr-Sa 10:30-23:00; Su 10:30-22:00", "brand": "Fazoli's", "brand:wikidata": "Q1399195"}, "geometry": {"type": "Point", "coordinates": [-86.497702896595, 39.163438131378065]}},
{"type": "Feature", "id": "hAA5gM-vIGzZpEJyUErTW9FyfEs=", "properties": {"ref": "https://locations.fazolis.com/ia/ankeny/930-1st-street.html", "@spider": "fazolis", "addr:full": "930 1st Street", "addr:city": "Ankeny", "addr:state": "IA", "addr:postcode": "50021", "phone": "(515) 965-9802", "website": "https://locations.fazolis.com/ia/ankeny/930-1st-street.html", "opening_hours": "Mo-Su 10:30-22:00", "brand": "Fazoli's", "brand:wikidata": "Q1399195"}, "geometry": {"type": "Point", "coordinates": [-93.58293205202017, 41.73228675130025]}},
{"type": "Feature", "id": "ZRaa3tfMywpMrFOCGm39PbsK7VQ=", "properties": {"ref": "https://locations.fazolis.com/in/avon/7930-e-us-36.html", "@spider": "fazolis", "addr:full": "7930 E Us-36", "addr:city": "Avon", "addr:state": "IN", "addr:postcode": "46123", "phone": "(317) 272-7989", "website": "https://locations.fazolis.com/in/avon/7930-e-us-36.html", "opening_hours": "Mo-Th 10:30-22:00; Fr-Sa 10:30-23:00; Su 10:30-22:00", "brand": "Fazoli's", "brand:wikidata": "Q1399195"}, "geometry": {"type": "Point", "coordinates": [-86.38281583786011, 39.76346973490471]}},
{"type": "Feature", "id": "MV56zEcjqGBI3__gUzcK4Afn714=", "properties": {"ref": "https://locations.fazolis.com/in/anderson/4410-scatterfield-road.html", "@spider": "fazolis", "addr:full": "4410 Scatterfield Road", "addr:city": "Anderson", "addr:state": "IN", "addr:postcode": "46013", "phone": "(765) 622-9163", "website": "https://locations.fazolis.com/in/anderson/4410-scatterfield-road.html", "opening_hours": "Mo-Th 10:30-22:00; Fr-Sa 10:30-23:00; Su 10:30-22:00", "brand": "Fazoli's", "brand:wikidata": "Q1399195"}, "geometry": {"type": "Point", "coordinates": [-85.65227061510086, 40.070680549509056]}},
{"type": "Feature", "id": "-DxIL-Cc1qccN1bLsFDPQRhvxWU=", "properties": {"ref": "https://locations.fazolis.com/ks/olathe/13516-s--alden-street.html", "@spider": "fazolis", "addr:full": "13516 S. Alden Street", "addr:city": "Olathe", "addr:state": "KS", "addr:postcode": "66062", "phone": "(913) 393-1987", "website": "https://locations.fazolis.com/ks/olathe/13516-s--alden-street.html", "opening_hours": "Mo-Su 10:30-22:00", "brand": "Fazoli's", "brand:wikidata": "Q1399195"}, "geometry": {"type": "Point", "coordinates": [-94.75938684262474, 38.88312852865005]}},
{"type": "Feature", "id": "wQQfDwB1TJBWsbBtoD7boYjb-6Q=", "properties": {"ref": "https://locations.fazolis.com/mo/washington/3161-phoenix-drive.html", "@spider": "fazolis", "addr:full": "3161 Phoenix Drive", "addr:city": "Washington", "addr:state": "MO", "addr:postcode": "63090", "phone": "(636) 283-5299", "website": "https://locations.fazolis.com/mo/washington/3161-phoenix-drive.html", "opening_hours": "Mo-Th 10:30-21:00; Fr-Sa 10:30-22:00; Su 10:30-21:00", "brand": "Fazoli's", "brand:wikidata": "Q1399195"}, "geometry": {"type": "Point", "coordinates": [-90.97927468220905, 38.535889626993146]}},
{"type": "Feature", "id": "BQsDayTcgCQrdR3cYbh1l1EjYhg=", "properties": {"ref": "https://locations.fazolis.com/ky/richmond/441-leighway-dr-.html", "@spider": "fazolis", "addr:full": "441 Leighway Dr.", "addr:city": "Richmond", "addr:state": "KY", "addr:postcode": "40475", "phone": "(859) 624-0884", "website": "https://locations.fazolis.com/ky/richmond/441-leighway-dr-.html", "opening_hours": "Mo-Th 10:30-22:00; Fr-Sa 10:30-23:00; Su 10:30-22:00", "brand": "Fazoli's", "brand:wikidata": "Q1399195"}, "geometry": {"type": "Point", "coordinates": [-84.31168913841248, 37.737000103039016]}},
{"type": "Feature", "id": "oFaiUmHTugSZnOjjhk9hzefB1Eo=", "properties": {"ref": "https://locations.fazolis.com/ia/council-bluffs/3134-dial-drive.html", "@spider": "fazolis", "addr:full": "3134 Dial Drive", "addr:city": "Council Bluffs", "addr:state": "IA", "addr:postcode": "51503", "phone": "(712) 366-0860", "website": "https://locations.fazolis.com/ia/council-bluffs/3134-dial-drive.html", "opening_hours": "Mo-Su 10:30-22:00", "brand": "Fazoli's", "brand:wikidata": "Q1399195"}, "geometry": {"type": "Point", "coordinates": [-95.85030293978889, 41.229298057881365]}},
{"type": "Feature", "id": "U36MRbVrIJqFrWzv7iuMcXflnl8=", "properties": {"ref": "https://locations.fazolis.com/in/indianapolis/2374-west-86th-street.html", "@spider": "fazolis", "addr:full": "2374 West 86th Street", "addr:city": "Indianapolis", "addr:state": "IN", "addr:postcode": "46260", "phone": "(317) 876-1912", "website": "https://locations.fazolis.com/in/indianapolis/2374-west-86th-street.html", "opening_hours": "Mo-Th 10:30-22:00; Fr-Sa 10:30-23:00; Su 10:30-22:00", "brand": "Fazoli's", "brand:wikidata": "Q1399195"}, "geometry": {"type": "Point", "coordinates": [-86.2025672, 39.9123648]}},
{"type": "Feature", "id": "q_APgy7QHhLlOYNdo3VR4CKqqFw=", "properties": {"ref": "https://locations.fazolis.com/ky/pikeville/1302-south-mayo-trail.html", "@spider": "fazolis", "addr:full": "1302 South Mayo Trail", "addr:city": "Pikeville", "addr:state": "KY", "addr:postcode": "41501", "phone": "(606) 653-9900", "website": "https://locations.fazolis.com/ky/pikeville/1302-south-mayo-trail.html", "opening_hours": "Mo-Sa 10:30-22:00; Su 10:30-21:00", "brand": "Fazoli's", "brand:wikidata": "Q1399195"}, "geometry": {"type": "Point", "coordinates": [-82.5254966, 37.4444557]}},
{"type": "Feature", "id": "nw73WvrYZQ39CP_qO4iV0tEk8is=", "properties": {"ref": "https://locations.fazolis.com/ky/paintsville/337-north-mayo-trail-us-23.html", "@spider": "fazolis", "addr:full": "337 North Mayo Trail US 23", "addr:city": "Paintsville", "addr:state": "KY", "addr:postcode": "41240", "phone": "(606) 789-6708", "website": "https://locations.fazolis.com/ky/paintsville/337-north-mayo-trail-us-23.html", "opening_hours": "Mo-Su 10:30-22:00", "brand": "Fazoli's", "brand:wikidata": "Q1399195"}, "geometry": {"type": "Point", "coordinates": [-82.81856611073408, 37.82289573482183]}},
{"type": "Feature", "id": "vhGsRlIrwTL85h-mPvbV9qzqDCg=", "properties": {"ref": "https://locations.fazolis.com/in/indianapolis/8401-s--madison-avenue.html", "@spider": "fazolis", "addr:full": "8401 S. Madison Avenue", "addr:city": "Indianapolis", "addr:state": "IN", "addr:postcode": "46227", "phone": "(317) 865-1204", "website": "https://locations.fazolis.com/in/indianapolis/8401-s--madison-avenue.html", "opening_hours": "Mo-Th 10:30-22:00; Fr-Sa 10:30-23:00; Su 10:30-22:00", "brand": "Fazoli's", "brand:wikidata": "Q1399195"}, "geometry": {"type": "Point", "coordinates": [-86.11930361904342, 39.64445025141075]}},
{"type": "Feature", "id": "4cxcTq9nxrq2oh6EmAvMnL52WP4=", "properties": {"ref": "https://locations.fazolis.com/in/indianapolis/7218-west-10th-street.html", "@spider": "fazolis", "addr:full": "7218 West 10th Street", "addr:city": "Indianapolis", "addr:state": "IN", "addr:postcode": "46214", "phone": "(317) 241-1653", "website": "https://locations.fazolis.com/in/indianapolis/7218-west-10th-street.html", "opening_hours": "Mo-Su 10:30-22:00", "brand": "Fazoli's", "brand:wikidata": "Q1399195"}, "geometry": {"type": "Point", "coordinates": [-86.28661445297439, 39.779676674968904]}},
{"type": "Feature", "id": "P3QrCRhaS9fU1fNSaFA0jlHij0s=", "properties": {"ref": "https://locations.fazolis.com/in/indianapolis/6450-east-82nd-street.html", "@spider": "fazolis", "addr:full": "6450 East 82nd Street", "addr:city": "Indianapolis", "addr:state": "IN", "addr:postcode": "46250", "phone": "(317) 849-2385", "website": "https://locations.fazolis.com/in/indianapolis/6450-east-82nd-street.html", "opening_hours": "Mo-Su 10:30-21:00", "brand": "Fazoli's", "brand:wikidata": "Q1399195"}, "geometry": {"type": "Point", "coordinates": [-86.05569637335975, 39.90573659864123]}},
{"type": "Feature", "id": "rWfchcKxI10E2241zoLevb3IDXg=", "properties": {"ref": "https://locations.fazolis.com/in/indianapolis/5202-west-washington.html", "@spider": "fazolis", "addr:full": "5202 West Washington", "addr:city": "Indianapolis", "addr:state": "IN", "addr:postcode": "46241", "phone": "(317) 487-9733", "website": "https://locations.fazolis.com/in/indianapolis/5202-west-washington.html", "opening_hours": "Mo-Th 10:30-22:00; Fr-Sa 10:30-23:00; Su 10:30-22:00", "brand": "Fazoli's", "brand:wikidata": "Q1399195"}, "geometry": {"type": "Point", "coordinates": [-86.24981417954359, 39.753304430067615]}},
{"type": "Feature", "id": "Me3mz21BIQSGTYIiWWDAT0geCf0=", "properties": {"ref": "https://locations.fazolis.com/in/fort-wayne/439-w--coliseum-blvd-.html", "@spider": "fazolis", "addr:full": "439 W. Coliseum Blvd.", "addr:city": "Fort Wayne", "addr:state": "IN", "addr:postcode": "46805", "phone": "(260) 471-3144", "website": "https://locations.fazolis.com/in/fort-wayne/439-w--coliseum-blvd-.html", "opening_hours": "Mo-Su 11:00-22:00", "brand": "Fazoli's", "brand:wikidata": "Q1399195"}, "geometry": {"type": "Point", "coordinates": [-85.14705892990378, 41.11747877134602]}},
{"type": "Feature", "id": "YxkHBt4s4m6Q28Nophv6f_cx7Gg=", "properties": {"ref": "https://locations.fazolis.com/in/indianapolis/7511-e-washington-street.html", "@spider": "fazolis", "addr:full": "7511 E Washington Street", "addr:city": "Indianapolis", "addr:state": "IN", "addr:postcode": "46219", "phone": "(317) 322-9710", "website": "https://locations.fazolis.com/in/indianapolis/7511-e-washington-street.html", "opening_hours": "Mo-Su 10:30-23:00", "brand": "Fazoli's", "brand:wikidata": "Q1399195"}, "geometry": {"type": "Point", "coordinates": [-86.0353178, 39.7722345]}},
{"type": "Feature", "id": "sdVjup2ikk2hrMZBCAIT3Jx6Wyk=", "properties": {"ref": "https://locations.fazolis.com/in/fort-wayne/5909-covington-road.html", "@spider": "fazolis", "addr:full": "5909 Covington Road", "addr:city": "Fort Wayne", "addr:state": "IN", "addr:postcode": "46804", "phone": "(260) 436-2180", "website": "https://locations.fazolis.com/in/fort-wayne/5909-covington-road.html", "opening_hours": "Mo-Su 10:30-22:00", "brand": "Fazoli's", "brand:wikidata": "Q1399195"}, "geometry": {"type": "Point", "coordinates": [-85.21669444034842, 41.05939097409772]}},
{"type": "Feature", "id": "cE0TGwgtKs0Umgd1vsRNH5IBwSU=", "properties": {"ref": "https://locations.fazolis.com/in/indianapolis/4742-emerson-avenue.html", "@spider": "fazolis", "addr:full": "4742 Emerson Avenue", "addr:city": "Indianapolis", "addr:state": "IN", "addr:postcode": "46203", "phone": "(317) 783-7571", "website": "https://locations.fazolis.com/in/indianapolis/4742-emerson-avenue.html", "opening_hours": "Mo-Su 10:30-23:00", "brand": "Fazoli's", "brand:wikidata": "Q1399195"}, "geometry": {"type": "Point", "coordinates": [-86.08304015316207, 39.698442201518844]}},
{"type": "Feature", "id": "nLfcAh8mpp2dBcm40UEkPD7B0PY=", "properties": {"ref": "https://locations.fazolis.com/ky/paducah/2935-new-holt-road.html", "@spider": "fazolis", "addr:full": "2935 New Holt Road", "addr:city": "Paducah", "addr:state": "KY", "addr:postcode": "42001", "phone": "(270) 443-1632", "website": "https://locations.fazolis.com/ky/paducah/2935-new-holt-road.html", "opening_hours": "Mo-Th 10:30-22:00; Fr-Sa 10:30-23:00; Su 10:30-22:00", "brand": "Fazoli's", "brand:wikidata": "Q1399195"}, "geometry": {"type": "Point", "coordinates": [-88.69064449966345, 37.07493511714841]}},
{"type": "Feature", "id": "vvvnu6vNIywxzmcTiw_dyPCmpBg=", "properties": {"ref": "https://locations.fazolis.com/ky/owensboro/5060-frederica-street.html", "@spider": "fazolis", "addr:full": "5060 Frederica Street", "addr:city": "Owensboro", "addr:state": "KY", "addr:postcode": "42301", "phone": "(270) 926-8767", "website": "https://locations.fazolis.com/ky/owensboro/5060-frederica-street.html", "opening_hours": "Mo-Th 10:30-22:00; Fr-Sa 10:30-23:00; Su 10:30-22:00", "brand": "Fazoli's", "brand:wikidata": "Q1399195"}, "geometry": {"type": "Point", "coordinates": [-87.12541490793228, 37.719392321799724]}},
{"type": "Feature", "id": "4uiXJYr192w5taVvp_MSqOwSSCU=", "properties": {"ref": "https://locations.fazolis.com/ky/nicholasville/1016-n--main-street.html", "@spider": "fazolis", "addr:full": "1016 N. Main Street", "addr:city": "Nicholasville", "addr:state": "KY", "addr:postcode": "40356", "phone": "(859) 887-1592", "website": "https://locations.fazolis.com/ky/nicholasville/1016-n--main-street.html", "opening_hours": "Mo-Th 10:30-22:00; Fr-Sa 10:30-23:00; Su 10:30-22:00", "brand": "Fazoli's", "brand:wikidata": "Q1399195"}, "geometry": {"type": "Point", "coordinates": [-84.56447660923004, 37.89904279487798]}},
{"type": "Feature", "id": "gODAUyck_Q1SOEewTvH0TrZw7DY=", "properties": {"ref": "https://locations.fazolis.com/in/evansville/899-north-green-river-rd.html", "@spider": "fazolis", "addr:full": "899 North Green River Rd", "addr:city": "Evansville", "addr:state": "IN", "addr:postcode": "47715", "phone": "(812) 474-9167", "website": "https://locations.fazolis.com/in/evansville/899-north-green-river-rd.html", "opening_hours": "Mo-Th 10:30-22:00; Fr-Sa 10:30-23:00; Su 10:30-22:00", "brand": "Fazoli's", "brand:wikidata": "Q1399195"}, "geometry": {"type": "Point", "coordinates": [-87.49227276958663, 37.98464034196062]}},
{"type": "Feature", "id": "U_5f0YNtY99xgtnDGX9yrzerxJg=", "properties": {"ref": "https://locations.fazolis.com/in/indianapolis/3924-lafayette-road.html", "@spider": "fazolis", "addr:full": "3924 Lafayette Road", "addr:city": "Indianapolis", "addr:state": "IN", "addr:postcode": "46254", "phone": "(317) 299-9729", "website": "https://locations.fazolis.com/in/indianapolis/3924-lafayette-road.html", "opening_hours": "Mo-Su 10:30-23:00", "brand": "Fazoli's", "brand:wikidata": "Q1399195"}, "geometry": {"type": "Point", "coordinates": [-86.2376251816749, 39.82597958328838]}},
{"type": "Feature", "id": "--bWZLS923GIQXhwC6cdSiVRd8Q=", "properties": {"ref": "https://locations.fazolis.com/in/fort-wayne/6525-stellhorn-dr-.html", "@spider": "fazolis", "addr:full": "6525 Stellhorn Dr.", "addr:city": "Fort Wayne", "addr:state": "IN", "addr:postcode": "46815", "phone": "(260) 486-9081", "website": "https://locations.fazolis.com/in/fort-wayne/6525-stellhorn-dr-.html", "opening_hours": "Mo-Su 10:30-22:00", "brand": "Fazoli's", "brand:wikidata": "Q1399195"}, "geometry": {"type": "Point", "coordinates": [-85.05766980350023, 41.121031501044115]}},
{"type": "Feature", "id": "tQ8Zdzr0C3lXLJKrWBcLq6hPdHA=", "properties": {"ref": "https://locations.fazolis.com/ia/des-moines/4800-se-14th-street.html", "@spider": "fazolis", "addr:full": "4800 SE 14th Street", "addr:city": "Des Moines", "addr:state": "IA", "addr:postcode": "50320", "phone": "(515) 285-6755", "website": "https://locations.fazolis.com/ia/des-moines/4800-se-14th-street.html", "opening_hours": "Mo-Su 10:30-22:00", "brand": "Fazoli's", "brand:wikidata": "Q1399195"}, "geometry": {"type": "Point", "coordinates": [-93.5974579206868, 41.5400904961115]}},
{"type": "Feature", "id": "Tq4WdOY2aV9HFlAW8pqQ5X98EtE=", "properties": {"ref": "https://locations.fazolis.com/ia/des-moines/3600-merle-hay-road.html", "@spider": "fazolis", "addr:full": "3600 Merle Hay Road", "addr:city": "Des Moines", "addr:state": "IA", "addr:postcode": "50310", "phone": "(515) 251-7767", "website": "https://locations.fazolis.com/ia/des-moines/3600-merle-hay-road.html", "opening_hours": "Mo-Su 10:30-22:00", "brand": "Fazoli's", "brand:wikidata": "Q1399195"}, "geometry": {"type": "Point", "coordinates": [-93.69819760322576, 41.627701384784444]}},
{"type": "Feature", "id": "fOPNREpChvV59kqzjTzB_hxEiU8=", "properties": {"ref": "https://locations.fazolis.com/in/evansville/5232-weston-road.html", "@spider": "fazolis", "addr:full": "5232 Weston Road", "addr:city": "Evansville", "addr:state": "IN", "addr:postcode": "47712", "phone": "(812) 428-0084", "website": "https://locations.fazolis.com/in/evansville/5232-weston-road.html", "opening_hours": "Mo-Th 10:30-21:00; Fr-Sa 10:30-22:00; Su 10:30-21:00", "brand": "Fazoli's", "brand:wikidata": "Q1399195"}, "geometry": {"type": "Point", "coordinates": [-87.63938784599304, 37.97658701974819]}},
{"type": "Feature", "id": "XSVAZmqSv_hRrWMi7hGbvq6gDPg=", "properties": {"ref": "https://locations.fazolis.com/ky/morehead/180-newtowne-square.html", "@spider": "fazolis", "addr:full": "180 Newtowne Square Daniel Boone National Forest", "addr:city": "Morehead", "addr:state": "KY", "addr:postcode": "40351", "phone": "(606) 784-2063", "website": "https://locations.fazolis.com/ky/morehead/180-newtowne-square.html", "opening_hours": "Mo-Su 10:30-21:30", "brand": "Fazoli's", "brand:wikidata": "Q1399195"}, "geometry": {"type": "Point", "coordinates": [-83.4346397, 38.1751933]}},
{"type": "Feature", "id": "QDLamzeq7En7XLqhuO9QiRdRNfI=", "properties": {"ref": "https://locations.fazolis.com/ky/maysville/416-market-square-drive.html", "@spider": "fazolis", "addr:full": "416 Market Square Drive", "addr:city": "Maysville", "addr:state": "KY", "addr:postcode": "41056", "phone": "(606) 956-0267", "website": "https://locations.fazolis.com/ky/maysville/416-market-square-drive.html", "opening_hours": "Mo-Su 11:00-21:00", "brand": "Fazoli's", "brand:wikidata": "Q1399195"}, "geometry": {"type": "Point", "coordinates": [-83.7922277, 38.6277948]}},
{"type": "Feature", "id": "64OI_AYc_94ROBCpS6eQPgLf0FY=", "properties": {"ref": "https://locations.fazolis.com/ky/madisonville/132-ruby-dr.html", "@spider": "fazolis", "addr:full": "132 Ruby Dr", "addr:city": "Madisonville", "addr:state": "KY", "addr:postcode": "42431", "phone": "(270) 844-2338", "website": "https://locations.fazolis.com/ky/madisonville/132-ruby-dr.html", "opening_hours": "Mo-Su 10:30-21:00", "brand": "Fazoli's", "brand:wikidata": "Q1399195"}, "geometry": {"type": "Point", "coordinates": [-87.4780979, 37.3287116]}},
{"type": "Feature", "id": "LuJUxAgmNeV69JNHNNANBkn6AX0=", "properties": {"ref": "https://locations.fazolis.com/ky/murray/507-rushing-way.html", "@spider": "fazolis", "addr:full": "507 Rushing Way", "addr:city": "Murray", "addr:state": "KY", "addr:postcode": "42071", "phone": "(270) 761-5555", "website": "https://locations.fazolis.com/ky/murray/507-rushing-way.html", "opening_hours": "Mo-Su 10:30-21:30", "brand": "Fazoli's", "brand:wikidata": "Q1399195"}, "geometry": {"type": "Point", "coordinates": [-88.31674358762939, 36.61798950216638]}},
{"type": "Feature", "id": "ne1QKorHzEULUNjOisMHBIC3-IA=", "properties": {"ref": "https://locations.fazolis.com/ky/london/2174-w--highway-192.html", "@spider": "fazolis", "addr:full": "2174 W. Highway 192", "addr:city": "London", "addr:state": "KY", "addr:postcode": "40741", "phone": "(606) 877-2501", "website": "https://locations.fazolis.com/ky/london/2174-w--highway-192.html", "opening_hours": "Mo-Th 10:30-22:00; Fr-Sa 10:30-23:00; Su 10:30-22:00", "brand": "Fazoli's", "brand:wikidata": "Q1399195"}, "geometry": {"type": "Point", "coordinates": [-84.09870705522735, 37.11092234800921]}},
{"type": "Feature", "id": "PlKoegWoAKQm3-hIKsClfYl8YZg=", "properties": {"ref": "https://locations.fazolis.com/ky/henderson/192-garden-mile-road.html", "@spider": "fazolis", "addr:full": "192 Garden Mile Road", "addr:city": "Henderson", "addr:state": "KY", "addr:postcode": "42420", "phone": "(270) 228-4444", "website": "https://locations.fazolis.com/ky/henderson/192-garden-mile-road.html", "opening_hours": "Mo-Su 10:30-22:00", "brand": "Fazoli's", "brand:wikidata": "Q1399195"}, "geometry": {"type": "Point", "coordinates": [-87.55752116145118, 37.82756203237936]}},
{"type": "Feature", "id": "OkUFW6uBQRhyy0dpvkjvqdia-S4=", "properties": {"ref": "https://locations.fazolis.com/ky/hazard/47-commodore-street.html", "@spider": "fazolis", "addr:full": "47 Commodore Street", "addr:city": "Hazard", "addr:state": "KY", "addr:postcode": "41701", "phone": "(606) 551-1053", "website": "https://locations.fazolis.com/ky/hazard/47-commodore-street.html", "opening_hours": "Mo 10:30-21:00; Tu-Sa 10:30-22:00; Su 10:30-21:00", "brand": "Fazoli's", "brand:wikidata": "Q1399195"}, "geometry": {"type": "Point", "coordinates": [-83.2003268, 37.2996625]}},
{"type": "Feature", "id": "8-aDzYNIagvoGBcWDKilj60U-TA=", "properties": {"ref": "https://locations.fazolis.com/ky/frankfort/365-leonardwood-drive.html", "@spider": "fazolis", "addr:full": "365 Leonardwood Drive", "addr:city": "Frankfort", "addr:state": "KY", "addr:postcode": "40601", "phone": "(502) 875-5990", "website": "https://locations.fazolis.com/ky/frankfort/365-leonardwood-drive.html", "opening_hours": "Mo-Th 10:30-22:00; Fr-Sa 10:30-23:00; Su 10:30-22:00", "brand": "Fazoli's", "brand:wikidata": "Q1399195"}, "geometry": {"type": "Point", "coordinates": [-84.89630877971649, 38.16296904818632]}},
{"type": "Feature", "id": "11srtyFLrrRLQslV45GuSs6kRew=", "properties": {"ref": "https://locations.fazolis.com/ky/florence/5990-fuller-street.html", "@spider": "fazolis", "addr:full": "5990 Fuller Street", "addr:city": "Florence", "addr:state": "KY", "addr:postcode": "41042", "phone": "(859) 371-4880", "website": "https://locations.fazolis.com/ky/florence/5990-fuller-street.html", "opening_hours": "Mo-Su 11:00-20:00", "brand": "Fazoli's", "brand:wikidata": "Q1399195"}, "geometry": {"type": "Point", "coordinates": [-84.65560070194442, 39.00625405343122]}},
{"type": "Feature", "id": "SvkBCZLqrXUHw1gTd88pSBBarII=", "properties": {"ref": "https://locations.fazolis.com/ky/elizabethtown/1702-n--dixie-avenue.html", "@spider": "fazolis", "addr:full": "1702 N. Dixie Avenue", "addr:city": "Elizabethtown", "addr:state": "KY", "addr:postcode": "42701", "phone": "(270) 737-2993", "website": "https://locations.fazolis.com/ky/elizabethtown/1702-n--dixie-avenue.html", "opening_hours": "Mo-Su 10:30-22:00", "brand": "Fazoli's", "brand:wikidata": "Q1399195"}, "geometry": {"type": "Point", "coordinates": [-85.8865422, 37.7319315]}},
{"type": "Feature", "id": "d1SbG_-9AK-iZ5-YorGDGyWGvlM=", "properties": {"ref": "https://locations.fazolis.com/mi/walker/2521-alpine-ave.html", "@spider": "fazolis", "addr:full": "2521 Alpine Ave", "addr:city": "Walker", "addr:state": "MI", "addr:postcode": "49544", "phone": "(616) 365-3666", "website": "https://locations.fazolis.com/mi/walker/2521-alpine-ave.html", "opening_hours": "Mo-Su 10:30-22:00", "brand": "Fazoli's", "brand:wikidata": "Q1399195"}, "geometry": {"type": "Point", "coordinates": [-85.68923920097404, 43.01010285661425]}},
{"type": "Feature", "id": "1jv-1HX_S9RQfduLdi2ZOW_N9NA=", "properties": {"ref": "https://locations.fazolis.com/mi/muskegon/1780-e-sherman-blvd.html", "@spider": "fazolis", "addr:full": "1780 E Sherman Blvd", "addr:city": "Muskegon", "addr:state": "MI", "addr:postcode": "49444", "phone": "(231) 737-6448", "website": "https://locations.fazolis.com/mi/muskegon/1780-e-sherman-blvd.html", "opening_hours": "Mo-Su 10:30-22:00", "brand": "Fazoli's", "brand:wikidata": "Q1399195"}, "geometry": {"type": "Point", "coordinates": [-86.20029164389052, 43.205901292121666]}},
{"type": "Feature", "id": "uyTqEI8qxbO0L4t5EQkGmhsYGtI=", "properties": {"ref": "https://locations.fazolis.com/mi/monroe/1255-n-dixie-hwy.html", "@spider": "fazolis", "addr:full": "1255 N Dixie Hwy", "addr:city": "Monroe", "addr:state": "MI", "addr:postcode": "48162", "phone": "(734) 384-7952", "website": "https://locations.fazolis.com/mi/monroe/1255-n-dixie-hwy.html", "opening_hours": "Mo-Su 11:00-22:00", "brand": "Fazoli's", "brand:wikidata": "Q1399195"}, "geometry": {"type": "Point", "coordinates": [-83.3630117, 41.9268164]}},
{"type": "Feature", "id": "qj87HuBfBXqS4iDViaclbONVImo=", "properties": {"ref": "https://locations.fazolis.com/ky/georgetown/124-darby-drive.html", "@spider": "fazolis", "addr:full": "124 Darby Drive", "addr:city": "Georgetown", "addr:state": "KY", "addr:postcode": "40324", "phone": "(502) 863-4700", "website": "https://locations.fazolis.com/ky/georgetown/124-darby-drive.html", "opening_hours": "Mo-Th 10:30-21:00; Fr-Sa 10:30-22:00; Su 10:30-21:00", "brand": "Fazoli's", "brand:wikidata": "Q1399195"}, "geometry": {"type": "Point", "coordinates": [-84.54044938087469, 38.2232397864141]}},
{"type": "Feature", "id": "wQWlL1JXOsI4zMZlRsM5EXy84pk=", "properties": {"ref": "https://locations.fazolis.com/mi/lansing/5705-south-cedar-street.html", "@spider": "fazolis", "addr:full": "5705 South Cedar Street", "addr:city": "Lansing", "addr:state": "MI", "addr:postcode": "48911", "phone": "(517) 394-0539", "website": "https://locations.fazolis.com/mi/lansing/5705-south-cedar-street.html", "opening_hours": "Mo-Su 10:30-22:00", "brand": "Fazoli's", "brand:wikidata": "Q1399195"}, "geometry": {"type": "Point", "coordinates": [-84.54635292291641, 42.67474311738052]}},
{"type": "Feature", "id": "pJ90AlR9Fuduuzp4g5oulBuYtjI=", "properties": {"ref": "https://locations.fazolis.com/mi/kalamazoo/4615-main-street.html", "@spider": "fazolis", "addr:full": "4615 Main Street", "addr:city": "Kalamazoo", "addr:state": "MI", "addr:postcode": "49006", "phone": "(269) 553-1991", "website": "https://locations.fazolis.com/mi/kalamazoo/4615-main-street.html", "opening_hours": "Mo-Su 10:30-22:00", "brand": "Fazoli's", "brand:wikidata": "Q1399195"}, "geometry": {"type": "Point", "coordinates": [-85.64677580893425, 42.295756600251686]}},
{"type": "Feature", "id": "RDY6NFDtBXfC1Sr0Gx9e60G32AA=", "properties": {"ref": "https://locations.fazolis.com/mo/warrensburg/335-e--russell-ave.html", "@spider": "fazolis", "addr:full": "335 E. Russell Ave", "addr:city": "Warrensburg", "addr:state": "MO", "addr:postcode": "64093", "phone": "(660) 362-1313", "website": "https://locations.fazolis.com/mo/warrensburg/335-e--russell-ave.html", "opening_hours": "Mo-Sa 10:30-22:00; Su 10:30-21:00", "brand": "Fazoli's", "brand:wikidata": "Q1399195"}, "geometry": {"type": "Point", "coordinates": [-93.734335, 38.773139]}},
{"type": "Feature", "id": "k4u2qgXdy8nchrGuYdphDxqRLLc=", "properties": {"ref": "https://locations.fazolis.com/mo/sedalia/2720-w-broadway-blvd.html", "@spider": "fazolis", "addr:full": "2720 W Broadway Blvd", "addr:city": "Sedalia", "addr:state": "MO", "addr:postcode": "65301", "phone": "(660) 951-1083", "website": "https://locations.fazolis.com/mo/sedalia/2720-w-broadway-blvd.html", "opening_hours": "Mo-Su 10:30-21:00", "brand": "Fazoli's", "brand:wikidata": "Q1399195"}, "geometry": {"type": "Point", "coordinates": [-93.25904729999999, 38.7068653]}},
{"type": "Feature", "id": "UuZKnuK8gSvsh1wyV8sBnJOrbjE=", "properties": {"ref": "https://locations.fazolis.com/mo/saint-charles/1698-country-club-plaza-dr-.html", "@spider": "fazolis", "addr:full": "1698 Country Club Plaza Dr.", "addr:city": "Saint Charles", "addr:state": "MO", "addr:postcode": "63303", "phone": "(636) 940-8515", "website": "https://locations.fazolis.com/mo/saint-charles/1698-country-club-plaza-dr-.html", "opening_hours": "Mo-Su 10:30-22:00", "brand": "Fazoli's", "brand:wikidata": "Q1399195"}, "geometry": {"type": "Point", "coordinates": [-90.52284224127902, 38.76872599628364]}},
{"type": "Feature", "id": "oQMSQKBl-SQMghOqhfagER08g4U=", "properties": {"ref": "https://locations.fazolis.com/mo/o-fallon/1108-state-hwy-k.html", "@spider": "fazolis", "addr:full": "1108 State Hwy K", "addr:city": "O'Fallon", "addr:state": "MO", "addr:postcode": "63366", "phone": "(636) 240-7442", "website": "https://locations.fazolis.com/mo/o-fallon/1108-state-hwy-k.html", "opening_hours": "Mo-Su 10:30-22:00", "brand": "Fazoli's", "brand:wikidata": "Q1399195"}, "geometry": {"type": "Point", "coordinates": [-90.69911835884227, 38.79606717336201]}},
{"type": "Feature", "id": "vk-M4zwldSFZpPo5sUv2X_9qcwE=", "properties": {"ref": "https://locations.fazolis.com/mo/independence/19008-e--39th-street.html", "@spider": "fazolis", "addr:full": "19008 E. 39th Street", "addr:city": "Independence", "addr:state": "MO", "addr:postcode": "64057", "phone": "(816) 795-0063", "website": "https://locations.fazolis.com/mo/independence/19008-e--39th-street.html", "opening_hours": "Mo-Su 10:30-22:00", "brand": "Fazoli's", "brand:wikidata": "Q1399195"}, "geometry": {"type": "Point", "coordinates": [-94.3557869, 39.0483641]}},
{"type": "Feature", "id": "8Y-UAdxizcLlU_OdtOH7FZMccI8=", "properties": {"ref": "https://locations.fazolis.com/mo/saint-joseph/504-n--belt-highway.html", "@spider": "fazolis", "addr:full": "504 N. Belt Highway", "addr:city": "Saint Joseph", "addr:state": "MO", "addr:postcode": "64506", "phone": "(816) 387-9539", "website": "https://locations.fazolis.com/mo/saint-joseph/504-n--belt-highway.html", "opening_hours": "Mo-Su 10:30-22:00", "brand": "Fazoli's", "brand:wikidata": "Q1399195"}, "geometry": {"type": "Point", "coordinates": [-94.80388118123187, 39.771137381868606]}},
{"type": "Feature", "id": "GVub7627_YPnaBo77Ucn5oG0jbQ=", "properties": {"ref": "https://locations.fazolis.com/mo/poplar-bluff/2501-n--westwood-blvd.html", "@spider": "fazolis", "addr:full": "2501 N. Westwood Blvd", "addr:city": "Poplar Bluff", "addr:state": "MO", "addr:postcode": "63901", "phone": "(573) 609-2797", "website": "https://locations.fazolis.com/mo/poplar-bluff/2501-n--westwood-blvd.html", "opening_hours": "Mo-Su 10:30-22:00", "brand": "Fazoli's", "brand:wikidata": "Q1399195"}, "geometry": {"type": "Point", "coordinates": [-90.42688697576523, 36.78179217131927]}},
{"type": "Feature", "id": "YLwFJeOtVzxG5Ev5POT4b_m8TMs=", "properties": {"ref": "https://locations.fazolis.com/mo/lees-summit/498-se-highway-291.html", "@spider": "fazolis", "addr:full": "498 SE Highway 291", "addr:city": "Lees Summit", "addr:state": "MO", "addr:postcode": "64063", "phone": "(816) 246-8742", "website": "https://locations.fazolis.com/mo/lees-summit/498-se-highway-291.html", "opening_hours": "Mo-Su 10:30-22:00", "brand": "Fazoli's", "brand:wikidata": "Q1399195"}, "geometry": {"type": "Point", "coordinates": [-94.36324059963226, 38.91060833842133]}},
{"type": "Feature", "id": "JKY3qImY_GizwL5Mo3Vu0se9bQU=", "properties": {"ref": "https://locations.fazolis.com/ky/lexington/2195a-richmond-road.html", "@spider": "fazolis", "addr:full": "2195A Richmond Road", "addr:city": "Lexington", "addr:state": "KY", "addr:postcode": "40502", "phone": "(859) 266-8224", "website": "https://locations.fazolis.com/ky/lexington/2195a-richmond-road.html", "opening_hours": "Mo-Th 10:30-22:00; Fr-Sa 10:30-23:00; Su 10:30-22:00", "brand": "Fazoli's", "brand:wikidata": "Q1399195"}, "geometry": {"type": "Point", "coordinates": [-84.46489564098556, 38.01897787372252]}},
{"type": "Feature", "id": "jWqOed1dfj_JDjV_lPgYEM4i15Q=", "properties": {"ref": "https://locations.fazolis.com/ky/lexington/1840-alysheba-way.html", "@spider": "fazolis", "addr:full": "1840 Alysheba Way", "addr:city": "Lexington", "addr:state": "KY", "addr:postcode": "40509", "phone": "(859) 263-1749", "website": "https://locations.fazolis.com/ky/lexington/1840-alysheba-way.html", "opening_hours": "Mo-Th 10:30-22:00; Fr-Sa 10:30-23:00; Su 10:30-22:00", "brand": "Fazoli's", "brand:wikidata": "Q1399195"}, "geometry": {"type": "Point", "coordinates": [-84.41889569163317, 38.01849601583635]}},
{"type": "Feature", "id": "82m7Ud4OR_73KZKprgdjFnILB80=", "properties": {"ref": "https://locations.fazolis.com/ky/louisville/9433-viking-center-drive.html", "@spider": "fazolis", "addr:full": "9433 Viking Center Drive", "addr:city": "Louisville", "addr:state": "KY", "addr:postcode": "40222", "phone": "(502) 423-1777", "website": "https://locations.fazolis.com/ky/louisville/9433-viking-center-drive.html", "opening_hours": "Mo-Su 11:00-20:00", "brand": "Fazoli's", "brand:wikidata": "Q1399195"}, "geometry": {"type": "Point", "coordinates": [-85.57764, 38.243164]}},
{"type": "Feature", "id": "5l9hmvy8XwY33F0lZTrB2ARMDzI=", "properties": {"ref": "https://locations.fazolis.com/mo/joplin/4027-richard-joseph-blvd.html", "@spider": "fazolis", "addr:full": "4027 Richard Joseph Blvd", "addr:city": "Joplin", "addr:state": "MO", "addr:postcode": "64804", "phone": "(417) 206-9220", "website": "https://locations.fazolis.com/mo/joplin/4027-richard-joseph-blvd.html", "opening_hours": "Mo-Th 10:30-21:00; Fr-Sa 10:30-22:00; Su 10:30-21:00", "brand": "Fazoli's", "brand:wikidata": "Q1399195"}, "geometry": {"type": "Point", "coordinates": [-94.47934239807188, 37.043920258905054]}},
{"type": "Feature", "id": "G_wP77p9PMmKxKJr2PzpT3edOfM=", "properties": {"ref": "https://locations.fazolis.com/ky/louisville/6011-preston-highway.html", "@spider": "fazolis", "addr:full": "6011 Preston Highway", "addr:city": "Louisville", "addr:state": "KY", "addr:postcode": "40219", "phone": "(502) 969-4532", "website": "https://locations.fazolis.com/ky/louisville/6011-preston-highway.html", "opening_hours": "Mo-Su 11:30-20:30", "brand": "Fazoli's", "brand:wikidata": "Q1399195"}, "geometry": {"type": "Point", "coordinates": [-85.70093929767609, 38.16419852887528]}},
{"type": "Feature", "id": "3_-fDQiHNMMoaFJ2sfqQDTKSWJU=", "properties": {"ref": "https://locations.fazolis.com/ky/lexington/4204-saron-drive.html", "@spider": "fazolis", "addr:full": "4204 Saron Drive", "addr:city": "Lexington", "addr:state": "KY", "addr:postcode": "40515", "phone": "(859) 271-3437", "website": "https://locations.fazolis.com/ky/lexington/4204-saron-drive.html", "opening_hours": "Mo-Th 10:30-22:00; Fr-Sa 10:30-23:00; Su 10:30-22:00", "brand": "Fazoli's", "brand:wikidata": "Q1399195"}, "geometry": {"type": "Point", "coordinates": [-84.50118331149497, 37.96796884776009]}},
{"type": "Feature", "id": "s9FyAowyz5E-Dfa-2KJQJc1at3o=", "properties": {"ref": "https://locations.fazolis.com/ky/lexington/3775-harrodsburg-road.html", "@spider": "fazolis", "addr:full": "3775 Harrodsburg Road", "addr:city": "Lexington", "addr:state": "KY", "addr:postcode": "40513", "phone": "(859) 223-0511", "website": "https://locations.fazolis.com/ky/lexington/3775-harrodsburg-road.html", "opening_hours": "Mo-Th 10:30-22:00; Fr-Sa 10:30-23:00; Su 10:30-22:00", "brand": "Fazoli's", "brand:wikidata": "Q1399195"}, "geometry": {"type": "Point", "coordinates": [-84.5732045173645, 38.00580695055098]}},
{"type": "Feature", "id": "kWX_ytaaG6uJaZCljZEctyT5eMY=", "properties": {"ref": "https://locations.fazolis.com/ky/lexington/2200-nicholasville-road.html", "@spider": "fazolis", "addr:full": "2200 Nicholasville Road", "addr:city": "Lexington", "addr:state": "KY", "addr:postcode": "40503", "phone": "(859) 275-1955", "website": "https://locations.fazolis.com/ky/lexington/2200-nicholasville-road.html", "opening_hours": "Mo-Th 10:30-22:00; Fr-Sa 10:30-23:00; Su 10:30-22:00", "brand": "Fazoli's", "brand:wikidata": "Q1399195"}, "geometry": {"type": "Point", "coordinates": [-84.5171586, 38.0080682]}},
{"type": "Feature", "id": "IeN_jIhvyTiutwOZ1Gk9ykei9BU=", "properties": {"ref": "https://locations.fazolis.com/ky/louisville/10307-dixie-highway.html", "@spider": "fazolis", "addr:full": "10307 Dixie Highway", "addr:city": "Louisville", "addr:state": "KY", "addr:postcode": "40272", "phone": "(502) 933-5212", "website": "https://locations.fazolis.com/ky/louisville/10307-dixie-highway.html", "opening_hours": "Mo-Su 10:30-22:00", "brand": "Fazoli's", "brand:wikidata": "Q1399195"}, "geometry": {"type": "Point", "coordinates": [-85.8677861741944, 38.10504617843487]}},
{"type": "Feature", "id": "ve48FPYa02N3YnsYz3JcdvSiIZw=", "properties": {"ref": "https://locations.fazolis.com/mo/festus/807-lee-avenue.html", "@spider": "fazolis", "addr:full": "807 Lee Avenue", "addr:city": "Festus", "addr:state": "MO", "addr:postcode": "63028", "phone": "(636) 931-6681", "website": "https://locations.fazolis.com/mo/festus/807-lee-avenue.html", "opening_hours": "Mo-Su 10:30-22:00", "brand": "Fazoli's", "brand:wikidata": "Q1399195"}, "geometry": {"type": "Point", "coordinates": [-90.40249503173072, 38.214061552207845]}},
{"type": "Feature", "id": "A9d_IaiGb2DHkTu7xuahatfXijo=", "properties": {"ref": "https://locations.fazolis.com/mo/blue-springs/810-us-highway-40-west.html", "@spider": "fazolis", "addr:full": "810 US Highway 40 West", "addr:city": "Blue Springs", "addr:state": "MO", "addr:postcode": "64015", "phone": "(816) 220-1680", "website": "https://locations.fazolis.com/mo/blue-springs/810-us-highway-40-west.html", "opening_hours": "Mo-Su 10:30-22:00", "brand": "Fazoli's", "brand:wikidata": "Q1399195"}, "geometry": {"type": "Point", "coordinates": [-94.27615744906007, 39.0087614791772]}},
{"type": "Feature", "id": "DKYDU-tn_VWXFHN52tIEwFhHF24=", "properties": {"ref": "https://locations.fazolis.com/mo/springfield/2137-n--glenstone-avenue.html", "@spider": "fazolis", "addr:full": "2137 N. Glenstone Avenue", "addr:city": "Springfield", "addr:state": "MO", "addr:postcode": "65803", "phone": "(417) 832-8711", "website": "https://locations.fazolis.com/mo/springfield/2137-n--glenstone-avenue.html", "opening_hours": "Mo-Th 10:30-21:00; Fr-Sa 10:30-22:00; Su 10:30-21:00", "brand": "Fazoli's", "brand:wikidata": "Q1399195"}, "geometry": {"type": "Point", "coordinates": [-93.26168417930597, 37.236207468029114]}},
{"type": "Feature", "id": "JimcFhQmCikyDWsEpe_qwDstlX0=", "properties": {"ref": "https://locations.fazolis.com/ky/louisville/11806-standiford-plaza-drive.html", "@spider": "fazolis", "addr:full": "11806 Standiford Plaza Drive", "addr:city": "Louisville", "addr:state": "KY", "addr:postcode": "40229", "phone": "(502) 969-4442", "website": "https://locations.fazolis.com/ky/louisville/11806-standiford-plaza-drive.html", "opening_hours": "Mo-Su 10:30-22:00", "brand": "Fazoli's", "brand:wikidata": "Q1399195"}, "geometry": {"type": "Point", "coordinates": [-85.66793880380828, 38.091847539489144]}},
{"type": "Feature", "id": "rIll-wI_9rr_tzvrDZNfLV-f_-M=", "properties": {"ref": "https://locations.fazolis.com/mo/columbia/1114-i-70-dr--sw.html", "@spider": "fazolis", "addr:full": "1114 I-70 Dr. SW", "addr:city": "Columbia", "addr:state": "MO", "addr:postcode": "65203", "phone": "(573) 815-9922", "website": "https://locations.fazolis.com/mo/columbia/1114-i-70-dr--sw.html", "opening_hours": "Mo-Su 10:30-22:00", "brand": "Fazoli's", "brand:wikidata": "Q1399195"}, "geometry": {"type": "Point", "coordinates": [-92.35573962033186, 38.96422137390816]}},
{"type": "Feature", "id": "D6nu4sxZ-ohIi4s9WZz37wq_CTI=", "properties": {"ref": "https://locations.fazolis.com/mo/springfield/2055-e--independence-ave.html", "@spider": "fazolis", "addr:full": "2055 E. Independence Ave", "addr:city": "Springfield", "addr:state": "MO", "addr:postcode": "65804", "phone": "(417) 882-0073", "website": "https://locations.fazolis.com/mo/springfield/2055-e--independence-ave.html", "opening_hours": "Mo-Th 10:30-21:00; Fr-Sa 10:30-22:00; Su 10:30-21:00", "brand": "Fazoli's", "brand:wikidata": "Q1399195"}, "geometry": {"type": "Point", "coordinates": [-93.25665607750807, 37.1419258367572]}},
{"type": "Feature", "id": "6_lzMqPsNaPe_X72zIbHQ4o4tOk=", "properties": {"ref": "https://locations.fazolis.com/mo/belton/620-e--markey-parkway.html", "@spider": "fazolis", "addr:full": "620 E. Markey Parkway", "addr:city": "Belton", "addr:state": "MO", "addr:postcode": "64012", "phone": "(816) 425-2424", "website": "https://locations.fazolis.com/mo/belton/620-e--markey-parkway.html", "opening_hours": "Mo-Su 10:30-22:00", "brand": "Fazoli's", "brand:wikidata": "Q1399195"}, "geometry": {"type": "Point", "coordinates": [-94.5234396, 38.8234336]}},
{"type": "Feature", "id": "KVugA9UEv1KPEKVaid42NRjnV_Q=", "properties": {"ref": "https://locations.fazolis.com/mo/bridgeton/12341-st--charles-rock-rd.html", "@spider": "fazolis", "addr:full": "12341 St. Charles Rock Rd", "addr:city": "Bridgeton", "addr:state": "MO", "addr:postcode": "63044", "phone": "(314) 298-0919", "website": "https://locations.fazolis.com/mo/bridgeton/12341-st--charles-rock-rd.html", "opening_hours": "Mo-Su 10:30-22:00", "brand": "Fazoli's", "brand:wikidata": "Q1399195"}, "geometry": {"type": "Point", "coordinates": [-90.42787506878767, 38.753084562378056]}},
{"type": "Feature", "id": "NZKjT9BXaGRyFbAhPNzajuccLQ8=", "properties": {"ref": "https://locations.fazolis.com/mo/cape-girardeau/5-south-kingshighway.html", "@spider": "fazolis", "addr:full": "5 South Kingshighway", "addr:city": "Cape Girardeau", "addr:state": "MO", "addr:postcode": "63703", "phone": "(573) 651-6099", "website": "https://locations.fazolis.com/mo/cape-girardeau/5-south-kingshighway.html", "opening_hours": "Mo-Th 10:30-22:00; Fr-Sa 10:30-23:00; Su 10:30-22:00", "brand": "Fazoli's", "brand:wikidata": "Q1399195"}, "geometry": {"type": "Point", "coordinates": [-89.5523662022515, 37.30612658077294]}},
{"type": "Feature", "id": "cTuBMkQ4ktAQ4Dp7jUNAOYi1otw=", "properties": {"ref": "https://locations.fazolis.com/mo/arnold/123-arnold-crossroads-center.html", "@spider": "fazolis", "addr:full": "123 Arnold Crossroads Center", "addr:city": "Arnold", "addr:state": "MO", "addr:postcode": "63010", "phone": "(636) 282-9033", "website": "https://locations.fazolis.com/mo/arnold/123-arnold-crossroads-center.html", "opening_hours": "Mo-Su 10:30-22:00", "brand": "Fazoli's", "brand:wikidata": "Q1399195"}, "geometry": {"type": "Point", "coordinates": [-90.37374674976263, 38.44602669653174]}},
{"type": "Feature", "id": "wFZAJq0tBRuwcvlCR1OqIApaWYw=", "properties": {"ref": "https://locations.fazolis.com/mi/jenison/570-baldwin.html", "@spider": "fazolis", "addr:full": "570 Baldwin", "addr:city": "Jenison", "addr:state": "MI", "addr:postcode": "49428", "phone": "(616) 667-9030", "website": "https://locations.fazolis.com/mi/jenison/570-baldwin.html", "opening_hours": "Mo-Su 10:30-22:00", "brand": "Fazoli's", "brand:wikidata": "Q1399195"}, "geometry": {"type": "Point", "coordinates": [-85.79577952623362, 42.90665519058767]}},
{"type": "Feature", "id": "94GtTEAKOMwz8ryQP497fd9kYNg=", "properties": {"ref": "https://locations.fazolis.com/mi/jackson/1500-n--west-avenue.html", "@spider": "fazolis", "addr:full": "1500 N. West Avenue", "addr:city": "Jackson", "addr:state": "MI", "addr:postcode": "49202", "phone": "(517) 796-1974", "website": "https://locations.fazolis.com/mi/jackson/1500-n--west-avenue.html", "opening_hours": "Mo-Su 11:00-21:00", "brand": "Fazoli's", "brand:wikidata": "Q1399195"}, "geometry": {"type": "Point", "coordinates": [-84.42388734735687, 42.266097071220024]}},
{"type": "Feature", "id": "sHyUmx1qLA_RLZrjoIsLQeCpTrE=", "properties": {"ref": "https://locations.fazolis.com/mi/battle-creek/5445-beckley-road.html", "@spider": "fazolis", "addr:full": "5445 Beckley Road", "addr:city": "Battle Creek", "addr:state": "MI", "addr:postcode": "49015", "phone": "(269) 979-8662", "website": "https://locations.fazolis.com/mi/battle-creek/5445-beckley-road.html", "opening_hours": "Mo-Su 10:30-22:00", "brand": "Fazoli's", "brand:wikidata": "Q1399195"}, "geometry": {"type": "Point", "coordinates": [-85.18998116254807, 42.261458085602705]}},
{"type": "Feature", "id": "o0h5tn9SsZGu5zti6OF4oStqLgs=", "properties": {"ref": "https://locations.fazolis.com/ne/bellevue/2012-pratt-avenue.html", "@spider": "fazolis", "addr:full": "2012 Pratt Avenue", "addr:city": "Bellevue", "addr:state": "NE", "addr:postcode": "68123", "phone": "(402) 293-8044", "website": "https://locations.fazolis.com/ne/bellevue/2012-pratt-avenue.html", "opening_hours": "Mo-Su 11:00-20:00", "brand": "Fazoli's", "brand:wikidata": "Q1399195"}, "geometry": {"type": "Point", "coordinates": [-95.94139075793464, 41.15848017955766]}},
{"type": "Feature", "id": "cReJOONoWE8yaQHZQsWuZfs0Aio=", "properties": {"ref": "https://locations.fazolis.com/nc/shallotte/4462-main-street.html", "@spider": "fazolis", "addr:full": "4462 Main Street", "addr:city": "Shallotte", "addr:state": "NC", "addr:postcode": "28470", "phone": "(910) 754-2555", "website": "https://locations.fazolis.com/nc/shallotte/4462-main-street.html", "brand": "Fazoli's", "brand:wikidata": "Q1399195"}, "geometry": {"type": "Point", "coordinates": [-78.3681548, 33.9855309]}},
{"type": "Feature", "id": "uDrNx88AMd6GSm6lWEndfubwALg=", "properties": {"ref": "https://locations.fazolis.com/nc/jacksonville/1006-hampton-inn-way.html", "@spider": "fazolis", "addr:full": "1006 Hampton Inn Way", "addr:city": "Jacksonville", "addr:state": "NC", "addr:postcode": "28546", "phone": "(910) 333-0096", "website": "https://locations.fazolis.com/nc/jacksonville/1006-hampton-inn-way.html", "opening_hours": "Mo-Su 10:30-22:00", "brand": "Fazoli's", "brand:wikidata": "Q1399195"}, "geometry": {"type": "Point", "coordinates": [-77.4069848, 34.7896763]}},
{"type": "Feature", "id": "q1S9LFHiLPWBwfxuXKFL6twvzLQ=", "properties": {"ref": "https://locations.fazolis.com/oh/springfield/2534-e--main-st-.html", "@spider": "fazolis", "addr:full": "2534 E. Main St.", "addr:city": "Springfield", "addr:state": "OH", "addr:postcode": "45505", "phone": "(937) 322-9697", "website": "https://locations.fazolis.com/oh/springfield/2534-e--main-st-.html", "opening_hours": "Mo-Th 10:30-21:00; Fr-Sa 10:30-22:00; Su 10:30-21:00", "brand": "Fazoli's", "brand:wikidata": "Q1399195"}, "geometry": {"type": "Point", "coordinates": [-83.77065069973463, 39.92362848075866]}},
{"type": "Feature", "id": "Bwn36Qgv39HjVhHnaRAAaBlSef8=", "properties": {"ref": "https://locations.fazolis.com/ne/lincoln/4603-vine-street.html", "@spider": "fazolis", "addr:full": "4603 Vine Street", "addr:city": "Lincoln", "addr:state": "NE", "addr:postcode": "68503", "phone": "(402) 466-4045", "website": "https://locations.fazolis.com/ne/lincoln/4603-vine-street.html", "opening_hours": "Mo-Su 10:30-22:00", "brand": "Fazoli's", "brand:wikidata": "Q1399195"}, "geometry": {"type": "Point", "coordinates": [-96.65667427614608, 40.820392332485596]}},
{"type": "Feature", "id": "iJAK99dXmSKr0tqUrKXMdrkgnNs=", "properties": {"ref": "https://locations.fazolis.com/oh/sandusky/5018-1-2-milan-road.html", "@spider": "fazolis", "addr:full": "5018 1/2 Milan Road", "addr:city": "Sandusky", "addr:state": "OH", "addr:postcode": "44870", "phone": "(419) 624-9848", "website": "https://locations.fazolis.com/oh/sandusky/5018-1-2-milan-road.html", "opening_hours": "Mo-Th 11:00-20:00; Fr-Sa 11:00-21:00; Su 11:00-20:00", "brand": "Fazoli's", "brand:wikidata": "Q1399195"}, "geometry": {"type": "Point", "coordinates": [-82.6619474, 41.4067528]}},
{"type": "Feature", "id": "0OIZhyblaprVF4PMG4jNp8BH_Vg=", "properties": {"ref": "https://locations.fazolis.com/oh/reynoldsburg/6830-e-main-street.html", "@spider": "fazolis", "addr:full": "6830 E Main Street", "addr:city": "Reynoldsburg", "addr:state": "OH", "addr:postcode": "43068", "phone": "(614) 856-9750", "website": "https://locations.fazolis.com/oh/reynoldsburg/6830-e-main-street.html", "opening_hours": "Mo-Th 10:30-22:00; Fr-Sa 10:30-23:00; Su 10:30-22:00", "brand": "Fazoli's", "brand:wikidata": "Q1399195"}, "geometry": {"type": "Point", "coordinates": [-82.81461655795965, 39.9554314511153]}},
{"type": "Feature", "id": "KnM26fduqmGXdGBkt6VYhnrS4QU=", "properties": {"ref": "https://locations.fazolis.com/oh/moraine/5230-cobblegate-dr-.html", "@spider": "fazolis", "addr:full": "5230 Cobblegate Dr.", "addr:city": "Moraine", "addr:state": "OH", "addr:postcode": "45439", "phone": "(937) 299-3457", "website": "https://locations.fazolis.com/oh/moraine/5230-cobblegate-dr-.html", "opening_hours": "Mo-Th 10:30-22:00; Fr-Sa 10:30-23:00; Su 10:30-22:00", "brand": "Fazoli's", "brand:wikidata": "Q1399195"}, "geometry": {"type": "Point", "coordinates": [-84.22073543071747, 39.679214705801286]}},
{"type": "Feature", "id": "v3m1aDLhsV2W6eP1Mjyffzvyoyk=", "properties": {"ref": "https://locations.fazolis.com/nc/fayetteville/538-n--mcpherson-church-rd.html", "@spider": "fazolis", "addr:full": "538 N. McPherson Church Rd", "addr:city": "Fayetteville", "addr:state": "NC", "addr:postcode": "28303", "phone": "(910) 860-3636", "website": "https://locations.fazolis.com/nc/fayetteville/538-n--mcpherson-church-rd.html", "opening_hours": "Mo-Th 10:30-22:00; Fr-Sa 10:30-23:00; Su 10:30-22:00", "brand": "Fazoli's", "brand:wikidata": "Q1399195"}, "geometry": {"type": "Point", "coordinates": [-78.95424186887419, 35.07743111761302]}},
{"type": "Feature", "id": "HxU2Po-zxgPu2Iz1WG4euiupvlg=", "properties": {"ref": "https://locations.fazolis.com/oh/troy/1887-w--main-street.html", "@spider": "fazolis", "addr:full": "1887 W. Main Street", "addr:city": "Troy", "addr:state": "OH", "addr:postcode": "45373", "phone": "(937) 335-4699", "website": "https://locations.fazolis.com/oh/troy/1887-w--main-street.html", "opening_hours": "Mo-Su 10:30-20:00", "brand": "Fazoli's", "brand:wikidata": "Q1399195"}, "geometry": {"type": "Point", "coordinates": [-84.240127931389, 40.05637078231989]}},
{"type": "Feature", "id": "E6I4XXV5w9KpfRTYSFadb727eUw=", "properties": {"ref": "https://locations.fazolis.com/oh/mansfield/1048-n--lexington-springmill-road.html", "@spider": "fazolis", "addr:full": "1048 N. Lexington Springmill Road", "addr:city": "Mansfield", "addr:state": "OH", "addr:postcode": "44906", "phone": "(419) 747-7844", "website": "https://locations.fazolis.com/oh/mansfield/1048-n--lexington-springmill-road.html", "opening_hours": "Mo-Su 10:30-21:00", "brand": "Fazoli's", "brand:wikidata": "Q1399195"}, "geometry": {"type": "Point", "coordinates": [-82.58968955792625, 40.78098020444587]}},
{"type": "Feature", "id": "Ys9aTj_PQ2DsbYhACX9uYVH113o=", "properties": {"ref": "https://locations.fazolis.com/oh/lima/2150-elida-rd-.html", "@spider": "fazolis", "addr:full": "2150 Elida Rd.", "addr:city": "Lima", "addr:state": "OH", "addr:postcode": "45801", "phone": "(419) 222-4076", "website": "https://locations.fazolis.com/oh/lima/2150-elida-rd-.html", "opening_hours": "Mo-Su 10:30-22:00", "brand": "Fazoli's", "brand:wikidata": "Q1399195"}, "geometry": {"type": "Point", "coordinates": [-84.14533987641335, 40.761475598486946]}},
{"type": "Feature", "id": "-4BiJilF_JCrO9xjM-W1xxjz8m0=", "properties": {"ref": "https://locations.fazolis.com/oh/huber-heights/8341-old-troy-pike.html", "@spider": "fazolis", "addr:full": "8341 Old Troy Pike", "addr:city": "Huber Heights", "addr:state": "OH", "addr:postcode": "45424", "phone": "(937) 236-0410", "website": "https://locations.fazolis.com/oh/huber-heights/8341-old-troy-pike.html", "opening_hours": "Mo-Th 10:30-22:00; Fr-Sa 10:30-23:00; Su 10:30-22:00", "brand": "Fazoli's", "brand:wikidata": "Q1399195"}, "geometry": {"type": "Point", "coordinates": [-84.1378843754569, 39.874513746918126]}},
{"type": "Feature", "id": "oiG3g7BMjBv_bnW0kZYWVIR8ElE=", "properties": {"ref": "https://locations.fazolis.com/oh/hilliard/1520-hilliard-rome-road.html", "@spider": "fazolis", "addr:full": "1520 Hilliard-Rome Road", "addr:city": "Hilliard", "addr:state": "OH", "addr:postcode": "43026", "phone": "(614) 771-7507", "website": "https://locations.fazolis.com/oh/hilliard/1520-hilliard-rome-road.html", "opening_hours": "Mo-Th 10:30-22:00; Fr-Sa 10:30-23:00; Su 10:30-22:00", "brand": "Fazoli's", "brand:wikidata": "Q1399195"}, "geometry": {"type": "Point", "coordinates": [-83.14998686313629, 39.98230356925907]}},
{"type": "Feature", "id": "bi548wwfN98K5rwA92PKrlU0Jso=", "properties": {"ref": "https://locations.fazolis.com/oh/heath/539-hebron-road.html", "@spider": "fazolis", "addr:full": "539 Hebron Road", "addr:city": "Heath", "addr:state": "OH", "addr:postcode": "43056", "phone": "(740) 788-9170", "website": "https://locations.fazolis.com/oh/heath/539-hebron-road.html", "opening_hours": "Mo-Su 10:30-22:00", "brand": "Fazoli's", "brand:wikidata": "Q1399195"}, "geometry": {"type": "Point", "coordinates": [-82.43050575256348, 40.037864483154884]}},
{"type": "Feature", "id": "ktIjt1YJf-t2ey9JLVO83OXTK1g=", "properties": {"ref": "https://locations.fazolis.com/oh/canton/3929-everhard-road-nw.html", "@spider": "fazolis", "addr:full": "3929 Everhard Road NW", "addr:city": "Canton", "addr:state": "OH", "addr:postcode": "44709", "phone": "(330) 966-9351", "website": "https://locations.fazolis.com/oh/canton/3929-everhard-road-nw.html", "opening_hours": "Mo-Th 10:30-20:00; Fr-Sa 10:30-21:00; Su 10:30-20:00", "brand": "Fazoli's", "brand:wikidata": "Q1399195"}, "geometry": {"type": "Point", "coordinates": [-81.42032817006111, 40.86002629057194]}},
{"type": "Feature", "id": "egV3D_l_Vbefzkq1xRybjUHkVuc=", "properties": {"ref": "https://locations.fazolis.com/oh/bellefontaine/529-s--main-street.html", "@spider": "fazolis", "addr:full": "529 S. Main Street", "addr:city": "Bellefontaine", "addr:state": "OH", "addr:postcode": "43311", "phone": "(937) 593-5503", "website": "https://locations.fazolis.com/oh/bellefontaine/529-s--main-street.html", "opening_hours": "Mo-Th 10:30-22:00; Fr-Sa 10:30-23:00; Su 10:30-22:00", "brand": "Fazoli's", "brand:wikidata": "Q1399195"}, "geometry": {"type": "Point", "coordinates": [-83.76004061617095, 40.35468483503041]}},
{"type": "Feature", "id": "qw9m1yCjw_g_2TOPficc_NM2eX0=", "properties": {"ref": "https://locations.fazolis.com/tn/tullahoma/1969-n--jackson-st.html", "@spider": "fazolis", "addr:full": "1969 N. Jackson St", "addr:city": "Tullahoma", "addr:state": "TN", "addr:postcode": "37388", "phone": "(931) 455-8979", "website": "https://locations.fazolis.com/tn/tullahoma/1969-n--jackson-st.html", "opening_hours": "Mo-Su 10:30-22:00", "brand": "Fazoli's", "brand:wikidata": "Q1399195"}, "geometry": {"type": "Point", "coordinates": [-86.23520150483046, 35.38673764269602]}},
{"type": "Feature", "id": "aaVLS0OTprJIuXpsuYiVEVT9OTk=", "properties": {"ref": "https://locations.fazolis.com/tn/smyrna/450-enon-springs-rd.html", "@spider": "fazolis", "addr:full": "450 Enon Springs Rd", "addr:city": "Smyrna", "addr:state": "TN", "addr:postcode": "37167", "phone": "(615) 220-0850", "website": "https://locations.fazolis.com/tn/smyrna/450-enon-springs-rd.html", "opening_hours": "Mo-Su 10:30-22:00", "brand": "Fazoli's", "brand:wikidata": "Q1399195"}, "geometry": {"type": "Point", "coordinates": [-86.49843752086554, 35.97354563889023]}},
{"type": "Feature", "id": "ySYCVZ3tIiI7KEzcVT-LRbtv7mc=", "properties": {"ref": "https://locations.fazolis.com/oh/grove-city/2096-stringtown-road.html", "@spider": "fazolis", "addr:full": "2096 Stringtown Road", "addr:city": "Grove City", "addr:state": "OH", "addr:postcode": "43123", "phone": "(614) 539-5562", "website": "https://locations.fazolis.com/oh/grove-city/2096-stringtown-road.html", "opening_hours": "Mo-Th 10:30-22:00; Fr-Sa 10:30-23:00; Su 10:30-22:00", "brand": "Fazoli's", "brand:wikidata": "Q1399195"}, "geometry": {"type": "Point", "coordinates": [-83.05831968784332, 39.8790493428143]}},
{"type": "Feature", "id": "06O4AHLiH4pfIMQazaEesO7zsIs=", "properties": {"ref": "https://locations.fazolis.com/tn/nashville/10-harding-mall-drive.html", "@spider": "fazolis", "addr:full": "10 Harding Mall Drive", "addr:city": "Nashville", "addr:state": "TN", "addr:postcode": "37211", "phone": "(615) 832-5200", "website": "https://locations.fazolis.com/tn/nashville/10-harding-mall-drive.html", "opening_hours": "Mo-Su 10:30-22:00", "brand": "Fazoli's", "brand:wikidata": "Q1399195"}, "geometry": {"type": "Point", "coordinates": [-86.72265976667398, 36.08076933767726]}},
{"type": "Feature", "id": "d00yH8wAictDaH5xbifygDuSq0o=", "properties": {"ref": "https://locations.fazolis.com/tn/murfreesboro/835-old-fort-parkway.html", "@spider": "fazolis", "addr:full": "835 Old Fort Parkway", "addr:city": "Murfreesboro", "addr:state": "TN", "addr:postcode": "37129", "phone": "(615) 867-4067", "website": "https://locations.fazolis.com/tn/murfreesboro/835-old-fort-parkway.html", "opening_hours": "Mo-Su 10:30-22:00", "brand": "Fazoli's", "brand:wikidata": "Q1399195"}, "geometry": {"type": "Point", "coordinates": [-86.4050373, 35.846199]}},
{"type": "Feature", "id": "9Gqc3X2IO1GoIPRtdKv3eFPLAxQ=", "properties": {"ref": "https://locations.fazolis.com/wi/stevens-point/5665-hwy-10-east.html", "@spider": "fazolis", "addr:full": "5665 Hwy 10 East", "addr:city": "Stevens Point", "addr:state": "WI", "addr:postcode": "54481", "phone": "(715) 344-8739", "website": "https://locations.fazolis.com/wi/stevens-point/5665-hwy-10-east.html", "opening_hours": "Mo-Su 10:30-21:00", "brand": "Fazoli's", "brand:wikidata": "Q1399195"}, "geometry": {"type": "Point", "coordinates": [-89.50525320090492, 44.52309953087666]}},
{"type": "Feature", "id": "gQ-4ka6FbgovCQh5R4aWynrc9u0=", "properties": {"ref": "https://locations.fazolis.com/wi/oshkosh/1875-s--koeller-street.html", "@spider": "fazolis", "addr:full": "1875 S. Koeller Street", "addr:city": "Oshkosh", "addr:state": "WI", "addr:postcode": "54902", "phone": "(920) 232-9752", "website": "https://locations.fazolis.com/wi/oshkosh/1875-s--koeller-street.html", "opening_hours": "Mo-Su 10:30-22:00", "brand": "Fazoli's", "brand:wikidata": "Q1399195"}, "geometry": {"type": "Point", "coordinates": [-88.58009286601373, 43.99819034247839]}},
{"type": "Feature", "id": "EXlJmLkEVU07_UlwuqltRcRL17M=", "properties": {"ref": "https://locations.fazolis.com/wi/onalaska/9370-hwy-16.html", "@spider": "fazolis", "addr:full": "9370 Hwy 16", "addr:city": "Onalaska", "addr:state": "WI", "addr:postcode": "54650", "phone": "(608) 781-5818", "website": "https://locations.fazolis.com/wi/onalaska/9370-hwy-16.html", "opening_hours": "Mo-Su 10:30-21:00", "brand": "Fazoli's", "brand:wikidata": "Q1399195"}, "geometry": {"type": "Point", "coordinates": [-91.1969716, 43.870985]}},
{"type": "Feature", "id": "_v-Bx577zI5l_ZDHChVPVVFTqHg=", "properties": {"ref": "https://locations.fazolis.com/ne/omaha/8017-s--84th-street.html", "@spider": "fazolis", "addr:full": "8017 S. 84th Street", "addr:city": "Omaha", "addr:state": "NE", "addr:postcode": "68128", "phone": "(402) 597-3360", "website": "https://locations.fazolis.com/ne/omaha/8017-s--84th-street.html", "opening_hours": "Mo-Su 11:00-20:00", "brand": "Fazoli's", "brand:wikidata": "Q1399195"}, "geometry": {"type": "Point", "coordinates": [-96.042352, 41.17775]}},
{"type": "Feature", "id": "wOqOindBXCNmhZghEjAk32rsfBI=", "properties": {"ref": "https://locations.fazolis.com/ne/omaha/8002-cass-street.html", "@spider": "fazolis", "addr:full": "8002 Cass Street", "addr:city": "Omaha", "addr:state": "NE", "addr:postcode": "68114", "phone": "(402) 343-0918", "website": "https://locations.fazolis.com/ne/omaha/8002-cass-street.html", "opening_hours": "Mo-Su 10:30-22:00", "brand": "Fazoli's", "brand:wikidata": "Q1399195"}, "geometry": {"type": "Point", "coordinates": [-96.0384847, 41.2636561]}},
{"type": "Feature", "id": "OFj4vM4vOCgIaVjndxzRoPNCnh0=", "properties": {"ref": "https://locations.fazolis.com/ne/omaha/2434-s--132nd-street.html", "@spider": "fazolis", "addr:full": "2434 S. 132nd Street", "addr:city": "Omaha", "addr:state": "NE", "addr:postcode": "68144", "phone": "(402) 330-9236", "website": "https://locations.fazolis.com/ne/omaha/2434-s--132nd-street.html", "opening_hours": "Mo-Su 10:30-22:00", "brand": "Fazoli's", "brand:wikidata": "Q1399195"}, "geometry": {"type": "Point", "coordinates": [-96.12009018659592, 41.23639925721737]}},
{"type": "Feature", "id": "QqzNmHKm60iaoRIXbC1wllNxaG8=", "properties": {"ref": "https://locations.fazolis.com/wi/janesville/2105-humes-road.html", "@spider": "fazolis", "addr:full": "2105 Humes Road", "addr:city": "Janesville", "addr:state": "WI", "addr:postcode": "53545", "phone": "(608) 758-9636", "website": "https://locations.fazolis.com/wi/janesville/2105-humes-road.html", "opening_hours": "Mo-Th 10:30-20:00; Fr-Sa 10:30-22:00; Su 10:30-20:00", "brand": "Fazoli's", "brand:wikidata": "Q1399195"}, "geometry": {"type": "Point", "coordinates": [-88.99782223537841, 42.72105015938871]}},
{"type": "Feature", "id": "zpE11AP-_Wg-HDl9Ve4-c_YSwLw=", "properties": {"ref": "https://locations.fazolis.com/wi/green-bay/2494-w--mason-street.html", "@spider": "fazolis", "addr:full": "2494 W. Mason Street", "addr:city": "Green Bay", "addr:state": "WI", "addr:postcode": "54303", "phone": "(920) 592-0808", "website": "https://locations.fazolis.com/wi/green-bay/2494-w--mason-street.html", "opening_hours": "Mo-Su 10:30-22:00", "brand": "Fazoli's", "brand:wikidata": "Q1399195"}, "geometry": {"type": "Point", "coordinates": [-88.0939444899559, 44.52444476795495]}},
{"type": "Feature", "id": "jUhFpJUjhM_FjN9Uv6HDvVgDly8=", "properties": {"ref": "https://locations.fazolis.com/wi/eau-claire/3730-gateway-drive--3-30-.html", "@spider": "fazolis", "addr:full": "3730 Gateway Drive [3/30]", "addr:city": "Eau Claire", "addr:state": "WI", "addr:postcode": "54701", "phone": "(715) 830-1039", "website": "https://locations.fazolis.com/wi/eau-claire/3730-gateway-drive--3-30-.html", "opening_hours": "Mo-Su 10:30-22:00", "brand": "Fazoli's", "brand:wikidata": "Q1399195"}, "geometry": {"type": "Point", "coordinates": [-91.43215849695929, 44.777298141640394]}},
{"type": "Feature", "id": "ItYxDiRQFswms_klo9nM_CoWf2k=", "properties": {"ref": "https://locations.fazolis.com/ar/paragould/1515-w-kingshighway.html", "@spider": "fazolis", "addr:full": "1515 W Kingshighway", "addr:city": "Paragould", "addr:state": "AR", "addr:postcode": "72450", "phone": "(870) 236-2668", "website": "https://locations.fazolis.com/ar/paragould/1515-w-kingshighway.html", "opening_hours": "Mo-Su 10:30-21:00", "brand": "Fazoli's", "brand:wikidata": "Q1399195"}, "geometry": {"type": "Point", "coordinates": [-90.50676, 36.053305]}},
{"type": "Feature", "id": "oIBv6rK27DU4Wd7iKaky4Hjj0gI=", "properties": {"ref": "https://locations.fazolis.com/ar/jonesboro/1730-east-highland-dr-.html", "@spider": "fazolis", "addr:full": "1730 East Highland Dr.", "addr:city": "Jonesboro", "addr:state": "AR", "addr:postcode": "72401", "phone": "(870) 275-6242", "website": "https://locations.fazolis.com/ar/jonesboro/1730-east-highland-dr-.html", "opening_hours": "Mo-Su 10:30-22:00", "brand": "Fazoli's", "brand:wikidata": "Q1399195"}, "geometry": {"type": "Point", "coordinates": [-90.68706533827026, 35.82163345517384]}},
{"type": "Feature", "id": "8g2WGhPZ_GdLUkea-3nU8YfJ7Xo=", "properties": {"ref": "https://locations.fazolis.com/ok/oklahoma-city/13600-n--pennsylvania-ave-.html", "@spider": "fazolis", "addr:full": "13600 N. Pennsylvania Ave.", "addr:city": "Oklahoma City", "addr:state": "OK", "addr:postcode": "73120", "phone": "(405) 755-0405", "website": "https://locations.fazolis.com/ok/oklahoma-city/13600-n--pennsylvania-ave-.html", "opening_hours": "Mo-Su 10:30-22:00", "brand": "Fazoli's", "brand:wikidata": "Q1399195"}, "geometry": {"type": "Point", "coordinates": [-97.54871785640717, 35.607439107274054]}},
{"type": "Feature", "id": "GdUXgVOLu4UAOsP7iE_-OaR7brY=", "properties": {"ref": "https://locations.fazolis.com/tn/morristown/4362-erica-greene-cir.html", "@spider": "fazolis", "addr:full": "4362 Erica Greene Cir", "addr:city": "Morristown", "addr:state": "TN", "addr:postcode": "37814", "phone": "(423) 616-0512", "website": "https://locations.fazolis.com/tn/morristown/4362-erica-greene-cir.html", "opening_hours": "Mo-Su 10:30-20:00", "brand": "Fazoli's", "brand:wikidata": "Q1399195"}, "geometry": {"type": "Point", "coordinates": [-83.3614219, 36.1913087]}},
{"type": "Feature", "id": "zRRbkpffireIPnqj0oIzgjBu1cs=", "properties": {"ref": "https://locations.fazolis.com/tn/memphis/3587-riverdale-road.html", "@spider": "fazolis", "addr:full": "3587 Riverdale Road", "addr:city": "Memphis", "addr:state": "TN", "addr:postcode": "38115", "phone": "(901) 794-9121", "website": "https://locations.fazolis.com/tn/memphis/3587-riverdale-road.html", "opening_hours": "Mo-Su 10:30-21:00", "brand": "Fazoli's", "brand:wikidata": "Q1399195"}, "geometry": {"type": "Point", "coordinates": [-89.83032077550888, 35.05076223864434]}},
{"type": "Feature", "id": "BxvLSRtCvdx7vRzGk1ByF4eCKeg=", "properties": {"ref": "https://locations.fazolis.com/tn/madison/1847-gallatin-pike-north.html", "@spider": "fazolis", "addr:full": "1847 Gallatin Pike North", "addr:city": "Madison", "addr:state": "TN", "addr:postcode": "37115", "phone": "(615) 559-4046", "website": "https://locations.fazolis.com/tn/madison/1847-gallatin-pike-north.html", "opening_hours": "Mo-Su 10:30-21:00", "brand": "Fazoli's", "brand:wikidata": "Q1399195"}, "geometry": {"type": "Point", "coordinates": [-86.69655925549705, 36.29924923832954]}},
{"type": "Feature", "id": "-7w6SsFx45htD2QzS4Fq-SNSM5Y=", "properties": {"ref": "https://locations.fazolis.com/tn/knoxville/9515-kingston-pike.html", "@spider": "fazolis", "addr:full": "9515 Kingston Pike", "addr:city": "Knoxville", "addr:state": "TN", "addr:postcode": "37922", "phone": "(865) 694-1162", "website": "https://locations.fazolis.com/tn/knoxville/9515-kingston-pike.html", "opening_hours": "Mo-Su 11:00-22:00", "brand": "Fazoli's", "brand:wikidata": "Q1399195"}, "geometry": {"type": "Point", "coordinates": [-84.10100711420455, 35.90967585609473]}},
{"type": "Feature", "id": "UJKqdniIb9OjdRdanLChVD3tvPs=", "properties": {"ref": "https://locations.fazolis.com/ok/oklahoma-city/501-south-morgan-road.html", "@spider": "fazolis", "addr:full": "501 South Morgan Road", "addr:city": "Oklahoma City", "addr:state": "OK", "addr:postcode": "73128", "phone": "(405) 324-5376", "website": "https://locations.fazolis.com/ok/oklahoma-city/501-south-morgan-road.html", "opening_hours": "Mo-Su 10:30-22:00", "brand": "Fazoli's", "brand:wikidata": "Q1399195"}, "geometry": {"type": "Point", "coordinates": [-97.6906138, 35.4613819]}},
{"type": "Feature", "id": "B7tC72G81t6UUWz2W54OoWO3ffo=", "properties": {"ref": "https://locations.fazolis.com/oh/dayton/6110-wilmington-pike.html", "@spider": "fazolis", "addr:full": "6110 Wilmington Pike", "addr:city": "Dayton", "addr:state": "OH", "addr:postcode": "45459", "phone": "(937) 848-6419", "website": "https://locations.fazolis.com/oh/dayton/6110-wilmington-pike.html", "opening_hours": "Mo-Su 11:00-20:00", "brand": "Fazoli's", "brand:wikidata": "Q1399195"}, "geometry": {"type": "Point", "coordinates": [-84.10952976860244, 39.65158257166435]}},
{"type": "Feature", "id": "0eaDihg5Al38AiYIr_WsEky-7iA=", "properties": {"ref": "https://locations.fazolis.com/tn/kingsport/2009-n--eastman-road.html", "@spider": "fazolis", "addr:full": "2009 N. Eastman Road", "addr:city": "Kingsport", "addr:state": "TN", "addr:postcode": "37660", "phone": "(423) 246-8221", "website": "https://locations.fazolis.com/tn/kingsport/2009-n--eastman-road.html", "opening_hours": "Mo-Th 10:30-22:00; Fr-Sa 10:30-23:00; Su 10:30-22:00", "brand": "Fazoli's", "brand:wikidata": "Q1399195"}, "geometry": {"type": "Point", "coordinates": [-82.51710087060934, 36.546255275497295]}},
{"type": "Feature", "id": "GO0NzgSfjwBo00ZZvPB1jfFpRnA=", "properties": {"ref": "https://locations.fazolis.com/tn/johnson-city/1916-n--roan-street.html", "@spider": "fazolis", "addr:full": "1916 N. Roan Street", "addr:city": "Johnson City", "addr:state": "TN", "addr:postcode": "37601", "phone": "(423) 283-4394", "website": "https://locations.fazolis.com/tn/johnson-city/1916-n--roan-street.html", "opening_hours": "Mo-Th 10:30-22:00; Fr-Sa 10:30-23:00; Su 10:30-22:00", "brand": "Fazoli's", "brand:wikidata": "Q1399195"}, "geometry": {"type": "Point", "coordinates": [-82.37307161092764, 36.338311898026504]}},
{"type": "Feature", "id": "QesOhZKILg_QLq-kSU2jofriFek=", "properties": {"ref": "https://locations.fazolis.com/tn/jackson/1914-emporium-drive.html", "@spider": "fazolis", "addr:full": "1914 Emporium Drive", "addr:city": "Jackson", "addr:state": "TN", "addr:postcode": "38305", "phone": "(731) 660-0830", "website": "https://locations.fazolis.com/tn/jackson/1914-emporium-drive.html", "opening_hours": "Mo-Su 10:30-22:00", "brand": "Fazoli's", "brand:wikidata": "Q1399195"}, "geometry": {"type": "Point", "coordinates": [-88.84869134940345, 35.66638585384092]}},
{"type": "Feature", "id": "huqDFIJUi-4E0dfWTzsBxNURoUc=", "properties": {"ref": "https://locations.fazolis.com/tn/hermitage/5002-old-hickory-blvd.html", "@spider": "fazolis", "addr:full": "5002 Old Hickory Blvd", "addr:city": "Hermitage", "addr:state": "TN", "addr:postcode": "37076", "phone": "(615) 872-0105", "website": "https://locations.fazolis.com/tn/hermitage/5002-old-hickory-blvd.html", "opening_hours": "Mo-Su 10:30-22:00", "brand": "Fazoli's", "brand:wikidata": "Q1399195"}, "geometry": {"type": "Point", "coordinates": [-86.61740421952231, 36.19499492701886]}},
{"type": "Feature", "id": "-ClB07thaiUkllhZzTx_6GmnAl0=", "properties": {"ref": "https://locations.fazolis.com/tn/cleveland/4550-north-lee-highway.html", "@spider": "fazolis", "addr:full": "4550 North Lee Highway", "addr:city": "Cleveland", "addr:state": "TN", "addr:postcode": "37312", "phone": "(423) 339-2822", "website": "https://locations.fazolis.com/tn/cleveland/4550-north-lee-highway.html", "opening_hours": "Mo-Su 10:30-21:00", "brand": "Fazoli's", "brand:wikidata": "Q1399195"}, "geometry": {"type": "Point", "coordinates": [-84.84381526708609, 35.20197654650639]}},
{"type": "Feature", "id": "4rRgUknUUPLnca6nFyls9ur0974=", "properties": {"ref": "https://locations.fazolis.com/oh/dayton/6675-miller-lane.html", "@spider": "fazolis", "addr:full": "6675 Miller Lane", "addr:city": "Dayton", "addr:state": "OH", "addr:postcode": "45414", "phone": "(937) 280-4577", "website": "https://locations.fazolis.com/oh/dayton/6675-miller-lane.html", "opening_hours": "Mo-Th 10:30-21:00; Fr-Sa 10:30-22:00; Su 10:30-21:00", "brand": "Fazoli's", "brand:wikidata": "Q1399195"}, "geometry": {"type": "Point", "coordinates": [-84.19287, 39.8441168]}},
{"type": "Feature", "id": "vXTfdliV-I3X3ME1xSHZ0j10WNw=", "properties": {"ref": "https://locations.fazolis.com/tn/clarksville/2143-lowes-drive.html", "@spider": "fazolis", "addr:full": "2143 Lowes Drive", "addr:city": "Clarksville", "addr:state": "TN", "addr:postcode": "37040", "phone": "(931) 552-2151", "website": "https://locations.fazolis.com/tn/clarksville/2143-lowes-drive.html", "opening_hours": "Mo-Su 10:30-22:00", "brand": "Fazoli's", "brand:wikidata": "Q1399195"}, "geometry": {"type": "Point", "coordinates": [-87.30322665490348, 36.575115979166135]}},
{"type": "Feature", "id": "vsx3CYTJH4SlOglvYFEJreStvvA=", "properties": {"ref": "https://locations.fazolis.com/tn/cookeville/1063-south-walnut.html", "@spider": "fazolis", "addr:full": "1063 South Walnut", "addr:city": "Cookeville", "addr:state": "TN", "addr:postcode": "38501", "phone": "(931) 528-5500", "website": "https://locations.fazolis.com/tn/cookeville/1063-south-walnut.html", "opening_hours": "Mo-Su 10:30-22:00", "brand": "Fazoli's", "brand:wikidata": "Q1399195"}, "geometry": {"type": "Point", "coordinates": [-85.51151096820837, 36.137055908449774]}},
{"type": "Feature", "id": "5FgZazp18TuRwCKzWEXzLW82gIo=", "properties": {"ref": "https://locations.fazolis.com/wi/appleton/4687-w--college-avenue.html", "@spider": "fazolis", "addr:full": "4687 W. College Avenue", "addr:city": "Appleton", "addr:state": "WI", "addr:postcode": "54914", "phone": "(920) 830-6411", "website": "https://locations.fazolis.com/wi/appleton/4687-w--college-avenue.html", "opening_hours": "Mo-Su 11:30-20:30", "brand": "Fazoli's", "brand:wikidata": "Q1399195"}, "geometry": {"type": "Point", "coordinates": [-88.47521647810936, 44.26148086661016]}},
{"type": "Feature", "id": "Zy4VgcUIeB_6MyyElBXOZ9h0pgY=", "properties": {"ref": "https://locations.fazolis.com/wi/appleton/2720-n--richmond-street.html", "@spider": "fazolis", "addr:full": "2720 N. Richmond Street", "addr:city": "Appleton", "addr:state": "WI", "addr:postcode": "54911", "phone": "(920) 993-1370", "website": "https://locations.fazolis.com/wi/appleton/2720-n--richmond-street.html", "opening_hours": "Mo-Su 10:30-20:00", "brand": "Fazoli's", "brand:wikidata": "Q1399195"}, "geometry": {"type": "Point", "coordinates": [-88.41531885698714, 44.28683329396978]}},
{"type": "Feature", "id": "PwccSR4Wge6Kznt8QmN-5TwrUtY=", "properties": {"ref": "https://locations.fazolis.com/tx/midland/4505-west-loop-250-north.html", "@spider": "fazolis", "addr:full": "4505 West Loop 250 North", "addr:city": "Midland", "addr:state": "TX", "addr:postcode": "79707", "phone": "(432) 520-4260", "website": "https://locations.fazolis.com/tx/midland/4505-west-loop-250-north.html", "opening_hours": "Mo-Su 11:00-22:00", "brand": "Fazoli's", "brand:wikidata": "Q1399195"}, "geometry": {"type": "Point", "coordinates": [-102.14634603776176, 32.02665407577124]}},
{"type": "Feature", "id": "PNqoKSiC2eJ9XJKYT0XNl4EIJvA=", "properties": {"ref": "https://locations.fazolis.com/tx/college-station/400-harvey-road.html", "@spider": "fazolis", "addr:full": "400 Harvey Road", "addr:city": "College Station", "addr:state": "TX", "addr:postcode": "77840", "phone": "(979) 694-5199", "website": "https://locations.fazolis.com/tx/college-station/400-harvey-road.html", "opening_hours": "Mo-Sa 10:30-23:00; Su 10:30-22:00", "brand": "Fazoli's", "brand:wikidata": "Q1399195"}, "geometry": {"type": "Point", "coordinates": [-96.3158003, 30.6172332]}},
{"type": "Feature", "id": "fMqx56VrRlAhfZTiyNDd6Wds5rA=", "properties": {"ref": "https://locations.fazolis.com/tn/chattanooga/2332-shallowford-village-drive.html", "@spider": "fazolis", "addr:full": "2332 Shallowford Village Drive", "addr:city": "Chattanooga", "addr:state": "TN", "addr:postcode": "37421", "phone": "(423) 499-5155", "website": "https://locations.fazolis.com/tn/chattanooga/2332-shallowford-village-drive.html", "opening_hours": "Mo-Th 10:30-21:00; Fr-Sa 10:30-22:00; Su 10:30-21:00", "brand": "Fazoli's", "brand:wikidata": "Q1399195"}, "geometry": {"type": "Point", "coordinates": [-85.1564916, 35.0440941]}},
{"type": "Feature", "id": "20Vni_s1uet_zyehYEPIqmlGV4M=", "properties": {"ref": "https://locations.fazolis.com/tx/odessa/4241-john-ben-shepperd-pkwy.html", "@spider": "fazolis", "addr:full": "4241 John Ben Shepperd Pkwy", "addr:city": "Odessa", "addr:state": "TX", "addr:postcode": "79762", "phone": "(432) 550-3600", "website": "https://locations.fazolis.com/tx/odessa/4241-john-ben-shepperd-pkwy.html", "opening_hours": "Mo-Su 11:00-22:00", "brand": "Fazoli's", "brand:wikidata": "Q1399195"}, "geometry": {"type": "Point", "coordinates": [-102.33529150485992, 31.89531951423146]}},
{"type": "Feature", "id": "dJ9XYdB73WF4nf03LL1E6HgwE60=", "properties": {"ref": "https://locations.fazolis.com/tx/pharr/1943-west-interstate-2.html", "@spider": "fazolis", "addr:full": "1943 West Interstate 2", "addr:city": "Pharr", "addr:state": "TX", "addr:postcode": "78577", "phone": "(956) 787-5109", "website": "https://locations.fazolis.com/tx/pharr/1943-west-interstate-2.html", "opening_hours": "Mo-Th 10:30-22:00; Fr-Sa 10:30-23:00; Su 10:30-22:00", "brand": "Fazoli's", "brand:wikidata": "Q1399195"}, "geometry": {"type": "Point", "coordinates": [-98.2032579, 26.1944058]}},
{"type": "Feature", "id": "ZfE5SbyF8ZCGuUMhPwwzrUIglDI=", "properties": {"ref": "https://locations.fazolis.com/tx/amarillo/2512-s-soncy-rd.html", "@spider": "fazolis", "addr:full": "2512 S Soncy Rd", "addr:city": "Amarillo", "addr:state": "TX", "addr:postcode": "79121", "phone": "(806) 457-9996", "website": "https://locations.fazolis.com/tx/amarillo/2512-s-soncy-rd.html", "opening_hours": "Mo-Su 11:00-22:00", "brand": "Fazoli's", "brand:wikidata": "Q1399195"}, "geometry": {"type": "Point", "coordinates": [-101.93824482115262, 35.18199400265974]}},
{"type": "Feature", "id": "V8vde3nBns-vY3iVFaKlv85Fi2I=", "properties": {"ref": "https://locations.fazolis.com/tx/abilene/4066-s--danville-street.html", "@spider": "fazolis", "addr:full": "4066 S. Danville Street", "addr:city": "Abilene", "addr:state": "TX", "addr:postcode": "79605", "phone": "(325) 692-3804", "website": "https://locations.fazolis.com/tx/abilene/4066-s--danville-street.html", "opening_hours": "Mo-Su 11:00-22:00", "brand": "Fazoli's", "brand:wikidata": "Q1399195"}, "geometry": {"type": "Point", "coordinates": [-99.7628542751113, 32.40550335124155]}},
{"type": "Feature", "id": "o0iy-TsrVuYaEP0ad6sB-SohzYc=", "properties": {"ref": "https://locations.fazolis.com/wv/huntington/5120-u-s--60-east.html", "@spider": "fazolis", "addr:full": "5120 U.S. 60 East", "addr:city": "Huntington", "addr:state": "WV", "addr:postcode": "25705", "phone": "(304) 733-6600", "website": "https://locations.fazolis.com/wv/huntington/5120-u-s--60-east.html", "opening_hours": "Mo-Su 10:30-22:00", "brand": "Fazoli's", "brand:wikidata": "Q1399195"}, "geometry": {"type": "Point", "coordinates": [-82.34648823738098, 38.4138978109966]}},
{"type": "Feature", "id": "5BjKezVTGG8z5g0KW-zKXufxm1Y=", "properties": {"ref": "https://locations.fazolis.com/wv/huntington/1310-third-avenue.html", "@spider": "fazolis", "addr:full": "1310 Third Avenue", "addr:city": "Huntington", "addr:state": "WV", "addr:postcode": "25701", "phone": "(304) 697-9908", "website": "https://locations.fazolis.com/wv/huntington/1310-third-avenue.html", "opening_hours": "Mo-Su 10:30-21:00", "brand": "Fazoli's", "brand:wikidata": "Q1399195"}, "geometry": {"type": "Point", "coordinates": [-82.4365863204003, 38.42357514812432]}},
{"type": "Feature", "id": "xKJCNOpaCcatLosKHweK5tijXy0=", "properties": {"ref": "https://locations.fazolis.com/sc/columbia/7621-two-notch-road.html", "@spider": "fazolis", "addr:full": "7621 Two-Notch Road", "addr:city": "Columbia", "addr:state": "SC", "addr:postcode": "29223", "phone": "(803) 401-5540", "website": "https://locations.fazolis.com/sc/columbia/7621-two-notch-road.html", "opening_hours": "Mo-Su 11:00-21:30", "brand": "Fazoli's", "brand:wikidata": "Q1399195"}, "geometry": {"type": "Point", "coordinates": [-80.94407520212371, 34.07757196199849]}},
{"type": "Feature", "id": "s8Gd3I-7J7IU4ODxFMcsw8HpeT4=", "properties": {"ref": "https://locations.fazolis.com/sc/columbia/139-columbiana-drive.html", "@spider": "fazolis", "addr:full": "139 Columbiana Drive", "addr:city": "Columbia", "addr:state": "SC", "addr:postcode": "29212", "phone": "(803) 781-3149", "website": "https://locations.fazolis.com/sc/columbia/139-columbiana-drive.html", "opening_hours": "Mo-Su 10:30-22:30", "brand": "Fazoli's", "brand:wikidata": "Q1399195"}, "geometry": {"type": "Point", "coordinates": [-81.1588480817291, 34.07565333001914]}},
{"type": "Feature", "id": "a6M9vUyYDng5N0agT-hGHkP9UZ8=", "properties": {"ref": "https://locations.fazolis.com/ca/norco/1255-hamner-ave.html", "@spider": "fazolis", "addr:full": "1255 Hamner Ave", "addr:city": "Norco", "addr:state": "CA", "addr:postcode": "92860", "phone": "(951) 736-5272", "website": "https://locations.fazolis.com/ca/norco/1255-hamner-ave.html", "opening_hours": "Mo-Th 10:30-21:00; Fr-Su 10:30-22:00", "brand": "Fazoli's", "brand:wikidata": "Q1399195"}, "geometry": {"type": "Point", "coordinates": [-117.56215011656764, 33.90011781010874]}},
{"type": "Feature", "id": "Q5Ufc_nXfBHQUMiS-xvKSu5L8Cc=", "properties": {"ref": "https://locations.fazolis.com/ca/chino-hills/13015-peyton-drive.html", "@spider": "fazolis", "addr:full": "13015 Peyton Drive", "addr:city": "Chino Hills", "addr:state": "CA", "addr:postcode": "91709", "phone": "(909) 364-2444", "website": "https://locations.fazolis.com/ca/chino-hills/13015-peyton-drive.html", "opening_hours": "Mo-Th 10:30-21:00; Fr-Su 10:30-22:00", "brand": "Fazoli's", "brand:wikidata": "Q1399195"}, "geometry": {"type": "Point", "coordinates": [-117.74456053676147, 34.0156939445914]}},
{"type": "Feature", "id": "CxF2XkKsZnb1ht8yu1nVtNcg9Fg=", "properties": {"ref": "https://locations.fazolis.com/tx/lubbock/1902-west-loop-289.html", "@spider": "fazolis", "addr:full": "1902 West Loop 289", "addr:city": "Lubbock", "addr:state": "TX", "addr:postcode": "79407", "phone": "(806) 791-4400", "website": "https://locations.fazolis.com/tx/lubbock/1902-west-loop-289.html", "opening_hours": "Mo-Su 11:00-22:00", "brand": "Fazoli's", "brand:wikidata": "Q1399195"}, "geometry": {"type": "Point", "coordinates": [-101.94666087627417, 33.57709853959906]}},
{"type": "Feature", "id": "DENGOq5OTNT_uMkC8s6Vs61JmxI=", "properties": {"ref": "https://locations.fazolis.com/tx/austin/13201-fm-620-n.html", "@spider": "fazolis", "addr:full": "13201 FM 620 N", "addr:city": "Austin", "addr:state": "TX", "addr:postcode": "78729", "phone": "(512) 335-4436", "website": "https://locations.fazolis.com/tx/austin/13201-fm-620-n.html", "opening_hours": "Mo-Su 10:30-22:00", "brand": "Fazoli's", "brand:wikidata": "Q1399195"}, "geometry": {"type": "Point", "coordinates": [-97.79115474738319, 30.468750449671965]}},
{"type": "Feature", "id": "f3fOal7S1mVEgTDgOvteQpjLZ9M=", "properties": {"ref": "https://locations.fazolis.com/tx/austin/1300-e-anderson-lane.html", "@spider": "fazolis", "addr:full": "1300 E Anderson Lane Building D, Suite 1202", "addr:city": "Austin", "addr:state": "TX", "addr:postcode": "78752", "phone": "(512) 276-2267", "website": "https://locations.fazolis.com/tx/austin/1300-e-anderson-lane.html", "opening_hours": "Mo-Sa 11:00-22:00; Su 12:00-20:00", "brand": "Fazoli's", "brand:wikidata": "Q1399195"}, "geometry": {"type": "Point", "coordinates": [-97.68744643589858, 30.336800665304775]}},
{"type": "Feature", "id": "b_8aglZXwgF0IJBRSd3-lOonjoc=", "properties": {"ref": "https://locations.fazolis.com/tx/lubbock/3009-main-street.html", "@spider": "fazolis", "addr:full": "3009 Main Street", "addr:city": "Lubbock", "addr:state": "TX", "addr:postcode": "79409", "phone": "(806) 742-1231", "website": "https://locations.fazolis.com/tx/lubbock/3009-main-street.html", "opening_hours": "Mo-Th 10:30-21:00; Fr 10:30-19:00; Sa 12:00-19:00; Su 12:00-21:00", "brand": "Fazoli's", "brand:wikidata": "Q1399195"}, "geometry": {"type": "Point", "coordinates": [-101.8802967, 33.5838507]}},
{"type": "Feature", "id": "qhA6CppHM4tynzEBb45X8Joc8a8=", "properties": {"ref": "https://locations.fazolis.com/tx/lubbock/4008-82nd-street.html", "@spider": "fazolis", "addr:full": "4008 82nd Street", "addr:city": "Lubbock", "addr:state": "TX", "addr:postcode": "79423", "phone": "(806) 785-4554", "website": "https://locations.fazolis.com/tx/lubbock/4008-82nd-street.html", "opening_hours": "Mo-Su 11:00-22:00", "brand": "Fazoli's", "brand:wikidata": "Q1399195"}, "geometry": {"type": "Point", "coordinates": [-101.90021007955465, 33.52016972904248]}},
{"type": "Feature", "id": "BurN0zq__DGiG3NI4-spAEtJ1VE=", "properties": {"ref": "https://locations.fazolis.com/ga/statesboro/244-henry-blvd.html", "@spider": "fazolis", "addr:full": "244 Henry Blvd", "addr:city": "Statesboro", "addr:state": "GA", "addr:postcode": "30458", "phone": "(912) 764-4488", "website": "https://locations.fazolis.com/ga/statesboro/244-henry-blvd.html", "opening_hours": "Mo-Su 10:30-22:00", "brand": "Fazoli's", "brand:wikidata": "Q1399195"}, "geometry": {"type": "Point", "coordinates": [-81.757809, 32.429356]}},
{"type": "Feature", "id": "5CAQAnSt-9y3nb2t8L_pmesBXkI=", "properties": {"ref": "https://locations.fazolis.com/ga/rome/42-hicks-drive-se.html", "@spider": "fazolis", "addr:full": "42 Hicks Drive SE", "addr:city": "Rome", "addr:state": "GA", "addr:postcode": "30161", "phone": "(706) 584-7798", "website": "https://locations.fazolis.com/ga/rome/42-hicks-drive-se.html", "opening_hours": "Mo-Th 10:30-22:00; Fr-Sa 10:30-23:00; Su 10:30-22:00", "brand": "Fazoli's", "brand:wikidata": "Q1399195"}, "geometry": {"type": "Point", "coordinates": [-85.1633224, 34.2523103]}},
{"type": "Feature", "id": "vO_EP9Q0kxVGYLtE5ePc1Na07KE=", "properties": {"ref": "https://locations.fazolis.com/ga/pooler/10-mill-creek-circle.html", "@spider": "fazolis", "addr:full": "10 Mill Creek Circle", "addr:city": "Pooler", "addr:state": "GA", "addr:postcode": "31322", "phone": "(912) 988-7354", "website": "https://locations.fazolis.com/ga/pooler/10-mill-creek-circle.html", "opening_hours": "Mo-Su 11:00-22:00", "brand": "Fazoli's", "brand:wikidata": "Q1399195"}, "geometry": {"type": "Point", "coordinates": [-81.2429522, 32.1396011]}},
{"type": "Feature", "id": "f2EYytgj4Jbtr-gdKMutNyfIf5A=", "properties": {"ref": "https://locations.fazolis.com/ga/macon/6237-zebulon-rd.html", "@spider": "fazolis", "addr:full": "6237 Zebulon Rd", "addr:city": "Macon", "addr:state": "GA", "addr:postcode": "31210", "phone": "(478) 238-4377", "website": "https://locations.fazolis.com/ga/macon/6237-zebulon-rd.html", "opening_hours": "Mo-Su 11:00-21:00", "brand": "Fazoli's", "brand:wikidata": "Q1399195"}, "geometry": {"type": "Point", "coordinates": [-83.76605503937299, 32.88130028842783]}},
{"type": "Feature", "id": "ac6zJpwP9k4Stc7yse0zUhnHtsI=", "properties": {"ref": "https://locations.fazolis.com/ga/fort-oglethorpe/3016-battlefield-pkwy.html", "@spider": "fazolis", "addr:full": "3016 Battlefield Pkwy", "addr:city": "Fort Oglethorpe", "addr:state": "GA", "addr:postcode": "30742", "phone": "(706) 861-7989", "website": "https://locations.fazolis.com/ga/fort-oglethorpe/3016-battlefield-pkwy.html", "opening_hours": "Mo-Su 10:30-21:00", "brand": "Fazoli's", "brand:wikidata": "Q1399195"}, "geometry": {"type": "Point", "coordinates": [-85.21515741646681, 34.93854174248611]}},
{"type": "Feature", "id": "DFbT4cVlSw8SIb_J1E9g_l9qyVU=", "properties": {"ref": "https://locations.fazolis.com/ga/valdosta/1307-n--st--augustine-road.html", "@spider": "fazolis", "addr:full": "1307 N. St. Augustine Road", "addr:city": "Valdosta", "addr:state": "GA", "addr:postcode": "31601", "phone": "(229) 241-7780", "website": "https://locations.fazolis.com/ga/valdosta/1307-n--st--augustine-road.html", "opening_hours": "Mo-Th 10:30-21:00; Fr-Sa 10:30-22:00; Su 10:30-21:00", "brand": "Fazoli's", "brand:wikidata": "Q1399195"}, "geometry": {"type": "Point", "coordinates": [-83.32842081785208, 30.844099915983225]}},
{"type": "Feature", "id": "jbabSKmdYN__B-VVSecOtL6kY0E=", "properties": {"ref": "https://locations.fazolis.com/ga/cartersville/21-s--dixie-avenue.html", "@spider": "fazolis", "addr:full": "21 S. Dixie Avenue", "addr:city": "Cartersville", "addr:state": "GA", "addr:postcode": "30120", "phone": "(770) 334-2221", "website": "https://locations.fazolis.com/ga/cartersville/21-s--dixie-avenue.html", "opening_hours": "Mo-Th 10:30-22:00; Fr-Sa 10:30-23:00; Su 10:30-22:00", "brand": "Fazoli's", "brand:wikidata": "Q1399195"}, "geometry": {"type": "Point", "coordinates": [-84.7895073, 34.1653788]}},
{"type": "Feature", "id": "614Hd_Mju6PffxzXHxQd7VZhhhk=", "properties": {"ref": "https://locations.fazolis.com/ga/columbus/6589-whittlesey-boulevard.html", "@spider": "fazolis", "addr:full": "6589 Whittlesey Boulevard", "addr:city": "Columbus", "addr:state": "GA", "addr:postcode": "31909", "phone": "(706) 507-2655", "website": "https://locations.fazolis.com/ga/columbus/6589-whittlesey-boulevard.html", "opening_hours": "Mo-Su 11:00-21:00", "brand": "Fazoli's", "brand:wikidata": "Q1399195"}, "geometry": {"type": "Point", "coordinates": [-84.9327429, 32.5507499]}},
{"type": "Feature", "id": "FAiGYof7WHwXS1gx3bhngl5MBVA=", "properties": {"ref": "https://locations.fazolis.com/ga/atlanta/3781-presidential-parkway.html", "@spider": "fazolis", "addr:full": "3781 Presidential Parkway Suite FP301", "addr:city": "Atlanta", "addr:state": "GA", "addr:postcode": "30340", "phone": "(678) 691-9210", "website": "https://locations.fazolis.com/ga/atlanta/3781-presidential-parkway.html", "opening_hours": "Mo-Sa 11:00-22:00; Su 12:00-20:00", "brand": "Fazoli's", "brand:wikidata": "Q1399195"}, "geometry": {"type": "Point", "coordinates": [-84.2659786, 33.8860463]}},
{"type": "Feature", "id": "cWzLCdvxYPfbxGUIzyRCPBp3564=", "properties": {"ref": "https://locations.fazolis.com/il/mount-vernon/4209-broadway-st-.html", "@spider": "fazolis", "addr:full": "4209 Broadway St.", "addr:city": "Mount Vernon", "addr:state": "IL", "addr:postcode": "62864", "phone": "(618) 244-1947", "website": "https://locations.fazolis.com/il/mount-vernon/4209-broadway-st-.html", "opening_hours": "Mo-Th 10:30-22:00; Fr-Sa 10:30-23:00; Su 10:30-22:00", "brand": "Fazoli's", "brand:wikidata": "Q1399195"}, "geometry": {"type": "Point", "coordinates": [-88.94361830790331, 38.313573874654054]}},
{"type": "Feature", "id": "1e74FPhLMOnanOkaAITUIh0pXZE=", "properties": {"ref": "https://locations.fazolis.com/ga/bonaire/762-highway-96.html", "@spider": "fazolis", "addr:full": "762 Highway 96", "addr:city": "Bonaire", "addr:state": "GA", "addr:postcode": "31005", "phone": "(478) 287-2943", "website": "https://locations.fazolis.com/ga/bonaire/762-highway-96.html", "opening_hours": "Mo-Su 11:00-21:00", "brand": "Fazoli's", "brand:wikidata": "Q1399195"}, "geometry": {"type": "Point", "coordinates": [-83.65810364490244, 32.553959073970276]}},
{"type": "Feature", "id": "RQlar0T3SOTIrNy_gB7rnaPjAn8=", "properties": {"ref": "https://locations.fazolis.com/il/marion/1135-n-carbon-street.html", "@spider": "fazolis", "addr:full": "1135 N Carbon Street", "addr:city": "Marion", "addr:state": "IL", "addr:postcode": "62959", "phone": "(618) 993-9081", "website": "https://locations.fazolis.com/il/marion/1135-n-carbon-street.html", "opening_hours": "Mo-Su 10:30-22:00", "brand": "Fazoli's", "brand:wikidata": "Q1399195"}, "geometry": {"type": "Point", "coordinates": [-88.9475944576312, 37.739147834335654]}},
{"type": "Feature", "id": "GvV8w2oE1E2vAaIcA0NgJbELplg=", "properties": {"ref": "https://locations.fazolis.com/il/champaign/2029-n--prospect-avenue.html", "@spider": "fazolis", "addr:full": "2029 N. Prospect Avenue", "addr:city": "Champaign", "addr:state": "IL", "addr:postcode": "61821", "phone": "(217) 356-4820", "website": "https://locations.fazolis.com/il/champaign/2029-n--prospect-avenue.html", "opening_hours": "Mo-Su 10:30-22:00", "brand": "Fazoli's", "brand:wikidata": "Q1399195"}, "geometry": {"type": "Point", "coordinates": [-88.2584982, 40.1398724]}},
{"type": "Feature", "id": "T9hUuzo0810G7Ruy0emSOm_JCX0=", "properties": {"ref": "https://locations.fazolis.com/fl/mary-esther/180-mary-esther-boulevard.html", "@spider": "fazolis", "addr:full": "180 Mary Esther Boulevard", "addr:city": "Mary Esther", "addr:state": "FL", "addr:postcode": "32569", "phone": "(850) 374-3222", "website": "https://locations.fazolis.com/fl/mary-esther/180-mary-esther-boulevard.html", "opening_hours": "Mo-Su 11:00-21:00", "brand": "Fazoli's", "brand:wikidata": "Q1399195"}, "geometry": {"type": "Point", "coordinates": [-86.65557525000825, 30.412433558026404]}},
{"type": "Feature", "id": "EWTu5BkuzCO2-8b-I9XkNOu6hTE=", "properties": {"ref": "https://locations.fazolis.com/fl/clermont/1913-us-27.html", "@spider": "fazolis", "addr:full": "1913 US-27", "addr:city": "Clermont", "addr:state": "FL", "addr:postcode": "34711", "phone": "(352) 989-4907", "website": "https://locations.fazolis.com/fl/clermont/1913-us-27.html", "opening_hours": "Mo-Th 10:30-21:30; Fr-Sa 10:30-23:00; Su 10:30-21:30", "brand": "Fazoli's", "brand:wikidata": "Q1399195"}, "geometry": {"type": "Point", "coordinates": [-81.7407425, 28.5420686]}},
{"type": "Feature", "id": "QbaxsAb81XgNEmsZJdl6j1TaxG4=", "properties": {"ref": "https://locations.fazolis.com/il/quincy/4900-broadway.html", "@spider": "fazolis", "addr:full": "4900 Broadway", "addr:city": "Quincy", "addr:state": "IL", "addr:postcode": "62305", "phone": "(217) 228-9873", "website": "https://locations.fazolis.com/il/quincy/4900-broadway.html", "opening_hours": "Mo-Su 10:30-21:00", "brand": "Fazoli's", "brand:wikidata": "Q1399195"}, "geometry": {"type": "Point", "coordinates": [-91.33754125751693, 39.934518411300765]}},
{"type": "Feature", "id": "1_yYGpedz-viGe2pYSnPL230Rio=", "properties": {"ref": "https://locations.fazolis.com/fl/panama-city/2263-mlk-jr-blvd.html", "@spider": "fazolis", "addr:full": "2263 MLK Jr Blvd", "addr:city": "Panama City", "addr:state": "FL", "addr:postcode": "32405", "phone": "(859) 268-1668", "website": "https://locations.fazolis.com/fl/panama-city/2263-mlk-jr-blvd.html", "opening_hours": "Mo-Su ", "brand": "Fazoli's", "brand:wikidata": "Q1399195"}, "geometry": {"type": "Point", "coordinates": [-85.650501, 30.189049]}},
{"type": "Feature", "id": "LyzA3ht3Fmq-zWQ-6drQw9h5oqM=", "properties": {"ref": "https://locations.fazolis.com/il/carbondale/1120-east-main-street.html", "@spider": "fazolis", "addr:full": "1120 East Main Street", "addr:city": "Carbondale", "addr:state": "IL", "addr:postcode": "62901", "phone": "(618) 529-4852", "website": "https://locations.fazolis.com/il/carbondale/1120-east-main-street.html", "opening_hours": "Mo-Su 10:30-22:00", "brand": "Fazoli's", "brand:wikidata": "Q1399195"}, "geometry": {"type": "Point", "coordinates": [-89.19859453738127, 37.72927342659395]}},
{"type": "Feature", "id": "wgqXXDgDrIt-y1b5WfVV_xmrStI=", "properties": {"ref": "https://locations.fazolis.com/il/moline/721-41st-avenue-drive.html", "@spider": "fazolis", "addr:full": "721 41st Avenue Drive", "addr:city": "Moline", "addr:state": "IL", "addr:postcode": "61265", "phone": "(309) 797-1303", "website": "https://locations.fazolis.com/il/moline/721-41st-avenue-drive.html", "opening_hours": "Mo-Su 10:30-22:00", "brand": "Fazoli's", "brand:wikidata": "Q1399195"}, "geometry": {"type": "Point", "coordinates": [-90.52739202976227, 41.47047117798531]}},
{"type": "Feature", "id": "Lp5-DngyTaYDpOU3v_SfQfVd7v0=", "properties": {"ref": "https://locations.fazolis.com/fl/tampa/4011-east-busch-boulevard.html", "@spider": "fazolis", "addr:full": "4011 East Busch Boulevard", "addr:city": "Tampa", "addr:state": "FL", "addr:postcode": "33617", "phone": "(813) 644-4789", "website": "https://locations.fazolis.com/fl/tampa/4011-east-busch-boulevard.html", "opening_hours": "Mo-Su ", "brand": "Fazoli's", "brand:wikidata": "Q1399195"}, "geometry": {"type": "Point", "coordinates": [-82.41495391840269, 28.032179346059742]}},
{"type": "Feature", "id": "2pQuJelpJOT-lOMM2oQkxfzqubw=", "properties": {"ref": "https://locations.fazolis.com/il/fairview-heights/5811-n--illinois-street.html", "@spider": "fazolis", "addr:full": "5811 N. Illinois Street", "addr:city": "Fairview Heights", "addr:state": "IL", "addr:postcode": "62208", "phone": "(618) 233-4041", "website": "https://locations.fazolis.com/il/fairview-heights/5811-n--illinois-street.html", "opening_hours": "Mo-Su 10:30-22:00", "brand": "Fazoli's", "brand:wikidata": "Q1399195"}, "geometry": {"type": "Point", "coordinates": [-89.98539909424835, 38.58519530091258]}},
{"type": "Feature", "id": "W2bYqlzsB0pgdvICXzk_mh4Oae0=", "properties": {"ref": "https://locations.fazolis.com/il/alton/210-e--homer-adams-pkwy-.html", "@spider": "fazolis", "addr:full": "210 E. Homer Adams Pkwy.", "addr:city": "Alton", "addr:state": "IL", "addr:postcode": "62002", "phone": "(618) 465-4731", "website": "https://locations.fazolis.com/il/alton/210-e--homer-adams-pkwy-.html", "opening_hours": "Mo-Su 10:30-22:00", "brand": "Fazoli's", "brand:wikidata": "Q1399195"}, "geometry": {"type": "Point", "coordinates": [-90.17161547842079, 38.92062891341537]}}]}