{"type":"FeatureCollection","features":[{"type": "Feature", "id": "kf88gcjaaZWl_H97koczNstu0LI=", "properties": {"ref": "https://www.fcbanking.com/branch-locations/pennsylvania/danville/danville-office/315-mill-street-/", "@spider": "fcbanking", "addr:full": "315 Mill Street ", "addr:city": "Danville", "addr:state": "PA", "addr:postcode": "17821", "name": "First Commonwealth Bank - Danville Office", "phone": "1-570-849-3061", "website": "https://www.fcbanking.com/branch-locations/pennsylvania/danville/danville-office/315-mill-street-/", "opening_hours": "Mo 9:00 a.m. - 5:00 p.m.,Tu 9:00 a.m. - 5:00 p.m.,We 9:00 a.m. - 5:00 p.m.,Th 9:00 a.m. - 5:00 p.m.,Fr 9:00 a.m. - 5:00 p.m.,Sa 9:00 a.m. - 1:00 p.m.", "brand": "First Commonwealth Bank", "brand:wikidata": "Q5452773"}, "geometry": {"type": "Point", "coordinates": [-76.6194471, 40.9605798]}},
{"type": "Feature", "id": "3ALQrYRndJLCRtRHjjmolZQVjV8=", "properties": {"ref": "https://www.fcbanking.com/branch-locations/pennsylvania/beech-creek/beech-creek-office/250-main-street/", "@spider": "fcbanking", "addr:full": "250 Main Street", "addr:city": "Beech Creek", "addr:state": "PA", "addr:postcode": "16822", "name": "First Commonwealth Bank - Beech Creek Office", "phone": "1-570-962-0030", "website": "https://www.fcbanking.com/branch-locations/pennsylvania/beech-creek/beech-creek-office/250-main-street/", "opening_hours": "Mo 9:00 a.m. - 5:00 p.m.,Tu 9:00 a.m. - 5:00 p.m.,We 9:00 a.m. - 5:00 p.m.,Th 9:00 a.m. - 5:00 p.m.,Fr 9:00 a.m. - 5:00 p.m.,Sa 9:00 a.m. - 1:00 p.m.", "brand": "First Commonwealth Bank", "brand:wikidata": "Q5452773"}, "geometry": {"type": "Point", "coordinates": [-77.5847719, 41.074909]}},
{"type": "Feature", "id": "R1N2B232vYtNbevo8S__hV-R4TU=", "properties": {"ref": "https://www.fcbanking.com/branch-locations/pennsylvania/windber/windber-office/1400-graham-ave/", "@spider": "fcbanking", "addr:full": "1400 Graham Ave", "addr:city": "Windber", "addr:state": "PA", "addr:postcode": "15963", "name": "First Commonwealth Bank - Windber Office", "phone": "1-814-262-1045", "website": "https://www.fcbanking.com/branch-locations/pennsylvania/windber/windber-office/1400-graham-ave/", "opening_hours": "Mo 9:00 a.m. - 5:00 p.m.,Tu 9:00 a.m. - 5:00 p.m.,We 9:00 a.m. - 5:00 p.m.,Th 9:00 a.m. - 5:00 p.m.,Fr 9:00 a.m. - 5:00 p.m.,Sa 9:00 a.m. - 1:00 p.m.", "brand": "First Commonwealth Bank", "brand:wikidata": "Q5452773"}, "geometry": {"type": "Point", "coordinates": [-78.83167, 40.23561]}},
{"type": "Feature", "id": "ZWG4qNYlEYcbTQMcxopVSuN3T5s=", "properties": {"ref": "https://www.fcbanking.com/branch-locations/ohio/cincinnati/norwood-office/4730-montgomery-rd-/", "@spider": "fcbanking", "addr:full": "4730 Montgomery Rd ", "addr:city": "Cincinnati", "addr:state": "OH", "addr:postcode": "45212", "name": "First Commonwealth Bank - Norwood Office", "phone": "1-(513) 830-7990", "website": "https://www.fcbanking.com/branch-locations/ohio/cincinnati/norwood-office/4730-montgomery-rd-/", "opening_hours": "Mo 9:00 a.m. - 5:00 p.m.,Tu 9:00 a.m. - 5:00 p.m.,We 9:00 a.m. - 5:00 p.m.,Th 9:00 a.m. - 5:00 p.m.,Fr 9:00 a.m. - 5:00 p.m.,Sa 9:00 a.m. - 1:00 p.m.", "brand": "First Commonwealth Bank", "brand:wikidata": "Q5452773"}, "geometry": {"type": "Point", "coordinates": [-84.45482, 39.16266]}},
{"type": "Feature", "id": "_2R0-MqVU_ouJqcPDzoNVaDNusk=", "properties": {"ref": "https://www.fcbanking.com/branch-locations/pennsylvania/youngwood/youngwood-office/5-s-4th-st/", "@spider": "fcbanking", "addr:full": "5 S 4th St", "addr:city": "Youngwood", "addr:state": "PA", "addr:postcode": "15697", "name": "First Commonwealth Bank - Youngwood Office", "phone": "1-724-925-7217", "website": "https://www.fcbanking.com/branch-locations/pennsylvania/youngwood/youngwood-office/5-s-4th-st/", "opening_hours": "Mo 9:00 a.m. - 5:00 p.m.,Tu 9:00 a.m. - 5:00 p.m.,We 9:00 a.m. - 5:00 p.m.,Th 9:00 a.m. - 5:00 p.m.,Fr 9:00 a.m. - 5:00 p.m.", "brand": "First Commonwealth Bank", "brand:wikidata": "Q5452773"}, "geometry": {"type": "Point", "coordinates": [-79.57887, 40.24006]}},
{"type": "Feature", "id": "Nmg_Del7pTqFgg8vjeMp9p6iQac=", "properties": {"ref": "https://www.fcbanking.com/branch-locations/pennsylvania/south-williamsport/south-williamsport-office/251-south-market-street/", "@spider": "fcbanking", "addr:full": "251 South Market Street", "addr:city": "South Williamsport", "addr:state": "PA", "addr:postcode": "17702", "name": "First Commonwealth Bank - South Williamsport Office", "phone": "1-570-244-4037", "website": "https://www.fcbanking.com/branch-locations/pennsylvania/south-williamsport/south-williamsport-office/251-south-market-street/", "opening_hours": "Mo 9:00 a.m. - 5:00 p.m.,Tu 9:00 a.m. - 5:00 p.m.,We 9:00 a.m. - 5:00 p.m.,Th 9:00 a.m. - 5:00 p.m.,Fr 9:00 a.m. - 5:00 p.m.,Sa 9:00 a.m. - 1:00 p.m.", "brand": "First Commonwealth Bank", "brand:wikidata": "Q5452773"}, "geometry": {"type": "Point", "coordinates": [-76.9968569, 41.2338274]}},
{"type": "Feature", "id": "rtA1o3gtuPfqJydNoC53jyJ6djQ=", "properties": {"ref": "https://www.fcbanking.com/branch-locations/ohio/milford/milford-office/954-state-route-28/", "@spider": "fcbanking", "addr:full": "954 State Route 28", "addr:city": "Milford", "addr:state": "OH", "addr:postcode": "45150", "name": "First Commonwealth Bank - Milford Office", "phone": "1-(513) 239-1631", "website": "https://www.fcbanking.com/branch-locations/ohio/milford/milford-office/954-state-route-28/", "opening_hours": "Mo 9:00 a.m. - 5:00 p.m.,Tu 9:00 a.m. - 5:00 p.m.,We 9:00 a.m. - 5:00 p.m.,Th 9:00 a.m. - 5:00 p.m.,Fr 9:00 a.m. - 5:00 p.m.", "brand": "First Commonwealth Bank", "brand:wikidata": "Q5452773"}, "geometry": {"type": "Point", "coordinates": [-84.25022, 39.1923]}},
{"type": "Feature", "id": "3e9LHOG3I3byASxgtqlc5h_9gFg=", "properties": {"ref": "https://www.fcbanking.com/branch-locations/ohio/cincinnati/garfield-office/25-garfield-pl/", "@spider": "fcbanking", "addr:full": "25 Garfield Pl", "addr:city": "Cincinnati", "addr:state": "OH", "addr:postcode": "45202", "name": "First Commonwealth Bank - Garfield Office", "phone": "1-513-878-8099", "website": "https://www.fcbanking.com/branch-locations/ohio/cincinnati/garfield-office/25-garfield-pl/", "opening_hours": "Mo 9:00 a.m. - 5:00 p.m.,Tu 9:00 a.m. - 5:00 p.m.,We 9:00 a.m. - 5:00 p.m.,Th 9:00 a.m. - 5:00 p.m.,Fr 9:00 a.m. - 5:00 p.m.", "brand": "First Commonwealth Bank", "brand:wikidata": "Q5452773"}, "geometry": {"type": "Point", "coordinates": [-84.51434, 39.10413]}},
{"type": "Feature", "id": "Ge-8O2K5YuzIz2qko_XVUbqnB3Y=", "properties": {"ref": "https://www.fcbanking.com/branch-locations/pennsylvania/renovo/renovo-office/364-erie-avenue/", "@spider": "fcbanking", "addr:full": "364 Erie Avenue", "addr:city": "Renovo", "addr:state": "PA", "addr:postcode": "17764", "name": "First Commonwealth Bank - Renovo Office", "phone": "1-570-531-8214", "website": "https://www.fcbanking.com/branch-locations/pennsylvania/renovo/renovo-office/364-erie-avenue/", "opening_hours": "Mo 9:00 a.m. - 5:00 p.m.,Tu 9:00 a.m. - 5:00 p.m.,We 9:00 a.m. - 5:00 p.m.,Th 9:00 a.m. - 5:00 p.m.,Fr 9:00 a.m. - 5:00 p.m.,Sa 9:00 a.m. - 1:00 p.m.", "brand": "First Commonwealth Bank", "brand:wikidata": "Q5452773"}, "geometry": {"type": "Point", "coordinates": [-77.7585767, 41.326654]}},
{"type": "Feature", "id": "E-QX2o4oaW1_uC434EhfXOKl8tA=", "properties": {"ref": "https://www.fcbanking.com/branch-locations/ohio/cincinnati/hyde-park-office/3521-erie-ave/", "@spider": "fcbanking", "addr:full": "3521 Erie Ave", "addr:city": "Cincinnati", "addr:state": "OH", "addr:postcode": "45208", "name": "First Commonwealth Bank - Hyde Park Office", "phone": "1-(513) 322-0782", "website": "https://www.fcbanking.com/branch-locations/ohio/cincinnati/hyde-park-office/3521-erie-ave/", "opening_hours": "Mo 9:00 a.m. - 11:00 a.m.,We 9:00 a.m. - 11:00 a.m.,Fr 9:00 a.m. - 11:00 a.m.", "brand": "First Commonwealth Bank", "brand:wikidata": "Q5452773"}, "geometry": {"type": "Point", "coordinates": [-84.41833, 39.14087]}},
{"type": "Feature", "id": "cdfNi25WymIBhg_9dsvb79Cqi3w=", "properties": {"ref": "https://www.fcbanking.com/branch-locations/ohio/cincinnati/woodlawn-office/9960-springfield-pike/", "@spider": "fcbanking", "addr:full": "9960 Springfield Pike", "addr:city": "Cincinnati", "addr:state": "OH", "addr:postcode": "45215", "name": "First Commonwealth Bank - Woodlawn Office", "phone": "1-(513) 830-7980", "website": "https://www.fcbanking.com/branch-locations/ohio/cincinnati/woodlawn-office/9960-springfield-pike/", "opening_hours": "Mo 9:00 a.m. - 5:00 p.m.,Tu 9:00 a.m. - 5:00 p.m.,We 9:00 a.m. - 5:00 p.m.,Th 9:00 a.m. - 5:00 p.m.,Fr 9:00 a.m. - 5:00 p.m.", "brand": "First Commonwealth Bank", "brand:wikidata": "Q5452773"}, "geometry": {"type": "Point", "coordinates": [-84.47046, 39.24657]}},
{"type": "Feature", "id": "TwIwHZ4wP8MeiPtUI6MOsXmAPzk=", "properties": {"ref": "https://www.fcbanking.com/branch-locations/pennsylvania/montoursville/montoursville-office/355-broad-street/", "@spider": "fcbanking", "addr:full": "355 Broad Street", "addr:city": "Montoursville", "addr:state": "PA", "addr:postcode": "17754", "name": "First Commonwealth Bank - Montoursville Office", "phone": "1-570-244-4017", "website": "https://www.fcbanking.com/branch-locations/pennsylvania/montoursville/montoursville-office/355-broad-street/", "opening_hours": "Mo 9:00 a.m. - 5:00 p.m.,Tu 9:00 a.m. - 5:00 p.m.,We 9:00 a.m. - 5:00 p.m.,Th 9:00 a.m. - 5:00 p.m.,Fr 9:00 a.m. - 5:00 p.m.,Sa 9:00 a.m. - 1:00 p.m.", "brand": "First Commonwealth Bank", "brand:wikidata": "Q5452773"}, "geometry": {"type": "Point", "coordinates": [-76.9279173, 41.2497512]}},
{"type": "Feature", "id": "sfG3x_7BuRNnRW1MqU4PCiEfUsI=", "properties": {"ref": "https://www.fcbanking.com/branch-locations/pennsylvania/milton/milton-office/537-mahoning-street/", "@spider": "fcbanking", "addr:full": "537 Mahoning Street", "addr:city": "Milton", "addr:state": "PA", "addr:postcode": "17847", "name": "First Commonwealth Bank - Milton Office", "phone": "1-570-742-3405", "website": "https://www.fcbanking.com/branch-locations/pennsylvania/milton/milton-office/537-mahoning-street/", "opening_hours": "Mo 9:00 a.m. - 5:00 p.m.,Tu 9:00 a.m. - 5:00 p.m.,We 9:00 a.m. - 5:00 p.m.,Th 9:00 a.m. - 5:00 p.m.,Fr 9:00 a.m. - 5:00 p.m.,Sa 9:00 a.m. - 1:00 p.m.", "brand": "First Commonwealth Bank", "brand:wikidata": "Q5452773"}, "geometry": {"type": "Point", "coordinates": [-76.8471771, 41.0122959]}},
{"type": "Feature", "id": "SKIAwerI1789qNWWm1h1-VV9MdI=", "properties": {"ref": "https://www.fcbanking.com/branch-locations/pennsylvania/state-college/north-atherton-office/1535-north-atherton-st/", "@spider": "fcbanking", "addr:full": "1535 North Atherton St.", "addr:city": "State College", "addr:state": "PA", "addr:postcode": "16803", "name": "First Commonwealth Bank - North Atherton Office", "phone": "1-814-954-6314", "website": "https://www.fcbanking.com/branch-locations/pennsylvania/state-college/north-atherton-office/1535-north-atherton-st/", "opening_hours": "Mo 9:00 a.m. - 5:00 p.m.,Tu 9:00 a.m. - 5:00 p.m.,We 9:00 a.m. - 5:00 p.m.,Th 9:00 a.m. - 5:00 p.m.,Fr 9:00 a.m. - 5:00 p.m.,Sa 9:00 a.m. - 1:00 p.m.", "brand": "First Commonwealth Bank", "brand:wikidata": "Q5452773"}, "geometry": {"type": "Point", "coordinates": [-77.8903624, 40.8072881]}},
{"type": "Feature", "id": "-g0pnxiem4xdPX-EE1ZCauqCVSw=", "properties": {"ref": "https://www.fcbanking.com/branch-locations/pennsylvania/muncy/muncy-office/20-south-main-street/", "@spider": "fcbanking", "addr:full": "20 South Main Street", "addr:city": "Muncy", "addr:state": "PA", "addr:postcode": "17756", "name": "First Commonwealth Bank - Muncy Office", "phone": "1-570-308-3610", "website": "https://www.fcbanking.com/branch-locations/pennsylvania/muncy/muncy-office/20-south-main-street/", "opening_hours": "Mo 9:00 a.m. - 5:00 p.m.,Tu 9:00 a.m. - 5:00 p.m.,We 9:00 a.m. - 5:00 p.m.,Th 9:00 a.m. - 5:00 p.m.,Fr 9:00 a.m. - 5:00 p.m.,Sa 9:00 a.m. - 1:00 p.m.", "brand": "First Commonwealth Bank", "brand:wikidata": "Q5452773"}, "geometry": {"type": "Point", "coordinates": [-76.7886993, 41.2049806]}},
{"type": "Feature", "id": "EC1uqjhh6WM7R7D9sG33RPjrmJ0=", "properties": {"ref": "https://www.fcbanking.com/branch-locations/pennsylvania/white-oak/white-oak-office/1527-lincoln-way/", "@spider": "fcbanking", "addr:full": "1527 Lincoln Way", "addr:city": "White Oak", "addr:state": "PA", "addr:postcode": "15131", "name": "First Commonwealth Bank - White Oak Office", "phone": "1-412-672-2112", "website": "https://www.fcbanking.com/branch-locations/pennsylvania/white-oak/white-oak-office/1527-lincoln-way/", "opening_hours": "Mo 9:00 a.m. - 5:00 p.m.,Tu 9:00 a.m. - 5:00 p.m.,We 9:00 a.m. - 5:00 p.m.,Th 9:00 a.m. - 5:00 p.m.,Fr 9:00 a.m. - 5:00 p.m.,Sa 9:00 a.m. - 1:00 p.m.", "brand": "First Commonwealth Bank", "brand:wikidata": "Q5452773"}, "geometry": {"type": "Point", "coordinates": [-79.81828, 40.34907]}},
{"type": "Feature", "id": "d60GTS_4SBgdaVQekSxbemiwdCc=", "properties": {"ref": "https://www.fcbanking.com/branch-locations/pennsylvania/wexford/mccandless-office/11-pine-creek-rd/", "@spider": "fcbanking", "addr:full": "11 Pine Creek Rd", "addr:city": "Wexford", "addr:state": "PA", "addr:postcode": "15090", "name": "First Commonwealth Bank - McCandless Office", "phone": "1-412-358-3530", "website": "https://www.fcbanking.com/branch-locations/pennsylvania/wexford/mccandless-office/11-pine-creek-rd/", "opening_hours": "Mo 9:00 a.m. - 5:00 p.m.,Tu 9:00 a.m. - 5:00 p.m.,We 9:00 a.m. - 5:00 p.m.,Th 9:00 a.m. - 5:00 p.m.,Fr 9:00 a.m. - 5:00 p.m.,Sa 9:00 a.m. - 1:00 p.m.", "brand": "First Commonwealth Bank", "brand:wikidata": "Q5452773"}, "geometry": {"type": "Point", "coordinates": [-80.03719, 40.58691]}},
{"type": "Feature", "id": "BohZFwCnXM-njwDYAkJmtV1_1nc=", "properties": {"ref": "https://www.fcbanking.com/branch-locations/pennsylvania/west-mifflin/west-mifflin-office/6015-mountain-view-dr/", "@spider": "fcbanking", "addr:full": "6015 Mountain View Dr", "addr:city": "West Mifflin", "addr:state": "PA", "addr:postcode": "15122", "name": "First Commonwealth Bank - West Mifflin Office", "phone": "1-412-881-2900", "website": "https://www.fcbanking.com/branch-locations/pennsylvania/west-mifflin/west-mifflin-office/6015-mountain-view-dr/", "opening_hours": "Mo 9:00 a.m. - 5:00 p.m.,Tu 9:00 a.m. - 5:00 p.m.,We 9:00 a.m. - 5:00 p.m.,Th 9:00 a.m. - 5:00 p.m.,Fr 9:00 a.m. - 5:00 p.m.,Sa 9:00 a.m. - 1:00 p.m.", "brand": "First Commonwealth Bank", "brand:wikidata": "Q5452773"}, "geometry": {"type": "Point", "coordinates": [-79.94071, 40.34422]}},
{"type": "Feature", "id": "I4eKLjwBDHwze2PHSqeqh7UmPpA=", "properties": {"ref": "https://www.fcbanking.com/branch-locations/pennsylvania/williamsport/loyalsock-office/301-shiffler-avenue/", "@spider": "fcbanking", "addr:full": "301 Shiffler Avenue", "addr:city": "Williamsport", "addr:state": "PA", "addr:postcode": "17701", "name": "First Commonwealth Bank - Loyalsock Office", "phone": "1-272-202-6600", "website": "https://www.fcbanking.com/branch-locations/pennsylvania/williamsport/loyalsock-office/301-shiffler-avenue/", "opening_hours": "Mo 9:00 a.m. - 5:00 p.m.,Tu 9:00 a.m. - 5:00 p.m.,We 9:00 a.m. - 5:00 p.m.,Th 9:00 a.m. - 5:00 p.m.,Fr 9:00 a.m. - 5:00 p.m.,Sa 9:00 a.m. - 1:00 p.m.", "brand": "First Commonwealth Bank", "brand:wikidata": "Q5452773"}, "geometry": {"type": "Point", "coordinates": [-76.9782256, 41.2508451]}},
{"type": "Feature", "id": "GiBXWBPvoycNUV4imZv8E9idY3k=", "properties": {"ref": "https://www.fcbanking.com/branch-locations/pennsylvania/vandergrift/vandergrift-office/601-hancock-ave/", "@spider": "fcbanking", "addr:full": "601 Hancock Ave", "addr:city": "Vandergrift", "addr:state": "PA", "addr:postcode": "15690", "name": "First Commonwealth Bank - Vandergrift Office", "phone": "1-724-567-6778", "website": "https://www.fcbanking.com/branch-locations/pennsylvania/vandergrift/vandergrift-office/601-hancock-ave/", "opening_hours": "Mo 9:00 a.m. - 5:00 p.m.,Tu 9:00 a.m. - 5:00 p.m.,We 9:00 a.m. - 5:00 p.m.,Th 9:00 a.m. - 5:00 p.m.,Fr 9:00 a.m. - 5:00 p.m.,Sa 9:00 a.m. - 1:00 p.m.", "brand": "First Commonwealth Bank", "brand:wikidata": "Q5452773"}, "geometry": {"type": "Point", "coordinates": [-79.56882, 40.59665]}},
{"type": "Feature", "id": "58k6z7MuzrkNAkP0a123ZRpPL98=", "properties": {"ref": "https://www.fcbanking.com/branch-locations/pennsylvania/st-marys/st-marys-office/108-e-mill-st/", "@spider": "fcbanking", "addr:full": "108 E Mill St", "addr:city": "St. Marys", "addr:state": "PA", "addr:postcode": "15857", "name": "First Commonwealth Bank - St. Marys Office", "phone": "1-814-781-1550", "website": "https://www.fcbanking.com/branch-locations/pennsylvania/st-marys/st-marys-office/108-e-mill-st/", "opening_hours": "Mo 9:00 a.m. - 5:00 p.m.,Tu 9:00 a.m. - 5:00 p.m.,We 9:00 a.m. - 5:00 p.m.,Th 9:00 a.m. - 5:00 p.m.,Fr 9:00 a.m. - 5:00 p.m.,Sa 9:00 a.m. - 1:00 p.m.", "brand": "First Commonwealth Bank", "brand:wikidata": "Q5452773"}, "geometry": {"type": "Point", "coordinates": [-78.56091, 41.42633]}},
{"type": "Feature", "id": "DlGkYspFgbdLbTlmiihE3bL1HGU=", "properties": {"ref": "https://www.fcbanking.com/branch-locations/pennsylvania/somerset/somerset-office/2040-n-center-ave/", "@spider": "fcbanking", "addr:full": "2040 N Center Ave", "addr:city": "Somerset", "addr:state": "PA", "addr:postcode": "15501", "name": "First Commonwealth Bank - Somerset Office", "phone": "1-814-443-3644", "website": "https://www.fcbanking.com/branch-locations/pennsylvania/somerset/somerset-office/2040-n-center-ave/", "opening_hours": "Mo 9:00 a.m. - 5:00 p.m.,Tu 9:00 a.m. - 5:00 p.m.,We 9:00 a.m. - 5:00 p.m.,Th 9:00 a.m. - 5:00 p.m.,Fr 9:00 a.m. - 5:00 p.m.,Sa 9:00 a.m. - 1:00 p.m.", "brand": "First Commonwealth Bank", "brand:wikidata": "Q5452773"}, "geometry": {"type": "Point", "coordinates": [-79.07478, 40.05206]}},
{"type": "Feature", "id": "1bESTR3Cd2Xf01KirBt8HN5xJBI=", "properties": {"ref": "https://www.fcbanking.com/branch-locations/pennsylvania/tarentum/pittsburgh-mills-office/2000-pittsburgh-mills-blvd/", "@spider": "fcbanking", "addr:full": "2000 Pittsburgh Mills Blvd", "addr:city": "Tarentum", "addr:state": "PA", "addr:postcode": "15084", "name": "First Commonwealth Bank - Pittsburgh Mills Office", "phone": "1-724-226-4353", "website": "https://www.fcbanking.com/branch-locations/pennsylvania/tarentum/pittsburgh-mills-office/2000-pittsburgh-mills-blvd/", "opening_hours": "Mo 9:00 a.m. - 5:00 p.m.,Tu 9:00 a.m. - 5:00 p.m.,We 9:00 a.m. - 5:00 p.m.,Th 9:00 a.m. - 5:00 p.m.,Fr 9:00 a.m. - 5:00 p.m.,Sa 9:00 a.m. - 1:00 p.m.", "brand": "First Commonwealth Bank", "brand:wikidata": "Q5452773"}, "geometry": {"type": "Point", "coordinates": [-79.80076, 40.57096]}},
{"type": "Feature", "id": "Rwtzr6kFcgXfMkBaGv4IQcmrTys=", "properties": {"ref": "https://www.fcbanking.com/branch-locations/pennsylvania/russellton/deer-lakes-office/744-little-deer-creek-valley-rd/", "@spider": "fcbanking", "addr:full": "744 Little Deer Creek Valley Rd", "addr:city": "Russellton", "addr:state": "PA", "addr:postcode": "15076", "name": "First Commonwealth Bank - Deer Lakes Office", "phone": "1-724-934-4565", "website": "https://www.fcbanking.com/branch-locations/pennsylvania/russellton/deer-lakes-office/744-little-deer-creek-valley-rd/", "opening_hours": "Mo 9:00 a.m. - 5:00 p.m.,Tu 9:00 a.m. - 5:00 p.m.,We 9:00 a.m. - 5:00 p.m.,Th 9:00 a.m. - 5:00 p.m.,Fr 9:00 a.m. - 5:00 p.m.,Sa 9:00 a.m. - 1:00 p.m.", "brand": "First Commonwealth Bank", "brand:wikidata": "Q5452773"}, "geometry": {"type": "Point", "coordinates": [-79.83346, 40.61711]}},
{"type": "Feature", "id": "6JDyXDbmw4T_Pe_9i8a0RrMTLcI=", "properties": {"ref": "https://www.fcbanking.com/branch-locations/pennsylvania/pittsburgh/shaler-office/900-saxonburg-blvd/", "@spider": "fcbanking", "addr:full": "900 Saxonburg Blvd", "addr:city": "Pittsburgh", "addr:state": "PA", "addr:postcode": "15223", "name": "First Commonwealth Bank - Shaler Office", "phone": "1-412-487-4200", "website": "https://www.fcbanking.com/branch-locations/pennsylvania/pittsburgh/shaler-office/900-saxonburg-blvd/", "opening_hours": "Mo 9:00 a.m. - 5:00 p.m.,Tu 9:00 a.m. - 5:00 p.m.,We 9:00 a.m. - 5:00 p.m.,Th 9:00 a.m. - 5:00 p.m.,Fr 9:00 a.m. - 5:00 p.m.,Sa 9:00 a.m. - 1:00 p.m.", "brand": "First Commonwealth Bank", "brand:wikidata": "Q5452773"}, "geometry": {"type": "Point", "coordinates": [-79.94735, 40.51161]}},
{"type": "Feature", "id": "eWieAJXrviCawICRcWmQIHIkUtE=", "properties": {"ref": "https://www.fcbanking.com/branch-locations/pennsylvania/saxonburg/saxonburg-office/125-w-main-st/", "@spider": "fcbanking", "addr:full": "125 W Main St", "addr:city": "Saxonburg", "addr:state": "PA", "addr:postcode": "16056", "name": "First Commonwealth Bank - Saxonburg Office", "phone": "1-724-934-4570", "website": "https://www.fcbanking.com/branch-locations/pennsylvania/saxonburg/saxonburg-office/125-w-main-st/", "opening_hours": "Mo 9:00 a.m. - 5:00 p.m.,Tu 9:00 a.m. - 5:00 p.m.,We 9:00 a.m. - 5:00 p.m.,Th 9:00 a.m. - 5:00 p.m.,Fr 9:00 a.m. - 5:00 p.m.,Sa 9:00 a.m. - 1:00 p.m.", "brand": "First Commonwealth Bank", "brand:wikidata": "Q5452773"}, "geometry": {"type": "Point", "coordinates": [-79.81055, 40.75047]}},
{"type": "Feature", "id": "oNC2gTyo_uthARAA-9epcJdrtHE=", "properties": {"ref": "https://www.fcbanking.com/branch-locations/pennsylvania/punxsutawney/punxy-plaza-office/573-w-mahoning-st/", "@spider": "fcbanking", "addr:full": "573 W Mahoning St", "addr:city": "Punxsutawney", "addr:state": "PA", "addr:postcode": "15767", "name": "First Commonwealth Bank - Punxy Plaza Office", "phone": "1-814-938-6034", "website": "https://www.fcbanking.com/branch-locations/pennsylvania/punxsutawney/punxy-plaza-office/573-w-mahoning-st/", "opening_hours": "Mo 9:00 a.m. - 5:00 p.m.,Tu 9:00 a.m. - 5:00 p.m.,We 9:00 a.m. - 5:00 p.m.,Th 9:00 a.m. - 5:00 p.m.,Fr 9:00 a.m. - 5:00 p.m.,Sa 9:00 a.m. - 1:00 p.m.", "brand": "First Commonwealth Bank", "brand:wikidata": "Q5452773"}, "geometry": {"type": "Point", "coordinates": [-78.97997, 40.94243]}},
{"type": "Feature", "id": "sC866MWhSPJ_dn8o0wFqi4UP_Gw=", "properties": {"ref": "https://www.fcbanking.com/branch-locations/pennsylvania/pittsburgh/caste-village-office/5301-grove-rd-ste-520/", "@spider": "fcbanking", "addr:full": "5301 Grove Rd Ste 520", "addr:city": "Pittsburgh", "addr:state": "PA", "addr:postcode": "15236", "name": "First Commonwealth Bank - Caste Village Office", "phone": "1-412-884-1301", "website": "https://www.fcbanking.com/branch-locations/pennsylvania/pittsburgh/caste-village-office/5301-grove-rd-ste-520/", "opening_hours": "Mo 9:00 a.m. - 5:00 p.m.,Tu 9:00 a.m. - 5:00 p.m.,We 9:00 a.m. - 5:00 p.m.,Th 9:00 a.m. - 5:00 p.m.,Fr 9:00 a.m. - 5:00 p.m.,Sa 9:00 a.m. - 1:00 p.m.", "brand": "First Commonwealth Bank", "brand:wikidata": "Q5452773"}, "geometry": {"type": "Point", "coordinates": [-80.00062, 40.35756]}},
{"type": "Feature", "id": "ACTUH0HdLk8ZecYe4NfidqQZfWU=", "properties": {"ref": "https://www.fcbanking.com/branch-locations/pennsylvania/pittsburgh/bloomfield-office/4900-liberty-ave/", "@spider": "fcbanking", "addr:full": "4900 Liberty Ave", "addr:city": "Pittsburgh", "addr:state": "PA", "addr:postcode": "15224", "name": "First Commonwealth Bank - Bloomfield Office", "phone": "1-412-690-2358", "website": "https://www.fcbanking.com/branch-locations/pennsylvania/pittsburgh/bloomfield-office/4900-liberty-ave/", "opening_hours": "Mo 9:00 a.m. - 5:00 p.m.,Tu 9:00 a.m. - 5:00 p.m.,We 9:00 a.m. - 5:00 p.m.,Th 9:00 a.m. - 5:00 p.m.,Fr 9:00 a.m. - 5:00 p.m.,Sa 9:00 a.m. - 1:00 p.m.", "brand": "First Commonwealth Bank", "brand:wikidata": "Q5452773"}, "geometry": {"type": "Point", "coordinates": [-79.94593, 40.46]}},
{"type": "Feature", "id": "Q7V8XL0bZbZuAH8Ayy8O-98m360=", "properties": {"ref": "https://www.fcbanking.com/branch-locations/pennsylvania/pittsburgh/castle-shannon-office/301-mt-lebanon-blvd/", "@spider": "fcbanking", "addr:full": "301 Mt Lebanon Blvd", "addr:city": "Pittsburgh", "addr:state": "PA", "addr:postcode": "15234", "name": "First Commonwealth Bank - Castle Shannon Office", "phone": "1-412-341-5266", "website": "https://www.fcbanking.com/branch-locations/pennsylvania/pittsburgh/castle-shannon-office/301-mt-lebanon-blvd/", "opening_hours": "Mo 9:00 a.m. - 5:00 p.m.,Tu 9:00 a.m. - 5:00 p.m.,We 9:00 a.m. - 5:00 p.m.,Th 9:00 a.m. - 5:00 p.m.,Fr 9:00 a.m. - 5:00 p.m.,Sa 9:00 a.m. - 1:00 p.m.", "brand": "First Commonwealth Bank", "brand:wikidata": "Q5452773"}, "geometry": {"type": "Point", "coordinates": [-80.0368, 40.36866]}},
{"type": "Feature", "id": "H8gOYNEP8sgRafRrSCGAsxFP64w=", "properties": {"ref": "https://www.fcbanking.com/branch-locations/pennsylvania/pittsburgh/forest-hills-office/2210-ardmore-blvd/", "@spider": "fcbanking", "addr:full": "2210 Ardmore Blvd", "addr:city": "Pittsburgh", "addr:state": "PA", "addr:postcode": "15221", "name": "First Commonwealth Bank - Forest Hills Office", "phone": "1-412-747-8109", "website": "https://www.fcbanking.com/branch-locations/pennsylvania/pittsburgh/forest-hills-office/2210-ardmore-blvd/", "opening_hours": "Mo 9:00 a.m. - 5:00 p.m.,Tu 9:00 a.m. - 5:00 p.m.,We 9:00 a.m. - 5:00 p.m.,Th 9:00 a.m. - 5:00 p.m.,Fr 9:00 a.m. - 5:00 p.m.,Sa 9:00 a.m. - 1:00 p.m.", "brand": "First Commonwealth Bank", "brand:wikidata": "Q5452773"}, "geometry": {"type": "Point", "coordinates": [-79.84895, 40.41777]}},
{"type": "Feature", "id": "u6CXUM9gYp8n_IPNGDqqCGoNmBE=", "properties": {"ref": "https://www.fcbanking.com/branch-locations/pennsylvania/pittsburgh/robinson-township-office/198-park-manor-dr/", "@spider": "fcbanking", "addr:full": "198 Park Manor Dr", "addr:city": "Pittsburgh", "addr:state": "PA", "addr:postcode": "15205", "name": "First Commonwealth Bank - Robinson Township Office", "phone": "1-412-747-8100", "website": "https://www.fcbanking.com/branch-locations/pennsylvania/pittsburgh/robinson-township-office/198-park-manor-dr/", "opening_hours": "Mo 9:00 a.m. - 5:00 p.m.,Tu 9:00 a.m. - 5:00 p.m.,We 9:00 a.m. - 5:00 p.m.,Th 9:00 a.m. - 5:00 p.m.,Fr 9:00 a.m. - 5:00 p.m.,Sa 9:00 a.m. - 1:00 p.m.", "brand": "First Commonwealth Bank", "brand:wikidata": "Q5452773"}, "geometry": {"type": "Point", "coordinates": [-80.16312, 40.45053]}},
{"type": "Feature", "id": "cBMdWSANtSUolQW0WNMw8KzCcSQ=", "properties": {"ref": "https://www.fcbanking.com/branch-locations/pennsylvania/pittsburgh/regent-square-office/1105-s-braddock-ave/", "@spider": "fcbanking", "addr:full": "1105 S Braddock Ave", "addr:city": "Pittsburgh", "addr:state": "PA", "addr:postcode": "15218", "name": "First Commonwealth Bank - Regent Square Office", "phone": "1-412-881-3383", "website": "https://www.fcbanking.com/branch-locations/pennsylvania/pittsburgh/regent-square-office/1105-s-braddock-ave/", "opening_hours": "Mo 9:00 a.m. - 5:00 p.m.,Tu 9:00 a.m. - 5:00 p.m.,We 9:00 a.m. - 5:00 p.m.,Th 9:00 a.m. - 5:00 p.m.,Fr 9:00 a.m. - 5:00 p.m.,Sa 9:00 a.m. - 1:00 p.m.", "brand": "First Commonwealth Bank", "brand:wikidata": "Q5452773"}, "geometry": {"type": "Point", "coordinates": [-79.89406, 40.43282]}},
{"type": "Feature", "id": "PeM4ordELfx3eM0Pr5oysJl7PE4=", "properties": {"ref": "https://www.fcbanking.com/branch-locations/pennsylvania/pittsburgh/grant-street-office/501-grant-st/", "@spider": "fcbanking", "addr:full": "501 Grant St", "addr:city": "Pittsburgh", "addr:state": "PA", "addr:postcode": "15219", "name": "First Commonwealth Bank - Grant Street Office", "phone": "1-412-690-3901", "website": "https://www.fcbanking.com/branch-locations/pennsylvania/pittsburgh/grant-street-office/501-grant-st/", "opening_hours": "Mo 9:00 a.m. - 5:00 p.m.,Tu 9:00 a.m. - 5:00 p.m.,We 9:00 a.m. - 5:00 p.m.,Th 9:00 a.m. - 5:00 p.m.,Fr 9:00 a.m. - 5:00 p.m.", "brand": "First Commonwealth Bank", "brand:wikidata": "Q5452773"}, "geometry": {"type": "Point", "coordinates": [-79.99703, 40.43993]}},
{"type": "Feature", "id": "HfoV1u2sEqWJJfSqD-pDW8Y8S1A=", "properties": {"ref": "https://www.fcbanking.com/branch-locations/pennsylvania/pittsburgh/harmar-office/55-alpha-dr-w/", "@spider": "fcbanking", "addr:full": "55 Alpha Dr W", "addr:city": "Pittsburgh", "addr:state": "PA", "addr:postcode": "15238", "name": "First Commonwealth Bank - Harmar Office", "phone": "1-724-226-4300", "website": "https://www.fcbanking.com/branch-locations/pennsylvania/pittsburgh/harmar-office/55-alpha-dr-w/", "opening_hours": "Mo 9:00 a.m. - 5:00 p.m.,Tu 9:00 a.m. - 5:00 p.m.,We 9:00 a.m. - 5:00 p.m.,Th 9:00 a.m. - 5:00 p.m.,Fr 9:00 a.m. - 5:00 p.m.,Sa 9:00 a.m. - 1:00 p.m.", "brand": "First Commonwealth Bank", "brand:wikidata": "Q5452773"}, "geometry": {"type": "Point", "coordinates": [-79.83071, 40.53944]}},
{"type": "Feature", "id": "g_2nL6uL7nUvA_Fg_5mR1xaQU80=", "properties": {"ref": "https://www.fcbanking.com/branch-locations/pennsylvania/oakdale/imperial-office/550-market-place-dr/", "@spider": "fcbanking", "addr:full": "550 Market Place Dr", "addr:city": "Oakdale", "addr:state": "PA", "addr:postcode": "15071", "name": "First Commonwealth Bank - Imperial Office", "phone": "1-724-926-1316", "website": "https://www.fcbanking.com/branch-locations/pennsylvania/oakdale/imperial-office/550-market-place-dr/", "opening_hours": "Mo 9:00 a.m. - 5:00 p.m.,Tu 9:00 a.m. - 5:00 p.m.,We 9:00 a.m. - 5:00 p.m.,Th 9:00 a.m. - 5:00 p.m.,Fr 9:00 a.m. - 5:00 p.m.,Sa 9:00 a.m. - 1:00 p.m.", "brand": "First Commonwealth Bank", "brand:wikidata": "Q5452773"}, "geometry": {"type": "Point", "coordinates": [-80.23992, 40.44045]}},
{"type": "Feature", "id": "B5PcUX3EhaOMM8m1pMNQai1mXkw=", "properties": {"ref": "https://www.fcbanking.com/branch-locations/pennsylvania/osterburg/osterburg-office/8470-william-penn-rd/", "@spider": "fcbanking", "addr:full": "8470 William Penn Rd", "addr:city": "Osterburg", "addr:state": "PA", "addr:postcode": "16667", "name": "First Commonwealth Bank - Osterburg Office", "phone": "1-814-624-2012", "website": "https://www.fcbanking.com/branch-locations/pennsylvania/osterburg/osterburg-office/8470-william-penn-rd/", "opening_hours": "Mo 9:00 a.m. - 5:00 p.m.,Tu 9:00 a.m. - 5:00 p.m.,We 9:00 a.m. - 5:00 p.m.,Th 9:00 a.m. - 5:00 p.m.,Fr 9:00 a.m. - 5:00 p.m.,Sa 9:00 a.m. - 1:00 p.m.", "brand": "First Commonwealth Bank", "brand:wikidata": "Q5452773"}, "geometry": {"type": "Point", "coordinates": [-78.517, 40.17267]}},
{"type": "Feature", "id": "PbQpiVrtWopqFRHp34OfMTadTBA=", "properties": {"ref": "https://www.fcbanking.com/branch-locations/pennsylvania/pittsburgh/green-tree-office/339-mansfield-ave/", "@spider": "fcbanking", "addr:full": "339 Mansfield Ave", "addr:city": "Pittsburgh", "addr:state": "PA", "addr:postcode": "15220", "name": "First Commonwealth Bank - Green Tree Office", "phone": "1-412-571-1622", "website": "https://www.fcbanking.com/branch-locations/pennsylvania/pittsburgh/green-tree-office/339-mansfield-ave/", "opening_hours": "Mo 9:00 a.m. - 5:00 p.m.,Tu 9:00 a.m. - 5:00 p.m.,We 9:00 a.m. - 5:00 p.m.,Th 9:00 a.m. - 5:00 p.m.,Fr 9:00 a.m. - 5:00 p.m.,Sa 9:00 a.m. - 1:00 p.m.", "brand": "First Commonwealth Bank", "brand:wikidata": "Q5452773"}, "geometry": {"type": "Point", "coordinates": [-80.05068, 40.42112]}},
{"type": "Feature", "id": "rDH4PeEy97006EIaay4iTeDxAJw=", "properties": {"ref": "https://www.fcbanking.com/branch-locations/pennsylvania/patton/patton-office/436-magee-ave/", "@spider": "fcbanking", "addr:full": "436 Magee Ave", "addr:city": "Patton", "addr:state": "PA", "addr:postcode": "16668", "name": "First Commonwealth Bank - Patton Office", "phone": "1-814-948-0879", "website": "https://www.fcbanking.com/branch-locations/pennsylvania/patton/patton-office/436-magee-ave/", "opening_hours": "Mo 9:00 a.m. - 5:00 p.m.,Tu 9:00 a.m. - 5:00 p.m.,We 9:00 a.m. - 5:00 p.m.,Th 9:00 a.m. - 5:00 p.m.,Fr 9:00 a.m. - 5:00 p.m.", "brand": "First Commonwealth Bank", "brand:wikidata": "Q5452773"}, "geometry": {"type": "Point", "coordinates": [-78.64857, 40.63393]}},
{"type": "Feature", "id": "iX1JlPrueztAMMxhuAxRzNBg1WI=", "properties": {"ref": "https://www.fcbanking.com/branch-locations/pennsylvania/new-castle/downtown-new-castle-office/27-e-washington-st/", "@spider": "fcbanking", "addr:full": "27 E Washington St", "addr:city": "New Castle", "addr:state": "PA", "addr:postcode": "16101", "name": "First Commonwealth Bank - Downtown New Castle Office", "phone": "1-724-658-3501", "website": "https://www.fcbanking.com/branch-locations/pennsylvania/new-castle/downtown-new-castle-office/27-e-washington-st/", "opening_hours": "Mo 9:00 a.m. - 5:00 p.m.,Tu 9:00 a.m. - 5:00 p.m.,We 9:00 a.m. - 5:00 p.m.,Th 9:00 a.m. - 5:00 p.m.,Fr 9:00 a.m. - 5:00 p.m.", "brand": "First Commonwealth Bank", "brand:wikidata": "Q5452773"}, "geometry": {"type": "Point", "coordinates": [-80.34633, 40.99999]}},
{"type": "Feature", "id": "kIzEvrW-hIJmkD5TXKsaOJaT6sk=", "properties": {"ref": "https://www.fcbanking.com/branch-locations/pennsylvania/northern-cambria/northern-cambria-office/920-philadelphia-ave/", "@spider": "fcbanking", "addr:full": "920 Philadelphia Ave", "addr:city": "Northern Cambria", "addr:state": "PA", "addr:postcode": "15714", "name": "First Commonwealth Bank - Northern Cambria Office", "phone": "1-814-948-5000", "website": "https://www.fcbanking.com/branch-locations/pennsylvania/northern-cambria/northern-cambria-office/920-philadelphia-ave/", "opening_hours": "Mo 9:00 a.m. - 5:00 p.m.,Tu 9:00 a.m. - 5:00 p.m.,We 9:00 a.m. - 5:00 p.m.,Th 9:00 a.m. - 5:00 p.m.,Fr 9:00 a.m. - 5:00 p.m.,Sa 9:00 a.m. - 1:00 p.m.", "brand": "First Commonwealth Bank", "brand:wikidata": "Q5452773"}, "geometry": {"type": "Point", "coordinates": [-78.77885, 40.66173]}},
{"type": "Feature", "id": "Uj9A8mFjYA4wzzrfRww8KkScqDY=", "properties": {"ref": "https://www.fcbanking.com/branch-locations/pennsylvania/new-alexandria/new-alexandria-office/8291-state-route-22/", "@spider": "fcbanking", "addr:full": "8291 State Route 22", "addr:city": "New Alexandria", "addr:state": "PA", "addr:postcode": "15670", "name": "First Commonwealth Bank - New Alexandria Office", "phone": "1-724-668-2226", "website": "https://www.fcbanking.com/branch-locations/pennsylvania/new-alexandria/new-alexandria-office/8291-state-route-22/", "opening_hours": "Mo 9:00 a.m. - 5:00 p.m.,Tu 9:00 a.m. - 5:00 p.m.,We 9:00 a.m. - 5:00 p.m.,Th 9:00 a.m. - 5:00 p.m.,Fr 9:00 a.m. - 5:00 p.m.,Sa 9:00 a.m. - 1:00 p.m.", "brand": "First Commonwealth Bank", "brand:wikidata": "Q5452773"}, "geometry": {"type": "Point", "coordinates": [-79.42236, 40.39834]}},
{"type": "Feature", "id": "fjogUokojp5sVioUte2NJa2ww7k=", "properties": {"ref": "https://www.fcbanking.com/branch-locations/pennsylvania/natrona-heights/natrona-heights-office/4021-freeport-road/", "@spider": "fcbanking", "addr:full": "4021 Freeport Road", "addr:city": "Natrona Heights", "addr:state": "PA", "addr:postcode": "15065", "name": "First Commonwealth Bank - Natrona Heights Office", "phone": "1-724-224-2600", "website": "https://www.fcbanking.com/branch-locations/pennsylvania/natrona-heights/natrona-heights-office/4021-freeport-road/", "opening_hours": "Mo 9:00 a.m. - 5:00 p.m.,Tu 9:00 a.m. - 5:00 p.m.,We 9:00 a.m. - 5:00 p.m.,Th 9:00 a.m. - 5:00 p.m.,Fr 9:00 a.m. - 5:00 p.m.,Sa 9:00 a.m. - 1:00 p.m.", "brand": "First Commonwealth Bank", "brand:wikidata": "Q5452773"}, "geometry": {"type": "Point", "coordinates": [-79.7115184, 40.6474863]}},
{"type": "Feature", "id": "dhs53J3PYKqEBX97LuddbFP36lc=", "properties": {"ref": "https://www.fcbanking.com/branch-locations/pennsylvania/new-castle/union-square-office/2547-w-state-st/", "@spider": "fcbanking", "addr:full": "2547 W State St", "addr:city": "New Castle", "addr:state": "PA", "addr:postcode": "16101", "name": "First Commonwealth Bank - Union Square Office", "phone": "1-724-658-1545", "website": "https://www.fcbanking.com/branch-locations/pennsylvania/new-castle/union-square-office/2547-w-state-st/", "opening_hours": "Mo 9:00 a.m. - 5:00 p.m.,Tu 9:00 a.m. - 5:00 p.m.,We 9:00 a.m. - 5:00 p.m.,Th 9:00 a.m. - 5:00 p.m.,Fr 9:00 a.m. - 5:00 p.m.,Sa 9:00 a.m. - 1:00 p.m.", "brand": "First Commonwealth Bank", "brand:wikidata": "Q5452773"}, "geometry": {"type": "Point", "coordinates": [-80.39491, 41.01236]}},
{"type": "Feature", "id": "5vComdPljMwxXXMsUTrCpDFXYL0=", "properties": {"ref": "https://www.fcbanking.com/branch-locations/pennsylvania/monaca/monaca-office/80-wagner-rd/", "@spider": "fcbanking", "addr:full": "80 Wagner Rd", "addr:city": "Monaca", "addr:state": "PA", "addr:postcode": "15061", "name": "First Commonwealth Bank - Monaca Office", "phone": "1-724-774-4220", "website": "https://www.fcbanking.com/branch-locations/pennsylvania/monaca/monaca-office/80-wagner-rd/", "opening_hours": "Mo 9:00 a.m. - 5:00 p.m.,Tu 9:00 a.m. - 5:00 p.m.,We 9:00 a.m. - 5:00 p.m.,Th 9:00 a.m. - 5:00 p.m.,Fr 9:00 a.m. - 5:00 p.m.,Sa 9:00 a.m. - 1:00 p.m.", "brand": "First Commonwealth Bank", "brand:wikidata": "Q5452773"}, "geometry": {"type": "Point", "coordinates": [-80.302, 40.68198]}},
{"type": "Feature", "id": "mbc5GL3eSkZtNHIp0Vyg6wuu9ek=", "properties": {"ref": "https://www.fcbanking.com/branch-locations/pennsylvania/munhall/munhall-office/4600-main-st/", "@spider": "fcbanking", "addr:full": "4600 Main St", "addr:city": "Munhall", "addr:state": "PA", "addr:postcode": "15120", "name": "First Commonwealth Bank - Munhall Office", "phone": "1-412-881-3309", "website": "https://www.fcbanking.com/branch-locations/pennsylvania/munhall/munhall-office/4600-main-st/", "opening_hours": "Mo 9:00 a.m. - 5:00 p.m.,Tu 9:00 a.m. - 5:00 p.m.,We 9:00 a.m. - 5:00 p.m.,Th 9:00 a.m. - 5:00 p.m.,Fr 9:00 a.m. - 5:00 p.m.,Sa 9:00 a.m. - 1:00 p.m.", "brand": "First Commonwealth Bank", "brand:wikidata": "Q5452773"}, "geometry": {"type": "Point", "coordinates": [-79.90813, 40.37842]}},
{"type": "Feature", "id": "0lu_FtZj5Ytz9GI4XOxLvTUbKzE=", "properties": {"ref": "https://www.fcbanking.com/branch-locations/pennsylvania/new-castle/neshannock-office/3430-wilmington-rd/", "@spider": "fcbanking", "addr:full": "3430 Wilmington Rd", "addr:city": "New Castle", "addr:state": "PA", "addr:postcode": "16105", "name": "First Commonwealth Bank - Neshannock Office", "phone": "1-724-654-8366", "website": "https://www.fcbanking.com/branch-locations/pennsylvania/new-castle/neshannock-office/3430-wilmington-rd/", "opening_hours": "Mo 9:00 a.m. - 5:00 p.m.,Tu 9:00 a.m. - 5:00 p.m.,We 9:00 a.m. - 5:00 p.m.,Th 9:00 a.m. - 5:00 p.m.,Fr 9:00 a.m. - 5:00 p.m.,Sa 9:00 a.m. - 1:00 p.m.", "brand": "First Commonwealth Bank", "brand:wikidata": "Q5452773"}, "geometry": {"type": "Point", "coordinates": [-80.3594, 41.06262]}},
{"type": "Feature", "id": "FLY1tfN94g0-6rFzXbRtSiA3490=", "properties": {"ref": "https://www.fcbanking.com/branch-locations/pennsylvania/murrysville/murrysville-office/3880-old-william-penn-hwy/", "@spider": "fcbanking", "addr:full": "3880 Old William Penn Hwy", "addr:city": "Murrysville", "addr:state": "PA", "addr:postcode": "15668", "name": "First Commonwealth Bank - Murrysville Office", "phone": "1-724-327-5400", "website": "https://www.fcbanking.com/branch-locations/pennsylvania/murrysville/murrysville-office/3880-old-william-penn-hwy/", "opening_hours": "Mo 9:00 a.m. - 5:00 p.m.,Tu 9:00 a.m. - 5:00 p.m.,We 9:00 a.m. - 5:00 p.m.,Th 9:00 a.m. - 5:00 p.m.,Fr 9:00 a.m. - 5:00 p.m.,Sa 9:00 a.m. - 1:00 p.m.", "brand": "First Commonwealth Bank", "brand:wikidata": "Q5452773"}, "geometry": {"type": "Point", "coordinates": [-79.69871, 40.42855]}},
{"type": "Feature", "id": "GVR9HycnvgMuRcR3SUffzpsGRqU=", "properties": {"ref": "https://www.fcbanking.com/branch-locations/pennsylvania/mars/adams-township-office/6999-crider-rd/", "@spider": "fcbanking", "addr:full": "6999 Crider Rd", "addr:city": "Mars", "addr:state": "PA", "addr:postcode": "16046", "name": "First Commonwealth Bank - Adams Township Office", "phone": "1-724-742-3860 ", "website": "https://www.fcbanking.com/branch-locations/pennsylvania/mars/adams-township-office/6999-crider-rd/", "opening_hours": "Mo 9:00 a.m. - 5:00 p.m.,Tu 9:00 a.m. - 5:00 p.m.,We 9:00 a.m. - 5:00 p.m.,Th 9:00 a.m. - 5:00 p.m.,Fr 9:00 a.m. - 5:00 p.m.", "brand": "First Commonwealth Bank", "brand:wikidata": "Q5452773"}, "geometry": {"type": "Point", "coordinates": [-80.04053, 40.69671]}},
{"type": "Feature", "id": "UESCkhlmsQb51QXzRVjb4UGoEmk=", "properties": {"ref": "https://www.fcbanking.com/branch-locations/pennsylvania/mcdonald/mcdonald-office/311-west-barr-st/", "@spider": "fcbanking", "addr:full": "311 West Barr St", "addr:city": "McDonald", "addr:state": "PA", "addr:postcode": "15057", "name": "First Commonwealth Bank - McDonald Office", "phone": "1-724-926-1325", "website": "https://www.fcbanking.com/branch-locations/pennsylvania/mcdonald/mcdonald-office/311-west-barr-st/", "opening_hours": "Mo 9:00 a.m. - 5:00 p.m.,Tu 9:00 a.m. - 5:00 p.m.,We 9:00 a.m. - 5:00 p.m.,Th 9:00 a.m. - 5:00 p.m.,Fr 9:00 a.m. - 5:00 p.m.,Sa 9:00 a.m. - 1:00 p.m.", "brand": "First Commonwealth Bank", "brand:wikidata": "Q5452773"}, "geometry": {"type": "Point", "coordinates": [-80.23678, 40.36718]}},
{"type": "Feature", "id": "uEoES6SXNPlgSZy0gIU-6kX4Row=", "properties": {"ref": "https://www.fcbanking.com/branch-locations/pennsylvania/mcmurray/peters-township-office/4198-washington-rd/", "@spider": "fcbanking", "addr:full": "4198 Washington Rd", "addr:city": "McMurray", "addr:state": "PA", "addr:postcode": "15317", "name": "First Commonwealth Bank - Peters Township Office", "phone": "1-724-223-6480", "website": "https://www.fcbanking.com/branch-locations/pennsylvania/mcmurray/peters-township-office/4198-washington-rd/", "opening_hours": "Mo 9:00 a.m. - 5:00 p.m.,Tu 9:00 a.m. - 5:00 p.m.,We 9:00 a.m. - 5:00 p.m.,Th 9:00 a.m. - 5:00 p.m.,Fr 9:00 a.m. - 5:00 p.m.,Sa 9:00 a.m. - 1:00 p.m.", "brand": "First Commonwealth Bank", "brand:wikidata": "Q5452773"}, "geometry": {"type": "Point", "coordinates": [-80.13374, 40.26274]}},
{"type": "Feature", "id": "tbNKvz4u498IuGuREDKS4scaWTs=", "properties": {"ref": "https://www.fcbanking.com/branch-locations/pennsylvania/ligonier/ligonier-valley-office/1506-route-30/", "@spider": "fcbanking", "addr:full": "1506 Route 30", "addr:city": "Ligonier", "addr:state": "PA", "addr:postcode": "15658", "name": "First Commonwealth Bank - Ligonier Valley Office", "phone": "1-724-238-5636", "website": "https://www.fcbanking.com/branch-locations/pennsylvania/ligonier/ligonier-valley-office/1506-route-30/", "opening_hours": "Mo 9:00 a.m. - 5:00 p.m.,Tu 9:00 a.m. - 5:00 p.m.,We 9:00 a.m. - 5:00 p.m.,Th 9:00 a.m. - 5:00 p.m.,Fr 9:00 a.m. - 5:00 p.m.", "brand": "First Commonwealth Bank", "brand:wikidata": "Q5452773"}, "geometry": {"type": "Point", "coordinates": [-79.20887, 40.2175]}},
{"type": "Feature", "id": "l7tOJzMb_tE7cY6kPqUYqmS96Xc=", "properties": {"ref": "https://www.fcbanking.com/branch-locations/pennsylvania/kersey/kersey-office/367-main-st/", "@spider": "fcbanking", "addr:full": "367 Main St", "addr:city": "Kersey", "addr:state": "PA", "addr:postcode": "15846", "name": "First Commonwealth Bank - Kersey Office", "phone": "1-814-885-8041", "website": "https://www.fcbanking.com/branch-locations/pennsylvania/kersey/kersey-office/367-main-st/", "opening_hours": "Mo 9:00 a.m. - 5:00 p.m.,Tu 9:00 a.m. - 5:00 p.m.,We 9:00 a.m. - 5:00 p.m.,Th 9:00 a.m. - 5:00 p.m.,Fr 9:00 a.m. - 5:00 p.m.", "brand": "First Commonwealth Bank", "brand:wikidata": "Q5452773"}, "geometry": {"type": "Point", "coordinates": [-78.60938, 41.36164]}},
{"type": "Feature", "id": "kgkb-WiWQSWps50DGkpspF9_lHM=", "properties": {"ref": "https://www.fcbanking.com/branch-locations/pennsylvania/leechburg/allegheny-township-office/1147-s-leechburg-hill-rd/", "@spider": "fcbanking", "addr:full": "1147 S Leechburg Hill Rd", "addr:city": "Leechburg", "addr:state": "PA", "addr:postcode": "15656", "name": "First Commonwealth Bank - Allegheny Township Office", "phone": "1-724-842-0951", "website": "https://www.fcbanking.com/branch-locations/pennsylvania/leechburg/allegheny-township-office/1147-s-leechburg-hill-rd/", "opening_hours": "Mo 9:00 a.m. - 5:00 p.m.,Tu 9:00 a.m. - 5:00 p.m.,We 9:00 a.m. - 5:00 p.m.,Th 9:00 a.m. - 5:00 p.m.,Fr 9:00 a.m. - 5:00 p.m.,Sa 9:00 a.m. - 1:00 p.m.", "brand": "First Commonwealth Bank", "brand:wikidata": "Q5452773"}, "geometry": {"type": "Point", "coordinates": [-79.62617, 40.61607]}},
{"type": "Feature", "id": "YGzFSwRk2WIuENSQaQYnyUZrtiU=", "properties": {"ref": "https://www.fcbanking.com/branch-locations/pennsylvania/latrobe/latrobe-office/2501-sharkys-dr/", "@spider": "fcbanking", "addr:full": "2501 Sharkys Dr", "addr:city": "Latrobe", "addr:state": "PA", "addr:postcode": "15650", "name": "First Commonwealth Bank - Latrobe Office", "phone": "1-724-238-6130", "website": "https://www.fcbanking.com/branch-locations/pennsylvania/latrobe/latrobe-office/2501-sharkys-dr/", "opening_hours": "Mo 9:00 a.m. - 5:00 p.m.,Tu 9:00 a.m. - 5:00 p.m.,We 9:00 a.m. - 5:00 p.m.,Th 9:00 a.m. - 5:00 p.m.,Fr 9:00 a.m. - 5:00 p.m.,Sa 9:00 a.m. - 1:00 p.m.", "brand": "First Commonwealth Bank", "brand:wikidata": "Q5452773"}, "geometry": {"type": "Point", "coordinates": [-79.38752, 40.28581]}},
{"type": "Feature", "id": "tE5sVcJMrpRkU4wEUgI6lEdux8o=", "properties": {"ref": "https://www.fcbanking.com/branch-locations/pennsylvania/johnstown/westmont-office/1541-menoher-blvd/", "@spider": "fcbanking", "addr:full": "1541 Menoher Blvd", "addr:city": "Johnstown", "addr:state": "PA", "addr:postcode": "15905", "name": "First Commonwealth Bank - Westmont Office", "phone": "1-814-262-2192", "website": "https://www.fcbanking.com/branch-locations/pennsylvania/johnstown/westmont-office/1541-menoher-blvd/", "opening_hours": "Mo 9:00 a.m. - 5:00 p.m.,Tu 9:00 a.m. - 5:00 p.m.,We 9:00 a.m. - 5:00 p.m.,Th 9:00 a.m. - 5:00 p.m.,Fr 9:00 a.m. - 5:00 p.m.,Sa 9:00 a.m. - 1:00 p.m.", "brand": "First Commonwealth Bank", "brand:wikidata": "Q5452773"}, "geometry": {"type": "Point", "coordinates": [-78.95282, 40.31566]}},
{"type": "Feature", "id": "wORj7xlEBrXLgzcmgWshBCF8ZnI=", "properties": {"ref": "https://www.fcbanking.com/branch-locations/pennsylvania/johnstown/university-office/3112-elton-rd/", "@spider": "fcbanking", "addr:full": "3112 Elton Rd", "addr:city": "Johnstown", "addr:state": "PA", "addr:postcode": "15904", "name": "First Commonwealth Bank - University Office", "phone": "1-814-266-8608", "website": "https://www.fcbanking.com/branch-locations/pennsylvania/johnstown/university-office/3112-elton-rd/", "opening_hours": "Mo 9:00 a.m. - 5:00 p.m.,Tu 9:00 a.m. - 5:00 p.m.,We 9:00 a.m. - 5:00 p.m.,Th 9:00 a.m. - 5:00 p.m.,Fr 9:00 a.m. - 5:00 p.m.", "brand": "First Commonwealth Bank", "brand:wikidata": "Q5452773"}, "geometry": {"type": "Point", "coordinates": [-78.84737, 40.27966]}},
{"type": "Feature", "id": "1zft_JX8IXj3-k_8gzLE5QRNZuc=", "properties": {"ref": "https://www.fcbanking.com/branch-locations/pennsylvania/johnstown/richland-office/1001-scalp-ave/", "@spider": "fcbanking", "addr:full": "1001 Scalp Ave", "addr:city": "Johnstown", "addr:state": "PA", "addr:postcode": "15904", "name": "First Commonwealth Bank - Richland Office", "phone": "1-814-266-5826", "website": "https://www.fcbanking.com/branch-locations/pennsylvania/johnstown/richland-office/1001-scalp-ave/", "opening_hours": "Mo 9:00 a.m. - 5:00 p.m.,Tu 9:00 a.m. - 5:00 p.m.,We 9:00 a.m. - 5:00 p.m.,Th 9:00 a.m. - 5:00 p.m.,Fr 9:00 a.m. - 5:00 p.m.,Sa 9:00 a.m. - 1:00 p.m.", "brand": "First Commonwealth Bank", "brand:wikidata": "Q5452773"}, "geometry": {"type": "Point", "coordinates": [-78.86449, 40.28427]}},
{"type": "Feature", "id": "jSeaEgalHv6Xr5VEQu_Tgux-FSg=", "properties": {"ref": "https://www.fcbanking.com/branch-locations/pennsylvania/johnstown/eighth-ward-office/1047-franklin-st/", "@spider": "fcbanking", "addr:full": "1047 Franklin St", "addr:city": "Johnstown", "addr:state": "PA", "addr:postcode": "15905", "name": "First Commonwealth Bank - Eighth Ward Office", "phone": "1-814-533-6800", "website": "https://www.fcbanking.com/branch-locations/pennsylvania/johnstown/eighth-ward-office/1047-franklin-st/", "opening_hours": "Mo 9:00 a.m. - 5:00 p.m.,Tu 9:00 a.m. - 5:00 p.m.,We 9:00 a.m. - 5:00 p.m.,Th 9:00 a.m. - 5:00 p.m.,Fr 9:00 a.m. - 5:00 p.m.,Sa 9:00 a.m. - 1:00 p.m.", "brand": "First Commonwealth Bank", "brand:wikidata": "Q5452773"}, "geometry": {"type": "Point", "coordinates": [-78.91676, 40.30935]}},
{"type": "Feature", "id": "trkALJuQNRa9R2JRSeCLiue8P5Y=", "properties": {"ref": "https://www.fcbanking.com/branch-locations/pennsylvania/jennerstown/jennerstown-office/1626-pitt-st/", "@spider": "fcbanking", "addr:full": "1626 Pitt St", "addr:city": "Jennerstown", "addr:state": "PA", "addr:postcode": "15547", "name": "First Commonwealth Bank - Jennerstown Office", "phone": "1-814-629-6611", "website": "https://www.fcbanking.com/branch-locations/pennsylvania/jennerstown/jennerstown-office/1626-pitt-st/", "opening_hours": "Mo 9:00 a.m. - 5:00 p.m.,Tu 9:00 a.m. - 5:00 p.m.,We 9:00 a.m. - 5:00 p.m.,Th 9:00 a.m. - 5:00 p.m.,Fr 9:00 a.m. - 5:00 p.m.", "brand": "First Commonwealth Bank", "brand:wikidata": "Q5452773"}, "geometry": {"type": "Point", "coordinates": [-79.06617, 40.1599]}},
{"type": "Feature", "id": "tPRRhDcHXsegIH2LRp33kRrtaxY=", "properties": {"ref": "https://www.fcbanking.com/branch-locations/pennsylvania/indiana/downtown-indiana-office/600-philadelphia-st/", "@spider": "fcbanking", "addr:full": "600 Philadelphia St", "addr:city": "Indiana", "addr:state": "PA", "addr:postcode": "15701", "name": "First Commonwealth Bank - Downtown Indiana Office", "phone": "1-724-463-8555", "website": "https://www.fcbanking.com/branch-locations/pennsylvania/indiana/downtown-indiana-office/600-philadelphia-st/", "opening_hours": "Mo 9:00 a.m. - 5:00 p.m.,Tu 9:00 a.m - 5:00 p.m.,We 9:00 a.m - 5:00 p.m.,Th 9:00 a.m - 5:00 p.m.,Fr 9:00 a.m - 5:00 p.m.", "brand": "First Commonwealth Bank", "brand:wikidata": "Q5452773"}, "geometry": {"type": "Point", "coordinates": [-79.15108, 40.6227]}},
{"type": "Feature", "id": "rcnxdWSpE-AjZPwbxoYHiemEy9E=", "properties": {"ref": "https://www.fcbanking.com/branch-locations/pennsylvania/indiana/west-end-drive-up-office/1164-philadelphia-st/", "@spider": "fcbanking", "addr:full": "1164 Philadelphia St", "addr:city": "Indiana", "addr:state": "PA", "addr:postcode": "15701", "name": "First Commonwealth Bank - West End Drive-Up Office", "phone": "1-724-463-5655", "website": "https://www.fcbanking.com/branch-locations/pennsylvania/indiana/west-end-drive-up-office/1164-philadelphia-st/", "opening_hours": "Mo 9:00 a.m. - 5:00 p.m.,Tu 9:00 a.m. - 5:00 p.m.,We 9:00 a.m. - 5:00 p.m.,Th 9:00 a.m. - 5:00 p.m.,Fr 9:00 a.m. - 5:00 p.m.,Sa 9:00 a.m. - 1:00 p.m.", "brand": "First Commonwealth Bank", "brand:wikidata": "Q5452773"}, "geometry": {"type": "Point", "coordinates": [-79.16255, 40.623]}},
{"type": "Feature", "id": "giHhKnchmujBy8zFCYiuu8rhWXo=", "properties": {"ref": "https://www.fcbanking.com/branch-locations/pennsylvania/indiana/regency-mall-office/1540-oakland-ave,-unit-4/", "@spider": "fcbanking", "addr:full": "1540 Oakland Ave, Unit 4", "addr:city": "Indiana", "addr:state": "PA", "addr:postcode": "15701", "name": "First Commonwealth Bank - Regency Mall Office", "phone": "1-724-465-2693", "website": "https://www.fcbanking.com/branch-locations/pennsylvania/indiana/regency-mall-office/1540-oakland-ave,-unit-4/", "opening_hours": "Mo 9:00 a.m. - 5:00 p.m.,Tu 9:00 a.m. - 5:00 p.m.,We 9:00 a.m. - 5:00 p.m.,Th 9:00 a.m. - 5:00 p.m.,Fr 9:00 a.m. - 5:00 p.m.,Sa 9:00 a.m. - 1:00 p.m.", "brand": "First Commonwealth Bank", "brand:wikidata": "Q5452773"}, "geometry": {"type": "Point", "coordinates": [-79.17141, 40.61539]}},
{"type": "Feature", "id": "NTSbbk08dafeTdnHIo3CBtuezck=", "properties": {"ref": "https://www.fcbanking.com/branch-locations/pennsylvania/indiana/southtowne-office/3100-oakland-ave,-unit-27/", "@spider": "fcbanking", "addr:full": "3100 Oakland Ave, Unit 27", "addr:city": "Indiana", "addr:state": "PA", "addr:postcode": "15701", "name": "First Commonwealth Bank - Southtowne Office", "phone": "1-724-463-8004", "website": "https://www.fcbanking.com/branch-locations/pennsylvania/indiana/southtowne-office/3100-oakland-ave,-unit-27/", "opening_hours": "Mo 9:00 a.m. - 5:00 p.m.,Tu 9:00 a.m. - 5:00 p.m.,We 9:00 a.m. - 5:00 p.m.,Th 9:00 a.m. - 5:00 p.m.,Fr 9:00 a.m. - 5:00 p.m.,Sa 9:00 a.m. - 1:00 p.m.", "brand": "First Commonwealth Bank", "brand:wikidata": "Q5452773"}, "geometry": {"type": "Point", "coordinates": [-79.19309, 40.60154]}},
{"type": "Feature", "id": "DXGIvSDfSzdaSEJ32wXc4MvT1hc=", "properties": {"ref": "https://www.fcbanking.com/branch-locations/pennsylvania/homestead/waterfront-office/500-e-waterfront-dr/", "@spider": "fcbanking", "addr:full": "500 E Waterfront Dr", "addr:city": "Homestead", "addr:state": "PA", "addr:postcode": "15120", "name": "First Commonwealth Bank - Waterfront Office", "phone": "1-412-886-2501", "website": "https://www.fcbanking.com/branch-locations/pennsylvania/homestead/waterfront-office/500-e-waterfront-dr/", "opening_hours": "Mo 9:00 a.m. - 5:00 p.m.,Tu 9:00 a.m. - 5:00 p.m.,We 9:00 a.m. - 5:00 p.m.,Th 9:00 a.m. - 5:00 p.m.,Fr 9:00 a.m. - 5:00 p.m.,Sa 9:00 a.m. - 1:00 p.m.", "brand": "First Commonwealth Bank", "brand:wikidata": "Q5452773"}, "geometry": {"type": "Point", "coordinates": [-79.90712, 40.41289]}},
{"type": "Feature", "id": "zV-nHIzkNfrsNjgG0cBuTITYspk=", "properties": {"ref": "https://www.fcbanking.com/branch-locations/pennsylvania/homer-city/homer-city-office/2254-route-119-hwy-s/", "@spider": "fcbanking", "addr:full": "2254 Route 119 Hwy S", "addr:city": "Homer City", "addr:state": "PA", "addr:postcode": "15748", "name": "First Commonwealth Bank - Homer City Office", "phone": "1-724-459-4682", "website": "https://www.fcbanking.com/branch-locations/pennsylvania/homer-city/homer-city-office/2254-route-119-hwy-s/", "opening_hours": "Mo 9:00 a.m. - 5:00 p.m.,Tu 9:00 a.m. - 5:00 p.m.,We 9:00 a.m. - 5:00 p.m.,Th 9:00 a.m. - 5:00 p.m.,Fr 9:00 a.m. - 5:00 p.m.,Sa 9:00 a.m. - 1:00 p.m.", "brand": "First Commonwealth Bank", "brand:wikidata": "Q5452773"}, "geometry": {"type": "Point", "coordinates": [-79.1656, 40.55807]}},
{"type": "Feature", "id": "umLuK6oY8HqV06RGYnCdQSuf7cI=", "properties": {"ref": "https://www.fcbanking.com/branch-locations/pennsylvania/hunker/new-stanton-office/803-s-center-ave/", "@spider": "fcbanking", "addr:full": "803 S Center Ave", "addr:city": "Hunker", "addr:state": "PA", "addr:postcode": "15639", "name": "First Commonwealth Bank - New Stanton Office", "phone": "1-724-925-7255", "website": "https://www.fcbanking.com/branch-locations/pennsylvania/hunker/new-stanton-office/803-s-center-ave/", "opening_hours": "Mo 9:00 a.m. - 5:00 p.m.,Tu 9:00 a.m. - 5:00 p.m.,We 9:00 a.m. - 5:00 p.m.,Th 9:00 a.m. - 5:00 p.m.,Fr 9:00 a.m. - 5:00 p.m.,Sa 9:00 a.m. - 1:00 p.m.", "brand": "First Commonwealth Bank", "brand:wikidata": "Q5452773"}, "geometry": {"type": "Point", "coordinates": [-79.6028, 40.20147]}},
{"type": "Feature", "id": "pj0VI8eYC3Kwb_eLoEUYl6pRkts=", "properties": {"ref": "https://www.fcbanking.com/branch-locations/pennsylvania/greensburg/downtown-greensburg-office/111-s-main-st/", "@spider": "fcbanking", "addr:full": "111 S Main St", "addr:city": "Greensburg", "addr:state": "PA", "addr:postcode": "15601", "name": "First Commonwealth Bank - Downtown Greensburg Office", "phone": "1-724-834-2310", "website": "https://www.fcbanking.com/branch-locations/pennsylvania/greensburg/downtown-greensburg-office/111-s-main-st/", "opening_hours": "Mo 9:00 a.m. - 5:00 p.m.,Tu 9:00 a.m. - 5:00 p.m.,We 9:00 a.m. - 5:00 p.m.,Th 9:00 a.m. - 5:00 p.m.,Fr 9:00 a.m. - 5:00 p.m.", "brand": "First Commonwealth Bank", "brand:wikidata": "Q5452773"}, "geometry": {"type": "Point", "coordinates": [-79.54388, 40.30222]}},
{"type": "Feature", "id": "IbYRibh4R6JXtUignh64ESUvVDs=", "properties": {"ref": "https://www.fcbanking.com/branch-locations/pennsylvania/greensburg/east-hills-office/750-e-pittsburgh-st/", "@spider": "fcbanking", "addr:full": "750 E Pittsburgh St", "addr:city": "Greensburg", "addr:state": "PA", "addr:postcode": "15601", "name": "First Commonwealth Bank - East Hills Office", "phone": "1-724-837-6400", "website": "https://www.fcbanking.com/branch-locations/pennsylvania/greensburg/east-hills-office/750-e-pittsburgh-st/", "opening_hours": "Mo 9:00 a.m. - 5:00 p.m.,Tu 9:00 a.m. - 5:00 p.m.,We 9:00 a.m. - 5:00 p.m.,Th 9:00 a.m. - 5:00 p.m.,Fr 9:00 a.m. - 5:00 p.m.,Sa 9:00 a.m. - 1:00 p.m.", "brand": "First Commonwealth Bank", "brand:wikidata": "Q5452773"}, "geometry": {"type": "Point", "coordinates": [-79.52491, 40.30214]}},
{"type": "Feature", "id": "iYBpoyBcT6PrpGsU4Stk9nc_0Pw=", "properties": {"ref": "https://www.fcbanking.com/branch-locations/pennsylvania/houtzdale/houtzdale-office/709-hannah-st/", "@spider": "fcbanking", "addr:full": "709 Hannah St", "addr:city": "Houtzdale", "addr:state": "PA", "addr:postcode": "16651", "name": "First Commonwealth Bank - Houtzdale Office", "phone": "1-814-762-8981", "website": "https://www.fcbanking.com/branch-locations/pennsylvania/houtzdale/houtzdale-office/709-hannah-st/", "opening_hours": "Mo 9:00 a.m. - 5:00 p.m.,Tu 9:00 a.m. - 5:00 p.m.,We 9:00 a.m. - 5:00 p.m.,Th 9:00 a.m. - 5:00 p.m.,Fr 9:00 a.m. - 5:00 p.m.,Sa 9:00 a.m. - 1:00 p.m.", "brand": "First Commonwealth Bank", "brand:wikidata": "Q5452773"}, "geometry": {"type": "Point", "coordinates": [-78.35152, 40.82511]}},
{"type": "Feature", "id": "15Qu3O3NETz8C8CYohD5ikx53Fw=", "properties": {"ref": "https://www.fcbanking.com/branch-locations/pennsylvania/hollidaysburg/meadows-office/1913-n-juniata-st/", "@spider": "fcbanking", "addr:full": "1913 N Juniata St", "addr:city": "Hollidaysburg", "addr:state": "PA", "addr:postcode": "16648", "name": "First Commonwealth Bank - Meadows Office", "phone": "1-814-696-1421", "website": "https://www.fcbanking.com/branch-locations/pennsylvania/hollidaysburg/meadows-office/1913-n-juniata-st/", "opening_hours": "Mo 9:00 a.m. - 5:00 p.m.,Tu 9:00 a.m. - 5:00 p.m.,We 9:00 a.m. - 5:00 p.m.,Th 9:00 a.m. - 5:00 p.m.,Fr 9:00 a.m. - 5:00 p.m.,Sa 9:00 a.m. - 1:00 p.m.", "brand": "First Commonwealth Bank", "brand:wikidata": "Q5452773"}, "geometry": {"type": "Point", "coordinates": [-78.41183, 40.43682]}},
{"type": "Feature", "id": "FJQiC1XuTHtOyNuPT61x5-NrAh4=", "properties": {"ref": "https://www.fcbanking.com/branch-locations/pennsylvania/greensburg/greengate-office/4000-hempfield-plaza-blvd-ste-901/", "@spider": "fcbanking", "addr:full": "4000 Hempfield Plaza Blvd Ste 901", "addr:city": "Greensburg", "addr:state": "PA", "addr:postcode": "15601", "name": "First Commonwealth Bank - Greengate Office", "phone": "1-724-836-6610", "website": "https://www.fcbanking.com/branch-locations/pennsylvania/greensburg/greengate-office/4000-hempfield-plaza-blvd-ste-901/", "opening_hours": "Mo 9:00 a.m. - 5:00 p.m.,Tu 9:00 a.m. - 5:00 p.m.,We 9:00 a.m. - 5:00 p.m.,Th 9:00 a.m. - 5:00 p.m.,Fr 9:00 a.m. - 5:00 p.m.,Sa 9:00 a.m. - 1:00 p.m.", "brand": "First Commonwealth Bank", "brand:wikidata": "Q5452773"}, "geometry": {"type": "Point", "coordinates": [-79.58312, 40.30982]}},
{"type": "Feature", "id": "AZaa20VEw3WzZQiVY9xiUozxrSU=", "properties": {"ref": "https://www.fcbanking.com/branch-locations/pennsylvania/greensburg/mt-view-office/110-village-dr/", "@spider": "fcbanking", "addr:full": "110 Village Dr", "addr:city": "Greensburg", "addr:state": "PA", "addr:postcode": "15601", "name": "First Commonwealth Bank - Mt. View Office", "phone": "1-724-830-6213", "website": "https://www.fcbanking.com/branch-locations/pennsylvania/greensburg/mt-view-office/110-village-dr/", "opening_hours": "Mo 9:00 a.m. - 5:00 p.m.,Tu 9:00 a.m. - 5:00 p.m.,We 9:00 a.m. - 5:00 p.m.,Th 9:00 a.m. - 5:00 p.m.,Fr 9:00 a.m. - 5:00 p.m.", "brand": "First Commonwealth Bank", "brand:wikidata": "Q5452773"}, "geometry": {"type": "Point", "coordinates": [-79.46401, 40.29079]}},
{"type": "Feature", "id": "jpSoX4aopHXlEKRYJXxuywip2mQ=", "properties": {"ref": "https://www.fcbanking.com/branch-locations/pennsylvania/gibsonia/gibsonia-office/5167-william-flynn-hwy/", "@spider": "fcbanking", "addr:full": "5167 William Flynn Hwy", "addr:city": "Gibsonia", "addr:state": "PA", "addr:postcode": "15044", "name": "First Commonwealth Bank - Gibsonia Office", "phone": "1-724-934-4451", "website": "https://www.fcbanking.com/branch-locations/pennsylvania/gibsonia/gibsonia-office/5167-william-flynn-hwy/", "opening_hours": "Mo 9:00 a.m. - 5:00 p.m.,Tu 9:00 a.m. - 5:00 p.m.,We 9:00 a.m. - 5:00 p.m.,Th 9:00 a.m. - 5:00 p.m.,Fr 9:00 a.m. - 5:00 p.m.,Sa 9:00 a.m. - 1:00 p.m.", "brand": "First Commonwealth Bank", "brand:wikidata": "Q5452773"}, "geometry": {"type": "Point", "coordinates": [-79.94765, 40.61319]}},
{"type": "Feature", "id": "NoKutbkFyKXN7FtH4qFBSRc9XjI=", "properties": {"ref": "https://www.fcbanking.com/branch-locations/pennsylvania/duncansville/duncansville-office/1525-third-ave/", "@spider": "fcbanking", "addr:full": "1525 Third Ave", "addr:city": "Duncansville", "addr:state": "PA", "addr:postcode": "16635", "name": "First Commonwealth Bank - Duncansville Office", "phone": "1-814-695-4444", "website": "https://www.fcbanking.com/branch-locations/pennsylvania/duncansville/duncansville-office/1525-third-ave/", "opening_hours": "Mo 9:00 a.m. - 5:00 p.m.,Tu 9:00 a.m. - 5:00 p.m.,We 9:00 a.m. - 5:00 p.m.,Th 9:00 a.m. - 5:00 p.m.,Fr 9:00 a.m. - 5:00 p.m.,Sa 9:00 a.m. - 1:00 p.m.", "brand": "First Commonwealth Bank", "brand:wikidata": "Q5452773"}, "geometry": {"type": "Point", "coordinates": [-78.43809, 40.42209]}},
{"type": "Feature", "id": "XSQU8Va5-ZZ1a2tYqJwvfOjunyg=", "properties": {"ref": "https://www.fcbanking.com/branch-locations/pennsylvania/dubois/dubois-mall-office/5355-shaffer-rd/", "@spider": "fcbanking", "addr:full": "5355 Shaffer Rd", "addr:city": "Dubois", "addr:state": "PA", "addr:postcode": "15801", "name": "First Commonwealth Bank - DuBois Mall Office", "phone": "1-814-371-5002", "website": "https://www.fcbanking.com/branch-locations/pennsylvania/dubois/dubois-mall-office/5355-shaffer-rd/", "opening_hours": "Mo 9:00 a.m. - 5:00 p.m.,Tu 9:00 a.m. - 5:00 p.m.,We 9:00 a.m. - 5:00 p.m.,Th 9:00 a.m. - 5:00 p.m.,Fr 9:00 a.m. - 5:00 p.m.,Sa 9:00 a.m.- 1:00 p.m.", "brand": "First Commonwealth Bank", "brand:wikidata": "Q5452773"}, "geometry": {"type": "Point", "coordinates": [-78.73152, 41.11704]}},
{"type": "Feature", "id": "RZps_l9443JSzhrB9Ru-zGh8VUA=", "properties": {"ref": "https://www.fcbanking.com/branch-locations/pennsylvania/elizabeth/elizabeth-office/548-rock-run-rd/", "@spider": "fcbanking", "addr:full": "548 Rock Run Rd", "addr:city": "Elizabeth", "addr:state": "PA", "addr:postcode": "15037", "name": "First Commonwealth Bank - Elizabeth Office", "phone": "1-412-673-7081", "website": "https://www.fcbanking.com/branch-locations/pennsylvania/elizabeth/elizabeth-office/548-rock-run-rd/", "opening_hours": "Mo 9:00 a.m. - 5:00 p.m.,Tu 9:00 a.m. - 5:00 p.m.,We 9:00 a.m. - 5:00 p.m.,Th 9:00 a.m. - 5:00 p.m.,Fr 9:00 a.m. - 5:00 p.m.,Sa 9:00 a.m. - 1:00 p.m.", "brand": "First Commonwealth Bank", "brand:wikidata": "Q5452773"}, "geometry": {"type": "Point", "coordinates": [-79.82251, 40.2722]}},
{"type": "Feature", "id": "zW0JbmKFZmQFKg4RSKuSt8xziBk=", "properties": {"ref": "https://www.fcbanking.com/branch-locations/pennsylvania/ebensburg/ebensburg-office/708-w-high-st/", "@spider": "fcbanking", "addr:full": "708 W High St", "addr:city": "Ebensburg", "addr:state": "PA", "addr:postcode": "15931", "name": "First Commonwealth Bank - Ebensburg Office", "phone": "1-814-472-4680", "website": "https://www.fcbanking.com/branch-locations/pennsylvania/ebensburg/ebensburg-office/708-w-high-st/", "opening_hours": "Mo 9:00 a.m. - 5:00 p.m.,Tu 9:00 a.m. - 5:00 p.m.,We 9:00 a.m. - 5:00 p.m.,Th 9:00 a.m. - 5:00 p.m.,Fr 9:00 a.m. - 5:00 p.m.,Sa 9:00 a.m. - 1:00 p.m.", "brand": "First Commonwealth Bank", "brand:wikidata": "Q5452773"}, "geometry": {"type": "Point", "coordinates": [-78.71848, 40.48509]}},
{"type": "Feature", "id": "lY1f0fVTZwm7vHfxgoaZo8dfWTU=", "properties": {"ref": "https://www.fcbanking.com/branch-locations/pennsylvania/derry/derry-office/200-s-chestnut-st/", "@spider": "fcbanking", "addr:full": "200 S Chestnut St", "addr:city": "Derry", "addr:state": "PA", "addr:postcode": "15627", "name": "First Commonwealth Bank - Derry Office", "phone": "1-724-459-4697", "website": "https://www.fcbanking.com/branch-locations/pennsylvania/derry/derry-office/200-s-chestnut-st/", "opening_hours": "Mo 9:00 a.m. - 5:00 p.m.,Tu 9:00 a.m. - 5:00 p.m.,We 9:00 a.m. - 5:00 p.m.,Th 9:00 a.m. - 5:00 p.m.,Fr 9:00 a.m. - 5:00 p.m.", "brand": "First Commonwealth Bank", "brand:wikidata": "Q5452773"}, "geometry": {"type": "Point", "coordinates": [-79.29945, 40.33282]}},
{"type": "Feature", "id": "SQVnCp7L8_c3bf3rGEDRVeCLt0s=", "properties": {"ref": "https://www.fcbanking.com/branch-locations/pennsylvania/delmont/delmont-office/38-greensburg-st/", "@spider": "fcbanking", "addr:full": "38 Greensburg St", "addr:city": "Delmont", "addr:state": "PA", "addr:postcode": "15626", "name": "First Commonwealth Bank - Delmont Office", "phone": "1-724-468-4101", "website": "https://www.fcbanking.com/branch-locations/pennsylvania/delmont/delmont-office/38-greensburg-st/", "opening_hours": "Mo 9:00 a.m. - 5:00 p.m.,Tu 9:00 a.m. - 5:00 p.m.,We 9:00 a.m. - 5:00 p.m.,Th 9:00 a.m. - 5:00 p.m.,Fr 9:00 a.m. - 5:00 p.m.,Sa 9:00 a.m. - 1:00 p.m.", "brand": "First Commonwealth Bank", "brand:wikidata": "Q5452773"}, "geometry": {"type": "Point", "coordinates": [-79.57079, 40.41285]}},
{"type": "Feature", "id": "3G664p9fZQCjUz4nWonOFHmUhA0=", "properties": {"ref": "https://www.fcbanking.com/branch-locations/pennsylvania/dubois/north-main-street-office/5-n-main-st/", "@spider": "fcbanking", "addr:full": "5 N Main St", "addr:city": "DuBois", "addr:state": "PA", "addr:postcode": "15801", "name": "First Commonwealth Bank - North Main Street Office", "phone": "1-814-371-4448", "website": "https://www.fcbanking.com/branch-locations/pennsylvania/dubois/north-main-street-office/5-n-main-st/", "opening_hours": "Mo 9:00 a.m. - 5:00 p.m.,Tu 9:00 a.m. - 5:00 p.m.,We 9:00 a.m. - 5:00 p.m.,Th 9:00 a.m. - 5:00 p.m.,Fr 9:00 a.m. - 5:00 p.m.,Sa 9:00 a.m. - 1:00 p.m.", "brand": "First Commonwealth Bank", "brand:wikidata": "Q5452773"}, "geometry": {"type": "Point", "coordinates": [-78.76731, 41.12182]}},
{"type": "Feature", "id": "kcclpCKEsUiKP7A2HaOeMIKt_qA=", "properties": {"ref": "https://www.fcbanking.com/branch-locations/pennsylvania/cranberry-township/cranberry-freedom-square-office/1189-freedom-rd/", "@spider": "fcbanking", "addr:full": "1189 Freedom Rd", "addr:city": "Cranberry Township", "addr:state": "PA", "addr:postcode": "16066", "name": "First Commonwealth Bank - Cranberry-Freedom Square Office", "phone": "1-724-778-3960", "website": "https://www.fcbanking.com/branch-locations/pennsylvania/cranberry-township/cranberry-freedom-square-office/1189-freedom-rd/", "opening_hours": "Mo 9:00 a.m. - 5:00 p.m.,Tu 9:00 a.m. - 5:00 p.m.,We 9:00 a.m. - 5:00 p.m.,Th 9:00 a.m. - 5:00 p.m.,Fr 9:00 a.m. - 5:00 p.m.,Sa 9:00 a.m. - 1:00 p.m.", "brand": "First Commonwealth Bank", "brand:wikidata": "Q5452773"}, "geometry": {"type": "Point", "coordinates": [-80.12278, 40.68225]}},
{"type": "Feature", "id": "vAgiw1kSXtCo50Z79_A9SSqzQPs=", "properties": {"ref": "https://www.fcbanking.com/branch-locations/pennsylvania/delmont/salem-22-office/6514-route-22/", "@spider": "fcbanking", "addr:full": "6514 Route 22", "addr:city": "Delmont", "addr:state": "PA", "addr:postcode": "15626", "name": "First Commonwealth Bank - Salem 22 Office", "phone": "1-724-468-3022", "website": "https://www.fcbanking.com/branch-locations/pennsylvania/delmont/salem-22-office/6514-route-22/", "opening_hours": "Mo 9:00 a.m. - 5:00 p.m.,Tu 9:00 a.m. - 5:00 p.m.,We 9:00 a.m. - 5:00 p.m.,Th 9:00 a.m. - 5:00 p.m.,Fr 9:00 a.m. - 5:00 p.m.,Sa 9:00 a.m. - 1:00 p.m.", "brand": "First Commonwealth Bank", "brand:wikidata": "Q5452773"}, "geometry": {"type": "Point", "coordinates": [-79.58588, 40.4008]}},
{"type": "Feature", "id": "QGsBXidyxuZHfOCYTZEp9UbhGI0=", "properties": {"ref": "https://www.fcbanking.com/branch-locations/pennsylvania/bridgeville/bridgeville-office/428-station-st/", "@spider": "fcbanking", "addr:full": "428 Station St", "addr:city": "Bridgeville", "addr:state": "PA", "addr:postcode": "15017", "name": "First Commonwealth Bank - Bridgeville Office", "phone": "1-724-926-1305", "website": "https://www.fcbanking.com/branch-locations/pennsylvania/bridgeville/bridgeville-office/428-station-st/", "opening_hours": "Mo 9:00 a.m. - 5:00 p.m.,Tu 9:00 a.m. - 5:00 p.m.,We 9:00 a.m. - 5:00 p.m.,Th 9:00 a.m. - 5:00 p.m.,Fr 9:00 a.m. - 5:00 p.m.,Sa 9:00 a.m. - 1:00 p.m.", "brand": "First Commonwealth Bank", "brand:wikidata": "Q5452773"}, "geometry": {"type": "Point", "coordinates": [-80.11142, 40.35815]}},
{"type": "Feature", "id": "F6BUuHmzjX-I3XocHinxbY42eJY=", "properties": {"ref": "https://www.fcbanking.com/branch-locations/pennsylvania/blairsville/blairsville-office/53-e-market-st/", "@spider": "fcbanking", "addr:full": "53 E Market St", "addr:city": "Blairsville", "addr:state": "PA", "addr:postcode": "15717", "name": "First Commonwealth Bank - Blairsville Office", "phone": "1-724-459-6780", "website": "https://www.fcbanking.com/branch-locations/pennsylvania/blairsville/blairsville-office/53-e-market-st/", "opening_hours": "Mo 9:00 a.m. - 5:00 p.m.,Tu 9:00 a.m. - 5:00 p.m.,We 9:00 a.m. - 5:00 p.m.,Th 9:00 a.m. - 5:00 p.m.,Fr 9:00 a.m. - 5:00 p.m.,Sa 9:00 a.m. - 1:00 p.m.", "brand": "First Commonwealth Bank", "brand:wikidata": "Q5452773"}, "geometry": {"type": "Point", "coordinates": [-79.26331, 40.43089]}},
{"type": "Feature", "id": "TDByHDBRFKZj3iUuS_1a6BHeEBM=", "properties": {"ref": "https://www.fcbanking.com/branch-locations/pennsylvania/butler/butler-crossing-office/520-butler-crossing/", "@spider": "fcbanking", "addr:full": "520 Butler Crossing", "addr:city": "Butler", "addr:state": "PA", "addr:postcode": "16001", "name": "First Commonwealth Bank - Butler Crossing Office", "phone": "1-724-284-3470", "website": "https://www.fcbanking.com/branch-locations/pennsylvania/butler/butler-crossing-office/520-butler-crossing/", "opening_hours": "Mo 9:00 a.m. - 5:00 p.m.,Tu 9:00 a.m. - 5:00 p.m.,We 9:00 a.m. - 5:00 p.m.,Th 9:00 a.m. - 5:00 p.m.,Fr 9:00 a.m. - 5:00 p.m.,Sa 9:00 a.m. - 1:00 p.m.", "brand": "First Commonwealth Bank", "brand:wikidata": "Q5452773"}, "geometry": {"type": "Point", "coordinates": [-79.94727, 40.87706]}},
{"type": "Feature", "id": "aDCXoQKdxoN_6JIGrYYEyUNoTDo=", "properties": {"ref": "https://www.fcbanking.com/branch-locations/pennsylvania/clearfield/clearfield-office/14303-clearfield-shawville-hwy/", "@spider": "fcbanking", "addr:full": "14303 Clearfield Shawville Hwy", "addr:city": "Clearfield", "addr:state": "PA", "addr:postcode": "16830", "name": "First Commonwealth Bank - Clearfield Office", "phone": "1-814-765-2666", "website": "https://www.fcbanking.com/branch-locations/pennsylvania/clearfield/clearfield-office/14303-clearfield-shawville-hwy/", "opening_hours": "Mo 9:00 a.m. - 5:00 p.m.,Tu 9:00 a.m. - 5:00 p.m.,We 9:00 a.m. - 5:00 p.m.,Th 9:00 a.m. - 5:00 p.m.,Fr 9:00 a.m. - 5:00 p.m.,Sa 9:00 a.m. - 1:00 p.m.", "brand": "First Commonwealth Bank", "brand:wikidata": "Q5452773"}, "geometry": {"type": "Point", "coordinates": [-78.40273, 41.03447]}},
{"type": "Feature", "id": "4LhSvd3c8xKEqIWKNf-VY_wZpq4=", "properties": {"ref": "https://www.fcbanking.com/branch-locations/pennsylvania/claysburg/claysburg-office/311-ski-gap-rd/", "@spider": "fcbanking", "addr:full": "311 Ski Gap Rd", "addr:city": "Claysburg", "addr:state": "PA", "addr:postcode": "16625", "name": "First Commonwealth Bank - Claysburg Office", "phone": "1-814-239-2115", "website": "https://www.fcbanking.com/branch-locations/pennsylvania/claysburg/claysburg-office/311-ski-gap-rd/", "opening_hours": "Mo 9:00 a.m. - 5:00 p.m.,Tu 9:00 a.m. - 5:00 p.m.,We 9:00 a.m. - 5:00 p.m.,Th 9:00 a.m. - 5:00 p.m.,Fr 9:00 a.m. - 5:00 p.m.", "brand": "First Commonwealth Bank", "brand:wikidata": "Q5452773"}, "geometry": {"type": "Point", "coordinates": [-78.45517, 40.29185]}},
{"type": "Feature", "id": "K6ca7RjmRk-G0Jie4hDe6N80sQ0=", "properties": {"ref": "https://www.fcbanking.com/branch-locations/pennsylvania/brookville/brookville-office/223-main-st/", "@spider": "fcbanking", "addr:full": "223 Main St", "addr:city": "Brookville", "addr:state": "PA", "addr:postcode": "15825", "name": "First Commonwealth Bank - Brookville Office", "phone": "1-814-849-5361", "website": "https://www.fcbanking.com/branch-locations/pennsylvania/brookville/brookville-office/223-main-st/", "opening_hours": "Mo 9:00 a.m. - 5:00 p.m.,Tu 9:00 a.m. - 5:00 p.m.,We 9:00 a.m. - 5:00 p.m.,Th 9:00 a.m. - 5:00 p.m.,Fr 9:00 a.m. - 5:00 p.m.,Sa 9:00 a.m. - 1:00 p.m.", "brand": "First Commonwealth Bank", "brand:wikidata": "Q5452773"}, "geometry": {"type": "Point", "coordinates": [-79.09165, 41.15698]}},
{"type": "Feature", "id": "fCwgkpLKHGkgnOMyD9TGhQ6aags=", "properties": {"ref": "https://www.fcbanking.com/branch-locations/pennsylvania/butler/butler-office/100-n-main-st/", "@spider": "fcbanking", "addr:full": "100 N Main St", "addr:city": "Butler", "addr:state": "PA", "addr:postcode": "16001", "name": "First Commonwealth Bank - Butler Office", "phone": "1-724-287-1704", "website": "https://www.fcbanking.com/branch-locations/pennsylvania/butler/butler-office/100-n-main-st/", "opening_hours": "Mo 9:00 a.m. - 5:00 p.m.,Tu 9:00 a.m. - 5:00 p.m.,We 9:00 a.m. - 5:00 p.m.,Th 9:00 a.m. - 5:00 p.m.,Fr 9:00 a.m. - 5:00 p.m.", "brand": "First Commonwealth Bank", "brand:wikidata": "Q5452773"}, "geometry": {"type": "Point", "coordinates": [-79.89532, 40.86105]}},
{"type": "Feature", "id": "w3AZShLt7ePG0_IeG4_SxJrjr4k=", "properties": {"ref": "https://www.fcbanking.com/branch-locations/pennsylvania/brockway/brockway-office/1201-main-st/", "@spider": "fcbanking", "addr:full": "1201 Main St", "addr:city": "Brockway", "addr:state": "PA", "addr:postcode": "15824", "name": "First Commonwealth Bank - Brockway Office", "phone": "1-814-268-3735", "website": "https://www.fcbanking.com/branch-locations/pennsylvania/brockway/brockway-office/1201-main-st/", "opening_hours": "Mo 9:00 a.m. - 5:00 p.m.,Tu 9:00 a.m. - 5:00 p.m.,We 9:00 a.m. - 5:00 p.m.,Th 9:00 a.m. - 5:00 p.m.,Fr 9:00 a.m. - 5:00 p.m.,Sa 9:00 a.m. - 1:00 p.m.", "brand": "First Commonwealth Bank", "brand:wikidata": "Q5452773"}, "geometry": {"type": "Point", "coordinates": [-78.789, 41.24755]}},
{"type": "Feature", "id": "pdlS77zbhLeH3Xohtt6WThseEKA=", "properties": {"ref": "https://www.fcbanking.com/branch-locations/ohio/sunbury/sunbury-office/75-s-miller-dr/", "@spider": "fcbanking", "addr:full": "75 S Miller Dr", "addr:city": "Sunbury", "addr:state": "OH", "addr:postcode": "43074", "name": "First Commonwealth Bank - Sunbury Office", "phone": "1-740-548-3360", "website": "https://www.fcbanking.com/branch-locations/ohio/sunbury/sunbury-office/75-s-miller-dr/", "opening_hours": "Mo 9:00 a.m. - 5:00 p.m.,Tu 9:00 a.m. - 5:00 p.m.,We 9:00 a.m. - 5:00 p.m.,Th 9:00 a.m. - 5:00 p.m.,Fr 9:00 a.m. - 5:00 p.m.,Sa 9:00 a.m. - 1:00 p.m.", "brand": "First Commonwealth Bank", "brand:wikidata": "Q5452773"}, "geometry": {"type": "Point", "coordinates": [-82.86942, 40.24738]}},
{"type": "Feature", "id": "BB2H59qIc5eq8h1r5r4UE2UskwE=", "properties": {"ref": "https://www.fcbanking.com/branch-locations/ohio/powell/sawmill-parkway-south-office/10149-brewster-ln/", "@spider": "fcbanking", "addr:full": "10149 Brewster Ln", "addr:city": "Powell", "addr:state": "OH", "addr:postcode": "43065", "name": "First Commonwealth Bank - Sawmill Parkway South Office", "phone": "1-740-548-3160", "website": "https://www.fcbanking.com/branch-locations/ohio/powell/sawmill-parkway-south-office/10149-brewster-ln/", "opening_hours": "Mo 9:00 a.m. - 5:00 p.m.,Tu 9:00 a.m. - 5:00 p.m.,We 9:00 a.m. - 5:00 p.m.,Th 9:00 a.m. - 5:00 p.m.,Fr 9:00 a.m. - 5:00 p.m.,Sa 9:00 a.m. - 1:00 p.m.", "brand": "First Commonwealth Bank", "brand:wikidata": "Q5452773"}, "geometry": {"type": "Point", "coordinates": [-83.09322, 40.15173]}},
{"type": "Feature", "id": "x-oV5PKcSP9KznlsIf-avLkR3Nw=", "properties": {"ref": "https://www.fcbanking.com/branch-locations/pennsylvania/allison-park/allison-park-office/2724-harts-run-rd/", "@spider": "fcbanking", "addr:full": "2724 Harts Run Rd", "addr:city": "Allison Park", "addr:state": "PA", "addr:postcode": "15101", "name": "First Commonwealth Bank - Allison Park Office", "phone": "1-412-492-2920", "website": "https://www.fcbanking.com/branch-locations/pennsylvania/allison-park/allison-park-office/2724-harts-run-rd/", "opening_hours": "Mo 9:00 a.m. - 5:00 p.m.,Tu 9:00 a.m. - 5:00 p.m.,We 9:00 a.m. - 5:00 p.m.,Th 9:00 a.m. - 5:00 p.m.,Fr 9:00 a.m. - 5:00 p.m.,Sa 9:00 a.m. - 1:00 p.m.", "brand": "First Commonwealth Bank", "brand:wikidata": "Q5452773"}, "geometry": {"type": "Point", "coordinates": [-79.95311, 40.56947]}},
{"type": "Feature", "id": "Z_L4Ze-CTnwC0okoZZFV85vyfjU=", "properties": {"ref": "https://www.fcbanking.com/branch-locations/pennsylvania/altoona/bellwood-office/2984-e-pleasant-valley-blvd/", "@spider": "fcbanking", "addr:full": "2984 E Pleasant Valley Blvd", "addr:city": "Altoona", "addr:state": "PA", "addr:postcode": "16601", "name": "First Commonwealth Bank - Bellwood Office", "phone": "1-814-947-4907", "website": "https://www.fcbanking.com/branch-locations/pennsylvania/altoona/bellwood-office/2984-e-pleasant-valley-blvd/", "opening_hours": "Mo 9:00 a.m. - 5:00 p.m.,Tu 9:00 a.m. - 5:00 p.m.,We 9:00 a.m. - 5:00 p.m.,Th 9:00 a.m. - 5:00 p.m.,Fr 9:00 a.m. - 5:00 p.m.,Sa 9:00 a.m. - 1:00 p.m.", "brand": "First Commonwealth Bank", "brand:wikidata": "Q5452773"}, "geometry": {"type": "Point", "coordinates": [-78.32439, 40.58867]}},
{"type": "Feature", "id": "cqUbZ7NPtEP0ZuV1ylEIX7HNEx8=", "properties": {"ref": "https://www.fcbanking.com/branch-locations/pennsylvania/altoona/pleasant-valley-office/2009-pleasant-valley-blvd/", "@spider": "fcbanking", "addr:full": "2009 Pleasant Valley Blvd", "addr:city": "Altoona", "addr:state": "PA", "addr:postcode": "16602", "name": "First Commonwealth Bank - Pleasant Valley Office", "phone": "1-814-943-8780", "website": "https://www.fcbanking.com/branch-locations/pennsylvania/altoona/pleasant-valley-office/2009-pleasant-valley-blvd/", "opening_hours": "Mo 9:00 a.m. - 5:00 p.m.,Tu 9:00 a.m. - 5:00 p.m.,We 9:00 a.m. - 5:00 p.m.,Th 9:00 a.m. - 5:00 p.m.,Fr 9:00 a.m. - 5:00 p.m.,Sa 9:00 a.m. - 1:00 p.m.", "brand": "First Commonwealth Bank", "brand:wikidata": "Q5452773"}, "geometry": {"type": "Point", "coordinates": [-78.39284, 40.49838]}},
{"type": "Feature", "id": "T-3II2Gq_QPz0uyVbVzMu3p7mTs=", "properties": {"ref": "https://www.fcbanking.com/branch-locations/ohio/westerville/highland-lakes-office/6156-highland-lakes-ave/", "@spider": "fcbanking", "addr:full": "6156 Highland Lakes Ave", "addr:city": "Westerville", "addr:state": "OH", "addr:postcode": "43082", "name": "First Commonwealth Bank - Highland Lakes Office", "phone": "1-740-548-3180", "website": "https://www.fcbanking.com/branch-locations/ohio/westerville/highland-lakes-office/6156-highland-lakes-ave/", "opening_hours": "Mo 9:00 a.m. - 5:00 p.m.,Tu 9:00 a.m. - 5:00 p.m.,We 9:00 a.m. - 5:00 p.m.,Th 9:00 a.m. - 5:00 p.m.,Fr 9:00 a.m. - 5:00 p.m.,Sa 9:00 a.m. - 1:00 p.m.", "brand": "First Commonwealth Bank", "brand:wikidata": "Q5452773"}, "geometry": {"type": "Point", "coordinates": [-82.91991, 40.15739]}},
{"type": "Feature", "id": "XE3iFA_e44s9M0ucHW1v6A029CQ=", "properties": {"ref": "https://www.fcbanking.com/branch-locations/pennsylvania/bedford/bedford-office/9503-lincoln-hwy/", "@spider": "fcbanking", "addr:full": "9503 Lincoln Hwy", "addr:city": "Bedford", "addr:state": "PA", "addr:postcode": "15522", "name": "First Commonwealth Bank - Bedford Office", "phone": "1-814-623-2003", "website": "https://www.fcbanking.com/branch-locations/pennsylvania/bedford/bedford-office/9503-lincoln-hwy/", "opening_hours": "Mo 9:00 a.m. - 5:00 p.m.,Tu 9:00 a.m. - 5:00 p.m.,We 9:00 a.m. - 5:00 p.m.,Th 9:00 a.m. - 5:00 p.m.,Fr 9:00 a.m. - 5:00 p.m.,Sa 9:00 a.m. - 1:00 p.m.", "brand": "First Commonwealth Bank", "brand:wikidata": "Q5452773"}, "geometry": {"type": "Point", "coordinates": [-78.46476, 40.01827]}},
{"type": "Feature", "id": "37WOj8i7gcgbTweh6HpVMOPSW-0=", "properties": {"ref": "https://www.fcbanking.com/branch-locations/ohio/whitehall/broad-street-office/4300-e-broad-st/", "@spider": "fcbanking", "addr:full": "4300 E Broad St", "addr:city": "Whitehall", "addr:state": "OH", "addr:postcode": "43213", "name": "First Commonwealth Bank - Broad Street Office", "phone": "1-614-239-4600", "website": "https://www.fcbanking.com/branch-locations/ohio/whitehall/broad-street-office/4300-e-broad-st/", "opening_hours": "Mo 9:00 a.m. - 5:00 p.m.,Tu 9:00 a.m. - 5:00 p.m.,We 9:00 a.m. - 5:00 p.m.,Th 9:00 a.m. - 5:00 p.m.,Fr 9:00 a.m. - 5:00 p.m.,Sa 9:00 a.m. - 1:00 p.m.", "brand": "First Commonwealth Bank", "brand:wikidata": "Q5452773"}, "geometry": {"type": "Point", "coordinates": [-82.88647, 39.97541]}},
{"type": "Feature", "id": "OISVQd0bvrlIhIWm9oTLcqLSnMQ=", "properties": {"ref": "https://www.fcbanking.com/branch-locations/ohio/massillon/perry-west-office/2704-lincoln-way-e/", "@spider": "fcbanking", "addr:full": "2704 Lincoln Way E", "addr:city": "Massillon", "addr:state": "OH", "addr:postcode": "44646", "name": "First Commonwealth Bank - Perry West Office", "phone": "1-330-481-2160", "website": "https://www.fcbanking.com/branch-locations/ohio/massillon/perry-west-office/2704-lincoln-way-e/", "opening_hours": "Mo 9:00 a.m. - 5:00 p.m.,Tu 9:00 a.m. - 5:00 p.m.,We 9:00 a.m. - 5:00 p.m.,Th 9:00 a.m. - 5:00 p.m.,Fr 9:00 a.m. - 5:00 p.m.,Sa 9:00 a.m. - 1:00 p.m.", "brand": "First Commonwealth Bank", "brand:wikidata": "Q5452773"}, "geometry": {"type": "Point", "coordinates": [-81.48415, 40.79745]}},
{"type": "Feature", "id": "vBEKt48kFv8X13heMMZyH2LkJyQ=", "properties": {"ref": "https://www.fcbanking.com/branch-locations/ohio/canton/oakwood-square-office/6252-middlebranch-ave-ne/", "@spider": "fcbanking", "addr:full": "6252 Middlebranch Ave NE", "addr:city": "Canton", "addr:state": "OH", "addr:postcode": "44721", "name": "First Commonwealth Bank - Oakwood Square Office", "phone": "1-330-313-8930", "website": "https://www.fcbanking.com/branch-locations/ohio/canton/oakwood-square-office/6252-middlebranch-ave-ne/", "opening_hours": "Mo 9:00 a.m. - 5:00 p.m.,Tu 9:00 a.m. - 5:00 p.m.,We 9:00 a.m. - 5:00 p.m.,Th 9:00 a.m. - 5:00 p.m.,Fr 9:00 a.m. - 5:00 p.m.,Sa 9:00 a.m. - 1:00 p.m.", "brand": "First Commonwealth Bank", "brand:wikidata": "Q5452773"}, "geometry": {"type": "Point", "coordinates": [-81.33413, 40.87151]}},
{"type": "Feature", "id": "QtLdnWQeQNxXvUuaiPKVvfMDqNU=", "properties": {"ref": "https://www.fcbanking.com/branch-locations/ohio/massillon/massillon-office/140-lincoln-way-w/", "@spider": "fcbanking", "addr:full": "140 Lincoln Way W", "addr:city": "Massillon", "addr:state": "OH", "addr:postcode": "44647", "name": "First Commonwealth Bank - Massillon Office", "phone": "1-330-481-2350", "website": "https://www.fcbanking.com/branch-locations/ohio/massillon/massillon-office/140-lincoln-way-w/", "opening_hours": "Mo 9:00 a.m. - 5:00 p.m.,Tu 9:00 a.m. - 5:00 p.m.,We 9:00 a.m. - 5:00 p.m.,Th 9:00 a.m. - 5:00 p.m.,Fr 9:00 a.m. - 5:00 p.m.,Sa 9:00 a.m. - 1:00 p.m.", "brand": "First Commonwealth Bank", "brand:wikidata": "Q5452773"}, "geometry": {"type": "Point", "coordinates": [-81.52403, 40.79622]}},
{"type": "Feature", "id": "PEhslF9oL8yGKqNtVyX4fnkOwlA=", "properties": {"ref": "https://www.fcbanking.com/branch-locations/ohio/massillon/foxboro-office/5594-wales-ave-nw/", "@spider": "fcbanking", "addr:full": "5594 Wales Ave NW", "addr:city": "Massillon", "addr:state": "OH", "addr:postcode": "44646", "name": "First Commonwealth Bank - Foxboro Office", "phone": "1-330-481-2141", "website": "https://www.fcbanking.com/branch-locations/ohio/massillon/foxboro-office/5594-wales-ave-nw/", "opening_hours": "Mo 9:00 a.m. - 5:00 p.m.,Tu 9:00 a.m. - 5:00 p.m.,We 9:00 a.m. - 5:00 p.m.,Th 9:00 a.m. - 5:00 p.m.,Fr 9:00 a.m. - 5:00 p.m.,Sa 9:00 a.m. - 1:00 p.m.", "brand": "First Commonwealth Bank", "brand:wikidata": "Q5452773"}, "geometry": {"type": "Point", "coordinates": [-81.48457, 40.86298]}},
{"type": "Feature", "id": "Wv_NRN2rfQ6j9ulp08_1L4VwJu0=", "properties": {"ref": "https://www.fcbanking.com/branch-locations/ohio/delaware/west-central-office/980a-w-central-ave/", "@spider": "fcbanking", "addr:full": "980A W Central Ave", "addr:city": "Delaware", "addr:state": "OH", "addr:postcode": "43015", "name": "First Commonwealth Bank - West Central Office", "phone": "1-740-548-3400", "website": "https://www.fcbanking.com/branch-locations/ohio/delaware/west-central-office/980a-w-central-ave/", "opening_hours": "Mo 9:00 a.m. - 5:00 p.m.,Tu 9:00 a.m. - 5:00 p.m.,We 9:00 a.m. - 5:00 p.m.,Th 9:00 a.m. - 5:00 p.m.,Fr 9:00 a.m. - 5:00 p.m.,Sa 9:00 a.m. - 1:00 p.m.", "brand": "First Commonwealth Bank", "brand:wikidata": "Q5452773"}, "geometry": {"type": "Point", "coordinates": [-83.095924, 40.3075455]}},
{"type": "Feature", "id": "s3fjXhwLH4jm6uk99dBWKjsuoj4=", "properties": {"ref": "https://www.fcbanking.com/branch-locations/ohio/lewis-center/olentangy-crossings-office/81-gallopers-rdg-e/", "@spider": "fcbanking", "addr:full": "81 Gallopers Rdg E", "addr:city": "Lewis Center", "addr:state": "OH", "addr:postcode": "43035", "name": "First Commonwealth Bank - Olentangy Crossings Office", "phone": "1-740-548-3230", "website": "https://www.fcbanking.com/branch-locations/ohio/lewis-center/olentangy-crossings-office/81-gallopers-rdg-e/", "opening_hours": "Mo 9:00 a.m. - 5:00 p.m.,Tu 9:00 a.m. - 5:00 p.m.,We 9:00 a.m. - 5:00 p.m.,Th 9:00 a.m. - 5:00 p.m.,Fr 9:00 a.m. - 5:00 p.m.,Sa 9:00 a.m. - 1:00 p.m.", "brand": "First Commonwealth Bank", "brand:wikidata": "Q5452773"}, "geometry": {"type": "Point", "coordinates": [-83.02895, 40.2034]}},
{"type": "Feature", "id": "lb_ALha_qw95JK1BMY5z-RH21DY=", "properties": {"ref": "https://www.fcbanking.com/branch-locations/ohio/louisville/louisville-office/308-e-gorgas-st/", "@spider": "fcbanking", "addr:full": "308 E Gorgas St", "addr:city": "Louisville", "addr:state": "OH", "addr:postcode": "44641", "name": "First Commonwealth Bank - Louisville Office", "phone": "1-330-693-5350", "website": "https://www.fcbanking.com/branch-locations/ohio/louisville/louisville-office/308-e-gorgas-st/", "opening_hours": "Mo 9:00 a.m. - 5:00 p.m.,Tu 9:00 a.m. - 5:00 p.m.,We 9:00 a.m. - 5:00 p.m.,Th 9:00 a.m. - 5:00 p.m.,Fr 9:00 a.m. - 5:00 p.m.,Sa 9:00 a.m. - 1:00 p.m.", "brand": "First Commonwealth Bank", "brand:wikidata": "Q5452773"}, "geometry": {"type": "Point", "coordinates": [-81.25771, 40.83607]}},
{"type": "Feature", "id": "7Mlf6z7pGdqsDaOlCMCOgVBNqdo=", "properties": {"ref": "https://www.fcbanking.com/branch-locations/ohio/delaware/delaware-center-office/199-s-sandusky-st/", "@spider": "fcbanking", "addr:full": "199 S Sandusky St", "addr:city": "Delaware", "addr:state": "OH", "addr:postcode": "43015", "name": "First Commonwealth Bank - Delaware Center Office", "phone": "1-740-548-3440", "website": "https://www.fcbanking.com/branch-locations/ohio/delaware/delaware-center-office/199-s-sandusky-st/", "opening_hours": "Mo 9:00 a.m. - 5:00 p.m.,Tu 9:00 a.m. - 5:00 p.m.,We 9:00 a.m. - 5:00 p.m.,Th 9:00 a.m. - 5:00 p.m.,Fr 9:00 a.m. - 5:00 p.m.,Sa 9:00 a.m. - 1:00 p.m.", "brand": "First Commonwealth Bank", "brand:wikidata": "Q5452773"}, "geometry": {"type": "Point", "coordinates": [-83.06795, 40.29221]}},
{"type": "Feature", "id": "ht5YLyQIh78heZAqUWeWlar7Szw=", "properties": {"ref": "https://www.fcbanking.com/branch-locations/ohio/columbus/short-north-office/647-n-high-st/", "@spider": "fcbanking", "addr:full": "647 N High St", "addr:city": "Columbus", "addr:state": "OH", "addr:postcode": "43215", "name": "First Commonwealth Bank - Short North Office", "phone": "1-614-241-5600", "website": "https://www.fcbanking.com/branch-locations/ohio/columbus/short-north-office/647-n-high-st/", "opening_hours": "Mo 9:00 a.m. - 5:00 p.m.,Tu 9:00 a.m. - 5:00 p.m.,We 9:00 a.m. - 5:00 p.m.,Th 9:00 a.m. - 5:00 p.m.,Fr 9:00 a.m. - 5:00 p.m.,Sa 9:00 a.m. - 1:00 p.m.", "brand": "First Commonwealth Bank", "brand:wikidata": "Q5452773"}, "geometry": {"type": "Point", "coordinates": [-83.00372, 39.97569]}},
{"type": "Feature", "id": "5unLYBqPPAUdJlNkcmBYydJrDfA=", "properties": {"ref": "https://www.fcbanking.com/branch-locations/ohio/canton/north-plaza-office/1110-30th-st-nw/", "@spider": "fcbanking", "addr:full": "1110 30th St NW", "addr:city": "Canton", "addr:state": "OH", "addr:postcode": "44709", "name": "First Commonwealth Bank - North Plaza Office", "phone": "1-330-265-2520", "website": "https://www.fcbanking.com/branch-locations/ohio/canton/north-plaza-office/1110-30th-st-nw/", "opening_hours": "Mo 9:00 a.m. - 5:00 p.m.,Tu 9:00 a.m. - 5:00 p.m.,We 9:00 a.m. - 5:00 p.m.,Th 9:00 a.m. - 5:00 p.m.,Fr 9:00 a.m. - 5:00 p.m.,Sa 9:00 a.m. - 1:00 p.m.", "brand": "First Commonwealth Bank", "brand:wikidata": "Q5452773"}, "geometry": {"type": "Point", "coordinates": [-81.38322, 40.83094]}},
{"type": "Feature", "id": "Dm4OiceBAqwZXtQODRngTgUFRbQ=", "properties": {"ref": "https://www.fcbanking.com/branch-locations/ohio/canton/belden-village-office/4555-belden-village-st-nw/", "@spider": "fcbanking", "addr:full": "4555 Belden Village St NW", "addr:city": "Canton", "addr:state": "OH", "addr:postcode": "44718", "name": "First Commonwealth Bank - Belden Village Office", "phone": "1-330-280-5490", "website": "https://www.fcbanking.com/branch-locations/ohio/canton/belden-village-office/4555-belden-village-st-nw/", "opening_hours": "Mo 9:00 a.m. - 5:00 p.m.,Tu 9:00 a.m. - 5:00 p.m.,We 9:00 a.m. - 5:00 p.m.,Th 9:00 a.m. - 5:00 p.m.,Fr 9:00 a.m. - 5:00 p.m.,Sa 9:00 a.m. - 1:00 p.m.", "brand": "First Commonwealth Bank", "brand:wikidata": "Q5452773"}, "geometry": {"type": "Point", "coordinates": [-81.43324, 40.85684]}},
{"type": "Feature", "id": "FNeQWnr59efn4W6m-X5xZgQsWNM=", "properties": {"ref": "https://www.fcbanking.com/branch-locations/ohio/canal-fulton/locust-street-office/2150-locust-st-s/", "@spider": "fcbanking", "addr:full": "2150 Locust St S", "addr:city": "Canal Fulton", "addr:state": "OH", "addr:postcode": "44614", "name": "First Commonwealth Bank - Locust Street Office", "phone": "1-234-931-3130", "website": "https://www.fcbanking.com/branch-locations/ohio/canal-fulton/locust-street-office/2150-locust-st-s/", "opening_hours": "Mo 9:00 a.m. - 5:00 p.m.,Tu 9:00 a.m. - 5:00 p.m.,We 9:00 a.m. - 5:00 p.m.,Th 9:00 a.m. - 5:00 p.m.,Fr 9:00 a.m. - 5:00 p.m.,Sa 9:00 a.m. - 1:00 p.m.", "brand": "First Commonwealth Bank", "brand:wikidata": "Q5452773"}, "geometry": {"type": "Point", "coordinates": [-81.57328, 40.88279]}},
{"type": "Feature", "id": "KmefJr6YNR4eWLlUiQwqsZ-14g0=", "properties": {"ref": "https://www.fcbanking.com/branch-locations/ohio/canton/hillsdale-office/2917-whipple-ave-nw/", "@spider": "fcbanking", "addr:full": "2917 Whipple Ave NW", "addr:city": "Canton", "addr:state": "OH", "addr:postcode": "44708", "name": "First Commonwealth Bank - Hillsdale Office", "phone": "1-330-313-8950", "website": "https://www.fcbanking.com/branch-locations/ohio/canton/hillsdale-office/2917-whipple-ave-nw/", "opening_hours": "Mo 9:00 a.m. - 5:00 p.m.,Tu 9:00 a.m. - 5:00 p.m.,We 9:00 a.m. - 5:00 p.m.,Th 9:00 a.m. - 5:00 p.m.,Fr 9:00 a.m. - 5:00 p.m.,Sa 9:00 a.m. - 1:00 p.m.", "brand": "First Commonwealth Bank", "brand:wikidata": "Q5452773"}, "geometry": {"type": "Point", "coordinates": [-81.42487, 40.83124]}},
{"type": "Feature", "id": "AzDzm8AVhf5JGJmqKhvnRGZp6go=", "properties": {"ref": "https://www.fcbanking.com/branch-locations/ohio/delaware/downtown-delaware-office/41-n-sandusky-st/", "@spider": "fcbanking", "addr:full": "41 N Sandusky St", "addr:city": "Delaware", "addr:state": "OH", "addr:postcode": "43015", "name": "First Commonwealth Bank - Downtown Delaware Office", "phone": "1-740-548-3300", "website": "https://www.fcbanking.com/branch-locations/ohio/delaware/downtown-delaware-office/41-n-sandusky-st/", "opening_hours": "Mo 9:00 a.m. - 5:00 p.m.,Tu 9:00 a.m. - 5:00 p.m.,We 9:00 a.m. - 5:00 p.m.,Th 9:00 a.m. - 5:00 p.m.,Fr 9:00 a.m. - 5:00 p.m.,Sa 9:00 a.m. - 1:00 p.m.", "brand": "First Commonwealth Bank", "brand:wikidata": "Q5452773"}, "geometry": {"type": "Point", "coordinates": [-83.06792, 40.30005]}},
{"type": "Feature", "id": "PVNQUXtxRkDnehHmKjFNAwzwsG8=", "properties": {"ref": "https://www.fcbanking.com/branch-locations/ohio/powell/sawmill-parkway-north-office/7319-sawmill-pkwy/", "@spider": "fcbanking", "addr:full": "7319 Sawmill Pkwy", "addr:city": "Powell", "addr:state": "OH", "addr:postcode": "43065", "name": "First Commonwealth Bank - Sawmill Parkway North Office", "phone": "1-740-548-3280", "website": "https://www.fcbanking.com/branch-locations/ohio/powell/sawmill-parkway-north-office/7319-sawmill-pkwy/", "opening_hours": "Mo 9:00 a.m. - 5:00 p.m.,Tu 9:00 a.m. - 5:00 p.m.,We 9:00 a.m. - 5:00 p.m.,Th 9:00 a.m. - 5:00 p.m.,Fr 9:00 a.m. - 5:00 p.m.,Sa 9:00 a.m. - 1:00 p.m.", "brand": "First Commonwealth Bank", "brand:wikidata": "Q5452773"}, "geometry": {"type": "Point", "coordinates": [-83.09555, 40.19633]}},
{"type": "Feature", "id": "vCyamFiGqvODGH1OKxfYbuGHY7I=", "properties": {"ref": "https://www.fcbanking.com/branch-locations/ohio/ashtabula/park-avenue-office/4200-park-ave/", "@spider": "fcbanking", "addr:full": "4200 Park Ave", "addr:city": "Ashtabula", "addr:state": "OH", "addr:postcode": "44004", "name": "First Commonwealth Bank - Park Avenue Office", "phone": "1-440-624-3105", "website": "https://www.fcbanking.com/branch-locations/ohio/ashtabula/park-avenue-office/4200-park-ave/", "opening_hours": "Mo 9:00 a.m. - 5:00 p.m.,Tu 9:00 a.m. - 5:00 p.m.,We 9:00 a.m. - 5:00 p.m.,Th 9:00 a.m. - 5:00 p.m.,Fr 9:00 a.m. - 5:00 p.m.,Sa 9:00 a.m. - 1:00 p.m.", "brand": "First Commonwealth Bank", "brand:wikidata": "Q5452773"}, "geometry": {"type": "Point", "coordinates": [-80.78204, 41.86912]}},
{"type": "Feature", "id": "fZD8XoUC2l_RwLoYJAsaalZJfV0=", "properties": {"ref": "https://www.fcbanking.com/branch-locations/pennsylvania/lock-haven-/lock-haven-office/448-bellefonte-avenue/", "@spider": "fcbanking", "addr:full": "448 Bellefonte Avenue", "addr:city": "Lock Haven ", "addr:state": "PA", "addr:postcode": "17745", "name": "First Commonwealth Bank - Lock Haven Office", "phone": "1-570-263-4323", "website": "https://www.fcbanking.com/branch-locations/pennsylvania/lock-haven-/lock-haven-office/448-bellefonte-avenue/", "opening_hours": "Mo 9:00 a.m. - 5:00 p.m.,Tu 9:00 a.m. - 5:00 p.m.,We 9:00 a.m. - 5:00 p.m.,Th 9:00 a.m. - 5:00 p.m.,Fr 9:00 a.m. - 5:00 p.m.,Sa 9:00 a.m. - 1:00 p.m.", "brand": "First Commonwealth Bank", "brand:wikidata": "Q5452773"}, "geometry": {"type": "Point", "coordinates": [-77.456355, 41.1341372]}},
{"type": "Feature", "id": "NpUXTKlYw39Hpi92X0UgVUZYvr8=", "properties": {"ref": "https://www.fcbanking.com/branch-locations/pennsylvania/lewisburg/lewisburg-weis-office/7125-west-branch-highway/", "@spider": "fcbanking", "addr:full": "7125 West Branch Highway", "addr:city": "Lewisburg", "addr:state": "PA", "addr:postcode": "17837", "name": "First Commonwealth Bank - Lewisburg Weis Office", "phone": "1-570-524-5651", "website": "https://www.fcbanking.com/branch-locations/pennsylvania/lewisburg/lewisburg-weis-office/7125-west-branch-highway/", "opening_hours": "Mo 9:00 a.m. - 5:00 p.m.,Tu 9:00 a.m. - 5:00 p.m.,We 9:00 a.m. - 5:00 p.m.,Th 9:00 a.m. - 5:00 p.m.,Fr 9:00 a.m. - 5:00 p.m.,Sa 9:00 a.m. - 1:00 p.m.", "brand": "First Commonwealth Bank", "brand:wikidata": "Q5452773"}, "geometry": {"type": "Point", "coordinates": [-76.89034, 40.9772251]}},
{"type": "Feature", "id": "YpVIySTjtO6t7WAdznJ3M7WJIe4=", "properties": {"ref": "https://www.fcbanking.com/branch-locations/pennsylvania/jersey-shore/jersey-shore-office/222-allegheny-street/", "@spider": "fcbanking", "addr:full": "222 Allegheny Street", "addr:city": "Jersey Shore", "addr:state": "PA", "addr:postcode": "17740", "name": "First Commonwealth Bank - Jersey Shore Office", "phone": "1-570-865-3192", "website": "https://www.fcbanking.com/branch-locations/pennsylvania/jersey-shore/jersey-shore-office/222-allegheny-street/", "opening_hours": "Mo 9:00 a.m. - 5:00 p.m.,Tu 9:00 a.m. - 5:00 p.m.,We 9:00 a.m. - 5:00 p.m.,Th 9:00 a.m. - 5:00 p.m.,Fr 9:00 a.m. - 5:00 p.m.,Sa 9:00 a.m. - 1:00 p.m.", "brand": "First Commonwealth Bank", "brand:wikidata": "Q5452773"}, "geometry": {"type": "Point", "coordinates": [-77.2566683, 41.2029134]}}]}