{"type":"FeatureCollection","features":[{"type": "Feature", "id": "-34azp_CSm8kYwkjcuuKAERj8pU=", "properties": {"ref": "new-york---brooklyn", "@spider": "federal_savings_bank", "addr:full": "1412 Avenue J , Ste. 3C", "addr:city": "Brooklyn", "addr:state": "NY", "addr:postcode": "11230", "addr:country": "US", "name": "Brooklyn, New York", "phone": "(718) 339-5700", "website": "https://www.thefederalsavingsbank.com:443/about/our-locations/new-york---brooklyn"}},
{"type": "Feature", "id": "dc6dDNWR9JrFiQE3WSZdhm_vxnk=", "properties": {"ref": "nebraska---omaha", "@spider": "federal_savings_bank", "addr:full": "1406 Veterans Drive, Ste 213", "addr:city": "Elkhorn", "addr:state": "NE", "addr:postcode": "68022", "addr:country": "US", "name": "Omaha, Nebraska", "website": "https://www.thefederalsavingsbank.com:443/about/our-locations/nebraska---omaha"}},
{"type": "Feature", "id": "x_10qGEzXVWZ2s9rxUMHvt2iPkw=", "properties": {"ref": "new-jersey---hackensack", "@spider": "federal_savings_bank", "addr:full": "2 University Plaza, Ste. 600", "addr:city": "Hackensack", "addr:state": "NJ", "addr:postcode": "07601", "addr:country": "US", "name": "Hackensack, New Jersey", "phone": "(201) 225-8300", "website": "https://www.thefederalsavingsbank.com:443/about/our-locations/new-jersey---hackensack"}},
{"type": "Feature", "id": "SgS2yR9hg9-okM-cRHVzFgqNEoA=", "properties": {"ref": "massachusetts---woburn", "@spider": "federal_savings_bank", "addr:full": "400 TradeCenter Dr., Ste .5757", "addr:city": "Woburn", "addr:state": "MA", "addr:postcode": "01801", "addr:country": "US", "name": "Woburn, Massachusetts", "website": "https://www.thefederalsavingsbank.com:443/about/our-locations/massachusetts---woburn"}},
{"type": "Feature", "id": "OPA9nkFViZ37K7lv3gkdc-xOP-4=", "properties": {"ref": "arizona---chandler", "@spider": "federal_savings_bank", "addr:full": "5670 W. Chandler Blvd. Ste. 210", "addr:city": "Chandler", "addr:state": "AZ", "addr:postcode": "85226", "addr:country": "US", "name": "Chandler, Arizona", "phone": "(480) 530-2000", "website": "https://www.thefederalsavingsbank.com:443/about/our-locations/arizona---chandler"}},
{"type": "Feature", "id": "axm9f7XCKOv3qbkPl2VC1K6GSoA=", "properties": {"ref": "michigan---detroit", "@spider": "federal_savings_bank", "addr:full": "19500 Victor Pkwy., Ste. 325  ", "addr:city": " Livonia", "addr:state": "MI", "addr:postcode": "48152", "addr:country": "US", "name": "Detroit, Michigan", "phone": "(313) 281-5080", "website": "https://www.thefederalsavingsbank.com:443/about/our-locations/michigan---detroit"}},
{"type": "Feature", "id": "zKlm7iF0fmhetAaqybudAEi9wj0=", "properties": {"ref": "new-york---bronx", "@spider": "federal_savings_bank", "addr:full": "961 Morris Park Ave.", "addr:city": "Bronx", "addr:state": "NY", "addr:postcode": "10462", "addr:country": "US", "name": "New York - Bronx", "phone": "(347) 202-6550", "website": "https://www.thefederalsavingsbank.com:443/about/our-locations/new-york---bronx"}},
{"type": "Feature", "id": "ggzV6qJ172hQtTAknOjm3UpsVZg=", "properties": {"ref": "new-jersey---lakewood", "@spider": "federal_savings_bank", "addr:full": "200 Boulevard of the Americas, Ste. 103", "addr:city": "Lakewood", "addr:state": "NJ", "addr:postcode": "08701", "addr:country": "US", "name": "Lakewood, New Jersey", "phone": "(732) 719-8750", "website": "https://www.thefederalsavingsbank.com:443/about/our-locations/new-jersey---lakewood"}},
{"type": "Feature", "id": "voPEdpHlY0RcHpjtkHCdUFet3Lg=", "properties": {"ref": "new-york---new-york", "@spider": "federal_savings_bank", "addr:full": "11 Broadway, Ste. 1565", "addr:city": "New York", "addr:state": "NY", "addr:postcode": "10004", "addr:country": "US", "name": "New York, New York", "phone": "(646) 568-3600", "website": "https://www.thefederalsavingsbank.com:443/about/our-locations/new-york---new-york"}},
{"type": "Feature", "id": "w-T8j30SpwD_BHzJW5hOOaPD_2A=", "properties": {"ref": "new-york---queens", "@spider": "federal_savings_bank", "addr:full": "150-20 Hillside Ave.", "addr:city": "Jamaica", "addr:state": "NY", "addr:postcode": "11432", "addr:country": "US", "name": "Queens, New York", "phone": "(718) 412-8244", "website": "https://www.thefederalsavingsbank.com:443/about/our-locations/new-york---queens"}},
{"type": "Feature", "id": "rlJEdKLCsCD8I57GPAQ7ZdgQ7mY=", "properties": {"ref": "new-york---melville", "@spider": "federal_savings_bank", "addr:full": "395 North Service Rd., Ste. 407W", "addr:city": "Melville", "addr:state": "NY", "addr:postcode": "11747", "addr:country": "US", "name": "Melville, New York", "phone": "(516) 430-5555", "website": "https://www.thefederalsavingsbank.com:443/about/our-locations/new-york---melville"}},
{"type": "Feature", "id": "wyUTaRQ0mUW6J_h9qmWuQStrfTk=", "properties": {"ref": "virginia---reston", "@spider": "federal_savings_bank", "addr:full": "12007 Sunrise Valley Dr., Ste 100", "addr:city": "Reston", "addr:state": "VA", "addr:postcode": "20191", "addr:country": "US", "name": "Reston, Virginia", "phone": "(571) 559-1390", "website": "https://www.thefederalsavingsbank.com:443/about/our-locations/virginia---reston"}},
{"type": "Feature", "id": "hmMOBl3CVAKsRZOvbabypBYdVAk=", "properties": {"ref": "maryland---ellicott-city", "@spider": "federal_savings_bank", "addr:full": "6095 Marshalee Dr., Ste. 210", "addr:city": "Elkridge", "addr:state": "MD", "addr:postcode": "21075", "addr:country": "US", "name": "Ellicott City, Maryland", "phone": "(410) 844-0200", "website": "https://www.thefederalsavingsbank.com:443/about/our-locations/maryland---ellicott-city"}},
{"type": "Feature", "id": "u2pwD_z1u85WcVujxaPjWGnrVXY=", "properties": {"ref": "virginia---fredericksburg", "@spider": "federal_savings_bank", "addr:full": "2300 Fall Hill Ave., Ste. 240", "addr:city": "Fredericksburg", "addr:state": "VA", "addr:postcode": "22401", "addr:country": "US", "name": "Fredericksburg, Virginia", "phone": "(540) 654-7768", "website": "https://www.thefederalsavingsbank.com:443/about/our-locations/virginia---fredericksburg"}},
{"type": "Feature", "id": "2UOiXpfhwx3oOzTwFgqHeuNaArQ=", "properties": {"ref": "maryland---timonium-cd", "@spider": "federal_savings_bank", "addr:full": "201 W. Padonia Rd., Ste. 200", "addr:city": "Timonium", "addr:state": "MD", "addr:postcode": "21093", "addr:country": "US", "name": "Timonium, Maryland", "phone": "(443) 539-7015", "website": "https://www.thefederalsavingsbank.com:443/about/our-locations/maryland---timonium-cd"}},
{"type": "Feature", "id": "mSFDpZTNkVFCKueJU_-S1p5A4qk=", "properties": {"ref": "texas---frisco", "@spider": "federal_savings_bank", "addr:full": "7500 Dallas Pkwy., Ste. 450", "addr:city": "Plano", "addr:state": "TX", "addr:postcode": "75024 ", "addr:country": "US", "name": "Frisco, Texas", "phone": "(469) 365-2023", "website": "https://www.thefederalsavingsbank.com:443/about/our-locations/texas---frisco"}},
{"type": "Feature", "id": "zZoa41q4sHubYre3BhaFi2IUj28=", "properties": {"ref": "kansas---overland-park", "@spider": "federal_savings_bank", "addr:full": "7171 W 95th St., Ste 300", "addr:city": "Overland Park", "addr:state": "KS", "addr:postcode": "66212", "addr:country": "US", "name": "Overland Park, Kansas", "phone": "(913) 766-2500", "website": "https://www.thefederalsavingsbank.com:443/about/our-locations/kansas---overland-park"}},
{"type": "Feature", "id": "SxrPMI-qGMXsCISaJ4lwLG-Ci5s=", "properties": {"ref": "maryland---columbia", "@spider": "federal_savings_bank", "addr:full": "6810 Deerpath Road, Suite 510", "addr:city": "Elkridge", "addr:state": "MD", "addr:postcode": "21075", "addr:country": "US", "name": "Columbia, Maryland", "phone": "(240) 377-3340", "website": "https://www.thefederalsavingsbank.com:443/about/our-locations/maryland---columbia"}},
{"type": "Feature", "id": "FKvIDOqwh5HdtYT4rSVMzfFEj4c=", "properties": {"ref": "ohio---pickerington", "@spider": "federal_savings_bank", "addr:full": "10400 Blacklick Eastern Rd. Ste. 101", "addr:city": "Pickerington", "addr:state": "OH", "addr:postcode": "43147", "addr:country": "US", "name": "Pickerington, Ohio", "phone": "(614) 300-9300", "website": "https://www.thefederalsavingsbank.com:443/about/our-locations/ohio---pickerington"}},
{"type": "Feature", "id": "rKIne4toL2GhQmj-qKhpEAfWLL0=", "properties": {"ref": "indiana---indianapolis", "@spider": "federal_savings_bank", "addr:full": "8250 Haverstick Rd., Ste. 205", "addr:city": "Indianapolis", "addr:state": "IN", "addr:postcode": "46240", "addr:country": "US", "name": "Indianapolis, Indiana", "phone": "(317) 522-9345", "website": "https://www.thefederalsavingsbank.com:443/about/our-locations/indiana---indianapolis"}},
{"type": "Feature", "id": "muK9TqF9xh4oWqZ_oZdjfDFj_gE=", "properties": {"ref": "virginia---newport-news", "@spider": "federal_savings_bank", "addr:full": "603 Pilot House Dr., Ste. 225", "addr:city": "Newport News", "addr:state": "VA", "addr:postcode": "23606", "addr:country": "US", "name": "Newport News, Virginia", "phone": "(757) 273-9015", "website": "https://www.thefederalsavingsbank.com:443/about/our-locations/virginia---newport-news"}},
{"type": "Feature", "id": "EMV6jTP45oRqOZQru_HFR2sed4U=", "properties": {"ref": "virginia---vienna", "@spider": "federal_savings_bank", "addr:full": "8230 Old Courthouse Rd., Ste. 370", "addr:city": "Vienna", "addr:state": "VA", "addr:postcode": "22182", "addr:country": "US", "name": "Vienna, Virginia", "phone": "(703) 996-4590", "website": "https://www.thefederalsavingsbank.com:443/about/our-locations/virginia---vienna"}},
{"type": "Feature", "id": "5vjyrpyDZYjyIs9BdSbk7JHnRig=", "properties": {"ref": "virginia---alexandria", "@spider": "federal_savings_bank", "addr:full": "320 King St., Ste. 200", "addr:city": "Alexandria", "addr:state": "VA", "addr:postcode": "22314", "addr:country": "US", "name": "Alexandria, Virginia", "phone": "(571) 495-6049", "website": "https://www.thefederalsavingsbank.com:443/about/our-locations/virginia---alexandria"}},
{"type": "Feature", "id": "D-GzcG1V51tisMWRNyIH-X_lAEU=", "properties": {"ref": "tennessee---nashville", "@spider": "federal_savings_bank", "addr:full": "5410 Maryland Way, Ste. 120", "addr:city": "Brentwood", "addr:state": "TN", "addr:postcode": "37027", "addr:country": "US", "name": "Nashville, Tennessee", "phone": "(615) 246-5300", "website": "https://www.thefederalsavingsbank.com:443/about/our-locations/tennessee---nashville"}},
{"type": "Feature", "id": "2eRtJ3TX5J88WRd4Lb61xCjXFuM=", "properties": {"ref": "north-carolina---raleigh", "@spider": "federal_savings_bank", "addr:full": "1151 SE Cary Pkwy., Ste.104", "addr:city": "Cary", "addr:state": "NC", "addr:postcode": "27518", "addr:country": "US", "name": "Raleigh, North Carolina", "phone": "(919) 415-0012", "website": "https://www.thefederalsavingsbank.com:443/about/our-locations/north-carolina---raleigh"}},
{"type": "Feature", "id": "YrY6mYOBpmpU0hqqkGJNQlrKnZ4=", "properties": {"ref": "indiana---bloomington", "@spider": "federal_savings_bank", "addr:full": "1355 W Bloomfield Rd, Ste 4", "addr:city": "Bloomington", "addr:state": "IN", "addr:postcode": "47403", "addr:country": "US", "name": "Bloomington, Indiana", "phone": "(812) 803-2800", "website": "https://www.thefederalsavingsbank.com:443/about/our-locations/indiana---bloomington"}},
{"type": "Feature", "id": "eBKYe-vicqMSKK5QUCljup4z6z8=", "properties": {"ref": "illinois---lake-forest", "@spider": "federal_savings_bank", "addr:full": "664 N Western Ave.", "addr:city": "Lake Forest", "addr:state": "IL", "addr:postcode": "60045", "addr:country": "US", "name": "Lake Forest, Illinois", "phone": "(847) 234-8484", "website": "https://www.thefederalsavingsbank.com:443/about/our-locations/illinois---lake-forest"}},
{"type": "Feature", "id": "fi6ivZf5s9dv-ezoGIXcPVmI4eQ=", "properties": {"ref": "illinois---berwyn", "@spider": "federal_savings_bank", "addr:full": "6730 W. Cermak Rd", "addr:city": "Berwyn", "addr:state": "IL", "addr:postcode": "60402", "addr:country": "US", "name": "Berwyn, Illinois", "phone": "(708) 637-6900", "website": "https://www.thefederalsavingsbank.com:443/about/our-locations/illinois---berwyn"}},
{"type": "Feature", "id": "qzFgPyy1M1QuIqgV_EPz1yFqY2Q=", "properties": {"ref": "ohio---columbus", "@spider": "federal_savings_bank", "addr:full": "470 Olde Worthington Rd., Ste. 375", "addr:city": "Westerville", "addr:state": "OH", "addr:postcode": "43082", "addr:country": "US", "name": "Columbus, Ohio", "phone": "(614) 300-9089", "website": "https://www.thefederalsavingsbank.com:443/about/our-locations/ohio---columbus"}},
{"type": "Feature", "id": "yOtYaUBbxH95t-Dg6ZVHWv9yYMU=", "properties": {"ref": "ohio---cleveland", "@spider": "federal_savings_bank", "addr:full": "3690 Orange Place, Ste. 210", "addr:city": "Beachwood", "addr:state": "OH", "addr:postcode": "44122", "addr:country": "US", "name": "Cleveland, Ohio", "phone": "(216) 600-4020", "website": "https://www.thefederalsavingsbank.com:443/about/our-locations/ohio---cleveland"}},
{"type": "Feature", "id": "JRH7EfXn9wwCwgHdMuH0bjJgVHM=", "properties": {"ref": "delaware---selbyville", "@spider": "federal_savings_bank", "addr:full": "38017 Fenwick Shoals Blvd., Ste. 2", "addr:city": "Selbyville", "addr:state": "DE", "addr:postcode": "19975", "addr:country": "US", "name": "Selbyville, Delaware", "phone": "(302) 564-5090", "website": "https://www.thefederalsavingsbank.com:443/about/our-locations/delaware---selbyville"}},
{"type": "Feature", "id": "n0NIG93PaxzA1YFBdFE32vW66nw=", "properties": {"ref": "illinois---orland-park", "@spider": "federal_savings_bank", "addr:full": "9501 W 144th Place, Ste 200", "addr:city": "Orland Park", "addr:state": "IL", "addr:postcode": "60462", "addr:country": "US", "name": "Orland Park, Illinois", "phone": "(708) 553-0840 ", "website": "https://www.thefederalsavingsbank.com:443/about/our-locations/illinois---orland-park"}},
{"type": "Feature", "id": "GdBll2zziouboekd7f08M5AWSKw=", "properties": {"ref": "new-york---saratoga", "@spider": "federal_savings_bank", "addr:full": "177 Rte. 236", "addr:city": "Halfmoon", "addr:state": "NY", "addr:postcode": "12065", "addr:country": "US", "name": "Saratoga, New York", "phone": "(518) 554-0190", "website": "https://www.thefederalsavingsbank.com:443/about/our-locations/new-york---saratoga"}},
{"type": "Feature", "id": "IyZ-lleyl0TPzEO3d5EVS2UROTc=", "properties": {"ref": "illinois---chicago", "@spider": "federal_savings_bank", "addr:full": "4120 W Diversey Ave, Ste C501", "addr:city": "Chicago", "addr:state": "IL", "addr:postcode": "60639", "addr:country": "US", "name": "Chicago, Illinois", "phone": "(312) 738-6000", "website": "https://www.thefederalsavingsbank.com:443/about/our-locations/illinois---chicago"}},
{"type": "Feature", "id": "E6vyvBOiZYhowCxrhDmN1p_Rtkc=", "properties": {"ref": "illinois---oak-brook", "@spider": "federal_savings_bank", "addr:full": "2907 Butterfield Rd., Ste. 200", "addr:city": "Oak Brook", "addr:state": "IL", "addr:postcode": "60523", "addr:country": "US", "name": "Oak Brook, Illinois", "phone": "(630) 388-1300", "website": "https://www.thefederalsavingsbank.com:443/about/our-locations/illinois---oak-brook"}},
{"type": "Feature", "id": "-lXpVGEicM-unR-gttmROZAtsDk=", "properties": {"ref": "florida---miami", "@spider": "federal_savings_bank", "addr:full": "19501 NE 10th Ave, Ste 205", "addr:city": "Miami", "addr:state": "FL", "addr:postcode": "33179", "addr:country": "US", "name": "Miami, Florida", "phone": "(786) 638-4780", "website": "https://www.thefederalsavingsbank.com:443/about/our-locations/florida---miami"}},
{"type": "Feature", "id": "Nu1bhQ-Pi0PVqvNmj_JBBcnZrLY=", "properties": {"ref": "california---irvine", "@spider": "federal_savings_bank", "addr:full": "2600 Michelson Dr., Ste 300", "addr:city": "Irvine", "addr:state": "CA", "addr:postcode": "92612", "addr:country": "US", "name": "Irvine, California", "phone": "(949) 966-2078", "website": "https://www.thefederalsavingsbank.com:443/about/our-locations/california---irvine"}},
{"type": "Feature", "id": "E4qkBRhyEVLLH5t7A5C6hQuOPtI=", "properties": {"ref": "connecticut---ridgefield", "@spider": "federal_savings_bank", "addr:full": "470 Main St., Ste. 314", "addr:city": "Ridgefield", "addr:state": "CT", "addr:postcode": "06877", "addr:country": "US", "name": "Ridgefield, Connecticut", "phone": "(203) 403-0175", "website": "https://www.thefederalsavingsbank.com:443/about/our-locations/connecticut---ridgefield"}},
{"type": "Feature", "id": "p6iSbX3Lqaj61xyomayzFiKJZIo=", "properties": {"ref": "arizona---scottsdale", "@spider": "federal_savings_bank", "addr:full": "8800 North Gainey Center Dr., Ste. 205", "addr:city": "Scottsdale", "addr:state": "AZ", "addr:postcode": "85258", "addr:country": "US", "name": "Scottsdale, Arizona", "phone": "(480) 524-0595", "website": "https://www.thefederalsavingsbank.com:443/about/our-locations/arizona---scottsdale"}},
{"type": "Feature", "id": "bEanSNNbtjB9Cse6pOkthraFl9M=", "properties": {"ref": "colorado---fort-collins", "@spider": "federal_savings_bank", "addr:full": "2038 Caribou Dr., Ste. 200", "addr:city": "Fort Collins", "addr:state": "CO", "addr:postcode": "80525", "addr:country": "US", "name": "Fort Collins, Colorado", "phone": "(970) 207-1100", "website": "https://www.thefederalsavingsbank.com:443/about/our-locations/colorado---fort-collins"}}]}