{"type":"FeatureCollection","features":[{"type": "Feature", "id": "F06PeIDl2iNAu8h0Y8bKnD5ZZ8M=", "properties": {"ref": "227", "@spider": "floor_and_decor", "addr:full": "79315 Highway 111", "addr:city": "La Quinta", "addr:state": "CA", "addr:postcode": "92253", "name": "La Quinta", "phone": "(760) 984-5236", "website": "https://www.flooranddecor.com/store?StoreID=227", "brand": "Floor and Decor"}, "geometry": {"type": "Point", "coordinates": [-116.28, 33.7]}},
{"type": "Feature", "id": "Q00YDDsCPVb32vCkyUkr96D6dDY=", "properties": {"ref": "155", "@spider": "floor_and_decor", "addr:full": "202 E Imperial Hwy", "addr:city": "Fullerton", "addr:state": "CA", "addr:postcode": "92835", "name": "Fullerton", "phone": "(714) 459-0098", "website": "https://www.flooranddecor.com/store?StoreID=155", "brand": "Floor and Decor"}, "geometry": {"type": "Point", "coordinates": [-117.93, 33.92]}},
{"type": "Feature", "id": "X54Ju_B7Un1EPzVSe0jD4nLMaf4=", "properties": {"ref": "248", "@spider": "floor_and_decor", "addr:full": "6417 N Riverside Drive", "addr:city": "Fresno", "addr:state": "CA", "addr:postcode": "93722", "name": "Fresno", "phone": "(559) 705-2490", "website": "https://www.flooranddecor.com/store?StoreID=248", "brand": "Floor and Decor"}, "geometry": {"type": "Point", "coordinates": [-119.91, 36.83]}},
{"type": "Feature", "id": "15iIJ6dK2G4m4BbPKAlNtdNtosk=", "properties": {"ref": "176", "@spider": "floor_and_decor", "addr:full": "9065 Warner Ave.", "addr:city": "Fountain Valley", "addr:state": "CA", "addr:postcode": "92708", "name": "Fountain Valley", "phone": "(714) 845-8156", "website": "https://www.flooranddecor.com/store?StoreID=176", "brand": "Floor and Decor"}, "geometry": {"type": "Point", "coordinates": [-117.97, 33.72]}},
{"type": "Feature", "id": "Oujni8oRbOTZjcG1M0zmuCJLuP8=", "properties": {"ref": "157", "@spider": "floor_and_decor", "addr:full": "8925 Apollo Way", "addr:city": "Downey", "addr:state": "CA", "addr:postcode": "90242", "name": "Downey", "phone": "(562) 674-2584", "website": "https://www.flooranddecor.com/store?StoreID=157", "brand": "Floor and Decor"}, "geometry": {"type": "Point", "coordinates": [-118.13, 33.92]}},
{"type": "Feature", "id": "JxVSdjr7vEKLQgoG0L3nzSpJDK0=", "properties": {"ref": "201", "@spider": "floor_and_decor", "addr:full": "500 Carson Town Center North", "addr:city": "Carson", "addr:state": "CA", "addr:postcode": "90745", "name": "Carson", "phone": "424-337-5626", "website": "https://www.flooranddecor.com/store?StoreID=201", "brand": "Floor and Decor"}, "geometry": {"type": "Point", "coordinates": [-118.29, 33.84]}},
{"type": "Feature", "id": "Wpgzp7p1Xhw19JOK5jdBsDPf63E=", "properties": {"ref": "178", "@spider": "floor_and_decor", "addr:full": "14340 Pe\u00f1asquitos Dr.", "addr:city": "San Diego", "addr:state": "CA", "addr:postcode": "92129", "name": "Carmel Mountain", "phone": "(858) 324-9019", "website": "https://www.flooranddecor.com/store?StoreID=178", "brand": "Floor and Decor"}, "geometry": {"type": "Point", "coordinates": [-117.09, 32.98]}},
{"type": "Feature", "id": "oZQYV6zhuleOiVzI2qshLI_ebWg=", "properties": {"ref": "210", "@spider": "floor_and_decor", "addr:full": "1541 Adrian Rd", "addr:city": "Burlingame", "addr:state": "CA", "addr:postcode": "94010", "name": "Burlingame", "phone": "(650) 689-8296", "website": "https://www.flooranddecor.com/store?StoreID=210", "brand": "Floor and Decor"}, "geometry": {"type": "Point", "coordinates": [-122.37, 37.59]}},
{"type": "Feature", "id": "2pcF78a8lNLZcTbjGcmWDHg0wuQ=", "properties": {"ref": "258", "@spider": "floor_and_decor", "addr:full": "6915 Colony Street", "addr:city": "Bakersfield", "addr:state": "CA", "addr:postcode": "93307", "name": "Bakersfield", "phone": "(661) 885-3416", "website": "https://www.flooranddecor.com/store?StoreID=258", "brand": "Floor and Decor"}, "geometry": {"type": "Point", "coordinates": [-119.03, 35.29]}},
{"type": "Feature", "id": "s5XhdyM1PlwNEb_wMRUYmD9UNAM=", "properties": {"ref": "223", "@spider": "floor_and_decor", "addr:full": "9261 West McDowell Rd.", "addr:city": "Tolleson", "addr:state": "AZ", "addr:postcode": "85353", "name": "Tolleson", "phone": "(480) 444-3501", "website": "https://www.flooranddecor.com/store?StoreID=223", "brand": "Floor and Decor"}, "geometry": {"type": "Point", "coordinates": [-112.26, 33.47]}},
{"type": "Feature", "id": "Kt6CmN3hl3Zle4kGDqRsGWDsrjE=", "properties": {"ref": "141", "@spider": "floor_and_decor", "addr:full": "7125 E Broadway Blvd", "addr:city": "Tucson", "addr:state": "AZ", "addr:postcode": "85710", "name": "Tucson", "phone": "(520) 329-6569", "website": "https://www.flooranddecor.com/store?StoreID=141", "brand": "Floor and Decor"}, "geometry": {"type": "Point", "coordinates": [-110.84, 32.22]}},
{"type": "Feature", "id": "4SmOPRa6u8QFObxH8gsrp3W3yy4=", "properties": {"ref": "115", "@spider": "floor_and_decor", "addr:full": "7500 S Priest Dr", "addr:city": "Tempe", "addr:state": "AZ", "addr:postcode": "85283", "name": "Tempe", "phone": "(480) 838-3046", "website": "https://www.flooranddecor.com/store?StoreID=115", "brand": "Floor and Decor"}, "geometry": {"type": "Point", "coordinates": [-111.96, 33.35]}},
{"type": "Feature", "id": "SHwqTUBO1sdQV_U0VdEHXzoNOj0=", "properties": {"ref": "147", "@spider": "floor_and_decor", "addr:full": "1800 E Highland Ave", "addr:city": "Phoenix", "addr:state": "AZ", "addr:postcode": "85016", "name": "Phoenix", "phone": "(602) 337-2263", "website": "https://www.flooranddecor.com/store?StoreID=147", "brand": "Floor and Decor"}, "geometry": {"type": "Point", "coordinates": [-112.04, 33.51]}},
{"type": "Feature", "id": "I3gcq44y9Mwc0t4XXVtzbxkyQ4g=", "properties": {"ref": "180", "@spider": "floor_and_decor", "addr:full": "7022 East Hampton Ave", "addr:city": "Mesa", "addr:state": "AZ", "addr:postcode": "85209", "name": "Mesa", "phone": "480-824-7826", "website": "https://www.flooranddecor.com/store?StoreID=180", "brand": "Floor and Decor"}, "geometry": {"type": "Point", "coordinates": [-111.68, 33.39]}},
{"type": "Feature", "id": "e4tE1SBpG8Z2hBNcVurs8ADYfOQ=", "properties": {"ref": "111", "@spider": "floor_and_decor", "addr:full": "5880 W Bell Rd", "addr:city": "Glendale", "addr:state": "AZ", "addr:postcode": "85308", "name": "Glendale", "phone": "(602) 441-0292", "website": "https://www.flooranddecor.com/store?StoreID=111", "brand": "Floor and Decor"}, "geometry": {"type": "Point", "coordinates": [-112.19, 33.64]}},
{"type": "Feature", "id": "lp1arlYTx2vZgCZStiO7UvQj5mo=", "properties": {"ref": "186", "@spider": "floor_and_decor", "addr:full": "230 Green Springs Hwy", "addr:city": "Homewood", "addr:state": "AL", "addr:postcode": "35209", "name": "Homewood", "phone": "(205) 909-3054", "website": "https://www.flooranddecor.com/store?StoreID=186", "brand": "Floor and Decor"}, "geometry": {"type": "Point", "coordinates": [-86.82, 33.47]}},
{"type": "Feature", "id": "g74yjdY7pLESn9oIwzg9tPeynTs=", "properties": {"ref": "188", "@spider": "floor_and_decor", "addr:full": "16300 W Bluemound Rd", "addr:city": "Brookfield", "addr:state": "WI", "addr:postcode": "53005", "name": "Brookfield", "phone": "(262) 317-0116", "website": "https://www.flooranddecor.com/store?StoreID=188", "brand": "Floor and Decor"}, "geometry": {"type": "Point", "coordinates": [-88.12, 43.04]}},
{"type": "Feature", "id": "PCtTySmCjA01MIzusZzOGJs_2BM=", "properties": {"ref": "199", "@spider": "floor_and_decor", "addr:full": "17651 Southcenter Pkwy", "addr:city": "Tukwila", "addr:state": "WA", "addr:postcode": "98188", "name": "Tukwila", "phone": "206-505-4201", "website": "https://www.flooranddecor.com/store?StoreID=199", "brand": "Floor and Decor"}, "geometry": {"type": "Point", "coordinates": [-122.26, 47.44]}},
{"type": "Feature", "id": "EVRg58vpRJPRY8NDonoIM0KjUdQ=", "properties": {"ref": "262", "@spider": "floor_and_decor", "addr:full": "7601 S Hosmer St.", "addr:city": "Tacoma", "addr:state": "WA", "addr:postcode": "98408", "name": "Tacoma", "phone": "(253) 620-9691", "website": "https://www.flooranddecor.com/store?StoreID=262", "brand": "Floor and Decor"}, "geometry": {"type": "Point", "coordinates": [-122.46, 47.19]}}]}