{"type":"FeatureCollection","features":[{"type": "Feature", "id": "8A16_ACDg6yhc1IA-WsZSGtSzKA=", "properties": {"ref": "3", "@spider": "fuddruckers", "addr:full": "7724 Louetta Rd Spring, TX 77379 USA", "addr:street": "7724 Louetta Rd", "addr:city": "Spring", "addr:state": "TX", "addr:postcode": "77379", "addr:country": "USA", "name": "Spring", "phone": "(281) 803-6002", "website": "http://www.fuddruckers.com/spring", "opening_hours": "Mo 8:00-22:00 Tu 8:00-22:00 We 8:00-22:00 Th 8:00-22:00 Fr 8:00-22:00 Sa 8:00-22:00 Su 8:00-22:00 ", "brand": "Fuddruckers", "brand:wikidata": "Q5507056"}, "geometry": {"type": "Point", "coordinates": [-95.531272888184, 30.017454147339]}},
{"type": "Feature", "id": "SbUwTSv4ETswVar8qoXmuGcTeiA=", "properties": {"ref": "4", "@spider": "fuddruckers", "addr:full": "7511 FM 1960 West Houston, TX 77070 USA", "addr:street": "7511 FM 1960 West", "addr:city": "Houston", "addr:state": "TX", "addr:postcode": "77070", "addr:country": "USA", "name": "Houston Willowbrook", "phone": "(281) 469-6476", "website": "http://www.fuddruckers.com/houston-willowbrook", "opening_hours": "Mo 8:00-22:00 Tu 8:00-22:00 We 8:00-22:00 Th 8:00-22:00 Fr 8:00-22:00 Sa 8:00-22:00 Su 8:00-22:00 ", "brand": "Fuddruckers", "brand:wikidata": "Q5507056"}, "geometry": {"type": "Point", "coordinates": [-95.540840148926, 29.96436882019]}},
{"type": "Feature", "id": "_uQY6SowftX67_6MDJTKBmVb9aY=", "properties": {"ref": "12", "@spider": "fuddruckers", "addr:full": "8941 North Black Canyon Hwy Phoenix, AZ 85021 USA", "addr:street": "8941 North Black Canyon Hwy", "addr:city": "Phoenix", "addr:state": "AZ", "addr:postcode": "85021", "addr:country": "USA", "name": "Phoenix", "phone": "(602) 870-1111", "website": "http://www.fuddruckers.com/phoenix", "opening_hours": "Mo 8:00-22:00 Tu 8:00-22:00 We 8:00-22:00 Th 8:00-22:00 Fr 8:00-22:00 Sa 8:00-22:00 Su 8:00-22:00 ", "brand": "Fuddruckers", "brand:wikidata": "Q5507056"}, "geometry": {"type": "Point", "coordinates": [-112.116249084473, 33.566989898682]}},
{"type": "Feature", "id": "vsx_LufcNlNYrt1e0UngtfLpWs4=", "properties": {"ref": "13", "@spider": "fuddruckers", "addr:full": "2290 Buckthorn Place Woodlands, TX 77381 USA", "addr:street": "2290 Buckthorn Place", "addr:city": "Woodlands", "addr:state": "TX", "addr:postcode": "77381", "addr:country": "USA", "name": "The Woodlands", "phone": "(281) 367-1343", "website": "http://www.fuddruckers.com/woodlands", "opening_hours": "Mo 8:00-22:00 Tu 8:00-22:00 We 8:00-22:00 Th 8:00-22:00 Fr 8:00-22:00 Sa 8:00-22:00 Su 8:00-22:00 ", "brand": "Fuddruckers", "brand:wikidata": "Q5507056"}, "geometry": {"type": "Point", "coordinates": [-95.469543457031, 30.141021728516]}},
{"type": "Feature", "id": "tDZiuw9ZeoES9Au0OHJxShZC7a4=", "properties": {"ref": "17", "@spider": "fuddruckers", "addr:full": "Homestead Business Park Billings, MT 59102 USA", "addr:street": "Homestead Business Park", "addr:city": "Billings", "addr:state": "MT", "addr:postcode": "59102", "addr:country": "USA", "name": "Billings Homestead", "phone": "(406) 656-5455", "website": "http://www.fuddruckers.com/billings-homestead", "opening_hours": "Mo 8:00-22:00 Tu 8:00-22:00 We 8:00-22:00 Th 8:00-22:00 Fr 8:00-22:00 Sa 8:00-22:00 Su 8:00-22:00 ", "brand": "Fuddruckers", "brand:wikidata": "Q5507056"}, "geometry": {"type": "Point", "coordinates": [-108.565864562988, 45.752498626709]}},
{"type": "Feature", "id": "lGKEfAUiKSDwo29VCx7Iuz1aAP0=", "properties": {"ref": "22", "@spider": "fuddruckers", "addr:full": "1411-A N Valley Mills Dr Waco, TX 76710 USA", "addr:street": "1411-A N Valley Mills Dr", "addr:city": "Waco", "addr:state": "TX", "addr:postcode": "76710", "addr:country": "USA", "name": "Waco", "phone": "(254) 776-0961", "website": "http://www.fuddruckers.com/waco", "opening_hours": "Mo 8:00-22:00 Tu 8:00-22:00 We 8:00-22:00 Th 8:00-22:00 Fr 8:00-22:00 Sa 8:00-22:00 Su 8:00-22:00 ", "brand": "Fuddruckers", "brand:wikidata": "Q5507056"}, "geometry": {"type": "Point", "coordinates": [-97.191497802734, 31.531784057617]}},
{"type": "Feature", "id": "OmbeObJulPpVa17W0pkT41m3b4Q=", "properties": {"ref": "23", "@spider": "fuddruckers", "addr:full": "4511 North Midkiff Rd #C-22 Midland, TX 79705 USA", "addr:street": "4511 North Midkiff Rd #C-22", "addr:city": "Midland", "addr:state": "TX", "addr:postcode": "79705", "addr:country": "USA", "name": "Midland", "phone": "(432) 689-0448", "website": "http://www.fuddruckers.com/midland", "opening_hours": "Mo 8:00-22:00 Tu 8:00-22:00 We 8:00-22:00 Th 8:00-22:00 Fr 8:00-22:00 Sa 8:00-22:00 Su 8:00-22:00 ", "brand": "Fuddruckers", "brand:wikidata": "Q5507056"}, "geometry": {"type": "Point", "coordinates": [-102.131004333496, 32.031108856201]}},
{"type": "Feature", "id": "O6T-mj3CTYcZZym7_YMeAijPDIs=", "properties": {"ref": "30", "@spider": "fuddruckers", "addr:full": "1509 John B White Sr Blvd Spartanburg, SC 29301 USA", "addr:street": "1509 John B White Sr Blvd", "addr:city": "Spartanburg", "addr:state": "SC", "addr:postcode": "29301", "addr:country": "USA", "name": "Spartanburg", "phone": "(864) 576-8329", "website": "http://www.fuddruckers.com/spartanburg", "opening_hours": "Mo 8:00-22:00 Tu 8:00-22:00 We 8:00-22:00 Th 8:00-22:00 Fr 8:00-22:00 Sa 8:00-22:00 Su 8:00-22:00 ", "brand": "Fuddruckers", "brand:wikidata": "Q5507056"}, "geometry": {"type": "Point", "coordinates": [-81.971702575684, 34.923110961914]}},
{"type": "Feature", "id": "2B7byxv_lMRctNtp6VPRaFZCjGk=", "properties": {"ref": "33", "@spider": "fuddruckers", "addr:full": "2373 Austin Pkwy Flint, MI 48504 USA", "addr:street": "2373 Austin Pkwy", "addr:city": "Flint", "addr:state": "MI", "addr:postcode": "48504", "addr:country": "USA", "name": "Flint", "phone": "810-820-8584", "website": "http://www.fuddruckers.com/flint", "opening_hours": "Mo 8:00-22:00 Tu 8:00-22:00 We 8:00-22:00 Th 8:00-22:00 Fr 8:00-22:00 Sa 8:00-22:00 Su 8:00-22:00 ", "brand": "Fuddruckers", "brand:wikidata": "Q5507056"}, "geometry": {"type": "Point", "coordinates": [-83.739295959473, 42.992431640625]}},
{"type": "Feature", "id": "RIeBifWCRoXa90_pR_-jAyyPDms=", "properties": {"ref": "35", "@spider": "fuddruckers", "addr:full": "40955 Van Dyke Sterling Heights, MI 48313 USA", "addr:street": "40955 Van Dyke", "addr:city": "Sterling Heights", "addr:state": "MI", "addr:postcode": "48313", "addr:country": "USA", "name": "Sterling Heights - Van Dyke", "phone": "(586) 977-7760", "website": "http://www.fuddruckers.com/sterling-heights-van-dyke", "opening_hours": "Mo 8:00-22:00 Tu 8:00-22:00 We 8:00-22:00 Th 8:00-22:00 Fr 8:00-22:00 Sa 8:00-22:00 Su 8:00-22:00 ", "brand": "Fuddruckers", "brand:wikidata": "Q5507056"}, "geometry": {"type": "Point", "coordinates": [-83.030906677246, 42.594688415527]}},
{"type": "Feature", "id": "gNKvpFk0xDUGxSndAG5cesNOUv4=", "properties": {"ref": "37", "@spider": "fuddruckers", "addr:full": "2910 8th Street E Saskatoon, CA S7H 0W1 CAN", "addr:street": "2910 8th Street E", "addr:city": "Saskatoon", "addr:state": "CA", "addr:postcode": "S7H 0W1", "addr:country": "CAN", "name": "Saskatoon", "phone": "(306) 955-7777", "website": "http://www.fuddruckers.com/saskatoon", "opening_hours": "Mo 8:00-22:00 Tu 8:00-22:00 We 8:00-22:00 Th 8:00-22:00 Fr 8:00-22:00 Sa 8:00-22:00 Su 8:00-22:00 ", "brand": "Fuddruckers", "brand:wikidata": "Q5507056"}, "geometry": {"type": "Point", "coordinates": [-106.612464904785, 52.114696502686]}},
{"type": "Feature", "id": "K40OaO8_wywtSnJvTyzkXUxOu2I=", "properties": {"ref": "38", "@spider": "fuddruckers", "addr:full": "15400 Kendall Dr Miami, FL 33196 USA", "addr:street": "15400 Kendall Dr", "addr:city": "Miami", "addr:state": "FL", "addr:postcode": "33196", "addr:country": "USA", "name": "Miami Kendall", "phone": "(305) 380-8340", "website": "http://www.fuddruckers.com/miami-kendall-drive", "opening_hours": "Mo 8:00-22:00 Tu 8:00-22:00 We 8:00-22:00 Th 8:00-22:00 Fr 8:00-22:00 Sa 8:00-22:00 Su 8:00-22:00 ", "brand": "Fuddruckers", "brand:wikidata": "Q5507056"}, "geometry": {"type": "Point", "coordinates": [-80.444557189941, 25.684341430664]}},
{"type": "Feature", "id": "PGAHwIK0xEe5-Lf-Zo8ApG7fBQ8=", "properties": {"ref": "39", "@spider": "fuddruckers", "addr:full": "130 Charlotte St Asheville, NC 28801 USA", "addr:street": "130 Charlotte St", "addr:city": "Asheville", "addr:state": "NC", "addr:postcode": "28801", "addr:country": "USA", "name": "Asheville", "phone": "(828) 254-2161", "website": "http://www.fuddruckers.com/asheville", "opening_hours": "Mo 8:00-22:00 Tu 8:00-22:00 We 8:00-22:00 Th 8:00-22:00 Fr 8:00-22:00 Sa 8:00-22:00 Su 8:00-22:00 ", "brand": "Fuddruckers", "brand:wikidata": "Q5507056"}, "geometry": {"type": "Point", "coordinates": [-82.546646118164, 35.604076385498]}},
{"type": "Feature", "id": "RL2catvtBlyOpiSBh9v5N_EfTx4=", "properties": {"ref": "44", "@spider": "fuddruckers", "addr:full": "10752 Sunset Plaza St. Louis, MO 63127 USA", "addr:street": "10752 Sunset Plaza", "addr:city": "St. Louis", "addr:state": "MO", "addr:postcode": "63127", "addr:country": "USA", "name": "St. Louis Sunset Plaza", "phone": "(314) 966-3833", "website": "http://www.fuddruckers.com/saint-louis-sunset-plaza", "opening_hours": "Mo 8:00-22:00 Tu 8:00-22:00 We 8:00-22:00 Th 8:00-22:00 Fr 8:00-22:00 Sa 8:00-22:00 Su 8:00-22:00 ", "brand": "Fuddruckers", "brand:wikidata": "Q5507056"}, "geometry": {"type": "Point", "coordinates": [-90.408508300781, 38.55472946167]}},
{"type": "Feature", "id": "S_nnjoM0ICwdlTzk2iDZQgNcDuM=", "properties": {"ref": "46", "@spider": "fuddruckers", "addr:full": "7059 Dodge St Omaha, NE 68132 USA", "addr:street": "7059 Dodge St", "addr:city": "Omaha", "addr:state": "NE", "addr:postcode": "68132", "addr:country": "USA", "name": "Omaha Dodge Street", "phone": "(402) 934-5745", "website": "http://www.fuddruckers.com/omaha-dodge-street", "opening_hours": "Mo 8:00-22:00 Tu 8:00-22:00 We 8:00-22:00 Th 8:00-22:00 Fr 8:00-22:00 Sa 8:00-22:00 Su 8:00-22:00 ", "brand": "Fuddruckers", "brand:wikidata": "Q5507056"}, "geometry": {"type": "Point", "coordinates": [-96.02188873291, 41.259532928467]}},
{"type": "Feature", "id": "LbEwfHLTc52s3tHLde46DEXN4BQ=", "properties": {"ref": "48", "@spider": "fuddruckers", "addr:full": "900 Broadway Saugus, MA 01906 USA", "addr:street": "900 Broadway", "addr:city": "Saugus", "addr:state": "MA", "addr:postcode": "01906", "addr:country": "USA", "name": "Saugus", "phone": "(781) 233-6399", "website": "http://www.fuddruckers.com/saugus", "opening_hours": "Mo 8:00-22:00 Tu 8:00-22:00 We 8:00-22:00 Th 8:00-22:00 Fr 8:00-22:00 Sa 8:00-22:00 Su 8:00-22:00 ", "brand": "Fuddruckers", "brand:wikidata": "Q5507056"}, "geometry": {"type": "Point", "coordinates": [-71.024963378906, 42.470611572266]}},
{"type": "Feature", "id": "EFwyYeW5FOgeRnuYR8krprDbXcY=", "properties": {"ref": "49", "@spider": "fuddruckers", "addr:full": "1975 Diamond Blvd Suite E-260 Concord, CA 94520 USA", "addr:street": "1975 Diamond Blvd Suite E-260", "addr:city": "Concord", "addr:state": "CA", "addr:postcode": "94520", "addr:country": "USA", "name": "Concord", "phone": "(925) 825-1443", "website": "http://www.fuddruckers.com/concord", "opening_hours": "Mo 8:00-22:00 Tu 8:00-22:00 We 8:00-22:00 Th 8:00-22:00 Fr 8:00-22:00 Sa 8:00-22:00 Su 8:00-22:00 ", "brand": "Fuddruckers", "brand:wikidata": "Q5507056"}, "geometry": {"type": "Point", "coordinates": [-122.057350158691, 37.968952178955]}},
{"type": "Feature", "id": "3RijEJk_mI5ajuGpiJYEq7bfmyo=", "properties": {"ref": "52", "@spider": "fuddruckers", "addr:full": "3101 West 41st St Sioux Falls, SD 57105 USA", "addr:street": "3101 West 41st St", "addr:city": "Sioux Falls", "addr:state": "SD", "addr:postcode": "57105", "addr:country": "USA", "name": "Sioux Falls", "phone": "(605) 336-6282", "website": "http://www.fuddruckers.com/sioux-falls", "opening_hours": "Mo 8:00-22:00 Tu 8:00-22:00 We 8:00-22:00 Th 8:00-22:00 Fr 8:00-22:00 Sa 8:00-22:00 Su 8:00-22:00 ", "brand": "Fuddruckers", "brand:wikidata": "Q5507056"}, "geometry": {"type": "Point", "coordinates": [-96.764663696289, 43.514846801758]}},
{"type": "Feature", "id": "Fh0wdHlfcuzFvxNbZGxFGlkMlY0=", "properties": {"ref": "53", "@spider": "fuddruckers", "addr:full": "1147 Woodruff Rd Greenville, SC 29607 USA", "addr:street": "1147 Woodruff Rd", "addr:city": "Greenville", "addr:state": "SC", "addr:postcode": "29607", "addr:country": "USA", "name": "Greenville", "phone": "(864) 234-7528", "website": "http://www.fuddruckers.com/greenville", "opening_hours": "Mo 8:00-22:00 Tu 8:00-22:00 We 8:00-22:00 Th 8:00-22:00 Fr 8:00-22:00 Sa 8:00-22:00 Su 8:00-22:00 ", "brand": "Fuddruckers", "brand:wikidata": "Q5507056"}, "geometry": {"type": "Point", "coordinates": [-82.293167114258, 34.825046539307]}},
{"type": "Feature", "id": "EORlXlB4XvjEZzpj02crwRPoF_4=", "properties": {"ref": "54", "@spider": "fuddruckers", "addr:full": "3159 Route 46 E Parsippany, NJ 07054 USA", "addr:street": "3159 Route 46 E", "addr:city": "Parsippany", "addr:state": "NJ", "addr:postcode": "07054", "addr:country": "USA", "name": "Parsippany", "phone": "(973) 334-2424", "website": "http://www.fuddruckers.com/parsippany", "opening_hours": "Mo 8:00-22:00 Tu 8:00-22:00 We 8:00-22:00 Th 8:00-22:00 Fr 8:00-22:00 Sa 8:00-22:00 Su 8:00-22:00 ", "brand": "Fuddruckers", "brand:wikidata": "Q5507056"}, "geometry": {"type": "Point", "coordinates": [-74.428039550781, 40.87230682373]}},
{"type": "Feature", "id": "jHSL6FN0TBOGJuXZ-fGUzvmw8So=", "properties": {"ref": "55", "@spider": "fuddruckers", "addr:full": "2101 N King's Hwy Myrtle Beach, SC 29577 USA", "addr:street": "2101 N King's Hwy", "addr:city": "Myrtle Beach", "addr:state": "SC", "addr:postcode": "29577", "addr:country": "USA", "name": "Myrtle Beach King's Highway", "phone": "(843) 946-6887", "website": "http://www.fuddruckers.com/myrtle-beach-kings-highway", "opening_hours": "Mo 8:00-22:00 Tu 8:00-22:00 We 8:00-22:00 Th 8:00-22:00 Fr 8:00-22:00 Sa 8:00-22:00 Su 8:00-22:00 ", "brand": "Fuddruckers", "brand:wikidata": "Q5507056"}, "geometry": {"type": "Point", "coordinates": [-78.87215423584, 33.702415466309]}},
{"type": "Feature", "id": "2uo9n7G-B1L7t3jG-pkI8H3VcDM=", "properties": {"ref": "57", "@spider": "fuddruckers", "addr:full": "10500 Town and Country Way Houston, TX 77024 USA", "addr:street": "10500 Town and Country Way", "addr:city": "Houston", "addr:state": "TX", "addr:postcode": "77024", "addr:country": "USA", "name": "Houston Town & Country", "phone": "(713) 722-7440", "website": "http://www.fuddruckers.com/houston-town-and-country", "opening_hours": "Mo 8:00-22:00 Tu 8:00-22:00 We 8:00-22:00 Th 8:00-22:00 Fr 8:00-22:00 Sa 8:00-22:00 Su 8:00-22:00 ", "brand": "Fuddruckers", "brand:wikidata": "Q5507056"}, "geometry": {"type": "Point", "coordinates": [-95.556015014648, 29.782066345215]}},
{"type": "Feature", "id": "XCyRnYEFvebisDCMQc0046mfiQs=", "properties": {"ref": "58", "@spider": "fuddruckers", "addr:full": "4360 Kingwood Dr Kingwood, TX 77339 USA", "addr:street": "4360 Kingwood Dr", "addr:city": "Kingwood", "addr:state": "TX", "addr:postcode": "77339", "addr:country": "USA", "name": "Kingwood", "phone": "(281) 361-7800", "website": "http://www.fuddruckers.com/kingwood", "opening_hours": "Mo 8:00-22:00 Tu 8:00-22:00 We 8:00-22:00 Th 8:00-22:00 Fr 8:00-22:00 Sa 8:00-22:00 Su 8:00-22:00 ", "brand": "Fuddruckers", "brand:wikidata": "Q5507056"}, "geometry": {"type": "Point", "coordinates": [-95.186225891113, 30.048868179321]}},
{"type": "Feature", "id": "SPGVmlJcQvx6eCUC6tfthC58N38=", "properties": {"ref": "60", "@spider": "fuddruckers", "addr:full": "7470 South Priest Dr Tempe, AZ 85283 USA", "addr:street": "7470 South Priest Dr", "addr:city": "Tempe", "addr:state": "AZ", "addr:postcode": "85283", "addr:country": "USA", "name": "Tempe", "phone": "(480) 413-9114", "website": "http://www.fuddruckers.com/tempe", "opening_hours": "Mo 8:00-22:00 Tu 8:00-22:00 We 8:00-22:00 Th 8:00-22:00 Fr 8:00-22:00 Sa 8:00-22:00 Su 8:00-22:00 ", "brand": "Fuddruckers", "brand:wikidata": "Q5507056"}, "geometry": {"type": "Point", "coordinates": [-111.963500976562, 33.351139068604]}},
{"type": "Feature", "id": "JU0ctMdSTq39OQ4FQYpQd5zCDMU=", "properties": {"ref": "61", "@spider": "fuddruckers", "addr:full": "711 West Hillside Laredo, TX 78041 USA", "addr:street": "711 West Hillside", "addr:city": "Laredo", "addr:state": "TX", "addr:postcode": "78041", "addr:country": "USA", "name": "Laredo", "phone": "(956) 718-4046", "website": "http://www.fuddruckers.com/laredo", "opening_hours": "Mo 8:00-22:00 Tu 8:00-22:00 We 8:00-22:00 Th 8:00-22:00 Fr 8:00-22:00 Sa 8:00-22:00 Su 8:00-22:00 ", "brand": "Fuddruckers", "brand:wikidata": "Q5507056"}, "geometry": {"type": "Point", "coordinates": [-99.501899719238, 27.547159194946]}},
{"type": "Feature", "id": "L-8fjiBFf9577QLhB_Bp-qotoGA=", "properties": {"ref": "62", "@spider": "fuddruckers", "addr:full": "13010 North West Freeway Houston, TX 77040 USA", "addr:street": "13010 North West Freeway", "addr:city": "Houston", "addr:state": "TX", "addr:postcode": "77040", "addr:country": "USA", "name": "Houston Tidwell", "phone": "(713) 462-4508", "website": "http://www.fuddruckers.com/houston-tidwell", "opening_hours": "Mo 8:00-22:00 Tu 8:00-22:00 We 8:00-22:00 Th 8:00-22:00 Fr 8:00-22:00 Sa 8:00-22:00 Su 8:00-22:00 ", "brand": "Fuddruckers", "brand:wikidata": "Q5507056"}, "geometry": {"type": "Point", "coordinates": [-95.497947692871, 29.845958709717]}},
{"type": "Feature", "id": "QxoovFfP-JQ8T42qiyBFMP92ro4=", "properties": {"ref": "64", "@spider": "fuddruckers", "addr:full": "7750 Tidewater Dr #301 Norfolk, VA 23505 USA", "addr:street": "7750 Tidewater Dr #301", "addr:city": "Norfolk", "addr:state": "VA", "addr:postcode": "23505", "addr:country": "USA", "name": "Norfolk", "phone": "(757) 227-5334", "website": "http://www.fuddruckers.com/norfolk", "opening_hours": "Mo 8:00-22:00 Tu 8:00-22:00 We 8:00-22:00 Th 8:00-22:00 Fr 8:00-22:00 Sa 8:00-22:00 Su 8:00-22:00 ", "brand": "Fuddruckers", "brand:wikidata": "Q5507056"}, "geometry": {"type": "Point", "coordinates": [-76.254005432129, 36.914810180664]}},
{"type": "Feature", "id": "9SfuAQtCBd7tx3pxP00sRYKTgoA=", "properties": {"ref": "65", "@spider": "fuddruckers", "addr:full": "111 East Nolana McAllen, TX 78501 USA", "addr:street": "111 East Nolana", "addr:city": "McAllen", "addr:state": "TX", "addr:postcode": "78501", "addr:country": "USA", "name": "Mcallen", "phone": "(956) 631-3833", "website": "http://www.fuddruckers.com/mcallen", "opening_hours": "Mo 8:00-22:00 Tu 8:00-22:00 We 8:00-22:00 Th 8:00-22:00 Fr 8:00-22:00 Sa 8:00-22:00 Su 8:00-22:00 ", "brand": "Fuddruckers", "brand:wikidata": "Q5507056"}, "geometry": {"type": "Point", "coordinates": [-98.211730957031, 26.23814201355]}},
{"type": "Feature", "id": "IryfgPSwnX-3NDRJ1OE4lE85MK4=", "properties": {"ref": "66", "@spider": "fuddruckers", "addr:full": "7704 West Bell Rd Glendale, AZ 85308 USA", "addr:street": "7704 West Bell Rd", "addr:city": "Glendale", "addr:state": "AZ", "addr:postcode": "85308", "addr:country": "USA", "name": "Glendale", "phone": "(623) 979-8826", "website": "http://www.fuddruckers.com/arrowhead", "opening_hours": "Mo 8:00-22:00 Tu 8:00-22:00 We 8:00-22:00 Th 8:00-22:00 Fr 8:00-22:00 Sa 8:00-22:00 Su 8:00-22:00 ", "brand": "Fuddruckers", "brand:wikidata": "Q5507056"}, "geometry": {"type": "Point", "coordinates": [-112.224922180176, 33.639373779297]}},
{"type": "Feature", "id": "fXT8C_ZwKCJpQxi_TJMeoV7Sa80=", "properties": {"ref": "67", "@spider": "fuddruckers", "addr:full": "11023 Shadow Creek Pkwy Pearland, TX 77584 USA", "addr:street": "11023 Shadow Creek Pkwy", "addr:city": "Pearland", "addr:state": "TX", "addr:postcode": "77584", "addr:country": "USA", "name": "Pearland", "phone": "832-379-7670", "website": "http://www.fuddruckers.com/pearland", "opening_hours": "Mo 8:00-22:00 Tu 8:00-22:00 We 8:00-22:00 Th 8:00-22:00 Fr 8:00-22:00 Sa 8:00-22:00 Su 8:00-22:00 ", "brand": "Fuddruckers", "brand:wikidata": "Q5507056"}, "geometry": {"type": "Point", "coordinates": [-95.393211364746, 29.579698562622]}},
{"type": "Feature", "id": "kZvqnAbya-jlATXjl-QeFBMlvrM=", "properties": {"ref": "69", "@spider": "fuddruckers", "addr:full": "20001 Gulf Freeway Webster, TX 77598 USA", "addr:street": "20001 Gulf Freeway", "addr:city": "Webster", "addr:state": "TX", "addr:postcode": "77598", "addr:country": "USA", "name": "Webster", "phone": "(281) 724-2692", "website": "http://www.fuddruckers.com/webster", "opening_hours": "Mo 8:00-22:00 Tu 8:00-22:00 We 8:00-22:00 Th 8:00-22:00 Fr 8:00-22:00 Sa 8:00-22:00 Su 8:00-22:00 ", "brand": "Fuddruckers", "brand:wikidata": "Q5507056"}, "geometry": {"type": "Point", "coordinates": [-95.137054443359, 29.536066055298]}},
{"type": "Feature", "id": "erK-iBN_p6dIhFkWKVxqnH_wRGw=", "properties": {"ref": "70", "@spider": "fuddruckers", "addr:full": "415 W Slaughter Ln Austin, TX 78748 USA", "addr:street": "415 W Slaughter Ln", "addr:city": "Austin", "addr:state": "TX", "addr:postcode": "78748", "addr:country": "USA", "name": "Austin - W. Slaughter Ln.", "phone": "(512) 590-7540", "website": "http://www.fuddruckers.com/austin-slaughter-lane", "opening_hours": "Mo 8:00-22:00 Tu 8:00-22:00 We 8:00-22:00 Th 8:00-22:00 Fr 8:00-22:00 Sa 8:00-22:00 Su 8:00-22:00 ", "brand": "Fuddruckers", "brand:wikidata": "Q5507056"}, "geometry": {"type": "Point", "coordinates": [-97.797233581543, 30.170370101929]}},
{"type": "Feature", "id": "oxRWQJLtsiuvp9PITf8H5_Ejc1M=", "properties": {"ref": "73", "@spider": "fuddruckers", "addr:full": "Rafael Cordero Avenue Caguas, PR 00725 USA", "addr:street": "Rafael Cordero Avenue", "addr:city": "Caguas", "addr:state": "PR", "addr:postcode": "00725", "addr:country": "USA", "name": "Caguas", "phone": "(787) 223-0445", "website": "http://www.fuddruckers.com/caguas", "opening_hours": "Mo 8:00-22:00 Tu 8:00-22:00 We 8:00-22:00 Th 8:00-22:00 Fr 8:00-22:00 Sa 8:00-22:00 Su 8:00-22:00 ", "brand": "Fuddruckers", "brand:wikidata": "Q5507056"}, "geometry": {"type": "Point", "coordinates": [-66.031562805176, 18.233066558838]}},
{"type": "Feature", "id": "aiWuRGxoy4Phb1AWJqPiUnRvHRI=", "properties": {"ref": "74", "@spider": "fuddruckers", "addr:full": "2235 S Goliad St Rockwall, TX 75032 USA", "addr:street": "2235 S Goliad St", "addr:city": "Rockwall", "addr:state": "TX", "addr:postcode": "75032", "addr:country": "USA", "name": "Rockwall", "phone": "(972) 961-9753", "website": "http://www.fuddruckers.com/rockwall", "opening_hours": "Mo 8:00-22:00 Tu 8:00-22:00 We 8:00-22:00 Th 8:00-22:00 Fr 8:00-22:00 Sa 8:00-22:00 Su 8:00-22:00 ", "brand": "Fuddruckers", "brand:wikidata": "Q5507056"}, "geometry": {"type": "Point", "coordinates": [-96.448745727539, 32.907409667969]}},
{"type": "Feature", "id": "E6lQDoPP5f-n9bAzB4Qdr2wwNuA=", "properties": {"ref": "76", "@spider": "fuddruckers", "addr:full": "6455 East Southern Ave Mesa, AZ 85206 USA", "addr:street": "6455 East Southern Ave", "addr:city": "Mesa", "addr:state": "AZ", "addr:postcode": "85206", "addr:country": "USA", "name": "Mesa Superstition Springs", "phone": "(480) 396-3077", "website": "http://www.fuddruckers.com/superstition-springs", "opening_hours": "Mo 8:00-22:00 Tu 8:00-22:00 We 8:00-22:00 Th 8:00-22:00 Fr 8:00-22:00 Sa 8:00-22:00 Su 8:00-22:00 ", "brand": "Fuddruckers", "brand:wikidata": "Q5507056"}, "geometry": {"type": "Point", "coordinates": [-111.691696166992, 33.393501281738]}},
{"type": "Feature", "id": "89pc_XTSNVLd5Py9M57Xj3qwC-Y=", "properties": {"ref": "79", "@spider": "fuddruckers", "addr:full": "3929 Southwest Freeway Houston, TX 77027 USA", "addr:street": "3929 Southwest Freeway", "addr:city": "Houston", "addr:state": "TX", "addr:postcode": "77027", "addr:country": "USA", "name": "Houston Greenway Plaza", "phone": "(713) 621-8222", "website": "http://www.fuddruckers.com/houston-greenway-plaza", "opening_hours": "Mo 8:00-22:00 Tu 8:00-22:00 We 8:00-22:00 Th 8:00-22:00 Fr 8:00-22:00 Sa 8:00-22:00 Su 8:00-22:00 ", "brand": "Fuddruckers", "brand:wikidata": "Q5507056"}, "geometry": {"type": "Point", "coordinates": [-95.439849853516, 29.728214263916]}},
{"type": "Feature", "id": "V9iPt8z932AS94JjCdY5yoaCzNc=", "properties": {"ref": "80", "@spider": "fuddruckers", "addr:full": "11445 Fountain Lake Dr Stafford, TX 77477 USA", "addr:street": "11445 Fountain Lake Dr", "addr:city": "Stafford", "addr:state": "TX", "addr:postcode": "77477", "addr:country": "USA", "name": "Stafford", "phone": "(281) 240-9414", "website": "http://www.fuddruckers.com/stafford", "opening_hours": "Mo 8:00-22:00 Tu 8:00-22:00 We 8:00-22:00 Th 8:00-22:00 Fr 8:00-22:00 Sa 8:00-22:00 Su 8:00-22:00 ", "brand": "Fuddruckers", "brand:wikidata": "Q5507056"}, "geometry": {"type": "Point", "coordinates": [-95.584243774414, 29.638502120972]}},
{"type": "Feature", "id": "nec3hgZ5wjscYljCFl_N_mqHCZg=", "properties": {"ref": "85", "@spider": "fuddruckers", "addr:full": "168 Collier Dr Sevierville, TN 37862 USA", "addr:street": "168 Collier Dr", "addr:city": "Sevierville", "addr:state": "TN", "addr:postcode": "37862", "addr:country": "USA", "name": "Sevierville / Pigeon Forge", "phone": "(865) 453-2221", "website": "http://www.fuddruckers.com/sevierville", "opening_hours": "Mo 8:00-22:00 Tu 8:00-22:00 We 8:00-22:00 Th 8:00-22:00 Fr 8:00-22:00 Sa 8:00-22:00 Su 8:00-22:00 ", "brand": "Fuddruckers", "brand:wikidata": "Q5507056"}, "geometry": {"type": "Point", "coordinates": [-83.56160736084, 35.837738037109]}},
{"type": "Feature", "id": "tVcoweS8HreBrXvlTOIXFzyouUs=", "properties": {"ref": "86", "@spider": "fuddruckers", "addr:full": "4855 Pan American Freeway Albuquerque, NM 87109 USA", "addr:street": "4855 Pan American Freeway", "addr:city": "Albuquerque", "addr:state": "NM", "addr:postcode": "87109", "addr:country": "USA", "name": "Albuquerque Pan American Freeway", "phone": "(505) 344-7449", "website": "http://www.fuddruckers.com/albuquerque-pan-american-freweay", "opening_hours": "Mo 8:00-22:00 Tu 8:00-22:00 We 8:00-22:00 Th 8:00-22:00 Fr 8:00-22:00 Sa 8:00-22:00 Su 8:00-22:00 ", "brand": "Fuddruckers", "brand:wikidata": "Q5507056"}, "geometry": {"type": "Point", "coordinates": [-106.604354858398, 35.136184692383]}},
{"type": "Feature", "id": "DJy-BcK6eQ1Lecscscx4GNi0n9o=", "properties": {"ref": "88", "@spider": "fuddruckers", "addr:full": "3315 10th Ave South Great Falls, MT 59405 USA", "addr:street": "3315 10th Ave South", "addr:city": "Great Falls", "addr:state": "MT", "addr:postcode": "59405", "addr:country": "USA", "name": "Great Falls", "phone": "(406) 727-6988", "website": "http://www.fuddruckers.com/great-falls", "opening_hours": "Mo 8:00-22:00 Tu 8:00-22:00 We 8:00-22:00 Th 8:00-22:00 Fr 8:00-22:00 Sa 8:00-22:00 Su 8:00-22:00 ", "brand": "Fuddruckers", "brand:wikidata": "Q5507056"}, "geometry": {"type": "Point", "coordinates": [-111.249130249023, 47.494365692139]}},
{"type": "Feature", "id": "CPzXRY_ZOc0_EXio2jpCIVM49jA=", "properties": {"ref": "90", "@spider": "fuddruckers", "addr:full": "Hershey Hummelstown, PA 17036 USA", "addr:street": "Hershey", "addr:city": "Hummelstown", "addr:state": "PA", "addr:postcode": "17036", "addr:country": "USA", "name": "Hummelstown", "phone": "(717) 533-5446", "website": "http://www.fuddruckers.com/hummelstown", "opening_hours": "Mo 8:00-22:00 Tu 8:00-22:00 We 8:00-22:00 Th 8:00-22:00 Fr 8:00-22:00 Sa 8:00-22:00 Su 8:00-22:00 ", "brand": "Fuddruckers", "brand:wikidata": "Q5507056"}, "geometry": {"type": "Point", "coordinates": [-76.683288574219, 40.267978668213]}},
{"type": "Feature", "id": "5wULYhGVMFJqe05pwSS8phtEJgg=", "properties": {"ref": "91", "@spider": "fuddruckers", "addr:full": "2519 Knob Creek Rd Johnson City, TN 37604 USA", "addr:street": "2519 Knob Creek Rd", "addr:city": "Johnson City", "addr:state": "TN", "addr:postcode": "37604", "addr:country": "USA", "name": "Johnson City", "phone": "(423) 915-1004", "website": "http://www.fuddruckers.com/johnson-city", "opening_hours": "Mo 8:00-22:00 Tu 8:00-22:00 We 8:00-22:00 Th 8:00-22:00 Fr 8:00-22:00 Sa 8:00-22:00 Su 8:00-22:00 ", "brand": "Fuddruckers", "brand:wikidata": "Q5507056"}, "geometry": {"type": "Point", "coordinates": [-82.406394958496, 36.341384887695]}},
{"type": "Feature", "id": "l80HZDOahHQpEvd1HxYC4qDmLvo=", "properties": {"ref": "93", "@spider": "fuddruckers", "addr:full": "10435 N King's Hwy Myrtle Beach, SC 29572 USA", "addr:street": "10435 N King's Hwy", "addr:city": "Myrtle Beach", "addr:state": "SC", "addr:postcode": "29572", "addr:country": "USA", "name": "Myrtle Beach Briarcliffe", "phone": "(843) 272-8637", "website": "http://www.fuddruckers.com/myrtle-beach-briarcliffe", "opening_hours": "Mo 8:00-22:00 Tu 8:00-22:00 We 8:00-22:00 Th 8:00-22:00 Fr 8:00-22:00 Sa 8:00-22:00 Su 8:00-22:00 ", "brand": "Fuddruckers", "brand:wikidata": "Q5507056"}, "geometry": {"type": "Point", "coordinates": [-78.749481201172, 33.795585632324]}},
{"type": "Feature", "id": "iRLbDmaS5rwG1Tt5gDSN-tKoWDM=", "properties": {"ref": "94", "@spider": "fuddruckers", "addr:full": "2120 Yale Blvd SE Albuquerque, NM 87106 USA", "addr:street": "2120 Yale Blvd SE", "addr:city": "Albuquerque", "addr:state": "NM", "addr:postcode": "87106", "addr:country": "USA", "name": "Albuquerque Yale Blvd", "phone": "(505) 224-2841", "website": "http://www.fuddruckers.com/albuquerque-yale-blvd", "opening_hours": "Mo 8:00-22:00 Tu 8:00-22:00 We 8:00-22:00 Th 8:00-22:00 Fr 8:00-22:00 Sa 8:00-22:00 Su 8:00-22:00 ", "brand": "Fuddruckers", "brand:wikidata": "Q5507056"}, "geometry": {"type": "Point", "coordinates": [-106.621688842773, 35.057605743408]}},
{"type": "Feature", "id": "HYRc5HHKNFRt4UA2C0-NUm_aB8E=", "properties": {"ref": "99", "@spider": "fuddruckers", "addr:full": "25407 Bell Patna Dr Katy, TX 77492 USA", "addr:street": "25407 Bell Patna Dr", "addr:city": "Katy", "addr:state": "TX", "addr:postcode": "77492", "addr:country": "USA", "name": "Katy Bell Patna", "phone": "(281) 644-7616", "website": "http://www.fuddruckers.com/katy-bell-patna", "opening_hours": "Mo 8:00-22:00 Tu 8:00-22:00 We 8:00-22:00 Th 8:00-22:00 Fr 8:00-22:00 Sa 8:00-22:00 Su 8:00-22:00 ", "brand": "Fuddruckers", "brand:wikidata": "Q5507056"}, "geometry": {"type": "Point", "coordinates": [-95.814414978027, 29.776838302612]}},
{"type": "Feature", "id": "lwMyt9yO4KJVnx3tNxtLJVhfCNw=", "properties": {"ref": "104", "@spider": "fuddruckers", "addr:full": "25309 Evergreen Rd Southfield, MI 48075 USA", "addr:street": "25309 Evergreen Rd", "addr:city": "Southfield", "addr:state": "MI", "addr:postcode": "48075", "addr:country": "USA", "name": "Southfield", "phone": "(248) 809-6714", "website": "http://www.fuddruckers.com/southfield", "opening_hours": "Mo 8:00-22:00 Tu 8:00-22:00 We 8:00-22:00 Th 8:00-22:00 Fr 8:00-22:00 Sa 8:00-22:00 Su 8:00-22:00 ", "brand": "Fuddruckers", "brand:wikidata": "Q5507056"}, "geometry": {"type": "Point", "coordinates": [-83.241539001465, 42.475555419922]}},
{"type": "Feature", "id": "0zsdRiLqvxoGZW0SatneFDsanlM=", "properties": {"ref": "105", "@spider": "fuddruckers", "addr:full": "4910 Dublin Blvd Dublin, CA 94568 USA", "addr:street": "4910 Dublin Blvd", "addr:city": "Dublin", "addr:state": "CA", "addr:postcode": "94568", "addr:country": "USA", "name": "Dublin", "phone": "(925) 551-8052", "website": "http://www.fuddruckers.com/dublin", "opening_hours": "Mo 8:00-22:00 Tu 8:00-22:00 We 8:00-22:00 Th 8:00-22:00 Fr 8:00-22:00 Sa 8:00-22:00 Su 8:00-22:00 ", "brand": "Fuddruckers", "brand:wikidata": "Q5507056"}, "geometry": {"type": "Point", "coordinates": [-121.884666442871, 37.703323364258]}},
{"type": "Feature", "id": "tdJG-kdNWCGcrINW7FA1pr0fjq4=", "properties": {"ref": "107", "@spider": "fuddruckers", "addr:full": "10825 E 71st St Tulsa, OK 74133 USA", "addr:street": "10825 E 71st St", "addr:city": "Tulsa", "addr:state": "OK", "addr:postcode": "74133", "addr:country": "USA", "name": "Tulsa", "phone": "(918) 294-3833", "website": "http://www.fuddruckers.com/tulsa", "opening_hours": "Mo 8:00-22:00 Tu 8:00-22:00 We 8:00-22:00 Th 8:00-22:00 Fr 8:00-22:00 Sa 8:00-22:00 Su 8:00-22:00 ", "brand": "Fuddruckers", "brand:wikidata": "Q5507056"}, "geometry": {"type": "Point", "coordinates": [-95.856994628906, 36.06103515625]}},
{"type": "Feature", "id": "tFxglyV6K3qSLJtDQbZixudRCKI=", "properties": {"ref": "108", "@spider": "fuddruckers", "addr:full": "6600 Menaul NE Albuquerque, NM 87110 USA", "addr:street": "6600 Menaul NE", "addr:city": "Albuquerque", "addr:state": "NM", "addr:postcode": "87110", "addr:country": "USA", "name": "Albuquerque Menaul", "phone": "(505) 883-8337", "website": "http://www.fuddruckers.com/albuquerque-menaul", "opening_hours": "Mo 8:00-22:00 Tu 8:00-22:00 We 8:00-22:00 Th 8:00-22:00 Fr 8:00-22:00 Sa 8:00-22:00 Su 8:00-22:00 ", "brand": "Fuddruckers", "brand:wikidata": "Q5507056"}, "geometry": {"type": "Point", "coordinates": [-106.570190429688, 35.10099029541]}},
{"type": "Feature", "id": "nu3J67stNVA43_RHXdCCzBHXp5A=", "properties": {"ref": "109", "@spider": "fuddruckers", "addr:full": "5501 Slide Rd Lubbock, TX 79414 USA", "addr:street": "5501 Slide Rd", "addr:city": "Lubbock", "addr:state": "TX", "addr:postcode": "79414", "addr:country": "USA", "name": "Lubbock", "phone": "(806) 687-3833", "website": "http://www.fuddruckers.com/lubbock", "opening_hours": "Mo 8:00-22:00 Tu 8:00-22:00 We 8:00-22:00 Th 8:00-22:00 Fr 8:00-22:00 Sa 8:00-22:00 Su 8:00-22:00 ", "brand": "Fuddruckers", "brand:wikidata": "Q5507056"}, "geometry": {"type": "Point", "coordinates": [-101.921783447266, 33.543975830078]}},
{"type": "Feature", "id": "Y80EHQQP57wZ2AxEdo7cegetJOU=", "properties": {"ref": "110", "@spider": "fuddruckers", "addr:full": "100 Destination Blvd Anderson, SC 29621 USA", "addr:street": "100 Destination Blvd", "addr:city": "Anderson", "addr:state": "SC", "addr:postcode": "29621", "addr:country": "USA", "name": "Anderson", "phone": "(864) 222-0145", "website": "http://www.fuddruckers.com/anderson", "opening_hours": "Mo 8:00-22:00 Tu 8:00-22:00 We 8:00-22:00 Th 8:00-22:00 Fr 8:00-22:00 Sa 8:00-22:00 Su 8:00-22:00 ", "brand": "Fuddruckers", "brand:wikidata": "Q5507056"}, "geometry": {"type": "Point", "coordinates": [-82.708969116211, 34.570899963379]}},
{"type": "Feature", "id": "hpGNMmPyaG_wiUhALJyKGBR1S40=", "properties": {"ref": "117", "@spider": "fuddruckers", "addr:full": "10680 NW 19th St Miami, FL 33172 USA", "addr:street": "10680 NW 19th St", "addr:city": "Miami", "addr:state": "FL", "addr:postcode": "33172", "addr:country": "USA", "name": "Miami Doral", "phone": "(305) 591-4050", "website": "http://www.fuddruckers.com/miami-doral", "opening_hours": "Mo 8:00-22:00 Tu 8:00-22:00 We 8:00-22:00 Th 8:00-22:00 Fr 8:00-22:00 Sa 8:00-22:00 Su 8:00-22:00 ", "brand": "Fuddruckers", "brand:wikidata": "Q5507056"}, "geometry": {"type": "Point", "coordinates": [-80.334457397461, 25.792839050293]}},
{"type": "Feature", "id": "ntOJpinWA9Xqk1simOS2xn6Bwb4=", "properties": {"ref": "120", "@spider": "fuddruckers", "addr:full": "4 Canal St New Orleans, LA 70130 USA", "addr:street": "4 Canal St", "addr:city": "New Orleans", "addr:state": "LA", "addr:postcode": "70130", "addr:country": "USA", "name": "New Orleans", "phone": "(504) 589-0090", "website": "http://www.fuddruckers.com/new-orleans", "opening_hours": "Mo 8:00-22:00 Tu 8:00-22:00 We 8:00-22:00 Th 8:00-22:00 Fr 8:00-22:00 Sa 8:00-22:00 Su 8:00-22:00 ", "brand": "Fuddruckers", "brand:wikidata": "Q5507056"}, "geometry": {"type": "Point", "coordinates": [-90.064315795898, 29.949777603149]}},
{"type": "Feature", "id": "scXJJymnjtb_C5eL16EdXzvS71o=", "properties": {"ref": "121", "@spider": "fuddruckers", "addr:full": "1615 Hwy 76 Branson, MO 65616 USA", "addr:street": "1615 Hwy 76", "addr:city": "Branson", "addr:state": "MO", "addr:postcode": "65616", "addr:country": "USA", "name": "Branson", "phone": "(417) 334-6666", "website": "http://www.fuddruckers.com/branson", "opening_hours": "Mo 8:00-22:00 Tu 8:00-22:00 We 8:00-22:00 Th 8:00-22:00 Fr 8:00-22:00 Sa 8:00-22:00 Su 8:00-22:00 ", "brand": "Fuddruckers", "brand:wikidata": "Q5507056"}, "geometry": {"type": "Point", "coordinates": [-93.248229980469, 36.642711639404]}},
{"type": "Feature", "id": "udP8HAVj4BDjKVjVBaocj-8jIfg=", "properties": {"ref": "122", "@spider": "fuddruckers", "addr:full": "1949 South Padre Island Dr Corpus Christi, TX 78416 USA", "addr:street": "1949 South Padre Island Dr", "addr:city": "Corpus Christi", "addr:state": "TX", "addr:postcode": "78416", "addr:country": "USA", "name": "Corpus Christi", "phone": "(361) 857-0808", "website": "http://www.fuddruckers.com/corpus-christi", "opening_hours": "Mo 8:00-22:00 Tu 8:00-22:00 We 8:00-22:00 Th 8:00-22:00 Fr 8:00-22:00 Sa 8:00-22:00 Su 8:00-22:00 ", "brand": "Fuddruckers", "brand:wikidata": "Q5507056"}, "geometry": {"type": "Point", "coordinates": [-97.43586730957, 27.738208770752]}},
{"type": "Feature", "id": "EQDjfq_NM6z5zCFBgIa0rGfMTRY=", "properties": {"ref": "126", "@spider": "fuddruckers", "addr:full": "6100 Wade Hampton Blvd Taylors, SC 29687 USA", "addr:street": "6100 Wade Hampton Blvd", "addr:city": "Taylors", "addr:state": "SC", "addr:postcode": "29687", "addr:country": "USA", "name": "Taylors Greer", "phone": "(864) 877-5554", "website": "http://www.fuddruckers.com/taylors-greer", "opening_hours": "Mo 8:00-22:00 Tu 8:00-22:00 We 8:00-22:00 Th 8:00-22:00 Fr 8:00-22:00 Sa 8:00-22:00 Su 8:00-22:00 ", "brand": "Fuddruckers", "brand:wikidata": "Q5507056"}, "geometry": {"type": "Point", "coordinates": [-82.275718688965, 34.935508728027]}},
{"type": "Feature", "id": "w-VAUMAkFdfSLoFSVX89uTB7nH4=", "properties": {"ref": "127", "@spider": "fuddruckers", "addr:full": "406 S Bibb Ave Eagle Pass, TX 78853 USA", "addr:street": "406 S Bibb Ave", "addr:city": "Eagle Pass", "addr:state": "TX", "addr:postcode": "78853", "addr:country": "USA", "name": "Eagle Pass", "phone": "(830) 773-3177", "website": "http://www.fuddruckers.com/eagle-pass", "opening_hours": "Mo 8:00-22:00 Tu 8:00-22:00 We 8:00-22:00 Th 8:00-22:00 Fr 8:00-22:00 Sa 8:00-22:00 Su 8:00-22:00 ", "brand": "Fuddruckers", "brand:wikidata": "Q5507056"}, "geometry": {"type": "Point", "coordinates": [-100.48274230957, 28.704959869385]}},
{"type": "Feature", "id": "4nsMm0I0dngyYKQAKP7xFu5HsoQ=", "properties": {"ref": "129", "@spider": "fuddruckers", "addr:full": "1705 Village West Pkwy Kansas City, KS 66111 USA", "addr:street": "1705 Village West Pkwy", "addr:city": "Kansas City", "addr:state": "KS", "addr:postcode": "66111", "addr:country": "USA", "name": "Kansas City", "phone": "(913) 334-4500", "website": "http://www.fuddruckers.com/kansas-city", "opening_hours": "Mo 8:00-22:00 Tu 8:00-22:00 We 8:00-22:00 Th 8:00-22:00 Fr 8:00-22:00 Sa 8:00-22:00 Su 8:00-22:00 ", "brand": "Fuddruckers", "brand:wikidata": "Q5507056"}, "geometry": {"type": "Point", "coordinates": [-94.825942993164, 39.124599456787]}},
{"type": "Feature", "id": "SmXetGpbnsfuTc0cgzO7EJ2Obbo=", "properties": {"ref": "130", "@spider": "fuddruckers", "addr:full": "50 Walkers Brook Dr Reading, MA 01867 USA", "addr:street": "50 Walkers Brook Dr", "addr:city": "Reading", "addr:state": "MA", "addr:postcode": "01867", "addr:country": "USA", "name": "Reading", "phone": "(781) 942-4891", "website": "http://www.fuddruckers.com/reading", "opening_hours": "Mo 8:00-22:00 Tu 8:00-22:00 We 8:00-22:00 Th 8:00-22:00 Fr 8:00-22:00 Sa 8:00-22:00 Su 8:00-22:00 ", "brand": "Fuddruckers", "brand:wikidata": "Q5507056"}, "geometry": {"type": "Point", "coordinates": [-71.090759277344, 42.519901275635]}},
{"type": "Feature", "id": "u8HS5iyL4rN0YKnnbC2AwLCsJvE=", "properties": {"ref": "131", "@spider": "fuddruckers", "addr:full": "39 Norwich Westerly Rd Mashantucket, CT 06338 USA", "addr:street": "39 Norwich Westerly Rd", "addr:city": "Mashantucket", "addr:state": "CT", "addr:postcode": "06338", "addr:country": "USA", "name": "Mashantucket Foxwoods Casino", "phone": "(860) 312-3000 x35063", "website": "http://www.fuddruckers.com/mashantucket-foxswoods-casino", "opening_hours": "Mo 8:00-22:00 Tu 8:00-22:00 We 8:00-22:00 Th 8:00-22:00 Fr 8:00-22:00 Sa 8:00-22:00 Su 8:00-22:00 ", "brand": "Fuddruckers", "brand:wikidata": "Q5507056"}, "geometry": {"type": "Point", "coordinates": [-71.959999084473, 41.479999542236]}},
{"type": "Feature", "id": "qGHz7NvKxr-wkABYx--8EjNYOwI=", "properties": {"ref": "135", "@spider": "fuddruckers", "addr:full": "442 Gateway Ave Chambersburg, PA 17201 USA", "addr:street": "442 Gateway Ave", "addr:city": "Chambersburg", "addr:state": "PA", "addr:postcode": "17201", "addr:country": "USA", "name": "Chambersburg", "phone": "(717) 263-9011", "website": "http://www.fuddruckers.com/chambersburg", "opening_hours": "Mo 8:00-22:00 Tu 8:00-22:00 We 8:00-22:00 Th 8:00-22:00 Fr 8:00-22:00 Sa 8:00-22:00 Su 8:00-22:00 ", "brand": "Fuddruckers", "brand:wikidata": "Q5507056"}, "geometry": {"type": "Point", "coordinates": [-77.632972717285, 39.935684204102]}},
{"type": "Feature", "id": "aNL10bulfgfsGv_QiKRvHF5ojS8=", "properties": {"ref": "138", "@spider": "fuddruckers", "addr:full": "275 Rt 10 Succasunna, NJ 07876 USA", "addr:street": "275 Rt 10", "addr:city": "Succasunna", "addr:state": "NJ", "addr:postcode": "07876", "addr:country": "USA", "name": "Roxbury", "phone": "(973) 927-6966", "website": "http://www.fuddruckers.com/roxbury", "opening_hours": "Mo 8:00-22:00 Tu 8:00-22:00 We 8:00-22:00 Th 8:00-22:00 Fr 8:00-22:00 Sa 8:00-22:00 Su 8:00-22:00 ", "brand": "Fuddruckers", "brand:wikidata": "Q5507056"}, "geometry": {"type": "Point", "coordinates": [-74.64672088623, 40.870422363281]}},
{"type": "Feature", "id": "hlVe-tyA19AbjlCs-b9wtQ7e2Pc=", "properties": {"ref": "140", "@spider": "fuddruckers", "addr:full": "44036 Pipeline Plaza Ashburn, VA 20147 USA", "addr:street": "44036 Pipeline Plaza", "addr:city": "Ashburn", "addr:state": "VA", "addr:postcode": "20147", "addr:country": "USA", "name": "Ashburn", "phone": "(703) 724-0990", "website": "http://www.fuddruckers.com/ashburn", "opening_hours": "Mo 8:00-22:00 Tu 8:00-22:00 We 8:00-22:00 Th 8:00-22:00 Fr 8:00-22:00 Sa 8:00-22:00 Su 8:00-22:00 ", "brand": "Fuddruckers", "brand:wikidata": "Q5507056"}, "geometry": {"type": "Point", "coordinates": [-77.477012634277, 39.022106170654]}},
{"type": "Feature", "id": "CPrja0K79KUQatJpHJFQx5JbDXw=", "properties": {"ref": "141", "@spider": "fuddruckers", "addr:full": "2300 E Market St York, PA 17402 USA", "addr:street": "2300 E Market St", "addr:city": "York", "addr:state": "PA", "addr:postcode": "17402", "addr:country": "USA", "name": "York", "phone": "(717) 718-8070", "website": "http://www.fuddruckers.com/york", "opening_hours": "Mo 8:00-22:00 Tu 8:00-22:00 We 8:00-22:00 Th 8:00-22:00 Fr 8:00-22:00 Sa 8:00-22:00 Su 8:00-22:00 ", "brand": "Fuddruckers", "brand:wikidata": "Q5507056"}, "geometry": {"type": "Point", "coordinates": [-76.681488037109, 39.973133087158]}},
{"type": "Feature", "id": "sHjdNcJrcLWhzRATf0v1iXfHA2c=", "properties": {"ref": "142", "@spider": "fuddruckers", "addr:full": "330 Plaza Loop Bossier City, LA 71111 USA", "addr:street": "330 Plaza Loop", "addr:city": "Bossier City", "addr:state": "LA", "addr:postcode": "71111", "addr:country": "USA", "name": "Bossier City Boardwalk", "phone": "(318) 742-0324", "website": "http://www.fuddruckers.com/boardwalk", "opening_hours": "Mo 8:00-22:00 Tu 8:00-22:00 We 8:00-22:00 Th 8:00-22:00 Fr 8:00-22:00 Sa 8:00-22:00 Su 8:00-22:00 ", "brand": "Fuddruckers", "brand:wikidata": "Q5507056"}, "geometry": {"type": "Point", "coordinates": [-93.713279724121, 32.519157409668]}},
{"type": "Feature", "id": "YkyDOeuR58E7Et6hj5_r2KvTSDk=", "properties": {"ref": "144", "@spider": "fuddruckers", "addr:full": "1645 W. 49th Street Hialeah, FL 33012 USA", "addr:street": "1645 W. 49th Street", "addr:city": "Hialeah", "addr:state": "FL", "addr:postcode": "33012", "addr:country": "USA", "name": "Hialeah", "phone": "(305) 557-8020", "website": "http://www.fuddruckers.com/hialeah", "opening_hours": "Mo 8:00-22:00 Tu 8:00-22:00 We 8:00-22:00 Th 8:00-22:00 Fr 8:00-22:00 Sa 8:00-22:00 Su 8:00-22:00 ", "brand": "Fuddruckers", "brand:wikidata": "Q5507056"}, "geometry": {"type": "Point", "coordinates": [-80.304595947266, 25.864120483398]}},
{"type": "Feature", "id": "1V_BcSd4QcKat5ZOVA4AfuxUCjk=", "properties": {"ref": "147", "@spider": "fuddruckers", "addr:full": "14532 SW 5th St Pembroke Pines, FL 33027 USA", "addr:street": "14532 SW 5th St", "addr:city": "Pembroke Pines", "addr:state": "FL", "addr:postcode": "33027", "addr:country": "USA", "name": "Pembroke Pines", "phone": "(954) 436-9011", "website": "http://www.fuddruckers.com/pembroke-pines", "opening_hours": "Mo 8:00-22:00 Tu 8:00-22:00 We 8:00-22:00 Th 8:00-22:00 Fr 8:00-22:00 Sa 8:00-22:00 Su 8:00-22:00 ", "brand": "Fuddruckers", "brand:wikidata": "Q5507056"}, "geometry": {"type": "Point", "coordinates": [-80.341926574707, 26.003917694092]}},
{"type": "Feature", "id": "FIeBFyZ_TUFVu4nb_XGv3cRLUGc=", "properties": {"ref": "149", "@spider": "fuddruckers", "addr:full": "8000 E Texas Rd Bossier City, LA 71111 USA", "addr:street": "8000 E Texas Rd", "addr:city": "Bossier City", "addr:state": "LA", "addr:postcode": "71111", "addr:country": "USA", "name": "Bossier City Harrahs", "phone": "(318) 742-8158", "website": "http://www.fuddruckers.com/harrahs-bossier-city", "opening_hours": "Mo 8:00-22:00 Tu 8:00-22:00 We 8:00-22:00 Th 8:00-22:00 Fr 8:00-22:00 Sa 8:00-22:00 Su 8:00-22:00 ", "brand": "Fuddruckers", "brand:wikidata": "Q5507056"}, "geometry": {"type": "Point", "coordinates": [-93.629745483398, 32.549877166748]}},
{"type": "Feature", "id": "SYEvY5ZNAXrxcdDEUPGBZLulUCA=", "properties": {"ref": "151", "@spider": "fuddruckers", "addr:full": "Orleans Casino 423, Food Court Las Vegas, NV 89103 USA", "addr:street": "Orleans Casino 423, Food Court", "addr:city": "Las Vegas", "addr:state": "NV", "addr:postcode": "89103", "addr:country": "USA", "name": "Las Vegas Orleans Casino", "phone": "(702) 256-3833", "website": "http://www.fuddruckers.com/las-vegas-orleans-casino", "opening_hours": "Mo 8:00-22:00 Tu 8:00-22:00 We 8:00-22:00 Th 8:00-22:00 Fr 8:00-22:00 Sa 8:00-22:00 Su 8:00-22:00 ", "brand": "Fuddruckers", "brand:wikidata": "Q5507056"}, "geometry": {"type": "Point", "coordinates": [-115.206703186035, 36.110412597656]}},
{"type": "Feature", "id": "zclCJAJD_DyJeRtNLw-CN_r6i4k=", "properties": {"ref": "153", "@spider": "fuddruckers", "addr:full": "4101 E 42nd St Odessa, TX 79762 USA", "addr:street": "4101 E 42nd St", "addr:city": "Odessa", "addr:state": "TX", "addr:postcode": "79762", "addr:country": "USA", "name": "Odessa", "phone": "(432) 362-4330", "website": "http://www.fuddruckers.com/odessa", "opening_hours": "Mo 8:00-22:00 Tu 8:00-22:00 We 8:00-22:00 Th 8:00-22:00 Fr 8:00-22:00 Sa 8:00-22:00 Su 8:00-22:00 ", "brand": "Fuddruckers", "brand:wikidata": "Q5507056"}, "geometry": {"type": "Point", "coordinates": [-102.340950012207, 31.893154144287]}},
{"type": "Feature", "id": "kdG1jMb0d0nTcoBu8fzuJBxWYLc=", "properties": {"ref": "160", "@spider": "fuddruckers", "addr:full": "30732 Highway 441 South Commerce, GA 30529 USA", "addr:street": "30732 Highway 441 South", "addr:city": "Commerce", "addr:state": "GA", "addr:postcode": "30529", "addr:country": "USA", "name": "Commerce", "phone": "(706) 335-4920", "website": "http://www.fuddruckers.com/commerce", "opening_hours": "Mo 8:00-22:00 Tu 8:00-22:00 We 8:00-22:00 Th 8:00-22:00 Fr 8:00-22:00 Sa 8:00-22:00 Su 8:00-22:00 ", "brand": "Fuddruckers", "brand:wikidata": "Q5507056"}, "geometry": {"type": "Point", "coordinates": [-83.463310241699, 34.252838134766]}},
{"type": "Feature", "id": "vKaW-Ehk_qKL6cDeG3CplLNTFtM=", "properties": {"ref": "161", "@spider": "fuddruckers", "addr:full": "100 North Carter Rd Ashland, VA 23005 USA", "addr:street": "100 North Carter Rd", "addr:city": "Ashland", "addr:state": "VA", "addr:postcode": "23005", "addr:country": "USA", "name": "Ashland", "phone": "(804) 798-6011", "website": "http://www.fuddruckers.com/ashland", "opening_hours": "Mo 8:00-22:00 Tu 8:00-22:00 We 8:00-22:00 Th 8:00-22:00 Fr 8:00-22:00 Sa 8:00-22:00 Su 8:00-22:00 ", "brand": "Fuddruckers", "brand:wikidata": "Q5507056"}, "geometry": {"type": "Point", "coordinates": [-77.462875366211, 37.760364532471]}},
{"type": "Feature", "id": "_7Yo3l6BnFWqV56mRpnZPz6wusw=", "properties": {"ref": "162", "@spider": "fuddruckers", "addr:full": "8518 W I-40 Frontage Rd Amarillo, TX 79106 USA", "addr:street": "8518 W I-40 Frontage Rd", "addr:city": "Amarillo", "addr:state": "TX", "addr:postcode": "79106", "addr:country": "USA", "name": "Amarillo", "phone": "(806) 358-3450", "website": "http://www.fuddruckers.com/amarillo", "opening_hours": "Mo 8:00-22:00 Tu 8:00-22:00 We 8:00-22:00 Th 8:00-22:00 Fr 8:00-22:00 Sa 8:00-22:00 Su 8:00-22:00 ", "brand": "Fuddruckers", "brand:wikidata": "Q5507056"}, "geometry": {"type": "Point", "coordinates": [-101.941360473633, 35.187492370605]}},
{"type": "Feature", "id": "MoIZoC_xNlf945Ro0FylqzHYgz4=", "properties": {"ref": "163", "@spider": "fuddruckers", "addr:full": "NRG Parkway Houston, TX 77054 USA", "addr:street": "NRG Parkway", "addr:city": "Houston", "addr:state": "TX", "addr:postcode": "77054", "addr:country": "USA", "name": "Nrg Stadium", "website": "http://www.fuddruckers.com/nrg-stadium", "opening_hours": "Mo 8:00-22:00 Tu 8:00-22:00 We 8:00-22:00 Th 8:00-22:00 Fr 8:00-22:00 Sa 8:00-22:00 Su 8:00-22:00 ", "brand": "Fuddruckers", "brand:wikidata": "Q5507056"}, "geometry": {"type": "Point", "coordinates": [-95.407745361328, 29.686416625977]}},
{"type": "Feature", "id": "tQCxP8G-Xb_oJmkcnRzBhW4FyzM=", "properties": {"ref": "164", "@spider": "fuddruckers", "addr:full": "14000 Foulger Square Woodbridge, VA 22192 USA", "addr:street": "14000 Foulger Square", "addr:city": "Woodbridge", "addr:state": "VA", "addr:postcode": "22192", "addr:country": "USA", "name": "Woodbridge", "phone": "(571) 659-6284", "website": "http://www.fuddruckers.com/woodbridge", "opening_hours": "Mo 8:00-22:00 Tu 8:00-22:00 We 8:00-22:00 Th 8:00-22:00 Fr 8:00-22:00 Sa 8:00-22:00 Su 8:00-22:00 ", "brand": "Fuddruckers", "brand:wikidata": "Q5507056"}, "geometry": {"type": "Point", "coordinates": [-77.305320739746, 38.654491424561]}},
{"type": "Feature", "id": "Vs5P74fp8wdtSAhDU2oaYkYkmKc=", "properties": {"ref": "170", "@spider": "fuddruckers", "addr:full": "2400 B South MacGregor Way Houston, TX 77021 USA", "addr:street": "2400 B South MacGregor Way", "addr:city": "Houston", "addr:state": "TX", "addr:postcode": "77021", "addr:country": "USA", "name": "Houston South Macgregor", "phone": "(713) 588-1377", "website": "http://www.fuddruckers.com/houston-south-macgregor", "opening_hours": "Mo 8:00-22:00 Tu 8:00-22:00 We 8:00-22:00 Th 8:00-22:00 Fr 8:00-22:00 Sa 8:00-22:00 Su 8:00-22:00 ", "brand": "Fuddruckers", "brand:wikidata": "Q5507056"}, "geometry": {"type": "Point", "coordinates": [-95.381134033203, 29.712068557739]}},
{"type": "Feature", "id": "jDX2rNHY-ZcOQOqiexgSNQM86rw=", "properties": {"ref": "171", "@spider": "fuddruckers", "addr:full": "7250 Hwy 6 North Houston, TX 77095 USA", "addr:street": "7250 Hwy 6 North", "addr:city": "Houston", "addr:state": "TX", "addr:postcode": "77095", "addr:country": "USA", "name": "Houston Copperfield", "phone": "(281) 550-5100", "website": "http://www.fuddruckers.com/houston-copperfield", "opening_hours": "Mo 8:00-22:00 Tu 8:00-22:00 We 8:00-22:00 Th 8:00-22:00 Fr 8:00-22:00 Sa 8:00-22:00 Su 8:00-22:00 ", "brand": "Fuddruckers", "brand:wikidata": "Q5507056"}, "geometry": {"type": "Point", "coordinates": [-95.644233703613, 29.883792877197]}},
{"type": "Feature", "id": "rHY6Mhcjg5HXcVtVZUE7K7-QHY8=", "properties": {"ref": "176", "@spider": "fuddruckers", "addr:full": "4601 E Main St Farmington, NM 87402 USA", "addr:street": "4601 E Main St", "addr:city": "Farmington", "addr:state": "NM", "addr:postcode": "87402", "addr:country": "USA", "name": "Farmington", "phone": "(505) 326-2089", "website": "http://www.fuddruckers.com/farmington", "opening_hours": "Mo 8:00-22:00 Tu 8:00-22:00 We 8:00-22:00 Th 8:00-22:00 Fr 8:00-22:00 Sa 8:00-22:00 Su 8:00-22:00 ", "brand": "Fuddruckers", "brand:wikidata": "Q5507056"}, "geometry": {"type": "Point", "coordinates": [-108.151779174805, 36.764553070068]}},
{"type": "Feature", "id": "TGdpZDQYUhskb6wMCrbp9MGmbaE=", "properties": {"ref": "183", "@spider": "fuddruckers", "addr:full": "1740 Travis Blvd Fairfield, CA 94533 USA", "addr:street": "1740 Travis Blvd", "addr:city": "Fairfield", "addr:state": "CA", "addr:postcode": "94533", "addr:country": "USA", "name": "Fairfield", "phone": "(707) 429-2337", "website": "http://www.fuddruckers.com/fairfield", "opening_hours": "Mo 8:00-22:00 Tu 8:00-22:00 We 8:00-22:00 Th 8:00-22:00 Fr 8:00-22:00 Sa 8:00-22:00 Su 8:00-22:00 ", "brand": "Fuddruckers", "brand:wikidata": "Q5507056"}, "geometry": {"type": "Point", "coordinates": [-122.060256958008, 38.258220672607]}},
{"type": "Feature", "id": "tN7pV6KdvCfZHpjES4M37qSaIZA=", "properties": {"ref": "184", "@spider": "fuddruckers", "addr:full": "14875 South Dixie Hwy Palmetto Bay, FL 33176 USA", "addr:street": "14875 South Dixie Hwy", "addr:city": "Palmetto Bay", "addr:state": "FL", "addr:postcode": "33176", "addr:country": "USA", "name": "Palmetto Bay", "phone": "(305) 238-5680", "website": "http://www.fuddruckers.com/palmetto-bay", "opening_hours": "Mo 8:00-22:00 Tu 8:00-22:00 We 8:00-22:00 Th 8:00-22:00 Fr 8:00-22:00 Sa 8:00-22:00 Su 8:00-22:00 ", "brand": "Fuddruckers", "brand:wikidata": "Q5507056"}, "geometry": {"type": "Point", "coordinates": [-80.339736938477, 25.63151550293]}},
{"type": "Feature", "id": "X4H788xyGvZhGBSpnFSQ-GcbA14=", "properties": {"ref": "185", "@spider": "fuddruckers", "addr:full": "7117 2nd Ave W Williston, ND 58801 USA", "addr:street": "7117 2nd Ave W", "addr:city": "Williston", "addr:state": "ND", "addr:postcode": "58801", "addr:country": "USA", "name": "Williston", "phone": "(701) 609-5535", "website": "http://www.fuddruckers.com/williston", "opening_hours": "Mo 8:00-22:00 Tu 8:00-22:00 We 8:00-22:00 Th 8:00-22:00 Fr 8:00-22:00 Sa 8:00-22:00 Su 8:00-22:00 ", "brand": "Fuddruckers", "brand:wikidata": "Q5507056"}, "geometry": {"type": "Point", "coordinates": [-103.625312805176, 48.214061737061]}},
{"type": "Feature", "id": "0EJ0el-q8Ly79hVqAasr6P_0DVA=", "properties": {"ref": "190", "@spider": "fuddruckers", "addr:full": "Entrada Norte Centro Comercial Metromall Av Do Panama, PA N/A PAN", "addr:street": "Entrada Norte Centro Comercial Metromall Av Do", "addr:city": "Panama", "addr:state": "PA", "addr:postcode": "N/A", "addr:country": "PAN", "name": "Panama City - Metromall", "phone": "(507) 203-5800", "website": "http://www.fuddruckers.com/panama-planta-baja", "opening_hours": "Mo 8:00-22:00 Tu 8:00-22:00 We 8:00-22:00 Th 8:00-22:00 Fr 8:00-22:00 Sa 8:00-22:00 Su 8:00-22:00 ", "brand": "Fuddruckers", "brand:wikidata": "Q5507056"}, "geometry": {"type": "Point", "coordinates": [-79.46085357666, 9.048509597778]}},
{"type": "Feature", "id": "NskfLVpRDvu9UBqQ3NAD_7LNL-Q=", "properties": {"ref": "221", "@spider": "fuddruckers", "addr:full": "Plaza Altabrisa Calle 7 451 Merida, YU 97133 MEX", "addr:street": "Plaza Altabrisa Calle 7 451", "addr:city": "Merida", "addr:state": "YU", "addr:postcode": "97133", "addr:country": "MEX", "name": "Merida", "phone": "999-406-0413", "website": "http://www.fuddruckers.com/merida", "opening_hours": "Mo 8:00-22:00 Tu 8:00-22:00 We 8:00-22:00 Th 8:00-22:00 Fr 8:00-22:00 Sa 8:00-22:00 Su 8:00-22:00 ", "brand": "Fuddruckers", "brand:wikidata": "Q5507056"}, "geometry": {"type": "Point", "coordinates": [-89.584419250488, 21.018045425415]}},
{"type": "Feature", "id": "ECz7R29PKj98EXeeHotDtPlVIVM=", "properties": {"ref": "224", "@spider": "fuddruckers", "addr:full": "2001 Strickler Rd Manheim, PA 17545 USA", "addr:street": "2001 Strickler Rd", "addr:city": "Manheim", "addr:state": "PA", "addr:postcode": "17545", "addr:country": "USA", "name": "Manheim", "phone": "717-492-4624", "website": "http://www.fuddruckers.com/manheim", "opening_hours": "Mo 8:00-22:00 Tu 8:00-22:00 We 8:00-22:00 Th 8:00-22:00 Fr 8:00-22:00 Sa 8:00-22:00 Su 8:00-22:00 ", "brand": "Fuddruckers", "brand:wikidata": "Q5507056"}, "geometry": {"type": "Point", "coordinates": [-76.450462341309, 40.11319732666]}},
{"type": "Feature", "id": "zDqVGKAwuuhAuzunV9vCtswCWD4=", "properties": {"ref": "226", "@spider": "fuddruckers", "addr:full": "Centro Comercial Altaplaza Via Centenario Panama City, PN None PAN", "addr:street": "Centro Comercial Altaplaza Via Centenario", "addr:city": "Panama City", "addr:state": "PN", "addr:country": "PAN", "name": "Panama - Alta Plaza Mall", "phone": "507-201-3020", "website": "http://www.fuddruckers.com/panama-alta-plaza-mall", "opening_hours": "Mo 8:00-22:00 Tu 8:00-22:00 We 8:00-22:00 Th 8:00-22:00 Fr 8:00-22:00 Sa 8:00-22:00 Su 8:00-22:00 ", "brand": "Fuddruckers", "brand:wikidata": "Q5507056"}, "geometry": {"type": "Point", "coordinates": [-79.534286499023, 9.029671669006]}},
{"type": "Feature", "id": "tZFyXRgu21HOAD84c8FheFJWWVI=", "properties": {"ref": "227", "@spider": "fuddruckers", "addr:full": "1515 E. Main St. Duncan, SC 29334 USA", "addr:street": "1515 E. Main St.", "addr:city": "Duncan", "addr:state": "SC", "addr:postcode": "29334", "addr:country": "USA", "name": "Duncan, Sc", "phone": "864-249-3656", "website": "http://www.fuddruckers.com/duncan-sc", "opening_hours": "Mo 8:00-22:00 Tu 8:00-22:00 We 8:00-22:00 Th 8:00-22:00 Fr 8:00-22:00 Sa 8:00-22:00 Su 8:00-22:00 ", "brand": "Fuddruckers", "brand:wikidata": "Q5507056"}, "geometry": {"type": "Point", "coordinates": [-82.1044921875, 34.912349700928]}},
{"type": "Feature", "id": "cIEs6okuuya5jN_P8Bsw4gTXn10=", "properties": {"ref": "228", "@spider": "fuddruckers", "addr:full": "2540 Victoria Ave E Regina, SK S4N 6M5 CAN", "addr:street": "2540 Victoria Ave E", "addr:city": "Regina", "addr:state": "SK", "addr:postcode": "S4N 6M5", "addr:country": "CAN", "name": "Regina", "phone": "306-586-3833", "website": "http://www.fuddruckers.com/regina", "opening_hours": "Mo 8:00-22:00 Tu 8:00-22:00 We 8:00-22:00 Th 8:00-22:00 Fr 8:00-22:00 Sa 8:00-22:00 Su 8:00-22:00 ", "brand": "Fuddruckers", "brand:wikidata": "Q5507056"}, "geometry": {"type": "Point", "coordinates": [-104.547241210938, 50.448234558105]}},
{"type": "Feature", "id": "PQhk5jOtmFpL88kq4zK7OwZI7FA=", "properties": {"ref": "229", "@spider": "fuddruckers", "addr:full": "200 North McCarran Sparks, NV 89431-5419 USA", "addr:street": "200 North McCarran", "addr:city": "Sparks", "addr:state": "NV", "addr:postcode": "89431-5419", "addr:country": "USA", "name": "Sparks - Travel Centers", "phone": "(775) 359-0550", "website": "http://www.fuddruckers.com/sparks-travel-centers", "opening_hours": "Mo 8:00-22:00 Tu 8:00-22:00 We 8:00-22:00 Th 8:00-22:00 Fr 8:00-22:00 Sa 8:00-22:00 Su 8:00-22:00 ", "brand": "Fuddruckers", "brand:wikidata": "Q5507056"}, "geometry": {"type": "Point", "coordinates": [-119.736221313477, 39.534812927246]}},
{"type": "Feature", "id": "4GBMXzeKi4OVgAtHXO52TOssW50=", "properties": {"ref": "230", "@spider": "fuddruckers", "addr:full": "8510 Creekside Forest Dr Tomball, TX 77375 USA", "addr:street": "8510 Creekside Forest Dr", "addr:city": "Tomball", "addr:state": "TX", "addr:postcode": "77375", "addr:country": "USA", "name": "Creekside", "phone": "832-534-4350", "website": "http://www.fuddruckers.com/creekside", "opening_hours": "Mo 8:00-22:00 Tu 8:00-22:00 We 8:00-22:00 Th 8:00-22:00 Fr 8:00-22:00 Sa 8:00-22:00 Su 8:00-22:00 ", "brand": "Fuddruckers", "brand:wikidata": "Q5507056"}, "geometry": {"type": "Point", "coordinates": [-95.548812866211, 30.145879745483]}},
{"type": "Feature", "id": "OczbK_nelQKHaZJ48Kf3GYzIG2I=", "properties": {"ref": "231", "@spider": "fuddruckers", "addr:full": "4311 E Colonial Dr Orlando, FL 32803 USA", "addr:street": "4311 E Colonial Dr", "addr:city": "Orlando", "addr:state": "FL", "addr:postcode": "32803", "addr:country": "USA", "name": "East Colonial", "phone": "407-826-1093", "website": "http://www.fuddruckers.com/east-colonial", "opening_hours": "Mo 8:00-22:00 Tu 8:00-22:00 We 8:00-22:00 Th 8:00-22:00 Fr 8:00-22:00 Sa 8:00-22:00 Su 8:00-22:00 ", "brand": "Fuddruckers", "brand:wikidata": "Q5507056"}, "geometry": {"type": "Point", "coordinates": [-81.331787109375, 28.554164886475]}},
{"type": "Feature", "id": "_2HpVPpW8-fYbCy5vRE0N9klGgc=", "properties": {"ref": "232", "@spider": "fuddruckers", "addr:full": "100 Rohrerstown Rd Lancaster, PA 17603 USA", "addr:street": "100 Rohrerstown Rd", "addr:city": "Lancaster", "addr:state": "PA", "addr:postcode": "17603", "addr:country": "USA", "name": "Lancaster", "phone": "717-874-4905", "website": "http://www.fuddruckers.com/lancaster", "opening_hours": "Mo 8:00-22:00 Tu 8:00-22:00 We 8:00-22:00 Th 8:00-22:00 Fr 8:00-22:00 Sa 8:00-22:00 Su 8:00-22:00 ", "brand": "Fuddruckers", "brand:wikidata": "Q5507056"}, "geometry": {"type": "Point", "coordinates": [-76.363403320312, 40.044467926025]}},
{"type": "Feature", "id": "tRyfEUS7pCcq5kC_HdG893uTLOM=", "properties": {"ref": "233", "@spider": "fuddruckers", "addr:full": "2300 E Semoran Blvd Apopka, FL 32704 USA", "addr:street": "2300 E Semoran Blvd", "addr:city": "Apopka", "addr:state": "FL", "addr:postcode": "32704", "addr:country": "USA", "name": "Apopka", "phone": "407-826-1411", "website": "http://www.fuddruckers.com/apopka", "opening_hours": "Mo 8:00-22:00 Tu 8:00-22:00 We 8:00-22:00 Th 8:00-22:00 Fr 8:00-22:00 Sa 8:00-22:00 Su 8:00-22:00 ", "brand": "Fuddruckers", "brand:wikidata": "Q5507056"}, "geometry": {"type": "Point", "coordinates": [-81.46736907959, 28.669857025146]}},
{"type": "Feature", "id": "NL5y_LJ-mmP_aWTLKQNXqQOQqMM=", "properties": {"ref": "234", "@spider": "fuddruckers", "addr:full": "Centro Comercial Albrook Local I 29 Pasillo del Delfin Ciudad de Panama, PA None PA", "addr:street": "Centro Comercial Albrook Local I 29 Pasillo del Delfin", "addr:city": "Ciudad de Panama", "addr:state": "PA", "addr:country": "PA", "name": "Albrook", "phone": "507-203-5800", "website": "http://www.fuddruckers.com/albrook", "opening_hours": "Mo 8:00-22:00 Tu 8:00-22:00 We 8:00-22:00 Th 8:00-22:00 Fr 8:00-22:00 Sa 8:00-22:00 Su 8:00-22:00 ", "brand": "Fuddruckers", "brand:wikidata": "Q5507056"}, "geometry": {"type": "Point", "coordinates": [-79.552406311035, 8.973339080811]}},
{"type": "Feature", "id": "Uq7axq7YNxJyTfKIKVEzSd_m2S4=", "properties": {"ref": "235", "@spider": "fuddruckers", "addr:full": " 4401 Hwy. 17 Richmond Hill, GA 31324-0280 USA", "addr:street": " 4401 Hwy. 17", "addr:city": "Richmond Hill", "addr:state": "GA", "addr:postcode": "31324-0280", "addr:country": "USA", "name": "Ta Savannah", "phone": "(912) 756-3381", "website": "http://www.fuddruckers.com/ta-savannah", "opening_hours": "Mo 8:00-22:00 Tu 8:00-22:00 We 8:00-22:00 Th 8:00-22:00 Fr 8:00-22:00 Sa 8:00-22:00 Su 8:00-22:00 ", "brand": "Fuddruckers", "brand:wikidata": "Q5507056"}, "geometry": {"type": "Point", "coordinates": [-81.332916259766, 31.924736022949]}},
{"type": "Feature", "id": "bruJ1X7Gm_NehEdmrliHZpV8eto=", "properties": {"ref": "236", "@spider": "fuddruckers", "addr:full": "8602 Botts Lane San Antonio, TX 78217 USA", "addr:street": "8602 Botts Lane", "addr:city": "San Antonio", "addr:state": "TX", "addr:postcode": "78217", "addr:country": "USA", "name": "San Antonio Botts Lane", "phone": "(210) 824-6703", "website": "http://www.fuddruckers.com/san-antonio-botts-lane", "opening_hours": "Mo 8:00-22:00 Tu 8:00-22:00 We 8:00-22:00 Th 8:00-22:00 Fr 8:00-22:00 Sa 8:00-22:00 Su 8:00-22:00 ", "brand": "Fuddruckers", "brand:wikidata": "Q5507056"}, "geometry": {"type": "Point", "coordinates": [-98.460029602051, 29.518182754517]}},
{"type": "Feature", "id": "NY0S7cXSe2N7clSkeaV_2qRIE8w=", "properties": {"ref": "237", "@spider": "fuddruckers", "addr:full": "9845 IH-10 West San Antonio, TX 78230 USA", "addr:street": "9845 IH-10 West", "addr:city": "San Antonio", "addr:state": "TX", "addr:postcode": "78230", "addr:country": "USA", "name": "San Antonio Wurzbach", "phone": "(210) 694-0825", "website": "http://www.fuddruckers.com/san-antonio-wurzbach", "opening_hours": "Mo 8:00-22:00 Tu 8:00-22:00 We 8:00-22:00 Th 8:00-22:00 Fr 8:00-22:00 Sa 8:00-22:00 Su 8:00-22:00 ", "brand": "Fuddruckers", "brand:wikidata": "Q5507056"}, "geometry": {"type": "Point", "coordinates": [-98.56201171875, 29.532863616943]}},
{"type": "Feature", "id": "wIzMhatj3rITT_sG8SYN2y1ym2E=", "properties": {"ref": "238", "@spider": "fuddruckers", "addr:full": "11654 Bandera Rd San Antonio, TX 78250 USA", "addr:street": "11654 Bandera Rd", "addr:city": "San Antonio", "addr:state": "TX", "addr:postcode": "78250", "addr:country": "USA", "name": "San Antonio Bandera Road", "phone": "(210) 556-3757", "website": "http://www.fuddruckers.com/san-antonio-bandera-road", "opening_hours": "Mo 8:00-22:00 Tu 8:00-22:00 We 8:00-22:00 Th 8:00-22:00 Fr 8:00-22:00 Sa 8:00-22:00 Su 8:00-22:00 ", "brand": "Fuddruckers", "brand:wikidata": "Q5507056"}, "geometry": {"type": "Point", "coordinates": [-98.664573669434, 29.554162979126]}},
{"type": "Feature", "id": "jJw2-3aue71NLRbpFfZzQdmBoQ8=", "properties": {"ref": "239", "@spider": "fuddruckers", "addr:full": "115 Alamo Plaza San Antonio, TX 78205 USA", "addr:street": "115 Alamo Plaza", "addr:city": "San Antonio", "addr:state": "TX", "addr:postcode": "78205", "addr:country": "USA", "name": "San Antonio Alamo Plaza", "phone": "(210) 223-9944", "website": "http://www.fuddruckers.com/san-antonio-alamo-plaza", "opening_hours": "Mo 8:00-22:00 Tu 8:00-22:00 We 8:00-22:00 Th 8:00-22:00 Fr 8:00-22:00 Sa 8:00-22:00 Su 8:00-22:00 ", "brand": "Fuddruckers", "brand:wikidata": "Q5507056"}, "geometry": {"type": "Point", "coordinates": [-98.487327575684, 29.424209594727]}},
{"type": "Feature", "id": "aJEZjyD7hL7urGQKXpnEllhRuFw=", "properties": {"ref": "240", "@spider": "fuddruckers", "addr:full": "1421 Junction Hwy Kerrville, TX 78028 USA", "addr:street": "1421 Junction Hwy", "addr:city": "Kerrville", "addr:state": "TX", "addr:postcode": "78028", "addr:country": "USA", "name": "Kerrville", "phone": "(830) 895-0519", "website": "http://www.fuddruckers.com/kerrville", "opening_hours": "Mo 8:00-22:00 Tu 8:00-22:00 We 8:00-22:00 Th 8:00-22:00 Fr 8:00-22:00 Sa 8:00-22:00 Su 8:00-22:00 ", "brand": "Fuddruckers", "brand:wikidata": "Q5507056"}, "geometry": {"type": "Point", "coordinates": [-99.172729492188, 30.062675476074]}},
{"type": "Feature", "id": "SWzyH534QcaFmCXim1tRNT_oSRQ=", "properties": {"ref": "241", "@spider": "fuddruckers", "addr:full": "711 Lucky Ln Robinsonville, MS 38664 USA", "addr:street": "711 Lucky Ln", "addr:city": "Robinsonville", "addr:state": "MS", "addr:postcode": "38664", "addr:country": "USA", "name": "Fitz Tunica Casino", "phone": "662-363-5825", "website": "http://www.fuddruckers.com/fitz-tunica-casino", "opening_hours": "Mo 8:00-22:00 Tu 8:00-22:00 We 8:00-22:00 Th 8:00-22:00 Fr 8:00-22:00 Sa 8:00-22:00 Su 8:00-22:00 ", "brand": "Fuddruckers", "brand:wikidata": "Q5507056"}, "geometry": {"type": "Point", "coordinates": [-90.358772277832, 34.840766906738]}},
{"type": "Feature", "id": "w3ZaEk-kCEvjoUfs58PtC7x1SZw=", "properties": {"ref": "242", "@spider": "fuddruckers", "addr:full": "2111 N IH 35 Round Rock, TX 78664 USA", "addr:street": "2111 N IH 35", "addr:city": "Round Rock", "addr:state": "TX", "addr:postcode": "78664", "addr:country": "USA", "name": "Round Rock", "phone": "(512) 716-1934", "website": "http://www.fuddruckers.com/round-rock", "opening_hours": "Mo 8:00-22:00 Tu 8:00-22:00 We 8:00-22:00 Th 8:00-22:00 Fr 8:00-22:00 Sa 8:00-22:00 Su 8:00-22:00 ", "brand": "Fuddruckers", "brand:wikidata": "Q5507056"}, "geometry": {"type": "Point", "coordinates": [-97.690040588379, 30.529607772827]}},
{"type": "Feature", "id": "gTKWv9G--9d7JlLd2TGQcaf6RHQ=", "properties": {"ref": "243", "@spider": "fuddruckers", "addr:full": "11023 Pecan Park Blvd Cedar Park, TX 78613 USA", "addr:street": "11023 Pecan Park Blvd", "addr:city": "Cedar Park", "addr:state": "TX", "addr:postcode": "78613", "addr:country": "USA", "name": "Lakeline", "phone": "(512) 219-1957", "website": "http://www.fuddruckers.com/lakeline", "opening_hours": "Mo 8:00-22:00 Tu 8:00-22:00 We 8:00-22:00 Th 8:00-22:00 Fr 8:00-22:00 Sa 8:00-22:00 Su 8:00-22:00 ", "brand": "Fuddruckers", "brand:wikidata": "Q5507056"}, "geometry": {"type": "Point", "coordinates": [-97.805046081543, 30.467056274414]}},
{"type": "Feature", "id": "m587qYkrHRbHWlNmpQHen_yc6Bk=", "properties": {"ref": "244", "@spider": "fuddruckers", "addr:full": "1784 General Booth Blvd Virginia Beach, VA 23454 USA", "addr:street": "1784 General Booth Blvd", "addr:city": "Virginia Beach", "addr:state": "VA", "addr:postcode": "23454", "addr:country": "USA", "name": "Virginia Beach", "website": "http://www.fuddruckers.com/virginia-beach", "opening_hours": "Mo 8:00-22:00 Tu 8:00-22:00 We 8:00-22:00 Th 8:00-22:00 Fr 8:00-22:00 Sa 8:00-22:00 Su 8:00-22:00 ", "brand": "Fuddruckers", "brand:wikidata": "Q5507056"}, "geometry": {"type": "Point", "coordinates": [-76.002059936523, 36.779373168945]}}]}