{"type":"FeatureCollection","features":[{"type": "Feature", "id": "rqkMxIQVAAtqF2SdbLsfVqwAxow=", "properties": {"ref": "348", "@spider": "harristeeter", "addr:full": "136 Merrimon Ave", "addr:city": "Asheville", "addr:state": "NC", "addr:postcode": "28801", "addr:country": "US", "name": "Village at Chestnut Street", "phone": "(828) 255-1817", "opening_hours": "6am-10pm", "brand": "Harris Teeter"}, "geometry": {"type": "Point", "coordinates": [-82.55312, 35.6040766666667]}},
{"type": "Feature", "id": "AWmbINxmFdN1_xE7UM_A-pLU2fo=", "properties": {"ref": "379", "@spider": "harristeeter", "addr:full": "636 Spartanburg Hwy", "addr:city": "Hendersonville", "addr:state": "NC", "addr:postcode": "28792", "addr:country": "US", "name": "Southside Square Plaza", "phone": "(828) 693-6668", "opening_hours": "6am-10pm", "brand": "Harris Teeter"}, "geometry": {"type": "Point", "coordinates": [-82.4554713767734, 35.3069678228455]}},
{"type": "Feature", "id": "ReKU40DJHcbXPeA0r07-P_11U6I=", "properties": {"ref": "165", "@spider": "harristeeter", "addr:full": "240 Shadowline Dr", "addr:city": "Boone", "addr:state": "NC", "addr:postcode": "28607", "addr:country": "US", "name": "Shops at Shadowline", "phone": "(828) 262-3319", "opening_hours": "6am-11pm", "brand": "Harris Teeter"}, "geometry": {"type": "Point", "coordinates": [-81.6625, 36.20283]}},
{"type": "Feature", "id": "KlADr9tgz3hOAGQZN4lw239aPUM=", "properties": {"ref": "163", "@spider": "harristeeter", "addr:full": "1461  Blowing Rock Rd", "addr:city": "Boone", "addr:state": "NC", "addr:postcode": "28607", "addr:country": "US", "name": "Harris Teeter Fuel Center", "phone": "(828) 278-4200", "brand": "Harris Teeter"}, "geometry": {"type": "Point", "coordinates": [-81.662537, 36.20209]}},
{"type": "Feature", "id": "7k8kslMZWOGFdE0GffjgEhlXUuU=", "properties": {"ref": "357", "@spider": "harristeeter", "addr:full": "100 Wade Hampton Blvd.", "addr:city": "Greenville", "addr:state": "SC", "addr:postcode": "29609", "addr:country": "US", "name": "Northpointe Shopping Center", "phone": "(864) 900-6150", "opening_hours": "6am-10pm", "brand": "Harris Teeter"}, "geometry": {"type": "Point", "coordinates": [-82.38564998, 34.86107886]}},
{"type": "Feature", "id": "Ng72ErmjF3e0_jVevY5rm6ElfRs=", "properties": {"ref": "420", "@spider": "harristeeter", "addr:full": "1720 Augusta St.", "addr:city": "Greenville", "addr:state": "SC", "addr:postcode": "29605", "addr:country": "US", "name": "Lewis Plaza", "phone": "(864) 977-8041", "opening_hours": "6am-10pm", "brand": "Harris Teeter"}, "geometry": {"type": "Point", "coordinates": [-82.3987008, 34.8279736]}},
{"type": "Feature", "id": "kmerNrWE8ql_77urMSefFW-KeAE=", "properties": {"ref": "274", "@spider": "harristeeter", "addr:full": "118 Argus Ln", "addr:city": "Mooresville", "addr:state": "NC", "addr:postcode": "28117", "addr:country": "US", "name": "The Village at Byers Creek", "phone": "(704) 799-2004", "opening_hours": "6am-10pm", "brand": "Harris Teeter"}, "geometry": {"type": "Point", "coordinates": [-80.8963524489796, 35.602613877551]}},
{"type": "Feature", "id": "ev84Aio_bBYEZTwDgqEuh1keMpA=", "properties": {"ref": "99", "@spider": "harristeeter", "addr:full": "134-H Town Center Drive", "addr:city": "Mooresville", "addr:state": "NC", "addr:postcode": "28117", "addr:country": "US", "name": "Morrison Plantation", "phone": "(704) 799-1066", "opening_hours": "6am-10pm", "brand": "Harris Teeter"}, "geometry": {"type": "Point", "coordinates": [-80.87572, 35.58643]}},
{"type": "Feature", "id": "Cj_c3LYzBCwgUp2YU0qEq5mDx6w=", "properties": {"ref": "121", "@spider": "harristeeter", "addr:full": "149 Cross Center Drive", "addr:city": "Denver", "addr:state": "NC", "addr:postcode": "28037", "addr:country": "US", "name": "Waterside Crossing", "phone": "(704) 820-0332", "opening_hours": "6am-10pm", "brand": "Harris Teeter"}, "geometry": {"type": "Point", "coordinates": [-80.9968556, 35.4445096]}},
{"type": "Feature", "id": "MBFjcPt_SPIvuI58KNPYWGsAaT4=", "properties": {"ref": "281", "@spider": "harristeeter", "addr:full": "3350 Robinwood Rd", "addr:city": "Gastonia", "addr:state": "NC", "addr:postcode": "28054", "addr:country": "US", "name": "Kendrick Crossing", "phone": "(704) 864-0139", "opening_hours": "6am-10pm", "brand": "Harris Teeter"}, "geometry": {"type": "Point", "coordinates": [-81.1595, 35.21646]}},
{"type": "Feature", "id": "7Ew0BU2BhyCyrPRa6gZ148SbyuU=", "properties": {"ref": "334", "@spider": "harristeeter", "addr:full": "5365 Robinhood Village Dr", "addr:city": "Winston-Salem", "addr:state": "NC", "addr:postcode": "27106", "addr:country": "US", "name": "Robinhood Village", "phone": "(336) 923-2441", "opening_hours": "6am-10pm", "brand": "Harris Teeter"}, "geometry": {"type": "Point", "coordinates": [-80.3657483557183, 36.1223701092251]}},
{"type": "Feature", "id": "I2Tg2dVRTmWtPrsDBB0azYok1Eg=", "properties": {"ref": "179", "@spider": "harristeeter", "addr:full": "19815 North Cove Rd", "addr:city": "Cornelius", "addr:state": "NC", "addr:postcode": "28031", "addr:country": "US", "name": "Jetton Village", "phone": "(704) 895-5020", "opening_hours": "6am-10pm", "brand": "Harris Teeter"}, "geometry": {"type": "Point", "coordinates": [-80.8942481977009, 35.4790893578542]}},
{"type": "Feature", "id": "nv_ltSObE2PNqwUfFWe6kaUEJFo=", "properties": {"ref": "263", "@spider": "harristeeter", "addr:full": "601 Griffith St", "addr:city": "Davidson", "addr:state": "NC", "addr:postcode": "28036", "addr:country": "US", "name": "Harris Teeter Fuel Center", "opening_hours": "Closed", "brand": "Harris Teeter"}, "geometry": {"type": "Point", "coordinates": [-80.861809, 35.501823]}},
{"type": "Feature", "id": "TTf1SFNGW8rpm74fHqndyzBQerw=", "properties": {"ref": "268", "@spider": "harristeeter", "addr:full": "431 Peninsula Dr", "addr:city": "Davidson", "addr:state": "NC", "addr:postcode": "28036", "addr:country": "US", "name": "Davidson Commons", "phone": "(704) 892-0597", "opening_hours": "6am-10pm", "brand": "Harris Teeter"}, "geometry": {"type": "Point", "coordinates": [-80.85997, 35.5009]}},
{"type": "Feature", "id": "lwGJzHsLDatr0K08pK3_NXfuFik=", "properties": {"ref": "272", "@spider": "harristeeter", "addr:full": "7715 Regency Lake Dr", "addr:city": "Huntersville", "addr:state": "NC", "addr:postcode": "28078", "addr:country": "US", "name": "Regency Village", "phone": "(704) 892-1197", "opening_hours": "6am-10pm", "brand": "Harris Teeter"}, "geometry": {"type": "Point", "coordinates": [-80.8960381474497, 35.443818690613]}},
{"type": "Feature", "id": "OQ1VUnQJOk-gySBvcKKklaWcCWc=", "properties": {"ref": "228", "@spider": "harristeeter", "addr:full": "4150 Clemmons Rd", "addr:city": "Clemmons", "addr:state": "NC", "addr:postcode": "27012", "addr:country": "US", "name": "Tanglewood Commons", "phone": "(336) 778-1445", "opening_hours": "6am-10pm", "brand": "Harris Teeter"}, "geometry": {"type": "Point", "coordinates": [-80.4071066896547, 36.01862666313]}},
{"type": "Feature", "id": "sT0CEUXgb0FW0-CLp9xCyvocc5c=", "properties": {"ref": "346", "@spider": "harristeeter", "addr:full": "2835 Reynolda Rd", "addr:city": "Winston-Salem", "addr:state": "NC", "addr:postcode": "27106", "addr:country": "US", "name": "Pine Ridge Plaza", "phone": "336-761-0734", "opening_hours": "6am-10pm", "brand": "Harris Teeter"}, "geometry": {"type": "Point", "coordinates": [-80.2992736471464, 36.1438040235867]}},
{"type": "Feature", "id": "UyQeaMArJdpi69Hga0WfWcBbVk0=", "properties": {"ref": "37", "@spider": "harristeeter", "addr:full": "150 Grant Hill Lane", "addr:city": "Winston-Salem", "addr:state": "NC", "addr:postcode": "27104", "addr:country": "US", "name": "Harper Hill Commons", "phone": "(336) 245-0467", "opening_hours": "6am-10pm", "brand": "Harris Teeter"}, "geometry": {"type": "Point", "coordinates": [-80.3470136734694, 36.0831393877551]}},
{"type": "Feature", "id": "hGQHMum-2pITZOzpSdaX4Tr1Kxc=", "properties": {"ref": "416", "@spider": "harristeeter", "addr:full": "21720 Catawba Avenue", "addr:city": "Cornelius", "addr:state": "NC", "addr:postcode": "28031", "addr:country": "US", "name": "Antiquity Town Center", "phone": "(704) 895-5351", "opening_hours": "6am-10pm", "brand": "Harris Teeter"}, "geometry": {"type": "Point", "coordinates": [-80.8566289289623, 35.481224971366]}},
{"type": "Feature", "id": "fIL7QSpwX7Oq82kV9nNX1TNBVjw=", "properties": {"ref": "127", "@spider": "harristeeter", "addr:full": "1955 N Peacehaven Rd", "addr:city": "Winston-Salem", "addr:state": "NC", "addr:postcode": "27106", "addr:country": "US", "name": "Whitaker Square", "phone": "(336) 760-0116", "opening_hours": "6am-10pm", "brand": "Harris Teeter"}, "geometry": {"type": "Point", "coordinates": [-80.3134976363733, 36.1178788355791]}},
{"type": "Feature", "id": "TP6SMWoodb-Gn2ue5-7bl-ixhio=", "properties": {"ref": "340", "@spider": "harristeeter", "addr:full": "9759 Sam Furr Rd", "addr:city": "Huntersville", "addr:state": "NC", "addr:postcode": "28078", "addr:country": "US", "name": "Northcross Shopping Center", "phone": "(704) 895-2594", "opening_hours": "6am-10pm", "brand": "Harris Teeter"}, "geometry": {"type": "Point", "coordinates": [-80.8630353191489, 35.4420546808511]}},
{"type": "Feature", "id": "eaifoM7ua1dfdFeak2ei2qjCQRk=", "properties": {"ref": "386", "@spider": "harristeeter", "addr:full": "905 South Point Rd.", "addr:city": "Belmont", "addr:state": "NC", "addr:postcode": "28012", "addr:country": "US", "name": "Belmont Town Center", "phone": "(704) 825-6079", "opening_hours": "6am-10pm", "brand": "Harris Teeter"}, "geometry": {"type": "Point", "coordinates": [-81.03758, 35.22378]}},
{"type": "Feature", "id": "o8FEKUdkaafEbRy5XEm5f-grXvE=", "properties": {"ref": "366", "@spider": "harristeeter", "addr:full": "4701 Smith Farm Road", "addr:city": "Charlotte", "addr:state": "NC", "addr:postcode": "28216", "addr:country": "US", "name": "Riverbend Village", "phone": "(704) 949-2220", "opening_hours": "6am-10pm", "brand": "Harris Teeter"}, "geometry": {"type": "Point", "coordinates": [-80.94062891, 35.32769384]}},
{"type": "Feature", "id": "yeeG6M6dhfsOX9q1MFaeoKtNMPg=", "properties": {"ref": "155", "@spider": "harristeeter", "addr:full": "420-22 S Stratford Rd", "addr:city": "Winston-Salem", "addr:state": "NC", "addr:postcode": "27103", "addr:country": "US", "name": "Thruway", "phone": "(336) 723-2305", "opening_hours": "6am-10pm", "brand": "Harris Teeter"}, "geometry": {"type": "Point", "coordinates": [-80.28487, 36.09006]}},
{"type": "Feature", "id": "k6uSWn4OC80xT2QnrCte78BriqE=", "properties": {"ref": "209", "@spider": "harristeeter", "addr:full": "9925 Rose Commons Dr", "addr:city": "Huntersville", "addr:state": "NC", "addr:postcode": "28078", "addr:country": "US", "name": "Rosedale", "phone": "(704) 875-9703", "opening_hours": "6am-10pm", "brand": "Harris Teeter"}, "geometry": {"type": "Point", "coordinates": [-80.862646122449, 35.4085742857143]}},
{"type": "Feature", "id": "4YjO-zSdZZ0wTE0j1oZ_ltqDiVk=", "properties": {"ref": "216", "@spider": "harristeeter", "addr:full": "2281 Cloverdale Ave", "addr:city": "Winston-Salem", "addr:state": "NC", "addr:postcode": "27103", "addr:country": "US", "name": "Cloverdale", "phone": "(336) 777-1075", "opening_hours": "6am-10pm", "brand": "Harris Teeter"}, "geometry": {"type": "Point", "coordinates": [-80.2750234722222, 36.09012125]}},
{"type": "Feature", "id": "Y_w1D35oa6TZoKhXROHrgSbIjbw=", "properties": {"ref": "332", "@spider": "harristeeter", "addr:full": "545 Radford Ln Building A", "addr:city": "Charlottesville", "addr:state": "VA", "addr:postcode": "22903", "addr:country": "US", "name": "Blue Ridge Shopping Center", "phone": "(434) 823-1184", "opening_hours": "6am-10pm", "brand": "Harris Teeter"}, "geometry": {"type": "Point", "coordinates": [-78.6825746255511, 38.0521152422843]}},
{"type": "Feature", "id": "kUj9KKRBr7gIJcp8-WrmFHVpqZA=", "properties": {"ref": "471", "@spider": "harristeeter", "addr:full": "11124 Renaissance Dr", "addr:city": "Davidson", "addr:state": "NC", "addr:postcode": "28036", "addr:country": "US", "name": "Renaissance Square", "phone": "(704) 439-4042", "opening_hours": "6am-10pm", "brand": "Harris Teeter"}, "geometry": {"type": "Point", "coordinates": [-80.7628445205479, 35.4421995890411]}},
{"type": "Feature", "id": "zmT6JiVDvQIMHZx0FbLJzit2nLg=", "properties": {"ref": "3", "@spider": "harristeeter", "addr:full": "4821 Berewick Town Center", "addr:city": "Charlotte", "addr:state": "NC", "addr:postcode": "28278", "addr:country": "US", "name": "Berewick Town Center", "phone": "(704) 587-1011", "opening_hours": "6am-10pm", "brand": "Harris Teeter"}, "geometry": {"type": "Point", "coordinates": [-80.9730675, 35.1602009]}},
{"type": "Feature", "id": "sdZhJQdpxsDPmEcPgagFHTRlo8s=", "properties": {"ref": "190", "@spider": "harristeeter", "addr:full": "9900 Poplar Tent Rd Suite 124", "addr:city": "Concord", "addr:state": "NC", "addr:postcode": "28027", "addr:country": "US", "name": "Cannon Crossroads", "phone": "(704) 721-0735", "opening_hours": "6am-10pm", "brand": "Harris Teeter"}, "geometry": {"type": "Point", "coordinates": [-80.74572, 35.41851]}},
{"type": "Feature", "id": "7DSj3bfIB1DHyVmKyOgkMLaeYpk=", "properties": {"ref": "122", "@spider": "harristeeter", "addr:full": "5810 Highland Shoppes Dr", "addr:city": "Charlotte", "addr:state": "NC", "addr:postcode": "28269", "addr:country": "US", "name": "The Shops at Highland Creek", "phone": "(704) 875-0993", "opening_hours": "6am-10pm", "brand": "Harris Teeter"}, "geometry": {"type": "Point", "coordinates": [-80.7828339, 35.3714943]}},
{"type": "Feature", "id": "7VBZb5aklEWTVgYvBMOaazty9h4=", "properties": {"ref": "472", "@spider": "harristeeter", "addr:full": "8445 Davis Lake Pkwy", "addr:city": "Charlotte", "addr:state": "NC", "addr:postcode": "28269", "addr:country": "US", "name": "Shoppes at Davis Lake", "phone": "(704) 597-7014", "opening_hours": "6am-10pm", "brand": "Harris Teeter"}, "geometry": {"type": "Point", "coordinates": [-80.8114760866506, 35.3339962482768]}},
{"type": "Feature", "id": "Ksk-Z2k4qpIj5kTxlKk5DvkrQ_I=", "properties": {"ref": "88", "@spider": "harristeeter", "addr:full": "13000 South Tryon St", "addr:city": "Charlotte", "addr:state": "NC", "addr:postcode": "28278", "addr:country": "US", "name": "Steele Croft", "phone": "(704) 587-9970", "opening_hours": "6am-10pm", "brand": "Harris Teeter"}, "geometry": {"type": "Point", "coordinates": [-80.9894081188119, 35.1024432673267]}},
{"type": "Feature", "id": "kbFECIcCF9hXkRcIS8bECz4fKlc=", "properties": {"ref": "178", "@spider": "harristeeter", "addr:full": "850 Jake Alexander Blvd W", "addr:city": "Salisbury", "addr:state": "NC", "addr:postcode": "28144", "addr:country": "US", "name": "Alexander Pointe", "phone": "(704) 633-1658", "opening_hours": "6am-10pm", "brand": "Harris Teeter"}, "geometry": {"type": "Point", "coordinates": [-80.4993878339707, 35.6675220439132]}},
{"type": "Feature", "id": "6hHHx3knkVeSy0RYObFfoLGJkDA=", "properties": {"ref": "220", "@spider": "harristeeter", "addr:full": "2720 West Mallard Creek Church Rd", "addr:city": "Charlotte", "addr:state": "NC", "addr:postcode": "28262", "addr:country": "US", "name": "Cochran Commons", "phone": "(704) 717-7501", "opening_hours": "6am-10pm", "brand": "Harris Teeter"}, "geometry": {"type": "Point", "coordinates": [-80.7656573572277, 35.3402125294181]}},
{"type": "Feature", "id": "5EMojUp9QV8LLiEYIRb5BoaqH20=", "properties": {"ref": "475", "@spider": "harristeeter", "addr:full": "867 Stockbridge Dr", "addr:city": "Fort Mill", "addr:state": "SC", "addr:postcode": "29708", "addr:country": "US", "name": "Stockbridge Commons", "phone": "(803) 548-6612", "opening_hours": "6am-10pm", "brand": "Harris Teeter"}, "geometry": {"type": "Point", "coordinates": [-80.9934087344977, 35.0629679905931]}},
{"type": "Feature", "id": "iPM2gQt66WB5faEnlqL9vKMQRJo=", "properties": {"ref": "205", "@spider": "harristeeter", "addr:full": "325 W 6th St", "addr:city": "Charlotte", "addr:state": "NC", "addr:postcode": "28202", "addr:country": "US", "name": "Uptown Charlotte", "phone": "(704) 332-8479", "opening_hours": "6am-10pm", "brand": "Harris Teeter"}, "geometry": {"type": "Point", "coordinates": [-80.8430653005608, 35.2307605840846]}},
{"type": "Feature", "id": "BggmlqVndeAGIu5wlMhSz7jeT4c=", "properties": {"ref": "250", "@spider": "harristeeter", "addr:full": "971 S Main St", "addr:city": "Kernersville", "addr:state": "NC", "addr:postcode": "27284", "addr:country": "US", "name": "Kernersville Marketplace", "phone": "(336) 992-9735", "opening_hours": "6am-10pm", "brand": "Harris Teeter"}, "geometry": {"type": "Point", "coordinates": [-80.0952120512821, 36.1088543589744]}},
{"type": "Feature", "id": "t0kVSlZpyIGAJlUsnBwZuyiVOv8=", "properties": {"ref": "305", "@spider": "harristeeter", "addr:full": "2717 South Blvd.", "addr:city": "Charlotte", "addr:state": "NC", "addr:postcode": "28209", "addr:country": "US", "name": "Sedgefield Shopping Center", "phone": "(704) 527-1018", "opening_hours": "6am-10pm", "brand": "Harris Teeter"}, "geometry": {"type": "Point", "coordinates": [-80.8661797959184, 35.2010985714286]}},
{"type": "Feature", "id": "iIOP7ySbCg2AN_A3C23keVq3gjk=", "properties": {"ref": "388", "@spider": "harristeeter", "addr:full": "105 Purcellville Gateway Dr", "addr:city": "Purcellville", "addr:state": "VA", "addr:postcode": "20132", "addr:country": "US", "name": "Purcellville Gateway", "phone": "(540) 338-8995", "opening_hours": "6am-10pm", "brand": "Harris Teeter"}, "geometry": {"type": "Point", "coordinates": [-77.6946561, 39.1364862]}},
{"type": "Feature", "id": "BL2pKzm3E4Shrdyiqg5t_JSl5Gc=", "properties": {"ref": "61", "@spider": "harristeeter", "addr:full": "1227 East Blvd", "addr:city": "Charlotte", "addr:state": "NC", "addr:postcode": "28203", "addr:country": "US", "name": "Kenilworth Commons", "phone": "(704) 375-5071", "opening_hours": "6am-10pm", "brand": "Harris Teeter"}, "geometry": {"type": "Point", "coordinates": [-80.8458280952381, 35.2028257142857]}},
{"type": "Feature", "id": "6idFnL4rqzoW4vSTLruvlHEEGu4=", "properties": {"ref": "68", "@spider": "harristeeter", "addr:full": "358 George W. Liles Pkwy NW", "addr:city": "Concord", "addr:state": "NC", "addr:postcode": "28027", "addr:country": "US", "name": "Coddle Creek Village", "phone": "(704) 786-2510", "opening_hours": "6am-10pm", "brand": "Harris Teeter"}, "geometry": {"type": "Point", "coordinates": [-80.6651213415141, 35.4107550991836]}},
{"type": "Feature", "id": "pELs8N9i60Sa610snFZj2ctJhC0=", "properties": {"ref": "132", "@spider": "harristeeter", "addr:full": "159 Community St", "addr:city": "Charlottesville", "addr:state": "VA", "addr:postcode": "22911", "addr:country": "US", "name": "Hollymead Town Center", "phone": "(434) 872-0009", "opening_hours": "6am-10pm", "brand": "Harris Teeter"}, "geometry": {"type": "Point", "coordinates": [-78.443776, 38.126884]}},
{"type": "Feature", "id": "NCRCqdx011rNRB9RxvgHr4jiHGE=", "properties": {"ref": "177", "@spider": "harristeeter", "addr:full": "975 Emmet St", "addr:city": "Charlottesville", "addr:state": "VA", "addr:postcode": "22903", "addr:country": "US", "name": "Barrack Road", "phone": "(434) 984-2900", "opening_hours": "6am-11pm", "brand": "Harris Teeter"}, "geometry": {"type": "Point", "coordinates": [-78.5027419701521, 38.0494762779824]}},
{"type": "Feature", "id": "LR0z1bGI1KCUsUb6fVZtNWeLdLk=", "properties": {"ref": "149", "@spider": "harristeeter", "addr:full": "2750 Celanese Rd", "addr:city": "Rock Hill", "addr:state": "SC", "addr:postcode": "29730", "addr:country": "US", "name": "Northwood Square", "phone": "(803) 329-6220", "opening_hours": "6am-10pm", "brand": "Harris Teeter"}, "geometry": {"type": "Point", "coordinates": [-81.02792, 34.97599]}},
{"type": "Feature", "id": "YBt-D9ttfBnFQPt0iNP6SSJl31Q=", "properties": {"ref": "218", "@spider": "harristeeter", "addr:full": "4101 Park Rd", "addr:city": "Charlotte", "addr:state": "NC", "addr:postcode": "28209", "addr:country": "US", "name": "Park Road", "phone": "(704) 523-8106", "opening_hours": "6am-10pm", "brand": "Harris Teeter"}, "geometry": {"type": "Point", "coordinates": [-80.8510191537764, 35.1752371034244]}},
{"type": "Feature", "id": "LeI1YP0wYhyBi1TczjsXaUDKyNQ=", "properties": {"ref": "401", "@spider": "harristeeter", "addr:full": "1704 Central Ave", "addr:city": "Charlotte", "addr:state": "NC", "addr:postcode": "28205", "addr:country": "US", "name": "Central Avenue", "phone": "(704) 375-8491", "opening_hours": "6am-10pm", "brand": "Harris Teeter"}, "geometry": {"type": "Point", "coordinates": [-80.81012, 35.22024]}},
{"type": "Feature", "id": "ITXJg0gk-CE3OvXQxdEZYB3yGJc=", "properties": {"ref": "82", "@spider": "harristeeter", "addr:full": "1750 Highway 160 W", "addr:city": "Fort Mill", "addr:state": "SC", "addr:postcode": "29708", "addr:country": "US", "name": "West Town Market", "phone": "(803) 396-0440", "opening_hours": "6am-10pm", "brand": "Harris Teeter"}, "geometry": {"type": "Point", "coordinates": [-80.9713012940917, 35.0337779668069]}},
{"type": "Feature", "id": "LRcswQsAisjQ6sW7alTmxxQhi7Q=", "properties": {"ref": "258", "@spider": "harristeeter", "addr:full": "8600 University City Blvd", "addr:city": "Charlotte", "addr:state": "NC", "addr:postcode": "28213", "addr:country": "US", "name": "Town Center Plaza", "phone": "(704) 593-1395", "opening_hours": "6am-11pm", "brand": "Harris Teeter"}, "geometry": {"type": "Point", "coordinates": [-80.73907, 35.29765]}},
{"type": "Feature", "id": "K710Rk1QRgf9wyaxtNn01nydpGg=", "properties": {"ref": "412", "@spider": "harristeeter", "addr:full": "1015 Providence Rd", "addr:city": "Charlotte", "addr:state": "NC", "addr:postcode": "28207", "addr:country": "US", "name": "Myers Park Shopping Center", "phone": "(704) 338-9100", "opening_hours": "6am-10pm", "brand": "Harris Teeter"}, "geometry": {"type": "Point", "coordinates": [-80.8268228748159, 35.1955307565179]}},
{"type": "Feature", "id": "QsZ3X35noGz1lRcPIEu1RXq1UaA=", "properties": {"ref": "35", "@spider": "harristeeter", "addr:full": "5030 Park Rd.", "addr:city": "Charlotte", "addr:state": "NC", "addr:postcode": "28209", "addr:country": "US", "name": "Park Selwyn Terrace", "phone": "(704) 527-7154", "opening_hours": "6am-10pm", "brand": "Harris Teeter"}, "geometry": {"type": "Point", "coordinates": [-80.8491364203462, 35.1620166431348]}},
{"type": "Feature", "id": "e-mGrG0VHC0MgVItHf3dcPeCpTo=", "properties": {"ref": "370", "@spider": "harristeeter", "addr:full": "500 Mercantile Place", "addr:city": "Fort Mill", "addr:state": "SC", "addr:postcode": "29715", "addr:country": "US", "name": "Springfield Town Center", "phone": "(803) 547-0520", "opening_hours": "6am-10pm", "brand": "Harris Teeter"}, "geometry": {"type": "Point", "coordinates": [-80.9353753, 35.0579914]}},
{"type": "Feature", "id": "9Slm4_yFCVbUDaODhCyLjWBUr1o=", "properties": {"ref": "202", "@spider": "harristeeter", "addr:full": "1245 Concord Parkway North Suite 1", "addr:city": "Concord", "addr:state": "NC", "addr:postcode": "28025", "addr:country": "US", "name": "Shops at Davidson Corners", "phone": "(704) 795-9351", "opening_hours": "6am-10pm", "brand": "Harris Teeter"}, "geometry": {"type": "Point", "coordinates": [-80.60448, 35.43257]}},
{"type": "Feature", "id": "SMpJJJrpy-ut_I-JwazBTwsJl0U=", "properties": {"ref": "160", "@spider": "harristeeter", "addr:full": "6701 Morrison Blvd", "addr:city": "Charlotte", "addr:state": "NC", "addr:postcode": "28211", "addr:country": "US", "name": "Morrocroft Village", "phone": "(704) 364-1245", "opening_hours": "6am-10pm", "brand": "Harris Teeter"}, "geometry": {"type": "Point", "coordinates": [-80.82687, 35.15274]}},
{"type": "Feature", "id": "e3O5wno_539wRhO9pdziY4gKN_U=", "properties": {"ref": "204", "@spider": "harristeeter", "addr:full": "8538 Park Rd", "addr:city": "Charlotte", "addr:state": "NC", "addr:postcode": "28210", "addr:country": "US", "name": "Quail Corners", "phone": "(704) 552-7212", "opening_hours": "6am-10pm", "brand": "Harris Teeter"}, "geometry": {"type": "Point", "coordinates": [-80.8563004127553, 35.1160946177381]}},
{"type": "Feature", "id": "l7C8fzypCpp7GYrEUs6A9sz8yk4=", "properties": {"ref": "208", "@spider": "harristeeter", "addr:full": "112 S Sharon Amity", "addr:city": "Charlotte", "addr:state": "NC", "addr:postcode": "28211", "addr:country": "US", "name": "Cotswold Village", "phone": "(704) 366-1675", "opening_hours": "6am-10pm", "brand": "Harris Teeter"}, "geometry": {"type": "Point", "coordinates": [-80.7984590002202, 35.175895249945]}},
{"type": "Feature", "id": "WZwoyqNW_7L1Se8zkTEDGyyjEdk=", "properties": {"ref": "92", "@spider": "harristeeter", "addr:full": "12190 University City Blvd", "addr:city": "Harrisburg", "addr:state": "NC", "addr:postcode": "28075", "addr:country": "US", "name": "Caldwell Crossing", "phone": "(704) 454-9905", "opening_hours": "6am-10pm", "brand": "Harris Teeter"}, "geometry": {"type": "Point", "coordinates": [-80.6756224568735, 35.3169512763551]}},
{"type": "Feature", "id": "yHakrYLg3P9Zj2bivukM8oYanTE=", "properties": {"ref": "294", "@spider": "harristeeter", "addr:full": "4100 Carmel Rd", "addr:city": "Charlotte", "addr:state": "NC", "addr:postcode": "28226", "addr:country": "US", "name": "Olde Towne Village", "phone": "(704) 542-6228", "opening_hours": "6am-10pm", "brand": "Harris Teeter"}, "geometry": {"type": "Point", "coordinates": [-80.82328, 35.11659]}},
{"type": "Feature", "id": "KAxTuXLXQAAkxcSSFbSXWOIi-yA=", "properties": {"ref": "46", "@spider": "harristeeter", "addr:full": "9641 Brookdale Drive", "addr:city": "Charlotte", "addr:state": "NC", "addr:postcode": "28215", "addr:country": "US", "name": "Brookdale Shopping Center", "phone": "(704) 599-8449", "opening_hours": "6am-10pm", "brand": "Harris Teeter"}, "geometry": {"type": "Point", "coordinates": [-80.6689227479598, 35.2831784516448]}},
{"type": "Feature", "id": "l7yXQZCQSRZDyed82pPkxmwDW6c=", "properties": {"ref": "4", "@spider": "harristeeter", "addr:full": "7823 Colony Road", "addr:city": "Charlotte", "addr:state": "NC", "addr:postcode": "28226", "addr:country": "US", "name": "Colony Place", "phone": "(704) 341-3688", "opening_hours": "6am-10pm", "brand": "Harris Teeter"}, "geometry": {"type": "Point", "coordinates": [-80.8080422937701, 35.106093985384]}},
{"type": "Feature", "id": "J9VPtxr_Pr3RXYJllB5xkpvdDb4=", "properties": {"ref": "11", "@spider": "harristeeter", "addr:full": "15007 John J. Delaney Dr", "addr:city": "Charlotte", "addr:state": "NC", "addr:postcode": "28277", "addr:country": "US", "name": "Ballantyne Commons", "phone": "(704) 716-2000", "opening_hours": "6am-10pm", "brand": "Harris Teeter"}, "geometry": {"type": "Point", "coordinates": [-80.849556122449, 35.0521353061225]}},
{"type": "Feature", "id": "384y9xktC3Oq7zSsYt6pNVHFQu0=", "properties": {"ref": "30", "@spider": "harristeeter", "addr:full": "3333 Pineville-Matthews Rd", "addr:city": "Charlotte", "addr:state": "NC", "addr:postcode": "28226", "addr:country": "US", "name": "Arboretum", "phone": "(704) 544-3340", "opening_hours": "6am-10pm", "brand": "Harris Teeter"}, "geometry": {"type": "Point", "coordinates": [-80.784513, 35.09783175]}},
{"type": "Feature", "id": "StO4NtE8J2hMSpxTjQsOd5LhopY=", "properties": {"ref": "317", "@spider": "harristeeter", "addr:full": "16625 Lancaster Hwy", "addr:city": "Charlotte", "addr:state": "NC", "addr:postcode": "28277", "addr:country": "US", "name": "The Shoppes at Ardrey Kell", "phone": "(704) 714-4795", "opening_hours": "6am-10pm", "brand": "Harris Teeter"}, "geometry": {"type": "Point", "coordinates": [-80.848939893291, 35.0224291463285]}},
{"type": "Feature", "id": "ev3K1ug5hgj8yIbRQwgfM5dbzlc=", "properties": {"ref": "66", "@spider": "harristeeter", "addr:full": "7852 Rea Rd", "addr:city": "Charlotte", "addr:state": "NC", "addr:postcode": "28277", "addr:country": "US", "name": "Stonecrest Shopping Center", "phone": "(704) 341-2061", "opening_hours": "6am-10pm", "brand": "Harris Teeter"}, "geometry": {"type": "Point", "coordinates": [-80.8134530144566, 35.0607243846642]}},
{"type": "Feature", "id": "rM-wxKjBKZ12U70p8LM0KJhBQQw=", "properties": {"ref": "174", "@spider": "harristeeter", "addr:full": "5706 Wyalong Dr", "addr:city": "Charlotte", "addr:state": "NC", "addr:postcode": "28227", "addr:country": "US", "name": "Mintworth Commons", "phone": "(704) 545-0229", "opening_hours": "6am-10pm", "brand": "Harris Teeter"}, "geometry": {"type": "Point", "coordinates": [-80.7095690874994, 35.1737204721779]}},
{"type": "Feature", "id": "pH5rVL0KHTwnv1Ndr1TJew6Y4DA=", "properties": {"ref": "171", "@spider": "harristeeter", "addr:full": "1621 N Sardis Rd", "addr:city": "Charlotte", "addr:state": "NC", "addr:postcode": "28270", "addr:country": "US", "name": "Sardis Crossing", "phone": "(704) 846-4885", "opening_hours": "6am-10pm", "brand": "Harris Teeter"}, "geometry": {"type": "Point", "coordinates": [-80.73802, 35.13923]}},
{"type": "Feature", "id": "oBx2XXlJTdbRHkBVJqyoIB_6p24=", "properties": {"ref": "341", "@spider": "harristeeter", "addr:full": "265 Eastchester Dr Suite 121", "addr:city": "High Point", "addr:state": "NC", "addr:postcode": "27262", "addr:country": "US", "name": "High Point Mall", "phone": "(336) 869-6317", "opening_hours": "6am-11pm", "brand": "Harris Teeter"}, "geometry": {"type": "Point", "coordinates": [-80.0177133770376, 35.9832908871461]}},
{"type": "Feature", "id": "gRhbOlk3Njh6cgfnX312SxkVmrA=", "properties": {"ref": "173", "@spider": "harristeeter", "addr:full": "1589 Skeet Club Rd Suite 140", "addr:city": "High Point", "addr:state": "NC", "addr:postcode": "27265", "addr:country": "US", "name": "Oak Hollow Square", "phone": "(336) 841-1144", "opening_hours": "6am-10pm", "brand": "Harris Teeter"}, "geometry": {"type": "Point", "coordinates": [-79.9705555555555, 36.0319055555556]}},
{"type": "Feature", "id": "FrO1Izhq1p_NCcNLiKFqBH8RjCM=", "properties": {"ref": "280", "@spider": "harristeeter", "addr:full": "4010 Battleground Ave", "addr:city": "Greensboro", "addr:state": "NC", "addr:postcode": "27410", "addr:country": "US", "name": "The Shoppes at Battleground Oaks", "phone": "(336) 288-2203", "opening_hours": "6am-10pm", "brand": "Harris Teeter"}, "geometry": {"type": "Point", "coordinates": [-79.8695031403837, 36.1476189459912]}},
{"type": "Feature", "id": "9AMrpxO_zqSzXfFib3974xkWBg0=", "properties": {"ref": "27", "@spider": "harristeeter", "addr:full": "9720 Rea Rd", "addr:city": "Charlotte", "addr:state": "NC", "addr:postcode": "28277", "addr:country": "US", "name": "The Shops at Blakeney", "phone": "(704) 752-1013", "opening_hours": "6am-10pm", "brand": "Harris Teeter"}, "geometry": {"type": "Point", "coordinates": [-80.805031285164, 35.0370473193648]}},
{"type": "Feature", "id": "ZqH8nja4YQurZiMEM7XB3xahyl8=", "properties": {"ref": "342", "@spider": "harristeeter", "addr:full": "1605 New Garden Rd", "addr:city": "Greensboro", "addr:state": "NC", "addr:postcode": "27410", "addr:country": "US", "name": "Garden Creek Center", "phone": "(336) 855-9095", "opening_hours": "6am-11pm", "brand": "Harris Teeter"}, "geometry": {"type": "Point", "coordinates": [-79.87858, 36.11486]}},
{"type": "Feature", "id": "GE6AI44fNoogFaCleX0tBTDtMaE=", "properties": {"ref": "45", "@spider": "harristeeter", "addr:full": "10616 Providence Rd", "addr:city": "Charlotte", "addr:state": "NC", "addr:postcode": "28277", "addr:country": "US", "name": "Providence Commons", "phone": "(704) 849-2776", "opening_hours": "6am-10pm", "brand": "Harris Teeter"}, "geometry": {"type": "Point", "coordinates": [-80.77030375, 35.0661425]}},
{"type": "Feature", "id": "4vVmpmfVBzA1txZBdk4LHTy3STE=", "properties": {"ref": "329", "@spider": "harristeeter", "addr:full": "530 Fletcher Dr", "addr:city": "Warrenton", "addr:state": "VA", "addr:postcode": "20186", "addr:country": "US", "name": "North Rock Shopping Center", "phone": "(540) 349-9500", "opening_hours": "6am-10pm", "brand": "Harris Teeter"}, "geometry": {"type": "Point", "coordinates": [-77.7940051368833, 38.7306325161703]}},
{"type": "Feature", "id": "U22de_K-R8cNunfmZU7jvZ1AriA=", "properties": {"ref": "440", "@spider": "harristeeter", "addr:full": "11135 Golf Links Dr", "addr:city": "Charlotte", "addr:state": "NC", "addr:postcode": "28277", "addr:country": "US", "name": "Rea Farms Shopping Center", "phone": "(704) 303-8601", "opening_hours": "6am-10pm", "brand": "Harris Teeter"}, "geometry": {"type": "Point", "coordinates": [-80.77151, 35.05426]}},
{"type": "Feature", "id": "SwBxKkcqQ2U7LJVCSuDDMxDooY4=", "properties": {"ref": "439", "@spider": "harristeeter", "addr:full": "11135 Golf Links Dr", "addr:city": "Charlotte", "addr:state": "NC", "addr:postcode": "28277", "addr:country": "US", "name": "Rea Farms Shopping Center", "phone": "(704) 303-8601", "opening_hours": "Closed", "brand": "Harris Teeter"}, "geometry": {"type": "Point", "coordinates": [-80.771404, 35.053761]}},
{"type": "Feature", "id": "nzDmwTzzWcypIbDYPonY0bbvRSA=", "properties": {"ref": "33", "@spider": "harristeeter", "addr:full": "701 Francis King Street", "addr:city": "Greensboro", "addr:state": "NC", "addr:postcode": "27410", "addr:country": "US", "name": "Guilford College Location", "phone": "(336) 856-8140", "opening_hours": "6am-11pm", "brand": "Harris Teeter"}, "geometry": {"type": "Point", "coordinates": [-79.89002, 36.08823]}},
{"type": "Feature", "id": "-fw9CU3Bn0QIK3i4RijhLN3WYwY=", "properties": {"ref": "157", "@spider": "harristeeter", "addr:full": "1811 Matthews Township Pkwy", "addr:city": "Matthews", "addr:state": "NC", "addr:postcode": "28105", "addr:country": "US", "name": "Matthews Festival", "phone": "(704) 846-7117", "opening_hours": "6am-10pm", "brand": "Harris Teeter"}, "geometry": {"type": "Point", "coordinates": [-80.7085025372525, 35.1239753814838]}},
{"type": "Feature", "id": "yfNfSGMdsYwE2OZtC31iCP_yeUU=", "properties": {"ref": "474", "@spider": "harristeeter", "addr:full": "7036 Brighton Park Dr", "addr:city": "Mint Hill", "addr:state": "NC", "addr:postcode": "28227", "addr:country": "US", "name": "Mint Hill Pavilion", "phone": "(704) 545-3281", "opening_hours": "6am-10pm", "brand": "Harris Teeter"}, "geometry": {"type": "Point", "coordinates": [-80.6618442857143, 35.1707971428571]}},
{"type": "Feature", "id": "skdH-4BGBmYeWSVIJ6-XmDcFDO4=", "properties": {"ref": "147", "@spider": "harristeeter", "addr:full": "3100 Weddington Rd", "addr:city": "Matthews", "addr:state": "NC", "addr:postcode": "28105", "addr:country": "US", "name": "Plantation Market", "phone": "(704) 841-1810", "opening_hours": "6am-10pm", "brand": "Harris Teeter"}, "geometry": {"type": "Point", "coordinates": [-80.7313175844446, 35.0831377686873]}},
{"type": "Feature", "id": "jcU6SqzK1pLGYBweEXipN9iCAS4=", "properties": {"ref": "100", "@spider": "harristeeter", "addr:full": "19350 Winmeade Dr", "addr:city": "Leesburg", "addr:state": "VA", "addr:postcode": "20176", "addr:country": "US", "name": "Lansdowne", "phone": "(571) 333-2495", "opening_hours": "6am-10pm", "brand": "Harris Teeter"}, "geometry": {"type": "Point", "coordinates": [-77.4951133093776, 39.0813785580971]}},
{"type": "Feature", "id": "53E-beGPXAEhUktHsqJET3H7bV8=", "properties": {"ref": "343", "@spider": "harristeeter", "addr:full": "13639 Providence Rd", "addr:city": "Weddington", "addr:state": "NC", "addr:postcode": "28104", "addr:country": "US", "name": "Weddington Corners", "phone": "(704) 847-5955", "opening_hours": "6am-10pm", "brand": "Harris Teeter"}, "geometry": {"type": "Point", "coordinates": [-80.76258, 35.0240673118867]}},
{"type": "Feature", "id": "I6lTAo69We_MavOld_jWfy-Msvg=", "properties": {"ref": "372", "@spider": "harristeeter", "addr:full": "6271 Carolina Commons Dr", "addr:city": "Indian Land", "addr:state": "SC", "addr:postcode": "29707", "addr:country": "US", "name": "Carolina Commons", "phone": "(803) 802-5300", "opening_hours": "6am-10pm", "brand": "Harris Teeter"}, "geometry": {"type": "Point", "coordinates": [-80.8381333333333, 34.93715]}},
{"type": "Feature", "id": "7rGP83jCLa7G2yJ1FWNpUilpOes=", "properties": {"ref": "310", "@spider": "harristeeter", "addr:full": "42780 Creek View Plaza", "addr:city": "Ashburn", "addr:state": "VA", "addr:postcode": "20147", "addr:country": "US", "name": "Goose Creek Village", "phone": "(571) 223-2245", "opening_hours": "6am-10pm", "brand": "Harris Teeter"}, "geometry": {"type": "Point", "coordinates": [-77.5211928571429, 39.0432314285714]}},
{"type": "Feature", "id": "JWoYqZzw9NKJfHNQ_21wfdP6pag=", "properties": {"ref": "64", "@spider": "harristeeter", "addr:full": "5710-W West Gate City Boulevard", "addr:city": "Greensboro", "addr:state": "NC", "addr:postcode": "27407", "addr:country": "US", "name": "Adams Farm", "phone": "(336) 854-4050", "opening_hours": "6am-10pm", "brand": "Harris Teeter"}, "geometry": {"type": "Point", "coordinates": [-79.89716, 36.0164172]}},
{"type": "Feature", "id": "txCSEz5hHjI_llw1tiYtzZSrYAQ=", "properties": {"ref": "306", "@spider": "harristeeter", "addr:full": "3330 W Friendly Ave", "addr:city": "Greensboro", "addr:state": "NC", "addr:postcode": "27410", "addr:country": "US", "name": "The Shops at Friendly Center", "phone": "(336) 297-1361", "opening_hours": "6am-10pm", "brand": "Harris Teeter"}, "geometry": {"type": "Point", "coordinates": [-79.8369363139146, 36.0851733262462]}},
{"type": "Feature", "id": "iBYxio-RT1H1sjpDlRCsvFppxxU=", "properties": {"ref": "91", "@spider": "harristeeter", "addr:full": "401 Pisgah Church Rd", "addr:city": "Greensboro", "addr:state": "NC", "addr:postcode": "27455", "addr:country": "US", "name": "North Elm Village", "phone": "(336) 545-0236", "opening_hours": "6am-10pm", "brand": "Harris Teeter"}, "geometry": {"type": "Point", "coordinates": [-79.79601, 36.13178]}},
{"type": "Feature", "id": "mbxag7IBFiHrydTMnvSriPZIVBo=", "properties": {"ref": "473", "@spider": "harristeeter", "addr:full": "15080-P Idlewild Rd", "addr:city": "Matthews", "addr:state": "NC", "addr:postcode": "28104", "addr:country": "US", "name": "Idlewild Market", "phone": "(704) 882-2277", "opening_hours": "6am-10pm", "brand": "Harris Teeter"}, "geometry": {"type": "Point", "coordinates": [-80.6519595364331, 35.1235990066286]}},
{"type": "Feature", "id": "H6jHWAqxlPI9R79ygauf0uYBV_0=", "properties": {"ref": "347", "@spider": "harristeeter", "addr:full": "2639 Lawndale Dr", "addr:city": "Greensboro", "addr:state": "NC", "addr:postcode": "27408", "addr:country": "US", "name": "Lawndale Crossing Shopping Center", "phone": "(336) 545-1354", "opening_hours": "6am-10pm", "brand": "Harris Teeter"}, "geometry": {"type": "Point", "coordinates": [-79.8191021557778, 36.1029836532593]}},
{"type": "Feature", "id": "GuyMP34-B9mBHheuiCC81Sj8WL8=", "properties": {"ref": "273", "@spider": "harristeeter", "addr:full": "1351 Chestnut Ln", "addr:city": "Matthews", "addr:state": "NC", "addr:postcode": "28104", "addr:country": "US", "name": "Austin Village", "phone": "(704) 234-0405", "opening_hours": "6am-10pm", "brand": "Harris Teeter"}, "geometry": {"type": "Point", "coordinates": [-80.699134, 35.069124]}},
{"type": "Feature", "id": "h53U44YF-F9j0BT5WEDgnUHmVjw=", "properties": {"ref": "230", "@spider": "harristeeter", "addr:full": "42415 Ryan Rd", "addr:city": "Ashburn", "addr:state": "VA", "addr:postcode": "20148", "addr:country": "US", "name": "Brambleton Shopping Center", "phone": "(703) 542-8300", "opening_hours": "6am-10pm", "brand": "Harris Teeter"}, "geometry": {"type": "Point", "coordinates": [-77.5348261808561, 38.986722659131]}},
{"type": "Feature", "id": "Z3uWFu6xeEWVCg_vPPeb7AdpLX4=", "properties": {"ref": "39", "@spider": "harristeeter", "addr:full": "7800 Stevens Mill Rd", "addr:city": "Matthews", "addr:state": "NC", "addr:postcode": "28104", "addr:country": "US", "name": "Stevens Mill Shopping Center", "phone": "(704) 882-2749", "opening_hours": "6am-10pm", "brand": "Harris Teeter"}, "geometry": {"type": "Point", "coordinates": [-80.6253, 35.14087]}},
{"type": "Feature", "id": "xWrS2btMZmVGqZki_0nn7bq4Wfo=", "properties": {"ref": "242", "@spider": "harristeeter", "addr:full": "20070 Ashbrook Commons Plaza Suite 151", "addr:city": "Ashburn", "addr:state": "VA", "addr:postcode": "20147", "addr:country": "US", "name": "Ashbrook Commons Plaza", "phone": "(571) 223-0110", "opening_hours": "6am-10pm", "brand": "Harris Teeter"}, "geometry": {"type": "Point", "coordinates": [-77.4709923076923, 39.0604076923077]}},
{"type": "Feature", "id": "r3tQis00kmpRxctvXWcFzJiIpBY=", "properties": {"ref": "284", "@spider": "harristeeter", "addr:full": "43300 Southern Walk Plaza Suite 130", "addr:city": "Ashburn", "addr:state": "VA", "addr:postcode": "20148", "addr:country": "US", "name": "Broadlands South", "phone": "(703) 723-0842", "opening_hours": "6am-10pm", "brand": "Harris Teeter"}, "geometry": {"type": "Point", "coordinates": [-77.50489, 39.0084]}},
{"type": "Feature", "id": "KDuRMbsYKFAAjZcNHfUndQPrkOk=", "properties": {"ref": "238", "@spider": "harristeeter", "addr:full": "42015 Village Center Plaza #110", "addr:city": "Aldie", "addr:state": "VA", "addr:postcode": "20105", "addr:country": "US", "name": "Stone Ridge", "phone": "(703) 542-8340", "opening_hours": "6am-10pm", "brand": "Harris Teeter"}, "geometry": {"type": "Point", "coordinates": [-77.54798, 38.93929]}},
{"type": "Feature", "id": "di8_srjwaukkbOXMeTN1mVaWh_c=", "properties": {"ref": "182", "@spider": "harristeeter", "addr:full": "8157 Kensington Dr", "addr:city": "Waxhaw", "addr:state": "NC", "addr:postcode": "28173", "addr:country": "US", "name": "Cureton Town Center", "phone": "(704) 243-1238", "opening_hours": "6am-10pm", "brand": "Harris Teeter"}, "geometry": {"type": "Point", "coordinates": [-80.7592515924722, 34.9552179376086]}},
{"type": "Feature", "id": "srNnTHIHy01cg_bsSvqmGbCbuuY=", "properties": {"ref": "249", "@spider": "harristeeter", "addr:full": "5920 Weddington-Monroe Rd", "addr:city": "Wesley Chapel", "addr:state": "NC", "addr:postcode": "28104", "addr:country": "US", "name": "Village Commons at Wesley Chapel", "phone": "(704) 843-4100", "opening_hours": "6am-10pm", "brand": "Harris Teeter"}, "geometry": {"type": "Point", "coordinates": [-80.6999510405482, 35.0011328359072]}},
{"type": "Feature", "id": "OeL905_oY2Rv2-eyFasFr9RdYIU=", "properties": {"ref": "338", "@spider": "harristeeter", "addr:full": "13901 Heathcote Blvd", "addr:city": "Gainesville", "addr:state": "VA", "addr:postcode": "20155", "addr:country": "US", "name": "Heritage Hunt", "phone": "(703) 754-7736", "opening_hours": "6am-10pm", "brand": "Harris Teeter"}, "geometry": {"type": "Point", "coordinates": [-77.6096134733804, 38.8090730662819]}},
{"type": "Feature", "id": "77AxUes58QbEovH_gvundkvZq64=", "properties": {"ref": "129", "@spider": "harristeeter", "addr:full": "6610 Old Monroe Rd", "addr:city": "Indian Trail", "addr:state": "NC", "addr:postcode": "28079", "addr:country": "US", "name": "The Shops at Sun Valley", "phone": "(704) 289-1156", "opening_hours": "6am-10pm", "brand": "Harris Teeter"}, "geometry": {"type": "Point", "coordinates": [-80.6474824142006, 35.0486390978216]}},
{"type": "Feature", "id": "UNQvvZQtvDQcNiiKz2jHwV7CslM=", "properties": {"ref": "309", "@spider": "harristeeter", "addr:full": "25401 Eastern Marketplace Plaza Suite 150", "addr:city": "Chantilly", "addr:state": "VA", "addr:postcode": "20152", "addr:country": "US", "name": "East Gate Marketplace", "phone": "(703) 722-2126", "opening_hours": "6am-10pm", "brand": "Harris Teeter"}, "geometry": {"type": "Point", "coordinates": [-77.48865, 38.91571]}},
{"type": "Feature", "id": "60wKUqTB1gcSHhzHjv4Qqlyc8Sw=", "properties": {"ref": "409", "@spider": "harristeeter", "addr:full": "22700 Sweetshrub Dr", "addr:city": "Clarksburg", "addr:state": "MD", "addr:postcode": "20871", "addr:country": "US", "name": "Clarksburg Village Center", "phone": "(301) 916-7280", "opening_hours": "6am-10pm", "brand": "Harris Teeter"}, "geometry": {"type": "Point", "coordinates": [-77.2507529, 39.2302232]}},
{"type": "Feature", "id": "xAHwsVI4nNW8yASAUnBmAD023LM=", "properties": {"ref": "326", "@spider": "harristeeter", "addr:full": "21399 Epicerie Plaza", "addr:city": "Sterling", "addr:state": "VA", "addr:postcode": "20164", "addr:country": "US", "name": "Cascades Overlook", "phone": "(571) 526-4835", "opening_hours": "6am-10pm", "brand": "Harris Teeter"}, "geometry": {"type": "Point", "coordinates": [-77.3964973, 39.0237614]}},
{"type": "Feature", "id": "-Vl7_0c8-R-MPYKrdweRXUiotvw=", "properties": {"ref": "325", "@spider": "harristeeter", "addr:full": "14101 Darnestown Rd", "addr:city": "Germantown", "addr:state": "MD", "addr:postcode": "20874", "addr:country": "US", "name": "Darnestown Rd Location", "phone": "(240) 631-1310", "opening_hours": "6am-10pm", "brand": "Harris Teeter"}, "geometry": {"type": "Point", "coordinates": [-77.29178, 39.10331]}},
{"type": "Feature", "id": "DO-EZUnQo97jlxkiRLGQMkCRw44=", "properties": {"ref": "85", "@spider": "harristeeter", "addr:full": "12960 Highland Crossing Dr", "addr:city": "Herndon", "addr:state": "VA", "addr:postcode": "20171", "addr:country": "US", "name": "Woodland Park Crossing Shopping Center", "phone": "(703) 464-7934", "opening_hours": "6am-10pm", "brand": "Harris Teeter"}, "geometry": {"type": "Point", "coordinates": [-77.39553, 38.94953]}},
{"type": "Feature", "id": "D5jAJk_gpIyx8n91O68vtoDpGWs=", "properties": {"ref": "313", "@spider": "harristeeter", "addr:full": "10438 Bristow Center Dr", "addr:city": "Bristow", "addr:state": "VA", "addr:postcode": "20136", "addr:country": "US", "name": "Bristow Shopping Center", "phone": "(703) 257-1367", "opening_hours": "6am-10pm", "brand": "Harris Teeter"}, "geometry": {"type": "Point", "coordinates": [-77.549850671819, 38.7334459254266]}},
{"type": "Feature", "id": "Zdc9vZ5jMLlg30pCv1qXnCWqs5k=", "properties": {"ref": "81", "@spider": "harristeeter", "addr:full": "11806 Spectrum Center", "addr:city": "Reston", "addr:state": "VA", "addr:postcode": "20190", "addr:country": "US", "name": "Spectrum at Town Center", "phone": "(703) 435-5800", "opening_hours": "6am-10pm", "brand": "Harris Teeter"}, "geometry": {"type": "Point", "coordinates": [-77.35508, 38.96567]}},
{"type": "Feature", "id": "MYIj9DwxYRghWstY3okmreyVYT8=", "properties": {"ref": "384", "@spider": "harristeeter", "addr:full": "323 Copley Place", "addr:city": "Gaithersburg", "addr:state": "MD", "addr:postcode": "20878", "addr:country": "US", "name": "Crown Farm", "phone": "(301) 963-7904", "opening_hours": "6am-10pm", "brand": "Harris Teeter"}, "geometry": {"type": "Point", "coordinates": [-77.2077309, 39.1148589]}},
{"type": "Feature", "id": "Bj6EgEBX1cGcuWDN-pIM8uECvyA=", "properties": {"ref": "78", "@spider": "harristeeter", "addr:full": "817 N First St", "addr:city": "Albemarle", "addr:state": "NC", "addr:postcode": "28001", "addr:country": "US", "name": "First Street Station", "phone": "(704) 983-6986", "opening_hours": "6am-10pm", "brand": "Harris Teeter"}, "geometry": {"type": "Point", "coordinates": [-80.1990769620681, 35.3614676981265]}},
{"type": "Feature", "id": "5SwZ12Hp2VnezxhFFh8A4gFKQNA=", "properties": {"ref": "253", "@spider": "harristeeter", "addr:full": "3905 Fair Ridge Dr", "addr:city": "Fairfax", "addr:state": "VA", "addr:postcode": "22033", "addr:country": "US", "name": "Pender Campus", "phone": "(703) 877-0580", "opening_hours": "6am-10pm", "brand": "Harris Teeter"}, "geometry": {"type": "Point", "coordinates": [-77.3722890420574, 38.8718343607044]}},
{"type": "Feature", "id": "24HS_rJplENO7UbksvOPKkdIYzw=", "properties": {"ref": "303", "@spider": "harristeeter", "addr:full": "10060 Market Circle", "addr:city": "Manassas", "addr:state": "VA", "addr:postcode": "20110", "addr:country": "US", "name": "Hastings Market Place", "phone": "(703) 257-4685", "opening_hours": "6am-10pm", "brand": "Harris Teeter"}, "geometry": {"type": "Point", "coordinates": [-77.4530312244898, 38.7394353061225]}},
{"type": "Feature", "id": "kSAjUNYZb5CVsxLL_Y3YpORArAM=", "properties": {"ref": "373", "@spider": "harristeeter", "addr:full": "12525 Park Potomac Ave", "addr:city": "Potomac", "addr:state": "MD", "addr:postcode": "20854", "addr:country": "US", "name": "Park Potomac", "phone": "(301) 294-5329", "opening_hours": "6am-10pm", "brand": "Harris Teeter"}, "geometry": {"type": "Point", "coordinates": [-77.1578314285714, 39.0603189795918]}},
{"type": "Feature", "id": "OpVFNzos8j-Qny7B98yqbCS986Q=", "properties": {"ref": "345", "@spider": "harristeeter", "addr:full": "2727 S. Church St", "addr:city": "Burlington", "addr:state": "NC", "addr:postcode": "27215", "addr:country": "US", "name": "New Market Square", "phone": "(336) 585-1444", "opening_hours": "6am-11pm", "brand": "Harris Teeter"}, "geometry": {"type": "Point", "coordinates": [-79.4851324944003, 36.0807395267598]}},
{"type": "Feature", "id": "xtgB5-OHOS5QLPh3J604Z0OGmWg=", "properties": {"ref": "403", "@spider": "harristeeter", "addr:full": "18169 Towncenter Dr", "addr:city": "Olney", "addr:state": "MD", "addr:postcode": "20832", "addr:country": "US", "name": "Fair Hill Shopping Center", "phone": "(301) 260-1792", "opening_hours": "6am-10pm", "brand": "Harris Teeter"}, "geometry": {"type": "Point", "coordinates": [-77.06112262212, 39.1534420404539]}},
{"type": "Feature", "id": "kWUATObFt4BKjkk0og7yKSHDhhU=", "properties": {"ref": "302", "@spider": "harristeeter", "addr:full": "8200 Crestwood Heights Dr", "addr:city": "McLean", "addr:state": "VA", "addr:postcode": "22102", "addr:country": "US", "name": "Tysons Corner", "phone": "(703) 448-0132", "opening_hours": "6am-10pm", "brand": "Harris Teeter"}, "geometry": {"type": "Point", "coordinates": [-77.22712, 38.92972]}},
{"type": "Feature", "id": "HPM_c2sGR7IFEFKbXVLwYUI5kow=", "properties": {"ref": "328", "@spider": "harristeeter", "addr:full": "11845 Old Georgetown Rd", "addr:city": "North Bethesda", "addr:state": "MD", "addr:postcode": "20852", "addr:country": "US", "name": "North Bethesda Town Center", "phone": "(301) 468-3029", "opening_hours": "6am-10pm", "brand": "Harris Teeter"}, "geometry": {"type": "Point", "coordinates": [-77.1099990005853, 39.0498377749854]}},
{"type": "Feature", "id": "b11ZuDh1EsH6SSLOvrUwacuBZII=", "properties": {"ref": "308", "@spider": "harristeeter", "addr:full": "2675 Avenir Place", "addr:city": "Vienna", "addr:state": "VA", "addr:postcode": "22180", "addr:country": "US", "name": "Dunn Loring", "phone": "(703) 204-0840", "opening_hours": "6am-10pm", "brand": "Harris Teeter"}, "geometry": {"type": "Point", "coordinates": [-77.2288029, 38.8811376]}},
{"type": "Feature", "id": "3ePF8nP7Xe1yFvIMU0oJ_GkGtuE=", "properties": {"ref": "316", "@spider": "harristeeter", "addr:full": "12745 Galveston Ct", "addr:city": "Manassas", "addr:state": "VA", "addr:postcode": "20112", "addr:country": "US", "name": "The Shops at County Center", "phone": "(703) 580-0251", "opening_hours": "6am-10pm", "brand": "Harris Teeter"}, "geometry": {"type": "Point", "coordinates": [-77.3645047304638, 38.6788468368526]}},
{"type": "Feature", "id": "ICO7rjtz_9oqY3_V2Ia15C97jTU=", "properties": {"ref": "382", "@spider": "harristeeter", "addr:full": "11075 Resort Rd", "addr:city": "Ellicott City", "addr:state": "MD", "addr:postcode": "21042", "addr:country": "US", "name": "Town Square at Turf Valley", "phone": "(410) 461-5014", "opening_hours": "6am-10pm", "brand": "Harris Teeter"}, "geometry": {"type": "Point", "coordinates": [-76.87129, 39.2995]}},
{"type": "Feature", "id": "BgvhtjjQPYoaDGAGe4KWIduHwZI=", "properties": {"ref": "404", "@spider": "harristeeter", "addr:full": "4805 Battery Ln.", "addr:city": "Bethesda", "addr:state": "MD", "addr:postcode": "20814", "addr:country": "US", "name": "Flats 8300", "phone": "(240) 630-8635", "opening_hours": "6am-10pm", "brand": "Harris Teeter"}, "geometry": {"type": "Point", "coordinates": [-77.0965305027295, 38.9927561934429]}},
{"type": "Feature", "id": "DZRfPcULhVcGihUwiF23xiHVnHs=", "properties": {"ref": "307", "@spider": "harristeeter", "addr:full": "301 West Broad", "addr:city": "Falls Church", "addr:state": "VA", "addr:postcode": "22046", "addr:country": "US", "name": "Little Falls", "phone": "(571) 419-6869", "opening_hours": "6am-10pm", "brand": "Harris Teeter"}, "geometry": {"type": "Point", "coordinates": [-77.17367, 38.8839]}},
{"type": "Feature", "id": "n1kiElBw58MaWIJK0uOsPCaYXI0=", "properties": {"ref": "23", "@spider": "harristeeter", "addr:full": "2425 N. Harrison St", "addr:city": "Arlington", "addr:state": "VA", "addr:postcode": "22207", "addr:country": "US", "name": "Lee Harrison Shopping Center", "phone": "(703) 532-8663", "opening_hours": "6am-10pm", "brand": "Harris Teeter"}, "geometry": {"type": "Point", "coordinates": [-77.138035615487, 38.8965304103246]}},
{"type": "Feature", "id": "2_ODGHJ2h2N6jjeJFv0ZWfJ7VKs=", "properties": {"ref": "279", "@spider": "harristeeter", "addr:full": "6351 Columbia Pike", "addr:city": "Falls Church", "addr:state": "VA", "addr:postcode": "22041", "addr:country": "US", "name": "Barcroft Plaza", "phone": "(703) 256-6615", "opening_hours": "6am-10pm", "brand": "Harris Teeter"}, "geometry": {"type": "Point", "coordinates": [-77.15624, 38.83671]}},
{"type": "Feature", "id": "HmZa9mNHbhb3VdsnMroFzJ_jwVA=", "properties": {"ref": "323", "@spider": "harristeeter", "addr:full": "8184 Westside Blvd", "addr:city": "Fulton", "addr:state": "MD", "addr:postcode": "20759", "addr:country": "US", "name": "Maple Lawn Market Place", "phone": "(301) 362-5761", "opening_hours": "6am-10pm", "brand": "Harris Teeter"}, "geometry": {"type": "Point", "coordinates": [-76.9095877573968, 39.1483256750938]}},
{"type": "Feature", "id": "uXK6nG9rd49FS4HNC2wMGk9UzKU=", "properties": {"ref": "86", "@spider": "harristeeter", "addr:full": "600 North Glebe Rd", "addr:city": "Arlington", "addr:state": "VA", "addr:postcode": "22203", "addr:country": "US", "name": "Hyde Park Plaza", "phone": "(703) 526-9100", "opening_hours": "6am-10pm", "brand": "Harris Teeter"}, "geometry": {"type": "Point", "coordinates": [-77.10978, 38.87709]}},
{"type": "Feature", "id": "5jYeygb3I_on4pvAZOP72cwCglw=", "properties": {"ref": "371", "@spider": "harristeeter", "addr:full": "954 South George Mason", "addr:city": "Arlington", "addr:state": "VA", "addr:postcode": "22204", "addr:country": "US", "name": "George Mason", "phone": "(571) 384-1610", "opening_hours": "6am-10pm", "brand": "Harris Teeter"}, "geometry": {"type": "Point", "coordinates": [-77.102561, 38.859086]}},
{"type": "Feature", "id": "YjfCU6fBextSs5RQmblRiiSvmyY=", "properties": {"ref": "322", "@spider": "harristeeter", "addr:full": "8620 Guilford Rd", "addr:city": "Columbia", "addr:state": "MD", "addr:postcode": "21046", "addr:country": "US", "name": "Kings Contrivance Village Center", "phone": "(410) 290-5902", "opening_hours": "6am-10pm", "brand": "Harris Teeter"}, "geometry": {"type": "Point", "coordinates": [-76.86369, 39.17095]}},
{"type": "Feature", "id": "TNgQt1VPV-bDc3n0WPxtpVGrZ5w=", "properties": {"ref": "413", "@spider": "harristeeter", "addr:full": "4550 King Street", "addr:city": "Alexandria", "addr:state": "VA", "addr:postcode": "22302", "addr:country": "US", "name": "West Alex", "phone": "(571) 895-2820", "opening_hours": "6am-10pm", "brand": "Harris Teeter"}, "geometry": {"type": "Point", "coordinates": [-77.107992, 38.840609]}},
{"type": "Feature", "id": "cNB45IpPMcILWgU8p9nG1Bw-E4o=", "properties": {"ref": "231", "@spider": "harristeeter", "addr:full": "1631 Kalorama Rd NW Suite 100", "addr:city": "Washington", "addr:state": "DC", "addr:postcode": "20009", "addr:country": "US", "name": "Citadel", "phone": "(202) 986-1415", "opening_hours": "6am-10pm", "brand": "Harris Teeter"}, "geometry": {"type": "Point", "coordinates": [-77.037217755102, 38.92234]}},
{"type": "Feature", "id": "17G-O0U2CSOkRO7rAF5feHzOsAU=", "properties": {"ref": "133", "@spider": "harristeeter", "addr:full": "4641 Duke St", "addr:city": "Alexandria", "addr:state": "VA", "addr:postcode": "22304", "addr:country": "US", "name": "Shops at Foxchase", "phone": "(703) 461-7082", "opening_hours": "6am-10pm", "brand": "Harris Teeter"}, "geometry": {"type": "Point", "coordinates": [-77.1121721052632, 38.8119897368421]}},
{"type": "Feature", "id": "yVn03U_UcYH7igNBssUO37hozR8=", "properties": {"ref": "235", "@spider": "harristeeter", "addr:full": "4250 Campbell Ave", "addr:city": "Arlington", "addr:state": "VA", "addr:postcode": "22206", "addr:country": "US", "name": "Village of Shirlington", "phone": "(703) 379-2003", "opening_hours": "6am-10pm", "brand": "Harris Teeter"}, "geometry": {"type": "Point", "coordinates": [-77.0898063234796, 38.8416198246645]}},
{"type": "Feature", "id": "4z6OsMFIpmRdtXGRFFqnsexEPgg=", "properties": {"ref": "83", "@spider": "harristeeter", "addr:full": "900 Army Navy Dr", "addr:city": "Arlington", "addr:state": "VA", "addr:postcode": "22202", "addr:country": "US", "name": "Pentagon Row", "phone": "(703) 413-7112", "opening_hours": "6am-10pm", "brand": "Harris Teeter"}, "geometry": {"type": "Point", "coordinates": [-77.0621180508475, 38.865853559322]}},
{"type": "Feature", "id": "6QeCe3v3AqMMSwNhe52bnuXB9Ak=", "properties": {"ref": "352", "@spider": "harristeeter", "addr:full": "1201 First St NE", "addr:city": "Washington", "addr:state": "DC", "addr:postcode": "20002", "addr:country": "US", "name": "Constitution Square", "phone": "(202) 589-0351", "opening_hours": "7am-10pm", "brand": "Harris Teeter"}, "geometry": {"type": "Point", "coordinates": [-77.00587, 38.90561]}},
{"type": "Feature", "id": "7_kwHpnYjjAnl5X10yWGxD5qX0c=", "properties": {"ref": "262", "@spider": "harristeeter", "addr:full": "3600 S Glebe Rd", "addr:city": "Arlington", "addr:state": "VA", "addr:postcode": "22202", "addr:country": "US", "name": "Potomac Yard", "phone": "(703) 412-1544", "opening_hours": "6am-10pm", "brand": "Harris Teeter"}, "geometry": {"type": "Point", "coordinates": [-77.05252, 38.84252]}},
{"type": "Feature", "id": "ZtFIWjxwv4_q-q7yGOL0mpRZ7dE=", "properties": {"ref": "408", "@spider": "harristeeter", "addr:full": "14702 Baltimore Ave", "addr:city": "Laurel", "addr:state": "MD", "addr:postcode": "20707", "addr:country": "US", "name": "Towne Centre", "phone": "(301) 490-6039", "opening_hours": "6am-10pm", "brand": "Harris Teeter"}, "geometry": {"type": "Point", "coordinates": [-76.8563864285714, 39.0923385714286]}},
{"type": "Feature", "id": "Q04dfJyy-uOUEUig1ujzoHaUohM=", "properties": {"ref": "383", "@spider": "harristeeter", "addr:full": "401 M Street SE", "addr:city": "Washington", "addr:state": "DC", "addr:postcode": "20003", "addr:country": "US", "name": "The Yards", "phone": "202-554-0164", "opening_hours": "6am-10pm", "brand": "Harris Teeter"}, "geometry": {"type": "Point", "coordinates": [-77.00055, 38.87648]}},
{"type": "Feature", "id": "LO1BZ_co-tXk1D6ZYtb77Cm9oCg=", "properties": {"ref": "398", "@spider": "harristeeter", "addr:full": "735 N. Saint Asaph St", "addr:city": "Alexandria", "addr:state": "VA", "addr:postcode": "22314", "addr:country": "US", "name": "Old Town Alexandria", "phone": "(703) 419-3837", "opening_hours": "6am-10pm", "brand": "Harris Teeter"}, "geometry": {"type": "Point", "coordinates": [-77.0442732653061, 38.8121351020408]}},
{"type": "Feature", "id": "QZwznkNOpGmnGQMe7XwFDpH4ZJk=", "properties": {"ref": "282", "@spider": "harristeeter", "addr:full": "1350 Potomac Ave SE", "addr:city": "Washington", "addr:state": "DC", "addr:postcode": "20003", "addr:country": "US", "name": "Jenkins Row", "phone": "(202) 543-1040", "opening_hours": "7am-10pm", "brand": "Harris Teeter"}, "geometry": {"type": "Point", "coordinates": [-76.9873591952211, 38.8795851832661]}},
{"type": "Feature", "id": "eBoF4OkfAoYpyGLjN6q_WUNSMJ0=", "properties": {"ref": "376", "@spider": "harristeeter", "addr:full": "1801 Whetstone Way", "addr:city": "Baltimore", "addr:state": "MD", "addr:postcode": "21230", "addr:country": "US", "name": "McHenry Row", "phone": "(410) 528-8484", "opening_hours": "6am-10pm", "brand": "Harris Teeter"}, "geometry": {"type": "Point", "coordinates": [-76.60007, 39.26842]}},
{"type": "Feature", "id": "u3OISvmz_Zj6tHcvKVCINRnAty0=", "properties": {"ref": "392", "@spider": "harristeeter", "addr:full": "3779 Boston St", "addr:city": "Baltimore", "addr:state": "MD", "addr:postcode": "21224", "addr:country": "US", "name": "Canton Crossing", "phone": "(410) 522-0270", "opening_hours": "6am-10pm", "brand": "Harris Teeter"}, "geometry": {"type": "Point", "coordinates": [-76.5647704081633, 39.2771281632653]}},
{"type": "Feature", "id": "MDFyvi3UAIqS9zIClY1JOMm62QU=", "properties": {"ref": "324", "@spider": "harristeeter", "addr:full": "15501 Annapolis Rd", "addr:city": "Bowie", "addr:state": "MD", "addr:postcode": "20715", "addr:country": "US", "name": "Bowie Marketplace", "phone": "(301) 383-2935", "opening_hours": "6am-10pm", "brand": "Harris Teeter"}, "geometry": {"type": "Point", "coordinates": [-76.7352172727273, 38.9793136363636]}},
{"type": "Feature", "id": "eIiM9Zp9d0n-APMcvN4jG5RrShA=", "properties": {"ref": "223", "@spider": "harristeeter", "addr:full": "1800 Martin Luther King Jr Blvd", "addr:city": "Chapel Hill", "addr:state": "NC", "addr:postcode": "27514", "addr:country": "US", "name": "Chapel Hill North", "phone": "(919) 968-0110", "opening_hours": "6am-11pm", "brand": "Harris Teeter"}, "geometry": {"type": "Point", "coordinates": [-79.05829, 35.96396]}},
{"type": "Feature", "id": "BtffCw5cIRs0OzBC8J-li3iq2uw=", "properties": {"ref": "364", "@spider": "harristeeter", "addr:full": "143 Ritchie Highway N.", "addr:city": "Severna Park", "addr:state": "MD", "addr:postcode": "21146", "addr:country": "US", "name": "Magothy Gateway", "phone": "(410) 544-5450", "opening_hours": "6am-10pm", "brand": "Harris Teeter"}, "geometry": {"type": "Point", "coordinates": [-76.56253, 39.09586]}},
{"type": "Feature", "id": "x74vDnDia_cL1SIoD7uFxUkmJyY=", "properties": {"ref": "297", "@spider": "harristeeter", "addr:full": "310 N Greensboro St", "addr:city": "Carrboro", "addr:state": "NC", "addr:postcode": "27510", "addr:country": "US", "name": "Carr Mill Mall", "phone": "(919) 942-8564", "opening_hours": "6am-11pm", "brand": "Harris Teeter"}, "geometry": {"type": "Point", "coordinates": [-79.0722489795918, 35.912993877551]}},
{"type": "Feature", "id": "evaZYy4_fZOr0OoMQRjXxkLXTl4=", "properties": {"ref": "254", "@spider": "harristeeter", "addr:full": "1501 Horton Rd", "addr:city": "Durham", "addr:state": "NC", "addr:postcode": "27705", "addr:country": "US", "name": "Willowhaven Shopping Center", "phone": "(919) 471-1938", "opening_hours": "6am-10pm", "brand": "Harris Teeter"}, "geometry": {"type": "Point", "coordinates": [-78.92913, 36.05746]}},
{"type": "Feature", "id": "Et0hcAdVD_NbNZBRljEQNrdlsqw=", "properties": {"ref": "493", "@spider": "harristeeter", "addr:full": "5116 N. Roxboro Street", "addr:city": "Durham", "addr:state": "NC", "addr:postcode": "27704", "addr:country": "US", "name": "Riverview Shopping Center", "phone": "(919) 471-6263", "opening_hours": "6am-10pm", "brand": "Harris Teeter"}, "geometry": {"type": "Point", "coordinates": [-78.906827, 36.069153]}},
{"type": "Feature", "id": "8ioFwiFXVGcwDstBZVH1ONi6B_4=", "properties": {"ref": "492", "@spider": "harristeeter", "addr:full": "3457 Hillsborough Road", "addr:city": "Durham", "addr:state": "NC", "addr:postcode": "27705", "addr:country": "US", "name": "Durham Festival Center", "phone": "(919) 383-2249", "opening_hours": "6am-10pm", "brand": "Harris Teeter"}, "geometry": {"type": "Point", "coordinates": [-78.948241, 36.018922]}},
{"type": "Feature", "id": "7dFa2l1UFkVP25p2QB3kDnfSgtY=", "properties": {"ref": "117", "@spider": "harristeeter", "addr:full": "2110 S Estes Dr", "addr:city": "Chapel Hill", "addr:state": "NC", "addr:postcode": "27514", "addr:country": "US", "name": "University Mall", "phone": "(919) 933-5700", "opening_hours": "6am-11pm", "brand": "Harris Teeter"}, "geometry": {"type": "Point", "coordinates": [-79.02499, 35.92512]}},
{"type": "Feature", "id": "HX9rVV3Sr46k9WxlIxbMt1UmoVQ=", "properties": {"ref": "137", "@spider": "harristeeter", "addr:full": "88 Chatham Downs Dr", "addr:city": "Chapel Hill", "addr:state": "NC", "addr:postcode": "27517", "addr:country": "US", "name": "Chatham Downs Shopping Center", "phone": "(919) 960-0275", "opening_hours": "6am-10pm", "brand": "Harris Teeter"}, "geometry": {"type": "Point", "coordinates": [-79.0876230665521, 35.8311289149952]}},
{"type": "Feature", "id": "anR2Ve86TQJkqvatoz_kJnEFcYE=", "properties": {"ref": "497", "@spider": "harristeeter", "addr:full": "1802 North Pointe Drive", "addr:city": "Durham", "addr:state": "NC", "addr:postcode": "27705", "addr:country": "US", "name": "North Pointe", "phone": "(919) 220-5761", "opening_hours": "6am-10pm", "brand": "Harris Teeter"}, "geometry": {"type": "Point", "coordinates": [-78.920536, 36.029458]}},
{"type": "Feature", "id": "PZC8czn5avL-3LvhUhRyKay-hFs=", "properties": {"ref": "120", "@spider": "harristeeter", "addr:full": "116 West Barbee Chapel Rd", "addr:city": "Chapel Hill", "addr:state": "NC", "addr:postcode": "27517", "addr:country": "US", "name": "Meadowmont Village", "phone": "(919) 932-5020", "opening_hours": "6am-11pm", "brand": "Harris Teeter"}, "geometry": {"type": "Point", "coordinates": [-79.0119471844513, 35.9059497905472]}},
{"type": "Feature", "id": "tu7PTRh1zfMJDfPovY0qxpcO92w=", "properties": {"ref": "394", "@spider": "harristeeter", "addr:full": "2107 Hillsborough Rd", "addr:city": "Durham", "addr:state": "NC", "addr:postcode": "27705", "addr:country": "US", "name": "Erwin Square", "phone": "(919) 286-1500", "opening_hours": "6am-11pm", "brand": "Harris Teeter"}, "geometry": {"type": "Point", "coordinates": [-78.9233442741164, 36.010423449053]}},
{"type": "Feature", "id": "RBF102DixyMUBWBF7adj7Ei8pIg=", "properties": {"ref": "172", "@spider": "harristeeter", "addr:full": "1817 Martin Luther King Jr Pkwy", "addr:city": "Durham", "addr:state": "NC", "addr:postcode": "27707", "addr:country": "US", "name": "Commons at University Place", "phone": "(919) 489-9887", "opening_hours": "6am-11pm", "brand": "Harris Teeter"}, "geometry": {"type": "Point", "coordinates": [-78.9581146796733, 35.9607902924796]}},
{"type": "Feature", "id": "I8ZbWm--7X8SbLPD5TRVKNIP46Q=", "properties": {"ref": "224", "@spider": "harristeeter", "addr:full": "1125 W NC Highway 54 Suite 310", "addr:city": "Durham", "addr:state": "NC", "addr:postcode": "27707", "addr:country": "US", "name": "Hope Valley Commons", "phone": "(919) 403-0794", "opening_hours": "6am-10pm", "brand": "Harris Teeter"}, "geometry": {"type": "Point", "coordinates": [-78.9592423, 35.9186183]}},
{"type": "Feature", "id": "PVxgur6zy0iR03WEEpWMHPmaWmI=", "properties": {"ref": "491", "@spider": "harristeeter", "addr:full": "202 NC Hwy 54", "addr:city": "Durham", "addr:state": "NC", "addr:postcode": "27713", "addr:country": "US", "name": "Southpoint Crossing", "phone": "(919) 361-9893", "opening_hours": "6am-10pm", "brand": "Harris Teeter"}, "geometry": {"type": "Point", "coordinates": [-78.936125, 35.912543]}},
{"type": "Feature", "id": "8UefXmWXObXTwLsU0Q6NbNo5nsM=", "properties": {"ref": "270", "@spider": "harristeeter", "addr:full": "10125 Ward Road", "addr:city": "Dunkirk", "addr:state": "MD", "addr:postcode": "20754", "addr:country": "US", "name": "The Shoppes at Apple Green", "phone": "(443) 550-1581", "opening_hours": "6am-10pm", "brand": "Harris Teeter"}, "geometry": {"type": "Point", "coordinates": [-76.6522836363636, 38.7210090909091]}},
{"type": "Feature", "id": "XlsRBaSp5dXO3d6w5Q4c6RI6p3I=", "properties": {"ref": "80", "@spider": "harristeeter", "addr:full": "305 Ivey Ln", "addr:city": "Pinehurst", "addr:state": "NC", "addr:postcode": "28374", "addr:country": "US", "name": "Harris Teeter at PineCroft", "phone": "(910) 255-0104", "opening_hours": "6am-10pm", "brand": "Harris Teeter"}, "geometry": {"type": "Point", "coordinates": [-79.48608, 35.20537]}},
{"type": "Feature", "id": "XO-oIPNUFL15GbUuBYRKr58gcuM=", "properties": {"ref": "236", "@spider": "harristeeter", "addr:full": "7145 O'Kelly Chapel Rd", "addr:city": "Cary", "addr:state": "NC", "addr:postcode": "27519", "addr:country": "US", "name": "Parkside Town Commons", "phone": "(919) 465-9432", "opening_hours": "6am-10pm", "brand": "Harris Teeter"}, "geometry": {"type": "Point", "coordinates": [-78.887694, 35.843886]}},
{"type": "Feature", "id": "9ZBeW71oh1xVtAdq-BAY-zgMNh8=", "properties": {"ref": "298", "@spider": "harristeeter", "addr:full": "10140 Green Level Church Rd", "addr:city": "Cary", "addr:state": "NC", "addr:postcode": "27519", "addr:country": "US", "name": "Cary Park Town Center", "phone": "(919) 460-3126", "opening_hours": "6am-10pm", "brand": "Harris Teeter"}, "geometry": {"type": "Point", "coordinates": [-78.9022953162986, 35.8212953815088]}},
{"type": "Feature", "id": "SH4USxYGIuuqNjbnrGMOKkIuvpo=", "properties": {"ref": "212", "@spider": "harristeeter", "addr:full": "400 Mill Creek Rd", "addr:city": "Carthage", "addr:state": "NC", "addr:postcode": "28327", "addr:country": "US", "name": "Mill Creek Shopping Center", "phone": "(910) 246-0710", "opening_hours": "6am-10pm", "brand": "Harris Teeter"}, "geometry": {"type": "Point", "coordinates": [-79.3966971, 35.228455]}},
{"type": "Feature", "id": "n-jIURE7vAgNefIisIzSMduVXq0=", "properties": {"ref": "104", "@spider": "harristeeter", "addr:full": "4093 Davis Dr", "addr:city": "Morrisville", "addr:state": "NC", "addr:postcode": "27560", "addr:country": "US", "name": "McCrimmon Corners", "phone": "(919) 380-0354", "opening_hours": "6am-10pm", "brand": "Harris Teeter"}, "geometry": {"type": "Point", "coordinates": [-78.8560156464454, 35.838035794124]}},
{"type": "Feature", "id": "IGggTYJhcfetwGZXIXOIoMY3jKE=", "properties": {"ref": "304", "@spider": "harristeeter", "addr:full": "4221 Corners Parkway", "addr:city": "Raleigh", "addr:state": "NC", "addr:postcode": "27617", "addr:country": "US", "name": "The Corners at Brier Creek", "phone": "(919) 596-5399", "opening_hours": "6am-10pm", "brand": "Harris Teeter"}, "geometry": {"type": "Point", "coordinates": [-78.788033, 35.9192311]}},
{"type": "Feature", "id": "Lzgf0fYJnVvAldiNQrpiPexub7Q=", "properties": {"ref": "29", "@spider": "harristeeter", "addr:full": "11109 US 15-501 HWY", "addr:city": "Aberdeen", "addr:state": "NC", "addr:postcode": "28315", "addr:country": "US", "name": "Center Park Plaza", "phone": "(910) 692-7029", "opening_hours": "6am-10pm", "brand": "Harris Teeter"}, "geometry": {"type": "Point", "coordinates": [-79.418351203034, 35.1565737845199]}},
{"type": "Feature", "id": "es3eQy6EWax1QaYdzyh97LIzQDo=", "properties": {"ref": "395", "@spider": "harristeeter", "addr:full": "1432 Brogden Woods Dr", "addr:city": "Wake Forest", "addr:state": "NC", "addr:postcode": "27587", "addr:country": "US", "name": "Creedmoor Village", "phone": "(919) 870-4980", "opening_hours": "6am-10pm", "brand": "Harris Teeter"}, "geometry": {"type": "Point", "coordinates": [-78.693269, 35.9905]}},
{"type": "Feature", "id": "7PP9HFZb3Yk1U41TGRCl-bwtG2U=", "properties": {"ref": "138", "@spider": "harristeeter", "addr:full": "98 Cornerstone Dr", "addr:city": "Cary", "addr:state": "NC", "addr:postcode": "27519", "addr:country": "US", "name": "Stone Creek Village", "phone": "(919) 467-1259", "opening_hours": "6am-10pm", "brand": "Harris Teeter"}, "geometry": {"type": "Point", "coordinates": [-78.85099, 35.79095]}},
{"type": "Feature", "id": "NUo7oGJXgK8WtQINxWnhH3DqRj0=", "properties": {"ref": "90", "@spider": "harristeeter", "addr:full": "13210 Strickland Rd", "addr:city": "Raleigh", "addr:state": "NC", "addr:postcode": "27613", "addr:country": "US", "name": "Leesville Town Center", "phone": "(919) 676-3534", "opening_hours": "6am-10pm", "brand": "Harris Teeter"}, "geometry": {"type": "Point", "coordinates": [-78.7258750829555, 35.9068893923025]}},
{"type": "Feature", "id": "3LnHxXkFtNkis_W-zQ359QFkM68=", "properties": {"ref": "58", "@spider": "harristeeter", "addr:full": "750 West Williams St", "addr:city": "Apex", "addr:state": "NC", "addr:postcode": "27502", "addr:country": "US", "name": "Haddon Hall Commons", "phone": "(919) 362-3782", "opening_hours": "6am-10pm", "brand": "Harris Teeter"}, "geometry": {"type": "Point", "coordinates": [-78.8639, 35.73731]}},
{"type": "Feature", "id": "8FpqqMM70bNnLEHY10bNq5zoHqw=", "properties": {"ref": "494", "@spider": "harristeeter", "addr:full": "1273 NW Maynard Rd", "addr:city": "Cary", "addr:state": "NC", "addr:postcode": "27513", "addr:country": "US", "name": "Maynard Crossing", "phone": "(919) 380-9955", "opening_hours": "6am-10pm", "brand": "Harris Teeter"}, "geometry": {"type": "Point", "coordinates": [-78.812055, 35.785186]}},
{"type": "Feature", "id": "2NhG_GBxpAFCPa7JsHBS5peXMZg=", "properties": {"ref": "112", "@spider": "harristeeter", "addr:full": "270 Grande Heights Drive", "addr:city": "Cary", "addr:state": "NC", "addr:postcode": "27513", "addr:country": "US", "name": "Harrison Pointe Shopping Center", "phone": "(919) 460-4326", "opening_hours": "6am-10pm", "brand": "Harris Teeter"}, "geometry": {"type": "Point", "coordinates": [-78.7808813333333, 35.8049246666667]}},
{"type": "Feature", "id": "UOCy-pBy-6r4TTBV3KcTt9ooYFM=", "properties": {"ref": "496", "@spider": "harristeeter", "addr:full": "940 US Highway 64 W", "addr:city": "Apex", "addr:state": "NC", "addr:postcode": "27523", "addr:country": "US", "name": "Lake Pine Plaza", "phone": "(919) 380-1422", "opening_hours": "6am-10pm", "brand": "Harris Teeter"}, "geometry": {"type": "Point", "coordinates": [-78.8221965, 35.7439521]}},
{"type": "Feature", "id": "_Oh_GvMj4Nv55xZHJd2pw6JiuFk=", "properties": {"ref": "495", "@spider": "harristeeter", "addr:full": "8345 Creedmoor Road", "addr:city": "Raleigh", "addr:state": "NC", "addr:postcode": "27613", "addr:country": "US", "name": "Towne North", "phone": "(919) 659-8221", "opening_hours": "6am-10pm", "brand": "Harris Teeter"}, "geometry": {"type": "Point", "coordinates": [-78.6810870210067, 35.9010199968282]}},
{"type": "Feature", "id": "aT6SsLvnEzuIDcpEkdgwCDsgPjc=", "properties": {"ref": "26", "@spider": "harristeeter", "addr:full": "7400 Creedmoor Rd", "addr:city": "Raleigh", "addr:state": "NC", "addr:postcode": "27615", "addr:country": "US", "name": "Stonehenge Market", "phone": "(919) 848-1464", "opening_hours": "6am-10pm", "brand": "Harris Teeter"}, "geometry": {"type": "Point", "coordinates": [-78.6796, 35.88785]}},
{"type": "Feature", "id": "51fKMaBKaFob5geLMikdMJlPkMk=", "properties": {"ref": "430", "@spider": "harristeeter", "addr:full": "885 Walnut St", "addr:city": "Cary", "addr:state": "NC", "addr:postcode": "27511", "addr:country": "US", "name": "Village Square by Cary Towne Center Mall", "phone": "(919) 481-4251", "opening_hours": "6am-10pm", "brand": "Harris Teeter"}, "geometry": {"type": "Point", "coordinates": [-78.7662843076923, 35.7739223076923]}},
{"type": "Feature", "id": "LVKeRLKPoMrrLhypKhvMhcpUQ7I=", "properties": {"ref": "69", "@spider": "harristeeter", "addr:full": "3201-123 Edwards Mill Rd", "addr:city": "Raleigh", "addr:state": "NC", "addr:postcode": "27612", "addr:country": "US", "name": "Old Raleigh Village", "phone": "(919) 781-8776", "opening_hours": "6am-11pm", "brand": "Harris Teeter"}, "geometry": {"type": "Point", "coordinates": [-78.705630625, 35.825300625]}},
{"type": "Feature", "id": "LSW_piXufnHOU2Vzg7rMHLfHrMI=", "properties": {"ref": "319", "@spider": "harristeeter", "addr:full": "2051 W Millbrook Rd", "addr:city": "Raleigh", "addr:state": "NC", "addr:postcode": "27612", "addr:country": "US", "name": "The Point at Creedmoor", "phone": "(919) 787-1364", "opening_hours": "6am-10pm", "brand": "Harris Teeter"}, "geometry": {"type": "Point", "coordinates": [-78.6782626666667, 35.85732]}},
{"type": "Feature", "id": "GdOWcxjfsO6kKsG48r8ybEa75EY=", "properties": {"ref": "257", "@spider": "harristeeter", "addr:full": "2080 Kildaire Farm Rd", "addr:city": "Cary", "addr:state": "NC", "addr:postcode": "27518", "addr:country": "US", "name": "Crescent Commons", "phone": "(919) 233-9483", "opening_hours": "6am-10pm", "brand": "Harris Teeter"}, "geometry": {"type": "Point", "coordinates": [-78.7795381975324, 35.736552595128]}},
{"type": "Feature", "id": "iddEij_mgg8OkXJuH081r5aees8=", "properties": {"ref": "331", "@spider": "harristeeter", "addr:full": "3430 Ten Ten Rd", "addr:city": "Cary", "addr:state": "NC", "addr:postcode": "27518", "addr:country": "US", "name": "Stonebridge Village", "phone": "(919) 387-8272", "opening_hours": "6am-10pm", "brand": "Harris Teeter"}, "geometry": {"type": "Point", "coordinates": [-78.7928257142857, 35.7029457142857]}},
{"type": "Feature", "id": "gmUu9rqyRoazkvsTkoHU57wo_PU=", "properties": {"ref": "38", "@spider": "harristeeter", "addr:full": "5563 Western Blvd", "addr:city": "Raleigh", "addr:state": "NC", "addr:postcode": "27606", "addr:country": "US", "name": "Plaza West", "phone": "(919) 859-0110", "opening_hours": "6am-11pm", "brand": "Harris Teeter"}, "geometry": {"type": "Point", "coordinates": [-78.7213636363636, 35.7851818181818]}},
{"type": "Feature", "id": "QQLqrBFt2qYpwWZhrlX8No5w-6U=", "properties": {"ref": "311", "@spider": "harristeeter", "addr:full": "324 Village Walk Dr", "addr:city": "Holly Springs", "addr:state": "NC", "addr:postcode": "27540", "addr:country": "US", "name": "Southpark Village", "phone": "(919) 552-1596", "opening_hours": "6am-10pm", "brand": "Harris Teeter"}, "geometry": {"type": "Point", "coordinates": [-78.8380232714932, 35.6402660756302]}},
{"type": "Feature", "id": "FmcOEDK5f279jE8S8JvNov-u-xs=", "properties": {"ref": "330", "@spider": "harristeeter", "addr:full": "1151 Tryon Village Dr", "addr:city": "Cary", "addr:state": "NC", "addr:postcode": "27518", "addr:country": "US", "name": "Tryon Village Shopping Center", "phone": "(919) 233-3476", "opening_hours": "6am-10pm", "brand": "Harris Teeter"}, "geometry": {"type": "Point", "coordinates": [-78.7434551020408, 35.7466548979592]}},
{"type": "Feature", "id": "s5iZ9HnvM4hdgrukQhlYZ9U0KgE=", "properties": {"ref": "353", "@spider": "harristeeter", "addr:full": "13686 Capital Blvd", "addr:city": "Wake Forest", "addr:state": "NC", "addr:postcode": "27587", "addr:country": "US", "name": "Harris Crossing", "phone": "(919) 554-3608", "opening_hours": "6am-10pm", "brand": "Harris Teeter"}, "geometry": {"type": "Point", "coordinates": [-78.5192996229284, 36.0089953409216]}},
{"type": "Feature", "id": "D0F_qSGvMk7BYeLnwRGA-Gjo8To=", "properties": {"ref": "136", "@spider": "harristeeter", "addr:full": "9600 Falls of Neuse Rd", "addr:city": "Raleigh", "addr:state": "NC", "addr:postcode": "27615", "addr:country": "US", "name": "Falls Pointe Shopping Center", "phone": "(919) 676-6614", "opening_hours": "6am-10pm", "brand": "Harris Teeter"}, "geometry": {"type": "Point", "coordinates": [-78.6023477287722, 35.9054868136836]}},
{"type": "Feature", "id": "yTqDMed6ZbdAx2AGK61gIotVrQg=", "properties": {"ref": "118", "@spider": "harristeeter", "addr:full": "5277 Sunset Lake Rd", "addr:city": "Holly Springs", "addr:state": "NC", "addr:postcode": "27540", "addr:country": "US", "name": "Sunset Lake Commons", "phone": "(919) 363-3059", "opening_hours": "6am-10pm", "brand": "Harris Teeter"}, "geometry": {"type": "Point", "coordinates": [-78.79632, 35.6646865217391]}},
{"type": "Feature", "id": "TcnW0AkyueYYn7oLRewxY5VqSCE=", "properties": {"ref": "344", "@spider": "harristeeter", "addr:full": "6024 Falls of the Neuse Rd", "addr:city": "Raleigh", "addr:state": "NC", "addr:postcode": "27609", "addr:country": "US", "name": "North Ridge Shopping Center", "phone": "(919) 872-5786", "opening_hours": "6am-10pm", "brand": "Harris Teeter"}, "geometry": {"type": "Point", "coordinates": [-78.6201793808828, 35.8646598115561]}},
{"type": "Feature", "id": "ap4TfyOo3fofsgXaZRUJJB_jSHo=", "properties": {"ref": "289", "@spider": "harristeeter", "addr:full": "2603 Glenwood Ave Suite 101", "addr:city": "Raleigh", "addr:state": "NC", "addr:postcode": "27608", "addr:country": "US", "name": "Glenwood Village", "phone": "(919) 787-5526", "opening_hours": "6am-10pm", "brand": "Harris Teeter"}, "geometry": {"type": "Point", "coordinates": [-78.6600082139623, 35.8161895754662]}},
{"type": "Feature", "id": "CCImPuMc7yxc2N7NzBstLkZpUFU=", "properties": {"ref": "422", "@spider": "harristeeter", "addr:full": "120-100 St. Albans Dr", "addr:city": "Raleigh", "addr:state": "NC", "addr:postcode": "27609", "addr:country": "US", "name": "North Hills East", "phone": "(919) 781-4165", "opening_hours": "6am-10pm", "brand": "Harris Teeter"}, "geometry": {"type": "Point", "coordinates": [-78.6390673532802, 35.8385097742773]}},
{"type": "Feature", "id": "ubpjeB-igHRfS1rvBInXa8YFsQc=", "properties": {"ref": "367", "@spider": "harristeeter", "addr:full": "14520 John Rex Blvd", "addr:city": "Raleigh", "addr:state": "NC", "addr:postcode": "27614", "addr:country": "US", "name": "Wakefield", "phone": "(919) 554-4167", "opening_hours": "6am-10pm", "brand": "Harris Teeter"}, "geometry": {"type": "Point", "coordinates": [-78.5431215151515, 35.947502020202]}},
{"type": "Feature", "id": "7MhRMpj_4ddv_D47hIM84uUtZNU=", "properties": {"ref": "21", "@spider": "harristeeter", "addr:full": "500 Oberlin Road", "addr:city": "Raleigh", "addr:state": "NC", "addr:postcode": "27605", "addr:country": "US", "name": "Cameron Village", "phone": "(919) 828-9216", "opening_hours": "6am-11pm", "brand": "Harris Teeter"}, "geometry": {"type": "Point", "coordinates": [-78.6628430448743, 35.7914078124758]}},
{"type": "Feature", "id": "sJnsxbtUOmZs957v-IBXoPIQZI8=", "properties": {"ref": "43", "@spider": "harristeeter", "addr:full": "3638 Rogers Road", "addr:city": "Wake Forest", "addr:state": "NC", "addr:postcode": "27587", "addr:country": "US", "name": "Heritage Lake", "phone": "(919) 562-9521", "opening_hours": "6am-10pm", "brand": "Harris Teeter"}, "geometry": {"type": "Point", "coordinates": [-78.5040236252976, 35.945117761553]}},
{"type": "Feature", "id": "W1KxxcRHsEUmOh1Dma81H3JU8I8=", "properties": {"ref": "498", "@spider": "harristeeter", "addr:full": "1371 E. Broad Street", "addr:city": "Fuquay-Varina", "addr:state": "NC", "addr:postcode": "27526", "addr:country": "US", "name": "Fuquay Crossing", "phone": "(919) 567-7423", "opening_hours": "6am-10pm", "brand": "Harris Teeter"}, "geometry": {"type": "Point", "coordinates": [-78.776714873661, 35.5941761453341]}},
{"type": "Feature", "id": "9nZpFlY2V0-aK5aFie0w9-4Uais=", "properties": {"ref": "283", "@spider": "harristeeter", "addr:full": "8101 Fayetteville Rd", "addr:city": "Fuquay Varina", "addr:state": "NC", "addr:postcode": "27526", "addr:country": "US", "name": "Kings Grant Shopping Center", "phone": "(919) 772-0241", "opening_hours": "6am-10pm", "brand": "Harris Teeter"}, "geometry": {"type": "Point", "coordinates": [-78.6993279089322, 35.6633834249916]}},
{"type": "Feature", "id": "FDjWEO5cktINYz0POrj6iLM6yHc=", "properties": {"ref": "487", "@spider": "harristeeter", "addr:full": "44900 St. Andrews Church Rd.", "addr:city": "California", "addr:state": "MD", "addr:postcode": "20619", "addr:country": "US", "name": "Saint Mary's Marketplace", "phone": "(301) 737-2393", "opening_hours": "6am-10pm", "brand": "Harris Teeter"}, "geometry": {"type": "Point", "coordinates": [-76.52324, 38.30131]}},
{"type": "Feature", "id": "p1ELOu1LnY4NxfZe1qnMQruIyew=", "properties": {"ref": "380", "@spider": "harristeeter", "addr:full": "28528 Marlboro Ave", "addr:city": "Easton", "addr:state": "MD", "addr:postcode": "21601", "addr:country": "US", "name": "Marketplace at Easton", "phone": "(410) 690-7203", "opening_hours": "6am-10pm", "brand": "Harris Teeter"}, "geometry": {"type": "Point", "coordinates": [-76.0878205692188, 38.7833021505543]}},
{"type": "Feature", "id": "pGztaCHT5aUtl6JEP69RePxA-k8=", "properties": {"ref": "124", "@spider": "harristeeter", "addr:full": "1930 W Palmetto St", "addr:city": "Florence", "addr:state": "SC", "addr:postcode": "29501", "addr:country": "US", "name": "Cashua Place", "phone": "(843) 678-9525", "opening_hours": "6am-10pm", "brand": "Harris Teeter"}, "geometry": {"type": "Point", "coordinates": [-79.80672, 34.18853]}},
{"type": "Feature", "id": "UZup0uxWjgb_6lgrSPVShyFK2fY=", "properties": {"ref": "393", "@spider": "harristeeter", "addr:full": "3050 Traemoor Village Dr", "addr:city": "Fayetteville", "addr:state": "NC", "addr:postcode": "28306", "addr:country": "US", "name": "Hope Mills", "phone": "(910) 424-3505", "opening_hours": "6am-10pm", "brand": "Harris Teeter"}, "geometry": {"type": "Point", "coordinates": [-79.0136647, 34.9827937]}},
{"type": "Feature", "id": "_n-je9Pm11kKDpt5UGUB70zLXTc=", "properties": {"ref": "25", "@spider": "harristeeter", "addr:full": "2800 Raeford Rd", "addr:city": "Fayetteville", "addr:state": "NC", "addr:postcode": "28303", "addr:country": "US", "name": "Highland Centre", "phone": "(910) 484-6000", "opening_hours": "6am-10pm", "brand": "Harris Teeter"}, "geometry": {"type": "Point", "coordinates": [-78.92435, 35.04553]}},
{"type": "Feature", "id": "mtW78UNcg5yGPwEdez3Q62WYB98=", "properties": {"ref": "229", "@spider": "harristeeter", "addr:full": "67 Crossroads Way", "addr:city": "Clayton", "addr:state": "NC", "addr:postcode": "27527", "addr:country": "US", "name": "Flowers Crossroads", "phone": "(919) 359-8023", "opening_hours": "6am-10pm", "brand": "Harris Teeter"}, "geometry": {"type": "Point", "coordinates": [-78.347505, 35.656084]}},
{"type": "Feature", "id": "SH1HcBqtR8JqAgBMYap7FZf43pE=", "properties": {"ref": "356", "@spider": "harristeeter", "addr:full": "6485 Centerville Rd", "addr:city": "Williamsburg", "addr:state": "VA", "addr:postcode": "23188", "addr:country": "US", "name": "Lightfoot Marketplace", "phone": "(757) 903-4350", "opening_hours": "6am-10pm", "brand": "Harris Teeter"}, "geometry": {"type": "Point", "coordinates": [-76.7584472743133, 37.3382787189809]}},
{"type": "Feature", "id": "Q-oJ_qpUKjdoRxMnARm3_MgnkjU=", "properties": {"ref": "63", "@spider": "harristeeter", "addr:full": "3679 Sunset Ave", "addr:city": "Rocky Mount", "addr:state": "NC", "addr:postcode": "27804", "addr:country": "US", "name": "Westridge Village", "phone": "(252) 937-2535", "opening_hours": "6am-10pm", "brand": "Harris Teeter"}, "geometry": {"type": "Point", "coordinates": [-77.8524922680218, 35.9637979478691]}},
{"type": "Feature", "id": "fKiA9-JCEcsG_pnY-v3BeduLn7c=", "properties": {"ref": "462", "@spider": "harristeeter", "addr:full": "4511 John Tyler Highway", "addr:city": "Williamsburg", "addr:state": "VA", "addr:postcode": "23185", "addr:country": "US", "name": "Governors Green Shopping Center", "phone": "(757) 941-1680", "opening_hours": "6am-10pm", "brand": "Harris Teeter"}, "geometry": {"type": "Point", "coordinates": [-76.7652159183266, 37.252278449004]}},
{"type": "Feature", "id": "KcckZicYXiKgkLOtcHtfYhl4uwM=", "properties": {"ref": "354", "@spider": "harristeeter", "addr:full": "3401 Raleigh Road Pkwy W Suite 10A", "addr:city": "Wilson", "addr:state": "NC", "addr:postcode": "27896", "addr:country": "US", "name": "Heritage Crossing Shopping Center", "phone": "(252) 206-0831", "opening_hours": "6am-10pm", "brand": "Harris Teeter"}, "geometry": {"type": "Point", "coordinates": [-77.96301, 35.74307]}},
{"type": "Feature", "id": "i--v9FZfsH41G3vhkpmxXFDjdJw=", "properties": {"ref": "320", "@spider": "harristeeter", "addr:full": "1470 Quarterpath Rd", "addr:city": "Williamsburg", "addr:state": "VA", "addr:postcode": "23185", "addr:country": "US", "name": "Quarterpath Crossing", "phone": "(757) 253-0182", "opening_hours": "6am-10pm", "brand": "Harris Teeter"}, "geometry": {"type": "Point", "coordinates": [-76.6839372499397, 37.2485728596268]}},
{"type": "Feature", "id": "JFkd39ndGkVQh0XE1qTkD3wLGFs=", "properties": {"ref": "355", "@spider": "harristeeter", "addr:full": "680 Bacons Bridge Rd", "addr:city": "Summerville", "addr:state": "SC", "addr:postcode": "29485", "addr:country": "US", "name": "Sawmill Village", "phone": "(843) 486-0578", "opening_hours": "6am-10pm", "brand": "Harris Teeter"}, "geometry": {"type": "Point", "coordinates": [-80.1840057009219, 32.9993085047329]}},
{"type": "Feature", "id": "Ycb9fw1QHT_ulo6MS6NMWhr0YFw=", "properties": {"ref": "363", "@spider": "harristeeter", "addr:full": "9500 Dorchester Rd", "addr:city": "Summerville", "addr:state": "SC", "addr:postcode": "29485", "addr:country": "US", "name": "Wescott Plantation", "phone": "(843) 875-2524", "opening_hours": "6am-10pm", "brand": "Harris Teeter"}, "geometry": {"type": "Point", "coordinates": [-80.14873, 32.93966]}},
{"type": "Feature", "id": "7RRHGSGTZVyoFXbLtVTPjwv-iLg=", "properties": {"ref": "115", "@spider": "harristeeter", "addr:full": "2120 Wayne Memorial Dr", "addr:city": "Goldsboro", "addr:state": "NC", "addr:postcode": "27534", "addr:country": "US", "name": "Memorial Commons", "phone": "(919) 734-3534", "opening_hours": "6am-10pm", "brand": "Harris Teeter"}, "geometry": {"type": "Point", "coordinates": [-77.9647887638399, 35.3974456011047]}},
{"type": "Feature", "id": "uokYDsrt_63seo7hECYUTJBxbmQ=", "properties": {"ref": "6", "@spider": "harristeeter", "addr:full": "12404 Warwick Blvd", "addr:city": "Newport News", "addr:state": "VA", "addr:postcode": "23606", "addr:country": "US", "name": "Warwick Boulevard Location", "phone": "(757) 595-6000", "opening_hours": "6am-10pm", "brand": "Harris Teeter"}, "geometry": {"type": "Point", "coordinates": [-76.4926921686918, 37.0680365060755]}},
{"type": "Feature", "id": "ox_S7fADp7miwNUwdkYhZe0gl9Y=", "properties": {"ref": "152", "@spider": "harristeeter", "addr:full": "301 Main St", "addr:city": "Hilton Head", "addr:state": "SC", "addr:postcode": "29926", "addr:country": "US", "name": "Main Street Village", "phone": "(843) 689-6255", "opening_hours": "6am-10pm", "brand": "Harris Teeter"}, "geometry": {"type": "Point", "coordinates": [-80.7224135984167, 32.2160615266492]}},
{"type": "Feature", "id": "EcCNmlmaZFrVr-22l-Bpmey57Hk=", "properties": {"ref": "423", "@spider": "harristeeter", "addr:full": "33 Office Park Rd Suite 100", "addr:city": "Hilton Head", "addr:state": "SC", "addr:postcode": "29928", "addr:country": "US", "name": "Park Plaza Shopping Center", "phone": "(843) 785-6185", "opening_hours": "6am-10pm", "brand": "Harris Teeter"}, "geometry": {"type": "Point", "coordinates": [-80.7640209849024, 32.1531443981152]}},
{"type": "Feature", "id": "MW0uYuNefzQD4C4RuwbUbCCuTAI=", "properties": {"ref": "406", "@spider": "harristeeter", "addr:full": "3865 West Ashley Circle", "addr:city": "Charleston", "addr:state": "SC", "addr:postcode": "29414", "addr:country": "US", "name": "Bees Ferry", "phone": "(843) 619-2901", "opening_hours": "6am-10pm", "brand": "Harris Teeter"}, "geometry": {"type": "Point", "coordinates": [-80.08496625, 32.82621791]}},
{"type": "Feature", "id": "mVyPRhyL1k81e6Ds_lCcZ-st5nQ=", "properties": {"ref": "336", "@spider": "harristeeter", "addr:full": "26370 Bay Farm Rd", "addr:city": "Millsboro", "addr:state": "DE", "addr:postcode": "19966", "addr:country": "US", "name": "Long Neck Back Bay Shopping Center", "phone": "(302) 945-1705", "opening_hours": "6am-10pm", "brand": "Harris Teeter"}, "geometry": {"type": "Point", "coordinates": [-75.1942317647059, 38.6265123529412]}},
{"type": "Feature", "id": "TccOo-AHJGcq_w-AE-pnv2xEjYg=", "properties": {"ref": "410", "@spider": "harristeeter", "addr:full": "1812 Sam Rittenberg Blvd.", "addr:city": "Charleston", "addr:state": "SC", "addr:postcode": "29407", "addr:country": "US", "name": "Westwood Plaza", "phone": "(843) 763-7283", "opening_hours": "6am-10pm", "brand": "Harris Teeter"}, "geometry": {"type": "Point", "coordinates": [-80.01962, 32.80037]}},
{"type": "Feature", "id": "4-9zYQ6TvXU4bcN0pNHlhQ6IZmk=", "properties": {"ref": "460", "@spider": "harristeeter", "addr:full": "227 Fox Hill Road", "addr:city": "Hampton", "addr:state": "VA", "addr:postcode": "23669", "addr:country": "US", "name": "Willow Oaks Village Square", "phone": "(757) 850-0156", "opening_hours": "6am-10pm", "brand": "Harris Teeter"}, "geometry": {"type": "Point", "coordinates": [-76.3268104302201, 37.0568355269544]}},
{"type": "Feature", "id": "UeZ9wdeA4RuY--PdDsmRS-_C-VY=", "properties": {"ref": "463", "@spider": "harristeeter", "addr:full": "3575 Shoulder Hill Bridge Rd", "addr:city": "Suffolk", "addr:state": "VA", "addr:postcode": "23435", "addr:country": "US", "name": "Bennett's Creek", "phone": "(757) 947-0230", "opening_hours": "6am-10pm", "brand": "Harris Teeter"}, "geometry": {"type": "Point", "coordinates": [-76.465131, 36.861682]}},
{"type": "Feature", "id": "woBH9Lv0V_b3PuygMmYLPJce4j4=", "properties": {"ref": "365", "@spider": "harristeeter", "addr:full": "975 Savannah Hwy Suite 135", "addr:city": "Charleston", "addr:state": "SC", "addr:postcode": "29407", "addr:country": "US", "name": "St. Andrews Shopping Center", "phone": "(843) 556-5351", "opening_hours": "6am-10pm", "brand": "Harris Teeter"}, "geometry": {"type": "Point", "coordinates": [-79.9894897959184, 32.7826783673469]}},
{"type": "Feature", "id": "8bDsbDALMJB66S4g3F8c6TgimgI=", "properties": {"ref": "451", "@spider": "harristeeter", "addr:full": "515 Freshfields Dr", "addr:city": "Johns Island", "addr:state": "SC", "addr:postcode": "29455", "addr:country": "US", "name": "The Village Market by Harris Teeter", "phone": "(843) 243-3276", "opening_hours": "6am-10pm", "brand": "Harris Teeter"}, "geometry": {"type": "Point", "coordinates": [-80.14814, 32.6070385714286]}},
{"type": "Feature", "id": "XlDAvo04hVCBDb7cgCkEVlxZBMg=", "properties": {"ref": "455", "@spider": "harristeeter", "addr:full": "1739 Maybank Highway", "addr:city": "Charleston", "addr:state": "SC", "addr:postcode": "29412", "addr:country": "US", "name": "James Island Center", "phone": "(843) 795-9091", "opening_hours": "6am-10pm", "brand": "Harris Teeter"}, "geometry": {"type": "Point", "coordinates": [-79.97719, 32.76271]}},
{"type": "Feature", "id": "BJKahLreqsi9BvCNSRX2F_nCv-w=", "properties": {"ref": "28", "@spider": "harristeeter", "addr:full": "675 Folly Rd", "addr:city": "Charleston", "addr:state": "SC", "addr:postcode": "29412", "addr:country": "US", "name": "Oakpoint Center", "phone": "(843) 406-8977", "opening_hours": "6am-10pm", "brand": "Harris Teeter"}, "geometry": {"type": "Point", "coordinates": [-79.9704854883676, 32.7463000595269]}},
{"type": "Feature", "id": "rpsjRCb4kNq_ryRuvoG4TvwKoZQ=", "properties": {"ref": "277", "@spider": "harristeeter", "addr:full": "290 E Bay St", "addr:city": "Charleston", "addr:state": "SC", "addr:postcode": "29401", "addr:country": "US", "name": "East Bay Trading Station", "phone": "(843) 722-6821", "opening_hours": "6am-10pm", "brand": "Harris Teeter"}, "geometry": {"type": "Point", "coordinates": [-79.92888, 32.78462]}},
{"type": "Feature", "id": "304CT_V5l8qRUdD3SiTyfDMnVCo=", "properties": {"ref": "131", "@spider": "harristeeter", "addr:full": "2035 Hwy 41", "addr:city": "Mount Pleasant", "addr:state": "SC", "addr:postcode": "29466", "addr:country": "US", "name": "Rivertowne Place", "phone": "(843) 971-3611", "opening_hours": "6am-10pm", "brand": "Harris Teeter"}, "geometry": {"type": "Point", "coordinates": [-79.8209565853658, 32.8995373170732]}},
{"type": "Feature", "id": "qFiG568VqRr8B7gZs7ha8ttUCj8=", "properties": {"ref": "315", "@spider": "harristeeter", "addr:full": "3249 Tyre Neck Rd", "addr:city": "Portsmouth", "addr:state": "VA", "addr:postcode": "23703", "addr:country": "US", "name": "Churchland Marketplace", "phone": "(757) 483-9235", "opening_hours": "6am-10pm", "brand": "Harris Teeter"}, "geometry": {"type": "Point", "coordinates": [-76.3954110167472, 36.8617012724236]}},
{"type": "Feature", "id": "qOKtFOtP_KHE0YGwWQcfhSB7SQA=", "properties": {"ref": "87", "@spider": "harristeeter", "addr:full": "620 Long Point Rd.", "addr:city": "Mount Pleasant", "addr:state": "SC", "addr:postcode": "29464", "addr:country": "US", "name": "Long Point", "phone": "(843) 856-4631", "opening_hours": "6am-10pm", "brand": "Harris Teeter"}, "geometry": {"type": "Point", "coordinates": [-79.859206, 32.840658]}},
{"type": "Feature", "id": "o8hnJVy8Yt82_yb_jeCSU9pI8jI=", "properties": {"ref": "327", "@spider": "harristeeter", "addr:full": "31221 Americana Pkwy", "addr:city": "Selbyville", "addr:state": "DE", "addr:postcode": "19975", "addr:country": "US", "name": "Bayside Village Center", "phone": "(302) 436-2827", "opening_hours": "6am-10pm", "brand": "Harris Teeter"}, "geometry": {"type": "Point", "coordinates": [-75.1156423845951, 38.4694565817067]}},
{"type": "Feature", "id": "6Y9napIIQjT_UO-MY7mrbk0goEw=", "properties": {"ref": "19", "@spider": "harristeeter", "addr:full": "920 Houston Northcutt Blvd", "addr:city": "Mount Pleasant", "addr:state": "SC", "addr:postcode": "29464", "addr:country": "US", "name": "Village Pointe", "phone": "(843) 881-1983", "opening_hours": "6am-10pm", "brand": "Harris Teeter"}, "geometry": {"type": "Point", "coordinates": [-79.8899706398394, 32.8020180804818]}},
{"type": "Feature", "id": "JxKU1XgIIwQTl3u36Q1zEjpdAPw=", "properties": {"ref": "456", "@spider": "harristeeter", "addr:full": "1005 Harborview Rd", "addr:city": "Charleston", "addr:state": "SC", "addr:postcode": "29412", "addr:country": "US", "name": "Harbor View Shopping Center", "phone": "(843) 762-2124", "opening_hours": "6am-10pm", "brand": "Harris Teeter"}, "geometry": {"type": "Point", "coordinates": [-79.9364682505585, 32.7426216414743]}},
{"type": "Feature", "id": "Wg_Rqowmlc_S07Y7NN-sEC8Q_U8=", "properties": {"ref": "454", "@spider": "harristeeter", "addr:full": "1985 Folly Rd", "addr:city": "Charleston", "addr:state": "SC", "addr:postcode": "29412", "addr:country": "US", "name": "Harris Teeter Fuel Center", "phone": "(843) 762-6255", "opening_hours": "6am-9pm", "brand": "Harris Teeter"}, "geometry": {"type": "Point", "coordinates": [-79.9599510829644, 32.6861282550145]}},
{"type": "Feature", "id": "N0_UdWiUgn5oTigfS9ony10rjfk=", "properties": {"ref": "453", "@spider": "harristeeter", "addr:full": "1985 Folly Rd", "addr:city": "Charleston", "addr:state": "SC", "addr:postcode": "29412", "addr:country": "US", "name": "Folly Road Crossing-Folly Beach", "phone": "(843) 762-6255", "opening_hours": "6am-10pm", "brand": "Harris Teeter"}, "geometry": {"type": "Point", "coordinates": [-79.9599510829644, 32.6861282550145]}},
{"type": "Feature", "id": "I0GV_KRvV5rCQqOw1qa7AlrgyEE=", "properties": {"ref": "385", "@spider": "harristeeter", "addr:full": "2195 Tea Planter Ln", "addr:city": "Mount Pleasant", "addr:state": "SC", "addr:postcode": "29466", "addr:country": "US", "name": "Six Mile Marketplace", "phone": "(843) 881-2622", "opening_hours": "6am-10pm", "brand": "Harris Teeter"}, "geometry": {"type": "Point", "coordinates": [-79.8166485224865, 32.8399240704668]}},
{"type": "Feature", "id": "x4JSZ4Cj-_EZslLJjLpVArsGW4A=", "properties": {"ref": "457", "@spider": "harristeeter", "addr:full": "1220 Ben Sawyer Blvd Suite C", "addr:city": "Mt Pleasant", "addr:state": "SC", "addr:postcode": "29464", "addr:country": "US", "name": "Sea Island Shopping Center", "phone": "(843) 884-4489", "opening_hours": "6am-10pm", "brand": "Harris Teeter"}, "geometry": {"type": "Point", "coordinates": [-79.8586591307268, 32.7942775251398]}},
{"type": "Feature", "id": "o5Z3S-D6dkmRVc9qygOwNrzCJ_0=", "properties": {"ref": "461", "@spider": "harristeeter", "addr:full": "179 West Ocean View Ave.", "addr:city": "Norfolk", "addr:state": "VA", "addr:postcode": "23503", "addr:country": "US", "name": "Ocean View", "phone": "(757) 587-0200", "opening_hours": "6am-10pm", "brand": "Harris Teeter"}, "geometry": {"type": "Point", "coordinates": [-76.252731555098, 36.9553822490917]}},
{"type": "Feature", "id": "f8OaZMDtSMm2x4glHGbb4ogyMuE=", "properties": {"ref": "362", "@spider": "harristeeter", "addr:full": "3040 Evans St", "addr:city": "Greenville", "addr:state": "NC", "addr:postcode": "27834", "addr:country": "US", "name": "University Commons", "phone": "(252) 353-4400", "opening_hours": "6am-11pm", "brand": "Harris Teeter"}, "geometry": {"type": "Point", "coordinates": [-77.3811140704423, 35.5796918657409]}},
{"type": "Feature", "id": "XgR1b3oz0i9waqryY_V9c5J9n3M=", "properties": {"ref": "450", "@spider": "harristeeter", "addr:full": "1981 Riviera Dr", "addr:city": "Mt Pleasant", "addr:state": "SC", "addr:postcode": "29464", "addr:country": "US", "name": "Seaside Farms", "phone": "(843) 881-8939", "opening_hours": "6am-10pm", "brand": "Harris Teeter"}, "geometry": {"type": "Point", "coordinates": [-79.8154395918367, 32.8223855102041]}},
{"type": "Feature", "id": "l88dNBY-fOprnnKWyb0ShSMCzkY=", "properties": {"ref": "168", "@spider": "harristeeter", "addr:full": "600 Sea Island Rd Suite 23", "addr:city": "St. Simons", "addr:state": "GA", "addr:postcode": "31522", "addr:country": "US", "name": "Shops at Sea Island", "phone": "(912) 638-8100", "opening_hours": "6am-10pm", "brand": "Harris Teeter"}, "geometry": {"type": "Point", "coordinates": [-81.37877, 31.18396]}},
{"type": "Feature", "id": "BeQjbXRMR7UMrKCq6ebtfCrkZBs=", "properties": {"ref": "407", "@spider": "harristeeter", "addr:full": "7550 Granby St", "addr:city": "Norfolk", "addr:state": "VA", "addr:postcode": "23505", "addr:country": "US", "name": "Wards Corner", "phone": "(757) 588-4260", "opening_hours": "6am-10pm", "brand": "Harris Teeter"}, "geometry": {"type": "Point", "coordinates": [-76.2727848608725, 36.9142680033045]}},
{"type": "Feature", "id": "4QOqX5vxbxnp0pJqCpqbE2Mmb0o=", "properties": {"ref": "378", "@spider": "harristeeter", "addr:full": "1320 Colonial Ave", "addr:city": "Norfolk", "addr:state": "VA", "addr:postcode": "23517", "addr:country": "US", "name": "Colonial Avenue", "phone": "(757) 533-9284", "opening_hours": "6am-10pm", "brand": "Harris Teeter"}, "geometry": {"type": "Point", "coordinates": [-76.2934970967742, 36.8652205376344]}},
{"type": "Feature", "id": "bQopYM59BSFsuZOWk0ByYhiTQOI=", "properties": {"ref": "287", "@spider": "harristeeter", "addr:full": "2120 E Fire Tower Rd", "addr:city": "Greenville", "addr:state": "NC", "addr:postcode": "27858", "addr:country": "US", "name": "Bells Fork Shopping Center", "phone": "(252) 355-0125", "opening_hours": "6am-11pm", "brand": "Harris Teeter"}, "geometry": {"type": "Point", "coordinates": [-77.34972, 35.56735]}},
{"type": "Feature", "id": "phiWUWb5dJVdK1kvdY1nQ1YUcPA=", "properties": {"ref": "452", "@spider": "harristeeter", "addr:full": "1513 Palm Blvd", "addr:city": "Isle of Palms", "addr:state": "SC", "addr:postcode": "29451", "addr:country": "US", "name": "Isle of Palms", "phone": "(843) 886-6506", "opening_hours": "6am-10pm", "brand": "Harris Teeter"}, "geometry": {"type": "Point", "coordinates": [-79.7866992307692, 32.7889702564103]}},
{"type": "Feature", "id": "mKUm-f7zy_5o1tfguTqE6TWClyE=", "properties": {"ref": "176", "@spider": "harristeeter", "addr:full": "1216 Greenbrier Parkway", "addr:city": "Chesapeake", "addr:state": "VA", "addr:postcode": "23320", "addr:country": "US", "name": "Greenbrier Market", "phone": "(757) 382-7300", "opening_hours": "6am-10pm", "brand": "Harris Teeter"}, "geometry": {"type": "Point", "coordinates": [-76.227997027027, 36.7698108108108]}},
{"type": "Feature", "id": "DWMuE_x4dVFF-C0vKrX3ShPw5ls=", "properties": {"ref": "464", "@spider": "harristeeter", "addr:full": "1069 Independence Blvd.", "addr:city": "Virginia Beach", "addr:state": "VA", "addr:postcode": "23455", "addr:country": "US", "name": "Haygood", "phone": "(757) 217-0240", "opening_hours": "6am-10pm", "brand": "Harris Teeter"}, "geometry": {"type": "Point", "coordinates": [-76.1346444472195, 36.8739570601628]}},
{"type": "Feature", "id": "Lbgr2N09MbV1YouxHmJzT_8CXlo=", "properties": {"ref": "465", "@spider": "harristeeter", "addr:full": "1400 Kempsville Road", "addr:city": "Chesapeake", "addr:state": "VA", "addr:postcode": "23320", "addr:country": "US", "name": "Orchard Square", "phone": "(757) 217-0376", "opening_hours": "6am-10pm", "brand": "Harris Teeter"}, "geometry": {"type": "Point", "coordinates": [-76.2036043012684, 36.7643401088787]}},
{"type": "Feature", "id": "36qvHR9KYPXX5zikv2WIP3fllyM=", "properties": {"ref": "350", "@spider": "harristeeter", "addr:full": "5060 Ferrell Parkway", "addr:city": "Virginia Beach", "addr:state": "VA", "addr:postcode": "23464", "addr:country": "US", "name": "Indian Lakes Crossing", "phone": "(757) 467-0529", "opening_hours": "6am-10pm", "brand": "Harris Teeter"}, "geometry": {"type": "Point", "coordinates": [-76.1678590476679, 36.7949696296201]}},
{"type": "Feature", "id": "el6QfLzYiJhAKDWiLZFdZf-J1Vs=", "properties": {"ref": "369", "@spider": "harristeeter", "addr:full": "4540 Princess Anne Rd Suite 117", "addr:city": "Virginia Beach", "addr:state": "VA", "addr:postcode": "23462", "addr:country": "US", "name": "Brenneman Farm Marketplace", "phone": "(757) 467-4387", "opening_hours": "6am-10pm", "brand": "Harris Teeter"}, "geometry": {"type": "Point", "coordinates": [-76.1343966666667, 36.80689]}},
{"type": "Feature", "id": "ZwbUyYidMAEIDa8tAjYKCK92baU=", "properties": {"ref": "51", "@spider": "harristeeter", "addr:full": "237 Hanbury Rd East", "addr:city": "Chesapeake", "addr:state": "VA", "addr:postcode": "23322", "addr:country": "US", "name": "Hanbury Village", "phone": "(757) 546-9074", "opening_hours": "6am-10pm", "brand": "Harris Teeter"}, "geometry": {"type": "Point", "coordinates": [-76.223808332274, 36.6876907618442]}},
{"type": "Feature", "id": "7ch7FtY6QvZ5lHm1-xADVUZyUII=", "properties": {"ref": "161", "@spider": "harristeeter", "addr:full": "3333 Virginia Beach Blvd Suite 101", "addr:city": "Virginia Beach", "addr:state": "VA", "addr:postcode": "23452", "addr:country": "US", "name": "Princess Anne Plaza", "phone": "(757) 631-6750", "opening_hours": "6am-10pm", "brand": "Harris Teeter"}, "geometry": {"type": "Point", "coordinates": [-76.0880642105263, 36.8417552631579]}},
{"type": "Feature", "id": "nObxjalsZ-NpRzj13VdFRDC7vpY=", "properties": {"ref": "459", "@spider": "harristeeter", "addr:full": "2110 N. Great Neck Square", "addr:city": "Virginia Beach", "addr:state": "VA", "addr:postcode": "23454", "addr:country": "US", "name": "Great Neck Shopping center", "phone": "(757) 481-6254", "opening_hours": "6am-10pm", "brand": "Harris Teeter"}, "geometry": {"type": "Point", "coordinates": [-76.0376843, 36.8755432]}},
{"type": "Feature", "id": "rQRAmGAoDXAxe8nbWEusnD5QkKQ=", "properties": {"ref": "239", "@spider": "harristeeter", "addr:full": "2476 Nimmo Parkway", "addr:city": "Virginia Beach", "addr:state": "VA", "addr:postcode": "23456", "addr:country": "US", "name": "Courthouse Marketplace", "phone": "(757) 563-9410", "opening_hours": "6am-10pm", "brand": "Harris Teeter"}, "geometry": {"type": "Point", "coordinates": [-76.0638042105263, 36.7540952631579]}},
{"type": "Feature", "id": "YGWkmwduFQpUnNaFUhLHJjx-Owk=", "properties": {"ref": "181", "@spider": "harristeeter", "addr:full": "2800 Arctic Ave", "addr:city": "Virginia Beach", "addr:state": "VA", "addr:postcode": "23451", "addr:country": "US", "name": "Arctic Avenue Location", "phone": "(757) 422-4595", "opening_hours": "7am-10pm", "brand": "Harris Teeter"}, "geometry": {"type": "Point", "coordinates": [-75.9804, 36.85592]}},
{"type": "Feature", "id": "HJ89RgJLi-j0aFOxzSD8iZdW5p8=", "properties": {"ref": "467", "@spider": "harristeeter", "addr:full": "2129 General Booth Blvd.", "addr:city": "Virginia Beach", "addr:state": "VA", "addr:postcode": "23454", "addr:country": "US", "name": "Strawbridge Market Place", "phone": "(757) 427-6220", "opening_hours": "6am-10pm", "brand": "Harris Teeter"}, "geometry": {"type": "Point", "coordinates": [-76.01568, 36.768148]}},
{"type": "Feature", "id": "zaHPEksPZJ-KBHS_xBGAR_p-ynk=", "properties": {"ref": "419", "@spider": "harristeeter", "addr:full": "2105 Princess Anne Rd Suite 100", "addr:city": "Virginia Beach", "addr:state": "VA", "addr:postcode": "23456", "addr:country": "US", "name": "Sandbridge Commons", "phone": "(757) 721-2396", "opening_hours": "7am-10pm", "brand": "Harris Teeter"}, "geometry": {"type": "Point", "coordinates": [-76.0100818722232, 36.7524928454883]}},
{"type": "Feature", "id": "4W72Qfcjve0Y6-4tBw0QV6fgAKA=", "properties": {"ref": "44", "@spider": "harristeeter", "addr:full": "5518 S. Fletcher Ave", "addr:city": "Fernandina Beach", "addr:state": "FL", "addr:postcode": "32034", "addr:country": "US", "name": "Harris Teeter Fuel Center", "phone": "(904) 491-1213", "opening_hours": "Closed", "brand": "Harris Teeter"}, "geometry": {"type": "Point", "coordinates": [-81.457873, 30.592596]}},
{"type": "Feature", "id": "pmiDEBxlWVqbfoHROJV2K_XUvVM=", "properties": {"ref": "34", "@spider": "harristeeter", "addr:full": "4800 First Coast Highway", "addr:city": "Fernandina Beach", "addr:state": "FL", "addr:postcode": "32034", "addr:country": "US", "name": "Shops at Amelia Market", "phone": "(904) 491-1213", "opening_hours": "6am-10pm", "brand": "Harris Teeter"}, "geometry": {"type": "Point", "coordinates": [-81.45799, 30.59124]}},
{"type": "Feature", "id": "KEvx4pWRlIOckdqvBImedUa_0Yo=", "properties": {"ref": "225", "@spider": "harristeeter", "addr:full": "2021 Old Regent Way", "addr:city": "Leland", "addr:state": "NC", "addr:postcode": "28451", "addr:country": "US", "name": "Waterford Commercial Center", "phone": "(910) 371-3944", "opening_hours": "6am-10pm", "brand": "Harris Teeter"}, "geometry": {"type": "Point", "coordinates": [-78.0185535896359, 34.2179546886755]}},
{"type": "Feature", "id": "yckWXS9xb4Jjz9JcKw2r2Zu5U-w=", "properties": {"ref": "162", "@spider": "harristeeter", "addr:full": "3501 Oleander Drive #18", "addr:city": "Wilmington", "addr:state": "NC", "addr:postcode": "28403", "addr:country": "US", "name": "Hanover Center", "phone": "(910) 343-4216", "opening_hours": "6am-10pm", "brand": "Harris Teeter"}, "geometry": {"type": "Point", "coordinates": [-77.90576, 34.21676]}},
{"type": "Feature", "id": "DP0E7NeDyFfnR_x9zodZmOF6sDs=", "properties": {"ref": "158", "@spider": "harristeeter", "addr:full": "820 S College Rd", "addr:city": "Wilmington", "addr:state": "NC", "addr:postcode": "28403", "addr:country": "US", "name": "College Rd", "phone": "(910) 452-9242", "opening_hours": "6am-11pm", "brand": "Harris Teeter"}, "geometry": {"type": "Point", "coordinates": [-77.8837825794156, 34.2210406278495]}},
{"type": "Feature", "id": "sUyGL2cZ_jOzgbIE3S-DBL0XL3o=", "properties": {"ref": "441", "@spider": "harristeeter", "addr:full": "2800 S College Rd", "addr:city": "Wilmington", "addr:state": "NC", "addr:postcode": "28412", "addr:country": "US", "name": "Long Leaf Mall", "phone": "(910) 791-4505", "opening_hours": "6am-10pm", "brand": "Harris Teeter"}, "geometry": {"type": "Point", "coordinates": [-77.8893206403679, 34.1950995615808]}},
{"type": "Feature", "id": "ZY4o8dZfyg22w8c6ePY9cQS8ago=", "properties": {"ref": "421", "@spider": "harristeeter", "addr:full": "3565 ML King Jr. Blvd", "addr:city": "New Bern", "addr:state": "NC", "addr:postcode": "28562", "addr:country": "US", "name": "New Bern Marketplace", "phone": "(252) 497-2113", "opening_hours": "6am-10pm", "brand": "Harris Teeter"}, "geometry": {"type": "Point", "coordinates": [-77.1033007, 35.0952441]}},
{"type": "Feature", "id": "WOZ8gJFsDoq2MThlVwGqBtZxYjs=", "properties": {"ref": "191", "@spider": "harristeeter", "addr:full": "8260 Market St", "addr:city": "Wilmington", "addr:state": "NC", "addr:postcode": "28411", "addr:country": "US", "name": "Oak Landing Shopping Center", "phone": "(910) 681-0571", "opening_hours": "6am-10pm", "brand": "Harris Teeter"}, "geometry": {"type": "Point", "coordinates": [-77.7907551885958, 34.2990647148085]}},
{"type": "Feature", "id": "7qBQbfg3MZ9tTIQhUndf6IDHo0g=", "properties": {"ref": "210", "@spider": "harristeeter", "addr:full": "6805 Parker Farm Rd", "addr:city": "Wilmington", "addr:state": "NC", "addr:postcode": "28405", "addr:country": "US", "name": "Mayfaire", "phone": "(910) 256-1071", "opening_hours": "6am-10pm", "brand": "Harris Teeter"}, "geometry": {"type": "Point", "coordinates": [-77.8310255555556, 34.2352788888889]}},
{"type": "Feature", "id": "fMPUugE2z5yfr1aenCFfRVScEmo=", "properties": {"ref": "301", "@spider": "harristeeter", "addr:full": "1940 Eastwood Rd", "addr:city": "Wilmington", "addr:state": "NC", "addr:postcode": "28403", "addr:country": "US", "name": "Lumina Commons", "phone": "(910) 256-2015", "opening_hours": "6am-10pm", "brand": "Harris Teeter"}, "geometry": {"type": "Point", "coordinates": [-77.8209777966458, 34.2225388223452]}},
{"type": "Feature", "id": "GanH86wGLtchfG9DjiWD1PxLGk8=", "properties": {"ref": "96", "@spider": "harristeeter", "addr:full": "5920 Carolina Beach Rd", "addr:city": "Wilmington", "addr:state": "NC", "addr:postcode": "28412", "addr:country": "US", "name": "Beau Rivage Marketplace", "phone": "(910) 796-3091", "opening_hours": "6am-10pm", "brand": "Harris Teeter"}, "geometry": {"type": "Point", "coordinates": [-77.899896947121, 34.1252797692128]}},
{"type": "Feature", "id": "rD0pIM49QbxQX8lnUST_Fv7nvq0=", "properties": {"ref": "135", "@spider": "harristeeter", "addr:full": "203 Alston Blvd", "addr:city": "Hampstead", "addr:state": "NC", "addr:postcode": "28443", "addr:country": "US", "name": "Surf City Crossing", "phone": "(910) 329-0711", "opening_hours": "6am-10pm", "brand": "Harris Teeter"}, "geometry": {"type": "Point", "coordinates": [-77.6029721456971, 34.451890498012]}},
{"type": "Feature", "id": "mFyEkMhIDcFpIlfYL57hLHCYcAY=", "properties": {"ref": "139", "@spider": "harristeeter", "addr:full": "2032 Waterscape Way", "addr:city": "New Bern", "addr:state": "NC", "addr:postcode": "28562", "addr:country": "US", "name": "Carolina Colours Towne Centre", "phone": "(252) 631-5226", "opening_hours": "6am-10pm", "brand": "Harris Teeter"}, "geometry": {"type": "Point", "coordinates": [-77.01227, 35.02007]}},
{"type": "Feature", "id": "pZEK-og3ux2RScuLWE5JujTuo7Q=", "properties": {"ref": "266", "@spider": "harristeeter", "addr:full": "601 Currituck Clubhouse Dr", "addr:city": "Corolla", "addr:state": "NC", "addr:postcode": "27927", "addr:country": "US", "name": "The Shops at the Currituck Club - Mile Marker 6.5", "phone": "(252) 453-0153", "opening_hours": "7am-8pm", "brand": "Harris Teeter"}, "geometry": {"type": "Point", "coordinates": [-75.80444, 36.30192]}},
{"type": "Feature", "id": "QHZfSmpVLEG2eR2djQZZAeOMkIw=", "properties": {"ref": "387", "@spider": "harristeeter", "addr:full": "5400 North Croatan Hwy #A", "addr:city": "Kitty Hawk", "addr:state": "NC", "addr:postcode": "27949", "addr:country": "US", "name": "Shoreside - Mile Marker 1.5", "phone": "(252) 261-2220", "opening_hours": "7am-10pm", "brand": "Harris Teeter"}, "geometry": {"type": "Point", "coordinates": [-75.72041, 36.09899]}},
{"type": "Feature", "id": "Rxgh3HuyyriVPLe-l-63fBx0VwE=", "properties": {"ref": "265", "@spider": "harristeeter", "addr:full": "5000 US Hwy 70 Suite 100", "addr:city": "Morehead City", "addr:state": "NC", "addr:postcode": "28557", "addr:country": "US", "name": "Governor's Station", "phone": "(252) 240-3742", "opening_hours": "6am-10pm", "brand": "Harris Teeter"}, "geometry": {"type": "Point", "coordinates": [-76.8007, 34.73667]}},
{"type": "Feature", "id": "nsAecuZwmeU_6DTUuCA-QPNlwwU=", "properties": {"ref": "175", "@spider": "harristeeter", "addr:full": "2012 South Croatan Hwy", "addr:city": "Kill Devil Hills", "addr:state": "NC", "addr:postcode": "27948", "addr:country": "US", "name": "Kill Devil Hills Shopping Center - Mile Marker 9.75", "phone": "(252) 449-9191", "opening_hours": "7am-10pm", "brand": "Harris Teeter"}, "geometry": {"type": "Point", "coordinates": [-75.6497208163265, 35.9949191836735]}}]}