{"type":"FeatureCollection","features":[{"type": "Feature", "id": "TdXIVH6cHRAr7PtK1rif5EBtBJc=", "properties": {"ref": "far-west-h-e-b-96", "@spider": "heb", "addr:full": "7015 VILLAGE CTR DR.", "addr:city": "AUSTIN", "addr:state": "TX", "addr:postcode": "78731-3023", "addr:country": "USA", "name": "Far West H-E-B", "phone": "+15125028445", "website": "https://www.heb.com/heb-store/US/tx/austin/far-west-h-e-b-96", "opening_hours": "Mo-Su 06:00-23:00", "brand": "H-E-B", "brand:wikidata": "Q830621"}, "geometry": {"type": "Point", "coordinates": [-97.75598, 30.35289]}},
{"type": "Feature", "id": "dsbY5CfOUKcjiP7FIEb25mMrysE=", "properties": {"ref": "laredo-h-e-b-plus--95", "@spider": "heb", "addr:full": "1911 NE BOB BULLOCK LOOP", "addr:city": "LAREDO", "addr:state": "TX", "addr:postcode": "78045-6596", "addr:country": "USA", "name": "Laredo H-E-B plus!", "phone": "+19567645000", "website": "https://www.heb.com/heb-store/US/tx/laredo/laredo-h-e-b-plus--95", "opening_hours": "Mo-Su 06:00-23:00", "brand": "H-E-B", "brand:wikidata": "Q830621"}, "geometry": {"type": "Point", "coordinates": [-99.47435, 27.60863]}},
{"type": "Feature", "id": "J1BVJj8JVOMWk8ewUMc8vY-DPJE=", "properties": {"ref": "vintage-park-market-h-e-b-99", "@spider": "heb", "addr:full": "10919 LOUETTA RD", "addr:city": "HOUSTON", "addr:state": "TX", "addr:postcode": "77070-1667", "addr:country": "USA", "name": "Vintage Park Market H-E-B", "phone": "+12812574600", "website": "https://www.heb.com/heb-store/US/tx/houston/vintage-park-market-h-e-b-99", "opening_hours": "Mo-Su 06:00-23:00", "brand": "H-E-B", "brand:wikidata": "Q830621"}, "geometry": {"type": "Point", "coordinates": [-95.57661, 29.9967]}},
{"type": "Feature", "id": "o4IZl7opI0kaqXTOYewy85YiGdg=", "properties": {"ref": "mission-h-e-b-plus--94", "@spider": "heb", "addr:full": "2409 EAST EXPRESSWAY 83", "addr:city": "MISSION", "addr:state": "TX", "addr:postcode": "78572-8354", "addr:country": "USA", "name": "Mission H-E-B plus!", "phone": "+19562056700", "website": "https://www.heb.com/heb-store/US/tx/mission/mission-h-e-b-plus--94", "opening_hours": "Mo-Su 06:00-23:00", "brand": "H-E-B", "brand:wikidata": "Q830621"}, "geometry": {"type": "Point", "coordinates": [-98.28628, 26.19755]}},
{"type": "Feature", "id": "tRhKv_B5fYoBiiP353JSmpjWcEA=", "properties": {"ref": "victoria-h-e-b-plus--92", "@spider": "heb", "addr:full": "6106 N. NAVARRO", "addr:city": "VICTORIA", "addr:state": "TX", "addr:postcode": "77904-1767", "addr:country": "USA", "name": "Victoria H-E-B plus!", "phone": "+13615789891", "website": "https://www.heb.com/heb-store/US/tx/victoria/victoria-h-e-b-plus--92", "opening_hours": "Mo-Su 06:00-23:00", "brand": "H-E-B", "brand:wikidata": "Q830621"}, "geometry": {"type": "Point", "coordinates": [-96.99736, 28.85159]}},
{"type": "Feature", "id": "UrwvFw1kiBBuZmXsXf8ynN96UXY=", "properties": {"ref": "riverside-h-e-b-plus--91", "@spider": "heb", "addr:full": "2508 EAST RIVERSIDE DRIVE", "addr:city": "AUSTIN", "addr:state": "TX", "addr:postcode": "78741-3037", "addr:country": "USA", "name": "Riverside H-E-B plus!", "phone": "+15124483544", "website": "https://www.heb.com/heb-store/US/tx/austin/riverside-h-e-b-plus--91", "opening_hours": "Mo-Su 06:00-23:00", "brand": "H-E-B", "brand:wikidata": "Q830621"}, "geometry": {"type": "Point", "coordinates": [-97.72401, 30.23547]}},
{"type": "Feature", "id": "jGad1XBJeWJCgX3zt29yinuAAQg=", "properties": {"ref": "gulfway-drive-h-e-b-86", "@spider": "heb", "addr:full": "3401 GULFWAY DR.", "addr:city": "PORT ARTHUR", "addr:state": "TX", "addr:postcode": "77642-3671", "addr:country": "USA", "name": "Gulfway Drive H-E-B", "phone": "+14099859723", "website": "https://www.heb.com/heb-store/US/tx/port-arthur/gulfway-drive-h-e-b-86", "opening_hours": "Mo-Su 07:00-22:00", "brand": "H-E-B", "brand:wikidata": "Q830621"}, "geometry": {"type": "Point", "coordinates": [-93.92352, 29.9049]}},
{"type": "Feature", "id": "jLbNf-Snaik1P21msvvqO2IpdaQ=", "properties": {"ref": "potranco-and-1604-h-e-b-plus--85", "@spider": "heb", "addr:full": "10718 POTRANCO ROAD", "addr:city": "SAN ANTONIO", "addr:state": "TX", "addr:postcode": "78251-3312", "addr:country": "USA", "name": "Potranco and 1604 H-E-B plus!", "phone": "+12106812250", "website": "https://www.heb.com/heb-store/US/tx/san-antonio/potranco-and-1604-h-e-b-plus--85", "opening_hours": "Mo-Su 06:00-23:00", "brand": "H-E-B", "brand:wikidata": "Q830621"}, "geometry": {"type": "Point", "coordinates": [-98.70445, 29.43536]}},
{"type": "Feature", "id": "mt0B0azwLG8z3xjOqZKiBkswU8w=", "properties": {"ref": "donna-h-e-b-9", "@spider": "heb", "addr:full": "813 MILLER", "addr:city": "DONNA", "addr:state": "TX", "addr:postcode": "78537-3148", "addr:country": "USA", "name": "Donna H-E-B", "phone": "+19564643471", "website": "https://www.heb.com/heb-store/US/tx/donna/donna-h-e-b-9", "opening_hours": "Mo-Su 06:00-22:00", "brand": "H-E-B", "brand:wikidata": "Q830621"}, "geometry": {"type": "Point", "coordinates": [-98.05534, 26.1693]}},
{"type": "Feature", "id": "FHIstki9X86RrRkdlZnAy1EBmfE=", "properties": {"ref": "lubbock-h-e-b-772", "@spider": "heb", "addr:full": "4405 114TH STREET", "addr:city": "LUBBOCK", "addr:state": "TX", "addr:postcode": "79424", "addr:country": "USA", "name": "Lubbock H-E-B", "phone": "+18066985900", "website": "https://www.heb.com/heb-store/US/tx/lubbock/lubbock-h-e-b-772", "opening_hours": "Mo-Su 06:00-00:00", "brand": "H-E-B", "brand:wikidata": "Q830621"}, "geometry": {"type": "Point", "coordinates": [-101.90638, 33.48958]}},
{"type": "Feature", "id": "lotCGJ_r6gJXdxNRE8LBZ0V9Jh0=", "properties": {"ref": "h-e-b-pharmacy-at-the-uthtb-773", "@spider": "heb", "addr:full": "1601 TRINITY ST", "addr:city": "AUSTIN", "addr:state": "TX", "addr:postcode": "78712", "addr:country": "USA", "name": "H-E-B Pharmacy at the UTHTB", "phone": "+15123209998", "website": "https://www.heb.com/heb-store/US/tx/austin/h-e-b-pharmacy-at-the-uthtb-773", "opening_hours": "Mo-Fr 08:00-18:00", "brand": "H-E-B", "brand:wikidata": "Q830621"}, "geometry": {"type": "Point", "coordinates": [-97.73507, 30.27747]}},
{"type": "Feature", "id": "FObcJmGS4MqfT46iA-cUUI2OB0o=", "properties": {"ref": "zarzamora-and-military-h-e-b-plus--84", "@spider": "heb", "addr:full": "6818 SOUTH ZARZAMORA", "addr:city": "SAN ANTONIO", "addr:state": "TX", "addr:postcode": "78224-1136", "addr:country": "USA", "name": "Zarzamora and Military H-E-B plus!", "phone": "+12109275334", "website": "https://www.heb.com/heb-store/US/tx/san-antonio/zarzamora-and-military-h-e-b-plus--84", "opening_hours": "Mo-Su 06:00-23:00", "brand": "H-E-B", "brand:wikidata": "Q830621"}, "geometry": {"type": "Point", "coordinates": [-98.5339, 29.35787]}},
{"type": "Feature", "id": "7PlECh1ki3BoQtfS64PppFdHQL8=", "properties": {"ref": "h-e-b-at-ronald-reagan-blvd-774", "@spider": "heb", "addr:full": "19348 RONALD W.REAGAN BLVD", "addr:city": "LEANDER", "addr:state": "TX", "addr:postcode": "78641", "addr:country": "USA", "name": "H-E-B at Ronald Reagan Blvd", "phone": "+15128434902", "website": "https://www.heb.com/heb-store/US/tx/leander/h-e-b-at-ronald-reagan-blvd-774", "opening_hours": "Mo-Su 06:00-23:00", "brand": "H-E-B", "brand:wikidata": "Q830621"}, "geometry": {"type": "Point", "coordinates": [-97.82446, 30.63307]}},
{"type": "Feature", "id": "IZcPoaOo38N8SkkH0WX_1GMH_Go=", "properties": {"ref": "211-and-potranco-h-e-b-771", "@spider": "heb", "addr:full": "14325 POTRANCO RD.", "addr:city": "SAN ANTONIO", "addr:state": "TX", "addr:postcode": "78253", "addr:country": "USA", "name": "211 and Potranco H-E-B", "phone": "+12106884662", "website": "https://www.heb.com/heb-store/US/tx/san-antonio/211-and-potranco-h-e-b-771", "opening_hours": "Mo-Su 06:00-23:00", "brand": "H-E-B", "brand:wikidata": "Q830621"}, "geometry": {"type": "Point", "coordinates": [-98.77966, 29.42367]}},
{"type": "Feature", "id": "pVPr9Or4aor0gAJauTSSvY0TNSg=", "properties": {"ref": "kerrville-h-e-b-on-main-street-770", "@spider": "heb", "addr:full": "300 W. MAIN ST.", "addr:city": "KERRVILLE", "addr:state": "TX", "addr:postcode": "78028", "addr:country": "USA", "name": "Kerrville H-E-B On Main Street", "phone": "+18308963600", "website": "https://www.heb.com/heb-store/US/tx/kerrville/kerrville-h-e-b-on-main-street-770", "opening_hours": "Mo-Su 06:00-23:00", "brand": "H-E-B", "brand:wikidata": "Q830621"}, "geometry": {"type": "Point", "coordinates": [-99.14287, 30.05056]}},
{"type": "Feature", "id": "r8gpRcxXK06L6jm-bncYZJnKYqA=", "properties": {"ref": "pecan-and-greenwood-h-e-b-88", "@spider": "heb", "addr:full": "500 PECAN", "addr:city": "DEL RIO", "addr:state": "TX", "addr:postcode": "78840-5824", "addr:country": "USA", "name": "Pecan and Greenwood H-E-B", "phone": "+18307742596", "website": "https://www.heb.com/heb-store/US/tx/del-rio/pecan-and-greenwood-h-e-b-88", "opening_hours": "Mo-Su 07:00-22:00", "brand": "H-E-B", "brand:wikidata": "Q830621"}, "geometry": {"type": "Point", "coordinates": [-100.89729, 29.35805]}},
{"type": "Feature", "id": "2FR4a9kcBf0shBtRRkUEZJf1a-A=", "properties": {"ref": "oak-hill-h-e-b-765", "@spider": "heb", "addr:full": "7901 US-290", "addr:city": "AUSTIN", "addr:state": "TX", "addr:postcode": "78736-8300", "addr:country": "USA", "name": "Oak Hill H-E-B", "phone": "+15122885440", "website": "https://www.heb.com/heb-store/US/tx/austin/oak-hill-h-e-b-765", "opening_hours": "Mo-Su 06:00-23:00", "brand": "H-E-B", "brand:wikidata": "Q830621"}, "geometry": {"type": "Point", "coordinates": [-97.88755, 30.22696]}},
{"type": "Feature", "id": "8iqyFlHZ__NOflPpXdySfqyCKRU=", "properties": {"ref": "harper-s-trace-h-e-b-757", "@spider": "heb", "addr:full": "10200 HIGHWAY 242", "addr:city": "CONROE", "addr:state": "TX", "addr:postcode": "77385", "addr:country": "USA", "name": "Harper's Trace H-E-B", "phone": "+19362661100", "website": "https://www.heb.com/heb-store/US/tx/conroe/harper-s-trace-h-e-b-757", "opening_hours": "Mo-Su 06:00-23:00", "brand": "H-E-B", "brand:wikidata": "Q830621"}, "geometry": {"type": "Point", "coordinates": [-95.42563, 30.20692]}},
{"type": "Feature", "id": "P7iCIDz0xGfkoLjXRT80wRFe0jE=", "properties": {"ref": "macgregor-market-h-e-b-756", "@spider": "heb", "addr:full": "6055 SOUTH FREEWAY", "addr:city": "HOUSTON", "addr:state": "TX", "addr:postcode": "77004", "addr:country": "USA", "name": "MacGregor Market H-E-B", "phone": "+17132852600", "website": "https://www.heb.com/heb-store/US/tx/houston/macgregor-market-h-e-b-756", "opening_hours": "Mo-Su 06:00-23:00", "brand": "H-E-B", "brand:wikidata": "Q830621"}, "geometry": {"type": "Point", "coordinates": [-95.37644, 29.71432]}},
{"type": "Feature", "id": "c8g8O5d9mXLZ9T8yNbbLgrn9Gcw=", "properties": {"ref": "h-e-b-market-at-northpark-759", "@spider": "heb", "addr:full": "19529 NORTHPARK DR.", "addr:city": "KINGWOOD", "addr:state": "TX", "addr:postcode": "77339", "addr:country": "USA", "name": "H-E-B Market at Northpark", "phone": "+12813128889", "website": "https://www.heb.com/heb-store/US/tx/kingwood/h-e-b-market-at-northpark-759", "opening_hours": "Mo-Su 06:00-23:00", "brand": "H-E-B", "brand:wikidata": "Q830621"}, "geometry": {"type": "Point", "coordinates": [-95.25033, 30.06864]}},
{"type": "Feature", "id": "mVu4xhXTJhfS2ek_j1VTIJt344k=", "properties": {"ref": "spring-green-market-h-e-b-749", "@spider": "heb", "addr:full": "9211 FM 723 RD", "addr:city": "RICHMOND", "addr:state": "TX", "addr:postcode": "77406", "addr:country": "USA", "name": "Spring Green Market H-E-B", "phone": "+13462393500", "website": "https://www.heb.com/heb-store/US/tx/richmond/spring-green-market-h-e-b-749", "opening_hours": "Mo-Su 06:00-23:00", "brand": "H-E-B", "brand:wikidata": "Q830621"}, "geometry": {"type": "Point", "coordinates": [-95.81427, 29.69558]}},
{"type": "Feature", "id": "vfwa4CnLmBm6ddfGY5bXV7o4iZo=", "properties": {"ref": "hudson-oaks-h-e-b-752", "@spider": "heb", "addr:full": "100 HUDSON OAKS DR", "addr:city": "HUDSON OAKS", "addr:state": "TX", "addr:postcode": "76087", "addr:country": "USA", "name": "Hudson Oaks H-E-B", "phone": "+18175991299", "website": "https://www.heb.com/heb-store/US/tx/hudson-oaks/hudson-oaks-h-e-b-752", "opening_hours": "Mo-Su 06:00-23:00", "brand": "H-E-B", "brand:wikidata": "Q830621"}, "geometry": {"type": "Point", "coordinates": [-97.69733, 32.75831]}},
{"type": "Feature", "id": "_skL4mR1hJfWfQW6d54sBYDu-zc=", "properties": {"ref": "h-e-b-market-at-gosling-748", "@spider": "heb", "addr:full": "5251 FM 2920", "addr:city": "SPRING", "addr:state": "TX", "addr:postcode": "77388", "addr:country": "USA", "name": "H-E-B Market at Gosling", "phone": "+12813236400", "website": "https://www.heb.com/heb-store/US/tx/spring/h-e-b-market-at-gosling-748", "opening_hours": "Mo-Su 06:00-23:00", "brand": "H-E-B", "brand:wikidata": "Q830621"}, "geometry": {"type": "Point", "coordinates": [-95.50178, 30.07179]}},
{"type": "Feature", "id": "rU7W1hp65H1Do6Ol2DSGjbbBTAI=", "properties": {"ref": "jones-crossing-h-e-b-746", "@spider": "heb", "addr:full": "11675 FM 2154", "addr:city": "COLLEGE STATION", "addr:state": "TX", "addr:postcode": "77845-4737", "addr:country": "USA", "name": "Jones Crossing H-E-B", "phone": "+19796803200", "website": "https://www.heb.com/heb-store/US/tx/college-station/jones-crossing-h-e-b-746", "opening_hours": "Mo-Su 06:00-00:00", "brand": "H-E-B", "brand:wikidata": "Q830621"}, "geometry": {"type": "Point", "coordinates": [-96.32324, 30.58444]}},
{"type": "Feature", "id": "6wcTMcmsfZrJnZQPHM6F2F9T9oo=", "properties": {"ref": "mont-belvieu-h-e-b-741", "@spider": "heb", "addr:full": "13401 I-10 EAST", "addr:city": "MONT BELVIEU", "addr:state": "TX", "addr:postcode": "77523", "addr:country": "USA", "name": "Mont Belvieu H-E-B", "phone": "+12815763500", "website": "https://www.heb.com/heb-store/US/tx/mont-belvieu/mont-belvieu-h-e-b-741", "opening_hours": "Mo-Su 04:00-23:00", "brand": "H-E-B", "brand:wikidata": "Q830621"}, "geometry": {"type": "Point", "coordinates": [-94.84973, 29.82755]}},
{"type": "Feature", "id": "Wmqm3iL5CpnYOFqm7VcnA9twj20=", "properties": {"ref": "baytown-h-e-b-742", "@spider": "heb", "addr:full": "6430 GARTH ROAD", "addr:city": "BAYTOWN", "addr:state": "TX", "addr:postcode": "77521-9638", "addr:country": "USA", "name": "Baytown H-E-B", "phone": "+12814215300", "website": "https://www.heb.com/heb-store/US/tx/baytown/baytown-h-e-b-742", "opening_hours": "Mo-Su 06:00-23:00", "brand": "H-E-B", "brand:wikidata": "Q830621"}, "geometry": {"type": "Point", "coordinates": [-94.9788, 29.79503]}},
{"type": "Feature", "id": "EtIld49sqQPciP-Is4cUJt-iYxw=", "properties": {"ref": "buffalo-heights-h-e-b-on-washington-ave-744", "@spider": "heb", "addr:full": "3663 WASHINGTON AVE. STE. 100", "addr:city": "HOUSTON", "addr:state": "TX", "addr:postcode": "77007", "addr:country": "USA", "name": "Buffalo Heights H-E-B On Washington Ave", "phone": "+18326733100", "website": "https://www.heb.com/heb-store/US/tx/houston/buffalo-heights-h-e-b-on-washington-ave-744", "opening_hours": "Mo-Su 06:00-23:00", "brand": "H-E-B", "brand:wikidata": "Q830621"}, "geometry": {"type": "Point", "coordinates": [-95.39658, 29.76901]}},
{"type": "Feature", "id": "yi86KMEbdqV8EQtFoRVVCWXfxCQ=", "properties": {"ref": "bellaire-market-h-e-b-738", "@spider": "heb", "addr:full": "5106 BISSONNET", "addr:city": "BELLAIRE", "addr:state": "TX", "addr:postcode": "77401-4019", "addr:country": "USA", "name": "Bellaire Market H-E-B", "phone": "+17132181600", "website": "https://www.heb.com/heb-store/US/tx/bellaire/bellaire-market-h-e-b-738", "opening_hours": "Mo-Su 06:00-23:00", "brand": "H-E-B", "brand:wikidata": "Q830621"}, "geometry": {"type": "Point", "coordinates": [-95.46938, 29.70764]}},
{"type": "Feature", "id": "E0nbYpuH6YOaZa2vFpaayzt4Yso=", "properties": {"ref": "meyerland-market-h-e-b-745", "@spider": "heb", "addr:full": "4955 BEECHNUT STREET", "addr:city": "HOUSTON", "addr:state": "TX", "addr:postcode": "77096-4001", "addr:country": "USA", "name": "Meyerland Market H-E-B", "phone": "+17136624000", "website": "https://www.heb.com/heb-store/US/tx/houston/meyerland-market-h-e-b-745", "opening_hours": "Mo-Su 06:00-23:00", "brand": "H-E-B", "brand:wikidata": "Q830621"}, "geometry": {"type": "Point", "coordinates": [-95.46406, 29.68854]}},
{"type": "Feature", "id": "F1o9HgKO_lLLaVqN5v3vV3H04_8=", "properties": {"ref": "new-braunfels-h-e-b-at-hwy-46-74", "@spider": "heb", "addr:full": "1655 W STATE HIGHWAY 46", "addr:city": "NEW BRAUNFELS", "addr:state": "TX", "addr:postcode": "78130-4753", "addr:country": "USA", "name": "New Braunfels H-E-B at Hwy 46", "phone": "+18306260937", "website": "https://www.heb.com/heb-store/US/tx/new-braunfels/new-braunfels-h-e-b-at-hwy-46-74", "opening_hours": "Mo-Su 06:00-23:00", "brand": "H-E-B", "brand:wikidata": "Q830621"}, "geometry": {"type": "Point", "coordinates": [-98.16041, 29.71309]}},
{"type": "Feature", "id": "DNJczeABMG3Es4TdJE3DEYyfiEE=", "properties": {"ref": "marble-falls-h-e-b-735", "@spider": "heb", "addr:full": "1503 FM 1431", "addr:city": "MARBLE FALLS", "addr:state": "TX", "addr:postcode": "78654-4902", "addr:country": "USA", "name": "Marble Falls H-E-B", "phone": "+18306933561", "website": "https://www.heb.com/heb-store/US/tx/marble-falls/marble-falls-h-e-b-735", "opening_hours": "Mo-Su 06:00-23:00", "brand": "H-E-B", "brand:wikidata": "Q830621"}, "geometry": {"type": "Point", "coordinates": [-98.27972, 30.58301]}},
{"type": "Feature", "id": "TgrLuS3KlJSigOeRD7T_ivcrOwM=", "properties": {"ref": "sherwood-fm-2288-h-e-b-734", "@spider": "heb", "addr:full": "5502 SHERWOOD WAY", "addr:city": "SAN ANGELO", "addr:state": "TX", "addr:postcode": "76901", "addr:country": "USA", "name": "Sherwood & FM 2288 H-E-B", "phone": "+13252233101", "website": "https://www.heb.com/heb-store/US/tx/san-angelo/sherwood-fm-2288-h-e-b-734", "opening_hours": "Mo-Su 06:00-23:00", "brand": "H-E-B", "brand:wikidata": "Q830621"}, "geometry": {"type": "Point", "coordinates": [-100.51103, 31.43158]}},
{"type": "Feature", "id": "bPsOe_q9xoOhB-6eBLdOWYBBc_Q=", "properties": {"ref": "cross-creek-ranch-h-e-b-736", "@spider": "heb", "addr:full": "4950 FM 1463", "addr:city": "KATY", "addr:state": "TX", "addr:postcode": "77494-5426", "addr:country": "USA", "name": "Cross Creek Ranch H-E-B", "phone": "+13463877200", "website": "https://www.heb.com/heb-store/US/tx/katy/cross-creek-ranch-h-e-b-736", "opening_hours": "Mo-Su 06:00-23:00", "brand": "H-E-B", "brand:wikidata": "Q830621"}, "geometry": {"type": "Point", "coordinates": [-95.84788, 29.71936]}},
{"type": "Feature", "id": "VWoay6mBgqcB4Kb9pwBFab1DSU8=", "properties": {"ref": "huntsville-h-e-b-728", "@spider": "heb", "addr:full": "1702 11TH ST.", "addr:city": "HUNTSVILLE", "addr:state": "TX", "addr:postcode": "77340-3723", "addr:country": "USA", "name": "Huntsville H-E-B", "phone": "+19362916994", "website": "https://www.heb.com/heb-store/US/tx/huntsville/huntsville-h-e-b-728", "opening_hours": "Mo-Su 06:00-23:00", "brand": "H-E-B", "brand:wikidata": "Q830621"}, "geometry": {"type": "Point", "coordinates": [-95.56075, 30.72274]}},
{"type": "Feature", "id": "rzTCYmqri0rbPA1QcQk8vcTnJ3c=", "properties": {"ref": "the-heights-h-e-b-737", "@spider": "heb", "addr:full": "2300 N. SHEPHERD DR.", "addr:city": "HOUSTON", "addr:state": "TX", "addr:postcode": "77008", "addr:country": "USA", "name": "The Heights H-E-B", "phone": "+17138028100", "website": "https://www.heb.com/heb-store/US/tx/houston/the-heights-h-e-b-737", "opening_hours": "Mo-Su 06:00-23:00", "brand": "H-E-B", "brand:wikidata": "Q830621"}, "geometry": {"type": "Point", "coordinates": [-95.40865, 29.80735]}},
{"type": "Feature", "id": "hgLAlTh7-XcOqTZ-SspRfezrc20=", "properties": {"ref": "alamo-ranch-h-e-b-733", "@spider": "heb", "addr:full": "12125 ALAMO RANCH PKWY", "addr:city": "SAN ANTONIO", "addr:state": "TX", "addr:postcode": "78253", "addr:country": "USA", "name": "Alamo Ranch H-E-B", "phone": "+12109633102", "website": "https://www.heb.com/heb-store/US/tx/san-antonio/alamo-ranch-h-e-b-733", "opening_hours": "Mo-Su 06:00-23:00", "brand": "H-E-B", "brand:wikidata": "Q830621"}, "geometry": {"type": "Point", "coordinates": [-98.73294, 29.48572]}},
{"type": "Feature", "id": "zwF-BVEPB0F8-aF19z9tLyXpQ9k=", "properties": {"ref": "champion-forest-market-h-e-b-725", "@spider": "heb", "addr:full": "20311 CHAMPION FOREST DRIVE", "addr:city": "SPRING", "addr:state": "TX", "addr:postcode": "77379-8693", "addr:country": "USA", "name": "Champion Forest Market H-E-B", "phone": "+18327175600", "website": "https://www.heb.com/heb-store/US/tx/spring/champion-forest-market-h-e-b-725", "opening_hours": "Mo-Su 06:00-23:00", "brand": "H-E-B", "brand:wikidata": "Q830621"}, "geometry": {"type": "Point", "coordinates": [-95.57475, 30.0551]}},
{"type": "Feature", "id": "xDYd_fIkDXDl2Su76L8BhKhoFYI=", "properties": {"ref": "bulverde-and-1604-h-e-b-732", "@spider": "heb", "addr:full": "17238 BULVERDE ROAD", "addr:city": "SAN ANTONIO", "addr:state": "TX", "addr:postcode": "78247", "addr:country": "USA", "name": "Bulverde and 1604 H-E-B", "phone": "+12106424700", "website": "https://www.heb.com/heb-store/US/tx/san-antonio/bulverde-and-1604-h-e-b-732", "opening_hours": "Mo-Su 06:00-23:00", "brand": "H-E-B", "brand:wikidata": "Q830621"}, "geometry": {"type": "Point", "coordinates": [-98.41746, 29.59497]}},
{"type": "Feature", "id": "m4h6EeIGRovGH13VEjqWTvooIkU=", "properties": {"ref": "aliana-market-h-e-b-724", "@spider": "heb", "addr:full": "10161 W GRAND PARKWAY S", "addr:city": "RICHMOND", "addr:state": "TX", "addr:postcode": "77407-8643", "addr:country": "USA", "name": "Aliana Market H-E-B", "phone": "+12812953300", "website": "https://www.heb.com/heb-store/US/tx/richmond/aliana-market-h-e-b-724", "opening_hours": "Mo-Su 06:00-23:00", "brand": "H-E-B", "brand:wikidata": "Q830621"}, "geometry": {"type": "Point", "coordinates": [-95.7137, 29.6597]}},
{"type": "Feature", "id": "TgIsPBBrWBpPnxnRr5NnTBNBcpA=", "properties": {"ref": "magnolia-market-h-e-b-722", "@spider": "heb", "addr:full": "7988 FM 1488", "addr:city": "MAGNOLIA", "addr:state": "TX", "addr:postcode": "77354-1611", "addr:country": "USA", "name": "Magnolia Market H-E-B", "phone": "+18329343400", "website": "https://www.heb.com/heb-store/US/tx/magnolia/magnolia-market-h-e-b-722", "opening_hours": "Mo-Su 06:00-23:00", "brand": "H-E-B", "brand:wikidata": "Q830621"}, "geometry": {"type": "Point", "coordinates": [-95.5837, 30.2217]}},
{"type": "Feature", "id": "-6eZv260Mi_AIVY_0VJ9vbQvjMc=", "properties": {"ref": "richmond-market-h-e-b-727", "@spider": "heb", "addr:full": "23500 CIRCLE OAK PARKWAY", "addr:city": "RICHMOND", "addr:state": "TX", "addr:postcode": "77469-2509", "addr:country": "USA", "name": "Richmond Market H-E-B", "phone": "+18325955337", "website": "https://www.heb.com/heb-store/US/tx/richmond/richmond-market-h-e-b-727", "opening_hours": "Mo-Su 06:00-23:00", "brand": "H-E-B", "brand:wikidata": "Q830621"}, "geometry": {"type": "Point", "coordinates": [-95.74781, 29.55142]}},
{"type": "Feature", "id": "33Rdie-adrgJBPED0n0m4pPUAdo=", "properties": {"ref": "midland-loop-250-h-e-b-717", "@spider": "heb", "addr:full": "5407 ANDREWS HIGHWAY", "addr:city": "MIDLAND", "addr:state": "TX", "addr:postcode": "79706-2851", "addr:country": "USA", "name": "Midland Loop 250 H-E-B", "phone": "+14326998201", "website": "https://www.heb.com/heb-store/US/tx/midland/midland-loop-250-h-e-b-717", "opening_hours": "Mo-Su 06:00-23:00", "brand": "H-E-B", "brand:wikidata": "Q830621"}, "geometry": {"type": "Point", "coordinates": [-102.15509, 31.99588]}},
{"type": "Feature", "id": "vTPvyclW_EVipzyezo02wbvjWxw=", "properties": {"ref": "south-flores-market-h-e-b-718", "@spider": "heb", "addr:full": "516 S FLORES STREET", "addr:city": "SAN ANTONIO", "addr:state": "TX", "addr:postcode": "78204-1217", "addr:country": "USA", "name": "South Flores Market H-E-B", "phone": "+12104441879", "website": "https://www.heb.com/heb-store/US/tx/san-antonio/south-flores-market-h-e-b-718", "opening_hours": "Mo-Su 07:00-22:00", "brand": "H-E-B", "brand:wikidata": "Q830621"}, "geometry": {"type": "Point", "coordinates": [-98.49651, 29.419]}},
{"type": "Feature", "id": "0ZGbnWf5Dc1KpNqRMU9yyxLJMJk=", "properties": {"ref": "kingwood-market-h-e-b-720", "@spider": "heb", "addr:full": "4517 KINGWOOD DRIVE", "addr:city": "KINGWOOD", "addr:state": "TX", "addr:postcode": "77345-2621", "addr:country": "USA", "name": "Kingwood Market H-E-B", "phone": "+12813610342", "website": "https://www.heb.com/heb-store/US/tx/kingwood/kingwood-market-h-e-b-720", "opening_hours": "Mo-Su 06:00-23:00", "brand": "H-E-B", "brand:wikidata": "Q830621"}, "geometry": {"type": "Point", "coordinates": [-95.18375, 30.05329]}},
{"type": "Feature", "id": "VXJzfNmQSjYSV4bzCSiOlxhGWFY=", "properties": {"ref": "seguin-h-e-b-716", "@spider": "heb", "addr:full": "1340 E COURT ST", "addr:city": "SEGUIN", "addr:state": "TX", "addr:postcode": "78155-5131", "addr:country": "USA", "name": "Seguin H-E-B", "phone": "+18303798384", "website": "https://www.heb.com/heb-store/US/tx/seguin/seguin-h-e-b-716", "opening_hours": "Mo-Su 06:00-23:00", "brand": "H-E-B", "brand:wikidata": "Q830621"}, "geometry": {"type": "Point", "coordinates": [-97.94366, 29.57065]}},
{"type": "Feature", "id": "wvhcLuf2HD745sOon0S3GhDl0UM=", "properties": {"ref": "fort-hood-stan-schlueter-h-e-b-721", "@spider": "heb", "addr:full": "1101 W. STAN SCHLUETER LOOP", "addr:city": "KILLEEN", "addr:state": "TX", "addr:postcode": "76542", "addr:country": "USA", "name": "Fort Hood Stan Schlueter H-E-B", "phone": "+12542263600", "website": "https://www.heb.com/heb-store/US/tx/killeen/fort-hood-stan-schlueter-h-e-b-721", "opening_hours": "Mo-Su 06:00-23:00", "brand": "H-E-B", "brand:wikidata": "Q830621"}, "geometry": {"type": "Point", "coordinates": [-97.75988, 31.07989]}},
{"type": "Feature", "id": "dbwrRnFqFt0AA7gE9-UN6TNoLew=", "properties": {"ref": "lakeway-h-e-b-714", "@spider": "heb", "addr:full": "2000 RANCH ROAD 620 S", "addr:city": "LAKEWAY", "addr:state": "TX", "addr:postcode": "78734-6238", "addr:country": "USA", "name": "Lakeway H-E-B", "phone": "+15125995800", "website": "https://www.heb.com/heb-store/US/tx/lakeway/lakeway-h-e-b-714", "opening_hours": "Mo-Su 06:00-23:00", "brand": "H-E-B", "brand:wikidata": "Q830621"}, "geometry": {"type": "Point", "coordinates": [-97.96662, 30.34368]}},
{"type": "Feature", "id": "rp1pYE84IVABu4RP4C690U2kjts=", "properties": {"ref": "clear-lake-marketplace-h-e-b-713", "@spider": "heb", "addr:full": "3501 CLEAR LAKE CITY BLVD", "addr:city": "HOUSTON", "addr:state": "TX", "addr:postcode": "77059-2511", "addr:country": "USA", "name": "Clear Lake Marketplace H-E-B", "phone": "+12812128800", "website": "https://www.heb.com/heb-store/US/tx/houston/clear-lake-marketplace-h-e-b-713", "opening_hours": "Mo-Su 06:00-23:00", "brand": "H-E-B", "brand:wikidata": "Q830621"}, "geometry": {"type": "Point", "coordinates": [-95.12473, 29.60563]}},
{"type": "Feature", "id": "_WasA4U8YDk9Encux4m137wFVos=", "properties": {"ref": "university-blvd-h-e-b-711", "@spider": "heb", "addr:full": "2501 W UNIVERSITY BLVD", "addr:city": "ODESSA", "addr:state": "TX", "addr:postcode": "79764-7155", "addr:country": "USA", "name": "University Blvd H-E-B", "phone": "+14323688400", "website": "https://www.heb.com/heb-store/US/tx/odessa/university-blvd-h-e-b-711", "opening_hours": "Mo-Su 06:00-23:00", "brand": "H-E-B", "brand:wikidata": "Q830621"}, "geometry": {"type": "Point", "coordinates": [-102.41008, 31.86213]}},
{"type": "Feature", "id": "FWetWyZOmkhS2DQRB-MvxiP9v9M=", "properties": {"ref": "cuero-h-e-b-712", "@spider": "heb", "addr:full": "909 E BROADWAY", "addr:city": "CUERO", "addr:state": "TX", "addr:postcode": "77954-2126", "addr:country": "USA", "name": "Cuero H-E-B", "phone": "+13612756144", "website": "https://www.heb.com/heb-store/US/tx/cuero/cuero-h-e-b-712", "opening_hours": "Mo-Su 06:00-23:00", "brand": "H-E-B", "brand:wikidata": "Q830621"}, "geometry": {"type": "Point", "coordinates": [-97.28051, 29.08949]}},
{"type": "Feature", "id": "_zo9OSZOI9WyT4lH5ifu2doX9KQ=", "properties": {"ref": "deer-park-h-e-b-715", "@spider": "heb", "addr:full": "4701 EAST BLVD", "addr:city": "DEER PARK", "addr:state": "TX", "addr:postcode": "77536-5404", "addr:country": "USA", "name": "Deer Park H-E-B", "phone": "+12819300326", "website": "https://www.heb.com/heb-store/US/tx/deer-park/deer-park-h-e-b-715", "opening_hours": "Mo-Su 06:00-23:00", "brand": "H-E-B", "brand:wikidata": "Q830621"}, "geometry": {"type": "Point", "coordinates": [-95.09805, 29.6652]}},
{"type": "Feature", "id": "pLnMZKrUUd7FTUd-1bkHMPRKrSA=", "properties": {"ref": "adams-and-25th-st-h-e-b-71", "@spider": "heb", "addr:full": "1314 WEST ADAMS", "addr:city": "TEMPLE", "addr:state": "TX", "addr:postcode": "76504-2448", "addr:country": "USA", "name": "Adams and 25th St H-E-B", "phone": "+12547734145", "website": "https://www.heb.com/heb-store/US/tx/temple/adams-and-25th-st-h-e-b-71", "opening_hours": "Mo-Su 06:00-23:00", "brand": "H-E-B", "brand:wikidata": "Q830621"}, "geometry": {"type": "Point", "coordinates": [-97.35378, 31.10153]}},
{"type": "Feature", "id": "HOJKGNRnOSbiQSTjdE4g-ojiNHQ=", "properties": {"ref": "h-e-b-market-at-tuckerton-709", "@spider": "heb", "addr:full": "9722 FRY ROAD", "addr:city": "CYPRESS", "addr:state": "TX", "addr:postcode": "77433-4847", "addr:country": "USA", "name": "H-E-B Market at Tuckerton", "phone": "+12812056200", "website": "https://www.heb.com/heb-store/US/tx/cypress/h-e-b-market-at-tuckerton-709", "opening_hours": "Mo-Su 06:00-23:00", "brand": "H-E-B", "brand:wikidata": "Q830621"}, "geometry": {"type": "Point", "coordinates": [-95.72501, 29.92737]}},
{"type": "Feature", "id": "p_VISxLo2Y07qockSdtJ8pPvTd4=", "properties": {"ref": "spring-creek-market-h-e-b-705", "@spider": "heb", "addr:full": "3540 RAYFORD RD", "addr:city": "SPRING", "addr:state": "TX", "addr:postcode": "77386-4343", "addr:country": "USA", "name": "Spring Creek Market H-E-B", "phone": "+12815282380", "website": "https://www.heb.com/heb-store/US/tx/spring/spring-creek-market-h-e-b-705", "opening_hours": "Mo-Su 06:00-23:00", "brand": "H-E-B", "brand:wikidata": "Q830621"}, "geometry": {"type": "Point", "coordinates": [-95.38801, 30.11036]}},
{"type": "Feature", "id": "ZRu45Ip-c97-wSJ_ZABnat-9Jm4=", "properties": {"ref": "slaughter-and-south-congress-h-e-b-710", "@spider": "heb", "addr:full": "8801 SOUTH CONGRESS AVENUE", "addr:city": "AUSTIN", "addr:state": "TX", "addr:postcode": "78745", "addr:country": "USA", "name": "Slaughter and South Congress H-E-B", "phone": "+17372368348", "website": "https://www.heb.com/heb-store/US/tx/austin/slaughter-and-south-congress-h-e-b-710", "opening_hours": "Mo-Su 06:00-23:00", "brand": "H-E-B", "brand:wikidata": "Q830621"}, "geometry": {"type": "Point", "coordinates": [-97.78723, 30.16862]}},
{"type": "Feature", "id": "WrP4cFmQcSN9aNVn15WoHqz9V-I=", "properties": {"ref": "lake-jackson-h-e-b-707", "@spider": "heb", "addr:full": "97 OYSTER CREEK DRIV", "addr:city": "LAKE JACKSON", "addr:state": "TX", "addr:postcode": "77566-4622", "addr:country": "USA", "name": "Lake Jackson H-E-B", "phone": "+19792971288", "website": "https://www.heb.com/heb-store/US/tx/lake-jackson/lake-jackson-h-e-b-707", "opening_hours": "Mo-Su 06:00-23:00", "brand": "H-E-B", "brand:wikidata": "Q830621"}, "geometry": {"type": "Point", "coordinates": [-95.44554, 29.04151]}},
{"type": "Feature", "id": "9q2x4nBt0kEYcBPBlLYC3QjdiIM=", "properties": {"ref": "h-e-b-pharmacy-at-the-medical-center-hospital-700", "@spider": "heb", "addr:full": "540 W.5TH", "addr:city": "ODESSA", "addr:state": "TX", "addr:postcode": "79761-5034", "addr:country": "USA", "name": "H-E-B Pharmacy at the Medical Center Hospital", "phone": "+14323321623", "website": "https://www.heb.com/heb-store/US/tx/odessa/h-e-b-pharmacy-at-the-medical-center-hospital-700", "opening_hours": "Mo-Fr 08:00-19:30; Sa 09:30-19:30; Su 12:00-19:00", "brand": "H-E-B", "brand:wikidata": "Q830621"}, "geometry": {"type": "Point", "coordinates": [-102.37476, 31.84625]}},
{"type": "Feature", "id": "Yvl19WqdwS9SOi7aG0IvWIVhYuc=", "properties": {"ref": "wimberley-h-e-b-708", "@spider": "heb", "addr:full": "14501 RR12", "addr:city": "WIMBERLEY", "addr:state": "TX", "addr:postcode": "78676-6215", "addr:country": "USA", "name": "Wimberley H-E-B", "phone": "+15128423700", "website": "https://www.heb.com/heb-store/US/tx/wimberley/wimberley-h-e-b-708", "opening_hours": "Mo-Su 06:00-23:00", "brand": "H-E-B", "brand:wikidata": "Q830621"}, "geometry": {"type": "Point", "coordinates": [-98.10174, 30.00144]}},
{"type": "Feature", "id": "fgL4IF6WeVLeA6uNFaXgjGP2SUs=", "properties": {"ref": "south-2nd-street-h-e-b-702", "@spider": "heb", "addr:full": "200 US EXPRESSWAY 83", "addr:city": "MCALLEN", "addr:state": "TX", "addr:postcode": "78501-2951", "addr:country": "USA", "name": "South 2nd Street H-E-B", "phone": "+19566302913", "website": "https://www.heb.com/heb-store/US/tx/mcallen/south-2nd-street-h-e-b-702", "opening_hours": "Mo-Su 06:00-23:00", "brand": "H-E-B", "brand:wikidata": "Q830621"}, "geometry": {"type": "Point", "coordinates": [-98.22546, 26.18953]}},
{"type": "Feature", "id": "2Gl0y5wvgEteK6QhY3G-Oumqpbg=", "properties": {"ref": "nogalitos-h-e-b-699", "@spider": "heb", "addr:full": "1601 NOGALITOS", "addr:city": "SAN ANTONIO", "addr:state": "TX", "addr:postcode": "78204-2427", "addr:country": "USA", "name": "Nogalitos H-E-B", "phone": "+12102122600", "website": "https://www.heb.com/heb-store/US/tx/san-antonio/nogalitos-h-e-b-699", "opening_hours": "Mo-Su 06:00-23:00", "brand": "H-E-B", "brand:wikidata": "Q830621"}, "geometry": {"type": "Point", "coordinates": [-98.51485, 29.39799]}},
{"type": "Feature", "id": "iTi1li5zD-eFCpKHB_N4KORZX6Y=", "properties": {"ref": "league-city-h-e-b-697", "@spider": "heb", "addr:full": "2755 E.LEAGUE CITY PARKWAY", "addr:city": "LEAGUE CITY", "addr:state": "TX", "addr:postcode": "77573-3360", "addr:country": "USA", "name": "League City H-E-B", "phone": "+12813343758", "website": "https://www.heb.com/heb-store/US/tx/league-city/league-city-h-e-b-697", "opening_hours": "Mo-Su 06:00-23:00", "brand": "H-E-B", "brand:wikidata": "Q830621"}, "geometry": {"type": "Point", "coordinates": [-95.04131, 29.50588]}},
{"type": "Feature", "id": "sc81DaBTT7-C3QAlMqwWH6nfmKs=", "properties": {"ref": "abilene-h-e-b-70", "@spider": "heb", "addr:full": "1345 BARROW", "addr:city": "ABILENE", "addr:state": "TX", "addr:postcode": "79605-5171", "addr:country": "USA", "name": "Abilene H-E-B", "phone": "+13256905000", "website": "https://www.heb.com/heb-store/US/tx/abilene/abilene-h-e-b-70", "opening_hours": "Mo-Su 06:00-23:00", "brand": "H-E-B", "brand:wikidata": "Q830621"}, "geometry": {"type": "Point", "coordinates": [-99.75934, 32.43348]}},
{"type": "Feature", "id": "-kv2N-o3jGchhpdaTXi1nJCqs_o=", "properties": {"ref": "grant-and-spring-cypress-h-e-b-698", "@spider": "heb", "addr:full": "14100 SPRING CYPRESS RD", "addr:city": "CYPRESS", "addr:state": "TX", "addr:postcode": "77429-6286", "addr:country": "USA", "name": "Grant and Spring Cypress H-E-B", "phone": "+12813203700", "website": "https://www.heb.com/heb-store/US/tx/cypress/grant-and-spring-cypress-h-e-b-698", "opening_hours": "Mo-Su 06:00-23:00", "brand": "H-E-B", "brand:wikidata": "Q830621"}, "geometry": {"type": "Point", "coordinates": [-95.63698, 30.00365]}},
{"type": "Feature", "id": "BvonPdFlA4WCd439wEjERhQV5Pc=", "properties": {"ref": "kenedy-h-e-b-693", "@spider": "heb", "addr:full": "107 N. SUNSET STRIP", "addr:city": "KENEDY", "addr:state": "TX", "addr:postcode": "78119", "addr:country": "USA", "name": "Kenedy H-E-B", "phone": "+18305833435", "website": "https://www.heb.com/heb-store/US/tx/kenedy/kenedy-h-e-b-693", "opening_hours": "Mo-Su 06:00-23:00", "brand": "H-E-B", "brand:wikidata": "Q830621"}, "geometry": {"type": "Point", "coordinates": [-97.85797, 28.81419]}},
{"type": "Feature", "id": "cnSg2vUd036rU39zd2_Gs97sDKs=", "properties": {"ref": "staples-and-saratoga-h-e-b-plus--69", "@spider": "heb", "addr:full": "5313 SARATOGA", "addr:city": "CORPUS CHRISTI", "addr:state": "TX", "addr:postcode": "78413-2816", "addr:country": "USA", "name": "Staples and Saratoga H-E-B plus!", "phone": "+13619800993", "website": "https://www.heb.com/heb-store/US/tx/corpus-christi/staples-and-saratoga-h-e-b-plus--69", "opening_hours": "Mo-Su 06:00-23:00", "brand": "H-E-B", "brand:wikidata": "Q830621"}, "geometry": {"type": "Point", "coordinates": [-97.38802, 27.68613]}},
{"type": "Feature", "id": "vAwspdVtzumZj-jmEJ6hB1G1q88=", "properties": {"ref": "new-braunfels-h-e-b-plus--694", "@spider": "heb", "addr:full": "2965 IH35 NORTH", "addr:city": "NEW BRAUNFELS", "addr:state": "TX", "addr:postcode": "78130-4678", "addr:country": "USA", "name": "New Braunfels H-E-B plus!", "phone": "+18303125700", "website": "https://www.heb.com/heb-store/US/tx/new-braunfels/new-braunfels-h-e-b-plus--694", "opening_hours": "Mo-Su 06:00-23:00", "brand": "H-E-B", "brand:wikidata": "Q830621"}, "geometry": {"type": "Point", "coordinates": [-98.0782, 29.731]}},
{"type": "Feature", "id": "Kuhvc6SUWN55bmKByry-_nREiMQ=", "properties": {"ref": "san-felipe-h-e-b-687", "@spider": "heb", "addr:full": "5895 SAN FELIPE STREET", "addr:city": "HOUSTON", "addr:state": "TX", "addr:postcode": "77057-3061", "addr:country": "USA", "name": "San Felipe H-E-B", "phone": "+17132788450", "website": "https://www.heb.com/heb-store/US/tx/houston/san-felipe-h-e-b-687", "opening_hours": "Mo-Su 06:00-23:00", "brand": "H-E-B", "brand:wikidata": "Q830621"}, "geometry": {"type": "Point", "coordinates": [-95.48512, 29.74797]}},
{"type": "Feature", "id": "k-HIi9czbPnbgdmHU5dw5POXen0=", "properties": {"ref": "hutto-130-and-gattis-school-h-e-b-plus--696", "@spider": "heb", "addr:full": "5000 GATTIS SCHOOL RD", "addr:city": "HUTTO", "addr:state": "TX", "addr:postcode": "78634-2025", "addr:country": "USA", "name": "Hutto 130 and Gattis School H-E-B plus!", "phone": "+17374840700", "website": "https://www.heb.com/heb-store/US/tx/hutto/hutto-130-and-gattis-school-h-e-b-plus--696", "opening_hours": "Mo-Su 06:00-23:00", "brand": "H-E-B", "brand:wikidata": "Q830621"}, "geometry": {"type": "Point", "coordinates": [-97.58284, 30.50112]}},
{"type": "Feature", "id": "HxRneSZBWPomd-l_NizxpkkxeVQ=", "properties": {"ref": "beaumont-6-h-e-b-692", "@spider": "heb", "addr:full": "3590 COLLEGE ST", "addr:city": "BEAUMONT", "addr:state": "TX", "addr:postcode": "77701", "addr:country": "USA", "name": "Beaumont 6 H-E-B", "phone": "+14099805800", "website": "https://www.heb.com/heb-store/US/tx/beaumont/beaumont-6-h-e-b-692", "opening_hours": "Mo-Su 06:00-23:00", "brand": "H-E-B", "brand:wikidata": "Q830621"}, "geometry": {"type": "Point", "coordinates": [-94.12834, 30.06853]}},
{"type": "Feature", "id": "xuXxGv8hOfD5c2rNM65c8vvQs9U=", "properties": {"ref": "creekside-park-h-e-b-686", "@spider": "heb", "addr:full": "26500 KUYKENDAHL RD", "addr:city": "TOMBALL", "addr:state": "TX", "addr:postcode": "77375-1478", "addr:country": "USA", "name": "Creekside Park H-E-B", "phone": "+12812056500", "website": "https://www.heb.com/heb-store/US/tx/tomball/creekside-park-h-e-b-686", "opening_hours": "Mo-Su 06:00-23:00", "brand": "H-E-B", "brand:wikidata": "Q830621"}, "geometry": {"type": "Point", "coordinates": [-95.55072, 30.14362]}},
{"type": "Feature", "id": "xBpzyoA--3vFKOpCK1-Ldcbvv2c=", "properties": {"ref": "slaughter-and-escarpment-h-e-b-68", "@spider": "heb", "addr:full": "5800 W. SLAUGHTER LANE", "addr:city": "AUSTIN", "addr:state": "TX", "addr:postcode": "78749-6507", "addr:country": "USA", "name": "Slaughter and Escarpment H-E-B", "phone": "+15123019770", "website": "https://www.heb.com/heb-store/US/tx/austin/slaughter-and-escarpment-h-e-b-68", "opening_hours": "Mo-Su 06:00-23:00", "brand": "H-E-B", "brand:wikidata": "Q830621"}, "geometry": {"type": "Point", "coordinates": [-97.87642, 30.20247]}},
{"type": "Feature", "id": "WQ0uPhAiSPm3KHoGagYA5Zac1SA=", "properties": {"ref": "cleburne-h-e-b-679", "@spider": "heb", "addr:full": "600 W HENDERSON", "addr:city": "CLEBURNE", "addr:state": "TX", "addr:postcode": "76033-4830", "addr:country": "USA", "name": "Cleburne H-E-B", "phone": "+18176416203", "website": "https://www.heb.com/heb-store/US/tx/cleburne/cleburne-h-e-b-679", "opening_hours": "Mo-Su 06:00-23:00", "brand": "H-E-B", "brand:wikidata": "Q830621"}, "geometry": {"type": "Point", "coordinates": [-97.39485, 32.3478]}},
{"type": "Feature", "id": "Ty_EpLfufuM9sDHueYav_m_0p0o=", "properties": {"ref": "valley-hi-h-e-b-678", "@spider": "heb", "addr:full": "368 VALLEY HI DRIVE", "addr:city": "SAN ANTONIO", "addr:state": "TX", "addr:postcode": "78227-4602", "addr:country": "USA", "name": "Valley Hi H-E-B", "phone": "+12106743710", "website": "https://www.heb.com/heb-store/US/tx/san-antonio/valley-hi-h-e-b-678", "opening_hours": "Mo-Su 06:00-23:00", "brand": "H-E-B", "brand:wikidata": "Q830621"}, "geometry": {"type": "Point", "coordinates": [-98.64021, 29.38099]}},
{"type": "Feature", "id": "gDeKaNvDw6IiQzB4ElSRI2vZ8TI=", "properties": {"ref": "pearland-market-h-e-b-675", "@spider": "heb", "addr:full": "2710 PEARLAND PARKWAY", "addr:city": "PEARLAND", "addr:state": "TX", "addr:postcode": "77581-5346", "addr:country": "USA", "name": "Pearland Market H-E-B", "phone": "+12814128700", "website": "https://www.heb.com/heb-store/US/tx/pearland/pearland-market-h-e-b-675", "opening_hours": "Mo-Su 06:00-23:00", "brand": "H-E-B", "brand:wikidata": "Q830621"}, "geometry": {"type": "Point", "coordinates": [-95.26499, 29.55812]}},
{"type": "Feature", "id": "24oXqWi17hAjAOl04RtJHYLM6r4=", "properties": {"ref": "palmhurst-h-e-b-674", "@spider": "heb", "addr:full": "120 E. MILE 3 RD", "addr:city": "PALMHURST", "addr:state": "TX", "addr:postcode": "78573-5070", "addr:country": "USA", "name": "Palmhurst H-E-B", "phone": "+19565807407", "website": "https://www.heb.com/heb-store/US/tx/palmhurst/palmhurst-h-e-b-674", "opening_hours": "Mo-Su 06:00-23:00", "brand": "H-E-B", "brand:wikidata": "Q830621"}, "geometry": {"type": "Point", "coordinates": [-98.31816, 26.25684]}},
{"type": "Feature", "id": "Fs4aKz2w9PoPG-jd9hQ0puVSGuI=", "properties": {"ref": "valley-mills-h-e-b-plus--672", "@spider": "heb", "addr:full": "1821 SOUTH VALLEY MILLS DR.", "addr:city": "WACO", "addr:state": "TX", "addr:postcode": "76711-2119", "addr:country": "USA", "name": "Valley Mills H-E-B plus!", "phone": "+12547109400", "website": "https://www.heb.com/heb-store/US/tx/waco/valley-mills-h-e-b-plus--672", "opening_hours": "Mo-Su 06:00-23:00", "brand": "H-E-B", "brand:wikidata": "Q830621"}, "geometry": {"type": "Point", "coordinates": [-97.13916, 31.52508]}},
{"type": "Feature", "id": "MLfdz2ca01JUEhsthz4egC2XiCQ=", "properties": {"ref": "elsa-h-e-b-677", "@spider": "heb", "addr:full": "512 E. EDINBURG AVE.", "addr:city": "ELSA", "addr:state": "TX", "addr:postcode": "78543-9800", "addr:country": "USA", "name": "Elsa H-E-B", "phone": "+19562621501", "website": "https://www.heb.com/heb-store/US/tx/elsa/elsa-h-e-b-677", "opening_hours": "Mo-Su 06:00-23:00", "brand": "H-E-B", "brand:wikidata": "Q830621"}, "geometry": {"type": "Point", "coordinates": [-97.99272, 26.29384]}},
{"type": "Feature", "id": "t_TR4gbpHPH8Ml5Epl5UTTlJkMw=", "properties": {"ref": "carrizo-springs-h-e-b-671", "@spider": "heb", "addr:full": "2030 N. 1ST STREET", "addr:city": "CARRIZO SPRINGS", "addr:state": "TX", "addr:postcode": "78834-2028", "addr:country": "USA", "name": "Carrizo Springs H-E-B", "phone": "+18308763521", "website": "https://www.heb.com/heb-store/US/tx/carrizo-springs/carrizo-springs-h-e-b-671", "opening_hours": "Mo-Su 07:00-23:00", "brand": "H-E-B", "brand:wikidata": "Q830621"}, "geometry": {"type": "Point", "coordinates": [-99.85102, 28.53642]}},
{"type": "Feature", "id": "E7-yd131MUnlQwJug0VtVEtHpP8=", "properties": {"ref": "university-blvd-h-e-b-673", "@spider": "heb", "addr:full": "250 UNIVERSITY BLVD.", "addr:city": "ROUND ROCK", "addr:state": "TX", "addr:postcode": "78665-1044", "addr:country": "USA", "name": "University Blvd H-E-B", "phone": "+15128648000", "website": "https://www.heb.com/heb-store/US/tx/round-rock/university-blvd-h-e-b-673", "opening_hours": "Mo-Su 06:00-23:00", "brand": "H-E-B", "brand:wikidata": "Q830621"}, "geometry": {"type": "Point", "coordinates": [-97.68859, 30.56107]}},
{"type": "Feature", "id": "Pa76HO5jw3PsDK0WmuLrlQyY_J0=", "properties": {"ref": "copperas-cove-h-e-b-plus--668", "@spider": "heb", "addr:full": "2990 EAST HWY 190", "addr:city": "COPPERAS COVE", "addr:state": "TX", "addr:postcode": "76522-2515", "addr:country": "USA", "name": "Copperas Cove H-E-B plus!", "phone": "+12545476333", "website": "https://www.heb.com/heb-store/US/tx/copperas-cove/copperas-cove-h-e-b-plus--668", "opening_hours": "Mo-Su 06:00-23:00", "brand": "H-E-B", "brand:wikidata": "Q830621"}, "geometry": {"type": "Point", "coordinates": [-97.86448, 31.11872]}},
{"type": "Feature", "id": "P5otbAKNFGtHt0zz3OefHgiYjks=", "properties": {"ref": "texas-city-h-e-b-662", "@spider": "heb", "addr:full": "3502 PALMER HIGHWAY", "addr:city": "TEXAS CITY", "addr:state": "TX", "addr:postcode": "77590-6548", "addr:country": "USA", "name": "Texas City H-E-B", "phone": "+14099489500", "website": "https://www.heb.com/heb-store/US/tx/texas-city/texas-city-h-e-b-662", "opening_hours": "Mo-Su 06:00-23:00", "brand": "H-E-B", "brand:wikidata": "Q830621"}, "geometry": {"type": "Point", "coordinates": [-94.94893, 29.39535]}},
{"type": "Feature", "id": "agYE5rysyHR3XMZSmAUXN5byDSw=", "properties": {"ref": "lakeline-h-e-b-plus--659", "@spider": "heb", "addr:full": "14028 NORTH US 183", "addr:city": "AUSTIN", "addr:state": "TX", "addr:postcode": "78717-5992", "addr:country": "USA", "name": "Lakeline H-E-B plus!", "phone": "+15122499012", "website": "https://www.heb.com/heb-store/US/tx/austin/lakeline-h-e-b-plus--659", "opening_hours": "Mo-Su 06:00-23:00", "brand": "H-E-B", "brand:wikidata": "Q830621"}, "geometry": {"type": "Point", "coordinates": [-97.8034, 30.47786]}},
{"type": "Feature", "id": "YKy8tGpLf4owN4RMFxlYfYOn_mc=", "properties": {"ref": "the-market-at-stone-oak-658", "@spider": "heb", "addr:full": "23635 WILDERNESS OAK", "addr:city": "SAN ANTONIO", "addr:state": "TX", "addr:postcode": "78258", "addr:country": "USA", "name": "The Market at Stone Oak", "phone": "+12104823300", "website": "https://www.heb.com/heb-store/US/tx/san-antonio/the-market-at-stone-oak-658", "opening_hours": "Mo-Su 06:00-23:00", "brand": "H-E-B", "brand:wikidata": "Q830621"}, "geometry": {"type": "Point", "coordinates": [-98.50062, 29.662]}},
{"type": "Feature", "id": "murf2pD290mcUJ9h1_t2I0fXTDg=", "properties": {"ref": "jones-and-west-h-e-b-657", "@spider": "heb", "addr:full": "9503 JONES ROAD", "addr:city": "HOUSTON", "addr:state": "TX", "addr:postcode": "77065-4814", "addr:country": "USA", "name": "Jones and West H-E-B", "phone": "+12818945361", "website": "https://www.heb.com/heb-store/US/tx/houston/jones-and-west-h-e-b-657", "opening_hours": "Mo-Su 06:00-23:00", "brand": "H-E-B", "brand:wikidata": "Q830621"}, "geometry": {"type": "Point", "coordinates": [-95.5859, 29.91104]}},
{"type": "Feature", "id": "6aZ2PILpHT1eg_cMpak0ZXmrF7I=", "properties": {"ref": "conroe-market-h-e-b-660", "@spider": "heb", "addr:full": "3875 W.DAVIS ST.", "addr:city": "CONROE", "addr:state": "TX", "addr:postcode": "77304-1837", "addr:country": "USA", "name": "Conroe Market H-E-B", "phone": "+19367606800", "website": "https://www.heb.com/heb-store/US/tx/conroe/conroe-market-h-e-b-660", "opening_hours": "Mo-Su 06:00-23:00", "brand": "H-E-B", "brand:wikidata": "Q830621"}, "geometry": {"type": "Point", "coordinates": [-95.49817, 30.32647]}},
{"type": "Feature", "id": "BIFYmR9S1w5PF_HSQxleuKYQYR0=", "properties": {"ref": "h-e-b-pharmacy-at-the-marc-647", "@spider": "heb", "addr:full": "8300 FLOYD CURL DR.STE 105", "addr:city": "SAN ANTONIO", "addr:state": "TX", "addr:postcode": "78229-3931", "addr:country": "USA", "name": "H-E-B Pharmacy at the MARC", "phone": "+12105930291", "website": "https://www.heb.com/heb-store/US/tx/san-antonio/h-e-b-pharmacy-at-the-marc-647", "opening_hours": "Mo-Fr 08:00-18:00; Sa 09:00-13:00", "brand": "H-E-B", "brand:wikidata": "Q830621"}, "geometry": {"type": "Point", "coordinates": [-98.58335, 29.51552]}},
{"type": "Feature", "id": "CK2hP5NVHjWJSAOpIIKWG6kcqKU=", "properties": {"ref": "fairfield-market-h-e-b-656", "@spider": "heb", "addr:full": "28550 US- 290", "addr:city": "CYPRESS", "addr:state": "TX", "addr:postcode": "77433-4288", "addr:country": "USA", "name": "Fairfield Market H-E-B", "phone": "+12812566339", "website": "https://www.heb.com/heb-store/US/tx/cypress/fairfield-market-h-e-b-656", "opening_hours": "Mo-Su 06:00-23:00", "brand": "H-E-B", "brand:wikidata": "Q830621"}, "geometry": {"type": "Point", "coordinates": [-95.74599, 29.9925]}},
{"type": "Feature", "id": "SpkMUMWqql6nMVvy6W-YN_0pDvs=", "properties": {"ref": "kostoryz-and-gollihar-h-e-b-643", "@spider": "heb", "addr:full": "4444 KOSTORYZ", "addr:city": "CORPUS CHRISTI", "addr:state": "TX", "addr:postcode": "78415-5021", "addr:country": "USA", "name": "Kostoryz and Gollihar H-E-B", "phone": "+13618539831", "website": "https://www.heb.com/heb-store/US/tx/corpus-christi/kostoryz-and-gollihar-h-e-b-643", "opening_hours": "Mo-Su 06:00-23:00", "brand": "H-E-B", "brand:wikidata": "Q830621"}, "geometry": {"type": "Point", "coordinates": [-97.40516, 27.73917]}},
{"type": "Feature", "id": "_LAlrpbOv27KiGREGgAwERUekyU=", "properties": {"ref": "hwy-21-and-n-texas-ave-h-e-b-644", "@spider": "heb", "addr:full": "1609 NORTH TEXAS AVENUE", "addr:city": "BRYAN", "addr:state": "TX", "addr:postcode": "77803-1828", "addr:country": "USA", "name": "Hwy 21 and N Texas Ave H-E-B", "phone": "+19797781077", "website": "https://www.heb.com/heb-store/US/tx/bryan/hwy-21-and-n-texas-ave-h-e-b-644", "opening_hours": "Mo-Su 06:00-23:00", "brand": "H-E-B", "brand:wikidata": "Q830621"}, "geometry": {"type": "Point", "coordinates": [-96.3717, 30.6901]}},
{"type": "Feature", "id": "cBt3LrZn1iES63GsDXa_DhN2Xt4=", "properties": {"ref": "kerrville-h-e-b-on-sidney-baker-st-655", "@spider": "heb", "addr:full": "313 SIDNEY BAKER SOUTH", "addr:city": "KERRVILLE", "addr:state": "TX", "addr:postcode": "78028-5916", "addr:country": "USA", "name": "Kerrville H-E-B on Sidney Baker St", "phone": "+18308968030", "website": "https://www.heb.com/heb-store/US/tx/kerrville/kerrville-h-e-b-on-sidney-baker-st-655", "opening_hours": "Mo-Su 06:00-23:00", "brand": "H-E-B", "brand:wikidata": "Q830621"}, "geometry": {"type": "Point", "coordinates": [-99.14342, 30.04152]}},
{"type": "Feature", "id": "LzK-cWu8H9d8T4MrtNR9vk8_-9E=", "properties": {"ref": "pharr-h-e-b-plus--642", "@spider": "heb", "addr:full": "1300 SOUTH CAGE BLVD.", "addr:city": "PHARR", "addr:state": "TX", "addr:postcode": "78577-6293", "addr:country": "USA", "name": "Pharr H-E-B plus!", "phone": "+19567816121", "website": "https://www.heb.com/heb-store/US/tx/pharr/pharr-h-e-b-plus--642", "opening_hours": "Mo-Su 06:00-23:00", "brand": "H-E-B", "brand:wikidata": "Q830621"}, "geometry": {"type": "Point", "coordinates": [-98.18706, 26.1803]}},
{"type": "Feature", "id": "XCxBfI5DkWhdQ-9QmI4X9GdG69E=", "properties": {"ref": "gonzales-h-e-b-641", "@spider": "heb", "addr:full": "1841 CHURCH ST.", "addr:city": "GONZALES", "addr:state": "TX", "addr:postcode": "78629-2406", "addr:country": "USA", "name": "Gonzales H-E-B", "phone": "+18306727595", "website": "https://www.heb.com/heb-store/US/tx/gonzales/gonzales-h-e-b-641", "opening_hours": "Mo-Su 06:00-22:00", "brand": "H-E-B", "brand:wikidata": "Q830621"}, "geometry": {"type": "Point", "coordinates": [-97.45202, 29.51832]}},
{"type": "Feature", "id": "V1XaIjhyfc1ehFB-TMsP5pSKt88=", "properties": {"ref": "mueller-h-e-b-639", "@spider": "heb", "addr:full": "1801 E.51ST STREET", "addr:city": "AUSTIN", "addr:state": "TX", "addr:postcode": "78723-3014", "addr:country": "USA", "name": "Mueller H-E-B", "phone": "+15124742199", "website": "https://www.heb.com/heb-store/US/tx/austin/mueller-h-e-b-639", "opening_hours": "Mo-Su 06:00-23:00", "brand": "H-E-B", "brand:wikidata": "Q830621"}, "geometry": {"type": "Point", "coordinates": [-97.69872, 30.3013]}},
{"type": "Feature", "id": "UKEWdBY9fL-_K2gV8_Rsz_sHudA=", "properties": {"ref": "19th-and-meridian-h-e-b-64", "@spider": "heb", "addr:full": "3801 N 19TH ST.", "addr:city": "WACO", "addr:state": "TX", "addr:postcode": "76708-1675", "addr:country": "USA", "name": "19th and Meridian H-E-B", "phone": "+12547520359", "website": "https://www.heb.com/heb-store/US/tx/waco/19th-and-meridian-h-e-b-64", "opening_hours": "Mo-Su 06:00-23:00", "brand": "H-E-B", "brand:wikidata": "Q830621"}, "geometry": {"type": "Point", "coordinates": [-97.17255, 31.5804]}},
{"type": "Feature", "id": "QB4g88r9KHXnyy6z9vgw0JA8YB4=", "properties": {"ref": "granbury-h-e-b-631", "@spider": "heb", "addr:full": "3804 US HWY 377", "addr:city": "GRANBURY", "addr:state": "TX", "addr:postcode": "76049-7428", "addr:country": "USA", "name": "Granbury H-E-B", "phone": "+18175792500", "website": "https://www.heb.com/heb-store/US/tx/granbury/granbury-h-e-b-631", "opening_hours": "Mo-Su 06:00-23:00", "brand": "H-E-B", "brand:wikidata": "Q830621"}, "geometry": {"type": "Point", "coordinates": [-97.73026, 32.45528]}},
{"type": "Feature", "id": "oI2HFu4vJNp08CvYz1lvUAyuvp4=", "properties": {"ref": "montrose-market-h-e-b-630", "@spider": "heb", "addr:full": "1701 WEST ALABAMA ST", "addr:city": "HOUSTON", "addr:state": "TX", "addr:postcode": "77098-2807", "addr:country": "USA", "name": "Montrose Market H-E-B", "phone": "+17135292475", "website": "https://www.heb.com/heb-store/US/tx/houston/montrose-market-h-e-b-630", "opening_hours": "Mo-Su 06:00-23:00", "brand": "H-E-B", "brand:wikidata": "Q830621"}, "geometry": {"type": "Point", "coordinates": [-95.40284, 29.7379]}},
{"type": "Feature", "id": "WoxjWzDnmqLeuF5ASbBnOLH0bl0=", "properties": {"ref": "san-benito-h-e-b-626", "@spider": "heb", "addr:full": "1095 WEST BUSINESS 77", "addr:city": "SAN BENITO", "addr:state": "TX", "addr:postcode": "78586-4395", "addr:country": "USA", "name": "San Benito H-E-B", "phone": "+19563990241", "website": "https://www.heb.com/heb-store/US/tx/san-benito/san-benito-h-e-b-626", "opening_hours": "Mo-Su 06:00-23:00", "brand": "H-E-B", "brand:wikidata": "Q830621"}, "geometry": {"type": "Point", "coordinates": [-97.63395, 26.14392]}},
{"type": "Feature", "id": "4vJgTc8Lt5rrM6mlgkMcj_zDBo8=", "properties": {"ref": "pearland-h-e-b-plus--63", "@spider": "heb", "addr:full": "2805 BUSINESS CENTER DRIVE", "addr:city": "PEARLAND", "addr:state": "TX", "addr:postcode": "77584-2191", "addr:country": "USA", "name": "Pearland H-E-B plus!", "phone": "+17135786100", "website": "https://www.heb.com/heb-store/US/tx/pearland/pearland-h-e-b-plus--63", "opening_hours": "Mo-Su 06:00-23:00", "brand": "H-E-B", "brand:wikidata": "Q830621"}, "geometry": {"type": "Point", "coordinates": [-95.39002, 29.55932]}},
{"type": "Feature", "id": "XaXjrWyNq-wjuFCKjQLl3NrQmig=", "properties": {"ref": "boerne-h-e-b-plus--621", "@spider": "heb", "addr:full": "420 WEST BANDERA ROAD", "addr:city": "BOERNE", "addr:state": "TX", "addr:postcode": "78006-2523", "addr:country": "USA", "name": "Boerne H-E-B plus!", "phone": "+18308162394", "website": "https://www.heb.com/heb-store/US/tx/boerne/boerne-h-e-b-plus--621", "opening_hours": "Mo-Su 06:00-23:00", "brand": "H-E-B", "brand:wikidata": "Q830621"}, "geometry": {"type": "Point", "coordinates": [-98.73481, 29.78173]}},
{"type": "Feature", "id": "1sQUBJkpLSWnJPQ2TOPdsCPBCWQ=", "properties": {"ref": "bulverde-h-e-b-plus--622", "@spider": "heb", "addr:full": "20725 HWY 46 WEST", "addr:city": "SPRING BRANCH", "addr:state": "TX", "addr:postcode": "78070-6270", "addr:country": "USA", "name": "Bulverde H-E-B plus!", "phone": "+18304383000", "website": "https://www.heb.com/heb-store/US/tx/spring-branch/bulverde-h-e-b-plus--622", "opening_hours": "Mo-Su 06:00-23:00", "brand": "H-E-B", "brand:wikidata": "Q830621"}, "geometry": {"type": "Point", "coordinates": [-98.43022, 29.79882]}},
{"type": "Feature", "id": "_4niLq4mVrisaTmtUhHeKz0yz8Q=", "properties": {"ref": "sugar-land-market-h-e-b-627", "@spider": "heb", "addr:full": "530 HWY 6", "addr:city": "SUGAR LAND", "addr:state": "TX", "addr:postcode": "77478-4947", "addr:country": "USA", "name": "Sugar Land Market H-E-B", "phone": "+12814943690", "website": "https://www.heb.com/heb-store/US/tx/sugar-land/sugar-land-market-h-e-b-627", "opening_hours": "Mo-Su 06:00-23:00", "brand": "H-E-B", "brand:wikidata": "Q830621"}, "geometry": {"type": "Point", "coordinates": [-95.64596, 29.60871]}},
{"type": "Feature", "id": "AsLnw0HhhBDiawyD5GFwWeiKIRI=", "properties": {"ref": "north-woodlands-market-h-e-b-638", "@spider": "heb", "addr:full": "3601 FM 1488", "addr:city": "THE WOODLANDS", "addr:state": "TX", "addr:postcode": "77384-3943", "addr:country": "USA", "name": "North Woodlands Market H-E-B", "phone": "+19362712730", "website": "https://www.heb.com/heb-store/US/tx/the-woodlands/north-woodlands-market-h-e-b-638", "opening_hours": "Mo-Su 06:00-23:00", "brand": "H-E-B", "brand:wikidata": "Q830621"}, "geometry": {"type": "Point", "coordinates": [-95.51296, 30.22918]}},
{"type": "Feature", "id": "KZMLvy-NUYu016blH02CDMH3wuE=", "properties": {"ref": "bandera-and-1604-h-e-b-plus--623", "@spider": "heb", "addr:full": "9238 N.LOOP 1604 WEST", "addr:city": "SAN ANTONIO", "addr:state": "TX", "addr:postcode": "78249-2577", "addr:country": "USA", "name": "Bandera and 1604 H-E-B plus!", "phone": "+12106820165", "website": "https://www.heb.com/heb-store/US/tx/san-antonio/bandera-and-1604-h-e-b-plus--623", "opening_hours": "Mo-Su 06:00-23:00", "brand": "H-E-B", "brand:wikidata": "Q830621"}, "geometry": {"type": "Point", "coordinates": [-98.66444, 29.55498]}},
{"type": "Feature", "id": "zer3yWqRm9oiFp6MblQmN1ST_ZI=", "properties": {"ref": "lufkin-h-e-b-617", "@spider": "heb", "addr:full": "111 NORTH TIMBERLAND DRIVE", "addr:city": "LUFKIN", "addr:state": "TX", "addr:postcode": "75901-453", "addr:country": "USA", "name": "Lufkin H-E-B", "phone": "+19366391358", "website": "https://www.heb.com/heb-store/US/tx/lufkin/lufkin-h-e-b-617", "opening_hours": "Mo-Su 06:00-23:00", "brand": "H-E-B", "brand:wikidata": "Q830621"}, "geometry": {"type": "Point", "coordinates": [-94.71807, 31.3371]}},
{"type": "Feature", "id": "wtybBomLcC8TDcqsX59a5lLSvxE=", "properties": {"ref": "pearsall-h-e-b-620", "@spider": "heb", "addr:full": "225 SOUTH IH 35", "addr:city": "PEARSALL", "addr:state": "TX", "addr:postcode": "78061-6630", "addr:country": "USA", "name": "Pearsall H-E-B", "phone": "+18303343374", "website": "https://www.heb.com/heb-store/US/tx/pearsall/pearsall-h-e-b-620", "opening_hours": "Mo-Su 06:00-23:00", "brand": "H-E-B", "brand:wikidata": "Q830621"}, "geometry": {"type": "Point", "coordinates": [-99.11446, 28.89503]}},
{"type": "Feature", "id": "f6J-4EdcbgQkgnrw6R4_AOfQHGU=", "properties": {"ref": "tower-point-market-h-e-b-619", "@spider": "heb", "addr:full": "949 WILLIAM D.FITCH PARKWAY", "addr:city": "COLLEGE STATION", "addr:state": "TX", "addr:postcode": "77845-4638", "addr:country": "USA", "name": "Tower Point Market H-E-B", "phone": "+19796904940", "website": "https://www.heb.com/heb-store/US/tx/college-station/tower-point-market-h-e-b-619", "opening_hours": "Mo-Su 06:00-23:00", "brand": "H-E-B", "brand:wikidata": "Q830621"}, "geometry": {"type": "Point", "coordinates": [-96.26315, 30.55969]}},
{"type": "Feature", "id": "POOSglC7So334IcKOSLPs87ZUC4=", "properties": {"ref": "babcock-h-e-b-618", "@spider": "heb", "addr:full": "5910 BABCOCK RD", "addr:city": "SAN ANTONIO", "addr:state": "TX", "addr:postcode": "78240-2136", "addr:country": "USA", "name": "Babcock H-E-B", "phone": "+12106416403", "website": "https://www.heb.com/heb-store/US/tx/san-antonio/babcock-h-e-b-618", "opening_hours": "Mo-Su 06:00-23:00", "brand": "H-E-B", "brand:wikidata": "Q830621"}, "geometry": {"type": "Point", "coordinates": [-98.60198, 29.5271]}},
{"type": "Feature", "id": "amfIcXuPmFVZwDtiT9IuPXHHgjQ=", "properties": {"ref": "summerwood-market-h-e-b-614", "@spider": "heb", "addr:full": "12680 W.LAKE HOUSTON PKWY", "addr:city": "HOUSTON", "addr:state": "TX", "addr:postcode": "77044-6087", "addr:country": "USA", "name": "Summerwood Market H-E-B", "phone": "+12814360987", "website": "https://www.heb.com/heb-store/US/tx/houston/summerwood-market-h-e-b-614", "opening_hours": "Mo-Su 06:00-23:00", "brand": "H-E-B", "brand:wikidata": "Q830621"}, "geometry": {"type": "Point", "coordinates": [-95.19697, 29.92325]}},
{"type": "Feature", "id": "keG3uJXQjiryM61xoHi6Nhf-igI=", "properties": {"ref": "marbach-and-410-h-e-b-plus--613", "@spider": "heb", "addr:full": "8219 MARBACH", "addr:city": "SAN ANTONIO", "addr:state": "TX", "addr:postcode": "78227-1652", "addr:country": "USA", "name": "Marbach and 410 H-E-B plus!", "phone": "+12106734900", "website": "https://www.heb.com/heb-store/US/tx/san-antonio/marbach-and-410-h-e-b-plus--613", "opening_hours": "Mo-Su 06:00-23:00", "brand": "H-E-B", "brand:wikidata": "Q830621"}, "geometry": {"type": "Point", "coordinates": [-98.65227, 29.41837]}},
{"type": "Feature", "id": "JdQNw9eqV_WlI1ygwJ0XAkB-_jM=", "properties": {"ref": "katy-market-h-e-b-615", "@spider": "heb", "addr:full": "25675 NELSON WAY", "addr:city": "KATY", "addr:state": "TX", "addr:postcode": "77494-5904", "addr:country": "USA", "name": "Katy Market H-E-B", "phone": "+12815741800", "website": "https://www.heb.com/heb-store/US/tx/katy/katy-market-h-e-b-615", "opening_hours": "Mo-Su 06:00-23:00", "brand": "H-E-B", "brand:wikidata": "Q830621"}, "geometry": {"type": "Point", "coordinates": [-95.82005, 29.77644]}},
{"type": "Feature", "id": "Xk7XA8TTIC3v34VfzXTEefTaiVk=", "properties": {"ref": "dripping-springs-h-e-b-611", "@spider": "heb", "addr:full": "598 E.HWY US 290", "addr:city": "DRIPPING SPRINGS", "addr:state": "TX", "addr:postcode": "78620-5482", "addr:country": "USA", "name": "Dripping Springs H-E-B", "phone": "+15128582972", "website": "https://www.heb.com/heb-store/US/tx/dripping-springs/dripping-springs-h-e-b-611", "opening_hours": "Mo-Su 06:00-23:00", "brand": "H-E-B", "brand:wikidata": "Q830621"}, "geometry": {"type": "Point", "coordinates": [-98.08146, 30.18968]}},
{"type": "Feature", "id": "tABvbeLv0g61jsHhcw6edU2VQjI=", "properties": {"ref": "la-vernia-h-e-b-612", "@spider": "heb", "addr:full": "14414 US HWY 87 WEST", "addr:city": "LA VERNIA", "addr:state": "TX", "addr:postcode": "78121-5922", "addr:country": "USA", "name": "La Vernia H-E-B", "phone": "+18307791790", "website": "https://www.heb.com/heb-store/US/tx/la-vernia/la-vernia-h-e-b-612", "opening_hours": "Mo-Su 06:00-23:00", "brand": "H-E-B", "brand:wikidata": "Q830621"}, "geometry": {"type": "Point", "coordinates": [-98.13514, 29.35803]}},
{"type": "Feature", "id": "1udCuOw3mLPBV2dMczcDb69jiX0=", "properties": {"ref": "grand-parkway-h-e-b-plus--596", "@spider": "heb", "addr:full": "6711 SOUTH FRY ROAD", "addr:city": "KATY", "addr:state": "TX", "addr:postcode": "77494-8100", "addr:country": "USA", "name": "Grand Parkway H-E-B plus!", "phone": "+12813929500", "website": "https://www.heb.com/heb-store/US/tx/katy/grand-parkway-h-e-b-plus--596", "opening_hours": "Mo-Su 06:00-23:00", "brand": "H-E-B", "brand:wikidata": "Q830621"}, "geometry": {"type": "Point", "coordinates": [-95.7739, 29.7144]}},
{"type": "Feature", "id": "dH2Z_Y_rW9PvBI3K9YrsI1VS4OM=", "properties": {"ref": "buffalo-market-h-e-b-on-buffalo-speedway-599", "@spider": "heb", "addr:full": "5225 BUFFALO SPEEDWAY", "addr:city": "HOUSTON", "addr:state": "TX", "addr:postcode": "77005-4210", "addr:country": "USA", "name": "Buffalo Market H-E-B On Buffalo Speedway", "phone": "+17132181800", "website": "https://www.heb.com/heb-store/US/tx/houston/buffalo-market-h-e-b-on-buffalo-speedway-599", "opening_hours": "Mo-Su 06:00-23:00", "brand": "H-E-B", "brand:wikidata": "Q830621"}, "geometry": {"type": "Point", "coordinates": [-95.4271, 29.7261]}},
{"type": "Feature", "id": "iFP-ym1bTABZ_TJgr-9AYGiQNXY=", "properties": {"ref": "spring-market-h-e-b-610", "@spider": "heb", "addr:full": "2121 FM 2920", "addr:city": "SPRING", "addr:state": "TX", "addr:postcode": "77388-3412", "addr:country": "USA", "name": "Spring Market H-E-B", "phone": "+12819077900", "website": "https://www.heb.com/heb-store/US/tx/spring/spring-market-h-e-b-610", "opening_hours": "Mo-Su 06:00-23:00", "brand": "H-E-B", "brand:wikidata": "Q830621"}, "geometry": {"type": "Point", "coordinates": [-95.44894, 30.07042]}},
{"type": "Feature", "id": "8bzFw2PU26rJwRkEgD7Gvu2LFHs=", "properties": {"ref": "stephenville-h-e-b-6", "@spider": "heb", "addr:full": "2150 W. WASHINGTON", "addr:city": "STEPHENVILLE", "addr:state": "TX", "addr:postcode": "76401-3928", "addr:country": "USA", "name": "Stephenville H-E-B", "phone": "+12549657063", "website": "https://www.heb.com/heb-store/US/tx/stephenville/stephenville-h-e-b-6", "opening_hours": "Mo-Su 06:00-23:00", "brand": "H-E-B", "brand:wikidata": "Q830621"}, "geometry": {"type": "Point", "coordinates": [-98.22569, 32.20975]}},
{"type": "Feature", "id": "XcbVphIuI3wG9_1cHSG8YNe5HwU=", "properties": {"ref": "n-frazier-at-loop-336-h-e-b-595", "@spider": "heb", "addr:full": "2108 NORTH FRAZIER", "addr:city": "CONROE", "addr:state": "TX", "addr:postcode": "77301-1220", "addr:country": "USA", "name": "N Frazier At Loop 336 H-E-B", "phone": "+19367561430", "website": "https://www.heb.com/heb-store/US/tx/conroe/n-frazier-at-loop-336-h-e-b-595", "opening_hours": "Mo-Su 06:00-23:00", "brand": "H-E-B", "brand:wikidata": "Q830621"}, "geometry": {"type": "Point", "coordinates": [-95.46548, 30.33593]}},
{"type": "Feature", "id": "5crcWFE3S-TnIbG0SxHDYE3fYX8=", "properties": {"ref": "indian-springs-h-e-b-594", "@spider": "heb", "addr:full": "10777 KUYKENDAHL ROAD", "addr:city": "THE WOODLANDS", "addr:state": "TX", "addr:postcode": "77382-2772", "addr:country": "USA", "name": "Indian Springs H-E-B", "phone": "+12812928006", "website": "https://www.heb.com/heb-store/US/tx/the-woodlands/indian-springs-h-e-b-594", "opening_hours": "Mo-Su 06:00-23:00", "brand": "H-E-B", "brand:wikidata": "Q830621"}, "geometry": {"type": "Point", "coordinates": [-95.53672, 30.17791]}},
{"type": "Feature", "id": "TsfYHbpUeEyJ42EDlBuIRwPu8tQ=", "properties": {"ref": "taylor-h-e-b-593", "@spider": "heb", "addr:full": "100 N.W.CARLOS G.PARKER BL#101", "addr:city": "TAYLOR", "addr:state": "TX", "addr:postcode": "76574-7059", "addr:country": "USA", "name": "Taylor H-E-B", "phone": "+15123522015", "website": "https://www.heb.com/heb-store/US/tx/taylor/taylor-h-e-b-593", "opening_hours": "Mo-Su 06:00-23:00", "brand": "H-E-B", "brand:wikidata": "Q830621"}, "geometry": {"type": "Point", "coordinates": [-97.4167, 30.6007]}},
{"type": "Feature", "id": "GHGOeDJBvtPtroM6_-Cmq-o5NtI=", "properties": {"ref": "10th-and-trenton-h-e-b-590", "@spider": "heb", "addr:full": "901 TRENTON RD", "addr:city": "MCALLEN", "addr:state": "TX", "addr:postcode": "78504-7705", "addr:country": "USA", "name": "10th and Trenton H-E-B", "phone": "+19566180073", "website": "https://www.heb.com/heb-store/US/tx/mcallen/10th-and-trenton-h-e-b-590", "opening_hours": "Mo-Su 06:00-23:00", "brand": "H-E-B", "brand:wikidata": "Q830621"}, "geometry": {"type": "Point", "coordinates": [-98.2188, 26.2678]}},
{"type": "Feature", "id": "_phg2_ssTA43oZPKAp6oQUFUQwQ=", "properties": {"ref": "leander-h-e-b-plus--592", "@spider": "heb", "addr:full": "651 N. US HWY 183", "addr:city": "LEANDER", "addr:state": "TX", "addr:postcode": "78641-7001", "addr:country": "USA", "name": "Leander H-E-B plus!", "phone": "+15125287700", "website": "https://www.heb.com/heb-store/US/tx/leander/leander-h-e-b-plus--592", "opening_hours": "Mo-Su 06:00-23:00", "brand": "H-E-B", "brand:wikidata": "Q830621"}, "geometry": {"type": "Point", "coordinates": [-97.8582, 30.58369]}},
{"type": "Feature", "id": "v1wrwFpxJilevj3TCFE6HGmnVLI=", "properties": {"ref": "round-rock-h-e-b-plus--591", "@spider": "heb", "addr:full": "1700 EAST PALM VALLEY BLVD", "addr:city": "ROUND ROCK", "addr:state": "TX", "addr:postcode": "78664-4677", "addr:country": "USA", "name": "Round Rock H-E-B plus!", "phone": "+15123882649", "website": "https://www.heb.com/heb-store/US/tx/round-rock/round-rock-h-e-b-plus--591", "opening_hours": "Mo-Su 06:00-23:00", "brand": "H-E-B", "brand:wikidata": "Q830621"}, "geometry": {"type": "Point", "coordinates": [-97.65978, 30.5177]}},
{"type": "Feature", "id": "6C0-R8AnNCdfdWqe0Uhd5HW4mBA=", "properties": {"ref": "kingsland-h-e-b-587", "@spider": "heb", "addr:full": "215 RANCH ROAD 2900", "addr:city": "KINGSLAND", "addr:state": "TX", "addr:postcode": "78639-6105", "addr:country": "USA", "name": "Kingsland H-E-B", "phone": "+13253884601", "website": "https://www.heb.com/heb-store/US/tx/kingsland/kingsland-h-e-b-587", "opening_hours": "Mo-Su 06:00-22:00", "brand": "H-E-B", "brand:wikidata": "Q830621"}, "geometry": {"type": "Point", "coordinates": [-98.4442, 30.659]}},
{"type": "Feature", "id": "2_J6O3NF-XGZUfM8PchtEt5QFYg=", "properties": {"ref": "mid-county-h-e-b-589", "@spider": "heb", "addr:full": "4800 B HWY 365", "addr:city": "PORT ARTHUR", "addr:state": "TX", "addr:postcode": "77642-7403", "addr:country": "USA", "name": "Mid County H-E-B", "phone": "+14097221369", "website": "https://www.heb.com/heb-store/US/tx/port-arthur/mid-county-h-e-b-589", "opening_hours": "Mo-Su 06:00-23:00", "brand": "H-E-B", "brand:wikidata": "Q830621"}, "geometry": {"type": "Point", "coordinates": [-93.9758, 29.966]}},
{"type": "Feature", "id": "pTPk7J61wWL7hVvnvfuYlupgDD0=", "properties": {"ref": "austin-highway-h-e-b-585", "@spider": "heb", "addr:full": "1520 AUSTIN HWY", "addr:city": "SAN ANTONIO", "addr:state": "TX", "addr:postcode": "78218-6039", "addr:country": "USA", "name": "Austin Highway H-E-B", "phone": "+12108285076", "website": "https://www.heb.com/heb-store/US/tx/san-antonio/austin-highway-h-e-b-585", "opening_hours": "Mo-Su 06:00-23:00", "brand": "H-E-B", "brand:wikidata": "Q830621"}, "geometry": {"type": "Point", "coordinates": [-98.43132, 29.4937]}},
{"type": "Feature", "id": "9Y8uXkmpw0jXAJlNJ8nX4vzi-zI=", "properties": {"ref": "el-campo-h-e-b-584", "@spider": "heb", "addr:full": "306 N. MECHANIC", "addr:city": "EL CAMPO", "addr:state": "TX", "addr:postcode": "77437-4420", "addr:country": "USA", "name": "El Campo H-E-B", "phone": "+19795788601", "website": "https://www.heb.com/heb-store/US/tx/el-campo/el-campo-h-e-b-584", "opening_hours": "Mo-Su 06:00-23:00", "brand": "H-E-B", "brand:wikidata": "Q830621"}, "geometry": {"type": "Point", "coordinates": [-96.26988, 29.19683]}},
{"type": "Feature", "id": "Z2072MCB54_zw_sAHOnxuU-LS30=", "properties": {"ref": "zapata-highway-h-e-b-586", "@spider": "heb", "addr:full": "2314 SOUTH ZAPATA HIGHWAY", "addr:city": "LAREDO", "addr:state": "TX", "addr:postcode": "78046-6563", "addr:country": "USA", "name": "Zapata Highway H-E-B", "phone": "+19567950207", "website": "https://www.heb.com/heb-store/US/tx/laredo/zapata-highway-h-e-b-586", "opening_hours": "Mo-Su 06:00-23:00", "brand": "H-E-B", "brand:wikidata": "Q830621"}, "geometry": {"type": "Point", "coordinates": [-99.47479, 27.47673]}},
{"type": "Feature", "id": "2lzi6BOL6VK4fqXtAPJX-npEXFA=", "properties": {"ref": "woodway-h-e-b-plus--583", "@spider": "heb", "addr:full": "9100 WOODWAY DRIVE", "addr:city": "WOODWAY", "addr:state": "TX", "addr:postcode": "76712-3371", "addr:country": "USA", "name": "Woodway H-E-B plus!", "phone": "+12547510239", "website": "https://www.heb.com/heb-store/US/tx/woodway/woodway-h-e-b-plus--583", "opening_hours": "Mo-Su 06:00-23:00", "brand": "H-E-B", "brand:wikidata": "Q830621"}, "geometry": {"type": "Point", "coordinates": [-97.22132, 31.49664]}},
{"type": "Feature", "id": "jm-1JP0EciLlQ6UgBxsnpffnz1U=", "properties": {"ref": "parmer-and-whitestone-h-e-b-580", "@spider": "heb", "addr:full": "2800 EAST WHITESTONE", "addr:city": "CEDAR PARK", "addr:state": "TX", "addr:postcode": "78613-7273", "addr:country": "USA", "name": "Parmer and Whitestone H-E-B", "phone": "+15125280027", "website": "https://www.heb.com/heb-store/US/tx/cedar-park/parmer-and-whitestone-h-e-b-580", "opening_hours": "Mo-Su 06:00-23:00", "brand": "H-E-B", "brand:wikidata": "Q830621"}, "geometry": {"type": "Point", "coordinates": [-97.78545, 30.5328]}},
{"type": "Feature", "id": "4lz-zPpELv79U3qGR5H9mT13J4s=", "properties": {"ref": "woodlands-market-h-e-b-579", "@spider": "heb", "addr:full": "9595 SIX PINES RD", "addr:city": "THE WOODLANDS", "addr:state": "TX", "addr:postcode": "77380-1531", "addr:country": "USA", "name": "Woodlands Market H-E-B", "phone": "+12812922080", "website": "https://www.heb.com/heb-store/US/tx/the-woodlands/woodlands-market-h-e-b-579", "opening_hours": "Mo-Su 06:00-23:00", "brand": "H-E-B", "brand:wikidata": "Q830621"}, "geometry": {"type": "Point", "coordinates": [-95.46575, 30.16409]}},
{"type": "Feature", "id": "TnrcIHzhNSf0aLGs8uGzTvKsQeg=", "properties": {"ref": "kempwood-and-gessner-h-e-b-577", "@spider": "heb", "addr:full": "10251 KEMPWOOD", "addr:city": "HOUSTON", "addr:state": "TX", "addr:postcode": "77043-1803", "addr:country": "USA", "name": "Kempwood and Gessner H-E-B", "phone": "+17139960009", "website": "https://www.heb.com/heb-store/US/tx/houston/kempwood-and-gessner-h-e-b-577", "opening_hours": "Mo-Su 06:00-23:00", "brand": "H-E-B", "brand:wikidata": "Q830621"}, "geometry": {"type": "Point", "coordinates": [-95.5468, 29.8226]}},
{"type": "Feature", "id": "FItfyhIX7bbtfKMI4ZBTT1tCnZ0=", "properties": {"ref": "bastrop-h-e-b-plus--582", "@spider": "heb", "addr:full": "104 N HASLER BLVD", "addr:city": "BASTROP", "addr:state": "TX", "addr:postcode": "78602-3740", "addr:country": "USA", "name": "Bastrop H-E-B plus!", "phone": "+15123211011", "website": "https://www.heb.com/heb-store/US/tx/bastrop/bastrop-h-e-b-plus--582", "opening_hours": "Mo-Su 06:00-23:00", "brand": "H-E-B", "brand:wikidata": "Q830621"}, "geometry": {"type": "Point", "coordinates": [-97.33458, 30.10981]}},
{"type": "Feature", "id": "hyxFfa2dT-kD0w4zzlWIpHoNqbM=", "properties": {"ref": "louetta-and-stuebner-h-e-b-576", "@spider": "heb", "addr:full": "7310 LOUETTA", "addr:city": "SPRING", "addr:state": "TX", "addr:postcode": "77379-7234", "addr:country": "USA", "name": "Louetta and Stuebner H-E-B", "phone": "+12813747727", "website": "https://www.heb.com/heb-store/US/tx/spring/louetta-and-stuebner-h-e-b-576", "opening_hours": "Mo-Su 06:00-23:00", "brand": "H-E-B", "brand:wikidata": "Q830621"}, "geometry": {"type": "Point", "coordinates": [-95.5243, 30.0209]}},
{"type": "Feature", "id": "qLqv-fKDuzb4fE3wDj5bLF7EqQc=", "properties": {"ref": "bellaire-blvd-h-e-b-575", "@spider": "heb", "addr:full": "14498 BELLAIRE", "addr:city": "HOUSTON", "addr:state": "TX", "addr:postcode": "77083-7520", "addr:country": "USA", "name": "Bellaire Blvd H-E-B", "phone": "+12817760143", "website": "https://www.heb.com/heb-store/US/tx/houston/bellaire-blvd-h-e-b-575", "opening_hours": "Mo-Su 06:00-23:00", "brand": "H-E-B", "brand:wikidata": "Q830621"}, "geometry": {"type": "Point", "coordinates": [-95.644, 29.704]}},
{"type": "Feature", "id": "pELLwH1gh48vPvi4CqmU8LYuzPw=", "properties": {"ref": "clear-lake-market-h-e-b-572", "@spider": "heb", "addr:full": "16811 EL CAMINO REAL", "addr:city": "HOUSTON", "addr:state": "TX", "addr:postcode": "77058-2624", "addr:country": "USA", "name": "Clear Lake Market H-E-B", "phone": "+12814881601", "website": "https://www.heb.com/heb-store/US/tx/houston/clear-lake-market-h-e-b-572", "opening_hours": "Mo-Su 06:00-23:00", "brand": "H-E-B", "brand:wikidata": "Q830621"}, "geometry": {"type": "Point", "coordinates": [-95.12, 29.5547]}},
{"type": "Feature", "id": "M7Ia-nTnu6JLCMq63-18VKF5ATM=", "properties": {"ref": "tomball-pkwy-and-graham-h-e-b-574", "@spider": "heb", "addr:full": "28520 TOMBALL PARKWAY", "addr:city": "TOMBALL", "addr:state": "TX", "addr:postcode": "77375-4546", "addr:country": "USA", "name": "Tomball Pkwy and Graham H-E-B", "phone": "+12812552250", "website": "https://www.heb.com/heb-store/US/tx/tomball/tomball-pkwy-and-graham-h-e-b-574", "opening_hours": "Mo-Su 06:00-23:00", "brand": "H-E-B", "brand:wikidata": "Q830621"}, "geometry": {"type": "Point", "coordinates": [-95.63218, 30.08868]}},
{"type": "Feature", "id": "ZIs4gW-RkdtSS4ab189ZLMLUE5Y=", "properties": {"ref": "trimmier-h-e-b-plus--581", "@spider": "heb", "addr:full": "2511 TRIMMIER RD, SUITE 100", "addr:city": "KILLEEN", "addr:state": "TX", "addr:postcode": "76542-1910", "addr:country": "USA", "name": "Trimmier H-E-B plus!", "phone": "+12545269674", "website": "https://www.heb.com/heb-store/US/tx/killeen/trimmier-h-e-b-plus--581", "opening_hours": "Mo-Su 06:00-23:00", "brand": "H-E-B", "brand:wikidata": "Q830621"}, "geometry": {"type": "Point", "coordinates": [-97.7338, 31.0909]}},
{"type": "Feature", "id": "fAVFVP-W8XZ46B3FUywmq8xEXU4=", "properties": {"ref": "35-and-del-mar-h-e-b-570", "@spider": "heb", "addr:full": "210 WEST DEL MAR BOULEVARD", "addr:city": "LAREDO", "addr:state": "TX", "addr:postcode": "78041-2205", "addr:country": "USA", "name": "35 and Del Mar H-E-B", "phone": "+19567123005", "website": "https://www.heb.com/heb-store/US/tx/laredo/35-and-del-mar-h-e-b-570", "opening_hours": "Mo-Su 06:00-23:00", "brand": "H-E-B", "brand:wikidata": "Q830621"}, "geometry": {"type": "Point", "coordinates": [-99.49676, 27.56786]}},
{"type": "Feature", "id": "OY0hLrKc_IsBoJW0CO-OgW1IQOw=", "properties": {"ref": "conway-griffin-pkwy-h-e-b-571", "@spider": "heb", "addr:full": "200 EAST GRIFFIN", "addr:city": "MISSION", "addr:state": "TX", "addr:postcode": "78572-2912", "addr:country": "USA", "name": "Conway & Griffin Pkwy H-E-B", "phone": "+19564247908", "website": "https://www.heb.com/heb-store/US/tx/mission/conway-griffin-pkwy-h-e-b-571", "opening_hours": "Mo-Su 06:00-23:00", "brand": "H-E-B", "brand:wikidata": "Q830621"}, "geometry": {"type": "Point", "coordinates": [-98.32225, 26.22834]}},
{"type": "Feature", "id": "IBpP86dcsrIYn2lX-UH_aLBLgao=", "properties": {"ref": "perrin-beitel-and-thousand-oaks-h-e-b-568", "@spider": "heb", "addr:full": "12018 PERRIN BEITEL ROAD", "addr:city": "SAN ANTONIO", "addr:state": "TX", "addr:postcode": "78217-2116", "addr:country": "USA", "name": "Perrin Beitel and Thousand Oaks H-E-B", "phone": "+12106559071", "website": "https://www.heb.com/heb-store/US/tx/san-antonio/perrin-beitel-and-thousand-oaks-h-e-b-568", "opening_hours": "Mo-Su 06:00-23:00", "brand": "H-E-B", "brand:wikidata": "Q830621"}, "geometry": {"type": "Point", "coordinates": [-98.4082, 29.5491]}},
{"type": "Feature", "id": "Ciqh500cdhuDUR4Oo7iAEKCDVUU=", "properties": {"ref": "flour-bluff-h-e-b-plus--57", "@spider": "heb", "addr:full": "1145 WALDRON ROAD", "addr:city": "CORPUS CHRISTI", "addr:state": "TX", "addr:postcode": "78418-4426", "addr:country": "USA", "name": "Flour Bluff H-E-B plus!", "phone": "+13619395500", "website": "https://www.heb.com/heb-store/US/tx/corpus-christi/flour-bluff-h-e-b-plus--57", "opening_hours": "Mo-Su 06:00-23:00", "brand": "H-E-B", "brand:wikidata": "Q830621"}, "geometry": {"type": "Point", "coordinates": [-97.28288, 27.66767]}},
{"type": "Feature", "id": "v-d55yyoDRsR9EVVFmMWzP6eYqo=", "properties": {"ref": "leon-springs-h-e-b-566", "@spider": "heb", "addr:full": "24165 I-H 10 WEST, SUITE 300", "addr:city": "SAN ANTONIO", "addr:state": "TX", "addr:postcode": "78257-1161", "addr:country": "USA", "name": "Leon Springs H-E-B", "phone": "+12106871007", "website": "https://www.heb.com/heb-store/US/tx/san-antonio/leon-springs-h-e-b-566", "opening_hours": "Mo-Su 06:00-23:00", "brand": "H-E-B", "brand:wikidata": "Q830621"}, "geometry": {"type": "Point", "coordinates": [-98.63218, 29.6659]}},
{"type": "Feature", "id": "KdR8ixiVGusGNeQKZmB0SGCcuCo=", "properties": {"ref": "lincoln-heights-market-h-e-b-567", "@spider": "heb", "addr:full": "999 EAST BASSE ROAD", "addr:city": "SAN ANTONIO", "addr:state": "TX", "addr:postcode": "78209-1804", "addr:country": "USA", "name": "Lincoln Heights Market H-E-B", "phone": "+12108220156", "website": "https://www.heb.com/heb-store/US/tx/san-antonio/lincoln-heights-market-h-e-b-567", "opening_hours": "Mo-Su 06:00-23:00", "brand": "H-E-B", "brand:wikidata": "Q830621"}, "geometry": {"type": "Point", "coordinates": [-98.4682, 29.4967]}},
{"type": "Feature", "id": "TGzizg-HhRjSmmVSsYInAB4_wZk=", "properties": {"ref": "sawdust-rd-and-45-h-e-b-564", "@spider": "heb", "addr:full": "130 SAWDUST ROAD", "addr:city": "SPRING", "addr:state": "TX", "addr:postcode": "77380-2272", "addr:country": "USA", "name": "Sawdust Rd and 45 H-E-B", "phone": "+12813647744", "website": "https://www.heb.com/heb-store/US/tx/spring/sawdust-rd-and-45-h-e-b-564", "opening_hours": "Mo-Su 06:00-23:00", "brand": "H-E-B", "brand:wikidata": "Q830621"}, "geometry": {"type": "Point", "coordinates": [-95.44512, 30.12684]}},
{"type": "Feature", "id": "5_dvL8sSUeZBQHhv7mWTMFJq-3E=", "properties": {"ref": "rockport-h-e-b-562", "@spider": "heb", "addr:full": "1409 HWY 35 NORTH BUSINESS", "addr:city": "ROCKPORT", "addr:state": "TX", "addr:postcode": "78382-3314", "addr:country": "USA", "name": "Rockport H-E-B", "phone": "+13617298230", "website": "https://www.heb.com/heb-store/US/tx/rockport/rockport-h-e-b-562", "opening_hours": "Mo-Su 07:00-23:00", "brand": "H-E-B", "brand:wikidata": "Q830621"}, "geometry": {"type": "Point", "coordinates": [-97.0425, 28.0378]}},
{"type": "Feature", "id": "YbkTKnLQtpxVtp9T2BVaaLi27q0=", "properties": {"ref": "riverpark-h-e-b-563", "@spider": "heb", "addr:full": "19900 SOUTHWEST FWY", "addr:city": "SUGAR LAND", "addr:state": "TX", "addr:postcode": "77479-6505", "addr:country": "USA", "name": "Riverpark H-E-B", "phone": "+12812392050", "website": "https://www.heb.com/heb-store/US/tx/sugar-land/riverpark-h-e-b-563", "opening_hours": "Mo-Su 06:00-23:00", "brand": "H-E-B", "brand:wikidata": "Q830621"}, "geometry": {"type": "Point", "coordinates": [-95.6815, 29.5636]}},
{"type": "Feature", "id": "J1yz50naoDEBcycAexrt_AD01SA=", "properties": {"ref": "friendswood-h-e-b-558", "@spider": "heb", "addr:full": "701 WEST PARKWOOD", "addr:city": "FRIENDSWOOD", "addr:state": "TX", "addr:postcode": "77546-5405", "addr:country": "USA", "name": "Friendswood H-E-B", "phone": "+12819969967", "website": "https://www.heb.com/heb-store/US/tx/friendswood/friendswood-h-e-b-558", "opening_hours": "Mo-Su 06:00-23:00", "brand": "H-E-B", "brand:wikidata": "Q830621"}, "geometry": {"type": "Point", "coordinates": [-95.1912, 29.5066]}},
{"type": "Feature", "id": "TQCRKJJ_jnvkeVKOjfa6mvfr4ys=", "properties": {"ref": "kitty-hawk-h-e-b-555", "@spider": "heb", "addr:full": "910 KITTY HAWK ROAD", "addr:city": "UNIVERSAL CITY", "addr:state": "TX", "addr:postcode": "78148-3806", "addr:country": "USA", "name": "Kitty Hawk H-E-B", "phone": "+12109452102", "website": "https://www.heb.com/heb-store/US/tx/universal-city/kitty-hawk-h-e-b-555", "opening_hours": "Mo-Su 06:00-23:00", "brand": "H-E-B", "brand:wikidata": "Q830621"}, "geometry": {"type": "Point", "coordinates": [-98.31298, 29.54766]}},
{"type": "Feature", "id": "R7cc_W1FNJsJTPHSkaLq4Z8URpQ=", "properties": {"ref": "59-and-laurent-h-e-b-554", "@spider": "heb", "addr:full": "1505 EAST RIO GRANDE", "addr:city": "VICTORIA", "addr:state": "TX", "addr:postcode": "77901-6220", "addr:country": "USA", "name": "59 and Laurent H-E-B", "phone": "+13615728221", "website": "https://www.heb.com/heb-store/US/tx/victoria/59-and-laurent-h-e-b-554", "opening_hours": "Mo-Su 06:00-23:00", "brand": "H-E-B", "brand:wikidata": "Q830621"}, "geometry": {"type": "Point", "coordinates": [-96.9896, 28.8062]}},
{"type": "Feature", "id": "ZUHmzMzeofnebUvHIg6QpwKbK-w=", "properties": {"ref": "fredericksburg-h-e-b-561", "@spider": "heb", "addr:full": "407 SOUTH ADAMS", "addr:city": "FREDERICKSBURG", "addr:state": "TX", "addr:postcode": "78624-4146", "addr:country": "USA", "name": "Fredericksburg H-E-B", "phone": "+18309979950", "website": "https://www.heb.com/heb-store/US/tx/fredericksburg/fredericksburg-h-e-b-561", "opening_hours": "Mo-Su 06:00-23:00", "brand": "H-E-B", "brand:wikidata": "Q830621"}, "geometry": {"type": "Point", "coordinates": [-98.87538, 30.27006]}},
{"type": "Feature", "id": "z6bbwyFAY29T4idFE3gxccIw17A=", "properties": {"ref": "35-and-84-h-e-b-plus--557", "@spider": "heb", "addr:full": "801 NORTH I-H 35", "addr:city": "BELLMEAD", "addr:state": "TX", "addr:postcode": "76705-2874", "addr:country": "USA", "name": "35 and 84 H-E-B plus!", "phone": "+12547990253", "website": "https://www.heb.com/heb-store/US/tx/bellmead/35-and-84-h-e-b-plus--557", "opening_hours": "Mo-Su 06:00-23:00", "brand": "H-E-B", "brand:wikidata": "Q830621"}, "geometry": {"type": "Point", "coordinates": [-97.10815, 31.59052]}},
{"type": "Feature", "id": "3XGANQfH6VzYQPEoK0A_iKqYtvo=", "properties": {"ref": "bear-creek-h-e-b-553", "@spider": "heb", "addr:full": "4955 HWY 6 N", "addr:city": "HOUSTON", "addr:state": "TX", "addr:postcode": "77084-2718", "addr:country": "USA", "name": "Bear Creek H-E-B", "phone": "+12818599381", "website": "https://www.heb.com/heb-store/US/tx/houston/bear-creek-h-e-b-553", "opening_hours": "Mo-Su 06:00-23:00", "brand": "H-E-B", "brand:wikidata": "Q830621"}, "geometry": {"type": "Point", "coordinates": [-95.6457, 29.8487]}},
{"type": "Feature", "id": "NcOXaMtA0yNJjNHounbdaLSMXUM=", "properties": {"ref": "texas-avenue-h-e-b-543", "@spider": "heb", "addr:full": "1900 TEXAS AVENUE SOUTH", "addr:city": "COLLEGE STATION", "addr:state": "TX", "addr:postcode": "77840-3914", "addr:country": "USA", "name": "Texas Avenue H-E-B", "phone": "+19796930361", "website": "https://www.heb.com/heb-store/US/tx/college-station/texas-avenue-h-e-b-543", "opening_hours": "Mo-Su 06:00-23:00", "brand": "H-E-B", "brand:wikidata": "Q830621"}, "geometry": {"type": "Point", "coordinates": [-96.3165, 30.6131]}},
{"type": "Feature", "id": "sG7WTGegYmPAPZuJprQo0AK0hfM=", "properties": {"ref": "westheimer-and-kirkwood-h-e-b-551", "@spider": "heb", "addr:full": "11815 WESTHEIMER", "addr:city": "HOUSTON", "addr:state": "TX", "addr:postcode": "77077-6860", "addr:country": "USA", "name": "Westheimer and Kirkwood H-E-B", "phone": "+12815318646", "website": "https://www.heb.com/heb-store/US/tx/houston/westheimer-and-kirkwood-h-e-b-551", "opening_hours": "Mo-Su 06:00-23:00", "brand": "H-E-B", "brand:wikidata": "Q830621"}, "geometry": {"type": "Point", "coordinates": [-95.587, 29.7363]}},
{"type": "Feature", "id": "v-HWtvi4Pxg9OtIBo8piBKuZ9lE=", "properties": {"ref": "deco-district-h-e-b-556", "@spider": "heb", "addr:full": "2118 FREDERICKSBURG RD", "addr:city": "SAN ANTONIO", "addr:state": "TX", "addr:postcode": "78201-4407", "addr:country": "USA", "name": "Deco District H-E-B", "phone": "+12107372047", "website": "https://www.heb.com/heb-store/US/tx/san-antonio/deco-district-h-e-b-556", "opening_hours": "Mo-Su 06:00-23:00", "brand": "H-E-B", "brand:wikidata": "Q830621"}, "geometry": {"type": "Point", "coordinates": [-98.5261, 29.4646]}},
{"type": "Feature", "id": "L_lwBstOOhAGFE_p9buZKAJvSq8=", "properties": {"ref": "gulfgate-h-e-b-540", "@spider": "heb", "addr:full": "3111 WOODRIDGE, SUITE 500", "addr:city": "HOUSTON", "addr:state": "TX", "addr:postcode": "77087-2558", "addr:country": "USA", "name": "Gulfgate H-E-B", "phone": "+17138470025", "website": "https://www.heb.com/heb-store/US/tx/houston/gulfgate-h-e-b-540", "opening_hours": "Mo-Su 06:00-23:00", "brand": "H-E-B", "brand:wikidata": "Q830621"}, "geometry": {"type": "Point", "coordinates": [-95.2968, 29.6994]}},
{"type": "Feature", "id": "CozbPDXCE5AelNYZbFzuEmSP0cs=", "properties": {"ref": "tejas-center-h-e-b-544", "@spider": "heb", "addr:full": "725 E VILLA MARIA RD STE 1300", "addr:city": "BRYAN", "addr:state": "TX", "addr:postcode": "77802-5320", "addr:country": "USA", "name": "Tejas Center H-E-B", "phone": "+19797798905", "website": "https://www.heb.com/heb-store/US/tx/bryan/tejas-center-h-e-b-544", "opening_hours": "Mo-Su 06:00-23:00", "brand": "H-E-B", "brand:wikidata": "Q830621"}, "geometry": {"type": "Point", "coordinates": [-96.3513, 30.64506]}},
{"type": "Feature", "id": "pDvSLHn6vEebK_BaL1hFfc7khNc=", "properties": {"ref": "blackhawk-h-e-b-54", "@spider": "heb", "addr:full": "9828 BLACKHAWK BLVD.", "addr:city": "HOUSTON", "addr:state": "TX", "addr:postcode": "77075-2246", "addr:country": "USA", "name": "Blackhawk H-E-B", "phone": "+17139912774", "website": "https://www.heb.com/heb-store/US/tx/houston/blackhawk-h-e-b-54", "opening_hours": "Mo-Su 06:00-23:00", "brand": "H-E-B", "brand:wikidata": "Q830621"}, "geometry": {"type": "Point", "coordinates": [-95.24868, 29.60234]}},
{"type": "Feature", "id": "U-3P9wW76RbCM3M74TMezdAD5o4=", "properties": {"ref": "groves-h-e-b-53", "@spider": "heb", "addr:full": "5000 32ND STREET", "addr:city": "GROVES", "addr:state": "TX", "addr:postcode": "77619-2725", "addr:country": "USA", "name": "Groves H-E-B", "phone": "+14099620142", "website": "https://www.heb.com/heb-store/US/tx/groves/groves-h-e-b-53", "opening_hours": "Mo-Su 07:00-22:00", "brand": "H-E-B", "brand:wikidata": "Q830621"}, "geometry": {"type": "Point", "coordinates": [-93.92393, 29.92936]}},
{"type": "Feature", "id": "GgXaHaefAqEToLmqkWuSWv87IwQ=", "properties": {"ref": "sherwood-avenue-n-h-e-b-52", "@spider": "heb", "addr:full": "3301 SHERWOOD WAY", "addr:city": "SAN ANGELO", "addr:state": "TX", "addr:postcode": "76901-3528", "addr:country": "USA", "name": "Sherwood Avenue N H-E-B", "phone": "+13259429044", "website": "https://www.heb.com/heb-store/US/tx/san-angelo/sherwood-avenue-n-h-e-b-52", "opening_hours": "Mo-Su 06:00-23:00", "brand": "H-E-B", "brand:wikidata": "Q830621"}, "geometry": {"type": "Point", "coordinates": [-100.47977, 31.44511]}},
{"type": "Feature", "id": "JAyLTLjwOAA7NOb4ec7OqGJrJR8=", "properties": {"ref": "big-spring-h-e-b-51", "@spider": "heb", "addr:full": "2000 SOUTH GREGG", "addr:city": "BIG SPRING", "addr:state": "TX", "addr:postcode": "79720-5437", "addr:country": "USA", "name": "Big Spring H-E-B", "phone": "+14322633000", "website": "https://www.heb.com/heb-store/US/tx/big-spring/big-spring-h-e-b-51", "opening_hours": "Mo-Su 06:00-23:00", "brand": "H-E-B", "brand:wikidata": "Q830621"}, "geometry": {"type": "Point", "coordinates": [-101.47211, 32.23493]}},
{"type": "Feature", "id": "8TGAUTl-XDJT29caw6bQG2vaRhU=", "properties": {"ref": "atascocita-h-e-b-498", "@spider": "heb", "addr:full": "7405 FM 1960 EAST", "addr:city": "HUMBLE", "addr:state": "TX", "addr:postcode": "77346-3128", "addr:country": "USA", "name": "Atascocita H-E-B", "phone": "+12818124357", "website": "https://www.heb.com/heb-store/US/tx/humble/atascocita-h-e-b-498", "opening_hours": "Mo-Su 06:00-23:00", "brand": "H-E-B", "brand:wikidata": "Q830621"}, "geometry": {"type": "Point", "coordinates": [-95.1642, 29.9983]}},
{"type": "Feature", "id": "gjjxPRKCNodYasmTlnco9lYM_6Y=", "properties": {"ref": "beechnut-h-e-b-541", "@spider": "heb", "addr:full": "10100 BEECHNUT", "addr:city": "HOUSTON", "addr:state": "TX", "addr:postcode": "77072-5000", "addr:country": "USA", "name": "Beechnut H-E-B", "phone": "+12815645201", "website": "https://www.heb.com/heb-store/US/tx/houston/beechnut-h-e-b-541", "opening_hours": "Mo-Su 06:00-23:00", "brand": "H-E-B", "brand:wikidata": "Q830621"}, "geometry": {"type": "Point", "coordinates": [-95.5604, 29.6896]}},
{"type": "Feature", "id": "7CFg51eNuYujnpMJlnLvOsUtpjg=", "properties": {"ref": "mason-rd-h-e-b-497", "@spider": "heb", "addr:full": "1621 MASON ROAD", "addr:city": "KATY", "addr:state": "TX", "addr:postcode": "77450-4564", "addr:country": "USA", "name": "Mason Rd H-E-B", "phone": "+12815990045", "website": "https://www.heb.com/heb-store/US/tx/katy/mason-rd-h-e-b-497", "opening_hours": "Mo-Su 06:00-23:00", "brand": "H-E-B", "brand:wikidata": "Q830621"}, "geometry": {"type": "Point", "coordinates": [-95.75102, 29.75787]}},
{"type": "Feature", "id": "lrY_PnRa3EUvFbFed7BnHIca-FI=", "properties": {"ref": "culebra-and-1604-h-e-b-494", "@spider": "heb", "addr:full": "10660 WEST FM 471", "addr:city": "SAN ANTONIO", "addr:state": "TX", "addr:postcode": "78251-1320", "addr:country": "USA", "name": "Culebra and 1604 H-E-B", "phone": "+12106841019", "website": "https://www.heb.com/heb-store/US/tx/san-antonio/culebra-and-1604-h-e-b-494", "opening_hours": "Mo-Su 06:00-23:00", "brand": "H-E-B", "brand:wikidata": "Q830621"}, "geometry": {"type": "Point", "coordinates": [-98.70445, 29.49292]}},
{"type": "Feature", "id": "z-2xZ7JJg3_d91lBTUTrTItB8l4=", "properties": {"ref": "louis-henna-blvd-h-e-b-495", "@spider": "heb", "addr:full": "603 LOUIS HENNA BLVD. BLDG A", "addr:city": "ROUND ROCK", "addr:state": "TX", "addr:postcode": "78664-7186", "addr:country": "USA", "name": "Louis Henna Blvd H-E-B", "phone": "+15128280806", "website": "https://www.heb.com/heb-store/US/tx/round-rock/louis-henna-blvd-h-e-b-495", "opening_hours": "Mo-Su 06:00-23:00", "brand": "H-E-B", "brand:wikidata": "Q830621"}, "geometry": {"type": "Point", "coordinates": [-97.65938, 30.48179]}},
{"type": "Feature", "id": "SPoSkNNHMq0vnS1Dh1rdqHy7rtk=", "properties": {"ref": "boca-chica-h-e-b-489", "@spider": "heb", "addr:full": "2250 BOCA CHICA", "addr:city": "BROWNSVILLE", "addr:state": "TX", "addr:postcode": "78521-2216", "addr:country": "USA", "name": "Boca Chica H-E-B", "phone": "+19565411251", "website": "https://www.heb.com/heb-store/US/tx/brownsville/boca-chica-h-e-b-489", "opening_hours": "Mo-Su 06:00-23:00", "brand": "H-E-B", "brand:wikidata": "Q830621"}, "geometry": {"type": "Point", "coordinates": [-97.48722, 25.92214]}},
{"type": "Feature", "id": "HQBetxDSKwhX2TTzaXcpE4IOZnE=", "properties": {"ref": "83-and-westgate-h-e-b-485", "@spider": "heb", "addr:full": "310 N. WESTGATE DRIVE", "addr:city": "WESLACO", "addr:state": "TX", "addr:postcode": "78596-2700", "addr:country": "USA", "name": "83 and Westgate H-E-B", "phone": "+19564475901", "website": "https://www.heb.com/heb-store/US/tx/weslaco/83-and-westgate-h-e-b-485", "opening_hours": "Mo-Su 06:00-23:00", "brand": "H-E-B", "brand:wikidata": "Q830621"}, "geometry": {"type": "Point", "coordinates": [-97.98934, 26.17109]}},
{"type": "Feature", "id": "TZqIOqSW7LosyUMhYFUSHo09vio=", "properties": {"ref": "portland-h-e-b-488", "@spider": "heb", "addr:full": "1600 WILDCAT DRIVE", "addr:city": "PORTLAND", "addr:state": "TX", "addr:postcode": "78374-2816", "addr:country": "USA", "name": "Portland H-E-B", "phone": "+13616431511", "website": "https://www.heb.com/heb-store/US/tx/portland/portland-h-e-b-488", "opening_hours": "Mo-Su 06:00-23:00", "brand": "H-E-B", "brand:wikidata": "Q830621"}, "geometry": {"type": "Point", "coordinates": [-97.31836, 27.88722]}},
{"type": "Feature", "id": "T0N9A6edlP1EBitZF9NMx1zsMjc=", "properties": {"ref": "fry-rd-and-i10-h-e-b-492", "@spider": "heb", "addr:full": "1550 FRY RD", "addr:city": "HOUSTON", "addr:state": "TX", "addr:postcode": "77084-5813", "addr:country": "USA", "name": "Fry Rd and I10 H-E-B", "phone": "+12818290126", "website": "https://www.heb.com/heb-store/US/tx/houston/fry-rd-and-i10-h-e-b-492", "opening_hours": "Mo-Su 06:00-23:00", "brand": "H-E-B", "brand:wikidata": "Q830621"}, "geometry": {"type": "Point", "coordinates": [-95.7189, 29.7898]}},
{"type": "Feature", "id": "5lbkwPHE8DntgdWzVRGH3rL0jnU=", "properties": {"ref": "i10-and-wurzbach-h-e-b-480", "@spider": "heb", "addr:full": "9900 WURZBACH", "addr:city": "SAN ANTONIO", "addr:state": "TX", "addr:postcode": "78230-2212", "addr:country": "USA", "name": "I10 and Wurzbach H-E-B", "phone": "+12106960794", "website": "https://www.heb.com/heb-store/US/tx/san-antonio/i10-and-wurzbach-h-e-b-480", "opening_hours": "Mo-Su 06:00-23:00", "brand": "H-E-B", "brand:wikidata": "Q830621"}, "geometry": {"type": "Point", "coordinates": [-98.5595, 29.5336]}},
{"type": "Feature", "id": "2B--KK7EdM4UEZjwnkAaTggqe6M=", "properties": {"ref": "williams-drive-h-e-b-487", "@spider": "heb", "addr:full": "4500 WILLIAMS DRIVE", "addr:city": "GEORGETOWN", "addr:state": "TX", "addr:postcode": "78628", "addr:country": "USA", "name": "Williams Drive H-E-B", "phone": "+15128634427", "website": "https://www.heb.com/heb-store/US/tx/georgetown/williams-drive-h-e-b-487", "opening_hours": "Mo-Su 06:00-23:00", "brand": "H-E-B", "brand:wikidata": "Q830621"}, "geometry": {"type": "Point", "coordinates": [-97.71873, 30.68312]}},
{"type": "Feature", "id": "RvgBICNlTRuj5gsG_hYdQZZidbA=", "properties": {"ref": "beaumont-h-e-b-plus--48", "@spider": "heb", "addr:full": "3025 NORTH DOWLEN ROAD", "addr:city": "BEAUMONT", "addr:state": "TX", "addr:postcode": "77706-7213", "addr:country": "USA", "name": "Beaumont H-E-B plus!", "phone": "+14098662007", "website": "https://www.heb.com/heb-store/US/tx/beaumont/beaumont-h-e-b-plus--48", "opening_hours": "Mo-Su 06:00-23:00", "brand": "H-E-B", "brand:wikidata": "Q830621"}, "geometry": {"type": "Point", "coordinates": [-94.1685, 30.10501]}},
{"type": "Feature", "id": "cXGTN8qoULa6AaPkMSjkYz2h8yU=", "properties": {"ref": "buda-h-e-b-477", "@spider": "heb", "addr:full": "15300 S IH-35", "addr:city": "BUDA", "addr:state": "TX", "addr:postcode": "78610-9703", "addr:country": "USA", "name": "Buda H-E-B", "phone": "+15123121615", "website": "https://www.heb.com/heb-store/US/tx/buda/buda-h-e-b-477", "opening_hours": "Mo-Su 06:00-23:00", "brand": "H-E-B", "brand:wikidata": "Q830621"}, "geometry": {"type": "Point", "coordinates": [-97.82074, 30.08769]}},
{"type": "Feature", "id": "PnKPlniwtcrX1eKuPDxu4wrenJc=", "properties": {"ref": "pflugerville-h-e-b-479", "@spider": "heb", "addr:full": "201 N FM 685", "addr:city": "PFLUGERVILLE", "addr:state": "TX", "addr:postcode": "78660-8045", "addr:country": "USA", "name": "Pflugerville H-E-B", "phone": "+15122510002", "website": "https://www.heb.com/heb-store/US/tx/pflugerville/pflugerville-h-e-b-479", "opening_hours": "Mo-Su 06:00-23:00", "brand": "H-E-B", "brand:wikidata": "Q830621"}, "geometry": {"type": "Point", "coordinates": [-97.6133, 30.4373]}},
{"type": "Feature", "id": "2qA-PgwNAyun4WsLMZQDGJjgJtw=", "properties": {"ref": "elgin-h-e-b-475", "@spider": "heb", "addr:full": "1080 EAST HWY 290", "addr:city": "ELGIN", "addr:state": "TX", "addr:postcode": "78621-2519", "addr:country": "USA", "name": "Elgin H-E-B", "phone": "+15122854168", "website": "https://www.heb.com/heb-store/US/tx/elgin/elgin-h-e-b-475", "opening_hours": "Mo-Su 06:00-23:00", "brand": "H-E-B", "brand:wikidata": "Q830621"}, "geometry": {"type": "Point", "coordinates": [-97.38258, 30.34701]}},
{"type": "Feature", "id": "NzIS0ZDJWpYHlX8vfgbSdyQlLmM=", "properties": {"ref": "lake-colony-h-e-b-474", "@spider": "heb", "addr:full": "4724 HWY 6", "addr:city": "MISSOURI CITY", "addr:state": "TX", "addr:postcode": "77459-4180", "addr:country": "USA", "name": "Lake Colony H-E-B", "phone": "+12814032172", "website": "https://www.heb.com/heb-store/US/tx/missouri-city/lake-colony-h-e-b-474", "opening_hours": "Mo-Su 06:00-23:00", "brand": "H-E-B", "brand:wikidata": "Q830621"}, "geometry": {"type": "Point", "coordinates": [-95.58244, 29.58032]}},
{"type": "Feature", "id": "CNBV2uRYY_iOnRxMMhhaWQeshZM=", "properties": {"ref": "fairmont-pkwy-h-e-b-473", "@spider": "heb", "addr:full": "6210 FAIRMONT PKWY", "addr:city": "PASADENA", "addr:state": "TX", "addr:postcode": "77505-4027", "addr:country": "USA", "name": "Fairmont Pkwy H-E-B", "phone": "+12814871946", "website": "https://www.heb.com/heb-store/US/tx/pasadena/fairmont-pkwy-h-e-b-473", "opening_hours": "Mo-Su 06:00-23:00", "brand": "H-E-B", "brand:wikidata": "Q830621"}, "geometry": {"type": "Point", "coordinates": [-95.14512, 29.6497]}},
{"type": "Feature", "id": "YipZQrVwbpzqQPGhHhoqdBv2vE0=", "properties": {"ref": "tech-ridge-h-e-b-476", "@spider": "heb", "addr:full": "500 CANYON RIDGE DR.", "addr:city": "AUSTIN", "addr:state": "TX", "addr:postcode": "78753-1632", "addr:country": "USA", "name": "Tech Ridge H-E-B", "phone": "+15129738143", "website": "https://www.heb.com/heb-store/US/tx/austin/tech-ridge-h-e-b-476", "opening_hours": "Mo-Su 06:00-23:00", "brand": "H-E-B", "brand:wikidata": "Q830621"}, "geometry": {"type": "Point", "coordinates": [-97.67201, 30.40443]}},
{"type": "Feature", "id": "7hmuOX79yBQgjb7vUEDYucGUhtw=", "properties": {"ref": "mexia-h-e-b-467", "@spider": "heb", "addr:full": "701 E. MILAM STREET", "addr:city": "MEXIA", "addr:state": "TX", "addr:postcode": "76667-2445", "addr:country": "USA", "name": "Mexia H-E-B", "phone": "+12545625305", "website": "https://www.heb.com/heb-store/US/tx/mexia/mexia-h-e-b-467", "opening_hours": "Mo-Su 06:00-23:00", "brand": "H-E-B", "brand:wikidata": "Q830621"}, "geometry": {"type": "Point", "coordinates": [-96.47858, 31.68434]}},
{"type": "Feature", "id": "Lnlf2c4qLHKbgEgOTX3PRtnWt0w=", "properties": {"ref": "commerce-and-rosillo-h-e-b-466", "@spider": "heb", "addr:full": "108 N ROSILLO", "addr:city": "SAN ANTONIO", "addr:state": "TX", "addr:postcode": "78207-3706", "addr:country": "USA", "name": "Commerce and Rosillo H-E-B", "phone": "+12102270447", "website": "https://www.heb.com/heb-store/US/tx/san-antonio/commerce-and-rosillo-h-e-b-466", "opening_hours": "Mo-Su 07:00-23:00", "brand": "H-E-B", "brand:wikidata": "Q830621"}, "geometry": {"type": "Point", "coordinates": [-98.5256, 29.4281]}},
{"type": "Feature", "id": "zctrQvSNGzbkRyvMukCLYdKMZLw=", "properties": {"ref": "7th-street-h-e-b-465", "@spider": "heb", "addr:full": "2701 EAST 7TH", "addr:city": "AUSTIN", "addr:state": "TX", "addr:postcode": "78702-3907", "addr:country": "USA", "name": "7th Street H-E-B", "phone": "+15124787328", "website": "https://www.heb.com/heb-store/US/tx/austin/7th-street-h-e-b-465", "opening_hours": "Mo-Su 06:00-23:00", "brand": "H-E-B", "brand:wikidata": "Q830621"}, "geometry": {"type": "Point", "coordinates": [-97.71143, 30.26046]}},
{"type": "Feature", "id": "cqUHHRJ7yOFLkH5v65DAbVQkzbs=", "properties": {"ref": "luling-h-e-b-464", "@spider": "heb", "addr:full": "320 PIERCE", "addr:city": "LULING", "addr:state": "TX", "addr:postcode": "78648-2427", "addr:country": "USA", "name": "Luling H-E-B", "phone": "+18308753831", "website": "https://www.heb.com/heb-store/US/tx/luling/luling-h-e-b-464", "opening_hours": "Mo-Su 06:00-23:00", "brand": "H-E-B", "brand:wikidata": "Q830621"}, "geometry": {"type": "Point", "coordinates": [-97.65269, 29.68092]}},
{"type": "Feature", "id": "chiDMxVCvp8NC0Sjwgd4cr16bGY=", "properties": {"ref": "s-port-and-tarlton-h-e-b-462", "@spider": "heb", "addr:full": "3033 SOUTH PORT ST.", "addr:city": "CORPUS CHRISTI", "addr:state": "TX", "addr:postcode": "78405-2040", "addr:country": "USA", "name": "S Port and Tarlton H-E-B", "phone": "+13618836002", "website": "https://www.heb.com/heb-store/US/tx/corpus-christi/s-port-and-tarlton-h-e-b-462", "opening_hours": "Mo-Su 07:00-23:00", "brand": "H-E-B", "brand:wikidata": "Q830621"}, "geometry": {"type": "Point", "coordinates": [-97.42137, 27.76687]}},
{"type": "Feature", "id": "ur-yaTQgUkF2JyrxfMwgHJk2jnY=", "properties": {"ref": "loop-1604-and-blanco-rd-h-e-b-plus--463", "@spider": "heb", "addr:full": "1150 NW LOOP 1604", "addr:city": "SAN ANTONIO", "addr:state": "TX", "addr:postcode": "78248-4552", "addr:country": "USA", "name": "Loop 1604 and Blanco Rd H-E-B plus!", "phone": "+12104081641", "website": "https://www.heb.com/heb-store/US/tx/san-antonio/loop-1604-and-blanco-rd-h-e-b-plus--463", "opening_hours": "Mo-Su 06:00-23:00", "brand": "H-E-B", "brand:wikidata": "Q830621"}, "geometry": {"type": "Point", "coordinates": [-98.50968, 29.60792]}},
{"type": "Feature", "id": "-hbH1ZB3WRrrwjXv24fZhhS2ejQ=", "properties": {"ref": "four-points-h-e-b-451", "@spider": "heb", "addr:full": "7301 N FM 620", "addr:city": "AUSTIN", "addr:state": "TX", "addr:postcode": "78726-4539", "addr:country": "USA", "name": "Four Points H-E-B", "phone": "+15123367700", "website": "https://www.heb.com/heb-store/US/tx/austin/four-points-h-e-b-451", "opening_hours": "Mo-Su 06:00-23:00", "brand": "H-E-B", "brand:wikidata": "Q830621"}, "geometry": {"type": "Point", "coordinates": [-97.85202, 30.40458]}},
{"type": "Feature", "id": "HcWcbF5gjQ1dtJWD_CI7kEFqZb4=", "properties": {"ref": "west-hopkins-h-e-b-455", "@spider": "heb", "addr:full": "200 WEST HOPKINS ST.", "addr:city": "SAN MARCOS", "addr:state": "TX", "addr:postcode": "78666-5615", "addr:country": "USA", "name": "West Hopkins H-E-B", "phone": "+15123960100", "website": "https://www.heb.com/heb-store/US/tx/san-marcos/west-hopkins-h-e-b-455", "opening_hours": "Mo-Su 06:00-23:00", "brand": "H-E-B", "brand:wikidata": "Q830621"}, "geometry": {"type": "Point", "coordinates": [-97.94292, 29.88305]}},
{"type": "Feature", "id": "kdIzKENcg_dVCMNuOIR1nm5j5qk=", "properties": {"ref": "south-congress-h-e-b-45", "@spider": "heb", "addr:full": "2400 S. CONGRESS", "addr:city": "AUSTIN", "addr:state": "TX", "addr:postcode": "78704-5512", "addr:country": "USA", "name": "South Congress H-E-B", "phone": "+15124422354", "website": "https://www.heb.com/heb-store/US/tx/austin/south-congress-h-e-b-45", "opening_hours": "Mo-Su 06:00-23:00", "brand": "H-E-B", "brand:wikidata": "Q830621"}, "geometry": {"type": "Point", "coordinates": [-97.75382, 30.23875]}},
{"type": "Feature", "id": "LnnwxsRYXc5sEFjLx7etBGmqT1c=", "properties": {"ref": "carthage-h-e-b-458", "@spider": "heb", "addr:full": "419 NW LOOP 436", "addr:city": "CARTHAGE", "addr:state": "TX", "addr:postcode": "75633-9275", "addr:country": "USA", "name": "Carthage H-E-B", "phone": "+19036934952", "website": "https://www.heb.com/heb-store/US/tx/carthage/carthage-h-e-b-458", "opening_hours": "Mo-Su 07:00-22:00", "brand": "H-E-B", "brand:wikidata": "Q830621"}, "geometry": {"type": "Point", "coordinates": [-94.37272, 32.15914]}},
{"type": "Feature", "id": "iTG6b9ryhBaA4sJaV0gluwD89UY=", "properties": {"ref": "mcpherson-rd-h-e-b-449", "@spider": "heb", "addr:full": "7811 MCPHERSON RD.", "addr:city": "LAREDO", "addr:state": "TX", "addr:postcode": "78045-2802", "addr:country": "USA", "name": "McPherson Rd H-E-B", "phone": "+19567122459", "website": "https://www.heb.com/heb-store/US/tx/laredo/mcpherson-rd-h-e-b-449", "opening_hours": "Mo-Su 06:00-23:00", "brand": "H-E-B", "brand:wikidata": "Q830621"}, "geometry": {"type": "Point", "coordinates": [-99.4733, 27.5754]}},
{"type": "Feature", "id": "HZfwQz0K1zkveNNMqTYQ3QIehn8=", "properties": {"ref": "palmview-h-e-b-448", "@spider": "heb", "addr:full": "6010 W EXPRESSWAY 83", "addr:city": "PALMVIEW", "addr:state": "TX", "addr:postcode": "78572-9139", "addr:country": "USA", "name": "Palmview H-E-B", "phone": "+19565853161", "website": "https://www.heb.com/heb-store/US/tx/palmview/palmview-h-e-b-448", "opening_hours": "Mo-Su 06:00-23:00", "brand": "H-E-B", "brand:wikidata": "Q830621"}, "geometry": {"type": "Point", "coordinates": [-98.38385, 26.23538]}},
{"type": "Feature", "id": "NjPRnbp2wccafzPbIKkRJqNaMbY=", "properties": {"ref": "paredes-and-torres-h-e-b-plus--446", "@spider": "heb", "addr:full": "2155 PAREDES LINE RD", "addr:city": "BROWNSVILLE", "addr:state": "TX", "addr:postcode": "78521-1609", "addr:country": "USA", "name": "Paredes and Torres H-E-B plus!", "phone": "+19565749701", "website": "https://www.heb.com/heb-store/US/tx/brownsville/paredes-and-torres-h-e-b-plus--446", "opening_hours": "Mo-Su 06:00-23:00", "brand": "H-E-B", "brand:wikidata": "Q830621"}, "geometry": {"type": "Point", "coordinates": [-97.48904, 25.95015]}},
{"type": "Feature", "id": "C6yhewW9JAfqXSy0_w18m1p-6GE=", "properties": {"ref": "lockhart-h-e-b-445", "@spider": "heb", "addr:full": "403 SOUTH COLORADO STREET", "addr:city": "LOCKHART", "addr:state": "TX", "addr:postcode": "78644-2702", "addr:country": "USA", "name": "Lockhart H-E-B", "phone": "+15123982301", "website": "https://www.heb.com/heb-store/US/tx/lockhart/lockhart-h-e-b-445", "opening_hours": "Mo-Su 06:00-23:00", "brand": "H-E-B", "brand:wikidata": "Q830621"}, "geometry": {"type": "Point", "coordinates": [-97.66994, 29.88213]}},
{"type": "Feature", "id": "CwtC-IbF88SRDsxGiYFuzY8apME=", "properties": {"ref": "burnet-h-e-b-433", "@spider": "heb", "addr:full": "105 S BOUNDARY", "addr:city": "BURNET", "addr:state": "TX", "addr:postcode": "78611-3201", "addr:country": "USA", "name": "Burnet H-E-B", "phone": "+15127566188", "website": "https://www.heb.com/heb-store/US/tx/burnet/burnet-h-e-b-433", "opening_hours": "Mo-Su 06:00-23:00", "brand": "H-E-B", "brand:wikidata": "Q830621"}, "geometry": {"type": "Point", "coordinates": [-98.22452, 30.7588]}},
{"type": "Feature", "id": "Ke0n2U-wlHtwe72KB_-MKjxaHsE=", "properties": {"ref": "port-lavaca-h-e-b-434", "@spider": "heb", "addr:full": "101 CALHOUN PLAZA", "addr:city": "PORT LAVACA", "addr:state": "TX", "addr:postcode": "77979-2423", "addr:country": "USA", "name": "Port Lavaca H-E-B", "phone": "+13615527523", "website": "https://www.heb.com/heb-store/US/tx/port-lavaca/port-lavaca-h-e-b-434", "opening_hours": "Mo-Su 06:00-23:00", "brand": "H-E-B", "brand:wikidata": "Q830621"}, "geometry": {"type": "Point", "coordinates": [-96.64126, 28.62096]}},
{"type": "Feature", "id": "cd4qpU0xVdNZd3ejEjlXUXQD_Ko=", "properties": {"ref": "lampasas-h-e-b-432", "@spider": "heb", "addr:full": "705 S. KEY AVE.", "addr:city": "LAMPASAS", "addr:state": "TX", "addr:postcode": "76550-3114", "addr:country": "USA", "name": "Lampasas H-E-B", "phone": "+15125563461", "website": "https://www.heb.com/heb-store/US/tx/lampasas/lampasas-h-e-b-432", "opening_hours": "Mo-Su 06:00-23:00", "brand": "H-E-B", "brand:wikidata": "Q830621"}, "geometry": {"type": "Point", "coordinates": [-98.18098, 31.06199]}},
{"type": "Feature", "id": "NBEu7hmt9mP02mZmaFe2EzufCs8=", "properties": {"ref": "uvalde-h-e-b-441", "@spider": "heb", "addr:full": "201 EAST MAIN", "addr:city": "UVALDE", "addr:state": "TX", "addr:postcode": "78801-5638", "addr:country": "USA", "name": "Uvalde H-E-B", "phone": "+18302783352", "website": "https://www.heb.com/heb-store/US/tx/uvalde/uvalde-h-e-b-441", "opening_hours": "Mo-Su 06:00-23:00", "brand": "H-E-B", "brand:wikidata": "Q830621"}, "geometry": {"type": "Point", "coordinates": [-99.78378, 29.21013]}},
{"type": "Feature", "id": "Di5T6_WosWg61LH9XBKxm9gwoEQ=", "properties": {"ref": "edinburg-h-e-b-431", "@spider": "heb", "addr:full": "2700 W FREDDY GONZALES", "addr:city": "EDINBURG", "addr:state": "TX", "addr:postcode": "78539-7312", "addr:country": "USA", "name": "Edinburg H-E-B", "phone": "+19563834083", "website": "https://www.heb.com/heb-store/US/tx/edinburg/edinburg-h-e-b-431", "opening_hours": "Mo-Su 06:00-23:00", "brand": "H-E-B", "brand:wikidata": "Q830621"}, "geometry": {"type": "Point", "coordinates": [-98.1958, 26.29078]}},
{"type": "Feature", "id": "UM0U73uQWxO9I-W1q9LJMsdi42I=", "properties": {"ref": "military-and-goliad-h-e-b-444", "@spider": "heb", "addr:full": "3323 SE MILITARY DR.", "addr:city": "SAN ANTONIO", "addr:state": "TX", "addr:postcode": "78223-3814", "addr:country": "USA", "name": "Military and Goliad H-E-B", "phone": "+12103331441", "website": "https://www.heb.com/heb-store/US/tx/san-antonio/military-and-goliad-h-e-b-444", "opening_hours": "Mo-Su 06:00-23:00", "brand": "H-E-B", "brand:wikidata": "Q830621"}, "geometry": {"type": "Point", "coordinates": [-98.4362, 29.35194]}},
{"type": "Feature", "id": "N8v-kjLT_jXYQiZRnERrqHCZIa8=", "properties": {"ref": "raymondville-h-e-b-429", "@spider": "heb", "addr:full": "405 W. HILDALGO", "addr:city": "RAYMONDVILLE", "addr:state": "TX", "addr:postcode": "78580-3532", "addr:country": "USA", "name": "Raymondville H-E-B", "phone": "+19566896556", "website": "https://www.heb.com/heb-store/US/tx/raymondville/raymondville-h-e-b-429", "opening_hours": "Mo-Su 06:00-22:00", "brand": "H-E-B", "brand:wikidata": "Q830621"}, "geometry": {"type": "Point", "coordinates": [-97.78584, 26.48128]}},
{"type": "Feature", "id": "o59r3PWPS3bDB5DVNAo1Crd-yi4=", "properties": {"ref": "military-and-pleasanton-h-e-b-427", "@spider": "heb", "addr:full": "735 SW MILITARY", "addr:city": "SAN ANTONIO", "addr:state": "TX", "addr:postcode": "78221-1642", "addr:country": "USA", "name": "Military and Pleasanton H-E-B", "phone": "+12109276825", "website": "https://www.heb.com/heb-store/US/tx/san-antonio/military-and-pleasanton-h-e-b-427", "opening_hours": "Mo-Su 06:00-23:00", "brand": "H-E-B", "brand:wikidata": "Q830621"}, "geometry": {"type": "Point", "coordinates": [-98.50277, 29.35666]}},
{"type": "Feature", "id": "qiRnjmmxOXMiVn_sy92FAb73qrQ=", "properties": {"ref": "waxahachie-h-e-b-426", "@spider": "heb", "addr:full": "800 HWY 77", "addr:city": "WAXAHACHIE", "addr:state": "TX", "addr:postcode": "75165-1884", "addr:country": "USA", "name": "Waxahachie H-E-B", "phone": "+19729232283", "website": "https://www.heb.com/heb-store/US/tx/waxahachie/waxahachie-h-e-b-426", "opening_hours": "Mo-Su 06:00-23:00", "brand": "H-E-B", "brand:wikidata": "Q830621"}, "geometry": {"type": "Point", "coordinates": [-96.83983, 32.41159]}},
{"type": "Feature", "id": "TPfarNQCw56TEswM4Z2JbzSPJ6g=", "properties": {"ref": "hancock-center-h-e-b-425", "@spider": "heb", "addr:full": "1000 EAST 41 ST.", "addr:city": "AUSTIN", "addr:state": "TX", "addr:postcode": "78751-4810", "addr:country": "USA", "name": "Hancock Center H-E-B", "phone": "+15124596513", "website": "https://www.heb.com/heb-store/US/tx/austin/hancock-center-h-e-b-425", "opening_hours": "Mo-Su 06:00-23:00", "brand": "H-E-B", "brand:wikidata": "Q830621"}, "geometry": {"type": "Point", "coordinates": [-97.71973, 30.30057]}},
{"type": "Feature", "id": "NnsO1HJY3YIte6XZlMy4AW7Mo8Y=", "properties": {"ref": "brodie-lane-h-e-b-428", "@spider": "heb", "addr:full": "6900 BRODIE LANE", "addr:city": "AUSTIN", "addr:state": "TX", "addr:postcode": "78745-5008", "addr:country": "USA", "name": "Brodie Lane H-E-B", "phone": "+15128918900", "website": "https://www.heb.com/heb-store/US/tx/austin/brodie-lane-h-e-b-428", "opening_hours": "Mo-Su 06:00-23:00", "brand": "H-E-B", "brand:wikidata": "Q830621"}, "geometry": {"type": "Point", "coordinates": [-97.83076, 30.21489]}},
{"type": "Feature", "id": "y5JCKJoUd8kHjARkCnxOsTxaN4M=", "properties": {"ref": "wooded-acres-h-e-b-423", "@spider": "heb", "addr:full": "1301 WOODED ACRES", "addr:city": "WACO", "addr:state": "TX", "addr:postcode": "76710-4437", "addr:country": "USA", "name": "Wooded Acres H-E-B", "phone": "+12547767040", "website": "https://www.heb.com/heb-store/US/tx/waco/wooded-acres-h-e-b-423", "opening_hours": "Mo-Su 06:00-23:00", "brand": "H-E-B", "brand:wikidata": "Q830621"}, "geometry": {"type": "Point", "coordinates": [-97.1894, 31.53274]}},
{"type": "Feature", "id": "ueP_0RFAIwpd7T8nQ5illoMKRgo=", "properties": {"ref": "eagle-pass-h-e-b-419", "@spider": "heb", "addr:full": "2135 E. MAIN", "addr:city": "EAGLE PASS", "addr:state": "TX", "addr:postcode": "78852-4718", "addr:country": "USA", "name": "Eagle Pass H-E-B", "phone": "+18307730345", "website": "https://www.heb.com/heb-store/US/tx/eagle-pass/eagle-pass-h-e-b-419", "opening_hours": "Mo-Su 06:00-23:00", "brand": "H-E-B", "brand:wikidata": "Q830621"}, "geometry": {"type": "Point", "coordinates": [-100.48583, 28.70894]}},
{"type": "Feature", "id": "9uSuoL3BVJYzxFkr_UPtHx1jtMM=", "properties": {"ref": "avenue-f-and-gibbs-h-e-b-418", "@spider": "heb", "addr:full": "200 VETERAN'S BLVD", "addr:city": "DEL RIO", "addr:state": "TX", "addr:postcode": "78840-4658", "addr:country": "USA", "name": "Avenue F and Gibbs H-E-B", "phone": "+18307745666", "website": "https://www.heb.com/heb-store/US/tx/del-rio/avenue-f-and-gibbs-h-e-b-418", "opening_hours": "Mo-Su 06:00-23:00", "brand": "H-E-B", "brand:wikidata": "Q830621"}, "geometry": {"type": "Point", "coordinates": [-100.8998, 29.36632]}},
{"type": "Feature", "id": "F0xGTjnVFLlUFhs7zazaRmPvUNg=", "properties": {"ref": "hondo-h-e-b-424", "@spider": "heb", "addr:full": "609 19TH STREET", "addr:city": "HONDO", "addr:state": "TX", "addr:postcode": "78861-2504", "addr:country": "USA", "name": "Hondo H-E-B", "phone": "+18304264349", "website": "https://www.heb.com/heb-store/US/tx/hondo/hondo-h-e-b-424", "opening_hours": "Mo-Su 07:00-23:00", "brand": "H-E-B", "brand:wikidata": "Q830621"}, "geometry": {"type": "Point", "coordinates": [-99.13501, 29.34784]}},
{"type": "Feature", "id": "5GU0hLwLOWe2j6i2IioDdeXomw4=", "properties": {"ref": "alamo-h-e-b-421", "@spider": "heb", "addr:full": "1211 EAST FRONTAGE RD.", "addr:city": "ALAMO", "addr:state": "TX", "addr:postcode": "78516-2315", "addr:country": "USA", "name": "Alamo H-E-B", "phone": "+19567022289", "website": "https://www.heb.com/heb-store/US/tx/alamo/alamo-h-e-b-421", "opening_hours": "Mo-Su 06:00-23:00", "brand": "H-E-B", "brand:wikidata": "Q830621"}, "geometry": {"type": "Point", "coordinates": [-98.12414, 26.19073]}},
{"type": "Feature", "id": "mUA3xj_lHoxx4GvR4ivbhv9l6Bw=", "properties": {"ref": "la-grange-h-e-b-416", "@spider": "heb", "addr:full": "450 E. TRAVIS", "addr:city": "LA GRANGE", "addr:state": "TX", "addr:postcode": "78945-2655", "addr:country": "USA", "name": "La Grange H-E-B", "phone": "+19799688381", "website": "https://www.heb.com/heb-store/US/tx/la-grange/la-grange-h-e-b-416", "opening_hours": "Mo-Su 06:00-22:00", "brand": "H-E-B", "brand:wikidata": "Q830621"}, "geometry": {"type": "Point", "coordinates": [-96.87264, 29.9073]}},
{"type": "Feature", "id": "taXq9VI3rqd01UUPDvWMMkdnvz4=", "properties": {"ref": "schertz-h-e-b-plus--415", "@spider": "heb", "addr:full": "17460 I.H. 35 NORTH", "addr:city": "SCHERTZ", "addr:state": "TX", "addr:postcode": "78154-1264", "addr:country": "USA", "name": "Schertz H-E-B plus!", "phone": "+12106515105", "website": "https://www.heb.com/heb-store/US/tx/schertz/schertz-h-e-b-plus--415", "opening_hours": "Mo-Su 06:00-23:00", "brand": "H-E-B", "brand:wikidata": "Q830621"}, "geometry": {"type": "Point", "coordinates": [-98.27742, 29.59717]}},
{"type": "Feature", "id": "F2cWqtJCl28E1WoWrEBGfmpok34=", "properties": {"ref": "alameda-texan-trail-medical-district--413", "@spider": "heb", "addr:full": "3133 S. ALAMEDA", "addr:city": "CORPUS CHRISTI", "addr:state": "TX", "addr:postcode": "78404-2505", "addr:country": "USA", "name": "Alameda / Texan Trail (Medical District)", "phone": "+13618553031", "website": "https://www.heb.com/heb-store/US/tx/corpus-christi/alameda-texan-trail-medical-district--413", "opening_hours": "Mo-Su 06:00-23:00", "brand": "H-E-B", "brand:wikidata": "Q830621"}, "geometry": {"type": "Point", "coordinates": [-97.3912, 27.75745]}},
{"type": "Feature", "id": "9dPns7DxU1gdSMuwjF17ibcUxew=", "properties": {"ref": "beeville-h-e-b-412", "@spider": "heb", "addr:full": "100 EAST HOUSTON ST.", "addr:city": "BEEVILLE", "addr:state": "TX", "addr:postcode": "78102-5613", "addr:country": "USA", "name": "Beeville H-E-B", "phone": "+13613584553", "website": "https://www.heb.com/heb-store/US/tx/beeville/beeville-h-e-b-412", "opening_hours": "Mo-Su 07:00-23:00", "brand": "H-E-B", "brand:wikidata": "Q830621"}, "geometry": {"type": "Point", "coordinates": [-97.74667, 28.40071]}},
{"type": "Feature", "id": "pQPIrH0byjyMdGOSNReMXpsxwCc=", "properties": {"ref": "gatesville-h-e-b-403", "@spider": "heb", "addr:full": "1207 E.MAIN", "addr:city": "GATESVILLE", "addr:state": "TX", "addr:postcode": "76528-1628", "addr:country": "USA", "name": "Gatesville H-E-B", "phone": "+12548658491", "website": "https://www.heb.com/heb-store/US/tx/gatesville/gatesville-h-e-b-403", "opening_hours": "Mo-Su 06:00-23:00", "brand": "H-E-B", "brand:wikidata": "Q830621"}, "geometry": {"type": "Point", "coordinates": [-97.7428, 31.43586]}},
{"type": "Feature", "id": "jz5PCa_yxk5lHsmPSECqkI-GWnY=", "properties": {"ref": "brenham-h-e-b-414", "@spider": "heb", "addr:full": "2508 S. DAY ST.", "addr:city": "BRENHAM", "addr:state": "TX", "addr:postcode": "77833-5521", "addr:country": "USA", "name": "Brenham H-E-B", "phone": "+19792779858", "website": "https://www.heb.com/heb-store/US/tx/brenham/brenham-h-e-b-414", "opening_hours": "Mo-Su 06:00-23:00", "brand": "H-E-B", "brand:wikidata": "Q830621"}, "geometry": {"type": "Point", "coordinates": [-96.39591, 30.14381]}},
{"type": "Feature", "id": "rT7wFZSxL80ZlbgOGDCFc2wOh5I=", "properties": {"ref": "bee-cave-h-e-b-404", "@spider": "heb", "addr:full": "12400 W HIGHWAY 71", "addr:city": "BEE CAVE", "addr:state": "TX", "addr:postcode": "78738-6517", "addr:country": "USA", "name": "Bee Cave H-E-B", "phone": "+15122630528", "website": "https://www.heb.com/heb-store/US/tx/bee-cave/bee-cave-h-e-b-404", "opening_hours": "Mo-Su 06:00-23:00", "brand": "H-E-B", "brand:wikidata": "Q830621"}, "geometry": {"type": "Point", "coordinates": [-97.93238, 30.30489]}},
{"type": "Feature", "id": "s9I1_47XjO-m2_zUFARSwc5EIrk=", "properties": {"ref": "kingsville-h-e-b-401", "@spider": "heb", "addr:full": "409 E. KLEBERG", "addr:city": "KINGSVILLE", "addr:state": "TX", "addr:postcode": "78363-3872", "addr:country": "USA", "name": "Kingsville H-E-B", "phone": "+13615950243", "website": "https://www.heb.com/heb-store/US/tx/kingsville/kingsville-h-e-b-401", "opening_hours": "Mo-Su 07:00-23:00", "brand": "H-E-B", "brand:wikidata": "Q830621"}, "geometry": {"type": "Point", "coordinates": [-97.86453, 27.51658]}},
{"type": "Feature", "id": "9qrkypAsHYN99yRHiGoxcWhxbLo=", "properties": {"ref": "pleasanton-h-e-b-411", "@spider": "heb", "addr:full": "219 W OAKLAWN", "addr:city": "PLEASANTON", "addr:state": "TX", "addr:postcode": "78064-4221", "addr:country": "USA", "name": "Pleasanton H-E-B", "phone": "+18302818172", "website": "https://www.heb.com/heb-store/US/tx/pleasanton/pleasanton-h-e-b-411", "opening_hours": "Mo-Su 06:00-23:00", "brand": "H-E-B", "brand:wikidata": "Q830621"}, "geometry": {"type": "Point", "coordinates": [-98.48567, 28.95696]}},
{"type": "Feature", "id": "9n-yv7C14M0gko9eWsVbEdOXvU4=", "properties": {"ref": "de-zavala-h-e-b-395", "@spider": "heb", "addr:full": "12777 IH 10 WEST", "addr:city": "SAN ANTONIO", "addr:state": "TX", "addr:postcode": "78230-1014", "addr:country": "USA", "name": "De Zavala H-E-B", "phone": "+12105583981", "website": "https://www.heb.com/heb-store/US/tx/san-antonio/de-zavala-h-e-b-395", "opening_hours": "Mo-Su 06:00-23:00", "brand": "H-E-B", "brand:wikidata": "Q830621"}, "geometry": {"type": "Point", "coordinates": [-98.5889, 29.56222]}},
{"type": "Feature", "id": "WDisuXiUGiB_lAHh2AJJYWd7P7Y=", "properties": {"ref": "thousand-oaks-h-e-b-398", "@spider": "heb", "addr:full": "2929 THOUSAND OAKS", "addr:city": "SAN ANTONIO", "addr:state": "TX", "addr:postcode": "78247-3312", "addr:country": "USA", "name": "Thousand Oaks H-E-B", "phone": "+12104919508", "website": "https://www.heb.com/heb-store/US/tx/san-antonio/thousand-oaks-h-e-b-398", "opening_hours": "Mo-Su 06:00-23:00", "brand": "H-E-B", "brand:wikidata": "Q830621"}, "geometry": {"type": "Point", "coordinates": [-98.44108, 29.57781]}},
{"type": "Feature", "id": "PCnx_lHCSiSOqEP6cNQq5ol31gY=", "properties": {"ref": "281-and-1604-h-e-b-397", "@spider": "heb", "addr:full": "18140 SAN PEDRO", "addr:city": "SAN ANTONIO", "addr:state": "TX", "addr:postcode": "78232-1421", "addr:country": "USA", "name": "281 and 1604 H-E-B", "phone": "+12104904931", "website": "https://www.heb.com/heb-store/US/tx/san-antonio/281-and-1604-h-e-b-397", "opening_hours": "Mo-Su 06:00-23:00", "brand": "H-E-B", "brand:wikidata": "Q830621"}, "geometry": {"type": "Point", "coordinates": [-98.46828, 29.60772]}},
{"type": "Feature", "id": "Fa1dQgncWpX0-1pykb_ja4YrPhM=", "properties": {"ref": "west-ave-and-jackson-keller-h-e-b-389", "@spider": "heb", "addr:full": "6000 WEST AVENUE", "addr:city": "SAN ANTONIO", "addr:state": "TX", "addr:postcode": "78213-2714", "addr:country": "USA", "name": "West Ave and Jackson Keller H-E-B", "phone": "+12103417289", "website": "https://www.heb.com/heb-store/US/tx/san-antonio/west-ave-and-jackson-keller-h-e-b-389", "opening_hours": "Mo-Su 06:00-23:00", "brand": "H-E-B", "brand:wikidata": "Q830621"}, "geometry": {"type": "Point", "coordinates": [-98.52574, 29.51639]}},
{"type": "Feature", "id": "w2Z7VLceIgs-LmDQ_AufEijgn74=", "properties": {"ref": "belton-h-e-b-plus--39", "@spider": "heb", "addr:full": "2509 NORTH MAIN STREET", "addr:city": "BELTON", "addr:state": "TX", "addr:postcode": "76513-1519", "addr:country": "USA", "name": "Belton H-E-B plus!", "phone": "+12549390856", "website": "https://www.heb.com/heb-store/US/tx/belton/belton-h-e-b-plus--39", "opening_hours": "Mo-Su 06:00-23:00", "brand": "H-E-B", "brand:wikidata": "Q830621"}, "geometry": {"type": "Point", "coordinates": [-97.45759, 31.0805]}},
{"type": "Feature", "id": "EoicIQNW0vIQckSQD8FHNynH2YQ=", "properties": {"ref": "olmos-park-h-e-b-385", "@spider": "heb", "addr:full": "300 OLMOS DRIVE", "addr:city": "SAN ANTONIO", "addr:state": "TX", "addr:postcode": "78212-1958", "addr:country": "USA", "name": "Olmos Park H-E-B", "phone": "+12108297373", "website": "https://www.heb.com/heb-store/US/tx/san-antonio/olmos-park-h-e-b-385", "opening_hours": "Mo-Su 06:00-23:00", "brand": "H-E-B", "brand:wikidata": "Q830621"}, "geometry": {"type": "Point", "coordinates": [-98.497, 29.4707]}},
{"type": "Feature", "id": "G-gLwIdhVetd2W41pi3ZUr2jMYI=", "properties": {"ref": "42nd-st-h-e-b-387", "@spider": "heb", "addr:full": "3801 E 42ND", "addr:city": "ODESSA", "addr:state": "TX", "addr:postcode": "79762-5947", "addr:country": "USA", "name": "42nd St. H-E-B", "phone": "+14323624500", "website": "https://www.heb.com/heb-store/US/tx/odessa/42nd-st-h-e-b-387", "opening_hours": "Mo-Su 06:00-23:00", "brand": "H-E-B", "brand:wikidata": "Q830621"}, "geometry": {"type": "Point", "coordinates": [-102.34383, 31.89134]}},
{"type": "Feature", "id": "HyOD9k08YJuV4758skw-hI8hoE4=", "properties": {"ref": "montgomery-at-walzem-384", "@spider": "heb", "addr:full": "6030 MONTGOMERY ROAD", "addr:city": "SAN ANTONIO", "addr:state": "TX", "addr:postcode": "78239-3233", "addr:country": "USA", "name": "Montgomery at Walzem", "phone": "+12106572944", "website": "https://www.heb.com/heb-store/US/tx/san-antonio/montgomery-at-walzem-384", "opening_hours": "Mo-Su 06:00-23:00", "brand": "H-E-B", "brand:wikidata": "Q830621"}, "geometry": {"type": "Point", "coordinates": [-98.37092, 29.5105]}},
{"type": "Feature", "id": "2iFjQEzQJClVxKrUBUW2pswb9QU=", "properties": {"ref": "harker-heights-h-e-b-381", "@spider": "heb", "addr:full": "601 INDIAN TRAIL", "addr:city": "HARKER HEIGHTS", "addr:state": "TX", "addr:postcode": "76548-1347", "addr:country": "USA", "name": "Harker Heights H-E-B", "phone": "+12546998411", "website": "https://www.heb.com/heb-store/US/tx/harker-heights/harker-heights-h-e-b-381", "opening_hours": "Mo-Su 06:00-23:00", "brand": "H-E-B", "brand:wikidata": "Q830621"}, "geometry": {"type": "Point", "coordinates": [-97.65511, 31.07905]}},
{"type": "Feature", "id": "Qlh2ebz_ENCQW-1AbCy7GHMKA2Q=", "properties": {"ref": "parmer-and-mcneil-h-e-b-388", "@spider": "heb", "addr:full": "6001 WEST PARMER LANE", "addr:city": "AUSTIN", "addr:state": "TX", "addr:postcode": "78727-3901", "addr:country": "USA", "name": "Parmer and McNeil H-E-B", "phone": "+15122490400", "website": "https://www.heb.com/heb-store/US/tx/austin/parmer-and-mcneil-h-e-b-388", "opening_hours": "Mo-Su 06:00-23:00", "brand": "H-E-B", "brand:wikidata": "Q830621"}, "geometry": {"type": "Point", "coordinates": [-97.74278, 30.44181]}},
{"type": "Feature", "id": "9lWHkSsTi60kZFRjq4K2yKVWwLE=", "properties": {"ref": "west-wadley-h-e-b-382", "@spider": "heb", "addr:full": "3325 WEST WADLEY", "addr:city": "MIDLAND", "addr:state": "TX", "addr:postcode": "79707-5714", "addr:country": "USA", "name": "West Wadley H-E-B", "phone": "+14326971471", "website": "https://www.heb.com/heb-store/US/tx/midland/west-wadley-h-e-b-382", "opening_hours": "Mo-Su 06:00-23:00", "brand": "H-E-B", "brand:wikidata": "Q830621"}, "geometry": {"type": "Point", "coordinates": [-102.12562, 32.01955]}},
{"type": "Feature", "id": "_caGubCNfgaRCKgG7MmFSOt0Ud8=", "properties": {"ref": "new-braunfels-h-e-b-at-walnut-380", "@spider": "heb", "addr:full": "651 S. WALNUT", "addr:city": "NEW BRAUNFELS", "addr:state": "TX", "addr:postcode": "78130-5722", "addr:country": "USA", "name": "New Braunfels H-E-B at Walnut", "phone": "+18306080017", "website": "https://www.heb.com/heb-store/US/tx/new-braunfels/new-braunfels-h-e-b-at-walnut-380", "opening_hours": "Mo-Su 06:00-23:00", "brand": "H-E-B", "brand:wikidata": "Q830621"}, "geometry": {"type": "Point", "coordinates": [-98.12695, 29.68878]}},
{"type": "Feature", "id": "vZYL_pc2u-nSu6HCh-TqhTugVy4=", "properties": {"ref": "port-isabel-h-e-b-383", "@spider": "heb", "addr:full": "1679 HIGHWAY 100", "addr:city": "PORT ISABEL", "addr:state": "TX", "addr:postcode": "78578-2806", "addr:country": "USA", "name": "Port Isabel H-E-B", "phone": "+19569431171", "website": "https://www.heb.com/heb-store/US/tx/port-isabel/port-isabel-h-e-b-383", "opening_hours": "Mo-Su 06:00-23:00", "brand": "H-E-B", "brand:wikidata": "Q830621"}, "geometry": {"type": "Point", "coordinates": [-97.2265, 26.07268]}},
{"type": "Feature", "id": "UhZMevXmbZCueEqbTG_OpvSaMjY=", "properties": {"ref": "san-juan-h-e-b-plus--38", "@spider": "heb", "addr:full": "901 WEST EXPRESSWAY 83", "addr:city": "SAN JUAN", "addr:state": "TX", "addr:postcode": "78589-3734", "addr:country": "USA", "name": "San Juan H-E-B plus!", "phone": "+19567810554", "website": "https://www.heb.com/heb-store/US/tx/san-juan/san-juan-h-e-b-plus--38", "opening_hours": "Mo-Su 06:00-23:00", "brand": "H-E-B", "brand:wikidata": "Q830621"}, "geometry": {"type": "Point", "coordinates": [-98.1647, 26.20274]}},
{"type": "Feature", "id": "jMqkdvEbHe3sKzPUikUlKzwzLwg=", "properties": {"ref": "620-and-o-connor-h-e-b-373", "@spider": "heb", "addr:full": "16900 RANCH ROAD 620", "addr:city": "ROUND ROCK", "addr:state": "TX", "addr:postcode": "78681-3922", "addr:country": "USA", "name": "620 and O'Connor H-E-B", "phone": "+15122387909", "website": "https://www.heb.com/heb-store/US/tx/round-rock/620-and-o-connor-h-e-b-373", "opening_hours": "Mo-Su 06:00-23:00", "brand": "H-E-B", "brand:wikidata": "Q830621"}, "geometry": {"type": "Point", "coordinates": [-97.72218, 30.50028]}},
{"type": "Feature", "id": "EeDDxmapKmrgFwx1j2cf5QfGS14=", "properties": {"ref": "mercedes-h-e-b-370", "@spider": "heb", "addr:full": "209 N. TEXAS", "addr:city": "MERCEDES", "addr:state": "TX", "addr:postcode": "78570-2746", "addr:country": "USA", "name": "Mercedes H-E-B", "phone": "+19565140003", "website": "https://www.heb.com/heb-store/US/tx/mercedes/mercedes-h-e-b-370", "opening_hours": "Mo-Su 06:00-23:00", "brand": "H-E-B", "brand:wikidata": "Q830621"}, "geometry": {"type": "Point", "coordinates": [-97.91298, 26.1534]}},
{"type": "Feature", "id": "MYMIWY3PcNbqp9JbCxIcOirqEqw=", "properties": {"ref": "yoakum-h-e-b-355", "@spider": "heb", "addr:full": "201 W. GONZALES", "addr:city": "YOAKUM", "addr:state": "TX", "addr:postcode": "77995-2719", "addr:country": "USA", "name": "Yoakum H-E-B", "phone": "+13612935281", "website": "https://www.heb.com/heb-store/US/tx/yoakum/yoakum-h-e-b-355", "opening_hours": "Mo-Su 07:00-22:00", "brand": "H-E-B", "brand:wikidata": "Q830621"}, "geometry": {"type": "Point", "coordinates": [-97.15053, 29.29278]}},
{"type": "Feature", "id": "xZoJJbfyYiQ7xESMUdzcXmq8ZjE=", "properties": {"ref": "oak-park-h-e-b-372", "@spider": "heb", "addr:full": "1955 NACOGDOCHES", "addr:city": "SAN ANTONIO", "addr:state": "TX", "addr:postcode": "78209-2217", "addr:country": "USA", "name": "Oak Park H-E-B", "phone": "+12109303707", "website": "https://www.heb.com/heb-store/US/tx/san-antonio/oak-park-h-e-b-372", "opening_hours": "Mo-Su 06:00-23:00", "brand": "H-E-B", "brand:wikidata": "Q830621"}, "geometry": {"type": "Point", "coordinates": [-98.45759, 29.50774]}},
{"type": "Feature", "id": "AtPMtSan31PQpiO0B4v5KCxXOKo=", "properties": {"ref": "orange-h-e-b-35", "@spider": "heb", "addr:full": "2424 N.16TH STREET", "addr:city": "ORANGE", "addr:state": "TX", "addr:postcode": "77630-2332", "addr:country": "USA", "name": "Orange H-E-B", "phone": "+14098835105", "website": "https://www.heb.com/heb-store/US/tx/orange/orange-h-e-b-35", "opening_hours": "Mo-Su 07:00-22:00", "brand": "H-E-B", "brand:wikidata": "Q830621"}, "geometry": {"type": "Point", "coordinates": [-93.74735, 30.11468]}},
{"type": "Feature", "id": "mutHimPfUSDelhvIHfOJSH14J64=", "properties": {"ref": "edna-h-e-b-351", "@spider": "heb", "addr:full": "301 N. WELLS ST", "addr:city": "EDNA", "addr:state": "TX", "addr:postcode": "77957-2728", "addr:country": "USA", "name": "Edna H-E-B", "phone": "+13617825218", "website": "https://www.heb.com/heb-store/US/tx/edna/edna-h-e-b-351", "opening_hours": "Mo-Su 07:00-22:00", "brand": "H-E-B", "brand:wikidata": "Q830621"}, "geometry": {"type": "Point", "coordinates": [-96.64731, 28.97947]}},
{"type": "Feature", "id": "lH0jiqg8kjNH6QQXTj7nPFouGl8=", "properties": {"ref": "santa-fe-h-e-b-348", "@spider": "heb", "addr:full": "4206 AVENUE T", "addr:city": "SANTA FE", "addr:state": "TX", "addr:postcode": "77510-8615", "addr:country": "USA", "name": "Santa Fe H-E-B", "phone": "+14099255186", "website": "https://www.heb.com/heb-store/US/tx/santa-fe/santa-fe-h-e-b-348", "opening_hours": "Mo-Su 07:00-22:00", "brand": "H-E-B", "brand:wikidata": "Q830621"}, "geometry": {"type": "Point", "coordinates": [-95.10732, 29.38033]}},
{"type": "Feature", "id": "sU7NEGEtaWXRuuwtR8hn94yY3XA=", "properties": {"ref": "red-bud-lane-and-gattis-school-h-e-b-34", "@spider": "heb", "addr:full": "3750 GATTIS SCHOOL RD", "addr:city": "ROUND ROCK", "addr:state": "TX", "addr:postcode": "78664-4642", "addr:country": "USA", "name": "Red Bud Lane and Gattis School H-E-B", "phone": "+15123413775", "website": "https://www.heb.com/heb-store/US/tx/round-rock/red-bud-lane-and-gattis-school-h-e-b-34", "opening_hours": "Mo-Su 06:00-23:00", "brand": "H-E-B", "brand:wikidata": "Q830621"}, "geometry": {"type": "Point", "coordinates": [-97.61475, 30.49721]}},
{"type": "Feature", "id": "hkk6dw0wM8ePnJ6A4-AgdySpmWg=", "properties": {"ref": "livingston-h-e-b-339", "@spider": "heb", "addr:full": "1509 W. CHURCH", "addr:city": "LIVINGSTON", "addr:state": "TX", "addr:postcode": "77351-3003", "addr:country": "USA", "name": "Livingston H-E-B", "phone": "+19363276306", "website": "https://www.heb.com/heb-store/US/tx/livingston/livingston-h-e-b-339", "opening_hours": "Mo-Su 07:00-22:00", "brand": "H-E-B", "brand:wikidata": "Q830621"}, "geometry": {"type": "Point", "coordinates": [-94.95315, 30.71166]}},
{"type": "Feature", "id": "oFnqrmBccv1nJtVohLaLFS4sPw8=", "properties": {"ref": "pecan-and-ware-h-e-b-334", "@spider": "heb", "addr:full": "3601 PECAN", "addr:city": "MCALLEN", "addr:state": "TX", "addr:postcode": "78501-3512", "addr:country": "USA", "name": "Pecan and Ware H-E-B", "phone": "+19569719881", "website": "https://www.heb.com/heb-store/US/tx/mcallen/pecan-and-ware-h-e-b-334", "opening_hours": "Mo-Su 06:00-23:00", "brand": "H-E-B", "brand:wikidata": "Q830621"}, "geometry": {"type": "Point", "coordinates": [-98.25799, 26.21925]}},
{"type": "Feature", "id": "8PAyEvNe2d2SKTuQ7HuDcOKgEZk=", "properties": {"ref": "aransas-pass-h-e-b-333", "@spider": "heb", "addr:full": "101 E. GOODNIGHT", "addr:city": "ARANSAS PASS", "addr:state": "TX", "addr:postcode": "78336-1919", "addr:country": "USA", "name": "Aransas Pass H-E-B", "phone": "+13617585900", "website": "https://www.heb.com/heb-store/US/tx/aransas-pass/aransas-pass-h-e-b-333", "opening_hours": "Mo-Su 07:00-23:00", "brand": "H-E-B", "brand:wikidata": "Q830621"}, "geometry": {"type": "Point", "coordinates": [-97.14616, 27.90255]}},
{"type": "Feature", "id": "lt2K-XUSarY91e-Ri7eitLRfrqQ=", "properties": {"ref": "southmost-and-30th-h-e-b-332", "@spider": "heb", "addr:full": "2950 SOUTHMOST ROAD", "addr:city": "BROWNSVILLE", "addr:state": "TX", "addr:postcode": "78521-4787", "addr:country": "USA", "name": "Southmost and 30th H-E-B", "phone": "+19565418406", "website": "https://www.heb.com/heb-store/US/tx/brownsville/southmost-and-30th-h-e-b-332", "opening_hours": "Mo-Su 06:00-23:00", "brand": "H-E-B", "brand:wikidata": "Q830621"}, "geometry": {"type": "Point", "coordinates": [-97.46481, 25.90552]}},
{"type": "Feature", "id": "F32QXCQV1QOlWWX3gVQvE4o8sd8=", "properties": {"ref": "bay-city-h-e-b-292", "@spider": "heb", "addr:full": "2700 SEVENTH", "addr:city": "BAY CITY", "addr:state": "TX", "addr:postcode": "77414-5305", "addr:country": "USA", "name": "Bay City H-E-B", "phone": "+19792452990", "website": "https://www.heb.com/heb-store/US/tx/bay-city/bay-city-h-e-b-292", "opening_hours": "Mo-Su 06:00-23:00", "brand": "H-E-B", "brand:wikidata": "Q830621"}, "geometry": {"type": "Point", "coordinates": [-95.95804, 28.98306]}},
{"type": "Feature", "id": "pU05E8tLZqWqEYXvak476o095Z0=", "properties": {"ref": "foster-rd-h-e-b-294", "@spider": "heb", "addr:full": "6580 F.M. 78", "addr:city": "SAN ANTONIO", "addr:state": "TX", "addr:postcode": "78244-1300", "addr:country": "USA", "name": "Foster Rd H-E-B", "phone": "+12106662022", "website": "https://www.heb.com/heb-store/US/tx/san-antonio/foster-rd-h-e-b-294", "opening_hours": "Mo-Su 06:00-23:00", "brand": "H-E-B", "brand:wikidata": "Q830621"}, "geometry": {"type": "Point", "coordinates": [-98.3591, 29.48109]}},
{"type": "Feature", "id": "vz7ZA_h-nFTNgc8_nHPKPmu65Xk=", "properties": {"ref": "spicewood-springs-h-e-b-31", "@spider": "heb", "addr:full": "12860 RESEARCH BLVD", "addr:city": "AUSTIN", "addr:state": "TX", "addr:postcode": "78750-3222", "addr:country": "USA", "name": "Spicewood Springs H-E-B", "phone": "+15125069060", "website": "https://www.heb.com/heb-store/US/tx/austin/spicewood-springs-h-e-b-31", "opening_hours": "Mo-Su 06:00-23:00", "brand": "H-E-B", "brand:wikidata": "Q830621"}, "geometry": {"type": "Point", "coordinates": [-97.7713, 30.43494]}},
{"type": "Feature", "id": "MAZosmVwsWBG8JayNYYfRLDvssM=", "properties": {"ref": "alvin-h-e-b-288", "@spider": "heb", "addr:full": "207 E. SOUTH", "addr:city": "ALVIN", "addr:state": "TX", "addr:postcode": "77511-3553", "addr:country": "USA", "name": "Alvin H-E-B", "phone": "+12815855188", "website": "https://www.heb.com/heb-store/US/tx/alvin/alvin-h-e-b-288", "opening_hours": "Mo-Su 07:00-22:00", "brand": "H-E-B", "brand:wikidata": "Q830621"}, "geometry": {"type": "Point", "coordinates": [-95.24298, 29.40942]}},
{"type": "Feature", "id": "2K22EjtT9pRZ9QIlUWSTnlYWKfo=", "properties": {"ref": "83-and-lincoln-h-e-b-291", "@spider": "heb", "addr:full": "613 S EXPWY 83", "addr:city": "HARLINGEN", "addr:state": "TX", "addr:postcode": "78550-5905", "addr:country": "USA", "name": "83 and Lincoln H-E-B", "phone": "+19564257491", "website": "https://www.heb.com/heb-store/US/tx/harlingen/83-and-lincoln-h-e-b-291", "opening_hours": "Mo-Su 06:00-23:00", "brand": "H-E-B", "brand:wikidata": "Q830621"}, "geometry": {"type": "Point", "coordinates": [-97.71403, 26.18328]}},
{"type": "Feature", "id": "ieOZ9Q-AHrNtpNU-CI0rmqeL5ZE=", "properties": {"ref": "westlake-h-e-b-29", "@spider": "heb", "addr:full": "701 CAPITAL OF TEXAS HWY-BLD C", "addr:city": "WEST LAKE HILLS", "addr:state": "TX", "addr:postcode": "78746-5256", "addr:country": "USA", "name": "Westlake H-E-B", "phone": "+15127329930", "website": "https://www.heb.com/heb-store/US/tx/west-lake-hills/westlake-h-e-b-29", "opening_hours": "Mo-Su 06:00-23:00", "brand": "H-E-B", "brand:wikidata": "Q830621"}, "geometry": {"type": "Point", "coordinates": [-97.82813, 30.2928]}},
{"type": "Feature", "id": "Tb1Wv3Vzgn34IbBsTTzcnHq78AU=", "properties": {"ref": "west-columbia-h-e-b-271", "@spider": "heb", "addr:full": "110 W BRAZOS ST", "addr:city": "WEST COLUMBIA", "addr:state": "TX", "addr:postcode": "77486-2606", "addr:country": "USA", "name": "West Columbia H-E-B", "phone": "+19793456950", "website": "https://www.heb.com/heb-store/US/tx/west-columbia/west-columbia-h-e-b-271", "opening_hours": "Mo-Su 07:00-22:00", "brand": "H-E-B", "brand:wikidata": "Q830621"}, "geometry": {"type": "Point", "coordinates": [-95.64894, 29.14547]}},
{"type": "Feature", "id": "icM0Pnglp2JgMO0CAtKptnmrjes=", "properties": {"ref": "crockett-h-e-b-287", "@spider": "heb", "addr:full": "1035 LOOP 304 EAST", "addr:city": "CROCKETT", "addr:state": "TX", "addr:postcode": "75835-1805", "addr:country": "USA", "name": "Crockett H-E-B", "phone": "+19365445234", "website": "https://www.heb.com/heb-store/US/tx/crockett/crockett-h-e-b-287", "opening_hours": "Mo-Su 07:00-22:00", "brand": "H-E-B", "brand:wikidata": "Q830621"}, "geometry": {"type": "Point", "coordinates": [-95.43722, 31.32162]}},
{"type": "Feature", "id": "Osyi_1m7El5ltJBQy9eifgdsusU=", "properties": {"ref": "bay-colony-h-e-b-28", "@spider": "heb", "addr:full": "2955 SOUTH GULF FREEWAY", "addr:city": "LEAGUE CITY", "addr:state": "TX", "addr:postcode": "77573-6750", "addr:country": "USA", "name": "Bay Colony H-E-B", "phone": "+12813375142", "website": "https://www.heb.com/heb-store/US/tx/league-city/bay-colony-h-e-b-28", "opening_hours": "Mo-Su 06:00-23:00", "brand": "H-E-B", "brand:wikidata": "Q830621"}, "geometry": {"type": "Point", "coordinates": [-95.0926, 29.4677]}},
{"type": "Feature", "id": "XkUe6JmzLvbjSWrU6r3zg9aR_SE=", "properties": {"ref": "marketplace-h-e-b-262", "@spider": "heb", "addr:full": "5601 BANDERA ROAD", "addr:city": "SAN ANTONIO", "addr:state": "TX", "addr:postcode": "78238-1986", "addr:country": "USA", "name": "Marketplace H-E-B", "phone": "+12106472700", "website": "https://www.heb.com/heb-store/US/tx/san-antonio/marketplace-h-e-b-262", "opening_hours": "Mo-Su 06:00-23:00", "brand": "H-E-B", "brand:wikidata": "Q830621"}, "geometry": {"type": "Point", "coordinates": [-98.59477, 29.48119]}},
{"type": "Feature", "id": "APHBUUy9cRMWnrEHObKfeQ76Uok=", "properties": {"ref": "mccreless-market-h-e-b-plus--26", "@spider": "heb", "addr:full": "4100 SOUTH NEW BRAUNFELS", "addr:city": "SAN ANTONIO", "addr:state": "TX", "addr:postcode": "78223-1717", "addr:country": "USA", "name": "McCreless Market H-E-B plus!", "phone": "+12105313100", "website": "https://www.heb.com/heb-store/US/tx/san-antonio/mccreless-market-h-e-b-plus--26", "opening_hours": "Mo-Su 06:00-23:00", "brand": "H-E-B", "brand:wikidata": "Q830621"}, "geometry": {"type": "Point", "coordinates": [-98.46115, 29.37828]}},
{"type": "Feature", "id": "72c3Lbjql1AKi4boPagrniXujD8=", "properties": {"ref": "central-blvd-h-e-b-263", "@spider": "heb", "addr:full": "1628 CENTRAL BLVD", "addr:city": "BROWNSVILLE", "addr:state": "TX", "addr:postcode": "78520-8327", "addr:country": "USA", "name": "Central Blvd H-E-B", "phone": "+19565414816", "website": "https://www.heb.com/heb-store/US/tx/brownsville/central-blvd-h-e-b-263", "opening_hours": "Mo-Su 06:00-23:00", "brand": "H-E-B", "brand:wikidata": "Q830621"}, "geometry": {"type": "Point", "coordinates": [-97.51093, 25.92849]}},
{"type": "Feature", "id": "oeg5LquGRKzDTwsRQe_95IRwnGs=", "properties": {"ref": "hwy-183-and-whitestone-blvd-h-e-b-265", "@spider": "heb", "addr:full": "170 E WHITESTONE BLVD", "addr:city": "CEDAR PARK", "addr:state": "TX", "addr:postcode": "78613-1900", "addr:country": "USA", "name": "Hwy 183 and Whitestone Blvd H-E-B", "phone": "+15122595500", "website": "https://www.heb.com/heb-store/US/tx/cedar-park/hwy-183-and-whitestone-blvd-h-e-b-265", "opening_hours": "Mo-Su 06:00-23:00", "brand": "H-E-B", "brand:wikidata": "Q830621"}, "geometry": {"type": "Point", "coordinates": [-97.82911, 30.5225]}},
{"type": "Feature", "id": "UrBO7k-a44E42anBz0eMsnR90bk=", "properties": {"ref": "cleveland-h-e-b-257", "@spider": "heb", "addr:full": "100 TRULY PLAZA", "addr:city": "CLEVELAND", "addr:state": "TX", "addr:postcode": "77327-4889", "addr:country": "USA", "name": "Cleveland H-E-B", "phone": "+12815920466", "website": "https://www.heb.com/heb-store/US/tx/cleveland/cleveland-h-e-b-257", "opening_hours": "Mo-Su 06:00-23:00", "brand": "H-E-B", "brand:wikidata": "Q830621"}, "geometry": {"type": "Point", "coordinates": [-95.09381, 30.33698]}},
{"type": "Feature", "id": "gTmmiUGfeAC67zMl_gf6jzdAi6U=", "properties": {"ref": "north-hills-h-e-b-269", "@spider": "heb", "addr:full": "10710 RESEARCH BLVD. STE 200", "addr:city": "AUSTIN", "addr:state": "TX", "addr:postcode": "78759-5780", "addr:country": "USA", "name": "North Hills H-E-B", "phone": "+15127948221", "website": "https://www.heb.com/heb-store/US/tx/austin/north-hills-h-e-b-269", "opening_hours": "Mo-Su 06:00-23:00", "brand": "H-E-B", "brand:wikidata": "Q830621"}, "geometry": {"type": "Point", "coordinates": [-97.74832, 30.39868]}},
{"type": "Feature", "id": "n1meMrj9uJtT7n9JRHZ_fITvPrY=", "properties": {"ref": "moore-plaza-h-e-b-270", "@spider": "heb", "addr:full": "5425 S.P.I.D. AT STAPLES", "addr:city": "CORPUS CHRISTI", "addr:state": "TX", "addr:postcode": "78411-5301", "addr:country": "USA", "name": "Moore Plaza H-E-B", "phone": "+13619912695", "website": "https://www.heb.com/heb-store/US/tx/corpus-christi/moore-plaza-h-e-b-270", "opening_hours": "Mo-Su 06:00-23:00", "brand": "H-E-B", "brand:wikidata": "Q830621"}, "geometry": {"type": "Point", "coordinates": [-97.37238, 27.70605]}},
{"type": "Feature", "id": "L6ztQtMLWQrE88jzSJNHwQ3aWAw=", "properties": {"ref": "columbus-h-e-b-256", "@spider": "heb", "addr:full": "2105 MILAM", "addr:city": "COLUMBUS", "addr:state": "TX", "addr:postcode": "78934-3013", "addr:country": "USA", "name": "Columbus H-E-B", "phone": "+19797326253", "website": "https://www.heb.com/heb-store/US/tx/columbus/columbus-h-e-b-256", "opening_hours": "Mo-Su 07:00-22:00", "brand": "H-E-B", "brand:wikidata": "Q830621"}, "geometry": {"type": "Point", "coordinates": [-96.54024, 29.69562]}},
{"type": "Feature", "id": "IRjmbWtyGIBDxZBp_P0l6rXxxXc=", "properties": {"ref": "floresville-h-e-b-25", "@spider": "heb", "addr:full": "925 10TH STREET", "addr:city": "FLORESVILLE", "addr:state": "TX", "addr:postcode": "78114-1851", "addr:country": "USA", "name": "Floresville H-E-B", "phone": "+18303938105", "website": "https://www.heb.com/heb-store/US/tx/floresville/floresville-h-e-b-25", "opening_hours": "Mo-Su 06:00-23:00", "brand": "H-E-B", "brand:wikidata": "Q830621"}, "geometry": {"type": "Point", "coordinates": [-98.15681, 29.14284]}},
{"type": "Feature", "id": "iO35cwpn6XLkh_CaQsmxGxxaccc=", "properties": {"ref": "35-and-calton-h-e-b-255", "@spider": "heb", "addr:full": "4801 SAN DARIO", "addr:city": "LAREDO", "addr:state": "TX", "addr:postcode": "78041-5754", "addr:country": "USA", "name": "35 and Calton H-E-B", "phone": "+19567253061", "website": "https://www.heb.com/heb-store/US/tx/laredo/35-and-calton-h-e-b-255", "opening_hours": "Mo-Su 06:00-23:00", "brand": "H-E-B", "brand:wikidata": "Q830621"}, "geometry": {"type": "Point", "coordinates": [-99.50182, 27.54172]}},
{"type": "Feature", "id": "4QnrgWik_E1w4-p4YkvUXKR9-MU=", "properties": {"ref": "leopard-and-nueces-bay-h-e-b-253", "@spider": "heb", "addr:full": "3500 LEOPARD", "addr:city": "CORPUS CHRISTI", "addr:state": "TX", "addr:postcode": "78408-3204", "addr:country": "USA", "name": "Leopard and Nueces Bay H-E-B", "phone": "+13618829864", "website": "https://www.heb.com/heb-store/US/tx/corpus-christi/leopard-and-nueces-bay-h-e-b-253", "opening_hours": "Mo-Su 07:00-22:00", "brand": "H-E-B", "brand:wikidata": "Q830621"}, "geometry": {"type": "Point", "coordinates": [-97.42774, 27.79695]}},
{"type": "Feature", "id": "HwBCzcdXwlg8K497bZhty0p-xmw=", "properties": {"ref": "east-hopkins-h-e-b-243", "@spider": "heb", "addr:full": "641 EAST HOPKINS STREET", "addr:city": "SAN MARCOS", "addr:state": "TX", "addr:postcode": "78666-7055", "addr:country": "USA", "name": "East Hopkins H-E-B", "phone": "+15123968880", "website": "https://www.heb.com/heb-store/US/tx/san-marcos/east-hopkins-h-e-b-243", "opening_hours": "Mo-Su 06:00-23:00", "brand": "H-E-B", "brand:wikidata": "Q830621"}, "geometry": {"type": "Point", "coordinates": [-97.93132, 29.88489]}},
{"type": "Feature", "id": "snNW8l0budl2-LNaWqxi_xfgOVI=", "properties": {"ref": "corsicana-h-e-b-238", "@spider": "heb", "addr:full": "201 S. 15TH STREET", "addr:city": "CORSICANA", "addr:state": "TX", "addr:postcode": "75110-5138", "addr:country": "USA", "name": "Corsicana H-E-B", "phone": "+19038744778", "website": "https://www.heb.com/heb-store/US/tx/corsicana/corsicana-h-e-b-238", "opening_hours": "Mo-Su 06:00-23:00", "brand": "H-E-B", "brand:wikidata": "Q830621"}, "geometry": {"type": "Point", "coordinates": [-96.46827, 32.09005]}},
{"type": "Feature", "id": "B9EwxyB8zBeFxQYhxBO8pepb0iw=", "properties": {"ref": "grissom-and-tezel-h-e-b-235", "@spider": "heb", "addr:full": "9255 GRISSOM RD", "addr:city": "SAN ANTONIO", "addr:state": "TX", "addr:postcode": "78251-2805", "addr:country": "USA", "name": "Grissom and Tezel H-E-B", "phone": "+12106815071", "website": "https://www.heb.com/heb-store/US/tx/san-antonio/grissom-and-tezel-h-e-b-235", "opening_hours": "Mo-Su 06:00-23:00", "brand": "H-E-B", "brand:wikidata": "Q830621"}, "geometry": {"type": "Point", "coordinates": [-98.66574, 29.48432]}},
{"type": "Feature", "id": "lVT6BHFovmdFw4cHjfjRk-mxRYk=", "properties": {"ref": "wells-branch-h-e-b-236", "@spider": "heb", "addr:full": "1434 WELLS BRANCH PKWY", "addr:city": "PFLUGERVILLE", "addr:state": "TX", "addr:postcode": "78660-3153", "addr:country": "USA", "name": "Wells Branch H-E-B", "phone": "+15122512584", "website": "https://www.heb.com/heb-store/US/tx/pflugerville/wells-branch-h-e-b-236", "opening_hours": "Mo-Su 06:00-23:00", "brand": "H-E-B", "brand:wikidata": "Q830621"}, "geometry": {"type": "Point", "coordinates": [-97.66419, 30.44263]}},
{"type": "Feature", "id": "04UwpLEACIFvVZbc0SFJEkNrztM=", "properties": {"ref": "35-and-west-university-h-e-b-237", "@spider": "heb", "addr:full": "1100 SOUTH IH35", "addr:city": "GEORGETOWN", "addr:state": "TX", "addr:postcode": "78626-5400", "addr:country": "USA", "name": "35 and West University H-E-B", "phone": "+15129305581", "website": "https://www.heb.com/heb-store/US/tx/georgetown/35-and-west-university-h-e-b-237", "opening_hours": "Mo-Su 06:00-23:00", "brand": "H-E-B", "brand:wikidata": "Q830621"}, "geometry": {"type": "Point", "coordinates": [-97.69028, 30.63446]}},
{"type": "Feature", "id": "oFQfo_P1mJx8WmV8rT6q3BFW6-8=", "properties": {"ref": "nacogdoches-and-o-connor-h-e-b-230", "@spider": "heb", "addr:full": "14087 O'CONNOR RD", "addr:city": "SAN ANTONIO", "addr:state": "TX", "addr:postcode": "78247-1979", "addr:country": "USA", "name": "Nacogdoches and O'Connor H-E-B", "phone": "+12106371313", "website": "https://www.heb.com/heb-store/US/tx/san-antonio/nacogdoches-and-o-connor-h-e-b-230", "opening_hours": "Mo-Su 06:00-23:00", "brand": "H-E-B", "brand:wikidata": "Q830621"}, "geometry": {"type": "Point", "coordinates": [-98.3856, 29.56937]}},
{"type": "Feature", "id": "LCv9W1_grO9zjQ0Tj8DEK7vsRlg=", "properties": {"ref": "refugio-h-e-b-234", "@spider": "heb", "addr:full": "206 S. ALAMO", "addr:city": "REFUGIO", "addr:state": "TX", "addr:postcode": "78377-2303", "addr:country": "USA", "name": "Refugio H-E-B", "phone": "+13615265381", "website": "https://www.heb.com/heb-store/US/tx/refugio/refugio-h-e-b-234", "opening_hours": "Mo-Su 07:00-22:00", "brand": "H-E-B", "brand:wikidata": "Q830621"}, "geometry": {"type": "Point", "coordinates": [-97.27549, 28.30394]}},
{"type": "Feature", "id": "pG6F8Qa3ddOqDmV_GhzWvYN38J8=", "properties": {"ref": "wharton-h-e-b-233", "@spider": "heb", "addr:full": "1616 N ALABAMA", "addr:city": "WHARTON", "addr:state": "TX", "addr:postcode": "77488-3204", "addr:country": "USA", "name": "Wharton H-E-B", "phone": "+19792822773", "website": "https://www.heb.com/heb-store/US/tx/wharton/wharton-h-e-b-233", "opening_hours": "Mo-Su 06:00-23:00", "brand": "H-E-B", "brand:wikidata": "Q830621"}, "geometry": {"type": "Point", "coordinates": [-96.08492, 29.32162]}},
{"type": "Feature", "id": "EwHiuT7E_0zns3F3lNXSidMjF0c=", "properties": {"ref": "i-35-and-william-cannon-h-e-b-229", "@spider": "heb", "addr:full": "6607 SOUTH IH 35", "addr:city": "AUSTIN", "addr:state": "TX", "addr:postcode": "78744-3410", "addr:country": "USA", "name": "I 35 and William Cannon H-E-B", "phone": "+15124419266", "website": "https://www.heb.com/heb-store/US/tx/austin/i-35-and-william-cannon-h-e-b-229", "opening_hours": "Mo-Su 06:00-23:00", "brand": "H-E-B", "brand:wikidata": "Q830621"}, "geometry": {"type": "Point", "coordinates": [-97.76922, 30.19107]}},
{"type": "Feature", "id": "8ciLkPt4p_3PlGhC5HfA-LMCvYU=", "properties": {"ref": "83-and-n-texas-h-e-b-231", "@spider": "heb", "addr:full": "1004 N. TEXAS", "addr:city": "WESLACO", "addr:state": "TX", "addr:postcode": "78596-4511", "addr:country": "USA", "name": "83 and N Texas H-E-B", "phone": "+19569689533", "website": "https://www.heb.com/heb-store/US/tx/weslaco/83-and-n-texas-h-e-b-231", "opening_hours": "Mo-Su 06:00-23:00", "brand": "H-E-B", "brand:wikidata": "Q830621"}, "geometry": {"type": "Point", "coordinates": [-97.99096, 26.17103]}},
{"type": "Feature", "id": "CjcEW0MFnUyxHjmuXbQ5u9pH3uE=", "properties": {"ref": "conway-and-9th-st-h-e-b-226", "@spider": "heb", "addr:full": "820 S. CONWAY", "addr:city": "MISSION", "addr:state": "TX", "addr:postcode": "78572-5362", "addr:country": "USA", "name": "Conway and 9th St H-E-B", "phone": "+19565812154", "website": "https://www.heb.com/heb-store/US/tx/mission/conway-and-9th-st-h-e-b-226", "opening_hours": "Mo-Su 06:00-23:00", "brand": "H-E-B", "brand:wikidata": "Q830621"}, "geometry": {"type": "Point", "coordinates": [-98.3262, 26.21354]}},
{"type": "Feature", "id": "ZA4cuO0hftw84biYrg69JPUiCxI=", "properties": {"ref": "slaughter-and-manchaca-h-e-b-227", "@spider": "heb", "addr:full": "2110 WEST SLAUGHTER LN", "addr:city": "AUSTIN", "addr:state": "TX", "addr:postcode": "78748-5992", "addr:country": "USA", "name": "Slaughter and Manchaca H-E-B", "phone": "+15122820182", "website": "https://www.heb.com/heb-store/US/tx/austin/slaughter-and-manchaca-h-e-b-227", "opening_hours": "Mo-Su 06:00-23:00", "brand": "H-E-B", "brand:wikidata": "Q830621"}, "geometry": {"type": "Point", "coordinates": [-97.82509, 30.17524]}},
{"type": "Feature", "id": "1gHxVMgXl080WCHoDP8C2YYDzOw=", "properties": {"ref": "bandera-and-guilbeau-h-e-b-224", "@spider": "heb", "addr:full": "7951 GUILBEAU RD.", "addr:city": "SAN ANTONIO", "addr:state": "TX", "addr:postcode": "78250-3232", "addr:country": "USA", "name": "Bandera and Guilbeau H-E-B", "phone": "+12105230296", "website": "https://www.heb.com/heb-store/US/tx/san-antonio/bandera-and-guilbeau-h-e-b-224", "opening_hours": "Mo-Su 06:00-23:00", "brand": "H-E-B", "brand:wikidata": "Q830621"}, "geometry": {"type": "Point", "coordinates": [-98.64364, 29.51985]}},
{"type": "Feature", "id": "sCjgQ3wM-xYHHi632njfXfQP370=", "properties": {"ref": "alice-h-e-b-223", "@spider": "heb", "addr:full": "1115 E. MAIN", "addr:city": "ALICE", "addr:state": "TX", "addr:postcode": "78332-5046", "addr:country": "USA", "name": "Alice H-E-B", "phone": "+13616686633", "website": "https://www.heb.com/heb-store/US/tx/alice/alice-h-e-b-223", "opening_hours": "Mo-Su 06:00-23:00", "brand": "H-E-B", "brand:wikidata": "Q830621"}, "geometry": {"type": "Point", "coordinates": [-98.06425, 27.75141]}},
{"type": "Feature", "id": "AM4p5FWoAzVJOAzAKY2cC8rzgi4=", "properties": {"ref": "n-10th-and-fern-h-e-b-212", "@spider": "heb", "addr:full": "3200 N. 10TH STREET", "addr:city": "MCALLEN", "addr:state": "TX", "addr:postcode": "78501-1926", "addr:country": "USA", "name": "N 10th and Fern H-E-B", "phone": "+19566317138", "website": "https://www.heb.com/heb-store/US/tx/mcallen/n-10th-and-fern-h-e-b-212", "opening_hours": "Mo-Su 06:00-23:00", "brand": "H-E-B", "brand:wikidata": "Q830621"}, "geometry": {"type": "Point", "coordinates": [-98.22523, 26.23246]}},
{"type": "Feature", "id": "eKb1vACgyXu6nNvKGhYSgJ_rRSI=", "properties": {"ref": "robstown-h-e-b-22", "@spider": "heb", "addr:full": "308 E. MAIN", "addr:city": "ROBSTOWN", "addr:state": "TX", "addr:postcode": "78380-3352", "addr:country": "USA", "name": "Robstown H-E-B", "phone": "+13613874507", "website": "https://www.heb.com/heb-store/US/tx/robstown/robstown-h-e-b-22", "opening_hours": "Mo-Su 07:00-22:00", "brand": "H-E-B", "brand:wikidata": "Q830621"}, "geometry": {"type": "Point", "coordinates": [-97.66608, 27.78963]}},
{"type": "Feature", "id": "W1Hh4kkoku_XcScVgNd7rOgrd7U=", "properties": {"ref": "alameda-and-robert-h-e-b-210", "@spider": "heb", "addr:full": "4320 S. ALAMEDA ST.", "addr:city": "CORPUS CHRISTI", "addr:state": "TX", "addr:postcode": "78412-2412", "addr:country": "USA", "name": "Alameda and Robert H-E-B", "phone": "+13619934840", "website": "https://www.heb.com/heb-store/US/tx/corpus-christi/alameda-and-robert-h-e-b-210", "opening_hours": "Mo-Su 06:00-23:00", "brand": "H-E-B", "brand:wikidata": "Q830621"}, "geometry": {"type": "Point", "coordinates": [-97.37175, 27.73002]}},
{"type": "Feature", "id": "20HBs5tXULj5rroZuV2UXTMMXtk=", "properties": {"ref": "parmer-and-mopac-h-e-b-218", "@spider": "heb", "addr:full": "12407 N. MOPAC EXPWY", "addr:city": "AUSTIN", "addr:state": "TX", "addr:postcode": "78758-2475", "addr:country": "USA", "name": "Parmer and Mopac H-E-B", "phone": "+15123391181", "website": "https://www.heb.com/heb-store/US/tx/austin/parmer-and-mopac-h-e-b-218", "opening_hours": "Mo-Su 06:00-23:00", "brand": "H-E-B", "brand:wikidata": "Q830621"}, "geometry": {"type": "Point", "coordinates": [-97.70326, 30.41883]}},
{"type": "Feature", "id": "nym4dqzq84E4YQ7tjvcqCbxeCrE=", "properties": {"ref": "new-braunfels-and-houston-h-e-b-211", "@spider": "heb", "addr:full": "415 N. NEW BRAUNFELS", "addr:city": "SAN ANTONIO", "addr:state": "TX", "addr:postcode": "78202-3050", "addr:country": "USA", "name": "New Braunfels and Houston H-E-B", "phone": "+12102268531", "website": "https://www.heb.com/heb-store/US/tx/san-antonio/new-braunfels-and-houston-h-e-b-211", "opening_hours": "Mo-Su 07:00-23:00", "brand": "H-E-B", "brand:wikidata": "Q830621"}, "geometry": {"type": "Point", "coordinates": [-98.46143, 29.42444]}},
{"type": "Feature", "id": "uNzWwLxhU6VFSFuHV6r_h-dO4u8=", "properties": {"ref": "las-palmas-h-e-b-205", "@spider": "heb", "addr:full": "721 CASTROVILLE RD", "addr:city": "SAN ANTONIO", "addr:state": "TX", "addr:postcode": "78237-3134", "addr:country": "USA", "name": "Las Palmas H-E-B", "phone": "+12104320949", "website": "https://www.heb.com/heb-store/US/tx/san-antonio/las-palmas-h-e-b-205", "opening_hours": "Mo-Su 06:00-23:00", "brand": "H-E-B", "brand:wikidata": "Q830621"}, "geometry": {"type": "Point", "coordinates": [-98.55132, 29.41734]}},
{"type": "Feature", "id": "SdGHnyHSQWlJqdd2tbYCj5L5U2g=", "properties": {"ref": "guadalupe-and-stone-h-e-b-207", "@spider": "heb", "addr:full": "1301 GUADALUPE ST.", "addr:city": "LAREDO", "addr:state": "TX", "addr:postcode": "78040-5343", "addr:country": "USA", "name": "Guadalupe and Stone H-E-B", "phone": "+19567241147", "website": "https://www.heb.com/heb-store/US/tx/laredo/guadalupe-and-stone-h-e-b-207", "opening_hours": "Mo-Su 06:00-23:00", "brand": "H-E-B", "brand:wikidata": "Q830621"}, "geometry": {"type": "Point", "coordinates": [-99.48344, 27.50656]}},
{"type": "Feature", "id": "tFkLZrwj1Kvc-qs6Zo2_UPUIpwU=", "properties": {"ref": "burnet-rd-h-e-b-202", "@spider": "heb", "addr:full": "5808 BURNET RD", "addr:city": "AUSTIN", "addr:state": "TX", "addr:postcode": "78756-1100", "addr:country": "USA", "name": "Burnet Rd H-E-B", "phone": "+15124538864", "website": "https://www.heb.com/heb-store/US/tx/austin/burnet-rd-h-e-b-202", "opening_hours": "Mo-Su 06:00-23:00", "brand": "H-E-B", "brand:wikidata": "Q830621"}, "geometry": {"type": "Point", "coordinates": [-97.74016, 30.33374]}},
{"type": "Feature", "id": "TUsxkrpTzX6Mb06Hk6YtqXtC5Ro=", "properties": {"ref": "falfurrias-h-e-b-200", "@spider": "heb", "addr:full": "700 S SAINT MARYS ST", "addr:city": "FALFURRIAS", "addr:state": "TX", "addr:postcode": "78355-4365", "addr:country": "USA", "name": "Falfurrias H-E-B", "phone": "+13613253604", "website": "https://www.heb.com/heb-store/US/tx/falfurrias/falfurrias-h-e-b-200", "opening_hours": "Mo-Su 07:00-22:00", "brand": "H-E-B", "brand:wikidata": "Q830621"}, "geometry": {"type": "Point", "coordinates": [-98.14572, 27.22043]}},
{"type": "Feature", "id": "qcwvsMvRzW-avuBZ15d-3gWqGGI=", "properties": {"ref": "lytle-h-e-b-plus--19", "@spider": "heb", "addr:full": "19337 MCDONALD STREET", "addr:city": "LYTLE", "addr:state": "TX", "addr:postcode": "78052-3622", "addr:country": "USA", "name": "Lytle H-E-B plus!", "phone": "+18307725021", "website": "https://www.heb.com/heb-store/US/tx/lytle/lytle-h-e-b-plus--19", "opening_hours": "Mo-Su 06:00-23:00", "brand": "H-E-B", "brand:wikidata": "Q830621"}, "geometry": {"type": "Point", "coordinates": [-98.78924, 29.23224]}},
{"type": "Feature", "id": "xbw05-SyPuhJyS2TXnFYNrlRaAs=", "properties": {"ref": "cypress-market-h-e-b-20", "@spider": "heb", "addr:full": "24224 NORTHWEST FREEWAY", "addr:city": "CYPRESS", "addr:state": "TX", "addr:postcode": "77429-5683", "addr:country": "USA", "name": "Cypress Market H-E-B", "phone": "+12817581100", "website": "https://www.heb.com/heb-store/US/tx/cypress/cypress-market-h-e-b-20", "opening_hours": "Mo-Su 06:00-23:00", "brand": "H-E-B", "brand:wikidata": "Q830621"}, "geometry": {"type": "Point", "coordinates": [-95.6765, 29.95569]}},
{"type": "Feature", "id": "8ld9awoD0Sva8x-BknDnS-e1CPQ=", "properties": {"ref": "blanco-and-west-ave-h-e-b-195", "@spider": "heb", "addr:full": "11551 WEST AVE.", "addr:city": "SAN ANTONIO", "addr:state": "TX", "addr:postcode": "78213-1343", "addr:country": "USA", "name": "Blanco and West Ave H-E-B", "phone": "+12103407976", "website": "https://www.heb.com/heb-store/US/tx/san-antonio/blanco-and-west-ave-h-e-b-195", "opening_hours": "Mo-Su 06:00-23:00", "brand": "H-E-B", "brand:wikidata": "Q830621"}, "geometry": {"type": "Point", "coordinates": [-98.51025, 29.54526]}},
{"type": "Feature", "id": "prxZB8iE7pkHs0xA2Uj4YSKuKY8=", "properties": {"ref": "weber-and-holly-h-e-b-139", "@spider": "heb", "addr:full": "5801 WEBER ROAD", "addr:city": "CORPUS CHRISTI", "addr:state": "TX", "addr:postcode": "78413-3966", "addr:country": "USA", "name": "Weber and Holly H-E-B", "phone": "+13618541911", "website": "https://www.heb.com/heb-store/US/tx/corpus-christi/weber-and-holly-h-e-b-139", "opening_hours": "Mo-Su 06:00-23:00", "brand": "H-E-B", "brand:wikidata": "Q830621"}, "geometry": {"type": "Point", "coordinates": [-97.40529, 27.71118]}},
{"type": "Feature", "id": "GZc3Ol_OdM5ISrw3k-qJgbuuvHQ=", "properties": {"ref": "southland-and-12th-st-h-e-b-136", "@spider": "heb", "addr:full": "1213 S. COMMERCE", "addr:city": "HARLINGEN", "addr:state": "TX", "addr:postcode": "78550-7708", "addr:country": "USA", "name": "Southland and 12th St H-E-B", "phone": "+19564256677", "website": "https://www.heb.com/heb-store/US/tx/harlingen/southland-and-12th-st-h-e-b-136", "opening_hours": "Mo-Su 06:00-23:00", "brand": "H-E-B", "brand:wikidata": "Q830621"}, "geometry": {"type": "Point", "coordinates": [-97.68171, 26.18251]}},
{"type": "Feature", "id": "M1i0PmP__AIBHW4L6iwJ7xuuhsU=", "properties": {"ref": "rio-grande-city-h-e-b-plus--13", "@spider": "heb", "addr:full": "4031 EAST HWY 83", "addr:city": "RIO GRANDE CITY", "addr:state": "TX", "addr:postcode": "78582-4815", "addr:country": "USA", "name": "Rio Grande City H-E-B plus!", "phone": "+19564888439", "website": "https://www.heb.com/heb-store/US/tx/rio-grande-city/rio-grande-city-h-e-b-plus--13", "opening_hours": "Mo-Su 06:00-23:00", "brand": "H-E-B", "brand:wikidata": "Q830621"}, "geometry": {"type": "Point", "coordinates": [-98.80031, 26.37244]}},
{"type": "Feature", "id": "SpfPUSOzGOZanCqPnvlOn9NLqp8=", "properties": {"ref": "crystal-city-h-e-b-117", "@spider": "heb", "addr:full": "514 E. ZAVALA", "addr:city": "CRYSTAL CITY", "addr:state": "TX", "addr:postcode": "78839-2936", "addr:country": "USA", "name": "Crystal City H-E-B", "phone": "+18303742305", "website": "https://www.heb.com/heb-store/US/tx/crystal-city/crystal-city-h-e-b-117", "opening_hours": "Mo-Su 07:00-22:00", "brand": "H-E-B", "brand:wikidata": "Q830621"}, "geometry": {"type": "Point", "coordinates": [-99.82956, 28.6817]}},
{"type": "Feature", "id": "ry3niGRaAXa-jSz8mNV8V_EDjZE=", "properties": {"ref": "lumberton-h-e-b-116", "@spider": "heb", "addr:full": "819 N MAIN ST", "addr:city": "LUMBERTON", "addr:state": "TX", "addr:postcode": "77657-7358", "addr:country": "USA", "name": "Lumberton H-E-B", "phone": "+14097552501", "website": "https://www.heb.com/heb-store/US/tx/lumberton/lumberton-h-e-b-116", "opening_hours": "Mo-Su 07:00-22:00", "brand": "H-E-B", "brand:wikidata": "Q830621"}, "geometry": {"type": "Point", "coordinates": [-94.19982, 30.26761]}},
{"type": "Feature", "id": "tIzZkYZHd_MQ-yk_dnKlPgG3Cf4=", "properties": {"ref": "sinton-h-e-b-115", "@spider": "heb", "addr:full": "106 S. SAN PATRICIO", "addr:city": "SINTON", "addr:state": "TX", "addr:postcode": "78387-2415", "addr:country": "USA", "name": "Sinton H-E-B", "phone": "+13613643270", "website": "https://www.heb.com/heb-store/US/tx/sinton/sinton-h-e-b-115", "opening_hours": "Mo-Su 07:00-22:00", "brand": "H-E-B", "brand:wikidata": "Q830621"}, "geometry": {"type": "Point", "coordinates": [-97.51665, 28.03649]}},
{"type": "Feature", "id": "-pGxGPzNrooDgxNdBlNwbh94mwU=", "properties": {"ref": "sienna-market-h-e-b-110", "@spider": "heb", "addr:full": "8900 HWY 6", "addr:city": "MISSOURI CITY", "addr:state": "TX", "addr:postcode": "77459-6931", "addr:country": "USA", "name": "Sienna Market H-E-B", "phone": "+12817781300", "website": "https://www.heb.com/heb-store/US/tx/missouri-city/sienna-market-h-e-b-110", "opening_hours": "Mo-Su 06:00-23:00", "brand": "H-E-B", "brand:wikidata": "Q830621"}, "geometry": {"type": "Point", "coordinates": [-95.53497, 29.53928]}},
{"type": "Feature", "id": "_ZZ-sWmtxaHSAwmDVS6uOcwcWNM=", "properties": {"ref": "ennis-h-e-b-107", "@spider": "heb", "addr:full": "101 S. CLAY ST", "addr:city": "ENNIS", "addr:state": "TX", "addr:postcode": "75119-4519", "addr:country": "USA", "name": "Ennis H-E-B", "phone": "+19728757720", "website": "https://www.heb.com/heb-store/US/tx/ennis/ennis-h-e-b-107", "opening_hours": "Mo-Su 06:00-23:00", "brand": "H-E-B", "brand:wikidata": "Q830621"}, "geometry": {"type": "Point", "coordinates": [-96.63251, 32.32542]}},
{"type": "Feature", "id": "4DJ2zMqu3osPLwLBwj3ksbhx-lM=", "properties": {"ref": "marlin-h-e-b-104", "@spider": "heb", "addr:full": "435 LIVE OAK", "addr:city": "MARLIN", "addr:state": "TX", "addr:postcode": "76661-2367", "addr:country": "USA", "name": "Marlin H-E-B", "phone": "+12548035501", "website": "https://www.heb.com/heb-store/US/tx/marlin/marlin-h-e-b-104", "opening_hours": "Mo-Su 06:00-23:00", "brand": "H-E-B", "brand:wikidata": "Q830621"}, "geometry": {"type": "Point", "coordinates": [-96.89319, 31.30644]}},
{"type": "Feature", "id": "zcB6ZFAc1IIVaOMSrBetSdCKV_E=", "properties": {"ref": "bunker-hill-h-e-b-109", "@spider": "heb", "addr:full": "9710 KATY FREEWAY", "addr:city": "HOUSTON", "addr:state": "TX", "addr:postcode": "77055-6209", "addr:country": "USA", "name": "Bunker Hill H-E-B", "phone": "+17136475900", "website": "https://www.heb.com/heb-store/US/tx/houston/bunker-hill-h-e-b-109", "opening_hours": "Mo-Su 06:00-23:00", "brand": "H-E-B", "brand:wikidata": "Q830621"}, "geometry": {"type": "Point", "coordinates": [-95.53206, 29.78485]}},
{"type": "Feature", "id": "Xlk6T7zvktLk5yBJASgXMj-w8h0=", "properties": {"ref": "w-w-white-h-e-b-106", "@spider": "heb", "addr:full": "1015 S.W.W. WHITE ROAD", "addr:city": "SAN ANTONIO", "addr:state": "TX", "addr:postcode": "78220-2530", "addr:country": "USA", "name": "W. W. White H-E-B", "phone": "+12103330020", "website": "https://www.heb.com/heb-store/US/tx/san-antonio/w-w-white-h-e-b-106", "opening_hours": "Mo-Su 06:00-23:00", "brand": "H-E-B", "brand:wikidata": "Q830621"}, "geometry": {"type": "Point", "coordinates": [-98.40568, 29.41476]}},
{"type": "Feature", "id": "uRVgX0hkAtTbYN4C-Jas2cTKR1E=", "properties": {"ref": "281-and-evans-road-h-e-b-plus--108", "@spider": "heb", "addr:full": "20935 US HIGHWAY 281 NORTH", "addr:city": "SAN ANTONIO", "addr:state": "TX", "addr:postcode": "78258-7587", "addr:country": "USA", "name": "281 and Evans Road H-E-B plus!", "phone": "+12104912400", "website": "https://www.heb.com/heb-store/US/tx/san-antonio/281-and-evans-road-h-e-b-plus--108", "opening_hours": "Mo-Su 06:00-23:00", "brand": "H-E-B", "brand:wikidata": "Q830621"}, "geometry": {"type": "Point", "coordinates": [-98.45756, 29.63886]}}]}