{"type":"FeatureCollection","features":[{"type": "Feature", "id": "W9CGp_FCPdahSNvCzK3qE6uWvZc=", "properties": {"ref": "217", "@spider": "helzberg_diamonds", "addr:full": "2855 Stevens Creek Blvd Ste 2213", "addr:city": "Santa Clara", "addr:state": "CA", "addr:postcode": "95050", "name": "Valley Fair Mall Jewelry Store", "phone": "(408) 248-3511", "website": "https://stores.helzberg.com/ca/santaclara/jewelry-store-217.html", "opening_hours": "Mo-Su 09:00-21:00", "brand": "Helzberg Diamonds", "brand:wikidata": "Q16995161"}, "geometry": {"type": "Point", "coordinates": [-121.9450002, 37.3255657]}},
{"type": "Feature", "id": "1AGt8RqSDoCVD4h-BmUZJJy5uYQ=", "properties": {"ref": "219", "@spider": "helzberg_diamonds", "addr:full": "1 W FlatIron Crossing Drive ", "addr:city": "Broomfield", "addr:state": "CO", "addr:postcode": "80021", "name": "FlatIron Crossing Jewelry Store", "phone": "(303) 469-6563", "website": "https://stores.helzberg.com/co/broomfield/jewelry-store-219.html", "opening_hours": "Mo-Sa 10:00-21:00; Su 11:00-18:00", "brand": "Helzberg Diamonds", "brand:wikidata": "Q16995161"}, "geometry": {"type": "Point", "coordinates": [-105.133819, 39.9321879]}},
{"type": "Feature", "id": "xuQKqEfJy5C90FC2NKNwDbOYI1s=", "properties": {"ref": "139", "@spider": "helzberg_diamonds", "addr:full": "1233 Rancho Vista Blvd ", "addr:city": "Palmdale", "addr:state": "CA", "addr:postcode": "93551", "name": "Antelope Valley Mall Jewelry Store", "phone": "(661) 274-9477", "website": "https://stores.helzberg.com/ca/palmdale/jewelry-store-139.html", "opening_hours": "Mo-Su 10:00-21:00", "brand": "Helzberg Diamonds", "brand:wikidata": "Q16995161"}, "geometry": {"type": "Point", "coordinates": [-118.1500464, 34.6042429]}},
{"type": "Feature", "id": "ExV6QEQn9voN9lflzNwn5XdnMA8=", "properties": {"ref": "50", "@spider": "helzberg_diamonds", "addr:full": "14200 E Alameda Avenue ", "addr:city": "Aurora", "addr:state": "CO", "addr:postcode": "80012", "name": "Town Center at Aurora Jewelry Store", "phone": "(303) 344-4300", "website": "https://stores.helzberg.com/co/aurora/jewelry-store-50.html", "opening_hours": "Mo-Th 10:00-20:00; Fr-Sa 10:00-21:00; Su 11:00-18:00", "brand": "Helzberg Diamonds", "brand:wikidata": "Q16995161"}, "geometry": {"type": "Point", "coordinates": [-104.8236194, 39.7107665]}},
{"type": "Feature", "id": "KZnAGNY_snAEXLZZDx-csbtH1fw=", "properties": {"ref": "351", "@spider": "helzberg_diamonds", "addr:full": "1 Mills Circle Suite 1014A", "addr:city": "Ontario", "addr:state": "CA", "addr:postcode": "91764", "name": "Ontario Mills Outlet Mall Jewelry Store", "phone": "(909) 919-7213", "website": "https://stores.helzberg.com/ca/ontario/jewelry-store-351.html", "opening_hours": "Mo-Sa 10:00-21:00; Su 11:00-20:00", "brand": "Helzberg Diamonds", "brand:wikidata": "Q16995161"}, "geometry": {"type": "Point", "coordinates": [-117.5503915, 34.0736912]}},
{"type": "Feature", "id": "JCu7bNohfs3XEmrORxc8hXpp2PU=", "properties": {"ref": "324", "@spider": "helzberg_diamonds", "addr:full": "12491 N Mainstreet Suite 3290", "addr:city": "Rancho Cucamonga", "addr:state": "CA", "addr:postcode": "91739", "name": "Victoria Gardens Jewelry Store", "phone": "(909) 899-2266", "website": "https://stores.helzberg.com/ca/ranchocucamonga/jewelry-store-324.html", "opening_hours": "Mo-Sa 10:00-20:00; Su 11:00-19:00", "brand": "Helzberg Diamonds", "brand:wikidata": "Q16995161"}, "geometry": {"type": "Point", "coordinates": [-117.533, 34.111461]}},
{"type": "Feature", "id": "Ad7-6D7gNNDX_TlrGsSClsBOYYU=", "properties": {"ref": "244", "@spider": "helzberg_diamonds", "addr:full": "1151 Galleria Blvd Suite 120", "addr:city": "Roseville", "addr:state": "CA", "addr:postcode": "95678", "name": "Galleria at Roseville Jewelry Store", "phone": "(916) 788-1160", "website": "https://stores.helzberg.com/ca/roseville/jewelry-store-244.html", "opening_hours": "Mo-Th 10:00-20:00; Fr 10:00-21:00; Sa 10:00-20:00; Su 11:00-20:00", "brand": "Helzberg Diamonds", "brand:wikidata": "Q16995161"}, "geometry": {"type": "Point", "coordinates": [-121.269432, 38.7734303]}},
{"type": "Feature", "id": "ans9ie9KjWodcCJY2BscbQJBidM=", "properties": {"ref": "311", "@spider": "helzberg_diamonds", "addr:full": "4201 N Shiloh Drive Space 1670", "addr:city": "Fayetteville", "addr:state": "AR", "addr:postcode": "72703", "name": "Northwest Arkansas Mall Jewelry Store", "phone": "(479) 521-8686", "website": "https://stores.helzberg.com/ar/fayetteville/jewelry-store-311.html", "opening_hours": "Mo-Sa 10:00-20:00; Su 12:00-19:00", "brand": "Helzberg Diamonds", "brand:wikidata": "Q16995161"}, "geometry": {"type": "Point", "coordinates": [-94.1485217, 36.1283211]}},
{"type": "Feature", "id": "eoOj1QyxzXCOKjATNBj_2T2IAHI=", "properties": {"ref": "86", "@spider": "helzberg_diamonds", "addr:full": "500 Inland Center Drive Space 346", "addr:city": "San Bernardino", "addr:state": "CA", "addr:postcode": "92408", "name": "Inland Center Jewelry Store", "phone": "(909) 381-3319", "website": "https://stores.helzberg.com/ca/sanbernardino/jewelry-store-86.html", "opening_hours": "Mo-Tu 10:00-21:00; We-Fr 10:00-22:00; Sa 10:00-21:00; Su 11:00-19:00", "brand": "Helzberg Diamonds", "brand:wikidata": "Q16995161"}, "geometry": {"type": "Point", "coordinates": [-117.2946186, 34.0916354]}},
{"type": "Feature", "id": "p4LjTv7qkpLy_RixlzGccMWQDjg=", "properties": {"ref": "151", "@spider": "helzberg_diamonds", "addr:full": "1285 Galleria at Tyler Space E113", "addr:city": "Riverside", "addr:state": "CA", "addr:postcode": "92503", "name": "Galleria at Tyler Jewelry Store", "phone": "(951) 687-3694", "website": "https://stores.helzberg.com/ca/riverside/jewelry-store-151.html", "opening_hours": "Mo-Sa 10:00-21:00; Su 11:00-19:00", "brand": "Helzberg Diamonds", "brand:wikidata": "Q16995161"}, "geometry": {"type": "Point", "coordinates": [-117.456652, 33.909406]}},
{"type": "Feature", "id": "S-XewA5Mwft_vCtZ7FsNfPB1JIE=", "properties": {"ref": "195", "@spider": "helzberg_diamonds", "addr:full": "1710 Briargate Blvd Suite 471", "addr:city": "Colorado Springs", "addr:state": "CO", "addr:postcode": "80920", "name": "Chapel Hills Mall Jewelry Store", "phone": "(719) 264-7657", "website": "https://stores.helzberg.com/co/coloradosprings/jewelry-store-195.html", "opening_hours": "Mo-Sa 11:00-20:00; Su 11:00-17:00", "brand": "Helzberg Diamonds", "brand:wikidata": "Q16995161"}, "geometry": {"type": "Point", "coordinates": [-104.794477, 38.9476978]}},
{"type": "Feature", "id": "3uDZHY72I28AeyHPT-FcKcqCp28=", "properties": {"ref": "161", "@spider": "helzberg_diamonds", "addr:full": "22500 Town Circle Space 2166", "addr:city": "Moreno Valley", "addr:state": "CA", "addr:postcode": "92553", "name": "Moreno Valley Mall Jewelry Store", "phone": "(951) 653-7669", "website": "https://stores.helzberg.com/ca/morenovalley/jewelry-store-161.html", "opening_hours": "Mo-Sa 09:00-22:00; Su 10:00-20:00", "brand": "Helzberg Diamonds", "brand:wikidata": "Q16995161"}, "geometry": {"type": "Point", "coordinates": [-117.2701835, 33.9388636]}},
{"type": "Feature", "id": "mmlvSadGZG7zgLhWHen_yMgNq5g=", "properties": {"ref": "352", "@spider": "helzberg_diamonds", "addr:full": "2774 Livermore Outlets Drive Space 650", "addr:city": "Livermore", "addr:state": "CA", "addr:postcode": "94551", "name": "San Francisco Premium Outlets Jewelry Store", "phone": "(925) 456-0541", "website": "https://stores.helzberg.com/ca/livermore/jewelry-store-352.html", "opening_hours": "Mo-Sa 10:00-21:00; Su 11:00-19:00", "brand": "Helzberg Diamonds", "brand:wikidata": "Q16995161"}, "geometry": {"type": "Point", "coordinates": [-121.8449678, 37.6987867]}},
{"type": "Feature", "id": "HExzOUolgmZQebxjl7IQNTMZIWE=", "properties": {"ref": "259", "@spider": "helzberg_diamonds", "addr:full": "601 Southcenter Mall ", "addr:city": "Seattle", "addr:state": "WA", "addr:postcode": "98188", "name": "Southcenter Jewelry Store", "phone": "(206) 444-0840", "website": "https://stores.helzberg.com/wa/seattle/jewelry-store-259.html", "opening_hours": "Mo-Th 11:00-19:00; Fr 10:00-21:00; Sa 10:00-20:00; Su 11:00-19:00", "brand": "Helzberg Diamonds", "brand:wikidata": "Q16995161"}, "geometry": {"type": "Point", "coordinates": [-122.259034, 47.458959]}},
{"type": "Feature", "id": "lCz88Q-O_Cu_CWsQKKgXGhhHBpQ=", "properties": {"ref": "88", "@spider": "helzberg_diamonds", "addr:full": "1123 Galleria Way Space D006", "addr:city": "Glendale", "addr:state": "CA", "addr:postcode": "91210", "name": "Glendale Galleria Jewelry Store", "phone": "(818) 246-8241", "website": "https://stores.helzberg.com/ca/glendale/jewelry-store-88.html", "opening_hours": "Mo-Sa 10:00-21:00; Su 11:00-20:00", "brand": "Helzberg Diamonds", "brand:wikidata": "Q16995161"}, "geometry": {"type": "Point", "coordinates": [-118.258814, 34.145081]}},
{"type": "Feature", "id": "oTPwK4lDzHrt5Ro_S1QPB3SlqjY=", "properties": {"ref": "232", "@spider": "helzberg_diamonds", "addr:full": "200 E Via Rancho Pkwy Suite 331", "addr:city": "Escondido", "addr:state": "CA", "addr:postcode": "92025", "name": "North County Fair Jewelry Store", "phone": "(760) 745-6420", "website": "https://stores.helzberg.com/ca/escondido/jewelry-store-232.html", "opening_hours": "Mo-Th 10:00-21:00; Fr-Su 10:00-22:00", "brand": "Helzberg Diamonds", "brand:wikidata": "Q16995161"}, "geometry": {"type": "Point", "coordinates": [-117.0658197, 33.0708079]}},
{"type": "Feature", "id": "HYZRrkTB879XAQc-15yIyBio02M=", "properties": {"ref": "340", "@spider": "helzberg_diamonds", "addr:full": "12300 Jefferson Avenue ", "addr:city": "Newport News", "addr:state": "VA", "addr:postcode": "23602", "name": "Patrick Henry Mall Jewelry Store", "phone": "(757) 882-8905", "website": "https://stores.helzberg.com/va/newportnews/jewelry-store-340.html", "opening_hours": "Mo-Sa 10:00-21:00; Su 11:00-19:00", "brand": "Helzberg Diamonds", "brand:wikidata": "Q16995161"}, "geometry": {"type": "Point", "coordinates": [-76.4957077, 37.1122267]}},
{"type": "Feature", "id": "Im4jtEnicXQ7tjSm6FixbPsHjzM=", "properties": {"ref": "223", "@spider": "helzberg_diamonds", "addr:full": "244 Sun Valley Mall Space D116", "addr:city": "Concord", "addr:state": "CA", "addr:postcode": "94520", "name": "Sun Valley Mall Jewelry Store", "phone": "(925) 671-2571", "website": "https://stores.helzberg.com/ca/concord/jewelry-store-223.html", "opening_hours": "Mo-Sa 10:00-21:00; Su 11:00-19:00", "brand": "Helzberg Diamonds", "brand:wikidata": "Q16995161"}, "geometry": {"type": "Point", "coordinates": [-122.0617372, 37.9672445]}},
{"type": "Feature", "id": "5NEjqXiWM1q1xvK8qo-UrllW6PQ=", "properties": {"ref": "165", "@spider": "helzberg_diamonds", "addr:full": "4800 Golf Road Box 12", "addr:city": "Eau Claire", "addr:state": "WI", "addr:postcode": "54701", "name": "Oakwood Mall Eau Claire Jewelry Store", "phone": "(715) 833-2322", "website": "https://stores.helzberg.com/wi/eauclaire/jewelry-store-165.html", "opening_hours": "Mo-Sa 10:00-21:00; Su 11:00-19:00", "brand": "Helzberg Diamonds", "brand:wikidata": "Q16995161"}, "geometry": {"type": "Point", "coordinates": [-91.4382213, 44.7777062]}},
{"type": "Feature", "id": "Ugg8oh14vpVk4ivaTaCP_7tUMxA=", "properties": {"ref": "206", "@spider": "helzberg_diamonds", "addr:full": "7956L Tysons Corner Center ", "addr:city": "McLean", "addr:state": "VA", "addr:postcode": "22102", "name": "Tysons Corner Center Jewelry Store", "phone": "(703) 848-9008", "website": "https://stores.helzberg.com/va/mclean/jewelry-store-206.html", "opening_hours": "Mo-Sa 10:00-21:00; Su 11:00-19:00", "brand": "Helzberg Diamonds", "brand:wikidata": "Q16995161"}, "geometry": {"type": "Point", "coordinates": [-77.221136, 38.917892]}},
{"type": "Feature", "id": "z8uNrPtMPo5-lNC0V1A4JVi2Siw=", "properties": {"ref": "216", "@spider": "helzberg_diamonds", "addr:full": "300 Monticello Avenue Space 145", "addr:city": "Norfolk", "addr:state": "VA", "addr:postcode": "23510", "name": "MacArthur Center Jewelry Store", "phone": "(757) 627-5840", "website": "https://stores.helzberg.com/va/norfolk/jewelry-store-216.html", "opening_hours": "Mo-Sa 10:00-20:00; Su 11:00-19:00", "brand": "Helzberg Diamonds", "brand:wikidata": "Q16995161"}, "geometry": {"type": "Point", "coordinates": [-76.2879162, 36.8492953]}},
{"type": "Feature", "id": "RCcMkZPRgcDXm55hbG3v14ot8vc=", "properties": {"ref": "257", "@spider": "helzberg_diamonds", "addr:full": "550 Spotsylvania Mall ", "addr:city": "Fredericksburg", "addr:state": "VA", "addr:postcode": "22407", "name": "Spotsylvania Mall Jewelry Store", "phone": "(540) 786-8242", "website": "https://stores.helzberg.com/va/fredericksburg/jewelry-store-257.html", "opening_hours": "Mo-Sa 10:00-21:00; Su 11:00-18:00", "brand": "Helzberg Diamonds", "brand:wikidata": "Q16995161"}, "geometry": {"type": "Point", "coordinates": [-77.5148702, 38.2939942]}},
{"type": "Feature", "id": "0HaCMuZyFxeP07R5jzsRoFpzIhs=", "properties": {"ref": "212", "@spider": "helzberg_diamonds", "addr:full": "4601 S Broadway Avenue Ste. G06A", "addr:city": "Tyler", "addr:state": "TX", "addr:postcode": "75703", "name": "Broadway Square Jewelry Store", "phone": "(903) 509-1029", "website": "https://stores.helzberg.com/tx/tyler/jewelry-store-212.html", "opening_hours": "Mo-Sa 10:00-21:00; Su 12:00-18:00", "brand": "Helzberg Diamonds", "brand:wikidata": "Q16995161"}, "geometry": {"type": "Point", "coordinates": [-95.3027361, 32.2991781]}},
{"type": "Feature", "id": "XHky6Pka7gLoiMqCtzx_UmShMwA=", "properties": {"ref": "225", "@spider": "helzberg_diamonds", "addr:full": "4502 S Steele Street Space 365A", "addr:city": "Tacoma", "addr:state": "WA", "addr:postcode": "98409", "name": "Tacoma Mall Jewelry Store", "phone": "(253) 474-7775", "website": "https://stores.helzberg.com/wa/tacoma/jewelry-store-225.html", "opening_hours": "Mo-Sa 10:00-21:00; Su 11:00-19:00", "brand": "Helzberg Diamonds", "brand:wikidata": "Q16995161"}, "geometry": {"type": "Point", "coordinates": [-122.4678569, 47.2164165]}},
{"type": "Feature", "id": "S6lnL6cTe_puFnGBio5-KIQP1eU=", "properties": {"ref": "226", "@spider": "helzberg_diamonds", "addr:full": "3000 184th Street SW Suite 502", "addr:city": "Lynnwood", "addr:state": "WA", "addr:postcode": "98037", "name": "Alderwood Mall Jewelry Store", "phone": "(425) 774-6956", "website": "https://stores.helzberg.com/wa/lynnwood/jewelry-store-226.html", "opening_hours": "Mo-Sa 10:00-21:00; Su 11:00-19:00", "brand": "Helzberg Diamonds", "brand:wikidata": "Q16995161"}, "geometry": {"type": "Point", "coordinates": [-122.2725709, 47.8299542]}},
{"type": "Feature", "id": "IybdN4us4ujWprLegde8VNjb7eA=", "properties": {"ref": "639", "@spider": "helzberg_diamonds", "addr:full": "690 Southpark Blvd ", "addr:city": "Colonial Heights", "addr:state": "VA", "addr:postcode": "23834", "name": "Colonial Heights Jewelry Store", "phone": "(804) 520-0471", "website": "https://stores.helzberg.com/va/colonialheights/jewelry-store-639.html", "opening_hours": "Mo-Sa 10:00-20:00; Su 11:00-18:00", "brand": "Helzberg Diamonds", "brand:wikidata": "Q16995161"}, "geometry": {"type": "Point", "coordinates": [-77.3894566, 37.2479492]}},
{"type": "Feature", "id": "HpQcK7MKkfq-ArapkIP0igcdJ28=", "properties": {"ref": "218", "@spider": "helzberg_diamonds", "addr:full": "7400 San Pedro Avenue Suite 1680", "addr:city": "San Antonio", "addr:state": "TX", "addr:postcode": "78216", "name": "North Star Mall Jewelry Store", "phone": "(210) 525-8611", "website": "https://stores.helzberg.com/tx/sanantonio/jewelry-store-218.html", "opening_hours": "Mo-Sa 10:00-21:00; Su 11:00-19:00", "brand": "Helzberg Diamonds", "brand:wikidata": "Q16995161"}, "geometry": {"type": "Point", "coordinates": [-98.4956074, 29.5188576]}},
{"type": "Feature", "id": "tHo0syE3WFKTEVeWE4VF1Dcjgn8=", "properties": {"ref": "507", "@spider": "helzberg_diamonds", "addr:full": "3939 S Interstate 35 Suite 303", "addr:city": "San Marcos", "addr:state": "TX", "addr:postcode": "78666", "name": "San Marcos Premium Outlets Jewelry Store", "phone": "(512) 393-2902", "website": "https://stores.helzberg.com/tx/sanmarcos/jewelry-store-507.html", "opening_hours": "Mo-Sa 10:00-21:00; Su 10:00-19:00", "brand": "Helzberg Diamonds", "brand:wikidata": "Q16995161"}, "geometry": {"type": "Point", "coordinates": [-97.980348, 29.828766]}},
{"type": "Feature", "id": "LumBQBZevE303XnuZXnFlTh5Jy8=", "properties": {"ref": "290", "@spider": "helzberg_diamonds", "addr:full": "1100 S Hayes Street ", "addr:city": "Arlington", "addr:state": "VA", "addr:postcode": "22202", "name": "Fashion Centre at Pentagon City Jewelry Store", "phone": "(703) 415-2440", "website": "https://stores.helzberg.com/va/arlington/jewelry-store-290.html", "opening_hours": "Mo-Sa 10:00-21:00; Su 11:00-18:00", "brand": "Helzberg Diamonds", "brand:wikidata": "Q16995161"}, "geometry": {"type": "Point", "coordinates": [-77.0605838, 38.8632757]}},
{"type": "Feature", "id": "duMH5EhdVQfW8bTBoL8eQh-WxMY=", "properties": {"ref": "187", "@spider": "helzberg_diamonds", "addr:full": "16535 Southwest Frwy Suite 880", "addr:city": "Sugar Land", "addr:state": "TX", "addr:postcode": "77479", "name": "First Colony Mall Jewelry Store", "phone": "(281) 980-5544", "website": "https://stores.helzberg.com/tx/sugarland/jewelry-store-187.html", "opening_hours": "Mo-Sa 10:00-21:00; Su 11:00-19:00", "brand": "Helzberg Diamonds", "brand:wikidata": "Q16995161"}, "geometry": {"type": "Point", "coordinates": [-95.6244465, 29.5919326]}},
{"type": "Feature", "id": "BaLsqq2J8n9NOLF2QqrfrRMT4jY=", "properties": {"ref": "269", "@spider": "helzberg_diamonds", "addr:full": "1201 Lake Woodlands Drive Suite #2058", "addr:city": "The Woodlands", "addr:state": "TX", "addr:postcode": "77380", "name": "The Woodlands Jewelry Store", "phone": "(281) 681-1679", "website": "https://stores.helzberg.com/tx/thewoodlands/jewelry-store-269.html", "opening_hours": "Mo-Sa 10:00-21:00; Su 11:00-19:00", "brand": "Helzberg Diamonds", "brand:wikidata": "Q16995161"}, "geometry": {"type": "Point", "coordinates": [-95.45537, 30.1639591]}},
{"type": "Feature", "id": "6J5t2LKMyb_TAPUwd1Nry7Xs0XM=", "properties": {"ref": "236", "@spider": "helzberg_diamonds", "addr:full": "2200 S 10th Street Space P06", "addr:city": "McAllen", "addr:state": "TX", "addr:postcode": "78503", "name": "La Plaza Mall Jewelry Store", "phone": "(956) 972-1851", "website": "https://stores.helzberg.com/tx/mcallen/jewelry-store-236.html", "opening_hours": "Mo-Th 10:00-21:00; Fr 10:00-22:00; Sa 10:00-21:00; Su 11:00-19:00", "brand": "Helzberg Diamonds", "brand:wikidata": "Q16995161"}, "geometry": {"type": "Point", "coordinates": [-98.2359957, 26.1852761]}},
{"type": "Feature", "id": "wkWihc48GmB7ufrFavMuDDtsmro=", "properties": {"ref": "207", "@spider": "helzberg_diamonds", "addr:full": "6301 NW Loop 410 Space G8", "addr:city": "San Antonio", "addr:state": "TX", "addr:postcode": "78238", "name": "Ingram Park Mall Jewelry Store", "phone": "(210) 682-9201", "website": "https://stores.helzberg.com/tx/sanantonio/jewelry-store-207.html", "opening_hours": "Mo-Sa 09:00-22:00; Su 11:00-19:00", "brand": "Helzberg Diamonds", "brand:wikidata": "Q16995161"}, "geometry": {"type": "Point", "coordinates": [-98.621127, 29.4690708]}},
{"type": "Feature", "id": "n43S6RJL9iURXpXLSX--obNsq24=", "properties": {"ref": "522", "@spider": "helzberg_diamonds", "addr:full": "5000 Katy Mills Circle Sp 220A", "addr:city": "Katy", "addr:state": "TX", "addr:postcode": "77494-4402", "name": "Katy Mills Outlet Jewelry Store", "phone": "(346) 307-8761", "website": "https://stores.helzberg.com/tx/katy/jewelry-store-522.html", "opening_hours": "Mo-Sa 10:00-21:00; Su 11:00-19:00", "brand": "Helzberg Diamonds", "brand:wikidata": "Q16995161"}, "geometry": {"type": "Point", "coordinates": [-95.8084296, 29.7760483]}},
{"type": "Feature", "id": "5NravpggLF-NKjiNN4V4G4eHlf0=", "properties": {"ref": "191", "@spider": "helzberg_diamonds", "addr:full": "1101 Melbourne Road Suite 3055", "addr:city": "Hurst", "addr:state": "TX", "addr:postcode": "76053", "name": "Northeast Mall Jewelry Store", "phone": "(817) 284-5311", "website": "https://stores.helzberg.com/tx/hurst/jewelry-store-191.html", "opening_hours": "Mo-Th 10:00-21:00; Fr-Sa 09:00-21:00; Su 11:00-19:00", "brand": "Helzberg Diamonds", "brand:wikidata": "Q16995161"}, "geometry": {"type": "Point", "coordinates": [-97.2002438, 32.8300589]}},
{"type": "Feature", "id": "AaZzEhmLlNZjCoGvhEO7kHBcc2E=", "properties": {"ref": "210", "@spider": "helzberg_diamonds", "addr:full": "20131 Highway 59 N Space 1094", "addr:city": "Humble", "addr:state": "TX", "addr:postcode": "77338", "name": "Deerbrook Mall Jewelry Store", "phone": "(281) 446-8134", "website": "https://stores.helzberg.com/tx/humble/jewelry-store-210.html", "opening_hours": "Mo-Sa 10:00-21:00; Su 11:00-19:00", "brand": "Helzberg Diamonds", "brand:wikidata": "Q16995161"}, "geometry": {"type": "Point", "coordinates": [-95.2702395, 30.0094843]}},
{"type": "Feature", "id": "qJa-8zLC1N33REmL02J192y84Pk=", "properties": {"ref": "79", "@spider": "helzberg_diamonds", "addr:full": "1598 Willowbrook Mall ", "addr:city": "Houston", "addr:state": "TX", "addr:postcode": "77070", "name": "Willowbrook Mall Jewelry Store", "phone": "(281) 890-6561", "website": "https://stores.helzberg.com/tx/houston/jewelry-store-79.html", "opening_hours": "Mo-Sa 10:00-21:00; Su 11:00-19:00", "brand": "Helzberg Diamonds", "brand:wikidata": "Q16995161"}, "geometry": {"type": "Point", "coordinates": [-95.5391298, 29.9601453]}},
{"type": "Feature", "id": "YSJPsDtHMaBtcit3QblqRMWoyeQ=", "properties": {"ref": "126", "@spider": "helzberg_diamonds", "addr:full": "303 Memorial City Way ", "addr:city": "Houston", "addr:state": "TX", "addr:postcode": "77024", "name": "Memorial City Jewelry Store", "phone": "(713) 467-4872", "website": "https://stores.helzberg.com/tx/houston/jewelry-store-126.html", "opening_hours": "Mo-Sa 10:00-21:00; Su 11:00-19:00", "brand": "Helzberg Diamonds", "brand:wikidata": "Q16995161"}, "geometry": {"type": "Point", "coordinates": [-95.540345, 29.78125]}},
{"type": "Feature", "id": "xIndqE_ZbC5Cn72ht52yJPPiZ5k=", "properties": {"ref": "229", "@spider": "helzberg_diamonds", "addr:full": "2601 Preston Road Space 1152 & 1150", "addr:city": "Frisco", "addr:state": "TX", "addr:postcode": "75034", "name": "Stonebriar Centre Jewelry Store", "phone": "(972) 731-0407", "website": "https://stores.helzberg.com/tx/frisco/jewelry-store-229.html", "opening_hours": "Mo-Sa 10:00-21:00; Su 11:00-19:00", "brand": "Helzberg Diamonds", "brand:wikidata": "Q16995161"}, "geometry": {"type": "Point", "coordinates": [-96.81132, 33.0991992]}},
{"type": "Feature", "id": "xtT1MqTWV4YdT7Ean4_OW_PDs8o=", "properties": {"ref": "155", "@spider": "helzberg_diamonds", "addr:full": "1020 Baybrook Mall ", "addr:city": "Friendswood", "addr:state": "TX", "addr:postcode": "77546", "name": "Baybrook Mall Jewelry Store", "phone": "(281) 280-8663", "website": "https://stores.helzberg.com/tx/friendswood/jewelry-store-155.html", "opening_hours": "Mo-Sa 10:00-21:00; Su 11:00-19:00", "brand": "Helzberg Diamonds", "brand:wikidata": "Q16995161"}, "geometry": {"type": "Point", "coordinates": [-95.1532015, 29.542752]}},
{"type": "Feature", "id": "mIktWcbmP5oy4TqOcIvVo5V3ubU=", "properties": {"ref": "628", "@spider": "helzberg_diamonds", "addr:full": "8924 Tehama Ridge Pkwy Suite 220", "addr:city": "Fort Worth", "addr:state": "TX", "addr:postcode": "76177", "name": "Presidio Towne Crossing Jewelry Store", "phone": "(682) 707-0691", "website": "https://stores.helzberg.com/tx/fortworth/jewelry-store-628.html", "opening_hours": "Mo-Sa 10:00-20:00; Su 11:00-19:00", "brand": "Helzberg Diamonds", "brand:wikidata": "Q16995161"}, "geometry": {"type": "Point", "coordinates": [-97.3215455, 32.9023869]}},
{"type": "Feature", "id": "JTWvi_h0V-MnspJgEL_MVZqbRj4=", "properties": {"ref": "523", "@spider": "helzberg_diamonds", "addr:full": "15853 N Fwy #1195", "addr:city": "Fort Worth", "addr:state": "TX", "addr:postcode": "76177", "name": "Fort Worth Outlets Jewelry Store", "phone": "(682) 831-1926", "website": "https://stores.helzberg.com/tx/fortworth/jewelry-store-523.html", "opening_hours": "Mo-Sa 11:00-19:00; Su 12:00-18:00", "brand": "Helzberg Diamonds", "brand:wikidata": "Q16995161"}, "geometry": {"type": "Point", "coordinates": [-97.282007, 33.022171]}},
{"type": "Feature", "id": "uReRNMvsYSuoukk6yc2rLbbj8CM=", "properties": {"ref": "118", "@spider": "helzberg_diamonds", "addr:full": "4800 S Hulen Street ", "addr:city": "Fort Worth", "addr:state": "TX", "addr:postcode": "76132", "name": "Hulen Mall Jewelry Store", "phone": "(817) 370-9071", "website": "https://stores.helzberg.com/tx/fortworth/jewelry-store-118.html", "opening_hours": "Mo-Th 11:00-19:00; Fr-Sa 11:00-20:00; Su 12:00-18:00", "brand": "Helzberg Diamonds", "brand:wikidata": "Q16995161"}, "geometry": {"type": "Point", "coordinates": [-97.3989982, 32.6786145]}},
{"type": "Feature", "id": "tUz5AVDY5x4T8oqCTpXysN32TTY=", "properties": {"ref": "146", "@spider": "helzberg_diamonds", "addr:full": "8401 Gateway Blvd West Space N-4", "addr:city": "El Paso", "addr:state": "TX", "addr:postcode": "79925", "name": "Cielo Vista Mall Jewelry Store", "phone": "(915) 772-2527", "website": "https://stores.helzberg.com/tx/elpaso/jewelry-store-146.html", "opening_hours": "Mo-Th 10:00-20:00; Fr 10:00-21:00; Sa 10:00-20:00; Su 12:00-18:00", "brand": "Helzberg Diamonds", "brand:wikidata": "Q16995161"}, "geometry": {"type": "Point", "coordinates": [-106.37976, 31.776085]}},
{"type": "Feature", "id": "mUkqZ8ULpf4HKDddkvWfB6Lp57E=", "properties": {"ref": "529", "@spider": "helzberg_diamonds", "addr:full": "29300 Hempstead Road Ste. 846", "addr:city": "Cypress", "addr:state": "TX", "addr:postcode": "77433-4252", "name": "Houston Premium Outlets Jewelry Store", "phone": "(346) 254-6433", "website": "https://stores.helzberg.com/tx/cypress/jewelry-store-529.html", "opening_hours": "Mo-Sa 10:00-21:00; Su 11:00-19:00", "brand": "Helzberg Diamonds", "brand:wikidata": "Q16995161"}, "geometry": {"type": "Point", "coordinates": [-95.7573375, 29.996689]}},
{"type": "Feature", "id": "pm8iL74gbp2mUmlWyy1sWOXGOg8=", "properties": {"ref": "184", "@spider": "helzberg_diamonds", "addr:full": "11200 Lakeline Mall Drive Sp. F1", "addr:city": "Cedar Park", "addr:state": "TX", "addr:postcode": "78613", "name": "Lakeline Mall Jewelry Store", "phone": "(512) 257-0235", "website": "https://stores.helzberg.com/tx/cedarpark/jewelry-store-184.html", "opening_hours": "Mo-Th 10:00-21:00; Fr 10:00-22:00; Sa 10:00-21:00; Su 00:00-18:00", "brand": "Helzberg Diamonds", "brand:wikidata": "Q16995161"}, "geometry": {"type": "Point", "coordinates": [-97.8072249, 30.4700139]}},
{"type": "Feature", "id": "koM1kS3Q8wQ2g4Y-IgwLB2XRoaY=", "properties": {"ref": "80", "@spider": "helzberg_diamonds", "addr:full": "2901 S Capital of Texas Hwy Space K3", "addr:city": "Austin", "addr:state": "TX", "addr:postcode": "78746", "name": "Barton Creek Square Jewelry Store", "phone": "(512) 327-6921", "website": "https://stores.helzberg.com/tx/austin/jewelry-store-80.html", "opening_hours": "Mo-Sa 10:00-21:00; Su 12:00-18:00", "brand": "Helzberg Diamonds", "brand:wikidata": "Q16995161"}, "geometry": {"type": "Point", "coordinates": [-97.806914, 30.258027]}},
{"type": "Feature", "id": "2s8cuLu7jkaF4qmxrdbwGPEVhC8=", "properties": {"ref": "111", "@spider": "helzberg_diamonds", "addr:full": "3811 S Cooper Street Suite 2128", "addr:city": "Arlington", "addr:state": "TX", "addr:postcode": "76015", "name": "The Parks at Arlington Jewelry Store", "phone": "(817) 468-3636", "website": "https://stores.helzberg.com/tx/arlington/jewelry-store-111.html", "opening_hours": "Mo-Sa 10:00-21:00; Su 11:00-19:00", "brand": "Helzberg Diamonds", "brand:wikidata": "Q16995161"}, "geometry": {"type": "Point", "coordinates": [-97.1298483, 32.6799491]}},
{"type": "Feature", "id": "NNLoh6zr412v4-87lrzx6Eo_TT8=", "properties": {"ref": "528", "@spider": "helzberg_diamonds", "addr:full": "218 Opry Mills Dr Ste 618", "addr:city": "Nashville", "addr:state": "TN", "addr:postcode": "37214", "name": "Opry Mills Outlet Jewelry Store", "phone": "(615) 986-5949", "website": "https://stores.helzberg.com/tn/nashville/jewelry-store-528.html", "opening_hours": "Mo-Sa 10:00-21:00; Su 11:00-19:00", "brand": "Helzberg Diamonds", "brand:wikidata": "Q16995161"}, "geometry": {"type": "Point", "coordinates": [-86.6952687, 36.2046289]}},
{"type": "Feature", "id": "ABCRzA6wxe6azsPGGwM6rZ3U3k8=", "properties": {"ref": "180", "@spider": "helzberg_diamonds", "addr:full": "7600 Kingston Pike Suite 1150A", "addr:city": "Knoxville", "addr:state": "TN", "addr:postcode": "37919", "name": "West Town Mall Jewelry Store", "phone": "(865) 470-4858", "website": "https://stores.helzberg.com/tn/knoxville/jewelry-store-180.html", "opening_hours": "Mo-We 11:00-20:00; Th-Sa 10:00-21:00; Su 12:00-18:00", "brand": "Helzberg Diamonds", "brand:wikidata": "Q16995161"}, "geometry": {"type": "Point", "coordinates": [-84.0412756, 35.9229645]}},
{"type": "Feature", "id": "9XCZe1HZ0Gn-rgHdOu3T-kUHzno=", "properties": {"ref": "134", "@spider": "helzberg_diamonds", "addr:full": "4001 West 41st St Suite 215", "addr:city": "Sioux Falls", "addr:state": "SD", "addr:postcode": "57106", "name": "The Empire Mall Jewelry Store", "phone": "(605) 361-9771", "website": "https://stores.helzberg.com/sd/siouxfalls/jewelry-store-134.html", "opening_hours": "Mo-Th 10:00-20:00; Fr-Sa 10:00-21:00; Su 12:00-18:00", "brand": "Helzberg Diamonds", "brand:wikidata": "Q16995161"}, "geometry": {"type": "Point", "coordinates": [-96.7738508, 43.5116646]}},
{"type": "Feature", "id": "Sjtn8EzQsohdHGG-W2Xm4BPEPPA=", "properties": {"ref": "117", "@spider": "helzberg_diamonds", "addr:full": "205 W Blackstock Road Suite 110", "addr:city": "Spartanburg", "addr:state": "SC", "addr:postcode": "29301", "name": "WestGate Mall Jewelry Store", "phone": "(864) 587-6040", "website": "https://stores.helzberg.com/sc/spartanburg/jewelry-store-117.html", "opening_hours": "Mo-Sa 10:00-21:00; Su 11:00-19:00", "brand": "Helzberg Diamonds", "brand:wikidata": "Q16995161"}, "geometry": {"type": "Point", "coordinates": [-81.994847, 34.9405919]}},
{"type": "Feature", "id": "vfGh08o17YzxuTZKgeVEwP6nXUU=", "properties": {"ref": "119", "@spider": "helzberg_diamonds", "addr:full": "700 Haywood Road Suite 2012A", "addr:city": "Greenville", "addr:state": "SC", "addr:postcode": "29607", "name": "Haywood Mall Jewelry Store", "phone": "(864) 234-7577", "website": "https://stores.helzberg.com/sc/greenville/jewelry-store-119.html", "opening_hours": "Mo-Sa 10:00-21:00; Su 12:00-19:00", "brand": "Helzberg Diamonds", "brand:wikidata": "Q16995161"}, "geometry": {"type": "Point", "coordinates": [-82.333651, 34.850118]}},
{"type": "Feature", "id": "vHwwsDaQJTOfJNqrXpKVuW3PzQ8=", "properties": {"ref": "292", "@spider": "helzberg_diamonds", "addr:full": "301 S Hills Village Room 2055A", "addr:city": "Pittsburgh", "addr:state": "PA", "addr:postcode": "15241", "name": "South Hills Village Jewelry Store", "phone": "(412) 835-9471", "website": "https://stores.helzberg.com/pa/pittsburgh/jewelry-store-292.html", "opening_hours": "Mo-Sa 10:00-21:00; Su 11:00-18:00", "brand": "Helzberg Diamonds", "brand:wikidata": "Q16995161"}, "geometry": {"type": "Point", "coordinates": [-80.0564538, 40.3431797]}},
{"type": "Feature", "id": "02fNaBbHu27ugrr8M7x-aLkq-Ew=", "properties": {"ref": "357", "@spider": "helzberg_diamonds", "addr:full": "160 N Gulph Road Ste. 2208B Suite 2208B", "addr:city": "King of Prussia", "addr:state": "PA", "addr:postcode": "19406", "name": "The Plaza at King of Prussia Jewelry Store", "phone": "(610) 265-8330", "website": "https://stores.helzberg.com/pa/kingofprussia/jewelry-store-357.html", "opening_hours": "Mo-Th 11:00-19:00; Fr-Sa 10:00-20:00; Su 12:00-18:00", "brand": "Helzberg Diamonds", "brand:wikidata": "Q16995161"}, "geometry": {"type": "Point", "coordinates": [-75.3860311, 40.0893932]}},
{"type": "Feature", "id": "0NmT8PYUNqILSEruT21YYb_xGiU=", "properties": {"ref": "642", "@spider": "helzberg_diamonds", "addr:full": "1038 E Lancaster Avenue ", "addr:city": "Downingtown", "addr:state": "PA", "addr:postcode": "19335", "name": "Brandywine Square Jewelry Store", "phone": "(610) 518-0664", "website": "https://stores.helzberg.com/pa/downingtown/jewelry-store-642.html", "opening_hours": "Mo-Sa 10:00-20:00; Su 11:00-19:00", "brand": "Helzberg Diamonds", "brand:wikidata": "Q16995161"}, "geometry": {"type": "Point", "coordinates": [-75.6793995, 40.0177939]}},
{"type": "Feature", "id": "XXQbTORksc16Hhfn-SrN-pjE3FE=", "properties": {"ref": "353", "@spider": "helzberg_diamonds", "addr:full": "1001 N Arney Rd Suite 1018", "addr:city": "Woodburn", "addr:state": "OR", "addr:postcode": "97071", "name": "Woodburn Premium Outlets Jewelry Store", "phone": "(503) 981-1417", "website": "https://stores.helzberg.com/or/woodburn/jewelry-store-353.html", "opening_hours": "Mo-Sa 10:00-20:00; Su 10:00-19:00", "brand": "Helzberg Diamonds", "brand:wikidata": "Q16995161"}, "geometry": {"type": "Point", "coordinates": [-122.878519, 45.1561405]}},
{"type": "Feature", "id": "GW_UyWQBejuwzpTU8k6ZgJ8Bf0M=", "properties": {"ref": "203", "@spider": "helzberg_diamonds", "addr:full": "9618 SW Washington Square Road ", "addr:city": "Tigard", "addr:state": "OR", "addr:postcode": "97223", "name": "Washington Square Jewelry Store", "phone": "(503) 670-7885", "website": "https://stores.helzberg.com/or/tigard/jewelry-store-203.html", "opening_hours": "Mo-Sa 10:00-22:00; Su 11:00-20:00", "brand": "Helzberg Diamonds", "brand:wikidata": "Q16995161"}, "geometry": {"type": "Point", "coordinates": [-122.7813121, 45.4500891]}},
{"type": "Feature", "id": "YPAtrqr64YYK3LTHZbTJv3PWW6k=", "properties": {"ref": "162", "@spider": "helzberg_diamonds", "addr:full": "1901 NW Expressway Suite 1038", "addr:city": "Oklahoma City", "addr:state": "OK", "addr:postcode": "73118", "name": "Penn Square Mall Jewelry Store", "phone": "(405) 843-6020", "website": "https://stores.helzberg.com/ok/oklahomacity/jewelry-store-162.html", "opening_hours": "Mo-Sa 10:00-21:00; Su 12:00-18:00", "brand": "Helzberg Diamonds", "brand:wikidata": "Q16995161"}, "geometry": {"type": "Point", "coordinates": [-97.5440106, 35.5246909]}},
{"type": "Feature", "id": "hUMH95NDl0P8V6yRa4A4l3tbuHs=", "properties": {"ref": "602", "@spider": "helzberg_diamonds", "addr:full": "2290 Miamisburg Centerville Rd ", "addr:city": "Dayton", "addr:state": "OH", "addr:postcode": "45459", "name": "Dayton South Jewelry Store", "phone": "(937) 291-0186", "website": "https://stores.helzberg.com/oh/dayton/jewelry-store-602.html", "opening_hours": "Mo-Sa 10:00-20:00; Su 11:00-19:00", "brand": "Helzberg Diamonds", "brand:wikidata": "Q16995161"}, "geometry": {"type": "Point", "coordinates": [-84.2122784, 39.6340358]}},
{"type": "Feature", "id": "a4P53o1csmr-Cg9Jo6tln9LTArs=", "properties": {"ref": "600", "@spider": "helzberg_diamonds", "addr:full": "4466 Everhard Rd NW ", "addr:city": "Canton", "addr:state": "OH", "addr:postcode": "44718", "name": "Belden Village Jewelry Store", "phone": "(330) 497-7165", "website": "https://stores.helzberg.com/oh/canton/jewelry-store-600.html", "opening_hours": "Mo-Sa 10:00-20:00; Su 11:00-19:00", "brand": "Helzberg Diamonds", "brand:wikidata": "Q16995161"}, "geometry": {"type": "Point", "coordinates": [-81.431742, 40.858638]}},
{"type": "Feature", "id": "NQaHq6lTGnvqY3vK9srWt1OgjGI=", "properties": {"ref": "114", "@spider": "helzberg_diamonds", "addr:full": "7021 S Memorial Dr Suite 223A", "addr:city": "Tulsa", "addr:state": "OK", "addr:postcode": "74133", "name": "Woodland Hills Mall Jewelry Store", "phone": "(918) 254-1552", "website": "https://stores.helzberg.com/ok/tulsa/jewelry-store-114.html", "opening_hours": "Mo-Fr 10:00-21:00; Sa 09:00-21:00; Su 12:00-18:00", "brand": "Helzberg Diamonds", "brand:wikidata": "Q16995161"}, "geometry": {"type": "Point", "coordinates": [-95.8862869, 36.0621006]}},
{"type": "Feature", "id": "1p1rLrBXVHBgtt6-Hv4sbCFNjNQ=", "properties": {"ref": "157", "@spider": "helzberg_diamonds", "addr:full": "2501 W Memorial Rd Space 251", "addr:city": "Oklahoma City", "addr:state": "OK", "addr:postcode": "73134", "name": "Quail Springs Mall Jewelry Store", "phone": "(405) 752-9693", "website": "https://stores.helzberg.com/ok/oklahomacity/jewelry-store-157.html", "opening_hours": "Mo-Sa 10:00-21:00; Su 11:00-19:00", "brand": "Helzberg Diamonds", "brand:wikidata": "Q16995161"}, "geometry": {"type": "Point", "coordinates": [-97.5597204, 35.6103599]}},
{"type": "Feature", "id": "G7jKvDF9G-BKu_9bxfejh5nIFiA=", "properties": {"ref": "194", "@spider": "helzberg_diamonds", "addr:full": "5043 Tuttle Crossing Blvd Suite 220", "addr:city": "Dublin", "addr:state": "OH", "addr:postcode": "43016", "name": "Tuttle Crossing Jewelry Store", "phone": "(614) 760-2590", "website": "https://stores.helzberg.com/oh/dublin/jewelry-store-194.html", "opening_hours": "Mo-Sa 10:00-21:00; Su 11:00-18:00", "brand": "Helzberg Diamonds", "brand:wikidata": "Q16995161"}, "geometry": {"type": "Point", "coordinates": [-83.1323201, 40.0732776]}},
{"type": "Feature", "id": "-5FVjlPPR4UkBiek-J_o3UlkHWA=", "properties": {"ref": "651", "@spider": "helzberg_diamonds", "addr:full": "740 SW 19th St Suite A", "addr:city": "Moore", "addr:state": "OK", "addr:postcode": "73160", "name": "Moore Oklahoma Jewelry Store", "phone": "(405) 300-6004", "website": "https://stores.helzberg.com/ok/moore/jewelry-store-651.html", "opening_hours": "Mo-Sa 10:00-20:00; Su 11:00-19:00", "brand": "Helzberg Diamonds", "brand:wikidata": "Q16995161"}, "geometry": {"type": "Point", "coordinates": [-97.500072, 35.3197805]}},
{"type": "Feature", "id": "1h_VDOEqYUjF1DliZTjw_JN1JUw=", "properties": {"ref": "338", "@spider": "helzberg_diamonds", "addr:full": "1 Garden State Plaza Spc D-1", "addr:city": "Paramus", "addr:state": "NJ", "addr:postcode": "07652", "name": "Garden State Plaza Jewelry Store", "phone": "(201) 843-7979", "website": "https://stores.helzberg.com/nj/paramus/jewelry-store-338.html", "opening_hours": "Mo-Sa 09:00-22:00", "brand": "Helzberg Diamonds", "brand:wikidata": "Q16995161"}, "geometry": {"type": "Point", "coordinates": [-74.076143, 40.91773]}},
{"type": "Feature", "id": "WzhBVuEWGPGyN0a0yjtBrrMwxmo=", "properties": {"ref": "267", "@spider": "helzberg_diamonds", "addr:full": "630 Old Country Rd Unit 1145A", "addr:city": "Garden City", "addr:state": "NY", "addr:postcode": "11530", "name": "Roosevelt Field Mall Jewelry Store", "phone": "(516) 294-0178", "website": "https://stores.helzberg.com/ny/gardencity/jewelry-store-267.html", "opening_hours": "Mo-Th 10:00-21:00; Fr 10:00-22:00; Sa 10:00-21:00; Su 11:00-20:00", "brand": "Helzberg Diamonds", "brand:wikidata": "Q16995161"}, "geometry": {"type": "Point", "coordinates": [-73.6135758, 40.7399709]}},
{"type": "Feature", "id": "PyS1KUvgTpbAX4cjLXmsuPxpu0Y=", "properties": {"ref": "276", "@spider": "helzberg_diamonds", "addr:full": "219 Woodbridge Center Drive ", "addr:city": "Woodbridge", "addr:state": "NJ", "addr:postcode": "07095", "name": "Woodbridge Center Jewelry Store", "phone": "(732) 596-9094", "website": "https://stores.helzberg.com/nj/woodbridge/jewelry-store-276.html", "opening_hours": "Mo-Sa 10:00-21:00; Su 11:00-19:00", "brand": "Helzberg Diamonds", "brand:wikidata": "Q16995161"}, "geometry": {"type": "Point", "coordinates": [-74.3011617, 40.5547635]}},
{"type": "Feature", "id": "IVw0zF0bB7CTMC7KmDfe4Uo055o=", "properties": {"ref": "277", "@spider": "helzberg_diamonds", "addr:full": "1110 Willowbrook Mall ", "addr:city": "Wayne", "addr:state": "NJ", "addr:postcode": "07470", "name": "Willowbrook Mall Jewelry Store", "phone": "(973) 812-2323", "website": "https://stores.helzberg.com/nj/wayne/jewelry-store-277.html", "opening_hours": "Mo-Sa 10:00-21:00; Su 11:00-19:00", "brand": "Helzberg Diamonds", "brand:wikidata": "Q16995161"}, "geometry": {"type": "Point", "coordinates": [-74.259468, 40.888459]}},
{"type": "Feature", "id": "LfzcpwCCNornZbxUXiC83IPpCuU=", "properties": {"ref": "603", "@spider": "helzberg_diamonds", "addr:full": "3286 Pentagon Blvd Suite G", "addr:city": "Beavercreek", "addr:state": "OH", "addr:postcode": "45431", "name": "Fairfield Crossing Jewelry Store", "phone": "(937) 320-0036", "website": "https://stores.helzberg.com/oh/beavercreek/jewelry-store-603.html", "opening_hours": "Mo-Sa 10:00-20:00; Su 11:00-19:00", "brand": "Helzberg Diamonds", "brand:wikidata": "Q16995161"}, "geometry": {"type": "Point", "coordinates": [-84.0528225, 39.7709704]}},
{"type": "Feature", "id": "q9MbQZeGesy4XfUYvXzhyx9sv3k=", "properties": {"ref": "222", "@spider": "helzberg_diamonds", "addr:full": "6600 Menaul Boulevard NE Suite D-003", "addr:city": "Albuquerque", "addr:state": "NM", "addr:postcode": "87110", "name": "Coronado Center Jewelry Store", "phone": "(505) 888-1300", "website": "https://stores.helzberg.com/nm/albuquerque/jewelry-store-222.html", "opening_hours": "Mo-Sa 10:00-20:00; Su 11:00-19:00", "brand": "Helzberg Diamonds", "brand:wikidata": "Q16995161"}, "geometry": {"type": "Point", "coordinates": [-106.5702173, 35.1071051]}},
{"type": "Feature", "id": "73lFlNFX0m5lfN2J2gaFqZG0n2Y=", "properties": {"ref": "278", "@spider": "helzberg_diamonds", "addr:full": "2655 Richmond Avenue Ste. 2130", "addr:city": "Staten Island", "addr:state": "NY", "addr:postcode": "10314", "name": "Staten Island Mall Jewelry Store", "phone": "(718) 761-9249", "website": "https://stores.helzberg.com/ny/statenisland/jewelry-store-278.html", "opening_hours": "Mo-Sa 10:00-21:00; Su 11:00-19:00", "brand": "Helzberg Diamonds", "brand:wikidata": "Q16995161"}, "geometry": {"type": "Point", "coordinates": [-74.1659155, 40.582418]}},
{"type": "Feature", "id": "czAa32Mald1dCVNKfM1kGleRiXU=", "properties": {"ref": "637", "@spider": "helzberg_diamonds", "addr:full": "4307 Black Horse Pike ", "addr:city": "Mays Landing", "addr:state": "NJ", "addr:postcode": "08330", "name": "Hamilton Jewelry Store", "phone": "(609) 569-1999", "website": "https://stores.helzberg.com/nj/mayslanding/jewelry-store-637.html", "opening_hours": "Mo-Sa 10:00-20:00; Su 11:00-19:00", "brand": "Helzberg Diamonds", "brand:wikidata": "Q16995161"}, "geometry": {"type": "Point", "coordinates": [-74.638894, 39.450016]}},
{"type": "Feature", "id": "P-CjgWB0kst-r0Cta__ozJsnkZI=", "properties": {"ref": "504", "@spider": "helzberg_diamonds", "addr:full": "21209 Nebraska Crossing Dr. Ste F133", "addr:city": "Gretna", "addr:state": "NE", "addr:postcode": "68028", "name": "Nebraska Crossing Outlets Jewelry Store", "phone": "(402) 332-3812", "website": "https://stores.helzberg.com/ne/gretna/jewelry-store-504.html", "opening_hours": "Mo-Fr 11:00-20:00; Sa 10:00-20:00; Su 11:00-18:00", "brand": "Helzberg Diamonds", "brand:wikidata": "Q16995161"}, "geometry": {"type": "Point", "coordinates": [-96.25037, 41.098925]}},
{"type": "Feature", "id": "2BHkNNfUjHcqbf80LeS7kulLrKI=", "properties": {"ref": "524", "@spider": "helzberg_diamonds", "addr:full": "651 Kapkowski Rd ", "addr:city": "Elizabeth", "addr:state": "NJ", "addr:postcode": "07201", "name": "Mills at Jersey Gardens Jewelry Store", "phone": "(908) 787-1096", "website": "https://stores.helzberg.com/nj/elizabeth/jewelry-store-524.html", "opening_hours": "Mo-Sa 10:00-21:00; Su 11:00-20:00", "brand": "Helzberg Diamonds", "brand:wikidata": "Q16995161"}, "geometry": {"type": "Point", "coordinates": [-74.1713372, 40.6601883]}},
{"type": "Feature", "id": "gdhUHHOyRRG6s0t5BBWHdUHsbaE=", "properties": {"ref": "153", "@spider": "helzberg_diamonds", "addr:full": "3001 S 144th Street Suite 1072", "addr:city": "Omaha", "addr:state": "NE", "addr:postcode": "68144", "name": "Oak View Mall Jewelry Store", "phone": "(402) 330-8999", "website": "https://stores.helzberg.com/ne/omaha/jewelry-store-153.html", "opening_hours": "Mo-Th 10:00-19:00; Fr-Sa 10:00-20:00; Su 12:00-18:00", "brand": "Helzberg Diamonds", "brand:wikidata": "Q16995161"}, "geometry": {"type": "Point", "coordinates": [-96.1380151, 41.2296974]}},
{"type": "Feature", "id": "psAk3bTUz7JgzJcgl7qs560-CeA=", "properties": {"ref": "179", "@spider": "helzberg_diamonds", "addr:full": "5112 Meadowood Mall Cir Spc B110", "addr:city": "Reno", "addr:state": "NV", "addr:postcode": "89502", "name": "Meadowood Mall Jewelry Store", "phone": "(775) 829-1858", "website": "https://stores.helzberg.com/nv/reno/jewelry-store-179.html", "opening_hours": "Mo-Sa 10:00-21:00; Su 11:00-19:00", "brand": "Helzberg Diamonds", "brand:wikidata": "Q16995161"}, "geometry": {"type": "Point", "coordinates": [-119.7827357, 39.4742952]}},
{"type": "Feature", "id": "rXLo6oGTv0P294ILkgkrBOmDVqI=", "properties": {"ref": "632", "@spider": "helzberg_diamonds", "addr:full": "1756 Clements Bridge Road ", "addr:city": "Deptford", "addr:state": "NJ", "addr:postcode": "08096", "name": "Court at Deptford Jewelry Store", "phone": "(856) 251-9054", "website": "https://stores.helzberg.com/nj/deptford/jewelry-store-632.html", "opening_hours": "Mo-Sa 10:00-20:00; Su 11:00-19:00", "brand": "Helzberg Diamonds", "brand:wikidata": "Q16995161"}, "geometry": {"type": "Point", "coordinates": [-75.098299, 39.8348384]}},
{"type": "Feature", "id": "1YjFMR-OIJfONlcW0sTPDX849d8=", "properties": {"ref": "178", "@spider": "helzberg_diamonds", "addr:full": "6100 O ST ", "addr:city": "Lincoln", "addr:state": "NE", "addr:postcode": "68505", "name": "Gateway Mall Jewelry Store", "phone": "(402) 465-0070", "website": "https://stores.helzberg.com/ne/lincoln/jewelry-store-178.html", "opening_hours": "Mo-Sa 10:00-21:00; Su 11:00-19:00", "brand": "Helzberg Diamonds", "brand:wikidata": "Q16995161"}, "geometry": {"type": "Point", "coordinates": [-96.634674, 40.815903]}},
{"type": "Feature", "id": "kSq7nGw-VWd_2OJZnSvmgoJnnNQ=", "properties": {"ref": "349", "@spider": "helzberg_diamonds", "addr:full": "150 Quaker Bridge Mall Space 2018A", "addr:city": "Lawrenceville", "addr:state": "NJ", "addr:postcode": "08648", "name": "Quaker Bridge Mall Jewelry Store", "phone": "(609) 375-9965", "website": "https://stores.helzberg.com/nj/lawrenceville/jewelry-store-349.html", "opening_hours": "Mo-Th 10:00-21:00; Fr-Sa 10:00-22:00; Su 11:00-20:00", "brand": "Helzberg Diamonds", "brand:wikidata": "Q16995161"}, "geometry": {"type": "Point", "coordinates": [-74.6826687, 40.2910416]}},
{"type": "Feature", "id": "wz6SPoq8COoTT56WnTWA_w7phXY=", "properties": {"ref": "108", "@spider": "helzberg_diamonds", "addr:full": "10000 California Street Suite 2415", "addr:city": "Omaha", "addr:state": "NE", "addr:postcode": "68114", "name": "Westroads Mall Jewelry Store", "phone": "(402) 391-1173", "website": "https://stores.helzberg.com/ne/omaha/jewelry-store-108.html", "opening_hours": "Mo-Fr 10:00-21:00; Sa 11:00-21:00; Su 11:00-19:00", "brand": "Helzberg Diamonds", "brand:wikidata": "Q16995161"}, "geometry": {"type": "Point", "coordinates": [-96.0682717, 41.2666128]}},
{"type": "Feature", "id": "jz5LN85kFMk5v6A9u6i4NGs3_P8=", "properties": {"ref": "150", "@spider": "helzberg_diamonds", "addr:full": "11025 Carolina Place Pkwy Space B-7", "addr:city": "Pineville", "addr:state": "NC", "addr:postcode": "28134", "name": "Carolina Place Mall Jewelry Store", "phone": "(704) 544-1144", "website": "https://stores.helzberg.com/nc/pineville/jewelry-store-150.html", "opening_hours": "Mo-Sa 10:00-21:00; Su 11:00-19:00", "brand": "Helzberg Diamonds", "brand:wikidata": "Q16995161"}, "geometry": {"type": "Point", "coordinates": [-80.8768664, 35.082673]}},
{"type": "Feature", "id": "Rm3Q6f4IOiSjv-vnXqwCFWulTLk=", "properties": {"ref": "345", "@spider": "helzberg_diamonds", "addr:full": "419 Cross Creek Mall Suite 445", "addr:city": "Fayetteville", "addr:state": "NC", "addr:postcode": "28303", "name": "Cross Creek Mall Jewelry Store", "phone": "(910) 487-0070", "website": "https://stores.helzberg.com/nc/fayetteville/jewelry-store-345.html", "opening_hours": "Mo-Sa 10:00-21:00; Su 11:00-19:00", "brand": "Helzberg Diamonds", "brand:wikidata": "Q16995161"}, "geometry": {"type": "Point", "coordinates": [-78.9609951, 35.0722684]}},
{"type": "Feature", "id": "3rbGCkE2uZ9Q5XNAAYgVPRQOQxc=", "properties": {"ref": "354", "@spider": "helzberg_diamonds", "addr:full": "375 Jacksonville Mall ", "addr:city": "Jacksonville", "addr:state": "NC", "addr:postcode": "28546", "name": "Jacksonville Mall Jewelry Store", "phone": "(910) 353-2322", "website": "https://stores.helzberg.com/nc/jacksonville/jewelry-store-354.html", "opening_hours": "Mo-Th 10:00-21:00; Fr 09:00-22:00; Sa 10:00-21:00; Su 12:00-18:00", "brand": "Helzberg Diamonds", "brand:wikidata": "Q16995161"}, "geometry": {"type": "Point", "coordinates": [-77.380864, 34.765236]}},
{"type": "Feature", "id": "hvEHDUNAw_SWT0EUrEqX_LfbEo4=", "properties": {"ref": "99", "@spider": "helzberg_diamonds", "addr:full": "1077 St. Louis Galleria ", "addr:city": "St. Louis", "addr:state": "MO", "addr:postcode": "63117", "name": "St. Louis Galleria Jewelry Store", "phone": "(314) 721-0190", "website": "https://stores.helzberg.com/mo/st-louis/jewelry-store-99.html", "opening_hours": "Mo-Sa 10:00-21:00; Su 11:00-19:00", "brand": "Helzberg Diamonds", "brand:wikidata": "Q16995161"}, "geometry": {"type": "Point", "coordinates": [-90.348165, 38.636544]}},
{"type": "Feature", "id": "jTcOqpEwojsP_Cfu7wpHSVAyWYc=", "properties": {"ref": "289", "@spider": "helzberg_diamonds", "addr:full": "3320 Silas Creek Pkwy Space CL-340", "addr:city": "Winston-Salem", "addr:state": "NC", "addr:postcode": "27103", "name": "Hanes Mall Jewelry Store", "phone": "(336) 659-9778", "website": "https://stores.helzberg.com/nc/winston-salem/jewelry-store-289.html", "opening_hours": "Mo-Sa 10:00-21:00; Su 11:00-19:00", "brand": "Helzberg Diamonds", "brand:wikidata": "Q16995161"}, "geometry": {"type": "Point", "coordinates": [-80.3000694, 36.0703319]}},
{"type": "Feature", "id": "5qBbmFKWexx5kSnyd5NySzgODx0=", "properties": {"ref": "141", "@spider": "helzberg_diamonds", "addr:full": "2104 Mid Rivers Mall ", "addr:city": "St. Peters", "addr:state": "MO", "addr:postcode": "63376", "name": "Mid Rivers Mall Jewelry Store", "phone": "(636) 970-6118", "website": "https://stores.helzberg.com/mo/st-peters/jewelry-store-141.html", "opening_hours": "Mo-Sa 10:00-21:00; Su 11:00-19:00", "brand": "Helzberg Diamonds", "brand:wikidata": "Q16995161"}, "geometry": {"type": "Point", "coordinates": [-90.6159131, 38.7966086]}},
{"type": "Feature", "id": "5KNXOHqgtn50i_PkW2s4SznHYYE=", "properties": {"ref": "74", "@spider": "helzberg_diamonds", "addr:full": "3902 13th Ave S Suite 342", "addr:city": "Fargo", "addr:state": "ND", "addr:postcode": "58103", "name": "West Acres Jewelry Store", "phone": "(701) 282-6341", "website": "https://stores.helzberg.com/nd/fargo/jewelry-store-74.html", "opening_hours": "Mo-Sa 10:00-20:00; Su 11:00-18:00", "brand": "Helzberg Diamonds", "brand:wikidata": "Q16995161"}, "geometry": {"type": "Point", "coordinates": [-96.8462562, 46.8589499]}},
{"type": "Feature", "id": "fPifRRS-HE0AKLZms8-qNh2HKD0=", "properties": {"ref": "306", "@spider": "helzberg_diamonds", "addr:full": "8111 Concord Mills Boulevard Space 238", "addr:city": "Concord", "addr:state": "NC", "addr:postcode": "28027", "name": "Concord Mills Outlet Mall Jewelry Store", "phone": "(704) 979-1809", "website": "https://stores.helzberg.com/nc/concord/jewelry-store-306.html", "opening_hours": "Mo-Sa 10:00-21:00; Su 12:00-19:00", "brand": "Helzberg Diamonds", "brand:wikidata": "Q16995161"}, "geometry": {"type": "Point", "coordinates": [-80.7222307, 35.3689925]}},
{"type": "Feature", "id": "bnR2r0p5xwbSB5SnNiAYjlQ9_hM=", "properties": {"ref": "64", "@spider": "helzberg_diamonds", "addr:full": "402 S County Center Way ", "addr:city": "St. Louis", "addr:state": "MO", "addr:postcode": "63129", "name": "South County Center Jewelry Store", "phone": "(314) 487-8904", "website": "https://stores.helzberg.com/mo/st-louis/jewelry-store-64.html", "opening_hours": "Mo-Sa 10:00-21:00; Su 11:00-19:00", "brand": "Helzberg Diamonds", "brand:wikidata": "Q16995161"}, "geometry": {"type": "Point", "coordinates": [-90.3293712, 38.5052775]}},
{"type": "Feature", "id": "KSgQHKQqyamviCWbYPvJEFOkRDM=", "properties": {"ref": "85", "@spider": "helzberg_diamonds", "addr:full": "2825 S Glenstone Avenue Spc. S6B", "addr:city": "Springfield", "addr:state": "MO", "addr:postcode": "65804", "name": "Battlefield Mall Jewelry Store", "phone": "(417) 881-6066", "website": "https://stores.helzberg.com/mo/springfield/jewelry-store-85.html", "opening_hours": "Mo-Sa 10:00-21:00; Su 12:00-18:00", "brand": "Helzberg Diamonds", "brand:wikidata": "Q16995161"}, "geometry": {"type": "Point", "coordinates": [-93.2658509, 37.1624856]}},
{"type": "Feature", "id": "g5qG9Nc9J92fEsNiI75DJDjQyns=", "properties": {"ref": "318", "@spider": "helzberg_diamonds", "addr:full": "1710 NW Chipman Road Space MB10", "addr:city": "Lee's Summit", "addr:state": "MO", "addr:postcode": "64081", "name": "Summit Woods Crossing Jewelry Store", "phone": "(816) 524-2242", "website": "https://stores.helzberg.com/mo/leessummit/jewelry-store-318.html", "opening_hours": "Mo-Th 10:00-21:00; Fr 09:00-21:00; Sa 10:00-21:00; Su 11:00-18:00", "brand": "Helzberg Diamonds", "brand:wikidata": "Q16995161"}, "geometry": {"type": "Point", "coordinates": [-94.4085125, 38.928608]}},
{"type": "Feature", "id": "YopD6mng1AQjelbp-NbXK4t6yH4=", "properties": {"ref": "643", "@spider": "helzberg_diamonds", "addr:full": "9300 NE Barry Rd ", "addr:city": "Kansas City", "addr:state": "MO", "addr:postcode": "64157", "name": "Liberty Missouri Jewelry Store", "phone": "(816) 736-2211", "website": "https://stores.helzberg.com/mo/kansascity/jewelry-store-643.html", "opening_hours": "Mo-Th 11:00-19:00; Fr 10:00-19:00; Sa 11:00-19:00; Su 12:00-17:00", "brand": "Helzberg Diamonds", "brand:wikidata": "Q16995161"}, "geometry": {"type": "Point", "coordinates": [-94.4636024, 39.245419]}},
{"type": "Feature", "id": "FAGcOKKKcGtp-ruefTYpM736LrA=", "properties": {"ref": "299", "@spider": "helzberg_diamonds", "addr:full": "7210 NW 86th Place Suite 184", "addr:city": "Kansas City", "addr:state": "MO", "addr:postcode": "64153", "name": "Zona Rosa Jewelry Store", "phone": "(816) 741-7333", "website": "https://stores.helzberg.com/mo/kansascity/jewelry-store-299.html", "opening_hours": "Mo-Th 11:00-20:00; Fr-Sa 11:00-21:00; Su 11:00-19:00", "brand": "Helzberg Diamonds", "brand:wikidata": "Q16995161"}, "geometry": {"type": "Point", "coordinates": [-94.6634557, 39.251259]}},
{"type": "Feature", "id": "LSOrtH_NQZaMRCjxdKGDdYjNz98=", "properties": {"ref": "336", "@spider": "helzberg_diamonds", "addr:full": "101 N Range Line Road Space 244", "addr:city": "Joplin", "addr:state": "MO", "addr:postcode": "64801", "name": "Northpark Mall Jewelry Store", "phone": "(417) 206-4931", "website": "https://stores.helzberg.com/mo/joplin/jewelry-store-336.html", "opening_hours": "Mo-Sa 10:00-21:00; Su 11:00-19:00", "brand": "Helzberg Diamonds", "brand:wikidata": "Q16995161"}, "geometry": {"type": "Point", "coordinates": [-94.4742996, 37.0908261]}},
{"type": "Feature", "id": "GtP_4x5tNPsmdVckYnpyo9xcFYE=", "properties": {"ref": "46", "@spider": "helzberg_diamonds", "addr:full": "18813 E 39th St S Space 2106", "addr:city": "Independence", "addr:state": "MO", "addr:postcode": "64057", "name": "Independence Center Jewelry Store", "phone": "(816) 795-8270", "website": "https://stores.helzberg.com/mo/independence/jewelry-store-46.html", "opening_hours": "Mo-Th 10:00-21:00; Fr 09:00-21:00; Sa 10:00-21:00; Su 12:00-18:00", "brand": "Helzberg Diamonds", "brand:wikidata": "Q16995161"}, "geometry": {"type": "Point", "coordinates": [-94.358228, 39.045648]}},
{"type": "Feature", "id": "TwKafRuQIat3no1yJES28I2aZfs=", "properties": {"ref": "116", "@spider": "helzberg_diamonds", "addr:full": "145 West County Center Space 2185", "addr:city": "Des Peres", "addr:state": "MO", "addr:postcode": "63131", "name": "West County Center Jewelry Store", "phone": "(314) 965-3901", "website": "https://stores.helzberg.com/mo/desperes/jewelry-store-116.html", "opening_hours": "Mo-Sa 10:00-21:00; Su 11:00-19:00", "brand": "Helzberg Diamonds", "brand:wikidata": "Q16995161"}, "geometry": {"type": "Point", "coordinates": [-90.4489952, 38.6010813]}},
{"type": "Feature", "id": "L0ZqPAWTpdrZPHm0s5yphmCmBdk=", "properties": {"ref": "56", "@spider": "helzberg_diamonds", "addr:full": "1595 Hwy 36 W ", "addr:city": "Roseville", "addr:state": "MN", "addr:postcode": "55113", "name": "Rosedale Center Jewelry Store", "phone": "(651) 633-9508", "website": "https://stores.helzberg.com/mn/roseville/jewelry-store-56.html", "opening_hours": "Mo-Fr 10:00-21:00; Sa 10:00-20:00; Su 11:00-18:00", "brand": "Helzberg Diamonds", "brand:wikidata": "Q16995161"}, "geometry": {"type": "Point", "coordinates": [-93.172667, 45.012818]}},
{"type": "Feature", "id": "oHxYepV2-7hB_u4Qhizw3Hycjpo=", "properties": {"ref": "43", "@spider": "helzberg_diamonds", "addr:full": "12725 Wayzata Blvd ", "addr:city": "Minnetonka", "addr:state": "MN", "addr:postcode": "55305", "name": "Ridgedale Jewelry Store", "phone": "(952) 544-0168", "website": "https://stores.helzberg.com/mn/minnetonka/jewelry-store-43.html", "opening_hours": "Mo-Sa 10:00-21:00; Su 11:00-19:00", "brand": "Helzberg Diamonds", "brand:wikidata": "Q16995161"}, "geometry": {"type": "Point", "coordinates": [-93.437044, 44.967862]}},
{"type": "Feature", "id": "OyMhx_HAen0pLFXa0z7pPgHCgLU=", "properties": {"ref": "159", "@spider": "helzberg_diamonds", "addr:full": "154 W Market ", "addr:city": "Bloomington", "addr:state": "MN", "addr:postcode": "55425", "name": "Mall of America Jewelry Store", "phone": "(952) 851-0057", "website": "https://stores.helzberg.com/mn/bloomington/jewelry-store-159.html", "opening_hours": "Mo-Sa 10:00-21:00; Su 11:00-19:00", "brand": "Helzberg Diamonds", "brand:wikidata": "Q16995161"}, "geometry": {"type": "Point", "coordinates": [-93.2446971, 44.8542333]}},
{"type": "Feature", "id": "r3cTY2DEND1PxAbxXoJ2Vz4aNQo=", "properties": {"ref": "512", "@spider": "helzberg_diamonds", "addr:full": "300 Tanger Blvd., Ste. 570 Suite 570", "addr:city": "Branson", "addr:state": "MO", "addr:postcode": "65616", "name": "Branson Outlets Jewelry Store", "phone": "(417) 334-5316", "website": "https://stores.helzberg.com/mo/branson/jewelry-store-512.html", "opening_hours": "Mo-Th 09:00-19:00; Fr-Sa 09:00-20:00; Su 10:00-19:00", "brand": "Helzberg Diamonds", "brand:wikidata": "Q16995161"}, "geometry": {"type": "Point", "coordinates": [-93.2648849, 36.6439786]}},
{"type": "Feature", "id": "6AM3zrmZDFPj-e2FGFy8OQTK2ko=", "properties": {"ref": "361", "@spider": "helzberg_diamonds", "addr:full": "4101 W. Division Street Sp# B0012", "addr:city": "St. Cloud", "addr:state": "MN", "addr:postcode": "56301", "name": "Crossroads Center Jewelry Store", "phone": "(320) 240-1333", "website": "https://stores.helzberg.com/mn/st-cloud/jewelry-store-361.html", "opening_hours": "Mo-Sa 10:00-21:00; Su 11:00-19:00", "brand": "Helzberg Diamonds", "brand:wikidata": "Q16995161"}, "geometry": {"type": "Point", "coordinates": [-94.2101279, 45.5562447]}},
{"type": "Feature", "id": "ZaB-P7xIneIrTBsKdupLGLQwIrU=", "properties": {"ref": "113", "@spider": "helzberg_diamonds", "addr:full": "358 Northtown Drive NE ", "addr:city": "Blaine", "addr:state": "MN", "addr:postcode": "55434", "name": "Northtown Mall Jewelry Store", "phone": "(763) 786-7786", "website": "https://stores.helzberg.com/mn/blaine/jewelry-store-113.html", "opening_hours": "Mo-Sa 10:00-21:00; Su 11:00-19:00", "brand": "Helzberg Diamonds", "brand:wikidata": "Q16995161"}, "geometry": {"type": "Point", "coordinates": [-93.2592668, 45.1271901]}},
{"type": "Feature", "id": "kPU0U44vsHMqOrbnFKbG0Znz-po=", "properties": {"ref": "641", "@spider": "helzberg_diamonds", "addr:full": "9140 Hudson Rd Ste 519", "addr:city": "Woodbury", "addr:state": "MN", "addr:postcode": "55125", "name": "Woodbury Lakes Jewelry Store", "phone": "(952) 656-7395", "website": "https://stores.helzberg.com/mn/woodbury/jewelry-store-641.html", "opening_hours": "Mo-Sa 10:00-20:00; Su 11:00-19:00", "brand": "Helzberg Diamonds", "brand:wikidata": "Q16995161"}, "geometry": {"type": "Point", "coordinates": [-92.924811, 44.946955]}},
{"type": "Feature", "id": "ZykwAPwCQK8E2gXFiQpUiVouqEQ=", "properties": {"ref": "38", "@spider": "helzberg_diamonds", "addr:full": "1600 Miller Trunk Highway Suite 207", "addr:city": "Duluth", "addr:state": "MN", "addr:postcode": "55811", "name": "Miller Hill Mall Jewelry Store", "phone": "(218) 727-8391", "website": "https://stores.helzberg.com/mn/duluth/jewelry-store-38.html", "opening_hours": "Mo-Sa 10:00-21:00; Su 11:00-18:00", "brand": "Helzberg Diamonds", "brand:wikidata": "Q16995161"}, "geometry": {"type": "Point", "coordinates": [-92.1596157, 46.8040614]}},
{"type": "Feature", "id": "FmwZ-ikZHUl5HubzQHAfJXrg2ZQ=", "properties": {"ref": "112", "@spider": "helzberg_diamonds", "addr:full": "35000 Warren Road Suite 610", "addr:city": "Westland", "addr:state": "MI", "addr:postcode": "48185", "name": "Westland Mall Jewelry Store", "phone": "(734) 421-8866", "website": "https://stores.helzberg.com/mi/westland/jewelry-store-112.html", "opening_hours": "Mo-Sa 10:00-20:00; Su 11:00-19:00", "brand": "Helzberg Diamonds", "brand:wikidata": "Q16995161"}, "geometry": {"type": "Point", "coordinates": [-83.389709, 42.340554]}},
{"type": "Feature", "id": "jZVqRSo6SaptToyizVWZWB64lzg=", "properties": {"ref": "197", "@spider": "helzberg_diamonds", "addr:full": "426 W 14 Mile Road Ste. B", "addr:city": "Troy", "addr:state": "MI", "addr:postcode": "48083", "name": "Oakland Mall Jewelry Store", "phone": "(248) 577-5541", "website": "https://stores.helzberg.com/mi/troy/jewelry-store-197.html", "opening_hours": "Mo-Sa 11:00-20:00; Su 12:00-19:00", "brand": "Helzberg Diamonds", "brand:wikidata": "Q16995161"}, "geometry": {"type": "Point", "coordinates": [-83.111225, 42.537052]}},
{"type": "Feature", "id": "TNoGmKo-Tlwaz6FgUmc9m0NAuC0=", "properties": {"ref": "135", "@spider": "helzberg_diamonds", "addr:full": "23000 Eureka Road ", "addr:city": "Taylor", "addr:state": "MI", "addr:postcode": "48180", "name": "Southland Center Jewelry Store", "phone": "(734) 287-6655", "website": "https://stores.helzberg.com/mi/taylor/jewelry-store-135.html", "opening_hours": "Mo-Sa 10:00-21:00; Su 11:00-19:00", "brand": "Helzberg Diamonds", "brand:wikidata": "Q16995161"}, "geometry": {"type": "Point", "coordinates": [-83.254713, 42.200604]}},
{"type": "Feature", "id": "94zzJnmsZ6TghNfgM20YNsTwDmc=", "properties": {"ref": "614", "@spider": "helzberg_diamonds", "addr:full": "6018 S Westnedge Avenue ", "addr:city": "Portage", "addr:state": "MI", "addr:postcode": "49002", "name": "Southland Center Jewelry Store", "phone": "(269) 327-8771", "website": "https://stores.helzberg.com/mi/portage/jewelry-store-614.html", "opening_hours": "Mo-Sa 10:00-20:00; Su 11:00-19:00", "brand": "Helzberg Diamonds", "brand:wikidata": "Q16995161"}, "geometry": {"type": "Point", "coordinates": [-85.5900216, 42.2293035]}},
{"type": "Feature", "id": "_tD5qZ8M_owZa932dKWR5ckPdEI=", "properties": {"ref": "265", "@spider": "helzberg_diamonds", "addr:full": "10300 Little Patuxent Pkwy Space 2740", "addr:city": "Columbia", "addr:state": "MD", "addr:postcode": "21044", "name": "The Mall In Columbia Jewelry Store", "phone": "(410) 730-9076", "website": "https://stores.helzberg.com/md/columbia/jewelry-store-265.html", "opening_hours": "Mo-Sa 10:00-21:00; Su 11:00-19:00", "brand": "Helzberg Diamonds", "brand:wikidata": "Q16995161"}, "geometry": {"type": "Point", "coordinates": [-76.8612603, 39.2148898]}},
{"type": "Feature", "id": "KhVWnYos9sURbgiZIz-dGzI8FAQ=", "properties": {"ref": "209", "@spider": "helzberg_diamonds", "addr:full": "3700 Rivertown Pkwy Suite 1030", "addr:city": "Grandville", "addr:state": "MI", "addr:postcode": "49418", "name": "Rivertown Crossings Jewelry Store", "phone": "(616) 534-7731", "website": "https://stores.helzberg.com/mi/grandville/jewelry-store-209.html", "opening_hours": "Mo-Sa 10:00-21:00; Su 11:00-19:00", "brand": "Helzberg Diamonds", "brand:wikidata": "Q16995161"}, "geometry": {"type": "Point", "coordinates": [-85.756924, 42.879699]}},
{"type": "Feature", "id": "YMp_xW8k7bvAEYb9_JJs1L68sl4=", "properties": {"ref": "511", "@spider": "helzberg_diamonds", "addr:full": "4262 Baldwin Road ", "addr:city": "Auburn Hills", "addr:state": "MI", "addr:postcode": "48326", "name": "Great Lakes Crossing Outlets Jewelry Store", "phone": "(248) 639-4871", "website": "https://stores.helzberg.com/mi/auburnhills/jewelry-store-511.html", "opening_hours": "Mo-Sa 10:00-21:00; Su 11:00-19:00", "brand": "Helzberg Diamonds", "brand:wikidata": "Q16995161"}, "geometry": {"type": "Point", "coordinates": [-83.3055155, 42.7015538]}},
{"type": "Feature", "id": "3cT8AnWVNvKGFq6ekDeY457nWSc=", "properties": {"ref": "52", "@spider": "helzberg_diamonds", "addr:full": "11347 W 95th Street ", "addr:city": "Overland Park", "addr:state": "KS", "addr:postcode": "66214", "name": "Oak Park Mall Jewelry Store", "phone": "(913) 492-6920", "website": "https://stores.helzberg.com/ks/overlandpark/jewelry-store-52.html", "opening_hours": "Mo-Th 10:00-21:00; Fr 09:00-21:00; Sa 10:00-21:00; Su 11:00-19:00", "brand": "Helzberg Diamonds", "brand:wikidata": "Q16995161"}, "geometry": {"type": "Point", "coordinates": [-94.717547, 38.9564683]}},
{"type": "Feature", "id": "H-KWk6w0m4PMrHiinHiplounJJs=", "properties": {"ref": "186", "@spider": "helzberg_diamonds", "addr:full": "5270 W. 119th Street ", "addr:city": "Leawood", "addr:state": "KS", "addr:postcode": "66209", "name": "Leawood Town Center Plaza Jewelry Store", "phone": "(913) 469-9690", "website": "https://stores.helzberg.com/ks/leawood/jewelry-store-186.html", "opening_hours": "Mo-Fr 10:00-20:00; Sa 10:00-19:00; Su 12:00-17:00", "brand": "Helzberg Diamonds", "brand:wikidata": "Q16995161"}, "geometry": {"type": "Point", "coordinates": [-94.6463622, 38.913928]}},
{"type": "Feature", "id": "L9X_LB2ASHe_iBCiHF5sMWONNz8=", "properties": {"ref": "167", "@spider": "helzberg_diamonds", "addr:full": "27464 Novi Road Spc B236", "addr:city": "Novi", "addr:state": "MI", "addr:postcode": "48377", "name": "Twelve Oaks Mall Jewelry Store", "phone": "(248) 305-9030", "website": "https://stores.helzberg.com/mi/novi/jewelry-store-167.html", "opening_hours": "Mo-Sa 10:00-21:00; Su 11:00-19:00", "brand": "Helzberg Diamonds", "brand:wikidata": "Q16995161"}, "geometry": {"type": "Point", "coordinates": [-83.469995, 42.491145]}},
{"type": "Feature", "id": "KSfOfsL9kEhP0LDt56UZD80P68k=", "properties": {"ref": "501", "@spider": "helzberg_diamonds", "addr:full": "6800 Oxon Hill Rd Ste. 755", "addr:city": "Oxon Hill", "addr:state": "MD", "addr:postcode": "20745", "name": "National Harbor Outlets Jewelry Store", "phone": "(301) 839-3288", "website": "https://stores.helzberg.com/md/oxonhill/jewelry-store-501.html", "opening_hours": "Mo-Sa 10:00-20:00; Su 11:00-19:00", "brand": "Helzberg Diamonds", "brand:wikidata": "Q16995161"}, "geometry": {"type": "Point", "coordinates": [-77.0008466, 38.7951684]}},
{"type": "Feature", "id": "S7A0Nq3va-i0JhDmTUs8LYRNAJE=", "properties": {"ref": "262", "@spider": "helzberg_diamonds", "addr:full": "1670 Annapolis Mall ", "addr:city": "Annapolis", "addr:state": "MD", "addr:postcode": "21401", "name": "Annapolis Mall Jewelry Store", "phone": "(410) 224-7050", "website": "https://stores.helzberg.com/md/annapolis/jewelry-store-262.html", "opening_hours": "Mo-Sa 10:00-21:00; Su 10:00-20:00", "brand": "Helzberg Diamonds", "brand:wikidata": "Q16995161"}, "geometry": {"type": "Point", "coordinates": [-76.544889, 38.989807]}},
{"type": "Feature", "id": "gDYRQOmHvTiHXs55WgFHrOAh_6g=", "properties": {"ref": "347", "@spider": "helzberg_diamonds", "addr:full": "7000 Arundel Mills Circle Suite 457", "addr:city": "Hanover", "addr:state": "MD", "addr:postcode": "21076", "name": "Arundel Mills Outlet Mall Jewelry Store", "phone": "(410) 796-3704", "website": "https://stores.helzberg.com/md/hanover/jewelry-store-347.html", "opening_hours": "Mo-Sa 10:00-21:30; Su 11:00-19:00", "brand": "Helzberg Diamonds", "brand:wikidata": "Q16995161"}, "geometry": {"type": "Point", "coordinates": [-76.7252493, 39.1573631]}},
{"type": "Feature", "id": "nfZt0bnYNMO2r_I9lurn74P62s4=", "properties": {"ref": "648", "@spider": "helzberg_diamonds", "addr:full": "2663 E Main Street Suite 500", "addr:city": "Plainfield", "addr:state": "IN", "addr:postcode": "46168", "name": "Plainfield Commons Jewelry Store", "phone": "(317) 839-8720", "website": "https://stores.helzberg.com/in/plainfield/jewelry-store-648.html", "opening_hours": "Mo-Sa 10:00-20:00; Su 12:00-18:00", "brand": "Helzberg Diamonds", "brand:wikidata": "Q16995161"}, "geometry": {"type": "Point", "coordinates": [-86.3567962, 39.71735]}},
{"type": "Feature", "id": "4k7Vkr9dV7GJt5XCijG3mRyt_7A=", "properties": {"ref": "49", "@spider": "helzberg_diamonds", "addr:full": "7700 E Kellogg Drive ", "addr:city": "Wichita", "addr:state": "KS", "addr:postcode": "67207", "name": "Towne East Square Jewelry Store", "phone": "(316) 684-5233", "website": "https://stores.helzberg.com/ks/wichita/jewelry-store-49.html", "opening_hours": "Mo-Sa 10:00-21:00; Su 12:00-18:00", "brand": "Helzberg Diamonds", "brand:wikidata": "Q16995161"}, "geometry": {"type": "Point", "coordinates": [-97.2474183, 37.6826997]}},
{"type": "Feature", "id": "aHr38JDqGaYSRPRWM2-o55XhusQ=", "properties": {"ref": "72", "@spider": "helzberg_diamonds", "addr:full": "4600 Kellogg Dr ", "addr:city": "Wichita", "addr:state": "KS", "addr:postcode": "67209", "name": "Towne West Square Jewelry Store", "phone": "(316) 945-5013", "website": "https://stores.helzberg.com/ks/wichita/jewelry-store-72.html", "opening_hours": "Mo-Th 11:00-19:00; Fr-Sa 10:00-19:00; Su 12:00-18:00", "brand": "Helzberg Diamonds", "brand:wikidata": "Q16995161"}, "geometry": {"type": "Point", "coordinates": [-97.3983737, 37.6763878]}},
{"type": "Feature", "id": "GeV8njM6Cc24ZKFtB1oFqnjuon8=", "properties": {"ref": "274", "@spider": "helzberg_diamonds", "addr:full": "1811 Village West Pkwy Sute O-121", "addr:city": "Kansas City", "addr:state": "KS", "addr:postcode": "66111", "name": "Legends Outlets Kansas City Jewelry Store", "phone": "(913) 334-9817", "website": "https://stores.helzberg.com/ks/kansascity/jewelry-store-274.html", "opening_hours": "Mo-Th 10:00-20:00; Fr 10:00-21:00; Sa 10:00-20:00; Su 11:00-20:00", "brand": "Helzberg Diamonds", "brand:wikidata": "Q16995161"}, "geometry": {"type": "Point", "coordinates": [-94.8243608, 39.1257925]}},
{"type": "Feature", "id": "wAUEfl4jP8zufaAdGarIyHNpHiw=", "properties": {"ref": "158", "@spider": "helzberg_diamonds", "addr:full": "800 N Green River Road Suite 325", "addr:city": "Evansville", "addr:state": "IN", "addr:postcode": "47715", "name": "Eastland Mall Jewelry Store", "phone": "(812) 471-1801", "website": "https://stores.helzberg.com/in/evansville/jewelry-store-158.html", "opening_hours": "Mo 10:00-20:00; Tu-Sa 10:00-21:00; Su 11:00-19:00", "brand": "Helzberg Diamonds", "brand:wikidata": "Q16995161"}, "geometry": {"type": "Point", "coordinates": [-87.4959867, 37.9846673]}},
{"type": "Feature", "id": "IClSstalNHoJs1eyUME0p5l0Uz8=", "properties": {"ref": "54", "@spider": "helzberg_diamonds", "addr:full": "2501 Wabash Ave Ste. 252", "addr:city": "Springfield", "addr:state": "IL", "addr:postcode": "62704", "name": "White Oaks Mall Jewelry Store", "phone": "(217) 787-8730", "website": "https://stores.helzberg.com/il/springfield/jewelry-store-54.html", "opening_hours": "Mo-Sa 10:00-21:00; Su 11:00-18:00", "brand": "Helzberg Diamonds", "brand:wikidata": "Q16995161"}, "geometry": {"type": "Point", "coordinates": [-89.7037216, 39.765743]}},
{"type": "Feature", "id": "Ccy-I8-48CaH4yWHeFwNLod4OMA=", "properties": {"ref": "39", "@spider": "helzberg_diamonds", "addr:full": "2200 W War Memorial Drive ", "addr:city": "Peoria", "addr:state": "IL", "addr:postcode": "61613", "name": "Northwoods Mall Jewelry Store", "phone": "(309) 688-0439", "website": "https://stores.helzberg.com/il/peoria/jewelry-store-39.html", "opening_hours": "Mo-Sa 10:00-21:00; Su 11:00-19:00", "brand": "Helzberg Diamonds", "brand:wikidata": "Q16995161"}, "geometry": {"type": "Point", "coordinates": [-89.6289687, 40.7411337]}},
{"type": "Feature", "id": "zpwndg-QP2k7d7HcsyI08NI_tt8=", "properties": {"ref": "136", "@spider": "helzberg_diamonds", "addr:full": "4201 Coldwater Road D-3C", "addr:city": "Fort Wayne", "addr:state": "IN", "addr:postcode": "46805", "name": "Glenbrook Square Jewelry Store", "phone": "(260) 482-2528", "website": "https://stores.helzberg.com/in/fortwayne/jewelry-store-136.html", "opening_hours": "Mo-Sa 10:00-21:00; Su 11:00-19:00", "brand": "Helzberg Diamonds", "brand:wikidata": "Q16995161"}, "geometry": {"type": "Point", "coordinates": [-85.1395094, 41.1151686]}},
{"type": "Feature", "id": "UJLntxmUitks9cbCX9u4pjNQ4oA=", "properties": {"ref": "500", "@spider": "helzberg_diamonds", "addr:full": "5220 Fashion Outlets Way Space 1140", "addr:city": "Rosemont", "addr:state": "IL", "addr:postcode": "60018", "name": "Fashion Outlets of Chicago Jewelry Store", "phone": "(847) 678-7814", "website": "https://stores.helzberg.com/il/rosemont/jewelry-store-500.html", "opening_hours": "Mo-Tu 10:00-21:00; We-Fr 10:00-22:00; Sa 10:00-21:00; Su 10:00-19:00", "brand": "Helzberg Diamonds", "brand:wikidata": "Q16995161"}, "geometry": {"type": "Point", "coordinates": [-87.867534, 41.974771]}},
{"type": "Feature", "id": "XjM0c8nLKcCyJFQZOCLKrE73ZPE=", "properties": {"ref": "231", "@spider": "helzberg_diamonds", "addr:full": "1251 U.S. Hwy 31 N Space G07B", "addr:city": "Greenwood", "addr:state": "IN", "addr:postcode": "46142", "name": "Greenwood Park Mall Jewelry Store", "phone": "(317) 882-8641", "website": "https://stores.helzberg.com/in/greenwood/jewelry-store-231.html", "opening_hours": "Mo-Th 11:00-20:00; Fr-Sa 10:00-21:00; Su 11:00-18:00", "brand": "Helzberg Diamonds", "brand:wikidata": "Q16995161"}, "geometry": {"type": "Point", "coordinates": [-86.12028, 39.633024]}},
{"type": "Feature", "id": "Clppe_kAqvWuRFKxi1rS3W5vQPw=", "properties": {"ref": "233", "@spider": "helzberg_diamonds", "addr:full": "812 Orland Square Dr. SP H04A", "addr:city": "Orland Park", "addr:state": "IL", "addr:postcode": "60462", "name": "Orland Square Jewelry Store", "phone": "(708) 349-1083", "website": "https://stores.helzberg.com/il/orlandpark/jewelry-store-233.html", "opening_hours": "Mo-Sa 10:00-21:00; Su 11:00-18:00", "brand": "Helzberg Diamonds", "brand:wikidata": "Q16995161"}, "geometry": {"type": "Point", "coordinates": [-87.848181, 41.6192405]}},
{"type": "Feature", "id": "SnQtCXD9cWzjxKbhW1JmxnQexk4=", "properties": {"ref": "618", "@spider": "helzberg_diamonds", "addr:full": "4109 N Harlem Avenue ", "addr:city": "Norridge", "addr:state": "IL", "addr:postcode": "60706", "name": "Harlem Irving Jewelry Store", "phone": "(708) 457-8552", "website": "https://stores.helzberg.com/il/norridge/jewelry-store-618.html", "opening_hours": "Mo-Sa 10:00-20:00; Su 11:00-19:00", "brand": "Helzberg Diamonds", "brand:wikidata": "Q16995161"}, "geometry": {"type": "Point", "coordinates": [-87.8064931, 41.954979]}},
{"type": "Feature", "id": "GuLbXYdcqOs-dSXHyP8_LJjnpHI=", "properties": {"ref": "623", "@spider": "helzberg_diamonds", "addr:full": "2645 Plainfield Rd ", "addr:city": "Joliet", "addr:state": "IL", "addr:postcode": "60435", "name": "Joliet Commons Jewelry Store", "phone": "(815) 439-9277", "website": "https://stores.helzberg.com/il/joliet/jewelry-store-623.html", "opening_hours": "Mo-Sa 10:00-20:00; Su 11:00-19:00", "brand": "Helzberg Diamonds", "brand:wikidata": "Q16995161"}, "geometry": {"type": "Point", "coordinates": [-88.1545629, 41.5751138]}},
{"type": "Feature", "id": "N9mnSU7vCkwg1TAC_KQEbJX_xCs=", "properties": {"ref": "640", "@spider": "helzberg_diamonds", "addr:full": "6557 Grand Avenue Suite 200", "addr:city": "Gurnee", "addr:state": "IL", "addr:postcode": "60031", "name": "Grand Hunt Club Jewelry Store", "phone": "(847) 855-2735", "website": "https://stores.helzberg.com/il/gurnee/jewelry-store-640.html", "opening_hours": "Mo-Sa 10:00-20:00; Su 11:00-19:00", "brand": "Helzberg Diamonds", "brand:wikidata": "Q16995161"}, "geometry": {"type": "Point", "coordinates": [-87.9638791, 42.3832717]}},
{"type": "Feature", "id": "DU8naLvLpJ5tMkRkSL3YY0EC7Vg=", "properties": {"ref": "55", "@spider": "helzberg_diamonds", "addr:full": "260 Saint Clair Square ", "addr:city": "Fairview Heights", "addr:state": "IL", "addr:postcode": "62208", "name": "St. Clair Square Jewelry Store", "phone": "(618) 632-9535", "website": "https://stores.helzberg.com/il/fairviewheights/jewelry-store-55.html", "opening_hours": "Mo-Sa 10:00-21:00; Su 11:00-18:00", "brand": "Helzberg Diamonds", "brand:wikidata": "Q16995161"}, "geometry": {"type": "Point", "coordinates": [-89.9827465, 38.5951254]}},
{"type": "Feature", "id": "hWM8BeJKVPRXLIN3wuyD-bd_oV4=", "properties": {"ref": "626", "@spider": "helzberg_diamonds", "addr:full": "5750 Northwest HWY Unit A", "addr:city": "Crystal Lake", "addr:state": "IL", "addr:postcode": "60014", "name": "Crystal Point Jewelry Store", "phone": "(815) 459-0855", "website": "https://stores.helzberg.com/il/crystallake/jewelry-store-626.html", "opening_hours": "Mo-Sa 10:00-20:00; Su 11:00-19:00", "brand": "Helzberg Diamonds", "brand:wikidata": "Q16995161"}, "geometry": {"type": "Point", "coordinates": [-88.3217671, 42.2267456]}},
{"type": "Feature", "id": "KHjuMjJWB_oTZoMMWtpLYJvV1lU=", "properties": {"ref": "154", "@spider": "helzberg_diamonds", "addr:full": "2000 N Neil Street Space 255", "addr:city": "Champaign", "addr:state": "IL", "addr:postcode": "61820", "name": "Market Place Jewelry Store", "phone": "(217) 355-1811", "website": "https://stores.helzberg.com/il/champaign/jewelry-store-154.html", "opening_hours": "Mo-Sa 10:00-21:00; Su 11:00-19:00", "brand": "Helzberg Diamonds", "brand:wikidata": "Q16995161"}, "geometry": {"type": "Point", "coordinates": [-88.2427717, 40.1425481]}},
{"type": "Feature", "id": "z9JqTs0Ke6qlwU53MjPneW6Brj4=", "properties": {"ref": "291", "@spider": "helzberg_diamonds", "addr:full": "101 Jordan Creek Pkwy Suite 12084", "addr:city": "West Des Moines", "addr:state": "IA", "addr:postcode": "50266", "name": "Jordan Creek Towne Center Jewelry Store", "phone": "(515) 226-9111", "website": "https://stores.helzberg.com/ia/westdesmoines/jewelry-store-291.html", "opening_hours": "Mo-Sa 10:00-21:00; Su 11:00-19:00", "brand": "Helzberg Diamonds", "brand:wikidata": "Q16995161"}, "geometry": {"type": "Point", "coordinates": [-93.8041654, 41.5699285]}},
{"type": "Feature", "id": "WhteQnnXlMC8S-iny5mKQsC9fBs=", "properties": {"ref": "160", "@spider": "helzberg_diamonds", "addr:full": "4400 Sergeant Road Suite 242", "addr:city": "Sioux City", "addr:state": "IA", "addr:postcode": "51106", "name": "Southern Hills Mall Jewelry Store", "phone": "(712) 274-2772", "website": "https://stores.helzberg.com/ia/siouxcity/jewelry-store-160.html", "opening_hours": "Mo-Sa 10:00-21:00; Su 11:00-19:00", "brand": "Helzberg Diamonds", "brand:wikidata": "Q16995161"}, "geometry": {"type": "Point", "coordinates": [-96.3535195, 42.4464633]}},
{"type": "Feature", "id": "0IRAVPOqj6BwWgWQUbQpMoXxViA=", "properties": {"ref": "97", "@spider": "helzberg_diamonds", "addr:full": "400 Ernest W Barrett Pkwy Suite 218", "addr:city": "Kennesaw", "addr:state": "GA", "addr:postcode": "30144", "name": "Town Center Jewelry Store", "phone": "(770) 423-9475", "website": "https://stores.helzberg.com/ga/kennesaw/jewelry-store-97.html", "opening_hours": "Mo-Sa 10:00-21:00; Su 12:00-18:00", "brand": "Helzberg Diamonds", "brand:wikidata": "Q16995161"}, "geometry": {"type": "Point", "coordinates": [-84.5643676, 34.0177634]}},
{"type": "Feature", "id": "nRUGF1wjFCor9GyWieDBU5eDjGI=", "properties": {"ref": "261", "@spider": "helzberg_diamonds", "addr:full": "2929 Turner Hill Road Space #2610", "addr:city": "Lithonia", "addr:state": "GA", "addr:postcode": "30038", "name": "Mall At Stonecrest Jewelry Store", "phone": "(770) 482-7992", "website": "https://stores.helzberg.com/ga/lithonia/jewelry-store-261.html", "opening_hours": "Mo-Sa 11:00-20:00; Su 12:00-18:00", "brand": "Helzberg Diamonds", "brand:wikidata": "Q16995161"}, "geometry": {"type": "Point", "coordinates": [-84.0952243, 33.698691]}},
{"type": "Feature", "id": "DxTnTy74To_A4oHPA_gjm0S6kdA=", "properties": {"ref": "196", "@spider": "helzberg_diamonds", "addr:full": "1451 Coral Ridge Ave ", "addr:city": "Coralville", "addr:state": "IA", "addr:postcode": "52241", "name": "Coral Ridge Mall Jewelry Store", "phone": "(319) 625-2322", "website": "https://stores.helzberg.com/ia/coralville/jewelry-store-196.html", "opening_hours": "Mo-Sa 10:00-21:00; Su 11:00-19:00", "brand": "Helzberg Diamonds", "brand:wikidata": "Q16995161"}, "geometry": {"type": "Point", "coordinates": [-91.6025877, 41.6909086]}},
{"type": "Feature", "id": "nAZ4r1VLprQvvJsrsr3_gavlYYg=", "properties": {"ref": "211", "@spider": "helzberg_diamonds", "addr:full": "3333 Buford Drive Suite 1029", "addr:city": "Buford", "addr:state": "GA", "addr:postcode": "30519", "name": "Mall of Georgia Jewelry Store", "phone": "(678) 482-6628", "website": "https://stores.helzberg.com/ga/buford/jewelry-store-211.html", "opening_hours": "Mo-Sa 10:00-21:00; Su 11:00-19:00", "brand": "Helzberg Diamonds", "brand:wikidata": "Q16995161"}, "geometry": {"type": "Point", "coordinates": [-83.982776, 34.0642949]}},
{"type": "Feature", "id": "zQ72RfrNJcfG2ZIwuJlYuOWzIPc=", "properties": {"ref": "204", "@spider": "helzberg_diamonds", "addr:full": "350 N Milwaukee Street Space 1173", "addr:city": "Boise", "addr:state": "ID", "addr:postcode": "83704", "name": "Boise Towne Square Jewelry Store", "phone": "(208) 658-6485", "website": "https://stores.helzberg.com/id/boise/jewelry-store-204.html", "opening_hours": "Mo-Sa 10:00-21:00; Su 11:00-19:00", "brand": "Helzberg Diamonds", "brand:wikidata": "Q16995161"}, "geometry": {"type": "Point", "coordinates": [-116.2794185, 43.6085179]}},
{"type": "Feature", "id": "V4ankszWwsU9objLJ5jbAtEHm7o=", "properties": {"ref": "254", "@spider": "helzberg_diamonds", "addr:full": "2223 N West Shore Blvd Suite 147", "addr:city": "Tampa", "addr:state": "FL", "addr:postcode": "33607", "name": "International Plaza Jewelry Store", "phone": "(813) 877-1013", "website": "https://stores.helzberg.com/fl/tampa/jewelry-store-254.html", "opening_hours": "Mo-Sa 10:00-21:00; Su 11:00-19:00", "brand": "Helzberg Diamonds", "brand:wikidata": "Q16995161"}, "geometry": {"type": "Point", "coordinates": [-82.521205, 27.9656353]}},
{"type": "Feature", "id": "nSTFHrLtLjXMdTPgDUQyMyRRXV0=", "properties": {"ref": "287", "@spider": "helzberg_diamonds", "addr:full": "8021 Citrus Park Town Center ", "addr:city": "Tampa", "addr:state": "FL", "addr:postcode": "33625", "name": "Citrus Park Town Center Jewelry Store", "phone": "(813) 792-5090", "website": "https://stores.helzberg.com/fl/tampa/jewelry-store-287.html", "opening_hours": "Mo-Sa 10:00-21:00; Su 11:00-19:00", "brand": "Helzberg Diamonds", "brand:wikidata": "Q16995161"}, "geometry": {"type": "Point", "coordinates": [-82.5760814, 28.0693379]}},
{"type": "Feature", "id": "NAczNTYruszFuHGVdYB2CCIn5Kc=", "properties": {"ref": "105", "@spider": "helzberg_diamonds", "addr:full": "4444 1st Avenue NE Suite 214", "addr:city": "Cedar Rapids", "addr:state": "IA", "addr:postcode": "52402", "name": "Lindale Mall Jewelry Store", "phone": "(319) 395-9243", "website": "https://stores.helzberg.com/ia/cedarrapids/jewelry-store-105.html", "opening_hours": "Mo-Sa 10:00-21:00; Su 11:00-19:00", "brand": "Helzberg Diamonds", "brand:wikidata": "Q16995161"}, "geometry": {"type": "Point", "coordinates": [-91.6278139, 42.0256928]}},
{"type": "Feature", "id": "x0IFDbisMcqSgUML4U3R9gkFSX8=", "properties": {"ref": "37", "@spider": "helzberg_diamonds", "addr:full": "320 W Kimberly Road ", "addr:city": "Davenport", "addr:state": "IA", "addr:postcode": "52806", "name": "Northpark Mall Jewelry Store", "phone": "(563) 391-2050", "website": "https://stores.helzberg.com/ia/davenport/jewelry-store-37.html", "opening_hours": "Mo-Th 10:00-21:00; Fr 09:00-21:00; Sa 10:00-21:00; Su 12:00-18:00", "brand": "Helzberg Diamonds", "brand:wikidata": "Q16995161"}, "geometry": {"type": "Point", "coordinates": [-90.5744891, 41.5633779]}},
{"type": "Feature", "id": "jOY2PyICRsP2YvmJZz931WGm3aU=", "properties": {"ref": "239", "@spider": "helzberg_diamonds", "addr:full": "10300 W Forest Hill Blvd Suite 120", "addr:city": "Wellington", "addr:state": "FL", "addr:postcode": "33414", "name": "Wellington Green Jewelry Store", "phone": "(561) 790-0800", "website": "https://stores.helzberg.com/fl/wellington/jewelry-store-239.html", "opening_hours": "Mo-Th 10:00-21:00; Fr 10:00-22:00; Sa 10:00-20:00; Su 11:00-19:00", "brand": "Helzberg Diamonds", "brand:wikidata": "Q16995161"}, "geometry": {"type": "Point", "coordinates": [-80.2088815, 26.650201]}},
{"type": "Feature", "id": "AFpZ52_a6fhZSiaDEahIHPGAPr8=", "properties": {"ref": "256", "@spider": "helzberg_diamonds", "addr:full": "5100 N 9th Avenue Space G709", "addr:city": "Pensacola", "addr:state": "FL", "addr:postcode": "32504", "name": "Cordova Mall Jewelry Store", "phone": "(850) 477-3173", "website": "https://stores.helzberg.com/fl/pensacola/jewelry-store-256.html", "opening_hours": "Mo-Sa 10:00-21:00; Su 12:00-18:00", "brand": "Helzberg Diamonds", "brand:wikidata": "Q16995161"}, "geometry": {"type": "Point", "coordinates": [-87.2074809, 30.4753166]}},
{"type": "Feature", "id": "ICrzQN_xqSIYwxItW1XUQQ-hqts=", "properties": {"ref": "243", "@spider": "helzberg_diamonds", "addr:full": "1500 Apalachee Pkwy Suite 2355", "addr:city": "Tallahassee", "addr:state": "FL", "addr:postcode": "32301", "name": "Governor's Square Jewelry Store", "phone": "(850) 219-4489", "website": "https://stores.helzberg.com/fl/tallahassee/jewelry-store-243.html", "opening_hours": "Mo-Sa 10:00-21:00; Su 11:00-19:00", "brand": "Helzberg Diamonds", "brand:wikidata": "Q16995161"}, "geometry": {"type": "Point", "coordinates": [-84.2535477, 30.4373197]}},
{"type": "Feature", "id": "Z5nJVspSR1LPEvrpm2U21EUTig4=", "properties": {"ref": "183", "@spider": "helzberg_diamonds", "addr:full": "3450 Wrightsboro Road Space 1375", "addr:city": "Augusta", "addr:state": "GA", "addr:postcode": "30909", "name": "Augusta Mall Jewelry Store", "phone": "(706) 736-0888", "website": "https://stores.helzberg.com/ga/augusta/jewelry-store-183.html", "opening_hours": "Mo-Sa 10:00-21:00; Su 11:00-19:00", "brand": "Helzberg Diamonds", "brand:wikidata": "Q16995161"}, "geometry": {"type": "Point", "coordinates": [-82.0788358, 33.4635508]}},
{"type": "Feature", "id": "o5D-Xm7b4es9rM3tdNouRX2Xm-U=", "properties": {"ref": "515", "@spider": "helzberg_diamonds", "addr:full": "2382 Grand Cypress Drive Ste. 985", "addr:city": "Lutz", "addr:state": "FL", "addr:postcode": "33559", "name": "Tampa Premium Outlets Jewelry Store", "phone": "(813) 345-3138", "website": "https://stores.helzberg.com/fl/lutz/jewelry-store-515.html", "opening_hours": "Mo-Sa 10:00-21:00; Su 10:00-19:00", "brand": "Helzberg Diamonds", "brand:wikidata": "Q16995161"}, "geometry": {"type": "Point", "coordinates": [-82.390764, 28.190546]}},
{"type": "Feature", "id": "cN8-4KTb-9TnbUZIeIwDTDZnAes=", "properties": {"ref": "104", "@spider": "helzberg_diamonds", "addr:full": "2860 Cumberland Mall SE Suite 1204", "addr:city": "Atlanta", "addr:state": "GA", "addr:postcode": "30339", "name": "Cumberland Mall Jewelry Store", "phone": "(770) 434-6539", "website": "https://stores.helzberg.com/ga/atlanta/jewelry-store-104.html", "opening_hours": "Mo-Sa 10:00-21:00; Su 11:00-19:00", "brand": "Helzberg Diamonds", "brand:wikidata": "Q16995161"}, "geometry": {"type": "Point", "coordinates": [-84.468972, 33.880254]}},
{"type": "Feature", "id": "8gF8TYcPcoANxt3LqrcUYbyGPRk=", "properties": {"ref": "234", "@spider": "helzberg_diamonds", "addr:full": "1910 Wells Road Space #B10", "addr:city": "Orange Park", "addr:state": "FL", "addr:postcode": "32073", "name": "Orange Park Mall Jewelry Store", "phone": "(904) 264-4322", "website": "https://stores.helzberg.com/fl/orangepark/jewelry-store-234.html", "opening_hours": "Mo-Sa 10:00-21:00; Su 11:00-19:00", "brand": "Helzberg Diamonds", "brand:wikidata": "Q16995161"}, "geometry": {"type": "Point", "coordinates": [-81.735419, 30.1858113]}},
{"type": "Feature", "id": "_9YKpypVDIm8qlbGyRepdCXhpQo=", "properties": {"ref": "213", "@spider": "helzberg_diamonds", "addr:full": "8001 S Orange Blossom Trail Space 1256", "addr:city": "Orlando", "addr:state": "FL", "addr:postcode": "32809", "name": "Florida Mall Jewelry Store", "phone": "(407) 438-3454", "website": "https://stores.helzberg.com/fl/orlando/jewelry-store-213.html", "opening_hours": "Mo-Sa 10:00-21:00; Su 11:00-19:00", "brand": "Helzberg Diamonds", "brand:wikidata": "Q16995161"}, "geometry": {"type": "Point", "coordinates": [-81.3945022, 28.4459749]}},
{"type": "Feature", "id": "4UgjFSpFrSpqbyzRsu4M1LSAuR0=", "properties": {"ref": "268", "@spider": "helzberg_diamonds", "addr:full": "10300 Southside Blvd Space 120", "addr:city": "Jacksonville", "addr:state": "FL", "addr:postcode": "32256", "name": "The Avenues Jewelry Store", "phone": "(904) 363-8897", "website": "https://stores.helzberg.com/fl/jacksonville/jewelry-store-268.html", "opening_hours": "Mo-Sa 10:00-21:00; Su 12:00-18:00", "brand": "Helzberg Diamonds", "brand:wikidata": "Q16995161"}, "geometry": {"type": "Point", "coordinates": [-81.5538046, 30.1860247]}},
{"type": "Feature", "id": "OHnbplDt-938IwdJyDWajJoopXc=", "properties": {"ref": "525", "@spider": "helzberg_diamonds", "addr:full": "10801 Corkscrew Road ", "addr:city": "Estero", "addr:state": "FL", "addr:postcode": "33928", "name": "Miromar Outlets Jewelry Store", "phone": "(239) 908-5684", "website": "https://stores.helzberg.com/fl/estero/jewelry-store-525.html", "opening_hours": "Mo-Sa 10:00-21:00; Su 11:00-18:00", "brand": "Helzberg Diamonds", "brand:wikidata": "Q16995161"}, "geometry": {"type": "Point", "coordinates": [-81.7746859, 26.43618]}},
{"type": "Feature", "id": "9Il9aTEKba0iHnlZI68dM9gRjVg=", "properties": {"ref": "359", "@spider": "helzberg_diamonds", "addr:full": "132 Christiana Mall #1343", "addr:city": "Newark", "addr:state": "DE", "addr:postcode": "19702", "name": "Christiana Mall Jewelry Store", "phone": "(973) 776-1044", "website": "https://stores.helzberg.com/de/newark/jewelry-store-359.html", "opening_hours": "Mo-Sa 10:00-21:00; Su 11:00-19:00", "brand": "Helzberg Diamonds", "brand:wikidata": "Q16995161"}, "geometry": {"type": "Point", "coordinates": [-75.652628675738, 39.678898786651]}},
{"type": "Feature", "id": "K5Iqgcr_RZdV2FxsYQIPp3Lnrgw=", "properties": {"ref": "518", "@spider": "helzberg_diamonds", "addr:full": "13801 Grant St Unit 814", "addr:city": "Thornton", "addr:state": "CO", "addr:postcode": "80023", "name": "Denver Premium Outlets Jewelry Store", "phone": "(720) 535-0128", "website": "https://stores.helzberg.com/co/thornton/jewelry-store-518.html", "opening_hours": "Mo-Sa 10:00-21:00; Su 11:00-20:00", "brand": "Helzberg Diamonds", "brand:wikidata": "Q16995161"}, "geometry": {"type": "Point", "coordinates": [-104.9818303, 39.9557337]}},
{"type": "Feature", "id": "_fWud7GSHzAp4ZdlwzsrthBnU_0=", "properties": {"ref": "272", "@spider": "helzberg_diamonds", "addr:full": "448 Brandon Town Center Mall ", "addr:city": "Brandon", "addr:state": "FL", "addr:postcode": "33511", "name": "Brandon Town Center Jewelry Store", "phone": "(813) 657-4804", "website": "https://stores.helzberg.com/fl/brandon/jewelry-store-272.html", "opening_hours": "Mo-Th 10:00-21:00; Fr 10:00-22:00; Sa 10:00-21:00; Su 10:00-20:00", "brand": "Helzberg Diamonds", "brand:wikidata": "Q16995161"}, "geometry": {"type": "Point", "coordinates": [-82.326066, 27.932218]}},
{"type": "Feature", "id": "vgtSAqtMQu_l07FPgV54avrXLWU=", "properties": {"ref": "208", "@spider": "helzberg_diamonds", "addr:full": "27001 US Hwy 19 N Suite 2051A", "addr:city": "Clearwater", "addr:state": "FL", "addr:postcode": "33761", "name": "Countryside Jewelry Store", "phone": "(727) 712-0013", "website": "https://stores.helzberg.com/fl/clearwater/jewelry-store-208.html", "opening_hours": "Mo-Th 10:00-21:00; Fr 10:00-22:00; Sa 10:00-21:00; Su 10:00-20:00", "brand": "Helzberg Diamonds", "brand:wikidata": "Q16995161"}, "geometry": {"type": "Point", "coordinates": [-82.7355688, 28.0170595]}},
{"type": "Feature", "id": "MSvoaWFyWZj53TiyOyM8kHYT2qg=", "properties": {"ref": "339", "@spider": "helzberg_diamonds", "addr:full": "100 Citadel Drive Suite 0408", "addr:city": "City Of Commerce", "addr:state": "CA", "addr:postcode": "90040", "name": "Citadel Outlets Jewelry Store", "phone": "(323) 721-1912", "website": "https://stores.helzberg.com/ca/cityofcommerce/jewelry-store-339.html", "opening_hours": "Mo-Th 10:00-21:00; Fr 09:00-22:00; Sa-Su 10:00-21:00", "brand": "Helzberg Diamonds", "brand:wikidata": "Q16995161"}, "geometry": {"type": "Point", "coordinates": [-118.1518713, 34.0061256]}},
{"type": "Feature", "id": "xUhPUJQp1R5sdR2ord599j4h30Q=", "properties": {"ref": "307", "@spider": "helzberg_diamonds", "addr:full": "5985 Sky Pond Drive Suite B-100", "addr:city": "Loveland", "addr:state": "CO", "addr:postcode": "80538", "name": "The Promenade Shops at Centerra Jewelry Store", "phone": "(970) 461-3774", "website": "https://stores.helzberg.com/co/loveland/jewelry-store-307.html", "opening_hours": "Mo-Sa 10:00-20:00; Su 11:00-18:00", "brand": "Helzberg Diamonds", "brand:wikidata": "Q16995161"}, "geometry": {"type": "Point", "coordinates": [-104.9883563, 40.4170723]}},
{"type": "Feature", "id": "Qwj4PYNy-Q51IiMuiFu_X3MIHPQ=", "properties": {"ref": "189", "@spider": "helzberg_diamonds", "addr:full": "8405 Park Meadow Center Drive Suite D-1155", "addr:city": "Lone Tree", "addr:state": "CO", "addr:postcode": "80124", "name": "Park Meadows Jewelry Store", "phone": "(303) 706-9330", "website": "https://stores.helzberg.com/co/lonetree/jewelry-store-189.html", "opening_hours": "Mo-Th 10:00-20:00; Fr-Sa 10:00-21:00; Su 11:00-18:00", "brand": "Helzberg Diamonds", "brand:wikidata": "Q16995161"}, "geometry": {"type": "Point", "coordinates": [-104.876033, 39.562018]}},
{"type": "Feature", "id": "goxGMY3j5QB-sYAa_FzWhXzhYxY=", "properties": {"ref": "87", "@spider": "helzberg_diamonds", "addr:full": "8501 W Bowles Avenue Space 2195", "addr:city": "Littleton", "addr:state": "CO", "addr:postcode": "80123", "name": "Southwest Plaza Jewelry Store", "phone": "(303) 973-1846", "website": "https://stores.helzberg.com/co/littleton/jewelry-store-87.html", "opening_hours": "Mo-Th 10:00-20:00; Fr-Sa 10:00-21:00; Su 11:00-18:00", "brand": "Helzberg Diamonds", "brand:wikidata": "Q16995161"}, "geometry": {"type": "Point", "coordinates": [-105.0955648, 39.6119332]}},
{"type": "Feature", "id": "NOn4nPGoPEcrolsu08-POMai63g=", "properties": {"ref": "102", "@spider": "helzberg_diamonds", "addr:full": "2701 Ming Avenue Space 254", "addr:city": "Bakersfield", "addr:state": "CA", "addr:postcode": "93304", "name": "Valley Plaza Jewelry Store", "phone": "(661) 834-3992", "website": "https://stores.helzberg.com/ca/bakersfield/jewelry-store-102.html", "opening_hours": "Mo-Sa 10:00-21:00; Su 11:00-19:00", "brand": "Helzberg Diamonds", "brand:wikidata": "Q16995161"}, "geometry": {"type": "Point", "coordinates": [-119.0344118, 35.3381686]}},
{"type": "Feature", "id": "TzZgZ0EfG5qMe1kHZz4-a0mJHY4=", "properties": {"ref": "90", "@spider": "helzberg_diamonds", "addr:full": "5870 E Broadway Blvd Suite 334", "addr:city": "Tucson", "addr:state": "AZ", "addr:postcode": "85711", "name": "Park Place Jewelry Store", "phone": "(520) 790-0214", "website": "https://stores.helzberg.com/az/tucson/jewelry-store-90.html", "opening_hours": "Mo-Sa 10:00-21:00; Su 11:00-19:00", "brand": "Helzberg Diamonds", "brand:wikidata": "Q16995161"}, "geometry": {"type": "Point", "coordinates": [-110.8655082, 32.2194886]}},
{"type": "Feature", "id": "9ELieiIHqmUjqYlD1zAqRrQZUwM=", "properties": {"ref": "82", "@spider": "helzberg_diamonds", "addr:full": "4500 N Oracle Road Suite 163", "addr:city": "Tucson", "addr:state": "AZ", "addr:postcode": "85705", "name": "Tucson Mall Jewelry Store", "phone": "(520) 293-7696", "website": "https://stores.helzberg.com/az/tucson/jewelry-store-82.html", "opening_hours": "Mo-Sa 10:00-21:00; Su 11:00-19:00", "brand": "Helzberg Diamonds", "brand:wikidata": "Q16995161"}, "geometry": {"type": "Point", "coordinates": [-110.9744797, 32.2887324]}},
{"type": "Feature", "id": "PVL5Byy-F5gwE9pMcm4gDKyB804=", "properties": {"ref": "142", "@spider": "helzberg_diamonds", "addr:full": "6555 E Southern Avenue Space 1222", "addr:city": "Mesa", "addr:state": "AZ", "addr:postcode": "85206", "name": "Superstition Springs Center Jewelry Store", "phone": "(480) 924-1033", "website": "https://stores.helzberg.com/az/mesa/jewelry-store-142.html", "opening_hours": "Mo-Th 10:00-20:00; Fr-Sa 10:00-21:00; Su 11:00-18:00", "brand": "Helzberg Diamonds", "brand:wikidata": "Q16995161"}, "geometry": {"type": "Point", "coordinates": [-111.6903269, 33.390567]}},
{"type": "Feature", "id": "pfGyc2wdNtfUhFq1-lXOgHhAT3E=", "properties": {"ref": "343", "@spider": "helzberg_diamonds", "addr:full": "6800 N. 95th Avenue Suite 802", "addr:city": "Glendale", "addr:state": "AZ", "addr:postcode": "85305", "name": "Westgate Outlet Mall Jewelry Store", "phone": "(623) 872-6147", "website": "https://stores.helzberg.com/az/glendale/jewelry-store-343.html", "opening_hours": "Mo-Th 10:00-20:00; Fr-Sa 10:00-21:00; Su 10:00-20:00", "brand": "Helzberg Diamonds", "brand:wikidata": "Q16995161"}, "geometry": {"type": "Point", "coordinates": [-112.2662511, 33.5353033]}},
{"type": "Feature", "id": "2MDVEEaRF26sPvHhFRe0RD-vzto=", "properties": {"ref": "170", "@spider": "helzberg_diamonds", "addr:full": "7700 W Arrowhead Towne Center Space 1073", "addr:city": "Glendale", "addr:state": "AZ", "addr:postcode": "85308", "name": "Arrowhead Towne Center Jewelry Store", "phone": "(623) 979-8805", "website": "https://stores.helzberg.com/az/glendale/jewelry-store-170.html", "opening_hours": "Mo-Sa 10:00-21:00; Su 11:00-18:00", "brand": "Helzberg Diamonds", "brand:wikidata": "Q16995161"}, "geometry": {"type": "Point", "coordinates": [-112.2252092, 33.6420644]}},
{"type": "Feature", "id": "N2YAAvLag1-BYdOkjel3LaYnbMA=", "properties": {"ref": "333", "@spider": "helzberg_diamonds", "addr:full": "2174 E Williams Field Rd Suite 110", "addr:city": "Gilbert", "addr:state": "AZ", "addr:postcode": "85295", "name": "Santan Village Jewelry Store", "phone": "(480) 821-2256", "website": "https://stores.helzberg.com/az/gilbert/jewelry-store-333.html", "opening_hours": "Mo-Th 10:00-20:00; Fr-Sa 10:00-21:00; Su 11:00-18:00", "brand": "Helzberg Diamonds", "brand:wikidata": "Q16995161"}, "geometry": {"type": "Point", "coordinates": [-111.743236, 33.310982]}},
{"type": "Feature", "id": "XB0XgiB2r1IIXcXsFIQMlTkMM9Y=", "properties": {"ref": "505", "@spider": "helzberg_diamonds", "addr:full": "4976 Premium Outlet Way #420 Space 420", "addr:city": "Chandler", "addr:state": "AZ", "addr:postcode": "85226", "name": "Phoenix Premium Outlets Jewelry Store", "phone": "(480) 639-1862", "website": "https://stores.helzberg.com/az/chandler/jewelry-store-505.html", "opening_hours": "Mo-Sa 10:00-21:00; Su 10:00-19:00", "brand": "Helzberg Diamonds", "brand:wikidata": "Q16995161"}, "geometry": {"type": "Point", "coordinates": [-111.9730479, 33.2867764]}},
{"type": "Feature", "id": "Lz0no8TcDn46vGAfHn5juwXPNws=", "properties": {"ref": "263", "@spider": "helzberg_diamonds", "addr:full": "3111 W Chandler Blvd Space 2312", "addr:city": "Chandler", "addr:state": "AZ", "addr:postcode": "85226", "name": "Chandler Fashion Center Jewelry Store", "phone": "(480) 732-0055", "website": "https://stores.helzberg.com/az/chandler/jewelry-store-263.html", "opening_hours": "Mo-Sa 10:00-21:00; Su 11:00-18:00", "brand": "Helzberg Diamonds", "brand:wikidata": "Q16995161"}, "geometry": {"type": "Point", "coordinates": [-111.8984059, 33.3014704]}}]}