{"type":"FeatureCollection","features":[{"type": "Feature", "id": "oAIKHeRix7u32M2_ue67cbbRDwU=", "properties": {"ref": "susona-bodrum", "brand": "LXR Hotels & Resorts", "@spider": "hilton", "addr:full": "Torba Mahallesi, Kaynar Mevkii No: 15 Bodrum,", "addr:city": " Mu\u011fla, Turkey", "name": "Home", "phone": "+90 (252) 2112700", "website": "https://lxrhotels3.hilton.com/lxr/susona-bodrum/"}, "geometry": {"type": "Point", "coordinates": [27.4768516, 37.0873909]}},
{"type": "Feature", "id": "U2FqSKPy65c7lBPPKXkufkvAs-o=", "properties": {"ref": "biltmore-mayfair", "brand": "LXR Hotels & Resorts", "@spider": "hilton", "addr:full": "44 Grosvenor Square", "addr:city": "UK", "addr:country": "W1K 2HP", "name": "Home", "phone": "+44 (0) 20 7629 9400", "website": "https://lxrhotels3.hilton.com/lxr/biltmore-mayfair/"}, "geometry": {"type": "Point", "coordinates": [-0.15099510000004557, 51.510574]}},
{"type": "Feature", "id": "XuQ6kajfQELbJHlziPZ7Fo6axTE=", "properties": {"ref": "hotel1000", "brand": "LXR Hotels & Resorts", "@spider": "hilton", "addr:full": "1000 1st Avenue, WA", "addr:city": "USA", "addr:country": "98104", "name": "Home", "phone": "+1 206-957-1000", "website": "https://lxrhotels3.hilton.com/lxr/hotel1000/"}, "geometry": {"type": "Point", "coordinates": [-122.3361295, 47.6051639]}},
{"type": "Feature", "id": "5a-7CncwOApLELlcntY44y9ugQE=", "properties": {"ref": "zemi-beach-house", "brand": "LXR Hotels & Resorts", "@spider": "hilton", "addr:full": "Shoal Bay East", "addr:city": "Anguilla", "name": "Home", "phone": "+264-584-0001", "website": "https://lxrhotels3.hilton.com/lxr/zemi-beach-house/"}, "geometry": {"type": "Point", "coordinates": [-63.036722999999995, 18.251474]}},
{"type": "Feature", "id": "-fTIDQmCwCdhUiieyGQYTIfMGAw=", "properties": {"ref": "habtoor-palace-dubai", "brand": "LXR Hotels & Resorts", "@spider": "hilton", "addr:full": "Al Habtoor City, Sheikh Zayed Road", "addr:city": "Dubai", "name": "Home", "phone": "+971-4-435-5555", "website": "https://lxrhotels3.hilton.com/lxr/habtoor-palace-dubai/"}, "geometry": {"type": "Point", "coordinates": [55.2540434, 25.1832078]}},
{"type": "Feature", "id": "WYU44e2VzLb1AwWA9da-HXFHqJ0=", "properties": {"ref": "crockfords-las-vegas", "brand": "LXR Hotels & Resorts", "@spider": "hilton", "addr:full": "333 W Resorts World Drive, Nevada", "addr:city": "USA", "addr:country": "89109", "name": "Home", "phone": "+1 702-676-6011", "website": "https://lxrhotels3.hilton.com/lxr/crockfords-las-vegas/"}, "geometry": {"type": "Point", "coordinates": [-115.16566744654, 36.134704943296]}},
{"type": "Feature", "id": "0dFTrsxl-TtjyUC6ogz88EyX1ac=", "properties": {"ref": "oceana", "brand": "LXR Hotels & Resorts", "@spider": "hilton", "addr:full": "849 Ocean Avenue, California", "addr:city": "USA", "addr:country": "90403", "name": "Home", "phone": "+1 800-777-0758", "website": "https://lxrhotels3.hilton.com/lxr/oceana/"}, "geometry": {"type": "Point", "coordinates": [-118.5058895, 34.0210757]}}]}