{"type":"FeatureCollection","features":[{"type": "Feature", "id": "Su-QR23O_3lJ5Ofsj_l14zxSkTE=", "properties": {"ref": "7144", "@spider": "homedepot_ca", "addr:full": "1020 Hillside Drive", "addr:city": "Kamloops", "addr:state": "BC", "addr:postcode": "V2E2S5", "name": "Home Depot : Magasin sp\u00e9cialis\u00e9 en am\u00e9lioration domiciliaire et en quincaillerie \u00e0 Kamloops.", "phone": "8004663337", "website": "https://stores.homedepot.ca/bc/kamloops/bricolage-kamloops-bc-hs7144.html", "brand": "The Home Depot"}, "geometry": {"type": "Point", "coordinates": [-120.3712213, 50.66618]}},
{"type": "Feature", "id": "mp_4eSb1fQpq3HDcat47vlFWKr8=", "properties": {"ref": "7169", "@spider": "homedepot_ca", "addr:full": "4500 Real-Proulx", "addr:city": "Trois-Rivi\u00e8res", "addr:state": "QC", "addr:postcode": "G9A 6P9", "name": "The Home Depot: Home Improvement & Hardware Store in Trois-Rivi\u00e8res.", "phone": "(819) 379-3990", "website": "https://stores.homedepot.ca/qc/trois-rivieres/home-improvement-trois-rivieres-qc-7169.html", "opening_hours": "Mo-Fr 08:00-21:00; Sa-Su 08:00-17:00", "brand": "The Home Depot"}, "geometry": {"type": "Point", "coordinates": [-72.573889, 46.332341]}},
{"type": "Feature", "id": "AvRpMLpvAg38l645NHLeKDThTg0=", "properties": {"ref": "7189", "@spider": "homedepot_ca", "addr:full": "500 rue de la Concorde", "addr:city": "L\u00e9vis", "addr:state": "QC", "addr:postcode": "G6W 8A8", "name": "Home Depot : Magasin sp\u00e9cialis\u00e9 en am\u00e9lioration domiciliaire et en quincaillerie \u00e0 L\u00e9vis.", "phone": "(418) 834-7050", "website": "https://stores.homedepot.ca/qc/levis/bricolage-levis-qc-7189.html", "opening_hours": "Mo-Fr 08:00-21:00; Sa-Su 08:00-17:00", "brand": "The Home Depot"}, "geometry": {"type": "Point", "coordinates": [-71.2755261, 46.7310589]}},
{"type": "Feature", "id": "AaeZpYMbO2fpM1hRTizcWyyGXZE=", "properties": {"ref": "7265", "@spider": "homedepot_ca", "addr:full": "3043 Clarence Avenue South", "addr:city": "Saskatoon", "addr:state": "SK", "addr:postcode": "S7T0B5", "name": "The Home Depot: Home Improvement & Hardware Store in Saskatoon.", "phone": "8004663337", "website": "https://stores.homedepot.ca/sk/saskatoon/home-improvement-saskatoon-sk-hs7265.html", "brand": "The Home Depot"}, "geometry": {"type": "Point", "coordinates": [-106.6464546, 52.086685]}},
{"type": "Feature", "id": "eC0gRzaq5D083poi6KGY98h1WqI=", "properties": {"ref": "7051", "@spider": "homedepot_ca", "addr:full": "707 Circle Drive East", "addr:city": "Saskatoon", "addr:state": "SK", "addr:postcode": "S7K0V1", "name": "The Home Depot: Home Improvement & Hardware Store in Saskatoon.", "phone": "8004663337", "website": "https://stores.homedepot.ca/sk/saskatoon/home-improvement-saskatoon-sk-hs7051.html", "brand": "The Home Depot"}, "geometry": {"type": "Point", "coordinates": [-106.6570504, 52.1558182]}},
{"type": "Feature", "id": "iTGD98IsIMWmGr_gaYkayLf8JCs=", "properties": {"ref": "7245", "@spider": "homedepot_ca", "addr:full": "1030 North Pasqua Street", "addr:city": "Regina", "addr:state": "SK", "addr:postcode": "S4T4L1", "name": "The Home Depot: Home Improvement & Hardware Store in Regina.", "phone": "8004663337", "website": "https://stores.homedepot.ca/sk/regina/home-improvement-regina-sk-hs7245.html", "brand": "The Home Depot"}, "geometry": {"type": "Point", "coordinates": [-104.6409627, 50.4625544]}},
{"type": "Feature", "id": "FLEUdcuaA4Klfmz8VZUe4jiPcRE=", "properties": {"ref": "7052", "@spider": "homedepot_ca", "addr:full": "1867 Victoria Avenue E.", "addr:city": "Regina", "addr:state": "SK", "addr:postcode": "S4N6E6", "name": "The Home Depot: Home Improvement & Hardware Store in Regina.", "phone": "8004663337", "website": "https://stores.homedepot.ca/sk/regina/home-improvement-regina-sk-hs7052.html", "brand": "The Home Depot"}, "geometry": {"type": "Point", "coordinates": [-104.5575778, 50.446117]}},
{"type": "Feature", "id": "JhXFjFfY-ZGq2Uc80nYHS8KCFyg=", "properties": {"ref": "7087", "@spider": "homedepot_ca", "addr:full": "160 Boulevard Arthabaska Ouest", "addr:city": "Victoriaville", "addr:state": "QC", "addr:postcode": "G6S0P2", "name": "The Home Depot: Home Improvement & Hardware Store in Victoriaville.", "phone": "8004663337", "website": "https://stores.homedepot.ca/qc/victoriaville/home-improvement-victoriaville-qc-hs7087.html", "brand": "The Home Depot"}, "geometry": {"type": "Point", "coordinates": [-71.9272089, 46.064342]}},
{"type": "Feature", "id": "QmwHUFzvPOZfsomqZ0GA2PyzopI=", "properties": {"ref": "7187", "@spider": "homedepot_ca", "addr:full": "55 Boulevard de la Cit\u00e9 des Jeunes", "addr:city": "Vaudreuil-Dorion", "addr:state": "QC", "addr:postcode": "J7V 8C1", "name": "The Home Depot: Home Improvement & Hardware Store in Vaudreuil-Dorion.", "phone": "(450) 510-2600", "website": "https://stores.homedepot.ca/qc/vaudreuil-dorion/home-improvement-vaudreuil-dorion-qc-7187.html", "opening_hours": "Mo-Fr 08:00-21:00; Sa-Su 08:00-17:00", "brand": "The Home Depot"}, "geometry": {"type": "Point", "coordinates": [-74.03766, 45.405218]}},
{"type": "Feature", "id": "1tz8J9DoK9V8YYa8D0ukUL8quzQ=", "properties": {"ref": "7089", "@spider": "homedepot_ca", "addr:full": "1355 boulevard du Plateau Saint-Joseph", "addr:city": "Sherbrooke", "addr:state": "QC", "addr:postcode": "J1L3C5", "name": "The Home Depot: Home Improvement & Hardware Store in Sherbrooke.", "phone": "8004663337", "website": "https://stores.homedepot.ca/qc/sherbrooke/home-improvement-sherbrooke-qc-hs7089.html", "brand": "The Home Depot"}, "geometry": {"type": "Point", "coordinates": [-71.9683448, 45.4207435]}},
{"type": "Feature", "id": "67isb_M5i68-ctibszwDYmaJKSs=", "properties": {"ref": "7163", "@spider": "homedepot_ca", "addr:full": "1516 Rue Jules-Verne", "addr:city": "Sainte-Foy", "addr:state": "QC", "addr:postcode": "G2G 2R5", "name": "The Home Depot: Home Improvement & Hardware Store in Sainte-Foy.", "phone": "(418) 872-8007", "website": "https://stores.homedepot.ca/qc/sainte-foy/home-improvement-sainte-foy-qc-7163.html", "opening_hours": "Mo-Fr 08:00-21:00; Sa-Su 08:00-17:00", "brand": "The Home Depot"}, "geometry": {"type": "Point", "coordinates": [-71.348955, 46.781029]}},
{"type": "Feature", "id": "lV0byJZnVNmHc5uMZfSgQxsTGs0=", "properties": {"ref": "7147", "@spider": "homedepot_ca", "addr:full": "1045 Boul du Grand Heron", "addr:city": "Saint-J\u00e9r\u00f4me", "addr:state": "QC", "addr:postcode": "J7Y3P2", "name": "The Home Depot: Home Improvement & Hardware Store in Saint-J\u00e9r\u00f4me.", "phone": "8004663337", "website": "https://stores.homedepot.ca/qc/saint-jerome/home-improvement-saint-jerome-qc-hs7147.html", "brand": "The Home Depot"}, "geometry": {"type": "Point", "coordinates": [-74.0161139, 45.7591271]}},
{"type": "Feature", "id": "sxPhkrM-CuyVuTRAO5UmWoNIwOw=", "properties": {"ref": "7224", "@spider": "homedepot_ca", "addr:full": "850 Douglas Street", "addr:city": "Saint-Jean-sur-Richelieu", "addr:state": "QC", "addr:postcode": "J3A1V1", "name": "The Home Depot: Home Improvement & Hardware Store in Saint-Jean-sur-Richelieu.", "phone": "8004663337", "website": "https://stores.homedepot.ca/qc/saint-jean-sur-richelieu/home-improvement-saint-jean-sur-richelieu-qc-hs7224.html", "brand": "The Home Depot"}, "geometry": {"type": "Point", "coordinates": [-73.2839674, 45.3291721]}},
{"type": "Feature", "id": "GhjeMEpNtkDXSHmVnJ_ZJ2zP95Q=", "properties": {"ref": "7185", "@spider": "homedepot_ca", "addr:full": "490 Voie de la Desserte", "addr:city": "Saint-Constant", "addr:state": "QC", "addr:postcode": "J5A 2S6", "name": "The Home Depot: Home Improvement & Hardware Store in Saint-Constant.", "phone": "(450) 633-2030", "website": "https://stores.homedepot.ca/qc/saint-constant/home-improvement-saint-constant-qc-7185.html", "opening_hours": "Mo-Fr 08:00-21:00; Sa-Su 08:00-17:00", "brand": "The Home Depot"}, "geometry": {"type": "Point", "coordinates": [-73.58454, 45.392637]}},
{"type": "Feature", "id": "VI7WdWBcFYeWKMIIAJSHEpeSYxY=", "properties": {"ref": "7150", "@spider": "homedepot_ca", "addr:full": "901 Rue Claude Jutra", "addr:city": "Saint-Bruno", "addr:state": "QC", "addr:postcode": "J3V6N8", "name": "The Home Depot: Home Improvement & Hardware Store in Saint-Bruno.", "phone": "8004663337", "website": "https://stores.homedepot.ca/qc/saint-bruno/home-improvement-saint-bruno-qc-hs7150.html", "brand": "The Home Depot"}, "geometry": {"type": "Point", "coordinates": [-73.3863321, 45.5069632]}},
{"type": "Feature", "id": "1uaa6rh3duy4hVVP6AXLSeezIAE=", "properties": {"ref": "7162", "@spider": "homedepot_ca", "addr:full": "300 rue Bouvier", "addr:city": "Qu\u00e9bec", "addr:state": "QC", "addr:postcode": "G2J 1R8", "name": "The Home Depot: Home Improvement & Hardware Store in Qu\u00e9bec.", "phone": "(418) 634-8880", "website": "https://stores.homedepot.ca/qc/quebec/home-improvement-quebec-qc-7162.html", "opening_hours": "Mo-Fr 08:00-21:00; Sa-Su 08:00-17:00", "brand": "The Home Depot"}, "geometry": {"type": "Point", "coordinates": [-71.2722818, 46.8430633]}},
{"type": "Feature", "id": "8CVphK5JAml7srNHoTApnvNtp00=", "properties": {"ref": "7266", "@spider": "homedepot_ca", "addr:full": "185 Hymus Boulevard", "addr:city": "Pointe-Claire", "addr:state": "QC", "addr:postcode": "H9R1E9", "name": "The Home Depot: Home Improvement & Hardware Store in Pointe-Claire.", "phone": "8004663337", "website": "https://stores.homedepot.ca/qc/pointe-claire/home-improvement-pointe-claire-qc-hs7266.html", "brand": "The Home Depot"}, "geometry": {"type": "Point", "coordinates": [-73.8193832, 45.4625076]}},
{"type": "Feature", "id": "5qIsFz8XuXLEvnK5a6JE25Af7RE=", "properties": {"ref": "7149", "@spider": "homedepot_ca", "addr:full": "100 rue Beaubien Ouest", "addr:city": "Montr\u00e9al", "addr:state": "QC", "addr:postcode": "H2S3S1", "name": "The Home Depot: Home Improvement & Hardware Store in Montr\u00e9al.", "phone": "8004663337", "website": "https://stores.homedepot.ca/qc/montreal/home-improvement-montreal-qc-hs7149.html", "brand": "The Home Depot"}, "geometry": {"type": "Point", "coordinates": [-73.6086325, 45.5284474]}},
{"type": "Feature", "id": "M8u0cPjxk9scD3z4CF1xzS8Hj2Q=", "properties": {"ref": "7146", "@spider": "homedepot_ca", "addr:full": "1000 rue Sauve Ouest", "addr:city": "Montr\u00e9al", "addr:state": "QC", "addr:postcode": "H4N3L5", "name": "The Home Depot: Home Improvement & Hardware Store in Montr\u00e9al.", "phone": "8004663337", "website": "https://stores.homedepot.ca/qc/montreal/home-improvement-montreal-qc-hs7146.html", "brand": "The Home Depot"}, "geometry": {"type": "Point", "coordinates": [-73.6639765, 45.5372582]}},
{"type": "Feature", "id": "lbBY0vM2iU3LTI4brtZ6V3nEuTw=", "properties": {"ref": "7128", "@spider": "homedepot_ca", "addr:full": "4625 Saint-Antoine West", "addr:city": "Montr\u00e9al", "addr:state": "QC", "addr:postcode": "H4C1E2", "name": "The Home Depot: Home Improvement & Hardware Store in Montr\u00e9al.", "phone": "8004663337", "website": "https://stores.homedepot.ca/qc/montreal/home-improvement-montreal-qc-hs7128.html", "brand": "The Home Depot"}, "geometry": {"type": "Point", "coordinates": [-73.5936316, 45.4768003]}},
{"type": "Feature", "id": "sSwtpQ6y7aSDJndfNWcF07OqgZg=", "properties": {"ref": "7124", "@spider": "homedepot_ca", "addr:full": "1400 Le Corbusier Blvd", "addr:city": "Laval", "addr:state": "QC", "addr:postcode": "H7N 6J5", "name": "The Home Depot: Home Improvement & Hardware Store in Laval.", "phone": "(450) 680-2225", "website": "https://stores.homedepot.ca/qc/laval/home-improvement-laval-qc-7124.html", "opening_hours": "Mo-Fr 08:00-21:00; Sa-Su 08:00-17:00", "brand": "The Home Depot"}, "geometry": {"type": "Point", "coordinates": [-73.730737, 45.563654]}},
{"type": "Feature", "id": "rVwgmD0e5YBa64u3y7MV_LNlIA4=", "properties": {"ref": "7139", "@spider": "homedepot_ca", "addr:full": "660 Montee des Pionniers", "addr:city": "Lachenaie", "addr:state": "QC", "addr:postcode": "J6V 1N9", "name": "The Home Depot: Home Improvement & Hardware Store in Lachenaie.", "phone": "(450) 657-4400", "website": "https://stores.homedepot.ca/qc/lachenaie/home-improvement-lachenaie-qc-7139.html", "opening_hours": "Mo-Fr 08:00-21:00; Sa-Su 08:00-17:00", "brand": "The Home Depot"}, "geometry": {"type": "Point", "coordinates": [-73.507908, 45.722042]}},
{"type": "Feature", "id": "G6nEpsgYev6l6k-8qHSy9lXtZyM=", "properties": {"ref": "7152", "@spider": "homedepot_ca", "addr:full": "500 Auguste", "addr:city": "Greenfield Park", "addr:state": "QC", "addr:postcode": "J4V 3R4", "name": "The Home Depot: Home Improvement & Hardware Store in Greenfield Park.", "phone": "(450) 462-5020", "website": "https://stores.homedepot.ca/qc/greenfieldpark/home-improvement-greenfieldpark-qc-7152.html", "opening_hours": "Mo-Fr 08:00-21:00; Sa-Su 08:00-17:00", "brand": "The Home Depot"}, "geometry": {"type": "Point", "coordinates": [-73.463624, 45.486927]}},
{"type": "Feature", "id": "Z-qMhozzWTw9-6jpkpsaIOxt-6c=", "properties": {"ref": "7188", "@spider": "homedepot_ca", "addr:full": "165 Rue Simonds Nord", "addr:city": "Granby", "addr:state": "QC", "addr:postcode": "J2J0R7", "name": "The Home Depot: Home Improvement & Hardware Store in Granby.", "phone": "8004663337", "website": "https://stores.homedepot.ca/qc/granby/home-improvement-granby-qc-hs7188.html", "brand": "The Home Depot"}, "geometry": {"type": "Point", "coordinates": [-72.7524285, 45.4202851]}},
{"type": "Feature", "id": "ZgN70anj5-UeAVbYJzIdmFJP-Bo=", "properties": {"ref": "7140", "@spider": "homedepot_ca", "addr:full": "243 Montee Paiement", "addr:city": "Gatineau", "addr:state": "QC", "addr:postcode": "J8P6M7", "name": "The Home Depot: Home Improvement & Hardware Store in Gatineau.", "phone": "8004663337", "website": "https://stores.homedepot.ca/qc/gatineau/home-improvement-gatineau-qc-hs7140.html", "brand": "The Home Depot"}, "geometry": {"type": "Point", "coordinates": [-75.6759565, 45.4843455]}},
{"type": "Feature", "id": "nddLb3bE12LUbyTBYTh5dF5PF6c=", "properties": {"ref": "7159", "@spider": "homedepot_ca", "addr:full": "2400 Boul du Faubourg", "addr:city": "Boisbriand", "addr:state": "QC", "addr:postcode": "J7H1S3", "name": "The Home Depot: Home Improvement & Hardware Store in Boisbriand.", "phone": "8004663337", "website": "https://stores.homedepot.ca/qc/boisbriand/home-improvement-boisbriand-qc-hs7159.html", "brand": "The Home Depot"}, "geometry": {"type": "Point", "coordinates": [-73.8458297, 45.6259458]}},
{"type": "Feature", "id": "P95uQ1oSzyEigSd5RpFEnSEJC2M=", "properties": {"ref": "7156", "@spider": "homedepot_ca", "addr:full": "11300 Renaude Lapointe", "addr:city": "Anjou", "addr:state": "QC", "addr:postcode": "H1J 2V7", "name": "The Home Depot: Home Improvement & Hardware Store in Anjou.", "phone": "(514) 356-3650", "website": "https://stores.homedepot.ca/qc/anjou/home-improvement-anjou-qc-7156.html", "opening_hours": "Mo-Fr 08:00-21:00; Sa-Su 08:00-17:00", "brand": "The Home Depot"}, "geometry": {"type": "Point", "coordinates": [-73.599694, 45.610498]}},
{"type": "Feature", "id": "gqHcT7BPnALzZSdoXYd6q-lHj0w=", "properties": {"ref": "7173", "@spider": "homedepot_ca", "addr:full": "60 Buchanan Drive", "addr:city": "Charlottetown", "addr:state": "PE", "addr:postcode": "C1E 2E4", "name": "The Home Depot: Home Improvement & Hardware Store in Charlottetown.", "phone": "(902) 626-3140", "website": "https://stores.homedepot.ca/pe/charlottetown/home-improvement-charlottetown-pe-7173.html", "opening_hours": "Mo-Sa 08:00-20:00; Su 12:00-17:00", "brand": "The Home Depot"}, "geometry": {"type": "Point", "coordinates": [-63.154555, 46.261569]}},
{"type": "Feature", "id": "1l-W7w85_QStWp0P3GiBuCXRdAE=", "properties": {"ref": "7182", "@spider": "homedepot_ca", "addr:full": "901 Juliana Drive", "addr:city": "Woodstock", "addr:state": "ON", "addr:postcode": "N4V 1B9", "name": "The Home Depot: Home Improvement & Hardware Store in Woodstock.", "phone": "(519) 421-5500", "website": "https://stores.homedepot.ca/on/woodstock/home-improvement-woodstock-on-7182.html", "opening_hours": "Mo-Fr 07:00-21:00; Sa 07:00-19:00; Su 08:00-18:00", "brand": "The Home Depot"}, "geometry": {"type": "Point", "coordinates": [-80.7310547, 43.1171202]}},
{"type": "Feature", "id": "0Qq6KMG-XvaHuzpJk607Xrwn1dY=", "properties": {"ref": "7002", "@spider": "homedepot_ca", "addr:full": "140 Northview Boulevard", "addr:city": "Woodbridge", "addr:state": "ON", "addr:postcode": "L4L 8T2", "name": "The Home Depot: Home Improvement & Hardware Store in Woodbridge.", "phone": "(905) 851-1800", "website": "https://stores.homedepot.ca/on/woodbridge/home-improvement-woodbridge-on-7002.html", "opening_hours": "Mo-Fr 06:00-21:00; Sa 07:00-20:00; Su 08:00-20:00", "brand": "The Home Depot"}, "geometry": {"type": "Point", "coordinates": [-79.5458006, 43.7915016]}},
{"type": "Feature", "id": "py3_16bKm2Echbk5l46SY_o22sk=", "properties": {"ref": "7228", "@spider": "homedepot_ca", "addr:full": "1925 Division Road", "addr:city": "Windsor", "addr:state": "ON", "addr:postcode": "N8W1Z7", "name": "The Home Depot: Home Improvement & Hardware Store in Windsor.", "phone": "8004663337", "website": "https://stores.homedepot.ca/on/windsor/home-improvement-windsor-on-hs7228.html", "brand": "The Home Depot"}, "geometry": {"type": "Point", "coordinates": [-82.9723336, 42.2616261]}},
{"type": "Feature", "id": "_7ILvsh3tMroRg7MjpHVlNCii98=", "properties": {"ref": "7184", "@spider": "homedepot_ca", "addr:full": "6630 Tecumseh Rd. E", "addr:city": "Windsor", "addr:state": "ON", "addr:postcode": "N8T1E6", "name": "The Home Depot: Home Improvement & Hardware Store in Windsor.", "phone": "8004663337", "website": "https://stores.homedepot.ca/on/windsor/home-improvement-windsor-on-hs7184.html", "brand": "The Home Depot"}, "geometry": {"type": "Point", "coordinates": [-82.9471309, 42.3130994]}},
{"type": "Feature", "id": "5ChG7rw8JrkbmzdBuajbXE_ZiNs=", "properties": {"ref": "7249", "@spider": "homedepot_ca", "addr:full": "4200 Garden Street", "addr:city": "Whitby", "addr:state": "ON", "addr:postcode": "L1R3K5", "name": "The Home Depot: Home Improvement & Hardware Store in Whitby.", "phone": "8004663337", "website": "https://stores.homedepot.ca/on/whitby/home-improvement-whitby-on-hs7249.html", "brand": "The Home Depot"}, "geometry": {"type": "Point", "coordinates": [-78.9510975, 43.9204514]}},
{"type": "Feature", "id": "NTbR_ymWo6twm2mNrFQ76uqUeng=", "properties": {"ref": "7005", "@spider": "homedepot_ca", "addr:full": "1700 Victoria Street East", "addr:city": "Whitby", "addr:state": "ON", "addr:postcode": "L1N9K6", "name": "The Home Depot: Home Improvement & Hardware Store in Whitby.", "phone": "8004663337", "website": "https://stores.homedepot.ca/on/whitby/home-improvement-whitby-on-hs7005.html", "brand": "The Home Depot"}, "geometry": {"type": "Point", "coordinates": [-78.8975091, 43.8683832]}},
{"type": "Feature", "id": "SElVpHWwvux8v07hAJlGnt_TCWE=", "properties": {"ref": "7105", "@spider": "homedepot_ca", "addr:full": "600 King Street North", "addr:city": "Waterloo", "addr:state": "ON", "addr:postcode": "N2V 2J5", "name": "The Home Depot: Home Improvement & Hardware Store in Waterloo.", "phone": "(519) 883-0580", "website": "https://stores.homedepot.ca/on/waterloo/home-improvement-waterloo-on-7105.html", "opening_hours": "Mo-Fr 07:00-21:00; Sa 07:00-20:00; Su 08:00-20:00", "brand": "The Home Depot"}, "geometry": {"type": "Point", "coordinates": [-80.5332493, 43.502694]}},
{"type": "Feature", "id": "iSiz5KkY_3ppSf1-MasXZMdbf3M=", "properties": {"ref": "7253", "@spider": "homedepot_ca", "addr:full": "55 Cityview Blvd.", "addr:city": "Vaughan", "addr:state": "ON", "addr:postcode": "L4H 4E8", "name": "The Home Depot: Home Improvement & Hardware Store in Vaughan.", "phone": "(905) 303-2323", "website": "https://stores.homedepot.ca/on/vaughan/home-improvement-vaughan-on-7253.html", "opening_hours": "Mo-Fr 06:00-21:00; Sa 07:00-20:00; Su 08:00-20:00", "brand": "The Home Depot"}, "geometry": {"type": "Point", "coordinates": [-79.551693, 43.854731]}},
{"type": "Feature", "id": "kOsMWp6JI2pTJ4LtxrlzmTeGo6Q=", "properties": {"ref": "7134", "@spider": "homedepot_ca", "addr:full": "825 Caledonia Road", "addr:city": "Toronto", "addr:state": "ON", "addr:postcode": "M6B3X8", "name": "The Home Depot: Home Improvement & Hardware Store in Toronto.", "phone": "8004663337", "website": "https://stores.homedepot.ca/on/toronto/home-improvement-toronto-on-hs7134.html", "brand": "The Home Depot"}, "geometry": {"type": "Point", "coordinates": [-79.4631153, 43.7012359]}},
{"type": "Feature", "id": "9GE1Y3mqYq9o0fdJbT_KWtGD9pU=", "properties": {"ref": "7129", "@spider": "homedepot_ca", "addr:full": "90 Billy Bishop Way", "addr:city": "Toronto", "addr:state": "ON", "addr:postcode": "M3K2C8", "name": "The Home Depot: Home Improvement & Hardware Store in Toronto.", "phone": "8004663337", "website": "https://stores.homedepot.ca/on/toronto/home-improvement-toronto-on-hs7129.html", "brand": "The Home Depot"}, "geometry": {"type": "Point", "coordinates": [-79.4531604, 43.7313605]}},
{"type": "Feature", "id": "FrdKms31W3_ItUWxyo2uyq8XnL8=", "properties": {"ref": "7107", "@spider": "homedepot_ca", "addr:full": "2911 Eglinton Avenue East", "addr:city": "Toronto", "addr:state": "ON", "addr:postcode": "M1J2E5", "name": "The Home Depot: Home Improvement & Hardware Store in Toronto.", "phone": "8004663337", "website": "https://stores.homedepot.ca/on/toronto/home-improvement-toronto-on-hs7107.html", "brand": "The Home Depot"}, "geometry": {"type": "Point", "coordinates": [-79.2363041, 43.738218]}},
{"type": "Feature", "id": "nkGxo7dBaaxtObdNlzU2Oc86WQc=", "properties": {"ref": "7080", "@spider": "homedepot_ca", "addr:full": "1000 Gerrard Street East", "addr:city": "Toronto", "addr:state": "ON", "addr:postcode": "M4M3G6", "name": "The Home Depot: Home Improvement & Hardware Store in Toronto.", "phone": "8004663337", "website": "https://stores.homedepot.ca/on/toronto/home-improvement-toronto-on-hs7080.html", "brand": "The Home Depot"}, "geometry": {"type": "Point", "coordinates": [-79.3391627, 43.669144]}},
{"type": "Feature", "id": "O1o8Rx9AI73e8__q6UoybKj4b7o=", "properties": {"ref": "7078", "@spider": "homedepot_ca", "addr:full": "2375 Steeles Ave. West", "addr:city": "Toronto", "addr:state": "ON", "addr:postcode": "M3J3N2", "name": "The Home Depot: Home Improvement & Hardware Store in Toronto.", "phone": "8004663337", "website": "https://stores.homedepot.ca/on/toronto/home-improvement-toronto-on-hs7078.html", "brand": "The Home Depot"}, "geometry": {"type": "Point", "coordinates": [-79.4791771, 43.7840966]}},
{"type": "Feature", "id": "VPsJeLRxzmqK4KenayVd1qxa3qc=", "properties": {"ref": "7073", "@spider": "homedepot_ca", "addr:full": "101 Wicksteed Ave", "addr:city": "Toronto", "addr:state": "ON", "addr:postcode": "M4G4H9", "name": "The Home Depot: Home Improvement & Hardware Store in Toronto.", "phone": "(647) 931-2839", "website": "https://stores.homedepot.ca/on/toronto/home-improvement-toronto-on-hs7073.html", "opening_hours": "Mo-Sa 07:00-20:00; Su 08:00-20:00", "brand": "The Home Depot"}, "geometry": {"type": "Point", "coordinates": [-79.3574681, 43.7105725]}},
{"type": "Feature", "id": "mjby6otqcEKYCX3wUU5Lu0BINpo=", "properties": {"ref": "7013", "@spider": "homedepot_ca", "addr:full": "2121 St. Clair Avenue West", "addr:city": "Toronto", "addr:state": "ON", "addr:postcode": "M6N4X9", "name": "The Home Depot: Home Improvement & Hardware Store in Toronto.", "phone": "(647) 367-2688", "website": "https://stores.homedepot.ca/on/toronto/home-improvement-toronto-on-hs7013.html", "opening_hours": "Mo-Sa 07:00-20:00; Su 08:00-20:00", "brand": "The Home Depot"}, "geometry": {"type": "Point", "coordinates": [-79.4695096, 43.6713903]}},
{"type": "Feature", "id": "JNxMB4Xjvn8Yj72AaYVL9Eguq-I=", "properties": {"ref": "7027", "@spider": "homedepot_ca", "addr:full": "60 Grand Marshall Drive", "addr:city": "Toronto", "addr:state": "ON", "addr:postcode": "M1B5N6", "name": "The Home Depot: Home Improvement & Hardware Store in Toronto.", "phone": "8004663337", "website": "https://stores.homedepot.ca/on/toronto/home-improvement-toronto-on-hs7027.html", "brand": "The Home Depot"}, "geometry": {"type": "Point", "coordinates": [-79.1961164, 43.80183]}},
{"type": "Feature", "id": "UqstewJgYQMD9_WEnXCj3sAbDpw=", "properties": {"ref": "7012", "@spider": "homedepot_ca", "addr:full": "7 Curity Avenue", "addr:city": "Toronto", "addr:state": "ON", "addr:postcode": "M4B3L8", "name": "The Home Depot: Home Improvement & Hardware Store in Toronto.", "phone": "(647) 250 1361", "website": "https://stores.homedepot.ca/on/toronto/home-improvement-toronto-on-hs7012.html", "opening_hours": "Mo-Sa 07:00-20:00; Su 08:00-20:00", "brand": "The Home Depot"}, "geometry": {"type": "Point", "coordinates": [-79.3138108, 43.707651]}},
{"type": "Feature", "id": "akbzULEXzg0LqlW2yGyzAfkY6hw=", "properties": {"ref": "7236", "@spider": "homedepot_ca", "addr:full": "2143 Riverside Drive", "addr:city": "Timmins", "addr:state": "ON", "addr:postcode": "P4N 7C3", "name": "The Home Depot: Home Improvement & Hardware Store in Timmins.", "phone": "(705) 360-8750", "website": "https://stores.homedepot.ca/on/timmins/home-improvement-timmins-on-7236.html", "opening_hours": "Mo-Sa 07:00-20:00; Su 08:00-18:00", "brand": "The Home Depot"}, "geometry": {"type": "Point", "coordinates": [-81.400092, 48.472741]}},
{"type": "Feature", "id": "hPeujQBzBe-XEEYqSovTscXPFq0=", "properties": {"ref": "7102", "@spider": "homedepot_ca", "addr:full": "359 Main Street", "addr:city": "Thunder Bay", "addr:state": "ON", "addr:postcode": "P7B 5L6", "name": "The Home Depot: Home Improvement & Hardware Store in Thunder Bay.", "phone": "(807) 624-1100", "website": "https://stores.homedepot.ca/on/thunderbay/home-improvement-thunderbay-on-7102.html", "opening_hours": "Mo-Fr 07:00-21:00; Sa 07:00-20:00; Su 08:00-18:00", "brand": "The Home Depot"}, "geometry": {"type": "Point", "coordinates": [-89.2363874, 48.4022825]}},
{"type": "Feature", "id": "kcS1fVITTxHBWcmQQSdeOmv784o=", "properties": {"ref": "7022", "@spider": "homedepot_ca", "addr:full": "1500 Marcus Drive", "addr:city": "Sudbury", "addr:state": "ON", "addr:postcode": "P3B 4K5", "name": "The Home Depot: Home Improvement & Hardware Store in Sudbury.", "phone": "(705) 525-2960", "website": "https://stores.homedepot.ca/on/sudbury/home-improvement-sudbury-on-7022.html", "opening_hours": "Mo-Fr 07:00-21:00; Sa 07:00-20:00; Su 08:00-20:00", "brand": "The Home Depot"}, "geometry": {"type": "Point", "coordinates": [-80.9416899, 46.5037511]}},
{"type": "Feature", "id": "UfXVD79X58kIyAah_I0ke4sGAqA=", "properties": {"ref": "7256", "@spider": "homedepot_ca", "addr:full": "1775 Stone Church Road East", "addr:city": "Stoney Creek", "addr:state": "ON", "addr:postcode": "L8J0B4", "name": "The Home Depot: Home Improvement & Hardware Store in Stoney Creek.", "phone": "8004663337", "website": "https://stores.homedepot.ca/on/stoneycreek/home-improvement-stoneycreek-on-hs7256.html", "brand": "The Home Depot"}, "geometry": {"type": "Point", "coordinates": [-79.8135435, 43.192982]}},
{"type": "Feature", "id": "EzbU7RFiF_S6haVYgDbIhtrLufc=", "properties": {"ref": "7023", "@spider": "homedepot_ca", "addr:full": "20 YMCA Drive", "addr:city": "St. Catharines", "addr:state": "ON", "addr:postcode": "L2N 7R6", "name": "The Home Depot: Home Improvement & Hardware Store in St. Catharines.", "phone": "(905) 937-5900", "website": "https://stores.homedepot.ca/on/st-catharines/home-improvement-st-catharines-on-7023.html", "opening_hours": "Mo-Fr 07:00-21:00; Sa 07:00-20:00; Su 08:00-20:00", "brand": "The Home Depot"}, "geometry": {"type": "Point", "coordinates": [-79.2470348, 43.1799501]}},
{"type": "Feature", "id": "WYZc1QfgIVjPx-49YV-X-Smps90=", "properties": {"ref": "7001", "@spider": "homedepot_ca", "addr:full": "428 Ellesmere Road", "addr:city": "Scarborough", "addr:state": "ON", "addr:postcode": "M1R 4E6", "name": "The Home Depot: Home Improvement & Hardware Store in Scarborough.", "phone": "(416) 609-1800", "website": "https://stores.homedepot.ca/on/scarborough/home-improvement-scarborough-on-7001.html", "opening_hours": "Mo-Fr 06:00-21:00; Sa 07:00-20:00; Su 08:00-20:00", "brand": "The Home Depot"}, "geometry": {"type": "Point", "coordinates": [-79.2982195, 43.762788]}},
{"type": "Feature", "id": "DE_FsIrAaEkAp_4vgjea0PGaZ9U=", "properties": {"ref": "7034", "@spider": "homedepot_ca", "addr:full": "530 Great Northern Road", "addr:city": "Sault Ste. Marie", "addr:state": "ON", "addr:postcode": "P6B 4Z9", "name": "The Home Depot: Home Improvement & Hardware Store in Sault Ste. Marie.", "phone": "(705) 254-1150", "website": "https://stores.homedepot.ca/on/saultste-marie/home-improvement-saultste-marie-on-7034.html", "opening_hours": "Mo-Fr 07:00-21:00; Sa 07:00-20:00; Su 08:00-18:00", "brand": "The Home Depot"}, "geometry": {"type": "Point", "coordinates": [-84.3151766, 46.5432202]}},
{"type": "Feature", "id": "jYAhlExhEDC4Nl8sjrO84HrR79g=", "properties": {"ref": "7153", "@spider": "homedepot_ca", "addr:full": "1350 Quinn Drive", "addr:city": "Sarnia", "addr:state": "ON", "addr:postcode": "N7S6L5", "name": "The Home Depot: Home Improvement & Hardware Store in Sarnia.", "phone": "8004663337", "website": "https://stores.homedepot.ca/on/sarnia/home-improvement-sarnia-on-hs7153.html", "brand": "The Home Depot"}, "geometry": {"type": "Point", "coordinates": [-82.3563779, 42.9870433]}},
{"type": "Feature", "id": "0pZlfj2_P9lZuIP-Cat4cgFJCl8=", "properties": {"ref": "7161", "@spider": "homedepot_ca", "addr:full": "10885 Leslie Street", "addr:city": "Richmond Hill", "addr:state": "ON", "addr:postcode": "L4S0B2", "name": "The Home Depot: Home Improvement & Hardware Store in Richmond Hill.", "phone": "8004663337", "website": "https://stores.homedepot.ca/on/richmondhill/home-improvement-richmondhill-on-hs7161.html", "brand": "The Home Depot"}, "geometry": {"type": "Point", "coordinates": [-79.3947717, 43.9015103]}},
{"type": "Feature", "id": "NP6Mrx5ZvRm5mSD5Hx2d90l7Lh8=", "properties": {"ref": "7106", "@spider": "homedepot_ca", "addr:full": "50 Red Maple Road", "addr:city": "Richmond Hill", "addr:state": "ON", "addr:postcode": "L4B4K1", "name": "The Home Depot: Home Improvement & Hardware Store in Richmond Hill.", "phone": "8004663337", "website": "https://stores.homedepot.ca/on/richmondhill/home-improvement-richmondhill-on-hs7106.html", "brand": "The Home Depot"}, "geometry": {"type": "Point", "coordinates": [-79.4236189, 43.8404252]}},
{"type": "Feature", "id": "Bob9qIwdvJjoO7tojTEhFaU-ME4=", "properties": {"ref": "7238", "@spider": "homedepot_ca", "addr:full": "1105-A Kingston Road", "addr:city": "Pickering", "addr:state": "ON", "addr:postcode": "L1V1B5", "name": "The Home Depot: Home Improvement & Hardware Store in Pickering.", "phone": "8004663337", "website": "https://stores.homedepot.ca/on/pickering/home-improvement-pickering-on-hs7238.html", "brand": "The Home Depot"}, "geometry": {"type": "Point", "coordinates": [-79.0948288, 43.8297048]}},
{"type": "Feature", "id": "JSgvBZohJiAPcbR57dNAUNz7l3o=", "properties": {"ref": "7116", "@spider": "homedepot_ca", "addr:full": "500 Lansdowne Street West", "addr:city": "Peterborough", "addr:state": "ON", "addr:postcode": "K9J8J7", "name": "The Home Depot: Home Improvement & Hardware Store in Peterborough.", "phone": "8004663337", "website": "https://stores.homedepot.ca/on/peterborough/home-improvement-peterborough-on-hs7116.html", "brand": "The Home Depot"}, "geometry": {"type": "Point", "coordinates": [-78.3258653, 44.2873712]}},
{"type": "Feature", "id": "p3A_2fYIXQ91jXUTAOdfX7J4Z48=", "properties": {"ref": "7242", "@spider": "homedepot_ca", "addr:full": "27 Robinson Lane", "addr:city": "Pembroke", "addr:state": "ON", "addr:postcode": "K8A 0A5", "name": "The Home Depot: Home Improvement & Hardware Store in Pembroke.", "phone": "(613) 732-6550", "website": "https://stores.homedepot.ca/on/pembroke/home-improvement-pembroke-on-7242.html", "opening_hours": "Mo-Sa 07:00-20:00; Su 08:00-18:00", "brand": "The Home Depot"}, "geometry": {"type": "Point", "coordinates": [-77.079101, 45.814858]}},
{"type": "Feature", "id": "w7cmOCGw1896D_jGjVuCNaE3x1g=", "properties": {"ref": "7226", "@spider": "homedepot_ca", "addr:full": "100 Bowes Street", "addr:city": "Parry Sound", "addr:state": "ON", "addr:postcode": "P2A2L7", "name": "The Home Depot: Home Improvement & Hardware Store in Parry Sound.", "phone": "8004663337", "website": "https://stores.homedepot.ca/on/parrysound/home-improvement-parrysound-on-hs7226.html", "brand": "The Home Depot"}, "geometry": {"type": "Point", "coordinates": [-80.0140337, 45.3446674]}},
{"type": "Feature", "id": "_RxgsWWdSpDGtxUQw2aaEDvS92s=", "properties": {"ref": "7154", "@spider": "homedepot_ca", "addr:full": "1590-20th Avenue East", "addr:city": "Owen Sound", "addr:state": "ON", "addr:postcode": "N4K 5N3", "name": "The Home Depot: Home Improvement & Hardware Store in Owen Sound.", "phone": "(519) 372-3970", "website": "https://stores.homedepot.ca/on/owensound/home-improvement-owensound-on-7154.html", "opening_hours": "Mo-Fr 07:00-21:00; Sa 07:00-19:00; Su 08:00-18:00", "brand": "The Home Depot"}, "geometry": {"type": "Point", "coordinates": [-80.907791, 44.584265]}},
{"type": "Feature", "id": "gl1FsrosKARQwNtoilAGaTmWHV0=", "properties": {"ref": "7158", "@spider": "homedepot_ca", "addr:full": "2056 Bank Street", "addr:city": "Ottawa", "addr:state": "ON", "addr:postcode": "K1V7Z8", "name": "The Home Depot: Home Improvement & Hardware Store in Ottawa.", "phone": "8004663337", "website": "https://stores.homedepot.ca/on/ottawa/home-improvement-ottawa-on-hs7158.html", "brand": "The Home Depot"}, "geometry": {"type": "Point", "coordinates": [-75.6607488, 45.3643534]}},
{"type": "Feature", "id": "fsQpsDRkDxPezu1QadjZ5TO4UCo=", "properties": {"ref": "7026", "@spider": "homedepot_ca", "addr:full": "1900 Baseline Road", "addr:city": "Ottawa", "addr:state": "ON", "addr:postcode": "K2C0C6", "name": "The Home Depot: Home Improvement & Hardware Store in Ottawa.", "phone": "8004663337", "website": "https://stores.homedepot.ca/on/ottawa/home-improvement-ottawa-on-hs7026.html", "brand": "The Home Depot"}, "geometry": {"type": "Point", "coordinates": [-75.7575096, 45.3525632]}},
{"type": "Feature", "id": "dQNSYC9y6Or8L668SNJJF7Kwxu0=", "properties": {"ref": "7123", "@spider": "homedepot_ca", "addr:full": "1481 Harmony Rd. N.", "addr:city": "Oshawa", "addr:state": "ON", "addr:postcode": "L1H 7K5", "name": "The Home Depot: Home Improvement & Hardware Store in Oshawa.", "phone": "(905) 743-5600", "website": "https://stores.homedepot.ca/on/oshawa/home-improvement-oshawa-on-7123.html", "opening_hours": "Mo-Fr 06:00-21:00; Sa 07:00-20:00; Su 08:00-20:00", "brand": "The Home Depot"}, "geometry": {"type": "Point", "coordinates": [-78.8457908, 43.9440504]}},
{"type": "Feature", "id": "leQBHJwaR0Ry2lPssdfr68bGexE=", "properties": {"ref": "7118", "@spider": "homedepot_ca", "addr:full": "2121 10th Line", "addr:city": "Orleans", "addr:state": "ON", "addr:postcode": "K4A 4C5", "name": "The Home Depot: Home Improvement & Hardware Store in Orleans.", "phone": "(613) 590-2030", "website": "https://stores.homedepot.ca/on/orleans/home-improvement-orleans-on-7118.html", "opening_hours": "Mo-Fr 06:00-21:00; Sa 07:00-20:00; Su 08:00-20:00", "brand": "The Home Depot"}, "geometry": {"type": "Point", "coordinates": [-75.483584, 45.460312]}},
{"type": "Feature", "id": "r9gBCEQ2XJJbgPQvSs_W2wpR_Jg=", "properties": {"ref": "7137", "@spider": "homedepot_ca", "addr:full": "3225 Monarch Dr.", "addr:city": "Orillia", "addr:state": "ON", "addr:postcode": "L3V 7Z4", "name": "The Home Depot: Home Improvement & Hardware Store in Orillia.", "phone": "(705) 327-6500", "website": "https://stores.homedepot.ca/on/orillia/home-improvement-orillia-on-7137.html", "opening_hours": "Mo-Fr 07:00-21:00; Sa 07:00-20:00; Su 08:00-20:00", "brand": "The Home Depot"}, "geometry": {"type": "Point", "coordinates": [-79.452306, 44.60805]}},
{"type": "Feature", "id": "LzAq6Rr8P6FGHz84YfdzDEYfBvA=", "properties": {"ref": "7167", "@spider": "homedepot_ca", "addr:full": "49 Fourth Avenue", "addr:city": "Orangeville", "addr:state": "ON", "addr:postcode": "L9W 1G7", "name": "The Home Depot: Home Improvement & Hardware Store in Orangeville.", "phone": "(519) 940-9061", "website": "https://stores.homedepot.ca/on/orangeville/home-improvement-orangeville-on-7167.html", "opening_hours": "Mo-Fr 06:00-21:00; Sa 07:00-20:00; Su 08:00-20:00", "brand": "The Home Depot"}, "geometry": {"type": "Point", "coordinates": [-80.0943944, 43.9262637]}},
{"type": "Feature", "id": "pbjjEnahK0Lw96Ag42Y7vm3Wluk=", "properties": {"ref": "7157", "@spider": "homedepot_ca", "addr:full": "99 Cross Avenue", "addr:city": "Oakville", "addr:state": "ON", "addr:postcode": "L6J2W7", "name": "The Home Depot: Home Improvement & Hardware Store in Oakville.", "phone": "8004663337", "website": "https://stores.homedepot.ca/on/oakville/home-improvement-oakville-on-hs7157.html", "brand": "The Home Depot"}, "geometry": {"type": "Point", "coordinates": [-79.6877454, 43.4546852]}},
{"type": "Feature", "id": "v7IPEWhbSkx6z08afqaicafM7oQ=", "properties": {"ref": "7115", "@spider": "homedepot_ca", "addr:full": "3300 South Service Road West", "addr:city": "Oakville", "addr:state": "ON", "addr:postcode": "L6L0B1", "name": "The Home Depot: Home Improvement & Hardware Store in Oakville.", "phone": "8004663337", "website": "https://stores.homedepot.ca/on/oakville/home-improvement-oakville-on-hs7115.html", "brand": "The Home Depot"}, "geometry": {"type": "Point", "coordinates": [-79.7496651, 43.3993309]}},
{"type": "Feature", "id": "EU605KBammxUiRdxv68FJWGjVMY=", "properties": {"ref": "7003", "@spider": "homedepot_ca", "addr:full": "2555 Bristol Circle", "addr:city": "Oakville", "addr:state": "ON", "addr:postcode": "L6H5W9", "name": "The Home Depot: Home Improvement & Hardware Store in Oakville.", "phone": "8004663337", "website": "https://stores.homedepot.ca/on/oakville/home-improvement-oakville-on-hs7003.html", "brand": "The Home Depot"}, "geometry": {"type": "Point", "coordinates": [-79.6849396, 43.5181512]}},
{"type": "Feature", "id": "uFBd3Z8v8OdemL5FEkcvEEg3b60=", "properties": {"ref": "7160", "@spider": "homedepot_ca", "addr:full": "1275 Seymour Street", "addr:city": "North Bay", "addr:state": "ON", "addr:postcode": "P1B 9V6", "name": "The Home Depot: Home Improvement & Hardware Store in North Bay.", "phone": "(705) 845-2300", "website": "https://stores.homedepot.ca/on/northbay/home-improvement-northbay-on-7160.html", "opening_hours": "Mo-Fr 07:00-21:00; Sa 07:00-19:00; Su 08:00-18:00", "brand": "The Home Depot"}, "geometry": {"type": "Point", "coordinates": [-79.4387736, 46.306553]}},
{"type": "Feature", "id": "xHLgYNQB6ZREMjBGp3Wm3eYFsTs=", "properties": {"ref": "7174", "@spider": "homedepot_ca", "addr:full": "7190 Morrison Street", "addr:city": "Niagara Falls", "addr:state": "ON", "addr:postcode": "L2E7K5", "name": "The Home Depot: Home Improvement & Hardware Store in Niagara Falls.", "phone": "8004663337", "website": "https://stores.homedepot.ca/on/niagarafalls/home-improvement-niagarafalls-on-hs7174.html", "brand": "The Home Depot"}, "geometry": {"type": "Point", "coordinates": [-79.1160425, 43.1021704]}},
{"type": "Feature", "id": "axo439czABhIHbe3-3q-ozT_5N8=", "properties": {"ref": "7030", "@spider": "homedepot_ca", "addr:full": "17850 Yonge Street", "addr:city": "Newmarket", "addr:state": "ON", "addr:postcode": "L3Y8S1", "name": "The Home Depot: Home Improvement & Hardware Store in Newmarket.", "phone": "8004663337", "website": "https://stores.homedepot.ca/on/newmarket/home-improvement-newmarket-on-hs7030.html", "brand": "The Home Depot"}, "geometry": {"type": "Point", "coordinates": [-79.4848014, 44.0625107]}},
{"type": "Feature", "id": "GURdA_jGEowssKwJApl9Gh359ts=", "properties": {"ref": "7132", "@spider": "homedepot_ca", "addr:full": "5975 Terry Fox Way", "addr:city": "Mississauga", "addr:state": "ON", "addr:postcode": "L5V3E4", "name": "The Home Depot: Home Improvement & Hardware Store in Mississauga.", "phone": "(289) 212 6836", "website": "https://stores.homedepot.ca/on/mississauga/home-improvement-mississauga-on-hs7132.html", "opening_hours": "Mo-Sa 07:00-20:00; Su 08:00-20:00", "brand": "The Home Depot"}, "geometry": {"type": "Point", "coordinates": [-79.6986171, 43.6076933]}},
{"type": "Feature", "id": "kGmeY8pcsiXzCVMC8YMDWGYKWe4=", "properties": {"ref": "7112", "@spider": "homedepot_ca", "addr:full": "3065 Mavis Road", "addr:city": "Mississauga", "addr:state": "ON", "addr:postcode": "L5C1T7", "name": "The Home Depot: Home Improvement & Hardware Store in Mississauga.", "phone": "8004663337", "website": "https://stores.homedepot.ca/on/mississauga/home-improvement-mississauga-on-hs7112.html", "brand": "The Home Depot"}, "geometry": {"type": "Point", "coordinates": [-79.6330164, 43.5693316]}},
{"type": "Feature", "id": "RLeEoJrbFBB6XHCIwwR8p3mn6uA=", "properties": {"ref": "7130", "@spider": "homedepot_ca", "addr:full": "2920 Argentia Road", "addr:city": "Mississauga", "addr:state": "ON", "addr:postcode": "L5N8C5", "name": "The Home Depot: Home Improvement & Hardware Store in Mississauga.", "phone": "8004663337", "website": "https://stores.homedepot.ca/on/mississauga/home-improvement-mississauga-on-hs7130.html", "brand": "The Home Depot"}, "geometry": {"type": "Point", "coordinates": [-79.7802104, 43.5986711]}},
{"type": "Feature", "id": "08ez5uK05Xr9IA3OH4r5qEk3eQc=", "properties": {"ref": "7241", "@spider": "homedepot_ca", "addr:full": "1013 Maple Avenue", "addr:city": "Milton", "addr:state": "ON", "addr:postcode": "L9T0A5", "name": "The Home Depot: Home Improvement & Hardware Store in Milton.", "phone": "8004663337", "website": "https://stores.homedepot.ca/on/milton/home-improvement-milton-on-hs7241.html", "brand": "The Home Depot"}, "geometry": {"type": "Point", "coordinates": [-79.8755336, 43.5364994]}},
{"type": "Feature", "id": "tD35b-Jycl959ugIbG5JZ5f-rLY=", "properties": {"ref": "7247", "@spider": "homedepot_ca", "addr:full": "16775 Highway 12", "addr:city": "Midland", "addr:state": "ON", "addr:postcode": "L4R0A9", "name": "The Home Depot: Home Improvement & Hardware Store in Midland.", "phone": "8004663337", "website": "https://stores.homedepot.ca/on/midland/home-improvement-midland-on-hs7247.html", "brand": "The Home Depot"}, "geometry": {"type": "Point", "coordinates": [-79.8734027, 44.7313752]}},
{"type": "Feature", "id": "rrUE_Xbs8Ug0K9c2skUOnnvwQt0=", "properties": {"ref": "7262", "@spider": "homedepot_ca", "addr:full": "1201 Castlemore Avenue", "addr:city": "Markham", "addr:state": "ON", "addr:postcode": "L6E0G5", "name": "The Home Depot: Home Improvement & Hardware Store in Markham.", "phone": "8004663337", "website": "https://stores.homedepot.ca/on/markham/home-improvement-markham-on-hs7262.html", "brand": "The Home Depot"}, "geometry": {"type": "Point", "coordinates": [-79.2682724, 43.9033509]}},
{"type": "Feature", "id": "sddUz2KlaJCjB80MdeZ4_N94iCw=", "properties": {"ref": "7136", "@spider": "homedepot_ca", "addr:full": "50 Kirkham Drive", "addr:city": "Markham", "addr:state": "ON", "addr:postcode": "L3S4K7", "name": "The Home Depot: Home Improvement & Hardware Store in Markham.", "phone": "8004663337", "website": "https://stores.homedepot.ca/on/markham/home-improvement-markham-on-hs7136.html", "brand": "The Home Depot"}, "geometry": {"type": "Point", "coordinates": [-79.2519868, 43.8524908]}},
{"type": "Feature", "id": "3BfOUnKOAgm8FIgMLXqqxk0Er-o=", "properties": {"ref": "7004", "@spider": "homedepot_ca", "addr:full": "3155 Highway #7", "addr:city": "Markham", "addr:state": "ON", "addr:postcode": "L3R0J6", "name": "The Home Depot: Home Improvement & Hardware Store in Markham.", "phone": "8004663337", "website": "https://stores.homedepot.ca/on/markham/home-improvement-markham-on-hs7004.html", "brand": "The Home Depot"}, "geometry": {"type": "Point", "coordinates": [-79.3521982, 43.8477247]}},
{"type": "Feature", "id": "GNdzPFDzGY4vz5sEfXw6RXWFwoU=", "properties": {"ref": "7033", "@spider": "homedepot_ca", "addr:full": "3035 Wonderland Road South", "addr:city": "London", "addr:state": "ON", "addr:postcode": "N6L1R4", "name": "The Home Depot: Home Improvement & Hardware Store in London.", "phone": "8004663337", "website": "https://stores.homedepot.ca/on/london/home-improvement-london-on-hs7033.html", "brand": "The Home Depot"}, "geometry": {"type": "Point", "coordinates": [-81.2838848, 42.9373357]}},
{"type": "Feature", "id": "-ptrMQk6BtrRR5kBVim0RrUzgaA=", "properties": {"ref": "7237", "@spider": "homedepot_ca", "addr:full": "448 Clarke Road", "addr:city": "London", "addr:state": "ON", "addr:postcode": "N5W6H1", "name": "The Home Depot: Home Improvement & Hardware Store in London.", "phone": "8004663337", "website": "https://stores.homedepot.ca/on/london/home-improvement-london-on-hs7237.html", "brand": "The Home Depot"}, "geometry": {"type": "Point", "coordinates": [-81.1730272, 43.0072399]}},
{"type": "Feature", "id": "FbIa7WMkUQiSqnWI8con6Il_3xo=", "properties": {"ref": "7009", "@spider": "homedepot_ca", "addr:full": "600 Fanshawe Park Rd. E.", "addr:city": "London", "addr:state": "ON", "addr:postcode": "N5X1L1", "name": "The Home Depot: Home Improvement & Hardware Store in London.", "phone": "8004663337", "website": "https://stores.homedepot.ca/on/london/home-improvement-london-on-hs7009.html", "brand": "The Home Depot"}, "geometry": {"type": "Point", "coordinates": [-81.2579061, 43.035331]}},
{"type": "Feature", "id": "uJRA3hJ69o-rllYwMRL_HSRJfDI=", "properties": {"ref": "7017", "@spider": "homedepot_ca", "addr:full": "100 Gateway Park Drive", "addr:city": "Kitchener", "addr:state": "ON", "addr:postcode": "N2P2J4", "name": "The Home Depot: Home Improvement & Hardware Store in Kitchener.", "phone": "8004663337", "website": "https://stores.homedepot.ca/on/kitchener/home-improvement-kitchener-on-hs7017.html", "brand": "The Home Depot"}, "geometry": {"type": "Point", "coordinates": [-80.3880215, 43.407692]}},
{"type": "Feature", "id": "Irif2MbUlfDx8S4-ESPxT0HyauE=", "properties": {"ref": "7179", "@spider": "homedepot_ca", "addr:full": "1450 Ottawa Street South", "addr:city": "Kitchener", "addr:state": "ON", "addr:postcode": "N2E4E2", "name": "The Home Depot: Home Improvement & Hardware Store in Kitchener.", "phone": "8004663337", "website": "https://stores.homedepot.ca/on/kitchener/home-improvement-kitchener-on-hs7179.html", "brand": "The Home Depot"}, "geometry": {"type": "Point", "coordinates": [-80.5164081, 43.4141143]}},
{"type": "Feature", "id": "BO6y6TllIziN5ymR2h5Y32xe5xc=", "properties": {"ref": "7081", "@spider": "homedepot_ca", "addr:full": "606 Gardiners Road", "addr:city": "Kingston", "addr:state": "ON", "addr:postcode": "K7M 3X9", "name": "The Home Depot: Home Improvement & Hardware Store in Kingston.", "phone": "(613) 384-3511", "website": "https://stores.homedepot.ca/on/kingston/home-improvement-kingston-on-7081.html", "opening_hours": "Mo-Fr 06:00-21:00; Sa 07:00-20:00; Su 08:00-18:00", "brand": "The Home Depot"}, "geometry": {"type": "Point", "coordinates": [-76.5661241, 44.2428852]}},
{"type": "Feature", "id": "VEy6pSxaF_lhbf9UnrC3dxHHyAA=", "properties": {"ref": "7108", "@spider": "homedepot_ca", "addr:full": "10 Frank Nighbor Place", "addr:city": "Kanata", "addr:state": "ON", "addr:postcode": "K2T1C4", "name": "The Home Depot: Home Improvement & Hardware Store in Kanata.", "phone": "(343) 307-4438", "website": "https://stores.homedepot.ca/on/kanata/home-improvement-kanata-on-hs7108.html", "opening_hours": "Mo-Sa 07:00-20:00; Su 08:00-20:00", "brand": "The Home Depot"}, "geometry": {"type": "Point", "coordinates": [-75.9164222, 45.3019939]}},
{"type": "Feature", "id": "cVCIYdGnqIYlmL3WjxZUBwMHMLI=", "properties": {"ref": "7244", "@spider": "homedepot_ca", "addr:full": "9 Ott Street", "addr:city": "Huntsville", "addr:state": "ON", "addr:postcode": "P3H0A2", "name": "The Home Depot: Home Improvement & Hardware Store in Huntsville.", "phone": "8004663337", "website": "https://stores.homedepot.ca/on/huntsville/home-improvement-huntsville-on-hs7244.html", "brand": "The Home Depot"}, "geometry": {"type": "Point", "coordinates": [-79.2204658, 45.341499]}},
{"type": "Feature", "id": "efPMJwCZe0cVcVQ8RvkKHeKTyCw=", "properties": {"ref": "7008", "@spider": "homedepot_ca", "addr:full": "350 Centennial Parkway", "addr:city": "Hamilton", "addr:state": "ON", "addr:postcode": "L8E 2X4", "name": "The Home Depot: Home Improvement & Hardware Store in Hamilton.", "phone": "(905) 561-9755", "website": "https://stores.homedepot.ca/on/hamilton/home-improvement-hamilton-on-7008.html", "opening_hours": "Mo-Fr 07:00-21:00; Sa 07:00-20:00; Su 08:00-20:00", "brand": "The Home Depot"}, "geometry": {"type": "Point", "coordinates": [-79.759172, 43.239902]}},
{"type": "Feature", "id": "7bUdr04qybG0Iep6So8NQGtYi9w=", "properties": {"ref": "7142", "@spider": "homedepot_ca", "addr:full": "63 Woodlawn Road West", "addr:city": "Guelph", "addr:state": "ON", "addr:postcode": "N1H1G8", "name": "The Home Depot: Home Improvement & Hardware Store in Guelph.", "phone": "8004663337", "website": "https://stores.homedepot.ca/on/guelph/home-improvement-guelph-on-hs7142.html", "brand": "The Home Depot"}, "geometry": {"type": "Point", "coordinates": [-80.2838738, 43.5624894]}},
{"type": "Feature", "id": "1EWxMsIbBGm-mNhlRc9K1KbD8qY=", "properties": {"ref": "7025", "@spider": "homedepot_ca", "addr:full": "1616 Cyrville Road", "addr:city": "Gloucester", "addr:state": "ON", "addr:postcode": "K1B 3L8", "name": "The Home Depot: Home Improvement & Hardware Store in Gloucester.", "phone": "(613) 744-1700", "website": "https://stores.homedepot.ca/on/gloucester/home-improvement-gloucester-on-7025.html", "opening_hours": "Mo-Fr 06:00-21:00; Sa 07:00-20:00; Su 08:00-20:00", "brand": "The Home Depot"}, "geometry": {"type": "Point", "coordinates": [-75.6102498, 45.4172656]}},
{"type": "Feature", "id": "5CRQXw_ffTG4oXXqZptrknWINKQ=", "properties": {"ref": "7114", "@spider": "homedepot_ca", "addr:full": "1983 Kipling Avenue", "addr:city": "Etobicoke", "addr:state": "ON", "addr:postcode": "M9W4J4", "name": "The Home Depot: Home Improvement & Hardware Store in Etobicoke.", "phone": "8004663337", "website": "https://stores.homedepot.ca/on/etobicoke/home-improvement-etobicoke-on-hs7114.html", "brand": "The Home Depot"}, "geometry": {"type": "Point", "coordinates": [-79.5626927, 43.7078867]}},
{"type": "Feature", "id": "E6wnDdGZQiSVDsykpeuo7daHLKU=", "properties": {"ref": "7011", "@spider": "homedepot_ca", "addr:full": "193 North Queen Street", "addr:city": "Etobicoke", "addr:state": "ON", "addr:postcode": "M9C 4Y1", "name": "The Home Depot: Home Improvement & Hardware Store in Etobicoke.", "phone": "(416) 626-9800", "website": "https://stores.homedepot.ca/on/etobicoke/home-improvement-etobicoke-on-7011.html", "opening_hours": "Mo-Fr 06:00-21:00; Sa 07:00-20:00; Su 08:00-20:00", "brand": "The Home Depot"}, "geometry": {"type": "Point", "coordinates": [-79.553995, 43.616003]}},
{"type": "Feature", "id": "kMg6ImGH6StKMAGflEGzUcl03CI=", "properties": {"ref": "7075", "@spider": "homedepot_ca", "addr:full": "1825 Brookdale Avenue", "addr:city": "Cornwall", "addr:state": "ON", "addr:postcode": "K6J5X7", "name": "The Home Depot: Home Improvement & Hardware Store in Cornwall.", "phone": "8004663337", "website": "https://stores.homedepot.ca/on/cornwall/home-improvement-cornwall-on-hs7075.html", "brand": "The Home Depot"}, "geometry": {"type": "Point", "coordinates": [-74.7584784, 45.0393519]}},
{"type": "Feature", "id": "2sKUOKOaP2w3tZMx6ENe0VuF04s=", "properties": {"ref": "7234", "@spider": "homedepot_ca", "addr:full": "10 High Street", "addr:city": "Collingwood", "addr:state": "ON", "addr:postcode": "L9Y 3J6", "name": "The Home Depot: Home Improvement & Hardware Store in Collingwood.", "phone": "(705) 446-3100", "website": "https://stores.homedepot.ca/on/collingwood/home-improvement-collingwood-on-7234.html", "opening_hours": "Mo-Fr 07:00-21:00; Sa 07:00-19:00; Su 08:00-18:00", "brand": "The Home Depot"}, "geometry": {"type": "Point", "coordinates": [-80.234134, 44.499935]}},
{"type": "Feature", "id": "H3UMxfi4oktKKzZ6FSDRftFWccs=", "properties": {"ref": "7251", "@spider": "homedepot_ca", "addr:full": "1050 De Palma Drive", "addr:city": "Cobourg", "addr:state": "ON", "addr:postcode": "K9A 0A8", "name": "The Home Depot: Home Improvement & Hardware Store in Cobourg.", "phone": "(905) 377-7600", "website": "https://stores.homedepot.ca/on/cobourg/home-improvement-cobourg-on-7251.html", "opening_hours": "Mo-Fr 07:00-20:00; Sa 07:00-18:00; Su 08:00-18:00", "brand": "The Home Depot"}, "geometry": {"type": "Point", "coordinates": [-78.202374, 43.978063]}},
{"type": "Feature", "id": "zH2XxYN8aE2Ks27j8fcQ8udsSpg=", "properties": {"ref": "7178", "@spider": "homedepot_ca", "addr:full": "8582 Pioneer Line", "addr:city": "Chatham", "addr:state": "ON", "addr:postcode": "N7M 5J7", "name": "The Home Depot: Home Improvement & Hardware Store in Chatham.", "phone": "(519) 380-2040", "website": "https://stores.homedepot.ca/on/chatham/home-improvement-chatham-on-7178.html", "opening_hours": "Mo-Sa 08:00-20:00; Su 08:00-18:00", "brand": "The Home Depot"}, "geometry": {"type": "Point", "coordinates": [-82.2244201, 42.4315625]}},
{"type": "Feature", "id": "WPnfgj300Y-G3Mrg2sUxpEGDuHY=", "properties": {"ref": "7263", "@spider": "homedepot_ca", "addr:full": "570 McNeely Avenue", "addr:city": "Carleton Place", "addr:state": "ON", "addr:postcode": "K7C0A7", "name": "The Home Depot: Home Improvement & Hardware Store in Carleton Place.", "phone": "8004663337", "website": "https://stores.homedepot.ca/on/carletonplace/home-improvement-carletonplace-on-hs7263.html", "brand": "The Home Depot"}, "geometry": {"type": "Point", "coordinates": [-76.1199644, 45.1300022]}},
{"type": "Feature", "id": "MdyM0jo9OR54jB8mnziAfYPaEyA=", "properties": {"ref": "7166", "@spider": "homedepot_ca", "addr:full": "35 Pine Bush Drive", "addr:city": "Cambridge", "addr:state": "ON", "addr:postcode": "N1R8E2", "name": "The Home Depot: Home Improvement & Hardware Store in Cambridge.", "phone": "8004663337", "website": "https://stores.homedepot.ca/on/cambridge/home-improvement-cambridge-on-hs7166.html", "brand": "The Home Depot"}, "geometry": {"type": "Point", "coordinates": [-80.32627534306, 43.4066046450763]}},
{"type": "Feature", "id": "10p7WAcMwIwTMrw-S2Qw5J7YKRI=", "properties": {"ref": "7021", "@spider": "homedepot_ca", "addr:full": "3050 Davidson Court", "addr:city": "Burlington", "addr:state": "ON", "addr:postcode": "L7M 4M9", "name": "The Home Depot: Home Improvement & Hardware Store in Burlington.", "phone": "(905) 331-1700", "website": "https://stores.homedepot.ca/on/burlington/home-improvement-burlington-on-7021.html", "opening_hours": "Mo-Fr 06:00-21:00; Sa 07:00-20:00; Su 08:00-20:00", "brand": "The Home Depot"}, "geometry": {"type": "Point", "coordinates": [-79.8064125, 43.3556908]}},
{"type": "Feature", "id": "A4LtgC8HDU-UOJAF2buPg-YzY9g=", "properties": {"ref": "7085", "@spider": "homedepot_ca", "addr:full": "2120 Parkdale Avenue", "addr:city": "Brockville", "addr:state": "ON", "addr:postcode": "K6V 5T2", "name": "The Home Depot: Home Improvement & Hardware Store in Brockville.", "phone": "(613) 498-9600", "website": "https://stores.homedepot.ca/on/brockville/home-improvement-brockville-on-7085.html", "opening_hours": "Mo-Fr 07:00-21:00; Sa 07:00-20:00; Su 08:00-18:00", "brand": "The Home Depot"}, "geometry": {"type": "Point", "coordinates": [-75.6906867, 44.6110284]}},
{"type": "Feature", "id": "Krq9oH__EFIRflxJ2LVtshX-dvw=", "properties": {"ref": "7138", "@spider": "homedepot_ca", "addr:full": "25 Holiday Drive", "addr:city": "Brantford", "addr:state": "ON", "addr:postcode": "N3R 7J4", "name": "The Home Depot: Home Improvement & Hardware Store in Brantford.", "phone": "(519) 757-3534", "website": "https://stores.homedepot.ca/on/brantford/home-improvement-brantford-on-7138.html", "opening_hours": "Mo-Fr 07:00-21:00; Sa 07:00-20:00; Su 08:00-20:00", "brand": "The Home Depot"}, "geometry": {"type": "Point", "coordinates": [-80.2401503, 43.1641546]}},
{"type": "Feature", "id": "2hCdFwkJnDTELOrVcp1BC_HGlbg=", "properties": {"ref": "7301", "@spider": "homedepot_ca", "addr:full": "9515 Mississauga Rd", "addr:city": "Brampton", "addr:state": "ON", "addr:postcode": "L6X0B3", "name": "The Home Depot: Home Improvement & Hardware Store in Brampton.", "phone": "8004663337", "website": "https://stores.homedepot.ca/on/brampton/home-improvement-brampton-on-hs7301.html", "brand": "The Home Depot"}, "geometry": {"type": "Point", "coordinates": [-79.8153165, 43.6589034]}},
{"type": "Feature", "id": "E5BWKagIo6DxrcpolnyUdqU209Q=", "properties": {"ref": "7239", "@spider": "homedepot_ca", "addr:full": "9105 Airport Road", "addr:city": "Brampton", "addr:state": "ON", "addr:postcode": "L6S0B8", "name": "The Home Depot: Home Improvement & Hardware Store in Brampton.", "phone": "8004663337", "website": "https://stores.homedepot.ca/on/brampton/home-improvement-brampton-on-hs7239.html", "brand": "The Home Depot"}, "geometry": {"type": "Point", "coordinates": [-79.695987, 43.7473104]}},
{"type": "Feature", "id": "S8tbK03OAnbgqjVahvrN3L7XjDo=", "properties": {"ref": "7110", "@spider": "homedepot_ca", "addr:full": "60 Great Lakes Drive", "addr:city": "Brampton", "addr:state": "ON", "addr:postcode": "L6R2K7", "name": "The Home Depot: Home Improvement & Hardware Store in Brampton.", "phone": "8004663337", "website": "https://stores.homedepot.ca/on/brampton/home-improvement-brampton-on-hs7110.html", "brand": "The Home Depot"}, "geometry": {"type": "Point", "coordinates": [-79.766908, 43.7314058]}},
{"type": "Feature", "id": "aDaOtc2VOJPjlA2W3SxkO5r1css=", "properties": {"ref": "7006", "@spider": "homedepot_ca", "addr:full": "49 First Gulf Boulevard", "addr:city": "Brampton", "addr:state": "ON", "addr:postcode": "L6W4R8", "name": "The Home Depot: Home Improvement & Hardware Store in Brampton.", "phone": "8004663337", "website": "https://stores.homedepot.ca/on/brampton/home-improvement-brampton-on-hs7006.html", "brand": "The Home Depot"}, "geometry": {"type": "Point", "coordinates": [-79.7172011, 43.6797272]}},
{"type": "Feature", "id": "x3Ac2XV6SNwIM6Kvqm6GvDykqt8=", "properties": {"ref": "7264", "@spider": "homedepot_ca", "addr:full": "470 Holland Street West", "addr:city": "Bradford", "addr:state": "ON", "addr:postcode": "L3Z0A2", "name": "The Home Depot: Home Improvement & Hardware Store in Bradford.", "phone": "8004663337", "website": "https://stores.homedepot.ca/on/bradford/home-improvement-bradford-on-hs7264.html", "brand": "The Home Depot"}, "geometry": {"type": "Point", "coordinates": [-79.5889392, 44.1063678]}},
{"type": "Feature", "id": "3_619tSSwvvRAEef6BT5qTRfDoI=", "properties": {"ref": "7164", "@spider": "homedepot_ca", "addr:full": "20 Depot Drive, R.R.2", "addr:city": "Bracebridge", "addr:state": "ON", "addr:postcode": "P1L0A1", "name": "The Home Depot: Home Improvement & Hardware Store in Bracebridge.", "phone": "8004663337", "website": "https://stores.homedepot.ca/on/bracebridge/home-improvement-bracebridge-on-hs7164.html", "brand": "The Home Depot"}, "geometry": {"type": "Point", "coordinates": [-79.2913352, 45.0499684]}},
{"type": "Feature", "id": "J3z3KO8XeHOWh8cDiR6RMkp5z0U=", "properties": {"ref": "7240", "@spider": "homedepot_ca", "addr:full": "120 Clarington Boulevard", "addr:city": "Bowmanville", "addr:state": "ON", "addr:postcode": "L1C0C3", "name": "The Home Depot: Home Improvement & Hardware Store in Bowmanville.", "phone": "8004663337", "website": "https://stores.homedepot.ca/on/bowmanville/home-improvement-bowmanville-on-hs7240.html", "brand": "The Home Depot"}, "geometry": {"type": "Point", "coordinates": [-78.70971, 43.9107801]}},
{"type": "Feature", "id": "0cmTHpl6BNuJh_o_kmt5oOUK2PM=", "properties": {"ref": "7269", "@spider": "homedepot_ca", "addr:full": "12760 Highway # 50", "addr:city": "Bolton", "addr:state": "ON", "addr:postcode": "L7E4G1", "name": "The Home Depot: Home Improvement & Hardware Store in Bolton.", "phone": "8004663337", "website": "https://stores.homedepot.ca/on/bolton/home-improvement-bolton-on-hs7269.html", "brand": "The Home Depot"}, "geometry": {"type": "Point", "coordinates": [-79.7180776, 43.8614448]}},
{"type": "Feature", "id": "ixv5kYtytzTwETr7RIc32zK__DM=", "properties": {"ref": "7133", "@spider": "homedepot_ca", "addr:full": "210 Bell Blvd", "addr:city": "Belleville", "addr:state": "ON", "addr:postcode": "K8P 5H6", "name": "The Home Depot: Home Improvement & Hardware Store in Belleville.", "phone": "(613) 961-5340", "website": "https://stores.homedepot.ca/on/belleville/home-improvement-belleville-on-7133.html", "opening_hours": "Mo-Fr 06:00-21:00; Sa 07:00-20:00; Su 08:00-20:00", "brand": "The Home Depot"}, "geometry": {"type": "Point", "coordinates": [-77.408391, 44.185901]}},
{"type": "Feature", "id": "NjDUZOcs4QneEFes9kP60C-Bfgo=", "properties": {"ref": "7024", "@spider": "homedepot_ca", "addr:full": "10 Barrie View Drive", "addr:city": "Barrie", "addr:state": "ON", "addr:postcode": "L4N6A7", "name": "The Home Depot: Home Improvement & Hardware Store in Barrie.", "phone": "8004663337", "website": "https://stores.homedepot.ca/on/barrie/home-improvement-barrie-on-hs7024.html", "brand": "The Home Depot"}, "geometry": {"type": "Point", "coordinates": [-79.6877454, 44.3393182]}},
{"type": "Feature", "id": "A4qnQVhEzDGs9zwVHqsaE9I4JL4=", "properties": {"ref": "7079", "@spider": "homedepot_ca", "addr:full": "3779 Strandherd Drive", "addr:city": "Barrhaven", "addr:state": "ON", "addr:postcode": "K2J 5M4", "name": "The Home Depot: Home Improvement & Hardware Store in Barrhaven.", "phone": "(613) 843-7900", "website": "https://stores.homedepot.ca/on/barrhaven/home-improvement-barrhaven-on-7079.html", "opening_hours": "Mo-Fr 06:00-21:00; Sa 07:00-20:00; Su 08:00-20:00", "brand": "The Home Depot"}, "geometry": {"type": "Point", "coordinates": [-75.751372, 45.267352]}},
{"type": "Feature", "id": "KZSsZ3Uo5I93TJkruXxii2CkP2g=", "properties": {"ref": "7135", "@spider": "homedepot_ca", "addr:full": "15360 Bayview Avenue", "addr:city": "Aurora", "addr:state": "ON", "addr:postcode": "L4G 7G1", "name": "The Home Depot: Home Improvement & Hardware Store in Aurora.", "phone": "(905) 726-4500", "website": "https://stores.homedepot.ca/on/aurora/home-improvement-aurora-on-7135.html", "opening_hours": "Mo-Fr 06:00-21:00; Sa 07:00-20:00; Su 08:00-20:00", "brand": "The Home Depot"}, "geometry": {"type": "Point", "coordinates": [-79.447009, 44.007839]}},
{"type": "Feature", "id": "-ffE8BjDsnceh37Ggae4rKUFtiA=", "properties": {"ref": "7007", "@spider": "homedepot_ca", "addr:full": "122 Martindale Crescent", "addr:city": "Ancaster", "addr:state": "ON", "addr:postcode": "L9K 1J9", "name": "The Home Depot: Home Improvement & Hardware Store in Ancaster.", "phone": "(905) 304-5900", "website": "https://stores.homedepot.ca/on/ancaster/home-improvement-ancaster-on-7007.html", "opening_hours": "Mo-Fr 07:00-21:00; Sa 07:00-20:00; Su 08:00-20:00", "brand": "The Home Depot"}, "geometry": {"type": "Point", "coordinates": [-79.9446589, 43.2304259]}},
{"type": "Feature", "id": "_TRL8jglWJ137UnUxQ8_VZ3259I=", "properties": {"ref": "7109", "@spider": "homedepot_ca", "addr:full": "256-260 Kingston Road East", "addr:city": "Ajax", "addr:state": "ON", "addr:postcode": "L1Z1G1", "name": "The Home Depot: Home Improvement & Hardware Store in Ajax.", "phone": "(289) 212 6703", "website": "https://stores.homedepot.ca/on/ajax/home-improvement-ajax-on-hs7109.html", "opening_hours": "Mo-Sa 07:00-20:00; Su 08:00-20:00", "brand": "The Home Depot"}, "geometry": {"type": "Point", "coordinates": [-79.014867, 43.8669559]}},
{"type": "Feature", "id": "7dKkmeXPYCRG_qvFQ50LQQ2Bz0A=", "properties": {"ref": "7151", "@spider": "homedepot_ca", "addr:full": "50 Sydney Port Access Road", "addr:city": "Sydney", "addr:state": "NS", "addr:postcode": "B1P7H2", "name": "The Home Depot: Home Improvement & Hardware Store in Sydney.", "phone": "8004663337", "website": "https://stores.homedepot.ca/ns/sydney/home-improvement-sydney-ns-hs7151.html", "brand": "The Home Depot"}, "geometry": {"type": "Point", "coordinates": [-60.1448809, 46.149915]}},
{"type": "Feature", "id": "L3pvabv6L_NyeiKe2kHA5O7TPz8=", "properties": {"ref": "7261", "@spider": "homedepot_ca", "addr:full": "21 Silver Fox Ave.", "addr:city": "New Minas", "addr:state": "NS", "addr:postcode": "B4N 0C9", "name": "The Home Depot: Home Improvement & Hardware Store in New Minas.", "phone": "(902) 681-3460", "website": "https://stores.homedepot.ca/ns/newminas/home-improvement-newminas-ns-7261.html", "opening_hours": "Mo-Sa 07:00-20:00; Su 08:00-17:00", "brand": "The Home Depot"}, "geometry": {"type": "Point", "coordinates": [-64.437269, 45.069552]}},
{"type": "Feature", "id": "gAya9u8J2xEW9ofNM6dNTKmgsEA=", "properties": {"ref": "7126", "@spider": "homedepot_ca", "addr:full": "368 Lacewood Drive", "addr:city": "Halifax", "addr:state": "NS", "addr:postcode": "B3S 1L8", "name": "The Home Depot: Home Improvement & Hardware Store in Halifax.", "phone": "(902) 457-3480", "website": "https://stores.homedepot.ca/ns/halifax/home-improvement-halifax-ns-7126.html", "opening_hours": "Mo-Fr 07:00-21:00; Sa 07:00-20:00; Su 08:00-18:00", "brand": "The Home Depot"}, "geometry": {"type": "Point", "coordinates": [-63.6715355, 44.6564632]}},
{"type": "Feature", "id": "DM8QBC9xOFlpVJSnOSgSFdBeCvQ=", "properties": {"ref": "7257", "@spider": "homedepot_ca", "addr:full": "40 Finnian Row", "addr:city": "Dartmouth", "addr:state": "NS", "addr:postcode": "B3B 0B6", "name": "The Home Depot: Home Improvement & Hardware Store in Dartmouth.", "phone": "(902) 460-4700", "website": "https://stores.homedepot.ca/ns/dartmouth/home-improvement-dartmouth-ns-7257.html", "opening_hours": "Mo-Fr 07:00-21:00; Sa 07:00-20:00; Su 09:00-17:00", "brand": "The Home Depot"}, "geometry": {"type": "Point", "coordinates": [-63.5655414, 44.6956225]}},
{"type": "Feature", "id": "fBLSX0IzMfuXg4Scv0fnc1vu7so=", "properties": {"ref": "7077", "@spider": "homedepot_ca", "addr:full": "70 Kelsey Drive", "addr:city": "St. Johns", "addr:state": "NL", "addr:postcode": "A1B 5C7", "name": "The Home Depot: Home Improvement & Hardware Store in St. Johns.", "phone": "(709) 570-2400", "website": "https://stores.homedepot.ca/nl/st-johns/home-improvement-st-johns-nl-7077.html", "opening_hours": "Mo-Sa 07:00-21:00; Su 09:00-18:00", "brand": "The Home Depot"}, "geometry": {"type": "Point", "coordinates": [-52.7810669, 47.5550325]}},
{"type": "Feature", "id": "G595OciJpYPd8CD_7OFQivpcolI=", "properties": {"ref": "7103", "@spider": "homedepot_ca", "addr:full": "55 Depot Court", "addr:city": "Saint John", "addr:state": "NB", "addr:postcode": "E2J 5E5", "name": "The Home Depot: Home Improvement & Hardware Store in Saint John.", "phone": "(506)-632-9440", "website": "https://stores.homedepot.ca/nb/saintjohn/home-improvement-saintjohn-nb-7103.html", "opening_hours": "Mo-Fr 07:00-21:00; Sa 07:00-20:00; Su 10:00-17:00", "brand": "The Home Depot"}, "geometry": {"type": "Point", "coordinates": [-66.0260862, 45.3037102]}},
{"type": "Feature", "id": "iTw0V0_hxdkXiQffhJQ8JOt1iHE=", "properties": {"ref": "7148", "@spider": "homedepot_ca", "addr:full": "235 Mapleton Road", "addr:city": "Moncton", "addr:state": "NB", "addr:postcode": "E1C 0G9", "name": "The Home Depot: Home Improvement & Hardware Store in Moncton.", "phone": "(506) 853-8150", "website": "https://stores.homedepot.ca/nb/moncton/home-improvement-moncton-nb-7148.html", "opening_hours": "Mo-Fr 07:00-21:00; Sa 07:00-20:00; Su 09:00-17:00", "brand": "The Home Depot"}, "geometry": {"type": "Point", "coordinates": [-64.825347, 46.115784]}},
{"type": "Feature", "id": "sNdt2C9NN19ZFjDxzIJirkYnbhE=", "properties": {"ref": "7233", "@spider": "homedepot_ca", "addr:full": "1450 Regent Street", "addr:city": "Fredericton", "addr:state": "NB", "addr:postcode": "E3C 0A4", "name": "The Home Depot: Home Improvement & Hardware Store in Fredericton.", "phone": "(506) 462-9460", "website": "https://stores.homedepot.ca/nb/fredericton/home-improvement-fredericton-nb-7233.html", "opening_hours": "Mo-Sa 07:00-20:00; Su 10:00-17:00", "brand": "The Home Depot"}, "geometry": {"type": "Point", "coordinates": [-66.663707, 45.932466]}},
{"type": "Feature", "id": "Unyq2DowwDyc79manwraer9HIyU=", "properties": {"ref": "7180", "@spider": "homedepot_ca", "addr:full": "845 Leila Ave", "addr:city": "Winnipeg", "addr:state": "MB", "addr:postcode": "R2V3J7", "name": "The Home Depot: Home Improvement & Hardware Store in Winnipeg.", "phone": "8004663337", "website": "https://stores.homedepot.ca/mb/winnipeg/home-improvement-winnipeg-mb-hs7180.html", "brand": "The Home Depot"}, "geometry": {"type": "Point", "coordinates": [-97.1451687, 49.9537469]}},
{"type": "Feature", "id": "TpqkozgLrsd_RCH1fWRcS6DQVRg=", "properties": {"ref": "7086", "@spider": "homedepot_ca", "addr:full": "1645 Kenaston Blvd", "addr:city": "Winnipeg", "addr:state": "MB", "addr:postcode": "R3P2M4", "name": "The Home Depot: Home Improvement & Hardware Store in Winnipeg.", "phone": "8004663337", "website": "https://stores.homedepot.ca/mb/winnipeg/home-improvement-winnipeg-mb-hs7086.html", "brand": "The Home Depot"}, "geometry": {"type": "Point", "coordinates": [-97.2003673, 49.8250007]}},
{"type": "Feature", "id": "0M53vhmTVlTFQgPb_WFqqF5vxoo=", "properties": {"ref": "7058", "@spider": "homedepot_ca", "addr:full": "1999 Bishop Grandin Blvd.", "addr:city": "Winnipeg", "addr:state": "MB", "addr:postcode": "R2M3E8", "name": "The Home Depot: Home Improvement & Hardware Store in Winnipeg.", "phone": "8004663337", "website": "https://stores.homedepot.ca/mb/winnipeg/home-improvement-winnipeg-mb-hs7058.html", "brand": "The Home Depot"}, "geometry": {"type": "Point", "coordinates": [-97.097512, 49.8386437]}},
{"type": "Feature", "id": "8rZ3ymJCK2hARJRmIoxhgF0xUIA=", "properties": {"ref": "7057", "@spider": "homedepot_ca", "addr:full": "727 Empress Street", "addr:city": "Winnipeg", "addr:state": "MB", "addr:postcode": "R3G3P5", "name": "The Home Depot: Home Improvement & Hardware Store in Winnipeg.", "phone": "8004663337", "website": "https://stores.homedepot.ca/mb/winnipeg/home-improvement-winnipeg-mb-hs7057.html", "brand": "The Home Depot"}, "geometry": {"type": "Point", "coordinates": [-97.196305, 49.8877759]}},
{"type": "Feature", "id": "VpyFUu0GrioTVJGuNs_IfjNvCjs=", "properties": {"ref": "7056", "@spider": "homedepot_ca", "addr:full": "1590 Regent Avenue W", "addr:city": "Winnipeg", "addr:state": "MB", "addr:postcode": "R2C3B4", "name": "The Home Depot: Home Improvement & Hardware Store in Winnipeg.", "phone": "(204) 813-2116", "website": "https://stores.homedepot.ca/mb/winnipeg/home-improvement-winnipeg-mb-hs7056.html", "opening_hours": "Mo-Sa 07:00-21:00; Su 07:00-20:00", "brand": "The Home Depot"}, "geometry": {"type": "Point", "coordinates": [-97.0690548, 49.8949976]}},
{"type": "Feature", "id": "2KeEjf28lrAeliHykTJ_X41W2CM=", "properties": {"ref": "7038", "@spider": "homedepot_ca", "addr:full": "801 18th Street North", "addr:city": "Brandon", "addr:state": "MB", "addr:postcode": "R7A 7S1", "name": "The Home Depot: Home Improvement & Hardware Store in Brandon.", "phone": "(204) 571-3300", "website": "https://stores.homedepot.ca/mb/brandon/home-improvement-brandon-mb-7038.html", "opening_hours": "Mo-Fr 07:00-21:00; Sa 07:00-20:00; Su 08:00-20:00", "brand": "The Home Depot"}, "geometry": {"type": "Point", "coordinates": [-99.957688, 49.8653715]}},
{"type": "Feature", "id": "_4OPAAWsVpXiVkXdXKCsvRvO6hk=", "properties": {"ref": "7035", "@spider": "homedepot_ca", "addr:full": "840 Main Street", "addr:city": "West Vancouver", "addr:state": "BC", "addr:postcode": "V7T 2Z3", "name": "The Home Depot: Home Improvement & Hardware Store in West Vancouver.", "phone": "(604) 913-2630", "website": "https://stores.homedepot.ca/bc/westvancouver/home-improvement-westvancouver-bc-7035.html", "opening_hours": "Mo-Fr 07:00-21:00; Sa 07:00-20:00; Su 08:00-20:00", "brand": "The Home Depot"}, "geometry": {"type": "Point", "coordinates": [-123.1410162, 49.325262]}},
{"type": "Feature", "id": "5oK0sQNF9TAL3UXWnN47MhGAQM0=", "properties": {"ref": "7252", "@spider": "homedepot_ca", "addr:full": "3550 Carrington Road, Unit #401", "addr:city": "Westbank", "addr:state": "BC", "addr:postcode": "V4T 2Z1", "name": "The Home Depot: Home Improvement & Hardware Store in Westbank.", "phone": "(250) 707-2300", "website": "https://stores.homedepot.ca/bc/westbank/home-improvement-westbank-bc-7252.html", "opening_hours": "Mo-Fr 07:00-21:00; Sa 07:00-20:00; Su 08:00-18:00", "brand": "The Home Depot"}, "geometry": {"type": "Point", "coordinates": [-119.611302, 49.837499]}},
{"type": "Feature", "id": "qS7b5Mg75IxwZ_qxeHBJQ-MkpLM=", "properties": {"ref": "7074", "@spider": "homedepot_ca", "addr:full": "2400 Millstream Road", "addr:city": "Victoria", "addr:state": "BC", "addr:postcode": "V9B3R3", "name": "The Home Depot: Home Improvement & Hardware Store in Victoria.", "phone": "8004663337", "website": "https://stores.homedepot.ca/bc/victoria/home-improvement-victoria-bc-hs7074.html", "brand": "The Home Depot"}, "geometry": {"type": "Point", "coordinates": [-123.4995881, 48.4613986]}},
{"type": "Feature", "id": "fnZetuX0bQec0NJA1ev7lk5lIYM=", "properties": {"ref": "7084", "@spider": "homedepot_ca", "addr:full": "5501 Anderson Way", "addr:city": "Vernon", "addr:state": "BC", "addr:postcode": "V1T9V1", "name": "The Home Depot: Home Improvement & Hardware Store in Vernon.", "phone": "8004663337", "website": "https://stores.homedepot.ca/bc/vernon/home-improvement-vernon-bc-hs7084.html", "brand": "The Home Depot"}, "geometry": {"type": "Point", "coordinates": [-119.2681054, 50.2870622]}},
{"type": "Feature", "id": "ewLyYb_VlbbjZxpNciCKoFfTbOw=", "properties": {"ref": "7259", "@spider": "homedepot_ca", "addr:full": "2388 Cambie Street", "addr:city": "Vancouver", "addr:state": "BC", "addr:postcode": "V5Z2T8", "name": "The Home Depot: Home Improvement & Hardware Store in Vancouver.", "phone": "(604) 800-4590", "website": "https://stores.homedepot.ca/bc/vancouver/home-improvement-vancouver-bc-hs7259.html", "opening_hours": "Mo-Sa 07:00-21:00; Su 08:00-20:00", "brand": "The Home Depot"}, "geometry": {"type": "Point", "coordinates": [-123.1142373, 49.264233]}},
{"type": "Feature", "id": "DVvidLy0cxf329PkiDIchHNhgkk=", "properties": {"ref": "7042", "@spider": "homedepot_ca", "addr:full": "900 Terminal Avenue", "addr:city": "Vancouver", "addr:state": "BC", "addr:postcode": "V6A4G4", "name": "The Home Depot: Home Improvement & Hardware Store in Vancouver.", "phone": "8004663337", "website": "https://stores.homedepot.ca/bc/vancouver/home-improvement-vancouver-bc-hs7042.html", "brand": "The Home Depot"}, "geometry": {"type": "Point", "coordinates": [-123.0835506, 49.2685874]}},
{"type": "Feature", "id": "DZ47ZTv8iI8U0_BCZGomF4HO5mo=", "properties": {"ref": "7122", "@spider": "homedepot_ca", "addr:full": "2525 - 160th Street", "addr:city": "Surrey", "addr:state": "BC", "addr:postcode": "V3S0C8", "name": "The Home Depot: Home Improvement & Hardware Store in Surrey.", "phone": "8004663337", "website": "https://stores.homedepot.ca/bc/surrey/home-improvement-surrey-bc-hs7122.html", "brand": "The Home Depot"}, "geometry": {"type": "Point", "coordinates": [-122.7805025, 49.0478283]}},
{"type": "Feature", "id": "nIqb6sog4XPkmv8eFjoFIGa9edg=", "properties": {"ref": "7046", "@spider": "homedepot_ca", "addr:full": "12701-110th Avenue", "addr:city": "Surrey", "addr:state": "BC", "addr:postcode": "V3V3K7", "name": "The Home Depot: Home Improvement & Hardware Store in Surrey.", "phone": "8004663337", "website": "https://stores.homedepot.ca/bc/surrey/home-improvement-surrey-bc-hs7046.html", "brand": "The Home Depot"}, "geometry": {"type": "Point", "coordinates": [-122.8689131, 49.2038788]}},
{"type": "Feature", "id": "GpLuhoTTxvngGDg0YbRPd-VUrMQ=", "properties": {"ref": "7044", "@spider": "homedepot_ca", "addr:full": "7350-120th Street", "addr:city": "Surrey", "addr:state": "BC", "addr:postcode": "V3W3M9", "name": "The Home Depot: Home Improvement & Hardware Store in Surrey.", "phone": "8004663337", "website": "https://stores.homedepot.ca/bc/surrey/home-improvement-surrey-bc-hs7044.html", "brand": "The Home Depot"}, "geometry": {"type": "Point", "coordinates": [-122.8867823, 49.1367265]}},
{"type": "Feature", "id": "mmrD0eAt6b-ZnaNiIoZNRcU8KkQ=", "properties": {"ref": "7053", "@spider": "homedepot_ca", "addr:full": "39251 Discovery Way", "addr:city": "Squamish", "addr:state": "BC", "addr:postcode": "V8B0M9", "name": "The Home Depot: Home Improvement & Hardware Store in Squamish.", "phone": "8004663337", "website": "https://stores.homedepot.ca/bc/squamish/home-improvement-squamish-bc-hs7053.html", "brand": "The Home Depot"}, "geometry": {"type": "Point", "coordinates": [-123.1512099, 49.7220645]}},
{"type": "Feature", "id": "gkYG5RpUHeh83kvqg0EvWfVgKk4=", "properties": {"ref": "7055", "@spider": "homedepot_ca", "addr:full": "3986 Shelbourne Street", "addr:city": "Saanich", "addr:state": "BC", "addr:postcode": "V8N 3E3", "name": "The Home Depot: Home Improvement & Hardware Store in Saanich.", "phone": "(250) 853-5350", "website": "https://stores.homedepot.ca/bc/saanich/home-improvement-saanich-bc-7055.html", "opening_hours": "Mo-Fr 07:00-21:00; Sa 07:00-20:00; Su 08:00-20:00", "brand": "The Home Depot"}, "geometry": {"type": "Point", "coordinates": [-123.3340912, 48.4706869]}},
{"type": "Feature", "id": "42Cn3RakQwP7C2vJWJjOViHlVXA=", "properties": {"ref": "7043", "@spider": "homedepot_ca", "addr:full": "2700 Sweden Way", "addr:city": "Richmond", "addr:state": "BC", "addr:postcode": "V6V 1K1", "name": "The Home Depot: Home Improvement & Hardware Store in Richmond.", "phone": "(604) 303-9882", "website": "https://stores.homedepot.ca/bc/richmond/home-improvement-richmond-bc-7043.html", "opening_hours": "Mo-Fr 06:00-21:00; Sa 07:00-20:00; Su 08:00-20:00", "brand": "The Home Depot"}, "geometry": {"type": "Point", "coordinates": [-123.082821, 49.194904]}},
{"type": "Feature", "id": "mKt8TU2huyc_dcuUq6KgZgbCKMg=", "properties": {"ref": "7171", "@spider": "homedepot_ca", "addr:full": "5959 O'Grady Road", "addr:city": "Prince George", "addr:state": "BC", "addr:postcode": "V2N6Z5", "name": "The Home Depot: Home Improvement & Hardware Store in Prince George.", "phone": "8004663337", "website": "https://stores.homedepot.ca/bc/princegeorge/home-improvement-princegeorge-bc-hs7171.html", "brand": "The Home Depot"}, "geometry": {"type": "Point", "coordinates": [-122.7787717, 53.8664805]}},
{"type": "Feature", "id": "1IrC3p0LnPa0khVkt_0Km1qNwe4=", "properties": {"ref": "7145", "@spider": "homedepot_ca", "addr:full": "1069 Nicola Dr.", "addr:city": "Port Coquitlam", "addr:state": "BC", "addr:postcode": "V3B 8B2", "name": "The Home Depot: Home Improvement & Hardware Store in Port Coquitlam.", "phone": "(604) 468-3360", "website": "https://stores.homedepot.ca/bc/portcoquitlam/home-improvement-portcoquitlam-bc-7145.html", "opening_hours": "Mo-Fr 07:00-21:00; Sa 07:00-20:00; Su 08:00-20:00", "brand": "The Home Depot"}, "geometry": {"type": "Point", "coordinates": [-122.74298, 49.257768]}},
{"type": "Feature", "id": "q4y_d6so9nUbFokXiw37OV8aTOw=", "properties": {"ref": "7040", "@spider": "homedepot_ca", "addr:full": "6555 Metral Street", "addr:city": "Nanaimo", "addr:state": "BC", "addr:postcode": "V9T 2L9", "name": "The Home Depot: Home Improvement & Hardware Store in Nanaimo.", "phone": "(250) 390-9093", "website": "https://stores.homedepot.ca/bc/nanaimo/home-improvement-nanaimo-bc-7040.html", "opening_hours": "Mo-Fr 07:00-21:00; Sa 07:00-20:00; Su 08:00-20:00", "brand": "The Home Depot"}, "geometry": {"type": "Point", "coordinates": [-124.0495921, 49.2321807]}},
{"type": "Feature", "id": "XaE2N5nKxmFTwyasjj6Aa342PqQ=", "properties": {"ref": "7041", "@spider": "homedepot_ca", "addr:full": "6550 - 200th Street", "addr:city": "Langley", "addr:state": "BC", "addr:postcode": "V2Y1P2", "name": "The Home Depot: Home Improvement & Hardware Store in Langley.", "phone": "(604) 800-3926", "website": "https://stores.homedepot.ca/bc/langley/home-improvement-langley-bc-hs7041.html", "opening_hours": "Mo-Fr 06:00-21:00; Sa 07:00-21:00; Su 07:00-20:00", "brand": "The Home Depot"}, "geometry": {"type": "Point", "coordinates": [-122.6671407, 49.1223751]}},
{"type": "Feature", "id": "89UpPlZj2JHdcJZvJRJMrLcoC2w=", "properties": {"ref": "7032", "@spider": "homedepot_ca", "addr:full": "2515 Enterprise Way", "addr:city": "Kelowna", "addr:state": "BC", "addr:postcode": "V1X6C1", "name": "The Home Depot: Home Improvement & Hardware Store in Kelowna.", "phone": "8004663337", "website": "https://stores.homedepot.ca/bc/kelowna/home-improvement-kelowna-bc-hs7032.html", "brand": "The Home Depot"}, "geometry": {"type": "Point", "coordinates": [-119.4309209, 49.887023]}},
{"type": "Feature", "id": "dZl3d_LgB0g8z_-VsmGRVhxGebI=", "properties": {"ref": "7272", "@spider": "homedepot_ca", "addr:full": "2980 Drinkwater Road", "addr:city": "Duncan", "addr:state": "BC", "addr:postcode": "V9L 6C6", "name": "The Home Depot: Home Improvement & Hardware Store in Duncan.", "phone": "(250) 737-2360", "website": "https://stores.homedepot.ca/bc/duncan/home-improvement-duncan-bc-7272.html", "opening_hours": "Mo-Fr 07:00-21:00; Sa 07:00-20:00; Su 08:00-18:00", "brand": "The Home Depot"}, "geometry": {"type": "Point", "coordinates": [-123.719423, 48.802896]}},
{"type": "Feature", "id": "lV4C_L39HTuOYuy1yHGNSAHk-Ik=", "properties": {"ref": "7255", "@spider": "homedepot_ca", "addr:full": "2000 McPhee Road", "addr:city": "Cranbrook", "addr:state": "BC", "addr:postcode": "V1C 0A3", "name": "The Home Depot: Home Improvement & Hardware Store in Cranbrook.", "phone": "(250) 420-4250", "website": "https://stores.homedepot.ca/bc/cranbrook/home-improvement-cranbrook-bc-7255.html", "opening_hours": "Mo-Fr 07:00-20:00; Sa 08:00-18:00; Su 09:00-18:00", "brand": "The Home Depot"}, "geometry": {"type": "Point", "coordinates": [-115.753557, 49.533667]}},
{"type": "Feature", "id": "rdoK7OgTEd6QVlpiBQ-20UANQfU=", "properties": {"ref": "7177", "@spider": "homedepot_ca", "addr:full": "388 Lerwick Road", "addr:city": "Courtenay", "addr:state": "BC", "addr:postcode": "V9N9E5", "name": "The Home Depot: Home Improvement & Hardware Store in Courtenay.", "phone": "8004663337", "website": "https://stores.homedepot.ca/bc/courtenay/home-improvement-courtenay-bc-hs7177.html", "brand": "The Home Depot"}, "geometry": {"type": "Point", "coordinates": [-124.9646837, 49.7121984]}},
{"type": "Feature", "id": "TPWZXI5Q5ooIksu1eWLlj8kBcLg=", "properties": {"ref": "7045", "@spider": "homedepot_ca", "addr:full": "1900 United Boulevard", "addr:city": "Coquitlam", "addr:state": "BC", "addr:postcode": "V3K 6Z1", "name": "The Home Depot: Home Improvement & Hardware Store in Coquitlam.", "phone": "(604) 540-6226", "website": "https://stores.homedepot.ca/bc/coquitlam/home-improvement-coquitlam-bc-7045.html", "opening_hours": "Mo-Fr 07:00-21:00; Sa 07:00-20:00; Su 08:00-20:00", "brand": "The Home Depot"}, "geometry": {"type": "Point", "coordinates": [-122.8422849, 49.2272661]}},
{"type": "Feature", "id": "EYlXgO_MpE5zAxmQ2ed1FOfgcrU=", "properties": {"ref": "7273", "@spider": "homedepot_ca", "addr:full": "100-8443 Eagle Landing Pkwy", "addr:city": "Chilliwack", "addr:state": "BC", "addr:postcode": "V2P 0E2", "name": "The Home Depot: Home Improvement & Hardware Store in Chilliwack.", "phone": "(604) 703-1502", "website": "https://stores.homedepot.ca/bc/chilliwack/home-improvement-chilliwack-bc-7273.html", "opening_hours": "Mo-Fr 07:00-21:00; Sa 07:00-20:00; Su 08:00-18:00", "brand": "The Home Depot"}, "geometry": {"type": "Point", "coordinates": [-121.977789, 49.152477]}},
{"type": "Feature", "id": "pGkrdEH622xVl-AHvlVXJZgYxMI=", "properties": {"ref": "7221", "@spider": "homedepot_ca", "addr:full": "1482 Island Highway", "addr:city": "Campbell River", "addr:state": "BC", "addr:postcode": "V9W 8C9", "name": "The Home Depot: Home Improvement & Hardware Store in Campbell River.", "phone": "(250) 286-5400", "website": "https://stores.homedepot.ca/bc/campbellriver/home-improvement-campbellriver-bc-7221.html", "opening_hours": "Mo-Sa 07:00-20:00; Su 08:00-20:00", "brand": "The Home Depot"}, "geometry": {"type": "Point", "coordinates": [-125.259375, 50.034076]}},
{"type": "Feature", "id": "gO_sYk2qe_B2pPmkoXVYdptqHEQ=", "properties": {"ref": "7047", "@spider": "homedepot_ca", "addr:full": "3950 Henning Drive", "addr:city": "Burnaby", "addr:state": "BC", "addr:postcode": "V5C 6M2", "name": "The Home Depot: Home Improvement & Hardware Store in Burnaby.", "phone": "(604) 294-3030", "website": "https://stores.homedepot.ca/bc/burnaby/home-improvement-burnaby-bc-7047.html", "opening_hours": "Mo-Fr 06:00-21:00; Sa 07:00-20:00; Su 08:00-20:00", "brand": "The Home Depot"}, "geometry": {"type": "Point", "coordinates": [-123.0169013, 49.2631361]}},
{"type": "Feature", "id": "QegVwJSpo3Fn1pZDvXLlbdJTXwc=", "properties": {"ref": "7141", "@spider": "homedepot_ca", "addr:full": "1956 Vedder Way", "addr:city": "Abbotsford", "addr:state": "BC", "addr:postcode": "V2S8K1", "name": "The Home Depot: Home Improvement & Hardware Store in Abbotsford.", "phone": "8004663337", "website": "https://stores.homedepot.ca/bc/abbotsford/home-improvement-abbotsford-bc-hs7141.html", "brand": "The Home Depot"}, "geometry": {"type": "Point", "coordinates": [-122.2711261, 49.0371983]}},
{"type": "Feature", "id": "xYcKuXRyu1xcwgF4_G7zX7h-v4w=", "properties": {"ref": "7088", "@spider": "homedepot_ca", "addr:full": "750 St. Albert Road", "addr:city": "St. Albert", "addr:state": "AB", "addr:postcode": "T8N7H5", "name": "The Home Depot: Home Improvement & Hardware Store in St. Albert.", "phone": "8004663337", "website": "https://stores.homedepot.ca/ab/st-albert/home-improvement-st-albert-ab-hs7088.html", "brand": "The Home Depot"}, "geometry": {"type": "Point", "coordinates": [-113.6359498, 53.6618421]}},
{"type": "Feature", "id": "nrqBTuYYlyEyaE1twahCWqYg3jk=", "properties": {"ref": "7050", "@spider": "homedepot_ca", "addr:full": "180 Hwy 16A", "addr:city": "Spruce Grove", "addr:state": "AB", "addr:postcode": "T7X3X3", "name": "The Home Depot: Home Improvement & Hardware Store in Spruce Grove.", "phone": "8004663337", "website": "https://stores.homedepot.ca/ab/sprucegrove/home-improvement-sprucegrove-ab-hs7050.html", "brand": "The Home Depot"}, "geometry": {"type": "Point", "coordinates": [-113.9291699, 53.542134]}},
{"type": "Feature", "id": "iCMjy82BSeXWN9SfzccWgOW1Bg8=", "properties": {"ref": "7172", "@spider": "homedepot_ca", "addr:full": "200-390 Baseline Road", "addr:city": "Sherwood Park", "addr:state": "AB", "addr:postcode": "T8H 1X1", "name": "The Home Depot: Home Improvement & Hardware Store in Sherwood Park.", "phone": "(780) 417-7875", "website": "https://stores.homedepot.ca/ab/sherwoodpark/home-improvement-sherwoodpark-ab-7172.html", "opening_hours": "Mo-Fr 07:00-21:00; Sa 07:00-20:00; Su 08:00-20:00", "brand": "The Home Depot"}, "geometry": {"type": "Point", "coordinates": [-113.299343, 53.542868]}},
{"type": "Feature", "id": "C1GuBT4WCSIDF_ubNVvCWjUs9Cg=", "properties": {"ref": "7131", "@spider": "homedepot_ca", "addr:full": "2030-50th Avenue", "addr:city": "Red Deer", "addr:state": "AB", "addr:postcode": "T4R 3A2", "name": "The Home Depot: Home Improvement & Hardware Store in Red Deer.", "phone": "(403) 358-7550", "website": "https://stores.homedepot.ca/ab/reddeer/home-improvement-reddeer-ab-7131.html", "opening_hours": "Mo-Fr 07:00-21:00; Sa 07:00-20:00; Su 08:00-18:00", "brand": "The Home Depot"}, "geometry": {"type": "Point", "coordinates": [-113.8140828, 52.2372798]}},
{"type": "Feature", "id": "f9c8zk8kak5aOKBKLBIBHn1VtPE=", "properties": {"ref": "7223", "@spider": "homedepot_ca", "addr:full": "10-101 Southbank Boulevard", "addr:city": "Okotoks", "addr:state": "AB", "addr:postcode": "T1S 0G1", "name": "The Home Depot: Home Improvement & Hardware Store in Okotoks.", "phone": "(403) 995-4710", "website": "https://stores.homedepot.ca/ab/okotoks/home-improvement-okotoks-ab-7223.html", "opening_hours": "Mo-Fr 07:00-21:00; Sa 07:00-20:00; Su 08:00-20:00", "brand": "The Home Depot"}, "geometry": {"type": "Point", "coordinates": [-113.951106, 50.705604]}},
{"type": "Feature", "id": "Yroj-Qpa_6kYMoPTrOgnXqyrUYI=", "properties": {"ref": "7036", "@spider": "homedepot_ca", "addr:full": "1851 Strachan Road S.E.", "addr:city": "Medicine Hat", "addr:state": "AB", "addr:postcode": "T1B 4V7", "name": "The Home Depot: Home Improvement & Hardware Store in Medicine Hat.", "phone": "(403) 581-4300", "website": "https://stores.homedepot.ca/ab/medicinehat/home-improvement-medicinehat-ab-7036.html", "opening_hours": "Mo-Fr 07:00-21:00; Sa 07:00-20:00; Su 08:00-18:00", "brand": "The Home Depot"}, "geometry": {"type": "Point", "coordinates": [-110.6501678, 49.99687]}},
{"type": "Feature", "id": "aChvc20x-jMuzgdMid2ft06QbcQ=", "properties": {"ref": "7258", "@spider": "homedepot_ca", "addr:full": "7705-44th Street", "addr:city": "Lloydminster", "addr:state": "AB", "addr:postcode": "T9V0X9", "name": "The Home Depot: Home Improvement & Hardware Store in Lloydminster.", "phone": "8004663337", "website": "https://stores.homedepot.ca/ab/lloydminster/home-improvement-lloydminster-ab-hs7258.html", "brand": "The Home Depot"}, "geometry": {"type": "Point", "coordinates": [-110.0577579, 53.2759745]}},
{"type": "Feature", "id": "sGkpz8fqpzZ73cb-gnpRz6MWK3o=", "properties": {"ref": "7170", "@spider": "homedepot_ca", "addr:full": "3708 Mayor Magrath Dr.South", "addr:city": "Lethbridge", "addr:state": "AB", "addr:postcode": "T1K 7V1", "name": "The Home Depot: Home Improvement & Hardware Store in Lethbridge.", "phone": "(403) 331-3575", "website": "https://stores.homedepot.ca/ab/lethbridge/home-improvement-lethbridge-ab-7170.html", "opening_hours": "Mo-Fr 07:00-21:00; Sa 07:00-20:00; Su 08:00-18:00", "brand": "The Home Depot"}, "geometry": {"type": "Point", "coordinates": [-112.79331, 49.658986]}},
{"type": "Feature", "id": "MZUfZWB86Jg-Hwy_oztynng7FVs=", "properties": {"ref": "7175", "@spider": "homedepot_ca", "addr:full": "11222 A 103 Ave", "addr:city": "Grande Prairie", "addr:state": "AB", "addr:postcode": "T8V 7H1", "name": "The Home Depot: Home Improvement & Hardware Store in Grande Prairie.", "phone": "(780) 831-3160", "website": "https://stores.homedepot.ca/ab/grandeprairie/home-improvement-grandeprairie-ab-7175.html", "opening_hours": "Mo-Fr 07:00-21:00; Sa 07:00-20:00; Su 08:00-18:00", "brand": "The Home Depot"}, "geometry": {"type": "Point", "coordinates": [-118.833758, 55.172743]}},
{"type": "Feature", "id": "QDZ_WUnde5pyWGYk7I4AX8c_l94=", "properties": {"ref": "7222", "@spider": "homedepot_ca", "addr:full": "9280 Southfort Drive", "addr:city": "Fort Saskatchewan", "addr:state": "AB", "addr:postcode": "T8L0C5", "name": "The Home Depot: Home Improvement & Hardware Store in Fort Saskatchewan.", "phone": "8004663337", "website": "https://stores.homedepot.ca/ab/fortsaskatchewan/home-improvement-fortsaskatchewan-ab-hs7222.html", "brand": "The Home Depot"}, "geometry": {"type": "Point", "coordinates": [-113.2198944, 53.6935507]}},
{"type": "Feature", "id": "e4DSe5Lb4Co3Uqs_eawCtgl3uO0=", "properties": {"ref": "7268", "@spider": "homedepot_ca", "addr:full": "6218 Currents Drive NW", "addr:city": "Edmonton", "addr:state": "AB", "addr:postcode": "T6W0L8", "name": "The Home Depot: Home Improvement & Hardware Store in Edmonton.", "phone": "8004663337", "website": "https://stores.homedepot.ca/ab/edmonton/home-improvement-edmonton-ab-hs7268.html", "brand": "The Home Depot"}, "geometry": {"type": "Point", "coordinates": [-113.6065254, 53.4390295]}},
{"type": "Feature", "id": "4_yofUMTqa4JIXZ52ofuPfwIgB0=", "properties": {"ref": "7248", "@spider": "homedepot_ca", "addr:full": "4430 - 17th Street NW", "addr:city": "Edmonton", "addr:state": "AB", "addr:postcode": "T6T0B4", "name": "The Home Depot: Home Improvement & Hardware Store in Edmonton.", "phone": "8004663337", "website": "https://stores.homedepot.ca/ab/edmonton/home-improvement-edmonton-ab-hs7248.html", "brand": "The Home Depot"}, "geometry": {"type": "Point", "coordinates": [-113.3706849, 53.4801904]}},
{"type": "Feature", "id": "ZHLkXlqs7YWRIQ5YpWvkwQFls6Q=", "properties": {"ref": "7227", "@spider": "homedepot_ca", "addr:full": "604-1 Westmount Shopping", "addr:city": "Edmonton", "addr:state": "AB", "addr:postcode": "T5M3L7", "name": "The Home Depot: Home Improvement & Hardware Store in Edmonton.", "phone": "8004663337", "website": "https://stores.homedepot.ca/ab/edmonton/home-improvement-edmonton-ab-hs7227.html", "brand": "The Home Depot"}, "geometry": {"type": "Point", "coordinates": [-113.5538907, 53.5620231]}},
{"type": "Feature", "id": "hQovAqYHC0je0qi5omm1p1yioHA=", "properties": {"ref": "7119", "@spider": "homedepot_ca", "addr:full": "13360 137th Avenue", "addr:city": "Edmonton", "addr:state": "AB", "addr:postcode": "T5L5C7", "name": "The Home Depot: Home Improvement & Hardware Store in Edmonton.", "phone": "8004663337", "website": "https://stores.homedepot.ca/ab/edmonton/home-improvement-edmonton-ab-hs7119.html", "brand": "The Home Depot"}, "geometry": {"type": "Point", "coordinates": [-113.5516853, 53.6015565]}},
{"type": "Feature", "id": "R-NicSBPMaLYMYK7f_02awnmh_M=", "properties": {"ref": "7117", "@spider": "homedepot_ca", "addr:full": "6725 - 104 Street N.W.", "addr:city": "Edmonton", "addr:state": "AB", "addr:postcode": "T6H2L3", "name": "The Home Depot: Home Improvement & Hardware Store in Edmonton.", "phone": "8004663337", "website": "https://stores.homedepot.ca/ab/edmonton/home-improvement-edmonton-ab-hs7117.html", "brand": "The Home Depot"}, "geometry": {"type": "Point", "coordinates": [-113.4965802, 53.5034482]}},
{"type": "Feature", "id": "pqx5YuDhGlD47sQjlK9ol1MaSsc=", "properties": {"ref": "7065", "@spider": "homedepot_ca", "addr:full": "2020 - 101 Street S.W.", "addr:city": "Edmonton", "addr:state": "AB", "addr:postcode": "T6N1J2", "name": "The Home Depot: Home Improvement & Hardware Store in Edmonton.", "phone": "(587) 604-0364", "website": "https://stores.homedepot.ca/ab/edmonton/home-improvement-edmonton-ab-hs7065.html", "opening_hours": "Mo-Sa 07:00-21:00; Su 07:00-20:00", "brand": "The Home Depot"}, "geometry": {"type": "Point", "coordinates": [-113.4933738, 53.4125081]}},
{"type": "Feature", "id": "Q5rnb5U_M-8p_gEmB4h4x5EQxRs=", "properties": {"ref": "7064", "@spider": "homedepot_ca", "addr:full": "17404-99th Avenue N.W.", "addr:city": "Edmonton", "addr:state": "AB", "addr:postcode": "T5T5L5", "name": "The Home Depot: Home Improvement & Hardware Store in Edmonton.", "phone": "8004663337", "website": "https://stores.homedepot.ca/ab/edmonton/home-improvement-edmonton-ab-hs7064.html", "brand": "The Home Depot"}, "geometry": {"type": "Point", "coordinates": [-113.6211339, 53.5367317]}},
{"type": "Feature", "id": "mIepF-41FW2C7ClXbVz8TeAeKg0=", "properties": {"ref": "7062", "@spider": "homedepot_ca", "addr:full": "13304-50th Street N.W.", "addr:city": "Edmonton", "addr:state": "AB", "addr:postcode": "T5A4Z8", "name": "The Home Depot: Home Improvement & Hardware Store in Edmonton.", "phone": "8004663337", "website": "https://stores.homedepot.ca/ab/edmonton/home-improvement-edmonton-ab-hs7062.html", "brand": "The Home Depot"}, "geometry": {"type": "Point", "coordinates": [-113.4168103, 53.5946202]}},
{"type": "Feature", "id": "gKyNj1geTfOaJKdSNz42x4RRjGI=", "properties": {"ref": "7250", "@spider": "homedepot_ca", "addr:full": "5019 Nose Hill Drive NW", "addr:city": "Calgary", "addr:state": "AB", "addr:postcode": "T3L0A2", "name": "The Home Depot: Home Improvement & Hardware Store in Calgary.", "phone": "8004663337", "website": "https://stores.homedepot.ca/ab/calgary/home-improvement-calgary-ab-hs7250.html", "brand": "The Home Depot"}, "geometry": {"type": "Point", "coordinates": [-114.2421256, 51.107837]}},
{"type": "Feature", "id": "sF64dRZcJIhCOzbuWqfAzTosGrc=", "properties": {"ref": "7111", "@spider": "homedepot_ca", "addr:full": "388 Country Hills Boulevard", "addr:city": "Calgary", "addr:state": "AB", "addr:postcode": "T3K5H2", "name": "The Home Depot: Home Improvement & Hardware Store in Calgary.", "phone": "8004663337", "website": "https://stores.homedepot.ca/ab/calgary/home-improvement-calgary-ab-hs7111.html", "brand": "The Home Depot"}, "geometry": {"type": "Point", "coordinates": [-114.0730226, 51.1486065]}},
{"type": "Feature", "id": "xEmVBKaQXQvg0hXl_USWSh7IigM=", "properties": {"ref": "7082", "@spider": "homedepot_ca", "addr:full": "5125 126th Avenue SE", "addr:city": "Calgary", "addr:state": "AB", "addr:postcode": "T2Z0B2", "name": "The Home Depot: Home Improvement & Hardware Store in Calgary.", "phone": "8004663337", "website": "https://stores.homedepot.ca/ab/calgary/home-improvement-calgary-ab-hs7082.html", "brand": "The Home Depot"}, "geometry": {"type": "Point", "coordinates": [-113.9647401, 50.9348943]}},
{"type": "Feature", "id": "tLuXKn2CMg_8xrGOvu4mga_jEh4=", "properties": {"ref": "7076", "@spider": "homedepot_ca", "addr:full": "11320 Sarcee Trail NW", "addr:city": "Calgary", "addr:state": "AB", "addr:postcode": "T3R0A1", "name": "The Home Depot: Home Improvement & Hardware Store in Calgary.", "phone": "8004663337", "website": "https://stores.homedepot.ca/ab/calgary/home-improvement-calgary-ab-hs7076.html", "brand": "The Home Depot"}, "geometry": {"type": "Point", "coordinates": [-114.1611053, 51.1547572]}},
{"type": "Feature", "id": "PVzxYI5Lv9Ai5g2lplHLvq43KJ8=", "properties": {"ref": "7067", "@spider": "homedepot_ca", "addr:full": "390 Shawville Blvd. S.E.", "addr:city": "Calgary", "addr:state": "AB", "addr:postcode": "T2Y3S4", "name": "The Home Depot: Home Improvement & Hardware Store in Calgary.", "phone": "(825) 250 3313", "website": "https://stores.homedepot.ca/ab/calgary/home-improvement-calgary-ab-hs7067.html", "opening_hours": "Mo-Sa 07:00-21:00; Su 07:00-20:00", "brand": "The Home Depot"}, "geometry": {"type": "Point", "coordinates": [-114.0600326, 50.8967727]}},
{"type": "Feature", "id": "DQHnu-dHOdQjCDE_jIYppFSvr7Q=", "properties": {"ref": "7063", "@spider": "homedepot_ca", "addr:full": "6500 MacLeod Trail S.W.", "addr:city": "Calgary", "addr:state": "AB", "addr:postcode": "T2H0K6", "name": "The Home Depot: Home Improvement & Hardware Store in Calgary.", "phone": "(825) 250-0329", "website": "https://stores.homedepot.ca/ab/calgary/home-improvement-calgary-ab-hs7063.html", "opening_hours": "Mo-Fr 06:00-21:00; Sa 07:00-21:00; Su 07:00-20:00", "brand": "The Home Depot"}, "geometry": {"type": "Point", "coordinates": [-114.0693784, 50.9961353]}},
{"type": "Feature", "id": "GxBVBERjPEV6BnThfY3zLF1B788=", "properties": {"ref": "7061", "@spider": "homedepot_ca", "addr:full": "343-36th Street N.E", "addr:city": "Calgary", "addr:state": "AB", "addr:postcode": "T2A7S9", "name": "The Home Depot: Home Improvement & Hardware Store in Calgary.", "phone": "8004663337", "website": "https://stores.homedepot.ca/ab/calgary/home-improvement-calgary-ab-hs7061.html", "brand": "The Home Depot"}, "geometry": {"type": "Point", "coordinates": [-113.9819377, 51.0533942]}},
{"type": "Feature", "id": "E22TyeeFSulChoZTLIVy2qZxohk=", "properties": {"ref": "7037", "@spider": "homedepot_ca", "addr:full": "1818 16th Ave. N.W.", "addr:city": "Calgary", "addr:state": "AB", "addr:postcode": "T2M0L8", "name": "The Home Depot: Home Improvement & Hardware Store in Calgary.", "phone": "(825) 250-3367", "website": "https://stores.homedepot.ca/ab/calgary/home-improvement-calgary-ab-hs7037.html", "opening_hours": "Mo-Sa 07:00-21:00; Su 07:00-20:00", "brand": "The Home Depot"}, "geometry": {"type": "Point", "coordinates": [-114.1047998, 51.0674565]}},
{"type": "Feature", "id": "V9leJXB337wNhoyw5hMIKb-QF40=", "properties": {"ref": "7254", "@spider": "homedepot_ca", "addr:full": "2925 Main Street SW", "addr:city": "Airdrie", "addr:state": "AB", "addr:postcode": "T4B3G5", "name": "The Home Depot: Home Improvement & Hardware Store in Airdrie.", "phone": "8004663337", "website": "https://stores.homedepot.ca/ab/airdrie/home-improvement-airdrie-ab-hs7254.html", "brand": "The Home Depot"}, "geometry": {"type": "Point", "coordinates": [-114.0069343, 51.2604045]}}]}