{"type":"FeatureCollection","features":[{"type": "Feature", "id": "rpwebpnyDSZOhSR-xyEzxI18Tjc=", "properties": {"ref": "62", "@spider": "hyvee", "addr:full": "1975 National Boulevard", "addr:city": "Galesburg", "addr:state": "IL", "addr:postcode": "61401", "name": "Galesburg #1 Hy-Vee (Henderson)", "phone": " 309-344-1100", "website": "https://www.hy-vee.com/stores/detail.aspx?s=62", "opening_hours": "24/7", "brand": "Hyvee"}, "geometry": {"type": "Point", "coordinates": [-90.3823, 40.9722]}},
{"type": "Feature", "id": "9YWIqUHwoCCMlZ6uV4feT83LU7M=", "properties": {"ref": "14", "@spider": "hyvee", "addr:full": "1104 South 25th Street", "addr:city": "Bethany", "addr:state": "MO", "addr:postcode": "64424", "name": "Bethany Hy-Vee", "phone": " 660-425-6353", "website": "https://www.hy-vee.com/stores/detail.aspx?s=14", "opening_hours": "24/7", "brand": "Hyvee"}, "geometry": {"type": "Point", "coordinates": [-94.0279, 40.2586]}},
{"type": "Feature", "id": "6JpWhEyY_5u7ojtPd8jjK2knyyo=", "properties": {"ref": "16", "@spider": "hyvee", "addr:full": "1111 8th Street", "addr:city": "Boone", "addr:state": "IA", "addr:postcode": "50036", "name": "Boone Hy-Vee", "phone": " 515-432-6065", "website": "https://www.hy-vee.com/stores/detail.aspx?s=16", "opening_hours": "24/7", "brand": "Hyvee"}, "geometry": {"type": "Point", "coordinates": [-93.8765, 42.0638]}},
{"type": "Feature", "id": "Mhww8WBRHaiepxyGL8Z8GYRv3lU=", "properties": {"ref": "1333", "@spider": "hyvee", "addr:full": "2510 SW State Street", "addr:city": "Ankeny", "addr:state": "IA", "addr:postcode": "50023", "name": "Ankeny #2 Hy-Vee (Prairie Trail)", "phone": " 515-963-3130", "website": "https://www.hy-vee.com/stores/detail.aspx?s=1333", "opening_hours": "24/7", "brand": "Hyvee"}, "geometry": {"type": "Point", "coordinates": [-93.6226, 41.7039]}},
{"type": "Feature", "id": "TC4IArZV-LXXpR4wsL3Rb3JnSUA=", "properties": {"ref": "8", "@spider": "hyvee", "addr:full": "410 North Ankeny Boulevard", "addr:city": "Ankeny", "addr:state": "IA", "addr:postcode": "50023", "name": "Ankeny #1 Hy-Vee (North Ankeny Boulevard)", "phone": " 515-964-0900", "website": "https://www.hy-vee.com/stores/detail.aspx?s=8", "opening_hours": "24/7", "brand": "Hyvee"}, "geometry": {"type": "Point", "coordinates": [-93.6007, 41.7343]}},
{"type": "Feature", "id": "0_q3Hf5Ve_hHV_i8Vj9Ej9KLuc4=", "properties": {"ref": "2057", "@spider": "hyvee", "addr:full": "370 S. Main Street", "addr:city": "Zumbrota", "addr:state": "MN", "addr:postcode": "55992", "name": "Zumbrota Hy-Vee HealthMarket Rx", "phone": " 507-732-7309", "website": "https://www.hy-vee.com/stores/detail.aspx?s=2057", "opening_hours": "24/7", "brand": "Hyvee"}, "geometry": {"type": "Point", "coordinates": [-92.6716, 44.2936]}},
{"type": "Feature", "id": "lZzzLfdRE_HTWHeUocz4B1ftSg4=", "properties": {"ref": "6", "@spider": "hyvee", "addr:full": "640 Lincoln Way", "addr:city": "Ames", "addr:state": "IA", "addr:postcode": "50010", "name": "Ames #2 Hy-Vee (Lincoln Center)", "phone": " 515-232-1961", "website": "https://www.hy-vee.com/stores/detail.aspx?s=6", "opening_hours": "24/7", "brand": "Hyvee"}, "geometry": {"type": "Point", "coordinates": [-93.6191, 42.0227]}},
{"type": "Feature", "id": "Mk3Meb1AmzIkjhelgYm5jgfnBmA=", "properties": {"ref": "9", "@spider": "hyvee", "addr:full": "1630 East 7th Street", "addr:city": "Atlantic", "addr:state": "IA", "addr:postcode": "50022", "name": "Atlantic Hy-Vee", "phone": " 712-243-1278", "website": "https://www.hy-vee.com/stores/detail.aspx?s=9", "opening_hours": "24/7", "brand": "Hyvee"}, "geometry": {"type": "Point", "coordinates": [-94.9899, 41.4041]}},
{"type": "Feature", "id": "xYS-WxO5Z8cEf1_f60n6TtrnSeM=", "properties": {"ref": "509", "@spider": "hyvee", "addr:full": "1215 Duff Avenue", "addr:city": "Ames", "addr:state": "IA", "addr:postcode": "50010", "name": "Ames Clinic Pharmacy Hy-Vee", "phone": " 515-232-7315", "website": "https://www.hy-vee.com/stores/detail.aspx?s=509", "opening_hours": "24/7", "brand": "Hyvee"}, "geometry": {"type": "Point", "coordinates": [-93.6108, 42.0333]}},
{"type": "Feature", "id": "RtBPotUVSRGOjzWc8kxScYHVJhk=", "properties": {"ref": "15", "@spider": "hyvee", "addr:full": "2900 Devils Glen Road", "addr:city": "Bettendorf", "addr:state": "IA", "addr:postcode": "52722", "name": "Bettendorf Hy-Vee", "phone": " 563-332-8496", "website": "https://www.hy-vee.com/stores/detail.aspx?s=15", "opening_hours": "24/7", "brand": "Hyvee"}, "geometry": {"type": "Point", "coordinates": [-90.4849, 41.5536]}},
{"type": "Feature", "id": "sMfs9q14l4i-3Q9h1E6BN5pb2Bc=", "properties": {"ref": "13", "@spider": "hyvee", "addr:full": "1307 East North Avenue", "addr:city": "Belton", "addr:state": "MO", "addr:postcode": "64012", "name": "Belton Hy-Vee", "phone": " 816-318-0400", "website": "https://www.hy-vee.com/stores/detail.aspx?s=13", "opening_hours": "24/7", "brand": "Hyvee"}, "geometry": {"type": "Point", "coordinates": [-94.5208, 38.8137]}},
{"type": "Feature", "id": "VXJ-NduSFEi2efY2TCJcvFBRoXw=", "properties": {"ref": "5", "@spider": "hyvee", "addr:full": "3800 Lincoln Way", "addr:city": "Ames", "addr:state": "IA", "addr:postcode": "50014", "name": "Ames #1 Hy-Vee (West Lincoln Way)", "phone": " 515-292-5580", "website": "https://www.hy-vee.com/stores/detail.aspx?s=5", "opening_hours": "24/7", "brand": "Hyvee"}, "geometry": {"type": "Point", "coordinates": [-93.6689, 42.0226]}},
{"type": "Feature", "id": "q4n4l-1JK51APC94JAmB5fTjhdM=", "properties": {"ref": "12", "@spider": "hyvee", "addr:full": "625 W. U.S. Highway 40", "addr:city": "Blue Springs", "addr:state": "MO", "addr:postcode": "64014", "name": "Blue Springs Hy-Vee", "phone": " 816-224-4288", "website": "https://www.hy-vee.com/stores/detail.aspx?s=12", "opening_hours": "24/7", "brand": "Hyvee"}, "geometry": {"type": "Point", "coordinates": [-94.2713, 39.0104]}},
{"type": "Feature", "id": "t4hIagN8K_77clrtD2ShT6I6m04=", "properties": {"ref": "11", "@spider": "hyvee", "addr:full": "1604 Bent St", "addr:city": "Bedford", "addr:state": "IA", "addr:postcode": "50833", "name": "Bedford Hy-Vee", "phone": " 712-523-2193", "website": "https://www.hy-vee.com/stores/detail.aspx?s=11", "opening_hours": "24/7", "brand": "Hyvee"}, "geometry": {"type": "Point", "coordinates": [-94.7259, 40.6758]}},
{"type": "Feature", "id": "J6BcR2EMQonAfSuNsG1ByVzwiRQ=", "properties": {"ref": "514", "@spider": "hyvee", "addr:full": "301 W. Jefferson Street", "addr:city": "Bloomfield", "addr:state": "IA", "addr:postcode": "52537", "name": "Bloomfield Clinic Pharmacy Hy-Vee", "phone": " 641-664-2975", "website": "https://www.hy-vee.com/stores/detail.aspx?s=514", "opening_hours": "24/7", "brand": "Hyvee"}, "geometry": {"type": "Point", "coordinates": [-92.4137, 40.7507]}},
{"type": "Feature", "id": "SAE_-992lS7CYWEVYYP3-SlGh5A=", "properties": {"ref": "17", "@spider": "hyvee", "addr:full": "790 - 22nd Avenue South", "addr:city": "Brookings", "addr:state": "SD", "addr:postcode": "57006", "name": "Brookings Hy-Vee", "phone": " 605-692-7317", "website": "https://www.hy-vee.com/stores/detail.aspx?s=17", "opening_hours": "24/7", "brand": "Hyvee"}, "geometry": {"type": "Point", "coordinates": [-96.7689, 44.2972]}},
{"type": "Feature", "id": "YficL4TWKtynYcTlzAkbZvQlYs0=", "properties": {"ref": "10", "@spider": "hyvee", "addr:full": "1307 18th Ave NW", "addr:city": "Austin", "addr:state": "MN", "addr:postcode": "55912", "name": "Austin Hy-Vee", "phone": " 507-437-7625", "website": "https://www.hy-vee.com/stores/detail.aspx?s=10", "opening_hours": "24/7", "brand": "Hyvee"}, "geometry": {"type": "Point", "coordinates": [-92.9865, 43.6847]}},
{"type": "Feature", "id": "MPE16At93MCSLy0m9rgyEeTkJ_c=", "properties": {"ref": "20", "@spider": "hyvee", "addr:full": "825 North Main Street", "addr:city": "Canton", "addr:state": "IL", "addr:postcode": "61520", "name": "Canton Hy-Vee", "phone": " 309-647-0712", "website": "https://www.hy-vee.com/stores/detail.aspx?s=20", "opening_hours": "24/7", "brand": "Hyvee"}, "geometry": {"type": "Point", "coordinates": [-90.0364, 40.567]}},
{"type": "Feature", "id": "0GyrGBuaKLyRJgfbCxxe3L_m0TA=", "properties": {"ref": "1516", "@spider": "hyvee", "addr:full": "9409 Zane Ave N", "addr:city": "Brooklyn Park", "addr:state": "MN", "addr:postcode": "55443", "name": "Brooklyn Park Hy-Vee", "phone": " 763-488-4500", "website": "https://www.hy-vee.com/stores/detail.aspx?s=1516", "opening_hours": "24/7", "brand": "Hyvee"}, "geometry": {"type": "Point", "coordinates": [-93.3585, 45.126]}},
{"type": "Feature", "id": "9uyodlsrpQ-xQn6O15sqxeK9YGE=", "properties": {"ref": "104", "@spider": "hyvee", "addr:full": "201 West Tenth Avenue", "addr:city": "Milan", "addr:state": "IL", "addr:postcode": "61264", "name": "Milan Hy-Vee", "phone": " 309-787-0273", "website": "https://www.hy-vee.com/stores/detail.aspx?s=104", "opening_hours": "24/7", "brand": "Hyvee"}, "geometry": {"type": "Point", "coordinates": [-90.5694, 41.4439]}},
{"type": "Feature", "id": "jyFC4wMq602mc1Lo_C3QItkI8OI=", "properties": {"ref": "1451", "@spider": "hyvee", "addr:full": "1403 N Veterans Pkwy", "addr:city": "Bloomington", "addr:state": "IL", "addr:postcode": "61704", "name": "Bloomington Hy-Vee", "phone": " 309-663-3050", "website": "https://www.hy-vee.com/stores/detail.aspx?s=1451", "opening_hours": "24/7", "brand": "Hyvee"}, "geometry": {"type": "Point", "coordinates": [-88.9499, 40.4977]}},
{"type": "Feature", "id": "upiEFJx8Y5CQO5w38Xqg-awHxyo=", "properties": {"ref": "863", "@spider": "hyvee", "addr:full": "1075 Broadway Street", "addr:city": "Hamilton", "addr:state": "IL", "addr:postcode": "62341", "name": "Hamilton Hy-Vee Clinic Pharmacy", "phone": " 217-847-2214", "website": "https://www.hy-vee.com/stores/detail.aspx?s=863", "opening_hours": "24/7", "brand": "Hyvee"}, "geometry": {"type": "Point", "coordinates": [-91.345, 40.3932]}},
{"type": "Feature", "id": "5MXxbXVFifdPdGdf1xmwiEjUDXI=", "properties": {"ref": "63", "@spider": "hyvee", "addr:full": "2030 East Main Street", "addr:city": "Galesburg", "addr:state": "IL", "addr:postcode": "61401", "name": "Galesburg #2 Hy-Vee (East Main)", "phone": " 309-342-1615", "website": "https://www.hy-vee.com/stores/detail.aspx?s=63", "opening_hours": "24/7", "brand": "Hyvee"}, "geometry": {"type": "Point", "coordinates": [-90.3399, 40.9474]}},
{"type": "Feature", "id": "AvXAmxmD_HEMkyUn30GxT6M1GYI=", "properties": {"ref": "182", "@spider": "hyvee", "addr:full": "192 - 10th Street", "addr:city": "Windom", "addr:state": "MN", "addr:postcode": "56101", "name": "Windom Hy-Vee", "phone": " 507-831-2786", "website": "https://www.hy-vee.com/stores/detail.aspx?s=182", "opening_hours": "24/7", "brand": "Hyvee"}, "geometry": {"type": "Point", "coordinates": [-95.1145, 43.8671]}},
{"type": "Feature", "id": "QeUmOJvxxuejl6QDDqrRcp4RoRQ=", "properties": {"ref": "2520", "@spider": "hyvee", "addr:full": "3950 Prairie Fire NW", "addr:city": "Altoona", "addr:state": "IA", "addr:postcode": "50009", "name": "Altoona Fast & Fresh Hy-Vee", "phone": " 515-967-7575", "website": "https://www.hy-vee.com/stores/detail.aspx?s=2520", "opening_hours": "24/7", "brand": "Hyvee"}, "geometry": {"type": "Point", "coordinates": [-93.5075, 41.6517]}},
{"type": "Feature", "id": "C5ZVsRx0h_wuYx4g1RmLFmwT15U=", "properties": {"ref": "185", "@spider": "hyvee", "addr:full": "2100 Broadway Avenue", "addr:city": "Yankton", "addr:state": "SD", "addr:postcode": "57078", "name": "Yankton Hy-Vee", "phone": " 605-665-3412", "website": "https://www.hy-vee.com/stores/detail.aspx?s=185", "opening_hours": "24/7", "brand": "Hyvee"}, "geometry": {"type": "Point", "coordinates": [-97.3966, 42.8908]}},
{"type": "Feature", "id": "4l3ujDxJLkWhyphWmMu4biEqpYQ=", "properties": {"ref": "1649", "@spider": "hyvee", "addr:full": "311 West Rainbow Drive", "addr:city": "West Liberty", "addr:state": "IA", "addr:postcode": "52776", "name": "West Liberty Hy-Vee Drugstore", "phone": " 319-627-4317", "website": "https://www.hy-vee.com/stores/detail.aspx?s=1649", "opening_hours": "24/7", "brand": "Hyvee"}, "geometry": {"type": "Point", "coordinates": [-91.2696, 41.583]}},
{"type": "Feature", "id": "B9Ir-1BS8hX1KF4j4gMPjKxYpLk=", "properties": {"ref": "2920", "@spider": "hyvee", "addr:full": "819 11th Ave. SW", "addr:city": "Waukon", "addr:state": "IA", "addr:postcode": "52172", "name": "Waukon Dollar Fresh Hy-Vee", "phone": " 563-568-5100", "website": "https://www.hy-vee.com/stores/detail.aspx?s=2920", "opening_hours": "24/7", "brand": "Hyvee"}, "geometry": {"type": "Point", "coordinates": [-91.487, 43.2576]}},
{"type": "Feature", "id": "vfjHRT1z-jwJLl46ai5wUqXsV9s=", "properties": {"ref": "236", "@spider": "hyvee", "addr:full": "555 S 51st St", "addr:city": "West Des Moines", "addr:state": "IA", "addr:postcode": "50265", "name": "West Des Moines #4 Hy-Vee (Mills Civic)", "phone": " 515-225-1193", "website": "https://www.hy-vee.com/stores/detail.aspx?s=236", "opening_hours": "24/7", "brand": "Hyvee"}, "geometry": {"type": "Point", "coordinates": [-93.7743, 41.5598]}},
{"type": "Feature", "id": "Gqir2PaX9TJCXPntMaIBaOA5xi8=", "properties": {"ref": "3771", "@spider": "hyvee", "addr:full": "220 East Nobes Road", "addr:city": "York", "addr:state": "NE", "addr:postcode": "68467", "name": "York Dollar Fresh Hy-Vee", "phone": " 402-745-6414", "website": "https://www.hy-vee.com/stores/detail.aspx?s=3771", "opening_hours": "24/7", "brand": "Hyvee"}, "geometry": {"type": "Point", "coordinates": [-97.5911, 40.8566]}},
{"type": "Feature", "id": "8M5XPEV8aK27P1SLRp0GxH1azHA=", "properties": {"ref": "2038", "@spider": "hyvee", "addr:full": "500 Plaza Drive", "addr:city": "West Point", "addr:state": "NE", "addr:postcode": "68788", "name": "West Point Dollar Fresh Hy-Vee", "phone": " 402-372-0186", "website": "https://www.hy-vee.com/stores/detail.aspx?s=2038", "opening_hours": "24/7", "brand": "Hyvee"}, "geometry": {"type": "Point", "coordinates": [-96.7084, 41.8579]}},
{"type": "Feature", "id": "ieCept2nGQFXOYTqCrQBlz9XHIk=", "properties": {"ref": "183", "@spider": "hyvee", "addr:full": "7101 University Avenue", "addr:city": "Windsor Heights", "addr:state": "IA", "addr:postcode": "50324", "name": "Windsor Heights Hy-Vee", "phone": " 515-279-4225", "website": "https://www.hy-vee.com/stores/detail.aspx?s=183", "opening_hours": "24/7", "brand": "Hyvee"}, "geometry": {"type": "Point", "coordinates": [-93.7151, 41.6004]}},
{"type": "Feature", "id": "qBE0I5_3qiC8L-5DIkYvqXeWX58=", "properties": {"ref": "2964", "@spider": "hyvee", "addr:full": "425 S. Jordan Creek Pkwy", "addr:city": "West Des Moines", "addr:state": "IA", "addr:postcode": "50266", "name": "West Des Moines Fast & Fresh Hy-Vee", "phone": " 515-695-3091", "website": "https://www.hy-vee.com/stores/detail.aspx?s=2964", "opening_hours": "24/7", "brand": "Hyvee"}, "geometry": {"type": "Point", "coordinates": [-93.8095, 41.5631]}},
{"type": "Feature", "id": "eypz2Ijydl6Asy8P2H7WFdFga5c=", "properties": {"ref": "1199", "@spider": "hyvee", "addr:full": "1005 E. Hickman Road", "addr:city": "Waukee", "addr:state": "IA", "addr:postcode": "50263", "name": "Waukee Hy-Vee", "phone": " 515-216-2760", "website": "https://www.hy-vee.com/stores/detail.aspx?s=1199", "opening_hours": "24/7", "brand": "Hyvee"}, "geometry": {"type": "Point", "coordinates": [-93.8542, 41.6167]}},
{"type": "Feature", "id": "6owSavIxWN511KWRbTKuR6LJ7xI=", "properties": {"ref": "181", "@spider": "hyvee", "addr:full": "1725 Jordan Creek Pkwy", "addr:city": "West Des Moines", "addr:state": "IA", "addr:postcode": "50266", "name": "West Des Moines #3 Hy-Vee (West Lakes)", "phone": " 515-226-8753", "website": "https://www.hy-vee.com/stores/detail.aspx?s=181", "opening_hours": "24/7", "brand": "Hyvee"}, "geometry": {"type": "Point", "coordinates": [-93.8088, 41.5991]}},
{"type": "Feature", "id": "dqvs1tc2TgkLPkgTd5_19766RqU=", "properties": {"ref": "178", "@spider": "hyvee", "addr:full": "823 Second Street", "addr:city": "Webster City", "addr:state": "IA", "addr:postcode": "50595", "name": "Webster City Hy-Vee", "phone": " 515-832-3117", "website": "https://www.hy-vee.com/stores/detail.aspx?s=178", "opening_hours": "24/7", "brand": "Hyvee"}, "geometry": {"type": "Point", "coordinates": [-93.8246, 42.4695]}},
{"type": "Feature", "id": "7AweH0e8zHh1aBjNNwM5kDH4M5c=", "properties": {"ref": "180", "@spider": "hyvee", "addr:full": "1990 Grand Avenue", "addr:city": "West Des Moines", "addr:state": "IA", "addr:postcode": "50265", "name": "West Des Moines #2 Hy-Vee (Grand Ave)", "phone": " 515-223-8151", "website": "https://www.hy-vee.com/stores/detail.aspx?s=180", "opening_hours": "24/7", "brand": "Hyvee"}, "geometry": {"type": "Point", "coordinates": [-93.7293, 41.571]}},
{"type": "Feature", "id": "62gQgd7nZsiILzr-JDScwl2qx0M=", "properties": {"ref": "222", "@spider": "hyvee", "addr:full": "1010 60th Street", "addr:city": "West Des Moines", "addr:state": "IA", "addr:postcode": "50266", "name": "West Des Moines Hy-Vee Drugstore", "phone": " 515-440-1481", "website": "https://www.hy-vee.com/stores/detail.aspx?s=222", "opening_hours": "24/7", "brand": "Hyvee"}, "geometry": {"type": "Point", "coordinates": [-93.7906, 41.5845]}},
{"type": "Feature", "id": "eyqzTzNP40mChDAGfZ-YkXbcqEQ=", "properties": {"ref": "179", "@spider": "hyvee", "addr:full": "1700 Valley West Drive", "addr:city": "West Des Moines", "addr:state": "IA", "addr:postcode": "50266", "name": "West Des Moines #1 Hy-Vee (Valley West)", "phone": " 515-223-4597", "website": "https://www.hy-vee.com/stores/detail.aspx?s=179", "opening_hours": "24/7", "brand": "Hyvee"}, "geometry": {"type": "Point", "coordinates": [-93.7522, 41.597]}},
{"type": "Feature", "id": "BKFgQYb-wcQTLBO0HisMLafo2Ek=", "properties": {"ref": "107", "@spider": "hyvee", "addr:full": "1600 East Jackson Street", "addr:city": "Macomb", "addr:state": "IL", "addr:postcode": "61455", "name": "Macomb Hy-Vee", "phone": " 309-837-9917", "website": "https://www.hy-vee.com/stores/detail.aspx?s=107", "opening_hours": "24/7", "brand": "Hyvee"}, "geometry": {"type": "Point", "coordinates": [-90.6482, 40.4587]}},
{"type": "Feature", "id": "skVLZegQvpdq7YBGqGwaRysV6es=", "properties": {"ref": "177", "@spider": "hyvee", "addr:full": "1311 4th Street SW", "addr:city": "Waverly", "addr:state": "IA", "addr:postcode": "50677", "name": "Waverly Hy-Vee (Village Square Shopping Center)", "phone": " 319-352-1365", "website": "https://www.hy-vee.com/stores/detail.aspx?s=177", "opening_hours": "24/7", "brand": "Hyvee"}, "geometry": {"type": "Point", "coordinates": [-92.4761, 42.7138]}},
{"type": "Feature", "id": "Gz0oSzeECkJSAw_DMp1mpM2axxQ=", "properties": {"ref": "1495", "@spider": "hyvee", "addr:full": "923 N. 1st Street", "addr:city": "Winterset", "addr:state": "IA", "addr:postcode": "50273", "name": "Winterset Hy-Vee", "phone": " 515-462-4051", "website": "https://www.hy-vee.com/stores/detail.aspx?s=1495", "opening_hours": "24/7", "brand": "Hyvee"}, "geometry": {"type": "Point", "coordinates": [-94.0124, 41.3425]}},
{"type": "Feature", "id": "2YbVI2G7y_Ai5dr20Vx8jc7wEL0=", "properties": {"ref": "172", "@spider": "hyvee", "addr:full": "2834 Ansborough Avenue", "addr:city": "Waterloo", "addr:state": "IA", "addr:postcode": "50701", "name": "Waterloo #1 Hy-Vee (Ansborough Avenue)", "phone": " 319-233-3266", "website": "https://www.hy-vee.com/stores/detail.aspx?s=172", "opening_hours": "24/7", "brand": "Hyvee"}, "geometry": {"type": "Point", "coordinates": [-92.3767, 42.4726]}},
{"type": "Feature", "id": "EmyCxm_rLbn-8Pb_wXz8t1SZN6I=", "properties": {"ref": "173", "@spider": "hyvee", "addr:full": "2181 Logan Avenue", "addr:city": "Waterloo", "addr:state": "IA", "addr:postcode": "50703", "name": "Waterloo #2 Hy-Vee (Logan)", "phone": " 319-234-8627", "website": "https://www.hy-vee.com/stores/detail.aspx?s=173", "opening_hours": "24/7", "brand": "Hyvee"}, "geometry": {"type": "Point", "coordinates": [-92.3378, 42.5301]}},
{"type": "Feature", "id": "SW31qMF10AVL0ZQOkGwmX0I415Q=", "properties": {"ref": "221", "@spider": "hyvee", "addr:full": "1475 W Service Dr", "addr:city": "Winona", "addr:state": "MN", "addr:postcode": "55987", "name": "Winona Hy-Vee", "phone": " 507-452-5411", "website": "https://www.hy-vee.com/stores/detail.aspx?s=221", "opening_hours": "24/7", "brand": "Hyvee"}, "geometry": {"type": "Point", "coordinates": [-91.6762, 44.0469]}},
{"type": "Feature", "id": "t7NnkcjZsMDaEjNe2Hkb5_pbM_4=", "properties": {"ref": "4", "@spider": "hyvee", "addr:full": "108 8th Street SW", "addr:city": "Altoona", "addr:state": "IA", "addr:postcode": "50009", "name": "Altoona Hy-Vee", "phone": " 515-967-7676", "website": "https://www.hy-vee.com/stores/detail.aspx?s=4", "opening_hours": "24/7", "brand": "Hyvee"}, "geometry": {"type": "Point", "coordinates": [-93.4648, 41.6438]}},
{"type": "Feature", "id": "fcG5FA8HlXrgNmpPEkV4Jamj8ac=", "properties": {"ref": "169", "@spider": "hyvee", "addr:full": "525 West Cherry Street", "addr:city": "Vermillion", "addr:state": "SD", "addr:postcode": "57069", "name": "Vermillion Hy-Vee", "phone": " 605-624-5574", "website": "https://www.hy-vee.com/stores/detail.aspx?s=169", "opening_hours": "24/7", "brand": "Hyvee"}, "geometry": {"type": "Point", "coordinates": [-96.9396, 42.7869]}},
{"type": "Feature", "id": "gbBPa1Xv0Zh6HaJMY-meNB3nQwo=", "properties": {"ref": "3584", "@spider": "hyvee", "addr:full": "410 E. Young Avenue", "addr:city": "Warrensburg", "addr:state": "MO", "addr:postcode": "64093", "name": "Warrensburg Hy-Vee", "phone": " 660-429-1188", "website": "https://www.hy-vee.com/stores/detail.aspx?s=3584", "opening_hours": "24/7", "brand": "Hyvee"}, "geometry": {"type": "Point", "coordinates": [-93.7306, 38.7703]}},
{"type": "Feature", "id": "8fIfLyrG65cqM38ckIAueWjZeQQ=", "properties": {"ref": "174", "@spider": "hyvee", "addr:full": "1422 Flammang Drive", "addr:city": "Waterloo", "addr:state": "IA", "addr:postcode": "50702", "name": "Waterloo #3 Hy-Vee (Crossroads)", "phone": " 319-234-7523", "website": "https://www.hy-vee.com/stores/detail.aspx?s=174", "opening_hours": "24/7", "brand": "Hyvee"}, "geometry": {"type": "Point", "coordinates": [-92.3283, 42.4606]}},
{"type": "Feature", "id": "1aqUEXeY1OBZ90PmR0AZhar_pUg=", "properties": {"ref": "2755", "@spider": "hyvee", "addr:full": "911 South K Avenue", "addr:city": "Vinton", "addr:state": "IA", "addr:postcode": "52349", "name": "Vinton Dollar Fresh Hy-Vee", "phone": " 319-318-5204", "website": "https://www.hy-vee.com/stores/detail.aspx?s=2755", "opening_hours": "24/7", "brand": "Hyvee"}, "geometry": {"type": "Point", "coordinates": [-92.0385, 42.1621]}},
{"type": "Feature", "id": "m6kY8tYuThEC4PQ8RqFxgwNA_Cc=", "properties": {"ref": "184", "@spider": "hyvee", "addr:full": "1235 Oxford Street", "addr:city": "Worthington", "addr:state": "MN", "addr:postcode": "56187", "name": "Worthington Hy-Vee", "phone": " 507-372-7354", "website": "https://www.hy-vee.com/stores/detail.aspx?s=184", "opening_hours": "24/7", "brand": "Hyvee"}, "geometry": {"type": "Point", "coordinates": [-95.5967, 43.6317]}},
{"type": "Feature", "id": "qpWsZDCVMD-DXVl4x3Gv85k8CW4=", "properties": {"ref": "508", "@spider": "hyvee", "addr:full": "2951 SW Wanamaker Road", "addr:city": "Topeka", "addr:state": "KS", "addr:postcode": "66614", "name": "Topeka Hy-Vee", "phone": " 785-272-1763", "website": "https://www.hy-vee.com/stores/detail.aspx?s=508", "opening_hours": "24/7", "brand": "Hyvee"}, "geometry": {"type": "Point", "coordinates": [-95.7621, 39.0144]}},
{"type": "Feature", "id": "UzQu_l2zP0C71vg-E7tjATxOvds=", "properties": {"ref": "176", "@spider": "hyvee", "addr:full": "1320 9th Avenue SE", "addr:city": "Watertown", "addr:state": "SD", "addr:postcode": "57201", "name": "Watertown Hy-Vee", "phone": " 605-882-3311", "website": "https://www.hy-vee.com/stores/detail.aspx?s=176", "opening_hours": "24/7", "brand": "Hyvee"}, "geometry": {"type": "Point", "coordinates": [-97.0947, 44.8899]}},
{"type": "Feature", "id": "PfTEYS4_91MaUp2MqQO4kXM6Pi0=", "properties": {"ref": "1648", "@spider": "hyvee", "addr:full": "205 Washington St.", "addr:city": "Victor", "addr:state": "IA", "addr:postcode": "52347", "name": "Victor Clinic Pharmacy Hy-Vee", "phone": " 319-647-8292", "website": "https://www.hy-vee.com/stores/detail.aspx?s=1648", "opening_hours": "24/7", "brand": "Hyvee"}, "geometry": {"type": "Point", "coordinates": [-92.2981, 41.7315]}},
{"type": "Feature", "id": "pAwyqGkHfTFNZ3Rb3b1zP9vwySM=", "properties": {"ref": "168", "@spider": "hyvee", "addr:full": "8701 Douglas Avenue", "addr:city": "Urbandale", "addr:state": "IA", "addr:postcode": "50322", "name": "Urbandale Hy-Vee", "phone": " 515-270-2572", "website": "https://www.hy-vee.com/stores/detail.aspx?s=168", "opening_hours": "24/7", "brand": "Hyvee"}, "geometry": {"type": "Point", "coordinates": [-93.7369, 41.6294]}},
{"type": "Feature", "id": "jQYiKSffuOmlF_aix8UwE1b-Hr4=", "properties": {"ref": "3883", "@spider": "hyvee", "addr:full": "107 N. Locust", "addr:city": "Winfield", "addr:state": "IA", "addr:postcode": "52659", "name": "Winfield Clinic Pharmacy Hy-Vee", "phone": " 319-549-7126", "website": "https://www.hy-vee.com/stores/detail.aspx?s=3883", "opening_hours": "24/7", "brand": "Hyvee"}, "geometry": {"type": "Point", "coordinates": [-91.4382, 41.1289]}},
{"type": "Feature", "id": "u0X3DQp1itiaA4xF-Y8NGhpVepI=", "properties": {"ref": "166", "@spider": "hyvee", "addr:full": "1617 East 9th Street", "addr:city": "Trenton", "addr:state": "MO", "addr:postcode": "64683", "name": "Trenton Hy-Vee", "phone": " 660-359-2278", "website": "https://www.hy-vee.com/stores/detail.aspx?s=166", "opening_hours": "24/7", "brand": "Hyvee"}, "geometry": {"type": "Point", "coordinates": [-93.6015, 40.0745]}},
{"type": "Feature", "id": "xg2lo4o3KZfeWk4NoqfBZD1KhPI=", "properties": {"ref": "2036", "@spider": "hyvee", "addr:full": "1006 S. County Road", "addr:city": "Toledo", "addr:state": "IA", "addr:postcode": "52342", "name": "Toledo Dollar Fresh Hy-Vee", "phone": " 641-484-2168", "website": "https://www.hy-vee.com/stores/detail.aspx?s=2036", "opening_hours": "24/7", "brand": "Hyvee"}, "geometry": {"type": "Point", "coordinates": [-92.5854, 41.9851]}},
{"type": "Feature", "id": "ROvpEAikgeamfLTPjSzvoktHUw8=", "properties": {"ref": "171", "@spider": "hyvee", "addr:full": "528 South Highway 1", "addr:city": "Washington", "addr:state": "IA", "addr:postcode": "52353", "name": "Washington Hy-Vee", "phone": " 319-653-5406", "website": "https://www.hy-vee.com/stores/detail.aspx?s=171", "opening_hours": "24/7", "brand": "Hyvee"}, "geometry": {"type": "Point", "coordinates": [-91.7078, 41.2959]}},
{"type": "Feature", "id": "kaBkE1wsU-f02xEzQi49APRdMC4=", "properties": {"ref": "525", "@spider": "hyvee", "addr:full": "409 W. 5th Street", "addr:city": "Storm Lake", "addr:state": "IA", "addr:postcode": "50588", "name": "Storm Lake Hy-Vee Bedel Clinic Pharmacy", "phone": " 712-732-4819", "website": "https://www.hy-vee.com/stores/detail.aspx?s=525", "opening_hours": "24/7", "brand": "Hyvee"}, "geometry": {"type": "Point", "coordinates": [-95.2061, 42.6446]}},
{"type": "Feature", "id": "-VbgohvZyTLu-FkxkKgAbS7VqCw=", "properties": {"ref": "165", "@spider": "hyvee", "addr:full": "110 Chestnut Street", "addr:city": "Tarkio", "addr:state": "MO", "addr:postcode": "64491", "name": "Tarkio Hy-Vee", "phone": " 660-736-4181", "website": "https://www.hy-vee.com/stores/detail.aspx?s=165", "opening_hours": "24/7", "brand": "Hyvee"}, "geometry": {"type": "Point", "coordinates": [-95.3759, 40.4389]}},
{"type": "Feature", "id": "aTZBE9vCadctHLx7nKuoCf8MNFU=", "properties": {"ref": "163", "@spider": "hyvee", "addr:full": "1250 Lake Avenue", "addr:city": "Storm Lake", "addr:state": "IA", "addr:postcode": "50588", "name": "Storm Lake Hy-Vee", "phone": " 712-732-5628", "website": "https://www.hy-vee.com/stores/detail.aspx?s=163", "opening_hours": "24/7", "brand": "Hyvee"}, "geometry": {"type": "Point", "coordinates": [-95.2009, 42.6526]}},
{"type": "Feature", "id": "qL0TM54D85HZ8oe0BDXCkmHd48c=", "properties": {"ref": "2056", "@spider": "hyvee", "addr:full": "220 Center Town Plaza N", "addr:city": "Stewartville", "addr:state": "MN", "addr:postcode": "55976", "name": "Stewartville Hy-Vee HealthMarket Rx", "phone": " 507-533-4245", "website": "https://www.hy-vee.com/stores/detail.aspx?s=2056", "opening_hours": "24/7", "brand": "Hyvee"}, "geometry": {"type": "Point", "coordinates": [-92.4895, 43.8564]}},
{"type": "Feature", "id": "ocSa5JfcW0u1SlET6iHpwmxqSfg=", "properties": {"ref": "1018", "@spider": "hyvee", "addr:full": "1720 W Battlefield Rd", "addr:city": "Springfield", "addr:state": "MO", "addr:postcode": "65807", "name": "Springfield Hy-Vee", "phone": " (417) 881-1950", "website": "https://www.hy-vee.com/stores/detail.aspx?s=1018", "opening_hours": "24/7", "brand": "Hyvee"}, "geometry": {"type": "Point", "coordinates": [-93.3152, 37.1591]}},
{"type": "Feature", "id": "1XW-nB_E-7Ctd0VKP6ktgLeHql8=", "properties": {"ref": "167", "@spider": "hyvee", "addr:full": "2525 Main St", "addr:city": "Unionville", "addr:state": "MO", "addr:postcode": "63565", "name": "Unionville Hy-Vee Mainstreet", "phone": " 660-947-2427", "website": "https://www.hy-vee.com/stores/detail.aspx?s=167", "opening_hours": "24/7", "brand": "Hyvee"}, "geometry": {"type": "Point", "coordinates": [-93.0137, 40.4766]}},
{"type": "Feature", "id": "9uSeQpp5FzNod9SmyubDzdT9JKY=", "properties": {"ref": "2054", "@spider": "hyvee", "addr:full": "401 West 4th Street", "addr:city": "St. Charles", "addr:state": "MN", "addr:postcode": "55972", "name": "St. Charles Hy-Vee HealthMarket Rx", "phone": " 507-932-3160", "website": "https://www.hy-vee.com/stores/detail.aspx?s=2054", "opening_hours": "24/7", "brand": "Hyvee"}, "geometry": {"type": "Point", "coordinates": [-92.0723, 43.9745]}},
{"type": "Feature", "id": "LAkk4uwv6sJziAbUeNOjwle6sRY=", "properties": {"ref": "1438", "@spider": "hyvee", "addr:full": "2115 S. MacArthur Boulevard", "addr:city": "Springfield", "addr:state": "IL", "addr:postcode": "62704", "name": "Springfield Hy-Vee", "phone": " 217-726-1001", "website": "https://www.hy-vee.com/stores/detail.aspx?s=1438", "opening_hours": "24/7", "brand": "Hyvee"}, "geometry": {"type": "Point", "coordinates": [-89.6699, 39.7753]}},
{"type": "Feature", "id": "sCsHVDS6FS6_XtT_S7dXPSIp5tM=", "properties": {"ref": "2055", "@spider": "hyvee", "addr:full": "802 Memorial Dr. Suite 100", "addr:city": "Spring Valley", "addr:state": "MN", "addr:postcode": "55975", "name": "Spring Valley Hy-Vee HealthMarket Rx", "phone": " 507-346-7273", "website": "https://www.hy-vee.com/stores/detail.aspx?s=2055", "opening_hours": "24/7", "brand": "Hyvee"}, "geometry": {"type": "Point", "coordinates": [-92.3956, 43.6978]}},
{"type": "Feature", "id": "q9Dt_H-SZiwhkl3t5sgUJ2w2m1Y=", "properties": {"ref": "978", "@spider": "hyvee", "addr:full": "2700 DeKalb Avenue", "addr:city": "Sycamore", "addr:state": "IL", "addr:postcode": "60178", "name": "Sycamore Hy-Vee", "phone": " 815-756-6174", "website": "https://www.hy-vee.com/stores/detail.aspx?s=978", "opening_hours": "24/7", "brand": "Hyvee"}, "geometry": {"type": "Point", "coordinates": [-88.7189, 41.9587]}},
{"type": "Feature", "id": "PNR2Je7aPw47fLheIcZbWkrqtxQ=", "properties": {"ref": "3612", "@spider": "hyvee", "addr:full": "8155 Highway 65 NE", "addr:city": "Spring Lake Park", "addr:state": "MN", "addr:postcode": "55432", "name": "Spring Lake Park Hy-Vee", "phone": " 763-792-8440", "website": "https://www.hy-vee.com/stores/detail.aspx?s=3612", "opening_hours": "24/7", "brand": "Hyvee"}, "geometry": {"type": "Point", "coordinates": [-93.239, 45.1165]}},
{"type": "Feature", "id": "fNkur27DBvD9O4wX9hkPbbjT7CE=", "properties": {"ref": "164", "@spider": "hyvee", "addr:full": "819 Grand Ave", "addr:city": "Spencer", "addr:state": "IA", "addr:postcode": "51301", "name": "Spencer Hy-Vee", "phone": " 712-262-2443", "website": "https://www.hy-vee.com/stores/detail.aspx?s=164", "opening_hours": "24/7", "brand": "Hyvee"}, "geometry": {"type": "Point", "coordinates": [-95.1465, 43.1461]}},
{"type": "Feature", "id": "HJLTyY-pwkuUI55vhnafhyW8dok=", "properties": {"ref": "159", "@spider": "hyvee", "addr:full": "1500 18th Street", "addr:city": "Spirit Lake", "addr:state": "IA", "addr:postcode": "51360", "name": "Spirit Lake Hy-Vee", "phone": " 712-336-4900", "website": "https://www.hy-vee.com/stores/detail.aspx?s=159", "opening_hours": "24/7", "brand": "Hyvee"}, "geometry": {"type": "Point", "coordinates": [-95.1133, 43.4228]}},
{"type": "Feature", "id": "-bifatY8vbT4vocY3i8klq8cv7Y=", "properties": {"ref": "152", "@spider": "hyvee", "addr:full": "4500 Sergeant Road", "addr:city": "Sioux City", "addr:state": "IA", "addr:postcode": "51106", "name": "Sioux City #2 Hy-Vee (Southern Hills Mall)", "phone": " 712-274-1036", "website": "https://www.hy-vee.com/stores/detail.aspx?s=152", "opening_hours": "24/7", "brand": "Hyvee"}, "geometry": {"type": "Point", "coordinates": [-96.3475, 42.4476]}},
{"type": "Feature", "id": "z1Usf6gkGGUkP3u3W0CWG0rCiBc=", "properties": {"ref": "157", "@spider": "hyvee", "addr:full": "1951 South Main Avenue", "addr:city": "Sioux Center", "addr:state": "IA", "addr:postcode": "51250", "name": "Sioux Center Hy-Vee", "phone": " 712-722-2601", "website": "https://www.hy-vee.com/stores/detail.aspx?s=157", "opening_hours": "24/7", "brand": "Hyvee"}, "geometry": {"type": "Point", "coordinates": [-96.1754, 43.0562]}},
{"type": "Feature", "id": "fz4cuWCMmFtOmO9LbFFshAab9bY=", "properties": {"ref": "153", "@spider": "hyvee", "addr:full": "3301 Gordon Drive", "addr:city": "Sioux City", "addr:state": "IA", "addr:postcode": "51105", "name": "Sioux City #3 Hy-Vee (Gordon Plaza)", "phone": " 712-234-1960", "website": "https://www.hy-vee.com/stores/detail.aspx?s=153", "opening_hours": "24/7", "brand": "Hyvee"}, "geometry": {"type": "Point", "coordinates": [-96.3689, 42.4892]}},
{"type": "Feature", "id": "829vxD053eyA2IglzZf_Uc4m7CM=", "properties": {"ref": "224", "@spider": "hyvee", "addr:full": "201 North Belt Highway", "addr:city": "St. Joseph", "addr:state": "MO", "addr:postcode": "64506", "name": "St. Joseph Hy-Vee", "phone": " 816-232-9750", "website": "https://www.hy-vee.com/stores/detail.aspx?s=224", "opening_hours": "24/7", "brand": "Hyvee"}, "geometry": {"type": "Point", "coordinates": [-94.8032, 39.7675]}},
{"type": "Feature", "id": "_YJkmV5mjVxikyy9dkDZeFe4OuI=", "properties": {"ref": "156", "@spider": "hyvee", "addr:full": "2501 Cornhusker Drive", "addr:city": "South Sioux City", "addr:state": "NE", "addr:postcode": "68776", "name": "South Sioux City Hy-Vee", "phone": " 402-494-4675", "website": "https://www.hy-vee.com/stores/detail.aspx?s=156", "opening_hours": "24/7", "brand": "Hyvee"}, "geometry": {"type": "Point", "coordinates": [-96.4277, 42.4659]}},
{"type": "Feature", "id": "6J6Mr2ysviqPBI8jpbAmf_hoWQg=", "properties": {"ref": "2037", "@spider": "hyvee", "addr:full": "1002 Old Minnesota Ave", "addr:city": "St. Peter", "addr:state": "MN", "addr:postcode": "56082", "name": "St. Peter Hy-Vee", "phone": " 507-519-1910", "website": "https://www.hy-vee.com/stores/detail.aspx?s=2037", "opening_hours": "24/7", "brand": "Hyvee"}, "geometry": {"type": "Point", "coordinates": [-93.9531, 44.337]}},
{"type": "Feature", "id": "EHdvWHiCO1YugSDhb0EdTY6NW9c=", "properties": {"ref": "161", "@spider": "hyvee", "addr:full": "3000 South Minnesota Avenue", "addr:city": "Sioux Falls", "addr:state": "SD", "addr:postcode": "57105", "name": "Sioux Falls #3 Hy-Vee (South Minnesota)", "phone": " 605-334-7231", "website": "https://www.hy-vee.com/stores/detail.aspx?s=161", "opening_hours": "24/7", "brand": "Hyvee"}, "geometry": {"type": "Point", "coordinates": [-96.7286, 43.5174]}},
{"type": "Feature", "id": "BluITkJImswJ-TaZbs-_RCNJnSw=", "properties": {"ref": "212", "@spider": "hyvee", "addr:full": "2611 Pierce Street", "addr:city": "Sioux City", "addr:state": "IA", "addr:postcode": "51104", "name": "Sioux City Hy-Vee Clinic Pharmacy", "phone": " 712-277-0144", "website": "https://www.hy-vee.com/stores/detail.aspx?s=212", "opening_hours": "24/7", "brand": "Hyvee"}, "geometry": {"type": "Point", "coordinates": [-96.4052, 42.5174]}},
{"type": "Feature", "id": "pa9nG0IxcfIJpyBmevO09aoVRjk=", "properties": {"ref": "147", "@spider": "hyvee", "addr:full": "13550 West 63rd Street", "addr:city": "Shawnee", "addr:state": "KS", "addr:postcode": "66216", "name": "Shawnee Hy-Vee", "phone": " 913-962-2252", "website": "https://www.hy-vee.com/stores/detail.aspx?s=147", "opening_hours": "24/7", "brand": "Hyvee"}, "geometry": {"type": "Point", "coordinates": [-94.7432, 39.0148]}},
{"type": "Feature", "id": "HrhzwSI82_t5Wp7y6AlAL4c68Lo=", "properties": {"ref": "160", "@spider": "hyvee", "addr:full": "4101 South Louise Avenue", "addr:city": "Sioux Falls", "addr:state": "SD", "addr:postcode": "57106", "name": "Sioux Falls #2 Hy-Vee (Empire)", "phone": " 605-361-0313", "website": "https://www.hy-vee.com/stores/detail.aspx?s=160", "opening_hours": "24/7", "brand": "Hyvee"}, "geometry": {"type": "Point", "coordinates": [-96.7712, 43.5085]}},
{"type": "Feature", "id": "NofqclUVnfOS84xoNeJcIa5nst0=", "properties": {"ref": "215", "@spider": "hyvee", "addr:full": "3020 East 10th Street", "addr:city": "Sioux Falls", "addr:state": "SD", "addr:postcode": "57103", "name": "Sioux Falls #5 Hy-Vee (East 10th)", "phone": " 605-336-8947", "website": "https://www.hy-vee.com/stores/detail.aspx?s=215", "opening_hours": "24/7", "brand": "Hyvee"}, "geometry": {"type": "Point", "coordinates": [-96.6886, 43.5468]}},
{"type": "Feature", "id": "jv2gggklBLOXv30AMQk5V8KCAuo=", "properties": {"ref": "150", "@spider": "hyvee", "addr:full": "2001 5th Street", "addr:city": "Silvis", "addr:state": "IL", "addr:postcode": "61282", "name": "Silvis Hy-Vee (Twin Oaks)", "phone": " 309-792-1507", "website": "https://www.hy-vee.com/stores/detail.aspx?s=150", "opening_hours": "24/7", "brand": "Hyvee"}, "geometry": {"type": "Point", "coordinates": [-90.4216, 41.4897]}},
{"type": "Feature", "id": "9c3jDzuGE1IfsDyqnL9a0BE1K34=", "properties": {"ref": "158", "@spider": "hyvee", "addr:full": "1601 South Sycamore Avenue", "addr:city": "Sioux Falls", "addr:state": "SD", "addr:postcode": "57110", "name": "Sioux Falls #1 Hy-Vee (South Sycamore)", "phone": " 605-334-4570", "website": "https://www.hy-vee.com/stores/detail.aspx?s=158", "opening_hours": "24/7", "brand": "Hyvee"}, "geometry": {"type": "Point", "coordinates": [-96.6716, 43.5317]}},
{"type": "Feature", "id": "mB0IujI-zAfeDq_QhLCrGqgeOrQ=", "properties": {"ref": "162", "@spider": "hyvee", "addr:full": "1900 South Marion Road", "addr:city": "Sioux Falls", "addr:state": "SD", "addr:postcode": "57106", "name": "Sioux Falls #4 Hy-Vee (Marion Road)", "phone": " 605-361-3442", "website": "https://www.hy-vee.com/stores/detail.aspx?s=162", "opening_hours": "24/7", "brand": "Hyvee"}, "geometry": {"type": "Point", "coordinates": [-96.7908, 43.5295]}},
{"type": "Feature", "id": "TtXU-dD0Y1tL80jB35Sfn-DjgAY=", "properties": {"ref": "232", "@spider": "hyvee", "addr:full": "312 North 2nd Street", "addr:city": "Wapello", "addr:state": "IA", "addr:postcode": "52653", "name": "Wapello Clinic Pharmacy Hy-Vee", "phone": " 319-523-3784", "website": "https://www.hy-vee.com/stores/detail.aspx?s=232", "opening_hours": "24/7", "brand": "Hyvee"}, "geometry": {"type": "Point", "coordinates": [-91.1852, 41.1818]}},
{"type": "Feature", "id": "8nQvQ0cp-RrCRi6U74Y-ENj9k8k=", "properties": {"ref": "916", "@spider": "hyvee", "addr:full": "2700 West 10th Street", "addr:city": "Sioux Falls", "addr:state": "SD", "addr:postcode": "57104", "name": "Sioux Falls #7 Hy-Vee (Kiwanis Avenue)", "phone": " 605-334-3321", "website": "https://www.hy-vee.com/stores/detail.aspx?s=916", "opening_hours": "24/7", "brand": "Hyvee"}, "geometry": {"type": "Point", "coordinates": [-96.762, 43.5465]}},
{"type": "Feature", "id": "I6W-SlkkcACsTXdrV6TWsH7yCm0=", "properties": {"ref": "859", "@spider": "hyvee", "addr:full": "1231 E. 57th Street", "addr:city": "Sioux Falls", "addr:state": "SD", "addr:postcode": "57108", "name": "Sioux Falls #6 Hy-Vee (At Cliff)", "phone": " 605-271-7171", "website": "https://www.hy-vee.com/stores/detail.aspx?s=859", "opening_hours": "24/7", "brand": "Hyvee"}, "geometry": {"type": "Point", "coordinates": [-96.7084, 43.4991]}},
{"type": "Feature", "id": "KNdfEysA6_UrCy9OrgtiqyGS4Wo=", "properties": {"ref": "3844", "@spider": "hyvee", "addr:full": "725 E. 1st Street", "addr:city": "Tea", "addr:state": "SD", "addr:postcode": "57064", "name": "Tea Dollar Fresh Hy-Vee", "phone": " 605-213-2121", "website": "https://www.hy-vee.com/stores/detail.aspx?s=3844", "opening_hours": "24/7", "brand": "Hyvee"}, "geometry": {"type": "Point", "coordinates": [-96.827, 43.4464]}},
{"type": "Feature", "id": "fMPiik-Yc_aopKrrACBbRLJuV1s=", "properties": {"ref": "151", "@spider": "hyvee", "addr:full": "2827 Hamilton Boulevard", "addr:city": "Sioux City", "addr:state": "IA", "addr:postcode": "51104", "name": "Sioux City #1 Hy-Vee (Hamilton)", "phone": " 712-277-8120", "website": "https://www.hy-vee.com/stores/detail.aspx?s=151", "opening_hours": "24/7", "brand": "Hyvee"}, "geometry": {"type": "Point", "coordinates": [-96.4178, 42.5196]}},
{"type": "Feature", "id": "woYXgJzl6KjlibMM0woUCDu_w3c=", "properties": {"ref": "145", "@spider": "hyvee", "addr:full": "2930 18th Avenue", "addr:city": "Rock Island", "addr:state": "IL", "addr:postcode": "61201", "name": "Rock Island Hy-Vee", "phone": " 309-793-0684", "website": "https://www.hy-vee.com/stores/detail.aspx?s=145", "opening_hours": "24/7", "brand": "Hyvee"}, "geometry": {"type": "Point", "coordinates": [-90.5586, 41.4933]}},
{"type": "Feature", "id": "o76JNrjR_zm9KmwVypsa_XBXAKg=", "properties": {"ref": "1558", "@spider": "hyvee", "addr:full": "6150 Egan Dr.", "addr:city": "Savage", "addr:state": "MN", "addr:postcode": "55378", "name": "Savage Hy-Vee", "phone": " 952-228-2550", "website": "https://www.hy-vee.com/stores/detail.aspx?s=1558", "opening_hours": "24/7", "brand": "Hyvee"}, "geometry": {"type": "Point", "coordinates": [-93.3594, 44.7467]}},
{"type": "Feature", "id": "A6LAyxGSYICYENpaOkFDUzebYcQ=", "properties": {"ref": "138", "@spider": "hyvee", "addr:full": "1400 Harrison Street", "addr:city": "Quincy", "addr:state": "IL", "addr:postcode": "62301", "name": "Quincy #1 Hy-Vee (Harrison Street)", "phone": " 217-224-9442", "website": "https://www.hy-vee.com/stores/detail.aspx?s=138", "opening_hours": "24/7", "brand": "Hyvee"}, "geometry": {"type": "Point", "coordinates": [-91.3949, 39.9134]}},
{"type": "Feature", "id": "P7adHBYfsrk2mtde8ztfusDursY=", "properties": {"ref": "2051", "@spider": "hyvee", "addr:full": "136 Main Street SW", "addr:city": "Preston", "addr:state": "MN", "addr:postcode": "55965", "name": "Preston Hy-Vee HealthMarket Rx", "phone": " 507-765-2156", "website": "https://www.hy-vee.com/stores/detail.aspx?s=2051", "opening_hours": "24/7", "brand": "Hyvee"}, "geometry": {"type": "Point", "coordinates": [-92.085, 43.6693]}},
{"type": "Feature", "id": "fg2JmLGube-5bmkqOcWv5GEjFBg=", "properties": {"ref": "1877", "@spider": "hyvee", "addr:full": "3505 Bottineau Blvd.", "addr:city": "Robbinsdale", "addr:state": "MN", "addr:postcode": "55422", "name": "Robbinsdale Hy-Vee", "phone": " 612-287-7200", "website": "https://www.hy-vee.com/stores/detail.aspx?s=1877", "opening_hours": "24/7", "brand": "Hyvee"}, "geometry": {"type": "Point", "coordinates": [-93.332, 45.0264]}},
{"type": "Feature", "id": "_Z7icUVIrLAc820a1q1oLXrYIo8=", "properties": {"ref": "143", "@spider": "hyvee", "addr:full": "500 Crossroads Drive SW", "addr:city": "Rochester", "addr:state": "MN", "addr:postcode": "55902", "name": "Rochester #1 Hy-Vee (Crossroads Drive)", "phone": " 507-289-7500", "website": "https://www.hy-vee.com/stores/detail.aspx?s=143", "opening_hours": "24/7", "brand": "Hyvee"}, "geometry": {"type": "Point", "coordinates": [-92.4681, 44.0065]}},
{"type": "Feature", "id": "WC9b-KfRKyn6TAeNP3I7lAnVR5U=", "properties": {"ref": "139", "@spider": "hyvee", "addr:full": "3700 Broadway Street", "addr:city": "Quincy", "addr:state": "IL", "addr:postcode": "62305", "name": "Quincy #2 Hy-Vee (Broadway Street)", "phone": " 217-228-1060", "website": "https://www.hy-vee.com/stores/detail.aspx?s=139", "opening_hours": "24/7", "brand": "Hyvee"}, "geometry": {"type": "Point", "coordinates": [-91.3565, 39.9351]}},
{"type": "Feature", "id": "X7gtMJ1qpHcAhkjaVMF1P4-jY7k=", "properties": {"ref": "1171", "@spider": "hyvee", "addr:full": "16418 Westside Drive", "addr:city": "Plattsmouth", "addr:state": "NE", "addr:postcode": "68048", "name": "Plattsmouth Hy-Vee", "phone": " 402-298-7600", "website": "https://www.hy-vee.com/stores/detail.aspx?s=1171", "opening_hours": "24/7", "brand": "Hyvee"}, "geometry": {"type": "Point", "coordinates": [-95.9104, 41.0118]}},
{"type": "Feature", "id": "x-vgPpihm39HuJ7B5NaOdjS69YU=", "properties": {"ref": "136", "@spider": "hyvee", "addr:full": "4815 Maple Drive", "addr:city": "Pleasant Hill", "addr:state": "IA", "addr:postcode": "50327", "name": "Pleasant Hill Hy-Vee", "phone": " 515-262-7956 / 515-262-7944", "website": "https://www.hy-vee.com/stores/detail.aspx?s=136", "opening_hours": "24/7", "brand": "Hyvee"}, "geometry": {"type": "Point", "coordinates": [-93.5199, 41.5979]}},
{"type": "Feature", "id": "xAPg-ihCHTN2UxEbmLQ5sj4GVB4=", "properties": {"ref": "144", "@spider": "hyvee", "addr:full": "500 37th Street NW", "addr:city": "Rochester", "addr:state": "MN", "addr:postcode": "55901", "name": "Rochester #2 Hy-Vee (North)", "phone": " 507-289-1815 (Main Store)", "website": "https://www.hy-vee.com/stores/detail.aspx?s=144", "opening_hours": "24/7", "brand": "Hyvee"}, "geometry": {"type": "Point", "coordinates": [-92.471, 44.0615]}},
{"type": "Feature", "id": "HKmW0aJ6E7gQKCtpUhth0Fgxq80=", "properties": {"ref": "137", "@spider": "hyvee", "addr:full": "7620 State Line Road", "addr:city": "Prairie Village", "addr:state": "KS", "addr:postcode": "66208", "name": "Prairie Village Hy-Vee", "phone": " 913-383-8303", "website": "https://www.hy-vee.com/stores/detail.aspx?s=137", "opening_hours": "24/7", "brand": "Hyvee"}, "geometry": {"type": "Point", "coordinates": [-94.6078, 38.9907]}},
{"type": "Feature", "id": "z2QxQ65ebp0aK6oSSMBDbNzO5sU=", "properties": {"ref": "141", "@spider": "hyvee", "addr:full": "9400 E. 350 Highway", "addr:city": "Raytown", "addr:state": "MO", "addr:postcode": "64133", "name": "Raytown Hy-Vee", "phone": " 816-358-9940", "website": "https://www.hy-vee.com/stores/detail.aspx?s=141", "opening_hours": "24/7", "brand": "Hyvee"}, "geometry": {"type": "Point", "coordinates": [-94.4693, 38.9938]}},
{"type": "Feature", "id": "g6uwNDbBJGUHPBLzohLtPNNnlhs=", "properties": {"ref": "2052", "@spider": "hyvee", "addr:full": "18 9th Street SE", "addr:city": "Rochester", "addr:state": "MN", "addr:postcode": "55904", "name": "Rochester Hy-Vee HealthMarket Rx", "phone": " 507-282-1422", "website": "https://www.hy-vee.com/stores/detail.aspx?s=2052", "opening_hours": "24/7", "brand": "Hyvee"}, "geometry": {"type": "Point", "coordinates": [-92.4643, 44.0123]}},
{"type": "Feature", "id": "eLcZARKy5jRbl_0C93X9upD3vmk=", "properties": {"ref": "142", "@spider": "hyvee", "addr:full": "1605 Broadway Street", "addr:city": "Red Oak", "addr:state": "IA", "addr:postcode": "51566", "name": "Red Oak Hy-Vee", "phone": " 712-623-4992", "website": "https://www.hy-vee.com/stores/detail.aspx?s=142", "opening_hours": "24/7", "brand": "Hyvee"}, "geometry": {"type": "Point", "coordinates": [-95.2328, 41.0195]}},
{"type": "Feature", "id": "OuEGGwvik3WHKuBRTbqzI7lspMM=", "properties": {"ref": "1651", "@spider": "hyvee", "addr:full": "1451 Adams Street South", "addr:city": "Shakopee", "addr:state": "MN", "addr:postcode": "55379", "name": "Shakopee Hy-Vee", "phone": " 952-403-1520", "website": "https://www.hy-vee.com/stores/detail.aspx?s=1651", "opening_hours": "24/7", "brand": "Hyvee"}, "geometry": {"type": "Point", "coordinates": [-93.5378, 44.7784]}},
{"type": "Feature", "id": "PHjojof-rWv07ZH_HUkENhNgF8k=", "properties": {"ref": "149", "@spider": "hyvee", "addr:full": "1989 Park Street", "addr:city": "Sheldon", "addr:state": "IA", "addr:postcode": "51201", "name": "Sheldon Hy-Vee", "phone": " 712-324-2516", "website": "https://www.hy-vee.com/stores/detail.aspx?s=149", "opening_hours": "24/7", "brand": "Hyvee"}, "geometry": {"type": "Point", "coordinates": [-95.8315, 43.1867]}},
{"type": "Feature", "id": "cWrv6FFIjHzuKSVnopg2XmgWwrU=", "properties": {"ref": "2050", "@spider": "hyvee", "addr:full": "435 West Broadway", "addr:city": "Plainview", "addr:state": "MN", "addr:postcode": "55964", "name": "Plainview Hy-Vee HealthMarket Rx", "phone": " 507-534-3816", "website": "https://www.hy-vee.com/stores/detail.aspx?s=2050", "opening_hours": "24/7", "brand": "Hyvee"}, "geometry": {"type": "Point", "coordinates": [-92.172, 44.1648]}},
{"type": "Feature", "id": "Hi2Mrvl3Pp9LDR0MSZFutkU5Et8=", "properties": {"ref": "134", "@spider": "hyvee", "addr:full": "1215 141st St", "addr:city": "Perry", "addr:state": "IA", "addr:postcode": "50220", "name": "Perry Hy-Vee", "phone": " 515-465-5321", "website": "https://www.hy-vee.com/stores/detail.aspx?s=134", "opening_hours": "24/7", "brand": "Hyvee"}, "geometry": {"type": "Point", "coordinates": [-94.1037, 41.8288]}},
{"type": "Feature", "id": "LC6l8l3yNoJpZxQYyItDDTgRXYo=", "properties": {"ref": "2049", "@spider": "hyvee", "addr:full": "111 County Road 11", "addr:city": "Pine Island", "addr:state": "MN", "addr:postcode": "55963", "name": "Pine Island Hy-Vee HealthMarket Rx", "phone": " 507-356-8343", "website": "https://www.hy-vee.com/stores/detail.aspx?s=2049", "opening_hours": "24/7", "brand": "Hyvee"}, "geometry": {"type": "Point", "coordinates": [-92.651, 44.2107]}},
{"type": "Feature", "id": "45rvoxqhrqOJEAiSe43POJ4_bwU=", "properties": {"ref": "531", "@spider": "hyvee", "addr:full": "4125 Sheridan Road, Suite 20", "addr:city": "Peoria", "addr:state": "IL", "addr:postcode": "61614", "name": "Peoria #1 Hy-Vee (Sheridan Village)", "phone": " (309) 686-5920", "website": "https://www.hy-vee.com/stores/detail.aspx?s=531", "opening_hours": "24/7", "brand": "Hyvee"}, "geometry": {"type": "Point", "coordinates": [-89.6058, 40.7394]}},
{"type": "Feature", "id": "ebSzxM4P4nOnMBK2AFekX8W0S54=", "properties": {"ref": "504", "@spider": "hyvee", "addr:full": "11650 South 73rd Street", "addr:city": "Papillion", "addr:state": "NE", "addr:postcode": "68046", "name": "Papillion Hy-Vee", "phone": " 402-597-5790", "website": "https://www.hy-vee.com/stores/detail.aspx?s=504", "opening_hours": "24/7", "brand": "Hyvee"}, "geometry": {"type": "Point", "coordinates": [-96.0242, 41.1374]}},
{"type": "Feature", "id": "mLvBqotK-9cGLUa_opTsGluQxBo=", "properties": {"ref": "1887", "@spider": "hyvee", "addr:full": "16705 County Road 24", "addr:city": "Plymouth", "addr:state": "MN", "addr:postcode": "55447", "name": "Plymouth Hy-Vee", "phone": " 763-383-7060", "website": "https://www.hy-vee.com/stores/detail.aspx?s=1887", "opening_hours": "24/7", "brand": "Hyvee"}, "geometry": {"type": "Point", "coordinates": [-93.4931, 45.0219]}},
{"type": "Feature", "id": "WlZri4-haPfuEpM0GniW2Un5WP8=", "properties": {"ref": "131", "@spider": "hyvee", "addr:full": "1620 S Cedar Ave", "addr:city": "Owatonna", "addr:state": "MN", "addr:postcode": "55060", "name": "Owatonna Hy-Vee", "phone": " 507-451-0138", "website": "https://www.hy-vee.com/stores/detail.aspx?s=131", "opening_hours": "24/7", "brand": "Hyvee"}, "geometry": {"type": "Point", "coordinates": [-93.2261, 44.0673]}},
{"type": "Feature", "id": "O2ZM3wNEUGEKw0uUn6SWzLPAzS0=", "properties": {"ref": "522", "@spider": "hyvee", "addr:full": "710 Main", "addr:city": "Princeton", "addr:state": "MO", "addr:postcode": "64673", "name": "Princeton Clinic Pharmacy Hy-Vee", "phone": " 660-748-7730", "website": "https://www.hy-vee.com/stores/detail.aspx?s=522", "opening_hours": "24/7", "brand": "Hyvee"}, "geometry": {"type": "Point", "coordinates": [-93.5869, 40.3972]}},
{"type": "Feature", "id": "RxgIYQLlwLx-mdr6CGZqXBB7mMw=", "properties": {"ref": "133", "@spider": "hyvee", "addr:full": "118 Southeast 9th Street", "addr:city": "Pella", "addr:state": "IA", "addr:postcode": "50219", "name": "Pella Hy-Vee", "phone": " 641-628-1590", "website": "https://www.hy-vee.com/stores/detail.aspx?s=133", "opening_hours": "24/7", "brand": "Hyvee"}, "geometry": {"type": "Point", "coordinates": [-92.9029, 41.3969]}},
{"type": "Feature", "id": "GkcCOrCqd7V5r3JYkz8A7s4y79E=", "properties": {"ref": "1499", "@spider": "hyvee", "addr:full": "4221 W Circle Drive NW", "addr:city": "Rochester", "addr:state": "MN", "addr:postcode": "55901", "name": "Rochester #4 Hy-Vee (Circle Drive)", "phone": " 507-292-6000", "website": "https://www.hy-vee.com/stores/detail.aspx?s=1499", "opening_hours": "24/7", "brand": "Hyvee"}, "geometry": {"type": "Point", "coordinates": [-92.5265, 44.0659]}},
{"type": "Feature", "id": "O76a1xbTIIZls2UFl5E5OkbO4EU=", "properties": {"ref": "211", "@spider": "hyvee", "addr:full": "1140 North Jefferson", "addr:city": "Ottumwa", "addr:state": "IA", "addr:postcode": "52501", "name": "Ottumwa Hy-Vee Drugstore", "phone": " 641-682-7716", "website": "https://www.hy-vee.com/stores/detail.aspx?s=211", "opening_hours": "24/7", "brand": "Hyvee"}, "geometry": {"type": "Point", "coordinates": [-92.4014, 41.0263]}},
{"type": "Feature", "id": "lEr2NZRQLqVKpJHlpKqVW3EKnIA=", "properties": {"ref": "125", "@spider": "hyvee", "addr:full": "110 South D Street", "addr:city": "Oskaloosa", "addr:state": "IA", "addr:postcode": "52577", "name": "Oskaloosa Hy-Vee", "phone": " 641-673-8663", "website": "https://www.hy-vee.com/stores/detail.aspx?s=125", "opening_hours": "24/7", "brand": "Hyvee"}, "geometry": {"type": "Point", "coordinates": [-92.6497, 41.2949]}},
{"type": "Feature", "id": "YmGdQqGUQkA6LEfpRUV6WcEcTGU=", "properties": {"ref": "128", "@spider": "hyvee", "addr:full": "8501 West 95th Street", "addr:city": "Overland Park", "addr:state": "KS", "addr:postcode": "66212", "name": "Overland Park #1 Hy-Vee (95th Street)", "phone": " 913-894-1983", "website": "https://www.hy-vee.com/stores/detail.aspx?s=128", "opening_hours": "24/7", "brand": "Hyvee"}, "geometry": {"type": "Point", "coordinates": [-94.6845, 38.9558]}},
{"type": "Feature", "id": "cTIUIKAyH2mmkKRYdUogVOHdGFI=", "properties": {"ref": "1445", "@spider": "hyvee", "addr:full": "7610 N Orange Prairie Rd", "addr:city": "Peoria", "addr:state": "IL", "addr:postcode": "61615", "name": "Peoria #2 Hy-Vee (Grand Prairie)", "phone": " 309-589-1001", "website": "https://www.hy-vee.com/stores/detail.aspx?s=1445", "opening_hours": "24/7", "brand": "Hyvee"}, "geometry": {"type": "Point", "coordinates": [-89.6786, 40.7808]}},
{"type": "Feature", "id": "MwpmyL6rZeIe2x9a-ryORBv2DrM=", "properties": {"ref": "129", "@spider": "hyvee", "addr:full": "8900 West 135th Street", "addr:city": "Overland Park", "addr:state": "KS", "addr:postcode": "66221", "name": "Overland Park #2 Hy-Vee (South)", "phone": " 913-685-3500", "website": "https://www.hy-vee.com/stores/detail.aspx?s=129", "opening_hours": "24/7", "brand": "Hyvee"}, "geometry": {"type": "Point", "coordinates": [-94.6886, 38.8839]}},
{"type": "Feature", "id": "5BdMuWKtgAYjCG0aOm1hByV1ldQ=", "properties": {"ref": "127", "@spider": "hyvee", "addr:full": "2453 N. Court", "addr:city": "Ottumwa", "addr:state": "IA", "addr:postcode": "52501", "name": "Ottumwa #2 Hy-Vee (North)", "phone": " 641-683-3341", "website": "https://www.hy-vee.com/stores/detail.aspx?s=127", "opening_hours": "24/7", "brand": "Hyvee"}, "geometry": {"type": "Point", "coordinates": [-92.4081, 41.0496]}},
{"type": "Feature", "id": "160xwUb9IBc8k0J9AQCF8mtRbD8=", "properties": {"ref": "126", "@spider": "hyvee", "addr:full": "1025 North Quincy Avenue", "addr:city": "Ottumwa", "addr:state": "IA", "addr:postcode": "52501", "name": "Ottumwa #1 Hy-Vee (South)", "phone": " 641-682-4516", "website": "https://www.hy-vee.com/stores/detail.aspx?s=126", "opening_hours": "24/7", "brand": "Hyvee"}, "geometry": {"type": "Point", "coordinates": [-92.4387, 41.0168]}},
{"type": "Feature", "id": "DcHZG274z79NkvkLkglOJfnPgkU=", "properties": {"ref": "135", "@spider": "hyvee", "addr:full": "1651 Midtown Road", "addr:city": "Peru", "addr:state": "IL", "addr:postcode": "61354", "name": "Peru Hy-Vee", "phone": " 815-223-5219", "website": "https://www.hy-vee.com/stores/detail.aspx?s=135", "opening_hours": "24/7", "brand": "Hyvee"}, "geometry": {"type": "Point", "coordinates": [-89.1291, 41.3395]}},
{"type": "Feature", "id": "MOIYj1mGteoxlEoGJOAC_uFukII=", "properties": {"ref": "146", "@spider": "hyvee", "addr:full": "1315 6th Street NW", "addr:city": "Rochester", "addr:state": "MN", "addr:postcode": "55901", "name": "Rochester #3 Hy-Vee (Barlow Plaza)", "phone": " 507-288-8233", "website": "https://www.hy-vee.com/stores/detail.aspx?s=146", "opening_hours": "24/7", "brand": "Hyvee"}, "geometry": {"type": "Point", "coordinates": [-92.481, 44.0294]}},
{"type": "Feature", "id": "6RgGt-loWRjHSkSZyKbR8hrJLgo=", "properties": {"ref": "3889", "@spider": "hyvee", "addr:full": "1301 8th Street SE", "addr:city": "Orange City", "addr:state": "IA", "addr:postcode": "51041", "name": "Orange City Dollar Fresh Hy-Vee", "phone": " 712-707-2003", "website": "https://www.hy-vee.com/stores/detail.aspx?s=3889", "opening_hours": "24/7", "brand": "Hyvee"}, "geometry": {"type": "Point", "coordinates": [-96.0415, 42.9979]}},
{"type": "Feature", "id": "a5Qw-jawLP0s418iKS-nS_XYaMU=", "properties": {"ref": "501", "@spider": "hyvee", "addr:full": "18101 West 119th Street", "addr:city": "Olathe", "addr:state": "KS", "addr:postcode": "66061", "name": "Olathe #2 Hy-Vee (Ridgeview)", "phone": " 913-393-4150", "website": "https://www.hy-vee.com/stores/detail.aspx?s=501", "opening_hours": "24/7", "brand": "Hyvee"}, "geometry": {"type": "Point", "coordinates": [-94.7963, 38.9121]}},
{"type": "Feature", "id": "-aTaElrxRLoDGaIT1BD0Wv-njGs=", "properties": {"ref": "230", "@spider": "hyvee", "addr:full": "929 Highway D", "addr:city": "Osage Beach", "addr:state": "MO", "addr:postcode": "65065", "name": "Osage Beach Hy-Vee", "phone": " 573-302-7977", "website": "https://www.hy-vee.com/stores/detail.aspx?s=230", "opening_hours": "24/7", "brand": "Hyvee"}, "geometry": {"type": "Point", "coordinates": [-92.6042, 38.1619]}},
{"type": "Feature", "id": "ZxWtHTGUu_02iTi2ExRmctZXe34=", "properties": {"ref": "3744", "@spider": "hyvee", "addr:full": "503 South Broadway", "addr:city": "Oak Grove", "addr:state": "MO", "addr:postcode": "64075", "name": "Oak Grove Dollar Fresh Hy-Vee", "phone": " 816-625-9098", "website": "https://www.hy-vee.com/stores/detail.aspx?s=3744", "opening_hours": "24/7", "brand": "Hyvee"}, "geometry": {"type": "Point", "coordinates": [-94.1298, 39.0113]}},
{"type": "Feature", "id": "r5lDWc3gnbi0Cq2eFv0w2gQkeQM=", "properties": {"ref": "114", "@spider": "hyvee", "addr:full": "120 East Norfolk Avenue", "addr:city": "Norfolk", "addr:state": "NE", "addr:postcode": "68701", "name": "Norfolk #1 Hy-Vee (East)", "phone": " 402-379-1706", "website": "https://www.hy-vee.com/stores/detail.aspx?s=114", "opening_hours": "24/7", "brand": "Hyvee"}, "geometry": {"type": "Point", "coordinates": [-97.4065, 42.0325]}},
{"type": "Feature", "id": "vxSZGd1rk7mJ7Efusp2WRWCboSM=", "properties": {"ref": "111", "@spider": "hyvee", "addr:full": "2015 South Broadway Street", "addr:city": "New Ulm", "addr:state": "MN", "addr:postcode": "56073", "name": "New Ulm Hy-Vee", "phone": " 507-354-8255", "website": "https://www.hy-vee.com/stores/detail.aspx?s=111", "opening_hours": "24/7", "brand": "Hyvee"}, "geometry": {"type": "Point", "coordinates": [-94.4411, 44.2929]}},
{"type": "Feature", "id": "MVBjPTrMJg950Pwvd9bjEGVOGKs=", "properties": {"ref": "3770", "@spider": "hyvee", "addr:full": "1018 South 11th Street", "addr:city": "Nebraska City", "addr:state": "NE", "addr:postcode": "68410", "name": "Nebraska City Dollar Fresh Hy-Vee", "phone": " 402-873-6761", "website": "https://www.hy-vee.com/stores/detail.aspx?s=3770", "opening_hours": "24/7", "brand": "Hyvee"}, "geometry": {"type": "Point", "coordinates": [-95.8608, 40.6671]}},
{"type": "Feature", "id": "dd-ixokXXdS3KTsk5grXOvCsITE=", "properties": {"ref": "2946", "@spider": "hyvee", "addr:full": "1345 South Frederick Ave", "addr:city": "Oelwein", "addr:state": "IA", "addr:postcode": "50662", "name": "Oelwein Dollar Fresh Hy-Vee", "phone": " 319-283-7500", "website": "https://www.hy-vee.com/stores/detail.aspx?s=2946", "opening_hours": "24/7", "brand": "Hyvee"}, "geometry": {"type": "Point", "coordinates": [-91.9119, 42.6593]}},
{"type": "Feature", "id": "ft_P3XwuzwP9O65OJP8iXwfMX6U=", "properties": {"ref": "3755", "@spider": "hyvee", "addr:full": "1622 Fawcett Parkway", "addr:city": "Nevada", "addr:state": "IA", "addr:postcode": "50201", "name": "Nevada Dollar Fresh Hy-Vee", "phone": " 515-215-6083", "website": "https://www.hy-vee.com/stores/detail.aspx?s=3755", "opening_hours": "24/7", "brand": "Hyvee"}, "geometry": {"type": "Point", "coordinates": [-93.4397, 42.0119]}},
{"type": "Feature", "id": "ER896rtOVCnfvN7zIuv1LTo6S5I=", "properties": {"ref": "116", "@spider": "hyvee", "addr:full": "14955 West 151st Street", "addr:city": "Olathe", "addr:state": "KS", "addr:postcode": "66062", "name": "Olathe #1 Hy-Vee (West 151st)", "phone": " 913-780-9339", "website": "https://www.hy-vee.com/stores/detail.aspx?s=116", "opening_hours": "24/7", "brand": "Hyvee"}, "geometry": {"type": "Point", "coordinates": [-94.7589, 38.8524]}},
{"type": "Feature", "id": "wYlAe1jNMpA5BaR1-JzxrfHLQ-s=", "properties": {"ref": "115", "@spider": "hyvee", "addr:full": "2107 Taylor Avenue", "addr:city": "Norfolk", "addr:state": "NE", "addr:postcode": "68701", "name": "Norfolk #2 Hy-Vee (West)", "phone": " 402-371-7071", "website": "https://www.hy-vee.com/stores/detail.aspx?s=115", "opening_hours": "24/7", "brand": "Hyvee"}, "geometry": {"type": "Point", "coordinates": [-97.4413, 42.0281]}},
{"type": "Feature", "id": "CtD6Z7dPlTLQrzn5_oR6QRLpFd4=", "properties": {"ref": "124", "@spider": "hyvee", "addr:full": "510 West McLane Street", "addr:city": "Osceola", "addr:state": "IA", "addr:postcode": "50213", "name": "Osceola Hy-Vee", "phone": " 641-342-2125", "website": "https://www.hy-vee.com/stores/detail.aspx?s=124", "opening_hours": "24/7", "brand": "Hyvee"}, "geometry": {"type": "Point", "coordinates": [-93.7723, 41.0304]}},
{"type": "Feature", "id": "-ucsgnASWOvCyiIYXdfZ6aeIG-A=", "properties": {"ref": "1509", "@spider": "hyvee", "addr:full": "7180 - 10th Street North", "addr:city": "Oakdale", "addr:state": "MN", "addr:postcode": "55128", "name": "Oakdale Hy-Vee", "phone": " 651-714-3160", "website": "https://www.hy-vee.com/stores/detail.aspx?s=1509", "opening_hours": "24/7", "brand": "Hyvee"}, "geometry": {"type": "Point", "coordinates": [-92.9624, 44.9636]}},
{"type": "Feature", "id": "ssu_AxbcCnuSVNnhm88QlxCL9p0=", "properties": {"ref": "117", "@spider": "hyvee", "addr:full": "5150 Center Street", "addr:city": "Omaha", "addr:state": "NE", "addr:postcode": "68106", "name": "Omaha #1 Hy-Vee (Midtown)", "phone": " 402-553-2664", "website": "https://www.hy-vee.com/stores/detail.aspx?s=117", "opening_hours": "24/7", "brand": "Hyvee"}, "geometry": {"type": "Point", "coordinates": [-95.9939, 41.2412]}},
{"type": "Feature", "id": "bIoCj_UUthUEh7-pD-vGurvdGoU=", "properties": {"ref": "226", "@spider": "hyvee", "addr:full": "17810 Welch Plaza", "addr:city": "Omaha", "addr:state": "NE", "addr:postcode": "68135", "name": "Omaha #9 Hy-Vee (180th & Q)", "phone": " 402-896-4168", "website": "https://www.hy-vee.com/stores/detail.aspx?s=226", "opening_hours": "24/7", "brand": "Hyvee"}, "geometry": {"type": "Point", "coordinates": [-96.1956, 41.2054]}},
{"type": "Feature", "id": "TRUgwFdzLTeg93fafIthgQVzhCM=", "properties": {"ref": "118", "@spider": "hyvee", "addr:full": "14591 Stony Brook Boulevard", "addr:city": "Omaha", "addr:state": "NE", "addr:postcode": "68137", "name": "Omaha #2 Hy-Vee (Stony Brook)", "phone": " 402-697-0811", "website": "https://www.hy-vee.com/stores/detail.aspx?s=118", "opening_hours": "24/7", "brand": "Hyvee"}, "geometry": {"type": "Point", "coordinates": [-96.1392, 41.1974]}},
{"type": "Feature", "id": "y8dkzkswa7K6iT8mE7edBJrTkgc=", "properties": {"ref": "123", "@spider": "hyvee", "addr:full": "747 North 132nd Street", "addr:city": "Omaha", "addr:state": "NE", "addr:postcode": "68154", "name": "Omaha #8 Hy-Vee (Linden Market)", "phone": " 402-493-2911", "website": "https://www.hy-vee.com/stores/detail.aspx?s=123", "opening_hours": "24/7", "brand": "Hyvee"}, "geometry": {"type": "Point", "coordinates": [-96.1184, 41.2664]}},
{"type": "Feature", "id": "2FvFKSlyPyZG5UoqQl7qW72l-7E=", "properties": {"ref": "3693", "@spider": "hyvee", "addr:full": "200 10th Ave SE", "addr:city": "New Prague", "addr:state": "MN", "addr:postcode": "56071", "name": "New Prague Hy-Vee", "phone": " 952-758-2790", "website": "https://www.hy-vee.com/stores/detail.aspx?s=3693", "opening_hours": "24/7", "brand": "Hyvee"}, "geometry": {"type": "Point", "coordinates": [-93.5626, 44.542]}},
{"type": "Feature", "id": "BVQajSpJevJHCXIRB8Ql2bcb7Ps=", "properties": {"ref": "112", "@spider": "hyvee", "addr:full": "1501 1st Avenue East", "addr:city": "Newton", "addr:state": "IA", "addr:postcode": "50208", "name": "Newton Hy-Vee", "phone": " 641-792-7030", "website": "https://www.hy-vee.com/stores/detail.aspx?s=112", "opening_hours": "24/7", "brand": "Hyvee"}, "geometry": {"type": "Point", "coordinates": [-93.0339, 41.6991]}},
{"type": "Feature", "id": "JWleSctkCU0Phq979lD9tP-VS6I=", "properties": {"ref": "119", "@spider": "hyvee", "addr:full": "10808 Fort Street", "addr:city": "Omaha", "addr:state": "NE", "addr:postcode": "68164", "name": "Omaha #4 Hy-Vee (Fort Street)", "phone": " 402-493-2089", "website": "https://www.hy-vee.com/stores/detail.aspx?s=119", "opening_hours": "24/7", "brand": "Hyvee"}, "geometry": {"type": "Point", "coordinates": [-96.0809, 41.3069]}},
{"type": "Feature", "id": "0GQ4zestNBOAyi0xHz5U5MzRts4=", "properties": {"ref": "521", "@spider": "hyvee", "addr:full": "501 S. White", "addr:city": "Mount Pleasant", "addr:state": "IA", "addr:postcode": "52641", "name": "Mount Pleasant Clinic Pharmacy Hy-Vee", "phone": " 319-385-6745", "website": "https://www.hy-vee.com/stores/detail.aspx?s=521", "opening_hours": "24/7", "brand": "Hyvee"}, "geometry": {"type": "Point", "coordinates": [-91.5583, 40.9622]}},
{"type": "Feature", "id": "VoSXdSGtlVN9J8B6VEWkou6vNvg=", "properties": {"ref": "109", "@spider": "hyvee", "addr:full": "1700 East Washington Street", "addr:city": "Mount Pleasant", "addr:state": "IA", "addr:postcode": "52641", "name": "Mount Pleasant Hy-Vee", "phone": " 319-385-2266", "website": "https://www.hy-vee.com/stores/detail.aspx?s=109", "opening_hours": "24/7", "brand": "Hyvee"}, "geometry": {"type": "Point", "coordinates": [-91.5225, 40.9606]}},
{"type": "Feature", "id": "Cv2KFqaIvY4HsrOR7_ksTO8LFD4=", "properties": {"ref": "3054", "@spider": "hyvee", "addr:full": "100 Tenth Avenue SE", "addr:city": "New Prague", "addr:state": "MN", "addr:postcode": "56071", "name": "New Prague Fast & Fresh Express Hy-Vee", "phone": " 952-758-4710", "website": "https://www.hy-vee.com/stores/detail.aspx?s=3054", "opening_hours": "24/7", "brand": "Hyvee"}, "geometry": {"type": "Point", "coordinates": [-93.5622, 44.543]}},
{"type": "Feature", "id": "jIKJ51MjpwI46VodDzLogeZ7g4M=", "properties": {"ref": "229", "@spider": "hyvee", "addr:full": "3410 N. 156th Street", "addr:city": "Omaha", "addr:state": "NE", "addr:postcode": "68116", "name": "Omaha #10 Hy-Vee (156th & Maple)", "phone": " 402-493-0390", "website": "https://www.hy-vee.com/stores/detail.aspx?s=229", "opening_hours": "24/7", "brand": "Hyvee"}, "geometry": {"type": "Point", "coordinates": [-96.1584, 41.2926]}},
{"type": "Feature", "id": "0ncVmzXtVWXLbhjGA4VxXLdDgqw=", "properties": {"ref": "1003", "@spider": "hyvee", "addr:full": "1000 S. 178th Street", "addr:city": "Omaha", "addr:state": "NE", "addr:postcode": "68118", "name": "Omaha #11 Hy-Vee (180th & Pacific)", "phone": " 402-334-4444", "website": "https://www.hy-vee.com/stores/detail.aspx?s=1003", "opening_hours": "24/7", "brand": "Hyvee"}, "geometry": {"type": "Point", "coordinates": [-96.1943, 41.2501]}},
{"type": "Feature", "id": "6ahqhzdUW2ulIiBSHkISpGnIS20=", "properties": {"ref": "110", "@spider": "hyvee", "addr:full": "2400 Second Avenue", "addr:city": "Muscatine", "addr:state": "IA", "addr:postcode": "52761", "name": "Muscatine Hy-Vee", "phone": " 563-264-2420", "website": "https://www.hy-vee.com/stores/detail.aspx?s=110", "opening_hours": "24/7", "brand": "Hyvee"}, "geometry": {"type": "Point", "coordinates": [-91.0355, 41.4498]}},
{"type": "Feature", "id": "z9IG3PF_dWYaBSoVUe_6tnuVZGg=", "properties": {"ref": "209", "@spider": "hyvee", "addr:full": "510 East Sixth Street", "addr:city": "Muscatine", "addr:state": "IA", "addr:postcode": "52761", "name": "Muscatine Hy-Vee Mainstreet", "phone": " 563-263-6461", "website": "https://www.hy-vee.com/stores/detail.aspx?s=209", "opening_hours": "24/7", "brand": "Hyvee"}, "geometry": {"type": "Point", "coordinates": [-91.0428, 41.4256]}},
{"type": "Feature", "id": "NtbxztSKfgYpnq5AdjIqMWSj3W8=", "properties": {"ref": "1508", "@spider": "hyvee", "addr:full": "8200 42nd Avenue North", "addr:city": "New Hope", "addr:state": "MN", "addr:postcode": "55427", "name": "New Hope Hy-Vee", "phone": " 763-531-7460", "website": "https://www.hy-vee.com/stores/detail.aspx?s=1508", "opening_hours": "24/7", "brand": "Hyvee"}, "geometry": {"type": "Point", "coordinates": [-93.3846, 45.0332]}},
{"type": "Feature", "id": "HFiaGGsVv5o8LYwfN617_v5UKhA=", "properties": {"ref": "106", "@spider": "hyvee", "addr:full": "201 N Fillmore St", "addr:city": "Mount Ayr", "addr:state": "IA", "addr:postcode": "50854", "name": "Mount Ayr Hy-Vee", "phone": " 641-464-2121", "website": "https://www.hy-vee.com/stores/detail.aspx?s=106", "opening_hours": "24/7", "brand": "Hyvee"}, "geometry": {"type": "Point", "coordinates": [-94.233, 40.7117]}},
{"type": "Feature", "id": "icSmaSVoh-vX1tXYiirHmi9HOfY=", "properties": {"ref": "155", "@spider": "hyvee", "addr:full": "500 S Fremont St", "addr:city": "Shenandoah", "addr:state": "IA", "addr:postcode": "51601", "name": "Shenandoah Hy-Vee", "phone": " 712-246-1495", "website": "https://www.hy-vee.com/stores/detail.aspx?s=155", "opening_hours": "24/7", "brand": "Hyvee"}, "geometry": {"type": "Point", "coordinates": [-95.3848, 40.7618]}},
{"type": "Feature", "id": "ktQPoRrCeyC_EHQvsXykgeyUcWk=", "properties": {"ref": "527", "@spider": "hyvee", "addr:full": "750 42nd Avenue Drive", "addr:city": "Moline", "addr:state": "IL", "addr:postcode": "61265", "name": "Moline #2 Hy-Vee (John Deere Road)", "phone": " 309-757-1085", "website": "https://www.hy-vee.com/stores/detail.aspx?s=527", "opening_hours": "24/7", "brand": "Hyvee"}, "geometry": {"type": "Point", "coordinates": [-90.5268, 41.4686]}},
{"type": "Feature", "id": "UWrhyzvZMnsTviHtH0a-xEtWQok=", "properties": {"ref": "105", "@spider": "hyvee", "addr:full": "4218 Avenue of the Cities", "addr:city": "Moline", "addr:state": "IL", "addr:postcode": "61265", "name": "Moline #1 Hy-Vee (Avenue of the Cities)", "phone": " 309-762-0200", "website": "https://www.hy-vee.com/stores/detail.aspx?s=105", "opening_hours": "24/7", "brand": "Hyvee"}, "geometry": {"type": "Point", "coordinates": [-90.4769, 41.4899]}},
{"type": "Feature", "id": "41pT7fQegGbJMNvBmXxNZtjqr_I=", "properties": {"ref": "103", "@spider": "hyvee", "addr:full": "551 South Illinois Avenue", "addr:city": "Mason City", "addr:state": "IA", "addr:postcode": "50401", "name": "Mason City #2 Hy-Vee (East)", "phone": " 641-424-9741", "website": "https://www.hy-vee.com/stores/detail.aspx?s=103", "opening_hours": "24/7", "brand": "Hyvee"}, "geometry": {"type": "Point", "coordinates": [-93.1711, 43.1467]}},
{"type": "Feature", "id": "_EeuqiYmBCNU7kMbr-0Mx4F477I=", "properties": {"ref": "100", "@spider": "hyvee", "addr:full": "802 South Center Street", "addr:city": "Marshalltown", "addr:state": "IA", "addr:postcode": "50158", "name": "Marshalltown Hy-Vee", "phone": " 641-752-4525", "website": "https://www.hy-vee.com/stores/detail.aspx?s=100", "opening_hours": "24/7", "brand": "Hyvee"}, "geometry": {"type": "Point", "coordinates": [-92.9127, 42.0391]}},
{"type": "Feature", "id": "XVvFtkzW6ukMoIIoYI_KENGkaak=", "properties": {"ref": "99", "@spider": "hyvee", "addr:full": "900 East Main Street", "addr:city": "Marshall", "addr:state": "MN", "addr:postcode": "56258", "name": "Marshall Hy-Vee", "phone": " 507-532-2247", "website": "https://www.hy-vee.com/stores/detail.aspx?s=99", "opening_hours": "24/7", "brand": "Hyvee"}, "geometry": {"type": "Point", "coordinates": [-95.7763, 44.4379]}},
{"type": "Feature", "id": "BQhFLSsnq5LQApZ5Wugo07Z-vzs=", "properties": {"ref": "512", "@spider": "hyvee", "addr:full": "1012 Okoboji Avenue", "addr:city": "Milford", "addr:state": "IA", "addr:postcode": "51351", "name": "Milford Clinic Pharmacy Hy-Vee", "phone": " 712-338-4865", "website": "https://www.hy-vee.com/stores/detail.aspx?s=512", "opening_hours": "24/7", "brand": "Hyvee"}, "geometry": {"type": "Point", "coordinates": [-95.1498, 43.4325]}},
{"type": "Feature", "id": "zR_PECJ3CS_fBGww_PPJ7ENrO3g=", "properties": {"ref": "206", "@spider": "hyvee", "addr:full": "875 Fourth Street SW", "addr:city": "Mason City", "addr:state": "IA", "addr:postcode": "50401", "name": "Mason City Hy-Vee Drugstore", "phone": " 641-424-4181", "website": "https://www.hy-vee.com/stores/detail.aspx?s=206", "opening_hours": "24/7", "brand": "Hyvee"}, "geometry": {"type": "Point", "coordinates": [-93.2143, 43.1477]}},
{"type": "Feature", "id": "aiM3Lq8c0X1HLANgKGvCW7yEeok=", "properties": {"ref": "102", "@spider": "hyvee", "addr:full": "2400 4th Street SW", "addr:city": "Mason City", "addr:state": "IA", "addr:postcode": "50401", "name": "Mason City #1 Hy-Vee (West)", "phone": " 641-424-2605", "website": "https://www.hy-vee.com/stores/detail.aspx?s=102", "opening_hours": "24/7", "brand": "Hyvee"}, "geometry": {"type": "Point", "coordinates": [-93.2357, 43.1485]}},
{"type": "Feature", "id": "EOja1Hc6Q3ArBLEqwXVsrLGXmA0=", "properties": {"ref": "108", "@spider": "hyvee", "addr:full": "6655 Martway Street", "addr:city": "Mission", "addr:state": "KS", "addr:postcode": "66202", "name": "Mission Hy-Vee", "phone": " 913-831-4447", "website": "https://www.hy-vee.com/stores/detail.aspx?s=108", "opening_hours": "24/7", "brand": "Hyvee"}, "geometry": {"type": "Point", "coordinates": [-94.6619, 39.0203]}},
{"type": "Feature", "id": "0UNmB1iJI3aH7aPG4gICYiuj3iE=", "properties": {"ref": "98", "@spider": "hyvee", "addr:full": "3600 Business Highway 151", "addr:city": "Marion", "addr:state": "IA", "addr:postcode": "52302", "name": "Marion Hy-Vee (Marion Hy-Vee Store)", "phone": " 319-377-4803", "website": "https://www.hy-vee.com/stores/detail.aspx?s=98", "opening_hours": "24/7", "brand": "Hyvee"}, "geometry": {"type": "Point", "coordinates": [-91.5719, 42.0358]}},
{"type": "Feature", "id": "Mq6lF_ce1e8ZF3_kSn3gXvPvF8M=", "properties": {"ref": "1735", "@spider": "hyvee", "addr:full": "1224 10th Ave N PO Box 895", "addr:city": "Manson", "addr:state": "IA", "addr:postcode": "50563", "name": "Manson Clinic Pharmacy Hy-Vee", "phone": " 712-469-2214", "website": "https://www.hy-vee.com/stores/detail.aspx?s=1735", "opening_hours": "24/7", "brand": "Hyvee"}, "geometry": {"type": "Point", "coordinates": [-94.5341, 42.5291]}},
{"type": "Feature", "id": "4QrkUiPHgtuOAHcpNfiCBVEgR7g=", "properties": {"ref": "2223", "@spider": "hyvee", "addr:full": "18755 70th Way North", "addr:city": "Maple Grove", "addr:state": "MN", "addr:postcode": "55311", "name": "Maple Grove Hy-Vee", "phone": " 763-494-5300", "website": "https://www.hy-vee.com/stores/detail.aspx?s=2223", "opening_hours": "24/7", "brand": "Hyvee"}, "geometry": {"type": "Point", "coordinates": [-93.5175, 45.0829]}},
{"type": "Feature", "id": "1m_6l-vlROGrAraMNjDY73QtVfY=", "properties": {"ref": "519", "@spider": "hyvee", "addr:full": "321 N. Main Street", "addr:city": "Marcus", "addr:state": "IA", "addr:postcode": "51035", "name": "Marcus Clinic Pharmacy Hy-Vee", "phone": " 712-376-2845", "website": "https://www.hy-vee.com/stores/detail.aspx?s=519", "opening_hours": "24/7", "brand": "Hyvee"}, "geometry": {"type": "Point", "coordinates": [-95.8079, 42.8248]}},
{"type": "Feature", "id": "8BnMcJkcv0eNtJuDJo0XpfNLUms=", "properties": {"ref": "529", "@spider": "hyvee", "addr:full": "3801 East Washington Avenue", "addr:city": "Madison", "addr:state": "WI", "addr:postcode": "53704", "name": "Madison #1 Hy-Vee (East Washington)", "phone": " 608-244-4696", "website": "https://www.hy-vee.com/stores/detail.aspx?s=529", "opening_hours": "24/7", "brand": "Hyvee"}, "geometry": {"type": "Point", "coordinates": [-89.3204, 43.1188]}},
{"type": "Feature", "id": "tDdTlthrtln8Qtqnt-EgRbZX2sw=", "properties": {"ref": "530", "@spider": "hyvee", "addr:full": "601 3rd Place", "addr:city": "Manhattan", "addr:state": "KS", "addr:postcode": "66502", "name": "Manhattan Hy-Vee", "phone": " 785-587-8609", "website": "https://www.hy-vee.com/stores/detail.aspx?s=530", "opening_hours": "24/7", "brand": "Hyvee"}, "geometry": {"type": "Point", "coordinates": [-96.5609, 39.1859]}},
{"type": "Feature", "id": "bl52-ZEAIWuc35bfc4MbwYivRmU=", "properties": {"ref": "3701", "@spider": "hyvee", "addr:full": "102 West Carlisle", "addr:city": "Maquoketa", "addr:state": "IA", "addr:postcode": "52060", "name": "Maquoketa Dollar Fresh Hy-Vee", "phone": " 563-748-0384", "website": "https://www.hy-vee.com/stores/detail.aspx?s=3701", "opening_hours": "24/7", "brand": "Hyvee"}, "geometry": {"type": "Point", "coordinates": [-90.6659, 42.0499]}},
{"type": "Feature", "id": "fAqDudkLTIhyVGXsGSD_3AA1OGs=", "properties": {"ref": "1332", "@spider": "hyvee", "addr:full": "675 S. Whitney Way", "addr:city": "Madison", "addr:state": "WI", "addr:postcode": "53711", "name": "Madison #2 Hy-Vee (Whitney Way)", "phone": " 608-277-6735", "website": "https://www.hy-vee.com/stores/detail.aspx?s=1332", "opening_hours": "24/7", "brand": "Hyvee"}, "geometry": {"type": "Point", "coordinates": [-89.4717, 43.0505]}},
{"type": "Feature", "id": "I0RP8VSq-iOYvgexWJQH0DPButc=", "properties": {"ref": "86", "@spider": "hyvee", "addr:full": "310 SW Ward Road", "addr:city": "Lee's Summit", "addr:state": "MO", "addr:postcode": "64081", "name": "Lee's Summit #2 Hy-Vee (West)", "phone": " 816-554-2200", "website": "https://www.hy-vee.com/stores/detail.aspx?s=86", "opening_hours": "24/7", "brand": "Hyvee"}, "geometry": {"type": "Point", "coordinates": [-94.396, 38.9111]}},
{"type": "Feature", "id": "34VNoAGEEShCeyrbop0eCk9nnT8=", "properties": {"ref": "94", "@spider": "hyvee", "addr:full": "1004 West 1st Street", "addr:city": "Leon", "addr:state": "IA", "addr:postcode": "50144", "name": "Leon Hy-Vee", "phone": " 641-446-6132", "website": "https://www.hy-vee.com/stores/detail.aspx?s=94", "opening_hours": "24/7", "brand": "Hyvee"}, "geometry": {"type": "Point", "coordinates": [-93.7565, 40.7397]}},
{"type": "Feature", "id": "So-YACnCktftlw4Lje3Jcb_8lLs=", "properties": {"ref": "85", "@spider": "hyvee", "addr:full": "301 NE Rice Road", "addr:city": "Lee's Summit", "addr:state": "MO", "addr:postcode": "64086", "name": "Lee's Summit #1 Hy-Vee (East)", "phone": " 816-524-5760", "website": "https://www.hy-vee.com/stores/detail.aspx?s=85", "opening_hours": "24/7", "brand": "Hyvee"}, "geometry": {"type": "Point", "coordinates": [-94.36, 38.9188]}},
{"type": "Feature", "id": "azmHcm_HKSDrZj3Tcj4gtMgNS-8=", "properties": {"ref": "3578", "@spider": "hyvee", "addr:full": "1001 Plum Creek Parkway", "addr:city": "Lexington", "addr:state": "NE", "addr:postcode": "68850", "name": "Lexington Dollar Fresh Hy-Vee", "phone": " 308-324-9972", "website": "https://www.hy-vee.com/stores/detail.aspx?s=3578", "opening_hours": "24/7", "brand": "Hyvee"}, "geometry": {"type": "Point", "coordinates": [-99.7399, 40.7676]}},
{"type": "Feature", "id": "5xJboIkyZ3cX4M5VZvtbakqcrh8=", "properties": {"ref": "82", "@spider": "hyvee", "addr:full": "3504 Clinton Parkway", "addr:city": "Lawrence", "addr:state": "KS", "addr:postcode": "66047", "name": "Lawrence #1 Hy-Vee", "phone": " 785-832-0044", "website": "https://www.hy-vee.com/stores/detail.aspx?s=82", "opening_hours": "24/7", "brand": "Hyvee"}, "geometry": {"type": "Point", "coordinates": [-95.2814, 38.9428]}},
{"type": "Feature", "id": "uBBOQW3VYf47fThg9z4JPJ8ry-8=", "properties": {"ref": "95", "@spider": "hyvee", "addr:full": "7151 Stacy Lane", "addr:city": "Lincoln", "addr:state": "NE", "addr:postcode": "68516", "name": "Lincoln #5 Hy-Vee (70th & Pioneers)", "phone": " 402-489-4244", "website": "https://www.hy-vee.com/stores/detail.aspx?s=95", "opening_hours": "24/7", "brand": "Hyvee"}, "geometry": {"type": "Point", "coordinates": [-96.622, 40.7686]}},
{"type": "Feature", "id": "x2psH-9oQ2QUVXS1HBguvnRGSU8=", "properties": {"ref": "1419", "@spider": "hyvee", "addr:full": "204 North Main Street", "addr:city": "Leon", "addr:state": "IA", "addr:postcode": "50144", "name": "Leon Clinic Pharmacy Hy-Vee", "phone": " 641-446-4136", "website": "https://www.hy-vee.com/stores/detail.aspx?s=1419", "opening_hours": "24/7", "brand": "Hyvee"}, "geometry": {"type": "Point", "coordinates": [-93.7468, 40.7403]}},
{"type": "Feature", "id": "mHe_4CCqYBlZOC7yKOXGxKOU_fw=", "properties": {"ref": "93", "@spider": "hyvee", "addr:full": "6001 Village Drive", "addr:city": "Lincoln", "addr:state": "NE", "addr:postcode": "68516", "name": "Lincoln #4 Hy-Vee (Williamsburg)", "phone": " 402-421-2462", "website": "https://www.hy-vee.com/stores/detail.aspx?s=93", "opening_hours": "24/7", "brand": "Hyvee"}, "geometry": {"type": "Point", "coordinates": [-96.6651, 40.7513]}},
{"type": "Feature", "id": "9V0zH_AdIdKXH6SwG3GNNquq1L0=", "properties": {"ref": "87", "@spider": "hyvee", "addr:full": "1201 12th Avenue SW", "addr:city": "Le Mars", "addr:state": "IA", "addr:postcode": "51031", "name": "Le Mars Hy-Vee", "phone": " 712-546-7816", "website": "https://www.hy-vee.com/stores/detail.aspx?s=87", "opening_hours": "24/7", "brand": "Hyvee"}, "geometry": {"type": "Point", "coordinates": [-96.1847, 42.7778]}},
{"type": "Feature", "id": "JfZZuaV1S4T3iFe5yi0dNFRzKA8=", "properties": {"ref": "3374", "@spider": "hyvee", "addr:full": "2501 White Bear Avenue", "addr:city": "Maplewood", "addr:state": "MN", "addr:postcode": "55109", "name": "Maplewood Hy-Vee", "phone": " 651-747-3500", "website": "https://www.hy-vee.com/stores/detail.aspx?s=3374", "opening_hours": "24/7", "brand": "Hyvee"}, "geometry": {"type": "Point", "coordinates": [-93.0212, 45.0169]}},
{"type": "Feature", "id": "oh6BK4vFR5E0GkrYSbz8_j-5c1o=", "properties": {"ref": "92", "@spider": "hyvee", "addr:full": "5020 North 27th Street", "addr:city": "Lincoln", "addr:state": "NE", "addr:postcode": "68521", "name": "Lincoln #3 Hy-Vee (Superior)", "phone": " 402-477-4764", "website": "https://www.hy-vee.com/stores/detail.aspx?s=92", "opening_hours": "24/7", "brand": "Hyvee"}, "geometry": {"type": "Point", "coordinates": [-96.6819, 40.8624]}},
{"type": "Feature", "id": "toQjr9_mYrASplxfd1sCyQciFq8=", "properties": {"ref": "90", "@spider": "hyvee", "addr:full": "5010 O Street", "addr:city": "Lincoln", "addr:state": "NE", "addr:postcode": "68510", "name": "Lincoln #1 Hy-Vee (O Street)", "phone": " 402-483-7707", "website": "https://www.hy-vee.com/stores/detail.aspx?s=90", "opening_hours": "24/7", "brand": "Hyvee"}, "geometry": {"type": "Point", "coordinates": [-96.6511, 40.8135]}},
{"type": "Feature", "id": "_A2V9YHpeb8DAkHXGG0Mu6mMImk=", "properties": {"ref": "91", "@spider": "hyvee", "addr:full": "1601 N. 84th Street", "addr:city": "Lincoln", "addr:state": "NE", "addr:postcode": "68505", "name": "Lincoln #2 Hy-Vee (Northern Lights)", "phone": " 402-467-5505", "website": "https://www.hy-vee.com/stores/detail.aspx?s=91", "opening_hours": "24/7", "brand": "Hyvee"}, "geometry": {"type": "Point", "coordinates": [-96.6082, 40.8292]}},
{"type": "Feature", "id": "_j4P24vf1P8pSIczI9Z_Q54zZvw=", "properties": {"ref": "3710", "@spider": "hyvee", "addr:full": "1080 West Main Street", "addr:city": "Manchester", "addr:state": "IA", "addr:postcode": "52057", "name": "Manchester Dollar Fresh Hy-Vee", "phone": " 563-822-1383", "website": "https://www.hy-vee.com/stores/detail.aspx?s=3710", "opening_hours": "24/7", "brand": "Hyvee"}, "geometry": {"type": "Point", "coordinates": [-91.4717, 42.4838]}},
{"type": "Feature", "id": "tpqE2h8zaOEAyeSAaFQRcyFTu8A=", "properties": {"ref": "518", "@spider": "hyvee", "addr:full": "113 N. 3rd St.", "addr:city": "Laurens", "addr:state": "IA", "addr:postcode": "50554", "name": "Laurens Clinic Pharmacy Hy-Vee", "phone": " 712-841-4374", "website": "https://www.hy-vee.com/stores/detail.aspx?s=518", "opening_hours": "24/7", "brand": "Hyvee"}, "geometry": {"type": "Point", "coordinates": [-94.8516, 42.8468]}},
{"type": "Feature", "id": "LK_C4HlvxpxA2jKDGtl3WvUcut0=", "properties": {"ref": "88", "@spider": "hyvee", "addr:full": "13400 W 87th St", "addr:city": "Lenexa", "addr:state": "KS", "addr:postcode": "66215", "name": "Lenexa Hy-Vee", "phone": " 913-438-8308", "website": "https://www.hy-vee.com/stores/detail.aspx?s=88", "opening_hours": "24/7", "brand": "Hyvee"}, "geometry": {"type": "Point", "coordinates": [-94.7413, 38.971]}},
{"type": "Feature", "id": "K-eqMpRq6XulsvOtvsllO_Y0hto=", "properties": {"ref": "89", "@spider": "hyvee", "addr:full": "109 North Blue Jay Drive", "addr:city": "Liberty", "addr:state": "MO", "addr:postcode": "64068", "name": "Liberty Hy-Vee", "phone": " 816-792-3210", "website": "https://www.hy-vee.com/stores/detail.aspx?s=89", "opening_hours": "24/7", "brand": "Hyvee"}, "geometry": {"type": "Point", "coordinates": [-94.4495, 39.2453]}},
{"type": "Feature", "id": "lxs_i3lV88r5iQmzsE0cFUkbYGA=", "properties": {"ref": "1368", "@spider": "hyvee", "addr:full": "101 East Main", "addr:city": "Lamoni", "addr:state": "IA", "addr:postcode": "50140", "name": "Lamoni Clinic Pharmacy Hy-Vee", "phone": " 641-784-6322", "website": "https://www.hy-vee.com/stores/detail.aspx?s=1368", "opening_hours": "24/7", "brand": "Hyvee"}, "geometry": {"type": "Point", "coordinates": [-93.9332, 40.6236]}},
{"type": "Feature", "id": "Wap5ju3LBOuyPST_kWbCqHPD6M8=", "properties": {"ref": "81", "@spider": "hyvee", "addr:full": "720 E Main St", "addr:city": "Lamoni", "addr:state": "IA", "addr:postcode": "50140", "name": "Lamoni Hy-Vee", "phone": " Main (641) 784-6981 - Pharmacy (641) 784-6322", "website": "https://www.hy-vee.com/stores/detail.aspx?s=81", "opening_hours": "24/7", "brand": "Hyvee"}, "geometry": {"type": "Point", "coordinates": [-93.9248, 40.6239]}},
{"type": "Feature", "id": "cH4VMHWIXEy5BkTDPiuyte0h7_Q=", "properties": {"ref": "79", "@spider": "hyvee", "addr:full": "500 North Baltimore Street", "addr:city": "Kirksville", "addr:state": "MO", "addr:postcode": "63501", "name": "Kirksville Hy-Vee", "phone": " 660-665-8335", "website": "https://www.hy-vee.com/stores/detail.aspx?s=79", "opening_hours": "24/7", "brand": "Hyvee"}, "geometry": {"type": "Point", "coordinates": [-92.5719, 40.1983]}},
{"type": "Feature", "id": "8icxO-T-WRBX1tnFuqm1M1ndhgE=", "properties": {"ref": "227", "@spider": "hyvee", "addr:full": "207 Northeast Englewood Road", "addr:city": "Kansas City", "addr:state": "MO", "addr:postcode": "64118", "name": "Kansas City #2 Hy-Vee (Englewood)", "phone": " 816-454-4776", "website": "https://www.hy-vee.com/stores/detail.aspx?s=227", "opening_hours": "24/7", "brand": "Hyvee"}, "geometry": {"type": "Point", "coordinates": [-94.5782, 39.1954]}},
{"type": "Feature", "id": "UBZ8bD5Gcvi2xkgXMFcAM6cssHw=", "properties": {"ref": "76", "@spider": "hyvee", "addr:full": "5750 Merle Hay Road", "addr:city": "Johnston", "addr:state": "IA", "addr:postcode": "50131", "name": "Johnston Hy-Vee", "phone": " 515-270-9045", "website": "https://www.hy-vee.com/stores/detail.aspx?s=76", "opening_hours": "24/7", "brand": "Hyvee"}, "geometry": {"type": "Point", "coordinates": [-93.6991, 41.6649]}},
{"type": "Feature", "id": "Zh8xgPABzfqCtIicU11gKEw4EQI=", "properties": {"ref": "77", "@spider": "hyvee", "addr:full": "8301 N St. Clair Avenue", "addr:city": "Kansas City", "addr:state": "MO", "addr:postcode": "64151", "name": "Kansas City #1 Hy-Vee (Barry Road)", "phone": " 816-505-1000", "website": "https://www.hy-vee.com/stores/detail.aspx?s=77", "opening_hours": "24/7", "brand": "Hyvee"}, "geometry": {"type": "Point", "coordinates": [-94.6468, 39.2469]}},
{"type": "Feature", "id": "eLWio2xsQ0jbxjXLqJXktKbsfk8=", "properties": {"ref": "1002", "@spider": "hyvee", "addr:full": "5330 NW 64th Street", "addr:city": "Kansas City", "addr:state": "MO", "addr:postcode": "64151", "name": "Kansas City #3 Hy-Vee (NW 64th Street)", "phone": " 816-505-1311", "website": "https://www.hy-vee.com/stores/detail.aspx?s=1002", "opening_hours": "24/7", "brand": "Hyvee"}, "geometry": {"type": "Point", "coordinates": [-94.6412, 39.211]}},
{"type": "Feature", "id": "d4qKQF4bP1ZomCHc_-BZE6o89Ss=", "properties": {"ref": "1376", "@spider": "hyvee", "addr:full": "5212 - 3rd Avenue", "addr:city": "Kearney", "addr:state": "NE", "addr:postcode": "68845", "name": "Kearney Hy-Vee", "phone": " 308-236-0020", "website": "https://www.hy-vee.com/stores/detail.aspx?s=1376", "opening_hours": "24/7", "brand": "Hyvee"}, "geometry": {"type": "Point", "coordinates": [-99.0873, 40.7256]}},
{"type": "Feature", "id": "mOwuhsGRjVBQumQXv9FokfsAwT0=", "properties": {"ref": "2048", "@spider": "hyvee", "addr:full": "19 2nd Ave. NW", "addr:city": "Kasson", "addr:state": "MN", "addr:postcode": "55944", "name": "Kasson Hy-Vee", "phone": " 507-634-2731", "website": "https://www.hy-vee.com/stores/detail.aspx?s=2048", "opening_hours": "24/7", "brand": "Hyvee"}, "geometry": {"type": "Point", "coordinates": [-92.7517, 44.0304]}},
{"type": "Feature", "id": "sXJzoNrXgCdVB1dQcCqdQzPXNlE=", "properties": {"ref": "74", "@spider": "hyvee", "addr:full": "632 S Oak Street", "addr:city": "Iowa Falls", "addr:state": "IA", "addr:postcode": "50126", "name": "Iowa Falls Hy-Vee", "phone": " 641-648-4644", "website": "https://www.hy-vee.com/stores/detail.aspx?s=74", "opening_hours": "24/7", "brand": "Hyvee"}, "geometry": {"type": "Point", "coordinates": [-93.2618, 42.5087]}},
{"type": "Feature", "id": "ecp2f8gSz3v89ZlGH9cMLpTqvy4=", "properties": {"ref": "72", "@spider": "hyvee", "addr:full": "812 South First Avenue", "addr:city": "Iowa City", "addr:state": "IA", "addr:postcode": "52245", "name": "Iowa City #2 Hy-Vee (Eastside)", "phone": " 319-338-9758", "website": "https://www.hy-vee.com/stores/detail.aspx?s=72", "opening_hours": "24/7", "brand": "Hyvee"}, "geometry": {"type": "Point", "coordinates": [-91.5018, 41.6514]}},
{"type": "Feature", "id": "kXnsyGQ6j5vweeItjUXC3wlJkBg=", "properties": {"ref": "75", "@spider": "hyvee", "addr:full": "3721 West Truman Boulevard", "addr:city": "Jefferson City", "addr:state": "MO", "addr:postcode": "65109", "name": "Jefferson City Hy-Vee", "phone": " 573-893-2505", "website": "https://www.hy-vee.com/stores/detail.aspx?s=75", "opening_hours": "24/7", "brand": "Hyvee"}, "geometry": {"type": "Point", "coordinates": [-92.2559, 38.5859]}},
{"type": "Feature", "id": "KZhDbae_DzRVmxAXlG-gHsMQ1xI=", "properties": {"ref": "202", "@spider": "hyvee", "addr:full": "310 North 1st Avenue", "addr:city": "Iowa City", "addr:state": "IA", "addr:postcode": "52245", "name": "Iowa City Hy-Vee Drugstore", "phone": " 319-337-6424", "website": "https://www.hy-vee.com/stores/detail.aspx?s=202", "opening_hours": "24/7", "brand": "Hyvee"}, "geometry": {"type": "Point", "coordinates": [-91.5017, 41.665]}},
{"type": "Feature", "id": "luWu6Bec1h3klZzA4n-rlJgus4w=", "properties": {"ref": "101", "@spider": "hyvee", "addr:full": "1217 South Main St", "addr:city": "Maryville", "addr:state": "MO", "addr:postcode": "64468", "name": "Maryville Hy-Vee", "phone": " 660-582-2191", "website": "https://www.hy-vee.com/stores/detail.aspx?s=101", "opening_hours": "24/7", "brand": "Hyvee"}, "geometry": {"type": "Point", "coordinates": [-94.8736, 40.3337]}},
{"type": "Feature", "id": "wVGkEBMNzEzr8daGhT3iK21rgnk=", "properties": {"ref": "1517", "@spider": "hyvee", "addr:full": "16150 Pilot Knob Road", "addr:city": "Lakeville", "addr:state": "MN", "addr:postcode": "55044", "name": "Lakeville Hy-Vee", "phone": " 952-423-9340", "website": "https://www.hy-vee.com/stores/detail.aspx?s=1517", "opening_hours": "24/7", "brand": "Hyvee"}, "geometry": {"type": "Point", "coordinates": [-93.1754, 44.7151]}},
{"type": "Feature", "id": "AbGWcDa7by_pymu_1LWtFOrj5Q0=", "properties": {"ref": "71", "@spider": "hyvee", "addr:full": "1720 Waterfront Drive", "addr:city": "Iowa City", "addr:state": "IA", "addr:postcode": "52240", "name": "Iowa City #1 Hy-Vee (Waterfront)", "phone": " 319-354-7601", "website": "https://www.hy-vee.com/stores/detail.aspx?s=71", "opening_hours": "24/7", "brand": "Hyvee"}, "geometry": {"type": "Point", "coordinates": [-91.5308, 41.6433]}},
{"type": "Feature", "id": "z_pH9pZo-rHMqnfDoEWgcj_rIM4=", "properties": {"ref": "2170", "@spider": "hyvee", "addr:full": "17380 Cedar Ave.", "addr:city": "Lakeville", "addr:state": "MN", "addr:postcode": "55044", "name": "Lakeville Fast & Fresh Hy-Vee", "phone": " (952) 997-2661", "website": "https://www.hy-vee.com/stores/detail.aspx?s=2170", "opening_hours": "24/7", "brand": "Hyvee"}, "geometry": {"type": "Point", "coordinates": [-93.2196, 44.6966]}},
{"type": "Feature", "id": "u1w30u_eyOBwP3a2OuQ_Jhtvr78=", "properties": {"ref": "97", "@spider": "hyvee", "addr:full": "2010 Adams Street", "addr:city": "Mankato", "addr:state": "MN", "addr:postcode": "56001", "name": "Mankato #2 Hy-Vee (Hilltop)", "phone": " 507-625-9070", "website": "https://www.hy-vee.com/stores/detail.aspx?s=97", "opening_hours": "24/7", "brand": "Hyvee"}, "geometry": {"type": "Point", "coordinates": [-93.9473, 44.1701]}},
{"type": "Feature", "id": "BSZn4lwS8-WJUgEyxh6UNtUxfag=", "properties": {"ref": "73", "@spider": "hyvee", "addr:full": "1125 North Dodge Street", "addr:city": "Iowa City", "addr:state": "IA", "addr:postcode": "52245", "name": "Iowa City #3 Hy-Vee (North Dodge Street)", "phone": " 319-354-9223", "website": "https://www.hy-vee.com/stores/detail.aspx?s=73", "opening_hours": "24/7", "brand": "Hyvee"}, "geometry": {"type": "Point", "coordinates": [-91.5184, 41.6759]}},
{"type": "Feature", "id": "zz3PypxoVAwdVeY29f0LqaWlOmQ=", "properties": {"ref": "96", "@spider": "hyvee", "addr:full": "410 South Riverfront Drive", "addr:city": "Mankato", "addr:state": "MN", "addr:postcode": "56001", "name": "Mankato #1 Hy-Vee (Riverfront)", "phone": " 507-625-1107", "website": "https://www.hy-vee.com/stores/detail.aspx?s=96", "opening_hours": "24/7", "brand": "Hyvee"}, "geometry": {"type": "Point", "coordinates": [-94.0068, 44.1649]}},
{"type": "Feature", "id": "eQ_jFjgIEhcXOGoCTwTBDuiuOoI=", "properties": {"ref": "68", "@spider": "hyvee", "addr:full": "611 - 10th Avenue North", "addr:city": "Humboldt", "addr:state": "IA", "addr:postcode": "50548", "name": "Humboldt Hy-Vee", "phone": " 515-332-1498", "website": "https://www.hy-vee.com/stores/detail.aspx?s=68", "opening_hours": "24/7", "brand": "Hyvee"}, "geometry": {"type": "Point", "coordinates": [-94.2168, 42.7318]}},
{"type": "Feature", "id": "Tbo95zZqO-tAwhtGeBo81qxKF3U=", "properties": {"ref": "3945", "@spider": "hyvee", "addr:full": "1975 Three Elms Rd", "addr:city": "Independence", "addr:state": "IA", "addr:postcode": "50644", "name": "Independence Dollar Fresh Hy-Vee", "phone": " 319-332-1676", "website": "https://www.hy-vee.com/stores/detail.aspx?s=3945", "opening_hours": "24/7", "brand": "Hyvee"}, "geometry": {"type": "Point", "coordinates": [-91.8869, 42.4566]}},
{"type": "Feature", "id": "Lv4yOns9tCHOqMxqIIC8d2nDJg8=", "properties": {"ref": "80", "@spider": "hyvee", "addr:full": "809 West Rock Island Street", "addr:city": "Knoxville", "addr:state": "IA", "addr:postcode": "50138", "name": "Knoxville Hy-Vee", "phone": " 641-842-4717/641-842-2922", "website": "https://www.hy-vee.com/stores/detail.aspx?s=80", "opening_hours": "24/7", "brand": "Hyvee"}, "geometry": {"type": "Point", "coordinates": [-93.1068, 41.3254]}},
{"type": "Feature", "id": "IOswQj_Tl78oxuodjMegrqp9lAE=", "properties": {"ref": "203", "@spider": "hyvee", "addr:full": "106 W Washington Street", "addr:city": "Jefferson", "addr:state": "IA", "addr:postcode": "50129", "name": "Jefferson Hy-Vee", "phone": " 515-386-4153", "website": "https://www.hy-vee.com/stores/detail.aspx?s=203", "opening_hours": "24/7", "brand": "Hyvee"}, "geometry": {"type": "Point", "coordinates": [-94.375, 42.0153]}},
{"type": "Feature", "id": "xRav8qI4SPPRKmvblOfEtx02N8g=", "properties": {"ref": "3843", "@spider": "hyvee", "addr:full": "201 E. Willow Street", "addr:city": "Harrisburg", "addr:state": "SD", "addr:postcode": "57032", "name": "Harrisburg Dollar Fresh Hy-Vee", "phone": " 605-213-2222", "website": "https://www.hy-vee.com/stores/detail.aspx?s=3843", "opening_hours": "24/7", "brand": "Hyvee"}, "geometry": {"type": "Point", "coordinates": [-96.7004, 43.4314]}},
{"type": "Feature", "id": "Www5MAzdPt7vALb0OrEkbi1hRpo=", "properties": {"ref": "69", "@spider": "hyvee", "addr:full": "1525 East 23rd Street South", "addr:city": "Independence", "addr:state": "MO", "addr:postcode": "64055", "name": "Independence #1 Hy-Vee (East 23rd Street)", "phone": " 816-836-1177", "website": "https://www.hy-vee.com/stores/detail.aspx?s=69", "opening_hours": "24/7", "brand": "Hyvee"}, "geometry": {"type": "Point", "coordinates": [-94.3946, 39.0784]}},
{"type": "Feature", "id": "QZLr6YWBUlMPCdGG4Ftc7K6pYFM=", "properties": {"ref": "78", "@spider": "hyvee", "addr:full": "3111 Main Street", "addr:city": "Keokuk", "addr:state": "IA", "addr:postcode": "52632", "name": "Keokuk Hy-Vee", "phone": " 319-524-2902", "website": "https://www.hy-vee.com/stores/detail.aspx?s=78", "opening_hours": "24/7", "brand": "Hyvee"}, "geometry": {"type": "Point", "coordinates": [-91.4033, 40.4151]}},
{"type": "Feature", "id": "K_0YWyVAWtsXoX0I7v2NN66mTUU=", "properties": {"ref": "3583", "@spider": "hyvee", "addr:full": "304 SD-38", "addr:city": "Hartford", "addr:state": "SD", "addr:postcode": "57033", "name": "Hartford Clinic Pharmacy Hy-Vee", "phone": " 605-528-2000", "website": "https://www.hy-vee.com/stores/detail.aspx?s=3583", "opening_hours": "24/7", "brand": "Hyvee"}, "geometry": {"type": "Point", "coordinates": [-96.9437, 43.6303]}},
{"type": "Feature", "id": "EF7Mw5FnLUZ4Jh1qu0mNF-LwGPs=", "properties": {"ref": "506", "@spider": "hyvee", "addr:full": "115 Wilmar Avenue", "addr:city": "Grand Island", "addr:state": "NE", "addr:postcode": "68803", "name": "Grand Island Hy-Vee", "phone": " 308-381-3678", "website": "https://www.hy-vee.com/stores/detail.aspx?s=506", "opening_hours": "24/7", "brand": "Hyvee"}, "geometry": {"type": "Point", "coordinates": [-98.3823, 40.918]}},
{"type": "Feature", "id": "EeKYy-x06QTKLnHO0PgR-qlWQWc=", "properties": {"ref": "66", "@spider": "hyvee", "addr:full": "320 West St S", "addr:city": "Grinnell", "addr:state": "IA", "addr:postcode": "50112", "name": "Grinnell Hy-Vee", "phone": " 641-236-6584", "website": "https://www.hy-vee.com/stores/detail.aspx?s=66", "opening_hours": "24/7", "brand": "Hyvee"}, "geometry": {"type": "Point", "coordinates": [-92.7269, 41.7347]}},
{"type": "Feature", "id": "qRtm1XHGesDGgu-BmVTxYp6FCOQ=", "properties": {"ref": "510", "@spider": "hyvee", "addr:full": "303 S. Highway 69, Suite B", "addr:city": "Huxley", "addr:state": "IA", "addr:postcode": "50124", "name": "Huxley Hy-Vee Clinic Pharmacy", "phone": " 515-597-4100", "website": "https://www.hy-vee.com/stores/detail.aspx?s=510", "opening_hours": "24/7", "brand": "Hyvee"}, "geometry": {"type": "Point", "coordinates": [-93.6007, 41.8943]}},
{"type": "Feature", "id": "fwZCNZHk_2fldT5afmxWP-UCDdc=", "properties": {"ref": "1378", "@spider": "hyvee", "addr:full": "409 S. Locust", "addr:city": "Glenwood", "addr:state": "IA", "addr:postcode": "51534", "name": "Glenwood Hy-Vee Clinic Pharmacy", "phone": " 712-527-4006", "website": "https://www.hy-vee.com/stores/detail.aspx?s=1378", "opening_hours": "24/7", "brand": "Hyvee"}, "geometry": {"type": "Point", "coordinates": [-95.7441, 41.0422]}},
{"type": "Feature", "id": "3UQ8rIHJz6ii0XGqjZdx4EdAoW8=", "properties": {"ref": "67", "@spider": "hyvee", "addr:full": "2003 Chatburn Ave", "addr:city": "Harlan", "addr:state": "IA", "addr:postcode": "51537", "name": "Harlan Hy-Vee", "phone": " 712-755-2154", "website": "https://www.hy-vee.com/stores/detail.aspx?s=67", "opening_hours": "24/7", "brand": "Hyvee"}, "geometry": {"type": "Point", "coordinates": [-95.3366, 41.6461]}},
{"type": "Feature", "id": "gCngPtwjfbkoW6-8BQnnZe3nmts=", "properties": {"ref": "228", "@spider": "hyvee", "addr:full": "4545 South Noland Road", "addr:city": "Independence", "addr:state": "MO", "addr:postcode": "64055", "name": "Independence #2 Hy-Vee (Noland Road)", "phone": " 816-478-6557", "website": "https://www.hy-vee.com/stores/detail.aspx?s=228", "opening_hours": "24/7", "brand": "Hyvee"}, "geometry": {"type": "Point", "coordinates": [-94.4154, 39.0383]}},
{"type": "Feature", "id": "BZdXaeSzOcHi7-w-ghq6pdS9Vys=", "properties": {"ref": "2943", "@spider": "hyvee", "addr:full": "3225 10th Street E", "addr:city": "Glencoe", "addr:state": "MN", "addr:postcode": "55336", "name": "Glencoe Dollar Fresh Hy-Vee", "phone": " 320-864-3030", "website": "https://www.hy-vee.com/stores/detail.aspx?s=2943", "opening_hours": "24/7", "brand": "Hyvee"}, "geometry": {"type": "Point", "coordinates": [-94.1211, 44.7694]}},
{"type": "Feature", "id": "NZ3RZQp57KhJL4yHsIlrprXJLeE=", "properties": {"ref": "3746", "@spider": "hyvee", "addr:full": "351 NE Gateway Dr.", "addr:city": "Grimes", "addr:state": "IA", "addr:postcode": "50111", "name": "Grimes Hy-Vee", "phone": " 515-224-7730", "website": "https://www.hy-vee.com/stores/detail.aspx?s=3746", "opening_hours": "24/7", "brand": "Hyvee"}, "geometry": {"type": "Point", "coordinates": [-93.7788, 41.6866]}},
{"type": "Feature", "id": "Akk1dblj140Y3_bTCjLO1ad9yQY=", "properties": {"ref": "59", "@spider": "hyvee", "addr:full": "840 East 23rd Street", "addr:city": "Fremont", "addr:state": "NE", "addr:postcode": "68025", "name": "Fremont Hy-Vee", "phone": " 402-727-6717", "website": "https://www.hy-vee.com/stores/detail.aspx?s=59", "opening_hours": "24/7", "brand": "Hyvee"}, "geometry": {"type": "Point", "coordinates": [-96.4867, 41.4515]}},
{"type": "Feature", "id": "2tUt_DJX1adkXKbv1qyToFm1c0M=", "properties": {"ref": "64", "@spider": "hyvee", "addr:full": "7117 North Prospect Avenue", "addr:city": "Gladstone", "addr:state": "MO", "addr:postcode": "64119", "name": "Gladstone Hy-Vee", "phone": " 816-452-6500", "website": "https://www.hy-vee.com/stores/detail.aspx?s=64", "opening_hours": "24/7", "brand": "Hyvee"}, "geometry": {"type": "Point", "coordinates": [-94.5483, 39.2225]}},
{"type": "Feature", "id": "Zjy5U-0t-Uj4D-MUUgfCxW0J1iw=", "properties": {"ref": "65", "@spider": "hyvee", "addr:full": "111 East 2nd Street", "addr:city": "Grant City", "addr:state": "MO", "addr:postcode": "64456", "name": "Grant City Hy-Vee", "phone": " 660-564-3712", "website": "https://www.hy-vee.com/stores/detail.aspx?s=65", "opening_hours": "24/7", "brand": "Hyvee"}, "geometry": {"type": "Point", "coordinates": [-94.4069, 40.4875]}},
{"type": "Feature", "id": "KfP5flm0nZp-YAwox4y5X_BmuoM=", "properties": {"ref": "2892", "@spider": "hyvee", "addr:full": "808 4th Street SE", "addr:city": "Hampton", "addr:state": "IA", "addr:postcode": "50441", "name": "Hampton Dollar Fresh Hy-Vee", "phone": " 641-456-3400", "website": "https://www.hy-vee.com/stores/detail.aspx?s=2892", "opening_hours": "24/7", "brand": "Hyvee"}, "geometry": {"type": "Point", "coordinates": [-93.2011, 42.7342]}},
{"type": "Feature", "id": "jms1RyEL0KQiiX6u7ggXaFaQL_w=", "properties": {"ref": "70", "@spider": "hyvee", "addr:full": "910 N Jefferson Way", "addr:city": "Indianola", "addr:state": "IA", "addr:postcode": "50125", "name": "Indianola Hy-Vee", "phone": " 515-961-5329", "website": "https://www.hy-vee.com/stores/detail.aspx?s=70", "opening_hours": "24/7", "brand": "Hyvee"}, "geometry": {"type": "Point", "coordinates": [-93.5581, 41.3683]}},
{"type": "Feature", "id": "w4Y7ijbuYzfLqAIkkVu8tpQzEJY=", "properties": {"ref": "2034", "@spider": "hyvee", "addr:full": "315 US Hwy 69", "addr:city": "Forest City", "addr:state": "IA", "addr:postcode": "50436", "name": "Forest City Hy-Vee", "phone": " 641-585-3775", "website": "https://www.hy-vee.com/stores/detail.aspx?s=2034", "opening_hours": "24/7", "brand": "Hyvee"}, "geometry": {"type": "Point", "coordinates": [-93.6333, 43.2659]}},
{"type": "Feature", "id": "T6OxulSRV0MI0UnRHw5sZ5V_Epc=", "properties": {"ref": "1342", "@spider": "hyvee", "addr:full": "2920 Fitchrona Road", "addr:city": "Fitchburg", "addr:state": "WI", "addr:postcode": "53719", "name": "Fitchburg Hy-Vee", "phone": " 608-273-5120", "website": "https://www.hy-vee.com/stores/detail.aspx?s=1342", "opening_hours": "24/7", "brand": "Hyvee"}, "geometry": {"type": "Point", "coordinates": [-89.4796, 43.0136]}},
{"type": "Feature", "id": "1UfEExO1BnlIRPhcwZcKH_u8odU=", "properties": {"ref": "57", "@spider": "hyvee", "addr:full": "1300 West Burlington Avenue", "addr:city": "Fairfield", "addr:state": "IA", "addr:postcode": "52556", "name": "Fairfield Hy-Vee", "phone": " 641-472-4119", "website": "https://www.hy-vee.com/stores/detail.aspx?s=57", "opening_hours": "24/7", "brand": "Hyvee"}, "geometry": {"type": "Point", "coordinates": [-91.9786, 41.0047]}},
{"type": "Feature", "id": "-RiK9gfOXjxQQMY39Zp3iLGEKi8=", "properties": {"ref": "61", "@spider": "hyvee", "addr:full": "2606 Avenue L", "addr:city": "Fort Madison", "addr:state": "IA", "addr:postcode": "52627", "name": "Fort Madison Hy-Vee", "phone": " 319-372-5841", "website": "https://www.hy-vee.com/stores/detail.aspx?s=61", "opening_hours": "24/7", "brand": "Hyvee"}, "geometry": {"type": "Point", "coordinates": [-91.3424, 40.6268]}},
{"type": "Feature", "id": "n2mhO4v8tRJsj51RX2LfQJqXaEQ=", "properties": {"ref": "3461", "@spider": "hyvee", "addr:full": "1300 Stone Street", "addr:city": "Falls City", "addr:state": "NE", "addr:postcode": "68355", "name": "Falls City Dollar Fresh Hy-Vee", "phone": " 402-245-3774", "website": "https://www.hy-vee.com/stores/detail.aspx?s=3461", "opening_hours": "24/7", "brand": "Hyvee"}, "geometry": {"type": "Point", "coordinates": [-95.6037, 40.0581]}},
{"type": "Feature", "id": "E6ad1k33W1jopIB2dEr8USkD47E=", "properties": {"ref": "54", "@spider": "hyvee", "addr:full": "1616  Edgington Avenue", "addr:city": "Eldora", "addr:state": "IA", "addr:postcode": "50627", "name": "Eldora Hy-Vee", "phone": " 641-858-2361", "website": "https://www.hy-vee.com/stores/detail.aspx?s=54", "opening_hours": "24/7", "brand": "Hyvee"}, "geometry": {"type": "Point", "coordinates": [-93.1034, 42.3608]}},
{"type": "Feature", "id": "TMCjNvD0ZIYN9KKAHFegb4RpcDE=", "properties": {"ref": "3748", "@spider": "hyvee", "addr:full": "2424 E Clairemont Ave", "addr:city": "Eau Claire", "addr:state": "WI", "addr:postcode": "54701", "name": "Eau Claire Hy-Vee", "phone": " 715-598-9525", "website": "https://www.hy-vee.com/stores/detail.aspx?s=3748", "opening_hours": "24/7", "brand": "Hyvee"}, "geometry": {"type": "Point", "coordinates": [-91.4663, 44.7956]}},
{"type": "Feature", "id": "ywpUiCrsT0o9l5TMk5y9moU8Pvc=", "properties": {"ref": "3620", "@spider": "hyvee", "addr:full": "2308 Clairemont Ave.", "addr:city": "Eau Claire", "addr:state": "WI", "addr:postcode": "54701", "name": "Eau Claire Fast & Fresh Hy-Vee", "phone": " 715-895-8459", "website": "https://www.hy-vee.com/stores/detail.aspx?s=3620", "opening_hours": "24/7", "brand": "Hyvee"}, "geometry": {"type": "Point", "coordinates": [-91.4677, 44.795]}},
{"type": "Feature", "id": "DAsDIlk618bF0nVyvRMx7mxxFqM=", "properties": {"ref": "2033", "@spider": "hyvee", "addr:full": "3402 Main Street", "addr:city": "Emmetsburg", "addr:state": "IA", "addr:postcode": "50536", "name": "Emmetsburg Dollar Fresh Hy-Vee", "phone": " 712-852-2084", "website": "https://www.hy-vee.com/stores/detail.aspx?s=2033", "opening_hours": "24/7", "brand": "Hyvee"}, "geometry": {"type": "Point", "coordinates": [-94.6962, 43.111]}},
{"type": "Feature", "id": "guCJerK47KrAuZ0oIZlHTlZjMrk=", "properties": {"ref": "55", "@spider": "hyvee", "addr:full": "1221 Central Avenue", "addr:city": "Estherville", "addr:state": "IA", "addr:postcode": "51334", "name": "Estherville Hy-Vee", "phone": " 712-362-7246", "website": "https://www.hy-vee.com/stores/detail.aspx?s=55", "opening_hours": "24/7", "brand": "Hyvee"}, "geometry": {"type": "Point", "coordinates": [-94.8286, 43.4021]}},
{"type": "Feature", "id": "9MXRkc6q0JmNI36JCcLGc1dGEFU=", "properties": {"ref": "1518", "@spider": "hyvee", "addr:full": "1500 Central Park Commons Drive", "addr:city": "Eagan", "addr:state": "MN", "addr:postcode": "55121", "name": "Eagan Hy-Vee", "phone": " 651-405-3660", "website": "https://www.hy-vee.com/stores/detail.aspx?s=1518", "opening_hours": "24/7", "brand": "Hyvee"}, "geometry": {"type": "Point", "coordinates": [-93.1714, 44.8361]}},
{"type": "Feature", "id": "ntgj9R1KOCMjWhEtivekZHtfxH4=", "properties": {"ref": "50", "@spider": "hyvee", "addr:full": "4605 Fleur Drive", "addr:city": "Des Moines", "addr:state": "IA", "addr:postcode": "50321", "name": "Des Moines #4 Hy-Vee (Fleur)", "phone": " 515-285-7266", "website": "https://www.hy-vee.com/stores/detail.aspx?s=50", "opening_hours": "24/7", "brand": "Hyvee"}, "geometry": {"type": "Point", "coordinates": [-93.6448, 41.5419]}},
{"type": "Feature", "id": "ss71kGpGfaKF74jkdyHbfa-pdv4=", "properties": {"ref": "46", "@spider": "hyvee", "addr:full": "1426 Broadway", "addr:city": "Denison", "addr:state": "IA", "addr:postcode": "51442", "name": "Denison Hy-Vee", "phone": " 712-263-6151", "website": "https://www.hy-vee.com/stores/detail.aspx?s=46", "opening_hours": "24/7", "brand": "Hyvee"}, "geometry": {"type": "Point", "coordinates": [-95.3535, 42.0168]}},
{"type": "Feature", "id": "-sPJAsEvVBlHZpws9WEph1b381E=", "properties": {"ref": "1559", "@spider": "hyvee", "addr:full": "420 Court Ave", "addr:city": "Des Moines", "addr:state": "IA", "addr:postcode": "50309", "name": "Des Moines #6 Hy-Vee (Court Ave)", "phone": " 515-697-0360", "website": "https://www.hy-vee.com/stores/detail.aspx?s=1559", "opening_hours": "24/7", "brand": "Hyvee"}, "geometry": {"type": "Point", "coordinates": [-93.6234, 41.5849]}},
{"type": "Feature", "id": "rdQ7aX_ZysplbsGFL96Me_WTUdw=", "properties": {"ref": "58", "@spider": "hyvee", "addr:full": "907 South State Street", "addr:city": "Fairmont", "addr:state": "MN", "addr:postcode": "56031", "name": "Fairmont Hy-Vee", "phone": " 507-238-4323", "website": "https://www.hy-vee.com/stores/detail.aspx?s=58", "opening_hours": "24/7", "brand": "Hyvee"}, "geometry": {"type": "Point", "coordinates": [-94.4474, 43.6455]}},
{"type": "Feature", "id": "TKlmOxBgdZb_xVAzWvCm5yoFEFo=", "properties": {"ref": "198", "@spider": "hyvee", "addr:full": "4100 University Avenue", "addr:city": "Des Moines", "addr:state": "IA", "addr:postcode": "50311", "name": "Des Moines Hy-Vee Drugstore", "phone": " 515-633-8603", "website": "https://www.hy-vee.com/stores/detail.aspx?s=198", "opening_hours": "24/7", "brand": "Hyvee"}, "geometry": {"type": "Point", "coordinates": [-93.6731, 41.6002]}},
{"type": "Feature", "id": "Ao_0js4jVqifE0Dxm0TJUtAWgCU=", "properties": {"ref": "2099", "@spider": "hyvee", "addr:full": "255 W Hwy 18", "addr:city": "Garner", "addr:state": "IA", "addr:postcode": "50438", "name": "Garner Hy-Vee", "phone": " 641-923-2883", "website": "https://www.hy-vee.com/stores/detail.aspx?s=2099", "opening_hours": "24/7", "brand": "Hyvee"}, "geometry": {"type": "Point", "coordinates": [-93.6061, 43.1053]}},
{"type": "Feature", "id": "2yjpFmxhnHl6flI60sqcx7mo6vQ=", "properties": {"ref": "2922", "@spider": "hyvee", "addr:full": "1201 12th Ave SE", "addr:city": "Dyersville", "addr:state": "IA", "addr:postcode": "52040", "name": "Dyersville Dollar Fresh Hy-Vee", "phone": " 563-875-2700", "website": "https://www.hy-vee.com/stores/detail.aspx?s=2922", "opening_hours": "24/7", "brand": "Hyvee"}, "geometry": {"type": "Point", "coordinates": [-91.1106, 42.4749]}},
{"type": "Feature", "id": "m2W3n8id3JNe4Qqxq_FY3fjv8cU=", "properties": {"ref": "47", "@spider": "hyvee", "addr:full": "3330 Martin Luther King Jr. Pkwy", "addr:city": "Des Moines", "addr:state": "IA", "addr:postcode": "50310", "name": "Des Moines #1 Hy-Vee (Harding Hills)", "phone": " 515-255-0007", "website": "https://www.hy-vee.com/stores/detail.aspx?s=47", "opening_hours": "24/7", "brand": "Hyvee"}, "geometry": {"type": "Point", "coordinates": [-93.6527, 41.6256]}},
{"type": "Feature", "id": "0iQ5XuTOxs6nAAxcanmJc4zNzBA=", "properties": {"ref": "225", "@spider": "hyvee", "addr:full": "2351 West Locust Street", "addr:city": "Davenport", "addr:state": "IA", "addr:postcode": "52804", "name": "Davenport #5 Hy-Vee (West Locust)", "phone": " 563-324-9948", "website": "https://www.hy-vee.com/stores/detail.aspx?s=225", "opening_hours": "24/7", "brand": "Hyvee"}, "geometry": {"type": "Point", "coordinates": [-90.6122, 41.5376]}},
{"type": "Feature", "id": "G6PZ23_lABDKv69yhxmy2IOcDeg=", "properties": {"ref": "44", "@spider": "hyvee", "addr:full": "2200 West Kimberly Road", "addr:city": "Davenport", "addr:state": "IA", "addr:postcode": "52806", "name": "Davenport #2 Hy-Vee (West Kimberly Road)", "phone": " 563-391-0213", "website": "https://www.hy-vee.com/stores/detail.aspx?s=44", "opening_hours": "24/7", "brand": "Hyvee"}, "geometry": {"type": "Point", "coordinates": [-90.6087, 41.5601]}},
{"type": "Feature", "id": "mYg26dHFxF3kSmNyeSe6sQITE0M=", "properties": {"ref": "2884", "@spider": "hyvee", "addr:full": "22422 Highway 9", "addr:city": "Cresco", "addr:state": "IA", "addr:postcode": "52136", "name": "Cresco Dollar Fresh Hy-Vee", "phone": " 563-547-4169", "website": "https://www.hy-vee.com/stores/detail.aspx?s=2884", "opening_hours": "24/7", "brand": "Hyvee"}, "geometry": {"type": "Point", "coordinates": [-92.1316, 43.3701]}},
{"type": "Feature", "id": "Yzp1FaDgGm54o_QICEDD8bYmZks=", "properties": {"ref": "53", "@spider": "hyvee", "addr:full": "2395 NW Arterial", "addr:city": "Dubuque", "addr:state": "IA", "addr:postcode": "52002", "name": "Dubuque #2 Hy-Vee (Asbury Plaza)", "phone": " 563-583-2199", "website": "https://www.hy-vee.com/stores/detail.aspx?s=53", "opening_hours": "24/7", "brand": "Hyvee"}, "geometry": {"type": "Point", "coordinates": [-90.7412, 42.5153]}},
{"type": "Feature", "id": "p8GftyU3UdwuDpDqBS_7X7i5cKM=", "properties": {"ref": "52", "@spider": "hyvee", "addr:full": "3500 Dodge Street", "addr:city": "Dubuque", "addr:state": "IA", "addr:postcode": "52003", "name": "Dubuque #1 Hy-Vee (Dodge Street)", "phone": " 563-583-5204", "website": "https://www.hy-vee.com/stores/detail.aspx?s=52", "opening_hours": "24/7", "brand": "Hyvee"}, "geometry": {"type": "Point", "coordinates": [-90.7251, 42.4915]}},
{"type": "Feature", "id": "Evtb8L0Nat6Pzwb6-nAmx7wVvH0=", "properties": {"ref": "41", "@spider": "hyvee", "addr:full": "600 Sheldon Street", "addr:city": "Creston", "addr:state": "IA", "addr:postcode": "50801", "name": "Creston Hy-Vee", "phone": " 641-782-7023", "website": "https://www.hy-vee.com/stores/detail.aspx?s=41", "opening_hours": "24/7", "brand": "Hyvee"}, "geometry": {"type": "Point", "coordinates": [-94.3744, 41.0504]}},
{"type": "Feature", "id": "qBgs4-S30MyhJw1BejnuAxKM5T0=", "properties": {"ref": "45", "@spider": "hyvee", "addr:full": "1823 East Kimberly Rd", "addr:city": "Davenport", "addr:state": "IA", "addr:postcode": "52807", "name": "Davenport #3 Hy-Vee (Northgate Mall)", "phone": " 563-359-9323", "website": "https://www.hy-vee.com/stores/detail.aspx?s=45", "opening_hours": "24/7", "brand": "Hyvee"}, "geometry": {"type": "Point", "coordinates": [-90.5489, 41.5565]}},
{"type": "Feature", "id": "zj5K5hN9seP9RxC50oBBIsvJfwI=", "properties": {"ref": "51", "@spider": "hyvee", "addr:full": "1107 E Army Post Road", "addr:city": "Des Moines", "addr:state": "IA", "addr:postcode": "50315", "name": "Des Moines #5 Hy-Vee (Southridge)", "phone": " 515-285-6394", "website": "https://www.hy-vee.com/stores/detail.aspx?s=51", "opening_hours": "24/7", "brand": "Hyvee"}, "geometry": {"type": "Point", "coordinates": [-93.6035, 41.5263]}},
{"type": "Feature", "id": "Y1JBFtRdLCsi2ZGF7mk6846HauA=", "properties": {"ref": "60", "@spider": "hyvee", "addr:full": "115 South 29th Street", "addr:city": "Fort Dodge", "addr:state": "IA", "addr:postcode": "50501", "name": "Fort Dodge Hy-Vee", "phone": " 515-573-4105", "website": "https://www.hy-vee.com/stores/detail.aspx?s=60", "opening_hours": "24/7", "brand": "Hyvee"}, "geometry": {"type": "Point", "coordinates": [-94.1581, 42.5052]}},
{"type": "Feature", "id": "lsLKkQoQV6-6H-3YMgMLAP4MfCg=", "properties": {"ref": "43", "@spider": "hyvee", "addr:full": "3019 Rockingham Road", "addr:city": "Davenport", "addr:state": "IA", "addr:postcode": "52802", "name": "Davenport #1 Hy-Vee (Rockingham Road)", "phone": " 563-322-0132", "website": "https://www.hy-vee.com/stores/detail.aspx?s=43", "opening_hours": "24/7", "brand": "Hyvee"}, "geometry": {"type": "Point", "coordinates": [-90.6202, 41.5105]}},
{"type": "Feature", "id": "9qVHJ6byacFdTgTwuVsOC4gzZXw=", "properties": {"ref": "1976", "@spider": "hyvee", "addr:full": "621 5th Street", "addr:city": "Durant", "addr:state": "IA", "addr:postcode": "52747", "name": "Durant Pharmacy Clinic Hy-Vee", "phone": " 563-785-4930", "website": "https://www.hy-vee.com/stores/detail.aspx?s=1976", "opening_hours": "24/7", "brand": "Hyvee"}, "geometry": {"type": "Point", "coordinates": [-90.9106, 41.6007]}},
{"type": "Feature", "id": "nwX2G6kOB2jd0dqbS8MMOadqMrI=", "properties": {"ref": "223", "@spider": "hyvee", "addr:full": "4064 East 53rd Street", "addr:city": "Davenport", "addr:state": "IA", "addr:postcode": "52807", "name": "Davenport #4 Hy-Vee (East 53rd)", "phone": " 563-355-5540", "website": "https://www.hy-vee.com/stores/detail.aspx?s=223", "opening_hours": "24/7", "brand": "Hyvee"}, "geometry": {"type": "Point", "coordinates": [-90.5211, 41.5749]}},
{"type": "Feature", "id": "T9xYKXPikAui8L7oRhnfLZgf0pQ=", "properties": {"ref": "2521", "@spider": "hyvee", "addr:full": "3200 Kimberly Road", "addr:city": "Davenport", "addr:state": "IA", "addr:postcode": "52807", "name": "Davenport Fast & Fresh Hy-Vee", "phone": " (563) 359-4258", "website": "https://www.hy-vee.com/stores/detail.aspx?s=2521", "opening_hours": "24/7", "brand": "Hyvee"}, "geometry": {"type": "Point", "coordinates": [-90.5267, 41.5539]}},
{"type": "Feature", "id": "mYAb8R_FiaXog5OjcM4RH12Pf5w=", "properties": {"ref": "235", "@spider": "hyvee", "addr:full": "400 South Locust", "addr:city": "Dubuque", "addr:state": "IA", "addr:postcode": "52003", "name": "Dubuque #3 Hy-Vee (Locust Street)", "phone": " 563-583-6148", "website": "https://www.hy-vee.com/stores/detail.aspx?s=235", "opening_hours": "24/7", "brand": "Hyvee"}, "geometry": {"type": "Point", "coordinates": [-90.6642, 42.4875]}},
{"type": "Feature", "id": "sGQgmZA2tB_mxVBdknk65g1BafE=", "properties": {"ref": "49", "@spider": "hyvee", "addr:full": "3221 SE 14th St", "addr:city": "Des Moines", "addr:state": "IA", "addr:postcode": "50320", "name": "Des Moines #3 Hy-Vee (Park Avenue)", "phone": " 515-243-7271", "website": "https://www.hy-vee.com/stores/detail.aspx?s=49", "opening_hours": "24/7", "brand": "Hyvee"}, "geometry": {"type": "Point", "coordinates": [-93.5967, 41.555]}},
{"type": "Feature", "id": "76x0styqa2BKEhjY8idDhFJrjlc=", "properties": {"ref": "48", "@spider": "hyvee", "addr:full": "2540 East Euclid Ave", "addr:city": "Des Moines", "addr:state": "IA", "addr:postcode": "50317", "name": "Des Moines #2 Hy-Vee (East Euclid)", "phone": " 515-262-0640", "website": "https://www.hy-vee.com/stores/detail.aspx?s=48", "opening_hours": "24/7", "brand": "Hyvee"}, "geometry": {"type": "Point", "coordinates": [-93.5696, 41.6277]}},
{"type": "Feature", "id": "HoNtjTDx_XbPVHYjdglbuiUVTcc=", "properties": {"ref": "42", "@spider": "hyvee", "addr:full": "1745 Madison Avenue", "addr:city": "Council Bluffs", "addr:state": "IA", "addr:postcode": "51503", "name": "Council Bluffs #2 Hy-Vee (Madison Ave.)", "phone": " 712-322-9260", "website": "https://www.hy-vee.com/stores/detail.aspx?s=42", "opening_hours": "24/7", "brand": "Hyvee"}, "geometry": {"type": "Point", "coordinates": [-95.8273, 41.2448]}},
{"type": "Feature", "id": "nqHsTduNRw8BC4hWPrTL9HTubKU=", "properties": {"ref": "40", "@spider": "hyvee", "addr:full": "2323 W. Broadway", "addr:city": "Council Bluffs", "addr:state": "IA", "addr:postcode": "51501", "name": "Council Bluffs #1 Hy-Vee (West Broadway)", "phone": " 712-328-9792", "website": "https://www.hy-vee.com/stores/detail.aspx?s=40", "opening_hours": "24/7", "brand": "Hyvee"}, "geometry": {"type": "Point", "coordinates": [-95.879, 41.2613]}},
{"type": "Feature", "id": "wO7zSiZK4iJNt0sBiG8Jt_ly4v4=", "properties": {"ref": "1881", "@spider": "hyvee", "addr:full": "3285 Crosspark Road", "addr:city": "Coralville", "addr:state": "IA", "addr:postcode": "52241", "name": "Coralville #2 Hy-Vee (Crosspark Road)", "phone": " 319-665-2220", "website": "https://www.hy-vee.com/stores/detail.aspx?s=1881", "opening_hours": "24/7", "brand": "Hyvee"}, "geometry": {"type": "Point", "coordinates": [-91.6063, 41.721]}},
{"type": "Feature", "id": "bvKD6tiGg35ZIsT52kud5p7WovA=", "properties": {"ref": "550", "@spider": "hyvee", "addr:full": "405 E. Nifong Boulevard", "addr:city": "Columbia", "addr:state": "MO", "addr:postcode": "65201", "name": "Columbia #2 Hy-Vee (Rock Bridge)", "phone": " 573-442-8595", "website": "https://www.hy-vee.com/stores/detail.aspx?s=550", "opening_hours": "24/7", "brand": "Hyvee"}, "geometry": {"type": "Point", "coordinates": [-92.3338, 38.9114]}},
{"type": "Feature", "id": "vLjXKhYLHAb9xyOKb_yjfMEfq6M=", "properties": {"ref": "36", "@spider": "hyvee", "addr:full": "3010 23rd Street", "addr:city": "Columbus", "addr:state": "NE", "addr:postcode": "68601", "name": "Columbus Hy-Vee", "phone": " 402-563-4524", "website": "https://www.hy-vee.com/stores/detail.aspx?s=36", "opening_hours": "24/7", "brand": "Hyvee"}, "geometry": {"type": "Point", "coordinates": [-97.3635, 41.4389]}},
{"type": "Feature", "id": "FUr1mgSiDRektOqV3J16FyhqKls=", "properties": {"ref": "710", "@spider": "hyvee", "addr:full": "25 Conley Road", "addr:city": "Columbia", "addr:state": "MO", "addr:postcode": "65201", "name": "Columbia #3 Hy-Vee (Conley Road)", "phone": " 573-442-7703", "website": "https://www.hy-vee.com/stores/detail.aspx?s=710", "opening_hours": "24/7", "brand": "Hyvee"}, "geometry": {"type": "Point", "coordinates": [-92.2959, 38.9496]}},
{"type": "Feature", "id": "9fzB4lbWy-uK-BYjDdqg_hsTmj4=", "properties": {"ref": "2954", "@spider": "hyvee", "addr:full": "915 Short St #107", "addr:city": "Decorah", "addr:state": "IA", "addr:postcode": "52101", "name": "Decorah Hy-Vee", "phone": " 563-387-6010", "website": "https://www.hy-vee.com/stores/detail.aspx?s=2954", "opening_hours": "24/7", "brand": "Hyvee"}, "geometry": {"type": "Point", "coordinates": [-91.7969, 43.2894]}},
{"type": "Feature", "id": "vQ1fhUb2S615HtGe47HssctQAJ4=", "properties": {"ref": "37", "@spider": "hyvee", "addr:full": "1914 8th Street", "addr:city": "Coralville", "addr:state": "IA", "addr:postcode": "52241", "name": "Coralville #1 Hy-Vee (Lantern Park Plaza)", "phone": " 319-351-5523", "website": "https://www.hy-vee.com/stores/detail.aspx?s=37", "opening_hours": "24/7", "brand": "Hyvee"}, "geometry": {"type": "Point", "coordinates": [-91.592, 41.682]}},
{"type": "Feature", "id": "4lzZONABs_LilmfpjQUajc3Bl-E=", "properties": {"ref": "35", "@spider": "hyvee", "addr:full": "1210 Washington Street", "addr:city": "Chillicothe", "addr:state": "MO", "addr:postcode": "64601", "name": "Chillicothe Hy-Vee", "phone": " 660-646-3638", "website": "https://www.hy-vee.com/stores/detail.aspx?s=35", "opening_hours": "24/7", "brand": "Hyvee"}, "geometry": {"type": "Point", "coordinates": [-93.5539, 39.7986]}},
{"type": "Feature", "id": "prUgeyNENZjeykhO6GMBgoC2-Gs=", "properties": {"ref": "1024", "@spider": "hyvee", "addr:full": "800 N. 2nd Street", "addr:city": "Cherokee", "addr:state": "IA", "addr:postcode": "51012", "name": "Cherokee Hy-Vee Clinic Pharmacy", "phone": " 712-225-6121toll free 1-800-397-6921", "website": "https://www.hy-vee.com/stores/detail.aspx?s=1024", "opening_hours": "24/7", "brand": "Hyvee"}, "geometry": {"type": "Point", "coordinates": [-95.5512, 42.7572]}},
{"type": "Feature", "id": "IXRrtky-Cxhn300SAbcF32Bjo3k=", "properties": {"ref": "31", "@spider": "hyvee", "addr:full": "1300 North 2nd Street", "addr:city": "Cherokee", "addr:state": "IA", "addr:postcode": "51012", "name": "Cherokee Hy-Vee", "phone": " 712-225-4139", "website": "https://www.hy-vee.com/stores/detail.aspx?s=31", "opening_hours": "24/7", "brand": "Hyvee"}, "geometry": {"type": "Point", "coordinates": [-95.5521, 42.7641]}},
{"type": "Feature", "id": "w2wocpBRNebIS_2_Lf72-XeqfB4=", "properties": {"ref": "1615", "@spider": "hyvee", "addr:full": "7280 E Point Douglas Rd S", "addr:city": "Cottage Grove", "addr:state": "MN", "addr:postcode": "55016", "name": "Cottage Grove Hy-Vee", "phone": " 651-458-7000", "website": "https://www.hy-vee.com/stores/detail.aspx?s=1615", "opening_hours": "24/7", "brand": "Hyvee"}, "geometry": {"type": "Point", "coordinates": [-92.9583, 44.8309]}},
{"type": "Feature", "id": "NN7cV6L9UYt4tG3e6JVixbCDsy4=", "properties": {"ref": "32", "@spider": "hyvee", "addr:full": "1200 South 16th Street", "addr:city": "Clarinda", "addr:state": "IA", "addr:postcode": "51632", "name": "Clarinda Hy-Vee", "phone": " 712-542-5142", "website": "https://www.hy-vee.com/stores/detail.aspx?s=32", "opening_hours": "24/7", "brand": "Hyvee"}, "geometry": {"type": "Point", "coordinates": [-95.0378, 40.7267]}},
{"type": "Feature", "id": "wwB02voqiYH2Dp3lmPgyDq-lwdo=", "properties": {"ref": "39", "@spider": "hyvee", "addr:full": "103 E. Jackson St.", "addr:city": "Corydon", "addr:state": "IA", "addr:postcode": "50060", "name": "Corydon Hy-Vee Mainstreet", "phone": " 641-872-1564", "website": "https://www.hy-vee.com/stores/detail.aspx?s=39", "opening_hours": "24/7", "brand": "Hyvee"}, "geometry": {"type": "Point", "coordinates": [-93.3174, 40.7589]}},
{"type": "Feature", "id": "vcJDcWW_T3CocMgBHDZR0frxAIQ=", "properties": {"ref": "56", "@spider": "hyvee", "addr:full": "1920 Grant Street NW", "addr:city": "Faribault", "addr:state": "MN", "addr:postcode": "55021", "name": "Faribault Hy-Vee", "phone": " 507-334-2085", "website": "https://www.hy-vee.com/stores/detail.aspx?s=56", "opening_hours": "24/7", "brand": "Hyvee"}, "geometry": {"type": "Point", "coordinates": [-93.297, 44.2952]}},
{"type": "Feature", "id": "RPQE01a4QHwNqHFGoWnGL9IYJgY=", "properties": {"ref": "1183", "@spider": "hyvee", "addr:full": "625 Davis Avenue", "addr:city": "Corning", "addr:state": "IA", "addr:postcode": "50841", "name": "Corning Clinic Pharmacy Hy-Vee", "phone": " 641-322-3454", "website": "https://www.hy-vee.com/stores/detail.aspx?s=1183", "opening_hours": "24/7", "brand": "Hyvee"}, "geometry": {"type": "Point", "coordinates": [-94.7344, 40.9883]}},
{"type": "Feature", "id": "FbXu1tGESX2e53z7nWM_xjYEnEg=", "properties": {"ref": "231", "@spider": "hyvee", "addr:full": "111 E. Walnut Street", "addr:city": "Columbus Junction", "addr:state": "IA", "addr:postcode": "52738", "name": "Columbus Junction Clinic Pharmacy Hy-Vee", "phone": " 319-728-3144", "website": "https://www.hy-vee.com/stores/detail.aspx?s=231", "opening_hours": "24/7", "brand": "Hyvee"}, "geometry": {"type": "Point", "coordinates": [-91.3606, 41.2799]}},
{"type": "Feature", "id": "P7eOqKkzAOgdxjwgDsRTO0Dz4ms=", "properties": {"ref": "38", "@spider": "hyvee", "addr:full": "300 10th St", "addr:city": "Corning", "addr:state": "IA", "addr:postcode": "50841", "name": "Corning Hy-Vee", "phone": " 641-322-3010", "website": "https://www.hy-vee.com/stores/detail.aspx?s=38", "opening_hours": "24/7", "brand": "Hyvee"}, "geometry": {"type": "Point", "coordinates": [-94.7321, 40.9919]}},
{"type": "Feature", "id": "qBmumjEUnMClDkn3vVNhZp7poCQ=", "properties": {"ref": "30", "@spider": "hyvee", "addr:full": "2001 Court Ave", "addr:city": "Chariton", "addr:state": "IA", "addr:postcode": "50049", "name": "Chariton Hy-Vee", "phone": " 641-774-5051", "website": "https://www.hy-vee.com/stores/detail.aspx?s=30", "opening_hours": "24/7", "brand": "Hyvee"}, "geometry": {"type": "Point", "coordinates": [-93.3253, 41.0147]}},
{"type": "Feature", "id": "KzmeZBs9sR0FsNjOCooh4QIIGPQ=", "properties": {"ref": "21", "@spider": "hyvee", "addr:full": "905 US Highway 30 West", "addr:city": "Carroll", "addr:state": "IA", "addr:postcode": "51401", "name": "Carroll Hy-Vee", "phone": " 712-792-6333", "website": "https://www.hy-vee.com/stores/detail.aspx?s=21", "opening_hours": "24/7", "brand": "Hyvee"}, "geometry": {"type": "Point", "coordinates": [-94.8771, 42.0713]}},
{"type": "Feature", "id": "Qz-qWjnJszTvmG3_L1kbTlz4b8Y=", "properties": {"ref": "34", "@spider": "hyvee", "addr:full": "901 South 4th Street", "addr:city": "Clinton", "addr:state": "IA", "addr:postcode": "52732", "name": "Clinton Hy-Vee", "phone": " 563-243-6162", "website": "https://www.hy-vee.com/stores/detail.aspx?s=34", "opening_hours": "24/7", "brand": "Hyvee"}, "geometry": {"type": "Point", "coordinates": [-90.1931, 41.8364]}},
{"type": "Feature", "id": "gh6XjxnKwevDhPy2bmSp9mD13mQ=", "properties": {"ref": "26", "@spider": "hyvee", "addr:full": "609 North 18th Street", "addr:city": "Centerville", "addr:state": "IA", "addr:postcode": "52544", "name": "Centerville Hy-Vee", "phone": " 641-856-3277", "website": "https://www.hy-vee.com/stores/detail.aspx?s=26", "opening_hours": "24/7", "brand": "Hyvee"}, "geometry": {"type": "Point", "coordinates": [-92.8678, 40.7383]}},
{"type": "Feature", "id": "GTGFFD3d_V905qzghb28t1nU_NI=", "properties": {"ref": "189", "@spider": "hyvee", "addr:full": "1520 6th St SW", "addr:city": "Cedar Rapids", "addr:state": "IA", "addr:postcode": "52404", "name": "Cedar Rapids Hy-Vee Drugstore #1 (Sixth Street Drugstore)", "phone": " 319-363-9606", "website": "https://www.hy-vee.com/stores/detail.aspx?s=189", "opening_hours": "24/7", "brand": "Hyvee"}, "geometry": {"type": "Point", "coordinates": [-91.674, 41.9624]}},
{"type": "Feature", "id": "nAbgE3SxWp37XuM7Nx0_cL5vBS4=", "properties": {"ref": "33", "@spider": "hyvee", "addr:full": "901 Kelly Street", "addr:city": "Charles City", "addr:state": "IA", "addr:postcode": "50616", "name": "Charles City Hy-Vee", "phone": " 641-228-1726", "website": "https://www.hy-vee.com/stores/detail.aspx?s=33", "opening_hours": "24/7", "brand": "Hyvee"}, "geometry": {"type": "Point", "coordinates": [-92.6739, 43.0661]}},
{"type": "Feature", "id": "lf9zoCWfqRXn3829HuR-F6iJrgI=", "properties": {"ref": "23", "@spider": "hyvee", "addr:full": "1843 Johnson Avenue NW", "addr:city": "Cedar Rapids", "addr:state": "IA", "addr:postcode": "52405", "name": "Cedar Rapids #1 Hy-Vee (Johnson Avenue)", "phone": " 319-365-0477", "website": "https://www.hy-vee.com/stores/detail.aspx?s=23", "opening_hours": "24/7", "brand": "Hyvee"}, "geometry": {"type": "Point", "coordinates": [-91.6978, 41.9743]}},
{"type": "Feature", "id": "eL9_u1dIjabkjvy9Eknu1wD1jGc=", "properties": {"ref": "28", "@spider": "hyvee", "addr:full": "3235 Oakland Road NE", "addr:city": "Cedar Rapids", "addr:state": "IA", "addr:postcode": "52402", "name": "Cedar Rapids #5 Hy-Vee (Oakland Road)", "phone": " 319-366-7756", "website": "https://www.hy-vee.com/stores/detail.aspx?s=28", "opening_hours": "24/7", "brand": "Hyvee"}, "geometry": {"type": "Point", "coordinates": [-91.6585, 42.0107]}},
{"type": "Feature", "id": "fDZI8SpS3lkaPrte2og1_AdkrAk=", "properties": {"ref": "220", "@spider": "hyvee", "addr:full": "3100 West Broadway", "addr:city": "Columbia", "addr:state": "MO", "addr:postcode": "65203", "name": "Columbia #1 Hy-Vee (West Broadway)", "phone": " 573-447-0133", "website": "https://www.hy-vee.com/stores/detail.aspx?s=220", "opening_hours": "24/7", "brand": "Hyvee"}, "geometry": {"type": "Point", "coordinates": [-92.3832, 38.9549]}},
{"type": "Feature", "id": "qc5MBvMUsdY9ZM1_Rt04UKkj8Z8=", "properties": {"ref": "24", "@spider": "hyvee", "addr:full": "279 Collins Road NE", "addr:city": "Cedar Rapids", "addr:state": "IA", "addr:postcode": "52402", "name": "Cedar Rapids #2 Hy-Vee (Collins Road)", "phone": " 319-393-8910", "website": "https://www.hy-vee.com/stores/detail.aspx?s=24", "opening_hours": "24/7", "brand": "Hyvee"}, "geometry": {"type": "Point", "coordinates": [-91.6309, 42.0278]}},
{"type": "Feature", "id": "fwYuq2WXJq7csbUWAQz1KQxPP-U=", "properties": {"ref": "3", "@spider": "hyvee", "addr:full": "1500 Highway 169 North", "addr:city": "Algona", "addr:state": "IA", "addr:postcode": "50511", "name": "Algona Hy-Vee", "phone": " 515-295-3540", "website": "https://www.hy-vee.com/stores/detail.aspx?s=3", "opening_hours": "24/7", "brand": "Hyvee"}, "geometry": {"type": "Point", "coordinates": [-94.2356, 43.0811]}},
{"type": "Feature", "id": "yjgaTRIjBGccXvgcqhbMOmYFVFc=", "properties": {"ref": "193", "@spider": "hyvee", "addr:full": "2001 Blairs Ferry Road NE", "addr:city": "Cedar Rapids", "addr:state": "IA", "addr:postcode": "52402", "name": "Cedar Rapids Hy-Vee Drugstore #5 (Blairs Ferry Road Hy-Vee Drugstore)", "phone": " 319-393-0539", "website": "https://www.hy-vee.com/stores/detail.aspx?s=193", "opening_hours": "24/7", "brand": "Hyvee"}, "geometry": {"type": "Point", "coordinates": [-91.6685, 42.0349]}},
{"type": "Feature", "id": "Oq30Oi9xQK9-q6JO9YwU-ghI3Q0=", "properties": {"ref": "19", "@spider": "hyvee", "addr:full": "3140 Agency St", "addr:city": "Burlington", "addr:state": "IA", "addr:postcode": "52601", "name": "Burlington #2 Hy-Vee (Agency Street)", "phone": " 319-753-1616", "website": "https://www.hy-vee.com/stores/detail.aspx?s=19", "opening_hours": "24/7", "brand": "Hyvee"}, "geometry": {"type": "Point", "coordinates": [-91.1431, 40.8149]}},
{"type": "Feature", "id": "Rzucoy8QWqW4qB6yMr1aYQ51YRI=", "properties": {"ref": "2", "@spider": "hyvee", "addr:full": "301 Highway 34 West", "addr:city": "Albia", "addr:state": "IA", "addr:postcode": "52531", "name": "Albia Hy-Vee", "phone": " 641-932-7131", "website": "https://www.hy-vee.com/stores/detail.aspx?s=2", "opening_hours": "24/7", "brand": "Hyvee"}, "geometry": {"type": "Point", "coordinates": [-92.8094, 41.0157]}},
{"type": "Feature", "id": "emHSUaC6imToJYAkJXY7bsdaICY=", "properties": {"ref": "1", "@spider": "hyvee", "addr:full": "703 E. US Highway 136", "addr:city": "Albany", "addr:state": "MO", "addr:postcode": "64402", "name": "Albany Hy-Vee", "phone": " 660-726-5816", "website": "https://www.hy-vee.com/stores/detail.aspx?s=1", "opening_hours": "24/7", "brand": "Hyvee"}, "geometry": {"type": "Point", "coordinates": [-94.3252, 40.2558]}},
{"type": "Feature", "id": "WQG1kMGm8GmFsn4iylaB1Tw9Mnw=", "properties": {"ref": "18", "@spider": "hyvee", "addr:full": "939 Angular Street", "addr:city": "Burlington", "addr:state": "IA", "addr:postcode": "52601", "name": "Burlington #1 Hy-Vee (South)", "phone": " 319-752-3657", "website": "https://www.hy-vee.com/stores/detail.aspx?s=18", "opening_hours": "24/7", "brand": "Hyvee"}, "geometry": {"type": "Point", "coordinates": [-91.1106, 40.8018]}},
{"type": "Feature", "id": "_8VrgRG-8EkHfdiArtYFjfu_aA0=", "properties": {"ref": "25", "@spider": "hyvee", "addr:full": "20 Wilson Avenue SW", "addr:city": "Cedar Rapids", "addr:state": "IA", "addr:postcode": "52404", "name": "Cedar Rapids #3 Hy-Vee (Wilson Avenue)", "phone": " 319-366-2700", "website": "https://www.hy-vee.com/stores/detail.aspx?s=25", "opening_hours": "24/7", "brand": "Hyvee"}, "geometry": {"type": "Point", "coordinates": [-91.6584, 41.956]}},
{"type": "Feature", "id": "26xYRZTqk5HdF2Tb1Bj60YbWXVU=", "properties": {"ref": "22", "@spider": "hyvee", "addr:full": "6301 University Avenue", "addr:city": "Cedar Falls", "addr:state": "IA", "addr:postcode": "50613", "name": "Cedar Falls Hy-Vee (College Square)", "phone": " 319-266-7535", "website": "https://www.hy-vee.com/stores/detail.aspx?s=22", "opening_hours": "24/7", "brand": "Hyvee"}, "geometry": {"type": "Point", "coordinates": [-92.4328, 42.513]}},
{"type": "Feature", "id": "xE_0sPCyktG2rHsH8BO9qWBEubU=", "properties": {"ref": "27", "@spider": "hyvee", "addr:full": "1556 First Avenue NE", "addr:city": "Cedar Rapids", "addr:state": "IA", "addr:postcode": "52402", "name": "Cedar Rapids #4 Hy-Vee (First Avenue)", "phone": " 319-364-4196", "website": "https://www.hy-vee.com/stores/detail.aspx?s=27", "opening_hours": "24/7", "brand": "Hyvee"}, "geometry": {"type": "Point", "coordinates": [-91.6512, 41.9889]}},
{"type": "Feature", "id": "KQuntEuhO9wfSLbUUtPrVUENmZs=", "properties": {"ref": "7", "@spider": "hyvee", "addr:full": "2708 Bridge Avenue", "addr:city": "Albert Lea", "addr:state": "MN", "addr:postcode": "56007", "name": "Albert Lea Hy-Vee", "phone": " 507-377-2257", "website": "https://www.hy-vee.com/stores/detail.aspx?s=7", "opening_hours": "24/7", "brand": "Hyvee"}, "geometry": {"type": "Point", "coordinates": [-93.3588, 43.6843]}}]}