{"type":"FeatureCollection","features":[{"type": "Feature", "id": "ayKavQyLmVRhcUi-zgHH0hHpt74=", "properties": {"ref": "209", "@spider": "ikea_us", "addr:full": "2110 West IKEA Way", "addr:city": "Tempe", "addr:state": "AZ", "addr:postcode": "85284", "addr:country": "US", "name": "Tempe", "website": "https://www.ikea.com/us/en/stores/tempe/", "opening_hours": "Mo-Sa 10:00-09:00; Su 10:00-08:00", "brand": "Ikea"}, "geometry": {"type": "Point", "coordinates": [-111.9701824, 33.3406452]}},
{"type": "Feature", "id": "jzTBVWAzs8bSV83l1V5hHGBF-RQ=", "properties": {"ref": "399", "@spider": "ikea_us", "addr:full": "600 Ikea Way", "addr:city": "Burbank", "addr:state": "CA", "addr:postcode": "91502", "addr:country": "US", "name": "Burbank", "website": "https://www.ikea.com/us/en/stores/burbank/", "opening_hours": "Mo-Su 10:00-09:00", "brand": "Ikea"}, "geometry": {"type": "Point", "coordinates": [-118.303142, 34.174558]}},
{"type": "Feature", "id": "s1pyfhwzoJvYlRCOLPnrR_sVJVc=", "properties": {"ref": "162", "@spider": "ikea_us", "addr:full": "20700 S Avalon Blvd", "addr:city": "Carson", "addr:state": "CA", "addr:postcode": "90746", "addr:country": "US", "name": "Carson", "website": "https://www.ikea.com/us/en/stores/carson/", "opening_hours": "Mo-Su 10:00-09:00", "brand": "Ikea"}, "geometry": {"type": "Point", "coordinates": [-118.2603120803833, 33.84179776428456]}},
{"type": "Feature", "id": "SfqwfYYfWBjpPPvfvbrJ1viHmuw=", "properties": {"ref": "167", "@spider": "ikea_us", "addr:full": "1475 S Coast Dr", "addr:city": "Costa Mesa", "addr:state": "CA", "addr:postcode": "92626", "addr:country": "US", "name": "Costa Mesa", "website": "https://www.ikea.com/us/en/stores/costa-mesa/", "opening_hours": "Mo-Su 10:00-09:00", "brand": "Ikea"}, "geometry": {"type": "Point", "coordinates": [-117.91640996932983, 33.69092406434901]}},
{"type": "Feature", "id": "LxbmkDNtgR9v0csw7T-59N5dH_c=", "properties": {"ref": "413", "@spider": "ikea_us", "addr:full": "848 South Barranca Avenue", "addr:city": "Covina", "addr:state": "CA", "addr:postcode": "91723", "addr:country": "US", "name": "Covina", "website": "https://www.ikea.com/us/en/stores/covina/", "opening_hours": "Mo-Su 10:00-09:00", "brand": "Ikea"}, "geometry": {"type": "Point", "coordinates": [-117.87920236587524, 34.074221611710605]}},
{"type": "Feature", "id": "jFH6YX7KmFSdbn2JA2t0svtdAQw=", "properties": {"ref": "347", "@spider": "ikea_us", "addr:full": "1700 E. Bayshore Road", "addr:city": "East Palo Alto", "addr:state": "CA", "addr:postcode": "94303", "addr:country": "US", "name": "East Palo Alto", "website": "https://www.ikea.com/us/en/stores/east-palo-alto/", "opening_hours": "Mo-Su 10:00-09:00", "brand": "Ikea"}, "geometry": {"type": "Point", "coordinates": [-122.13937399999998, 37.4610567]}},
{"type": "Feature", "id": "gLgVGQuQzNcl7hu24bucMe0Yv6Y=", "properties": {"ref": "165", "@spider": "ikea_us", "addr:full": "4400 Shellmound St", "addr:city": "Emeryville", "addr:state": "CA", "addr:postcode": "94608", "addr:country": "US", "name": "Emeryville", "website": "https://www.ikea.com/us/en/stores/emeryville/", "opening_hours": "Mo-Sa 10:00-09:00; Su 10:00-08:00", "brand": "Ikea"}, "geometry": {"type": "Point", "coordinates": [-122.29233629999999, 37.8310722]}},
{"type": "Feature", "id": "e6iCv0zLQRnfuZlFKP85KmvVdN0=", "properties": {"ref": "166", "@spider": "ikea_us", "addr:full": "2149 Fenton Pkwy", "addr:city": "San Diego", "addr:state": "CA", "addr:postcode": "92108", "addr:country": "US", "name": "San Diego", "website": "https://www.ikea.com/us/en/stores/san-diego/", "opening_hours": "Mo-Fr 10:00-09:00; Sa 09:00-09:00; Su 09:00-08:00", "brand": "Ikea"}, "geometry": {"type": "Point", "coordinates": [-117.12639760000002, 32.7800402]}},
{"type": "Feature", "id": "x3szp6nw6w8AUL9lLNIIHudALZc=", "properties": {"ref": "157", "@spider": "ikea_us", "addr:full": "700 Ikea Ct", "addr:city": "West Sacramento", "addr:state": "CA", "addr:postcode": "95605", "addr:country": "US", "name": "West Sacramento", "website": "https://www.ikea.com/us/en/stores/west-sacramento/", "opening_hours": "Mo-Su 10:00-09:00", "brand": "Ikea"}, "geometry": {"type": "Point", "coordinates": [-121.5535246, 38.5866091]}},
{"type": "Feature", "id": "RjX2iz-Qb2OSc7psNtehfTAEM5U=", "properties": {"ref": "064", "@spider": "ikea_us", "addr:full": "9800 E. IKEA Way", "addr:city": "Centennial", "addr:state": "CO", "addr:postcode": "80112", "addr:country": "US", "name": "Centennial", "website": "https://www.ikea.com/us/en/stores/centennial/", "opening_hours": "Mo-Sa 10:00-08:00; Su 10:00-07:00", "brand": "Ikea"}, "geometry": {"type": "Point", "coordinates": [-104.87504189999999, 39.571952]}},
{"type": "Feature", "id": "1d7FUq-HxUXzzRYFxNORn7dcVbo=", "properties": {"ref": "213", "@spider": "ikea_us", "addr:full": "450 Sargent Dr", "addr:city": "New Haven", "addr:state": "CT", "addr:postcode": "06511", "addr:country": "US", "name": "New Haven", "website": "https://www.ikea.com/us/en/stores/new-haven/", "opening_hours": "Mo-Th 10:00-08:00; Fr-Sa 10:00-09:00; Su 10:00-08:00", "brand": "Ikea"}, "geometry": {"type": "Point", "coordinates": [-72.9198649, 41.2961069]}},
{"type": "Feature", "id": "5vrnI2ihpTz-n-ohyVP5ZjrlsoM=", "properties": {"ref": "537", "@spider": "ikea_us", "addr:full": "7801 Gate Parkway", "addr:city": "Jacksonville", "addr:state": "FL", "addr:postcode": "32256", "addr:country": "US", "name": "Jacksonville", "website": "https://www.ikea.com/us/en/stores/jacksonville/", "opening_hours": "Mo-Sa 10:00-09:00; Su 10:00-08:00", "brand": "Ikea"}, "geometry": {"type": "Point", "coordinates": [-81.655651, 30.332184]}},
{"type": "Feature", "id": "zO0hwP2qJ6nr7Q_ivtTxV1o8rE0=", "properties": {"ref": "327", "@spider": "ikea_us", "addr:full": "1801 NW 117th Ave", "addr:city": "Miami", "addr:state": "FL", "addr:postcode": "33172", "addr:country": "US", "name": "Miami", "website": "https://www.ikea.com/us/en/stores/miami/", "opening_hours": "Mo-Su 10:00-09:00", "brand": "Ikea"}, "geometry": {"type": "Point", "coordinates": [-80.38382109999998, 25.7915476]}},
{"type": "Feature", "id": "k4KRFFm1bn8IecXb3D61wCaIDxE=", "properties": {"ref": "145", "@spider": "ikea_us", "addr:full": "4092 Eastgate Dr", "addr:city": "Orlando", "addr:state": "FL", "addr:postcode": "32839", "addr:country": "US", "name": "Orlando", "website": "https://www.ikea.com/us/en/stores/orlando/", "opening_hours": "Mo-Sa 10:00-09:00; Su 10:00-08:00", "brand": "Ikea"}, "geometry": {"type": "Point", "coordinates": [-81.42728799999998, 28.4830125]}},
{"type": "Feature", "id": "oS9qgApAAJMnKH_o8ts2J7-Iwl0=", "properties": {"ref": "207", "@spider": "ikea_us", "addr:full": "151 NW 136th Ave", "addr:city": "Sunrise", "addr:state": "FL", "addr:postcode": "33325", "addr:country": "US", "name": "Sunrise", "website": "https://www.ikea.com/us/en/stores/sunrise/", "opening_hours": "Mo-Sa 10:00-09:00; Su 10:00-08:00", "brand": "Ikea"}, "geometry": {"type": "Point", "coordinates": [-80.33178680000003, 26.121522]}},
{"type": "Feature", "id": "z7GaJdolmkEUDIVR4YMCe4WSRUc=", "properties": {"ref": "042", "@spider": "ikea_us", "addr:full": "1103 N 22nd St", "addr:city": "Tampa", "addr:state": "FL", "addr:postcode": "33605", "addr:country": "US", "name": "Tampa", "website": "https://www.ikea.com/us/en/stores/tampa/", "opening_hours": "Mo-Sa 10:00-09:00; Su 10:00-08:00", "brand": "Ikea"}, "geometry": {"type": "Point", "coordinates": [-82.43173660000002, 27.9539394]}},
{"type": "Feature", "id": "tPFZQjI3xQI1iNp8ozik4qh7RdM=", "properties": {"ref": "257", "@spider": "ikea_us", "addr:full": "441 16th St NW", "addr:city": "Atlanta", "addr:state": "GA", "addr:postcode": "30363", "addr:country": "US", "name": "Atlanta", "website": "https://www.ikea.com/us/en/stores/atlanta/", "opening_hours": "Mo-Su 10:00-09:00", "brand": "Ikea"}, "geometry": {"type": "Point", "coordinates": [-84.40527850000001, 33.7887958]}},
{"type": "Feature", "id": "aj8OGbD9Amjd2LBQeKIkRbjKDLU=", "properties": {"ref": "170", "@spider": "ikea_us", "addr:full": "750 E Boughton Rd", "addr:city": "Bolingbrook", "addr:state": "IL", "addr:postcode": "60440", "addr:country": "US", "name": "Bolingbrook", "website": "https://www.ikea.com/us/en/stores/bolingbrook/", "opening_hours": "Mo-Sa 10:00-09:00; Su 10:00-08:00", "brand": "Ikea"}, "geometry": {"type": "Point", "coordinates": [-88.03783240000001, 41.7279305]}},
{"type": "Feature", "id": "LdTC0PLBVK54VET_HQ0glK75Isk=", "properties": {"ref": "210", "@spider": "ikea_us", "addr:full": "1800 McConnor Pkwy", "addr:city": "Schaumburg", "addr:state": "IL", "addr:postcode": "60173", "addr:country": "US", "name": "Schaumburg", "website": "https://www.ikea.com/us/en/stores/schaumburg/", "opening_hours": "Mo-Sa 10:00-09:00; Su 10:00-08:00", "brand": "Ikea"}, "geometry": {"type": "Point", "coordinates": [-88.03617150000002, 42.0568612]}},
{"type": "Feature", "id": "kVrm1_8VqPMRyOqmEmam5jhlP_s=", "properties": {"ref": "536", "@spider": "ikea_us", "addr:full": "11400 IKEA Way", "addr:city": "Fishers", "addr:state": "IN", "addr:postcode": "32322", "addr:country": "US", "name": "Fishers", "website": "https://www.ikea.com/us/en/stores/fishers/", "opening_hours": "Mo-Sa 10:00-09:00; Su 10:00-08:00", "brand": "Ikea"}, "geometry": {"type": "Point", "coordinates": [-86.01207590000001, 39.954334]}},
{"type": "Feature", "id": "zXV0OsNaooRwllAyNNr0Shvh5kY=", "properties": {"ref": "374", "@spider": "ikea_us", "addr:full": "6000 Ikea Way", "addr:city": "Merriam", "addr:state": "KS", "addr:postcode": "66202", "addr:country": "US", "name": "Merriam", "website": "https://www.ikea.com/us/en/stores/merriam/", "opening_hours": "Mo-Sa 10:00-08:00; Su 10:00-07:00", "brand": "Ikea"}, "geometry": {"type": "Point", "coordinates": [-94.69092409999996, 39.019697]}},
{"type": "Feature", "id": "jZSbTxPgXiwgOKnoPl4CQ8B4qbE=", "properties": {"ref": "158", "@spider": "ikea_us", "addr:full": "1 IKEA Way", "addr:city": "Stoughton", "addr:state": "MA", "addr:postcode": "02072", "addr:country": "US", "name": "Stoughton", "website": "https://www.ikea.com/us/en/stores/stoughton/", "opening_hours": "Mo-Sa 10:00-09:00; Su 10:00-08:00", "brand": "Ikea"}, "geometry": {"type": "Point", "coordinates": [-71.0685603, 42.1375763]}},
{"type": "Feature", "id": "NAKO7iovwir0NawWvOcZt3s9FXs=", "properties": {"ref": "152", "@spider": "ikea_us", "addr:full": "8352 Honeygo Blvd", "addr:city": "Baltimore", "addr:state": "MD", "addr:postcode": "21236", "addr:country": "US", "name": "Baltimore", "website": "https://www.ikea.com/us/en/stores/baltimore/", "opening_hours": "Mo-Sa 10:00-09:00; Su 10:00-08:00", "brand": "Ikea"}, "geometry": {"type": "Point", "coordinates": [-76.4616532, 39.3753398]}},
{"type": "Feature", "id": "4A9TMc-tsSREs77H_38ATn0v47M=", "properties": {"ref": "411", "@spider": "ikea_us", "addr:full": "10100 Baltimore Ave", "addr:city": "College Park", "addr:state": "MD", "addr:postcode": "20740", "addr:country": "US", "name": "College Park", "website": "https://www.ikea.com/us/en/store/college_park", "opening_hours": "Mo-Sa 10:00-09:00; Su 10:00-08:00", "brand": "Ikea"}, "geometry": {"type": "Point", "coordinates": [-76.92850609999999, 39.0208564]}},
{"type": "Feature", "id": "OLUcZvXUAlDs9RMSlzzp3ZLbdFo=", "properties": {"ref": "026", "@spider": "ikea_us", "addr:full": "41640 Ford Rd", "addr:city": "Canton", "addr:state": "MI", "addr:postcode": "48187", "addr:country": "US", "name": "Canton", "website": "https://www.ikea.com/us/en/stores/canton/", "opening_hours": "Mo 10:00-09:30; Tu-Su 10:00-09:00", "brand": "Ikea"}, "geometry": {"type": "Point", "coordinates": [-83.45166189999998, 42.324824]}},
{"type": "Feature", "id": "4aNCuMJ7iq3tlKO9fpxnfnQGlZo=", "properties": {"ref": "212", "@spider": "ikea_us", "addr:full": "8000 Ikea Way", "addr:city": "Twin Cities", "addr:state": "MN", "addr:postcode": "55425", "addr:country": "US", "name": "Twin Cities", "website": "https://www.ikea.com/us/en/stores/twin-cities/", "opening_hours": "Mo-Sa 10:00-09:00; Su 10:00-07:00", "brand": "Ikea"}, "geometry": {"type": "Point", "coordinates": [-93.24482769999997, 44.8584007]}},
{"type": "Feature", "id": "QX_rOcaV9lj5ONi6l1jz7hCB4x0=", "properties": {"ref": "410", "@spider": "ikea_us", "addr:full": "1 Ikea Way", "addr:city": "St. Louis", "addr:state": "MO", "addr:postcode": "63112", "addr:country": "US", "name": "St. Louis", "website": "https://www.ikea.com/us/en/stores/st-louis/", "opening_hours": "Mo-Su 10:00-09:00", "brand": "Ikea"}, "geometry": {"type": "Point", "coordinates": [-90.24403719999998, 38.6331482]}},
{"type": "Feature", "id": "H29Ej6FFCf99qr4a4Vm_hAvvwNg=", "properties": {"ref": "067", "@spider": "ikea_us", "addr:full": "8300 Ikea Blvd", "addr:city": "Charlotte", "addr:state": "NC", "addr:postcode": "28262", "addr:country": "US", "name": "Charlotte", "website": "https://www.ikea.com/us/en/stores/charlotte/", "opening_hours": "Mo-Su 10:00-09:00", "brand": "Ikea"}, "geometry": {"type": "Point", "coordinates": [-80.76505550000002, 35.29339179999999]}},
{"type": "Feature", "id": "1rS69vFqJxkcED4-s3NLkynt_pw=", "properties": {"ref": "154", "@spider": "ikea_us", "addr:full": "1000 Ikea Dr", "addr:city": "Elizabeth", "addr:state": "NJ", "addr:postcode": "07201", "addr:country": "US", "name": "Elizabeth", "website": "https://www.ikea.com/us/en/stores/elizabeth/", "opening_hours": "Mo-Sa 10:00-09:00; Su 10:00-08:00", "brand": "Ikea"}, "geometry": {"type": "Point", "coordinates": [-74.1697393, 40.6751301]}},
{"type": "Feature", "id": "eHopAveqNjSffTr-77JZkaExfj0=", "properties": {"ref": "409", "@spider": "ikea_us", "addr:full": "100 Ikea Dr", "addr:city": "Paramus", "addr:state": "NJ", "addr:postcode": "07652", "addr:country": "US", "name": "Paramus", "website": "https://www.ikea.com/us/en/stores/paramus/", "opening_hours": "Mo-Su 10:00-09:00", "brand": "Ikea"}, "geometry": {"type": "Point", "coordinates": [-74.07328610000002, 40.9245349]}},
{"type": "Feature", "id": "QrJ74J8u5AEZefjQrWJL7jUm8m0=", "properties": {"ref": "462", "@spider": "ikea_us", "addr:full": "6500 IKEA Way", "addr:city": "Las Vegas", "addr:state": "NV", "addr:postcode": "89148", "addr:country": "US", "name": "Las Vegas", "website": "https://www.ikea.com/us/en/stores/las-vegas/", "opening_hours": "Mo-Sa 10:00-09:00; Su 10:00-08:00", "brand": "Ikea"}, "geometry": {"type": "Point", "coordinates": [-115.280825, 36.0689264]}},
{"type": "Feature", "id": "EL8Df958Wkr7DPB1PEZ-VPvLyHs=", "properties": {"ref": "921", "@spider": "ikea_us", "addr:full": "1 Beard St", "addr:city": "Brooklyn", "addr:state": "NY", "addr:postcode": "11231", "addr:country": "US", "name": "Brooklyn", "website": "https://www.ikea.com/us/en/stores/brooklyn/", "opening_hours": "Mo-Su 10:00-09:00", "brand": "Ikea"}, "geometry": {"type": "Point", "coordinates": [-74.01146080000001, 40.67197549999999]}},
{"type": "Feature", "id": "9QZqT2hSFanjVK8AdWl11leffqM=", "properties": {"ref": "156", "@spider": "ikea_us", "addr:full": "1100 Broadway Mall", "addr:city": "Long Island", "addr:state": "NY", "addr:postcode": "11801", "addr:country": "US", "name": "Long Island", "website": "https://www.ikea.com/us/en/stores/long-island/", "opening_hours": "Mo-Su 10:00-09:00", "brand": "Ikea"}, "geometry": {"type": "Point", "coordinates": [-73.53059309999998, 40.7741334]}},
{"type": "Feature", "id": "IJuOR-BbPHpkld3EfeT-o6m2w_o=", "properties": {"ref": "622", "@spider": "ikea_us", "addr:full": "96-05 Queens Blvd", "addr:city": "Queens", "addr:state": "NY", "addr:postcode": "11374", "addr:country": "US", "name": "Queens", "website": "https://www.ikea.com/us/en/stores/queens/", "opening_hours": "Mo-Sa 10:00-09:00; Su 10:00-08:00", "brand": "Ikea"}, "geometry": {"type": "Point", "coordinates": [-73.86199, 40.73031]}},
{"type": "Feature", "id": "FGuMRIxKhT8pFwq9Hs6iQBA4i_A=", "properties": {"ref": "35", "@spider": "ikea_us", "addr:full": "999 Third Avenue", "addr:city": "Upper East Side", "addr:state": "NY", "addr:postcode": "10022", "addr:country": "US", "name": "Upper East Side", "website": "https://www.ikea.com/us/en/stores/planning-studio-upper-east-side/", "opening_hours": "Mo-Fr 11:00-06:00; Sa-Su 10:00-05:00", "brand": "Ikea"}, "geometry": {"type": "Point", "coordinates": [-73.96618, 40.76177]}},
{"type": "Feature", "id": "2Bnc-RthR3mAbSNzoNtDeEoncRY=", "properties": {"ref": "511", "@spider": "ikea_us", "addr:full": "1900 IKEA Way", "addr:city": "Columbus", "addr:state": "OH", "addr:postcode": "43240", "addr:country": "US", "name": "Columbus", "website": "https://www.ikea.com/us/en/stores/columbus/", "opening_hours": "Mo-Sa 10:00-09:00; Su 10:00-08:00", "brand": "Ikea"}, "geometry": {"type": "Point", "coordinates": [-82.96761170000002, 40.1485005]}},
{"type": "Feature", "id": "tee2E1uuf_-qFhyKlI0y1Gzhiy0=", "properties": {"ref": "175", "@spider": "ikea_us", "addr:full": "9500 IKEA Way", "addr:city": "West Chester", "addr:state": "OH", "addr:postcode": "45069", "addr:country": "US", "name": "West Chester", "website": "https://www.ikea.com/us/en/stores/west-chester/", "opening_hours": "Mo-Sa 10:00-09:00; Su 10:00-08:00", "brand": "Ikea"}, "geometry": {"type": "Point", "coordinates": [-84.43399769999996, 39.3154678]}},
{"type": "Feature", "id": "Dj93-RbXDUKgpcEHUPauM6Vy2-k=", "properties": {"ref": "028", "@spider": "ikea_us", "addr:full": "10280 NE Cascades Pkwy", "addr:city": "Portland", "addr:state": "OR", "addr:postcode": "97220", "addr:country": "US", "name": "Portland", "website": "https://www.ikea.com/us/en/stores/portland/", "opening_hours": "Mo-Fr 10:00-09:00; Sa-Su 09:00-09:00", "brand": "Ikea"}, "geometry": {"type": "Point", "coordinates": [-122.55351080000003, 45.5712882]}},
{"type": "Feature", "id": "2V-cd34j8bUAIFCkX0DoY2zQZFU=", "properties": {"ref": "211", "@spider": "ikea_us", "addr:full": "400 Alan Wood Road", "addr:city": "Conshohocken", "addr:state": "PA", "addr:postcode": "19428", "addr:country": "US", "name": "Conshohocken", "website": "https://www.ikea.com/us/en/stores/conshohocken/", "opening_hours": "Mo-Sa 10:00-09:00; Su 10:00-08:00", "brand": "Ikea"}, "geometry": {"type": "Point", "coordinates": [-75.3063721, 40.0951758]}},
{"type": "Feature", "id": "3_dsiLUi4iRQlOIvuGGMlzvWjJc=", "properties": {"ref": "153", "@spider": "ikea_us", "addr:full": "2001 Park Manor Blvd", "addr:city": "Pittsburgh", "addr:state": "PA", "addr:postcode": "15205", "addr:country": "US", "name": "Pittsburgh", "website": "https://www.ikea.com/us/en/stores/pittsburgh/", "opening_hours": "Mo-Sa 10:00-09:00; Su 10:00-08:00", "brand": "Ikea"}, "geometry": {"type": "Point", "coordinates": [-80.16799249999997, 40.4518981]}},
{"type": "Feature", "id": "ipswIBsQRcY7ec5qH1W13_dzV6c=", "properties": {"ref": "215", "@spider": "ikea_us", "addr:full": "2206 S Christopher Columbus Blvd", "addr:city": "South Philadelphia", "addr:state": "PA", "addr:postcode": "19148", "addr:country": "US", "name": "South Philadelphia", "website": "https://www.ikea.com/us/en/stores/south-philadelphia/", "opening_hours": "Mo-Sa 10:00-09:00; Su 10:00-08:00", "brand": "Ikea"}, "geometry": {"type": "Point", "coordinates": [-75.141859, 39.9170912]}},
{"type": "Feature", "id": "cXbKXqRtb89z-6iY0e3zPgTqD1U=", "properties": {"ref": "508", "@spider": "ikea_us", "addr:full": "7900 Ikea Way", "addr:city": "Memphis", "addr:state": "TN", "addr:postcode": "38016", "addr:country": "US", "name": "Memphis", "website": "https://www.ikea.com/us/en/stores/memphis/", "opening_hours": "Mo-Th 11:00-08:00; Fr-Sa 10:00-09:00; Su 11:00-08:00", "brand": "Ikea"}, "geometry": {"type": "Point", "coordinates": [-89.79930250000001, 35.1899914]}},
{"type": "Feature", "id": "VrlPch0c2iXrCYWFvt2Zm4Uj4II=", "properties": {"ref": "183", "@spider": "ikea_us", "addr:full": "7171 Ikea Dr", "addr:city": "Frisco", "addr:state": "TX", "addr:postcode": "75034", "addr:country": "US", "name": "Frisco", "website": "https://www.ikea.com/us/en/stores/frisco/", "opening_hours": "Mo-Sa 10:00-09:00; Su 10:00-08:00", "brand": "Ikea"}, "geometry": {"type": "Point", "coordinates": [-96.82122070000003, 33.093868]}},
{"type": "Feature", "id": "X78T0QW8ssosaDONEBgWSuiee5U=", "properties": {"ref": "535", "@spider": "ikea_us", "addr:full": "1000 IKEA Way", "addr:city": "Grand Prairie", "addr:state": "TX", "addr:postcode": "75052", "addr:country": "US", "name": "Grand Prairie", "website": "https://www.ikea.com/us/en/stores/grand-prairie/", "opening_hours": "Mo-Sa 10:00-09:00; Su 10:00-08:00", "brand": "Ikea"}, "geometry": {"type": "Point", "coordinates": [-97.02212, 32.689824]}},
{"type": "Feature", "id": "uena7i3TLs6CDWvOVdlxWdRXz-U=", "properties": {"ref": "379", "@spider": "ikea_us", "addr:full": "7810 Katy Fwy", "addr:city": "Houston", "addr:state": "TX", "addr:postcode": "77024", "addr:country": "US", "name": "Houston", "website": "https://www.ikea.com/us/en/stores/houston/", "opening_hours": "Mo-Sa 10:00-09:00; Su 10:00-08:00", "brand": "Ikea"}, "geometry": {"type": "Point", "coordinates": [-95.4722835, 29.7854269]}},
{"type": "Feature", "id": "0xTRtistaqjNDewVPPXZ_UtwM7s=", "properties": {"ref": "570", "@spider": "ikea_us", "addr:full": "1000 IKEA RBFCU Parkway", "addr:city": "Live Oak", "addr:state": "TX", "addr:postcode": "78233", "addr:country": "US", "name": "Live Oak", "website": "https://www.ikea.com/us/en/stores/live-oak/", "opening_hours": "Mo-Sa 10:00-09:00; Su 11:00-08:00", "brand": "Ikea"}, "geometry": {"type": "Point", "coordinates": [-98.3380825, 29.5662586]}},
{"type": "Feature", "id": "Vmi7LdjJaHCqPpxHortUjA-A8XY=", "properties": {"ref": "027", "@spider": "ikea_us", "addr:full": "1 Ikea Way", "addr:city": "Round Rock", "addr:state": "TX", "addr:postcode": "78665", "addr:country": "US", "name": "Round Rock", "website": "https://www.ikea.com/us/en/stores/round-rock", "opening_hours": "Mo-Sa 10:00-09:00; Su 10:00-08:00", "brand": "Ikea"}, "geometry": {"type": "Point", "coordinates": [-97.69026209999998, 30.5569728]}},
{"type": "Feature", "id": "-I31iSSffe4x-_SHR363z7sHCmg=", "properties": {"ref": "103", "@spider": "ikea_us", "addr:full": "67 W Ikea Way", "addr:city": "Draper", "addr:state": "UT", "addr:postcode": "84020", "addr:country": "US", "name": "Draper", "website": "https://www.ikea.com/us/en/stores/draper/", "opening_hours": "Mo-Sa 10:00-09:00; Su 10:00-08:00", "brand": "Ikea"}, "geometry": {"type": "Point", "coordinates": [-111.893237, 40.508693]}},
{"type": "Feature", "id": "KuSkg4a_5N9Vdhxgq8HEKxlZdtg=", "properties": {"ref": "569", "@spider": "ikea_us", "addr:full": "1500 IKEA Way", "addr:city": "Norfolk", "addr:state": "VA", "addr:postcode": "23502", "addr:country": "US", "name": "Norfolk", "website": "https://www.ikea.com/us/en/stores/norfolk/", "opening_hours": "Mo-Sa 10:00-08:00; Su 10:00-07:00", "brand": "Ikea"}, "geometry": {"type": "Point", "coordinates": [-76.20061, 36.87444]}},
{"type": "Feature", "id": "OmnSlJXtJ5qNhwT-0FqkvWkqwvk=", "properties": {"ref": "168", "@spider": "ikea_us", "addr:full": "2901 Potomac Mills Cir", "addr:city": "Woodbridge", "addr:state": "VA", "addr:postcode": "22192", "addr:country": "US", "name": "Woodbridge", "website": "https://www.ikea.com/us/en/stores/woodbridge/", "opening_hours": "Mo-Sa 10:00-09:00; Su 10:00-07:00", "brand": "Ikea"}, "geometry": {"type": "Point", "coordinates": [-77.289176, 38.6432536]}},
{"type": "Feature", "id": "DbTm8m-NcJviSmOf9DrrHzdrFPU=", "properties": {"ref": "488", "@spider": "ikea_us", "addr:full": "601 SW 41st St", "addr:city": "Renton", "addr:state": "WA", "addr:postcode": "98057", "addr:country": "US", "name": "Renton", "website": "https://www.ikea.com/us/en/stores/renton/", "opening_hours": "Mo-Fr 10:00-09:00; Sa 09:30-09:00; Su 09:30-08:00", "brand": "Ikea"}, "geometry": {"type": "Point", "coordinates": [-122.22569240000001, 47.4424256]}},
{"type": "Feature", "id": "I0xxFZKzflj6uLMKY6EcOPhPNjw=", "properties": {"ref": "560", "@spider": "ikea_us", "addr:full": "7500 S. IKEA Way", "addr:city": "Oak Creek", "addr:state": "WI", "addr:postcode": "53154", "addr:country": "US", "name": "Oak Creek", "website": "https://www.ikea.com/us/en/stores/oak-creek/", "opening_hours": "Mo-Sa 10:00-08:00; Su 10:00-07:00", "brand": "Ikea"}, "geometry": {"type": "Point", "coordinates": [-87.863136, 42.88585]}}]}