{"type":"FeatureCollection","features":[{"type": "Feature", "id": "FyiexRoaGIkD-CFkmiJX3u7PdYs=", "properties": {"ref": "cardiff", "@spider": "ikea_uk", "addr:full": "Ferry Road, Cardiff, CF11 0XR", "addr:country": "GB", "name": "Cardiff", "website": "https://www.ikea.com/gb/en/stores/cardiff/", "opening_hours": "Mo-Fr 10:00-20:00; Su 11:00-17:00", "brand": "Ikea"}},
{"type": "Feature", "id": "cvzpjcM_fQhxDNJvtIGmPx8QQ-w=", "properties": {"ref": "lakeside", "@spider": "ikea_uk", "addr:full": "Lakeside Retail Park, Heron Way, Grays, RM20 3WJ", "addr:country": "GB", "name": "Lakeside", "website": "https://www.ikea.com/gb/en/stores/lakeside/", "opening_hours": "Mo-Th 10:00-22:00; Sa 09:00-22:00; Su 11:00-17:00", "brand": "Ikea"}},
{"type": "Feature", "id": "m1Qd7f_vjn8rmxzk-nXFkeudqmc=", "properties": {"ref": "greenwich", "@spider": "ikea_uk", "addr:full": "55-57 Bugsby's Way, East Greenwich, London, SE10 0QJ", "addr:country": "GB", "name": "Greenwich", "website": "https://www.ikea.com/gb/en/stores/greenwich/", "opening_hours": "Mo-Th 10:00-21:00; Sa 09:30-21:00; Su 11:00-17:00", "brand": "Ikea"}},
{"type": "Feature", "id": "A_Bv97QbrOmfMqiXmzUMv_zB5yI=", "properties": {"ref": "nottingham", "@spider": "ikea_uk", "addr:full": "Giltbrook Retail Park, Ikea Way, Giltbrook, Nottingham, NG16 2RP", "addr:country": "GB", "name": "Nottingham", "website": "https://www.ikea.com/gb/en/stores/nottingham/", "opening_hours": "Mo-Fr 09:00-21:00; Su 11:00-17:00", "brand": "Ikea"}},
{"type": "Feature", "id": "65dLy25Q-6bPJAvA4E7Gow-2PAs=", "properties": {"ref": "wembley", "@spider": "ikea_uk", "addr:full": "2 Drury Way, North Circular Road, London, NW10 0TH", "addr:country": "GB", "name": "Wembley", "website": "https://www.ikea.com/gb/en/stores/wembley/", "opening_hours": "Mo-Th 10:00-22:00; Sa 09:00-22:00; Su 10:30-16:30", "brand": "Ikea"}},
{"type": "Feature", "id": "FCqF0xShe-aidfP9dyTYzyjMzBo=", "properties": {"ref": "birmingham", "@spider": "ikea_uk", "addr:full": "Park Lane, Wednesbury, WS10 9SF", "addr:country": "GB", "name": "Birmingham (Wednesbury)", "website": "https://www.ikea.com/gb/en/stores/birmingham/", "opening_hours": "Mo-Th 10:00-22:00; Sa 09:00-22:00; Su 11:00-17:00", "brand": "Ikea"}},
{"type": "Feature", "id": "RGi7Zlaf0OWrBucRj_MRNhDOjE0=", "properties": {"ref": "leeds", "@spider": "ikea_uk", "addr:full": "Holden Ing Way, Birstall, Batley, WF17 9AE", "addr:country": "GB", "name": "Leeds", "website": "https://www.ikea.com/gb/en/stores/leeds/", "opening_hours": "Mo-Th 10:00-21:00; Sa 09:00-21:00; Su 11:00-17:00", "brand": "Ikea"}},
{"type": "Feature", "id": "s4LtCyn-O4F_TFtsQhqffK4RYIk=", "properties": {"ref": "croydon", "@spider": "ikea_uk", "addr:country": "GB", "name": "Croydon", "website": "https://www.ikea.com/gb/en/stores/croydon/", "brand": "Ikea"}},
{"type": "Feature", "id": "uKWKqcWB_ZmbL9xOodrXx2xJeGk=", "properties": {"ref": "tottenham", "@spider": "ikea_uk", "addr:full": "6 Glover Drive, London, N18 3HF", "addr:country": "GB", "name": "Tottenham (Edmonton)", "website": "https://www.ikea.com/gb/en/stores/tottenham/", "opening_hours": "Mo-Fr 09:00-21:30; Su 11:00-17:00", "brand": "Ikea"}},
{"type": "Feature", "id": "otn3KsljmC14tM2PHiQCR7GpMUk=", "properties": {"ref": "southampton", "@spider": "ikea_uk", "addr:full": "West Quay Road, Southampton, SO15 1GY", "addr:country": "GB", "name": "Southampton", "website": "https://www.ikea.com/gb/en/stores/southampton/", "opening_hours": "Mo-Th 10:00-21:00; Sa 09:00-21:00; Su 11:00-17:00", "brand": "Ikea"}},
{"type": "Feature", "id": "X9LmpRFUR36PbDUz-zYQ81FibmQ=", "properties": {"ref": "milton-keynes", "@spider": "ikea_uk", "addr:full": "Goslington, Bletcham Way, Bletchley, Milton Keynes MK1 1QB", "addr:country": "GB", "name": "Milton Keynes (Bletchley)", "website": "https://www.ikea.com/gb/en/stores/milton-keynes/", "opening_hours": "Mo-Fr 10:00-21:00; Su 11:00-17:00", "brand": "Ikea"}},
{"type": "Feature", "id": "4DV5cKnLrLv0eGzNoL6L57lqEmM=", "properties": {"ref": "reading", "@spider": "ikea_uk", "addr:full": "Pincents Kiln Industrial Park, Theale, Reading, RG31 7SD", "addr:country": "GB", "name": "Reading", "website": "https://www.ikea.com/gb/en/stores/reading/", "opening_hours": "Mo-Fr 10:00-21:00; Su 11:00-17:00", "brand": "Ikea"}},
{"type": "Feature", "id": "zxKR9Z5Bn9jx9xN4qOOMtzUi_WY=", "properties": {"ref": "glasgow", "@spider": "ikea_uk", "addr:full": "IKEA Glasgow,  99 Kings Inch Drive, Glasgow, G51 4FB", "addr:country": "GB", "name": "Glasgow", "website": "https://www.ikea.com/gb/en/stores/glasgow/", "brand": "Ikea"}},
{"type": "Feature", "id": "5MFFK_FDf0I0DydcG75GDTpwtNI=", "properties": {"ref": "sheffield", "@spider": "ikea_uk", "addr:full": "Sheffield Road, Sheffield, S9 2YL", "addr:country": "GB", "name": "Sheffield", "website": "https://www.ikea.com/gb/en/stores/sheffield/", "opening_hours": "Mo-Th 10:00-21:00; Sa 09:00-21:00; Su 11:00-17:00", "brand": "Ikea"}},
{"type": "Feature", "id": "TdB-q0WZBxPFmJlRZbJg6N6lIXk=", "properties": {"ref": "bristol", "@spider": "ikea_uk", "addr:full": "Eastgate Shopping Centre, Eastgate Road, Bristol, BS5 6XN", "addr:country": "GB", "name": "Bristol", "website": "https://www.ikea.com/gb/en/stores/bristol/", "opening_hours": "Mo-Fr 10:00-21:00; Su 11:00-17:00", "brand": "Ikea"}},
{"type": "Feature", "id": "3BsQ5amKJR_MqU2h7eDwmaPhB5A=", "properties": {"ref": "exeter", "@spider": "ikea_uk", "addr:country": "GB", "name": "Exeter", "website": "https://www.ikea.com/gb/en/stores/exeter/", "brand": "Ikea"}},
{"type": "Feature", "id": "H4J28AQ-XlBSKhXu5815ND8UTmA=", "properties": {"ref": "aberdeen", "@spider": "ikea_uk", "addr:full": "Wellington Cir, Aberdeen, AB12 3QW", "addr:country": "GB", "name": "Aberdeen", "website": "https://www.ikea.com/gb/en/stores/order-collection-points/aberdeen/", "opening_hours": "Mo-Sa 10:00-18:30", "brand": "Ikea"}},
{"type": "Feature", "id": "9VRul0J0AgzMRbteT11UCBJbl0I=", "properties": {"ref": "manchester", "@spider": "ikea_uk", "addr:full": "Wellington Road, Ashton-under-Lyne, OL6 7TE", "addr:country": "GB", "name": "Manchester (Ashton-under-Lyne)", "website": "https://www.ikea.com/gb/en/stores/manchester/", "opening_hours": "Mo-Fr 10:00-21:00; Su 11:00-17:00", "brand": "Ikea"}},
{"type": "Feature", "id": "0zwAn416Ov9lFX_QbdIkHfuAujQ=", "properties": {"ref": "edinburgh", "@spider": "ikea_uk", "addr:country": "GB", "name": "Edinburgh", "website": "https://www.ikea.com/gb/en/stores/edinburgh/", "brand": "Ikea"}},
{"type": "Feature", "id": "RmPKbVIyL6s7nokuMvoQ1NopJRg=", "properties": {"ref": "belfast", "@spider": "ikea_uk", "addr:full": "Holywood Exchange, 306 Airport Road West, Belfast, BT3 9EJ", "addr:country": "GB", "name": "Belfast", "website": "https://www.ikea.com/gb/en/stores/belfast/", "opening_hours": "Mo-Fr 10:00-20:00; Su 13:00-18:00", "brand": "Ikea"}},
{"type": "Feature", "id": "O1BSGr6F28eXq7G7QZVVtCH3SuQ=", "properties": {"ref": "warrington", "@spider": "ikea_uk", "addr:full": "Gemini Retail Park, 910 Europa Blvd, Warrington, WA5 7TY", "addr:country": "GB", "name": "Warrington", "website": "https://www.ikea.com/gb/en/stores/warrington/", "opening_hours": "Mo-Th 10:00-22:00; Sa 09:00-22:00; Su 11:00-17:00", "brand": "Ikea"}},
{"type": "Feature", "id": "WrDGNcJM1a-JYM8oNxUs3QjGd3M=", "properties": {"ref": "gateshead", "@spider": "ikea_uk", "addr:full": "Metro Park West, Pinetree Way, Gateshead, Swalwell, Newcastle upon Tyne, NE11 9XS", "addr:country": "GB", "name": "Gateshead (Newcastle)", "website": "https://www.ikea.com/gb/en/stores/gateshead/", "opening_hours": "Mo-Th 10:00-21:00; Sa 10:00-20:00; Su 11:00-17:00", "brand": "Ikea"}}]}