{"type":"FeatureCollection","features":[{"type": "Feature", "id": "GBUXrccfXvHqubMMouTEWUS7tQA=", "properties": {"ref": "Hospital_Jefferson Abington Hospital", "@spider": "jefferson_univ_hosp", "addr:full": "1200 Old York Rd.", "addr:city": "Abington", "addr:state": "PA", "addr:postcode": "19001", "name": "Jefferson Abington Hospital", "phone": "215-481-2000", "website": "/content/health/find-a-location/locations/abington-jefferson-health.html", "brand": "Jefferson University Hospital"}, "geometry": {"type": "Point", "coordinates": [-75.119953, 40.119136]}},
{"type": "Feature", "id": "SK0AxCqy1evPPPZLUeCDO23uh08=", "properties": {"ref": "Hospital_Jefferson Lansdale Hospital", "@spider": "jefferson_univ_hosp", "addr:full": "100 Medical Campus Dr.", "addr:city": "Lansdale", "addr:state": "PA", "addr:postcode": "19446", "name": "Jefferson Lansdale Hospital", "phone": "215-368-2100", "website": "/content/health/find-a-location/locations/abington-lansdale-hospital.html", "brand": "Jefferson University Hospital"}, "geometry": {"type": "Point", "coordinates": [-75.271454, 40.25115]}},
{"type": "Feature", "id": "HhzZjjDZyWbU7xgYvhfw4iNfwOE=", "properties": {"ref": "Hospital_Thomas Jefferson University Hospital", "@spider": "jefferson_univ_hosp", "addr:full": "111 South 11th Street", "addr:city": "Philadelphia", "addr:state": "PA", "addr:postcode": "19107", "name": "Thomas Jefferson University Hospital", "phone": "215-955-6000", "website": "/find-a-location/locations/thomas-jefferson-university-hospital.html", "brand": "Jefferson University Hospital"}, "geometry": {"type": "Point", "coordinates": [-75.1584227, 39.9498262]}},
{"type": "Feature", "id": "Fb-pounLg8eeh5wSPIhD-NbvrQo=", "properties": {"ref": "Hospital_Jefferson Hospital for Neuroscience", "@spider": "jefferson_univ_hosp", "addr:full": "900 Walnut Street", "addr:city": "Philadelphia", "addr:state": "PA", "addr:postcode": "19107", "name": "Jefferson Hospital for Neuroscience", "phone": "215-955-6000", "website": "/content/health/find-a-location/locations/jefferson-hospital-for-neuroscience.html", "brand": "Jefferson University Hospital"}, "geometry": {"type": "Point", "coordinates": [-75.156207, 39.9480344]}},
{"type": "Feature", "id": "psa0Dbkkn55uUNx9yZvrSgj4ykg=", "properties": {"ref": "Hospital_Jefferson Methodist Hospital", "@spider": "jefferson_univ_hosp", "addr:full": "2301 South Broad Street", "addr:city": "Philadelphia", "addr:state": "PA", "addr:postcode": "19148", "name": "Jefferson Methodist Hospital", "phone": "215-952-9000", "website": "/content/health/find-a-location/locations/jefferson-methodist-hospital.html", "brand": "Jefferson University Hospital"}, "geometry": {"type": "Point", "coordinates": [-75.169701, 39.921183]}},
{"type": "Feature", "id": "qcvX2OC8bTw49XjTjl__YQmBCFY=", "properties": {"ref": "Outpatient Center_Abington Jefferson Health \u2013 Blue Bell", "@spider": "jefferson_univ_hosp", "addr:full": "721 Arbor Way", "addr:city": "Blue Bell", "addr:state": "PA", "addr:postcode": "19422", "name": "Abington Jefferson Health \u2013 Blue Bell", "phone": "215-619-6400", "website": "http://www.abingtonhealth.org/find-a-location/abington-health-center-blue-bell/", "brand": "Jefferson University Hospital"}, "geometry": {"type": "Point", "coordinates": [-75.285922, 40.140623]}},
{"type": "Feature", "id": "0YW0Dq2vElblV6gtCdwVZO7qu3E=", "properties": {"ref": "Outpatient Center_Abington Jefferson Health \u2013 Lower Gwynedd", "@spider": "jefferson_univ_hosp", "addr:full": "605 N Bethlehem Pike", "addr:city": "Lower Gwynedd", "addr:state": "PA", "addr:postcode": "19002", "name": "Abington Jefferson Health \u2013 Lower Gwynedd", "website": "http://www.abingtonhealth.org/find-a-location/abington-health-center-lower-gwynedd/", "brand": "Jefferson University Hospital"}, "geometry": {"type": "Point", "coordinates": [-75.22517, 40.17472]}},
{"type": "Feature", "id": "Wl9ApOjihFY-8vz9X2edOERdSf0=", "properties": {"ref": "Outpatient Center_Abington Jefferson Health \u2013 Montgomeryville", "@spider": "jefferson_univ_hosp", "addr:full": "1010 Horsham Road", "addr:city": "North Wales", "addr:state": "PA", "name": "Abington Jefferson Health \u2013 Montgomeryville", "phone": "215-517-1000", "website": "http://www.abingtonhealth.org/find-a-location/abington-health-center-montgomeryville/", "brand": "Jefferson University Hospital"}, "geometry": {"type": "Point", "coordinates": [-75.2315047, 40.2391667]}},
{"type": "Feature", "id": "f4hOTTifNBXkOBVQS4423oA08qo=", "properties": {"ref": "Outpatient Center_Abington Jefferson Health \u2013 Warminster", "@spider": "jefferson_univ_hosp", "addr:full": "225 Newtown Road", "addr:city": "Warminster", "addr:state": "PA", "addr:postcode": "18974", "name": "Abington Jefferson Health \u2013 Warminster", "phone": "215-441-6600", "website": "http://www.abingtonhealth.org/find-a-location/ahc-warminster/", "brand": "Jefferson University Hospital"}, "geometry": {"type": "Point", "coordinates": [-75.078765, 40.185092]}},
{"type": "Feature", "id": "-UnWyHtRfTpzyqUKcOtSwri7Neg=", "properties": {"ref": "Outpatient Center_Abington Jefferson Health \u2013 Willow Grove", "@spider": "jefferson_univ_hosp", "addr:full": "2500 Maryland Rd", "addr:city": "Willow Grove", "addr:state": "PA", "addr:postcode": "19090", "name": "Abington Jefferson Health \u2013 Willow Grove", "website": "http://www.abingtonhealth.org/find-a-location/ahc-schilling/", "brand": "Jefferson University Hospital"}, "geometry": {"type": "Point", "coordinates": [-75.1310205, 40.164239]}},
{"type": "Feature", "id": "qNrp9RSXRDJjYey8XAHbYC8VIw4=", "properties": {"ref": "'Outpatient Center;Jefferson - Bala Cynwyd (225 East City Avenue", "@spider": "jefferson_univ_hosp", "addr:full": "225 East City Avenue", "name": "Jefferson - Bala Cynwyd ", "brand": "Jefferson University Hospital"}},
{"type": "Feature", "id": "HA8f4MVYkFGlEcCL6kYH9mwSquU=", "properties": {"ref": "'Outpatient Center;Jefferson - Bala Cynwyd (401 City Line Avenue", "@spider": "jefferson_univ_hosp", "addr:full": "401 City Line Avenue", "name": "Jefferson - Bala Cynwyd ", "brand": "Jefferson University Hospital"}},
{"type": "Feature", "id": "FS00L1G43Y4LyVaou9NpVhsptrs=", "properties": {"ref": "Outpatient Center_Jefferson Health \u2013 Smylie Times", "@spider": "jefferson_univ_hosp", "addr:full": "2607 Rhawn Street", "addr:city": "Suite 403<br>Philadelphia", "addr:state": "PA", "name": "Jefferson Health \u2013 Smylie Times", "website": "/content/health/find-a-location/locations/jefferson-at-the-smylie-times.html", "brand": "Jefferson University Hospital"}, "geometry": {"type": "Point", "coordinates": [-75.0452195, 40.0562602]}},
{"type": "Feature", "id": "tNe4bwAv2r-4LjuRx92TzdO4wQQ=", "properties": {"ref": "Outpatient Center_Jefferson Health \u2013 Navy Yard", "@spider": "jefferson_univ_hosp", "addr:full": "3 Crescent Drive", "addr:city": "Philadelphia", "addr:state": "PA", "addr:postcode": "19112", "name": "Jefferson Health \u2013 Navy Yard", "phone": "215-503-3300", "website": "/content/health/find-a-location/locations/jefferson-health-navy-yard.html", "brand": "Jefferson University Hospital"}, "geometry": {"type": "Point", "coordinates": [-75.1740603, 39.8959772]}},
{"type": "Feature", "id": "UvhHHc8AKdhtbDrmGE69sS17Ypo=", "properties": {"ref": "Outpatient Center_Jefferson Health - Turnersville", "@spider": "jefferson_univ_hosp", "addr:full": "188 Fries Mill Road", "addr:city": "Turnersville", "addr:state": "NJ", "addr:postcode": "08012", "name": "Jefferson Health - Turnersville", "website": "/content/health/find-a-location/locations/jefferson-at-turnersville.html", "brand": "Jefferson University Hospital"}, "geometry": {"type": "Point", "coordinates": [-75.0468679, 39.7370413]}},
{"type": "Feature", "id": "_f2TYidOBGbBREtK6ev_9Rr5Zfk=", "properties": {"ref": "Outpatient Center_Jefferson Health \u2013 Voorhees", "@spider": "jefferson_univ_hosp", "addr:full": "443 Laurel Oak Road", "addr:city": "Voorhees", "addr:state": "NJ", "addr:postcode": "08043", "name": "Jefferson Health \u2013 Voorhees", "phone": "856-741-1000", "website": "/content/health/find-a-location/locations/jefferson-health-voorhees.html", "brand": "Jefferson University Hospital"}, "geometry": {"type": "Point", "coordinates": [-74.985362, 39.844291]}},
{"type": "Feature", "id": "oTWxIOGhVZ1XHmpRPQ9v4HlGwy0=", "properties": {"ref": "Urgent Care Center_Jefferson Urgent Care \u2013 Flourtown", "@spider": "jefferson_univ_hosp", "addr:full": "Flourtown Shopping Center", "addr:city": "1820 Bethlehem Pike<br>Flourtown", "addr:state": "PA", "addr:postcode": "19031", "name": "Jefferson Urgent Care \u2013 Flourtown", "phone": "215-836-1354", "website": "/content/health/find-a-location/locations/jefferson-urgent-care-flourtown.html", "brand": "Jefferson University Hospital"}, "geometry": {"type": "Point", "coordinates": [-75.210331, 40.111191]}},
{"type": "Feature", "id": "tm6Pgt4Iva05eq3mE4SsGBQEp5c=", "properties": {"ref": "Urgent Care Center_Jefferson Urgent Care - Rittenhouse", "@spider": "jefferson_univ_hosp", "addr:full": "2021 Chestnut Street", "addr:city": "Philadelphia", "addr:state": "PA", "addr:postcode": "19103", "name": "Jefferson Urgent Care - Rittenhouse", "phone": "267-443-2020", "website": "/content/health/find-a-location/locations/2021-chestnut-street.html", "brand": "Jefferson University Hospital"}, "geometry": {"type": "Point", "coordinates": [-75.1765097, 39.9521761]}},
{"type": "Feature", "id": "1Koy-nmvg20paMgVxNo4bkCG_sY=", "properties": {"ref": "Urgent Care Center_Jefferson Urgent Care \u2013 Smylie Times", "@spider": "jefferson_univ_hosp", "addr:full": "2607 Rhawn Street", "addr:city": "Philadelphia", "addr:state": "PA", "addr:postcode": "19152", "name": "Jefferson Urgent Care \u2013 Smylie Times", "phone": "215-333-0304", "website": "/content/health/find-a-location/locations/jefferson-health-smylie-times.html", "brand": "Jefferson University Hospital"}, "geometry": {"type": "Point", "coordinates": [-75.0452195, 40.0562602]}},
{"type": "Feature", "id": "vDDrQYKWrUX67gWfB118Y7hNVDk=", "properties": {"ref": "Urgent Care Center_Jefferson Urgent Care \u2013 Washington Square", "@spider": "jefferson_univ_hosp", "addr:full": "700 Walnut Street", "addr:city": "Philadelphia", "addr:state": "PA", "addr:postcode": "19106", "name": "Jefferson Urgent Care \u2013 Washington Square", "phone": "215-333-0304", "website": "/content/health/find-a-location/locations/jefferson-at-washington-square.html", "brand": "Jefferson University Hospital"}, "geometry": {"type": "Point", "coordinates": [-75.1532154, 39.9479655]}},
{"type": "Feature", "id": "JqV_KezHjY0Gbje98Pgq_vRfaz8=", "properties": {"ref": "Hospital_Jefferson Bucks Hospital ", "@spider": "jefferson_univ_hosp", "addr:full": "380 North Oxford Valley Road", "addr:city": "Langhorne", "addr:state": "PA", "addr:postcode": "19047", "name": "Jefferson Bucks Hospital ", "phone": "215-949-5000", "website": "/content/health/find/content/health/find-a-location/locations/jefferson-bucks-hospital.html", "brand": "Jefferson University Hospital"}, "geometry": {"type": "Point", "coordinates": [-74.8725508, 40.1830928]}},
{"type": "Feature", "id": "ULj5Ju5jEH7G2ND3UD4E82m9r_8=", "properties": {"ref": "Hospital_Jefferson Frankford Hospital ", "@spider": "jefferson_univ_hosp", "addr:full": "4900 Frankford Avenue", "addr:city": "Philadelphia", "addr:state": "PA", "addr:postcode": "19124", "name": "Jefferson Frankford Hospital ", "phone": "215-831-2000", "website": "/content/health/find-a-location/locations/jefferson-frankford-hospital.html", "brand": "Jefferson University Hospital"}, "geometry": {"type": "Point", "coordinates": [-75.0838933, 40.0196895]}},
{"type": "Feature", "id": "T5dZ6bRRXnfs1rkQIGW9pBepHuA=", "properties": {"ref": "Hospital_Jefferson Torresdale Hospital ", "@spider": "jefferson_univ_hosp", "addr:full": "10800 Knights Road", "addr:city": "Philadelphia", "addr:state": "PA", "addr:postcode": "19114", "name": "Jefferson Torresdale Hospital ", "phone": "215-612-4000", "website": "/content/health/find-a-location/locations/jefferson-torresdale-hospital.html", "brand": "Jefferson University Hospital"}, "geometry": {"type": "Point", "coordinates": [-74.9854092, 40.0716736]}},
{"type": "Feature", "id": "eLWAz0Zk-qHVjrrVuqNgH04PQrM=", "properties": {"ref": "Outpatient Center_Jefferson Health \u2014 Roosevelt Boulevard", "@spider": "jefferson_univ_hosp", "addr:full": "2451 Grant Avenue", "addr:city": "Philadelphia", "addr:state": "PA", "addr:postcode": "19114", "name": "Jefferson Health \u2014 Roosevelt Boulevard", "phone": "215-333-0304", "website": "https://www.ariahealth.org/about-aria/campus-locations-and-outpatient-sites/outpatient-sites", "brand": "Jefferson University Hospital"}, "geometry": {"type": "Point", "coordinates": [-75.02851, 40.080427]}},
{"type": "Feature", "id": "k9bcbJRX6LAvZAr4wJZ807lqUyc=", "properties": {"ref": "Outpatient Center_Jefferson Health \u2014 Bustleton", "@spider": "jefferson_univ_hosp", "addr:full": "Bustleton Avenue and Verree Road", "addr:city": "Philadelphia", "addr:state": "PA", "addr:postcode": "19116", "name": "Jefferson Health \u2014 Bustleton", "phone": "215-827-8200", "website": "https://www.ariahealth.org/about-aria/campus-locations-and-outpatient-sites/outpatient-sites", "brand": "Jefferson University Hospital"}, "geometry": {"type": "Point", "coordinates": [-75.0309162, 40.1098113]}},
{"type": "Feature", "id": "F4hdDpqsLiUaPrr4x32N2Mg1ZLI=", "properties": {"ref": "Urgent Care Center_Jefferson Urgent Care \u2013 Bensalem", "@spider": "jefferson_univ_hosp", "addr:full": "2966 Street Road", "addr:city": "Bensalem", "addr:state": "PA", "name": "Jefferson Urgent Care \u2013 Bensalem", "phone": "215-638-0666", "website": "/content/health/find-a-location/locations/jefferson-urgent-care-bensalem.html", "brand": "Jefferson University Hospital"}, "geometry": {"type": "Point", "coordinates": [-74.9587764, 40.1132751]}},
{"type": "Feature", "id": "FGp4qvFpUAxhzz8zb0RA7kCy00I=", "properties": {"ref": "Urgent Care Center_Jefferson Urgent Care \u2013 Grant Avenue", "@spider": "jefferson_univ_hosp", "addr:full": "2451 Grant Avenue", "addr:city": "Philadelphia", "addr:state": "PA", "name": "Jefferson Urgent Care \u2013 Grant Avenue", "phone": "215-934-3471", "website": "/content/health/find-a-location/locations/jefferson-urgent-care-grant-avenue.html", "brand": "Jefferson University Hospital"}, "geometry": {"type": "Point", "coordinates": [-75.02851, 40.080427]}},
{"type": "Feature", "id": "ORrXEXywWNCsvMKr1ieBVvDXiZE=", "properties": {"ref": "Outpatient Center_Jefferson Health \u2014 Fairless Hills", "@spider": "jefferson_univ_hosp", "addr:full": "131 Lincoln Highway", "addr:city": "Fairless Hills", "addr:state": "PA", "addr:postcode": "19030", "name": "Jefferson Health \u2014 Fairless Hills", "phone": "215-269-6620", "website": "/content/health/find-a-location/locations/jefferson-health-center-rehabilitation-wellness.html", "brand": "Jefferson University Hospital"}, "geometry": {"type": "Point", "coordinates": [-74.8680713, 40.1834393]}},
{"type": "Feature", "id": "Euxh0F0knaj1abDlUiY6GaINfEI=", "properties": {"ref": "Hospital_Rothman Orthopaedic Specialty Hospital \u2013 Bensalem", "@spider": "jefferson_univ_hosp", "addr:full": "3300 Tillman Drive", "addr:city": "Bensalem", "addr:state": "PA", "addr:postcode": "19020", "name": "Rothman Orthopaedic Specialty Hospital \u2013 Bensalem", "website": "/content/health/find-a-location/locations/rothman-orthopaedic-specialty-hospital.html", "brand": "Jefferson University Hospital"}, "geometry": {"type": "Point", "coordinates": [-74.9627666, 40.1129362]}},
{"type": "Feature", "id": "kYligAP4tbOxE4UBvZ4N0BH111w=", "properties": {"ref": "Outpatient Center_Jefferson Health \u2013 Burlington", "@spider": "jefferson_univ_hosp", "addr:full": "811 Sunset Road, Suite 104", "addr:city": "Burlington", "addr:state": "Su", "addr:postcode": "08016", "name": "Jefferson Health \u2013 Burlington", "phone": "609-239-8690", "website": "/content/health/find-a-location/locations/jefferson-health-burlington.html", "brand": "Jefferson University Hospital"}, "geometry": {"type": "Point", "coordinates": [-74.8707033, 40.0492141]}},
{"type": "Feature", "id": "SOFkBR6gU7sHli4bjgcduu8yg6I=", "properties": {"ref": "Urgent Care Center_Jefferson Urgent Care \u2013 Willow Grove", "@spider": "jefferson_univ_hosp", "addr:full": "2603 Easton Road", "addr:city": "Willow Grove", "addr:state": "PA", "addr:postcode": "19090", "name": "Jefferson Urgent Care \u2013 Willow Grove", "phone": "267-537-3300", "website": "/content/health/find-a-location/locations/jefferson-urgent-care-willow-grove.html", "brand": "Jefferson University Hospital"}, "geometry": {"type": "Point", "coordinates": [-75.1262753, 40.1688489]}},
{"type": "Feature", "id": "P6RTBMKrOEsyknmLfwbPs65cMaU=", "properties": {"ref": "Outpatient Center_Abington Jefferson Health \u2013 Elkins Park", "@spider": "jefferson_univ_hosp", "addr:full": "8250 Old York Road", "addr:city": "Elkins Park", "addr:state": "PA", "addr:postcode": "19027", "name": "Abington Jefferson Health \u2013 Elkins Park", "website": "/content/health/find-a-location/locations/abington-health-center-elkins-park.html", "brand": "Jefferson University Hospital"}, "geometry": {"type": "Point", "coordinates": [-75.1279097, 40.082393]}},
{"type": "Feature", "id": "a8IC2D76FBy4_QvYoRkI64qKY2Q=", "properties": {"ref": "Outpatient Center_Jefferson Health \u2013 Art Museum", "@spider": "jefferson_univ_hosp", "addr:full": "2130 Spring Garden Street", "addr:city": "Philadelphia", "addr:state": "PA", "addr:postcode": "19130", "name": "Jefferson Health \u2013 Art Museum", "phone": "215-955-9555", "website": "/content/health/find-a-location/locations/jefferson-health-art-museum.html", "brand": "Jefferson University Hospital"}, "geometry": {"type": "Point", "coordinates": [-75.173739, 39.963721]}},
{"type": "Feature", "id": "j3B1bBrqoyLnwFVHrvCT7uGtPi0=", "properties": {"ref": "Hospital_Jefferson Cherry Hill Hospital", "@spider": "jefferson_univ_hosp", "addr:full": "2201 Chapel Avenue West", "addr:city": "Cherry Hill", "addr:state": "NJ", "addr:postcode": "08002", "name": "Jefferson Cherry Hill Hospital", "phone": "856-488-6500", "website": "/content/health/find-a-location/locations/jefferson-cherry-hill-hospital.html", "brand": "Jefferson University Hospital"}, "geometry": {"type": "Point", "coordinates": [-75.015943, 39.927982]}},
{"type": "Feature", "id": "pyjpV3AY0yjIGuvvamdEwT-DE94=", "properties": {"ref": "Hospital_Jefferson Stratford Hospital ", "@spider": "jefferson_univ_hosp", "addr:full": "18 East Laurel Road", "addr:city": "Stratford", "addr:state": "NJ", "addr:postcode": "08084", "name": "Jefferson Stratford Hospital ", "phone": "856-346-6000", "website": "/content/health/find-a-location/locations/jefferson-stratford-hospital.html", "brand": "Jefferson University Hospital"}, "geometry": {"type": "Point", "coordinates": [-75.0082660022402, 39.82829137048488]}},
{"type": "Feature", "id": "e2b2Ib1p9CU5mfYDhhXsOoTAWyc=", "properties": {"ref": "Hospital_Jefferson Washington Township Hospital", "@spider": "jefferson_univ_hosp", "addr:full": "435 Hurffville-Cross Keys Road", "addr:city": "Turnersville", "addr:state": "NJ", "addr:postcode": "08012", "name": "Jefferson Washington Township Hospital", "phone": "856-582-2500", "website": "/content/health/find-a-location/locations/jefferson-washington-township-hospital.html", "brand": "Jefferson University Hospital"}, "geometry": {"type": "Point", "coordinates": [-75.06534, 39.735239]}},
{"type": "Feature", "id": "EVmCVBKhj1exjPy_qskWCAmabN0=", "properties": {"ref": "Hospital_Magee Rehabilitation Hospital", "@spider": "jefferson_univ_hosp", "addr:full": "1513 Race Street", "addr:city": "Philadelphia", "addr:state": "PA", "addr:postcode": "19102", "name": "Magee Rehabilitation Hospital", "website": "/content/health/find-a-location/locations/magee-hospital.html", "brand": "Jefferson University Hospital"}, "geometry": {"type": "Point", "coordinates": [-75.165422, 39.956823]}},
{"type": "Feature", "id": "H5Rni2CdzUrguc90Cw2QJOnTbmw=", "properties": {"ref": "Outpatient Center_Magee Rehabilitation \u2013 Oxford Valley", "@spider": "jefferson_univ_hosp", "addr:full": "400 North Buckstown Road", "addr:city": "Langhorne", "addr:state": "PA", "addr:postcode": "19047", "name": "Magee Rehabilitation \u2013 Oxford Valley", "phone": "267-789-2914", "website": "/content/health/find-a-location/locations/magee-at-oxford-valley.html", "brand": "Jefferson University Hospital"}, "geometry": {"type": "Point", "coordinates": [-74.869636, 40.186774]}},
{"type": "Feature", "id": "qHSzI3hpPcLQSngG9r6CVqDNE_k=", "properties": {"ref": "Outpatient Center_Magee Rehabilitation \u2013  Watermark", "@spider": "jefferson_univ_hosp", "addr:full": "Two Franklin Town Boulevard", "addr:city": "Philadelphia", "addr:state": "PA", "addr:postcode": "19103", "name": "Magee Rehabilitation \u2013  Watermark", "phone": "215-496-0797", "website": "/content/health/find-a-location/locations/magee-at-watermark.html", "brand": "Jefferson University Hospital"}, "geometry": {"type": "Point", "coordinates": [-75.168124, 39.959887]}},
{"type": "Feature", "id": "0ufFkeIFtjttRszsXr3OodZ94nM=", "properties": {"ref": "Outpatient Center_Magee Rehabilitation \u2013 Cherry Hill", "@spider": "jefferson_univ_hosp", "addr:full": "2211 Chapel Avenue", "addr:city": "Cherry Hill", "addr:state": "NJ", "addr:postcode": "08002", "name": "Magee Rehabilitation \u2013 Cherry Hill", "phone": "856-922-5090", "website": "/content/health/find-a-location/locations/magee-cherry-hill.html", "brand": "Jefferson University Hospital"}, "geometry": {"type": "Point", "coordinates": [-75.0178616, 39.9287698]}},
{"type": "Feature", "id": "mv23mkALa6h2_sBtNmlLWlu1XVk=", "properties": {"ref": "Outpatient Center_Magee Rehabilitation \u2013 Riverfront", "@spider": "jefferson_univ_hosp", "addr:full": "1500 South Columbus Boulevard", "addr:city": "Philadelphia", "addr:state": "PA", "addr:postcode": "19147", "name": "Magee Rehabilitation \u2013 Riverfront", "phone": "215-218-3900", "website": "/content/health/find-a-location/locations/magee-riverfront.html", "brand": "Jefferson University Hospital"}, "geometry": {"type": "Point", "coordinates": [-75.145279, 39.928569]}},
{"type": "Feature", "id": "g4kzE1ciolMsLw9YCnqi9t2fS8M=", "properties": {"ref": "Outpatient Center_Sidney Kimmel Cancer Center at Abington \u2013 Jefferson Health Asplundh Cancer Pavilion", "@spider": "jefferson_univ_hosp", "addr:full": "3941 Commerce Avenue ", "addr:city": "Willow Grove", "addr:state": "PA", "addr:postcode": "19090", "name": "Sidney Kimmel Cancer Center at Abington \u2013 Jefferson Health Asplundh Cancer Pavilion", "phone": "215-481-4000", "website": "/content/health/find-a-location/locations/asplundh-cancer-pavilion.html", "brand": "Jefferson University Hospital"}, "geometry": {"type": "Point", "coordinates": [-75.1345163, 40.1635977]}},
{"type": "Feature", "id": "rfp09E6UDp46EvYLd9dq7-kvSO0=", "properties": {"ref": "Outpatient Center_Jefferson Surgery Center \u2013 Blue Bell", "@spider": "jefferson_univ_hosp", "addr:full": "518 Township Line Road #120", "addr:city": "Blue Bell", "addr:state": "PA", "addr:postcode": "19422", "name": "Jefferson Surgery Center \u2013 Blue Bell", "phone": "610-955-0432", "website": "http://hospitals.jefferson.edu/find-a-location/locations/jefferson-surgery-center-blue-bell.html", "brand": "Jefferson University Hospital"}, "geometry": {"type": "Point", "coordinates": [-75.2880001, 40.1338768]}}]}