{"type":"FeatureCollection","features":[{"type": "Feature", "id": "vILlETAmvxGBBwa1jXBbFjYD0ww=", "properties": {"ref": "679", "@spider": "jjill", "addr:street": "7260 East Chase Pkwy", "addr:city": "Montgomery", "addr:state": "AL", "addr:postcode": "36117", "addr:country": "US", "name": "The Shoppes at EastChase", "phone": "334.386.4685", "website": "https://locations.jjill.com/al/montgomery/679/", "opening_hours": "Mo 10am - 7pm; Tu 10am - 7pm; We 10am - 7pm; Th 10am - 7pm; Fr 10am - 7pm; Sa 10am - 7pm; Su 1pm - 6pm", "brand": "J.Jill"}, "geometry": {"type": "Point", "coordinates": [-86.1654992, 32.3584049]}},
{"type": "Feature", "id": "jDA48-0IrPYixbwP5X2w2Q313rQ=", "properties": {"ref": "715", "@spider": "jjill", "addr:street": "1800 McFarland Blvd", "addr:city": "Tuscaloosa", "addr:state": "AL", "addr:postcode": "35404", "addr:country": "US", "name": "Midtown Village", "phone": "(205) 469-5430", "website": "https://locations.jjill.com/al/tuscaloosa/715/", "opening_hours": "Mo 10am - 6pm; Tu 10am - 6pm; We 10am - 6pm; Th 10am - 6pm; Fr 10am - 6pm; Sa 10am - 6pm; Su 12pm - 6pm", "brand": "J.Jill"}, "geometry": {"type": "Point", "coordinates": [-87.5270999, 33.1965122]}},
{"type": "Feature", "id": "QEKmThLyi0oNngGffVjjvNQR4pA=", "properties": {"ref": "196", "@spider": "jjill", "addr:street": "200 Summit Blvd.", "addr:city": "Birmingham", "addr:state": "AL", "addr:postcode": "35243", "addr:country": "US", "name": "The Summit Birmingham", "phone": "205.262.9535", "website": "https://locations.jjill.com/al/birmingham/196/", "opening_hours": "Mo 10am - 7pm; Tu 10am - 7pm; We 10am - 7pm; Th 10am - 7pm; Fr 10am - 7pm; Sa 10am - 7pm; Su 12pm - 6pm", "brand": "J.Jill"}, "geometry": {"type": "Point", "coordinates": [-86.7321762, 33.448364]}},
{"type": "Feature", "id": "r9DIExmERMUObjk04vfJo4C45os=", "properties": {"ref": "695", "@spider": "jjill", "addr:street": "17711 Chenal Parkway", "addr:city": "Little Rock", "addr:state": "AR", "addr:postcode": "72223", "addr:country": "US", "name": "The Promenade at Chenal", "phone": "501-821-8735", "website": "https://locations.jjill.com/ar/little-rock/695/", "opening_hours": "Mo 10am - 8pm; Tu 10am - 8pm; We 10am - 8pm; Th 10am - 8pm; Fr 10am - 8pm; Sa 10am - 8pm; Su 12pm - 6pm", "brand": "J.Jill"}, "geometry": {"type": "Point", "coordinates": [-92.4588045, 34.7661886]}},
{"type": "Feature", "id": "00-_VCB6DMbO1jrLdVfI7_Gr6Fg=", "properties": {"ref": "251", "@spider": "jjill", "addr:street": "203 North University", "addr:city": "Little Rock", "addr:state": "AR", "addr:postcode": "72205", "addr:country": "US", "name": "Midtowne Little Rock", "phone": "501.614.1056", "website": "https://locations.jjill.com/ar/little-rock/251/", "opening_hours": "Mo 10am - 8pm; Tu 10am - 8pm; We 10am - 8pm; Th 10am - 8pm; Fr 10am - 8pm; Sa 10am - 8pm; Su 12pm - 6pm", "brand": "J.Jill"}, "geometry": {"type": "Point", "coordinates": [-92.3407262, 34.7540078]}},
{"type": "Feature", "id": "8qOM0rv0aTFGHyEMoPi4892s4NQ=", "properties": {"ref": "682", "@spider": "jjill", "addr:street": "5870 East Broadway Blvd.", "addr:city": "Tucson", "addr:state": "AZ", "addr:postcode": "85711", "addr:country": "US", "name": "Park Place", "phone": "520.747.3033", "website": "https://locations.jjill.com/az/tucson/682/", "opening_hours": "Mo 10am - 6pm; Tu 10am - 6pm; We 10am - 6pm; Th 10am - 6pm; Fr 10am - 6pm; Sa 10am - 6pm; Su 11am - 6pm", "brand": "J.Jill"}, "geometry": {"type": "Point", "coordinates": [-110.8655177, 32.2198444]}},
{"type": "Feature", "id": "-VndXxpjq9DGsDd02x79dBD_Z9k=", "properties": {"ref": "168", "@spider": "jjill", "addr:street": "2905 E. Skyline Dr.", "addr:city": "Tucson", "addr:state": "AZ", "addr:postcode": "85718", "addr:country": "US", "name": "La Encantada", "phone": "520.529.9500", "website": "https://locations.jjill.com/az/tucson/168/", "opening_hours": "Mo 10am - 7pm; Tu 10am - 7pm; We 10am - 7pm; Th 10am - 8pm; Fr 10am - 8pm; Sa 10am - 8pm; Su 11am - 6pm", "brand": "J.Jill"}, "geometry": {"type": "Point", "coordinates": [-110.9299968, 32.3247425]}},
{"type": "Feature", "id": "gSq82mO8iFlibPSyOL5IAN9iJeg=", "properties": {"ref": "677", "@spider": "jjill", "addr:street": "6256 Topanga Canyon Blvd.", "addr:city": "Woodland Hills", "addr:state": "CA", "addr:postcode": "91367", "addr:country": "US", "name": "Topanga Village", "phone": "818.346.5455", "website": "https://locations.jjill.com/ca/woodland-hills/677/", "opening_hours": "Mo 11am - 8pm; Tu 11am - 8pm; We 11am - 8pm; Th 11am - 8pm; Fr 10am - 9pm; Sa 10am - 9pm; Su 11am - 8pm", "brand": "J.Jill"}, "geometry": {"type": "Point", "coordinates": [-118.6046218, 34.1847081]}},
{"type": "Feature", "id": "o-6IZnX_kSwfcTKOxeu-d3oeFGk=", "properties": {"ref": "405", "@spider": "jjill", "addr:street": "6000 West Glades Road", "addr:city": "Boca Raton", "addr:state": "FL", "addr:postcode": "33431", "addr:country": "US", "name": "Town Center of Boca Raton", "phone": "561.620.7801", "website": "https://locations.jjill.com/fl/boca-raton/405/", "opening_hours": "Mo 10am - 7pm; Tu 10am - 7pm; We 10am - 7pm; Th 10am - 7pm; Fr 10am - 7pm; Sa 10am - 7pm; Su 12pm - 6pm", "brand": "J.Jill"}, "geometry": {"type": "Point", "coordinates": [-80.1326087, 26.362557]}},
{"type": "Feature", "id": "64Pbug838mJy8jxLeypW3VlEfh0=", "properties": {"ref": "705", "@spider": "jjill", "addr:street": "920 East 2nd Avenue", "addr:city": "Coralville", "addr:state": "IA", "addr:postcode": "52241", "addr:country": "US", "name": "Iowa River Landing", "phone": "319.248.5545", "website": "https://locations.jjill.com/ia/coralville/705/", "opening_hours": "Mo 10am - 7pm; Tu 10am - 7pm; We 10am - 7pm; Th 10am - 7pm; Fr 10am - 7pm; Sa 10am - 7pm; Su 12pm - 6pm", "brand": "J.Jill"}, "geometry": {"type": "Point", "coordinates": [-91.5627162, 41.6829213]}},
{"type": "Feature", "id": "Qa8opAQNzZAIqY_b7vOhVtwGGPY=", "properties": {"ref": "191", "@spider": "jjill", "addr:street": "140 Glastonbury Blvd.", "addr:city": "Glastonbury", "addr:state": "CT", "addr:postcode": "06033", "addr:country": "US", "name": "The Shops at Somerset Square", "phone": "860.633.7217", "website": "https://locations.jjill.com/ct/glastonbury/191/", "opening_hours": "Mo 10am - 6pm; Tu 10am - 6pm; We 10am - 6pm; Th 10am - 6pm; Fr 10am - 6pm; Sa 10am - 6pm; Su 12pm - 5pm", "brand": "J.Jill"}, "geometry": {"type": "Point", "coordinates": [-72.6206608, 41.7202468]}},
{"type": "Feature", "id": "AkQs97x1tv716s5cExsZFYFM3cA=", "properties": {"ref": "420", "@spider": "jjill", "addr:street": "2203 Promenade Blvd", "addr:city": "Rogers", "addr:state": "AR", "addr:postcode": "72758", "addr:country": "US", "name": "Pinnacle Hills Promenade", "phone": "479.936.7684", "website": "https://locations.jjill.com/ar/rogers/420/", "opening_hours": "Mo 10am - 7pm; Tu 10am - 7pm; We 10am - 7pm; Th 10am - 7pm; Fr 10am - 8pm; Sa 10am - 8pm; Su 12pm - 6pm", "brand": "J.Jill"}, "geometry": {"type": "Point", "coordinates": [-94.1743021, 36.3052271]}},
{"type": "Feature", "id": "5y6vuyxIwQIm4RDa_900AtMEjvg=", "properties": {"ref": "286", "@spider": "jjill", "addr:street": "400 South Baldwin Ave.", "addr:city": "Arcadia", "addr:state": "CA", "addr:postcode": "91007", "addr:country": "US", "name": "The Promenade at Westfield Santa Anita", "phone": "626-462-1901", "website": "https://locations.jjill.com/ca/arcadia/286/", "opening_hours": "Mo 10am - 8pm; Tu 10am - 8pm; We 10am - 8pm; Th 10am - 8pm; Fr 10am - 9pm; Sa 10am - 9pm; Su 10am - 8pm", "brand": "J.Jill"}, "geometry": {"type": "Point", "coordinates": [-118.0515879, 34.1347001]}},
{"type": "Feature", "id": "zNNaiZg-A9_YhRzE9O2RnpWxGFc=", "properties": {"ref": "159", "@spider": "jjill", "addr:street": "101 Jordan Creek Pkwy.", "addr:city": "West Des Moines", "addr:state": "IA", "addr:postcode": "50266", "addr:country": "US", "name": "Jordan Creek Town Center", "phone": "515.457.7474", "website": "https://locations.jjill.com/ia/west-des-moines/159/", "opening_hours": "Mo 10am - 7pm; Tu 10am - 7pm; We 10am - 7pm; Th 10am - 7pm; Fr 10am - 8pm; Sa 10am - 8pm; Su 12pm - 6pm", "brand": "J.Jill"}, "geometry": {"type": "Point", "coordinates": [-93.8041654, 41.5699285]}},
{"type": "Feature", "id": "R6vMUzh_gwiAexSyGAiGHU2fZho=", "properties": {"ref": "645", "@spider": "jjill", "addr:street": "350 North Milwaukee St.", "addr:city": "Boise", "addr:state": "ID", "addr:postcode": "83704", "addr:country": "US", "name": "Boise Towne Square", "phone": "208.323.6799", "website": "https://locations.jjill.com/id/boise/645/", "opening_hours": "Mo 11am - 6pm; Tu 11am - 6pm; We 11am - 6pm; Th 11am - 6pm; Fr 11am - 6pm; Sa 11am - 6pm; Su 11am - 6pm", "brand": "J.Jill"}, "geometry": {"type": "Point", "coordinates": [-116.2782517, 43.6086039]}},
{"type": "Feature", "id": "xDz0JL3WjnuyWL9r63Zfl96mqrc=", "properties": {"ref": "610", "@spider": "jjill", "addr:street": "103 Christiana Mall", "addr:city": "Newark", "addr:state": "DE", "addr:postcode": "19702", "addr:country": "US", "name": "Christiana Mall", "phone": "302.454.1202", "website": "https://locations.jjill.com/de/newark/610/", "opening_hours": "Mo 11am - 8pm; Tu 11am - 8pm; We 11am - 8pm; Th 11am - 8pm; Fr 10am - 8pm; Sa 10am - 8pm; Su 11am - 6pm", "brand": "J.Jill"}, "geometry": {"type": "Point", "coordinates": [-75.6518539, 39.6782567]}},
{"type": "Feature", "id": "jzDwFJu20iNocWtdmM-EUrrHtLc=", "properties": {"ref": "263", "@spider": "jjill", "addr:street": "808 West Main Ave.", "addr:city": "Spokane", "addr:state": "WA", "addr:postcode": "99201", "addr:country": "US", "name": "River Park Square", "phone": "509.455.6592", "website": "https://locations.jjill.com/wa/spokane/263/", "opening_hours": "Mo 10am - 8pm; Tu 10am - 8pm; We 10am - 8pm; Th 10am - 8pm; Fr 10am - 8pm; Sa 10am - 8pm; Su 11am - 6pm", "brand": "J.Jill"}, "geometry": {"type": "Point", "coordinates": [-117.423822, 47.6595979]}},
{"type": "Feature", "id": "bW3VCqgb7DKC-66brAaqMGNJxEM=", "properties": {"ref": "79", "@spider": "jjill", "addr:street": "62 Broadway Lane", "addr:city": "Walnut Creek", "addr:state": "CA", "addr:postcode": "94596", "addr:country": "US", "name": "Broadway Plaza", "phone": "925.937.0900", "website": "https://locations.jjill.com/ca/walnut-creek/79/", "opening_hours": "Mo 10am - 9pm; Tu 10am - 9pm; We 10am - 9pm; Th 10am - 9pm; Fr 10am - 9pm; Sa 10am - 8pm; Su 11am - 6pm", "brand": "J.Jill"}, "geometry": {"type": "Point", "coordinates": [-122.0570708, 37.8962562]}},
{"type": "Feature", "id": "JBdD6GCNgEw5vwY4AgC2tH8tHmY=", "properties": {"ref": "129", "@spider": "jjill", "addr:street": "2126 Abbott Martin Rd.", "addr:city": "Nashville", "addr:state": "TN", "addr:postcode": "37215", "addr:country": "US", "name": "Mall at Green Hills", "phone": "615.297.7600", "website": "https://locations.jjill.com/tn/nashville/129/", "opening_hours": "Mo 10am - 7pm; Tu 10am - 7pm; We 10am - 7pm; Th 10am - 7pm; Fr 10am - 7pm; Sa 10am - 7pm; Su 12pm - 6pm", "brand": "J.Jill"}, "geometry": {"type": "Point", "coordinates": [-86.8160717, 36.1072983]}},
{"type": "Feature", "id": "4Gx-NP29kNXfZNSN3yhT3FYL8uI=", "properties": {"ref": "318", "@spider": "jjill", "addr:street": "9595 Six Pines Dr.", "addr:city": "The Woodlands", "addr:state": "TX", "addr:postcode": "77380", "addr:country": "US", "name": "Market Street - The Woodlands", "phone": "281.298.2062", "website": "https://locations.jjill.com/tx/the-woodlands/318/", "opening_hours": "Mo 10am - 8pm; Tu 10am - 8pm; We 10am - 8pm; Th 10am - 8pm; Fr 10am - 8pm; Sa 10am - 8pm; Su 11am - 6pm", "brand": "J.Jill"}, "geometry": {"type": "Point", "coordinates": [-95.4643004, 30.1639605]}},
{"type": "Feature", "id": "rSazdAZCTMFav_DjOVwEoDpzFEc=", "properties": {"ref": "714", "@spider": "jjill", "addr:street": "401 S. Mt. Juliet Rd.", "addr:city": "Mt. Juliet", "addr:state": "TN", "addr:postcode": "37122", "addr:country": "US", "name": "Providence Marketplace", "phone": "615.553.3211", "website": "https://locations.jjill.com/tn/mt.-juliet/714/", "opening_hours": "Mo 10am - 7pm; Tu 10am - 7pm; We 10am - 7pm; Th 10am - 7pm; Fr 10am - 7pm; Sa 10am - 7pm; Su 12pm - 6pm", "brand": "J.Jill"}, "geometry": {"type": "Point", "coordinates": [-86.5102586, 36.1667026]}},
{"type": "Feature", "id": "6R5iHRZlaKTpq00hWBYoIe4BslY=", "properties": {"ref": "244", "@spider": "jjill", "addr:street": "3525 Carson St.", "addr:city": "Torrance", "addr:state": "CA", "addr:postcode": "90503", "addr:country": "US", "name": "Del Amo Fashion Center", "phone": "310.370.6968", "website": "https://locations.jjill.com/ca/torrance/244/", "opening_hours": "Mo 10am - 7pm; Tu 10am - 7pm; We 10am - 7pm; Th 10am - 7pm; Fr 10am - 8pm; Sa 10am - 8pm; Su 11am - 7pm", "brand": "J.Jill"}, "geometry": {"type": "Point", "coordinates": [-118.3495695, 33.8305539]}},
{"type": "Feature", "id": "TOtgGApZtAMM354SyqCyjzoSzlQ=", "properties": {"ref": "167", "@spider": "jjill", "addr:street": "3000 184th St. SW", "addr:city": "Lynnwood", "addr:state": "WA", "addr:postcode": "98037", "addr:country": "US", "name": "The Village at Alderwood", "phone": "425.672.3149", "website": "https://locations.jjill.com/wa/lynnwood/167/", "opening_hours": "Mo 11am - 6pm; Tu 11am - 6pm; We 11am - 6pm; Th 11am - 6pm; Fr 11am - 6pm; Sa 11am - 6pm; Su 11am - 6pm", "brand": "J.Jill"}, "geometry": {"type": "Point", "coordinates": [-122.2709024, 47.8307483]}},
{"type": "Feature", "id": "vqIyejnuNMUwmnmjdY0alhTcVdI=", "properties": {"ref": "729", "@spider": "jjill", "addr:street": "2916-2920 Plaza Drive", "addr:city": "Springfield", "addr:state": "IL", "addr:postcode": "62704", "addr:country": "US", "name": "The Gables", "phone": "217-303-5052", "website": "https://locations.jjill.com/il/springfield/729/", "opening_hours": "Mo 10am - 6pm; Tu 10am - 6pm; We 10am - 6pm; Th 10am - 6pm; Fr 10am - 6pm; Sa 10am - 6pm; Su 12pm - 6pm", "brand": "J.Jill"}, "geometry": {"type": "Point", "coordinates": [-89.7084605, 39.7734621]}},
{"type": "Feature", "id": "hZcfk5LMhyB2Oo6LekQ3DUbxE0Y=", "properties": {"ref": "39", "@spider": "jjill", "addr:street": "275 Old Orchard Rd.", "addr:city": "Skokie", "addr:state": "IL", "addr:postcode": "60077", "addr:country": "US", "name": "Old Orchard", "phone": "847.675.8093", "website": "https://locations.jjill.com/il/skokie/39/", "opening_hours": "Mo 10am - 8pm; Tu 10am - 8pm; We 10am - 8pm; Th 10am - 8pm; Fr 10am - 8pm; Sa 10am - 8pm; Su 10am - 7pm", "brand": "J.Jill"}, "geometry": {"type": "Point", "coordinates": [-87.7561118, 42.0624477]}},
{"type": "Feature", "id": "KN0rRdtandwBIxj_KJGG3fjP8O4=", "properties": {"ref": "304", "@spider": "jjill", "addr:street": "4554 Poplar Ave", "addr:city": "Memphis", "addr:state": "TN", "addr:postcode": "38117", "addr:country": "US", "name": "Laurelwood Shopping Center", "phone": "901.680.6266", "website": "https://locations.jjill.com/tn/memphis/304/", "opening_hours": "Mo 10am - 6pm; Tu 10am - 6pm; We 10am - 6pm; Th 10am - 6pm; Fr 10am - 6pm; Sa 10am - 6pm; Su 12pm - 5pm", "brand": "J.Jill"}, "geometry": {"type": "Point", "coordinates": [-89.9102114, 35.1207104]}},
{"type": "Feature", "id": "naejX99aX_uZDcpeMu98jTDZUOg=", "properties": {"ref": "67", "@spider": "jjill", "addr:street": "7615 West Farmington Blvd.", "addr:city": "Germantown", "addr:state": "TN", "addr:postcode": "38138", "addr:country": "US", "name": "The Shops of Saddle Creek", "phone": "901.309.5888", "website": "https://locations.jjill.com/tn/germantown/67/", "opening_hours": "Mo 10am - 8pm; Tu 10am - 8pm; We 10am - 8pm; Th 10am - 8pm; Fr 10am - 8pm; Sa 10am - 8pm; Su 12pm - 5:30pm", "brand": "J.Jill"}, "geometry": {"type": "Point", "coordinates": [-89.8083133, 35.0949617]}},
{"type": "Feature", "id": "Lt2TJ-CBB6dgp_BfkRcazbFvJVs=", "properties": {"ref": "649", "@spider": "jjill", "addr:street": "11327 Parkside Dr.", "addr:city": "Knoxville", "addr:state": "TN", "addr:postcode": "37934", "addr:country": "US", "name": "The Pinnacle at Turkey Creek", "phone": "865.966.5455", "website": "https://locations.jjill.com/tn/knoxville/649/", "opening_hours": "Mo 10am - 7pm; Tu 10am - 7pm; We 10am - 7pm; Th 10am - 7pm; Fr 10am - 7pm; Sa 10am - 7pm; Su 12pm - 6pm", "brand": "J.Jill"}, "geometry": {"type": "Point", "coordinates": [-84.1594077, 35.9017681]}},
{"type": "Feature", "id": "Yg-OuHZ-3jfDEImAmuTGLzpAJP8=", "properties": {"ref": "717", "@spider": "jjill", "addr:street": "2513 N. Roan St.", "addr:city": "Johnson City", "addr:state": "TN", "addr:postcode": "37601", "addr:country": "US", "name": "Peerless Center", "phone": "423.430.6215", "website": "https://locations.jjill.com/tn/johnson-city/717/", "opening_hours": "Mo 10am - 7pm; Tu 10am - 7pm; We 10am - 7pm; Th 10am - 7pm; Fr 10am - 7pm; Sa 10am - 6pm; Su 12pm - 5pm", "brand": "J.Jill"}, "geometry": {"type": "Point", "coordinates": [-82.3809085, 36.3510106]}},
{"type": "Feature", "id": "jDB5Bq8U6czjuJzsF7vFCXjjJaE=", "properties": {"ref": "681", "@spider": "jjill", "addr:street": "1800 Galleria Blvd.", "addr:city": "Franklin", "addr:state": "TN", "addr:postcode": "37067", "addr:country": "US", "name": "CoolSprings Galleria", "phone": "615.771.0250", "website": "https://locations.jjill.com/tn/franklin/681/", "opening_hours": "Mo 10am - 7pm; Tu 10am - 7pm; We 10am - 7pm; Th 10am - 7pm; Fr 10am - 7pm; Sa 10am - 7pm; Su 12pm - 6pm", "brand": "J.Jill"}, "geometry": {"type": "Point", "coordinates": [-86.8134629, 35.958367]}},
{"type": "Feature", "id": "qonU7xmH-rjy7B29--nAud_c48Q=", "properties": {"ref": "177", "@spider": "jjill", "addr:street": "2115 Gunbarrel Road", "addr:city": "Chattanooga", "addr:state": "TN", "addr:postcode": "37421", "addr:country": "US", "name": "Hamilton Corner", "phone": "423.553.6083", "website": "https://locations.jjill.com/tn/chattanooga/177/", "opening_hours": "Mo 10am - 6pm; Tu 10am - 6pm; We 10am - 6pm; Th 10am - 6pm; Fr 10am - 6pm; Sa 10am - 6pm; Su 12pm - 6pm", "brand": "J.Jill"}, "geometry": {"type": "Point", "coordinates": [-85.1547419, 35.0334997]}},
{"type": "Feature", "id": "2jUNVK8qQq_U3Dc4mvjZkCvFs6s=", "properties": {"ref": "605", "@spider": "jjill", "addr:street": "16535 Southwest Freeway", "addr:city": "Sugarland", "addr:state": "TX", "addr:postcode": "77479", "addr:country": "US", "name": "First Colony Mall", "phone": "281.325.0243", "website": "https://locations.jjill.com/tx/sugarland/605/", "opening_hours": "Mo 10am - 7pm; Tu 10am - 7pm; We 10am - 7pm; Th 10am - 7pm; Fr 10am - 7pm; Sa 10am - 7pm; Su 12pm - 6pm", "brand": "J.Jill"}, "geometry": {"type": "Point", "coordinates": [-95.6242656, 29.5916693]}},
{"type": "Feature", "id": "WETOUM-TVhbn-mD0n32Yn-QHuuM=", "properties": {"ref": "667", "@spider": "jjill", "addr:street": "279 Grand Ave.", "addr:city": "Southlake", "addr:state": "TX", "addr:postcode": "76092", "addr:country": "US", "name": "Southlake Town Square", "phone": "817.421.3953", "website": "https://locations.jjill.com/tx/southlake/667/", "opening_hours": "Mo 10am - 8pm; Tu 10am - 8pm; We 10am - 8pm; Th 10am - 8pm; Fr 10am - 8pm; Sa 10am - 8pm; Su 12pm - 6pm", "brand": "J.Jill"}, "geometry": {"type": "Point", "coordinates": [-97.1300909, 32.9438321]}},
{"type": "Feature", "id": "MOdleadIOL8Rmyk98oDQ7TKbARk=", "properties": {"ref": "697", "@spider": "jjill", "addr:street": "15900 La Cantera Pkwy", "addr:city": "San Antonio", "addr:state": "TX", "addr:postcode": "78256", "addr:country": "US", "name": "The Shops at La Cantera", "phone": "210.538.9768", "website": "https://locations.jjill.com/tx/san-antonio/697/", "opening_hours": "Mo 10am - 8pm; Tu 10am - 8pm; We 10am - 8pm; Th 10am - 8pm; Fr 10am - 9pm; Sa 10am - 9pm; Su 12pm - 6pm", "brand": "J.Jill"}, "geometry": {"type": "Point", "coordinates": [-98.6182578, 29.5929593]}},
{"type": "Feature", "id": "P0lki_ZGzkrIYxZleNjVNVvgt44=", "properties": {"ref": "606", "@spider": "jjill", "addr:street": "255 E. Basse Rd.", "addr:city": "San Antonio", "addr:state": "TX", "addr:postcode": "78209", "addr:country": "US", "name": "Alamo Quarry Market", "phone": "210.824.1731", "website": "https://locations.jjill.com/tx/san-antonio/606/", "opening_hours": "Mo 10am - 7pm; Tu 10am - 7pm; We 10am - 7pm; Th 10am - 7pm; Fr 10am - 7pm; Sa 10am - 7pm; Su 12pm - 6pm", "brand": "J.Jill"}, "geometry": {"type": "Point", "coordinates": [-98.4808168, 29.4957603]}},
{"type": "Feature", "id": "Lrn48GN2hvtJJNTLSGlH32qGsgY=", "properties": {"ref": "401", "@spider": "jjill", "addr:street": "6121 W. Park Blvd", "addr:city": "Plano", "addr:state": "TX", "addr:postcode": "75093", "addr:country": "US", "name": "The Shops at Willow Bend", "phone": "972.202.8434", "website": "https://locations.jjill.com/tx/plano/401/", "opening_hours": "Mo 10am - 7pm; Tu 10am - 7pm; We 10am - 7pm; Th 10am - 7pm; Fr 10am - 7pm; Sa 10am - 7pm; Su 12pm - 6pm", "brand": "J.Jill"}, "geometry": {"type": "Point", "coordinates": [-96.8320851, 33.0308529]}},
{"type": "Feature", "id": "zmZvi-Z9cf2rHorSp6F8qS_1epI=", "properties": {"ref": "297", "@spider": "jjill", "addr:street": "23501 Cinco Ranch Blvd.", "addr:city": "Katy", "addr:state": "TX", "addr:postcode": "77494", "addr:country": "US", "name": "LaCenterra at Cinco Ranch", "phone": "281.574.1600", "website": "https://locations.jjill.com/tx/katy/297/", "opening_hours": "Mo 10am - 8pm; Tu 10am - 8pm; We 10am - 8pm; Th 10am - 8pm; Fr 10am - 8pm; Sa 10am - 8pm; Su 12pm - 6pm", "brand": "J.Jill"}, "geometry": {"type": "Point", "coordinates": [-95.7755372, 29.7424238]}},
{"type": "Feature", "id": "AcALIT3as5HoIZFaGrqOISO043M=", "properties": {"ref": "613", "@spider": "jjill", "addr:street": "50 South Main Street", "addr:city": "Salt Lake City", "addr:state": "UT", "addr:postcode": "84101", "addr:country": "US", "name": "City Creek Center", "phone": "801.320.9615", "website": "https://locations.jjill.com/ut/salt-lake-city/613/", "opening_hours": "Mo 10am - 8pm; Tu 10am - 8pm; We 10am - 8pm; Th 10am - 8pm; Fr 10am - 8pm; Sa 10am - 8pm", "brand": "J.Jill"}, "geometry": {"type": "Point", "coordinates": [-111.8917453, 40.768357]}},
{"type": "Feature", "id": "EPjAh24emUSjWMKvFKFMqnEA-f4=", "properties": {"ref": "209", "@spider": "jjill", "addr:street": "8687 N. Central Expressway", "addr:city": "Dallas", "addr:state": "TX", "addr:postcode": "75225", "addr:country": "US", "name": "NorthPark Center", "phone": "469.232.5401", "website": "https://locations.jjill.com/tx/dallas/209/", "opening_hours": "Mo 10am - 9pm; Tu 10am - 9pm; We 10am - 9pm; Th 10am - 9pm; Fr 10am - 9pm; Sa 10am - 9pm; Su 12pm - 6pm", "brand": "J.Jill"}, "geometry": {"type": "Point", "coordinates": [-96.7718582, 32.8687357]}},
{"type": "Feature", "id": "MY52de0mYM5y9hdokCURMrWidUw=", "properties": {"ref": "672", "@spider": "jjill", "addr:street": "8201 Quaker Ave", "addr:city": "Lubbock", "addr:state": "TX", "addr:postcode": "79424", "addr:country": "US", "name": "Kingsgate Center South", "phone": "806.698.6477", "website": "https://locations.jjill.com/tx/lubbock/672/", "opening_hours": "Mo 10am - 7pm; Tu 10am - 7pm; We 10am - 7pm; Th 10am - 7pm; Fr 10am - 7pm; Sa 10am - 7pm; Su 12pm - 6pm", "brand": "J.Jill"}, "geometry": {"type": "Point", "coordinates": [-101.9037042, 33.5185839]}},
{"type": "Feature", "id": "qz-fyV5NQuEAUyJOF8yw1GFX6t8=", "properties": {"ref": "46", "@spider": "jjill", "addr:street": "3000 Riverchase Galleria", "addr:city": "Hoover", "addr:state": "AL", "addr:postcode": "35244", "addr:country": "US", "name": "Riverchase Galleria Mall", "phone": "205.982.4964", "website": "https://locations.jjill.com/al/hoover/46/", "opening_hours": "Mo 10am - 7pm; Tu 10am - 7pm; We 10am - 7pm; Th 10am - 7pm; Fr 10am - 8pm; Sa 10am - 8pm; Su 12pm - 6pm", "brand": "J.Jill"}, "geometry": {"type": "Point", "coordinates": [-86.8085509, 33.3794513]}},
{"type": "Feature", "id": "Kx6Q_71X2fL3Ok56XFL9pAzg8fE=", "properties": {"ref": "117", "@spider": "jjill", "addr:street": "5135 West Alabama", "addr:city": "Houston", "addr:state": "TX", "addr:postcode": "77056", "addr:country": "US", "name": "The Galleria", "phone": "713.622.6863", "website": "https://locations.jjill.com/tx/houston/117/", "opening_hours": "Mo 10am - 7pm; Tu 10am - 7pm; We 10am - 7pm; Th 10am - 7pm; Fr 10am - 7pm; Sa 10am - 7pm; Su 12pm - 6pm", "brand": "J.Jill"}, "geometry": {"type": "Point", "coordinates": [-95.4644579, 29.737703]}},
{"type": "Feature", "id": "wCsQUBEl3RGa57DJMPeUpw8Yx_Y=", "properties": {"ref": "713", "@spider": "jjill", "addr:street": "1612 S. University Drive", "addr:city": "Ft. Worth", "addr:state": "TX", "addr:postcode": "76107", "addr:country": "US", "name": "University Park Village", "phone": "469.348.2319", "website": "https://locations.jjill.com/tx/ft.-worth/713/", "opening_hours": "Mo 10am - 8pm; Tu 10am - 8pm; We 10am - 8pm; Th 10am - 8pm; Fr 10am - 8pm; Sa 10am - 8pm; Su 12pm - 6pm", "brand": "J.Jill"}, "geometry": {"type": "Point", "coordinates": [-97.3631351, 32.7283197]}},
{"type": "Feature", "id": "sWOqfdW7FuDBZSzoWs-vOubZrho=", "properties": {"ref": "502", "@spider": "jjill", "addr:street": "2901 S. Capital of Texas Highway", "addr:city": "Austin", "addr:state": "TX", "addr:postcode": "78746", "addr:country": "US", "name": "Barton Creek Square", "phone": "512.330.1600", "website": "https://locations.jjill.com/tx/austin/502/", "opening_hours": "Mo 10am - 8pm; Tu 10am - 8pm; We 10am - 8pm; Th 10am - 8pm; Fr 10am - 8pm; Sa 10am - 8pm; Su 12pm - 6pm", "brand": "J.Jill"}, "geometry": {"type": "Point", "coordinates": [-97.8072249, 30.2573622]}},
{"type": "Feature", "id": "mV7tFGgVjc-ZcqE5EUTP1QFjgvU=", "properties": {"ref": "141", "@spider": "jjill", "addr:street": "9722 Great Hills Trail", "addr:city": "Austin", "addr:state": "TX", "addr:postcode": "78759", "addr:country": "US", "name": "Arboretum Market", "phone": "512.340.0010", "website": "https://locations.jjill.com/tx/austin/141/", "opening_hours": "Mo 10am - 7pm; Tu 10am - 7pm; We 10am - 7pm; Th 10am - 7pm; Fr 10am - 7pm; Sa 10am - 7pm; Su 12pm - 6pm", "brand": "J.Jill"}, "geometry": {"type": "Point", "coordinates": [-97.7517712, 30.3955849]}},
{"type": "Feature", "id": "HOV5gnvIIXtyQnScePR88FD8o98=", "properties": {"ref": "712", "@spider": "jjill", "addr:street": "913 Garden Park Dr", "addr:city": "Allen", "addr:state": "TX", "addr:postcode": "75013", "addr:country": "US", "name": "Watters Creek", "phone": "469.270.1789", "website": "https://locations.jjill.com/tx/allen/712/", "opening_hours": "Mo 10am - 8pm; Tu 10am - 8pm; We 10am - 8pm; Th 10am - 8pm; Fr 10am - 8pm; Sa 10am - 8pm; Su 12pm - 6pm", "brand": "J.Jill"}, "geometry": {"type": "Point", "coordinates": [-96.6843617, 33.0879805]}},
{"type": "Feature", "id": "rW_k4VE9Ko09aJiROZC6wBzTQAU=", "properties": {"ref": "629", "@spider": "jjill", "addr:street": "1992 West Gray St.", "addr:city": "Houston", "addr:state": "TX", "addr:postcode": "77019", "addr:country": "US", "name": "River Oaks Shopping Center", "phone": "713.528.2015", "website": "https://locations.jjill.com/tx/houston/629/", "opening_hours": "Mo 10am - 7pm; Tu 10am - 7pm; We 10am - 7pm; Th 10am - 7pm; Fr 10am - 7pm; Sa 10am - 7pm; Su 12pm - 6pm", "brand": "J.Jill"}, "geometry": {"type": "Point", "coordinates": [-95.408007, 29.753429]}},
{"type": "Feature", "id": "oT7XVH2vpQILQ4r2wvXMUelsQ9Q=", "properties": {"ref": "731", "@spider": "jjill", "addr:street": "880 W.Forbush Place", "addr:city": "Farmington", "addr:state": "UT", "addr:postcode": "84025", "addr:country": "US", "name": "Station Park", "phone": "(385) 220-2924", "website": "https://locations.jjill.com/ut/farmington/731/", "opening_hours": "Mo 10am - 6pm; Tu 10am - 6pm; We 10am - 6pm; Th 10am - 6pm; Fr 10am - 6pm; Sa 10am - 6pm; Su 12pm - 6pm", "brand": "J.Jill"}, "geometry": {"type": "Point", "coordinates": [-111.906855, 40.9837]}},
{"type": "Feature", "id": "l-dVlGHOfyMIieqJbHkVV1tWiok=", "properties": {"ref": "131", "@spider": "jjill", "addr:street": "303 Memorial City Way", "addr:city": "Houston", "addr:state": "TX", "addr:postcode": "77024", "addr:country": "US", "name": "Memorial City Mall", "phone": "713.463.8751", "website": "https://locations.jjill.com/tx/houston/131/", "opening_hours": "Mo 10am - 7pm; Tu 10am - 7pm; We 10am - 7pm; Th 10am - 7pm; Fr 10am - 7pm; Sa 10am - 7pm; Su 12pm - 6pm", "brand": "J.Jill"}, "geometry": {"type": "Point", "coordinates": [-95.5380223, 29.7806343]}},
{"type": "Feature", "id": "eE0GzDML0O0RhB3zMLRHhQ6TBhY=", "properties": {"ref": "633", "@spider": "jjill", "addr:street": "137 Spotsylvania Mall", "addr:city": "Fredericksburg", "addr:state": "VA", "addr:postcode": "22407", "addr:country": "US", "name": "Spotsylvania Towne Centre in The Village", "phone": "540.548.2363", "website": "https://locations.jjill.com/va/fredericksburg/633/", "opening_hours": "Mo 10am - 6pm; Tu 10am - 6pm; We 10am - 6pm; Th 10am - 6pm; Fr 10am - 6pm; Sa 10am - 6pm; Su 12pm - 6pm", "brand": "J.Jill"}, "geometry": {"type": "Point", "coordinates": [-77.5132284, 38.2924568]}},
{"type": "Feature", "id": "J4qBBp2hYyM7cCaiu15ZxCiJjPI=", "properties": {"ref": "26", "@spider": "jjill", "addr:street": "8010 Tysons Corner Ctr.", "addr:city": "McLean", "addr:state": "VA", "addr:postcode": "22102", "addr:country": "US", "name": "Tysons Corner", "phone": "703.734.6042", "website": "https://locations.jjill.com/va/mclean/26/", "opening_hours": "Mo 10am - 8pm; Tu 10am - 8pm; We 10am - 8pm; Th 10am - 8pm; Fr 10am - 8pm; Sa 10am - 8pm; Su 11am - 7pm", "brand": "J.Jill"}, "geometry": {"type": "Point", "coordinates": [-77.2213606, 38.9166325]}},
{"type": "Feature", "id": "3Rt9syF-i-W9CtDJYifcMZSV8-0=", "properties": {"ref": "134", "@spider": "jjill", "addr:street": "9200 Stony Point Parkway", "addr:city": "Richmond", "addr:state": "VA", "addr:postcode": "23235", "addr:country": "US", "name": "Stony Point Fashion Park", "phone": "804.320.9303", "website": "https://locations.jjill.com/va/richmond/134/", "opening_hours": "Mo 10am - 6pm; Tu 10am - 6pm; We 10am - 6pm; Th 10am - 6pm; Fr 10am - 6pm; Sa 10am - 6pm; Su 12pm - 6pm", "brand": "J.Jill"}, "geometry": {"type": "Point", "coordinates": [-77.5716586, 37.5483402]}},
{"type": "Feature", "id": "dJoXL9_Nm7Pt-PvhwZBEgdUAyFc=", "properties": {"ref": "144", "@spider": "jjill", "addr:street": "1100 S. Hayes St.", "addr:city": "Arlington", "addr:state": "VA", "addr:postcode": "22202", "addr:country": "US", "name": "Fashion Centre at Pentagon City", "phone": "703.415.1630", "website": "https://locations.jjill.com/va/arlington/144/", "opening_hours": "Mo 10am - 8pm; Tu 10am - 8pm; We 10am - 8pm; Th 10am - 8pm; Fr 10am - 9pm; Sa 10am - 9pm; Su 11am - 6pm", "brand": "J.Jill"}, "geometry": {"type": "Point", "coordinates": [-77.0605838, 38.8632757]}},
{"type": "Feature", "id": "jGfupcVAvw85nLgkNFZg2eHz9A0=", "properties": {"ref": "132", "@spider": "jjill", "addr:street": "11800 West Broad St.", "addr:city": "Richmond", "addr:state": "VA", "addr:postcode": "23233", "addr:country": "US", "name": "Short Pump Town Center", "phone": "804.364.9401", "website": "https://locations.jjill.com/va/richmond/132/", "opening_hours": "Mo 10am - 8pm; Tu 10am - 8pm; We 10am - 8pm; Th 10am - 8pm; Fr 10am - 8pm; Sa 10am - 8pm; Su 11am - 7pm", "brand": "J.Jill"}, "geometry": {"type": "Point", "coordinates": [-77.619383, 37.6561411]}},
{"type": "Feature", "id": "wbGMyGFSSYupHY_cFlilcqU9KAA=", "properties": {"ref": "267", "@spider": "jjill", "addr:street": "355 The Bridge St", "addr:city": "Huntsville", "addr:state": "AL", "addr:postcode": "35806", "addr:country": "US", "name": "Bridge Street Town Centre", "phone": "256.327.8410", "website": "https://locations.jjill.com/al/huntsville/267/", "opening_hours": "Mo 10am - 7pm; Tu 10am - 7pm; We 10am - 7pm; Th 10am - 7pm; Fr 10am - 7pm; Sa 10am - 7pm; Su 12pm - 6pm", "brand": "J.Jill"}, "geometry": {"type": "Point", "coordinates": [-86.6739427, 34.7177287]}},
{"type": "Feature", "id": "rvc6N9kD0akFISs5NhTRnMDgjeA=", "properties": {"ref": "194", "@spider": "jjill", "addr:street": "11743 L Fair Oaks", "addr:city": "Fairfax", "addr:state": "VA", "addr:postcode": "22033", "addr:country": "US", "name": "Fair Oaks Mall", "phone": "703.218.3990", "website": "https://locations.jjill.com/va/fairfax/194/", "opening_hours": "Mo 10am - 8pm; Tu 10am - 8pm; We 10am - 8pm; Th 10am - 8pm; Fr 10am - 8pm; Sa 10am - 8pm; Su 11am - 7pm", "brand": "J.Jill"}, "geometry": {"type": "Point", "coordinates": [-77.2897062, 38.8409458]}},
{"type": "Feature", "id": "GHGN3NhdX7UPJKNlSPLWlyHejnE=", "properties": {"ref": "640", "@spider": "jjill", "addr:street": "1115A Emmet St.", "addr:city": "Charlottesville", "addr:state": "VA", "addr:postcode": "22903", "addr:country": "US", "name": "Barracks Road Shopping Center", "phone": "434.244.3610", "website": "https://locations.jjill.com/va/charlottesville/640/", "opening_hours": "Mo 10am - 7pm; Tu 10am - 7pm; We 10am - 7pm; Th 10am - 7pm; Fr 10am - 7pm; Sa 10am - 7pm; Su 12pm - 6pm", "brand": "J.Jill"}, "geometry": {"type": "Point", "coordinates": [-78.50156, 38.051808]}},
{"type": "Feature", "id": "JVL1DMWYOK2ftIR8hCbq6BDWEqM=", "properties": {"ref": "720", "@spider": "jjill", "addr:street": "3113 Valley Ave", "addr:city": "Winchester", "addr:state": "VA", "addr:postcode": "22601", "addr:country": "US", "name": "Creekside Station", "phone": "540.431.2851", "website": "https://locations.jjill.com/va/winchester/720/", "opening_hours": "Mo 10am - 6pm; Tu 10am - 6pm; We 10am - 6pm; Th 10am - 6pm; Fr 10am - 6pm; Sa 10am - 6pm; Su 12pm - 5pm", "brand": "J.Jill"}, "geometry": {"type": "Point", "coordinates": [-78.192378, 39.1427724]}},
{"type": "Feature", "id": "DBaQRnWevLVlt4eIWTA1EJ6KWOs=", "properties": {"ref": "290", "@spider": "jjill", "addr:street": "9 Du Rhu Drive", "addr:city": "Mobile", "addr:state": "AL", "addr:postcode": "36608", "addr:country": "US", "name": "Legacy Village at Spring Hill", "phone": "251.340.6209", "website": "https://locations.jjill.com/al/mobile/290/", "opening_hours": "Mo 10am - 6pm; Tu 10am - 6pm; We 10am - 6pm; Th 10am - 6pm; Fr 10am - 6pm; Sa 10am - 6pm; Su 12pm - 5pm", "brand": "J.Jill"}, "geometry": {"type": "Point", "coordinates": [-88.1312739, 30.6889217]}},
{"type": "Feature", "id": "pr7yQ98bsnqYWvplbZHH3AtMIZc=", "properties": {"ref": "245", "@spider": "jjill", "addr:street": "441 Ramsay Way", "addr:city": "Kent", "addr:state": "WA", "addr:postcode": "98032", "addr:country": "US", "name": "Kent Station", "phone": "253.372.3735", "website": "https://locations.jjill.com/wa/kent/245/", "opening_hours": "Mo 10am - 6pm; Tu 10am - 6pm; We 10am - 6pm; Th 10am - 6pm; Fr 10am - 6pm; Sa 10am - 6pm; Su 11am - 5pm", "brand": "J.Jill"}, "geometry": {"type": "Point", "coordinates": [-122.2362037, 47.3850658]}},
{"type": "Feature", "id": "2erLwniEXStIk4zEZbzqY1tePX4=", "properties": {"ref": "69", "@spider": "jjill", "addr:street": "2050 Bellevue Sq.", "addr:city": "Bellevue", "addr:state": "WA", "addr:postcode": "98004", "addr:country": "US", "name": "Bellevue Square", "phone": "425.462.9546", "website": "https://locations.jjill.com/wa/bellevue/69/", "opening_hours": "Mo 10am - 9pm; Tu 10am - 9pm; We 10am - 9pm; Th 10am - 9pm; Fr 10am - 9pm; Sa 10am - 9pm; Su 11am - 7pm", "brand": "J.Jill"}, "geometry": {"type": "Point", "coordinates": [-122.2031268, 47.6145332]}},
{"type": "Feature", "id": "K3tHzGclG2pfit-3857zCFyKx9g=", "properties": {"ref": "306", "@spider": "jjill", "addr:street": "4735 Point Fosdick Dr. NW", "addr:city": "Gig Harbor", "addr:state": "WA", "addr:postcode": "98335", "addr:country": "US", "name": "Uptown Gig Harbor", "phone": "253.858.1400", "website": "https://locations.jjill.com/wa/gig-harbor/306/", "opening_hours": "Mo 10am - 6pm; Tu 10am - 6pm; We 10am - 6pm; Th 10am - 6pm; Fr 10am - 6pm; Sa 10am - 6pm; Su 11am - 6pm", "brand": "J.Jill"}, "geometry": {"type": "Point", "coordinates": [-122.5769168, 47.3009737]}},
{"type": "Feature", "id": "32mMfF_S5tDPwcI-yQwfU57jpOw=", "properties": {"ref": "403", "@spider": "jjill", "addr:street": "516 West Hillcrest Drive", "addr:city": "Thousand Oaks", "addr:state": "CA", "addr:postcode": "91360", "addr:country": "US", "name": "The Oaks", "phone": "805.494.8772", "website": "https://locations.jjill.com/ca/thousand-oaks/403/", "opening_hours": "Mo 10am - 9pm; Tu 10am - 9pm; We 10am - 9pm; Th 10am - 9pm; Fr 10am - 9pm; Sa 10am - 9pm; Su 11am - 7pm", "brand": "J.Jill"}, "geometry": {"type": "Point", "coordinates": [-118.8880399, 34.1872098]}},
{"type": "Feature", "id": "29sevDVdMepfI3XQ-vz0u38Vhsg=", "properties": {"ref": "119", "@spider": "jjill", "addr:street": "911 Village Court", "addr:city": "Santa Rosa", "addr:state": "CA", "addr:postcode": "95405", "addr:country": "US", "name": "Montgomery Village", "phone": "707-575-1070", "website": "https://locations.jjill.com/ca/santa-rosa/119/", "opening_hours": "Mo 10am - 6pm; Tu 10am - 6pm; We 10am - 6pm; Th 10am - 6pm; Fr 10am - 6pm; Sa 10am - 6pm; Su 11am - 5pm", "brand": "J.Jill"}, "geometry": {"type": "Point", "coordinates": [-122.6866329, 38.4453386]}},
{"type": "Feature", "id": "Rcl_Kldqqi4w6ZYlx455zSGql7E=", "properties": {"ref": "73", "@spider": "jjill", "addr:street": "4417 La Jolla Village Dr.", "addr:city": "San Diego", "addr:state": "CA", "addr:postcode": "92122", "addr:country": "US", "name": "University Town Center", "phone": "858.450.9041", "website": "https://locations.jjill.com/ca/san-diego/73/", "opening_hours": "Mo 10am - 8pm; Tu 10am - 8pm; We 10am - 8pm; Th 10am - 8pm; Fr 10am - 9pm; Sa 10am - 9pm; Su 10am - 8pm", "brand": "J.Jill"}, "geometry": {"type": "Point", "coordinates": [-117.2099882, 32.8718293]}},
{"type": "Feature", "id": "5Pj6XN7lhgQmHhnTuNfPbqTrgdw=", "properties": {"ref": "309", "@spider": "jjill", "addr:street": "5759 Pacific Ave.", "addr:city": "Stockton", "addr:state": "CA", "addr:postcode": "95207", "addr:country": "US", "name": "StoneCreek Village", "phone": "209.474.1684", "website": "https://locations.jjill.com/ca/stockton/309/", "opening_hours": "Mo 10am - 6pm; Tu 10am - 6pm; We 10am - 6pm; Th 10am - 6pm; Fr 10am - 6pm; Sa 10am - 6pm; Su 11am - 5pm", "brand": "J.Jill"}, "geometry": {"type": "Point", "coordinates": [-121.3183744, 38.0023621]}},
{"type": "Feature", "id": "GoB2XlkrRNVQZNla_LybTmiJ6lQ=", "properties": {"ref": "57", "@spider": "jjill", "addr:street": "14006 Riverside Dr.", "addr:city": "Sherman Oaks", "addr:state": "CA", "addr:postcode": "91423", "addr:country": "US", "name": "Sherman Oaks Fashion Square", "phone": "818.905.0017", "website": "https://locations.jjill.com/ca/sherman-oaks/57/", "opening_hours": "Mo 10am - 8pm; Tu 10am - 8pm; We 10am - 8pm; Th 10am - 8pm; Fr 10am - 9pm; Sa 10am - 9pm; Su 10am - 8pm", "brand": "J.Jill"}, "geometry": {"type": "Point", "coordinates": [-118.4373027, 34.1571414]}},
{"type": "Feature", "id": "4JfbP51S6uaftAp8xshRyuI0zpM=", "properties": {"ref": "644", "@spider": "jjill", "addr:street": "7007 Friars Rd.", "addr:city": "San Diego", "addr:state": "CA", "addr:postcode": "92108", "addr:country": "US", "name": "Fashion Valley", "phone": "619.296.4203", "website": "https://locations.jjill.com/ca/san-diego/644/", "opening_hours": "Mo 10am - 8pm; Tu 10am - 8pm; We 10am - 8pm; Th 10am - 8pm; Fr 10am - 8pm; Sa 10am - 8pm; Su 11am - 7pm", "brand": "J.Jill"}, "geometry": {"type": "Point", "coordinates": [-117.1633768, 32.7700062]}},
{"type": "Feature", "id": "DXeppbVSCwOXqDV5ej9AIPXZ6P4=", "properties": {"ref": "29", "@spider": "jjill", "addr:street": "1151 Galleria Blvd", "addr:city": "Roseville", "addr:state": "CA", "addr:postcode": "95678", "addr:country": "US", "name": "Galleria at Roseville", "phone": "916.774.7011", "website": "https://locations.jjill.com/ca/roseville/29/", "opening_hours": "Mo 10am - 8pm; Tu 10am - 8pm; We 10am - 8pm; Th 10am - 8pm; Fr 10am - 10pm; Sa 10am - 10pm; Su 10am - 8pm", "brand": "J.Jill"}, "geometry": {"type": "Point", "coordinates": [-121.269432, 38.7734303]}},
{"type": "Feature", "id": "CzRo0kHy1uNeCRRM6KpYbq2WM-U=", "properties": {"ref": "185", "@spider": "jjill", "addr:street": "3200 Sepulveda Blvd.", "addr:city": "Manhattan Beach", "addr:state": "CA", "addr:postcode": "90266", "addr:country": "US", "name": "Manhattan Village", "phone": "310.802.0512", "website": "https://locations.jjill.com/ca/manhattan-beach/185/", "opening_hours": "Mo 10am - 7pm; Tu 10am - 7pm; We 10am - 7pm; Th 10am - 7pm; Fr 10am - 7pm; Sa 10am - 6pm; Su 11am - 6pm", "brand": "J.Jill"}, "geometry": {"type": "Point", "coordinates": [-118.394016, 33.8995437]}},
{"type": "Feature", "id": "UNnsGJNi-44QMlNBVvohAus9p1c=", "properties": {"ref": "125", "@spider": "jjill", "addr:street": "3815 State Street", "addr:city": "Santa Barbara", "addr:state": "CA", "addr:postcode": "93105", "addr:country": "US", "name": "La Cumbre Plaza", "phone": "805.569.1131", "website": "https://locations.jjill.com/ca/santa-barbara/125/", "opening_hours": "Mo 10am - 7pm; Tu 10am - 7pm; We 10am - 7pm; Th 10am - 7pm; Fr 10am - 7pm; Sa 10am - 6pm; Su 11am - 6pm", "brand": "J.Jill"}, "geometry": {"type": "Point", "coordinates": [-119.7475346, 34.4393161]}},
{"type": "Feature", "id": "g4VdrGjv-zfX9Y3_7cMgeqHR3PQ=", "properties": {"ref": "670", "@spider": "jjill", "addr:street": "561 Pavilions Lane", "addr:city": "Sacramento", "addr:state": "CA", "addr:postcode": "95825", "addr:country": "US", "name": "The Pavilions of Sacramento", "phone": "916-568-5455", "website": "https://locations.jjill.com/ca/sacramento/670/", "opening_hours": "Mo 10am - 6pm; Tu 10am - 6pm; We 10am - 6pm; Th 10am - 6pm; Fr 10am - 6pm; Sa 10am - 6pm; Su 11am - 6pm", "brand": "J.Jill"}, "geometry": {"type": "Point", "coordinates": [-121.409737, 38.5751569]}},
{"type": "Feature", "id": "flJ-2xDEHQMUXdlbt4gxdzk9aS8=", "properties": {"ref": "666", "@spider": "jjill", "addr:street": "1031 Montana Avenue", "addr:city": "Santa Monica", "addr:state": "CA", "addr:postcode": "90403", "addr:country": "US", "name": "Montana Avenue", "phone": "310.260.5545", "website": "https://locations.jjill.com/ca/santa-monica/666/", "opening_hours": "Mo 10am - 6pm; Tu 10am - 6pm; We 10am - 6pm; Th 10am - 6pm; Fr 10am - 6pm; Sa 10am - 6pm; Su 11am - 6pm", "brand": "J.Jill"}, "geometry": {"type": "Point", "coordinates": [-118.49836, 34.0299351]}},
{"type": "Feature", "id": "ZPZlnLS-enosMbMLjDFS1PEGitA=", "properties": {"ref": "696", "@spider": "jjill", "addr:street": "250 Del Monte Center", "addr:city": "Monterey", "addr:state": "CA", "addr:postcode": "93940", "addr:country": "US", "name": "Del Monte Shopping Center", "phone": "831-264-8518", "website": "https://locations.jjill.com/ca/monterey/696/", "opening_hours": "Mo 10am - 8pm; Tu 10am - 8pm; We 10am - 8pm; Th 10am - 8pm; Fr 10am - 8pm; Sa 10am - 8pm; Su 10am - 5pm", "brand": "J.Jill"}, "geometry": {"type": "Point", "coordinates": [-121.8954872, 36.5831842]}},
{"type": "Feature", "id": "cIstzU6yZSVIl1ofOLoxsKoCyco=", "properties": {"ref": "693", "@spider": "jjill", "addr:street": "73575 El Paseo", "addr:city": "Palm Desert", "addr:state": "CA", "addr:postcode": "92260", "addr:country": "US", "name": "The Gardens on El Paseo", "phone": "760.340.2528", "website": "https://locations.jjill.com/ca/palm-desert/693/", "opening_hours": "Mo 10am - 7pm; Tu 10am - 7pm; We 10am - 7pm; Th 10am - 7pm; Fr 10am - 8pm; Sa 10am - 8pm; Su 11am - 5pm", "brand": "J.Jill"}, "geometry": {"type": "Point", "coordinates": [-116.3809106, 33.7189413]}},
{"type": "Feature", "id": "X-fo1Upt_y2FSfKOBhjofNh6xfI=", "properties": {"ref": "163", "@spider": "jjill", "addr:street": "12442 South Mainstreet", "addr:city": "Rancho Cucamonga", "addr:state": "CA", "addr:postcode": "91739", "addr:country": "US", "name": "Victoria Gardens", "phone": "909-646-7000", "website": "https://locations.jjill.com/ca/rancho-cucamonga/163/", "opening_hours": "Mo 10am - 9pm; Tu 10am - 9pm; We 10am - 9pm; Th 10am - 9pm; Fr 10am - 9pm; Sa 10am - 9pm; Su 10am - 7pm", "brand": "J.Jill"}, "geometry": {"type": "Point", "coordinates": [-117.5338681, 34.1110415]}},
{"type": "Feature", "id": "IVOSCv0jLCuO2xUmcADl7ijkRNk=", "properties": {"ref": "160", "@spider": "jjill", "addr:street": "1 Stoneridge Mall Rd.", "addr:city": "Pleasanton", "addr:state": "CA", "addr:postcode": "94588", "addr:country": "US", "name": "Stoneridge Shopping Center", "phone": "925-730-0112", "website": "https://locations.jjill.com/ca/pleasanton/160/", "opening_hours": "Mo 10am - 6pm; Tu 10am - 6pm; We 10am - 6pm; Th 10am - 6pm; Fr 10am - 6pm; Sa 10am - 6pm; Su 12pm - 5pm", "brand": "J.Jill"}, "geometry": {"type": "Point", "coordinates": [-121.928467, 37.6950484]}},
{"type": "Feature", "id": "h0gG7IRSnDVQ2d5A4jR6JSu2WBY=", "properties": {"ref": "82", "@spider": "jjill", "addr:street": "660 Stanford Shopping Center", "addr:city": "Palo Alto", "addr:state": "CA", "addr:postcode": "94304", "addr:country": "US", "name": "Stanford Shopping Center", "phone": "650-327-1195", "website": "https://locations.jjill.com/ca/palo-alto/82/", "opening_hours": "Mo 11am - 7pm; Tu 11am - 7pm; We 11am - 7pm; Th 11am - 7pm; Fr 11am - 7pm; Sa 11am - 7pm; Su 12pm - 6pm", "brand": "J.Jill"}, "geometry": {"type": "Point", "coordinates": [-122.1720994, 37.4417058]}},
{"type": "Feature", "id": "w2VA22cbNJcNBUFpRImIttyzVIE=", "properties": {"ref": "96", "@spider": "jjill", "addr:street": "1610 Redwood Highway", "addr:city": "Corte Madera", "addr:state": "CA", "addr:postcode": "94925", "addr:country": "US", "name": "Village at Corte Madera", "phone": "415-924-3933", "website": "https://locations.jjill.com/ca/corte-madera/96/", "opening_hours": "Mo 10am - 8pm; Tu 10am - 8pm; We 10am - 8pm; Th 10am - 8pm; Fr 10am - 8pm; Sa 10am - 8pm; Su 11am - 6pm", "brand": "J.Jill"}, "geometry": {"type": "Point", "coordinates": [-122.5151778, 37.9313941]}},
{"type": "Feature", "id": "IcAuPGas996L3PmZvENAQnEyK-c=", "properties": {"ref": "224", "@spider": "jjill", "addr:street": "768 West Shaw Avenue", "addr:city": "Fresno", "addr:state": "CA", "addr:postcode": "93704", "addr:country": "US", "name": "Fig Garden Village", "phone": "559.221.0279", "website": "https://locations.jjill.com/ca/fresno/224/", "opening_hours": "Mo 10am - 6pm; Tu 10am - 6pm; We 10am - 6pm; Th 10am - 6pm; Fr 10am - 7pm; Sa 10am - 7pm; Su 11am - 6pm", "brand": "J.Jill"}, "geometry": {"type": "Point", "coordinates": [-119.8065076, 36.8090071]}},
{"type": "Feature", "id": "0S759oNHzbNUHCDSpXfppQGn-9s=", "properties": {"ref": "665", "@spider": "jjill", "addr:street": "482 The Shops at Mission Viejo", "addr:city": "Mission Viejo", "addr:state": "CA", "addr:postcode": "92691", "addr:country": "US", "name": "Shops at Mission Viejo", "phone": "949.364.1389", "website": "https://locations.jjill.com/ca/mission-viejo/665/", "opening_hours": "Mo 10am - 9pm; Tu 10am - 9pm; We 10am - 9pm; Th 10am - 9pm; Fr 10am - 9pm; Sa 10am - 8pm; Su 11am - 6pm", "brand": "J.Jill"}, "geometry": {"type": "Point", "coordinates": [-117.668151, 33.558298]}},
{"type": "Feature", "id": "SBt7LLmOqR1cckwCyxJdXme6z40=", "properties": {"ref": "503", "@spider": "jjill", "addr:street": "3333 Bear St.", "addr:city": "Costa Mesa", "addr:state": "CA", "addr:postcode": "92626", "addr:country": "US", "name": "South Coast Plaza", "phone": "714.540.5355", "website": "https://locations.jjill.com/ca/costa-mesa/503/", "opening_hours": "Mo 10am - 7pm; Tu 10am - 7pm; We 10am - 7pm; Th 10am - 7pm; Fr 10am - 7pm; Sa 10am - 7pm; Su 11am - 7pm", "brand": "J.Jill"}, "geometry": {"type": "Point", "coordinates": [-117.8928597, 33.6919413]}},
{"type": "Feature", "id": "AQMymTAbdnnuG2OkHa50olBuhcE=", "properties": {"ref": "248", "@spider": "jjill", "addr:street": "2241 Q St. NE", "addr:city": "Albuquerque", "addr:state": "NM", "addr:postcode": "87110", "addr:country": "US", "name": "ABQ Uptown", "phone": "505.830.2520", "website": "https://locations.jjill.com/nm/albuquerque/248/", "opening_hours": "Mo 10am - 6pm; Tu 10am - 6pm; We 10am - 6pm; Th 10am - 6pm; Fr 10am - 6pm; Sa 10am - 6pm; Su 12pm - 6pm", "brand": "J.Jill"}, "geometry": {"type": "Point", "coordinates": [-106.5675225, 35.1032877]}},
{"type": "Feature", "id": "NXQ7XTNsen9kvK4PLQRhkkDpIVI=", "properties": {"ref": "635", "@spider": "jjill", "addr:street": "5201 West War Memorial Dr.", "addr:city": "Peoria", "addr:state": "IL", "addr:postcode": "61615", "addr:country": "US", "name": "Shoppes at Grand Prairie", "phone": "309.691.2074", "website": "https://locations.jjill.com/il/peoria/635/", "opening_hours": "Mo 10am - 7pm; Tu 10am - 7pm; We 10am - 7pm; Th 10am - 7pm; Fr 10am - 7pm; Sa 10am - 7pm; Su 12pm - 6pm", "brand": "J.Jill"}, "geometry": {"type": "Point", "coordinates": [-89.6737601, 40.7799207]}},
{"type": "Feature", "id": "1bzwwsNd_2FciXzaRtedFhS5AWM=", "properties": {"ref": "143", "@spider": "jjill", "addr:street": "288 Orland Square Dr.", "addr:city": "Orland Park", "addr:state": "IL", "addr:postcode": "60462", "addr:country": "US", "name": "Orland Square Mall", "phone": "708.403.5465", "website": "https://locations.jjill.com/il/orland-park/143/", "opening_hours": "Mo 11am - 7pm; Tu 11am - 7pm; We 11am - 7pm; Th 11am - 7pm; Fr 10am - 7pm; Sa 10am - 7pm; Su 11am - 6pm", "brand": "J.Jill"}, "geometry": {"type": "Point", "coordinates": [-87.8525967, 41.6183779]}},
{"type": "Feature", "id": "GLdRswFtqDop3jtnsxrB4DTCHtM=", "properties": {"ref": "418", "@spider": "jjill", "addr:street": "2196 Northbrook Court", "addr:city": "Northbrook", "addr:state": "IL", "addr:postcode": "60062", "addr:country": "US", "name": "Northbrook Court", "phone": "847.272.6261", "website": "https://locations.jjill.com/il/northbrook/418/", "opening_hours": "Mo 11am - 7pm; Tu 11am - 7pm; We 11am - 7pm; Th 11am - 7pm; Fr 11am - 7pm; Sa 10am - 7pm; Su 11am - 6pm", "brand": "J.Jill"}, "geometry": {"type": "Point", "coordinates": [-87.8159283, 42.1500727]}},
{"type": "Feature", "id": "PZDGtSmXtEGu9Facc4XaHlv-Bw4=", "properties": {"ref": "135", "@spider": "jjill", "addr:street": "165 W. Van Buren Street", "addr:city": "Naperville", "addr:state": "IL", "addr:postcode": "60540", "addr:country": "US", "name": "Main Street Promenade", "phone": "630.983.5455", "website": "https://locations.jjill.com/il/naperville/135/", "opening_hours": "Mo 10am - 7pm; Tu 10am - 7pm; We 10am - 7pm; Th 10am - 7pm; Fr 10am - 7pm; Sa 10am - 7pm; Su 12pm - 6pm", "brand": "J.Jill"}, "geometry": {"type": "Point", "coordinates": [-88.1508847, 41.7741865]}},
{"type": "Feature", "id": "St8h4-ICr2ZoyAywDimNFETO7Jk=", "properties": {"ref": "88", "@spider": "jjill", "addr:street": "20530 N. Rand Rd.", "addr:city": "Deer Park", "addr:state": "IL", "addr:postcode": "60010", "addr:country": "US", "name": "Deer Park Town Center", "phone": "847.719.2420", "website": "https://locations.jjill.com/il/deer-park/88/", "opening_hours": "Mo 10am - 7pm; Tu 10am - 7pm; We 10am - 7pm; Th 10am - 7pm; Fr 10am - 7pm; Sa 10am - 7pm; Su 11am - 5pm", "brand": "J.Jill"}, "geometry": {"type": "Point", "coordinates": [-88.0546076, 42.1613988]}},
{"type": "Feature", "id": "msvkpkUsKOtFaCH61AHZQ65RCas=", "properties": {"ref": "266", "@spider": "jjill", "addr:street": "6520 N. Illinois St.", "addr:city": "Fairview Heights", "addr:state": "IL", "addr:postcode": "62208", "addr:country": "US", "name": "St. Clair Square", "phone": "618.632.5220", "website": "https://locations.jjill.com/il/fairview-heights/266/", "opening_hours": "Mo 10am - 7pm; Tu 10am - 7pm; We 10am - 7pm; Th 10am - 7pm; Fr 10am - 7pm; Sa 10am - 7pm; Su 12pm - 6pm", "brand": "J.Jill"}, "geometry": {"type": "Point", "coordinates": [-89.9829318, 38.5935825]}},
{"type": "Feature", "id": "D-z6mNahPl7JJ7EZulsGSvYC2xE=", "properties": {"ref": "97", "@spider": "jjill", "addr:street": "118 Commons Dr.", "addr:city": "Geneva", "addr:state": "IL", "addr:postcode": "60134", "addr:country": "US", "name": "Geneva Commons", "phone": "630.262.9203", "website": "https://locations.jjill.com/il/geneva/97/", "opening_hours": "Mo 10am - 8pm; Tu 10am - 8pm; We 10am - 8pm; Th 10am - 8pm; Fr 10am - 8pm; Sa 10am - 8pm; Su 11am - 6pm", "brand": "J.Jill"}, "geometry": {"type": "Point", "coordinates": [-88.3429512, 41.8909565]}},
{"type": "Feature", "id": "-3TXzL6Ziz-5V0LfFrsZSF3FXLE=", "properties": {"ref": "189", "@spider": "jjill", "addr:street": "303 Veterans Parkway", "addr:city": "Normal", "addr:state": "IL", "addr:postcode": "61761", "addr:country": "US", "name": "Shoppes at College Hills", "phone": "309.454.8981", "website": "https://locations.jjill.com/il/normal/189/", "opening_hours": "Mo 10am - 7pm; Tu 10am - 7pm; We 10am - 7pm; Th 10am - 7pm; Fr 10am - 7pm; Sa 10am - 7pm; Su 12pm - 6pm", "brand": "J.Jill"}, "geometry": {"type": "Point", "coordinates": [-88.9553011, 40.5075332]}},
{"type": "Feature", "id": "bZ8flunJLO38qft4RHHOq3nGLng=", "properties": {"ref": "22", "@spider": "jjill", "addr:street": "835 N. Michigan Ave.", "addr:city": "Chicago", "addr:state": "IL", "addr:postcode": "60611", "addr:country": "US", "name": "Water Tower Place", "phone": "312-951-1076", "website": "https://locations.jjill.com/il/chicago/22/", "opening_hours": "Mo 11am - 7pm; Tu 11am - 7pm; We 11am - 7pm; Th 11am - 7pm; Fr 11am - 8pm; Sa 11am - 8pm; Su 12pm - 6pm", "brand": "J.Jill"}, "geometry": {"type": "Point", "coordinates": [-87.6223787, 41.8979466]}},
{"type": "Feature", "id": "-8EljuizKPXrBTPQnbCJQhvyskA=", "properties": {"ref": "81", "@spider": "jjill", "addr:street": "100 Oakbrook Center", "addr:city": "Oak Brook", "addr:state": "IL", "addr:postcode": "60523", "addr:country": "US", "name": "Oakbrook Center", "phone": "630.954.2901", "website": "https://locations.jjill.com/il/oak-brook/81/", "opening_hours": "Mo 10am - 8pm; Tu 10am - 8pm; We 10am - 8pm; Th 10am - 8pm; Fr 10am - 8pm; Sa 10am - 8pm; Su 11am - 6pm", "brand": "J.Jill"}, "geometry": {"type": "Point", "coordinates": [-87.9528794, 41.851566]}},
{"type": "Feature", "id": "x9xdnDYBZxCJnRsTnqk1gqDeogM=", "properties": {"ref": "76", "@spider": "jjill", "addr:street": "2500 N. Mayfair Rd.", "addr:city": "Wauwatosa", "addr:state": "WI", "addr:postcode": "53226", "addr:country": "US", "name": "Mayfair Mall", "phone": "414.476.3553", "website": "https://locations.jjill.com/wi/wauwatosa/76/", "opening_hours": "Mo 10am - 7pm; Tu 10am - 7pm; We 10am - 7pm; Th 10am - 7pm; Fr 10am - 7pm; Sa 10am - 7pm; Su 11am - 5pm", "brand": "J.Jill"}, "geometry": {"type": "Point", "coordinates": [-88.0445613, 43.0638353]}},
{"type": "Feature", "id": "xhn5zrwqccWaArLjSuGQxL11Ayk=", "properties": {"ref": "421", "@spider": "jjill", "addr:street": "2000 North Neil Street", "addr:city": "Champaign", "addr:state": "IL", "addr:postcode": "61820", "addr:country": "US", "name": "Marketplace Shopping Center", "phone": "217.378.9696", "website": "https://locations.jjill.com/il/champaign/421/", "opening_hours": "Mo 11am - 8pm; Tu 11am - 8pm; We 11am - 8pm; Th 11am - 8pm; Fr 11am - 8pm; Sa 10am - 8pm; Su 11am - 6pm", "brand": "J.Jill"}, "geometry": {"type": "Point", "coordinates": [-88.2427717, 40.1425481]}},
{"type": "Feature", "id": "Y3nsgKJj8gmrymLGC_ZQ-r4KMKo=", "properties": {"ref": "250", "@spider": "jjill", "addr:street": "5687 N. Central Parkway", "addr:city": "Milwaukee", "addr:state": "WI", "addr:postcode": "53217", "addr:country": "US", "name": "Bayshore Town Center", "phone": "414.332.3082", "website": "https://locations.jjill.com/wi/milwaukee/250/", "opening_hours": "Mo 10am - 6pm; Tu 10am - 6pm; We 10am - 6pm; Th 10am - 6pm; Fr 10am - 6pm; Sa 10am - 6pm", "brand": "J.Jill"}, "geometry": {"type": "Point", "coordinates": [-87.9153409, 43.1206848]}},
{"type": "Feature", "id": "oMWtH5_xqUTlyjexjyMwvvs0W80=", "properties": {"ref": "641", "@spider": "jjill", "addr:street": "585 Village Center Dr.", "addr:city": "Burr Ridge", "addr:state": "IL", "addr:postcode": "60527", "addr:country": "US", "name": "Burr Ridge Village Center", "phone": "630.323.8217", "website": "https://locations.jjill.com/il/burr-ridge/641/", "opening_hours": "Mo 10am - 7pm; Tu 10am - 7pm; We 10am - 7pm; Th 10am - 7pm; Fr 10am - 7pm; Sa 10am - 7pm; Su 12pm - 6pm", "brand": "J.Jill"}, "geometry": {"type": "Point", "coordinates": [-87.9118918, 41.7524584]}},
{"type": "Feature", "id": "pnhf7kmoc8Zh8SEqE2LC8lSu1hs=", "properties": {"ref": "648", "@spider": "jjill", "addr:street": "480 North Orlando Ave.", "addr:city": "Winter Park", "addr:state": "FL", "addr:postcode": "32789", "addr:country": "US", "name": "Winter Park Village", "phone": "407.629.0151", "website": "https://locations.jjill.com/fl/winter-park/648/", "opening_hours": "Mo 10am - 6pm; Tu 10am - 6pm; We 10am - 6pm; Th 10am - 6pm; Fr 10am - 6pm; Sa 10am - 6pm; Su 12pm - 5pm", "brand": "J.Jill"}, "geometry": {"type": "Point", "coordinates": [-81.3646176, 28.6023798]}},
{"type": "Feature", "id": "1wr4uu71ybrKTgZgr4Sy2zrN4_k=", "properties": {"ref": "137", "@spider": "jjill", "addr:street": "1650 Deming Way", "addr:city": "Middleton", "addr:state": "WI", "addr:postcode": "53562", "addr:country": "US", "name": "Greenway Station", "phone": "608.824.9460", "website": "https://locations.jjill.com/wi/middleton/137/", "opening_hours": "Mo 10am - 7pm; Tu 10am - 7pm; We 10am - 7pm; Th 10am - 7pm; Fr 10am - 7pm; Sa 10am - 7pm; Su 12pm - 5pm", "brand": "J.Jill"}, "geometry": {"type": "Point", "coordinates": [-89.5274981, 43.0917942]}},
{"type": "Feature", "id": "d4o5TQgASsisaDDs5iZgIa40mu4=", "properties": {"ref": "687", "@spider": "jjill", "addr:street": "4301 West Wisconsin Ave.", "addr:city": "Appleton", "addr:state": "WI", "addr:postcode": "54913", "addr:country": "US", "name": "Fox River Mall", "phone": "920.731.7100", "website": "https://locations.jjill.com/wi/appleton/687/", "opening_hours": "Mo 10am - 7pm; Tu 10am - 7pm; We 10am - 7pm; Th 10am - 7pm; Fr 10am - 7pm; Sa 10am - 7pm; Su 11am - 5pm", "brand": "J.Jill"}, "geometry": {"type": "Point", "coordinates": [-88.4703237, 44.2680025]}},
{"type": "Feature", "id": "azZR1YHewuuQYFeXe4vNK-oheWw=", "properties": {"ref": "92", "@spider": "jjill", "addr:street": "8702 Keystone Crossing Blvd.", "addr:city": "Indianapolis", "addr:state": "IN", "addr:postcode": "46240", "addr:country": "US", "name": "Fashion Mall at Keystone", "phone": "317.571.1750", "website": "https://locations.jjill.com/in/indianapolis/92/", "opening_hours": "Mo 10am - 8pm; Tu 10am - 8pm; We 10am - 8pm; Th 10am - 8pm; Fr 10am - 8pm; Sa 10am - 8pm; Su 12pm - 6pm", "brand": "J.Jill"}, "geometry": {"type": "Point", "coordinates": [-86.11124, 39.9146201]}},
{"type": "Feature", "id": "qUFNAFSHRUMbrcCJQ-JEdijK1Tc=", "properties": {"ref": "683", "@spider": "jjill", "addr:street": "4130 West Jefferson", "addr:city": "Fort Wayne", "addr:state": "IN", "addr:postcode": "46804", "addr:country": "US", "name": "Jefferson Pointe", "phone": "260.436.9188", "website": "https://locations.jjill.com/in/fort-wayne/683/", "opening_hours": "Mo 10am - 7pm; Tu 10am - 7pm; We 10am - 7pm; Th 10am - 7pm; Fr 10am - 8pm; Sa 10am - 8pm; Su 12pm - 5pm", "brand": "J.Jill"}, "geometry": {"type": "Point", "coordinates": [-85.1978714, 41.0724261]}},
{"type": "Feature", "id": "MLWKOQtcy5EPpExaFPwhc9Ml8rw=", "properties": {"ref": "75", "@spider": "jjill", "addr:street": "4820 W 119th Street", "addr:city": "Leawood", "addr:state": "KS", "addr:postcode": "66209", "addr:country": "US", "name": "Town Center Plaza", "phone": "913.338.5041", "website": "https://locations.jjill.com/ks/leawood/75/", "opening_hours": "Mo 10am - 8pm; Tu 10am - 8pm; We 10am - 8pm; Th 10am - 8pm; Fr 10am - 8pm; Sa 10am - 8pm; Su 12pm - 5pm", "brand": "J.Jill"}, "geometry": {"type": "Point", "coordinates": [-94.6421407, 38.9134429]}},
{"type": "Feature", "id": "__t2gpyW4cSxpQqGlddkIBHxitw=", "properties": {"ref": "176", "@spider": "jjill", "addr:street": "1900 N. Rock Rd.", "addr:city": "Wichita", "addr:state": "KS", "addr:postcode": "67206", "addr:country": "US", "name": "Bradley Fair", "phone": "316.315.0120", "website": "https://locations.jjill.com/ks/wichita/176/", "opening_hours": "Mo 10am - 7pm; Tu 10am - 7pm; We 10am - 7pm; Th 10am - 7pm; Fr 10am - 7pm; Sa 10am - 7pm; Su 12pm - 6pm", "brand": "J.Jill"}, "geometry": {"type": "Point", "coordinates": [-97.2426151, 37.7182893]}},
{"type": "Feature", "id": "QBMhS4OEAIlxKYyzYkUbfYD_klI=", "properties": {"ref": "653", "@spider": "jjill", "addr:street": "140 University Town Center Dr.", "addr:city": "Sarasota", "addr:state": "FL", "addr:postcode": "34243", "addr:country": "US", "name": "The Mall at University Town Center", "phone": "941.893.1060", "website": "https://locations.jjill.com/fl/sarasota/653/", "opening_hours": "Mo 10am - 8pm; Tu 10am - 8pm; We 10am - 8pm; Th 10am - 8pm; Fr 10am - 8pm; Sa 10am - 8pm; Su 11am - 6pm", "brand": "J.Jill"}, "geometry": {"type": "Point", "coordinates": [-82.4526094, 27.3846512]}},
{"type": "Feature", "id": "fZ2fXD7a_kEWUUxQKMYHYBrvRr8=", "properties": {"ref": "719", "@spider": "jjill", "addr:street": "5415 Tamiami Trail N", "addr:city": "Naples", "addr:state": "FL", "addr:postcode": "34108", "addr:country": "US", "name": "Waterside Shops", "phone": "239-653-7301", "website": "https://locations.jjill.com/fl/naples/719/", "opening_hours": "Mo 10am - 6pm; Tu 10am - 6pm; We 10am - 6pm; Th 10am - 7pm; Fr 10am - 7pm; Sa 10am - 6pm; Su 11am - 5pm", "brand": "J.Jill"}, "geometry": {"type": "Point", "coordinates": [-81.8021888, 26.2128654]}},
{"type": "Feature", "id": "jZd30vMcSLjgx98t-ZlEZTHx5IA=", "properties": {"ref": "692", "@spider": "jjill", "addr:street": "3101 PGA Blvd.", "addr:city": "Palm Beach Gardens", "addr:state": "FL", "addr:postcode": "33410", "addr:country": "US", "name": "The Gardens Mall", "phone": "561.626.6840", "website": "https://locations.jjill.com/fl/palm-beach-gardens/692/", "opening_hours": "Mo 10am - 7pm; Tu 10am - 7pm; We 10am - 7pm; Th 10am - 7pm; Fr 10am - 7pm; Sa 10am - 7pm; Su 12pm - 6pm", "brand": "J.Jill"}, "geometry": {"type": "Point", "coordinates": [-80.0838296, 26.8484172]}},
{"type": "Feature", "id": "bLEXkpM-jZloaOkPg3r88e6ssgA=", "properties": {"ref": "229", "@spider": "jjill", "addr:street": "500 Grand Blvd.", "addr:city": "Sandestin", "addr:state": "FL", "addr:postcode": "32550", "addr:country": "US", "name": "Grand Boulevard at Sandestin", "phone": "850.650.0186", "website": "https://locations.jjill.com/fl/sandestin/229/", "opening_hours": "Mo 10am - 7pm; Tu 10am - 7pm; We 10am - 7pm; Th 10am - 7pm; Fr 10am - 7pm; Sa 10am - 7pm; Su 12pm - 6pm", "brand": "J.Jill"}, "geometry": {"type": "Point", "coordinates": [-86.3146182, 30.3788596]}},
{"type": "Feature", "id": "Dltm95l5CNZB-LXUL1mgEutdOPs=", "properties": {"ref": "170", "@spider": "jjill", "addr:street": "2223 N. Westshore Blvd.", "addr:city": "Tampa", "addr:state": "FL", "addr:postcode": "33607", "addr:country": "US", "name": "International Plaza and Bay Street", "phone": "813.877.1868", "website": "https://locations.jjill.com/fl/tampa/170/", "opening_hours": "Mo 10am - 8pm; Tu 10am - 8pm; We 10am - 8pm; Th 10am - 8pm; Fr 10am - 8pm; Sa 10am - 8pm; Su 11am - 6pm", "brand": "J.Jill"}, "geometry": {"type": "Point", "coordinates": [-82.521205, 27.9656353]}},
{"type": "Feature", "id": "NPVq3ZiFrxfnbzEaF0AeNrVO24E=", "properties": {"ref": "658", "@spider": "jjill", "addr:street": "308 SW 145th Terrace", "addr:city": "Pembroke Pines", "addr:state": "FL", "addr:postcode": "33027", "addr:country": "US", "name": "The Shops at Pembroke Gardens", "phone": "954.432.0050", "website": "https://locations.jjill.com/fl/pembroke-pines/658/", "opening_hours": "Mo 10am - 6pm; Tu 10am - 6pm; We 10am - 6pm; Th 10am - 6pm; Fr 10am - 6pm; Sa 10am - 6pm; Su 11am - 6pm", "brand": "J.Jill"}, "geometry": {"type": "Point", "coordinates": [-80.336964, 26.0057299]}},
{"type": "Feature", "id": "jMD7BGKVYQM2Q5HWPGI9nR3FtY4=", "properties": {"ref": "408", "@spider": "jjill", "addr:street": "23150 Fashion Drive", "addr:city": "Estero", "addr:state": "FL", "addr:postcode": "33928", "addr:country": "US", "name": "Coconut Point", "phone": "239.495.5714", "website": "https://locations.jjill.com/fl/estero/408/", "opening_hours": "Mo 10am - 7pm; Tu 10am - 7pm; We 10am - 7pm; Th 10am - 7pm; Fr 10am - 7pm; Sa 10am - 7pm; Su 12pm - 6pm", "brand": "J.Jill"}, "geometry": {"type": "Point", "coordinates": [-81.8072567, 26.4022576]}},
{"type": "Feature", "id": "30rmAPZ_4vhKWbNlHa6SdprUfuw=", "properties": {"ref": "732", "@spider": "jjill", "addr:street": "2261 Town Center Ave", "addr:city": "Melbourne", "addr:state": "FL", "addr:postcode": "32940", "addr:country": "US", "name": "The Avenue at Viera", "phone": "321-369-6801", "website": "https://locations.jjill.com/fl/melbourne/732/", "opening_hours": "Mo 10am - 7pm; Tu 10am - 7pm; We 10am - 7pm; Th 10am - 7pm; Fr 10am - 7pm; Sa 10am - 7pm; Su 12pm - 6pm", "brand": "J.Jill"}, "geometry": {"type": "Point", "coordinates": [-80.7262058, 28.2444297]}},
{"type": "Feature", "id": "f_iD_RYzcc_Nh0rKxKkCh2xz25Q=", "properties": {"ref": "656", "@spider": "jjill", "addr:street": "228 City Circle", "addr:city": "Peachtree City", "addr:state": "GA", "addr:postcode": "30269", "addr:country": "US", "name": "The Avenue Peachtree City", "phone": "770.486.3678", "website": "https://locations.jjill.com/ga/peachtree-city/656/", "opening_hours": "Mo 10am - 7pm; Tu 10am - 7pm; We 10am - 7pm; Th 10am - 7pm; Fr 10am - 7pm; Sa 10am - 7pm; Su 12pm - 6pm", "brand": "J.Jill"}, "geometry": {"type": "Point", "coordinates": [-84.5925801, 33.3951035]}},
{"type": "Feature", "id": "BtxdkCWiWh7M1EunmbpOwU9Mc3M=", "properties": {"ref": "619", "@spider": "jjill", "addr:street": "4419 Lyons Road", "addr:city": "Coconut Creek", "addr:state": "FL", "addr:postcode": "33073", "addr:country": "US", "name": "Promenade at Coconut Creek", "phone": "954.972.5005", "website": "https://locations.jjill.com/fl/coconut-creek/619/", "opening_hours": "Mo 10am - 6pm; Tu 10am - 6pm; We 10am - 6pm; Th 10am - 6pm; Fr 10am - 6pm; Sa 10am - 6pm; Su 12pm - 6pm", "brand": "J.Jill"}, "geometry": {"type": "Point", "coordinates": [-80.1877215, 26.2835698]}},
{"type": "Feature", "id": "Z337-oUFAx9SQkhnNS8xmbT2NBU=", "properties": {"ref": "178", "@spider": "jjill", "addr:street": "4711 River City Drive", "addr:city": "Jacksonville", "addr:state": "FL", "addr:postcode": "32246", "addr:country": "US", "name": "St. Johns Town Center", "phone": "904.564.2747", "website": "https://locations.jjill.com/fl/jacksonville/178/", "opening_hours": "Mo 10am - 7pm; Tu 10am - 7pm; We 10am - 7pm; Th 10am - 7pm; Fr 10am - 7pm; Sa 10am - 7pm; Su 11am - 6pm", "brand": "J.Jill"}, "geometry": {"type": "Point", "coordinates": [-81.524994, 30.257382]}},
{"type": "Feature", "id": "xH7wkcRoSf9Wmq8QjTdfqPq6LAg=", "properties": {"ref": "686", "@spider": "jjill", "addr:street": "5525 Abercorn Street", "addr:city": "Savannah", "addr:state": "GA", "addr:postcode": "31405", "addr:country": "US", "name": "Abercorn Walk", "phone": "912.303.3973", "website": "https://locations.jjill.com/ga/savannah/686/", "opening_hours": "Mo 10am - 7pm; Tu 10am - 7pm; We 10am - 7pm; Th 10am - 7pm; Fr 10am - 7pm; Sa 10am - 7pm; Su 12pm - 6pm", "brand": "J.Jill"}, "geometry": {"type": "Point", "coordinates": [-81.1121086, 32.0241796]}},
{"type": "Feature", "id": "tl96dLmTNwUqu4WM7ew7N64cX6c=", "properties": {"ref": "671", "@spider": "jjill", "addr:street": "4475 Roswell Rd.", "addr:city": "Marietta", "addr:state": "GA", "addr:postcode": "30062", "addr:country": "US", "name": "The Avenue East Cobb", "phone": "770.565.4080", "website": "https://locations.jjill.com/ga/marietta/671/", "opening_hours": "Mo 10am - 7pm; Tu 10am - 7pm; We 10am - 7pm; Th 10am - 7pm; Fr 10am - 7pm; Sa 10am - 7pm; Su 12pm - 6pm", "brand": "J.Jill"}, "geometry": {"type": "Point", "coordinates": [-84.4227648, 33.9890692]}},
{"type": "Feature", "id": "ZSzM1HMJd2AZFenl-O9GJwYroYc=", "properties": {"ref": "657", "@spider": "jjill", "addr:street": "6145 Avalon Blvd.", "addr:city": "Alpharetta", "addr:state": "GA", "addr:postcode": "30009", "addr:country": "US", "name": "Avalon", "phone": "678.368.4023", "website": "https://locations.jjill.com/ga/alpharetta/657/", "opening_hours": "Mo 10am - 8pm; Tu 10am - 8pm; We 10am - 8pm; Th 10am - 8pm; Fr 10am - 8pm; Sa 10am - 8pm; Su 12pm - 6pm", "brand": "J.Jill"}, "geometry": {"type": "Point", "coordinates": [-84.2755505, 34.0705263]}},
{"type": "Feature", "id": "qxkkpCwQKrj79SpXjbYdMWiJy2o=", "properties": {"ref": "410", "@spider": "jjill", "addr:street": "3500 Peachtree Road", "addr:city": "Atlanta", "addr:state": "GA", "addr:postcode": "30326", "addr:country": "US", "name": "Phipps Plaza", "phone": "404-233-3637", "website": "https://locations.jjill.com/ga/atlanta/410/", "opening_hours": "Mo 10am - 6pm; Tu 10am - 6pm; We 10am - 6pm; Th 10am - 6pm; Fr 10am - 6pm; Sa 10am - 6pm; Su 12pm - 6pm", "brand": "J.Jill"}, "geometry": {"type": "Point", "coordinates": [-84.3619899, 33.8525865]}},
{"type": "Feature", "id": "IxhlGyqcv0uq9-7iNOVJBJbEXeQ=", "properties": {"ref": "49", "@spider": "jjill", "addr:street": "4400 Ashford Dunwoody Rd.", "addr:city": "Atlanta", "addr:state": "GA", "addr:postcode": "30346", "addr:country": "US", "name": "Perimeter Mall", "phone": "770.395.1121", "website": "https://locations.jjill.com/ga/atlanta/49/", "opening_hours": "Mo 11am - 7pm; Tu 11am - 7pm; We 11am - 7pm; Th 11am - 7pm; Fr 11am - 7pm; Sa 11am - 7pm; Su 12pm - 7pm", "brand": "J.Jill"}, "geometry": {"type": "Point", "coordinates": [-84.3399804, 33.9230015]}},
{"type": "Feature", "id": "ceZr5OdU0LNGB3pIbc-B3FQF3zQ=", "properties": {"ref": "285", "@spider": "jjill", "addr:street": "3450 Wrightsboro Rd.", "addr:city": "Augusta", "addr:state": "GA", "addr:postcode": "30909", "addr:country": "US", "name": "Augusta Mall", "phone": "706.481.5637", "website": "https://locations.jjill.com/ga/augusta/285/", "opening_hours": "Mo 10am - 7pm; Tu 10am - 7pm; We 10am - 7pm; Th 10am - 7pm; Fr 10am - 7pm; Sa 10am - 7pm; Su 12pm - 6pm", "brand": "J.Jill"}, "geometry": {"type": "Point", "coordinates": [-82.0788051, 33.4636223]}},
{"type": "Feature", "id": "xCTUC7ugLaUlkRgFcFEKF4YaqPA=", "properties": {"ref": "703", "@spider": "jjill", "addr:street": "3301 Veterans Memorial Blvd", "addr:city": "Metairie", "addr:state": "LA", "addr:postcode": "70002", "addr:country": "US", "name": "Lakeside Shopping Center", "phone": "504.410.3014", "website": "https://locations.jjill.com/la/metairie/703/", "opening_hours": "Mo 10am - 7pm; Tu 10am - 7pm; We 10am - 7pm; Th 10am - 7pm; Fr 10am - 7pm; Sa 10am - 7pm; Su 12pm - 6pm", "brand": "J.Jill"}, "geometry": {"type": "Point", "coordinates": [-90.1566678, 30.0063657]}},
{"type": "Feature", "id": "cWeNpgw10QucGaYCb3qJsRbf8z0=", "properties": {"ref": "711", "@spider": "jjill", "addr:street": "3424 Highway 190", "addr:city": "Mandeville", "addr:state": "LA", "addr:postcode": "70471", "addr:country": "US", "name": "Premier Centre", "phone": "985.629.5534", "website": "https://locations.jjill.com/la/mandeville/711/", "opening_hours": "Mo 10am - 6pm; Tu 10am - 6pm; We 10am - 6pm; Th 10am - 6pm; Fr 10am - 6pm; Sa 10am - 6pm; Su 12pm - 5pm", "brand": "J.Jill"}, "geometry": {"type": "Point", "coordinates": [-90.0840398, 30.3913716]}},
{"type": "Feature", "id": "I7OQj22PM5-SiV0kAmuapRyYMeI=", "properties": {"ref": "601", "@spider": "jjill", "addr:street": "3401 Nicholasville Rd", "addr:city": "Lexington", "addr:state": "KY", "addr:postcode": "40503", "addr:country": "US", "name": "Fayette Mall", "phone": "859.232.8897", "website": "https://locations.jjill.com/ky/lexington/601/", "opening_hours": "Mo 10am - 9pm; Tu 10am - 9pm; We 10am - 9pm; Th 10am - 9pm; Fr 10am - 9pm; Sa 10am - 9pm; Su 12pm - 6pm", "brand": "J.Jill"}, "geometry": {"type": "Point", "coordinates": [-84.527523, 37.9895772]}},
{"type": "Feature", "id": "5VFc_RD9nJ_HlxXFd2C_D6vhaNg=", "properties": {"ref": "701", "@spider": "jjill", "addr:street": "7900 Shelbyville Road", "addr:city": "Louisville", "addr:state": "KY", "addr:postcode": "40222", "addr:country": "US", "name": "Oxmoor Center", "phone": "502.413.2476", "website": "https://locations.jjill.com/ky/louisville/701/", "opening_hours": "Mo 11am - 8pm; Tu 11am - 8pm; We 11am - 8pm; Th 11am - 8pm; Fr 11am - 9pm; Sa 11am - 9pm; Su 12pm - 6pm", "brand": "J.Jill"}, "geometry": {"type": "Point", "coordinates": [-85.6099166, 38.2470462]}},
{"type": "Feature", "id": "1qKMRMljYpRTR4yft9lLhKl5xG8=", "properties": {"ref": "690", "@spider": "jjill", "addr:street": "5725 Johnston Street", "addr:city": "Lafayette", "addr:state": "LA", "addr:postcode": "70503", "addr:country": "US", "name": "Acadiana Mall", "phone": "337.988.8320", "website": "https://locations.jjill.com/la/lafayette/690/", "opening_hours": "Mo 10am - 7pm; Tu 10am - 7pm; We 10am - 7pm; Th 10am - 7pm; Fr 10am - 7pm; Sa 10am - 7pm; Su 12pm - 6pm", "brand": "J.Jill"}, "geometry": {"type": "Point", "coordinates": [-92.0758293, 30.1712239]}},
{"type": "Feature", "id": "6cJgjxa-GNvhDo25-bhnfMZM1aQ=", "properties": {"ref": "315", "@spider": "jjill", "addr:street": "5080 Riverside Drive", "addr:city": "Macon", "addr:state": "GA", "addr:postcode": "31210", "addr:country": "US", "name": "The Shoppes at River Crossing", "phone": "478.474.8110", "website": "https://locations.jjill.com/ga/macon/315/", "opening_hours": "Mo 10am - 5pm; Tu 10am - 5pm; We 10am - 5pm; Th 10am - 5pm; Fr 10am - 5pm; Sa 10am - 5pm; Su 12pm - 5pm", "brand": "J.Jill"}, "geometry": {"type": "Point", "coordinates": [-83.7142264, 32.9262205]}},
{"type": "Feature", "id": "4w8a_CQrJVEQXC6hsW71JK5E6fA=", "properties": {"ref": "95", "@spider": "jjill", "addr:street": "5155 Peachtree Pkwy.", "addr:city": "Norcross", "addr:state": "GA", "addr:postcode": "30092", "addr:country": "US", "name": "Forum on Peachtree Parkway", "phone": "770.263.9288", "website": "https://locations.jjill.com/ga/norcross/95/", "opening_hours": "Mo 10am - 7pm; Tu 10am - 7pm; We 10am - 7pm; Th 10am - 7pm; Fr 10am - 7pm; Sa 10am - 7pm; Su 12pm - 6pm", "brand": "J.Jill"}, "geometry": {"type": "Point", "coordinates": [-84.2179168, 33.9811887]}},
{"type": "Feature", "id": "S-h04fi1GS0XkgGINtsK1whcmEE=", "properties": {"ref": "413", "@spider": "jjill", "addr:street": "3111 W. Chandler Blvd", "addr:city": "Chandler", "addr:state": "AZ", "addr:postcode": "85226", "addr:country": "US", "name": "Chandler Fashion Center", "phone": "480.963.9770", "website": "https://locations.jjill.com/az/chandler/413/", "opening_hours": "Mo 10am - 9pm; Tu 10am - 9pm; We 10am - 9pm; Th 10am - 9pm; Fr 10am - 9pm; Sa 10am - 9pm; Su 11am - 6pm", "brand": "J.Jill"}, "geometry": {"type": "Point", "coordinates": [-111.8985636, 33.3015389]}},
{"type": "Feature", "id": "SmZEm6_L77Cb7s98kwWpv9iKaVY=", "properties": {"ref": "273", "@spider": "jjill", "addr:street": "17580 S. Val Vista Dr.", "addr:city": "Mesa", "addr:state": "AZ", "addr:postcode": "85204", "addr:country": "US", "name": "Village Square at Dana Park", "phone": "480.497.4750", "website": "https://locations.jjill.com/az/mesa/273/", "opening_hours": "Mo 10am - 7pm; Tu 10am - 7pm; We 10am - 7pm; Th 10am - 7pm; Fr 10am - 7pm; Sa 10am - 7pm; Su 11am - 6pm", "brand": "J.Jill"}, "geometry": {"type": "Point", "coordinates": [-111.7569067, 33.3846629]}},
{"type": "Feature", "id": "cIb5_XPsXfBIjWDJr3BDtGba4qo=", "properties": {"ref": "87", "@spider": "jjill", "addr:street": "7014 E. Camelback Rd.", "addr:city": "Scottsdale", "addr:state": "AZ", "addr:postcode": "85251", "addr:country": "US", "name": "Scottsdale Fashion Square", "phone": "480.423.0514", "website": "https://locations.jjill.com/az/scottsdale/87/", "opening_hours": "Mo 10am - 9pm; Tu 10am - 9pm; We 10am - 9pm; Th 10am - 9pm; Fr 10am - 9pm; Sa 10am - 9pm; Su 11am - 6pm", "brand": "J.Jill"}, "geometry": {"type": "Point", "coordinates": [-111.9294805, 33.5028995]}},
{"type": "Feature", "id": "Gdy02FEdgqaVkAVU-h1ntu-20dA=", "properties": {"ref": "65", "@spider": "jjill", "addr:street": "15051 N. Kierland Blvd.", "addr:city": "Scottsdale", "addr:state": "AZ", "addr:postcode": "85254", "addr:country": "US", "name": "Kierland Commons", "phone": "480.991.1718", "website": "https://locations.jjill.com/az/scottsdale/65/", "opening_hours": "Mo 10am - 9pm; Tu 10am - 9pm; We 10am - 9pm; Th 10am - 9pm; Fr 10am - 9pm; Sa 10am - 9pm; Su 12pm - 6pm", "brand": "J.Jill"}, "geometry": {"type": "Point", "coordinates": [-111.9296248, 33.6240758]}},
{"type": "Feature", "id": "wCtYm2BNIqMn23hY8wf1B5jyqPI=", "properties": {"ref": "312", "@spider": "jjill", "addr:street": "7150 Jefferson Hwy.", "addr:city": "Baton Rouge", "addr:state": "LA", "addr:postcode": "70806", "addr:country": "US", "name": "Towne Center at Cedar Lodge", "phone": "225.216.1552", "website": "https://locations.jjill.com/la/baton-rouge/312/", "opening_hours": "Mo 10am - 6pm; Tu 10am - 6pm; We 10am - 6pm; Th 10am - 6pm; Fr 10am - 6pm; Sa 10am - 6pm; Su 12pm - 6pm", "brand": "J.Jill"}, "geometry": {"type": "Point", "coordinates": [-91.1141195, 30.4333018]}},
{"type": "Feature", "id": "RXGV5T2SkMgCCwjCGUuhxERjfOg=", "properties": {"ref": "300", "@spider": "jjill", "addr:street": "6535 Youree Drive", "addr:city": "Shreveport", "addr:state": "LA", "addr:postcode": "71105", "addr:country": "US", "name": "Shoppes at Bellemead", "phone": "318.797.4810", "website": "https://locations.jjill.com/la/shreveport/300/", "opening_hours": "Mo 10am - 7pm; Tu 10am - 7pm; We 10am - 7pm; Th 10am - 7pm; Fr 10am - 7pm; Sa 10am - 7pm; Su 12pm - 6pm", "brand": "J.Jill"}, "geometry": {"type": "Point", "coordinates": [-93.7187591, 32.4479156]}},
{"type": "Feature", "id": "anLgNgIMSSd_7C2TPvzyPWzyOw4=", "properties": {"ref": "323", "@spider": "jjill", "addr:street": "410 Peachtree Pkwy.", "addr:city": "Cumming", "addr:state": "GA", "addr:postcode": "30041", "addr:country": "US", "name": "The Collection at Forsyth", "phone": "770.205.6300", "website": "https://locations.jjill.com/ga/cumming/323/", "opening_hours": "Mo 10am - 7pm; Tu 10am - 7pm; We 10am - 7pm; Th 10am - 7pm; Fr 10am - 7pm; Sa 10am - 7pm; Su 12pm - 6pm", "brand": "J.Jill"}, "geometry": {"type": "Point", "coordinates": [-84.1768731, 34.1535941]}},
{"type": "Feature", "id": "enoWCBxUm5azEYbL5tq2XReuNXM=", "properties": {"ref": "63", "@spider": "jjill", "addr:street": "7301 S. Santa Fe Dr.", "addr:city": "Littleton", "addr:state": "CO", "addr:postcode": "80120", "addr:country": "US", "name": "Aspen Grove", "phone": "303-795-0294", "website": "https://locations.jjill.com/co/littleton/63/", "opening_hours": "Mo 10am - 8pm; Tu 10am - 8pm; We 10am - 8pm; Th 10am - 8pm; Fr 10am - 8pm; Sa 10am - 8pm; Su 11am - 6pm", "brand": "J.Jill"}, "geometry": {"type": "Point", "coordinates": [-105.0249216, 39.5864258]}},
{"type": "Feature", "id": "Vhgu4dJC1lN69jziEbjTgyN12Ug=", "properties": {"ref": "230", "@spider": "jjill", "addr:street": "1750 29th St.", "addr:city": "Boulder", "addr:state": "CO", "addr:postcode": "80301", "addr:country": "US", "name": "Twenty Ninth Street", "phone": "303.443.5455", "website": "https://locations.jjill.com/co/boulder/230/", "opening_hours": "Mo 10am - 7pm; Tu 10am - 7pm; We 10am - 7pm; Th 10am - 7pm; Fr 10am - 7pm; Sa 10am - 7pm; Su 11am - 6pm", "brand": "J.Jill"}, "geometry": {"type": "Point", "coordinates": [-105.2554118, 40.0177359]}},
{"type": "Feature", "id": "p9GLsP7PY0JdrYKo62BQMJSccks=", "properties": {"ref": "51", "@spider": "jjill", "addr:street": "3000 East First Ave.", "addr:city": "Denver", "addr:state": "CO", "addr:postcode": "80206", "addr:country": "US", "name": "Cherry Creek Shopping Center", "phone": "303.320.0464", "website": "https://locations.jjill.com/co/denver/51/", "opening_hours": "Mo 10am - 9pm; Tu 10am - 9pm; We 10am - 9pm; Th 10am - 9pm; Fr 10am - 9pm; Sa 10am - 9pm; Su 11am - 7pm", "brand": "J.Jill"}, "geometry": {"type": "Point", "coordinates": [-104.9566822, 39.7169025]}},
{"type": "Feature", "id": "CrZf8U8sbEYcbfsB-urym3vZpUI=", "properties": {"ref": "94", "@spider": "jjill", "addr:street": "8401 Park Meadows Center Dr.", "addr:city": "Lone Tree", "addr:state": "CO", "addr:postcode": "80124", "addr:country": "US", "name": "Park Meadows", "phone": "303.858.1400", "website": "https://locations.jjill.com/co/lone-tree/94/", "opening_hours": "Mo 10am - 8pm; Tu 10am - 8pm; We 10am - 8pm; Th 10am - 8pm; Fr 10am - 8pm; Sa 10am - 8pm; Su 11am - 6pm", "brand": "J.Jill"}, "geometry": {"type": "Point", "coordinates": [-104.8744277, 39.5617668]}},
{"type": "Feature", "id": "MfkW8yLRqgBj4JSfI-e_wsK4iGg=", "properties": {"ref": "188", "@spider": "jjill", "addr:street": "5855 Sky Pond Dr.", "addr:city": "Loveland", "addr:state": "CO", "addr:postcode": "80538", "addr:country": "US", "name": "Promenade Shops at Centerra", "phone": "970.667.2212", "website": "https://locations.jjill.com/co/loveland/188/", "opening_hours": "Mo 10am - 7pm; Tu 10am - 7pm; We 10am - 7pm; Th 10am - 7pm; Fr 10am - 7pm; Sa 10am - 7pm; Su 11am - 6pm", "brand": "J.Jill"}, "geometry": {"type": "Point", "coordinates": [-104.990519, 40.41381]}},
{"type": "Feature", "id": "0HkdlzwmY5Wl2gjVN5_K2spR11U=", "properties": {"ref": "28", "@spider": "jjill", "addr:street": "1 West FlatIron Crossing Dr.", "addr:city": "Broomfield", "addr:state": "CO", "addr:postcode": "80021", "addr:country": "US", "name": "Flatiron Crossing", "phone": "720.887.0888", "website": "https://locations.jjill.com/co/broomfield/28/", "opening_hours": "Mo 10am - 9pm; Tu 10am - 9pm; We 10am - 9pm; Th 10am - 9pm; Fr 10am - 9pm; Sa 10am - 9pm; Su 11am - 6pm", "brand": "J.Jill"}, "geometry": {"type": "Point", "coordinates": [-105.1311948, 39.9324925]}},
{"type": "Feature", "id": "MbRjboLLcLbc9vRQqYsiReMOpcA=", "properties": {"ref": "83", "@spider": "jjill", "addr:street": "1500 New Britain Ave.", "addr:city": "West Hartford", "addr:state": "CT", "addr:postcode": "06110", "addr:country": "US", "name": "Westfarms", "phone": "860.521.3021", "website": "https://locations.jjill.com/ct/west-hartford/83/", "opening_hours": "Mo 10am - 8pm; Tu 10am - 8pm; We 10am - 8pm; Th 10am - 8pm; Fr 10am - 8pm; Sa 10am - 8pm; Su 11am - 7pm", "brand": "J.Jill"}, "geometry": {"type": "Point", "coordinates": [-72.7621242, 41.7230856]}},
{"type": "Feature", "id": "tiOcdbhKRNsDRiDGcSSb1pODmus=", "properties": {"ref": "684", "@spider": "jjill", "addr:street": "850 Hartford Turnpike", "addr:city": "Waterford", "addr:state": "CT", "addr:postcode": "06385", "addr:country": "US", "name": "Crystal Mall", "phone": "860.437.0133", "website": "https://locations.jjill.com/ct/waterford/684/", "opening_hours": "Mo 11am - 6pm; Tu 11am - 6pm; We 11am - 6pm; Th 11am - 6pm; Fr 11am - 6pm; Sa 11am - 6pm; Su 12pm - 5pm", "brand": "J.Jill"}, "geometry": {"type": "Point", "coordinates": [-72.1450148, 41.3745136]}},
{"type": "Feature", "id": "mIUQp6bShqtRtTnHToq9jEYL4fc=", "properties": {"ref": "710", "@spider": "jjill", "addr:street": "100 North Water Street SoNo Collection", "addr:city": "Norwalk", "addr:state": "CT", "addr:postcode": "06854", "addr:country": "US", "name": "SoNo Collection", "phone": "203.644.1040", "website": "https://locations.jjill.com/ct/norwalk/710/", "opening_hours": "Mo 11am - 7pm; Tu 11am - 7pm; We 11am - 7pm; Th 11am - 7pm; Fr 10am - 8pm; Sa 10am - 8pm; Su 11am - 7pm", "brand": "J.Jill"}, "geometry": {"type": "Point", "coordinates": [-73.4189162, 41.1058538]}},
{"type": "Feature", "id": "lL42FLtMblHxf4FtfKkzCwp89rU=", "properties": {"ref": "265", "@spider": "jjill", "addr:street": "1656 Boston Post Rd.", "addr:city": "Milford", "addr:state": "CT", "addr:postcode": "06460", "addr:country": "US", "name": "Milford Marketplace", "phone": "203.783.1898", "website": "https://locations.jjill.com/ct/milford/265/", "opening_hours": "Mo 10am - 7pm; Tu 10am - 7pm; We 10am - 7pm; Th 10am - 7pm; Fr 10am - 7pm; Sa 10am - 7pm; Su 12pm - 6pm", "brand": "J.Jill"}, "geometry": {"type": "Point", "coordinates": [-73.026901, 41.248099]}},
{"type": "Feature", "id": "JxLoYFVidtGaEFsgMGsj9_J8Pqw=", "properties": {"ref": "72", "@spider": "jjill", "addr:street": "7 Backus Ave.", "addr:city": "Danbury", "addr:state": "CT", "addr:postcode": "06810", "addr:country": "US", "name": "Danbury Fair", "phone": "203.791.9828", "website": "https://locations.jjill.com/ct/danbury/72/", "opening_hours": "Mo 10am - 7pm; Tu 10am - 7pm; We 10am - 7pm; Th 10am - 7pm; Fr 10am - 7pm; Sa 10am - 7pm; Su 11am - 6pm", "brand": "J.Jill"}, "geometry": {"type": "Point", "coordinates": [-73.4817327, 41.3800517]}},
{"type": "Feature", "id": "yLpQ4ye5lc7c1xpWiHLIeEcoYGE=", "properties": {"ref": "324", "@spider": "jjill", "addr:street": "1125 Woodruff Rd.", "addr:city": "Greenville", "addr:state": "SC", "addr:postcode": "29607", "addr:country": "US", "name": "The Shops at Greenridge", "phone": "864.234.7703", "website": "https://locations.jjill.com/sc/greenville/324/", "opening_hours": "Mo 10am - 6pm; Tu 10am - 6pm; We 10am - 6pm; Th 10am - 7pm; Fr 10am - 7pm; Sa 10am - 7pm; Su 12pm - 6pm", "brand": "J.Jill"}, "geometry": {"type": "Point", "coordinates": [-82.298295, 34.828492]}},
{"type": "Feature", "id": "4eeyQCRpqnuMslFT9b1P8oyjYr8=", "properties": {"ref": "25", "@spider": "jjill", "addr:street": "125 Westchester Ave.", "addr:city": "White Plains", "addr:state": "NY", "addr:postcode": "10601", "addr:country": "US", "name": "The Westchester", "phone": "914.328.1034", "website": "https://locations.jjill.com/ny/white-plains/25/", "opening_hours": "Mo 11am - 7pm; Tu 10am - 7pm; We 10am - 7pm; Th 10am - 7pm; Fr 10am - 8pm; Sa 10am - 8pm; Su 11am - 6pm", "brand": "J.Jill"}, "geometry": {"type": "Point", "coordinates": [-73.7587258, 41.0309786]}},
{"type": "Feature", "id": "UIej0VZE1af09ghechICO8xFprM=", "properties": {"ref": "685", "@spider": "jjill", "addr:street": "3079 Howard Avenue", "addr:city": "Myrtle Beach", "addr:state": "SC", "addr:postcode": "29577", "addr:country": "US", "name": "The Market Common", "phone": "843.232.1096", "website": "https://locations.jjill.com/sc/myrtle-beach/685/", "opening_hours": "Mo 10am - 7pm; Tu 10am - 7pm; We 10am - 7pm; Th 10am - 7pm; Fr 10am - 7pm; Sa 10am - 7pm; Su 12pm - 6pm", "brand": "J.Jill"}, "geometry": {"type": "Point", "coordinates": [-78.9397808, 33.6690481]}},
{"type": "Feature", "id": "AEC92CQb6p97MmQdL_63DfYFTrc=", "properties": {"ref": "173", "@spider": "jjill", "addr:street": "1901 Northwest Expressway", "addr:city": "Oklahoma City", "addr:state": "OK", "addr:postcode": "73118", "addr:country": "US", "name": "Penn Square Mall", "phone": "405.842.8990", "website": "https://locations.jjill.com/ok/oklahoma-city/173/", "opening_hours": "Mo 10am - 9pm; Tu 10am - 9pm; We 10am - 9pm; Th 10am - 9pm; Fr 10am - 9pm; Sa 10am - 9pm; Su 12pm - 6pm", "brand": "J.Jill"}, "geometry": {"type": "Point", "coordinates": [-97.5458383, 35.5247824]}},
{"type": "Feature", "id": "pi51S4VP3q0_0YT9R7_1u8R4xMQ=", "properties": {"ref": "291", "@spider": "jjill", "addr:street": "1233 Belk Drive", "addr:city": "Mount Pleasant", "addr:state": "SC", "addr:postcode": "29464", "addr:country": "US", "name": "Mt. Pleasant Towne Centre", "phone": "843.856.4495", "website": "https://locations.jjill.com/sc/mount-pleasant/291/", "opening_hours": "Mo 10am - 7pm; Tu 10am - 7pm; We 10am - 7pm; Th 10am - 7pm; Fr 10am - 7pm; Sa 10am - 7pm; Su 12pm - 6pm", "brand": "J.Jill"}, "geometry": {"type": "Point", "coordinates": [-79.8301783, 32.8299115]}},
{"type": "Feature", "id": "NbewGI4c1Q9W9C4GPgd6B9xq4s0=", "properties": {"ref": "709", "@spider": "jjill", "addr:street": "1448 S. Bryant Ave", "addr:city": "Edmond", "addr:state": "OK", "addr:postcode": "73034", "addr:country": "US", "name": "Spring Creek Plaza", "phone": "405.531.9020", "website": "https://locations.jjill.com/ok/edmond/709/", "opening_hours": "Mo 10am - 7pm; Tu 10am - 7pm; We 10am - 7pm; Th 10am - 7pm; Fr 10am - 7pm; Sa 10am - 7pm; Su 12pm - 6pm", "brand": "J.Jill"}, "geometry": {"type": "Point", "coordinates": [-97.4587792, 35.639617]}},
{"type": "Feature", "id": "SH3qpV_RNQOleL5_6GzcJg_SnJM=", "properties": {"ref": "213", "@spider": "jjill", "addr:street": "1776 Utica Sq.", "addr:city": "Tulsa", "addr:state": "OK", "addr:postcode": "74114", "addr:country": "US", "name": "Utica Square", "phone": "918.743.5455", "website": "https://locations.jjill.com/ok/tulsa/213/", "opening_hours": "Mo 10am - 7pm; Tu 10am - 7pm; We 10am - 7pm; Th 10am - 7pm; Fr 10am - 7pm; Sa 10am - 7pm; Su 12pm - 6pm", "brand": "J.Jill"}, "geometry": {"type": "Point", "coordinates": [-95.966725, 36.131806]}},
{"type": "Feature", "id": "4qNmnulX2mM8lV1DRoXzc7ri9Po=", "properties": {"ref": "637", "@spider": "jjill", "addr:street": "5101 Fashion Dr.", "addr:city": "Nanuet", "addr:state": "NY", "addr:postcode": "10954-2700", "addr:country": "US", "name": "The Shops at Nanuet", "phone": "845.623.0264", "website": "https://locations.jjill.com/ny/nanuet/637/", "opening_hours": "Mo 10am - 8pm; Tu 10am - 8pm; We 10am - 8pm; Th 10am - 8pm; Fr 10am - 8pm; Sa 10am - 8pm; Su 11am - 6pm", "brand": "J.Jill"}, "geometry": {"type": "Point", "coordinates": [-74.0161291, 41.0957309]}},
{"type": "Feature", "id": "nrSI7QoyJVaBcF575sBauL8MNbM=", "properties": {"ref": "98", "@spider": "jjill", "addr:street": "1 Garden State Plaza", "addr:city": "Paramus", "addr:state": "NJ", "addr:postcode": "07652", "addr:country": "US", "name": "Garden State Plaza", "phone": "201.712.5599", "website": "https://locations.jjill.com/nj/paramus/98/", "opening_hours": "Mo 10am - 7pm; Tu 10am - 7pm; We 10am - 7pm; Th 10am - 7pm; Fr 10am - 7pm; Sa 10am - 7pm", "brand": "J.Jill"}, "geometry": {"type": "Point", "coordinates": [-74.0762757, 40.9181658]}},
{"type": "Feature", "id": "FZ-5ieZwDMGYlRPJIGGvGWvjdZg=", "properties": {"ref": "673", "@spider": "jjill", "addr:street": "2157 Highway 35", "addr:city": "Sea Girt", "addr:state": "NJ", "addr:postcode": "08750", "addr:country": "US", "name": "Brook 35 West", "phone": "732.449.4488", "website": "https://locations.jjill.com/nj/sea-girt/673/", "opening_hours": "Mo 10am - 7pm; Tu 10am - 7pm; We 10am - 7pm; Th 10am - 7pm; Fr 10am - 7pm; Sa 10am - 6pm; Su 10am - 5pm", "brand": "J.Jill"}, "geometry": {"type": "Point", "coordinates": [-74.0632882, 40.1384482]}},
{"type": "Feature", "id": "RPdDnRGJWvwQlgaZidhaRlrg0hA=", "properties": {"ref": "179", "@spider": "jjill", "addr:street": "7235 S.W. Bridgeport Rd.", "addr:city": "Tigard", "addr:state": "OR", "addr:postcode": "97224", "addr:country": "US", "name": "Bridgeport Village", "phone": "503.603.9350", "website": "https://locations.jjill.com/or/tigard/179/", "opening_hours": "Mo 10am - 7pm; Tu 10am - 7pm; We 10am - 7pm; Th 10am - 7pm; Fr 10am - 7pm; Sa 10am - 7pm; Su 11am - 6pm", "brand": "J.Jill"}, "geometry": {"type": "Point", "coordinates": [-122.7519213, 45.3962092]}},
{"type": "Feature", "id": "1I1wYL_4zOKOrRJDkpAoNfgcon8=", "properties": {"ref": "722", "@spider": "jjill", "addr:street": "40 Shelter Cove Towne Centre", "addr:city": "Hilton Head", "addr:state": "SC", "addr:postcode": "29928", "addr:country": "US", "name": "Shelter Cove Towne Centre", "phone": "(843) 785-3010", "website": "https://locations.jjill.com/sc/hilton-head/722/", "opening_hours": "Mo 10am - 7pm; Tu 10am - 7pm; We 10am - 7pm; Th 10am - 7pm; Fr 10am - 7pm; Sa 10am - 7pm; Su 12pm - 6pm", "brand": "J.Jill"}, "geometry": {"type": "Point", "coordinates": [-80.7213315, 32.1843169]}},
{"type": "Feature", "id": "9ZfPWfBFLfgnjGiYqu6NxiLVrSc=", "properties": {"ref": "136", "@spider": "jjill", "addr:street": "810 Eastview Mall", "addr:city": "Victor", "addr:state": "NY", "addr:postcode": "14564", "addr:country": "US", "name": "Eastview Mall", "phone": "585.223.5020", "website": "https://locations.jjill.com/ny/victor/136/", "opening_hours": "Mo 10am - 8pm; Tu 10am - 8pm; We 10am - 8pm; Th 10am - 8pm; Fr 10am - 8pm; Sa 10am - 8pm; Su 11am - 6pm", "brand": "J.Jill"}, "geometry": {"type": "Point", "coordinates": [-77.4417783, 43.0291175]}},
{"type": "Feature", "id": "WxWF_UEUIvZPdbZ-z0jOCoqrWsw=", "properties": {"ref": "609", "@spider": "jjill", "addr:street": "364 Maine Mall Rd.", "addr:city": "South Portland", "addr:state": "ME", "addr:postcode": "04106", "addr:country": "US", "name": "The Maine Mall", "phone": "207.253.1696", "website": "https://locations.jjill.com/me/south-portland/609/", "opening_hours": "Mo 10am - 7pm; Tu 10am - 7pm; We 10am - 7pm; Th 10am - 7pm; Fr 10am - 7pm; Sa 10am - 7pm; Su 11am - 6pm", "brand": "J.Jill"}, "geometry": {"type": "Point", "coordinates": [-70.3367879, 43.6342134]}},
{"type": "Feature", "id": "XIrxo6NU6tb78sCoDhmFFfU5mKM=", "properties": {"ref": "108", "@spider": "jjill", "addr:street": "1200 Morris Turnpike", "addr:city": "Short Hills", "addr:state": "NJ", "addr:postcode": "07078", "addr:country": "US", "name": "The Mall at Short Hills", "phone": "973.379.7773", "website": "https://locations.jjill.com/nj/short-hills/108/", "opening_hours": "Mo 10am - 8pm; Tu 10am - 8pm; We 10am - 8pm; Th 10am - 8pm; Fr 10am - 8pm; Sa 10am - 8pm; Su 11am - 6pm", "brand": "J.Jill"}, "geometry": {"type": "Point", "coordinates": [-74.3642457, 40.7408743]}},
{"type": "Feature", "id": "ue5omBML9NDMu7yFHjJsJIvcfxY=", "properties": {"ref": "139", "@spider": "jjill", "addr:street": "597 Route 35", "addr:city": "Shrewsbury", "addr:state": "NJ", "addr:postcode": "07702", "addr:country": "US", "name": "The Grove at Shrewsbury", "phone": "732.530.7444", "website": "https://locations.jjill.com/nj/shrewsbury/139/", "opening_hours": "Mo 10am - 7pm; Tu 10am - 7pm; We 10am - 7pm; Th 10am - 7pm; Fr 10am - 8pm; Sa 10am - 6pm; Su 10am - 5pm", "brand": "J.Jill"}, "geometry": {"type": "Point", "coordinates": [-74.0609476, 40.3307812]}},
{"type": "Feature", "id": "iniZsrXCEjgsFBWtpnuM47kVOnA=", "properties": {"ref": "638", "@spider": "jjill", "addr:street": "104 North Adams Rd.", "addr:city": "Rochester Hills", "addr:state": "MI", "addr:postcode": "48309", "addr:country": "US", "name": "The Village of Rochester Hills", "phone": "248.375.3026", "website": "https://locations.jjill.com/mi/rochester-hills/638/", "opening_hours": "Mo 10am - 7pm; Tu 10am - 7pm; We 10am - 7pm; Th 10am - 7pm; Fr 10am - 8pm; Sa 10am - 8pm; Su 12pm - 6pm", "brand": "J.Jill"}, "geometry": {"type": "Point", "coordinates": [-83.1940753, 42.6816236]}},
{"type": "Feature", "id": "pUAvSX-NWSY3I5rco0PuCpHFGIM=", "properties": {"ref": "27", "@spider": "jjill", "addr:street": "2801 W. Big Beaver Rd.", "addr:city": "Troy", "addr:state": "MI", "addr:postcode": "48084", "addr:country": "US", "name": "Somerset Collection", "phone": "248.816.3948", "website": "https://locations.jjill.com/mi/troy/27/", "opening_hours": "Mo 10am - 7pm; Tu 10am - 7pm; We 10am - 7pm; Th 10am - 7pm; Fr 10am - 8pm; Sa 10am - 8pm; Su 12pm - 6pm", "brand": "J.Jill"}, "geometry": {"type": "Point", "coordinates": [-83.1834191, 42.5600991]}},
{"type": "Feature", "id": "zL63P7R6SNtFMxHqKZ13NKn-qLE=", "properties": {"ref": "54", "@spider": "jjill", "addr:street": "1701 South Lindbergh Blvd.", "addr:city": "St. Louis", "addr:state": "MO", "addr:postcode": "63131", "addr:country": "US", "name": "Plaza Frontenac", "phone": "314.994.7094", "website": "https://locations.jjill.com/mo/st.-louis/54/", "opening_hours": "Mo 10am - 7pm; Tu 10am - 7pm; We 10am - 7pm; Th 10am - 7pm; Fr 10am - 7pm; Sa 10am - 7pm; Su 12pm - 6pm", "brand": "J.Jill"}, "geometry": {"type": "Point", "coordinates": [-90.4073533, 38.6304729]}},
{"type": "Feature", "id": "YI2Bteygvqq-huUGBJOJcgQ4dYc=", "properties": {"ref": "243", "@spider": "jjill", "addr:street": "99 Rockingham Park Blvd.", "addr:city": "Salem", "addr:state": "NH", "addr:postcode": "03079", "addr:country": "US", "name": "Mall at Rockingham Park", "phone": "603.890.8690", "website": "https://locations.jjill.com/nh/salem/243/", "opening_hours": "Mo 10am - 8pm; Tu 10am - 8pm; We 10am - 8pm; Th 10am - 8pm; Fr 10am - 9pm; Sa 10am - 9pm; Su 11am - 6pm", "brand": "J.Jill"}, "geometry": {"type": "Point", "coordinates": [-71.231736, 42.7682727]}},
{"type": "Feature", "id": "ePldKEoasR3hygXBod1B5ty8DAY=", "properties": {"ref": "280", "@spider": "jjill", "addr:street": "150 Colony Place", "addr:city": "Plymouth", "addr:state": "MA", "addr:postcode": "02360", "addr:country": "US", "name": "The Village at Colony Place", "phone": "508.732.9793", "website": "https://locations.jjill.com/ma/plymouth/280/", "opening_hours": "Mo 10am - 7pm; Tu 10am - 7pm; We 10am - 7pm; Th 10am - 7pm; Fr 10am - 7pm; Sa 10am - 7pm; Su 11am - 6pm", "brand": "J.Jill"}, "geometry": {"type": "Point", "coordinates": [-70.7128509, 41.9553056]}},
{"type": "Feature", "id": "q3oy6BgB7XmYhgaZ7g2G1Q2hwCs=", "properties": {"ref": "20", "@spider": "jjill", "addr:street": "1245 Worcester Rd.", "addr:city": "Natick", "addr:state": "MA", "addr:postcode": "01760", "addr:country": "US", "name": "Natick Mall", "phone": "508.651.7706", "website": "https://locations.jjill.com/ma/natick/20/", "opening_hours": "Mo 11am - 7pm; Tu 11am - 7pm; We 11am - 7pm; Th 11am - 7pm; Fr 11am - 7pm; Sa 11am - 7pm; Su 12pm - 6pm", "brand": "J.Jill"}, "geometry": {"type": "Point", "coordinates": [-71.3870934, 42.3005009]}},
{"type": "Feature", "id": "-VPShDACebQQUJvvCqVAk3NWvd4=", "properties": {"ref": "105", "@spider": "jjill", "addr:street": "601 Donald Lynch Blvd.", "addr:city": "Marlborough", "addr:state": "MA", "addr:postcode": "01752", "addr:country": "US", "name": "Solomon Pond", "phone": "508.485.6346", "website": "https://locations.jjill.com/ma/marlborough/105/", "opening_hours": "Mo 11am - 7pm; Tu 11am - 7pm; We 11am - 7pm; Th 11am - 7pm; Fr 10am - 7pm; Sa 10am - 7pm; Su 11am - 6pm", "brand": "J.Jill"}, "geometry": {"type": "Point", "coordinates": [-71.6130076, 42.3559974]}},
{"type": "Feature", "id": "TzY4dysHRJS-O4AEB8KKQNdB1UI=", "properties": {"ref": "636", "@spider": "jjill", "addr:street": "600 Market Street", "addr:city": "Lynnfield", "addr:state": "MA", "addr:postcode": "01940", "addr:country": "US", "name": "Market Street at Lynnfield", "phone": "781.334.2711", "website": "https://locations.jjill.com/ma/lynnfield/636/", "opening_hours": "Mo 10am - 8pm; Tu 10am - 8pm; We 10am - 8pm; Th 10am - 8pm; Fr 10am - 9pm; Sa 10am - 9pm; Su 11am - 6pm", "brand": "J.Jill"}, "geometry": {"type": "Point", "coordinates": [-71.0349163, 42.5163358]}},
{"type": "Feature", "id": "infh8i_33GpVV28W0VyXkiHoFQ4=", "properties": {"ref": "654", "@spider": "jjill", "addr:street": "1131 Third Ave.", "addr:city": "New York", "addr:state": "NY", "addr:postcode": "10065", "addr:country": "US", "name": "Third Ave.", "phone": "212.288.0926", "website": "https://locations.jjill.com/ny/new-york/654/", "opening_hours": "Mo 10am - 7pm; Tu 10am - 7pm; We 10am - 7pm; Th 10am - 7pm; Fr 10am - 7pm; Sa 10am - 7pm; Su 11am - 6pm", "brand": "J.Jill"}, "geometry": {"type": "Point", "coordinates": [-73.9628013, 40.7662001]}},
{"type": "Feature", "id": "EfJVJRh5ZoT2f3nnTtlcQKbIjzY=", "properties": {"ref": "678", "@spider": "jjill", "addr:street": "170 Columbus Ave between 67th & 68th St.", "addr:city": "New York", "addr:state": "NY", "addr:postcode": "10023", "addr:country": "US", "name": "Columbus Ave", "phone": "212.579.5455", "website": "https://locations.jjill.com/ny/new-york/678/", "opening_hours": "Mo 10am - 7pm; Tu 10am - 7pm; We 10am - 7pm; Th 10am - 7pm; Fr 10am - 7pm; Sa 10am - 7pm; Su 12pm - 6pm", "brand": "J.Jill"}, "geometry": {"type": "Point", "coordinates": [-73.981134, 40.7746253]}},
{"type": "Feature", "id": "Bfdy_xJTWJ7i_BejAuAQ6f8ZqMI=", "properties": {"ref": "197", "@spider": "jjill", "addr:street": "712 Bliss Rd.", "addr:city": "Longmeadow", "addr:state": "MA", "addr:postcode": "01106", "addr:country": "US", "name": "Longmeadow Shops", "phone": "413.567.1157", "website": "https://locations.jjill.com/ma/longmeadow/197/", "opening_hours": "Mo 10am - 6pm; Tu 10am - 6pm; We 10am - 6pm; Th 10am - 6pm; Fr 10am - 6pm; Sa 10am - 6pm; Su 12pm - 6pm", "brand": "J.Jill"}, "geometry": {"type": "Point", "coordinates": [-72.5541955, 42.05691]}},
{"type": "Feature", "id": "z0N8C8rLFJZ7YQwewG_YJaKb5a0=", "properties": {"ref": "126", "@spider": "jjill", "addr:street": "210 Andover St.", "addr:city": "Peabody", "addr:state": "MA", "addr:postcode": "01960", "addr:country": "US", "name": "Northshore Mall", "phone": "978.977.3318", "website": "https://locations.jjill.com/ma/peabody/126/", "opening_hours": "Mo 11am - 7pm; Tu 11am - 7pm; We 11am - 7pm; Th 10am - 7pm; Fr 10am - 7pm; Sa 10am - 7pm; Su 11am - 6pm", "brand": "J.Jill"}, "geometry": {"type": "Point", "coordinates": [-70.943273, 42.5396335]}},
{"type": "Feature", "id": "YR-s-8KdcskWf4ZW1mCJTjavrm0=", "properties": {"ref": "406", "@spider": "jjill", "addr:street": "796 Iyannough Road", "addr:city": "Hyannis", "addr:state": "MA", "addr:postcode": "02601", "addr:country": "US", "name": "Cape Cod Mall", "phone": "508.778.6960", "website": "https://locations.jjill.com/ma/hyannis/406/", "opening_hours": "Mo 11am - 8pm; Tu 11am - 8pm; We 11am - 8pm; Th 11am - 8pm; Fr 10am - 8pm; Sa 10am - 8pm; Su 11am - 6pm", "brand": "J.Jill"}, "geometry": {"type": "Point", "coordinates": [-70.2963842, 41.6692592]}},
{"type": "Feature", "id": "cGLZLyUkYnjq2d_XR3ky0tQGi0M=", "properties": {"ref": "37", "@spider": "jjill", "addr:street": "95 Burlington Mall Rd.", "addr:city": "Burlington", "addr:state": "MA", "addr:postcode": "01803", "addr:country": "US", "name": "Burlington Mall", "phone": "781.272.1286", "website": "https://locations.jjill.com/ma/burlington/37/", "opening_hours": "Mo 10am - 8pm; Tu 10am - 8pm; We 10am - 8pm; Th 10am - 8pm; Fr 10am - 9pm; Sa 10am - 9pm; Su 11am - 7pm", "brand": "J.Jill"}, "geometry": {"type": "Point", "coordinates": [-71.2136209476074, 42.4836239967548]}},
{"type": "Feature", "id": "MkXjbAGetULvdphMXXqhxMlcbiU=", "properties": {"ref": "84", "@spider": "jjill", "addr:street": "199 Boylston St.", "addr:city": "Chestnut Hill", "addr:state": "MA", "addr:postcode": "02467", "addr:country": "US", "name": "The Mall at Chestnut Hill", "phone": "617.332.0751", "website": "https://locations.jjill.com/ma/chestnut-hill/84/", "opening_hours": "Mo 10am - 7pm; Tu 10am - 7pm; We 10am - 7pm; Th 10am - 7pm; Fr 10am - 7pm; Sa 10am - 7pm; Su 12pm - 7pm", "brand": "J.Jill"}, "geometry": {"type": "Point", "coordinates": [-71.1756718, 42.3215125]}},
{"type": "Feature", "id": "Y-OfNBUY5xN1KGN4AJjE-_f5res=", "properties": {"ref": "699", "@spider": "jjill", "addr:street": "100 Huntington Ave", "addr:city": "Boston", "addr:state": "MA", "addr:postcode": "02116", "addr:country": "US", "name": "Copley Place", "phone": "617-849-7389", "website": "https://locations.jjill.com/ma/boston/699/", "opening_hours": "Mo 11am - 6pm; Tu 11am - 6pm; We 11am - 6pm; Th 11am - 6pm; Fr 11am - 6pm; Sa 11am - 6pm; Su 12pm - 6pm", "brand": "J.Jill"}, "geometry": {"type": "Point", "coordinates": [-71.0773777, 42.3471447]}},
{"type": "Feature", "id": "S5wsgPeqNdJMH8yDJ2fEX2bBl80=", "properties": {"ref": "707", "@spider": "jjill", "addr:street": "884 Kenilworth Drive", "addr:city": "Towson", "addr:state": "MD", "addr:postcode": "21204", "addr:country": "US", "name": "The Shops at Kenilworth", "phone": "443-841-1901", "website": "https://locations.jjill.com/md/towson/707/", "opening_hours": "Mo 10am - 5pm; Tu 10am - 5pm; We 10am - 5pm; Th 10am - 5pm; Fr 10am - 5pm; Sa 10am - 5pm; Su 12pm - 5pm", "brand": "J.Jill"}, "geometry": {"type": "Point", "coordinates": [-76.6193441, 39.4115422]}},
{"type": "Feature", "id": "5rbKt1BZ_Shs3OUnNzlYJBUkZKA=", "properties": {"ref": "326", "@spider": "jjill", "addr:street": "149 Great Rd", "addr:city": "Acton", "addr:state": "MA", "addr:postcode": "01720", "addr:country": "US", "name": "Brookside Shops", "phone": "978.266.0034", "website": "https://locations.jjill.com/ma/acton/326/", "opening_hours": "Mo 10am - 7pm; Tu 10am - 7pm; We 10am - 7pm; Th 10am - 7pm; Fr 10am - 7pm; Sa 10am - 7pm; Su 11am - 6pm", "brand": "J.Jill"}, "geometry": {"type": "Point", "coordinates": [-71.4146298, 42.4836205]}},
{"type": "Feature", "id": "W1vwh81qHJko7RFig35wh5RWFdA=", "properties": {"ref": "43", "@spider": "jjill", "addr:street": "250 Granite St.", "addr:city": "Braintree", "addr:state": "MA", "addr:postcode": "02184", "addr:country": "US", "name": "South Shore Plaza", "phone": "781.356.2914", "website": "https://locations.jjill.com/ma/braintree/43/", "opening_hours": "Mo 10am - 7pm; Tu 10am - 7pm; We 10am - 7pm; Th 10am - 7pm; Fr 10am - 7pm; Sa 10am - 7pm; Su 11am - 6pm", "brand": "J.Jill"}, "geometry": {"type": "Point", "coordinates": [-71.024216, 42.2220924]}},
{"type": "Feature", "id": "wmvcG9mJAvEc7jaA1eRbpsPWZ2A=", "properties": {"ref": "153", "@spider": "jjill", "addr:street": "98 Derby St.", "addr:city": "Hingham", "addr:state": "MA", "addr:postcode": "02043", "addr:country": "US", "name": "Derby Street Shops", "phone": "781.740.4611", "website": "https://locations.jjill.com/ma/hingham/153/", "opening_hours": "Mo 10am - 8pm; Tu 10am - 8pm; We 10am - 8pm; Th 10am - 8pm; Fr 10am - 8pm; Sa 10am - 8pm; Su 11am - 6pm", "brand": "J.Jill"}, "geometry": {"type": "Point", "coordinates": [-70.9113035, 42.1770218]}},
{"type": "Feature", "id": "To-b8t1bn0f35aX70ymnc9qG08g=", "properties": {"ref": "122", "@spider": "jjill", "addr:street": "27318 Novi Rd.", "addr:city": "Novi", "addr:state": "MI", "addr:postcode": "48377", "addr:country": "US", "name": "Twelve Oaks", "phone": "248.596.9340", "website": "https://locations.jjill.com/mi/novi/122/", "opening_hours": "Mo 10am - 7pm; Tu 10am - 7pm; We 10am - 7pm; Th 10am - 7pm; Fr 10am - 7pm; Sa 10am - 7pm; Su 11am - 6pm", "brand": "J.Jill"}, "geometry": {"type": "Point", "coordinates": [-83.4758284, 42.4884005]}},
{"type": "Feature", "id": "FG3aIFZXj68P1CLAbDvfEJ8MplU=", "properties": {"ref": "322", "@spider": "jjill", "addr:street": "1910 Towne Centre Blvd.", "addr:city": "Annapolis", "addr:state": "MD", "addr:postcode": "21401", "addr:country": "US", "name": "Annapolis Towne Centre at Parole", "phone": "410.224.0467", "website": "https://locations.jjill.com/md/annapolis/322/", "opening_hours": "Mo 10am - 7pm; Tu 10am - 7pm; We 10am - 7pm; Th 10am - 7pm; Fr 10am - 7pm; Sa 10am - 7pm; Su 12pm - 6pm", "brand": "J.Jill"}, "geometry": {"type": "Point", "coordinates": [-76.5397239, 38.9808346]}},
{"type": "Feature", "id": "WI3KRJ_2YvrK07fFEiuc4qBPbEs=", "properties": {"ref": "155", "@spider": "jjill", "addr:street": "7101 Democracy Blvd.", "addr:city": "Bethesda", "addr:state": "MD", "addr:postcode": "20817", "addr:country": "US", "name": "Montgomery Mall", "phone": "301.469.0999", "website": "https://locations.jjill.com/md/bethesda/155/", "opening_hours": "Mo 10am - 8pm; Tu 10am - 8pm; We 10am - 8pm; Th 10am - 8pm; Fr 10am - 8pm; Sa 10am - 8pm; Su 11am - 7pm", "brand": "J.Jill"}, "geometry": {"type": "Point", "coordinates": [-77.1459998, 39.0241378]}},
{"type": "Feature", "id": "QRNZb3UxsnK_4xS-VHdwel7-MyQ=", "properties": {"ref": "700", "@spider": "jjill", "addr:street": "5310 Western Avenue", "addr:city": "Chevy Chase", "addr:state": "MD", "addr:postcode": "20815", "addr:country": "US", "name": "The Shops at Wisconsin Place", "phone": "301.215.7013", "website": "https://locations.jjill.com/md/chevy-chase/700/", "opening_hours": "Mo 10am - 6pm; Tu 10am - 6pm; We 10am - 6pm; Th 10am - 6pm; Fr 10am - 6pm; Sa 10am - 6pm; Su 12pm - 5pm", "brand": "J.Jill"}, "geometry": {"type": "Point", "coordinates": [-77.0867716, 38.9602949]}},
{"type": "Feature", "id": "IGPqW0otLnF4BlqgH9h8uqznTRA=", "properties": {"ref": "668", "@spider": "jjill", "addr:street": "118 Shawan Rd.", "addr:city": "Hunt Valley", "addr:state": "MD", "addr:postcode": "21030", "addr:country": "US", "name": "Hunt Valley Towne Centre", "phone": "410.329.1503", "website": "https://locations.jjill.com/md/hunt-valley/668/", "opening_hours": "Mo 10am - 7pm; Tu 10am - 7pm; We 10am - 7pm; Th 10am - 7pm; Fr 10am - 7pm; Sa 10am - 7pm; Su 11am - 5pm", "brand": "J.Jill"}, "geometry": {"type": "Point", "coordinates": [-76.6554846, 39.4978495]}},
{"type": "Feature", "id": "bbcDbj2ZmWDfqHfDF3_XTKsyyj8=", "properties": {"ref": "121", "@spider": "jjill", "addr:street": "10300 Little Patuxent Pkwy.", "addr:city": "Columbia", "addr:state": "MD", "addr:postcode": "21044", "addr:country": "US", "name": "The Mall in Columbia", "phone": "410.997.7174", "website": "https://locations.jjill.com/md/columbia/121/", "opening_hours": "Mo 10am - 7pm; Tu 10am - 7pm; We 10am - 7pm; Th 10am - 7pm; Fr 10am - 7pm; Sa 10am - 7pm; Su 12pm - 6pm", "brand": "J.Jill"}, "geometry": {"type": "Point", "coordinates": [-76.8629974, 39.2166769]}},
{"type": "Feature", "id": "epVhakwbpW8a-kmPmpv8UazGLJg=", "properties": {"ref": "659", "@spider": "jjill", "addr:street": "3011 Preyde Blvd.", "addr:city": "Lansing", "addr:state": "MI", "addr:postcode": "48912", "addr:country": "US", "name": "Eastwood Towne Center", "phone": "517.367.0471", "website": "https://locations.jjill.com/mi/lansing/659/", "opening_hours": "Mo 10am - 7pm; Tu 10am - 7pm; We 10am - 7pm; Th 10am - 7pm; Fr 10am - 7pm; Sa 10am - 7pm; Su 12pm - 6pm", "brand": "J.Jill"}, "geometry": {"type": "Point", "coordinates": [-84.5140025, 42.7639053]}},
{"type": "Feature", "id": "XWAiGIcp7ynU-_dV_mEx7bAlmO8=", "properties": {"ref": "305", "@spider": "jjill", "addr:street": "6800 S. Westnedge Ave.", "addr:city": "Portage", "addr:state": "MI", "addr:postcode": "49002", "addr:country": "US", "name": "Carillon Centre", "phone": "269.324.2108", "website": "https://locations.jjill.com/mi/portage/305/", "opening_hours": "Mo 10am - 7pm; Tu 10am - 7pm; We 10am - 7pm; Th 10am - 7pm; Fr 10am - 7pm; Sa 10am - 6pm; Su 12pm - 5pm", "brand": "J.Jill"}, "geometry": {"type": "Point", "coordinates": [-85.5905116, 42.2179051]}},
{"type": "Feature", "id": "dqlLyZ9JFo4imPvF2hP1857PRIc=", "properties": {"ref": "118", "@spider": "jjill", "addr:street": "1595 Highway 36 West Space 100", "addr:city": "Roseville", "addr:state": "MN", "addr:postcode": "55113", "addr:country": "US", "name": "Rosedale Center", "phone": "651.636.7800", "website": "https://locations.jjill.com/mn/roseville/118/", "opening_hours": "Mo 11am - 7pm; Tu 11am - 7pm; We 11am - 7pm; Th 11am - 7pm; Fr 11am - 7pm; Sa 11am - 7pm; Su 11am - 6pm", "brand": "J.Jill"}, "geometry": {"type": "Point", "coordinates": [-93.1668982, 45.0104971]}},
{"type": "Feature", "id": "fowJrOU4-wdvKEtCu5ONP4JfrqY=", "properties": {"ref": "409", "@spider": "jjill", "addr:street": "510 Apache Mall", "addr:city": "Rochester", "addr:state": "MN", "addr:postcode": "55902", "addr:country": "US", "name": "Apache Mall", "phone": "507-281-4200", "website": "https://locations.jjill.com/mn/rochester/409/", "opening_hours": "Mo 10am - 6pm; Tu 10am - 6pm; We 10am - 6pm; Th 10am - 6pm; Fr 10am - 6pm; Sa 10am - 6pm; Su 11am - 5pm", "brand": "J.Jill"}, "geometry": {"type": "Point", "coordinates": [-92.4783099, 44.0060857]}},
{"type": "Feature", "id": "s0yT_heVJ1EH17BcJF_Q9fnPDU0=", "properties": {"ref": "205", "@spider": "jjill", "addr:street": "9120 Hudson Road", "addr:city": "Woodbury", "addr:state": "MN", "addr:postcode": "55129", "addr:country": "US", "name": "Woodbury Lakes", "phone": "651.735.4454", "website": "https://locations.jjill.com/mn/woodbury/205/", "opening_hours": "Mo 10am - 8pm; Tu 10am - 8pm; We 10am - 8pm; Th 10am - 8pm; Fr 10am - 8pm; Sa 10am - 8pm; Su 11am - 6pm", "brand": "J.Jill"}, "geometry": {"type": "Point", "coordinates": [-92.9243294, 44.9473571]}},
{"type": "Feature", "id": "WQrjQuEaNSWwmbVefmQaW8vFRKo=", "properties": {"ref": "142", "@spider": "jjill", "addr:street": "3700 Rivertown Pkwy.", "addr:city": "Grandville", "addr:state": "MI", "addr:postcode": "49418", "addr:country": "US", "name": "Rivertown Crossings", "phone": "616.532.5455", "website": "https://locations.jjill.com/mi/grandville/142/", "opening_hours": "Mo 11am - 8pm; Tu 11am - 8pm; We 11am - 8pm; Th 11am - 8pm; Fr 11am - 9pm; Sa 11am - 9pm; Su 12pm - 6pm", "brand": "J.Jill"}, "geometry": {"type": "Point", "coordinates": [-85.7553291, 42.8796756]}},
{"type": "Feature", "id": "0t1bCHTlGEJo5fm7mJKoWo8r4Qg=", "properties": {"ref": "646", "@spider": "jjill", "addr:street": "3030 Washtenaw Ave.", "addr:city": "Ann Arbor", "addr:state": "MI", "addr:postcode": "48104", "addr:country": "US", "name": "Arbor Hills Crossing", "phone": "734.677.6606", "website": "https://locations.jjill.com/mi/ann-arbor/646/", "opening_hours": "Mo 10am - 7pm; Tu 10am - 7pm; We 10am - 7pm; Th 10am - 7pm; Fr 10am - 8pm; Sa 10am - 8pm; Su 12pm - 6pm", "brand": "J.Jill"}, "geometry": {"type": "Point", "coordinates": [-83.6989059, 42.2570162]}},
{"type": "Feature", "id": "S8X_QAhGLQz8CYgahSFkyX92Bgk=", "properties": {"ref": "235", "@spider": "jjill", "addr:street": "9608 Village Place Blvd.", "addr:city": "Brighton", "addr:state": "MI", "addr:postcode": "48116", "addr:country": "US", "name": "Green Oak Village Place", "phone": "810.225.9499", "website": "https://locations.jjill.com/mi/brighton/235/", "opening_hours": "Mo 10am - 7pm; Tu 10am - 7pm; We 10am - 7pm; Th 10am - 7pm; Fr 10am - 7pm; Sa 10am - 7pm; Su 12pm - 6pm", "brand": "J.Jill"}, "geometry": {"type": "Point", "coordinates": [-83.7502915, 42.5058204]}},
{"type": "Feature", "id": "632ld97L3V0lbPXiNWBMRiHuY4E=", "properties": {"ref": "254", "@spider": "jjill", "addr:street": "3195 28th Street SE", "addr:city": "Grand Rapids", "addr:state": "MI", "addr:postcode": "49512", "addr:country": "US", "name": "Woodland Mall", "phone": "616-464-0104", "website": "https://locations.jjill.com/mi/grand-rapids/254/", "opening_hours": "Mo 10am - 7pm; Tu 10am - 7pm; We 10am - 7pm; Th 10am - 8pm; Fr 10am - 8pm; Sa 10am - 7pm; Su 12pm - 6pm", "brand": "J.Jill"}, "geometry": {"type": "Point", "coordinates": [-85.5882943, 42.9159791]}},
{"type": "Feature", "id": "BJfuxq45mTr6dLbarWRjcmGHLfg=", "properties": {"ref": "115", "@spider": "jjill", "addr:street": "3300 Galleria", "addr:city": "Edina", "addr:state": "MN", "addr:postcode": "55435", "addr:country": "US", "name": "Galleria Edina", "phone": "952.926.6533", "website": "https://locations.jjill.com/mn/edina/115/", "opening_hours": "Mo 10am - 7pm; Tu 10am - 7pm; We 10am - 7pm; Th 10am - 7pm; Fr 10am - 7pm; Sa 10am - 7pm; Su 11am - 5pm", "brand": "J.Jill"}, "geometry": {"type": "Point", "coordinates": [-93.324335, 44.876956]}},
{"type": "Feature", "id": "0LraR9o69KZrDtWlc70-xK3bDYA=", "properties": {"ref": "114", "@spider": "jjill", "addr:street": "80 West County Center", "addr:city": "Des Peres", "addr:state": "MO", "addr:postcode": "63131", "addr:country": "US", "name": "West County Center", "phone": "314.822.2157", "website": "https://locations.jjill.com/mo/des-peres/114/", "opening_hours": "Mo 10am - 8pm; Tu 10am - 8pm; We 10am - 8pm; Th 10am - 8pm; Fr 10am - 8pm; Sa 10am - 8pm; Su 11am - 6pm", "brand": "J.Jill"}, "geometry": {"type": "Point", "coordinates": [-90.4480257, 38.6008265]}},
{"type": "Feature", "id": "gV7TNSvM-W72GzyER1u9kp81Y3c=", "properties": {"ref": "23", "@spider": "jjill", "addr:street": "60 East Broadway", "addr:city": "Bloomington", "addr:state": "MN", "addr:postcode": "55425", "addr:country": "US", "name": "Mall of America", "phone": "952.876.0031", "website": "https://locations.jjill.com/mn/bloomington/23/", "opening_hours": "Mo 10am - 6pm; Tu 10am - 6pm; We 10am - 6pm; Th 10am - 6pm; Fr 10am - 7pm; Sa 10am - 7pm; Su 12pm - 6pm", "brand": "J.Jill"}, "geometry": {"type": "Point", "coordinates": [-93.2418785, 44.8544011]}},
{"type": "Feature", "id": "2INtm-UFwX3BuiHvpYqkBLImDS4=", "properties": {"ref": "36", "@spider": "jjill", "addr:street": "12401 Wayzata Blvd.", "addr:city": "Minnetonka", "addr:state": "MN", "addr:postcode": "55305", "addr:country": "US", "name": "Ridgedale Center", "phone": "952.544.3600", "website": "https://locations.jjill.com/mn/minnetonka/36/", "opening_hours": "Mo 11am - 7pm; Tu 11am - 7pm; We 11am - 7pm; Th 11am - 7pm; Fr 11am - 7pm; Sa 11am - 7pm; Su 11am - 6pm", "brand": "J.Jill"}, "geometry": {"type": "Point", "coordinates": [-93.4365661, 44.9676761]}},
{"type": "Feature", "id": "P99YFUv-rjgIzoR7O8A5OkpRfO8=", "properties": {"ref": "724", "@spider": "jjill", "addr:street": "2300 Bernadette Drive", "addr:city": "Columbia", "addr:state": "MO", "addr:postcode": "65203", "addr:country": "US", "name": "Columbia Mall", "phone": "573-507-9231", "website": "https://locations.jjill.com/mo/columbia/724/", "opening_hours": "Mo 11am - 7pm; Tu 11am - 7pm; We 11am - 7pm; Th 11am - 7pm; Fr 11am - 7pm; Sa 11am - 7pm; Su 12pm - 6pm", "brand": "J.Jill"}, "geometry": {"type": "Point", "coordinates": [-92.3755003, 38.9639133]}},
{"type": "Feature", "id": "s-uv0t1QwS1lBCz6yWbXVLSa-M8=", "properties": {"ref": "661", "@spider": "jjill", "addr:street": "2825 S. Glenstone Ave.", "addr:city": "Springfield", "addr:state": "MO", "addr:postcode": "65804", "addr:country": "US", "name": "Battlefield Mall", "phone": "417.881.5455", "website": "https://locations.jjill.com/mo/springfield/661/", "opening_hours": "Mo 10am - 7pm; Tu 10am - 7pm; We 10am - 7pm; Th 10am - 7pm; Fr 10am - 8pm; Sa 10am - 8pm; Su 12pm - 6pm", "brand": "J.Jill"}, "geometry": {"type": "Point", "coordinates": [-93.2647671, 37.1631313]}},
{"type": "Feature", "id": "cyZlnBAGE84PIp7bi3qWcXUY3kU=", "properties": {"ref": "718", "@spider": "jjill", "addr:street": "1001 Barnes Crossing", "addr:city": "Tupelo", "addr:state": "MS", "addr:postcode": "38804", "addr:country": "US", "name": "The Mall at Barnes Crossing", "phone": "662.821.6437", "website": "https://locations.jjill.com/ms/tupelo/718/", "opening_hours": "Mo 10am - 7pm; Tu 10am - 7pm; We 10am - 7pm; Th 10am - 7pm; Fr 10am - 7pm; Sa 10am - 7pm; Su 12:30pm - 6pm", "brand": "J.Jill"}, "geometry": {"type": "Point", "coordinates": [-88.7016667, 34.308443]}},
{"type": "Feature", "id": "g1VZEyzTw1L2DfIwyR9SiZ2hOXc=", "properties": {"ref": "694", "@spider": "jjill", "addr:street": "16836 Birkdale Commons Parkway", "addr:city": "Huntersville", "addr:state": "NC", "addr:postcode": "28078", "addr:country": "US", "name": "Birkdale Village", "phone": "704.897.8832", "website": "https://locations.jjill.com/nc/huntersville/694/", "opening_hours": "Mo 10am - 6pm; Tu 10am - 6pm; We 10am - 6pm; Th 10am - 6pm; Fr 10am - 6pm; Sa 10am - 7pm; Su 12pm - 6pm", "brand": "J.Jill"}, "geometry": {"type": "Point", "coordinates": [-80.8802595, 35.4450883]}},
{"type": "Feature", "id": "URgy-Kza3OJ5LqG0Npj-livcXVk=", "properties": {"ref": "186", "@spider": "jjill", "addr:street": "916 Inspiration Drive", "addr:city": "Wilmington", "addr:state": "NC", "addr:postcode": "28405", "addr:country": "US", "name": "Mayfaire Town Center", "phone": "910.509.9190", "website": "https://locations.jjill.com/nc/wilmington/186/", "opening_hours": "Mo 10am - 6pm; Tu 10am - 6pm; We 10am - 6pm; Th 10am - 7pm; Fr 10am - 7pm; Sa 10am - 7pm; Su 12pm - 6pm", "brand": "J.Jill"}, "geometry": {"type": "Point", "coordinates": [-77.8300934, 34.2420129]}},
{"type": "Feature", "id": "_EwKbAL1_TSqzOEudNYEq2hLqfU=", "properties": {"ref": "255", "@spider": "jjill", "addr:street": "3320 Silas Creek Pkwy.", "addr:city": "Winston Salem", "addr:state": "NC", "addr:postcode": "27103", "addr:country": "US", "name": "Hanes Mall", "phone": "336.760.8963", "website": "https://locations.jjill.com/nc/winston-salem/255/", "opening_hours": "Mo 10am - 6pm; Tu 10am - 6pm; We 10am - 6pm; Th 10am - 6pm; Fr 10am - 6pm; Sa 10am - 6pm; Su 12pm - 6pm", "brand": "J.Jill"}, "geometry": {"type": "Point", "coordinates": [-80.3000694, 36.0703319]}},
{"type": "Feature", "id": "gO092FDpU0NV7ldJuUK4IP97sLA=", "properties": {"ref": "284", "@spider": "jjill", "addr:street": "1000 Highland Colony Parkway", "addr:city": "Ridgeland", "addr:state": "MS", "addr:postcode": "39157", "addr:country": "US", "name": "Renaissance at Colony Park", "phone": "601.605.9881", "website": "https://locations.jjill.com/ms/ridgeland/284/", "opening_hours": "Mo 10am - 6pm; Tu 10am - 6pm; We 10am - 6pm; Th 10am - 6pm; Fr 10am - 6pm; Sa 10am - 6pm; Su 12pm - 6pm", "brand": "J.Jill"}, "geometry": {"type": "Point", "coordinates": [-90.1472341, 32.4360655]}},
{"type": "Feature", "id": "MgERgL-YSvJPmn4D8b2h879QN1Q=", "properties": {"ref": "44", "@spider": "jjill", "addr:street": "4325 Glenwood Ave.", "addr:city": "Raleigh", "addr:state": "NC", "addr:postcode": "27612", "addr:country": "US", "name": "Crabtree Valley Mall", "phone": "919.510.5554", "website": "https://locations.jjill.com/nc/raleigh/44/", "opening_hours": "Mo 10am - 7pm; Tu 10am - 7pm; We 10am - 7pm; Th 10am - 7pm; Fr 10am - 7pm; Sa 10am - 7pm; Su 12pm - 6pm", "brand": "J.Jill"}, "geometry": {"type": "Point", "coordinates": [-78.6785977, 35.838298]}},
{"type": "Feature", "id": "g-WhXPfEJBVjl7YLTc-GStgjA7g=", "properties": {"ref": "58", "@spider": "jjill", "addr:street": "6910 Fayetteville Rd.", "addr:city": "Durham", "addr:state": "NC", "addr:postcode": "27713", "addr:country": "US", "name": "The Streets at Southpoint", "phone": "919.361.2202", "website": "https://locations.jjill.com/nc/durham/58/", "opening_hours": "Mo 11am - 7pm; Tu 11am - 7pm; We 11am - 7pm; Th 11am - 7pm; Fr 11am - 7pm; Sa 11am - 7pm; Su 12pm - 6pm", "brand": "J.Jill"}, "geometry": {"type": "Point", "coordinates": [-78.9439388, 35.9052172]}},
{"type": "Feature", "id": "eYVHGzryPAEICrmwRmKHoZW5mZk=", "properties": {"ref": "320", "@spider": "jjill", "addr:street": "9870 Rea Rd.", "addr:city": "Charlotte", "addr:state": "NC", "addr:postcode": "28277", "addr:country": "US", "name": "The Village Shoppes at Blakeney", "phone": "704.541.0265", "website": "https://locations.jjill.com/nc/charlotte/320/", "opening_hours": "Mo 10am - 6pm; Tu 10am - 6pm; We 10am - 6pm; Th 10am - 7pm; Fr 10am - 7pm; Sa 10am - 7pm; Su 12pm - 5pm", "brand": "J.Jill"}, "geometry": {"type": "Point", "coordinates": [-80.8094956, 35.037261]}},
{"type": "Feature", "id": "RUvq8qnFUIc6sWJ5f7tdIW4fob0=", "properties": {"ref": "42", "@spider": "jjill", "addr:street": "4400 Sharon Rd.", "addr:city": "Charlotte", "addr:state": "NC", "addr:postcode": "28211", "addr:country": "US", "name": "SouthPark", "phone": "704.442.5678", "website": "https://locations.jjill.com/nc/charlotte/42/", "opening_hours": "Mo 11am - 7pm; Tu 11am - 7pm; We 11am - 7pm; Th 11am - 7pm; Fr 10am - 7pm; Sa 10am - 7pm; Su 12pm - 6pm", "brand": "J.Jill"}, "geometry": {"type": "Point", "coordinates": [-80.8318968, 35.1522311]}},
{"type": "Feature", "id": "54baoIydobTa6svFCsUOHipqi48=", "properties": {"ref": "308", "@spider": "jjill", "addr:street": "10 Biltmore Plaza", "addr:city": "Asheville", "addr:state": "NC", "addr:postcode": "28803", "addr:country": "US", "name": "Biltmore Village", "phone": "828.274.7331", "website": "https://locations.jjill.com/nc/asheville/308/", "opening_hours": "Mo 10am - 6pm; Tu 10am - 6pm; We 10am - 6pm; Th 10am - 6pm; Fr 10am - 6pm; Sa 10am - 6pm; Su 12pm - 5pm", "brand": "J.Jill"}, "geometry": {"type": "Point", "coordinates": [-82.542045, 35.5669058]}},
{"type": "Feature", "id": "UkKjvRE0t0Le47VTWOkUHU1IYDo=", "properties": {"ref": "74", "@spider": "jjill", "addr:street": "500 Route 73 South", "addr:city": "Marlton", "addr:state": "NJ", "addr:postcode": "08053", "addr:country": "US", "name": "The Promenade at Sagemore", "phone": "856.797.9500", "website": "https://locations.jjill.com/nj/marlton/74/", "opening_hours": "Mo 10am - 7pm; Tu 10am - 7pm; We 10am - 7pm; Th 10am - 7pm; Fr 10am - 7pm; Sa 10am - 7pm; Su 11am - 6pm", "brand": "J.Jill"}, "geometry": {"type": "Point", "coordinates": [-74.919718, 39.8788271]}},
{"type": "Feature", "id": "CLgwHL9CNrzzGvBaxoC1N9wvpho=", "properties": {"ref": "249", "@spider": "jjill", "addr:street": "3326 Friendly Ave.", "addr:city": "Greensboro", "addr:state": "NC", "addr:postcode": "27410", "addr:country": "US", "name": "Friendly Center", "phone": "336.323.3136", "website": "https://locations.jjill.com/nc/greensboro/249/", "opening_hours": "Mo 10am - 7pm; Tu 10am - 7pm; We 10am - 7pm; Th 10am - 7pm; Fr 10am - 7pm; Sa 10am - 7pm; Su 12pm - 6pm", "brand": "J.Jill"}, "geometry": {"type": "Point", "coordinates": [-79.8372672, 36.0866516]}},
{"type": "Feature", "id": "9l_LoAFXPrI9sD-RhevwjsUksU0=", "properties": {"ref": "215", "@spider": "jjill", "addr:street": "3056 Route 10 West", "addr:city": "Denville", "addr:state": "NJ", "addr:postcode": "07834", "addr:country": "US", "name": "Shoppes at Union Hill", "phone": "973.659.3435", "website": "https://locations.jjill.com/nj/denville/215/", "opening_hours": "Mo 10am - 7pm; Tu 10am - 7pm; We 10am - 7pm; Th 10am - 7pm; Fr 10am - 8pm; Sa 10am - 8pm; Su 11am - 6pm", "brand": "J.Jill"}, "geometry": {"type": "Point", "coordinates": [-74.5063192, 40.8661795]}},
{"type": "Feature", "id": "aA1ZE4LQbZUjMDMx9XyM3SCdIio=", "properties": {"ref": "642", "@spider": "jjill", "addr:street": "150 Quakerbridge Mall", "addr:city": "Lawrence Township", "addr:state": "NJ", "addr:postcode": "08648", "addr:country": "US", "name": "Quaker Bridge Mall", "phone": "609.275.8125", "website": "https://locations.jjill.com/nj/lawrence-township/642/", "opening_hours": "Mo 11am - 7pm; Tu 11am - 7pm; We 11am - 7pm; Th 10am - 7pm; Fr 10am - 7pm; Sa 10am - 7pm; Su 11am - 6pm", "brand": "J.Jill"}, "geometry": {"type": "Point", "coordinates": [-74.6815191, 40.2910878]}},
{"type": "Feature", "id": "7GIVBVWrzgaVKwEnJgWkVNi-fAg=", "properties": {"ref": "171", "@spider": "jjill", "addr:street": "17255 Davenport St.", "addr:city": "Omaha", "addr:state": "NE", "addr:postcode": "68118", "addr:country": "US", "name": "Village Pointe", "phone": "402.289.5546", "website": "https://locations.jjill.com/ne/omaha/171/", "opening_hours": "Mo 10am - 7pm; Tu 10am - 7pm; We 10am - 7pm; Th 10am - 7pm; Fr 10am - 7pm; Sa 10am - 7pm; Su 12pm - 6pm", "brand": "J.Jill"}, "geometry": {"type": "Point", "coordinates": [-96.1842515, 41.2604527]}},
{"type": "Feature", "id": "mJXGvBGl-jkozPVKg99WitKUgwM=", "properties": {"ref": "298", "@spider": "jjill", "addr:street": "957-961 Haddonfield Rd.", "addr:city": "Cherry Hill", "addr:state": "NJ", "addr:postcode": "08002", "addr:country": "US", "name": "Towne Place at Garden State Park", "phone": "856.488.1868", "website": "https://locations.jjill.com/nj/cherry-hill/298/", "opening_hours": "Mo 10am - 7pm; Tu 10am - 7pm; We 10am - 7pm; Th 10am - 7pm; Fr 10am - 7pm; Sa 10am - 7pm; Su 11am - 6pm", "brand": "J.Jill"}, "geometry": {"type": "Point", "coordinates": [-75.0342217, 39.9238472]}},
{"type": "Feature", "id": "Lp-0EkMWFHhGM-GgnKanZh7ANjE=", "properties": {"ref": "652", "@spider": "jjill", "addr:street": "850 Route 3", "addr:city": "Clifton", "addr:state": "NJ", "addr:postcode": "07012", "addr:country": "US", "name": "The Promenade Shops at Clifton", "phone": "973.773.0613", "website": "https://locations.jjill.com/nj/clifton/652/", "opening_hours": "Mo 10am - 7pm; Tu 10am - 7pm; We 10am - 7pm; Th 10am - 7pm; Fr 10am - 8pm; Sa 10am - 8pm; Su 11am - 6pm", "brand": "J.Jill"}, "geometry": {"type": "Point", "coordinates": [-74.1560168, 40.8388544]}},
{"type": "Feature", "id": "8kELoFFcWKwUl1bUhXODPIw5hQg=", "properties": {"ref": "313", "@spider": "jjill", "addr:street": "100 Reaville Ave.", "addr:city": "Flemington", "addr:state": "NJ", "addr:postcode": "08822", "addr:country": "US", "name": "The Shoppes at Flemington", "phone": "908.788.2640", "website": "https://locations.jjill.com/nj/flemington/313/", "opening_hours": "Mo 10am - 7pm; Tu 10am - 7pm; We 10am - 7pm; Th 10am - 7pm; Fr 10am - 7pm; Sa 10am - 6pm; Su 11am - 6pm", "brand": "J.Jill"}, "geometry": {"type": "Point", "coordinates": [-74.8518097, 40.5002422]}},
{"type": "Feature", "id": "1B9p23QAHJcfHFpxzlP8HTss5Pw=", "properties": {"ref": "112", "@spider": "jjill", "addr:street": "400 Commons Way", "addr:city": "Bridgewater", "addr:state": "NJ", "addr:postcode": "08807", "addr:country": "US", "name": "Bridgewater Commons", "phone": "908.707.2022", "website": "https://locations.jjill.com/nj/bridgewater/112/", "opening_hours": "Mo 10am - 8pm; Tu 10am - 8pm; We 10am - 8pm; Th 10am - 8pm; Fr 10am - 8pm; Sa 10am - 8pm; Su 11am - 6pm", "brand": "J.Jill"}, "geometry": {"type": "Point", "coordinates": [-74.6199134, 40.5863872]}},
{"type": "Feature", "id": "stbTFGwlWnLO85nLO7oqDjXYIkY=", "properties": {"ref": "221", "@spider": "jjill", "addr:street": "13925 S. Virginia St.", "addr:city": "Reno", "addr:state": "NV", "addr:postcode": "89511", "addr:country": "US", "name": "The Summit Reno", "phone": "775.852.9991", "website": "https://locations.jjill.com/nv/reno/221/", "opening_hours": "Mo 10am - 7pm; Tu 10am - 7pm; We 10am - 7pm; Th 10am - 7pm; Fr 10am - 7pm; Sa 10am - 7pm; Su 11am - 6pm", "brand": "J.Jill"}, "geometry": {"type": "Point", "coordinates": [-119.7499331, 39.4042392]}},
{"type": "Feature", "id": "6KPu0yLHg17bKlgdb4X0m1HB-Ek=", "properties": {"ref": "698", "@spider": "jjill", "addr:street": "55 Parsonage Road", "addr:city": "Edison", "addr:state": "NJ", "addr:postcode": "08837", "addr:country": "US", "name": "Menlo Park Mall", "phone": "732.549.0630", "website": "https://locations.jjill.com/nj/edison/698/", "opening_hours": "Mo 11am - 8pm; Tu 11am - 8pm; We 11am - 8pm; Th 10am - 8pm; Fr 10am - 8pm; Sa 10am - 8pm; Su 11am - 6pm", "brand": "J.Jill"}, "geometry": {"type": "Point", "coordinates": [-74.3348845, 40.5479013]}},
{"type": "Feature", "id": "Y_faEna9ZLlZuzA7s4UC5PcWevQ=", "properties": {"ref": "655", "@spider": "jjill", "addr:street": "2120 Festival Plaza Dr.", "addr:city": "Las Vegas", "addr:state": "NV", "addr:postcode": "89135", "addr:country": "US", "name": "Downtown Summerlin", "phone": "702.685.1701", "website": "https://locations.jjill.com/nv/las-vegas/655/", "opening_hours": "Mo 10am - 8pm; Tu 10am - 8pm; We 10am - 8pm; Th 10am - 8pm; Fr 10am - 9pm; Sa 10am - 9pm; Su 11am - 7pm", "brand": "J.Jill"}, "geometry": {"type": "Point", "coordinates": [-115.3331133, 36.1486981]}},
{"type": "Feature", "id": "HBNPUIwtCduFOb8zE6qOgIKj6Uw=", "properties": {"ref": "414", "@spider": "jjill", "addr:street": "646 Smith Haven Mall", "addr:city": "Lake Grove", "addr:state": "NY", "addr:postcode": "11755", "addr:country": "US", "name": "Smith Haven Mall", "phone": "631.265.0629", "website": "https://locations.jjill.com/ny/lake-grove/414/", "opening_hours": "Mo 11am - 8pm; Tu 11am - 8pm; We 11am - 8pm; Th 10am - 8pm; Fr 10am - 9pm; Sa 10am - 9pm; Su 11am - 7pm", "brand": "J.Jill"}, "geometry": {"type": "Point", "coordinates": [-73.132043, 40.8648265]}},
{"type": "Feature", "id": "Bq0CinqbyvadqUkHhRRbM9qhbHk=", "properties": {"ref": "416", "@spider": "jjill", "addr:street": "630 Old Country Road", "addr:city": "Garden City", "addr:state": "NY", "addr:postcode": "11530", "addr:country": "US", "name": "Roosevelt Field", "phone": "516.408.7802", "website": "https://locations.jjill.com/ny/garden-city/416/", "opening_hours": "Mo 10am - 7pm; Tu 10am - 7pm; We 10am - 7pm; Th 10am - 7pm; Fr 10am - 8pm; Sa 10am - 8pm; Su 11am - 7pm", "brand": "J.Jill"}, "geometry": {"type": "Point", "coordinates": [-73.6142468, 40.7382446]}},
{"type": "Feature", "id": "T1sAE92k63vuMvNG6sIG_K2gL8s=", "properties": {"ref": "41", "@spider": "jjill", "addr:street": "160 Walt Whitman Rd.", "addr:city": "Huntington Station", "addr:state": "NY", "addr:postcode": "11746", "addr:country": "US", "name": "Walt Whitman Shops", "phone": "631.425.9184", "website": "https://locations.jjill.com/ny/huntington-station/41/", "opening_hours": "Mo 10am - 8pm; Tu 10am - 8pm; We 10am - 8pm; Th 10am - 8pm; Fr 10am - 9pm; Sa 10am - 9pm; Su 11am - 7pm", "brand": "J.Jill"}, "geometry": {"type": "Point", "coordinates": [-73.4097335, 40.8227586]}},
{"type": "Feature", "id": "1eBzRm66QKrl2hITtWm1NaoA0Hs=", "properties": {"ref": "706", "@spider": "jjill", "addr:street": "531 Town Dr.", "addr:city": "Fayetteville", "addr:state": "NY", "addr:postcode": "13066", "addr:country": "US", "name": "Towne Center at Fayetteville", "phone": "315.663.2156", "website": "https://locations.jjill.com/ny/fayetteville/706/", "opening_hours": "Mo 10am - 5pm; Tu 10am - 5pm; We 10am - 5pm; Th 10am - 5pm; Fr 10am - 5pm; Sa 10am - 5pm; Su 12pm - 5pm", "brand": "J.Jill"}, "geometry": {"type": "Point", "coordinates": [-76.0177519, 43.0325355]}},
{"type": "Feature", "id": "vCn02tVBXD9_8jbB7Y82sMKyXwE=", "properties": {"ref": "156", "@spider": "jjill", "addr:street": "110 Albany Tpk.", "addr:city": "Canton", "addr:state": "CT", "addr:postcode": "06019", "addr:country": "US", "name": "Shoppes at Farmington Valley", "phone": "860.693.6047", "website": "https://locations.jjill.com/ct/canton/156/", "opening_hours": "Mo 10am - 7pm; Tu 10am - 7pm; We 10am - 7pm; Th 10am - 7pm; Fr 10am - 7pm; Sa 10am - 7pm; Su 10am - 7pm", "brand": "J.Jill"}, "geometry": {"type": "Point", "coordinates": [-72.8842241, 41.8235661]}},
{"type": "Feature", "id": "dQK2_l8paO6xmP75CoKB7uZpGgg=", "properties": {"ref": "708", "@spider": "jjill", "addr:street": "1083 U.S. 9", "addr:city": "Fishkill", "addr:state": "NY", "addr:postcode": "12524", "addr:country": "US", "name": "Lawrence Farms Market Square", "phone": "845.296.7919", "website": "https://locations.jjill.com/ny/fishkill/708/", "opening_hours": "Mo 10am - 6pm; Tu 10am - 6pm; We 10am - 6pm; Th 10am - 6pm; Fr 10am - 6pm; Sa 10am - 6pm; Su 12pm - 6pm", "brand": "J.Jill"}, "geometry": {"type": "Point", "coordinates": [-73.904751, 41.5620818]}},
{"type": "Feature", "id": "MywW-xaRtjt8yy9RnH6wzcb-ep8=", "properties": {"ref": "426", "@spider": "jjill", "addr:street": "1 Crossgates Mall Road", "addr:city": "Albany", "addr:state": "NY", "addr:postcode": "12203", "addr:country": "US", "name": "Crossgates Mall", "phone": "518.690.0420", "website": "https://locations.jjill.com/ny/albany/426/", "opening_hours": "Mo 10am - 6pm; Tu 10am - 6pm; We 10am - 6pm; Th 10am - 6pm; Fr 10am - 6pm; Sa 10am - 6pm; Su 12pm - 6pm", "brand": "J.Jill"}, "geometry": {"type": "Point", "coordinates": [-73.8507415, 42.6894808]}},
{"type": "Feature", "id": "n-B81fBwV_hCgT6UVFbCCSXV_UY=", "properties": {"ref": "61", "@spider": "jjill", "addr:street": "1500 Polaris Pkwy.", "addr:city": "Columbus", "addr:state": "OH", "addr:postcode": "43240", "addr:country": "US", "name": "Polaris Fashion Place", "phone": "614.880.9513", "website": "https://locations.jjill.com/oh/columbus/61/", "opening_hours": "Mo 10am - 7pm; Tu 10am - 7pm; We 10am - 7pm; Th 10am - 7pm; Fr 10am - 7pm; Sa 10am - 7pm; Su 12pm - 6pm", "brand": "J.Jill"}, "geometry": {"type": "Point", "coordinates": [-82.9820576, 40.1456242]}},
{"type": "Feature", "id": "2yWnDaBTZPQzf44V6GQeMOPndnc=", "properties": {"ref": "103", "@spider": "jjill", "addr:street": "4075 The Strand West", "addr:city": "Columbus", "addr:state": "OH", "addr:postcode": "43219", "addr:country": "US", "name": "Easton Town Center", "phone": "614.473.9766", "website": "https://locations.jjill.com/oh/columbus/103/", "opening_hours": "Mo 10am - 7pm; Tu 10am - 7pm; We 10am - 7pm; Th 10am - 7pm; Fr 10am - 7pm; Sa 10am - 7pm; Su 12pm - 6pm", "brand": "J.Jill"}, "geometry": {"type": "Point", "coordinates": [-82.9156649, 40.0525435]}},
{"type": "Feature", "id": "5GA8EBSvBX_uIwkuFvKCf3u91Mo=", "properties": {"ref": "614", "@spider": "jjill", "addr:street": "500 SouthPark Center", "addr:city": "Strongsville", "addr:state": "OH", "addr:postcode": "44136", "addr:country": "US", "name": "SouthPark Mall", "phone": "440.238.1437", "website": "https://locations.jjill.com/oh/strongsville/614/", "opening_hours": "Mo 10am - 8pm; Tu 10am - 8pm; We 10am - 8pm; Th 10am - 8pm; Fr 10am - 8pm; Sa 10am - 8pm; Su 12pm - 6pm", "brand": "J.Jill"}, "geometry": {"type": "Point", "coordinates": [-81.8204051, 41.3088372]}},
{"type": "Feature", "id": "pwzHEa8nKjPLLn6DJfEvh8DqdL4=", "properties": {"ref": "91", "@spider": "jjill", "addr:street": "26300 Cedar Rd.", "addr:city": "Cleveland", "addr:state": "OH", "addr:postcode": "44122", "addr:country": "US", "name": "Beachwood Place", "phone": "216.896.0334", "website": "https://locations.jjill.com/oh/cleveland/91/", "opening_hours": "Mo 11am - 8pm; Tu 11am - 8pm; We 11am - 8pm; Th 11am - 8pm; Fr 11am - 8pm; Sa 11am - 8pm; Su 12pm - 6pm", "brand": "J.Jill"}, "geometry": {"type": "Point", "coordinates": [-81.4941423, 41.498488]}},
{"type": "Feature", "id": "qVKh3NM_2YVGuFDQpb2GlYn-OQs=", "properties": {"ref": "48", "@spider": "jjill", "addr:street": "One Walden Galleria", "addr:city": "Buffalo", "addr:state": "NY", "addr:postcode": "14225", "addr:country": "US", "name": "Walden Galleria", "phone": "716.651.0650", "website": "https://locations.jjill.com/ny/buffalo/48/", "opening_hours": "Mo 10am - 8pm; Tu 10am - 8pm; We 10am - 8pm; Th 10am - 8pm; Fr 10am - 8pm; Sa 10am - 8pm; Su 11am - 6pm", "brand": "J.Jill"}, "geometry": {"type": "Point", "coordinates": [-78.7640174, 42.9141733]}},
{"type": "Feature", "id": "fRPpKcP0hiBjkLNZrAoKkN15laA=", "properties": {"ref": "716", "@spider": "jjill", "addr:street": "112 First St", "addr:city": "Hudson", "addr:state": "OH", "addr:postcode": "44236", "addr:country": "US", "name": "First & Main", "phone": "234.602.2049", "website": "https://locations.jjill.com/oh/hudson/716/", "opening_hours": "Mo 10am - 7pm; Tu 10am - 7pm; We 10am - 7pm; Th 10am - 7pm; Fr 10am - 7pm; Sa 10am - 7pm; Su 12pm - 5pm", "brand": "J.Jill"}, "geometry": {"type": "Point", "coordinates": [-81.4421903, 41.2422039]}},
{"type": "Feature", "id": "WIaSsXsG43iSeNiwJJ4RV_-0hT0=", "properties": {"ref": "162", "@spider": "jjill", "addr:street": "3115 Levis Commons Blvd.", "addr:city": "Perrysburg", "addr:state": "OH", "addr:postcode": "43551", "addr:country": "US", "name": "Town Center at Levis Commons", "phone": "419.872.4300", "website": "https://locations.jjill.com/oh/perrysburg/162/", "opening_hours": "Mo 10am - 8pm; Tu 10am - 8pm; We 10am - 8pm; Th 10am - 8pm; Fr 10am - 8pm; Sa 10am - 8pm; Su 12pm - 6pm", "brand": "J.Jill"}, "geometry": {"type": "Point", "coordinates": [-83.6395801, 41.527439]}},
{"type": "Feature", "id": "WTMVXtTqY3aq9D7arcQiNX2YkAI=", "properties": {"ref": "169", "@spider": "jjill", "addr:street": "10042  NE Emma Way", "addr:city": "Hillsboro", "addr:state": "OR", "addr:postcode": "97124", "addr:country": "US", "name": "The Streets of Tanasbourne", "phone": "503.690.7604", "website": "https://locations.jjill.com/or/hillsboro/169/", "opening_hours": "Mo 10am - 7pm; Tu 10am - 7pm; We 10am - 7pm; Th 10am - 7pm; Fr 10am - 7pm; Sa 10am - 7pm; Su 12pm - 6pm", "brand": "J.Jill"}, "geometry": {"type": "Point", "coordinates": [-122.8780551, 45.5350953]}},
{"type": "Feature", "id": "EeWNTbA7TLlNDPw2hDTVFgUVCuc=", "properties": {"ref": "232", "@spider": "jjill", "addr:street": "51 Plum St.", "addr:city": "Beavercreek", "addr:state": "OH", "addr:postcode": "45440", "addr:country": "US", "name": "The Greene Town Center", "phone": "937.320.9465", "website": "https://locations.jjill.com/oh/beavercreek/232/", "opening_hours": "Mo 10am - 8pm; Tu 10am - 8pm; We 10am - 8pm; Th 10am - 8pm; Fr 10am - 8pm; Sa 10am - 8pm; Su 12pm - 6pm", "brand": "J.Jill"}, "geometry": {"type": "Point", "coordinates": [-84.1016905, 39.6943546]}},
{"type": "Feature", "id": "qq4EgaI7EqAPWmtdfa3kAwg513M=", "properties": {"ref": "77", "@spider": "jjill", "addr:street": "7875 Montgomery Rd.", "addr:city": "Cincinnati", "addr:state": "OH", "addr:postcode": "45236", "addr:country": "US", "name": "Kenwood Towne Centre", "phone": "513.792.0973", "website": "https://locations.jjill.com/oh/cincinnati/77/", "opening_hours": "Mo 10am - 8pm; Tu 10am - 8pm; We 10am - 8pm; Th 10am - 8pm; Fr 10am - 8pm; Sa 10am - 8pm; Su 11am - 7pm", "brand": "J.Jill"}, "geometry": {"type": "Point", "coordinates": [-84.3771116, 39.2025796]}},
{"type": "Feature", "id": "UwYTgsy7ajMNJQ-9eNS2NpcdsG4=", "properties": {"ref": "211", "@spider": "jjill", "addr:street": "520 SW Powerhouse Dr.", "addr:city": "Bend", "addr:state": "OR", "addr:postcode": "97702", "addr:country": "US", "name": "Old Mill District", "phone": "541.617.8849", "website": "https://locations.jjill.com/or/bend/211/", "opening_hours": "Mo 10am - 6pm; Tu 10am - 6pm; We 10am - 6pm; Th 10am - 6pm; Fr 10am - 6pm; Sa 10am - 6pm; Su 11am - 6pm", "brand": "J.Jill"}, "geometry": {"type": "Point", "coordinates": [-121.3149683, 44.0449362]}},
{"type": "Feature", "id": "IU0wD6h-sm52WXaq4ajiU2vcnBU=", "properties": {"ref": "89", "@spider": "jjill", "addr:street": "301 South Hills Village", "addr:city": "Pittsburgh", "addr:state": "PA", "addr:postcode": "15241", "addr:country": "US", "name": "South Hills Village", "phone": "412.851.2090", "website": "https://locations.jjill.com/pa/pittsburgh/89/", "opening_hours": "Mo 11am - 8pm; Tu 11am - 8pm; We 11am - 8pm; Th 11am - 8pm; Fr 10am - 8pm; Sa 10am - 8pm; Su 11am - 6pm", "brand": "J.Jill"}, "geometry": {"type": "Point", "coordinates": [-80.0555936, 40.3422239]}},
{"type": "Feature", "id": "XNg7uNnsOu4Mt3_BytHkBG4RV2o=", "properties": {"ref": "662", "@spider": "jjill", "addr:street": "12000 South East 82 Ave.", "addr:city": "Happy Valley", "addr:state": "OR", "addr:postcode": "97086", "addr:country": "US", "name": "Clackamas Town Center", "phone": "503.786.6032", "website": "https://locations.jjill.com/or/happy-valley/662/", "opening_hours": "Mo 11am - 6pm; Tu 11am - 6pm; We 11am - 6pm; Th 11am - 6pm; Fr 11am - 6pm; Sa 11am - 6pm; Su 11am - 6pm", "brand": "J.Jill"}, "geometry": {"type": "Point", "coordinates": [-122.5789041, 45.4429545]}},
{"type": "Feature", "id": "KHmAB-gVGh75bE5XDnk13wFoQ2Y=", "properties": {"ref": "726", "@spider": "jjill", "addr:street": "5433 Walnut Street", "addr:city": "Pittsburgh", "addr:state": "PA", "addr:postcode": "15232", "addr:country": "US", "name": "Shadyside", "phone": "412.697.7409", "website": "https://locations.jjill.com/pa/pittsburgh/726/", "opening_hours": "Mo 10am - 6pm; Tu 10am - 6pm; We 10am - 6pm; Th 10am - 6pm; Fr 10am - 7pm; Sa 10am - 7pm; Su 12pm - 5pm", "brand": "J.Jill"}, "geometry": {"type": "Point", "coordinates": [-79.9341186, 40.4512018]}},
{"type": "Feature", "id": "vdV5Rvuy_weke6TPccgWiacubB4=", "properties": {"ref": "66", "@spider": "jjill", "addr:street": "1000 Ross Park Mall Dr.", "addr:city": "Pittsburgh", "addr:state": "PA", "addr:postcode": "15237", "addr:country": "US", "name": "Ross Park Mall", "phone": "412.630.9095", "website": "https://locations.jjill.com/pa/pittsburgh/66/", "opening_hours": "Mo 11am - 8pm; Tu 11am - 8pm; We 11am - 8pm; Th 11am - 8pm; Fr 10am - 8pm; Sa 10am - 8pm; Su 11am - 6pm", "brand": "J.Jill"}, "geometry": {"type": "Point", "coordinates": [-80.0078136, 40.5389415]}},
{"type": "Feature", "id": "e3qGSFE7RaWXrVQ4Va-5HF3DRII=", "properties": {"ref": "182", "@spider": "jjill", "addr:street": "293 Valley River Center", "addr:city": "Eugene", "addr:state": "OR", "addr:postcode": "97401", "addr:country": "US", "name": "Valley River Center", "phone": "541-345-5455", "website": "https://locations.jjill.com/or/eugene/182/", "opening_hours": "Mo 10am - 6pm; Tu 10am - 6pm; We 10am - 6pm; Th 10am - 6pm; Fr 10am - 6pm; Sa 10am - 6pm; Su 11am - 7pm", "brand": "J.Jill"}, "geometry": {"type": "Point", "coordinates": [-123.1052297, 44.0680285]}},
{"type": "Feature", "id": "imNlhCHcUjx6lgSzYeDI0BCS4Dk=", "properties": {"ref": "289", "@spider": "jjill", "addr:street": "738 Woodland Rd.", "addr:city": "Wyomissing", "addr:state": "PA", "addr:postcode": "19610", "addr:country": "US", "name": "The Shoppes at Wyomissing", "phone": "610.371.9470", "website": "https://locations.jjill.com/pa/wyomissing/289/", "opening_hours": "Mo 10am - 7pm; Tu 10am - 7pm; We 10am - 7pm; Th 10am - 7pm; Fr 10am - 7pm; Sa 10am - 7pm; Su 11am - 5pm", "brand": "J.Jill"}, "geometry": {"type": "Point", "coordinates": [-75.9654421, 40.3503711]}},
{"type": "Feature", "id": "HJAe3ohSLI33AkMFgptaGZjVtFM=", "properties": {"ref": "663", "@spider": "jjill", "addr:street": "234 Montgomery Mall", "addr:city": "North Wales", "addr:state": "PA", "addr:postcode": "19454", "addr:country": "US", "name": "Montgomery Mall", "phone": "215.393.5455", "website": "https://locations.jjill.com/pa/north-wales/663/", "opening_hours": "Mo 11am - 8pm; Tu 11am - 8pm; We 11am - 8pm; Th 11am - 8pm; Fr 10am - 8pm; Sa 10am - 8pm; Su 12pm - 6pm", "brand": "J.Jill"}, "geometry": {"type": "Point", "coordinates": [-75.2444167, 40.2343356]}},
{"type": "Feature", "id": "cQWF8-nWvP2ls_0i_-HNGtVnwN8=", "properties": {"ref": "93", "@spider": "jjill", "addr:street": "690 Dekalb Pike", "addr:city": "King of Prussia", "addr:state": "PA", "addr:postcode": "19406", "addr:country": "US", "name": "King of Prussia Mall", "phone": "610.337.9060", "website": "https://locations.jjill.com/pa/king-of-prussia/93/", "opening_hours": "Mo 11am - 7pm; Tu 11am - 7pm; We 11am - 7pm; Th 10am - 7pm; Fr 10am - 7pm; Sa 10am - 7pm; Su 11am - 6pm", "brand": "J.Jill"}, "geometry": {"type": "Point", "coordinates": [-75.3877145, 40.0882422]}},
{"type": "Feature", "id": "d63Y9LT1HVDyNhNCMmpcoiyanhM=", "properties": {"ref": "237", "@spider": "jjill", "addr:street": "1501 Main St.", "addr:city": "Warrington", "addr:state": "PA", "addr:postcode": "18976", "addr:country": "US", "name": "The Shops at Valley Square", "phone": "215.491.1922", "website": "https://locations.jjill.com/pa/warrington/237/", "opening_hours": "Mo 10am - 8pm; Tu 10am - 8pm; We 10am - 8pm; Th 10am - 8pm; Fr 10am - 8pm; Sa 10am - 8pm; Su 12pm - 6pm", "brand": "J.Jill"}, "geometry": {"type": "Point", "coordinates": [-75.1362044, 40.2308453]}},
{"type": "Feature", "id": "a0GD_fImU3O3Rz0aMUqFyF_R7I0=", "properties": {"ref": "307", "@spider": "jjill", "addr:street": "461 Park City Center", "addr:city": "Lancaster", "addr:state": "PA", "addr:postcode": "17601", "addr:country": "US", "name": "Park City Center", "phone": "717.481.7610", "website": "https://locations.jjill.com/pa/lancaster/307/", "opening_hours": "Mo 10am - 8pm; Tu 10am - 8pm; We 10am - 8pm; Th 10am - 8pm; Fr 10am - 8pm; Sa 10am - 8pm; Su 11am - 6pm", "brand": "J.Jill"}, "geometry": {"type": "Point", "coordinates": [-76.3400079, 40.0664992]}},
{"type": "Feature", "id": "XM21K3hYA0WRopuwyUE8tSaFXyw=", "properties": {"ref": "239", "@spider": "jjill", "addr:street": "2261 Shoppes Blvd.", "addr:city": "Moosic", "addr:state": "PA", "addr:postcode": "18507", "addr:country": "US", "name": "The Shoppes at Montage", "phone": "570.969.7695", "website": "https://locations.jjill.com/pa/moosic/239/", "opening_hours": "Mo 10am - 7pm; Tu 10am - 7pm; We 10am - 7pm; Th 10am - 7pm; Fr 10am - 7pm; Sa 10am - 7pm; Su 11am - 5pm", "brand": "J.Jill"}, "geometry": {"type": "Point", "coordinates": [-75.6767864, 41.3635281]}},
{"type": "Feature", "id": "A-bu3MS4osjFE-xICkfj2jfyiCA=", "properties": {"ref": "723", "@spider": "jjill", "addr:street": "20418 US-19", "addr:city": "Cranberry Township", "addr:state": "PA", "addr:postcode": "16066", "addr:country": "US", "name": "The Streets of Cranberry", "phone": "878-217-2094", "website": "https://locations.jjill.com/pa/cranberry-township/723/", "opening_hours": "Mo 10am - 7pm; Tu 10am - 7pm; We 10am - 7pm; Th 10am - 7pm; Fr 10am - 7pm; Sa 10am - 7pm; Su 11am - 5pm", "brand": "J.Jill"}, "geometry": {"type": "Point", "coordinates": [-80.101501, 40.6948765]}},
{"type": "Feature", "id": "bFW4evk26xXZgUoTovCvx6JKa9I=", "properties": {"ref": "238", "@spider": "jjill", "addr:street": "2845 Center Valley Parkway", "addr:city": "Center Valley", "addr:state": "PA", "addr:postcode": "18034", "addr:country": "US", "name": "The Promenade Shops at Saucon Valley", "phone": "610.798.9754", "website": "https://locations.jjill.com/pa/center-valley/238/", "opening_hours": "Mo 10am - 8pm; Tu 10am - 8pm; We 10am - 8pm; Th 10am - 8pm; Fr 10am - 8pm; Sa 10am - 8pm; Su 12pm - 6pm", "brand": "J.Jill"}, "geometry": {"type": "Point", "coordinates": [-75.4107561, 40.5604908]}},
{"type": "Feature", "id": "R0FXZXDm9jxtIOovOoXLiHvoS2c=", "properties": {"ref": "674", "@spider": "jjill", "addr:street": "921 Baltimore Pike", "addr:city": "Glen Mills", "addr:state": "PA", "addr:postcode": "19342", "addr:country": "US", "name": "The Shoppes at Brinton Lake", "phone": "610.358.1454", "website": "https://locations.jjill.com/pa/glen-mills/674/", "opening_hours": "Mo 10am - 7pm; Tu 10am - 7pm; We 10am - 7pm; Th 10am - 8pm; Fr 10am - 8pm; Sa 10am - 7pm; Su 12pm - 6pm", "brand": "J.Jill"}, "geometry": {"type": "Point", "coordinates": [-75.5320144, 39.885938]}},
{"type": "Feature", "id": "lHxjX-aQzOzX_S3wg_H-gYyFbcg=", "properties": {"ref": "166", "@spider": "jjill", "addr:street": "2565 Brindle Rd.", "addr:city": "Harrisburg", "addr:state": "PA", "addr:postcode": "17110", "addr:country": "US", "name": "The Shoppes at Susquehanna Marketplace", "phone": "717.540.3855", "website": "https://locations.jjill.com/pa/harrisburg/166/", "opening_hours": "Mo 10am - 8pm; Tu 10am - 8pm; We 10am - 8pm; Th 10am - 8pm; Fr 10am - 8pm; Sa 10am - 8pm; Su 12pm - 5pm", "brand": "J.Jill"}, "geometry": {"type": "Point", "coordinates": [-76.8442349, 40.3026454]}},
{"type": "Feature", "id": "V3R2eyR9gLtN5aHHodMkWuIpy5M=", "properties": {"ref": "138", "@spider": "jjill", "addr:street": "78 Hillside Road", "addr:city": "Cranston", "addr:state": "RI", "addr:postcode": "02920", "addr:country": "US", "name": "Garden City Center", "phone": "401.943.5433", "website": "https://locations.jjill.com/ri/cranston/138/", "opening_hours": "Mo 10am - 8pm; Tu 10am - 8pm; We 10am - 8pm; Th 10am - 8pm; Fr 10am - 8pm; Sa 10am - 8pm; Su 11am - 6pm", "brand": "J.Jill"}, "geometry": {"type": "Point", "coordinates": [-71.4578426, 41.7622772]}},
{"type": "Feature", "id": "lnVLM1yPzFDyV1V1u_el05DCBvo=", "properties": {"ref": "702", "@spider": "jjill", "addr:street": "100 Columbiana Circle", "addr:city": "Columbia", "addr:state": "SC", "addr:postcode": "29212", "addr:country": "US", "name": "Columbiana Centre", "phone": "803.227.2036", "website": "https://locations.jjill.com/sc/columbia/702/", "opening_hours": "Mo 11am - 7pm; Tu 11am - 6pm; We 11am - 7pm; Th 11am - 7pm; Fr 11am - 7pm; Sa 11am - 7pm; Su 12pm - 6pm", "brand": "J.Jill"}, "geometry": {"type": "Point", "coordinates": [-81.1564883, 34.077884]}}]}