{"type":"FeatureCollection","features":[{"type": "Feature", "id": "Sa2EjmIcdoxWkIgtsBiInZu7x8g=", "properties": {"ref": "3823992", "@spider": "keke", "addr:full": "2209 East Semoran Boulevard", "addr:city": "Apopka", "addr:state": "FL", "addr:postcode": "32703", "addr:country": "US", "name": "Keke's Breakfast Cafe - Apopka", "phone": "407-703-9100", "brand": "Keke's Breakfast Cafe"}, "geometry": {"type": "Point", "coordinates": [-81.470067, 28.673842]}},
{"type": "Feature", "id": "C6gqcBiO8oCiGS9za4H1obv8sk8=", "properties": {"ref": "9474844", "@spider": "keke", "addr:full": "1385 West Palmetto Park Road", "addr:city": "Boca Raton", "addr:state": "FL", "addr:postcode": "33486", "addr:country": "US", "name": "Keke's Breakfast Cafe - Boca Raton", "phone": "561-617-7292", "brand": "Keke's Breakfast Cafe"}, "geometry": {"type": "Point", "coordinates": [-80.113599, 26.353306]}},
{"type": "Feature", "id": "vos8rnJFcfHes00iDvd1FPirklc=", "properties": {"ref": "3823979", "@spider": "keke", "addr:full": "2218 N Congress Ave", "addr:city": "Boynton Beach", "addr:state": "FL", "addr:postcode": "33426", "addr:country": "US", "name": "Keke's Breakfast Cafe - Boynton Beach", "phone": "561-877-6970", "brand": "Keke's Breakfast Cafe"}, "geometry": {"type": "Point", "coordinates": [-80.088981, 26.54727]}},
{"type": "Feature", "id": "nNl2TQeTFLeHanNauHIzysEQKbI=", "properties": {"ref": "21358940", "@spider": "keke", "addr:full": "1590 W. Brandon Boulevard", "addr:city": "Brandon", "addr:state": "FL", "addr:postcode": "33511", "addr:country": "US", "name": "Keke's Breakfast Cafe - Brandon", "phone": "813-655-0565", "brand": "Keke's Breakfast Cafe"}, "geometry": {"type": "Point", "coordinates": [-82.30997, 27.938891]}},
{"type": "Feature", "id": "1igLapL9HCIGYJHQv8JNHpuZccY=", "properties": {"ref": "29577316", "@spider": "keke", "addr:full": "13168 Cortez Boulevard", "addr:city": "Brooksville", "addr:state": "FL", "addr:postcode": "34613", "addr:country": "US", "name": "Keke's Breakfast Cafe - Brooksville", "phone": "352-652-5353", "brand": "Keke's Breakfast Cafe"}, "geometry": {"type": "Point", "coordinates": [-82.50879, 28.532269]}},
{"type": "Feature", "id": "R1NDSPp0-CHvFmNjVsBZ7fLTgSA=", "properties": {"ref": "3823990", "@spider": "keke", "addr:full": "4062 Plaza Blvd", "addr:housenumber": "Suite 10", "addr:city": "Gainesville", "addr:state": "FL", "addr:postcode": "32608", "addr:country": "US", "name": "Keke's Breakfast Cafe - Butler North", "phone": "352-745-7575", "brand": "Keke's Breakfast Cafe"}, "geometry": {"type": "Point", "coordinates": [-82.385336, 29.626959]}},
{"type": "Feature", "id": "x0X_6LfTETsS-AkrPtXlqE2tLI0=", "properties": {"ref": "15570499", "@spider": "keke", "addr:full": "1847 NE Pine Island Road", "addr:housenumber": "#610", "addr:city": "Cape Coral", "addr:state": "FL", "addr:postcode": "33909", "addr:country": "US", "name": "Keke's Breakfast Cafe - Cape Coral", "phone": "239-242-0300", "brand": "Keke's Breakfast Cafe"}, "geometry": {"type": "Point", "coordinates": [-81.934327, 26.672637]}},
{"type": "Feature", "id": "EDgpOFS6MNLo7gIGN4LIl4FMY_0=", "properties": {"ref": "3823975", "@spider": "keke", "addr:full": "13121 N. Dale Mabry Hwy", "addr:city": "Tampa", "addr:state": "FL", "addr:postcode": "33618", "addr:country": "US", "name": "Keke's Breakfast Cafe - Carrollwood", "phone": "813-968-0005", "brand": "Keke's Breakfast Cafe"}, "geometry": {"type": "Point", "coordinates": [-82.50384, 28.066906]}},
{"type": "Feature", "id": "YVZa7l_j4MOkx8BkzYDBaJneuMI=", "properties": {"ref": "3823983", "@spider": "keke", "addr:full": "431 S Chickasaw Trail", "addr:city": "Orlando", "addr:state": "FL", "addr:postcode": "32825", "addr:country": "US", "name": "Keke's Breakfast Cafe - Chickasaw", "phone": "407-413-5107", "brand": "Keke's Breakfast Cafe"}, "geometry": {"type": "Point", "coordinates": [-81.274035, 28.536759]}},
{"type": "Feature", "id": "RXSypXXIqVY37bBA2zizLjxYxXQ=", "properties": {"ref": "3823984", "@spider": "keke", "addr:full": "12883 Citrus Plaza Drive", "addr:city": "Tampa", "addr:state": "FL", "addr:postcode": "33625", "addr:country": "US", "name": "Keke's Breakfast Cafe - Citrus Park", "phone": "813-616-8108", "brand": "Keke's Breakfast Cafe"}, "geometry": {"type": "Point", "coordinates": [-82.572314, 28.064529]}},
{"type": "Feature", "id": "JsuyodcyE_E38WgOHOuRtLw63B4=", "properties": {"ref": "3823989", "@spider": "keke", "addr:full": "3456 Clark Road", "addr:city": "Sarasota", "addr:state": "FL", "addr:postcode": "34231", "addr:country": "US", "name": "Keke's Breakfast Cafe - Clark Road - Siesta Key", "phone": "941-444-9487", "brand": "Keke's Breakfast Cafe"}, "geometry": {"type": "Point", "coordinates": [-82.500394, 27.267873]}},
{"type": "Feature", "id": "E5ovRM9TxB2JBeFuH_4sppzXpbQ=", "properties": {"ref": "3823970", "@spider": "keke", "addr:full": "2435 South Highway 27", "addr:city": "Clermont", "addr:state": "FL", "addr:postcode": "34711", "addr:country": "US", "name": "Keke's Breakfast Cafe - Clermont", "phone": "352-394-0956", "brand": "Keke's Breakfast Cafe"}, "geometry": {"type": "Point", "coordinates": [-81.734948, 28.536439]}},
{"type": "Feature", "id": "w4PskSjtrHb5jnzdSITX0WXIe78=", "properties": {"ref": "3823980", "@spider": "keke", "addr:full": "4430 Curry Ford Road", "addr:city": "Orlando", "addr:state": "FL", "addr:postcode": "32812", "addr:country": "US", "name": "Keke's Breakfast Cafe - Conway", "phone": "407-720-3686", "brand": "Keke's Breakfast Cafe"}, "geometry": {"type": "Point", "coordinates": [-81.329036, 28.521966]}},
{"type": "Feature", "id": "V5WPNNAIJG3ymYOPuTJK4p2eTWg=", "properties": {"ref": "3823988", "@spider": "keke", "addr:full": "1121 Cortez Road West", "addr:city": "Bradenton", "addr:state": "FL", "addr:postcode": "34207", "addr:country": "US", "name": "Keke's Breakfast Cafe - Cortez", "phone": "941-345-4463", "brand": "Keke's Breakfast Cafe"}, "geometry": {"type": "Point", "coordinates": [-82.572686, 27.461327]}},
{"type": "Feature", "id": "WHw_hxpN19Rot9z3Tf5bVI0uLAk=", "properties": {"ref": "20499851", "@spider": "keke", "addr:full": "2345 South Woodland Blvd", "addr:city": "DeLand", "addr:state": "FL", "addr:postcode": "32720", "addr:country": "US", "name": "Keke's Breakfast Cafe - DeLand", "phone": "386-507-2259", "brand": "Keke's Breakfast Cafe"}, "geometry": {"type": "Point", "coordinates": [-81.298645, 28.987396]}},
{"type": "Feature", "id": "7u12wRDOJyu2grv0W4rnOj_l6LI=", "properties": {"ref": "3823971", "@spider": "keke", "addr:full": "7512 Doctor Phillips Boulevard", "addr:housenumber": "Suite 100", "addr:city": "Orlando", "addr:state": "FL", "addr:postcode": "32819", "addr:country": "US", "name": "Keke's Breakfast Cafe - Doctor Phillips", "phone": "407-354-1440", "brand": "Keke's Breakfast Cafe"}, "geometry": {"type": "Point", "coordinates": [-81.489992, 28.454434]}},
{"type": "Feature", "id": "i4WskQtJ2P5AkOUa8BTfCLhs40M=", "properties": {"ref": "19484154", "@spider": "keke", "addr:full": "450 Durbin Pavilion Dr.", "addr:housenumber": "Ste E106", "addr:city": "St. Johns", "addr:state": "FL", "addr:postcode": "32259", "addr:country": "US", "name": "Keke's Breakfast Cafe - Durbin Park", "phone": "904-547-2284", "brand": "Keke's Breakfast Cafe"}, "geometry": {"type": "Point", "coordinates": [-81.521915, 30.098793]}},
{"type": "Feature", "id": "CTA57Ot6Bb0qpxLGHr4vp7w1YjU=", "properties": {"ref": "19974643", "@spider": "keke", "addr:full": "6891 Daniels Parkway", "addr:housenumber": "Suite 155", "addr:city": "Fort Myers", "addr:state": "FL", "addr:postcode": "33912", "addr:country": "US", "name": "Keke's Breakfast Cafe - Fort Myers-Daniels Parkway", "phone": "239-225-2249", "brand": "Keke's Breakfast Cafe"}, "geometry": {"type": "Point", "coordinates": [-81.840833, 26.547893]}},
{"type": "Feature", "id": "JYUJ9v05M1fzY78UGeBrKSNf4a4=", "properties": {"ref": "21119995", "@spider": "keke", "addr:full": "7949 Dani Drive", "addr:housenumber": "Unit 100", "addr:city": "Fort Myers", "addr:state": "FL", "addr:postcode": "33966", "addr:country": "US", "name": "Keke's Breakfast Cafe - Fort Myers-Six Mile Cypress", "phone": "239-226-9500", "brand": "Keke's Breakfast Cafe"}, "geometry": {"type": "Point", "coordinates": [-81.810453, 26.603723]}},
{"type": "Feature", "id": "vtL19ZZ_ViCtClsjZpDc7q602yA=", "properties": {"ref": "3823969", "@spider": "keke", "addr:full": "4000Town Center Boulevard", "addr:city": "Orlando", "addr:state": "FL", "addr:postcode": "32837", "addr:country": "US", "name": "Keke's Breakfast Cafe - Hunter's Creek", "phone": "407-857-1404", "brand": "Keke's Breakfast Cafe"}, "geometry": {"type": "Point", "coordinates": [-81.425156, 28.363185]}},
{"type": "Feature", "id": "YLrwKFx_QKgs5PfEhBLIOyeWXeo=", "properties": {"ref": "17894112", "@spider": "keke", "addr:full": "4906 Town Center Parkway", "addr:housenumber": "Suite 104", "addr:city": "Jacksonville", "addr:state": "FL", "addr:postcode": "32246", "addr:country": "US", "name": "Keke's Breakfast Cafe - Jacksonville-Strand", "phone": "904-367-2929", "brand": "Keke's Breakfast Cafe"}, "geometry": {"type": "Point", "coordinates": [-81.532905, 30.256457]}},
{"type": "Feature", "id": "FfuN4C-5kGRsrchs25FTd4rXA-U=", "properties": {"ref": "3823998", "@spider": "keke", "addr:full": "1924 North John Young Parkway", "addr:city": "Kissimmee", "addr:state": "FL", "addr:postcode": "34741", "addr:country": "US", "name": "Keke's Breakfast Cafe - Kissimmee", "phone": "407-483-7140", "brand": "Keke's Breakfast Cafe"}, "geometry": {"type": "Point", "coordinates": [-81.417987, 28.30935]}},
{"type": "Feature", "id": "XcHECgAc12d0s_wpZ2D1C4H4cAI=", "properties": {"ref": "3823978", "@spider": "keke", "addr:full": "498 N. HWY 27/441", "addr:city": "Lady Lake", "addr:state": "FL", "addr:postcode": "32159", "addr:country": "US", "name": "Keke's Breakfast Cafe - Lady Lake", "phone": "352-801-3996", "brand": "Keke's Breakfast Cafe"}, "geometry": {"type": "Point", "coordinates": [-81.932467, 28.930224]}},
{"type": "Feature", "id": "aGpT8qw_NYy1MPHE-cV7bGyAohU=", "properties": {"ref": "3823986", "@spider": "keke", "addr:full": "4225 W. Lake Mary Blvd", "addr:city": "Lake Mary", "addr:state": "FL", "addr:postcode": "32746", "addr:country": "US", "name": "Keke's Breakfast Cafe - Lake Mary", "phone": "407-878-4168", "brand": "Keke's Breakfast Cafe"}, "geometry": {"type": "Point", "coordinates": [-81.350629, 28.754424]}},
{"type": "Feature", "id": "3NS7YFSD96s1QbbX96hf2CnRQZ8=", "properties": {"ref": "3823994", "@spider": "keke", "addr:full": "9723 Eagle Creek Center Boulevard", "addr:city": "Orlando", "addr:state": "FL", "addr:postcode": "32832", "addr:country": "US", "name": "Keke's Breakfast Cafe - Lake Nona", "phone": "407-751-7440", "brand": "Keke's Breakfast Cafe"}, "geometry": {"type": "Point", "coordinates": [-81.242714, 28.364056]}},
{"type": "Feature", "id": "rvIzZ_9fEZPpZsHWfjVe0kxUYpc=", "properties": {"ref": "19242551", "@spider": "keke", "addr:full": "11633 State Road 70 East", "addr:city": "Bradenton", "addr:state": "FL", "addr:postcode": "34202", "addr:country": "US", "name": "Keke's Breakfast Cafe - Lakewood Ranch", "phone": "941-739-6555", "brand": "Keke's Breakfast Cafe"}, "geometry": {"type": "Point", "coordinates": [-82.425444, 27.434389]}},
{"type": "Feature", "id": "bCySHceJLGeM6OlxfQ3tHytk1aQ=", "properties": {"ref": "3823993", "@spider": "keke", "addr:full": "10500 Ulmerton Road", "addr:housenumber": "Suite 760", "addr:city": "Largo", "addr:state": "FL", "addr:postcode": "33771", "addr:country": "US", "name": "Keke's Breakfast Cafe - Largo", "phone": "727-470-9344", "brand": "Keke's Breakfast Cafe"}, "geometry": {"type": "Point", "coordinates": [-82.781238, 27.892992]}},
{"type": "Feature", "id": "ctx5mS33pLTlXcNctfR-YTUGsnQ=", "properties": {"ref": "3823968", "@spider": "keke", "addr:full": "1032 Montgomery Road", "addr:city": "Altamonte Springs", "addr:state": "FL", "addr:postcode": "32714", "addr:country": "US", "name": "Keke's Breakfast Cafe - Longwood", "phone": "407-951-7770", "brand": "Keke's Breakfast Cafe"}, "geometry": {"type": "Point", "coordinates": [-81.403723, 28.684929]}},
{"type": "Feature", "id": "rp5FdgRiUYjwRzKPXgRR6ynGvwA=", "properties": {"ref": "14441221", "@spider": "keke", "addr:full": "22952 State Road 54", "addr:housenumber": "Suite 510", "addr:city": "Lutz", "addr:state": "FL", "addr:postcode": "33549", "addr:country": "US", "name": "Keke's Breakfast Cafe - Lutz", "phone": "813-345-8495", "brand": "Keke's Breakfast Cafe"}, "geometry": {"type": "Point", "coordinates": [-82.435885, 28.184058]}},
{"type": "Feature", "id": "wZWpHj6dXKAdRpV6pstChc7ZUN0=", "properties": {"ref": "3823985", "@spider": "keke", "addr:full": "2433 South Hiawassee Rd", "addr:housenumber": "Suite 130", "addr:city": "Orlando", "addr:state": "FL", "addr:postcode": "32835", "addr:country": "US", "name": "Keke's Breakfast Cafe - MetroWest", "phone": "407-298-3684", "brand": "Keke's Breakfast Cafe"}, "geometry": {"type": "Point", "coordinates": [-81.483277, 28.515314]}},
{"type": "Feature", "id": "i20ejien1NJVi7YY6O4dnRE5cJ8=", "properties": {"ref": "3823965", "@spider": "keke", "addr:full": "4192 Conroy Road", "addr:housenumber": "Suite 100", "addr:city": "Orlando", "addr:state": "FL", "addr:postcode": "32839", "addr:country": "US", "name": "Keke's Breakfast Cafe - Millenia", "phone": "407-226-1400", "brand": "Keke's Breakfast Cafe"}, "geometry": {"type": "Point", "coordinates": [-81.429593, 28.488556]}},
{"type": "Feature", "id": "3xtF-ZJKQ4Ald-01bcmB7eRFaWg=", "properties": {"ref": "18435055", "@spider": "keke", "addr:full": "2427 SW 27th Avenue", "addr:city": "Ocala", "addr:state": "FL", "addr:postcode": "34471", "addr:country": "US", "name": "Keke's Breakfast Cafe - Ocala", "phone": "352-456-7837", "brand": "Keke's Breakfast Cafe"}, "geometry": {"type": "Point", "coordinates": [-82.16639, 29.164314]}},
{"type": "Feature", "id": "it1p1nyapyUUn9CAllsFPcypTpw=", "properties": {"ref": "3823977", "@spider": "keke", "addr:full": "282 Moore Road", "addr:city": "Ocoee", "addr:state": "FL", "addr:postcode": "34761", "addr:country": "US", "name": "Keke's Breakfast Cafe - Ocoee", "phone": "407-395-9521", "brand": "Keke's Breakfast Cafe"}, "geometry": {"type": "Point", "coordinates": [-81.53994, 28.530453]}},
{"type": "Feature", "id": "iFREpUTspwNFz-2WioSi4OvJRXk=", "properties": {"ref": "3823981", "@spider": "keke", "addr:full": "3235 Port St. Lucie Boulevard", "addr:housenumber": "Unit 103", "addr:city": "Port St. Lucie", "addr:state": "FL", "addr:postcode": "34953", "addr:country": "US", "name": "Keke's Breakfast Cafe - Port St. Lucie", "phone": "772-224-2705", "brand": "Keke's Breakfast Cafe"}, "geometry": {"type": "Point", "coordinates": [-80.3745, 27.247869]}},
{"type": "Feature", "id": "jFqug9knIdU1ieIsnWZ2qFS_jdM=", "properties": {"ref": "3823991", "@spider": "keke", "addr:full": "1401 WP Ball Boulevard", "addr:city": "Sanford", "addr:state": "FL", "addr:postcode": "32771", "addr:country": "US", "name": "Keke's Breakfast Cafe - Sanford", "phone": "407-732-4170", "brand": "Keke's Breakfast Cafe"}, "geometry": {"type": "Point", "coordinates": [-81.335614, 28.799684]}},
{"type": "Feature", "id": "0CFFr0oPSX5AdvRaFE3n7wp1LTM=", "properties": {"ref": "3823976", "@spider": "keke", "addr:full": "3615 South Florida Avenue", "addr:housenumber": "Suite 110", "addr:city": "Lakeland", "addr:state": "FL", "addr:postcode": "33803", "addr:country": "US", "name": "Keke's Breakfast Cafe - South Lakeland", "phone": "863-937-9666", "brand": "Keke's Breakfast Cafe"}, "geometry": {"type": "Point", "coordinates": [-81.960495, 27.997047]}},
{"type": "Feature", "id": "sLDNEpXhXEz3b2VgxZb2lCe5158=", "properties": {"ref": "20806630", "@spider": "keke", "addr:full": "6862\u00a0Gulfport Boulevard South", "addr:city": "South Pasadena", "addr:state": "FL", "addr:postcode": "33707", "addr:country": "US", "name": "Keke's Breakfast Cafe - South Pasadena", "phone": "727-954-4478", "brand": "Keke's Breakfast Cafe"}, "geometry": {"type": "Point", "coordinates": [-82.734852, 27.757569]}},
{"type": "Feature", "id": "rAEHeCqZ-IKBFRtJzHhvCxHAi28=", "properties": {"ref": "3823997", "@spider": "keke", "addr:full": "1203 South Dale Mabry Highway", "addr:city": "Tampa", "addr:state": "FL", "addr:postcode": "33629", "addr:country": "US", "name": "Keke's Breakfast Cafe - South Tampa", "phone": "813-442-4262", "brand": "Keke's Breakfast Cafe"}, "geometry": {"type": "Point", "coordinates": [-82.507163, 27.931614]}},
{"type": "Feature", "id": "0p3_W0nRWmrmvdLDK6PxbmenpjM=", "properties": {"ref": "3823996", "@spider": "keke", "addr:full": "135 Jenkins Street", "addr:housenumber": "Unit 106", "addr:city": "St. Augustine", "addr:state": "FL", "addr:postcode": "32086", "addr:country": "US", "name": "Keke's Breakfast Cafe - St. Augustine", "phone": "904-429-9144", "brand": "Keke's Breakfast Cafe"}, "geometry": {"type": "Point", "coordinates": [-81.328836, 29.86604]}},
{"type": "Feature", "id": "gAQNjIbqBh_OdH9Ct3Xyr87fKGo=", "properties": {"ref": "18012986", "@spider": "keke", "addr:full": "13614 Bruce B Downs Boulevard", "addr:city": "Tampa", "addr:state": "FL", "addr:postcode": "33613", "addr:country": "US", "name": "Keke's Breakfast Cafe - Temple Terrace", "phone": "813-631-1000 ", "brand": "Keke's Breakfast Cafe"}, "geometry": {"type": "Point", "coordinates": [-82.426832, 28.071445]}},
{"type": "Feature", "id": "7MChq3PPk9mLIFrrlxf_x-J86eM=", "properties": {"ref": "3823982", "@spider": "keke", "addr:full": "4250 Alafaya Trail", "addr:housenumber": "Suite 100", "addr:city": "Oviedo", "addr:state": "FL", "addr:postcode": "32765", "addr:country": "US", "name": "Keke's Breakfast Cafe - UCF", "phone": "407-542-1400", "brand": "Keke's Breakfast Cafe"}, "geometry": {"type": "Point", "coordinates": [-81.20647, 28.613927]}},
{"type": "Feature", "id": "CCwQH0Vd_1xpyqb8EMFnfUj3IDk=", "properties": {"ref": "3823987", "@spider": "keke", "addr:full": "5405 University Parkway", "addr:housenumber": "Unit 104", "addr:city": "University Park", "addr:state": "FL", "addr:postcode": "34201", "addr:country": "US", "name": "Keke's Breakfast Cafe - University Town Center", "phone": "941-388-8953", "brand": "Keke's Breakfast Cafe"}, "geometry": {"type": "Point", "coordinates": [-82.462903, 27.389736]}},
{"type": "Feature", "id": "VlRIzqD-yeTmVx6FtQH8VGid8cw=", "properties": {"ref": "3823967", "@spider": "keke", "addr:full": "504 North Alafaya Trail", "addr:city": "Orlando", "addr:state": "FL", "addr:postcode": "32828", "addr:country": "US", "name": "Keke's Breakfast Cafe - Waterford Lakes", "phone": "407-559-1400", "brand": "Keke's Breakfast Cafe"}, "geometry": {"type": "Point", "coordinates": [-81.207602, 28.5537]}},
{"type": "Feature", "id": "MK2uFrtBsfk-CnD8gD76Cpk-NiA=", "properties": {"ref": "3823974", "@spider": "keke", "addr:full": "10120 Forest Hill Boulevard", "addr:housenumber": "Suite 190", "addr:city": "Wellington", "addr:state": "FL", "addr:postcode": "33414", "addr:country": "US", "name": "Keke's Breakfast Cafe - Wellington", "phone": "561-444-2075", "brand": "Keke's Breakfast Cafe"}, "geometry": {"type": "Point", "coordinates": [-80.205352, 26.649118]}},
{"type": "Feature", "id": "V_CqFjtpP3qQVGHciookUCaOsU0=", "properties": {"ref": "28249573", "@spider": "keke", "addr:full": "1830 Bruce B Downs Boulevard", "addr:city": "Wesley Chapel", "addr:state": "FL", "addr:postcode": "33543", "addr:country": "US", "name": "Keke's Breakfast Cafe - Wesley Chapel", "phone": "813-528-8108", "brand": "Keke's Breakfast Cafe"}, "geometry": {"type": "Point", "coordinates": [-82.350941, 28.184023]}},
{"type": "Feature", "id": "WrSAMXePQmpauMfw8Hj137aWGeY=", "properties": {"ref": "3823972", "@spider": "keke", "addr:full": "1523 West New Haven Avenue", "addr:city": "West Melbourne", "addr:state": "FL", "addr:postcode": "32904", "addr:country": "US", "name": "Keke's Breakfast Cafe - West Melbourne", "phone": "321-254-5353", "brand": "Keke's Breakfast Cafe"}, "geometry": {"type": "Point", "coordinates": [-80.646075, 28.077798]}},
{"type": "Feature", "id": "v0ld_c0NM45PxJ2WCW-yOw_0oP0=", "properties": {"ref": "18316224", "@spider": "keke", "addr:full": "1861 West Tennessee Street", "addr:city": "Tallahassee", "addr:state": "FL", "addr:postcode": "32304", "addr:country": "US", "name": "Keke's Breakfast Cafe - West Tennessee Street", "phone": "850-270-9564", "brand": "Keke's Breakfast Cafe"}, "geometry": {"type": "Point", "coordinates": [-84.314354, 30.447883]}},
{"type": "Feature", "id": "IzS6jG6X6bZe4N-z-XMUAxNzahI=", "properties": {"ref": "3823999", "@spider": "keke", "addr:full": "6526 Old Brick Road", "addr:housenumber": "Suite 130", "addr:city": "Windermere", "addr:state": "FL", "addr:postcode": "34786", "addr:country": "US", "name": "Keke's Breakfast Cafe - Windermere", "phone": "407-612-5800", "brand": "Keke's Breakfast Cafe"}, "geometry": {"type": "Point", "coordinates": [-81.563522, 28.449998]}},
{"type": "Feature", "id": "6xB45J_7uqdn1T6D0dxDLZR45dw=", "properties": {"ref": "3823966", "@spider": "keke", "addr:full": "345 West Fairbanks Avenue", "addr:city": "Winter Park", "addr:state": "FL", "addr:postcode": "32789", "addr:country": "US", "name": "Keke's Breakfast Cafe - Winter Park", "phone": "407-629-1400", "brand": "Keke's Breakfast Cafe"}, "geometry": {"type": "Point", "coordinates": [-81.353486, 28.593423]}},
{"type": "Feature", "id": "mn7oNM407I8BGVbDohlc-LMtZmU=", "properties": {"ref": "3823973", "@spider": "keke", "addr:full": "1005 Spring Villas Point", "addr:city": "Winter Springs", "addr:state": "FL", "addr:postcode": "32708", "addr:country": "US", "name": "Keke's Breakfast Cafe - Winter Springs", "phone": "407-696-1400", "brand": "Keke's Breakfast Cafe"}, "geometry": {"type": "Point", "coordinates": [-81.273957, 28.647054]}}]}