{"type":"FeatureCollection","features":[{"type": "Feature", "id": "X6KfySaZBwd35yPz2vwvCjkDvxE=", "properties": {"ref": "explore-our-hospital", "facility_type": "Hospital", "@spider": "kindred_healthcare", "addr:full": "4555 South Manhattan Avenue", "addr:city": "Tampa", "addr:state": "FL", "addr:postcode": "33611", "addr:country": "US", "name": "Kindred Hospital Bay Area - Tampa", "phone": "+1 813-839-6341", "website": "https://www.kindredhealthcare.com/locations/ltac/kindred-hospital-bay-area-tampa/explore-our-hospital/schedule-a-tour", "brand": "Kindred Healthcare"}, "geometry": {"type": "Point", "coordinates": [-82.5190499, 27.898031]}},
{"type": "Feature", "id": "GLw-Q2bsaDH-74DwvyqWkQCChCY=", "properties": {"ref": "patient-experience", "facility_type": "Hospital", "@spider": "kindred_healthcare", "addr:full": "4555 South Manhattan Avenue", "addr:city": "Tampa", "addr:state": "FL", "addr:postcode": "33611", "addr:country": "US", "name": "Kindred Hospital Bay Area - Tampa", "phone": "+1 813-839-6341", "website": "https://www.kindredhealthcare.com/locations/ltac/kindred-hospital-bay-area-tampa/patient-experience/transparency-in-health-care", "brand": "Kindred Healthcare"}, "geometry": {"type": "Point", "coordinates": [-82.5190499, 27.898031]}},
{"type": "Feature", "id": "skNH1MVQ4AWJpmqV-R2GIHv9OTU=", "properties": {"ref": "ltac", "facility_type": "Hospital", "@spider": "kindred_healthcare", "addr:full": "4555 South Manhattan Avenue", "addr:city": "Tampa", "addr:state": "FL", "addr:postcode": "33611", "addr:country": "US", "name": "Kindred Hospital Bay Area - Tampa", "phone": "+1 813-839-6341", "website": "https://www.kindredhealthcare.com/locations/ltac/kindred-hospital-bay-area-tampa", "brand": "Kindred Healthcare"}, "geometry": {"type": "Point", "coordinates": [-82.5190499, 27.898031]}},
{"type": "Feature", "id": "vJj2_cXY0U0UPce7jFgt-KjQbwo=", "properties": {"ref": "kindred-hospital-bay-area-tampa", "facility_type": "Hospital", "@spider": "kindred_healthcare", "addr:full": "4555 South Manhattan Avenue", "addr:city": "Tampa", "addr:state": "FL", "addr:postcode": "33611", "addr:country": "US", "name": "Kindred Hospital Bay Area - Tampa", "phone": "+1 813-839-6341", "website": "https://www.kindredhealthcare.com/locations/ltac/kindred-hospital-bay-area-tampa/careers", "brand": "Kindred Healthcare"}, "geometry": {"type": "Point", "coordinates": [-82.5190499, 27.898031]}},
{"type": "Feature", "id": "4XPQs_8SYCI7ReBp18J0OFee_4w=", "properties": {"ref": "kindred-hospital-melbourne", "facility_type": "Hospital", "@spider": "kindred_healthcare", "addr:full": "765 West Nasa Boulevard", "addr:city": "Melbourne", "addr:state": "FL", "addr:postcode": "32901", "addr:country": "US", "name": "Kindred Hospital Melbourne", "phone": "+1 321.733.5725", "website": "https://www.kindredhealthcare.com/locations/ltac/kindred-hospital-melbourne/explore-our-hospital", "brand": "Kindred Healthcare"}, "geometry": {"type": "Point", "coordinates": [-80.6340178, 28.0930294]}},
{"type": "Feature", "id": "R2NKHO3rcbsWEg5Brrlhi5ffD2A=", "properties": {"ref": "locations", "facility_type": "Hospital", "@spider": "kindred_healthcare", "addr:full": "4301 Mapleshade Ln", "addr:city": "Plano", "addr:state": "TX", "addr:postcode": "75093", "addr:country": "US", "name": "WellBridge Greater Dallas", "phone": "+1 972-596-5445", "website": "https://www.kindredhealthcare.com/locations/wbgd", "brand": "Kindred Healthcare"}, "geometry": {"type": "Point", "coordinates": [-96.7769137, 33.0057507]}},
{"type": "Feature", "id": "7iVUmBIYt6tWaX3wV_xTnN3p0_w=", "properties": {"ref": "kindred-hospital-seattle-first-hill", "facility_type": "Hospital", "@spider": "kindred_healthcare", "addr:full": "1334 Terry Avenue", "addr:city": "Seattle", "addr:state": "WA", "addr:postcode": "98101", "addr:country": "US", "name": "Kindred Hospital Seattle - First Hill", "phone": "+1 206-682-2661", "website": "https://www.kindredhealthcare.com/locations/ltac/kindred-hospital-seattle-first-hill/conditions", "brand": "Kindred Healthcare"}, "geometry": {"type": "Point", "coordinates": [-122.3288592, 47.6117468]}},
{"type": "Feature", "id": "uXenyiFGioqHkSTyn2aHi6Abbsg=", "properties": {"ref": "kindred-hospital-san-francisco-bay-area", "facility_type": "Hospital", "@spider": "kindred_healthcare", "addr:full": "2800 Benedict Drive", "addr:city": "San Leandro", "addr:state": "CA", "addr:postcode": "94577", "addr:country": "US", "name": "Kindred Hospital San Francisco Bay Area", "phone": "+1 510-357-8300", "website": "https://www.kindredhealthcare.com/locations/ltac/kindred-hospital-san-francisco-bay-area/conditions", "brand": "Kindred Healthcare"}, "geometry": {"type": "Point", "coordinates": [-122.1321459, 37.7179189]}},
{"type": "Feature", "id": "iS07XP8vBpT26h8nXiTMQpmK3qI=", "properties": {"ref": "kindred-hospital-los-angeles", "facility_type": "Hospital", "@spider": "kindred_healthcare", "addr:full": "5525 West Slauson Avenue", "addr:city": "Los Angeles", "addr:state": "CA", "addr:postcode": "90056", "addr:country": "US", "name": "Kindred Hospital Los Angeles", "phone": "+1 310-642-0325", "website": "https://www.kindredhealthcare.com/locations/ltac/kindred-hospital-los-angeles/conditions", "brand": "Kindred Healthcare"}, "geometry": {"type": "Point", "coordinates": [-118.378431, 33.990211]}},
{"type": "Feature", "id": "2UiU1b2aVE1b98d6i_oMFIBAqwk=", "properties": {"ref": "kindred-hospital-louisville", "facility_type": "Hospital", "@spider": "kindred_healthcare", "addr:full": "1313 St. Anthony Place", "addr:city": "Louisville", "addr:state": "KY", "addr:postcode": "40204", "addr:country": "US", "name": "Kindred Hospital Louisville", "phone": "+1 502-587-7001", "website": "https://www.kindredhealthcare.com/locations/ltac/kindred-hospital-louisville/conditions", "brand": "Kindred Healthcare"}, "geometry": {"type": "Point", "coordinates": [-85.731726, 38.242377]}},
{"type": "Feature", "id": "QR1DDaraFDopqoEX4uya9Z-6blM=", "properties": {"ref": "kindred-hospital-santa-ana", "facility_type": "Hospital", "@spider": "kindred_healthcare", "addr:full": "1901 N. College Avenue", "addr:city": "Santa Ana", "addr:state": "CA", "addr:postcode": "92706", "addr:country": "US", "name": "Kindred Hospital Santa Ana", "phone": "+1 714-564-7800", "website": "https://www.kindredhealthcare.com/locations/ltac/kindred-hospital-santa-ana/conditions", "brand": "Kindred Healthcare"}, "geometry": {"type": "Point", "coordinates": [-117.89114, 33.762298]}},
{"type": "Feature", "id": "a2ctTHxwX-Tu4xuoHwP9wS2_nZc=", "properties": {"ref": "kindred-hospital-south-bay", "facility_type": "Hospital", "@spider": "kindred_healthcare", "addr:full": "1246 W 155th Street", "addr:city": "Gardena", "addr:state": "CA", "addr:postcode": "90247", "addr:country": "US", "name": "Kindred Hospital South Bay", "phone": "+1 310-323-5330", "website": "https://www.kindredhealthcare.com/locations/ltac/kindred-hospital-south-bay/conditions", "brand": "Kindred Healthcare"}, "geometry": {"type": "Point", "coordinates": [-118.297401, 33.890004]}},
{"type": "Feature", "id": "wmLjcIMe89-4dqWdEOd7wqGMtJM=", "properties": {"ref": "kindred-hospital-rancho", "facility_type": "Hospital", "@spider": "kindred_healthcare", "addr:full": "10841 White Oak Avenue", "addr:city": "Rancho Cucamonga", "addr:state": "CA", "addr:postcode": "91730", "addr:country": "US", "name": "Kindred Hospital Rancho", "phone": "+1 909-581-6400", "website": "https://www.kindredhealthcare.com/locations/ltac/kindred-hospital-rancho/conditions", "brand": "Kindred Healthcare"}, "geometry": {"type": "Point", "coordinates": [-117.566203, 34.103687]}},
{"type": "Feature", "id": "wPpJizt8dqxkAFNNFLVmU1Kscz0=", "properties": {"ref": "kindred-hospital-baldwin-park", "facility_type": "Hospital", "@spider": "kindred_healthcare", "addr:full": "14148 Francisquito Avenue", "addr:city": "Baldwin Park", "addr:state": "CA", "addr:postcode": "91706", "addr:country": "US", "name": "Kindred Hospital Baldwin Park", "phone": "+1 626-388-2700", "website": "https://www.kindredhealthcare.com/locations/ltac/kindred-hospital-baldwin-park/conditions", "brand": "Kindred Healthcare"}, "geometry": {"type": "Point", "coordinates": [-117.967618, 34.062885]}},
{"type": "Feature", "id": "OznIfYeldXKEkWFUnhWkAbRKjqk=", "properties": {"ref": "kindred-hospital-las-vegas-sahara", "facility_type": "Hospital", "@spider": "kindred_healthcare", "addr:full": "5110 W Sahara Ave", "addr:city": "Las Vegas", "addr:state": "NV", "addr:postcode": "89146", "addr:country": "US", "name": "Kindred Hospital Las Vegas - Sahara", "phone": "+1 702-871-1418", "website": "https://www.kindredhealthcare.com/locations/ltac/kindred-hospital-las-vegas-sahara/conditions", "brand": "Kindred Healthcare"}, "geometry": {"type": "Point", "coordinates": [-115.211727, 36.145483]}},
{"type": "Feature", "id": "aWPOTgQEBfV4x_5Bdwx0VAs6meY=", "properties": {"ref": "kindred-hospital-tarrant-county-fort-worth-southwest", "facility_type": "Hospital", "@spider": "kindred_healthcare", "addr:full": "7800 Oakmont Blvd", "addr:city": "Fort Worth", "addr:state": "TX", "addr:postcode": "76132", "addr:country": "US", "name": "Kindred Hospital Tarrant County - Fort Worth Southwest", "phone": "+1 817-346-0094", "website": "https://www.kindredhealthcare.com/locations/ltac/kindred-hospital-tarrant-county-fort-worth-southwest/conditions", "brand": "Kindred Healthcare"}, "geometry": {"type": "Point", "coordinates": [-97.424007, 32.665942]}},
{"type": "Feature", "id": "e64aUT-RN4dT8IaALgXqbBRWrKs=", "properties": {"ref": "kindred-hospital-clear-lake", "facility_type": "Hospital", "@spider": "kindred_healthcare", "addr:full": "350 Blossom Street", "addr:city": "Webster", "addr:state": "TX", "addr:postcode": "77598", "addr:country": "US", "name": "Kindred Hospital Clear Lake", "phone": "+1 281-316-7800", "website": "https://www.kindredhealthcare.com/locations/ltac/kindred-hospital-clear-lake/conditions", "brand": "Kindred Healthcare"}, "geometry": {"type": "Point", "coordinates": [-95.1270254, 29.5430484]}},
{"type": "Feature", "id": "8WnJG5v7UR7q5M8rVS7eL-TUz90=", "properties": {"ref": "kindred-hospital-san-antonio", "facility_type": "Hospital", "@spider": "kindred_healthcare", "addr:full": "3636 Medical Drive", "addr:city": "San Antonio", "addr:state": "TX", "addr:postcode": "78229", "addr:country": "US", "name": "Kindred Hospital San Antonio", "phone": "+1 210-616-0616", "website": "https://www.kindredhealthcare.com/locations/ltac/kindred-hospital-san-antonio/conditions", "brand": "Kindred Healthcare"}, "geometry": {"type": "Point", "coordinates": [-98.556411, 29.522372]}},
{"type": "Feature", "id": "udz8SadYMzujM5hQ10EjX4ZyHgc=", "properties": {"ref": "kindred-hospital-houston-northwest", "facility_type": "Hospital", "@spider": "kindred_healthcare", "addr:full": "11297 Fallbrook Dr", "addr:city": "Houston", "addr:state": "TX", "addr:postcode": "77065", "addr:country": "US", "name": "Kindred Hospital Houston Northwest", "phone": "+1 281-517-1000", "website": "https://www.kindredhealthcare.com/locations/ltac/kindred-hospital-houston-northwest/conditions", "brand": "Kindred Healthcare"}, "geometry": {"type": "Point", "coordinates": [-95.587998, 29.924421]}},
{"type": "Feature", "id": "mWUjGP8PwWjbhkAPyMSBkWpV9pw=", "properties": {"ref": "kindred-hospital-el-paso", "facility_type": "Hospital", "@spider": "kindred_healthcare", "addr:full": "1740 Curie Drive", "addr:city": "El Paso", "addr:state": "TX", "addr:postcode": "79902", "addr:country": "US", "name": "Kindred Hospital El Paso", "phone": "+1 915-351-9044", "website": "https://www.kindredhealthcare.com/locations/ltac/kindred-hospital-el-paso/conditions", "brand": "Kindred Healthcare"}, "geometry": {"type": "Point", "coordinates": [-106.477192, 31.778747]}},
{"type": "Feature", "id": "41R_fXi_7pbsUO_QEcIYhl8TqaU=", "properties": {"ref": "kindred-hospital-riverside", "facility_type": "Hospital", "@spider": "kindred_healthcare", "addr:full": "2224 Medical Center Drive", "addr:city": "Perris", "addr:state": "CA", "addr:postcode": "92571", "addr:country": "US", "name": "Kindred Hospital Riverside", "phone": "+1 951-436-3535", "website": "https://www.kindredhealthcare.com/locations/ltac/kindred-hospital-riverside/conditions", "brand": "Kindred Healthcare"}, "geometry": {"type": "Point", "coordinates": [-117.222742, 33.8121889]}},
{"type": "Feature", "id": "AZR17w7g91q-cufhFT_DZxe6j0s=", "properties": {"ref": "kindred-hospital-westminster", "facility_type": "Hospital", "@spider": "kindred_healthcare", "addr:full": "200 Hospital Circle", "addr:city": "Westminster", "addr:state": "CA", "addr:postcode": "92683", "addr:country": "US", "name": "Kindred Hospital Westminster", "phone": "+1 657-666-7700", "website": "https://www.kindredhealthcare.com/locations/ltac/kindred-hospital-westminster/conditions", "brand": "Kindred Healthcare"}, "geometry": {"type": "Point", "coordinates": [-117.995187, 33.763291]}},
{"type": "Feature", "id": "DljWuMfLl-hNLAmtaF3iaIdM1us=", "properties": {"ref": "kindred-hospital-tarrant-county-arlington", "facility_type": "Hospital", "@spider": "kindred_healthcare", "addr:full": "1000 N Cooper", "addr:city": "Arlington", "addr:state": "TX", "addr:postcode": "76011", "addr:country": "US", "name": "Kindred Hospital Tarrant County - Arlington", "phone": "+1 817-548-3400", "website": "https://www.kindredhealthcare.com/locations/ltac/kindred-hospital-tarrant-county-arlington/conditions", "brand": "Kindred Healthcare"}, "geometry": {"type": "Point", "coordinates": [-97.1138115, 32.7501185]}},
{"type": "Feature", "id": "DsDe9yLRg1zl5OnpsOi2rDl5lF8=", "properties": {"ref": "kindred-hospital-sycamore", "facility_type": "Hospital", "@spider": "kindred_healthcare", "addr:full": "225 Edward Street", "addr:city": "Sycamore", "addr:state": "IL", "addr:postcode": "60178", "addr:country": "US", "name": "Kindred Hospital Sycamore", "phone": "+1 815-895-2144", "website": "https://www.kindredhealthcare.com/locations/ltac/kindred-hospital-sycamore/conditions", "brand": "Kindred Healthcare"}, "geometry": {"type": "Point", "coordinates": [-88.688142, 41.982575]}},
{"type": "Feature", "id": "R1xKpXZZxp9tOxl1fq8V4-xaiwM=", "properties": {"ref": "kindred-hospital-st-louis-south", "facility_type": "Hospital", "@spider": "kindred_healthcare", "addr:full": "10018 Kennerly Road, 3rd Floor, Hyland Building B", "addr:city": "St. Louis", "addr:state": "MO", "addr:postcode": "63128", "addr:country": "US", "name": "Kindred Hospital St. Louis South", "phone": "+1 314-208-6000", "website": "https://www.kindredhealthcare.com/locations/ltac/kindred-hospital-st-louis-south/conditions", "brand": "Kindred Healthcare"}, "geometry": {"type": "Point", "coordinates": [-90.3842527, 38.4948766]}},
{"type": "Feature", "id": "Qmpw1LyIE5OuoHDYmnk7yJqkGBw=", "properties": {"ref": "kindred-hospital-south-florida-coral-gables", "facility_type": "Hospital", "@spider": "kindred_healthcare", "addr:full": "5190 Southwest Eighth Street", "addr:city": "Coral Gables", "addr:state": "FL", "addr:postcode": "33134", "addr:country": "US", "name": "Kindred Hospital South Florida - Coral Gables", "phone": "+1 305-448-1585", "website": "https://www.kindredhealthcare.com/locations/ltac/kindred-hospital-south-florida-coral-gables/conditions", "brand": "Kindred Healthcare"}, "geometry": {"type": "Point", "coordinates": [-80.278787, 25.763651]}},
{"type": "Feature", "id": "vKNQit4h9QqmyyouXNedRePNLmI=", "properties": {"ref": "kindred-hospital-peoria", "facility_type": "Hospital", "@spider": "kindred_healthcare", "addr:full": "500 W Romeo B Garrett Ave", "addr:city": "Peoria", "addr:state": "IL", "addr:postcode": "61605", "addr:country": "US", "name": "Kindred Hospital Peoria", "phone": "+1 309-680-1500", "website": "https://www.kindredhealthcare.com/locations/ltac/kindred-hospital-peoria/conditions", "brand": "Kindred Healthcare"}, "geometry": {"type": "Point", "coordinates": [-89.601456, 40.692876]}},
{"type": "Feature", "id": "S424OUdi51-yVwfiOVVlBpUH67k=", "properties": {"ref": "kindred-hospital-ontario", "facility_type": "Hospital", "@spider": "kindred_healthcare", "addr:full": "550 N Monterey Avenue", "addr:city": "Ontario", "addr:state": "CA", "addr:postcode": "91764", "addr:country": "US", "name": "Kindred Hospital Ontario", "phone": "+1 909-391-0333", "website": "https://www.kindredhealthcare.com/locations/ltac/kindred-hospital-ontario/conditions", "brand": "Kindred Healthcare"}, "geometry": {"type": "Point", "coordinates": [-117.6437167, 34.068843]}},
{"type": "Feature", "id": "IiAfyjUI5rD5JSEJyzSnU23eN1M=", "properties": {"ref": "kindred-hospital-new-jersey-morris-county", "facility_type": "Hospital", "@spider": "kindred_healthcare", "addr:full": "400 West Blackwell Street", "addr:city": "Dover", "addr:state": "NJ", "addr:postcode": "07801", "addr:country": "US", "name": "Kindred Hospital New Jersey - Morris County", "phone": "+1 973-537-3818", "website": "https://www.kindredhealthcare.com/locations/ltac/kindred-hospital-new-jersey-morris-county/conditions", "brand": "Kindred Healthcare"}, "geometry": {"type": "Point", "coordinates": [-74.5754089, 40.885001]}},
{"type": "Feature", "id": "qjhnn5I9IQUDmjit34tFzrLvwTg=", "properties": {"ref": "kindred-hospital-indianapolis", "facility_type": "Hospital", "@spider": "kindred_healthcare", "addr:full": "1700 West 10th Street", "addr:city": "Indianapolis", "addr:state": "IN", "addr:postcode": "46222", "addr:country": "US", "name": "Kindred Hospital Indianapolis", "phone": "+1 317-636-4400", "website": "https://www.kindredhealthcare.com/locations/ltac/kindred-hospital-indianapolis/conditions", "brand": "Kindred Healthcare"}, "geometry": {"type": "Point", "coordinates": [-86.191158, 39.781663]}},
{"type": "Feature", "id": "rrhrDQ3qJQ_KiK1U5-YRuBn2dM4=", "properties": {"ref": "kindred-hospital-greensboro", "facility_type": "Hospital", "@spider": "kindred_healthcare", "addr:full": "2401 Southside Boulevard", "addr:city": "Greensboro", "addr:state": "NC", "addr:postcode": "27406", "addr:country": "US", "name": "Kindred Hospital Greensboro", "phone": "+1 336-604-2300", "website": "https://www.kindredhealthcare.com/locations/ltac/kindred-hospital-greensboro/conditions", "brand": "Kindred Healthcare"}, "geometry": {"type": "Point", "coordinates": [-79.768915, 36.049755]}},
{"type": "Feature", "id": "k4klv8WjFX31hrQo8gW4PEeKi-A=", "properties": {"ref": "kindred-hospital-dayton", "facility_type": "Hospital", "@spider": "kindred_healthcare", "addr:full": "707 South Edwin C. Moses Blvd", "addr:city": "Dayton", "addr:state": "OH", "addr:postcode": "45417", "addr:country": "US", "name": "Kindred Hospital Dayton", "phone": "+1 937-331-9265", "website": "https://www.kindredhealthcare.com/locations/ltac/kindred-hospital-dayton/conditions", "brand": "Kindred Healthcare"}, "geometry": {"type": "Point", "coordinates": [-84.1977409, 39.746562]}},
{"type": "Feature", "id": "K8aIntRnTIEAq-PZKIXXJ1aQ3AE=", "properties": {"ref": "kindred-hospital-dallas-central", "facility_type": "Hospital", "@spider": "kindred_healthcare", "addr:full": "8050 Meadow Road", "addr:city": "Dallas", "addr:state": "TX", "addr:postcode": "75231", "addr:country": "US", "name": "Kindred Hospital Dallas Central", "phone": "+1 469-232-6500", "website": "https://www.kindredhealthcare.com/locations/ltac/kindred-hospital-dallas-central/conditions", "brand": "Kindred Healthcare"}, "geometry": {"type": "Point", "coordinates": [-96.7676369, 32.8869619]}},
{"type": "Feature", "id": "tS-JeawRY1u1nzXQuiRmAy_C0bw=", "properties": {"ref": "kindred-hospital-chicago-northlake-campus", "facility_type": "Hospital", "@spider": "kindred_healthcare", "addr:full": "365 East North Avenue", "addr:city": "Northlake", "addr:state": "IL", "addr:postcode": "60164", "addr:country": "US", "name": "Kindred Hospital Chicago - Northlake", "phone": "+1 708-345-8100", "website": "https://www.kindredhealthcare.com/locations/ltac/kindred-hospital-chicago-northlake-campus/conditions", "brand": "Kindred Healthcare"}, "geometry": {"type": "Point", "coordinates": [-87.889962, 41.906903]}},
{"type": "Feature", "id": "sOeH2WFhpBf6-ot38I9BS9vP-sc=", "properties": {"ref": "kindred-hospital-chicago-north-campus", "facility_type": "Hospital", "@spider": "kindred_healthcare", "addr:full": "2544 West Montrose Avenue", "addr:city": "Chicago", "addr:state": "IL", "addr:postcode": "60618", "addr:country": "US", "name": "Kindred Hospital Chicago - North", "phone": "+1 773-267-2622", "website": "https://www.kindredhealthcare.com/locations/ltac/kindred-hospital-chicago-north-campus/conditions", "brand": "Kindred Healthcare"}, "geometry": {"type": "Point", "coordinates": [-87.6927841, 41.9613232]}},
{"type": "Feature", "id": "Dc9WwUF7ye2xpkLPB5fDEppNDes=", "properties": {"ref": "kindred-hospital-chicago-lakeshore", "facility_type": "Hospital", "@spider": "kindred_healthcare", "addr:full": "6130 North Sheridan Road", "addr:city": "Chicago", "addr:state": "IL", "addr:postcode": "60660", "addr:country": "US", "name": "Kindred Chicago Lakeshore", "phone": "+1 773-381-1222", "website": "https://www.kindredhealthcare.com/locations/ltac/kindred-hospital-chicago-lakeshore/conditions", "brand": "Kindred Healthcare"}, "geometry": {"type": "Point", "coordinates": [-87.655896, 41.993293]}},
{"type": "Feature", "id": "Nd4H6QU3xQ8mirGist22GLB2-XY=", "properties": {"ref": "kindred-hospital-chattanooga", "facility_type": "Hospital", "@spider": "kindred_healthcare", "addr:full": "709 Walnut Street", "addr:city": "Chattanooga", "addr:state": "TN", "addr:postcode": "37402", "addr:country": "US", "name": "Kindred Hospital Chattanooga", "phone": "+1 423-266-7721", "website": "https://www.kindredhealthcare.com/locations/ltac/kindred-hospital-chattanooga/conditions", "brand": "Kindred Healthcare"}, "geometry": {"type": "Point", "coordinates": [-85.3074271, 35.0483399]}},
{"type": "Feature", "id": "6xh5Yk053vEQX1FGPuk6qZIVPZM=", "properties": {"ref": "kindred-hospital-central-tampa", "facility_type": "Hospital", "@spider": "kindred_healthcare", "addr:full": "4801 N Howard Ave", "addr:city": "Tampa", "addr:state": "FL", "addr:postcode": "33603", "addr:country": "US", "name": "Kindred Hospital Central Tampa", "phone": "+1 813-874-7575", "website": "https://www.kindredhealthcare.com/locations/ltac/kindred-hospital-central-tampa/conditions", "brand": "Kindred Healthcare"}, "geometry": {"type": "Point", "coordinates": [-82.481456, 27.989675]}},
{"type": "Feature", "id": "CeWDlU37vaZhpj4I1pKIV0eHRf4=", "properties": {"ref": "kindred-hospital-brea", "facility_type": "Hospital", "@spider": "kindred_healthcare", "addr:full": "875 North Brea Blvd", "addr:city": "Brea", "addr:state": "CA", "addr:postcode": "92821", "addr:country": "US", "name": "Kindred Hospital Brea", "phone": "+1 714-529-6842", "website": "https://www.kindredhealthcare.com/locations/ltac/kindred-hospital-brea/conditions", "brand": "Kindred Healthcare"}, "geometry": {"type": "Point", "coordinates": [-117.894057, 33.934411]}},
{"type": "Feature", "id": "bI27zap0mVhMW84iGWRhc1Qgt5A=", "properties": {"ref": "kindred-hospital-albuquerque", "facility_type": "Hospital", "@spider": "kindred_healthcare", "addr:full": "700 High Street NE", "addr:city": "Albuquerque", "addr:state": "NM", "addr:postcode": "87102", "addr:country": "US", "name": "Kindred Hospital Albuquerque", "phone": "+1 505-242-4444", "website": "https://www.kindredhealthcare.com/locations/ltac/kindred-hospital-albuquerque/conditions", "brand": "Kindred Healthcare"}, "geometry": {"type": "Point", "coordinates": [-106.637347, 35.0888289]}},
{"type": "Feature", "id": "fpRxGVn1yi730Kx5NQE-GevrcEo=", "properties": {"ref": "kindred-hospital-philadelphia-havertown", "facility_type": "Hospital", "@spider": "kindred_healthcare", "addr:full": "2000  Old West Chester Pike", "addr:city": "Havertown", "addr:state": "PA", "addr:postcode": "19083", "addr:country": "US", "name": "Kindred Hospital Philadelphia - Havertown", "phone": "+1 610-536-2100", "website": "https://www.kindredhealthcare.com/locations/ltac/kindred-hospital-philadelphia-havertown/acute-rehab-unit", "brand": "Kindred Healthcare"}, "geometry": {"type": "Point", "coordinates": [-75.3338455, 39.975779]}},
{"type": "Feature", "id": "IzJMKnOdPZUlOqePPjaRbeEKMJg=", "properties": {"ref": "kindred-hospital-denver", "facility_type": "Hospital", "@spider": "kindred_healthcare", "addr:full": "1920 High Street", "addr:city": "Denver", "addr:state": "CO", "addr:postcode": "80218", "addr:country": "US", "name": "Kindred Hospital Denver", "phone": "+1 303-320-5871", "website": "https://www.kindredhealthcare.com/locations/ltac/kindred-hospital-denver/acute-rehab-unit", "brand": "Kindred Healthcare"}, "geometry": {"type": "Point", "coordinates": [-104.964367, 39.746273]}},
{"type": "Feature", "id": "aYXPRM6IL6dEcLZp039WfYiQ1q8=", "properties": {"ref": "kindred-hospital-ocala", "facility_type": "Hospital", "@spider": "kindred_healthcare", "addr:full": "1500 SW 1st Avenue, 5th Floor", "addr:city": "Ocala", "addr:state": "FL", "addr:postcode": "34474", "addr:country": "US", "name": "Kindred Hospital Ocala", "phone": "+1 352-369-0513", "website": "https://www.kindredhealthcare.com/locations/ltac/kindred-hospital-ocala/conditions", "brand": "Kindred Healthcare"}, "geometry": {"type": "Point", "coordinates": [-82.138711, 29.175529]}},
{"type": "Feature", "id": "rrMy5YZDX9FzqMD0HxNw8Tdb4Ts=", "properties": {"ref": "kindred-hospital-the-palm-beaches", "facility_type": "Hospital", "@spider": "kindred_healthcare", "addr:full": "5555 W. Blue Heron Boulevard", "addr:city": "Riviera Beach", "addr:state": "FL", "addr:postcode": "33418", "addr:country": "US", "name": "Kindred Hospital The Palm Beaches", "phone": "+1 561-840-0754", "website": "https://www.kindredhealthcare.com/locations/ltac/kindred-hospital-the-palm-beaches/conditions", "brand": "Kindred Healthcare"}, "geometry": {"type": "Point", "coordinates": [-80.112711, 26.783722]}},
{"type": "Feature", "id": "X_WUFQqcOrIuqberhmNvWVRcpeg=", "properties": {"ref": "kindred-hospital-st-louis", "facility_type": "Hospital", "@spider": "kindred_healthcare", "addr:full": "4930 Lindell Boulevard", "addr:city": "St. Louis", "addr:state": "MO", "addr:postcode": "63108", "addr:country": "US", "name": "Kindred Hospital St. Louis", "phone": "+1 314-361-8700", "website": "https://www.kindredhealthcare.com/locations/ltac/kindred-hospital-st-louis/conditions", "brand": "Kindred Healthcare"}, "geometry": {"type": "Point", "coordinates": [-90.2621429, 38.6433299]}},
{"type": "Feature", "id": "FR-C4NpyNA87Li3-R-igA8F0wfI=", "properties": {"ref": "kindred-hospital-south-florida-hollywood", "facility_type": "Hospital", "@spider": "kindred_healthcare", "addr:full": "1859 Van Buren Street", "addr:city": "Hollywood", "addr:state": "FL", "addr:postcode": "33020", "addr:country": "US", "name": "Kindred Hospital South Florida - Hollywood", "phone": "+1 954-920-9000", "website": "https://www.kindredhealthcare.com/locations/ltac/kindred-hospital-south-florida-hollywood/conditions", "brand": "Kindred Healthcare"}, "geometry": {"type": "Point", "coordinates": [-80.1443479, 26.009877]}},
{"type": "Feature", "id": "OEgX4YmOXngR6QuFjhilucH0v74=", "properties": {"ref": "kindred-hospital-san-gabriel-valley", "facility_type": "Hospital", "@spider": "kindred_healthcare", "addr:full": "845 North Lark Ellen", "addr:city": "West Covina", "addr:state": "CA", "addr:postcode": "91791", "addr:country": "US", "name": "Kindred Hospital San Gabriel Valley", "phone": "+1 626-339-5451", "website": "https://www.kindredhealthcare.com/locations/ltac/kindred-hospital-san-gabriel-valley/conditions", "brand": "Kindred Healthcare"}, "geometry": {"type": "Point", "coordinates": [-117.917246, 34.087068]}},
{"type": "Feature", "id": "4JLyTQHwBQ9ruZAY9HEYpO-ZLUY=", "properties": {"ref": "kindred-hospital-san-diego", "facility_type": "Hospital", "@spider": "kindred_healthcare", "addr:full": "1940 El Cajon Boulevard", "addr:city": "San Diego", "addr:state": "CA", "addr:postcode": "92104", "addr:country": "US", "name": "Kindred Hospital San Diego", "phone": "+1 619-543-4500", "website": "https://www.kindredhealthcare.com/locations/ltac/kindred-hospital-san-diego/conditions", "brand": "Kindred Healthcare"}, "geometry": {"type": "Point", "coordinates": [-117.144371, 32.756095]}},
{"type": "Feature", "id": "Ztwnzd_N7cc7EyuNRq2GbxaP6Cw=", "properties": {"ref": "kindred-hospital-san-antonio-central", "facility_type": "Hospital", "@spider": "kindred_healthcare", "addr:full": "111 Dallas Street, 4th Floor, Building C", "addr:city": "San Antonio", "addr:state": "TX", "addr:postcode": "78205", "addr:country": "US", "name": "Kindred Hospital San Antonio Central", "phone": "+1 210-297-7195", "website": "https://www.kindredhealthcare.com/locations/ltac/kindred-hospital-san-antonio-central/conditions", "brand": "Kindred Healthcare"}, "geometry": {"type": "Point", "coordinates": [-98.4926201, 29.4336837]}},
{"type": "Feature", "id": "_xn8ke_T_gXbWFv4DdoCH2kiC8U=", "properties": {"ref": "kindred-hospital-philadelphia", "facility_type": "Hospital", "@spider": "kindred_healthcare", "addr:full": "6129 Palmetto Street", "addr:city": "Philadelphia", "addr:state": "PA", "addr:postcode": "19111", "addr:country": "US", "name": "Kindred Hospital Philadelphia", "phone": "+1 215-722-8555", "website": "https://www.kindredhealthcare.com/locations/ltac/kindred-hospital-philadelphia/conditions", "brand": "Kindred Healthcare"}, "geometry": {"type": "Point", "coordinates": [-75.09694, 40.045962]}},
{"type": "Feature", "id": "DqanPVpxgNWrobssGxLpk2UdMNk=", "properties": {"ref": "kindred-hospital-paramount", "facility_type": "Hospital", "@spider": "kindred_healthcare", "addr:full": "16453 South Colorado Avenue", "addr:city": "Paramount", "addr:state": "CA", "addr:postcode": "90723", "addr:country": "US", "name": "Kindred Hospital Paramount", "phone": "+1 562-531-3110", "website": "https://www.kindredhealthcare.com/locations/ltac/kindred-hospital-paramount/conditions", "brand": "Kindred Healthcare"}, "geometry": {"type": "Point", "coordinates": [-118.162304, 33.884218]}},
{"type": "Feature", "id": "PPqycuWmKpytGtPVBfbQReiGsF4=", "properties": {"ref": "kindred-hospital-northland", "facility_type": "Hospital", "@spider": "kindred_healthcare", "addr:full": "500 NW 68th Street", "addr:city": "Kansas City", "addr:state": "MO", "addr:postcode": "64118", "addr:country": "US", "name": "Kindred Hospital Northland", "phone": "+1 816-420-6300", "website": "https://www.kindredhealthcare.com/locations/ltac/kindred-hospital-northland/conditions", "brand": "Kindred Healthcare"}, "geometry": {"type": "Point", "coordinates": [-94.5868276, 39.2174308]}},
{"type": "Feature", "id": "kFiybZdir7NOQameICW4mgbH5y8=", "properties": {"ref": "kindred-hospital-east-new-jersey", "facility_type": "Hospital", "@spider": "kindred_healthcare", "addr:full": "350 Boulevard, 5th Floor West", "addr:city": "Passaic", "addr:state": "NJ", "addr:postcode": "07055", "addr:country": "US", "name": "Kindred Hospital East New Jersey", "phone": "+1 973-636-7200", "website": "https://www.kindredhealthcare.com/locations/ltac/kindred-hospital-east-new-jersey/conditions", "brand": "Kindred Healthcare"}, "geometry": {"type": "Point", "coordinates": [-74.1372832, 40.8590505]}},
{"type": "Feature", "id": "aGzeyhePvl8g1_xJIFMH0cIxMPU=", "properties": {"ref": "kindred-hospital-new-jersey-rahway", "facility_type": "Hospital", "@spider": "kindred_healthcare", "addr:full": "865 Stone Street, 4th Floor", "addr:city": "Rahway", "addr:state": "NJ", "addr:postcode": "07065", "addr:country": "US", "name": "Kindred Hospital New Jersey - Rahway", "phone": "+1 732-453-2950", "website": "https://www.kindredhealthcare.com/locations/ltac/kindred-hospital-new-jersey-rahway/conditions", "brand": "Kindred Healthcare"}, "geometry": {"type": "Point", "coordinates": [-74.2908999, 40.6129]}},
{"type": "Feature", "id": "AXmjbttnk0-jz_CCK4y2FK3e-2I=", "properties": {"ref": "kindred-hospital-lima", "facility_type": "Hospital", "@spider": "kindred_healthcare", "addr:full": "730 W Market Street", "addr:city": "Lima", "addr:state": "OH", "addr:postcode": "45801", "addr:country": "US", "name": "Kindred Hospital Lima", "phone": "+1 419-224-1888", "website": "https://www.kindredhealthcare.com/locations/ltac/kindred-hospital-lima/conditions", "brand": "Kindred Healthcare"}, "geometry": {"type": "Point", "coordinates": [-84.1178016, 40.7400064]}},
{"type": "Feature", "id": "ui8DgF-6vardXsDkFdXczqOVnQg=", "properties": {"ref": "kindred-hospital-indianapolis-north", "facility_type": "Hospital", "@spider": "kindred_healthcare", "addr:full": "8060 Knue Road", "addr:city": "Indianapolis", "addr:state": "IN", "addr:postcode": "46250", "addr:country": "US", "name": "Kindred Hospital Indianapolis North", "phone": "+1 317-813-8900", "website": "https://www.kindredhealthcare.com/locations/ltac/kindred-hospital-indianapolis-north/conditions", "brand": "Kindred Healthcare"}, "geometry": {"type": "Point", "coordinates": [-86.0604612, 39.9021094]}},
{"type": "Feature", "id": "8msMnHZHQH6cR4PQkcREMGR8MB8=", "properties": {"ref": "kindred-hospital-las-vegas-flamingo-campus", "facility_type": "Hospital", "@spider": "kindred_healthcare", "addr:full": "2250 East Flamingo Road", "addr:city": "Las Vegas", "addr:state": "NV", "addr:postcode": "89119", "addr:country": "US", "name": "Kindred Hospital Las Vegas - Flamingo", "phone": "+1 702-784-4300", "website": "https://www.kindredhealthcare.com/locations/ltac/kindred-hospital-las-vegas-flamingo-campus/conditions", "brand": "Kindred Healthcare"}, "geometry": {"type": "Point", "coordinates": [-115.121467, 36.115672]}},
{"type": "Feature", "id": "e_d_qUnAUXk6I3YoNzFLb16t4rc=", "properties": {"ref": "kindred-hospital-la-mirada", "facility_type": "Hospital", "@spider": "kindred_healthcare", "addr:full": "14900 E. Imperial Highway", "addr:city": "La Mirada", "addr:state": "CA", "addr:postcode": "90638", "addr:country": "US", "name": "Kindred Hospital La Mirada", "phone": "+1 562-944-1900", "website": "https://www.kindredhealthcare.com/locations/ltac/kindred-hospital-la-mirada/conditions", "brand": "Kindred Healthcare"}, "geometry": {"type": "Point", "coordinates": [-118.013311, 33.91637]}},
{"type": "Feature", "id": "o_Od2BPL1RzRRpvHrznadGMPBJc=", "properties": {"ref": "kindred-hospital-aurora", "facility_type": "Hospital", "@spider": "kindred_healthcare", "addr:full": "700 Potomac St., 2nd Floor", "addr:city": "Aurora", "addr:state": "CO", "addr:postcode": "80011", "addr:country": "US", "name": "Kindred Hospital Aurora", "phone": "+1 303-927-5500", "website": "https://www.kindredhealthcare.com/locations/ltac/kindred-hospital-aurora/conditions", "brand": "Kindred Healthcare"}, "geometry": {"type": "Point", "coordinates": [-104.8268652, 39.728825]}},
{"type": "Feature", "id": "2wCLmqkrc0Zb2z3ZZ_bX_wmce5U=", "properties": {"ref": "kindred-hospital-louisville-at-jewish-hospital", "facility_type": "Hospital", "@spider": "kindred_healthcare", "addr:full": "200 Abraham Flexner Way", "addr:city": "Louisville", "addr:state": "KY", "addr:postcode": "40202", "addr:country": "US", "name": "Kindred Hospital Louisville at Jewish Hospital", "phone": "+1 502-587-3997", "website": "https://www.kindredhealthcare.com/locations/ltac/kindred-hospital-louisville-at-jewish-hospital/conditions", "brand": "Kindred Healthcare"}, "geometry": {"type": "Point", "coordinates": [-85.7512244, 38.2489682]}},
{"type": "Feature", "id": "Qa9AuAZMc6fguRRXzd-FmumOglA=", "properties": {"ref": "kindred-hospital-houston-medical-center", "facility_type": "Hospital", "@spider": "kindred_healthcare", "addr:full": "6441 Main Street", "addr:city": "Houston", "addr:state": "TX", "addr:postcode": "77030", "addr:country": "US", "name": "Kindred Hospital Houston Medical Center", "phone": "+1 713-790-0500", "website": "https://www.kindredhealthcare.com/locations/ltac/kindred-hospital-houston-medical-center/acute-rehab-unit", "brand": "Kindred Healthcare"}, "geometry": {"type": "Point", "coordinates": [-95.399046, 29.712943]}},
{"type": "Feature", "id": "RpGvda7iHk7OECjPaSh_p15Avtk=", "properties": {"ref": "kindred-hospital-north-florida", "facility_type": "Hospital", "@spider": "kindred_healthcare", "addr:full": "801 Oak Street", "addr:city": "Green Cove Springs", "addr:state": "FL", "addr:postcode": "32043", "addr:country": "US", "name": "Kindred Hospital North Florida", "phone": "+1 904-284-9230", "website": "https://www.kindredhealthcare.com/locations/ltac/kindred-hospital-north-florida/acute-rehab-unit", "brand": "Kindred Healthcare"}, "geometry": {"type": "Point", "coordinates": [-81.682218, 29.987693]}},
{"type": "Feature", "id": "XxoLpM8XOAUg6_lNe6hEk9wn1U4=", "properties": {"ref": "kindred-hospital-south-florida-ft-lauderdale", "facility_type": "Hospital", "@spider": "kindred_healthcare", "addr:full": "1516 East Las Olas Boulevard", "addr:city": "Ft. Lauderdale", "addr:state": "FL", "addr:postcode": "33301", "addr:country": "US", "name": "Kindred Hospital South Florida - Ft. Lauderdale", "phone": "+1 954-764-8900", "website": "https://www.kindredhealthcare.com/locations/ltac/kindred-hospital-south-florida-ft-lauderdale/acute-rehab-unit", "brand": "Kindred Healthcare"}, "geometry": {"type": "Point", "coordinates": [-80.127732, 26.1186599]}},
{"type": "Feature", "id": "eCD7Xk8DVdmj4zduNMzfVwsOKxk=", "properties": {"ref": "kindred-hospital-bay-area-st-petersburg", "facility_type": "Hospital", "@spider": "kindred_healthcare", "addr:full": "3030 6th Street South", "addr:city": "St. Petersburg", "addr:state": "FL", "addr:postcode": "33705", "addr:country": "US", "name": "Kindred Hospital Bay Area - St. Petersburg", "phone": "+1 727-894-8719", "website": "https://www.kindredhealthcare.com/locations/ltac/kindred-hospital-bay-area-st-petersburg/acute-rehab-unit", "brand": "Kindred Healthcare"}, "geometry": {"type": "Point", "coordinates": [-82.640893, 27.741221]}},
{"type": "Feature", "id": "9FNSRm3TfDX0WylF5_hM2oykPHs=", "properties": {"ref": "kindred-hospital-sugar-land", "facility_type": "Hospital", "@spider": "kindred_healthcare", "addr:full": "1550 First Colony Blvd", "addr:city": "Sugar Land", "addr:state": "TX", "addr:postcode": "77479", "addr:country": "US", "name": "Kindred Hospital Sugar Land", "phone": "+1 281-275-6000", "website": "https://www.kindredhealthcare.com/locations/ltac/kindred-hospital-sugar-land/acute-rehab-unit", "brand": "Kindred Healthcare"}, "geometry": {"type": "Point", "coordinates": [-95.63889, 29.6004]}},
{"type": "Feature", "id": "RqxteZTYzn9CGRL2_d2OVqxAVyU=", "properties": {"ref": "types-of-care", "facility_type": "Hospital", "@spider": "kindred_healthcare", "addr:full": "1334 Terry Avenue", "addr:city": "Seattle", "addr:state": "WA", "addr:postcode": "98101", "addr:country": "US", "name": "Kindred Hospital Seattle - First Hill", "phone": "+1 206-682-2661", "website": "https://www.kindredhealthcare.com/locations/ltac/kindred-hospital-seattle-first-hill/types-of-care/service-limitations", "brand": "Kindred Healthcare"}, "geometry": {"type": "Point", "coordinates": [-122.3288592, 47.6117468]}}]}