{"type":"FeatureCollection","features":[{"type": "Feature", "id": "9LKfcV3j3CBRBZGyBUxm2x-hASM=", "properties": {"ref": "1000000676", "@spider": "kipling", "addr:full": "1 Premium Outlets Blvd., Suite 905", "addr:city": "Barceloneta", "addr:state": "PR", "addr:postcode": "00617", "addr:country": "US", "name": "Kipling at Puerto Rico Premium Outlets", "phone": "787-846-1631", "brand": "Kipling"}, "geometry": {"type": "Point", "coordinates": [-66.54141, 18.439879]}},
{"type": "Feature", "id": "1H79GEqr19bsiLeRA6_v3rN634s=", "properties": {"ref": "1000000697", "@spider": "kipling", "addr:full": "7007 Friars Road", "addr:city": "San Diego", "addr:state": "CA", "addr:postcode": "92108", "addr:country": "US", "name": "Kipling at Fashion Valley Mall", "phone": "619-574-0684", "brand": "Kipling"}, "geometry": {"type": "Point", "coordinates": [-117.167529, 32.768396]}},
{"type": "Feature", "id": "KGR85TLr6ntuImSxlWRQW-WU9fU=", "properties": {"ref": "1000000700", "@spider": "kipling", "addr:full": "525 Ave FD Roosevelt, Suite 528", "addr:city": "San Juan", "addr:state": "PR", "addr:postcode": "00918", "addr:country": "US", "name": "Kipling at Plaza Las Americas", "phone": "787-766-1619", "brand": "Kipling"}, "geometry": {"type": "Point", "coordinates": [-66.073711, 18.421234]}}]}