{"type":"FeatureCollection","features":[{"type": "Feature", "id": "eY2DWErA2BJhgFc0mZiBm_2qgkg=", "properties": {"ref": "43", "email": "huntsville@konagrill.com", "@spider": "konagrill", "addr:full": "435 The Bridge Street NW, Ste. 150", "addr:city": "Huntsville", "addr:state": "AL", "addr:postcode": "35806", "name": "Huntsville, AL", "phone": "256-808-2540", "website": "https://konagrill.rrtusa.net/#/?restaurantId=438", "opening_hours": "Mo-Th 11:00-23:00; Fr 11:00-00:00; Sa 10:00-00:00; Su 10:00-22:00", "brand": "Kona Grill", "brand:wikidata": "Q6428706"}, "geometry": {"type": "Point", "coordinates": [-86.6732173, 34.7150417]}},
{"type": "Feature", "id": "_pwTli7t1Pwo9lAQ-DoydiIaCpo=", "properties": {"ref": "4", "email": "scottsdale@konagrill.com", "@spider": "konagrill", "addr:full": "7014 E. Camelback Rd.", "addr:city": "Scottsdale", "addr:state": "AZ", "addr:postcode": "85251", "name": "Scottsdale, AZ - Fashion Square Mall", "phone": "480-429-1100", "website": "https://konagrill.rrtusa.net/#/?restaurantId=270", "opening_hours": "Mo-Th 11:00-23:00; Fr 11:00-00:00; Sa 10:00-00:00; Su 10:00-22:00", "brand": "Kona Grill", "brand:wikidata": "Q6428706"}, "geometry": {"type": "Point", "coordinates": [-111.9294198, 33.5028371]}},
{"type": "Feature", "id": "hjl3APaH4W8N7NocQPq7h-E7Mgw=", "properties": {"ref": "2", "email": "gilbert@konagrill.com", "@spider": "konagrill", "addr:full": "2224 E. Williams Field Rd.", "addr:city": "Gilbert", "addr:state": "AZ", "addr:postcode": "85295", "name": "Gilbert, AZ", "phone": "480-289-4500", "website": "https://konagrill.rrtusa.net/#/?restaurantId=271", "opening_hours": "Mo-Th 11:00-23:00; Fr 11:00-00:00; Sa 10:00-00:00; Su 10:00-22:00", "brand": "Kona Grill", "brand:wikidata": "Q6428706"}, "geometry": {"type": "Point", "coordinates": [-111.7425841, 33.3078754]}},
{"type": "Feature", "id": "xRk7FolOhA0USwoS9NER6VVU6Dg=", "properties": {"ref": "7", "email": "denver@konagrill.com", "@spider": "konagrill", "addr:full": "3000 East 1st Ave #184", "addr:city": "Denver", "addr:state": "CO", "addr:postcode": "80206", "name": "Denver, CO", "phone": "720-974-1300", "website": "https://konagrill.rrtusa.net/#/?restaurantId=401", "opening_hours": "Mo-Th 11:00-23:00; Fr 11:00-00:00; Sa 10:00-00:00; Su 10:00-22:00", "brand": "Kona Grill", "brand:wikidata": "Q6428706"}, "geometry": {"type": "Point", "coordinates": [-104.952671, 39.7175014]}},
{"type": "Feature", "id": "2o5Y1XC6PCZKmY6ZZEO32xKPoSA=", "properties": {"ref": "22", "email": "tampa@konagrill.com", "@spider": "konagrill", "addr:full": "4134 W. Boy Scout Blvd. #b-1", "addr:city": "Tampa", "addr:state": "FL", "addr:postcode": "33607", "name": "Tampa, FL", "phone": "813-877-5938", "website": "https://konagrill.rrtusa.net/#/?restaurantId=417", "opening_hours": "Mo-Th 11:00-23:00; Fr 11:00-00:00; Sa 10:00-00:00; Su 10:00-22:00", "brand": "Kona Grill", "brand:wikidata": "Q6428706"}, "geometry": {"type": "Point", "coordinates": [-82.5136519, 27.964515]}},
{"type": "Feature", "id": "YM6NWiEJ9U2kbTfNarMNOYSG1vI=", "properties": {"ref": "29", "email": "alpharetta@konagrill.com", "@spider": "konagrill", "addr:full": "5100 Avalon Blvd", "addr:city": "Alpharetta", "addr:state": "GA", "addr:postcode": "30009", "name": "Alpharetta, GA", "phone": "470-226-1540", "website": "https://konagrill.rrtusa.net/#/?restaurantId=424", "opening_hours": "Mo-Th 11:00-23:00; Fr 11:00-00:00; Sa 10:00-00:00; Su 10:00-22:00", "brand": "Kona Grill", "brand:wikidata": "Q6428706"}, "geometry": {"type": "Point", "coordinates": [-84.2764762, 34.0707949]}},
{"type": "Feature", "id": "1CDZBu5J6jFv_eLAO60TvzgbgLk=", "properties": {"ref": "28", "email": "sarasota@konagrill.com", "@spider": "konagrill", "addr:full": "150 University Town Center Dr. Suite #150", "addr:city": "Sarasota", "addr:state": "FL", "addr:postcode": "34243", "name": "Sarasota, FL", "phone": "941-256-8005", "website": "https://konagrill.rrtusa.net/#/?restaurantId=425", "opening_hours": "Mo-Th 11:00-23:00; Fr 11:00-00:00; Sa 10:00-00:00; Su 10:00-22:00", "brand": "Kona Grill", "brand:wikidata": "Q6428706"}, "geometry": {"type": "Point", "coordinates": [-82.4524098, 27.384475]}},
{"type": "Feature", "id": "5xPl_0PZbmy1cuZyt5ho0lA-BQk=", "properties": {"ref": "24", "email": "boise@konagrill.com", "@spider": "konagrill", "addr:full": "3573 E Longwing Lane #140", "addr:city": "Meridian", "addr:state": "ID", "addr:postcode": "83646", "name": "Boise, ID", "phone": "208-922-6511", "website": "https://konagrill.rrtusa.net/#/?restaurantId=419", "opening_hours": "Mo-Th 11:00-23:00; Fr 11:00-00:00; Sa 10:00-00:00; Su 10:00-22:00", "brand": "Kona Grill", "brand:wikidata": "Q6428706"}, "geometry": {"type": "Point", "coordinates": [-116.3495101, 43.6214301]}},
{"type": "Feature", "id": "DhvWNmZkKYyztHgJTgZIAMtcwQs=", "properties": {"ref": "14", "email": "Oakbrook@konagrill.com", "@spider": "konagrill", "addr:full": "3051 Butterfield Rd", "addr:city": "Oak Brook", "addr:state": "IL", "addr:postcode": "60523", "name": "Oak Brook, IL", "phone": "630-515-8395", "website": "https://konagrill.rrtusa.net/#/?restaurantId=408", "opening_hours": "Mo-Fr 11:00-23:00; Sa 10:00-23:00; Su 10:00-22:00", "brand": "Kona Grill", "brand:wikidata": "Q6428706"}, "geometry": {"type": "Point", "coordinates": [-87.994525, 41.840884]}},
{"type": "Feature", "id": "Cnbu__XujJJY82GTVNZ6T_Qqvb8=", "properties": {"ref": "9", "email": "carmel@konagrill.com", "@spider": "konagrill", "addr:full": "14395 Clay Terrace Blvd", "addr:city": "Carmel", "addr:state": "IN", "addr:postcode": "46032", "name": "Carmel, IN", "phone": "317-566-1400", "website": "https://konagrill.rrtusa.net/#/?restaurantId=403", "opening_hours": "Mo-Fr 11:00-23:00; Sa 10:00-23:00; Su 10:00-22:00", "brand": "Kona Grill", "brand:wikidata": "Q6428706"}, "geometry": {"type": "Point", "coordinates": [-86.129208, 39.997089]}},
{"type": "Feature", "id": "0fBDYysl_Mwr-vQBx5nYhlKH9o0=", "properties": {"ref": "23", "email": "baltimore@konagrill.com", "@spider": "konagrill", "addr:full": "1 E Pratt St. Bldg #103", "addr:city": "Baltimore", "addr:state": "MD", "addr:postcode": "21202", "name": "Baltimore, MD", "phone": "410-244-8994", "website": "https://konagrill.rrtusa.net/#/?restaurantId=418", "opening_hours": "Mo-Fr 11:00-23:00; Sa 10:00-23:00; Su 10:00-22:00", "brand": "Kona Grill", "brand:wikidata": "Q6428706"}, "geometry": {"type": "Point", "coordinates": [-76.6141683, 39.2858926]}},
{"type": "Feature", "id": "0TY4QR-iessQwC3H1wf_4aEhVmQ=", "properties": {"ref": "16", "email": "troy@konagrill.com", "@spider": "konagrill", "addr:full": "30 E Big Beaver Rd.", "addr:city": "Troy", "addr:state": "MI", "addr:postcode": "48083", "name": "Troy, MI", "phone": "248-619-9060", "website": "https://konagrill.rrtusa.net/#/?restaurantId=410", "opening_hours": "Mo-Fr 11:00-22:00; Sa-Su 10:00-22:00", "brand": "Kona Grill", "brand:wikidata": "Q6428706"}, "geometry": {"type": "Point", "coordinates": [-83.1468919, 42.5617299]}},
{"type": "Feature", "id": "9K30bVtPC87X987ZwMWz4Tu0VCM=", "properties": {"ref": "39", "email": "Minnetonka@konagrill.com", "@spider": "konagrill", "addr:full": "12235 Wayzata Blvd. Space 1068", "addr:city": "Minnetonka", "addr:state": "MN", "addr:postcode": "55305", "name": "Minnetonka, MN", "phone": "952-955-9714", "website": "https://konagrill.rrtusa.net/#/?restaurantId=435", "opening_hours": "Mo-Fr 11:00-23:00; Sa 10:00-23:00; Su 10:00-22:00", "brand": "Kona Grill", "brand:wikidata": "Q6428706"}, "geometry": {"type": "Point", "coordinates": [-93.4332345, 44.9721922]}},
{"type": "Feature", "id": "J5pEMbhnAhTE9MvVDV1JIHMw0EU=", "properties": {"ref": "21", "email": "edenprairie@konagrill.com", "@spider": "konagrill", "addr:full": "11997 Singletree Lane", "addr:city": "Eden Prairie", "addr:state": "MN", "addr:postcode": "55344", "name": "Eden Prairie, MN", "phone": "952-941-3262", "website": "https://konagrill.rrtusa.net/#/?restaurantId=416", "opening_hours": "Mo-Fr 11:00-23:00; Sa 10:00-23:00; Su 10:00-22:00", "brand": "Kona Grill", "brand:wikidata": "Q6428706"}, "geometry": {"type": "Point", "coordinates": [-93.4288267, 44.8557712]}},
{"type": "Feature", "id": "P2WwrmaVEBs7XKmUqyyoq0M6UA0=", "properties": {"ref": "5", "email": "kansascity@konagrill.com", "@spider": "konagrill", "addr:full": "444 Ward Parkway", "addr:city": "Kansas City", "addr:state": "MO", "addr:postcode": "64112", "name": "Kansas City, MO", "phone": "816-931-5888", "website": "https://konagrill.rrtusa.net/#/?restaurantId=399", "opening_hours": "Mo-Th 11:00-23:00; Fr 11:00-00:00; Sa 10:00-00:00; Su 10:00-22:00", "brand": "Kona Grill", "brand:wikidata": "Q6428706"}, "geometry": {"type": "Point", "coordinates": [-94.5930951, 39.0404943]}},
{"type": "Feature", "id": "iusVH59YS583GOSplpR3SGW30OE=", "properties": {"ref": "8", "email": "omaha@konagrill.com", "@spider": "konagrill", "addr:full": "295 N. 170th St", "addr:city": "Omaha", "addr:state": "NE", "addr:postcode": "68118", "name": "Omaha, NE", "phone": "402-779-2900", "website": "https://konagrill.rrtusa.net/#/?restaurantId=402", "opening_hours": "Mo-Th 11:00-23:00; Fr 11:00-00:00; Sa 10:00-00:00; Su 10:00-22:00", "brand": "Kona Grill", "brand:wikidata": "Q6428706"}, "geometry": {"type": "Point", "coordinates": [-96.1812183, 41.2605644]}},
{"type": "Feature", "id": "s92Mv9K97waIIJh8pMutOMEgVOk=", "properties": {"ref": "6", "email": "bocapark@konagrill.com", "@spider": "konagrill", "addr:full": "750 S. Rampart Blvd.", "addr:city": "Las Vegas", "addr:state": "NV", "addr:postcode": "89145", "name": "Las Vegas, NV - Boca Park ", "phone": "702-547-5552", "website": "https://konagrill.rrtusa.net/#/?restaurantId=400", "opening_hours": "Mo-Th 11:00-23:00; Fr 11:00-00:00; Sa 10:00-00:00; Su 10:00-22:00", "brand": "Kona Grill", "brand:wikidata": "Q6428706"}, "geometry": {"type": "Point", "coordinates": [-115.2897075, 36.1643423]}},
{"type": "Feature", "id": "Ffp0Ks5Z3q7rNcdVkP3oZscozFQ=", "properties": {"ref": "20", "email": "woodbridge@konagrill.com", "@spider": "konagrill", "addr:full": "511 US Highway 1 South", "addr:city": "Iselin", "addr:state": "NJ", "addr:postcode": "08830", "name": "Woodbridge, NJ", "phone": "732-750-4400", "website": "https://konagrill.rrtusa.net/#/?restaurantId=415", "opening_hours": "Mo-Th 11:00-23:00; Fr 11:00-00:00; Sa 10:00-00:00; Su 10:00-22:00", "brand": "Kona Grill", "brand:wikidata": "Q6428706"}, "geometry": {"type": "Point", "coordinates": [-74.3113171, 40.5562994]}},
{"type": "Feature", "id": "lRkpzUb7-rb2qWbumyH5plom-30=", "properties": {"ref": "35", "email": "cincinnati@konagrill.com", "@spider": "konagrill", "addr:full": "7524 Gibson St", "addr:city": "Liberty Township", "addr:state": "OH", "addr:postcode": "45069", "name": "Cincinnati, OH", "phone": "513-322-5860", "website": "https://konagrill.rrtusa.net/#/?restaurantId=431", "opening_hours": "Mo-Th 11:00-23:00; Fr 11:00-00:00; Sa 10:00-00:00; Su 10:00-22:00", "brand": "Kona Grill", "brand:wikidata": "Q6428706"}, "geometry": {"type": "Point", "coordinates": [-84.3739178, 39.3717253]}},
{"type": "Feature", "id": "aXWmgaOhm_tw_8IbUZLz5ydD5EQ=", "properties": {"ref": "45", "email": "northstar@konagrill.com", "@spider": "konagrill", "addr:full": "7400 San Pedro Ave #1255", "addr:city": "San Antonio", "addr:state": "TX", "addr:postcode": "78216", "name": "San Antonio, TX - North Star", "phone": "210-998-7601", "website": "https://konagrill.rrtusa.net/#/?restaurantId=433", "opening_hours": "Mo-Th 11:00-23:00; Fr 11:00-00:00; Sa 10:00-00:00; Su 10:00-22:00", "brand": "Kona Grill", "brand:wikidata": "Q6428706"}, "geometry": {"type": "Point", "coordinates": [-98.4975002, 29.5180072]}},
{"type": "Feature", "id": "tA6NPLGQQv02BQCS0rErnjwdNn0=", "properties": {"ref": "10", "email": "lacantera@konagrill.com", "@spider": "konagrill", "addr:full": "15900 La Cantera Parkway", "addr:city": "San Antonio", "addr:state": "TX", "addr:postcode": "78256", "name": "San Antonio, TX - La Cantera", "phone": "210-877-5355", "website": "https://konagrill.rrtusa.net/#/?restaurantId=404", "opening_hours": "Mo-Th 11:00-23:00; Fr 11:00-00:00; Sa 10:00-00:00; Su 10:00-22:00", "brand": "Kona Grill", "brand:wikidata": "Q6428706"}, "geometry": {"type": "Point", "coordinates": [-98.6109568, 29.5932545]}},
{"type": "Feature", "id": "WRF85vAvIg7NkLkkaJ0Kk8ZVwjk=", "properties": {"ref": "32", "email": "plano@konagrill.com", "@spider": "konagrill", "addr:full": "5973 W. Parker Rd", "addr:city": "Plano", "addr:state": "TX", "addr:postcode": "75093", "name": "Plano, TX", "phone": "214-945-2500", "website": "https://konagrill.rrtusa.net/#/?restaurantId=428", "opening_hours": "Mo-Th 11:00-23:00; Fr 11:00-00:00; Sa 10:00-00:00; Su 10:00-22:00", "brand": "Kona Grill", "brand:wikidata": "Q6428706"}, "geometry": {"type": "Point", "coordinates": [-96.8284957, 33.0457852]}},
{"type": "Feature", "id": "V8nCa4KcZQcfuzvnLBELtgEPH74=", "properties": {"ref": "27", "email": "elpaso@konagrill.com", "@spider": "konagrill", "addr:full": "8889 Gateway Blvd West, Ste. 1740", "addr:city": "El Paso", "addr:state": "TX", "addr:postcode": "79925", "name": "El Paso, TX", "phone": "915-249-3803", "website": "https://konagrill.rrtusa.net/#/?restaurantId=422", "opening_hours": "Mo-Th 11:00-23:00; Fr 11:00-00:00; Sa 10:00-00:00; Su 10:00-22:00", "brand": "Kona Grill", "brand:wikidata": "Q6428706"}, "geometry": {"type": "Point", "coordinates": [-106.371798, 31.7705258]}},
{"type": "Feature", "id": "oDqimcZl7ybFoFw6Xy5s-_HgOOE=", "properties": {"ref": "11", "email": "dallas@konagrill.com", "@spider": "konagrill", "addr:full": "8687 North Central Expy", "addr:city": "Dallas", "addr:state": "TX", "addr:postcode": "75225", "name": "Dallas, TX", "phone": "214-369-7600", "website": "https://konagrill.rrtusa.net/#/?restaurantId=405", "opening_hours": "Mo-Th 11:00-23:00; Fr 11:00-00:00; Sa 10:00-00:00; Su 10:00-22:00", "brand": "Kona Grill", "brand:wikidata": "Q6428706"}, "geometry": {"type": "Point", "coordinates": [-96.7744952, 32.8685678]}}]}