{"type":"FeatureCollection","features":[{"type": "Feature", "id": "AbHQ2lnpy2nOxi2TQHS2-XbMV1c=", "properties": {"ref": "Casa Central", "@spider": "lagenovesa", "addr:full": "Belgrano 1560, Banfield.", "phone": "4248-3306 4248-3009 4248-3608 4248-2383 ", "website": "http://lagenovesasuper.com.ar/index.php/empresa/sucursales", "opening_hours": "Mo-Sa 08:30-21:00; Su 08:00-21:00", "brand": "La Genovesa"}, "geometry": {"type": "Point", "coordinates": [-58.39158219999999, -34.7427828]}},
{"type": "Feature", "id": "EDoZrsgnjIs2vXoi9IetFrFuvBg=", "properties": {"ref": "Nueva Sucursal Lan\u00fas Oeste", "@spider": "lagenovesa", "addr:full": "Cavour 3491, Lan\u00fas Oeste", "phone": "4225-7175 ", "website": "http://lagenovesasuper.com.ar/index.php/empresa/sucursales", "opening_hours": "Mo-Sa 08:00-21:30; Su 08:00-21:00", "brand": "La Genovesa"}},
{"type": "Feature", "id": "FqDCyYy6FnV3FFXIqifL4nsMnwk=", "properties": {"ref": "Lanus Este", "@spider": "lagenovesa", "addr:full": "Oncativo 1942, Lan\u00fas Este.", "phone": "4240-8711 4240-8714 4240-8718 ", "website": "http://lagenovesasuper.com.ar/index.php/empresa/sucursales", "opening_hours": "Mo-Sa 08:00-21:30; Su 08:00-21:00", "brand": "La Genovesa"}},
{"type": "Feature", "id": "zAO_hbLiHGPUs3Y9sdK_5O2YltE=", "properties": {"ref": "Banfield", "@spider": "lagenovesa", "addr:full": "Derqui 1496, barrio Nuevo Banfield Oeste.", "phone": "4202-4717 4288-2426 ", "website": "http://lagenovesasuper.com.ar/index.php/empresa/sucursales", "opening_hours": "Mo-Sa 08:00-13:00; Su 08:00-13:30", "brand": "La Genovesa"}, "geometry": {"type": "Point", "coordinates": [-58.3788806, -34.7451176]}},
{"type": "Feature", "id": "lJSLiRjIMqnIP_RJHfy8MtDRXF4=", "properties": {"ref": "Quilmes", "@spider": "lagenovesa", "addr:full": "Carlos Pellegrini 659, Quilmes Oeste", "phone": "4224-1101 4224-1449 4224-5696 ", "website": "http://lagenovesasuper.com.ar/index.php/empresa/sucursales", "opening_hours": "Mo-Sa 08:00-21:00; Su 08:00-13:30", "brand": "La Genovesa"}, "geometry": {"type": "Point", "coordinates": [-58.26763519999999, -34.7270047]}}]}