{"type":"FeatureCollection","features":[{"type": "Feature", "id": "yxTO1kfBGvRgT2VJsA0spTqW2Zw=", "properties": {"ref": "1168", "@spider": "landsend", "addr:full": "560 North Nimitz Hwy Suite 118", "addr:city": "Honolulu", "addr:state": "HI", "addr:postcode": "96817", "name": "Honolulu School Store", "phone": "808-585-7441", "website": "https://www.landsend.com/pp/StoreLocator?lat=20.6538883744&lng=-157.8631750471&radius=100&S=S&L=L&C=undefined&N=N", "brand": "Lands' End"}, "geometry": {"type": "Point", "coordinates": [-157.869087, 21.315241]}},
{"type": "Feature", "id": "DZxt8_qeme2cZhnILD41Bgn3wJI=", "properties": {"ref": "1172", "@spider": "landsend", "addr:full": "275 W. Kaahumanu Ave. Suite 1009", "addr:city": "Kahului", "addr:state": "HI", "addr:postcode": "96732", "name": "Maui School Uniform Store", "phone": "808-793-2793", "website": "https://www.landsend.com/pp/StoreLocator?lat=20.6538883744&lng=-157.8631750471&radius=100&S=S&L=L&C=undefined&N=N", "brand": "Lands' End"}, "geometry": {"type": "Point", "coordinates": [-156.47443, 20.887724]}},
{"type": "Feature", "id": "-9YKY2zma4i2SiXb7mFijj3_pKE=", "properties": {"ref": "1173", "@spider": "landsend", "addr:full": "111 East Puainako St. Suite 450", "addr:city": "Hilo", "addr:state": "HI", "addr:postcode": "96720", "name": "Hilo School Uniform Store", "phone": "808-333-5967", "website": "https://www.landsend.com/pp/StoreLocator?lat=20.6538883744&lng=-155.3591521171&radius=100&S=S&L=L&C=undefined&N=N", "brand": "Lands' End"}, "geometry": {"type": "Point", "coordinates": [-155.063549, 19.697146]}},
{"type": "Feature", "id": "MwlI0Hnyir5FE3OZUzfvGPZ6VfU=", "properties": {"ref": "1187", "@spider": "landsend", "addr:full": "8190 Park Lane", "addr:city": "Dallas", "addr:state": "TX", "addr:postcode": "75231", "name": "Lands' End at Park Lane", "phone": "(214) 480-3700", "website": "https://www.landsend.com/pp/StoreLocator?lat=32.2719768289&lng=-97.7666247276&radius=100&S=S&L=L&C=undefined&N=N", "brand": "Lands' End"}, "geometry": {"type": "Point", "coordinates": [-96.767903, 32.868503]}},
{"type": "Feature", "id": "HwdDPn3_niVbsl3GVigkaBrcQ8A=", "properties": {"ref": "1184", "@spider": "landsend", "addr:full": " 3211 Preston Rd", "addr:city": "Frisco", "addr:state": "TX", "addr:postcode": "75034", "name": "Lands' End at Preston Ridge", "phone": "(469)-403-2299", "website": "https://www.landsend.com/pp/StoreLocator?lat=32.2719768289&lng=-97.7666247276&radius=100&S=S&L=L&C=undefined&N=N", "brand": "Lands' End"}, "geometry": {"type": "Point", "coordinates": [-96.808972, 33.105242]}},
{"type": "Feature", "id": "fJvX9Imacgo0z7nW3UZEaJcuiX4=", "properties": {"ref": "799", "@spider": "landsend", "addr:full": "820 W 78th Street", "addr:city": "Richfield", "addr:state": "MN", "addr:postcode": "55423", "name": "Richfield Inlet", "phone": "612-861-4100", "website": "https://www.landsend.com/pp/StoreLocator?lat=44.1512314287&lng=-94.0105903326&radius=100&S=S&L=L&C=undefined&N=N", "brand": "Lands' End"}, "geometry": {"type": "Point", "coordinates": [-93.290364, 44.862569]}},
{"type": "Feature", "id": "5_sRuijGoqDhS2mnz0SmiAtX9dE=", "properties": {"ref": "810", "@spider": "landsend", "addr:full": "11210 Wayzata Blvd.", "addr:city": "Minnetonka", "addr:state": "MN", "addr:postcode": "55305", "name": "Minnetonka Inlet", "phone": "952-797-0707", "website": "https://www.landsend.com/pp/StoreLocator?lat=44.1512314287&lng=-94.0105903326&radius=100&S=S&L=L&C=undefined&N=N", "brand": "Lands' End"}, "geometry": {"type": "Point", "coordinates": [-93.42136, 44.973378]}},
{"type": "Feature", "id": "IGfbHyspARdeCJMTySxNe-A4sN8=", "properties": {"ref": "809", "@spider": "landsend", "addr:full": "8362 Tamarack Village", "addr:city": "Woodbury", "addr:state": "MN", "addr:postcode": "55125", "name": "Woodbury Inlet", "phone": "651-714-9000", "website": "https://www.landsend.com/pp/StoreLocator?lat=44.1512314287&lng=-94.0105903326&radius=100&S=S&L=L&C=undefined&N=N", "brand": "Lands' End"}, "geometry": {"type": "Point", "coordinates": [-92.936481, 44.941692]}},
{"type": "Feature", "id": "DzYNVaG3G8QpLWUMY_a5pgJcedE=", "properties": {"ref": "812", "@spider": "landsend", "addr:full": "1209 Joseph St", "addr:city": "Dodgeville", "addr:state": "WI", "addr:postcode": "53533", "name": "Dodgeville Inlet", "phone": "608-935-9053", "website": "https://www.landsend.com/pp/StoreLocator?lat=42.5747973841&lng=-90.2545559376&radius=100&S=S&L=L&C=undefined&N=N", "brand": "Lands' End"}, "geometry": {"type": "Point", "coordinates": [-90.135399, 42.973967]}},
{"type": "Feature", "id": "kpG-RzH_DZRnHHjU9w73A-bzR2o=", "properties": {"ref": "798", "@spider": "landsend", "addr:full": "209 Junction Road", "addr:city": "Madison", "addr:state": "WI", "addr:postcode": "53717", "name": "Prairie Towne Store ", "phone": "608-833-3343", "website": "https://www.landsend.com/pp/StoreLocator?lat=42.5747973841&lng=-90.2545559376&radius=100&S=S&L=L&C=undefined&N=N", "brand": "Lands' End"}, "geometry": {"type": "Point", "coordinates": [-89.526971, 43.063166]}},
{"type": "Feature", "id": "5txZ5NUqb0wjkGYjVARn1Zr22o8=", "properties": {"ref": "813", "@spider": "landsend", "addr:full": "8777 N Port Washington Rd.", "addr:city": "Fox Point", "addr:state": "WI", "addr:postcode": "53217", "name": "Fox Point Store ", "phone": "414-247-8880", "website": "https://www.landsend.com/pp/StoreLocator?lat=44.1512314287&lng=-89.0025444726&radius=100&S=S&L=L&C=undefined&N=N", "brand": "Lands' End"}, "geometry": {"type": "Point", "coordinates": [-87.912916, 43.175961]}},
{"type": "Feature", "id": "UvEKPDregXRe4FRCTIoux_e8Gao=", "properties": {"ref": "814", "@spider": "landsend", "addr:full": "17925 Blue Mound Rd", "addr:city": "Brookfield", "addr:state": "WI", "addr:postcode": "53045", "name": "Brookfield Store ", "phone": "262-879-2000", "website": "https://www.landsend.com/pp/StoreLocator?lat=44.1512314287&lng=-89.0025444726&radius=100&S=S&L=L&C=undefined&N=N", "brand": "Lands' End"}, "geometry": {"type": "Point", "coordinates": [-88.135275, 43.036249]}},
{"type": "Feature", "id": "mjPgN8jKtHItHmuptcTGnx8mnys=", "properties": {"ref": "806", "@spider": "landsend", "addr:full": "266B Yorktown Center - upper level near food court", "addr:city": "Lombard", "addr:state": "IL", "addr:postcode": "60148", "name": "Yorktown Store ", "phone": "(630) 953-8855", "website": "https://www.landsend.com/pp/StoreLocator?lat=40.9574834254&lng=-89.0025444726&radius=100&S=S&L=L&C=undefined&N=N", "brand": "Lands' End"}, "geometry": {"type": "Point", "coordinates": [-88.010401, 41.839824]}},
{"type": "Feature", "id": "3NPss-9jWP0Wvq_KkAY8O0Skhko=", "properties": {"ref": "1169", "@spider": "landsend", "addr:full": "100 Oakbrook Center", "addr:city": "Oak Brook", "addr:state": "IL", "addr:postcode": "60523", "name": "Lands' End at Oakbrook Center", "phone": "(630)-522-7101", "website": "https://www.landsend.com/pp/StoreLocator?lat=40.9574834254&lng=-89.0025444726&radius=100&S=S&L=L&C=undefined&N=N", "brand": "Lands' End"}, "geometry": {"type": "Point", "coordinates": [-87.954497, 41.851048]}},
{"type": "Feature", "id": "YooP0GxdEMgYNZ6Jynn6Q5sDo0k=", "properties": {"ref": "1125", "@spider": "landsend", "addr:full": "20291 N Rand Rd  Suite 101", "addr:city": "Kildeer", "addr:state": "IL", "addr:postcode": "60074", "name": "Kildeer", "phone": "847-796-0774", "website": "https://www.landsend.com/pp/StoreLocator?lat=40.9574834254&lng=-89.0025444726&radius=100&S=S&L=L&C=undefined&N=N", "brand": "Lands' End"}, "geometry": {"type": "Point", "coordinates": [-88.044332, 42.159566]}},
{"type": "Feature", "id": "MsW4ZmPRVM65SnYrbASnXWJnDDo=", "properties": {"ref": "802", "@spider": "landsend", "addr:full": "7205 W Dempster", "addr:city": "Niles", "addr:state": "IL", "addr:postcode": "60714", "name": "Niles Inlet", "phone": "847-470-0320", "website": "https://www.landsend.com/pp/StoreLocator?lat=40.9574834254&lng=-89.0025444726&radius=100&S=S&L=L&C=undefined&N=N", "brand": "Lands' End"}, "geometry": {"type": "Point", "coordinates": [-87.806524, 42.040671]}},
{"type": "Feature", "id": "IcGWuNrkfHQo7nZaNdCIddhYi-M=", "properties": {"ref": "1175", "@spider": "landsend", "addr:full": "3535 28th St. SE ", "addr:city": "Grand Rapids", "addr:state": "MI", "addr:postcode": "49512", "name": "Lands' End at The Shops at Centerpoint", "phone": "(616) 885-9910", "website": "https://www.landsend.com/pp/StoreLocator?lat=44.1512314287&lng=-86.4985215427&radius=100&S=S&L=L&C=undefined&N=N", "brand": "Lands' End"}, "geometry": {"type": "Point", "coordinates": [-85.579774, 42.914747]}},
{"type": "Feature", "id": "iOUxFZ1XbkDgawaRpfvq291SnXo=", "properties": {"ref": "1176", "@spider": "landsend", "addr:full": "43520 West Oaks Drive", "addr:city": "Novi", "addr:state": "MI", "addr:postcode": "48377", "name": "Lands' End at West Oaks Shopping Center", "phone": "(248)-916-9123", "website": "https://www.landsend.com/pp/StoreLocator?lat=42.5747973841&lng=-85.2465100777&radius=100&S=S&L=L&C=undefined&N=N", "brand": "Lands' End"}, "geometry": {"type": "Point", "coordinates": [-83.480626, 42.494709]}},
{"type": "Feature", "id": "y9nWY2l3ENwGrwl7kYoJl9YdWhU=", "properties": {"ref": "1186", "@spider": "landsend", "addr:full": "2715 Edmonson Road", "addr:city": "Cincinnati", "addr:state": "OH", "addr:postcode": "45209", "name": "Rookwood Commons", "phone": "513-250-4702", "website": "https://www.landsend.com/pp/StoreLocator?lat=39.2995512347&lng=-85.2465100777&radius=100&S=S&L=L&C=undefined&N=N", "brand": "Lands' End"}, "geometry": {"type": "Point", "coordinates": [-84.448483, 39.146344]}},
{"type": "Feature", "id": "oFN4cx7zTnSC8kXzrOOlQ7Wv23I=", "properties": {"ref": "1165", "@spider": "landsend", "addr:full": "6254 Northway Drive", "addr:city": "Pittsburgh", "addr:state": "PA", "addr:postcode": "15237", "name": "Lands' End at The Block Northway", "phone": "412-312-6036", "website": "https://www.landsend.com/pp/StoreLocator?lat=40.9574834254&lng=-81.4904756827&radius=100&S=S&L=L&C=undefined&N=N", "brand": "Lands' End"}, "geometry": {"type": "Point", "coordinates": [-80.021071, 40.550376]}},
{"type": "Feature", "id": "hptZg_BrJd7oWsnyfTBoaEVhZF4=", "properties": {"ref": "811", "@spider": "landsend", "addr:full": "2000 Miracle Mile Dr.", "addr:city": "Rochester", "addr:state": "NY", "addr:postcode": "14623", "name": "Rochester Inlet", "phone": "585-424-3500", "website": "https://www.landsend.com/pp/StoreLocator?lat=44.1512314287&lng=-78.9864527527&radius=100&S=S&L=L&C=undefined&N=N", "brand": "Lands' End"}, "geometry": {"type": "Point", "coordinates": [-77.637349, 43.08461]}},
{"type": "Feature", "id": "fcSxKN6t_Y3ziM7SlWbI_8MbskI=", "properties": {"ref": "1178", "@spider": "landsend", "addr:full": "13011 Fair Lakes Shopping Center", "addr:city": "Fairfax", "addr:state": "VA", "addr:postcode": "22033", "name": "Lands' End at Fair Lakes Shopping Center", "phone": "(571)-318-5558", "website": "https://www.landsend.com/pp/StoreLocator?lat=39.2995512347&lng=-77.7344412877&radius=100&S=S&L=L&C=undefined&N=N", "brand": "Lands' End"}, "geometry": {"type": "Point", "coordinates": [-77.390758, 38.857147]}},
{"type": "Feature", "id": "EUQREC6r1ic2jWWZUtjzPqbiubY=", "properties": {"ref": "1174", "@spider": "landsend", "addr:full": "1667 Rockville Pike", "addr:city": "Rockville", "addr:state": "MD", "addr:postcode": "20852", "name": "Lands' End at Congressional Plaza", "phone": "(240)-514-0400", "website": "https://www.landsend.com/pp/StoreLocator?lat=39.2995512347&lng=-77.7344412877&radius=100&S=S&L=L&C=undefined&N=N", "brand": "Lands' End"}, "geometry": {"type": "Point", "coordinates": [-77.126639, 39.061421]}},
{"type": "Feature", "id": "DXSLvBidiKqbsCJZMCTPom-qBTk=", "properties": {"ref": "1148", "@spider": "landsend", "addr:full": "118 Shawan Road, Suite M2", "addr:city": "Cockeysville", "addr:state": "MD", "addr:postcode": "21030", "name": "Lands' End at Hunt Valley Towne Centre", "phone": "410-431-3017", "website": "https://www.landsend.com/pp/StoreLocator?lat=39.2995512347&lng=-77.7344412877&radius=100&S=S&L=L&C=undefined&N=N", "brand": "Lands' End"}, "geometry": {"type": "Point", "coordinates": [-76.655284, 39.498772]}},
{"type": "Feature", "id": "b0WKQMqE4_kXSvz00DtuSmq1YuE=", "properties": {"ref": "1183", "@spider": "landsend", "addr:full": "135 E Swedesford Road", "addr:city": "Exton", "addr:state": "PA", "addr:postcode": "19341", "name": "Fairfield Place", "phone": "(484) 879-2051", "website": "https://www.landsend.com/pp/StoreLocator?lat=40.9574834254&lng=-76.4824298227&radius=100&S=S&L=L&C=undefined&N=N", "brand": "Lands' End"}, "geometry": {"type": "Point", "coordinates": [-75.627958, 40.035557]}},
{"type": "Feature", "id": "OaquS8fN2jrJsIyGXPqgQpzJ7mk=", "properties": {"ref": "1171", "@spider": "landsend", "addr:full": "3168 Fashion Center Boulevard", "addr:city": "Newark", "addr:state": "DE", "addr:postcode": "19702", "name": "Lands' End at Christiana Fashion Center", "phone": "302-356-0570", "website": "https://www.landsend.com/pp/StoreLocator?lat=40.9574834254&lng=-76.4824298227&radius=100&S=S&L=L&C=undefined&N=N", "brand": "Lands' End"}, "geometry": {"type": "Point", "coordinates": [-75.650878, 39.670986]}},
{"type": "Feature", "id": "eLhP-55HYfRRgZF7q9E64UtQ5aQ=", "properties": {"ref": "1170", "@spider": "landsend", "addr:full": "2050 Rte 70 West", "addr:city": "Cherry Hill", "addr:state": "NJ", "addr:postcode": "08002", "name": "Lands' End at Cherry Hill", "phone": "609-249-0250", "website": "https://www.landsend.com/pp/StoreLocator?lat=39.2995512347&lng=-75.2304183578&radius=100&S=S&L=L&C=undefined&N=N", "brand": "Lands' End"}, "geometry": {"type": "Point", "coordinates": [-75.039315, 39.922163]}},
{"type": "Feature", "id": "t_gwnKFsMOwb-lz1UU1zwm9CJlQ=", "properties": {"ref": "1185", "@spider": "landsend", "addr:full": "3371 Brunswick Pike", "addr:city": "Lawrence Township", "addr:state": "NJ", "addr:postcode": "08648", "name": "Lands' End at Mercer Mall", "phone": "(609) 785-6410", "website": "https://www.landsend.com/pp/StoreLocator?lat=39.2995512347&lng=-75.2304183578&radius=100&S=S&L=L&C=undefined&N=N", "brand": "Lands' End"}, "geometry": {"type": "Point", "coordinates": [-74.683665, 40.297118]}},
{"type": "Feature", "id": "p6VtTIEl4DS2kD31VwrxKwZ5ysg=", "properties": {"ref": "1145", "@spider": "landsend", "addr:full": "340 Chimney Rock Road B100", "addr:city": "Bound Brook", "addr:state": "NJ", "addr:postcode": "08805", "name": "Chimney Rock Store", "phone": "732-652-9185", "website": "https://www.landsend.com/pp/StoreLocator?lat=39.2995512347&lng=-75.2304183578&radius=100&S=S&L=L&C=undefined&N=N", "brand": "Lands' End"}, "geometry": {"type": "Point", "coordinates": [-74.559252, 40.576897]}},
{"type": "Feature", "id": "A7Z8UtjuNVsuPYlQ9JK1jmOvng4=", "properties": {"ref": "1146", "@spider": "landsend", "addr:full": "400 Bergen Town Center", "addr:city": "Paramus", "addr:state": "NJ", "addr:postcode": "07652", "name": "Lands' End at Bergen Town Center", "phone": "201-518-9439", "website": "https://www.landsend.com/pp/StoreLocator?lat=40.9574834254&lng=-73.9784068928&radius=100&S=S&L=L&C=undefined&N=N", "brand": "Lands' End"}, "geometry": {"type": "Point", "coordinates": [-74.05855, 40.914549]}},
{"type": "Feature", "id": "QImTPmqUJG0B-hH0BFA4YfuJOH4=", "properties": {"ref": "1177", "@spider": "landsend", "addr:full": "980 Old Country Road", "addr:city": "Garden City", "addr:state": "NY", "addr:postcode": "11530", "name": "Lands' End at The Gallery at Westbury Plaza", "phone": "(516) 394-9060", "website": "https://www.landsend.com/pp/StoreLocator?lat=40.9574834254&lng=-73.9784068928&radius=100&S=S&L=L&C=undefined&N=N", "brand": "Lands' End"}, "geometry": {"type": "Point", "coordinates": [-73.604635, 40.742976]}},
{"type": "Feature", "id": "-zJJpI8y22hli78pZKoz-bDNLnQ=", "properties": {"ref": "1144", "@spider": "landsend", "addr:full": "2655 Richmond Avenue Suite 1510", "addr:city": "Staten Island", "addr:state": "NY", "addr:postcode": "10314", "name": "Staten Island Store", "phone": "917-636-4025", "website": "https://www.landsend.com/pp/StoreLocator?lat=40.9574834254&lng=-73.9784068928&radius=100&S=S&L=L&C=undefined&N=N", "brand": "Lands' End"}, "geometry": {"type": "Point", "coordinates": [-74.167595, 40.582005]}},
{"type": "Feature", "id": "HqBbUi7pbd-lcy5SR-HfEehnTYQ=", "properties": {"ref": "1129", "@spider": "landsend", "addr:full": "75 Middlesex Turnpike #1002", "addr:city": "Burlington", "addr:state": "MA", "addr:postcode": "01803", "name": "Burlington", "phone": "781-203-7922", "website": "https://www.landsend.com/pp/StoreLocator?lat=42.5747973841&lng=-72.7263954278&radius=100&S=S&L=L&C=undefined&N=N", "brand": "Lands' End"}, "geometry": {"type": "Point", "coordinates": [-71.21614, 42.483398]}}]}