{"type":"FeatureCollection","features":[{"type": "Feature", "id": "Y6vyyf_00_GyQMty02x4_LuhRtM=", "properties": {"ref": "https://www.langhamhotels.com/en/the-langham/shanghai/", "@spider": "langham", "addr:full": "99 Madang Road Xintiandi", "addr:postcode": "200021", "addr:country": "China", "name": "The Langham, Shanghai, Xintiandi", "phone": "86 (21) 2330 2288"}, "geometry": {"type": "Point", "coordinates": [121.474298, 31.221802]}},
{"type": "Feature", "id": "H6-XxuHqMgAANQUnzohbQdHaOaI=", "properties": {"ref": "https://www.langhamhotels.com/en/the-langham/shenzhen/", "@spider": "langham", "addr:full": "7888 Shennan Boulevard Futian District", "addr:postcode": "518040", "addr:country": "China", "name": "The Langham, Shenzhen", "phone": "86 (755) 8828 9888"}, "geometry": {"type": "Point", "coordinates": [114.020597, 22.536179]}},
{"type": "Feature", "id": "ipXmvXShJ-K1Pfh-eAsGQCrYEwA=", "properties": {"ref": "https://www.langhamhotels.com/en/the-langham/hong-kong/", "@spider": "langham", "addr:full": "8 Peking Road Tsim Sha Tsui", "addr:country": "Hong Kong", "name": "The Langham, Hong Kong", "phone": "(852) 2375 1133"}, "geometry": {"type": "Point", "coordinates": [114.169601, 22.29669]}},
{"type": "Feature", "id": "CqnfeWfTvKK4zn3-awp_WUFfwM0=", "properties": {"ref": "https://www.langhamhotels.com/en/the-langham/hefei/", "@spider": "langham", "addr:full": "No.200 Huaining Road Zhengwu District", "addr:country": "China", "name": "The Langham, Hefei", "phone": "86 (551) 6568 8888"}},
{"type": "Feature", "id": "15N4M5-lBNre6ER4I25Ieq-le5w=", "properties": {"ref": "https://www.langhamhotels.com/en/the-langham/pasadena/", "@spider": "langham", "addr:full": "1401 S Oak Knoll Ave", "addr:postcode": "91106", "addr:country": "USA", "name": "The Langham, Huntington Pasadena", "phone": "1 (626) 568 3900"}, "geometry": {"type": "Point", "coordinates": [-118.133713, 34.121525]}},
{"type": "Feature", "id": "xKWfr3X-GW0UfkJZzxmTpF15OIM=", "properties": {"ref": "https://www.langhamhotels.com/en/the-langham/new-york/", "@spider": "langham", "addr:full": "400 Fifth Avenue", "addr:postcode": "10018", "addr:country": "USA", "name": "The Langham, New York, Fifth Avenue", "phone": "1 (212) 695 4005"}, "geometry": {"type": "Point", "coordinates": [-73.98373, 40.750196]}},
{"type": "Feature", "id": "uHuJcrGf9hTXGI8ACMS_uCmkhHM=", "properties": {"ref": "https://www.langhamhotels.com/en/the-langham/chicago/", "@spider": "langham", "addr:full": "330 N Wabash Ave", "addr:postcode": "60611", "addr:country": "USA", "name": "The Langham, Chicago", "phone": "1 (312) 923 9988"}, "geometry": {"type": "Point", "coordinates": [-87.62746, 41.88865]}},
{"type": "Feature", "id": "XN5LB0IjWFP6naD8nQBbKJYT64U=", "properties": {"ref": "https://www.langhamhotels.com/en/the-langham/melbourne/", "@spider": "langham", "addr:full": "1 Southgate Avenue Southbank", "addr:postcode": "3006", "addr:country": "Australia", "name": "The Langham, Melbourne", "phone": "61 (3) 8696 8888"}, "geometry": {"type": "Point", "coordinates": [144.9657, -37.82045]}},
{"type": "Feature", "id": "ilMk88I8IR7Fl95Q_fvPZyy-7NM=", "properties": {"ref": "https://www.langhamhotels.com/en/the-langham/sydney/", "@spider": "langham", "addr:full": "89-113 Kent Street Millers Point", "addr:postcode": "2000", "addr:country": "Australia", "name": "The Langham, Sydney", "phone": "61 (2) 9256 2222"}, "geometry": {"type": "Point", "coordinates": [151.20345, -33.86052]}},
{"type": "Feature", "id": "hYyDpqkgr3bbulHCCne1kKi4vHw=", "properties": {"ref": "https://www.langhamhotels.com/en/the-langham/london/", "@spider": "langham", "addr:full": "1C Portland Place Regent Street", "addr:postcode": "W1B 1JA", "addr:country": "UK", "name": "The Langham, London", "phone": "44 (0) 20 7636 1000"}, "geometry": {"type": "Point", "coordinates": [-0.143532, 51.517609]}}]}