{"type":"FeatureCollection","features":[{"type": "Feature", "id": "nMnohgBPplQO42CWMDUfkUvLnm0=", "properties": {"ref": "arizona-dove-mountain", "@spider": "marriott", "addr:full": "15000 North Secret Springs Drive", "addr:city": "Marana", "addr:state": "AZ", "addr:postcode": "85658", "addr:country": "United States", "name": "The Ritz-Carlton Dove Mountain", "phone": "+15205723000", "website": "https://www.ritzcarlton.com/en/hotels/arizona/dove-mountain", "brand": "Ritz-Carlton"}, "geometry": {"type": "Point", "coordinates": [-111.100096, 32.467144]}},
{"type": "Feature", "id": "JsKW7Q3ZqAteWA0Qf3U0HiqRXCM=", "properties": {"ref": "arizona-paradise-valley", "@spider": "marriott", "addr:full": "7000 East Lincoln Drive", "addr:city": "Scottsdale", "addr:state": "Arizona", "addr:postcode": "85253", "addr:country": "United States", "name": "The Ritz-Carlton Paradise Valley ", "phone": "602-922-2900", "website": "https://www.ritzcarlton.com/en/hotels/arizona/paradise-valley", "brand": "Ritz-Carlton"}, "geometry": {"type": "Point", "coordinates": [-111.92763, 33.53199]}},
{"type": "Feature", "id": "y5dwjbLgGUC8ANX_QB22cuNaMEk=", "properties": {"ref": "california-half-moon-bay", "@spider": "marriott", "addr:full": "1 Miramontes Point Road", "addr:city": "Half Moon Bay", "addr:state": "California", "addr:postcode": "94019", "addr:country": "United States", "name": "The Ritz-Carlton Half Moon Bay", "phone": "1 (650) 712-7000", "website": "https://www.ritzcarlton.com/en/hotels/california/half-moon-bay", "brand": "Ritz-Carlton"}, "geometry": {"type": "Point", "coordinates": [-122.42552, 37.431683]}},
{"type": "Feature", "id": "6mfgz2tIyz6xQI7aLpZlSkTObM8=", "properties": {"ref": "california-laguna-niguel", "@spider": "marriott", "addr:full": "One Ritz-Carlton Drive", "addr:city": "Dana Point", "addr:state": "California", "addr:postcode": "92629", "addr:country": "United States", "name": "The Ritz-Carlton Laguna Niguel", "phone": "1 (949) 240-2000", "website": "https://www.ritzcarlton.com/en/hotels/california/laguna-niguel", "brand": "Ritz-Carlton"}, "geometry": {"type": "Point", "coordinates": [-117.71979522705, 33.4759979248046]}},
{"type": "Feature", "id": "9SNcMjXgpp4VHu8R1kHBpsr7Jnc=", "properties": {"ref": "california-lake-tahoe", "@spider": "marriott", "addr:full": "13031 Ritz-Carlton Highlands Court", "addr:city": "Truckee", "addr:state": "California", "addr:postcode": "96161", "addr:country": "United States", "name": "The Ritz-Carlton Lake Tahoe", "phone": "+1 (530) 562-3000", "website": "https://www.ritzcarlton.com/en/hotels/california/lake-tahoe", "brand": "Ritz-Carlton"}, "geometry": {"type": "Point", "coordinates": [-120.107675, 39.284489]}},
{"type": "Feature", "id": "NIC-rmn0ECQcLtQ_wEA9bPK571M=", "properties": {"ref": "california-los-angeles", "@spider": "marriott", "addr:full": "900 W Olympic Blvd", "addr:city": "Los Angeles", "addr:state": "CA", "addr:postcode": "90015", "addr:country": "United States", "name": "The Ritz-Carlton Los Angeles", "phone": "+1 (213) 743-8800", "website": "https://www.ritzcarlton.com/en/hotels/california/los-angeles", "brand": "Ritz-Carlton"}, "geometry": {"type": "Point", "coordinates": [-118.265777, 34.045474]}},
{"type": "Feature", "id": "tGqTBS3bQIBs7d4nO2oo8deo6HU=", "properties": {"ref": "california-marina-del-rey", "@spider": "marriott", "addr:full": "4375 Admiralty Way", "addr:city": "Marina del Rey", "addr:state": "California", "addr:postcode": "90292", "addr:country": "United States", "name": "The Ritz-Carlton Marina del Rey", "phone": "+1 (310) 823-1700", "website": "https://www.ritzcarlton.com/en/hotels/california/marina-del-rey", "brand": "Ritz-Carlton"}, "geometry": {"type": "Point", "coordinates": [-118.45125579833, 33.984691619873]}},
{"type": "Feature", "id": "WFZCZ0ebN1CVWMvpeHL16mcmxVo=", "properties": {"ref": "california-rancho-mirage", "@spider": "marriott", "addr:full": "68900 Frank Sinatra Drive", "addr:city": "Rancho Mirage", "addr:state": "California", "addr:postcode": "92270", "addr:country": "United States", "name": "The Ritz-Carlton Rancho Mirage", "phone": "+1 (760) 321-8282", "website": "https://www.ritzcarlton.com/en/hotels/california/rancho-mirage", "brand": "Ritz-Carlton"}, "geometry": {"type": "Point", "coordinates": [-116.458386, 33.766673]}},
{"type": "Feature", "id": "CplyAt5Y8zc-VAQoLnmK3XgOcrw=", "properties": {"ref": "california-san-francisco", "@spider": "marriott", "addr:full": "600 Stockton Street", "addr:city": "San Francisco", "addr:state": "California", "addr:postcode": "94108", "addr:country": "United States", "name": "The Ritz-Carlton San Francisco", "phone": "+1 (415) 296-7465", "website": "https://www.ritzcarlton.com/en/hotels/california/san-francisco", "brand": "Ritz-Carlton"}, "geometry": {"type": "Point", "coordinates": [-122.40728, 37.791447]}},
{"type": "Feature", "id": "rsMNqMUtZn2ynztO6kirLu56d-A=", "properties": {"ref": "california-santa-barbara", "@spider": "marriott", "addr:full": "8301 Hollister Avenue", "addr:city": "Santa Barbara", "addr:state": "California", "addr:postcode": "93117", "addr:country": "United States", "name": "The Ritz-Carlton Santa Barbara", "phone": "+1 (805) 968 0100", "website": "https://www.ritzcarlton.com/en/hotels/california/santa-barbara", "brand": "Ritz-Carlton"}, "geometry": {"type": "Point", "coordinates": [-119.9220388, 34.4339879]}},
{"type": "Feature", "id": "iacpz0mSOn02T3fJgQrADB45LbM=", "properties": {"ref": "colorado-bachelor-gulch", "@spider": "marriott", "addr:full": "0130 Daybreak Ridge, P.O. Box 9190", "addr:city": "Avon", "addr:state": "CO", "addr:postcode": "81620", "addr:country": "United States", "name": "The Ritz-Carlton Bachelor Gulch", "phone": "+1 (970) 748-6200", "website": "https://www.ritzcarlton.com/en/hotels/colorado/bachelor-gulch", "brand": "Ritz-Carlton"}, "geometry": {"type": "Point", "coordinates": [-106.540728, 39.622746]}},
{"type": "Feature", "id": "ic6Msyh9xxwSwcmo7ut867qBb2Q=", "properties": {"ref": "colorado-denver", "@spider": "marriott", "addr:full": "1881 Curtis Street", "addr:city": "Denver", "addr:state": "CO", "addr:postcode": "80202", "addr:country": "United States", "name": "The Ritz-Carlton Denver", "phone": "+1 (303) 312-3800", "website": "https://www.ritzcarlton.com/en/hotels/colorado/denver", "brand": "Ritz-Carlton"}, "geometry": {"type": "Point", "coordinates": [-104.99138, 39.749833]}},
{"type": "Feature", "id": "j6eLnqwL96qoagIotH0p4Gg6FXQ=", "properties": {"ref": "colorado-vail", "@spider": "marriott", "addr:full": "728 West Lionshead Circle", "addr:city": "Vail", "addr:state": "Colorado", "addr:postcode": "81657", "addr:country": "United States", "name": "Vail", "phone": "+19704773700", "website": "https://www.ritzcarlton.com/en/hotels/colorado/vail", "brand": "Ritz-Carlton"}, "geometry": {"type": "Point", "coordinates": [-106.391473, 39.643302]}},
{"type": "Feature", "id": "XwyKvFz1A7kSPmltkn_QQ4kHGMM=", "properties": {"ref": "florida-amelia-island", "@spider": "marriott", "addr:full": "4750 Amelia Island Parkway", "addr:city": "Amelia Island", "addr:state": "Florida", "addr:postcode": "32034", "addr:country": "United States", "name": "The Ritz-Carlton Amelia Island", "phone": "+19042771100", "website": "https://www.ritzcarlton.com/en/hotels/florida/amelia-island", "brand": "Ritz-Carlton"}, "geometry": {"type": "Point", "coordinates": [-81.44075012207, 30.5419445037841]}},
{"type": "Feature", "id": "GwlXLLNcWXyLQhITgm3msnXoOgk=", "properties": {"ref": "miami-bal-harbour", "@spider": "marriott", "addr:full": "10295 Collins Avenue", "addr:city": "Bal Harbour", "addr:state": "Florida", "addr:postcode": "33154", "addr:country": "United States", "name": "The Ritz-Carlton Bal Harbour, Miami", "phone": "(305) 455-5400", "website": "https://www.ritzcarlton.com/en/hotels/miami/bal-harbour", "brand": "Ritz-Carlton"}, "geometry": {"type": "Point", "coordinates": [-80.1239, 25.898738]}},
{"type": "Feature", "id": "XZ6SUukl2jsFj6gHLZvXhGnSDV4=", "properties": {"ref": "miami-coconut-grove", "@spider": "marriott", "addr:full": "3300 Southwest Twenty-seventh Avenue", "addr:city": "Miami", "addr:state": "FL", "addr:postcode": "33133", "addr:country": "United States", "name": "The Ritz-Carlton Coconut Grove, Miami", "phone": "+13056444680", "website": "https://www.ritzcarlton.com/en/hotels/miami/coconut-grove", "brand": "Ritz-Carlton"}, "geometry": {"type": "Point", "coordinates": [-80.237671, 25.731483]}},
{"type": "Feature", "id": "aqF9-1siwvDHEwWB-DV3bOu5Ew4=", "properties": {"ref": "florida-fort-lauderdale", "@spider": "marriott", "addr:full": "1 North Fort Lauderdale Beach Boulevard", "addr:city": "Fort Lauderdale", "addr:state": "FL", "addr:postcode": "33304", "addr:country": "United States", "name": "The Ritz-Carlton Fort Lauderdale", "phone": "+19544652300", "website": "https://www.ritzcarlton.com/en/hotels/florida/fort-lauderdale", "brand": "Ritz-Carlton"}, "geometry": {"type": "Point", "coordinates": [-80.104097, 26.122631]}},
{"type": "Feature", "id": "NOk0XNjcIg4nn8q16zJYQxG_F3o=", "properties": {"ref": "miami-key-biscayne", "@spider": "marriott", "addr:full": "455 Grand Bay Dr.", "addr:city": "Miami", "addr:state": "FL", "addr:postcode": "33149", "addr:country": "United States", "name": "The Ritz-Carlton Key Biscayne, Miami", "phone": "+13053654500", "website": "https://www.ritzcarlton.com/en/hotels/miami/key-biscayne", "brand": "Ritz-Carlton"}, "geometry": {"type": "Point", "coordinates": [-80.162717, 25.6918851]}},
{"type": "Feature", "id": "bNb4hKuobHqdQ14T7ChzooRO28s=", "properties": {"ref": "naples-naples-beach", "@spider": "marriott", "addr:full": "280 Vanderbilt Beach Rd.", "addr:city": "Naples", "addr:state": "FL", "addr:postcode": "34108", "addr:country": "United States", "name": "The Ritz-Carlton Naples", "phone": "+12395983300", "website": "https://www.ritzcarlton.com/en/hotels/naples/naples-beach", "brand": "Ritz-Carlton"}, "geometry": {"type": "Point", "coordinates": [-81.820487976074, 26.2530803680419]}},
{"type": "Feature", "id": "XHnZtIfXnw6tu6ARavCgWWVCRuQ=", "properties": {"ref": "naples-naples-golf", "@spider": "marriott", "addr:full": "2600 Tiburon Drive", "addr:city": "Naples", "addr:state": "FL", "addr:postcode": "34109", "addr:country": "United States", "name": "The Ritz-Carlton Naples Golf", "phone": "+12395932000", "website": "https://www.ritzcarlton.com/en/hotels/naples/naples-golf", "brand": "Ritz-Carlton"}, "geometry": {"type": "Point", "coordinates": [-81.767888, 26.249098]}},
{"type": "Feature", "id": "xo3Zxouf7JnUVBmN2ojqgWVFQ0o=", "properties": {"ref": "florida-orlando", "@spider": "marriott", "addr:full": "4012 Central Florida Parkway", "addr:city": "Orlando", "addr:state": "FL", "addr:postcode": "32837", "addr:country": "United States", "name": "The Ritz-Carlton Orlando", "phone": "+1 (407) 206-2400", "website": "https://www.ritzcarlton.com/en/hotels/florida/orlando", "brand": "Ritz-Carlton"}, "geometry": {"type": "Point", "coordinates": [-81.424057, 28.410082]}},
{"type": "Feature", "id": "1_uV4sae9dkTOytf5hOzXAb8rnA=", "properties": {"ref": "florida-sarasota", "@spider": "marriott", "addr:full": "1111 Ritz-Carlton Drive", "addr:city": "Sarasota", "addr:state": "FL", "addr:postcode": "34236", "addr:country": "United States", "name": "The Ritz-Carlton Sarasota", "phone": "+19413092000", "website": "https://www.ritzcarlton.com/en/hotels/florida/sarasota", "brand": "Ritz-Carlton"}, "geometry": {"type": "Point", "coordinates": [-82.548484, 27.337632]}},
{"type": "Feature", "id": "u79upUuc3HAfC-wChhudRR2cTuA=", "properties": {"ref": "miami-south-beach", "@spider": "marriott", "addr:full": "1 Lincoln Road", "addr:city": "Miami Beach", "addr:state": "FL", "addr:postcode": "33139", "addr:country": "United States", "name": "The Ritz-Carlton South Beach", "phone": "+17862764000", "website": "https://www.ritzcarlton.com/en/hotels/miami/south-beach", "brand": "Ritz-Carlton"}, "geometry": {"type": "Point", "coordinates": [-80.128964, 25.7909251]}},
{"type": "Feature", "id": "HP6xpAuLaOABZru7cQbVhvlDlR4=", "properties": {"ref": "georgia-atlanta", "@spider": "marriott", "addr:full": "181 Peachtree Street, N.E.", "addr:city": "Atlanta", "addr:state": "GA", "addr:postcode": "30303", "addr:country": "United States", "name": "The Ritz-Carlton Atlanta", "phone": "+14046590400", "website": "https://www.ritzcarlton.com/en/hotels/georgia/atlanta", "brand": "Ritz-Carlton"}, "geometry": {"type": "Point", "coordinates": [-84.386604309082, 33.7634201049804]}},
{"type": "Feature", "id": "A25jdTOrAVIBjs5w0RjIhlMm9oo=", "properties": {"ref": "georgia-reynolds", "@spider": "marriott", "addr:full": "1 Lake Oconee Trail", "addr:city": "Greensboro", "addr:state": "GA", "addr:postcode": "30642", "addr:country": "United States", "name": "The Ritz-Carlton Reynolds, Lake Oconee", "phone": "+17064670600", "website": "https://www.ritzcarlton.com/en/hotels/georgia/reynolds", "brand": "Ritz-Carlton"}, "geometry": {"type": "Point", "coordinates": [-83.194186, 33.438987]}},
{"type": "Feature", "id": "oNetWD2ywjgCJ_wq3snTm-O3rsA=", "properties": {"ref": "hotels-kapalua-maui", "@spider": "marriott", "addr:full": "1 Ritz-Carlton Drive", "addr:city": "Kapalua", "addr:state": "HI", "addr:postcode": "96761", "addr:country": "United States", "name": "The Ritz-Carlton Kapalua", "phone": "+1 (808) 669-6200", "website": "https://www.ritzcarlton.com/en/hotels/kapalua-maui", "brand": "Ritz-Carlton"}, "geometry": {"type": "Point", "coordinates": [-156.66473388671, 21.0004005432128]}},
{"type": "Feature", "id": "WYKqi4YMP7ai6tko8NhwIRUdObA=", "properties": {"ref": "hawaii-waikiki", "@spider": "marriott", "addr:full": "383 Kalaimoku Street", "addr:city": "Waikiki Beach", "addr:state": "HI", "addr:postcode": "96815", "addr:country": "United States", "name": "Waikiki Beach", "phone": "+1 (808) 922-8111", "website": "https://www.ritzcarlton.com/en/hotels/hawaii/waikiki", "brand": "Ritz-Carlton"}, "geometry": {"type": "Point", "coordinates": [-157.830469, 21.282114]}},
{"type": "Feature", "id": "Izz0pdZIs85ohKJp9tnoAHFayiM=", "properties": {"ref": "hotels-chicago", "@spider": "marriott", "addr:full": "160 East Pearson Street at Water Tower Place", "addr:city": "Chicago", "addr:state": "IL", "addr:postcode": "60611", "addr:country": "United States", "name": "The Ritz-Carlton Chicago", "phone": "+1 (312) 266-1000", "website": "https://www.ritzcarlton.com/en/hotels/chicago", "brand": "Ritz-Carlton"}, "geometry": {"type": "Point", "coordinates": [-87.622561, 41.897722]}},
{"type": "Feature", "id": "uR5NYIt6TuCuFjQ2h8dQCS1fxNg=", "properties": {"ref": "hotels-new-orleans", "@spider": "marriott", "addr:full": "921 Canal Street", "addr:city": "New Orleans", "addr:state": "LA", "addr:postcode": "70112", "addr:country": "United States", "name": "The Ritz-Carlton New Orleans", "phone": "+1 (504) 524-1331", "website": "https://www.ritzcarlton.com/en/hotels/new-orleans", "brand": "Ritz-Carlton"}, "geometry": {"type": "Point", "coordinates": [-90.071053, 29.954464]}},
{"type": "Feature", "id": "iQWjMxyUZdPZplN0t2cJYi5psyc=", "properties": {"ref": "hotels-boston", "@spider": "marriott", "addr:full": "10 Avery Street", "addr:city": "Boston", "addr:state": "MA", "addr:postcode": "02111", "addr:country": "United States", "name": "The Ritz-Carlton Boston", "phone": "+16175747100", "website": "https://www.ritzcarlton.com/en/hotels/boston", "brand": "Ritz-Carlton"}, "geometry": {"type": "Point", "coordinates": [-71.063194, 42.353165]}},
{"type": "Feature", "id": "k7HVaJP_BNN71enFmIUeIGbdlXA=", "properties": {"ref": "hotels-st-louis", "@spider": "marriott", "addr:full": "100 Carondelet Plaza", "addr:city": "St. Louis", "addr:state": "MO", "addr:postcode": "63105", "addr:country": "United States", "name": "The Ritz-Carlton St. Louis", "phone": "+1 (314) 863-6300", "website": "https://www.ritzcarlton.com/en/hotels/st-louis", "brand": "Ritz-Carlton"}, "geometry": {"type": "Point", "coordinates": [-90.334030151367, 38.6486511230468]}},
{"type": "Feature", "id": "soJq0yFTUDTpU036dVpQePzEUUw=", "properties": {"ref": "new-york-central-park", "@spider": "marriott", "addr:full": "50 Central Park South", "addr:city": "New York", "addr:state": "NY", "addr:postcode": "10019", "addr:country": "United States", "name": "The Ritz-Carlton New York, Central Park", "phone": "+12123089100", "website": "https://www.ritzcarlton.com/en/hotels/new-york/central-park", "brand": "Ritz-Carlton"}, "geometry": {"type": "Point", "coordinates": [-73.974989, 40.7650261]}},
{"type": "Feature", "id": "-8Sc8tPSE-NaligHOA0LdOU8p1I=", "properties": {"ref": "new-york-nomad", "@spider": "marriott", "addr:full": "25 West 28th Street", "addr:city": "New York", "addr:state": "New York", "addr:postcode": "10001", "addr:country": "United States", "name": "The Ritz-Carlton New York, NoMad", "phone": "+1 (212) 404 8400", "website": "https://www.ritzcarlton.com/en/hotels/new-york/nomad", "brand": "Ritz-Carlton"}, "geometry": {"type": "Point", "coordinates": [-73.988735, 40.745354]}},
{"type": "Feature", "id": "GrXyJ6zEYXNepifLpWf7b4t6yhM=", "properties": {"ref": "hotels-charlotte", "@spider": "marriott", "addr:full": "201 East Trade Street", "addr:city": "Charlotte", "addr:state": "NC", "addr:postcode": "28202", "addr:country": "United States", "name": "The Ritz-Carlton Charlotte", "phone": "+17045472244", "website": "https://www.ritzcarlton.com/en/hotels/charlotte", "brand": "Ritz-Carlton"}, "geometry": {"type": "Point", "coordinates": [-80.841894, 35.226219]}},
{"type": "Feature", "id": "brC4qZ_wOG1A3oQcBmxhjweU-oU=", "properties": {"ref": "hotels-cleveland", "@spider": "marriott", "addr:full": "1515 West Third Street", "addr:city": "Cleveland", "addr:state": "OH", "addr:postcode": "44113", "addr:country": "United States", "name": "The Ritz-Carlton Cleveland", "phone": "+1 (216) 623-1300", "website": "https://www.ritzcarlton.com/en/hotels/cleveland", "brand": "Ritz-Carlton"}, "geometry": {"type": "Point", "coordinates": [-81.694672, 41.497425]}},
{"type": "Feature", "id": "w1fDOx0YGc7rg8dX3zw_fdqrEHA=", "properties": {"ref": "canada-toronto", "@spider": "marriott", "addr:full": "181 Wellington Street West", "addr:city": "Toronto", "addr:postcode": "ON M5V 3G7", "addr:country": "Canada", "name": "The Ritz-Carlton Toronto", "phone": "+1 (416) 585-2500", "website": "https://www.ritzcarlton.com/en/hotels/canada/toronto", "brand": "Ritz-Carlton"}, "geometry": {"type": "Point", "coordinates": [-79.386975, 43.645718]}},
{"type": "Feature", "id": "KF_iIXiCY6UDQmz3E_V8Taq4iQ8=", "properties": {"ref": "hotels-philadelphia", "@spider": "marriott", "addr:full": "10 Avenue of the Arts", "addr:city": "Philadelphia", "addr:state": "PA", "addr:postcode": "19102", "addr:country": "United States", "name": "The Ritz-Carlton Philadelphia", "phone": "+12155238000", "website": "https://www.ritzcarlton.com/en/hotels/philadelphia", "brand": "Ritz-Carlton"}, "geometry": {"type": "Point", "coordinates": [-75.16525, 39.9521]}},
{"type": "Feature", "id": "njR4936qYfBS9RdFiDQFDaO5ENc=", "properties": {"ref": "hotels-dallas", "@spider": "marriott", "addr:full": "2121 McKinney Avenue", "addr:city": "Dallas", "addr:state": "TX", "addr:postcode": "75201", "addr:country": "United States", "name": "The Ritz-Carlton Dallas", "phone": "+1 (214) 922-0200", "website": "https://www.ritzcarlton.com/en/hotels/dallas", "brand": "Ritz-Carlton"}, "geometry": {"type": "Point", "coordinates": [-96.803214, 32.791854]}},
{"type": "Feature", "id": "cemspZNlpeFslu9ATAXuI7WAvhY=", "properties": {"ref": "washington-dc-georgetown", "@spider": "marriott", "addr:full": "3100 South Street NW", "addr:city": "Washington", "addr:state": "DC", "addr:postcode": "20007", "addr:country": "United States", "name": "The Ritz-Carlton Georgetown, Washington, D.C.", "phone": "+12029124100", "website": "https://www.ritzcarlton.com/en/hotels/washington-dc/georgetown", "brand": "Ritz-Carlton"}, "geometry": {"type": "Point", "coordinates": [-77.061275, 38.903263]}},
{"type": "Feature", "id": "AaDE-NbghTquPVqUlMxRXMphFMA=", "properties": {"ref": "washington-dc-pentagon-city", "@spider": "marriott", "addr:full": "1250 South Hayes Street", "addr:city": "Arlington", "addr:state": "VA", "addr:postcode": "22202", "addr:country": "United States", "name": "The Ritz-Carlton Pentagon City", "phone": "+17034155000", "website": "https://www.ritzcarlton.com/en/hotels/washington-dc/pentagon-city", "brand": "Ritz-Carlton"}, "geometry": {"type": "Point", "coordinates": [-77.05940246582, 38.8635292053222]}},
{"type": "Feature", "id": "sWpBAwchI4-8iFyOTr1L1-xEjTI=", "properties": {"ref": "washington-dc-tysons-corner", "@spider": "marriott", "addr:full": "1700 Tysons Boulevard", "addr:city": "McLean", "addr:state": "VA", "addr:postcode": "22102", "addr:country": "United States", "name": "The Ritz-Carlton Tysons Corner", "phone": "+17035064300", "website": "https://www.ritzcarlton.com/en/hotels/washington-dc/tysons-corner", "brand": "Ritz-Carlton"}, "geometry": {"type": "Point", "coordinates": [-77.22386932373, 38.9258766174316]}},
{"type": "Feature", "id": "v2v-QHrp3TWdHnNviiBfCTnXz6M=", "properties": {"ref": "washington-dc-dc", "@spider": "marriott", "addr:full": "1150 22nd Street, N.W.", "addr:city": "Washington", "addr:state": "DC", "addr:postcode": "20037", "addr:country": "United States", "name": "The Ritz-Carlton Washington, D.C.", "phone": "+12028350500", "website": "https://www.ritzcarlton.com/en/hotels/washington-dc/dc", "brand": "Ritz-Carlton"}, "geometry": {"type": "Point", "coordinates": [-77.049034, 38.904434]}},
{"type": "Feature", "id": "szGJPpf5ZzDTTNGGsuMkhnSgdcE=", "properties": {"ref": "california-west-hollywood-edition", "@spider": "marriott", "addr:full": "9040 West Sunset Blvd West Hollywood,", "addr:city": "Los Angeles", "addr:state": "California", "addr:postcode": "90069", "addr:country": "United States", "name": "The West Hollywood EDITION", "phone": "+1 310 9539899", "website": "https://www.ritzcarlton.com/en/hotels/california/west-hollywood-edition", "brand": "Ritz-Carlton"}, "geometry": {"type": "Point", "coordinates": [118389079.0, 34.090629]}},
{"type": "Feature", "id": "3km8FUecXP_Unm4nkdqRfy4O6i4=", "properties": {"ref": "miami-miami-beach-edition", "@spider": "marriott", "addr:full": "2901 Collins Avenue", "addr:city": "Miami Beach", "addr:state": "FL", "addr:postcode": "33140", "addr:country": "United States", "name": "The Miami Beach EDITION", "phone": "+17862574500", "website": "https://www.ritzcarlton.com/en/hotels/miami/miami-beach-edition", "brand": "Ritz-Carlton"}, "geometry": {"type": "Point", "coordinates": [-80.124441, 25.805003]}},
{"type": "Feature", "id": "LxDHH6g9TOcJqQt0b802JnveRH0=", "properties": {"ref": "new-york-new-york-edition", "@spider": "marriott", "addr:full": "5 Madison Avenue", "addr:city": "New York", "addr:state": "NY", "addr:postcode": "10010", "addr:country": "United States", "name": "The New York EDITION", "phone": "+12124134200", "website": "https://www.ritzcarlton.com/en/hotels/new-york/new-york-edition", "brand": "Ritz-Carlton"}, "geometry": {"type": "Point", "coordinates": [-73.987792, 40.741192]}},
{"type": "Feature", "id": "UKXjMmiOAgkxYQEW5Eq-N0tyiX8=", "properties": {"ref": "new-york-times-square-edition", "@spider": "marriott", "addr:full": "20 Times Square, 701 7th Avenue", "addr:city": "New York", "addr:state": "NY", "addr:postcode": "10036", "addr:country": "United States", "name": "The Times Square EDITION", "phone": "+12123987017", "website": "https://www.ritzcarlton.com/en/hotels/new-york/times-square-edition", "brand": "Ritz-Carlton"}, "geometry": {"type": "Point", "coordinates": [-73.984317, 40.759175]}},
{"type": "Feature", "id": "_lFhuJy57L_zEiwCM0St0WREGW0=", "properties": {"ref": "canada-montreal", "@spider": "marriott", "addr:full": "1228 Sherbrooke St. West", "addr:city": "Montr\u00e9al", "addr:postcode": "H3G 1H6", "addr:country": "Canada", "name": "Montr\u00e9al", "phone": "+1 (514) 842-4212", "website": "https://www.ritzcarlton.com/en/hotels/canada/montreal", "brand": "Ritz-Carlton"}, "geometry": {"type": "Point", "coordinates": [-73.578022, 45.500377]}},
{"type": "Feature", "id": "BMdyQwfXJh70DURa34cKRwZt9BA=", "properties": {"ref": "caribbean-aruba", "@spider": "marriott", "addr:full": "L. G. Smith Boulevard #107", "addr:city": "Palm Beach", "addr:country": "Aruba", "name": "The Ritz-Carlton Aruba", "phone": "+297-527-2222", "website": "https://www.ritzcarlton.com/en/hotels/caribbean/aruba", "brand": "Ritz-Carlton"}, "geometry": {"type": "Point", "coordinates": [-70.042858, 12.582794]}},
{"type": "Feature", "id": "ix2KcdMy3coLXlwPKMA84IE_RU8=", "properties": {"ref": "caribbean-grand-cayman", "@spider": "marriott", "addr:full": "PO Box 32348 KY1-1209, Seven Mile Beach", "addr:city": "Grand Cayman", "addr:postcode": "KY1-1209", "addr:country": "Cayman Islands", "name": "The Ritz-Carlton Grand Cayman", "phone": "+1 (345) 943-9000", "website": "https://www.ritzcarlton.com/en/hotels/caribbean/grand-cayman", "brand": "Ritz-Carlton"}, "geometry": {"type": "Point", "coordinates": [-81.380392, 19.336547]}},
{"type": "Feature", "id": "k1mLNJI0jLRdVFQoXGmeR62ua0g=", "properties": {"ref": "hotels-santiago", "@spider": "marriott", "addr:full": "Calle El Alcalde No. 15, Las Condes", "addr:city": "Santiago", "addr:country": "Chile", "name": "The Ritz-Carlton Santiago", "phone": "+56 2 2470 8500", "website": "https://www.ritzcarlton.com/en/hotels/santiago", "brand": "Ritz-Carlton"}, "geometry": {"type": "Point", "coordinates": [-70.59539, -33.41589]}},
{"type": "Feature", "id": "yxI3OkdmhqwIDGnXim1lTX5asM4=", "properties": {"ref": "mexico-cancun", "@spider": "marriott", "addr:full": "Retorno del Rey #36 Zona Hotelera", "addr:city": "Cancun", "addr:postcode": "77500", "addr:country": "Mexico", "name": "The Ritz-Carlton Cancun", "phone": "+52 998 881 0808", "website": "https://www.ritzcarlton.com/en/hotels/mexico/cancun", "brand": "Ritz-Carlton"}, "geometry": {"type": "Point", "coordinates": [-86.768219769001, 21.093284081505576]}},
{"type": "Feature", "id": "T90AmCra5uLDeCZLY356qGfYEoM=", "properties": {"ref": "mexico-los-cabos", "@spider": "marriott", "addr:full": "Puerto Los Cabos", "addr:city": "San Jose del Cabo", "addr:postcode": "23403", "addr:country": "Mexico", "name": "Los Cabos", "phone": "+52 624 172 9000", "website": "https://www.ritzcarlton.com/en/hotels/mexico/los-cabos", "brand": "Ritz-Carton Reserve"}, "geometry": {"type": "Point", "coordinates": [-109.6492665, 23.0692064]}},
{"type": "Feature", "id": "BIsA1QP5N-PlJfVKd-0yBA5XAWg=", "properties": {"ref": "mexico-mexico-city", "@spider": "marriott", "addr:full": "Paseo de la Reforma 509", "addr:city": "Cuauhtemoc Mexico City", "addr:postcode": "Distrito Federal 06500", "addr:country": "Mexico", "name": "The Ritz-Carlton Mexico City", "phone": "+52 55 2734 3480", "website": "https://www.ritzcarlton.com/en/hotels/mexico/mexico-city", "brand": "Ritz-Carlton"}, "geometry": {"type": "Point", "coordinates": [-99.1757592, 19.4240425]}},
{"type": "Feature", "id": "w-YT6djfKKZGfH43ETcW8kqdo1k=", "properties": {"ref": "puerto-rico-dorado-beach", "@spider": "marriott", "addr:full": "100 Dorado Beach Drive", "addr:city": "Dorado", "addr:postcode": "00646-2000", "addr:country": "Puerto Rico", "name": "Dorado Beach", "phone": "+17876261100", "website": "https://www.ritzcarlton.com/en/hotels/puerto-rico/dorado-beach", "brand": "Ritz-Carton Reserve"}, "geometry": {"type": "Point", "coordinates": [-66.301174, 18.47518]}},
{"type": "Feature", "id": "-QALpg95H-r46wA2C0nGBm_Kh3g=", "properties": {"ref": "caribbean-turks-and-caicos", "@spider": "marriott", "addr:full": "Grace Bay Road,", "addr:city": "Providenciales", "addr:country": "Turks and Caicos Islands", "name": "Turks & Caicos", "phone": "+1 649 339 2222", "website": "https://www.ritzcarlton.com/en/hotels/caribbean/turks-and-caicos", "brand": "Ritz-Carlton"}, "geometry": {"type": "Point", "coordinates": [-72.17843, 21.796339]}},
{"type": "Feature", "id": "9Yf1u0t37UerMMNU4AQaB5AOW2k=", "properties": {"ref": "caribbean-st-thomas", "@spider": "marriott", "addr:full": "6900 Great Bay", "addr:city": "St. Thomas", "addr:state": "U.S. Virgin Islands", "addr:postcode": "00802", "addr:country": "United States", "name": "The Ritz-Carlton St. Thomas", "phone": "+1 (340) 775-3333", "website": "https://www.ritzcarlton.com/en/hotels/caribbean/st-thomas", "brand": "Ritz-Carlton"}, "geometry": {"type": "Point", "coordinates": [-64.8406, 18.3247417]}},
{"type": "Feature", "id": "dJzErw4mGB-3tUi5t43hzi4w3IU=", "properties": {"ref": "europe-vienna", "@spider": "marriott", "addr:full": "Schubertring 5-7", "addr:city": "Vienna", "addr:postcode": "1010", "addr:country": "Austria", "name": "The Ritz-Carlton Vienna", "phone": "+43131188", "website": "https://www.ritzcarlton.com/en/hotels/europe/vienna", "brand": "Ritz-Carlton"}, "geometry": {"type": "Point", "coordinates": [16.37602597, 48.20241174]}},
{"type": "Feature", "id": "s2VZQaTGTLbtd3o0rd-q7y-qjK4=", "properties": {"ref": "germany-berlin", "@spider": "marriott", "addr:full": "Potsdamer Platz 3", "addr:city": "Berlin", "addr:postcode": "10785", "addr:country": "Germany", "name": "The Ritz-Carlton Berlin", "phone": "+4930337777", "website": "https://www.ritzcarlton.com/en/hotels/germany/berlin", "brand": "Ritz-Carlton"}, "geometry": {"type": "Point", "coordinates": [13.375555, 52.510052]}},
{"type": "Feature", "id": "TQjZhodx2H4-dstQcOdva1KyuGk=", "properties": {"ref": "germany-wolfsburg", "@spider": "marriott", "addr:full": "Parkstrasse 1", "addr:city": "Wolfsburg", "addr:postcode": "38440", "addr:country": "Germany", "name": "The Ritz-Carlton Wolfsburg", "phone": "+495361607000", "website": "https://www.ritzcarlton.com/en/hotels/germany/wolfsburg", "brand": "Ritz-Carlton"}, "geometry": {"type": "Point", "coordinates": [10.792591, 52.432983]}},
{"type": "Feature", "id": "1j41ecWBqLaUihAGErajXSfCb2k=", "properties": {"ref": "europe-budapest", "@spider": "marriott", "addr:full": "Erzsebet Ter 9-10", "addr:city": "Budapest", "addr:postcode": "1051", "addr:country": "Hungary", "name": "The Ritz-Carlton Budapest", "phone": "+3614295500", "website": "https://www.ritzcarlton.com/en/hotels/europe/budapest", "brand": "Ritz-Carlton"}, "geometry": {"type": "Point", "coordinates": [19.052763, 47.497336]}},
{"type": "Feature", "id": "4i006F7itS9EZuhwZtZw-zwL1sk=", "properties": {"ref": "kazakhstan-almaty", "@spider": "marriott", "addr:full": "Esentai Tower, 77/7 Al Farabi Avenue", "addr:city": "Almaty", "addr:postcode": "050040", "addr:country": "Kazakhstan", "name": "The Ritz-Carlton Almaty", "phone": "+77273328888", "website": "https://www.ritzcarlton.com/en/hotels/kazakhstan/almaty", "brand": "Ritz-Carlton"}, "geometry": {"type": "Point", "coordinates": [76.929161, 43.219028]}},
{"type": "Feature", "id": "Ylr_E5SM19LjeFAEW7__jCpLkzg=", "properties": {"ref": "kazakhstan-astana", "@spider": "marriott", "addr:full": "16 Dostyk Street", "addr:city": "Nur-Sultan", "addr:postcode": "010016", "addr:country": "Kazakhstan", "name": "The Ritz-Carlton Astana", "phone": "+7 7172 734 000", "website": "https://www.ritzcarlton.com/en/hotels/kazakhstan/astana", "brand": "Ritz-Carlton"}, "geometry": {"type": "Point", "coordinates": [71.4366, 51.124894]}},
{"type": "Feature", "id": "Iu6rp_QBzJlDN70naMRDDySkAsw=", "properties": {"ref": "europe-penha-longa", "@spider": "marriott", "addr:full": "Estrada da Lagoa Azul, Linh\u00f3", "addr:city": "Sintra", "addr:postcode": "2714 - 511", "addr:country": "Portugal", "name": "The Ritz-Carlton Sintra", "phone": "+351 21 924 9011", "website": "https://www.ritzcarlton.com/en/hotels/europe/penha-longa", "brand": "Ritz-Carlton"}, "geometry": {"type": "Point", "coordinates": [-9.356536, 38.798228]}},
{"type": "Feature", "id": "mUGlEni7HyUu1GgMpN_GzUq3pzc=", "properties": {"ref": "europe-moscow", "@spider": "marriott", "addr:full": "Tverskaya Street 3", "addr:city": "Moscow", "addr:postcode": "125009", "addr:country": "Russian Federation", "name": "The Ritz-Carlton Moscow", "phone": "+74952258888", "website": "https://www.ritzcarlton.com/en/hotels/europe/moscow", "brand": "Ritz-Carlton"}, "geometry": {"type": "Point", "coordinates": [37.613325, 55.757369]}},
{"type": "Feature", "id": "6RNUtfIn2i6j_09RxIwZSySQK5c=", "properties": {"ref": "spain-barcelona", "@spider": "marriott", "addr:full": "Marina 19-21", "addr:city": "Barcelona", "addr:postcode": "08005", "addr:country": "Spain", "name": "The Ritz-Carlton Barcelona", "phone": "+34932211000", "website": "https://www.ritzcarlton.com/en/hotels/spain/barcelona", "brand": "Ritz-Carlton"}, "geometry": {"type": "Point", "coordinates": [2.196468, 41.386936]}},
{"type": "Feature", "id": "WYu74ohg9W1rrqL9-wFSuidfCHA=", "properties": {"ref": "spain-abama", "@spider": "marriott", "addr:full": "Carretera General, TF-47, km 9", "addr:city": "Guia de Isora Tenerife", "addr:postcode": "38687", "addr:country": "Spain", "name": "The Ritz-Carlton Tenerife, Canary Islands", "phone": "+34 922 126 000", "website": "https://www.ritzcarlton.com/en/hotels/spain/abama", "brand": "Ritz-Carlton"}, "geometry": {"type": "Point", "coordinates": [-16.797861, 28.177903]}},
{"type": "Feature", "id": "wifNtQ0cd3UJwe75GWw9ICw5Vzs=", "properties": {"ref": "europe-geneva", "@spider": "marriott", "addr:full": "Quai du Mont-Blanc 11", "addr:city": "Geneva", "addr:postcode": "1201", "addr:country": "Switzerland", "name": "The Ritz-Carlton Geneva", "phone": "+41229096000", "website": "https://www.ritzcarlton.com/en/hotels/europe/geneva", "brand": "Ritz-Carlton"}, "geometry": {"type": "Point", "coordinates": [6.148653, 46.207864]}},
{"type": "Feature", "id": "ppbKKthcJWtsunEVfAStvllg5s8=", "properties": {"ref": "europe-istanbul", "@spider": "marriott", "addr:full": "Suzer Plaza, Askerocagi Caddesi, No:6, 34367 Elmadag/Sisli", "addr:city": "Istanbul", "addr:postcode": "34367", "addr:country": "Turkey", "name": "The Ritz-Carlton Istanbul", "phone": "+902123344444", "website": "https://www.ritzcarlton.com/en/hotels/europe/istanbul", "brand": "Ritz-Carlton"}, "geometry": {"type": "Point", "coordinates": [28.987331, 41.040769]}},
{"type": "Feature", "id": "MWcAg1WNQvx5WIjOkKC8mNic1Ss=", "properties": {"ref": "spain-barcelona-edition", "@spider": "marriott", "addr:full": "Avinguda de Francesc Camb\u00f3, 14.", "addr:city": "Barcelona", "addr:postcode": "08003", "addr:country": "Spain", "name": "The Barcelona EDITION", "phone": "+34 93 626 33 30", "website": "https://www.ritzcarlton.com/en/hotels/spain/barcelona-edition", "brand": "Ritz-Carlton"}, "geometry": {"type": "Point", "coordinates": [2.177729, 41.385987]}},
{"type": "Feature", "id": "yKqq987ayin1P2hrHww0eSzbfTE=", "properties": {"ref": "europe-bodrum-edition", "@spider": "marriott", "addr:full": "Dirmil Mahallesi Balyek Caddesi no. 5a", "addr:city": "Yalikavak - Mu\u011fla", "addr:country": "Turkey", "name": "The Bodrum EDITION", "phone": "+90 252 311 3131", "website": "https://www.ritzcarlton.com/en/hotels/europe/bodrum-edition", "brand": "Ritz-Carlton"}, "geometry": {"type": "Point", "coordinates": [27.311686, 37.115695]}},
{"type": "Feature", "id": "sJsx6IbppywML8ENJnatSk6wyeY=", "properties": {"ref": "europe-reykjavik-edition", "@spider": "marriott", "addr:full": "Austurbakki 2 101", "addr:city": "Reykjavik", "addr:country": "Iceland", "name": "The Reykjavik EDITION", "phone": "+354 582 0000", "website": "https://www.ritzcarlton.com/en/hotels/europe/reykjavik-edition", "brand": "Ritz-Carlton"}, "geometry": {"type": "Point", "coordinates": [-21.93257, 64.150421]}},
{"type": "Feature", "id": "WlCeE4sreGOyDdicIFu6xIN9xTU=", "properties": {"ref": "europe-london-edition", "@spider": "marriott", "addr:full": "10 Berners Street", "addr:city": "London", "addr:postcode": "W1T 3NP", "addr:country": "United Kingdom", "name": "The London EDITION", "phone": "+442077810000", "website": "https://www.ritzcarlton.com/en/hotels/europe/london-edition", "brand": "Ritz-Carlton"}, "geometry": {"type": "Point", "coordinates": [-0.136133, 51.516759]}},
{"type": "Feature", "id": "vjETXaPqDgkmi6Sd_yT9AhMQhSo=", "properties": {"ref": "australia-perth", "@spider": "marriott", "addr:full": "1 Barrack Street,", "addr:city": "Perth, WA", "addr:postcode": "6000", "addr:country": "Australia", "name": "The Ritz-Carlton Perth", "phone": "+61 8 6559 6888", "website": "https://www.ritzcarlton.com/en/hotels/australia/perth", "brand": "Ritz-Carlton"}, "geometry": {"type": "Point", "coordinates": [115.858136, -31.9582152]}},
{"type": "Feature", "id": "hFHSY_QV6nUpSl7_iRGk570hyvY=", "properties": {"ref": "china-beijing", "@spider": "marriott", "addr:full": "83A Jian Guo Road, China Central Place, Chaoyang District", "addr:city": "Beijing", "addr:postcode": "100025", "addr:country": "China", "name": "The Ritz-Carlton Beijing", "phone": "+86 10 5908 8888", "website": "https://www.ritzcarlton.com/en/hotels/china/beijing", "brand": "Ritz-Carlton"}, "geometry": {"type": "Point", "coordinates": [116.469558, 39.906664]}},
{"type": "Feature", "id": "xiK4SKCv-lrqPCGFIW9qCJAziAo=", "properties": {"ref": "china-beijing-financial-street", "@spider": "marriott", "addr:full": "1 Jin Cheng Fang Street East, Financial Street", "addr:city": "Beijing", "addr:postcode": "100033", "addr:country": "China", "name": "The Ritz-Carlton Beijing, Financial Street", "phone": "+861066016666", "website": "https://www.ritzcarlton.com/en/hotels/china/beijing-financial-street", "brand": "Ritz-Carlton"}, "geometry": {"type": "Point", "coordinates": [116.36925, 39.9057]}},
{"type": "Feature", "id": "F3OPach9hrJn5olcM-DM6Z589Ko=", "properties": {"ref": "china-chengdu", "@spider": "marriott", "addr:full": "269 Shuncheng Avenue, Qingyang District", "addr:city": "Chengdu, Sichuan", "addr:postcode": "610017", "addr:country": "China", "name": "The Ritz-Carlton Chengdu", "phone": "+862883588888", "website": "https://www.ritzcarlton.com/en/hotels/china/chengdu", "brand": "Ritz-Carlton"}, "geometry": {"type": "Point", "coordinates": [104.070025, 30.660192]}},
{"type": "Feature", "id": "9tcHj2hLikjCcgpXBxJsJmOz7BA=", "properties": {"ref": "china-guangzhou", "@spider": "marriott", "addr:full": "3 Xing An Road, Pearl River New City, Tianhe District", "addr:city": "Guangzhou", "addr:postcode": "510623", "addr:country": "China", "name": "The Ritz-Carlton Guangzhou", "phone": "+862038136688", "website": "https://www.ritzcarlton.com/en/hotels/china/guangzhou", "brand": "Ritz-Carlton"}, "geometry": {"type": "Point", "coordinates": [113.315333, 23.118014]}},
{"type": "Feature", "id": "kOofzOqiYm6QaweeVRYOjO1aFtw=", "properties": {"ref": "china-haikou", "@spider": "marriott", "addr:full": "No.39 Yangshan Boulevard, Longhua District", "addr:city": "Haikou, Hainan", "addr:postcode": "571155", "addr:country": "China", "name": "The Ritz-Carlton Haikou", "phone": "+86 898 6683 6888", "website": "https://www.ritzcarlton.com/en/hotels/china/haikou", "brand": "Ritz-Carlton"}, "geometry": {"type": "Point", "coordinates": [110.337364, 19.923214]}},
{"type": "Feature", "id": "v7_G0lvQHzSCh_pO87i5TGql4_Q=", "properties": {"ref": "china-harbin", "@spider": "marriott", "addr:full": "Tower 1,  No. 660 West Youyi Road Daoli District", "addr:city": "Harbin", "addr:postcode": "150018", "addr:country": "China", "name": "The Ritz-Carlton Harbin", "phone": "86-451 8402 8888", "website": "https://www.ritzcarlton.com/en/hotels/china/harbin", "brand": "Ritz-Carlton"}, "geometry": {"type": "Point", "coordinates": [126.589257, 45.758823]}},
{"type": "Feature", "id": "oaSYB6NUyT6l0MgqoBNvvkCKgpM=", "properties": {"ref": "china-hong-kong", "@spider": "marriott", "addr:full": "International Commerce Centre, 1 Austin Road West", "addr:city": "Hong Kong", "addr:country": "China", "name": "The Ritz-Carlton Hong Kong", "phone": "+85222632263", "website": "https://www.ritzcarlton.com/en/hotels/china/hong-kong", "brand": "Ritz-Carlton"}, "geometry": {"type": "Point", "coordinates": [114.160232, 22.303381]}},
{"type": "Feature", "id": "RODoe3gQn0rWMx-umULmXEBc9Jw=", "properties": {"ref": "china-macau", "@spider": "marriott", "addr:full": "Galaxy Macau\u2122, Estrada da Ba\u00eda da Nossa Senhora da Esperan\u00e7a", "addr:city": "Macau", "addr:postcode": "s/n", "addr:country": "China", "name": "The Ritz-Carlton Macau", "phone": "+85388866868", "website": "https://www.ritzcarlton.com/en/hotels/china/macau", "brand": "Ritz-Carlton"}, "geometry": {"type": "Point", "coordinates": [113.553095, 22.14945]}},
{"type": "Feature", "id": "RagBCQDYnLDQuEvBJBmc7i_YQqI=", "properties": {"ref": "china-nanjing", "@spider": "marriott", "addr:full": "No.18 Zhongshan Road, Xuanwu District", "addr:city": "Nanjing", "addr:postcode": "210018", "addr:country": "China", "name": "The Ritz-Carlton Nanjing", "phone": "+86 25 6978 8888", "website": "https://www.ritzcarlton.com/en/hotels/china/nanjing", "brand": "Ritz-Carlton"}, "geometry": {"type": "Point", "coordinates": [118.7851, 32.044849]}},
{"type": "Feature", "id": "O3pcrE8dk6EUCE_82sgIDbzLOiw=", "properties": {"ref": "china-sanya", "@spider": "marriott", "addr:full": "Yalong Bay National Resort District", "addr:city": "Sanya, Hainan", "addr:postcode": "572000", "addr:country": "China", "name": "The Ritz-Carlton Sanya", "phone": "+86 (0) 898 8898 8888", "website": "https://www.ritzcarlton.com/en/hotels/china/sanya", "brand": "Ritz-Carlton"}, "geometry": {"type": "Point", "coordinates": [109.62243, 18.225678]}},
{"type": "Feature", "id": "L3ZwkaU9QYDmGik3xa_vC7d9BmA=", "properties": {"ref": "china-shanghai", "@spider": "marriott", "addr:full": "Shanghai Center, 1376 West Nanjing Road", "addr:city": "Shanghai", "addr:postcode": "200040", "addr:country": "China", "name": "The Ritz-Carlton Shanghai", "phone": "+862162798888", "website": "https://www.ritzcarlton.com/en/hotels/china/shanghai", "brand": "Ritz-Carlton"}, "geometry": {"type": "Point", "coordinates": [121.483234, 31.235797]}},
{"type": "Feature", "id": "t6_BH29LqG7ffacZ8rAL5NuDlmo=", "properties": {"ref": "china-shanghai-pudong", "@spider": "marriott", "addr:full": "Shanghai IFC, 8 Century Avenue, Lujiazui, Pudong", "addr:city": "Shanghai", "addr:postcode": "200120", "addr:country": "China", "name": "The Ritz-Carlton Shanghai, Pudong", "phone": "+862120201888", "website": "https://www.ritzcarlton.com/en/hotels/china/shanghai-pudong", "brand": "Ritz-Carlton"}, "geometry": {"type": "Point", "coordinates": [121.496553, 31.238603]}},
{"type": "Feature", "id": "M0FXSRsJYV_OfswF-lQayKkNers=", "properties": {"ref": "china-shenzhen", "@spider": "marriott", "addr:full": "116 Fuhua San Road, Futian District", "addr:city": "Shenzhen", "addr:postcode": "518048", "addr:country": "China", "name": "The Ritz-Carlton Shenzhen", "phone": "+8675522222222", "website": "https://www.ritzcarlton.com/en/hotels/china/shenzhen", "brand": "Ritz-Carlton"}, "geometry": {"type": "Point", "coordinates": [114.050586, 22.521042]}},
{"type": "Feature", "id": "dLUGRfuj-K0PONm9mAqxnkCppR0=", "properties": {"ref": "china-tianjin", "@spider": "marriott", "addr:full": "No 167 Dagubei Road, Heping District", "addr:city": "Tianjin", "addr:postcode": "300040", "addr:country": "China", "name": "The Ritz-Carlton Tianjin", "phone": "+862258578888", "website": "https://www.ritzcarlton.com/en/hotels/china/tianjin", "brand": "Ritz-Carlton"}, "geometry": {"type": "Point", "coordinates": [117.212928, 39.113881]}},
{"type": "Feature", "id": "wZGglEMtk0fQITAOGGTYrSZC6tc=", "properties": {"ref": "china-xian", "@spider": "marriott", "addr:full": "No.50, Keji 2nd Road Gao Xin District.", "addr:city": "Xi\u2019an", "addr:country": "China", "name": "The Ritz-Carlton Xi'an", "phone": "86-29 8881 8888", "website": "https://www.ritzcarlton.com/en/hotels/china/xian", "brand": "Ritz-Carlton"}, "geometry": {"type": "Point", "coordinates": [108.8988852879, 34.223669315]}},
{"type": "Feature", "id": "PPcldzCd0YdNul3XgHggIAepA_Y=", "properties": {"ref": "india-bangalore", "@spider": "marriott", "addr:full": "99 Residency Road", "addr:city": "Bangalore, Karnataka", "addr:postcode": "560 025", "addr:country": "India", "name": "The Ritz-Carlton Bangalore", "phone": "+918049148000", "website": "https://www.ritzcarlton.com/en/hotels/india/bangalore", "brand": "Ritz-Carlton"}, "geometry": {"type": "Point", "coordinates": [77.601325, 12.968189]}},
{"type": "Feature", "id": "qRwdEqNoHrMuSm2LGMiD3naSqQE=", "properties": {"ref": "india-pune", "@spider": "marriott", "addr:full": "Golf Course Square, Airport Road,  Yerwada", "addr:city": "Pune", "addr:postcode": "411006", "addr:country": "India", "name": "The Ritz-Carlton Pune", "phone": "+91 2067675000", "website": "https://www.ritzcarlton.com/en/hotels/india/pune", "brand": "Ritz-Carlton"}, "geometry": {"type": "Point", "coordinates": [73.890277, 18.552404]}},
{"type": "Feature", "id": "pExMHZYgkmg3rmdTPiXJVlFakFE=", "properties": {"ref": "indonesia-bali", "@spider": "marriott", "addr:full": "Jalan Raya Nusa Dua Selatan Lot III Sawangan, Nusa Dua", "addr:city": "Bali", "addr:postcode": "80363", "addr:country": "Indonesia", "name": "The Ritz-Carlton Bali", "phone": "Phone: +62 361 849 8988", "website": "https://www.ritzcarlton.com/en/hotels/indonesia/bali", "brand": "Ritz-Carlton"}, "geometry": {"type": "Point", "coordinates": [115.214159, -8.829901]}},
{"type": "Feature", "id": "jVWoAQd5UMEkVJi9RruIjX6lhL4=", "properties": {"ref": "indonesia-mandapa", "@spider": "marriott", "addr:full": "Jalan Kedewatan, Banjar Kedewatan, Ubud, Gianyar", "addr:city": "Bali, Ubud", "addr:postcode": "80571", "addr:country": "Indonesia", "name": "Bali, Ubud, Mandapa", "phone": "+62 361 4792777", "website": "https://www.ritzcarlton.com/en/hotels/indonesia/mandapa", "brand": "Ritz-Carton Reserve"}, "geometry": {"type": "Point", "coordinates": [115.245633, -8.485686]}},
{"type": "Feature", "id": "cuFdiIsXoWSgfWtGai5VioPrulA=", "properties": {"ref": "indonesia-jakarta", "@spider": "marriott", "addr:full": "Jl. DR. Ide Anak Agung Gde Agung Kav.E.1.1 no.1, Mega Kuningan", "addr:city": "Jakarta", "addr:postcode": "12950", "addr:country": "Indonesia", "name": "The Ritz-Carlton Jakarta, Mega Kuningan", "phone": "+62 21 2551 8888", "website": "https://www.ritzcarlton.com/en/hotels/indonesia/jakarta", "brand": "Ritz-Carlton"}, "geometry": {"type": "Point", "coordinates": [106.826583, -6.228836]}},
{"type": "Feature", "id": "k_Y_etAu_g3zOXi7eWyP5q9tuaA=", "properties": {"ref": "indonesia-jakarta-pacific-place", "@spider": "marriott", "addr:full": "Sudirman Central Business District (SCBD), Jl. Jendral Sudirman Kav. 52-53", "addr:city": "Jakarta", "addr:postcode": "12190", "addr:country": "Indonesia", "name": "The Ritz-Carlton Jakarta, Pacific Place", "phone": "+62 21 2550 1888", "website": "https://www.ritzcarlton.com/en/hotels/indonesia/jakarta-pacific-place", "brand": "Ritz-Carlton"}, "geometry": {"type": "Point", "coordinates": [106.80965, -6.224286]}},
{"type": "Feature", "id": "kmWMc2DA-zUsYSYgnqD8tJqzWpk=", "properties": {"ref": "japan-higashiyama", "@spider": "marriott", "addr:full": "28, 919 Aza Soga Niseko Cho, Abuta Gun", "addr:city": "Hokkaido", "addr:postcode": "048-1522", "addr:country": "Japan", "name": "Higashiyama", "phone": "+81 136 44 3491", "website": "https://www.ritzcarlton.com/en/hotels/japan/higashiyama", "brand": "Ritz-Carton Reserve"}, "geometry": {"type": "Point", "coordinates": [140.684861, 42.847]}},
{"type": "Feature", "id": "coKA5uHLst4Npsjg93HIRV4MDQI=", "properties": {"ref": "japan-kyoto", "@spider": "marriott", "addr:full": "Kamogawa Nijo-Ohashi Hotori, Nakagyo-ku", "addr:city": "Kyoto", "addr:postcode": "604-0902", "addr:country": "Japan", "name": "The Ritz-Carlton Kyoto", "phone": "+81 75 746 5555", "website": "https://www.ritzcarlton.com/en/hotels/japan/kyoto", "brand": "Ritz-Carlton"}, "geometry": {"type": "Point", "coordinates": [135.77087, 35.01362]}},
{"type": "Feature", "id": "MPGrWqhS3LJyFTnB5ZCr79MV5w8=", "properties": {"ref": "japan-nikko", "@spider": "marriott", "addr:full": "2482, Chugushi, Nikko", "addr:city": "Tochigi", "addr:postcode": "321-1661", "addr:country": "Japan", "name": "The Ritz-Carlton Nikko", "phone": "+81 288 25 6666", "website": "https://www.ritzcarlton.com/en/hotels/japan/nikko", "brand": "Ritz-Carlton"}, "geometry": {"type": "Point", "coordinates": [139.29513, 36.44181]}},
{"type": "Feature", "id": "qtclcOxYG5wpKdwFspi1NV4OV-k=", "properties": {"ref": "japan-okinawa", "@spider": "marriott", "addr:full": "1343-1 Kise,Nago", "addr:city": "Okinawa", "addr:postcode": "905-0026", "addr:country": "Japan", "name": "The Ritz-Carlton Okinawa", "phone": "+81980435555", "website": "https://www.ritzcarlton.com/en/hotels/japan/okinawa", "brand": "Ritz-Carlton"}, "geometry": {"type": "Point", "coordinates": [127.939879, 26.528241]}},
{"type": "Feature", "id": "0cSU0GX71kWzT1RMJMBbWZqswGo=", "properties": {"ref": "japan-osaka", "@spider": "marriott", "addr:full": "2-5-25 Umeda Kita-ku", "addr:city": "Osaka", "addr:postcode": "530-0001", "addr:country": "Japan", "name": "The Ritz-Carlton Osaka", "phone": "+81663437000", "website": "https://www.ritzcarlton.com/en/hotels/japan/osaka", "brand": "Ritz-Carlton"}, "geometry": {"type": "Point", "coordinates": [135.49275, 34.69888]}},
{"type": "Feature", "id": "DOhgUfUIP8E6PpWbeVyYNHFqmXk=", "properties": {"ref": "japan-tokyo", "@spider": "marriott", "addr:full": "Tokyo Midtown 9-7-1 Akasaka Minato-ku", "addr:city": "Tokyo", "addr:postcode": "107-6245", "addr:country": "Japan", "name": "The Ritz-Carlton Tokyo", "phone": "+81334238000", "website": "https://www.ritzcarlton.com/en/hotels/japan/tokyo", "brand": "Ritz-Carlton"}, "geometry": {"type": "Point", "coordinates": [139.731122, 35.665981]}},
{"type": "Feature", "id": "3nBYrQIdXwYrKT2O6GKgZo2l9TI=", "properties": {"ref": "malaysia-kuala-lumpur", "@spider": "marriott", "addr:full": "168 Jalan Imbi", "addr:city": "Kuala Lumpur", "addr:postcode": "55100", "addr:country": "Malaysia", "name": "The Ritz-Carlton Kuala Lumpur", "phone": "+60 3 2142 8000", "website": "https://www.ritzcarlton.com/en/hotels/malaysia/kuala-lumpur", "brand": "Ritz-Carlton"}, "geometry": {"type": "Point", "coordinates": [101.713251, 3.15066]}},
{"type": "Feature", "id": "kQQwffR0jBA_ae9-ql8s64EqRMI=", "properties": {"ref": "malaysia-langkawi", "@spider": "marriott", "addr:full": "PO Box 199, Jalan Pantai Kok, Teluk Nibong", "addr:city": "Langkawi, KD", "addr:postcode": "07000,", "addr:country": "Malaysia", "name": "The Ritz-Carlton Langkawi", "phone": "+604 952 4888", "website": "https://www.ritzcarlton.com/en/hotels/malaysia/langkawi", "brand": "Ritz-Carlton"}, "geometry": {"type": "Point", "coordinates": [99.695786, 6.359325]}},
{"type": "Feature", "id": "qRFv79nEBSljexVwWjOHeKAKiNQ=", "properties": {"ref": "hotels-maldives-fari-islands", "@spider": "marriott", "addr:full": "North Male Atoll", "addr:city": "Male", "addr:postcode": "20013", "addr:country": "Maldives", "name": "Fari Islands", "phone": "+960 4000999", "website": "https://www.ritzcarlton.com/en/hotels/maldives-fari-islands", "brand": "Ritz-Carlton"}, "geometry": {"type": "Point", "coordinates": [73.510052, 4.17621]}},
{"type": "Feature", "id": "-8omvCHVBRp8lLIGKS7EaxIp6Xc=", "properties": {"ref": "hotels-singapore", "@spider": "marriott", "addr:full": "7 Raffles Avenue", "addr:city": "Singapore", "addr:postcode": "039799", "addr:country": "Singapore", "name": "The Ritz-Carlton Singapore", "phone": "+6563378888", "website": "https://www.ritzcarlton.com/en/hotels/singapore", "brand": "Ritz-Carlton"}, "geometry": {"type": "Point", "coordinates": [103.859, 1.29]}},
{"type": "Feature", "id": "eqitWfYQdED6Un98rPZnoSA3qB0=", "properties": {"ref": "hotels-koh-samui", "@spider": "marriott", "addr:full": "9/123 Moo 5, Tambon Bophut", "addr:city": "Koh Samui, Surat Thani", "addr:postcode": "84320", "addr:country": "Thailand", "name": "The Ritz-Carlton Koh Samui", "phone": "+66 77 915 777", "website": "https://www.ritzcarlton.com/en/hotels/koh-samui", "brand": "Ritz-Carlton"}, "geometry": {"type": "Point", "coordinates": [100.0665727, 9.5797798]}},
{"type": "Feature", "id": "S9avTyJ6KcVC9OY3BEP65I2eXk8=", "properties": {"ref": "hotels-phulay-bay", "@spider": "marriott", "addr:full": "111 Moo 3, Nongthalay, Muang", "addr:city": "Krabi", "addr:postcode": "81180", "addr:country": "Thailand", "name": "Phulay Bay", "phone": "+6675628111", "website": "https://www.ritzcarlton.com/en/hotels/phulay-bay", "brand": "Ritz-Carton Reserve"}, "geometry": {"type": "Point", "coordinates": [98.872133, 8.026081]}},
{"type": "Feature", "id": "ly8v3R2dOZ71I18RODm9tMeLWqY=", "properties": {"ref": "china-sanya-edition", "@spider": "marriott", "addr:full": "No.100 North Haitang Road Sanya China PRC. 572013", "addr:city": "Sanya", "addr:postcode": "572013", "addr:country": "China", "name": "The Sanya EDITION", "phone": "+86 898 88359999", "website": "https://www.ritzcarlton.com/en/hotels/china/sanya-edition", "brand": "Ritz-Carlton"}, "geometry": {"type": "Point", "coordinates": [109.745119, 18.364125]}},
{"type": "Feature", "id": "-7CeY8O-FZa5klwkU_U7n0BY2uY=", "properties": {"ref": "china-shanghai-edition", "@spider": "marriott", "addr:full": "199 Nanjing Road East", "addr:city": "Shanghai", "addr:postcode": "200002", "addr:country": "China", "name": "The Shanghai EDITION ", "phone": "+86 21 5368 9999", "website": "https://www.ritzcarlton.com/en/hotels/china/shanghai-edition", "brand": "Ritz-Carlton"}, "geometry": {"type": "Point", "coordinates": [121.479517, 31.236783]}},
{"type": "Feature", "id": "nwqzAJ_dEyAGYXOX17v25laBL60=", "properties": {"ref": "middle-east-bahrain", "@spider": "marriott", "addr:full": "Building 173, Road 2803, Al Seef, Block 428, Kingdom of Bahrain", "addr:city": "Manama", "addr:country": "Bahrain", "name": "The Ritz-Carlton Bahrain", "phone": "+97317580000", "website": "https://www.ritzcarlton.com/en/hotels/middle-east/bahrain", "brand": "Ritz-Carlton"}, "geometry": {"type": "Point", "coordinates": [50.538086, 26.243756]}},
{"type": "Feature", "id": "HVs5xIBrE6RGO9oRN5SJPw6n0tw=", "properties": {"ref": "middle-east-cairo", "@spider": "marriott", "addr:full": "1113 Corniche El Nil", "addr:city": "Cairo", "addr:postcode": "11221", "addr:country": "Egypt", "name": "The Ritz-Carlton Cairo", "phone": "+20225778899", "website": "https://www.ritzcarlton.com/en/hotels/middle-east/cairo", "brand": "Ritz-Carlton"}, "geometry": {"type": "Point", "coordinates": [31.232163, 30.045796]}},
{"type": "Feature", "id": "CCErg41CTFNwm9S-u2R_0zAsS3o=", "properties": {"ref": "middle-east-herzliya", "@spider": "marriott", "addr:full": "4 Hashunit Street", "addr:city": "Herzliya", "addr:postcode": "4655504", "addr:country": "Israel", "name": "The Ritz-Carlton Herzliya", "phone": "+97293735555", "website": "https://www.ritzcarlton.com/en/hotels/middle-east/herzliya", "brand": "Ritz-Carlton"}, "geometry": {"type": "Point", "coordinates": [34.797711, 32.163575]}},
{"type": "Feature", "id": "cKWmjgeAQs-ciiSUKxCNgcX9V9s=", "properties": {"ref": "middle-east-amman", "@spider": "marriott", "addr:full": "P.O Box 851100", "addr:city": "Amman", "addr:postcode": "11185", "addr:country": "Jordan", "name": "The Ritz-Carlton Amman", "phone": "+962 6 550.0000", "website": "https://www.ritzcarlton.com/en/hotels/middle-east/amman", "brand": "Ritz-Carlton"}, "geometry": {"type": "Point", "coordinates": [35.5259, 31.57383]}},
{"type": "Feature", "id": "hvqAVUdSsOrCSQjSkRXB4NPD34k=", "properties": {"ref": "morocco-rabat", "@spider": "marriott", "addr:full": "KM10, Boulevard Mohamed VI, Route Dar Essalam.", "addr:city": "Rabat", "addr:postcode": "BP 10170", "addr:country": "Morocco", "name": "The Ritz-Carlton Rabat", "phone": "Rabat,  BP 10170 Morocco", "website": "https://www.ritzcarlton.com/en/hotels/morocco/rabat", "brand": "Ritz-Carlton"}, "geometry": {"type": "Point", "coordinates": [-6.832029, 33.915771]}},
{"type": "Feature", "id": "Ht-bikMb6zH85p49RIvRZzUNfzM=", "properties": {"ref": "oman-al-bustan", "@spider": "marriott", "addr:full": "PO Box 1998", "addr:city": "Muscat", "addr:postcode": "114", "addr:country": "Oman", "name": "The Ritz-Carlton Muscat, Al Bustan Palace", "phone": "+96824799666", "website": "https://www.ritzcarlton.com/en/hotels/oman/al-bustan", "brand": "Ritz-Carlton"}, "geometry": {"type": "Point", "coordinates": [58.615311, 23.566741]}},
{"type": "Feature", "id": "xO1TuxC6sCi_BDEwPoCM6ZPG65M=", "properties": {"ref": "qatar-doha", "@spider": "marriott", "addr:full": "P.O. Box 23400, West Bay Lagoon", "addr:city": "Doha", "addr:country": "Qatar", "name": "The Ritz-Carlton Doha", "phone": "+97444848000", "website": "https://www.ritzcarlton.com/en/hotels/qatar/doha", "brand": "Ritz-Carlton"}, "geometry": {"type": "Point", "coordinates": [51.531815, 25.379402]}},
{"type": "Feature", "id": "XP7MrRvZHvxLZIAMWD_D53i2Xyk=", "properties": {"ref": "qatar-sharq-village", "@spider": "marriott", "addr:full": "Ras Abu Abboud Street, PO Box 26662", "addr:city": "Doha", "addr:postcode": "26662", "addr:country": "Qatar", "name": "The Ritz-Carlton Doha, Sharq Village ", "phone": "+97444256666", "website": "https://www.ritzcarlton.com/en/hotels/qatar/sharq-village", "brand": "Ritz-Carlton"}, "geometry": {"type": "Point", "coordinates": [51.556665, 25.284423]}},
{"type": "Feature", "id": "V48TuGqQLytdbI1TxfRe_HUyOZk=", "properties": {"ref": "saudi-arabia-jeddah", "@spider": "marriott", "addr:full": "P.O. BOX 13344, Al Hamra District Al Corniche Road", "addr:city": "Jeddah", "addr:postcode": "21493", "addr:country": "Saudi Arabia", "name": "The Ritz-Carlton Jeddah", "phone": "+966122314444", "website": "https://www.ritzcarlton.com/en/hotels/saudi-arabia/jeddah", "brand": "Ritz-Carlton"}, "geometry": {"type": "Point", "coordinates": [39.151561, 21.523829]}},
{"type": "Feature", "id": "7KGId9QTVUcL2XesQObdXRUYW1k=", "properties": {"ref": "saudi-arabia-riyadh", "@spider": "marriott", "addr:full": "AlHada Area, Mekkah Road", "addr:city": "Riyadh", "addr:postcode": "11493", "addr:country": "Saudi Arabia", "name": "The Ritz-Carlton Riyadh", "phone": "+966118028020", "website": "https://www.ritzcarlton.com/en/hotels/saudi-arabia/riyadh", "brand": "Ritz-Carlton"}, "geometry": {"type": "Point", "coordinates": [46.630542, 24.664614]}},
{"type": "Feature", "id": "h9IAoTApIxFbviAm9zCTmV-HxUA=", "properties": {"ref": "uae-abu-dhabi", "@spider": "marriott", "addr:full": "PO Box 91888, Al Maqta Area", "addr:city": "Abu Dhabi", "addr:country": "United Arab Emirates", "name": "The Ritz-Carlton Abu Dhabi", "phone": "+97128188888", "website": "https://www.ritzcarlton.com/en/hotels/uae/abu-dhabi", "brand": "Ritz-Carlton"}, "geometry": {"type": "Point", "coordinates": [54.486061, 24.412]}},
{"type": "Feature", "id": "mzTKJ0sKPKAzQg7LDpoq7s_sIqM=", "properties": {"ref": "dubai-dubai-beach", "@spider": "marriott", "addr:full": "P.O. Box 26525", "addr:city": "Dubai", "addr:postcode": "26525", "addr:country": "United Arab Emirates", "name": "The Ritz-Carlton Dubai", "phone": "+971 4 399 4000", "website": "https://www.ritzcarlton.com/en/hotels/dubai/dubai-beach", "brand": "Ritz-Carlton"}, "geometry": {"type": "Point", "coordinates": [55.137956, 25.082334]}},
{"type": "Feature", "id": "CrA0WovQsvz3Rh-zPNoU9d6x168=", "properties": {"ref": "dubai-difc", "@spider": "marriott", "addr:full": "DIFC, off Sheikh Zayed Road, PO Box 482032", "addr:city": "Dubai", "addr:country": "United Arab Emirates", "name": "The Ritz-Carlton Dubai International Financial Centre", "phone": "+97143722222", "website": "https://www.ritzcarlton.com/en/hotels/dubai/difc", "brand": "Ritz-Carlton"}, "geometry": {"type": "Point", "coordinates": [55.288286, 25.227089]}},
{"type": "Feature", "id": "eu9RlJqs_YpnXFvJJrzimL9Q2aI=", "properties": {"ref": "uae-al-hamra-beach", "@spider": "marriott", "addr:full": "P.O Box  4558, Vienna Street", "addr:city": "Ras Al Khaimah", "addr:country": "United Arab Emirates", "name": "The Ritz-Carlton Ras Al Khaimah, Al Hamra Beach", "phone": "+971 7204 8888", "website": "https://www.ritzcarlton.com/en/hotels/uae/al-hamra-beach", "brand": "Ritz-Carlton"}, "geometry": {"type": "Point", "coordinates": [55.7721472, 25.6860488]}},
{"type": "Feature", "id": "4xfHYb8c5rJWFDotNlSg4Ox5f8w=", "properties": {"ref": "uae-al-wadi-desert", "@spider": "marriott", "addr:full": "Al Mazraa, Wadi Khadija.", "addr:city": "Ras Al Khaimah", "addr:country": "United Arab Emirates", "name": "The Ritz-Carlton Ras Al Khaimah, Al Wadi Desert", "phone": "+971 72067777", "website": "https://www.ritzcarlton.com/en/hotels/uae/al-wadi-desert", "brand": "Ritz-Carlton"}, "geometry": {"type": "Point", "coordinates": [55.8349, 25.5844]}}]}