{"type":"FeatureCollection","features":[{"type": "Feature", "id": "Ce333Phz6RAcBrFA0eJ4smCZWBE=", "properties": {"ref": "8", "@spider": "mcdonalds_si", "addr:full": "Ptujska cesta 106", "name": "Maribor - Ptujska", "phone": "02 426 03 66", "opening_hours": "Mo 08:00-24:00; Th 08:00-13:00; We 08:00-23:00; Tu-Su 08:00-22:00", "brand": "McDonald's"}, "geometry": {"type": "Point", "coordinates": [15.661633, 46.53513]}},
{"type": "Feature", "id": "7P6IWmiv5ckIHPxuY7PSxV338-0=", "properties": {"ref": "6", "@spider": "mcdonalds_si", "addr:full": "Premrlova ulica 12", "name": "Ljubljana - Rudnik", "phone": "01 428 91 17", "opening_hours": "Mo-We 08:00-13:00; Tu-Su 08:00-22:00", "brand": "McDonald's"}, "geometry": {"type": "Point", "coordinates": [14.527938, 46.018408]}},
{"type": "Feature", "id": "QtgKj-oNql6RPyE0BerQBEQGjbc=", "properties": {"ref": "2", "@spider": "mcdonalds_si", "addr:full": "\u010copova ulica 14", "name": "Ljubljana - \u010copova", "phone": "01 251 12 60", "opening_hours": "Mo-Su 08:00-22:00", "brand": "McDonald's"}, "geometry": {"type": "Point", "coordinates": [14.5041059, 46.0519979]}},
{"type": "Feature", "id": "NvrqidtDmRBWUsc-J2qmU1rT3yI=", "properties": {"ref": "4", "@spider": "mcdonalds_si", "addr:full": "Trg OF 6", "name": "Ljubljana - \u017delezni\u0161ka", "phone": "01 430 78 30", "opening_hours": "Mo-Sa 08:00-22:00; Su 09:00-22:00", "brand": "McDonald's"}, "geometry": {"type": "Point", "coordinates": [14.510164, 46.057639]}},
{"type": "Feature", "id": "xPb6fBKmNxd5E3dd2egMcgH0y7Y=", "properties": {"ref": "3", "@spider": "mcdonalds_si", "addr:full": "\u0160martinska cesta 154", "name": "Ljubljana - \u017dito", "phone": "01 541 07 00", "opening_hours": "Mo 07:00-13:00; Th 07:00-15:00; We 08:00-13:00; Tu-Su 07:00-22:00", "brand": "McDonald's"}, "geometry": {"type": "Point", "coordinates": [14.547358, 46.069405]}},
{"type": "Feature", "id": "tIgVZTXHiL-0b4phnooyLtucD-A=", "properties": {"ref": "5", "@spider": "mcdonalds_si", "addr:full": "Celov\u0161ka 170", "name": "Ljubljana - \u0160i\u0161ka", "phone": "01 514 21 40", "opening_hours": "Mo 08:00-24:00; Th 08:00-14:00; We 09:00-24:00; Tu-Su 08:00-22:00", "brand": "McDonald's"}, "geometry": {"type": "Point", "coordinates": [14.4838055, 46.0757613]}},
{"type": "Feature", "id": "VlmeD7XzWrk7ISVN3BrWsXqSs5I=", "properties": {"ref": "1", "@spider": "mcdonalds_si", "addr:full": "\u0160martinska cesta 147", "name": "Ljubljana - \u0160martinka ", "phone": "01 232 17 77", "opening_hours": "Mo 08:00-22:00; Th 09:00-22:00; We-Su 08:00-22:00", "brand": "McDonald's"}, "geometry": {"type": "Point", "coordinates": [14.540812, 46.069417]}},
{"type": "Feature", "id": "emI8fUQN-i3KpeRt21nOPnLly9Q=", "properties": {"ref": "22", "@spider": "mcdonalds_si", "addr:full": "Nem\u010davci 1 C", "name": "Murska Sobota - Murska Sobota", "phone": "02/250 12 37", "opening_hours": "Mo 08:00-24:00; Th 08:00-13:00; We 09:00-24:00; Tu-Su 08:00-22:00", "brand": "McDonald's"}, "geometry": {"type": "Point", "coordinates": [16.17842, 46.66921]}},
{"type": "Feature", "id": "UCC1O1reji62wK15WCy77KNAQ7c=", "properties": {"ref": "7", "@spider": "mcdonalds_si", "addr:full": "Tr\u017ea\u0161ka 6", "name": "Maribor - Swaty", "phone": "02 320 22 30", "opening_hours": "Mo 07:00-13:00; Th 07:00-14:00; We 08:00-24:00; Tu-Su 07:00-22:00", "brand": "McDonald's"}, "geometry": {"type": "Point", "coordinates": [15.647299, 46.540827]}},
{"type": "Feature", "id": "A0aktx3wLh_AghtOY6YgRCLfFwM=", "properties": {"ref": "20", "@spider": "mcdonalds_si", "addr:full": "Mariborska cesta 164", "name": "Celje - Celje", "phone": "036202395", "opening_hours": "Mo 07:00-24:00; Th 07:00-13:00; We 08:00-23:00; Tu-Su 07:00-22:00", "brand": "McDonald's"}, "geometry": {"type": "Point", "coordinates": [15.280437, 46.247968]}},
{"type": "Feature", "id": "xVfDW7Rm9mDtz4fDvzfIemEdu5A=", "properties": {"ref": "19", "@spider": "mcdonalds_si", "addr:full": "Vojkova cesta 111", "name": "Nova Gorica - Nova Gorica", "phone": "05 620 24 37", "opening_hours": "Mo-Th 08:00-24:00; We 08:00-23:00; Tu-Su 08:00-22:00", "brand": "McDonald's"}, "geometry": {"type": "Point", "coordinates": [13.653429, 45.954704]}},
{"type": "Feature", "id": "XKOW1ArTPb7mv7Yo6Eqe7rdw6w8=", "properties": {"ref": "21", "@spider": "mcdonalds_si", "addr:full": "Raku\u0161eva ulica 1", "name": "Ljubljana - Aleja ", "phone": "01 320 45 68", "opening_hours": "Mo-Sa 09:00-22:00; Su 11:00-21:00", "brand": "McDonald's"}, "geometry": {"type": "Point", "coordinates": [14.483613, 46.078483]}},
{"type": "Feature", "id": "HA15grVl4I9WASE-05YgbH7d5WM=", "properties": {"ref": "18", "@spider": "mcdonalds_si", "addr:full": "Na polju 24", "name": "Maribor - Petrol", "phone": "02 250 12 36", "opening_hours": "Mo 06:00-24:00; Th 06:00-14:00; We 06:00-24:00; Tu-Su 06:00-22:00", "brand": "McDonald's"}, "geometry": {"type": "Point", "coordinates": [15.6994714, 46.52929]}},
{"type": "Feature", "id": "aDUyiTl1tVBR6h8jPgbrIG_4lQs=", "properties": {"ref": "17", "@spider": "mcdonalds_si", "addr:full": "Ormo\u0161ka cesta 3", "name": "Ptuj - Ptuj", "phone": "02 25 01 238", "opening_hours": "Mo-Th 08:00-24:00; We 09:00-24:00; Tu-Su 08:00-22:00", "brand": "McDonald's"}, "geometry": {"type": "Point", "coordinates": [15.8767948, 46.4187839]}},
{"type": "Feature", "id": "2yotoOcyhJ8PRL_Rv5QitmhHeIw=", "properties": {"ref": "16", "@spider": "mcdonalds_si", "addr:full": "Hra\u0161ka cesta 21 a", "name": "Lesce - Lesce", "phone": "04 62 09 721", "opening_hours": "Mo 07:00-13:00; Th 07:00-14:00; We 07:00-13:00; Tu-Su 07:00-24:00", "brand": "McDonald's"}, "geometry": {"type": "Point", "coordinates": [14.159149, 46.3662499]}},
{"type": "Feature", "id": "wD6Vi1dVPdi5NBjqPBQblmK0PSo=", "properties": {"ref": "15", "@spider": "mcdonalds_si", "addr:full": "Ankaranska cesta 4", "name": "Koper - Koper", "phone": "05 620 9680", "opening_hours": "Mo 08:00-13:00; Th 08:00-15:00; We 08:00-24:00; Tu-Su 08:00-22:00", "brand": "McDonald's"}, "geometry": {"type": "Point", "coordinates": [13.73747, 45.541135]}},
{"type": "Feature", "id": "05KY8BK2L_zPq006_sxAdFZQGPc=", "properties": {"ref": "13", "@spider": "mcdonalds_si", "addr:full": "Cesta Bo\u0161tjana Hladnika 7", "name": "Kranj - Kranj", "phone": "04 62 09 722", "opening_hours": "Mo 08:00-24:00; Th 08:00-14:00; We 08:00-24:00; Tu-Su 08:00-22:00", "brand": "McDonald's"}, "geometry": {"type": "Point", "coordinates": [14.369278, 46.232433]}},
{"type": "Feature", "id": "1Y81vtR7vut8j5Phq8r4wpMUghM=", "properties": {"ref": "11", "@spider": "mcdonalds_si", "addr:full": "Kidri\u010deva 2b", "name": "Velenje - Velenje", "phone": "03 897 23 40", "opening_hours": "Mo-Th 08:00-24:00; We 09:00-24:00; Tu-Su 08:00-22:00", "brand": "McDonald's"}, "geometry": {"type": "Point", "coordinates": [15.117359, 46.360346]}},
{"type": "Feature", "id": "gV0BPcxTO9xx2Zxge-NM_vOvUWo=", "properties": {"ref": "12", "@spider": "mcdonalds_si", "addr:full": "Breznikova ulica 15", "name": "Dom\u017eale - Dom\u017eale", "phone": "01 729 24 29", "opening_hours": "Mo-Th 09:00-23:00; We-Su 09:00-22:00", "brand": "McDonald's"}, "geometry": {"type": "Point", "coordinates": [14.599285, 46.146154]}},
{"type": "Feature", "id": "cE5PtSOcBtD0WyuSukIxuQfU8n0=", "properties": {"ref": "14", "@spider": "mcdonalds_si", "addr:full": "Ljubljanska 24", "name": "Novo mesto - Novo mesto", "phone": "07 337 70 20", "opening_hours": "Mo 08:00-24:00; Th 08:00-13:00; We 08:00-24:00; Tu-Su 08:00-22:00", "brand": "McDonald's"}, "geometry": {"type": "Point", "coordinates": [15.153129, 45.814414]}}]}