{"type":"FeatureCollection","features":[{"type": "Feature", "id": "BWNoogIseOHrtXx5-8UAIlAsRoo=", "properties": {"ref": "WwBXX", "@spider": "medexpress", "addr:full": "2832 Pike Street", "addr:city": "Parkersburg", "addr:state": "WV", "addr:postcode": "26101", "name": "MedExpress Urgent Care", "phone": "3044893815", "website": "https://www.medexpress.com/location/wv/parkersburg/spw/", "brand": "Med Express"}, "geometry": {"type": "Point", "coordinates": [-81.5467685, 39.2193228]}},
{"type": "Feature", "id": "eStQfFBVKkDCKT_fJ6tBaMMMML8=", "properties": {"ref": "yjkJM", "@spider": "medexpress", "addr:full": "2652 Darlington Road", "addr:city": "Beaver Falls", "addr:state": "PA", "addr:postcode": "15010", "name": "MedExpress Urgent Care", "phone": "7248913278", "website": "https://www.medexpress.com/location/pa/beaver-falls/cpp/", "brand": "Med Express"}, "geometry": {"type": "Point", "coordinates": [-80.3819391131401, 40.77624062036256]}},
{"type": "Feature", "id": "nvADIATOOmLyfRaLmv04JKVot1k=", "properties": {"ref": "GwR2G", "@spider": "medexpress", "addr:full": "4520 Donald Ross Road", "addr:city": "Palm Beach Gardens", "addr:state": "FL", "addr:postcode": "33418", "name": "MedExpress Urgent Care", "phone": "5617763090", "website": "https://www.medexpress.com/location/fl/palm-beach-gardens/pgf/", "brand": "Med Express"}, "geometry": {"type": "Point", "coordinates": [-80.1047145, 26.8813822]}},
{"type": "Feature", "id": "4p95AVSJaCu7yT89RvOOM4kpvlA=", "properties": {"ref": "JwOmq", "@spider": "medexpress", "addr:full": "6998 Crider Road", "addr:city": "Mars", "addr:state": "PA", "addr:postcode": "16046", "name": "MedExpress Urgent Care", "phone": "7247783627", "website": "https://www.medexpress.com/location/pa/mars/msp/", "brand": "Med Express"}, "geometry": {"type": "Point", "coordinates": [-80.04089891910553, 40.69655472254325]}},
{"type": "Feature", "id": "E0HboGNzvYYfmLZbqR5OSMPokCA=", "properties": {"ref": "z2pqO", "@spider": "medexpress", "addr:full": "1048 Lincoln Way East", "addr:city": "Chambersburg", "addr:state": "PA", "addr:postcode": "17201", "name": "MedExpress Urgent Care", "phone": "7172672273", "website": "https://www.medexpress.com/location/pa/chambersburg/chp/", "brand": "Med Express"}, "geometry": {"type": "Point", "coordinates": [-77.64197125101418, 39.93055596447869]}},
{"type": "Feature", "id": "8zGMoJBWauPHtuJtLS9KTfPoxI0=", "properties": {"ref": "5joyz", "@spider": "medexpress", "addr:full": "451 Murtha Drive", "addr:city": "Waynesburg", "addr:state": "PA", "addr:postcode": "15370", "name": "MedExpress Urgent Care", "phone": "7248526391", "website": "https://www.medexpress.com/location/pa/waynesburg/wyp/", "brand": "Med Express"}, "geometry": {"type": "Point", "coordinates": [-80.1324691, 39.8917846]}},
{"type": "Feature", "id": "IulJATYE0ES_S6w82yRjlng8aDU=", "properties": {"ref": "PdZ9P", "@spider": "medexpress", "addr:full": "18471 Smock Hwy.", "addr:city": "Meadville", "addr:state": "PA", "addr:postcode": "16335", "name": "MedExpress Urgent Care", "phone": "8143333627", "website": "https://www.medexpress.com/location/pa/meadville/mdp/", "brand": "Med Express"}, "geometry": {"type": "Point", "coordinates": [-80.16789062889984, 41.61954688582396]}},
{"type": "Feature", "id": "fLp-s-M9I8_paEzGDJj3PK1ge9U=", "properties": {"ref": "jE0g5", "@spider": "medexpress", "addr:full": "1500 Grand Central Avenue", "addr:city": "Vienna", "addr:state": "WV", "addr:postcode": "26105", "name": "MedExpress Urgent Care", "phone": "3044853627", "website": "https://www.medexpress.com/location/wv/vienna/pbw/", "brand": "Med Express"}, "geometry": {"type": "Point", "coordinates": [-81.5515851, 39.3139808]}},
{"type": "Feature", "id": "P4OgaQvdwnOVj638I5eurcwRUV0=", "properties": {"ref": "ZwLq0", "@spider": "medexpress", "addr:full": "7593 Boynton Beach Blvd.", "addr:city": "Boynton Beach", "addr:state": "FL", "addr:postcode": "33437", "name": "MedExpress Urgent Care", "phone": "5615723200", "website": "https://www.medexpress.com/location/fl/boynton-beach/bbf/", "brand": "Med Express"}, "geometry": {"type": "Point", "coordinates": [-80.1657209, 26.5288766]}},
{"type": "Feature", "id": "ES0Js_QwZAKVQDOztH297ecRp0M=", "properties": {"ref": "oQp3P", "@spider": "medexpress", "addr:full": "1597 N. Susquehanna Trail", "addr:city": "Selinsgrove", "addr:state": "PA", "addr:postcode": "17870", "name": "MedExpress Urgent Care", "phone": "5707437821", "website": "https://www.medexpress.com/location/pa/selinsgrove/sgp/", "brand": "Med Express"}, "geometry": {"type": "Point", "coordinates": [-76.8400597, 40.831334]}},
{"type": "Feature", "id": "t7sryZiqyI7zitm80G_rSAYb5_I=", "properties": {"ref": "9o05g", "@spider": "medexpress", "addr:full": "5126 Route 30", "addr:city": "Greensburg", "addr:state": "PA", "addr:postcode": "15601", "name": "MedExpress Urgent Care", "phone": "7248363027", "website": "https://www.medexpress.com/location/pa/greensburg/gnp/", "brand": "Med Express"}, "geometry": {"type": "Point", "coordinates": [-79.49606314301496, 40.30154490850446]}},
{"type": "Feature", "id": "giThopDefkzDGD2VyqKm_zK1JUQ=", "properties": {"ref": "p7ypO", "@spider": "medexpress", "addr:full": "3840 Washington Road", "addr:city": "McMurray", "addr:state": "PA", "addr:postcode": "15317", "name": "MedExpress Urgent Care", "phone": "7249413273", "website": "https://www.medexpress.com/location/pa/mcmurray/ptp/", "brand": "Med Express"}, "geometry": {"type": "Point", "coordinates": [-80.12716541100667, 40.27420095917731]}},
{"type": "Feature", "id": "0iDoCrHpvbuQiAwVBQDEaZXw0cI=", "properties": {"ref": "Nw3JW", "@spider": "medexpress", "addr:full": "620 National Road", "addr:city": "Wheeling", "addr:state": "WV", "addr:postcode": "26003", "name": "MedExpress Urgent Care", "phone": "3042333627", "website": "https://www.medexpress.com/location/wv/wheeling/whw/", "brand": "Med Express"}, "geometry": {"type": "Point", "coordinates": [-80.70483936938217, 40.07510768403341]}},
{"type": "Feature", "id": "FhmozN2MMX993CtLXvem3p0ku5c=", "properties": {"ref": "Owra7", "@spider": "medexpress", "addr:full": "50 Freeport Road", "addr:city": "Pittsburgh", "addr:state": "PA", "addr:postcode": "15215", "name": "MedExpress Urgent Care", "phone": "4127823278", "website": "https://www.medexpress.com/location/pa/pittsburgh/otp/", "brand": "Med Express"}, "geometry": {"type": "Point", "coordinates": [-79.90784794092178, 40.49129031996903]}},
{"type": "Feature", "id": "XW22y7WpSeTFh81xIK-ItL-UyqY=", "properties": {"ref": "LwGjB", "@spider": "medexpress", "addr:full": "460 Washington Road", "addr:city": "Washington", "addr:state": "PA", "addr:postcode": "15301", "name": "MedExpress Urgent Care", "phone": "7242253627", "website": "https://www.medexpress.com/location/pa/washington/wsp/", "brand": "Med Express"}, "geometry": {"type": "Point", "coordinates": [-80.2165825, 40.1866764]}},
{"type": "Feature", "id": "CH4v07qlsbV4FWNhZLj7EiRoF_Y=", "properties": {"ref": "Rwolg", "@spider": "medexpress", "addr:full": "3944 Brodhead Road", "addr:city": "Monaca", "addr:state": "PA", "addr:postcode": "15061", "name": "MedExpress Urgent Care", "phone": "7247730777", "website": "https://www.medexpress.com/location/pa/monaca/ctp/", "brand": "Med Express"}, "geometry": {"type": "Point", "coordinates": [-80.3002484, 40.679828]}},
{"type": "Feature", "id": "n8RiK7txnnS0cGvVsIOChfi8R_I=", "properties": {"ref": "8ZDlP", "@spider": "medexpress", "addr:full": "1741 Dual Highway", "addr:city": "Hagerstown", "addr:state": "MD", "addr:postcode": "21740", "name": "MedExpress Urgent Care", "phone": "3017900254", "website": "https://www.medexpress.com/location/md/hagerstown/hgm/", "brand": "Med Express"}, "geometry": {"type": "Point", "coordinates": [-77.6913146674633, 39.61309414625366]}},
{"type": "Feature", "id": "Wnwqtj0_5g3nVOe2XpVgQ9HMEnA=", "properties": {"ref": "qWwy7", "@spider": "medexpress", "addr:full": "1560 Jefferson Street N", "addr:city": "Lewisburg", "addr:state": "WV", "addr:postcode": "24901", "name": "MedExpress Urgent Care", "phone": "3046452164", "website": "https://www.medexpress.com/location/wv/lewisburg/lbw/", "brand": "Med Express"}, "geometry": {"type": "Point", "coordinates": [-80.43531029447746, 37.80738046382959]}},
{"type": "Feature", "id": "swWmakJtpqXc_zcHAl8VAp-cid4=", "properties": {"ref": "awzRM", "@spider": "medexpress", "addr:full": "1613 North Atherton Street", "addr:city": "State College", "addr:state": "PA", "addr:postcode": "16803", "name": "MedExpress Urgent Care", "phone": "8142381066", "website": "https://www.medexpress.com/location/pa/state-college/scp/", "brand": "Med Express"}, "geometry": {"type": "Point", "coordinates": [-77.8938040137291, 40.80836049625318]}},
{"type": "Feature", "id": "OIHwj32yXmdiS3uhswCF6niFeNw=", "properties": {"ref": "62GQP", "@spider": "medexpress", "addr:full": "4003 College Avenue", "addr:city": "Bluefield", "addr:state": "VA", "addr:postcode": "24605", "name": "MedExpress Urgent Care", "phone": "2763222085", "website": "https://www.medexpress.com/location/va/bluefield/blv/", "brand": "Med Express"}, "geometry": {"type": "Point", "coordinates": [-81.2554507, 37.2379216]}},
{"type": "Feature", "id": "fbrOcQJdnwsjKyxyAD7s84J-mkg=", "properties": {"ref": "nkVQg", "@spider": "medexpress", "addr:full": "7219 McKnight Road", "addr:city": "Pittsburgh", "addr:state": "PA", "addr:postcode": "15237", "name": "MedExpress Urgent Care", "phone": "4123673278", "website": "https://www.medexpress.com/location/pa/pittsburgh/rtp/", "brand": "Med Express"}, "geometry": {"type": "Point", "coordinates": [-80.0133472681045, 40.538242045147406]}},
{"type": "Feature", "id": "pJDD0-Ke2DFUlwvcG5BHfUNoRgI=", "properties": {"ref": "35Lmg", "@spider": "medexpress", "addr:full": "4655 William Flynn Hwy.", "addr:city": "Allison Park", "addr:state": "PA", "addr:postcode": "15101", "name": "MedExpress Urgent Care", "phone": "4124863027", "website": "https://www.medexpress.com/location/pa/allison-park/app/", "brand": "Med Express"}, "geometry": {"type": "Point", "coordinates": [-79.9492861, 40.5916921]}},
{"type": "Feature", "id": "mR8K2ZxioLBvy_8s0wbu37xsld8=", "properties": {"ref": "lxBaQ", "@spider": "medexpress", "addr:full": "10500 Ulmerton Road", "addr:city": "Largo", "addr:state": "FL", "addr:postcode": "33771", "name": "MedExpress Urgent Care", "phone": "7275182273", "website": "https://www.medexpress.com/location/fl/largo/laf/", "brand": "Med Express"}, "geometry": {"type": "Point", "coordinates": [-82.78457258641993, 27.893557465992394]}},
{"type": "Feature", "id": "w3CYWTUE-Gkkc_pTZwRIewvdFhE=", "properties": {"ref": "bw8bR", "@spider": "medexpress", "addr:full": "256 New Castle Road", "addr:city": "Butler", "addr:state": "PA", "addr:postcode": "16001", "name": "MedExpress Urgent Care", "phone": "7242833627", "website": "https://www.medexpress.com/location/pa/butler/bup/", "brand": "Med Express"}, "geometry": {"type": "Point", "coordinates": [-79.93664748966694, 40.87231734086977]}},
{"type": "Feature", "id": "0j6KkbbXN7Z4ZIAKP2Kscb1fjKU=", "properties": {"ref": "0JlLa", "@spider": "medexpress", "addr:full": "218 Three Springs Drive", "addr:city": "Weirton", "addr:state": "WV", "addr:postcode": "26062", "name": "MedExpress Urgent Care", "phone": "3047233627", "website": "https://www.medexpress.com/location/wv/weirton/wew/", "brand": "Med Express"}, "geometry": {"type": "Point", "coordinates": [-80.5500544514689, 40.40209545026364]}},
{"type": "Feature", "id": "20GX2lD5JEa8ESv-0LwYOh-t7-A=", "properties": {"ref": "Aw9ED", "@spider": "medexpress", "addr:full": "2890 North College Avenue", "addr:city": "Fayetteville", "addr:state": "AR", "addr:postcode": "72703", "name": "MedExpress Urgent Care", "phone": "4795821279", "website": "https://www.medexpress.com/location/ar/fayetteville/fva/", "brand": "Med Express"}, "geometry": {"type": "Point", "coordinates": [-94.1471179, 36.1038047]}},
{"type": "Feature", "id": "PvEsL7DfhjYMnIctiM-teU_63QA=", "properties": {"ref": "Bw97r", "@spider": "medexpress", "addr:full": "129 N Dupont Highway", "addr:city": "New Castle", "addr:state": "DE", "addr:postcode": "19720", "name": "MedExpress Walk-In Care", "phone": "3023285150", "website": "https://www.medexpress.com/location/de/new-castle/ncd/", "brand": "Med Express"}, "geometry": {"type": "Point", "coordinates": [-75.59898912906641, 39.67231749562576]}},
{"type": "Feature", "id": "j7IVqQ_mrmxAfgxfLt6iIhPf_Dg=", "properties": {"ref": "4PMlL", "@spider": "medexpress", "addr:full": "1 Chestnut Hill Plaza", "addr:city": "Newark", "addr:state": "DE", "addr:postcode": "19713", "name": "MedExpress Walk-In Care", "phone": "3022660930", "website": "https://www.medexpress.com/location/de/newark/nwd/", "brand": "Med Express"}, "geometry": {"type": "Point", "coordinates": [-75.7247422, 39.6613674]}},
{"type": "Feature", "id": "tU9Kb9rYX00PSkNTeYNijcT8DmQ=", "properties": {"ref": "VwAgV", "@spider": "medexpress", "addr:full": "2722 Concord Pike", "addr:city": "Wilmington", "addr:state": "DE", "addr:postcode": "19803", "name": "MedExpress Walk-In Care", "phone": "3024771406", "website": "https://www.medexpress.com/location/de/wilmington/wcd/", "brand": "Med Express"}, "geometry": {"type": "Point", "coordinates": [-75.54792322218418, 39.79747779463458]}},
{"type": "Feature", "id": "9JtPx84hPgQ7ZcEPIeUrGnYp7Mc=", "properties": {"ref": "Ewamv", "@spider": "medexpress", "addr:full": "3926 Kirkwood Highway", "addr:city": "Wilmington", "addr:state": "DE", "addr:postcode": "19808", "name": "MedExpress Walk-In Care", "phone": "3029982417", "website": "https://www.medexpress.com/location/de/wilmington/wkd/", "brand": "Med Express"}, "geometry": {"type": "Point", "coordinates": [-75.64826667308807, 39.728371169891766]}},
{"type": "Feature", "id": "GLjAgqLYdUczpkabFg0ZPPYSHhI=", "properties": {"ref": "gB6pw", "@spider": "medexpress", "addr:full": "15 South Dupont Highway", "addr:city": "Dover", "addr:state": "DE", "addr:postcode": "19901", "name": "MedExpress Walk-In Care", "phone": "3026741514", "website": "https://www.medexpress.com/location/de/dover/dvd/", "brand": "Med Express"}, "geometry": {"type": "Point", "coordinates": [-75.5140898, 39.1631938]}},
{"type": "Feature", "id": "A2GaCqrz8DcqZRtYaCBTb48CuP0=", "properties": {"ref": "xPMx7", "@spider": "medexpress", "addr:full": "19090 State Road 7", "addr:city": "Boca Raton", "addr:state": "FL", "addr:postcode": "33498", "name": "MedExpress Urgent Care", "phone": "5613144650", "website": "https://www.medexpress.com/location/fl/boca-raton/wbf/", "brand": "Med Express"}, "geometry": {"type": "Point", "coordinates": [-80.20289763808256, 26.39283193123319]}},
{"type": "Feature", "id": "srgUZoMEBwS0ewGzEHOMlzRDjMc=", "properties": {"ref": "MwGJv", "@spider": "medexpress", "addr:full": "408 E. Brandon Blvd.", "addr:city": "Brandon", "addr:state": "FL", "addr:postcode": "33511", "name": "MedExpress Urgent Care", "phone": "8136815571", "website": "https://www.medexpress.com/location/fl/brandon/brf/", "brand": "Med Express"}, "geometry": {"type": "Point", "coordinates": [-82.2811332, 27.9378624]}},
{"type": "Feature", "id": "TCKLO4P7VWgkgTZ_IrqV2eQNYDA=", "properties": {"ref": "kgApA", "@spider": "medexpress", "addr:full": "13856 N. Dale Mabry Hwy.", "addr:city": "Tampa", "addr:state": "FL", "addr:postcode": "33618", "name": "MedExpress Urgent Care", "phone": "8132641885", "website": "https://www.medexpress.com/location/fl/tampa/caf/", "brand": "Med Express"}, "geometry": {"type": "Point", "coordinates": [-82.5070895254612, 28.071017064328842]}},
{"type": "Feature", "id": "wc8BlQ6AQxiHzeMEAjwBk5Sow2I=", "properties": {"ref": "bw8rD", "@spider": "medexpress", "addr:full": "26812 U.S. Hwy. 19N", "addr:city": "Clearwater", "addr:state": "FL", "addr:postcode": "33761", "name": "MedExpress Urgent Care", "phone": "7277992727", "website": "https://www.medexpress.com/location/fl/clearwater/clf/", "brand": "Med Express"}, "geometry": {"type": "Point", "coordinates": [-82.7380472, 28.0158905]}},
{"type": "Feature", "id": "DVTa-WEJWmCjeOSijRKNo6h8yl8=", "properties": {"ref": "Dw937", "@spider": "medexpress", "addr:full": "1809 N. University Drive", "addr:city": "Coral Springs", "addr:state": "FL", "addr:postcode": "33071", "name": "MedExpress Urgent Care", "phone": "9545101900", "website": "https://www.medexpress.com/location/fl/coral-springs/crf/", "brand": "Med Express"}, "geometry": {"type": "Point", "coordinates": [-80.25200955569744, 26.253322922696217]}},
{"type": "Feature", "id": "qEpOpMCbgwxddNSiCmC7XqIsld4=", "properties": {"ref": "0JlrL", "@spider": "medexpress", "addr:full": "22945 State Road 54", "addr:city": "Lutz", "addr:state": "FL", "addr:postcode": "33549", "name": "MedExpress Urgent Care", "phone": "8139099099", "website": "https://www.medexpress.com/location/fl/lutz/psf/", "brand": "Med Express"}, "geometry": {"type": "Point", "coordinates": [-82.43642941117287, 28.18653793003233]}},
{"type": "Feature", "id": "fo9BGEPrtp6uhc12O6j3R8uQUf0=", "properties": {"ref": "Aw9mm", "@spider": "medexpress", "addr:full": "20677 Bruce B. Downs Blvd.", "addr:city": "Tampa", "addr:state": "FL", "addr:postcode": "33647", "name": "MedExpress Urgent Care", "phone": "8139739731", "website": "https://www.medexpress.com/location/fl/tampa/ntf/", "brand": "Med Express"}, "geometry": {"type": "Point", "coordinates": [-82.35289871692663, 28.16909035191763]}},
{"type": "Feature", "id": "6PHiWZ-5GRg53Sv08_cNY2ggdAo=", "properties": {"ref": "Bw97q", "@spider": "medexpress", "addr:full": "13610 Bruce B. Downs Blvd.", "addr:city": "Tampa", "addr:state": "FL", "addr:postcode": "33613", "name": "MedExpress Urgent Care", "phone": "8139772777", "website": "https://www.medexpress.com/location/fl/tampa/nuf/", "brand": "Med Express"}, "geometry": {"type": "Point", "coordinates": [-82.42670498323605, 28.070910505833705]}},
{"type": "Feature", "id": "_fgk6DWk7GU4s1ZG8OCFcE4cLOg=", "properties": {"ref": "4PMlR", "@spider": "medexpress", "addr:full": "1021 N. State Road 7", "addr:city": "Royal Palm Beach", "addr:state": "FL", "addr:postcode": "33411", "name": "MedExpress Urgent Care", "phone": "5613339331", "website": "https://www.medexpress.com/location/fl/royal-palm-beach/ryf/", "brand": "Med Express"}, "geometry": {"type": "Point", "coordinates": [-80.20188510417938, 26.70384275302873]}},
{"type": "Feature", "id": "qUSS67Hw9rj5UnPAkRYfQk7500k=", "properties": {"ref": "WwBxL", "@spider": "medexpress", "addr:full": "1219 National Highway", "addr:city": "La Vale", "addr:state": "MD", "addr:postcode": "21502", "name": "MedExpress Urgent Care", "phone": "3017290529", "website": "https://www.medexpress.com/location/md/la-vale/lvm/", "brand": "Med Express"}, "geometry": {"type": "Point", "coordinates": [-78.834332, 39.637825]}},
{"type": "Feature", "id": "p-1rpUft9bxlEKqv8U6qwqzO030=", "properties": {"ref": "oQpbQ", "@spider": "medexpress", "addr:full": "300 East Plank Road", "addr:city": "Altoona", "addr:state": "PA", "addr:postcode": "16602", "name": "MedExpress Urgent Care", "phone": "8149463801", "website": "https://www.medexpress.com/location/pa/altoona/alp/", "brand": "Med Express"}, "geometry": {"type": "Point", "coordinates": [-78.40278093516417, 40.48101408097775]}},
{"type": "Feature", "id": "cmZl3YTSwCDq52LsRDWuuz5KrGc=", "properties": {"ref": "9o0G4", "@spider": "medexpress", "addr:full": "860 Rostraver Road", "addr:city": "Belle Vernon", "addr:state": "PA", "addr:postcode": "15012", "name": "MedExpress Urgent Care", "phone": "7249293278", "website": "https://www.medexpress.com/location/pa/belle-vernon/blp/", "brand": "Med Express"}, "geometry": {"type": "Point", "coordinates": [-79.8420238494873, 40.13795288036913]}},
{"type": "Feature", "id": "8LFyo4KLeXRvakXx8Lw1SMSs8CM=", "properties": {"ref": "p7yD6", "@spider": "medexpress", "addr:full": "5201 Baum Blvd.", "addr:city": "Pittsburgh", "addr:state": "PA", "addr:postcode": "15224", "name": "MedExpress Urgent Care", "phone": "4126873627", "website": "https://www.medexpress.com/location/pa/pittsburgh/ssp/", "brand": "Med Express"}, "geometry": {"type": "Point", "coordinates": [-79.94190647268624, 40.45618674625187]}},
{"type": "Feature", "id": "7UJM5tsaSBJoR5Cz7pC-NQR_5Vo=", "properties": {"ref": "OwrDq", "@spider": "medexpress", "addr:full": "3516 Saw Mill Run Blvd.", "addr:city": "Pittsburgh", "addr:state": "PA", "addr:postcode": "15227", "name": "MedExpress Urgent Care", "phone": "4128840327", "website": "https://www.medexpress.com/location/pa/pittsburgh/brp/", "brand": "Med Express"}, "geometry": {"type": "Point", "coordinates": [-79.9823657, 40.3726581]}},
{"type": "Feature", "id": "FfeHPDVXjVMwNZ-xKlX8ZGYYV7Q=", "properties": {"ref": "vzQEj", "@spider": "medexpress", "addr:full": "3024 Washington Pike", "addr:city": "Bridgeville", "addr:state": "PA", "addr:postcode": "15017", "name": "MedExpress Urgent Care", "phone": "4122215475", "website": "https://www.medexpress.com/location/pa/bridgeville/bdp/", "brand": "Med Express"}, "geometry": {"type": "Point", "coordinates": [-80.11538118124008, 40.353283597275535]}},
{"type": "Feature", "id": "21aBZvGVhj3XWFczCIjiGIqVdLg=", "properties": {"ref": "LwG5k", "@spider": "medexpress", "addr:full": "655 E Dubois Avenue", "addr:city": "Dubois", "addr:state": "PA", "addr:postcode": "15801", "name": "MedExpress Urgent Care", "phone": "8143716164", "website": "https://www.medexpress.com/location/pa/dubois/dbp/", "brand": "Med Express"}, "geometry": {"type": "Point", "coordinates": [-78.74314705838272, 41.12518529747685]}},
{"type": "Feature", "id": "6TvvwwwztaCDr8mqa3cOVWLfPM4=", "properties": {"ref": "RwoB5", "@spider": "medexpress", "addr:full": "276 W Side Mall", "addr:city": "Edwardsville", "addr:state": "PA", "addr:postcode": "18704", "name": "MedExpress Urgent Care", "phone": "5702830791", "website": "https://www.medexpress.com/location/pa/edwardsville/edp/", "brand": "Med Express"}, "geometry": {"type": "Point", "coordinates": [-75.9029021, 41.2575492]}},
{"type": "Feature", "id": "YC8F8t_9j0MN0XH2wlKWjJ2F3t0=", "properties": {"ref": "mM4dA", "@spider": "medexpress", "addr:full": "1729 East State Street", "addr:city": "Hermitage", "addr:state": "PA", "addr:postcode": "16148", "name": "MedExpress Urgent Care", "phone": "7243472083", "website": "https://www.medexpress.com/location/pa/hermitage/hmp/", "brand": "Med Express"}, "geometry": {"type": "Point", "coordinates": [-80.4778035, 41.2335932]}},
{"type": "Feature", "id": "IBkeCq7JlNbhQvRiMA_3E9E8t5Q=", "properties": {"ref": "qWwpE", "@spider": "medexpress", "addr:full": "2128 Oakland Avenue", "addr:city": "Indiana", "addr:state": "PA", "addr:postcode": "15701", "name": "MedExpress Urgent Care", "phone": "7243494362", "website": "https://www.medexpress.com/location/pa/indiana/idp/", "brand": "Med Express"}, "geometry": {"type": "Point", "coordinates": [-79.17930632829666, 40.609387350764024]}},
{"type": "Feature", "id": "s_lZy_ySK0Z_SicVCFt3HuD6uSk=", "properties": {"ref": "w5P7y", "@spider": "medexpress", "addr:full": "6510 Route 30", "addr:city": "Jeannette", "addr:state": "PA", "addr:postcode": "15644", "name": "MedExpress Urgent Care", "phone": "7245273428", "website": "https://www.medexpress.com/location/pa/jeannette/jnp/", "brand": "Med Express"}, "geometry": {"type": "Point", "coordinates": [-79.61812234954323, 40.31047428778135]}},
{"type": "Feature", "id": "x-hBQ4Ivjih8g7BDnQezz0St2dM=", "properties": {"ref": "dDJaV", "@spider": "medexpress", "addr:full": "1221 Scalp Avenue", "addr:city": "Johnstown", "addr:state": "PA", "addr:postcode": "15904", "name": "MedExpress Urgent Care", "phone": "8142661138", "website": "https://www.medexpress.com/location/pa/johnstown/jtp/", "brand": "Med Express"}, "geometry": {"type": "Point", "coordinates": [-78.860311, 40.278546]}},
{"type": "Feature", "id": "8TfcpLj69ZhcmfSOAnYks_Z2uWE=", "properties": {"ref": "awzav", "@spider": "medexpress", "addr:full": "4 Rohrerstown Road", "addr:city": "Lancaster", "addr:state": "PA", "addr:postcode": "17603", "name": "MedExpress Urgent Care", "phone": "7172993627", "website": "https://www.medexpress.com/location/pa/lancaster/lwp/", "brand": "Med Express"}, "geometry": {"type": "Point", "coordinates": [-76.36467553675857, 40.03992245295164]}},
{"type": "Feature", "id": "BhLLKLOfnObh6wtrS-Ka2LVf7Zk=", "properties": {"ref": "62GVb", "@spider": "medexpress", "addr:full": "3876 Route 30", "addr:city": "Latrobe", "addr:state": "PA", "addr:postcode": "15650", "name": "MedExpress Urgent Care", "phone": "7245375064", "website": "https://www.medexpress.com/location/pa/latrobe/ltp/", "brand": "Med Express"}, "geometry": {"type": "Point", "coordinates": [-79.38273847103119, 40.28639869221871]}},
{"type": "Feature", "id": "D_EIl7Aym7mA9FQ4xppfLmWAxY0=", "properties": {"ref": "nkV7b", "@spider": "medexpress", "addr:full": "1010 West Crestview Drive", "addr:city": "Lebanon", "addr:state": "PA", "addr:postcode": "17042", "name": "MedExpress Urgent Care", "phone": "7172727469", "website": "https://www.medexpress.com/location/pa/lebanon/lbp/", "brand": "Med Express"}, "geometry": {"type": "Point", "coordinates": [-76.42471119761467, 40.318291093070684]}},
{"type": "Feature", "id": "gMkhoyQ5yxNqtvFg1MA9ymupF4c=", "properties": {"ref": "35LAW", "@spider": "medexpress", "addr:full": "5039 Peach Street", "addr:city": "Erie", "addr:state": "PA", "addr:postcode": "16509", "name": "MedExpress Urgent Care", "phone": "8148661443", "website": "https://www.medexpress.com/location/pa/erie/mcp/", "brand": "Med Express"}, "geometry": {"type": "Point", "coordinates": [-80.08972947301118, 42.08034022202424]}},
{"type": "Feature", "id": "j5RMfJcz9ZxzOOA7OcC8DxHAir0=", "properties": {"ref": "lxB2B", "@spider": "medexpress", "addr:full": "3433 William Penn Hwy.", "addr:city": "Pittsburgh", "addr:state": "PA", "addr:postcode": "15235", "name": "MedExpress Urgent Care", "phone": "4128253627", "website": "https://www.medexpress.com/location/pa/pittsburgh/mrp/", "brand": "Med Express"}, "geometry": {"type": "Point", "coordinates": [-79.81276899576187, 40.429092530053]}},
{"type": "Feature", "id": "h_HxCDX7Et0UvfMzV5PLL3jUcfE=", "properties": {"ref": "bw8aD", "@spider": "medexpress", "addr:full": "2644 Mosside Blvd.", "addr:city": "Monroeville", "addr:state": "PA", "addr:postcode": "15146", "name": "MedExpress Urgent Care", "phone": "4123725649", "website": "https://www.medexpress.com/location/pa/monroeville/mmp/", "brand": "Med Express"}, "geometry": {"type": "Point", "coordinates": [-79.750579, 40.4319029]}},
{"type": "Feature", "id": "zKoRodMKukddgJ-gkp3hF7np4tY=", "properties": {"ref": "Dw9q7", "@spider": "medexpress", "addr:full": "8702 University Blvd.", "addr:city": "Moon Township", "addr:state": "PA", "addr:postcode": "15108", "name": "MedExpress Urgent Care", "phone": "4122993627", "website": "https://www.medexpress.com/location/pa/moon-township/mnp/", "brand": "Med Express"}, "geometry": {"type": "Point", "coordinates": [-80.22365144919377, 40.50609476124235]}},
{"type": "Feature", "id": "C0n8LZaHfo0YnO_B3uZqMe8TC_w=", "properties": {"ref": "0JlbL", "@spider": "medexpress", "addr:full": "1535 Washington Road", "addr:city": "Pittsburgh", "addr:state": "PA", "addr:postcode": "15228", "name": "MedExpress Urgent Care", "phone": "4125311585", "website": "https://www.medexpress.com/location/pa/pittsburgh/mlp/", "brand": "Med Express"}, "geometry": {"type": "Point", "coordinates": [-80.04975020885468, 40.35643744891299]}},
{"type": "Feature", "id": "s3HeDQdwitZ7pUev1Qv71adI7jU=", "properties": {"ref": "Aw92m", "@spider": "medexpress", "addr:full": "6396 Route 819 South", "addr:city": "Mt. Pleasant", "addr:state": "PA", "addr:postcode": "15666", "name": "MedExpress Urgent Care", "phone": "7245473627", "website": "https://www.medexpress.com/location/pa/mt--pleasant/mpp/", "brand": "Med Express"}, "geometry": {"type": "Point", "coordinates": [-79.54864516854286, 40.126565309862514]}},
{"type": "Feature", "id": "1A5qPLd6MN7IMLL0GaZGCnzjh4Y=", "properties": {"ref": "Bw9qq", "@spider": "medexpress", "addr:full": "4620 William Penn Highway", "addr:city": "Murrysville", "addr:state": "PA", "addr:postcode": "15668", "name": "MedExpress Urgent Care", "phone": "7243253027", "website": "https://www.medexpress.com/location/pa/murrysville/mvp/", "brand": "Med Express"}, "geometry": {"type": "Point", "coordinates": [-79.66977506875992, 40.425727688086646]}},
{"type": "Feature", "id": "cetcj-wMlGlynm3OJhxSZUwLqxY=", "properties": {"ref": "4PMBR", "@spider": "medexpress", "addr:full": "2411 Wilmington Road", "addr:city": "New Castle", "addr:state": "PA", "addr:postcode": "16105", "name": "MedExpress Urgent Care", "phone": "7246564320", "website": "https://www.medexpress.com/location/pa/new-castle/nep/", "brand": "Med Express"}, "geometry": {"type": "Point", "coordinates": [-80.35439014434809, 41.02659813263018]}},
{"type": "Feature", "id": "-K9aeo-QH9CRvKfFkMOPCDYuP0A=", "properties": {"ref": "VwAqk", "@spider": "medexpress", "addr:full": "12116 State Route 30", "addr:city": "North Huntingdon", "addr:state": "PA", "addr:postcode": "15642", "name": "MedExpress Urgent Care", "phone": "7248634362", "website": "https://www.medexpress.com/location/pa/north-huntingdon/ntp/", "brand": "Med Express"}, "geometry": {"type": "Point", "coordinates": [-79.7417000846558, 40.33178995532704]}},
{"type": "Feature", "id": "RADk7BS5HmRE8ELhPS5frsjf1Gg=", "properties": {"ref": "EwaG7", "@spider": "medexpress", "addr:full": "695 Clairton Blvd.", "addr:city": "Pleasant Hills", "addr:state": "PA", "addr:postcode": "15236", "name": "MedExpress Urgent Care", "phone": "4126535556", "website": "https://www.medexpress.com/location/pa/pleasant-hills/plp/", "brand": "Med Express"}, "geometry": {"type": "Point", "coordinates": [-79.94454458355904, 40.328811197376794]}},
{"type": "Feature", "id": "sUad-9QRt98MWghmoXoWAHzpitQ=", "properties": {"ref": "gB6av", "@spider": "medexpress", "addr:full": "1984 Greentree Road", "addr:city": "Pittsburgh", "addr:state": "PA", "addr:postcode": "15220", "name": "MedExpress Urgent Care", "phone": "4123433627", "website": "https://www.medexpress.com/location/pa/pittsburgh/stp/", "brand": "Med Express"}, "geometry": {"type": "Point", "coordinates": [-80.06701827049255, 40.39462351870805]}},
{"type": "Feature", "id": "D2Spwrr7Mzxn204LkdJgH-K1k2I=", "properties": {"ref": "xPMz2", "@spider": "medexpress", "addr:full": "303 East Tenth Avenue", "addr:city": "Tarentum", "addr:state": "PA", "addr:postcode": "15084", "name": "MedExpress Urgent Care", "phone": "7242242770", "website": "https://www.medexpress.com/location/pa/tarentum/tap/", "brand": "Med Express"}, "geometry": {"type": "Point", "coordinates": [-79.756238758564, 40.605457295225314]}},
{"type": "Feature", "id": "O2h7BknYl7emmxQGBGUBzkWyHw4=", "properties": {"ref": "MwG2z", "@spider": "medexpress", "addr:full": "289 McClellandtown Road", "addr:city": "Uniontown", "addr:state": "PA", "addr:postcode": "15401", "name": "MedExpress Urgent Care", "phone": "7244393627", "website": "https://www.medexpress.com/location/pa/uniontown/unp/", "brand": "Med Express"}, "geometry": {"type": "Point", "coordinates": [-79.7512637, 39.901849]}},
{"type": "Feature", "id": "NYO_MEAq-LDOF_WP5gQfbGhF9Bc=", "properties": {"ref": "Qw320", "@spider": "medexpress", "addr:full": "677 Kidder Street", "addr:city": "Wilkes-Barre", "addr:state": "PA", "addr:postcode": "18702", "name": "MedExpress Urgent Care", "phone": "5708252046", "website": "https://www.medexpress.com/location/pa/wilkes-barre/wbp/", "brand": "Med Express"}, "geometry": {"type": "Point", "coordinates": [-75.8479419350897, 41.24971857841988]}},
{"type": "Feature", "id": "S-2D4BmKWPIlDiz9E8rmt9woGiU=", "properties": {"ref": "7lbEq", "@spider": "medexpress", "addr:full": "1953 East 3rd Street", "addr:city": "Williamsport", "addr:state": "PA", "addr:postcode": "17701", "name": "MedExpress Urgent Care", "phone": "5703234072", "website": "https://www.medexpress.com/location/pa/williamsport/wpp/", "brand": "Med Express"}, "geometry": {"type": "Point", "coordinates": [-76.96059957148009, 41.24846558546286]}},
{"type": "Feature", "id": "-0YfrfDwqUKU8P8ZksQkZmblQTA=", "properties": {"ref": "WwBJL", "@spider": "medexpress", "addr:full": "400 Loucks Road", "addr:city": "York", "addr:state": "PA", "addr:postcode": "17404", "name": "MedExpress Urgent Care", "phone": "7178452273", "website": "https://www.medexpress.com/location/pa/york/ykp/", "brand": "Med Express"}, "geometry": {"type": "Point", "coordinates": [-76.74013227224344, 39.98280401440152]}},
{"type": "Feature", "id": "eHSMH_IjXsgGoMQy49cFP8fZ4RE=", "properties": {"ref": "GwRGb", "@spider": "medexpress", "addr:full": "1149 Seminole Trail", "addr:city": "Charlottesville", "addr:state": "VA", "addr:postcode": "22901", "name": "MedExpress Urgent Care", "phone": "4349783998", "website": "https://www.medexpress.com/location/va/charlottesville/ssv/", "brand": "Med Express"}, "geometry": {"type": "Point", "coordinates": [-78.4880022, 38.065306]}},
{"type": "Feature", "id": "k17DMQpozlcE3Xcfw0FD3YnrBow=", "properties": {"ref": "JwO3M", "@spider": "medexpress", "addr:full": "100 Spradlin Farm Drive", "addr:city": "Christiansburg", "addr:state": "VA", "addr:postcode": "24073", "name": "MedExpress Urgent Care", "phone": "5403812745", "website": "https://www.medexpress.com/location/va/christiansburg/cbv/", "brand": "Med Express"}, "geometry": {"type": "Point", "coordinates": [-80.42304396629333, 37.16022463063819]}},
{"type": "Feature", "id": "fERM1_jcpIR0ZzgR6kI0ObNatJU=", "properties": {"ref": "rypaj", "@spider": "medexpress", "addr:full": "1420 South Main Street", "addr:city": "Culpeper", "addr:state": "VA", "addr:postcode": "22701", "name": "MedExpress Urgent Care", "phone": "5408252202", "website": "https://www.medexpress.com/location/va/culpeper/cpv/", "brand": "Med Express"}, "geometry": {"type": "Point", "coordinates": [-77.99963861703878, 38.46529788157088]}},
{"type": "Feature", "id": "nrokvyFewTQHlW0JO0BNpnCowuU=", "properties": {"ref": "z2p3V", "@spider": "medexpress", "addr:full": "133 Enterprise Drive", "addr:city": "Danville", "addr:state": "VA", "addr:postcode": "24540", "name": "MedExpress Urgent Care", "phone": "4347922907", "website": "https://www.medexpress.com/location/va/danville/dvv/", "brand": "Med Express"}, "geometry": {"type": "Point", "coordinates": [-79.42546762526206, 36.5939896164823]}},
{"type": "Feature", "id": "bDxIJUcvez7e1frjUN7LSwqrVSs=", "properties": {"ref": "5jo4x", "@spider": "medexpress", "addr:full": "1840 East Market Street", "addr:city": "Harrisonburg", "addr:state": "VA", "addr:postcode": "22802", "name": "MedExpress Urgent Care", "phone": "5404323080", "website": "https://www.medexpress.com/location/va/harrisonburg/hbv/", "brand": "Med Express"}, "geometry": {"type": "Point", "coordinates": [-78.841879, 38.43063]}},
{"type": "Feature", "id": "cdSMBBq7uoEBFbCi0qcHOXWoqgA=", "properties": {"ref": "PdZaV", "@spider": "medexpress", "addr:full": "5610 Williamson Road", "addr:city": "Roanoke", "addr:state": "VA", "addr:postcode": "24012", "name": "MedExpress Urgent Care", "phone": "5402658924", "website": "https://www.medexpress.com/location/va/roanoke/hlv/", "brand": "Med Express"}, "geometry": {"type": "Point", "coordinates": [-79.95358362793922, 37.32648541403027]}},
{"type": "Feature", "id": "dszDseuQRgVKTVJJuU86Xhd6BZo=", "properties": {"ref": "jE0ak", "@spider": "medexpress", "addr:full": "2818 Linkhorne Drive", "addr:city": "Lynchburg", "addr:state": "VA", "addr:postcode": "24503", "name": "MedExpress Urgent Care", "phone": "4343841573", "website": "https://www.medexpress.com/location/va/lynchburg/lhv/", "brand": "Med Express"}, "geometry": {"type": "Point", "coordinates": [-79.2034964, 37.4161294]}},
{"type": "Feature", "id": "2t6rd0V0t6F9L9s9cXeIaBvkKHY=", "properties": {"ref": "2zo0B", "@spider": "medexpress", "addr:full": "260 Pantops Center", "addr:city": "Charlottesville", "addr:state": "VA", "addr:postcode": "22911", "name": "MedExpress Urgent Care", "phone": "4342443027", "website": "https://www.medexpress.com/location/va/charlottesville/ptv/", "brand": "Med Express"}, "geometry": {"type": "Point", "coordinates": [-78.4564368, 38.0335066]}},
{"type": "Feature", "id": "J6GFG2evl20t8HGSW7iICo35UTA=", "properties": {"ref": "X34Z5", "@spider": "medexpress", "addr:full": "1336 West Main Street", "addr:city": "Salem", "addr:state": "VA", "addr:postcode": "24153", "name": "MedExpress Urgent Care", "phone": "5403890374", "website": "https://www.medexpress.com/location/va/salem/slv/", "brand": "Med Express"}, "geometry": {"type": "Point", "coordinates": [-80.07873400124481, 37.28929050840979]}},
{"type": "Feature", "id": "XXjNVVxc_ZIvucBfjZ4imMPKYrA=", "properties": {"ref": "ZwLJW", "@spider": "medexpress", "addr:full": "1209 Richmond Avenue", "addr:city": "Staunton", "addr:state": "VA", "addr:postcode": "24401", "name": "MedExpress Urgent Care", "phone": "5408850629", "website": "https://www.medexpress.com/location/va/staunton/stv/", "brand": "Med Express"}, "geometry": {"type": "Point", "coordinates": [-79.04089763760567, 38.13354601147559]}},
{"type": "Feature", "id": "HAa4bqr0Q8ZPDjSTXQqDSxfmgxA=", "properties": {"ref": "oQp7Q", "@spider": "medexpress", "addr:full": "21054 Timberlake Road", "addr:city": "Lynchburg", "addr:state": "VA", "addr:postcode": "24502", "name": "MedExpress Urgent Care", "phone": "4342390627", "website": "https://www.medexpress.com/location/va/lynchburg/tlv/", "brand": "Med Express"}, "geometry": {"type": "Point", "coordinates": [-79.24155972898006, 37.3341100537052]}},
{"type": "Feature", "id": "5ot4WxEe9U4AcfqoxogiuFEHlKw=", "properties": {"ref": "9o0x4", "@spider": "medexpress", "addr:full": "207 Gateway Drive", "addr:city": "Winchester", "addr:state": "VA", "addr:postcode": "22603", "name": "MedExpress Urgent Care", "phone": "5405351029", "website": "https://www.medexpress.com/location/va/winchester/wgv/", "brand": "Med Express"}, "geometry": {"type": "Point", "coordinates": [-78.1333945, 39.1856627]}},
{"type": "Feature", "id": "cBbtx2trqG2uAm7b2coP8q2RXBY=", "properties": {"ref": "p7yr6", "@spider": "medexpress", "addr:full": "1709 Harper Road", "addr:city": "Beckley", "addr:state": "WV", "addr:postcode": "25801", "name": "MedExpress Urgent Care", "phone": "3042563027", "website": "https://www.medexpress.com/location/wv/beckley/bew/", "brand": "Med Express"}, "geometry": {"type": "Point", "coordinates": [-81.2032774, 37.7864156]}},
{"type": "Feature", "id": "yCiuM9h13Gmk0xLN09YR9-t-ihU=", "properties": {"ref": "Nw326", "@spider": "medexpress", "addr:full": "520 Beckley Crossing Shopping Center", "addr:city": "Beckley", "addr:state": "WV", "addr:postcode": "25801", "name": "MedExpress Urgent Care", "phone": "3042526639", "website": "https://www.medexpress.com/location/wv/beckley/bcw/", "brand": "Med Express"}, "geometry": {"type": "Point", "coordinates": [-81.18368073368401, 37.80290499545949]}},
{"type": "Feature", "id": "4WOLdffohwUL7Sc38X15f0Kwvns=", "properties": {"ref": "Owr2q", "@spider": "medexpress", "addr:full": "5430 Maccorkle Ave. SE", "addr:city": "Charleston", "addr:state": "WV", "addr:postcode": "25304", "name": "MedExpress Urgent Care", "phone": "3049253627", "website": "https://www.medexpress.com/location/wv/charleston/chw/", "brand": "Med Express"}, "geometry": {"type": "Point", "coordinates": [-81.57102070748806, 38.31564527545401]}},
{"type": "Feature", "id": "UXB2gHXOToTRLwu3pNnRjtXxQcA=", "properties": {"ref": "vzQqj", "@spider": "medexpress", "addr:full": "1416 Maccorkle Ave. SW", "addr:city": "Charleston", "addr:state": "WV", "addr:postcode": "25303", "name": "MedExpress Urgent Care", "phone": "3047447517", "website": "https://www.medexpress.com/location/wv/charleston/psw/", "brand": "Med Express"}, "geometry": {"type": "Point", "coordinates": [-81.6683077, 38.3628532]}},
{"type": "Feature", "id": "8_MPNIMLr1W7itMVM1RQbBsGZJ0=", "properties": {"ref": "Rwo25", "@spider": "medexpress", "addr:full": "10 Elm Grove Crossing Mall", "addr:city": "Wheeling", "addr:state": "WV", "addr:postcode": "26003", "name": "MedExpress Urgent Care", "phone": "3042424228", "website": "https://www.medexpress.com/location/wv/wheeling/egw/", "brand": "Med Express"}, "geometry": {"type": "Point", "coordinates": [-80.6517772, 40.0470076]}},
{"type": "Feature", "id": "a23w31jsJNdv9N-9zShYbXuciHo=", "properties": {"ref": "mM4aA", "@spider": "medexpress", "addr:full": "3120 US Route 60", "addr:city": "Huntington", "addr:state": "WV", "addr:postcode": "25705", "name": "MedExpress Urgent Care", "phone": "3045223627", "website": "https://www.medexpress.com/location/wv/huntington/huw/", "brand": "Med Express"}, "geometry": {"type": "Point", "coordinates": [-82.38394126296043, 38.41055825094609]}},
{"type": "Feature", "id": "ItVnd5PhYDKQGGMCAF4_U1mxA_I=", "properties": {"ref": "qWwGE", "@spider": "medexpress", "addr:full": "10 Adams Avenue", "addr:city": "Huntington", "addr:state": "WV", "addr:postcode": "25701", "name": "MedExpress Urgent Care", "phone": "3045238838", "website": "https://www.medexpress.com/location/wv/huntington/hww/", "brand": "Med Express"}, "geometry": {"type": "Point", "coordinates": [-82.45786026120186, 38.41749780574295]}},
{"type": "Feature", "id": "j5AJNixUXSOKOieQ0gh9mKLKDaY=", "properties": {"ref": "w5PNy", "@spider": "medexpress", "addr:full": "83 Retail Commons Parkway", "addr:city": "Martinsburg", "addr:state": "WV", "addr:postcode": "25403", "name": "MedExpress Urgent Care", "phone": "3042649730", "website": "https://www.medexpress.com/location/wv/martinsburg/mcw/", "brand": "Med Express"}, "geometry": {"type": "Point", "coordinates": [-77.9912011, 39.4424473]}},
{"type": "Feature", "id": "GesvSCTR-8HLatExGO9ZBroguso=", "properties": {"ref": "awz8v", "@spider": "medexpress", "addr:full": "277 Greasy Ridge Rd.", "addr:city": "Princeton", "addr:state": "WV", "addr:postcode": "24740", "name": "MedExpress Urgent Care", "phone": "3044257615", "website": "https://www.medexpress.com/location/wv/princeton/prw/", "brand": "Med Express"}, "geometry": {"type": "Point", "coordinates": [-81.045584, 37.3614535]}},
{"type": "Feature", "id": "Kja_q52v2PPnKPn4rWtQcdN92wk=", "properties": {"ref": "62Gnb", "@spider": "medexpress", "addr:full": "4812 Maccorkle Ave. SW", "addr:city": "Charleston", "addr:state": "WV", "addr:postcode": "25309", "name": "MedExpress Urgent Care", "phone": "3047683627", "website": "https://www.medexpress.com/location/wv/charleston/scw/", "brand": "Med Express"}, "geometry": {"type": "Point", "coordinates": [-81.73008441925049, 38.35500940866778]}},
{"type": "Feature", "id": "rGIxjiBZPPJpcBfaZj17QHIHcsA=", "properties": {"ref": "35LaW", "@spider": "medexpress", "addr:full": "563 State Route 34", "addr:city": "Hurricane", "addr:state": "WV", "addr:postcode": "25526", "name": "MedExpress Urgent Care", "phone": "3047575063", "website": "https://www.medexpress.com/location/wv/hurricane/tvw/", "brand": "Med Express"}, "geometry": {"type": "Point", "coordinates": [-81.937116086483, 38.45486053260923]}},
{"type": "Feature", "id": "2WBV84ip1l835JuRh80uANSBKT4=", "properties": {"ref": "bw82D", "@spider": "medexpress", "addr:full": "1160 South 40th Street", "addr:city": "Springdale", "addr:state": "AR", "addr:postcode": "72762", "name": "MedExpress Urgent Care", "phone": "4797502971", "website": "https://www.medexpress.com/location/ar/springdale/sda/", "brand": "Med Express"}, "geometry": {"type": "Point", "coordinates": [-94.1751346, 36.1755104]}},
{"type": "Feature", "id": "tvkW0Z1p1z1c3Ev8b83SDLhiH7I=", "properties": {"ref": "Dw9y7", "@spider": "medexpress", "addr:full": "101 Emily Dr.", "addr:city": "Clarksburg", "addr:state": "WV", "addr:postcode": "26301", "name": "MedExpress Urgent Care", "phone": "3046235094", "website": "https://www.medexpress.com/location/wv/clarksburg/bpw/", "brand": "Med Express"}, "geometry": {"type": "Point", "coordinates": [-80.27820736169815, 39.28051599681095]}},
{"type": "Feature", "id": "MtsAGZIRSRlsDtJDlBQg4Hu__xo=", "properties": {"ref": "0JlRL", "@spider": "medexpress", "addr:full": "1005 SE Walton Blvd.", "addr:city": "Bentonville", "addr:state": "AR", "addr:postcode": "72712", "name": "MedExpress Urgent Care", "phone": "4792546734", "website": "https://www.medexpress.com/location/ar/bentonville/bva/", "brand": "Med Express"}, "geometry": {"type": "Point", "coordinates": [-94.1986595, 36.3358286]}},
{"type": "Feature", "id": "L5m3FsAZiOGPzCZ-jeFBgKfiaSk=", "properties": {"ref": "VwAOk", "@spider": "medexpress", "addr:full": "805 Oak Street", "addr:city": "Conway", "addr:state": "AR", "addr:postcode": "72032", "name": "MedExpress Urgent Care", "phone": "5015042329", "website": "https://www.medexpress.com/location/ar/conway/cwa/", "brand": "Med Express"}, "geometry": {"type": "Point", "coordinates": [-92.4346535, 35.0915752]}},
{"type": "Feature", "id": "uFQMsT4eMSokJyP0QriGGfHFjyA=", "properties": {"ref": "Ewaq7", "@spider": "medexpress", "addr:full": "4600 Rogers Avenue", "addr:city": "Fort Smith", "addr:state": "AR", "addr:postcode": "72903", "name": "MedExpress Urgent Care", "phone": "4794947443", "website": "https://www.medexpress.com/location/ar/fort-smith/fsa/", "brand": "Med Express"}, "geometry": {"type": "Point", "coordinates": [-94.3813397, 35.3678002]}},
{"type": "Feature", "id": "-kVCOQuJp9cY8ZRf4ppYkD-tDng=", "properties": {"ref": "gB62v", "@spider": "medexpress", "addr:full": "1900 West Walnut Street", "addr:city": "Rogers", "addr:state": "AR", "addr:postcode": "72756", "name": "MedExpress Urgent Care", "phone": "4796361337", "website": "https://www.medexpress.com/location/ar/rogers/rga/", "brand": "Med Express"}, "geometry": {"type": "Point", "coordinates": [-94.1454986, 36.3336887]}},
{"type": "Feature", "id": "0FHfGPcPayg6xP37EmmPBFdZCqg=", "properties": {"ref": "xPMG2", "@spider": "medexpress", "addr:full": "1585 Wheeling Avenue", "addr:city": "Glen Dale", "addr:state": "WV", "addr:postcode": "26038", "name": "MedExpress Urgent Care", "phone": "3048435381", "website": "https://www.medexpress.com/location/wv/glen-dale/gdw/", "brand": "Med Express"}, "geometry": {"type": "Point", "coordinates": [-80.75475007295609, 39.93758371899613]}},
{"type": "Feature", "id": "J6Q1MUkAxmxVSON7ApwR4XVuRuw=", "properties": {"ref": "MwGqz", "@spider": "medexpress", "addr:full": "1501 Military Road", "addr:city": "Benton", "addr:state": "AR", "addr:postcode": "72015", "name": "MedExpress Urgent Care", "phone": "5017768341", "website": "https://www.medexpress.com/location/ar/benton/bta/", "brand": "Med Express"}, "geometry": {"type": "Point", "coordinates": [-92.575104, 34.5780776]}},
{"type": "Feature", "id": "GFEN24KbM-DtF1K6TtG11uFLNp8=", "properties": {"ref": "kgA2V", "@spider": "medexpress", "addr:full": "1440 Morrell Avenue", "addr:city": "Connellsville", "addr:state": "PA", "addr:postcode": "15425", "name": "MedExpress Urgent Care", "phone": "7246261347", "website": "https://www.medexpress.com/location/pa/connellsville/dtp/", "brand": "Med Express"}, "geometry": {"type": "Point", "coordinates": [-79.60611015558243, 40.00223838545007]}},
{"type": "Feature", "id": "VivE4DO_w9sp4nTK2m3SOqXKPcU=", "properties": {"ref": "bw82z", "@spider": "medexpress", "addr:full": "511 West Main Street", "addr:city": "Russellville", "addr:state": "AR", "addr:postcode": "72801", "name": "MedExpress Urgent Care", "phone": "4798801019", "website": "https://www.medexpress.com/location/ar/russellville/rva/", "brand": "Med Express"}, "geometry": {"type": "Point", "coordinates": [-93.1380133, 35.2789424]}},
{"type": "Feature", "id": "pNNwusXgPTX6xLh_EsQqDjI18qU=", "properties": {"ref": "Dw9yD", "@spider": "medexpress", "addr:full": "3428 NW Cache Road", "addr:city": "Lawton", "addr:state": "OK", "addr:postcode": "73505", "name": "MedExpress Urgent Care", "phone": "5805957207", "website": "https://www.medexpress.com/location/ok/lawton/lwo/", "brand": "Med Express"}, "geometry": {"type": "Point", "coordinates": [-98.43931569719643, 34.62296696740859]}},
{"type": "Feature", "id": "sSBLGtYoias5XSQE5Q8nr5qJZ68=", "properties": {"ref": "0JlRm", "@spider": "medexpress", "addr:full": "5944 Steubenville Pike", "addr:city": "Mckees Rocks", "addr:state": "PA", "addr:postcode": "15136", "name": "MedExpress Urgent Care", "phone": "4127873508", "website": "https://www.medexpress.com/location/pa/mckees-rocks/rbp/", "brand": "Med Express"}, "geometry": {"type": "Point", "coordinates": [-80.14289780529907, 40.44829412558387]}},
{"type": "Feature", "id": "v9t0eIksW8BCG-FkzPruHDhSDQQ=", "properties": {"ref": "Aw9JG", "@spider": "medexpress", "addr:full": "2140 South Yale Avenue", "addr:city": "Tulsa", "addr:state": "OK", "addr:postcode": "74114", "name": "MedExpress Urgent Care", "phone": "9187129342", "website": "https://www.medexpress.com/location/ok/tulsa/tlo/", "brand": "Med Express"}, "geometry": {"type": "Point", "coordinates": [-95.92301847787894, 36.13182288644969]}},
{"type": "Feature", "id": "xtJpAFaYYaT_nhdB0-9PdWDYg6g=", "properties": {"ref": "Bw93z", "@spider": "medexpress", "addr:full": "1505 Memorial Drive", "addr:city": "Chicopee", "addr:state": "MA", "addr:postcode": "01020", "name": "MedExpress Urgent Care", "phone": "4135333049", "website": "https://www.medexpress.com/location/ma/chicopee/cps/", "brand": "Med Express"}, "geometry": {"type": "Point", "coordinates": [-72.57220476865768, 42.198530121453004]}},
{"type": "Feature", "id": "Y29_LB6F8wM0uJY-OJXAXjKD7ug=", "properties": {"ref": "4PMR7", "@spider": "medexpress", "addr:full": "296 Main Street", "addr:city": "Haverhill", "addr:state": "MA", "addr:postcode": "01830", "name": "MedExpress Urgent Care", "phone": "9783721382", "website": "https://www.medexpress.com/location/ma/haverhill/hvs/", "brand": "Med Express"}, "geometry": {"type": "Point", "coordinates": [-71.0781465, 42.7809888]}},
{"type": "Feature", "id": "_UgmAI3LN1u6zMBQ-LRJKVlHjGg=", "properties": {"ref": "VwAO5", "@spider": "medexpress", "addr:full": "3426 Central Avenue", "addr:city": "Hot Springs", "addr:state": "AR", "addr:postcode": "71913", "name": "MedExpress Urgent Care", "phone": "5013189895", "website": "https://www.medexpress.com/location/ar/hot-springs/hta/", "brand": "Med Express"}, "geometry": {"type": "Point", "coordinates": [-93.0601828, 34.4714229]}},
{"type": "Feature", "id": "HrN_lzHdp1eolgFlLOJ5Vkew1WA=", "properties": {"ref": "Ewaqn", "@spider": "medexpress", "addr:full": "3420 West 6th Street", "addr:city": "Lawrence", "addr:state": "KS", "addr:postcode": "66049", "name": "MedExpress Urgent Care", "phone": "7858413123", "website": "https://www.medexpress.com/location/ks/lawrence/lak/", "brand": "Med Express"}, "geometry": {"type": "Point", "coordinates": [-95.280475, 38.971973]}},
{"type": "Feature", "id": "dZ8mGKKw27K7HVsNb1EUzNQ4rMg=", "properties": {"ref": "gB62L", "@spider": "medexpress", "addr:full": "311 East Main Street", "addr:city": "Westfield", "addr:state": "MA", "addr:postcode": "01085", "name": "MedExpress Urgent Care", "phone": "4135620482", "website": "https://www.medexpress.com/location/ma/westfield/wfs/", "brand": "Med Express"}, "geometry": {"type": "Point", "coordinates": [-72.7260923, 42.1127207]}},
{"type": "Feature", "id": "g4abcZmu8Ph1l-0EP_-daogiXZU=", "properties": {"ref": "xPMGn", "@spider": "medexpress", "addr:full": "430 Cooley Street", "addr:city": "Springfield", "addr:state": "MA", "addr:postcode": "01128", "name": "MedExpress Urgent Care", "phone": "4137820320", "website": "https://www.medexpress.com/location/ma/springfield/sfs/", "brand": "Med Express"}, "geometry": {"type": "Point", "coordinates": [-72.5002066791194, 42.09200740647074]}},
{"type": "Feature", "id": "lI0e0ItZPPeZDOBiTyLvD5J8-jM=", "properties": {"ref": "MwGqd", "@spider": "medexpress", "addr:full": "1490 North Center Avenue", "addr:city": "Somerset", "addr:state": "PA", "addr:postcode": "15501", "name": "MedExpress Urgent Care", "phone": "8144434740", "website": "https://www.medexpress.com/location/pa/somerset/smp/", "brand": "Med Express"}, "geometry": {"type": "Point", "coordinates": [-79.0748328, 40.0326464]}},
{"type": "Feature", "id": "v2FYdACYGcwlJ6mkq0QVsdG5YHg=", "properties": {"ref": "kgA2O", "@spider": "medexpress", "addr:full": "305 Highway 62 East", "addr:city": "Mountain Home", "addr:state": "AR", "addr:postcode": "72653", "name": "MedExpress Urgent Care", "phone": "8704250176", "website": "https://www.medexpress.com/location/ar/mountain-home/mta/", "brand": "Med Express"}, "geometry": {"type": "Point", "coordinates": [-92.3829978, 36.3423766]}},
{"type": "Feature", "id": "4XnzLrxkfVZCQIdF5JRSgK-YIk4=", "properties": {"ref": "WwBaw", "@spider": "medexpress", "addr:full": "2770 South 9th St", "addr:city": "Salina", "addr:state": "KS", "addr:postcode": "67401", "name": "MedExpress Urgent Care", "phone": "7858273551", "website": "https://www.medexpress.com/location/ks/salina/slk/", "brand": "Med Express"}, "geometry": {"type": "Point", "coordinates": [-97.6140108704567, 38.78875931033408]}},
{"type": "Feature", "id": "BZRQuQc1tsOyWcPOL-c8PTRbAjU=", "properties": {"ref": "yjkb8", "@spider": "medexpress", "addr:full": "123 Enterprise Drive", "addr:city": "Logan", "addr:state": "WV", "addr:postcode": "25601", "name": "MedExpress Urgent Care", "phone": "3047520183", "website": "https://www.medexpress.com/location/wv/logan/lgw/", "brand": "Med Express"}, "geometry": {"type": "Point", "coordinates": [-81.9994579, 37.8482069]}},
{"type": "Feature", "id": "YXOiGW_lFqUNfqKANZDX7_syntQ=", "properties": {"ref": "JwOq6", "@spider": "medexpress", "addr:full": "5505 John F Kennedy Blvd", "addr:city": "North Little Rock", "addr:state": "AR", "addr:postcode": "72116", "name": "MedExpress Urgent Care", "phone": "5017537931", "website": "https://www.medexpress.com/location/ar/north-little-rock/nla/", "brand": "Med Express"}, "geometry": {"type": "Point", "coordinates": [-92.2525551, 34.8057228]}},
{"type": "Feature", "id": "awskUCA6SJ_Wj0PGaNVwAoczvCU=", "properties": {"ref": "rypGR", "@spider": "medexpress", "addr:full": "12300 Chenal Parkway", "addr:city": "Little Rock", "addr:state": "AR", "addr:postcode": "72211", "name": "MedExpress Urgent Care", "phone": "5012256054", "website": "https://www.medexpress.com/location/ar/little-rock/wla/", "brand": "Med Express"}, "geometry": {"type": "Point", "coordinates": [-92.4103873, 34.750696]}},
{"type": "Feature", "id": "LrED9dfTdzsOAudv3P6-7FXydc4=", "properties": {"ref": "z2pDo", "@spider": "medexpress", "addr:full": "5326 West Markham Street", "addr:city": "Little Rock", "addr:state": "AR", "addr:postcode": "72205", "name": "MedExpress Urgent Care", "phone": "5016039885", "website": "https://www.medexpress.com/location/ar/little-rock/lra/", "brand": "Med Express"}, "geometry": {"type": "Point", "coordinates": [-92.3332949, 34.7522932]}},
{"type": "Feature", "id": "m1fXAZ_BTs-WCSHYosq1YLNnlzQ=", "properties": {"ref": "DGGRR", "@spider": "medexpress", "addr:full": "1120 Homestead Road N", "addr:city": "Lehigh Acres", "addr:state": "FL", "addr:postcode": "33936", "name": "MedExpress Urgent Care", "phone": "2393035020", "website": "https://www.medexpress.com/location/fl/lehigh-acres/lhf/", "brand": "Med Express"}, "geometry": {"type": "Point", "coordinates": [-81.64744533599787, 26.605182259074454]}},
{"type": "Feature", "id": "6auBfK6WCkY-oqWeyoWzLmxzTjc=", "properties": {"ref": "EJQdm", "@spider": "medexpress", "addr:full": "1850 West Main Street", "addr:city": "Cabot", "addr:state": "AR", "addr:postcode": "72023", "name": "MedExpress Urgent Care", "phone": "5016050009", "website": "https://www.medexpress.com/location/ar/cabot/cba/", "brand": "Med Express"}, "geometry": {"type": "Point", "coordinates": [-92.0373303, 34.9822561]}},
{"type": "Feature", "id": "69Qbkuzi1Tl1JVZHenBnMoYGPNI=", "properties": {"ref": "5DmdV", "@spider": "medexpress", "addr:full": "956 Maple Drive", "addr:city": "Morgantown", "addr:state": "WV", "addr:postcode": "26505", "name": "MedExpress Urgent Care", "phone": "3042915805", "website": "https://www.medexpress.com/location/wv/morgantown/mtw/", "brand": "Med Express"}, "geometry": {"type": "Point", "coordinates": [-79.95197808465582, 39.65700593502454]}},
{"type": "Feature", "id": "P8jt85Z47TvFrBWBJ0JIgZr3gjA=", "properties": {"ref": "QQj8M", "@spider": "medexpress", "addr:full": "2810 W. Martin Luther King Jr. Blvd.", "addr:city": "Tampa", "addr:state": "FL", "addr:postcode": "33607", "name": "MedExpress Urgent Care", "phone": "8138778450", "website": "https://www.medexpress.com/location/fl/tampa/wtf/", "brand": "Med Express"}, "geometry": {"type": "Point", "coordinates": [-82.489834795756, 27.98106303566727]}},
{"type": "Feature", "id": "e36lpU3J1crnegu4qfwRJ_gx4Yg=", "properties": {"ref": "AL20m", "@spider": "medexpress", "addr:full": "5447 Maple Lane", "addr:city": "Fayetteville", "addr:state": "WV", "addr:postcode": "25840", "name": "MedExpress Urgent Care", "phone": "3046589397", "website": "https://www.medexpress.com/location/wv/fayetteville/fyw/", "brand": "Med Express"}, "geometry": {"type": "Point", "coordinates": [-81.1236179, 38.0385559]}},
{"type": "Feature", "id": "XnsXBsjrXUuJvnlU4g3q1J39CsM=", "properties": {"ref": "O64p8", "@spider": "medexpress", "addr:full": "313 SW Pine Island Rd", "addr:city": "Cape Coral", "addr:state": "FL", "addr:postcode": "33991", "name": "MedExpress Urgent Care", "phone": "2394586755", "website": "https://www.medexpress.com/location/fl/cape-coral/ccf/", "brand": "Med Express"}, "geometry": {"type": "Point", "coordinates": [-81.9814218, 26.6498512]}},
{"type": "Feature", "id": "nZ4V2CbTVzIqV4wr6-qAce_n6ys=", "properties": {"ref": "aGNLM", "@spider": "medexpress", "addr:full": "8849 State Rd 52", "addr:city": "Hudson", "addr:state": "FL", "addr:postcode": "34667", "name": "MedExpress Urgent Care", "phone": "7278637150", "website": "https://www.medexpress.com/location/fl/hudson/hdf/", "brand": "Med Express"}, "geometry": {"type": "Point", "coordinates": [-82.668182, 28.331756]}},
{"type": "Feature", "id": "oMLYMQo0i29iNuAYP0Ypda80Yqo=", "properties": {"ref": "PwNVr", "@spider": "medexpress", "addr:full": "999 Dalton Avenue", "addr:city": "Pittsfield", "addr:state": "MA", "addr:postcode": "01201", "name": "MedExpress Urgent Care", "phone": "4134486231", "website": "https://www.medexpress.com/location/ma/pittsfield/pts/", "brand": "Med Express"}, "geometry": {"type": "Point", "coordinates": [-73.1978181362457, 42.46990240795265]}},
{"type": "Feature", "id": "ojw5CQ7CHAuCgoYOFe4fmk9-MgM=", "properties": {"ref": "kkpJj", "@spider": "medexpress", "addr:full": "2001 N. Rock Road", "addr:city": "Derby", "addr:state": "KS", "addr:postcode": "67037", "name": "MedExpress Urgent Care", "phone": "3167881437", "website": "https://www.medexpress.com/location/ks/derby/dbk/", "brand": "Med Express"}, "geometry": {"type": "Point", "coordinates": [-97.2449322, 37.5681517]}},
{"type": "Feature", "id": "mKnH77lwlknZ3qIfcOgKySF4kNQ=", "properties": {"ref": "jM4dw", "@spider": "medexpress", "addr:full": "1312 Boston Road", "addr:city": "Springfield", "addr:state": "MA", "addr:postcode": "01119", "name": "MedExpress Urgent Care", "phone": "4137820784", "website": "https://www.medexpress.com/location/ma/springfield/sps/", "brand": "Med Express"}, "geometry": {"type": "Point", "coordinates": [-72.5001538, 42.1411934]}},
{"type": "Feature", "id": "XmpB5y3cIOyTGowQhfWW_S3zAuE=", "properties": {"ref": "ddGZ0", "@spider": "medexpress", "addr:full": "5510 S. Olive Street", "addr:city": "Pine Bluff", "addr:state": "AR", "addr:postcode": "71603", "name": "MedExpress Urgent Care", "phone": "8708507605", "website": "https://www.medexpress.com/location/ar/pine-bluff/pba/", "brand": "Med Express"}, "geometry": {"type": "Point", "coordinates": [-92.0073679, 34.1742848]}},
{"type": "Feature", "id": "uih090cCY0v-2j5pRAxmU7rRVxc=", "properties": {"ref": "84WZl", "@spider": "medexpress", "addr:full": "16490 W. 78th St", "addr:city": "Eden Prairie", "addr:state": "MN", "addr:postcode": "55346", "name": "MedExpress Urgent Care", "phone": "9529345332", "website": "https://www.medexpress.com/location/mn/eden-prairie/ede/", "brand": "Med Express"}, "geometry": {"type": "Point", "coordinates": [-93.485952, 44.862953]}},
{"type": "Feature", "id": "3SV4_Vzkbwf7vprWvXAnmXHF2UU=", "properties": {"ref": "AWW5z", "@spider": "medexpress", "addr:full": "1261 N. Maize Road", "addr:city": "Wichita", "addr:state": "KS", "addr:postcode": "67212", "name": "MedExpress Urgent Care", "phone": "3167732733", "website": "https://www.medexpress.com/location/ks/wichita/wwk/", "brand": "Med Express"}, "geometry": {"type": "Point", "coordinates": [-97.46301, 37.705689]}},
{"type": "Feature", "id": "ldS1CbMoAkZ2_szUiVBaHfT-noo=", "properties": {"ref": "9pg34", "@spider": "medexpress", "addr:full": "45325 Abell House Ln", "addr:city": "California", "addr:state": "MD", "addr:postcode": "20619", "name": "MedExpress Urgent Care", "phone": "3018621807", "website": "https://www.medexpress.com/location/md/california/cam/", "brand": "Med Express"}, "geometry": {"type": "Point", "coordinates": [-76.5083958, 38.298679]}},
{"type": "Feature", "id": "QYKrnaGyIChNNzbqKhvoA7TnDIs=", "properties": {"ref": "mAXqA", "@spider": "medexpress", "addr:full": "5616 Tuscola Blvd", "addr:city": "North Port", "addr:state": "FL", "addr:postcode": "34287", "name": "MedExpress Urgent Care", "phone": "9412406273", "website": "https://www.medexpress.com/location/fl/north-port/npf/", "brand": "Med Express"}, "geometry": {"type": "Point", "coordinates": [-82.2260616, 27.0409729]}},
{"type": "Feature", "id": "yXmiMCFOKW_QOdKi81HILl-MJEM=", "properties": {"ref": "0Gn8VL", "@spider": "medexpress", "addr:full": "3006 S Seneca St", "addr:city": "Wichita", "addr:state": "KS", "addr:postcode": "67217", "name": "MedExpress Urgent Care", "phone": "3165224635", "website": "https://www.medexpress.com/location/ks/wichita/wsk/", "brand": "Med Express"}, "geometry": {"type": "Point", "coordinates": [-97.35187858343124, 37.64027118001774]}},
{"type": "Feature", "id": "lgipPF6FC5cHe9yX4NLB8gjjFOE=", "properties": {"ref": "qmmb42", "@spider": "medexpress", "addr:full": "1963 Robert Street S", "addr:city": "West St. Paul", "addr:state": "MN", "addr:postcode": "55118", "name": "MedExpress Urgent Care", "phone": "6514572628", "website": "https://www.medexpress.com/location/mn/west-st--paul/wpe/", "brand": "Med Express"}, "geometry": {"type": "Point", "coordinates": [-93.081006, 44.8868917]}},
{"type": "Feature", "id": "JGh_29E1t2EmH_UpguM5dVraw-o=", "properties": {"ref": "M33lJd", "@spider": "medexpress", "addr:full": "1834 SW Wanamaker Rd", "addr:city": "Topeka", "addr:state": "KS", "addr:postcode": "66604", "name": "MedExpress Urgent Care", "phone": "7852722631", "website": "https://www.medexpress.com/location/ks/topeka/tpk/", "brand": "Med Express"}, "geometry": {"type": "Point", "coordinates": [-95.76170486871717, 39.033058996170865]}},
{"type": "Feature", "id": "E8_lIJkoesBXc83j_Z0E13fYhJo=", "properties": {"ref": "7JJArd", "@spider": "medexpress", "addr:full": "2200 Tamiami Trail", "addr:city": "Port Charlotte", "addr:state": "FL", "addr:postcode": "33948", "name": "MedExpress Urgent Care", "phone": "9416130022", "website": "https://www.medexpress.com/location/fl/port-charlotte/pcf/", "brand": "Med Express"}, "geometry": {"type": "Point", "coordinates": [-82.12348139612004, 27.00084751401386]}},
{"type": "Feature", "id": "e4cE_SP7YreigdC9vJkA1RvIiqw=", "properties": {"ref": "XNNDZ9", "@spider": "medexpress", "addr:full": "12375 S. Cleveland Ave", "addr:city": "Fort Myers", "addr:state": "FL", "addr:postcode": "33907", "name": "MedExpress Urgent Care", "phone": "2399362013", "website": "https://www.medexpress.com/location/fl/fort-myers/fmf/", "brand": "Med Express"}, "geometry": {"type": "Point", "coordinates": [-81.87137856148638, 26.563747338840454]}},
{"type": "Feature", "id": "xFBJudnLs59zGubwcz4ofRDh3UU=", "properties": {"ref": "A3kZEG", "@spider": "medexpress", "addr:full": "707 Highway 33 S", "addr:city": "Cloquet", "addr:state": "MN", "addr:postcode": "55720", "name": "MedExpress Urgent Care", "phone": "2188787903", "website": "https://www.medexpress.com/location/mn/cloquet/cqe/", "brand": "Med Express"}, "geometry": {"type": "Point", "coordinates": [-92.4628261, 46.7112749]}},
{"type": "Feature", "id": "gbut_hNzUbC60fIHzmij0IweY3E=", "properties": {"ref": "5kPdWG", "@spider": "medexpress", "addr:full": "613 Randolph Ave.", "addr:city": "Elkins", "addr:state": "WV", "addr:postcode": "26241", "name": "MedExpress Urgent Care", "phone": "3046368422", "website": "https://www.medexpress.com/location/wv/elkins/ekw/", "brand": "Med Express"}, "geometry": {"type": "Point", "coordinates": [-79.85016209325408, 38.928910519364926]}},
{"type": "Feature", "id": "ncRYWNg2Ob9H-i18xz3pAjX4XLk=", "properties": {"ref": "928lok", "@spider": "medexpress", "addr:full": "99 Baughmans Ln.", "addr:city": "Frederick", "addr:state": "MD", "addr:postcode": "21702", "name": "MedExpress Urgent Care", "phone": "3016621392", "website": "https://www.medexpress.com/location/md/frederick/frm/", "brand": "Med Express"}, "geometry": {"type": "Point", "coordinates": [-77.4387073, 39.4172976]}},
{"type": "Feature", "id": "cVqRERjRkq-l6CrRKonnOtM5CRA=", "properties": {"ref": "no7OpD", "@spider": "medexpress", "addr:full": "1328 N. Woodland Blvd.", "addr:city": "DeLand", "addr:state": "FL", "addr:postcode": "32720", "name": "MedExpress Urgent Care", "phone": "3867380574", "website": "https://www.medexpress.com/location/fl/deland/dlf/", "brand": "Med Express"}, "geometry": {"type": "Point", "coordinates": [-81.304791480311, 29.05069764389814]}},
{"type": "Feature", "id": "0R-aToojN4s790jdmc7eawuGKxE=", "properties": {"ref": "DRqP36", "@spider": "medexpress", "addr:full": "19985 S. Tamiami Trail", "addr:city": "Estero", "addr:state": "FL", "addr:postcode": "33928", "name": "MedExpress Urgent Care", "phone": "2394953317", "website": "https://www.medexpress.com/location/fl/estero/esf/", "brand": "Med Express"}, "geometry": {"type": "Point", "coordinates": [-81.8174728, 26.4488559]}},
{"type": "Feature", "id": "k-ndDp9-9DKO2jYmaiC7vYdaSdU=", "properties": {"ref": "A32rmg", "@spider": "medexpress", "addr:full": "13005 Collier Blvd.", "addr:city": "Naples", "addr:state": "FL", "addr:postcode": "34116", "name": "MedExpress Urgent Care", "phone": "2393544093", "website": "https://www.medexpress.com/location/fl/naples/ggf/", "brand": "Med Express"}, "geometry": {"type": "Point", "coordinates": [-81.68799597668647, 26.211729230629135]}},
{"type": "Feature", "id": "zy5x7d6CwDzM5T7MNvIh4c59yH4=", "properties": {"ref": "xqzdzG", "@spider": "medexpress", "addr:full": "424 Russell St.", "addr:city": "Hadley", "addr:state": "MA", "addr:postcode": "01035", "name": "MedExpress Urgent Care", "phone": "4132530483", "website": "https://www.medexpress.com/location/ma/hadley/hds/", "brand": "Med Express"}, "geometry": {"type": "Point", "coordinates": [-72.5401416, 42.3635351]}},
{"type": "Feature", "id": "c98rh6LbPBuyS1w--lFNuHK-gi4=", "properties": {"ref": "J93VBQ", "@spider": "medexpress", "addr:full": "3270 Donnell Dr.", "addr:city": "Forestville", "addr:state": "MD", "addr:postcode": "20747", "name": "MedExpress Urgent Care", "phone": "3042252500", "opening_hours": "Mo-Su 08:00-20:00", "brand": "Med Express"}, "geometry": {"type": "Point", "coordinates": [-76.883241, 38.847406]}},
{"type": "Feature", "id": "a-XMUopxXv-ml5CYD_yVImWw_90=", "properties": {"ref": "vaqvbo", "@spider": "medexpress", "addr:full": "3225 Crain Hwy.", "addr:city": "Waldorf", "addr:state": "MD", "addr:postcode": "20603", "name": "MedExpress Urgent Care", "phone": "3016387350", "website": "https://www.medexpress.com/location/md/waldorf/wam/", "brand": "Med Express"}, "geometry": {"type": "Point", "coordinates": [-76.91421927976228, 38.62428247213782]}},
{"type": "Feature", "id": "8QaeFpUnCjanbm-tbhXag5CxAAA=", "properties": {"ref": "VaOVWk", "@spider": "medexpress", "addr:full": "2134 Bunker Lake Blvd. NW", "addr:city": "Andover", "addr:state": "MN", "addr:postcode": "55304", "name": "MedExpress Urgent Care", "phone": "7637544396", "website": "https://www.medexpress.com/location/mn/andover/ade/", "brand": "Med Express"}, "geometry": {"type": "Point", "coordinates": [-93.31987605251925, 45.21880807920566]}},
{"type": "Feature", "id": "YXpXe8CudSw-OpzaVL-M-J8X1js=", "properties": {"ref": "bm23AD", "@spider": "medexpress", "addr:full": "4880 Central Ave. NE", "addr:city": "Hilltop", "addr:state": "MN", "addr:postcode": "55421", "name": "MedExpress Urgent Care", "phone": "7635714536", "website": "https://www.medexpress.com/location/mn/hilltop/hte/", "brand": "Med Express"}, "geometry": {"type": "Point", "coordinates": [-93.248398, 45.056581]}},
{"type": "Feature", "id": "ax0BJvvCyESTu1qa1HqNcfcRcKE=", "properties": {"ref": "bm23jO", "@spider": "medexpress", "addr:full": "110 N. 66th St.", "addr:city": "Lincoln", "addr:state": "NE", "addr:postcode": "68505", "name": "MedExpress Urgent Care", "phone": "4023258950", "website": "https://www.medexpress.com/location/ne/lincoln/lcn/", "brand": "Med Express"}, "geometry": {"type": "Point", "coordinates": [-96.62831813988106, 40.813743239990124]}},
{"type": "Feature", "id": "ZUIR4s_U31ZpW1-0MoqANIbuDko=", "properties": {"ref": "DRyrdd", "@spider": "medexpress", "addr:full": "3910 Village Dr.", "addr:city": "Lincoln", "addr:state": "NE", "addr:postcode": "68516", "name": "MedExpress Urgent Care", "phone": "4023287029", "website": "https://www.medexpress.com/location/ne/lincoln/lin/", "brand": "Med Express"}, "geometry": {"type": "Point", "coordinates": [-96.6638201, 40.7532452]}},
{"type": "Feature", "id": "Ybovjy8XwzSPEPckR4SL7fqtmtY=", "properties": {"ref": "4LRmrv", "@spider": "medexpress", "addr:full": "4808 Edgmont Ave.", "addr:city": "Brookhaven", "addr:state": "PA", "addr:postcode": "19015", "name": "MedExpress Urgent Care", "phone": "6108763072", "website": "https://www.medexpress.com/location/pa/brookhaven/bkp/", "brand": "Med Express"}, "geometry": {"type": "Point", "coordinates": [-75.39516745767207, 39.876220065428974]}},
{"type": "Feature", "id": "tn9kfY8rWxlgzooigkgGOFf9t1U=", "properties": {"ref": "gZ2x33", "@spider": "medexpress", "addr:full": "565 E. Chocolate Ave.", "addr:city": "Hershey", "addr:state": "PA", "addr:postcode": "17033", "name": "MedExpress Urgent Care", "phone": "7175334935", "website": "https://www.medexpress.com/location/pa/hershey/hrp/", "brand": "Med Express"}, "geometry": {"type": "Point", "coordinates": [-76.6362609, 40.2912025]}},
{"type": "Feature", "id": "s9lORs-4tKePjANozmEmD_2PbDM=", "properties": {"ref": "7JRom4", "@spider": "medexpress", "addr:full": "5700 N. Tarrant Pkwy.", "addr:city": "Fort Worth", "addr:state": "TX", "addr:postcode": "76244", "name": "MedExpress Urgent Care", "phone": "8172810196", "website": "https://www.medexpress.com/location/tx/fort-worth/fwx/", "brand": "Med Express"}, "geometry": {"type": "Point", "coordinates": [-97.2636181, 32.8942143]}},
{"type": "Feature", "id": "jvc4991uo0IwvZUZupW17yJ5qXg=", "properties": {"ref": "E9qv7Q", "@spider": "medexpress", "addr:full": "4750 Fairmont Pkwy.", "addr:city": "Pasadena", "addr:state": "TX", "addr:postcode": "77504", "name": "MedExpress Urgent Care", "phone": "2819980912", "website": "https://www.medexpress.com/location/tx/pasadena/pdx/", "brand": "Med Express"}, "geometry": {"type": "Point", "coordinates": [-95.17206303309649, 29.649154762208127]}},
{"type": "Feature", "id": "fgEGOYLRfTd8F-pGDLDJpcrVkwA=", "properties": {"ref": "0GRwQa", "@spider": "medexpress", "addr:full": "105 W. Commonwealth Blvd.", "addr:city": "Martinsville", "addr:state": "VA", "addr:postcode": "24112", "name": "MedExpress Urgent Care", "phone": "2766665000", "website": "https://www.medexpress.com/location/va/martinsville/mvv/", "brand": "Med Express"}, "geometry": {"type": "Point", "coordinates": [-79.8748181, 36.6951221]}},
{"type": "Feature", "id": "AfIUurFMmg60KKdPqIKtQqrjRWg=", "properties": {"ref": "xqG8k7", "@spider": "medexpress", "addr:full": "4903 Nine Mile Rd.", "addr:city": "Richmond", "addr:state": "VA", "addr:postcode": "23223", "name": "MedExpress Urgent Care", "phone": "8042223549", "website": "https://www.medexpress.com/location/va/richmond/rcv/", "brand": "Med Express"}, "geometry": {"type": "Point", "coordinates": [-77.367096, 37.544265]}},
{"type": "Feature", "id": "6b58z9raIAJPCzje4zD9L-LePBg=", "properties": {"ref": "Qgqm49", "@spider": "medexpress", "addr:full": "8040 W. Broad St.", "addr:city": "Richmond", "addr:state": "VA", "addr:postcode": "23294", "name": "MedExpress Urgent Care", "phone": "8043460927", "website": "https://www.medexpress.com/location/va/richmond/rmv/", "brand": "Med Express"}, "geometry": {"type": "Point", "coordinates": [-77.53059267997742, 37.62624975803837]}},
{"type": "Feature", "id": "FgZusy1pmN1vNvWkPr0mloBiDtg=", "properties": {"ref": "ygbVQM", "@spider": "medexpress", "addr:full": "11603 Midlothian Turnpike", "addr:city": "Midlothian", "addr:state": "VA", "addr:postcode": "23113", "name": "MedExpress Urgent Care", "phone": "8043783739", "website": "https://www.medexpress.com/location/va/midlothian/mlv/", "brand": "Med Express"}, "geometry": {"type": "Point", "coordinates": [-77.61250163558202, 37.50469223316658]}},
{"type": "Feature", "id": "ibFNbXwDfvMGGF1ziXZOwk2bhKM=", "properties": {"ref": "92y6dg", "@spider": "medexpress", "addr:full": "5870 Webster Rd.", "addr:city": "Summersville", "addr:state": "WV", "addr:postcode": "26651", "name": "MedExpress Urgent Care", "phone": "3048723709", "website": "https://www.medexpress.com/location/wv/summersville/smw/", "brand": "Med Express"}, "geometry": {"type": "Point", "coordinates": [-80.835044, 38.3105079]}},
{"type": "Feature", "id": "58n5XhkKyv3eyUhik-hGN0uF7HA=", "properties": {"ref": "gZzPEd", "@spider": "medexpress", "addr:full": "1150 US Highway 1", "addr:city": "Vero Beach", "addr:state": "FL", "addr:postcode": "32960", "name": "MedExpress Urgent Care", "phone": "7729785679", "website": "https://www.medexpress.com/location/fl/vero-beach/vbf/", "brand": "Med Express"}, "geometry": {"type": "Point", "coordinates": [-80.3887484, 27.6221161]}},
{"type": "Feature", "id": "oiFzAtOranXglrZlbffatuUVEDM=", "properties": {"ref": "PjPlr7", "@spider": "medexpress", "addr:full": "5001 S. Hulen St.", "addr:city": "Fort Worth", "addr:state": "TX", "addr:postcode": "76132", "name": "MedExpress Urgent Care", "phone": "8173611928", "website": "https://www.medexpress.com/location/tx/fort-worth/ftx/", "brand": "Med Express"}, "geometry": {"type": "Point", "coordinates": [-97.3978801, 32.674628]}},
{"type": "Feature", "id": "15E7_wFRRdldfTLEy07IgInRTHw=", "properties": {"ref": "M3zDOE", "@spider": "medexpress", "addr:full": "3413 N. Belt Line Rd.", "addr:city": "Irving", "addr:state": "TX", "addr:postcode": "75062", "name": "MedExpress Urgent Care", "phone": "9722529809", "website": "https://www.medexpress.com/location/tx/irving/irx/", "brand": "Med Express"}, "geometry": {"type": "Point", "coordinates": [-96.9928897, 32.8521708]}},
{"type": "Feature", "id": "5RK0lJ8MVZAW8Hl2tOuo7Lw7zpE=", "properties": {"ref": "VadPo4", "@spider": "medexpress", "addr:full": "1305 Dallas Highway", "addr:city": "Waxahachie", "addr:state": "TX", "addr:postcode": "75165", "name": "MedExpress Urgent Care", "phone": "9729371203", "website": "https://www.medexpress.com/location/tx/waxahachie/wxx/", "brand": "Med Express"}, "geometry": {"type": "Point", "coordinates": [-96.840582, 32.421868]}},
{"type": "Feature", "id": "Eb6yiz6U177sKxnKO24vDlfQ-BA=", "properties": {"ref": "rolpO5", "@spider": "medexpress", "addr:full": "4 Clover Dr.", "addr:city": "St. Clair", "addr:state": "PA", "addr:postcode": "17970", "name": "MedExpress Urgent Care", "phone": "5704291012", "website": "https://www.medexpress.com/location/pa/st--clair/slp/", "brand": "Med Express"}, "geometry": {"type": "Point", "coordinates": [-76.19291866901779, 40.726539749967074]}},
{"type": "Feature", "id": "P6OV1-Fni8Bw0wak4LhSR_6yK_I=", "properties": {"ref": "M3bG3E", "@spider": "medexpress", "addr:full": "22915 Morton Ranch Rd.", "addr:city": "Katy", "addr:state": "TX", "addr:postcode": "77449", "name": "MedExpress Urgent Care", "phone": "2815740124", "website": "https://www.medexpress.com/location/tx/katy/ktx/", "brand": "Med Express"}, "geometry": {"type": "Point", "coordinates": [-95.7698914127684, 29.816705885568457]}},
{"type": "Feature", "id": "OKM_-RP2VWqCS5tudE_APSYzIz4=", "properties": {"ref": "olApya", "@spider": "medexpress", "addr:full": "960 W. Sugarland Hwy.", "addr:city": "Clewiston", "addr:state": "FL", "addr:postcode": "33440", "name": "MedExpress Urgent Care", "phone": "8638050189", "website": "https://www.medexpress.com/location/fl/clewiston/ctf/", "brand": "Med Express"}, "geometry": {"type": "Point", "coordinates": [-80.9462661, 26.7538318]}},
{"type": "Feature", "id": "PBlnmmRmDdOqgoJI5Rpn57hhtDs=", "properties": {"ref": "BZOaQO", "@spider": "medexpress", "addr:full": "11985 Atlantic Blvd.", "addr:city": "Jacksonville", "addr:state": "FL", "addr:postcode": "32225", "name": "MedExpress Urgent Care", "phone": "9046421217", "website": "https://www.medexpress.com/location/fl/jacksonville/jaf/", "brand": "Med Express"}, "geometry": {"type": "Point", "coordinates": [-81.49027181349186, 30.321103999999988]}},
{"type": "Feature", "id": "BA9b--X5_mG20uXbYF-iF23pxC0=", "properties": {"ref": "xq57R7", "@spider": "medexpress", "addr:full": "3700 S. Cooper St.", "addr:city": "Arlington", "addr:state": "TX", "addr:postcode": "76015", "name": "MedExpress Urgent Care", "phone": "8174191046", "website": "https://www.medexpress.com/location/tx/arlington/arx/", "brand": "Med Express"}, "geometry": {"type": "Point", "coordinates": [-97.1321969, 32.6857243]}},
{"type": "Feature", "id": "qO_zxRWQrr1GTaBS7ILTVQ6_VEs=", "properties": {"ref": "R9W0Og", "@spider": "medexpress", "addr:full": "13550 East Freeway", "addr:city": "Houston", "addr:state": "TX", "addr:postcode": "77015", "name": "MedExpress Urgent Care", "phone": "7133308993", "website": "https://www.medexpress.com/location/tx/houston/hsx/", "brand": "Med Express"}, "geometry": {"type": "Point", "coordinates": [-95.1852269, 29.7694762]}},
{"type": "Feature", "id": "uXtoA1EVjl49L3Ii8Sia7FAqBFQ=", "properties": {"ref": "mrwyQX", "@spider": "medexpress", "addr:full": "5000 N. 26th St.", "addr:city": "Lincoln", "addr:state": "NE", "addr:postcode": "68521", "name": "MedExpress Urgent Care", "phone": "4024359078", "website": "https://www.medexpress.com/location/ne/lincoln/lnn/", "brand": "Med Express"}, "geometry": {"type": "Point", "coordinates": [-96.6824058, 40.8609418]}},
{"type": "Feature", "id": "T5YxVDI1-CvC__ZSDeYrasMZl1o=", "properties": {"ref": "yyQbj7", "@spider": "medexpress", "addr:full": "1001 Consol Energy Dr.", "addr:city": "Canonsburg", "addr:state": "PA", "addr:postcode": "15317", "name": "MedExpress Administrative Office", "phone": "3042252500", "website": "https://www.medexpress.com", "brand": "Med Express"}, "geometry": {"type": "Point", "coordinates": [-80.16421594847105, 40.27704755788037]}},
{"type": "Feature", "id": "sx7FKSleivYH38BK-EUyneFh948=", "properties": {"ref": "NdvZjZ", "@spider": "medexpress", "addr:full": "3700 US Hwy. 98 N", "addr:city": "Lakeland", "addr:state": "FL", "addr:postcode": "33809", "name": "MedExpress Urgent Care", "phone": "8638159523", "website": "https://www.medexpress.com/location/fl/lakeland/lnf/", "brand": "Med Express"}, "geometry": {"type": "Point", "coordinates": [-81.97397, 28.08856]}},
{"type": "Feature", "id": "4lVG-MK9fiZzwwOoe8u2Roi6Dtk=", "properties": {"ref": "25wpvD", "@spider": "medexpress", "addr:full": "1160 South 40th Street", "addr:city": "Springdale", "addr:state": "AR", "addr:postcode": "72762", "name": "MedExpress Primary Care", "phone": "4797561702", "website": "https://www.medexpress.com/location/ar/springdale/sdb/", "brand": "Med Express"}, "geometry": {"type": "Point", "coordinates": [-94.17517575214958, 36.17556695246915]}}]}