{"type":"FeatureCollection","features":[{"type": "Feature", "id": "WNBGAXq9LXrqCdl5WUciRO01NNw=", "properties": {"ref": "https://metrodiner.com/locations/florida/bradenton/", "@spider": "metrodiner", "addr:full": "4726 Cortez Road West Bradenton, FL 34209", "addr:country": "US", "name": "Bradenton", "phone": "(941) 306-3102", "website": "https://metrodiner.com/locations/florida/bradenton/", "opening_hours": "Mo-Fr 09:00-20:00 09:00-20:00 09:00-20:00 09:00-20:00 09:00-20:00 09:00-20:00 09:00-20:00 09:00-20:00 09:00-20:00 09:00-20:00 09:00-20:00; Sa-Su 08:00-20:00 08:00-20:00 08:00-20:00 08:00-20:00 08:00-20:00 08:00-20:00 08:00-20:00 08:00-20:00 08:00-20:00 08:00-20:00 08:00-20:00"}, "geometry": {"type": "Point", "coordinates": [-82.609573, 27.463089]}},
{"type": "Feature", "id": "Ts_AcuSZu2aHb3lFweMU65XgotY=", "properties": {"ref": "https://metrodiner.com/locations/georgia/columbus/", "@spider": "metrodiner", "addr:full": "5524 Whitesville Road Columbus, GA 31904", "addr:country": "US", "name": "Columbus", "phone": "(706) 530-5907", "website": "https://metrodiner.com/locations/georgia/columbus/", "opening_hours": "Mo-Su 08:00-20:00 08:00-20:00 08:00-20:00 08:00-20:00 08:00-20:00 08:00-20:00 08:00-20:00 08:00-20:00 08:00-20:00 08:00-20:00 08:00-20:00"}, "geometry": {"type": "Point", "coordinates": [-84.95841, 32.52103]}},
{"type": "Feature", "id": "r7QMfquWeNV1bC5NgaeY6A5aZ3Q=", "properties": {"ref": "https://metrodiner.com/locations/georgia/savannah/", "@spider": "metrodiner", "addr:full": "200 Tanger Outlets Boulevard Suite 200 Pooler, GA 31322", "addr:country": "US", "name": "Savannah - Pooler", "phone": "(912) 228-5628", "website": "https://metrodiner.com/locations/georgia/savannah/", "opening_hours": "Mo-Su 08:00-20:00 08:00-20:00 08:00-20:00 08:00-20:00 08:00-20:00 08:00-20:00 08:00-20:00 08:00-20:00 08:00-20:00 08:00-20:00 08:00-20:00"}, "geometry": {"type": "Point", "coordinates": [-81.244162, 32.135976]}},
{"type": "Feature", "id": "dmCXsNc6gpM6UbcvrLSeZEz-ig8=", "properties": {"ref": "https://metrodiner.com/locations/virginia/fredericksburg/", "@spider": "metrodiner", "addr:full": "2068 Plank Road Fredericksburg, VA 22401", "addr:country": "US", "name": "Fredericksburg", "phone": "(540) 642-1369", "website": "https://metrodiner.com/locations/virginia/fredericksburg/", "opening_hours": "Mo-We 08:00-15:00 08:00-15:00 08:00-15:00 08:00-15:00 08:00-15:00 08:00-15:00 08:00-15:00 08:00-15:00 08:00-15:00 08:00-15:00 08:00-15:00; Th-Sa 08:00-20:00 08:00-20:00 08:00-20:00 08:00-20:00 08:00-20:00 08:00-20:00 08:00-20:00 08:00-20:00 08:00-20:00 08:00-20:00 08:00-20:00; Su 08:00-15:00 08:00-15:00 08:00-15:00 08:00-15:00 08:00-15:00 08:00-15:00 08:00-15:00 08:00-15:00 08:00-15:00 08:00-15:00 08:00-15:00"}, "geometry": {"type": "Point", "coordinates": [-77.495852, 38.295545]}},
{"type": "Feature", "id": "8a9NqD-CrvmPMksqdih3wbVxMWs=", "properties": {"ref": "https://metrodiner.com/locations/alabama/inverness-birmingham/", "@spider": "metrodiner", "addr:full": "180 Inverness Plaza Birmingham, AL 35242", "addr:country": "US", "name": "Birmingham - Inverness", "phone": "(205) 719-2563", "website": "https://metrodiner.com/locations/alabama/inverness-birmingham/", "opening_hours": "Mo-Su 08:00-20:00 08:00-20:00 08:00-20:00 08:00-20:00 08:00-20:00 08:00-20:00 08:00-20:00 08:00-20:00 08:00-20:00 08:00-20:00 08:00-20:00"}, "geometry": {"type": "Point", "coordinates": [-86.697152, 33.418668]}},
{"type": "Feature", "id": "JxdWC22Nvm85ad7fFMaHrbhwMMQ=", "properties": {"ref": "https://metrodiner.com/locations/north-carolina/huntersville/", "@spider": "metrodiner", "addr:full": "14211 Reese Boulevard Huntersville, NC 28078", "addr:country": "US", "name": "Huntersville", "phone": "(704) 912-1566", "website": "https://metrodiner.com/locations/north-carolina/huntersville/", "opening_hours": "Mo-Su 08:00-20:00 08:00-20:00 08:00-20:00 08:00-20:00 08:00-20:00 08:00-20:00 08:00-20:00 08:00-20:00 08:00-20:00 08:00-20:00 08:00-20:00"}, "geometry": {"type": "Point", "coordinates": [-80.863166, 35.407526]}},
{"type": "Feature", "id": "rGIzT3TEwZNGbq2xfgwRwYie3V4=", "properties": {"ref": "https://metrodiner.com/locations/florida/casselberry/", "@spider": "metrodiner", "addr:full": "1419 SR-436 Casselberry, FL 32730", "addr:country": "US", "name": "Casselberry", "phone": "(407) 613-2418", "website": "https://metrodiner.com/locations/florida/casselberry/", "opening_hours": "Mo-Su 08:00-20:00 08:00-20:00 08:00-20:00 08:00-20:00 08:00-20:00 08:00-20:00 08:00-20:00 08:00-20:00 08:00-20:00 08:00-20:00 08:00-20:00"}, "geometry": {"type": "Point", "coordinates": [-81.317329, 28.627173]}},
{"type": "Feature", "id": "blqAHxozLl1CDKpwBcao03rmjDA=", "properties": {"ref": "https://metrodiner.com/locations/florida/cape-coral/", "@spider": "metrodiner", "addr:full": "1625 Cape Coral Parkway East Unit A-101 Cape Coral, FL 33904", "addr:country": "US", "name": "Cape Coral", "phone": "(239) 288-0057", "website": "https://metrodiner.com/locations/florida/cape-coral/", "opening_hours": "Mo-Su 08:00-20:00 08:00-20:00 08:00-20:00 08:00-20:00 08:00-20:00 08:00-20:00 08:00-20:00 08:00-20:00 08:00-20:00 08:00-20:00 08:00-20:00"}, "geometry": {"type": "Point", "coordinates": [-81.942443, 26.562946]}},
{"type": "Feature", "id": "AMnqrrn0mJxqvbPfiImFYCyzW-E=", "properties": {"ref": "https://metrodiner.com/locations/pennsylvania/bensalem/", "@spider": "metrodiner", "addr:full": "3630 Street Road Bensalem, PA 19020", "addr:country": "US", "name": "Bensalem", "phone": "(215) 261-7080", "website": "https://metrodiner.com/locations/pennsylvania/bensalem/", "opening_hours": "Mo-Su 08:00-20:00 08:00-20:00 08:00-20:00 08:00-20:00 08:00-20:00 08:00-20:00 08:00-20:00 08:00-20:00 08:00-20:00 08:00-20:00 08:00-20:00"}, "geometry": {"type": "Point", "coordinates": [-74.963696, 40.125804]}},
{"type": "Feature", "id": "-X1RTzV57WqwKt8uxNHmbVR_NoM=", "properties": {"ref": "https://metrodiner.com/locations/virginia/chesapeake/", "@spider": "metrodiner", "addr:full": "1124 Volvo Parkway Chesapeake, VA 23320", "addr:country": "US", "name": "Chesapeake", "phone": "(757) 645-0203", "website": "https://metrodiner.com/locations/virginia/chesapeake/", "opening_hours": "Mo-Su 08:00-20:00 08:00-20:00 08:00-20:00 08:00-20:00 08:00-20:00 08:00-20:00 08:00-20:00 08:00-20:00 08:00-20:00 08:00-20:00 08:00-20:00"}, "geometry": {"type": "Point", "coordinates": [-76.221726, 36.770312]}},
{"type": "Feature", "id": "h5g8TJ3hrqBssuQKs77evz_NHDo=", "properties": {"ref": "https://metrodiner.com/locations/florida/altamonte-springs/", "@spider": "metrodiner", "addr:full": "985 N. State Road 434 Altamonte Springs, FL 32714", "addr:country": "US", "name": "Altamonte Springs", "phone": "(407) 917-8997", "website": "https://metrodiner.com/locations/florida/altamonte-springs/", "opening_hours": "Mo-Su 08:00-20:00 08:00-20:00 08:00-20:00 08:00-20:00 08:00-20:00 08:00-20:00 08:00-20:00 08:00-20:00 08:00-20:00 08:00-20:00 08:00-20:00"}, "geometry": {"type": "Point", "coordinates": [-81.418567, 28.683165]}},
{"type": "Feature", "id": "4pbgiEfBO10jzhGoae9xLUbzU4I=", "properties": {"ref": "https://metrodiner.com/locations/north-carolina/charlotte-pineville/", "@spider": "metrodiner", "addr:full": "8334 Pineville-Matthews Road Suite 110 Charlotte, NC 28226", "addr:country": "US", "name": "Charlotte - Pineville", "phone": "(980) 215-9961", "website": "https://metrodiner.com/locations/north-carolina/charlotte-pineville/", "opening_hours": "Mo-Su 08:00-20:00 08:00-20:00 08:00-20:00 08:00-20:00 08:00-20:00 08:00-20:00 08:00-20:00 08:00-20:00 08:00-20:00 08:00-20:00 08:00-20:00"}, "geometry": {"type": "Point", "coordinates": [-80.860584, 35.088326]}},
{"type": "Feature", "id": "eqdlc0xky-wR5yzN0ZSAON4gJvk=", "properties": {"ref": "https://metrodiner.com/locations/south-carolina/west-ashley/", "@spider": "metrodiner", "addr:full": "1808 Sam Rittenberg Blvd Space 41 Charleston, SC 29407", "addr:country": "US", "name": "Charleston - West Ashley", "phone": "(843) 894-0202", "website": "https://metrodiner.com/locations/south-carolina/west-ashley/", "opening_hours": "Mo-Su 08:00-20:00 08:00-20:00 08:00-20:00 08:00-20:00 08:00-20:00 08:00-20:00 08:00-20:00 08:00-20:00 08:00-20:00 08:00-20:00 08:00-20:00"}, "geometry": {"type": "Point", "coordinates": [-80.019152, 32.801084]}},
{"type": "Feature", "id": "FON5YJXy-vAHf4kAYikl34SKXO8=", "properties": {"ref": "https://metrodiner.com/locations/south-carolina/aiken/", "@spider": "metrodiner", "addr:full": "1944 Whiskey Road Suite 101 Aiken, SC 29803", "addr:country": "US", "name": "Aiken", "phone": "(803) 792-7808", "website": "https://metrodiner.com/locations/south-carolina/aiken/", "opening_hours": "Mo-Su 08:00-20:00 08:00-20:00 08:00-20:00 08:00-20:00 08:00-20:00 08:00-20:00 08:00-20:00 08:00-20:00 08:00-20:00 08:00-20:00 08:00-20:00"}, "geometry": {"type": "Point", "coordinates": [-81.717926, 33.52152]}},
{"type": "Feature", "id": "5PFP6xLbEb-MHKT5g88Bjx2BDx8=", "properties": {"ref": "https://metrodiner.com/locations/virginia/suffolk/", "@spider": "metrodiner", "addr:full": "2051 Sun Harbour Avenue Suite 150 Suffolk, VA 23435", "addr:country": "US", "name": "Suffolk", "phone": "(757) 785-4574", "website": "https://metrodiner.com/locations/virginia/suffolk/", "opening_hours": "Mo-Su 08:00-20:00 08:00-20:00 08:00-20:00 08:00-20:00 08:00-20:00 08:00-20:00 08:00-20:00 08:00-20:00 08:00-20:00 08:00-20:00 08:00-20:00"}, "geometry": {"type": "Point", "coordinates": [-76.441408, 36.871189]}},
{"type": "Feature", "id": "PrgA3bk-Scej0rzqfVWyqg0sjYc=", "properties": {"ref": "https://metrodiner.com/locations/alabama/tuscaloosa/", "@spider": "metrodiner", "addr:full": "1800 McFarland Boulevard East #404 Tuscaloosa, AL 35404", "addr:country": "US", "name": "Tuscaloosa", "phone": "(205) 464-9428", "website": "https://metrodiner.com/locations/alabama/tuscaloosa/", "opening_hours": "Mo-Su 08:00-20:00 08:00-20:00 08:00-20:00 08:00-20:00 08:00-20:00 08:00-20:00 08:00-20:00 08:00-20:00 08:00-20:00 08:00-20:00 08:00-20:00"}, "geometry": {"type": "Point", "coordinates": [-87.527065, 33.194278]}},
{"type": "Feature", "id": "DjfH9UN5NBRgLqiBTK1Uo2dAeTk=", "properties": {"ref": "https://metrodiner.com/locations/georgia/augusta/", "@spider": "metrodiner", "addr:full": "2820 Washington Road Augusta, GA 30909", "addr:country": "US", "name": "Augusta", "phone": "(706) 750-0520", "website": "https://metrodiner.com/locations/georgia/augusta/", "opening_hours": "Mo-Su 08:00-20:00 08:00-20:00 08:00-20:00 08:00-20:00 08:00-20:00 08:00-20:00 08:00-20:00 08:00-20:00 08:00-20:00 08:00-20:00 08:00-20:00"}, "geometry": {"type": "Point", "coordinates": [-82.031928, 33.510207]}},
{"type": "Feature", "id": "w6ABkRi_fxThHeQ_IwiYsgyN6h4=", "properties": {"ref": "https://metrodiner.com/locations/florida/daytona-beach/", "@spider": "metrodiner", "addr:full": "1702 W International Speedway Boulevard Space 640 Daytona Beach, FL 32114", "addr:country": "US", "name": "Daytona Beach", "phone": "(386) 256-1831", "website": "https://metrodiner.com/locations/florida/daytona-beach/", "opening_hours": "Mo-Su 08:00-20:00 08:00-20:00 08:00-20:00 08:00-20:00 08:00-20:00 08:00-20:00 08:00-20:00 08:00-20:00 08:00-20:00 08:00-20:00 08:00-20:00"}, "geometry": {"type": "Point", "coordinates": [-81.06102, 29.1963]}},
{"type": "Feature", "id": "AuIF_fFFq1viVR7H-i5P1j8tamg=", "properties": {"ref": "https://metrodiner.com/locations/north-carolina/fayetteville/", "@spider": "metrodiner", "addr:full": "2132 Skibo Road Fayetteville, NC 28314", "addr:country": "US", "name": "Fayetteville", "phone": "(910) 493-3560", "website": "https://metrodiner.com/locations/north-carolina/fayetteville/", "opening_hours": "Mo-Su 08:00-20:00 08:00-20:00 08:00-20:00 08:00-20:00 08:00-20:00 08:00-20:00 08:00-20:00 08:00-20:00 08:00-20:00 08:00-20:00 08:00-20:00"}, "geometry": {"type": "Point", "coordinates": [-78.97577909325412, 35.05119378304653]}},
{"type": "Feature", "id": "R7Uh9NS_-inbGUG4JpD-OLwWs2k=", "properties": {"ref": "https://metrodiner.com/locations/florida/south-tampa/", "@spider": "metrodiner", "addr:full": "4011 West Kennedy Blvd Tampa, FL 33609", "addr:country": "US", "name": "South Tampa", "phone": "(813) 364-0076", "website": "https://metrodiner.com/locations/florida/south-tampa/", "opening_hours": "Mo-Su 07:00-20:00 07:00-20:00 07:00-20:00 07:00-20:00 07:00-20:00 07:00-20:00 07:00-20:00 07:00-20:00 07:00-20:00 07:00-20:00 07:00-20:00"}, "geometry": {"type": "Point", "coordinates": [-82.510009, 27.945189]}},
{"type": "Feature", "id": "smT20q_LqcT_xir7bIkyU-pq7pw=", "properties": {"ref": "https://metrodiner.com/locations/florida/st-augustine/", "@spider": "metrodiner", "addr:full": "1000 S. Ponce de Leon Boulevard St. Augustine, FL 32084", "addr:country": "US", "name": "St. Augustine", "phone": "(904) 758-3323", "website": "https://metrodiner.com/locations/florida/st-augustine/", "opening_hours": "Mo-Su 07:00-20:00 07:00-20:00 07:00-20:00 07:00-20:00 07:00-20:00 07:00-20:00 07:00-20:00 07:00-20:00 07:00-20:00 07:00-20:00 07:00-20:00"}, "geometry": {"type": "Point", "coordinates": [-81.325449, 29.880441]}},
{"type": "Feature", "id": "sNwdc6ggCusQW53VgJd3LYxbmKs=", "properties": {"ref": "https://metrodiner.com/locations/florida/venice/", "@spider": "metrodiner", "addr:full": "2053 S. Tamiami Trail Venice, FL 34293", "addr:country": "US", "name": "Venice", "phone": "(941) 451-2832", "website": "https://metrodiner.com/locations/florida/venice/", "opening_hours": "Mo-Sa 08:00-20:00 08:00-20:00 08:00-20:00 08:00-20:00 08:00-20:00 08:00-20:00 08:00-20:00 08:00-20:00 08:00-20:00 08:00-20:00 08:00-20:00; Su 08:00-15:00 08:00-15:00 08:00-15:00 08:00-15:00 08:00-15:00 08:00-15:00 08:00-15:00 08:00-15:00 08:00-15:00 08:00-15:00 08:00-15:00"}, "geometry": {"type": "Point", "coordinates": [-82.411358, 27.056738]}},
{"type": "Feature", "id": "KH23QeZcfo3SoOub-p-le5s3OJA=", "properties": {"ref": "https://metrodiner.com/locations/oklahoma/oklahoma-city/", "@spider": "metrodiner", "addr:full": "3000 West Memorial Road Suite 109 Oklahoma City, OK 73120", "addr:country": "US", "name": "Oklahoma City", "phone": "(405) 437-3079", "website": "https://metrodiner.com/locations/oklahoma/oklahoma-city/", "opening_hours": "Mo-Su 08:00-20:00 08:00-20:00 08:00-20:00 08:00-20:00 08:00-20:00 08:00-20:00 08:00-20:00 08:00-20:00 08:00-20:00 08:00-20:00 08:00-20:00"}, "geometry": {"type": "Point", "coordinates": [-97.56818, 35.607752]}},
{"type": "Feature", "id": "CWivQzoJhFtD_XqWmLXHtJ6W_rE=", "properties": {"ref": "https://metrodiner.com/locations/oklahoma/tulsa-hills/", "@spider": "metrodiner", "addr:full": "7474 S Olympia Avenue Tulsa, OK 74132", "addr:country": "US", "name": "Tulsa Hills", "phone": "(918) 387-3553", "website": "https://metrodiner.com/locations/oklahoma/tulsa-hills/", "opening_hours": "Mo-Sa 08:00-20:00 08:00-20:00 08:00-20:00 08:00-20:00 08:00-20:00 08:00-20:00 08:00-20:00 08:00-20:00 08:00-20:00 08:00-20:00 08:00-20:00; Su 08:00-15:00 08:00-15:00 08:00-15:00 08:00-15:00 08:00-15:00 08:00-15:00 08:00-15:00 08:00-15:00 08:00-15:00 08:00-15:00 08:00-15:00"}, "geometry": {"type": "Point", "coordinates": [-96.003914, 36.055802]}},
{"type": "Feature", "id": "AZfkDlsakLRxZs-9CRPx3DZq7KE=", "properties": {"ref": "https://metrodiner.com/locations/florida/the-villages/", "@spider": "metrodiner", "addr:full": "4110 Wedgewood Lane The Villages, FL 32162", "addr:country": "US", "name": "The Villages", "phone": "(352) 204-9562", "website": "https://metrodiner.com/locations/florida/the-villages/", "opening_hours": "Mo-Su 07:00-20:00 07:00-20:00 07:00-20:00 07:00-20:00 07:00-20:00 07:00-20:00 07:00-20:00 07:00-20:00 07:00-20:00 07:00-20:00 07:00-20:00"}, "geometry": {"type": "Point", "coordinates": [-82.031769, 28.927908]}},
{"type": "Feature", "id": "JzjDuKAb-U0ubR_-2AnbelgnoG8=", "properties": {"ref": "https://metrodiner.com/locations/florida/st-pete/", "@spider": "metrodiner", "addr:full": "5250 4th Street North St. Petersburg, FL 33703", "addr:country": "US", "name": "St. Petersburg", "phone": "(727) 324-6088", "website": "https://metrodiner.com/locations/florida/st-pete/", "opening_hours": "Mo-Su 07:00-20:00 07:00-20:00 07:00-20:00 07:00-20:00 07:00-20:00 07:00-20:00 07:00-20:00 07:00-20:00 07:00-20:00 07:00-20:00 07:00-20:00"}, "geometry": {"type": "Point", "coordinates": [-82.639058, 27.819983]}},
{"type": "Feature", "id": "Cx0AyoA_ngmeqX8pJitchna9npM=", "properties": {"ref": "https://metrodiner.com/locations/alabama/trussville/", "@spider": "metrodiner", "addr:full": "2050 Gadsden Hwy Birmingham, AL 35235", "addr:country": "US", "name": "Trussville", "phone": "(205) 598-1848", "website": "https://metrodiner.com/locations/alabama/trussville/", "opening_hours": "Mo-Su 08:00-20:00 08:00-20:00 08:00-20:00 08:00-20:00 08:00-20:00 08:00-20:00 08:00-20:00 08:00-20:00 08:00-20:00 08:00-20:00 08:00-20:00"}, "geometry": {"type": "Point", "coordinates": [-86.624229, 33.612344]}},
{"type": "Feature", "id": "tXh5aU-Scvk5J6KDB-TSlk5ekHE=", "properties": {"ref": "https://metrodiner.com/locations/florida/sarasota-lockwood/", "@spider": "metrodiner", "addr:full": "6056 North Lockwood Ridge Road Sarasota, FL 34243", "addr:country": "US", "name": "Sarasota - Lockwood", "phone": "(941) 404-8815", "website": "https://metrodiner.com/locations/florida/sarasota-lockwood/", "opening_hours": "Mo-Sa 08:00-20:00 08:00-20:00 08:00-20:00 08:00-20:00 08:00-20:00 08:00-20:00 08:00-20:00 08:00-20:00 08:00-20:00 08:00-20:00 08:00-20:00; Su 08:00-15:00 08:00-15:00 08:00-15:00 08:00-15:00 08:00-15:00 08:00-15:00 08:00-15:00 08:00-15:00 08:00-15:00 08:00-15:00 08:00-15:00"}, "geometry": {"type": "Point", "coordinates": [-82.505106, 27.387586]}},
{"type": "Feature", "id": "nhdVTS4SmQ7TGFi35mkDKA2Fc6I=", "properties": {"ref": "https://metrodiner.com/locations/florida/port-charlotte/", "@spider": "metrodiner", "addr:full": "1720 Tamiami Trail Suite 100 Port Charlotte, FL 33948", "addr:country": "US", "name": "Port Charlotte", "phone": "(941) 220-6291", "website": "https://metrodiner.com/locations/florida/port-charlotte/", "opening_hours": "Mo-Su 07:00-20:00 07:00-20:00 07:00-20:00 07:00-20:00 07:00-20:00 07:00-20:00 07:00-20:00 07:00-20:00 07:00-20:00 07:00-20:00 07:00-20:00"}, "geometry": {"type": "Point", "coordinates": [-82.134882, 27.008188]}},
{"type": "Feature", "id": "PcNNYScG4TngbfhmZ9UT2PhYhGw=", "properties": {"ref": "https://metrodiner.com/locations/indiana/plainfield/", "@spider": "metrodiner", "addr:full": "302 Dan Jones Road Plainfield, IN 46168", "addr:country": "US", "name": "Plainfield", "phone": "(317) 214-8715", "website": "https://metrodiner.com/locations/indiana/plainfield/", "opening_hours": "Mo-Su 08:00-20:00 08:00-20:00 08:00-20:00 08:00-20:00 08:00-20:00 08:00-20:00 08:00-20:00 08:00-20:00 08:00-20:00 08:00-20:00 08:00-20:00"}, "geometry": {"type": "Point", "coordinates": [-86.381268, 39.71187]}},
{"type": "Feature", "id": "pWF9ogAAvfGoFSdpkQaYUMgkcDs=", "properties": {"ref": "https://metrodiner.com/locations/florida/ponte-vedra/", "@spider": "metrodiner", "addr:full": "340 Front Street Suite 700 Ponte Vedra Beach, FL 32082", "addr:country": "US", "name": "Ponte Vedra Beach", "phone": "(904) 513-8422", "website": "https://metrodiner.com/locations/florida/ponte-vedra/", "opening_hours": "Mo-Su 07:00-15:00 07:00-15:00 07:00-15:00 07:00-15:00 07:00-15:00 07:00-15:00 07:00-15:00 07:00-15:00 07:00-15:00 07:00-15:00 07:00-15:00"}, "geometry": {"type": "Point", "coordinates": [-81.381262, 30.204173]}},
{"type": "Feature", "id": "qV5AusQKS5rFNHqfajTXx1vLCgE=", "properties": {"ref": "https://metrodiner.com/locations/florida/oviedo/", "@spider": "metrodiner", "addr:full": "946 W. Mitchell Hammock Road Suite 1220 Oviedo, FL 32765", "addr:country": "US", "name": "Oviedo", "phone": "(407) 698-5290", "website": "https://metrodiner.com/locations/florida/oviedo/", "opening_hours": "Mo-Su 08:00-20:00 08:00-20:00 08:00-20:00 08:00-20:00 08:00-20:00 08:00-20:00 08:00-20:00 08:00-20:00 08:00-20:00 08:00-20:00 08:00-20:00"}, "geometry": {"type": "Point", "coordinates": [-81.223162, 28.65482]}},
{"type": "Feature", "id": "zDST2iNI12KQiMJLnF8AZ0UBw7g=", "properties": {"ref": "https://metrodiner.com/locations/florida/palm-coast/", "@spider": "metrodiner", "addr:full": "250 Palm Coast Parkway, NE #250 Palm Coast, FL 32137", "addr:country": "US", "name": "Palm Coast", "phone": "(386) 951-4490", "website": "https://metrodiner.com/locations/florida/palm-coast/", "opening_hours": "Mo-Su 08:00-20:00 08:00-20:00 08:00-20:00 08:00-20:00 08:00-20:00 08:00-20:00 08:00-20:00 08:00-20:00 08:00-20:00 08:00-20:00 08:00-20:00"}, "geometry": {"type": "Point", "coordinates": [-81.210655, 29.556734]}},
{"type": "Feature", "id": "jRxrBUk4mwJR6uCzu9MpjJym5vQ=", "properties": {"ref": "https://metrodiner.com/locations/florida/orange-park/", "@spider": "metrodiner", "addr:full": "2034 Kingsley Avenue Orange Park, FL 32073", "addr:country": "US", "name": "Orange Park", "phone": "(904) 375-8548", "website": "https://metrodiner.com/locations/florida/orange-park/", "opening_hours": "Mo-Su 07:00-20:00 07:00-20:00 07:00-20:00 07:00-20:00 07:00-20:00 07:00-20:00 07:00-20:00 07:00-20:00 07:00-20:00 07:00-20:00 07:00-20:00"}, "geometry": {"type": "Point", "coordinates": [-81.740673, 30.164316]}},
{"type": "Feature", "id": "UDwIQBCjLg-4nPy6iEwKjNS_5g4=", "properties": {"ref": "https://metrodiner.com/locations/delaware/newark/", "@spider": "metrodiner", "addr:full": "4601 Ogletown-Stanton Rd Newark, DE 19713", "addr:country": "US", "name": "Newark", "phone": "(302) 273-0850", "website": "https://metrodiner.com/locations/delaware/newark/", "opening_hours": "Mo-Su 08:00-20:00 08:00-20:00 08:00-20:00 08:00-20:00 08:00-20:00 08:00-20:00 08:00-20:00 08:00-20:00 08:00-20:00 08:00-20:00 08:00-20:00"}, "geometry": {"type": "Point", "coordinates": [-75.680964, 39.685216]}},
{"type": "Feature", "id": "YqAfOGJFz3IjJO8XxEUKbmGORe8=", "properties": {"ref": "https://metrodiner.com/locations/tennessee/murfreesboro/", "@spider": "metrodiner", "addr:full": "711 A-I North Thompson Lane Murfreesboro, TN 37129", "addr:country": "US", "name": "Murfreesboro", "phone": "(615) 671-7909", "website": "https://metrodiner.com/locations/tennessee/murfreesboro/", "opening_hours": "Mo-Su 08:00-20:00 08:00-20:00 08:00-20:00 08:00-20:00 08:00-20:00 08:00-20:00 08:00-20:00 08:00-20:00 08:00-20:00 08:00-20:00 08:00-20:00"}, "geometry": {"type": "Point", "coordinates": [-86.430608, 35.859195]}},
{"type": "Feature", "id": "n59LXKMuSd1-bYmWIkFqFPmngBE=", "properties": {"ref": "https://metrodiner.com/locations/delaware/middletown/", "@spider": "metrodiner", "addr:full": "745 Middletown Warwick Road Middletown, DE 19709", "addr:country": "US", "name": "Middletown", "phone": "(302) 314-3838", "website": "https://metrodiner.com/locations/delaware/middletown/", "opening_hours": "Mo-Su 08:00-20:00 08:00-20:00 08:00-20:00 08:00-20:00 08:00-20:00 08:00-20:00 08:00-20:00 08:00-20:00 08:00-20:00 08:00-20:00 08:00-20:00"}, "geometry": {"type": "Point", "coordinates": [-75.74119345899965, 39.44331658554681]}},
{"type": "Feature", "id": "RAkiGjxEUmfRPp2kJajWpTsMUhk=", "properties": {"ref": "https://metrodiner.com/locations/pennsylvania/mechanicsburg/", "@spider": "metrodiner", "addr:full": "5600 Carlisle Pike Mechanicsburg, PA 17050", "addr:country": "US", "name": "Mechanicsburg", "phone": "(717) 388-4823", "website": "https://metrodiner.com/locations/pennsylvania/mechanicsburg/", "opening_hours": "Mo-Su 08:00-20:00 08:00-20:00 08:00-20:00 08:00-20:00 08:00-20:00 08:00-20:00 08:00-20:00 08:00-20:00 08:00-20:00 08:00-20:00 08:00-20:00"}, "geometry": {"type": "Point", "coordinates": [-76.987739, 40.241182]}},
{"type": "Feature", "id": "vcam19MaPgpM6aHNv959dsZqxYc=", "properties": {"ref": "https://metrodiner.com/locations/florida/melbourne/", "@spider": "metrodiner", "addr:full": "7954 N Wickham Road Suite 101 Melbourne, FL 32940", "addr:country": "US", "name": "Melbourne", "phone": "(321) 247-6414", "website": "https://metrodiner.com/locations/florida/melbourne/", "opening_hours": "Mo-Su 08:00-20:00 08:00-20:00 08:00-20:00 08:00-20:00 08:00-20:00 08:00-20:00 08:00-20:00 08:00-20:00 08:00-20:00 08:00-20:00 08:00-20:00"}, "geometry": {"type": "Point", "coordinates": [-80.704689, 28.231053]}},
{"type": "Feature", "id": "k8t3QTerKoeIXZZ6IgrOWp__Ny8=", "properties": {"ref": "https://metrodiner.com/locations/indiana/mishawaka/", "@spider": "metrodiner", "addr:full": "423 E. University Drive Granger, IN 46530", "addr:country": "US", "name": "Mishawaka", "phone": "(574) 655-4088", "website": "https://metrodiner.com/locations/indiana/mishawaka/", "opening_hours": "Mo-Su 08:00-20:00 08:00-20:00 08:00-20:00 08:00-20:00 08:00-20:00 08:00-20:00 08:00-20:00 08:00-20:00 08:00-20:00 08:00-20:00 08:00-20:00"}, "geometry": {"type": "Point", "coordinates": [-86.174173, 41.719461]}},
{"type": "Feature", "id": "rTKYs5l83a7NdVZcktptvILeXMI=", "properties": {"ref": "https://metrodiner.com/locations/kentucky/louisville-jefferson/", "@spider": "metrodiner", "addr:full": "4901 Outer Loop Road Suite 100 Louisville, KY 40219", "addr:country": "US", "name": "Louisville - Jefferson", "phone": "(502) 357-0767", "website": "https://metrodiner.com/locations/kentucky/louisville-jefferson/", "opening_hours": "Mo-Su 08:00-20:00 08:00-20:00 08:00-20:00 08:00-20:00 08:00-20:00 08:00-20:00 08:00-20:00 08:00-20:00 08:00-20:00 08:00-20:00 08:00-20:00"}, "geometry": {"type": "Point", "coordinates": [-85.667838, 38.139633]}},
{"type": "Feature", "id": "YRBPN_HXjYfPh4VVO20Fn2jujNA=", "properties": {"ref": "https://metrodiner.com/locations/alabama/madison/", "@spider": "metrodiner", "addr:full": "7626 US Highway 72 Suite A Madison, AL 35758", "addr:country": "US", "name": "Madison", "phone": "(256) 929-6541", "website": "https://metrodiner.com/locations/alabama/madison/", "opening_hours": "Mo-Su 08:00-20:00 08:00-20:00 08:00-20:00 08:00-20:00 08:00-20:00 08:00-20:00 08:00-20:00 08:00-20:00 08:00-20:00 08:00-20:00 08:00-20:00"}, "geometry": {"type": "Point", "coordinates": [-86.73416, 34.75574]}},
{"type": "Feature", "id": "hTUDZkFYAQWvWoBvrr5g748jtD4=", "properties": {"ref": "https://metrodiner.com/locations/pennsylvania/langhorne-oxford-valley/", "@spider": "metrodiner", "addr:full": "2390 E Lincoln Highway Langhorne, PA 19047", "addr:country": "US", "name": "Langhorne - Oxford Valley", "phone": "(215) 259-7592", "website": "https://metrodiner.com/locations/pennsylvania/langhorne-oxford-valley/", "opening_hours": "Mo-Su 08:00-20:00 08:00-20:00 08:00-20:00 08:00-20:00 08:00-20:00 08:00-20:00 08:00-20:00 08:00-20:00 08:00-20:00 08:00-20:00 08:00-20:00"}, "geometry": {"type": "Point", "coordinates": [-74.875266, 40.180188]}},
{"type": "Feature", "id": "Kyu8imFYFIoIaR3hIWj60D9yi6A=", "properties": {"ref": "https://metrodiner.com/locations/florida/kissimmee-hunters-creek/", "@spider": "metrodiner", "addr:full": "2714 W. Osceola Parkway Kissimmee, FL 34741", "addr:country": "US", "name": "Kissimmee - Hunters Creek", "phone": "(407) 749-6998", "website": "https://metrodiner.com/locations/florida/kissimmee-hunters-creek/", "opening_hours": "Mo-Su 08:00-20:00 08:00-20:00 08:00-20:00 08:00-20:00 08:00-20:00 08:00-20:00 08:00-20:00 08:00-20:00 08:00-20:00 08:00-20:00 08:00-20:00"}, "geometry": {"type": "Point", "coordinates": [-81.43257, 28.34135]}},
{"type": "Feature", "id": "gpIOyEdpTTZvpcfvLr5lRAeFwLI=", "properties": {"ref": "https://metrodiner.com/locations/florida/jacksonville-beach/", "@spider": "metrodiner", "addr:full": "1534 Third Street North Jacksonville Beach, FL 32250", "addr:country": "US", "name": "Jacksonville Beach", "phone": "(904) 853-6817", "website": "https://metrodiner.com/locations/florida/jacksonville-beach/", "opening_hours": "Mo-Su 07:00-14:30 07:00-14:30 07:00-14:30 07:00-14:30 07:00-14:30 07:00-14:30 07:00-14:30 07:00-14:30 07:00-14:30 07:00-14:30 07:00-14:30"}, "geometry": {"type": "Point", "coordinates": [-81.395208, 30.302789]}},
{"type": "Feature", "id": "cv1zzil4PJDIw-3Y1uez1tUBp-k=", "properties": {"ref": "https://metrodiner.com/locations/florida/ortega/", "@spider": "metrodiner", "addr:full": "4495 Roosevelt Boulevard Jacksonville, FL 32210", "addr:country": "US", "name": "Jacksonville - Ortega", "phone": "(904) 999-4600", "website": "https://metrodiner.com/locations/florida/ortega/", "opening_hours": "Mo-Su 07:00-20:00 07:00-20:00 07:00-20:00 07:00-20:00 07:00-20:00 07:00-20:00 07:00-20:00 07:00-20:00 07:00-20:00 07:00-20:00 07:00-20:00"}, "geometry": {"type": "Point", "coordinates": [-81.719493, 30.279185]}},
{"type": "Feature", "id": "iT-XNNWv_NPEXNP63lLnLNN5cug=", "properties": {"ref": "https://metrodiner.com/locations/florida/southside/", "@spider": "metrodiner", "addr:full": "9802 Baymeadows Rd Jacksonville, FL 32256", "addr:country": "US", "name": "Jacksonville - Southside", "phone": "(904) 425-9142", "website": "https://metrodiner.com/locations/florida/southside/", "opening_hours": "Mo-Su 07:00-20:00 07:00-20:00 07:00-20:00 07:00-20:00 07:00-20:00 07:00-20:00 07:00-20:00 07:00-20:00 07:00-20:00 07:00-20:00 07:00-20:00"}, "geometry": {"type": "Point", "coordinates": [-81.554652, 30.218057]}},
{"type": "Feature", "id": "KbpytSZrmrspVFCoZ5dKlI4Y880=", "properties": {"ref": "https://metrodiner.com/locations/florida/san-marco/", "@spider": "metrodiner", "addr:full": "3302 Hendricks Avenue Jacksonville, FL 32207", "addr:country": "US", "name": "Jacksonville - San Marco", "phone": "(904) 398-3701", "website": "https://metrodiner.com/locations/florida/san-marco/", "opening_hours": "Mo-Su 07:00-15:00 07:00-15:00 07:00-15:00 07:00-15:00 07:00-15:00 07:00-15:00 07:00-15:00 07:00-15:00 07:00-15:00 07:00-15:00 07:00-15:00"}, "geometry": {"type": "Point", "coordinates": [-81.64882155092619, 30.29115737670863]}},
{"type": "Feature", "id": "ECZmId77rVLyIUmq2XnAa_RTs7g=", "properties": {"ref": "https://metrodiner.com/locations/florida/gainesville/", "@spider": "metrodiner", "addr:full": "2130 S.W. 34th Street Gainesville, FL 32608", "addr:country": "US", "name": "Gainesville", "phone": "(352) 353-2889", "website": "https://metrodiner.com/locations/florida/gainesville/", "opening_hours": "Mo-Su 07:00-20:00 07:00-20:00 07:00-20:00 07:00-20:00 07:00-20:00 07:00-20:00 07:00-20:00 07:00-20:00 07:00-20:00 07:00-20:00 07:00-20:00"}, "geometry": {"type": "Point", "coordinates": [-82.373091, 29.632704]}},
{"type": "Feature", "id": "PC-_r8PQc7DPTgK4u0Q966jt5Dw=", "properties": {"ref": "https://metrodiner.com/locations/alabama/huntsville-airport/", "@spider": "metrodiner", "addr:full": "975 Airport Road Suite 20 - 22 Huntsville, AL 35802", "addr:country": "US", "name": "Huntsville - Airport", "phone": "(256) 333-4974", "website": "https://metrodiner.com/locations/alabama/huntsville-airport/", "opening_hours": "Mo-Su 08:00-20:00 08:00-20:00 08:00-20:00 08:00-20:00 08:00-20:00 08:00-20:00 08:00-20:00 08:00-20:00 08:00-20:00 08:00-20:00 08:00-20:00"}, "geometry": {"type": "Point", "coordinates": [-86.578079, 34.689914]}},
{"type": "Feature", "id": "jbE3VLUC9S8G2v087AIMIClPvIY=", "properties": {"ref": "https://metrodiner.com/locations/florida/mandarin/", "@spider": "metrodiner", "addr:full": "12807 San Jose Boulevard Jacksonville, FL 32223", "addr:country": "US", "name": "Jacksonville - Mandarin", "phone": "(904) 638-6185", "website": "https://metrodiner.com/locations/florida/mandarin/", "opening_hours": "Mo-Su 07:00-20:00 07:00-20:00 07:00-20:00 07:00-20:00 07:00-20:00 07:00-20:00 07:00-20:00 07:00-20:00 07:00-20:00 07:00-20:00 07:00-20:00"}, "geometry": {"type": "Point", "coordinates": [-81.631531, 30.134712]}},
{"type": "Feature", "id": "pV7m8Y-APFmqKOlpj4lX46hgzSU=", "properties": {"ref": "https://metrodiner.com/locations/indiana/greenwood/", "@spider": "metrodiner", "addr:full": "7225 US-31 South Unit A06 Indianapolis, IN 46227", "addr:country": "US", "name": "Greenwood", "phone": "(317) 285-0149", "website": "https://metrodiner.com/locations/indiana/greenwood/", "opening_hours": "Mo-Su 08:00-20:00 08:00-20:00 08:00-20:00 08:00-20:00 08:00-20:00 08:00-20:00 08:00-20:00 08:00-20:00 08:00-20:00 08:00-20:00 08:00-20:00"}, "geometry": {"type": "Point", "coordinates": [-86.143942, 39.660567]}},
{"type": "Feature", "id": "p8Q7fCDOAW_ThxU0Ge8bSczIt7o=", "properties": {"ref": "https://metrodiner.com/locations/alabama/dothan/", "@spider": "metrodiner", "addr:full": "2777 W Main Street Dothan, AL 36301", "addr:country": "US", "name": "Dothan", "phone": "(334) 218-3230", "website": "https://metrodiner.com/locations/alabama/dothan/", "opening_hours": "Mo-Su 08:00-20:00 08:00-20:00 08:00-20:00 08:00-20:00 08:00-20:00 08:00-20:00 08:00-20:00 08:00-20:00 08:00-20:00 08:00-20:00 08:00-20:00"}, "geometry": {"type": "Point", "coordinates": [-85.43067354845175, 31.227933039058673]}},
{"type": "Feature", "id": "XjsJ7pozYronvUuYPTLpjtb8bYQ=", "properties": {"ref": "https://metrodiner.com/locations/delaware/concord-pike/", "@spider": "metrodiner", "addr:full": "5600 Concord Pike Unit 5614 Wilmington, DE 19803", "addr:country": "US", "name": "Concord Pike", "phone": "(302) 426-2226", "website": "https://metrodiner.com/locations/delaware/concord-pike/", "opening_hours": "Mo-Su 08:00-20:00 08:00-20:00 08:00-20:00 08:00-20:00 08:00-20:00 08:00-20:00 08:00-20:00 08:00-20:00 08:00-20:00 08:00-20:00 08:00-20:00"}, "geometry": {"type": "Point", "coordinates": [-75.54342, 39.83465]}},
{"type": "Feature", "id": "bkNLlV21UCWOuCOgcpB7CjymWAU=", "properties": {"ref": "https://metrodiner.com/locations/north-carolina/matthews/", "@spider": "metrodiner", "addr:full": "10412 E. Independence Blvd. Suite 400 Matthews, NC 28105", "addr:country": "US", "name": "Matthews", "phone": "(704) 802-7871", "website": "https://metrodiner.com/locations/north-carolina/matthews/", "opening_hours": "Mo-Su 08:00-20:00 08:00-20:00 08:00-20:00 08:00-20:00 08:00-20:00 08:00-20:00 08:00-20:00 08:00-20:00 08:00-20:00 08:00-20:00 08:00-20:00"}, "geometry": {"type": "Point", "coordinates": [-80.708307, 35.126887]}},
{"type": "Feature", "id": "AA46qkgTpna96j684yLEij9vBhc=", "properties": {"ref": "https://metrodiner.com/locations/north-carolina/raleigh/", "@spider": "metrodiner", "addr:full": "6325 Falls of Neuse Road #73 Raleigh, NC 27615", "addr:country": "US", "name": "Raleigh", "phone": "(919) 578-9053", "website": "https://metrodiner.com/locations/north-carolina/raleigh/", "opening_hours": "Mo-Su 08:00-20:00 08:00-20:00 08:00-20:00 08:00-20:00 08:00-20:00 08:00-20:00 08:00-20:00 08:00-20:00 08:00-20:00 08:00-20:00 08:00-20:00"}, "geometry": {"type": "Point", "coordinates": [-78.622533, 35.870169]}},
{"type": "Feature", "id": "819Qa26NLC3jWFPOBwHX_AI8lFI=", "properties": {"ref": "https://metrodiner.com/locations/indiana/clearwater-crossing/", "@spider": "metrodiner", "addr:full": "3954 E. 82nd Street Indianapolis, IN 46240", "addr:country": "US", "name": "Clearwater Crossing", "phone": "(317) 296-8262", "website": "https://metrodiner.com/locations/indiana/clearwater-crossing/", "opening_hours": "Mo-Th 07:00-15:00 07:00-15:00 07:00-15:00 07:00-15:00 07:00-15:00 07:00-15:00 07:00-15:00 07:00-15:00 07:00-15:00 07:00-15:00 07:00-15:00; Fr-Sa 07:00-20:00 07:00-20:00 07:00-20:00 07:00-20:00 07:00-20:00 07:00-20:00 07:00-20:00 07:00-20:00 07:00-20:00 07:00-20:00 07:00-20:00; Su 07:00-17:00 07:00-17:00 07:00-17:00 07:00-17:00 07:00-17:00 07:00-17:00 07:00-17:00 07:00-17:00 07:00-17:00 07:00-17:00 07:00-17:00"}, "geometry": {"type": "Point", "coordinates": [-86.098622, 39.909377]}}]}