{"type":"FeatureCollection","features":[{"type": "Feature", "id": "FcI3O7SxfGRD_3u3bQTHmDv5i58=", "properties": {"ref": "%D9%85%D8%AC%D9%85%D8%B9-%D8%A7%D9%84%D9%86%D8%AE%D9%8A%D9%84-%D8%AF%D9%85%D8%A7%D9%85", "@spider": "nandos_sa", "addr:full": "\u0627\u0644\u0645\u0646\u0627\u0631, \u0634\u0627\u0631\u0639 \u0639\u0628\u062f\u0627\u0644\u0631\u062d\u0645\u0646 \u0627\u0628\u0646 \u0639\u0648\u0641 , \u0645\u062c\u0645\u0639 \u0627\u0644\u0646\u062e\u064a\u0644, \u0627\u0644\u062f\u0645\u0627\u0645", "addr:city": "Dammam", "addr:state": "Saudi Arabia", "addr:country": "SA", "name": "\u0645\u062c\u0645\u0639 \u0627\u0644\u0646\u062e\u064a\u0644 \u062f\u0645\u0627\u0645", "phone": "+44+966508599891", "website": "https://nandos.sa/eat/restaurants/%D9%85%D8%AC%D9%85%D8%B9-%D8%A7%D9%84%D9%86%D8%AE%D9%8A%D9%84-%D8%AF%D9%85%D8%A7%D9%85", "brand": "Nando's", "brand:wikidata": "Q3472954"}},
{"type": "Feature", "id": "xXlGUhLPpz31BztjwhT0TBSovkA=", "properties": {"ref": "nandos-levels-mall", "@spider": "nandos_sa", "addr:full": "(\u0627\u0644\u0631\u064a\u0627\u0636\u060c \u0627\u0644\u062f\u0627\u0626\u0631\u064a \u0627\u0644\u0634\u0645\u0627\u0644\u064a (\u0645\u0627 \u0628\u064a\u0646 \u0645\u062e\u0631\u062c\u064a 5 \u06486", "addr:city": "\u0627\u0644\u0631\u064a\u0627\u0636", "addr:country": "SA", "name": "\u0646\u0627\u0646\u062f\u0648\u0632 \u0644\u064a\u0641\u064a\u0644\u0632 \u0645\u0648\u0644", "phone": "+44+966530060205", "website": "https://nandos.sa/eat/restaurants/nandos-levels-mall", "brand": "Nando's", "brand:wikidata": "Q3472954"}, "geometry": {"type": "Point", "coordinates": [46.675197, 24.772053]}},
{"type": "Feature", "id": "WT-RYoR-NDRuIq1jl94G6ARjI_4=", "properties": {"ref": "%D9%85%D9%88%D9%84-%D8%BA%D8%B1%D9%86%D8%A7%D8%B7%D8%A9", "@spider": "nandos_sa", "addr:full": "\u0627\u0644\u0637\u0631\u064a\u0642 \u0627\u0644\u062f\u0627\u0626\u0631\u064a \u0627\u0644\u0634\u0631\u0642\u064a, \u0645\u062d\u0645\u0639 \u063a\u0631\u0646\u0627\u0637\u0629 , \u0627\u0644\u0631\u064a\u0627\u0636", "addr:city": "Riyadh", "addr:state": "Saudi Arabia", "addr:country": "SA", "name": "\u0645\u0648\u0644 \u063a\u0631\u0646\u0627\u0637\u0629", "phone": "+44+966509122503", "website": "https://nandos.sa/eat/restaurants/%D9%85%D9%88%D9%84-%D8%BA%D8%B1%D9%86%D8%A7%D8%B7%D8%A9", "brand": "Nando's", "brand:wikidata": "Q3472954"}},
{"type": "Feature", "id": "O30PW-tPnKeG27YTkHNUeRcqFXg=", "properties": {"ref": "turki-square-branch", "@spider": "nandos_sa", "addr:full": "(\u0637\u0631\u064a\u0642 \u0627\u0644\u0627\u0645\u064a\u0631 \u062a\u0631\u0643\u064a \u0627\u0644\u0627\u0648\u0644 (\u062a\u0642\u0627\u0637\u0639 \u0645\u0639 \u0637\u0631\u064a\u0642 \u0645\u0643\u0629 \u0627\u0644\u0645\u0643\u0631\u0645\u0629", "addr:city": "\u0627\u0644\u0631\u064a\u0627\u0636", "addr:country": "SA", "name": "\u0641\u0631\u0639 \u062a\u0631\u0643\u064a \u0633\u0643\u0648\u064a\u0631", "phone": "+44+966508844332", "website": "https://nandos.sa/eat/restaurants/turki-square-branch", "brand": "Nando's", "brand:wikidata": "Q3472954"}, "geometry": {"type": "Point", "coordinates": [46.668192, 24.675471]}},
{"type": "Feature", "id": "tbleO-Pwf5DVp6u1B3l9VOp7mOU=", "properties": {"ref": "nandos-mall-arabia", "@spider": "nandos_sa", "addr:full": "\u0645\u062c\u0645\u0639 \u0627\u0644\u0639\u0631\u0628, \u0628\u0648\u0627\u0628\u0629 5", "addr:city": "\u062c\u062f\u0629", "addr:state": "\u0627\u0644\u0645\u0645\u0644\u0643\u0629 \u0627\u0644\u0639\u0631\u0628\u064a\u0629 \u0627\u0644\u0633\u0639\u0648\u062f\u064a\u0629", "addr:country": "SA", "name": "\u0646\u0627\u0646\u062f\u0648\u0632 \u0645\u062c\u0645\u0639 \u0627\u0644\u0639\u0631\u0628", "phone": "+44503446623", "website": "https://nandos.sa/eat/restaurants/nandos-mall-arabia", "brand": "Nando's", "brand:wikidata": "Q3472954"}, "geometry": {"type": "Point", "coordinates": [39.156067, 21.632819]}},
{"type": "Feature", "id": "nzQInBKjsKducciFazH7xQLNyv4=", "properties": {"ref": "nandos-red-sea-mall", "@spider": "nandos_sa", "addr:full": "\u0631\u062f \u0633\u064a \u0645\u0648\u0644, (\u0637\u0631\u064a\u0642 \u0627\u0644\u0645\u0644\u0643 \u0639\u0628\u062f \u0627\u0644\u0639\u0632\u064a\u0632 (\u0634\u0645\u0627\u0644, \u0637\u0631\u064a\u0642 \u0627\u0644\u0645\u0644\u0643 \u0639\u0628\u062f \u0627\u0644\u0639\u0632\u064a\u0632\u060c \u0627\u0644\u0634\u0627\u0637\u0626\u060c \u062c\u062f\u0629", "addr:city": "\u062c\u062f\u0629", "addr:country": "SA", "name": "\u0646\u0627\u0646\u062f\u0648\u0632 \u0631\u062f \u0633\u064a \u0645\u0648\u0644", "phone": "+44+966122240016", "website": "https://nandos.sa/eat/restaurants/nandos-red-sea-mall", "brand": "Nando's", "brand:wikidata": "Q3472954"}, "geometry": {"type": "Point", "coordinates": [39.11101, 21.628326]}},
{"type": "Feature", "id": "z3PS3RrEctVHmWKT4y_C78BZXJE=", "properties": {"ref": "nandos-lilian-tower", "@spider": "nandos_sa", "addr:full": "\u062c\u062f\u0629, \u0623\u0628\u0631\u0627\u062c \u0644\u064a\u0644\u064a\u0627\u0646, \u0637\u0631\u064a\u0642 \u0627\u0644\u0623\u0645\u064a\u0631 \u0633\u0644\u0637\u0627\u0627\u0646", "addr:city": "\u062c\u062f\u0629", "addr:postcode": "21146", "addr:country": "SA", "name": "\u0646\u0627\u0646\u062f\u0648\u0632 \u0623\u0628\u0631\u0627\u062c \u0644\u064a\u0644\u064a\u0627\u0646", "phone": "+44966551066832", "website": "https://nandos.sa/eat/restaurants/nandos-lilian-tower", "brand": "Nando's", "brand:wikidata": "Q3472954"}, "geometry": {"type": "Point", "coordinates": [39.14389, 21.582281]}},
{"type": "Feature", "id": "5cLudhxI2yfD9Tkqvy9AMO5RjbM=", "properties": {"ref": "nandos-mall-dhahran", "@spider": "nandos_sa", "addr:full": "\u0645\u062c\u0645\u0639 \u0627\u0644\u0638\u0647\u0631\u0627\u0646, \u0628\u0648\u0627\u0628\u0629 10", "addr:city": "\u0627\u0644\u0638\u0647\u0631\u0627\u0646", "addr:state": "\u0627\u0644\u0645\u0645\u0644\u0643\u0629 \u0627\u0644\u0639\u0631\u0628\u064a\u0629 \u0627\u0644\u0633\u0639\u0648\u062f\u064a\u0629", "addr:country": "SA", "name": "\u0646\u0627\u0646\u062f\u0648\u0632 \u0645\u062c\u0645\u0639 \u0627\u0644\u0638\u0647\u0631\u0627\u0646", "phone": "+44559527082", "website": "https://nandos.sa/eat/restaurants/nandos-mall-dhahran", "brand": "Nando's", "brand:wikidata": "Q3472954"}, "geometry": {"type": "Point", "coordinates": [50.1680719, 26.3056314]}},
{"type": "Feature", "id": "SHzw99cnUVxBiRae88IxZRpN2wc=", "properties": {"ref": "nandos-ajdan-walk", "@spider": "nandos_sa", "addr:full": "\u0627\u0644\u0645\u0646\u0637\u0642\u0629 \u0627\u0644\u0634\u0631\u0642\u064a\u0629, \u0643\u0648\u0631\u0646\u064a\u0634 \u0627\u0644\u062e\u0628\u0631, \u0623\u062c\u062f\u0627\u0646 \u0648\u0627\u0643", "addr:city": "\u0645\u062f\u064a\u0646\u0629 \u0627\u0644\u0631\u064a\u0627\u0636", "addr:state": "\u0627\u0644\u0645\u0645\u0644\u0643\u0629 \u0627\u0644\u0639\u0631\u0628\u064a\u0629 \u0627\u0644\u0633\u0639\u0648\u062f\u064a\u0629", "addr:country": "SA", "name": "\u0646\u0627\u0646\u062f\u0648\u0632 \u0623\u062c\u062f\u0627\u0646 \u0648\u0627\u0643", "phone": "+44966505219476", "website": "https://nandos.sa/eat/restaurants/nandos-ajdan-walk", "brand": "Nando's", "brand:wikidata": "Q3472954"}, "geometry": {"type": "Point", "coordinates": [50.220254, 26.283666]}}]}