{"type":"FeatureCollection","features":[{"type": "Feature", "id": "_IQIq9buIckeWnMavzAxis0w6ko=", "properties": {"ref": "nandos-east-park", "@spider": "nandos_zm", "addr:full": "Great East Road, Shop 27, East park mall, Lusaka, Lusaka Province, 10101", "addr:city": "Lusaka", "addr:state": "Lusaka Province", "addr:country": "ZM", "name": "Nando's East Park Mall", "website": "https://www.nandos.co.zm/eat/restaurant/nandos-east-park", "brand": "Nando's", "brand:wikidata": "Q3472954"}, "geometry": {"type": "Point", "coordinates": [28.3040369, -15.4068728]}},
{"type": "Feature", "id": "3gSj5XTBRzxx_iJrYPy3-xA4GFU=", "properties": {"ref": "nandos-makeni", "@spider": "nandos_zm", "addr:full": "Shop No. G29, Makeni Mall, Kafue Road, Lusaka, Lusaka Province, 10101", "addr:city": "Lusaka", "addr:state": "Lusaka Province", "addr:country": "ZM", "name": "Nando's Makeni", "phone": "+27962566734", "website": "https://www.nandos.co.zm/eat/restaurant/nandos-makeni", "brand": "Nando's", "brand:wikidata": "Q3472954"}, "geometry": {"type": "Point", "coordinates": [28.266219, -15.454132]}},
{"type": "Feature", "id": "B1rTDWprgurEzD-G1Qu4hI80MjM=", "properties": {"ref": "nandos-manda-hill", "@spider": "nandos_zm", "addr:full": "Shop No. L07, Manda Hill Mall, Cnr. Great East Road & Manchinchi Road, Lusaka, Lusaka Province, 10101", "addr:city": "Lusaka", "addr:state": "Lusaka Province", "addr:country": "ZM", "name": "Nando's Manda Hill", "phone": "+27962566733", "website": "https://www.nandos.co.zm/eat/restaurant/nandos-manda-hill", "brand": "Nando's", "brand:wikidata": "Q3472954"}, "geometry": {"type": "Point", "coordinates": [28.306375, -15.398338]}},
{"type": "Feature", "id": "pRZuDzZRxeSwxpBfZVhTxkbS_m4=", "properties": {"ref": "nandos-kabulonga", "@spider": "nandos_zm", "addr:full": "Shop No. 7, Centro Mall, Cnr. Kabulonga & Bishops Road, Lusaka, Lusaka Province, 10101", "addr:city": "Lusaka", "addr:state": "Lusaka Province", "addr:country": "ZM", "name": "Nando's Kabulonga", "phone": "+27962566735", "website": "https://www.nandos.co.zm/eat/restaurant/nandos-kabulonga", "brand": "Nando's", "brand:wikidata": "Q3472954"}, "geometry": {"type": "Point", "coordinates": [28.342384, -15.420827]}},
{"type": "Feature", "id": "6-cPOpvlScnefGhzQ0Fv1tDq9FA=", "properties": {"ref": "nandos-mukuba-mall", "@spider": "nandos_zm", "addr:full": "Shop No. 3, Mukuba Mall, Chiwala Avenue, Kitwe, Copperbelt Province", "addr:city": "Kitwe", "addr:state": "Copperbelt Province", "addr:country": "ZM", "name": "Nando's Mukuba Mall", "phone": "+27962566769", "website": "https://www.nandos.co.zm/eat/restaurant/nandos-mukuba-mall", "brand": "Nando's", "brand:wikidata": "Q3472954"}, "geometry": {"type": "Point", "coordinates": [28.219517, -12.806758]}},
{"type": "Feature", "id": "kLQPnjyZRDfBBRId3VYMGb5qKSs=", "properties": {"ref": "nandos-jacaranda-mall", "@spider": "nandos_zm", "addr:full": "Shop No. 38, Jacaranda Mall, Cnr. Kabwe & Mushili Road, Ndola, Copperbelt Province", "addr:city": "Ndola", "addr:state": "Copperbelt Province", "addr:country": "ZM", "name": "Nando's Jacaranda Mall", "phone": "+27962566764", "website": "https://www.nandos.co.zm/eat/restaurant/nandos-jacaranda-mall", "brand": "Nando's", "brand:wikidata": "Q3472954"}, "geometry": {"type": "Point", "coordinates": [28.650233, -13.004921]}}]}