{"type":"FeatureCollection","features":[{"type": "Feature", "id": "ParhcvtUV6J6PfGc-Cr4cSJPRCk=", "properties": {"ref": "salwa-road", "@spider": "nandos_qa", "addr:full": "Midmac Flyeover , Salwa Road , Doha", "addr:state": "Doha", "addr:country": "QA", "name": "Salwa Road ", "website": "https://www.nandos.qa/eat/restaurant/salwa-road", "brand": "Nando's", "brand:wikidata": "Q3472954"}, "geometry": {"type": "Point", "coordinates": [51.4993018999999, 25.265871]}},
{"type": "Feature", "id": "EzKJP-EGxXj7ZWmFn9fzV7iebu4=", "properties": {"ref": "hyatt-plaza-mall", "@spider": "nandos_qa", "addr:full": "Al Waab Rd , Doha", "addr:state": "Doha", "addr:country": "QA", "name": "Hyatt Plaza Mall ", "website": "https://www.nandos.qa/eat/restaurant/hyatt-plaza-mall", "brand": "Nando's", "brand:wikidata": "Q3472954"}, "geometry": {"type": "Point", "coordinates": [51.4390035, 25.2559523]}},
{"type": "Feature", "id": "dUQVJut6w11UqLFFMI0ZzzzcNY0=", "properties": {"ref": "financial-square", "@spider": "nandos_qa", "addr:full": "Al Emadi Building, C-Ring Road, Doha", "addr:state": "Doha", "addr:country": "QA", "name": "Financial Square ", "website": "https://www.nandos.qa/eat/restaurant/financial-square", "brand": "Nando's", "brand:wikidata": "Q3472954"}, "geometry": {"type": "Point", "coordinates": [51.5257980809509, 25.2625336681826]}},
{"type": "Feature", "id": "0PUe9ALt_dBJ8bPKIf8DfOys7Tc=", "properties": {"ref": "the-pearl-qatar", "@spider": "nandos_qa", "addr:full": "Andalucia Way, Medina Centrale , Doha, Doha", "addr:city": "Doha", "addr:state": "Doha", "addr:country": "QA", "name": "The Pearl Qatar ", "website": "https://www.nandos.qa/eat/restaurant/the-pearl-qatar", "brand": "Nando's", "brand:wikidata": "Q3472954"}, "geometry": {"type": "Point", "coordinates": [51.4413171999999, 25.3853906]}},
{"type": "Feature", "id": "YT-duPdJCjbij0uRs2FXRXDD8bs=", "properties": {"ref": "doha-festival-city", "@spider": "nandos_qa", "addr:full": "South Casual Dining Area, North Road , Um Slal Mohammad, Doha", "addr:city": "Um Slal Mohammad", "addr:state": "Doha", "addr:country": "QA", "name": "Doha Festival City ", "website": "https://www.nandos.qa/eat/restaurant/doha-festival-city", "brand": "Nando's", "brand:wikidata": "Q3472954"}, "geometry": {"type": "Point", "coordinates": [51.4413171999999, 25.3853906]}},
{"type": "Feature", "id": "51Um6xrhjoEXbCQIN-PVPIQvPVA=", "properties": {"ref": "bin-omran", "@spider": "nandos_qa", "addr:full": "Ahmad Bin Ali St, Doha", "addr:state": "Doha", "addr:country": "QA", "name": "Bin Omran ", "website": "https://www.nandos.qa/eat/restaurant/bin-omran", "brand": "Nando's", "brand:wikidata": "Q3472954"}, "geometry": {"type": "Point", "coordinates": [51.4962207606048, 25.3103442655953]}},
{"type": "Feature", "id": "aPAMiC3gfK49P7vdjimHVRj0ubM=", "properties": {"ref": "city-centre-doha-mall", "@spider": "nandos_qa", "addr:full": "3rd Floor, West Bay, Doha", "addr:state": "Doha", "addr:country": "QA", "name": "City Center Doha Mall", "website": "https://www.nandos.qa/eat/restaurant/city-centre-doha-mall", "brand": "Nando's", "brand:wikidata": "Q3472954"}, "geometry": {"type": "Point", "coordinates": [51.5298087777709, 25.3251978115674]}}]}