{"type":"FeatureCollection","features":[{"type": "Feature", "id": "2KmeLzRPXwheSl7DwCdiwZHEgYQ=", "properties": {"ref": "2", "@spider": "nandos_au", "addr:full": "207 Wanneroo Rd", "addr:city": "Tuart Hill", "addr:state": "WA", "addr:postcode": "6060", "addr:country": "AU", "name": "TUART HILL", "phone": "1300 626 367", "website": "https://www.nandos.com.au/restaurants/wa/tuart-hill", "brand": "Nando's", "brand:wikidata": "Q3472954"}, "geometry": {"type": "Point", "coordinates": [115.837251, -31.889453]}},
{"type": "Feature", "id": "k9RIG077-aLXRnhg9oGTbSBqlcs=", "properties": {"ref": "34", "@spider": "nandos_au", "addr:full": "1/395 Warton Road", "addr:city": "Canning Vale", "addr:state": "WA", "addr:postcode": "6155", "addr:country": "AU", "name": "CANNINGVALE", "phone": "1300 626 367", "website": "https://www.nandos.com.au/restaurants/wa/canningvale", "brand": "Nando's", "brand:wikidata": "Q3472954"}, "geometry": {"type": "Point", "coordinates": [115.941311, -32.0905]}},
{"type": "Feature", "id": "S3xlVi-22uetWq9A7515tjAgyBk=", "properties": {"ref": "32", "@spider": "nandos_au", "addr:full": "KIOSK 535b, Chatswood Westfield", "addr:city": "Chatswood", "addr:state": "NSW", "addr:postcode": "2067", "addr:country": "AU", "name": "CHATSWOOD WESTFIELD", "phone": "1300 626 367", "website": "https://www.nandos.com.au/restaurants/nsw/chatswood-westfield", "brand": "Nando's", "brand:wikidata": "Q3472954"}, "geometry": {"type": "Point", "coordinates": [151.1837436, -33.7969126]}},
{"type": "Feature", "id": "4Kqb0nq4NJEPSzj_XR6ACTALttM=", "properties": {"ref": "31", "@spider": "nandos_au", "addr:full": "25-31 Plenty Rd Shop T06", "addr:city": "Bundoora", "addr:state": "VIC", "addr:postcode": "3083", "addr:country": "AU", "name": "BUNDOORA", "phone": "1300 626 367", "website": "https://www.nandos.com.au/restaurants/vic/bundoora", "brand": "Nando's", "brand:wikidata": "Q3472954"}, "geometry": {"type": "Point", "coordinates": [145.057943, -37.697366]}},
{"type": "Feature", "id": "nYaa9Rq1ZPu4E9b-FUUyjhdky_4=", "properties": {"ref": "30", "@spider": "nandos_au", "addr:full": "3 Coventry Street", "addr:city": "Mawson Lakes", "addr:state": "SA", "addr:postcode": "5095", "addr:country": "AU", "name": "MAWSON LAKES", "phone": "1300 626 367", "website": "https://www.nandos.com.au/restaurants/sa/mawson-lakes", "brand": "Nando's", "brand:wikidata": "Q3472954"}, "geometry": {"type": "Point", "coordinates": [138.607794, -34.802303]}},
{"type": "Feature", "id": "ZNTvFE2wKRa_fX-gAR4FwRABVfc=", "properties": {"ref": "33", "@spider": "nandos_au", "addr:full": "T219 Syren St,", "addr:city": "Rockingham", "addr:state": "WA", "addr:postcode": "6168", "addr:country": "AU", "name": "ROCKINGHAM SHOPPING CENTRE", "phone": "1300 626 367", "website": "https://www.nandos.com.au/restaurants/wa/rockingham-shopping-centre", "brand": "Nando's", "brand:wikidata": "Q3472954"}, "geometry": {"type": "Point", "coordinates": [115.748309, -32.288672]}},
{"type": "Feature", "id": "JC0gaUUDSS6rVa1r7z0YuQ_-xDU=", "properties": {"ref": "24", "@spider": "nandos_au", "addr:full": "Shop 3004", "addr:city": "Marion", "addr:state": "SA", "addr:postcode": "5043", "addr:country": "AU", "name": "MARION WESTFIELD", "phone": "1300 626 367", "website": "https://www.nandos.com.au/restaurants/sa/marion-westfield", "brand": "Nando's", "brand:wikidata": "Q3472954"}, "geometry": {"type": "Point", "coordinates": [138.5448074, -35.0164307]}},
{"type": "Feature", "id": "rk3Pq32TSC6ywHRsTFoGZMvFCDo=", "properties": {"ref": "20", "@spider": "nandos_au", "addr:full": "Shop 4003A", "addr:city": "Blacktown", "addr:state": "NSW", "addr:postcode": "2148", "addr:country": "AU", "name": "BLACKTOWN WESTPOINT", "phone": "1300 626 367", "website": "https://www.nandos.com.au/restaurants/nsw/blacktown-westpoint", "brand": "Nando's", "brand:wikidata": "Q3472954"}, "geometry": {"type": "Point", "coordinates": [150.904443, -33.770474]}},
{"type": "Feature", "id": "MmJRUZyC2s_Eb-OxYiXdhlSHgrk=", "properties": {"ref": "15", "@spider": "nandos_au", "addr:full": "1, O'shea Road, Shop 27", "addr:city": "Berwick", "addr:state": "VIC", "addr:postcode": "3806", "addr:country": "AU", "name": "EDEN RISE SC BERWICK", "phone": "1300 626 367", "website": "https://www.nandos.com.au/restaurants/vic/eden-rise-sc-berwick", "brand": "Nando's", "brand:wikidata": "Q3472954"}, "geometry": {"type": "Point", "coordinates": [145.339125, -38.062402]}},
{"type": "Feature", "id": "UhSZMHX67L2-8J3brZtobjSLv_g=", "properties": {"ref": "27", "@spider": "nandos_au", "addr:full": "16/2359 Marimon Ave,", "addr:city": "Jindalee", "addr:state": "WA", "addr:postcode": "6036", "addr:country": "AU", "name": "JINDALEE", "phone": "1300 626 367", "website": "https://www.nandos.com.au/restaurants/wa/jindalee", "brand": "Nando's", "brand:wikidata": "Q3472954"}, "geometry": {"type": "Point", "coordinates": [115.693828, -31.6443202]}},
{"type": "Feature", "id": "STuq0EsW4_ksoBtHWk7AW7Qyv1Y=", "properties": {"ref": "9", "@spider": "nandos_au", "addr:full": "140 William St", "addr:city": "Perth", "addr:state": "WA", "addr:postcode": "6000", "addr:country": "AU", "name": "WILLIAM ST PERTH", "phone": "1300 626 367", "website": "https://www.nandos.com.au/restaurants/wa/william-st-perth", "brand": "Nando's", "brand:wikidata": "Q3472954"}, "geometry": {"type": "Point", "coordinates": [115.8577873, -31.9519135]}},
{"type": "Feature", "id": "ua-oQt6exQ12yeDyroZC0DpRtjE=", "properties": {"ref": "11", "@spider": "nandos_au", "addr:full": "1549 Gnagara Rd", "addr:city": "Ellenbrook", "addr:state": "WA", "addr:postcode": "6069", "addr:country": "AU", "name": "AVELEY CENTRAL", "phone": "1300 626 367", "website": "https://www.nandos.com.au/restaurants/wa/aveley-central", "brand": "Nando's", "brand:wikidata": "Q3472954"}, "geometry": {"type": "Point", "coordinates": [115.9800346, -31.79562]}},
{"type": "Feature", "id": "zYCbkc7hm8pdcxYZ1B-W-XJuCOU=", "properties": {"ref": "52", "@spider": "nandos_au", "addr:full": "3/41 Burrendah Blvd", "addr:city": "Willetton", "addr:state": "WA", "addr:postcode": "6155", "addr:country": "AU", "name": "WILLETTON", "phone": "1300 626 367", "website": "https://www.nandos.com.au/restaurants/wa/willetton", "brand": "Nando's", "brand:wikidata": "Q3472954"}, "geometry": {"type": "Point", "coordinates": [115.881076, -32.057024]}},
{"type": "Feature", "id": "4MW0CyTtHp--NFeIlhyz4P-1WXE=", "properties": {"ref": "5", "@spider": "nandos_au", "addr:full": "23-55 McCrae Street", "addr:city": "Dandenong", "addr:state": "VIC", "addr:postcode": "3175", "addr:country": "AU", "name": "DANDENONG PLAZA SHOPPING CENTRE", "phone": "1300 626 367", "website": "https://www.nandos.com.au/restaurants/vic/dandenong-plaza-shopping-centre", "brand": "Nando's", "brand:wikidata": "Q3472954"}, "geometry": {"type": "Point", "coordinates": [145.218518, -37.9869825]}},
{"type": "Feature", "id": "3M722eF60gEo0D8ogfbiC-AKOuQ=", "properties": {"ref": "53", "@spider": "nandos_au", "addr:full": "Shop 24/230 Manning Rd", "addr:city": "Karawara", "addr:state": "WA", "addr:postcode": "6152", "addr:country": "AU", "name": "KARAWARA", "phone": "1300 626 367", "website": "https://www.nandos.com.au/restaurants/wa/karawara", "brand": "Nando's", "brand:wikidata": "Q3472954"}, "geometry": {"type": "Point", "coordinates": [115.886648, -32.011166]}},
{"type": "Feature", "id": "OFa52aS3WZ8g9ffwusLWBOHZTKw=", "properties": {"ref": "8", "@spider": "nandos_au", "addr:full": "958 Doncaster Rd", "addr:city": "Doncaster", "addr:state": "VIC", "addr:postcode": "3108", "addr:country": "AU", "name": "DONCASTER ROAD DEVON PLAZA", "phone": "1300 626 367", "website": "https://www.nandos.com.au/restaurants/vic/doncaster-road-devon-plaza", "brand": "Nando's", "brand:wikidata": "Q3472954"}, "geometry": {"type": "Point", "coordinates": [145.157904, -37.789254]}},
{"type": "Feature", "id": "xTNZNY0CkvDB5v4ATjPYQtv-k2Q=", "properties": {"ref": "307", "@spider": "nandos_au", "addr:full": "Shop B033, 147-189 Brisbane Rd", "addr:city": "Biggera Waters", "addr:state": "QLD", "addr:postcode": "4216", "addr:country": "AU", "name": "HARBOURTOWN", "website": "https://www.nandos.com.au/restaurants/qld/harbourtown", "brand": "Nando's", "brand:wikidata": "Q3472954"}, "geometry": {"type": "Point", "coordinates": [153.387809, -27.931209]}},
{"type": "Feature", "id": "-w0P4kyVP93_RuR7t0Pjka5L7y8=", "properties": {"ref": "304", "@spider": "nandos_au", "addr:full": "1  Roystonea Avenue", "addr:city": "Palmerston", "addr:state": "NT", "addr:postcode": "830", "addr:country": "AU", "name": "PALMERSTON", "phone": "1300 626 367", "website": "https://www.nandos.com.au/restaurants/nt/palmerston", "brand": "Nando's", "brand:wikidata": "Q3472954"}, "geometry": {"type": "Point", "coordinates": [130.9831251, -12.4711366]}},
{"type": "Feature", "id": "pPMUVf59DL_EJxFd5KEGyzUeWIM=", "properties": {"ref": "305", "@spider": "nandos_au", "addr:full": "Shop 28, Sorrento Quay Boardwalk,", "addr:city": "Hillarys", "addr:state": "WA", "addr:postcode": "6025", "addr:country": "AU", "name": "HILLARYS", "phone": "1300 626 367", "website": "https://www.nandos.com.au/restaurants/wa/hillarys", "brand": "Nando's", "brand:wikidata": "Q3472954"}, "geometry": {"type": "Point", "coordinates": [115.739784, -31.824668]}},
{"type": "Feature", "id": "DVOUxoCm5_b8Brz3YJmsrNu_8wQ=", "properties": {"ref": "302", "@spider": "nandos_au", "addr:full": "Tenancy 21", "addr:city": "Redbank Plains", "addr:state": "QLD", "addr:postcode": "4301", "addr:country": "AU", "name": "REDBANK PLAINS", "phone": "1300 626 367", "website": "https://www.nandos.com.au/restaurants/qld/redbank-plains", "brand": "Nando's", "brand:wikidata": "Q3472954"}, "geometry": {"type": "Point", "coordinates": [152.870664, -27.64505]}},
{"type": "Feature", "id": "4mB5cUc23sKaiZvZxB91ih1E6pc=", "properties": {"ref": "301", "@spider": "nandos_au", "addr:full": "T303, Narellan Town,", "addr:city": "Narellan", "addr:state": "NSW", "addr:postcode": "2567", "addr:country": "AU", "name": "NARELLAN", "phone": "1300 626 367", "website": "https://www.nandos.com.au/restaurants/nsw/narellan", "brand": "Nando's", "brand:wikidata": "Q3472954"}, "geometry": {"type": "Point", "coordinates": [150.736408, -34.03992]}},
{"type": "Feature", "id": "QupSyWhgwcB40iKwG0lG0xc4-84=", "properties": {"ref": "303", "@spider": "nandos_au", "addr:full": "Eastland Shopping Centre", "addr:city": "Ringwood", "addr:state": "VIC", "addr:postcode": "3134", "addr:country": "AU", "name": "EASTLAND SHOPPING CENTRE", "phone": "1300 626 367", "website": "https://www.nandos.com.au/restaurants/vic/eastland-shopping-centre", "brand": "Nando's", "brand:wikidata": "Q3472954"}, "geometry": {"type": "Point", "coordinates": [145.2289, -37.8125]}},
{"type": "Feature", "id": "p_64eWgEDycXDLS9fOllJQAaMF8=", "properties": {"ref": "297", "@spider": "nandos_au", "addr:full": "Shop 365, Casuarina Square, 247 Trower Road", "addr:city": "Casuarina", "addr:state": "NT", "addr:postcode": "810", "addr:country": "AU", "name": "CASUARINA NT", "phone": "1300 626 367", "website": "https://www.nandos.com.au/restaurants/nt/casuarina-nt", "brand": "Nando's", "brand:wikidata": "Q3472954"}, "geometry": {"type": "Point", "coordinates": [130.882003, -12.37574]}},
{"type": "Feature", "id": "R-aOr6Fg9AWwr0f26WIVBROehFM=", "properties": {"ref": "296", "@spider": "nandos_au", "addr:full": "G49, 9 SHERWOOD RD,", "addr:city": "Toowong", "addr:state": "QLD", "addr:postcode": "4066", "addr:country": "AU", "name": "TOOWONG", "phone": "1300 626 367", "website": "https://www.nandos.com.au/restaurants/qld/toowong", "brand": "Nando's", "brand:wikidata": "Q3472954"}, "geometry": {"type": "Point", "coordinates": [152.992494, -27.4849776]}},
{"type": "Feature", "id": "Ww7EgCwL6mzcTOjRMrVGZ5ZsSrs=", "properties": {"ref": "300", "@spider": "nandos_au", "addr:full": "Shop 216, Broadway Shopping Centre,", "addr:city": "Broadway", "addr:state": "NSW", "addr:postcode": "2007", "addr:country": "AU", "name": "BROADWAY NSW", "phone": "1300 626 367", "website": "https://www.nandos.com.au/restaurants/nsw/broadway-nsw", "brand": "Nando's", "brand:wikidata": "Q3472954"}, "geometry": {"type": "Point", "coordinates": [151.194395, -33.883699]}},
{"type": "Feature", "id": "ePCMENjWhZ9OsnOjRlCLsL83IFI=", "properties": {"ref": "299", "@spider": "nandos_au", "addr:full": "Shop 54/55 Westfield Penrith", "addr:city": "Penrith", "addr:state": "NSW", "addr:postcode": "2750", "addr:country": "AU", "name": "PENRITH WESTFIELD", "phone": "1300 626 367", "website": "https://www.nandos.com.au/restaurants/nsw/penrith-westfield", "brand": "Nando's", "brand:wikidata": "Q3472954"}, "geometry": {"type": "Point", "coordinates": [150.692207, -33.751154]}},
{"type": "Feature", "id": "fc-pFQUSGjLOsGjricbL6JAiZ-I=", "properties": {"ref": "295", "@spider": "nandos_au", "addr:full": "Shop M021, Australia Fair Metro West,", "addr:city": "Southport", "addr:state": "QLD", "addr:postcode": "4215", "addr:country": "AU", "name": "AUSTRALIA FAIR SC", "phone": "1300 626 367", "website": "https://www.nandos.com.au/restaurants/qld/australia-fair-sc", "brand": "Nando's", "brand:wikidata": "Q3472954"}, "geometry": {"type": "Point", "coordinates": [153.4119514, -27.9692444]}},
{"type": "Feature", "id": "CHV1IFL38lrFKJ_FIR56CZZA7-c=", "properties": {"ref": "298", "@spider": "nandos_au", "addr:full": "Shop 107, Capalaba Central Shopping Centre", "addr:city": "Capalaba", "addr:state": "QLD", "addr:postcode": "4157", "addr:country": "AU", "name": "CAPALABA CENTRAL", "phone": "1300 626 367", "website": "https://www.nandos.com.au/restaurants/qld/capalaba-central", "brand": "Nando's", "brand:wikidata": "Q3472954"}, "geometry": {"type": "Point", "coordinates": [153.194651, -27.523019]}},
{"type": "Feature", "id": "tUuh5T5TFkwiS9TjrScP9-Va_JI=", "properties": {"ref": "294", "@spider": "nandos_au", "addr:full": "Shop GF080, Grand Plaza Shopping Centre", "addr:city": "Browns Plains", "addr:state": "QLD", "addr:postcode": "4118", "addr:country": "AU", "name": "BROWNS PLAINS GRAND PLAZA", "phone": "1300 626 367", "website": "https://www.nandos.com.au/restaurants/qld/browns-plains-grand-plaza", "brand": "Nando's", "brand:wikidata": "Q3472954"}, "geometry": {"type": "Point", "coordinates": [153.0387783, -27.6626388]}},
{"type": "Feature", "id": "JoY0uDdAJjYB_i80ILVBcMllHN4=", "properties": {"ref": "292", "@spider": "nandos_au", "addr:full": "Shop 3003", "addr:city": "Kotara", "addr:state": "NSW", "addr:postcode": "2289", "addr:country": "AU", "name": "KOTARA", "phone": "1300 626 367", "website": "https://www.nandos.com.au/restaurants/nsw/kotara", "brand": "Nando's", "brand:wikidata": "Q3472954"}, "geometry": {"type": "Point", "coordinates": [151.7102622, -32.9406876]}},
{"type": "Feature", "id": "V_yY74BRI6nn6Ww74RTmRB_EldM=", "properties": {"ref": "291", "@spider": "nandos_au", "addr:full": "L 0018, 155 Clarence St", "addr:city": "Sydney", "addr:state": "NSW", "addr:postcode": "2000", "addr:country": "AU", "name": "CLARENCE ST 155", "phone": "1300 626 367", "website": "https://www.nandos.com.au/restaurants/nsw/clarence-st-155", "brand": "Nando's", "brand:wikidata": "Q3472954"}, "geometry": {"type": "Point", "coordinates": [151.205024, -33.867908]}},
{"type": "Feature", "id": "Ump1OUEXsBdfcZD0iF4ZXKqgB5I=", "properties": {"ref": "288", "@spider": "nandos_au", "addr:full": "561-583 Polding Street", "addr:city": "Wetherill Park", "addr:state": "NSW", "addr:postcode": "2164", "addr:country": "AU", "name": "WETHERILL PARK", "phone": "1300 626 367", "website": "https://www.nandos.com.au/restaurants/nsw/wetherill-park", "brand": "Nando's", "brand:wikidata": "Q3472954"}, "geometry": {"type": "Point", "coordinates": [150.8980751, -33.8590703]}},
{"type": "Feature", "id": "nI1u3VLTBLo2N1Us3SZ03o-XbOU=", "properties": {"ref": "290", "@spider": "nandos_au", "addr:full": "250 Heaths Road", "addr:city": "Hoppers Crossing", "addr:state": "VIC", "addr:postcode": "3029", "addr:country": "AU", "name": "WERRIBEE PACIFIC", "phone": "1300 626 367", "website": "https://www.nandos.com.au/restaurants/vic/werribee-pacific", "brand": "Nando's", "brand:wikidata": "Q3472954"}, "geometry": {"type": "Point", "coordinates": [144.68003, -37.87698]}},
{"type": "Feature", "id": "bkWilt-ffkcO_axZHJsTKxcCdJ0=", "properties": {"ref": "289", "@spider": "nandos_au", "addr:full": "Shop 20, 12-22 Village Drive", "addr:city": "Idalia", "addr:state": "QLD", "addr:postcode": "4811", "addr:country": "AU", "name": "TOWNSVILLE FAIRFIELD WATERS", "phone": "1300 626 367", "website": "https://www.nandos.com.au/restaurants/qld/townsville-fairfield-waters", "brand": "Nando's", "brand:wikidata": "Q3472954"}, "geometry": {"type": "Point", "coordinates": [146.8058553, -19.306795]}},
{"type": "Feature", "id": "TupBxP7TgXOCkPDxBTqkG7C68hs=", "properties": {"ref": "286", "@spider": "nandos_au", "addr:full": "Lot 26, Safety Bay Road,", "addr:city": "Baldivis", "addr:state": "WA", "addr:postcode": "6171", "addr:country": "AU", "name": "BALDIVIS", "phone": "1300 626 367", "website": "https://www.nandos.com.au/restaurants/wa/baldivis", "brand": "Nando's", "brand:wikidata": "Q3472954"}, "geometry": {"type": "Point", "coordinates": [115.814072, -32.332941]}},
{"type": "Feature", "id": "yHE3T14WU5bycc3hKe_oitwpNA0=", "properties": {"ref": "280", "@spider": "nandos_au", "addr:full": "L07 6306/09 High Point West S/C", "addr:city": "Maribyrnong", "addr:state": "VIC", "addr:postcode": "3032", "addr:country": "AU", "name": "HIGHPOINT LEVEL 3", "phone": "1300 626 367", "website": "https://www.nandos.com.au/restaurants/vic/highpoint-level-3", "brand": "Nando's", "brand:wikidata": "Q3472954"}, "geometry": {"type": "Point", "coordinates": [144.8851899, -37.7691925]}},
{"type": "Feature", "id": "IRP0eTKKVwquMGYM8bxqH_a7q4U=", "properties": {"ref": "279", "@spider": "nandos_au", "addr:full": "888 Canning Hwy", "addr:city": "Applecross", "addr:state": "WA", "addr:postcode": "6153", "addr:country": "AU", "name": "APPLECROSS", "phone": "1300 626 367", "website": "https://www.nandos.com.au/restaurants/wa/applecross", "brand": "Nando's", "brand:wikidata": "Q3472954"}, "geometry": {"type": "Point", "coordinates": [115.84753, -32.014315]}},
{"type": "Feature", "id": "HxOJ4pCLj1ecLjMLBZKVrQz6opk=", "properties": {"ref": "285", "@spider": "nandos_au", "addr:full": "816 Beeliar Drive", "addr:city": "Success", "addr:state": "WA", "addr:postcode": "6164", "addr:country": "AU", "name": "COCKBURN", "phone": "1300 626 367", "website": "https://www.nandos.com.au/restaurants/wa/cockburn", "brand": "Nando's", "brand:wikidata": "Q3472954"}, "geometry": {"type": "Point", "coordinates": [115.854025, -32.130401]}},
{"type": "Feature", "id": "agoczsfzdiYSqLgSew1DZFbHGb4=", "properties": {"ref": "284", "@spider": "nandos_au", "addr:full": "206 Warnbro Sound Ave", "addr:city": "Warnbro", "addr:state": "WA", "addr:postcode": "6169", "addr:country": "AU", "name": "WARNBRO WA", "phone": "1300 626 367", "website": "https://www.nandos.com.au/restaurants/wa/warnbro-wa", "brand": "Nando's", "brand:wikidata": "Q3472954"}, "geometry": {"type": "Point", "coordinates": [115.762683, -32.346567]}},
{"type": "Feature", "id": "fQg5F_sQBhU76sXPBY3tdvZ_Tkw=", "properties": {"ref": "273", "@spider": "nandos_au", "addr:full": "Shop C2, 1 Marriot Boulevard", "addr:city": "Lyndhurst", "addr:state": "VIC", "addr:postcode": "3975", "addr:country": "AU", "name": "MARRIOT WATERS", "phone": "1300 626 367", "website": "https://www.nandos.com.au/restaurants/vic/marriot-waters", "brand": "Nando's", "brand:wikidata": "Q3472954"}, "geometry": {"type": "Point", "coordinates": [145.250928, -38.077863]}},
{"type": "Feature", "id": "zkxP7eTLap1yHWpGPe3xU3JVTNQ=", "properties": {"ref": "271", "@spider": "nandos_au", "addr:full": "221 Nelson Place", "addr:city": "Williamstown", "addr:state": "VIC", "addr:postcode": "3016", "addr:country": "AU", "name": "WILLIAMSTOWN", "phone": "1300 626 367", "website": "https://www.nandos.com.au/restaurants/vic/williamstown", "brand": "Nando's", "brand:wikidata": "Q3472954"}, "geometry": {"type": "Point", "coordinates": [144.902217, -37.861898]}},
{"type": "Feature", "id": "ynbUj28XCGBG4im8HTXtF2kV5gU=", "properties": {"ref": "278", "@spider": "nandos_au", "addr:full": "Shop 408, Macquarie Centre", "addr:city": "North Ryde", "addr:state": "NSW", "addr:postcode": "2113", "addr:country": "AU", "name": "MACQUARIE CENTRE", "phone": "1300 626 367", "website": "https://www.nandos.com.au/restaurants/nsw/macquarie-centre", "brand": "Nando's", "brand:wikidata": "Q3472954"}, "geometry": {"type": "Point", "coordinates": [151.1204415, -33.7771055]}},
{"type": "Feature", "id": "JB97jxIP0A3eqYpwbIor5ZeJ04s=", "properties": {"ref": "275", "@spider": "nandos_au", "addr:full": "Epping Plaza,", "addr:city": "Epping", "addr:state": "VIC", "addr:postcode": "3076", "addr:country": "AU", "name": "EPPING PLAZA", "phone": "1300 626 367", "website": "https://www.nandos.com.au/restaurants/vic/epping-plaza", "brand": "Nando's", "brand:wikidata": "Q3472954"}, "geometry": {"type": "Point", "coordinates": [145.0185896, -37.6555599]}},
{"type": "Feature", "id": "2pBrBAdmLM_ByY5i1uDWefw48fc=", "properties": {"ref": "267", "@spider": "nandos_au", "addr:full": "BP Service Station,", "addr:city": "Upper Coomera", "addr:state": "QLD", "addr:postcode": "4209", "addr:country": "AU", "name": "COOMERA", "phone": "1300 626 367", "website": "https://www.nandos.com.au/restaurants/qld/coomera", "brand": "Nando's", "brand:wikidata": "Q3472954"}, "geometry": {"type": "Point", "coordinates": [153.3070083, -27.8642619]}},
{"type": "Feature", "id": "ixs-qPQ92c55iwI1NCiOPSaB_x8=", "properties": {"ref": "266", "@spider": "nandos_au", "addr:full": "Shop T02 Unihill Factory Outlet,", "addr:city": "Bundoora", "addr:state": "VIC", "addr:postcode": "3083", "addr:country": "AU", "name": "UNIVERSITY HILL", "phone": "(03) 94671688", "website": "https://www.nandos.com.au/restaurants/vic/university-hill", "brand": "Nando's", "brand:wikidata": "Q3472954"}, "geometry": {"type": "Point", "coordinates": [145.070705, -37.682409]}},
{"type": "Feature", "id": "mocEMW973ibfGxH5jeDMsNOaXt8=", "properties": {"ref": "283", "@spider": "nandos_au", "addr:full": "Garden City SC", "addr:city": "Upper Mount Gravatt", "addr:state": "QLD", "addr:postcode": "4122", "addr:country": "AU", "name": "GARDEN CITY WESTFIELD MT GRAVATT", "phone": "1300 626 367", "website": "https://www.nandos.com.au/restaurants/qld/garden-city-westfield-mt-gravatt", "brand": "Nando's", "brand:wikidata": "Q3472954"}, "geometry": {"type": "Point", "coordinates": [153.082323, -27.562626]}},
{"type": "Feature", "id": "xKLK7SUKoc9GTouky15eD1NYcZg=", "properties": {"ref": "257", "@spider": "nandos_au", "addr:full": "23-25 Springvale Rd.", "addr:city": "Springvale", "addr:state": "VIC", "addr:postcode": "3171", "addr:country": "AU", "name": "SPRINGVALE", "phone": "1300 626 367", "website": "https://www.nandos.com.au/restaurants/vic/springvale", "brand": "Nando's", "brand:wikidata": "Q3472954"}, "geometry": {"type": "Point", "coordinates": [145.156001, -37.935179]}},
{"type": "Feature", "id": "vRF-ZIIcJVknSbDYP0LvG12xJd0=", "properties": {"ref": "252", "@spider": "nandos_au", "addr:full": "Shop 1,", "addr:city": "Berserker", "addr:state": "QLD", "addr:postcode": "4701", "addr:country": "AU", "name": "ROCKHAMPTON", "phone": "1300 626 367", "website": "https://www.nandos.com.au/restaurants/qld/rockhampton", "brand": "Nando's", "brand:wikidata": "Q3472954"}, "geometry": {"type": "Point", "coordinates": [150.522761, -23.358477]}},
{"type": "Feature", "id": "M1tVpSDFqcENc1nnKBqKi60f300=", "properties": {"ref": "256", "@spider": "nandos_au", "addr:full": "1 Main Street", "addr:city": "Springfield", "addr:state": "QLD", "addr:postcode": "4300", "addr:country": "AU", "name": "SPRINGFIELD LAKES", "phone": "1300 626 367", "website": "https://www.nandos.com.au/restaurants/qld/springfield-lakes", "brand": "Nando's", "brand:wikidata": "Q3472954"}, "geometry": {"type": "Point", "coordinates": [152.903224, -27.676553]}},
{"type": "Feature", "id": "RuTz9X9mwSMPxPW3qJ6hL-c9GAM=", "properties": {"ref": "268", "@spider": "nandos_au", "addr:full": "Shop 8", "addr:city": "Clayton", "addr:state": "VIC", "addr:postcode": "3168", "addr:country": "AU", "name": "WARECA (PRINCES HWY)", "phone": "1300 626 367", "website": "https://www.nandos.com.au/restaurants/vic/wareca-princes-hwy", "brand": "Nando's", "brand:wikidata": "Q3472954"}, "geometry": {"type": "Point", "coordinates": [145.1373302, -37.9210477]}},
{"type": "Feature", "id": "xNWkwMcih7JPSE3-1yAnxhdc61w=", "properties": {"ref": "249", "@spider": "nandos_au", "addr:full": "Shop 403, Point Cook Town Centre", "addr:city": "Point Cook", "addr:state": "VIC", "addr:postcode": "3030", "addr:country": "AU", "name": "POINT COOK TOWN CENTRE", "phone": "1300 626 367", "website": "https://www.nandos.com.au/restaurants/vic/point-cook-town-centre", "brand": "Nando's", "brand:wikidata": "Q3472954"}, "geometry": {"type": "Point", "coordinates": [144.735005, -37.883233]}},
{"type": "Feature", "id": "6CwJXMPqNiWjf_AvqJwWTvRd2IU=", "properties": {"ref": "250", "@spider": "nandos_au", "addr:full": "Shop 2,", "addr:city": "Robina", "addr:state": "QLD", "addr:postcode": "4226", "addr:country": "AU", "name": "ROBINA", "phone": "1300 626 367", "website": "https://www.nandos.com.au/restaurants/qld/robina", "brand": "Nando's", "brand:wikidata": "Q3472954"}, "geometry": {"type": "Point", "coordinates": [153.3848781, -28.0804847]}},
{"type": "Feature", "id": "GWMGznb3WT-6Dkp9w3Bmy61cUBw=", "properties": {"ref": "243", "@spider": "nandos_au", "addr:full": "Northland Shopping Centre K41", "addr:city": "Preston", "addr:state": "VIC", "addr:postcode": "3072", "addr:country": "AU", "name": "NORTHLAND SHOPPING CENTRE", "phone": "1300 626 367", "website": "https://www.nandos.com.au/restaurants/vic/northland-shopping-centre", "brand": "Nando's", "brand:wikidata": "Q3472954"}, "geometry": {"type": "Point", "coordinates": [145.0308101, -37.7385431]}},
{"type": "Feature", "id": "0btYR4E5vZRcSVUzB2Pn7Iifv5g=", "properties": {"ref": "246", "@spider": "nandos_au", "addr:full": "Shop L01 Z10, Parkmore S/C", "addr:city": "Keysborough", "addr:state": "VIC", "addr:postcode": "3173", "addr:country": "AU", "name": "PARKMORE SHOPPING CENTRE", "phone": "1300 626 367", "website": "https://www.nandos.com.au/restaurants/vic/parkmore-shopping-centre", "brand": "Nando's", "brand:wikidata": "Q3472954"}, "geometry": {"type": "Point", "coordinates": [145.1729376, -37.9925198]}},
{"type": "Feature", "id": "EXSKZ5D7PxKJAf8-OnOcJD44Urg=", "properties": {"ref": "245", "@spider": "nandos_au", "addr:full": "Shop 9, Heritage Springs Shopping Centre", "addr:city": "Pakenham", "addr:state": "VIC", "addr:postcode": "3810", "addr:country": "AU", "name": "PAKENHAM", "phone": "1300 626 367", "website": "https://www.nandos.com.au/restaurants/vic/pakenham", "brand": "Nando's", "brand:wikidata": "Q3472954"}, "geometry": {"type": "Point", "coordinates": [145.471446, -38.085191]}},
{"type": "Feature", "id": "vZby4bSddkmBM2nCuWP4QHYEvPU=", "properties": {"ref": "241", "@spider": "nandos_au", "addr:full": "551 Flinders Street", "addr:city": "Melbourne", "addr:state": "VIC", "addr:postcode": "3000", "addr:country": "AU", "name": "FLINDERS ST -551", "phone": "1300 626 367", "website": "https://www.nandos.com.au/restaurants/vic/flinders-st-551", "brand": "Nando's", "brand:wikidata": "Q3472954"}, "geometry": {"type": "Point", "coordinates": [144.9565823, -37.8208192]}},
{"type": "Feature", "id": "vG0Qta_HQzEipFLf3VdcCypDobQ=", "properties": {"ref": "231", "@spider": "nandos_au", "addr:full": "Tenancy 6 & 7", "addr:city": "Morningside", "addr:state": "QLD", "addr:postcode": "4170", "addr:country": "AU", "name": "MORNINGSIDE", "phone": "1300 626 367", "website": "https://www.nandos.com.au/restaurants/qld/morningside", "brand": "Nando's", "brand:wikidata": "Q3472954"}, "geometry": {"type": "Point", "coordinates": [153.071328, -27.468894]}},
{"type": "Feature", "id": "jr2GId_J5o6Z89tnCcw7M2iP8Us=", "properties": {"ref": "239", "@spider": "nandos_au", "addr:full": "Unit 8,1646  Anzac Avenue", "addr:city": "Mango Hill", "addr:state": "QLD", "addr:postcode": "4509", "addr:country": "AU", "name": "NORTH LAKES", "phone": "1300 626 367", "website": "https://www.nandos.com.au/restaurants/qld/north-lakes", "brand": "Nando's", "brand:wikidata": "Q3472954"}, "geometry": {"type": "Point", "coordinates": [153.022688, -27.241662]}},
{"type": "Feature", "id": "HRriR6499TISuYV9ea64nt4w-wM=", "properties": {"ref": "237", "@spider": "nandos_au", "addr:full": "Shop 101 Reading Newmarket", "addr:city": "Newmarket", "addr:state": "QLD", "addr:postcode": "4051", "addr:country": "AU", "name": "NEWMARKET", "phone": "1300 626 367", "website": "https://www.nandos.com.au/restaurants/qld/newmarket", "brand": "Nando's", "brand:wikidata": "Q3472954"}, "geometry": {"type": "Point", "coordinates": [153.008062, -27.43717]}},
{"type": "Feature", "id": "0VNoKO0CFkUdmWgvhFKzb8yaYBI=", "properties": {"ref": "233", "@spider": "nandos_au", "addr:full": "420 Princes Hwy", "addr:city": "Narre Warren", "addr:state": "VIC", "addr:postcode": "3805", "addr:country": "AU", "name": "NARRE WARREN", "phone": "1300 626 367", "website": "https://www.nandos.com.au/restaurants/vic/narre-warren", "brand": "Nando's", "brand:wikidata": "Q3472954"}, "geometry": {"type": "Point", "coordinates": [145.305972, -38.025322]}},
{"type": "Feature", "id": "dMnVbaA40eHc8q7uiM15CV-ZwqA=", "properties": {"ref": "228", "@spider": "nandos_au", "addr:full": "Level 1 Shop C15, Macarthur Sqare S/C", "addr:city": "Campbelltown", "addr:state": "NSW", "addr:postcode": "2560", "addr:country": "AU", "name": "MACARTHUR SQUARE SHOPPING CENTRE", "phone": "1300 626 367", "website": "https://www.nandos.com.au/restaurants/nsw/macarthur-square-shopping-centre", "brand": "Nando's", "brand:wikidata": "Q3472954"}, "geometry": {"type": "Point", "coordinates": [150.8001483, -34.0747779]}},
{"type": "Feature", "id": "eYo1szsj9jhUpEnd_QGGVwgTxFY=", "properties": {"ref": "226", "@spider": "nandos_au", "addr:full": "Shop 41-42, Northpark Shopping Centre,", "addr:city": "Prospect", "addr:state": "SA", "addr:postcode": "5082", "addr:country": "AU", "name": "NORTHPARK SHOPPING CENTRE", "phone": "1300 626 367", "website": "https://www.nandos.com.au/restaurants/sa/northpark-shopping-centre", "brand": "Nando's", "brand:wikidata": "Q3472954"}, "geometry": {"type": "Point", "coordinates": [138.601372, -34.875274]}},
{"type": "Feature", "id": "jEDhbaQCqcQkvnhuXNm6RbyFX-s=", "properties": {"ref": "224", "@spider": "nandos_au", "addr:full": "Shop 2,", "addr:city": "Lysterfield", "addr:state": "VIC", "addr:postcode": "3156", "addr:country": "AU", "name": "LYSTERFIELD", "phone": "1300 626 367", "website": "https://www.nandos.com.au/restaurants/vic/lysterfield", "brand": "Nando's", "brand:wikidata": "Q3472954"}, "geometry": {"type": "Point", "coordinates": [145.265905, -37.928519]}},
{"type": "Feature", "id": "Sd5MLV2sjCbTyzThaqfIVYKSM2w=", "properties": {"ref": "222", "@spider": "nandos_au", "addr:full": "Shop 1, Kurralta Central Shopping Centre", "addr:city": "Kurralta Park", "addr:state": "SA", "addr:postcode": "5037", "addr:country": "AU", "name": "KURRALTA PARK CENTRO SHOPPING CENTRE", "phone": "1300 626 367", "website": "https://www.nandos.com.au/restaurants/sa/kurralta-park-centro-shopping-centre", "brand": "Nando's", "brand:wikidata": "Q3472954"}, "geometry": {"type": "Point", "coordinates": [138.565136, -34.95661]}},
{"type": "Feature", "id": "RkF6YSavV_4QFjj6TBBXQoLqjps=", "properties": {"ref": "221", "@spider": "nandos_au", "addr:full": "Shop 14, ", "addr:city": "Kenmore", "addr:state": "QLD", "addr:postcode": "4069", "addr:country": "AU", "name": "KENMORE", "phone": "1300 626 367", "website": "https://www.nandos.com.au/restaurants/qld/kenmore", "brand": "Nando's", "brand:wikidata": "Q3472954"}, "geometry": {"type": "Point", "coordinates": [152.948024, -27.506749]}},
{"type": "Feature", "id": "fnZyYRlw5pGfiAkYpaSQX1P8Dvw=", "properties": {"ref": "207", "@spider": "nandos_au", "addr:full": "Westfield Chermside Shopping Centre", "addr:city": "Chermside", "addr:state": "QLD", "addr:postcode": "4032", "addr:country": "AU", "name": "CHERMSIDE WESTFIELD", "phone": "1300 626 367", "website": "https://www.nandos.com.au/restaurants/qld/chermside-westfield", "brand": "Nando's", "brand:wikidata": "Q3472954"}, "geometry": {"type": "Point", "coordinates": [153.0301167, -27.3836488]}},
{"type": "Feature", "id": "_glE151mj07r33Zh_cbWmVBfhyY=", "properties": {"ref": "205", "@spider": "nandos_au", "addr:full": "18 B Chadstone Shopping Centre", "addr:city": "Chadstone", "addr:state": "VIC", "addr:postcode": "3148", "addr:country": "AU", "name": "CHADSTONE SHOPPING CENTRE", "phone": "1300 626 367", "website": "https://www.nandos.com.au/restaurants/vic/chadstone-shopping-centre", "brand": "Nando's", "brand:wikidata": "Q3472954"}, "geometry": {"type": "Point", "coordinates": [145.0800445, -37.8877058]}},
{"type": "Feature", "id": "GxBn1rq5c50uY4zZGczT0pLnYUY=", "properties": {"ref": "208", "@spider": "nandos_au", "addr:full": "Shop 2", "addr:city": "Clayfield", "addr:state": "QLD", "addr:postcode": "4011", "addr:country": "AU", "name": "CLAYFIELD", "phone": "1300 626 367", "website": "https://www.nandos.com.au/restaurants/qld/clayfield", "brand": "Nando's", "brand:wikidata": "Q3472954"}, "geometry": {"type": "Point", "coordinates": [153.0561707, -27.4178104]}},
{"type": "Feature", "id": "Jr_gg-3H8dmxzGWEYdvypWmyv-c=", "properties": {"ref": "203", "@spider": "nandos_au", "addr:full": "Shop 6, Festival Towers", "addr:city": "Brisbane", "addr:state": "QLD", "addr:postcode": "4000", "addr:country": "AU", "name": "BRISBANE CBD FESTIVAL TOWERS", "phone": "1300 626 367", "website": "https://www.nandos.com.au/restaurants/qld/brisbane-cbd-festival-towers", "brand": "Nando's", "brand:wikidata": "Q3472954"}, "geometry": {"type": "Point", "coordinates": [153.0269415, -27.4714234]}},
{"type": "Feature", "id": "OCUIeAhGQSHVaPmBZvNPKLaHMwU=", "properties": {"ref": "194", "@spider": "nandos_au", "addr:full": "Tenancy CE G03", "addr:city": "Melbourne", "addr:state": "VIC", "addr:postcode": "3000", "addr:country": "AU", "name": "WATERFRONT CITY", "phone": "1300 626 367", "website": "https://www.nandos.com.au/restaurants/vic/waterfront-city", "brand": "Nando's", "brand:wikidata": "Q3472954"}, "geometry": {"type": "Point", "coordinates": [144.938359, -37.812145]}},
{"type": "Feature", "id": "2LLuraQgQPwjxZpXkO5bz55eAmg=", "properties": {"ref": "193", "@spider": "nandos_au", "addr:full": "Shop 132, Watergardens Town Centre", "addr:city": "Taylors Lakes", "addr:state": "VIC", "addr:postcode": "3038", "addr:country": "AU", "name": "WATERGARDENS TOWN CENTRE", "phone": "1300 626 367", "website": "https://www.nandos.com.au/restaurants/vic/watergardens-town-centre", "brand": "Nando's", "brand:wikidata": "Q3472954"}, "geometry": {"type": "Point", "coordinates": [144.776073, -37.69984]}},
{"type": "Feature", "id": "soIsF-AYJxCDkwU2Qc-gH2_q7Qc=", "properties": {"ref": "197", "@spider": "nandos_au", "addr:full": "Shop 60-61, Calamvale Central", "addr:city": "Calamvale", "addr:state": "QLD", "addr:postcode": "4116", "addr:country": "AU", "name": "CALAMVALE CENTRAL", "phone": "1300 626 367", "website": "https://www.nandos.com.au/restaurants/qld/calamvale-central", "brand": "Nando's", "brand:wikidata": "Q3472954"}, "geometry": {"type": "Point", "coordinates": [153.053934, -27.613128]}},
{"type": "Feature", "id": "NEqbhuLv_VdQ8GeAJ0qLvgcvOR8=", "properties": {"ref": "188", "@spider": "nandos_au", "addr:full": "4/326 Keilor Rd", "addr:city": "Niddrie", "addr:state": "VIC", "addr:postcode": "3042", "addr:country": "AU", "name": "NIDDRIE", "phone": "1300 626 367", "website": "https://www.nandos.com.au/restaurants/vic/niddrie", "brand": "Nando's", "brand:wikidata": "Q3472954"}, "geometry": {"type": "Point", "coordinates": [144.89231, -37.736925]}},
{"type": "Feature", "id": "IFeBDattrOq-MQZYN0pWt7nVi-M=", "properties": {"ref": "187", "@spider": "nandos_au", "addr:full": "Shop 1, 332 Kent Street", "addr:city": "Sydney", "addr:state": "NSW", "addr:postcode": "2000", "addr:country": "AU", "name": "KENT ST", "phone": "1300 626 367", "website": "https://www.nandos.com.au/restaurants/nsw/kent-st", "brand": "Nando's", "brand:wikidata": "Q3472954"}, "geometry": {"type": "Point", "coordinates": [151.2046821, -33.8694029]}},
{"type": "Feature", "id": "oLzVnZ5DDKGw0HvFk6Jno0KTbfw=", "properties": {"ref": "190", "@spider": "nandos_au", "addr:full": "301 Wyndham St", "addr:city": "Shepparton", "addr:state": "VIC", "addr:postcode": "3630", "addr:country": "AU", "name": "SHEPPARTON", "phone": "1300 626 367", "website": "https://www.nandos.com.au/restaurants/vic/shepparton", "brand": "Nando's", "brand:wikidata": "Q3472954"}, "geometry": {"type": "Point", "coordinates": [145.400114, -36.380012]}},
{"type": "Feature", "id": "3VubvwiCQRdKKqCQkQ6C2PALmlI=", "properties": {"ref": "184", "@spider": "nandos_au", "addr:full": "Shop FC4, Westfield Shopping Centre", "addr:city": "Doncaster", "addr:state": "VIC", "addr:postcode": "3108", "addr:country": "AU", "name": "DONCASTER WESTFIELD", "phone": "1300 626 367", "website": "https://www.nandos.com.au/restaurants/vic/doncaster-westfield", "brand": "Nando's", "brand:wikidata": "Q3472954"}, "geometry": {"type": "Point", "coordinates": [145.126166, -37.784626]}},
{"type": "Feature", "id": "04OVubl7eO2IZzE0ANS08G3N2UM=", "properties": {"ref": "183", "@spider": "nandos_au", "addr:full": "519 - 539 St Kilda Road", "addr:city": "Melbourne", "addr:state": "VIC", "addr:postcode": "3004", "addr:country": "AU", "name": "CHEVRON", "phone": "1300 626 367", "website": "https://www.nandos.com.au/restaurants/vic/chevron", "brand": "Nando's", "brand:wikidata": "Q3472954"}, "geometry": {"type": "Point", "coordinates": [144.9794483, -37.8455284]}},
{"type": "Feature", "id": "6ArOAs52kAk5QUX5XQHWb38MfwI=", "properties": {"ref": "182", "@spider": "nandos_au", "addr:full": "Shop NT1, Carseldine Central, 735 Beams Road", "addr:city": "Carseldine", "addr:state": "QLD", "addr:postcode": "4034", "addr:country": "AU", "name": "CARSELDINE CENTRAL", "phone": "1300 626 367", "website": "https://www.nandos.com.au/restaurants/qld/carseldine-central", "brand": "Nando's", "brand:wikidata": "Q3472954"}, "geometry": {"type": "Point", "coordinates": [153.010665, -27.344529]}},
{"type": "Feature", "id": "ZroyGikJrJANPtPUndXpIXbhgmc=", "properties": {"ref": "181", "@spider": "nandos_au", "addr:full": "Shop 2186, Westfield Shopping Centre", "addr:city": "Parramatta", "addr:state": "NSW", "addr:postcode": "2150", "addr:country": "AU", "name": "PARRAMATTA WESTFIELD", "phone": "1300 626 367", "website": "https://www.nandos.com.au/restaurants/nsw/parramatta-westfield", "brand": "Nando's", "brand:wikidata": "Q3472954"}, "geometry": {"type": "Point", "coordinates": [151.0036456, -33.8176164]}},
{"type": "Feature", "id": "TQik_ujNQUzwkAbgBjcE-BZRr0U=", "properties": {"ref": "179", "@spider": "nandos_au", "addr:full": "Shop 29 Kmart Plaza", "addr:city": "Burwood East", "addr:state": "VIC", "addr:postcode": "3151", "addr:country": "AU", "name": "BURWOOD", "phone": "1300 626 367", "website": "https://www.nandos.com.au/restaurants/vic/burwood", "brand": "Nando's", "brand:wikidata": "Q3472954"}, "geometry": {"type": "Point", "coordinates": [145.150372, -37.852524]}},
{"type": "Feature", "id": "8T-Gof4xveiKGyDa2NYrRLenj_o=", "properties": {"ref": "170", "@spider": "nandos_au", "addr:full": "918-928 Springvale Road", "addr:city": "Braeside", "addr:state": "VIC", "addr:postcode": "3195", "addr:country": "AU", "name": "BRAESIDE", "phone": "1300 626 367", "website": "https://www.nandos.com.au/restaurants/vic/braeside", "brand": "Nando's", "brand:wikidata": "Q3472954"}, "geometry": {"type": "Point", "coordinates": [145.139989, -38.010167]}},
{"type": "Feature", "id": "-oJ88ock8pQyxQCm6QY53ziQ33w=", "properties": {"ref": "177", "@spider": "nandos_au", "addr:full": "264 Ipswich Rd", "addr:city": "Woolloongabba", "addr:state": "QLD", "addr:postcode": "4102", "addr:country": "AU", "name": "BURANDA SC", "phone": "1300 626 367", "website": "https://www.nandos.com.au/restaurants/qld/buranda-sc", "brand": "Nando's", "brand:wikidata": "Q3472954"}, "geometry": {"type": "Point", "coordinates": [153.036061, -27.500549]}},
{"type": "Feature", "id": "NTu69FJc2S797oRp3c8EzFHQRbM=", "properties": {"ref": "174", "@spider": "nandos_au", "addr:full": "Shop G157A Pascoe Vale Rd", "addr:city": "Broadmeadows", "addr:state": "VIC", "addr:postcode": "3047", "addr:country": "AU", "name": "BROADMEADOWS TOWN CENTRE", "phone": "1300 626 367", "website": "https://www.nandos.com.au/restaurants/vic/broadmeadows-town-centre", "brand": "Nando's", "brand:wikidata": "Q3472954"}, "geometry": {"type": "Point", "coordinates": [144.919505, -37.68019]}},
{"type": "Feature", "id": "21R-4h4PK3FTtEhyV3pUp-fNydM=", "properties": {"ref": "158", "@spider": "nandos_au", "addr:full": "Rear 97-121 Bell Street", "addr:city": "Coburg", "addr:state": "VIC", "addr:postcode": "3058", "addr:country": "AU", "name": "COBURG", "phone": "1300 626 367", "website": "https://www.nandos.com.au/restaurants/vic/coburg", "brand": "Nando's", "brand:wikidata": "Q3472954"}, "geometry": {"type": "Point", "coordinates": [144.964458, -37.741396]}},
{"type": "Feature", "id": "PFgDOrljRrXyupnIulPOOtacUKg=", "properties": {"ref": "167", "@spider": "nandos_au", "addr:full": "2 Little Boundary Rd", "addr:city": "Laverton North", "addr:state": "VIC", "addr:postcode": "3026", "addr:country": "AU", "name": "LAVERTON NORTH", "phone": "1300 626 367", "website": "https://www.nandos.com.au/restaurants/vic/laverton-north", "brand": "Nando's", "brand:wikidata": "Q3472954"}, "geometry": {"type": "Point", "coordinates": [144.824276, -37.823082]}},
{"type": "Feature", "id": "Asb31gQkjAkFkt_v1Gk0Aw4E1fk=", "properties": {"ref": "161", "@spider": "nandos_au", "addr:full": "Westfield Fountain Gate, Shop R 1121 Overland Dr,", "addr:city": "Narre Warren", "addr:state": "VIC", "addr:postcode": "3805", "addr:country": "AU", "name": "FOUNTAIN GATE WESTFIELD", "phone": "1300 626 367", "website": "https://www.nandos.com.au/restaurants/vic/fountain-gate-westfield", "brand": "Nando's", "brand:wikidata": "Q3472954"}, "geometry": {"type": "Point", "coordinates": [145.304067, -38.017523]}},
{"type": "Feature", "id": "XwtDtTGggvbODgUomC_SSJU0JOg=", "properties": {"ref": "150", "@spider": "nandos_au", "addr:full": "Bourke Place, 600 Bourke Street LG 16", "addr:city": "Melbourne", "addr:state": "VIC", "addr:postcode": "3001", "addr:country": "AU", "name": "BOURKE PLACE", "phone": "1300 626 367", "website": "https://www.nandos.com.au/restaurants/vic/bourke-place", "brand": "Nando's", "brand:wikidata": "Q3472954"}, "geometry": {"type": "Point", "coordinates": [144.956017, -37.816124]}},
{"type": "Feature", "id": "WLa0fdpr8q5X5dBxVi2pP95XbGs=", "properties": {"ref": "155", "@spider": "nandos_au", "addr:full": "Shop 8, Caroline Springs Shopping Centre", "addr:city": "Caroline Springs", "addr:state": "VIC", "addr:postcode": "3023", "addr:country": "AU", "name": "CAROLINE SPRINGS SHOPPING CENTRE", "phone": "1300 626 367", "website": "https://www.nandos.com.au/restaurants/vic/caroline-springs-shopping-centre", "brand": "Nando's", "brand:wikidata": "Q3472954"}, "geometry": {"type": "Point", "coordinates": [144.741638, -37.73288]}},
{"type": "Feature", "id": "G0kzXfBTx0EsVfWYOvx_nifdvlM=", "properties": {"ref": "152", "@spider": "nandos_au", "addr:full": "Shop F 009, Brimbank Shopping centre", "addr:city": "Deer Park", "addr:state": "VIC", "addr:postcode": "3023", "addr:country": "AU", "name": "BRIMBANK SHOPPING CENTRE", "phone": "1300 626 367", "website": "https://www.nandos.com.au/restaurants/vic/brimbank-shopping-centre", "brand": "Nando's", "brand:wikidata": "Q3472954"}, "geometry": {"type": "Point", "coordinates": [144.7756704, -37.7640736]}},
{"type": "Feature", "id": "6HvRO17aN-1Na5kN4Dfuwg40Pwc=", "properties": {"ref": "149", "@spider": "nandos_au", "addr:full": "79-85 Bourke St", "addr:city": "Melbourne", "addr:state": "VIC", "addr:postcode": "3001", "addr:country": "AU", "name": "BOURKE ST 79-85", "phone": "1300 626 367", "website": "https://www.nandos.com.au/restaurants/vic/bourke-st-79-85", "brand": "Nando's", "brand:wikidata": "Q3472954"}, "geometry": {"type": "Point", "coordinates": [144.97104, -37.81218]}},
{"type": "Feature", "id": "tUIYV8Yb1DS85kh5EDOhZfVz9pQ=", "properties": {"ref": "138", "@spider": "nandos_au", "addr:full": "Albany Shopping Village", "addr:city": "Albany Creek", "addr:state": "QLD", "addr:postcode": "4035", "addr:country": "AU", "name": "ALBANY CREEK", "phone": "1300 626 367", "website": "https://www.nandos.com.au/restaurants/qld/albany-creek", "brand": "Nando's", "brand:wikidata": "Q3472954"}, "geometry": {"type": "Point", "coordinates": [152.969245, -27.345887]}},
{"type": "Feature", "id": "Od1FSpZUVcVGs096LVNXWL_EiU4=", "properties": {"ref": "148", "@spider": "nandos_au", "addr:full": "Shop 1,", "addr:city": "Lynbrook", "addr:state": "VIC", "addr:postcode": "3975", "addr:country": "AU", "name": "LYNBROOK", "phone": "1300 626 367", "website": "https://www.nandos.com.au/restaurants/vic/lynbrook", "brand": "Nando's", "brand:wikidata": "Q3472954"}, "geometry": {"type": "Point", "coordinates": [145.247829, -38.038542]}},
{"type": "Feature", "id": "nfbMOLlKX7tZrrywxU6250jbBmM=", "properties": {"ref": "136", "@spider": "nandos_au", "addr:full": "120 Koornang Road", "addr:city": "Carnegie", "addr:state": "VIC", "addr:postcode": "3163", "addr:country": "AU", "name": "CARNEGIE", "phone": "(03) 95680503", "website": "https://www.nandos.com.au/restaurants/vic/carnegie", "brand": "Nando's", "brand:wikidata": "Q3472954"}, "geometry": {"type": "Point", "coordinates": [145.057557, -37.888298]}},
{"type": "Feature", "id": "nc35ie9UZhFMcrUfzNK9wALs8hA=", "properties": {"ref": "134", "@spider": "nandos_au", "addr:full": "Centro Bankstown, 12/41 North Terrace", "addr:city": "Bankstown", "addr:state": "NSW", "addr:postcode": "2200", "addr:country": "AU", "name": "BANKSTOWN CENTRO SHOPPING CENTRE", "phone": "1300 626 367", "website": "https://www.nandos.com.au/restaurants/nsw/bankstown-centro-shopping-centre", "brand": "Nando's", "brand:wikidata": "Q3472954"}, "geometry": {"type": "Point", "coordinates": [151.0350052, -33.9173982]}},
{"type": "Feature", "id": "DHz1mHMMzkStdie_31HjoNUcSsk=", "properties": {"ref": "132", "@spider": "nandos_au", "addr:full": "Auburn Central Shopping Centre", "addr:city": "Auburn", "addr:state": "NSW", "addr:postcode": "2144", "addr:country": "AU", "name": "AUBURN CENTRAL SHOPPING CENTRE", "phone": "1300 626 367", "website": "https://www.nandos.com.au/restaurants/nsw/auburn-central-shopping-centre", "brand": "Nando's", "brand:wikidata": "Q3472954"}, "geometry": {"type": "Point", "coordinates": [151.031468, -33.850298]}},
{"type": "Feature", "id": "R42CIqqd0sJcyci-zJghOToDQHY=", "properties": {"ref": "130", "@spider": "nandos_au", "addr:full": "345 Elizabeth Street", "addr:city": "North Hobart", "addr:state": "TAS", "addr:postcode": "7000", "addr:country": "AU", "name": "NORTH HOBART", "phone": "1300 626 367", "website": "https://www.nandos.com.au/restaurants/tas/north-hobart", "brand": "Nando's", "brand:wikidata": "Q3472954"}, "geometry": {"type": "Point", "coordinates": [147.315773, -42.873299]}},
{"type": "Feature", "id": "PeBq9BvTke_49e7cfPvLP-QbeX8=", "properties": {"ref": "125", "@spider": "nandos_au", "addr:full": "Shop R12E, Riverlink Shopping Centre,", "addr:city": "North Ipswich", "addr:state": "QLD", "addr:postcode": "4305", "addr:country": "AU", "name": "IPSWICH SC", "phone": "1300 626 367", "website": "https://www.nandos.com.au/restaurants/qld/ipswich-sc", "brand": "Nando's", "brand:wikidata": "Q3472954"}, "geometry": {"type": "Point", "coordinates": [152.7615824, -27.6038793]}},
{"type": "Feature", "id": "oXDUHVjSpmaKaxzfI6HBIFM_Pms=", "properties": {"ref": "119", "@spider": "nandos_au", "addr:full": "10-14 Market Lane", "addr:city": "Rouse Hill", "addr:state": "NSW", "addr:postcode": "2155", "addr:country": "AU", "name": "ROUSE HILL TOWN CENTRE", "phone": "1300 626 367", "website": "https://www.nandos.com.au/restaurants/nsw/rouse-hill-town-centre", "brand": "Nando's", "brand:wikidata": "Q3472954"}, "geometry": {"type": "Point", "coordinates": [150.925399, -33.690777]}},
{"type": "Feature", "id": "1579BFJedTUW3nkO9oWghEkmyXA=", "properties": {"ref": "118", "@spider": "nandos_au", "addr:full": "270 Clarendon Street", "addr:city": "South Melbourne", "addr:state": "VIC", "addr:postcode": "3205", "addr:country": "AU", "name": "SOUTH MELBOURNE", "phone": "1300 626 367", "website": "https://www.nandos.com.au/restaurants/vic/south-melbourne", "brand": "Nando's", "brand:wikidata": "Q3472954"}, "geometry": {"type": "Point", "coordinates": [144.960133, -37.832679]}},
{"type": "Feature", "id": "RUxY370GfMJFqKpBo3iHvk2g7lc=", "properties": {"ref": "121", "@spider": "nandos_au", "addr:full": "7-9 Bligh Street Shop 001", "addr:city": "Rosny Park", "addr:state": "TAS", "addr:postcode": "7018", "addr:country": "AU", "name": "EASTLANDS ROSNY PARK", "phone": "1300 626 367", "website": "https://www.nandos.com.au/restaurants/tas/eastlands-rosny-park", "brand": "Nando's", "brand:wikidata": "Q3472954"}, "geometry": {"type": "Point", "coordinates": [147.36901, -42.867165]}},
{"type": "Feature", "id": "W0YDEn9plR63EvxleNXTWs6TUrQ=", "properties": {"ref": "120", "@spider": "nandos_au", "addr:full": "Westfield Airport West 212A/B", "addr:city": "Airport West", "addr:state": "VIC", "addr:postcode": "3042", "addr:country": "AU", "name": "AIRPORT WEST WESTFIELD", "phone": "1300 626 367", "website": "https://www.nandos.com.au/restaurants/vic/airport-west-westfield", "brand": "Nando's", "brand:wikidata": "Q3472954"}, "geometry": {"type": "Point", "coordinates": [144.886874, -37.713482]}},
{"type": "Feature", "id": "AkABmsDWJLbREo9YBFa5gYi3DZI=", "properties": {"ref": "116", "@spider": "nandos_au", "addr:full": "153 Stanley street,R3 Abigroup building", "addr:city": "South Brisbane", "addr:state": "QLD", "addr:postcode": "4101", "addr:country": "AU", "name": "SOUTHBANK BRIS", "phone": "1300 626 367", "website": "https://www.nandos.com.au/restaurants/qld/southbank-bris", "brand": "Nando's", "brand:wikidata": "Q3472954"}, "geometry": {"type": "Point", "coordinates": [153.0224122, -27.4789466]}},
{"type": "Feature", "id": "A5NSW9-23RV69wnIAAcGYcwyF9U=", "properties": {"ref": "111", "@spider": "nandos_au", "addr:full": "Shop 1", "addr:city": "Footscray", "addr:state": "VIC", "addr:postcode": "3011", "addr:country": "AU", "name": "FOOTSCRAY", "phone": "1300 626 367", "website": "https://www.nandos.com.au/restaurants/vic/footscray", "brand": "Nando's", "brand:wikidata": "Q3472954"}, "geometry": {"type": "Point", "coordinates": [144.896117, -37.799054]}},
{"type": "Feature", "id": "anVPg2Bz9Ezyzp_2mEtBpdgaW7g=", "properties": {"ref": "115", "@spider": "nandos_au", "addr:full": "1239 Nepean Hwy", "addr:city": "Cheltenham", "addr:state": "VIC", "addr:postcode": "3192", "addr:country": "AU", "name": "SOUTHLAND WESTFIELD", "phone": "1300 626 367", "website": "https://www.nandos.com.au/restaurants/vic/southland-westfield", "brand": "Nando's", "brand:wikidata": "Q3472954"}, "geometry": {"type": "Point", "coordinates": [145.053177, -37.958783]}},
{"type": "Feature", "id": "xyS-7VpgimfTvHW074cRHmhAm8w=", "properties": {"ref": "105", "@spider": "nandos_au", "addr:full": "SHOP 13 Tooronga Village", "addr:city": "Glen Iris", "addr:state": "VIC", "addr:postcode": "3146", "addr:country": "AU", "name": "TOORONGA VILLAGE", "phone": "1300 626 367", "website": "https://www.nandos.com.au/restaurants/vic/tooronga-village", "brand": "Nando's", "brand:wikidata": "Q3472954"}, "geometry": {"type": "Point", "coordinates": [145.045184, -37.845545]}},
{"type": "Feature", "id": "mVpJjimfvsBed-EJMQI9xPKZ9KQ=", "properties": {"ref": "112", "@spider": "nandos_au", "addr:full": "281 Smith Street", "addr:city": "Fitzroy", "addr:state": "VIC", "addr:postcode": "3065", "addr:country": "AU", "name": "FITZROY SMITH ST", "phone": "1300 626 367", "website": "https://www.nandos.com.au/restaurants/vic/fitzroy-smith-st", "brand": "Nando's", "brand:wikidata": "Q3472954"}, "geometry": {"type": "Point", "coordinates": [144.9837762, -37.8005033]}},
{"type": "Feature", "id": "w8FEZwPmpyAnJpAMDSjDg57IOV8=", "properties": {"ref": "104", "@spider": "nandos_au", "addr:full": "21 Post Office Pl", "addr:city": "Traralgon", "addr:state": "VIC", "addr:postcode": "3844", "addr:country": "AU", "name": "TRARALGON", "phone": "1300 626 367", "website": "https://www.nandos.com.au/restaurants/vic/traralgon", "brand": "Nando's", "brand:wikidata": "Q3472954"}, "geometry": {"type": "Point", "coordinates": [146.539349, -38.195393]}},
{"type": "Feature", "id": "25ukIr-eR-8LrreRyQGyO_JULDA=", "properties": {"ref": "100", "@spider": "nandos_au", "addr:full": "203-205 Watton Street", "addr:city": "Werribee", "addr:state": "VIC", "addr:postcode": "3030", "addr:country": "AU", "name": "WERRIBEE", "phone": "1300 626 367", "website": "https://www.nandos.com.au/restaurants/vic/werribee", "brand": "Nando's", "brand:wikidata": "Q3472954"}, "geometry": {"type": "Point", "coordinates": [144.655499, -37.904759]}},
{"type": "Feature", "id": "FufuVTKbMgDlpfaHAK2iJAIpHT8=", "properties": {"ref": "97", "@spider": "nandos_au", "addr:full": "109/241 Main St", "addr:city": "Mornington", "addr:state": "VIC", "addr:postcode": "3931", "addr:country": "AU", "name": "MORNINGTON", "phone": "1300 626 367", "website": "https://www.nandos.com.au/restaurants/vic/mornington", "brand": "Nando's", "brand:wikidata": "Q3472954"}, "geometry": {"type": "Point", "coordinates": [145.0409634, -38.2236163]}},
{"type": "Feature", "id": "2oU_m20BHhDLy3fLSW5170Gxc9Q=", "properties": {"ref": "96", "@spider": "nandos_au", "addr:full": "Essendon Fields Airport, 30 English St Shop 8", "addr:city": "Essendon North", "addr:state": "VIC", "addr:postcode": "3041", "addr:country": "AU", "name": "ESSENDON FIELDS SHOPPING CENTRE", "phone": "1300 626 367", "website": "https://www.nandos.com.au/restaurants/vic/essendon-fields-shopping-centre", "brand": "Nando's", "brand:wikidata": "Q3472954"}, "geometry": {"type": "Point", "coordinates": [144.8970416, -37.7256972]}},
{"type": "Feature", "id": "FYAKHQcJDREJaK7qffP5ozkK7R4=", "properties": {"ref": "95", "@spider": "nandos_au", "addr:full": "119 Hall Road", "addr:city": "Carrum Downs", "addr:state": "VIC", "addr:postcode": "3201", "addr:country": "AU", "name": "CARRUM DOWNS", "phone": "1300 626 367", "website": "https://www.nandos.com.au/restaurants/vic/carrum-downs", "brand": "Nando's", "brand:wikidata": "Q3472954"}, "geometry": {"type": "Point", "coordinates": [145.186379, -38.100653]}},
{"type": "Feature", "id": "KXjA7ODNmpWiKPDiET6zTUKoj4w=", "properties": {"ref": "94", "@spider": "nandos_au", "addr:full": "Dalton Village Shopping Centre", "addr:city": "Epping", "addr:state": "VIC", "addr:postcode": "3076", "addr:country": "AU", "name": "EPPING", "phone": "1300 626 367", "website": "https://www.nandos.com.au/restaurants/vic/epping", "brand": "Nando's", "brand:wikidata": "Q3472954"}, "geometry": {"type": "Point", "coordinates": [145.029998, -37.659069]}},
{"type": "Feature", "id": "vth3sfRF7a-MpQDkyc013DoH3G8=", "properties": {"ref": "90", "@spider": "nandos_au", "addr:full": "Shop 1B, 125 Beaudesert Road", "addr:city": "Moorooka", "addr:state": "QLD", "addr:postcode": "4105", "addr:country": "AU", "name": "MOOROOKA", "phone": "1300 626 367", "website": "https://www.nandos.com.au/restaurants/qld/moorooka", "brand": "Nando's", "brand:wikidata": "Q3472954"}, "geometry": {"type": "Point", "coordinates": [153.023199, -27.531155]}},
{"type": "Feature", "id": "I9POw8OyWSg98h6IycrwZlVYsbM=", "properties": {"ref": "93", "@spider": "nandos_au", "addr:full": "372 Glenhuntly Rd", "addr:city": "Elsternwick", "addr:state": "VIC", "addr:postcode": "3185", "addr:country": "AU", "name": "ELSTERNWICK", "phone": "1300 626 367", "website": "https://www.nandos.com.au/restaurants/vic/elsternwick", "brand": "Nando's", "brand:wikidata": "Q3472954"}, "geometry": {"type": "Point", "coordinates": [145.0041932, -37.8848282]}},
{"type": "Feature", "id": "QJ4BDaJ96Bwe-mIwoVjBPS0VaYc=", "properties": {"ref": "87", "@spider": "nandos_au", "addr:full": "Shop 1,71 High Street", "addr:city": "Belmont", "addr:state": "VIC", "addr:postcode": "3216", "addr:country": "AU", "name": "BELMONT VIC", "phone": "1300 626 367", "website": "https://www.nandos.com.au/restaurants/vic/belmont-vic", "brand": "Nando's", "brand:wikidata": "Q3472954"}, "geometry": {"type": "Point", "coordinates": [144.347803, -38.170672]}},
{"type": "Feature", "id": "8JwR7zKXxMID_RWmx8sey8rNJIU=", "properties": {"ref": "91", "@spider": "nandos_au", "addr:full": "15/106-126 Gap Rd", "addr:city": "Sunbury", "addr:state": "VIC", "addr:postcode": "3429", "addr:country": "AU", "name": "SUNBURY", "phone": "1300 626 367", "website": "https://www.nandos.com.au/restaurants/vic/sunbury", "brand": "Nando's", "brand:wikidata": "Q3472954"}, "geometry": {"type": "Point", "coordinates": [144.712573, -37.578162]}},
{"type": "Feature", "id": "M1uk0a8gYwq9a3j1eS7lSMyEW5M=", "properties": {"ref": "84", "@spider": "nandos_au", "addr:full": "3246 Pacific Hwy", "addr:city": "Tanah Merah", "addr:state": "QLD", "addr:postcode": "4128", "addr:country": "AU", "name": "LOGAN HYPERDOME", "phone": "1300 626 367", "website": "https://www.nandos.com.au/restaurants/qld/logan-hyperdome", "brand": "Nando's", "brand:wikidata": "Q3472954"}, "geometry": {"type": "Point", "coordinates": [153.170177, -27.6588]}},
{"type": "Feature", "id": "Uf-z7-GwNFgDembMQhAn3SwKcnU=", "properties": {"ref": "89", "@spider": "nandos_au", "addr:full": "Shop 14, The Sebel", "addr:city": "Maroochydore", "addr:state": "QLD", "addr:postcode": "4558", "addr:country": "AU", "name": "MAROOCHYDORE", "phone": "1300 626 367", "website": "https://www.nandos.com.au/restaurants/qld/maroochydore", "brand": "Nando's", "brand:wikidata": "Q3472954"}, "geometry": {"type": "Point", "coordinates": [153.103, -26.661959]}},
{"type": "Feature", "id": "wKzDEApLTi-l5IbWxpd9AHSSIxs=", "properties": {"ref": "86", "@spider": "nandos_au", "addr:full": "Shop G012", "addr:city": "Frankston", "addr:state": "VIC", "addr:postcode": "3199", "addr:country": "AU", "name": "BAYSIDE PLAZA FRANKSTON", "phone": "1300 626 367", "website": "https://www.nandos.com.au/restaurants/vic/bayside-plaza-frankston", "brand": "Nando's", "brand:wikidata": "Q3472954"}, "geometry": {"type": "Point", "coordinates": [145.122939, -38.143973]}},
{"type": "Feature", "id": "N7DiuHCzBAB0pf7frLMwsj4KfWA=", "properties": {"ref": "83", "@spider": "nandos_au", "addr:full": "36 Gwendoline Dr, Cnr Ocean Reef Rd", "addr:city": "Beldon", "addr:state": "WA", "addr:postcode": "6027", "addr:country": "AU", "name": "BELRIDGE SC", "phone": "1300 626 367", "website": "https://www.nandos.com.au/restaurants/wa/belridge-sc", "brand": "Nando's", "brand:wikidata": "Q3472954"}, "geometry": {"type": "Point", "coordinates": [115.76667, -31.769551]}},
{"type": "Feature", "id": "KlW7Icr-_D-0rANEkgYZbzKk_FY=", "properties": {"ref": "81", "@spider": "nandos_au", "addr:full": "301 Grand Blvd", "addr:city": "Craigieburn", "addr:state": "VIC", "addr:postcode": "3064", "addr:country": "AU", "name": "CRAIGIEBURN", "phone": "1300 626 367", "website": "https://www.nandos.com.au/restaurants/vic/craigieburn", "brand": "Nando's", "brand:wikidata": "Q3472954"}, "geometry": {"type": "Point", "coordinates": [144.919742, -37.576071]}},
{"type": "Feature", "id": "3MQtMkNETeCJNLmqAh6g1Kh7bMA=", "properties": {"ref": "78", "@spider": "nandos_au", "addr:full": "533 High St", "addr:city": "Melton", "addr:state": "VIC", "addr:postcode": "3337", "addr:country": "AU", "name": "MELTON", "phone": "1300 626 367", "website": "https://www.nandos.com.au/restaurants/vic/melton", "brand": "Nando's", "brand:wikidata": "Q3472954"}, "geometry": {"type": "Point", "coordinates": [144.567354, -37.687335]}},
{"type": "Feature", "id": "1Xa8xvymt1BlQKGPrXpe-_s76G0=", "properties": {"ref": "76", "@spider": "nandos_au", "addr:full": "380 Elizabeth St", "addr:city": "Melbourne", "addr:state": "VIC", "addr:postcode": "3001", "addr:country": "AU", "name": "ELIZABETH ST -380", "phone": "1300 626 367", "website": "https://www.nandos.com.au/restaurants/vic/elizabeth-st-380", "brand": "Nando's", "brand:wikidata": "Q3472954"}, "geometry": {"type": "Point", "coordinates": [144.9613366, -37.8098811]}},
{"type": "Feature", "id": "MtfLrGklhgbD-OYbomYerS1gQuk=", "properties": {"ref": "74", "@spider": "nandos_au", "addr:full": "Shop 3", "addr:city": "Alexandria", "addr:state": "NSW", "addr:postcode": "2015", "addr:country": "AU", "name": "ALEXANDRIA", "phone": "1300 626 367", "website": "https://www.nandos.com.au/restaurants/nsw/alexandria", "brand": "Nando's", "brand:wikidata": "Q3472954"}, "geometry": {"type": "Point", "coordinates": [151.199379, -33.9019193]}},
{"type": "Feature", "id": "nvWSj70RDU9-gOtR2NIiwAuXpiI=", "properties": {"ref": "73", "@spider": "nandos_au", "addr:full": "125 Bunda St", "addr:city": "Canberra", "addr:state": "ACT", "addr:postcode": "2600", "addr:country": "AU", "name": "CANBERRA CENTRE", "phone": "1300 626 367", "website": "https://www.nandos.com.au/restaurants/act/canberra-centre", "brand": "Nando's", "brand:wikidata": "Q3472954"}, "geometry": {"type": "Point", "coordinates": [149.132846, -35.277484]}},
{"type": "Feature", "id": "5upSLgbOtC4W3BzYGI7_tSCi5gk=", "properties": {"ref": "72", "@spider": "nandos_au", "addr:full": "175 Burgundy St", "addr:city": "Heidelberg", "addr:state": "VIC", "addr:postcode": "3084", "addr:country": "AU", "name": "HEIDELBERG", "phone": "1300 626 367", "website": "https://www.nandos.com.au/restaurants/vic/heidelberg", "brand": "Nando's", "brand:wikidata": "Q3472954"}, "geometry": {"type": "Point", "coordinates": [145.064088, -37.756227]}},
{"type": "Feature", "id": "zJ32h-3gLQ15b5d0sD6l8yyRQ_k=", "properties": {"ref": "70", "@spider": "nandos_au", "addr:full": "Shopping Centre, Shop 34/235 Forest Lake Blvd", "addr:city": "Forest Lake", "addr:state": "QLD", "addr:postcode": "4078", "addr:country": "AU", "name": "FOREST LAKE SHOPPING CENTRE", "phone": "1300 626 367", "website": "https://www.nandos.com.au/restaurants/qld/forest-lake-shopping-centre", "brand": "Nando's", "brand:wikidata": "Q3472954"}, "geometry": {"type": "Point", "coordinates": [152.967462, -27.625403]}},
{"type": "Feature", "id": "7PfiSgRhNJAkRkQCwOpLYdhxbPo=", "properties": {"ref": "68", "@spider": "nandos_au", "addr:full": "Shop 50/190 Jells Rd", "addr:city": "Wheelers Hill", "addr:state": "VIC", "addr:postcode": "3150", "addr:country": "AU", "name": "WHEELERS HILL", "phone": "1300 626 367", "website": "https://www.nandos.com.au/restaurants/vic/wheelers-hill", "brand": "Nando's", "brand:wikidata": "Q3472954"}, "geometry": {"type": "Point", "coordinates": [145.189508, -37.909873]}},
{"type": "Feature", "id": "pl8jjJiqNaSIi4n6Ja1dOoayP1o=", "properties": {"ref": "69", "@spider": "nandos_au", "addr:full": "310 Olsen Avenue", "addr:city": "Parkwood", "addr:state": "QLD", "addr:postcode": "4214", "addr:country": "AU", "name": "PARKWOOD", "phone": "1300 626 367", "website": "https://www.nandos.com.au/restaurants/qld/parkwood", "brand": "Nando's", "brand:wikidata": "Q3472954"}, "geometry": {"type": "Point", "coordinates": [153.380349, -27.957039]}},
{"type": "Feature", "id": "Hxiao9avZtc9lu7uQxhRmWnzclE=", "properties": {"ref": "67", "@spider": "nandos_au", "addr:full": "25 Parramatta Rd", "addr:city": "Camperdown", "addr:state": "NSW", "addr:postcode": "2050", "addr:country": "AU", "name": "CAMPERDOWN", "phone": "1300 626 367", "website": "https://www.nandos.com.au/restaurants/nsw/camperdown", "brand": "Nando's", "brand:wikidata": "Q3472954"}, "geometry": {"type": "Point", "coordinates": [151.179611, -33.886484]}},
{"type": "Feature", "id": "AUx-2V6kfOuJGPHQrnJlUCKaXsQ=", "properties": {"ref": "63", "@spider": "nandos_au", "addr:full": "7/8 Exchange Rd", "addr:city": "Malaga", "addr:state": "WA", "addr:postcode": "6090", "addr:country": "AU", "name": "MALAGA", "phone": "1300 626 367", "website": "https://www.nandos.com.au/restaurants/wa/malaga", "brand": "Nando's", "brand:wikidata": "Q3472954"}, "geometry": {"type": "Point", "coordinates": [115.878482, -31.847003]}},
{"type": "Feature", "id": "FniqrUG0Bple7VkkCRdgzznI8SE=", "properties": {"ref": "64", "@spider": "nandos_au", "addr:full": "102 Spencer St", "addr:city": "Bunbury", "addr:state": "WA", "addr:postcode": "6230", "addr:country": "AU", "name": "BUNBURY", "phone": "1300 626 367", "website": "https://www.nandos.com.au/restaurants/wa/bunbury", "brand": "Nando's", "brand:wikidata": "Q3472954"}, "geometry": {"type": "Point", "coordinates": [115.640294, -33.3368877]}},
{"type": "Feature", "id": "sGb14Iz8CUf09JEi-sPX_Hdi2L8=", "properties": {"ref": "61", "@spider": "nandos_au", "addr:full": "Shop 200, Belmont Forum Shopping Centre,", "addr:city": "Belmont", "addr:state": "WA", "addr:postcode": "6104", "addr:country": "AU", "name": "BELMONT FORUM SHOPPING CENTRE", "phone": "1300 626 367", "website": "https://www.nandos.com.au/restaurants/wa/belmont-forum-shopping-centre", "brand": "Nando's", "brand:wikidata": "Q3472954"}, "geometry": {"type": "Point", "coordinates": [115.934937, -31.966819]}},
{"type": "Feature", "id": "gl3_r2HZdXMqRd2vpoAYgmwtP0s=", "properties": {"ref": "60", "@spider": "nandos_au", "addr:full": "381a Scarborough Beach Road", "addr:city": "Innaloo", "addr:state": "WA", "addr:postcode": "6018", "addr:country": "AU", "name": "INNALOO", "phone": "1300 626 367", "website": "https://www.nandos.com.au/restaurants/wa/innaloo", "brand": "Nando's", "brand:wikidata": "Q3472954"}, "geometry": {"type": "Point", "coordinates": [115.797174, -31.902706]}},
{"type": "Feature", "id": "zenNBJUv_ekUs2a5Y8Svb-id_qg=", "properties": {"ref": "62", "@spider": "nandos_au", "addr:full": "20 Boas Ave", "addr:city": "Joondalup", "addr:state": "WA", "addr:postcode": "6027", "addr:country": "AU", "name": "JOONDALUP", "phone": "1300 626 367", "website": "https://www.nandos.com.au/restaurants/wa/joondalup", "brand": "Nando's", "brand:wikidata": "Q3472954"}, "geometry": {"type": "Point", "coordinates": [115.769378, -31.742706]}},
{"type": "Feature", "id": "yXJpl-Z2StiHxZDW1TBtAjBaPZI=", "properties": {"ref": "58", "@spider": "nandos_au", "addr:full": "10/969 Wanneroo Road", "addr:city": "Wanneroo", "addr:state": "WA", "addr:postcode": "6065", "addr:country": "AU", "name": "WANNEROO", "phone": "1300 626 367", "website": "https://www.nandos.com.au/restaurants/wa/wanneroo", "brand": "Nando's", "brand:wikidata": "Q3472954"}, "geometry": {"type": "Point", "coordinates": [115.802426, -31.751369]}},
{"type": "Feature", "id": "WevTFAAuqSYda2ZgqjNJBQS9KCU=", "properties": {"ref": "57", "@spider": "nandos_au", "addr:full": "Shop C1, Kingsway City S/C", "addr:city": "Madeley", "addr:state": "WA", "addr:postcode": "6065", "addr:country": "AU", "name": "KINGSWAY CITY SC", "phone": "1300 626 367", "website": "https://www.nandos.com.au/restaurants/wa/kingsway-city-sc", "brand": "Nando's", "brand:wikidata": "Q3472954"}, "geometry": {"type": "Point", "coordinates": [115.824107, -31.817536]}},
{"type": "Feature", "id": "S09Xw04KnENgRnqjFSHPJKJ-TzU=", "properties": {"ref": "54", "@spider": "nandos_au", "addr:full": "1382 Albany Hwy", "addr:city": "Cannington", "addr:state": "WA", "addr:postcode": "6107", "addr:country": "AU", "name": "CAROUSEL WESTFIELD", "phone": "1300 626 367", "website": "https://www.nandos.com.au/restaurants/wa/carousel-westfield", "brand": "Nando's", "brand:wikidata": "Q3472954"}, "geometry": {"type": "Point", "coordinates": [115.936339, -32.018774]}},
{"type": "Feature", "id": "KkzDRKHiJQLKZrFL8waDqMCI7Fs=", "properties": {"ref": "55", "@spider": "nandos_au", "addr:full": "369 Canning Hwy", "addr:city": "Palmyra", "addr:state": "WA", "addr:postcode": "6157", "addr:country": "AU", "name": "PALMYRA", "phone": "(08) 9339 3400", "website": "https://www.nandos.com.au/restaurants/wa/palmyra", "brand": "Nando's", "brand:wikidata": "Q3472954"}, "geometry": {"type": "Point", "coordinates": [115.7903371, -32.035]}},
{"type": "Feature", "id": "DIaWLECDLIYNfRvklJf2E2-EzAw=", "properties": {"ref": "51", "@spider": "nandos_au", "addr:full": "224 Leach Highway", "addr:city": "Myaree", "addr:state": "WA", "addr:postcode": "6154", "addr:country": "AU", "name": "MYAREE", "phone": "1300 626 367", "website": "https://www.nandos.com.au/restaurants/wa/myaree", "brand": "Nando's", "brand:wikidata": "Q3472954"}, "geometry": {"type": "Point", "coordinates": [115.8202656, -32.046052]}},
{"type": "Feature", "id": "0uBgwDsE2h0-5jWWuUR4pUbuDhM=", "properties": {"ref": "50", "@spider": "nandos_au", "addr:full": "36 Ocean Keys Blvd", "addr:city": "Clarkson", "addr:state": "WA", "addr:postcode": "6030", "addr:country": "AU", "name": "OCEAN KEYS SHOPPING CENTRE", "phone": "1300 626 367", "website": "https://www.nandos.com.au/restaurants/wa/ocean-keys-shopping-centre", "brand": "Nando's", "brand:wikidata": "Q3472954"}, "geometry": {"type": "Point", "coordinates": [115.7184718, -31.6898066]}},
{"type": "Feature", "id": "TO6MBx88zXqM4h5FRkNWx2DGWaw=", "properties": {"ref": "49", "@spider": "nandos_au", "addr:full": "135 Stirling Hwy", "addr:city": "Nedlands", "addr:state": "WA", "addr:postcode": "6009", "addr:country": "AU", "name": "NEDLANDS", "phone": "1300 626 367", "website": "https://www.nandos.com.au/restaurants/wa/nedlands", "brand": "Nando's", "brand:wikidata": "Q3472954"}, "geometry": {"type": "Point", "coordinates": [115.7975852, -31.980022]}},
{"type": "Feature", "id": "EqAi3pgyGYbOrFBMihbzmg6gqTo=", "properties": {"ref": "47", "@spider": "nandos_au", "addr:full": "574 Beaufort St", "addr:city": "Mount Lawley", "addr:state": "WA", "addr:postcode": "6050", "addr:country": "AU", "name": "MT LAWLEY", "phone": "1300 626 367", "website": "https://www.nandos.com.au/restaurants/wa/mt-lawley", "brand": "Nando's", "brand:wikidata": "Q3472954"}, "geometry": {"type": "Point", "coordinates": [115.871199, -31.936886]}},
{"type": "Feature", "id": "BuvqcY8hS31JyqiMkPOG6945sTg=", "properties": {"ref": "43", "@spider": "nandos_au", "addr:full": "Shop 97, 789 Albany Hwy", "addr:city": "East Victoria Park", "addr:state": "WA", "addr:postcode": "6101", "addr:country": "AU", "name": "VICTORIA PARK EAST", "phone": "1300 626 367", "website": "https://www.nandos.com.au/restaurants/wa/victoria-park-east", "brand": "Nando's", "brand:wikidata": "Q3472954"}, "geometry": {"type": "Point", "coordinates": [115.902534, -31.983998]}},
{"type": "Feature", "id": "eTPXhWROMKJASPtAnKUWZBIlHqQ=", "properties": {"ref": "42", "@spider": "nandos_au", "addr:full": "Shop 2 226 Great Eastern Highway", "addr:city": "Midland", "addr:state": "WA", "addr:postcode": "6056", "addr:country": "AU", "name": "MIDLAND", "phone": "1300 626 367", "website": "https://www.nandos.com.au/restaurants/wa/midland", "brand": "Nando's", "brand:wikidata": "Q3472954"}, "geometry": {"type": "Point", "coordinates": [116.014499, -31.891259]}},
{"type": "Feature", "id": "mmeTUPjRGAp1RTmDSuYn3Mn6Ric=", "properties": {"ref": "41", "@spider": "nandos_au", "addr:full": "Shop 1", "addr:city": "Morley", "addr:state": "WA", "addr:postcode": "6062", "addr:country": "AU", "name": "MORLEY", "phone": "1300 626 367", "website": "https://www.nandos.com.au/restaurants/wa/morley", "brand": "Nando's", "brand:wikidata": "Q3472954"}, "geometry": {"type": "Point", "coordinates": [115.895351, -31.8967285]}},
{"type": "Feature", "id": "ivdKVNI_PXONsI4JCD_GOZpxccU=", "properties": {"ref": "40", "@spider": "nandos_au", "addr:full": "72 Boulder Road", "addr:city": "Kalgoorlie", "addr:state": "WA", "addr:postcode": "6430", "addr:country": "AU", "name": "KALGOORLIE", "phone": "1300 626 367", "website": "https://www.nandos.com.au/restaurants/wa/kalgoorlie", "brand": "Nando's", "brand:wikidata": "Q3472954"}, "geometry": {"type": "Point", "coordinates": [121.477694, -30.750342]}},
{"type": "Feature", "id": "8BZYV1CAIwVXvJ1F3lYHdkUqoYU=", "properties": {"ref": "39", "@spider": "nandos_au", "addr:full": "7-9 Scarborough Beach Rd", "addr:city": "North Perth", "addr:state": "WA", "addr:postcode": "6006", "addr:country": "AU", "name": "NORTH PERTH", "phone": "1300 626 367", "website": "https://www.nandos.com.au/restaurants/wa/north-perth", "brand": "Nando's", "brand:wikidata": "Q3472954"}, "geometry": {"type": "Point", "coordinates": [115.8516531, -31.9269542]}},
{"type": "Feature", "id": "E2wcuot4-0HrPrdYvAlCaZ67x84=", "properties": {"ref": "38", "@spider": "nandos_au", "addr:full": "375 Hay St", "addr:city": "Subiaco", "addr:state": "WA", "addr:postcode": "6008", "addr:country": "AU", "name": "SUBIACO", "phone": "1300 626 367", "website": "https://www.nandos.com.au/restaurants/wa/subiaco", "brand": "Nando's", "brand:wikidata": "Q3472954"}, "geometry": {"type": "Point", "coordinates": [115.826519, -31.947827]}},
{"type": "Feature", "id": "CMeZYF68-skuSKeHbCYj1EO9JdE=", "properties": {"ref": "37", "@spider": "nandos_au", "addr:full": "Shop 20, Glengarry Shopping Centre,", "addr:city": "Duncraig", "addr:state": "WA", "addr:postcode": "6023", "addr:country": "AU", "name": "GLENGARRY SC", "phone": "1300 626 367", "website": "https://www.nandos.com.au/restaurants/wa/glengarry-sc", "brand": "Nando's", "brand:wikidata": "Q3472954"}, "geometry": {"type": "Point", "coordinates": [115.783361, -31.834256]}},
{"type": "Feature", "id": "hBN14fHjdZEbNmxYk0k59NR8DUQ=", "properties": {"ref": "35", "@spider": "nandos_au", "addr:full": "500 Chapel St", "addr:city": "South Yarra", "addr:state": "VIC", "addr:postcode": "3141", "addr:country": "AU", "name": "JAM FACTORY", "phone": "1300 626 367", "website": "https://www.nandos.com.au/restaurants/vic/jam-factory", "brand": "Nando's", "brand:wikidata": "Q3472954"}, "geometry": {"type": "Point", "coordinates": [144.996205, -37.842743]}},
{"type": "Feature", "id": "c71zkD3DmhH7OLccSmDOqcX-uw8=", "properties": {"ref": "36", "@spider": "nandos_au", "addr:full": "Shop 17/161 Altone Road", "addr:city": "Beechboro", "addr:state": "WA", "addr:postcode": "6063", "addr:country": "AU", "name": "BEECHBORO", "phone": "1300 626 367", "website": "https://www.nandos.com.au/restaurants/wa/beechboro", "brand": "Nando's", "brand:wikidata": "Q3472954"}, "geometry": {"type": "Point", "coordinates": [115.945068, -31.87056]}}]}