{"type":"FeatureCollection","features":[{"type": "Feature", "id": "SmC-mYy8-m7GgVT8HJAjh76Q6Io=", "properties": {"ref": "813132", "@spider": "ncp", "addr:full": "New Southgate, off Thornton Road", "addr:city": "Bradford", "addr:postcode": "BD1  2AP", "addr:country": "United Kingdom", "name": "Bradford Southgate", "website": "https://www.ncp.co.uk/find-a-car-park/car-parks/bradford-southgate/", "opening_hours": "Mo-Su 06:00-24:00;", "brand": "NCP"}, "geometry": {"type": "Point", "coordinates": [-1.75831, 53.79354]}},
{"type": "Feature", "id": "AbE6S2MAydnz931WBJmHCx3ANEo=", "properties": {"ref": "125101", "@spider": "ncp", "addr:full": "20 Stanhope Street", "addr:postcode": "NE4  6BH", "addr:country": "United Kingdom", "name": "Newcastle Stanhope Street", "website": "https://www.ncp.co.uk/find-a-car-park/car-parks/newcastle-stanhope-street/", "opening_hours": "Mo-Su 24 Hr", "brand": "NCP"}, "geometry": {"type": "Point", "coordinates": [-1.62906, 54.97534]}},
{"type": "Feature", "id": "dgld3vRlbJCecoRFCsXbyRpyWSw=", "properties": {"ref": "811533", "@spider": "ncp", "addr:full": "St Edmund St", "addr:city": "Bolton", "addr:postcode": "BL1  2JR", "addr:country": "United Kingdom", "name": "Bolton St Edmund Street", "phone": "03450507080", "website": "https://www.ncp.co.uk/find-a-car-park/car-parks/bolton-st-edmund-street/", "opening_hours": "Mo-Su 24 Hr;", "brand": "NCP"}, "geometry": {"type": "Point", "coordinates": [-2.43401, 53.57914]}},
{"type": "Feature", "id": "HLRkes1dS_8F4-1SPIR10ESGlvc=", "properties": {"ref": "876352", "@spider": "ncp", "addr:full": "Velocity Village, Solly Street", "addr:city": "Sheffield", "addr:postcode": "S1  4DE", "addr:country": "United Kingdom", "name": "Sheffield Solly Street", "phone": "03450507080", "website": "https://www.ncp.co.uk/find-a-car-park/car-parks/sheffield-solly-street/", "opening_hours": "Mo-Su 24 Hr;", "brand": "NCP"}, "geometry": {"type": "Point", "coordinates": [-1.47312, 53.38466]}},
{"type": "Feature", "id": "xqu4xTl_gE09GLFY5PgbQQqyYiw=", "properties": {"ref": "675151", "@spider": "ncp", "addr:full": "St Marks Place, Lombard Street", "addr:city": "Newark", "addr:postcode": "NG24  1XT", "addr:country": "United Kingdom", "name": "Newark St Marks Place", "phone": "01636679437", "website": "https://www.ncp.co.uk/find-a-car-park/car-parks/newark-st-marks-place/", "opening_hours": "Mo-Su 24 Hr", "brand": "NCP"}, "geometry": {"type": "Point", "coordinates": [-0.81122, 53.07504]}},
{"type": "Feature", "id": "j1i4tdR4-cw-pUbOizM09Q20ZT4=", "properties": {"ref": "650522", "@spider": "ncp", "addr:full": "Rutland Centre P&D car park, NCP Rutland Centre, 56 Halford Street", "addr:city": "Leicester", "addr:postcode": "LE1  1UT", "addr:country": "United Kingdom", "name": "Leicester Rutland Centre - P&D", "phone": "07825364231", "website": "https://www.ncp.co.uk/find-a-car-park/car-parks/leicester-rutland-centre-pd/", "opening_hours": "Mo-Su 24 Hr;", "brand": "NCP"}, "geometry": {"type": "Point", "coordinates": [-1.12827, 52.63515]}},
{"type": "Feature", "id": "fw9BTbJTYSbiawxBkMjGRcnbI3o=", "properties": {"ref": "817413", "@spider": "ncp", "addr:full": "Browns Yard, Bold Place, York Street", "addr:city": "Chester", "addr:postcode": "CH1  3LY", "addr:country": "United Kingdom", "name": "Chester Browns Yard", "phone": "01244345025", "website": "https://www.ncp.co.uk/find-a-car-park/car-parks/chester-browns-yard/", "opening_hours": "Mo-Su 24 Hr;", "brand": "NCP"}, "geometry": {"type": "Point", "coordinates": [-2.8848, 53.19228]}},
{"type": "Feature", "id": "uaYloHCEu34e5G-V32ugE5JiWVY=", "properties": {"ref": "124903", "@spider": "ncp", "addr:full": "Boltons Court, Preston", "addr:postcode": "PR1  3XE", "addr:country": "United Kingdom", "name": "Preston Boltons Court", "phone": "03450507080", "website": "https://www.ncp.co.uk/find-a-car-park/car-parks/preston-boltons-court/", "opening_hours": "Mo-Su 24 Hr", "brand": "NCP"}, "geometry": {"type": "Point", "coordinates": [-2.69653, 53.75775]}},
{"type": "Feature", "id": "BqTBQgjKm7NBbA34JBcwBmTmHdY=", "properties": {"ref": "842141", "@spider": "ncp", "addr:full": "Wellington Place", "addr:city": "Leeds", "addr:postcode": "LS1  4AJ", "addr:country": "United Kingdom", "name": "Leeds Wellington Place", "phone": "01132468279", "website": "https://www.ncp.co.uk/find-a-car-park/car-parks/leeds-wellington-place/", "opening_hours": "Mo-Su 24 Hr;", "brand": "NCP"}, "geometry": {"type": "Point", "coordinates": [-1.5586, 53.79625]}},
{"type": "Feature", "id": "s-rJmacvzGb5B2xZDqJKcgyIvOM=", "properties": {"ref": "856132", "@spider": "ncp", "addr:full": "Stanley St", "addr:city": "Salford", "addr:postcode": "M3  5EX", "addr:country": "United Kingdom", "name": "Salford Stanley Street Manchester", "website": "https://www.ncp.co.uk/find-a-car-park/car-parks/salford-stanley-street-car-park/", "opening_hours": "Mo-Su 24 Hr;", "brand": "NCP"}, "geometry": {"type": "Point", "coordinates": [-2.25764, 53.48069]}},
{"type": "Feature", "id": "avDsCll87z_m1G74XuMuCX9tLpw=", "properties": {"ref": "124104", "@spider": "ncp", "addr:full": "Highfield Street", "addr:city": "Liverpool", "addr:postcode": "L3  6AD", "addr:country": "United Kingdom", "name": "Liverpool Highfield Street", "phone": "03450507090", "website": "https://www.ncp.co.uk/find-a-car-park/car-parks/liverpool-highfield-street/", "opening_hours": "Mo-Su 24 Hr", "brand": "NCP"}, "geometry": {"type": "Point", "coordinates": [-2.98987, 53.41056]}},
{"type": "Feature", "id": "Cjwco-OZMno9sXrSFOZBKyky81U=", "properties": {"ref": "897131", "@spider": "ncp", "addr:full": "Tanner Row, George Hudson Street", "addr:city": "York", "addr:postcode": "YO1  6JL", "addr:country": "United Kingdom", "name": "York Tanner Row", "phone": "01904638163", "website": "https://www.ncp.co.uk/find-a-car-park/car-parks/york-tanner-row/", "opening_hours": "Mo-Su 24 Hr;", "brand": "NCP"}, "geometry": {"type": "Point", "coordinates": [-1.0882, 53.9582]}},
{"type": "Feature", "id": "67f9qaTO-zb_IbddH83Fna9Jql4=", "properties": {"ref": "897512", "@spider": "ncp", "addr:full": "24 Queen Street", "addr:city": "York", "addr:postcode": "YO24  1AD", "addr:country": "United Kingdom", "name": "York Station South", "phone": "01904613528", "website": "https://www.ncp.co.uk/find-a-car-park/car-parks/york-queen-street/", "opening_hours": "Mo-Su 24 Hr;", "brand": "NCP"}, "geometry": {"type": "Point", "coordinates": [-1.09377, 53.95575]}},
{"type": "Feature", "id": "aXurUf_MPmgJNkzeoYwe1_3yozY=", "properties": {"ref": "695511", "@spider": "ncp", "addr:full": "Steep Hill", "addr:city": "Lincoln", "addr:postcode": "LN1  1ES", "addr:country": "United Kingdom", "name": "Lincoln Steep Hill", "phone": "01522522073", "website": "https://www.ncp.co.uk/find-a-car-park/car-parks/lincoln-steep-hill/", "opening_hours": "Mo-Su 24 Hr;", "brand": "NCP"}, "geometry": {"type": "Point", "coordinates": [-0.54064, 53.23133]}},
{"type": "Feature", "id": "9VaN_n_9MCeK1St_kAc2HkmwXjo=", "properties": {"ref": "122701", "@spider": "ncp", "addr:full": "Butts Arena, Windsor Street", "addr:city": "Coventry", "addr:postcode": "CV1  3HH", "addr:country": "United Kingdom", "name": "Coventry Butts Arena", "website": "https://www.ncp.co.uk/find-a-car-park/car-parks/coventry-butts-arena/", "opening_hours": "Mo-Su 24 Hr", "brand": "NCP"}, "geometry": {"type": "Point", "coordinates": [-1.52344, 52.40712]}},
{"type": "Feature", "id": "9y1OcPgXq8stpJxm0fq1FywtF0w=", "properties": {"ref": "695536", "@spider": "ncp", "addr:full": "Motherby lane", "addr:city": "Lincoln", "addr:postcode": "LN1  1EX", "addr:country": "United Kingdom", "name": "Lincoln Motherby Lane", "phone": "03450507080", "website": "https://www.ncp.co.uk/find-a-car-park/car-parks/lincoln-motherby-lane/", "opening_hours": "Mo-Su 24 Hr;", "brand": "NCP"}, "geometry": {"type": "Point", "coordinates": [-0.54137, 53.23142]}},
{"type": "Feature", "id": "6egvp2c8JrVHi8AvY_UPeMc3JNQ=", "properties": {"ref": "695513", "@spider": "ncp", "addr:full": "Brayford Street", "addr:city": "Lincoln", "addr:postcode": "LN5  7BJ", "addr:country": "United Kingdom", "name": "Lincoln Brayford Street", "website": "https://www.ncp.co.uk/find-a-car-park/car-parks/lincoln-brayford-street/", "opening_hours": "Mo-Su 24 Hr;", "brand": "NCP"}, "geometry": {"type": "Point", "coordinates": [-0.54299, 53.22754]}},
{"type": "Feature", "id": "q-5GfJ9dxgXygiNrIKVla8J57NI=", "properties": {"ref": "700133", "@spider": "ncp", "addr:full": "Montgomery Street", "addr:city": "Belfast", "addr:postcode": "BT1  4NX", "addr:country": "United Kingdom", "name": "Belfast Montgomery Street", "phone": "02890238951", "website": "https://www.ncp.co.uk/find-a-car-park/car-parks/belfast-montgomery-street/", "opening_hours": "Mo-Sa 07:00-22:00; Su 10:00-22:00.", "brand": "NCP"}, "geometry": {"type": "Point", "coordinates": [-5.92659, 54.59691]}},
{"type": "Feature", "id": "etXRFOe_I37H29CnQOlg06EvLy0=", "properties": {"ref": "124205", "@spider": "ncp", "addr:full": "Brook Street", "addr:postcode": "DE1  3PF", "addr:country": "United Kingdom", "name": "Derby Brook Street 2", "website": "https://www.ncp.co.uk/find-a-car-park/car-parks/derby-brook-street-2/", "opening_hours": "Mo-Su 24 Hr", "brand": "NCP"}, "geometry": {"type": "Point", "coordinates": [-1.48381, 52.92583]}},
{"type": "Feature", "id": "SbJ0PtzryMv48MwQUv3zTG5njPc=", "properties": {"ref": "700134", "@spider": "ncp", "addr:full": "1 Francis Street", "addr:city": "Belfast", "addr:postcode": "BT1  1EJ", "addr:country": "United Kingdom", "name": "Belfast The Tannery", "website": "https://www.ncp.co.uk/find-a-car-park/car-parks/belfast-the-tannery/", "opening_hours": "Mo-Su 24 Hr;", "brand": "NCP"}, "geometry": {"type": "Point", "coordinates": [-5.93509, 54.60025]}},
{"type": "Feature", "id": "gtSsRTw0gi8zrjIZaEXbOZnK9e8=", "properties": {"ref": "390556", "@spider": "ncp", "addr:full": "Norwich Station, Station Approach", "addr:city": "Norwich", "addr:postcode": "NR1  1EF", "addr:country": "United Kingdom", "name": "Norwich Station Forecourt (Greater Anglia)", "website": "https://www.ncp.co.uk/find-a-car-park/car-parks/norwich-stn-forecourt-g-anglia/", "opening_hours": "Mo-Su 24 Hr;", "brand": "NCP"}, "geometry": {"type": "Point", "coordinates": [1.30569, 52.62632]}},
{"type": "Feature", "id": "rvVIElsQHmMxJ9_dgyhw7rYMoXQ=", "properties": {"ref": "700151", "@spider": "ncp", "addr:full": "NCP City Quays, Belfast City Quays, Belfast Harbour Clarendon Road", "addr:city": "Belfast", "addr:postcode": "BT1  3YD", "addr:country": "United Kingdom", "name": "Belfast City Quays", "website": "https://www.ncp.co.uk/find-a-car-park/car-parks/belfast-city-quays/", "opening_hours": "Mo-Su 24 Hr;", "brand": "NCP"}, "geometry": {"type": "Point", "coordinates": [-5.92039, 54.60557]}},
{"type": "Feature", "id": "FlfkTLvcCYZFQyqg1fS4KPm5LC0=", "properties": {"ref": "700111", "@spider": "ncp", "addr:full": "Dublin Road, 1 Hardcastle Street", "addr:city": "Belfast", "addr:postcode": "BT7  1GG", "addr:country": "United Kingdom", "name": "Belfast Dublin Road", "phone": "02890235832", "website": "https://www.ncp.co.uk/find-a-car-park/car-parks/belfast-dublin-road/", "opening_hours": "Mo-Sa 07:00-24:00; Su 09:00-24:00.", "brand": "NCP"}, "geometry": {"type": "Point", "coordinates": [-5.93082, 54.59192]}},
{"type": "Feature", "id": "Mq4cQsxMLqYJ9k8lZWbnfB-snAQ=", "properties": {"ref": "124204", "@spider": "ncp", "addr:full": "Brook Street", "addr:postcode": "DE1  3PF", "addr:country": "United Kingdom", "name": "Derby Brook Street 1", "website": "https://www.ncp.co.uk/find-a-car-park/car-parks/derby-brook-street-1/", "opening_hours": "Mo-Su 24 Hr", "brand": "NCP"}, "geometry": {"type": "Point", "coordinates": [-1.48369, 52.92592]}},
{"type": "Feature", "id": "4pfu6Mv56eL5lFro6JwSg5bxtwU=", "properties": {"ref": "800308", "@spider": "ncp", "addr:full": "Liversage Street", "addr:city": "Derby", "addr:postcode": "DE1  2LD", "addr:country": "United Kingdom", "name": "Derby Liversage Street", "phone": "07825364212", "website": "https://www.ncp.co.uk/find-a-car-park/car-parks/derby-liversage-street/", "opening_hours": "Mo-Su 24 Hr;", "brand": "NCP"}, "geometry": {"type": "Point", "coordinates": [-1.46852, 52.91842]}},
{"type": "Feature", "id": "PDOLTEP0ljQgeGCThhb8lKflV0o=", "properties": {"ref": "695411", "@spider": "ncp", "addr:full": "St Rumbold Street", "addr:city": "Lincoln", "addr:postcode": "LN2  5AP", "addr:country": "United Kingdom", "name": "Lincoln St Rumbold Street", "phone": "03450507080", "website": "https://www.ncp.co.uk/find-a-car-park/car-parks/lincoln-st-rumbold-street/", "opening_hours": "Mo-Su 24 Hr;", "brand": "NCP"}, "geometry": {"type": "Point", "coordinates": [-0.53474, 53.22904]}},
{"type": "Feature", "id": "1MKy8mUaIK34YhY1y-gX6gAoACM=", "properties": {"ref": "695131", "@spider": "ncp", "addr:full": "High Street MSCP, Brayford Street", "addr:city": "Lincoln", "addr:postcode": "LN5  7BJ", "addr:country": "United Kingdom", "name": "Lincoln High Street", "phone": "01522522073", "website": "https://www.ncp.co.uk/find-a-car-park/car-parks/lincoln-high-street/", "opening_hours": "Mo-Su 24 Hr;", "brand": "NCP"}, "geometry": {"type": "Point", "coordinates": [-0.54266, 53.22724]}},
{"type": "Feature", "id": "3IeKvMEudStUQVi1vrlHxdPOkuA=", "properties": {"ref": "660431", "@spider": "ncp", "addr:full": "Becketwell Lane, Colyear Street", "addr:city": "Derby", "addr:postcode": "DE1  1JW", "addr:country": "United Kingdom", "name": "Derby St Peters Courtyard", "phone": "07825364212", "website": "https://www.ncp.co.uk/find-a-car-park/car-parks/derby-becketwell-lane/", "opening_hours": "Mo-Su 24 Hr;", "brand": "NCP"}, "geometry": {"type": "Point", "coordinates": [-1.47897, 52.92097]}},
{"type": "Feature", "id": "aZtssj4edpEAII5Rg9rPnuyZlU0=", "properties": {"ref": "124202", "@spider": "ncp", "addr:full": "NCP Babington, Babington Lane", "addr:city": "Derby", "addr:postcode": "DE1  1TE", "addr:country": "United Kingdom", "name": "Derby Babington Lane", "website": "https://www.ncp.co.uk/find-a-car-park/car-parks/derby-babington-lane-ukt/", "opening_hours": "Mo-Su 24 Hr", "brand": "NCP"}, "geometry": {"type": "Point", "coordinates": [-1.4771, 52.91796]}},
{"type": "Feature", "id": "TKkC4uMk8SNZwuGy1HHJm5DYB4E=", "properties": {"ref": "124201", "@spider": "ncp", "addr:full": "36 Agard Street, Derby, Derbyshire", "addr:postcode": "DE1  1DZ", "addr:country": "United Kingdom", "name": "Derby Agard Street", "phone": "03450507080", "website": "https://www.ncp.co.uk/find-a-car-park/car-parks/derby-agard-street-ukt/", "opening_hours": "Mo-Su 24 Hr", "brand": "NCP"}, "geometry": {"type": "Point", "coordinates": [-1.48674, 52.92522]}},
{"type": "Feature", "id": "LzuHuf-zncMi68FOxaG-iNY_AnQ=", "properties": {"ref": "650521", "@spider": "ncp", "addr:full": "Leicester Lee Circle P&D car park, NCP Lee Circle", "addr:city": "Leicester", "addr:postcode": "LE1  3RE", "addr:country": "United Kingdom", "name": "Leicester Lee Circle - P&D", "phone": "07825364231", "website": "https://www.ncp.co.uk/find-a-car-park/car-parks/leicester-lee-circle-pd/", "opening_hours": "Mo-Su 24 Hr;", "brand": "NCP"}, "geometry": {"type": "Point", "coordinates": [-1.12863, 52.63864]}},
{"type": "Feature", "id": "ETKYr-xxHs7a9YQ-LIjgqixMswc=", "properties": {"ref": "650131", "@spider": "ncp", "addr:full": "Ringway Hill Cross", "addr:city": "Coventry", "addr:postcode": "CV1  4AJ", "addr:country": "United Kingdom", "name": "Coventry Belgrade Plaza", "phone": "03450507080", "website": "https://www.ncp.co.uk/find-a-car-park/car-parks/coventry-belgrade-plaza/", "opening_hours": "Mo-Su 24 Hr;", "brand": "NCP"}, "geometry": {"type": "Point", "coordinates": [-1.51627, 52.41049]}},
{"type": "Feature", "id": "WbAjOO_FOUM58Db94fOoyAaX134=", "properties": {"ref": "390131", "@spider": "ncp", "addr:full": "St Stephens, 12 Queens Road", "addr:city": "Norwich", "addr:postcode": "NR1  3PR", "addr:country": "United Kingdom", "name": "Norwich St Stephens Street", "phone": "01603626083", "website": "https://www.ncp.co.uk/find-a-car-park/car-parks/norwich-st-stephens-street/", "opening_hours": "Mo-Su 06:00-21:00", "brand": "NCP"}, "geometry": {"type": "Point", "coordinates": [1.29167, 52.62387]}},
{"type": "Feature", "id": "NoBEu-bFioT1uhEignHoxBUANQE=", "properties": {"ref": "650112", "@spider": "ncp", "addr:full": "Rutland Centre, 56 Halford Street", "addr:city": "Leicester", "addr:postcode": "LE1  1UT", "addr:country": "United Kingdom", "name": "Leicester Rutland Centre", "phone": "07825364231", "website": "https://www.ncp.co.uk/find-a-car-park/car-parks/leicester-rutland-centre/", "opening_hours": "Mo-Su 24 Hr;", "brand": "NCP"}, "geometry": {"type": "Point", "coordinates": [-1.12799, 52.63504]}},
{"type": "Feature", "id": "ilLweoW-gmSMi1MOnJyWxw4P2F4=", "properties": {"ref": "660523", "@spider": "ncp", "addr:full": "National Car Parks, Siddals Road, Derby", "addr:postcode": "DE1  2QD", "addr:country": "United Kingdom", "name": "Derby Siddals Road", "phone": "03450507080", "website": "https://www.ncp.co.uk/find-a-car-park/car-parks/derby-siddals-road1/", "opening_hours": "Mo-Su 24 Hr;", "brand": "NCP"}, "geometry": {"type": "Point", "coordinates": [-1.46947, 52.92036]}},
{"type": "Feature", "id": "bf9dE3JyyuIl-_ug2MfV6lWDxwc=", "properties": {"ref": "650117", "@spider": "ncp", "addr:full": "Welford Road", "addr:city": "Leicester", "addr:postcode": "LE1  6WB", "addr:country": "United Kingdom", "name": "Leicester Welford Road", "phone": "07825364231", "website": "https://www.ncp.co.uk/find-a-car-park/car-parks/leicester-welford-road/", "opening_hours": "Mo-Su 24 Hr;", "brand": "NCP"}, "geometry": {"type": "Point", "coordinates": [-1.13266, 52.62998]}},
{"type": "Feature", "id": "TdfHiXJn94R9mTSjXlRyDtInFGA=", "properties": {"ref": "650111", "@spider": "ncp", "addr:full": "Lee Circle", "addr:city": "Leicester", "addr:postcode": "LE1  3RE", "addr:country": "United Kingdom", "name": "Leicester Lee Circle", "phone": "07825364231", "website": "https://www.ncp.co.uk/find-a-car-park/car-parks/leicester-lee-circle/", "opening_hours": "Mo-Su 24 Hr;", "brand": "NCP"}, "geometry": {"type": "Point", "coordinates": [-1.12863, 52.63874]}},
{"type": "Feature", "id": "i4-99uKtokmAnlajBOdUqlZYGK4=", "properties": {"ref": "650116", "@spider": "ncp", "addr:full": "St Nicholas Circle", "addr:city": "Leicester", "addr:postcode": "LE1  4LF", "addr:country": "United Kingdom", "name": "Leicester St Nicholas Circle", "phone": "07825364231", "website": "https://www.ncp.co.uk/find-a-car-park/car-parks/leicester-st-nicholas-circle/", "opening_hours": "Mo-Su 24 Hr", "brand": "NCP"}, "geometry": {"type": "Point", "coordinates": [-1.14115, 52.6344]}},
{"type": "Feature", "id": "Iwxf3anDWFsjH3vys5nsCmRnCpM=", "properties": {"ref": "124203", "@spider": "ncp", "addr:full": "Agard Street", "addr:postcode": "DE1  1DZ", "addr:country": "United Kingdom", "name": "Derby Agard Street East", "website": "https://www.ncp.co.uk/find-a-car-park/car-parks/derby-agard-street-east/", "opening_hours": "Mo-Su 24 Hr", "brand": "NCP"}, "geometry": {"type": "Point", "coordinates": [-1.48467, 52.92478]}},
{"type": "Feature", "id": "SgVnyVyZUL7-GKd1CB0jqe9MKnY=", "properties": {"ref": "675152", "@spider": "ncp", "addr:full": "Newark Northgate Rail Station, Appletongate", "addr:city": "Newark", "addr:postcode": "NG24  1LS", "addr:country": "United Kingdom", "name": "Newark Northgate Rail Station", "phone": "02075101635", "website": "https://www.ncp.co.uk/find-a-car-park/car-parks/newark-northgate-rail-stn/", "opening_hours": "Mo-Su 24 Hr;", "brand": "NCP"}, "geometry": {"type": "Point", "coordinates": [-0.80057, 53.08172]}},
{"type": "Feature", "id": "lULV90RQbUVIDIv5UeQBWp1nju8=", "properties": {"ref": "842134", "@spider": "ncp", "addr:full": "Schofields, Albion Street", "addr:city": "Leeds", "addr:postcode": "LS1  6AD", "addr:country": "United Kingdom", "name": "Leeds The Core", "phone": "01132457293", "website": "https://www.ncp.co.uk/find-a-car-park/car-parks/leeds-schofields/", "opening_hours": "Mo-Su 06:00-24:00;", "brand": "NCP"}, "geometry": {"type": "Point", "coordinates": [-1.54492, 53.79833]}},
{"type": "Feature", "id": "oW--GNbSbn0TGRKBgxa64DvWFtU=", "properties": {"ref": "650114", "@spider": "ncp", "addr:full": "Abbey Street, off Garden Street", "addr:city": "Leicester", "addr:postcode": "LE1  3UA", "addr:country": "United Kingdom", "name": "Leicester Abbey Street", "phone": "07825364231", "website": "https://www.ncp.co.uk/find-a-car-park/car-parks/leicester-abbey-street/", "opening_hours": "Mo-Su 24 Hr;", "brand": "NCP"}, "geometry": {"type": "Point", "coordinates": [-1.13192, 52.641]}},
{"type": "Feature", "id": "DoiezkR-XUHKgzDR_fRLCWmhm9Y=", "properties": {"ref": "842121", "@spider": "ncp", "addr:full": "The Markets", "addr:city": "Leeds", "addr:postcode": "LS2  7EA", "addr:country": "United Kingdom", "name": "Leeds The Markets", "phone": "01132469636", "website": "https://www.ncp.co.uk/find-a-car-park/car-parks/leeds-the-markets/", "opening_hours": "Mo-Su 06:00-23:00;", "brand": "NCP"}, "geometry": {"type": "Point", "coordinates": [-1.5368, 53.7966]}},
{"type": "Feature", "id": "1Pb9QjMorefqG5-tPPLCpVb_q3I=", "properties": {"ref": "858011", "@spider": "ncp", "addr:full": "Sackville Street, off Bloom Street", "addr:city": "Manchester", "addr:postcode": "M1  3LY", "addr:country": "United Kingdom", "name": "Manchester Sackville Street", "phone": "01612282715", "website": "https://www.ncp.co.uk/find-a-car-park/car-parks/manchester-sackville-street/", "opening_hours": "Mo-Su 24 Hr", "brand": "NCP"}, "geometry": {"type": "Point", "coordinates": [-2.23813, 53.47704]}},
{"type": "Feature", "id": "gSBRtY2M5KhcBPTn29beg0pPti4=", "properties": {"ref": "855531", "@spider": "ncp", "addr:full": "Store Street", "addr:city": "Manchester", "addr:postcode": "M1  2WD", "addr:country": "United Kingdom", "name": "Manchester Store Street", "phone": "03450507080", "website": "https://www.ncp.co.uk/find-a-car-park/car-parks/manchester-store-street/", "opening_hours": "Mo-Su 24 Hr;", "brand": "NCP"}, "geometry": {"type": "Point", "coordinates": [-2.23008, 53.47887]}},
{"type": "Feature", "id": "WevvjwaQhy4qEoN48cQOokhg4tw=", "properties": {"ref": "695531", "@spider": "ncp", "addr:full": "Central, Free School Lane", "addr:city": "Lincoln", "addr:postcode": "LN2  1EY", "addr:country": "United Kingdom", "name": "Lincoln Central", "website": "https://www.ncp.co.uk/find-a-car-park/car-parks/lincoln-central/", "opening_hours": "Mo-Su 24 Hr;", "brand": "NCP"}, "geometry": {"type": "Point", "coordinates": [-0.53755, 53.22994]}},
{"type": "Feature", "id": "yGXdqwnUrbI2fqCKuk5c29pLQIk=", "properties": {"ref": "858012", "@spider": "ncp", "addr:full": "Spinningfields, New Quay Street", "addr:city": "Manchester", "addr:postcode": "M3  3BE", "addr:country": "United Kingdom", "name": "Manchester Spinningfields", "website": "https://www.ncp.co.uk/find-a-car-park/car-parks/manchester-spinningfields/", "opening_hours": "Mo-Su 24 Hr", "brand": "NCP"}, "geometry": {"type": "Point", "coordinates": [-2.25531, 53.48009]}},
{"type": "Feature", "id": "30-AEpUz3cR5fXtH62mkwGVK96Y=", "properties": {"ref": "858013", "@spider": "ncp", "addr:full": "Piccadilly Plaza, New York Street", "addr:city": "Manchester", "addr:postcode": "M1  4AJ", "addr:country": "United Kingdom", "name": "Manchester Piccadilly Plaza", "phone": "01612362734", "website": "https://www.ncp.co.uk/find-a-car-park/car-parks/manchester-piccadilly-plaza/", "opening_hours": "Mo-Su 06:00-23:00", "brand": "NCP"}, "geometry": {"type": "Point", "coordinates": [-2.238, 53.47957]}},
{"type": "Feature", "id": "fzuvHAkYvK2ZnoiiEdIqjTturIQ=", "properties": {"ref": "856131", "@spider": "ncp", "addr:full": "New Bailey MSCP, Irwell Street", "addr:city": "Salford", "addr:postcode": "M3  5EN", "addr:country": "United Kingdom", "name": "Salford New Bailey", "phone": "03450507080", "website": "https://www.ncp.co.uk/find-a-car-park/car-parks/salford-new-bailey/", "opening_hours": "Mo-Su 24 Hr;", "brand": "NCP"}, "geometry": {"type": "Point", "coordinates": [-2.2546, 53.48235]}},
{"type": "Feature", "id": "AgFcFMiZ3ttQJbrvkAqSqHylLZU=", "properties": {"ref": "650113", "@spider": "ncp", "addr:full": "East Street", "addr:city": "Leicester", "addr:postcode": "LE1  6NB", "addr:country": "United Kingdom", "name": "Leicester East Street", "phone": "07825364231", "website": "https://www.ncp.co.uk/find-a-car-park/car-parks/leicester-east-street/", "opening_hours": "Mo-Su 24 Hr;", "brand": "NCP"}, "geometry": {"type": "Point", "coordinates": [-1.12724, 52.63132]}},
{"type": "Feature", "id": "O9LtVmesVDRzEu9CiZNhtbZTC2I=", "properties": {"ref": "858007", "@spider": "ncp", "addr:full": "Palace, Whitworth Street", "addr:city": "Manchester", "addr:postcode": "M1  6NE", "addr:country": "United Kingdom", "name": "Manchester Palace", "website": "https://www.ncp.co.uk/find-a-car-park/car-parks/manchester-palace/", "opening_hours": "Mo-Su 24 Hr", "brand": "NCP"}, "geometry": {"type": "Point", "coordinates": [-2.23975, 53.47543]}},
{"type": "Feature", "id": "b1UWlKCduZvB4Qq-dyB8BUwzzfo=", "properties": {"ref": "124801", "@spider": "ncp", "addr:full": "Jersey Street, Manchester", "addr:postcode": "M4  6HB", "addr:country": "United Kingdom", "name": "Manchester Jersey Street", "website": "https://www.ncp.co.uk/find-a-car-park/car-parks/manchester-jersey-street-ukt/", "opening_hours": "Mo-Su 24 Hr", "brand": "NCP"}, "geometry": {"type": "Point", "coordinates": [-2.22305, 53.4859]}},
{"type": "Feature", "id": "BaBZ-FhMj8T49Nj5deK-thBsu4U=", "properties": {"ref": "858005", "@spider": "ncp", "addr:full": "GT Northern Warehouse 2, Watson Street", "addr:city": "Manchester", "addr:postcode": "M3  4EE", "addr:country": "United Kingdom", "name": "Manchester Gt Northern Warehouse 2", "phone": "01618341740", "website": "https://www.ncp.co.uk/find-a-car-park/car-parks/manchester-gt-northern-warehouse-2-/", "opening_hours": "Mo-Su 24 Hr", "brand": "NCP"}, "geometry": {"type": "Point", "coordinates": [-2.24942, 53.47672]}},
{"type": "Feature", "id": "lCw3ZIAG5WwhZv5KPtpug05zzR8=", "properties": {"ref": "858002", "@spider": "ncp", "addr:full": "Chorlton Street", "addr:city": "Manchester", "addr:postcode": "M1  3FY", "addr:country": "United Kingdom", "name": "Manchester Chorlton Street", "website": "https://www.ncp.co.uk/find-a-car-park/car-parks/manchester-chorlton-street/", "opening_hours": "Mo-Su 24 Hr", "brand": "NCP"}, "geometry": {"type": "Point", "coordinates": [-2.23675, 53.47805]}},
{"type": "Feature", "id": "a2lTlWq300xocfzFldgJLtWgPzM=", "properties": {"ref": "124804", "@spider": "ncp", "addr:full": "Park Street", "addr:city": "Manchester", "addr:postcode": "M3  1EU", "addr:country": "United Kingdom", "name": "Manchester Park Street", "website": "https://www.ncp.co.uk/find-a-car-park/car-parks/manchester-park-street/", "opening_hours": "Mo-Su 24 Hr", "brand": "NCP"}, "geometry": {"type": "Point", "coordinates": [-2.24301, 53.48964]}},
{"type": "Feature", "id": "FVP0AFvUfz1AivyjkWsiiK0VaLI=", "properties": {"ref": "858009", "@spider": "ncp", "addr:full": "Port Street, Dean Street", "addr:city": "Manchester", "addr:postcode": "M1  2EG", "addr:country": "United Kingdom", "name": "Manchester Port Street", "website": "https://www.ncp.co.uk/find-a-car-park/car-parks/manchester-port-street/", "opening_hours": "Mo-Su 24 Hr", "brand": "NCP"}, "geometry": {"type": "Point", "coordinates": [-2.23155, 53.4821]}},
{"type": "Feature", "id": "kiD96S47lrTiFBh7VzQ1aBDBcAg=", "properties": {"ref": "858001", "@spider": "ncp", "addr:full": "Chester Street", "addr:city": "Manchester", "addr:postcode": "M1  5GE", "addr:country": "United Kingdom", "name": "Manchester Chester Street", "phone": "01612282784", "website": "https://www.ncp.co.uk/find-a-car-park/car-parks/manchester-chester-street/", "opening_hours": "Mo-Su 24 Hr", "brand": "NCP"}, "geometry": {"type": "Point", "coordinates": [-2.23986, 53.4724]}},
{"type": "Feature", "id": "OIcz5RW0xlLEtV3mbgy_6xIpZuw=", "properties": {"ref": "060022", "@spider": "ncp", "addr:full": "Circle Square, Oxford Road", "addr:city": "Manchester", "addr:postcode": "M1  7ED", "addr:country": "United Kingdom", "name": "Manchester Circle Square", "website": "https://www.ncp.co.uk/find-a-car-park/car-parks/manchester-circle-square/", "opening_hours": "Mo-Su 24 Hr", "brand": "NCP"}, "geometry": {"type": "Point", "coordinates": [-2.23596, 53.47236]}},
{"type": "Feature", "id": "S4TxLGScapPQ1iAQsPEI-bjb5V8=", "properties": {"ref": "124102", "@spider": "ncp", "addr:full": "Tithebarn Street, Liverpool", "addr:postcode": "L2  2DT", "addr:country": "United Kingdom", "name": "Liverpool Moorfields Corner", "website": "https://www.ncp.co.uk/find-a-car-park/car-parks/liverpool-moorfields-corner/", "opening_hours": "Mo-Su 24 Hr", "brand": "NCP"}, "geometry": {"type": "Point", "coordinates": [-2.99067, 53.40865]}},
{"type": "Feature", "id": "9kf_KR6XH_oYzq7zxL2Wje96SqI=", "properties": {"ref": "858004", "@spider": "ncp", "addr:full": "Gt Northern Warehouse 1, Watson Street", "addr:city": "Manchester", "addr:postcode": "M3  4EE", "addr:country": "United Kingdom", "name": "Manchester Gt Northern Warehouse 1", "phone": "01618341740", "website": "https://www.ncp.co.uk/find-a-car-park/car-parks/manchester-gt-northern-warehouse-1-/", "opening_hours": "Mo-Su 24 Hr", "brand": "NCP"}, "geometry": {"type": "Point", "coordinates": [-2.24964, 53.47689]}},
{"type": "Feature", "id": "giPWl28nItR4AbRTCtyVZXCiBjs=", "properties": {"ref": "858006", "@spider": "ncp", "addr:full": "Oxford street", "addr:city": "Manchester", "addr:postcode": "M1  5EJ", "addr:country": "United Kingdom", "name": "Manchester Oxford Street", "website": "https://www.ncp.co.uk/find-a-car-park/car-parks/manchester-oxford-street/", "opening_hours": "Mo-Su 24 Hr", "brand": "NCP"}, "geometry": {"type": "Point", "coordinates": [-2.24211, 53.47564]}},
{"type": "Feature", "id": "5dQZYA7ZJKyp_FsCv6lzAnDY18U=", "properties": {"ref": "855550", "@spider": "ncp", "addr:full": "Imperial War Museum North, Trafford Wharf Road, Traffford Park", "addr:city": "Stretford", "addr:postcode": "M17  1TZ", "addr:country": "United Kingdom", "name": "Manchester Imperial War Museum", "phone": "01618364000", "website": "https://www.ncp.co.uk/find-a-car-park/car-parks/manchester-imperial-war-museum/", "opening_hours": "Mo-Su 10:00-17:00;", "brand": "NCP"}, "geometry": {"type": "Point", "coordinates": [-2.29956, 53.47016]}},
{"type": "Feature", "id": "kSeLWAD_AfSz3kheEDZit-6EAec=", "properties": {"ref": "846516", "@spider": "ncp", "addr:full": "Pall Mall, Exchange Station", "addr:city": "Liverpool", "addr:postcode": "L3  6AL", "addr:country": "United Kingdom", "name": "Liverpool Pall Mall", "phone": "01512365738", "website": "https://www.ncp.co.uk/find-a-car-park/car-parks/liverpool-pall-mall/", "opening_hours": "Mo-Su 24 Hr;", "brand": "NCP"}, "geometry": {"type": "Point", "coordinates": [-2.99237, 53.41114]}},
{"type": "Feature", "id": "rbfCdxCJHanlf-LKLWuGBbDxT9s=", "properties": {"ref": "124103", "@spider": "ncp", "addr:full": "Tempest Hey, Liverpool", "addr:postcode": "L2  2DT", "addr:country": "United Kingdom", "name": "Liverpool Tempest Hey", "website": "https://www.ncp.co.uk/find-a-car-park/car-parks/liverpool-tempest-hey/", "opening_hours": "Mo-Su 24 Hr", "brand": "NCP"}, "geometry": {"type": "Point", "coordinates": [-2.99035, 53.40846]}},
{"type": "Feature", "id": "Kvyc0iE-Y0SIAt3E3wEy9EovVXU=", "properties": {"ref": "846531", "@spider": "ncp", "addr:full": "69 Tithebarn Street", "addr:city": "Liverpool", "addr:postcode": "L2  2EE", "addr:country": "United Kingdom", "name": "Liverpool Tithebarn Street", "phone": "03450507080", "website": "https://www.ncp.co.uk/find-a-car-park/car-parks/liverpool-tithebarn-street/", "opening_hours": "Mo-Su 24 Hr;", "brand": "NCP"}, "geometry": {"type": "Point", "coordinates": [-2.98877, 53.41076]}},
{"type": "Feature", "id": "dnpwkgFufTT2NmB_H4E9azHFV4M=", "properties": {"ref": "846419", "@spider": "ncp", "addr:full": "Smithfield, Smithfield Street", "addr:city": "Liverpool", "addr:postcode": "L3  6AF", "addr:country": "United Kingdom", "name": "Liverpool Smithfield", "phone": "01512366065", "website": "https://www.ncp.co.uk/find-a-car-park/car-parks/liverpool-smithfield/", "opening_hours": "Mo-Su 24 Hr;", "brand": "NCP"}, "geometry": {"type": "Point", "coordinates": [-2.9892, 53.41051]}},
{"type": "Feature", "id": "zWSnDT9UvkFiihnhiWe0g4cZRVc=", "properties": {"ref": "846517", "@spider": "ncp", "addr:full": "The Arches, Pall Mall", "addr:city": "Liverpool", "addr:postcode": "L3  6AL", "addr:country": "United Kingdom", "name": "Liverpool The Arches", "website": "https://www.ncp.co.uk/find-a-car-park/car-parks/liverpool-the-arches/", "opening_hours": "Mo-Fr 07:30-18:30; Sa-Su Closed", "brand": "NCP"}, "geometry": {"type": "Point", "coordinates": [-2.99239, 53.41119]}},
{"type": "Feature", "id": "ke9fSlgs_5MQihrrqXvRIUIdPKY=", "properties": {"ref": "858003", "@spider": "ncp", "addr:full": "Central, Lower Mosley Street", "addr:city": "Manchester", "addr:postcode": "M2  3GX", "addr:country": "United Kingdom", "name": "Manchester Central", "phone": "01618344668", "website": "https://www.ncp.co.uk/find-a-car-park/car-parks/manchester-central/", "opening_hours": "Mo-Su 24 Hr", "brand": "NCP"}, "geometry": {"type": "Point", "coordinates": [-2.24694, 53.47554]}},
{"type": "Feature", "id": "Ml8PSDhcrlBvAhEyCf7oL5Cn0vc=", "properties": {"ref": "124101", "@spider": "ncp", "addr:full": "Tempest Hey, Liverpool", "addr:postcode": "L2  2DT", "addr:country": "United Kingdom", "name": "Liverpool Hackins Hey", "website": "https://www.ncp.co.uk/find-a-car-park/car-parks/liverpool-hackins-hey/", "opening_hours": "Mo-Su 24 Hr", "brand": "NCP"}, "geometry": {"type": "Point", "coordinates": [-2.9903, 53.40813]}},
{"type": "Feature", "id": "AKylCjtWdkt1sf1sml87Jyk2u2I=", "properties": {"ref": "845110", "@spider": "ncp", "addr:full": "Moorfields MSCP, Vernon Street", "addr:city": "Liverpool", "addr:postcode": "L2  2AY", "addr:country": "United Kingdom", "name": "Liverpool Moorfields", "phone": "01512581390", "website": "https://www.ncp.co.uk/find-a-car-park/car-parks/liverpool-moorfields/", "opening_hours": "Mo-Su 24 Hr;", "brand": "NCP"}, "geometry": {"type": "Point", "coordinates": [-2.98855, 53.40882]}},
{"type": "Feature", "id": "AT9hjea9ZI_mJ2tJtAR6Z_82xlc=", "properties": {"ref": "846415", "@spider": "ncp", "addr:full": "Rumford Street", "addr:city": "Liverpool", "addr:postcode": "L2  8SZ", "addr:country": "United Kingdom", "name": "Liverpool Rumford Street", "phone": "01512366313", "website": "https://www.ncp.co.uk/find-a-car-park/car-parks/liverpool-rumford-street/", "opening_hours": "Mo-Su 24 Hr;", "brand": "NCP"}, "geometry": {"type": "Point", "coordinates": [-2.99331, 53.40728]}},
{"type": "Feature", "id": "qo-IoWbR7mVsb_cbUu3klPaV59A=", "properties": {"ref": "876137", "@spider": "ncp", "addr:full": "Wellington Street", "addr:city": "Sheffield", "addr:postcode": "S1  4HF", "addr:country": "United Kingdom", "name": "Sheffield Wellington Street", "phone": "01142724097", "website": "https://www.ncp.co.uk/find-a-car-park/car-parks/sheffield-wellington-street/", "opening_hours": "Mo-Sa 06:00-23:59; Su 09:30-23:59", "brand": "NCP"}, "geometry": {"type": "Point", "coordinates": [-1.47409, 53.37855]}},
{"type": "Feature", "id": "-_rlAeYRD8_LojCZB6K4kM68VjU=", "properties": {"ref": "845535", "@spider": "ncp", "addr:full": "Primrose Hill SP, off Truman Street", "addr:city": "Liverpool", "addr:postcode": "L3  2BA", "addr:country": "United Kingdom", "name": "Liverpool Primrose Hill", "website": "https://www.ncp.co.uk/find-a-car-park/car-parks/liverpool-primrose-hill/", "opening_hours": "Mo-Su 24 Hr;", "brand": "NCP"}, "geometry": {"type": "Point", "coordinates": [-2.98412, 53.41082]}},
{"type": "Feature", "id": "H4i4NE9yN7ZdmQ-QDReoHhepCmA=", "properties": {"ref": "876135", "@spider": "ncp", "addr:full": "Blonk Street", "addr:city": "Sheffield", "addr:postcode": "S1  2AB", "addr:country": "United Kingdom", "name": "Sheffield Blonk Street", "website": "https://www.ncp.co.uk/find-a-car-park/car-parks/sheffield-blonk-street/", "opening_hours": "Mo-Su 05:30-22:00;", "brand": "NCP"}, "geometry": {"type": "Point", "coordinates": [-1.46171, 53.38556]}},
{"type": "Feature", "id": "j_UMR5L6XVoa90bCgvb7StSxeDk=", "properties": {"ref": "060005", "@spider": "ncp", "addr:full": "Fazakerley Street", "addr:city": "Liverpool", "addr:postcode": "L3  9DL", "addr:country": "United Kingdom", "name": "Liverpool Capital", "phone": "01512369984", "website": "https://www.ncp.co.uk/find-a-car-park/car-parks/liverpool-capital-car-park/", "opening_hours": "Mo-Su 24 Hr;", "brand": "NCP"}, "geometry": {"type": "Point", "coordinates": [-2.9953, 53.40802]}},
{"type": "Feature", "id": "WOD-qjHxJWDP7r_nlFjUJNU0XTE=", "properties": {"ref": "876139", "@spider": "ncp", "addr:full": "Furnival Gate, Matilda Way", "addr:city": "Sheffield", "addr:postcode": "S1  4QJ", "addr:country": "United Kingdom", "name": "Sheffield Furnival Gate", "phone": "01142701895", "website": "https://www.ncp.co.uk/find-a-car-park/car-parks/sheffield-furnival-gate/", "opening_hours": "Mo-Su 06:00-24:00;", "brand": "NCP"}, "geometry": {"type": "Point", "coordinates": [-1.47142, 53.37697]}},
{"type": "Feature", "id": "BzaDfMFNEv2V-wKJwAeaMZ5tSZk=", "properties": {"ref": "811532", "@spider": "ncp", "addr:full": "St Helena Road", "addr:city": "Bolton", "addr:postcode": "BL1  2JS", "addr:country": "United Kingdom", "name": "Bolton St Helena Road", "phone": "03450507080", "website": "https://www.ncp.co.uk/find-a-car-park/car-parks/bolton-st-helena-road/", "opening_hours": "Mo-Su 24 Hr;", "brand": "NCP"}, "geometry": {"type": "Point", "coordinates": [-2.43412, 53.58044]}},
{"type": "Feature", "id": "wz__7AuqMu5SmLb_UNoXHq6QMto=", "properties": {"ref": "876412", "@spider": "ncp", "addr:full": "Sidney Street", "addr:city": "Sheffield", "addr:postcode": "S1  4RG", "addr:country": "United Kingdom", "name": "Sheffield Sidney Street", "phone": "03450507080", "website": "https://www.ncp.co.uk/find-a-car-park/car-parks/sheffield-sidney-street/", "opening_hours": "Mo-Su 24 Hr;", "brand": "NCP"}, "geometry": {"type": "Point", "coordinates": [-1.46824, 53.37602]}},
{"type": "Feature", "id": "QqBBqqa1BQgLTcFLc6FUxVEA6WU=", "properties": {"ref": "811531", "@spider": "ncp", "addr:full": "Upper Bark St", "addr:city": "Bolton", "addr:postcode": "BL1  2AX", "addr:country": "United Kingdom", "name": "Bolton Upper Bark St", "phone": "03450507080", "website": "https://www.ncp.co.uk/find-a-car-park/car-parks/bolton-upper-bark-st/", "opening_hours": "Mo-Su 24 Hr;", "brand": "NCP"}, "geometry": {"type": "Point", "coordinates": [-2.43236, 53.58115]}},
{"type": "Feature", "id": "vFnunG36iWFcB5ClpeDyEfnZxmo=", "properties": {"ref": "879130", "@spider": "ncp", "addr:full": "Hartshead Square", "addr:city": "Sheffield", "addr:postcode": "S1  2EL", "addr:country": "United Kingdom", "name": "Sheffield Hartshead Square", "phone": "01142751536", "website": "https://www.ncp.co.uk/find-a-car-park/car-parks/sheffield-hartshead-square/", "opening_hours": "Mo-Su 06:30-22:00;", "brand": "NCP"}, "geometry": {"type": "Point", "coordinates": [-1.46728, 53.38378]}},
{"type": "Feature", "id": "OL_mpH5kmC9bKLrsDp5-DB-mVlU=", "properties": {"ref": "811555", "@spider": "ncp", "addr:full": "King Street", "addr:city": "Bolton", "addr:postcode": "BL1  1BB", "addr:country": "United Kingdom", "name": "Bolton King Street", "website": "https://www.ncp.co.uk/find-a-car-park/car-parks/bolton-king-street/", "opening_hours": "Mo-Su 24 Hr;", "brand": "NCP"}, "geometry": {"type": "Point", "coordinates": [-2.43319, 53.57911]}},
{"type": "Feature", "id": "fygI5OnAG3mA-TtdPCSKUA7NsJI=", "properties": {"ref": "811574", "@spider": "ncp", "addr:full": "Octagon Theatre Multi Storey, Great Moor Street", "addr:city": "Bolton", "addr:postcode": "BL1  1SN", "addr:country": "United Kingdom", "name": "Bolton Octagon Theatre MSCP", "website": "https://www.ncp.co.uk/find-a-car-park/car-parks/bolton-octagon-theatre-mscp/", "opening_hours": "Mo-Su 06:00-24:00;", "brand": "NCP"}, "geometry": {"type": "Point", "coordinates": [-2.43007, 53.57635]}},
{"type": "Feature", "id": "fYWYOmxe4GnSYO2WnmMnGWHoDTo=", "properties": {"ref": "811546", "@spider": "ncp", "addr:full": "Breightmet Street", "addr:city": "Bolton", "addr:postcode": "BL2  1BR", "addr:country": "United Kingdom", "name": "Bolton Breightmet Street", "website": "https://www.ncp.co.uk/find-a-car-park/car-parks/bolton-breightmet-street/", "opening_hours": "Mo-Su 24 Hr;", "brand": "NCP"}, "geometry": {"type": "Point", "coordinates": [-2.42333, 53.57732]}},
{"type": "Feature", "id": "C73YhNLJ0jxDzYWNFg9tVe6v9kY=", "properties": {"ref": "811552", "@spider": "ncp", "addr:full": "Deane Road, Wellington Street", "addr:city": "Bolton", "addr:postcode": "BL3  5EQ", "addr:country": "United Kingdom", "name": "Bolton Deane Road", "website": "https://www.ncp.co.uk/find-a-car-park/car-parks/bolton-deane-road/", "opening_hours": "Mo-Su 06:00-24:00;", "brand": "NCP"}, "geometry": {"type": "Point", "coordinates": [-2.43839, 53.57525]}},
{"type": "Feature", "id": "bUFgOgRbpbNziUnSW6CC1mhwi0k=", "properties": {"ref": "811543", "@spider": "ncp", "addr:full": "Duke Street", "addr:city": "Bolton", "addr:postcode": "BL1  2DJ", "addr:country": "United Kingdom", "name": "Bolton Topp Way (Duke St)", "website": "https://www.ncp.co.uk/find-a-car-park/car-parks/bolton-topp-way-duke-st/", "opening_hours": "Mo-Su 06:00-24:00;", "brand": "NCP"}, "geometry": {"type": "Point", "coordinates": [-2.43283, 53.58222]}},
{"type": "Feature", "id": "v-qBFg1YHEV8LVlq8UU41aTeWpQ=", "properties": {"ref": "811568", "@spider": "ncp", "addr:full": "Back Cheapside", "addr:city": "Bolton", "addr:postcode": "BL1  1LT", "addr:country": "United Kingdom", "name": "Bolton Back Cheapside 2", "website": "https://www.ncp.co.uk/find-a-car-park/car-parks/bolton-back-cheapside-2/", "opening_hours": "Mo-Su 24 Hr;", "brand": "NCP"}, "geometry": {"type": "Point", "coordinates": [-2.42872, 53.57723]}},
{"type": "Feature", "id": "dtiuizLAniNepfgjtBpun3fNr-Q=", "properties": {"ref": "811544", "@spider": "ncp", "addr:full": "Blackhorse Street", "addr:city": "Bolton", "addr:postcode": "BL3  6EB", "addr:country": "United Kingdom", "name": "Bolton Blackhorse Street", "website": "https://www.ncp.co.uk/find-a-car-park/car-parks/bolton-blackhorse-street/", "opening_hours": "Mo-Su 24 Hr;", "brand": "NCP"}, "geometry": {"type": "Point", "coordinates": [-2.43166, 53.57488]}},
{"type": "Feature", "id": "xjfHOWxbree8E5TRzJGwkpsBBic=", "properties": {"ref": "811567", "@spider": "ncp", "addr:full": "Asburner Street", "addr:city": "Bolton", "addr:postcode": "BL1  1TJ", "addr:country": "United Kingdom", "name": "Bolton Ashburner Street", "website": "https://www.ncp.co.uk/find-a-car-park/car-parks/bolton-ashburner-street/", "opening_hours": "Mo-Su 09:00-17:00;", "brand": "NCP"}, "geometry": {"type": "Point", "coordinates": [-2.43358, 53.57595]}},
{"type": "Feature", "id": "2rNpNKUJCWD7yPRcXFiw1-tLxsQ=", "properties": {"ref": "811550", "@spider": "ncp", "addr:full": "Clive Street", "addr:city": "Bolton", "addr:postcode": "BL1  1PZ", "addr:country": "United Kingdom", "name": "Bolton Clive Street", "website": "https://www.ncp.co.uk/find-a-car-park/car-parks/bolton-clive-street/", "opening_hours": "Mo-Su 08:00-18:00;", "brand": "NCP"}, "geometry": {"type": "Point", "coordinates": [-2.42351, 53.5779]}},
{"type": "Feature", "id": "oNUJFijJHhJIOEh-22SQVAwlcTs=", "properties": {"ref": "811566", "@spider": "ncp", "addr:full": "All Saints Street", "addr:city": "Bolton", "addr:postcode": "BL1  2EQ", "addr:country": "United Kingdom", "name": "Bolton All Saints Street West", "website": "https://www.ncp.co.uk/find-a-car-park/car-parks/bolton-all-saints-street-west/", "opening_hours": "Mo-Su 24 Hr;", "brand": "NCP"}, "geometry": {"type": "Point", "coordinates": [-2.42777, 53.58205]}},
{"type": "Feature", "id": "UgEHYQFZKA5siSig779gVenkPMY=", "properties": {"ref": "861121", "@spider": "ncp", "addr:full": "John Dobson Street", "addr:city": "Newcastle", "addr:postcode": "NE1  8HL", "addr:country": "United Kingdom", "name": "Newcastle John Dobson Street", "phone": "01912321869", "website": "https://www.ncp.co.uk/find-a-car-park/car-parks/newcastle-john-dobson-street/", "opening_hours": "Mo-Sa 05:30-23:30; Su 07:00-23:30.", "brand": "NCP"}, "geometry": {"type": "Point", "coordinates": [-1.61139, 54.97631]}},
{"type": "Feature", "id": "Q_rUx1yf31rdFpwf2mQb1geLb6A=", "properties": {"ref": "811565", "@spider": "ncp", "addr:full": "All Saints Street", "addr:city": "Bolton", "addr:postcode": "BL1  2AQ", "addr:country": "United Kingdom", "name": "Bolton All Saints Street East", "website": "https://www.ncp.co.uk/find-a-car-park/car-parks/bolton-all-saints-street-east/", "opening_hours": "Mo-Su 24 Hr;", "brand": "NCP"}, "geometry": {"type": "Point", "coordinates": [-2.42726, 53.58164]}},
{"type": "Feature", "id": "ym5_amUm-8FuVjz_kcOieJoDc40=", "properties": {"ref": "124902", "@spider": "ncp", "addr:full": "131 Church St", "addr:postcode": "PR1  3BT", "addr:country": "United Kingdom", "name": "Preston Shepherd Street", "website": "https://www.ncp.co.uk/find-a-car-park/car-parks/preston-shepherd-street/", "opening_hours": "Mo-Su 24 Hr", "brand": "NCP"}, "geometry": {"type": "Point", "coordinates": [-2.69429, 53.75856]}},
{"type": "Feature", "id": "g63OLFIJj_u4AyBWAOEZpN2PYWI=", "properties": {"ref": "811573", "@spider": "ncp", "addr:full": "Octagon Theatre Surface, Great Moor Street", "addr:city": "Bolton", "addr:postcode": "BL1  1SJ", "addr:country": "United Kingdom", "name": "Bolton Octagon Theatre SP", "website": "https://www.ncp.co.uk/find-a-car-park/car-parks/bolton-octagon-theatre-sp/", "opening_hours": "Mo-Su 24 Hr;", "brand": "NCP"}, "geometry": {"type": "Point", "coordinates": [-2.43055, 53.57725]}},
{"type": "Feature", "id": "BunWG6gfG11K8euZOAnpb-6W0w4=", "properties": {"ref": "879131", "@spider": "ncp", "addr:full": "Campo Lane", "addr:city": "Sheffield", "addr:postcode": "S1  2EF", "addr:country": "United Kingdom", "name": "Sheffield Campo Lane", "phone": "01142754561", "website": "https://www.ncp.co.uk/find-a-car-park/car-parks/sheffield-campo-lane/", "opening_hours": "Mo-Su 07:00-24:00;", "brand": "NCP"}, "geometry": {"type": "Point", "coordinates": [-1.47154, 53.38311]}},
{"type": "Feature", "id": "5ljhZdfGJWQA4P-M9GAit5fao04=", "properties": {"ref": "811547", "@spider": "ncp", "addr:full": "Central Street", "addr:city": "Bolton", "addr:postcode": "BL1  2AB", "addr:country": "United Kingdom", "name": "Bolton Central Street", "website": "https://www.ncp.co.uk/find-a-car-park/car-parks/bolton-central-street/", "opening_hours": "Mo-Su 24 Hr;", "brand": "NCP"}, "geometry": {"type": "Point", "coordinates": [-2.43236, 53.57956]}},
{"type": "Feature", "id": "62XdRr9OFHi-o3Q1oExIL5aM5rE=", "properties": {"ref": "813131", "@spider": "ncp", "addr:full": "Hall Ings", "addr:city": "Bradford", "addr:postcode": "BD1  5SD", "addr:country": "United Kingdom", "name": "Bradford Hall Ings", "phone": "01274737779", "website": "https://www.ncp.co.uk/find-a-car-park/car-parks/bradford-hall-ings/", "opening_hours": "Mo-Su 06:00-23:30", "brand": "NCP"}, "geometry": {"type": "Point", "coordinates": [-1.75216, 53.79189]}},
{"type": "Feature", "id": "73ngQyYGik_8rjVraqBZ0z_5Ls8=", "properties": {"ref": "745131", "@spider": "ncp", "addr:full": "The City Gates, York Street", "addr:city": "Swansea", "addr:postcode": "SA1  3LZ", "addr:country": "United Kingdom", "name": "Swansea The City Gates", "phone": "01792467253", "website": "https://www.ncp.co.uk/find-a-car-park/car-parks/swansea-salubrious-place/", "opening_hours": "Mo-Su 07:00-24:00;", "brand": "NCP"}, "geometry": {"type": "Point", "coordinates": [-3.93931, 51.61819]}},
{"type": "Feature", "id": "NDNbhbb0J7zyLF8Tpvm9mDZmLWQ=", "properties": {"ref": "730521", "@spider": "ncp", "addr:full": "Adam Street", "addr:city": "Cardiff", "addr:postcode": "CF24  2FH", "addr:country": "United Kingdom", "name": "Cardiff Adam Street", "phone": "03450507080", "website": "https://www.ncp.co.uk/find-a-car-park/car-parks/cardiff-adam-street/", "opening_hours": "Mo-Su 24 Hr;", "brand": "NCP"}, "geometry": {"type": "Point", "coordinates": [-3.16897, 51.47842]}},
{"type": "Feature", "id": "qzF5XkRCxQy18z4VS_T-5TCkxQI=", "properties": {"ref": "830631", "@spider": "ncp", "addr:full": "Spittal Street Lane", "addr:city": "Edinburgh", "addr:postcode": "EH3  9DB", "addr:country": "United Kingdom", "name": "Edinburgh Spittal Street Lane", "website": "https://www.ncp.co.uk/find-a-car-park/car-parks/edinburgh-spittal-street-lane/", "opening_hours": "Mo-Su 24 Hr;", "brand": "NCP"}, "geometry": {"type": "Point", "coordinates": [-3.20224, 55.94638]}},
{"type": "Feature", "id": "rshEJFQGtK0Wn_SvDpN7dIVJwpg=", "properties": {"ref": "735431", "@spider": "ncp", "addr:full": "St Lukes, Bridge Street", "addr:city": "Newport", "addr:postcode": "NP20  4AT", "addr:country": "United Kingdom", "name": "Newport Station Approach", "website": "https://www.ncp.co.uk/find-a-car-park/car-parks/newport-st-lukes/", "opening_hours": "Mo-Su 24 Hr;", "brand": "NCP"}, "geometry": {"type": "Point", "coordinates": [-2.99995, 51.58803]}},
{"type": "Feature", "id": "H9QzdOrc6F_HA17HYphzlwq4-sU=", "properties": {"ref": "747461", "@spider": "ncp", "addr:full": "Bangor Station", "addr:city": "Bangor", "addr:postcode": "LL57  1LZ", "addr:country": "United Kingdom", "name": "Bangor Station (TFW)", "website": "https://www.ncp.co.uk/find-a-car-park/car-parks/bangor-station-tfw/", "opening_hours": "Mo-Su 24 Hr;", "brand": "NCP"}, "geometry": {"type": "Point", "coordinates": [-4.13543, 53.22341]}},
{"type": "Feature", "id": "fZajMQFjAhf8kVVE1ebOzpHLr5Q=", "properties": {"ref": "827412", "@spider": "ncp", "addr:full": "Willison Street", "addr:city": "Dundee", "addr:postcode": "DD1  1PW", "addr:country": "United Kingdom", "name": "Dundee Willison Street", "website": "https://www.ncp.co.uk/find-a-car-park/car-parks/dundee-willison-street/", "opening_hours": "Mo-Su 24 Hr;", "brand": "NCP"}, "geometry": {"type": "Point", "coordinates": [-2.9754, 56.46087]}},
{"type": "Feature", "id": "Ayj3W6jRAH-ULJ2tRwZUttKOwvg=", "properties": {"ref": "800131", "@spider": "ncp", "addr:full": "Shiprow, Virginia Street", "addr:city": "Aberdeen", "addr:postcode": "AB11  5BY", "addr:country": "United Kingdom", "name": "Aberdeen Shiprow", "phone": "01224594257", "website": "https://www.ncp.co.uk/find-a-car-park/car-parks/aberdeen-shiprow/", "opening_hours": "Mo-Su 24 Hr;", "brand": "NCP"}, "geometry": {"type": "Point", "coordinates": [-2.09454, 57.14692]}},
{"type": "Feature", "id": "OzyVUxTTZq_EDfByOUnbD6dlKto=", "properties": {"ref": "705431", "@spider": "ncp", "addr:full": "Market Parade, Spread Eagle Road", "addr:city": "Gloucester", "addr:postcode": "GL1  1RL", "addr:country": "United Kingdom", "name": "Gloucester Market Parade", "website": "https://www.ncp.co.uk/find-a-car-park/car-parks/gloucester-spread-eagle/", "opening_hours": "Mo-Su 24 Hr;", "brand": "NCP"}, "geometry": {"type": "Point", "coordinates": [-2.24168, 51.86642]}},
{"type": "Feature", "id": "Qb3ozsdnNJb5Q6ODqUeJKqDkpwU=", "properties": {"ref": "125701", "@spider": "ncp", "addr:full": "92-96 Tradeston Street", "addr:city": "Glasgow", "addr:postcode": "G5  8BG", "addr:country": "United Kingdom", "name": "Glasgow Tradeston Street", "website": "https://www.ncp.co.uk/find-a-car-park/car-parks/glasgow-tradeston-street-ukt/", "opening_hours": "Mo-Su 24 Hr", "brand": "NCP"}, "geometry": {"type": "Point", "coordinates": [-4.26419, 55.85213]}},
{"type": "Feature", "id": "gsEO7gmvh7grFHF7QPe8nKgjo4Q=", "properties": {"ref": "460121", "@spider": "ncp", "addr:full": "Portland Terrace", "addr:city": "Southampton", "addr:postcode": "SO14  7EN", "addr:country": "United Kingdom", "name": "Southampton Portland Terrace", "phone": "02380227157", "website": "https://www.ncp.co.uk/find-a-car-park/car-parks/southampton-portland-terrace/", "opening_hours": "Mo-Su 24 Hr;", "brand": "NCP"}, "geometry": {"type": "Point", "coordinates": [-1.40648, 50.90493]}},
{"type": "Feature", "id": "w8n83xnZpvFC5t4P4YHaojbLtNA=", "properties": {"ref": "420161", "@spider": "ncp", "addr:full": "St James Barton, Bond Street", "addr:city": "Bristol", "addr:postcode": "BS1  3LJ", "addr:country": "United Kingdom", "name": "Bristol St James Barton", "phone": "01179292387", "website": "https://www.ncp.co.uk/find-a-car-park/car-parks/bristol-st-james-barton/", "opening_hours": "Mo-Su 24 Hr;", "brand": "NCP"}, "geometry": {"type": "Point", "coordinates": [-2.58911, 51.45945]}},
{"type": "Feature", "id": "MI3_YSIezfm5Bi2fcahAbNfLicM=", "properties": {"ref": "560511", "@spider": "ncp", "addr:full": "Union Place, Union Place", "addr:city": "Worthing", "addr:postcode": "BN11  1LG", "addr:country": "United Kingdom", "name": "Worthing Union Place", "phone": "08702417193", "website": "https://www.ncp.co.uk/find-a-car-park/car-parks/worthing-union-place/", "opening_hours": "Mo-Su 24 Hr;", "brand": "NCP"}, "geometry": {"type": "Point", "coordinates": [-0.3699, 50.81379]}},
{"type": "Feature", "id": "Z6pcAMGOSBsx2U97zEXXrJOBs54=", "properties": {"ref": "440161", "@spider": "ncp", "addr:full": "The Square, Richmond Hill", "addr:city": "Bournemouth", "addr:postcode": "BH2  6EJ", "addr:country": "United Kingdom", "name": "Bournemouth The Square", "phone": "01202293792", "website": "https://www.ncp.co.uk/find-a-car-park/car-parks/bournemouth-the-square/", "opening_hours": "Mo-Su 06:00-24:00;", "brand": "NCP"}, "geometry": {"type": "Point", "coordinates": [-1.87898, 50.72105]}},
{"type": "Feature", "id": "w9D5V1O_YcF3fOeSntlWXpk0pNM=", "properties": {"ref": "412631", "@spider": "ncp", "addr:full": "Market Street, Guinea Street", "addr:city": "Exeter", "addr:postcode": "EX1  1BW", "addr:country": "United Kingdom", "name": "Exeter Market Street", "phone": "07825364245", "website": "https://www.ncp.co.uk/find-a-car-park/car-parks/exeter-market-street/", "opening_hours": "Mo-Su 07:00-21:00", "brand": "NCP"}, "geometry": {"type": "Point", "coordinates": [-3.53328, 50.72168]}},
{"type": "Feature", "id": "N8dk3DF_bepklF1vso1BfRKrqaY=", "properties": {"ref": "440131", "@spider": "ncp", "addr:full": "Hinton Road", "addr:city": "Bournemouth", "addr:postcode": "BH1  2EN", "addr:country": "United Kingdom", "name": "Bournemouth Hinton Road", "website": "https://www.ncp.co.uk/find-a-car-park/car-parks/bournemouth-hinton-road/", "opening_hours": "Mo-Su 24 Hr;", "brand": "NCP"}, "geometry": {"type": "Point", "coordinates": [-1.87363, 50.71878]}},
{"type": "Feature", "id": "tBdtR8fy43Idn0fZGMeipTbQLrY=", "properties": {"ref": "120101", "@spider": "ncp", "addr:full": "Riverside Apartments, Kenwyn Mews", "addr:city": "Truro", "addr:postcode": "TR1  3BX", "addr:country": "United Kingdom", "name": "Truro Kenwyn Street", "phone": "03450507080", "website": "https://www.ncp.co.uk/find-a-car-park/car-parks/truro-kenwyn-street/", "opening_hours": "Mo-Su 24 Hr", "brand": "NCP"}, "geometry": {"type": "Point", "coordinates": [-5.05674, 50.2631]}},
{"type": "Feature", "id": "H9K7dXvO7R1OO6lzLfphEeryL64=", "properties": {"ref": "725511", "@spider": "ncp", "addr:full": "Little Berrington Street", "addr:city": "Hereford", "addr:postcode": "HR4  0BS", "addr:country": "United Kingdom", "name": "Hereford Little Berrington St", "website": "https://www.ncp.co.uk/find-a-car-park/car-parks/hereford-little-berrington-st/", "opening_hours": "Mo-Su 24 Hr;", "brand": "NCP"}, "geometry": {"type": "Point", "coordinates": [-2.71887, 52.0551]}},
{"type": "Feature", "id": "SMIVGVG4OekougTXTxrxBXOCK3w=", "properties": {"ref": "730133", "@spider": "ncp", "addr:full": "Westgate Street, Quay Street", "addr:city": "Cardiff", "addr:postcode": "CF10  1DZ", "addr:country": "United Kingdom", "name": "Cardiff Westgate Street", "phone": "02920373125", "website": "https://www.ncp.co.uk/find-a-car-park/car-parks/cardiff-westgate-street/", "opening_hours": "Mo-Su 24 Hr;", "brand": "NCP"}, "geometry": {"type": "Point", "coordinates": [-3.18044, 51.47998]}},
{"type": "Feature", "id": "WHox7sZg-Jnr6njaqgJh5icGz28=", "properties": {"ref": "420132", "@spider": "ncp", "addr:full": "Queen Charlotte Street", "addr:city": "Bristol", "addr:postcode": "BS1  4ES", "addr:country": "United Kingdom", "name": "Bristol Queen Charlotte Street", "phone": "01179292387", "website": "https://www.ncp.co.uk/find-a-car-park/car-parks/bristol-queen-charlotte-street/", "opening_hours": "Mo-Su 24 Hr;", "brand": "NCP"}, "geometry": {"type": "Point", "coordinates": [-2.59347, 51.45306]}},
{"type": "Feature", "id": "zGviXKvlRbA50vRFcEjbADAY6wA=", "properties": {"ref": "420112", "@spider": "ncp", "addr:full": "Rupert Street", "addr:city": "Bristol", "addr:postcode": "BS1  2PY", "addr:country": "United Kingdom", "name": "Bristol Rupert Street", "phone": "01179292387", "website": "https://www.ncp.co.uk/find-a-car-park/car-parks/bristol-rupert-street/", "opening_hours": "Mo-Su 24 Hr;", "brand": "NCP"}, "geometry": {"type": "Point", "coordinates": [-2.59431, 51.45696]}},
{"type": "Feature", "id": "69hYrOthuqPGUv1kcBQeUzOGB8g=", "properties": {"ref": "440731", "@spider": "ncp", "addr:full": "Terrace Road", "addr:city": "Bournemouth", "addr:postcode": "BH2  5NN", "addr:country": "United Kingdom", "name": "Bournemouth Terrace Road", "website": "https://www.ncp.co.uk/find-a-car-park/car-parks/bournemouth-terrace-road/", "opening_hours": "Mo-Su 24 Hr", "brand": "NCP"}, "geometry": {"type": "Point", "coordinates": [-1.88223, 50.71955]}},
{"type": "Feature", "id": "z_LtVnkzTwl4ifUoynBapaBAXOM=", "properties": {"ref": "120501", "@spider": "ncp", "addr:full": "The Claremont Hotel, 89 Saint Michaels Road", "addr:postcode": "BH2  5DR", "addr:country": "United Kingdom", "name": "Bournemouth Claremont Hotel", "website": "https://www.ncp.co.uk/find-a-car-park/car-parks/bournemouth-claremont-hotel/", "opening_hours": "Mo-Su 24 Hr", "brand": "NCP"}, "geometry": {"type": "Point", "coordinates": [-1.88382, 50.71725]}},
{"type": "Feature", "id": "LDCWQuizzbC1U-JdniG0jMtJkhs=", "properties": {"ref": "420121", "@spider": "ncp", "addr:full": "Broadmead, Lower Castle Street", "addr:city": "Bristol", "addr:postcode": "BS1  3AF", "addr:country": "United Kingdom", "name": "Bristol Broadmead", "phone": "01179292387", "website": "https://www.ncp.co.uk/find-a-car-park/car-parks/bristol-broadmead/", "opening_hours": "Mo-Su 24 Hr;", "brand": "NCP"}, "geometry": {"type": "Point", "coordinates": [-2.58559, 51.45663]}},
{"type": "Feature", "id": "SUcXIAy0UcAbyq_jzx1lrLP6sF8=", "properties": {"ref": "410111", "@spider": "ncp", "addr:full": "Highcross, St Clement Street", "addr:city": "Truro", "addr:postcode": "TR1  1DQ", "addr:country": "United Kingdom", "name": "Truro Highcross", "phone": "01872321246", "website": "https://www.ncp.co.uk/find-a-car-park/car-parks/truro-highcross/", "opening_hours": "Mo-Su 24 Hr;", "brand": "NCP"}, "geometry": {"type": "Point", "coordinates": [-5.05194, 50.2655]}},
{"type": "Feature", "id": "7Kn_o8q7-DPf9K0bc6nxmi2lmSQ=", "properties": {"ref": "833112", "@spider": "ncp", "addr:full": "Mitchell Street, 81 Mitchell Street", "addr:city": "Glasgow", "addr:postcode": "G1  3LN", "addr:country": "United Kingdom", "name": "Glasgow Mitchell Street", "phone": "01415523150", "website": "https://www.ncp.co.uk/find-a-car-park/car-parks/glasgow-mitchell-street/", "opening_hours": "Mo-Su 24 Hr;", "brand": "NCP"}, "geometry": {"type": "Point", "coordinates": [-4.25575, 55.85988]}},
{"type": "Feature", "id": "e5084aNa16nLx12RdGyA8SzWRxc=", "properties": {"ref": "725432", "@spider": "ncp", "addr:full": "Berrington Street", "addr:city": "Hereford", "addr:postcode": "HR4  0BJ", "addr:country": "United Kingdom", "name": "Hereford  Berrington St", "website": "https://www.ncp.co.uk/find-a-car-park/car-parks/hereford-berrington-st/", "opening_hours": "Mo-Su 24 Hr;", "brand": "NCP"}, "geometry": {"type": "Point", "coordinates": [-2.71946, 52.0548]}},
{"type": "Feature", "id": "uVPSCzZG29YI4Bgc4li2u6VHHPg=", "properties": {"ref": "833111", "@spider": "ncp", "addr:full": "Oswald Street, 38 Oswald Street", "addr:city": "Glasgow", "addr:postcode": "G1  4PA", "addr:country": "United Kingdom", "name": "Glasgow Central Station", "phone": "01415523150", "website": "https://www.ncp.co.uk/find-a-car-park/car-parks/glasgow-central-station/", "opening_hours": "Mo-Su 24 Hr;", "brand": "NCP"}, "geometry": {"type": "Point", "coordinates": [-4.25971, 55.85756]}},
{"type": "Feature", "id": "vNEBShF5rXELx8MC8mbcTem-g1U=", "properties": {"ref": "833435", "@spider": "ncp", "addr:full": "Ingram Street", "addr:city": "Glasgow", "addr:postcode": "G1  1DJ", "addr:country": "United Kingdom", "name": "Glasgow Ingram Street", "website": "https://www.ncp.co.uk/find-a-car-park/car-parks/glasgow-ingram-street/", "opening_hours": "Mo-Su 24 Hr;", "brand": "NCP"}, "geometry": {"type": "Point", "coordinates": [-4.24469, 55.85934]}},
{"type": "Feature", "id": "qEsHcqbjDbb_cQC8Yc9K799KReA=", "properties": {"ref": "833133", "@spider": "ncp", "addr:full": "George Street, 68 Montrose Street", "addr:city": "Glasgow", "addr:postcode": "G1  1RS", "addr:country": "United Kingdom", "name": "Glasgow George Street", "phone": "01415523150", "website": "https://www.ncp.co.uk/find-a-car-park/car-parks/glasgow-george-street/", "opening_hours": "Mo-Su 24 Hr;", "brand": "NCP"}, "geometry": {"type": "Point", "coordinates": [-4.24525, 55.86141]}},
{"type": "Feature", "id": "pO-vOAy_9AktYoTmN4NOXwmZ1zI=", "properties": {"ref": "705511", "@spider": "ncp", "addr:full": "Blackfriars, Ladybellegate Street", "addr:city": "Gloucester", "addr:postcode": "GL1  2HJ", "addr:country": "United Kingdom", "name": "Gloucester Blackfriars", "website": "https://www.ncp.co.uk/find-a-car-park/car-parks/gloucester-blackfriars/", "opening_hours": "Mo-Su 24 Hr;", "brand": "NCP"}, "geometry": {"type": "Point", "coordinates": [-2.24829, 51.86439]}},
{"type": "Feature", "id": "IYBtN3KRAq9VXHi20xs3IbeebcU=", "properties": {"ref": "833521", "@spider": "ncp", "addr:full": "King Street", "addr:city": "Glasgow", "addr:postcode": "G1  5QT", "addr:country": "United Kingdom", "name": "Glasgow King Street", "phone": "01415523150", "website": "https://www.ncp.co.uk/find-a-car-park/car-parks/glasgow-king-street/", "opening_hours": "Mo-Su 24 Hr;", "brand": "NCP"}, "geometry": {"type": "Point", "coordinates": [-4.24915, 55.85557]}},
{"type": "Feature", "id": "PMJVULl36C5QNYPNmcDKzYfVLhE=", "properties": {"ref": "800319", "@spider": "ncp", "addr:full": "2 Viewcraig Gardens", "addr:city": "Edinburgh", "addr:postcode": "EH8  9UL", "addr:country": "United Kingdom", "name": "Edinburgh Holyrood Road", "phone": "01315567886", "website": "https://www.ncp.co.uk/find-a-car-park/car-parks/edinburgh-st-johns-hill/", "opening_hours": "Mo-Su 24 Hr;", "brand": "NCP"}, "geometry": {"type": "Point", "coordinates": [-3.18126, 55.9488]}},
{"type": "Feature", "id": "fFFcwXQ0uT3slA9tLELuvxbHHao=", "properties": {"ref": "420111", "@spider": "ncp", "addr:full": "Nelson Street, Fairfax Street", "addr:city": "Bristol", "addr:postcode": "BS1  3DB", "addr:country": "United Kingdom", "name": "Bristol Nelson Street MSCP", "phone": "01179292387", "website": "https://www.ncp.co.uk/find-a-car-park/car-parks/bristol-nelson-street/", "opening_hours": "Mo-Su 24 Hr;", "brand": "NCP"}, "geometry": {"type": "Point", "coordinates": [-2.59225, 51.45598]}},
{"type": "Feature", "id": "_MmPBD-66arVOFsiVVNpmmxrsy8=", "properties": {"ref": "735131", "@spider": "ncp", "addr:full": "High Street, Queensway, Old Post Office Site", "addr:city": "Newport", "addr:postcode": "NP20  4AX", "addr:country": "United Kingdom", "name": "Newport High Street", "phone": "07825364187", "website": "https://www.ncp.co.uk/find-a-car-park/car-parks/newport-high-street/", "opening_hours": "Mo-Su 24 Hr;", "brand": "NCP"}, "geometry": {"type": "Point", "coordinates": [-2.99595, 51.58997]}},
{"type": "Feature", "id": "t8ZF7RSyeueKcb3bKw8TOkLI1kc=", "properties": {"ref": "833113", "@spider": "ncp", "addr:full": "The Glasshouse, Glassford Street", "addr:city": "Glasgow", "addr:postcode": "G1  1UP", "addr:country": "United Kingdom", "name": "Glasgow The Glasshouse", "phone": "01415523150", "website": "https://www.ncp.co.uk/find-a-car-park/car-parks/glasgow-the-glasshouse/", "opening_hours": "Mo-Su 24 Hr;", "brand": "NCP"}, "geometry": {"type": "Point", "coordinates": [-4.24894, 55.85857]}},
{"type": "Feature", "id": "MZvrbzG277BYBosdkuHfqkWf_L0=", "properties": {"ref": "420124", "@spider": "ncp", "addr:full": "Prince Street, Bristol Hotel", "addr:city": "Bristol", "addr:postcode": "BS1  4QF", "addr:country": "United Kingdom", "name": "Bristol Prince Street", "phone": "01179292387", "website": "https://www.ncp.co.uk/find-a-car-park/car-parks/bristol-prince-street/", "opening_hours": "Mo-Su 24 Hr;", "brand": "NCP"}, "geometry": {"type": "Point", "coordinates": [-2.59672, 51.45042]}},
{"type": "Feature", "id": "x2Y6YyI6fnzRsM0Olut3PJ43SNs=", "properties": {"ref": "827152", "@spider": "ncp", "addr:full": "Bank Street", "addr:city": "Dundee", "addr:postcode": "DD1  1RW", "addr:country": "United Kingdom", "name": "Dundee Bank Street", "phone": "01382203719", "website": "https://www.ncp.co.uk/find-a-car-park/car-parks/dundee-bank-street/", "opening_hours": "Mo-We 07:00-22:00; Th 07:00-22:30; Fr 07:00-23:00; Sa 08:00-23:00; Su 09:00-22:00", "brand": "NCP"}, "geometry": {"type": "Point", "coordinates": [-2.97293, 56.46071]}},
{"type": "Feature", "id": "WjzWK_n0xAraniAzy6du7zpPZqs=", "properties": {"ref": "830532", "@spider": "ncp", "addr:full": "Grindlay Street Court", "addr:city": "Edinburgh", "addr:postcode": "EH3  9AR", "addr:country": "United Kingdom", "name": "Edinburgh Grindlay Street Court", "website": "https://www.ncp.co.uk/find-a-car-park/car-parks/edinburgh-grindlay-street-court/", "opening_hours": "Mo-Su 24 Hr;", "brand": "NCP"}, "geometry": {"type": "Point", "coordinates": [-3.20459, 55.94626]}},
{"type": "Feature", "id": "85a9Gaijt8pHYDCA9ZAV90jNDXQ=", "properties": {"ref": "830121", "@spider": "ncp", "addr:full": "Castle Terrace", "addr:city": "Edinburgh", "addr:postcode": "EH1  2EW", "addr:country": "United Kingdom", "name": "Edinburgh Castle Terrace", "website": "https://www.ncp.co.uk/find-a-car-park/car-parks/edinburgh-castle-terrace/", "opening_hours": "Mo-Su 24 Hr;", "brand": "NCP"}, "geometry": {"type": "Point", "coordinates": [-3.20436, 55.94825]}},
{"type": "Feature", "id": "mYtHq0V7ve_oqoT2ZlvBcditwfw=", "properties": {"ref": "730542", "@spider": "ncp", "addr:full": "Rapports, David Street", "addr:city": "Cardiff", "addr:postcode": "CF10  2EH", "addr:country": "United Kingdom", "name": "Cardiff Rapports", "website": "https://www.ncp.co.uk/find-a-car-park/car-parks/cardiff-rapports/", "opening_hours": "Mo-Su 24 Hr;", "brand": "NCP"}, "geometry": {"type": "Point", "coordinates": [-3.17225, 51.47944]}},
{"type": "Feature", "id": "2jB2ILS42LQXbpkYSNuaIge9-R4=", "properties": {"ref": "827551", "@spider": "ncp", "addr:full": "North Lindsay Street", "addr:city": "Dundee", "addr:postcode": "DD1  1QA", "addr:country": "United Kingdom", "name": "Dundee North Lindsay Street", "website": "https://www.ncp.co.uk/find-a-car-park/car-parks/dundee-north-lindsay-street/", "opening_hours": "Mo-Su 07:00-23:00;", "brand": "NCP"}, "geometry": {"type": "Point", "coordinates": [-2.97436, 56.46007]}},
{"type": "Feature", "id": "9-a19MCKHAhazwYNOqOssO3v1NQ=", "properties": {"ref": "730543", "@spider": "ncp", "addr:full": "Knox Road, 1 Knox Road", "addr:city": "Cardiff", "addr:postcode": "CF24  0EA", "addr:country": "United Kingdom", "name": "Cardiff Knox Road", "website": "https://www.ncp.co.uk/find-a-car-park/car-parks/cardiff-knox-road/", "opening_hours": "Mo-Su 24 Hr;", "brand": "NCP"}, "geometry": {"type": "Point", "coordinates": [-3.1685, 51.48241]}},
{"type": "Feature", "id": "I8UFHWbq4bMYBMyU9LOHOaIVDcU=", "properties": {"ref": "827151", "@spider": "ncp", "addr:full": "Marketgait", "addr:city": "Dundee", "addr:postcode": "DD1  1QP", "addr:country": "United Kingdom", "name": "Dundee Marketgait", "phone": "01382200924", "website": "https://www.ncp.co.uk/find-a-car-park/car-parks/dundee-marketgait/", "opening_hours": "Mo-We 06:00-19:00; Th 06:00-20:30; Fr-Sa 06:00-19:00; Su 09:00-18:00", "brand": "NCP"}, "geometry": {"type": "Point", "coordinates": [-2.97596, 56.45943]}},
{"type": "Feature", "id": "F0CwybstHAbf0kWnpzM3-vW_U24=", "properties": {"ref": "735511", "@spider": "ncp", "addr:full": "6 North Street", "addr:city": "Newport", "addr:postcode": "NP20  1JZ", "addr:country": "United Kingdom", "name": "Newport North Street", "phone": "07825364187", "website": "https://www.ncp.co.uk/find-a-car-park/car-parks/newport-north-street/", "opening_hours": "Mo-Su 24 Hr;", "brand": "NCP"}, "geometry": {"type": "Point", "coordinates": [-2.99808, 51.58677]}},
{"type": "Feature", "id": "jGs26jTvpumuK540jmmPeVybEl8=", "properties": {"ref": "770001", "@spider": "ncp", "addr:full": "Kingsway", "addr:city": "Swansea", "addr:postcode": "SA1  5JQ", "addr:country": "United Kingdom", "name": "Swansea Kingsway Surface Site", "phone": "03450507090", "website": "https://www.ncp.co.uk/find-a-car-park/car-parks/swansea-kingsway-surface-site/", "opening_hours": "Mo-Su 24 Hr;", "brand": "NCP"}, "geometry": {"type": "Point", "coordinates": [-3.94874, 51.62045]}},
{"type": "Feature", "id": "NB6tnCEZLibIETQT8jgfj3Zowgs=", "properties": {"ref": "745122", "@spider": "ncp", "addr:full": "Kingsway, Kingsway", "addr:city": "Swansea", "addr:postcode": "SA1  5JQ", "addr:country": "United Kingdom", "name": "Swansea Kingsway", "phone": "01792655955", "website": "https://www.ncp.co.uk/find-a-car-park/car-parks/swansea-kingsway/", "opening_hours": "Mo-Sa 07:00-21:00; Su 09:00-18:00", "brand": "NCP"}, "geometry": {"type": "Point", "coordinates": [-3.94814, 51.62021]}},
{"type": "Feature", "id": "6Z94HrQ7kohRIeJ8uc49YF3CmJI=", "properties": {"ref": "730111", "@spider": "ncp", "addr:full": "Dumfries Place, Off St Andrews Lane", "addr:city": "Cardiff", "addr:postcode": "CF10  3FN", "addr:country": "United Kingdom", "name": "Cardiff Dumfries Place", "phone": "02920666583", "website": "https://www.ncp.co.uk/find-a-car-park/car-parks/cardiff-dumfries-place/", "opening_hours": "Mo-Su 24 Hr;", "brand": "NCP"}, "geometry": {"type": "Point", "coordinates": [-3.17181, 51.48469]}},
{"type": "Feature", "id": "gb7pyWZPD5bFXTm5BNQaUiplvBs=", "properties": {"ref": "730137", "@spider": "ncp", "addr:full": "Pellett Street", "addr:city": "Cardiff", "addr:postcode": "CF10  4FD", "addr:country": "United Kingdom", "name": "Cardiff Pellett Street", "website": "https://www.ncp.co.uk/find-a-car-park/car-parks/cardiff-pellett-street/", "opening_hours": "Mo-Su 24 Hr;", "brand": "NCP"}, "geometry": {"type": "Point", "coordinates": [-3.17031, 51.47832]}},
{"type": "Feature", "id": "5JHM_7m-lsfwEm9VqJxkrycfQbM=", "properties": {"ref": "745121", "@spider": "ncp", "addr:full": "Orchard Street, Orchard Street", "addr:city": "Swansea", "addr:postcode": "SA1  5AS", "addr:country": "United Kingdom", "name": "Swansea Orchard Street", "phone": "01792654594", "website": "https://www.ncp.co.uk/find-a-car-park/car-parks/swansea-orchard-street/", "opening_hours": "Mo-Sa 07:00-21:00; Su 09:00-21:00.", "brand": "NCP"}, "geometry": {"type": "Point", "coordinates": [-3.94362, 51.62221]}},
{"type": "Feature", "id": "vGrIU5Eh6CIkWO39iSHDsOnCP1c=", "properties": {"ref": "730131", "@spider": "ncp", "addr:full": "Greyfriars, Greyfriars Road", "addr:city": "Cardiff", "addr:postcode": "CF10  3AD", "addr:country": "United Kingdom", "name": "Cardiff Greyfriars", "website": "https://www.ncp.co.uk/find-a-car-park/car-parks/cardiff-greyfriars/", "opening_hours": "Mo-Su 06:00-24:00;", "brand": "NCP"}, "geometry": {"type": "Point", "coordinates": [-3.17588, 51.48349]}},
{"type": "Feature", "id": "3eEKu-o3nQn4ZE11l1GY5_xZx80=", "properties": {"ref": "730231", "@spider": "ncp", "addr:full": "Castle Court, Westgate Street", "addr:city": "Cardiff", "addr:postcode": "CF10  1DB", "addr:country": "United Kingdom", "name": "Cardiff Stadium", "phone": "02920229160", "website": "https://www.ncp.co.uk/find-a-car-park/car-parks/cardiff-castle-court/", "opening_hours": "Mo-Su 06:00-21:00;", "brand": "NCP"}, "geometry": {"type": "Point", "coordinates": [-3.18115, 51.47969]}},
{"type": "Feature", "id": "KP-fAK_Xt8mXd6m1-A3PMK4vBxw=", "properties": {"ref": "380513", "@spider": "ncp", "addr:full": "Tower Ramparts, Crown Street", "addr:city": "Ipswich", "addr:postcode": "IP1  3DH", "addr:country": "United Kingdom", "name": "Ipswich Tower Ramparts", "phone": "01473286518", "website": "https://www.ncp.co.uk/find-a-car-park/car-parks/ipswich-tower-ramparts/", "opening_hours": "Mo-Su 24 Hr;", "brand": "NCP"}, "geometry": {"type": "Point", "coordinates": [1.1523, 52.05917]}},
{"type": "Feature", "id": "Q3Kao3eIQE8F-tzhxOFnJ-B9Slo=", "properties": {"ref": "380432", "@spider": "ncp", "addr:full": "Turret Lane", "addr:city": "Ipswich", "addr:postcode": "IP4  1DL", "addr:country": "United Kingdom", "name": "Ipswich Turret Lane", "website": "https://www.ncp.co.uk/find-a-car-park/car-parks/ipswich-turret-lane/", "opening_hours": "Mo-Su 24 Hr;", "brand": "NCP"}, "geometry": {"type": "Point", "coordinates": [1.15478, 52.05356]}},
{"type": "Feature", "id": "SzZie16eBnFZgamUIcX4zpobfB0=", "properties": {"ref": "380421", "@spider": "ncp", "addr:full": "Burrell Road", "addr:city": "Ipswich", "addr:postcode": "IP2  8AD", "addr:country": "United Kingdom", "name": "Ipswich Burrell Road", "phone": "03450507080", "website": "https://www.ncp.co.uk/find-a-car-park/car-parks/ipswich-burrell-road/", "opening_hours": "Mo-Su 24 Hr;", "brand": "NCP"}, "geometry": {"type": "Point", "coordinates": [1.15103, 52.05084]}},
{"type": "Feature", "id": "eJPbkVvyhN8Kahj897D1iV9yYHI=", "properties": {"ref": "380151", "@spider": "ncp", "addr:full": "Ipswich Station, Burrell Road", "addr:city": "Ipswich", "addr:postcode": "IP2  8AL", "addr:country": "United Kingdom", "name": "Ipswich Station (Greater Anglia)", "website": "https://www.ncp.co.uk/find-a-car-park/car-parks/ipswich-station-g-anglia/", "opening_hours": "Mo-Su 24 Hr;", "brand": "NCP"}, "geometry": {"type": "Point", "coordinates": [1.14639, 52.05067]}},
{"type": "Feature", "id": "9SUJ8DniuoozvDkLDixNJ89u6QE=", "properties": {"ref": "470532", "@spider": "ncp", "addr:full": "Market Way", "addr:city": "Portsmouth", "addr:postcode": "PO1  4AH", "addr:country": "United Kingdom", "name": "Portsmouth Market Way", "phone": "07827882400", "website": "https://www.ncp.co.uk/find-a-car-park/car-parks/portsmouth-market-way/", "opening_hours": "Mo-Su 24 Hr;", "brand": "NCP"}, "geometry": {"type": "Point", "coordinates": [-1.08897, 50.80329]}},
{"type": "Feature", "id": "mcoMfOeTLl0kjTh2LqLU_2nsL5E=", "properties": {"ref": "380512", "@spider": "ncp", "addr:full": "Tacket Street", "addr:city": "Ipswich", "addr:postcode": "IP4  1AU", "addr:country": "United Kingdom", "name": "Ipswich Tacket Street", "website": "https://www.ncp.co.uk/find-a-car-park/car-parks/ipswich-tackett-street/", "opening_hours": "Mo-Su 24 Hr;", "brand": "NCP"}, "geometry": {"type": "Point", "coordinates": [1.15688, 52.05636]}},
{"type": "Feature", "id": "PluD7wEclS_mRqNZWqYytwIIBAw=", "properties": {"ref": "800617", "@spider": "ncp", "addr:full": "Ely Station, Station Road", "addr:city": "Ely", "addr:postcode": "CB7  4BS", "addr:country": "United Kingdom", "name": "Ely Station  (Greater Anglia)", "website": "https://www.ncp.co.uk/find-a-car-park/car-parks/ely-station-g-anglia/", "opening_hours": "Mo-Su 24 Hr;", "brand": "NCP"}, "geometry": {"type": "Point", "coordinates": [0.26631, 52.39168]}},
{"type": "Feature", "id": "eKvSg4KPEfKQaMDWjGCbIzBziC8=", "properties": {"ref": "251434", "@spider": "ncp", "addr:full": "Whitechapel High Street, Spreadeagle Yard", "addr:city": "London", "addr:postcode": "E1  7RA", "addr:country": "United Kingdom", "name": "London Whitechapel High St", "website": "https://www.ncp.co.uk/find-a-car-park/car-parks/london-whitechapel-high-st/", "opening_hours": "Mo-Sa 06:00-20:00; Su 09:00-17:00", "brand": "NCP"}, "geometry": {"type": "Point", "coordinates": [-0.07121, 51.51553]}},
{"type": "Feature", "id": "qXdItv3TKhQPFznsuXMSY0pivDU=", "properties": {"ref": "327131", "@spider": "ncp", "addr:full": "Buckhold Road, Wandsworth", "addr:city": "London", "addr:postcode": "SW18  4BS", "addr:country": "United Kingdom", "name": "Wandsworth Southside 2", "phone": "02088714728", "website": "https://www.ncp.co.uk/find-a-car-park/car-parks/wandsworth-southside-2/", "opening_hours": "Mo-Fr 06:00-23:00; Sa-Su 06:00-21:00", "brand": "NCP"}, "geometry": {"type": "Point", "coordinates": [-0.19493, 51.45567]}},
{"type": "Feature", "id": "5kWWLmQJm6Q7fKM3ahK5YwO7HEU=", "properties": {"ref": "585131", "@spider": "ncp", "addr:full": "County Square, Apsley Street", "addr:city": "Ashford", "addr:postcode": "TN23  1JA", "addr:country": "United Kingdom", "name": "Ashford County Square", "phone": "01233634725", "website": "https://www.ncp.co.uk/find-a-car-park/car-parks/ashford-county-square/", "opening_hours": "Mo-Sa 07:00-19:00; Su 09:00-18:00", "brand": "NCP"}, "geometry": {"type": "Point", "coordinates": [0.8685, 51.14821]}},
{"type": "Feature", "id": "K16hMcrxSCuKwvuZcFnD7syI6pQ=", "properties": {"ref": "800612", "@spider": "ncp", "addr:full": "Chelmsford Station, Viaduct Road", "addr:city": "Chelmsford", "addr:postcode": "CM1  1TS", "addr:country": "United Kingdom", "name": "Chelmsford Station (Greater Anglia)", "website": "https://www.ncp.co.uk/find-a-car-park/car-parks/chelmsford-station-g-anglia/", "opening_hours": "Mo-Su 24 Hr;", "brand": "NCP"}, "geometry": {"type": "Point", "coordinates": [0.4681, 51.73606]}},
{"type": "Feature", "id": "RW0s5n2bhuWABrh4yES9CIJtx68=", "properties": {"ref": "327121", "@spider": "ncp", "addr:full": "Garratt Lane, Southside Shopping Centre, Mapleton Crescent Wandsworth", "addr:city": "London", "addr:postcode": "SW18  4AU", "addr:country": "United Kingdom", "name": "Wandsworth Southside 1", "phone": "02088714728", "website": "https://www.ncp.co.uk/find-a-car-park/car-parks/wandsworth-southside-1/", "opening_hours": "Mo-Su 06:00-02:00;", "brand": "NCP"}, "geometry": {"type": "Point", "coordinates": [-0.19324, 51.45304]}},
{"type": "Feature", "id": "3nO31tClXm1bs_Q86MxmiFngoI8=", "properties": {"ref": "234332", "@spider": "ncp", "addr:full": "Thames Exchange, Bell Wharf Lane, off Upper Thames Street", "addr:city": "London", "addr:postcode": "EC4R  3TB", "addr:country": "United Kingdom", "name": "London Vintry Thames Exchange", "website": "https://www.ncp.co.uk/find-a-car-park/car-parks/london-vintry-thames-exchange/", "opening_hours": "Mo-Su 24 Hr;", "brand": "NCP"}, "geometry": {"type": "Point", "coordinates": [-0.09249, 51.51029]}},
{"type": "Feature", "id": "7Nkr37zwqSuPsj-FcWn6xT1wmI4=", "properties": {"ref": "060008", "@spider": "ncp", "addr:full": "1 Nesham Street", "addr:city": "London", "addr:postcode": "E1W  1YU", "addr:country": "United Kingdom", "name": "London Thomas More Square", "phone": "08456006456", "website": "https://www.ncp.co.uk/find-a-car-park/car-parks/london-thomas-more-square/", "opening_hours": "Mo-Su 24 Hr;", "brand": "NCP"}, "geometry": {"type": "Point", "coordinates": [-0.06747, 51.50745]}},
{"type": "Feature", "id": "ejk9Khbm8sWDb1xyjd-csBgbN-4=", "properties": {"ref": "800611", "@spider": "ncp", "addr:full": "Cambridge Station, Station Road", "addr:city": "Cambridge", "addr:postcode": "CB1  2JW", "addr:country": "United Kingdom", "name": "Cambridge Station (Greater Anglia)", "website": "https://www.ncp.co.uk/find-a-car-park/car-parks/cambridge-station-g-anglia/", "opening_hours": "Mo-Su 24 Hr;", "brand": "NCP"}, "geometry": {"type": "Point", "coordinates": [0.13683, 52.19431]}},
{"type": "Feature", "id": "gSUq9O5QgNnSsGoDgRamsZelsN8=", "properties": {"ref": "355232", "@spider": "ncp", "addr:full": "High Street, 102 High Street", "addr:city": "Epsom", "addr:postcode": "KT19  8BY", "addr:country": "United Kingdom", "name": "Epsom High Street", "phone": "01372729640", "website": "https://www.ncp.co.uk/find-a-car-park/car-parks/epsom-high-street/", "opening_hours": "Mo-Su 05:00-24:00;", "brand": "NCP"}, "geometry": {"type": "Point", "coordinates": [-0.26749, 51.33422]}},
{"type": "Feature", "id": "JmCOlMk6tdUF8X1DOlpGJkq_6OI=", "properties": {"ref": "570122", "@spider": "ncp", "addr:full": "Brighton Theatre, Church Street", "addr:city": "Brighton", "addr:postcode": "BN1  1US", "addr:country": "United Kingdom", "name": "Brighton Theatre", "website": "https://www.ncp.co.uk/find-a-car-park/car-parks/brighton-theatre/", "opening_hours": "Mo-Su 24 Hr;", "brand": "NCP"}, "geometry": {"type": "Point", "coordinates": [-0.14112, 50.82455]}},
{"type": "Feature", "id": "twuOBf1Jok_GPa0dt0eMSvt1k4k=", "properties": {"ref": "570124", "@spider": "ncp", "addr:full": "Russell Road", "addr:city": "Brighton", "addr:postcode": "BN1  2DX", "addr:country": "United Kingdom", "name": "Brighton Centre Russell Road", "website": "https://www.ncp.co.uk/find-a-car-park/car-parks/brighton-centre-russell-road/", "opening_hours": "Mo-Su 24 Hr;", "brand": "NCP"}, "geometry": {"type": "Point", "coordinates": [-0.1471, 50.82205]}},
{"type": "Feature", "id": "HGoDS2yUPeTNjtSCGUBbIdppdus=", "properties": {"ref": "201322", "@spider": "ncp", "addr:full": "Portman Square, Gloucester Place, Marble Arch", "addr:city": "London", "addr:postcode": "W1H  7BG", "addr:country": "United Kingdom", "name": "London Portman Square - Hyde Park", "phone": "08702427144", "website": "https://www.ncp.co.uk/find-a-car-park/car-parks/london-portman-square/", "opening_hours": "Mo-Su 24 HR;", "brand": "NCP"}, "geometry": {"type": "Point", "coordinates": [-0.15733, 51.5162]}},
{"type": "Feature", "id": "gLfD5_qr-5zXHJAH6hVduU_EDUQ=", "properties": {"ref": "232731", "@spider": "ncp", "addr:full": "Great Eastern Street, Islington", "addr:city": "London", "addr:postcode": "EC2A  3ER", "addr:country": "United Kingdom", "name": "London Shoreditch", "website": "https://www.ncp.co.uk/find-a-car-park/car-parks/london-great-eastern-street/", "opening_hours": "Mo-Fr 07:00-19:00; Sa-Su 08:00-20:00", "brand": "NCP"}, "geometry": {"type": "Point", "coordinates": [-0.08024, 51.52379]}},
{"type": "Feature", "id": "EJLIUYIkdgF7WPBCyF-6c8lP2Rs=", "properties": {"ref": "355231", "@spider": "ncp", "addr:full": "Ebbisham Centre, Waterloo Road", "addr:city": "Epsom", "addr:postcode": "KT19  8AG", "addr:country": "United Kingdom", "name": "Epsom The Ebbisham Centre", "phone": "01372729640", "website": "https://www.ncp.co.uk/find-a-car-park/car-parks/epsom-the-ebbisham-centre/", "opening_hours": "Mo-Su 05:00-24:00;", "brand": "NCP"}, "geometry": {"type": "Point", "coordinates": [-0.26729, 51.3343]}},
{"type": "Feature", "id": "Max84KwLs0XCGl8Nc3IghfSCHTI=", "properties": {"ref": "201234", "@spider": "ncp", "addr:full": "Portland Place, 6-7 Weymouth Mews", "addr:city": "London", "addr:postcode": "W1B  1QE", "addr:country": "United Kingdom", "name": "London Harley Street", "phone": "07920545784", "website": "https://www.ncp.co.uk/find-a-car-park/car-parks/london-portland-place/", "opening_hours": "Mo-Fr 07:00-19:00; Sa-Su Closed", "brand": "NCP"}, "geometry": {"type": "Point", "coordinates": [-0.14603, 51.52007]}},
{"type": "Feature", "id": "BFX7gRRoNv0L9rnbhM-lpcchsiA=", "properties": {"ref": "331121", "@spider": "ncp", "addr:full": "London Bridge, Kipling Street", "addr:city": "London", "addr:postcode": "SE1  3RU", "addr:country": "United Kingdom", "name": "London Bridge", "website": "https://www.ncp.co.uk/find-a-car-park/car-parks/london-bridge/", "opening_hours": "Mo-Su 24 HR;", "brand": "NCP"}, "geometry": {"type": "Point", "coordinates": [-0.0872, 51.50204]}},
{"type": "Feature", "id": "553owBwzhc5Iy4mY6fVmlu9qUn0=", "properties": {"ref": "211232", "@spider": "ncp", "addr:full": "Judd Street", "addr:city": "London", "addr:postcode": "WC1H  9QR", "addr:country": "United Kingdom", "name": "London Kings Cross St Pancras", "website": "https://www.ncp.co.uk/find-a-car-park/car-parks/london-judd-street/", "opening_hours": "Mo-Su 07:00-19:00;", "brand": "NCP"}, "geometry": {"type": "Point", "coordinates": [-0.124, 51.52663]}},
{"type": "Feature", "id": "K_cvP9ef6UPxo_aT1CQ_RVnBPt4=", "properties": {"ref": "355131", "@spider": "ncp", "addr:full": "Fairfield, Lady Booth Road", "addr:city": "Kingston", "addr:postcode": "KT1  2PR", "addr:country": "United Kingdom", "name": "Kingston Fairfield", "phone": "02085411792", "website": "https://www.ncp.co.uk/find-a-car-park/car-parks/kingston-fairfield/", "opening_hours": "Mo-Su 24 Hr;", "brand": "NCP"}, "geometry": {"type": "Point", "coordinates": [-0.30143, 51.40951]}},
{"type": "Feature", "id": "P4xEof4qTnofQNHsGFuN_gUYsiQ=", "properties": {"ref": "231131", "@spider": "ncp", "addr:full": "Saffron Hill, St Cross Street", "addr:city": "London", "addr:postcode": "EC1N  8XA", "addr:country": "United Kingdom", "name": "London Saffron Hill", "website": "https://www.ncp.co.uk/find-a-car-park/car-parks/london-saffron-hill/", "opening_hours": "Mo-Su 24 Hr", "brand": "NCP"}, "geometry": {"type": "Point", "coordinates": [-0.10678, 51.52099]}},
{"type": "Feature", "id": "J_ThkiLhFhahz_UrPcjGX48l5LE=", "properties": {"ref": "349131", "@spider": "ncp", "addr:full": "Richmond Station, Drummond Place, Kew Road", "addr:city": "Richmond", "addr:postcode": "TW9  1DN", "addr:country": "United Kingdom", "name": "London Richmond Station", "phone": "02089403948", "website": "https://www.ncp.co.uk/find-a-car-park/car-parks/london-richmond-station/", "opening_hours": "Mo-Su 24 Hr;", "brand": "NCP"}, "geometry": {"type": "Point", "coordinates": [-0.30117, 51.46265]}},
{"type": "Feature", "id": "nlszn2C39qWmELU-ZgKHmcfjfTQ=", "properties": {"ref": "231151", "@spider": "ncp", "addr:full": "Lawn House Close", "addr:city": "London", "addr:postcode": "E14  9YQ", "addr:country": "United Kingdom", "name": "London Isle Of Dogs South Quay", "website": "https://www.ncp.co.uk/find-a-car-park/car-parks/london-lawn-house-close/", "opening_hours": "Mo-Fr 05:00-20:00; Sa-Su Closed", "brand": "NCP"}, "geometry": {"type": "Point", "coordinates": [-0.0106, 51.49987]}},
{"type": "Feature", "id": "tH8V9M_6G6L2pApKL2ngIEei0yw=", "properties": {"ref": "232221", "@spider": "ncp", "addr:full": "Finsbury Square, Finsbury", "addr:city": "London", "addr:postcode": "EC2A  1RR", "addr:country": "United Kingdom", "name": "London Finsbury Square", "website": "https://www.ncp.co.uk/find-a-car-park/car-parks/london-finsbury-square/", "opening_hours": "Mo-Su 24 Hr;", "brand": "NCP"}, "geometry": {"type": "Point", "coordinates": [-0.08678, 51.52151]}},
{"type": "Feature", "id": "52bu-bLVzil7wn2DaithKEkZrrU=", "properties": {"ref": "212331", "@spider": "ncp", "addr:full": "Covent Garden, Parker Street, Parker Mews", "addr:city": "London", "addr:postcode": "WC2B  5NT", "addr:country": "United Kingdom", "name": "London Covent Garden", "website": "https://www.ncp.co.uk/find-a-car-park/car-parks/london-covent-garden/", "opening_hours": "Mo-Su 24 HR;", "brand": "NCP"}, "geometry": {"type": "Point", "coordinates": [-0.12221, 51.5154]}},
{"type": "Feature", "id": "y8Iq2rHUQOcErh6cf9bVBp7Z9-E=", "properties": {"ref": "221322", "@spider": "ncp", "addr:full": "Cadogan Place, Knightsbridge", "addr:city": "London", "addr:postcode": "SW1X  9SA", "addr:country": "United Kingdom", "name": "London Cadogan Place", "phone": "08702427144", "website": "https://www.ncp.co.uk/find-a-car-park/car-parks/london-cadogan-place/", "opening_hours": "Mo-Su 24 HR;", "brand": "NCP"}, "geometry": {"type": "Point", "coordinates": [-0.1579, 51.49784]}},
{"type": "Feature", "id": "0-XtU8QDcM7bF1iBmXltprM9Bjk=", "properties": {"ref": "201111", "@spider": "ncp", "addr:full": "Brewer Street, Brewer Street, Soho", "addr:city": "London", "addr:postcode": "W1F  0LA", "addr:country": "United Kingdom", "name": "London Soho Brewer Street", "website": "https://www.ncp.co.uk/find-a-car-park/car-parks/london-brewer-street/", "opening_hours": "Mo-Su 24 HR;", "brand": "NCP"}, "geometry": {"type": "Point", "coordinates": [-0.13492, 51.5119]}},
{"type": "Feature", "id": "YeLjA_N71yKFMOonHqFKIiC9CQc=", "properties": {"ref": "060003", "@spider": "ncp", "addr:full": "170 Marylebone Road", "addr:city": "London", "addr:postcode": "NW1  5AR", "addr:country": "United Kingdom", "name": "London Marylebone Road", "phone": "08456006456", "website": "https://www.ncp.co.uk/find-a-car-park/car-parks/london-marylebone-road1/", "opening_hours": "Mo-Su 24 Hr;", "brand": "NCP"}, "geometry": {"type": "Point", "coordinates": [-0.15959, 51.522]}},
{"type": "Feature", "id": "t25fRrf5ynpPevYXI4XWvLgV8Wk=", "properties": {"ref": "231331", "@spider": "ncp", "addr:full": "Aldersgate Street, 158-170 Aldersgate Street", "addr:city": "London", "addr:postcode": "EC1A  4HY", "addr:country": "United Kingdom", "name": "London Barbican", "website": "https://www.ncp.co.uk/find-a-car-park/car-parks/london-barbican/", "opening_hours": "Mo-Su 24 HR;", "brand": "NCP"}, "geometry": {"type": "Point", "coordinates": [-0.09717, 51.51851]}},
{"type": "Feature", "id": "ynVAXFbDLimU4OL4Xt7rip2-2Ho=", "properties": {"ref": "211231", "@spider": "ncp", "addr:full": "Brunswick Square, Marchmont Street", "addr:city": "London", "addr:postcode": "WC1N  1AP", "addr:country": "United Kingdom", "name": "London Brunswick Square", "website": "https://www.ncp.co.uk/find-a-car-park/car-parks/london-brunswick-square/", "opening_hours": "Mo-Su 24 HR;", "brand": "NCP"}, "geometry": {"type": "Point", "coordinates": [-0.12452, 51.52408]}},
{"type": "Feature", "id": "XIJUapntZhsD15U_e4ewfNbb22I=", "properties": {"ref": "386512", "@spider": "ncp", "addr:full": "Portman Road", "addr:city": "Ipswich", "addr:postcode": "IP1  2BP", "addr:country": "United Kingdom", "name": "Ipswich Portman Road", "website": "https://www.ncp.co.uk/find-a-car-park/car-parks/ipswich-portman-road/", "opening_hours": "Mo-Su 24 Hr;", "brand": "NCP"}, "geometry": {"type": "Point", "coordinates": [1.1465, 52.05416]}},
{"type": "Feature", "id": "oAJn5SS0rRBnfh8uiEezRsDXUKY=", "properties": {"ref": "470122", "@spider": "ncp", "addr:full": "Cascades, Charlotte Street", "addr:city": "Portsmouth", "addr:postcode": "PO1  4RS", "addr:country": "United Kingdom", "name": "Portsmouth Cascades", "phone": "07827954240", "website": "https://www.ncp.co.uk/find-a-car-park/car-parks/portsmouth-cascades/", "opening_hours": "Mo-Sa 08:00-18:15; Su 10:00-16:45", "brand": "NCP"}, "geometry": {"type": "Point", "coordinates": [-1.09255, 50.80074]}},
{"type": "Feature", "id": "dOWe_ICCFhclzGuUwdqR5U0wZLo=", "properties": {"ref": "380111", "@spider": "ncp", "addr:full": "Blackfriars, Foundation Street", "addr:city": "Ipswich", "addr:postcode": "IP4  1BN", "addr:country": "United Kingdom", "name": "Ipswich Blackfriars", "phone": "01473225768", "website": "https://www.ncp.co.uk/find-a-car-park/car-parks/ipswich-blackfriars/", "opening_hours": "Mo-Su 05:45-23:00;", "brand": "NCP"}, "geometry": {"type": "Point", "coordinates": [1.15748, 52.05476]}},
{"type": "Feature", "id": "u9duPrck3049s10jD7qnNsr5_gg=", "properties": {"ref": "060004", "@spider": "ncp", "addr:full": "Underground Car Park, Bloomsbury Square Gardens", "addr:city": "London", "addr:postcode": "WC1A  2RJ", "addr:country": "United Kingdom", "name": "London Bloomsbury Square", "phone": "02074057412", "website": "https://www.ncp.co.uk/find-a-car-park/car-parks/london-bloomsbury-square/", "opening_hours": "Mo-Su 24 Hr;", "brand": "NCP"}, "geometry": {"type": "Point", "coordinates": [-0.1235, 51.51894]}},
{"type": "Feature", "id": "_KqLe_3BvRkacLjI3wd-qdo0w0M=", "properties": {"ref": "254131", "@spider": "ncp", "addr:full": "City Harbour, Selsdon Way, Isle of Dogs", "addr:city": "London", "addr:postcode": "E14  9GL", "addr:country": "United Kingdom", "name": "London Docklands Cross Harbour", "website": "https://www.ncp.co.uk/find-a-car-park/car-parks/london-docklands-city-harbour/", "opening_hours": "Mo-Su 24 Hr;", "brand": "NCP"}, "geometry": {"type": "Point", "coordinates": [-0.01528, 51.49462]}},
{"type": "Feature", "id": "9V3gbyqxiCiILEg9_vbGRPmerNQ=", "properties": {"ref": "686121", "@spider": "ncp", "addr:full": "Addensbrooke's Hospital, Hills Road", "addr:city": "Cambridge", "addr:postcode": "CB2  0XX", "addr:country": "United Kingdom", "name": "Cambridge Addenbrookes Hospital", "phone": "01223256542", "website": "https://www.ncp.co.uk/find-a-car-park/car-parks/cambridge-addenbrookes-hospital/", "opening_hours": "Mo-Su 24 Hr", "brand": "NCP"}, "geometry": {"type": "Point", "coordinates": [0.13801, 52.17644]}},
{"type": "Feature", "id": "mg4_3UHr7KPZ3kzmSyH-4dkTrXY=", "properties": {"ref": "350120", "@spider": "ncp", "addr:full": "Wandle, Wandle Road", "addr:city": "Croydon", "addr:postcode": "CR0  1DX", "addr:country": "United Kingdom", "name": "Croydon Wandle", "phone": "02086866088", "website": "https://www.ncp.co.uk/find-a-car-park/car-parks/croydon-wandle/", "opening_hours": "Mo-Su 24 Hr;", "brand": "NCP"}, "geometry": {"type": "Point", "coordinates": [-0.10149, 51.3701]}},
{"type": "Feature", "id": "gYFf_QbwCNLB4YOTjO35o1dDFYE=", "properties": {"ref": "388121", "@spider": "ncp", "addr:full": "Nunns Road", "addr:city": "Colchester", "addr:postcode": "CO1  1EJ", "addr:country": "United Kingdom", "name": "Colchester High Street", "phone": "01206579733", "website": "https://www.ncp.co.uk/find-a-car-park/car-parks/colchester-high-street/", "opening_hours": "Mo-Su 06:30-23:00;", "brand": "NCP"}, "geometry": {"type": "Point", "coordinates": [0.89725, 51.89187]}},
{"type": "Feature", "id": "5PsrMzdJxEdtvrrFMYCPiiygYdk=", "properties": {"ref": "380511", "@spider": "ncp", "addr:full": "Cox Lane", "addr:city": "Ipswich", "addr:postcode": "IP4  1HT", "addr:country": "United Kingdom", "name": "Ipswich Cox Lane", "website": "https://www.ncp.co.uk/find-a-car-park/car-parks/ipswich-cox-lane/", "opening_hours": "Mo-Su 24 Hr;", "brand": "NCP"}, "geometry": {"type": "Point", "coordinates": [1.15843, 52.05596]}},
{"type": "Feature", "id": "0qRIcSqu1r43ChRoKOM-7HP2sOE=", "properties": {"ref": "800615", "@spider": "ncp", "addr:full": "Colchester Station, North Station Road", "addr:city": "Colchester", "addr:postcode": "CO1  1XD", "addr:country": "United Kingdom", "name": "Colchester Station (Greater Anglia)", "website": "https://www.ncp.co.uk/find-a-car-park/car-parks/colchester-station-g-anglia/", "opening_hours": "Mo-Su 24 Hr;", "brand": "NCP"}, "geometry": {"type": "Point", "coordinates": [0.89267, 51.90086]}},
{"type": "Feature", "id": "WtH_tH9DCNfL8DmtZn6wpy6c5Co=", "properties": {"ref": "615412", "@spider": "ncp", "addr:full": "Summer Row, Temple Street", "addr:city": "Wolverhampton", "addr:postcode": "WV2  4AU", "addr:country": "United Kingdom", "name": "Wolverhampton Summer Row", "phone": "01902420558", "website": "https://www.ncp.co.uk/find-a-car-park/car-parks/wolverhampton-summer-row/", "opening_hours": "Mo-Su 24 Hr;", "brand": "NCP"}, "geometry": {"type": "Point", "coordinates": [-2.12839, 52.58228]}},
{"type": "Feature", "id": "VqKdrMwi6bwldWz9HcYULNsV8uA=", "properties": {"ref": "550522", "@spider": "ncp", "addr:full": "Parkside, R/O The Martlets, Parkside", "addr:city": "Crawley", "addr:postcode": "RH10  1EH", "addr:country": "United Kingdom", "name": "Crawley Parkside", "website": "https://www.ncp.co.uk/find-a-car-park/car-parks/crawley-parkside/", "opening_hours": "Mo-Su 24 Hr;", "brand": "NCP"}, "geometry": {"type": "Point", "coordinates": [-0.18561, 51.11508]}},
{"type": "Feature", "id": "XoriHO7Tu3TtgPLVG3dPDunwAe8=", "properties": {"ref": "352131", "@spider": "ncp", "addr:full": "Bromley The Mall, Elmfield Road", "addr:city": "Bromley", "addr:postcode": "BR1  1TR", "addr:country": "United Kingdom", "name": "Bromley The Mall", "phone": "02084665264", "website": "https://www.ncp.co.uk/find-a-car-park/car-parks/bromley-the-mall/", "opening_hours": "Mo-Su 24 Hr;", "brand": "NCP"}, "geometry": {"type": "Point", "coordinates": [0.01787, 51.40256]}},
{"type": "Feature", "id": "M2ZIIO0zCr7eKtxAXd93dVGW6yA=", "properties": {"ref": "615413", "@spider": "ncp", "addr:full": "Pipers Row", "addr:city": "Wolverhampton", "addr:postcode": "WV1  3LA", "addr:country": "United Kingdom", "name": "Wolverhampton Pipers Row", "phone": "01902771223", "website": "https://www.ncp.co.uk/find-a-car-park/car-parks/wolverhampton-pipers-row/", "opening_hours": "Mo-Su 24 Hr;", "brand": "NCP"}, "geometry": {"type": "Point", "coordinates": [-2.12288, 52.58514]}},
{"type": "Feature", "id": "JPvEpBC1Fr-NcgE_hgmyUMsQE-I=", "properties": {"ref": "615511", "@spider": "ncp", "addr:full": "Fryer Street", "addr:city": "Wolverhampton", "addr:postcode": "WV1  1HT", "addr:country": "United Kingdom", "name": "Wolverhampton Fryer Street", "phone": "01902428889", "website": "https://www.ncp.co.uk/find-a-car-park/car-parks/wolverhampton-fryer-street/", "opening_hours": "Mo-Su 24 Hr", "brand": "NCP"}, "geometry": {"type": "Point", "coordinates": [-2.12362, 52.58709]}},
{"type": "Feature", "id": "mWOJ8mFSsLU7sdQS-4Ulwz_hlFA=", "properties": {"ref": "615411", "@spider": "ncp", "addr:full": "Church Street", "addr:city": "Wolverhampton", "addr:postcode": "WV2  4LW", "addr:country": "United Kingdom", "name": "Wolverhampton Church Street", "website": "https://www.ncp.co.uk/find-a-car-park/car-parks/wolverhampton-church-street/", "opening_hours": "Mo-Su 24 Hr;", "brand": "NCP"}, "geometry": {"type": "Point", "coordinates": [-2.13078, 52.58137]}},
{"type": "Feature", "id": "AM18ZkMHGrzfegqsIqFhdmcwVPg=", "properties": {"ref": "635131", "@spider": "ncp", "addr:full": "Rother Street", "addr:city": "Stratford on Avon", "addr:postcode": "CV37  6JP", "addr:country": "United Kingdom", "name": "Stratford on Avon Rother St", "phone": "01789204676", "website": "https://www.ncp.co.uk/find-a-car-park/car-parks/stratford-on-avon-rother-st/", "opening_hours": "Mo-Su 24 Hr", "brand": "NCP"}, "geometry": {"type": "Point", "coordinates": [-1.71051, 52.19195]}},
{"type": "Feature", "id": "LbJWcUPzyGLynegQ4WmVv6EFIUM=", "properties": {"ref": "888512", "@spider": "ncp", "addr:full": "Meigh Street, Hanley", "addr:city": "Stoke On Trent", "addr:postcode": "ST1  2BL", "addr:country": "United Kingdom", "name": "Stoke On Trent Meigh Street", "phone": "01782265518", "website": "https://www.ncp.co.uk/find-a-car-park/car-parks/stoke-on-trent-meigh-street/", "opening_hours": "Mo-Su 24 Hr;", "brand": "NCP"}, "geometry": {"type": "Point", "coordinates": [-2.17278, 53.02669]}},
{"type": "Feature", "id": "V__QB2UN9vlgKcVsQFCHFL3ozsk=", "properties": {"ref": "888532", "@spider": "ncp", "addr:full": "Sampson Street, Hanley", "addr:city": "Stoke-On-Trent", "addr:postcode": "ST1  5QY", "addr:country": "United Kingdom", "name": "Stoke Sampson Street", "phone": "03450507080", "website": "https://www.ncp.co.uk/find-a-car-park/car-parks/stoke-sampson-street/", "opening_hours": "Mo-Su 24 Hr;", "brand": "NCP"}, "geometry": {"type": "Point", "coordinates": [-2.17959, 53.02874]}},
{"type": "Feature", "id": "NjJ346Qvv7S4aiB4qvSKg2VsqDA=", "properties": {"ref": "655111", "@spider": "ncp", "addr:full": "Mount Street", "addr:city": "Nottingham", "addr:postcode": "NG1  6HG", "addr:country": "United Kingdom", "name": "Nottingham Mount Street", "phone": "01159473141", "website": "https://www.ncp.co.uk/find-a-car-park/car-parks/nottingham-mount-street/", "opening_hours": "Mo-Su 24 Hr;", "brand": "NCP"}, "geometry": {"type": "Point", "coordinates": [-1.15536, 52.95266]}},
{"type": "Feature", "id": "HEXGWrJzQfC8GVLTWff5a1otE6c=", "properties": {"ref": "655121", "@spider": "ncp", "addr:full": "Union Road", "addr:city": "Nottingham", "addr:postcode": "NG3  1FG", "addr:country": "United Kingdom", "name": "Nottingham Huntingdon Street", "phone": "07793697519", "website": "https://www.ncp.co.uk/find-a-car-park/car-parks/nottingham-huntingdon-street/", "opening_hours": "Mo-Su 05:45-23:30;", "brand": "NCP"}, "geometry": {"type": "Point", "coordinates": [-1.14493, 52.95869]}},
{"type": "Feature", "id": "MZ2Yzgsb3PoGr7d4PxXJSnr5Db8=", "properties": {"ref": "655133", "@spider": "ncp", "addr:full": "Stoney Street", "addr:city": "Nottingham", "addr:postcode": "NG1  1LS", "addr:country": "United Kingdom", "name": "Nottingham Stoney Street", "phone": "07825364212", "website": "https://www.ncp.co.uk/find-a-car-park/car-parks/nottingham-stoney-street/", "opening_hours": "Mo-Su 24 Hr;", "brand": "NCP"}, "geometry": {"type": "Point", "coordinates": [-1.14365, 52.95254]}},
{"type": "Feature", "id": "qPBZVZIkNezTVgLvyQaqrUwSopA=", "properties": {"ref": "655131", "@spider": "ncp", "addr:full": "Arndale Centre, Maid Marian Way", "addr:city": "Nottingham", "addr:postcode": "NG1  6AE", "addr:country": "United Kingdom", "name": "Nottingham Maid Marian Way", "phone": "07825364212", "website": "https://www.ncp.co.uk/find-a-car-park/car-parks/nottingham-arndale-centre/", "opening_hours": "Mo-Su 24 Hr;", "brand": "NCP"}, "geometry": {"type": "Point", "coordinates": [-1.15058, 52.94896]}},
{"type": "Feature", "id": "HRQxyzf7zlm8w7hkCWGv7yhwkJM=", "properties": {"ref": "550531", "@spider": "ncp", "addr:full": "Boulevard East", "addr:city": "Crawley", "addr:postcode": "RH10  1XP", "addr:country": "United Kingdom", "name": "Crawley Boulevard East", "website": "https://www.ncp.co.uk/find-a-car-park/car-parks/crawley-boulevard-east/", "opening_hours": "Mo-Su 24 Hr;", "brand": "NCP"}, "geometry": {"type": "Point", "coordinates": [-0.18504, 51.11628]}},
{"type": "Feature", "id": "p9jUutRiKBvvXqyN2OXOVmRVDw0=", "properties": {"ref": "600121", "@spider": "ncp", "addr:full": "High Street, Dale End", "addr:city": "Birmingham", "addr:postcode": "B4  7LN", "addr:country": "United Kingdom", "name": "Birmingham High Street", "phone": "01212621074", "website": "https://www.ncp.co.uk/find-a-car-park/car-parks/birmingham-high-street/", "opening_hours": "Mo-Su 24 Hr", "brand": "NCP"}, "geometry": {"type": "Point", "coordinates": [-1.89351, 52.48099]}},
{"type": "Feature", "id": "Bs-maBKjddcWmBtKvAVhG3Y-Ldw=", "properties": {"ref": "600512", "@spider": "ncp", "addr:full": "St Judes Passage, Hill Street", "addr:city": "Birmingham", "addr:postcode": "B5  4AN", "addr:country": "United Kingdom", "name": "Birmingham St Judes Passage", "website": "https://www.ncp.co.uk/find-a-car-park/car-parks/birmingham-st-judes-passage/", "opening_hours": "Mo-Su 24 Hr;", "brand": "NCP"}, "geometry": {"type": "Point", "coordinates": [-1.89948, 52.47615]}},
{"type": "Feature", "id": "BsMOGgxjpT4vkY-_QY7btaWVoPU=", "properties": {"ref": "600111", "@spider": "ncp", "addr:full": "Horsefair MSCP, Bow Street", "addr:city": "Birmingham", "addr:postcode": "B1  1DW", "addr:country": "United Kingdom", "name": "Birmingham Horsefair", "phone": "03450507080", "website": "https://www.ncp.co.uk/find-a-car-park/car-parks/birmingham-horsefair/", "opening_hours": "Mo-Su 24 Hr;", "brand": "NCP"}, "geometry": {"type": "Point", "coordinates": [-1.90073, 52.47372]}},
{"type": "Feature", "id": "hCRrcL-3niKZzgR44LcbGRE1FS8=", "properties": {"ref": "550533", "@spider": "ncp", "addr:full": "Cross Keys", "addr:city": "Crawley", "addr:postcode": "RH10  1HB", "addr:country": "United Kingdom", "name": "Crawley Cross Keys", "website": "https://www.ncp.co.uk/find-a-car-park/car-parks/crawley-cross-keys/", "opening_hours": "Mo-Su 24 Hr;", "brand": "NCP"}, "geometry": {"type": "Point", "coordinates": [-0.18858, 51.11442]}},
{"type": "Feature", "id": "cl0ZbPV7o-AA3aoosqzeGOqNBoU=", "properties": {"ref": "600151", "@spider": "ncp", "addr:full": "Gough Street", "addr:city": "Birmingham", "addr:postcode": "B1  1HN", "addr:country": "United Kingdom", "name": "Birmingham Gough Street", "phone": "03450507080", "website": "https://www.ncp.co.uk/find-a-car-park/car-parks/birmingham-gough-street/", "opening_hours": "Mo-Su 24 Hr", "brand": "NCP"}, "geometry": {"type": "Point", "coordinates": [-1.90289, 52.47519]}},
{"type": "Feature", "id": "TH13HrlvL1B5HRZuUjv-5zkyehs=", "properties": {"ref": "655132", "@spider": "ncp", "addr:full": "St James Street, 5 St James Street", "addr:city": "Nottingham", "addr:postcode": "NG1  6EY", "addr:country": "United Kingdom", "name": "Nottingham St James Street MSCP", "phone": "07825364212", "website": "https://www.ncp.co.uk/find-a-car-park/car-parks/nottingham-st-james-street/", "opening_hours": "Mo-Su 24 Hr;", "brand": "NCP"}, "geometry": {"type": "Point", "coordinates": [-1.15388, 52.95152]}},
{"type": "Feature", "id": "Q5bBBb4DItV-8c0VYuYlU-impOA=", "properties": {"ref": "600135", "@spider": "ncp", "addr:full": "New Street, St Judes Passage", "addr:city": "Birmingham", "addr:postcode": "B5  4AN", "addr:country": "United Kingdom", "name": "Birmingham New Street", "phone": "01212621074", "website": "https://www.ncp.co.uk/find-a-car-park/car-parks/birmingham-new-street/", "opening_hours": "Mo-Su 24 Hr;", "brand": "NCP"}, "geometry": {"type": "Point", "coordinates": [-1.90004, 52.47574]}},
{"type": "Feature", "id": "FVIZexEDfb5IfNQ0mrGcjwyWW_4=", "properties": {"ref": "600138", "@spider": "ncp", "addr:full": "Royal Angus, St Chads Queensway", "addr:city": "Birmingham", "addr:postcode": "B4  6HY", "addr:country": "United Kingdom", "name": "Birmingham Royal Angus", "phone": "01212621074", "website": "https://www.ncp.co.uk/find-a-car-park/car-parks/birmingham-royal-angus/", "opening_hours": "Mo-Su 24 Hr;", "brand": "NCP"}, "geometry": {"type": "Point", "coordinates": [-1.89775, 52.4847]}},
{"type": "Feature", "id": "RwaLNil-RS-QEKlkpJdXpWpfqJ0=", "properties": {"ref": "600139", "@spider": "ncp", "addr:full": "Newhall Street", "addr:city": "Birmingham", "addr:postcode": "B3  1SW", "addr:country": "United Kingdom", "name": "Birmingham Newhall Street", "phone": "01212621074", "website": "https://www.ncp.co.uk/find-a-car-park/car-parks/birmingham-newhall-street/", "opening_hours": "Mo-Su 24 Hr;", "brand": "NCP"}, "geometry": {"type": "Point", "coordinates": [-1.90694, 52.48439]}},
{"type": "Feature", "id": "Fc4oOyGF5lCGLHn7qxTvNdT3e6k=", "properties": {"ref": "388122", "@spider": "ncp", "addr:full": "Osborne Street", "addr:city": "Colchester", "addr:postcode": "CO2  7DP", "addr:country": "United Kingdom", "name": "Colchester Osborne Street", "phone": "01206766124", "website": "https://www.ncp.co.uk/find-a-car-park/car-parks/colchester-osborne-street/", "opening_hours": "Mo-Su 24 Hr", "brand": "NCP"}, "geometry": {"type": "Point", "coordinates": [0.90299, 51.88678]}},
{"type": "Feature", "id": "07fSQp7fC3vvCu0NJr5qz_jckHc=", "properties": {"ref": "550532", "@spider": "ncp", "addr:full": "Boulevard West", "addr:city": "Crawley", "addr:postcode": "RH10  1XP", "addr:country": "United Kingdom", "name": "Crawley Boulevard West", "website": "https://www.ncp.co.uk/find-a-car-park/car-parks/crawley-boulevard-west/", "opening_hours": "Mo-Su 24 Hr;", "brand": "NCP"}, "geometry": {"type": "Point", "coordinates": [-0.18649, 51.11642]}},
{"type": "Feature", "id": "Mgea_Rp1ftZ5Mc2JyGWLlbWG-qA=", "properties": {"ref": "600137", "@spider": "ncp", "addr:full": "Londonderry House, Dalton Street", "addr:city": "Birmingham", "addr:postcode": "B4  7LX", "addr:country": "United Kingdom", "name": "Birmingham Londonderry House", "phone": "01212621074", "website": "https://www.ncp.co.uk/find-a-car-park/car-parks/birmingham-londonderry-house/", "opening_hours": "Mo-Su 24 Hr;", "brand": "NCP"}, "geometry": {"type": "Point", "coordinates": [-1.89316, 52.48242]}},
{"type": "Feature", "id": "EKNlEDO_6TC91d38vDhwJo7coEI=", "properties": {"ref": "625131", "@spider": "ncp", "addr:full": "Cathedral, College Street", "addr:city": "Worcester", "addr:postcode": "WR1  2LU", "addr:country": "United Kingdom", "name": "Worcester Cathedral Square", "website": "https://www.ncp.co.uk/find-a-car-park/car-parks/worcester-cathedral/", "opening_hours": "Mo-Su 24 Hr", "brand": "NCP"}, "geometry": {"type": "Point", "coordinates": [-2.21885, 52.18932]}}]}