{"type":"FeatureCollection","features":[{"type": "Feature", "id": "2OgHDuxpM0aCHu5oXOmfbtXCBIc=", "properties": {"ref": "0", "@spider": "neiman_marcus", "addr:full": "6900 E Camelback Rd", "addr:city": "Scottsdale", "addr:state": "AZ", "addr:postcode": "85251", "phone": "480-990-2100", "website": "https://www.neimanmarcus.com/stores/locations", "opening_hours": "Mo 11:00-18:00; Tu 11:00-18:00; We 11:00-18:00; Th 11:00-18:00; Fr 11:00-18:00; Sa 11:00-18:00; Su 12:00-17:00", "brand": "Neiman Marcus"}, "geometry": {"type": "Point", "coordinates": [-112.105865, 33.622624]}},
{"type": "Feature", "id": "vwBM5bont7T7ieUJXMZM3c0ye7o=", "properties": {"ref": "1", "@spider": "neiman_marcus", "addr:full": "9700 Wilshire Boulevard", "addr:city": "Beverly Hills", "addr:state": "CA", "addr:postcode": "90212", "phone": "310-550-5900", "website": "https://www.neimanmarcus.com/stores/locations", "opening_hours": "Mo 10:00-19:00; Tu 10:00-19:00; We 10:00-19:00; Th 10:00-19:00; Fr 10:00-19:00; Sa 10:00-19:00; Su 12:00-18:00", "brand": "Neiman Marcus"}, "geometry": {"type": "Point", "coordinates": [-87.817205, 42.151862]}},
{"type": "Feature", "id": "I5Z6YeRbIYCIgGR4zujbb9d5J2c=", "properties": {"ref": "2", "@spider": "neiman_marcus", "addr:full": "601 Newport Center Drive", "addr:city": "Newport Beach", "addr:state": "CA", "addr:postcode": "92660", "phone": "949-759-1900", "website": "https://www.neimanmarcus.com/stores/locations", "opening_hours": "Mo 10:00-19:00; Tu 10:00-19:00; We 10:00-19:00; Th 10:00-19:00; Fr 10:00-19:00; Sa 10:00-19:00; Su 11:00-18:00", "brand": "Neiman Marcus"}, "geometry": {"type": "Point", "coordinates": [-122.406492, 37.788895]}},
{"type": "Feature", "id": "TypAlEf6KoPxjhr0KLaRZsjoqgs=", "properties": {"ref": "3", "@spider": "neiman_marcus", "addr:full": "400 Stanford Shopping Center", "addr:city": "Palo Alto", "addr:state": "CA", "addr:postcode": "94304", "phone": "650-329-3300", "website": "https://www.neimanmarcus.com/stores/locations", "opening_hours": "Mo 11:00-19:00; Tu 11:00-19:00; We 11:00-19:00; Th 11:00-19:00; Fr 11:00-19:00; Sa 11:00-19:00; Su 11:00-18:00", "brand": "Neiman Marcus"}, "geometry": {"type": "Point", "coordinates": [-74.363708, 40.727486]}},
{"type": "Feature", "id": "8sN1NKvJTLzAINcWQ9JCrHTKJuA=", "properties": {"ref": "4", "@spider": "neiman_marcus", "addr:full": "7027 Friars Road", "addr:city": "San Diego", "addr:state": "CA", "addr:postcode": "92108", "phone": "619-692-9100", "website": "https://www.neimanmarcus.com/stores/locations", "opening_hours": "Mo 10:00-19:00; Tu 10:00-19:00; We 10:00-19:00; Th 10:00-19:00; Fr 10:00-19:00; Sa 10:00-19:00; Su 11:00-18:00", "brand": "Neiman Marcus"}, "geometry": {"type": "Point", "coordinates": [-117.090712, 32.986574]}},
{"type": "Feature", "id": "iaJbzgI7lkfbZaTm1dib-EnPoDY=", "properties": {"ref": "5", "@spider": "neiman_marcus", "addr:full": "150 Stockton Street", "addr:city": "San Francisco", "addr:state": "CA", "addr:postcode": "94108", "phone": "415-362-3900", "website": "https://www.neimanmarcus.com/stores/locations", "opening_hours": "Mo 10:00-18:00; Tu 10:00-18:00; We 10:00-18:00; Th 10:00-19:00; Fr 10:00-19:00; Sa 10:00-19:00; Su 11:00-18:00", "brand": "Neiman Marcus"}, "geometry": {"type": "Point", "coordinates": [-96.829634, 33.032035]}},
{"type": "Feature", "id": "gw34brWQzShLbGUIutQNRT-GNpk=", "properties": {"ref": "6", "@spider": "neiman_marcus", "addr:full": "6550 Topanga Canyon Blvd.", "addr:city": "Canoga Park", "addr:state": "CA", "addr:postcode": "91303", "phone": "818-316-7000", "website": "https://www.neimanmarcus.com/stores/locations", "opening_hours": "Mo 11:00-19:00; Tu 11:00-19:00; We 11:00-19:00; Th 11:00-19:00; Fr 11:00-19:00; Sa 11:00-19:00; Su 12:00-18:00", "brand": "Neiman Marcus"}, "geometry": {"type": "Point", "coordinates": [-122.406492, 37.789438]}},
{"type": "Feature", "id": "3WpUx-vq87mNmLdFFLmOsk1lC68=", "properties": {"ref": "7", "@spider": "neiman_marcus", "addr:full": "3030 E 1st Ave", "addr:city": "Denver ", "addr:state": "CO", "addr:postcode": "80206", "phone": "303-329-2600", "website": "https://www.neimanmarcus.com/stores/locations", "opening_hours": "Mo 10:00-18:00; Tu 10:00-18:00; We 10:00-18:00; Th 10:00-18:00; Fr 10:00-19:00; Sa 10:00-19:00; Su 12:00-18:00", "brand": "Neiman Marcus"}, "geometry": {"type": "Point", "coordinates": [-104.953251, 39.718725]}},
{"type": "Feature", "id": "yJTtI6V_mju3Yi04WQCnXreAZfc=", "properties": {"ref": "8", "@spider": "neiman_marcus", "addr:full": "9700 Collins Avenue", "addr:city": "Bal Harbour", "addr:state": "FL", "addr:postcode": "33154", "phone": "305-865-6161", "website": "https://www.neimanmarcus.com/stores/locations", "opening_hours": "Mo 11:00-20:00; Tu 11:00-20:00; We 11:00-20:00; Th 11:00-20:00; Fr 11:00-20:00; Sa 11:00-20:00; Su 12:00-19:00", "brand": "Neiman Marcus"}, "geometry": {"type": "Point", "coordinates": [-95.460958, 29.740741]}},
{"type": "Feature", "id": "xjnj0Wkx5PeDgxkEObGxGciJGSA=", "properties": {"ref": "9", "@spider": "neiman_marcus", "addr:full": "5860 Glades Road", "addr:city": "Boca Raton", "addr:state": "FL", "addr:postcode": "33431", "phone": "561-417-5151", "website": "https://www.neimanmarcus.com/stores/locations", "opening_hours": "Mo 11:00-19:00; Tu 11:00-19:00; We 11:00-19:00; Th 11:00-19:00; Fr 11:00-19:00; Sa 11:00-19:00; Su 12:00-18:00", "brand": "Neiman Marcus"}, "geometry": {"type": "Point", "coordinates": [-96.797512, 32.782602]}},
{"type": "Feature", "id": "M7JzGGJD-M880q2fnpmOBsvs5mA=", "properties": {"ref": "10", "@spider": "neiman_marcus", "addr:full": "390 San Lorenzo Avenue", "addr:city": "Coral Gables", "addr:state": "FL", "addr:postcode": "33146", "phone": "786-999-1000", "website": "https://www.neimanmarcus.com/stores/locations", "opening_hours": "Mo 11:00-21:00; Tu 11:00-21:00; We 11:00-21:00; Th 11:00-21:00; Fr 11:00-21:00; Sa 11:00-21:00; Su 12:00-18:00", "brand": "Neiman Marcus"}, "geometry": {"type": "Point", "coordinates": [-80.261822, 25.732314]}},
{"type": "Feature", "id": "9ZJQQZEmEm5-buzmqOVV_Is5bbQ=", "properties": {"ref": "11", "@spider": "neiman_marcus", "addr:full": "4170 Conroy Road", "addr:city": "Orlando", "addr:state": "FL", "addr:postcode": "32839", "phone": "407-264-5900", "website": "https://www.neimanmarcus.com/stores/locations", "opening_hours": "Mo 11:00-19:00; Tu 11:00-19:00; We 11:00-19:00; Th 11:00-19:00; Fr 11:00-20:00; Sa 11:00-20:00; Su 12:00-19:00", "brand": "Neiman Marcus"}, "geometry": {"type": "Point", "coordinates": [-98.301544, 29.722645]}},
{"type": "Feature", "id": "9qOfm1VOJuMlo9Ty12zUHj4Wzi4=", "properties": {"ref": "12", "@spider": "neiman_marcus", "addr:full": "2223 N. Westshore Blvd.", "addr:city": "Tampa", "addr:state": "FL", "addr:postcode": "33607", "phone": "813-877-5700", "website": "https://www.neimanmarcus.com/stores/locations", "opening_hours": "Mo 11:00-19:00; Tu 11:00-19:00; We 11:00-19:00; Th 11:00-19:00; Fr 11:00-19:00; Sa 11:00-19:00; Su 12:00-18:00", "brand": "Neiman Marcus"}, "geometry": {"type": "Point", "coordinates": [-81.429698, 28.485912]}},
{"type": "Feature", "id": "CfE3JTvJrXIxGAnFmQpE2a5aeHE=", "properties": {"ref": "13", "@spider": "neiman_marcus", "addr:full": "3393 Peachtree Road NE", "addr:city": "Atlanta", "addr:state": "GA", "addr:postcode": "30326", "phone": "404-266-8200", "website": "https://www.neimanmarcus.com/stores/locations", "opening_hours": "Mo 10:00-19:00; Tu 10:00-19:00; We 10:00-19:00; Th 10:00-19:00; Fr 10:00-20:00; Sa 10:00-20:00; Su 12:00-18:00", "brand": "Neiman Marcus"}, "geometry": {"type": "Point", "coordinates": [-80.169576, 25.826002]}},
{"type": "Feature", "id": "Ooi_a4XNkmG92-PEMn-tGC90B-g=", "properties": {"ref": "14", "@spider": "neiman_marcus", "addr:full": "1450 Ala Moana Boulevard", "addr:city": "Honolulu ", "addr:state": "HI", "addr:postcode": "96814", "phone": "808-951-8887", "website": "https://www.neimanmarcus.com/stores/locations", "opening_hours": "Mo 11:00-18:00; Tu 11:00-18:00; We 11:00-18:00; Th 11:00-18:00; Fr 11:00-19:00; Sa 11:00-19:00; Su 12:00-18:00", "brand": "Neiman Marcus"}, "geometry": {"type": "Point", "coordinates": [-80.035252, 26.701197]}},
{"type": "Feature", "id": "M3QxfCrjGr7UIHlHwPmyHALiyrI=", "properties": {"ref": "15", "@spider": "neiman_marcus", "addr:full": "737 North Michigan Avenue", "addr:city": "Chicago", "addr:state": "IL", "addr:postcode": "60611", "phone": "312-642-5900", "website": "https://www.neimanmarcus.com/stores/locations", "opening_hours": "Mo 11:00-19:00; Tu 11:00-19:00; We 11:00-19:00; Th 11:00-19:00; Fr 11:00-19:00; Sa 11:00-19:00; Su 12:00-18:00", "brand": "Neiman Marcus"}, "geometry": {"type": "Point", "coordinates": [-71.076651, 42.348364]}},
{"type": "Feature", "id": "a_MeTbglN6_6OFmWZeVGr6xuutQ=", "properties": {"ref": "16", "@spider": "neiman_marcus", "addr:full": "5000 Northbrook Ct", "addr:city": "Northbrook", "addr:state": "IL", "addr:postcode": "60062", "phone": "847-564-0300", "website": "https://www.neimanmarcus.com/stores/locations", "opening_hours": "Mo 11:00-19:00; Tu 11:00-19:00; We 11:00-19:00; Th 11:00-19:00; Fr 11:00-19:00; Sa 11:00-19:00; Su 12:00-18:00", "brand": "Neiman Marcus"}, "geometry": {"type": "Point", "coordinates": [-77.080894, 38.959676]}},
{"type": "Feature", "id": "drw_XY-4oB5kutrse2ISzfii2zk=", "properties": {"ref": "17", "@spider": "neiman_marcus", "addr:full": "6 Oakbrook Center", "addr:city": "Oak Brook", "addr:state": "IL", "addr:postcode": "60523", "phone": "630-572-1500", "website": "https://www.neimanmarcus.com/stores/locations", "opening_hours": "Mo 11:00-19:00; Tu 11:00-19:00; We 11:00-19:00; Th 11:00-19:00; Fr 11:00-19:00; Sa 11:00-19:00; Su 12:00-17:00", "brand": "Neiman Marcus"}, "geometry": {"type": "Point", "coordinates": [-80.114322, 26.13974]}},
{"type": "Feature", "id": "WnWivT3nJqDu6Z4mf1sKSpNF_do=", "properties": {"ref": "18", "@spider": "neiman_marcus", "addr:full": "5 Copley Place", "addr:city": "Boston ", "addr:state": "MA", "addr:postcode": "02116", "phone": "617-536-3660", "website": "https://www.neimanmarcus.com/stores/locations", "opening_hours": "Mo 11:00-19:00; Tu 11:00-19:00; We 11:00-19:00; Th 11:00-19:00; Fr 11:00-19:00; Sa 11:00-19:00; Su 12:00-18:00", "brand": "Neiman Marcus"}, "geometry": {"type": "Point", "coordinates": [-77.163162, 38.950064]}},
{"type": "Feature", "id": "bbwhAkz9hBBKLASd7E4mJ8EvmGg=", "properties": {"ref": "19", "@spider": "neiman_marcus", "addr:full": "310 Speen Street", "addr:city": "Natick", "addr:state": "MA", "addr:postcode": "01760", "phone": "508-620-5700", "website": "https://www.neimanmarcus.com/stores/locations", "opening_hours": "Mo 11:00-19:00; Tu 11:00-19:00; We 11:00-19:00; Th 11:00-19:00; Fr 11:00-19:00; Sa 11:00-19:00; Su 12:00-18:00", "brand": "Neiman Marcus"}, "geometry": {"type": "Point", "coordinates": [-118.473816, 34.215209]}},
{"type": "Feature", "id": "OrhQ2ju1OjaZxad2ePOHNRjsiIg=", "properties": {"ref": "20", "@spider": "neiman_marcus", "addr:full": "2705 W Big Beaver Road", "addr:city": "Troy ", "addr:state": "MI", "addr:postcode": "48084", "phone": "248-643-3300", "website": "https://www.neimanmarcus.com/stores/locations", "opening_hours": "Mo 10:00-20:00; Tu 10:00-20:00; We 10:00-20:00; Th 10:00-20:00; Fr 10:00-20:00; Sa 10:00-20:00; Su 12:00-18:00", "brand": "Neiman Marcus"}, "geometry": {"type": "Point", "coordinates": [-80.261822, 25.732082]}},
{"type": "Feature", "id": "RHunZs7Cbn67uU9qSzd20PrqguU=", "properties": {"ref": "21", "@spider": "neiman_marcus", "addr:full": "100 Plaza Frontenac", "addr:city": "St. Louis", "addr:state": "MO", "addr:postcode": "63131", "phone": "314-567-9811", "website": "https://www.neimanmarcus.com/stores/locations", "opening_hours": "Mo 10:00-19:00; Tu 10:00-19:00; We 10:00-19:00; Th 10:00-19:00; Fr 10:00-19:00; Sa 10:00-19:00; Su 12:00-18:00", "brand": "Neiman Marcus"}, "geometry": {"type": "Point", "coordinates": [-90.406408, 38.636215]}},
{"type": "Feature", "id": "BiqHYrDYgOlZ84eAm7TlrtzlIbg=", "properties": {"ref": "22", "@spider": "neiman_marcus", "addr:full": "3200 Las Vegas Boulevard South", "addr:city": "Las Vegas", "addr:state": "NV", "addr:postcode": "89109", "phone": "702-731-3636", "website": "https://www.neimanmarcus.com/stores/locations", "opening_hours": "Mo 10:00-18:00; Tu 10:00-18:00; We 10:00-18:00; Th 10:00-18:00; Fr 10:00-18:00; Sa 10:00-18:00; Su 12:00-18:00", "brand": "Neiman Marcus"}, "geometry": {"type": "Point", "coordinates": [-117.155285, 32.776306]}},
{"type": "Feature", "id": "Q4yGUccZwgV2femq0LeZtnBYnS0=", "properties": {"ref": "23", "@spider": "neiman_marcus", "addr:full": "503 Garden State Plz", "addr:city": "Paramus", "addr:state": "NJ", "addr:postcode": "07652", "phone": "201-291-1920", "website": "https://www.neimanmarcus.com/stores/locations", "opening_hours": "Mo 11:00-20:00; Tu 11:00-20:00; We 11:00-20:00; Th 11:00-20:00; Fr 11:00-20:00; Sa 11:00-20:00; Su Closed", "brand": "Neiman Marcus"}, "geometry": {"type": "Point", "coordinates": [-112.207489, 33.626055]}},
{"type": "Feature", "id": "nabXFitkMjCaeOom0-kHGteAThE=", "properties": {"ref": "24", "@spider": "neiman_marcus", "addr:full": "1200 Morris Turnpike", "addr:city": "Short Hills", "addr:state": "NJ", "addr:postcode": "07078", "phone": "973-912-0080", "website": "https://www.neimanmarcus.com/stores/locations", "opening_hours": "Mo 11:00-19:00; Tu 11:00-19:00; We 11:00-19:00; Th 11:00-19:00; Fr 11:00-19:00; Sa 11:00-19:00; Su 11:00-18:00", "brand": "Neiman Marcus"}, "geometry": {"type": "Point", "coordinates": [-93.270664, 44.984896]}},
{"type": "Feature", "id": "buLQoP3ORcAzVc7D84Nkt2BiGUk=", "properties": {"ref": "25", "@spider": "neiman_marcus", "addr:full": "620 Old Country Road", "addr:city": "Garden City", "addr:state": "NY", "addr:postcode": "11530", "phone": "516-368-0500", "website": "https://www.neimanmarcus.com/stores/locations", "opening_hours": "Mo 11:00-19:00; Tu 11:00-19:00; We 11:00-19:00; Th 11:00-20:00; Fr 11:00-20:00; Sa 11:00-20:00; Su 12:00-18:00", "brand": "Neiman Marcus"}},
{"type": "Feature", "id": "eZ1LRHbXom608k7U4xG08M2E4Hk=", "properties": {"ref": "26", "@spider": "neiman_marcus", "addr:full": "2 E MAPLE AVE", "addr:city": "White Plains ", "addr:state": "NY", "addr:postcode": "10601", "phone": "914-428-2000", "website": "https://www.neimanmarcus.com/stores/locations", "opening_hours": "Mo 11:00-19:00; Tu 11:00-19:00; We 11:00-19:00; Th 10:00-20:00; Fr 10:00-20:00; Sa 10:00-20:00; Su 11:00-18:00", "brand": "Neiman Marcus"}, "geometry": {"type": "Point", "coordinates": [-115.16794, 36.129418]}},
{"type": "Feature", "id": "by7LsvOrEZh2F815hx23xPkGAPI=", "properties": {"ref": "27", "@spider": "neiman_marcus", "addr:full": "4400 Sharon Rd", "addr:city": "Charlotte", "addr:state": "NC", "addr:postcode": "28211", "phone": "704-442-7900", "website": "https://www.neimanmarcus.com/stores/locations", "opening_hours": "Mo 10:00-19:00; Tu 10:00-19:00; We 10:00-19:00; Th 10:00-19:00; Fr 10:00-20:00; Sa 10:00-20:00; Su 12:00-18:00", "brand": "Neiman Marcus"}, "geometry": {"type": "Point", "coordinates": [-71.233292, 42.321493]}},
{"type": "Feature", "id": "l2nuFjg_uQYniEvwkUWrYsReE4Y=", "properties": {"ref": "28", "@spider": "neiman_marcus", "addr:full": "170 N Gulph Rd", "addr:city": "King of Prussia", "addr:state": "PA", "addr:postcode": "19406", "phone": "610-962-6200", "website": "https://www.neimanmarcus.com/stores/locations", "opening_hours": "Mo 11:00-20:00; Tu 11:00-20:00; We 11:00-20:00; Th 11:00-20:00; Fr 11:00-20:00; Sa 11:00-20:00; Su 12:00-18:00", "brand": "Neiman Marcus"}, "geometry": {"type": "Point", "coordinates": [-157.843893, 21.291141]}},
{"type": "Feature", "id": "Ujo3apr9Gqb0hpFWA6vmG2iYvio=", "properties": {"ref": "29", "@spider": "neiman_marcus", "addr:full": "3400 Palm Way", "addr:city": "Austin", "addr:state": "TX", "addr:postcode": "78758", "phone": "866-880-1293", "website": "https://www.neimanmarcus.com/stores/locations", "opening_hours": "Mo 11:00-19:00; Tu 11:00-19:00; We 11:00-19:00; Th 11:00-19:00; Fr 11:00-19:00; Sa 11:00-19:00; Su 12:00-18:00", "brand": "Neiman Marcus"}},
{"type": "Feature", "id": "StFH_kTd0we-P8FiY__0WrGqV5M=", "properties": {"ref": "30", "@spider": "neiman_marcus", "addr:full": "1618 Main St.", "addr:city": "Dallas", "addr:state": "TX", "addr:postcode": "75201", "phone": "214-741-6911", "website": "https://www.neimanmarcus.com/stores/locations", "opening_hours": "Mo 10:00-18:00; Tu 10:00-18:00; We 10:00-18:00; Th 10:00-18:00; Fr 10:00-18:00; Sa 10:00-18:00; Su Closed", "brand": "Neiman Marcus"}, "geometry": {"type": "Point", "coordinates": [-96.797554, 32.781105]}},
{"type": "Feature", "id": "MNbNV8c0i99NfOezWw-d-gpn2Ck=", "properties": {"ref": "31", "@spider": "neiman_marcus", "addr:full": "8687 North Central Expressway", "addr:city": "Dallas", "addr:state": "TX", "addr:postcode": "75225", "phone": "214-363-8311", "website": "https://www.neimanmarcus.com/stores/locations", "opening_hours": "Mo 10:00-20:00; Tu 10:00-20:00; We 10:00-20:00; Th 10:00-20:00; Fr 10:00-20:00; Sa 10:00-20:00; Su 12:00-18:00", "brand": "Neiman Marcus"}, "geometry": {"type": "Point", "coordinates": [-96.797516, 32.780763]}},
{"type": "Feature", "id": "3p_cu-TnwVHF_G7j4UGZUqG3NEw=", "properties": {"ref": "32", "@spider": "neiman_marcus", "addr:full": "2201 Dallas Pkwy", "addr:city": "Plano", "addr:state": "TX", "addr:postcode": "75093", "phone": "972-629-1700", "website": "https://www.neimanmarcus.com/stores/locations", "opening_hours": "Mo 10:00-19:00; Tu 10:00-19:00; We 10:00-19:00; Th 10:00-19:00; Fr 10:00-20:00; Sa 10:00-20:00; Su 12:00-18:00", "brand": "Neiman Marcus"}, "geometry": {"type": "Point", "coordinates": [-73.939362, 41.136262]}},
{"type": "Feature", "id": "HUpuREIPg4wYe9xfPpRDf7utu6I=", "properties": {"ref": "33", "@spider": "neiman_marcus", "addr:full": "5200 Monahans Ave", "addr:city": "Fort Worth", "addr:state": "TX", "addr:postcode": "76109", "phone": "817-738-3581", "website": "https://www.neimanmarcus.com/stores/locations", "opening_hours": "Mo 10:00-19:00; Tu 10:00-19:00; We 10:00-19:00; Th 10:00-19:00; Fr 10:00-19:00; Sa 10:00-19:00; Su 12:00-18:00", "brand": "Neiman Marcus"}},
{"type": "Feature", "id": "hlCp8V-DO0hRQfixwU_OmtdrrQM=", "properties": {"ref": "34", "@spider": "neiman_marcus", "addr:full": "2600 Post Oak Boulevard", "addr:city": "Houston", "addr:state": "TX", "addr:postcode": "77056", "phone": "713-621-7100", "website": "https://www.neimanmarcus.com/stores/locations", "opening_hours": "Mo 11:00-20:00; Tu 11:00-20:00; We 11:00-20:00; Th 11:00-20:00; Fr 10:00-20:00; Sa 10:00-20:00; Su 12:00-18:00", "brand": "Neiman Marcus"}, "geometry": {"type": "Point", "coordinates": [-97.103709, 32.853001]}},
{"type": "Feature", "id": "uN3tqAJHE3EDuMnLpQtG-IVRB4M=", "properties": {"ref": "35", "@spider": "neiman_marcus", "addr:full": "15900 La Cantera Pkwy", "addr:city": "San Antonio", "addr:state": "TX", "addr:postcode": "78256", "phone": "210-558-8000", "website": "https://www.neimanmarcus.com/stores/locations", "opening_hours": "Mo 11:00-20:00; Tu 11:00-20:00; We 11:00-20:00; Th 11:00-20:00; Fr 11:00-20:00; Sa 11:00-20:00; Su 12:00-18:00", "brand": "Neiman Marcus"}, "geometry": {"type": "Point", "coordinates": [-80.134513, 26.368225]}},
{"type": "Feature", "id": "syHgZFjrlCVNOi0KcDpC-X85H90=", "properties": {"ref": "36", "@spider": "neiman_marcus", "addr:full": "2255 International Drive", "addr:city": "McLean ", "addr:state": "VA", "addr:postcode": "22102", "phone": "703-761-1600", "website": "https://www.neimanmarcus.com/stores/locations", "opening_hours": "Mo 11:00-19:00; Tu 11:00-19:00; We 11:00-19:00; Th 11:00-20:00; Fr 11:00-20:00; Sa 11:00-20:00; Su 12:00-18:00", "brand": "Neiman Marcus"}, "geometry": {"type": "Point", "coordinates": [-122.174835, 37.613144]}}]}