{"type":"FeatureCollection","features":[{"type": "Feature", "id": "nXPPJjaTbJbgkglltp6_RdcUkSQ=", "properties": {"ref": "Aberfoyle & Buchlyvie Medical Centre (Buchlyvie Surgery) FK8 3NB", "@spider": "nhsscotland", "addr:full": "Station Road Buchlyvie FK8 3NB", "addr:country": "uk", "name": "Aberfoyle & Buchlyvie Medical Centre (Buchlyvie Surgery)", "website": "https://www.nhsinform.scot/scotlands-service-directory/gp-practices/849%201cls1116", "brand": "NHS Scotland"}, "geometry": {"type": "Point", "coordinates": [-4.297842, 56.116283]}},
{"type": "Feature", "id": "SJCSEJRhFgyxM2ZBChYUzlVSwPw=", "properties": {"ref": "Aberfeldy & Kinloch Rannoch Medical Practice (Kinloch Rannoch H.C.) PH16 5PR", "@spider": "nhsscotland", "addr:full": "Kinlochrannoch Health Centre Kinloch Rannoch PH16 5PR", "addr:country": "uk", "name": "Aberfeldy & Kinloch Rannoch Medical Practice (Kinloch Rannoch H.C.)", "website": "https://www.nhsinform.scot/scotlands-service-directory/gp-practices/2621%201pnk1116", "brand": "NHS Scotland"}, "geometry": {"type": "Point", "coordinates": [-4.19138, 56.700076]}},
{"type": "Feature", "id": "3uSsNZx37pP_RvzfO9z416AAM1A=", "properties": {"ref": "Abernethy Surgery PH2 9JH", "@spider": "nhsscotland", "addr:full": "44 Main Street Abernethy PH2 9JH", "addr:country": "uk", "name": "Abernethy Surgery", "website": "https://www.nhsinform.scot/scotlands-service-directory/gp-practices/12360%201pnk1116", "brand": "NHS Scotland"}, "geometry": {"type": "Point", "coordinates": [-3.312033, 56.332412]}},
{"type": "Feature", "id": "5uJzRjqn71tEF2WCJBuhjgwA3po=", "properties": {"ref": "Aberlour Health Centre AB38 9PR", "@spider": "nhsscotland", "addr:full": "Queens Road Aberlour AB38 9PR", "addr:country": "uk", "name": "Aberlour Health Centre", "website": "https://www.nhsinform.scot/scotlands-service-directory/gp-practices/959%201mor1116", "brand": "NHS Scotland"}, "geometry": {"type": "Point", "coordinates": [-3.224174, 57.469361]}},
{"type": "Feature", "id": "3DLmRTptPT78LD_dOqIIA4oUzso=", "properties": {"ref": "Aberfoyle & Buchlyvie Medical Centre (Aberfoyle Medical Centre) FK8 3UX", "@spider": "nhsscotland", "addr:full": "Main Street Aberfoyle FK8 3UX", "addr:country": "uk", "name": "Aberfoyle & Buchlyvie Medical Centre (Aberfoyle Medical Centre)", "website": "https://www.nhsinform.scot/scotlands-service-directory/gp-practices/825%201cls1116", "brand": "NHS Scotland"}, "geometry": {"type": "Point", "coordinates": [-4.375479, 56.176324]}},
{"type": "Feature", "id": "lvCvJJL4aYAMxeF6nMzrev6V4Mg=", "properties": {"ref": "Abercromby Practice Glasgow", "@spider": "nhsscotland", "addr:full": "Bridgeton Health Centre 201 Abercromby St Glasgow G40 2DA", "addr:country": "uk", "name": "Abercromby Practice", "website": "https://www.nhsinform.scot/scotlands-service-directory/gp-practices/1161%201glc1116", "brand": "NHS Scotland"}, "geometry": {"type": "Point", "coordinates": [-4.227886, 55.852469]}},
{"type": "Feature", "id": "xC4RcUwdvz1I_OzHU6DRob2FqC0=", "properties": {"ref": "Aberfeldy & Kinloch Rannoch Medical Practice (Aberfeldy Health Centre) Taybridge Road", "@spider": "nhsscotland", "addr:full": "Aberfeldy Health Centre Tigh an Daraich Taybridge Road Aberfeldy PH15 2BH", "addr:country": "uk", "name": "Aberfeldy & Kinloch Rannoch Medical Practice (Aberfeldy Health Centre)", "website": "https://www.nhsinform.scot/scotlands-service-directory/gp-practices/2619%201pnk1116", "brand": "NHS Scotland"}, "geometry": {"type": "Point", "coordinates": [-3.870064, 56.619808]}},
{"type": "Feature", "id": "6d3w5CWd4Tra8vNtbnKfk6DMhpU=", "properties": {"ref": "Abbey Medical Centre PA1 1SU", "@spider": "nhsscotland", "addr:full": "Lonend Paisley PA1 1SU", "addr:country": "uk", "name": "Abbey Medical Centre", "website": "https://www.nhsinform.scot/scotlands-service-directory/gp-practices/1159%201ren1116", "brand": "NHS Scotland"}, "geometry": {"type": "Point", "coordinates": [-4.418082, 55.840612]}},
{"type": "Feature", "id": "c_p0lTC1xPsZfi2X1XY7w2X4Xck=", "properties": {"ref": "20 20 Opticians G41 3YR", "@spider": "nhsscotland", "addr:full": "53 Kilmarnock Road Glasgow G41 3YR", "addr:country": "uk", "name": "20 20 Opticians", "website": "https://www.nhsinform.scot/scotlands-service-directory/opticians/7821%201glc1116", "brand": "NHS Scotland"}, "geometry": {"type": "Point", "coordinates": [-4.282951, 55.82859]}},
{"type": "Feature", "id": "GTGVDZkOtNI-ywK7YTs5b7qeoH8=", "properties": {"ref": "Aberdeen Maternity Hospital AB25 2ZL", "@spider": "nhsscotland", "addr:full": "Cornhill Road Aberdeen AB25 2ZL", "addr:country": "uk", "name": "Aberdeen Maternity Hospital", "website": "https://www.nhsinform.scot/scotlands-service-directory/hospitals/8949%201", "brand": "NHS Scotland"}, "geometry": {"type": "Point", "coordinates": [-2.132073, 57.15526]}},
{"type": "Feature", "id": "MvdedtOqPFCnNEmRLQVYUhhlP8M=", "properties": {"ref": "Arran War Memorial Hospital KA27 8LF", "@spider": "nhsscotland", "addr:full": "Lamlash Isle of Arran KA27 8LF", "addr:country": "uk", "name": "Arran War Memorial Hospital", "website": "https://www.nhsinform.scot/scotlands-service-directory/hospitals/8879%201", "brand": "NHS Scotland"}, "geometry": {"type": "Point", "coordinates": [-5.115521, 55.54312]}},
{"type": "Feature", "id": "uPPEBADHggTUkQVSn1WcwGvUIRY=", "properties": {"ref": "20 20 Opticians and Hearing Care (348 Gorgie Road, Edinburgh) EH11 2RQ", "@spider": "nhsscotland", "addr:full": "348 Gorgie Road Edinburgh EH11 2RQ", "addr:country": "uk", "name": "20 20 Opticians and Hearing Care (348 Gorgie Road, Edinburgh)", "website": "https://www.nhsinform.scot/scotlands-service-directory/opticians/8309%201edc1116", "brand": "NHS Scotland"}, "geometry": {"type": "Point", "coordinates": [-3.240539, 55.936555]}},
{"type": "Feature", "id": "uU7Jhx3BqXnQbJIre1gW4LmJcks=", "properties": {"ref": "20 20 Opticians and Hearing Care (139 Gorgie Road, Edinburgh) EH11 1TH", "@spider": "nhsscotland", "addr:full": "139 Gorgie Road Edinburgh EH11 1TH", "addr:country": "uk", "name": "20 20 Opticians and Hearing Care (139 Gorgie Road, Edinburgh)", "website": "https://www.nhsinform.scot/scotlands-service-directory/opticians/8287%201edc1116", "brand": "NHS Scotland"}, "geometry": {"type": "Point", "coordinates": [-3.23136, 55.93787]}},
{"type": "Feature", "id": "ZqD4NImCmtT60AfdD2ILa1COQqQ=", "properties": {"ref": "20 20 Opticians and Hearing Care (Helensburgh Branch) G84 8SR", "@spider": "nhsscotland", "addr:full": "7 Sinclair Street Helensburgh G84 8SR", "addr:country": "uk", "name": "20 20 Opticians and Hearing Care (Helensburgh Branch)", "website": "https://www.nhsinform.scot/scotlands-service-directory/opticians/8053%201arb1116", "brand": "NHS Scotland"}, "geometry": {"type": "Point", "coordinates": [-4.733775, 56.003655]}},
{"type": "Feature", "id": "bl0oktGbE-iFyoAcRTQL9EYHl7E=", "properties": {"ref": "Aberlour Pharmacy AB38 9NX", "@spider": "nhsscotland", "addr:full": "112 High Street Aberlour AB38 9NX", "addr:country": "uk", "name": "Aberlour Pharmacy", "website": "https://www.nhsinform.scot/scotlands-service-directory/pharmacies/5985%201mor1116", "brand": "NHS Scotland"}, "geometry": {"type": "Point", "coordinates": [-3.226617, 57.470105]}},
{"type": "Feature", "id": "FUWc_LZwvpjMVkI06klz04xf_8k=", "properties": {"ref": "1 Smile Dental Clinic G2 5AH", "@spider": "nhsscotland", "addr:full": "13 Renfield Street Glasgow G2 5AH", "addr:country": "uk", "name": "1 Smile Dental Clinic", "website": "https://www.nhsinform.scot/scotlands-service-directory/dental-services/3290%201glc1116", "brand": "NHS Scotland"}, "geometry": {"type": "Point", "coordinates": [-4.2571, 55.861131]}},
{"type": "Feature", "id": "ayZUJenl-yrxesQ7EFC2l9nqZh4=", "properties": {"ref": "A.K. & A. McPhail Dental Surgery G76 7ER", "@spider": "nhsscotland", "addr:full": "11 Mearns Road Clarkston G76 7ER", "addr:country": "uk", "name": "A.K. & A. McPhail Dental Surgery", "website": "https://www.nhsinform.scot/scotlands-service-directory/dental-services/3294%201erf1116", "brand": "NHS Scotland"}, "geometry": {"type": "Point", "coordinates": [-4.277421, 55.789458]}},
{"type": "Feature", "id": "g2zdZYFEPk0kcOzPblYxBviZlrI=", "properties": {"ref": "A.S. Rosewell Dental Clinic KY5 8ET", "@spider": "nhsscotland", "addr:full": "2 Ballingry Road Lochore KY5 8ET", "addr:country": "uk", "name": "A.S. Rosewell Dental Clinic", "website": "https://www.nhsinform.scot/scotlands-service-directory/dental-services/2919%201fif1116", "brand": "NHS Scotland"}, "geometry": {"type": "Point", "coordinates": [-3.322663, 56.157481]}},
{"type": "Feature", "id": "iGBVUcGoUYmbjXzSQOJfMpXhIw4=", "properties": {"ref": "8 to 8 Dental (Keith) AB55 5FL", "@spider": "nhsscotland", "addr:full": "1 Westerton Road North Keith AB55 5FL", "addr:country": "uk", "name": "8 to 8 Dental (Keith)", "website": "https://www.nhsinform.scot/scotlands-service-directory/dental-services/3128%201mor1116", "brand": "NHS Scotland"}, "geometry": {"type": "Point", "coordinates": [-2.942686, 57.541722]}},
{"type": "Feature", "id": "-osp3UYVmC6R1MbObFtmtkn8OGY=", "properties": {"ref": "Abbey Orthodontics KY12 7PE", "@spider": "nhsscotland", "addr:full": "18 St Margaret Street Dunfermline KY12 7PE", "addr:country": "uk", "name": "Abbey Orthodontics", "website": "https://www.nhsinform.scot/scotlands-service-directory/dental-services/13664%201fif1116", "brand": "NHS Scotland"}, "geometry": {"type": "Point", "coordinates": [-3.461459, 56.069449]}},
{"type": "Feature", "id": "hjNGFRC9F5sbkdFvZaKVhEkZ7QI=", "properties": {"ref": "Abbey Dental Care PA1 1YN", "@spider": "nhsscotland", "addr:full": "47 Causeyside Street Paisley PA1 1YN", "addr:country": "uk", "name": "Abbey Dental Care", "website": "https://www.nhsinform.scot/scotlands-service-directory/dental-services/3296%201ren1116", "brand": "NHS Scotland"}, "geometry": {"type": "Point", "coordinates": [-4.42384, 55.842031]}},
{"type": "Feature", "id": "QDcTp_UyUXLKKAaGzJNxtQmPhoA=", "properties": {"ref": "8 to 8 Dental (Buckie) AB56 1HL", "@spider": "nhsscotland", "addr:full": "32 West Church Street Buckie AB56 1HL", "addr:country": "uk", "name": "8 to 8 Dental (Buckie)", "website": "https://www.nhsinform.scot/scotlands-service-directory/dental-services/3126%201mor1116", "brand": "NHS Scotland"}, "geometry": {"type": "Point", "coordinates": [-2.969206, 57.675285]}},
{"type": "Feature", "id": "fsbywx1NxloSrBeXdQkLjySRTRI=", "properties": {"ref": "4 Great Stuart Street Dental Practice EH3 6AW", "@spider": "nhsscotland", "addr:full": "4 Great Stuart Street Edinburgh EH3 6AW", "addr:country": "uk", "name": "4 Great Stuart Street Dental Practice", "website": "https://www.nhsinform.scot/scotlands-service-directory/dental-services/4295%201edc1116", "brand": "NHS Scotland"}, "geometry": {"type": "Point", "coordinates": [-3.209217, 55.953742]}},
{"type": "Feature", "id": "qQbybmJXhrDV5MMl6-6IRQsvjXo=", "properties": {"ref": "Caithness General Hospital (A&E) KW1 5NS", "@spider": "nhsscotland", "addr:full": "Bank Head Road Wick KW1 5NS", "addr:country": "uk", "name": "Caithness General Hospital (A&E)", "website": "https://www.nhsinform.scot/scotlands-service-directory/aes-and-minor-injuries-units/9309%201hil1116", "brand": "NHS Scotland"}, "geometry": {"type": "Point", "coordinates": [-3.095738, 58.441343]}},
{"type": "Feature", "id": "iV1vbXsvusNXUq6MhzfagAw9VDY=", "properties": {"ref": "146 Dental Care DD1 4EA", "@spider": "nhsscotland", "addr:full": "146 Nethergate Dundee DD1 4EA", "addr:country": "uk", "name": "146 Dental Care", "website": "https://www.nhsinform.scot/scotlands-service-directory/dental-services/4523%201ddc1116", "brand": "NHS Scotland"}, "geometry": {"type": "Point", "coordinates": [-2.974642, 56.457644]}},
{"type": "Feature", "id": "CHk0cj_dydqkoay8anjhEAwu7Qo=", "properties": {"ref": "Campbeltown Hospital (Minor Injuries Unit) PA28 6LE", "@spider": "nhsscotland", "addr:full": "Ralston Road Campbeltown PA28 6LE", "addr:country": "uk", "name": "Campbeltown Hospital (Minor Injuries Unit)", "website": "https://www.nhsinform.scot/scotlands-service-directory/aes-and-minor-injuries-units/9311%201arb1116", "brand": "NHS Scotland"}, "geometry": {"type": "Point", "coordinates": [-5.606829, 55.42141]}},
{"type": "Feature", "id": "omxgOAOXx5Wv5AXGkA-BC7Z7UNg=", "properties": {"ref": "Borders General Hospital (A&E) TD6 9BS", "@spider": "nhsscotland", "addr:full": "Borders General Hospital Melrose TD6 9BS", "addr:country": "uk", "name": "Borders General Hospital (A&E)", "website": "https://www.nhsinform.scot/scotlands-service-directory/aes-and-minor-injuries-units/9219%201bor1116", "brand": "NHS Scotland"}, "geometry": {"type": "Point", "coordinates": [-2.741941, 55.595478]}},
{"type": "Feature", "id": "1fWKSwZlojolPFu552dG8RVOIr8=", "properties": {"ref": "Aberfoyle Pharmacy Aberfoyle", "@spider": "nhsscotland", "addr:full": "The Studio Main Street Aberfoyle FK8 3UG", "addr:country": "uk", "name": "Aberfoyle Pharmacy", "website": "https://www.nhsinform.scot/scotlands-service-directory/pharmacies/5139%201cls1116", "brand": "NHS Scotland"}, "geometry": {"type": "Point", "coordinates": [-4.38296, 56.178679]}},
{"type": "Feature", "id": "TSAdYWukaxKQ4V6GWiaRSrFBuH8=", "properties": {"ref": "Belford Hospital (A&E) PH33 6BS", "@spider": "nhsscotland", "addr:full": "Belford Road Fort William PH33 6BS", "addr:country": "uk", "name": "Belford Hospital (A&E)", "website": "https://www.nhsinform.scot/scotlands-service-directory/aes-and-minor-injuries-units/9307%201hil1116", "brand": "NHS Scotland"}, "geometry": {"type": "Point", "coordinates": [-5.104715, 56.819427]}},
{"type": "Feature", "id": "f3zdYklSlOiF8OPlwXzc4dr1TXA=", "properties": {"ref": "121 Dental Centre DD11 1DP", "@spider": "nhsscotland", "addr:full": "121 High Street Arbroath DD11 1DP", "addr:country": "uk", "name": "121 Dental Centre", "website": "https://www.nhsinform.scot/scotlands-service-directory/dental-services/4465%201ang1116", "brand": "NHS Scotland"}, "geometry": {"type": "Point", "coordinates": [-2.581389, 56.558925]}},
{"type": "Feature", "id": "6eAXGmTfruDODgdwm3f0rOk8G1E=", "properties": {"ref": "Balfour Hospital (A&E) Kirkwall", "@spider": "nhsscotland", "addr:full": "The Balfour Foreland Road Kirkwall Orkney KW15 1NZ", "addr:country": "uk", "name": "Balfour Hospital (A&E)", "website": "https://www.nhsinform.scot/scotlands-service-directory/aes-and-minor-injuries-units/9365%201ork1116", "brand": "NHS Scotland"}, "geometry": {"type": "Point", "coordinates": [-2.965433, 58.973685]}},
{"type": "Feature", "id": "8aEEolfozZ6vukdf5FPkneQEdKo=", "properties": {"ref": "Arran War Memorial (A&E) KA27 8LF", "@spider": "nhsscotland", "addr:full": "Lamlash Isle of Arran KA27 8LF", "addr:country": "uk", "name": "Arran War Memorial (A&E)", "website": "https://www.nhsinform.scot/scotlands-service-directory/aes-and-minor-injuries-units/9209%201nay1116", "brand": "NHS Scotland"}, "geometry": {"type": "Point", "coordinates": [-5.115521, 55.54312]}},
{"type": "Feature", "id": "WO_IdT6UtZhmn9TYKg_8myXfHj0=", "properties": {"ref": "Arbroath Infirmary Minor Injuries Unit DD11 2AT", "@spider": "nhsscotland", "addr:full": "Rosemount Road Arbroath DD11 2AT", "addr:country": "uk", "name": "Arbroath Infirmary Minor Injuries Unit", "website": "https://www.nhsinform.scot/scotlands-service-directory/aes-and-minor-injuries-units/9369%201ang1116", "brand": "NHS Scotland"}, "geometry": {"type": "Point", "coordinates": [-2.596889, 56.554539]}},
{"type": "Feature", "id": "NNAJAxS1_Nh-Hlv1aO7lLgjje4g=", "properties": {"ref": "Adamson Hospital (Minor Injuries Unit) KY15 4JN", "@spider": "nhsscotland", "addr:full": "Bank Street Cupar KY15 4JN", "addr:country": "uk", "name": "Adamson Hospital (Minor Injuries Unit)", "website": "https://www.nhsinform.scot/scotlands-service-directory/aes-and-minor-injuries-units/9247%201fif1116", "brand": "NHS Scotland"}, "geometry": {"type": "Point", "coordinates": [-3.016375, 56.323249]}},
{"type": "Feature", "id": "-sikb0Qf68dP-qrtMW6UkVlDVo0=", "properties": {"ref": "Aberdeen Royal Infirmary (A&E) AB25 2ZN", "@spider": "nhsscotland", "addr:full": "Foresterhill Aberdeen AB25 2ZN", "addr:country": "uk", "name": "Aberdeen Royal Infirmary (A&E)", "website": "https://www.nhsinform.scot/scotlands-service-directory/aes-and-minor-injuries-units/9253%201abc1116", "brand": "NHS Scotland"}, "geometry": {"type": "Point", "coordinates": [-2.137359, 57.154275]}},
{"type": "Feature", "id": "VXOCdjVpWTTO9GjgdYfJtBqKVdc=", "properties": {"ref": "Aberchirder Pharmacy Huntly", "@spider": "nhsscotland", "addr:full": "55 Main Street Aberchirder Huntly AB54 7ST", "addr:country": "uk", "name": "Aberchirder Pharmacy", "website": "https://www.nhsinform.scot/scotlands-service-directory/pharmacies/5963%201abs1116", "brand": "NHS Scotland"}, "geometry": {"type": "Point", "coordinates": [-2.630348, 57.559972]}},
{"type": "Feature", "id": "KNpZveBbSP-kGqC3GX9gsmiwecM=", "properties": {"ref": "Aberdour Pharmacy KY3 0SW", "@spider": "nhsscotland", "addr:full": "30 High Street Aberdour KY3 0SW", "addr:country": "uk", "name": "Aberdour Pharmacy", "website": "https://www.nhsinform.scot/scotlands-service-directory/pharmacies/4969%201fif1116", "brand": "NHS Scotland"}, "geometry": {"type": "Point", "coordinates": [-3.302993, 56.053415]}},
{"type": "Feature", "id": "k7L-_ycYfLSs-hBIpHsA3dAMrt4=", "properties": {"ref": "Abbey Chemist (Trongate, Glasgow) G1 5HB", "@spider": "nhsscotland", "addr:full": "83 Trongate Glasgow G1 5HB", "addr:country": "uk", "name": "Abbey Chemist (Trongate, Glasgow)", "website": "https://www.nhsinform.scot/scotlands-service-directory/pharmacies/5741%201glc1116", "brand": "NHS Scotland"}, "geometry": {"type": "Point", "coordinates": [-4.245734, 55.856876]}},
{"type": "Feature", "id": "SQ8vQyX7at_zEJAMZVj1FU7Wti4=", "properties": {"ref": "Abbey Chemist (Lonend, Paisley) PA1 1SU", "@spider": "nhsscotland", "addr:full": "Lonend Paisley PA1 1SU", "addr:country": "uk", "name": "Abbey Chemist (Lonend, Paisley)", "website": "https://www.nhsinform.scot/scotlands-service-directory/pharmacies/5511%201ren1116", "brand": "NHS Scotland"}, "geometry": {"type": "Point", "coordinates": [-4.418082, 55.840612]}},
{"type": "Feature", "id": "IzP2aDchxuVkldOcvc8yaHO_7-k=", "properties": {"ref": "Abbotswell Pharmacy Aberdeen", "@spider": "nhsscotland", "addr:full": "2 Abbotswell Crescent Kincorth Aberdeen AB12 5AR", "addr:country": "uk", "name": "Abbotswell Pharmacy", "website": "https://www.nhsinform.scot/scotlands-service-directory/pharmacies/5875%201abc1116", "brand": "NHS Scotland"}, "geometry": {"type": "Point", "coordinates": [-2.101681, 57.124389]}},
{"type": "Feature", "id": "vLSZ3zC8esHQZl4RTEb3glX6tbI=", "properties": {"ref": "Abbey Chemist (Gauze Street, Paisley) PA1 1ES", "@spider": "nhsscotland", "addr:full": "27 Gauze Street Paisley PA1 1ES", "addr:country": "uk", "name": "Abbey Chemist (Gauze Street, Paisley)", "website": "https://www.nhsinform.scot/scotlands-service-directory/pharmacies/5719%201ren1116", "brand": "NHS Scotland"}, "geometry": {"type": "Point", "coordinates": [-4.419184, 55.846284]}},
{"type": "Feature", "id": "qY1mf-NrT1IYYd2A7u7_-JQNEAo=", "properties": {"ref": "Borders Sexual Health Clinic - Peebles Peebles", "@spider": "nhsscotland", "addr:full": "Hay Lodge Health Centre Neidpath Road Peebles EH45 8JG", "addr:country": "uk", "name": "Borders Sexual Health Clinic - Peebles", "website": "https://www.nhsinform.scot/scotlands-service-directory/sexual-health-clinics/8607%201bor1116", "brand": "NHS Scotland"}, "geometry": {"type": "Point", "coordinates": [-3.197832, 55.651475]}},
{"type": "Feature", "id": "gkilnbEVcqXC0mPelgD4grqHNxU=", "properties": {"ref": "A L Laing ZE1 0BD", "@spider": "nhsscotland", "addr:full": "Kantersted Road Lerwick ZE1 0BD", "addr:country": "uk", "name": "A L Laing", "website": "https://www.nhsinform.scot/scotlands-service-directory/pharmacies/6959%201shi1116", "brand": "NHS Scotland"}, "geometry": {"type": "Point", "coordinates": [-1.14214, 60.153064]}},
{"type": "Feature", "id": "_tLufQFA_oPJsgU7tCVNL1b0PXE=", "properties": {"ref": "Abbeygreen Pharmacy ML11 0EQ", "@spider": "nhsscotland", "addr:full": "35 Abbeygreen Lesmahagow ML11 0EQ", "addr:country": "uk", "name": "Abbeygreen Pharmacy", "website": "https://www.nhsinform.scot/scotlands-service-directory/pharmacies/10225%201sla1116", "brand": "NHS Scotland"}, "geometry": {"type": "Point", "coordinates": [-3.886242, 55.638732]}},
{"type": "Feature", "id": "FhnzwKoyH7WTccjpuEbpxERamvY=", "properties": {"ref": "Borders Sexual Health Clinic - Eyemouth Eyemouth", "@spider": "nhsscotland", "addr:full": "Eyemouth Medical Practice Houndlaw Park Eyemouth TD14 5DD", "addr:country": "uk", "name": "Borders Sexual Health Clinic - Eyemouth", "website": "https://www.nhsinform.scot/scotlands-service-directory/sexual-health-clinics/8611%201bor1116", "brand": "NHS Scotland"}, "geometry": {"type": "Point", "coordinates": [-2.091499, 55.870977]}},
{"type": "Feature", "id": "ot6KlY5ax_YtDq96_2DIsRwkCBM=", "properties": {"ref": "Borders Sexual Health Clinic - Duns Duns", "@spider": "nhsscotland", "addr:full": "Knoll Health Centre Station Road Duns TD11 3EL", "addr:country": "uk", "name": "Borders Sexual Health Clinic - Duns", "website": "https://www.nhsinform.scot/scotlands-service-directory/sexual-health-clinics/8609%201bor1116", "brand": "NHS Scotland"}, "geometry": {"type": "Point", "coordinates": [-2.341409, 55.772604]}},
{"type": "Feature", "id": "1h5T5zJTApIokqvK1qOMCEK3gJc=", "properties": {"ref": "Aviemore Sexual Health Clinic PH22 1SY", "@spider": "nhsscotland", "addr:full": "Aviemore Health Centre Aviemore PH22 1SY", "addr:country": "uk", "name": "Aviemore Sexual Health Clinic", "website": "https://www.nhsinform.scot/scotlands-service-directory/sexual-health-clinics/8749%201hil1116", "brand": "NHS Scotland"}, "geometry": {"type": "Point", "coordinates": [-3.827742, 57.197898]}},
{"type": "Feature", "id": "RPrXzFXznj6CSqK21bNf0jC3Xwg=", "properties": {"ref": "Banff Sexual Health Clinic Banff", "@spider": "nhsscotland", "addr:full": "Banff Chalmers Hospital Clunie Street Banff AB45 1JA", "addr:country": "uk", "name": "Banff Sexual Health Clinic", "website": "https://www.nhsinform.scot/scotlands-service-directory/sexual-health-clinics/13747%201abs1116", "brand": "NHS Scotland"}, "geometry": {"type": "Point", "coordinates": [-2.524384, 57.668983]}},
{"type": "Feature", "id": "nm-D7FYn0KhLcLVMtNnSc_cpmuE=", "properties": {"ref": "Borders Sexual Health Clinic - Hawick Hawick", "@spider": "nhsscotland", "addr:full": "Hawick Community Hospital Victoria Road Hawick TD9 7AH", "addr:country": "uk", "name": "Borders Sexual Health Clinic - Hawick", "website": "https://www.nhsinform.scot/scotlands-service-directory/sexual-health-clinics/8619%201bor1116", "brand": "NHS Scotland"}, "geometry": {"type": "Point", "coordinates": [-2.791819, 55.423746]}},
{"type": "Feature", "id": "EaJA5r1QUNXVFeOrlNnq6hOlA2E=", "properties": {"ref": "Borders Sexual Health Clinic - Galashiels Galashiels", "@spider": "nhsscotland", "addr:full": "Galashiels Health Centre Currie Road Galashiels TD1 2UA", "addr:country": "uk", "name": "Borders Sexual Health Clinic - Galashiels", "website": "https://www.nhsinform.scot/scotlands-service-directory/sexual-health-clinics/8621%201bor1116", "brand": "NHS Scotland"}, "geometry": {"type": "Point", "coordinates": [-2.803453, 55.615928]}},
{"type": "Feature", "id": "hjQDkVZr0ug3Duwv94yyZUbtWEQ=", "properties": {"ref": "Annan Sexual Health Clinic Bank Street", "@spider": "nhsscotland", "addr:full": "Greencroft Medical Centre (North) Bank Street Entrance Bank Street Annan DG12 6AA", "addr:country": "uk", "name": "Annan Sexual Health Clinic", "website": "https://www.nhsinform.scot/scotlands-service-directory/sexual-health-clinics/8623%201dng1116", "brand": "NHS Scotland"}, "geometry": {"type": "Point", "coordinates": [-3.262271, 54.98691]}},
{"type": "Feature", "id": "aLXgGqb5ameOoqL9sxQ8H99yXLI=", "properties": {"ref": "Armistead Child Development Centre DD5 2SJ", "@spider": "nhsscotland", "addr:full": "Kings Cross Dundee DD5 2SJ", "addr:country": "uk", "name": "Armistead Child Development Centre", "website": "https://www.nhsinform.scot/scotlands-service-directory/hospitals/9177%201", "brand": "NHS Scotland"}, "geometry": {"type": "Point", "coordinates": [-2.853868, 56.469943]}},
{"type": "Feature", "id": "Di15OG6u0K34na7tokr9k1sOnvo=", "properties": {"ref": "Aberdeen Community Health and Care Village Aberdeen", "@spider": "nhsscotland", "addr:full": "Aberdeen Community Health & Care Village 50 Frederick Street Aberdeen AB24 5HY", "addr:country": "uk", "name": "Aberdeen Community Health and Care Village", "website": "https://www.nhsinform.scot/scotlands-service-directory/sexual-health-clinics/8705%201abc1116", "brand": "NHS Scotland"}, "geometry": {"type": "Point", "coordinates": [-2.09267, 57.150148]}},
{"type": "Feature", "id": "2mSl_PuLevBXNhN0ett1E7sqQ2g=", "properties": {"ref": "1-1 Support Work Glasgow", "@spider": "nhsscotland", "addr:full": "St Rollox House 130 Springburn Road Glasgow G21 1YL", "addr:country": "uk", "name": "1-1 Support Work", "website": "https://www.nhsinform.scot/scotlands-service-directory/health-and-wellbeing-services/effcd54dbae84b018750619eeb38a023%201", "brand": "NHS Scotland"}, "geometry": {"type": "Point", "coordinates": [-4.2327655, 55.8735508]}},
{"type": "Feature", "id": "ciFWlXl6kWE-EPrrynjdmVl_4Gs=", "properties": {"ref": "\"Seasons for Growth\" Bereavement Support Falkirk", "@spider": "nhsscotland", "addr:full": "Falkirk Trinity Church Manse Place Falkirk FK1 1JN", "addr:country": "uk", "name": "\"Seasons for Growth\" Bereavement Support", "website": "https://www.nhsinform.scot/scotlands-service-directory/health-and-wellbeing-services/9a4969e946bc43ceafef563a0332d07f%201", "brand": "NHS Scotland"}, "geometry": {"type": "Point", "coordinates": [-3.785319, 55.9999886]}},
{"type": "Feature", "id": "LSkNN_UH6ykhVTz7IeVM0wcSTdg=", "properties": {"ref": "1-1 Support Work EH7 4NW", "@spider": "nhsscotland", "addr:full": "125 McDonald Road Edinburgh EH7 4NW", "addr:country": "uk", "name": "1-1 Support Work", "website": "https://www.nhsinform.scot/scotlands-service-directory/health-and-wellbeing-services/effcd54dbae84b018750619eeb38a023%202", "brand": "NHS Scotland"}, "geometry": {"type": "Point", "coordinates": [-3.1881676, 55.9658839]}},
{"type": "Feature", "id": "PbBQW_pqsAEgARIx_PZC3lacW98=", "properties": {"ref": "1000 Voices Project (Argyll) Mainstreet", "@spider": "nhsscotland", "addr:full": "Argyll TSI Office First Floor, Custom House Mainstreet Bowmore PA43 7JJ", "addr:country": "uk", "name": "1000 Voices Project (Argyll)", "website": "https://www.nhsinform.scot/scotlands-service-directory/health-and-wellbeing-services/12088%201arb1116", "brand": "NHS Scotland"}, "geometry": {"type": "Point", "coordinates": [-6.287921, 55.7566]}},
{"type": "Feature", "id": "jbaAMif0GBKu70uF2Kwa2f_vwM4=", "properties": {"ref": "\u201cTalking Points\u201d  East Renfrewshire Barrhead.", "@spider": "nhsscotland", "addr:full": "Barrhead Health and Social Care Centre 213 Main Street Barrhead. East Renfrewshire G78 1AA", "addr:country": "uk", "name": "\u201cTalking Points\u201d  East Renfrewshire", "website": "https://www.nhsinform.scot/scotlands-service-directory/health-and-wellbeing-services/13247%201erf1116", "brand": "NHS Scotland"}, "geometry": {"type": "Point", "coordinates": [-4.396243, 55.803938]}},
{"type": "Feature", "id": "3meg9P5H67ux0gQKkfkSm4xFLv4=", "properties": {"ref": "\u2018Dams to Darnley Country Park - Volunteer Days\u2019 G53 7RN", "@spider": "nhsscotland", "addr:full": "Nitshill Road Glasgow G53 7RN", "addr:country": "uk", "name": "\u2018Dams to Darnley Country Park - Volunteer Days\u2019", "website": "https://www.nhsinform.scot/scotlands-service-directory/health-and-wellbeing-services/13246%201erf1116", "brand": "NHS Scotland"}, "geometry": {"type": "Point", "coordinates": [-4.350542, 55.805827]}},
{"type": "Feature", "id": "lqX1F3B8HMZPV36-LC1G7D_mF6Q=", "properties": {"ref": "\u201cCAMP-D\u201d Drama Class Glasgow", "@spider": "nhsscotland", "addr:full": "Ruchill Community Centre 671 Bilsland Drive Glasgow G20 9NF", "addr:country": "uk", "name": "\u201cCAMP-D\u201d Drama Class", "website": "https://www.nhsinform.scot/scotlands-service-directory/health-and-wellbeing-services/5e0528ea0691482ab55abae3d714fe40%201", "brand": "NHS Scotland"}, "geometry": {"type": "Point", "coordinates": [-4.266667, 55.888885]}},
{"type": "Feature", "id": "eIOfdHIBjoOGmxbna5L3FFJaE3k=", "properties": {"ref": "\"Tea and chat\" friendship group Aberdeen", "@spider": "nhsscotland", "addr:full": "Cummings Park Community Flat 122 Cummings Park Drive Aberdeen AB16 7BB", "addr:country": "uk", "name": "\"Tea and chat\" friendship group", "website": "https://www.nhsinform.scot/scotlands-service-directory/health-and-wellbeing-services/dfcc80dfdece41fc887e6a614419f05c%201", "brand": "NHS Scotland"}, "geometry": {"type": "Point", "coordinates": [-2.1537367, 57.1679649]}},
{"type": "Feature", "id": "pSj_IwasQYuelyRFSrTWCwq2E10=", "properties": {"ref": "Argyll & Bute Hospital PA31 8LD", "@spider": "nhsscotland", "addr:full": "Blarbuie Road Lochgilphead PA31 8LD", "addr:country": "uk", "name": "Argyll & Bute Hospital", "website": "https://www.nhsinform.scot/scotlands-service-directory/hospitals/9079%201", "brand": "NHS Scotland"}, "geometry": {"type": "Point", "coordinates": [-5.418446, 56.042012]}},
{"type": "Feature", "id": "Qk_MAz-KrAo4MOEIvr7XeVrB0VY=", "properties": {"ref": "*Quit Your Way East Kilbride East Kilbride", "@spider": "nhsscotland", "addr:full": "University Hospital Hairmyres Eaglesham Road East Kilbride G75 8RG", "addr:country": "uk", "name": "*Quit Your Way East Kilbride", "website": "https://www.nhsinform.scot/scotlands-service-directory/health-and-wellbeing-services/10490%201sla1116", "brand": "NHS Scotland"}, "geometry": {"type": "Point", "coordinates": [-4.221977, 55.759825]}},
{"type": "Feature", "id": "mgSmPIBk726pvaADpJnb3xP7rWE=", "properties": {"ref": "Arbroath Infirmary DD11 2AT", "@spider": "nhsscotland", "addr:full": "Rosemount Road Arbroath DD11 2AT", "addr:country": "uk", "name": "Arbroath Infirmary", "website": "https://www.nhsinform.scot/scotlands-service-directory/hospitals/9167%201", "brand": "NHS Scotland"}, "geometry": {"type": "Point", "coordinates": [-2.596889, 56.554539]}},
{"type": "Feature", "id": "_GqpvpKp8tNEJ2SU6K_YNYvJZV8=", "properties": {"ref": "Annan Hospital DG12 6NQ", "@spider": "nhsscotland", "addr:full": "Stapleton Road Annan DG12 6NQ", "addr:country": "uk", "name": "Annan Hospital", "website": "https://www.nhsinform.scot/scotlands-service-directory/hospitals/8899%201dng1116", "brand": "NHS Scotland"}, "geometry": {"type": "Point", "coordinates": [-3.246948, 54.98821]}},
{"type": "Feature", "id": "INHBywT8uMri6fPDBMJJRcTgjAQ=", "properties": {"ref": "Ailsa Hospital KA6 6AB", "@spider": "nhsscotland", "addr:full": "Dalmellington Road Ayr KA6 6AB", "addr:country": "uk", "name": "Ailsa Hospital", "website": "https://www.nhsinform.scot/scotlands-service-directory/hospitals/8869%201", "brand": "NHS Scotland"}, "geometry": {"type": "Point", "coordinates": [-4.593108, 55.434174]}},
{"type": "Feature", "id": "BcOoog_XVC3OqxVnh1bltzIM7ws=", "properties": {"ref": "Adamson Hospital KY15 4JG", "@spider": "nhsscotland", "addr:full": "Bank Street Cupar KY15 4JG", "addr:country": "uk", "name": "Adamson Hospital", "website": "https://www.nhsinform.scot/scotlands-service-directory/hospitals/8921%201fif1116", "brand": "NHS Scotland"}, "geometry": {"type": "Point", "coordinates": [-3.01794, 56.324314]}},
{"type": "Feature", "id": "u_jjCQDnUv5t_qVe_LdFlAcSwXI=", "properties": {"ref": "Aboyne Hospital AB34 5HQ", "@spider": "nhsscotland", "addr:full": "Bellwood Road Aboyne AB34 5HQ", "addr:country": "uk", "name": "Aboyne Hospital", "website": "https://www.nhsinform.scot/scotlands-service-directory/hospitals/8965%201", "brand": "NHS Scotland"}, "geometry": {"type": "Point", "coordinates": [-2.767607, 57.077017]}},
{"type": "Feature", "id": "kjbQngDfG1gnoWQf1oZKKYv8epw=", "properties": {"ref": "20 20 Opticians and Hearing Care (Haddington) EH41 3EP", "@spider": "nhsscotland", "addr:full": "75 High Street Haddington EH41 3EP", "addr:country": "uk", "name": "20 20 Opticians and Hearing Care (Haddington)", "website": "https://www.nhsinform.scot/scotlands-service-directory/opticians/8277%201eay1116", "brand": "NHS Scotland"}, "geometry": {"type": "Point", "coordinates": [-2.776618, 55.955539]}},
{"type": "Feature", "id": "UlFJpqXc8mQnsEp7yaR9Z2rl8wg=", "properties": {"ref": "20 20 Opticians and Hearing Care (Easter Road, Edinburgh) EH7 5PH", "@spider": "nhsscotland", "addr:full": "1C Easter Road Edinburgh EH7 5PH", "addr:country": "uk", "name": "20 20 Opticians and Hearing Care (Easter Road, Edinburgh)", "website": "https://www.nhsinform.scot/scotlands-service-directory/opticians/8235%201edc1116", "brand": "NHS Scotland"}, "geometry": {"type": "Point", "coordinates": [-3.17207, 55.958261]}},
{"type": "Feature", "id": "Aa3cryjRA9Kc48Q5JJgrTqY3ELk=", "properties": {"ref": "Aberdeen Royal Infirmary AB25 2ZN", "@spider": "nhsscotland", "addr:full": "Foresterhill Aberdeen AB25 2ZN", "addr:country": "uk", "name": "Aberdeen Royal Infirmary", "website": "https://www.nhsinform.scot/scotlands-service-directory/hospitals/8951%201", "brand": "NHS Scotland"}, "geometry": {"type": "Point", "coordinates": [-2.137359, 57.154275]}},
{"type": "Feature", "id": "aOWisbyOvN2-7zndE48098luC3k=", "properties": {"ref": "20 20 Opticians and Hearing Care (Ayr Branch) KA7 1UL", "@spider": "nhsscotland", "addr:full": "42 Dalblair Road Ayr KA7 1UL", "addr:country": "uk", "name": "20 20 Opticians and Hearing Care (Ayr Branch)", "website": "https://www.nhsinform.scot/scotlands-service-directory/opticians/7191%201say1116", "brand": "NHS Scotland"}, "geometry": {"type": "Point", "coordinates": [-4.632087, 55.460273]}},
{"type": "Feature", "id": "DYXeDUfqrvfN8qfpcJtvmen_uSM=", "properties": {"ref": "20 20 Opticians Glasgow", "@spider": "nhsscotland", "addr:full": "Unit 1 Wilson Court 64 Wilson Street Glasgow G1 1HD", "addr:country": "uk", "name": "20 20 Opticians", "website": "https://www.nhsinform.scot/scotlands-service-directory/opticians/7505%201", "brand": "NHS Scotland"}, "geometry": {"type": "Point", "coordinates": [-4.248467, 55.858871]}},
{"type": "Feature", "id": "r3vr2GVVwfeptbaiKcHYGXM4hxc=", "properties": {"ref": "20 20 Opticians and Hearing Care (Dunfermline Branch) KY12 7BA", "@spider": "nhsscotland", "addr:full": "49 Queen Anne Street Dunfermline KY12 7BA", "addr:country": "uk", "name": "20 20 Opticians and Hearing Care (Dunfermline Branch)", "website": "https://www.nhsinform.scot/scotlands-service-directory/opticians/7361%201fif1116", "brand": "NHS Scotland"}, "geometry": {"type": "Point", "coordinates": [-3.462061, 56.071751]}},
{"type": "Feature", "id": "bkS1p9Lz5u0LfPzIo8ybRQsGpKk=", "properties": {"ref": "Aboyne Health Centre AB34 5HQ", "@spider": "nhsscotland", "addr:full": "Bellwood Road Aboyne AB34 5HQ", "addr:country": "uk", "name": "Aboyne Health Centre", "website": "https://www.nhsinform.scot/scotlands-service-directory/gp-practices/961%201abs1116", "brand": "NHS Scotland"}, "geometry": {"type": "Point", "coordinates": [-2.767607, 57.077017]}},
{"type": "Feature", "id": "eKatg1VXfD7Xy21VxNCIa7er6zI=", "properties": {"ref": "Abingdon Medical Practice G11 5PE", "@spider": "nhsscotland", "addr:full": "12 Stewartville St Glasgow G11 5PE", "addr:country": "uk", "name": "Abingdon Medical Practice", "website": "https://www.nhsinform.scot/scotlands-service-directory/gp-practices/1163%201glc1116", "brand": "NHS Scotland"}, "geometry": {"type": "Point", "coordinates": [-4.304776, 55.871202]}},
{"type": "Feature", "id": "62pSi4ZOqDjB02pWfmLs44xVYT4=", "properties": {"ref": "20 20 Opticians and Hearing Care (Dalkeith) EH22 1JB", "@spider": "nhsscotland", "addr:full": "41 High Street Dalkeith EH22 1JB", "addr:country": "uk", "name": "20 20 Opticians and Hearing Care (Dalkeith)", "website": "https://www.nhsinform.scot/scotlands-service-directory/opticians/8279%201mlo1116", "brand": "NHS Scotland"}, "geometry": {"type": "Point", "coordinates": [-3.071986, 55.893669]}}]}