{"type":"FeatureCollection","features":[{"type": "Feature", "id": "S4IZ5h-qf8I69iXUUo_xtmyfIvs=", "properties": {"ref": "399", "@spider": "ollies_bargain_outlet", "addr:full": "3500 W. 7th Ave, Ste 21", "addr:city": "Corsicana", "addr:state": "TX", "addr:postcode": "75110", "addr:country": "US", "phone": "(430) 236-1303", "website": "https://www.ollies.us/locations/3500-w-7th-ave-ste-21-corsicana-tx/", "opening_hours": "Su 09:00-05:00"}, "geometry": {"type": "Point", "coordinates": [-96.50322, 32.073618]}},
{"type": "Feature", "id": "bccb8k_8b7W0lY152xbZya8g2UQ=", "properties": {"ref": "339", "@spider": "ollies_bargain_outlet", "addr:full": "7909 Camp Bowie West Boulevard", "addr:city": "Benbrook", "addr:state": "TX", "addr:postcode": "76116", "addr:country": "US", "phone": "(817) 244-4772", "website": "https://www.ollies.us/locations/7909-camp-bowie-west-boulevard-benbrook-tx/", "opening_hours": "Su 09:00-05:00"}, "geometry": {"type": "Point", "coordinates": [-97.452397, 32.721998]}},
{"type": "Feature", "id": "omE0bpOFgiTEYJDYy4jBvBeVSv0=", "properties": {"ref": "413", "@spider": "ollies_bargain_outlet", "addr:full": "101 Dixie Drive", "addr:city": "Clute", "addr:state": "TX", "addr:postcode": "77531", "addr:country": "US", "phone": "(979) 266-0196", "website": "https://www.ollies.us/locations/101-dixie-drive-clute-tx/", "opening_hours": "Su 09:00-05:00"}, "geometry": {"type": "Point", "coordinates": [-95.41860703, 29.01782636]}},
{"type": "Feature", "id": "AgYeuAtfDF_S6KYxsBDICau3wxs=", "properties": {"ref": "404", "@spider": "ollies_bargain_outlet", "addr:full": "3316 Denton Highway", "addr:city": "Haltom City", "addr:state": "TX", "addr:postcode": "76117", "addr:country": "US", "phone": "(682) 207-1430", "website": "https://www.ollies.us/locations/3316-denton-highway-haltom-city-tx/", "opening_hours": "Su 09:00-05:00"}, "geometry": {"type": "Point", "coordinates": [-97.26322429, 32.81022094]}},
{"type": "Feature", "id": "08iM1F7vLwo4I0odDVT8bmynLag=", "properties": {"ref": "303", "@spider": "ollies_bargain_outlet", "addr:full": "2100 N. Town East Blvd.", "addr:city": "Mesquite", "addr:state": "TX", "addr:postcode": "75150", "addr:country": "US", "phone": "(972) 613-4649", "website": "https://www.ollies.us/locations/2100-n-town-east-blvd-mesquite-tx/", "opening_hours": "Su 09:00-05:00"}, "geometry": {"type": "Point", "coordinates": [-96.632935, 32.810526]}},
{"type": "Feature", "id": "62DXVCon7RSWPcy5DBb-jwpK5zg=", "properties": {"ref": "402", "@spider": "ollies_bargain_outlet", "addr:full": "2500 E Central Texas Expressway", "addr:city": "Killeen", "addr:state": "TX", "addr:postcode": "76543", "addr:country": "US", "phone": "(254) 350-2817", "website": "https://www.ollies.us/locations/2500-e-central-texas-expressway-killeen-tx/", "opening_hours": "Su 09:00-05:00"}, "geometry": {"type": "Point", "coordinates": [-97.718189, 31.087912]}},
{"type": "Feature", "id": "1qCptrJzSbIIVd3V36buYD69Li0=", "properties": {"ref": "422", "@spider": "ollies_bargain_outlet", "addr:full": "6161 NW Loop 410", "addr:city": "San Antonio", "addr:state": "TX", "addr:postcode": "78238", "addr:country": "US", "phone": "(210) 951-0994", "website": "https://www.ollies.us/locations/6161-nw-loop-410-san-antonio-tx/", "opening_hours": "Mo-Sa 09:00-09:00; Su 10:00-07:00"}, "geometry": {"type": "Point", "coordinates": [-98.61664072, 29.47137935]}},
{"type": "Feature", "id": "Vykax74NPXdJb113yijPvOHFBLA=", "properties": {"ref": "360", "@spider": "ollies_bargain_outlet", "addr:full": "5200 W Waco Drive", "addr:city": "Waco", "addr:state": "TX", "addr:postcode": "76710", "addr:country": "US", "phone": "(254) 300-4629", "website": "https://www.ollies.us/locations/5200-w-waco-drive-waco-tx/", "opening_hours": "Su 09:00-05:00"}, "geometry": {"type": "Point", "coordinates": [-97.181402, 31.517529]}},
{"type": "Feature", "id": "_mqGOH3fUBaiC-4lIaPhg6YCQDg=", "properties": {"ref": "370", "@spider": "ollies_bargain_outlet", "addr:full": "1306 Harvey Road", "addr:city": "College Station", "addr:state": "TX", "addr:postcode": "77840", "addr:country": "US", "phone": "(979) 485-9551", "website": "https://www.ollies.us/locations/1306-harvey-road-college-station-tx/", "opening_hours": "Su 09:00-05:00"}, "geometry": {"type": "Point", "coordinates": [-96.306089, 30.623992]}},
{"type": "Feature", "id": "Hrq7GQPyHebg6ubAx7J6FBbCKBc=", "properties": {"ref": "347", "@spider": "ollies_bargain_outlet", "addr:full": "330 N Commerce Street", "addr:city": "Ardmore", "addr:state": "OK", "addr:postcode": "73401", "addr:country": "US", "phone": "(580) 798-4510", "website": "https://www.ollies.us/locations/330-n-commerce-street-ardmore-ok/", "opening_hours": "Su 09:00-05:00"}, "geometry": {"type": "Point", "coordinates": [-97.141823, 34.17902]}},
{"type": "Feature", "id": "rFlso48sk6JQ5JgZwBsBZtxbM-M=", "properties": {"ref": "296", "@spider": "ollies_bargain_outlet", "addr:full": "1007 North Pine Street", "addr:city": "DeRidder", "addr:state": "LA", "addr:postcode": "70634", "addr:country": "US", "phone": "(337) 202-7000", "website": "https://www.ollies.us/locations/1007-north-pine-street-deridder-la/", "opening_hours": "Su 09:00-05:00"}, "geometry": {"type": "Point", "coordinates": [-93.289049, 30.862696]}},
{"type": "Feature", "id": "cJ_XWmAySqSChXBAzDCRsiQfYFs=", "properties": {"ref": "395", "@spider": "ollies_bargain_outlet", "addr:full": "9138 Mansfield Road", "addr:city": "Shreveport", "addr:state": "LA", "addr:postcode": "71118", "addr:country": "US", "phone": "(318) 562-6338", "website": "https://www.ollies.us/locations/9138-mansfield-road-shreveport-la/", "opening_hours": "Su 09:00-05:00"}, "geometry": {"type": "Point", "coordinates": [-93.803665, 32.40514]}},
{"type": "Feature", "id": "cQFxzf7gP13DvKCyPDjHKuxF_18=", "properties": {"ref": "288", "@spider": "ollies_bargain_outlet", "addr:full": "3045 East Texas Street", "addr:city": "Bossier City", "addr:state": "LA", "addr:postcode": "71111", "addr:country": "US", "phone": "(318) 747-0991", "website": "https://www.ollies.us/locations/3045-east-texas-street-bossier-city-la/", "opening_hours": "Su 09:00-05:00"}, "geometry": {"type": "Point", "coordinates": [-93.701643, 32.530639]}},
{"type": "Feature", "id": "atYIT_toiiorQ9duJ2jwa9qY5Q8=", "properties": {"ref": "378", "@spider": "ollies_bargain_outlet", "addr:full": "20 NW Sheridan Road", "addr:city": "Lawton", "addr:state": "OK", "addr:postcode": "73505", "addr:country": "US", "phone": "(580) 699-5705", "website": "https://www.ollies.us/locations/20-nw-sheridan-road-lawton-ok/", "opening_hours": "Su 09:00-05:00"}, "geometry": {"type": "Point", "coordinates": [-98.42368, 34.609978]}},
{"type": "Feature", "id": "lw72Sx-z0WSQQ2N1xZyfEXpi6iM=", "properties": {"ref": "330", "@spider": "ollies_bargain_outlet", "addr:full": "406 W Highway 30", "addr:city": "Gonzales", "addr:state": "LA", "addr:postcode": "70737", "addr:country": "US", "phone": "(225) 647-6415", "website": "https://www.ollies.us/locations/406-w-highway-30-gonzales-la/", "opening_hours": "Su 09:00-05:00"}, "geometry": {"type": "Point", "coordinates": [-90.923547, 30.212227]}},
{"type": "Feature", "id": "tpS0bmdbBLDBroqY4f0twFLpSBc=", "properties": {"ref": "401", "@spider": "ollies_bargain_outlet", "addr:full": "2545 Perryton Pkwy", "addr:city": "Pampa", "addr:state": "TX", "addr:postcode": "79065", "addr:country": "US", "phone": "(806) 440-0333", "website": "https://www.ollies.us/locations/2545-perryton-pkwy-pampa-tx/", "opening_hours": "Su 09:00-05:00"}, "geometry": {"type": "Point", "coordinates": [-100.969002, 35.566906]}},
{"type": "Feature", "id": "mE04Vm3AUs0dyodv2AcBn6yr4Vs=", "properties": {"ref": "358", "@spider": "ollies_bargain_outlet", "addr:full": "6910 S Memorial Drive", "addr:city": "Tulsa", "addr:state": "OK", "addr:postcode": "74133", "addr:country": "US", "phone": "(918) 957-5388", "website": "https://www.ollies.us/locations/6910-s-memorial-drive-tulsa-ok/", "opening_hours": "Su 09:00-05:00"}, "geometry": {"type": "Point", "coordinates": [-95.887369, 36.063066]}},
{"type": "Feature", "id": "d262p7mK02Sn-DnxlF__Z8qDfaU=", "properties": {"ref": "406", "@spider": "ollies_bargain_outlet", "addr:full": "3440 Bell Street", "addr:city": "Amarillo", "addr:state": "TX", "addr:postcode": "79109", "addr:country": "US", "phone": "(806) 310-7074", "website": "https://www.ollies.us/locations/3440-bell-street-amarillo-tx/", "opening_hours": "Su 09:00-05:00"}, "geometry": {"type": "Point", "coordinates": [-101.9032089, 35.17477787]}},
{"type": "Feature", "id": "samRItm9wvBgsCpFOsp5t6L2-X0=", "properties": {"ref": "353", "@spider": "ollies_bargain_outlet", "addr:full": "1959 Prospect Blvd.", "addr:city": "Houma", "addr:state": "LA", "addr:postcode": "70363", "addr:country": "US", "phone": "(985) 262-4443", "website": "https://www.ollies.us/locations/1959-prospect-blvd-houma-la/"}, "geometry": {"type": "Point", "coordinates": [-90.686794, 29.579503]}},
{"type": "Feature", "id": "Rmblf-z6qpY5GZAFx1Qr8dHLCro=", "properties": {"ref": "374", "@spider": "ollies_bargain_outlet", "addr:full": "2985 A, Cottingham Expressway", "addr:city": "Pineville", "addr:state": "LA", "addr:postcode": "71360", "addr:country": "US", "phone": "(318) 528-8338", "website": "https://www.ollies.us/locations/2985-a-cottingham-expressway-pineville-la/", "opening_hours": "Su 09:00-05:00"}, "geometry": {"type": "Point", "coordinates": [-92.417162, 31.356697]}},
{"type": "Feature", "id": "Rkj1OGoZxfPwJy3QAJCz2TSrMZM=", "properties": {"ref": "316", "@spider": "ollies_bargain_outlet", "addr:full": "5700 Johnston Street", "addr:city": "Lafayette", "addr:state": "LA", "addr:postcode": "70503", "addr:country": "US", "phone": "(337) 981-2950", "website": "https://www.ollies.us/locations/5700-johnston-street-lafayette-la/", "opening_hours": "Su 09:00-05:00"}, "geometry": {"type": "Point", "coordinates": [-92.078688, 30.176005]}},
{"type": "Feature", "id": "Vh9ro88vQyZW1yUEOfOP1_RZmK8=", "properties": {"ref": "350", "@spider": "ollies_bargain_outlet", "addr:full": "1401 Gateway Plaza", "addr:city": "Midwest City", "addr:state": "OK", "addr:postcode": "73110", "addr:country": "US", "phone": "405-931-2806", "website": "https://www.ollies.us/locations/1401-gateway-plaza-midwest-city-ok/", "opening_hours": "Su 09:00-05:00"}, "geometry": {"type": "Point", "coordinates": [-97.4052563, 35.450508]}},
{"type": "Feature", "id": "anyzJx-t7FBFq-su0Ty0Oh3UVLI=", "properties": {"ref": "423", "@spider": "ollies_bargain_outlet", "addr:full": "10701 Jones Road", "addr:city": "Houston", "addr:state": "TX", "addr:postcode": "77065", "addr:country": "US", "phone": "(281) 640-0151", "website": "https://www.ollies.us/locations/10701-jones-road-houston-tx/", "opening_hours": "Su 09:00-05:00"}, "geometry": {"type": "Point", "coordinates": [-95.58672, 29.92867]}},
{"type": "Feature", "id": "kAX61yCiuuK4PE4aFqiuKCiOg3s=", "properties": {"ref": "430", "@spider": "ollies_bargain_outlet", "addr:full": "2401 Veterans Blvd.", "addr:city": "Del Rio", "addr:state": "TX", "addr:postcode": "78840", "addr:country": "US", "phone": "(830) 212-4139", "website": "https://www.ollies.us/locations/2401-veterans-blvd-del-rio-tx/", "opening_hours": "Su 09:00-05:00"}, "geometry": {"type": "Point", "coordinates": [-100.90195, 29.39428]}},
{"type": "Feature", "id": "cY1zAsgVf8gGsbbc0lESsuZgZDk=", "properties": {"ref": "368", "@spider": "ollies_bargain_outlet", "addr:full": "402 W Loop 281", "addr:city": "Longview", "addr:state": "TX", "addr:postcode": "75605", "addr:country": "US", "phone": "(903) 212-2244", "website": "https://www.ollies.us/locations/402-w-loop-281-longview-tx/", "opening_hours": "Su 09:00-05:00"}, "geometry": {"type": "Point", "coordinates": [-94.755879, 32.539865]}},
{"type": "Feature", "id": "VgTXhEuhHSm7QgRPuOEK_GZeRQg=", "properties": {"ref": "410", "@spider": "ollies_bargain_outlet", "addr:full": "725 E Taylor Street", "addr:city": "Sherman", "addr:state": "TX", "addr:postcode": "75090", "addr:country": "US", "phone": "(903) 328-6022", "website": "https://www.ollies.us/locations/725-e-taylor-street-sherman-tx/", "opening_hours": "Mo-Sa 09:00-09:00; Su 10:00-07:00"}, "geometry": {"type": "Point", "coordinates": [-96.6066500724, 33.6578927989]}},
{"type": "Feature", "id": "yFS_ro9CuQQ-0hrhfd8avrrnek0=", "properties": {"ref": "432", "@spider": "ollies_bargain_outlet", "addr:full": "822 E Centerville ", "addr:city": "Garland", "addr:state": "TX", "addr:postcode": "75041", "addr:country": "US", "phone": "(469) 229-7837", "website": "https://www.ollies.us/locations/822-e-centerville-garland-tx/", "opening_hours": "Mo-Sa 09:00-09:00; Su 10:00-07:00"}, "geometry": {"type": "Point", "coordinates": [-96.61963, 32.87918]}},
{"type": "Feature", "id": "Y_NHx_NnCV4Z1Zf_4FuIJJtTm_4=", "properties": {"ref": "369", "@spider": "ollies_bargain_outlet", "addr:full": "1220 Airline Road", "addr:city": "Corpus Christi", "addr:state": "TX", "addr:postcode": "78412", "addr:country": "US", "phone": "(361) 442-2215", "website": "https://www.ollies.us/locations/1220-airline-road-corpus-christi-tx/", "opening_hours": "Su 09:00-05:00"}, "geometry": {"type": "Point", "coordinates": [-97.361844, 27.70954]}},
{"type": "Feature", "id": "ZBpqpO3utISNOVTK4bR_KvLVWr0=", "properties": {"ref": "315", "@spider": "ollies_bargain_outlet", "addr:full": "2412 S Stemmons Freeway", "addr:city": "Lewisville", "addr:state": "TX", "addr:postcode": "75067", "addr:country": "US", "phone": "(214) 488-0549", "website": "https://www.ollies.us/locations/2412-s-stemmons-freeway-lewisville-tx/", "opening_hours": "Su 09:00-05:00"}, "geometry": {"type": "Point", "coordinates": [-96.969052, 33.007296]}},
{"type": "Feature", "id": "Dq2ySgV8ZlIPxMTRMRsuTf05dFM=", "properties": {"ref": "431", "@spider": "ollies_bargain_outlet", "addr:full": "414 E S E Loop 323", "addr:city": "Tyler", "addr:state": "TX", "addr:postcode": "75701", "addr:country": "US", "phone": "(430) 247-5471", "website": "https://www.ollies.us/locations/414-e-s-e-loop-323-tyler-tx/", "opening_hours": "Su 09:00-05:00"}, "geometry": {"type": "Point", "coordinates": [-95.29676, 32.30376]}},
{"type": "Feature", "id": "NQlUd6Uv6V-JaV3akyJmAZyZgfs=", "properties": {"ref": "312", "@spider": "ollies_bargain_outlet", "addr:full": "1122 N University Drive", "addr:city": "Nacogdoches", "addr:state": "TX", "addr:postcode": "75961", "addr:country": "US", "phone": "(936) 305-5314", "website": "https://www.ollies.us/locations/1122-n-university-drive-nacogdoches-tx/", "opening_hours": "Su 09:00-05:00"}, "geometry": {"type": "Point", "coordinates": [-94.637353, 31.612379]}},
{"type": "Feature", "id": "9KtuFhf0KnyJIpHoa1VeK8Wf_B8=", "properties": {"ref": "271", "@spider": "ollies_bargain_outlet", "addr:full": "350 John R Junkin Drive", "addr:city": "Natchez", "addr:state": "MS", "addr:postcode": "39120", "addr:country": "US", "phone": "(601) 442 3783", "website": "https://www.ollies.us/locations/350-john-r-junkin-drive-natchez-ms/", "opening_hours": "Su 09:00-05:00"}, "geometry": {"type": "Point", "coordinates": [-91.404871, 31.542361]}},
{"type": "Feature", "id": "BrMQGmasGPpVH2u0mkPnH96pQU4=", "properties": {"ref": "279", "@spider": "ollies_bargain_outlet", "addr:full": "3310 A Central Avenue", "addr:city": "Hot Springs", "addr:state": "AR", "addr:postcode": "71913", "addr:country": "US", "phone": "(501) 463-9100", "website": "https://www.ollies.us/locations/3310-a-central-avenue-hot-springs-ar/", "opening_hours": "Su 09:00-05:00"}, "geometry": {"type": "Point", "coordinates": [-93.061758, 34.476032]}},
{"type": "Feature", "id": "P864jshJ5EqrzfycGXc8U1s95xw=", "properties": {"ref": "331", "@spider": "ollies_bargain_outlet", "addr:full": "1919 Staring Lane", "addr:city": "Baton Rouge", "addr:state": "LA", "addr:postcode": "70810", "addr:country": "US", "phone": "(225) 218-6005", "website": "https://www.ollies.us/locations/1919-staring-lane-baton-rouge-la/", "opening_hours": "Su 09:00-05:00"}, "geometry": {"type": "Point", "coordinates": [-91.112236, 30.392802]}},
{"type": "Feature", "id": "aZrX9RUqIsW0mCKDJ6W9rioSHOU=", "properties": {"ref": "408", "@spider": "ollies_bargain_outlet", "addr:full": "2450 East Shawnee Road", "addr:city": "Muskogee", "addr:state": "OK", "addr:postcode": "74403", "addr:country": "US", "phone": "(918) 351-7130", "website": "https://www.ollies.us/locations/2450-east-shawnee-road-muskogee-ok/", "opening_hours": "Su 09:00-05:00"}, "geometry": {"type": "Point", "coordinates": [-95.33724, 35.772216]}},
{"type": "Feature", "id": "B5bPPAGE83_pKQpCEdsdycTVSL8=", "properties": {"ref": "328", "@spider": "ollies_bargain_outlet", "addr:full": "730 S Range Avenue, Building 2 Suite A", "addr:city": "Denham Springs", "addr:state": "LA", "addr:postcode": "70726", "addr:country": "US", "phone": "(225) 523-4821", "website": "https://www.ollies.us/locations/730-s-range-avenue-building-2-suite-a-denham-springs-la/", "opening_hours": "Su 09:00-05:00"}, "geometry": {"type": "Point", "coordinates": [-90.955735, 30.475121]}},
{"type": "Feature", "id": "C9xRrnkisuznHKj6BV3DWfCF_ew=", "properties": {"ref": "349", "@spider": "ollies_bargain_outlet", "addr:full": "8101 NW Expressway", "addr:city": "Oklahoma City", "addr:state": "OK", "addr:postcode": "73162", "addr:country": "US", "phone": "405-498-3083", "website": "https://www.ollies.us/locations/8101-nw-expressway-oklahoma-city-ok/", "opening_hours": "Su 09:00-05:00"}, "geometry": {"type": "Point", "coordinates": [-97.658492, 35.567648]}},
{"type": "Feature", "id": "vSIRlWWHb-3pE_kuCCrjjREGLBw=", "properties": {"ref": "377", "@spider": "ollies_bargain_outlet", "addr:full": "2279 Louisville Ave", "addr:city": "Monroe", "addr:state": "LA", "addr:postcode": "71201", "addr:country": "US", "phone": "(318) 600-4130", "website": "https://www.ollies.us/locations/2279-louisville-ave-monroe-la/", "opening_hours": "Su 09:00-05:00"}, "geometry": {"type": "Point", "coordinates": [-92.10143, 32.522784]}},
{"type": "Feature", "id": "pjl-1jQyWBLvSQSHjY26l-cvSik=", "properties": {"ref": "282", "@spider": "ollies_bargain_outlet", "addr:full": "2901 S. Olive Street", "addr:city": "Pine Bluff", "addr:state": "AR", "addr:postcode": "71603", "addr:country": "US", "phone": "(870) 663-0085", "website": "https://www.ollies.us/locations/2901-s-olive-street-pine-bluff-ar/", "opening_hours": "Su 09:00-05:00"}, "geometry": {"type": "Point", "coordinates": [-92.005466, 34.199686]}},
{"type": "Feature", "id": "VPimrZccJ-bQ5KcA37YOJx1_GVg=", "properties": {"ref": "309", "@spider": "ollies_bargain_outlet", "addr:full": "8719 Geyer Springs Rd", "addr:city": "Little Rock", "addr:state": "AR", "addr:postcode": "72209", "addr:country": "US", "phone": "(501) 246-4549", "website": "https://www.ollies.us/locations/8719-geyer-springs-rd-little-rock-ar/", "opening_hours": "Su 09:00-05:00"}, "geometry": {"type": "Point", "coordinates": [-92.342815, 34.670992]}},
{"type": "Feature", "id": "Cu4QAgg3_w3lJJ7ULkwBcXPfsr4=", "properties": {"ref": "448", "@spider": "ollies_bargain_outlet", "addr:full": "2005 N 14th Street", "addr:city": "Ponca City", "addr:state": "OK", "addr:postcode": "74601", "addr:country": "US", "phone": "(580)-576-3479", "website": "https://www.ollies.us/locations/2005-n-14th-street-ponca-city-ok/", "opening_hours": "Su 09:00-05:00"}, "geometry": {"type": "Point", "coordinates": [-97.06559, 36.72651]}},
{"type": "Feature", "id": "Vz1C0r1WEd3hI1dW24Nv8A-R9Gs=", "properties": {"ref": "341", "@spider": "ollies_bargain_outlet", "addr:full": "4265 E McCain Blvd.", "addr:city": "North Little Rock", "addr:state": "AR", "addr:postcode": "72117", "addr:country": "US", "phone": "(501) 379-8670", "website": "https://www.ollies.us/locations/4265-e-mccain-blvd-north-little-rock-ar/", "opening_hours": "Su 09:00-05:00"}, "geometry": {"type": "Point", "coordinates": [-92.220093, 34.790658]}},
{"type": "Feature", "id": "LpxinJIGrgLpk5aHuSgr2il47GM=", "properties": {"ref": "386", "@spider": "ollies_bargain_outlet", "addr:full": "501 SE Washington Boulevard", "addr:city": "Bartlesville", "addr:state": "OK", "addr:postcode": "74006", "addr:country": "US", "phone": "(918) 213-4895", "website": "https://www.ollies.us/locations/501-se-washington-boulevard-bartlesville-ok/", "opening_hours": "Su 09:00-05:00"}, "geometry": {"type": "Point", "coordinates": [-95.937834, 36.749164]}},
{"type": "Feature", "id": "iJYTM6VIRoPg7Lbgf8j_hTobHzY=", "properties": {"ref": "367", "@spider": "ollies_bargain_outlet", "addr:full": "2500 E Elliott Street", "addr:city": "Wichita Falls", "addr:state": "TX", "addr:postcode": "76308", "addr:country": "US", "phone": "(940) 692-0841", "website": "https://www.ollies.us/locations/2500-e-elliott-street-wichita-falls-tx/", "opening_hours": "Su 09:00-05:00"}, "geometry": {"type": "Point", "coordinates": [-98.53058, 33.866438]}},
{"type": "Feature", "id": "GzCSqZa1ai8ZyP6BT7v_mZ9SLV8=", "properties": {"ref": "311", "@spider": "ollies_bargain_outlet", "addr:full": "1300 E Pinecrest Drive", "addr:city": "Marshall", "addr:state": "TX", "addr:postcode": "75670", "addr:country": "US", "phone": "(903) 472-4634", "website": "https://www.ollies.us/locations/1300-e-pinecrest-drive-marshall-tx/", "opening_hours": "Su 09:00-05:00"}, "geometry": {"type": "Point", "coordinates": [-94.354392, 32.525168]}},
{"type": "Feature", "id": "yyIunwtPR9J23dCfQGGDHILmszc=", "properties": {"ref": "421", "@spider": "ollies_bargain_outlet", "addr:full": "665 N Ridge Rd", "addr:city": "Wichita", "addr:state": "KS", "addr:postcode": "67212", "addr:country": "US", "phone": "(316) 867-3373", "website": "https://www.ollies.us/locations/665-n-ridge-rd-wichita-ks/", "opening_hours": "Su 09:00-05:00"}, "geometry": {"type": "Point", "coordinates": [-97.42727671, 37.69349683]}},
{"type": "Feature", "id": "y2zX84GOO_CjLyFZ4L5H1DgpbtU=", "properties": {"ref": "343", "@spider": "ollies_bargain_outlet", "addr:full": "1353 E Pass Road", "addr:city": "Gulfport", "addr:state": "MS", "addr:postcode": "39507", "addr:country": "US", "phone": "(228) 265-7243", "website": "https://www.ollies.us/locations/1353-e-pass-road-gulfport-ms/"}, "geometry": {"type": "Point", "coordinates": [-89.029089, 30.396724]}},
{"type": "Feature", "id": "fYreaDSLT5pTc0z8SB32paqgR2o=", "properties": {"ref": "420", "@spider": "ollies_bargain_outlet", "addr:full": "1500 E 11th Avenue", "addr:city": "Hutchinson", "addr:state": "KS", "addr:postcode": "67501", "addr:country": "US", "phone": "(620) 860-2327", "website": "https://www.ollies.us/locations/1500-e-11th-avenue-hutchinson-ks/", "opening_hours": "Mo-Sa 09:00-09:00; Su 10:00-07:00"}, "geometry": {"type": "Point", "coordinates": [-97.89956224, 38.06721598]}},
{"type": "Feature", "id": "jEzZFwYlp8yIR5f8ZdEUAtJ2lR4=", "properties": {"ref": "403", "@spider": "ollies_bargain_outlet", "addr:full": "3407 Lapalco Boulevard, Harvey", "addr:city": "Harvey", "addr:state": "LA", "addr:postcode": "70058", "addr:country": "US", "phone": "(504) 224-4632", "website": "https://www.ollies.us/locations/3407-lapalco-boulevard-harvey-harvey-la/", "opening_hours": "Su 09:00-05:00"}, "geometry": {"type": "Point", "coordinates": [-90.07619585, 29.86881477]}},
{"type": "Feature", "id": "blgf6ljUDqVZl6JpeB5zc3y99IE=", "properties": {"ref": "363", "@spider": "ollies_bargain_outlet", "addr:full": "1175 East County Line Road", "addr:city": "Jackson", "addr:state": "MS", "addr:postcode": "39211", "addr:country": "US", "phone": "(769) 572-7667", "website": "https://www.ollies.us/locations/1175-east-county-line-road-jackson-ms/", "opening_hours": "Su 09:00-05:00"}, "geometry": {"type": "Point", "coordinates": [-90.133628, 32.398257]}},
{"type": "Feature", "id": "WD8Jqas25MlFvQ6_da96g33kYmU=", "properties": {"ref": "429", "@spider": "ollies_bargain_outlet", "addr:full": "127 Northshore Blvd,", "addr:city": "Slidell", "addr:state": "LA", "addr:postcode": "70460", "addr:country": "US", "phone": "(985) 214-4022", "website": "https://www.ollies.us/locations/127-northshore-blvd-slidell-la/", "opening_hours": "Mo-Sa 09:00-09:00; Su 10:00-07:00"}, "geometry": {"type": "Point", "coordinates": [-89.82704, 30.30442]}},
{"type": "Feature", "id": "Qsb1ReYUT90anLWSDVIsS0OPRuE=", "properties": {"ref": "362", "@spider": "ollies_bargain_outlet", "addr:full": "1560 W. Government Street", "addr:city": "Brandon", "addr:state": "MS", "addr:postcode": "39042", "addr:country": "US", "phone": "(769) 241-9930", "website": "https://www.ollies.us/locations/1560-w-government-street-brandon-ms/", "opening_hours": "Su 09:00-05:00"}, "geometry": {"type": "Point", "coordinates": [-90.022097, 32.284933]}},
{"type": "Feature", "id": "Tp7DqM08PJEZswC7-yS-CIzOH-M=", "properties": {"ref": "300", "@spider": "ollies_bargain_outlet", "addr:full": "4600 Hardy St.", "addr:city": "Hattiesburg", "addr:state": "MS", "addr:postcode": "39402", "addr:country": "US", "phone": "(601) 402-7934", "website": "https://www.ollies.us/locations/4600-hardy-st-hattiesburg-ms/", "opening_hours": "Su 09:00-05:00"}, "geometry": {"type": "Point", "coordinates": [-89.359698, 31.321459]}},
{"type": "Feature", "id": "PrBcXlN01wS-E3oPYSeJWblgOqQ=", "properties": {"ref": "185", "@spider": "ollies_bargain_outlet", "addr:full": "9076 Madison Blvd Suite F1", "addr:city": "Madison", "addr:state": "AL", "addr:postcode": "35758", "addr:country": "US", "phone": "(256) 772-5082", "website": "https://www.ollies.us/locations/9076-madison-blvd-suite-f1-madison-al/", "opening_hours": "Su 09:00-05:00"}, "geometry": {"type": "Point", "coordinates": [-86.7582004, 34.6761864]}},
{"type": "Feature", "id": "H5UpgGe45Aieqrw6oC4aSazF1fE=", "properties": {"ref": "209", "@spider": "ollies_bargain_outlet", "addr:full": "1906 Shady Brook Street", "addr:city": "Columbia", "addr:state": "TN", "addr:postcode": "38401", "addr:country": "US", "phone": "(931) 840-0099", "website": "https://www.ollies.us/locations/1906-shady-brook-street-columbia-tn/", "opening_hours": "Su 09:00-05:00"}, "geometry": {"type": "Point", "coordinates": [-87.0582602, 35.6003066]}},
{"type": "Feature", "id": "5wyb-tl1hI9Lp20ah_Os28Ui92s=", "properties": {"ref": "449", "@spider": "ollies_bargain_outlet", "addr:full": "3 West Frankfort Plaza", "addr:city": "West Frankfort", "addr:state": "IL", "addr:postcode": "62896", "addr:country": "US", "phone": "(618) 937-8595", "website": "https://www.ollies.us/locations/3-west-frankfort-plaza-west-frankfort-il/", "opening_hours": "Su 09:00-05:00"}, "geometry": {"type": "Point", "coordinates": [-88.94933, 37.89594]}},
{"type": "Feature", "id": "b2kXIDfIypADkGCiYt__6DC8e1s=", "properties": {"ref": "227", "@spider": "ollies_bargain_outlet", "addr:full": "5940 US 431, Suite 600", "addr:city": "Albertville", "addr:state": "AL", "addr:postcode": "35950", "addr:country": "US", "phone": "(256) 891-5975", "website": "https://www.ollies.us/locations/5940-us-431-suite-600-albertville-al/", "opening_hours": "Su 09:00-05:00"}, "geometry": {"type": "Point", "coordinates": [-86.1897965, 34.2631949]}},
{"type": "Feature", "id": "qVxbWg09Ve8-0FhO0QC0R4fEXsQ=", "properties": {"ref": "182", "@spider": "ollies_bargain_outlet", "addr:full": "3000 E Meighan Blvd", "addr:city": "Gadsden", "addr:state": "AL", "addr:postcode": "35903", "addr:country": "US", "phone": "(256) 494-5274", "website": "https://www.ollies.us/locations/3000-e-meighan-blvd-gadsden-al/", "opening_hours": "Su 09:00-05:00"}, "geometry": {"type": "Point", "coordinates": [-85.9503919, 33.974917]}},
{"type": "Feature", "id": "8PpHTO3VGe2KNpJKPjXsTprYBP8=", "properties": {"ref": "269", "@spider": "ollies_bargain_outlet", "addr:full": "118 Hwy 72 West", "addr:city": "Corinth", "addr:state": "MS", "addr:postcode": "38834", "addr:country": "US", "phone": "(662) 286-1940", "website": "https://www.ollies.us/locations/118-hwy-72-west-corinth-ms/", "opening_hours": "Su 09:00-05:00"}, "geometry": {"type": "Point", "coordinates": [-88.525642, 34.92789]}},
{"type": "Feature", "id": "NuR7Ij_8DF5LRk_03uWXilqZIqo=", "properties": {"ref": "412", "@spider": "ollies_bargain_outlet", "addr:full": "2700 Lake Road", "addr:city": "Dyersburg ", "addr:state": "TN", "addr:postcode": "38024", "addr:country": "US", "phone": "(731) 259-0456", "website": "https://www.ollies.us/locations/2700-lake-road-dyersburg-tn/", "opening_hours": "Mo-Sa 09:00-09:00; Su 10:00-07:00"}, "geometry": {"type": "Point", "coordinates": [-89.39353, 36.06663]}},
{"type": "Feature", "id": "QybDpW-g7v_XMsKINpZ2dkKtC2I=", "properties": {"ref": "243", "@spider": "ollies_bargain_outlet", "addr:full": "312 East 9 Mile Road", "addr:city": "Pensacola", "addr:state": "FL", "addr:postcode": "32514", "addr:country": "US", "phone": "(850) 484-2489", "website": "https://www.ollies.us/locations/312-east-9-mile-road-pensacola-fl/", "opening_hours": "Su 09:00-05:00"}, "geometry": {"type": "Point", "coordinates": [-87.2601227, 30.5343008]}},
{"type": "Feature", "id": "rCsOcgurcwSItOcvq8gGNYX9JVM=", "properties": {"ref": "338", "@spider": "ollies_bargain_outlet", "addr:full": "635 Skyland Blvd.", "addr:city": "Tuscaloosa", "addr:state": "AL", "addr:postcode": "35405", "addr:country": "US", "phone": "(205) 632-3980", "website": "https://www.ollies.us/locations/635-skyland-blvd-tuscaloosa-al/", "opening_hours": "Su 09:00-05:00"}, "geometry": {"type": "Point", "coordinates": [-87.545901, 33.163131]}},
{"type": "Feature", "id": "Bx8voEtY524zJRYxzXQ5FQMEEaM=", "properties": {"ref": "218", "@spider": "ollies_bargain_outlet", "addr:full": "861 North Parkway", "addr:city": "Jackson", "addr:state": "TN", "addr:postcode": "38305", "addr:country": "US", "phone": "(731) 984-8496", "website": "https://www.ollies.us/locations/861-north-parkway-jackson-tn/", "opening_hours": "Su 09:00-05:00"}, "geometry": {"type": "Point", "coordinates": [-88.8310304, 35.652146]}},
{"type": "Feature", "id": "xV3NJ_ab8YnNB2awHncg3go-0AA=", "properties": {"ref": "192", "@spider": "ollies_bargain_outlet", "addr:full": "808 Green Springs Highway, Suite 160", "addr:city": "Homewood", "addr:state": "AL", "addr:postcode": "35209", "addr:country": "US", "phone": "(205) 943-0181", "website": "https://www.ollies.us/locations/808-green-springs-highway-suite-160-homewood-al/", "opening_hours": "Su 09:00-05:00"}, "geometry": {"type": "Point", "coordinates": [-86.8186471, 33.4617312]}},
{"type": "Feature", "id": "NzMjJYe6SXqEgODnEdg75jdQrTk=", "properties": {"ref": "198", "@spider": "ollies_bargain_outlet", "addr:full": "1922 Cobbs Ford Road", "addr:city": "Prattville", "addr:state": "AL", "addr:postcode": "36066", "addr:country": "US", "phone": "(334) 365-1703", "website": "https://www.ollies.us/locations/1922-cobbs-ford-road-prattville-al/", "opening_hours": "Su 09:00-05:00"}, "geometry": {"type": "Point", "coordinates": [-86.415278, 32.4593214]}},
{"type": "Feature", "id": "RvVZK8Bln28uVGl_aLm5FbiXFDs=", "properties": {"ref": "428", "@spider": "ollies_bargain_outlet", "addr:full": "5980 Chalkville Mountain Road ", "addr:city": "Trussville", "addr:state": "AL", "addr:postcode": "35235", "addr:country": "US", "phone": "(205) 508-0053", "website": "https://www.ollies.us/locations/5980-chalkville-mountain-road-trussville-al/", "opening_hours": "Mo-Sa 09:00-09:00; Su 10:00-07:00"}, "geometry": {"type": "Point", "coordinates": [-86.6214, 33.64197]}},
{"type": "Feature", "id": "1SGQOTYp9fbSweFWhtMzo7ZVmTI=", "properties": {"ref": "289", "@spider": "ollies_bargain_outlet", "addr:full": "2654 Eastern Blvd", "addr:city": "Montgomery", "addr:state": "AL", "addr:postcode": "36117", "addr:country": "US", "phone": "(334) 213-0399", "website": "https://www.ollies.us/locations/2654-eastern-blvd-montgomery-al/", "opening_hours": "Su 09:00-05:00"}, "geometry": {"type": "Point", "coordinates": [-86.225697, 32.346994]}},
{"type": "Feature", "id": "ifesIrvfImMJpcYPSiQEMs0ZhIM=", "properties": {"ref": "255", "@spider": "ollies_bargain_outlet", "addr:full": "540 West Fort Williams Street", "addr:city": "Sylacauga", "addr:state": "AL", "addr:postcode": "35150", "addr:country": "US", "phone": "(256) 245-8053", "website": "https://www.ollies.us/locations/540-west-fort-williams-street-sylacauga-al/", "opening_hours": "Su 09:00-05:00"}, "geometry": {"type": "Point", "coordinates": [-86.259019, 33.168462]}},
{"type": "Feature", "id": "-URzadqpxSPCRuyUDRdixtdpjnw=", "properties": {"ref": "222", "@spider": "ollies_bargain_outlet", "addr:full": "1175 Bonita Lakes Circle", "addr:city": "Meridian", "addr:state": "MS", "addr:postcode": "39301", "addr:country": "US", "phone": "(601) 693-8051", "website": "https://www.ollies.us/locations/1175-bonita-lakes-circle-meridian-ms/", "opening_hours": "Su 09:00-05:00"}, "geometry": {"type": "Point", "coordinates": [-88.667707, 32.3584713]}},
{"type": "Feature", "id": "v-shBYlmh0p1rWn1jXjOdyaFQww=", "properties": {"ref": "326", "@spider": "ollies_bargain_outlet", "addr:full": "7676 Polo Grounds Blvd.", "addr:city": "Memphis", "addr:state": "TN", "addr:postcode": "38125", "addr:country": "US", "phone": "(901) 624-4442", "website": "https://www.ollies.us/locations/7676-polo-grounds-blvd-memphis-tn/", "opening_hours": "Su 09:00-05:00"}, "geometry": {"type": "Point", "coordinates": [-89.807915, 35.052355]}},
{"type": "Feature", "id": "WDqhKy2FIVELaag0crAuR6R-loU=", "properties": {"ref": "417", "@spider": "ollies_bargain_outlet", "addr:full": "1215 S Main Street", "addr:city": "Sikeston", "addr:state": "MO", "addr:postcode": "63801", "addr:country": "US", "phone": "(573) 258-8325", "website": "https://www.ollies.us/locations/1215-s-main-street-sikeston-mo/", "opening_hours": "Su 10:00-07:00"}, "geometry": {"type": "Point", "coordinates": [-89.58604812, 36.85911139]}},
{"type": "Feature", "id": "IZQOfGhciuet9JsAUmeCJ1a5zT0=", "properties": {"ref": "390", "@spider": "ollies_bargain_outlet", "addr:full": "1700 Darby Drive", "addr:city": "Florence", "addr:state": "AL", "addr:postcode": "35630", "addr:country": "US", "phone": "(256) 284-7531", "website": "https://www.ollies.us/locations/1700-darby-drive-florence-al/", "opening_hours": "Su 09:00-05:00"}, "geometry": {"type": "Point", "coordinates": [-87.654156, 34.822021]}},
{"type": "Feature", "id": "bPZqzjreGRWaSPeh3c7w9-EEZEY=", "properties": {"ref": "225", "@spider": "ollies_bargain_outlet", "addr:full": "1140 E John Sims Parkway, Suite 4", "addr:city": "Niceville", "addr:state": "FL", "addr:postcode": "32578", "addr:country": "US", "phone": "(850) 729-0403", "website": "https://www.ollies.us/locations/1140-e-john-sims-parkway-suite-4-niceville-fl/", "opening_hours": "Su 09:00-05:00"}, "geometry": {"type": "Point", "coordinates": [-86.465157, 30.517467]}},
{"type": "Feature", "id": "T_8juQvVO-VJ1d8t0u2ez31PL6I=", "properties": {"ref": "164", "@spider": "ollies_bargain_outlet", "addr:full": "2004 Veterans Memorial Dr", "addr:city": "Birmingham", "addr:state": "AL", "addr:postcode": "35214", "addr:country": "US", "phone": "(205) 791-5997", "website": "https://www.ollies.us/locations/2004-veterans-memorial-dr-birmingham-al/", "opening_hours": "Su 09:00-05:00"}, "geometry": {"type": "Point", "coordinates": [-86.9081558, 33.5731232]}},
{"type": "Feature", "id": "yhGjTCm6ZAZdNhmhRoAK07fiGKs=", "properties": {"ref": "319", "@spider": "ollies_bargain_outlet", "addr:full": "1715 Montgomery Highway", "addr:city": "Hoover", "addr:state": "AL", "addr:postcode": "35244", "addr:country": "US", "phone": "(205) 989-7991", "website": "https://www.ollies.us/locations/1715-montgomery-highway-hoover-al/", "opening_hours": "Su 09:00-05:00"}, "geometry": {"type": "Point", "coordinates": [-86.803754, 33.381633]}},
{"type": "Feature", "id": "BCTYBe5iyHxW5Qdr_SN7A8Wux_w=", "properties": {"ref": "168", "@spider": "ollies_bargain_outlet", "addr:full": "1596 Fort Campbell Blvd Suite E", "addr:city": "Clarksville", "addr:state": "TN", "addr:postcode": "37042", "addr:country": "US", "phone": "(931) 503-2450", "website": "https://www.ollies.us/locations/1596-fort-campbell-blvd-suite-e-clarksville-tn/", "opening_hours": "Su 09:00-05:00"}, "geometry": {"type": "Point", "coordinates": [-87.4083631, 36.5733071]}},
{"type": "Feature", "id": "VB7Y10he06O1JMLTCZR6ePGzBoc=", "properties": {"ref": "242", "@spider": "ollies_bargain_outlet", "addr:full": "2214 Ross Clark Circle", "addr:city": "Dothan", "addr:state": "AL", "addr:postcode": "36302", "addr:country": "US", "phone": "(334) 446-1742", "website": "https://www.ollies.us/locations/2214-ross-clark-circle-dothan-al/", "opening_hours": "Su 09:00-05:00"}, "geometry": {"type": "Point", "coordinates": [-85.4040375, 31.1934276]}},
{"type": "Feature", "id": "8Zk6mEbnm8jlJ60tsKmf9LnoTrk=", "properties": {"ref": "240", "@spider": "ollies_bargain_outlet", "addr:full": "3109 McClellan Blvd", "addr:city": "Anniston", "addr:state": "AL", "addr:postcode": "36201", "addr:country": "US", "phone": "(256) 403-2366", "website": "https://www.ollies.us/locations/3109-mcclellan-blvd-anniston-al/", "opening_hours": "Su 09:00-05:00"}, "geometry": {"type": "Point", "coordinates": [-85.8229809, 33.6849343]}},
{"type": "Feature", "id": "B1U5dA8rQSd4gAO6eG0V8Hyodkg=", "properties": {"ref": "169", "@spider": "ollies_bargain_outlet", "addr:full": "2440 Pepperell Parkway", "addr:city": "Opelika", "addr:state": "AL", "addr:postcode": "36801", "addr:country": "US", "phone": "(334) 741-7764", "website": "https://www.ollies.us/locations/2440-pepperell-parkway-opelika-al/", "opening_hours": "Su 09:00-05:00"}, "geometry": {"type": "Point", "coordinates": [-85.4148214, 32.6372088]}},
{"type": "Feature", "id": "75widnHuN8sORsad31zJ8ETFZA0=", "properties": {"ref": "200", "@spider": "ollies_bargain_outlet", "addr:full": "22991 John T. Reid Parkway Suite B", "addr:city": "Scottsboro", "addr:state": "AL", "addr:postcode": "35768", "addr:country": "US", "phone": "(256) 259-0555", "website": "https://www.ollies.us/locations/22991-john-t-reid-parkway-suite-b-scottsboro-al/", "opening_hours": "Su 09:00-05:00"}, "geometry": {"type": "Point", "coordinates": [-86.0311303, 34.6490767]}},
{"type": "Feature", "id": "Ekpiyg5mCgszi7vKPUgxAASijA4=", "properties": {"ref": "236", "@spider": "ollies_bargain_outlet", "addr:full": "7820 Moffett Road", "addr:city": "Semmes", "addr:state": "AL", "addr:postcode": "36575", "addr:country": "US", "phone": "(251) 649-0865", "website": "https://www.ollies.us/locations/7820-moffett-road-semmes-al/", "opening_hours": "Su 09:00-05:00"}, "geometry": {"type": "Point", "coordinates": [-88.226615, 30.7647309]}},
{"type": "Feature", "id": "Pr9SE1DpN-P6b1FOovgSHatiacM=", "properties": {"ref": "327", "@spider": "ollies_bargain_outlet", "addr:full": "8060 Giacosa Place", "addr:city": "Memphis", "addr:state": "TN", "addr:postcode": "38133", "addr:country": "US", "phone": "(901) 377-4035", "website": "https://www.ollies.us/locations/8060-giacosa-place-memphis-tn/", "opening_hours": "Su 09:00-05:00"}, "geometry": {"type": "Point", "coordinates": [-89.794418, 35.199562]}},
{"type": "Feature", "id": "CRsb_blsJRvjzkOfq9pwFVJqYJk=", "properties": {"ref": "384", "@spider": "ollies_bargain_outlet", "addr:full": "5451 Halls Mill Rd", "addr:city": "Mobile", "addr:state": "AL", "addr:postcode": "36619", "addr:country": "US", "phone": "(251) 378-8322", "website": "https://www.ollies.us/locations/5451-halls-mill-rd-mobile-al/", "opening_hours": "Su 09:00-05:00"}, "geometry": {"type": "Point", "coordinates": [-88.166331, 30.590415]}},
{"type": "Feature", "id": "n4jt9EpAr4drHxfKD7Noc2zyzeM=", "properties": {"ref": "364", "@spider": "ollies_bargain_outlet", "addr:full": "969 E Barnes Crossing Road", "addr:city": "Tupelo", "addr:state": "MS", "addr:postcode": "38804", "addr:country": "US", "phone": "(662) 269-3997", "website": "https://www.ollies.us/locations/969-e-barnes-crossing-road-tupelo-ms/", "opening_hours": "Su 09:00-05:00"}, "geometry": {"type": "Point", "coordinates": [-88.701675, 34.314739]}},
{"type": "Feature", "id": "egvt69Bo3T19CB4jI_fnvZshfM4=", "properties": {"ref": "418", "@spider": "ollies_bargain_outlet", "addr:full": "1391 N Westwood Blvd.", "addr:city": "Poplar Bluff", "addr:state": "MO", "addr:postcode": "63901", "addr:country": "US", "phone": "(573) 609-8399", "website": "https://www.ollies.us/locations/1391-n-westwood-blvd-poplar-bluff-mo/", "opening_hours": "Su 09:00-05:00"}, "geometry": {"type": "Point", "coordinates": [-90.41865462, 36.76996717]}},
{"type": "Feature", "id": "6PNYTwYfBi_eojezVbMIV8sOLvQ=", "properties": {"ref": "193", "@spider": "ollies_bargain_outlet", "addr:full": "2885 West Parrish Avenue", "addr:city": "Owensboro", "addr:state": "KY", "addr:postcode": "42301", "addr:country": "US", "phone": "(270) 685-5567", "website": "https://www.ollies.us/locations/2885-west-parrish-avenue-owensboro-ky/", "opening_hours": "Su 09:00-05:00"}, "geometry": {"type": "Point", "coordinates": [-87.1488825, 37.7570534]}},
{"type": "Feature", "id": "GFwGjDz4u2U-kjnnBsi3ov0yTmc=", "properties": {"ref": "171", "@spider": "ollies_bargain_outlet", "addr:full": "1730 Westpark Dr Suite A", "addr:city": "Bowling Green", "addr:state": "KY", "addr:postcode": "42104", "addr:country": "US", "phone": "(270) 843-4421", "website": "https://www.ollies.us/locations/1730-westpark-dr-suite-a-bowling-green-ky/"}, "geometry": {"type": "Point", "coordinates": [-86.4355748, 36.9560214]}},
{"type": "Feature", "id": "vy6UHFFoh1Ob_gCqHEC0GIzTWUU=", "properties": {"ref": "262", "@spider": "ollies_bargain_outlet", "addr:full": "9365 The Landing Drive", "addr:city": "Douglasville", "addr:state": "GA", "addr:postcode": "30135", "addr:country": "US", "phone": "(770) 575-9918", "website": "https://www.ollies.us/locations/9365-the-landing-drive-douglasville-ga/", "opening_hours": "Su 09:00-05:00"}, "geometry": {"type": "Point", "coordinates": [-84.740254, 33.729421]}},
{"type": "Feature", "id": "K0vx-I7Roq4w6VjIeq41kAS_vD0=", "properties": {"ref": "139", "@spider": "ollies_bargain_outlet", "addr:full": "5768 Brainerd Road", "addr:city": "Chattanooga", "addr:state": "TN", "addr:postcode": "37411", "addr:country": "US", "phone": "(423) 894-4400", "website": "https://www.ollies.us/locations/5768-brainerd-road-chattanooga-tn/", "opening_hours": "Su 09:00-05:00"}, "geometry": {"type": "Point", "coordinates": [-85.2112649, 35.0137234]}},
{"type": "Feature", "id": "pHX9NBX_y5AtyoEfY9jylEK7Hdw=", "properties": {"ref": "167", "@spider": "ollies_bargain_outlet", "addr:full": "535 Bankhead Hwy Suite B", "addr:city": "Carrollton", "addr:state": "GA", "addr:postcode": "30117", "addr:country": "US", "phone": "(770) 836-6111", "website": "https://www.ollies.us/locations/535-bankhead-hwy-suite-b-carrollton-ga/", "opening_hours": "Su 09:00-05:00"}, "geometry": {"type": "Point", "coordinates": [-85.058888, 33.586497]}},
{"type": "Feature", "id": "CJbH_Qwr8oNqUCuQGe-lPfFYSSo=", "properties": {"ref": "385", "@spider": "ollies_bargain_outlet", "addr:full": "2606 Zion Road", "addr:city": "Henderson", "addr:state": "KY", "addr:postcode": "42420", "addr:country": "US", "phone": "(270) 212-2129", "website": "https://www.ollies.us/locations/2606-zion-road-henderson-ky/", "opening_hours": "Su 09:00-05:00"}, "geometry": {"type": "Point", "coordinates": [-87.557749, 37.825141]}},
{"type": "Feature", "id": "7pPEZ8vx_pL5kPnjNR0gCnMbVGY=", "properties": {"ref": "220", "@spider": "ollies_bargain_outlet", "addr:full": "2448 Shorter Avenue NW", "addr:city": "Rome", "addr:state": "GA", "addr:postcode": "30165", "addr:country": "US", "phone": "(706) 234-2177", "website": "https://www.ollies.us/locations/2448-shorter-avenue-nw-rome-ga/", "opening_hours": "Su 09:00-05:00"}, "geometry": {"type": "Point", "coordinates": [-85.238103, 34.2731031]}},
{"type": "Feature", "id": "9-X8D6XIFt3OxgEzCiS9imVpsYY=", "properties": {"ref": "234", "@spider": "ollies_bargain_outlet", "addr:full": "620 East Diamond Avenue", "addr:city": "Evansville", "addr:state": "IN", "addr:postcode": "47711", "addr:country": "US", "phone": "(812) 425-3097", "website": "https://www.ollies.us/locations/620-east-diamond-avenue-evansville-in/", "opening_hours": "Su 09:00-05:00"}, "geometry": {"type": "Point", "coordinates": [-87.557354, 38.0003739]}},
{"type": "Feature", "id": "Ix3k9UcaKqWug9787Oi5io2QtvE=", "properties": {"ref": "165", "@spider": "ollies_bargain_outlet", "addr:full": "56 Bullsboro Dr", "addr:city": "Newnan", "addr:state": "GA", "addr:postcode": "30263", "addr:country": "US", "phone": "(770) 304-2395", "website": "https://www.ollies.us/locations/56-bullsboro-dr-newnan-ga/", "opening_hours": "Su 09:00-05:00"}, "geometry": {"type": "Point", "coordinates": [-84.7867617, 33.3854737]}},
{"type": "Feature", "id": "wdgVX6CBGwEyfRC7x5rSrIOYs3c=", "properties": {"ref": "195", "@spider": "ollies_bargain_outlet", "addr:full": "385 W. Lincoln Street", "addr:city": "Tullahoma", "addr:state": "TN", "addr:postcode": "37388", "addr:country": "US", "phone": "(931) 454-9382", "website": "https://www.ollies.us/locations/385-w-lincoln-street-tullahoma-tn/", "opening_hours": "Su 09:00-05:00"}, "geometry": {"type": "Point", "coordinates": [-86.2155732, 35.359019]}},
{"type": "Feature", "id": "ni0hokgEWs8RIwo91iS9kNOc7y0=", "properties": {"ref": "213", "@spider": "ollies_bargain_outlet", "addr:full": "2383 Murfreesboro Pike", "addr:city": "Nashville", "addr:state": "TN", "addr:postcode": "37217", "addr:country": "US", "phone": "(615) 367-1826", "website": "https://www.ollies.us/locations/2383-Murfreesboro-Pike-Nashville-TN/", "opening_hours": "Su 09:00-05:00"}, "geometry": {"type": "Point", "coordinates": [-86.6474087, 36.0841724]}},
{"type": "Feature", "id": "w74hukkiEL8UKZslfM47rzUY_Hs=", "properties": {"ref": "248", "@spider": "ollies_bargain_outlet", "addr:full": "2215 Gallatin Pike North Suite 101", "addr:city": "Madison", "addr:state": "TN", "addr:postcode": "37115", "addr:country": "US", "phone": "(615) 239-8484", "website": "https://www.ollies.us/locations/2215-gallatin-pike-north-suite-101-madison-tn/", "opening_hours": "Su 09:00-05:00"}, "geometry": {"type": "Point", "coordinates": [-86.6881, 36.304824]}},
{"type": "Feature", "id": "A0ja-IccOBnADGAp0VYTO68n0Rg=", "properties": {"ref": "162", "@spider": "ollies_bargain_outlet", "addr:full": "670 Nashville Pike", "addr:city": "Gallatin", "addr:state": "TN", "addr:postcode": "37066", "addr:country": "US", "phone": "(615) 451-0437", "website": "https://www.ollies.us/locations/670-nashville-pike-gallatin-tn/", "opening_hours": "Su 09:00-05:00"}, "geometry": {"type": "Point", "coordinates": [-86.4632292, 36.3832562]}},
{"type": "Feature", "id": "0X9--lOLmSnHpQMZagU6q7JrwPk=", "properties": {"ref": "183", "@spider": "ollies_bargain_outlet", "addr:full": "5596 Milgen Road #100", "addr:city": "Columbus", "addr:state": "GA", "addr:postcode": "31907", "addr:country": "US", "phone": "(706) 561-1635", "website": "https://www.ollies.us/locations/5596-milgen-road-100-columbus-ga/", "opening_hours": "Su 09:00-05:00"}, "geometry": {"type": "Point", "coordinates": [-84.8878376, 32.5252948]}},
{"type": "Feature", "id": "wa4n703Kv8oBEUA7zrBVu_Q7Umo=", "properties": {"ref": "329", "@spider": "ollies_bargain_outlet", "addr:full": "5380 Highway 153", "addr:city": "Hixson", "addr:state": "TN", "addr:postcode": "37343", "addr:country": "US", "phone": "(423) 541-4150", "website": "https://www.ollies.us/locations/5380-highway-153-hixson-tn/", "opening_hours": "Su 09:00-05:00"}, "geometry": {"type": "Point", "coordinates": [-85.243979, 35.135648]}},
{"type": "Feature", "id": "al_K4iyL_eN-vO1UmEMACxdfoqs=", "properties": {"ref": "359", "@spider": "ollies_bargain_outlet", "addr:full": "4166 Buford Highway NE", "addr:city": "Atlanta", "addr:state": "GA", "addr:postcode": "30345", "addr:country": "US", "phone": "(470) 355-0134", "website": "https://www.ollies.us/locations/4166-buford-highway-ne-atlanta-ga/", "opening_hours": "Su 09:00-05:00"}, "geometry": {"type": "Point", "coordinates": [-84.30654, 33.86446]}},
{"type": "Feature", "id": "1lS1K2_QP17alXpKM4nffBDgOKo=", "properties": {"ref": "172", "@spider": "ollies_bargain_outlet", "addr:full": "3813 Georgia 138", "addr:city": "Stockbridge", "addr:state": "GA", "addr:postcode": "30281", "addr:country": "US", "phone": "(770) 507-7527", "website": "https://www.ollies.us/locations/3813-georgia-138-stockbridge-ga/", "opening_hours": "Su 09:00-05:00"}, "geometry": {"type": "Point", "coordinates": [-84.1115675, 33.5955293]}},
{"type": "Feature", "id": "wBFpSVc9hSfuP12hMIYeor1qnPQ=", "properties": {"ref": "166", "@spider": "ollies_bargain_outlet", "addr:full": "3850 Venture Dr", "addr:city": "Duluth", "addr:state": "GA", "addr:postcode": "30096", "addr:country": "US", "phone": "(770) 232-3051", "website": "https://www.ollies.us/locations/3850-venture-dr-duluth-ga/", "opening_hours": "Su 09:00-05:00"}, "geometry": {"type": "Point", "coordinates": [-84.1392862, 33.9497317]}},
{"type": "Feature", "id": "O9DQ-Dr_fN8rHzuknnNqJhE3_uw=", "properties": {"ref": "263", "@spider": "ollies_bargain_outlet", "addr:full": "1407 E 16th Avenue", "addr:city": "Cordele", "addr:state": "GA", "addr:postcode": "31015", "addr:country": "US", "phone": "(229) 273-9470", "website": "https://www.ollies.us/locations/1407-e-16th-avenue-cordele-ga/", "opening_hours": "Su 09:00-05:00"}, "geometry": {"type": "Point", "coordinates": [-83.759515, 31.963414]}},
{"type": "Feature", "id": "1DxR29zkiltNCwAf1GImRCDI9nE=", "properties": {"ref": "191", "@spider": "ollies_bargain_outlet", "addr:full": "2420 Wisteria Drive Suite #8", "addr:city": "Snellville", "addr:state": "GA", "addr:postcode": "30078", "addr:country": "US", "phone": "(770) 985-8348", "website": "https://www.ollies.us/locations/2420-wisteria-drive-suite-8-snellville-ga/", "opening_hours": "Su 09:00-05:00"}, "geometry": {"type": "Point", "coordinates": [-84.0094916, 33.8571532]}},
{"type": "Feature", "id": "GWvSCvZjzAzAn8F6xJ48P8C3zTo=", "properties": {"ref": "175", "@spider": "ollies_bargain_outlet", "addr:full": "3555 Mercer University Dr", "addr:city": "Macon", "addr:state": "GA", "addr:postcode": "31204", "addr:country": "US", "phone": "(478) 475-7870", "website": "https://www.ollies.us/locations/3555-mercer-university-dr-macon-ga/", "opening_hours": "Su 09:00-05:00"}, "geometry": {"type": "Point", "coordinates": [-83.6935663, 32.8227087]}},
{"type": "Feature", "id": "V7FC-vRtUx0J6xlqtQ3F3UXOisA=", "properties": {"ref": "194", "@spider": "ollies_bargain_outlet", "addr:full": "828 North Houston Road", "addr:city": "Warner Robins", "addr:state": "GA", "addr:postcode": "31093", "addr:country": "US", "phone": "(478) 922-1492", "website": "https://www.ollies.us/locations/828-north-houston-road-warner-robins-ga/", "opening_hours": "Su 09:00-05:00"}, "geometry": {"type": "Point", "coordinates": [-83.640275, 32.632595]}},
{"type": "Feature", "id": "rs2GC1928Igz6v4f7xWdvAX6zKs=", "properties": {"ref": "314", "@spider": "ollies_bargain_outlet", "addr:full": "458 Virginia Avenue N", "addr:city": "Tifton", "addr:state": "GA", "addr:postcode": "31794", "addr:country": "US", "phone": "(229) 396-4322", "website": "https://www.ollies.us/locations/458-virginia-avenue-n-tifton-ga/", "opening_hours": "Su 09:00-05:00"}, "geometry": {"type": "Point", "coordinates": [-83.528294, 31.459651]}},
{"type": "Feature", "id": "6WxKfLFOZz8MNhgaGbxnWcqEjVg=", "properties": {"ref": "371", "@spider": "ollies_bargain_outlet", "addr:full": "50 W Honeycreek Parkway", "addr:city": "Terre Haute", "addr:state": "IN", "addr:postcode": "47802", "addr:country": "US", "phone": "(812) 917-3881", "website": "https://www.ollies.us/locations/50-w-honeycreek-parkway-terre-haute-in/", "opening_hours": "Su 09:00-05:00"}, "geometry": {"type": "Point", "coordinates": [-87.418382, 39.424322]}},
{"type": "Feature", "id": "6FvhEqqk2b19Ec8PSozuNsqInM0=", "properties": {"ref": "437", "@spider": "ollies_bargain_outlet", "addr:full": "1200 N St Augustine Road", "addr:city": "Valdosta", "addr:state": "GA", "addr:postcode": "31602", "addr:country": "US", "phone": "(229) 469-5346", "website": "https://www.ollies.us/locations/1200-n-st-augustine-road-valdosta-ga/", "opening_hours": "Su 09:00-05:00"}, "geometry": {"type": "Point", "coordinates": [-83.32599013, 30.8406385]}},
{"type": "Feature", "id": "CBgvHgtd00E6HCJ_q4DQPHKIX9I=", "properties": {"ref": "121", "@spider": "ollies_bargain_outlet", "addr:full": "9070 Dixie Hwy", "addr:city": "Louisville", "addr:state": "KY", "addr:postcode": "40258", "addr:country": "US", "phone": "(502) 935-6868", "website": "https://www.ollies.us/locations/9070-dixie-hwy-louisville-ky/", "opening_hours": "Su 09:00-05:00"}, "geometry": {"type": "Point", "coordinates": [-85.8547537, 38.1256767]}},
{"type": "Feature", "id": "poGnn3W_5gleTLvPDD0pXKNyOHs=", "properties": {"ref": "216", "@spider": "ollies_bargain_outlet", "addr:full": "1530 Eatonton Road", "addr:city": "Madison", "addr:state": "GA", "addr:postcode": "30650", "addr:country": "US", "phone": "(706) 752-0352", "website": "https://www.ollies.us/locations/1530-Eatonton-Road-Madison-GA/", "opening_hours": "Su 09:00-05:00"}, "geometry": {"type": "Point", "coordinates": [-83.4774436, 33.5713017]}},
{"type": "Feature", "id": "23vkWyFhN8ZA7GKE6Yh4grM75Ko=", "properties": {"ref": "201", "@spider": "ollies_bargain_outlet", "addr:full": "5613 Preston Highway", "addr:city": "Louisville", "addr:state": "KY", "addr:postcode": "40219", "addr:country": "US", "phone": "(502) 969-6563", "website": "https://www.ollies.us/locations/5613-preston-highway-louisville-ky/", "opening_hours": "Su 09:00-05:00"}, "geometry": {"type": "Point", "coordinates": [-85.7033664, 38.1680576]}},
{"type": "Feature", "id": "W4KuOviPhpsVZBwa_VtCc3O3EeE=", "properties": {"ref": "211", "@spider": "ollies_bargain_outlet", "addr:full": "2359 Windy Hill Road SE Suite 400", "addr:city": "Marietta", "addr:state": "GA", "addr:postcode": "30067", "addr:country": "US", "phone": "(770) 933-5950", "website": "https://www.ollies.us/locations/2359-windy-hill-road-se-suite-400-marietta-ga/", "opening_hours": "Su 09:00-05:00"}, "geometry": {"type": "Point", "coordinates": [-84.484877, 33.9045639]}},
{"type": "Feature", "id": "RhdmNkWapdlQKWUGY0gdfumZ1Mk=", "properties": {"ref": "324", "@spider": "ollies_bargain_outlet", "addr:full": "1424 N Expressway", "addr:city": "Griffin", "addr:state": "GA", "addr:postcode": "30223", "addr:country": "US", "phone": "(678) 688-8622", "website": "https://www.ollies.us/locations/1424-n-expressway-griffin-ga/", "opening_hours": "Su 09:00-05:00"}, "geometry": {"type": "Point", "coordinates": [-84.288026, 33.270253]}},
{"type": "Feature", "id": "sHEJRT0slH4CzqUh1l37Xu6ta9E=", "properties": {"ref": "215", "@spider": "ollies_bargain_outlet", "addr:full": "1750 Marietta Highway, Suite 105", "addr:city": "Canton", "addr:state": "GA", "addr:postcode": "30114", "addr:country": "US", "phone": "(770) 213-3263", "website": "https://www.ollies.us/locations/1750-marietta-highway-suite-105-canton-ga/", "opening_hours": "Su 09:00-05:00"}, "geometry": {"type": "Point", "coordinates": [-84.5055301, 34.2226056]}},
{"type": "Feature", "id": "eRa7sePKqMwNzmm0C7cvfYZzr2k=", "properties": {"ref": "239", "@spider": "ollies_bargain_outlet", "addr:full": "264 Nelson Street", "addr:city": "Cartersville", "addr:state": "GA", "addr:postcode": "30120", "addr:country": "US", "phone": "(770) 607-3942", "website": "https://www.ollies.us/locations/264-nelson-street-cartersville-ga/", "opening_hours": "Su 09:00-05:00"}, "geometry": {"type": "Point", "coordinates": [-84.788347, 34.1721701]}},
{"type": "Feature", "id": "xc5FjaE8UiciBnJ2SReRMQZ-byI=", "properties": {"ref": "375", "@spider": "ollies_bargain_outlet", "addr:full": "1205 North Glenwood Avenue, Suite 1", "addr:city": "Dalton", "addr:state": "GA", "addr:postcode": "30721", "addr:country": "US", "phone": "(706) 671-1032", "website": "https://www.ollies.us/locations/1205-north-glenwood-avenue-suite-1-dalton-ga/", "opening_hours": "Su 09:00-05:00"}, "geometry": {"type": "Point", "coordinates": [-84.963661, 34.791661]}},
{"type": "Feature", "id": "HJTMvqJFYUC0iwPiI_WsAinSC3c=", "properties": {"ref": "177", "@spider": "ollies_bargain_outlet", "addr:full": "5590 Mableton Parkway SW", "addr:city": "Mableton", "addr:state": "GA", "addr:postcode": "30126", "addr:country": "US", "phone": "(770) 819-6783", "website": "https://www.ollies.us/locations/5590-mableton-parkway-sw-mableton-ga/", "opening_hours": "Su 09:00-05:00"}, "geometry": {"type": "Point", "coordinates": [-84.575963, 33.8174893]}},
{"type": "Feature", "id": "dxeKTg0A9lJuz2jZr9wCtG6qyfU=", "properties": {"ref": "181", "@spider": "ollies_bargain_outlet", "addr:full": "939 Glynn St N Suite A", "addr:city": "Fayetteville", "addr:state": "GA", "addr:postcode": "30214", "addr:country": "US", "phone": "(770) 716-9041", "website": "https://www.ollies.us/locations/939-glynn-st-n-suite-a-fayetteville-ga/", "opening_hours": "Su 09:00-05:00"}, "geometry": {"type": "Point", "coordinates": [-84.4466988, 33.4682143]}},
{"type": "Feature", "id": "L3rB7tO0caXvEYDmRpu_OzVQSCU=", "properties": {"ref": "247", "@spider": "ollies_bargain_outlet", "addr:full": "412 W Jackson Street Suite A", "addr:city": "Cookeville", "addr:state": "TN", "addr:postcode": "38501", "addr:country": "US", "phone": "(931) 400-0404", "website": "https://www.ollies.us/locations/412-w-jackson-street-suite-a-cookeville-tn/", "opening_hours": "Su 09:00-05:00"}, "geometry": {"type": "Point", "coordinates": [-85.51779, 36.1541]}},
{"type": "Feature", "id": "m5-Kfy0UjTsVFlaxjyJINDIH9p0=", "properties": {"ref": "145", "@spider": "ollies_bargain_outlet", "addr:full": "151 E Lincoln Trail Blvd", "addr:city": "Radcliff", "addr:state": "KY", "addr:postcode": "40160", "addr:country": "US", "phone": "(270) 351-4114", "website": "https://www.ollies.us/locations/151-e-lincoln-trail-blvd-radcliff-ky/", "opening_hours": "Su 09:00-05:00"}, "geometry": {"type": "Point", "coordinates": [-85.9365083, 37.842551]}},
{"type": "Feature", "id": "FlYyqryU8dyVZWNucvY1lHZcgKo=", "properties": {"ref": "202", "@spider": "ollies_bargain_outlet", "addr:full": "3640 Mundy Mill Road, Suite 160", "addr:city": "Gainesville", "addr:state": "GA", "addr:postcode": "30504", "addr:country": "US", "phone": "(678) 971-1714", "website": "https://www.ollies.us/locations/3640-mundy-mill-road-suite-160-gainesville-ga/", "opening_hours": "Su 09:00-05:00"}, "geometry": {"type": "Point", "coordinates": [-83.8668754, 34.229532]}},
{"type": "Feature", "id": "R1uTA0EVOEB0w5WKJPwcgt-7bnU=", "properties": {"ref": "398", "@spider": "ollies_bargain_outlet", "addr:full": "213 NL Rogers Wells Blvd", "addr:city": "Glasgow", "addr:state": "KY", "addr:postcode": "42141", "addr:country": "US", "phone": "(270) 261-0230", "website": "https://www.ollies.us/locations/213-nl-rogers-wells-blvd-glasgow-ky/", "opening_hours": "Su 09:00-05:00"}, "geometry": {"type": "Point", "coordinates": [-85.923491, 37.005046]}},
{"type": "Feature", "id": "POMEywD7lqsIefJbhQKi7X2ETHY=", "properties": {"ref": "380", "@spider": "ollies_bargain_outlet", "addr:full": "2603 E Pinetree Blvd", "addr:city": "Thomasville", "addr:state": "GA", "addr:postcode": "31792", "addr:country": "US", "phone": "(229) 516-8341", "website": "https://www.ollies.us/locations/2603-e-pinetree-blvd-thomasville-ga/", "opening_hours": "Su 09:00-05:00"}, "geometry": {"type": "Point", "coordinates": [-83.94993, 30.850481]}},
{"type": "Feature", "id": "3Ftc72aHv6n-l23h1WQrNJE_dcw=", "properties": {"ref": "306", "@spider": "ollies_bargain_outlet", "addr:full": "2835 S. HWY. 27", "addr:city": "Somerset", "addr:state": "KY", "addr:postcode": "42501", "addr:country": "US", "phone": "(606) 676-0002", "website": "https://www.ollies.us/locations/2835-s-hwy-27-somerset-ky/", "opening_hours": "Su 09:00-05:00"}, "geometry": {"type": "Point", "coordinates": [-84.626973, 37.054595]}},
{"type": "Feature", "id": "Y8wlM94BQbkVmz-T2uiEKIV0ybQ=", "properties": {"ref": "217", "@spider": "ollies_bargain_outlet", "addr:full": "2101C Veterans Blvd", "addr:city": "Dublin", "addr:state": "GA", "addr:postcode": "31021", "addr:country": "US", "phone": "(478) 272-1841", "website": "https://www.ollies.us/locations/2101c-veterans-blvd-dublin-ga/", "opening_hours": "Su 09:00-05:00"}, "geometry": {"type": "Point", "coordinates": [-82.9524209, 32.5444115]}},
{"type": "Feature", "id": "qtukPuBvzwgQea2OyfenRRAHFYM=", "properties": {"ref": "281", "@spider": "ollies_bargain_outlet", "addr:full": "1524 Big A Road South", "addr:city": "Toccoa", "addr:state": "GA", "addr:postcode": "30577", "addr:country": "US", "phone": "(706) 282-0156", "website": "https://www.ollies.us/locations/1524-big-a-road-south-toccoa-ga/", "opening_hours": "Su 09:00-05:00"}, "geometry": {"type": "Point", "coordinates": [-83.301924, 34.565148]}},
{"type": "Feature", "id": "B5plbJj5RcQrH4yY4Td5u6Q6baY=", "properties": {"ref": "116", "@spider": "ollies_bargain_outlet", "addr:full": "2936 Knoxville Center Drive", "addr:city": "Knoxville", "addr:state": "TN", "addr:postcode": "37924", "addr:country": "US", "phone": "(865) 522-3339", "website": "https://www.ollies.us/locations/2936-knoxville-center-drive-knoxville-tn/", "opening_hours": "Su 09:00-05:00"}, "geometry": {"type": "Point", "coordinates": [-83.8769292, 36.0337287]}},
{"type": "Feature", "id": "OhX30qs4DDSnzw7C1mTK118srvQ=", "properties": {"ref": "433", "@spider": "ollies_bargain_outlet", "addr:full": "1560 Houstonville Road", "addr:city": "Danville", "addr:state": "KY", "addr:postcode": "40422", "addr:country": "US", "phone": "(859) 755-4098", "website": "https://www.ollies.us/locations/1560-houstonville-road-danville-ky/", "opening_hours": "Su 09:00-05:00"}, "geometry": {"type": "Point", "coordinates": [-84.77386, 37.61845]}},
{"type": "Feature", "id": "WZyc1jaYLsHFDk9PuT5zxzci-7g=", "properties": {"ref": "389", "@spider": "ollies_bargain_outlet", "addr:full": "706 E Lewis & Clark Parkway, Unit A", "addr:city": "Clarksville", "addr:state": "IN", "addr:postcode": "47129", "addr:country": "US", "phone": "(812) 725-7017", "website": "https://www.ollies.us/locations/706-e-lewis-clark-parkway-unit-a-clarksville-in/", "opening_hours": "Su 09:00-05:00"}, "geometry": {"type": "Point", "coordinates": [-85.764421, 38.310284]}},
{"type": "Feature", "id": "mEjLRfjYks3PSzOrFe8Qjffmjss=", "properties": {"ref": "115", "@spider": "ollies_bargain_outlet", "addr:full": "560 S Foothills Plaza Dr", "addr:city": "Maryville", "addr:state": "TN", "addr:postcode": "37801", "addr:country": "US", "phone": "(865) 982-8444", "website": "https://www.ollies.us/locations/560-s-foothills-plaza-dr-maryville-tn/", "opening_hours": "Su 09:00-05:00"}, "geometry": {"type": "Point", "coordinates": [-83.9909249, 35.7394195]}},
{"type": "Feature", "id": "E8SvnpgfZ4Kyy3QAaR4o86AmB2Q=", "properties": {"ref": "204", "@spider": "ollies_bargain_outlet", "addr:full": "4050 Lexington Road, Suite A", "addr:city": "Athens", "addr:state": "GA", "addr:postcode": "30605", "addr:country": "US", "phone": "(706) 549-3710", "website": "https://www.ollies.us/locations/4050-lexington-road-suite-a-athens-ga/", "opening_hours": "Su 09:00-05:00"}, "geometry": {"type": "Point", "coordinates": [-83.3215641, 33.9381993]}},
{"type": "Feature", "id": "ZctxRWS2fAg5XpX8p7KQ9k_9Qis=", "properties": {"ref": "444", "@spider": "ollies_bargain_outlet", "addr:full": "8507 Kingston Pike", "addr:city": "Knoxville", "addr:state": "TN", "addr:postcode": "37919", "addr:country": "US", "phone": "(865) 895-4456", "website": "https://www.ollies.us/locations/8507-kingston-pike-knoxville-tn/", "opening_hours": "Mo-Sa 09:00-09:00; Su 10:00-07:00"}, "geometry": {"type": "Point", "coordinates": [-84.06332, 35.92332]}},
{"type": "Feature", "id": "dOwJf3VhelVYV8SM61ZL4R6P7qU=", "properties": {"ref": "189", "@spider": "ollies_bargain_outlet", "addr:full": "9236 Westport Road Suite A", "addr:city": "Louisville", "addr:state": "KY", "addr:postcode": "40242", "addr:country": "US", "phone": "(502) 425-1069", "website": "https://www.ollies.us/locations/9236-westport-road-suite-a-louisville-ky/", "opening_hours": "Su 09:00-05:00"}, "geometry": {"type": "Point", "coordinates": [-85.5802242, 38.2851508]}},
{"type": "Feature", "id": "Sf4gnOUziOt2xHQer1wJ4_iSYJs=", "properties": {"ref": "383", "@spider": "ollies_bargain_outlet", "addr:full": "1503 E. Tipton Street, IN", "addr:city": "Seymour", "addr:state": "IN", "addr:postcode": "47274", "addr:country": "US", "phone": "(812) 405-2463", "website": "https://www.ollies.us/locations/1503-e-tipton-street-in-seymour-in/", "opening_hours": "Su 09:00-05:00"}, "geometry": {"type": "Point", "coordinates": [-85.866868, 38.958494]}},
{"type": "Feature", "id": "VvbijGpSPOlnew2LqDQqplzdQeM=", "properties": {"ref": "241", "@spider": "ollies_bargain_outlet", "addr:full": "322 West Main Street", "addr:city": "Sevierville", "addr:state": "TN", "addr:postcode": "37862", "addr:country": "US", "phone": "(865) 774-6451", "website": "https://www.ollies.us/locations/322-west-main-street-sevierville-tn/", "opening_hours": "Su 09:00-05:00"}, "geometry": {"type": "Point", "coordinates": [-83.5727626, 35.8707475]}},
{"type": "Feature", "id": "iPXM7ZpkE0gRtqzROy7cvc7X67k=", "properties": {"ref": "310", "@spider": "ollies_bargain_outlet", "addr:full": "437 Town Center Drive", "addr:city": "Mooresville", "addr:state": "IN", "addr:postcode": "46158", "addr:country": "US", "phone": "(317) 584-3002", "website": "https://www.ollies.us/locations/437-town-center-drive-mooresville-in/", "opening_hours": "Su 09:00-05:00"}, "geometry": {"type": "Point", "coordinates": [-86.351969, 39.618324]}},
{"type": "Feature", "id": "zrJIevWw1OCZMogYwDLb49JbXH4=", "properties": {"ref": "366", "@spider": "ollies_bargain_outlet", "addr:full": "14892 East Cumberland Gap Parkway", "addr:city": "Corbin", "addr:state": "KY", "addr:postcode": "40701", "addr:country": "US", "phone": "(606) 280-7124", "website": "https://www.ollies.us/locations/14892-east-cumberland-gap-parkway-corbin-ky/", "opening_hours": "Su 09:00-05:00"}, "geometry": {"type": "Point", "coordinates": [-84.072696, 36.961396]}},
{"type": "Feature", "id": "yedeRnJH_RiHDa_Fy4HEkdnFLYs=", "properties": {"ref": "393", "@spider": "ollies_bargain_outlet", "addr:full": "202 Limestone Drive", "addr:city": "Frankfort", "addr:state": "KY", "addr:postcode": "40601", "addr:country": "US", "phone": "(502) 699-2802", "website": "https://www.ollies.us/locations/202-limestone-drive-frankfort-ky/", "opening_hours": "Su 09:00-05:00"}, "geometry": {"type": "Point", "coordinates": [-84.895998, 38.169496]}},
{"type": "Feature", "id": "Zn3asKvqhkvUsUxpeAWxxLJaPls=", "properties": {"ref": "235", "@spider": "ollies_bargain_outlet", "addr:full": "955 South Main St", "addr:city": "Nicholasville", "addr:state": "KY", "addr:postcode": "40356", "addr:country": "US", "phone": "(859) 887-0651", "website": "https://www.ollies.us/locations/955-south-main-st-nicholasville-ky/", "opening_hours": "Su 09:00-05:00"}, "geometry": {"type": "Point", "coordinates": [-84.5787827, 37.8659593]}},
{"type": "Feature", "id": "YrPECc2ebGZIwmF3VEp5PgLMefE=", "properties": {"ref": "186", "@spider": "ollies_bargain_outlet", "addr:full": "2103B Memorial Drive", "addr:city": "Waycross", "addr:state": "GA", "addr:postcode": "31501", "addr:country": "US", "phone": "(912) 283-4414", "website": "https://www.ollies.us/locations/2103b-memorial-drive-waycross-ga/", "opening_hours": "Su 09:00-05:00"}, "geometry": {"type": "Point", "coordinates": [-82.3283189, 31.2029791]}},
{"type": "Feature", "id": "cjln__TKdfhuKGv3Ct6lRdQAF7I=", "properties": {"ref": "253", "@spider": "ollies_bargain_outlet", "addr:full": "12110 US-19", "addr:city": "Hudson", "addr:state": "FL", "addr:postcode": "34667", "addr:country": "US", "phone": "(727) 697-0035", "website": "https://www.ollies.us/locations/12110-us-19-hudson-fl/", "opening_hours": "Su 09:00-05:00"}, "geometry": {"type": "Point", "coordinates": [-82.697986, 28.332942]}},
{"type": "Feature", "id": "wCUSXNBJFVDwLTHwwXr8yCn1ilA=", "properties": {"ref": "249", "@spider": "ollies_bargain_outlet", "addr:full": "4500 S Suncoast Blvd", "addr:city": "Homosassa", "addr:state": "FL", "addr:postcode": "34446", "addr:country": "US", "phone": "(352) 621-0556", "website": "https://www.ollies.us/locations/4500-s-suncoast-blvd-homosassa-fl/", "opening_hours": "Su 09:00-05:00"}, "geometry": {"type": "Point", "coordinates": [-82.577262, 28.795958]}},
{"type": "Feature", "id": "3CC8Jl-MWGRqRVoH1uuSm9PWZs8=", "properties": {"ref": "146", "@spider": "ollies_bargain_outlet", "addr:full": "690 Eastern Bypass", "addr:city": "Richmond", "addr:state": "KY", "addr:postcode": "40475", "addr:country": "US", "phone": "(859) 623-5300", "website": "https://www.ollies.us/locations/690-eastern-bypass-richmond-ky/", "opening_hours": "Su 09:00-05:00"}, "geometry": {"type": "Point", "coordinates": [-84.3068331, 37.7342147]}},
{"type": "Feature", "id": "e-cuqcmo_V4azxwFQT-dE1geqe8=", "properties": {"ref": "176", "@spider": "ollies_bargain_outlet", "addr:full": "5249 East Thompson Road", "addr:city": "Indianapolis", "addr:state": "IN", "addr:postcode": "46237", "addr:country": "US", "phone": "(317) 786-1863", "website": "https://www.ollies.us/locations/5249-east-thompson-road-indianapolis-in/", "opening_hours": "Su 09:00-05:00"}, "geometry": {"type": "Point", "coordinates": [-86.0813312, 39.69458]}},
{"type": "Feature", "id": "QOkGLpQXJN4Y_d-BEVjg6M5qdxY=", "properties": {"ref": "273", "@spider": "ollies_bargain_outlet", "addr:full": "2340 N Main Street", "addr:city": "Gainesville", "addr:state": "FL", "addr:postcode": "32609", "addr:country": "US", "phone": "(352) 260-6738", "website": "https://www.ollies.us/locations/2340-n-main-street-gainesville-fl/", "opening_hours": "Su 09:00-05:00"}, "geometry": {"type": "Point", "coordinates": [-82.323016, 29.674529]}},
{"type": "Feature", "id": "gtPaocDLhqSNlvfBwtKja55xydI=", "properties": {"ref": "256", "@spider": "ollies_bargain_outlet", "addr:full": "2909 Richmond Road", "addr:city": "Lexington", "addr:state": "KY", "addr:postcode": "40509", "addr:country": "US", "phone": "(859) 266-3333", "website": "https://www.ollies.us/locations/2909-richmond-road-lexington-ky/", "opening_hours": "Su 09:00-05:00"}, "geometry": {"type": "Point", "coordinates": [-84.447452, 38.004645]}},
{"type": "Feature", "id": "KAF2ewpAk2aiIxnLQCrofZmjUzk=", "properties": {"ref": "148", "@spider": "ollies_bargain_outlet", "addr:full": "3420 Clemson Blvd", "addr:city": "Anderson", "addr:state": "SC", "addr:postcode": "29621", "addr:country": "US", "phone": "(864) 224-5000", "website": "https://www.ollies.us/locations/3420-clemson-blvd-anderson-sc/", "opening_hours": "Su 09:00-05:00"}, "geometry": {"type": "Point", "coordinates": [-82.6696304, 34.5480133]}},
{"type": "Feature", "id": "E7vJmup_iWSxmfUT4nlnxLZ3eHE=", "properties": {"ref": "184", "@spider": "ollies_bargain_outlet", "addr:full": "2635 Maple Point Drive", "addr:city": "Lafayette", "addr:state": "IN", "addr:postcode": "47905", "addr:country": "US", "phone": "(765) 607-2159", "website": "https://www.ollies.us/locations/2635-maple-point-drive-lafayette-in/", "opening_hours": "Su 09:00-05:00"}, "geometry": {"type": "Point", "coordinates": [-86.846194, 40.388278]}},
{"type": "Feature", "id": "kHS3eRWRi9zGe39GLVNMxYjA-5I=", "properties": {"ref": "305", "@spider": "ollies_bargain_outlet", "addr:full": "6095 9th Avenue North", "addr:city": "St. Petersburg", "addr:state": "FL", "addr:postcode": "33710", "addr:country": "US", "phone": "(727) 290-9508", "website": "https://www.ollies.us/locations/6095-9th-avenue-north-st-petersburg-fl/", "opening_hours": "Su 09:00-05:00"}, "geometry": {"type": "Point", "coordinates": [-82.718374, 27.782073]}},
{"type": "Feature", "id": "MonfUo7YY-d4Lu6SvgfZz1qIJyM=", "properties": {"ref": "424", "@spider": "ollies_bargain_outlet", "addr:full": "2310 E. 53rd Street, Indpls", "addr:city": "Indianapolis", "addr:state": "IN", "addr:postcode": "46220", "addr:country": "US", "phone": "(317) 489-6147", "website": "https://www.ollies.us/locations/2310-e-53rd-street-indpls-indianapolis-in/", "opening_hours": "Su 09:00-05:00"}, "geometry": {"type": "Point", "coordinates": [-86.1237, 39.84977]}},
{"type": "Feature", "id": "VraFXc4NW9QkN79YJGZQKIbYIns=", "properties": {"ref": "149", "@spider": "ollies_bargain_outlet", "addr:full": "1948 W Morris Blvd", "addr:city": "Morristown", "addr:state": "TN", "addr:postcode": "37813", "addr:country": "US", "phone": "(423) 587-0400", "website": "https://www.ollies.us/locations/1948-w-morris-blvd-morristown-tn/", "opening_hours": "Su 09:00-05:00"}, "geometry": {"type": "Point", "coordinates": [-83.2707527, 36.2195149]}},
{"type": "Feature", "id": "PO9GsDqnjy-1ljkinGcF2zrQd3Y=", "properties": {"ref": "261", "@spider": "ollies_bargain_outlet", "addr:full": "7095 W Waters Avenue", "addr:city": "Tampa", "addr:state": "FL", "addr:postcode": "33634", "addr:country": "US", "phone": "(813) 570-6857", "website": "https://www.ollies.us/locations/7095-w-waters-avenue-tampa-fl/", "opening_hours": "Su 09:00-05:00"}, "geometry": {"type": "Point", "coordinates": [-82.560548, 28.028675]}},
{"type": "Feature", "id": "TZ5OLPSH8ddlEd7m_DDOGp-sp_g=", "properties": {"ref": "154", "@spider": "ollies_bargain_outlet", "addr:full": "13670 North Meridian Street", "addr:city": "Carmel", "addr:state": "IN", "addr:postcode": "46032", "addr:country": "US", "phone": "(317) 818-1004", "website": "https://www.ollies.us/locations/13670-north-meridian-street-carmel-in/", "opening_hours": "Su 09:00-05:00"}, "geometry": {"type": "Point", "coordinates": [-86.1396106, 39.9874721]}},
{"type": "Feature", "id": "E2mz19cAH-ta1eFmGdKVtycw-GM=", "properties": {"ref": "361", "@spider": "ollies_bargain_outlet", "addr:full": "5155 Calhoun Memorial Highway", "addr:city": "Easley", "addr:state": "SC", "addr:postcode": "29640", "addr:country": "US", "phone": "(864) 644-8590", "website": "https://www.ollies.us/locations/5155-calhoun-memorial-highway-easley-sc/", "opening_hours": "Su 09:00-05:00"}, "geometry": {"type": "Point", "coordinates": [-82.557511, 34.822847]}},
{"type": "Feature", "id": "v9dPHdtgI-nFc82moEinn1SOXTs=", "properties": {"ref": "233", "@spider": "ollies_bargain_outlet", "addr:full": "3101 SW 34th Avenue", "addr:city": "Ocala", "addr:state": "FL", "addr:postcode": "34474", "addr:country": "US", "phone": "(352) 854-3305", "website": "https://www.ollies.us/locations/3101-sw-34th-avenue-ocala-fl/", "opening_hours": "Su 09:00-05:00"}, "geometry": {"type": "Point", "coordinates": [-82.1766594, 29.1561208]}},
{"type": "Feature", "id": "P5tZOKPseSghXirOMgtt344BXIU=", "properties": {"ref": "267", "@spider": "ollies_bargain_outlet", "addr:full": "5201 33rd Street East", "addr:city": "Bradenton", "addr:state": "FL", "addr:postcode": "34203", "addr:country": "US", "phone": "(941) 727-2522", "website": "https://www.ollies.us/locations/5201-33rd-street-east-bradenton-fl/", "opening_hours": "Su 09:00-05:00"}, "geometry": {"type": "Point", "coordinates": [-82.52047, 27.44882]}},
{"type": "Feature", "id": "Dfa-qmDJlPjp1F_aKafpreJqkGM=", "properties": {"ref": "357", "@spider": "ollies_bargain_outlet", "addr:full": "3424 Wrightsboro Road", "addr:city": "Augusta", "addr:state": "GA", "addr:postcode": "30909", "addr:country": "US", "phone": "(706) 305-3637", "website": "https://www.ollies.us/locations/3424-wrightsboro-road-augusta-ga/", "opening_hours": "Su 09:00-05:00"}, "geometry": {"type": "Point", "coordinates": [-82.077316, 33.466557]}},
{"type": "Feature", "id": "jEMerqbfbbT9evFWWcv4T2QlGv8=", "properties": {"ref": "161", "@spider": "ollies_bargain_outlet", "addr:full": "2100 Wade Hampton Boulevard", "addr:city": "Greenville", "addr:state": "SC", "addr:postcode": "29615", "addr:country": "US", "phone": "(864) 609-1998", "website": "https://www.ollies.us/locations/2100-wade-hampton-boulevard-greenville-sc/", "opening_hours": "Su 09:00-05:00"}, "geometry": {"type": "Point", "coordinates": [-82.3525683, 34.8851956]}},
{"type": "Feature", "id": "DuPJ9Ux0EcG_4CiKQ8yjI55RgyE=", "properties": {"ref": "138", "@spider": "ollies_bargain_outlet", "addr:full": "1360 South Carolina 72", "addr:city": "Greenwood", "addr:state": "SC", "addr:postcode": "29649", "addr:country": "US", "phone": "(864) 223-2551", "website": "https://www.ollies.us/locations/1360-south-carolina-72-greenwood-sc/", "opening_hours": "Su 09:00-05:00"}, "geometry": {"type": "Point", "coordinates": [-82.1440521, 34.2099319]}},
{"type": "Feature", "id": "o4022gU0DxTMPJZRNiLy5CHC5jA=", "properties": {"ref": "238", "@spider": "ollies_bargain_outlet", "addr:full": "5935 Gall Boulevard", "addr:city": "Zephyrhills", "addr:state": "FL", "addr:postcode": "33542", "addr:country": "US", "phone": "(813) 715-1395", "website": "https://www.ollies.us/locations/5935-gall-boulevard-zephyrhills-fl/", "opening_hours": "Su 09:00-05:00"}, "geometry": {"type": "Point", "coordinates": [-82.1886248, 28.2438805]}},
{"type": "Feature", "id": "Xq1oywv8_gSh24xLn3AJnig2fKQ=", "properties": {"ref": "275", "@spider": "ollies_bargain_outlet", "addr:full": "4092 Cattlemen Road", "addr:city": "Sarasota", "addr:state": "FL", "addr:postcode": "34233", "addr:country": "US", "phone": "(941) 554-8486", "website": "https://www.ollies.us/locations/4092-cattlemen-road-sarasota-fl/", "opening_hours": "Su 09:00-05:00"}, "geometry": {"type": "Point", "coordinates": [-82.452927, 27.295655]}},
{"type": "Feature", "id": "uCxRGvHjjD1ZpEoDoY0iEtP9zAg=", "properties": {"ref": "203", "@spider": "ollies_bargain_outlet", "addr:full": "217 Indian Mound Drive", "addr:city": "Mt. Sterling", "addr:state": "KY", "addr:postcode": "40353", "addr:country": "US", "phone": "(859) 498-7506", "website": "https://www.ollies.us/locations/217-indian-mound-drive-mt-sterling-ky/", "opening_hours": "Su 09:00-05:00"}, "geometry": {"type": "Point", "coordinates": [-83.9489401, 38.0738557]}},
{"type": "Feature", "id": "Q4uSpLpsFZi8lGHMSekgrM32qBM=", "properties": {"ref": "258", "@spider": "ollies_bargain_outlet", "addr:full": "5 College Plaza", "addr:city": "Statesboro", "addr:state": "GA", "addr:postcode": "30458", "addr:country": "US", "phone": "(912) 489-0570", "website": "https://www.ollies.us/locations/5-college-plaza-statesboro-ga/", "opening_hours": "Su 09:00-05:00"}, "geometry": {"type": "Point", "coordinates": [-81.779909, 32.434476]}},
{"type": "Feature", "id": "rm4LYWr53RDHseT-1mQDCP7UbxM=", "properties": {"ref": "94", "@spider": "ollies_bargain_outlet", "addr:full": "7864 Connector Drive", "addr:city": "Florence", "addr:state": "KY", "addr:postcode": "41042", "addr:country": "US", "phone": "(859) 746-1900", "website": "https://www.ollies.us/locations/7864-connector-drive-florence-ky/", "opening_hours": "Su 09:00-05:00"}, "geometry": {"type": "Point", "coordinates": [-84.6550126, 38.9900734]}},
{"type": "Feature", "id": "mH-R2VmBu8eJh3Y-406bdZrNfyg=", "properties": {"ref": "259", "@spider": "ollies_bargain_outlet", "addr:full": "2751 E Andrew Johnson Hwy", "addr:city": "Greeneville", "addr:state": "TN", "addr:postcode": "37745", "addr:country": "US", "phone": "(423) 525-4528", "website": "https://www.ollies.us/locations/2751-e-andrew-johnson-hwy-greeneville-tn/", "opening_hours": "Su 09:00-05:00"}, "geometry": {"type": "Point", "coordinates": [-82.777407, 36.182642]}},
{"type": "Feature", "id": "X4Jg3WCnFzdg5MEH0M8PwtIRzAo=", "properties": {"ref": "274", "@spider": "ollies_bargain_outlet", "addr:full": "868 Blanding Blvd., Suite 101", "addr:city": "Orange Park", "addr:state": "FL", "addr:postcode": "32065", "addr:country": "US", "phone": "(904) 272-7570", "website": "https://www.ollies.us/locations/868-blanding-blvd-suite-101-orange-park-fl/", "opening_hours": "Su 09:00-05:00"}, "geometry": {"type": "Point", "coordinates": [-81.765788, 30.14336]}},
{"type": "Feature", "id": "laMxwoN2mWldbPqQvkB7IfVRVvE=", "properties": {"ref": "257", "@spider": "ollies_bargain_outlet", "addr:full": "5810-1 Normandy Blvd.", "addr:city": "Jacksonville", "addr:state": "FL", "addr:postcode": "32205", "addr:country": "US", "phone": "(904) 379-9073", "website": "https://www.ollies.us/locations/5810-1-normandy-blvd-jacksonville-fl/", "opening_hours": "Su 09:00-05:00"}, "geometry": {"type": "Point", "coordinates": [-81.748856, 30.305365]}},
{"type": "Feature", "id": "x4UHH6KJujEofxIrRYqCa7dAqgc=", "properties": {"ref": "445", "@spider": "ollies_bargain_outlet", "addr:full": "1560 US 41 Bypass", "addr:city": "Venice", "addr:state": "FL", "addr:postcode": "34293", "addr:country": "US", "phone": "(941) 202-1616", "website": "https://www.ollies.us/locations/1560-us-41-bypass-venice-fl/"}, "geometry": {"type": "Point", "coordinates": [-82.42679716, 27.0783991]}},
{"type": "Feature", "id": "IZRmTvfP6D3OH2dIqILYZkC7RCA=", "properties": {"ref": "160", "@spider": "ollies_bargain_outlet", "addr:full": "601 South Reed Road", "addr:city": "Kokomo", "addr:state": "IN", "addr:postcode": "46901", "addr:country": "US", "phone": "(765) 457-3919", "website": "https://www.ollies.us/locations/601-south-reed-road-kokomo-in/", "opening_hours": "Su 09:00-05:00"}, "geometry": {"type": "Point", "coordinates": [-86.1077955, 40.4802884]}},
{"type": "Feature", "id": "a7byz7JVDuVrWgntdYHee3wWM54=", "properties": {"ref": "155", "@spider": "ollies_bargain_outlet", "addr:full": "1634 South Scatterfield Road", "addr:city": "Anderson", "addr:state": "IN", "addr:postcode": "46016", "addr:country": "US", "phone": "(765) 641-2649", "website": "https://www.ollies.us/locations/1634-south-scatterfield-road-anderson-in/", "opening_hours": "Su 09:00-05:00"}, "geometry": {"type": "Point", "coordinates": [-85.6526255, 40.1002612]}},
{"type": "Feature", "id": "BaxpMZyjJS0ubjxPlwVfPpp5WLc=", "properties": {"ref": "436", "@spider": "ollies_bargain_outlet", "addr:full": "1601 Highway 40 E", "addr:city": "Kingsland", "addr:state": "GA", "addr:postcode": "31548", "addr:country": "US", "phone": "(912) 439-5011", "website": "https://www.ollies.us/locations/1601-highway-40-e-kingsland-ga/", "opening_hours": "Su 09:00-05:00"}, "geometry": {"type": "Point", "coordinates": [-81.6359, 30.78507]}},
{"type": "Feature", "id": "f3Ep4XSqBQsoSJH2xv6uPVv0qi4=", "properties": {"ref": "232", "@spider": "ollies_bargain_outlet", "addr:full": "1103 W North Blvd", "addr:city": "Leesburg", "addr:state": "FL", "addr:postcode": "34748", "addr:country": "US", "phone": "(352) 435-0067", "website": "https://www.ollies.us/locations/1103-w-north-blvd-leesburg-fl/", "opening_hours": "Su 09:00-05:00"}, "geometry": {"type": "Point", "coordinates": [-81.8818682, 28.8206367]}},
{"type": "Feature", "id": "Kw33mzlQ-GBGVUO5ktVF-DYkYAg=", "properties": {"ref": "128", "@spider": "ollies_bargain_outlet", "addr:full": "5131 Glencrossing Way", "addr:city": "Cincinnati", "addr:state": "OH", "addr:postcode": "45238", "addr:country": "US", "phone": "(513) 451-2400", "website": "https://www.ollies.us/locations/5131-glencrossing-way-cincinnati-oh/", "opening_hours": "Su 09:00-05:00"}, "geometry": {"type": "Point", "coordinates": [-84.6173375, 39.1303009]}},
{"type": "Feature", "id": "YnxkVPO1Fqk4AIIw66Yl1jK96qY=", "properties": {"ref": "196", "@spider": "ollies_bargain_outlet", "addr:full": "103 W. General Screven Way", "addr:city": "Hinesville", "addr:state": "GA", "addr:postcode": "31313", "addr:country": "US", "phone": "(912) 369-0106", "website": "https://www.ollies.us/locations/103-w-general-screven-way-hinesville-ga/", "opening_hours": "Su 09:00-05:00"}, "geometry": {"type": "Point", "coordinates": [-81.5996225, 31.840021]}},
{"type": "Feature", "id": "T3T0_jDMcCD_VrekLNsoe5ArwyQ=", "properties": {"ref": "254", "@spider": "ollies_bargain_outlet", "addr:full": "400 North State Rd. 19", "addr:city": "Palatka", "addr:state": "FL", "addr:postcode": "32177", "addr:country": "US", "phone": "(386) 222-4168", "website": "https://www.ollies.us/locations/400-north-state-rd-19-palatka-fl/", "opening_hours": "Su 09:00-05:00"}, "geometry": {"type": "Point", "coordinates": [-81.672821, 29.654392]}},
{"type": "Feature", "id": "fdKICtN4pECYb3MQqA54yNgDwAE=", "properties": {"ref": "174", "@spider": "ollies_bargain_outlet", "addr:full": "1688 Richland Ave W", "addr:city": "Aiken", "addr:state": "SC", "addr:postcode": "29801", "addr:country": "US", "phone": "(803) 226-0512", "website": "https://www.ollies.us/locations/1688-richland-ave-w-aiken-sc/", "opening_hours": "Su 09:00-05:00"}, "geometry": {"type": "Point", "coordinates": [-81.7437777, 33.5650154]}},
{"type": "Feature", "id": "d96SiUxogMcGtT_8a2wIkPpXZBM=", "properties": {"ref": "337", "@spider": "ollies_bargain_outlet", "addr:full": "1335 East 79th Street", "addr:city": "Merrillville", "addr:state": "IN", "addr:postcode": "46410", "addr:country": "US", "phone": "(219) 472-0883", "website": "https://www.ollies.us/locations/1335-east-79th-street-merrillville-in/", "opening_hours": "Su 09:00-05:00"}, "geometry": {"type": "Point", "coordinates": [-87.320385, 41.473366]}},
{"type": "Feature", "id": "cRP7MWbX_a4uUmdPnYUf0qGlOC8=", "properties": {"ref": "221", "@spider": "ollies_bargain_outlet", "addr:full": "9400 Atlantic Blvd", "addr:city": "Jacksonville", "addr:state": "FL", "addr:postcode": "32225", "addr:country": "US", "phone": "(904) 805-8861", "website": "https://www.ollies.us/locations/9400-atlantic-blvd-jacksonville-fl/", "opening_hours": "Su 09:00-05:00"}, "geometry": {"type": "Point", "coordinates": [-81.5538031, 30.3176514]}},
{"type": "Feature", "id": "uSODE-mmcEANGrXYEi65kl0Jb50=", "properties": {"ref": "80", "@spider": "ollies_bargain_outlet", "addr:full": "2220 Waycross Road", "addr:city": "Cincinnati", "addr:state": "OH", "addr:postcode": "45240", "addr:country": "US", "phone": "(513) 825-2500", "website": "https://www.ollies.us/locations/2220-waycross-road-cincinnati-oh/", "opening_hours": "Su 09:00-05:00"}, "geometry": {"type": "Point", "coordinates": [-84.5609531, 39.2811844]}},
{"type": "Feature", "id": "SUD20fghvW-tXuQJEry3QxAPUlE=", "properties": {"ref": "113", "@spider": "ollies_bargain_outlet", "addr:full": "1450 W O Ezell Blvd", "addr:city": "Spartanburg", "addr:state": "SC", "addr:postcode": "29301", "addr:country": "US", "phone": "(864) 587-5888", "website": "https://www.ollies.us/locations/1450-w-o-ezell-blvd-spartanburg-sc/", "opening_hours": "Su 09:00-05:00"}, "geometry": {"type": "Point", "coordinates": [-81.9796903, 34.9388029]}},
{"type": "Feature", "id": "HSTYLw4HjChc1D6-uuds-ojGlXY=", "properties": {"ref": "132", "@spider": "ollies_bargain_outlet", "addr:full": "7900 Beechmont Ave", "addr:city": "Cincinnati", "addr:state": "OH", "addr:postcode": "45255", "addr:country": "US", "phone": "(513) 388-9700", "website": "https://www.ollies.us/locations/7900-beechmont-ave-cincinnati-oh/", "opening_hours": "Su 09:00-05:00"}, "geometry": {"type": "Point", "coordinates": [-84.3369963, 39.0735746]}},
{"type": "Feature", "id": "esgPY1LILHRVhDjn0tD6-bWzvyM=", "properties": {"ref": "290", "@spider": "ollies_bargain_outlet", "addr:full": "2828-2 S. Bay Street", "addr:city": "Eustis", "addr:state": "FL", "addr:postcode": "32726", "addr:country": "US", "phone": "(352) 602-4599", "website": "https://www.ollies.us/locations/2828-2-s-bay-street-eustis-fl/", "opening_hours": "Su 09:00-05:00"}, "geometry": {"type": "Point", "coordinates": [-81.687334, 28.826432]}},
{"type": "Feature", "id": "MO9h5jY2Bw1bALaaUSN5XVNZKwI=", "properties": {"ref": "295", "@spider": "ollies_bargain_outlet", "addr:full": "4000 US Hwy. 98 N.", "addr:city": "Lakeland", "addr:state": "FL", "addr:postcode": "33809", "addr:country": "US", "phone": "(863) 608-7215", "website": "https://www.ollies.us/locations/4000-us-hwy-98-n-lakeland-fl/", "opening_hours": "Su 09:00-05:00"}, "geometry": {"type": "Point", "coordinates": [-81.975681, 28.093944]}},
{"type": "Feature", "id": "GJvS5y9nSIo8XSm6Pq2hDnaA2XE=", "properties": {"ref": "117", "@spider": "ollies_bargain_outlet", "addr:full": "2380 Highway 74-A", "addr:city": "Forest City", "addr:state": "NC", "addr:postcode": "28043", "addr:country": "US", "phone": "(828) 202-2086", "website": "https://www.ollies.us/locations/2380-highway-74-a-forest-city-nc/", "opening_hours": "Su 09:00-05:00"}, "geometry": {"type": "Point", "coordinates": [-81.8982481, 35.3377728]}},
{"type": "Feature", "id": "Ptl6ZJ02KLF_0DJhcFuThmrLVsM=", "properties": {"ref": "178", "@spider": "ollies_bargain_outlet", "addr:full": "139 Ridgeview Rd SW", "addr:city": "Wise", "addr:state": "VA", "addr:postcode": "24293", "addr:country": "US", "phone": "(276) 679-1476", "website": "https://www.ollies.us/locations/139-ridgeview-rd-sw-wise-va/", "opening_hours": "Su 09:00-05:00"}, "geometry": {"type": "Point", "coordinates": [-82.5978795, 36.9689902]}},
{"type": "Feature", "id": "SMkTuJ1u4NYAQIIwU4KStH2mYug=", "properties": {"ref": "212", "@spider": "ollies_bargain_outlet", "addr:full": "7044 West Colonial Dr", "addr:city": "Orlando", "addr:state": "FL", "addr:postcode": "32818", "addr:country": "US", "phone": "(407) 295-2683", "website": "https://www.ollies.us/locations/7044-west-colonial-dr-orlando-fl/", "opening_hours": "Su 09:00-05:00"}, "geometry": {"type": "Point", "coordinates": [-81.4771442, 28.5519639]}},
{"type": "Feature", "id": "5WinMm7SO3GVkN9Ca1ySdNKBF5Y=", "properties": {"ref": "304", "@spider": "ollies_bargain_outlet", "addr:full": "1212 Palm Coast Pkwy SW", "addr:city": "Palm Coast", "addr:state": "FL", "addr:postcode": "32137", "addr:country": "US", "phone": "(386) 302-0103", "website": "https://www.ollies.us/locations/1212-palm-coast-pkwy-sw-palm-coast-fl/", "opening_hours": "Su 09:00-05:00"}, "geometry": {"type": "Point", "coordinates": [-81.229851, 29.551344]}},
{"type": "Feature", "id": "Q3whMrP4QNVTm6kin1-t2PfqOWU=", "properties": {"ref": "287", "@spider": "ollies_bargain_outlet", "addr:full": "69 \u00bd Pine Lake Ave", "addr:city": "La Porte", "addr:state": "IN", "addr:postcode": "46350", "addr:country": "US", "phone": "(219) 380-5761", "website": "https://www.ollies.us/locations/69-pine-lake-ave-la-porte-in/", "opening_hours": "Su 09:00-05:00"}, "geometry": {"type": "Point", "coordinates": [-86.727542, 41.61538]}},
{"type": "Feature", "id": "lkswn3vGmf8aYz6cBIBrmaG1j3o=", "properties": {"ref": "105", "@spider": "ollies_bargain_outlet", "addr:full": "221 N Springboro Pike", "addr:city": "Dayton", "addr:state": "OH", "addr:postcode": "45449", "addr:country": "US", "phone": "(937) 424-0005", "website": "https://www.ollies.us/locations/221-n-springboro-pike-dayton-oh/", "opening_hours": "Su 09:00-05:00"}, "geometry": {"type": "Point", "coordinates": [-84.2268339, 39.6415494]}},
{"type": "Feature", "id": "k7QrfGMbJvwYgC-BmnaSXisjpU4=", "properties": {"ref": "400", "@spider": "ollies_bargain_outlet", "addr:full": "913 West Union Street", "addr:city": "Morganton", "addr:state": "NC", "addr:postcode": "28655", "addr:country": "US", "phone": "(828) 391-9079", "website": "https://www.ollies.us/locations/913-west-union-street-morganton-nc/", "opening_hours": "Su 09:00-05:00"}, "geometry": {"type": "Point", "coordinates": [-81.711256, 35.734572]}},
{"type": "Feature", "id": "mvLvhs0ecYhkfvIy_JWSqaVXgYQ=", "properties": {"ref": "251", "@spider": "ollies_bargain_outlet", "addr:full": "1020 US Highway 27 S Suite B", "addr:city": "Avon Park", "addr:state": "FL", "addr:postcode": "33825", "addr:country": "US", "phone": "(863) 657-2348", "website": "https://www.ollies.us/locations/1020-us-highway-27-s-suite-b-avon-park-fl/", "opening_hours": "Su 09:00-05:00"}, "geometry": {"type": "Point", "coordinates": [-81.515984, 27.58388]}},
{"type": "Feature", "id": "mDbXBo_gKCqaSJaTPRVzdBFvvnc=", "properties": {"ref": "317", "@spider": "ollies_bargain_outlet", "addr:full": "9375 Ben C. Pratt/6 Mile Cypress Parkway Suite 225", "addr:city": "Fort Myers", "addr:state": "FL", "addr:postcode": "33966", "addr:country": "US", "phone": "(239) 243-8294", "website": "https://www.ollies.us/locations/9375-ben-c-pratt-6-mile-cypress-parkway-suite-225-fort-myers-fl/", "opening_hours": "Su 09:00-05:00"}, "geometry": {"type": "Point", "coordinates": [-81.808717, 26.605888]}},
{"type": "Feature", "id": "O57XMK6tXZ8nFZsprBKd2SplffU=", "properties": {"ref": "188", "@spider": "ollies_bargain_outlet", "addr:full": "300 St. Andrews Road", "addr:city": "Irmo", "addr:state": "SC", "addr:postcode": "29210", "addr:country": "US", "phone": "(803) 227-5392", "website": "https://www.ollies.us/locations/300-st-andrews-road-irmo-sc/", "opening_hours": "Su 09:00-05:00"}, "geometry": {"type": "Point", "coordinates": [-81.143281, 34.043442]}},
{"type": "Feature", "id": "RkRiir07rR5L60eL4TCVad8xFPA=", "properties": {"ref": "190", "@spider": "ollies_bargain_outlet", "addr:full": "1633 Rombach Ave", "addr:city": "Wilmington", "addr:state": "OH", "addr:postcode": "45177", "addr:country": "US", "phone": "(937) 283-2066", "website": "https://www.ollies.us/locations/1633-rombach-ave-wilmington-oh/", "opening_hours": "Su 09:00-05:00"}, "geometry": {"type": "Point", "coordinates": [-83.7997517, 39.4500618]}},
{"type": "Feature", "id": "qr19DI1M8HyY_9v2VdZftuXdVBk=", "properties": {"ref": "387", "@spider": "ollies_bargain_outlet", "addr:full": "8951 Bonita Beach Road SE", "addr:city": "Bonita Springs", "addr:state": "FL", "addr:postcode": "34135", "addr:country": "US", "phone": "(239) 494-1982", "website": "https://www.ollies.us/locations/8951-bonita-beach-road-se-bonita-springs-fl/", "opening_hours": "Su 09:00-05:00"}, "geometry": {"type": "Point", "coordinates": [-81.803545, 26.327109]}},
{"type": "Feature", "id": "7RK_DjN2LUFHpDf39pZq0985sng=", "properties": {"ref": "120", "@spider": "ollies_bargain_outlet", "addr:full": "7503 Garners Ferry Rd", "addr:city": "Columbia", "addr:state": "SC", "addr:postcode": "29209", "addr:country": "US", "phone": "(803) 783-0800", "website": "https://www.ollies.us/locations/7503-garners-ferry-rd-columbia-sc/", "opening_hours": "Su 09:00-05:00"}, "geometry": {"type": "Point", "coordinates": [-80.9450355, 33.9638738]}},
{"type": "Feature", "id": "a3cqYKUTb6q5YbKZ49vCY_zV374=", "properties": {"ref": "278", "@spider": "ollies_bargain_outlet", "addr:full": "1462 Chestnut Street", "addr:city": "Orangeburg", "addr:state": "SC", "addr:postcode": "29115", "addr:country": "US", "phone": "(803) 878-3946", "website": "https://www.ollies.us/locations/1462-chestnut-street-orangeburg-sc/", "opening_hours": "Su 09:00-05:00"}, "geometry": {"type": "Point", "coordinates": [-80.862584, 33.516122]}},
{"type": "Feature", "id": "pLiyFMsUqhSrvUdaIl8nCV5_Sds=", "properties": {"ref": "372", "@spider": "ollies_bargain_outlet", "addr:full": "6011 Grape Road", "addr:city": "Mishawaka", "addr:state": "IN", "addr:postcode": "46545", "addr:country": "US", "phone": "(574) 855-4772", "website": "https://www.ollies.us/locations/6011-grape-road-mishawaka-in/", "opening_hours": "Su 09:00-05:00"}, "geometry": {"type": "Point", "coordinates": [-86.188656, 41.715281]}},
{"type": "Feature", "id": "KOqPBRM11hKrqxnvFmknltuM-lc=", "properties": {"ref": "292", "@spider": "ollies_bargain_outlet", "addr:full": "4301 West Clara Lane", "addr:city": "Muncie", "addr:state": "IN", "addr:postcode": "47304", "addr:country": "US", "phone": "(765) 216-7215", "website": "https://www.ollies.us/locations/4301-west-clara-lane-muncie-in/", "opening_hours": "Su 09:00-05:00"}, "geometry": {"type": "Point", "coordinates": [-85.437078, 40.218301]}},
{"type": "Feature", "id": "aEj2Qj9u3KL24sja6KK2i55_eCw=", "properties": {"ref": "199", "@spider": "ollies_bargain_outlet", "addr:full": "1151 North Eastman Road", "addr:city": "Kingsport", "addr:state": "TN", "addr:postcode": "37664", "addr:country": "US", "phone": "(423) 378-0526", "website": "https://www.ollies.us/locations/1151-north-eastman-road-kingsport-tn/", "opening_hours": "Su 09:00-05:00"}, "geometry": {"type": "Point", "coordinates": [-82.5309293, 36.5307221]}},
{"type": "Feature", "id": "t33Ibj_cmV0majvK1IRoYIGsnSY=", "properties": {"ref": "318", "@spider": "ollies_bargain_outlet", "addr:full": "3006 Bristol Highway", "addr:city": "Johnson City", "addr:state": "TN", "addr:postcode": "37601", "addr:country": "US", "phone": "(423) 268-2565", "website": "https://www.ollies.us/locations/3006-bristol-highway-johnson-city-tn/", "opening_hours": "Su 09:00-05:00"}, "geometry": {"type": "Point", "coordinates": [-82.382017, 36.361423]}},
{"type": "Feature", "id": "AxCL18Elh1ogmXMWtXD091RKgFA=", "properties": {"ref": "405", "@spider": "ollies_bargain_outlet", "addr:full": "4601 National Rd East", "addr:city": "Richmond", "addr:state": "IN", "addr:postcode": "47374", "addr:country": "US", "phone": "(765) 200-6005", "website": "https://www.ollies.us/locations/4601-national-rd-east-richmond-in/", "opening_hours": "Su 09:00-05:00"}, "geometry": {"type": "Point", "coordinates": [-84.83942294, 39.82962427]}},
{"type": "Feature", "id": "ux2osCwCYimV30Yotz_1P427SLc=", "properties": {"ref": "268", "@spider": "ollies_bargain_outlet", "addr:full": "4300 Kings Highway", "addr:city": "Port Charlotte", "addr:state": "FL", "addr:postcode": "33980", "addr:country": "US", "phone": "(941) 883-4215", "website": "https://www.ollies.us/locations/4300-kings-highway-port-charlotte-fl/", "opening_hours": "Su 09:00-05:00"}, "geometry": {"type": "Point", "coordinates": [-82.068122, 26.963024]}},
{"type": "Feature", "id": "5PeXv4OGAdVHSExywM8TSZZN_ks=", "properties": {"ref": "143", "@spider": "ollies_bargain_outlet", "addr:full": "2240 W. Michigan St", "addr:city": "Sidney", "addr:state": "OH", "addr:postcode": "45365", "addr:country": "US", "phone": "(937) 492-3130", "website": "https://www.ollies.us/locations/2240-w-michigan-st-sidney-oh/", "opening_hours": "Su 09:00-05:00"}, "geometry": {"type": "Point", "coordinates": [-84.188386, 40.287798]}},
{"type": "Feature", "id": "wMEUONpfVkxwfl86Q1x5wvolDLE=", "properties": {"ref": "52", "@spider": "ollies_bargain_outlet", "addr:full": "1510 Upper Valley Pike", "addr:city": "Springfield", "addr:state": "OH", "addr:postcode": "45504", "addr:country": "US", "phone": "(937) 325-2073", "website": "https://www.ollies.us/locations/1510-upper-valley-pike-springfield-oh/", "opening_hours": "Su 09:00-05:00"}, "geometry": {"type": "Point", "coordinates": [-83.8519959, 39.9473868]}},
{"type": "Feature", "id": "9yycxq_LTfVzibyHuO0ZxG1Bg-I=", "properties": {"ref": "443", "@spider": "ollies_bargain_outlet", "addr:full": "1023 Wylie ST", "addr:city": "Camden", "addr:state": "SC", "addr:postcode": "29020", "addr:country": "US", "phone": "(803) 310-3284", "website": "https://www.ollies.us/locations/1023-wylie-st-camden-sc/", "opening_hours": "Su 09:00-05:00"}, "geometry": {"type": "Point", "coordinates": [-80.61583, 34.24424]}},
{"type": "Feature", "id": "V03G0nj4bDaSQXnfittyMoRtWw4=", "properties": {"ref": "260", "@spider": "ollies_bargain_outlet", "addr:full": "1573 N Main Street", "addr:city": "Marion", "addr:state": "VA", "addr:postcode": "24354", "addr:country": "US", "phone": "(276) 378-5493", "website": "https://www.ollies.us/locations/1573-n-main-street-marion-va/", "opening_hours": "Su 09:00-05:00"}, "geometry": {"type": "Point", "coordinates": [-81.492439, 36.847808]}},
{"type": "Feature", "id": "DDCgF61Q7as-WSOkv-gpUwlDy1o=", "properties": {"ref": "299", "@spider": "ollies_bargain_outlet", "addr:full": "777 E Merritt Island Causeway", "addr:city": "Merritt Island", "addr:state": "FL", "addr:postcode": "32952", "addr:country": "US", "phone": "(321) 208-8304", "website": "https://www.ollies.us/locations/777-e-merritt-island-causeway-merritt-island-fl/", "opening_hours": "Su 09:00-05:00"}, "geometry": {"type": "Point", "coordinates": [-80.685053, 28.354801]}},
{"type": "Feature", "id": "dU1kHCOAt-oMZQmiQiJdrsGam4c=", "properties": {"ref": "245", "@spider": "ollies_bargain_outlet", "addr:full": "4081 W Vine Street", "addr:city": "Kissimmee", "addr:state": "FL", "addr:postcode": "34741", "addr:country": "US", "phone": "(407) 944-4454", "website": "https://www.ollies.us/locations/4081-w-vine-street-kissimmee-fl/", "opening_hours": "Su 09:00-05:00"}, "geometry": {"type": "Point", "coordinates": [-81.444142, 28.30664]}},
{"type": "Feature", "id": "znZ0nbhWvLqEKcnFAvsTZMjzUoE=", "properties": {"ref": "298", "@spider": "ollies_bargain_outlet", "addr:full": "814 Saxon Blvd", "addr:city": "Orange City", "addr:state": "FL", "addr:postcode": "32763", "addr:country": "US", "phone": "(386) 917-0212", "website": "https://www.ollies.us/locations/814-saxon-blvd-orange-city-fl/", "opening_hours": "Su 09:00-05:00"}, "geometry": {"type": "Point", "coordinates": [-81.296126, 28.91086]}},
{"type": "Feature", "id": "9Om6X6Zk4eZBpcWqUnyfyjzdF3U=", "properties": {"ref": "180", "@spider": "ollies_bargain_outlet", "addr:full": "1315 Euclid Avenue", "addr:city": "Bristol", "addr:state": "VA", "addr:postcode": "24201", "addr:country": "US", "phone": "(276) 466-0973", "website": "https://www.ollies.us/locations/1315-euclid-avenue-bristol-va/", "opening_hours": "Su 09:00-05:00"}, "geometry": {"type": "Point", "coordinates": [-82.1944087, 36.6029887]}},
{"type": "Feature", "id": "VQTN6VA9-LiJFajcxMuxzS7-h-0=", "properties": {"ref": "231", "@spider": "ollies_bargain_outlet", "addr:full": "942 Semoran Blvd", "addr:city": "Casselberry", "addr:state": "FL", "addr:postcode": "32707", "addr:country": "US", "phone": "(407) 262-0995", "website": "https://www.ollies.us/locations/942-semoran-blvd-casselberry-fl/", "opening_hours": "Su 09:00-05:00"}, "geometry": {"type": "Point", "coordinates": [-81.3241898, 28.6483448]}},
{"type": "Feature", "id": "CsZuAcPmlPA8iMESdHmH6iJ2j7c=", "properties": {"ref": "265", "@spider": "ollies_bargain_outlet", "addr:full": "419 N Mayo Trail", "addr:city": "Paintsville", "addr:state": "KY", "addr:postcode": "41240", "addr:country": "US", "phone": "(606) 789-3669", "website": "https://www.ollies.us/locations/419-n-mayo-trail-paintsville-ky/", "opening_hours": "Su 09:00-05:00"}, "geometry": {"type": "Point", "coordinates": [-82.818612, 37.825196]}},
{"type": "Feature", "id": "vrsIQ89MP_GhRRqlZqVN5qjiYpU=", "properties": {"ref": "95", "@spider": "ollies_bargain_outlet", "addr:full": "1495 E Franklin Blvd", "addr:city": "Gastonia", "addr:state": "NC", "addr:postcode": "28054", "addr:country": "US", "phone": "(704) 874-2030", "website": "https://www.ollies.us/locations/1495-e-franklin-blvd-gastonia-nc/", "opening_hours": "Su 09:00-05:00"}, "geometry": {"type": "Point", "coordinates": [-81.1542444, 35.2588212]}},
{"type": "Feature", "id": "sg09Dxt3JUaXiB4Rj2ZFkeZjCyA=", "properties": {"ref": "179", "@spider": "ollies_bargain_outlet", "addr:full": "4124 Celanese Road #144", "addr:city": "Rock Hill", "addr:state": "SC", "addr:postcode": "29732", "addr:country": "US", "phone": "(803) 366-5543", "website": "https://www.ollies.us/locations/4124-celanese-road-144-rock-hill-sc/", "opening_hours": "Su 09:00-05:00"}, "geometry": {"type": "Point", "coordinates": [-81.0653584, 34.979052]}},
{"type": "Feature", "id": "YcySZDb9vvW4mTDQ-L33BrjaMFs=", "properties": {"ref": "86", "@spider": "ollies_bargain_outlet", "addr:full": "2146 US Highway 70 Southeast", "addr:city": "Hickory", "addr:state": "NC", "addr:postcode": "28602", "addr:country": "US", "phone": "(828) 322-2725", "website": "https://www.ollies.us/locations/2146-us-highway-70-southeast-hickory-nc/", "opening_hours": "Su 09:00-05:00"}, "geometry": {"type": "Point", "coordinates": [-81.300549, 35.7029135]}},
{"type": "Feature", "id": "esjm1_3EprE73KYDXyMJToIkgQY=", "properties": {"ref": "170", "@spider": "ollies_bargain_outlet", "addr:full": "4000 Rhodes Avenue", "addr:city": "New Boston", "addr:state": "OH", "addr:postcode": "45662", "addr:country": "US", "phone": "(740) 456-0696", "website": "https://www.ollies.us/locations/4000-rhodes-avenue-new-boston-oh/", "opening_hours": "Su 09:00-05:00"}, "geometry": {"type": "Point", "coordinates": [-82.9333, 38.7513]}},
{"type": "Feature", "id": "shMUlYK0vvObuPsk-0OQPloHIHg=", "properties": {"ref": "158", "@spider": "ollies_bargain_outlet", "addr:full": "4122 Lima Road", "addr:city": "Fort Wayne", "addr:state": "IN", "addr:postcode": "46805", "addr:country": "US", "phone": "(260) 373-0300", "website": "https://www.ollies.us/locations/4122-lima-road-fort-wayne-in/", "opening_hours": "Su 09:00-05:00"}, "geometry": {"type": "Point", "coordinates": [-85.1442093, 41.1167791]}},
{"type": "Feature", "id": "TqqYS6V6CKSOs0mJweArCKZpYbI=", "properties": {"ref": "53", "@spider": "ollies_bargain_outlet", "addr:full": "48 Consumer Center Dr", "addr:city": "Chillicothe", "addr:state": "OH", "addr:postcode": "45601", "addr:country": "US", "phone": "(740) 779-6655", "website": "https://www.ollies.us/locations/48-consumer-center-dr-chillicothe-oh/", "opening_hours": "Su 09:00-05:00"}, "geometry": {"type": "Point", "coordinates": [-82.9764096, 39.3456618]}},
{"type": "Feature", "id": "3NYW9oCJTIC5SRBLE7Rd26uQyjs=", "properties": {"ref": "106", "@spider": "ollies_bargain_outlet", "addr:full": "400 Mall Road", "addr:city": "Barboursville", "addr:state": "WV", "addr:postcode": "25504", "addr:country": "US", "phone": "(304) 736-3100", "website": "https://www.ollies.us/locations/400-mall-road-barboursville-wv/", "opening_hours": "Su 09:00-05:00"}, "geometry": {"type": "Point", "coordinates": [-82.2658663, 38.426243]}},
{"type": "Feature", "id": "sEhv4v4XYvWIaE56lIpkfhvaOG0=", "properties": {"ref": "88", "@spider": "ollies_bargain_outlet", "addr:full": "221 Norman Station Blvd", "addr:city": "Mooresville", "addr:state": "NC", "addr:postcode": "28117", "addr:country": "US", "phone": "(704) 664-1111", "website": "https://www.ollies.us/locations/221-norman-station-blvd-mooresville-nc/", "opening_hours": "Su 09:00-05:00"}, "geometry": {"type": "Point", "coordinates": [-80.8554445, 35.5873911]}},
{"type": "Feature", "id": "oUHuGna2Rp4Gn-UlFy3oDD8rAm8=", "properties": {"ref": "87", "@spider": "ollies_bargain_outlet", "addr:full": "2308 Matthews Township Pkwy", "addr:city": "Matthews", "addr:state": "NC", "addr:postcode": "28105", "addr:country": "US", "phone": "(704) 845-0701", "website": "https://www.ollies.us/locations/2308-matthews-township-pkwy-matthews-nc/", "opening_hours": "Su 09:00-05:00"}, "geometry": {"type": "Point", "coordinates": [-80.701866, 35.12533]}},
{"type": "Feature", "id": "14R_Ka27PNgsNBspZgWsw-6ipPg=", "properties": {"ref": "355", "@spider": "ollies_bargain_outlet", "addr:full": "160 Malabar Rd SW", "addr:city": "Palm Bay", "addr:state": "FL", "addr:postcode": "32907", "addr:country": "US", "phone": "(321) 345-5485", "website": "https://www.ollies.us/locations/160-malabar-rd-sw-palm-bay-fl/", "opening_hours": "Su 09:00-05:00"}, "geometry": {"type": "Point", "coordinates": [-80.672697, 27.996146]}},
{"type": "Feature", "id": "rhkI5OPKTbNaehJgpIqKz96Sna4=", "properties": {"ref": "54", "@spider": "ollies_bargain_outlet", "addr:full": "175 E Northern Ave", "addr:city": "Lima", "addr:state": "OH", "addr:postcode": "45801", "addr:country": "US", "phone": "(419) 999-9146", "website": "https://www.ollies.us/locations/175-e-northern-ave-lima-oh/", "opening_hours": "Su 09:00-05:00"}, "geometry": {"type": "Point", "coordinates": [-84.1039, 40.7661679]}},
{"type": "Feature", "id": "fhXu3KUzUetNS7d9uMOCyIdCgM4=", "properties": {"ref": "96", "@spider": "ollies_bargain_outlet", "addr:full": "170 Concord Commons Place SW", "addr:city": "Concord", "addr:state": "NC", "addr:postcode": "28027", "addr:country": "US", "phone": "(704) 262-4001", "website": "https://www.ollies.us/locations/170-concord-commons-place-sw-concord-nc/", "opening_hours": "Su 09:00-05:00"}, "geometry": {"type": "Point", "coordinates": [-80.620988, 35.389764]}},
{"type": "Feature", "id": "7Qs_0vqxOHQMg2rhd21fTmt2f0I=", "properties": {"ref": "224", "@spider": "ollies_bargain_outlet", "addr:full": "2008 N Wayne St, Suite A", "addr:city": "Angola", "addr:state": "IN", "addr:postcode": "46703", "addr:country": "US", "phone": "(260) 624-2447", "website": "https://www.ollies.us/locations/2008-n-wayne-st-suite-a-angola-in/", "opening_hours": "Su 09:00-05:00"}, "geometry": {"type": "Point", "coordinates": [-84.9974599, 41.6598942]}},
{"type": "Feature", "id": "nowQJJVmkHSTDgYYh7e4JrSR5wQ=", "properties": {"ref": "123", "@spider": "ollies_bargain_outlet", "addr:full": "7800 Rivers Ave #1700", "addr:city": "North Charleston", "addr:state": "SC", "addr:postcode": "29406", "addr:country": "US", "phone": "(843) 266-9933", "website": "https://www.ollies.us/locations/7800-rivers-ave-1700-north-charleston-sc/", "opening_hours": "Su 09:00-05:00"}, "geometry": {"type": "Point", "coordinates": [-80.0387317, 32.9459946]}},
{"type": "Feature", "id": "ryCjO8w5FroHfG-MUhFAZ_LyFRw=", "properties": {"ref": "140", "@spider": "ollies_bargain_outlet", "addr:full": "533 Commerce Dr", "addr:city": "Bluefield", "addr:state": "VA", "addr:postcode": "24605", "addr:country": "US", "phone": "(276) 326-1140", "website": "https://www.ollies.us/locations/533-commerce-dr-bluefield-va/", "opening_hours": "Su 09:00-05:00"}, "geometry": {"type": "Point", "coordinates": [-81.2488237, 37.2382241]}},
{"type": "Feature", "id": "9c-utca3YX7YhT45LpsePPZKFJk=", "properties": {"ref": "93", "@spider": "ollies_bargain_outlet", "addr:full": "3811 South High Street", "addr:city": "Columbus", "addr:state": "OH", "addr:postcode": "43207", "addr:country": "US", "phone": "(614) 409-0335", "website": "https://www.ollies.us/locations/3811-south-high-street-columbus-oh/", "opening_hours": "Su 09:00-05:00"}, "geometry": {"type": "Point", "coordinates": [-83.0001251, 39.8841241]}},
{"type": "Feature", "id": "4tsWUV9v9nsNUgZyVXTqlckvpS8=", "properties": {"ref": "381", "@spider": "ollies_bargain_outlet", "addr:full": "4425 S. Westnedge Ave.", "addr:city": "Kalamazoo", "addr:state": "MI", "addr:postcode": "49008", "addr:country": "US", "phone": "(269) 459-6718", "website": "https://www.ollies.us/locations/4425-s-westnedge-ave-kalamazoo-mi/", "opening_hours": "Su 09:00-05:00"}, "geometry": {"type": "Point", "coordinates": [-85.587506, 42.245868]}},
{"type": "Feature", "id": "RavI6yJJbQbu8Siuubf0Hbt8jUc=", "properties": {"ref": "434", "@spider": "ollies_bargain_outlet", "addr:full": "1500 North Clinton Street", "addr:city": "Defiance", "addr:state": "OH", "addr:postcode": "43512", "addr:country": "US", "phone": "(419) 956-0723", "website": "https://www.ollies.us/locations/1500-north-clinton-street-defiance-oh/", "opening_hours": "Su 09:00-05:00"}, "geometry": {"type": "Point", "coordinates": [-84.36366, 41.30304]}},
{"type": "Feature", "id": "laNWxOM0rmCJE6MGQNm4rFfQU7I=", "properties": {"ref": "92", "@spider": "ollies_bargain_outlet", "addr:full": "5737 Emporium Sq", "addr:city": "Columbus", "addr:state": "OH", "addr:postcode": "43231", "addr:country": "US", "phone": "(614) 568-0675", "website": "https://www.ollies.us/locations/5737-emporium-sq-columbus-oh/", "opening_hours": "Su 09:00-05:00"}, "geometry": {"type": "Point", "coordinates": [-82.9501016, 40.0871833]}},
{"type": "Feature", "id": "ffbQLNehnPx-vwt4LvtzfsEfDlk=", "properties": {"ref": "229", "@spider": "ollies_bargain_outlet", "addr:full": "1277 North Memorial Drive", "addr:city": "Lancaster", "addr:state": "OH", "addr:postcode": "43130", "addr:country": "US", "phone": "(740) 654-4061", "website": "https://www.ollies.us/locations/1277-north-memorial-drive-lancaster-oh/", "opening_hours": "Su 09:00-05:00"}, "geometry": {"type": "Point", "coordinates": [-82.6122914, 39.7288152]}},
{"type": "Feature", "id": "u0JVRqjd39kVS5-wWRrEM6gjFS4=", "properties": {"ref": "114", "@spider": "ollies_bargain_outlet", "addr:full": "518 N Renfro St", "addr:city": "Mt. Airy", "addr:state": "NC", "addr:postcode": "27030", "addr:country": "US", "phone": "(336) 719-1740", "website": "https://www.ollies.us/locations/518-n-renfro-st-mt-airy-nc/", "opening_hours": "Su 09:00-05:00"}, "geometry": {"type": "Point", "coordinates": [-80.605776, 36.5047464]}},
{"type": "Feature", "id": "pynBiUblP6bNE2gHwA9kBLEgd24=", "properties": {"ref": "280", "@spider": "ollies_bargain_outlet", "addr:full": "837 NC 24/27 Bypass E", "addr:city": "Albemarle", "addr:state": "NC", "addr:postcode": "28001", "addr:country": "US", "phone": "(704) 982-9500", "website": "https://www.ollies.us/locations/837-nc-24-27-bypass-e-albemarle-nc/", "opening_hours": "Su 09:00-05:00"}, "geometry": {"type": "Point", "coordinates": [-80.168278, 35.349017]}},
{"type": "Feature", "id": "1-ZByKT4jDV7hJ72ys__zlRkJFM=", "properties": {"ref": "82", "@spider": "ollies_bargain_outlet", "addr:full": "126 New River Dr", "addr:city": "Beckley", "addr:state": "WV", "addr:postcode": "25801", "addr:country": "US", "phone": "(304) 929-3252", "website": "https://www.ollies.us/locations/126-new-river-dr-beckley-wv/", "opening_hours": "Su 09:00-05:00"}, "geometry": {"type": "Point", "coordinates": [-81.1880685, 37.7894311]}},
{"type": "Feature", "id": "B2E8CI3kiqLKlrPq8dRsqw7bqjs=", "properties": {"ref": "104", "@spider": "ollies_bargain_outlet", "addr:full": "1650 N 21st St", "addr:city": "Newark", "addr:state": "OH", "addr:postcode": "43055", "addr:country": "US", "phone": "(740) 364-0257", "website": "https://www.ollies.us/locations/1650-n-21st-st-newark-oh/", "opening_hours": "Su 09:00-05:00"}, "geometry": {"type": "Point", "coordinates": [-82.424665, 40.093243]}},
{"type": "Feature", "id": "Ayks8UnosDmrzRaqWl9qoTgf0qE=", "properties": {"ref": "344", "@spider": "ollies_bargain_outlet", "addr:full": "4340 Okeechobee Blvd.", "addr:city": "West Palm Beach", "addr:state": "FL", "addr:postcode": "33409", "addr:country": "US", "phone": "(561) 469-7150", "website": "https://www.ollies.us/locations/4340-okeechobee-blvd-west-palm-beach-fl/", "opening_hours": "Su 09:00-05:00"}, "geometry": {"type": "Point", "coordinates": [-80.108229, 26.704019]}},
{"type": "Feature", "id": "tjwULV3eiiRfw6KtEWOyiLxUSPk=", "properties": {"ref": "394", "@spider": "ollies_bargain_outlet", "addr:full": "1385 S. Main St.", "addr:city": "Adrian", "addr:state": "MI", "addr:postcode": "49221", "addr:country": "US", "phone": "(517) 366-2025", "website": "https://www.ollies.us/locations/1385-s-main-st-adrian-mi/", "opening_hours": "Su 09:00-05:00"}, "geometry": {"type": "Point", "coordinates": [-84.04022399, 41.87659433]}},
{"type": "Feature", "id": "0z8HbSxIBnNteY4Y3PzpG2yVADg=", "properties": {"ref": "99", "@spider": "ollies_bargain_outlet", "addr:full": "1314 Bridford Pkwy", "addr:city": "Greensboro", "addr:state": "NC", "addr:postcode": "27407", "addr:country": "US", "phone": "(336) 398-1589", "website": "https://www.ollies.us/locations/1314-bridford-pkwy-greensboro-nc/", "opening_hours": "Su 09:00-05:00"}, "geometry": {"type": "Point", "coordinates": [-79.904191, 36.050749]}},
{"type": "Feature", "id": "bN44eR23J_5KI_Ya3YjHLuQFl0Q=", "properties": {"ref": "50", "@spider": "ollies_bargain_outlet", "addr:full": "100 Gihon Village", "addr:city": "Parkersburg", "addr:state": "WV", "addr:postcode": "26101", "addr:country": "US", "phone": "(304) 422-6436", "website": "https://www.ollies.us/locations/100-gihon-village-parkersburg-wv/", "opening_hours": "Su 09:00-05:00"}, "geometry": {"type": "Point", "coordinates": [-81.5455194, 39.2325621]}},
{"type": "Feature", "id": "lUJUeL0ReAfoyZO0HqW8fyoboTM=", "properties": {"ref": "392", "@spider": "ollies_bargain_outlet", "addr:full": "3010 SE Federal Highway", "addr:city": "Stuart", "addr:state": "FL", "addr:postcode": "34994", "addr:country": "US", "phone": "(772) 266-4244", "website": "https://www.ollies.us/locations/3010-se-federal-highway-stuart-fl/", "opening_hours": "Su 09:00-05:00"}, "geometry": {"type": "Point", "coordinates": [-80.230971, 27.168374]}},
{"type": "Feature", "id": "ECB47EeJPaGkPt2D5iM2sLERcrE=", "properties": {"ref": "100", "@spider": "ollies_bargain_outlet", "addr:full": "1294 Mt Vernon Ave", "addr:city": "Marion", "addr:state": "OH", "addr:postcode": "43302", "addr:country": "US", "phone": "(740) 389-2071", "website": "https://www.ollies.us/locations/1294-mt-vernon-ave-marion-oh/", "opening_hours": "Su 09:00-05:00"}, "geometry": {"type": "Point", "coordinates": [-83.09456, 40.5809991]}},
{"type": "Feature", "id": "EIsQ4boJJD1LJiudpB6qLmnrSys=", "properties": {"ref": "283", "@spider": "ollies_bargain_outlet", "addr:full": "1730 East Sherman Boulevard", "addr:city": "Muskegon", "addr:state": "MI", "addr:postcode": "49444", "addr:country": "US", "phone": "(231) 733-2111", "website": "https://www.ollies.us/locations/1730-east-sherman-boulevard-muskegon-mi/", "opening_hours": "Su 09:00-05:00"}, "geometry": {"type": "Point", "coordinates": [-86.201023, 43.206862]}},
{"type": "Feature", "id": "FQAp988rqhx7V_bEeZjFo5CjR9A=", "properties": {"ref": "103", "@spider": "ollies_bargain_outlet", "addr:full": "1788 E Broad Ave", "addr:city": "Rockingham", "addr:state": "NC", "addr:postcode": "28379", "addr:country": "US", "phone": "(910) 997-4102", "website": "https://www.ollies.us/locations/1788-e-broad-ave-rockingham-nc/", "opening_hours": "Su 09:00-05:00"}, "geometry": {"type": "Point", "coordinates": [-79.7428519, 34.9164923]}},
{"type": "Feature", "id": "KxFboHSxpQ0Yi66nBDxl7dlp6dY=", "properties": {"ref": "293", "@spider": "ollies_bargain_outlet", "addr:full": "1070 28th Street SW", "addr:city": "Wyoming", "addr:state": "MI", "addr:postcode": "49509", "addr:country": "US", "phone": "(616) 279-2134", "website": "https://www.ollies.us/locations/1070-28th-street-sw-wyoming-mi/", "opening_hours": "Su 09:00-05:00"}, "geometry": {"type": "Point", "coordinates": [-85.692743, 42.911867]}},
{"type": "Feature", "id": "Kr7RIp6OA8qO-JDRXIMoBTF-Q-w=", "properties": {"ref": "98", "@spider": "ollies_bargain_outlet", "addr:full": "23 Plaza Pkwy", "addr:city": "Lexington", "addr:state": "NC", "addr:postcode": "27292", "addr:country": "US", "phone": "(336) 249-8420", "website": "https://www.ollies.us/locations/23-plaza-pkwy-lexington-nc/", "opening_hours": "Su 09:00-05:00"}, "geometry": {"type": "Point", "coordinates": [-80.2564818, 35.7823521]}},
{"type": "Feature", "id": "BqHJeB7ruufFvHzRAFjfM8mLa7o=", "properties": {"ref": "228", "@spider": "ollies_bargain_outlet", "addr:full": "100 South 20th Street", "addr:city": "Battle Creek", "addr:state": "MI", "addr:postcode": "49015", "addr:country": "US", "phone": "(269) 966-0017", "website": "https://www.ollies.us/locations/100-south-20th-street-battle-creek-mi/", "opening_hours": "Su 09:00-05:00"}, "geometry": {"type": "Point", "coordinates": [-85.2202338, 42.2985273]}},
{"type": "Feature", "id": "ftYiSGU5XrDsz8a6-PLjN2eZo1c=", "properties": {"ref": "237", "@spider": "ollies_bargain_outlet", "addr:full": "1088 Memorial Drive", "addr:city": "Pulaski", "addr:state": "VA", "addr:postcode": "24301", "addr:country": "US", "phone": "(540) 980-1286", "website": "https://www.ollies.us/locations/1088-memorial-drive-pulaski-va/", "opening_hours": "Su 09:00-05:00"}, "geometry": {"type": "Point", "coordinates": [-80.7600155, 37.0611507]}},
{"type": "Feature", "id": "IqWzdlyja3S7H18boqqOzpzy9Lg=", "properties": {"ref": "97", "@spider": "ollies_bargain_outlet", "addr:full": "5049 Country Club Road", "addr:city": "Winston-Salem", "addr:state": "NC", "addr:postcode": "27104", "addr:country": "US", "phone": "(336) 354-4245", "website": "https://www.ollies.us/locations/5049-country-club-road-winston-salem-nc/", "opening_hours": "Su 09:00-05:00"}, "geometry": {"type": "Point", "coordinates": [-80.3464668, 36.0831286]}},
{"type": "Feature", "id": "uqLcwIUXL15XuRUrtjdIA87JJOE=", "properties": {"ref": "163", "@spider": "ollies_bargain_outlet", "addr:full": "1920 W Evans St", "addr:city": "Florence", "addr:state": "SC", "addr:postcode": "29501", "addr:country": "US", "phone": "(843) 413-5293", "website": "https://www.ollies.us/locations/1920-w-evans-st-florence-sc/", "opening_hours": "Su 09:00-05:00"}, "geometry": {"type": "Point", "coordinates": [-79.8043837, 34.1942043]}},
{"type": "Feature", "id": "zIAAbZbwTZFn5cs0AdTF7tcXGrM=", "properties": {"ref": "332", "@spider": "ollies_bargain_outlet", "addr:full": "6547 Sawmill Road", "addr:city": "Dublin", "addr:state": "OH", "addr:postcode": "43017", "addr:country": "US", "phone": "(614) 793-3090", "website": "https://www.ollies.us/locations/6547-sawmill-road-dublin-oh/", "opening_hours": "Su 09:00-05:00"}, "geometry": {"type": "Point", "coordinates": [-83.093056, 40.100712]}},
{"type": "Feature", "id": "NLqbWg2TIQ4aqBl37Npx6ChbGsk=", "properties": {"ref": "250", "@spider": "ollies_bargain_outlet", "addr:full": "991 Dunbar Village Plaza", "addr:city": "Dunbar", "addr:state": "WV", "addr:postcode": "25064", "addr:country": "US", "phone": "(304) 766-0020", "website": "https://www.ollies.us/locations/991-dunbar-village-plaza-dunbar-wv/", "opening_hours": "Su 09:00-05:00"}, "geometry": {"type": "Point", "coordinates": [-81.734666, 38.357923]}},
{"type": "Feature", "id": "256WcU_weujdq0uuw9ARGxNzWKs=", "properties": {"ref": "365", "@spider": "ollies_bargain_outlet", "addr:full": "2613 South Reynolds Road", "addr:city": "Toledo", "addr:state": "OH", "addr:postcode": "43614", "addr:country": "US", "phone": "(419) 407-5274", "website": "https://www.ollies.us/locations/2613-south-reynolds-road-toledo-oh/", "opening_hours": "Su 09:00-05:00"}, "geometry": {"type": "Point", "coordinates": [-83.663228, 41.592752]}},
{"type": "Feature", "id": "Ws9xjMKDsMgIh4VWrJ1F02DrgmQ=", "properties": {"ref": "391", "@spider": "ollies_bargain_outlet", "addr:full": "129 N Maysville Ave", "addr:city": "Zanesville", "addr:state": "OH", "addr:postcode": "43701", "addr:country": "US", "phone": "(740) 868-8485", "website": "https://www.ollies.us/locations/129-n-maysville-ave-zanesville-oh/", "opening_hours": "Su 09:00-05:00"}, "geometry": {"type": "Point", "coordinates": [-82.019181, 39.908073]}},
{"type": "Feature", "id": "HFK6ip-MR8Er4vlg8otVrcvW5m8=", "properties": {"ref": "379", "@spider": "ollies_bargain_outlet", "addr:full": "252 Red Oaks Shopping Center", "addr:city": "Ronceverte", "addr:state": "WV", "addr:postcode": "24970", "addr:country": "US", "phone": "(304) 645-7273", "website": "https://www.ollies.us/locations/252-red-oaks-shopping-center-ronceverte-wv/", "opening_hours": "Su 09:00-05:00"}, "geometry": {"type": "Point", "coordinates": [-80.466987, 37.767223]}},
{"type": "Feature", "id": "rJdC9-bKeNA_98jgLwu2xe8aoY0=", "properties": {"ref": "49", "@spider": "ollies_bargain_outlet", "addr:full": "1414 Lexington Ave", "addr:city": "Mansfield", "addr:state": "OH", "addr:postcode": "44907", "addr:country": "US", "phone": "(419) 774-8936", "website": "https://www.ollies.us/locations/1414-lexington-ave-mansfield-oh/", "opening_hours": "Su 09:00-05:00"}, "geometry": {"type": "Point", "coordinates": [-82.5448694, 40.7199741]}},
{"type": "Feature", "id": "rCpt1sPyiYAoFkmy9i6mfP-g-1A=", "properties": {"ref": "147", "@spider": "ollies_bargain_outlet", "addr:full": "5860 Lewis Avenue", "addr:city": "Toledo", "addr:state": "OH", "addr:postcode": "43612", "addr:country": "US", "phone": "(419) 478-1809", "website": "https://www.ollies.us/locations/5860-lewis-avenue-toledo-oh/", "opening_hours": "Su 09:00-05:00"}, "geometry": {"type": "Point", "coordinates": [-83.565276, 41.723714]}},
{"type": "Feature", "id": "eD1RLery549js6TKUiH4acZeFCk=", "properties": {"ref": "313", "@spider": "ollies_bargain_outlet", "addr:full": "640 Commonwealth Blvd.", "addr:city": "Martinsville", "addr:state": "VA", "addr:postcode": "24112", "addr:country": "US", "phone": "(276) 790-3681", "website": "https://www.ollies.us/locations/640-commonwealth-blvd-martinsville-va/", "opening_hours": "Su 09:00-05:00"}, "geometry": {"type": "Point", "coordinates": [-79.897327, 36.697691]}},
{"type": "Feature", "id": "nrGUy_MgjsanZBSiBBnH7L0Xft8=", "properties": {"ref": "110", "@spider": "ollies_bargain_outlet", "addr:full": "1437 W Main St", "addr:city": "Salem", "addr:state": "VA", "addr:postcode": "24153", "addr:country": "US", "phone": "(540) 387-2425", "website": "https://www.ollies.us/locations/1437-w-main-st-salem-va/", "opening_hours": "Su 09:00-05:00"}, "geometry": {"type": "Point", "coordinates": [-80.0811028, 37.2909704]}},
{"type": "Feature", "id": "hjcKbHDP8yaOfpFy8oukrUjUqEk=", "properties": {"ref": "151", "@spider": "ollies_bargain_outlet", "addr:full": "800 South Waverly Road", "addr:city": "Lansing", "addr:state": "MI", "addr:postcode": "48917", "addr:country": "US", "phone": "(517) 321-2844", "website": "https://www.ollies.us/locations/800-south-waverly-road-lansing-mi/", "opening_hours": "Su 09:00-05:00"}, "geometry": {"type": "Point", "coordinates": [-84.6054248, 42.7259233]}},
{"type": "Feature", "id": "kNd8RIgJET3RzD3mmhyx1Usp8fw=", "properties": {"ref": "286", "@spider": "ollies_bargain_outlet", "addr:full": "1756 B Hwy 17 N", "addr:city": "Surfside Beach", "addr:state": "SC", "addr:postcode": "29575", "addr:country": "US", "phone": "(843) 945-2255", "website": "https://www.ollies.us/locations/1756-b-hwy-17-n-surfside-beach-sc/", "opening_hours": "Su 09:00-05:00"}, "geometry": {"type": "Point", "coordinates": [-78.969205, 33.626144]}},
{"type": "Feature", "id": "OZIWMXdRPTp-lAmz6hBOIYdVgUM=", "properties": {"ref": "134", "@spider": "ollies_bargain_outlet", "addr:full": "2100 Oakheart Rd", "addr:city": "Myrtle Beach", "addr:state": "SC", "addr:postcode": "29579", "addr:country": "US", "phone": "(843) 236-9400", "website": "https://www.ollies.us/locations/2100-oakheart-rd-myrtle-beach-sc/", "opening_hours": "Su 09:00-05:00"}, "geometry": {"type": "Point", "coordinates": [-78.9618708, 33.7573987]}},
{"type": "Feature", "id": "cN8tf84JmfFMMuFqO80EayPcahw=", "properties": {"ref": "416", "@spider": "ollies_bargain_outlet", "addr:full": "795 South Second St.", "addr:city": "Coshocton", "addr:state": "OH", "addr:postcode": "43812", "addr:country": "US", "phone": "(740) 610-0522", "website": "https://www.ollies.us/locations/795-south-second-st-coshocton-oh/", "opening_hours": "Su 09:00-05:00"}, "geometry": {"type": "Point", "coordinates": [-81.871529, 40.262953]}},
{"type": "Feature", "id": "rqa9FZSBXQBRkGeObBMa9h_elNE=", "properties": {"ref": "301", "@spider": "ollies_bargain_outlet", "addr:full": "4943 Valley View Blvd.", "addr:city": "Roanoke", "addr:state": "VA", "addr:postcode": "24012", "addr:country": "US", "phone": "(540) 204-4981", "website": "https://www.ollies.us/locations/4943-valley-view-blvd-roanoke-va/", "opening_hours": "Su 09:00-05:00"}, "geometry": {"type": "Point", "coordinates": [-79.968188, 37.306917]}},
{"type": "Feature", "id": "A7brH1et5_Dve0hLZE-fcp349U0=", "properties": {"ref": "129", "@spider": "ollies_bargain_outlet", "addr:full": "2157 N Telegraph Rd", "addr:city": "Monroe", "addr:state": "MI", "addr:postcode": "48162", "addr:country": "US", "phone": "(734) 457-1027", "website": "https://www.ollies.us/locations/2157-n-telegraph-rd-monroe-mi/", "opening_hours": "Su 09:00-05:00"}, "geometry": {"type": "Point", "coordinates": [-83.4029144, 41.9447385]}},
{"type": "Feature", "id": "tZUFRo2dthHTtlaRTCaQ10vjIKg=", "properties": {"ref": "342", "@spider": "ollies_bargain_outlet", "addr:full": "2780 N Roberts Avenue", "addr:city": "Lumberton", "addr:state": "NC", "addr:postcode": "28358", "addr:country": "US", "phone": "(910) 370-0800", "website": "https://www.ollies.us/locations/2780-n-roberts-avenue-lumberton-nc/", "opening_hours": "Su 09:00-05:00"}, "geometry": {"type": "Point", "coordinates": [-79.010676, 34.646447]}},
{"type": "Feature", "id": "FHKPZh_13jDQivo7DEgRPj38zI8=", "properties": {"ref": "109", "@spider": "ollies_bargain_outlet", "addr:full": "2137 N Church St", "addr:city": "Burlington", "addr:state": "NC", "addr:postcode": "27217", "addr:country": "US", "phone": "(336) 513-0500", "website": "https://www.ollies.us/locations/2137-n-church-st-burlington-nc/", "opening_hours": "Su 09:00-05:00"}, "geometry": {"type": "Point", "coordinates": [-79.4013319, 36.0929292]}},
{"type": "Feature", "id": "EobaQLEZ9uY2EdSMtd3CvSqM2Uw=", "properties": {"ref": "150", "@spider": "ollies_bargain_outlet", "addr:full": "2375 Ellsworth Rd", "addr:city": "Ypsilanti", "addr:state": "MI", "addr:postcode": "48197", "addr:country": "US", "phone": "(734) 434-2016", "website": "https://www.ollies.us/locations/2375-ellsworth-rd-ypsilanti-mi/", "opening_hours": "Su 09:00-05:00"}, "geometry": {"type": "Point", "coordinates": [-83.6484597, 42.2305004]}},
{"type": "Feature", "id": "Y4FI61UCycnjSmXr68AXbgE7yJE=", "properties": {"ref": "354", "@spider": "ollies_bargain_outlet", "addr:full": "2511 S Horner Boulevard", "addr:city": "Sanford", "addr:state": "NC", "addr:postcode": "27332", "addr:country": "US", "phone": "(919) 776-0051", "website": "https://www.ollies.us/locations/2511-s-horner-boulevard-sanford-nc/", "opening_hours": "Su 09:00-05:00"}, "geometry": {"type": "Point", "coordinates": [-79.142866, 35.459736]}},
{"type": "Feature", "id": "RjCebdnL2cI--uz_LTad73IKd7c=", "properties": {"ref": "66", "@spider": "ollies_bargain_outlet", "addr:full": "310 E Perkins Ave", "addr:city": "Sandusky", "addr:state": "OH", "addr:postcode": "44870", "addr:country": "US", "phone": "(419) 626-9955", "website": "https://www.ollies.us/locations/310-e-perkins-ave-sandusky-oh/", "opening_hours": "Su 09:00-05:00"}, "geometry": {"type": "Point", "coordinates": [-82.7030159, 41.4326809]}},
{"type": "Feature", "id": "G-dnVda2kEq8dipzBo0MfeIjkxg=", "properties": {"ref": "69", "@spider": "ollies_bargain_outlet", "addr:full": "101 Piney Forest Rd", "addr:city": "Danville", "addr:state": "VA", "addr:postcode": "24540", "addr:country": "US", "phone": "(434) 799-5682", "website": "https://www.ollies.us/locations/101-piney-forest-rd-danville-va/", "opening_hours": "Su 09:00-05:00"}, "geometry": {"type": "Point", "coordinates": [-79.4142578, 36.5934584]}},
{"type": "Feature", "id": "jUwQk76bw_4N9aFBSLJKidMTed8=", "properties": {"ref": "78", "@spider": "ollies_bargain_outlet", "addr:full": "3725 Ramsey St", "addr:city": "Fayetteville", "addr:state": "NC", "addr:postcode": "28311", "addr:country": "US", "phone": "(910) 822-3116", "website": "https://www.ollies.us/locations/3725-ramsey-st-fayetteville-nc/", "opening_hours": "Su 09:00-05:00"}, "geometry": {"type": "Point", "coordinates": [-78.8800724, 35.1127019]}},
{"type": "Feature", "id": "b289cJJClx4WgpJjxsT3ZOMJCYk=", "properties": {"ref": "351", "@spider": "ollies_bargain_outlet", "addr:full": "1831 Portage Road", "addr:city": "Wooster", "addr:state": "OH", "addr:postcode": "44691", "addr:country": "US", "phone": "(330) 804-6000", "website": "https://www.ollies.us/locations/1831-portage-road-wooster-oh/", "opening_hours": "Su 09:00-05:00"}, "geometry": {"type": "Point", "coordinates": [-81.913352, 40.827393]}},
{"type": "Feature", "id": "tHFXxT9vIx4EBnCTEr5dXdswN-8=", "properties": {"ref": "142", "@spider": "ollies_bargain_outlet", "addr:full": "34460 Ford Rd", "addr:city": "Westland", "addr:state": "MI", "addr:postcode": "48185", "addr:country": "US", "phone": "(734) 729-3817", "website": "https://www.ollies.us/locations/34460-ford-rd-westland-mi/", "opening_hours": "Su 09:00-05:00"}, "geometry": {"type": "Point", "coordinates": [-83.3800883, 42.3246108]}},
{"type": "Feature", "id": "Vxj723LtIgor--ymZ5r7gRPempI=", "properties": {"ref": "133", "@spider": "ollies_bargain_outlet", "addr:full": "9850 Telegraph Rd", "addr:city": "Taylor", "addr:state": "MI", "addr:postcode": "48180", "addr:country": "US", "phone": "(313) 292-4547", "website": "https://www.ollies.us/locations/9850-telegraph-rd-taylor-mi/", "opening_hours": "Su 09:00-05:00"}, "geometry": {"type": "Point", "coordinates": [-83.2715079, 42.2347196]}},
{"type": "Feature", "id": "3SXo2HB_Gg31iCbNFrce3isjKk0=", "properties": {"ref": "230", "@spider": "ollies_bargain_outlet", "addr:full": "515 Union Avenue", "addr:city": "Dover", "addr:state": "OH", "addr:postcode": "44622", "addr:country": "US", "phone": "(330) 343-8507", "website": "https://www.ollies.us/locations/515-union-avenue-dover-oh/", "opening_hours": "Su 09:00-05:00"}, "geometry": {"type": "Point", "coordinates": [-81.4636095, 40.5080949]}},
{"type": "Feature", "id": "uRo0rgGWmKHYoS7zrX6xfLhgWQ4=", "properties": {"ref": "141", "@spider": "ollies_bargain_outlet", "addr:full": "22128 Farmington Road", "addr:city": "Farmington", "addr:state": "MI", "addr:postcode": "48336", "addr:country": "US", "phone": "(248) 426-7470", "website": "https://www.ollies.us/locations/22128-farmington-road-farmington-mi/", "opening_hours": "Su 09:00-05:00"}, "geometry": {"type": "Point", "coordinates": [-83.3759063, 42.4542862]}},
{"type": "Feature", "id": "2Wxkq__2WdOPC_3nB9EuWbW7sNo=", "properties": {"ref": "107", "@spider": "ollies_bargain_outlet", "addr:full": "3823 Guess Road", "addr:city": "Durham", "addr:state": "NC", "addr:postcode": "27705", "addr:country": "US", "phone": "(919) 477-2122", "website": "https://www.ollies.us/locations/3823-guess-road-durham-nc/", "opening_hours": "Su 09:00-05:00"}, "geometry": {"type": "Point", "coordinates": [-78.9305342, 36.0587231]}},
{"type": "Feature", "id": "4So4KBedSuXp_HFjJYTzb1k2rTM=", "properties": {"ref": "74", "@spider": "ollies_bargain_outlet", "addr:full": "651 Cary Town Blvd.", "addr:city": "Cary", "addr:state": "NC", "addr:postcode": "27511", "addr:country": "US", "phone": "(919) 469-0197", "website": "https://www.ollies.us/locations/651-cary-town-blvd-cary-nc/", "opening_hours": "Su 09:00-05:00"}, "geometry": {"type": "Point", "coordinates": [-78.7673443, 35.7767849]}},
{"type": "Feature", "id": "Sabf_oImG7ZVdw57IFOJMgV6JiA=", "properties": {"ref": "214", "@spider": "ollies_bargain_outlet", "addr:full": "2202 West Cumberland Street", "addr:city": "Dunn", "addr:state": "NC", "addr:postcode": "28334", "addr:country": "US", "phone": "(910) 980-1164", "website": "https://www.ollies.us/locations/2202-west-cumberland-street-dunn-nc/", "opening_hours": "Su 09:00-05:00"}, "geometry": {"type": "Point", "coordinates": [-78.635542, 35.3224893]}},
{"type": "Feature", "id": "nfFIQ3O0QeDigI8d1BNcmF_5uGg=", "properties": {"ref": "44", "@spider": "ollies_bargain_outlet", "addr:full": "67780 Banfield Road", "addr:city": "St. Clairsville", "addr:state": "OH", "addr:postcode": "43950", "addr:country": "US", "phone": "(740) 695-2339", "website": "https://www.ollies.us/locations/67780-banfield-road-st-clairsville-oh/", "opening_hours": "Su 09:00-05:00"}, "geometry": {"type": "Point", "coordinates": [-80.8621851, 40.0649059]}},
{"type": "Feature", "id": "yK9mvpsOOQy-v9_vrwas-WJxl-c=", "properties": {"ref": "144", "@spider": "ollies_bargain_outlet", "addr:full": "5038 Miller Rd", "addr:city": "Flint", "addr:state": "MI", "addr:postcode": "48507", "addr:country": "US", "phone": "(810) 820-3105", "website": "https://www.ollies.us/locations/5038-miller-rd-flint-mi/", "opening_hours": "Su 09:00-05:00"}, "geometry": {"type": "Point", "coordinates": [-83.7745703, 42.9777468]}},
{"type": "Feature", "id": "DDT3he5MgWdVYXI4DGzYc-mjtQ4=", "properties": {"ref": "159", "@spider": "ollies_bargain_outlet", "addr:full": "4998 Dixie Highway #200", "addr:city": "Waterford", "addr:state": "MI", "addr:postcode": "48329", "addr:country": "US", "phone": "(248) 618-1225", "website": "https://www.ollies.us/locations/4998-dixie-highway-200-waterford-mi/", "opening_hours": "Su 09:00-05:00"}, "geometry": {"type": "Point", "coordinates": [-83.388098, 42.693484]}},
{"type": "Feature", "id": "mQSiFJxWZJkHzthFVryAacdFinU=", "properties": {"ref": "223", "@spider": "ollies_bargain_outlet", "addr:full": "78 East Midland Trail", "addr:city": "Lexington", "addr:state": "VA", "addr:postcode": "24450", "addr:country": "US", "phone": "(540) 464-1033", "website": "https://www.ollies.us/locations/78-east-midland-trail-lexington-va/", "opening_hours": "Su 09:00-05:00"}, "geometry": {"type": "Point", "coordinates": [-79.4325087, 37.7754367]}},
{"type": "Feature", "id": "fOjbQple7oknzF9nHzsObYGWjEA=", "properties": {"ref": "101", "@spider": "ollies_bargain_outlet", "addr:full": "1200 W Main St", "addr:city": "Bridgeport", "addr:state": "WV", "addr:postcode": "26330", "addr:country": "US", "phone": "(304) 842-0198", "website": "https://www.ollies.us/locations/1200-w-main-st-bridgeport-wv/", "opening_hours": "Su 09:00-05:00"}, "geometry": {"type": "Point", "coordinates": [-80.2752432, 39.2822776]}},
{"type": "Feature", "id": "vatCURIQkgfFAuQeE7oVg_q0CFY=", "properties": {"ref": "71", "@spider": "ollies_bargain_outlet", "addr:full": "26664 Brookpark Ext", "addr:city": "North Olmsted", "addr:state": "OH", "addr:postcode": "44070", "addr:country": "US", "phone": "(440) 716-2361", "website": "https://www.ollies.us/locations/26664-brookpark-ext-north-olmsted-oh/", "opening_hours": "Su 09:00-05:00"}, "geometry": {"type": "Point", "coordinates": [-81.9189, 41.42057]}},
{"type": "Feature", "id": "boJ_zhY6SgWxOrIydQV_lKq9Sag=", "properties": {"ref": "77", "@spider": "ollies_bargain_outlet", "addr:full": "3700 Candlers Mountain Road", "addr:city": "Lynchburg", "addr:state": "VA", "addr:postcode": "24502", "addr:country": "US", "phone": "(434) 847-4792", "website": "https://www.ollies.us/locations/3700-candlers-mountain-road-lynchburg-va/", "opening_hours": "Su 09:00-05:00"}, "geometry": {"type": "Point", "coordinates": [-79.1708717, 37.3601186]}},
{"type": "Feature", "id": "xmIOV1-Hp9KBiN1b9zQS4m1U8tY=", "properties": {"ref": "51", "@spider": "ollies_bargain_outlet", "addr:full": "1430 N Main St", "addr:city": "North Canton", "addr:state": "OH", "addr:postcode": "44720", "addr:country": "US", "phone": "(330) 494-8414", "website": "https://www.ollies.us/locations/1430-n-main-st-north-canton-oh/", "opening_hours": "Su 09:00-05:00"}, "geometry": {"type": "Point", "coordinates": [-81.4049218, 40.8916282]}},
{"type": "Feature", "id": "Os7eFXmCBiWGEOc4c4ewPxKkf6M=", "properties": {"ref": "136", "@spider": "ollies_bargain_outlet", "addr:full": "3501 Capital Blvd #101", "addr:city": "Raleigh", "addr:state": "NC", "addr:postcode": "27604", "addr:country": "US", "phone": "(919) 790-7900", "website": "https://www.ollies.us/locations/3501-capital-blvd-101-raleigh-nc/", "opening_hours": "Su 09:00-05:00"}, "geometry": {"type": "Point", "coordinates": [-78.5866427, 35.8286524]}},
{"type": "Feature", "id": "ZziBu3J6B98jbYWMvp_JVw0781g=", "properties": {"ref": "325", "@spider": "ollies_bargain_outlet", "addr:full": "590 Howe Avenue", "addr:city": "Cuyahoga Falls", "addr:state": "OH", "addr:postcode": "44221", "addr:country": "US", "phone": "(330) 920-4504", "website": "https://www.ollies.us/locations/590-howe-avenue-cuyahoga-falls-oh/", "opening_hours": "Su 09:00-05:00"}, "geometry": {"type": "Point", "coordinates": [-81.474648, 41.118507]}},
{"type": "Feature", "id": "HeRMWlnYR6afOFUXLsbEUPXEdKU=", "properties": {"ref": "208", "@spider": "ollies_bargain_outlet", "addr:full": "20600 E 13 Mile Road", "addr:city": "Roseville", "addr:state": "MI", "addr:postcode": "48066", "addr:country": "US", "phone": "(586) 296-3702", "website": "https://www.ollies.us/locations/20600-e-13-mile-road-roseville-mi/", "opening_hours": "Su 09:00-05:00"}, "geometry": {"type": "Point", "coordinates": [-82.90980649, 42.52362893]}},
{"type": "Feature", "id": "ria3zMS3H73ehfbNgcwWqZkVynA=", "properties": {"ref": "173", "@spider": "ollies_bargain_outlet", "addr:full": "45100 Northpointe Blvd", "addr:city": "Utica", "addr:state": "MI", "addr:postcode": "48315", "addr:country": "US", "phone": "(586) 731-1123", "website": "https://www.ollies.us/locations/45100-northpointe-blvd-utica-mi/", "opening_hours": "Su 09:00-05:00"}, "geometry": {"type": "Point", "coordinates": [-83.0001402, 42.6282424]}},
{"type": "Feature", "id": "e5elWAMuTWVbQ5dZ0GBWPdd8saY=", "properties": {"ref": "63", "@spider": "ollies_bargain_outlet", "addr:full": "5739 Broadview Rd", "addr:city": "Cleveland", "addr:state": "OH", "addr:postcode": "44134", "addr:country": "US", "phone": "(216) 741-2249", "website": "https://www.ollies.us/locations/5739-broadview-rd-cleveland-oh/", "opening_hours": "Su 09:00-05:00"}, "geometry": {"type": "Point", "coordinates": [-81.6902713, 41.4074767]}},
{"type": "Feature", "id": "3ODbUj6-Z-dzVKwSgXv78g4l32o=", "properties": {"ref": "153", "@spider": "ollies_bargain_outlet", "addr:full": "4602 State Street", "addr:city": "Saginaw", "addr:state": "MI", "addr:postcode": "48603", "addr:country": "US", "phone": "(989) 790-1665", "website": "https://www.ollies.us/locations/4602-state-street-saginaw-mi/", "opening_hours": "Su 09:00-05:00"}, "geometry": {"type": "Point", "coordinates": [-84.0073835, 43.4390392]}},
{"type": "Feature", "id": "qlemflvw733wtocKwm3W8PPvvoM=", "properties": {"ref": "42", "@spider": "ollies_bargain_outlet", "addr:full": "4189 Mall Dr", "addr:city": "Steubenville", "addr:state": "OH", "addr:postcode": "43952", "addr:country": "US", "phone": "(740) 264-5573", "website": "https://www.ollies.us/locations/4189-mall-dr-steubenville-oh/", "opening_hours": "Su 09:00-05:00"}, "geometry": {"type": "Point", "coordinates": [-80.6747862, 40.3700651]}},
{"type": "Feature", "id": "p3IbJVDEe5l9Btsjk_EZG-QEzdQ=", "properties": {"ref": "68", "@spider": "ollies_bargain_outlet", "addr:full": "23350 Broadway Avenue", "addr:city": "Oakwood Village", "addr:state": "OH", "addr:postcode": "44146", "addr:country": "US", "phone": "(440) 232-9950", "website": "https://www.ollies.us/locations/23350-broadway-avenue-oakwood-village-oh/", "opening_hours": "Su 09:00-05:00"}, "geometry": {"type": "Point", "coordinates": [-81.510957, 41.366218]}},
{"type": "Feature", "id": "5rIYGSD2ss5Pt_r3Dkuk3RKhFPY=", "properties": {"ref": "126", "@spider": "ollies_bargain_outlet", "addr:full": "1520 Dabney Dr", "addr:city": "Henderson", "addr:state": "NC", "addr:postcode": "27536", "addr:country": "US", "phone": "(252) 433-0107", "website": "https://www.ollies.us/locations/1520-dabney-dr-henderson-nc/", "opening_hours": "Su 09:00-05:00"}, "geometry": {"type": "Point", "coordinates": [-78.4340965, 36.3344228]}},
{"type": "Feature", "id": "oZ1_FNEm-TPweA8wJK5q4C9dfGY=", "properties": {"ref": "396", "@spider": "ollies_bargain_outlet", "addr:full": "9530 Mall Road", "addr:city": "Morgantown", "addr:state": "WV", "addr:postcode": "26501", "addr:country": "US", "phone": "(304) 212-6334", "website": "https://www.ollies.us/locations/9530-mall-road-morgantown-wv/", "opening_hours": "Su 09:00-05:00"}, "geometry": {"type": "Point", "coordinates": [-79.998942, 39.628594]}},
{"type": "Feature", "id": "zr3Y48521Px3ME5UDdxLQnJ-q0Q=", "properties": {"ref": "127", "@spider": "ollies_bargain_outlet", "addr:full": "352 S College Rd #25", "addr:city": "Wilmington", "addr:state": "NC", "addr:postcode": "28403", "addr:country": "US", "phone": "(910) 392-3800", "website": "https://www.ollies.us/locations/352-s-college-rd-25-wilmington-nc/", "opening_hours": "Su 09:00-05:00"}, "geometry": {"type": "Point", "coordinates": [-77.8773379, 34.2365412]}},
{"type": "Feature", "id": "jrj5dVSsoBE8mq3izL3MSuK0m-Q=", "properties": {"ref": "266", "@spider": "ollies_bargain_outlet", "addr:full": "4125 East Wilder Road, Suite 1", "addr:city": "Bay City", "addr:state": "MI", "addr:postcode": "48706", "addr:country": "US", "phone": "(989) 402-1384", "website": "https://www.ollies.us/locations/4125-east-wilder-road-suite-1-bay-city-mi/", "opening_hours": "Su 09:00-05:00"}, "geometry": {"type": "Point", "coordinates": [-83.891752, 43.626147]}},
{"type": "Feature", "id": "exMG5EWpOsVnJt95qvxPFnnmzvk=", "properties": {"ref": "73", "@spider": "ollies_bargain_outlet", "addr:full": "1005 N Spence Ave", "addr:city": "Goldsboro", "addr:state": "NC", "addr:postcode": "27534", "addr:country": "US", "phone": "(919) 778-0367", "website": "https://www.ollies.us/locations/1005-n-spence-ave-goldsboro-nc/", "opening_hours": "Su 09:00-05:00"}, "geometry": {"type": "Point", "coordinates": [-77.9494726, 35.3876909]}},
{"type": "Feature", "id": "wzpQMEdUdEzYp7yfQV0BoDgwDOI=", "properties": {"ref": "72", "@spider": "ollies_bargain_outlet", "addr:full": "8435 Market St", "addr:city": "Mentor", "addr:state": "OH", "addr:postcode": "44060", "addr:country": "US", "phone": "(440) 974-2486", "website": "https://www.ollies.us/locations/8435-market-st-mentor-oh/", "opening_hours": "Su 09:00-05:00"}, "geometry": {"type": "Point", "coordinates": [-81.3380565, 41.6891292]}},
{"type": "Feature", "id": "G2a69VmYPL6_G2nEmadf8Ng3SaY=", "properties": {"ref": "156", "@spider": "ollies_bargain_outlet", "addr:full": "385 Boardman Canfield Road", "addr:city": "Youngstown", "addr:state": "OH", "addr:postcode": "44512", "addr:country": "US", "phone": "(330) 629-2476", "website": "https://www.ollies.us/locations/385-boardman-canfield-road-youngstown-oh/", "opening_hours": "Su 09:00-05:00"}, "geometry": {"type": "Point", "coordinates": [-80.673684, 41.023547]}},
{"type": "Feature", "id": "jcyp5GoRKtCHIho8LEDUDvgdsGc=", "properties": {"ref": "55", "@spider": "ollies_bargain_outlet", "addr:full": "2255 S Main St", "addr:city": "Harrisonburg", "addr:state": "VA", "addr:postcode": "22801", "addr:country": "US", "phone": "(540) 433-3900", "website": "https://www.ollies.us/locations/2255-s-main-st-harrisonburg-va/", "opening_hours": "Su 09:00-05:00"}, "geometry": {"type": "Point", "coordinates": [-78.8950198, 38.4224697]}},
{"type": "Feature", "id": "fPgZdk0B6xU9L3_ULkHKmcdARbs=", "properties": {"ref": "135", "@spider": "ollies_bargain_outlet", "addr:full": "760 Beaver Valley Mall", "addr:city": "Monaca", "addr:state": "PA", "addr:postcode": "15061", "addr:country": "US", "phone": "(724) 709-7551", "website": "https://www.ollies.us/locations/760-beaver-valley-mall-monaca-pa/", "opening_hours": "Su 09:00-05:00"}, "geometry": {"type": "Point", "coordinates": [-80.3155153, 40.6707861]}},
{"type": "Feature", "id": "NFPALEKPQBZCQfCBck43sYG-Dt0=", "properties": {"ref": "81", "@spider": "ollies_bargain_outlet", "addr:full": "5555 Youngstown-Warren Road", "addr:city": "Niles", "addr:state": "OH", "addr:postcode": "44446", "addr:country": "US", "phone": "(330) 299-0004", "website": "https://www.ollies.us/locations/5555-youngstown-warren-road-niles-oh/", "opening_hours": "Su 09:00-05:00"}, "geometry": {"type": "Point", "coordinates": [-80.7499083, 41.213599]}},
{"type": "Feature", "id": "8eXYgdfxZhIOoRhZ_oyBuNvkIOI=", "properties": {"ref": "34", "@spider": "ollies_bargain_outlet", "addr:full": "609 Pittsburgh Road", "addr:city": "Uniontown", "addr:state": "PA", "addr:postcode": "15401", "addr:country": "US", "phone": "(724) 425-9600", "website": "https://www.ollies.us/locations/609-pittsburgh-road-uniontown-pa/", "opening_hours": "Su 09:00-05:00"}, "geometry": {"type": "Point", "coordinates": [-79.7290327, 39.9246292]}},
{"type": "Feature", "id": "T3JpgepoFp0JzmBaXg7uh4vjh0s=", "properties": {"ref": "38", "@spider": "ollies_bargain_outlet", "addr:full": "430 Tri-County Lane", "addr:city": "Belle Vernon", "addr:state": "PA", "addr:postcode": "15012", "addr:country": "US", "phone": "(724) 930-9840", "website": "https://www.ollies.us/locations/430-tri-county-lane-belle-vernon-pa/", "opening_hours": "Su 09:00-05:00"}, "geometry": {"type": "Point", "coordinates": [-79.841152, 40.1373732]}},
{"type": "Feature", "id": "IEzE3aj-Ny0QjeM7Ng8rigDUcGw=", "properties": {"ref": "346", "@spider": "ollies_bargain_outlet", "addr:full": "1247 24th Street", "addr:city": "Port Huron", "addr:state": "MI", "addr:postcode": "48060", "addr:country": "US", "phone": "(810) 662-3915", "website": "https://www.ollies.us/locations/1247-24th-street-port-huron-mi/", "opening_hours": "Su 09:00-05:00"}, "geometry": {"type": "Point", "coordinates": [-82.454808, 42.969965]}},
{"type": "Feature", "id": "9FUgkSDoXkUBFMUaPbO7EmjwJV0=", "properties": {"ref": "297", "@spider": "ollies_bargain_outlet", "addr:full": "4505 Century Dr.", "addr:city": "West Mifflin", "addr:state": "PA", "addr:postcode": "15122", "addr:country": "US", "phone": "(412) 655-4383", "website": "https://www.ollies.us/locations/4505-century-dr-west-mifflin-pa/", "opening_hours": "Su 09:00-05:00"}, "geometry": {"type": "Point", "coordinates": [-79.943808, 40.343048]}},
{"type": "Feature", "id": "qNL773MmuiDqr1tTdPOIHalhsAw=", "properties": {"ref": "84", "@spider": "ollies_bargain_outlet", "addr:full": "1230 N Wesleyan Blvd", "addr:city": "Rocky Mount", "addr:state": "NC", "addr:postcode": "27804", "addr:country": "US", "phone": "(252) 467-1056", "website": "https://www.ollies.us/locations/1230-n-wesleyan-blvd-rocky-mount-nc/", "opening_hours": "Su 09:00-05:00"}, "geometry": {"type": "Point", "coordinates": [-77.8013946, 35.9763598]}},
{"type": "Feature", "id": "qI8GHD9sloYVc3FoSQHbLUJui_A=", "properties": {"ref": "244", "@spider": "ollies_bargain_outlet", "addr:full": "4201 Walnut Street", "addr:city": "McKeesport", "addr:state": "PA", "addr:postcode": "15132", "addr:country": "US", "phone": "(412) 896-9564", "website": "https://www.ollies.us/locations/4201-walnut-street-mckeesport-pa/", "opening_hours": "Su 09:00-05:00"}, "geometry": {"type": "Point", "coordinates": [-79.836647, 40.322246]}},
{"type": "Feature", "id": "F-a6ym3etTVRgIdDcX4XnAyHklc=", "properties": {"ref": "407", "@spider": "ollies_bargain_outlet", "addr:full": "880 Butler Street", "addr:city": "Pittsburgh", "addr:state": "PA", "addr:postcode": "15223", "addr:country": "US", "phone": "(412) 775-0059", "website": "https://www.ollies.us/locations/880-butler-street-pittsburgh-pa/", "opening_hours": "Su 09:00-05:00"}, "geometry": {"type": "Point", "coordinates": [-79.94408051, 40.51210962]}},
{"type": "Feature", "id": "RgjeM8gELsgr-YyLixJzfLB8sBs=", "properties": {"ref": "340", "@spider": "ollies_bargain_outlet", "addr:full": "1126 Henderson Drive", "addr:city": "Jacksonville", "addr:state": "NC", "addr:postcode": "28540", "addr:country": "US", "phone": "(910) 939-5296", "website": "https://www.ollies.us/locations/1126-henderson-drive-jacksonville-nc/", "opening_hours": "Su 09:00-05:00"}, "geometry": {"type": "Point", "coordinates": [-77.422991, 34.782942]}},
{"type": "Feature", "id": "ZrRfL_CdiJbGlIjp6VwF4eiHYo0=", "properties": {"ref": "33", "@spider": "ollies_bargain_outlet", "addr:full": "3306 Wilmington Road", "addr:city": "New Castle", "addr:state": "PA", "addr:postcode": "16105", "addr:country": "US", "phone": "(724) 658-2652", "website": "https://www.ollies.us/locations/3306-wilmington-road-new-castle-pa/", "opening_hours": "Su 09:00-05:00"}, "geometry": {"type": "Point", "coordinates": [-80.3556698, 41.0561897]}},
{"type": "Feature", "id": "UCyqQaEBPO0gKn76f4dGqGeBgBs=", "properties": {"ref": "382", "@spider": "ollies_bargain_outlet", "addr:full": "2301 E State Street", "addr:city": "Hermitage", "addr:state": "PA", "addr:postcode": "16148", "addr:country": "US", "phone": "(724) 551-0544", "website": "https://www.ollies.us/locations/2301-e-state-street-hermitage-pa/", "opening_hours": "Su 09:00-05:00"}, "geometry": {"type": "Point", "coordinates": [-80.467109, 41.234904]}},
{"type": "Feature", "id": "ZcPM_RaAmwq0XWZi1RMXZs9lFUg=", "properties": {"ref": "264", "@spider": "ollies_bargain_outlet", "addr:full": "3700 William Penn Highway", "addr:city": "Monroeville", "addr:state": "PA", "addr:postcode": "15146", "addr:country": "US", "phone": "(412) 646-5539", "website": "https://www.ollies.us/locations/3700-william-penn-highway-monroeville-pa/", "opening_hours": "Su 09:00-05:00"}, "geometry": {"type": "Point", "coordinates": [-79.789144, 40.434884]}},
{"type": "Feature", "id": "3FegGxAXr9b-b3SooX07boVaUUo=", "properties": {"ref": "447", "@spider": "ollies_bargain_outlet", "addr:full": "306 Country Side Plaza", "addr:city": "Mt Pleasant", "addr:state": "PA", "addr:postcode": "15666", "addr:country": "US", "phone": "(724) 204-8248", "website": "https://www.ollies.us/locations/306-country-side-plaza-mt-pleasant-pa/", "opening_hours": "Su 09:00-05:00"}, "geometry": {"type": "Point", "coordinates": [-79.55193, 40.12734]}},
{"type": "Feature", "id": "M8V6sQ2WxLths0K8PtcMKUQvaPU=", "properties": {"ref": "252", "@spider": "ollies_bargain_outlet", "addr:full": "1346 Julian R Allsbrook Highway", "addr:city": "Roanoke Rapids", "addr:state": "NC", "addr:postcode": "27870", "addr:country": "US", "phone": "(252) 533-0143", "website": "https://www.ollies.us/locations/1346-julian-r-allsbrook-highway-roanoke-rapids-nc/", "opening_hours": "Su 09:00-05:00"}, "geometry": {"type": "Point", "coordinates": [-77.639496, 36.434654]}},
{"type": "Feature", "id": "klyTPTh153RjVe1-OckeCQIIP7A=", "properties": {"ref": "29", "@spider": "ollies_bargain_outlet", "addr:full": "660 E Pittsburgh St", "addr:city": "Greensburg", "addr:state": "PA", "addr:postcode": "15601", "addr:country": "US", "phone": "(724) 853-1880", "website": "https://www.ollies.us/locations/660-e-pittsburgh-st-greensburg-pa/", "opening_hours": "Su 09:00-05:00"}, "geometry": {"type": "Point", "coordinates": [-79.5292983, 40.3014269]}},
{"type": "Feature", "id": "3CldNUOU5y8U3z-JOONZctyYEK8=", "properties": {"ref": "30", "@spider": "ollies_bargain_outlet", "addr:full": "602 Moraine Pointe Plaza", "addr:city": "Butler", "addr:state": "PA", "addr:postcode": "16001", "addr:country": "US", "phone": "(724) 283-8188", "website": "https://www.ollies.us/locations/602-moraine-pointe-plaza-butler-pa/", "opening_hours": "Su 09:00-05:00"}, "geometry": {"type": "Point", "coordinates": [-79.9519056, 40.8746832]}},
{"type": "Feature", "id": "JjFPjTnhReq5KfaU6FtGst5x9Fw=", "properties": {"ref": "91", "@spider": "ollies_bargain_outlet", "addr:full": "3105 E 10th St", "addr:city": "Greenville", "addr:state": "NC", "addr:postcode": "27858", "addr:country": "US", "phone": "(252) 695-9075", "website": "https://www.ollies.us/locations/3105-e-10th-st-greenville-nc/", "opening_hours": "Su 09:00-05:00"}, "geometry": {"type": "Point", "coordinates": [-77.3332226, 35.6006254]}},
{"type": "Feature", "id": "r_nz2vqjfXu13_r2DBlCTlsiS1M=", "properties": {"ref": "197", "@spider": "ollies_bargain_outlet", "addr:full": "3334 Dr Martin Luther King Jr Blvd", "addr:city": "New Bern", "addr:state": "NC", "addr:postcode": "28562", "addr:country": "US", "phone": "(252) 635-0038", "website": "https://www.ollies.us/locations/3334-dr-martin-luther-king-jr-blvd-new-bern-nc/", "opening_hours": "Su 09:00-05:00"}, "geometry": {"type": "Point", "coordinates": [-77.09476072, 35.09997327]}},
{"type": "Feature", "id": "XPnWb-QYm0eSvwLM-4BuZ9glxTY=", "properties": {"ref": "25", "@spider": "ollies_bargain_outlet", "addr:full": "1313 National Hwy", "addr:city": "Lavale", "addr:state": "MD", "addr:postcode": "21502", "addr:country": "US", "phone": "(301) 729-6285", "website": "https://www.ollies.us/locations/1313-national-hwy-lavale-md/", "opening_hours": "Su 09:00-05:00"}, "geometry": {"type": "Point", "coordinates": [-78.8484256, 39.6386537]}},
{"type": "Feature", "id": "3iuJaBn6BWF2U4kud6Wfmgb_8WU=", "properties": {"ref": "65", "@spider": "ollies_bargain_outlet", "addr:full": "9125 West Broad Street", "addr:city": "Richmond", "addr:state": "VA", "addr:postcode": "23294", "addr:country": "US", "phone": "(804) 754-4102", "website": "https://www.ollies.us/locations/9125-west-broad-street-richmond-va/", "opening_hours": "Su 09:00-05:00"}, "geometry": {"type": "Point", "coordinates": [-77.552242, 37.634907]}},
{"type": "Feature", "id": "ZExvBVAhPzi3QDoMOZFlmZAhkkg=", "properties": {"ref": "58", "@spider": "ollies_bargain_outlet", "addr:full": "3950 Meadowdale Blvd", "addr:city": "Richmond", "addr:state": "VA", "addr:postcode": "23234", "addr:country": "US", "phone": "(804) 279-0314", "website": "https://www.ollies.us/locations/3950-meadowdale-blvd-richmond-va/", "opening_hours": "Su 09:00-05:00"}, "geometry": {"type": "Point", "coordinates": [-77.468809, 37.4386964]}},
{"type": "Feature", "id": "xH3tP6yIw45gw8GULDr7FC6Qxik=", "properties": {"ref": "32", "@spider": "ollies_bargain_outlet", "addr:full": "1570 Oakland Ave", "addr:city": "Indiana", "addr:state": "PA", "addr:postcode": "15701", "addr:country": "US", "phone": "(724) 349-1042", "website": "https://www.ollies.us/locations/1570-oakland-ave-indiana-pa/", "opening_hours": "Su 09:00-05:00"}, "geometry": {"type": "Point", "coordinates": [-79.1733988, 40.6164293]}},
{"type": "Feature", "id": "HBt7qMgBwND6SbgUr5knvdqy1jE=", "properties": {"ref": "41", "@spider": "ollies_bargain_outlet", "addr:full": "6945 U.S. 322", "addr:city": "Cranberry", "addr:state": "PA", "addr:postcode": "16319", "addr:country": "US", "phone": "(814) 677-0834", "website": "https://www.ollies.us/locations/6945-u-s-322-cranberry-pa/", "opening_hours": "Su 09:00-05:00"}, "geometry": {"type": "Point", "coordinates": [-79.7161847, 41.353271]}},
{"type": "Feature", "id": "2MT9SwpBVQ9nLJfhelwkVxnq9XQ=", "properties": {"ref": "27", "@spider": "ollies_bargain_outlet", "addr:full": "1513 Scalp Ave", "addr:city": "Johnstown", "addr:state": "PA", "addr:postcode": "15904", "addr:country": "US", "phone": "(814) 262-7007", "website": "https://www.ollies.us/locations/1513-scalp-ave-johnstown-pa/", "opening_hours": "Su 09:00-05:00"}, "geometry": {"type": "Point", "coordinates": [-78.8554486, 40.2686205]}},
{"type": "Feature", "id": "hR3VIKZWbITMYR1izXkX6oggrDk=", "properties": {"ref": "124", "@spider": "ollies_bargain_outlet", "addr:full": "5061 Jefferson Davis Hwy", "addr:city": "Fredericksburg", "addr:state": "VA", "addr:postcode": "22408", "addr:country": "US", "phone": "(540) 898-5251", "website": "https://www.ollies.us/locations/5061-jefferson-davis-hwy-fredericksburg-va/", "opening_hours": "Su 09:00-05:00"}, "geometry": {"type": "Point", "coordinates": [-77.4993881, 38.2564884]}},
{"type": "Feature", "id": "HgiV5laDjRHzaVex2QAG-gcZCxE=", "properties": {"ref": "270", "@spider": "ollies_bargain_outlet", "addr:full": "8351 Sudley Road", "addr:city": "Manassas", "addr:state": "VA", "addr:postcode": "20109", "addr:country": "US", "phone": "(571) 292-1797", "website": "https://www.ollies.us/locations/8351-sudley-road-manassas-va/", "opening_hours": "Su 09:00-05:00"}, "geometry": {"type": "Point", "coordinates": [-77.500887, 38.775613]}},
{"type": "Feature", "id": "1qj60I_fRCfYvn3U65rlRfcifUs=", "properties": {"ref": "31", "@spider": "ollies_bargain_outlet", "addr:full": "1264 Old Route 220 N", "addr:city": "Duncansville", "addr:state": "PA", "addr:postcode": "16635", "addr:country": "US", "phone": "(814) 693-0592", "website": "https://www.ollies.us/locations/1264-old-route-220-n-duncansville-pa/", "opening_hours": "Su 09:00-05:00"}, "geometry": {"type": "Point", "coordinates": [-78.4144906, 40.4351962]}},
{"type": "Feature", "id": "8tUuRaHtlKkovD5rtN76AanpGHo=", "properties": {"ref": "440", "@spider": "ollies_bargain_outlet", "addr:full": "118-B Waller Mill Road", "addr:city": "Williamsburg", "addr:state": "VA", "addr:postcode": "23185", "addr:country": "US", "phone": "(757) 703-0438", "website": "https://www.ollies.us/locations/118-b-waller-mill-road-williamsburg-va/", "opening_hours": "Su 09:00-05:00"}, "geometry": {"type": "Point", "coordinates": [-76.71812, 37.28837]}},
{"type": "Feature", "id": "uG8Y_G2s_bjxuhhtWhYxFUtkurM=", "properties": {"ref": "22", "@spider": "ollies_bargain_outlet", "addr:full": "1730 Valley Mall Road", "addr:city": "Hagerstown", "addr:state": "MD", "addr:postcode": "21740", "addr:country": "US", "phone": "(301) 393-8066", "website": "https://www.ollies.us/locations/1730-valley-mall-road-hagerstown-md/", "opening_hours": "Su 09:00-05:00"}, "geometry": {"type": "Point", "coordinates": [-77.77251932, 39.62719568]}},
{"type": "Feature", "id": "QTVf-9C6HKMtgTh_K3xzAT5zXPw=", "properties": {"ref": "320", "@spider": "ollies_bargain_outlet", "addr:full": "21300 Signal Hill Plaza", "addr:city": "Sterling", "addr:state": "VA", "addr:postcode": "20164", "addr:country": "US", "phone": "(703) 430-2134", "website": "https://www.ollies.us/locations/21300-signal-hill-plaza-sterling-va/", "opening_hours": "Su 09:00-05:00"}, "geometry": {"type": "Point", "coordinates": [-77.38954, 39.02612]}},
{"type": "Feature", "id": "el1HZSA0w0y3vEiqEeB9GLviXRw=", "properties": {"ref": "61", "@spider": "ollies_bargain_outlet", "addr:full": "1831 W Ehringhaus St", "addr:city": "Elizabeth City", "addr:state": "NC", "addr:postcode": "27909", "addr:country": "US", "phone": "(252) 337-7877", "website": "https://www.ollies.us/locations/1831-w-ehringhaus-st-elizabeth-city-nc/", "opening_hours": "Su 09:00-05:00"}, "geometry": {"type": "Point", "coordinates": [-76.2499221, 36.2904661]}},
{"type": "Feature", "id": "VnhXEZyXW1Eat1LLXFKp7JdH0Cg=", "properties": {"ref": "285", "@spider": "ollies_bargain_outlet", "addr:full": "4000 Market Street", "addr:city": "Warren", "addr:state": "PA", "addr:postcode": "16365", "addr:country": "US", "phone": "(814) 723-2958", "website": "https://www.ollies.us/locations/4000-market-street-warren-pa/", "opening_hours": "Su 09:00-05:00"}, "geometry": {"type": "Point", "coordinates": [-79.147633, 41.89772]}},
{"type": "Feature", "id": "vKd3-RyZStoAZz1iryvj8w2-UfI=", "properties": {"ref": "435", "@spider": "ollies_bargain_outlet", "addr:full": "318 E Fairmont Ave.", "addr:city": "Lakewood", "addr:state": "NY", "addr:postcode": "14750", "addr:country": "US", "phone": "(716) 526-0344", "website": "https://www.ollies.us/locations/318-e-fairmont-ave-lakewood-ny/", "opening_hours": "Mo-Sa 09:00-09:00; Su 10:00-07:00"}, "geometry": {"type": "Point", "coordinates": [-79.30416, 42.09763]}},
{"type": "Feature", "id": "yQDDVdb4bqA02qn5rHmJfColvPo=", "properties": {"ref": "23", "@spider": "ollies_bargain_outlet", "addr:full": "1003 West Patrick St. ", "addr:city": "Frederick", "addr:state": "MD", "addr:postcode": "21702", "addr:country": "US", "phone": "(240) 379-7801", "website": "https://www.ollies.us/locations/1003-west-patrick-st-frederick-md/", "opening_hours": "Mo-Sa 09:00-09:00; Su 10:00-07:00"}, "geometry": {"type": "Point", "coordinates": [-77.4418362046, 39.4183816426]}},
{"type": "Feature", "id": "Fb4WDMyjmPybJmsJ2tPsw8l4wvc=", "properties": {"ref": "321", "@spider": "ollies_bargain_outlet", "addr:full": "655 East Jubal Early Drive", "addr:city": "Winchester", "addr:state": "VA", "addr:postcode": "22601", "addr:country": "US", "phone": "(540) 486-4639", "website": "https://www.ollies.us/locations/655-east-jubal-early-drive-winchester-va/", "opening_hours": "Su 09:00-05:00"}, "geometry": {"type": "Point", "coordinates": [-78.162525, 39.164229]}},
{"type": "Feature", "id": "V6xQE0THY57n5TH9T8vcCgpPAI0=", "properties": {"ref": "302", "@spider": "ollies_bargain_outlet", "addr:full": "1532-B Memorial Drive East", "addr:city": "Ahoskie", "addr:state": "NC", "addr:postcode": "27910", "addr:country": "US", "phone": "(252) 332-1600", "website": "https://www.ollies.us/locations/1532-b-memorial-drive-east-ahoskie-nc/", "opening_hours": "Su 09:00-05:00"}, "geometry": {"type": "Point", "coordinates": [-76.972138, 36.270701]}},
{"type": "Feature", "id": "hYouTrP59RzqosD67z5al_WKwaA=", "properties": {"ref": "45", "@spider": "ollies_bargain_outlet", "addr:full": "2072 Interchange Road", "addr:city": "Erie", "addr:state": "PA", "addr:postcode": "16565", "addr:country": "US", "phone": "(814) 864-1444", "website": "https://www.ollies.us/locations/2072-interchange-road-erie-pa/", "opening_hours": "Su 09:00-05:00"}, "geometry": {"type": "Point", "coordinates": [-80.1007613, 42.0661553]}},
{"type": "Feature", "id": "KVmeXxOzuaPCRugp9ofgqsH8J3c=", "properties": {"ref": "48", "@spider": "ollies_bargain_outlet", "addr:full": "4019 West Mercury Boulevard", "addr:city": "Hampton", "addr:state": "VA", "addr:postcode": "23666", "addr:country": "US", "phone": "(757) 224-3100", "website": "https://www.ollies.us/locations/4019-west-mercury-boulevard-hampton-va/", "opening_hours": "Su 09:00-05:00"}, "geometry": {"type": "Point", "coordinates": [-76.4233328, 37.0281386]}},
{"type": "Feature", "id": "U6eXrW5LHHYYGYk0CInuYQdpqjw=", "properties": {"ref": "40", "@spider": "ollies_bargain_outlet", "addr:full": "1800 Daisy St", "addr:city": "Clearfield", "addr:state": "PA", "addr:postcode": "16830", "addr:country": "US", "phone": "(814) 768-9510", "website": "https://www.ollies.us/locations/1800-daisy-st-clearfield-pa/", "opening_hours": "Su 09:00-05:00"}, "geometry": {"type": "Point", "coordinates": [-78.41364, 41.0234598]}},
{"type": "Feature", "id": "0Yx0MC0WRvEX2YgkH8mYM42e83o=", "properties": {"ref": "60", "@spider": "ollies_bargain_outlet", "addr:full": "6513 Market Dr", "addr:city": "Gloucester", "addr:state": "VA", "addr:postcode": "23061", "addr:country": "US", "phone": "(804) 695-0490", "website": "https://www.ollies.us/locations/6513-market-dr-gloucester-va/", "opening_hours": "Su 09:00-05:00"}, "geometry": {"type": "Point", "coordinates": [-76.5277741, 37.3907993]}},
{"type": "Feature", "id": "ZjLt4sIfxVr_lbwzRdkMuAxxCc4=", "properties": {"ref": "64", "@spider": "ollies_bargain_outlet", "addr:full": "1320 Lincoln Way East", "addr:city": "Chambersburg", "addr:state": "PA", "addr:postcode": "17202", "addr:country": "US", "phone": "(717) 264-1251", "website": "https://www.ollies.us/locations/1320-lincoln-way-east-chambersburg-pa/", "opening_hours": "Su 09:00-05:00"}, "geometry": {"type": "Point", "coordinates": [-77.6311868, 39.9256864]}},
{"type": "Feature", "id": "NHTBoO0pZfMLQaBy-9Q0UG1vW2o=", "properties": {"ref": "47", "@spider": "ollies_bargain_outlet", "addr:full": "5957 E Virginia Beach Blvd", "addr:city": "Norfolk", "addr:state": "VA", "addr:postcode": "23502", "addr:country": "US", "phone": "(757) 416-7706", "website": "https://www.ollies.us/locations/5957-e-virginia-beach-blvd-norfolk-va/", "opening_hours": "Su 09:00-05:00"}, "geometry": {"type": "Point", "coordinates": [-76.202006, 36.8544865]}},
{"type": "Feature", "id": "pinguMmCnBwugOHJEP4ZmAopcn4=", "properties": {"ref": "226", "@spider": "ollies_bargain_outlet", "addr:full": "1170 Central Avenue", "addr:city": "Dunkirk", "addr:state": "NY", "addr:postcode": "14048", "addr:country": "US", "phone": "(716) 366-1706", "website": "https://www.ollies.us/locations/1170-central-avenue-dunkirk-ny/", "opening_hours": "Su 09:00-05:00"}, "geometry": {"type": "Point", "coordinates": [-79.3300314, 42.4579482]}},
{"type": "Feature", "id": "8G-m9pjvgDVQNSMDdyZHKQmJOnc=", "properties": {"ref": "46", "@spider": "ollies_bargain_outlet", "addr:full": "1944 Laskin Rd", "addr:city": "Virginia Beach", "addr:state": "VA", "addr:postcode": "23454", "addr:country": "US", "phone": "(757) 428-8104", "website": "https://www.ollies.us/locations/1944-laskin-rd-virginia-beach-va/", "opening_hours": "Su 09:00-05:00"}, "geometry": {"type": "Point", "coordinates": [-76.0373351, 36.8495648]}},
{"type": "Feature", "id": "JMxeb7T5f0tewRnuRTqnv4pfIbE=", "properties": {"ref": "43", "@spider": "ollies_bargain_outlet", "addr:full": "1919 South Atherton Street", "addr:city": "State College", "addr:state": "PA", "addr:postcode": "16801", "addr:country": "US", "phone": "(814) 272-1250", "website": "https://www.ollies.us/locations/1919-south-atherton-street-state-college-pa/", "opening_hours": "Su 09:00-05:00"}, "geometry": {"type": "Point", "coordinates": [-77.8331151, 40.7864682]}},
{"type": "Feature", "id": "hGQnuPVr7GiUqJslY2sv7hwcH0Q=", "properties": {"ref": "122", "@spider": "ollies_bargain_outlet", "addr:full": "21600 Great Mills Rd #18", "addr:city": "Lexington Park", "addr:state": "MD", "addr:postcode": "20653", "addr:country": "US", "phone": "(301) 737-6471", "website": "https://www.ollies.us/locations/21600-great-mills-rd-18-lexington-park-md/", "opening_hours": "Su 09:00-05:00"}, "geometry": {"type": "Point", "coordinates": [-76.4658989, 38.260013]}},
{"type": "Feature", "id": "FX1PqvS8-619F0fSPssCOxJX8M4=", "properties": {"ref": "76", "@spider": "ollies_bargain_outlet", "addr:full": "7351 Assateague Drive", "addr:city": "Jessup", "addr:state": "MD", "addr:postcode": "20794", "addr:country": "US", "phone": "(410) 799-5820", "website": "https://www.ollies.us/locations/7351-assateague-drive-jessup-md/", "opening_hours": "Su 09:00-05:00"}, "geometry": {"type": "Point", "coordinates": [-76.7859394, 39.1695021]}},
{"type": "Feature", "id": "F8C6uXcs7_avfZ7pXawHo9mQb60=", "properties": {"ref": "17", "@spider": "ollies_bargain_outlet", "addr:full": "211 N Logan Blvd", "addr:city": "Burnham", "addr:state": "PA", "addr:postcode": "17009", "addr:country": "US", "phone": "(717) 248-4900", "website": "https://www.ollies.us/locations/211-n-logan-blvd-burnham-pa/", "opening_hours": "Su 09:00-05:00"}, "geometry": {"type": "Point", "coordinates": [-77.5682628, 40.6314672]}},
{"type": "Feature", "id": "lFFtCqHLefmWXR-f7jJAqzBvvlM=", "properties": {"ref": "21", "@spider": "ollies_bargain_outlet", "addr:full": "1019 Baltimore St", "addr:city": "Hanover", "addr:state": "PA", "addr:postcode": "17331", "addr:country": "US", "phone": "(717) 646-1600", "website": "https://www.ollies.us/locations/1019-baltimore-st-hanover-pa/", "opening_hours": "Su 09:00-05:00"}, "geometry": {"type": "Point", "coordinates": [-76.9650285, 39.7801848]}},
{"type": "Feature", "id": "nTKpEu2oH6PCDCgHUQdFvMIVNKc=", "properties": {"ref": "333", "@spider": "ollies_bargain_outlet", "addr:full": "2801 W State Street", "addr:city": "Olean", "addr:state": "NY", "addr:postcode": "14760", "addr:country": "US", "phone": "(716) 379-8261", "website": "https://www.ollies.us/locations/2801-w-state-street-olean-ny/", "opening_hours": "Su 09:00-05:00"}, "geometry": {"type": "Point", "coordinates": [-78.462701, 42.074326]}},
{"type": "Feature", "id": "D8bT6Oyj30IFYIX9axlvv_BjFPk=", "properties": {"ref": "62", "@spider": "ollies_bargain_outlet", "addr:full": "4586 George Washington Hwy", "addr:city": "Portsmouth", "addr:state": "VA", "addr:postcode": "23702", "addr:country": "US", "phone": "(757) 485-7331", "website": "https://www.ollies.us/locations/4586-george-washington-hwy-portsmouth-va/", "opening_hours": "Su 09:00-05:00"}, "geometry": {"type": "Point", "coordinates": [-76.3271756, 36.7992355]}},
{"type": "Feature", "id": "1HsRBMc-CKxPkeeF7AS_RR2Iflk=", "properties": {"ref": "419", "@spider": "ollies_bargain_outlet", "addr:full": "7561 Huntingdon Plaza", "addr:city": "Huntingdon", "addr:state": "PA", "addr:postcode": "16652", "addr:country": "US", "phone": "(814) 506-0293", "website": "https://www.ollies.us/locations/7561-huntingdon-plaza-huntingdon-pa/", "opening_hours": "Su 09:00-05:00"}, "geometry": {"type": "Point", "coordinates": [-78.01361789, 40.48132769]}},
{"type": "Feature", "id": "D9IpvXfS0aRaqvpa0P9sjIrJpHw=", "properties": {"ref": "307", "@spider": "ollies_bargain_outlet", "addr:full": "6711 Ritchie Highway", "addr:city": "Glen Burnie", "addr:state": "MD", "addr:postcode": "21061", "addr:country": "US", "phone": "(410) 595-6935", "website": "https://www.ollies.us/locations/6711-ritchie-highway-glen-burnie-md/", "opening_hours": "Su 09:00-05:00"}, "geometry": {"type": "Point", "coordinates": [-76.61061, 39.192626]}},
{"type": "Feature", "id": "ZKbmonv064F1YLxOKIQzi93LaD8=", "properties": {"ref": "323", "@spider": "ollies_bargain_outlet", "addr:full": "1238 Putty Hill Avenue", "addr:city": "Towson", "addr:state": "MD", "addr:postcode": "21286", "addr:country": "US", "phone": "(410) 583-2370", "website": "https://www.ollies.us/locations/1238-putty-hill-avenue-towson-md/", "opening_hours": "Su 09:00-05:00"}, "geometry": {"type": "Point", "coordinates": [-76.580469, 39.39373]}},
{"type": "Feature", "id": "cFx4S6s3wtj8L5qkrtXRCWmoNks=", "properties": {"ref": "2", "@spider": "ollies_bargain_outlet", "addr:full": "1403 Merritt Boulevard", "addr:city": "Dundalk", "addr:state": "MD", "addr:postcode": "21222", "addr:country": "US", "phone": "(410) 284-8830", "website": "https://www.ollies.us/locations/1403-merritt-boulevard-dundalk-md/", "opening_hours": "Su 09:00-05:00"}, "geometry": {"type": "Point", "coordinates": [-76.5029828, 39.277254]}},
{"type": "Feature", "id": "YwtWZWL2XDGW6nyV_d7ZtkRsDtU=", "properties": {"ref": "67", "@spider": "ollies_bargain_outlet", "addr:full": "6000 S Park Ave", "addr:city": "Hamburg", "addr:state": "NY", "addr:postcode": "14075", "addr:country": "US", "phone": "(716) 646-1735", "website": "https://www.ollies.us/locations/6000-s-park-ave-hamburg-ny/", "opening_hours": "Su 09:00-05:00"}, "geometry": {"type": "Point", "coordinates": [-78.8236757, 42.7327]}},
{"type": "Feature", "id": "kdZIOyTwsybrd_Euqc2DasN1B0k=", "properties": {"ref": "3", "@spider": "ollies_bargain_outlet", "addr:full": "5800 Carlisle Pike", "addr:city": "Mechanicsburg", "addr:state": "PA", "addr:postcode": "17050", "addr:country": "US", "phone": "(717) 766-6364", "website": "https://www.ollies.us/locations/5800-carlisle-pike-mechanicsburg-pa/", "opening_hours": "Su 09:00-05:00"}, "geometry": {"type": "Point", "coordinates": [-76.989791, 40.24185]}},
{"type": "Feature", "id": "nBR7CnARlKv28tR_z0mxnoSqr0A=", "properties": {"ref": "322", "@spider": "ollies_bargain_outlet", "addr:full": "8804 Pulaski Highway", "addr:city": "Baltimore", "addr:state": "MD", "addr:postcode": "21237", "addr:country": "US", "phone": "(410) 780-2688", "website": "https://www.ollies.us/locations/8804-pulaski-highway-baltimore-md/", "opening_hours": "Su 09:00-05:00"}, "geometry": {"type": "Point", "coordinates": [-76.480975, 39.338857]}},
{"type": "Feature", "id": "TOjYI18VvaxcoI-OT8so3XSQpYo=", "properties": {"ref": "294", "@spider": "ollies_bargain_outlet", "addr:full": "10 Millbrook Plaza", "addr:city": "Mill Hall", "addr:state": "PA", "addr:postcode": "17751", "addr:country": "US", "phone": "(570) 858-1465", "website": "https://www.ollies.us/locations/10-millbrook-plaza-mill-hall-pa/", "opening_hours": "Su 09:00-05:00"}, "geometry": {"type": "Point", "coordinates": [-77.477775, 41.117981]}},
{"type": "Feature", "id": "XJOiAorGGhBxkoM35BdvksV3Ucs=", "properties": {"ref": "35", "@spider": "ollies_bargain_outlet", "addr:full": "1776 Rodney Rd", "addr:city": "York", "addr:state": "PA", "addr:postcode": "17401", "addr:country": "US", "phone": "(717) 779-2212", "website": "https://www.ollies.us/locations/1776-rodney-rd-york-pa/", "opening_hours": "Su 09:00-05:00"}, "geometry": {"type": "Point", "coordinates": [-76.7680974, 39.9746253]}},
{"type": "Feature", "id": "GTPQEAt-u9Ah0Gijy9Cc2btXSIY=", "properties": {"ref": "83", "@spider": "ollies_bargain_outlet", "addr:full": "8460 Niagara Falls Blvd", "addr:city": "Niagara Falls", "addr:state": "NY", "addr:postcode": "14304", "addr:country": "US", "phone": "(716) 205-0023", "website": "https://www.ollies.us/locations/8460-niagara-falls-blvd-niagara-falls-ny/", "opening_hours": "Su 09:00-05:00"}, "geometry": {"type": "Point", "coordinates": [-78.967223, 43.0915903]}},
{"type": "Feature", "id": "5NZIwV195-MmyzjtMjO9u08yL7w=", "properties": {"ref": "5", "@spider": "ollies_bargain_outlet", "addr:full": "1081 Haines Road", "addr:city": "East York", "addr:state": "PA", "addr:postcode": "17402", "addr:country": "US", "phone": "(717) 755-3740", "website": "https://www.ollies.us/locations/1081-haines-road-east-york-pa/", "opening_hours": "Su 09:00-05:00"}, "geometry": {"type": "Point", "coordinates": [-76.6808756, 39.9595336]}},
{"type": "Feature", "id": "0Dd4OJscc2nfNIO7bkiWswxOd7E=", "properties": {"ref": "56", "@spider": "ollies_bargain_outlet", "addr:full": "2150 Walden Ave", "addr:city": "Cheektowaga", "addr:state": "NY", "addr:postcode": "14225", "addr:country": "US", "phone": "(716) 206-0968", "website": "https://www.ollies.us/locations/2150-walden-ave-cheektowaga-ny/", "opening_hours": "Su 09:00-05:00"}, "geometry": {"type": "Point", "coordinates": [-78.7562651, 42.9081415]}},
{"type": "Feature", "id": "XzzXDH1Ekr3WvRzGlBMQWWHcOKY=", "properties": {"ref": "4", "@spider": "ollies_bargain_outlet", "addr:full": "6295 Allentown Boulevard", "addr:city": "Harrisburg", "addr:state": "PA", "addr:postcode": "17112", "addr:country": "US", "phone": "(717) 657-8243", "website": "https://www.ollies.us/locations/6295-allentown-boulevard-harrisburg-pa/", "opening_hours": "Su 09:00-05:00"}, "geometry": {"type": "Point", "coordinates": [-76.78213, 40.323533]}},
{"type": "Feature", "id": "hhRZzg1KAIX9XdbEeiuOSgbTtEA=", "properties": {"ref": "12", "@spider": "ollies_bargain_outlet", "addr:full": "Aberdeen Shopping Plaza", "addr:city": "Aberdeen", "addr:state": "MD", "addr:postcode": "21001", "addr:country": "US", "phone": "(410) 273-0244", "website": "https://www.ollies.us/locations/aberdeen-shopping-plaza-aberdeen-md/", "opening_hours": "Su 09:00-05:00"}, "geometry": {"type": "Point", "coordinates": [-76.187632, 39.520865]}},
{"type": "Feature", "id": "Xb3nrxV5oiu2c7cVEz9H_R_LnI8=", "properties": {"ref": "16", "@spider": "ollies_bargain_outlet", "addr:full": "30 Baldwin Blvd #20", "addr:city": "Shamokin Dam", "addr:state": "PA", "addr:postcode": "17876", "addr:country": "US", "phone": "(570) 743-6246", "website": "https://www.ollies.us/locations/30-baldwin-blvd-20-shamokin-dam-pa/", "opening_hours": "Su 09:00-05:00"}, "geometry": {"type": "Point", "coordinates": [-76.815353, 40.854655]}},
{"type": "Feature", "id": "XhRgn--qCT0DnfxiUXUqlgKF4YE=", "properties": {"ref": "1", "@spider": "ollies_bargain_outlet", "addr:full": "880 Plaza Blvd", "addr:city": "Lancaster", "addr:state": "PA", "addr:postcode": "17601", "addr:country": "US", "phone": "(717) 399-9081", "website": "https://www.ollies.us/locations/880-plaza-blvd-lancaster-pa/", "opening_hours": "Su 09:00-05:00"}, "geometry": {"type": "Point", "coordinates": [-76.3443838, 40.0698489]}},
{"type": "Feature", "id": "k5IOLkKnjcYHvTsXaHCrxekdGGk=", "properties": {"ref": "36", "@spider": "ollies_bargain_outlet", "addr:full": "258 Tilghman Rd", "addr:city": "Salisbury", "addr:state": "MD", "addr:postcode": "21804", "addr:country": "US", "phone": "(443) 260-2394", "website": "https://www.ollies.us/locations/258-tilghman-rd-salisbury-md/", "opening_hours": "Su 09:00-05:00"}, "geometry": {"type": "Point", "coordinates": [-75.5507049, 38.3676352]}},
{"type": "Feature", "id": "FDj12-IbPrId84TK-6-qG93-O9Y=", "properties": {"ref": "205", "@spider": "ollies_bargain_outlet", "addr:full": "2090 Lincoln Highway E", "addr:city": "Lancaster", "addr:state": "PA", "addr:postcode": "17602", "addr:country": "US", "phone": "(717) 397-1813", "website": "https://www.ollies.us/locations/2090-lincoln-highway-e-lancaster-pa/", "opening_hours": "Su 09:00-05:00"}, "geometry": {"type": "Point", "coordinates": [-76.2374504, 40.029188]}},
{"type": "Feature", "id": "c52UyOe8oOT2qwyOD4sY2M3EGho=", "properties": {"ref": "336", "@spider": "ollies_bargain_outlet", "addr:full": "421 Lycoming Mall Circle", "addr:city": "Pennsdale", "addr:state": "PA", "addr:postcode": "17756", "addr:country": "US", "phone": "(570) 935-0588", "website": "https://www.ollies.us/locations/421-lycoming-mall-circle-pennsdale-pa/", "opening_hours": "Su 09:00-05:00"}, "geometry": {"type": "Point", "coordinates": [-76.825371, 41.243224]}},
{"type": "Feature", "id": "OCYpb6SDvG_mRAApGLjqeBCYQMg=", "properties": {"ref": "376", "@spider": "ollies_bargain_outlet", "addr:full": "161 Big Elk Mall", "addr:city": "Elkton", "addr:state": "MD", "addr:postcode": "21921", "addr:country": "US", "phone": "(443) 207-5909", "website": "https://www.ollies.us/locations/161-big-elk-mall-elkton-md/", "opening_hours": "Su 09:00-05:00"}, "geometry": {"type": "Point", "coordinates": [-75.822131, 39.599892]}},
{"type": "Feature", "id": "g-7YARNkgR7bZilSk96VrGip_ng=", "properties": {"ref": "26", "@spider": "ollies_bargain_outlet", "addr:full": "1726 South Governors Avenue", "addr:city": "Dover", "addr:state": "DE", "addr:postcode": "19901", "addr:country": "US", "phone": "(302) 741-2192", "website": "https://www.ollies.us/locations/1726-south-governors-avenue-dover-de/", "opening_hours": "Su 09:00-05:00"}, "geometry": {"type": "Point", "coordinates": [-75.5331492, 39.1257838]}},
{"type": "Feature", "id": "MIkYe-6mE93YwgHTegbM5pcGyKw=", "properties": {"ref": "39", "@spider": "ollies_bargain_outlet", "addr:full": "1544 Rte 61 Hwy S", "addr:city": "Pottsville", "addr:state": "PA", "addr:postcode": "17901", "addr:country": "US", "phone": "(570) 385-8230", "website": "https://www.ollies.us/locations/1544-rte-61-hwy-s-pottsville-pa/", "opening_hours": "Su 09:00-05:00"}, "geometry": {"type": "Point", "coordinates": [-76.1846105, 40.6407487]}},
{"type": "Feature", "id": "l1XoRlLWw7AK41KVyx7aeHFJE-c=", "properties": {"ref": "15", "@spider": "ollies_bargain_outlet", "addr:full": "2251 Lancaster Pike", "addr:city": "Reading", "addr:state": "PA", "addr:postcode": "19607", "addr:country": "US", "phone": "(610) 775-0500", "website": "https://www.ollies.us/locations/2251-lancaster-pike-reading-pa/", "opening_hours": "Su 09:00-05:00"}, "geometry": {"type": "Point", "coordinates": [-75.9796994, 40.3045769]}},
{"type": "Feature", "id": "nGhBqEchtHhL5h1DHhBOmfwUeSI=", "properties": {"ref": "125", "@spider": "ollies_bargain_outlet", "addr:full": "345 Scarlet Rd #3", "addr:city": "Kennett Square", "addr:state": "PA", "addr:postcode": "19348", "addr:country": "US", "phone": "(610) 925-4829", "website": "https://www.ollies.us/locations/345-scarlet-rd-3-kennett-square-pa/", "opening_hours": "Su 09:00-05:00"}, "geometry": {"type": "Point", "coordinates": [-75.7290209, 39.8410937]}},
{"type": "Feature", "id": "EsyxGE5PUPzuZ4eDlGyyVKXTgzg=", "properties": {"ref": "137", "@spider": "ollies_bargain_outlet", "addr:full": "3240 N 5th St Hwy", "addr:city": "Reading", "addr:state": "PA", "addr:postcode": "19605", "addr:country": "US", "phone": "(610) 921-3600", "website": "https://www.ollies.us/locations/3240-n-5th-st-hwy-reading-pa/", "opening_hours": "Su 09:00-05:00"}, "geometry": {"type": "Point", "coordinates": [-75.9274995, 40.3837916]}},
{"type": "Feature", "id": "BGXxnVaNl4l6X1X92zxpPOmtLDY=", "properties": {"ref": "57", "@spider": "ollies_bargain_outlet", "addr:full": "3150 W Henrietta Rd", "addr:city": "Henrietta", "addr:state": "NY", "addr:postcode": "14623", "addr:country": "US", "phone": "(585) 698-2955", "website": "https://www.ollies.us/locations/3150-w-henrietta-rd-henrietta-ny/", "opening_hours": "Su 09:00-05:00"}, "geometry": {"type": "Point", "coordinates": [-77.634054, 43.089225]}},
{"type": "Feature", "id": "TfR0sEaTo3E2PjsW1f-Y5SlKHQo=", "properties": {"ref": "59", "@spider": "ollies_bargain_outlet", "addr:full": "3160 W Ridge Rd", "addr:city": "Rochester", "addr:state": "NY", "addr:postcode": "14626", "addr:country": "US", "phone": "(585) 278-1351", "website": "https://www.ollies.us/locations/3160-w-ridge-rd-rochester-ny/", "opening_hours": "Su 09:00-05:00"}, "geometry": {"type": "Point", "coordinates": [-77.7147146, 43.2137906]}},
{"type": "Feature", "id": "QUMxTVI0GA6Pq6e0xYKQbhWITx8=", "properties": {"ref": "14", "@spider": "ollies_bargain_outlet", "addr:full": "203 Shoemaker Road", "addr:city": "Pottstown", "addr:state": "PA", "addr:postcode": "19464", "addr:country": "US", "phone": "(610) 323-1702", "website": "https://www.ollies.us/locations/203-shoemaker-road-pottstown-pa/", "opening_hours": "Su 09:00-05:00"}, "geometry": {"type": "Point", "coordinates": [-75.6606757, 40.2510847]}},
{"type": "Feature", "id": "6SHx2RPsAEdMdRbNnKSprceafL8=", "properties": {"ref": "439", "@spider": "ollies_bargain_outlet", "addr:full": "1020 Center Road", "addr:city": "Horseheads", "addr:state": "NY", "addr:postcode": "14845", "addr:country": "US", "phone": "(607) 317-5822", "website": "https://www.ollies.us/locations/1020-center-road-horseheads-ny/", "opening_hours": "Su 09:00-05:00"}, "geometry": {"type": "Point", "coordinates": [-76.82318, 42.15748]}},
{"type": "Feature", "id": "L0IVCX-0zZLKbwqM0e5kGPws2sQ=", "properties": {"ref": "335", "@spider": "ollies_bargain_outlet", "addr:full": "1154 West Baltimore Pike", "addr:city": "Media", "addr:state": "PA", "addr:postcode": "19063", "addr:country": "US", "phone": "(484) 445-2993", "website": "https://www.ollies.us/locations/1154-west-baltimore-pike-media-pa/", "opening_hours": "Su 09:00-05:00"}, "geometry": {"type": "Point", "coordinates": [-75.435124, 39.912755]}},
{"type": "Feature", "id": "S_bn4nm7VG6XitV6T0MSn-z4I6o=", "properties": {"ref": "284", "@spider": "ollies_bargain_outlet", "addr:full": "44 Cornwell Drive", "addr:city": "Bridgeton", "addr:state": "NJ", "addr:postcode": "8302", "addr:country": "US", "phone": "(856) 459-5700", "website": "https://www.ollies.us/locations/44-cornwell-drive-bridgeton-nj/", "opening_hours": "Su 09:00-05:00"}, "geometry": {"type": "Point", "coordinates": [-75.210863, 39.462631]}},
{"type": "Feature", "id": "d9uiPkDOSr7gYEgCWT2o5dGoqlc=", "properties": {"ref": "79", "@spider": "ollies_bargain_outlet", "addr:full": "1099 N Church St", "addr:city": "Hazle Township", "addr:state": "PA", "addr:postcode": "18202", "addr:country": "US", "phone": "(570) 455-7780", "website": "https://www.ollies.us/locations/1099-n-church-st-hazle-township-pa/", "opening_hours": "Su 09:00-05:00"}, "geometry": {"type": "Point", "coordinates": [-75.9780631, 40.9768497]}},
{"type": "Feature", "id": "kDn_fyOXIWZ2IuK0PNiHKoCPFDI=", "properties": {"ref": "415", "@spider": "ollies_bargain_outlet", "addr:full": "3225 State Route 364", "addr:city": "Canandaigua", "addr:state": "NY", "addr:postcode": "14424", "addr:country": "US", "phone": "(585) 337-0923", "website": "https://www.ollies.us/locations/3225-state-route-364-canandaigua-ny/", "opening_hours": "Mo-Sa 09:00-09:00; Su 10:00-07:00"}, "geometry": {"type": "Point", "coordinates": [-77.24998028, 42.87416824]}},
{"type": "Feature", "id": "zRgYuoCTm2u_soL4YNAx8etkv74=", "properties": {"ref": "334", "@spider": "ollies_bargain_outlet", "addr:full": "950 Ridge Road", "addr:city": "Webster", "addr:state": "NY", "addr:postcode": "14580", "addr:country": "US", "phone": "(585) 347-6713", "website": "https://www.ollies.us/locations/950-ridge-road-webster-ny/", "opening_hours": "Su 09:00-05:00"}, "geometry": {"type": "Point", "coordinates": [-77.465028, 43.210145]}},
{"type": "Feature", "id": "wcm6p20LHxybBWYVE3piRIDXyHY=", "properties": {"ref": "308", "@spider": "ollies_bargain_outlet", "addr:full": "3200 Ridge Pike", "addr:city": "Eagleville", "addr:state": "PA", "addr:postcode": "19403", "addr:country": "US", "phone": "(610) 539-6371", "website": "https://www.ollies.us/locations/3200-ridge-pike-eagleville-pa/", "opening_hours": "Su 09:00-05:00"}, "geometry": {"type": "Point", "coordinates": [-75.405756, 40.156449]}},
{"type": "Feature", "id": "tWH8XQAvqRX21BbUiq4fkQpMvsQ=", "properties": {"ref": "9", "@spider": "ollies_bargain_outlet", "addr:full": "4750 Tilghman St", "addr:city": "Allentown", "addr:state": "PA", "addr:postcode": "18104", "addr:country": "US", "phone": "(610) 366-9776", "website": "https://www.ollies.us/locations/4750-tilghman-st-allentown-pa/", "opening_hours": "Su 09:00-05:00"}, "geometry": {"type": "Point", "coordinates": [-75.5622965, 40.5884882]}},
{"type": "Feature", "id": "QTMN5azk08aNIFO1du4dpxzuXCc=", "properties": {"ref": "157", "@spider": "ollies_bargain_outlet", "addr:full": "1800 Clements Bridge Rd", "addr:city": "Deptford", "addr:state": "NJ", "addr:postcode": "8096", "addr:country": "US", "phone": "(856) 879-7978", "website": "https://www.ollies.us/locations/1800-clements-bridge-rd-deptford-nj/", "opening_hours": "Su 09:00-05:00"}, "geometry": {"type": "Point", "coordinates": [-75.0967309, 39.839329]}},
{"type": "Feature", "id": "lDKeK3ucWdfC1HuBqKz5dqSNYd8=", "properties": {"ref": "37", "@spider": "ollies_bargain_outlet", "addr:full": "675 Kidder St", "addr:city": "Wilkes-Barre", "addr:state": "PA", "addr:postcode": "18702", "addr:country": "US", "phone": "(570) 819-1460", "website": "https://www.ollies.us/locations/675-kidder-st-wilkes-barre-pa/", "opening_hours": "Su 09:00-05:00"}, "geometry": {"type": "Point", "coordinates": [-75.8486411, 41.2492251]}},
{"type": "Feature", "id": "kVPP3bx1GQt6f8RLlvHyUjQw8RU=", "properties": {"ref": "19", "@spider": "ollies_bargain_outlet", "addr:full": "721 S West End Blvd", "addr:city": "Quakertown", "addr:state": "PA", "addr:postcode": "18951", "addr:country": "US", "phone": "(215) 529-4500", "website": "https://www.ollies.us/locations/721-s-west-end-blvd-quakertown-pa/", "opening_hours": "Su 09:00-05:00"}, "geometry": {"type": "Point", "coordinates": [-75.347413, 40.425758]}},
{"type": "Feature", "id": "FFmdcFsnIM9h7p0GAeEnCZ9N2i4=", "properties": {"ref": "28", "@spider": "ollies_bargain_outlet", "addr:full": "1885 Catasauqua Road", "addr:city": "Allentown", "addr:state": "PA", "addr:postcode": "18109", "addr:country": "US", "phone": "(610) 264-3885", "website": "https://www.ollies.us/locations/1885-catasauqua-road-allentown-pa/", "opening_hours": "Su 09:00-05:00"}, "geometry": {"type": "Point", "coordinates": [-75.4292147, 40.639921]}},
{"type": "Feature", "id": "MMD9oVsqviMWXd2hXoMNJx-Cxg4=", "properties": {"ref": "118", "@spider": "ollies_bargain_outlet", "addr:full": "1001 Church Road", "addr:city": "Cherry Hill", "addr:state": "NJ", "addr:postcode": "8002", "addr:country": "US", "phone": "(856) 321-3073", "website": "https://www.ollies.us/locations/1001-church-road-cherry-hill-nj/", "opening_hours": "Su 09:00-05:00"}, "geometry": {"type": "Point", "coordinates": [-75.019808, 39.9446755]}},
{"type": "Feature", "id": "vN8ZkdAVPl2kTadO4elom90Ucj4=", "properties": {"ref": "130", "@spider": "ollies_bargain_outlet", "addr:full": "723 South Meadow Street", "addr:city": "Ithaca", "addr:state": "NY", "addr:postcode": "14850", "addr:country": "US", "phone": "(607) 697-0275", "website": "https://www.ollies.us/locations/723-south-meadow-street-ithaca-ny/", "opening_hours": "Su 09:00-05:00"}, "geometry": {"type": "Point", "coordinates": [-76.5065364, 42.4310778]}},
{"type": "Feature", "id": "bHLjTjNTZ6r3rwYEqaeYzeBli_c=", "properties": {"ref": "131", "@spider": "ollies_bargain_outlet", "addr:full": "200 Blair Mill Rd", "addr:city": "Horsham", "addr:state": "PA", "addr:postcode": "19044", "addr:country": "US", "phone": "(215) 674-2740", "website": "https://www.ollies.us/locations/200-blair-mill-rd-horsham-pa/", "opening_hours": "Su 09:00-05:00"}, "geometry": {"type": "Point", "coordinates": [-75.1182077, 40.1838998]}},
{"type": "Feature", "id": "V4Nim9-skK9iruotwCdqof0j1vY=", "properties": {"ref": "24", "@spider": "ollies_bargain_outlet", "addr:full": "1790 N Keyser Ave", "addr:city": "Scranton", "addr:state": "PA", "addr:postcode": "18508", "addr:country": "US", "phone": "(570) 348-0841", "website": "https://www.ollies.us/locations/1790-n-keyser-ave-scranton-pa/", "opening_hours": "Su 09:00-05:00"}, "geometry": {"type": "Point", "coordinates": [-75.6677926, 41.4433783]}},
{"type": "Feature", "id": "RmJWLtXD7wuwOf6h92JkfVBW3_c=", "properties": {"ref": "90", "@spider": "ollies_bargain_outlet", "addr:full": "3003 English Creek Ave", "addr:city": "Egg Harbor Township", "addr:state": "NJ", "addr:postcode": "8234", "addr:country": "US", "phone": "(609) 484-0850", "website": "https://www.ollies.us/locations/3003-english-creek-ave-egg-harbor-township-nj/", "opening_hours": "Su 09:00-05:00"}, "geometry": {"type": "Point", "coordinates": [-74.6133091, 39.4331595]}},
{"type": "Feature", "id": "OiW_Se0nWSqCmyyrjDxGLU-3GVw=", "properties": {"ref": "108", "@spider": "ollies_bargain_outlet", "addr:full": "300 Commerce Circle", "addr:city": "Bristol", "addr:state": "PA", "addr:postcode": "19007", "addr:country": "US", "phone": "(215) 781-2012", "website": "https://www.ollies.us/locations/300-commerce-circle-bristol-pa/", "opening_hours": "Su 09:00-05:00"}, "geometry": {"type": "Point", "coordinates": [-74.8696985, 40.102492]}},
{"type": "Feature", "id": "WQMPUQsB41zFNVzp7-H4PpyK_wc=", "properties": {"ref": "70", "@spider": "ollies_bargain_outlet", "addr:full": "3150 Erie Boulevard East", "addr:city": "Dewitt", "addr:state": "NY", "addr:postcode": "13214", "addr:country": "US", "phone": "(315) 410-4684", "website": "https://www.ollies.us/locations/3150-erie-boulevard-east-dewitt-ny/", "opening_hours": "Su 09:00-05:00"}, "geometry": {"type": "Point", "coordinates": [-76.0765324, 43.0540453]}},
{"type": "Feature", "id": "hgegEzpPflaYGtmnmML0XqCRNuY=", "properties": {"ref": "291", "@spider": "ollies_bargain_outlet", "addr:full": "1256 Indian Head Road", "addr:city": "Toms River", "addr:state": "NJ", "addr:postcode": "8755", "addr:country": "US", "phone": "(848) 251-2203", "website": "https://www.ollies.us/locations/1256-indian-head-road-toms-river-nj/", "opening_hours": "Su 09:00-05:00"}, "geometry": {"type": "Point", "coordinates": [-74.215165, 39.991903]}},
{"type": "Feature", "id": "nITEh1unYb1CFuc7ZWjwT0dVkbQ=", "properties": {"ref": "75", "@spider": "ollies_bargain_outlet", "addr:full": "7785 Frontage Rd", "addr:city": "Cicero", "addr:state": "NY", "addr:postcode": "13039", "addr:country": "US", "phone": "(315) 701-2830", "website": "https://www.ollies.us/locations/7785-frontage-rd-cicero-ny/", "opening_hours": "Su 09:00-05:00"}, "geometry": {"type": "Point", "coordinates": [-76.1161937, 43.1463806]}},
{"type": "Feature", "id": "0zl6ksw2RJUdDJDcbcozpG2bUJI=", "properties": {"ref": "112", "@spider": "ollies_bargain_outlet", "addr:full": "88 Dunning Rd", "addr:city": "Middletown", "addr:state": "NY", "addr:postcode": "10940", "addr:country": "US", "phone": "(845) 342-5520", "website": "https://www.ollies.us/locations/88-dunning-rd-middletown-ny/", "opening_hours": "Su 09:00-05:00"}, "geometry": {"type": "Point", "coordinates": [-74.3765628, 41.451123]}},
{"type": "Feature", "id": "zF0rq1yWJkd12uGPZwA_06E3Eic=", "properties": {"ref": "427", "@spider": "ollies_bargain_outlet", "addr:full": "1899 Black River Blvd.", "addr:city": "Rome", "addr:state": "NY", "addr:postcode": "13440", "addr:country": "US", "phone": "(315) 330-6029", "website": "https://www.ollies.us/locations/1899-black-river-blvd-rome-ny/", "opening_hours": "Mo-Sa 09:00-09:00; Su 10:00-07:00"}, "geometry": {"type": "Point", "coordinates": [-75.43772, 43.23608]}},
{"type": "Feature", "id": "1me6PTP9Ho9wE2uNWsGvktcV3u8=", "properties": {"ref": "272", "@spider": "ollies_bargain_outlet", "addr:full": "1614 Clark Street Rd", "addr:city": "Auburn", "addr:state": "NY", "addr:postcode": "13021", "addr:country": "US", "phone": "(315) 252-5072", "website": "https://www.ollies.us/locations/1614-clark-street-rd-auburn-ny/", "opening_hours": "Su 09:00-05:00"}, "geometry": {"type": "Point", "coordinates": [-76.609945, 42.926834]}},
{"type": "Feature", "id": "4c4hTrskYqncuIMBjcfTM23tzG4=", "properties": {"ref": "276", "@spider": "ollies_bargain_outlet", "addr:full": "3236 PA 940, Suite 100C", "addr:city": "Mt Pocono", "addr:state": "PA", "addr:postcode": "18344", "addr:country": "US", "phone": "(570) 839-0260", "website": "https://www.ollies.us/locations/3236-pa-940-suite-100c-mt-pocono-pa/", "opening_hours": "Su 09:00-05:00"}, "geometry": {"type": "Point", "coordinates": [-75.371218, 41.121697]}},
{"type": "Feature", "id": "vKK5jm8I7AcbMruEyCnKgq4l9sI=", "properties": {"ref": "119", "@spider": "ollies_bargain_outlet", "addr:full": "778 Main St", "addr:city": "Johnson City", "addr:state": "NY", "addr:postcode": "13790", "addr:country": "US", "phone": "(607) 231-0766", "website": "https://www.ollies.us/locations/778-main-st-johnson-city-ny/", "opening_hours": "Su 09:00-05:00"}, "geometry": {"type": "Point", "coordinates": [-75.9800301, 42.1159699]}},
{"type": "Feature", "id": "CTLKO6a4ANmzoVq5AXbn0gjNNXU=", "properties": {"ref": "206", "@spider": "ollies_bargain_outlet", "addr:full": "2465 South Broad Street,  Unit C4", "addr:city": "Hamilton", "addr:state": "NJ", "addr:postcode": "8610", "addr:country": "US", "phone": "(609) 439-0260", "website": "https://www.ollies.us/locations/2465-south-broad-street-unit-c4-hamilton-nj/", "opening_hours": "Su 09:00-05:00"}, "geometry": {"type": "Point", "coordinates": [-74.7201009, 40.192223]}},
{"type": "Feature", "id": "ebOePhAenUSXONMnHskZd1D7ruc=", "properties": {"ref": "187", "@spider": "ollies_bargain_outlet", "addr:full": "293 A State Route 104", "addr:city": "Oswego", "addr:state": "NY", "addr:postcode": "13126", "addr:country": "US", "phone": "(315) 326-4391", "website": "https://www.ollies.us/locations/293-a-state-route-104-oswego-ny/", "opening_hours": "Su 09:00-05:00"}, "geometry": {"type": "Point", "coordinates": [-76.4828962, 43.4632171]}},
{"type": "Feature", "id": "7vxC6y6cqly4yLA0HhZ1xhIC50Y=", "properties": {"ref": "85", "@spider": "ollies_bargain_outlet", "addr:full": "100 New Hartford Shopping Center", "addr:city": "New Hartford", "addr:state": "NY", "addr:postcode": "13413", "addr:country": "US", "phone": "(315) 749-7050", "website": "https://www.ollies.us/locations/100-new-hartford-shopping-center-new-hartford-ny/", "opening_hours": "Su 09:00-05:00"}, "geometry": {"type": "Point", "coordinates": [-75.2918506, 43.0768164]}},
{"type": "Feature", "id": "Kktqn-gkrpsk51WzWL446Izxkyk=", "properties": {"ref": "89", "@spider": "ollies_bargain_outlet", "addr:full": "1222 Arsenal Street", "addr:city": "Watertown", "addr:state": "NY", "addr:postcode": "13601", "addr:country": "US", "phone": "(315) 836-0040", "website": "https://www.ollies.us/locations/1222-arsenal-street-watertown-ny/", "opening_hours": "Su 09:00-05:00"}, "geometry": {"type": "Point", "coordinates": [-75.9431165, 43.9800392]}},
{"type": "Feature", "id": "wXJI0M-8gKFldh0KdU53giNFsJQ=", "properties": {"ref": "102", "@spider": "ollies_bargain_outlet", "addr:full": "701 Frank Sottile Boulevard #201", "addr:city": "Kingston", "addr:state": "NY", "addr:postcode": "12401", "addr:country": "US", "phone": "(845) 336-0783", "website": "https://www.ollies.us/locations/701-frank-sottile-boulevard-201-kingston-ny/", "opening_hours": "Su 09:00-05:00"}, "geometry": {"type": "Point", "coordinates": [-73.9853634, 41.9740318]}},
{"type": "Feature", "id": "po_HVSqLSjOaryWO-V1mqsf_498=", "properties": {"ref": "425", "@spider": "ollies_bargain_outlet", "addr:full": "224 N Comrie Ave", "addr:city": "Johnstown ", "addr:state": "NY", "addr:postcode": "12095", "addr:country": "US", "phone": "(518) 706-4490", "website": "https://www.ollies.us/locations/224-n-comrie-ave-johnstown-ny/", "opening_hours": "Mo-Sa 09:00-09:00; Su 10:00-07:00"}, "geometry": {"type": "Point", "coordinates": [-74.35878, 43.01547]}},
{"type": "Feature", "id": "1lW1kzpEo3hpNqCJzJGcPKUMM8k=", "properties": {"ref": "414", "@spider": "ollies_bargain_outlet", "addr:full": "160 Fairview Ave", "addr:city": "Hudson ", "addr:state": "NY", "addr:postcode": "12534", "addr:country": "US", "phone": "(518) 249-5034", "website": "https://www.ollies.us/locations/160-fairview-ave-hudson-ny/", "opening_hours": "Mo-Sa 09:00-09:00; Su 10:00-07:00"}, "geometry": {"type": "Point", "coordinates": [-73.76472, 42.25581]}}]}