{"type":"FeatureCollection","features":[{"type": "Feature", "id": "X0G2gGrm5BhofbyEaYH5gu77i0U=", "properties": {"ref": "Ft. Myers: Gulf Coast Town Center", "@spider": "pdq", "addr:full": "17470 Ben Hill Griffin Parkway", "addr:city": "Ft. Myers", "addr:state": "Myers,", "addr:postcode": "33913", "name": "Ft. Myers: Gulf Coast Town Center", "phone": "239-220-5751", "website": "http://eatpdq.qatserver.com/locations/ft-myers-gulf-coast-town-center", "opening_hours": "10:30AM to 10PM - 7 days a week", "brand": "PDQ"}, "geometry": {"type": "Point", "coordinates": [-81.78449, 26.487202]}},
{"type": "Feature", "id": "SqukMmutbzJfjNfGD2qPLvdQ8zg=", "properties": {"ref": "Edmond", "@spider": "pdq", "addr:full": "1600 E. 2nd Street", "addr:city": "Edmond", "addr:state": "OK", "addr:postcode": "73034", "name": "Edmond", "phone": "405-445-7132", "website": "http://eatpdq.qatserver.com/locations/edmond", "opening_hours": "10:30AM to 10PM - 7 days a week", "brand": "PDQ"}, "geometry": {"type": "Point", "coordinates": [-97.4588956, 35.6522862]}},
{"type": "Feature", "id": "jFlQZYDi1TVUjWsTsuyLZWEZkdo=", "properties": {"ref": "Durham", "@spider": "pdq", "addr:full": "3301 Watkins Road", "addr:city": "Durham", "addr:state": "NC", "addr:postcode": "27707", "name": "Durham", "phone": "919-436-3753", "website": "http://eatpdq.qatserver.com/locations/durham", "opening_hours": "10:30AM to 9PM - Sunday - Thursday - 10:30AM to 10PM - Friday - Saturday", "brand": "PDQ"}, "geometry": {"type": "Point", "coordinates": [-78.9914286, 35.9533171]}},
{"type": "Feature", "id": "aMVhBU30vXhfAyiClfvyLmOd758=", "properties": {"ref": "Fayetteville", "@spider": "pdq", "addr:full": "552 N. McPherson Church Road", "addr:city": "Fayetteville", "addr:state": "NC", "addr:postcode": "28303", "name": "Fayetteville", "phone": "910-550-2518", "website": "http://eatpdq.qatserver.com/locations/fayetteville", "opening_hours": "10:30AM to 9PM - Sunday - Thursday - 10:30AM to 10PM - Friday-Saturday", "brand": "PDQ"}, "geometry": {"type": "Point", "coordinates": [-78.956146, 35.07926]}},
{"type": "Feature", "id": "DSUjjIemN-F-giKzq4mlnLN3kh8=", "properties": {"ref": "Ft. Lauderdale: 17th Street", "@spider": "pdq", "addr:full": "1207 S.E. 17th Street", "addr:city": "Ft. Lauderdale", "addr:state": "Lauderdale,", "addr:postcode": "33316", "name": "Ft. Lauderdale: 17th Street", "phone": "954-644-5208", "website": "http://eatpdq.qatserver.com/locations/ft-lauderdale-17th-street", "opening_hours": "10:30AM to 10PM - 7 days a week -  - For Catering: Click Here", "brand": "PDQ"}, "geometry": {"type": "Point", "coordinates": [-80.1316367, 26.1008241]}},
{"type": "Feature", "id": "BZ18GoOGpitaFK9-3dXnuTmVo_k=", "properties": {"ref": "Ft. Myers: Cleveland Avenue", "@spider": "pdq", "addr:full": "12499 South Cleveland Avenue", "addr:city": "Ft. Myers", "addr:state": "Myers,", "addr:postcode": "33907", "name": "Ft. Myers: Cleveland Avenue", "phone": "239-220-5727", "website": "http://eatpdq.qatserver.com/locations/ft-myers-cleveland-ave", "opening_hours": "10:30AM to 10PM - 7 days a week", "brand": "PDQ"}, "geometry": {"type": "Point", "coordinates": [-81.871155, 26.561238]}},
{"type": "Feature", "id": "maXuZhAufJyZoF2ZEaHk5QS6a-c=", "properties": {"ref": "Evans", "@spider": "pdq", "addr:full": "4311 Washington Road", "addr:city": "Evans", "addr:state": "GA", "addr:postcode": "30809", "name": "Evans", "phone": "706-478-0086", "website": "http://eatpdq.qatserver.com/locations/evans", "opening_hours": "10:30AM to 9PM - 7 days a week", "brand": "PDQ"}, "geometry": {"type": "Point", "coordinates": [-82.128197, 33.537652]}},
{"type": "Feature", "id": "XYXLll8K1tk72vJexkAtlnQJpoc=", "properties": {"ref": "Cherry Hill", "@spider": "pdq", "addr:full": "614 Haddonfield Road", "addr:city": "Cherry Hill", "addr:state": "Hill,", "addr:postcode": "08002", "name": "Cherry Hill", "phone": "856-335-3239", "website": "http://eatpdq.qatserver.com/locations/cherry-hill", "opening_hours": "10:30AM to 10PM - 7 days a week", "brand": "PDQ"}, "geometry": {"type": "Point", "coordinates": [-75.0311333, 39.9312698]}},
{"type": "Feature", "id": "hl75NN9HtI18dq-hwH0cfR1AuRQ=", "properties": {"ref": "Columbia", "@spider": "pdq", "addr:full": "4456 Devine Street", "addr:city": "Columbia", "addr:state": "SC", "addr:postcode": "29205", "name": "Columbia", "phone": "803-403-9135", "website": "http://eatpdq.qatserver.com/locations/columbia", "opening_hours": "10:30AM to 10PM - 7 days a week", "brand": "PDQ"}, "geometry": {"type": "Point", "coordinates": [-80.9778444, 33.9915776]}},
{"type": "Feature", "id": "2lYHeWZek5iXiSe1vKPyc8nsnLI=", "properties": {"ref": "Concord", "@spider": "pdq", "addr:full": "8665 Concord Mills Blvd", "addr:city": "Concord", "addr:state": "NC", "addr:postcode": "28027", "name": "Concord", "phone": "704-498-4609", "website": "http://eatpdq.qatserver.com/locations/concord", "opening_hours": "10:30AM to 10PM - 7 days a week", "brand": "PDQ"}, "geometry": {"type": "Point", "coordinates": [-80.728772, 35.374028]}},
{"type": "Feature", "id": "seTqSih99TeWeDvb2syw3HMC4po=", "properties": {"ref": "Winston-Salem", "@spider": "pdq", "addr:full": "285 Harvey Street", "addr:city": "Winston-Salem", "addr:state": "NC", "addr:postcode": "27103", "name": "Winston-Salem", "phone": "336-306-5174", "website": "http://eatpdq.qatserver.com/locations/winston-salem", "opening_hours": "10:30AM to 10PM - 7 days a week", "brand": "PDQ"}, "geometry": {"type": "Point", "coordinates": [-80.295134, 36.083823]}},
{"type": "Feature", "id": "epeLzFWUmrBRu_d3AHoDTUzzCXs=", "properties": {"ref": "Cornelius (Tenders)", "@spider": "pdq", "addr:full": "18341 Statesville Road", "addr:city": "Cornelius", "addr:state": "NC", "addr:postcode": "28031", "name": "Cornelius (Tenders)", "phone": "704-895-6017", "website": "http://eatpdq.qatserver.com/locations/cornelius-tenders", "opening_hours": "11AM to 9PM - Sun - Thurs - 11AM to 10PM - Fri - Sat", "brand": "PDQ"}, "geometry": {"type": "Point", "coordinates": [-80.8714831, 35.4638145]}},
{"type": "Feature", "id": "r2fSdZQfuUlhJZmzzBx944iA9QI=", "properties": {"ref": "Clearwater", "@spider": "pdq", "addr:full": "2181 Gulf to Bay Blvd", "addr:city": "Clearwater", "addr:state": "FL", "addr:postcode": "33765", "name": "Clearwater", "phone": "727-362-1006", "website": "http://eatpdq.qatserver.com/locations/clearwater", "opening_hours": "10:30AM to 10PM - 7 days a week", "brand": "PDQ"}, "geometry": {"type": "Point", "coordinates": [-82.746605, 27.959069]}},
{"type": "Feature", "id": "OyFRbtLmEV-flFW0T3eQuTyVl6A=", "properties": {"ref": "Clermont", "@spider": "pdq", "addr:full": "1660 E. Highway 50", "addr:city": "Clermont", "addr:state": "FL", "addr:postcode": "34711", "name": "Clermont", "phone": "352-484-0368", "website": "http://eatpdq.qatserver.com/locations/clermont", "opening_hours": "10:30AM to 10PM - 7 days a week", "brand": "PDQ"}, "geometry": {"type": "Point", "coordinates": [-81.723988, 28.547374]}},
{"type": "Feature", "id": "Pw7NtAJ4YhFGCG-rX527aOMLnyo=", "properties": {"ref": "Winslow Township: Sicklerville", "@spider": "pdq", "addr:full": "610 Cross Keys Road", "addr:city": "Sicklerville", "addr:state": "NJ", "addr:postcode": "08081", "name": "Winslow Township: Sicklerville", "phone": "856-831-4601", "website": "http://eatpdq.qatserver.com/locations/winslow-township-sicklerville", "opening_hours": "10:30AM to 10PM - 7 days a week", "brand": "PDQ"}, "geometry": {"type": "Point", "coordinates": [-75.005774, 39.734244]}},
{"type": "Feature", "id": "FiXIwKIdutwYI49XEkn-ZGz6u2I=", "properties": {"ref": "Tampa: Waters", "@spider": "pdq", "addr:full": "5706 W. Waters Avenue", "addr:city": "Tampa", "addr:state": "FL", "addr:postcode": "33634", "name": "Tampa: Waters", "phone": "813-864-8003", "website": "http://eatpdq.qatserver.com/locations/tampa-waters", "opening_hours": "10:30AM to 10PM - 7 days a week", "brand": "PDQ"}, "geometry": {"type": "Point", "coordinates": [-82.5429738, 28.0251129]}},
{"type": "Feature", "id": "DkG9Gfs-wjDTPJb55-N5wfsfUYo=", "properties": {"ref": "The Villages", "@spider": "pdq", "addr:full": "300 Colony Blvd", "addr:city": "The Villages", "addr:state": "Villages,", "addr:postcode": "32162", "name": "The Villages", "phone": "352-459-0269", "website": "http://eatpdq.qatserver.com/locations/the-villages", "opening_hours": "10:30AM to 9PM - 7 days a week", "brand": "PDQ"}, "geometry": {"type": "Point", "coordinates": [-81.954894, 28.865075]}},
{"type": "Feature", "id": "iiGn-fGgBo_XgqukaRg24X5gqaQ=", "properties": {"ref": "Wellington", "@spider": "pdq", "addr:full": "2781 S. State Road 7", "addr:city": "Wellington", "addr:state": "FL", "addr:postcode": "33414", "name": "Wellington", "phone": "561-210-4350", "website": "http://eatpdq.qatserver.com/locations/wellington", "opening_hours": "10:30AM to 10PM - 7 days a week -  - For Catering: Click Here", "brand": "PDQ"}, "geometry": {"type": "Point", "coordinates": [-80.204849, 26.638734]}},
{"type": "Feature", "id": "h3AAJ0H0eVYUC5CrP-y_Cncixjo=", "properties": {"ref": "St. Petersburg", "@spider": "pdq", "addr:full": "4526 4th Street North", "addr:city": "St. Petersburg", "addr:state": "Petersburg,", "addr:postcode": "33703", "name": "St. Petersburg", "phone": "727-873-7999", "website": "http://eatpdq.qatserver.com/locations/st-petersburg", "opening_hours": "10:30AM to 10PM - 7 days a week", "brand": "PDQ"}, "geometry": {"type": "Point", "coordinates": [-82.639123, 27.813665]}},
{"type": "Feature", "id": "3n_LkBb3fVUBVGhsgrUnErFdAjc=", "properties": {"ref": "Seminole", "@spider": "pdq", "addr:full": "7400 Seminole Blvd.", "addr:city": "Seminole", "addr:state": "FL", "addr:postcode": "33772", "name": "Seminole", "phone": "727-213-5645", "website": "http://eatpdq.qatserver.com/locations/seminole", "opening_hours": "10:30AM to 10PM - 7 days a week", "brand": "PDQ"}, "geometry": {"type": "Point", "coordinates": [-82.787746, 27.8403843]}},
{"type": "Feature", "id": "kUw9ZVh7ET4DpAw9t1TgqBr2SZU=", "properties": {"ref": "Wesley Chapel", "@spider": "pdq", "addr:full": "27757 SR 56", "addr:city": "Wesley Chapel", "addr:state": "Chapel,", "addr:postcode": "33544", "name": "Wesley Chapel", "phone": "813-528-8770", "website": "http://eatpdq.qatserver.com/locations/wesley-chapel", "opening_hours": "10:30AM to 10PM - 7 days a week", "brand": "PDQ"}, "geometry": {"type": "Point", "coordinates": [-82.357278, 28.1864012]}},
{"type": "Feature", "id": "EDUFaiVpUz-ApPetraLit-zjVSw=", "properties": {"ref": "Sarasota", "@spider": "pdq", "addr:full": "5164 S. Tamiami Trail", "addr:city": "Sarasota", "addr:state": "FL", "addr:postcode": "34231", "name": "Sarasota", "phone": "941-866-1311", "website": "http://eatpdq.qatserver.com/locations/sarasota", "opening_hours": "10:30AM to 10PM - 7 days a week", "brand": "PDQ"}, "geometry": {"type": "Point", "coordinates": [-82.5314815, 27.2782812]}},
{"type": "Feature", "id": "etyIOXiiR6tDmOMtg1TrbWbUUnI=", "properties": {"ref": "Orlando: Sanford", "@spider": "pdq", "addr:full": "1610 Rinehart Road", "addr:city": "Sanford", "addr:state": "FL", "addr:postcode": "32771", "name": "Orlando: Sanford", "phone": "407-792-1763", "website": "http://eatpdq.qatserver.com/locations/sanford", "opening_hours": "10:30AM to 10PM - 7 days a week", "brand": "PDQ"}, "geometry": {"type": "Point", "coordinates": [-81.3318135, 28.8026794]}},
{"type": "Feature", "id": "doxbl7odD9Olhsj5-gzo1O7sEzY=", "properties": {"ref": "Tampa: South Tampa", "@spider": "pdq", "addr:full": "2207 S. Dale Mabry Highway", "addr:city": "Tampa", "addr:state": "FL", "addr:postcode": "33629", "name": "Tampa: South Tampa", "phone": "813-254-7373", "website": "http://eatpdq.qatserver.com/locations/south-tampa", "opening_hours": "10:30AM to 10PM - 7 days a week", "brand": "PDQ"}, "geometry": {"type": "Point", "coordinates": [-82.506373, 27.9253669]}},
{"type": "Feature", "id": "iqJgRvhiMFaTzoTevBfTJTkOlR0=", "properties": {"ref": "Pompano Beach", "@spider": "pdq", "addr:full": "2341 N. Federal Highway", "addr:city": "Pompano Beach", "addr:state": "Beach,", "addr:postcode": "33062", "name": "Pompano Beach", "phone": "954-785-6285", "website": "http://eatpdq.qatserver.com/locations/pompano-beach", "opening_hours": "10:30AM to 10PM - 7 days a week -  - For Catering: Click Here", "brand": "PDQ"}, "geometry": {"type": "Point", "coordinates": [-80.0999597, 26.2609191]}},
{"type": "Feature", "id": "LBYa1NHjGfrJTduBr9fUmE35xpI=", "properties": {"ref": "West Palm Beach", "@spider": "pdq", "addr:full": "2015 Okeechobee Blvd", "addr:city": "West Palm Beach", "addr:state": "Palm", "addr:postcode": "33409", "name": "West Palm Beach", "phone": "561-594-1906", "website": "http://eatpdq.qatserver.com/locations/west-palm-beach", "opening_hours": "10:30AM to 10PM - 7 days a week -  - For Catering: Click Here", "brand": "PDQ"}, "geometry": {"type": "Point", "coordinates": [-80.0802368, 26.7067481]}},
{"type": "Feature", "id": "RnIYnJFhXt4r8BL5fYyRra2Q8zU=", "properties": {"ref": "Schaumburg", "@spider": "pdq", "addr:full": "1320 Meacham Road", "addr:city": "Schaumburg", "addr:state": "IL", "addr:postcode": "60173", "name": "Schaumburg", "phone": "847.947.3148", "website": "http://eatpdq.qatserver.com/locations/schaumburg", "opening_hours": "10:30AM TO 10PM - 7 days a week", "brand": "PDQ"}, "geometry": {"type": "Point", "coordinates": [-88.0460509, 42.0536908]}},
{"type": "Feature", "id": "R_PKxi2w1xtXik76hzxoDlWlTQs=", "properties": {"ref": "Phoenix: Paradise Valley", "@spider": "pdq", "addr:full": "4514 E. Cactus Rd", "addr:city": "Phoenix", "addr:state": "AZ", "addr:postcode": "85032", "name": "Phoenix: Paradise Valley", "phone": "602-325-4973", "website": "http://eatpdq.qatserver.com/locations/phoenixparadisevalley", "opening_hours": "10:30AM TO 10PM - 7 days a week", "brand": "PDQ"}, "geometry": {"type": "Point", "coordinates": [-111.9853095, 33.6003287]}},
{"type": "Feature", "id": "LaChN4EZNGniUQD4bVTmxPLNnUc=", "properties": {"ref": "Tampa: Westchase", "@spider": "pdq", "addr:full": "8730 W. Linebaugh Avenue", "addr:city": "Tampa", "addr:state": "FL", "addr:postcode": "33625", "name": "Tampa: Westchase", "phone": "813-864-6760", "website": "http://eatpdq.qatserver.com/locations/westchase", "opening_hours": "10:30AM TO 10PM - 7 days a week", "brand": "PDQ"}, "geometry": {"type": "Point", "coordinates": [-82.5798203, 28.0436277]}},
{"type": "Feature", "id": "Iqr_iC_xolMlEJMR8XQYRt9ExoY=", "properties": {"ref": "Oklahoma City: Quail Springs", "@spider": "pdq", "addr:full": "14215 N. Pennsylvania Ave.", "addr:city": "Oklahoma City", "addr:state": "City,", "addr:postcode": "73134", "name": "Oklahoma City: Quail Springs", "phone": "405-445-0563", "website": "http://eatpdq.qatserver.com/locations/oklahomacity", "opening_hours": "10:30AM TO 10PM - 7 days a week", "brand": "PDQ"}, "geometry": {"type": "Point", "coordinates": [-97.5495131, 35.615482]}},
{"type": "Feature", "id": "OqAsIrwKivvElkJOFUxFb1PpNl0=", "properties": {"ref": "Pinellas Park", "@spider": "pdq", "addr:full": "4601 Park Blvd", "addr:city": "Pinellas Park", "addr:state": "Park,", "addr:postcode": "33781", "name": "Pinellas Park", "phone": "727-362-1007", "website": "http://eatpdq.qatserver.com/locations/pinellas-park", "opening_hours": "10:30AM to 10PM - 7 days a week", "brand": "PDQ"}, "geometry": {"type": "Point", "coordinates": [-82.696477, 27.8398275]}},
{"type": "Feature", "id": "FfnrOK5WcqfSl2eN7x7oiipI63U=", "properties": {"ref": "Wheaton", "@spider": "pdq", "addr:full": "167 Danada Square", "addr:city": "Wheaton", "addr:state": "IL", "addr:postcode": "60189", "name": "Wheaton", "phone": "630-315-7135", "website": "http://eatpdq.qatserver.com/locations/wheaton", "opening_hours": "10:30AM TO 10PM - 7 days a week", "brand": "PDQ"}, "geometry": {"type": "Point", "coordinates": [-88.1038719, 41.8301854]}},
{"type": "Feature", "id": "Ikkj9ItDWia8YUW6gNxAqSC5I4Q=", "properties": {"ref": "Orlando: Lake Nona", "@spider": "pdq", "addr:full": "11906 Narcoossee Rd", "addr:city": "Orlando", "addr:state": "FL", "addr:postcode": "32832", "name": "Orlando: Lake Nona", "phone": "407-956-4127", "website": "http://eatpdq.qatserver.com/locations/orlandolakenona", "opening_hours": "10:30AM TO 10PM - 7 days a week", "brand": "PDQ"}, "geometry": {"type": "Point", "coordinates": [-81.2446515, 28.3940848]}},
{"type": "Feature", "id": "0UjKdIKXuMGAqF3z9N1_lGGJPnM=", "properties": {"ref": "Norman", "@spider": "pdq", "addr:full": "2180 24th Avenue NW", "addr:city": "Norman", "addr:state": "OK", "addr:postcode": "73069", "name": "Norman", "phone": "405.253.6049", "website": "http://eatpdq.qatserver.com/locations/norman", "opening_hours": "10:30AM to 10PM - 7 days a week", "brand": "PDQ"}, "geometry": {"type": "Point", "coordinates": [-97.4800211, 35.2447421]}},
{"type": "Feature", "id": "gi8BFGc3pyR8zT1U1toEqNO_03k=", "properties": {"ref": "Riverview", "@spider": "pdq", "addr:full": "10441 Big Bend Road", "addr:city": "Riverview", "addr:state": "FL", "addr:postcode": "33579", "name": "Riverview", "phone": "813-864-8006", "website": "http://eatpdq.qatserver.com/locations/riverview", "opening_hours": "10:30AM to 10PM - 7 days a week", "brand": "PDQ"}, "geometry": {"type": "Point", "coordinates": [-82.3354877, 27.7913975]}},
{"type": "Feature", "id": "dNB7WNi3k4lXJ08isM-0NPwzjxg=", "properties": {"ref": "Pembroke Pines", "@spider": "pdq", "addr:full": "11211 Pines Blvd", "addr:city": "Pembroke Pines", "addr:state": "Pines,", "addr:postcode": "33026", "name": "Pembroke Pines", "phone": "754-484-3853", "website": "http://eatpdq.qatserver.com/locations/pembroke-pines", "opening_hours": "10:30AM to 10PM - 7 days a week -  - For Catering: Click Here", "brand": "PDQ"}, "geometry": {"type": "Point", "coordinates": [-80.297004, 26.008349]}},
{"type": "Feature", "id": "tuUbNdY8lobOIZ04ozVaOQwsefc=", "properties": {"ref": "North Las Vegas: Craig Road", "@spider": "pdq", "addr:full": "3737 West Craig Road", "addr:city": "North Las Vegas", "addr:state": "Las", "addr:postcode": "89032", "name": "North Las Vegas: Craig Road", "phone": "702-410-6747", "website": "http://eatpdq.qatserver.com/locations/north-las-vegas-craig-rd", "opening_hours": "10:30AM to 10PM - 7 days a week", "brand": "PDQ"}, "geometry": {"type": "Point", "coordinates": [-115.1899814, 36.2388678]}},
{"type": "Feature", "id": "ZiKedi-RSYLQxVTwN-xCVr6PwTo=", "properties": {"ref": "Lehi", "@spider": "pdq", "addr:full": "3610 North Digital Drive", "addr:city": "Lehi", "addr:state": "UT", "addr:postcode": "84043", "name": "Lehi", "phone": "801-753-0921", "website": "http://eatpdq.qatserver.com/locations/lehi", "opening_hours": "10:30AM to 10PM - Monday - Saturday -  - 10:30AM to 6PM - Sunday", "brand": "PDQ"}, "geometry": {"type": "Point", "coordinates": [-111.8876105, 40.4331804]}},
{"type": "Feature", "id": "3IbRD4PG3YUgrzzKG0Tb-iV0wwc=", "properties": {"ref": "Lakeland", "@spider": "pdq", "addr:full": "4714 S. Florida Avenue", "addr:city": "Lakeland", "addr:state": "FL", "addr:postcode": "33813", "name": "Lakeland", "phone": "863-808-5474", "website": "http://eatpdq.qatserver.com/locations/lakeland", "opening_hours": "10:30AM to 10PM - 7 days a week", "brand": "PDQ"}, "geometry": {"type": "Point", "coordinates": [-81.956912, 27.979266]}},
{"type": "Feature", "id": "NbMxfqJrlppDJRgjatJnzStOhPY=", "properties": {"ref": "Jacksonville: Julington Creek", "@spider": "pdq", "addr:full": "194 N. State Road 13", "addr:city": "St. Johns", "addr:state": "Johns,", "addr:postcode": "32259", "name": "Jacksonville: Julington Creek", "phone": "904-638-5959", "website": "http://eatpdq.qatserver.com/locations/jacksonville-julington-creek", "opening_hours": "10:30AM to 10PM - 7 days a week", "brand": "PDQ"}, "geometry": {"type": "Point", "coordinates": [-81.625725, 30.124397]}},
{"type": "Feature", "id": "lj0nGlDg_1ixNvdHlN-53GbTwfc=", "properties": {"ref": "Miami: Fountain Square", "@spider": "pdq", "addr:full": "10121 West Flagler Street", "addr:city": "Miami", "addr:state": "FL", "addr:postcode": "33174", "name": "Miami: Fountain Square", "phone": "305-257-3032", "website": "http://eatpdq.qatserver.com/locations/miami-fountain-square", "opening_hours": "10:30AM to 10PM - 7 days a week -  - For Catering: Click Here", "brand": "PDQ"}, "geometry": {"type": "Point", "coordinates": [-80.359906, 25.769764]}},
{"type": "Feature", "id": "KWVNg8KkMmEFYr6n37WiVTqlIto=", "properties": {"ref": "Ocala", "@spider": "pdq", "addr:full": "3410 SW College Road", "addr:city": "Ocala", "addr:state": "FL", "addr:postcode": "34474", "name": "Ocala", "phone": "352-484-0365", "website": "http://eatpdq.qatserver.com/locations/ocala", "opening_hours": "10:30AM to 10PM - 7 days a week", "brand": "PDQ"}, "geometry": {"type": "Point", "coordinates": [-82.179314, 29.155372]}},
{"type": "Feature", "id": "VM4ygjfMxBk4du_vVcm6EEDo2Ns=", "properties": {"ref": "Houston: Vintage Park", "@spider": "pdq", "addr:full": "10723 Louetta Road", "addr:city": "Houston", "addr:state": "TX", "addr:postcode": "77070", "name": "Houston: Vintage Park", "phone": "281-520-4015", "website": "http://eatpdq.qatserver.com/locations/houston-vintage-park", "opening_hours": "10:30AM to 10PM - 7 days a week", "brand": "PDQ"}, "geometry": {"type": "Point", "coordinates": [-95.572094, 29.996376]}},
{"type": "Feature", "id": "2iByu0MSELmAz4rxFTslHbt-5LU=", "properties": {"ref": "Jacksonville: Beach and Hodges", "@spider": "pdq", "addr:full": "3260 Hodges Blvd", "addr:city": "Jacksonville", "addr:state": "FL", "addr:postcode": "32224", "name": "Jacksonville: Beach and Hodges", "phone": "904-758-3325", "website": "http://eatpdq.qatserver.com/locations/jacksonville-beach-and-hodges", "opening_hours": "10:30AM to 10PM - 7 days a week", "brand": "PDQ"}, "geometry": {"type": "Point", "coordinates": [-81.459549, 30.285726]}},
{"type": "Feature", "id": "vqe18T1dkCgssh7Mp7ACFGuD9Xg=", "properties": {"ref": "Jacksonville: St. John's Town Center", "@spider": "pdq", "addr:full": "4816 Gate Parkway", "addr:city": "Jacksonville", "addr:state": "FL", "addr:postcode": "32246", "name": "Jacksonville: St. John's Town Center", "phone": "904-425-2352", "website": "http://eatpdq.qatserver.com/locations/jacksonville-town-center", "opening_hours": "10:30AM TO 10PM - 7 days a week", "brand": "PDQ"}, "geometry": {"type": "Point", "coordinates": [-81.5359711, 30.2533183]}},
{"type": "Feature", "id": "mcpM4afWuole0MGC0ZZNG_ZcCts=", "properties": {"ref": "Gainesville: University", "@spider": "pdq", "addr:full": "3403 W. University Avenue", "addr:city": "Gainesville", "addr:state": "FL", "addr:postcode": "32607", "name": "Gainesville: University", "phone": "352-353-0100", "website": "http://eatpdq.qatserver.com/locations/gainesville-university", "opening_hours": "10:30AM to 10:30PM - 7 days a week", "brand": "PDQ"}, "geometry": {"type": "Point", "coordinates": [-82.372939, 29.651679]}},
{"type": "Feature", "id": "x4sVsu0evFhN3I4WZVWwWcHsNJQ=", "properties": {"ref": "Cedar Park", "@spider": "pdq", "addr:full": "4501 183A Toll Road", "addr:city": "Cedar Park", "addr:state": "Park,", "addr:postcode": "78613", "name": "Cedar Park", "phone": "512-697-4990", "website": "http://eatpdq.qatserver.com/locations/cedar-park", "opening_hours": "10:30AM to 10PM - 7 days a week", "brand": "PDQ"}, "geometry": {"type": "Point", "coordinates": [-97.817366, 30.525519]}},
{"type": "Feature", "id": "aKOUbtWvXM9PUl9ehEVlUMJXzWA=", "properties": {"ref": "Cary", "@spider": "pdq", "addr:full": "9025 Winston Hill Drive", "addr:city": "Cary", "addr:state": "NC", "addr:postcode": "27513", "name": "Cary", "phone": "919-380-0060", "website": "http://eatpdq.qatserver.com/locations/cary", "opening_hours": "10:30AM to 9PM - 7 days a week", "brand": "PDQ"}, "geometry": {"type": "Point", "coordinates": [-78.8461225, 35.7914432]}},
{"type": "Feature", "id": "SIC4Esz2MQjwmJJNKDEeVqtejVs=", "properties": {"ref": "Orlando: Hunter's Creek", "@spider": "pdq", "addr:full": "14000 S. John Young Parkway", "addr:city": "Orlando", "addr:state": "FL", "addr:postcode": "32837", "name": "Orlando: Hunter's Creek", "phone": "407.442.0879", "website": "http://eatpdq.qatserver.com/locations/orlandohunterscreek", "opening_hours": "10:30AM to 10PM - 7 days a week", "brand": "PDQ"}, "geometry": {"type": "Point", "coordinates": [-81.4238308, 28.3627479]}},
{"type": "Feature", "id": "1bKTf9ytG37aj7aRlp59GslaeA8=", "properties": {"ref": "Hickory", "@spider": "pdq", "addr:full": "2060 US Highway 70 SE", "addr:city": "Hickory", "addr:state": "NC", "addr:postcode": "28602", "name": "Hickory", "phone": "828-475-0281", "website": "http://eatpdq.qatserver.com/locations/hickory", "opening_hours": "10:30AM to 9PM - Sunday - Thursday - 10:30AM to 10PM - Friday - Saturday", "brand": "PDQ"}, "geometry": {"type": "Point", "coordinates": [-81.3015496, 35.7044691]}},
{"type": "Feature", "id": "yb_QF_MUKf-ilnM95X8MdzfvNqY=", "properties": {"ref": "Tampa: Brandon", "@spider": "pdq", "addr:full": "134 S. Gornto Lake Road", "addr:city": "Brandon", "addr:state": "FL", "addr:postcode": "33511", "name": "Tampa: Brandon", "phone": "813-864-8519", "website": "http://eatpdq.qatserver.com/locations/brandon", "opening_hours": "10:30AM to 10PM - 7 days a week", "brand": "PDQ"}, "geometry": {"type": "Point", "coordinates": [-82.319362, 27.936451]}},
{"type": "Feature", "id": "AH9v_3lneS59mfojx756_9Zo0GI=", "properties": {"ref": "Cedar Park: Lakeline Blvd.", "@spider": "pdq", "addr:full": "2920 South Lakeline Blvd", "addr:city": "Cedar Park", "addr:state": "Park,", "addr:postcode": "78613", "name": "Cedar Park: Lakeline Blvd.", "phone": "512-222-1503", "website": "http://eatpdq.qatserver.com/locations/austin-lakeline-blvd", "opening_hours": "10:30AM to 10PM - 7 days a week", "brand": "PDQ"}, "geometry": {"type": "Point", "coordinates": [-97.804657, 30.47935]}},
{"type": "Feature", "id": "EVQnjITZ4K12o99iAV3Uf7FQDgQ=", "properties": {"ref": "Greenville", "@spider": "pdq", "addr:full": "3906 Pelham Road", "addr:city": "Greenville", "addr:state": "SC", "addr:postcode": "29615", "name": "Greenville", "phone": "864-640-4959", "website": "http://eatpdq.qatserver.com/locations/greenville", "opening_hours": "10:30AM to 9PM - 7 days a week", "brand": "PDQ"}, "geometry": {"type": "Point", "coordinates": [-82.264567, 34.859145]}},
{"type": "Feature", "id": "SLWEljtOa_t1KbbqoWPRwWarnJo=", "properties": {"ref": "Jacksonville: Bartram Park", "@spider": "pdq", "addr:full": "13702 Old St. Augustine Road", "addr:city": "Jacksonville", "addr:state": "FL", "addr:postcode": "32258", "name": "Jacksonville: Bartram Park", "phone": "904-758-3326", "website": "http://eatpdq.qatserver.com/locations/jacksonville-bartram-park", "opening_hours": "10:30AM to 10PM - 7 days a week", "brand": "PDQ"}, "geometry": {"type": "Point", "coordinates": [-81.5530085, 30.1425495]}},
{"type": "Feature", "id": "7p5OaCyWmmiED-xRm-MH2CfihA8=", "properties": {"ref": "Houston: Bunker Hill", "@spider": "pdq", "addr:full": "9440 Katy Fwy", "addr:city": "Houston", "addr:state": "TX", "addr:postcode": "77055", "name": "Houston: Bunker Hill", "phone": "713-469-3948", "website": "http://eatpdq.qatserver.com/locations/houston-bunker-hill", "opening_hours": "10:30AM to 10PM - 7 days a week", "brand": "PDQ"}, "geometry": {"type": "Point", "coordinates": [-95.526191, 29.785334]}},
{"type": "Feature", "id": "bTKxYSskZjj_CIgFWBGgsGGz6To=", "properties": {"ref": "Bradenton", "@spider": "pdq", "addr:full": "5484 Lena Road", "addr:city": "Bradenton", "addr:state": "FL", "addr:postcode": "34211", "name": "Bradenton", "phone": "941-209-4883", "website": "http://eatpdq.qatserver.com/locations/bradenton", "opening_hours": "10:30AM to 10PM - 7 days a week", "brand": "PDQ"}, "geometry": {"type": "Point", "coordinates": [-82.454862, 27.440748]}},
{"type": "Feature", "id": "OD3R0WOfK8WxoUvEw2UQ_bvVLEg=", "properties": {"ref": "Raleigh", "@spider": "pdq", "addr:full": "6305 Falls of Neuse Road", "addr:city": "Raleigh", "addr:state": "NC", "addr:postcode": "27615", "name": "Raleigh", "phone": "919-803-1171", "website": "http://eatpdq.qatserver.com/locations/raleigh", "opening_hours": "10:30AM to 10PM - 7 days a week", "brand": "PDQ"}, "geometry": {"type": "Point", "coordinates": [-78.6212935, 35.8686545]}}]}