{"type":"FeatureCollection","features":[{"type": "Feature", "id": "LxDSgrl9zG-lxT65x_x5E8kOGbY=", "properties": {"ref": "299298544813309818", "@spider": "pet_suites", "addr:full": "620 Holly Ln.", "addr:city": "Erlanger", "addr:state": "KY", "addr:postcode": "41018", "addr:country": "US", "name": "PetSuites Erlanger", "phone": "+18595542597", "website": "https://erlanger.petsuitesofamerica.com/", "opening_hours": "Mo-Su 06:30-20:00"}, "geometry": {"type": "Point", "coordinates": [-84.6156, 39.0235]}},
{"type": "Feature", "id": "yGHcgEZZFADT5q2umRTl1SgIMCU=", "properties": {"ref": "5621311726365478626", "@spider": "pet_suites", "addr:full": "3701 Hauck Rd.", "addr:city": "Cincinnati", "addr:state": "OH", "addr:postcode": "45241", "addr:country": "US", "name": "PetSuites Sharonville", "phone": "+15133426380", "website": "https://sharonville.petsuitesofamerica.com/", "opening_hours": "Mo-Su 06:30-20:00"}, "geometry": {"type": "Point", "coordinates": [84.4019, 39.2887]}},
{"type": "Feature", "id": "wgveoG1dw2SUhLd11S0PV_fjHwA=", "properties": {"ref": "10704315188846311871", "@spider": "pet_suites", "addr:full": "3773 Summit Glen Dr.", "addr:city": "Dayton", "addr:state": "OH", "addr:postcode": "45449", "addr:country": "US", "name": "PetSuites Dayton", "phone": "+19377560008", "website": "https://dayton.petsuitesofamerica.com/", "opening_hours": "Mo-Su 06:30-20:00"}, "geometry": {"type": "Point", "coordinates": [-84.2318, 39.6456]}},
{"type": "Feature", "id": "Ou_0hf_W2ZTo0PzGWDuYEEx6AnE=", "properties": {"ref": "3350065940023061281", "@spider": "pet_suites", "addr:full": "8678 N High St.", "addr:city": "Columbus", "addr:state": "OH", "addr:postcode": "43235", "addr:country": "US", "name": "PetSuites Worthington", "phone": "+16143289706", "website": "https://worthington.petsuitesofamerica.com/", "opening_hours": "Mo-Su 06:30-20:00"}, "geometry": {"type": "Point", "coordinates": [-83.0159, 40.1414]}},
{"type": "Feature", "id": "vA-3AIR9Eyk6dmdUMXSOA10Ng-w=", "properties": {"ref": "17874293270052035422", "@spider": "pet_suites", "addr:full": "5495 N Hamilton Rd.", "addr:city": "Columbus", "addr:state": "OH", "addr:postcode": "43230", "addr:country": "US", "name": "PetSuites Gahanna", "phone": "+16143289740", "website": "https://gahanna.petsuitesofamerica.com/", "opening_hours": "Mo-Su 06:30-20:00"}, "geometry": {"type": "Point", "coordinates": [-82.8633, 40.0689]}},
{"type": "Feature", "id": "a8ZDVdB3sO3CUMq_o_ldgjgCVhE=", "properties": {"ref": "11484439643933133733", "@spider": "pet_suites", "addr:full": "9271 Park E Ct.", "addr:city": "Fishers", "addr:state": "IN", "addr:postcode": "46038", "addr:country": "US", "name": "PetSuites Fishers", "phone": "+13172862469", "website": "https://fishers.petsuitesofamerica.com/", "opening_hours": "Mo-Su 06:30-20:00"}, "geometry": {"type": "Point", "coordinates": [-86.0039, 39.9865]}},
{"type": "Feature", "id": "PyjIyXCP4hsO4YnzTCHX9sw5F0E=", "properties": {"ref": "15776448093375227674", "@spider": "pet_suites", "addr:full": "1200 Avoca Station Ct.", "addr:city": "Louisville", "addr:state": "KY", "addr:postcode": "40245", "addr:country": "US", "name": "PetSuites Middletown", "phone": "+15022654491", "website": "https://middletown.petsuitesofamerica.com/", "opening_hours": "Mo-Su 06:30-20:00"}, "geometry": {"type": "Point", "coordinates": [-85.5242, 38.2577]}},
{"type": "Feature", "id": "FBosovurJeOweaNLjZsvrXFJ_r0=", "properties": {"ref": "7560297642691981775", "@spider": "pet_suites", "addr:full": "2057 Bryant Rd.", "addr:city": "Lexington", "addr:state": "KY", "addr:postcode": "40509", "addr:country": "US", "name": "PetSuites Hamburg", "phone": "+18595542564", "website": "https://hamburg.petsuitesofamerica.com/", "opening_hours": "Mo-Su 06:30-20:00"}, "geometry": {"type": "Point", "coordinates": [-84.5016, 38.048]}},
{"type": "Feature", "id": "G7s-qDixA9_OpPLH-pFFEjJqDaY=", "properties": {"ref": "11613996119824704226", "@spider": "pet_suites", "addr:full": "951 Mansell Rd.", "addr:city": "Roswell", "addr:state": "GA", "addr:postcode": "30076", "addr:country": "US", "name": "PetSuites Roswell", "phone": "+16782723125", "website": "https://roswell.petsuitesofamerica.com/", "opening_hours": "Mo-Su 06:30-20:00"}, "geometry": {"type": "Point", "coordinates": [-84.3354415, 34.0424613]}},
{"type": "Feature", "id": "z-SVGxaNLf6RtsmwuBvXynVSw_g=", "properties": {"ref": "6836106098687555361", "@spider": "pet_suites", "addr:full": "4048 W 94th St.", "addr:city": "Indianapolis", "addr:state": "IN", "addr:postcode": "46268", "addr:country": "US", "name": "PetSuites Indianapolis Northwest", "phone": "+13173995444", "website": "https://indynw.petsuitesofamerica.com/", "opening_hours": "Mo-Su 06:30-20:00"}, "geometry": {"type": "Point", "coordinates": [-86.2306196, 39.9228748]}},
{"type": "Feature", "id": "BsCENFoOjd5ZjC6yvvV7a1sbGjs=", "properties": {"ref": "13194033103368945204", "@spider": "pet_suites", "addr:full": "6865 Jimmy Carter Blvd.", "addr:city": "Norcross", "addr:state": "GA", "addr:postcode": "30071", "addr:country": "US", "name": "PetSuites Norcross", "phone": "+16782723119", "website": "https://norcross.petsuitesofamerica.com/", "opening_hours": "Mo-Su 06:30-20:00"}, "geometry": {"type": "Point", "coordinates": [-84.2375521, 33.9425942]}},
{"type": "Feature", "id": "j4XZDvdWddvOjQEpwq4k8IGeprU=", "properties": {"ref": "12084563924869100471", "@spider": "pet_suites", "addr:full": "219 Archdale Dr.", "addr:city": "Charlotte", "addr:state": "NC", "addr:postcode": "28217", "addr:country": "US", "name": "PetSuites Charlotte Airport", "phone": "+17049814733", "website": "https://charlotteairport.petsuitesofamerica.com/", "opening_hours": "Mo-Su 06:30-20:00"}, "geometry": {"type": "Point", "coordinates": [-80.8942941, 35.1488285]}},
{"type": "Feature", "id": "1I-XbsKJgyRQhr8Wc61W6qtqWWw=", "properties": {"ref": "2818485217237384988", "@spider": "pet_suites", "addr:full": "1032 N Emerson Ave.", "addr:city": "Greenwood", "addr:state": "IN", "addr:postcode": "46143", "addr:country": "US", "name": "PetSuites Greenwood", "phone": "+13179730148", "website": "https://greenwood.petsuitesofamerica.com/", "opening_hours": "Mo-Su 06:30-20:00"}, "geometry": {"type": "Point", "coordinates": [-86.0853424, 39.6311531]}},
{"type": "Feature", "id": "IcS_F_TA2glkq_UMJtdlmDKcmhQ=", "properties": {"ref": "4398941577189267458", "@spider": "pet_suites", "addr:full": "13010 Wortham Center Dr.", "addr:city": "Houston", "addr:state": "TX", "addr:postcode": "77065", "addr:country": "US", "name": "PetSuites Cypress", "phone": "+12813716105", "website": "https://cypress.petsuitesofamerica.com/", "opening_hours": "Mo-Su 06:30-20:00"}, "geometry": {"type": "Point", "coordinates": [-95.613655, 29.9212913]}},
{"type": "Feature", "id": "DegSPHk0wOsJQON2Ngf5_8CqZp8=", "properties": {"ref": "5145545931967773520", "@spider": "pet_suites", "addr:full": "975 US 190 E Service Rd", "addr:city": "Covington", "addr:state": "LA", "addr:postcode": "70433", "addr:country": "US", "name": "PetSuites Northshore", "phone": "+18339980485", "website": "https://northshore.petsuitesofamerica.com/", "opening_hours": "Mo-Su 06:30-20:00"}, "geometry": {"type": "Point", "coordinates": [-90.08310879999999, 30.4227283]}},
{"type": "Feature", "id": "eeqHzwOo0fvOEkqxQ0OPrnC-7PQ=", "properties": {"ref": "13239848825612957662", "@spider": "pet_suites", "addr:full": "8200 Perkins Rd.", "addr:city": "Baton Rouge", "addr:state": "LA", "addr:postcode": "70810", "addr:country": "US", "name": "PetSuites Baton Rouge", "phone": "+12253418723", "website": "https://batonrouge.petsuitesofamerica.com/", "opening_hours": "Mo-Su 06:00-20:00"}, "geometry": {"type": "Point", "coordinates": [-91.106286, 30.3899735]}},
{"type": "Feature", "id": "9gIA3bPJvm4AL94Pc27dIWrPY_Q=", "properties": {"ref": "8094846667508185484", "@spider": "pet_suites", "addr:full": "4832 Koger Blvd.", "addr:city": "Greensboro", "addr:state": "NC", "addr:postcode": "27407", "addr:country": "US", "name": "PetSuites Greensboro", "phone": "+13367903253", "website": "https://greensboro.petsuitesofamerica.com/", "opening_hours": "Mo-Su 06:30-20:00"}, "geometry": {"type": "Point", "coordinates": [-79.8816245, 36.0510003]}},
{"type": "Feature", "id": "Bd_un-hjv2glfz66MIy_AJ5rPQU=", "properties": {"ref": "17648802404275223425", "@spider": "pet_suites", "addr:full": "3333 Taylor Rd.", "addr:city": "Chesapeake", "addr:state": "VA", "addr:postcode": "23321", "addr:country": "US", "name": "PetSuites Chesapeake", "phone": "+17579428055", "website": "https://chesapeake.petsuitesofamerica.com/", "opening_hours": "Mo-Su 06:30-20:00"}, "geometry": {"type": "Point", "coordinates": [-76.4259, 36.8479]}},
{"type": "Feature", "id": "LXO3YSFd0azNRUg7uB4PDAAZQ14=", "properties": {"ref": "3422138411121118016", "@spider": "pet_suites", "addr:full": "530 NE Loop 410", "addr:city": "San Antonio", "addr:state": "TX", "addr:postcode": "78216", "addr:country": "US", "name": "PetSuites San Antonio Airport", "phone": "+12107872409", "website": "https://sanantonioairport.petsuitesofamerica.com/", "opening_hours": "Mo-Su 06:30-20:00"}, "geometry": {"type": "Point", "coordinates": [-98.47332, 29.51819]}},
{"type": "Feature", "id": "onk5B2qALkGvUOIgdcMjNCzFIwQ=", "properties": {"ref": "16683306572797892081", "@spider": "pet_suites", "addr:full": "1201 FL-434", "addr:city": "Oviedo", "addr:state": "FL", "addr:postcode": "32765", "addr:country": "US", "name": "PetSuites Winter Springs", "phone": "+14073780683", "website": "https://wintersprings.petsuitesofamerica.com/", "opening_hours": "Mo-Su 06:30-20:00"}, "geometry": {"type": "Point", "coordinates": [-81.2261116, 28.6895853]}},
{"type": "Feature", "id": "aspy_-bldAKNt88e1hf7BDFwRIU=", "properties": {"ref": "2859837771919490564", "@spider": "pet_suites", "addr:full": "415 E. FM 544", "addr:city": "Murphy", "addr:state": "TX", "addr:postcode": "75094", "addr:country": "US", "name": "PetSuites Murphy", "phone": "+14697295140", "website": "https://murphy.petsuitesofamerica.com/", "opening_hours": "Mo-Su 06:30-20:00"}, "geometry": {"type": "Point", "coordinates": [-96.601722, 33.012805]}},
{"type": "Feature", "id": "VrXDW8MTbHVdIxpKflMDyGdyI90=", "properties": {"ref": "6808636357235773905", "@spider": "pet_suites", "addr:full": "5205 53rd Ave East", "addr:city": "Bradenton", "addr:state": "FL", "addr:postcode": "34203", "addr:country": "US", "name": "PetSuites Bradenton", "phone": "+19412274466", "website": "https://bradenton.petsuitesofamerica.com/", "opening_hours": "Mo-Su 06:30-20:00"}, "geometry": {"type": "Point", "coordinates": [-82.494904, 27.4468242]}},
{"type": "Feature", "id": "_G5KG9gARIzLe4v-z7Eh0AbXHt8=", "properties": {"ref": "14530825316828420651", "@spider": "pet_suites", "addr:full": "1002 Keys Dr.", "addr:city": "Greenville", "addr:state": "SC", "addr:postcode": "29615", "addr:country": "US", "name": "PetSuites Greenville", "phone": "+18648814671", "website": "https://greenville.petsuitesofamerica.com/", "opening_hours": "Mo-Su 06:30-20:00"}, "geometry": {"type": "Point", "coordinates": [-82.3162, 34.8436]}},
{"type": "Feature", "id": "suqHIoFWkc88G4kvyqEWYpoBhjk=", "properties": {"ref": "6395277447283939225", "@spider": "pet_suites", "addr:full": "4405 Front Nine Dr.", "addr:city": "Cumming", "addr:state": "GA", "addr:postcode": "30041", "addr:country": "US", "name": "PetSuites Cumming", "phone": "+14702819651", "website": "https://cumming.petsuitesofamerica.com/", "opening_hours": "Mo-Su 06:30-20:00"}, "geometry": {"type": "Point", "coordinates": [-84.1253967, 34.134243]}},
{"type": "Feature", "id": "hiYHdwozDTUHY_qjLPUi-uNMX0Y=", "properties": {"ref": "1796472969561650928", "@spider": "pet_suites", "addr:full": "4520 S. Forest Hill Irene Rd.", "addr:city": "Memphis", "addr:state": "TN", "addr:postcode": "38125", "addr:country": "US", "name": "PetSuites Collierville", "phone": "+19014570252", "website": "https://collierville.petsuitesofamerica.com/", "opening_hours": "Mo-Su 06:30-20:00"}, "geometry": {"type": "Point", "coordinates": [-89.759495090913, 35.02338841182833]}},
{"type": "Feature", "id": "AEgqtE94z32jtPiQ-8UwLCmq00A=", "properties": {"ref": "3928130017671990804", "@spider": "pet_suites", "addr:full": "8320 Copper Creek Ln.", "addr:city": "Missouri City", "addr:state": "TX", "addr:postcode": "77459", "addr:country": "US", "name": "PetSuites Missouri City", "phone": "+18327571750", "website": "https://missouricity.petsuitesofamerica.com/", "opening_hours": "Mo-Su 06:30-20:00"}, "geometry": {"type": "Point", "coordinates": [-95.5475, 29.5409]}},
{"type": "Feature", "id": "RS94h0x1FToSsw5OIh00ywfDpwQ=", "properties": {"ref": "3473034155821892917", "@spider": "pet_suites", "addr:full": "9420 Seatonville Rd.", "addr:city": "Louisville", "addr:state": "KY", "addr:postcode": "40291", "addr:country": "US", "name": "PetSuites Fern Creek", "phone": "+15022654258", "website": "https://ferncreek.petsuitesofamerica.com/", "opening_hours": "Mo-Su 06:30-20:00"}, "geometry": {"type": "Point", "coordinates": [-85.5856399, 38.1497611]}},
{"type": "Feature", "id": "2CtAkwitfqNcJolKIHsI6Oi9wvQ=", "properties": {"ref": "1698869756356616767", "@spider": "pet_suites", "addr:full": "8030 McGinnis Ferry Rd.", "addr:city": "Suwanee", "addr:state": "GA", "addr:postcode": "30024", "addr:country": "US", "name": "PetSuites Johns Creek", "phone": "+14706213935", "website": "https://johnscreek.petsuitesofamerica.com/", "opening_hours": "Mo-Su 06:30-20:00"}, "geometry": {"type": "Point", "coordinates": [-84.1221472, 34.0530037]}},
{"type": "Feature", "id": "kYHEItehTXXup5auxQfCmV9ZBLU=", "properties": {"ref": "14264430286336003682", "@spider": "pet_suites", "addr:full": "2525 Sugarloaf Pkwy.", "addr:city": "Lawrenceville", "addr:state": "GA", "addr:postcode": "30045", "addr:country": "US", "name": "PetSuites Lawrenceville", "phone": "+14705794868", "website": "https://lawrenceville.petsuitesofamerica.com/", "opening_hours": "Mo-Su 06:30-20:00"}, "geometry": {"type": "Point", "coordinates": [-83.9926, 33.91641]}},
{"type": "Feature", "id": "iM0MTCqE0unCVsuvY4x5dQuHFfY=", "properties": {"ref": "17140616824459326447", "@spider": "pet_suites", "addr:full": "1401 Louis Henna Blvd.", "addr:city": "Round Rock", "addr:state": "TX", "addr:postcode": "78664", "addr:country": "US", "name": "PetSuites Round Rock", "phone": "+17372422363", "website": "https://roundrock.petsuitesofamerica.com/", "opening_hours": "Mo-Su 06:30-20:00"}, "geometry": {"type": "Point", "coordinates": [-97.647, 30.4853]}},
{"type": "Feature", "id": "97Yt4JdQ2NV0iN6sb9C_HgxRt2k=", "properties": {"ref": "3188860449638028789", "@spider": "pet_suites", "addr:full": "12533 Warwick Blvd.", "addr:city": "Newport News", "addr:state": "VA", "addr:postcode": "23606", "addr:country": "US", "name": "PetSuites Newport News", "phone": "+17574472589", "website": "https://newportnews.petsuitesofamerica.com/", "opening_hours": "Mo-Su 06:30-20:00"}, "geometry": {"type": "Point", "coordinates": [-76.497, 37.0788]}},
{"type": "Feature", "id": "5J4Nt0mc33ijEnrxl_6hz7zLFDk=", "properties": {"ref": "2132628503380673452", "@spider": "pet_suites", "addr:full": "261 John R. Rice Blvd.", "addr:city": "Murfreesboro", "addr:state": "TN", "addr:postcode": "37129", "addr:country": "US", "name": "PetSuites Murfreesboro", "phone": "+16156921107", "website": "https://murfreesboro.petsuitesofamerica.com/", "opening_hours": "Mo-Su 06:30-20:00"}, "geometry": {"type": "Point", "coordinates": [-86.4432199, 35.8526399]}},
{"type": "Feature", "id": "AvrDZTMhktw6laDvotGclgaWbe4=", "properties": {"ref": "1559508953648110731", "@spider": "pet_suites", "addr:full": "309 N. Randall Road", "addr:city": "Lake in the Hills", "addr:state": "IL", "addr:postcode": "60156", "addr:country": "US", "name": "PetSuites Lake in the Hills", "phone": "+12242361489", "website": "https://lakeinthehills.petsuitesofamerica.com/", "opening_hours": "Mo-Su 06:30-20:00"}, "geometry": {"type": "Point", "coordinates": [-88.333845, 42.177953]}},
{"type": "Feature", "id": "OyznbrFGvaxXpn-DN-NhFfoFLC4=", "properties": {"ref": "1188727154567576035", "@spider": "pet_suites", "addr:full": "5501 Columbus Trail", "addr:city": "Fort Worth", "addr:state": "TX", "addr:postcode": "76123", "addr:country": "US", "name": "PetSuites Chisholm Trail", "phone": "+16823107825", "website": "https://chisholmtrail.petsuitesofamerica.com/", "opening_hours": "Mo-Su 06:30-20:00"}, "geometry": {"type": "Point", "coordinates": [-97.4112721, 32.6287208]}},
{"type": "Feature", "id": "PRn9ezJLphP2_5Z4_SA40FTQ8Vw=", "properties": {"ref": "4666996142380835562", "@spider": "pet_suites", "addr:full": "3205 Kirby Drive", "addr:city": "Pearland", "addr:state": "TX", "addr:postcode": "77584", "addr:country": "US", "name": "PetSuites Pearland", "phone": "+18328560125", "website": "https://pearland.petsuitesofamerica.com/", "opening_hours": "Mo-Su 06:30-20:00"}, "geometry": {"type": "Point", "coordinates": [-95.3984107, 29.5509187]}},
{"type": "Feature", "id": "OYfMPKEZ7tJE1tKEm4Dn3Niy7Mw=", "properties": {"ref": "3266938683540026161", "@spider": "pet_suites", "addr:full": "15940 Great Oaks Dr", "addr:city": "Round Rock", "addr:state": "TX", "addr:postcode": "78681", "addr:country": "US", "name": "PetSuites Great Oaks", "phone": "+17372635782", "website": "https://greatoaks.petsuitesofamerica.com/", "opening_hours": "Mo-Su 06:30-20:00"}, "geometry": {"type": "Point", "coordinates": [-97.726921, 30.4945335]}},
{"type": "Feature", "id": "JeA8Re5Che-1vp1RDjSxB8yrStQ=", "properties": {"ref": "5201709610668178020", "@spider": "pet_suites", "addr:full": "8424 N Riverside Dr", "addr:city": "Fort Worth", "addr:state": "TX", "addr:postcode": "76244", "addr:country": "US", "name": "PetSuites Alliance", "phone": "+19729927960", "website": "https://alliance.petsuitesofamerica.com/", "opening_hours": "Mo-Su 06:30-20:00"}, "geometry": {"type": "Point", "coordinates": [-97.30659539999999, 32.8944021]}},
{"type": "Feature", "id": "qQGu4UFr5UDdx7RP7Dz4imBeu18=", "properties": {"ref": "9709462257844837580", "@spider": "pet_suites", "addr:full": "6525 Louetta Road", "addr:city": "Spring", "addr:state": "TX", "addr:postcode": "77379", "addr:country": "US", "name": "PetSuites Spring Klein", "phone": "+13462206763", "website": "https://klein.petsuitesofamerica.com/", "opening_hours": "Mo-Su 06:30-20:00"}, "geometry": {"type": "Point", "coordinates": [-95.5130355, 30.0257969]}},
{"type": "Feature", "id": "TthpxadReIPOBcAHmhb1vi8Rfbw=", "properties": {"ref": "4990314486624904970", "@spider": "pet_suites", "addr:full": "5525 South Cooper Street", "addr:city": "Arlington", "addr:state": "TX", "addr:postcode": "76017", "addr:country": "US", "name": "PetSuites Arlington", "phone": "+14698900274", "website": "https://arlington.petsuitesofamerica.com/", "opening_hours": "Mo-Su 06:30-20:00"}, "geometry": {"type": "Point", "coordinates": [-97.133048, 32.656392]}},
{"type": "Feature", "id": "PsQLp0aFMLrc1T2WjNvGZRdhDJM=", "properties": {"ref": "16124666902530560740", "@spider": "pet_suites", "addr:full": "1415 North Wendover Road", "addr:city": "Charlotte", "addr:state": "NC", "addr:postcode": "28205", "addr:country": "US", "name": "PetSuites Wendover", "phone": "+18339942784", "website": "https://wendover.petsuitesofamerica.com/", "opening_hours": "Mo-Su 06:30-20:00"}, "geometry": {"type": "Point", "coordinates": [-80.7913208, 35.1972389]}},
{"type": "Feature", "id": "M_yEDHNhfP-nBKZEV88-CDCmLO8=", "properties": {"ref": "3645527141624682910", "@spider": "pet_suites", "addr:full": "47025 Grand River Avenue", "addr:city": "Novi", "addr:state": "MI", "addr:postcode": "48374", "addr:country": "US", "name": "PetSuites Novi", "phone": "+19472280015", "website": "https://novi.petsuitesofamerica.com/", "opening_hours": "Mo-Su 06:30-20:00"}, "geometry": {"type": "Point", "coordinates": [-83.5102989, 42.4880878]}},
{"type": "Feature", "id": "sDSRqUNf2FRYn6q-Po44WJ6Pg0M=", "properties": {"ref": "4039006046447430779", "@spider": "pet_suites", "addr:full": "2311 Sparta Way", "addr:city": "Buford", "addr:state": "GA", "addr:postcode": "30519", "addr:country": "US", "name": "PetSuites Braselton", "phone": "+16784046872", "website": "https://braselton.petsuitesofamerica.com/", "opening_hours": "Mo-Su 06:30-20:00"}, "geometry": {"type": "Point", "coordinates": [-83.8764485, 34.106976]}},
{"type": "Feature", "id": "BachcmEJ3FUv0tcgMJJkvAzNxRI=", "properties": {"ref": "3289203445784941146", "@spider": "pet_suites", "addr:full": "8531 Hufsmith Road", "addr:city": "Tomball", "addr:state": "TX", "addr:postcode": "77375", "addr:country": "US", "name": "PetSuites The Woodlands", "phone": "+18325592937", "website": "https://thewoodlands.petsuitesofamerica.com/", "opening_hours": "Mo-Su 06:30-20:00"}, "geometry": {"type": "Point", "coordinates": [-95.5551588, 30.1311351]}},
{"type": "Feature", "id": "GsgapvkPslYEJTnvMwvlfbBgyps=", "properties": {"ref": "4361245554444459349", "@spider": "pet_suites", "addr:full": "2311 John Hawkins Parkway", "addr:city": "Hoover", "addr:state": "AL", "addr:postcode": "35244", "addr:country": "US", "name": "PetSuites Hoover", "phone": "+12056490981", "website": "https://hoover.petsuitesofamerica.com/", "opening_hours": "Mo-Su 06:30-20:00"}, "geometry": {"type": "Point", "coordinates": [-86.8657684, 33.3515014]}},
{"type": "Feature", "id": "zE0hQnYSJaAhNI8QprCKMO7UBA4=", "properties": {"ref": "5617365114579814653", "@spider": "pet_suites", "addr:full": "17730 West Lake Houston Parkway", "addr:city": "Humble", "addr:state": "TX", "addr:postcode": "77346", "addr:country": "US", "name": "PetSuites Atascocita", "phone": "+13464154901", "website": "https://atascocita.petsuitesofamerica.com/", "opening_hours": "Mo-Su 06:30-20:00"}, "geometry": {"type": "Point", "coordinates": [-95.1681594, 29.9767971]}}]}