{"type":"FeatureCollection","features":[{"type": "Feature", "id": "jz4YgHZvEvqPuNdX-o5ZzxY784c=", "properties": {"ref": "https://www.pfchangs.com/locations/us/id/boise/391-s-8th-st/9980-boise.html", "@spider": "pf_changs", "addr:full": "391 S 8th St.", "addr:city": "Boise", "addr:state": "ID", "addr:postcode": "83702", "phone": "(208) 342-8100", "website": "https://www.pfchangs.com/locations/us/id/boise/391-s-8th-st/9980-boise.html", "brand": "PF Changs"}, "geometry": {"type": "Point", "coordinates": [-116.20573729276657, 43.61367129798914]}},
{"type": "Feature", "id": "-rtZmiBBnn-ROAyrSG3R6K4OWag=", "properties": {"ref": "https://www.pfchangs.com/locations/us/hi/honolulu/2201-kalakaua-ave/9990-honolulu.html", "@spider": "pf_changs", "addr:full": "2201 Kalakaua Ave", "addr:city": "Honolulu", "addr:state": "HI", "addr:postcode": "96815", "phone": "(808) 628-6760", "website": "https://www.pfchangs.com/locations/us/hi/honolulu/2201-kalakaua-ave/9990-honolulu.html", "brand": "PF Changs"}, "geometry": {"type": "Point", "coordinates": [-157.83003713070585, 21.279071164718143]}},
{"type": "Feature", "id": "JsY20bZ91FOyMJRhE0NxCzpN_7I=", "properties": {"ref": "https://www.pfchangs.com/locations/us/ct/farmington/322-west-farms-mall/9857-w-hartford.html", "@spider": "pf_changs", "addr:full": "322 West Farms Mall", "addr:city": "Farmington", "addr:state": "CT", "addr:postcode": "06032", "phone": "(860) 561-0097", "website": "https://www.pfchangs.com/locations/us/ct/farmington/322-west-farms-mall/9857-w-hartford.html", "brand": "PF Changs"}, "geometry": {"type": "Point", "coordinates": [-72.76179939508438, 41.72369208741016]}},
{"type": "Feature", "id": "HD3U8FTcMtU8yCQ2VuKK8B6dKE0=", "properties": {"ref": "https://www.pfchangs.com/locations/us/ar/rogers/2203-s-promenade/9821-rogers.html", "@spider": "pf_changs", "addr:full": "2203 S Promenade", "addr:city": "Rogers", "addr:state": "AR", "addr:postcode": "72758", "phone": "(479) 621-0491", "website": "https://www.pfchangs.com/locations/us/ar/rogers/2203-s-promenade/9821-rogers.html", "brand": "PF Changs"}, "geometry": {"type": "Point", "coordinates": [-94.17630940675735, 36.30387287403866]}},
{"type": "Feature", "id": "vqFFCfuk2uOiVm6858Jd0xjHmy8=", "properties": {"ref": "https://www.pfchangs.com/locations/us/nm/albuquerque/4440-the-25th-way-ne/9930-albuquerque.html", "@spider": "pf_changs", "addr:full": "4440 The 25th Way NE", "addr:city": "Albuquerque", "addr:state": "NM", "addr:postcode": "87109", "phone": "(505) 344-8282", "website": "https://www.pfchangs.com/locations/us/nm/albuquerque/4440-the-25th-way-ne/9930-albuquerque.html", "brand": "PF Changs"}, "geometry": {"type": "Point", "coordinates": [-106.59168094396597, 35.14573779437596]}},
{"type": "Feature", "id": "NROqLeSt4eGn5Bk4WUFoTbQl3C8=", "properties": {"ref": "https://www.pfchangs.com/locations/us/al/huntsville/305-the-bridge-st/9804-huntsville.html", "@spider": "pf_changs", "addr:full": "305 The Bridge St.", "addr:city": "Huntsville", "addr:state": "AL", "addr:postcode": "35806", "phone": "(256) 327-8320", "website": "https://www.pfchangs.com/locations/us/al/huntsville/305-the-bridge-st/9804-huntsville.html", "brand": "PF Changs"}, "geometry": {"type": "Point", "coordinates": [-86.67346000671387, 34.71530955788166]}},
{"type": "Feature", "id": "kCgstJEVly9Ojsw9GArXaJRbyyo=", "properties": {"ref": "https://www.pfchangs.com/locations/us/il/schaumburg/5-woodfield-mall/8900-schaumburg.html", "@spider": "pf_changs", "addr:full": "5 Woodfield Mall", "addr:city": "Schaumburg", "addr:state": "IL", "addr:postcode": "60173", "phone": "(847) 610-8000", "website": "https://www.pfchangs.com/locations/us/il/schaumburg/5-woodfield-mall/8900-schaumburg.html", "brand": "PF Changs"}, "geometry": {"type": "Point", "coordinates": [-88.03664177656174, 42.04535487640547]}},
{"type": "Feature", "id": "vFEKdlXNMEPOi1SQR1Z1HvmFEG0=", "properties": {"ref": "https://www.pfchangs.com/locations/us/il/orland-park/14135-la-grange-rd/9806-orland-park.html", "@spider": "pf_changs", "addr:full": "14135 La Grange Rd.", "addr:city": "Orland Park", "addr:state": "IL", "addr:postcode": "60462", "phone": "(708) 675-3970", "website": "https://www.pfchangs.com/locations/us/il/orland-park/14135-la-grange-rd/9806-orland-park.html", "brand": "PF Changs"}, "geometry": {"type": "Point", "coordinates": [-87.85324573516846, 41.63281565520779]}},
{"type": "Feature", "id": "DbvIT83I9L1e45viLtOffVn5ub8=", "properties": {"ref": "https://www.pfchangs.com/locations/us/ga/buford/3333-buford-dr/7100-buford.html", "@spider": "pf_changs", "addr:full": "3333 Buford Dr.", "addr:city": "Buford", "addr:state": "GA", "addr:postcode": "30519", "phone": "(678) 546-9005", "website": "https://www.pfchangs.com/locations/us/ga/buford/3333-buford-dr/7100-buford.html", "brand": "PF Changs"}, "geometry": {"type": "Point", "coordinates": [-83.9828333, 34.0641117]}},
{"type": "Feature", "id": "FmWq5JSGfhrX_E6yLNM6taWMInU=", "properties": {"ref": "https://www.pfchangs.com/locations/us/fl/winter-park/436-north-orlando-ave/5000-winterpark.html", "@spider": "pf_changs", "addr:full": "436 North Orlando Ave.", "addr:city": "Winter Park", "addr:state": "FL", "addr:postcode": "32789", "phone": "(407) 622-0188", "website": "https://www.pfchangs.com/locations/us/fl/winter-park/436-north-orlando-ave/5000-winterpark.html", "brand": "PF Changs"}, "geometry": {"type": "Point", "coordinates": [-81.36460467242159, 28.60218014619994]}},
{"type": "Feature", "id": "VHZDFipp-UoU7fBG3lWcPOiK4B8=", "properties": {"ref": "https://www.pfchangs.com/locations/us/fl/tampa/219-westshore-plaza/9922-tampa.html", "@spider": "pf_changs", "addr:full": "219 Westshore Plaza", "addr:city": "Tampa", "addr:state": "FL", "addr:postcode": "33609", "phone": "(813) 289-8400", "website": "https://www.pfchangs.com/locations/us/fl/tampa/219-westshore-plaza/9922-tampa.html", "brand": "PF Changs"}, "geometry": {"type": "Point", "coordinates": [-82.5261785, 27.9468722]}},
{"type": "Feature", "id": "SwOD0qi0erLBTa12vKZQNFmcMn8=", "properties": {"ref": "https://www.pfchangs.com/locations/us/co/lone-tree/8315-s-park-meadows-center-dr/1700-park-meadows.html", "@spider": "pf_changs", "addr:full": "8315 S Park Meadows Center Dr.", "addr:city": "Lone Tree", "addr:state": "CO", "addr:postcode": "80124", "phone": "(303) 790-7744", "website": "https://www.pfchangs.com/locations/us/co/lone-tree/8315-s-park-meadows-center-dr/1700-park-meadows.html", "brand": "PF Changs"}, "geometry": {"type": "Point", "coordinates": [-104.87595230340958, 39.56537128065097]}},
{"type": "Feature", "id": "Y9ycWmhdKhjMW6WjMNK2iFYke0U=", "properties": {"ref": "https://www.pfchangs.com/locations/us/ca/roseville/1180-galleria-blvd/7500-roseville.html", "@spider": "pf_changs", "addr:full": "1180 Galleria Blvd.", "addr:city": "Roseville", "addr:state": "CA", "addr:postcode": "95678", "phone": "(916) 788-2800", "website": "https://www.pfchangs.com/locations/us/ca/roseville/1180-galleria-blvd/7500-roseville.html", "brand": "PF Changs"}, "geometry": {"type": "Point", "coordinates": [-121.2651452, 38.7724898]}},
{"type": "Feature", "id": "2XzA2tvJvG4qnYMAlCB4dF0kEWI=", "properties": {"ref": "https://www.pfchangs.com/locations/us/ca/woodland-hills/21821-oxnard-st/4200-woodland-hills.html", "@spider": "pf_changs", "addr:full": "21821 Oxnard St.", "addr:city": "Woodland Hills", "addr:state": "CA", "addr:postcode": "91367", "phone": "(818) 340-0491", "website": "https://www.pfchangs.com/locations/us/ca/woodland-hills/21821-oxnard-st/4200-woodland-hills.html", "brand": "PF Changs"}, "geometry": {"type": "Point", "coordinates": [-118.6035212, 34.1795741]}},
{"type": "Feature", "id": "cGKyHx6j_yorHUIGcIxdraVcyBA=", "properties": {"ref": "https://www.pfchangs.com/locations/us/ca/walnut-creek/1205-broadway-plaza/4500-walnut-creek.html", "@spider": "pf_changs", "addr:full": "1205 Broadway Plaza", "addr:city": "Walnut Creek", "addr:state": "CA", "addr:postcode": "94596", "phone": "(925) 979-9070", "website": "https://www.pfchangs.com/locations/us/ca/walnut-creek/1205-broadway-plaza/4500-walnut-creek.html", "brand": "PF Changs"}, "geometry": {"type": "Point", "coordinates": [-122.05905412493848, 37.897237540917956]}},
{"type": "Feature", "id": "FfbUWOi8v07dzhdeBzu5TUfaTI4=", "properties": {"ref": "https://www.pfchangs.com/locations/us/ok/tulsa/1978-e-21st-st/9924-tulsa.html", "@spider": "pf_changs", "addr:full": "1978 E 21st St.", "addr:city": "Tulsa", "addr:state": "OK", "addr:postcode": "74114", "phone": "(918) 747-6555", "website": "https://www.pfchangs.com/locations/us/ok/tulsa/1978-e-21st-st/9924-tulsa.html", "brand": "PF Changs"}, "geometry": {"type": "Point", "coordinates": [-95.96367448568344, 36.131380324151706]}},
{"type": "Feature", "id": "Wf4rkV6QldEwkkyeM3SUvxNSK20=", "properties": {"ref": "https://www.pfchangs.com/locations/us/oh/west-chester/9435-civic-centre-blvd-streets-of-westchester/9948-west-chester.html", "@spider": "pf_changs", "addr:full": "9435 Civic Centre Blvd. Streets of Westchester", "addr:city": "West Chester", "addr:state": "OH", "addr:postcode": "45069", "phone": "(513) 779-5555", "website": "https://www.pfchangs.com/locations/us/oh/west-chester/9435-civic-centre-blvd-streets-of-westchester/9948-west-chester.html", "brand": "PF Changs"}, "geometry": {"type": "Point", "coordinates": [-84.422869, 39.318897]}},
{"type": "Feature", "id": "rTKsL0fDo6MiAfrdW6npCOjGLF0=", "properties": {"ref": "https://www.pfchangs.com/locations/us/nc/winston-salem/175-harvey-street/9887-winston-salem-nc.html", "@spider": "pf_changs", "addr:full": "175 Harvey Street", "addr:city": "Winston Salem", "addr:state": "NC", "addr:postcode": "27103", "phone": "(336) 793-4191", "website": "https://www.pfchangs.com/locations/us/nc/winston-salem/175-harvey-street/9887-winston-salem-nc.html", "brand": "PF Changs"}, "geometry": {"type": "Point", "coordinates": [-80.29313921928406, 36.085210887002205]}},
{"type": "Feature", "id": "ManSBGVp3rjqgL4xT96bK6TU3HU=", "properties": {"ref": "https://www.pfchangs.com/locations/us/ny/white-plains/125-westchester-ave/5500-white-plains.html", "@spider": "pf_changs", "addr:full": "125 Westchester Ave.", "addr:city": "White Plains", "addr:state": "NY", "addr:postcode": "10601", "phone": "(914) 997-6100", "website": "https://www.pfchangs.com/locations/us/ny/white-plains/125-westchester-ave/5500-white-plains.html", "brand": "PF Changs"}, "geometry": {"type": "Point", "coordinates": [-73.76039972883609, 41.032090462140786]}},
{"type": "Feature", "id": "oQ5uRKaJxQJPyVtvqDFZhTBFigc=", "properties": {"ref": "https://www.pfchangs.com/locations/us/ny/victor/820-eastview-mall/9946-rochester.html", "@spider": "pf_changs", "addr:full": "820 Eastview Mall", "addr:city": "Victor", "addr:state": "NY", "addr:postcode": "14564", "phone": "(585) 223-2410", "website": "https://www.pfchangs.com/locations/us/ny/victor/820-eastview-mall/9946-rochester.html", "brand": "PF Changs"}, "geometry": {"type": "Point", "coordinates": [-77.44108468294144, 43.029080534494476]}},
{"type": "Feature", "id": "P6xcgwAoCsqZbcJKBgaaZqR7ovY=", "properties": {"ref": "https://www.pfchangs.com/locations/us/wi/wauwatosa/2500-n-mayfair-rd/9913-wauwatosa.html", "@spider": "pf_changs", "addr:full": "2500 N Mayfair Rd.", "addr:city": "Wauwatosa", "addr:state": "WI", "addr:postcode": "53226", "phone": "(414) 607-1029", "website": "https://www.pfchangs.com/locations/us/wi/wauwatosa/2500-n-mayfair-rd/9913-wauwatosa.html", "brand": "PF Changs"}, "geometry": {"type": "Point", "coordinates": [-88.04481849074364, 43.064006608018225]}},
{"type": "Feature", "id": "2vk43wD_tQXpuvSOUrh-67wPiek=", "properties": {"ref": "https://www.pfchangs.com/locations/us/wa/spokane/801-w-main/9818-spokane.html", "@spider": "pf_changs", "addr:full": "801 W Main", "addr:city": "Spokane", "addr:state": "WA", "addr:postcode": "99201", "phone": "(509) 456-2166", "website": "https://www.pfchangs.com/locations/us/wa/spokane/801-w-main/9818-spokane.html", "brand": "PF Changs"}, "geometry": {"type": "Point", "coordinates": [-117.42381691932678, 47.65878469901222]}},
{"type": "Feature", "id": "kZjF2EL-bHnO818OmmCS4Ch7X9I=", "properties": {"ref": "https://www.pfchangs.com/locations/us/wa/bellevue/525-bellevue-square/3700-bellevue.html", "@spider": "pf_changs", "addr:full": "525 Bellevue Square", "addr:city": "Bellevue", "addr:state": "WA", "addr:postcode": "98004", "phone": "(425) 637-3582", "website": "https://www.pfchangs.com/locations/us/wa/bellevue/525-bellevue-square/3700-bellevue.html", "brand": "PF Changs"}, "geometry": {"type": "Point", "coordinates": [-122.2020492, 47.6167936]}},
{"type": "Feature", "id": "UEBxYUHUXS8H4In095mBlIQJ09c=", "properties": {"ref": "https://www.pfchangs.com/locations/us/wa/lynnwood/3000-184th-st/9971-lynnwood.html", "@spider": "pf_changs", "addr:full": "3000 184th St.", "addr:city": "Lynnwood", "addr:state": "WA", "addr:postcode": "98037", "phone": "(425) 921-2100", "website": "https://www.pfchangs.com/locations/us/wa/lynnwood/3000-184th-st/9971-lynnwood.html", "brand": "PF Changs"}, "geometry": {"type": "Point", "coordinates": [-122.27257490158081, 47.829968159957076]}},
{"type": "Feature", "id": "Aj_gN69zdokCgaoj2pxUe6X12rs=", "properties": {"ref": "https://www.pfchangs.com/locations/us/wi/appleton/1190-north-casaloma/9904-fox-river.html", "@spider": "pf_changs", "addr:full": "1190 North Casaloma", "addr:city": "Appleton", "addr:state": "WI", "addr:postcode": "54913", "phone": "(920) 815-4700", "website": "https://www.pfchangs.com/locations/us/wi/appleton/1190-north-casaloma/9904-fox-river.html", "brand": "PF Changs"}, "geometry": {"type": "Point", "coordinates": [-88.474316, 44.271237]}},
{"type": "Feature", "id": "uwGH2MtOST-JhjllmGlTqs8oJRc=", "properties": {"ref": "https://www.pfchangs.com/locations/us/ny/syracuse/306-hiawatha-blvd-w/9881-syracuse.html", "@spider": "pf_changs", "addr:full": "306 Hiawatha Blvd W", "addr:city": "Syracuse", "addr:state": "NY", "addr:postcode": "13204", "phone": "(315) 484-5159", "website": "https://www.pfchangs.com/locations/us/ny/syracuse/306-hiawatha-blvd-w/9881-syracuse.html", "brand": "PF Changs"}, "geometry": {"type": "Point", "coordinates": [-76.1715698, 43.0671977]}},
{"type": "Feature", "id": "5THYjQ5v8kBLzGodbEUdvCaegCs=", "properties": {"ref": "https://www.pfchangs.com/locations/us/ny/plainview/373-s-oyster-bay/7012-plainview.html", "@spider": "pf_changs", "addr:full": "373 S. Oyster Bay", "addr:city": "Plainview", "addr:state": "NY", "addr:postcode": "11803", "phone": "(516) 534-5274", "website": "https://www.pfchangs.com/locations/us/ny/plainview/373-s-oyster-bay/7012-plainview.html", "brand": "PF Changs"}, "geometry": {"type": "Point", "coordinates": [-73.50202517106622, 40.78564979152796]}},
{"type": "Feature", "id": "I5DT9WmOFKXFZ-B9MzhArFtLyE8=", "properties": {"ref": "https://www.pfchangs.com/locations/us/ny/lake-grove/476-smith-haven-mall/9869-lake-grove.html", "@spider": "pf_changs", "addr:full": "476 Smith Haven Mall", "addr:city": "Lake Grove", "addr:state": "NY", "addr:postcode": "11755", "phone": "(631) 982-4200", "website": "https://www.pfchangs.com/locations/us/ny/lake-grove/476-smith-haven-mall/9869-lake-grove.html", "brand": "PF Changs"}, "geometry": {"type": "Point", "coordinates": [-73.1311597, 40.8642206]}},
{"type": "Feature", "id": "9AbFZr4dDqHogTjrJR3UApby164=", "properties": {"ref": "https://www.pfchangs.com/locations/us/ny/nanuet/1125-fashion-drive/9885-clarkstown.html", "@spider": "pf_changs", "addr:full": "1125 Fashion Drive", "addr:city": "Nanuet", "addr:state": "NY", "addr:postcode": "10954", "phone": "(845) 501-6002", "website": "https://www.pfchangs.com/locations/us/ny/nanuet/1125-fashion-drive/9885-clarkstown.html", "brand": "PF Changs"}, "geometry": {"type": "Point", "coordinates": [-74.01557117700577, 41.09708442331975]}},
{"type": "Feature", "id": "aVDNeD2CLMwSnwV8U99M2SNz3Fo=", "properties": {"ref": "https://www.pfchangs.com/locations/us/ny/buffalo/1-galleria-dr-th131/9870-buffalo.html", "@spider": "pf_changs", "addr:full": "1 Galleria Dr. TH131", "addr:city": "Buffalo", "addr:state": "NY", "addr:postcode": "14225", "phone": "(716) 706-0791", "website": "https://www.pfchangs.com/locations/us/ny/buffalo/1-galleria-dr-th131/9870-buffalo.html", "brand": "PF Changs"}, "geometry": {"type": "Point", "coordinates": [-78.7631362, 42.9152368]}},
{"type": "Feature", "id": "8WiPkGLDGT6iqWMJKz8kEk6vs4E=", "properties": {"ref": "https://www.pfchangs.com/locations/us/ny/huntington-station/160-walt-whitman-rd/9884-huntington-station.html", "@spider": "pf_changs", "addr:full": "160 Walt Whitman Rd", "addr:city": "Huntington Station", "addr:state": "NY", "addr:postcode": "11746", "phone": "(631) 760-5200", "website": "https://www.pfchangs.com/locations/us/ny/huntington-station/160-walt-whitman-rd/9884-huntington-station.html", "brand": "PF Changs"}, "geometry": {"type": "Point", "coordinates": [-73.4106335, 40.8206998]}},
{"type": "Feature", "id": "QCfehoDwKZpPVGqtFfSj2oqPMmc=", "properties": {"ref": "https://www.pfchangs.com/locations/us/ny/albany/131-colonie-center/9815-albany.html", "@spider": "pf_changs", "addr:full": "131 Colonie Center", "addr:city": "Albany", "addr:state": "NY", "addr:postcode": "12205", "phone": "(518) 454-0040", "website": "https://www.pfchangs.com/locations/us/ny/albany/131-colonie-center/9815-albany.html", "brand": "PF Changs"}, "geometry": {"type": "Point", "coordinates": [-73.8168755, 42.7106657]}},
{"type": "Feature", "id": "WaFcEIB_XW6ySlXQ-XPqFqSLMK0=", "properties": {"ref": "https://www.pfchangs.com/locations/us/nc/raleigh/4325-glenwood-ave/4600-raleigh.html", "@spider": "pf_changs", "addr:full": "4325 Glenwood Ave.", "addr:city": "Raleigh", "addr:state": "NC", "addr:postcode": "27612", "phone": "(919) 787-7754", "website": "https://www.pfchangs.com/locations/us/nc/raleigh/4325-glenwood-ave/4600-raleigh.html", "brand": "PF Changs"}, "geometry": {"type": "Point", "coordinates": [-78.678745, 35.8403193]}},
{"type": "Feature", "id": "IP4TC0UDNw1VnOYGf-JTGtld_iM=", "properties": {"ref": "https://www.pfchangs.com/locations/us/nc/greensboro/3338-w-friendly-ave/9998-greensboro.html", "@spider": "pf_changs", "addr:full": "3338 W Friendly Ave.", "addr:city": "Greensboro", "addr:state": "NC", "addr:postcode": "27410", "phone": "(336) 291-1302", "website": "https://www.pfchangs.com/locations/us/nc/greensboro/3338-w-friendly-ave/9998-greensboro.html", "brand": "PF Changs"}, "geometry": {"type": "Point", "coordinates": [-79.8388534784317, 36.08621448198694]}},
{"type": "Feature", "id": "YXSjIKC10ZvugoErHNbpiGXesME=", "properties": {"ref": "https://www.pfchangs.com/locations/us/nc/durham/6801-fayetteville-rd/9927-durham.html", "@spider": "pf_changs", "addr:full": "6801 Fayetteville Rd.", "addr:city": "Durham", "addr:state": "NC", "addr:postcode": "27713", "phone": "(919) 294-3131", "website": "https://www.pfchangs.com/locations/us/nc/durham/6801-fayetteville-rd/9927-durham.html", "brand": "PF Changs"}, "geometry": {"type": "Point", "coordinates": [-78.93688291311264, 35.905282909423356]}},
{"type": "Feature", "id": "iqElSRpymRFrZdJStpqu6tA12qg=", "properties": {"ref": "https://www.pfchangs.com/locations/us/nc/asheville/26-schenck-pkwy/9859-asheville.html", "@spider": "pf_changs", "addr:full": "26 Schenck Pkwy.", "addr:city": "Asheville", "addr:state": "NC", "addr:postcode": "28803", "phone": "(828) 681-2975", "website": "https://www.pfchangs.com/locations/us/nc/asheville/26-schenck-pkwy/9859-asheville.html", "brand": "PF Changs"}, "geometry": {"type": "Point", "coordinates": [-82.5540672, 35.4847003]}},
{"type": "Feature", "id": "4Mk3NTeMZ7jQqiUVszDkUPp0YwA=", "properties": {"ref": "https://www.pfchangs.com/locations/us/oh/maumee/2300-village-dr-west/9801-maumee.html", "@spider": "pf_changs", "addr:full": "2300 Village Dr. West", "addr:city": "Maumee", "addr:state": "OH", "addr:postcode": "43537", "phone": "(419) 878-8490", "website": "https://www.pfchangs.com/locations/us/oh/maumee/2300-village-dr-west/9801-maumee.html", "brand": "PF Changs"}, "geometry": {"type": "Point", "coordinates": [-83.708496, 41.5472836]}},
{"type": "Feature", "id": "g_SV5EEjAeHGsiynmsRRFRe1hE8=", "properties": {"ref": "https://www.pfchangs.com/locations/us/oh/dublin/6135-parkcenter-circle/9933-dublin.html", "@spider": "pf_changs", "addr:full": "6135 Parkcenter Circle", "addr:city": "Dublin", "addr:state": "OH", "addr:postcode": "43017", "phone": "(614) 726-0070", "website": "https://www.pfchangs.com/locations/us/oh/dublin/6135-parkcenter-circle/9933-dublin.html", "brand": "PF Changs"}, "geometry": {"type": "Point", "coordinates": [-83.1330928, 40.0767288]}},
{"type": "Feature", "id": "DNwdaDurHqDjHzA9q15YtJMjrno=", "properties": {"ref": "https://www.pfchangs.com/locations/us/oh/columbus/4040-townsfair-way/6500-columbus.html", "@spider": "pf_changs", "addr:full": "4040 Townsfair Way", "addr:city": "Columbus", "addr:state": "OH", "addr:postcode": "43219", "phone": "(614) 416-4100", "website": "https://www.pfchangs.com/locations/us/oh/columbus/4040-townsfair-way/6500-columbus.html", "brand": "PF Changs"}, "geometry": {"type": "Point", "coordinates": [-82.9134835, 40.0491741]}},
{"type": "Feature", "id": "iL7JfQwLT99IsWKOhOztzXPSmCE=", "properties": {"ref": "https://www.pfchangs.com/locations/us/oh/dayton/2626-miamisburg-centerville-rd/9996-dayton.html", "@spider": "pf_changs", "addr:full": "2626 Miamisburg-Centerville Rd.", "addr:city": "Dayton", "addr:state": "OH", "addr:postcode": "45459", "phone": "(937) 428-6085", "website": "https://www.pfchangs.com/locations/us/oh/dayton/2626-miamisburg-centerville-rd/9996-dayton.html", "brand": "PF Changs"}, "geometry": {"type": "Point", "coordinates": [-84.2189601226845, 39.636143999999994]}},
{"type": "Feature", "id": "DY6wgndum0BYWEO_wUu97k9Nr3I=", "properties": {"ref": "https://www.pfchangs.com/locations/us/oh/cincinnati/2633-edmondson-rd/5900-norwood.html", "@spider": "pf_changs", "addr:full": "2633 Edmondson Rd.", "addr:city": "Cincinnati", "addr:state": "OH", "addr:postcode": "45209", "phone": "(513) 531-4567", "website": "https://www.pfchangs.com/locations/us/oh/cincinnati/2633-edmondson-rd/5900-norwood.html", "brand": "PF Changs"}, "geometry": {"type": "Point", "coordinates": [-84.4477757, 39.1482864]}},
{"type": "Feature", "id": "Gmht1vy1mjz4PvY9av9tBn7QoKk=", "properties": {"ref": "https://www.pfchangs.com/locations/us/oh/beachwood/26001-chagrin-blvd/8100-beachwood.html", "@spider": "pf_changs", "addr:full": "26001 Chagrin Blvd.", "addr:city": "Beachwood", "addr:state": "OH", "addr:postcode": "44122", "phone": "(216) 292-1411", "website": "https://www.pfchangs.com/locations/us/oh/beachwood/26001-chagrin-blvd/8100-beachwood.html", "brand": "PF Changs"}, "geometry": {"type": "Point", "coordinates": [-81.49376571178436, 41.46509481633829]}},
{"type": "Feature", "id": "uVws0fysI3jeYrCUubYO1T6ApHE=", "properties": {"ref": "https://www.pfchangs.com/locations/us/ny/new-york/938-third-ave/7009-midtown-east.html", "@spider": "pf_changs", "addr:full": "938 Third Ave.", "addr:city": "New York", "addr:state": "NY", "addr:postcode": "10022", "phone": "(646) 787-0351", "website": "https://www.pfchangs.com/locations/us/ny/new-york/938-third-ave/7009-midtown-east.html", "brand": "PF Changs"}, "geometry": {"type": "Point", "coordinates": [-73.96816784684744, 40.7598720986401]}},
{"type": "Feature", "id": "lMputn0_16lLrks0xjJQZTwuILY=", "properties": {"ref": "https://www.pfchangs.com/locations/us/ny/new-york/885-eighth-ave/7021-midtown-west-coming-soon-.html", "@spider": "pf_changs", "addr:full": "885 Eighth Ave.", "addr:city": "New York", "addr:state": "NY", "addr:postcode": "10019", "phone": "(332) 232-6707", "website": "https://www.pfchangs.com/locations/us/ny/new-york/885-eighth-ave/7021-midtown-west-coming-soon-.html", "brand": "PF Changs"}, "geometry": {"type": "Point", "coordinates": [-73.98510679725575, 40.764080608399865]}},
{"type": "Feature", "id": "XbSzdrDg7htrV_4cTzbXALaAaSg=", "properties": {"ref": "https://www.pfchangs.com/locations/us/ny/new-york/630-3rd-ave/7004-grand-central.html", "@spider": "pf_changs", "addr:full": "630 3rd Ave", "addr:city": "New York", "addr:state": "NY", "addr:postcode": "10017", "phone": "(646) 892-8157", "website": "https://www.pfchangs.com/locations/us/ny/new-york/630-3rd-ave/7004-grand-central.html", "brand": "PF Changs"}, "geometry": {"type": "Point", "coordinates": [-73.97539992713278, 40.750019999999985]}},
{"type": "Feature", "id": "mnDuFRK5fhGktyN8PzHB4p6ygaI=", "properties": {"ref": "https://www.pfchangs.com/locations/us/ny/new-york/62-fulton-st/7005-financial-district.html", "@spider": "pf_changs", "addr:full": "62 Fulton St.", "addr:city": "New York", "addr:state": "NY", "addr:postcode": "10038", "phone": "(646) 921-7328", "website": "https://www.pfchangs.com/locations/us/ny/new-york/62-fulton-st/7005-financial-district.html", "brand": "PF Changs"}, "geometry": {"type": "Point", "coordinates": [-74.00518887116394, 40.708625202204395]}},
{"type": "Feature", "id": "f-_RiXikuX15uIlZ5eF3ePs23kQ=", "properties": {"ref": "https://www.pfchangs.com/locations/us/ny/new-york/240-west-40th-st/7007-theatre-district.html", "@spider": "pf_changs", "addr:full": "240 West 40th St.", "addr:city": "New York", "addr:state": "NY", "addr:postcode": "10018", "phone": "(646) 927-1866", "website": "https://www.pfchangs.com/locations/us/ny/new-york/240-west-40th-st/7007-theatre-district.html", "brand": "PF Changs"}, "geometry": {"type": "Point", "coordinates": [-73.9895573, 40.7552388]}},
{"type": "Feature", "id": "k6clbtHBPRn447c6lI9tL6wv3zs=", "properties": {"ref": "https://www.pfchangs.com/locations/us/oh/akron/3265-w-market-st/9863-akron.html", "@spider": "pf_changs", "addr:full": "3265 W Market St.", "addr:city": "Akron", "addr:state": "OH", "addr:postcode": "44333", "phone": "(330) 869-0560", "website": "https://www.pfchangs.com/locations/us/oh/akron/3265-w-market-st/9863-akron.html", "brand": "PF Changs"}, "geometry": {"type": "Point", "coordinates": [-81.616873, 41.132856]}},
{"type": "Feature", "id": "uXXpGS3pq68wp37R3eSJWouETas=", "properties": {"ref": "https://www.pfchangs.com/locations/us/ok/oklahoma-city/13700-n-pennsylvania-ave/9969-oklahoma-city.html", "@spider": "pf_changs", "addr:full": "13700 N Pennsylvania Ave.", "addr:city": "Oklahoma City", "addr:state": "OK", "addr:postcode": "73134", "phone": "(405) 748-4003", "website": "https://www.pfchangs.com/locations/us/ok/oklahoma-city/13700-n-pennsylvania-ave/9969-oklahoma-city.html", "brand": "PF Changs"}, "geometry": {"type": "Point", "coordinates": [-97.548688352108, 35.610402628373265]}},
{"type": "Feature", "id": "EkAZTsYFb1pdUH-uB0-gdNHwWiU=", "properties": {"ref": "https://www.pfchangs.com/locations/us/az/tempe/740-s-mill-ave/2800-tempe.html", "@spider": "pf_changs", "addr:full": "740 S Mill Ave.", "addr:city": "Tempe", "addr:state": "AZ", "addr:postcode": "85281", "phone": "(480) 731-4600", "website": "https://www.pfchangs.com/locations/us/az/tempe/740-s-mill-ave/2800-tempe.html", "brand": "PF Changs"}, "geometry": {"type": "Point", "coordinates": [-111.94033891534423, 33.422361317541316]}},
{"type": "Feature", "id": "ATDjfchqJuKa2N35kXfuRgmxIWc=", "properties": {"ref": "https://www.pfchangs.com/locations/us/nc/charlotte/6809-f-phillips-place-court/2600-charlotte.html", "@spider": "pf_changs", "addr:full": "6809-F Phillips Place Court", "addr:city": "Charlotte", "addr:state": "NC", "addr:postcode": "28210", "phone": "(704) 552-6644", "website": "https://www.pfchangs.com/locations/us/nc/charlotte/6809-f-phillips-place-court/2600-charlotte.html", "brand": "PF Changs"}, "geometry": {"type": "Point", "coordinates": [-80.8267373, 35.1465656]}},
{"type": "Feature", "id": "Ln0FaR1xLAcjYsmihyWg30OqqYM=", "properties": {"ref": "https://www.pfchangs.com/locations/us/az/tucson/1805-e-river-rd/8000-tucson.html", "@spider": "pf_changs", "addr:full": "1805 E River Rd.", "addr:city": "Tucson", "addr:state": "AZ", "addr:postcode": "85718", "phone": "(520) 615-8788", "website": "https://www.pfchangs.com/locations/us/az/tucson/1805-e-river-rd/8000-tucson.html", "brand": "PF Changs"}, "geometry": {"type": "Point", "coordinates": [-110.945397, 32.2880825]}},
{"type": "Feature", "id": "Wz1GDGx_C3AwmX-tRFIRnuFMJZs=", "properties": {"ref": "https://www.pfchangs.com/locations/us/nc/charlotte/10325-perimeter-pkwy/9831-northlake.html", "@spider": "pf_changs", "addr:full": "10325 Perimeter Pkwy.", "addr:city": "Charlotte", "addr:state": "NC", "addr:postcode": "28216", "phone": "(704) 598-1927", "website": "https://www.pfchangs.com/locations/us/nc/charlotte/10325-perimeter-pkwy/9831-northlake.html", "brand": "PF Changs"}, "geometry": {"type": "Point", "coordinates": [-80.853242, 35.3488083]}},
{"type": "Feature", "id": "ocX9Piq97D4ayQahhAgtb2Tjb94=", "properties": {"ref": "https://www.pfchangs.com/locations/us/az/phoenix/2420-w-happy-valley-rd/9851-happy-valley.html", "@spider": "pf_changs", "addr:full": "2420 W Happy Valley Rd.", "addr:city": "Phoenix", "addr:state": "AZ", "addr:postcode": "85085", "phone": "(623) 707-4495", "website": "https://www.pfchangs.com/locations/us/az/phoenix/2420-w-happy-valley-rd/9851-happy-valley.html", "brand": "PF Changs"}, "geometry": {"type": "Point", "coordinates": [-112.1113371, 33.7134324]}},
{"type": "Feature", "id": "3j-pvH560VxCVgIowAyOaIq8RHs=", "properties": {"ref": "https://www.pfchangs.com/locations/us/az/peoria/16170-n-83rd-ave/9926-peoria.html", "@spider": "pf_changs", "addr:full": "16170 N 83rd Ave.", "addr:city": "Peoria", "addr:state": "AZ", "addr:postcode": "85382", "phone": "(623) 412-3335", "website": "https://www.pfchangs.com/locations/us/az/peoria/16170-n-83rd-ave/9926-peoria.html", "brand": "PF Changs"}, "geometry": {"type": "Point", "coordinates": [-112.2350138425827, 33.63458170155873]}},
{"type": "Feature", "id": "7V2zBgwv8pkCdVEaKjQXMc6Bb3U=", "properties": {"ref": "https://www.pfchangs.com/locations/us/az/mesa/6610-e-superstition-springs-blvd/9986-superstition-springs.html", "@spider": "pf_changs", "addr:full": "6610 E Superstition Springs Blvd.", "addr:city": "Mesa", "addr:state": "AZ", "addr:postcode": "85206", "phone": "(480) 218-4900", "website": "https://www.pfchangs.com/locations/us/az/mesa/6610-e-superstition-springs-blvd/9986-superstition-springs.html", "brand": "PF Changs"}, "geometry": {"type": "Point", "coordinates": [-111.68990089559657, 33.38553803954404]}},
{"type": "Feature", "id": "u5P8whnsbvf6UIiXGyBo0k_20pI=", "properties": {"ref": "https://www.pfchangs.com/locations/us/az/goodyear/14681-w-mcdowell-rd/9852-goodyear.html", "@spider": "pf_changs", "addr:full": "14681 W McDowell Rd.", "addr:city": "Goodyear", "addr:state": "AZ", "addr:postcode": "85395", "phone": "(623) 536-3222", "website": "https://www.pfchangs.com/locations/us/az/goodyear/14681-w-mcdowell-rd/9852-goodyear.html", "brand": "PF Changs"}, "geometry": {"type": "Point", "coordinates": [-112.3747381567955, 33.46383426359417]}},
{"type": "Feature", "id": "TG5zTdux-OqZ0SsZ9PdbQObjja8=", "properties": {"ref": "https://www.pfchangs.com/locations/us/az/chandler/3255-w-chandler-blvd/9800-chandler.html", "@spider": "pf_changs", "addr:full": "3255 W Chandler Blvd.", "addr:city": "Chandler", "addr:state": "AZ", "addr:postcode": "85226", "phone": "(480) 899-0472", "website": "https://www.pfchangs.com/locations/us/az/chandler/3255-w-chandler-blvd/9800-chandler.html", "brand": "PF Changs"}, "geometry": {"type": "Point", "coordinates": [-111.89842075109482, 33.3052256440244]}},
{"type": "Feature", "id": "zvg1LRRH9Ydkq5tNWgupmoRiXZM=", "properties": {"ref": "https://www.pfchangs.com/locations/us/ca/torrance/3525-carson-st-r7/9813-torrance.html", "@spider": "pf_changs", "addr:full": "3525 Carson St. R7", "addr:city": "Torrance", "addr:state": "CA", "addr:postcode": "90503", "phone": "(310) 793-0590", "website": "https://www.pfchangs.com/locations/us/ca/torrance/3525-carson-st-r7/9813-torrance.html", "brand": "PF Changs"}, "geometry": {"type": "Point", "coordinates": [-118.34935823809815, 33.83295290245939]}},
{"type": "Feature", "id": "cfyJOmus-vP3E-hF9azh8fWzTK4=", "properties": {"ref": "https://www.pfchangs.com/locations/us/ca/thousand-oaks/2250-thousand-oaks-blvd/9964-thousand-oaks.html", "@spider": "pf_changs", "addr:full": "2250 Thousand Oaks Blvd.", "addr:city": "Thousand Oaks", "addr:state": "CA", "addr:postcode": "91362", "phone": "(805) 277-5915", "website": "https://www.pfchangs.com/locations/us/ca/thousand-oaks/2250-thousand-oaks-blvd/9964-thousand-oaks.html", "brand": "PF Changs"}, "geometry": {"type": "Point", "coordinates": [-118.84546011686325, 34.174239269225154]}},
{"type": "Feature", "id": "6CvIkmavAZU7ZLvHRQZDFh_Rn3g=", "properties": {"ref": "https://www.pfchangs.com/locations/us/ca/temecula/40762-winchester-rd/9862-temecula.html", "@spider": "pf_changs", "addr:full": "40762 Winchester Rd.", "addr:city": "Temecula", "addr:state": "CA", "addr:postcode": "92591", "phone": "(951) 296-6700", "website": "https://www.pfchangs.com/locations/us/ca/temecula/40762-winchester-rd/9862-temecula.html", "brand": "PF Changs"}, "geometry": {"type": "Point", "coordinates": [-117.15270790674595, 33.52333168238357]}},
{"type": "Feature", "id": "8pB4LIlVUjcXKzi2cnjsTRjSBxI=", "properties": {"ref": "https://www.pfchangs.com/locations/us/ca/sunnyvale/390-w-el-camino-real/6900-sunnyvale.html", "@spider": "pf_changs", "addr:full": "390 W El Camino Real", "addr:city": "Sunnyvale", "addr:state": "CA", "addr:postcode": "94087", "phone": "(408) 991-9078", "website": "https://www.pfchangs.com/locations/us/ca/sunnyvale/390-w-el-camino-real/6900-sunnyvale.html", "brand": "PF Changs"}, "geometry": {"type": "Point", "coordinates": [-122.03663975000381, 37.36864157676256]}},
{"type": "Feature", "id": "PNTs3lkC7boyj2RQpMaESTW_e8g=", "properties": {"ref": "https://www.pfchangs.com/locations/us/ca/sherman-oaks/15301-ventura-blvd/9912-sherman-oaks.html", "@spider": "pf_changs", "addr:full": "15301 Ventura Blvd.", "addr:city": "Sherman Oaks", "addr:state": "CA", "addr:postcode": "91403", "phone": "(818) 784-1694", "website": "https://www.pfchangs.com/locations/us/ca/sherman-oaks/15301-ventura-blvd/9912-sherman-oaks.html", "brand": "PF Changs"}, "geometry": {"type": "Point", "coordinates": [-118.466368, 34.1550782]}},
{"type": "Feature", "id": "YC5tklfgu2TLljP14WWaJK1XIxg=", "properties": {"ref": "https://www.pfchangs.com/locations/us/ca/riverside/3475-tyler-st/9991-riverside.html", "@spider": "pf_changs", "addr:full": "3475 Tyler St.", "addr:city": "Riverside", "addr:state": "CA", "addr:postcode": "92503", "phone": "(951) 689-4020", "website": "https://www.pfchangs.com/locations/us/ca/riverside/3475-tyler-st/9991-riverside.html", "brand": "PF Changs"}, "geometry": {"type": "Point", "coordinates": [-117.45689123868942, 33.907269532979306]}},
{"type": "Feature", "id": "b3KnXJzZzMssks_X0InLpJcUubc=", "properties": {"ref": "https://www.pfchangs.com/locations/us/ca/rancho-mirage/71800-hwy-111/9300-rancho-mirage.html", "@spider": "pf_changs", "addr:full": "71800 Hwy 111", "addr:city": "Rancho Mirage", "addr:state": "CA", "addr:postcode": "92270", "phone": "(760) 776-4912", "website": "https://www.pfchangs.com/locations/us/ca/rancho-mirage/71800-hwy-111/9300-rancho-mirage.html", "brand": "PF Changs"}, "geometry": {"type": "Point", "coordinates": [-116.4098911, 33.7389146]}},
{"type": "Feature", "id": "I3oFkcLrF9gUlCgvC_8N0Qr15MA=", "properties": {"ref": "https://www.pfchangs.com/locations/us/ca/rancho-cucamonga/7870-monticello-ave/9970-rancho-cucamonga.html", "@spider": "pf_changs", "addr:full": "7870 Monticello Ave.", "addr:city": "Rancho Cucamonga", "addr:state": "CA", "addr:postcode": "91739", "phone": "(909) 463-4095", "website": "https://www.pfchangs.com/locations/us/ca/rancho-cucamonga/7870-monticello-ave/9970-rancho-cucamonga.html", "brand": "PF Changs"}, "geometry": {"type": "Point", "coordinates": [-117.53646969795221, 34.110556501142014]}},
{"type": "Feature", "id": "xCvFGdFP5MXSMd0aQvWyrj4aO1s=", "properties": {"ref": "https://www.pfchangs.com/locations/us/ca/pleasanton/1330-stoneridge-mall-rd/9819-pleasanton.html", "@spider": "pf_changs", "addr:full": "1330 Stoneridge Mall Rd.", "addr:city": "Pleasanton", "addr:state": "CA", "addr:postcode": "94588", "phone": "(925) 224-9916", "website": "https://www.pfchangs.com/locations/us/ca/pleasanton/1330-stoneridge-mall-rd/9819-pleasanton.html", "brand": "PF Changs"}, "geometry": {"type": "Point", "coordinates": [-121.928858, 37.6935273]}},
{"type": "Feature", "id": "Q20Vhut65n1eYL64N2UscCaaR3M=", "properties": {"ref": "https://www.pfchangs.com/locations/us/ca/pasadena/300-e-colorado-blvd/9000-pasadena.html", "@spider": "pf_changs", "addr:full": "300 E. Colorado Blvd.", "addr:city": "Pasadena", "addr:state": "CA", "addr:postcode": "91101", "phone": "(626) 356-9760", "website": "https://www.pfchangs.com/locations/us/ca/pasadena/300-e-colorado-blvd/9000-pasadena.html", "brand": "PF Changs"}, "geometry": {"type": "Point", "coordinates": [-118.14457768220905, 34.145498447935886]}},
{"type": "Feature", "id": "03gVzSTZrIWWB2wxArRmpTnsOhQ=", "properties": {"ref": "https://www.pfchangs.com/locations/us/az/scottsdale/7135-e-camelback-rd/9978-the-waterfront.html", "@spider": "pf_changs", "addr:full": "7135 E Camelback Rd.", "addr:city": "Scottsdale", "addr:state": "AZ", "addr:postcode": "85251", "phone": "(480) 949-2610", "website": "https://www.pfchangs.com/locations/us/az/scottsdale/7135-e-camelback-rd/9978-the-waterfront.html", "brand": "PF Changs"}, "geometry": {"type": "Point", "coordinates": [-111.9267097, 33.5019725]}},
{"type": "Feature", "id": "PX8hNm0SoZ27q-rTCYZw6kHZrPA=", "properties": {"ref": "https://www.pfchangs.com/locations/us/az/scottsdale/7132-e-greenway-pkwy/5300-kierland.html", "@spider": "pf_changs", "addr:full": "7132 E Greenway Pkwy.", "addr:city": "Scottsdale", "addr:state": "AZ", "addr:postcode": "85254", "phone": "(480) 367-2999", "website": "https://www.pfchangs.com/locations/us/az/scottsdale/7132-e-greenway-pkwy/5300-kierland.html", "brand": "PF Changs"}, "geometry": {"type": "Point", "coordinates": [-111.9263507, 33.623511]}},
{"type": "Feature", "id": "CYjovX_-l2SJvJNbrj095H8u8eo=", "properties": {"ref": "https://www.pfchangs.com/locations/us/ca/palo-alto/900-stanford-shopping-center/9911-palo-alto.html", "@spider": "pf_changs", "addr:full": "900 Stanford Shopping Center", "addr:city": "Palo Alto", "addr:state": "CA", "addr:postcode": "94304", "phone": "(650) 330-1782", "website": "https://www.pfchangs.com/locations/us/ca/palo-alto/900-stanford-shopping-center/9911-palo-alto.html", "brand": "PF Changs"}, "geometry": {"type": "Point", "coordinates": [-122.16823992133754, 37.4436714574102]}},
{"type": "Feature", "id": "PmBdK-HBzKq8JnmmvsEd9AKpu8I=", "properties": {"ref": "https://www.pfchangs.com/locations/us/ca/newport-beach/1145-newport-center-dr/1200-newport.html", "@spider": "pf_changs", "addr:full": "1145 Newport Center Dr.", "addr:city": "Newport Beach", "addr:state": "CA", "addr:postcode": "92660", "phone": "(949) 759-9007", "website": "https://www.pfchangs.com/locations/us/ca/newport-beach/1145-newport-center-dr/1200-newport.html", "brand": "PF Changs"}, "geometry": {"type": "Point", "coordinates": [-117.8763275912628, 33.615604603472995]}},
{"type": "Feature", "id": "NzYBLCWYwqhwY4W5oq-dfu8sex8=", "properties": {"ref": "https://www.pfchangs.com/locations/us/ca/mission-viejo/800-the-shops-at-mission-viejo/7800-mission-viejo.html", "@spider": "pf_changs", "addr:full": "800 The Shops at Mission Viejo", "addr:city": "Mission Viejo", "addr:state": "CA", "addr:postcode": "92691", "phone": "(949) 364-6661", "website": "https://www.pfchangs.com/locations/us/ca/mission-viejo/800-the-shops-at-mission-viejo/7800-mission-viejo.html", "brand": "PF Changs"}, "geometry": {"type": "Point", "coordinates": [-117.6683658, 33.5576259]}},
{"type": "Feature", "id": "Co2xVDCl0r0kf9nQnVI5hnKDGfE=", "properties": {"ref": "https://www.pfchangs.com/locations/us/ca/long-beach/340-s-pine-ave/9944-long-beach.html", "@spider": "pf_changs", "addr:full": "340 S Pine Ave.", "addr:city": "Long Beach", "addr:state": "CA", "addr:postcode": "90802", "phone": "(562) 308-1025", "website": "https://www.pfchangs.com/locations/us/ca/long-beach/340-s-pine-ave/9944-long-beach.html", "brand": "PF Changs"}, "geometry": {"type": "Point", "coordinates": [-118.1935814, 33.7625304]}},
{"type": "Feature", "id": "VzQfFCxaDOhyTcWBk0-SVca4kcY=", "properties": {"ref": "https://www.pfchangs.com/locations/us/ca/fresno/7894-n-blackstone-ave/9992-fresno.html", "@spider": "pf_changs", "addr:full": "7894 N Blackstone Ave.", "addr:city": "Fresno", "addr:state": "CA", "addr:postcode": "93720", "phone": "(559) 438-0814", "website": "https://www.pfchangs.com/locations/us/ca/fresno/7894-n-blackstone-ave/9992-fresno.html", "brand": "PF Changs"}, "geometry": {"type": "Point", "coordinates": [-119.7902483, 36.8512524]}},
{"type": "Feature", "id": "KXEkujghrhtAMScJIJxG1161fEg=", "properties": {"ref": "https://www.pfchangs.com/locations/us/ca/irvine/514-spectrum-center-drive/1400-irvine.html", "@spider": "pf_changs", "addr:full": "514 Spectrum Center Drive", "addr:city": "Irvine", "addr:state": "CA", "addr:postcode": "92618", "phone": "(949) 453-1211", "website": "https://www.pfchangs.com/locations/us/ca/irvine/514-spectrum-center-drive/1400-irvine.html", "brand": "PF Changs"}, "geometry": {"type": "Point", "coordinates": [-117.74565165097101, 33.65264633754629]}},
{"type": "Feature", "id": "seC7wbHlK8kdT-pTUPMm2_vin1w=", "properties": {"ref": "https://www.pfchangs.com/locations/us/ca/chula-vista/2015-birch-rd/9811-chula-vista.html", "@spider": "pf_changs", "addr:full": "2015 Birch Rd.", "addr:city": "Chula Vista", "addr:state": "CA", "addr:postcode": "91915", "phone": "(619) 421-2080", "website": "https://www.pfchangs.com/locations/us/ca/chula-vista/2015-birch-rd/9811-chula-vista.html", "brand": "PF Changs"}, "geometry": {"type": "Point", "coordinates": [-116.96552395820618, 32.62166312618506]}},
{"type": "Feature", "id": "ROzuFTDmCT96WdP9OyRZz4Ur79s=", "properties": {"ref": "https://www.pfchangs.com/locations/us/ca/emeryville/5633-bay-st/9966-emeryville.html", "@spider": "pf_changs", "addr:full": "5633 Bay St.", "addr:city": "Emeryville", "addr:state": "CA", "addr:postcode": "94608", "phone": "(510) 879-0990", "website": "https://www.pfchangs.com/locations/us/ca/emeryville/5633-bay-st/9966-emeryville.html", "brand": "PF Changs"}, "geometry": {"type": "Point", "coordinates": [-122.29252261226844, 37.83477846736877]}},
{"type": "Feature", "id": "0xeQ4rQ_LOXBl6dX_58obc6jfGU=", "properties": {"ref": "https://www.pfchangs.com/locations/us/ca/chino-hills/3445-grand-ave/9840-chino-hills.html", "@spider": "pf_changs", "addr:full": "3445 Grand Ave.", "addr:city": "Chino Hills", "addr:state": "CA", "addr:postcode": "91709", "phone": "(909) 590-8250", "website": "https://www.pfchangs.com/locations/us/ca/chino-hills/3445-grand-ave/9840-chino-hills.html", "brand": "PF Changs"}, "geometry": {"type": "Point", "coordinates": [-117.73061871528625, 34.00213434377805]}},
{"type": "Feature", "id": "Hn_db5S8nBlaDfjwOS6LKvH1zxI=", "properties": {"ref": "https://www.pfchangs.com/locations/us/ca/cerritos/360-los-cerritos-center/9809-cerritos.html", "@spider": "pf_changs", "addr:full": "360 Los Cerritos Center", "addr:city": "Cerritos", "addr:state": "CA", "addr:postcode": "90703", "phone": "(562) 202-7120", "website": "https://www.pfchangs.com/locations/us/ca/cerritos/360-los-cerritos-center/9809-cerritos.html", "brand": "PF Changs"}, "geometry": {"type": "Point", "coordinates": [-118.0927692, 33.8615135]}},
{"type": "Feature", "id": "M-xz54bu5Evc4MEUl1Lf2nCJsx4=", "properties": {"ref": "https://www.pfchangs.com/locations/us/ca/san-diego/7077-friars-rd/7200-san-diego.html", "@spider": "pf_changs", "addr:full": "7077 Friars Rd.", "addr:city": "San Diego", "addr:state": "CA", "addr:postcode": "92108", "phone": "(619) 260-8484", "website": "https://www.pfchangs.com/locations/us/ca/san-diego/7077-friars-rd/7200-san-diego.html", "brand": "PF Changs"}, "geometry": {"type": "Point", "coordinates": [-117.16339588165283, 32.77003641696862]}},
{"type": "Feature", "id": "NHus9iS1ikRQQdgq_XTPyuqSNf4=", "properties": {"ref": "https://www.pfchangs.com/locations/us/ca/san-diego/4540-la-jolla-village-dr/1300-la-jolla.html", "@spider": "pf_changs", "addr:full": "4540 La Jolla Village Dr.", "addr:city": "San Diego", "addr:state": "CA", "addr:postcode": "92122", "phone": "(858) 458-9007", "website": "https://www.pfchangs.com/locations/us/ca/san-diego/4540-la-jolla-village-dr/1300-la-jolla.html", "brand": "PF Changs"}, "geometry": {"type": "Point", "coordinates": [-117.20934748649597, 32.87415834956316]}},
{"type": "Feature", "id": "d941gQRFUKZjRfGtVuq7CX8i2X4=", "properties": {"ref": "https://www.pfchangs.com/locations/us/ca/carlsbad/5621-paseo-del-norte/9849-carlsbad.html", "@spider": "pf_changs", "addr:full": "5621 Paseo Del Norte", "addr:city": "Carlsbad", "addr:state": "CA", "addr:postcode": "92008", "phone": "(760) 795-0595", "website": "https://www.pfchangs.com/locations/us/ca/carlsbad/5621-paseo-del-norte/9849-carlsbad.html", "brand": "PF Changs"}, "geometry": {"type": "Point", "coordinates": [-117.32292829447749, 33.12517137860981]}},
{"type": "Feature", "id": "K3u1o2uJqAPQt7vP36D0DDuggBE=", "properties": {"ref": "https://www.pfchangs.com/locations/us/ca/anaheim/321-w-katella-ave/9841-anaheim.html", "@spider": "pf_changs", "addr:full": "321 W Katella Ave.", "addr:city": "Anaheim", "addr:state": "CA", "addr:postcode": "92802", "phone": "(714) 507-2021", "website": "https://www.pfchangs.com/locations/us/ca/anaheim/321-w-katella-ave/9841-anaheim.html", "brand": "PF Changs"}, "geometry": {"type": "Point", "coordinates": [-117.9109459, 33.8038686]}},
{"type": "Feature", "id": "cLUJCpsvSyT4eiK1hHPTZrXlAyA=", "properties": {"ref": "https://www.pfchangs.com/locations/us/ca/bakersfield/10700-stockdale-hwy/9817-bakersfield.html", "@spider": "pf_changs", "addr:full": "10700 Stockdale Hwy.", "addr:city": "Bakersfield", "addr:state": "CA", "addr:postcode": "93311", "phone": "(661) 664-8100", "website": "https://www.pfchangs.com/locations/us/ca/bakersfield/10700-stockdale-hwy/9817-bakersfield.html", "brand": "PF Changs"}, "geometry": {"type": "Point", "coordinates": [-119.12153633684738, 35.350364281101164]}},
{"type": "Feature", "id": "2NCfcaQbds5aUolXd9S3AyJDkxE=", "properties": {"ref": "https://www.pfchangs.com/locations/us/co/loveland/5915-sky-pond-dr/9981-loveland.html", "@spider": "pf_changs", "addr:full": "5915 Sky Pond Dr.", "addr:city": "Loveland", "addr:state": "CO", "addr:postcode": "80538", "phone": "(970) 622-9313", "website": "https://www.pfchangs.com/locations/us/co/loveland/5915-sky-pond-dr/9981-loveland.html", "brand": "PF Changs"}, "geometry": {"type": "Point", "coordinates": [-104.99059930443764, 40.41185206234114]}},
{"type": "Feature", "id": "Xi5pVV6KVqBPfF1w5e0BF7ny8uo=", "properties": {"ref": "https://www.pfchangs.com/locations/us/co/lakewood/7210-w-alameda-ave/9979-lakewood-belmar.html", "@spider": "pf_changs", "addr:full": "7210 W Alameda Ave.", "addr:city": "Lakewood", "addr:state": "CO", "addr:postcode": "80226", "phone": "(303) 922-5800", "website": "https://www.pfchangs.com/locations/us/co/lakewood/7210-w-alameda-ave/9979-lakewood-belmar.html", "brand": "PF Changs"}, "geometry": {"type": "Point", "coordinates": [-105.07725208997726, 39.71066558881388]}},
{"type": "Feature", "id": "7TDhq4yQhgncQvFbdv_Dc8SlXU0=", "properties": {"ref": "https://www.pfchangs.com/locations/us/co/denver/1415-15th-st/2100-downtown-denver.html", "@spider": "pf_changs", "addr:full": "1415 15th St.", "addr:city": "Denver", "addr:state": "CO", "addr:postcode": "80202", "phone": "(303) 260-7222", "website": "https://www.pfchangs.com/locations/us/co/denver/1415-15th-st/2100-downtown-denver.html", "brand": "PF Changs"}, "geometry": {"type": "Point", "coordinates": [-104.99973021447653, 39.749278510196454]}},
{"type": "Feature", "id": "gskKIWKMi1lsR9JIVQet_Kh-grU=", "properties": {"ref": "https://www.pfchangs.com/locations/us/co/colorado-springs/1725-briargate-pkwy/9919-colorado-springs.html", "@spider": "pf_changs", "addr:full": "1725 Briargate Pkwy.", "addr:city": "Colorado Springs", "addr:state": "CO", "addr:postcode": "80920", "phone": "(719) 593-8580", "website": "https://www.pfchangs.com/locations/us/co/colorado-springs/1725-briargate-pkwy/9919-colorado-springs.html", "brand": "PF Changs"}, "geometry": {"type": "Point", "coordinates": [-104.79432463645935, 38.964205655484236]}},
{"type": "Feature", "id": "lRQ31tH4fxC5NvheFjsjbaoehC0=", "properties": {"ref": "https://www.pfchangs.com/locations/us/co/broomfield/1-w-flatiron-drive/7700-broomfield-flat-irons.html", "@spider": "pf_changs", "addr:full": "1 W Flatiron Drive", "addr:city": "Broomfield", "addr:state": "CO", "addr:postcode": "80021", "phone": "(720) 887-6200", "website": "https://www.pfchangs.com/locations/us/co/broomfield/1-w-flatiron-drive/7700-broomfield-flat-irons.html", "brand": "PF Changs"}, "geometry": {"type": "Point", "coordinates": [-105.1344619, 39.9302408]}},
{"type": "Feature", "id": "PLRHcyYGMvNgVibVRnkReZ_CPZI=", "properties": {"ref": "https://www.pfchangs.com/locations/us/co/aurora/23902-e-prospect-ave/9993-aurora-southlands.html", "@spider": "pf_changs", "addr:full": "23902 E Prospect Ave.", "addr:city": "Aurora", "addr:state": "CO", "addr:postcode": "80016", "phone": "(303) 627-5450", "website": "https://www.pfchangs.com/locations/us/co/aurora/23902-e-prospect-ave/9993-aurora-southlands.html", "brand": "PF Changs"}, "geometry": {"type": "Point", "coordinates": [-104.7103282, 39.6001261]}},
{"type": "Feature", "id": "aiGE-OcBTmpBVzgw9sU2UIBcS1M=", "properties": {"ref": "https://www.pfchangs.com/locations/us/fl/sunrise/1740-sawgrass-mills-circle/9805-sunrise.html", "@spider": "pf_changs", "addr:full": "1740 Sawgrass Mills Circle", "addr:city": "Sunrise", "addr:state": "FL", "addr:postcode": "33323", "phone": "(954) 845-1113", "website": "https://www.pfchangs.com/locations/us/fl/sunrise/1740-sawgrass-mills-circle/9805-sunrise.html", "brand": "PF Changs"}, "geometry": {"type": "Point", "coordinates": [-80.32254343082968, 26.148711244570933]}},
{"type": "Feature", "id": "xIvUNJjuL75PWwTB2zLvwqAH3Ik=", "properties": {"ref": "https://www.pfchangs.com/locations/us/fl/sandestin/640-grand-blvd/9843-sandestin.html", "@spider": "pf_changs", "addr:full": "640 Grand Blvd.", "addr:city": "Sandestin", "addr:state": "FL", "addr:postcode": "32550", "phone": "(850) 269-1806", "website": "https://www.pfchangs.com/locations/us/fl/sandestin/640-grand-blvd/9843-sandestin.html", "brand": "PF Changs"}, "geometry": {"type": "Point", "coordinates": [-86.31232738494873, 30.378264541760977]}},
{"type": "Feature", "id": "UmHjPahZcjnzPDs5IzmTz0SwYFc=", "properties": {"ref": "https://www.pfchangs.com/locations/us/fl/sarasota/766-s-osprey-avenue/9880-sarasota.html", "@spider": "pf_changs", "addr:full": "766 S. Osprey Avenue", "addr:city": "Sarasota", "addr:state": "FL", "addr:postcode": "34236", "phone": "(941) 296-6002", "website": "https://www.pfchangs.com/locations/us/fl/sarasota/766-s-osprey-avenue/9880-sarasota.html", "brand": "PF Changs"}, "geometry": {"type": "Point", "coordinates": [-82.53420531749725, 27.3288916881788]}},
{"type": "Feature", "id": "s6zKiL5_cTELUH5_HxXUFdrQO2U=", "properties": {"ref": "https://www.pfchangs.com/locations/us/fl/palm-beach-gardens/3101-pga-blvd/9915-palm-beach-gardens.html", "@spider": "pf_changs", "addr:full": "3101 PGA Blvd.", "addr:city": "Palm Beach Gardens", "addr:state": "FL", "addr:postcode": "33410", "phone": "(561) 691-1610", "website": "https://www.pfchangs.com/locations/us/fl/palm-beach-gardens/3101-pga-blvd/9915-palm-beach-gardens.html", "brand": "PF Changs"}, "geometry": {"type": "Point", "coordinates": [-80.086504, 26.847808]}},
{"type": "Feature", "id": "0AHSCNNKP7dKOMOwDXyBfffWDuE=", "properties": {"ref": "https://www.pfchangs.com/locations/us/fl/north-miami-beach/17455-biscayne-blvd/2000-n-miami.html", "@spider": "pf_changs", "addr:full": "17455 Biscayne Blvd.", "addr:city": "North Miami Beach", "addr:state": "FL", "addr:postcode": "33160", "phone": "(305) 957-1966", "website": "https://www.pfchangs.com/locations/us/fl/north-miami-beach/17455-biscayne-blvd/2000-n-miami.html", "brand": "PF Changs"}, "geometry": {"type": "Point", "coordinates": [-80.14914617695467, 25.937475222314315]}},
{"type": "Feature", "id": "Ytpy-ZSKP5-IwwS81HnGriKzG10=", "properties": {"ref": "https://www.pfchangs.com/locations/us/fl/naples/10840-tamiami-trail-north/9906-naples.html", "@spider": "pf_changs", "addr:full": "10840 Tamiami Trail North", "addr:city": "Naples", "addr:state": "FL", "addr:postcode": "34109", "phone": "(239) 596-2174", "website": "https://www.pfchangs.com/locations/us/fl/naples/10840-tamiami-trail-north/9906-naples.html", "brand": "PF Changs"}, "geometry": {"type": "Point", "coordinates": [-81.80105566978455, 26.270072632341442]}},
{"type": "Feature", "id": "0Uf2iQYVmvhwnRHu2SkB3PrPQ_s=", "properties": {"ref": "https://www.pfchangs.com/locations/us/fl/lake-mary/229-wheelhouse-ln-suite-102-b/7031.html", "@spider": "pf_changs", "addr:full": "229 Wheelhouse Ln., Suite 102(b)", "addr:city": "Lake Mary", "addr:state": "FL", "addr:postcode": "32746", "phone": "(407) 622-0188", "website": "https://www.pfchangs.com/locations/us/fl/lake-mary/229-wheelhouse-ln-suite-102-b/7031.html", "brand": "PF Changs"}, "geometry": {"type": "Point", "coordinates": [-81.33403123687486, 28.755634648992135]}},
{"type": "Feature", "id": "mCpDa7RXMau9crI9FZl9Pjmr4YM=", "properties": {"ref": "https://www.pfchangs.com/locations/us/fl/jacksonville/10281-midtown-pkwy/9976-jacksonville.html", "@spider": "pf_changs", "addr:full": "10281 Midtown Pkwy.", "addr:city": "Jacksonville", "addr:state": "FL", "addr:postcode": "32246", "phone": "(904) 641-3392", "website": "https://www.pfchangs.com/locations/us/fl/jacksonville/10281-midtown-pkwy/9976-jacksonville.html", "brand": "PF Changs"}, "geometry": {"type": "Point", "coordinates": [-81.52678601852415, 30.2583183167912]}},
{"type": "Feature", "id": "DzZfU_e8dYqqy8UYp1wMuRpdDJo=", "properties": {"ref": "https://www.pfchangs.com/locations/us/fl/gainesville/3597-sw-27th-ln/9802-butler-town-center.html", "@spider": "pf_changs", "addr:full": "3597 SW 27th Ln", "addr:city": "Gainesville", "addr:state": "FL", "addr:postcode": "32608", "phone": "(352) 570-7785", "website": "https://www.pfchangs.com/locations/us/fl/gainesville/3597-sw-27th-ln/9802-butler-town-center.html", "brand": "PF Changs"}, "geometry": {"type": "Point", "coordinates": [-82.36202415271796, 29.61473588975372]}},
{"type": "Feature", "id": "xN-HONKtVD4aOki5eVth94bQGpo=", "properties": {"ref": "https://www.pfchangs.com/locations/us/fl/ft-lauderdale/2418-e-sunrise-blvd/9814-ft-lauderdale.html", "@spider": "pf_changs", "addr:full": "2418 E Sunrise Blvd.", "addr:city": "Ft Lauderdale", "addr:state": "FL", "addr:postcode": "33304", "phone": "(954) 565-5877", "website": "https://www.pfchangs.com/locations/us/fl/ft-lauderdale/2418-e-sunrise-blvd/9814-ft-lauderdale.html", "brand": "PF Changs"}, "geometry": {"type": "Point", "coordinates": [-80.1131042, 26.1375066]}},
{"type": "Feature", "id": "JCzIziBlLD9bspkJt1obV2BONKY=", "properties": {"ref": "https://www.pfchangs.com/locations/us/fl/fort-myers/10081-gulf-center-drive-gulf-coast-town-center/9832-fort-myers.html", "@spider": "pf_changs", "addr:full": "10081 Gulf Center Drive Gulf Coast Town Center", "addr:city": "Fort Myers", "addr:state": "FL", "addr:postcode": "33913", "phone": "(239) 590-9197", "website": "https://www.pfchangs.com/locations/us/fl/fort-myers/10081-gulf-center-drive-gulf-coast-town-center/9832-fort-myers.html", "brand": "PF Changs"}, "geometry": {"type": "Point", "coordinates": [-81.787252, 26.4876336]}},
{"type": "Feature", "id": "wuKeypyZbaT_jZtgzdYtdkYhQH4=", "properties": {"ref": "https://www.pfchangs.com/locations/us/fl/daytona-beach/1862-victory-circle-l100/9890-daytona.html", "@spider": "pf_changs", "addr:full": "1862 Victory Circle L100", "addr:city": "Daytona Beach", "addr:state": "FL", "addr:postcode": "32114", "phone": "(386) 317-7020", "website": "https://www.pfchangs.com/locations/us/fl/daytona-beach/1862-victory-circle-l100/9890-daytona.html", "brand": "PF Changs"}, "geometry": {"type": "Point", "coordinates": [-81.07180327177048, 29.193307561899907]}},
{"type": "Feature", "id": "AR8ZYqLWxWY086xe4oHYQ979zO4=", "properties": {"ref": "https://www.pfchangs.com/locations/us/fl/clearwater/27001-us-highway-19-n/9882-clearwater.html", "@spider": "pf_changs", "addr:full": "27001 US Highway 19 N", "addr:city": "Clearwater", "addr:state": "FL", "addr:postcode": "33761", "phone": "(727) 674-4611", "website": "https://www.pfchangs.com/locations/us/fl/clearwater/27001-us-highway-19-n/9882-clearwater.html", "brand": "PF Changs"}, "geometry": {"type": "Point", "coordinates": [-82.7345573, 28.0161563]}},
{"type": "Feature", "id": "B-yzA7EsY3XSSRNmVlcFHAfYJsE=", "properties": {"ref": "https://www.pfchangs.com/locations/us/fl/brandon/827-brandon-town-center/9810-brandon.html", "@spider": "pf_changs", "addr:full": "827 Brandon Town Center", "addr:city": "Brandon", "addr:state": "FL", "addr:postcode": "33511", "phone": "(813) 530-7120", "website": "https://www.pfchangs.com/locations/us/fl/brandon/827-brandon-town-center/9810-brandon.html", "brand": "PF Changs"}, "geometry": {"type": "Point", "coordinates": [-82.3266679, 27.9321177]}},
{"type": "Feature", "id": "QcxRSO0z4SXvVU8EReXGBXjEM70=", "properties": {"ref": "https://www.pfchangs.com/locations/us/fl/boca-raton/1400-glades-rd-bay-220/3400-boca-raton.html", "@spider": "pf_changs", "addr:full": "1400 Glades Rd. Bay 220", "addr:city": "Boca Raton", "addr:state": "FL", "addr:postcode": "33431", "phone": "(561) 393-3722", "website": "https://www.pfchangs.com/locations/us/fl/boca-raton/1400-glades-rd-bay-220/3400-boca-raton.html", "brand": "PF Changs"}, "geometry": {"type": "Point", "coordinates": [-80.11132970452309, 26.365642912511476]}},
{"type": "Feature", "id": "lslOoiz03kbi3xlvvjxO-ElBKko=", "properties": {"ref": "https://www.pfchangs.com/locations/us/ga/augusta/3450-wrightsboro-rd/9846-augusta.html", "@spider": "pf_changs", "addr:full": "3450 Wrightsboro Rd.", "addr:city": "Augusta", "addr:state": "GA", "addr:postcode": "30909", "phone": "(706) 733-0161", "website": "https://www.pfchangs.com/locations/us/ga/augusta/3450-wrightsboro-rd/9846-augusta.html", "brand": "PF Changs"}, "geometry": {"type": "Point", "coordinates": [-82.08008555092624, 33.465513149443325]}},
{"type": "Feature", "id": "MikOz5UtmKZ-8zbAQX2o-ZM695Q=", "properties": {"ref": "https://www.pfchangs.com/locations/us/ga/atlanta/1624-cumberland-mall/9816-cumberland.html", "@spider": "pf_changs", "addr:full": "1624 Cumberland Mall", "addr:city": "Atlanta", "addr:state": "GA", "addr:postcode": "30339", "phone": "(770) 803-5800", "website": "https://www.pfchangs.com/locations/us/ga/atlanta/1624-cumberland-mall/9816-cumberland.html", "brand": "PF Changs"}, "geometry": {"type": "Point", "coordinates": [-84.4686058, 33.8811404]}},
{"type": "Feature", "id": "-PRum5yPfjxTwuSlnSBEWfQJtNQ=", "properties": {"ref": "https://www.pfchangs.com/locations/us/ga/alpharetta/7925-n-point-pkwy/6100-alpharetta.html", "@spider": "pf_changs", "addr:full": "7925 N Point Pkwy.", "addr:city": "Alpharetta", "addr:state": "GA", "addr:postcode": "30022", "phone": "(770) 992-3070", "website": "https://www.pfchangs.com/locations/us/ga/alpharetta/7925-n-point-pkwy/6100-alpharetta.html", "brand": "PF Changs"}, "geometry": {"type": "Point", "coordinates": [-84.30716961622238, 34.0387046233986]}},
{"type": "Feature", "id": "A5sXg9dT_5NygyUAxqM8qjp88yw=", "properties": {"ref": "https://www.pfchangs.com/locations/us/il/northbrook/1819-lake-cook-rd/4400-northbrook.html", "@spider": "pf_changs", "addr:full": "1819 Lake Cook Rd.", "addr:city": "Northbrook", "addr:state": "IL", "addr:postcode": "60062", "phone": "(847) 509-8844", "website": "https://www.pfchangs.com/locations/us/il/northbrook/1819-lake-cook-rd/4400-northbrook.html", "brand": "PF Changs"}, "geometry": {"type": "Point", "coordinates": [-87.82156348228455, 42.15203618884234]}},
{"type": "Feature", "id": "NerlZFYwEWTSeGw2U2u81zHsxvw=", "properties": {"ref": "https://www.pfchangs.com/locations/us/fl/orlando/6982-lake-nona-blvd/7016-lake-nona.html", "@spider": "pf_changs", "addr:full": "6982 Lake Nona Blvd", "addr:city": "Orlando", "addr:state": "FL", "addr:postcode": "32827", "phone": "(689) 216-4508", "website": "https://www.pfchangs.com/locations/us/fl/orlando/6982-lake-nona-blvd/7016-lake-nona.html", "brand": "PF Changs"}, "geometry": {"type": "Point", "coordinates": [-81.27775536187322, 28.37136792640986]}},
{"type": "Feature", "id": "SbG7mUyXDAepWoNWIYTz8iiFjQo=", "properties": {"ref": "https://www.pfchangs.com/locations/us/fl/orlando/4200-conroy-rd/9916-orlando.html", "@spider": "pf_changs", "addr:full": "4200 Conroy Rd.", "addr:city": "Orlando", "addr:state": "FL", "addr:postcode": "32839", "phone": "(407) 345-2888", "website": "https://www.pfchangs.com/locations/us/fl/orlando/4200-conroy-rd/9916-orlando.html", "brand": "PF Changs"}, "geometry": {"type": "Point", "coordinates": [-81.43160283565516, 28.48643513806949]}},
{"type": "Feature", "id": "JTGfLozB89_hv_WRkbDwdJUgUrM=", "properties": {"ref": "https://www.pfchangs.com/locations/us/il/lombard/2361-fountain-square-dr/7300-lombard.html", "@spider": "pf_changs", "addr:full": "2361 Fountain Square Dr.", "addr:city": "Lombard", "addr:state": "IL", "addr:postcode": "60148", "phone": "(630) 652-9977", "website": "https://www.pfchangs.com/locations/us/il/lombard/2361-fountain-square-dr/7300-lombard.html", "brand": "PF Changs"}, "geometry": {"type": "Point", "coordinates": [-87.9939517378807, 41.843428146055054]}},
{"type": "Feature", "id": "hhSN2KtPlWmPFIcZolIg_BV_6XU=", "properties": {"ref": "https://www.pfchangs.com/locations/us/fl/miami/8888-sw-136th-st/2200-the-falls.html", "@spider": "pf_changs", "addr:full": "8888 SW 136th St.", "addr:city": "Miami", "addr:state": "FL", "addr:postcode": "33176", "phone": "(305) 234-2338", "website": "https://www.pfchangs.com/locations/us/fl/miami/8888-sw-136th-st/2200-the-falls.html", "brand": "PF Changs"}, "geometry": {"type": "Point", "coordinates": [-80.33969627116392, 25.645834773181566]}},
{"type": "Feature", "id": "HyaHzHjf6CYK-xobFEIsat-ozcY=", "properties": {"ref": "https://www.pfchangs.com/locations/us/fl/miami/901-s-miami-ave/9931-brickell.html", "@spider": "pf_changs", "addr:full": "901 S Miami Ave.", "addr:city": "Miami", "addr:state": "FL", "addr:postcode": "33131", "phone": "(305) 358-0732", "website": "https://www.pfchangs.com/locations/us/fl/miami/901-s-miami-ave/9931-brickell.html", "brand": "PF Changs"}, "geometry": {"type": "Point", "coordinates": [-80.19292548000976, 25.7652597345743]}},
{"type": "Feature", "id": "mWW8_Q_UbqwxIiPwoF0KAcNd8JQ=", "properties": {"ref": "https://www.pfchangs.com/locations/us/fl/miami/11361-nw-12th-st/9872-miami.html", "@spider": "pf_changs", "addr:full": "11361 NW 12th St.", "addr:city": "Miami", "addr:state": "FL", "addr:postcode": "33172", "phone": "(305) 591-5603", "website": "https://www.pfchangs.com/locations/us/fl/miami/11361-nw-12th-st/9872-miami.html", "brand": "PF Changs"}, "geometry": {"type": "Point", "coordinates": [-80.37975579500198, 25.786171651843357]}},
{"type": "Feature", "id": "ZkiaFKRKv-SXji9LB3b5zLA2Htg=", "properties": {"ref": "https://www.pfchangs.com/locations/us/al/birmingham/233-summit-blvd/3600-birmingham.html", "@spider": "pf_changs", "addr:full": "233 Summit Blvd.", "addr:city": "Birmingham", "addr:state": "AL", "addr:postcode": "35243", "phone": "(205) 967-0040", "website": "https://www.pfchangs.com/locations/us/al/birmingham/233-summit-blvd/3600-birmingham.html", "brand": "PF Changs"}, "geometry": {"type": "Point", "coordinates": [-86.73125624656677, 33.44659191769752]}},
{"type": "Feature", "id": "PkgVaIFSnctmD5ga96alWnLj9II=", "properties": {"ref": "https://www.pfchangs.com/locations/us/ri/providence/111-providence-place/9879-providence.html", "@spider": "pf_changs", "addr:full": "111 Providence Place", "addr:city": "Providence", "addr:state": "RI", "addr:postcode": "02903", "phone": "(401) 270-4665", "website": "https://www.pfchangs.com/locations/us/ri/providence/111-providence-place/9879-providence.html", "brand": "PF Changs"}, "geometry": {"type": "Point", "coordinates": [-71.415748, 41.8281831]}},
{"type": "Feature", "id": "gbqJ5MAfjR2rU152pPeGdPmSoLg=", "properties": {"ref": "https://www.pfchangs.com/locations/us/ne/omaha/10150-california-st/9902-omaha.html", "@spider": "pf_changs", "addr:full": "10150 California St.", "addr:city": "Omaha", "addr:state": "NE", "addr:postcode": "68114", "phone": "(402) 390-6021", "website": "https://www.pfchangs.com/locations/us/ne/omaha/10150-california-st/9902-omaha.html", "brand": "PF Changs"}, "geometry": {"type": "Point", "coordinates": [-96.07045902872187, 41.26448608273652]}},
{"type": "Feature", "id": "eoQlzF5GUVtFiOt15RDRizH-7WI=", "properties": {"ref": "https://www.pfchangs.com/locations/us/il/chicago/230-s-clark-st/7003-chicago-loop.html", "@spider": "pf_changs", "addr:full": "230 S. Clark St.", "addr:city": "Chicago", "addr:state": "IL", "addr:postcode": "60604", "phone": "(872) 484-0110", "website": "https://www.pfchangs.com/locations/us/il/chicago/230-s-clark-st/7003-chicago-loop.html", "brand": "PF Changs"}, "geometry": {"type": "Point", "coordinates": [-87.63102604234524, 41.878421873179384]}},
{"type": "Feature", "id": "NKYfDedEtZsnixzQ5UpbuQNIPc0=", "properties": {"ref": "https://www.pfchangs.com/locations/us/va/virginia-beach/4551-virginia-beach-blvd/9909-virginia-beach.html", "@spider": "pf_changs", "addr:full": "4551 Virginia Beach Blvd.", "addr:city": "Virginia Beach", "addr:state": "VA", "addr:postcode": "23462", "phone": "(757) 473-9028", "website": "https://www.pfchangs.com/locations/us/va/virginia-beach/4551-virginia-beach-blvd/9909-virginia-beach.html", "brand": "PF Changs"}, "geometry": {"type": "Point", "coordinates": [-76.13356679677963, 36.843129910701535]}},
{"type": "Feature", "id": "G4Qk01OjOUTQQGHDwUp0yitTXJc=", "properties": {"ref": "https://www.pfchangs.com/locations/us/il/chicago/213-west-hubbard-street/7002-river-north.html", "@spider": "pf_changs", "addr:full": "213 West Hubbard Street", "addr:city": "Chicago", "addr:state": "IL", "addr:postcode": "60654", "phone": "(312) 766-9677", "website": "https://www.pfchangs.com/locations/us/il/chicago/213-west-hubbard-street/7002-river-north.html", "brand": "PF Changs"}, "geometry": {"type": "Point", "coordinates": [-87.6348771, 41.8897577]}},
{"type": "Feature", "id": "93AZwvVEkrLjRNN8k5i1lMcCHwQ=", "properties": {"ref": "https://www.pfchangs.com/locations/us/ut/salt-lake-city/174-west-300-south/6000-salt-lake-city.html", "@spider": "pf_changs", "addr:full": "174 West 300 South", "addr:city": "Salt Lake City", "addr:state": "UT", "addr:postcode": "84101", "phone": "(801) 539-0500", "website": "https://www.pfchangs.com/locations/us/ut/salt-lake-city/174-west-300-south/6000-salt-lake-city.html", "brand": "PF Changs"}, "geometry": {"type": "Point", "coordinates": [-111.89642786979675, 40.76317399181248]}},
{"type": "Feature", "id": "2lej16Rq_Zwq0j8-7u2KNmPBYw0=", "properties": {"ref": "https://www.pfchangs.com/locations/us/tx/waco/5511-crosslake-parkway/9894-legends-crossing.html", "@spider": "pf_changs", "addr:full": "5511 Crosslake Parkway", "addr:city": "Waco", "addr:state": "TX", "addr:postcode": "76712", "phone": "(254) 218-7300", "website": "https://www.pfchangs.com/locations/us/tx/waco/5511-crosslake-parkway/9894-legends-crossing.html", "brand": "PF Changs"}, "geometry": {"type": "Point", "coordinates": [-97.1565323, 31.4931929]}},
{"type": "Feature", "id": "3nnwS8iCNeljRhKjJjmmXjwt_yQ=", "properties": {"ref": "https://www.pfchangs.com/locations/us/tn/chattanooga/2110-hamilton-place-blvd-hamilton-place-mall/9822-chattanooga.html", "@spider": "pf_changs", "addr:full": "2110 Hamilton Place Blvd. Hamilton Place Mall", "addr:city": "Chattanooga", "addr:state": "TN", "addr:postcode": "37421", "phone": "(423) 242-0045", "website": "https://www.pfchangs.com/locations/us/tn/chattanooga/2110-hamilton-place-blvd-hamilton-place-mall/9822-chattanooga.html", "brand": "PF Changs"}, "geometry": {"type": "Point", "coordinates": [-85.155931, 35.034133]}},
{"type": "Feature", "id": "Vk_fOqWZ6pt2qzlRmtls6bMANIk=", "properties": {"ref": "https://www.pfchangs.com/locations/us/sc/myrtle-beach/1190-farrow-pkwy/9997-myrtle-beach.html", "@spider": "pf_changs", "addr:full": "1190 Farrow Pkwy.", "addr:city": "Myrtle Beach", "addr:state": "SC", "addr:postcode": "29577", "phone": "(843) 839-9470", "website": "https://www.pfchangs.com/locations/us/sc/myrtle-beach/1190-farrow-pkwy/9997-myrtle-beach.html", "brand": "PF Changs"}, "geometry": {"type": "Point", "coordinates": [-78.94076675176626, 33.669579566628215]}},
{"type": "Feature", "id": "X3K9xEhlQNBMUagQ5_4pzAOTRU8=", "properties": {"ref": "https://www.pfchangs.com/locations/us/sc/mount-pleasant/1885-hwy-17-n/9878-mt-pleasant.html", "@spider": "pf_changs", "addr:full": "1885 Hwy 17 N", "addr:city": "Mount Pleasant", "addr:state": "SC", "addr:postcode": "29464", "phone": "(843) 881-0929", "website": "https://www.pfchangs.com/locations/us/sc/mount-pleasant/1885-hwy-17-n/9878-mt-pleasant.html", "brand": "PF Changs"}, "geometry": {"type": "Point", "coordinates": [-79.8298396, 32.8312413]}},
{"type": "Feature", "id": "kAqTKRgkCtuHwraa3TZsj1hb3yY=", "properties": {"ref": "https://www.pfchangs.com/locations/us/pa/west-homestead/148-west-bridge-st/9903-pittsburgh.html", "@spider": "pf_changs", "addr:full": "148 West Bridge St.", "addr:city": "West Homestead", "addr:state": "PA", "addr:postcode": "15120", "phone": "(412) 464-0640", "website": "https://www.pfchangs.com/locations/us/pa/west-homestead/148-west-bridge-st/9903-pittsburgh.html", "brand": "PF Changs"}, "geometry": {"type": "Point", "coordinates": [-79.9160729348659, 40.407150649512886]}},
{"type": "Feature", "id": "3f46iBTr4rvUbo_6sZ8iLEJvnvE=", "properties": {"ref": "https://www.pfchangs.com/locations/us/or/tigard/7463-sw-bridgeport-rd/9974-bridgeport-village-mall.html", "@spider": "pf_changs", "addr:full": "7463 SW Bridgeport Rd.", "addr:city": "Tigard", "addr:state": "OR", "addr:postcode": "97224", "phone": "(503) 430-3020", "website": "https://www.pfchangs.com/locations/us/or/tigard/7463-sw-bridgeport-rd/9974-bridgeport-village-mall.html", "brand": "PF Changs"}, "geometry": {"type": "Point", "coordinates": [-122.75242789650065, 45.39568976050551]}},
{"type": "Feature", "id": "4mrTgq1TtetKpf-KHuS6wWz3Vd0=", "properties": {"ref": "https://www.pfchangs.com/locations/us/or/hillsboro/10088-ne-emma-way/9200-tanasbourne.html", "@spider": "pf_changs", "addr:full": "10088 NE Emma Way", "addr:city": "Hillsboro", "addr:state": "OR", "addr:postcode": "97124", "phone": "(503) 533-4580", "website": "https://www.pfchangs.com/locations/us/or/hillsboro/10088-ne-emma-way/9200-tanasbourne.html", "brand": "PF Changs"}, "geometry": {"type": "Point", "coordinates": [-122.87799775600433, 45.53507002317397]}},
{"type": "Feature", "id": "itMSVK8wmRDG6L-pJQigOGPseEY=", "properties": {"ref": "https://www.pfchangs.com/locations/us/nv/reno/5180-s-kietzke-ln/9929-reno.html", "@spider": "pf_changs", "addr:full": "5180 S Kietzke Ln.", "addr:city": "Reno", "addr:state": "NV", "addr:postcode": "89511", "phone": "(775) 825-9800", "website": "https://www.pfchangs.com/locations/us/nv/reno/5180-s-kietzke-ln/9929-reno.html", "brand": "PF Changs"}, "geometry": {"type": "Point", "coordinates": [-119.79214310646051, 39.47438824949425]}},
{"type": "Feature", "id": "2iYwxiktdLszrXOvHE-jJT5DLYI=", "properties": {"ref": "https://www.pfchangs.com/locations/us/mo/saint-charles/400-lombard-street/9888-st-charles-mo.html", "@spider": "pf_changs", "addr:full": "400 Lombard Street", "addr:city": "Saint Charles", "addr:state": "MO", "addr:postcode": "63303", "phone": "(636) 410-7800", "website": "https://www.pfchangs.com/locations/us/mo/saint-charles/400-lombard-street/9888-st-charles-mo.html", "brand": "PF Changs"}, "geometry": {"type": "Point", "coordinates": [-90.4940785, 38.7665755]}},
{"type": "Feature", "id": "NBjtuLR_fK4fV66lb3-dxB7cYqo=", "properties": {"ref": "https://www.pfchangs.com/locations/us/mo/kansas-city/102-w-47th-st/6700-kansas-city.html", "@spider": "pf_changs", "addr:full": "102 W 47th St.", "addr:city": "Kansas City", "addr:state": "MO", "addr:postcode": "64112", "phone": "(816) 931-9988", "website": "https://www.pfchangs.com/locations/us/mo/kansas-city/102-w-47th-st/6700-kansas-city.html", "brand": "PF Changs"}, "geometry": {"type": "Point", "coordinates": [-94.588412, 39.0426002]}},
{"type": "Feature", "id": "TooDKQiVto5f3MuHhxa8OnHTvWA=", "properties": {"ref": "https://www.pfchangs.com/locations/us/mi/troy/2801-w-big-beaver-rd/4300-troy.html", "@spider": "pf_changs", "addr:full": "2801 W Big Beaver Rd.", "addr:city": "Troy", "addr:state": "MI", "addr:postcode": "48084", "phone": "(248) 816-8000", "website": "https://www.pfchangs.com/locations/us/mi/troy/2801-w-big-beaver-rd/4300-troy.html", "brand": "PF Changs"}, "geometry": {"type": "Point", "coordinates": [-83.18385243415838, 42.559758312476504]}},
{"type": "Feature", "id": "KGrtKhdgJNWWHzj4UfwEFOmzA6s=", "properties": {"ref": "https://www.pfchangs.com/locations/us/mi/rochester/122-north-adams-road/9799-village-of-rochester-hills.html", "@spider": "pf_changs", "addr:full": "122 North Adams Road", "addr:city": "Rochester", "addr:state": "MI", "addr:postcode": "48309", "phone": "(248) 923-7030", "website": "https://www.pfchangs.com/locations/us/mi/rochester/122-north-adams-road/9799-village-of-rochester-hills.html", "brand": "PF Changs"}, "geometry": {"type": "Point", "coordinates": [-83.192693, 42.68225]}},
{"type": "Feature", "id": "2It3cm2PylW9SdERBjGXTmeGV24=", "properties": {"ref": "https://www.pfchangs.com/locations/us/ma/natick/1245-worcester-st/9850-natick.html", "@spider": "pf_changs", "addr:full": "1245 Worcester St.", "addr:city": "Natick", "addr:state": "MA", "addr:postcode": "01760", "phone": "(508) 651-7724", "website": "https://www.pfchangs.com/locations/us/ma/natick/1245-worcester-st/9850-natick.html", "brand": "PF Changs"}, "geometry": {"type": "Point", "coordinates": [-71.38156950473785, 42.30103170587763]}},
{"type": "Feature", "id": "KqjMVmV53Dn6_sx1Zkd60vrdCW4=", "properties": {"ref": "https://www.pfchangs.com/locations/us/ma/dedham/410-legacy-place/9854-dedham.html", "@spider": "pf_changs", "addr:full": "410 Legacy Place", "addr:city": "Dedham", "addr:state": "MA", "addr:postcode": "02026", "phone": "(781) 461-6060", "website": "https://www.pfchangs.com/locations/us/ma/dedham/410-legacy-place/9854-dedham.html", "brand": "PF Changs"}, "geometry": {"type": "Point", "coordinates": [-71.17932558059692, 42.23165332354207]}},
{"type": "Feature", "id": "V8dS4STJvHvr8K-eLO6HIJtXRlM=", "properties": {"ref": "https://www.pfchangs.com/locations/us/ma/boston/8-park-plaza/5600-boston.html", "@spider": "pf_changs", "addr:full": "8 Park Plaza", "addr:city": "Boston", "addr:state": "MA", "addr:postcode": "02116", "phone": "(617) 573-0821", "website": "https://www.pfchangs.com/locations/us/ma/boston/8-park-plaza/5600-boston.html", "brand": "PF Changs"}, "geometry": {"type": "Point", "coordinates": [-71.0671335, 42.3519916]}},
{"type": "Feature", "id": "qSRVw1HAhTY2KOMhs7lQldWVI2c=", "properties": {"ref": "https://www.pfchangs.com/locations/us/mi/livonia/17905-haggerty-rd/9921-northville-township.html", "@spider": "pf_changs", "addr:full": "17905 Haggerty Rd.", "addr:city": "Livonia", "addr:state": "MI", "addr:postcode": "48152", "phone": "(248) 675-0066", "website": "https://www.pfchangs.com/locations/us/mi/livonia/17905-haggerty-rd/9921-northville-township.html", "brand": "PF Changs"}, "geometry": {"type": "Point", "coordinates": [-83.43350181349183, 42.415283237495714]}},
{"type": "Feature", "id": "Ava_KSu8UL_xszpnX0mTU8gym60=", "properties": {"ref": "https://www.pfchangs.com/locations/us/mi/lansing/2425-lake-lansing-rd/9918-lansing.html", "@spider": "pf_changs", "addr:full": "2425 Lake Lansing Rd.", "addr:city": "Lansing", "addr:state": "MI", "addr:postcode": "48912", "phone": "(517) 267-3833", "website": "https://www.pfchangs.com/locations/us/mi/lansing/2425-lake-lansing-rd/9918-lansing.html", "brand": "PF Changs"}, "geometry": {"type": "Point", "coordinates": [-84.51611, 42.761246]}},
{"type": "Feature", "id": "poEhaa2xgpub7hf-S2tkU_WI3HM=", "properties": {"ref": "https://www.pfchangs.com/locations/us/mi/grand-rapids/2064-e-beltline-ave-ne/9828-grand-rapids.html", "@spider": "pf_changs", "addr:full": "2064 E. Beltline Ave NE", "addr:city": "Grand Rapids", "addr:state": "MI", "addr:postcode": "49525", "phone": "(616) 447-2060", "website": "https://www.pfchangs.com/locations/us/mi/grand-rapids/2064-e-beltline-ave-ne/9828-grand-rapids.html", "brand": "PF Changs"}, "geometry": {"type": "Point", "coordinates": [-85.58916628360754, 43.00129287957575]}},
{"type": "Feature", "id": "hxrRpLLQY6g9beoNJBGXd299hus=", "properties": {"ref": "https://www.pfchangs.com/locations/us/mi/dearborn/18900-michigan-ave/9853-dearborn.html", "@spider": "pf_changs", "addr:full": "18900 Michigan Ave.", "addr:city": "Dearborn", "addr:state": "MI", "addr:postcode": "48126", "phone": "(313) 429-2030", "website": "https://www.pfchangs.com/locations/us/mi/dearborn/18900-michigan-ave/9853-dearborn.html", "brand": "PF Changs"}, "geometry": {"type": "Point", "coordinates": [-83.221788, 42.315792]}},
{"type": "Feature", "id": "3FR789jAvbXiBj-sWKB7oC7cpGg=", "properties": {"ref": "https://www.pfchangs.com/locations/us/mi/clinton-township/17390-hall-rd/9808-clinton-township.html", "@spider": "pf_changs", "addr:full": "17390 Hall Rd.", "addr:city": "Clinton Township", "addr:state": "MI", "addr:postcode": "48038", "phone": "(586) 263-0860", "website": "https://www.pfchangs.com/locations/us/mi/clinton-township/17390-hall-rd/9808-clinton-township.html", "brand": "PF Changs"}, "geometry": {"type": "Point", "coordinates": [-82.9463352, 42.6265339]}},
{"type": "Feature", "id": "7mzRB_nRZMBBz6JGZpEIQSiW_ZY=", "properties": {"ref": "https://www.pfchangs.com/locations/us/mi/ann-arbor/720-briarwood-circle/9886-ann-arbor.html", "@spider": "pf_changs", "addr:full": "720 Briarwood Circle", "addr:city": "Ann Arbor", "addr:state": "MI", "addr:postcode": "48108", "phone": "(734) 780-3900", "website": "https://www.pfchangs.com/locations/us/mi/ann-arbor/720-briarwood-circle/9886-ann-arbor.html", "brand": "PF Changs"}, "geometry": {"type": "Point", "coordinates": [-83.74513162672827, 42.24144869267493]}},
{"type": "Feature", "id": "J7ZV9ky_NrjJwaxGu4euvKs_HPY=", "properties": {"ref": "https://www.pfchangs.com/locations/us/mn/maple-grove/12071-elm-creek-blvd/9958-maple-grove.html", "@spider": "pf_changs", "addr:full": "12071 Elm Creek Blvd.", "addr:city": "Maple Grove", "addr:state": "MN", "addr:postcode": "55369", "phone": "(763) 493-9377", "website": "https://www.pfchangs.com/locations/us/mn/maple-grove/12071-elm-creek-blvd/9958-maple-grove.html", "brand": "PF Changs"}, "geometry": {"type": "Point", "coordinates": [-93.43349039554602, 45.09311435988454]}},
{"type": "Feature", "id": "yZ3Jsoisbpe2UvKFFtn2Gt9sl40=", "properties": {"ref": "https://www.pfchangs.com/locations/us/mn/edina/2700-southdale-center/9700-edina.html", "@spider": "pf_changs", "addr:full": "2700 Southdale Center", "addr:city": "Edina", "addr:state": "MN", "addr:postcode": "55435", "phone": "(952) 926-1713", "website": "https://www.pfchangs.com/locations/us/mn/edina/2700-southdale-center/9700-edina.html", "brand": "PF Changs"}, "geometry": {"type": "Point", "coordinates": [-93.3247862, 44.8796146]}},
{"type": "Feature", "id": "Eg-aYjBhzX6I2e3m-7elKCwrYe4=", "properties": {"ref": "https://www.pfchangs.com/locations/us/mo/chesterfield/1295-chesterfield-pkwy-east/9920-chesterfield.html", "@spider": "pf_changs", "addr:full": "1295 Chesterfield Pkwy. East", "addr:city": "Chesterfield", "addr:state": "MO", "addr:postcode": "63017", "phone": "(636) 532-0215", "website": "https://www.pfchangs.com/locations/us/mo/chesterfield/1295-chesterfield-pkwy-east/9920-chesterfield.html", "brand": "PF Changs"}, "geometry": {"type": "Point", "coordinates": [-90.5621412, 38.6477085]}},
{"type": "Feature", "id": "qhzLCPbwcz3KZ-Yza0KoYwel5w0=", "properties": {"ref": "https://www.pfchangs.com/locations/us/nv/henderson/101-s-green-valley-pkwy/9945-henderson.html", "@spider": "pf_changs", "addr:full": "101 S Green Valley Pkwy", "addr:city": "Henderson", "addr:state": "NV", "addr:postcode": "89012", "phone": "(702) 361-3065", "website": "https://www.pfchangs.com/locations/us/nv/henderson/101-s-green-valley-pkwy/9945-henderson.html", "brand": "PF Changs"}, "geometry": {"type": "Point", "coordinates": [-115.0850055, 36.0225676]}},
{"type": "Feature", "id": "MQdet8zHiq5BD7RIwRI3vHIvXNk=", "properties": {"ref": "https://www.pfchangs.com/locations/us/nv/las-vegas/6671-las-vegas-blvd-south-a-115/9896-town-square.html", "@spider": "pf_changs", "addr:full": "6671 Las Vegas Blvd South A-115", "addr:city": "Las Vegas", "addr:state": "NV", "addr:postcode": "89119", "phone": "(702) 867-7025", "website": "https://www.pfchangs.com/locations/us/nv/las-vegas/6671-las-vegas-blvd-south-a-115/9896-town-square.html", "brand": "PF Changs"}, "geometry": {"type": "Point", "coordinates": [-115.175246, 36.0677445]}},
{"type": "Feature", "id": "W7ewDBwqqB2_a_fOodgCjPtgwe8=", "properties": {"ref": "https://www.pfchangs.com/locations/us/nv/las-vegas/1095-s-rampart-blvd/5800-summerlin.html", "@spider": "pf_changs", "addr:full": "1095 S Rampart Blvd.", "addr:city": "Las Vegas", "addr:state": "NV", "addr:postcode": "89145", "phone": "(702) 968-8885", "website": "https://www.pfchangs.com/locations/us/nv/las-vegas/1095-s-rampart-blvd/5800-summerlin.html", "brand": "PF Changs"}, "geometry": {"type": "Point", "coordinates": [-115.29189891647547, 36.15942897316523]}},
{"type": "Feature", "id": "2R1Gkt3JVRKTvus8Caabz-g1alk=", "properties": {"ref": "https://www.pfchangs.com/locations/us/nv/las-vegas/3667-s-las-vegas-blvd/8700-planet-hollywood.html", "@spider": "pf_changs", "addr:full": "3667 S Las Vegas Blvd", "addr:city": "Las Vegas", "addr:state": "NV", "addr:postcode": "89109", "phone": "(702) 836-0955", "website": "https://www.pfchangs.com/locations/us/nv/las-vegas/3667-s-las-vegas-blvd/8700-planet-hollywood.html", "brand": "PF Changs"}, "geometry": {"type": "Point", "coordinates": [-115.17019414382148, 36.11004542920427]}},
{"type": "Feature", "id": "dlxR1elNaG20RFjZX6fSDx3BaBk=", "properties": {"ref": "https://www.pfchangs.com/locations/us/nj/west-ny/10-port-imperial-blvd/9965-west-ny.html", "@spider": "pf_changs", "addr:full": "10 Port Imperial Blvd.", "addr:city": "West NY", "addr:state": "NJ", "addr:postcode": "07093", "phone": "(201) 866-7790", "website": "https://www.pfchangs.com/locations/us/nj/west-ny/10-port-imperial-blvd/9965-west-ny.html", "brand": "PF Changs"}, "geometry": {"type": "Point", "coordinates": [-74.00964008554612, 40.7802658021956]}},
{"type": "Feature", "id": "l5XB0Xcqje41EK6ialePANx3Yyc=", "properties": {"ref": "https://www.pfchangs.com/locations/us/nj/wayne/1900-willowbrook-blvd/9897-willowbrook-mall.html", "@spider": "pf_changs", "addr:full": "1900 Willowbrook Blvd", "addr:city": "Wayne", "addr:state": "NJ", "addr:postcode": "07470", "phone": "(973) 339-4090", "website": "https://www.pfchangs.com/locations/us/nj/wayne/1900-willowbrook-blvd/9897-willowbrook-mall.html", "brand": "PF Changs"}, "geometry": {"type": "Point", "coordinates": [-74.25737216931151, 40.887354]}},
{"type": "Feature", "id": "TT1qsabpedSO966KRf9xs_kauzc=", "properties": {"ref": "https://www.pfchangs.com/locations/us/nj/princeton/3545-us-highway-1/9984-princeton.html", "@spider": "pf_changs", "addr:full": "3545 US Highway 1", "addr:city": "Princeton", "addr:state": "NJ", "addr:postcode": "08540", "phone": "(609) 799-5163", "website": "https://www.pfchangs.com/locations/us/nj/princeton/3545-us-highway-1/9984-princeton.html", "brand": "PF Changs"}, "geometry": {"type": "Point", "coordinates": [-74.6586965, 40.3153824]}},
{"type": "Feature", "id": "lPjrOI_NbQfyg6PkzDtTf7-7J0Y=", "properties": {"ref": "https://www.pfchangs.com/locations/us/nj/marlton/500-route-73-south/9905-marlton.html", "@spider": "pf_changs", "addr:full": "500 Route 73 South", "addr:city": "Marlton", "addr:state": "NJ", "addr:postcode": "08053", "phone": "(856) 396-0818", "website": "https://www.pfchangs.com/locations/us/nj/marlton/500-route-73-south/9905-marlton.html", "brand": "PF Changs"}, "geometry": {"type": "Point", "coordinates": [-74.92115205026244, 39.880317049197835]}},
{"type": "Feature", "id": "t5noZC85HfXELbxvkx2Zg3gPqHk=", "properties": {"ref": "https://www.pfchangs.com/locations/us/nj/hackensack/390-hackensack-ave/9826-hackensack.html", "@spider": "pf_changs", "addr:full": "390 Hackensack Ave.", "addr:city": "Hackensack", "addr:state": "NJ", "addr:postcode": "07601", "phone": "(201) 646-1565", "website": "https://www.pfchangs.com/locations/us/nj/hackensack/390-hackensack-ave/9826-hackensack.html", "brand": "PF Changs"}, "geometry": {"type": "Point", "coordinates": [-74.0307687, 40.9078953]}},
{"type": "Feature", "id": "FnjOh4I7lrpkA0oKYpF1pDjzReI=", "properties": {"ref": "https://www.pfchangs.com/locations/us/nj/freehold/3710-rt-9/9842-freehold.html", "@spider": "pf_changs", "addr:full": "3710 Rt 9", "addr:city": "Freehold", "addr:state": "NJ", "addr:postcode": "07728", "phone": "(732) 308-1840", "website": "https://www.pfchangs.com/locations/us/nj/freehold/3710-rt-9/9842-freehold.html", "brand": "PF Changs"}, "geometry": {"type": "Point", "coordinates": [-74.2982552, 40.2520755]}},
{"type": "Feature", "id": "HGoQBYNBbF3BfY2YCHUEg_VBzVA=", "properties": {"ref": "https://www.pfchangs.com/locations/us/nj/atlantic-city/2801-n-pacific-ave/9959-atlantic-city.html", "@spider": "pf_changs", "addr:full": "2801 N Pacific Ave.", "addr:city": "Atlantic City", "addr:state": "NJ", "addr:postcode": "08401", "phone": "(609) 348-4600", "website": "https://www.pfchangs.com/locations/us/nj/atlantic-city/2801-n-pacific-ave/9959-atlantic-city.html", "brand": "PF Changs"}, "geometry": {"type": "Point", "coordinates": [-74.4451005, 39.3534361]}},
{"type": "Feature", "id": "KGi7UpWNG-ZhPriS5G08A0EQ2AY=", "properties": {"ref": "https://www.pfchangs.com/locations/us/or/eugene/124-coburg-rd/9830-eugene.html", "@spider": "pf_changs", "addr:full": "124 Coburg Rd.", "addr:city": "Eugene", "addr:state": "OR", "addr:postcode": "97401", "phone": "(541) 225-2015", "website": "https://www.pfchangs.com/locations/us/or/eugene/124-coburg-rd/9830-eugene.html", "brand": "PF Changs"}, "geometry": {"type": "Point", "coordinates": [-123.07798326015472, 44.064114760404124]}},
{"type": "Feature", "id": "6wy3KS9PnS0WpfLkcYh0yMEjoug=", "properties": {"ref": "https://www.pfchangs.com/locations/us/pa/warrington/721-easton-rd/9827-warrington.html", "@spider": "pf_changs", "addr:full": "721 Easton Rd.", "addr:city": "Warrington", "addr:state": "PA", "addr:postcode": "18976", "phone": "(215) 918-3340", "website": "https://www.pfchangs.com/locations/us/pa/warrington/721-easton-rd/9827-warrington.html", "brand": "PF Changs"}, "geometry": {"type": "Point", "coordinates": [-75.13683, 40.2321086]}},
{"type": "Feature", "id": "pFok-2sq-9PJZlLEyUUjO_j-bJ8=", "properties": {"ref": "https://www.pfchangs.com/locations/us/pa/pittsburgh/1600-settlers-ridge-center-dr/9856-pittsburgh-settlers-ridge.html", "@spider": "pf_changs", "addr:full": "1600 Settlers Ridge Center Dr.", "addr:city": "Pittsburgh", "addr:state": "PA", "addr:postcode": "15205", "phone": "(412) 788-2901", "website": "https://www.pfchangs.com/locations/us/pa/pittsburgh/1600-settlers-ridge-center-dr/9856-pittsburgh-settlers-ridge.html", "brand": "PF Changs"}, "geometry": {"type": "Point", "coordinates": [-80.15053153038025, 40.439463677816036]}},
{"type": "Feature", "id": "WRYwQo_11tngNFRJW_LRXQYDdLg=", "properties": {"ref": "https://www.pfchangs.com/locations/us/pa/plymouth-meeting/510-germantown-pike/9839-plymouth-meeting.html", "@spider": "pf_changs", "addr:full": "510 Germantown Pike", "addr:city": "Plymouth Meeting", "addr:state": "PA", "addr:postcode": "19462", "phone": "(610) 567-0226", "website": "https://www.pfchangs.com/locations/us/pa/plymouth-meeting/510-germantown-pike/9839-plymouth-meeting.html", "brand": "PF Changs"}, "geometry": {"type": "Point", "coordinates": [-75.28379201889038, 40.11632245447331]}},
{"type": "Feature", "id": "DkYIlDG5OdntZydRjT5InuswuV4=", "properties": {"ref": "https://www.pfchangs.com/locations/us/pa/lancaster/1577-fruitville-pike/9892-lancaster-pa.html", "@spider": "pf_changs", "addr:full": "1577 Fruitville Pike", "addr:city": "Lancaster", "addr:state": "PA", "addr:postcode": "17601", "phone": "(717) 690-7113", "website": "https://www.pfchangs.com/locations/us/pa/lancaster/1577-fruitville-pike/9892-lancaster-pa.html", "brand": "PF Changs"}, "geometry": {"type": "Point", "coordinates": [-76.3144212, 40.0677533]}},
{"type": "Feature", "id": "pBCkRLRnD83EFkq2wKm552EZiTs=", "properties": {"ref": "https://www.pfchangs.com/locations/us/pa/glen-mills/983-baltimore-pike/9949-glen-mills.html", "@spider": "pf_changs", "addr:full": "983 Baltimore Pike", "addr:city": "Glen Mills", "addr:state": "PA", "addr:postcode": "19342", "phone": "(610) 545-3030", "website": "https://www.pfchangs.com/locations/us/pa/glen-mills/983-baltimore-pike/9949-glen-mills.html", "brand": "PF Changs"}, "geometry": {"type": "Point", "coordinates": [-75.5352920293808, 39.884330804609945]}},
{"type": "Feature", "id": "tlgmaklDJ-ktJ-u6kD96fVzOde4=", "properties": {"ref": "https://www.pfchangs.com/locations/us/pa/collegeville/10-town-center-dr/9864-collegeville.html", "@spider": "pf_changs", "addr:full": "10 Town Center Dr.", "addr:city": "Collegeville", "addr:state": "PA", "addr:postcode": "19426", "phone": "(610) 489-0110", "website": "https://www.pfchangs.com/locations/us/pa/collegeville/10-town-center-dr/9864-collegeville.html", "brand": "PF Changs"}, "geometry": {"type": "Point", "coordinates": [-75.4777666926384, 40.164321732718435]}},
{"type": "Feature", "id": "1-QJEUwFTFBa85Rn0g6X0k_vlhQ=", "properties": {"ref": "https://www.pfchangs.com/locations/us/sc/greenville/1127-woodruff-rd/9803-greenville.html", "@spider": "pf_changs", "addr:full": "1127 Woodruff Rd.", "addr:city": "Greenville", "addr:state": "SC", "addr:postcode": "29607", "phone": "(864) 297-0589", "website": "https://www.pfchangs.com/locations/us/sc/greenville/1127-woodruff-rd/9803-greenville.html", "brand": "PF Changs"}, "geometry": {"type": "Point", "coordinates": [-82.2978101670742, 34.82659777063776]}},
{"type": "Feature", "id": "cp7IUDMfi6k9xayzIblxTdV1Ey0=", "properties": {"ref": "https://www.pfchangs.com/locations/us/tn/nashville/2525-w-end/7400-nashville.html", "@spider": "pf_changs", "addr:full": "2525 W End", "addr:city": "Nashville", "addr:state": "TN", "addr:postcode": "37203", "phone": "(615) 329-8901", "website": "https://www.pfchangs.com/locations/us/tn/nashville/2525-w-end/7400-nashville.html", "brand": "PF Changs"}, "geometry": {"type": "Point", "coordinates": [-86.8093572, 36.14608]}},
{"type": "Feature", "id": "oik15Wbj018h_ST-QeCWbb9GWuo=", "properties": {"ref": "https://www.pfchangs.com/locations/us/tn/memphis/1181-ridgeway-rd/6800-memphis.html", "@spider": "pf_changs", "addr:full": "1181 Ridgeway Rd.", "addr:city": "Memphis", "addr:state": "TN", "addr:postcode": "38119", "phone": "(901) 818-3889", "website": "https://www.pfchangs.com/locations/us/tn/memphis/1181-ridgeway-rd/6800-memphis.html", "brand": "PF Changs"}, "geometry": {"type": "Point", "coordinates": [-89.8596024513244, 35.09893426205795]}},
{"type": "Feature", "id": "1MlfpbBIxdYoUVljRwBTlEyO7GE=", "properties": {"ref": "https://www.pfchangs.com/locations/us/tn/knoxville/6741-kingston-pike/9923-knoxville.html", "@spider": "pf_changs", "addr:full": "6741 Kingston Pike", "addr:city": "Knoxville", "addr:state": "TN", "addr:postcode": "37919", "phone": "(865) 212-5514", "website": "https://www.pfchangs.com/locations/us/tn/knoxville/6741-kingston-pike/9923-knoxville.html", "brand": "PF Changs"}, "geometry": {"type": "Point", "coordinates": [-84.01817232370377, 35.93339947667195]}},
{"type": "Feature", "id": "0SX4PEN-6VVa_a-6Y-iFfQiFfh0=", "properties": {"ref": "https://www.pfchangs.com/locations/us/tn/franklin/439-cool-springs-blvd/9914-cool-springs.html", "@spider": "pf_changs", "addr:full": "439 Cool Springs Blvd.", "addr:city": "Franklin", "addr:state": "TN", "addr:postcode": "37067", "phone": "(615) 503-9640", "website": "https://www.pfchangs.com/locations/us/tn/franklin/439-cool-springs-blvd/9914-cool-springs.html", "brand": "PF Changs"}, "geometry": {"type": "Point", "coordinates": [-86.82576656341553, 35.946722247432106]}},
{"type": "Feature", "id": "8aIeou2VDhe9mmWGSvVsb_A1HJ8=", "properties": {"ref": "https://www.pfchangs.com/locations/us/tx/the-colony/5752-grandscape-blvd/9928-grandscape.html", "@spider": "pf_changs", "addr:full": "5752 Grandscape Blvd.", "addr:city": "The Colony", "addr:state": "TX", "addr:postcode": "75056", "phone": "(469) 270-6089", "website": "https://www.pfchangs.com/locations/us/tx/the-colony/5752-grandscape-blvd/9928-grandscape.html", "brand": "PF Changs"}, "geometry": {"type": "Point", "coordinates": [-96.86133395840316, 33.073668525539155]}},
{"type": "Feature", "id": "LvrbCz5n3glPmYE-PA8V4N92dRw=", "properties": {"ref": "https://www.pfchangs.com/locations/us/tx/the-woodlands/1201-lake-woodlands-dr/9910-the-woodlands.html", "@spider": "pf_changs", "addr:full": "1201 Lake Woodlands Dr.", "addr:city": "The Woodlands", "addr:state": "TX", "addr:postcode": "77380", "phone": "(281) 203-6350", "website": "https://www.pfchangs.com/locations/us/tx/the-woodlands/1201-lake-woodlands-dr/9910-the-woodlands.html", "brand": "PF Changs"}, "geometry": {"type": "Point", "coordinates": [-95.4561728, 30.1628443]}},
{"type": "Feature", "id": "fj9G6A2vH1dDD6S_Tdi0ROareXo=", "properties": {"ref": "https://www.pfchangs.com/locations/us/tx/sugar-land/2120-lone-star-dr/9935-sugar-land.html", "@spider": "pf_changs", "addr:full": "2120 Lone Star Dr.", "addr:city": "Sugar Land", "addr:state": "TX", "addr:postcode": "77479", "phone": "(281) 313-8650", "website": "https://www.pfchangs.com/locations/us/tx/sugar-land/2120-lone-star-dr/9935-sugar-land.html", "brand": "PF Changs"}, "geometry": {"type": "Point", "coordinates": [-95.62413767733233, 29.595278844485634]}},
{"type": "Feature", "id": "13cMiVCtu9PDOCEHq_DmyHy_jYk=", "properties": {"ref": "https://www.pfchangs.com/locations/us/tx/mckinney/1801-n-hardin-blvd/7024-mckinney-380-commons-.html", "@spider": "pf_changs", "addr:full": "1801 N Hardin Blvd", "addr:city": "McKinney", "addr:state": "TX", "addr:postcode": "75071", "phone": "(469) 301-3336", "website": "https://www.pfchangs.com/locations/us/tx/mckinney/1801-n-hardin-blvd/7024-mckinney-380-commons-.html", "brand": "PF Changs"}, "geometry": {"type": "Point", "coordinates": [-96.66212750635908, 33.21607769516783]}},
{"type": "Feature", "id": "wcJy8V0H3lEwEzLcqIL8PExQn74=", "properties": {"ref": "https://www.pfchangs.com/locations/us/tx/mcallen/3100-expressway-83/9838-mcallen.html", "@spider": "pf_changs", "addr:full": "3100 Expressway 83", "addr:city": "McAllen", "addr:state": "TX", "addr:postcode": "78503", "phone": "(956) 664-1516", "website": "https://www.pfchangs.com/locations/us/tx/mcallen/3100-expressway-83/9838-mcallen.html", "brand": "PF Changs"}, "geometry": {"type": "Point", "coordinates": [-98.2588725, 26.1951173]}},
{"type": "Feature", "id": "d1fTiMhk7Woaeonp9ql9ka3tf7I=", "properties": {"ref": "https://www.pfchangs.com/locations/us/tx/lubbock/2906-west-loop-289/9893-lubbock.html", "@spider": "pf_changs", "addr:full": "2906 West Loop 289", "addr:city": "Lubbock", "addr:state": "TX", "addr:postcode": "79407", "phone": "(806) 507-7020", "website": "https://www.pfchangs.com/locations/us/tx/lubbock/2906-west-loop-289/9893-lubbock.html", "brand": "PF Changs"}, "geometry": {"type": "Point", "coordinates": [-101.944975, 33.568056]}},
{"type": "Feature", "id": "4ZELV8qtAui2MmSFW7CQsJPDPmk=", "properties": {"ref": "https://www.pfchangs.com/locations/us/tx/irving/5941-high-point-drive/7017-las-colinas.html", "@spider": "pf_changs", "addr:full": "5941 High Point Drive", "addr:city": "Irving", "addr:state": "TX", "addr:postcode": "75038", "phone": "(469) 599-0030", "website": "https://www.pfchangs.com/locations/us/tx/irving/5941-high-point-drive/7017-las-colinas.html", "brand": "PF Changs"}, "geometry": {"type": "Point", "coordinates": [-96.97197112882647, 32.8928383242497]}},
{"type": "Feature", "id": "Cr8gv54X7d5Z6xuQzwWlJ_NFJZA=", "properties": {"ref": "https://www.pfchangs.com/locations/us/tx/grapevine/650-w-hwy-114/9932-grapevine.html", "@spider": "pf_changs", "addr:full": "650 W Hwy 114", "addr:city": "Grapevine", "addr:state": "TX", "addr:postcode": "76051", "phone": "(817) 421-6658", "website": "https://www.pfchangs.com/locations/us/tx/grapevine/650-w-hwy-114/9932-grapevine.html", "brand": "PF Changs"}, "geometry": {"type": "Point", "coordinates": [-97.084052, 32.9248655]}},
{"type": "Feature", "id": "EEXq_TOspbzB-PMisBRO7sTxOq8=", "properties": {"ref": "https://www.pfchangs.com/locations/us/tx/ft-worth/400-throckmorton/9972-ft-worth.html", "@spider": "pf_changs", "addr:full": "400 Throckmorton", "addr:city": "Ft Worth", "addr:state": "TX", "addr:postcode": "76102", "phone": "(817) 840-2450", "website": "https://www.pfchangs.com/locations/us/tx/ft-worth/400-throckmorton/9972-ft-worth.html", "brand": "PF Changs"}, "geometry": {"type": "Point", "coordinates": [-97.3332586884498, 32.75415293201117]}},
{"type": "Feature", "id": "4GREY7u6e-gWj2kmbm1VAC4c3dc=", "properties": {"ref": "https://www.pfchangs.com/locations/us/tx/friendswood/1454-w-bay-area-blvd/9883-friendswood.html", "@spider": "pf_changs", "addr:full": "1454 W Bay Area Blvd.", "addr:city": "Friendswood", "addr:state": "TX", "addr:postcode": "77546", "phone": "(281) 898-7700", "website": "https://www.pfchangs.com/locations/us/tx/friendswood/1454-w-bay-area-blvd/9883-friendswood.html", "brand": "PF Changs"}, "geometry": {"type": "Point", "coordinates": [-95.14770225451684, 29.538936320313034]}},
{"type": "Feature", "id": "1oK6ukb0CU2xpp21f-FiJTr-zY4=", "properties": {"ref": "https://www.pfchangs.com/locations/us/tx/flower-mound/3750-long-prairie-rd/7023-flower-mound-coming-soon-.html", "@spider": "pf_changs", "addr:full": "3750 Long Prairie Rd.", "addr:city": "Flower Mound", "addr:state": "TX", "addr:postcode": "75028", "phone": "(469) 312-5440", "website": "https://www.pfchangs.com/locations/us/tx/flower-mound/3750-long-prairie-rd/7023-flower-mound-coming-soon-.html", "brand": "PF Changs"}, "geometry": {"type": "Point", "coordinates": [-97.06815965961674, 33.036627035720706]}},
{"type": "Feature", "id": "Kzpf1ofsEL6ssY-mrqtpF3o6YF8=", "properties": {"ref": "https://www.pfchangs.com/locations/us/tx/corpus-christi/5488-s-padre-island-dr/9876-corpus-christi.html", "@spider": "pf_changs", "addr:full": "5488 S Padre Island Dr.", "addr:city": "Corpus Christi", "addr:state": "TX", "addr:postcode": "78411", "phone": "(361) 991-0078", "website": "https://www.pfchangs.com/locations/us/tx/corpus-christi/5488-s-padre-island-dr/9876-corpus-christi.html", "brand": "PF Changs"}, "geometry": {"type": "Point", "coordinates": [-97.37244138261303, 27.711026591895493]}},
{"type": "Feature", "id": "fklWuzVJRBMNa8j47ccgVR2ghzM=", "properties": {"ref": "https://www.pfchangs.com/locations/us/tx/arlington/215-e-i-20-hwy/9829-arlington-tx.html", "@spider": "pf_changs", "addr:full": "215 E I-20 Hwy", "addr:city": "Arlington", "addr:state": "TX", "addr:postcode": "76018", "phone": "(817) 375-8690", "website": "https://www.pfchangs.com/locations/us/tx/arlington/215-e-i-20-hwy/9829-arlington-tx.html", "brand": "PF Changs"}, "geometry": {"type": "Point", "coordinates": [-97.10977837443352, 32.679087621285106]}},
{"type": "Feature", "id": "VpxyTuKqh5CXoYJrtrujkgiJH0M=", "properties": {"ref": "https://www.pfchangs.com/locations/us/tx/allen/915-w-bethany-dr/9825-allen.html", "@spider": "pf_changs", "addr:full": "915 W Bethany Dr.", "addr:city": "Allen", "addr:state": "TX", "addr:postcode": "75013", "phone": "(972) 390-1040", "website": "https://www.pfchangs.com/locations/us/tx/allen/915-w-bethany-dr/9825-allen.html", "brand": "PF Changs"}, "geometry": {"type": "Point", "coordinates": [-96.6831757, 33.0902712]}},
{"type": "Feature", "id": "IYNXXVGQlvk2ShYdp9P6mJY9fzk=", "properties": {"ref": "https://www.pfchangs.com/locations/us/ut/orem/575-e-university-pkwy/9917-orem.html", "@spider": "pf_changs", "addr:full": "575 E University Pkwy.", "addr:city": "Orem", "addr:state": "UT", "addr:postcode": "84097", "phone": "(801) 426-0900", "website": "https://www.pfchangs.com/locations/us/ut/orem/575-e-university-pkwy/9917-orem.html", "brand": "PF Changs"}, "geometry": {"type": "Point", "coordinates": [-111.6816521, 40.2745477]}},
{"type": "Feature", "id": "-gZd6OomRFLDftK_vwgZVrfA4-U=", "properties": {"ref": "https://www.pfchangs.com/locations/us/tx/san-antonio/255-e-basse-road/9939-quarry-market.html", "@spider": "pf_changs", "addr:full": "255 E Basse Road", "addr:city": "San Antonio", "addr:state": "TX", "addr:postcode": "78209", "phone": "(210) 507-1000", "website": "https://www.pfchangs.com/locations/us/tx/san-antonio/255-e-basse-road/9939-quarry-market.html", "brand": "PF Changs"}, "geometry": {"type": "Point", "coordinates": [-98.48201414218903, 29.495013240556215]}},
{"type": "Feature", "id": "jEnakFtkL4lb76nnzv4qzH9352M=", "properties": {"ref": "https://www.pfchangs.com/locations/us/tx/san-antonio/15900-lacantera-pkwy/9982-la-cantera.html", "@spider": "pf_changs", "addr:full": "15900 LaCantera Pkwy.", "addr:city": "San Antonio", "addr:state": "TX", "addr:postcode": "78256", "phone": "(210) 507-6500", "website": "https://www.pfchangs.com/locations/us/tx/san-antonio/15900-lacantera-pkwy/9982-la-cantera.html", "brand": "PF Changs"}, "geometry": {"type": "Point", "coordinates": [-98.61579604662705, 29.593018700860455]}},
{"type": "Feature", "id": "oBJ9T0VRu0-1JF8wrba4a3Cz-jw=", "properties": {"ref": "https://www.pfchangs.com/locations/us/ut/farmington/905-w-west-promontory/9907-station-park.html", "@spider": "pf_changs", "addr:full": "905 W. West Promontory", "addr:city": "Farmington", "addr:state": "UT", "addr:postcode": "84025", "phone": "(385) 300-7300", "website": "https://www.pfchangs.com/locations/us/ut/farmington/905-w-west-promontory/9907-station-park.html", "brand": "PF Changs"}, "geometry": {"type": "Point", "coordinates": [-111.9073022, 40.9827956]}},
{"type": "Feature", "id": "uB_pKI1eDlBYMjXxh9OeMKrgaCk=", "properties": {"ref": "https://www.pfchangs.com/locations/us/va/richmond/9212-stony-point/9938-richmond.html", "@spider": "pf_changs", "addr:full": "9212 Stony Point", "addr:city": "Richmond", "addr:state": "VA", "addr:postcode": "23235", "phone": "(804) 253-0492", "website": "https://www.pfchangs.com/locations/us/va/richmond/9212-stony-point/9938-richmond.html", "brand": "PF Changs"}, "geometry": {"type": "Point", "coordinates": [-77.571231, 37.5506719]}},
{"type": "Feature", "id": "lirUQQN3-fsxSUFjOhV83Rmiw2k=", "properties": {"ref": "https://www.pfchangs.com/locations/us/va/newport-news/12090-jefferson-ave/9874-newport-news.html", "@spider": "pf_changs", "addr:full": "12090 Jefferson Ave", "addr:city": "Newport News", "addr:state": "VA", "addr:postcode": "23606", "phone": "(757) 527-3201", "website": "https://www.pfchangs.com/locations/us/va/newport-news/12090-jefferson-ave/9874-newport-news.html", "brand": "PF Changs"}, "geometry": {"type": "Point", "coordinates": [-76.4923497, 37.1038885]}},
{"type": "Feature", "id": "8Xo_JhyZqfibdHMfbY4vE94S3cE=", "properties": {"ref": "https://www.pfchangs.com/locations/us/tx/houston/5251-westheimer-rd/9962-houston-galleria-tx.html", "@spider": "pf_changs", "addr:full": "5251 Westheimer Rd.", "addr:city": "Houston", "addr:state": "TX", "addr:postcode": "77056", "phone": "(346) 396-4411", "website": "https://www.pfchangs.com/locations/us/tx/houston/5251-westheimer-rd/9962-houston-galleria-tx.html", "brand": "PF Changs"}, "geometry": {"type": "Point", "coordinates": [-95.4675273220463, 29.73980635283209]}},
{"type": "Feature", "id": "fxLezvKWCx8Doaofnq3K4dI1fb4=", "properties": {"ref": "https://www.pfchangs.com/locations/us/tx/houston/4094-westheimer-rd/1600-houston.html", "@spider": "pf_changs", "addr:full": "4094 Westheimer Rd.", "addr:city": "Houston", "addr:state": "TX", "addr:postcode": "77027", "phone": "(713) 627-7220", "website": "https://www.pfchangs.com/locations/us/tx/houston/4094-westheimer-rd/1600-houston.html", "brand": "PF Changs"}, "geometry": {"type": "Point", "coordinates": [-95.4475171, 29.7420221]}},
{"type": "Feature", "id": "kMpx98yVNvhN4gLm67-1KUDgwE8=", "properties": {"ref": "https://www.pfchangs.com/locations/us/tx/houston/18250-tomball-pkwy/9994-willowbrook.html", "@spider": "pf_changs", "addr:full": "18250 Tomball Pkwy.", "addr:city": "Houston", "addr:state": "TX", "addr:postcode": "77070", "phone": "(281) 571-4050", "website": "https://www.pfchangs.com/locations/us/tx/houston/18250-tomball-pkwy/9994-willowbrook.html", "brand": "PF Changs"}, "geometry": {"type": "Point", "coordinates": [-95.54908432067117, 29.963366518559262]}},
{"type": "Feature", "id": "1XD-dDhCsczqVfNxzdfQKWoVgRo=", "properties": {"ref": "https://www.pfchangs.com/locations/us/va/mclean/1716m-international-dr/3000-tyson-s-corner.html", "@spider": "pf_changs", "addr:full": "1716M International Dr.", "addr:city": "McLean", "addr:state": "VA", "addr:postcode": "22102", "phone": "(703) 734-8996", "website": "https://www.pfchangs.com/locations/us/va/mclean/1716m-international-dr/3000-tyson-s-corner.html", "brand": "PF Changs"}, "geometry": {"type": "Point", "coordinates": [-77.225382, 38.924443]}},
{"type": "Feature", "id": "aw4EdPqXOFG6sHFV7hW0fyZY2Xg=", "properties": {"ref": "https://www.pfchangs.com/locations/us/tx/houston/11685-westheimer-rd/9901-westchase.html", "@spider": "pf_changs", "addr:full": "11685 Westheimer Rd.", "addr:city": "Houston", "addr:state": "TX", "addr:postcode": "77077", "phone": "(281) 920-3553", "website": "https://www.pfchangs.com/locations/us/tx/houston/11685-westheimer-rd/9901-westchase.html", "brand": "PF Changs"}, "geometry": {"type": "Point", "coordinates": [-95.58338016271591, 29.735993017297453]}},
{"type": "Feature", "id": "phIkJkv5YMIHCQEniPi4SYQsXtY=", "properties": {"ref": "https://www.pfchangs.com/locations/us/tx/el-paso/8889-gateway-blvd-west/9891-fountains-at-farah.html", "@spider": "pf_changs", "addr:full": "8889 Gateway Blvd West", "addr:city": "El Paso", "addr:state": "TX", "addr:postcode": "79925", "phone": "(915) 249-4172", "website": "https://www.pfchangs.com/locations/us/tx/el-paso/8889-gateway-blvd-west/9891-fountains-at-farah.html", "brand": "PF Changs"}, "geometry": {"type": "Point", "coordinates": [-106.3739290773799, 31.77072061161383]}},
{"type": "Feature", "id": "NITafTiYCyyq8NZw0TGppmDQ1Ss=", "properties": {"ref": "https://www.pfchangs.com/locations/us/tx/dallas/18323-n-dallas-pkwy/2900-north-dallas-tollway.html", "@spider": "pf_changs", "addr:full": "18323 N Dallas Pkwy.", "addr:city": "Dallas", "addr:state": "TX", "addr:postcode": "75287", "phone": "(972) 818-3336", "website": "https://www.pfchangs.com/locations/us/tx/dallas/18323-n-dallas-pkwy/2900-north-dallas-tollway.html", "brand": "PF Changs"}, "geometry": {"type": "Point", "coordinates": [-96.83023452758789, 32.998518708748165]}},
{"type": "Feature", "id": "otyjKmbR9CdFpiQZnzoMGn3BcD0=", "properties": {"ref": "https://www.pfchangs.com/locations/us/tx/austin/201-san-jacinto-blvd/9400-austin-downtown.html", "@spider": "pf_changs", "addr:full": "201 San Jacinto Blvd.", "addr:city": "Austin", "addr:state": "TX", "addr:postcode": "78701", "phone": "(512) 457-8300", "website": "https://www.pfchangs.com/locations/us/tx/austin/201-san-jacinto-blvd/9400-austin-downtown.html", "brand": "PF Changs"}, "geometry": {"type": "Point", "coordinates": [-97.74141311645508, 30.26378172414975]}},
{"type": "Feature", "id": "zBC6C-rc9lQIV1zfMYUnuoTKJ84=", "properties": {"ref": "https://www.pfchangs.com/locations/us/tx/dallas/8687-north-central-expressway/3900-northpark.html", "@spider": "pf_changs", "addr:full": "8687 North Central Expressway", "addr:city": "Dallas", "addr:state": "TX", "addr:postcode": "75225", "phone": "(214) 265-8669", "website": "https://www.pfchangs.com/locations/us/tx/dallas/8687-north-central-expressway/3900-northpark.html", "brand": "PF Changs"}, "geometry": {"type": "Point", "coordinates": [-96.7730731, 32.8668373]}},
{"type": "Feature", "id": "oC---FpnFWEc0fHzA-SexiAlVtA=", "properties": {"ref": "https://www.pfchangs.com/locations/us/tx/austin/10114-jollyville-rd/1800-austin-arboretum.html", "@spider": "pf_changs", "addr:full": "10114 Jollyville Rd.", "addr:city": "Austin", "addr:state": "TX", "addr:postcode": "78759", "phone": "(512) 231-0208", "website": "https://www.pfchangs.com/locations/us/tx/austin/10114-jollyville-rd/1800-austin-arboretum.html", "brand": "PF Changs"}, "geometry": {"type": "Point", "coordinates": [-97.7503492, 30.3955107]}},
{"type": "Feature", "id": "JxG5tvUxHj5wHc25RTAQanH89vA=", "properties": {"ref": "https://www.pfchangs.com/locations/us/va/fairfax/4250-fairfax-corner-ave/9937-fairfax.html", "@spider": "pf_changs", "addr:full": "4250 Fairfax Corner Ave.", "addr:city": "Fairfax", "addr:state": "VA", "addr:postcode": "22030", "phone": "(703) 266-2414", "website": "https://www.pfchangs.com/locations/us/va/fairfax/4250-fairfax-corner-ave/9937-fairfax.html", "brand": "PF Changs"}, "geometry": {"type": "Point", "coordinates": [-77.35667288303375, 38.85706868717661]}},
{"type": "Feature", "id": "OdvQap4oQdlHwpteBi4GJkfohIA=", "properties": {"ref": "https://www.pfchangs.com/locations/us/tx/el-paso/760-sunland-park-dr/9973-el-paso.html", "@spider": "pf_changs", "addr:full": "760 Sunland Park Dr.", "addr:city": "El Paso", "addr:state": "TX", "addr:postcode": "79912", "phone": "(915) 845-0166", "website": "https://www.pfchangs.com/locations/us/tx/el-paso/760-sunland-park-dr/9973-el-paso.html", "brand": "PF Changs"}, "geometry": {"type": "Point", "coordinates": [-106.54615312814713, 31.816983495277412]}},
{"type": "Feature", "id": "xYwFS0U0DgiFj5TYmYkjzXkCdxg=", "properties": {"ref": "https://www.pfchangs.com/locations/us/va/arlington/901-n-glebe-rd/9988-arlington-va.html", "@spider": "pf_changs", "addr:full": "901 N Glebe Rd.", "addr:city": "Arlington", "addr:state": "VA", "addr:postcode": "22203", "phone": "(703) 527-0955", "website": "https://www.pfchangs.com/locations/us/va/arlington/901-n-glebe-rd/9988-arlington-va.html", "brand": "PF Changs"}, "geometry": {"type": "Point", "coordinates": [-77.11505413055414, 38.88111150509467]}},
{"type": "Feature", "id": "mbea-7IKpzytM22qOaH8Cm1aEGE=", "properties": {"ref": "https://www.pfchangs.com/locations/us/il/chicago/177-n-morgan-street/7006-fulton-market.html", "@spider": "pf_changs", "addr:full": "177 N. Morgan Street", "addr:city": "Chicago", "addr:state": "IL", "addr:postcode": "60607", "phone": "(312) 878-4500", "website": "https://www.pfchangs.com/locations/us/il/chicago/177-n-morgan-street/7006-fulton-market.html", "brand": "PF Changs"}, "geometry": {"type": "Point", "coordinates": [-87.65189248710251, 41.88520237232695]}},
{"type": "Feature", "id": "mjOZIWus50uic8oWrMoCf8SfUwU=", "properties": {"ref": "https://www.pfchangs.com/locations/us/ks/wichita/1401-waterfront-pkwy/9963-wichita.html", "@spider": "pf_changs", "addr:full": "1401 Waterfront Pkwy.", "addr:city": "Wichita", "addr:state": "KS", "addr:postcode": "67206", "phone": "(316) 634-2211", "website": "https://www.pfchangs.com/locations/us/ks/wichita/1401-waterfront-pkwy/9963-wichita.html", "brand": "PF Changs"}, "geometry": {"type": "Point", "coordinates": [-97.22399890422821, 37.70883200960539]}},
{"type": "Feature", "id": "6MZesiwuqoW8Gb8GhtxK61AWXvw=", "properties": {"ref": "https://www.pfchangs.com/locations/us/ia/west-des-moines/110-s-jordan-creek-pkwy/9961-west-des-moines.html", "@spider": "pf_changs", "addr:full": "110 S Jordan Creek Pkwy.", "addr:city": "West Des Moines", "addr:state": "IA", "addr:postcode": "50266", "phone": "(515) 457-7772", "website": "https://www.pfchangs.com/locations/us/ia/west-des-moines/110-s-jordan-creek-pkwy/9961-west-des-moines.html", "brand": "PF Changs"}, "geometry": {"type": "Point", "coordinates": [-93.80485028028482, 41.567891873075915]}},
{"type": "Feature", "id": "RAPSglEjYKiK90dcdsu5o_7w1sk=", "properties": {"ref": "https://www.pfchangs.com/locations/us/md/towson/825-dulaney-valley-rd/9855-towson.html", "@spider": "pf_changs", "addr:full": "825 Dulaney Valley Rd.", "addr:city": "Towson", "addr:state": "MD", "addr:postcode": "21204", "phone": "(410) 372-5250", "website": "https://www.pfchangs.com/locations/us/md/towson/825-dulaney-valley-rd/9855-towson.html", "brand": "PF Changs"}, "geometry": {"type": "Point", "coordinates": [-76.60082307605751, 39.405662260864965]}},
{"type": "Feature", "id": "Bxi10SedPtoUjs-9tNzaa-0otqc=", "properties": {"ref": "https://www.pfchangs.com/locations/us/md/baltimore/8342-honeygo-blvd/9847-white-marsh-mall.html", "@spider": "pf_changs", "addr:full": "8342 Honeygo Blvd.", "addr:city": "Baltimore", "addr:state": "MD", "addr:postcode": "21236", "phone": "(410) 931-2433", "website": "https://www.pfchangs.com/locations/us/md/baltimore/8342-honeygo-blvd/9847-white-marsh-mall.html", "brand": "PF Changs"}, "geometry": {"type": "Point", "coordinates": [-76.46295054817301, 39.373503254442575]}},
{"type": "Feature", "id": "OzDH_Z3h_CKDgdD0IaavBfEw83g=", "properties": {"ref": "https://www.pfchangs.com/locations/us/md/columbia/10300-little-patuxent-pkwy/9600-columbia.html", "@spider": "pf_changs", "addr:full": "10300 Little Patuxent Pkwy", "addr:city": "Columbia", "addr:state": "MD", "addr:postcode": "21044", "phone": "(410) 730-5344", "website": "https://www.pfchangs.com/locations/us/md/columbia/10300-little-patuxent-pkwy/9600-columbia.html", "brand": "PF Changs"}, "geometry": {"type": "Point", "coordinates": [-76.8624169, 39.2161665]}},
{"type": "Feature", "id": "H0PYhrlSIfItM5483dKv2RdXB78=", "properties": {"ref": "https://www.pfchangs.com/locations/us/md/annapolis/307-sail-place/9848-annapolis.html", "@spider": "pf_changs", "addr:full": "307 Sail Place", "addr:city": "Annapolis", "addr:state": "MD", "addr:postcode": "21401", "phone": "(410) 573-2990", "website": "https://www.pfchangs.com/locations/us/md/annapolis/307-sail-place/9848-annapolis.html", "brand": "PF Changs"}, "geometry": {"type": "Point", "coordinates": [-76.53869301080704, 38.97979113225999]}},
{"type": "Feature", "id": "oXa7FUdwl1y-vgefbWA3CObpF24=", "properties": {"ref": "https://www.pfchangs.com/locations/us/la/metairie/3301-veterans-memorial-blvd/1900-metairie.html", "@spider": "pf_changs", "addr:full": "3301 Veterans Memorial Blvd.", "addr:city": "Metairie", "addr:state": "LA", "addr:postcode": "70002", "phone": "(504) 828-5288", "website": "https://www.pfchangs.com/locations/us/la/metairie/3301-veterans-memorial-blvd/1900-metairie.html", "brand": "PF Changs"}, "geometry": {"type": "Point", "coordinates": [-90.157885, 30.004532]}},
{"type": "Feature", "id": "AMooX01N5x9QAeU_KHhWHPTGzrU=", "properties": {"ref": "https://www.pfchangs.com/locations/us/la/baton-rouge/7341-corporate-blvd/9977-baton-rouge.html", "@spider": "pf_changs", "addr:full": "7341 Corporate Blvd.", "addr:city": "Baton Rouge", "addr:state": "LA", "addr:postcode": "70809", "phone": "(225) 216-9044", "website": "https://www.pfchangs.com/locations/us/la/baton-rouge/7341-corporate-blvd/9977-baton-rouge.html", "brand": "PF Changs"}, "geometry": {"type": "Point", "coordinates": [-91.11425266431064, 30.431122792212967]}},
{"type": "Feature", "id": "YEESTZ620pl2VXMn9xgNJeS9D54=", "properties": {"ref": "https://www.pfchangs.com/locations/us/ky/louisville/9120-shelbyville-rd/9975-louisville.html", "@spider": "pf_changs", "addr:full": "9120 Shelbyville Rd.", "addr:city": "Louisville", "addr:state": "KY", "addr:postcode": "40222", "phone": "(502) 327-7707", "website": "https://www.pfchangs.com/locations/us/ky/louisville/9120-shelbyville-rd/9975-louisville.html", "brand": "PF Changs"}, "geometry": {"type": "Point", "coordinates": [-85.58058477473315, 38.24615623954567]}},
{"type": "Feature", "id": "nw__IP5y9b6T5UbxwbtDg11fgcE=", "properties": {"ref": "https://www.pfchangs.com/locations/us/ky/lexington/3405-nicholasville-rd/9820-lexington.html", "@spider": "pf_changs", "addr:full": "3405 Nicholasville Rd.", "addr:city": "Lexington", "addr:state": "KY", "addr:postcode": "40503", "phone": "(859) 271-1165", "website": "https://www.pfchangs.com/locations/us/ky/lexington/3405-nicholasville-rd/9820-lexington.html", "brand": "PF Changs"}, "geometry": {"type": "Point", "coordinates": [-84.52706515789032, 37.98905389444358]}},
{"type": "Feature", "id": "_Yl0kiiS_E1MlW-9TYuUzCES32I=", "properties": {"ref": "https://www.pfchangs.com/locations/us/in/fort-wayne/4201-coldwater-rd-ste-d-1/9895-glenbrook-square.html", "@spider": "pf_changs", "addr:full": "4201 Coldwater Rd. Ste# D-1", "addr:city": "Fort Wayne", "addr:state": "IN", "addr:postcode": "46805", "phone": "(260) 209-7222", "website": "https://www.pfchangs.com/locations/us/in/fort-wayne/4201-coldwater-rd-ste-d-1/9895-glenbrook-square.html", "brand": "PF Changs"}, "geometry": {"type": "Point", "coordinates": [-85.1387187, 41.1168283]}},
{"type": "Feature", "id": "j1m2aomQNFh4BGgQ4nOr4etFOQo=", "properties": {"ref": "https://www.pfchangs.com/locations/us/in/indianapolis/49-w-maryland-st/8400-indianapolis.html", "@spider": "pf_changs", "addr:full": "49 W Maryland St.", "addr:city": "Indianapolis", "addr:state": "IN", "addr:postcode": "46204", "phone": "(317) 974-5747", "website": "https://www.pfchangs.com/locations/us/in/indianapolis/49-w-maryland-st/8400-indianapolis.html", "brand": "PF Changs"}, "geometry": {"type": "Point", "coordinates": [-86.1595627, 39.7666047]}},
{"type": "Feature", "id": "my9IqHHJR1X_y0GDDxBWB_N0Tz8=", "properties": {"ref": "https://www.pfchangs.com/locations/us/in/indianapolis/8601-keystone-crossing/9500-keystone.html", "@spider": "pf_changs", "addr:full": "8601 Keystone Crossing", "addr:city": "Indianapolis", "addr:state": "IN", "addr:postcode": "46240", "phone": "(317) 815-8773", "website": "https://www.pfchangs.com/locations/us/in/indianapolis/8601-keystone-crossing/9500-keystone.html", "brand": "PF Changs"}, "geometry": {"type": "Point", "coordinates": [-86.10854387283325, 39.912194789262514]}}]}