{"type":"FeatureCollection","features":[{"type": "Feature", "id": "pmOlqQHQ9Pdw1h1A8CLi7IoE7RE=", "properties": {"ref": "4020 Woodland Ave(218) 724-4745", "@spider": "pigglywiggly", "addr:full": "4020 Woodland Ave", "addr:city": "Duluth", "addr:state": "MN", "addr:postcode": "55803", "phone": "(218) 724-4745", "brand": "Piggly Wiggly"}, "geometry": {"type": "Point", "coordinates": [-92.081632, 46.850427]}},
{"type": "Feature", "id": "QsbTBKZZwotFNfvh94Tl2mmWQ00=", "properties": {"ref": "785 California Ave. S.W.870-837-1466", "@spider": "pigglywiggly", "addr:full": "785 California Ave. S.W.", "addr:city": "Camden", "addr:state": "AR", "addr:postcode": "71701", "phone": "870-837-1466", "brand": "Piggly Wiggly"}, "geometry": {"type": "Point", "coordinates": [-92.81368, 33.578096]}},
{"type": "Feature", "id": "p9fe1XBiLfxdn0gg6slLtphbE0A=", "properties": {"ref": "102 E Main St(870) 946-4591", "@spider": "pigglywiggly", "addr:full": "102 E Main St", "addr:city": "Dewitt", "addr:state": "AR", "addr:postcode": "72042", "phone": "(870) 946-4591", "brand": "Piggly Wiggly"}, "geometry": {"type": "Point", "coordinates": [-91.335064, 34.294793]}},
{"type": "Feature", "id": "sw8vVbBJlwLkGTogJObQY1Y3NFw=", "properties": {"ref": "358 Highway 65 South(870) 382-6339", "@spider": "pigglywiggly", "addr:full": "358 Highway 65 South", "addr:city": "Dumas", "addr:state": "AR", "addr:postcode": "71639", "phone": "(870) 382-6339", "brand": "Piggly Wiggly"}, "geometry": {"type": "Point", "coordinates": [-91.485652, 33.893615]}},
{"type": "Feature", "id": "DXn48JpmtOVKRwOV7HL3b5UGWno=", "properties": {"ref": "1704 East 3rd Street870-777-8831", "@spider": "pigglywiggly", "addr:full": "1704 East 3rd Street", "addr:city": "Hope", "addr:state": "AR", "addr:postcode": "71801", "phone": "870-777-8831", "brand": "Piggly Wiggly"}, "geometry": {"type": "Point", "coordinates": [-93.59486, 33.657969]}},
{"type": "Feature", "id": "5o7kxmSDzWEzU4GFVIrZQheq3Po=", "properties": {"ref": "1307 N Lincoln Ave(870) 628-4443", "@spider": "pigglywiggly", "addr:full": "1307 N Lincoln Ave", "addr:city": "Star City", "addr:state": "AR", "addr:postcode": "71667", "phone": "(870) 628-4443", "brand": "Piggly Wiggly"}, "geometry": {"type": "Point", "coordinates": [-91.841519, 33.956532]}},
{"type": "Feature", "id": "i4EugGnAViLBbeALlOz2I_KCaOo=", "properties": {"ref": "402 N Main St(270) 586-3401", "@spider": "pigglywiggly", "addr:full": "402 N Main St", "addr:city": "Franklin", "addr:state": "KY", "addr:postcode": "42134", "phone": "(270) 586-3401", "brand": "Piggly Wiggly"}, "geometry": {"type": "Point", "coordinates": [-86.577794, 36.727113]}},
{"type": "Feature", "id": "ssmsW7QXjBskitDXQSaZMvTsiyo=", "properties": {"ref": "407 Bethel Shopping Center(270) 726-7455", "@spider": "pigglywiggly", "addr:full": "407 Bethel Shopping Center", "addr:city": "Russellville", "addr:state": "KY", "addr:postcode": "42276", "phone": "(270) 726-7455", "brand": "Piggly Wiggly"}, "geometry": {"type": "Point", "coordinates": [-86.893044, 36.843465]}},
{"type": "Feature", "id": "GhRSP7iq42erQGNheoOBzd00rcw=", "properties": {"ref": "130 Avenue E(850) 653-8768", "@spider": "pigglywiggly", "addr:full": "130 Avenue E", "addr:city": "Apalachicola", "addr:state": "FL", "addr:postcode": "32320", "phone": "(850) 653-8768", "brand": "Piggly Wiggly"}, "geometry": {"type": "Point", "coordinates": [-84.98495, 29.721819]}},
{"type": "Feature", "id": "yPtRP-eXfEhc35Mo5B3f3dXro0E=", "properties": {"ref": "20118 Central Ave. W. Ste 1(850) 674-4427", "@spider": "pigglywiggly", "addr:full": "20118 Central Ave. W. Ste 1", "addr:city": "Blountstown", "addr:state": "FL", "addr:postcode": "32424", "phone": "(850) 674-4427", "brand": "Piggly Wiggly"}, "geometry": {"type": "Point", "coordinates": [-85.054872, 30.442739]}},
{"type": "Feature", "id": "aC0hVBOjhIIRg0WHJtrm6uNq2K4=", "properties": {"ref": "911 N. Waukesha St(850) 547-3826", "@spider": "pigglywiggly", "addr:full": "911 N. Waukesha St", "addr:city": "Bonifay", "addr:state": "FL", "addr:postcode": "32425", "phone": "(850) 547-3826", "brand": "Piggly Wiggly"}, "geometry": {"type": "Point", "coordinates": [-85.679434, 30.800511]}},
{"type": "Feature", "id": "TUHYWR139ysXadDNIHRVKrMId8o=", "properties": {"ref": "11325 NW State, Road 20(850) 643-4700", "@spider": "pigglywiggly", "addr:full": "11325 NW State, Road 20", "addr:city": "Bristol", "addr:state": "FL", "addr:postcode": "70582", "phone": "(850) 643-4700", "brand": "Piggly Wiggly"}, "geometry": {"type": "Point", "coordinates": [-84.971373, 30.43079]}},
{"type": "Feature", "id": "yGbFtsyyNOeA6DnL19Z_rM2md6s=", "properties": {"ref": "1264 Church Avenue(850) 638-1751", "@spider": "pigglywiggly", "addr:full": "1264 Church Avenue", "addr:city": "Chipley", "addr:state": "FL", "addr:postcode": "32428", "phone": "(850) 638-1751", "brand": "Piggly Wiggly"}, "geometry": {"type": "Point", "coordinates": [-85.53844, 30.78209]}},
{"type": "Feature", "id": "OEsovJ8iU2NOuKid6E0g0_V6wWo=", "properties": {"ref": "1814 Highway 90 West1-850-892-3022", "@spider": "pigglywiggly", "addr:full": "1814 Highway 90 West", "addr:city": "DeFuniak Springs", "addr:state": "FL", "addr:postcode": "32435", "phone": "1-850-892-3022", "brand": "Piggly Wiggly"}, "geometry": {"type": "Point", "coordinates": [-86.038145, 30.721806]}},
{"type": "Feature", "id": "2QO256saC7BHj-Qqy2eBUxUXdZ4=", "properties": {"ref": "18917 Highway 231850-722-0019", "@spider": "pigglywiggly", "addr:full": "18917 Highway 231", "addr:city": "Fountain", "addr:state": "FL", "addr:postcode": "32438", "phone": "850-722-0019", "brand": "Piggly Wiggly"}, "geometry": {"type": "Point", "coordinates": [-85.416671, 30.492577]}},
{"type": "Feature", "id": "P1QDRyTSjRLPsJHMXrB6y8NTSuU=", "properties": {"ref": "5355 Cotton Street(850) 263-6360", "@spider": "pigglywiggly", "addr:full": "5355 Cotton Street", "addr:city": "Graceville", "addr:state": "FL", "addr:postcode": "32440", "phone": "(850) 263-6360", "brand": "Piggly Wiggly"}, "geometry": {"type": "Point", "coordinates": [-85.517186, 30.957749]}},
{"type": "Feature", "id": "pI-nLy25Yja-da7wRsAgtKL-VJQ=", "properties": {"ref": "251 Mary Esther Blvd850-301-9100", "@spider": "pigglywiggly", "addr:full": "251 Mary Esther Blvd", "addr:city": "Mary Esther", "addr:state": "FL", "addr:postcode": "32569", "phone": "850-301-9100", "brand": "Piggly Wiggly"}, "geometry": {"type": "Point", "coordinates": [-86.65357, 30.415497]}},
{"type": "Feature", "id": "e8rUr1t-Ww-zuSZ6juZNnvVTitw=", "properties": {"ref": "9447 Highway 87 South850 712-2310", "@spider": "pigglywiggly", "addr:full": "9447 Highway 87 South", "addr:city": "Milton", "addr:state": "FL", "addr:postcode": "32583", "phone": "850 712-2310", "brand": "Piggly Wiggly"}, "geometry": {"type": "Point", "coordinates": [-86.970368, 30.63114]}},
{"type": "Feature", "id": "ZufJ0M7T9jiseQxvimvNKSEMCBs=", "properties": {"ref": "575 South Jefferson Street(850) 997-4505", "@spider": "pigglywiggly", "addr:full": "575 South Jefferson Street", "addr:city": "Monticello", "addr:state": "FL", "addr:postcode": "32344", "phone": "(850) 997-4505", "brand": "Piggly Wiggly"}, "geometry": {"type": "Point", "coordinates": [-83.929267, 30.524329]}},
{"type": "Feature", "id": "2R3KbHaI1Xh6V8bH0qoMfjn5Tac=", "properties": {"ref": "8012 Highway 2301(850) 913-9665", "@spider": "pigglywiggly", "addr:full": "8012 Highway 2301", "addr:city": "Panama City", "addr:state": "FL", "addr:postcode": "32404", "phone": "(850) 913-9665", "brand": "Piggly Wiggly"}, "geometry": {"type": "Point", "coordinates": [-85.541628, 30.294438]}},
{"type": "Feature", "id": "IXqklVsJBgMaw9ZhHmXZu7nAXwg=", "properties": {"ref": "1380 15th Street1-850-818-0601", "@spider": "pigglywiggly", "addr:full": "1380 15th Street", "addr:city": "Panama City", "addr:state": "FL", "addr:postcode": "32401", "phone": "1-850-818-0601", "brand": "Piggly Wiggly"}, "geometry": {"type": "Point", "coordinates": [-85.65297, 30.161901]}},
{"type": "Feature", "id": "zGKuFRMDaQHxClvKSTWAF5Q1Htg=", "properties": {"ref": "125 W Hwy 98(850) 229-8398", "@spider": "pigglywiggly", "addr:full": "125 W Hwy 98", "addr:city": "Port St. Joe", "addr:state": "FL", "addr:postcode": "32456", "phone": "(850) 229-8398", "brand": "Piggly Wiggly"}, "geometry": {"type": "Point", "coordinates": [-85.306662, 29.816403]}},
{"type": "Feature", "id": "9pnMwnfmkuKJz7_epIUyvFo4oPw=", "properties": {"ref": "18680 Bluestar HWY(850) 627-2222", "@spider": "pigglywiggly", "addr:full": "18680 Bluestar HWY", "addr:city": "Quincy", "addr:state": "FL", "addr:postcode": "32351", "phone": "(850) 627-2222", "brand": "Piggly Wiggly"}, "geometry": {"type": "Point", "coordinates": [-84.613687, 30.583977]}},
{"type": "Feature", "id": "7rX55aJ9XscUAcmHe56fZayZDEk=", "properties": {"ref": "8166 Highway 90(850) 593-6836", "@spider": "pigglywiggly", "addr:full": "8166 Highway 90", "addr:city": "Sneads", "addr:state": "FL", "addr:postcode": "32460", "phone": "(850) 593-6836", "brand": "Piggly Wiggly"}, "geometry": {"type": "Point", "coordinates": [-84.924366, 30.707692]}},
{"type": "Feature", "id": "SOEGbd3uOHkmYeY450prfiBFSQk=", "properties": {"ref": "244 Franklin Boulevard(850) 927-2808", "@spider": "pigglywiggly", "addr:full": "244 Franklin Boulevard", "addr:city": "St George Island", "addr:state": "FL", "addr:postcode": "32328", "phone": "(850) 927-2808", "brand": "Piggly Wiggly"}, "geometry": {"type": "Point", "coordinates": [-84.877639, 29.759481]}},
{"type": "Feature", "id": "eZILNXmm47PEZfWUPqFR_UOJ5kU=", "properties": {"ref": "2526 South Monroe Ave850-536-6133", "@spider": "pigglywiggly", "addr:full": "2526 South Monroe Ave", "addr:city": "Tallahassee", "addr:state": "FL", "addr:postcode": "32301", "phone": "850-536-6133", "brand": "Piggly Wiggly"}, "geometry": {"type": "Point", "coordinates": [-84.281458, 30.415922]}},
{"type": "Feature", "id": "zSmcrzHsuTZzsBHvgo-iKQGp3PI=", "properties": {"ref": "11204 N Florida Hwy 97(850) 327-4001", "@spider": "pigglywiggly", "addr:full": "11204 N Florida Hwy 97", "addr:city": "Walnut Hill", "addr:state": "FL", "addr:postcode": "32568", "phone": "(850) 327-4001", "brand": "Piggly Wiggly"}, "geometry": {"type": "Point", "coordinates": [-87.487836, 30.995015]}},
{"type": "Feature", "id": "9TaTAFMx7P0v9c9vkotuFQnQLwc=", "properties": {"ref": "202 S Maple(662) 369-8272", "@spider": "pigglywiggly", "addr:full": "202 S Maple", "addr:city": "Aberdeen", "addr:state": "MS", "addr:postcode": "39730", "phone": "(662) 369-8272", "brand": "Piggly Wiggly"}, "geometry": {"type": "Point", "coordinates": [-88.541441, 33.826625]}},
{"type": "Feature", "id": "5EyKlvkGNzdWXM4d94T6ljXQymo=", "properties": {"ref": "105 Hwy 6(662) 628-5133", "@spider": "pigglywiggly", "addr:full": "105 Hwy 6", "addr:city": "Amory", "addr:state": "MS", "addr:postcode": "38821", "phone": "(662) 628-5133", "brand": "Piggly Wiggly"}, "geometry": {"type": "Point", "coordinates": [-88.531427, 34.026654]}},
{"type": "Feature", "id": "YAHrMtoOdDqoJ8RWdAg9TLtMa8w=", "properties": {"ref": "122 Hwy 51 N(662) 563-3121", "@spider": "pigglywiggly", "addr:full": "122 Hwy 51 N", "addr:city": "Batesville", "addr:state": "MS", "addr:postcode": "38606", "phone": "(662) 563-3121", "brand": "Piggly Wiggly"}, "geometry": {"type": "Point", "coordinates": [-89.944473, 34.310925]}},
{"type": "Feature", "id": "G9-qat5zBEXIjOxg7SRENStmgYI=", "properties": {"ref": "Hwy 15 South(601) 764-2164", "@spider": "pigglywiggly", "addr:full": "Hwy 15 South", "addr:city": "Bay Springs", "addr:state": "MS", "addr:postcode": "39422", "phone": "(601) 764-2164", "brand": "Piggly Wiggly"}, "geometry": {"type": "Point", "coordinates": [-89.29072, 31.95375]}},
{"type": "Feature", "id": "OKF7cbqLktqOPLGtKn2hU2fEtJM=", "properties": {"ref": "326 South Second Street(662) 454-7163", "@spider": "pigglywiggly", "addr:full": "326 South Second Street", "addr:city": "Belmont", "addr:state": "MS", "addr:postcode": "38827", "phone": "(662) 454-7163", "brand": "Piggly Wiggly"}, "geometry": {"type": "Point", "coordinates": [-88.20702, 34.505248]}},
{"type": "Feature", "id": "mNGckVNjH73EGLDpKVbXJhQ4VeQ=", "properties": {"ref": "103 S Second St(662) 728-7138", "@spider": "pigglywiggly", "addr:full": "103 S Second St", "addr:city": "Booneville", "addr:state": "MS", "addr:postcode": "38829", "phone": "(662) 728-7138", "brand": "Piggly Wiggly"}, "geometry": {"type": "Point", "coordinates": [-88.566848, 34.656279]}},
{"type": "Feature", "id": "rE6vkiEtds5nE0kKHg1t_I1LQN8=", "properties": {"ref": "223 W Calhoun St(662) 983-2527", "@spider": "pigglywiggly", "addr:full": "223 W Calhoun St", "addr:city": "Bruce", "addr:state": "MS", "addr:postcode": "38915", "phone": "(662) 983-2527", "brand": "Piggly Wiggly"}, "geometry": {"type": "Point", "coordinates": [-89.355156, 33.989713]}},
{"type": "Feature", "id": "AZ_Ml1CgCZ9G3vkS6N4IlzoeiiY=", "properties": {"ref": "595 East Veterans Avenue662-628-5133", "@spider": "pigglywiggly", "addr:full": "595 East Veterans Avenue", "addr:city": "Calhoun City", "addr:state": "MS", "addr:postcode": "38916", "phone": "662-628-5133", "brand": "Piggly Wiggly"}, "geometry": {"type": "Point", "coordinates": [-89.311461, 33.855392]}},
{"type": "Feature", "id": "QF498i-eRXLZxtRmYuhaWhb17u0=", "properties": {"ref": "110 E Academy Street601-509-4527", "@spider": "pigglywiggly", "addr:full": "110 E Academy Street", "addr:city": "Canton", "addr:state": "MS", "addr:postcode": "39046", "phone": "601-509-4527", "brand": "Piggly Wiggly"}, "geometry": {"type": "Point", "coordinates": [-90.01041, 32.618475]}},
{"type": "Feature", "id": "T7iXQLMwe6-0ctytd26kSm0I-kM=", "properties": {"ref": "301 VanBuren St.(601) 267-6311", "@spider": "pigglywiggly", "addr:full": "301 VanBuren St.", "addr:city": "Carthage", "addr:state": "MS", "addr:postcode": "39051", "phone": "(601) 267-6311", "brand": "Piggly Wiggly"}, "geometry": {"type": "Point", "coordinates": [-89.533816, 32.734738]}},
{"type": "Feature", "id": "NM7-hpjHOWL3iBGgkEbXezM1ZqA=", "properties": {"ref": "17284 Okahoma St.(662) 675-2626", "@spider": "pigglywiggly", "addr:full": "17284 Okahoma St.", "addr:city": "Coffeeville", "addr:state": "MS", "addr:postcode": "38922", "phone": "(662) 675-2626", "brand": "Piggly Wiggly"}, "geometry": {"type": "Point", "coordinates": [-89.673972, 33.980821]}},
{"type": "Feature", "id": "IHH7_mrSzbGQpnGiZ1y1aCSYDoM=", "properties": {"ref": "9095 Collinsville Rd(601) 626-8880", "@spider": "pigglywiggly", "addr:full": "9095 Collinsville Rd", "addr:city": "Collinsville", "addr:state": "MS", "addr:postcode": "39325", "phone": "(601) 626-8880", "brand": "Piggly Wiggly"}, "geometry": {"type": "Point", "coordinates": [-88.84691, 32.496227]}},
{"type": "Feature", "id": "PosTaL66TB6gKpNJN3PngqievNM=", "properties": {"ref": "3610 New Hope Rd(662) 327-9447", "@spider": "pigglywiggly", "addr:full": "3610 New Hope Rd", "addr:city": "Columbus", "addr:state": "MS", "addr:postcode": "39702", "phone": "(662) 327-9447", "brand": "Piggly Wiggly"}, "geometry": {"type": "Point", "coordinates": [-88.326588, 33.449002]}},
{"type": "Feature", "id": "KNhb_-10QsrPcXzgo4KEtvQyQxo=", "properties": {"ref": "7831 Hwy 613(228) 475-8660", "@spider": "pigglywiggly", "addr:full": "7831 Hwy 613", "addr:city": "Escatawpa", "addr:state": "MS", "addr:postcode": "39552", "phone": "(228) 475-8660", "brand": "Piggly Wiggly"}, "geometry": {"type": "Point", "coordinates": [-88.541191, 30.455458]}},
{"type": "Feature", "id": "laqp79u44KiKn7W9iIg-763w0Dw=", "properties": {"ref": "301 E Roane Ave(662) 369-8272", "@spider": "pigglywiggly", "addr:full": "301 E Roane Ave", "addr:city": "Eupora", "addr:state": "MS", "addr:postcode": "39744", "phone": "(662) 369-8272", "brand": "Piggly Wiggly"}, "geometry": {"type": "Point", "coordinates": [-89.262295, 33.540653]}},
{"type": "Feature", "id": "jQK7vq3Gc7T95KSIoeLis6bV_Fw=", "properties": {"ref": "169 North 1st Street601-255-3299", "@spider": "pigglywiggly", "addr:full": "169 North 1st Street", "addr:city": "Gloster", "addr:state": "MS", "addr:postcode": "39638", "phone": "601-255-3299", "brand": "Piggly Wiggly"}, "geometry": {"type": "Point", "coordinates": [-90.9959, 31.206278]}},
{"type": "Feature", "id": "ZOTQjBowt-PdTBcokhd5Ul9H8XU=", "properties": {"ref": "627 Battleground Dr(662) 423-3651", "@spider": "pigglywiggly", "addr:full": "627 Battleground Dr", "addr:city": "Iuka", "addr:state": "MS", "addr:postcode": "38852", "phone": "(662) 423-3651", "brand": "Piggly Wiggly"}, "geometry": {"type": "Point", "coordinates": [-88.199916, 34.808727]}},
{"type": "Feature", "id": "2TLhiIU3ZIHDDXFoN_sPtwMc1-0=", "properties": {"ref": "225 Meadowbrook Road601-969-0421", "@spider": "pigglywiggly", "addr:full": "225 Meadowbrook Road", "addr:city": "Jackson", "addr:state": "MS", "addr:postcode": "39206", "phone": "601-969-0421", "brand": "Piggly Wiggly"}, "geometry": {"type": "Point", "coordinates": [-90.17182, 32.365794]}},
{"type": "Feature", "id": "N8eUQ4eOpMre9uPhKhnWAINUGyw=", "properties": {"ref": "321 North 16th Avenue(601) 425-3111", "@spider": "pigglywiggly", "addr:full": "321 North 16th Avenue", "addr:city": "Laurel", "addr:state": "MS", "addr:postcode": "39440", "phone": "(601) 425-3111", "brand": "Piggly Wiggly"}, "geometry": {"type": "Point", "coordinates": [-89.146655, 31.692302]}},
{"type": "Feature", "id": "vCPbRNpBMHgYdN8B-rZmJjOtytQ=", "properties": {"ref": "816 Main Street(601) 394-2357", "@spider": "pigglywiggly", "addr:full": "816 Main Street", "addr:city": "Leakesville", "addr:state": "MS", "addr:postcode": "39451", "phone": "(601) 394-2357", "brand": "Piggly Wiggly"}, "geometry": {"type": "Point", "coordinates": [-88.557737, 31.157183]}},
{"type": "Feature", "id": "r8vlLLDllJ3GyybZM7EmpMuNwlE=", "properties": {"ref": "30278 Hwy 21(985) 986-2913", "@spider": "pigglywiggly", "addr:full": "30278 Hwy 21", "addr:city": "Angie", "addr:state": "LA", "addr:postcode": "70426", "phone": "(985) 986-2913", "brand": "Piggly Wiggly"}, "geometry": {"type": "Point", "coordinates": [-89.86251, 30.932125]}},
{"type": "Feature", "id": "zSOjj0ataBo-MdcGinEHOyCqMxA=", "properties": {"ref": "81801 LA-21985-777-1083", "@spider": "pigglywiggly", "addr:full": "81801 LA-21", "addr:city": "Bush", "addr:state": "LA", "addr:postcode": "70431", "phone": "985-777-1083", "brand": "Piggly Wiggly"}, "geometry": {"type": "Point", "coordinates": [-89.93089, 30.613004]}},
{"type": "Feature", "id": "02m8s6gIm33NvWwApafwCY5qfDQ=", "properties": {"ref": "288 Industrial Drive601-565-3917", "@spider": "pigglywiggly", "addr:full": "288 Industrial Drive", "addr:city": "Liberty", "addr:state": "MS", "addr:postcode": "39645", "phone": "601-565-3917", "brand": "Piggly Wiggly"}, "geometry": {"type": "Point", "coordinates": [-90.79859, 31.148177]}},
{"type": "Feature", "id": "hD94U1D7R2viv_c-h79zeE7WxVo=", "properties": {"ref": "772 East Main Avenue601-796-3009", "@spider": "pigglywiggly", "addr:full": "772 East Main Avenue", "addr:city": "Lumberton", "addr:state": "MS", "addr:postcode": "39455", "phone": "601-796-3009", "brand": "Piggly Wiggly"}, "geometry": {"type": "Point", "coordinates": [-89.49561, 31.035015]}},
{"type": "Feature", "id": "GbuYcf7vAkDniDXp6puMJRZZ24Q=", "properties": {"ref": "339 Simpson Hwy 149(601) 849-2131", "@spider": "pigglywiggly", "addr:full": "339 Simpson Hwy 149", "addr:city": "Magee", "addr:state": "MS", "addr:postcode": "39111", "phone": "(601) 849-2131", "brand": "Piggly Wiggly"}, "geometry": {"type": "Point", "coordinates": [-89.727123, 31.869149]}},
{"type": "Feature", "id": "IA2XzjiN_mCvzDFse4VOQf7ae4U=", "properties": {"ref": "7195 Will Robbins Rd(662) 651-4848", "@spider": "pigglywiggly", "addr:full": "7195 Will Robbins Rd", "addr:city": "Nettleton", "addr:state": "MS", "addr:postcode": "38858", "phone": "(662) 651-4848", "brand": "Piggly Wiggly"}, "geometry": {"type": "Point", "coordinates": [-88.623964, 34.086596]}},
{"type": "Feature", "id": "R27uBCKInaHAT0Zs3pEOBU5-dIE=", "properties": {"ref": "6459 Cockrum Street(662) 890-9033", "@spider": "pigglywiggly", "addr:full": "6459 Cockrum Street", "addr:city": "Olive Branch", "addr:state": "MS", "addr:postcode": "38654", "phone": "(662) 890-9033", "brand": "Piggly Wiggly"}, "geometry": {"type": "Point", "coordinates": [-89.829532, 34.96176]}},
{"type": "Feature", "id": "nRBzKQf8RymktwcFiKcIzuhkUvM=", "properties": {"ref": "100 Choctaw Town Center(601) 389-1938", "@spider": "pigglywiggly", "addr:full": "100 Choctaw Town Center", "addr:city": "Philadelphia", "addr:state": "MS", "addr:postcode": "39350", "phone": "(601) 389-1938", "brand": "Piggly Wiggly"}, "geometry": {"type": "Point", "coordinates": [-89.101904, 32.779288]}},
{"type": "Feature", "id": "gpxuq-d61b5JW6t66V9BAHeVtlc=", "properties": {"ref": "237 West Oxford(662) 489-4282", "@spider": "pigglywiggly", "addr:full": "237 West Oxford", "addr:city": "Pontotoc", "addr:state": "MS", "addr:postcode": "38863", "phone": "(662) 489-4282", "brand": "Piggly Wiggly"}, "geometry": {"type": "Point", "coordinates": [-89.009868, 34.254229]}},
{"type": "Feature", "id": "4RyDxqnpLM-SGZiAISPxYVH04-Y=", "properties": {"ref": "600 Hwy 8 E(662) 759-6545", "@spider": "pigglywiggly", "addr:full": "600 Hwy 8 E", "addr:city": "Rosedale", "addr:state": "MS", "addr:postcode": "38769", "phone": "(662) 759-6545", "brand": "Piggly Wiggly"}, "geometry": {"type": "Point", "coordinates": [-90.983164, 33.836982]}},
{"type": "Feature", "id": "aoAhFCcClfbgWHw2AjppmVZIp6U=", "properties": {"ref": "2300 Cecilia Senior High School Hwy(337) 667-6147", "@spider": "pigglywiggly", "addr:full": "2300 Cecilia Senior High School Hwy", "addr:city": "Cecilia", "addr:state": "LA", "addr:postcode": "70521", "phone": "(337) 667-6147", "brand": "Piggly Wiggly"}, "geometry": {"type": "Point", "coordinates": [-91.854014, 30.338664]}},
{"type": "Feature", "id": "WUUITWbAHRaBfZoysryBWVdM27w=", "properties": {"ref": "5308 Highway 56(985) 594-3076", "@spider": "pigglywiggly", "addr:full": "5308 Highway 56", "addr:city": "Chauvin", "addr:state": "LA", "addr:postcode": "70344", "phone": "(985) 594-3076", "brand": "Piggly Wiggly"}, "geometry": {"type": "Point", "coordinates": [-90.591591, 29.453328]}},
{"type": "Feature", "id": "SD-m2f-jY1oygOT5ZPZFATa1vyU=", "properties": {"ref": "142 E Plaquemine(337) 684-3315", "@spider": "pigglywiggly", "addr:full": "142 E Plaquemine", "addr:city": "Church Point", "addr:state": "LA", "addr:postcode": "70525", "phone": "(337) 684-3315", "brand": "Piggly Wiggly"}, "geometry": {"type": "Point", "coordinates": [-92.218493, 30.408465]}},
{"type": "Feature", "id": "HyQcSoJpv87uhi0Ilfv49rk-MsE=", "properties": {"ref": "18150 HWY 190 East(985) 345-7729", "@spider": "pigglywiggly", "addr:full": "18150 HWY 190 East", "addr:city": "Hammond", "addr:state": "LA", "addr:postcode": "70401", "phone": "(985) 345-7729", "brand": "Piggly Wiggly"}, "geometry": {"type": "Point", "coordinates": [-90.372899, 30.50901]}},
{"type": "Feature", "id": "kvWxQFdmOZOhfgQ4vmhEz3zRLi8=", "properties": {"ref": "1728 Main St(318) 624-0883", "@spider": "pigglywiggly", "addr:full": "1728 Main St", "addr:city": "Haynesville", "addr:state": "LA", "addr:postcode": "71038", "phone": "(318) 624-0883", "brand": "Piggly Wiggly"}, "geometry": {"type": "Point", "coordinates": [-93.135537, 32.962584]}},
{"type": "Feature", "id": "im_KlvGB3YXT5CJ13S2C1tH3yPU=", "properties": {"ref": "402 N Second St(318) 927-2353", "@spider": "pigglywiggly", "addr:full": "402 N Second St", "addr:city": "Homer", "addr:state": "LA", "addr:postcode": "71040", "phone": "(318) 927-2353", "brand": "Piggly Wiggly"}, "geometry": {"type": "Point", "coordinates": [-93.052848, 32.790513]}},
{"type": "Feature", "id": "i376avqamXn85BunMNpeYBWerrM=", "properties": {"ref": "345 W Railroad Avenue(985) 878-4306", "@spider": "pigglywiggly", "addr:full": "345 W Railroad Avenue", "addr:city": "Independence", "addr:state": "LA", "addr:postcode": "70443", "phone": "(985) 878-4306", "brand": "Piggly Wiggly"}, "geometry": {"type": "Point", "coordinates": [-90.50056, 30.634115]}},
{"type": "Feature", "id": "asXg6huxAX8c7t1DB71QZd6qN0M=", "properties": {"ref": "2695 Jean Lafitte Blvd(504) 689-4122", "@spider": "pigglywiggly", "addr:full": "2695 Jean Lafitte Blvd", "addr:city": "Lafitte", "addr:state": "LA", "addr:postcode": "70067", "phone": "(504) 689-4122", "brand": "Piggly Wiggly"}, "geometry": {"type": "Point", "coordinates": [-90.111891, 29.715648]}},
{"type": "Feature", "id": "N9PeUXEksmxKj_dfI5qfzzfks4w=", "properties": {"ref": "16851 Hwy 21 South(601) 625-8631", "@spider": "pigglywiggly", "addr:full": "16851 Hwy 21 South", "addr:city": "Sebastopol", "addr:state": "MS", "addr:postcode": "39359", "phone": "(601) 625-8631", "brand": "Piggly Wiggly"}, "geometry": {"type": "Point", "coordinates": [-89.34297, 32.566681]}},
{"type": "Feature", "id": "tz-I4FmhaA5YcH_49r0LquawB7k=", "properties": {"ref": "102 East Main Street601-722-9215", "@spider": "pigglywiggly", "addr:full": "102 East Main Street", "addr:city": "Seminary", "addr:state": "MS", "addr:postcode": "39479", "phone": "601-722-9215", "brand": "Piggly Wiggly"}, "geometry": {"type": "Point", "coordinates": [-89.4648, 31.543388]}},
{"type": "Feature", "id": "oFbbRWyY4gg_3d7cW0npy2LZ3i4=", "properties": {"ref": "323 Erwin Road(601) 659-4551", "@spider": "pigglywiggly", "addr:full": "323 Erwin Road", "addr:city": "Stonewall", "addr:state": "MS", "addr:postcode": "39363", "phone": "(601) 659-4551", "brand": "Piggly Wiggly"}, "geometry": {"type": "Point", "coordinates": [-88.795249, 32.138077]}},
{"type": "Feature", "id": "tjuz7FguPsP-H-ARVMU5DaENGv4=", "properties": {"ref": "605 Laurel Ave(601) 276-9571", "@spider": "pigglywiggly", "addr:full": "605 Laurel Ave", "addr:city": "Summit", "addr:state": "MS", "addr:postcode": "39666", "phone": "(601) 276-9571", "brand": "Piggly Wiggly"}, "geometry": {"type": "Point", "coordinates": [-90.468267, 31.282505]}},
{"type": "Feature", "id": "G5QJWp3oiImJ3hkqjQYKq1sj3tU=", "properties": {"ref": "221 Welcome Street(601) 785-4640", "@spider": "pigglywiggly", "addr:full": "221 Welcome Street", "addr:city": "Taylorsville", "addr:state": "MS", "addr:postcode": "39168", "phone": "(601) 785-4640", "brand": "Piggly Wiggly"}, "geometry": {"type": "Point", "coordinates": [-89.431314, 31.835231]}},
{"type": "Feature", "id": "E0U5w81KYVCip6NXDM5hiRyc6Ek=", "properties": {"ref": "P O Box 336(662) 363-3170", "@spider": "pigglywiggly", "addr:full": "P O Box 336", "addr:city": "Tunica", "addr:state": "MS", "addr:postcode": "38676", "phone": "(662) 363-3170", "brand": "Piggly Wiggly"}, "geometry": {"type": "Point", "coordinates": [-90.382877, 34.684546]}},
{"type": "Feature", "id": "pjr2gWxCFRk68x445lsjAZlaP-g=", "properties": {"ref": "5044 Plaza Drive(601) 876-2624", "@spider": "pigglywiggly", "addr:full": "5044 Plaza Drive", "addr:city": "Tylertown", "addr:state": "MS", "addr:postcode": "39667", "phone": "(601) 876-2624", "brand": "Piggly Wiggly"}, "geometry": {"type": "Point", "coordinates": [-90.142033, 31.116012]}},
{"type": "Feature", "id": "wrouoj__DFnXNZL0CGbDAud_IN4=", "properties": {"ref": "206 Jackson Rd(601) 774-5591", "@spider": "pigglywiggly", "addr:full": "206 Jackson Rd", "addr:city": "Union", "addr:state": "MS", "addr:postcode": "39365", "phone": "(601) 774-5591", "brand": "Piggly Wiggly"}, "geometry": {"type": "Point", "coordinates": [-89.120506, 32.57269]}},
{"type": "Feature", "id": "NVY5n8-J5aRFltPiLoSPZcAls0g=", "properties": {"ref": "530C West Central Avenue(601) 928-4540", "@spider": "pigglywiggly", "addr:full": "530C West Central Avenue", "addr:city": "Wiggins", "addr:state": "MS", "addr:postcode": "39577", "phone": "(601) 928-4540", "brand": "Piggly Wiggly"}, "geometry": {"type": "Point", "coordinates": [-89.142996, 30.851788]}},
{"type": "Feature", "id": "mtS1YjtLz6uEXvhCbFUlBonHrIM=", "properties": {"ref": "207 Covington St(985) 845-7283", "@spider": "pigglywiggly", "addr:full": "207 Covington St", "addr:city": "Madisonville", "addr:state": "LA", "addr:postcode": "70447", "phone": "(985) 845-7283", "brand": "Piggly Wiggly"}, "geometry": {"type": "Point", "coordinates": [-90.160399, 30.410556]}},
{"type": "Feature", "id": "2Gi0_zBXMG58UL_hTMdZBYHWMOw=", "properties": {"ref": "8410 Hwy 182 North(337) 948-9427", "@spider": "pigglywiggly", "addr:full": "8410 Hwy 182 North", "addr:city": "Opelousas", "addr:state": "LA", "addr:postcode": "70570", "phone": "(337) 948-9427", "brand": "Piggly Wiggly"}, "geometry": {"type": "Point", "coordinates": [-92.081509, 30.53353]}},
{"type": "Feature", "id": "kG7F1f_ArDUAIRLbWYLC5cLO38o=", "properties": {"ref": "302 E Mary Lee St(318)326-5828", "@spider": "pigglywiggly", "addr:full": "302 E Mary Lee St", "addr:city": "Plain Dealing", "addr:state": "LA", "addr:postcode": "71064", "phone": "(318)326-5828", "brand": "Piggly Wiggly"}, "geometry": {"type": "Point", "coordinates": [-93.702801, 32.90653]}},
{"type": "Feature", "id": "d6mW8taqn9zy1WG2paplnR1Z_f8=", "properties": {"ref": "702 S Adams Ave(337) 334-4233", "@spider": "pigglywiggly", "addr:full": "702 S Adams Ave", "addr:city": "Rayne", "addr:state": "LA", "addr:postcode": "70578", "phone": "(337) 334-4233", "brand": "Piggly Wiggly"}, "geometry": {"type": "Point", "coordinates": [-92.269092, 30.229725]}},
{"type": "Feature", "id": "yQiKhRuHI-1GoiPaAeKg34ahDlE=", "properties": {"ref": "5525 Cameron St.(337) 232-9877", "@spider": "pigglywiggly", "addr:full": "5525 Cameron St.", "addr:city": "Scott", "addr:state": "LA", "addr:postcode": "70583", "phone": "(337) 232-9877", "brand": "Piggly Wiggly"}, "geometry": {"type": "Point", "coordinates": [-92.088318, 30.232594]}},
{"type": "Feature", "id": "iZC5FZr6_Cx19w9o2sbHa_K5Qvw=", "properties": {"ref": "300 West 84th Street318-686-6030", "@spider": "pigglywiggly", "addr:full": "300 West 84th Street", "addr:city": "Shreveport", "addr:state": "LA", "phone": "318-686-6030", "brand": "Piggly Wiggly"}},
{"type": "Feature", "id": "322-u9PufHMURvol8k4ozKooXqs=", "properties": {"ref": "3723 Lakeshore Drive318-636-9442", "@spider": "pigglywiggly", "addr:full": "3723 Lakeshore Drive", "addr:city": "Shreveport", "addr:state": "LA", "addr:postcode": "71109", "phone": "318-636-9442", "brand": "Piggly Wiggly"}, "geometry": {"type": "Point", "coordinates": [-93.80022, 32.474453]}},
{"type": "Feature", "id": "zksEVfqvXb0DaJ-yHuEl4uCkGMk=", "properties": {"ref": "16229 Hwy 1(318) 941-2469", "@spider": "pigglywiggly", "addr:full": "16229 Hwy 1", "addr:city": "Simmesport", "addr:state": "LA", "addr:postcode": "71369", "phone": "(318) 941-2469", "brand": "Piggly Wiggly"}, "geometry": {"type": "Point", "coordinates": [-91.811602, 30.981948]}},
{"type": "Feature", "id": "lVlG6mhEpW3vdQrvS6SW3_5Bjpw=", "properties": {"ref": "501 S Main St(318) 539-3216", "@spider": "pigglywiggly", "addr:full": "501 S Main St", "addr:city": "Springhill", "addr:state": "LA", "addr:postcode": "71075", "phone": "(318) 539-3216", "brand": "Piggly Wiggly"}, "geometry": {"type": "Point", "coordinates": [-93.461104, 32.997725]}},
{"type": "Feature", "id": "b-uVTX7tWfQsAJqQ7oijeIiNduQ=", "properties": {"ref": "909 Westbank Expressway(504) 347-7333", "@spider": "pigglywiggly", "addr:full": "909 Westbank Expressway", "addr:city": "Westwego", "addr:state": "LA", "addr:postcode": "70094", "phone": "(504) 347-7333", "brand": "Piggly Wiggly"}, "geometry": {"type": "Point", "coordinates": [-90.143351, 29.898506]}},
{"type": "Feature", "id": "_hZpL8iDPOCPWXuk9BKg-ooWV-Y=", "properties": {"ref": "714 W 4th Street(229) 896-5055", "@spider": "pigglywiggly", "addr:full": "714 W 4th Street", "addr:city": "Adel", "addr:state": "GA", "addr:postcode": "31620", "phone": "(229) 896-5055", "brand": "Piggly Wiggly"}, "geometry": {"type": "Point", "coordinates": [-83.433043, 31.134447]}},
{"type": "Feature", "id": "C5zb_AJ5KRV8373l_xesmBGnGtU=", "properties": {"ref": "1032 W Gordon Ave", "@spider": "pigglywiggly", "addr:full": "1032 W Gordon Ave", "addr:city": "Albany", "addr:state": "GA", "addr:postcode": "31701", "brand": "Piggly Wiggly"}, "geometry": {"type": "Point", "coordinates": [-84.16044, 31.580774]}},
{"type": "Feature", "id": "haEyYnQfBjAwyUri7X4Hl33I_mw=", "properties": {"ref": "1032 W Gordon Ave229-302-4222", "@spider": "pigglywiggly", "addr:full": "1032 W Gordon Ave", "addr:city": "Albany", "addr:state": "GA", "addr:postcode": "31701", "phone": "229-302-4222", "brand": "Piggly Wiggly"}, "geometry": {"type": "Point", "coordinates": [-84.16044, 31.580774]}},
{"type": "Feature", "id": "Kyfb_3X_8zpFW_SY3S5s4zc96Fw=", "properties": {"ref": "215 E Monroe St(229) 567-3731", "@spider": "pigglywiggly", "addr:full": "215 E Monroe St", "addr:city": "Ashburn", "addr:state": "GA", "addr:postcode": "31714", "phone": "(229) 567-3731", "brand": "Piggly Wiggly"}, "geometry": {"type": "Point", "coordinates": [-83.651641, 31.705534]}},
{"type": "Feature", "id": "SI9K6HkdM0odCKHECNhap-UMEic=", "properties": {"ref": "484 North Avenue706-548-4171", "@spider": "pigglywiggly", "addr:full": "484 North Avenue", "addr:city": "Athens", "addr:state": "GA", "addr:postcode": "30601", "phone": "706-548-4171", "brand": "Piggly Wiggly"}, "geometry": {"type": "Point", "coordinates": [-83.364425, 33.976794]}},
{"type": "Feature", "id": "jnkBPvKu6ULH9MohhCDVqIZwWW0=", "properties": {"ref": "230 Cleveland Avenue(404) 766-9575", "@spider": "pigglywiggly", "addr:full": "230 Cleveland Avenue", "addr:city": "Atlanta", "addr:state": "GA", "addr:postcode": "30315", "phone": "(404) 766-9575", "brand": "Piggly Wiggly"}, "geometry": {"type": "Point", "coordinates": [-84.396195, 33.680895]}},
{"type": "Feature", "id": "X9zOwGYMFtd8ndHN2696pKpZoT4=", "properties": {"ref": "1257 Moreland Ave(404) 622-4854", "@spider": "pigglywiggly", "addr:full": "1257 Moreland Ave", "addr:city": "Atlanta", "addr:state": "GA", "addr:postcode": "30316", "phone": "(404) 622-4854", "brand": "Piggly Wiggly"}, "geometry": {"type": "Point", "coordinates": [-84.350774, 33.719841]}},
{"type": "Feature", "id": "FbC5dt5yYpzWN9CXyZpscO3rMVg=", "properties": {"ref": "3222 Highway 84 West(912) 807-7444", "@spider": "pigglywiggly", "addr:full": "3222 Highway 84 West", "addr:city": "Blackshear", "addr:state": "GA", "addr:postcode": "31516", "phone": "(912) 807-7444", "brand": "Piggly Wiggly"}, "geometry": {"type": "Point", "coordinates": [-82.247818, 31.299565]}},
{"type": "Feature", "id": "-sBIlmCgdPIIjgGsmsH7zrWho1k=", "properties": {"ref": "113 North Main Street(229) 724-7678", "@spider": "pigglywiggly", "addr:full": "113 North Main Street", "addr:city": "Blakely", "addr:state": "GA", "addr:postcode": "39823", "phone": "(229) 724-7678", "brand": "Piggly Wiggly"}},
{"type": "Feature", "id": "MFktbV05le2M5PUkmt_m7Z3Rli0=", "properties": {"ref": "136 Louvvorn Ave(770) 258-2465", "@spider": "pigglywiggly", "addr:full": "136 Louvvorn Ave", "addr:city": "Bowdon", "addr:state": "GA", "addr:postcode": "30108", "phone": "(770) 258-2465", "brand": "Piggly Wiggly"}, "geometry": {"type": "Point", "coordinates": [-85.26088, 33.533934]}},
{"type": "Feature", "id": "M5K1jWJyTgrgIMxXV1PSshZs1PI=", "properties": {"ref": "250 Alabama Hwy 75 N(256) 878-2075", "@spider": "pigglywiggly", "addr:full": "250 Alabama Hwy 75 N", "addr:city": "Albertville", "addr:state": "AL", "addr:postcode": "35950", "phone": "(256) 878-2075", "brand": "Piggly Wiggly"}, "geometry": {"type": "Point", "coordinates": [-86.209711, 34.266074]}},
{"type": "Feature", "id": "Q0kbL1Rq911nJYrHU9coxtMR5ow=", "properties": {"ref": "368 Carrollton Street770-646-5176", "@spider": "pigglywiggly", "addr:full": "368 Carrollton Street", "addr:city": "Buchanan", "addr:state": "GA", "addr:postcode": "30113", "phone": "770-646-5176", "brand": "Piggly Wiggly"}, "geometry": {"type": "Point", "coordinates": [-85.186741, 33.800059]}},
{"type": "Feature", "id": "vi56Y7f4MIAGhoQXZOUJ5owqAiI=", "properties": {"ref": "53 South Broad Street(478) 862-3341", "@spider": "pigglywiggly", "addr:full": "53 South Broad Street", "addr:city": "Butler", "addr:state": "GA", "addr:postcode": "31006", "phone": "(478) 862-3341", "brand": "Piggly Wiggly"}, "geometry": {"type": "Point", "coordinates": [-84.23817, 32.55707]}},
{"type": "Feature", "id": "K1cbM1pRUHRfSEXiNcXFfPCp5s8=", "properties": {"ref": "9205 Lavonia Rd706-384-3995", "@spider": "pigglywiggly", "addr:full": "9205 Lavonia Rd", "addr:city": "Carnesville", "addr:state": "GA", "addr:postcode": "30521", "phone": "706-384-3995", "brand": "Piggly Wiggly"}, "geometry": {"type": "Point", "coordinates": [-83.235155, 34.369827]}},
{"type": "Feature", "id": "FNkm-NnDq_hPUID2lUMQj4VCN4w=", "properties": {"ref": "1807 S Lumpkin Rd(706) 689-3553", "@spider": "pigglywiggly", "addr:full": "1807 S Lumpkin Rd", "addr:city": "Columbus", "addr:state": "GA", "addr:postcode": "31903", "phone": "(706) 689-3553", "brand": "Piggly Wiggly"}, "geometry": {"type": "Point", "coordinates": [-84.95082, 32.420725]}},
{"type": "Feature", "id": "JAAaACAzk6FrKMfay6AILDRqqCM=", "properties": {"ref": "3846 St Marys Rd(706) 687-9656", "@spider": "pigglywiggly", "addr:full": "3846 St Marys Rd", "addr:city": "Columbus", "addr:state": "GA", "addr:postcode": "31906", "phone": "(706) 687-9656", "brand": "Piggly Wiggly"}, "geometry": {"type": "Point", "coordinates": [-84.930021, 32.445644]}},
{"type": "Feature", "id": "vIqCvQ7qQGQCFL8C_oDb6CbQAUQ=", "properties": {"ref": "4916 River Rd(706) 327-3789", "@spider": "pigglywiggly", "addr:full": "4916 River Rd", "addr:city": "Columbus", "addr:state": "GA", "addr:postcode": "31904", "phone": "(706) 327-3789", "brand": "Piggly Wiggly"}, "geometry": {"type": "Point", "coordinates": [-84.98273, 32.511475]}},
{"type": "Feature", "id": "OoezuO24pT81K_DKtXTudlUxsEs=", "properties": {"ref": "5850 Moon Rd(706) 561-8032", "@spider": "pigglywiggly", "addr:full": "5850 Moon Rd", "addr:city": "Columbus", "addr:state": "GA", "addr:postcode": "31909", "phone": "(706) 561-8032", "brand": "Piggly Wiggly"}, "geometry": {"type": "Point", "coordinates": [-84.92496, 32.529208]}},
{"type": "Feature", "id": "-Xa62wc--76o6FxyGnvn5BvD4ik=", "properties": {"ref": "910 Brown Ave(706) 324-3428", "@spider": "pigglywiggly", "addr:full": "910 Brown Ave", "addr:city": "Columbus", "addr:state": "GA", "addr:postcode": "31906", "phone": "(706) 324-3428", "brand": "Piggly Wiggly"}, "geometry": {"type": "Point", "coordinates": [-84.960289, 32.464191]}},
{"type": "Feature", "id": "XKF0KYr8Nu2flYMmbvCapVlEOfQ=", "properties": {"ref": "61 Jefferson Street256-234-3454", "@spider": "pigglywiggly", "addr:full": "61 Jefferson Street", "addr:city": "Alexander City", "addr:state": "AL", "addr:postcode": "35010", "phone": "256-234-3454", "brand": "Piggly Wiggly"}, "geometry": {"type": "Point", "coordinates": [-85.952775, 32.945569]}},
{"type": "Feature", "id": "hEy1p4Ko7EEQdyACEtTCVA3-rD8=", "properties": {"ref": "1130 Dr. MLK Expressway(334) 222-9121", "@spider": "pigglywiggly", "addr:full": "1130 Dr. MLK Expressway", "addr:city": "Andalusia", "addr:state": "AL", "addr:postcode": "36420", "phone": "(334) 222-9121", "brand": "Piggly Wiggly"}, "geometry": {"type": "Point", "coordinates": [-86.48699, 31.279043]}},
{"type": "Feature", "id": "CJlxht3-cEu0slOtuxzHLQ5VBl0=", "properties": {"ref": "100 County Road 31256-354-2184", "@spider": "pigglywiggly", "addr:full": "100 County Road 31", "addr:city": "Ashland", "addr:state": "AL", "addr:postcode": "36251", "phone": "256-354-2184", "brand": "Piggly Wiggly"}, "geometry": {"type": "Point", "coordinates": [-85.84503, 33.243964]}},
{"type": "Feature", "id": "gM2sKHXLHv-L-hwVEKK6hbOLy3s=", "properties": {"ref": "35771 US Hwy 231(205) 594-3670", "@spider": "pigglywiggly", "addr:full": "35771 US Hwy 231", "addr:city": "Ashville", "addr:state": "AL", "addr:postcode": "35953", "phone": "(205) 594-3670", "brand": "Piggly Wiggly"}, "geometry": {"type": "Point", "coordinates": [-86.271352, 33.84702]}},
{"type": "Feature", "id": "mWKHDdrYbb67mgQ_5hfhC0C__Mk=", "properties": {"ref": "Dolive St, Highway 31, S(334) 937-7865", "@spider": "pigglywiggly", "addr:full": "Dolive St, Highway 31, S", "addr:city": "Bay Minette", "addr:state": "AL", "addr:postcode": "36507", "phone": "(334) 937-7865", "brand": "Piggly Wiggly"}, "geometry": {"type": "Point", "coordinates": [-85.884321, 39.217134]}},
{"type": "Feature", "id": "3LxCiS_mMd-ZKa3zKGEbNNDtPpM=", "properties": {"ref": "17884 Hwy 18 East(205) 689-4566", "@spider": "pigglywiggly", "addr:full": "17884 Hwy 18 East", "addr:city": "Berry", "addr:state": "AL", "addr:postcode": "35546", "phone": "(205) 689-4566", "brand": "Piggly Wiggly"}, "geometry": {"type": "Point", "coordinates": [-87.598063, 33.668391]}},
{"type": "Feature", "id": "ERcyh-U6SjvsTJ43tR7QeI9NkaQ=", "properties": {"ref": "1697 Tuscaloosa Ave Sw(205) 925-6744", "@spider": "pigglywiggly", "addr:full": "1697 Tuscaloosa Ave Sw", "addr:city": "Birmingham", "addr:state": "AL", "addr:postcode": "35211", "phone": "(205) 925-6744", "brand": "Piggly Wiggly"}, "geometry": {"type": "Point", "coordinates": [-86.861811, 33.486974]}},
{"type": "Feature", "id": "w2Fi8BoZmdv_bviX7NYuPC9pG_I=", "properties": {"ref": "2500 29TH Avenue North(205) 323-5453", "@spider": "pigglywiggly", "addr:full": "2500 29TH Avenue North", "addr:city": "Birmingham", "addr:state": "AL", "addr:postcode": "35207", "phone": "(205) 323-5453", "brand": "Piggly Wiggly"}, "geometry": {"type": "Point", "coordinates": [-86.819012, 33.55038]}},
{"type": "Feature", "id": "4qxCTKjdyxQKbFCW1pnV9JWq06E=", "properties": {"ref": "3314 Clairmont Ave(205) 252-0684", "@spider": "pigglywiggly", "addr:full": "3314 Clairmont Ave", "addr:city": "Birmingham", "addr:state": "AL", "addr:postcode": "35222", "phone": "(205) 252-0684", "brand": "Piggly Wiggly"}, "geometry": {"type": "Point", "coordinates": [-86.780285, 33.512817]}},
{"type": "Feature", "id": "86Pe4__mjAdTxQkaBXnUnIA7UIo=", "properties": {"ref": "1359 13th Street1-706-327-7549", "@spider": "pigglywiggly", "addr:full": "1359 13th Street", "addr:city": "Columbus", "addr:state": "GA", "addr:postcode": "31901", "phone": "1-706-327-7549", "brand": "Piggly Wiggly"}, "geometry": {"type": "Point", "coordinates": [-84.971776, 32.471048]}},
{"type": "Feature", "id": "hlzfDoBkva3PyzL1EcfTRsmZl1Y=", "properties": {"ref": "2424 Woodruff Farm Road(762) 821-3877", "@spider": "pigglywiggly", "addr:full": "2424 Woodruff Farm Road", "addr:city": "Columbus", "addr:state": "GA", "addr:postcode": "31907", "phone": "(762) 821-3877", "brand": "Piggly Wiggly"}, "geometry": {"type": "Point", "coordinates": [-84.897181, 32.483361]}},
{"type": "Feature", "id": "uS7Ocl0SRTt_F6p68y8Oq5N8m9I=", "properties": {"ref": "Southside Plaza Hwy 27 S(229) 732-2461", "@spider": "pigglywiggly", "addr:full": "Southside Plaza Hwy 27 S", "addr:city": "Cuthbert", "addr:state": "GA", "addr:postcode": "39840", "phone": "(229) 732-2461", "brand": "Piggly Wiggly"}, "geometry": {"type": "Point", "coordinates": [-84.789366, 31.771275]}},
{"type": "Feature", "id": "PmJg_xddPn2rO7XzrNtMnFX4EVA=", "properties": {"ref": "5214 US Hwy 17(912) 437-5900", "@spider": "pigglywiggly", "addr:full": "5214 US Hwy 17", "addr:city": "Darien", "addr:state": "GA", "addr:postcode": "31305", "phone": "(912) 437-5900", "brand": "Piggly Wiggly"}, "geometry": {"type": "Point", "coordinates": [-81.439077, 31.466498]}},
{"type": "Feature", "id": "2lEyQSV22zTAejBuRx_b3QEnX8g=", "properties": {"ref": "433 Roundtree Drive229-995-2957", "@spider": "pigglywiggly", "addr:full": "433 Roundtree Drive", "addr:city": "Dawson", "addr:state": "GA", "addr:postcode": "39842", "phone": "229-995-2957", "brand": "Piggly Wiggly"}, "geometry": {"type": "Point", "coordinates": [-84.44713, 31.778525]}},
{"type": "Feature", "id": "fgy47d7KgeTWpWWIGVKM29Gbtg8=", "properties": {"ref": "7110 A Hwy 441 N(706) 637-6483", "@spider": "pigglywiggly", "addr:full": "7110 A Hwy 441 N", "addr:city": "Dillard", "addr:state": "GA", "addr:postcode": "30537", "phone": "(706) 637-6483", "brand": "Piggly Wiggly"}, "geometry": {"type": "Point", "coordinates": [-83.384095, 34.980769]}},
{"type": "Feature", "id": "aWNZ4NKx5xQ8V4wEAwv-D_HWpyc=", "properties": {"ref": "140 East Broad Street(229) 782-5211", "@spider": "pigglywiggly", "addr:full": "140 East Broad Street", "addr:city": "Doerun", "addr:state": "GA", "addr:postcode": "31744", "phone": "(229) 782-5211", "brand": "Piggly Wiggly"}, "geometry": {"type": "Point", "coordinates": [-83.919215, 31.326841]}},
{"type": "Feature", "id": "27SYqkNbAjtCPn5gDbakiL36hR0=", "properties": {"ref": "1000 South Tennille Ave(229) 524-1177", "@spider": "pigglywiggly", "addr:full": "1000 South Tennille Ave", "addr:city": "Donalsonville", "addr:state": "GA", "addr:postcode": "39845", "phone": "(229) 524-1177", "brand": "Piggly Wiggly"}, "geometry": {"type": "Point", "coordinates": [-84.879841, 31.026082]}},
{"type": "Feature", "id": "8VYUF8CxaaFYNdUElDUs-6FGyxQ=", "properties": {"ref": "6501 1St Ave North(205) 592-8303", "@spider": "pigglywiggly", "addr:full": "6501 1St Ave North", "addr:city": "Birmingham", "addr:state": "AL", "addr:postcode": "35206", "phone": "(205) 592-8303", "brand": "Piggly Wiggly"}, "geometry": {"type": "Point", "coordinates": [-86.741559, 33.548792]}},
{"type": "Feature", "id": "m4K5OuhEOEqVAfwOuzXQzGx3UdU=", "properties": {"ref": "1324 Dunnavant Valley Road205-918-7120", "@spider": "pigglywiggly", "addr:full": "1324 Dunnavant Valley Road", "addr:city": "Birmingham", "addr:state": "AL", "addr:postcode": "35242", "phone": "205-918-7120", "brand": "Piggly Wiggly"}, "geometry": {"type": "Point", "coordinates": [-86.642365, 33.388982]}},
{"type": "Feature", "id": "1uVqN0EiczeVYRSFsmG3iPjXgqY=", "properties": {"ref": "10339 Alabama Hwy 168(256) 593-7312", "@spider": "pigglywiggly", "addr:full": "10339 Alabama Hwy 168", "addr:city": "Boaz", "addr:state": "AL", "addr:postcode": "35957", "phone": "(256) 593-7312", "brand": "Piggly Wiggly"}, "geometry": {"type": "Point", "coordinates": [-86.161357, 34.199537]}},
{"type": "Feature", "id": "m0-rfsBRZDdLGlUAsj9IxUeOh-M=", "properties": {"ref": "Hwy 25 Brent Shopping Cntr(205) 926-9720", "@spider": "pigglywiggly", "addr:full": "Hwy 25 Brent Shopping Cntr", "addr:city": "Brent", "addr:state": "AL", "addr:postcode": "35034", "phone": "(205) 926-9720", "brand": "Piggly Wiggly"}, "geometry": {"type": "Point", "coordinates": [-87.164718, 32.937346]}},
{"type": "Feature", "id": "OH3Ma6TgdbyYDaEadvAPB-0dOOw=", "properties": {"ref": "553 North Main St.(334) 735-3337", "@spider": "pigglywiggly", "addr:full": "553 North Main St.", "addr:city": "Brundidge", "addr:state": "AL", "addr:postcode": "36010", "phone": "(334) 735-3337", "brand": "Piggly Wiggly"}, "geometry": {"type": "Point", "coordinates": [-85.817169, 31.726047]}},
{"type": "Feature", "id": "RmcnqwxLY4uG1r_WRYWnRWEyRS0=", "properties": {"ref": "300 W Pushmataha(205) 459-2797", "@spider": "pigglywiggly", "addr:full": "300 W Pushmataha", "addr:city": "Butler", "addr:state": "AL", "addr:postcode": "36904", "phone": "(205) 459-2797", "brand": "Piggly Wiggly"}, "geometry": {"type": "Point", "coordinates": [-88.238968, 32.095119]}},
{"type": "Feature", "id": "H_KgviOSXR3A-ugAcABgPJTve_Y=", "properties": {"ref": "16 Camden By-Pass(334) 682-5330", "@spider": "pigglywiggly", "addr:full": "16 Camden By-Pass", "addr:city": "Camden", "addr:state": "AL", "addr:postcode": "36726", "phone": "(334) 682-5330", "brand": "Piggly Wiggly"}, "geometry": {"type": "Point", "coordinates": [-87.290546, 31.990981]}},
{"type": "Feature", "id": "DwLOaOKsigZ1CZNtvyRXjZPMlkw=", "properties": {"ref": "508 Bellevue Ave(478) 275-0231", "@spider": "pigglywiggly", "addr:full": "508 Bellevue Ave", "addr:city": "Dublin", "addr:state": "GA", "addr:postcode": "31021", "phone": "(478) 275-0231", "brand": "Piggly Wiggly"}, "geometry": {"type": "Point", "coordinates": [-82.910069, 32.538421]}},
{"type": "Feature", "id": "yJ8NwXxjhuF5L3dBJii3JTG0Pds=", "properties": {"ref": "3100 Washington Road(404) 763-3835", "@spider": "pigglywiggly", "addr:full": "3100 Washington Road", "addr:city": "East Point", "addr:state": "GA", "addr:postcode": "30324", "phone": "(404) 763-3835", "brand": "Piggly Wiggly"}, "geometry": {"type": "Point", "coordinates": [-84.461444, 33.671038]}},
{"type": "Feature", "id": "K9vE-GVknC3MEbEIWS9FmeEadjA=", "properties": {"ref": "228 North Jefferson Street(706) 485-4521", "@spider": "pigglywiggly", "addr:full": "228 North Jefferson Street", "addr:city": "Eatonton", "addr:state": "GA", "addr:postcode": "31024", "phone": "(706) 485-4521", "brand": "Piggly Wiggly"}, "geometry": {"type": "Point", "coordinates": [-83.3895, 33.327822]}},
{"type": "Feature", "id": "QxhBFF_qtlMmK9uDqf3z6sin6GM=", "properties": {"ref": "8524 Highway 280E(912) 858-2975", "@spider": "pigglywiggly", "addr:full": "8524 Highway 280E", "addr:city": "Ellabell", "addr:state": "GA", "addr:postcode": "31308", "phone": "(912) 858-2975", "brand": "Piggly Wiggly"}, "geometry": {"type": "Point", "coordinates": [-81.516333, 32.150062]}},
{"type": "Feature", "id": "zvZsY604CO68cRfgOdANi-z6h0Q=", "properties": {"ref": "65 east Oglethorpe Street(229) 937-2860", "@spider": "pigglywiggly", "addr:full": "65 east Oglethorpe Street", "addr:city": "Ellaville", "addr:state": "GA", "addr:postcode": "31806", "phone": "(229) 937-2860", "brand": "Piggly Wiggly"}, "geometry": {"type": "Point", "coordinates": [-84.322955, 32.246723]}},
{"type": "Feature", "id": "BXzX_qr3OR2DRKPyeP93MZ3jcvw=", "properties": {"ref": "4769 Jonesboro Road(404) 361-3335", "@spider": "pigglywiggly", "addr:full": "4769 Jonesboro Road", "addr:city": "Forest Park", "addr:state": "GA", "addr:postcode": "30297", "phone": "(404) 361-3335", "brand": "Piggly Wiggly"}, "geometry": {"type": "Point", "coordinates": [-84.369092, 33.622054]}},
{"type": "Feature", "id": "C9ccof8ewzoz_1Mf0HIMgS85gJM=", "properties": {"ref": "241 E Court Square(706) 675-0707", "@spider": "pigglywiggly", "addr:full": "241 E Court Square", "addr:city": "Franklin", "addr:state": "GA", "addr:postcode": "30217", "phone": "(706) 675-0707", "brand": "Piggly Wiggly"}, "geometry": {"type": "Point", "coordinates": [-85.099933, 33.279024]}},
{"type": "Feature", "id": "5DoGIZiYLZW2aO1qStAddWL5ZPo=", "properties": {"ref": "2988 Gillsville Highway770-533-9298", "@spider": "pigglywiggly", "addr:full": "2988 Gillsville Highway", "addr:city": "Gainesville", "addr:state": "GA", "addr:postcode": "30507", "phone": "770-533-9298", "brand": "Piggly Wiggly"}, "geometry": {"type": "Point", "coordinates": [-83.743176, 34.266337]}},
{"type": "Feature", "id": "gG6e3Yw8ZWJDmnUSK_RFYeZiaTE=", "properties": {"ref": "123 Main St. / Box 7478-628-2117", "@spider": "pigglywiggly", "addr:full": "123 Main St. / Box 7", "addr:city": "Gordon", "addr:state": "GA", "addr:postcode": "31031", "phone": "478-628-2117", "brand": "Piggly Wiggly"}, "geometry": {"type": "Point", "coordinates": [-83.332385, 32.882087]}},
{"type": "Feature", "id": "HDsJ9vJv7ZXpjKFMqPr2cT8PEVk=", "properties": {"ref": "1001 East Shawntel Smith Blvd.(918) 427-3741", "@spider": "pigglywiggly", "addr:full": "1001 East Shawntel Smith Blvd.", "addr:city": "Muldrow", "addr:state": "OK", "addr:postcode": "74948", "phone": "(918) 427-3741", "brand": "Piggly Wiggly"}, "geometry": {"type": "Point", "coordinates": [-94.60772, 35.399537]}},
{"type": "Feature", "id": "kCugwBw21lYtujC9zq6qyQOG7wY=", "properties": {"ref": "3800 Hwy 9(256) 779-6284", "@spider": "pigglywiggly", "addr:full": "3800 Hwy 9", "addr:city": "Cedar Bluff", "addr:state": "AL", "addr:postcode": "35959", "phone": "(256) 779-6284", "brand": "Piggly Wiggly"}, "geometry": {"type": "Point", "coordinates": [-85.601964, 34.218308]}},
{"type": "Feature", "id": "tuMq8wjJ_DLLZDVkY8f0vtzahWU=", "properties": {"ref": "1070 1St St, Nw(256) 378-5795", "@spider": "pigglywiggly", "addr:full": "1070 1St St, Nw", "addr:city": "Childersburg", "addr:state": "AL", "addr:postcode": "35044", "phone": "(256) 378-5795", "brand": "Piggly Wiggly"}, "geometry": {"type": "Point", "coordinates": [-86.359189, 33.27965]}},
{"type": "Feature", "id": "YJxjADuDAWMjjlOynK-cB2hiz5A=", "properties": {"ref": "10760 Lott Rd251-645-4433", "@spider": "pigglywiggly", "addr:full": "10760 Lott Rd", "addr:city": "Chunchula", "addr:state": "AL", "addr:postcode": "36521", "phone": "251-645-4433", "brand": "Piggly Wiggly"}, "geometry": {"type": "Point", "coordinates": [-88.20056, 30.921851]}},
{"type": "Feature", "id": "q3x-b688wB42Akn52sU2OuQTjSM=", "properties": {"ref": "6730 Deerfoot Parkway(205) 681-3639", "@spider": "pigglywiggly", "addr:full": "6730 Deerfoot Parkway", "addr:city": "Clay", "addr:state": "AL", "addr:postcode": "35048", "phone": "(205) 681-3639", "brand": "Piggly Wiggly"}, "geometry": {"type": "Point", "coordinates": [-86.606318, 33.698768]}},
{"type": "Feature", "id": "xYNN1uGDvIIU3SrAoTWvFxSYfG8=", "properties": {"ref": "594 S Valley Rd(256) 927-5661", "@spider": "pigglywiggly", "addr:full": "594 S Valley Rd", "addr:city": "Collinsville", "addr:state": "AL", "addr:postcode": "35961", "phone": "(256) 927-5661", "brand": "Piggly Wiggly"}, "geometry": {"type": "Point", "coordinates": [-85.865475, 34.258395]}},
{"type": "Feature", "id": "rd_JXbG3qDirVuf469dFgbKE8ok=", "properties": {"ref": "119 East Church Street334-696-2070", "@spider": "pigglywiggly", "addr:full": "119 East Church Street", "addr:city": "Columbia", "addr:state": "AL", "addr:postcode": "363219", "phone": "334-696-2070", "brand": "Piggly Wiggly"}, "geometry": {"type": "Point", "coordinates": [-85.108007, 31.292569]}},
{"type": "Feature", "id": "RQ8uB6dxDEKueUptv5UBve4keVg=", "properties": {"ref": "211 W College St(205) 669-9916", "@spider": "pigglywiggly", "addr:full": "211 W College St", "addr:city": "Columbiana", "addr:state": "AL", "addr:postcode": "35051", "phone": "(205) 669-9916", "brand": "Piggly Wiggly"}, "geometry": {"type": "Point", "coordinates": [-86.612356, 33.179879]}},
{"type": "Feature", "id": "GKvREKmYHwx6TraZkt70nGyykXI=", "properties": {"ref": "79 Mill Street(205) 483-9225", "@spider": "pigglywiggly", "addr:full": "79 Mill Street", "addr:city": "Cordova", "addr:state": "AL", "addr:postcode": "35550", "phone": "(205) 483-9225", "brand": "Piggly Wiggly"}, "geometry": {"type": "Point", "coordinates": [-87.183335, 33.759829]}},
{"type": "Feature", "id": "LbPcaLL72GNm16wI1KigXIayjtE=", "properties": {"ref": "2003 US Highway 31 N334-361-2425", "@spider": "pigglywiggly", "addr:full": "2003 US Highway 31 N", "addr:city": "Deatsville", "addr:state": "AL", "addr:postcode": "36022", "phone": "334-361-2425", "brand": "Piggly Wiggly"}, "geometry": {"type": "Point", "coordinates": [-86.39497, 32.612619]}},
{"type": "Feature", "id": "SdOvWvucTaR-jC6f_dgtR7txFxE=", "properties": {"ref": "567 S Talbotton St(706) 672-4851", "@spider": "pigglywiggly", "addr:full": "567 S Talbotton St", "addr:city": "Greenville", "addr:state": "GA", "addr:postcode": "30222", "phone": "(706) 672-4851", "brand": "Piggly Wiggly"}, "geometry": {"type": "Point", "coordinates": [-84.712056, 33.026886]}},
{"type": "Feature", "id": "PREdVIGl3iPr_s9mSRi41T4uVJ0=", "properties": {"ref": "32 South Tallahasse(912) 375-5823", "@spider": "pigglywiggly", "addr:full": "32 South Tallahasse", "addr:city": "Hazlehurst", "addr:state": "GA", "addr:postcode": "31539", "phone": "(912) 375-5823", "brand": "Piggly Wiggly"}, "geometry": {"type": "Point", "coordinates": [-82.599756, 31.864914]}},
{"type": "Feature", "id": "02pWaC_5dtyeZE4yJw8cJ97vPAQ=", "properties": {"ref": "528 North Church Street912-487-0850", "@spider": "pigglywiggly", "addr:full": "528 North Church Street", "addr:city": "Homerville", "addr:state": "GA", "addr:postcode": "31634", "phone": "912-487-0850", "brand": "Piggly Wiggly"}, "geometry": {"type": "Point", "coordinates": [-82.72399, 31.062818]}},
{"type": "Feature", "id": "Y6P-U93X8Jp4x2lSpctwIMgBwxY=", "properties": {"ref": "1010 E Third St(770) 775-4474", "@spider": "pigglywiggly", "addr:full": "1010 E Third St", "addr:city": "Jackson", "addr:state": "GA", "addr:postcode": "30233", "phone": "(770) 775-4474", "brand": "Piggly Wiggly"}, "geometry": {"type": "Point", "coordinates": [-83.948235, 33.294336]}},
{"type": "Feature", "id": "XfqkPMjXhjvyQ9Xkk8iNq8i-GoU=", "properties": {"ref": "415 Lee Street(706)367 - 5394", "@spider": "pigglywiggly", "addr:full": "415 Lee Street", "addr:city": "Jefferson", "addr:state": "GA", "addr:postcode": "30549", "phone": "(706)367 - 5394", "brand": "Piggly Wiggly"}, "geometry": {"type": "Point", "coordinates": [-83.579983, 34.115001]}},
{"type": "Feature", "id": "ggHtCCmEYYTg1vxkTER1yKCwOh8=", "properties": {"ref": "59 Magnolia Street(478) 945-3119", "@spider": "pigglywiggly", "addr:full": "59 Magnolia Street", "addr:city": "Jeffersonville", "addr:state": "GA", "addr:postcode": "31044", "phone": "(478) 945-3119", "brand": "Piggly Wiggly"}, "geometry": {"type": "Point", "coordinates": [-83.345118, 32.68883]}},
{"type": "Feature", "id": "r4L4JcZ5SchMrBXPE449s_MWpt8=", "properties": {"ref": "440 W. Cherry Street912-559-4767", "@spider": "pigglywiggly", "addr:full": "440 W. Cherry Street", "addr:city": "Jesup", "addr:state": "GA", "addr:postcode": "31545", "phone": "912-559-4767", "brand": "Piggly Wiggly"}, "geometry": {"type": "Point", "coordinates": [-81.90843, 31.636895]}},
{"type": "Feature", "id": "EQ-HaZx-1Wq7dwwrWCTNyslq8LM=", "properties": {"ref": "1861 Roanoke Road(706) 845-9102", "@spider": "pigglywiggly", "addr:full": "1861 Roanoke Road", "addr:city": "Lagrange", "addr:state": "GA", "addr:postcode": "30240", "phone": "(706) 845-9102", "brand": "Piggly Wiggly"}, "geometry": {"type": "Point", "coordinates": [-85.069201, 33.032419]}},
{"type": "Feature", "id": "mjMSxaj8WVWbASbTcX6v-IDVMoY=", "properties": {"ref": "511 S Greenwood St(706) 812-0414", "@spider": "pigglywiggly", "addr:full": "511 S Greenwood St", "addr:city": "Lagrange", "addr:state": "GA", "addr:postcode": "30240", "phone": "(706) 812-0414", "brand": "Piggly Wiggly"}, "geometry": {"type": "Point", "coordinates": [-85.035653, 33.033372]}},
{"type": "Feature", "id": "VAwebiSFYwUs50GLw5lbG4cdeMo=", "properties": {"ref": "2221 US HWY 78", "@spider": "pigglywiggly", "addr:full": "2221 US HWY 78", "addr:city": "Dora", "addr:state": "AL", "addr:postcode": "35062", "brand": "Piggly Wiggly"}, "geometry": {"type": "Point", "coordinates": [-86.991094, 33.720298]}},
{"type": "Feature", "id": "xt9E4sLfisJWEwEMH1E3J5X6dQk=", "properties": {"ref": "1140 Montgomery Hwy(334) 673-3776", "@spider": "pigglywiggly", "addr:full": "1140 Montgomery Hwy", "addr:city": "Dothan", "addr:state": "AL", "addr:postcode": "36303", "phone": "(334) 673-3776", "brand": "Piggly Wiggly"}, "geometry": {"type": "Point", "coordinates": [-85.39815, 31.238783]}},
{"type": "Feature", "id": "KOqh_Av2odko8GyLjkst2kD3sE8=", "properties": {"ref": "767 West Selma Street(334) 794-0500", "@spider": "pigglywiggly", "addr:full": "767 West Selma Street", "addr:city": "Dothan", "addr:state": "AL", "addr:postcode": "36301", "phone": "(334) 794-0500", "brand": "Piggly Wiggly"}, "geometry": {"type": "Point", "coordinates": [-85.401457, 31.209338]}},
{"type": "Feature", "id": "AkMloLpZX86Gpy5WbKYI5iCEqYQ=", "properties": {"ref": "201 Forrest Ave251-867-3858", "@spider": "pigglywiggly", "addr:full": "201 Forrest Ave", "addr:city": "East Brewton", "addr:state": "AL", "addr:postcode": "36426", "phone": "251-867-3858", "brand": "Piggly Wiggly"}, "geometry": {"type": "Point", "coordinates": [-87.065999, 31.098593]}},
{"type": "Feature", "id": "GTO1whk8LfWWCTL5NjjAYRhr6PA=", "properties": {"ref": "515 Kowaliga Rd(334) 541-3695", "@spider": "pigglywiggly", "addr:full": "515 Kowaliga Rd", "addr:city": "Eclectic", "addr:state": "AL", "addr:postcode": "36024", "phone": "(334) 541-3695", "brand": "Piggly Wiggly"}, "geometry": {"type": "Point", "coordinates": [-86.040118, 32.641582]}},
{"type": "Feature", "id": "xIouzRAD7R-qlcDnHgA57smSsXo=", "properties": {"ref": "25460 Highway 127(256) 732-4116", "@spider": "pigglywiggly", "addr:full": "25460 Highway 127", "addr:city": "Elkmont", "addr:state": "AL", "addr:postcode": "35620", "phone": "(256) 732-4116", "brand": "Piggly Wiggly"}, "geometry": {"type": "Point", "coordinates": [-86.988714, 34.92935]}},
{"type": "Feature", "id": "sq3WDCcP_wfVcPKVSrKqLNs3DfU=", "properties": {"ref": "1020 Geneva Highway(334) 347-9254", "@spider": "pigglywiggly", "addr:full": "1020 Geneva Highway", "addr:city": "Enterprise", "addr:state": "AL", "addr:postcode": "36330", "phone": "(334) 347-9254", "brand": "Piggly Wiggly"}, "geometry": {"type": "Point", "coordinates": [-85.857075, 31.300806]}},
{"type": "Feature", "id": "DEAWTll2dKTWpwKrUcHhywn7mLc=", "properties": {"ref": "120 Broad St(334) 298-1974", "@spider": "pigglywiggly", "addr:full": "120 Broad St", "addr:city": "Eufaula", "addr:state": "AL", "addr:postcode": "36027", "phone": "(334) 298-1974", "brand": "Piggly Wiggly"}, "geometry": {"type": "Point", "coordinates": [-85.146235, 31.893151]}},
{"type": "Feature", "id": "WUu7h2LyCo82AWiUg_wHRcAaqp4=", "properties": {"ref": "1631 S. Eufaula Avenue(334) 687-8016", "@spider": "pigglywiggly", "addr:full": "1631 S. Eufaula Avenue", "addr:city": "Eufaula", "addr:state": "AL", "addr:postcode": "36027", "phone": "(334) 687-8016", "brand": "Piggly Wiggly"}, "geometry": {"type": "Point", "coordinates": [-85.17362, 31.876168]}},
{"type": "Feature", "id": "oFG8blydXrw_wJHKUnUvETfy4ZQ=", "properties": {"ref": "75 South Valdosta Rd229-482-3464", "@spider": "pigglywiggly", "addr:full": "75 South Valdosta Rd", "addr:city": "Lakeland", "addr:state": "GA", "addr:postcode": "31635", "phone": "229-482-3464", "brand": "Piggly Wiggly"}, "geometry": {"type": "Point", "coordinates": [-83.07103, 31.055578]}},
{"type": "Feature", "id": "0lMd0GhkMlyVsdhSd81XqHGbmms=", "properties": {"ref": "3142 Maple Road(706) 234-7714", "@spider": "pigglywiggly", "addr:full": "3142 Maple Road", "addr:city": "Lindale", "addr:state": "GA", "addr:postcode": "30147", "phone": "(706) 234-7714", "brand": "Piggly Wiggly"}, "geometry": {"type": "Point", "coordinates": [-85.172777, 34.197486]}},
{"type": "Feature", "id": "qq1q_gg7JmTJsuVKFwS9I-E0D9c=", "properties": {"ref": "1425 Rocky Creek Road478-788-3054", "@spider": "pigglywiggly", "addr:full": "1425 Rocky Creek Road", "addr:city": "Macon", "addr:state": "GA", "addr:postcode": "31206", "phone": "478-788-3054", "brand": "Piggly Wiggly"}, "geometry": {"type": "Point", "coordinates": [-83.669186, 32.790738]}},
{"type": "Feature", "id": "WuCLnw49rGRrPijknCvILsxv6zo=", "properties": {"ref": "412 W Main St(706) 846-3040", "@spider": "pigglywiggly", "addr:full": "412 W Main St", "addr:city": "Manchester", "addr:state": "GA", "addr:postcode": "31816", "phone": "(706) 846-3040", "brand": "Piggly Wiggly"}, "geometry": {"type": "Point", "coordinates": [-84.618765, 32.85413]}},
{"type": "Feature", "id": "zUrrutSZBk9QDSSSQ0w6KooxRLA=", "properties": {"ref": "48 E Oak St(229) 868-2656", "@spider": "pigglywiggly", "addr:full": "48 E Oak St", "addr:city": "Mcrae", "addr:state": "GA", "addr:postcode": "31055", "phone": "(229) 868-2656", "brand": "Piggly Wiggly"}, "geometry": {"type": "Point", "coordinates": [-82.876866, 32.058917]}},
{"type": "Feature", "id": "WmIbOFQ1YH9QqOC8PzpGMTZ7198=", "properties": {"ref": "731 S Wayne St / Box 1048478-453-3474", "@spider": "pigglywiggly", "addr:full": "731 S Wayne St / Box 1048", "addr:city": "Milledgeville", "addr:state": "GA", "addr:postcode": "31061", "phone": "478-453-3474", "brand": "Piggly Wiggly"}, "geometry": {"type": "Point", "coordinates": [-83.23397, 33.083579]}},
{"type": "Feature", "id": "GvUm76Fs_-dNAopokD8-moNnLNY=", "properties": {"ref": "506-D Spaulding Road478-458-0130", "@spider": "pigglywiggly", "addr:full": "506-D Spaulding Road", "addr:city": "Montezuma", "addr:state": "GA", "addr:postcode": "31063", "phone": "478-458-0130", "brand": "Piggly Wiggly"}, "geometry": {"type": "Point", "coordinates": [-83.98913, 32.293293]}},
{"type": "Feature", "id": "bZ7cFXjWgSA1zLDrjlUlINbd1VQ=", "properties": {"ref": "1209 1st Ave. SE229-668-5377", "@spider": "pigglywiggly", "addr:full": "1209 1st Ave. SE", "addr:city": "Moultrie", "addr:state": "GA", "addr:postcode": "31768", "phone": "229-668-5377", "brand": "Piggly Wiggly"}, "geometry": {"type": "Point", "coordinates": [-83.773604, 31.180307]}},
{"type": "Feature", "id": "RK7zBm8v2X_Z1vuuJUx0aH5p-Uk=", "properties": {"ref": "210 Second Avenue(740) 446-9764", "@spider": "pigglywiggly", "addr:full": "210 Second Avenue", "addr:city": "Gallipolis", "addr:state": "OH", "addr:postcode": "45631", "phone": "(740) 446-9764", "brand": "Piggly Wiggly"}, "geometry": {"type": "Point", "coordinates": [-82.209144, 38.805443]}},
{"type": "Feature", "id": "XnjTKZUwvJk8QCJzqnpKUs_yMm8=", "properties": {"ref": "1129 Jackson Pike(740) 446-4008", "@spider": "pigglywiggly", "addr:full": "1129 Jackson Pike", "addr:city": "Gallipolis", "addr:state": "OH", "addr:postcode": "45631", "phone": "(740) 446-4008", "brand": "Piggly Wiggly"}, "geometry": {"type": "Point", "coordinates": [-82.255777, 38.842157]}},
{"type": "Feature", "id": "AJElz5Qd8i2VKfcxglOaioWw4Fw=", "properties": {"ref": "409 Front Street(740) 682-3151", "@spider": "pigglywiggly", "addr:full": "409 Front Street", "addr:city": "Oak Hill", "addr:state": "OH", "addr:postcode": "45656", "phone": "(740) 682-3151", "brand": "Piggly Wiggly"}, "geometry": {"type": "Point", "coordinates": [-82.573613, 38.893268]}},
{"type": "Feature", "id": "4v951koQHinIow-nlZuE20SzrFs=", "properties": {"ref": "131 Greenboro St(205) 372-3462", "@spider": "pigglywiggly", "addr:full": "131 Greenboro St", "addr:city": "Eutaw", "addr:state": "AL", "addr:postcode": "35462", "phone": "(205) 372-3462", "brand": "Piggly Wiggly"}, "geometry": {"type": "Point", "coordinates": [-87.882776, 32.83822]}},
{"type": "Feature", "id": "-QYWF7cx-aXK5zn4zLePppsuGWY=", "properties": {"ref": "90 Liberty Hill Place(251) 578-1938", "@spider": "pigglywiggly", "addr:full": "90 Liberty Hill Place", "addr:city": "Evergreen", "addr:state": "AL", "addr:postcode": "36401", "phone": "(251) 578-1938", "brand": "Piggly Wiggly"}, "geometry": {"type": "Point", "coordinates": [-86.954592, 31.434191]}},
{"type": "Feature", "id": "-uVN6wV9H_Em0IBydm6RGr0daK0=", "properties": {"ref": "100 Plantation Pointe(251) 928-0239", "@spider": "pigglywiggly", "addr:full": "100 Plantation Pointe", "addr:city": "Fairhope", "addr:state": "AL", "addr:postcode": "36532", "phone": "(251) 928-0239", "brand": "Piggly Wiggly"}, "geometry": {"type": "Point", "coordinates": [-87.903326, 30.522972]}},
{"type": "Feature", "id": "YhAIqrhvA7PLYvb1RHvwp6grrX8=", "properties": {"ref": "981 Second Street(334) 858-3444", "@spider": "pigglywiggly", "addr:full": "981 Second Street", "addr:city": "Florala", "addr:state": "AL", "addr:postcode": "36442", "phone": "(334) 858-3444", "brand": "Piggly Wiggly"}, "geometry": {"type": "Point", "coordinates": [-86.325258, 31.003233]}},
{"type": "Feature", "id": "_Zi-0YBJ98dVF4MuQA7iRal-mqE=", "properties": {"ref": "1200 South McKenzie Street(251) 990-5690", "@spider": "pigglywiggly", "addr:full": "1200 South McKenzie Street", "addr:city": "Foley", "addr:state": "AL", "addr:postcode": "36535", "phone": "(251) 990-5690", "brand": "Piggly Wiggly"}, "geometry": {"type": "Point", "coordinates": [-87.684389, 30.426125]}},
{"type": "Feature", "id": "bd1KGJ21MAEWepsfrD-qiUc_dOk=", "properties": {"ref": "1619 Forestdale Blvd(205) 791-1833", "@spider": "pigglywiggly", "addr:full": "1619 Forestdale Blvd", "addr:city": "Forestdale", "addr:state": "AL", "addr:postcode": "35214", "phone": "(205) 791-1833", "brand": "Piggly Wiggly"}, "geometry": {"type": "Point", "coordinates": [-86.898626, 33.568732]}},
{"type": "Feature", "id": "MiDApPE8vpbWLzKQulZJsIzxl_0=", "properties": {"ref": "1400 West Maple Avenue(334) 684-3224", "@spider": "pigglywiggly", "addr:full": "1400 West Maple Avenue", "addr:city": "Geneva", "addr:state": "AL", "addr:postcode": "36340", "phone": "(334) 684-3224", "brand": "Piggly Wiggly"}, "geometry": {"type": "Point", "coordinates": [-85.893384, 31.047553]}},
{"type": "Feature", "id": "O6RztAkDG533rJQF6e9GPfF8WfU=", "properties": {"ref": "116 Melvin Road(251) 843-5538", "@spider": "pigglywiggly", "addr:full": "116 Melvin Road", "addr:city": "Gilbertown", "addr:state": "AL", "addr:postcode": "36908", "phone": "(251) 843-5538", "brand": "Piggly Wiggly"}, "geometry": {"type": "Point", "coordinates": [-88.395539, 31.897362]}},
{"type": "Feature", "id": "GBN7jov9cFw24AhXfdtcoQub0ig=", "properties": {"ref": "470 S Main St.(256) 839-1322", "@spider": "pigglywiggly", "addr:full": "470 S Main St.", "addr:city": "Goodwater", "addr:state": "AL", "addr:postcode": "35072", "phone": "(256) 839-1322", "brand": "Piggly Wiggly"}, "geometry": {"type": "Point", "coordinates": [-86.054527, 33.058887]}},
{"type": "Feature", "id": "6r_r5__qC7zN7NI5FuCbqt8Gokc=", "properties": {"ref": "Highway 301 North(912) 462-6501", "@spider": "pigglywiggly", "addr:full": "Highway 301 North", "addr:city": "Nahunta", "addr:state": "GA", "addr:postcode": "31553", "phone": "(912) 462-6501", "brand": "Piggly Wiggly"}, "geometry": {"type": "Point", "coordinates": [-78.895036, 35.021472]}},
{"type": "Feature", "id": "C1kwC4EXH5A9NM3fffnKz5rgxRE=", "properties": {"ref": "415 North Irwin Ave229-468-7299", "@spider": "pigglywiggly", "addr:full": "415 North Irwin Ave", "addr:city": "Ocilla", "addr:state": "GA", "addr:postcode": "31774", "phone": "229-468-7299", "brand": "Piggly Wiggly"}, "geometry": {"type": "Point", "coordinates": [-83.27583, 31.586426]}},
{"type": "Feature", "id": "EiFhll05Z5-wjuQLpnIkeeh9jOM=", "properties": {"ref": "506 Center Street(770) 463-4648", "@spider": "pigglywiggly", "addr:full": "506 Center Street", "addr:city": "Palmetto", "addr:state": "GA", "addr:postcode": "30268", "phone": "(770) 463-4648", "brand": "Piggly Wiggly"}, "geometry": {"type": "Point", "coordinates": [-84.669655, 33.517891]}},
{"type": "Feature", "id": "FJ0nzHeZlC1l8fEKT72vUzGHNLs=", "properties": {"ref": "303 W Railroad Ave.(912) 294-8656", "@spider": "pigglywiggly", "addr:full": "303 W Railroad Ave.", "addr:city": "Pelham", "addr:state": "GA", "addr:postcode": "31779", "phone": "(912) 294-8656", "brand": "Piggly Wiggly"}, "geometry": {"type": "Point", "coordinates": [-84.151997, 31.123454]}},
{"type": "Feature", "id": "rHRYUP9KnoLug5m0vkIoBcUdVLg=", "properties": {"ref": "1042 US-80 West912-748-8208", "@spider": "pigglywiggly", "addr:full": "1042 US-80 West", "addr:city": "Pooler", "addr:state": "GA", "addr:postcode": "31322", "phone": "912-748-8208", "brand": "Piggly Wiggly"}, "geometry": {"type": "Point", "coordinates": [-81.24568, 32.110421]}},
{"type": "Feature", "id": "gHy6napMe1BrxKoNZ2wyXhRpCTE=", "properties": {"ref": "70 N Plains Road(740) 797-4526", "@spider": "pigglywiggly", "addr:full": "70 N Plains Road", "addr:city": "The Plains", "addr:state": "OH", "addr:postcode": "45780", "phone": "(740) 797-4526", "brand": "Piggly Wiggly"}, "geometry": {"type": "Point", "coordinates": [-82.135934, 39.374287]}},
{"type": "Feature", "id": "Ujr0R63hFvqezoU-mRvG7Y5wEpI=", "properties": {"ref": "116 W. Second Street740-384-3946", "@spider": "pigglywiggly", "addr:full": "116 W. Second Street", "addr:city": "Wellston", "addr:state": "OH", "addr:postcode": "45692", "phone": "740-384-3946", "brand": "Piggly Wiggly"}, "geometry": {"type": "Point", "coordinates": [-82.537033, 39.121877]}},
{"type": "Feature", "id": "tLR_nLVeTtNsiaT0_Jdzxh2b2-Q=", "properties": {"ref": "841 Industrial Park Blvd(205) 364-7800", "@spider": "pigglywiggly", "addr:full": "841 Industrial Park Blvd", "addr:city": "Gordo", "addr:state": "AL", "addr:postcode": "35466", "phone": "(205) 364-7800", "brand": "Piggly Wiggly"}, "geometry": {"type": "Point", "coordinates": [-87.911167, 33.321193]}},
{"type": "Feature", "id": "8yFM89_JKQc19UnQ4a_gBYsitn8=", "properties": {"ref": "205 Cedar Street(334) 382-3771", "@spider": "pigglywiggly", "addr:full": "205 Cedar Street", "addr:city": "Greenville", "addr:state": "AL", "addr:postcode": "36037", "phone": "(334) 382-3771", "brand": "Piggly Wiggly"}, "geometry": {"type": "Point", "coordinates": [-86.618071, 31.830356]}},
{"type": "Feature", "id": "ajLIMSZ4XBsPHBy-HYtyQg91fgk=", "properties": {"ref": "7270 Us Hwy 43(205) 468-3374", "@spider": "pigglywiggly", "addr:full": "7270 Us Hwy 43", "addr:city": "Guin", "addr:state": "AL", "addr:postcode": "35563", "phone": "(205) 468-3374", "brand": "Piggly Wiggly"}, "geometry": {"type": "Point", "coordinates": [-87.909409, 33.966028]}},
{"type": "Feature", "id": "xRniFT0LwuyjWD_5FmKwbEAxyr4=", "properties": {"ref": "1455 Sunset Dr(256) 582-2865", "@spider": "pigglywiggly", "addr:full": "1455 Sunset Dr", "addr:city": "Guntersville", "addr:state": "AL", "addr:postcode": "35976", "phone": "(256) 582-2865", "brand": "Piggly Wiggly"}, "geometry": {"type": "Point", "coordinates": [-86.315467, 34.353177]}},
{"type": "Feature", "id": "1lfgVNdSgfkHaDeWQzT2Hm4VQBo=", "properties": {"ref": "6022 Hwy 72 East(256) 776-3661", "@spider": "pigglywiggly", "addr:full": "6022 Hwy 72 East", "addr:city": "Gurley", "addr:state": "AL", "addr:postcode": "35748", "phone": "(256) 776-3661", "brand": "Piggly Wiggly"}, "geometry": {"type": "Point", "coordinates": [-86.371, 34.69547]}},
{"type": "Feature", "id": "UQP0nPcKlb974dUoV_OC_yxXZ-o=", "properties": {"ref": "1009 19Th St(205) 486-3233", "@spider": "pigglywiggly", "addr:full": "1009 19Th St", "addr:city": "Haleyville", "addr:state": "AL", "addr:postcode": "35565", "phone": "(205) 486-3233", "brand": "Piggly Wiggly"}, "geometry": {"type": "Point", "coordinates": [-87.621457, 34.225882]}},
{"type": "Feature", "id": "L6N4kVD0X_Cer4kKIfn2pjBRDb0=", "properties": {"ref": "304 W Main Street(334) 588-2912", "@spider": "pigglywiggly", "addr:full": "304 W Main Street", "addr:city": "Hartford", "addr:state": "AL", "addr:postcode": "36344", "phone": "(334) 588-2912", "brand": "Piggly Wiggly"}, "geometry": {"type": "Point", "coordinates": [-85.7005, 31.1006]}},
{"type": "Feature", "id": "Ebz4wAVBUCFb_qj3SKjEAkAW9-s=", "properties": {"ref": "800 Ross St(256) 463-7769", "@spider": "pigglywiggly", "addr:full": "800 Ross St", "addr:city": "Heflin", "addr:state": "AL", "addr:postcode": "36264", "phone": "(256) 463-7769", "brand": "Piggly Wiggly"}, "geometry": {"type": "Point", "coordinates": [-85.587426, 33.648374]}},
{"type": "Feature", "id": "JMcfIDqozcglnrUmShn5jdjxZVg=", "properties": {"ref": "100 Piggly Wiggly Way(229) 887-3300", "@spider": "pigglywiggly", "addr:full": "100 Piggly Wiggly Way", "addr:city": "Richland", "addr:state": "GA", "addr:postcode": "31825", "phone": "(229) 887-3300", "brand": "Piggly Wiggly"}, "geometry": {"type": "Point", "coordinates": [-84.66742, 32.087934]}},
{"type": "Feature", "id": "t_ArCuyqpZE9nX-6ji03xHAXMoY=", "properties": {"ref": "1053 Second Street9125293434", "@spider": "pigglywiggly", "addr:full": "1053 Second Street", "addr:city": "Soperton", "addr:state": "GA", "addr:postcode": "30457", "phone": "9125293434", "brand": "Piggly Wiggly"}, "geometry": {"type": "Point", "coordinates": [-82.58272, 32.387041]}},
{"type": "Feature", "id": "nnp6lA1EzQDq8XF_qFUr08b617s=", "properties": {"ref": "631 E Franklin St(229) 776-5868", "@spider": "pigglywiggly", "addr:full": "631 E Franklin St", "addr:city": "Sylvester", "addr:state": "GA", "addr:postcode": "31791", "phone": "(229) 776-5868", "brand": "Piggly Wiggly"}, "geometry": {"type": "Point", "coordinates": [-83.827707, 31.530202]}},
{"type": "Feature", "id": "DxfJnkZEvq2xZ1Eyd-KvEqKOeF4=", "properties": {"ref": "2310 Us Hwy 78770-574-7336", "@spider": "pigglywiggly", "addr:full": "2310 Us Hwy 78", "addr:city": "Tallapoosa", "addr:state": "GA", "addr:postcode": "30176", "phone": "770-574-7336", "brand": "Piggly Wiggly"}, "geometry": {"type": "Point", "coordinates": [-85.278366, 33.741782]}},
{"type": "Feature", "id": "SIcamhkEDSQZjdtziedjWK3PUuw=", "properties": {"ref": "301 N Center St(706) 647-8844", "@spider": "pigglywiggly", "addr:full": "301 N Center St", "addr:city": "Thomaston", "addr:state": "GA", "addr:postcode": "30286", "phone": "(706) 647-8844", "brand": "Piggly Wiggly"}, "geometry": {"type": "Point", "coordinates": [-84.326165, 32.893235]}},
{"type": "Feature", "id": "5yfDwrRSHB4zyFylU3R5liWQ4Yo=", "properties": {"ref": "15759 US Highway 17(912) 832-5071", "@spider": "pigglywiggly", "addr:full": "15759 US Highway 17", "addr:city": "Townsend", "addr:state": "GA", "addr:postcode": "31331", "phone": "(912) 832-5071", "brand": "Piggly Wiggly"}, "geometry": {"type": "Point", "coordinates": [-81.428342, 31.531743]}},
{"type": "Feature", "id": "UJOZh-KdKlbqwAZZtkBQM0P_fus=", "properties": {"ref": "6405 Sissonville Dr(304) 984-1712", "@spider": "pigglywiggly", "addr:full": "6405 Sissonville Dr", "addr:city": "Charleston", "addr:state": "WV", "addr:postcode": "25360", "phone": "(304) 984-1712", "brand": "Piggly Wiggly"}, "geometry": {"type": "Point", "coordinates": [-81.67, 38.45]}},
{"type": "Feature", "id": "7bKDw2GSSdyAZ1D0NK7Y1JzrYkw=", "properties": {"ref": "5003 MacCorkle Ave. S.E.(304) 925-2153", "@spider": "pigglywiggly", "addr:full": "5003 MacCorkle Ave. S.E.", "addr:city": "Charleston", "addr:state": "WV", "addr:postcode": "25304", "phone": "(304) 925-2153", "brand": "Piggly Wiggly"}, "geometry": {"type": "Point", "coordinates": [-81.576822, 38.318309]}},
{"type": "Feature", "id": "e61MjyQMgWP8FvtH-7e-AxJEpe4=", "properties": {"ref": "10 Spring Street304-342-0280", "@spider": "pigglywiggly", "addr:full": "10 Spring Street", "addr:city": "Charleston", "addr:state": "WV", "addr:postcode": "25302", "phone": "304-342-0280", "brand": "Piggly Wiggly"}, "geometry": {"type": "Point", "coordinates": [-81.625491, 38.359422]}},
{"type": "Feature", "id": "il1kRUpqkfB3Dv7e0Lg6pHMVqaA=", "properties": {"ref": "101 Roosevelt Blvd(304) 586-2582", "@spider": "pigglywiggly", "addr:full": "101 Roosevelt Blvd", "addr:city": "Eleanor", "addr:state": "WV", "addr:postcode": "25070", "phone": "(304) 586-2582", "brand": "Piggly Wiggly"}, "geometry": {"type": "Point", "coordinates": [-81.932358, 38.537589]}},
{"type": "Feature", "id": "y8kPHRSEFkYa2CRxPta3cEnjObo=", "properties": {"ref": "78 Maze Plaza304-275-3391", "@spider": "pigglywiggly", "addr:full": "78 Maze Plaza", "addr:city": "Elizabeth", "addr:state": "WV", "addr:postcode": "26143", "phone": "304-275-3391", "brand": "Piggly Wiggly"}, "geometry": {"type": "Point", "coordinates": [-81.39512, 39.063413]}},
{"type": "Feature", "id": "GXtjZf8ZV_DK_L-tv4rP5m63_mo=", "properties": {"ref": "3000 Montgomery Highway(205) 879-0884", "@spider": "pigglywiggly", "addr:full": "3000 Montgomery Highway", "addr:city": "Homewood", "addr:state": "AL", "addr:postcode": "35209", "phone": "(205) 879-0884", "brand": "Piggly Wiggly"}, "geometry": {"type": "Point", "coordinates": [-86.780114, 33.461279]}},
{"type": "Feature", "id": "waNELWJWG4CFsY5hcaQUm65UVso=", "properties": {"ref": "2148 Tyler Rd. Suite 104(205) 822-5361", "@spider": "pigglywiggly", "addr:full": "2148 Tyler Rd. Suite 104", "addr:city": "Hoover", "addr:state": "AL", "addr:postcode": "35226", "phone": "(205) 822-5361", "brand": "Piggly Wiggly"}, "geometry": {"type": "Point", "coordinates": [-86.8295, 33.406409]}},
{"type": "Feature", "id": "Xcy0Vrl9wbXuwxAQGN5V880qDjk=", "properties": {"ref": "104 River Square Plaza(205) 230-0258", "@spider": "pigglywiggly", "addr:full": "104 River Square Plaza", "addr:city": "Hueytown", "addr:state": "AL", "addr:postcode": "35023", "phone": "(205) 230-0258", "brand": "Piggly Wiggly"}, "geometry": {"type": "Point", "coordinates": [-86.996661, 33.45122]}},
{"type": "Feature", "id": "vhquAIxsbMNUIsoZzlBM8wxw5hY=", "properties": {"ref": "24716 Us Hwy 31 Cobb Plaza(205) 688-2477", "@spider": "pigglywiggly", "addr:full": "24716 Us Hwy 31 Cobb Plaza", "addr:city": "Jemison", "addr:state": "AL", "addr:postcode": "35085", "phone": "(205) 688-2477", "brand": "Piggly Wiggly"}, "geometry": {"type": "Point", "coordinates": [-86.746652, 32.959845]}},
{"type": "Feature", "id": "yx-kxndjn3qIdoe5852hc4lfIzE=", "properties": {"ref": "337 9th Ave S.W334-864-8997", "@spider": "pigglywiggly", "addr:full": "337 9th Ave S.W", "addr:city": "Lafayette", "addr:state": "AL", "addr:postcode": "36862", "phone": "334-864-8997", "brand": "Piggly Wiggly"}, "geometry": {"type": "Point", "coordinates": [-85.409937, 32.882986]}},
{"type": "Feature", "id": "6yQ90Zp_1C09bpc00vG6EF6Az8Q=", "properties": {"ref": "620 Cherry Valley Shpg Ctr(334) 644-1110", "@spider": "pigglywiggly", "addr:full": "620 Cherry Valley Shpg Ctr", "addr:city": "Lanett", "addr:state": "AL", "addr:postcode": "36863", "phone": "(334) 644-1110", "brand": "Piggly Wiggly"}, "geometry": {"type": "Point", "coordinates": [-85.187507, 32.872937]}},
{"type": "Feature", "id": "g6y9Ny3MtVxMbf9s9tLx4CzfS7E=", "properties": {"ref": "15 W. Ashland St(843) 264-5251", "@spider": "pigglywiggly", "addr:full": "15 W. Ashland St", "addr:city": "Andrews", "addr:state": "SC", "addr:postcode": "29510", "phone": "(843) 264-5251", "brand": "Piggly Wiggly"}, "geometry": {"type": "Point", "coordinates": [-79.5645, 33.454836]}},
{"type": "Feature", "id": "7PvI_o2m-GQZ6czE54qRZhEKees=", "properties": {"ref": "110 S Main Street(803) 484-6315", "@spider": "pigglywiggly", "addr:full": "110 S Main Street", "addr:city": "Bishopville", "addr:state": "SC", "addr:postcode": "29010", "phone": "(803) 484-6315", "brand": "Piggly Wiggly"}, "geometry": {"type": "Point", "coordinates": [-80.249376, 34.217647]}},
{"type": "Feature", "id": "O5VhwCNGz4S5biNSmQ1Kxf0XS5I=", "properties": {"ref": "2745 Hwy 80E478-763-4744", "@spider": "pigglywiggly", "addr:full": "2745 Hwy 80E", "addr:city": "Twin City", "addr:state": "GA", "addr:postcode": "30471", "phone": "478-763-4744", "brand": "Piggly Wiggly"}, "geometry": {"type": "Point", "coordinates": [-82.17048, 32.547214]}},
{"type": "Feature", "id": "ZezAgjyaOiTZL4Wdr_3KF9okBA8=", "properties": {"ref": "Us Hwy 42 South(478) 627-3465", "@spider": "pigglywiggly", "addr:full": "Us Hwy 42 South", "addr:city": "Unadilla", "addr:state": "GA", "addr:postcode": "31091", "phone": "(478) 627-3465", "brand": "Piggly Wiggly"}, "geometry": {"type": "Point", "coordinates": [-83.736566, 32.26155]}},
{"type": "Feature", "id": "Sc6ObEdSmE-g08u1YC6Fpjxpe-Y=", "properties": {"ref": "2111 Bemis Road(229) 333-0525", "@spider": "pigglywiggly", "addr:full": "2111 Bemis Road", "addr:city": "Valdosta", "addr:state": "GA", "addr:postcode": "31602", "phone": "(229) 333-0525", "brand": "Piggly Wiggly"}, "geometry": {"type": "Point", "coordinates": [-83.278485, 30.832702]}},
{"type": "Feature", "id": "S3a7AmxlEJjxBf8h0AmyqrptYuA=", "properties": {"ref": "1105 Madison Highway229-339-5007", "@spider": "pigglywiggly", "addr:full": "1105 Madison Highway", "addr:city": "Valdosta`", "addr:state": "GA", "addr:postcode": "31601", "phone": "229-339-5007", "brand": "Piggly Wiggly"}, "geometry": {"type": "Point", "coordinates": [-83.28661, 30.807279]}},
{"type": "Feature", "id": "_HcTGxLkPt9aChjDkv0HMuKn_AY=", "properties": {"ref": "207 N 3Rd St(229) 268-2911", "@spider": "pigglywiggly", "addr:full": "207 N 3Rd St", "addr:city": "Vienna", "addr:state": "GA", "addr:postcode": "31092", "phone": "(229) 268-2911", "brand": "Piggly Wiggly"}, "geometry": {"type": "Point", "coordinates": [-83.796624, 32.094659]}},
{"type": "Feature", "id": "xOhVURs9HNYnyKUhGp-m1QzyOjg=", "properties": {"ref": "441 Legion Drive(706) 465-3037", "@spider": "pigglywiggly", "addr:full": "441 Legion Drive", "addr:city": "Warrenton", "addr:state": "GA", "addr:postcode": "30828", "phone": "(706) 465-3037", "brand": "Piggly Wiggly"}, "geometry": {"type": "Point", "coordinates": [-82.662078, 33.407084]}},
{"type": "Feature", "id": "Y7fW9Wa24uneqrZ-K_pbq1Ipoqw=", "properties": {"ref": "214 W Trilby St(478) 864-3365", "@spider": "pigglywiggly", "addr:full": "214 W Trilby St", "addr:city": "Wrightsville", "addr:state": "GA", "addr:postcode": "31096", "phone": "(478) 864-3365", "brand": "Piggly Wiggly"}, "geometry": {"type": "Point", "coordinates": [-82.721307, 32.731347]}},
{"type": "Feature", "id": "yzb6cPSORpAgVoH6_9qsauQ2Au0=", "properties": {"ref": "8337 Court Ave304-824-5606", "@spider": "pigglywiggly", "addr:full": "8337 Court Ave", "addr:city": "Hamlin", "addr:state": "WV", "addr:postcode": "25523", "phone": "304-824-5606", "brand": "Piggly Wiggly"}, "geometry": {"type": "Point", "coordinates": [-82.091751, 38.280938]}},
{"type": "Feature", "id": "87i7O-VeXw5tE4LAUcJkOo0kqzI=", "properties": {"ref": "24322 Midland Trail304-658-5872", "@spider": "pigglywiggly", "addr:full": "24322 Midland Trail", "addr:city": "Hico", "addr:state": "WV", "addr:postcode": "25854", "phone": "304-658-5872", "brand": "Piggly Wiggly"}, "geometry": {"type": "Point", "coordinates": [-81.005685, 38.117496]}},
{"type": "Feature", "id": "Qvss9TAXhlpOdjehquCQ36GwSj0=", "properties": {"ref": "18 Perry Morris Square304-743-3991", "@spider": "pigglywiggly", "addr:full": "18 Perry Morris Square", "addr:city": "Milton", "addr:state": "WV", "addr:postcode": "25541", "phone": "304-743-3991", "brand": "Piggly Wiggly"}, "geometry": {"type": "Point", "coordinates": [-82.132364, 38.434532]}},
{"type": "Feature", "id": "8euuaFUafzsgf8Prsy9M_zVXMTg=", "properties": {"ref": "1206 Plum Street304-428-9165", "@spider": "pigglywiggly", "addr:full": "1206 Plum Street", "addr:city": "Parkersburg", "addr:state": "WV", "addr:postcode": "26101", "phone": "304-428-9165", "brand": "Piggly Wiggly"}, "geometry": {"type": "Point", "coordinates": [-81.53706, 39.265408]}},
{"type": "Feature", "id": "Frgh0e6mDWC4_uzizv075U7zJxA=", "properties": {"ref": "110 Gohon Village304-428-1932", "@spider": "pigglywiggly", "addr:full": "110 Gohon Village", "addr:city": "Parkersburg", "addr:state": "WV", "addr:postcode": "26101", "phone": "304-428-1932", "brand": "Piggly Wiggly"}, "geometry": {"type": "Point", "coordinates": [-81.53706, 39.265408]}},
{"type": "Feature", "id": "MDxXcXuCCXwcUWeqRhTbaVg_RWs=", "properties": {"ref": "1304 S Boston Rd(434) 793-8355", "@spider": "pigglywiggly", "addr:full": "1304 S Boston Rd", "addr:city": "Danville", "addr:state": "VA", "addr:postcode": "24540", "phone": "(434) 793-8355", "brand": "Piggly Wiggly"}, "geometry": {"type": "Point", "coordinates": [-79.344914, 36.580986]}},
{"type": "Feature", "id": "xtvrBC7Mut8fUOPIv-wvUoKvzx8=", "properties": {"ref": "3101 Jefferson Ave.757-223-4416", "@spider": "pigglywiggly", "addr:full": "3101 Jefferson Ave.", "addr:city": "Newport News", "addr:state": "VA", "addr:postcode": "23607", "phone": "757-223-4416", "brand": "Piggly Wiggly"}, "geometry": {"type": "Point", "coordinates": [-76.4195, 36.987151]}},
{"type": "Feature", "id": "KVzTbxeU-ZPglqOhGghjfbfE9g0=", "properties": {"ref": "4630 East Princess Anne Road(757) 855-1616", "@spider": "pigglywiggly", "addr:full": "4630 East Princess Anne Road", "addr:city": "Norfolk", "addr:state": "VA", "addr:postcode": "23502", "phone": "(757) 855-1616", "brand": "Piggly Wiggly"}, "geometry": {"type": "Point", "coordinates": [-76.231542, 36.867506]}},
{"type": "Feature", "id": "araCpAcTJq-m_JM9m4QzyydLRcc=", "properties": {"ref": "47870 US Hwy 78(205) 763-7112", "@spider": "pigglywiggly", "addr:full": "47870 US Hwy 78", "addr:city": "Lincoln", "addr:state": "AL", "addr:postcode": "35096", "phone": "(205) 763-7112", "brand": "Piggly Wiggly"}, "geometry": {"type": "Point", "coordinates": [-86.12079, 33.605233]}},
{"type": "Feature", "id": "SWLLfHjBDEVXnVglVzCqZ72ws_4=", "properties": {"ref": "88985 Hwy 9(256) 396-2224", "@spider": "pigglywiggly", "addr:full": "88985 Hwy 9", "addr:city": "Lineville", "addr:state": "AL", "addr:postcode": "36266", "phone": "(256) 396-2224", "brand": "Piggly Wiggly"}, "geometry": {"type": "Point", "coordinates": [-85.757535, 33.310548]}},
{"type": "Feature", "id": "RQn6dziSiz_lfMR2Ha7iqVrd7Eg=", "properties": {"ref": "1078 South Hickory Street(251) 929-9740", "@spider": "pigglywiggly", "addr:full": "1078 South Hickory Street", "addr:city": "Loxley", "addr:state": "AL", "addr:postcode": "36551", "phone": "(251) 929-9740", "brand": "Piggly Wiggly"}, "geometry": {"type": "Point", "coordinates": [-87.75299, 30.6316]}},
{"type": "Feature", "id": "2IqzvKXY1ZG0JX_kYvLKtSnUw5M=", "properties": {"ref": "4750 Eastern Valley Road(205) 230-0142", "@spider": "pigglywiggly", "addr:full": "4750 Eastern Valley Road", "addr:city": "McCalla", "addr:state": "AL", "addr:postcode": "35111", "phone": "(205) 230-0142", "brand": "Piggly Wiggly"}, "geometry": {"type": "Point", "coordinates": [-86.998461, 33.329078]}},
{"type": "Feature", "id": "Lmrxtx_pC3IIQRRPZAZJ1_Hiq-o=", "properties": {"ref": "32 Phillips Dr(205) 923-1787", "@spider": "pigglywiggly", "addr:full": "32 Phillips Dr", "addr:city": "Midfield", "addr:state": "AL", "addr:postcode": "35228", "phone": "(205) 923-1787", "brand": "Piggly Wiggly"}, "geometry": {"type": "Point", "coordinates": [-86.909747, 33.463811]}},
{"type": "Feature", "id": "ksWOvVA5Gm6TqFAwBPYVzuSGVrM=", "properties": {"ref": "12205 Highway 96(205) 662-4920", "@spider": "pigglywiggly", "addr:full": "12205 Highway 96", "addr:city": "Millport", "addr:state": "AL", "addr:postcode": "35576", "phone": "(205) 662-4920", "brand": "Piggly Wiggly"}, "geometry": {"type": "Point", "coordinates": [-88.072366, 33.560464]}},
{"type": "Feature", "id": "JGHsjvu6XX_1fpLVN-uTCK4jSxc=", "properties": {"ref": "2306 St. Stephens Rd251-243-7574", "@spider": "pigglywiggly", "addr:full": "2306 St. Stephens Rd", "addr:city": "Mobile", "addr:state": "AL", "addr:postcode": "36617", "phone": "251-243-7574", "brand": "Piggly Wiggly"}, "geometry": {"type": "Point", "coordinates": [-88.08258, 30.719195]}},
{"type": "Feature", "id": "JkWKIuqteCV1McvPPO11eWsIQVs=", "properties": {"ref": "1360 Navco Rd251-206-5413", "@spider": "pigglywiggly", "addr:full": "1360 Navco Rd", "addr:city": "Mobile", "addr:state": "AL", "addr:postcode": "36605", "phone": "251-206-5413", "brand": "Piggly Wiggly"}, "geometry": {"type": "Point", "coordinates": [-88.102605, 30.646331]}},
{"type": "Feature", "id": "dkvvuCRPT491HAdW9rUh0muYvfU=", "properties": {"ref": "1007 E Memorial Drive252-332-6265", "@spider": "pigglywiggly", "addr:full": "1007 E Memorial Drive", "addr:city": "Ahoskie", "addr:state": "NC", "addr:postcode": "27910", "phone": "252-332-6265", "brand": "Piggly Wiggly"}, "geometry": {"type": "Point", "coordinates": [-76.98612, 36.293352]}},
{"type": "Feature", "id": "z0Ubn3xa3qe-OJJ8aobJ2_-2xHc=", "properties": {"ref": "144-D Third Street(252) 746-4041", "@spider": "pigglywiggly", "addr:full": "144-D Third Street", "addr:city": "Ayden", "addr:state": "NC", "addr:postcode": "28513", "phone": "(252) 746-4041", "brand": "Piggly Wiggly"}, "geometry": {"type": "Point", "coordinates": [-77.434006, 35.474137]}},
{"type": "Feature", "id": "Y0bFNLBwiwf7NOJuqxS8f7M7qc4=", "properties": {"ref": "50 E Dekalb St(803) 432-7011", "@spider": "pigglywiggly", "addr:full": "50 E Dekalb St", "addr:city": "Camden", "addr:state": "SC", "addr:postcode": "29020", "phone": "(803) 432-7011", "brand": "Piggly Wiggly"}, "geometry": {"type": "Point", "coordinates": [-80.592736, 34.2475]}},
{"type": "Feature", "id": "E7vkUAAgaxsYSbkfd6Jj0mGhDKg=", "properties": {"ref": "630 Skylark Dr.843-852-4817", "@spider": "pigglywiggly", "addr:full": "630 Skylark Dr.", "addr:city": "Charleston", "addr:state": "SC", "addr:postcode": "29407", "phone": "843-852-4817", "brand": "Piggly Wiggly"}, "geometry": {"type": "Point", "coordinates": [-80.029349, 32.790739]}},
{"type": "Feature", "id": "YAscHsm83i5iCX0RqbRUAzGQwFM=", "properties": {"ref": "1303 West Main Street(843) 623-6590", "@spider": "pigglywiggly", "addr:full": "1303 West Main Street", "addr:city": "Chesterfield", "addr:state": "SC", "addr:postcode": "29709", "phone": "(843) 623-6590", "brand": "Piggly Wiggly"}, "geometry": {"type": "Point", "coordinates": [-80.109817, 34.737355]}},
{"type": "Feature", "id": "2mW02diImiekSNy2Rqy_CR318R0=", "properties": {"ref": "136 S. Main St.803-222-3400", "@spider": "pigglywiggly", "addr:full": "136 S. Main St.", "addr:city": "Clover", "addr:state": "SC", "addr:postcode": "29710", "phone": "803-222-3400", "brand": "Piggly Wiggly"}, "geometry": {"type": "Point", "coordinates": [-81.19429, 35.109114]}},
{"type": "Feature", "id": "o5145-8Vzipad3haea8Iw9XA0Ys=", "properties": {"ref": "3818 Devine Street(803) 256-3433", "@spider": "pigglywiggly", "addr:full": "3818 Devine Street", "addr:city": "Columbia", "addr:state": "SC", "addr:postcode": "29205", "phone": "(803) 256-3433", "brand": "Piggly Wiggly"}, "geometry": {"type": "Point", "coordinates": [-80.986898, 33.99596]}},
{"type": "Feature", "id": "Y7BWNKRFR2YnI4zjTOFak4jbSSM=", "properties": {"ref": "6325 N Main St(803) 786-1338", "@spider": "pigglywiggly", "addr:full": "6325 N Main St", "addr:city": "Columbia", "addr:state": "SC", "addr:postcode": "29203", "phone": "(803) 786-1338", "brand": "Piggly Wiggly"}, "geometry": {"type": "Point", "coordinates": [-81.008101, 34.063439]}},
{"type": "Feature", "id": "wUdUQHOLsjdxbMV60eG7HUHKdxU=", "properties": {"ref": "401 Pearl Street(843) 393-2872", "@spider": "pigglywiggly", "addr:full": "401 Pearl Street", "addr:city": "Darlington", "addr:state": "SC", "addr:postcode": "29532", "phone": "(843) 393-2872", "brand": "Piggly Wiggly"}, "geometry": {"type": "Point", "coordinates": [-79.874975, 34.300685]}},
{"type": "Feature", "id": "Vum1ON9pH5RrZfm5FQHMeRJbuVE=", "properties": {"ref": "18147 Heritage HWY(803) 793-3270", "@spider": "pigglywiggly", "addr:full": "18147 Heritage HWY", "addr:city": "Denmark", "addr:state": "SC", "addr:postcode": "29042", "phone": "(803) 793-3270", "brand": "Piggly Wiggly"}, "geometry": {"type": "Point", "coordinates": [-81.133038, 33.324988]}},
{"type": "Feature", "id": "t0_HEzZC9iwSkvun3qqOVF9TACs=", "properties": {"ref": "4000 Emerson Ave304-424-6746", "@spider": "pigglywiggly", "addr:full": "4000 Emerson Ave", "addr:city": "Parkersburg", "addr:state": "WV", "addr:postcode": "26104", "phone": "304-424-6746", "brand": "Piggly Wiggly"}, "geometry": {"type": "Point", "coordinates": [-81.52639, 39.285724]}},
{"type": "Feature", "id": "c1n0YM_hwnotRBRoDWpaxECUuAs=", "properties": {"ref": "305 3rd Street(304) 675-5872", "@spider": "pigglywiggly", "addr:full": "305 3rd Street", "addr:city": "Point Pleasant", "addr:state": "WV", "addr:postcode": "25550", "phone": "(304) 675-5872", "brand": "Piggly Wiggly"}, "geometry": {"type": "Point", "coordinates": [-82.137178, 38.84031]}},
{"type": "Feature", "id": "qiORH7IIPwzvQ7Bo31Yrtty2ypU=", "properties": {"ref": "2649 Grand Central Ave3042959569", "@spider": "pigglywiggly", "addr:full": "2649 Grand Central Ave", "addr:city": "Vienna", "addr:state": "WV", "addr:postcode": "26105", "phone": "3042959569", "brand": "Piggly Wiggly"}, "geometry": {"type": "Point", "coordinates": [-81.54206, 39.323907]}},
{"type": "Feature", "id": "MzH4tRrGYfaAdocDfQnYCQXVUFc=", "properties": {"ref": "4720 Moffett Rd251-344-4548", "@spider": "pigglywiggly", "addr:full": "4720 Moffett Rd", "addr:city": "Mobile", "addr:state": "AL", "addr:postcode": "36618", "phone": "251-344-4548", "brand": "Piggly Wiggly"}, "geometry": {"type": "Point", "coordinates": [-88.149805, 30.721386]}},
{"type": "Feature", "id": "nTZghiZub-nlFBpVpYyQH9wQwAg=", "properties": {"ref": "12536 Sandford St(252) 235-3261", "@spider": "pigglywiggly", "addr:full": "12536 Sandford St", "addr:city": "Bailey", "addr:state": "NC", "addr:postcode": "27807", "phone": "(252) 235-3261", "brand": "Piggly Wiggly"}, "geometry": {"type": "Point", "coordinates": [-78.120293, 35.77898]}},
{"type": "Feature", "id": "jKG-uv4E-oUeJgmn9vHZaxuXQe4=", "properties": {"ref": "1500 Live Oak St(252) 728-7262", "@spider": "pigglywiggly", "addr:full": "1500 Live Oak St", "addr:city": "Beaufort", "addr:state": "NC", "addr:postcode": "28516", "phone": "(252) 728-7262", "brand": "Piggly Wiggly"}, "geometry": {"type": "Point", "coordinates": [-76.647174, 34.72463]}},
{"type": "Feature", "id": "NcEkpTlUXNn3Cp4e4TBjgTHrLH4=", "properties": {"ref": "300 N Main St(919) 258-3531", "@spider": "pigglywiggly", "addr:full": "300 N Main St", "addr:city": "Broadway", "addr:state": "NC", "addr:postcode": "27505", "phone": "(919) 258-3531", "brand": "Piggly Wiggly"}, "geometry": {"type": "Point", "coordinates": [-79.058062, 35.461431]}},
{"type": "Feature", "id": "qEmrDEG8sj1NQByYpJYreZjfDU0=", "properties": {"ref": "103 S Dudley St(910) 259-3373", "@spider": "pigglywiggly", "addr:full": "103 S Dudley St", "addr:city": "Burgaw", "addr:state": "NC", "addr:postcode": "28425", "phone": "(910) 259-3373", "brand": "Piggly Wiggly"}, "geometry": {"type": "Point", "coordinates": [-77.929607, 34.550138]}},
{"type": "Feature", "id": "SsgyXVINlPowYBa0fux4BV6Mym8=", "properties": {"ref": "509 S Parker St(252) 236-4646", "@spider": "pigglywiggly", "addr:full": "509 S Parker St", "addr:city": "Elm City", "addr:state": "NC", "addr:postcode": "27822", "phone": "(252) 236-4646", "brand": "Piggly Wiggly"}, "geometry": {"type": "Point", "coordinates": [-77.863101, 35.80075]}},
{"type": "Feature", "id": "tAdL-fUy1pQ1n9oK3Ou_OiYvgoM=", "properties": {"ref": "3686 E Wilson St(252) 753-3445", "@spider": "pigglywiggly", "addr:full": "3686 E Wilson St", "addr:city": "Farmville", "addr:state": "NC", "addr:postcode": "27893", "phone": "(252) 753-3445", "brand": "Piggly Wiggly"}, "geometry": {"type": "Point", "coordinates": [-77.584239, 35.596985]}},
{"type": "Feature", "id": "0PvlbV1rX08eTnOGtb0oRjwDvYU=", "properties": {"ref": "1945 West Palmetto St.(843) 661-5323", "@spider": "pigglywiggly", "addr:full": "1945 West Palmetto St.", "addr:city": "Florence", "addr:state": "SC", "addr:postcode": "29501", "phone": "(843) 661-5323", "brand": "Piggly Wiggly"}, "geometry": {"type": "Point", "coordinates": [-79.810665, 34.188195]}},
{"type": "Feature", "id": "cOy1xhu_3v04vw-qYRdS9cxTUQc=", "properties": {"ref": "221 Cherokee Road(843) 662-5605", "@spider": "pigglywiggly", "addr:full": "221 Cherokee Road", "addr:city": "Florence", "addr:state": "SC", "addr:postcode": "29501", "phone": "(843) 662-5605", "brand": "Piggly Wiggly"}, "geometry": {"type": "Point", "coordinates": [-79.76846, 34.184266]}},
{"type": "Feature", "id": "32Q-VlVJuvPUR6gJl6cmYpnukOc=", "properties": {"ref": "1620 High Market St(843) 546-5445", "@spider": "pigglywiggly", "addr:full": "1620 High Market St", "addr:city": "Georgetown", "addr:state": "SC", "addr:postcode": "29440", "phone": "(843) 546-5445", "brand": "Piggly Wiggly"}, "geometry": {"type": "Point", "coordinates": [-79.32638, 33.38934]}},
{"type": "Feature", "id": "228JZ0usQ9BpmdGNgbORqpFHsi4=", "properties": {"ref": "1160 S Main St(864) 229-1178", "@spider": "pigglywiggly", "addr:full": "1160 S Main St", "addr:city": "Greenwood", "addr:state": "SC", "addr:postcode": "29646", "phone": "(864) 229-1178", "brand": "Piggly Wiggly"}, "geometry": {"type": "Point", "coordinates": [-82.155643, 34.179665]}},
{"type": "Feature", "id": "6biwUIcgiIIc5w-GkufBHuQZvp4=", "properties": {"ref": "810 E Elm St(803) 943-2556", "@spider": "pigglywiggly", "addr:full": "810 E Elm St", "addr:city": "Hampton", "addr:state": "SC", "addr:postcode": "29924", "phone": "(803) 943-2556", "brand": "Piggly Wiggly"}, "geometry": {"type": "Point", "coordinates": [-81.097338, 32.858691]}},
{"type": "Feature", "id": "UiIQU5LaE2NZa1HBPkxL-4kXgWY=", "properties": {"ref": "1270 Yeamans Hall Road(843) 747-6373", "@spider": "pigglywiggly", "addr:full": "1270 Yeamans Hall Road", "addr:city": "Hanahan", "addr:state": "SC", "addr:postcode": "29410", "phone": "(843) 747-6373", "brand": "Piggly Wiggly"}, "geometry": {"type": "Point", "coordinates": [-80.011006, 32.901275]}},
{"type": "Feature", "id": "gR_tnc24gzwhVYy-v510yM6q7l4=", "properties": {"ref": "7 Main St(843) 784-3201", "@spider": "pigglywiggly", "addr:full": "7 Main St", "addr:city": "Hardeeville", "addr:state": "SC", "addr:postcode": "29927", "phone": "(843) 784-3201", "brand": "Piggly Wiggly"}, "geometry": {"type": "Point", "coordinates": [-81.080232, 32.287158]}},
{"type": "Feature", "id": "Ttu2BRSZAvtZlEQaTcJgTerUvbg=", "properties": {"ref": "842 S Fifth Street(843) 332-8241", "@spider": "pigglywiggly", "addr:full": "842 S Fifth Street", "addr:city": "Hartsville", "addr:state": "SC", "addr:postcode": "29550", "phone": "(843) 332-8241", "brand": "Piggly Wiggly"}, "geometry": {"type": "Point", "coordinates": [-80.067587, 34.363968]}},
{"type": "Feature", "id": "7i81lNwEWxxOguBkedlYT4Jmlyk=", "properties": {"ref": "2601 #20 Dauphin Island Parkway251-471-2012", "@spider": "pigglywiggly", "addr:full": "2601 #20 Dauphin Island Parkway", "addr:city": "Mobile", "addr:state": "AL", "addr:postcode": "36605", "phone": "251-471-2012", "brand": "Piggly Wiggly"}, "geometry": {"type": "Point", "coordinates": [-88.080352, 30.621286]}},
{"type": "Feature", "id": "XjvsvWkUY-GSSEa_48Cc4bTtSdc=", "properties": {"ref": "2204 Halls Mill Road251-479-0676", "@spider": "pigglywiggly", "addr:full": "2204 Halls Mill Road", "addr:city": "Mobile", "addr:state": "AL", "addr:postcode": "36606", "phone": "251-479-0676", "brand": "Piggly Wiggly"}, "geometry": {"type": "Point", "coordinates": [-88.10249, 30.674057]}},
{"type": "Feature", "id": "nBgBH4wkpUgMDN_9B5MNnlCfdU0=", "properties": {"ref": "918 S.A. Ave(251) 575-3136", "@spider": "pigglywiggly", "addr:full": "918 S.A. Ave", "addr:city": "Monroeville", "addr:state": "AL", "addr:postcode": "36460", "phone": "(251) 575-3136", "brand": "Piggly Wiggly"}, "geometry": {"type": "Point", "coordinates": [-87.284505, 31.514968]}},
{"type": "Feature", "id": "ne1DAEgEfZ61jGEGNePiRK9HLCU=", "properties": {"ref": "15 West Fairview Ave(334) 269-9236", "@spider": "pigglywiggly", "addr:full": "15 West Fairview Ave", "addr:city": "Montgomery", "addr:state": "AL", "addr:postcode": "36105", "phone": "(334) 269-9236", "brand": "Piggly Wiggly"}, "geometry": {"type": "Point", "coordinates": [-86.309708, 32.351576]}},
{"type": "Feature", "id": "c6Vy-VnuMy07nck5AIyiXmYrAc0=", "properties": {"ref": "3881 Atlanta Highway334-271-0757", "@spider": "pigglywiggly", "addr:full": "3881 Atlanta Highway", "addr:city": "Montgomery", "addr:state": "AL", "addr:postcode": "36117", "phone": "334-271-0757", "brand": "Piggly Wiggly"}, "geometry": {"type": "Point", "coordinates": [-86.16443, 32.373714]}},
{"type": "Feature", "id": "h53BMs0JmMMWlpiLrQz3KNCOIsk=", "properties": {"ref": "3800 River Run Drive(205) 776-8755", "@spider": "pigglywiggly", "addr:full": "3800 River Run Drive", "addr:city": "Mountain Brook", "addr:state": "AL", "addr:postcode": "35243", "phone": "(205) 776-8755", "brand": "Piggly Wiggly"}, "geometry": {"type": "Point", "coordinates": [-86.711791, 33.481641]}},
{"type": "Feature", "id": "mIw57ffuQTdpg273BK5Jb39FxKE=", "properties": {"ref": "41 Church Street(205) 802-9078", "@spider": "pigglywiggly", "addr:full": "41 Church Street", "addr:city": "Mountain Brook", "addr:state": "AL", "addr:postcode": "35214", "phone": "(205) 802-9078", "brand": "Piggly Wiggly"}, "geometry": {"type": "Point", "coordinates": [-86.89199, 33.558772]}},
{"type": "Feature", "id": "s0gTYcWaM2RWM-QSeB9UlhEE1C0=", "properties": {"ref": "19180 Highway 43 North251-829-6977", "@spider": "pigglywiggly", "addr:full": "19180 Highway 43 North", "addr:city": "Mt. Vernon", "addr:state": "AL", "addr:postcode": "36560", "phone": "251-829-6977", "brand": "Piggly Wiggly"}, "geometry": {"type": "Point", "coordinates": [-88.013333, 31.085178]}},
{"type": "Feature", "id": "NzF64H5PgIjFGT55SGHhl8c66pc=", "properties": {"ref": "44 S Ingold Ave.(910) 529-4081", "@spider": "pigglywiggly", "addr:full": "44 S Ingold Ave.", "addr:city": "Garland", "addr:state": "NC", "addr:postcode": "28441", "phone": "(910) 529-4081", "brand": "Piggly Wiggly"}, "geometry": {"type": "Point", "coordinates": [-78.394669, 34.785782]}},
{"type": "Feature", "id": "gDsATWt7yYbyAcvtV5FqgWDR2dc=", "properties": {"ref": "Coligny Plaza 1 North Forest Beach Dr.(843) 785-3881", "@spider": "pigglywiggly", "addr:full": "Coligny Plaza 1 North Forest Beach Dr.", "addr:city": "Hilton Head", "addr:state": "SC", "addr:postcode": "29928", "phone": "(843) 785-3881", "brand": "Piggly Wiggly"}, "geometry": {"type": "Point", "coordinates": [-80.749887, 32.144077]}},
{"type": "Feature", "id": "RBrXmYvGjgSlkgQzUZnnTnY3-YI=", "properties": {"ref": "8508 Old State Road(803) 496-3315", "@spider": "pigglywiggly", "addr:full": "8508 Old State Road", "addr:city": "Holly Hill", "addr:state": "SC", "addr:postcode": "29059", "phone": "(803) 496-3315", "brand": "Piggly Wiggly"}, "geometry": {"type": "Point", "coordinates": [-80.414145, 33.323201]}},
{"type": "Feature", "id": "X33NjecAArwJZFF_7WNDstqU_qc=", "properties": {"ref": "6251 Hwy 162(843) 889-2267", "@spider": "pigglywiggly", "addr:full": "6251 Hwy 162", "addr:city": "Hollywood", "addr:state": "SC", "addr:postcode": "29449", "phone": "(843) 889-2267", "brand": "Piggly Wiggly"}, "geometry": {"type": "Point", "coordinates": [-80.237885, 32.733905]}},
{"type": "Feature", "id": "jelp7U2ntFIzNuQ3AwdNtC1VWyM=", "properties": {"ref": "365 S. Georgetown Hwy.(843) 386-9248", "@spider": "pigglywiggly", "addr:full": "365 S. Georgetown Hwy.", "addr:city": "Johnsonville", "addr:state": "SC", "addr:postcode": "29555", "phone": "(843) 386-9248", "brand": "Piggly Wiggly"}, "geometry": {"type": "Point", "coordinates": [-79.444097, 33.8111]}},
{"type": "Feature", "id": "hhll-ugJhWNpoeilU2wgKPgFDzo=", "properties": {"ref": "100 Railroad Avenue(843) 326-7117", "@spider": "pigglywiggly", "addr:full": "100 Railroad Avenue", "addr:city": "Lamar", "addr:state": "SC", "addr:postcode": "29069", "phone": "(843) 326-7117", "brand": "Piggly Wiggly"}, "geometry": {"type": "Point", "coordinates": [-80.065385, 34.169726]}},
{"type": "Feature", "id": "z-fw7SBcCsMQbwWzzDuUSdW7hFI=", "properties": {"ref": "223 E. Main St.(731) 632-0785", "@spider": "pigglywiggly", "addr:full": "223 E. Main St.", "addr:city": "Adamsville", "addr:state": "TN", "addr:postcode": "38310", "phone": "(731) 632-0785", "brand": "Piggly Wiggly"}, "geometry": {"type": "Point", "coordinates": [-88.387662, 35.235033]}},
{"type": "Feature", "id": "oTC7MZBj3GzVrIwebc3nt2VpNig=", "properties": {"ref": "10199 Highway 431(256) 723-4142", "@spider": "pigglywiggly", "addr:full": "10199 Highway 431", "addr:city": "New Hope", "addr:state": "AL", "addr:postcode": "35760", "phone": "(256) 723-4142", "brand": "Piggly Wiggly"}, "geometry": {"type": "Point", "coordinates": [-86.429505, 34.548347]}},
{"type": "Feature", "id": "oAC2b8wvvCqa7cY0SH79EcBgvG4=", "properties": {"ref": "13711 Highway 22 East256-329-9932", "@spider": "pigglywiggly", "addr:full": "13711 Highway 22 East", "addr:city": "New Site", "addr:state": "AL", "addr:postcode": "36256", "phone": "256-329-9932", "brand": "Piggly Wiggly"}, "geometry": {"type": "Point", "coordinates": [-85.69962, 33.032076]}},
{"type": "Feature", "id": "ESni4DVXcyWYJ-BOqj6eFGGcDFs=", "properties": {"ref": "2001 Lurleen Wallace Blvd Ste 2(205) 339-7300", "@spider": "pigglywiggly", "addr:full": "2001 Lurleen Wallace Blvd Ste 2", "addr:city": "Northport", "addr:state": "AL", "addr:postcode": "35476", "phone": "(205) 339-7300", "brand": "Piggly Wiggly"}, "geometry": {"type": "Point", "coordinates": [-87.575539, 33.229826]}},
{"type": "Feature", "id": "aHupO5wcZbGN4qbNQcNcfsVBoBQ=", "properties": {"ref": "100 A Council Drive(205) 629-6390", "@spider": "pigglywiggly", "addr:full": "100 A Council Drive", "addr:city": "Odenville", "addr:state": "AL", "addr:postcode": "35120", "phone": "(205) 629-6390", "brand": "Piggly Wiggly"}, "geometry": {"type": "Point", "coordinates": [-86.405726, 33.676796]}},
{"type": "Feature", "id": "kB5VYefHtrlpwqJwnUajHigviyc=", "properties": {"ref": "1515 2nd Avenue Suite A334-742-1119", "@spider": "pigglywiggly", "addr:full": "1515 2nd Avenue Suite A", "addr:city": "Opelika", "addr:state": "AL", "addr:postcode": "36801", "phone": "334-742-1119", "brand": "Piggly Wiggly"}, "geometry": {"type": "Point", "coordinates": [-85.390797, 32.642412]}},
{"type": "Feature", "id": "cyS5zZ2RXYreBNU0clX01ZuHeXs=", "properties": {"ref": "288 North Union Avenue334-774-9333", "@spider": "pigglywiggly", "addr:full": "288 North Union Avenue", "addr:city": "Ozark", "addr:state": "AL", "addr:postcode": "36360", "phone": "334-774-9333", "brand": "Piggly Wiggly"}, "geometry": {"type": "Point", "coordinates": [-85.62908, 31.447119]}},
{"type": "Feature", "id": "ZifOpPWAWiNuTF1Uk_fISp7yL0Y=", "properties": {"ref": "1130 Hwy 280 Bypass(334) 291-7656", "@spider": "pigglywiggly", "addr:full": "1130 Hwy 280 Bypass", "addr:city": "Phenix City", "addr:state": "AL", "addr:postcode": "36867", "phone": "(334) 291-7656", "brand": "Piggly Wiggly"}, "geometry": {"type": "Point", "coordinates": [-85.0263, 32.3436]}},
{"type": "Feature", "id": "-s8n_kaTGcc21ATDqt2-PXEW8Tw=", "properties": {"ref": "1837 Stadium Drive(334) 297-7410", "@spider": "pigglywiggly", "addr:full": "1837 Stadium Drive", "addr:city": "Phenix City", "addr:state": "AL", "addr:postcode": "36867", "phone": "(334) 297-7410", "brand": "Piggly Wiggly"}, "geometry": {"type": "Point", "coordinates": [-85.018063, 32.496951]}},
{"type": "Feature", "id": "Gx5fmv4MNzwHbdUQ1UJWLW62G8E=", "properties": {"ref": "100 N Lionel St(919) 731-2709", "@spider": "pigglywiggly", "addr:full": "100 N Lionel St", "addr:city": "Goldsboro", "addr:state": "NC", "addr:postcode": "27530", "phone": "(919) 731-2709", "brand": "Piggly Wiggly"}, "geometry": {"type": "Point", "coordinates": [-77.985701, 35.379697]}},
{"type": "Feature", "id": "N6y05K7xUHP-5sgY8UExx2IZsWQ=", "properties": {"ref": "2105 Dickinson Ave(252) 756-3791", "@spider": "pigglywiggly", "addr:full": "2105 Dickinson Ave", "addr:city": "Greenville", "addr:state": "NC", "addr:postcode": "27834", "phone": "(252) 756-3791", "brand": "Piggly Wiggly"}, "geometry": {"type": "Point", "coordinates": [-77.392015, 35.599787]}},
{"type": "Feature", "id": "63sMm2NQCd1VSVvaxdkvAy72MTY=", "properties": {"ref": "105 Hamlet Ave(910) 582-2304", "@spider": "pigglywiggly", "addr:full": "105 Hamlet Ave", "addr:city": "Hamlet", "addr:state": "NC", "addr:postcode": "28345", "phone": "(910) 582-2304", "brand": "Piggly Wiggly"}, "geometry": {"type": "Point", "coordinates": [-79.697148, 34.88661]}},
{"type": "Feature", "id": "crEeI2M7uPfW6j_VkG6zEDyKt0c=", "properties": {"ref": "2960 Richlands Hwy(910) 455-7800", "@spider": "pigglywiggly", "addr:full": "2960 Richlands Hwy", "addr:city": "Jacksonville", "addr:state": "NC", "addr:postcode": "28540", "phone": "(910) 455-7800", "brand": "Piggly Wiggly"}, "geometry": {"type": "Point", "coordinates": [-77.469713, 34.756355]}},
{"type": "Feature", "id": "HmQLQGjMMW3-ZED4ip3HjgHkPUM=", "properties": {"ref": "607 W 2Nd St.(919) 284-4111", "@spider": "pigglywiggly", "addr:full": "607 W 2Nd St.", "addr:city": "Kenly", "addr:state": "NC", "addr:postcode": "27542", "phone": "(919) 284-4111", "brand": "Piggly Wiggly"}, "geometry": {"type": "Point", "coordinates": [-78.128063, 35.59958]}},
{"type": "Feature", "id": "LOZhen588G7ZH-1Er0PhBcAu9VM=", "properties": {"ref": "2240 Highway 258 N(252) 522-1953", "@spider": "pigglywiggly", "addr:full": "2240 Highway 258 N", "addr:city": "Kinston", "addr:state": "NC", "addr:postcode": "28504", "phone": "(252) 522-1953", "brand": "Piggly Wiggly"}, "geometry": {"type": "Point", "coordinates": [-77.64783, 35.297326]}},
{"type": "Feature", "id": "8YqmaQN6HsBLmAVT2Zw7etOxHsg=", "properties": {"ref": "2407 D Heritage St (#78)(252) 527-0469", "@spider": "pigglywiggly", "addr:full": "2407 D Heritage St (#78)", "addr:city": "Kinston", "addr:state": "NC", "addr:postcode": "28501", "phone": "(252) 527-0469", "brand": "Piggly Wiggly"}, "geometry": {"type": "Point", "coordinates": [-77.582678, 35.26261]}},
{"type": "Feature", "id": "VoytWMLBat-KmosXcXA3AJsizVY=", "properties": {"ref": "760 US-378803-996-3141", "@spider": "pigglywiggly", "addr:full": "760 US-378", "addr:city": "Lexington", "addr:state": "SC", "addr:postcode": "29072", "phone": "803-996-3141", "brand": "Piggly Wiggly"}, "geometry": {"type": "Point", "coordinates": [-81.25047, 33.991362]}},
{"type": "Feature", "id": "tJA3r9DfIsPzkI8oVyeLaN0M248=", "properties": {"ref": "36 Sunset Drive(803) 433-2118", "@spider": "pigglywiggly", "addr:full": "36 Sunset Drive", "addr:city": "Manning", "addr:state": "SC", "addr:postcode": "29102", "phone": "(803) 433-2118", "brand": "Piggly Wiggly"}, "geometry": {"type": "Point", "coordinates": [-80.21128, 33.691253]}},
{"type": "Feature", "id": "ZQ71NXJMmM4-q4sXzgxCU9sd_YM=", "properties": {"ref": "100 W Main Street(843) 761-8610", "@spider": "pigglywiggly", "addr:full": "100 W Main Street", "addr:city": "Moncks Corner", "addr:state": "SC", "addr:postcode": "29461", "phone": "(843) 761-8610", "brand": "Piggly Wiggly"}, "geometry": {"type": "Point", "coordinates": [-80.013825, 33.196371]}},
{"type": "Feature", "id": "8tMOPuRGm7n00z7-iFhGgBufpkQ=", "properties": {"ref": "1700 Kings Highway(843) 448-4813", "@spider": "pigglywiggly", "addr:full": "1700 Kings Highway", "addr:city": "Myrtle Beach", "addr:state": "SC", "addr:postcode": "29577", "phone": "(843) 448-4813", "brand": "Piggly Wiggly"}, "geometry": {"type": "Point", "coordinates": [-78.874725, 33.699591]}},
{"type": "Feature", "id": "QaJmE3Eg1gGDXJSmjG9qPBWNoqk=", "properties": {"ref": "6611 Savannah Hwy(803) 247-2126", "@spider": "pigglywiggly", "addr:full": "6611 Savannah Hwy", "addr:city": "Neeses", "addr:state": "SC", "addr:postcode": "29107", "phone": "(803) 247-2126", "brand": "Piggly Wiggly"}, "geometry": {"type": "Point", "coordinates": [-81.119649, 33.526206]}},
{"type": "Feature", "id": "Tx7f5rgALCYgpkH3GPX4Y0CIy6o=", "properties": {"ref": "204 N Cambridge(864) 543-2429", "@spider": "pigglywiggly", "addr:full": "204 N Cambridge", "addr:city": "Ninety-Six", "addr:state": "SC", "addr:postcode": "29666", "phone": "(864) 543-2429", "brand": "Piggly Wiggly"}, "geometry": {"type": "Point", "coordinates": [-82.023382, 34.177813]}},
{"type": "Feature", "id": "bCSanoDNcWT-NZhybsI9czhH1RE=", "properties": {"ref": "8780-A Rivers Avenue(843) 764-3039", "@spider": "pigglywiggly", "addr:full": "8780-A Rivers Avenue", "addr:city": "North Charleston", "addr:state": "SC", "addr:postcode": "29406", "phone": "(843) 764-3039", "brand": "Piggly Wiggly"}, "geometry": {"type": "Point", "coordinates": [-80.043804, 32.967361]}},
{"type": "Feature", "id": "nQGZLKKIwo40lOND-GalXo1EA70=", "properties": {"ref": "2526 Old Edisto Drive(803) 533-1329", "@spider": "pigglywiggly", "addr:full": "2526 Old Edisto Drive", "addr:city": "Orangeburg", "addr:state": "SC", "addr:postcode": "29115", "phone": "(803) 533-1329", "brand": "Piggly Wiggly"}, "geometry": {"type": "Point", "coordinates": [-80.898542, 33.481044]}},
{"type": "Feature", "id": "f63ensRTknluy6d8I5oY7hPmT40=", "properties": {"ref": "26257 Main Street(913) 427-3100", "@spider": "pigglywiggly", "addr:full": "26257 Main Street", "addr:city": "Ardmore", "addr:state": "TN", "addr:postcode": "38449", "phone": "(913) 427-3100", "brand": "Piggly Wiggly"}, "geometry": {"type": "Point", "coordinates": [-86.857034, 34.99555]}},
{"type": "Feature", "id": "D7OSExFlaE1q3B3ge649-pyHu8c=", "properties": {"ref": "124 West Main Street731-742-2300", "@spider": "pigglywiggly", "addr:full": "124 West Main Street", "addr:city": "Bradford", "addr:state": "TN", "addr:postcode": "38316", "phone": "731-742-2300", "brand": "Piggly Wiggly"}, "geometry": {"type": "Point", "coordinates": [-88.81209, 36.067294]}},
{"type": "Feature", "id": "EId8LM_H1sUfdFgLmT3K4LYlCBU=", "properties": {"ref": "8541 Hiwassee Street Northwest423-665-3307", "@spider": "pigglywiggly", "addr:full": "8541 Hiwassee Street Northwest", "addr:city": "Charleston", "addr:state": "TN", "addr:postcode": "37310", "phone": "423-665-3307", "brand": "Piggly Wiggly"}, "geometry": {"type": "Point", "coordinates": [-84.760694, 35.283258]}},
{"type": "Feature", "id": "SdJd_ulMU8Mqxic7rsd4x0sY2Z0=", "properties": {"ref": "3441 Fort Campbell Blvd(931) 431-3656", "@spider": "pigglywiggly", "addr:full": "3441 Fort Campbell Blvd", "addr:city": "Clarksville", "addr:state": "TN", "addr:postcode": "37042", "phone": "(931) 431-3656", "brand": "Piggly Wiggly"}, "geometry": {"type": "Point", "coordinates": [-87.436113, 36.640287]}},
{"type": "Feature", "id": "U2xg_8DSCgdjN8kgHlxPXWsoqUI=", "properties": {"ref": "314 Hwy 13 South(931) 724-9112", "@spider": "pigglywiggly", "addr:full": "314 Hwy 13 South", "addr:city": "Collinwood", "addr:state": "TN", "addr:postcode": "38450", "phone": "(931) 724-9112", "brand": "Piggly Wiggly"}, "geometry": {"type": "Point", "coordinates": [-87.73955, 35.172295]}},
{"type": "Feature", "id": "g-pr0U__aJVnFVe-oA0daWVaFk0=", "properties": {"ref": "1412 Trotwood Ave.(931) 540-8272", "@spider": "pigglywiggly", "addr:full": "1412 Trotwood Ave.", "addr:city": "Columbia", "addr:state": "TN", "addr:postcode": "38401", "phone": "(931) 540-8272", "brand": "Piggly Wiggly"}, "geometry": {"type": "Point", "coordinates": [-87.077066, 35.599806]}},
{"type": "Feature", "id": "N4fFnvckxL4BZJA8klHmnw7d0zs=", "properties": {"ref": "7838 Highway 25 East615-654-2588", "@spider": "pigglywiggly", "addr:full": "7838 Highway 25 East", "addr:city": "Cross Plains", "addr:state": "TN", "addr:postcode": "37049", "phone": "615-654-2588", "brand": "Piggly Wiggly"}, "geometry": {"type": "Point", "coordinates": [-86.693805, 36.548513]}},
{"type": "Feature", "id": "SQR0ZKrH8VQaCAs6BDhhVqX0icI=", "properties": {"ref": "512 13Th Street(334) 291-0846", "@spider": "pigglywiggly", "addr:full": "512 13Th Street", "addr:city": "Phenix City", "addr:state": "AL", "addr:postcode": "36867", "phone": "(334) 291-0846", "brand": "Piggly Wiggly"}, "geometry": {"type": "Point", "coordinates": [-85.011232, 32.470984]}},
{"type": "Feature", "id": "nNV8yBQBHw11-pyyvEk1JDgl8KY=", "properties": {"ref": "3265 Broad St(205) 993-5827", "@spider": "pigglywiggly", "addr:full": "3265 Broad St", "addr:city": "Phil Campbell", "addr:state": "AL", "addr:postcode": "35565", "phone": "(205) 993-5827", "brand": "Piggly Wiggly"}, "geometry": {"type": "Point", "coordinates": [-87.703599, 34.346488]}},
{"type": "Feature", "id": "tqdnevVu2IH81RPq20gJHj6lIVE=", "properties": {"ref": "518 Fourth Ave South(256) 356-4406", "@spider": "pigglywiggly", "addr:full": "518 Fourth Ave South", "addr:city": "Red Bay", "addr:state": "AL", "addr:postcode": "35582", "phone": "(256) 356-4406", "brand": "Piggly Wiggly"}, "geometry": {"type": "Point", "coordinates": [-88.138438, 34.438698]}},
{"type": "Feature", "id": "8DoHRXstcSgLo4KXzEeJVrbf2WM=", "properties": {"ref": "719 Highway 43 South251-675-7200", "@spider": "pigglywiggly", "addr:full": "719 Highway 43 South", "addr:city": "Saraland", "addr:state": "AL", "addr:postcode": "36751", "phone": "251-675-7200", "brand": "Piggly Wiggly"}, "geometry": {"type": "Point", "coordinates": [-87.55005, 31.833493]}},
{"type": "Feature", "id": "SVuJIRnowDcpHFVqdtU06O1o4jY=", "properties": {"ref": "101 County Park Rd(256) 574-4175", "@spider": "pigglywiggly", "addr:full": "101 County Park Rd", "addr:city": "Scottsboro", "addr:state": "AL", "addr:postcode": "35768", "phone": "(256) 574-4175", "brand": "Piggly Wiggly"}, "geometry": {"type": "Point", "coordinates": [-86.035955, 34.651027]}},
{"type": "Feature", "id": "fG5uxetPj_WY37csGAZbaioJlkM=", "properties": {"ref": "87354 Highway 278 East(205) 466-7972", "@spider": "pigglywiggly", "addr:full": "87354 Highway 278 East", "addr:city": "Snead", "addr:state": "AL", "addr:postcode": "35952", "phone": "(205) 466-7972", "brand": "Piggly Wiggly"}, "geometry": {"type": "Point", "coordinates": [-86.39201, 34.11761]}},
{"type": "Feature", "id": "PI049HknpPqhUV_KfxdKRmKBrAM=", "properties": {"ref": "6530 Spanish Fort Blvd.251-308-9584", "@spider": "pigglywiggly", "addr:full": "6530 Spanish Fort Blvd.", "addr:city": "Spanish Fort Blvd.", "addr:state": "AL", "addr:postcode": "36527", "phone": "251-308-9584", "brand": "Piggly Wiggly"}, "geometry": {"type": "Point", "coordinates": [-87.89723, 30.684873]}},
{"type": "Feature", "id": "KGPWy88uj1T0KM5oPyc3I7mzeYE=", "properties": {"ref": "1244 N Talladega Highway(256) 249-4836", "@spider": "pigglywiggly", "addr:full": "1244 N Talladega Highway", "addr:city": "Sylacauga", "addr:state": "AL", "addr:postcode": "35150", "phone": "(256) 249-4836", "brand": "Piggly Wiggly"}, "geometry": {"type": "Point", "coordinates": [-86.243209, 33.184448]}},
{"type": "Feature", "id": "TCNS58Id5CIoG0OQZ01xWN0X-t0=", "properties": {"ref": "2715 Hwy 11-55 W(252) 527-8753", "@spider": "pigglywiggly", "addr:full": "2715 Hwy 11-55 W", "addr:city": "Kinston", "addr:state": "NC", "addr:postcode": "28501", "phone": "(252) 527-8753", "brand": "Piggly Wiggly"}, "geometry": {"type": "Point", "coordinates": [-77.536615, 35.298484]}},
{"type": "Feature", "id": "h-LMNsrI_5lUWITaa0E5B_K9KCk=", "properties": {"ref": "407 E New Bern Rd(252) 527-0761", "@spider": "pigglywiggly", "addr:full": "407 E New Bern Rd", "addr:city": "Kinston", "addr:state": "NC", "addr:postcode": "28504", "phone": "(252) 527-0761", "brand": "Piggly Wiggly"}, "geometry": {"type": "Point", "coordinates": [-77.578456, 35.241673]}},
{"type": "Feature", "id": "HB3knpy44bpgOARYqzB8-zUNYdc=", "properties": {"ref": "604 N Mclewean St(252) 523-2844", "@spider": "pigglywiggly", "addr:full": "604 N Mclewean St", "addr:city": "Kinston", "addr:state": "NC", "addr:postcode": "28501", "phone": "(252) 523-2844", "brand": "Piggly Wiggly"}, "geometry": {"type": "Point", "coordinates": [-77.579331, 35.266883]}},
{"type": "Feature", "id": "_vpLgHcGL59RBd9D_W57oc21YUo=", "properties": {"ref": "229 E Church St(910) 277-8165", "@spider": "pigglywiggly", "addr:full": "229 E Church St", "addr:city": "Laurinburg", "addr:state": "NC", "addr:postcode": "28352", "phone": "(910) 277-8165", "brand": "Piggly Wiggly"}, "geometry": {"type": "Point", "coordinates": [-79.460728, 34.773361]}},
{"type": "Feature", "id": "PBb67LcfPV2wnac0kmhde5ZHfdQ=", "properties": {"ref": "112 A Village St(910) 371-2253", "@spider": "pigglywiggly", "addr:full": "112 A Village St", "addr:city": "Leland", "addr:state": "NC", "addr:postcode": "28451", "phone": "(910) 371-2253", "brand": "Piggly Wiggly"}, "geometry": {"type": "Point", "coordinates": [-77.995725, 34.234743]}},
{"type": "Feature", "id": "pHMbKSL_8csyE6Nk-2yU6vPg5kM=", "properties": {"ref": "234 Hwy 158 East(252) 586-3313", "@spider": "pigglywiggly", "addr:full": "234 Hwy 158 East", "addr:city": "Littleton", "addr:state": "NC", "addr:postcode": "27850", "phone": "(252) 586-3313", "brand": "Piggly Wiggly"}, "geometry": {"type": "Point", "coordinates": [-77.903189, 36.437783]}},
{"type": "Feature", "id": "Kx3IErgvZvD-DP4ld7RlK_DDjes=", "properties": {"ref": "118 SOUTH US 64-264(252) 473-3727", "@spider": "pigglywiggly", "addr:full": "118 SOUTH US 64-264", "addr:city": "MANTEO", "addr:state": "NC", "addr:postcode": "27954", "phone": "(252) 473-3727", "brand": "Piggly Wiggly"}, "geometry": {"type": "Point", "coordinates": [-75.673432, 35.904844]}},
{"type": "Feature", "id": "gqfo8YWfL3wnos1Jflj6qi3pV-E=", "properties": {"ref": "104 S Patterson St(910) 844-3671", "@spider": "pigglywiggly", "addr:full": "104 S Patterson St", "addr:city": "Maxton", "addr:state": "NC", "addr:postcode": "28364", "phone": "(910) 844-3671", "brand": "Piggly Wiggly"}, "geometry": {"type": "Point", "coordinates": [-79.349205, 34.735818]}},
{"type": "Feature", "id": "XGHJmV2LqtUKIsBm-1_o7HbrY30=", "properties": {"ref": "707 Main St(910) 743-4124", "@spider": "pigglywiggly", "addr:full": "707 Main St", "addr:city": "Maysville", "addr:state": "NC", "addr:postcode": "28555", "phone": "(910) 743-4124", "brand": "Piggly Wiggly"}, "geometry": {"type": "Point", "coordinates": [-77.230796, 34.901962]}},
{"type": "Feature", "id": "PU_82JXSgRcgPNBYgXaRy-EQ-ok=", "properties": {"ref": "2060 Columbia Road803-662-9263", "@spider": "pigglywiggly", "addr:full": "2060 Columbia Road", "addr:city": "Orangeburg", "addr:state": "SC", "addr:postcode": "29115", "phone": "803-662-9263", "brand": "Piggly Wiggly"}, "geometry": {"type": "Point", "coordinates": [-80.8564, 33.487767]}},
{"type": "Feature", "id": "6fsX0By40h38Pm8efKtMvf70Oc0=", "properties": {"ref": "1347 Ribaut Road(843) 524-2750", "@spider": "pigglywiggly", "addr:full": "1347 Ribaut Road", "addr:city": "Port Royal", "addr:state": "SC", "addr:postcode": "29935", "phone": "(843) 524-2750", "brand": "Piggly Wiggly"}, "geometry": {"type": "Point", "coordinates": [-80.685166, 32.398927]}},
{"type": "Feature", "id": "Q2JumWHCbWGcYBxGBH9spVM7maE=", "properties": {"ref": "10847 N. Jacob Smart Blvd.(843) 726-8626", "@spider": "pigglywiggly", "addr:full": "10847 N. Jacob Smart Blvd.", "addr:city": "Ridgeland", "addr:state": "SC", "addr:postcode": "29936", "phone": "(843) 726-8626", "brand": "Piggly Wiggly"}, "geometry": {"type": "Point", "coordinates": [-80.980477, 32.481485]}},
{"type": "Feature", "id": "RnumK0Y2egzGqLYxQHfMnj0354g=", "properties": {"ref": "5583 Memorial Blvd(843) 563-4554", "@spider": "pigglywiggly", "addr:full": "5583 Memorial Blvd", "addr:city": "St. George", "addr:state": "SC", "addr:postcode": "29477", "phone": "(843) 563-4554", "brand": "Piggly Wiggly"}, "geometry": {"type": "Point", "coordinates": [-80.577496, 33.187883]}},
{"type": "Feature", "id": "PkQVZSIpu36Stus096w7rpdYf-s=", "properties": {"ref": "615 Harry C Raysor Drive803-456-4154", "@spider": "pigglywiggly", "addr:full": "615 Harry C Raysor Drive", "addr:city": "St. Matthews", "addr:state": "SC", "addr:postcode": "29135", "phone": "803-456-4154", "brand": "Piggly Wiggly"}, "geometry": {"type": "Point", "coordinates": [-80.79563, 33.675533]}},
{"type": "Feature", "id": "ZMpTsUjfnBxOqFiE6bYRxjplu4o=", "properties": {"ref": "404 North Cedar Street(843) 875-4700", "@spider": "pigglywiggly", "addr:full": "404 North Cedar Street", "addr:city": "Summerville", "addr:state": "SC", "addr:postcode": "29483", "phone": "(843) 875-4700", "brand": "Piggly Wiggly"}, "geometry": {"type": "Point", "coordinates": [-80.173547, 33.025193]}},
{"type": "Feature", "id": "7VOF_ntXWXcHWcD9-M10P9ddjkc=", "properties": {"ref": "1011 Broad Street(803) 773-6011", "@spider": "pigglywiggly", "addr:full": "1011 Broad Street", "addr:city": "Sumter", "addr:state": "SC", "addr:postcode": "29150", "phone": "(803) 773-6011", "brand": "Piggly Wiggly"}, "geometry": {"type": "Point", "coordinates": [-80.372382, 33.946472]}},
{"type": "Feature", "id": "0d6fZyLOy6kN7JsJuEhrm9bB4yA=", "properties": {"ref": "114 E Calhoun Street(803) 775-4712", "@spider": "pigglywiggly", "addr:full": "114 E Calhoun Street", "addr:city": "Sumter", "addr:state": "SC", "addr:postcode": "29150", "phone": "(803) 775-4712", "brand": "Piggly Wiggly"}, "geometry": {"type": "Point", "coordinates": [-80.335683, 33.923257]}},
{"type": "Feature", "id": "d3Ey4iC1DWxGbmu3rvOGO_GbalY=", "properties": {"ref": "17619 State Hwy 58 N(423) 334-3338", "@spider": "pigglywiggly", "addr:full": "17619 State Hwy 58 N", "addr:city": "Decatur", "addr:state": "TN", "addr:postcode": "37322", "phone": "(423) 334-3338", "brand": "Piggly Wiggly"}, "geometry": {"type": "Point", "coordinates": [-84.790827, 35.520068]}},
{"type": "Feature", "id": "lmO1EYmY5zDMyj084ZUnLtCepTs=", "properties": {"ref": "1536 Donelson Pkwy(931) 232-7024", "@spider": "pigglywiggly", "addr:full": "1536 Donelson Pkwy", "addr:city": "Dover", "addr:state": "TN", "addr:postcode": "37058", "phone": "(931) 232-7024", "brand": "Piggly Wiggly"}, "geometry": {"type": "Point", "coordinates": [-87.891263, 36.480412]}},
{"type": "Feature", "id": "h1sknZluLlXyIyMGp8EHL3U2P_8=", "properties": {"ref": "3611 West Main St(931) 289-4444", "@spider": "pigglywiggly", "addr:full": "3611 West Main St", "addr:city": "Erin", "addr:state": "TN", "addr:postcode": "37061", "phone": "(931) 289-4444", "brand": "Piggly Wiggly"}, "geometry": {"type": "Point", "coordinates": [-87.712998, 36.316594]}},
{"type": "Feature", "id": "2VWKKts6mFZ9xxOrPdNDrMoGco4=", "properties": {"ref": "740 N Tennessee Ave(423) 263-6465", "@spider": "pigglywiggly", "addr:full": "740 N Tennessee Ave", "addr:city": "Etowah", "addr:state": "TN", "addr:postcode": "37331", "phone": "(423) 263-6465", "brand": "Piggly Wiggly"}, "geometry": {"type": "Point", "coordinates": [-84.521214, 35.339886]}},
{"type": "Feature", "id": "Olo3f2LtjSaLzKf340sykBgbdh4=", "properties": {"ref": "2762-B Huntsville Hwy(931) 433-6772", "@spider": "pigglywiggly", "addr:full": "2762-B Huntsville Hwy", "addr:city": "Fayetteville (Park City)", "addr:state": "TN", "addr:postcode": "37334", "phone": "(931) 433-6772", "brand": "Piggly Wiggly"}, "geometry": {"type": "Point", "coordinates": [-86.573328, 35.068974]}},
{"type": "Feature", "id": "qQLCqCYVcP5oIvYuwCyCrt1MlAg=", "properties": {"ref": "Highway 108(931) 779-3580", "@spider": "pigglywiggly", "addr:full": "Highway 108", "addr:city": "Gruetli-Laager", "addr:state": "TN", "addr:postcode": "37339", "phone": "(931) 779-3580", "brand": "Piggly Wiggly"}, "geometry": {"type": "Point", "coordinates": [-85.630787, 35.368957]}},
{"type": "Feature", "id": "5bGlNoagZB-Re69B6tdMXJ9d3t0=", "properties": {"ref": "1351 N. Fort Williams St.(256) 249-8989", "@spider": "pigglywiggly", "addr:full": "1351 N. Fort Williams St.", "addr:city": "Sylacauga", "addr:state": "AL", "addr:postcode": "35150", "phone": "(256) 249-8989", "brand": "Piggly Wiggly"}, "geometry": {"type": "Point", "coordinates": [-86.269835, 33.166513]}},
{"type": "Feature", "id": "NVtyusb28VAgdDY2dOrIluNMyvI=", "properties": {"ref": "320 W Battle St(256) 362-7949", "@spider": "pigglywiggly", "addr:full": "320 W Battle St", "addr:city": "Talladega", "addr:state": "AL", "addr:postcode": "35160", "phone": "(256) 362-7949", "brand": "Piggly Wiggly"}, "geometry": {"type": "Point", "coordinates": [-86.107333, 33.433789]}},
{"type": "Feature", "id": "h4FnkBoo_b5OLSpY5WnqDiTzhnc=", "properties": {"ref": "1235 Highway 231334-770-7444", "@spider": "pigglywiggly", "addr:full": "1235 Highway 231", "addr:city": "Troy", "addr:state": "AL", "addr:postcode": "36081", "phone": "334-770-7444", "brand": "Piggly Wiggly"}, "geometry": {"type": "Point", "coordinates": [-86.002423, 31.865165]}},
{"type": "Feature", "id": "yVjl60aj40Vfd6OMZD8TTY8xTYk=", "properties": {"ref": "710 North Three Notch Street(334) 566-0127", "@spider": "pigglywiggly", "addr:full": "710 North Three Notch Street", "addr:city": "Troy", "addr:state": "AL", "addr:postcode": "36081", "phone": "(334) 566-0127", "brand": "Piggly Wiggly"}, "geometry": {"type": "Point", "coordinates": [-85.970969, 31.81378]}},
{"type": "Feature", "id": "YNW0FC9RXvqtKogFXGWcL9dXA1o=", "properties": {"ref": "1503 Culver Road205-345-1467", "@spider": "pigglywiggly", "addr:full": "1503 Culver Road", "addr:city": "Tuscaloosa", "addr:state": "AL", "addr:postcode": "35401", "phone": "205-345-1467", "brand": "Piggly Wiggly"}, "geometry": {"type": "Point", "coordinates": [-87.588735, 33.200941]}},
{"type": "Feature", "id": "KnwOJhFqrPxF9JPVmfnl821ZOss=", "properties": {"ref": "615 N Breazeale Ave(919) 658-9628", "@spider": "pigglywiggly", "addr:full": "615 N Breazeale Ave", "addr:city": "Mount Olive", "addr:state": "NC", "addr:postcode": "28365", "phone": "(919) 658-9628", "brand": "Piggly Wiggly"}, "geometry": {"type": "Point", "coordinates": [-78.065479, 35.201998]}},
{"type": "Feature", "id": "p-Ei0USwyIpIQYG0Y7A-GTbiwe4=", "properties": {"ref": "731 E. Washington Street252-220-6515", "@spider": "pigglywiggly", "addr:full": "731 E. Washington Street", "addr:city": "Nashville", "addr:state": "NC", "addr:postcode": "27856", "phone": "252-220-6515", "brand": "Piggly Wiggly"}, "geometry": {"type": "Point", "coordinates": [-77.954646, 35.970705]}},
{"type": "Feature", "id": "lDpeLU5EtFUUp_JSPXzVlwP30bQ=", "properties": {"ref": "1455 S Guignard Parkway(803) 778-5752", "@spider": "pigglywiggly", "addr:full": "1455 S Guignard Parkway", "addr:city": "Sumter", "addr:state": "SC", "addr:postcode": "29150", "phone": "(803) 778-5752", "brand": "Piggly Wiggly"}, "geometry": {"type": "Point", "coordinates": [-80.34886, 33.885314]}},
{"type": "Feature", "id": "8vcZu3CCTwPF8q1w7uIfClg-0O4=", "properties": {"ref": "122 Hwy 17 North(843) 232-9814", "@spider": "pigglywiggly", "addr:full": "122 Hwy 17 North", "addr:city": "Surfside Beach", "addr:state": "SC", "addr:postcode": "29575", "phone": "(843) 232-9814", "brand": "Piggly Wiggly"}, "geometry": {"type": "Point", "coordinates": [-78.976561, 33.617121]}},
{"type": "Feature", "id": "AaNeDFFEkSAv71EnJHGL0kBBb6E=", "properties": {"ref": "123 Earl Street South(803) 564-7034", "@spider": "pigglywiggly", "addr:full": "123 Earl Street South", "addr:city": "Wagener", "addr:state": "SC", "addr:postcode": "29164", "phone": "(803) 564-7034", "brand": "Piggly Wiggly"}, "geometry": {"type": "Point", "coordinates": [-81.361069, 33.649822]}},
{"type": "Feature", "id": "YfFfr5P3MQpP3k4YymarjI9oHxY=", "properties": {"ref": "297 Bells Hwy8437827444", "@spider": "pigglywiggly", "addr:full": "297 Bells Hwy", "addr:city": "Walterboro", "addr:state": "SC", "addr:postcode": "29488", "phone": "8437827444", "brand": "Piggly Wiggly"}},
{"type": "Feature", "id": "8puKMnG6p0miWCdolcSYPxTMdAU=", "properties": {"ref": "800 N. Greenwood Avenue(864) 456-7489", "@spider": "pigglywiggly", "addr:full": "800 N. Greenwood Avenue", "addr:city": "Ware Shoals", "addr:state": "SC", "addr:postcode": "29692", "phone": "(864) 456-7489", "brand": "Piggly Wiggly"}, "geometry": {"type": "Point", "coordinates": [-82.252198, 34.403734]}},
{"type": "Feature", "id": "xkr9IrNWP6NiQmUtnx4kTTSSXFs=", "properties": {"ref": "26460 SC 121(803) 694-3666", "@spider": "pigglywiggly", "addr:full": "26460 SC 121", "addr:city": "Whitmire", "addr:state": "SC", "addr:postcode": "29178", "phone": "(803) 694-3666", "brand": "Piggly Wiggly"}, "geometry": {"type": "Point", "coordinates": [-81.603053, 34.506412]}},
{"type": "Feature", "id": "WG_40RT7fy0eIs-DtlxxXiRWy4s=", "properties": {"ref": "130 Mcmurry Boulevard(615) 374-2556", "@spider": "pigglywiggly", "addr:full": "130 Mcmurry Boulevard", "addr:city": "Hartsville", "addr:state": "TN", "addr:postcode": "37074", "phone": "(615) 374-2556", "brand": "Piggly Wiggly"}, "geometry": {"type": "Point", "coordinates": [-86.161119, 36.39876]}},
{"type": "Feature", "id": "ngZCRT2LXtLZQ1hCnLkXFSnLxs4=", "properties": {"ref": "539 W Main(731) 989-1010", "@spider": "pigglywiggly", "addr:full": "539 W Main", "addr:city": "Henderson", "addr:state": "TN", "addr:postcode": "38340", "phone": "(731) 989-1010", "brand": "Piggly Wiggly"}, "geometry": {"type": "Point", "coordinates": [-88.649128, 35.433681]}},
{"type": "Feature", "id": "zA8kgBtvfrBpUyIddGPpPhPdleY=", "properties": {"ref": "1101 Scottsville Rd(615) 666-4830", "@spider": "pigglywiggly", "addr:full": "1101 Scottsville Rd", "addr:city": "Lafayette", "addr:state": "TN", "addr:postcode": "37083", "phone": "(615) 666-4830", "brand": "Piggly Wiggly"}, "geometry": {"type": "Point", "coordinates": [-86.029249, 36.532772]}},
{"type": "Feature", "id": "9zhcmtrU2PDzCzh-tRviRN3O0sk=", "properties": {"ref": "754 W Main St(931) 924-3135", "@spider": "pigglywiggly", "addr:full": "754 W Main St", "addr:city": "Monteagle", "addr:state": "TN", "addr:postcode": "37356", "phone": "(931) 924-3135", "brand": "Piggly Wiggly"}, "geometry": {"type": "Point", "coordinates": [-85.82911, 35.238756]}},
{"type": "Feature", "id": "v1NpfEYt4T6mbiBPGS5CCVqDmAA=", "properties": {"ref": "2317 Dickerson(615) 228-6794", "@spider": "pigglywiggly", "addr:full": "2317 Dickerson", "addr:city": "Nashville", "addr:state": "TN", "addr:postcode": "37207", "phone": "(615) 228-6794", "brand": "Piggly Wiggly"}, "geometry": {"type": "Point", "coordinates": [-86.767709, 36.207674]}},
{"type": "Feature", "id": "RVQ7CtSuXVRVTNTm7hn66GyC2DE=", "properties": {"ref": "2900 West End Avenue615-327-4187", "@spider": "pigglywiggly", "addr:full": "2900 West End Avenue", "addr:city": "Nashville", "addr:state": "TN", "addr:postcode": "37203", "phone": "615-327-4187", "brand": "Piggly Wiggly"}, "geometry": {"type": "Point", "coordinates": [-86.81353, 36.144565]}},
{"type": "Feature", "id": "z68bOaZo_LK93Lc4v_kuTd_BjnM=", "properties": {"ref": "1721 Greensboro Avenue(205) 758-6832", "@spider": "pigglywiggly", "addr:full": "1721 Greensboro Avenue", "addr:city": "Tuscaloosa", "addr:state": "AL", "addr:postcode": "35401", "phone": "(205) 758-6832", "brand": "Piggly Wiggly"}, "geometry": {"type": "Point", "coordinates": [-87.562343, 33.196782]}},
{"type": "Feature", "id": "zCZlhCXX53RstbPC5CFkA53NuLQ=", "properties": {"ref": "2731 University Blvd(205) 556-7522", "@spider": "pigglywiggly", "addr:full": "2731 University Blvd", "addr:city": "Tuscaloosa", "addr:state": "AL", "addr:postcode": "35404", "phone": "(205) 556-7522", "brand": "Piggly Wiggly"}, "geometry": {"type": "Point", "coordinates": [-87.502066, 33.205683]}},
{"type": "Feature", "id": "BPh-GjtnW1Pbfyti3WfXknSbEBg=", "properties": {"ref": "614 Bear Creek Road205-722-7800", "@spider": "pigglywiggly", "addr:full": "614 Bear Creek Road", "addr:city": "Tuscaloosa", "addr:state": "AL", "addr:postcode": "35405", "phone": "205-722-7800", "brand": "Piggly Wiggly"}, "geometry": {"type": "Point", "coordinates": [-87.52303, 33.149246]}},
{"type": "Feature", "id": "CAL1VQa9VLTAxU2PHNqy-HCIlQo=", "properties": {"ref": "202 A South Elm(334) 724-0034", "@spider": "pigglywiggly", "addr:full": "202 A South Elm", "addr:city": "Tuskegee", "addr:state": "AL", "addr:postcode": "36083", "phone": "(334) 724-0034", "brand": "Piggly Wiggly"}, "geometry": {"type": "Point", "coordinates": [-85.690808, 32.422136]}},
{"type": "Feature", "id": "h0xKe-Uv8Zv7Ddx5Z2vgSwGS_1w=", "properties": {"ref": "205 E Conecuh(334) 738-3904", "@spider": "pigglywiggly", "addr:full": "205 E Conecuh", "addr:city": "Union Springs", "addr:state": "AL", "addr:postcode": "36726", "phone": "(334) 738-3904", "brand": "Piggly Wiggly"}, "geometry": {"type": "Point", "coordinates": [-85.713084, 32.146147]}},
{"type": "Feature", "id": "c7krdtSK70VRZ5BrMt4pBs4-y_k=", "properties": {"ref": "415 Caldwell Dr(205) 647-3241", "@spider": "pigglywiggly", "addr:full": "415 Caldwell Dr", "addr:city": "Warrior", "addr:state": "AL", "addr:postcode": "35180", "phone": "(205) 647-3241", "brand": "Piggly Wiggly"}, "geometry": {"type": "Point", "coordinates": [-86.810695, 33.807034]}},
{"type": "Feature", "id": "fv8cUGBuj2GAAxMWCUshcbqSqsI=", "properties": {"ref": "1208 Simmons St(252) 638-6312", "@spider": "pigglywiggly", "addr:full": "1208 Simmons St", "addr:city": "New Bern", "addr:state": "NC", "addr:postcode": "28560", "phone": "(252) 638-6312", "brand": "Piggly Wiggly"}, "geometry": {"type": "Point", "coordinates": [-77.073627, 35.114822]}},
{"type": "Feature", "id": "OCmOCGxUBRNfiKWACZKVSZucz1c=", "properties": {"ref": "1415 Tatum Drive(252) 638-8474", "@spider": "pigglywiggly", "addr:full": "1415 Tatum Drive", "addr:city": "New Bern", "addr:state": "NC", "addr:postcode": "28560", "phone": "(252) 638-8474", "brand": "Piggly Wiggly"}, "geometry": {"type": "Point", "coordinates": [-77.068084, 35.110603]}},
{"type": "Feature", "id": "BF-YEkbiiji9rTLBTA0Zof1yswA=", "properties": {"ref": "1400 Broad  Street(252) 249-3100", "@spider": "pigglywiggly", "addr:full": "1400 Broad  Street", "addr:city": "Oriental", "addr:state": "NC", "addr:postcode": "28571", "phone": "(252) 249-3100", "brand": "Piggly Wiggly"}, "geometry": {"type": "Point", "coordinates": [-76.69263, 35.040757]}},
{"type": "Feature", "id": "U4PkeYHuhkSORLvO0e7K4Y3kHAI=", "properties": {"ref": "406 E Third St(910) 521-2760", "@spider": "pigglywiggly", "addr:full": "406 E Third St", "addr:city": "Pembroke", "addr:state": "NC", "addr:postcode": "28372", "phone": "(910) 521-2760", "brand": "Piggly Wiggly"}, "geometry": {"type": "Point", "coordinates": [-79.191479, 34.678203]}},
{"type": "Feature", "id": "4u4pk0boUycGhVX6hx9YD5eQO5I=", "properties": {"ref": "205 South First St(252) 827-4859", "@spider": "pigglywiggly", "addr:full": "205 South First St", "addr:city": "Pinetops", "addr:state": "NC", "addr:postcode": "27864", "phone": "(252) 827-4859", "brand": "Piggly Wiggly"}, "geometry": {"type": "Point", "coordinates": [-77.638118, 35.790116]}},
{"type": "Feature", "id": "bBTYSutSG6cW2kJC26EGTUwOm1o=", "properties": {"ref": "444 Hwy 64(252) 793-9716", "@spider": "pigglywiggly", "addr:full": "444 Hwy 64", "addr:city": "Plymouth", "addr:state": "NC", "addr:postcode": "27962", "phone": "(252) 793-9716", "brand": "Piggly Wiggly"}, "geometry": {"type": "Point", "coordinates": [-76.725388, 35.866079]}},
{"type": "Feature", "id": "QzCnC6xzoPwp6HMjpjbdSdrKpCo=", "properties": {"ref": "1439 Robinson Road615-847-2347", "@spider": "pigglywiggly", "addr:full": "1439 Robinson Road", "addr:city": "Old Hickory", "addr:state": "TN", "addr:postcode": "37138", "phone": "615-847-2347", "brand": "Piggly Wiggly"}, "geometry": {"type": "Point", "coordinates": [-86.654351, 36.256156]}},
{"type": "Feature", "id": "5s1p4EylwEDx5Mh8fZsGFxLxjU4=", "properties": {"ref": "3508 Main Street(423) 447-3288", "@spider": "pigglywiggly", "addr:full": "3508 Main Street", "addr:city": "Pikeville", "addr:state": "TN", "addr:postcode": "37367", "phone": "(423) 447-3288", "brand": "Piggly Wiggly"}, "geometry": {"type": "Point", "coordinates": [-85.187447, 35.610861]}},
{"type": "Feature", "id": "cbBQ9faSEDLpiDl5Z8E4FXHBNmE=", "properties": {"ref": "940 Wayne Rd(731) 925-3276", "@spider": "pigglywiggly", "addr:full": "940 Wayne Rd", "addr:city": "Savannah", "addr:state": "TN", "addr:postcode": "38372", "phone": "(731) 925-3276", "brand": "Piggly Wiggly"}, "geometry": {"type": "Point", "coordinates": [-88.24403, 35.224335]}},
{"type": "Feature", "id": "I4J-FBRDTFAasd0jJeoktSHXrGA=", "properties": {"ref": "670 Highway 114 South731-549-3947", "@spider": "pigglywiggly", "addr:full": "670 Highway 114 South", "addr:city": "Scotts Hill", "addr:state": "TN", "addr:postcode": "38374", "phone": "731-549-3947", "brand": "Piggly Wiggly"}, "geometry": {"type": "Point", "coordinates": [-88.24152, 35.522263]}},
{"type": "Feature", "id": "oe0xBU5vFy74qnQhDskRkrHZ7XM=", "properties": {"ref": "874 Union St.931-684-1363", "@spider": "pigglywiggly", "addr:full": "874 Union St.", "addr:city": "Shelbyville", "addr:state": "TN", "addr:postcode": "37160", "phone": "931-684-1363", "brand": "Piggly Wiggly"}, "geometry": {"type": "Point", "coordinates": [-86.472451, 35.496804]}},
{"type": "Feature", "id": "hX8TWqkYDyHdenFwzij-28PHXuI=", "properties": {"ref": "9985 Holtville Road334-569-3085", "@spider": "pigglywiggly", "addr:full": "9985 Holtville Road", "addr:city": "Wetumpka", "addr:state": "AL", "addr:postcode": "36092", "phone": "334-569-3085", "brand": "Piggly Wiggly"}, "geometry": {"type": "Point", "coordinates": [-86.318307, 32.635476]}},
{"type": "Feature", "id": "X-xziopduDCwN6pmJIJzpCrQKZ8=", "properties": {"ref": "3445 St. Stephens Rd251-456-1985", "@spider": "pigglywiggly", "addr:full": "3445 St. Stephens Rd", "addr:city": "Whistler", "addr:state": "AL", "addr:postcode": "36612", "phone": "251-456-1985", "brand": "Piggly Wiggly"}, "geometry": {"type": "Point", "coordinates": [-88.118219, 30.751882]}},
{"type": "Feature", "id": "T2cNmCxW3YWutWNTogZ4fbbUOwM=", "properties": {"ref": "202 Dr Donnie H. Jones Jr.(919) 936-4551", "@spider": "pigglywiggly", "addr:full": "202 Dr Donnie H. Jones Jr.", "addr:city": "Princeton", "addr:state": "NC", "addr:postcode": "27569", "phone": "(919) 936-4551", "brand": "Piggly Wiggly"}, "geometry": {"type": "Point", "coordinates": [-78.159283, 35.467598]}},
{"type": "Feature", "id": "Dw-krjtuEg9MOnA2YTrhtTXwjeo=", "properties": {"ref": "210 E 4Th St(910) 843-3145", "@spider": "pigglywiggly", "addr:full": "210 E 4Th St", "addr:city": "Red Springs", "addr:state": "NC", "addr:postcode": "28377", "phone": "(910) 843-3145", "brand": "Piggly Wiggly"}, "geometry": {"type": "Point", "coordinates": [-79.179188, 34.813504]}},
{"type": "Feature", "id": "aeABwAbXlOgd-2_PHQkDRvbTkPg=", "properties": {"ref": "Hwy 258(910) 324-3333", "@spider": "pigglywiggly", "addr:full": "Hwy 258", "addr:city": "Richlands", "addr:state": "NC", "addr:postcode": "28574", "phone": "(910) 324-3333", "brand": "Piggly Wiggly"}, "geometry": {"type": "Point", "coordinates": [-77.563618, 34.90807]}},
{"type": "Feature", "id": "s8MzKJ7KFdVJ9FpqVEYs6kS4MFY=", "properties": {"ref": "Riegelwood Shpg Cntr-Hwy 87 N(910) 655-4622", "@spider": "pigglywiggly", "addr:full": "Riegelwood Shpg Cntr-Hwy 87 N", "addr:city": "Rieglewood", "addr:state": "NC", "addr:postcode": "28456", "phone": "(910) 655-4622", "brand": "Piggly Wiggly"}, "geometry": {"type": "Point", "coordinates": [-78.281783, 34.375164]}},
{"type": "Feature", "id": "NhQBIl7SBkFAih3nqmsaUsqB3PE=", "properties": {"ref": "418 W Thomas St(252) 442-5830", "@spider": "pigglywiggly", "addr:full": "418 W Thomas St", "addr:city": "Rocky Mount", "addr:state": "NC", "addr:postcode": "27804", "phone": "(252) 442-5830", "brand": "Piggly Wiggly"}, "geometry": {"type": "Point", "coordinates": [-77.799837, 35.945705]}},
{"type": "Feature", "id": "4p80mzec3QeJbYXTaA-cBCBfG1U=", "properties": {"ref": "940 Raleigh Rd(252) 446-9664", "@spider": "pigglywiggly", "addr:full": "940 Raleigh Rd", "addr:city": "Rocky Mount", "addr:state": "NC", "addr:postcode": "27802", "phone": "(252) 446-9664", "brand": "Piggly Wiggly"}, "geometry": {"type": "Point", "coordinates": [-77.812759, 35.931662]}},
{"type": "Feature", "id": "PnkCvYQym3W5tF1u8v4LSl76cio=", "properties": {"ref": "326 S Fifth St(910) 865-4158", "@spider": "pigglywiggly", "addr:full": "326 S Fifth St", "addr:city": "Saint Pauls", "addr:state": "NC", "addr:postcode": "28384", "phone": "(910) 865-4158", "brand": "Piggly Wiggly"}, "geometry": {"type": "Point", "coordinates": [-78.977283, 34.803624]}},
{"type": "Feature", "id": "89-JAfwYDLI4J8bh9aVzbKwvB5M=", "properties": {"ref": "2412 S Horner Blvd(919) 774-8742", "@spider": "pigglywiggly", "addr:full": "2412 S Horner Blvd", "addr:city": "Sanford", "addr:state": "NC", "addr:postcode": "27330", "phone": "(919) 774-8742", "brand": "Piggly Wiggly"}, "geometry": {"type": "Point", "coordinates": [-79.147394, 35.459837]}},
{"type": "Feature", "id": "SzOjOnXASHEFyIpliMZh2rp6cp4=", "properties": {"ref": "141 E Clinton Ave(423) 365-5917", "@spider": "pigglywiggly", "addr:full": "141 E Clinton Ave", "addr:city": "Spring City", "addr:state": "TN", "addr:postcode": "37381", "phone": "(423) 365-5917", "brand": "Piggly Wiggly"}, "geometry": {"type": "Point", "coordinates": [-84.864329, 35.692356]}},
{"type": "Feature", "id": "zvJNvXVkSuZAAIyg1aOfzdgyrco=", "properties": {"ref": "321 Dexter Woods Memorial Blvd931-722-5175", "@spider": "pigglywiggly", "addr:full": "321 Dexter Woods Memorial Blvd", "addr:city": "Waynesboro", "addr:state": "TN", "addr:postcode": "38485", "phone": "931-722-5175", "brand": "Piggly Wiggly"}, "geometry": {"type": "Point", "coordinates": [-87.755786, 35.325818]}},
{"type": "Feature", "id": "O6z4dwZ0B_fwgPk99q4D0VZEEVo=", "properties": {"ref": "834 West Main Street615-563-4082", "@spider": "pigglywiggly", "addr:full": "834 West Main Street", "addr:city": "Woodbury", "addr:state": "TN", "addr:postcode": "37190", "phone": "615-563-4082", "brand": "Piggly Wiggly"}, "geometry": {"type": "Point", "coordinates": [-86.081516, 35.827283]}},
{"type": "Feature", "id": "DE3mHrZWie-QJyvg8QCgwxW2GNY=", "properties": {"ref": "600 W Raleigh St(919) 742-9888", "@spider": "pigglywiggly", "addr:full": "600 W Raleigh St", "addr:city": "Siler City", "addr:state": "NC", "addr:postcode": "27344", "phone": "(919) 742-9888", "brand": "Piggly Wiggly"}, "geometry": {"type": "Point", "coordinates": [-79.46954, 35.719897]}},
{"type": "Feature", "id": "29xOAenKH8f1u3z0iFjLrqCstec=", "properties": {"ref": "102 Moyton Ave(252) 238-2359", "@spider": "pigglywiggly", "addr:full": "102 Moyton Ave", "addr:city": "Stantonsburg", "addr:state": "NC", "addr:postcode": "27883", "phone": "(252) 238-2359", "brand": "Piggly Wiggly"}, "geometry": {"type": "Point", "coordinates": [-77.817779, 35.609062]}},
{"type": "Feature", "id": "OIANgLz4ye26trZTTxOoS4IXqK4=", "properties": {"ref": "715 W Corbett(910) 326-8500", "@spider": "pigglywiggly", "addr:full": "715 W Corbett", "addr:city": "Swansboro", "addr:state": "NC", "addr:postcode": "28584", "phone": "(910) 326-8500", "brand": "Piggly Wiggly"}, "geometry": {"type": "Point", "coordinates": [-77.132135, 34.6933]}},
{"type": "Feature", "id": "krZfhgluB2WgFyUaEyX2l5Lw3w0=", "properties": {"ref": "Fairview Shp Ctr, 2030 N Main St(252) 823-2466", "@spider": "pigglywiggly", "addr:full": "Fairview Shp Ctr, 2030 N Main St", "addr:city": "Tarboro", "addr:state": "NC", "addr:postcode": "27886", "phone": "(252) 823-2466", "brand": "Piggly Wiggly"}, "geometry": {"type": "Point", "coordinates": [-77.543368, 35.911033]}},
{"type": "Feature", "id": "xxXdarNA-IyH101jHlfQb6AzURY=", "properties": {"ref": "3373 Hwy Us 1(910) 245-4771", "@spider": "pigglywiggly", "addr:full": "3373 Hwy Us 1", "addr:city": "Vass", "addr:state": "NC", "addr:postcode": "28394", "phone": "(910) 245-4771", "brand": "Piggly Wiggly"}, "geometry": {"type": "Point", "coordinates": [-79.280456, 35.257908]}},
{"type": "Feature", "id": "hCVeGQfs2lEBJMv1ipqVoH4aSpE=", "properties": {"ref": "209 N Norwood St(910) 285-7504", "@spider": "pigglywiggly", "addr:full": "209 N Norwood St", "addr:city": "Wallace", "addr:state": "NC", "addr:postcode": "28466", "phone": "(910) 285-7504", "brand": "Piggly Wiggly"}, "geometry": {"type": "Point", "coordinates": [-77.99393, 34.737217]}},
{"type": "Feature", "id": "mF0l7j1dzorNlSBdPLnlKS5ZUk4=", "properties": {"ref": "107 S Pine St(910) 293-7589", "@spider": "pigglywiggly", "addr:full": "107 S Pine St", "addr:city": "Warsaw", "addr:state": "NC", "addr:postcode": "28398", "phone": "(910) 293-7589", "brand": "Piggly Wiggly"}, "geometry": {"type": "Point", "coordinates": [-78.091368, 34.999194]}},
{"type": "Feature", "id": "9-H7bDci4tWiaFmeaUFgyfTTH0M=", "properties": {"ref": "626 River Rd252-974-2347", "@spider": "pigglywiggly", "addr:full": "626 River Rd", "addr:city": "Washington", "addr:state": "NC", "addr:postcode": "27889", "phone": "252-974-2347", "brand": "Piggly Wiggly"}, "geometry": {"type": "Point", "coordinates": [-77.0218, 35.53425]}},
{"type": "Feature", "id": "SWPF6rfJIbuHkZDCsWRlmbvul6I=", "properties": {"ref": "912 Washington St(252) 809-1355", "@spider": "pigglywiggly", "addr:full": "912 Washington St", "addr:city": "Williamston", "addr:state": "NC", "addr:postcode": "27892", "phone": "(252) 809-1355", "brand": "Piggly Wiggly"}, "geometry": {"type": "Point", "coordinates": [-77.061956, 35.843786]}},
{"type": "Feature", "id": "VUmrAKjhq4SucVP-R7g-GAwsEFA=", "properties": {"ref": "1105 Ward Blvd(252) 237-8772", "@spider": "pigglywiggly", "addr:full": "1105 Ward Blvd", "addr:city": "Wilson", "addr:state": "NC", "addr:postcode": "27893", "phone": "(252) 237-8772", "brand": "Piggly Wiggly"}, "geometry": {"type": "Point", "coordinates": [-77.936695, 35.718497]}}]}