{"type":"FeatureCollection","features":[{"type": "Feature", "id": "cfMhsd8KDU7um5CqZZ7GUo9m8dI=", "properties": {"ref": "881", "@spider": "pizza_express", "addr:full": "2 Broadgate", "addr:city": "Exeter", "addr:postcode": "EX1 1HJ", "addr:country": "UK", "name": "Pizza Express", "phone": "01392 495 788", "brand": "Pizza Express", "brand:wikidata": "Q662845"}, "geometry": {"type": "Point", "coordinates": [-3.53196, 50.72242]}},
{"type": "Feature", "id": "iDm_ZHMJSHbppOvAP6oQmypIrBg=", "properties": {"ref": "1531", "@spider": "pizza_express", "addr:full": "20 Bridge Street", "addr:city": "Somerset", "addr:postcode": "TA1 1UB", "addr:country": "UK", "name": "Pizza Express", "phone": "01823 352 245", "brand": "Pizza Express", "brand:wikidata": "Q662845"}, "geometry": {"type": "Point", "coordinates": [-3.104174, 51.0181]}},
{"type": "Feature", "id": "jzA6ad2bEj7teXhx3JU3gm6DGqU=", "properties": {"ref": "3361", "@spider": "pizza_express", "addr:full": "94 High Street", "addr:city": "Somerset", "addr:postcode": "BA16 0EN", "addr:country": "UK", "name": "Pizza Express", "phone": "01458 443111", "brand": "Pizza Express", "brand:wikidata": "Q662845"}, "geometry": {"type": "Point", "coordinates": [-2.740845, 51.12635]}},
{"type": "Feature", "id": "mNFiVYcrpVqhgDb33kmo2WJIou4=", "properties": {"ref": "3213", "@spider": "pizza_express", "addr:full": "28 Mermaid Quay", "addr:city": "Cardiff", "addr:postcode": "CF10 5BZ", "addr:country": "UK", "name": "Pizza Express", "phone": "029 2047 2006", "brand": "Pizza Express", "brand:wikidata": "Q662845"}, "geometry": {"type": "Point", "coordinates": [-3.16537, 51.46348]}},
{"type": "Feature", "id": "j_MV6a-kAZLaEjQ5ni8unsmNQB4=", "properties": {"ref": "1581", "@spider": "pizza_express", "addr:full": "29-32 High Street", "addr:city": "Cardiff", "addr:postcode": "CF10 1PU", "addr:country": "UK", "name": "Pizza Express", "phone": "029 2023 3091", "brand": "Pizza Express", "brand:wikidata": "Q662845"}, "geometry": {"type": "Point", "coordinates": [-3.18063, 51.48085]}},
{"type": "Feature", "id": "9VSrayVtw52WpFJ1AmLEdMdmVms=", "properties": {"ref": "3297", "@spider": "pizza_express", "addr:full": "Unit KUG07", "addr:city": "Cardiff", "addr:postcode": "CF10 2EF", "addr:country": "UK", "name": "Pizza Express", "phone": "029 2035 9200", "brand": "Pizza Express", "brand:wikidata": "Q662845"}, "geometry": {"type": "Point", "coordinates": [-3.175886, 51.48093]}},
{"type": "Feature", "id": "HGQHbn1WS_fCDGihwJr7p1T77g8=", "properties": {"ref": "3362", "@spider": "pizza_express", "addr:full": "25 Weymouth Avenue", "addr:city": "Dorset", "addr:postcode": "DT1 1QR", "addr:country": "UK", "name": "Pizza Express", "phone": "01305 251919", "brand": "Pizza Express", "brand:wikidata": "Q662845"}, "geometry": {"type": "Point", "coordinates": [-2.438548, 50.7109]}},
{"type": "Feature", "id": "qD8eDlT2F7WEzagTVMTVyApv2Ys=", "properties": {"ref": "3346", "@spider": "pizza_express", "addr:full": "Unit 2", "addr:city": "Plymouth", "addr:postcode": "PL4 0LG", "addr:country": "UK", "name": "Pizza Express", "phone": "01752 269900", "brand": "Pizza Express", "brand:wikidata": "Q662845"}, "geometry": {"type": "Point", "coordinates": [-4.125342, 50.36707]}},
{"type": "Feature", "id": "qIdaErr0s1JUty0zgkshXr6O6UI=", "properties": {"ref": "1981", "@spider": "pizza_express", "addr:full": "Pilgrims House", "addr:city": "Plymouth", "addr:postcode": "PL1 2SW", "addr:country": "UK", "name": "Pizza Express", "phone": "01752 229 413", "brand": "Pizza Express", "brand:wikidata": "Q662845"}, "geometry": {"type": "Point", "coordinates": [-4.14605, 50.36936]}},
{"type": "Feature", "id": "6M4cNMLcqGT79IKShTmw69EbNNM=", "properties": {"ref": "3284", "@spider": "pizza_express", "addr:full": "Unit 1", "addr:city": "Bristol", "addr:postcode": "BS1 5TY", "addr:country": "UK", "name": "Pizza Express", "phone": "0117 927 3622", "brand": "Pizza Express", "brand:wikidata": "Q662845"}, "geometry": {"type": "Point", "coordinates": [-2.60192, 51.45004]}},
{"type": "Feature", "id": "PkDeF5-Ir_fxSoPhVs82410cPKY=", "properties": {"ref": "3415", "@spider": "pizza_express", "addr:full": "Cabot Circus", "addr:city": "Bristol", "addr:postcode": "BS1 3BQ", "addr:country": "UK", "name": "Pizza Express", "phone": "0117 925 8700", "brand": "Pizza Express", "brand:wikidata": "Q662845"}, "geometry": {"type": "Point", "coordinates": [-2.585885, 51.4584]}},
{"type": "Feature", "id": "_bqu4Gaw-9mrQpfj7_sa_IWK9HY=", "properties": {"ref": "3400", "@spider": "pizza_express", "addr:full": "The Venue", "addr:city": "Bristol", "addr:postcode": "BS10 7SR", "addr:country": "UK", "name": "Pizza Express", "phone": "0117 950 9388", "brand": "Pizza Express", "brand:wikidata": "Q662845"}, "geometry": {"type": "Point", "coordinates": [-2.604686, 51.5231]}},
{"type": "Feature", "id": "asOrN-oNyRtSJR9GNRpusOFnlW0=", "properties": {"ref": "3329", "@spider": "pizza_express", "addr:full": "8 Southgate Place", "addr:city": "Bath", "addr:postcode": "BA1 1AP", "addr:country": "UK", "name": "Pizza Express", "phone": "01225 442 111", "brand": "Pizza Express", "brand:wikidata": "Q662845"}, "geometry": {"type": "Point", "coordinates": [-2.359185, 51.37777]}},
{"type": "Feature", "id": "eazKuLXU1czTk3vbCPhn-QsL7dY=", "properties": {"ref": "381", "@spider": "pizza_express", "addr:full": "1 Barton Street", "addr:city": "Somerset", "addr:postcode": "BA1 1HG", "addr:country": "UK", "name": "Pizza Express", "phone": "01225 420 119", "brand": "Pizza Express", "brand:wikidata": "Q662845"}, "geometry": {"type": "Point", "coordinates": [-2.3628, 51.38254]}},
{"type": "Feature", "id": "BmPVvfF2aCrUF2NHWF5J0QhRNKQ=", "properties": {"ref": "3353", "@spider": "pizza_express", "addr:full": "Unit A", "addr:city": "Poole", "addr:postcode": "BH12 4NY", "addr:country": "UK", "name": "Pizza Express", "phone": "01202 718600", "brand": "Pizza Express", "brand:wikidata": "Q662845"}, "geometry": {"type": "Point", "coordinates": [-1.951729, 50.74643]}},
{"type": "Feature", "id": "ecEQLN6R4ygrxZlpy2qA_Xa9n2o=", "properties": {"ref": "3456", "@spider": "pizza_express", "addr:full": "LG5", "addr:city": "Bournemouth", "addr:postcode": "BH2 5DD", "addr:country": "UK", "name": "Pizza Express", "phone": "01202 235 522", "brand": "Pizza Express", "brand:wikidata": "Q662845"}, "geometry": {"type": "Point", "coordinates": [-1.879132, 50.71864]}},
{"type": "Feature", "id": "ms8aP-2SuzVsCDmDErsIJDYhUa0=", "properties": {"ref": "3277", "@spider": "pizza_express", "addr:full": "136 Monnow Street", "addr:city": "Monmouth", "addr:postcode": "NP25 3EN", "addr:country": "UK", "name": "Pizza Express", "phone": "01600 719720", "brand": "Pizza Express", "brand:wikidata": "Q662845"}, "geometry": {"type": "Point", "coordinates": [-2.71743, 51.81056]}},
{"type": "Feature", "id": "YDSp5Mdsm2eCM852-ZRSy81QC8I=", "properties": {"ref": "3315", "@spider": "pizza_express", "addr:full": "Unit 15", "addr:city": "Carmarthen", "addr:postcode": "SA31 1GA", "addr:country": "UK", "name": "Pizza Express", "phone": "01267 238 304", "brand": "Pizza Express", "brand:wikidata": "Q662845"}, "geometry": {"type": "Point", "coordinates": [-4.308465, 51.85838]}},
{"type": "Feature", "id": "EkDU-nLeftMFRygEpawc9gXCiE0=", "properties": {"ref": "3398", "@spider": "pizza_express", "addr:full": "Unit 20", "addr:city": "Broughton Retail Park", "addr:postcode": "CH4 0DE", "addr:country": "UK", "name": "Pizza Express", "phone": "01244 520 400", "brand": "Pizza Express", "brand:wikidata": "Q662845"}, "geometry": {"type": "Point", "coordinates": [-2.974128, 53.16746]}},
{"type": "Feature", "id": "T4U1Ub75gWS5LrZlc5YDRxhWn9M=", "properties": {"ref": "491", "@spider": "pizza_express", "addr:full": "50 Blue Boar Row", "addr:city": "Salisbury", "addr:postcode": "SP1 1DA", "addr:country": "UK", "name": "Pizza Express", "phone": "01722 415 191", "brand": "Pizza Express", "brand:wikidata": "Q662845"}, "geometry": {"type": "Point", "coordinates": [-1.79565, 51.07007]}},
{"type": "Feature", "id": "tymFbj8Oe2MrxCUFI1WZpr4G0Uc=", "properties": {"ref": "3365", "@spider": "pizza_express", "addr:full": "73 High Street", "addr:city": "Christchurch", "addr:postcode": "BH23 1AS", "addr:country": "UK", "name": "Pizza Express", "phone": "01202 486 771", "brand": "Pizza Express", "brand:wikidata": "Q662845"}, "geometry": {"type": "Point", "coordinates": [-1.776366, 50.73401]}},
{"type": "Feature", "id": "P_Q5wp4QUKth1J_XpceokpDwftY=", "properties": {"ref": "2631", "@spider": "pizza_express", "addr:full": "37 High Street", "addr:city": "Marlborough", "addr:postcode": "SN8 1LW", "addr:country": "UK", "name": "Pizza Express", "phone": "01672 519 229", "brand": "Pizza Express", "brand:wikidata": "Q662845"}, "geometry": {"type": "Point", "coordinates": [-1.73202, 51.41962]}},
{"type": "Feature", "id": "QkWmrDj66YsSVXhTKzuNcy5i1-E=", "properties": {"ref": "3310", "@spider": "pizza_express", "addr:full": "Rocklands", "addr:city": "Cornwall", "addr:postcode": "TR7 2NE", "addr:country": "UK", "name": "Pizza Express", "phone": "01637 872 177", "brand": "Pizza Express", "brand:wikidata": "Q662845"}, "geometry": {"type": "Point", "coordinates": [-5.07605, 50.41571]}},
{"type": "Feature", "id": "6SIhEQ9lTPVggi0EV9G_Y4g7A-s=", "properties": {"ref": "3304", "@spider": "pizza_express", "addr:full": "Unit 108A", "addr:city": "Gloucester", "addr:postcode": "GL1 5SH", "addr:country": "UK", "name": "Pizza Express", "phone": "01452 504605", "brand": "Pizza Express", "brand:wikidata": "Q662845"}, "geometry": {"type": "Point", "coordinates": [-2.253506, 51.86086]}},
{"type": "Feature", "id": "lDyK4mVGsKIuh4Q1Qt7KAQ_Rtw4=", "properties": {"ref": "3401", "@spider": "pizza_express", "addr:full": "Swindon Designer Outlet", "addr:city": "Swindon", "addr:postcode": "SN2 2DY", "addr:country": "UK", "name": "Pizza Express", "phone": "01793 433933", "brand": "Pizza Express", "brand:wikidata": "Q662845"}, "geometry": {"type": "Point", "coordinates": [-1.798315, 51.56286]}},
{"type": "Feature", "id": "gke2F71cTWZvS7OKA-txuYbiB5A=", "properties": {"ref": "801", "@spider": "pizza_express", "addr:full": "5 Bath Road", "addr:city": "Wiltshire", "addr:postcode": "SN1 4AS", "addr:country": "UK", "name": "Pizza Express", "phone": "01793 484 300", "brand": "Pizza Express", "brand:wikidata": "Q662845"}, "geometry": {"type": "Point", "coordinates": [-1.77808, 51.55236]}},
{"type": "Feature", "id": "NvOF72G4UlJntCekG8FdHxfGEnk=", "properties": {"ref": "2731", "@spider": "pizza_express", "addr:full": "28 Castle Street", "addr:city": "Cirencester", "addr:postcode": "GL7 1QH", "addr:country": "UK", "name": "Pizza Express", "phone": "01285 655 655", "brand": "Pizza Express", "brand:wikidata": "Q662845"}, "geometry": {"type": "Point", "coordinates": [-1.97059, 51.71642]}},
{"type": "Feature", "id": "VYR99LV33dEpIzKkFzoQdIPUoVQ=", "properties": {"ref": "2431", "@spider": "pizza_express", "addr:full": "1 Boscawen Street", "addr:city": "Cornwall", "addr:postcode": "TR1 2QU", "addr:country": "UK", "name": "Pizza Express", "phone": "01872 263 617", "brand": "Pizza Express", "brand:wikidata": "Q662845"}, "geometry": {"type": "Point", "coordinates": [-5.05168, 50.26309]}},
{"type": "Feature", "id": "1LhY9CeZHbGQrgbPXkRHQcnSBtU=", "properties": {"ref": "3442", "@spider": "pizza_express", "addr:full": "2 High Street", "addr:city": "Andover", "addr:postcode": "SP10 1NX", "addr:country": "UK", "name": "Pizza Express", "phone": "01264 334 333\u00a0 ", "brand": "Pizza Express", "brand:wikidata": "Q662845"}, "geometry": {"type": "Point", "coordinates": [-1.478696, 51.20656]}},
{"type": "Feature", "id": "QWSsagFo_zww5HcEEoKNNNECC98=", "properties": {"ref": "3381", "@spider": "pizza_express", "addr:full": "Westquay Shopping Centre", "addr:city": "Hampshire", "addr:postcode": "SO15 1QA", "addr:country": "UK", "name": "Pizza Express", "phone": "02380 710999", "brand": "Pizza Express", "brand:wikidata": "Q662845"}, "geometry": {"type": "Point", "coordinates": [-1.407176, 50.90348]}},
{"type": "Feature", "id": "HKH1lgd9JpSZG8iw6AgZBEGSLbE=", "properties": {"ref": "451", "@spider": "pizza_express", "addr:full": "Belgrave House", "addr:city": "Cheltenham", "addr:postcode": "GL50 1QB", "addr:country": "UK", "name": "Pizza Express", "phone": "01242 253 896", "brand": "Pizza Express", "brand:wikidata": "Q662845"}, "geometry": {"type": "Point", "coordinates": [-2.07694, 51.89764]}},
{"type": "Feature", "id": "ZiZ4-FRYwFa4xpSoi16UDUvki58=", "properties": {"ref": "3260", "@spider": "pizza_express", "addr:full": "1 Maritime House", "addr:city": "Falmouth", "addr:postcode": "TR11 3QY", "addr:country": "UK", "name": "Pizza Express", "phone": "01326 318841", "brand": "Pizza Express", "brand:wikidata": "Q662845"}, "geometry": {"type": "Point", "coordinates": [-5.06315, 50.1516]}},
{"type": "Feature", "id": "6xfzmUVirhPvrCBPS7AMg6AK55M=", "properties": {"ref": "1371", "@spider": "pizza_express", "addr:full": "1 Bridge Street", "addr:city": "Hampshire", "addr:postcode": "SO23 9BH", "addr:country": "UK", "name": "Pizza Express", "phone": "01962 841 845", "brand": "Pizza Express", "brand:wikidata": "Q662845"}, "geometry": {"type": "Point", "coordinates": [-1.30759, 51.06083]}},
{"type": "Feature", "id": "gb8wmjth-Bb8oGWW6EhgTfN_mWs=", "properties": {"ref": "2601", "@spider": "pizza_express", "addr:full": "17 Market Place", "addr:city": "Berkshire", "addr:postcode": "RG14 5AA", "addr:country": "UK", "name": "Pizza Express", "phone": "01635 569284", "brand": "Pizza Express", "brand:wikidata": "Q662845"}, "geometry": {"type": "Point", "coordinates": [-1.32363, 51.40079]}},
{"type": "Feature", "id": "1DW4tF_ysJh7OOS1AWrLEnS7vQI=", "properties": {"ref": "2701", "@spider": "pizza_express", "addr:full": "Gunwharf Quays", "addr:city": "Portsmouth", "addr:postcode": "PO1 3TA", "addr:country": "UK", "name": "Pizza Express", "phone": "02392 832939", "brand": "Pizza Express", "brand:wikidata": "Q662845"}, "geometry": {"type": "Point", "coordinates": [-1.10696, 50.79431]}},
{"type": "Feature", "id": "1mvmi4xcyHlithSzsLS45LN7hVg=", "properties": {"ref": "3264", "@spider": "pizza_express", "addr:full": "1-3 College Street", "addr:city": "Worcester", "addr:postcode": "WR1 2LU", "addr:country": "UK", "name": "Pizza Express", "phone": "01905 726565", "brand": "Pizza Express", "brand:wikidata": "Q662845"}, "geometry": {"type": "Point", "coordinates": [-2.21934, 52.18924]}},
{"type": "Feature", "id": "f_CBHR7_EGepHoLAZVJQvt470Pc=", "properties": {"ref": "391", "@spider": "pizza_express", "addr:full": "The Whitehouse", "addr:city": "Basingstoke", "addr:postcode": "RG22 6HL", "addr:country": "UK", "name": "Pizza Express", "phone": "01256 354 439", "brand": "Pizza Express", "brand:wikidata": "Q662845"}, "geometry": {"type": "Point", "coordinates": [-1.11368, 51.25029]}},
{"type": "Feature", "id": "_3ziTkQ_SZh0DCBE9G8XuUn4-_I=", "properties": {"ref": "3271", "@spider": "pizza_express", "addr:full": "16 Monarch Quay", "addr:city": "Liverpool", "addr:postcode": "L3 4BX", "addr:country": "UK", "name": "Pizza Express", "phone": "0151 7071566", "brand": "Pizza Express", "brand:wikidata": "Q662845"}, "geometry": {"type": "Point", "coordinates": [-2.99051, 53.39544]}},
{"type": "Feature", "id": "fesQLl4a6sxgPEOMA6FjZ2mM5FY=", "properties": {"ref": "3340", "@spider": "pizza_express", "addr:full": "Unit P1", "addr:city": "Liverpool", "addr:postcode": "L1 8JQ", "addr:country": "UK", "name": "Pizza Express", "phone": "0151 707 9977", "brand": "Pizza Express", "brand:wikidata": "Q662845"}, "geometry": {"type": "Point", "coordinates": [-2.985775, 53.40528]}},
{"type": "Feature", "id": "BpagXLNOpo1keMpWfvsXwzDf20g=", "properties": {"ref": "3285", "@spider": "pizza_express", "addr:full": "Unit 1", "addr:city": "Chester", "addr:postcode": "CH1 1DA", "addr:country": "UK", "name": "Pizza Express", "phone": "01244 323 265", "brand": "Pizza Express", "brand:wikidata": "Q662845"}, "geometry": {"type": "Point", "coordinates": [-2.88814, 53.19003]}},
{"type": "Feature", "id": "wS0Nj4X0w0YwAWWR9qNNGSNXYjA=", "properties": {"ref": "3211", "@spider": "pizza_express", "addr:full": "Unit 57", "addr:city": "Cheshire Oaks", "addr:postcode": "CH65 9JJ", "addr:country": "UK", "name": "Pizza Express", "phone": "0151 355 6434", "brand": "Pizza Express", "brand:wikidata": "Q662845"}, "geometry": {"type": "Point", "coordinates": [-2.88125, 53.26363]}},
{"type": "Feature", "id": "mZkM_O-P70sKWhGjEVZ3T4OXqQs=", "properties": {"ref": "2641", "@spider": "pizza_express", "addr:full": "55 Mardol", "addr:city": "Shropshire", "addr:postcode": "SY1 1PP", "addr:country": "UK", "name": "Pizza Express", "phone": "01743 354647", "brand": "Pizza Express", "brand:wikidata": "Q662845"}, "geometry": {"type": "Point", "coordinates": [-2.75583, 52.70937]}},
{"type": "Feature", "id": "x5CXqYfLnX0WYE3OBe7_eEwqYH8=", "properties": {"ref": "1041", "@spider": "pizza_express", "addr:full": "82 Clifton Street", "addr:city": "Lancashire", "addr:postcode": "FY8 5EN", "addr:country": "UK", "name": "Pizza Express", "phone": "01253 738 542", "brand": "Pizza Express", "brand:wikidata": "Q662845"}, "geometry": {"type": "Point", "coordinates": [-2.96249, 53.73674]}},
{"type": "Feature", "id": "6MQLHe2mG_zPjiPnebpD96fUH9E=", "properties": {"ref": "3243", "@spider": "pizza_express", "addr:full": "3 Victoria Buildings", "addr:city": "Cheshire", "addr:postcode": "WA4 2AG", "addr:country": "UK", "name": "Pizza Express", "phone": "01925 860865", "brand": "Pizza Express", "brand:wikidata": "Q662845"}, "geometry": {"type": "Point", "coordinates": [-2.57845, 53.37041]}},
{"type": "Feature", "id": "3enOGwZR2wf5EKkDftExziXPSJ0=", "properties": {"ref": "3219", "@spider": "pizza_express", "addr:full": "551 Lisburn Road", "addr:city": "Belfast", "addr:postcode": "BT9 7GQ", "addr:country": "UK", "name": "Pizza Express", "phone": "028 9068 7700", "brand": "Pizza Express", "brand:wikidata": "Q662845"}, "geometry": {"type": "Point", "coordinates": [-5.95646, 54.57626]}},
{"type": "Feature", "id": "cQPx6ixW20xHuuYnyCLC4gYgtr0=", "properties": {"ref": "3446", "@spider": "pizza_express", "addr:full": "Unit 1", "addr:city": "Belfast", "addr:postcode": "BT4 3FB", "addr:country": "UK", "name": "Pizza Express", "phone": "028 9065 7772\u00a0 ", "brand": "Pizza Express", "brand:wikidata": "Q662845"}, "geometry": {"type": "Point", "coordinates": [-5.867269, 54.5952721]}},
{"type": "Feature", "id": "kOmpMe47iP0VJMVYlBJP8gXXJAE=", "properties": {"ref": "3379", "@spider": "pizza_express", "addr:full": "Southwater Shopping Centre", "addr:city": "Shropshire", "addr:postcode": "TF3 4EJ", "addr:country": "UK", "name": "Pizza Express", "phone": "01952 200 040", "brand": "Pizza Express", "brand:wikidata": "Q662845"}, "geometry": {"type": "Point", "coordinates": [-2.44793534, 52.67418]}},
{"type": "Feature", "id": "dlo-fxlsKu3t4094_kQm06wWkC0=", "properties": {"ref": "501", "@spider": "pizza_express", "addr:full": "25 Bedford Street", "addr:city": "Belfast", "addr:postcode": "BT2 7EJ", "addr:country": "UK", "name": "Pizza Express", "phone": "028 9032 9050", "brand": "Pizza Express", "brand:wikidata": "Q662845"}, "geometry": {"type": "Point", "coordinates": [-5.9327, 54.59411]}},
{"type": "Feature", "id": "1tiy9KTRUtL5HrCBGBLFxyt5dL4=", "properties": {"ref": "3303", "@spider": "pizza_express", "addr:full": "Unit TFC6", "addr:city": "Belfast", "addr:postcode": "BT1 4QG", "addr:country": "UK", "name": "Pizza Express", "phone": "028 9031 4449", "brand": "Pizza Express", "brand:wikidata": "Q662845"}, "geometry": {"type": "Point", "coordinates": [-5.925323, 54.59827]}},
{"type": "Feature", "id": "TsoRI3fokaT3_asNsR1mKv_rZvk=", "properties": {"ref": "1971", "@spider": "pizza_express", "addr:full": "14-15 Winckley Street", "addr:city": "Preston", "addr:postcode": "PR1 2AA", "addr:country": "UK", "name": "Pizza Express", "phone": "01772 201 580", "brand": "Pizza Express", "brand:wikidata": "Q662845"}, "geometry": {"type": "Point", "coordinates": [-2.70192, 53.75747]}},
{"type": "Feature", "id": "T7Kk58b6VAq6BxyJOiZ9z7wezVc=", "properties": {"ref": "2251", "@spider": "pizza_express", "addr:full": "117a King Street", "addr:city": "Knutsford", "addr:postcode": "WA16 6EH", "addr:country": "UK", "name": "Pizza Express", "phone": "01565 651 898", "brand": "Pizza Express", "brand:wikidata": "Q662845"}, "geometry": {"type": "Point", "coordinates": [-2.37389, 53.30586]}},
{"type": "Feature", "id": "ELB3lLgtnEDrmHMgddbOgacQZqY=", "properties": {"ref": "2211", "@spider": "pizza_express", "addr:full": "142 Ashley Road", "addr:city": "Cheshire", "addr:postcode": "WA15 9SA", "addr:country": "UK", "name": "Pizza Express", "phone": "0161 928 6644", "brand": "Pizza Express", "brand:wikidata": "Q662845"}, "geometry": {"type": "Point", "coordinates": [-2.34715, 53.37777]}},
{"type": "Feature", "id": "_6bxRJcigqz1BlpUVk-ewClaB4U=", "properties": {"ref": "3256", "@spider": "pizza_express", "addr:full": "Unit R8a", "addr:city": "Manchester", "addr:postcode": "M17 8EQ", "addr:country": "UK", "name": "Pizza Express", "phone": "0161 747 2121", "brand": "Pizza Express", "brand:wikidata": "Q662845"}, "geometry": {"type": "Point", "coordinates": [-2.349, 53.46619]}},
{"type": "Feature", "id": "khKGx8qqijhDqNAqDOseI10pU2o=", "properties": {"ref": "1721", "@spider": "pizza_express", "addr:full": "26 Alderley Road", "addr:city": "Cheshire", "addr:postcode": "SK9 1PL", "addr:country": "UK", "name": "Pizza Express", "phone": "01625 540 055", "brand": "Pizza Express", "brand:wikidata": "Q662845"}, "geometry": {"type": "Point", "coordinates": [-2.23378, 53.32542]}},
{"type": "Feature", "id": "rzfpaE2J8u10xsnVd_b3-jVWUQ0=", "properties": {"ref": "3031", "@spider": "pizza_express", "addr:full": "G38 The Lowry Designer Outlet", "addr:city": "Salford", "addr:postcode": "M50 3AZ", "addr:country": "UK", "name": "Pizza Express", "phone": "0161 877 3585", "brand": "Pizza Express", "brand:wikidata": "Q662845"}, "geometry": {"type": "Point", "coordinates": [-2.29306, 53.47077]}},
{"type": "Feature", "id": "t1XgoflPXJt0MZZRzIshpgoxlQ0=", "properties": {"ref": "5020", "@spider": "pizza_express", "addr:full": "La Route de la Baie", "addr:city": "Jersey", "addr:postcode": "JE3 8Ef", "addr:country": "UK", "name": "Pizza Express", "phone": "01534 499049", "brand": "Pizza Express", "brand:wikidata": "Q662845"}, "geometry": {"type": "Point", "coordinates": [-2.20057, 49.18518]}},
{"type": "Feature", "id": "okYwjcrnP8M7ZUBRUQJkmcBQ25Q=", "properties": {"ref": "5010", "@spider": "pizza_express", "addr:full": "59 Halkett Place", "addr:city": "Jersey", "addr:postcode": "JE2 4WG", "addr:country": "UK", "name": "Pizza Express", "phone": "01534 733291", "brand": "Pizza Express", "brand:wikidata": "Q662845"}, "geometry": {"type": "Point", "coordinates": [-2.104674, 49.1858253]}},
{"type": "Feature", "id": "Ru9oNbu51d1RdmAD6Q4lumzPaxs=", "properties": {"ref": "731", "@spider": "pizza_express", "addr:full": "4 Market Place", "addr:city": "Macclesfield", "addr:postcode": "SK10 1EX", "addr:country": "UK", "name": "Pizza Express", "phone": "01625 425 175", "brand": "Pizza Express", "brand:wikidata": "Q662845"}, "geometry": {"type": "Point", "coordinates": [-2.12525, 53.26128]}},
{"type": "Feature", "id": "2GBgR0D4G4VtgVMLVDC0fj-2Wac=", "properties": {"ref": "1691", "@spider": "pizza_express", "addr:full": "83-85 High Street", "addr:city": "Cheadle", "addr:postcode": "SK8 1AA", "addr:country": "UK", "name": "Pizza Express", "phone": "0161 491 1442", "brand": "Pizza Express", "brand:wikidata": "Q662845"}, "geometry": {"type": "Point", "coordinates": [-2.21677, 53.39393]}},
{"type": "Feature", "id": "pu1vNA2bj6TRFq07iL_p2glmm0E=", "properties": {"ref": "3469", "@spider": "pizza_express", "addr:full": "FB04", "addr:city": "Cannock", "addr:postcode": "WS11 7JZ", "addr:country": "UK", "name": "Pizza Express", "phone": "01543 201790", "brand": "Pizza Express", "brand:wikidata": "Q662845"}, "geometry": {"type": "Point", "coordinates": [-2.01733851, 52.6875153]}},
{"type": "Feature", "id": "PR04FoRCSjlEtIkrYVfg6uUifH0=", "properties": {"ref": "1891", "@spider": "pizza_express", "addr:full": "95 Lapwing Lane", "addr:city": "Lancashire", "addr:postcode": "M20 6UR", "addr:country": "UK", "name": "Pizza Express", "phone": "0161 438 0838", "brand": "Pizza Express", "brand:wikidata": "Q662845"}, "geometry": {"type": "Point", "coordinates": [-2.23551, 53.42491]}},
{"type": "Feature", "id": "MPUQeJtPs5VQhhHyyAPVJCyulQU=", "properties": {"ref": "3331", "@spider": "pizza_express", "addr:full": "6 Market Square", "addr:city": "Oxfordshire", "addr:postcode": "OX28 6BB", "addr:country": "UK", "name": "Pizza Express", "phone": "01993 709 711", "brand": "Pizza Express", "brand:wikidata": "Q662845"}, "geometry": {"type": "Point", "coordinates": [-1.485819, 51.78453]}},
{"type": "Feature", "id": "W2JgTKPVDsUsEQfGuFTTT9fznlA=", "properties": {"ref": "3339", "@spider": "pizza_express", "addr:full": "Unit R9", "addr:city": "Basingstoke", "addr:postcode": "RG21 7BB", "addr:country": "UK", "name": "Pizza Express", "phone": "01256 474 447", "brand": "Pizza Express", "brand:wikidata": "Q662845"}, "geometry": {"type": "Point", "coordinates": [-1.083227, 51.26546]}},
{"type": "Feature", "id": "hh3Vkd8VG9WoyJmLTIQwuUJtWRg=", "properties": {"ref": "981", "@spider": "pizza_express", "addr:full": "9 Stert Street", "addr:city": "Oxfordshire", "addr:postcode": "OX14 3JF", "addr:country": "UK", "name": "Pizza Express", "phone": "01235 536 033", "brand": "Pizza Express", "brand:wikidata": "Q662845"}, "geometry": {"type": "Point", "coordinates": [-1.28105, 51.67106]}},
{"type": "Feature", "id": "BVQkXnu4r3a1CyCYunr1wOaSnpw=", "properties": {"ref": "3081", "@spider": "pizza_express", "addr:full": "5 Market Square", "addr:city": "Alton", "addr:postcode": "GU34 1HD", "addr:country": "UK", "name": "Pizza Express", "phone": "01420 89 839", "brand": "Pizza Express", "brand:wikidata": "Q662845"}, "geometry": {"type": "Point", "coordinates": [-0.97851, 51.14848]}},
{"type": "Feature", "id": "Exh9acFFCwLDXwUgpZ09Rvn_l4U=", "properties": {"ref": "2991", "@spider": "pizza_express", "addr:full": "25-27 Chapel Street", "addr:city": "Petersfield", "addr:postcode": "GU32 3DY", "addr:country": "UK", "name": "Pizza Express", "phone": "01730 710357", "brand": "Pizza Express", "brand:wikidata": "Q662845"}, "geometry": {"type": "Point", "coordinates": [-0.93806, 51.00533]}},
{"type": "Feature", "id": "9-muYjjwjvfSO9nTrpK1D_90IK4=", "properties": {"ref": "251", "@spider": "pizza_express", "addr:full": "The Golden Cross", "addr:city": "Oxford", "addr:postcode": "OX1 3EX", "addr:country": "UK", "name": "Pizza Express", "phone": "01865 790 442", "brand": "Pizza Express", "brand:wikidata": "Q662845"}, "geometry": {"type": "Point", "coordinates": [-1.25777, 51.75238]}},
{"type": "Feature", "id": "xgoHEe5iHS6gChLzQ8MpigXzkPQ=", "properties": {"ref": "3226", "@spider": "pizza_express", "addr:full": "12 St Mary Street", "addr:city": "Oxfordshire", "addr:postcode": "OX10 0EW", "addr:country": "UK", "name": "Pizza Express", "phone": "01491 833431", "brand": "Pizza Express", "brand:wikidata": "Q662845"}, "geometry": {"type": "Point", "coordinates": [-1.12464, 51.59896]}},
{"type": "Feature", "id": "XUqE1g408c_e2WOxTN7QT6XfKfE=", "properties": {"ref": "3259", "@spider": "pizza_express", "addr:full": "R11 Riverside Level", "addr:city": "Berkshire", "addr:postcode": "RG1 2AG", "addr:country": "UK", "name": "Pizza Express", "phone": "0118 957 4411", "brand": "Pizza Express", "brand:wikidata": "Q662845"}, "geometry": {"type": "Point", "coordinates": [-0.9713, 51.45364]}},
{"type": "Feature", "id": "1ysdb1OXpyGg51CKbKhZXCGX_pA=", "properties": {"ref": "4203", "@spider": "pizza_express", "addr:full": "Welcome Break", "addr:city": "Hants", "addr:postcode": "GU51 1AA", "addr:country": "UK", "name": "Pizza Express", "phone": "01252 960 400", "brand": "Pizza Express", "brand:wikidata": "Q662845"}, "geometry": {"type": "Point", "coordinates": [-0.8557, 51.2961]}},
{"type": "Feature", "id": "ZZ_NmK0eYlXApJuCJ_1cYLGm2Fg=", "properties": {"ref": "3281", "@spider": "pizza_express", "addr:full": "200 Fleet Road", "addr:city": "Fleet", "addr:postcode": "GU51 4BY", "addr:country": "UK", "name": "Pizza Express", "phone": "01252 813 777", "brand": "Pizza Express", "brand:wikidata": "Q662845"}, "geometry": {"type": "Point", "coordinates": [-0.84412, 51.27985]}},
{"type": "Feature", "id": "oCj0lgcI3WD0bozHTolp574QSJw=", "properties": {"ref": "1931", "@spider": "pizza_express", "addr:full": "5 Ely Street", "addr:city": "Stratford-upon-Avon", "addr:postcode": "CV37 6LW", "addr:country": "UK", "name": "Pizza Express", "phone": "01789 264 124", "brand": "Pizza Express", "brand:wikidata": "Q662845"}, "geometry": {"type": "Point", "coordinates": [-1.70873, 52.19153]}},
{"type": "Feature", "id": "cbG6nVawMkSr-xJRspL223mLB5o=", "properties": {"ref": "421", "@spider": "pizza_express", "addr:full": "27 South Street", "addr:city": "Chichester", "addr:postcode": "PO19 1EL", "addr:country": "UK", "name": "Pizza Express", "phone": "01243 786 648", "brand": "Pizza Express", "brand:wikidata": "Q662845"}, "geometry": {"type": "Point", "coordinates": [-0.77986, 50.8345]}},
{"type": "Feature", "id": "mMGqxwb6XjPv5b_YpoDv0ircYok=", "properties": {"ref": "4201", "@spider": "pizza_express", "addr:full": "Welcome Break", "addr:city": "Waterstock", "addr:postcode": "OX33 1LJ", "addr:country": "UK", "name": "Pizza Express", "phone": "01865 950 853", "brand": "Pizza Express", "brand:wikidata": "Q662845"}, "geometry": {"type": "Point", "coordinates": [-1.0972, 51.738]}},
{"type": "Feature", "id": "hz_KzYcwOVDZ_8bw0Ugt72uqvIQ=", "properties": {"ref": "771", "@spider": "pizza_express", "addr:full": "74 Castle Street", "addr:city": "Farnham", "addr:postcode": "GU9 7LS", "addr:country": "UK", "name": "Pizza Express", "phone": "01252 733 220", "brand": "Pizza Express", "brand:wikidata": "Q662845"}, "geometry": {"type": "Point", "coordinates": [-0.799, 51.2155]}},
{"type": "Feature", "id": "EiZm-D6HuPygsHb1k2q0sYhNNm0=", "properties": {"ref": "961", "@spider": "pizza_express", "addr:full": "35 Market Place", "addr:city": "Henley-on-Thames", "addr:postcode": "RG9 2AA", "addr:country": "UK", "name": "Pizza Express", "phone": "01491 411 448", "brand": "Pizza Express", "brand:wikidata": "Q662845"}, "geometry": {"type": "Point", "coordinates": [-0.90613, 51.53715]}},
{"type": "Feature", "id": "wv2Btu0SmKf85EoHunWyDTbIcy0=", "properties": {"ref": "3421", "@spider": "pizza_express", "addr:full": "Unit 4", "addr:city": "Manchester", "addr:postcode": "M15 4FN", "addr:country": "UK", "name": "Pizza Express", "phone": "0161 236 6777", "brand": "Pizza Express", "brand:wikidata": "Q662845"}, "geometry": {"type": "Point", "coordinates": [-2.246992, 53.47273]}},
{"type": "Feature", "id": "oTj7FJvX7m0GXgTSxcz_sQScWtE=", "properties": {"ref": "3332", "@spider": "pizza_express", "addr:full": "Unit B", "addr:city": "Manchester", "addr:postcode": "M1 6FQ", "addr:country": "UK", "name": "Pizza Express", "phone": "0161 2286665", "brand": "Pizza Express", "brand:wikidata": "Q662845"}, "geometry": {"type": "Point", "coordinates": [-2.241082, 53.47551]}},
{"type": "Feature", "id": "IrdAZ4izIzN9zfLD14dScl5Jg4Y=", "properties": {"ref": "3411", "@spider": "pizza_express", "addr:full": "84-86 King Street", "addr:city": "Manchester", "addr:postcode": "M2 4WQ", "addr:country": "UK", "name": "Pizza Express", "phone": "0161 832 5435", "brand": "Pizza Express", "brand:wikidata": "Q662845"}, "geometry": {"type": "Point", "coordinates": [-2.243458, 53.4808]}},
{"type": "Feature", "id": "YmU0virMja4m0oY_9SHc8gMim08=", "properties": {"ref": "2751", "@spider": "pizza_express", "addr:full": "The Corn Exchange", "addr:city": "Manchester", "addr:postcode": "M4 3TR", "addr:country": "UK", "name": "Pizza Express", "phone": "01618346130", "brand": "Pizza Express", "brand:wikidata": "Q662845"}, "geometry": {"type": "Point", "coordinates": [-2.243108, 53.4850731]}},
{"type": "Feature", "id": "2y0iw_2qmTJkAz1mUQRRRAfKCQk=", "properties": {"ref": "3255", "@spider": "pizza_express", "addr:full": "Piccadilly Gardens", "addr:city": "Manchester", "addr:postcode": "M1 1RG", "addr:country": "UK", "name": "Pizza Express", "phone": "0161 237 1811", "brand": "Pizza Express", "brand:wikidata": "Q662845"}, "geometry": {"type": "Point", "coordinates": [-2.23644, 53.48035]}},
{"type": "Feature", "id": "y38L59Prt2CH3SKFvqKMxfoP5iA=", "properties": {"ref": "3317", "@spider": "pizza_express", "addr:full": "1 Rock Place", "addr:city": "Bury", "addr:postcode": "BL9 0JX", "addr:country": "UK", "name": "Pizza Express", "phone": "01617 633 655", "brand": "Pizza Express", "brand:wikidata": "Q662845"}, "geometry": {"type": "Point", "coordinates": [-2.290124, 53.59468]}},
{"type": "Feature", "id": "iGkrPaZ7JFiMwCs29BuFKraPDAQ=", "properties": {"ref": "2311", "@spider": "pizza_express", "addr:full": "153-155 High Street", "addr:city": "Birmingham", "addr:postcode": "B17 9QE", "addr:country": "UK", "name": "Pizza Express", "phone": "0121 427 6009", "brand": "Pizza Express", "brand:wikidata": "Q662845"}, "geometry": {"type": "Point", "coordinates": [-1.94975, 52.45872]}},
{"type": "Feature", "id": "0V2k3TUpPGkuuxGPXhDnz0IRIEo=", "properties": {"ref": "841", "@spider": "pizza_express", "addr:full": "The Waters Edge", "addr:city": "Birmingham", "addr:postcode": "B1 2HL", "addr:country": "UK", "name": "Pizza Express", "phone": "0121 643 2500", "brand": "Pizza Express", "brand:wikidata": "Q662845"}, "geometry": {"type": "Point", "coordinates": [-1.91246, 52.47811]}},
{"type": "Feature", "id": "RkidsRo6qMqV0JVXcmF1bz28SiY=", "properties": {"ref": "3225", "@spider": "pizza_express", "addr:full": "Birmingham Bullring", "addr:city": "Birmingham", "addr:postcode": "B5 4BF", "addr:country": "UK", "name": "Pizza Express", "phone": "0121 643 7209", "brand": "Pizza Express", "brand:wikidata": "Q662845"}, "geometry": {"type": "Point", "coordinates": [-1.8939, 52.47795]}},
{"type": "Feature", "id": "9j2D2L5QgWQXFzLQeHXjlMz3vYk=", "properties": {"ref": "3450", "@spider": "pizza_express", "addr:full": "41/43 Park Lane", "addr:city": "Poynton", "addr:postcode": "SK12 1RD", "addr:country": "UK", "name": "Pizza Express", "phone": "01625 872 200", "brand": "Pizza Express", "brand:wikidata": "Q662845"}, "geometry": {"type": "Point", "coordinates": [-2.1197, 53.3489]}},
{"type": "Feature", "id": "Z8Yrub8T-TyBg51fDS_HzqPjAMQ=", "properties": {"ref": "3452", "@spider": "pizza_express", "addr:full": "Unit B02 Redrock", "addr:city": "Stockport", "addr:postcode": "SK1 1SA", "addr:country": "UK", "name": "Pizza Express", "phone": "01612 592 060", "brand": "Pizza Express", "brand:wikidata": "Q662845"}, "geometry": {"type": "Point", "coordinates": [-2.159431, 53.4130058]}},
{"type": "Feature", "id": "VzO5sK9PhnjseMtUP1wDZKsZyGE=", "properties": {"ref": "3208", "@spider": "pizza_express", "addr:full": "14 Cavendish Arcade", "addr:city": "Buxton", "addr:postcode": "SK17 6BQ", "addr:country": "UK", "name": "Pizza Express", "phone": "01298 24922", "brand": "Pizza Express", "brand:wikidata": "Q662845"}, "geometry": {"type": "Point", "coordinates": [-1.91394, 53.25931]}},
{"type": "Feature", "id": "mKxQnQrLrm2kcTq-Y37pAC4b90Q=", "properties": {"ref": "1801", "@spider": "pizza_express", "addr:full": "5-7 Birmingham Road", "addr:city": "Sutton Coldfield", "addr:postcode": "B72 1QA", "addr:country": "UK", "name": "Pizza Express", "phone": "0121 354 9261", "brand": "Pizza Express", "brand:wikidata": "Q662845"}, "geometry": {"type": "Point", "coordinates": [-1.82708, 52.55813]}},
{"type": "Feature", "id": "qCZDDu3zG3D_t2oG90FzOn5gARQ=", "properties": {"ref": "3380", "@spider": "pizza_express", "addr:full": "Ventura Court", "addr:city": "Staffordshire", "addr:postcode": "B78 3HB", "addr:country": "UK", "name": "Pizza Express", "phone": "01827 311055", "brand": "Pizza Express", "brand:wikidata": "Q662845"}, "geometry": {"type": "Point", "coordinates": [-1.703709, 52.62771]}},
{"type": "Feature", "id": "GHmJ1X3Uq_tCFmyiEqo6Qn7DR4M=", "properties": {"ref": "1051", "@spider": "pizza_express", "addr:full": "25 Broad Street", "addr:city": "Berkshire", "addr:postcode": "RG40 1AU", "addr:country": "UK", "name": "Pizza Express", "phone": "0118 977 0826", "brand": "Pizza Express", "brand:wikidata": "Q662845"}, "geometry": {"type": "Point", "coordinates": [-0.83505, 51.41121]}},
{"type": "Feature", "id": "aabJBMLhPYuD1imh0j_WWj16ZEA=", "properties": {"ref": "3354", "@spider": "pizza_express", "addr:full": "8 Westgate", "addr:city": "Aldershot", "addr:postcode": "GU11 1WF", "addr:country": "UK", "name": "Pizza Express", "phone": "01252 330 221", "brand": "Pizza Express", "brand:wikidata": "Q662845"}, "geometry": {"type": "Point", "coordinates": [-0.770858, 51.24998]}},
{"type": "Feature", "id": "xGuaQnbBpFop32ZxIB0s_2uG2_A=", "properties": {"ref": "2101", "@spider": "pizza_express", "addr:full": "1 Causeway Side", "addr:city": "Surrey", "addr:postcode": "GU27 2JZ", "addr:country": "UK", "name": "Pizza Express", "phone": "01428 642 245", "brand": "Pizza Express", "brand:wikidata": "Q662845"}, "geometry": {"type": "Point", "coordinates": [-0.70906, 51.08884]}},
{"type": "Feature", "id": "4wfYlO4WhH0VJ3AvqkQDj5Mzdvs=", "properties": {"ref": "2491", "@spider": "pizza_express", "addr:full": "29 Market Square", "addr:city": "Bicester", "addr:postcode": "OX26 6AG", "addr:country": "UK", "name": "Pizza Express", "phone": "01869 324 941", "brand": "Pizza Express", "brand:wikidata": "Q662845"}, "geometry": {"type": "Point", "coordinates": [-1.15092, 51.89656]}},
{"type": "Feature", "id": "bIt4PlDVJDFAVadJwlv2SPsvEKs=", "properties": {"ref": "411", "@spider": "pizza_express", "addr:full": "52 Park Street", "addr:city": "Surrey", "addr:postcode": "GU15 3PT", "addr:country": "UK", "name": "Pizza Express", "phone": "01276 21846", "brand": "Pizza Express", "brand:wikidata": "Q662845"}, "geometry": {"type": "Point", "coordinates": [-0.7481, 51.3372]}},
{"type": "Feature", "id": "mMhZQonxOunG143LatcuEBsw4-U=", "properties": {"ref": "3470", "@spider": "pizza_express", "addr:full": "176 High Street", "addr:city": "Cranleigh", "addr:postcode": "GU6 8RN", "addr:country": "UK", "name": "Pizza Express", "phone": "01483 908280", "brand": "Pizza Express", "brand:wikidata": "Q662845"}, "geometry": {"type": "Point", "coordinates": [-0.7481, 51.3372]}},
{"type": "Feature", "id": "brC2mBHL5RL80VjP7J0Rv6jg0HA=", "properties": {"ref": "1751", "@spider": "pizza_express", "addr:full": "39 High Street", "addr:city": "Banbury", "addr:postcode": "OX16 5ET", "addr:country": "UK", "name": "Pizza Express", "phone": "01295 278 578", "brand": "Pizza Express", "brand:wikidata": "Q662845"}, "geometry": {"type": "Point", "coordinates": [-1.33906, 52.06018]}},
{"type": "Feature", "id": "WPEfnWaoDTrxTgmuCupTpU3eLiw=", "properties": {"ref": "3409", "@spider": "pizza_express", "addr:full": "7 Eagle Lane", "addr:city": "Bracknell", "addr:postcode": "RG12 1HB", "addr:country": "UK", "name": "Pizza Express", "phone": "01344 551 144", "brand": "Pizza Express", "brand:wikidata": "Q662845"}, "geometry": {"type": "Point", "coordinates": [-0.7512, 51.4174]}},
{"type": "Feature", "id": "F0NQ__osSdo_9GRHvVpfsoiNWPU=", "properties": {"ref": "1021", "@spider": "pizza_express", "addr:full": "48 High Street", "addr:city": "Marlow", "addr:postcode": "SL7 1AW", "addr:country": "UK", "name": "Pizza Express", "phone": "01628 475 333", "brand": "Pizza Express", "brand:wikidata": "Q662845"}, "geometry": {"type": "Point", "coordinates": [-0.77629, 51.57101]}},
{"type": "Feature", "id": "TRCJTrnQ9PaMFQKc7CH5WeSfwEk=", "properties": {"ref": "3220", "@spider": "pizza_express", "addr:full": "33-35 Jury Street", "addr:city": "Warwickshire", "addr:postcode": "CV34 4EH", "addr:country": "UK", "name": "Pizza Express", "phone": "01926 407895", "brand": "Pizza Express", "brand:wikidata": "Q662845"}, "geometry": {"type": "Point", "coordinates": [-1.5869, 52.2817]}},
{"type": "Feature", "id": "wydyCgpnI1YcyoP-BRjciVmO1RY=", "properties": {"ref": "1761", "@spider": "pizza_express", "addr:full": "127-129 High Street", "addr:city": "Surrey", "addr:postcode": "GU7 1AF", "addr:country": "UK", "name": "Pizza Express", "phone": "01483 860 880", "brand": "Pizza Express", "brand:wikidata": "Q662845"}, "geometry": {"type": "Point", "coordinates": [-0.61633, 51.18486]}},
{"type": "Feature", "id": "YxVO4GWvqhHoo57z8w1trlVfp0U=", "properties": {"ref": "3263", "@spider": "pizza_express", "addr:full": "6 Wainwright's Yard", "addr:city": "Kendal", "addr:postcode": "LA9 4DP", "addr:country": "UK", "name": "Pizza Express", "phone": "01539 728598", "brand": "Pizza Express", "brand:wikidata": "Q662845"}, "geometry": {"type": "Point", "coordinates": [-2.74807, 54.3282]}},
{"type": "Feature", "id": "sGCRK_O98GiYF1G_8Tf4nNV8OHk=", "properties": {"ref": "3314", "@spider": "pizza_express", "addr:full": "45 Upper Jubilee Walk", "addr:city": "Solihull", "addr:postcode": "B91 3QW", "addr:country": "UK", "name": "Pizza Express", "phone": "0121 711 3478", "brand": "Pizza Express", "brand:wikidata": "Q662845"}, "geometry": {"type": "Point", "coordinates": [-1.779732, 52.41258]}},
{"type": "Feature", "id": "hZmDDx9K69ul3M4OkCkp7szZ9ZE=", "properties": {"ref": "1681", "@spider": "pizza_express", "addr:full": "33 High Street", "addr:city": "Arundel", "addr:postcode": "BN18 9AG", "addr:country": "UK", "name": "Pizza Express", "phone": "01903 885 467", "brand": "Pizza Express", "brand:wikidata": "Q662845"}, "geometry": {"type": "Point", "coordinates": [-0.55405, 50.85418]}},
{"type": "Feature", "id": "y42BU6nxh3sQD8f2Ywtqrk2E6_A=", "properties": {"ref": "3420", "@spider": "pizza_express", "addr:full": "Resorts World", "addr:city": "Birmingham", "addr:postcode": "B40 1PU", "addr:country": "UK", "name": "Pizza Express", "phone": "0121 767 5777", "brand": "Pizza Express", "brand:wikidata": "Q662845"}, "geometry": {"type": "Point", "coordinates": [-1.71771, 52.44824]}},
{"type": "Feature", "id": "kJe50V3HsiedaexgAJxzszzadyg=", "properties": {"ref": "1911", "@spider": "pizza_express", "addr:full": "25 Irongate", "addr:city": "Derbyshire", "addr:postcode": "DE1 3GL", "addr:country": "UK", "name": "Pizza Express", "phone": "01332 349 718", "brand": "Pizza Express", "brand:wikidata": "Q662845"}, "geometry": {"type": "Point", "coordinates": [-1.47816, 52.92418]}},
{"type": "Feature", "id": "nkqgnsNNMZh8wM4331PbFx48KAU=", "properties": {"ref": "3274", "@spider": "pizza_express", "addr:full": "Level 3", "addr:city": "Derbyshire", "addr:postcode": "DE1 2PP", "addr:country": "UK", "name": "Pizza Express", "phone": "01332 366406", "brand": "Pizza Express", "brand:wikidata": "Q662845"}, "geometry": {"type": "Point", "coordinates": [-1.47224, 52.91911]}},
{"type": "Feature", "id": "xFIxpNVM6oga1M6-jfydSm8nTHE=", "properties": {"ref": "3333", "@spider": "pizza_express", "addr:full": "Unit 3", "addr:city": "Yorkshire", "addr:postcode": "S11 8PR", "addr:country": "UK", "name": "Pizza Express", "phone": "0114 267 6626", "brand": "Pizza Express", "brand:wikidata": "Q662845"}, "geometry": {"type": "Point", "coordinates": [-1.495623, 53.36917]}},
{"type": "Feature", "id": "94eKGSVA8kVBxB85XBZjMjEMuRI=", "properties": {"ref": "3292", "@spider": "pizza_express", "addr:full": "Units 3-4", "addr:city": "Coventry", "addr:postcode": "CV1 4BF", "addr:country": "UK", "name": "Pizza Express", "phone": "02476 550 026", "brand": "Pizza Express", "brand:wikidata": "Q662845"}, "geometry": {"type": "Point", "coordinates": [-1.515942, 52.40985]}},
{"type": "Feature", "id": "QrjcMYaf8tNy9doGK9gCBFXvC0Q=", "properties": {"ref": "3374", "@spider": "pizza_express", "addr:full": "Unit 1", "addr:city": "South Yorkshire", "addr:postcode": "S1 2PT", "addr:country": "UK", "name": "Pizza Express", "phone": "0114 276 8808", "brand": "Pizza Express", "brand:wikidata": "Q662845"}, "geometry": {"type": "Point", "coordinates": [-1.468252, 53.37895]}},
{"type": "Feature", "id": "G0xsFjJBaLJ8Fx0hspBy5YUaPzw=", "properties": {"ref": "3424", "@spider": "pizza_express", "addr:full": "East Midlands Designer Outlet", "addr:city": "South Normanton", "addr:postcode": "DE55 2JW", "addr:country": "UK", "name": "Pizza Express", "phone": "01773 811555", "brand": "Pizza Express", "brand:wikidata": "Q662845"}, "geometry": {"type": "Point", "coordinates": [-1.309967, 53.10694]}},
{"type": "Feature", "id": "08kzOjwyZqYgs2kXOtMV2vY0WMc=", "properties": {"ref": "3367", "@spider": "pizza_express", "addr:full": "1B Giltbrook Retail Park", "addr:city": "Nottingham", "addr:postcode": "NG16 2RP", "addr:country": "UK", "name": "Pizza Express", "phone": "0115 938 2778", "brand": "Pizza Express", "brand:wikidata": "Q662845"}, "geometry": {"type": "Point", "coordinates": [-1.28199, 53.00294]}},
{"type": "Feature", "id": "A3ubdi1ogvOkdqiDRo3Kg4Vmr2k=", "properties": {"ref": "3336", "@spider": "pizza_express", "addr:full": "Unit 10B", "addr:city": "South Yorkshire", "addr:postcode": "S9 2EP", "addr:country": "UK", "name": "Pizza Express", "phone": "0114 244 1999", "brand": "Pizza Express", "brand:wikidata": "Q662845"}, "geometry": {"type": "Point", "coordinates": [-1.417239, 53.40095]}},
{"type": "Feature", "id": "eY5z8Xdn-Y1L3f6713lEQndSueM=", "properties": {"ref": "711", "@spider": "pizza_express", "addr:full": "168 The Parade", "addr:city": "Royal Leamington Spa", "addr:postcode": "CV32 4AE", "addr:country": "UK", "name": "Pizza Express", "phone": "01926 886 866", "brand": "Pizza Express", "brand:wikidata": "Q662845"}, "geometry": {"type": "Point", "coordinates": [-1.53535, 52.28816]}},
{"type": "Feature", "id": "5nk9Uasq1OEW4f5BjBkMWqAKQ7c=", "properties": {"ref": "1961", "@spider": "pizza_express", "addr:full": "2-4 Bridge Street", "addr:city": "Maidenhead", "addr:postcode": "SL6 8BJ", "addr:country": "UK", "name": "Pizza Express", "phone": "01628 676878", "brand": "Pizza Express", "brand:wikidata": "Q662845"}, "geometry": {"type": "Point", "coordinates": [-0.71581, 51.52315]}},
{"type": "Feature", "id": "CQKZk4SohmfUyhQb7BKynKR0YXc=", "properties": {"ref": "2331", "@spider": "pizza_express", "addr:full": "16 London Road", "addr:city": "Berkshire", "addr:postcode": "SL5 0DH", "addr:country": "UK", "name": "Pizza Express", "phone": "01344 628 277", "brand": "Pizza Express", "brand:wikidata": "Q662845"}, "geometry": {"type": "Point", "coordinates": [-0.62881, 51.39275]}},
{"type": "Feature", "id": "22zqW6t3XnC1znFGh_TlYUF08BA=", "properties": {"ref": "3395", "@spider": "pizza_express", "addr:full": "The Eden Centre", "addr:city": "Buckinghamshire", "addr:postcode": "HP11 2DB", "addr:country": "UK", "name": "Pizza Express", "phone": "01494 535191", "brand": "Pizza Express", "brand:wikidata": "Q662845"}, "geometry": {"type": "Point", "coordinates": [-0.755194, 51.63048]}},
{"type": "Feature", "id": "-Pao6ELi9knRHlgYNJFYmVn3dOU=", "properties": {"ref": "551", "@spider": "pizza_express", "addr:full": "237-241 High Street", "addr:city": "Surrey", "addr:postcode": "GU1 3BJ", "addr:country": "UK", "name": "Pizza Express", "phone": "01483 300 122", "brand": "Pizza Express", "brand:wikidata": "Q662845"}, "geometry": {"type": "Point", "coordinates": [-0.56749, 51.23754]}},
{"type": "Feature", "id": "f1D-Ey4e77A5lXfgRGJE5mWU0Qs=", "properties": {"ref": "1381", "@spider": "pizza_express", "addr:full": "65 Goldsworth Road", "addr:city": "Surrey", "addr:postcode": "GU21 6LJ", "addr:country": "UK", "name": "Pizza Express", "phone": "01483 750 310", "brand": "Pizza Express", "brand:wikidata": "Q662845"}, "geometry": {"type": "Point", "coordinates": [-0.56499, 51.31741]}},
{"type": "Feature", "id": "OZa6IVZHkcs2T1sBnDrMxrPaqzk=", "properties": {"ref": "1441", "@spider": "pizza_express", "addr:full": "7 Thames Street", "addr:city": "Berkshire", "addr:postcode": "SL4 1PL", "addr:country": "UK", "name": "Pizza Express", "phone": "01753 856 424", "brand": "Pizza Express", "brand:wikidata": "Q662845"}, "geometry": {"type": "Point", "coordinates": [-0.60875, 51.48377]}},
{"type": "Feature", "id": "mEZAsbGoxz5CPrxBx6DCDcy-mFo=", "properties": {"ref": "2571", "@spider": "pizza_express", "addr:full": "80 High Street", "addr:city": "Berkshire", "addr:postcode": "SL1 1EL", "addr:country": "UK", "name": "Pizza Express", "phone": "01753 825 893", "brand": "Pizza Express", "brand:wikidata": "Q662845"}, "geometry": {"type": "Point", "coordinates": [-0.59681, 51.50982]}},
{"type": "Feature", "id": "ZwADcfAcvF6RkwGN8u5m6oEUE2Q=", "properties": {"ref": "4204", "@spider": "pizza_express", "addr:full": "Unit 11", "addr:city": "Beaconsfield", "addr:postcode": "HP9 2SE", "addr:country": "UK", "name": "Pizza Express", "phone": "01494 923 439", "brand": "Pizza Express", "brand:wikidata": "Q662845"}, "geometry": {"type": "Point", "coordinates": [-0.6279, 51.5874]}},
{"type": "Feature", "id": "fm-nbuS2tlNdAc2cCLsP3gVuqZo=", "properties": {"ref": "971", "@spider": "pizza_express", "addr:full": "14 London End", "addr:city": "Beaconsfield", "addr:postcode": "HP9 2JH", "addr:country": "UK", "name": "Pizza Express", "phone": "01494 677 077", "brand": "Pizza Express", "brand:wikidata": "Q662845"}, "geometry": {"type": "Point", "coordinates": [-0.63473, 51.60186]}},
{"type": "Feature", "id": "CaCpsr6lDcS0XZTSGvk6JM9O88s=", "properties": {"ref": "3343", "@spider": "pizza_express", "addr:full": "9 High Street", "addr:city": "North Yorkshire", "addr:postcode": "BD23 1AJ", "addr:country": "UK", "name": "Pizza Express", "phone": "01756 790055", "brand": "Pizza Express", "brand:wikidata": "Q662845"}, "geometry": {"type": "Point", "coordinates": [-2.015766, 53.96289]}},
{"type": "Feature", "id": "Mdo4yzW-9TBNzil9Mz-9US5jf-s=", "properties": {"ref": "3464", "@spider": "pizza_express", "addr:full": "Unit 18", "addr:city": "Bradford", "addr:postcode": "BD1 1EY", "addr:country": "UK", "name": "Pizza Express", "phone": "01274 210 988", "brand": "Pizza Express", "brand:wikidata": "Q662845"}, "geometry": {"type": "Point", "coordinates": [-1.75104, 53.794342]}},
{"type": "Feature", "id": "3f6c_PHcgAqaknBwide6Fes6rAQ=", "properties": {"ref": "3251", "@spider": "pizza_express", "addr:full": "11 Station Plaza", "addr:city": "Ilkley", "addr:postcode": "LS29 8HF", "addr:country": "UK", "name": "Pizza Express", "phone": "01943 817776", "brand": "Pizza Express", "brand:wikidata": "Q662845"}, "geometry": {"type": "Point", "coordinates": [-1.82234, 53.92469]}},
{"type": "Feature", "id": "hCR5P9530mrsJvwT92Gilp3tWfs=", "properties": {"ref": "3363", "@spider": "pizza_express", "addr:full": "Junction 27 Retail Park", "addr:city": "West Yorkshire", "addr:postcode": "WF17 9AD", "addr:country": "UK", "name": "Pizza Express", "phone": "01924 445900", "brand": "Pizza Express", "brand:wikidata": "Q662845"}, "geometry": {"type": "Point", "coordinates": [-1.643863, 53.74612]}},
{"type": "Feature", "id": "f_x3OcKT8ST5JRiUTc9sHDpn9CY=", "properties": {"ref": "3202", "@spider": "pizza_express", "addr:full": "54b The Oasis", "addr:city": "Sheffield", "addr:postcode": "S9 1EP", "addr:country": "UK", "name": "Pizza Express", "phone": "0114 256 9623", "brand": "Pizza Express", "brand:wikidata": "Q662845"}, "geometry": {"type": "Point", "coordinates": [-1.41246, 53.41306]}},
{"type": "Feature", "id": "6h_EVcrecy5TwqNlPiCqF287vds=", "properties": {"ref": "3408", "@spider": "pizza_express", "addr:full": "1 Old Hospital Court", "addr:city": "Loughborough", "addr:postcode": "LE11 1FS", "addr:country": "UK", "name": "Pizza Express", "phone": "01509 216600 ", "brand": "Pizza Express", "brand:wikidata": "Q662845"}, "geometry": {"type": "Point", "coordinates": [-1.204055, 52.7723579]}},
{"type": "Feature", "id": "h2oGn-zeAdGZWSrI1fngbhJeLJY=", "properties": {"ref": "441", "@spider": "pizza_express", "addr:full": "20 King Street", "addr:city": "Nottingham", "addr:postcode": "NG1 2AS", "addr:country": "UK", "name": "Pizza Express", "phone": "0115 952 9095", "brand": "Pizza Express", "brand:wikidata": "Q662845"}, "geometry": {"type": "Point", "coordinates": [-1.1492, 52.95437]}},
{"type": "Feature", "id": "RpdNE9MkZw9twZlWG2nhNHhmvEs=", "properties": {"ref": "3236", "@spider": "pizza_express", "addr:full": "72 Bridgford Road", "addr:city": "Nottinghamshire", "addr:postcode": "NG2 6AP", "addr:country": "UK", "name": "Pizza Express", "phone": "0115 981 4002", "brand": "Pizza Express", "brand:wikidata": "Q662845"}, "geometry": {"type": "Point", "coordinates": [-1.12929, 52.93364]}},
{"type": "Feature", "id": "4EvP6uuKyqLm3BL8sdEUBKbV86k=", "properties": {"ref": "3375", "@spider": "pizza_express", "addr:full": "18 Bath House Lane", "addr:city": "Leicestershire", "addr:postcode": "LE1 4SA", "addr:country": "UK", "name": "Pizza Express", "phone": "0116 2625880", "brand": "Pizza Express", "brand:wikidata": "Q662845"}, "geometry": {"type": "Point", "coordinates": [-1.137904, 52.63693]}},
{"type": "Feature", "id": "smjV3gRqUrBAKxgcTOJJ4OwUzHQ=", "properties": {"ref": "3383", "@spider": "pizza_express", "addr:full": "23-24 High Street", "addr:city": "Warwickshire", "addr:postcode": "CV21 3BG", "addr:country": "UK", "name": "Pizza Express", "phone": "01788 553 220", "brand": "Pizza Express", "brand:wikidata": "Q662845"}, "geometry": {"type": "Point", "coordinates": [-1.262784, 52.37133]}},
{"type": "Feature", "id": "F59-V-ZfoZAMT8HO1oVeKBbZink=", "properties": {"ref": "3321", "@spider": "pizza_express", "addr:full": "Unit 9-10 Arndale Centre", "addr:city": "Yorkshire", "addr:postcode": "LS6 2UJ", "addr:country": "UK", "name": "Pizza Express", "phone": "0113 278 3828", "brand": "Pizza Express", "brand:wikidata": "Q662845"}, "geometry": {"type": "Point", "coordinates": [-1.578295, 53.8222]}},
{"type": "Feature", "id": "YqjgJEcYOIe3NelGZgZOefBXh_M=", "properties": {"ref": "3345", "@spider": "pizza_express", "addr:full": "4 Albion Place", "addr:city": "Yorkshire", "addr:postcode": "LS1 6JL", "addr:country": "UK", "name": "Pizza Express", "phone": "0113 2422131", "brand": "Pizza Express", "brand:wikidata": "Q662845"}, "geometry": {"type": "Point", "coordinates": [-1.544538, 53.79799]}},
{"type": "Feature", "id": "2mp3mulvVsH1-wFYkhUksZVDeBE=", "properties": {"ref": "3280", "@spider": "pizza_express", "addr:full": "Unit 1", "addr:city": "Yorkshire", "addr:postcode": "LS10 1LU", "addr:country": "UK", "name": "Pizza Express", "phone": "0113 245 4445", "brand": "Pizza Express", "brand:wikidata": "Q662845"}, "geometry": {"type": "Point", "coordinates": [-1.52939, 53.78983]}},
{"type": "Feature", "id": "Wx7q843uXDJQ5wdhQrgxg3GtTn8=", "properties": {"ref": "3463", "@spider": "pizza_express", "addr:full": "23 Merrion Way,\u00a0Leeds", "addr:city": "Leeds", "addr:postcode": "LS2 8BT", "addr:country": "UK", "name": "Pizza Express", "phone": "0113 221 1890", "brand": "Pizza Express", "brand:wikidata": "Q662845"}, "geometry": {"type": "Point", "coordinates": [-1.544242, 53.8026962]}},
{"type": "Feature", "id": "8eYqnTstnBUkylSvO1ijiCWo3NA=", "properties": {"ref": "3382", "@spider": "pizza_express", "addr:full": "3 London Street", "addr:city": "Chertsey", "addr:postcode": "KT16 8AP", "addr:country": "UK", "name": "Pizza Express", "phone": "01932 566 537", "brand": "Pizza Express", "brand:wikidata": "Q662845"}, "geometry": {"type": "Point", "coordinates": [-0.501941, 51.3916]}},
{"type": "Feature", "id": "6hwEigHhbVe07cfl_Zxzip4nong=", "properties": {"ref": "1631", "@spider": "pizza_express", "addr:full": "1 Monument Hill", "addr:city": "Surrey", "addr:postcode": "KT13 8RX", "addr:country": "UK", "name": "Pizza Express", "phone": "01932 829 059", "brand": "Pizza Express", "brand:wikidata": "Q662845"}, "geometry": {"type": "Point", "coordinates": [-0.45527, 51.37343]}},
{"type": "Feature", "id": "Lw55lF5LH5a8WLdwNtsWRng1qww=", "properties": {"ref": "3322", "@spider": "pizza_express", "addr:full": "45-47 Packhorse Road", "addr:city": "Buckinghamshire", "addr:postcode": "SL9 8PE", "addr:country": "UK", "name": "Pizza Express", "phone": "01753 880655", "brand": "Pizza Express", "brand:wikidata": "Q662845"}, "geometry": {"type": "Point", "coordinates": [-0.553912, 51.58765]}},
{"type": "Feature", "id": "1cgamgbSo2mT-NKHDDV1rEuroeo=", "properties": {"ref": "2151", "@spider": "pizza_express", "addr:full": "12 Sycamore Road", "addr:city": "Amersham", "addr:postcode": "HP6 5DR", "addr:country": "UK", "name": "Pizza Express", "phone": "01494 725 735", "brand": "Pizza Express", "brand:wikidata": "Q662845"}, "geometry": {"type": "Point", "coordinates": [-0.60632, 51.67754]}},
{"type": "Feature", "id": "NiaGY8rLupgsXyx3RUAxWFUqWdY=", "properties": {"ref": "1391", "@spider": "pizza_express", "addr:full": "Stanford Cottage", "addr:city": "West Sussex", "addr:postcode": "BN11 3EZ", "addr:country": "UK", "name": "Pizza Express", "phone": "01903 821 133", "brand": "Pizza Express", "brand:wikidata": "Q662845"}, "geometry": {"type": "Point", "coordinates": [-0.36842, 50.81155]}},
{"type": "Feature", "id": "xEXrkDjha0qAkaxNSbhFsIUs_5o=", "properties": {"ref": "4202", "@spider": "pizza_express", "addr:full": "Extra Services", "addr:city": "Cobham", "addr:postcode": "KT11 3DB", "addr:country": "UK", "name": "Pizza Express", "phone": "01932 361 648  ", "brand": "Pizza Express", "brand:wikidata": "Q662845"}, "geometry": {"type": "Point", "coordinates": [-0.405638, 51.3041458]}},
{"type": "Feature", "id": "BPVViMREm_8sOLtnTkUkaJBVUCI=", "properties": {"ref": "2521", "@spider": "pizza_express", "addr:full": "21 Lowther Street", "addr:city": "Carlisle", "addr:postcode": "CA3 8ES", "addr:country": "UK", "name": "Pizza Express", "phone": "01228 599 638", "brand": "Pizza Express", "brand:wikidata": "Q662845"}, "geometry": {"type": "Point", "coordinates": [-2.93349, 54.89251]}},
{"type": "Feature", "id": "V-5yiFfPQEX8TZyTqPV-0_XHaaM=", "properties": {"ref": "4206", "@spider": "pizza_express", "addr:full": "Leeds Skelton Lake Services", "addr:city": "Leeds", "addr:postcode": "LS9 0AS", "addr:country": "UK", "name": "Pizza Express", "phone": "0113 468 8903", "brand": "Pizza Express", "brand:wikidata": "Q662845"}, "geometry": {"type": "Point", "coordinates": [-1.47079229, 53.7728348]}},
{"type": "Feature", "id": "yEv7kdWzl53xdyONLY5Z30qV1-0=", "properties": {"ref": "2531", "@spider": "pizza_express", "addr:full": "96-98 Street Lane", "addr:city": "Yorkshire", "addr:postcode": "LS8 2AL", "addr:country": "UK", "name": "Pizza Express", "phone": "0113 268 4509", "brand": "Pizza Express", "brand:wikidata": "Q662845"}, "geometry": {"type": "Point", "coordinates": [-1.51096, 53.84501]}},
{"type": "Feature", "id": "UY68G681m8Rd9kp-7qwUofrLjjI=", "properties": {"ref": "3433", "@spider": "pizza_express", "addr:full": "Unit 60/61", "addr:city": "Gretna,", "addr:postcode": "DG16 5GG", "addr:country": "UK", "name": "Pizza Express", "phone": "01461 337 770", "brand": "Pizza Express", "brand:wikidata": "Q662845"}, "geometry": {"type": "Point", "coordinates": [-3.0573, 54.9961]}},
{"type": "Feature", "id": "zNi9JJRDSGcdzagjlo4UZGHnlrU=", "properties": {"ref": "2401", "@spider": "pizza_express", "addr:full": "6 Derngate", "addr:city": "Northampton", "addr:postcode": "NN1 1UB", "addr:country": "UK", "name": "Pizza Express", "phone": "01604 232060", "brand": "Pizza Express", "brand:wikidata": "Q662845"}, "geometry": {"type": "Point", "coordinates": [-0.89413, 52.23686]}},
{"type": "Feature", "id": "0guOkxLK7Gh2DjkzBeg2_Vr4yj4=", "properties": {"ref": "3240", "@spider": "pizza_express", "addr:full": "142-144 Midsummer Arcade", "addr:city": "Milton Keynes", "addr:postcode": "MK9 3BA", "addr:country": "UK", "name": "Pizza Express", "phone": "01908 241100", "brand": "Pizza Express", "brand:wikidata": "Q662845"}, "geometry": {"type": "Point", "coordinates": [-0.75799, 52.04261]}},
{"type": "Feature", "id": "psJRiGQmrS_gzajx0ID1yg4_-kI=", "properties": {"ref": "3328", "@spider": "pizza_express", "addr:full": "Unit 4", "addr:city": "Milton Keynes", "addr:postcode": "MK9 3XS", "addr:country": "UK", "name": "Pizza Express", "phone": "01908 690822", "brand": "Pizza Express", "brand:wikidata": "Q662845"}, "geometry": {"type": "Point", "coordinates": [-0.7487011, 52.04121]}},
{"type": "Feature", "id": "UKlaRUkEBYdfe67EUsVw4vahcX4=", "properties": {"ref": "1611", "@spider": "pizza_express", "addr:full": "19-23 East Street", "addr:city": "West Sussex", "addr:postcode": "RH12 1HH", "addr:country": "UK", "name": "Pizza Express", "phone": "01403 249 274", "brand": "Pizza Express", "brand:wikidata": "Q662845"}, "geometry": {"type": "Point", "coordinates": [-0.32691, 51.06177]}},
{"type": "Feature", "id": "A6fuBzshKuasNh7_pCYC6mwQyrg=", "properties": {"ref": "1951", "@spider": "pizza_express", "addr:full": "107 Church Road", "addr:city": "East Sussex", "addr:postcode": "BN3 2AF", "addr:country": "UK", "name": "Pizza Express", "phone": "01273 770 093", "brand": "Pizza Express", "brand:wikidata": "Q662845"}, "geometry": {"type": "Point", "coordinates": [-0.17167, 50.82802]}},
{"type": "Feature", "id": "-mcYKnWbNynyGph9v5euyA7vSHg=", "properties": {"ref": "3307", "@spider": "pizza_express", "addr:full": "Unit 11", "addr:city": "Castleford", "addr:postcode": "WF10 4TA", "addr:country": "UK", "name": "Pizza Express", "phone": "01977 556 800", "brand": "Pizza Express", "brand:wikidata": "Q662845"}, "geometry": {"type": "Point", "coordinates": [-1.3419, 53.71019]}},
{"type": "Feature", "id": "OHZyG0R9OuKcZYDXfClUVO7Q5UA=", "properties": {"ref": "3403", "@spider": "pizza_express", "addr:full": "The Dome Leisure Centre", "addr:city": "Doncaster", "addr:postcode": "DN4 7NW", "addr:country": "UK", "name": "Pizza Express", "phone": "01302 533088", "brand": "Pizza Express", "brand:wikidata": "Q662845"}, "geometry": {"type": "Point", "coordinates": [-1.100429, 53.51535]}},
{"type": "Feature", "id": "exDG-Nko7MBd_UdPQkyMKQ2Y-mI=", "properties": {"ref": "3308", "@spider": "pizza_express", "addr:full": "Unit 2", "addr:city": "Cobham", "addr:postcode": "KT11 2JZ", "addr:country": "UK", "name": "Pizza Express", "phone": "01932 862 588", "brand": "Pizza Express", "brand:wikidata": "Q662845"}, "geometry": {"type": "Point", "coordinates": [-0.41056, 51.32951]}},
{"type": "Feature", "id": "jNVp-DZbFLrPeLdwwebL3yHtD70=", "properties": {"ref": "601", "@spider": "pizza_express", "addr:full": "111-115 New Zealand Avenue", "addr:city": "Surrey", "addr:postcode": "KT12 1QA", "addr:country": "UK", "name": "Pizza Express", "phone": "01932 243 404", "brand": "Pizza Express", "brand:wikidata": "Q662845"}, "geometry": {"type": "Point", "coordinates": [-0.41947, 51.38455]}},
{"type": "Feature", "id": "Bgpq8q4OQvBRQU7vkF_b3VLN1o4=", "properties": {"ref": "1111", "@spider": "pizza_express", "addr:full": "235 High Street", "addr:city": "Surrey", "addr:postcode": "RH4 1RT", "addr:country": "UK", "name": "Pizza Express", "phone": "01306 888 236", "brand": "Pizza Express", "brand:wikidata": "Q662845"}, "geometry": {"type": "Point", "coordinates": [-0.32858, 51.23375]}},
{"type": "Feature", "id": "EAZ9fb6-dv2m_3tqM7bQuxEJ3G0=", "properties": {"ref": "3248", "@spider": "pizza_express", "addr:full": "34-38 High Street", "addr:city": "Esher", "addr:postcode": "KT10 9QY", "addr:country": "UK", "name": "Pizza Express", "phone": "01372 470435", "brand": "Pizza Express", "brand:wikidata": "Q662845"}, "geometry": {"type": "Point", "coordinates": [-0.36513, 51.37005]}},
{"type": "Feature", "id": "MIUv4oemRHX-7NLPUpZuKn42wDc=", "properties": {"ref": "3466", "@spider": "pizza_express", "addr:full": "300 High Street", "addr:city": "Berkhamsted", "addr:postcode": "HP4 1ZZ", "addr:country": "UK", "name": "Pizza Express", "phone": "01442750510", "brand": "Pizza Express", "brand:wikidata": "Q662845"}, "geometry": {"type": "Point", "coordinates": [-0.569075, 51.7622375]}},
{"type": "Feature", "id": "e8WGfYNFRZXcvfwnRIX-zSUpdpY=", "properties": {"ref": "1271", "@spider": "pizza_express", "addr:full": "86 High Street", "addr:city": "Middlesex", "addr:postcode": "HA4 8LS", "addr:country": "UK", "name": "Pizza Express", "phone": "01895 625 100", "brand": "Pizza Express", "brand:wikidata": "Q662845"}, "geometry": {"type": "Point", "coordinates": [-0.42448, 51.57401]}},
{"type": "Feature", "id": "yxkPBYSb9yyYwZ-KlENWQ7Xl8UM=", "properties": {"ref": "2951", "@spider": "pizza_express", "addr:full": "19 Creek Road", "addr:city": "East Molesey", "addr:postcode": "KT8 9BE", "addr:country": "UK", "name": "Pizza Express", "phone": "020 8941 3347", "brand": "Pizza Express", "brand:wikidata": "Q662845"}, "geometry": {"type": "Point", "coordinates": [-0.344, 51.40227]}},
{"type": "Feature", "id": "GORvecOwKpcJMLIQzO_als5Utc8=", "properties": {"ref": "3387", "@spider": "pizza_express", "addr:full": "The Old Fire Station", "addr:city": "Bedfordshire", "addr:postcode": "LU7 1EU", "addr:country": "UK", "name": "Pizza Express", "phone": "01525 384 560", "brand": "Pizza Express", "brand:wikidata": "Q662845"}, "geometry": {"type": "Point", "coordinates": [-0.661286, 51.91664]}},
{"type": "Feature", "id": "zpY1e97-BgjQ7_KEIAuQDNelkJc=", "properties": {"ref": "201", "@spider": "pizza_express", "addr:full": "11 Waldegrave Road", "addr:city": "Teddington", "addr:postcode": "TW11 8LA", "addr:country": "UK", "name": "Pizza Express", "phone": "020 8943 3553", "brand": "Pizza Express", "brand:wikidata": "Q662845"}, "geometry": {"type": "Point", "coordinates": [-0.33517, 51.42806]}},
{"type": "Feature", "id": "YcODd4WwzjxF5jK9cQBVzyvzeMA=", "properties": {"ref": "3405", "@spider": "pizza_express", "addr:full": "MK1 Leisure Park", "addr:city": "Milton Keynes", "addr:postcode": "MK1 1ST", "addr:country": "UK", "name": "Pizza Express", "phone": "01908 370 033", "brand": "Pizza Express", "brand:wikidata": "Q662845"}, "geometry": {"type": "Point", "coordinates": [-0.733348, 52.00944]}},
{"type": "Feature", "id": "5VXfPsirB59rdjvPdO1y9bRYrDU=", "properties": {"ref": "531", "@spider": "pizza_express", "addr:full": "21 York Street", "addr:city": "Middlesex", "addr:postcode": "TW1 3JZ", "addr:country": "UK", "name": "Pizza Express", "phone": "020 8891 4126", "brand": "Pizza Express", "brand:wikidata": "Q662845"}, "geometry": {"type": "Point", "coordinates": [-0.32769, 51.44738]}},
{"type": "Feature", "id": "oRcBFPevr4eS-M9sICsMmsz1PuE=", "properties": {"ref": "3342", "@spider": "pizza_express", "addr:full": "Unit 5B", "addr:city": "Surbiton", "addr:postcode": "KT6 4RB", "addr:country": "UK", "name": "Pizza Express", "phone": "020 8399 7555", "brand": "Pizza Express", "brand:wikidata": "Q662845"}, "geometry": {"type": "Point", "coordinates": [-0.3040689, 51.39297]}},
{"type": "Feature", "id": "I6Isp7UAJ6CUQVAXhV5Yqpegs2s=", "properties": {"ref": "321", "@spider": "pizza_express", "addr:full": "41 High Street", "addr:city": "Kingston upon Thames", "addr:postcode": "KT1 1LQ", "addr:country": "UK", "name": "Pizza Express", "phone": "020 8546 1447", "brand": "Pizza Express", "brand:wikidata": "Q662845"}, "geometry": {"type": "Point", "coordinates": [-0.30782, 51.40631]}},
{"type": "Feature", "id": "i4dfTbqFKC0-LtzL4vb4Ybnz-to=", "properties": {"ref": "3222", "@spider": "pizza_express", "addr:full": "Unit 5 The Rotunda", "addr:city": "Kingston upon Thames", "addr:postcode": "KT1 1QJ", "addr:country": "UK", "name": "Pizza Express", "phone": "020 8547 3133", "brand": "Pizza Express", "brand:wikidata": "Q662845"}, "geometry": {"type": "Point", "coordinates": [-0.29934, 51.4117]}},
{"type": "Feature", "id": "Pr25JR-bBjgqDJ8FvyQ1TZdfSmY=", "properties": {"ref": "1501", "@spider": "pizza_express", "addr:full": "2 Albert Street", "addr:city": "North Yorkshire", "addr:postcode": "HG1 1JG", "addr:country": "UK", "name": "Pizza Express", "phone": "01423 531 041", "brand": "Pizza Express", "brand:wikidata": "Q662845"}, "geometry": {"type": "Point", "coordinates": [-1.53862, 53.99199]}},
{"type": "Feature", "id": "dfGXW6kfgYxeEX0RwkoyVhEY9pM=", "properties": {"ref": "331", "@spider": "pizza_express", "addr:full": "22 Prince Albert Street", "addr:city": "Brighton", "addr:postcode": "BN1 1HF", "addr:country": "UK", "name": "Pizza Express", "phone": "01273 323 205", "brand": "Pizza Express", "brand:wikidata": "Q662845"}, "geometry": {"type": "Point", "coordinates": [-0.14074, 50.82124]}},
{"type": "Feature", "id": "cWZcNRwBId0Rxb8gmK28bY2YkBk=", "properties": {"ref": "3245", "@spider": "pizza_express", "addr:full": "4 The Waterfront", "addr:city": "Brighton", "addr:postcode": "BN2 5WA", "addr:country": "UK", "name": "Pizza Express", "phone": "01273 689 300", "brand": "Pizza Express", "brand:wikidata": "Q662845"}, "geometry": {"type": "Point", "coordinates": [-0.10216, 50.81283]}},
{"type": "Feature", "id": "rumlBZgLEDjla3IpCN-7srOxcVs=", "properties": {"ref": "3325", "@spider": "pizza_express", "addr:full": "15-16 St Mary's Place", "addr:city": "Market Harborough", "addr:postcode": "LE16 7DR", "addr:country": "UK", "name": "Pizza Express", "phone": "01858 467850", "brand": "Pizza Express", "brand:wikidata": "Q662845"}, "geometry": {"type": "Point", "coordinates": [-0.9184313, 52.47713]}},
{"type": "Feature", "id": "Js38A4MqL9U1fwtyFiwMNmd6734=", "properties": {"ref": "2271", "@spider": "pizza_express", "addr:full": "Town Wharf", "addr:city": "Nottinghamshire", "addr:postcode": "NG24 1EU", "addr:country": "UK", "name": "Pizza Express", "phone": "01636 703073", "brand": "Pizza Express", "brand:wikidata": "Q662845"}, "geometry": {"type": "Point", "coordinates": [-0.81061, 53.07884]}},
{"type": "Feature", "id": "Ye2h4LKmgjI5mKV4avTne6I61c4=", "properties": {"ref": "3288", "@spider": "pizza_express", "addr:full": "York Designer Outlet", "addr:city": "York", "addr:postcode": "YO19 4TA", "addr:country": "UK", "name": "Pizza Express", "phone": "01904 678 683", "brand": "Pizza Express", "brand:wikidata": "Q662845"}, "geometry": {"type": "Point", "coordinates": [-1.07747, 53.92217]}},
{"type": "Feature", "id": "LW68KL_WGqKb6B1eMqC-PbFboow=", "properties": {"ref": "571", "@spider": "pizza_express", "addr:full": "River House", "addr:city": "York", "addr:postcode": "YO1 7DJ", "addr:country": "UK", "name": "Pizza Express", "phone": "01904 672 904", "brand": "Pizza Express", "brand:wikidata": "Q662845"}, "geometry": {"type": "Point", "coordinates": [-1.08643, 53.96043]}},
{"type": "Feature", "id": "kQ-3kwciVDacVMQVet5xAdS_0Iw=", "properties": {"ref": "3294", "@spider": "pizza_express", "addr:full": "10 St Sampsons Square", "addr:city": "York", "addr:postcode": "YO1 8RN", "addr:country": "UK", "name": "Pizza Express", "phone": "01904 630 930", "brand": "Pizza Express", "brand:wikidata": "Q662845"}, "geometry": {"type": "Point", "coordinates": [-1.08164, 53.95994]}},
{"type": "Feature", "id": "5HShdfn3uguEp-GPmOqDEvTBOF0=", "properties": {"ref": "1001", "@spider": "pizza_express", "addr:full": "269 High Street", "addr:city": "Lincolnshire", "addr:postcode": "LN2 1JG", "addr:country": "UK", "name": "Pizza Express", "phone": "01522 544 701", "brand": "Pizza Express", "brand:wikidata": "Q662845"}, "geometry": {"type": "Point", "coordinates": [-0.53957, 53.23093]}},
{"type": "Feature", "id": "ClntZgDn60GuxtpYOWowPcMeDSc=", "properties": {"ref": "3041", "@spider": "pizza_express", "addr:full": "1 High Street", "addr:city": "Lincolnshire", "addr:postcode": "PE9 2LE", "addr:country": "UK", "name": "Pizza Express", "phone": "01780 767 902", "brand": "Pizza Express", "brand:wikidata": "Q662845"}, "geometry": {"type": "Point", "coordinates": [-0.47791, 52.65018]}},
{"type": "Feature", "id": "qgWmXFMhtUoWxjRreNEAFheJN3E=", "properties": {"ref": "1141", "@spider": "pizza_express", "addr:full": "8 South Street", "addr:city": "Epsom", "addr:postcode": "KT18 7PF", "addr:country": "UK", "name": "Pizza Express", "phone": "01372 729 618", "brand": "Pizza Express", "brand:wikidata": "Q662845"}, "geometry": {"type": "Point", "coordinates": [-0.27093, 51.33225]}},
{"type": "Feature", "id": "hKOMqEn7t5I4z3UIwsH6BgOODc4=", "properties": {"ref": "3233", "@spider": "pizza_express", "addr:full": "Unit A3", "addr:city": "Herfordshire", "addr:postcode": "HP1 1BT", "addr:country": "UK", "name": "Pizza Express", "phone": "01442 256131", "brand": "Pizza Express", "brand:wikidata": "Q662845"}, "geometry": {"type": "Point", "coordinates": [-0.47332, 51.74771]}},
{"type": "Feature", "id": "HqMsgXFt4W8VYvFIYnAsi6q8-3M=", "properties": {"ref": "401", "@spider": "pizza_express", "addr:full": "Lion House", "addr:city": "Richmond", "addr:postcode": "TW9 1RE", "addr:country": "UK", "name": "Pizza Express", "phone": "020 8948 7460", "brand": "Pizza Express", "brand:wikidata": "Q662845"}, "geometry": {"type": "Point", "coordinates": [-0.30553, 51.45971]}},
{"type": "Feature", "id": "VbYxhVvQTxDZawfbYTivdXlLZu8=", "properties": {"ref": "1351", "@spider": "pizza_express", "addr:full": "137 High Street", "addr:city": "Watford", "addr:postcode": "WD17 2ER", "addr:country": "UK", "name": "Pizza Express", "phone": "01923 213 991", "brand": "Pizza Express", "brand:wikidata": "Q662845"}, "geometry": {"type": "Point", "coordinates": [-0.39297, 51.65385]}},
{"type": "Feature", "id": "84sU0jLybrkaodsotDQJrPhiYD8=", "properties": {"ref": "671", "@spider": "pizza_express", "addr:full": "23 Bond Street", "addr:city": "London", "addr:postcode": "W5 5AS", "addr:country": "UK", "name": "Pizza Express", "phone": "020 8567 7690", "brand": "Pizza Express", "brand:wikidata": "Q662845"}, "geometry": {"type": "Point", "coordinates": [-0.30559, 51.51182]}},
{"type": "Feature", "id": "4DucFd7ymmej8y0kFqaLBY2c4oo=", "properties": {"ref": "3389", "@spider": "pizza_express", "addr:full": "St George's Centre", "addr:city": "Middlesex", "addr:postcode": "HA1 1HS", "addr:country": "UK", "name": "Pizza Express", "phone": "0208 427 0982", "brand": "Pizza Express", "brand:wikidata": "Q662845"}, "geometry": {"type": "Point", "coordinates": [-0.338863, 51.5814]}},
{"type": "Feature", "id": "hiZ6t-Hho2OQj6NZKZVAc2q7VOk=", "properties": {"ref": "1881", "@spider": "pizza_express", "addr:full": "2 The Boulevard", "addr:city": "Crawley", "addr:postcode": "RH10 1XX", "addr:country": "UK", "name": "Pizza Express", "phone": "01293 531 678", "brand": "Pizza Express", "brand:wikidata": "Q662845"}, "geometry": {"type": "Point", "coordinates": [-0.18883, 51.11636]}},
{"type": "Feature", "id": "2wetOipZR5b97yej8RsUEFwf9is=", "properties": {"ref": "3376", "@spider": "pizza_express", "addr:full": "161 High Street", "addr:city": "New Malden", "addr:postcode": "KT3 4BH", "addr:country": "UK", "name": "Pizza Express", "phone": "0208 942 2223", "brand": "Pizza Express", "brand:wikidata": "Q662845"}, "geometry": {"type": "Point", "coordinates": [-0.255904, 51.3997841]}},
{"type": "Feature", "id": "XZ03enILmUygHiPjj7VdanR_p4o=", "properties": {"ref": "3204", "@spider": "pizza_express", "addr:full": "10 Station Approach", "addr:city": "Richmond upon Thames", "addr:postcode": "TW9 3QB", "addr:country": "UK", "name": "Pizza Express", "phone": "020 8404 6000", "brand": "Pizza Express", "brand:wikidata": "Q662845"}, "geometry": {"type": "Point", "coordinates": [-0.28571, 51.4775]}},
{"type": "Feature", "id": "92XuPWondZJ1rFfQEGsow9e995I=", "properties": {"ref": "591", "@spider": "pizza_express", "addr:full": "15 High Street", "addr:city": "Surrey", "addr:postcode": "RH2 9AA", "addr:country": "UK", "name": "Pizza Express", "phone": "01737 241 969", "brand": "Pizza Express", "brand:wikidata": "Q662845"}, "geometry": {"type": "Point", "coordinates": [-0.20634, 51.23741]}},
{"type": "Feature", "id": "FSDwVdDIwhOoVDNRyhQUlU3dVv4=", "properties": {"ref": "2811", "@spider": "pizza_express", "addr:full": "87 Central Road", "addr:city": "Surrey", "addr:postcode": "KT4 8HZ", "addr:country": "UK", "name": "Pizza Express", "phone": "020 8337 7039", "brand": "Pizza Express", "brand:wikidata": "Q662845"}, "geometry": {"type": "Point", "coordinates": [-0.24225, 51.37865]}},
{"type": "Feature", "id": "hlvt4h9mzNpFKoqH0jO6cxTw3S8=", "properties": {"ref": "1131", "@spider": "pizza_express", "addr:full": "305 Upper Richmond Road West", "addr:city": "London", "addr:postcode": "SW14 8QS", "addr:country": "UK", "name": "Pizza Express", "phone": "020 8878 6833", "brand": "Pizza Express", "brand:wikidata": "Q662845"}, "geometry": {"type": "Point", "coordinates": [-0.26277, 51.46483]}},
{"type": "Feature", "id": "w9R2hsMTQA5XRgYLJGjvFP6mWEc=", "properties": {"ref": "3286", "@spider": "pizza_express", "addr:full": "4-6 Ewell Rd", "addr:city": "Cheam", "addr:postcode": "SM3 8BU", "addr:country": "UK", "name": "Pizza Express", "phone": "020 8770 0082", "brand": "Pizza Express", "brand:wikidata": "Q662845"}, "geometry": {"type": "Point", "coordinates": [-0.21743, 51.35776]}},
{"type": "Feature", "id": "_fceP2f7_qKuPxCvElMK5b1_wyU=", "properties": {"ref": "1571", "@spider": "pizza_express", "addr:full": "24 High Street", "addr:city": "Banstead", "addr:postcode": "SM7 2LJ", "addr:country": "UK", "name": "Pizza Express", "phone": "01737 379 476", "brand": "Pizza Express", "brand:wikidata": "Q662845"}, "geometry": {"type": "Point", "coordinates": [-0.20403, 51.3218]}},
{"type": "Feature", "id": "kPg1zwOcLeNaDvuC6dZzgdd_j2I=", "properties": {"ref": "1401", "@spider": "pizza_express", "addr:full": "252 Chiswick High Road", "addr:city": "Chiswick", "addr:postcode": "W4 1PD", "addr:country": "UK", "name": "Pizza Express", "phone": "020 8747 0193", "brand": "Pizza Express", "brand:wikidata": "Q662845"}, "geometry": {"type": "Point", "coordinates": [-0.25818, 51.4928]}},
{"type": "Feature", "id": "lmxhAjjraWs8sGKrfBAfhWOWmW4=", "properties": {"ref": "2141", "@spider": "pizza_express", "addr:full": "14-15 Barnes High Street", "addr:city": "London", "addr:postcode": "SW13 9LW", "addr:country": "UK", "name": "Pizza Express", "phone": "020 8878 1184", "brand": "Pizza Express", "brand:wikidata": "Q662845"}, "geometry": {"type": "Point", "coordinates": [-0.24952, 51.47359]}},
{"type": "Feature", "id": "LjgI0kttxwm0BRSu5-7n1zQ3-zQ=", "properties": {"ref": "1791", "@spider": "pizza_express", "addr:full": "22 The Broadway", "addr:city": "Haywards Heath", "addr:postcode": "RH16 3AL", "addr:country": "UK", "name": "Pizza Express", "phone": "01444 456 627", "brand": "Pizza Express", "brand:wikidata": "Q662845"}, "geometry": {"type": "Point", "coordinates": [-0.1057, 51.00033]}},
{"type": "Feature", "id": "1oi935tOlj3EhEZUr3F1z_Tivqg=", "properties": {"ref": "1731", "@spider": "pizza_express", "addr:full": "15 High Street", "addr:city": "East Sussex", "addr:postcode": "BN7 2LN", "addr:country": "UK", "name": "Pizza Express", "phone": "01273 487 524", "brand": "Pizza Express", "brand:wikidata": "Q662845"}, "geometry": {"type": "Point", "coordinates": [0.0136, 50.87375]}},
{"type": "Feature", "id": "KELn_6trpu4WJuzGcWZ0q1sOObk=", "properties": {"ref": "3453", "@spider": "pizza_express", "addr:full": "R2 The Boardwalk", "addr:city": "Rushden", "addr:postcode": "NN10 6FH", "addr:country": "UK", "name": "Pizza Express", "phone": "01933 242 730", "brand": "Pizza Express", "brand:wikidata": "Q662845"}, "geometry": {"type": "Point", "coordinates": [-0.621863, 52.3006973]}},
{"type": "Feature", "id": "APrEDJ5rbTfXERHDi2ymeu7I4To=", "properties": {"ref": "3275", "@spider": "pizza_express", "addr:full": "8 Cathedral Square", "addr:city": "Petersborough", "addr:postcode": "PE1 1XH", "addr:country": "UK", "name": "Pizza Express", "phone": "01733 562984", "brand": "Pizza Express", "brand:wikidata": "Q662845"}, "geometry": {"type": "Point", "coordinates": [-0.24288, 52.5723]}},
{"type": "Feature", "id": "ZjwXiX4TPUzj35EPZPjASUOGHeI=", "properties": {"ref": "701", "@spider": "pizza_express", "addr:full": "22 St Peter's Street", "addr:city": "Bedford", "addr:postcode": "MK40 2PN", "addr:country": "UK", "name": "Pizza Express", "phone": "01234 271 124", "brand": "Pizza Express", "brand:wikidata": "Q662845"}, "geometry": {"type": "Point", "coordinates": [-0.465, 52.13882]}},
{"type": "Feature", "id": "7QID9uCuBO3nsTUPkvUu7kBAvms=", "properties": {"ref": "1921", "@spider": "pizza_express", "addr:full": "37 North Bar Within", "addr:city": "Beverly", "addr:postcode": "HU17 8BD", "addr:country": "UK", "name": "Pizza Express", "phone": "01482 679 105", "brand": "Pizza Express", "brand:wikidata": "Q662845"}, "geometry": {"type": "Point", "coordinates": [-0.43257, 53.84329]}},
{"type": "Feature", "id": "FVEwti74ayo0-89elaCLFWj1OUk=", "properties": {"ref": "3349", "@spider": "pizza_express", "addr:full": "Unit CU6", "addr:city": "Hull", "addr:postcode": "HU1 2PQ", "addr:country": "UK", "name": "Pizza Express", "phone": "01482 212144", "brand": "Pizza Express", "brand:wikidata": "Q662845"}, "geometry": {"type": "Point", "coordinates": [-0.3391643, 53.7421]}},
{"type": "Feature", "id": "qpWCgzf8d-6KCXQmb1c-UAr6rsc=", "properties": {"ref": "3385", "@spider": "pizza_express", "addr:full": "The Rowley Arts Centre", "addr:city": "Cambridgeshire", "addr:postcode": "PE19 1BG", "addr:country": "UK", "name": "Pizza Express", "phone": "01480 473388", "brand": "Pizza Express", "brand:wikidata": "Q662845"}, "geometry": {"type": "Point", "coordinates": [-0.265715, 52.2291]}},
{"type": "Feature", "id": "7McYi_-tR-fnj27AxlhdlcPx8mE=", "properties": {"ref": "3370", "@spider": "pizza_express", "addr:full": "London Designer Outlet", "addr:city": "London", "addr:postcode": "HA9 0FD", "addr:country": "UK", "name": "Pizza Express", "phone": "0208 795 4910", "brand": "Pizza Express", "brand:wikidata": "Q662845"}, "geometry": {"type": "Point", "coordinates": [-0.28496, 51.55874]}},
{"type": "Feature", "id": "8PVWWyk5ljzn8jcTiZoMWeSU3m4=", "properties": {"ref": "621", "@spider": "pizza_express", "addr:full": "55 The Broadway", "addr:city": "Middlesex", "addr:postcode": "HA7 4DJ", "addr:country": "UK", "name": "Pizza Express", "phone": "020 8420 7474", "brand": "Pizza Express", "brand:wikidata": "Q662845"}, "geometry": {"type": "Point", "coordinates": [-0.3091, 51.6176]}},
{"type": "Feature", "id": "hvRnXIrFTOhthJ_PMf-jdYAIcH0=", "properties": {"ref": "311", "@spider": "pizza_express", "addr:full": "84 High Street", "addr:city": "London", "addr:postcode": "SW19 5EG", "addr:country": "UK", "name": "Pizza Express", "phone": "020 8946 6027", "brand": "Pizza Express", "brand:wikidata": "Q662845"}, "geometry": {"type": "Point", "coordinates": [-0.21643, 51.42499]}},
{"type": "Feature", "id": "gnwX9GyzaFrzPS8KT_sbb19wVmw=", "properties": {"ref": "3457", "@spider": "pizza_express", "addr:full": "19/21 High Street", "addr:city": "Sutton", "addr:postcode": "SM1 1DJ", "addr:country": "UK", "name": "Pizza Express", "phone": "020 8104 0321", "brand": "Pizza Express", "brand:wikidata": "Q662845"}, "geometry": {"type": "Point", "coordinates": [-0.1923, 51.3607]}},
{"type": "Feature", "id": "jYX5No29MbMtj0qE_B7njrP_PZM=", "properties": {"ref": "2551", "@spider": "pizza_express", "addr:full": "104 The Broadway", "addr:city": "London", "addr:postcode": "SW19 1RH", "addr:country": "UK", "name": "Pizza Express", "phone": "020 8543 1010", "brand": "Pizza Express", "brand:wikidata": "Q662845"}, "geometry": {"type": "Point", "coordinates": [-0.2008, 51.41955]}},
{"type": "Feature", "id": "q3KvP8jLJxOL55XsUVsTNDGUD1I=", "properties": {"ref": "1411", "@spider": "pizza_express", "addr:full": "144 Upper Richmond Road", "addr:city": "London", "addr:postcode": "SW15 2SW", "addr:country": "UK", "name": "Pizza Express", "phone": "020 8789 1948", "brand": "Pizza Express", "brand:wikidata": "Q662845"}, "geometry": {"type": "Point", "coordinates": [-0.2135, 51.46023]}},
{"type": "Feature", "id": "b6vIW_iMrvgTcQ5PIwelNW2ljWI=", "properties": {"ref": "1451", "@spider": "pizza_express", "addr:full": "114 Watling Street", "addr:city": "Hertfordshire", "addr:postcode": "WD7 7AB", "addr:country": "UK", "name": "Pizza Express", "phone": "01923 859 111", "brand": "Pizza Express", "brand:wikidata": "Q662845"}, "geometry": {"type": "Point", "coordinates": [-0.31773, 51.68378]}},
{"type": "Feature", "id": "v7NWv754keqpiIJycp_YKEjKxt8=", "properties": {"ref": "3293", "@spider": "pizza_express", "addr:full": "Unit 3126", "addr:city": "London", "addr:postcode": "W12 7GF", "addr:country": "UK", "name": "Pizza Express", "phone": "0208 749 1500", "brand": "Pizza Express", "brand:wikidata": "Q662845"}, "geometry": {"type": "Point", "coordinates": [-0.22322, 51.5072]}},
{"type": "Feature", "id": "wCNWnCzPPPo5HUJdsMKPMsBp_mU=", "properties": {"ref": "241", "@spider": "pizza_express", "addr:full": "895-896 Fulham Road", "addr:city": "London", "addr:postcode": "SW6 5HU", "addr:country": "UK", "name": "Pizza Express", "phone": "020 7731 3117", "brand": "Pizza Express", "brand:wikidata": "Q662845"}, "geometry": {"type": "Point", "coordinates": [-0.207907, 51.47315]}},
{"type": "Feature", "id": "Fmg_KU4-P68R-4DlWYJN_0brQ1Y=", "properties": {"ref": "1291", "@spider": "pizza_express", "addr:full": "7 Rockley Road", "addr:city": "London", "addr:postcode": "W14 0DJ", "addr:country": "UK", "name": "Pizza Express", "phone": "020 8749 8582", "brand": "Pizza Express", "brand:wikidata": "Q662845"}, "geometry": {"type": "Point", "coordinates": [-0.22012, 51.5034]}},
{"type": "Feature", "id": "Wj4te2kyxxwCAR_f8GylY2Nfywg=", "properties": {"ref": "1281", "@spider": "pizza_express", "addr:full": "11 Verulam Road", "addr:city": "Hertfordshire", "addr:postcode": "AL3 4DA", "addr:country": "UK", "name": "Pizza Express", "phone": "01727 853 020", "brand": "Pizza Express", "brand:wikidata": "Q662845"}, "geometry": {"type": "Point", "coordinates": [-0.34139, 51.75202]}},
{"type": "Feature", "id": "rgSbZoQKIlUUI2CpK5QOx-88O_s=", "properties": {"ref": "3221", "@spider": "pizza_express", "addr:full": "4 Fulham Broadway Retail Centre", "addr:city": "London", "addr:postcode": "SW6 1BW", "addr:country": "UK", "name": "Pizza Express", "phone": "020 7381 1700", "brand": "Pizza Express", "brand:wikidata": "Q662845"}, "geometry": {"type": "Point", "coordinates": [-0.1944, 51.48055]}},
{"type": "Feature", "id": "b1zr_MGMCvJlA5-voZAT0msGDVU=", "properties": {"ref": "3426", "@spider": "pizza_express", "addr:full": "Ground Floor", "addr:city": "Coulsdon", "addr:postcode": "CR5 2NJ", "addr:country": "UK", "name": "Pizza Express", "phone": "020 8660 1199", "brand": "Pizza Express", "brand:wikidata": "Q662845"}, "geometry": {"type": "Point", "coordinates": [-0.136896, 51.321804]}},
{"type": "Feature", "id": "pZNpO6X5RIfApqHluUzomqbl82s=", "properties": {"ref": "2051", "@spider": "pizza_express", "addr:full": "64 Saddler Street", "addr:city": "Durham", "addr:postcode": "DH1 3PG", "addr:country": "UK", "name": "Pizza Express", "phone": "0191 383 2661", "brand": "Pizza Express", "brand:wikidata": "Q662845"}, "geometry": {"type": "Point", "coordinates": [-1.57527, 54.776]}},
{"type": "Feature", "id": "zm5fely97_k7eIf4i93HgLFkqVo=", "properties": {"ref": "3257", "@spider": "pizza_express", "addr:full": "6 The Teesside Retail Park", "addr:city": "Cleveland", "addr:postcode": "TS17 7BW", "addr:country": "UK", "name": "Pizza Express", "phone": "01642 612693", "brand": "Pizza Express", "brand:wikidata": "Q662845"}, "geometry": {"type": "Point", "coordinates": [-1.27313, 54.55637]}},
{"type": "Feature", "id": "rbTNt6zJp6twKQmESa2Lz76yaZU=", "properties": {"ref": "3306", "@spider": "pizza_express", "addr:full": "Unit 122", "addr:city": "Tyne and Wear", "addr:postcode": "NE11 9XZ", "addr:country": "UK", "name": "Pizza Express", "phone": "0191 460 6130", "brand": "Pizza Express", "brand:wikidata": "Q662845"}, "geometry": {"type": "Point", "coordinates": [-1.66857, 54.95765]}},
{"type": "Feature", "id": "v44dkBzU9OVqoLepddfVOs-mbT4=", "properties": {"ref": "2891", "@spider": "pizza_express", "addr:full": "105 High Street", "addr:city": "Cambridgeshire", "addr:postcode": "PE29 3LB", "addr:country": "UK", "name": "Pizza Express", "phone": "01480 434 446", "brand": "Pizza Express", "brand:wikidata": "Q662845"}, "geometry": {"type": "Point", "coordinates": [-0.18477, 52.33122]}},
{"type": "Feature", "id": "yldTSEkfvZUYUhwdk6nSNJQcHc4=", "properties": {"ref": "2651", "@spider": "pizza_express", "addr:full": "The Lodge", "addr:city": "Bedfordshire", "addr:postcode": "LU1 3JE", "addr:country": "UK", "name": "Pizza Express", "phone": "01582 456 229", "brand": "Pizza Express", "brand:wikidata": "Q662845"}, "geometry": {"type": "Point", "coordinates": [-0.41167, 51.87884]}},
{"type": "Feature", "id": "UhwR36DLu1DEOSgi_RQPMfZ1EFI=", "properties": {"ref": "751", "@spider": "pizza_express", "addr:full": "19 Market Place", "addr:city": "Hertfordshire", "addr:postcode": "SG5 1DT", "addr:country": "UK", "name": "Pizza Express", "phone": "01462 450 596", "brand": "Pizza Express", "brand:wikidata": "Q662845"}, "geometry": {"type": "Point", "coordinates": [-0.27899, 51.94713]}},
{"type": "Feature", "id": "-0dIbeopypk8MNEoYriacZUav5w=", "properties": {"ref": "141", "@spider": "pizza_express", "addr:full": "137 Notting Hill Gate", "addr:city": "London", "addr:postcode": "W11 3LB", "addr:country": "UK", "name": "Pizza Express", "phone": "020 7229 6000", "brand": "Pizza Express", "brand:wikidata": "Q662845"}, "geometry": {"type": "Point", "coordinates": [-0.19889, 51.50849]}},
{"type": "Feature", "id": "krhF7gHYe1V7ylXHBgSaLfRWWfY=", "properties": {"ref": "1431", "@spider": "pizza_express", "addr:full": "198 Trinity Road", "addr:city": "London", "addr:postcode": "SW17 7HR", "addr:country": "UK", "name": "Pizza Express", "phone": "020 8672 0200", "brand": "Pizza Express", "brand:wikidata": "Q662845"}, "geometry": {"type": "Point", "coordinates": [-0.1665, 51.44253]}},
{"type": "Feature", "id": "bfUyLBqSry0bKAlnSvwTbgQT-0U=", "properties": {"ref": "3335", "@spider": "pizza_express", "addr:full": "Unit S1", "addr:city": "Hendon", "addr:postcode": "NW4 3FP", "addr:country": "UK", "name": "Pizza Express", "phone": "020 8202 0772", "brand": "Pizza Express", "brand:wikidata": "Q662845"}, "geometry": {"type": "Point", "coordinates": [-0.2245226, 51.57618]}},
{"type": "Feature", "id": "0lujtoBmAj0XUUbspt0UnsghU-c=", "properties": {"ref": "1231", "@spider": "pizza_express", "addr:full": "92 The Broadway", "addr:city": "Mill Hill", "addr:postcode": "NW7 3TB", "addr:country": "UK", "name": "Pizza Express", "phone": "020 8959 3898", "brand": "Pizza Express", "brand:wikidata": "Q662845"}, "geometry": {"type": "Point", "coordinates": [-0.24476, 51.61574]}},
{"type": "Feature", "id": "Iiv0_Y2sWIG2lMs49d5ufzMdmhA=", "properties": {"ref": "131", "@spider": "pizza_express", "addr:full": "363 Fulham Road", "addr:city": "London", "addr:postcode": "SW10 9TN", "addr:country": "UK", "name": "Pizza Express", "phone": "020 7352 5300", "brand": "Pizza Express", "brand:wikidata": "Q662845"}, "geometry": {"type": "Point", "coordinates": [-0.18132, 51.48525]}},
{"type": "Feature", "id": "Iya5knTJx7V1ukpa9kdamwsPZKk=", "properties": {"ref": "3437", "@spider": "pizza_express", "addr:full": "88 Cromwell Road", "addr:city": "London", "addr:postcode": "SW7 4EN", "addr:country": "UK", "name": "Pizza Express", "phone": "020 3040 1840", "brand": "Pizza Express", "brand:wikidata": "Q662845"}, "geometry": {"type": "Point", "coordinates": [-0.1827, 51.4952]}},
{"type": "Feature", "id": "5hBJzgBskcStNUyDg0H-pDDa4yA=", "properties": {"ref": "191", "@spider": "pizza_express", "addr:full": "230-236 Lavender Hill", "addr:city": "Battersea", "addr:postcode": "SW11 1LE", "addr:country": "UK", "name": "Pizza Express", "phone": "020 7223 5677", "brand": "Pizza Express", "brand:wikidata": "Q662845"}, "geometry": {"type": "Point", "coordinates": [-0.16562, 51.4641]}},
{"type": "Feature", "id": "OaO4rHZ040oyvi6pX53WYOydxDw=", "properties": {"ref": "1861", "@spider": "pizza_express", "addr:full": "The Gate House", "addr:city": "Harpenden", "addr:postcode": "AL5 2TH", "addr:country": "UK", "name": "Pizza Express", "phone": "01582 765 714", "brand": "Pizza Express", "brand:wikidata": "Q662845"}, "geometry": {"type": "Point", "coordinates": [-0.35694, 51.81767]}},
{"type": "Feature", "id": "8u-HBMYwloByPoQ8V-Z-9I3NCfQ=", "properties": {"ref": "2781", "@spider": "pizza_express", "addr:full": "960 Brighton Road", "addr:city": "Purley", "addr:postcode": "CR8 2LP", "addr:country": "UK", "name": "Pizza Express", "phone": "020 8668 9547", "brand": "Pizza Express", "brand:wikidata": "Q662845"}, "geometry": {"type": "Point", "coordinates": [-0.11659, 51.33907]}},
{"type": "Feature", "id": "NoAaLO98bmK_kcjTO1VpqjK26Jk=", "properties": {"ref": "3229", "@spider": "pizza_express", "addr:full": "47 Bedford Hill", "addr:city": "London", "addr:postcode": "SW12 9EY", "addr:country": "UK", "name": "Pizza Express", "phone": "020 8772 3232", "brand": "Pizza Express", "brand:wikidata": "Q662845"}, "geometry": {"type": "Point", "coordinates": [-0.15015, 51.4441]}},
{"type": "Feature", "id": "NWSr5ZA-xr58wdhHmK8ydaisYzc=", "properties": {"ref": "3427", "@spider": "pizza_express", "addr:full": "Unit 2", "addr:city": "Croydon", "addr:postcode": "CR0 4YA", "addr:country": "UK", "name": "Pizza Express", "phone": "020 8686 2888", "brand": "Pizza Express", "brand:wikidata": "Q662845"}, "geometry": {"type": "Point", "coordinates": [-0.124534, 51.37822]}},
{"type": "Feature", "id": "Z_EAL79WcHACkcFo_dhoKGmidgI=", "properties": {"ref": "1601", "@spider": "pizza_express", "addr:full": "The Pheasantry", "addr:city": "London", "addr:postcode": "SW3 4UT", "addr:country": "UK", "name": "Pizza Express", "phone": "020 7351 5031", "brand": "Pizza Express", "brand:wikidata": "Q662845"}, "geometry": {"type": "Point", "coordinates": [-0.16545, 51.4891]}},
{"type": "Feature", "id": "XzQ-vroL4w_lZcQ2E3Ygqfoy1QQ=", "properties": {"ref": "1471", "@spider": "pizza_express", "addr:full": "39 Abbey Road", "addr:city": "St John's Wood", "addr:postcode": "NW8 0AA", "addr:country": "UK", "name": "Pizza Express", "phone": "020 7624 5577", "brand": "Pizza Express", "brand:wikidata": "Q662845"}, "geometry": {"type": "Point", "coordinates": [-0.18192, 51.53562]}},
{"type": "Feature", "id": "3l_7GJa6HdlUBJltEpSIHJRQ-U0=", "properties": {"ref": "821", "@spider": "pizza_express", "addr:full": "7 Beauchamp Place", "addr:city": "London", "addr:postcode": "SW3 1NQ", "addr:country": "UK", "name": "Pizza Express", "phone": "020 7589 2355", "brand": "Pizza Express", "brand:wikidata": "Q662845"}, "geometry": {"type": "Point", "coordinates": [-0.16487, 51.49779]}},
{"type": "Feature", "id": "RAD7YZ9nXTI3ot8x9hbRlNlPmHQ=", "properties": {"ref": "3436", "@spider": "pizza_express", "addr:full": "Unit 35 and 37", "addr:city": "London", "addr:postcode": "W2 1BF", "addr:country": "UK", "name": "Pizza Express", "phone": "0207 7068000", "brand": "Pizza Express", "brand:wikidata": "Q662845"}, "geometry": {"type": "Point", "coordinates": [-0.172011, 51.5192375]}},
{"type": "Feature", "id": "CLQVC7CUS2OU1jr5SB5ghiRzT64=", "properties": {"ref": "781", "@spider": "pizza_express", "addr:full": "43 Abbeville Road", "addr:city": "Clapham", "addr:postcode": "SW4 9JX", "addr:country": "UK", "name": "Pizza Express", "phone": "020 8673 8878", "brand": "Pizza Express", "brand:wikidata": "Q662845"}, "geometry": {"type": "Point", "coordinates": [-0.14018, 51.45435]}},
{"type": "Feature", "id": "TjsdpezzsBaqQz3k1_49mhRXV5Y=", "properties": {"ref": "2021", "@spider": "pizza_express", "addr:full": "10 Croydon Road", "addr:city": "Caterham", "addr:postcode": "CR3 6QB", "addr:country": "UK", "name": "Pizza Express", "phone": "01883 342 717", "brand": "Pizza Express", "brand:wikidata": "Q662845"}, "geometry": {"type": "Point", "coordinates": [-0.078, 51.28342]}},
{"type": "Feature", "id": "vD2uzf-koSsLa_d3g4zmGfW97Eg=", "properties": {"ref": "3341", "@spider": "pizza_express", "addr:full": "7 St George's Way", "addr:city": "Newcastle Upon Tyne", "addr:postcode": "NE1 7JD", "addr:country": "UK", "name": "Pizza Express", "phone": "0191 232 3228", "brand": "Pizza Express", "brand:wikidata": "Q662845"}, "geometry": {"type": "Point", "coordinates": [-1.615061, 54.97503]}},
{"type": "Feature", "id": "Qg9rrgn8XG1PRr-tlgGC4l9Mqjc=", "properties": {"ref": "3282", "@spider": "pizza_express", "addr:full": "92 Osborne Road", "addr:city": "Newcastle upon Tyne", "addr:postcode": "NE2 2TD", "addr:country": "UK", "name": "Pizza Express", "phone": "0191 281 4767", "brand": "Pizza Express", "brand:wikidata": "Q662845"}, "geometry": {"type": "Point", "coordinates": [-1.60276, 54.99314]}},
{"type": "Feature", "id": "hLQf2KPEZZy1Cd0cU2ruANAwvHE=", "properties": {"ref": "1031", "@spider": "pizza_express", "addr:full": "39 High Street", "addr:city": "East Grinstead", "addr:postcode": "RH19 3AF", "addr:country": "UK", "name": "Pizza Express", "phone": "01342 313 343", "brand": "Pizza Express", "brand:wikidata": "Q662845"}, "geometry": {"type": "Point", "coordinates": [-0.00715, 51.12415]}},
{"type": "Feature", "id": "aII7bxAyV8Bkoi6fAzoBdIgXGuM=", "properties": {"ref": "3051", "@spider": "pizza_express", "addr:full": "77 High Street", "addr:city": "East Sussex", "addr:postcode": "TN22 1AP", "addr:country": "UK", "name": "Pizza Express", "phone": "01825 763333", "brand": "Pizza Express", "brand:wikidata": "Q662845"}, "geometry": {"type": "Point", "coordinates": [0.09615, 50.97143]}},
{"type": "Feature", "id": "CQIQtCW_TLDucYnet9hWMhDdtH4=", "properties": {"ref": "2171", "@spider": "pizza_express", "addr:full": "40 Howardsgate", "addr:city": "Hertfordshire", "addr:postcode": "AL8 6BJ", "addr:country": "UK", "name": "Pizza Express", "phone": "01707 334 231", "brand": "Pizza Express", "brand:wikidata": "Q662845"}, "geometry": {"type": "Point", "coordinates": [-0.20663, 51.8012]}},
{"type": "Feature", "id": "V41_Ony36lhZJf9CrUFCAIz7g1c=", "properties": {"ref": "3399", "@spider": "pizza_express", "addr:full": "The Galleria", "addr:city": "Hertfordshire", "addr:postcode": "AL10 0XR", "addr:country": "UK", "name": "Pizza Express", "phone": "01707 257855", "brand": "Pizza Express", "brand:wikidata": "Q662845"}, "geometry": {"type": "Point", "coordinates": [-0.240372, 51.76143]}},
{"type": "Feature", "id": "FTQKADBWYWYac4h5rsacW2jmXFI=", "properties": {"ref": "761", "@spider": "pizza_express", "addr:full": "133 Baker Street", "addr:city": "London", "addr:postcode": "W1U 6SF", "addr:country": "UK", "name": "Pizza Express", "phone": "020 7486 0888", "brand": "Pizza Express", "brand:wikidata": "Q662845"}, "geometry": {"type": "Point", "coordinates": [-0.15752, 51.52163]}},
{"type": "Feature", "id": "PBX2UW1KCfnNHw7o6mr7gulM7dU=", "properties": {"ref": "481", "@spider": "pizza_express", "addr:full": "21-22 Barrett Street", "addr:city": "London", "addr:postcode": "W1U 1BE", "addr:country": "UK", "name": "Pizza Express", "phone": "020 7629 1001", "brand": "Pizza Express", "brand:wikidata": "Q662845"}, "geometry": {"type": "Point", "coordinates": [-0.15033, 51.51493]}},
{"type": "Feature", "id": "glKOkkFBmM3GMwLfV6yxcTgsFiY=", "properties": {"ref": "3359", "@spider": "pizza_express", "addr:full": "48 George Street", "addr:city": "Croydon", "addr:postcode": "CR0 1PD", "addr:country": "UK", "name": "Pizza Express", "phone": "020 8681 2550", "brand": "Pizza Express", "brand:wikidata": "Q662845"}, "geometry": {"type": "Point", "coordinates": [-0.095487, 51.36998]}},
{"type": "Feature", "id": "SoZ9LQJGkdxgOMlWN3M4Tp_2Yrg=", "properties": {"ref": "651", "@spider": "pizza_express", "addr:full": "194a Haverstock Hill", "addr:city": "London", "addr:postcode": "NW3 2AJ", "addr:country": "UK", "name": "Pizza Express", "phone": "020 7794 6777", "brand": "Pizza Express", "brand:wikidata": "Q662845"}, "geometry": {"type": "Point", "coordinates": [-0.16461, 51.55064]}},
{"type": "Feature", "id": "habDpkWCOfqiJQs-nDW40-vtRqI=", "properties": {"ref": "1831", "@spider": "pizza_express", "addr:full": "46 Moreton Street", "addr:city": "London", "addr:postcode": "SW1V 2PB", "addr:country": "UK", "name": "Pizza Express", "phone": "020 7592 9488", "brand": "Pizza Express", "brand:wikidata": "Q662845"}, "geometry": {"type": "Point", "coordinates": [-0.13726, 51.48891]}},
{"type": "Feature", "id": "YJhs7aE2kE29GVtWU6rwo6NbtsE=", "properties": {"ref": "2031", "@spider": "pizza_express", "addr:full": "85 Victoria Street", "addr:city": "London", "addr:postcode": "SW1H 0HW", "addr:country": "UK", "name": "Pizza Express", "phone": "020 7222 5270", "brand": "Pizza Express", "brand:wikidata": "Q662845"}, "geometry": {"type": "Point", "coordinates": [-0.13481, 51.49745]}},
{"type": "Feature", "id": "xV0w6cmwzfg2qqd9ICxJnC8p0ZI=", "properties": {"ref": "3210", "@spider": "pizza_express", "addr:full": "25 Millbank", "addr:city": "London", "addr:postcode": "SW1P 4QP", "addr:country": "UK", "name": "Pizza Express", "phone": "020 7976 6214", "brand": "Pizza Express", "brand:wikidata": "Q662845"}, "geometry": {"type": "Point", "coordinates": [-0.12588, 51.49198]}},
{"type": "Feature", "id": "Ed7kAoK_1itnRsdqP8ivwAlZyXg=", "properties": {"ref": "1081", "@spider": "pizza_express", "addr:full": "85 Parkway", "addr:city": "London", "addr:postcode": "NW1 7PP", "addr:country": "UK", "name": "Pizza Express", "phone": "020 7267 2600", "brand": "Pizza Express", "brand:wikidata": "Q662845"}, "geometry": {"type": "Point", "coordinates": [-0.14544, 51.53718]}},
{"type": "Feature", "id": "dmu0oWQVQZqIhTnegDuFfSiH7DE=", "properties": {"ref": "3131", "@spider": "pizza_express", "addr:full": "26 Panton House", "addr:city": "London", "addr:postcode": "SW1Y 4EN", "addr:country": "UK", "name": "Pizza Express", "phone": "020 7930 8044", "brand": "Pizza Express", "brand:wikidata": "Q662845"}, "geometry": {"type": "Point", "coordinates": [-0.13225, 51.50946]}},
{"type": "Feature", "id": "VsvhKLvKnyDVERCS4epQiClqK3U=", "properties": {"ref": "4205", "@spider": "pizza_express", "addr:full": "Welcome Break", "addr:city": "Potters Bar", "addr:postcode": "EN6 3QQ", "addr:country": "UK", "name": "Pizza Express", "phone": "01707 621 021", "brand": "Pizza Express", "brand:wikidata": "Q662845"}, "geometry": {"type": "Point", "coordinates": [-0.2217, 51.6875]}},
{"type": "Feature", "id": "_BsX6AyQ60kbgtZKdhTiGsauTXM=", "properties": {"ref": "161", "@spider": "pizza_express", "addr:full": "10 Dean Street", "addr:city": "London", "addr:postcode": "W1D 3RW", "addr:country": "UK", "name": "Pizza Express", "phone": "020 7437 9595", "brand": "Pizza Express", "brand:wikidata": "Q662845"}, "geometry": {"type": "Point", "coordinates": [-0.13329, 51.51511]}},
{"type": "Feature", "id": "UwavFd-zhirnxV5US6l6g1SRQWc=", "properties": {"ref": "1091", "@spider": "pizza_express", "addr:full": "242-248 High Street", "addr:city": "Hertfordshire", "addr:postcode": "EN5 5TD", "addr:country": "UK", "name": "Pizza Express", "phone": "020 8449 3706", "brand": "Pizza Express", "brand:wikidata": "Q662845"}, "geometry": {"type": "Point", "coordinates": [-0.20104, 51.65778]}},
{"type": "Feature", "id": "RuS51sUXQQ7zET6lmaM0GmxIieg=", "properties": {"ref": "2091", "@spider": "pizza_express", "addr:full": "450 Strand", "addr:city": "London", "addr:postcode": "WC2R 0RG", "addr:country": "UK", "name": "Pizza Express", "phone": "020 7930 8205", "brand": "Pizza Express", "brand:wikidata": "Q662845"}, "geometry": {"type": "Point", "coordinates": [-0.12635, 51.50839]}},
{"type": "Feature", "id": "DhA7k5sg93DpWvcW0gqSNAPlKW8=", "properties": {"ref": "1741", "@spider": "pizza_express", "addr:full": "80-81 St Martin's Lane", "addr:city": "London", "addr:postcode": "WC2N 4AA", "addr:country": "UK", "name": "Pizza Express", "phone": "020 7836 8001", "brand": "Pizza Express", "brand:wikidata": "Q662845"}, "geometry": {"type": "Point", "coordinates": [-0.12756, 51.5115]}},
{"type": "Feature", "id": "gtTzYhKhSMJe-zJlwL6LQOMIkXo=", "properties": {"ref": "3320", "@spider": "pizza_express", "addr:full": "136-140 Herne Hill", "addr:city": "London", "addr:postcode": "SE24 9QH", "addr:country": "UK", "name": "Pizza Express", "phone": "020 7738 3373", "brand": "Pizza Express", "brand:wikidata": "Q662845"}, "geometry": {"type": "Point", "coordinates": [-0.1011837, 51.45296]}},
{"type": "Feature", "id": "bw65Uac1uQ3g0lv0qVSuKJmLxf4=", "properties": {"ref": "121", "@spider": "pizza_express", "addr:full": "30 Coptic Street", "addr:city": "Bloomsbury", "addr:postcode": "WC1A 1NS", "addr:country": "UK", "name": "Pizza Express", "phone": "020 7636 3232", "brand": "Pizza Express", "brand:wikidata": "Q662845"}, "geometry": {"type": "Point", "coordinates": [-0.1262, 51.51764]}},
{"type": "Feature", "id": "r4JZaHiQOCgmH4eeeTi_S-ux9FI=", "properties": {"ref": "2011", "@spider": "pizza_express", "addr:full": "316 Kennington Road", "addr:city": "London", "addr:postcode": "SE11 4LD", "addr:country": "UK", "name": "Pizza Express", "phone": "020 7820 3877", "brand": "Pizza Express", "brand:wikidata": "Q662845"}, "geometry": {"type": "Point", "coordinates": [-0.11178, 51.48673]}},
{"type": "Feature", "id": "DiqwYG0O_PVSrrCK4QRi427Z3ZE=", "properties": {"ref": "511", "@spider": "pizza_express", "addr:full": "9-12 Bow Street", "addr:city": "London", "addr:postcode": "WC2E 7AH", "addr:country": "UK", "name": "Pizza Express", "phone": "020 7240 3443", "brand": "Pizza Express", "brand:wikidata": "Q662845"}, "geometry": {"type": "Point", "coordinates": [-0.12278, 51.51351]}},
{"type": "Feature", "id": "GCBxnWPWkJN-gV3KtTBKLF5Xl7c=", "properties": {"ref": "3252", "@spider": "pizza_express", "addr:full": "Intu Soar Centre", "addr:city": "Braehead", "addr:postcode": "PA4 8XQ", "addr:country": "UK", "name": "Pizza Express", "phone": "0141 886 4996", "brand": "Pizza Express", "brand:wikidata": "Q662845"}, "geometry": {"type": "Point", "coordinates": [-4.37137, 55.87899]}},
{"type": "Feature", "id": "DhmJKHTZH6zEmjbxNAk25RfW9Xo=", "properties": {"ref": "281", "@spider": "pizza_express", "addr:full": "7a Jesus Lane", "addr:city": "Cambridge", "addr:postcode": "CB5 8BA", "addr:country": "UK", "name": "Pizza Express", "phone": "01223 324 033", "brand": "Pizza Express", "brand:wikidata": "Q662845"}, "geometry": {"type": "Point", "coordinates": [0.11969, 52.20825]}},
{"type": "Feature", "id": "LLDvE7V8l9FpO3uBawBIXcvkwsY=", "properties": {"ref": "2881", "@spider": "pizza_express", "addr:full": "26-28 Regent Street", "addr:city": "Cambridge", "addr:postcode": "CB2 1DB", "addr:country": "UK", "name": "Pizza Express", "phone": "01223 306 777", "brand": "Pizza Express", "brand:wikidata": "Q662845"}, "geometry": {"type": "Point", "coordinates": [0.12484, 52.20174]}},
{"type": "Feature", "id": "TY7wBCgm03IUGHzMhBh3TsK0gVk=", "properties": {"ref": "2671", "@spider": "pizza_express", "addr:full": "Clifton House", "addr:city": "London", "addr:postcode": "NW1 2RA", "addr:country": "UK", "name": "Pizza Express", "phone": "020 7383 7102", "brand": "Pizza Express", "brand:wikidata": "Q662845"}, "geometry": {"type": "Point", "coordinates": [-0.12739, 51.52839]}},
{"type": "Feature", "id": "AMm36VXnUWqG0j-vp2ax8RLumI8=", "properties": {"ref": "231", "@spider": "pizza_express", "addr:full": "30 High Street", "addr:city": "London", "addr:postcode": "N6 5JG", "addr:country": "UK", "name": "Pizza Express", "phone": "020 8341 3434", "brand": "Pizza Express", "brand:wikidata": "Q662845"}, "geometry": {"type": "Point", "coordinates": [-0.14654, 51.57064]}},
{"type": "Feature", "id": "Pk0r1RKPJYbbaStQ9eJjeenm5tc=", "properties": {"ref": "2711", "@spider": "pizza_express", "addr:full": "147 Strand", "addr:city": "London", "addr:postcode": "WC2R 1JA", "addr:country": "UK", "name": "Pizza Express", "phone": "020 7836 7716", "brand": "Pizza Express", "brand:wikidata": "Q662845"}, "geometry": {"type": "Point", "coordinates": [-0.11821, 51.51147]}},
{"type": "Feature", "id": "lBHkFclzmHVIroIeqKE2MNGh8YY=", "properties": {"ref": "2351", "@spider": "pizza_express", "addr:full": "Unit 3 The White House", "addr:city": "London", "addr:postcode": "SE1 8YP", "addr:country": "UK", "name": "Pizza Express", "phone": "020 7928 4091", "brand": "Pizza Express", "brand:wikidata": "Q662845"}, "geometry": {"type": "Point", "coordinates": [-0.11469, 51.5053]}},
{"type": "Feature", "id": "2RcywSNh97oebHMTM0_fWhTNBlk=", "properties": {"ref": "2321", "@spider": "pizza_express", "addr:full": "99 High Holborn", "addr:city": "London", "addr:postcode": "WC1V 6LF", "addr:country": "UK", "name": "Pizza Express", "phone": "020 7831 5305", "brand": "Pizza Express", "brand:wikidata": "Q662845"}, "geometry": {"type": "Point", "coordinates": [-0.11868, 51.51829]}},
{"type": "Feature", "id": "Qbiop9v5RyYa65XhyyLHCG7_P_s=", "properties": {"ref": "931", "@spider": "pizza_express", "addr:full": "94 The Village", "addr:city": "London", "addr:postcode": "SE21 7AQ", "addr:country": "UK", "name": "Pizza Express", "phone": "020 8693 9333", "brand": "Pizza Express", "brand:wikidata": "Q662845"}, "geometry": {"type": "Point", "coordinates": [-0.08586, 51.44847]}},
{"type": "Feature", "id": "sJ0nG_HT3Qx1PNcH1-9Pa5frktY=", "properties": {"ref": "3191", "@spider": "pizza_express", "addr:full": "1 New Fetter Lane", "addr:city": "London", "addr:postcode": "EC4A 1AN", "addr:country": "UK", "name": "Pizza Express", "phone": "020 7583 8880", "brand": "Pizza Express", "brand:wikidata": "Q662845"}, "geometry": {"type": "Point", "coordinates": [-0.10778, 51.51677]}},
{"type": "Feature", "id": "EbpUIqnc3bhfjWBFPJ49Z8MmrqA=", "properties": {"ref": "1241", "@spider": "pizza_express", "addr:full": "290 Muswell Hill Broadway", "addr:city": "Muswell Hill", "addr:postcode": "N10 2QR", "addr:country": "UK", "name": "Pizza Express", "phone": "020 8883 5845", "brand": "Pizza Express", "brand:wikidata": "Q662845"}, "geometry": {"type": "Point", "coordinates": [-0.14148, 51.59125]}},
{"type": "Feature", "id": "ECQAm77P91IL9ReYbCW9KU5uCqs=", "properties": {"ref": "3258", "@spider": "pizza_express", "addr:full": "Condor House", "addr:city": "London", "addr:postcode": "EC4M 8AY", "addr:country": "UK", "name": "Pizza Express", "phone": "020 7248 9464", "brand": "Pizza Express", "brand:wikidata": "Q662845"}, "geometry": {"type": "Point", "coordinates": [-0.10024, 51.5134]}},
{"type": "Feature", "id": "szZlTW32Gh5uK4ZrLnPlq7kTND0=", "properties": {"ref": "3223", "@spider": "pizza_express", "addr:full": "Benbow House", "addr:city": "London", "addr:postcode": "SE1 9DS", "addr:country": "UK", "name": "Pizza Express", "phone": "020 7401 3977", "brand": "Pizza Express", "brand:wikidata": "Q662845"}, "geometry": {"type": "Point", "coordinates": [-0.09591, 51.50805]}},
{"type": "Feature", "id": "uxb2eoV-_MEw_ESQP0vzfSPJDNs=", "properties": {"ref": "3203", "@spider": "pizza_express", "addr:full": "1 Clerkenwell Road", "addr:city": "Clerkenwell", "addr:postcode": "EC1M 5PA", "addr:country": "UK", "name": "Pizza Express", "phone": "020 7253 7770", "brand": "Pizza Express", "brand:wikidata": "Q662845"}, "geometry": {"type": "Point", "coordinates": [-0.09879, 51.52312]}},
{"type": "Feature", "id": "UG__XBoxcs-QK4uJnTNWjv5YFQQ=", "properties": {"ref": "1181", "@spider": "pizza_express", "addr:full": "335 Upper Street", "addr:city": "London", "addr:postcode": "N1 0PB", "addr:country": "UK", "name": "Pizza Express", "phone": "020 7226 9542", "brand": "Pizza Express", "brand:wikidata": "Q662845"}, "geometry": {"type": "Point", "coordinates": [-0.1038, 51.53527]}},
{"type": "Feature", "id": "aW0dncSPI4mFd1NmXFo-Jf05OSo=", "properties": {"ref": "3272", "@spider": "pizza_express", "addr:full": "8 Russia Row", "addr:city": "London", "addr:postcode": "EC2V 8BL", "addr:country": "UK", "name": "Pizza Express", "phone": "0207 600 2232", "brand": "Pizza Express", "brand:wikidata": "Q662845"}, "geometry": {"type": "Point", "coordinates": [-0.09296, 51.51513]}},
{"type": "Feature", "id": "Vl3XAVb2dtEZCHuFnj1YE0czec8=", "properties": {"ref": "1991", "@spider": "pizza_express", "addr:full": "4 Borough High Street", "addr:city": "London", "addr:postcode": "SE1 9QQ", "addr:country": "UK", "name": "Pizza Express", "phone": "0207 407 2995", "brand": "Pizza Express", "brand:wikidata": "Q662845"}, "geometry": {"type": "Point", "coordinates": [-0.0887, 51.50621]}},
{"type": "Feature", "id": "5Jpc-tzJ51BfBIFqKF0a6F4sh24=", "properties": {"ref": "2541", "@spider": "pizza_express", "addr:full": "153-155 Station Road East", "addr:city": "Surrey", "addr:postcode": "RH8 0QE", "addr:country": "UK", "name": "Pizza Express", "phone": "01883 723 142", "brand": "Pizza Express", "brand:wikidata": "Q662845"}, "geometry": {"type": "Point", "coordinates": [-0.00474, 51.25847]}},
{"type": "Feature", "id": "V1kIu70jhcAi4vLT8sRxMB0pNz4=", "properties": {"ref": "2661", "@spider": "pizza_express", "addr:full": "2 Livingston Designer Outlet", "addr:city": "West Lothian", "addr:postcode": "EH54 6QP", "addr:country": "UK", "name": "Pizza Express", "phone": "01506 417543", "brand": "Pizza Express", "brand:wikidata": "Q662845"}, "geometry": {"type": "Point", "coordinates": [-3.51782, 55.88476]}},
{"type": "Feature", "id": "s4_3PYq-213GanM98j70Erh1nQk=", "properties": {"ref": "871", "@spider": "pizza_express", "addr:full": "24 Cornfield Road", "addr:city": "Eastbourne", "addr:postcode": "BN21 4QH", "addr:country": "UK", "name": "Pizza Express", "phone": "01323 649 466", "brand": "Pizza Express", "brand:wikidata": "Q662845"}, "geometry": {"type": "Point", "coordinates": [0.28447, 50.76688]}},
{"type": "Feature", "id": "U5rpJjvKLzWjrNKOqBBewUKLOZE=", "properties": {"ref": "3207", "@spider": "pizza_express", "addr:full": "43 High Street", "addr:city": "Ely", "addr:postcode": "CB7 4LF", "addr:country": "UK", "name": "Pizza Express", "phone": "01353 665 999", "brand": "Pizza Express", "brand:wikidata": "Q662845"}, "geometry": {"type": "Point", "coordinates": [0.2653, 52.39933]}},
{"type": "Feature", "id": "MaOa2joeATBHr3gy1IX7nKdCBMw=", "properties": {"ref": "2391", "@spider": "pizza_express", "addr:full": "1 Saturday Market Place", "addr:city": "Kings Lynn", "addr:postcode": "PE30 5DQ", "addr:country": "UK", "name": "Pizza Express", "phone": "01553 764 137", "brand": "Pizza Express", "brand:wikidata": "Q662845"}, "geometry": {"type": "Point", "coordinates": [0.39511, 52.75214]}},
{"type": "Feature", "id": "UrJIYdPG8Df0Ch7quHQwoX298SM=", "properties": {"ref": "171", "@spider": "pizza_express", "addr:full": "80 Fore Street", "addr:city": "Hertfordshire", "addr:postcode": "SG14 1BY", "addr:country": "UK", "name": "Pizza Express", "phone": "01992 509 550", "brand": "Pizza Express", "brand:wikidata": "Q662845"}, "geometry": {"type": "Point", "coordinates": [-0.07656, 51.79609]}},
{"type": "Feature", "id": "sbunQUoez8PLIwiYzTkfFo3F7dE=", "properties": {"ref": "2861", "@spider": "pizza_express", "addr:full": "20-22 Leadenhall Market", "addr:city": "London", "addr:postcode": "EC3V 1LR", "addr:country": "UK", "name": "Pizza Express", "phone": "020 7283 5113", "brand": "Pizza Express", "brand:wikidata": "Q662845"}, "geometry": {"type": "Point", "coordinates": [-0.08337, 51.51268]}},
{"type": "Feature", "id": "9hXiK1iw2RfRmP2UDn9caM_nLVc=", "properties": {"ref": "3230", "@spider": "pizza_express", "addr:full": "1 Byward Street", "addr:city": "London", "addr:postcode": "EC3R 5AS", "addr:country": "UK", "name": "Pizza Express", "phone": "020 7626 5025", "brand": "Pizza Express", "brand:wikidata": "Q662845"}, "geometry": {"type": "Point", "coordinates": [-0.07997, 51.50984]}},
{"type": "Feature", "id": "LFxEW1CwYoUUKKf3QW3MFTInPZ8=", "properties": {"ref": "1821", "@spider": "pizza_express", "addr:full": "The Cardamom Building", "addr:city": "London", "addr:postcode": "SE1 2YR", "addr:country": "UK", "name": "Pizza Express", "phone": "020 7403 8484", "brand": "Pizza Express", "brand:wikidata": "Q662845"}, "geometry": {"type": "Point", "coordinates": [-0.07379, 51.5033]}},
{"type": "Feature", "id": "4zCp9D8lbtHL9Q3S93KBZhPL0PI=", "properties": {"ref": "2851", "@spider": "pizza_express", "addr:full": "232-238 Bishopsgate", "addr:city": "London", "addr:postcode": "EC2M 4QD", "addr:country": "UK", "name": "Pizza Express", "phone": "020 7247 2838", "brand": "Pizza Express", "brand:wikidata": "Q662845"}, "geometry": {"type": "Point", "coordinates": [-0.07927, 51.51866]}},
{"type": "Feature", "id": "iW2JPx7lE1MHw6VTA4MbsWkxYNI=", "properties": {"ref": "811", "@spider": "pizza_express", "addr:full": "94 Chaseside", "addr:city": "London", "addr:postcode": "N14 5PH", "addr:country": "UK", "name": "Pizza Express", "phone": "020 8886 3300", "brand": "Pizza Express", "brand:wikidata": "Q662845"}, "geometry": {"type": "Point", "coordinates": [-0.13092, 51.63353]}},
{"type": "Feature", "id": "A40pC4nsJ8XIpYgmLn0h_NiS1S0=", "properties": {"ref": "341", "@spider": "pizza_express", "addr:full": "189 High Street", "addr:city": "Beckenham", "addr:postcode": "BR3 1AH", "addr:country": "UK", "name": "Pizza Express", "phone": "020 8650 0593", "brand": "Pizza Express", "brand:wikidata": "Q662845"}, "geometry": {"type": "Point", "coordinates": [-0.03033, 51.40644]}},
{"type": "Feature", "id": "tRG4dYmwQ5C130Ey2_ueEDu9Eso=", "properties": {"ref": "2131", "@spider": "pizza_express", "addr:full": "3 High Street", "addr:city": "Kent", "addr:postcode": "BR4 0LP", "addr:country": "UK", "name": "Pizza Express", "phone": "020 8777 7966", "brand": "Pizza Express", "brand:wikidata": "Q662845"}, "geometry": {"type": "Point", "coordinates": [-0.01545, 51.3757]}},
{"type": "Feature", "id": "togf8Kx5JGplc1iZMIB1jRex9_g=", "properties": {"ref": "3432", "@spider": "pizza_express", "addr:full": "Unit 2", "addr:city": "Bromley", "addr:postcode": "BR2 9UY", "addr:country": "UK", "name": "Pizza Express", "phone": "020 8104 0323", "brand": "Pizza Express", "brand:wikidata": "Q662845"}, "geometry": {"type": "Point", "coordinates": [0.015412, 51.39912]}},
{"type": "Feature", "id": "HZfzaWN0qhR92wb7zGBFKI9gHIk=", "properties": {"ref": "351", "@spider": "pizza_express", "addr:full": "15 Widmore Road", "addr:city": "Bromley", "addr:postcode": "BR1 1RL", "addr:country": "UK", "name": "Pizza Express", "phone": "020 8464 2708", "brand": "Pizza Express", "brand:wikidata": "Q662845"}, "geometry": {"type": "Point", "coordinates": [0.01611, 51.40619]}},
{"type": "Feature", "id": "STVG9xJKexiccgNJuGAgqorszxk=", "properties": {"ref": "2341", "@spider": "pizza_express", "addr:full": "4 Church Street", "addr:city": "London", "addr:postcode": "SE10 9BG", "addr:country": "UK", "name": "Pizza Express", "phone": "020 8853 2770", "brand": "Pizza Express", "brand:wikidata": "Q662845"}, "geometry": {"type": "Point", "coordinates": [-0.00897, 51.4806]}},
{"type": "Feature", "id": "TKM6sm031EdASR8wPKvmlVTCU_E=", "properties": {"ref": "1901", "@spider": "pizza_express", "addr:full": "64 Tranquil Vale", "addr:city": "London", "addr:postcode": "SE3 0BN", "addr:country": "UK", "name": "Pizza Express", "phone": "020 8318 2595", "brand": "Pizza Express", "brand:wikidata": "Q662845"}, "geometry": {"type": "Point", "coordinates": [0.00735, 51.46704]}},
{"type": "Feature", "id": "JkW0Jrlz6xoSJ1S5GFh8h5AvygU=", "properties": {"ref": "3261", "@spider": "pizza_express", "addr:full": "Unit 8", "addr:city": "London", "addr:postcode": "SE10 0DY", "addr:country": "UK", "name": "Pizza Express", "phone": "0208 293 5071", "brand": "Pizza Express", "brand:wikidata": "Q662845"}, "geometry": {"type": "Point", "coordinates": [0.0035198, 51.50169]}},
{"type": "Feature", "id": "Hx7bXC5pJPuNYbJSMEExPBpGISo=", "properties": {"ref": "3351", "@spider": "pizza_express", "addr:full": "1 Nile Grove", "addr:city": "Edinburgh", "addr:postcode": "EH10 4RE", "addr:country": "UK", "name": "Pizza Express", "phone": "0131 447 6055", "brand": "Pizza Express", "brand:wikidata": "Q662845"}, "geometry": {"type": "Point", "coordinates": [-3.20595, 55.92654]}},
{"type": "Feature", "id": "FAufEBlDCj1GafD1yaqsrer8Ckc=", "properties": {"ref": "1481", "@spider": "pizza_express", "addr:full": "32 Queensferry Street", "addr:city": "Edinburgh", "addr:postcode": "EH2 4QS", "addr:country": "UK", "name": "Pizza Express", "phone": "0131 225 8863", "brand": "Pizza Express", "brand:wikidata": "Q662845"}, "geometry": {"type": "Point", "coordinates": [-3.20979, 55.95105]}},
{"type": "Feature", "id": "u9TRqb0GYJQ0PkrkdJdsLLOGBT0=", "properties": {"ref": "3311", "@spider": "pizza_express", "addr:full": "1 Victoria Terrace", "addr:city": "Edinburgh", "addr:postcode": "EH1 1RN", "addr:country": "UK", "name": "Pizza Express", "phone": "0131 225 9669", "brand": "Pizza Express", "brand:wikidata": "Q662845"}, "geometry": {"type": "Point", "coordinates": [-3.19206, 55.9493]}},
{"type": "Feature", "id": "PMgXA0VmOmIv1i8shJa_l-b8t5M=", "properties": {"ref": "1851", "@spider": "pizza_express", "addr:full": "23 North Bridge", "addr:city": "Edinburgh", "addr:postcode": "EH1 1SB", "addr:country": "UK", "name": "Pizza Express", "phone": "0131 557 6411", "brand": "Pizza Express", "brand:wikidata": "Q662845"}, "geometry": {"type": "Point", "coordinates": [-3.18738, 55.9508]}},
{"type": "Feature", "id": "netb8zMaCQZG55p22AKhfTadHL4=", "properties": {"ref": "1551", "@spider": "pizza_express", "addr:full": "1 Deanhaugh Street", "addr:city": "Edinburgh", "addr:postcode": "EH4 1LU", "addr:country": "UK", "name": "Pizza Express", "phone": "0131 332 7229", "brand": "Pizza Express", "brand:wikidata": "Q662845"}, "geometry": {"type": "Point", "coordinates": [-3.20906, 55.95832]}},
{"type": "Feature", "id": "AsT24_Aj1Xiff0YCUV7PhmqVnks=", "properties": {"ref": "3316", "@spider": "pizza_express", "addr:full": "Leisure Quarter", "addr:city": "Edinburgh", "addr:postcode": "EH15 3RD", "addr:country": "UK", "name": "Pizza Express", "phone": "0131 669 9888", "brand": "Pizza Express", "brand:wikidata": "Q662845"}, "geometry": {"type": "Point", "coordinates": [-3.104346, 55.93507]}},
{"type": "Feature", "id": "YXUJ00dQnthdMcY-ubIi1K8KBrg=", "properties": {"ref": "3350", "@spider": "pizza_express", "addr:full": "Unit LR05", "addr:city": "Stratford", "addr:postcode": "E20 1ET", "addr:country": "UK", "name": "Pizza Express", "phone": "0208 5555015", "brand": "Pizza Express", "brand:wikidata": "Q662845"}, "geometry": {"type": "Point", "coordinates": [-0.006677, 51.54341]}},
{"type": "Feature", "id": "fDhz4DDH8OMb39VL6l7UE8x--90=", "properties": {"ref": "1561", "@spider": "pizza_express", "addr:full": "Theatre Square", "addr:city": "London", "addr:postcode": "E15 1BX", "addr:country": "UK", "name": "Pizza Express", "phone": "020 8534 1700", "brand": "Pizza Express", "brand:wikidata": "Q662845"}, "geometry": {"type": "Point", "coordinates": [0.00148, 51.54261]}},
{"type": "Feature", "id": "afMarWFT3ICTQICq-8zbnbvPP8I=", "properties": {"ref": "3465", "@spider": "pizza_express", "addr:full": "Unit 1", "addr:city": "Eltham", "addr:postcode": "SE9 1BJ", "addr:country": "UK", "name": "Pizza Express", "phone": "0208 104 0324", "brand": "Pizza Express", "brand:wikidata": "Q662845"}, "geometry": {"type": "Point", "coordinates": [0.056, 51.4507]}},
{"type": "Feature", "id": "aHDEZeJj3zims1XGVErEEFp3kPM=", "properties": {"ref": "271", "@spider": "pizza_express", "addr:full": "76 High Road", "addr:city": "London", "addr:postcode": "E18 2NA", "addr:country": "UK", "name": "Pizza Express", "phone": "020 8924 4488", "brand": "Pizza Express", "brand:wikidata": "Q662845"}, "geometry": {"type": "Point", "coordinates": [0.02248, 51.59528]}},
{"type": "Feature", "id": "57KnYcMtICqdAyYYrlLat2yAMhk=", "properties": {"ref": "1651", "@spider": "pizza_express", "addr:full": "6 Elm Parade", "addr:city": "Kent", "addr:postcode": "DA14 6NF", "addr:country": "UK", "name": "Pizza Express", "phone": "020 8300 5522", "brand": "Pizza Express", "brand:wikidata": "Q662845"}, "geometry": {"type": "Point", "coordinates": [0.10018, 51.42627]}},
{"type": "Feature", "id": "Kgd-ZrfpP-q6e26g_Fz_zhPeS6E=", "properties": {"ref": "1211", "@spider": "pizza_express", "addr:full": "281 High Road", "addr:city": "Essex", "addr:postcode": "IG10 1AH", "addr:country": "UK", "name": "Pizza Express", "phone": "020 8508 3303", "brand": "Pizza Express", "brand:wikidata": "Q662845"}, "geometry": {"type": "Point", "coordinates": [0.0571, 51.64899]}},
{"type": "Feature", "id": "Nzae7yQUCBDIS8IoQ5qcKlJ2YYg=", "properties": {"ref": "301", "@spider": "pizza_express", "addr:full": "146 High Street", "addr:city": "Sevenoaks", "addr:postcode": "TN13 1XE", "addr:country": "UK", "name": "Pizza Express", "phone": "01732 741 111", "brand": "Pizza Express", "brand:wikidata": "Q662845"}, "geometry": {"type": "Point", "coordinates": [0.19291, 51.27273]}},
{"type": "Feature", "id": "5pPn6Dfh-l1riztJA7ElwSp_tPs=", "properties": {"ref": "1061", "@spider": "pizza_express", "addr:full": "163 Broadway", "addr:city": "Bexleyheath", "addr:postcode": "DA6 7ES", "addr:country": "UK", "name": "Pizza Express", "phone": "020 8303 3040", "brand": "Pizza Express", "brand:wikidata": "Q662845"}, "geometry": {"type": "Point", "coordinates": [0.14087, 51.45693]}},
{"type": "Feature", "id": "m2fNxk4_A15a-gT6hu9PwvBIvJU=", "properties": {"ref": "741", "@spider": "pizza_express", "addr:full": "81 High Street", "addr:city": "Kent", "addr:postcode": "TN1 1YB", "addr:country": "UK", "name": "Pizza Express", "phone": "01892 543 112", "brand": "Pizza Express", "brand:wikidata": "Q662845"}, "geometry": {"type": "Point", "coordinates": [0.26082, 51.12773]}},
{"type": "Feature", "id": "gOhueB-Nar05xfEQVSsjteqe_So=", "properties": {"ref": "1541", "@spider": "pizza_express", "addr:full": "91 High Street", "addr:city": "Kent", "addr:postcode": "TN9 1DR", "addr:country": "UK", "name": "Pizza Express", "phone": "01732 368 787", "brand": "Pizza Express", "brand:wikidata": "Q662845"}, "geometry": {"type": "Point", "coordinates": [0.27544, 51.19554]}},
{"type": "Feature", "id": "EPjqg0KUR7tVtsDD9seE_apaZaY=", "properties": {"ref": "3378", "@spider": "pizza_express", "addr:full": "The Thistles Shopping Centre", "addr:city": "Scotland", "addr:postcode": "FK8 2BX", "addr:country": "UK", "name": "Pizza Express", "phone": "01786 451844", "brand": "Pizza Express", "brand:wikidata": "Q662845"}, "geometry": {"type": "Point", "coordinates": [-3.935189, 56.11754]}},
{"type": "Feature", "id": "eBgFKi3YiKINqW9sk65ikGNyG7w=", "properties": {"ref": "3355", "@spider": "pizza_express", "addr:full": "2a", "addr:city": "Edinburgh", "addr:postcode": "EH6 6JJ", "addr:country": "UK", "name": "Pizza Express", "phone": "0131 555 0606", "brand": "Pizza Express", "brand:wikidata": "Q662845"}, "geometry": {"type": "Point", "coordinates": [-3.179662, 55.98019]}},
{"type": "Feature", "id": "j3v86rpYS6RlCy1Mc0AoDICXm5M=", "properties": {"ref": "581", "@spider": "pizza_express", "addr:full": "25 North Street", "addr:city": "Bishops Stortford", "addr:postcode": "CM23 2LD", "addr:country": "UK", "name": "Pizza Express", "phone": "01279 757 677", "brand": "Pizza Express", "brand:wikidata": "Q662845"}, "geometry": {"type": "Point", "coordinates": [0.15826, 51.8722]}},
{"type": "Feature", "id": "QViOJjDBotF3Wj_Nlkd0ebXUBec=", "properties": {"ref": "3247", "@spider": "pizza_express", "addr:full": "75 High Street", "addr:city": "Suffolk", "addr:postcode": "CB8 8NA", "addr:country": "UK", "name": "Pizza Express", "phone": "01638 664 646", "brand": "Pizza Express", "brand:wikidata": "Q662845"}, "geometry": {"type": "Point", "coordinates": [0.40676, 52.24404]}},
{"type": "Feature", "id": "_-V0kM9Q1_R6SWB6w_-ZKCRpHLU=", "properties": {"ref": "3386", "@spider": "pizza_express", "addr:full": "208-212 High St", "addr:city": "Epping", "addr:postcode": "CM16 4AQ", "addr:country": "UK", "name": "Pizza Express", "phone": "01992 577000", "brand": "Pizza Express", "brand:wikidata": "Q662845"}, "geometry": {"type": "Point", "coordinates": [0.111999, 51.6992]}},
{"type": "Feature", "id": "4C2rR2n3_KYH0V_K0yW7YZchdHo=", "properties": {"ref": "2831", "@spider": "pizza_express", "addr:full": "Unit FR1 The Brewery", "addr:city": "Essex", "addr:postcode": "RM1 1AU", "addr:country": "UK", "name": "Pizza Express", "phone": "01708 725 690", "brand": "Pizza Express", "brand:wikidata": "Q662845"}, "geometry": {"type": "Point", "coordinates": [0.18075, 51.57595]}},
{"type": "Feature", "id": "C5TDgBKNbXjrQzE0QkbwluCbQPU=", "properties": {"ref": "3396", "@spider": "pizza_express", "addr:full": "1 The Water Gardens", "addr:city": "Essex", "addr:postcode": "CM20 1AN", "addr:country": "UK", "name": "Pizza Express", "phone": "01279 453380", "brand": "Pizza Express", "brand:wikidata": "Q662845"}, "geometry": {"type": "Point", "coordinates": [0.096384, 51.76763]}},
{"type": "Feature", "id": "7QcGNvYYrQo1SNKgGIjw83UlyZY=", "properties": {"ref": "2081", "@spider": "pizza_express", "addr:full": "The Village", "addr:city": "Greenhithe", "addr:postcode": "DA9 9SE", "addr:country": "UK", "name": "Pizza Express", "phone": "01322 427 526", "brand": "Pizza Express", "brand:wikidata": "Q662845"}, "geometry": {"type": "Point", "coordinates": [0.26921, 51.4394]}},
{"type": "Feature", "id": "CL9LurBNqe0-Qk0ARpfNXrkdLsE=", "properties": {"ref": "3458", "@spider": "pizza_express", "addr:full": "Units SVU09", "addr:city": "Greenhithe", "addr:postcode": "DA9 9SG", "addr:country": "UK", "name": "Pizza Express", "phone": "01322 242 000", "brand": "Pizza Express", "brand:wikidata": "Q662845"}, "geometry": {"type": "Point", "coordinates": [0.27042, 51.4376831]}},
{"type": "Feature", "id": "3dH4HCDu_DsiXwqO-UpxqIOMmD4=", "properties": {"ref": "1521", "@spider": "pizza_express", "addr:full": "131-133 St Mary's Lane", "addr:city": "Essex", "addr:postcode": "RM14 2SH", "addr:country": "UK", "name": "Pizza Express", "phone": "01708 224 111", "brand": "Pizza Express", "brand:wikidata": "Q662845"}, "geometry": {"type": "Point", "coordinates": [0.24893, 51.5564]}},
{"type": "Feature", "id": "FELZx-gkjlA4ZJHtcLXAfBErAfQ=", "properties": {"ref": "3309", "@spider": "pizza_express", "addr:full": "Unit 423-424 Lakeside Shopping Centre", "addr:city": "Essex", "addr:postcode": "RM20 2ZP", "addr:country": "UK", "name": "Pizza Express", "phone": "01708 891 080", "brand": "Pizza Express", "brand:wikidata": "Q662845"}, "geometry": {"type": "Point", "coordinates": [0.28452, 51.48778]}},
{"type": "Feature", "id": "jbs_k4f4peozvkezPC20-USYAiI=", "properties": {"ref": "851", "@spider": "pizza_express", "addr:full": "5 High Street", "addr:city": "Brentwood", "addr:postcode": "CM14 4RG", "addr:country": "UK", "name": "Pizza Express", "phone": "01277 233 569", "brand": "Pizza Express", "brand:wikidata": "Q662845"}, "geometry": {"type": "Point", "coordinates": [0.30476, 51.62132]}},
{"type": "Feature", "id": "QhWmJAstDdhiRdTLERfKcAL-Rtg=", "properties": {"ref": "2161", "@spider": "pizza_express", "addr:full": "16 South Methven Street", "addr:city": "Perth", "addr:postcode": "PH1 5PE", "addr:country": "UK", "name": "Pizza Express", "phone": "01738 628 733", "brand": "Pizza Express", "brand:wikidata": "Q662845"}, "geometry": {"type": "Point", "coordinates": [-3.4348, 56.39707]}},
{"type": "Feature", "id": "T3-RKh4LpWAPKmE2EKvHarAzRJI=", "properties": {"ref": "3214", "@spider": "pizza_express", "addr:full": "111 South Street", "addr:city": "Fife", "addr:postcode": "KY16 9UH", "addr:country": "UK", "name": "Pizza Express", "phone": "01334 477109", "brand": "Pizza Express", "brand:wikidata": "Q662845"}, "geometry": {"type": "Point", "coordinates": [-2.7964, 56.34001]}},
{"type": "Feature", "id": "kP8xgpfYwHmq59mc1bbAiFVz3cY=", "properties": {"ref": "3318", "@spider": "pizza_express", "addr:full": "21-23 High Street", "addr:city": "Kent", "addr:postcode": "ME1 1LN", "addr:country": "UK", "name": "Pizza Express", "phone": "01634 812171", "brand": "Pizza Express", "brand:wikidata": "Q662845"}, "geometry": {"type": "Point", "coordinates": [0.503633, 51.3904]}},
{"type": "Feature", "id": "_-S-TPxTfaoiiYjRN8-XLawpfyM=", "properties": {"ref": "3319", "@spider": "pizza_express", "addr:full": "Unit 2", "addr:city": "Basildon", "addr:postcode": "SS14 3WE", "addr:country": "UK", "name": "Pizza Express", "phone": "01268 526 622", "brand": "Pizza Express", "brand:wikidata": "Q662845"}, "geometry": {"type": "Point", "coordinates": [0.465383, 51.58349]}},
{"type": "Feature", "id": "l9x-8M-jASgP2e3zawCflINw4jI=", "properties": {"ref": "3373", "@spider": "pizza_express", "addr:full": "Priory Meadow Shopping Centre", "addr:city": "East Sussex", "addr:postcode": "TN34 1PH", "addr:country": "UK", "name": "Pizza Express", "phone": "01424 422434", "brand": "Pizza Express", "brand:wikidata": "Q662845"}, "geometry": {"type": "Point", "coordinates": [0.580418, 50.85665]}},
{"type": "Feature", "id": "yg0QwD-UkQSM5b8zCvbRzwGMqI0=", "properties": {"ref": "641", "@spider": "pizza_express", "addr:full": "219 Moulsham Street", "addr:city": "Chelmsford", "addr:postcode": "CM2 0LR", "addr:country": "UK", "name": "Pizza Express", "phone": "01245 491 466", "brand": "Pizza Express", "brand:wikidata": "Q662845"}, "geometry": {"type": "Point", "coordinates": [0.47396, 51.73133]}},
{"type": "Feature", "id": "kW8W4JLTQjOeaw812IhYIQIxoR8=", "properties": {"ref": "3429", "@spider": "pizza_express", "addr:full": "91 High Street", "addr:city": "Rayleigh", "addr:postcode": "SS6 7EJ", "addr:country": "UK", "name": "Pizza Express", "phone": "01268 777224\u00a0 ", "brand": "Pizza Express", "brand:wikidata": "Q662845"}, "geometry": {"type": "Point", "coordinates": [0.605339, 51.58619]}},
{"type": "Feature", "id": "y4_wBhiRETvbVfM1j-20Kjbim_I=", "properties": {"ref": "1311", "@spider": "pizza_express", "addr:full": "11 London Road", "addr:city": "Southend-on-Sea", "addr:postcode": "SS1 1PE", "addr:country": "UK", "name": "Pizza Express", "phone": "01702 435 585", "brand": "Pizza Express", "brand:wikidata": "Q662845"}, "geometry": {"type": "Point", "coordinates": [0.7098, 51.54039]}},
{"type": "Feature", "id": "Ds5rXkQFfYA4XssJZ9QgUgG4JuM=", "properties": {"ref": "2871", "@spider": "pizza_express", "addr:full": "Unit R1", "addr:city": "Braintree", "addr:postcode": "CM77 8YH", "addr:country": "UK", "name": "Pizza Express", "phone": "01376 528 789", "brand": "Pizza Express", "brand:wikidata": "Q662845"}, "geometry": {"type": "Point", "coordinates": [0.571, 51.86999]}},
{"type": "Feature", "id": "tiZkF_NeBi3PFmqfHHfXSk9cZqM=", "properties": {"ref": "3206", "@spider": "pizza_express", "addr:full": "14 North Street", "addr:city": "Ashford", "addr:postcode": "TN24 8JR", "addr:country": "UK", "name": "Pizza Express", "phone": "01233 637 700", "brand": "Pizza Express", "brand:wikidata": "Q662845"}, "geometry": {"type": "Point", "coordinates": [0.87349, 51.15028]}},
{"type": "Feature", "id": "Mu5R2Cg-Zl3XmrtFeFayWU0qu_A=", "properties": {"ref": "3356", "@spider": "pizza_express", "addr:full": "Unit 85-86", "addr:city": "Ashford", "addr:postcode": "TN24 0SD", "addr:country": "UK", "name": "Pizza Express", "phone": "01233 637 044", "brand": "Pizza Express", "brand:wikidata": "Q662845"}, "geometry": {"type": "Point", "coordinates": [0.879164, 51.13585]}},
{"type": "Feature", "id": "mPmJpdc5fugjYuB0rbhR9bRZYjc=", "properties": {"ref": "461", "@spider": "pizza_express", "addr:full": "4 Best Lane", "addr:city": "Canterbury", "addr:postcode": "CT1 2JB", "addr:country": "UK", "name": "Pizza Express", "phone": "01227 766 938", "brand": "Pizza Express", "brand:wikidata": "Q662845"}, "geometry": {"type": "Point", "coordinates": [1.07931, 51.28028]}},
{"type": "Feature", "id": "Vc95HT_tL6mzgoNSj2jGcsUDLwI=", "properties": {"ref": "541", "@spider": "pizza_express", "addr:full": "1 St Runwald Street", "addr:city": "Colchester", "addr:postcode": "CO1 1HF", "addr:country": "UK", "name": "Pizza Express", "phone": "01206 760 680", "brand": "Pizza Express", "brand:wikidata": "Q662845"}, "geometry": {"type": "Point", "coordinates": [0.89949, 51.89173]}},
{"type": "Feature", "id": "0s14vXNy00FgchezpaIPirQ8J2c=", "properties": {"ref": "221", "@spider": "pizza_express", "addr:full": "40 Abbeygate Street", "addr:city": "Bury St Edmunds", "addr:postcode": "IP33 1LW", "addr:country": "UK", "name": "Pizza Express", "phone": "01284 704 802", "brand": "Pizza Express", "brand:wikidata": "Q662845"}, "geometry": {"type": "Point", "coordinates": [0.71485, 52.24477]}},
{"type": "Feature", "id": "ojSzedO_OP3uVuHhhOHOWa04fFY=", "properties": {"ref": "3302", "@spider": "pizza_express", "addr:full": "Unit 14", "addr:city": "Ipswich", "addr:postcode": "IP4 1FH", "addr:country": "UK", "name": "Pizza Express", "phone": "01473 288 600", "brand": "Pizza Express", "brand:wikidata": "Q662845"}, "geometry": {"type": "Point", "coordinates": [1.15774, 52.05256]}},
{"type": "Feature", "id": "Fmb_5YGGIoud9HX4nMfUyslK0tQ=", "properties": {"ref": "2901", "@spider": "pizza_express", "addr:full": "The Forum", "addr:city": "Norfolk", "addr:postcode": "NR2 1TF", "addr:country": "UK", "name": "Pizza Express", "phone": "01603 662234", "brand": "Pizza Express", "brand:wikidata": "Q662845"}, "geometry": {"type": "Point", "coordinates": [1.291, 52.62782]}},
{"type": "Feature", "id": "H8ZsWoYc23JMCgsLhkd10Nn0g_E=", "properties": {"ref": "631", "@spider": "pizza_express", "addr:full": "15 St Benedict's Street", "addr:city": "Norfolk", "addr:postcode": "NR2 4PE", "addr:country": "UK", "name": "Pizza Express", "phone": "01603 622157", "brand": "Pizza Express", "brand:wikidata": "Q662845"}, "geometry": {"type": "Point", "coordinates": [1.29108, 52.63088]}},
{"type": "Feature", "id": "tDVzmlRmX6FB1iZ57rxZwLVHww8=", "properties": {"ref": "1781", "@spider": "pizza_express", "addr:full": "402-404 Union Street", "addr:city": "Aberdeen", "addr:postcode": "AB10 1TQ", "addr:country": "UK", "name": "Pizza Express", "phone": "01224 649 511", "brand": "Pizza Express", "brand:wikidata": "Q662845"}, "geometry": {"type": "Point", "coordinates": [-2.10943, 57.14379]}},
{"type": "Feature", "id": "A9mMmudO9XIqcZjyCakAwVp32W4=", "properties": {"ref": "3410", "@spider": "pizza_express", "addr:full": "Union Square Shopping Centre", "addr:city": "Aberdeen", "addr:postcode": "AB11 5RG", "addr:country": "UK", "name": "Pizza Express", "phone": "01224 592 718", "brand": "Pizza Express", "brand:wikidata": "Q662845"}, "geometry": {"type": "Point", "coordinates": [-2.097062, 57.14355]}},
{"type": "Feature", "id": "jlMKuTvtuhkqEF3zNCQOCEkMCHk=", "properties": {"ref": "3215", "@spider": "pizza_express", "addr:full": "Unit B Eastgate Centre", "addr:city": "Inverness", "addr:postcode": "IV2 3PP", "addr:country": "UK", "name": "Pizza Express", "phone": "01463 709 700", "brand": "Pizza Express", "brand:wikidata": "Q662845"}, "geometry": {"type": "Point", "coordinates": [-4.22076, 57.47906]}}]}