{"type":"FeatureCollection","features":[{"type": "Feature", "id": "Fpdpn8xxq5GljtVJBE3sSAvsmZA=", "properties": {"ref": "1214", "@spider": "regis", "addr:full": "32 College Rd Ste 24", "addr:city": "Fairbanks", "addr:state": "AK", "addr:postcode": "99701", "addr:country": "USA", "phone": "+19074588558", "website": "https://www.regissalons.com/locations/ak/fairbanks/regis-salon-bentley-mall-haircuts-109.html", "brand": "Regis Salon"}, "geometry": {"type": "Point", "coordinates": [-147.701564, 64.851825]}},
{"type": "Feature", "id": "rsTCIN9JbYoR6pSpr0Up6QjOAG8=", "properties": {"ref": "1652", "@spider": "regis", "addr:full": "10300 W Forest Hill Blvd # 152", "addr:city": "Wellington", "addr:state": "FL", "addr:postcode": "33414", "addr:country": "USA", "phone": "+15613332991", "website": "https://www.regissalons.com/locations/fl/wellington/regis-signature-salon-wellington-green-mall-haircuts-6483.html", "brand": "Regis Salon"}, "geometry": {"type": "Point", "coordinates": [-80.208445, 26.646324]}},
{"type": "Feature", "id": "XQ_RPKieAKXSAHmLBQ3pbOGZ_c8=", "properties": {"ref": "1694", "@spider": "regis", "addr:full": "317 Brandon Town Center Mall", "addr:city": "Brandon", "addr:state": "FL", "addr:postcode": "33511", "addr:country": "USA", "phone": "+18136532555", "website": "https://www.regissalons.com/locations/fl/brandon/regis-salon-westfield-brandon-haircuts-906.html", "brand": "Regis Salon"}, "geometry": {"type": "Point", "coordinates": [-82.3256, 27.931136]}},
{"type": "Feature", "id": "MyJQXGbOOnH2CroPQpvraL0MJo0=", "properties": {"ref": "1631", "@spider": "regis", "addr:full": "3544 New Center Point Ste S3", "addr:city": "Colorado Springs", "addr:state": "CO", "addr:postcode": "80922", "addr:country": "USA", "phone": "+17195916188", "website": "https://www.regissalons.com/locations/co/colorado-springs/regis-salon-1st-and-main-town-center-haircuts-607.html", "brand": "Regis Salon"}, "geometry": {"type": "Point", "coordinates": [-104.717813, 38.883725]}},
{"type": "Feature", "id": "iP63qSrLvCV3cvyOLGIPbboL-4o=", "properties": {"ref": "1634", "@spider": "regis", "addr:full": "800 S Camino Del Rio Ste 185", "addr:city": "Durango", "addr:state": "CO", "addr:postcode": "81301", "addr:country": "USA", "phone": "+19702594344", "website": "https://www.regissalons.com/locations/co/durango/regis-salon-durango-mall-haircuts-622.html", "brand": "Regis Salon"}, "geometry": {"type": "Point", "coordinates": [-107.869425, 37.241843]}},
{"type": "Feature", "id": "6aI13_WYJkXy2YczhfB6ILVIaPg=", "properties": {"ref": "1597", "@spider": "regis", "addr:full": "641 E Shaw Ave", "addr:city": "Fresno", "addr:state": "CA", "addr:postcode": "93710", "addr:country": "USA", "phone": "+15592292220", "website": "https://www.regissalons.com/locations/ca/fresno/regis-salon-fresno-fashion-fair-haircuts-528.html", "brand": "Regis Salon"}, "geometry": {"type": "Point", "coordinates": [-119.776157, 36.806579]}},
{"type": "Feature", "id": "z8yt1-VnWmaXYTKBuo48aCphR2k=", "properties": {"ref": "1619", "@spider": "regis", "addr:full": "1689 Arden Way Ste 1024", "addr:city": "Sacramento", "addr:state": "CA", "addr:postcode": "95815", "addr:country": "USA", "phone": "+19169202220", "website": "https://www.regissalons.com/locations/ca/sacramento/regis-salon-arden-fair-mall-haircuts-577.html", "brand": "Regis Salon"}, "geometry": {"type": "Point", "coordinates": [-121.427538, 38.601626]}},
{"type": "Feature", "id": "zeziuPqZOHyoHQ_lLQCTkH7Cum0=", "properties": {"ref": "1617", "@spider": "regis", "addr:full": "1233 W Avenue P Ste 529", "addr:city": "Palmdale", "addr:state": "CA", "addr:postcode": "93551", "addr:country": "USA", "phone": "+16619473777", "website": "https://www.regissalons.com/locations/ca/palmdale/regis-salon-antelope-valley-mall-haircuts-561.html", "brand": "Regis Salon"}, "geometry": {"type": "Point", "coordinates": [-118.152456, 34.604844]}},
{"type": "Feature", "id": "HWK4IBfXpBDC2DnUSAUIZtcWqwQ=", "properties": {"ref": "1660", "@spider": "regis", "addr:full": "42 Serramonte Ctr", "addr:city": "Daly City", "addr:state": "CA", "addr:postcode": "94015", "addr:country": "USA", "phone": "+16509929970", "website": "https://www.regissalons.com/locations/ca/daly-city/regis-salon-serramonte-center-haircuts-6535.html", "brand": "Regis Salon"}, "geometry": {"type": "Point", "coordinates": [-122.470884, 37.673548]}},
{"type": "Feature", "id": "8jGhkItDXW7K6NJ7z5nn8-cvv-U=", "properties": {"ref": "1543", "@spider": "regis", "addr:full": "1309 S Yuma Palms Pkwy Ste 2", "addr:city": "Yuma", "addr:state": "AZ", "addr:postcode": "85365", "addr:country": "USA", "phone": "+19283296339", "website": "https://www.regissalons.com/locations/az/yuma/regis-salon-yuma-palms-regional-center-haircuts-464.html", "brand": "Regis Salon"}, "geometry": {"type": "Point", "coordinates": [-114.602959, 32.701568]}},
{"type": "Feature", "id": "AgOBGIg1Up945pRKoQcmNp0rjPo=", "properties": {"ref": "1316", "@spider": "regis", "addr:full": "700 Quintard Dr Ste 51", "addr:city": "Oxford", "addr:state": "AL", "addr:postcode": "36203", "addr:country": "USA", "phone": "+12568318031", "website": "https://www.regissalons.com/locations/al/oxford/regis-salon-quintard-mall-haircuts-226.html", "brand": "Regis Salon"}, "geometry": {"type": "Point", "coordinates": [-85.823888, 33.613126]}},
{"type": "Feature", "id": "_J5BClyTR6fpW6gPGu55mgAaL0k=", "properties": {"ref": "1230", "@spider": "regis", "addr:full": "550 S Gear Ave Ste 24", "addr:city": "West Burlington", "addr:state": "IA", "addr:postcode": "52655", "addr:country": "USA", "phone": "+13197520100", "website": "https://www.regissalons.com/locations/ia/west-burlington/regis-salon-westland-mall-haircuts-1280.html", "brand": "Regis Salon"}, "geometry": {"type": "Point", "coordinates": [-91.167371, 40.821085]}},
{"type": "Feature", "id": "2g50is0fHAyyLy2QLzbQZ-doK8g=", "properties": {"ref": "1270", "@spider": "regis", "addr:full": "5953 W Park Ave Ste 3031", "addr:city": "Houma", "addr:state": "LA", "addr:postcode": "70364", "addr:country": "USA", "phone": "+19858515454", "website": "https://www.regissalons.com/locations/la/houma/regis-salon-southland-mall-haircuts-1825.html", "brand": "Regis Salon"}, "geometry": {"type": "Point", "coordinates": [-90.756597, 29.634965]}},
{"type": "Feature", "id": "k-tWBfVvoNkDNXF8885tKJPtq9g=", "properties": {"ref": "1221", "@spider": "regis", "addr:full": "2801 Grand Ave", "addr:city": "Ames", "addr:state": "IA", "addr:postcode": "50010", "addr:country": "USA", "phone": "+15152332822", "website": "https://www.regissalons.com/locations/ia/ames/regis-salon-north-grand-mall-haircuts-1201.html", "brand": "Regis Salon"}, "geometry": {"type": "Point", "coordinates": [-93.62244, 42.049345]}},
{"type": "Feature", "id": "csiJaLoUHwg1BEDazhXyd4ulKZY=", "properties": {"ref": "1235", "@spider": "regis", "addr:full": "5706 Sunnybrook Dr Ste 2", "addr:city": "Sioux City", "addr:state": "IA", "addr:postcode": "51106", "addr:country": "USA", "phone": "+17122760337", "website": "https://www.regissalons.com/locations/ia/sioux-city/hair-by-stewarts-shoppes-at-sunnybrook-haircuts-1292.html", "brand": "Regis Salon"}, "geometry": {"type": "Point", "coordinates": [-96.331856, 42.452596]}},
{"type": "Feature", "id": "sCOFwpxxb4BtJL1V4elsp42yY3M=", "properties": {"ref": "1606", "@spider": "regis", "addr:full": "277 Broadway St E Unit 50-A", "addr:city": "Yorkton", "addr:state": "SK", "addr:postcode": "S3N 3G7", "addr:country": "CA", "phone": "+13067863383", "website": "https://www.regissalons.com/locations/sk/yorkton/regis-salon-parkland-mall-haircuts-5310.html", "brand": "Regis Salon"}, "geometry": {"type": "Point", "coordinates": [-102.444248, 51.211817]}},
{"type": "Feature", "id": "vrUjXwwDcWrh9si_ENgHHC1Rluk=", "properties": {"ref": "1616", "@spider": "regis", "addr:full": "48 Kenmount Road Suite 331", "addr:city": "St.John'S", "addr:state": "NL", "addr:postcode": "A1B 1W3", "addr:country": "CA", "phone": "+17097381333", "website": "https://www.regissalons.com/locations/nl/stjohns/regis-salon-avalon-mall-haircuts-5560.html", "brand": "Regis Salon"}, "geometry": {"type": "Point", "coordinates": [-52.754135, 47.560552]}},
{"type": "Feature", "id": "HJZK7rKXn8fBCn2ZK1Wx5Mkva1g=", "properties": {"ref": "1596", "@spider": "regis", "addr:full": "1570 18th St Ste 64", "addr:city": "Brandon", "addr:state": "MB", "addr:postcode": "R7A 5C5", "addr:country": "CA", "phone": "+12047268887", "website": "https://www.regissalons.com/locations/mb/brandon/regis-salon-shoppers-mall-haircuts-5250.html", "brand": "Regis Salon"}, "geometry": {"type": "Point", "coordinates": [-99.963091, 49.824968]}},
{"type": "Feature", "id": "Dxgw3DgXQK1znBQ_N0HKTjuZCic=", "properties": {"ref": "1568", "@spider": "regis", "addr:full": "207 West Towne Mall", "addr:city": "Madison", "addr:state": "WI", "addr:postcode": "53719", "addr:country": "USA", "phone": "+16088332555", "website": "https://www.regissalons.com/locations/wi/madison/regis-salon-west-towne-mall-haircuts-4819.html", "brand": "Regis Salon"}, "geometry": {"type": "Point", "coordinates": [-89.505886, 43.057373]}},
{"type": "Feature", "id": "9cUpr0jH-OfgjxuR9EyE2BeOF-E=", "properties": {"ref": "1558", "@spider": "regis", "addr:full": "530 228Th Ave Ne Bldg 6007", "addr:city": "Sammamish", "addr:state": "WA", "addr:postcode": "98074", "addr:country": "USA", "phone": "+14254628311", "website": "https://www.regissalons.com/locations/wa/sammamish/regis-salon-sammamish-highlands-shop-ctr-haircuts-4757.html", "brand": "Regis Salon"}, "geometry": {"type": "Point", "coordinates": [-122.034102, 47.61479]}},
{"type": "Feature", "id": "JuBF5Qpn1HjoWvtH4ZH4qK1PlBY=", "properties": {"ref": "1563", "@spider": "regis", "addr:full": "4502 S Steele St Ste 377", "addr:city": "Tacoma", "addr:state": "WA", "addr:postcode": "98409", "addr:country": "USA", "phone": "+12535842444", "website": "https://www.regissalons.com/locations/wa/tacoma/regis-salon-tacoma-mall-haircuts-4788.html", "brand": "Regis Salon"}, "geometry": {"type": "Point", "coordinates": [-122.468741, 47.216092]}},
{"type": "Feature", "id": "pGJTogfc19-62HmK9w3ypGvZR5A=", "properties": {"ref": "1530", "@spider": "regis", "addr:full": "3405 Candlers Mountain Rd # 45", "addr:city": "Lynchburg", "addr:state": "VA", "addr:postcode": "24502", "addr:country": "USA", "phone": "+14342375466", "website": "https://www.regissalons.com/locations/va/lynchburg/regis-salon-river-ridge-mall-haircuts-4550.html", "brand": "Regis Salon"}, "geometry": {"type": "Point", "coordinates": [-79.178623, 37.364903]}},
{"type": "Feature", "id": "S00lb72ytCbTnAFaiK6NLTzdR5c=", "properties": {"ref": "1395", "@spider": "regis", "addr:full": "198 Town Place", "addr:city": "Fairview", "addr:state": "TX", "addr:postcode": "75069", "addr:country": "USA", "phone": "+14693507799", "website": "https://www.regissalons.com/locations/tx/fairview/regis-salon-village-at-fairview-haircuts-43144.html", "brand": "Regis Salon"}, "geometry": {"type": "Point", "coordinates": [-96.649026, 33.137023]}},
{"type": "Feature", "id": "7-OMlyaiED2oRIgjz__wYxjmleQ=", "properties": {"ref": "1499", "@spider": "regis", "addr:full": "4310 Buffalo Gap Rd Spc 1446", "addr:city": "Abilene", "addr:state": "TX", "addr:postcode": "79606", "addr:country": "USA", "phone": "+13256926671", "website": "https://www.regissalons.com/locations/tx/abilene/regis-salon-mall-of-abilene-haircuts-4304.html", "brand": "Regis Salon"}, "geometry": {"type": "Point", "coordinates": [-99.76041, 32.402036]}},
{"type": "Feature", "id": "MVqUYDawu2Vennvatyzyt_n_2mw=", "properties": {"ref": "1494", "@spider": "regis", "addr:full": "2011 N Roan St Ste B-1A", "addr:city": "Johnson City", "addr:state": "TN", "addr:postcode": "37601", "addr:country": "USA", "phone": "+14232820109", "website": "https://www.regissalons.com/locations/tn/johnson-city/hair-plus-the-mall-haircuts-4231.html", "brand": "Regis Salon"}, "geometry": {"type": "Point", "coordinates": [-82.377027, 36.337811]}},
{"type": "Feature", "id": "FdESHqF9cy9OKqbPxv3uTWRfc4Y=", "properties": {"ref": "1498", "@spider": "regis", "addr:full": "1800 Galleria Blvd Ste 2145", "addr:city": "Franklin", "addr:state": "TN", "addr:postcode": "37067", "addr:country": "USA", "phone": "+16157717700", "website": "https://www.regissalons.com/locations/tn/franklin/regis-salon-cool-springs-galleria-haircuts-4268.html", "brand": "Regis Salon"}, "geometry": {"type": "Point", "coordinates": [-86.81361, 35.957226]}},
{"type": "Feature", "id": "Poj2ZXIlDnv2E_U3YqS43GN-vcw=", "properties": {"ref": "1484", "@spider": "regis", "addr:full": "1360 W Empire Pl Ste 23", "addr:city": "Sioux Falls", "addr:state": "SD", "addr:postcode": "57106", "addr:country": "USA", "phone": "+16053619988", "website": "https://www.regissalons.com/locations/sd/sioux-falls/regis-salon-empire-mall-haircuts-4181.html", "brand": "Regis Salon"}, "geometry": {"type": "Point", "coordinates": [-96.775808, 43.511156]}},
{"type": "Feature", "id": "XQu1VJvtZFO1rw1T9p_4OO-5kMo=", "properties": {"ref": "1477", "@spider": "regis", "addr:full": "1057 Broad St Ste 61", "addr:city": "Sumter", "addr:state": "SC", "addr:postcode": "29150", "addr:country": "USA", "phone": "+18037757472", "website": "https://www.regissalons.com/locations/sc/sumter/regis-salon-sumter-mall-haircuts-4050.html", "brand": "Regis Salon"}, "geometry": {"type": "Point", "coordinates": [-80.37287, 33.950001]}},
{"type": "Feature", "id": "WOXDsoDEGVEbTifcHHUfHHuXVoQ=", "properties": {"ref": "1454", "@spider": "regis", "addr:full": "4600 Colonial Rd Spot 2", "addr:city": "Harrisburg", "addr:state": "PA", "addr:postcode": "17109", "addr:country": "USA", "phone": "+17175405444", "website": "https://www.regissalons.com/locations/pa/harrisburg/regis-salon-colonial-park-mall-haircuts-3823.html", "brand": "Regis Salon"}, "geometry": {"type": "Point", "coordinates": [-76.81588, 40.301509]}},
{"type": "Feature", "id": "krwompK0J_g8_5gVK3osFYwEWl0=", "properties": {"ref": "1459", "@spider": "regis", "addr:full": "2300 E Lincoln Hwy Ste 119", "addr:city": "Langhorne", "addr:state": "PA", "addr:postcode": "19047", "addr:country": "USA", "phone": "+12157522201", "website": "https://www.regissalons.com/locations/pa/langhorne/regis-salon-oxford-valley-mall-haircuts-3847.html", "brand": "Regis Salon"}, "geometry": {"type": "Point", "coordinates": [-74.880624, 40.183816]}},
{"type": "Feature", "id": "um2jnik18mVqlTE1Bf3kCoU-_dE=", "properties": {"ref": "1456", "@spider": "regis", "addr:full": "8775 Norwin Ave Ste 34", "addr:city": "Irwin", "addr:state": "PA", "addr:postcode": "15642", "addr:country": "USA", "phone": "+17248645050", "website": "https://www.regissalons.com/locations/pa/irwin/regis-salon-norwin-hills-shopping-center-haircuts-3835.html", "brand": "Regis Salon"}, "geometry": {"type": "Point", "coordinates": [-79.692888, 40.319581]}},
{"type": "Feature", "id": "v4UtYBJfWf2jE7XBcQlNa2SnV8Y=", "properties": {"ref": "1462", "@spider": "regis", "addr:full": "7180 Fairlane Village Mall", "addr:city": "Pottsville", "addr:state": "PA", "addr:postcode": "17901", "addr:country": "USA", "phone": "+15704291488", "website": "https://www.regissalons.com/locations/pa/pottsville/regis-salon-fairlane-village-mall-haircuts-3867.html", "brand": "Regis Salon"}, "geometry": {"type": "Point", "coordinates": [-76.189513, 40.703514]}},
{"type": "Feature", "id": "jbz3FrtTV0J-GkO8mn4nInD1wQw=", "properties": {"ref": "1678", "@spider": "regis", "addr:full": "5800 Peach St Ste 545", "addr:city": "Erie", "addr:state": "PA", "addr:postcode": "16565", "addr:country": "USA", "phone": "+18148666777", "website": "https://www.regissalons.com/locations/pa/erie/regis-salon-mill-creek-mall-haircuts-38019.html", "brand": "Regis Salon"}, "geometry": {"type": "Point", "coordinates": [-80.103947, 42.068108]}},
{"type": "Feature", "id": "eQ08-6CE9BugSBSjMhSRtTm6Zt0=", "properties": {"ref": "1677", "@spider": "regis", "addr:full": "100 Robinson Center Dr # 2010", "addr:city": "Pittsburgh", "addr:state": "PA", "addr:postcode": "15205", "addr:country": "USA", "phone": "+14124945555", "website": "https://www.regissalons.com/locations/pa/pittsburgh/regis-salon-the-mall-at-robinson-haircuts-38017.html", "brand": "Regis Salon"}, "geometry": {"type": "Point", "coordinates": [-80.157122, 40.454452]}},
{"type": "Feature", "id": "Q2NhmhXSmAfxVsZhpxvbHSaFJxc=", "properties": {"ref": "1682", "@spider": "regis", "addr:full": "2277 Schoenersville Rd", "addr:city": "Bethlehem", "addr:state": "PA", "addr:postcode": "18017", "addr:country": "USA", "phone": "+16108664842", "website": "https://www.regissalons.com/locations/pa/bethlehem/outlooks-for-hair-westgate-mall-haircuts-38119.html", "brand": "Regis Salon"}, "geometry": {"type": "Point", "coordinates": [-75.403249, 40.641805]}},
{"type": "Feature", "id": "aCNWgKVJWEDKkezORgDx6vrtJqU=", "properties": {"ref": "1685", "@spider": "regis", "addr:full": "3034 W Tilghman St", "addr:city": "Allentown", "addr:state": "PA", "addr:postcode": "18104", "addr:country": "USA", "phone": "+16104373471", "website": "https://www.regissalons.com/locations/pa/allentown/outlooks-for-hair-village-west-shopping-center-haircuts-38134.html", "brand": "Regis Salon"}, "geometry": {"type": "Point", "coordinates": [-75.525852, 40.59707]}},
{"type": "Feature", "id": "GAUcjTh22Oi3nNs2JeMbFFThgIo=", "properties": {"ref": "1684", "@spider": "regis", "addr:full": "51 Viewmont Mall", "addr:city": "Scranton", "addr:state": "PA", "addr:postcode": "18508", "addr:country": "USA", "phone": "+15703433705", "website": "https://www.regissalons.com/locations/pa/scranton/beauty-bar-viewmont-mall-haircuts-38128.html", "brand": "Regis Salon"}, "geometry": {"type": "Point", "coordinates": [-75.654361, 41.45921]}},
{"type": "Feature", "id": "9wqdKkNzPvx8GMkpGsRkd9JdOWI=", "properties": {"ref": "1688", "@spider": "regis", "addr:full": "29 Wyoming Valley Mall", "addr:city": "Wilkes Barre", "addr:state": "PA", "addr:postcode": "18702", "addr:country": "USA", "phone": "+15708225114", "website": "https://www.regissalons.com/locations/pa/wilkes-barre/outlooks-for-hair-wyoming-valley-mall-haircuts-38141.html", "brand": "Regis Salon"}, "geometry": {"type": "Point", "coordinates": [-75.844471, 41.246491]}},
{"type": "Feature", "id": "8jscjlx-vOS3eVffFPd5aB2boHA=", "properties": {"ref": "1690", "@spider": "regis", "addr:full": "282 S Hills Village Unit 2375", "addr:city": "Pittsburgh", "addr:state": "PA", "addr:postcode": "15241", "addr:country": "USA", "phone": "+14128333677", "website": "https://www.regissalons.com/locations/pa/pittsburgh/regis-salon-south-hills-village-haircuts-38172.html", "brand": "Regis Salon"}, "geometry": {"type": "Point", "coordinates": [-80.053187, 40.339405]}},
{"type": "Feature", "id": "8WQ8fjCiQ7qNpPqkNcntVj7Uavg=", "properties": {"ref": "1689", "@spider": "regis", "addr:full": "619 Clairton Blvd", "addr:city": "Pleasant Hills", "addr:state": "PA", "addr:postcode": "15236", "addr:country": "USA", "phone": "+14126533079", "website": "https://www.regissalons.com/locations/pa/pleasant-hills/beauty-bar-southland-4-seasons-shop-ctr-haircuts-38142.html", "brand": "Regis Salon"}, "geometry": {"type": "Point", "coordinates": [-79.944281, 40.331964]}},
{"type": "Feature", "id": "EbZ0setZM850lfkri4WHplWWQ1Y=", "properties": {"ref": "1444", "@spider": "regis", "addr:full": "63455 N Highway 97 Bldg 1 # 87", "addr:city": "Bend", "addr:state": "OR", "addr:postcode": "97701", "addr:country": "USA", "phone": "+15413187160", "website": "https://www.regissalons.com/locations/or/bend/regis-salon-cascade-village-shopping-ctr-haircuts-3703.html", "brand": "Regis Salon"}, "geometry": {"type": "Point", "coordinates": [-121.302225, 44.101207]}},
{"type": "Feature", "id": "UoNz1vbHEyeqthUoqPSbOoSP_Ng=", "properties": {"ref": "1450", "@spider": "regis", "addr:full": "831 Lancaster Dr Ne Ste 159", "addr:city": "Salem", "addr:state": "OR", "addr:postcode": "97301", "addr:country": "USA", "phone": "+15033648888", "website": "https://www.regissalons.com/locations/or/salem/regis-salon-lancaster-mall-haircuts-3784.html", "brand": "Regis Salon"}, "geometry": {"type": "Point", "coordinates": [-122.986591, 44.941852]}},
{"type": "Feature", "id": "DOT1eOPCse7ZsFAOxGnoemUiTdI=", "properties": {"ref": "1425", "@spider": "regis", "addr:full": "8140 Beechmont Ave", "addr:city": "Cincinnati", "addr:state": "OH", "addr:postcode": "45255", "addr:country": "USA", "phone": "+15132315558", "website": "https://www.regissalons.com/locations/oh/cincinnati/regis-salon-anderson-station-haircuts-3506.html", "brand": "Regis Salon"}, "geometry": {"type": "Point", "coordinates": [-84.329841, 39.074022]}},
{"type": "Feature", "id": "HqDq3C47fWJC4f4HFJx87YhiMhA=", "properties": {"ref": "1415", "@spider": "regis", "addr:full": "578 Aviation Rd Ste 41", "addr:city": "Glens Falls", "addr:state": "NY", "addr:postcode": "12804", "addr:country": "USA", "phone": "+15187981222", "website": "https://www.regissalons.com/locations/ny/glens-falls/regis-salon-aviation-mall-haircuts-3419.html", "brand": "Regis Salon"}, "geometry": {"type": "Point", "coordinates": [-73.677628, 43.326732]}},
{"type": "Feature", "id": "W4p8Zoqf9V-V4Tsro-HSD6Ze66s=", "properties": {"ref": "1420", "@spider": "regis", "addr:full": "60 Smithfield Blvd Ste 62", "addr:city": "Plattsburgh", "addr:state": "NY", "addr:postcode": "12901", "addr:country": "USA", "phone": "+15185614141", "website": "https://www.regissalons.com/locations/ny/plattsburgh/regis-salon-champlain-center-north-haircuts-3465.html", "brand": "Regis Salon"}, "geometry": {"type": "Point", "coordinates": [-73.491308, 44.703966]}},
{"type": "Feature", "id": "Yopdn5QxFuTdkmR_I-bMg8ZYDHQ=", "properties": {"ref": "1403", "@spider": "regis", "addr:full": "700 S Telshor Blvd Ste 1470", "addr:city": "Las Cruces", "addr:state": "NM", "addr:postcode": "88011", "addr:country": "USA", "phone": "+15755228338", "website": "https://www.regissalons.com/locations/nm/las-cruces/regis-salon-mesilla-valley-mall-haircuts-3249.html", "brand": "Regis Salon"}, "geometry": {"type": "Point", "coordinates": [-106.743033, 32.310252]}},
{"type": "Feature", "id": "AGtDrL6pGseaNND8JTWlOLkwB4U=", "properties": {"ref": "1396", "@spider": "regis", "addr:full": "167 Quaker Bridge Mall", "addr:city": "Lawrenceville", "addr:state": "NJ", "addr:postcode": "8648", "addr:country": "USA", "phone": "+16097998195", "website": "https://www.regissalons.com/locations/nj/lawrenceville/regis-salon-quaker-bridge-mall-haircuts-3151.html", "brand": "Regis Salon"}, "geometry": {"type": "Point", "coordinates": [-74.681631, 40.290861]}},
{"type": "Feature", "id": "4NrBekJISZz_KRPaa-uZxjd5sJ0=", "properties": {"ref": "1392", "@spider": "regis", "addr:full": "3710 Highway 9 Ste 2615", "addr:city": "Freehold", "addr:state": "NJ", "addr:postcode": "7728", "addr:country": "USA", "phone": "+17324318338", "website": "https://www.regissalons.com/locations/nj/freehold/regis-salon-freehold-raceway-mall-haircuts-3107.html", "brand": "Regis Salon"}, "geometry": {"type": "Point", "coordinates": [-74.300234, 40.253299]}},
{"type": "Feature", "id": "b3l3iXWH6IXe2jQVrHl3F8-BRM0=", "properties": {"ref": "1388", "@spider": "regis", "addr:full": "120 Laconia Rd Ste 221", "addr:city": "Tilton", "addr:state": "NH", "addr:postcode": "3276", "addr:country": "USA", "phone": "+16032867600", "website": "https://www.regissalons.com/locations/nh/tilton/hair-excitement-tanger-outlet-center-haircuts-3034.html", "brand": "Regis Salon"}, "geometry": {"type": "Point", "coordinates": [-71.55973, 43.459479]}},
{"type": "Feature", "id": "v9C7RP4anLBWmsWIYPvBQOjMFg0=", "properties": {"ref": "1383", "@spider": "regis", "addr:full": "49 Main St Ste 102", "addr:city": "Durham", "addr:state": "NH", "addr:postcode": "3824", "addr:country": "USA", "phone": "+16038682231", "website": "https://www.regissalons.com/locations/nh/durham/hair-excitement-hair-excitement-haircuts-3028.html", "brand": "Regis Salon"}, "geometry": {"type": "Point", "coordinates": [-70.926464, 43.133968]}},
{"type": "Feature", "id": "Fujwc2rEz2LgpvQEHUfcAgIJoqs=", "properties": {"ref": "1369", "@spider": "regis", "addr:full": "208 Gateway Mall", "addr:city": "Lincoln", "addr:state": "NE", "addr:postcode": "68505", "addr:country": "USA", "phone": "+14024650066", "website": "https://www.regissalons.com/locations/ne/lincoln/regis-salon-gateway-mall-haircuts-2953.html", "brand": "Regis Salon"}, "geometry": {"type": "Point", "coordinates": [-96.636012, 40.815427]}},
{"type": "Feature", "id": "l1gHpsLmRm1RdQ0th8443mN87kI=", "properties": {"ref": "1362", "@spider": "regis", "addr:full": "663 Kirkwood Mall", "addr:city": "Bismarck", "addr:state": "ND", "addr:postcode": "58504", "addr:country": "USA", "phone": "+17012551113", "website": "https://www.regissalons.com/locations/nd/bismarck/regis-salon-kirkwood-mall-haircuts-2807.html", "brand": "Regis Salon"}, "geometry": {"type": "Point", "coordinates": [-100.785089, 46.797549]}},
{"type": "Feature", "id": "JW3FqIEuKC6fI7Yr5gAyyX9MBjU=", "properties": {"ref": "1350", "@spider": "regis", "addr:full": "2825 W Main St Ste 6E-2", "addr:city": "Bozeman", "addr:state": "MT", "addr:postcode": "59715", "addr:country": "USA", "phone": "+14065866676", "website": "https://www.regissalons.com/locations/mt/bozeman/regis-salon-gallatin-valley-mall-haircuts-2611.html", "brand": "Regis Salon"}, "geometry": {"type": "Point", "coordinates": [-111.077401, 45.673854]}},
{"type": "Feature", "id": "Dl1GvdDbbUSwf3z7rmYShaYImyA=", "properties": {"ref": "1349", "@spider": "regis", "addr:full": "300 S 24Th St W Ste F-1", "addr:city": "Billings", "addr:state": "MT", "addr:postcode": "59102", "addr:country": "USA", "phone": "+14066566466", "website": "https://www.regissalons.com/locations/mt/billings/regis-salon-rimrock-mall-haircuts-2600.html", "brand": "Regis Salon"}, "geometry": {"type": "Point", "coordinates": [-108.579374, 45.765639]}},
{"type": "Feature", "id": "13RZLwWO26dE07p5afZLFUN9UNA=", "properties": {"ref": "1343", "@spider": "regis", "addr:full": "3702 Fredrick Ave Ste 16A", "addr:city": "Saint Joseph", "addr:state": "MO", "addr:postcode": "64506", "addr:country": "USA", "phone": "+18162797999", "website": "https://www.regissalons.com/locations/mo/saint-joseph/regis-salon-east-hills-mall-haircuts-2482.html", "brand": "Regis Salon"}, "geometry": {"type": "Point", "coordinates": [-94.800557, 39.774629]}},
{"type": "Feature", "id": "5ldgGMqCpx1IGz1Mqq7xjG7HPS8=", "properties": {"ref": "1319", "@spider": "regis", "addr:full": "14136 Baxter Dr Ste 33", "addr:city": "Baxter", "addr:state": "MN", "addr:postcode": "56401", "addr:country": "USA", "phone": "+12188258888", "website": "https://www.regissalons.com/locations/mn/baxter/regis-salon-westgate-mall-haircuts-2307.html", "brand": "Regis Salon"}, "geometry": {"type": "Point", "coordinates": [-94.224332, 46.35773]}},
{"type": "Feature", "id": "I3LZqXOYjNjGy5eLzM7vlQ-37Hs=", "properties": {"ref": "1335", "@spider": "regis", "addr:full": "1401 S 12Th Ave", "addr:city": "Virginia", "addr:state": "MN", "addr:postcode": "55792", "addr:country": "USA", "phone": "+12187413387", "website": "https://www.regissalons.com/locations/mn/virginia/regis-salon-thunderbird-mall-haircuts-2385.html", "brand": "Regis Salon"}, "geometry": {"type": "Point", "coordinates": [-92.554244, 47.510839]}},
{"type": "Feature", "id": "gaiZdXIIIpOAq3Q4xafNsWhxxt4=", "properties": {"ref": "1331", "@spider": "regis", "addr:full": "8318 Highway 7", "addr:city": "Saint Louis Park", "addr:state": "MN", "addr:postcode": "55426", "addr:country": "USA", "phone": "+19529339676", "website": "https://www.regissalons.com/locations/mn/saint-louis-park/regis-salon-knollwood-mall-haircuts-2373.html", "brand": "Regis Salon"}, "geometry": {"type": "Point", "coordinates": [-93.384813, 44.937663]}},
{"type": "Feature", "id": "Ih7zhfD49jhoWaCs0W0dKc7irCk=", "properties": {"ref": "1378", "@spider": "regis", "addr:full": "7875 150Th St W Ste 5", "addr:city": "Apple Valley", "addr:state": "MN", "addr:postcode": "55124", "addr:country": "USA", "phone": "+19522234247", "website": "https://www.regissalons.com/locations/mn/apple-valley/regis-salon-regis-salon-haircuts-23020.html", "brand": "Regis Salon"}, "geometry": {"type": "Point", "coordinates": [-93.208938, 44.734694]}},
{"type": "Feature", "id": "sCM_j9w-6HZNkQucwSdPYI0Nx7Q=", "properties": {"ref": "1301", "@spider": "regis", "addr:full": "960 Razorback Dr Ste 4A", "addr:city": "Houghton", "addr:state": "MI", "addr:postcode": "49931", "addr:country": "USA", "phone": "+19064825111", "website": "https://www.regissalons.com/locations/mi/houghton/regis-salon-ridgecrest-plaza-haircuts-22059.html", "brand": "Regis Salon"}, "geometry": {"type": "Point", "coordinates": [-88.589105, 47.10915]}},
{"type": "Feature", "id": "eXR3uiZQrVbNnQh64_YeYaciOfw=", "properties": {"ref": "1314", "@spider": "regis", "addr:full": "1982 E Grand River Rd", "addr:city": "Okemos", "addr:state": "MI", "addr:postcode": "48864", "addr:country": "USA", "phone": "+15173491113", "website": "https://www.regissalons.com/locations/mi/okemos/regis-salon-meridian-mall-haircuts-2249.html", "brand": "Regis Salon"}, "geometry": {"type": "Point", "coordinates": [-84.419527, 42.725279]}},
{"type": "Feature", "id": "yh6TRmZKgyQvbTfj6FRTQuwn_3w=", "properties": {"ref": "1299", "@spider": "regis", "addr:full": "5500 Buckeystown Pike Room 814", "addr:city": "Frederick", "addr:state": "MD", "addr:postcode": "21703", "addr:country": "USA", "phone": "+13018464200", "website": "https://www.regissalons.com/locations/md/frederick/regis-salon-francis-scott-key-mall-haircuts-2040.html", "brand": "Regis Salon"}, "geometry": {"type": "Point", "coordinates": [-77.405884, 39.382675]}},
{"type": "Feature", "id": "7D4hJ4tT8Jf0Da71tgwSSz48bY4=", "properties": {"ref": "1272", "@spider": "regis", "addr:full": "5725 Johnston St Ste E-187", "addr:city": "Lafayette", "addr:state": "LA", "addr:postcode": "70503", "addr:country": "USA", "phone": "+13379818720", "website": "https://www.regissalons.com/locations/la/lafayette/regis-salon-acadiana-mall-haircuts-1840.html", "brand": "Regis Salon"}, "geometry": {"type": "Point", "coordinates": [-92.075662, 30.171227]}},
{"type": "Feature", "id": "R5QdnOItyNUQGC4xs3zuA6mSnm0=", "properties": {"ref": "1233", "@spider": "regis", "addr:full": "2915 Hamilton Blvd", "addr:city": "Sioux City", "addr:state": "IA", "addr:postcode": "51104", "addr:country": "USA", "phone": "+17122550503", "website": "https://www.regissalons.com/locations/ia/sioux-city/hair-by-stewarts-marketplace-haircuts-1290.html", "brand": "Regis Salon"}, "geometry": {"type": "Point", "coordinates": [-96.41938, 42.520223]}},
{"type": "Feature", "id": "LJ-l7p1eQRk7adylU5873Xhd8bY=", "properties": {"ref": "1231", "@spider": "regis", "addr:full": "2828 E 53Rd St", "addr:city": "Davenport", "addr:state": "IA", "addr:postcode": "52807", "addr:country": "USA", "phone": "+15633444850", "website": "https://www.regissalons.com/locations/ia/davenport/hair-by-stewarts-victoria-square-haircuts-1288.html", "brand": "Regis Salon"}, "geometry": {"type": "Point", "coordinates": [-90.511406, 41.576791]}},
{"type": "Feature", "id": "4AqDgLG_x6AyV1J-DFnH_7ZSRA4=", "properties": {"ref": "1209", "@spider": "regis", "addr:full": "3333 Buford Dr Ste 2019B", "addr:city": "Buford", "addr:state": "GA", "addr:postcode": "30519", "addr:country": "USA", "phone": "+16784826767", "website": "https://www.regissalons.com/locations/ga/buford/regis-salon-mall-of-georgia-haircuts-1046.html", "brand": "Regis Salon"}, "geometry": {"type": "Point", "coordinates": [-83.984484, 34.065141]}},
{"type": "Feature", "id": "CFHRy8HLQ2BO0FXnDX4i1sbyYpo=", "properties": {"ref": "1471", "@spider": "regis", "addr:full": "2223 N Westshore Blvd Ste 151A", "addr:city": "Tampa", "addr:state": "FL", "addr:postcode": "33607", "addr:country": "USA", "phone": "+18133489119", "website": "https://www.regissalons.com/locations/fl/tampa/regis-signature-salon-international-plaza-haircuts-3981.html", "brand": "Regis Salon"}, "geometry": {"type": "Point", "coordinates": [-82.512786, 27.961326]}},
{"type": "Feature", "id": "KLtWpBcMBXIfrBRCVfu4s7mXdkY=", "properties": {"ref": "1645", "@spider": "regis", "addr:full": "4561 Weston Rd Ste C2-104", "addr:city": "Weston", "addr:state": "FL", "addr:postcode": "33331", "addr:country": "USA", "phone": "+19543496635", "website": "https://www.regissalons.com/locations/fl/weston/regis-salon-weston-commons-haircuts-6417.html", "brand": "Regis Salon"}, "geometry": {"type": "Point", "coordinates": [-80.36307, 26.06716]}}]}