{"type":"FeatureCollection","features":[{"type": "Feature", "id": "BqTg_XF2MkA3_WyrOJwZzcx-fZo=", "properties": {"ref": "https://www.regissalons.co.uk/salon/regis-westfields-shepards-bush", "@spider": "regis_uk", "phone": "02087431200", "website": "https://www.regissalons.co.uk/salon/regis-westfields-shepards-bush", "opening_hours": "Mo 9:00 - 21:00 Tu 9:00 - 21:00 We 9:00 - 21:00 Th 9:00 - 21:00 Fr 9:00 - 21:00 Sa 9:00 - 21:00 Su 10:00 - 18:00 ", "brand": "Regis Salon"}, "geometry": {"type": "Point", "coordinates": [-0.2211938840033842, 51.50774298378615]}},
{"type": "Feature", "id": "f3Tbj3Py-oi9WrfwC86bC-zURFU=", "properties": {"ref": "https://www.regissalons.co.uk/salon/regis-kingston", "@spider": "regis_uk", "phone": "020 8392 0225", "website": "https://www.regissalons.co.uk/salon/regis-kingston", "opening_hours": "Mo 9:30 - 18:00 Tu 9:30 - 18:00 We 9:30 - 18:00 Th 9:30 - 20:00 Fr 9:30 - 18:00 Sa 9:00 - 18:00 Su 11:00 - 17:00 ", "brand": "Regis Salon"}, "geometry": {"type": "Point", "coordinates": [-0.3050146, 51.4117172]}},
{"type": "Feature", "id": "hPJ8JCmvZhxUmzp-K0cN-cFvTF4=", "properties": {"ref": "https://www.regissalons.co.uk/salon/regis-intu-watford", "@spider": "regis_uk", "phone": "01923 241 025", "website": "https://www.regissalons.co.uk/salon/regis-intu-watford", "opening_hours": "Mo 9:00 - 18:00 Tu 9:00 - 18:00 We 9:00 - 18:00 Th 9:00 - 18:00 Fr 9:00 - 18:00 Sa 9:00 - 18:00 Su off ", "brand": "Regis Salon"}, "geometry": {"type": "Point", "coordinates": [-0.3933439, 51.6547168]}},
{"type": "Feature", "id": "-PSnUbU9gqc3R0PmAZZJN_aXYjM=", "properties": {"ref": "https://www.regissalons.co.uk/salon/watford-tradesecrets", "@spider": "regis_uk", "phone": "01923 242 116", "website": "https://www.regissalons.co.uk/salon/watford-tradesecrets", "opening_hours": "Mo 9:00 - 18:00 Tu 9:00 - 18:00 We 9:00 - 18:00 Th 9:00 - 21:00 Fr 9:00 - 18:00 Sa 9:00 - 19:00 Su 11:00 - 17:00 ", "brand": "Regis Salon"}, "geometry": {"type": "Point", "coordinates": [-0.3933486, 51.6541774]}},
{"type": "Feature", "id": "wMoFcTn5kOJxp93pmo5agFAIy0g=", "properties": {"ref": "https://www.regissalons.co.uk/salon/regis-putney", "@spider": "regis_uk", "phone": "020 8785 0326", "website": "https://www.regissalons.co.uk/salon/regis-putney", "opening_hours": "Mo 10:00 - 18:00 Tu 10:00 - 18:00 We 10:00 - 18:00 Th 10:00 - 20:00 Fr 10:00 - 18:00 Sa 10:00 - 18:00 Su 11:00 - 17:00 ", "brand": "Regis Salon"}, "geometry": {"type": "Point", "coordinates": [-0.2162866, 51.4639059]}},
{"type": "Feature", "id": "sJH6Kms4cxrDDsuDGYO3v4Vqvm8=", "properties": {"ref": "https://www.regissalons.co.uk/salon/regis-croydon", "@spider": "regis_uk", "phone": "020 8688 9455", "website": "https://www.regissalons.co.uk/salon/regis-croydon", "opening_hours": "Mo 9:00 - 18:00 Tu 9:00 - 18:00 We 9:00 - 18:00 Th 9:00 - 20:00 Fr 9:00 - 18:00 Sa 9:00 - 18:00 Su 11:00 - 17:00 ", "brand": "Regis Salon"}, "geometry": {"type": "Point", "coordinates": [-0.0999967, 51.3757043]}},
{"type": "Feature", "id": "FV-mrOt-q99yVy9n6Xawzq8tkhY=", "properties": {"ref": "https://www.regissalons.co.uk/salon/regis-brent-cross", "@spider": "regis_uk", "phone": "020 8202 4222", "website": "https://www.regissalons.co.uk/salon/regis-brent-cross", "opening_hours": "Mo 10:00 - 20:00 Tu 10:00 - 20:00 We 10:00 - 20:00 Th 10:00 - 20:00 Fr 10:00 - 20:00 Sa 9:00 - 20:00 ", "brand": "Regis Salon"}, "geometry": {"type": "Point", "coordinates": [-0.224523, 51.576175]}},
{"type": "Feature", "id": "fUgtGfwVWG98jF1-f6SLm7y68QQ=", "properties": {"ref": "https://www.regissalons.co.uk/salon/regis-epsom", "@spider": "regis_uk", "phone": "01372 742 222", "website": "https://www.regissalons.co.uk/salon/regis-epsom", "opening_hours": "Mo 9:00 - 17:30 Tu 9:00 - 17:30 We 9:00 - 17:30 Th 9:00 - 20:00 Fr 9:00 - 17:30 Sa 9:00 - 17:30 Su 10:00 - 16:00 ", "brand": "Regis Salon"}, "geometry": {"type": "Point", "coordinates": [-0.2743236, 51.2995252]}},
{"type": "Feature", "id": "wTv2TULxHK5iRHbPIygD1mPo1Lg=", "properties": {"ref": "https://www.regissalons.co.uk/salon/regis-horsham", "@spider": "regis_uk", "phone": "01403 259 414", "website": "https://www.regissalons.co.uk/salon/regis-horsham", "opening_hours": "Mo 9:00 - 17:30 Tu 9:00 - 17:30 We 9:00 - 17:30 Th 9:00 - 17:30 Fr 9:00 - 17:30 Sa 9:00 - 17:30 Su 10:00 - 16:00 ", "brand": "Regis Salon"}, "geometry": {"type": "Point", "coordinates": [-0.329716, 51.0633083]}},
{"type": "Feature", "id": "TzdSkyybXbNGu4peJCuUfo8-oDE=", "properties": {"ref": "https://www.regissalons.co.uk/salon/regis-lakeside", "@spider": "regis_uk", "phone": "01708 868 787", "website": "https://www.regissalons.co.uk/salon/regis-lakeside", "opening_hours": "Mo 10:00 - 22:00 Tu 10:00 - 22:00 We 10:00 - 22:00 Th 10:00 - 22:00 Fr 10:00 - 22:00 Sa 9:00 - 21:00 Su 11:00 - 17:00 ", "brand": "Regis Salon"}, "geometry": {"type": "Point", "coordinates": [0.2830857, 51.4870615]}},
{"type": "Feature", "id": "BvVLMzE_3WV_GL70vvlnwTQm_Lo=", "properties": {"ref": "https://www.regissalons.co.uk/salon/regis-milton-keynes", "@spider": "regis_uk", "phone": "01908 696 331", "website": "https://www.regissalons.co.uk/salon/regis-milton-keynes", "opening_hours": "Mo 9:00 - 18:00 Tu 9:00 - 18:00 We 9:00 - 18:00 Th 9:00 - 20:00 Fr 9:00 - 20:00 Sa 9:00 - 18:00 Su 11:00 - 17:00 ", "brand": "Regis Salon"}, "geometry": {"type": "Point", "coordinates": [-0.7591035, 52.0421133]}},
{"type": "Feature", "id": "MC0OlQ5H62UQGZkkEFJVdPlz22U=", "properties": {"ref": "https://www.regissalons.co.uk/salon/james-hair-salon", "@spider": "regis_uk", "phone": "01746 219101", "website": "https://www.regissalons.co.uk/salon/james-hair-salon", "opening_hours": "Mo 9:00 - 17:30 Tu 9:00 - 17:30 We 9:00 - 17:30 Th 9:00 - 20:00 Fr 9:00 - 18:30 Sa 8:00 - 17:00 Su off ", "brand": "Regis Salon"}, "geometry": {"type": "Point", "coordinates": [-2.4220284, 52.5358545]}},
{"type": "Feature", "id": "vhvI-UL5mWPROqIW6R4pNKlAtu0=", "properties": {"ref": "https://www.regissalons.co.uk/salon/regis-telford", "@spider": "regis_uk", "phone": "01952 291 116", "website": "https://www.regissalons.co.uk/salon/regis-telford", "opening_hours": "Mo 9:00 - 18:00 Tu 9:00 - 18:00 We 9:00 - 18:00 Th 9:00 - 20:00 Fr 9:00 - 18:00 Sa 9:00 - 18:00 Su 10:30 - 16:30 ", "brand": "Regis Salon"}, "geometry": {"type": "Point", "coordinates": [-2.446972, 52.6748896]}},
{"type": "Feature", "id": "wKsFJHgenDgw0YyvuD5RLsZqbD4=", "properties": {"ref": "https://www.regissalons.co.uk/salon/regis-cambridge", "@spider": "regis_uk", "phone": "01223 323 334", "website": "https://www.regissalons.co.uk/salon/regis-cambridge", "opening_hours": "Mo 9:00 - 17:30 Tu 9:00 - 17:30 We 9:00 - 20:00 Th 9:00 - 17:30 Fr 9:00 - 17:30 Sa 9:00 - 18:00 Su 11:00 - 17:00 ", "brand": "Regis Salon"}, "geometry": {"type": "Point", "coordinates": [0.1332753, 52.2069728]}},
{"type": "Feature", "id": "_qHUGCKZRkG2LfIM09MPUZ65x-8=", "properties": {"ref": "https://www.regissalons.co.uk/salon/jarrolds-norwich", "@spider": "regis_uk", "phone": "01603 628 608", "website": "https://www.regissalons.co.uk/salon/jarrolds-norwich", "opening_hours": "Mo 9:00 - 17:30 Tu 9:30 - 17:30 We 9:00 - 17:30 Th 9:00 - 19:00 Fr 9:00 - 17:30 Sa 9:00 - 18:00 Su 10:30 - 16:30 ", "brand": "Regis Salon"}, "geometry": {"type": "Point", "coordinates": [1.2939652, 52.629363]}},
{"type": "Feature", "id": "hT1RGoAV-ozQPOPAipDzQCrOIys=", "properties": {"ref": "https://www.regissalons.co.uk/salon/regis-cribbs-causeway", "@spider": "regis_uk", "phone": "0117 959 1812", "website": "https://www.regissalons.co.uk/salon/regis-cribbs-causeway", "opening_hours": "Mo 9:30 - 20:00 Tu 9:30 - 20:00 We 9:30 - 20:00 Th 9:30 - 21:00 Fr 9:30 - 20:00 Sa 9:00 - 20:00 Su 11:00 - 17:00 ", "brand": "Regis Salon"}, "geometry": {"type": "Point", "coordinates": [-2.5953577, 51.525159]}},
{"type": "Feature", "id": "dBeTJR2qNXj4IUuV3cg5ulraljo=", "properties": {"ref": "https://www.regissalons.co.uk/salon/regis-cumbernauld", "@spider": "regis_uk", "phone": "01236 782 435", "website": "https://www.regissalons.co.uk/salon/regis-cumbernauld", "opening_hours": "Mo 9:00 - 18:00 Tu 9:00 - 18:00 We 9:00 - 18:00 Th 9:00 - 18:00 Fr 9:00 - 18:00 Sa 9:00 - 17:30 Su 11:00 - 17:00 ", "brand": "Regis Salon"}, "geometry": {"type": "Point", "coordinates": [-3.9883581, 55.9464245]}},
{"type": "Feature", "id": "ZiHUIxi8mDa_GzYD-1r42RiHnwo=", "properties": {"ref": "https://www.regissalons.co.uk/salon/regis-glasgow", "@spider": "regis_uk", "phone": "0141 332 0027", "website": "https://www.regissalons.co.uk/salon/regis-glasgow", "opening_hours": "Mo 9:00 - 18:00 Tu 9:00 - 18:00 We 9:00 - 18:00 Th 9:00 - 19:00 Fr 9:00 - 19:00 Sa 9:00 - 18:00 Su 10:00 - 18:00 ", "brand": "Regis Salon"}, "geometry": {"type": "Point", "coordinates": [-4.2524604, 55.8629772]}},
{"type": "Feature", "id": "Y-wZrbGPZUiSotKmMsLPxppx5Ko=", "properties": {"ref": "https://www.regissalons.co.uk/salon/regis-st-enoch", "@spider": "regis_uk", "phone": "0141 248 5832", "website": "https://www.regissalons.co.uk/salon/regis-st-enoch", "opening_hours": "Mo 9:00 - 19:00 Tu 9:00 - 19:00 We 9:00 - 19:00 Th 9:00 - 19:00 Fr 9:00 - 19:00 Sa 9:00 - 18:00 Su 10:00 - 18:00 ", "brand": "Regis Salon"}, "geometry": {"type": "Point", "coordinates": [-4.2544388, 55.8574047]}},
{"type": "Feature", "id": "Vl3lseGHPxDiX9-SgCYxIyzYksU=", "properties": {"ref": "https://www.regissalons.co.uk/salon/regis-braehead", "@spider": "regis_uk", "phone": "0141 886 1265", "website": "https://www.regissalons.co.uk/salon/regis-braehead", "opening_hours": "Mo 10:00 - 21:00 Tu 10:00 - 21:00 We 10:00 - 21:00 Th 10:00 - 21:00 Fr 10:00 - 21:00 Sa 9:00 - 18:30 Su 10:00 - 18:00 ", "brand": "Regis Salon"}, "geometry": {"type": "Point", "coordinates": [-4.3648011, 55.8759412]}},
{"type": "Feature", "id": "3ioFMlzmQAWvdtZek7rVZk-8o70=", "properties": {"ref": "https://www.regissalons.co.uk/salon/regis-chester", "@spider": "regis_uk", "phone": "01244 322 242", "website": "https://www.regissalons.co.uk/salon/regis-chester", "opening_hours": "Mo 9:00 - 17:30 Tu 9:00 - 17:30 We 9:00 - 17:30 Th 9:00 - 17:30 Fr 9:00 - 17:30 Sa 9:00 - 18:00 Su 11:00 - 17:00 ", "brand": "Regis Salon"}, "geometry": {"type": "Point", "coordinates": [-2.8890841, 53.1901958]}},
{"type": "Feature", "id": "iPixF1P1PmR0ZQQ1XeRAfMfq77Q=", "properties": {"ref": "https://www.regissalons.co.uk/salon/regis-nantwich", "@spider": "regis_uk", "phone": "01270 623 500", "website": "https://www.regissalons.co.uk/salon/regis-nantwich", "opening_hours": "Mo 9:00 - 17:30 Tu 9:00 - 17:30 We 9:00 - 17:30 Th 9:00 - 18:30 Fr 9:00 - 19:00 Sa 9:00 - 17:00 Su off ", "brand": "Regis Salon"}, "geometry": {"type": "Point", "coordinates": [-2.5236208, 53.0677388]}},
{"type": "Feature", "id": "VLxpXfRs05PtorgrelVqVCCanFA=", "properties": {"ref": "https://www.regissalons.co.uk/salon/regis-holmes-chapel", "@spider": "regis_uk", "phone": "01477 532 669", "website": "https://www.regissalons.co.uk/salon/regis-holmes-chapel", "opening_hours": "Mo 9:00 - 17:30 Tu 9:00 - 17:30 We 9:00 - 17:30 Th 9:00 - 19:00 Fr 9:00 - 17:00 Sa 9:00 - 17:00 Su off ", "brand": "Regis Salon"}, "geometry": {"type": "Point", "coordinates": [-2.3561422, 53.201063]}},
{"type": "Feature", "id": "ESNIACg1sYmACNIs1wwLbQlmb2g=", "properties": {"ref": "https://www.regissalons.co.uk/salon/regis-bromborough", "@spider": "regis_uk", "phone": "0151 334 4492", "website": "https://www.regissalons.co.uk/salon/regis-bromborough", "opening_hours": "Mo 9:00 - 17:30 Tu 9:00 - 17:30 We 9:00 - 17:30 Th 9:00 - 17:30 Fr 9:00 - 17:30 Sa 9:00 - 17:30 Su off ", "brand": "Regis Salon"}, "geometry": {"type": "Point", "coordinates": [-2.9789815, 53.3315912]}},
{"type": "Feature", "id": "DGFRutibhg4lp0YogCVDzCXI4-g=", "properties": {"ref": "https://www.regissalons.co.uk/salon/regis-birkenhead", "@spider": "regis_uk", "phone": "0151 650 1550", "website": "https://www.regissalons.co.uk/salon/regis-birkenhead", "opening_hours": "Mo 9:00 - 17:30 Tu 9:00 - 17:30 We 9:00 - 17:30 Th 9:00 - 17:30 Fr 9:00 - 17:30 Sa 9:00 - 17:30 Su 10:00 - 16:00 ", "brand": "Regis Salon"}, "geometry": {"type": "Point", "coordinates": [-3.0270734, 53.3888425]}},
{"type": "Feature", "id": "yKC4OFxuwethok3gSqfq_OcII0Q=", "properties": {"ref": "https://www.regissalons.co.uk/salon/kendals-manchester", "@spider": "regis_uk", "phone": "0161 425 9610", "website": "https://www.regissalons.co.uk/salon/kendals-manchester", "opening_hours": "Mo off Tu off We off Th off Fr off Sa off Su off ", "brand": "Regis Salon"}, "geometry": {"type": "Point", "coordinates": [-2.248134, 53.480605]}},
{"type": "Feature", "id": "A76z4zse2Lx5laJxNY5aPTontxY=", "properties": {"ref": "https://www.regissalons.co.uk/salon/regis-wilmslow", "@spider": "regis_uk", "phone": "01625 529 283", "website": "https://www.regissalons.co.uk/salon/regis-wilmslow", "opening_hours": "Mo 9:00 - 18:00 Tu 9:00 - 18:00 We 9:00 - 18:00 Th 9:00 - 20:00 Fr 9:00 - 20:00 Sa 9:00 - 17:30 Su off ", "brand": "Regis Salon"}, "geometry": {"type": "Point", "coordinates": [-2.2329538, 53.3251253]}},
{"type": "Feature", "id": "umtSvCG4Scml0DNxl-FoD8gLsFE=", "properties": {"ref": "https://www.regissalons.co.uk/salon/regis-ormskirk", "@spider": "regis_uk", "phone": "01695 572 922", "website": "https://www.regissalons.co.uk/salon/regis-ormskirk", "opening_hours": "Mo 9:00 - 17:30 Tu 9:00 - 17:30 We 9:00 - 17:30 Th 9:00 - 17:30 Fr 9:00 - 17:30 Sa 9:00 - 17:30 Su 10:00 - 17:00 ", "brand": "Regis Salon"}, "geometry": {"type": "Point", "coordinates": [-2.8864849, 53.564549]}},
{"type": "Feature", "id": "NTFFNdhA1pFrvxmiCyLYti73XwQ=", "properties": {"ref": "https://www.regissalons.co.uk/salon/regis-warrington", "@spider": "regis_uk", "phone": "01925 416 895", "website": "https://www.regissalons.co.uk/salon/regis-warrington", "opening_hours": "Mo 9:00 - 17:30 Tu 9:00 - 17:30 We 9:00 - 17:30 Th 9:00 - 20:00 Fr 9:00 - 17:30 Sa 9:00 - 17:30 Su 11:00 - 17:00 ", "brand": "Regis Salon"}, "geometry": {"type": "Point", "coordinates": [-2.5946027, 53.3900816]}},
{"type": "Feature", "id": "xuiGn006u4sNepbctaFdMPo4E7M=", "properties": {"ref": "https://www.regissalons.co.uk/salon/regis-harvey-nichols-manchester", "@spider": "regis_uk", "phone": "0161 828 8840", "website": "https://www.regissalons.co.uk/salon/regis-harvey-nichols-manchester", "opening_hours": "Mo 10:00 - 19:00 Tu 10:00 - 19:00 We 10:00 - 19:00 Th 10:00 - 20:00 Fr 10:00 - 20:00 Sa 10:00 - 20:00 Su off ", "brand": "Regis Salon"}, "geometry": {"type": "Point", "coordinates": [-2.2445417598375603, 53.484413546361075]}},
{"type": "Feature", "id": "WHY6dGWAT4jE-WczkgZUX2uqke4=", "properties": {"ref": "https://www.regissalons.co.uk/salon/regis-leeds", "@spider": "regis_uk", "phone": "0113 246 1119", "website": "https://www.regissalons.co.uk/salon/regis-leeds", "opening_hours": "Mo 9:00 - 17:30 Tu 9:00 - 17:30 We 9:00 - 20:00 Th 9:00 - 20:00 Fr 9:00 - 20:00 Sa 9:00 - 19:00 Su 11:00 - 17:00 ", "brand": "Regis Salon"}, "geometry": {"type": "Point", "coordinates": [-1.5453558, 53.7968283]}},
{"type": "Feature", "id": "pP0tMFihYTXtWt8WjjIeZyny-i8=", "properties": {"ref": "https://www.regissalons.co.uk/salon/regis-barnsley", "@spider": "regis_uk", "phone": "01226 320 598", "website": "https://www.regissalons.co.uk/salon/regis-barnsley", "opening_hours": "Mo 9:00 - 17:30 Tu 9:00 - 17:30 We 9:00 - 17:30 Th 9:00 - 17:30 Fr 9:00 - 17:30 Sa 8:30 - 17:30 Su 10:00 - 16:00 ", "brand": "Regis Salon"}, "geometry": {"type": "Point", "coordinates": [-1.4783086, 53.5508796]}},
{"type": "Feature", "id": "KyNS1ax_m03jeTBL3kVsH6-7s30=", "properties": {"ref": "https://www.regissalons.co.uk/salon/regis-harrogate", "@spider": "regis_uk", "phone": "01423 709 880", "website": "https://www.regissalons.co.uk/salon/regis-harrogate", "opening_hours": "Mo 9:00 - 17:30 Tu 9:00 - 17:30 We 9:00 - 19:30 Th 9:00 - 19:30 Fr 9:00 - 17:30 Sa 9:00 - 17:30 Su off ", "brand": "Regis Salon"}, "geometry": {"type": "Point", "coordinates": [-1.5391068, 53.9941697]}},
{"type": "Feature", "id": "4WK_wFj3Usv1ajZqfARBAhoLsjQ=", "properties": {"ref": "https://www.regissalons.co.uk/salon/regis-middlesbrough", "@spider": "regis_uk", "phone": "01642 595 396", "website": "https://www.regissalons.co.uk/salon/regis-middlesbrough", "opening_hours": "Mo 9:00 - 17:00 Tu 9:00 - 17:00 We 9:00 - 19:00 Th 9:00 - 19:00 Fr 9:00 - 17:00 Sa 9:00 - 17:00 Su off ", "brand": "Regis Salon"}, "geometry": {"type": "Point", "coordinates": [-1.2161362, 54.5242631]}},
{"type": "Feature", "id": "XQU8qLbYBcZo7tQ7P1_WNKiL_II=", "properties": {"ref": "https://www.regissalons.co.uk/salon/fenwick-newcastle", "@spider": "regis_uk", "phone": "0191 232 0802", "website": "https://www.regissalons.co.uk/salon/fenwick-newcastle", "opening_hours": "Mo 9:00 - 20:00 Tu 9:00 - 20:00 We 9:00 - 20:00 Th 9:00 - 20:00 Fr 9:00 - 20:00 Sa 9:00 - 19:00 Su 10:30 - 17:00 ", "brand": "Regis Salon"}, "geometry": {"type": "Point", "coordinates": [-1.6129489, 54.975333]}},
{"type": "Feature", "id": "IbfhOY9jka37Jzrp59gHgWsMww4=", "properties": {"ref": "https://www.regissalons.co.uk/salon/mops-gallowgate", "@spider": "regis_uk", "phone": "0191 232 9559", "website": "https://www.regissalons.co.uk/salon/mops-gallowgate", "opening_hours": "Mo 10:00 - 18:00 Tu 10:00 - 18:00 We 9:00 - 18:00 Th 10:00 - 19:00 Fr 9:00 - 18:00 Sa 8:45 - 17:15 Su off ", "brand": "Regis Salon"}, "geometry": {"type": "Point", "coordinates": [-1.6183525, 54.9738853]}},
{"type": "Feature", "id": "QTFfzy0aRI4fb4vhxQREPXHsGOQ=", "properties": {"ref": "https://www.regissalons.co.uk/salon/regis-gateshead", "@spider": "regis_uk", "phone": "0191 460 9037", "website": "https://www.regissalons.co.uk/salon/regis-gateshead", "opening_hours": "Mo 10:00 - 21:00 Tu 10:00 - 21:00 We 10:00 - 21:00 Th 10:00 - 21:00 Fr 10:00 - 21:00 Sa 9:00 - 19:00 Su 11:00 - 17:00 ", "brand": "Regis Salon"}, "geometry": {"type": "Point", "coordinates": [-1.668841499999985, 54.9566654]}},
{"type": "Feature", "id": "BLOdHe1L1U4sjJst4lezt4ev1Uk=", "properties": {"ref": "https://www.regissalons.co.uk/salon/beauty-birmingham", "@spider": "regis_uk", "phone": "0121 212 0680", "website": "https://www.regissalons.co.uk/salon/beauty-birmingham", "opening_hours": "Mo 10:00 - 18:00 Tu 10:00 - 18:00 We 10:00 - 18:00 Th 10:00 - 19:00 Fr 10:00 - 19:00 Sa 9:30 - 17:30 Su 10:30 - 17:00 ", "brand": "Regis Salon"}, "geometry": {"type": "Point", "coordinates": [-1.897303, 52.482388]}},
{"type": "Feature", "id": "z0O_IMXfvSs6_hWxLa6kR_08PTU=", "properties": {"ref": "https://www.regissalons.co.uk/salon/regis-birmingham", "@spider": "regis_uk", "phone": "0121 643 7242", "website": "https://www.regissalons.co.uk/salon/regis-birmingham", "opening_hours": "Mo 9:00 - 17:30 Tu 9:00 - 17:30 We 9:00 - 17:30 Th 9:00 - 19:00 Fr 9:00 - 19:00 Sa 8:30 - 17:00 Su 11:00 - 17:00 ", "brand": "Regis Salon"}, "geometry": {"type": "Point", "coordinates": [-1.8972263, 52.4799359]}},
{"type": "Feature", "id": "IXEKgpOZcNFaIfW2eF9MMlg57jY=", "properties": {"ref": "https://www.regissalons.co.uk/salon/regis-solihull", "@spider": "regis_uk", "phone": "0121 705 6444", "website": "https://www.regissalons.co.uk/salon/regis-solihull", "opening_hours": "Mo 8:00 - 17:00 Tu 8:00 - 17:00 We 8:00 - 17:00 Th 8:00 - 17:00 Fr 8:00 - 17:00 Sa 8:00 - 17:00 Su 10:00 - 16:00 ", "brand": "Regis Salon"}, "geometry": {"type": "Point", "coordinates": [-1.7755626, 52.412972]}},
{"type": "Feature", "id": "o8nDi5VFstUPyTxyz988EXei_us=", "properties": {"ref": "https://www.regissalons.co.uk/salon/beatties-solihull", "@spider": "regis_uk", "phone": "01217056759", "website": "https://www.regissalons.co.uk/salon/beatties-solihull", "opening_hours": "Mo 9:00 - 17:30 Tu 9:30 - 17:00 We 9:00 - 17:30 Th 9:00 - 17:30 Fr 9:00 - 17:30 Sa 9:00 - 18:00 Su off ", "brand": "Regis Salon"}, "geometry": {"type": "Point", "coordinates": [-1.7754676, 52.4143203]}},
{"type": "Feature", "id": "i9k8FhdbJn_-JMmVG_n-yfG0npc=", "properties": {"ref": "https://www.regissalons.co.uk/salon/regis-merryhill", "@spider": "regis_uk", "phone": "01384 481 502", "website": "https://www.regissalons.co.uk/salon/regis-merryhill", "opening_hours": "Mo 9:00 - 18:00 Tu 9:00 - 18:00 We 9:00 - 18:00 Th 9:00 - 19:00 Fr 9:00 - 18:00 Sa 9:00 - 18:00 Su 11:00 - 17:00 ", "brand": "Regis Salon"}, "geometry": {"type": "Point", "coordinates": [-2.1113699, 52.4786151]}},
{"type": "Feature", "id": "thQNSdyYNcY49GELWL_R9pOCAsk=", "properties": {"ref": "https://www.regissalons.co.uk/salon/regis-cheltenham", "@spider": "regis_uk", "phone": "01242 539 566", "website": "https://www.regissalons.co.uk/salon/regis-cheltenham", "opening_hours": "Mo 9:00 - 17:30 Tu 9:00 - 17:30 We 9:00 - 17:30 Th 9:00 - 17:30 Fr 9:00 - 17:30 Sa 9:00 - 17:30 Su 10:00 - 16:00 ", "brand": "Regis Salon"}, "geometry": {"type": "Point", "coordinates": [-2.0748737, 51.899392]}},
{"type": "Feature", "id": "eQsxfx65YE9-DN0xVWcr-nnPqAc=", "properties": {"ref": "https://www.regissalons.co.uk/salon/dickins-and-jones-richmond", "@spider": "regis_uk", "phone": "020 8948 2303", "website": "https://www.regissalons.co.uk/salon/dickins-and-jones-richmond", "opening_hours": "Mo 9:30 - 18:00 Tu 9:30 - 18:00 We 9:30 - 18:00 Th 9:00 - 19:00 Fr 9:00 - 19:00 Sa 9:00 - 19:00 Su 11:00 - 17:00 ", "brand": "Regis Salon"}, "geometry": {"type": "Point", "coordinates": [-0.3064036, 51.4601166]}},
{"type": "Feature", "id": "FpI_ON5xErClvXzudIjmMCarYMg=", "properties": {"ref": "https://www.regissalons.co.uk/salon/regis-portsmouth", "@spider": "regis_uk", "phone": "023 9283 9227", "website": "https://www.regissalons.co.uk/salon/regis-portsmouth", "opening_hours": "Mo 10:00 - 18:00 Tu 10:00 - 18:00 We 10:00 - 18:00 Th 10:00 - 20:00 Fr 10:00 - 20:00 Sa 9:00 - 20:00 Su 10:00 - 18:00 ", "brand": "Regis Salon"}, "geometry": {"type": "Point", "coordinates": [-1.105101, 50.7947634]}},
{"type": "Feature", "id": "JQzzvAFaEtOsafPoRqwmzUe0e9o=", "properties": {"ref": "https://www.regissalons.co.uk/salon/regis-colchester", "@spider": "regis_uk", "phone": "01206 572403", "website": "https://www.regissalons.co.uk/salon/regis-colchester", "opening_hours": "Mo 9:00 - 17:30 Tu 9:00 - 17:30 We 9:00 - 17:30 Th 9:00 - 17:30 Fr 9:00 - 17:30 Sa 9:00 - 17:30 Su off ", "brand": "Regis Salon"}, "geometry": {"type": "Point", "coordinates": [0.8990092, 51.8894202]}},
{"type": "Feature", "id": "L1MrnYtsZToPg_mS8b9QLSoWf4c=", "properties": {"ref": "https://www.regissalons.co.uk/salon/fenwick-canterbury", "@spider": "regis_uk", "phone": "01227 634911", "website": "https://www.regissalons.co.uk/salon/fenwick-canterbury", "opening_hours": "Mo 9:00 - 17:30 Tu 9:00 - 17:30 We 9:00 - 17:30 Th 9:00 - 18:00 Fr 9:00 - 17:00 Sa 9:00 - 18:00 Su off ", "brand": "Regis Salon"}, "geometry": {"type": "Point", "coordinates": [1.0826134, 51.2771314]}},
{"type": "Feature", "id": "79ddM69M5BAXEwsnirDWwS46NC0=", "properties": {"ref": "https://www.regissalons.co.uk/salon/regis-chichester", "@spider": "regis_uk", "phone": "01243 527 676", "website": "https://www.regissalons.co.uk/salon/regis-chichester", "opening_hours": "Mo 9:00 - 17:30 Tu 9:00 - 17:30 We 9:00 - 17:30 Th 9:00 - 19:00 Fr 9:00 - 17:30 Sa 9:00 - 17:30 Su off ", "brand": "Regis Salon"}, "geometry": {"type": "Point", "coordinates": [-0.7791933, 50.8380233]}},
{"type": "Feature", "id": "R79biZWH62hFC9R92C74f6FFprc=", "properties": {"ref": "https://www.regissalons.co.uk/salon/regis-chelmsford", "@spider": "regis_uk", "phone": "01245 264 446", "website": "https://www.regissalons.co.uk/salon/regis-chelmsford", "opening_hours": "Mo 9:00 - 17:30 Tu 9:00 - 17:30 We 9:00 - 17:30 Th 9:00 - 17:30 Fr 9:00 - 17:30 Sa 9:00 - 17:30 Su 10:30 - 16:30 ", "brand": "Regis Salon"}, "geometry": {"type": "Point", "coordinates": [0.4762379, 51.7316682]}},
{"type": "Feature", "id": "0ldj0rQJ3VYB4W_mRT77edRX40E=", "properties": {"ref": "https://www.regissalons.co.uk/salon/regis-basildon", "@spider": "regis_uk", "phone": "01268 289 567", "website": "https://www.regissalons.co.uk/salon/regis-basildon", "opening_hours": "Mo 9:00 - 18:00 Tu 9:00 - 18:00 We 9:00 - 18:00 Th 9:00 - 18:00 Fr 9:00 - 18:00 Sa 9:00 - 18:00 Su 10:00 - 16:00 ", "brand": "Regis Salon"}, "geometry": {"type": "Point", "coordinates": [0.4603856, 51.5695043]}},
{"type": "Feature", "id": "d_fgBjsCCMcOWks-xw74pp0B_WA=", "properties": {"ref": "https://www.regissalons.co.uk/salon/browns-york", "@spider": "regis_uk", "phone": "01904 623 003", "website": "https://www.regissalons.co.uk/salon/browns-york", "opening_hours": "Mo 9:00 - 17:30 Tu 9:00 - 17:30 We 9:00 - 17:30 Th 9:00 - 17:30 Fr 9:00 - 17:30 Sa 9:00 - 18:00 ", "brand": "Regis Salon"}, "geometry": {"type": "Point", "coordinates": [-1.0826716, 53.959799]}}]}