{"type":"FeatureCollection","features":[{"type": "Feature", "id": "Xwm--lfNpTxKuJAHutBUmRDkdX4=", "properties": {"ref": "https://www.rei.com/stores/richmond-short-pump.html", "@spider": "rei", "addr:full": "2020 Old Brick Rd", "addr:city": "Glen Allen", "addr:state": "VA", "addr:postcode": "23060", "addr:country": "USA", "phone": "+18043601381", "website": "https://www.rei.com/stores/richmond-short-pump.html", "opening_hours": "Mo-Fr 10:00-21:00;Sa 10:00-20:00;Su 10:00-18:00"}, "geometry": {"type": "Point", "coordinates": [-77.5972, 37.6478]}},
{"type": "Feature", "id": "ZAdRWY12WIb3XffrbXuFIGifmG0=", "properties": {"ref": "https://www.rei.com/stores/paradise-valley.html", "@spider": "rei", "addr:full": "12634 N Paradise Village Pkwy W", "addr:city": "Phoenix", "addr:state": "AZ", "addr:postcode": "85032", "addr:country": "USA", "phone": "+16029965400", "website": "https://www.rei.com/stores/paradise-valley.html", "opening_hours": "Mo-Fr 10:00-21:00;Sa 09:00-19:00;Su 09:00-18:00"}, "geometry": {"type": "Point", "coordinates": [-111.9883, 33.6006]}},
{"type": "Feature", "id": "2Wf-GRBSkY68Q9B1yMf7KGvr1Ko=", "properties": {"ref": "https://www.rei.com/stores/flagstaff.html", "@spider": "rei", "addr:full": "323 South Windsor Lane", "addr:city": "Flagstaff", "addr:state": "AZ", "addr:postcode": "86001", "addr:country": "USA", "phone": "+19282131914", "website": "https://www.rei.com/stores/flagstaff.html", "opening_hours": "Mo-Fr 09:00-20:00;Sa 09:00-20:00;Su 10:00-18:00"}, "geometry": {"type": "Point", "coordinates": [-111.6442, 35.1916]}},
{"type": "Feature", "id": "jJFvy94GZDBrjckzz0vrcACz0K0=", "properties": {"ref": "https://www.rei.com/stores/appleton.html", "@spider": "rei", "addr:full": "3850 W Wisconsin Ave", "addr:city": "Appleton", "addr:state": "WI", "addr:postcode": "54914", "addr:country": "USA", "phone": "+19204425550", "website": "https://www.rei.com/stores/appleton.html", "opening_hours": "Mo-Fr 10:00-21:00;Sa 10:00-21:00;Su 11:00-18:00"}, "geometry": {"type": "Point", "coordinates": [-88.462, 44.2735]}},
{"type": "Feature", "id": "HFo81_-mnX4vzpU48PB1AoD5qVM=", "properties": {"ref": "https://www.rei.com/stores/northbrook.html", "@spider": "rei", "addr:full": "888 Willow Road", "addr:city": "Northbrook", "addr:state": "IL", "addr:postcode": "60062", "addr:country": "USA", "phone": "+18474801938", "website": "https://www.rei.com/stores/northbrook.html", "opening_hours": "Mo-Fr 10:00-21:00;Sa 10:00-21:00;Su 10:00-18:00"}, "geometry": {"type": "Point", "coordinates": [-87.7995, 42.1054]}},
{"type": "Feature", "id": "PBKRLYSN22o_iAoSobCUAAoSUtM=", "properties": {"ref": "https://www.rei.com/stores/milford.html", "@spider": "rei", "addr:full": "1587 Boston Post Rd", "addr:city": "Milford", "addr:state": "CT", "addr:postcode": "06460", "addr:country": "USA", "phone": "+12037830945", "website": "https://www.rei.com/stores/milford.html", "opening_hours": "Mo-Fr 10:00-21:00;Sa 09:00-20:00;Su 10:00-18:00"}, "geometry": {"type": "Point", "coordinates": [-73.0269, 41.2457]}},
{"type": "Feature", "id": "D7ydDPzIB8YC55n1M4KSOMm2GU8=", "properties": {"ref": "https://www.rei.com/stores/austin-gateway.html", "@spider": "rei", "addr:full": "9901 N Capital of Texas Hwy, Ste 200", "addr:city": "Austin", "addr:state": "TX", "addr:postcode": "78759", "addr:country": "USA", "phone": "+15123435550", "website": "https://www.rei.com/stores/austin-gateway.html", "opening_hours": "Mo-Fr 10:00-21:00;Sa 10:00-20:00;Su 10:00-18:00"}, "geometry": {"type": "Point", "coordinates": [-97.74, 30.3896]}},
{"type": "Feature", "id": "6xDRhu-NgvCzSpC0_ATA0RFQx24=", "properties": {"ref": "https://www.rei.com/stores/northridge.html", "@spider": "rei", "addr:full": "18605 Devonshire St", "addr:city": "Northridge", "addr:state": "CA", "addr:postcode": "91324", "addr:country": "USA", "phone": "+18188315555", "website": "https://www.rei.com/stores/northridge.html", "opening_hours": "Mo-Fr 10:00-21:00;Sa 10:00-20:00;Su 10:00-19:00"}, "geometry": {"type": "Point", "coordinates": [-118.5383, 34.2576]}},
{"type": "Feature", "id": "rjLan1s8t2hWk9kk6su_r-0t38U=", "properties": {"ref": "https://www.rei.com/stores/anchorage.html", "@spider": "rei", "addr:full": "500 E Northern Lights Blvd ", "addr:city": "Anchorage", "addr:state": "AK", "addr:postcode": "99503", "addr:country": "USA", "phone": "+19072724565", "website": "https://www.rei.com/stores/anchorage.html", "opening_hours": "Mo-Fr 10:00-20:00;Sa 10:00-19:00;Su 10:00-18:00"}, "geometry": {"type": "Point", "coordinates": [-149.8744, 61.1952]}},
{"type": "Feature", "id": "J8uztbpaRFjqPjn-rGY3tiOar9Q=", "properties": {"ref": "https://www.rei.com/stores/columbus-easton.html", "@spider": "rei", "addr:full": "4150 Worth Ave", "addr:city": "Columbus", "addr:state": "OH", "addr:postcode": "43219", "addr:country": "USA", "phone": "+16144751938", "website": "https://www.rei.com/stores/columbus-easton.html", "opening_hours": "Mo-Fr 10:00-21:00;Sa 10:00-21:00;Su 10:00-18:00"}, "geometry": {"type": "Point", "coordinates": [-82.9083, 40.0552]}},
{"type": "Feature", "id": "GelTiCyDhag-PrdfyQapfCjQbmY=", "properties": {"ref": "https://www.rei.com/stores/columbus-dublin.html", "@spider": "rei", "addr:full": "6424 Sawmill Road", "addr:city": "Columbus", "addr:state": "OH", "addr:postcode": "43235", "addr:country": "USA", "phone": "+16147991938", "website": "https://www.rei.com/stores/columbus-dublin.html", "opening_hours": "Sa 10:00-21:00;Mo-Fr 10:00-21:00;Su 10:00-18:00"}, "geometry": {"type": "Point", "coordinates": [-83.0906, 40.0986]}},
{"type": "Feature", "id": "7jI98T5uIPQFY6ul-vcegnPPswk=", "properties": {"ref": "https://www.rei.com/stores/huntsville.html", "@spider": "rei", "addr:full": "1035 Mid City Dr NW", "addr:city": "Huntsville", "addr:state": "AL", "addr:postcode": "35806", "addr:country": "USA", "phone": "+12564304424", "website": "https://www.rei.com/stores/huntsville.html", "opening_hours": "Mo-Fr 09:00-20:00;Sa 09:00-20:00;Su 10:00-18:00"}, "geometry": {"type": "Point", "coordinates": [-86.6667, 34.7385]}},
{"type": "Feature", "id": "7sMYUcWTU-yJcOziBpvPgKLabHQ=", "properties": {"ref": "https://www.rei.com/stores/jackson-hole.html", "@spider": "rei", "addr:full": "974 West Broadway", "addr:city": "Jackson", "addr:state": "WY", "addr:postcode": "83001", "addr:country": "USA", "phone": "+13072841938", "website": "https://www.rei.com/stores/jackson-hole.html", "opening_hours": "Mo-Fr 09:00-19:00;Sa 09:00-19:00;Su 09:00-19:00"}, "geometry": {"type": "Point", "coordinates": [-110.7844, 43.4732]}},
{"type": "Feature", "id": "0NU0glfZqzH--SxOvYIqTJfY6aA=", "properties": {"ref": "https://www.rei.com/stores/salem-keizer.html", "@spider": "rei", "addr:full": "6035 Ulali Dr NE", "addr:city": "Keizer", "addr:state": "OR", "addr:postcode": "97303", "addr:country": "USA", "phone": "+15033930909", "website": "https://www.rei.com/stores/salem-keizer.html", "opening_hours": "Mo-Fr 10:00-20:00;Sa 10:00-20:00;Su 11:00-18:00"}, "geometry": {"type": "Point", "coordinates": [-123.0006, 45.008]}},
{"type": "Feature", "id": "PUhBClUDkdMnnkeFOFCmnDKKmMk=", "properties": {"ref": "https://www.rei.com/stores/overland-park.html", "@spider": "rei", "addr:full": "6281 W 135 St", "addr:city": "Overland Park", "addr:state": "KS", "addr:postcode": "66223", "addr:country": "USA", "phone": "+19134021938", "website": "https://www.rei.com/stores/overland-park.html", "opening_hours": "Mo-Fr 10:00-21:00;Sa 10:00-21:00;Su 11:00-18:00"}, "geometry": {"type": "Point", "coordinates": [-94.6576, 38.883]}},
{"type": "Feature", "id": "3Ti59QWR428U0vkWI8--wffyshY=", "properties": {"ref": "https://www.rei.com/stores/fairfax.html", "@spider": "rei", "addr:full": "11950 Grand Commons Ave", "addr:city": "Fairfax", "addr:state": "VA", "addr:postcode": "22030", "addr:country": "USA", "phone": "+15715226568", "website": "https://www.rei.com/stores/fairfax.html", "opening_hours": "Mo-Fr 10:00-21:00;Sa 10:00-21:00;Su 10:00-18:00"}, "geometry": {"type": "Point", "coordinates": [-77.3581, 38.8583]}},
{"type": "Feature", "id": "MwMKjyLOL_X8hP87kcsUDpYwm_s=", "properties": {"ref": "https://www.rei.com/stores/asheville.html", "@spider": "rei", "addr:full": "31 Schenck Parkway", "addr:city": "Asheville", "addr:state": "NC", "addr:postcode": "28803", "addr:country": "USA", "phone": "+18286870918", "website": "https://www.rei.com/stores/asheville.html", "opening_hours": "Mo-Fr 09:00-20:00;Sa 09:00-20:00;Su 10:00-18:00"}, "geometry": {"type": "Point", "coordinates": [-82.5539, 35.4851]}},
{"type": "Feature", "id": "tA9uRFLe8tYQ8_U2pRxiPrwEY1E=", "properties": {"ref": "https://www.rei.com/stores/columbia-sc.html", "@spider": "rei", "addr:full": "2300 Bull Street", "addr:city": "Columbia", "addr:state": "SC", "addr:postcode": "29201", "addr:country": "USA", "phone": "+18036362542", "website": "https://www.rei.com/stores/columbia-sc.html", "opening_hours": "Mo-Fr 10:00-20:00;Sa 10:00-20:00;Su 10:00-18:00"}, "geometry": {"type": "Point", "coordinates": [-81.0354, 34.018]}},
{"type": "Feature", "id": "SxQg3Xn6e4pJMH37lD6odFL8IaA=", "properties": {"ref": "https://www.rei.com/stores/northville.html", "@spider": "rei", "addr:full": "17559 Haggerty Rd", "addr:city": "Northville", "addr:state": "MI", "addr:postcode": "48168", "addr:country": "USA", "phone": "+12483472100", "website": "https://www.rei.com/stores/northville.html", "opening_hours": "Mo-Fr 10:00-21:00;Sa 10:00-21:00;Su 11:00-18:00"}, "geometry": {"type": "Point", "coordinates": [-83.4327, 42.4145]}},
{"type": "Feature", "id": "3II87EsTV8oUyJRhs6FmkgKQqVo=", "properties": {"ref": "https://www.rei.com/stores/virginia-beach.html", "@spider": "rei", "addr:full": "350 Independence Blvd", "addr:city": "Virginia Beach", "addr:state": "VA", "addr:postcode": "23462", "addr:country": "USA", "phone": "+17576871938", "website": "https://www.rei.com/stores/virginia-beach.html", "opening_hours": "Mo-Fr 10:00-21:00;Sa 10:00-20:00;Su 11:00-18:00"}, "geometry": {"type": "Point", "coordinates": [-76.1357, 36.8466]}},
{"type": "Feature", "id": "63ysFgqpFZSQn11fGuttzmdPbTI=", "properties": {"ref": "https://www.rei.com/stores/brentwood.html", "@spider": "rei", "addr:full": "261 Franklin Rd", "addr:city": "Brentwood", "addr:state": "TN", "addr:postcode": "37027", "addr:country": "USA", "phone": "+16153764248", "website": "https://www.rei.com/stores/brentwood.html", "opening_hours": "Mo-Fr 09:00-20:00;Sa 09:00-20:00;Su 10:00-19:00"}, "geometry": {"type": "Point", "coordinates": [-86.7915, 36.0303]}},
{"type": "Feature", "id": "lgp1jIWC-8kC6M68nECVFgmOH-E=", "properties": {"ref": "https://www.rei.com/stores/west-hartford.html", "@spider": "rei", "addr:full": "1417 New Britain Ave", "addr:city": "West Hartford", "addr:state": "CT", "addr:postcode": "06110", "addr:country": "USA", "phone": "+18603130128", "website": "https://www.rei.com/stores/west-hartford.html", "opening_hours": "Mo-Fr 10:00-21:00;Sa 09:00-20:00;Su 10:00-18:00"}, "geometry": {"type": "Point", "coordinates": [-72.7574, 41.7263]}},
{"type": "Feature", "id": "mZrtPh0wLUD2XJIvHEy8ibmR-W4=", "properties": {"ref": "https://www.rei.com/stores/kennewick.html", "@spider": "rei", "addr:full": "129 N Ely St, Main 2", "addr:city": "Kennewick", "addr:state": "WA", "addr:postcode": "99336", "addr:country": "USA", "phone": "+15097348989", "website": "https://www.rei.com/stores/kennewick.html", "opening_hours": "Mo-Fr 10:00-19:00;Sa 10:00-19:00;Su 11:00-18:00"}, "geometry": {"type": "Point", "coordinates": [-119.1591, 46.2107]}},
{"type": "Feature", "id": "qLH5TojM1a1Grc13S6As3AlwNv8=", "properties": {"ref": "https://www.rei.com/stores/issaquah.html", "@spider": "rei", "addr:full": "735 Northwest Gilman Boulevard", "addr:city": "Issaquah", "addr:state": "WA", "addr:postcode": "98027", "addr:country": "USA", "phone": "+14253131660", "website": "https://www.rei.com/stores/issaquah.html", "opening_hours": "Mo-Fr 10:00-21:00;Sa 10:00-20:00;Su 10:00-18:00"}, "geometry": {"type": "Point", "coordinates": [-122.0489, 47.5417]}},
{"type": "Feature", "id": "zao20HvBLH62zo8EzA8UQrr7qvI=", "properties": {"ref": "https://www.rei.com/stores/baileys-crossroads.html", "@spider": "rei", "addr:full": "3509 Carlin Springs Rd", "addr:city": "Bailey's Crossroads", "addr:state": "VA", "addr:postcode": "22041", "addr:country": "USA", "phone": "+17033799400", "website": "https://www.rei.com/stores/baileys-crossroads.html", "opening_hours": "Mo-Fr 10:00-21:00;Sa 10:00-19:00;Su 10:00-18:00"}, "geometry": {"type": "Point", "coordinates": [-77.1242, 38.8485]}},
{"type": "Feature", "id": "cJlDpTc3iczTLbqCeKK4u263aEM=", "properties": {"ref": "https://www.rei.com/stores/colorado-springs.html", "@spider": "rei", "addr:full": "1376 E Woodmen Rd", "addr:city": "Colorado Springs", "addr:state": "CO", "addr:postcode": "80920", "addr:country": "USA", "phone": "+17192601455", "website": "https://www.rei.com/stores/colorado-springs.html", "opening_hours": "Mo-Fr 09:00-20:00;Sa 09:00-20:00;Su 10:00-19:00"}, "geometry": {"type": "Point", "coordinates": [-104.7995, 38.9333]}},
{"type": "Feature", "id": "w_1EuWIaTltwsPQSgPg6DrwM4og=", "properties": {"ref": "https://www.rei.com/stores/jacksonville.html", "@spider": "rei", "addr:full": "4862 Big Island Drive", "addr:city": "Jacksonville", "addr:state": "FL", "addr:postcode": "32246", "addr:country": "USA", "phone": "+19049961613", "website": "https://www.rei.com/stores/jacksonville.html", "opening_hours": "Mo-Fr 09:00-20:00;Sa 09:00-21:00;Su 10:00-19:00"}, "geometry": {"type": "Point", "coordinates": [-81.5317, 30.2536]}},
{"type": "Feature", "id": "I0dKb3JHzFIpmckfvRLsyn7nI98=", "properties": {"ref": "https://www.rei.com/stores/hingham.html", "@spider": "rei", "addr:full": "98 Old Derby St, Ste 470", "addr:city": "Hingham", "addr:state": "MA", "addr:postcode": "02043", "addr:country": "USA", "phone": "+17817409430", "website": "https://www.rei.com/stores/hingham.html", "opening_hours": "Mo-Fr 09:00-20:00;Sa 09:00-20:00;Su 10:00-18:00"}, "geometry": {"type": "Point", "coordinates": [-70.9071, 42.1803]}},
{"type": "Feature", "id": "aTMQmbTlyRgpiNTUxw6KUWKtoV4=", "properties": {"ref": "https://www.rei.com/stores/woodbridge.html", "@spider": "rei", "addr:full": "15200 Potomac Town Place, Ste 140", "addr:city": "Woodbridge", "addr:state": "VA", "addr:postcode": "22191", "addr:country": "USA", "phone": "+17035831938", "website": "https://www.rei.com/stores/woodbridge.html", "opening_hours": "Mo-Fr 10:00-21:00;Sa 10:00-21:00;Su 11:00-18:00"}, "geometry": {"type": "Point", "coordinates": [-77.2872, 38.6268]}},
{"type": "Feature", "id": "qFwiGgglSxnovXdYZN-9s8hJvJM=", "properties": {"ref": "https://www.rei.com/stores/fort-collins.html", "@spider": "rei", "addr:full": "4025 S College Ave", "addr:city": "Fort Collins", "addr:state": "CO", "addr:postcode": "80525", "addr:country": "USA", "phone": "+19702230123", "website": "https://www.rei.com/stores/fort-collins.html", "opening_hours": "Mo-Fr 09:00-20:00;Sa 09:00-20:00;Su 10:00-19:00"}, "geometry": {"type": "Point", "coordinates": [-105.077, 40.5322]}},
{"type": "Feature", "id": "O6Rhftaq6OrJppmR737Hr_d070Y=", "properties": {"ref": "https://www.rei.com/stores/mechanicsburg.html", "@spider": "rei", "addr:full": "6391 Carlisle Pike, Suite 100A", "addr:city": "Mechanicsburg", "addr:state": "PA", "addr:postcode": "17050", "addr:country": "USA", "phone": "+17175166964", "website": "https://www.rei.com/stores/mechanicsburg.html", "opening_hours": "Mo-Fr 10:00-21:00;Sa 10:00-21:00;Su 11:00-18:00"}, "geometry": {"type": "Point", "coordinates": [-77.0031, 40.2482]}},
{"type": "Feature", "id": "uX-pt5qpZQeenX0XwLKh5qgxjf0=", "properties": {"ref": "https://www.rei.com/stores/greensboro.html", "@spider": "rei", "addr:full": "3334 West Friendly Ave, Ste 140, The Shops at Friendly Center", "addr:city": "Greensboro", "addr:state": "NC", "addr:postcode": "27410", "addr:country": "USA", "phone": "+13363233117", "website": "https://www.rei.com/stores/greensboro.html", "opening_hours": "Mo-Fr 09:00-20:00;Sa 09:00-20:00;Su 11:00-18:00"}, "geometry": {"type": "Point", "coordinates": [-79.8406, 36.0864]}},
{"type": "Feature", "id": "nDFYCgOEAkJifU7uZJEaDChIF5I=", "properties": {"ref": "https://www.rei.com/stores/troy.html", "@spider": "rei", "addr:full": "766 E Big Beaver Rd", "addr:city": "Troy", "addr:state": "MI", "addr:postcode": "48083", "addr:country": "USA", "phone": "+12486894402", "website": "https://www.rei.com/stores/troy.html", "opening_hours": "Mo-Fr 10:00-21:00;Sa 10:00-21:00;Su 11:00-18:00"}, "geometry": {"type": "Point", "coordinates": [-83.132, 42.5627]}},
{"type": "Feature", "id": "0nLVY1lmgYDN9OaF1Vava4ixwnU=", "properties": {"ref": "https://www.rei.com/stores/boston.html", "@spider": "rei", "addr:full": "401 Park Dr, Ste 103", "addr:city": "Boston", "addr:state": "MA", "addr:postcode": "02215", "addr:country": "USA", "phone": "+16172360746", "website": "https://www.rei.com/stores/boston.html", "opening_hours": "Mo-Fr 10:00-21:00;Sa 09:00-20:00;Su 11:00-19:00"}, "geometry": {"type": "Point", "coordinates": [-71.1027, 42.3442]}},
{"type": "Feature", "id": "nD5gRTwnjWmjm2KHKp2SnI9yfto=", "properties": {"ref": "https://www.rei.com/stores/dallas.html", "@spider": "rei", "addr:full": "5929 E Northwest Hwy", "addr:city": "Dallas", "addr:state": "TX", "addr:postcode": "75231", "addr:country": "USA", "phone": "+12143681938", "website": "https://www.rei.com/stores/dallas.html", "opening_hours": "Mo-Fr 10:00-21:00;Sa 10:00-19:00;Su 11:00-19:00"}, "geometry": {"type": "Point", "coordinates": [-96.7633, 32.8659]}},
{"type": "Feature", "id": "5BgtELZvuBKbbX-d9NYaVru0X_s=", "properties": {"ref": "https://www.rei.com/stores/oakbrook-terrace.html", "@spider": "rei", "addr:full": "17W160 22nd St", "addr:city": "Oakbrook Terrace", "addr:state": "IL", "addr:postcode": "60181", "addr:country": "USA", "phone": "+16305747700", "website": "https://www.rei.com/stores/oakbrook-terrace.html", "opening_hours": "Mo-Fr 10:00-21:00;Sa 10:00-21:00;Su 10:00-19:00"}, "geometry": {"type": "Point", "coordinates": [-87.9625, 41.8468]}},
{"type": "Feature", "id": "U6X_EoIGCNRbcsPqFT3fAK9R5J0=", "properties": {"ref": "https://www.rei.com/stores/san-antonio.html", "@spider": "rei", "addr:full": "11745 IH-10 West, Ste 110", "addr:city": "San Antonio", "addr:state": "TX", "addr:postcode": "78230", "addr:country": "USA", "phone": "+12108772329", "website": "https://www.rei.com/stores/san-antonio.html", "opening_hours": "Mo-Fr 10:00-21:00;Sa 10:00-20:00;Su 10:00-18:00"}, "geometry": {"type": "Point", "coordinates": [-98.5827, 29.5488]}},
{"type": "Feature", "id": "P8IV7-DMlfVv1zgSe6_BEDpv_3Y=", "properties": {"ref": "https://www.rei.com/stores/portland.html", "@spider": "rei", "addr:full": "1405 NW Johnson St", "addr:city": "Portland", "addr:state": "OR", "addr:postcode": "97209", "addr:country": "USA", "phone": "+15032211938", "website": "https://www.rei.com/stores/portland.html", "opening_hours": "Mo-Fr 10:00-21:00;Sa 09:00-21:00;Su 10:00-19:00"}, "geometry": {"type": "Point", "coordinates": [-122.6854, 45.5287]}},
{"type": "Feature", "id": "DOlvWBoO4TOmc8tWcJNWchDezdo=", "properties": {"ref": "https://www.rei.com/stores/gainesville.html", "@spider": "rei", "addr:full": "3650 SW 32nd Ct, Suite 10", "addr:city": "Gainesville", "addr:state": "FL", "addr:postcode": "32608", "addr:country": "USA", "phone": "+13522049265", "website": "https://www.rei.com/stores/gainesville.html", "opening_hours": "Mo-Fr 10:00-21:00;Sa 10:00-21:00;Su 11:00-19:00"}, "geometry": {"type": "Point", "coordinates": [-82.3775, 29.6256]}},
{"type": "Feature", "id": "j7OPIgS6WzzuXNmrK_KPCPV52dg=", "properties": {"ref": "https://www.rei.com/stores/saratoga.html", "@spider": "rei", "addr:full": "400 El Paseo de Saratoga", "addr:city": "San Jose", "addr:state": "CA", "addr:postcode": "95130", "addr:country": "USA", "phone": "+14088718765", "website": "https://www.rei.com/stores/saratoga.html", "opening_hours": "Mo-Fr 10:00-21:00;Sa 10:00-21:00;Su 10:00-19:00"}, "geometry": {"type": "Point", "coordinates": [-121.9936, 37.2883]}},
{"type": "Feature", "id": "Ow3DvRE8K4PrsaUHrYACqT4xF7c=", "properties": {"ref": "https://www.rei.com/stores/houston-willowbrook.html", "@spider": "rei", "addr:full": "17717 Tomball Pkwy", "addr:city": "Houston", "addr:state": "TX", "addr:postcode": "77064", "addr:country": "USA", "phone": "+18322378833", "website": "https://www.rei.com/stores/houston-willowbrook.html", "opening_hours": "Mo-Fr 10:00-21:00;Sa 10:00-20:00;Su 11:00-18:00"}, "geometry": {"type": "Point", "coordinates": [-95.5475, 29.9584]}},
{"type": "Feature", "id": "AkzTcbfiKsrJ5DTz4xWvRd5S5dw=", "properties": {"ref": "https://www.rei.com/stores/santa-cruz.html", "@spider": "rei", "addr:full": "1662 Commercial Way", "addr:city": "Santa Cruz", "addr:state": "CA", "addr:postcode": "95065", "addr:country": "USA", "phone": "+18316211938", "website": "https://www.rei.com/stores/santa-cruz.html", "opening_hours": "Mo-Fr 10:00-21:00;Sa 10:00-19:00;Su 10:00-18:00"}, "geometry": {"type": "Point", "coordinates": [-121.9825, 36.9878]}},
{"type": "Feature", "id": "chT6Abp0sI1IcCGVGv28bZwUFog=", "properties": {"ref": "https://www.rei.com/stores/olympia.html", "@spider": "rei", "addr:full": "625 Black Lake Blvd SW, Ste 410", "addr:city": "Olympia", "addr:state": "WA", "addr:postcode": "98502", "addr:country": "USA", "phone": "+13607861938", "website": "https://www.rei.com/stores/olympia.html", "opening_hours": "Mo-Fr 10:00-21:00;Sa 10:00-20:00;Su 10:00-18:00"}, "geometry": {"type": "Point", "coordinates": [-122.9385, 47.0419]}},
{"type": "Feature", "id": "lTiNV5bmMepQT3m7XKlDUr3e4CM=", "properties": {"ref": "https://www.rei.com/stores/roseville-ca.html", "@spider": "rei", "addr:full": "1148 Galleria Blvd", "addr:city": "Roseville", "addr:state": "CA", "addr:postcode": "95678", "addr:country": "USA", "phone": "+19167246750", "website": "https://www.rei.com/stores/roseville-ca.html", "opening_hours": "Mo-Fr 10:00-21:00;Sa 10:00-19:00;Su 10:00-18:00"}, "geometry": {"type": "Point", "coordinates": [-121.2653, 38.7718]}},
{"type": "Feature", "id": "nSQRyJRnnTHwB5S9Q1janU8HhlQ=", "properties": {"ref": "https://www.rei.com/stores/brookfield.html", "@spider": "rei", "addr:full": "13100 W Capitol Dr", "addr:city": "Brookfield", "addr:state": "WI", "addr:postcode": "53005", "addr:country": "USA", "phone": "+12627836150", "website": "https://www.rei.com/stores/brookfield.html", "opening_hours": "Mo-Fr 10:00-21:00;Sa 09:00-21:00;Su 10:00-18:00"}, "geometry": {"type": "Point", "coordinates": [-88.0735, 43.0899]}},
{"type": "Feature", "id": "96qhqp16uqt1gG8wPHtrOeO3ve4=", "properties": {"ref": "https://www.rei.com/stores/austin-downtown.html", "@spider": "rei", "addr:full": "601 N Lamar Blvd", "addr:city": "Austin", "addr:state": "TX", "addr:postcode": "78703", "addr:country": "USA", "phone": "+15124823357", "website": "https://www.rei.com/stores/austin-downtown.html", "opening_hours": "Mo-Fr 10:00-21:00;Sa 10:00-20:00;Su 10:00-18:00"}, "geometry": {"type": "Point", "coordinates": [-97.7539, 30.2716]}},
{"type": "Feature", "id": "umTCLcV2QcDXma--LlwhA01VeRg=", "properties": {"ref": "https://www.rei.com/stores/sunnyvale.html", "@spider": "rei", "addr:full": "130 E El Camino Real", "addr:city": "Sunnyvale", "addr:state": "CA", "addr:postcode": "94087", "addr:country": "USA", "phone": "+16509691938", "website": "https://www.rei.com/stores/sunnyvale.html", "opening_hours": "Mo-Fr 09:00-21:00;Sa 09:00-21:00;Su 10:00-19:00"}, "geometry": {"type": "Point", "coordinates": [-122.0316, 37.3658]}},
{"type": "Feature", "id": "TAaVDT6rIVXfxHD9zTtdnIt4f5k=", "properties": {"ref": "https://www.rei.com/stores/tysons.html", "@spider": "rei", "addr:full": "8209 Watson Street", "addr:city": "McLean", "addr:state": "VA", "addr:postcode": "22102", "addr:country": "USA", "phone": "+17035061938", "website": "https://www.rei.com/stores/tysons.html", "opening_hours": "Mo-Fr 10:00-21:00;Sa 10:00-21:00;Su 10:00-18:00"}, "geometry": {"type": "Point", "coordinates": [-77.2286, 38.9186]}},
{"type": "Feature", "id": "EkXr0RtaIfvZJPQIizJaw70Shek=", "properties": {"ref": "https://www.rei.com/stores/bozeman.html", "@spider": "rei", "addr:full": "2220 Tschache St", "addr:city": "Bozeman", "addr:state": "MT", "addr:postcode": "59718", "addr:country": "USA", "phone": "+14065871938", "website": "https://www.rei.com/stores/bozeman.html", "opening_hours": "Mo-Fr 09:00-20:00;Sa 09:00-19:00;Su 10:00-18:00"}, "geometry": {"type": "Point", "coordinates": [-111.0665, 45.6962]}},
{"type": "Feature", "id": "XNCFs2_X6H-FMxlblSweu4hh55c=", "properties": {"ref": "https://www.rei.com/stores/rochester.html", "@spider": "rei", "addr:full": "450 E Henrietta Road", "addr:city": "Rochester", "addr:state": "NY", "addr:postcode": "14620", "addr:country": "USA", "phone": "+15852420787", "website": "https://www.rei.com/stores/rochester.html", "opening_hours": "Mo-Fr 09:00-20:00;Sa 09:00-20:00;Su 10:00-18:00"}, "geometry": {"type": "Point", "coordinates": [-77.6159, 43.1121]}},
{"type": "Feature", "id": "a3eSxAiCwUao207jfBrXsrm3auw=", "properties": {"ref": "https://www.rei.com/stores/silverdale.html", "@spider": "rei", "addr:full": "10903 NW Myhre Pl", "addr:city": "Silverdale", "addr:state": "WA", "addr:postcode": "98383", "addr:country": "USA", "phone": "+13603371938", "website": "https://www.rei.com/stores/silverdale.html", "opening_hours": "Mo-Fr 10:00-20:00;Sa 10:00-19:00;Su 10:00-18:00"}, "geometry": {"type": "Point", "coordinates": [-122.6886, 47.6625]}},
{"type": "Feature", "id": "XbHbK0ZO0kbcwCXDB2mCSva4wlE=", "properties": {"ref": "https://www.rei.com/stores/cincinnati.html", "@spider": "rei", "addr:full": "2643 Edmondson Rd", "addr:city": "Cincinnati", "addr:state": "OH", "addr:postcode": "45209", "addr:country": "USA", "phone": "+15139241938", "website": "https://www.rei.com/stores/cincinnati.html", "opening_hours": "Mo-Fr 10:00-21:00;Sa 10:00-21:00;Su 10:00-18:00"}, "geometry": {"type": "Point", "coordinates": [-84.4462, 39.1482]}},
{"type": "Feature", "id": "3bsK209gByfY50Mtpe0oCWXWmqQ=", "properties": {"ref": "https://www.rei.com/stores/san-carlos.html", "@spider": "rei", "addr:full": "1119 Industrial Rd, Suite A", "addr:city": "San Carlos", "addr:state": "CA", "addr:postcode": "94070", "addr:country": "USA", "phone": "+16505082330", "website": "https://www.rei.com/stores/san-carlos.html", "opening_hours": "Mo-Fr 10:00-21:00;Sa 10:00-19:00;Su 10:00-19:00"}, "geometry": {"type": "Point", "coordinates": [-122.2479, 37.5036]}},
{"type": "Feature", "id": "iLkZZSKwbMr55Qx7sTTiyVrmDw0=", "properties": {"ref": "https://www.rei.com/stores/marina.html", "@spider": "rei", "addr:full": "145 General Stilwell Dr", "addr:city": "Marina", "addr:state": "CA", "addr:postcode": "93933", "addr:country": "USA", "phone": "+18318838048", "website": "https://www.rei.com/stores/marina.html", "opening_hours": "Mo-Fr 10:00-21:00;Sa 10:00-19:00;Su 10:00-18:00"}, "geometry": {"type": "Point", "coordinates": [-121.8095, 36.6675]}},
{"type": "Feature", "id": "Xhm2QWHhO6vIh52SegjV8ucm2c8=", "properties": {"ref": "https://www.rei.com/stores/maple-grove.html", "@spider": "rei", "addr:full": "11581 Fountains Drive, The Fountains", "addr:city": "Maple Grove", "addr:state": "MN", "addr:postcode": "55369", "addr:country": "USA", "phone": "+17634937861", "website": "https://www.rei.com/stores/maple-grove.html", "opening_hours": "Mo-Fr 10:00-21:00;Sa 10:00-21:00;Su 10:00-18:00"}, "geometry": {"type": "Point", "coordinates": [-93.431, 45.0941]}},
{"type": "Feature", "id": "qPL-vHdgKm-jw9l_e8axv7jxgzc=", "properties": {"ref": "https://www.rei.com/stores/winter-park.html", "@spider": "rei", "addr:full": "430 Orlando Ave", "addr:city": "Winter Park", "addr:state": "FL", "addr:postcode": "32789", "addr:country": "USA", "phone": "+14076470731", "website": "https://www.rei.com/stores/winter-park.html", "opening_hours": "Mo-Fr 09:00-20:00;Sa 09:00-20:00;Su 09:00-19:00"}, "geometry": {"type": "Point", "coordinates": [-81.3638, 28.6009]}},
{"type": "Feature", "id": "TObNsVsoAoXIXy79H3gwF12ecYQ=", "properties": {"ref": "https://www.rei.com/stores/king-of-prussia.html", "@spider": "rei", "addr:full": "161 Town Square Pl", "addr:city": "King of Prussia", "addr:state": "PA", "addr:postcode": "19406", "addr:country": "USA", "phone": "+14842311703", "website": "https://www.rei.com/stores/king-of-prussia.html", "opening_hours": "Mo-Fr 10:00-21:00;Sa 10:00-21:00;Su 11:00-18:00"}, "geometry": {"type": "Point", "coordinates": [-75.4048, 40.0828]}},
{"type": "Feature", "id": "wrlkAtOrDYJnhw1NQiyHEDrjWkE=", "properties": {"ref": "https://www.rei.com/stores/farmington.html", "@spider": "rei", "addr:full": "220 N Station Pkwy", "addr:city": "Farmington", "addr:state": "UT", "addr:postcode": "84025", "addr:country": "USA", "phone": "+18019231707", "website": "https://www.rei.com/stores/farmington.html", "opening_hours": "Mo-Fr 10:00-20:00;Sa 10:00-20:00;Su 11:00-18:00"}, "geometry": {"type": "Point", "coordinates": [-111.9031, 40.9848]}},
{"type": "Feature", "id": "K-yQ1OpjBKuIzulRxvYfL_vk94k=", "properties": {"ref": "https://www.rei.com/stores/albuquerque.html", "@spider": "rei", "addr:full": "1550 Mercantile Ave NE", "addr:city": "Albuquerque", "addr:state": "NM", "addr:postcode": "87107", "addr:country": "USA", "phone": "+15052471191", "website": "https://www.rei.com/stores/albuquerque.html", "opening_hours": "Mo-Fr 10:00-21:00;Sa 10:00-18:00;Su 10:00-18:00"}, "geometry": {"type": "Point", "coordinates": [-106.6086, 35.1353]}},
{"type": "Feature", "id": "szjCL768VtIDGSwzHe2C6Q8ucmo=", "properties": {"ref": "https://www.rei.com/stores/castleton.html", "@spider": "rei", "addr:full": "8490 Castleton Corner Dr", "addr:city": "Indianapolis", "addr:state": "IN", "addr:postcode": "46250", "addr:country": "USA", "phone": "+13175851938", "website": "https://www.rei.com/stores/castleton.html", "opening_hours": "Mo-Fr 10:00-21:00;Sa 10:00-21:00;Su 11:00-18:00"}, "geometry": {"type": "Point", "coordinates": [-86.0727, 39.9109]}},
{"type": "Feature", "id": "T2hyDPTN-7JjFoQokseIBYE4Ta8=", "properties": {"ref": "https://www.rei.com/stores/fresno.html", "@spider": "rei", "addr:full": "7810 N Blackstone Ave", "addr:city": "Fresno", "addr:state": "CA", "addr:postcode": "93720", "addr:country": "USA", "phone": "+15592614168", "website": "https://www.rei.com/stores/fresno.html", "opening_hours": "Mo-Fr 10:00-21:00;Sa 10:00-21:00;Su 10:00-18:00"}, "geometry": {"type": "Point", "coordinates": [-119.7901, 36.8487]}},
{"type": "Feature", "id": "Dbk4vQ4aTDPbWzvjpVqmAJAsHwM=", "properties": {"ref": "https://www.rei.com/stores/tacoma.html", "@spider": "rei", "addr:full": "3825 S Steele St", "addr:city": "Tacoma", "addr:state": "WA", "addr:postcode": "98409", "addr:country": "USA", "phone": "+12536711938", "website": "https://www.rei.com/stores/tacoma.html", "opening_hours": "Mo-Fr 10:00-21:00;Sa 10:00-20:00;Su 10:00-18:00"}, "geometry": {"type": "Point", "coordinates": [-122.4676, 47.2218]}},
{"type": "Feature", "id": "rcyuu4mbB4hvPbse9bpIW8lu3pI=", "properties": {"ref": "https://www.rei.com/stores/alpharetta.html", "@spider": "rei", "addr:full": "7531 North Point Pkwy", "addr:city": "Alpharetta", "addr:state": "GA", "addr:postcode": "30022", "addr:country": "USA", "phone": "+17709982622", "website": "https://www.rei.com/stores/alpharetta.html", "opening_hours": "Sa 09:00-20:00;Mo-Fr 09:00-20:00;Su 10:00-19:00"}, "geometry": {"type": "Point", "coordinates": [-84.3055, 34.0422]}},
{"type": "Feature", "id": "tUQMN4jpq-n0dDNZR0Lz_WibkSY=", "properties": {"ref": "https://www.rei.com/stores/plano.html", "@spider": "rei", "addr:full": "2424 Preston Rd", "addr:city": "Plano", "addr:state": "TX", "addr:postcode": "75093", "addr:country": "USA", "phone": "+19729852241", "website": "https://www.rei.com/stores/plano.html", "opening_hours": "Mo-Fr 10:00-21:00;Sa 10:00-19:00;Su 11:00-18:00"}, "geometry": {"type": "Point", "coordinates": [-96.795, 33.0311]}},
{"type": "Feature", "id": "MbniQMK7FJEkTT6pGlZokHlDZc0=", "properties": {"ref": "https://www.rei.com/stores/woodland-hills.html", "@spider": "rei", "addr:full": "6220 Topanga Canyon Blvd", "addr:city": "Woodland Hills", "addr:state": "CA", "addr:postcode": "91367", "addr:country": "USA", "phone": "+18187035300", "website": "https://www.rei.com/stores/woodland-hills.html", "opening_hours": "Sa 10:00-21:00;Mo-Fr 10:00-21:00;Su 11:00-20:00"}, "geometry": {"type": "Point", "coordinates": [-118.6054, 34.1834]}},
{"type": "Feature", "id": "F3FnY69QRUldBPFQuTb81ug9LRw=", "properties": {"ref": "https://www.rei.com/stores/cleveland.html", "@spider": "rei", "addr:full": "411 Park Ave, Suite 143", "addr:city": "Beachwood", "addr:state": "OH", "addr:postcode": "44122", "addr:country": "USA", "phone": "+12165919770", "website": "https://www.rei.com/stores/cleveland.html", "opening_hours": "Mo-Fr 10:00-21:00;Sa 10:00-21:00;Su 11:00-18:00"}, "geometry": {"type": "Point", "coordinates": [-81.4869, 41.4513]}},
{"type": "Feature", "id": "FD4Jts-17lf5xKxpk-2BXUz9t20=", "properties": {"ref": "https://www.rei.com/stores/billings.html", "@spider": "rei", "addr:full": "711 Henry Chapple St.", "addr:city": "Billings", "addr:state": "MT", "addr:postcode": "59106", "addr:country": "USA", "phone": "+14065003075", "website": "https://www.rei.com/stores/billings.html", "opening_hours": "Mo-Fr 10:00-20:00;Sa 10:00-19:00;Su 10:00-18:00"}, "geometry": {"type": "Point", "coordinates": [-108.6191, 45.7561]}},
{"type": "Feature", "id": "a_yMkjBDA6Rb7FQ1Kw0AlMBqjoE=", "properties": {"ref": "https://www.rei.com/stores/san-diego.html", "@spider": "rei", "addr:full": "5556 Copley Dr, Kearny Mesa", "addr:city": "San Diego", "addr:state": "CA", "addr:postcode": "92111", "addr:country": "USA", "phone": "+18582794400", "website": "https://www.rei.com/stores/san-diego.html", "opening_hours": "Mo-Fr 09:00-21:00;Sa 09:00-20:00;Su 10:00-19:00"}, "geometry": {"type": "Point", "coordinates": [-117.1611, 32.8379]}},
{"type": "Feature", "id": "Hm-5Nh8B0xM70C0aUVw58ey3kao=", "properties": {"ref": "https://www.rei.com/stores/concord.html", "@spider": "rei", "addr:full": "1975 Diamond Blvd, Ste B100, The Willows Shopping Center", "addr:city": "Concord", "addr:state": "CA", "addr:postcode": "94520", "addr:country": "USA", "phone": "+19258259400", "website": "https://www.rei.com/stores/concord.html", "opening_hours": "Mo-Fr 10:00-21:00;Sa 10:00-19:00;Su 10:00-18:00"}, "geometry": {"type": "Point", "coordinates": [-122.0551, 37.9706]}},
{"type": "Feature", "id": "0zSk5uGxyS35ckXrcJlPd0okXqM=", "properties": {"ref": "https://www.rei.com/stores/manhattan-beach.html", "@spider": "rei", "addr:full": "1800 Rosecrans Ave , Ste E", "addr:city": "Manhattan Beach", "addr:state": "CA", "addr:postcode": "90266", "addr:country": "USA", "phone": "+13107270728", "website": "https://www.rei.com/stores/manhattan-beach.html", "opening_hours": "Mo-Fr 10:00-21:00;Sa 10:00-21:00;Su 10:00-19:00"}, "geometry": {"type": "Point", "coordinates": [-118.3796, 33.9012]}},
{"type": "Feature", "id": "23jYgPtfONz4hChyKyxlIdhQDPs=", "properties": {"ref": "https://www.rei.com/stores/burbank.html", "@spider": "rei", "addr:full": "1900 W Empire Ave", "addr:city": "Burbank", "addr:state": "CA", "addr:postcode": "91504", "addr:country": "USA", "phone": "+18188479509", "website": "https://www.rei.com/stores/burbank.html", "opening_hours": "Mo-Fr 10:00-21:00;Sa 10:00-21:00;Su 10:00-19:00"}, "geometry": {"type": "Point", "coordinates": [-118.3319, 34.1912]}},
{"type": "Feature", "id": "luVhxoQxbAsmbuKA3tcWmhE6QXc=", "properties": {"ref": "https://www.rei.com/stores/tucson.html", "@spider": "rei", "addr:full": "160 W Wetmore Rd", "addr:city": "Tucson", "addr:state": "AZ", "addr:postcode": "85705", "addr:country": "USA", "phone": "+15208871938", "website": "https://www.rei.com/stores/tucson.html", "opening_hours": "Mo-Fr 10:00-21:00;Sa 10:00-20:00;Su 10:00-18:00"}, "geometry": {"type": "Point", "coordinates": [-110.9735, 32.2877]}},
{"type": "Feature", "id": "9pjnoRcjoPDuM_F0CmdHCLtR2d0=", "properties": {"ref": "https://www.rei.com/stores/west-des-moines.html", "@spider": "rei", "addr:full": "5901 Mills Civic Pkwy, Ste 4100", "addr:city": "West Des Moines", "addr:state": "IA", "addr:postcode": "50266", "addr:country": "USA", "phone": "+15152211938", "website": "https://www.rei.com/stores/west-des-moines.html", "opening_hours": "Sa 10:00-21:00;Mo-Fr 10:00-21:00;Su 11:00-18:00"}, "geometry": {"type": "Point", "coordinates": [-93.7873, 41.56]}},
{"type": "Feature", "id": "Zar-773sCN_9Jb8vpU1KnVNZ04w=", "properties": {"ref": "https://www.rei.com/stores/williston.html", "@spider": "rei", "addr:full": "244 Retail Way", "addr:city": "Williston", "addr:state": "VT", "addr:postcode": "05495", "addr:country": "USA", "phone": "+18023163120", "website": "https://www.rei.com/stores/williston.html", "opening_hours": "Mo-Fr 09:00-20:00;Sa 09:00-20:00;Su 10:00-18:00"}, "geometry": {"type": "Point", "coordinates": [-73.1155, 44.444]}},
{"type": "Feature", "id": "27ctHOJhuvhf8UbzJVIwk0RoChA=", "properties": {"ref": "https://www.rei.com/stores/atlanta.html", "@spider": "rei", "addr:full": "1800 Northeast Expy NE", "addr:city": "Atlanta", "addr:state": "GA", "addr:postcode": "30329", "addr:country": "USA", "phone": "+14046336508", "website": "https://www.rei.com/stores/atlanta.html", "opening_hours": "Mo-Fr 09:00-20:00;Sa 09:00-20:00;Su 10:00-19:00"}, "geometry": {"type": "Point", "coordinates": [-84.3211, 33.8398]}},
{"type": "Feature", "id": "QxfdqKm0fnrinnwzJqDq8K8vIiE=", "properties": {"ref": "https://www.rei.com/stores/alderwood.html", "@spider": "rei", "addr:full": "3000 184th St SW, Ste 952", "addr:city": "Lynnwood", "addr:state": "WA", "addr:postcode": "98037", "addr:country": "USA", "phone": "+14256406200", "website": "https://www.rei.com/stores/alderwood.html", "opening_hours": "Mo-Fr 10:00-21:00;Sa 10:00-21:00;Su 11:00-19:00"}, "geometry": {"type": "Point", "coordinates": [-122.2734, 47.8318]}},
{"type": "Feature", "id": "G_YX7xQrGUt5t_78ZFGdCSZb6IU=", "properties": {"ref": "https://www.rei.com/stores/rockville.html", "@spider": "rei", "addr:full": "910 Rose Avenue", "addr:city": "North Bethesda", "addr:state": "MD", "addr:postcode": "20852", "addr:country": "USA", "phone": "+13017701751", "website": "https://www.rei.com/stores/rockville.html", "opening_hours": "Mo-Fr 10:00-21:00;Sa 09:00-21:00;Su 11:00-19:00"}, "geometry": {"type": "Point", "coordinates": [-77.1159, 39.0511]}},
{"type": "Feature", "id": "uaVJZsbfp-VJ9Z-hvzGeYE2Tusg=", "properties": {"ref": "https://www.rei.com/stores/boca-raton.html", "@spider": "rei", "addr:full": "9560 Glades Road, Suite 165", "addr:city": "Boca Raton", "addr:state": "FL", "addr:postcode": "33434", "addr:country": "USA", "phone": "+15612083705", "website": "https://www.rei.com/stores/boca-raton.html", "opening_hours": "Mo-Fr 10:00-21:00;Sa 10:00-21:00;Su 10:00-19:00"}, "geometry": {"type": "Point", "coordinates": [-80.1953, 26.3679]}},
{"type": "Feature", "id": "6VfXGLUtCfsZwZL-ckE8W5BDXWg=", "properties": {"ref": "https://www.rei.com/stores/washington-dc.html", "@spider": "rei", "addr:full": "201 M Street NE", "addr:city": "Washington", "addr:state": "DC", "addr:postcode": "20002", "addr:country": "USA", "phone": "+12025432040", "website": "https://www.rei.com/stores/washington-dc.html", "opening_hours": "Mo-Fr 10:00-21:00;Sa 10:00-21:00;Su 10:00-18:00"}, "geometry": {"type": "Point", "coordinates": [-77.0028, 38.9053]}},
{"type": "Feature", "id": "NAvNzN8REpXkh8YTUXMZxjyCrCI=", "properties": {"ref": "https://www.rei.com/stores/tampa.html", "@spider": "rei", "addr:full": "1152 Assembly Drive", "addr:city": "Tampa", "addr:state": "FL", "addr:postcode": "33607", "addr:country": "USA", "phone": "+18135824091", "website": "https://www.rei.com/stores/tampa.html", "opening_hours": "Mo-Fr 09:00-20:00;Sa 09:00-20:00;Su 10:00-19:00"}, "geometry": {"type": "Point", "coordinates": [-82.5044, 27.9533]}},
{"type": "Feature", "id": "2qDeHRzMdHIHzkJ7dh-g_ILKo-c=", "properties": {"ref": "https://www.rei.com/stores/san-francisco.html", "@spider": "rei", "addr:full": "840 Brannan St", "addr:city": "San Francisco", "addr:state": "CA", "addr:postcode": "94103", "addr:country": "USA", "phone": "+14159341938", "website": "https://www.rei.com/stores/san-francisco.html", "opening_hours": "Mo-Fr 10:00-21:00;Sa 10:00-20:00;Su 10:00-19:00"}, "geometry": {"type": "Point", "coordinates": [-122.4041, 37.7724]}},
{"type": "Feature", "id": "E5lA2UkOFswaRMKcvrP0VFfzNWw=", "properties": {"ref": "https://www.rei.com/stores/sacramento.html", "@spider": "rei", "addr:full": "1790 Expo Pkwy", "addr:city": "Sacramento", "addr:state": "CA", "addr:postcode": "95815", "addr:country": "USA", "phone": "+19169248900", "website": "https://www.rei.com/stores/sacramento.html", "opening_hours": "Mo-Fr 10:00-21:00;Sa 10:00-18:00;Su 10:00-18:00"}, "geometry": {"type": "Point", "coordinates": [-121.4498, 38.5983]}},
{"type": "Feature", "id": "1HtyaXtsNJbBctlgA0bl4YmbS_k=", "properties": {"ref": "https://www.rei.com/stores/bloomington.html", "@spider": "rei", "addr:full": "750 W American Blvd", "addr:city": "Bloomington", "addr:state": "MN", "addr:postcode": "55420", "addr:country": "USA", "phone": "+19528844315", "website": "https://www.rei.com/stores/bloomington.html", "opening_hours": "Mo-Fr 10:00-21:00;Sa 10:00-21:00;Su 10:00-18:00"}, "geometry": {"type": "Point", "coordinates": [-93.2892, 44.8601]}},
{"type": "Feature", "id": "ps3yHPP3JTlfqjLU2hR1lFyhEZM=", "properties": {"ref": "https://www.rei.com/stores/vernon-hills.html", "@spider": "rei", "addr:full": "901 N. Milwaukee Ave., Unit 100", "addr:city": "Vernon Hills", "addr:state": "IL", "addr:postcode": "60061", "addr:country": "USA", "phone": "+18475730356", "website": "https://www.rei.com/stores/vernon-hills.html", "opening_hours": "Mo-Fr 10:00-21:00;Sa 10:00-21:00;Su 10:00-18:00"}, "geometry": {"type": "Point", "coordinates": [-87.9438, 42.2433]}},
{"type": "Feature", "id": "iluj8qLq3s9m8gDIw08ECAa-Ogc=", "properties": {"ref": "https://www.rei.com/stores/lakewood.html", "@spider": "rei", "addr:full": "5375 S Wadsworth Blvd", "addr:city": "Lakewood", "addr:state": "CO", "addr:postcode": "80123", "addr:country": "USA", "phone": "+13039320600", "website": "https://www.rei.com/stores/lakewood.html", "opening_hours": "Mo-Fr 10:00-21:00;Sa 10:00-21:00;Su 10:00-19:00"}, "geometry": {"type": "Point", "coordinates": [-105.0913, 39.6189]}},
{"type": "Feature", "id": "8wL4JYfoJ8L2xdy2hkh9fNnuI2c=", "properties": {"ref": "https://www.rei.com/stores/houston-galleria.html", "@spider": "rei", "addr:full": "7538 Westheimer Rd", "addr:city": "Houston", "addr:state": "TX", "addr:postcode": "77063", "addr:country": "USA", "phone": "+17133532582", "website": "https://www.rei.com/stores/houston-galleria.html", "opening_hours": "Mo-Fr 10:00-21:00;Sa 10:00-20:00;Su 10:00-18:00"}, "geometry": {"type": "Point", "coordinates": [-95.5019, 29.7384]}},
{"type": "Feature", "id": "ThOas5ppATmh-v5qzAN8uyVBKW4=", "properties": {"ref": "https://www.rei.com/stores/fairbanks.html", "@spider": "rei", "addr:full": "19 College Rd, Unit A", "addr:city": "Fairbanks", "addr:state": "AK", "addr:postcode": "99701", "addr:country": "USA", "phone": "+19074565161", "website": "https://www.rei.com/stores/fairbanks.html", "opening_hours": "Mo-Fr 10:00-20:00;Sa 10:00-19:00;Su 10:00-18:00"}, "geometry": {"type": "Point", "coordinates": [-147.7033, 64.8497]}},
{"type": "Feature", "id": "Or7mHPniZPagbHKq_oiaYEiU_T0=", "properties": {"ref": "https://www.rei.com/stores/knoxville.html", "@spider": "rei", "addr:full": "6700 Papermill Drive", "addr:city": "Knoxville", "addr:state": "TN", "addr:postcode": "37919", "addr:country": "USA", "phone": "+18655841938", "website": "https://www.rei.com/stores/knoxville.html", "opening_hours": "Mo-Fr 09:00-20:00;Sa 09:00-20:00;Su 10:00-18:00"}, "geometry": {"type": "Point", "coordinates": [-84.015, 35.9342]}},
{"type": "Feature", "id": "3DAwtFuhMEWrmTAXfh4NdFNqIYU=", "properties": {"ref": "https://www.rei.com/stores/seattle.html", "@spider": "rei", "addr:full": "222 Yale Ave N", "addr:city": "Seattle", "addr:state": "WA", "addr:postcode": "98109", "addr:country": "USA", "phone": "+12062231944", "website": "https://www.rei.com/stores/seattle.html", "opening_hours": "Mo-Fr 09:00-21:00;Sa 09:00-21:00;Su 10:00-19:00"}, "geometry": {"type": "Point", "coordinates": [-122.3299, 47.6203]}},
{"type": "Feature", "id": "xgXG797YytT20GILKWmcxyim5XY=", "properties": {"ref": "https://www.rei.com/stores/dillon.html", "@spider": "rei", "addr:full": "306 Dillon Ridge Rd", "addr:city": "Dillon", "addr:state": "CO", "addr:postcode": "80435", "addr:country": "USA", "phone": "+19704680161", "website": "https://www.rei.com/stores/dillon.html", "opening_hours": "Mo-Fr 09:00-19:00;Sa 09:00-19:00;Su 10:00-18:00"}, "geometry": {"type": "Point", "coordinates": [-106.0546, 39.6302]}},
{"type": "Feature", "id": "sWiCoEtSqTamXnN7_gh17oxi0XU=", "properties": {"ref": "https://www.rei.com/stores/clackamas.html", "@spider": "rei", "addr:full": "12160 SE 82nd Ave, Suite 3015", "addr:city": "Happy Valley", "addr:state": "OR", "addr:postcode": "97086", "addr:country": "USA", "phone": "+15036591156", "website": "https://www.rei.com/stores/clackamas.html", "opening_hours": "Mo-Fr 10:00-21:00;Sa 10:00-21:00;Su 11:00-19:00"}, "geometry": {"type": "Point", "coordinates": [-122.5716, 45.4336]}},
{"type": "Feature", "id": "IkqCB1ElquXwLd4a6bZKCSwzt9E=", "properties": {"ref": "https://www.rei.com/stores/rancho-cucamonga.html", "@spider": "rei", "addr:full": "12218 Foothill Blvd", "addr:city": "Rancho Cucamonga", "addr:state": "CA", "addr:postcode": "91739", "addr:country": "USA", "phone": "+19096468360", "website": "https://www.rei.com/stores/rancho-cucamonga.html", "opening_hours": "Mo-Fr 10:00-20:00;Sa 10:00-20:00;Su 10:00-19:00"}, "geometry": {"type": "Point", "coordinates": [-117.5382, 34.1074]}},
{"type": "Feature", "id": "Q08DI9jpWCcWNOn_iu9TXvATyes=", "properties": {"ref": "https://www.rei.com/stores/salt-lake-city.html", "@spider": "rei", "addr:full": "3285 E 3300 S", "addr:city": "Salt Lake City", "addr:state": "UT", "addr:postcode": "84109", "addr:country": "USA", "phone": "+18014862100", "website": "https://www.rei.com/stores/salt-lake-city.html", "opening_hours": "Mo-Fr 10:00-20:00;Sa 10:00-19:00;Su 10:00-18:00"}, "geometry": {"type": "Point", "coordinates": [-111.8013, 40.7001]}},
{"type": "Feature", "id": "5hu8zVI7f_zMkBaUNzlwj6yYilo=", "properties": {"ref": "https://www.rei.com/stores/santa-rosa.html", "@spider": "rei", "addr:full": "2715 Santa Rosa Ave", "addr:city": "Santa Rosa", "addr:state": "CA", "addr:postcode": "95407", "addr:country": "USA", "phone": "+17075409025", "website": "https://www.rei.com/stores/santa-rosa.html", "opening_hours": "Mo-Fr 10:00-21:00;Sa 10:00-20:00;Su 10:00-20:00"}, "geometry": {"type": "Point", "coordinates": [-122.7138, 38.4115]}},
{"type": "Feature", "id": "Y3Zbn4pvEA6-_l33l9JuTOq-Kc0=", "properties": {"ref": "https://www.rei.com/stores/kalispell.html", "@spider": "rei", "addr:full": "2270 Highway 93 North", "addr:city": "Kalispell", "addr:state": "MT", "addr:postcode": "59901", "addr:country": "USA", "phone": "+14067554839", "website": "https://www.rei.com/stores/kalispell.html", "opening_hours": "Mo-Fr 10:00-20:00;Sa 10:00-20:00;Su 10:00-18:00"}, "geometry": {"type": "Point", "coordinates": [-114.3332, 48.2319]}},
{"type": "Feature", "id": "CXODV1Gc52q3aCANEkMCd_zI6tU=", "properties": {"ref": "https://www.rei.com/stores/arcadia.html", "@spider": "rei", "addr:full": "214 N Santa Anita Ave", "addr:city": "Arcadia", "addr:state": "CA", "addr:postcode": "91006", "addr:country": "USA", "phone": "+16264471062", "website": "https://www.rei.com/stores/arcadia.html", "opening_hours": "Mo-Fr 10:00-21:00;Sa 10:00-20:00;Su 10:00-19:00"}, "geometry": {"type": "Point", "coordinates": [-118.031, 34.1425]}},
{"type": "Feature", "id": "_HROIrX5fmFaTszT-P7skmyRO1Y=", "properties": {"ref": "https://www.rei.com/stores/wichita.html", "@spider": "rei", "addr:full": "2774 N Greenwich Court", "addr:city": "Wichita", "addr:state": "KS", "addr:postcode": "67226", "addr:country": "USA", "phone": "+13167688865", "website": "https://www.rei.com/stores/wichita.html", "opening_hours": "Mo-Fr 10:00-21:00;Sa 10:00-21:00;Su 11:00-18:00"}, "geometry": {"type": "Point", "coordinates": [-97.2075, 37.7313]}},
{"type": "Feature", "id": "k2fvLcQsPHax1m2d80lyKCSihgc=", "properties": {"ref": "https://www.rei.com/stores/cranston.html", "@spider": "rei", "addr:full": "22 Chapel View Blvd", "addr:city": "Cranston", "addr:state": "RI", "addr:postcode": "02920", "addr:country": "USA", "phone": "+14012755250", "website": "https://www.rei.com/stores/cranston.html", "opening_hours": "Mo-Fr 10:00-21:00;Sa 09:00-20:00;Su 10:00-18:00"}, "geometry": {"type": "Point", "coordinates": [-71.4586, 41.7533]}},
{"type": "Feature", "id": "GjaoP7JZki4wZHUWKL69AbQHhk0=", "properties": {"ref": "https://www.rei.com/stores/tustin.html", "@spider": "rei", "addr:full": "2962 El Camino Real", "addr:city": "Tustin", "addr:state": "CA", "addr:postcode": "92782", "addr:country": "USA", "phone": "+17145050205", "website": "https://www.rei.com/stores/tustin.html", "opening_hours": "Mo-Fr 10:00-21:00;Sa 10:00-21:00;Su 10:00-20:00"}, "geometry": {"type": "Point", "coordinates": [-117.7954, 33.7217]}},
{"type": "Feature", "id": "kCov4sL0GsrIZUNHOjy8P3Hica0=", "properties": {"ref": "https://www.rei.com/stores/soho.html", "@spider": "rei", "addr:full": "303 Lafayette St", "addr:city": "New York", "addr:state": "NY", "addr:postcode": "10012", "addr:country": "USA", "phone": "+12126801938", "website": "https://www.rei.com/stores/soho.html", "opening_hours": "Mo-Fr 10:00-21:00;Sa 10:00-21:00;Su 10:00-19:00"}, "geometry": {"type": "Point", "coordinates": [-73.9955, 40.7247]}},
{"type": "Feature", "id": "DLNlEdfCM2IwaGcbvZPay8t_nQk=", "properties": {"ref": "https://www.rei.com/stores/hillsboro.html", "@spider": "rei", "addr:full": "2235 NE Allie Ave", "addr:city": "Hillsboro", "addr:state": "OR", "addr:postcode": "97124", "addr:country": "USA", "phone": "+15036176072", "website": "https://www.rei.com/stores/hillsboro.html", "opening_hours": "Mo-Fr 10:00-20:00;Sa 10:00-20:00;Su 11:00-18:00"}, "geometry": {"type": "Point", "coordinates": [-122.8775, 45.5368]}},
{"type": "Feature", "id": "LV8woNe4JtTL_EqO-bFNP6IHlK8=", "properties": {"ref": "https://www.rei.com/stores/reading.html", "@spider": "rei", "addr:full": "279 Salem St", "addr:city": "Reading", "addr:state": "MA", "addr:postcode": "01867", "addr:country": "USA", "phone": "+17819445103", "website": "https://www.rei.com/stores/reading.html", "opening_hours": "Mo-Fr 10:00-21:00;Sa 10:00-21:00;Su 10:00-18:00"}, "geometry": {"type": "Point", "coordinates": [-71.0867, 42.526]}},
{"type": "Feature", "id": "BkUlEzHSwItQq_B_U7i9eZ_BFXw=", "properties": {"ref": "https://www.rei.com/stores/san-luis-obispo.html", "@spider": "rei", "addr:full": "313 Madonna Road, Suite B", "addr:city": "San Luis Obispo", "addr:state": "CA", "addr:postcode": "93405", "addr:country": "USA", "phone": "+18053294670", "website": "https://www.rei.com/stores/san-luis-obispo.html", "opening_hours": "Mo-Fr 10:00-20:00;Sa 10:00-20:00;Su 10:00-18:00"}, "geometry": {"type": "Point", "coordinates": [-120.6776, 35.2608]}},
{"type": "Feature", "id": "SZpg2rPkH0vka7YZUPja194CFB0=", "properties": {"ref": "https://www.rei.com/stores/framingham.html", "@spider": "rei", "addr:full": "375 Cochituate Rd", "addr:city": "Framingham", "addr:state": "MA", "addr:postcode": "01701", "addr:country": "USA", "phone": "+15082706325", "website": "https://www.rei.com/stores/framingham.html", "opening_hours": "Mo-Fr 10:00-21:00;Sa 10:00-21:00;Su 10:00-18:00"}, "geometry": {"type": "Point", "coordinates": [-71.3949, 42.305]}},
{"type": "Feature", "id": "22q3PQiC8kDXP5mJYVPssF9vQw4=", "properties": {"ref": "https://www.rei.com/stores/greenville.html", "@spider": "rei", "addr:full": "1140 Woodruff Rd., Ste 400", "addr:city": "Greenville", "addr:state": "SC", "addr:postcode": "29607", "addr:country": "USA", "phone": "+18642970588", "website": "https://www.rei.com/stores/greenville.html", "opening_hours": "Mo-Fr 09:00-20:00;Sa 09:00-20:00;Su 10:00-19:00"}, "geometry": {"type": "Point", "coordinates": [-82.3011, 34.827]}},
{"type": "Feature", "id": "D_nDXDhDwYzHu0e4tspsbyn4OMk=", "properties": {"ref": "https://www.rei.com/stores/paramus.html", "@spider": "rei", "addr:full": "2200 Bergen Town Center", "addr:city": "Paramus", "addr:state": "NJ", "addr:postcode": "07652", "addr:country": "USA", "phone": "+12012261560", "website": "https://www.rei.com/stores/paramus.html", "opening_hours": "Mo-Fr 10:00-21:00;Sa 10:00-21:00;Su 10:00-10:00"}, "geometry": {"type": "Point", "coordinates": [-74.0548, 40.9139]}},
{"type": "Feature", "id": "8jQlpR6EZL1SWQxArsmOJoEZSiI=", "properties": {"ref": "https://www.rei.com/stores/east-hanover.html", "@spider": "rei", "addr:full": "280 NJ-10", "addr:city": "East Hanover", "addr:state": "NJ", "addr:postcode": "07936", "addr:country": "USA", "phone": "+19735811938", "website": "https://www.rei.com/stores/east-hanover.html", "opening_hours": "Mo-Fr 10:00-21:00;Sa 10:00-21:00;Su 10:00-19:00"}, "geometry": {"type": "Point", "coordinates": [-74.3695, 40.8067]}},
{"type": "Feature", "id": "PRE44xFH-1-zJQqrC-HJnn_Sk84=", "properties": {"ref": "https://www.rei.com/stores/raleigh.html", "@spider": "rei", "addr:full": "4291 The Circle at North Hills", "addr:city": "Raleigh", "addr:state": "NC", "addr:postcode": "27609", "addr:country": "USA", "phone": "+19195715031", "website": "https://www.rei.com/stores/raleigh.html", "opening_hours": "Mo-Fr 09:00-20:00;Sa 09:00-20:00;Su 10:00-19:00"}, "geometry": {"type": "Point", "coordinates": [-78.6433, 35.8375]}},
{"type": "Feature", "id": "toOQ-wzdtVTUNzRe6hcC-51AUNw=", "properties": {"ref": "https://www.rei.com/stores/ann-arbor.html", "@spider": "rei", "addr:full": "970 W Eisenhower Pkwy", "addr:city": "Ann Arbor", "addr:state": "MI", "addr:postcode": "48103", "addr:country": "USA", "phone": "+17348271938", "website": "https://www.rei.com/stores/ann-arbor.html", "opening_hours": "Mo-Fr 10:00-21:00;Sa 10:00-21:00;Su 11:00-18:00"}, "geometry": {"type": "Point", "coordinates": [-83.7586, 42.2464]}},
{"type": "Feature", "id": "IhovHid6eXccTLiym64zoBwcUi0=", "properties": {"ref": "https://www.rei.com/stores/st-louis.html", "@spider": "rei", "addr:full": "1703 S Brentwood Blvd", "addr:city": "St. Louis", "addr:state": "MO", "addr:postcode": "63144", "addr:country": "USA", "phone": "+13149181004", "website": "https://www.rei.com/stores/st-louis.html", "opening_hours": "Mo-Fr 10:00-21:00;Sa 09:00-21:00;Su 10:00-19:00"}, "geometry": {"type": "Point", "coordinates": [-90.3468, 38.626]}},
{"type": "Feature", "id": "MCUo25jYLARfCXSjMNbwrBmuKjc=", "properties": {"ref": "https://www.rei.com/stores/dublin.html", "@spider": "rei", "addr:full": "7099 Amador Plaza Road", "addr:city": "Dublin", "addr:state": "CA", "addr:postcode": "94568", "addr:country": "USA", "phone": "+19258289826", "website": "https://www.rei.com/stores/dublin.html", "opening_hours": "Mo-Fr 10:00-21:00;Sa 10:00-19:00;Su 10:00-18:00"}, "geometry": {"type": "Point", "coordinates": [-121.9287, 37.7066]}},
{"type": "Feature", "id": "o80np_klVYY7423P7HZThZIoLZQ=", "properties": {"ref": "https://www.rei.com/stores/oxnard.html", "@spider": "rei", "addr:full": "2700 Seaglass Way", "addr:city": "Oxnard", "addr:state": "CA", "addr:postcode": "93036", "addr:country": "USA", "phone": "+18059811938", "website": "https://www.rei.com/stores/oxnard.html", "opening_hours": "Mo-Fr 10:00-21:00;Sa 10:00-20:00;Su 10:00-19:00"}, "geometry": {"type": "Point", "coordinates": [-119.1764, 34.2391]}},
{"type": "Feature", "id": "zEx-2JqRky33sT4pEl-Lh6Kc65g=", "properties": {"ref": "https://www.rei.com/stores/timonium.html", "@spider": "rei", "addr:full": "63 W Aylesbury Rd", "addr:city": "Timonium", "addr:state": "MD", "addr:postcode": "21093", "addr:country": "USA", "phone": "+14102525920", "website": "https://www.rei.com/stores/timonium.html", "opening_hours": "Mo-Fr 10:00-21:00;Sa 10:00-20:00;Su 10:00-18:00"}, "geometry": {"type": "Point", "coordinates": [-76.6268, 39.4381]}},
{"type": "Feature", "id": "hdu5PTl4tR_hcLwWKFyhBopIoOU=", "properties": {"ref": "https://www.rei.com/stores/southlake.html", "@spider": "rei", "addr:full": "1011 East Southlake Blvd", "addr:city": "Southlake", "addr:state": "TX", "addr:postcode": "76092", "addr:country": "USA", "phone": "+18174160948", "website": "https://www.rei.com/stores/southlake.html", "opening_hours": "Sa 09:00-21:00;Mo-Fr 09:00-21:00;Su 11:00-19:00"}, "geometry": {"type": "Point", "coordinates": [-97.1358, 32.9402]}},
{"type": "Feature", "id": "fT8WKN-_jeuxaDO0f0PbH5ws6Rs=", "properties": {"ref": "https://www.rei.com/stores/missoula.html", "@spider": "rei", "addr:full": "3275 N Reserve St, Ste K-2", "addr:city": "Missoula", "addr:state": "MT", "addr:postcode": "59808", "addr:country": "USA", "phone": "+14065411938", "website": "https://www.rei.com/stores/missoula.html", "opening_hours": "Mo-Fr 10:00-20:00;Sa 10:00-19:00;Su 10:00-18:00"}, "geometry": {"type": "Point", "coordinates": [-114.0392, 46.8854]}},
{"type": "Feature", "id": "1ZBG398BHVv-GKKjGg46Isv8-d8=", "properties": {"ref": "https://www.rei.com/stores/oklahoma-city.html", "@spider": "rei", "addr:full": "1731 Belle Isle Blvd", "addr:city": "Oklahoma City", "addr:state": "OK", "addr:postcode": "73118", "addr:country": "USA", "phone": "+14056077226", "website": "https://www.rei.com/stores/oklahoma-city.html", "opening_hours": "Mo-Fr 09:00-21:00;Sa 09:00-21:00;Su 09:00-18:00"}, "geometry": {"type": "Point", "coordinates": [-97.5374, 35.5267]}},
{"type": "Feature", "id": "dXQGxDhW54-A5p1n_yJezRBNBls=", "properties": {"ref": "https://www.rei.com/stores/boulder.html", "@spider": "rei", "addr:full": "1789 28th St", "addr:city": "Boulder", "addr:state": "CO", "addr:postcode": "80301", "addr:country": "USA", "phone": "+13035839970", "website": "https://www.rei.com/stores/boulder.html", "opening_hours": "Mo-Fr 09:00-20:00;Sa 09:00-20:00;Su 10:00-19:00"}, "geometry": {"type": "Point", "coordinates": [-105.2594, 40.0192]}},
{"type": "Feature", "id": "i2lqZfo-VifJ4UJPqbFIQskYonA=", "properties": {"ref": "https://www.rei.com/stores/princeton.html", "@spider": "rei", "addr:full": "3371 US Highway 1, #34, Mercer Mall", "addr:city": "Lawrenceville", "addr:state": "NJ", "addr:postcode": "08648", "addr:country": "USA", "phone": "+16097501938", "website": "https://www.rei.com/stores/princeton.html", "opening_hours": "Sa 09:00-21:00;Mo-Fr 09:00-21:00;Su 09:00-19:00"}, "geometry": {"type": "Point", "coordinates": [-74.6848, 40.2968]}},
{"type": "Feature", "id": "v0zhWACDv7D3ep58amtwx-36ps0=", "properties": {"ref": "https://www.rei.com/stores/christiana.html", "@spider": "rei", "addr:full": "2300 Fashion Center Blvd", "addr:city": "Newark", "addr:state": "DE", "addr:postcode": "19702", "addr:country": "USA", "phone": "+13023691938", "website": "https://www.rei.com/stores/christiana.html", "opening_hours": "Sa 10:00-21:00;Mo-Fr 10:00-21:00;Su 11:00-18:00"}, "geometry": {"type": "Point", "coordinates": [-75.6495, 39.6736]}},
{"type": "Feature", "id": "25UYJQgK6Ae7J5V-3NcnFZJDdWc=", "properties": {"ref": "https://www.rei.com/stores/fort-worth.html", "@spider": "rei", "addr:full": "5924 Convair Drive", "addr:city": "Fort Worth", "addr:state": "TX", "addr:postcode": "76109", "addr:country": "USA", "phone": "+18177329539", "website": "https://www.rei.com/stores/fort-worth.html", "opening_hours": "Mo-Fr 10:00-21:00;Sa 10:00-21:00;Su 11:00-18:00"}, "geometry": {"type": "Point", "coordinates": [-97.4132, 32.6984]}},
{"type": "Feature", "id": "P7RNABl8qKXYRGaQ_WoDkVZOW20=", "properties": {"ref": "https://www.rei.com/stores/marlton.html", "@spider": "rei", "addr:full": "501 Rte 73 South", "addr:city": "Marlton", "addr:state": "NJ", "addr:postcode": "08053", "addr:country": "USA", "phone": "+18568101938", "website": "https://www.rei.com/stores/marlton.html", "opening_hours": "Mo-Fr 10:00-21:00;Sa 10:00-21:00;Su 11:00-18:00"}, "geometry": {"type": "Point", "coordinates": [-74.9234, 39.8801]}},
{"type": "Feature", "id": "rdbxKRG5pRRkGmVgJFNnMPqLyWY=", "properties": {"ref": "https://www.rei.com/stores/pittsburgh.html", "@spider": "rei", "addr:full": "412 S 27th St", "addr:city": "Pittsburgh", "addr:state": "PA", "addr:postcode": "15203", "addr:country": "USA", "phone": "+14124889410", "website": "https://www.rei.com/stores/pittsburgh.html", "opening_hours": "Mo-Fr 10:00-21:00;Sa 10:00-21:00;Su 11:00-18:00"}, "geometry": {"type": "Point", "coordinates": [-79.9656, 40.4284]}},
{"type": "Feature", "id": "G5-EAf-cFrFwK2Qqpk6ttYEcbxk=", "properties": {"ref": "https://www.rei.com/stores/buford.html", "@spider": "rei", "addr:full": "1600 Mall of Georgia Blvd, Ste 800", "addr:city": "Buford", "addr:state": "GA", "addr:postcode": "30519", "addr:country": "USA", "phone": "+17708310676", "website": "https://www.rei.com/stores/buford.html", "opening_hours": "Mo-Fr 09:00-20:00;Sa 09:00-20:00;Su 10:00-19:00"}, "geometry": {"type": "Point", "coordinates": [-83.9916, 34.0626]}},
{"type": "Feature", "id": "Wwj3LLA3m5prFZwX31R_2xd6dJc=", "properties": {"ref": "https://www.rei.com/stores/columbia.html", "@spider": "rei", "addr:full": "6100 Dobbin Rd, Ste B", "addr:city": "Columbia", "addr:state": "MD", "addr:postcode": "21045", "addr:country": "USA", "phone": "+14108721742", "website": "https://www.rei.com/stores/columbia.html", "opening_hours": "Mo-Fr 10:00-21:00;Sa 10:00-20:00;Su 10:00-18:00"}, "geometry": {"type": "Point", "coordinates": [-76.8112, 39.1981]}},
{"type": "Feature", "id": "IisJUPoNQOp4ikalqeDr2OZGILg=", "properties": {"ref": "https://www.rei.com/stores/henderson.html", "@spider": "rei", "addr:full": "2220 Village Walk Dr, Ste 150", "addr:city": "Henderson", "addr:state": "NV", "addr:postcode": "89052", "addr:country": "USA", "phone": "+17028967111", "website": "https://www.rei.com/stores/henderson.html", "opening_hours": "Mo-Fr 10:00-21:00;Sa 10:00-21:00;Su 10:00-19:00"}, "geometry": {"type": "Point", "coordinates": [-115.0844, 36.022]}},
{"type": "Feature", "id": "eCgGzzczJltUPhbuWPvINWBn7tM=", "properties": {"ref": "https://www.rei.com/stores/spokane.html", "@spider": "rei", "addr:full": "1125 N Monroe St", "addr:city": "Spokane", "addr:state": "WA", "addr:postcode": "99201", "addr:country": "USA", "phone": "+15093289900", "website": "https://www.rei.com/stores/spokane.html", "opening_hours": "Mo-Fr 10:00-20:00;Sa 09:00-19:00;Su 10:00-18:00"}, "geometry": {"type": "Point", "coordinates": [-117.4271, 47.6678]}},
{"type": "Feature", "id": "YppwjoLbYzSpW2uZAjOKzTKMrQA=", "properties": {"ref": "https://www.rei.com/stores/tukwila.html", "@spider": "rei", "addr:full": "240 Andover Park W", "addr:city": "Tukwila", "addr:state": "WA", "addr:postcode": "98188", "addr:country": "USA", "phone": "+12062481938", "website": "https://www.rei.com/stores/tukwila.html", "opening_hours": "Mo-Fr 10:00-20:00;Sa 10:00-20:00;Su 10:00-18:00"}, "geometry": {"type": "Point", "coordinates": [-122.254, 47.4574]}},
{"type": "Feature", "id": "-w5kSDBszVUDtqn3YQX4QjSiAQU=", "properties": {"ref": "https://www.rei.com/stores/cambridge.html", "@spider": "rei", "addr:full": "181 Morgan Ave #1", "addr:city": "Cambridge", "addr:state": "MA", "addr:postcode": "02141", "addr:country": "USA", "phone": "+17818273700", "website": "https://www.rei.com/stores/cambridge.html", "opening_hours": "Mo-Fr 11:00-19:00;Sa 11:00-19:00;Su 11:00-19:00"}, "geometry": {"type": "Point", "coordinates": [-71.0761, 42.3721]}},
{"type": "Feature", "id": "TiQsefqfOGo2bbrr0p95RZDZcvA=", "properties": {"ref": "https://www.rei.com/stores/encinitas.html", "@spider": "rei", "addr:full": "1590 Leucadia Blvd", "addr:city": "Encinitas", "addr:state": "CA", "addr:postcode": "92024", "addr:country": "USA", "phone": "+17609449020", "website": "https://www.rei.com/stores/encinitas.html", "opening_hours": "Mo-Fr 10:00-21:00;Sa 10:00-21:00;Su 10:00-20:00"}, "geometry": {"type": "Point", "coordinates": [-117.2626, 33.0677]}},
{"type": "Feature", "id": "V_AEyWNkdtMIyvPASJ_Puej8jcE=", "properties": {"ref": "https://www.rei.com/stores/santa-monica.html", "@spider": "rei", "addr:full": "402 Santa Monica Blvd", "addr:city": "Santa Monica", "addr:state": "CA", "addr:postcode": "90401", "addr:country": "USA", "phone": "+13104584370", "website": "https://www.rei.com/stores/santa-monica.html", "opening_hours": "Mo-Fr 10:00-21:00;Sa 10:00-20:00;Su 10:00-19:00"}, "geometry": {"type": "Point", "coordinates": [-118.4951, 34.0164]}},
{"type": "Feature", "id": "SHpRv39GC952J820MzfpCLfExS0=", "properties": {"ref": "https://www.rei.com/stores/pigeon-forge.html", "@spider": "rei", "addr:full": "2655 Teaster Lane, Suite  310", "addr:city": "Pigeon Forge", "addr:state": "TN", "addr:postcode": "37863", "addr:country": "USA", "phone": "+18653664310", "website": "https://www.rei.com/stores/pigeon-forge.html", "opening_hours": "Mo-Fr 10:00-20:00;Sa 10:00-20:00;Su 10:00-18:00"}, "geometry": {"type": "Point", "coordinates": [-83.5704, 35.8069]}},
{"type": "Feature", "id": "arP1v5T36SCWabrfWb1Z3QpZBhY=", "properties": {"ref": "https://www.rei.com/stores/santa-barbara.html", "@spider": "rei", "addr:full": "321 Anacapa St", "addr:city": "Santa Barbara", "addr:state": "CA", "addr:postcode": "93101", "addr:country": "USA", "phone": "+18055601938", "website": "https://www.rei.com/stores/santa-barbara.html", "opening_hours": "Mo-Fr 09:00-20:00;Sa 09:00-20:00;Su 10:00-19:00"}, "geometry": {"type": "Point", "coordinates": [-119.6929, 34.4162]}},
{"type": "Feature", "id": "LU3q1YSEvrD8Kk6Wzs1sPXIkkx4=", "properties": {"ref": "https://www.rei.com/stores/orland-park.html", "@spider": "rei", "addr:full": "15515 S 95th Ave", "addr:city": "Orland Park", "addr:state": "IL", "addr:postcode": "60462", "addr:country": "USA", "phone": "+17086758946", "website": "https://www.rei.com/stores/orland-park.html", "opening_hours": "Mo-Fr 10:00-21:00;Sa 10:00-21:00;Su 10:00-18:00"}, "geometry": {"type": "Point", "coordinates": [-87.8508, 41.6084]}},
{"type": "Feature", "id": "4S0zN2Fynrr7aTCv2C731J-Vosc=", "properties": {"ref": "https://www.rei.com/stores/perimeter.html", "@spider": "rei", "addr:full": "1165 Perimeter Ctr W, Ste 200", "addr:city": "Atlanta", "addr:state": "GA", "addr:postcode": "30338", "addr:country": "USA", "phone": "+17709019200", "website": "https://www.rei.com/stores/perimeter.html", "opening_hours": "Mo-Fr 09:00-20:00;Sa 09:00-20:00;Su 10:00-19:00"}, "geometry": {"type": "Point", "coordinates": [-84.3499, 33.9305]}},
{"type": "Feature", "id": "s7_-v9C8F8vz-4o8G0UAK_RIlnk=", "properties": {"ref": "https://www.rei.com/stores/grand-rapids.html", "@spider": "rei", "addr:full": "3149 28th St. SE", "addr:city": "Kentwood", "addr:state": "MI", "addr:postcode": "49512", "addr:country": "USA", "phone": "+16169401526", "website": "https://www.rei.com/stores/grand-rapids.html", "opening_hours": "Mo-Fr 10:00-21:00;Sa 10:00-21:00;Su 11:00-18:00"}, "geometry": {"type": "Point", "coordinates": [-85.5897, 42.9133]}},
{"type": "Feature", "id": "7T43nMAnRvYxkjaFCxCF4yOwM8Y=", "properties": {"ref": "https://www.rei.com/stores/westbrook.html", "@spider": "rei", "addr:full": "90 Rock Row, Suite 100", "addr:city": "Westbrook", "addr:state": "ME", "addr:postcode": "04092", "addr:country": "USA", "phone": "+12075912160", "website": "https://www.rei.com/stores/westbrook.html", "opening_hours": "Mo-Fr 10:00-21:00;Sa 10:00-21:00;Su 11:00-18:00"}, "geometry": {"type": "Point", "coordinates": [-70.3331, 43.676]}},
{"type": "Feature", "id": "oS_wNw5I1yHVB4uyQHPy_r0RTVw=", "properties": {"ref": "https://www.rei.com/stores/carle-place.html", "@spider": "rei", "addr:full": "144 Glen Cove Rd", "addr:city": "Carle Place", "addr:state": "NY", "addr:postcode": "11514", "addr:country": "USA", "phone": "+15168738540", "website": "https://www.rei.com/stores/carle-place.html", "opening_hours": "Mo-Fr 10:00-21:00;Sa 10:00-21:00;Su 10:00-19:00"}, "geometry": {"type": "Point", "coordinates": [-73.6176, 40.7444]}},
{"type": "Feature", "id": "lHuj_eD3b_MOkl-2TZrsFP0b8a4=", "properties": {"ref": "https://www.rei.com/stores/tualatin.html", "@spider": "rei", "addr:full": "7410 SW Bridgeport Rd", "addr:city": "Tigard", "addr:state": "OR", "addr:postcode": "97224", "addr:country": "USA", "phone": "+15036248600", "website": "https://www.rei.com/stores/tualatin.html", "opening_hours": "Mo-Fr 10:00-20:00;Sa 10:00-20:00;Su 10:00-18:00"}, "geometry": {"type": "Point", "coordinates": [-122.7523, 45.3944]}},
{"type": "Feature", "id": "YREzR0WClnhe-bzDTGsBojMAG_o=", "properties": {"ref": "https://www.rei.com/stores/santa-fe.html", "@spider": "rei", "addr:full": "500 Market St, Ste 100", "addr:city": "Santa Fe", "addr:state": "NM", "addr:postcode": "87501", "addr:country": "USA", "phone": "+15059823557", "website": "https://www.rei.com/stores/santa-fe.html", "opening_hours": "Mo-Fr 10:00-20:00;Sa 10:00-19:00;Su 10:00-18:00"}, "geometry": {"type": "Point", "coordinates": [-105.9483, 35.6835]}},
{"type": "Feature", "id": "dba70MOMDvmLas6_Jfu9ahFCXew=", "properties": {"ref": "https://www.rei.com/stores/birmingham.html", "@spider": "rei", "addr:full": "335 Summit Blvd", "addr:city": "Birmingham", "addr:state": "AL", "addr:postcode": "35243", "addr:country": "USA", "phone": "+12059671419", "website": "https://www.rei.com/stores/birmingham.html", "opening_hours": "Mo-Fr 09:00-20:00;Sa 09:00-20:00;Su 11:00-18:00"}, "geometry": {"type": "Point", "coordinates": [-86.7291, 33.4519]}},
{"type": "Feature", "id": "US-5QkUtwpUkFnz5_oEdQMaPwzU=", "properties": {"ref": "https://www.rei.com/stores/corte-madera.html", "@spider": "rei", "addr:full": "213 Corte Madera Town Ctr", "addr:city": "Corte Madera", "addr:state": "CA", "addr:postcode": "94925", "addr:country": "USA", "phone": "+14159271938", "website": "https://www.rei.com/stores/corte-madera.html", "opening_hours": "Mo-Fr 10:00-20:00;Sa 10:00-19:00;Su 10:00-18:00"}, "geometry": {"type": "Point", "coordinates": [-122.5182, 37.9284]}},
{"type": "Feature", "id": "a9kk9QH8wqqpvHqP_50HXZKKfS4=", "properties": {"ref": "https://www.rei.com/stores/kennesaw.html", "@spider": "rei", "addr:full": "740 Barrett Parkway, Ste 450", "addr:city": "Kennesaw", "addr:state": "GA", "addr:postcode": "30144-6860", "addr:country": "USA", "phone": "+17704254480", "website": "https://www.rei.com/stores/kennesaw.html", "opening_hours": "Mo-Fr 09:00-20:00;Sa 09:00-20:00;Su 10:00-19:00"}, "geometry": {"type": "Point", "coordinates": [-84.5719, 34.0075]}},
{"type": "Feature", "id": "ejTkWmjR5uUTP94Z3kCgdTnhS3I=", "properties": {"ref": "https://www.rei.com/stores/las-vegas-boca-park.html", "@spider": "rei", "addr:full": "710 S Rampart Blvd", "addr:city": "Las Vegas", "addr:state": "NV", "addr:postcode": "89145", "addr:country": "USA", "phone": "+17029514488", "website": "https://www.rei.com/stores/las-vegas-boca-park.html", "opening_hours": "Mo-Fr 10:00-21:00;Sa 10:00-21:00;Su 10:00-19:00"}, "geometry": {"type": "Point", "coordinates": [-115.2883, 36.1664]}},
{"type": "Feature", "id": "_efSzEOqG3XxcI2f2slLXXEKICY=", "properties": {"ref": "https://www.rei.com/stores/bellevue.html", "@spider": "rei", "addr:full": "410 116th Ave NE", "addr:city": "Bellevue", "addr:state": "WA", "addr:postcode": "98004", "addr:country": "USA", "phone": "+14254551938", "website": "https://www.rei.com/stores/bellevue.html", "opening_hours": "Mo-Fr 10:00-21:00;Sa 09:00-21:00;Su 10:00-19:00"}, "geometry": {"type": "Point", "coordinates": [-122.1844, 47.6134]}},
{"type": "Feature", "id": "RTcmc4E4A9HrEFqLQqo2oKWQF7s=", "properties": {"ref": "https://www.rei.com/stores/greenwood-village.html", "@spider": "rei", "addr:full": "9000 E Peakview Ave", "addr:city": "Greenwood Village", "addr:state": "CO", "addr:postcode": "80111", "addr:country": "USA", "phone": "+13032217759", "website": "https://www.rei.com/stores/greenwood-village.html", "opening_hours": "Mo-Fr 10:00-20:00;Sa 10:00-20:00;Su 10:00-19:00"}, "geometry": {"type": "Point", "coordinates": [-104.8858, 39.5978]}},
{"type": "Feature", "id": "as83UhgWbfVgfn8J7ur1bI_Jc7o=", "properties": {"ref": "https://www.rei.com/stores/lincoln-park.html", "@spider": "rei", "addr:full": "905 West Eastman St", "addr:city": "Chicago", "addr:state": "IL", "addr:postcode": "60642", "addr:country": "USA", "phone": "+13129516020", "website": "https://www.rei.com/stores/lincoln-park.html", "opening_hours": "Mo-Fr 10:00-21:00;Sa 09:00-21:00;Su 10:00-19:00"}, "geometry": {"type": "Point", "coordinates": [-87.6507, 41.9066]}},
{"type": "Feature", "id": "Sn0JdyIebe6CKLZlAPHBRIp6QKk=", "properties": {"ref": "https://www.rei.com/stores/bellingham.html", "@spider": "rei", "addr:full": "400 36th St", "addr:city": "Bellingham", "addr:state": "WA", "addr:postcode": "98225", "addr:country": "USA", "phone": "+13606478955", "website": "https://www.rei.com/stores/bellingham.html", "opening_hours": "Mo-Fr 10:00-20:00;Sa 10:00-20:00;Su 11:00-18:00"}, "geometry": {"type": "Point", "coordinates": [-122.4707, 48.731]}},
{"type": "Feature", "id": "qAQkgbaFT_dcnqk_Rc4Ggz3XoII=", "properties": {"ref": "https://www.rei.com/stores/reno.html", "@spider": "rei", "addr:full": "2225 Harvard Way", "addr:city": "Reno", "addr:state": "NV", "addr:postcode": "89502", "addr:country": "USA", "phone": "+17758289090", "website": "https://www.rei.com/stores/reno.html", "opening_hours": "Mo-Fr 10:00-20:30;Sa 10:00-18:00;Su 10:00-18:00"}, "geometry": {"type": "Point", "coordinates": [-119.7859, 39.5035]}},
{"type": "Feature", "id": "L2iXIiV8as8H9k7qZjGRrbOULyA=", "properties": {"ref": "https://www.rei.com/stores/chattanooga.html", "@spider": "rei", "addr:full": "2507 Lifestyle Way", "addr:city": "Chattanooga", "addr:state": "TN", "addr:postcode": "37421", "addr:country": "USA", "phone": "+14234851249", "website": "https://www.rei.com/stores/chattanooga.html", "opening_hours": "Mo-Fr 09:00-20:00;Sa 09:00-20:00;Su 10:00-18:00"}, "geometry": {"type": "Point", "coordinates": [-85.1524, 35.0433]}},
{"type": "Feature", "id": "O-7PGTKONhNeN08CDOGGRtqTecs=", "properties": {"ref": "https://www.rei.com/stores/huntington-beach.html", "@spider": "rei", "addr:full": "7777 Edinger Ave, Ste 138", "addr:city": "Huntington Beach", "addr:state": "CA", "addr:postcode": "92647", "addr:country": "USA", "phone": "+17143791938", "website": "https://www.rei.com/stores/huntington-beach.html", "opening_hours": "Mo-Fr 10:00-21:00;Sa 10:00-21:00;Su 10:00-19:00"}, "geometry": {"type": "Point", "coordinates": [-117.9933, 33.7306]}},
{"type": "Feature", "id": "Oj9YLn_yp9p6Eeneuo0B0TJKmls=", "properties": {"ref": "https://www.rei.com/stores/memphis.html", "@spider": "rei", "addr:full": "5897 Poplar Avenue", "addr:city": "Memphis", "addr:state": "TN", "addr:postcode": "38119", "addr:country": "USA", "phone": "+19016839173", "website": "https://www.rei.com/stores/memphis.html", "opening_hours": "Mo-Fr 09:00-20:00;Sa 09:00-20:00;Su 10:00-18:00"}, "geometry": {"type": "Point", "coordinates": [-89.8671, 35.1012]}},
{"type": "Feature", "id": "kKvYJMQEu21eDCnmQv9CwNLFvvw=", "properties": {"ref": "https://www.rei.com/stores/folsom.html", "@spider": "rei", "addr:full": "2425 Iron Pt Rd", "addr:city": "Folsom", "addr:state": "CA", "addr:postcode": "95630", "addr:country": "USA", "phone": "+19168178944", "website": "https://www.rei.com/stores/folsom.html", "opening_hours": "Mo-Fr 10:00-21:00;Sa 10:00-20:00;Su 10:00-19:00"}, "geometry": {"type": "Point", "coordinates": [-121.1218, 38.6453]}},
{"type": "Feature", "id": "M07V094UxpSF8udLNDlMGz3icRk=", "properties": {"ref": "https://www.rei.com/stores/chandler.html", "@spider": "rei", "addr:full": "870 N 54th St", "addr:city": "Chandler", "addr:state": "AZ", "addr:postcode": "85226", "addr:country": "USA", "phone": "+14809404006", "website": "https://www.rei.com/stores/chandler.html", "opening_hours": "Mo-Fr 10:00-21:00;Sa 09:00-19:00;Su 09:00-18:00"}, "geometry": {"type": "Point", "coordinates": [-111.9703, 33.317]}},
{"type": "Feature", "id": "6jwPOh_oPWiEFQ6GjhJ4HRaiQWc=", "properties": {"ref": "https://www.rei.com/stores/norwalk.html", "@spider": "rei", "addr:full": "189 Connecticut Ave", "addr:city": "Norwalk", "addr:state": "CT", "addr:postcode": "06854", "addr:country": "USA", "phone": "+12038381938", "website": "https://www.rei.com/stores/norwalk.html", "opening_hours": "Mo-Fr 10:00-21:00;Sa 10:00-21:00;Su 10:00-18:00"}, "geometry": {"type": "Point", "coordinates": [-73.433, 41.1038]}},
{"type": "Feature", "id": "LEZGtMwC8AveXrio4zEbs8F9_hY=", "properties": {"ref": "https://www.rei.com/stores/denver.html", "@spider": "rei", "addr:full": "1416 Platte St", "addr:city": "Denver", "addr:state": "CO", "addr:postcode": "80202", "addr:country": "USA", "phone": "+13037563100", "website": "https://www.rei.com/stores/denver.html", "opening_hours": "Mo-Fr 09:00-21:00;Sa 09:00-21:00;Su 09:00-19:00"}, "geometry": {"type": "Point", "coordinates": [-105.0093, 39.7558]}},
{"type": "Feature", "id": "hX6K9BUtUds9SDd8tH2S5j8D3eI=", "properties": {"ref": "https://www.rei.com/stores/grand-junction.html", "@spider": "rei", "addr:full": "925 Independent Ave", "addr:city": "Grand Junction", "addr:state": "CO", "addr:postcode": "81505", "addr:country": "USA", "phone": "+19702548970", "website": "https://www.rei.com/stores/grand-junction.html", "opening_hours": "Mo-Fr 09:00-20:00;Sa 09:00-18:00;Su 10:00-18:00"}, "geometry": {"type": "Point", "coordinates": [-108.5806, 39.0805]}},
{"type": "Feature", "id": "5UBodh0otl-VFBUC6R1j8fCFB8o=", "properties": {"ref": "https://www.rei.com/stores/boise.html", "@spider": "rei", "addr:full": "8300 W Emerald St", "addr:city": "Boise", "addr:state": "ID", "addr:postcode": "83704", "addr:country": "USA", "phone": "+12083221141", "website": "https://www.rei.com/stores/boise.html", "opening_hours": "Mo-Fr 10:00-20:00;Sa 10:00-19:00;Su 10:00-18:00"}, "geometry": {"type": "Point", "coordinates": [-116.2852, 43.6116]}},
{"type": "Feature", "id": "9hN5-AupjUXj-zQOpfrBzMuBPwE=", "properties": {"ref": "https://www.rei.com/stores/fremont.html", "@spider": "rei", "addr:full": "43962 Fremont Blvd", "addr:city": "Fremont", "addr:state": "CA", "addr:postcode": "94538", "addr:country": "USA", "phone": "+15106510305", "website": "https://www.rei.com/stores/fremont.html", "opening_hours": "Mo-Fr 10:00-21:00;Sa 10:00-21:00;Su 10:00-20:00"}, "geometry": {"type": "Point", "coordinates": [-121.9495, 37.5103]}},
{"type": "Feature", "id": "hUmWA3Ah7mC74kJBe4gan_SHX0k=", "properties": {"ref": "https://www.rei.com/stores/pineville.html", "@spider": "rei", "addr:full": "11067 Carolina Place Parkway", "addr:city": "Pineville", "addr:state": "NC", "addr:postcode": "28134", "addr:country": "USA", "phone": "+17043417405", "website": "https://www.rei.com/stores/pineville.html", "opening_hours": "Mo-Fr 09:00-20:00;Sa 09:00-20:00;Su 10:00-18:00"}, "geometry": {"type": "Point", "coordinates": [-80.8786, 35.0785]}},
{"type": "Feature", "id": "M88HJQB6KVyADatTGla5-GLrsSw=", "properties": {"ref": "https://www.rei.com/stores/cary.html", "@spider": "rei", "addr:full": "1751 Walnut St", "addr:city": "Cary", "addr:state": "NC", "addr:postcode": "27511", "addr:country": "USA", "phone": "+19194609995", "website": "https://www.rei.com/stores/cary.html", "opening_hours": "Mo-Fr 09:00-20:00;Sa 09:00-20:00;Su 11:00-18:00"}, "geometry": {"type": "Point", "coordinates": [-78.7451, 35.7642]}},
{"type": "Feature", "id": "mtI-wnprvEtl6AVFxgwO1uoC3nI=", "properties": {"ref": "https://www.rei.com/stores/bend.html", "@spider": "rei", "addr:full": "380 Powerhouse Dr", "addr:city": "Bend", "addr:state": "OR", "addr:postcode": "97702", "addr:country": "USA", "phone": "+15413850594", "website": "https://www.rei.com/stores/bend.html", "opening_hours": "Mo-Fr 10:00-20:00;Sa 10:00-20:00;Su 10:00-18:00"}, "geometry": {"type": "Point", "coordinates": [-121.3154, 44.0458]}},
{"type": "Feature", "id": "l1Xq0z84fVkFRqrdbacFppCQQc8=", "properties": {"ref": "https://www.rei.com/stores/north-conway.html", "@spider": "rei", "addr:full": "1498 White Mountain Hwy, C30", "addr:city": "North Conway", "addr:state": "NH", "addr:postcode": "03860", "addr:country": "USA", "phone": "+16033560475", "website": "https://www.rei.com/stores/north-conway.html", "opening_hours": "Mo-Fr 10:00-18:00;Sa 10:00-19:00;Su 10:00-18:00"}, "geometry": {"type": "Point", "coordinates": [-71.1161, 44.0188]}},
{"type": "Feature", "id": "EoiXncRjUflOm4JFRHdoW-OMVGU=", "properties": {"ref": "https://www.rei.com/stores/madison.html", "@spider": "rei", "addr:full": "7483 W Towne Way", "addr:city": "Madison", "addr:state": "WI", "addr:postcode": "53719", "addr:country": "USA", "phone": "+16088336680", "website": "https://www.rei.com/stores/madison.html", "opening_hours": "Mo-Fr 10:00-21:00;Sa 09:00-21:00;Su 10:00-18:00"}, "geometry": {"type": "Point", "coordinates": [-89.5119, 43.0574]}},
{"type": "Feature", "id": "RTurk4k35qKaMVZreiotIeuWpdI=", "properties": {"ref": "https://www.rei.com/stores/eugene.html", "@spider": "rei", "addr:full": "306 Lawrence St, Eugene Planing Mill Bldg", "addr:city": "Eugene", "addr:state": "OR", "addr:postcode": "97401", "addr:country": "USA", "phone": "+15414651800", "website": "https://www.rei.com/stores/eugene.html", "opening_hours": "Mo-Fr 10:00-20:00;Sa 10:00-19:00;Su 10:00-18:00"}, "geometry": {"type": "Point", "coordinates": [-123.0989, 44.0565]}},
{"type": "Feature", "id": "4Vm_kyh4QtsZfGZhVUCdXN10Cb4=", "properties": {"ref": "https://www.rei.com/stores/sandy.html", "@spider": "rei", "addr:full": "230 W 10600 S, Ste 1700", "addr:city": "Sandy", "addr:state": "UT", "addr:postcode": "84070", "addr:country": "USA", "phone": "+18015010850", "website": "https://www.rei.com/stores/sandy.html", "opening_hours": "Mo-Fr 10:00-20:00;Sa 10:00-20:00;Su 11:00-18:00"}, "geometry": {"type": "Point", "coordinates": [-111.8981, 40.5632]}},
{"type": "Feature", "id": "d7R6fiwqAr9VkJjHJ_9gIUbDaD4=", "properties": {"ref": "https://www.rei.com/stores/houston-baybrook.html", "@spider": "rei", "addr:full": "18750 Gulf Freeway", "addr:city": "Friendswood", "addr:state": "TX", "addr:postcode": "77546", "addr:country": "USA", "phone": "+12814880083", "website": "https://www.rei.com/stores/houston-baybrook.html", "opening_hours": "Mo-Fr 10:00-20:00;Sa 10:00-20:00;Su 10:00-18:00"}, "geometry": {"type": "Point", "coordinates": [-95.1511, 29.5473]}},
{"type": "Feature", "id": "3q9Nbm1TJr-XdYHgzIJesZpn5jk=", "properties": {"ref": "https://www.rei.com/stores/durham.html", "@spider": "rei", "addr:full": "6911 Fayetteville Rd, Ste 109", "addr:city": "Durham", "addr:state": "NC", "addr:postcode": "27713", "addr:country": "USA", "phone": "+19198063442", "website": "https://www.rei.com/stores/durham.html", "opening_hours": "Mo-Fr 09:00-20:00;Sa 09:00-20:00;Su 10:00-19:00"}, "geometry": {"type": "Point", "coordinates": [-78.9386, 35.9035]}},
{"type": "Feature", "id": "qkMJtAaq32AaDwVjPDNZ7o3V9V0=", "properties": {"ref": "https://www.rei.com/stores/charlotte.html", "@spider": "rei", "addr:full": "9755 Northlake Centre Pky", "addr:city": "Charlotte", "addr:state": "NC", "addr:postcode": "28216", "addr:country": "USA", "phone": "+17049210320", "website": "https://www.rei.com/stores/charlotte.html", "opening_hours": "Mo-Fr 09:00-20:00;Sa 09:00-20:00;Su 10:00-19:00"}, "geometry": {"type": "Point", "coordinates": [-80.8574, 35.3478]}},
{"type": "Feature", "id": "67fRbZQCTg3PygI-83TGkamLq6s=", "properties": {"ref": "https://www.rei.com/stores/roseville-mn.html", "@spider": "rei", "addr:full": "1955 County Rd B2 W, Schneiderman's Plaza", "addr:city": "Roseville", "addr:state": "MN", "addr:postcode": "55113", "addr:country": "USA", "phone": "+16516350211", "website": "https://www.rei.com/stores/roseville-mn.html", "opening_hours": "Mo-Fr 10:00-21:00;Sa 10:00-21:00;Su 10:00-18:00"}, "geometry": {"type": "Point", "coordinates": [-93.1814, 45.015]}},
{"type": "Feature", "id": "vP-gJOdXXJ4q0Ka3HNJl2bgw8pc=", "properties": {"ref": "https://www.rei.com/stores/berkeley.html", "@spider": "rei", "addr:full": "1338 San Pablo Ave", "addr:city": "Berkeley", "addr:state": "CA", "addr:postcode": "94702", "addr:country": "USA", "phone": "+15105274140", "website": "https://www.rei.com/stores/berkeley.html", "opening_hours": "Mo-Fr 10:00-21:00;Sa 10:00-20:00;Su 10:00-19:00"}, "geometry": {"type": "Point", "coordinates": [-122.2957, 37.8798]}},
{"type": "Feature", "id": "icQXIZjUu7rJSxaqRyyBIR7QkGI=", "properties": {"ref": "https://www.rei.com/stores/medford.html", "@spider": "rei", "addr:full": "85 Rossanley Drive", "addr:city": "Medford", "addr:state": "OR", "addr:postcode": "97501", "addr:country": "USA", "phone": "+15417321938", "website": "https://www.rei.com/stores/medford.html", "opening_hours": "Mo-Fr 10:00-21:00;Sa 09:00-20:00;Su 10:00-19:00"}, "geometry": {"type": "Point", "coordinates": [-122.882, 42.3431]}},
{"type": "Feature", "id": "HZpvtxWpm0pHFnPX1P78VBRX4ZI=", "properties": {"ref": "https://www.rei.com/stores/conshohocken-plymouth-meeting.html", "@spider": "rei", "addr:full": "200 W Ridge Pike, Ste 115", "addr:city": "Conshohocken", "addr:state": "PA", "addr:postcode": "19428", "addr:country": "USA", "phone": "+16109400809", "website": "https://www.rei.com/stores/conshohocken-plymouth-meeting.html", "opening_hours": "Mo-Fr 10:00-21:00;Sa 10:00-21:00;Su 11:00-18:00"}, "geometry": {"type": "Point", "coordinates": [-75.2899, 40.0948]}}]}