{"type":"FeatureCollection","features":[{"type": "Feature", "id": "mAcnPgYMolJoqu9UAmraDCea9XY=", "properties": {"ref": "14", "@spider": "ricoh_europe", "addr:full": "Landsberger Stra\u00dfe 9/2/Top 4", "addr:city": "St. P\u00f6lten", "addr:state": "Nieder\u00f6sterreich", "addr:postcode": "3100", "addr:country": "Austria", "name": "Ricoh Austria GmbH  - Nieder\u00f6sterreich", "phone": "05 74264 2300", "brand": "Ricoh"}, "geometry": {"type": "Point", "coordinates": [15.6333, 48.2]}},
{"type": "Feature", "id": "BCoh4-CHcBNdAMjiov30QVMzcgI=", "properties": {"ref": "15", "@spider": "ricoh_europe", "addr:full": "Obere Landstra\u00dfe 19", "addr:city": "Pucking", "addr:state": "Ober\u00f6sterreich", "addr:postcode": "4490", "addr:country": "Austria", "name": "Ricoh Austria GmbH  - Ober\u00f6sterreich", "phone": "05 74264 2400", "brand": "Ricoh"}, "geometry": {"type": "Point", "coordinates": [14.178874, 48.1853764]}},
{"type": "Feature", "id": "uJIm4ijn9DeLRsOeYYNA2Kux9-g=", "properties": {"ref": "16", "@spider": "ricoh_europe", "addr:full": "Siezenheimer Stra\u00dfe 35", "addr:city": "Salzburg", "addr:state": "Salzburg", "addr:postcode": "5020", "addr:country": "Austria", "name": "Ricoh Austria GmbH  - Salzburg", "phone": "05 74264 2500", "brand": "Ricoh"}, "geometry": {"type": "Point", "coordinates": [13.0100679, 47.8056722]}},
{"type": "Feature", "id": "82j6dXMN88Lb_FNQKp7bEkoDoBg=", "properties": {"ref": "17", "@spider": "ricoh_europe", "addr:full": "Weizerstrasse 14", "addr:city": "Gleisdorf", "addr:state": "Steiermark", "addr:postcode": "8200", "addr:country": "Austria", "name": "Ricoh Austria GmbH  - Steiermark", "phone": "0043 5 74264 2800", "brand": "Ricoh"}, "geometry": {"type": "Point", "coordinates": [15.7060728, 47.1077592]}},
{"type": "Feature", "id": "IXzZvbP6wULexMTwP_QmjKjNGbE=", "properties": {"ref": "18", "@spider": "ricoh_europe", "addr:full": "Grabenweg 68", "addr:city": "Innsbruck ", "addr:state": "Tirol", "addr:postcode": "6020", "addr:country": "Austria", "name": "Ricoh Austria GmbH  - Tirol ", "phone": "05 74264 2600", "brand": "Ricoh"}, "geometry": {"type": "Point", "coordinates": [11.4409818649292, 47.26518630981445]}},
{"type": "Feature", "id": "tEQhyVUNyIT3zqf2omvhBdSlmwU=", "properties": {"ref": "19", "@spider": "ricoh_europe", "addr:full": "Forachstra\u00dfe 39", "addr:city": "Dornbirn", "addr:state": "Vorarlberg", "addr:postcode": "6850", "addr:country": "Austria", "name": "Ricoh Austria GmbH  - Vorarlberg", "phone": "05 74264 2660", "brand": "Ricoh"}, "geometry": {"type": "Point", "coordinates": [9.7351894, 47.4270686]}},
{"type": "Feature", "id": "0D_vFsfedgrNljqJUaodReKNp3Y=", "properties": {"ref": "20", "@spider": "ricoh_europe", "addr:full": "Thomas-Klestil-Platz 13", "addr:city": "Vienna", "addr:state": "Wien", "addr:postcode": "1030", "addr:country": "Austria", "name": "Ricoh Austria GmbH  - Zentrale", "phone": "05 74264", "brand": "Ricoh"}, "geometry": {"type": "Point", "coordinates": [16.4112522, 48.1934994]}},
{"type": "Feature", "id": "SDBo8BMH41G8UmSAONDXFFSotUo=", "properties": {"ref": "21", "@spider": "ricoh_europe", "addr:full": "Medialaan 28A", "addr:city": "Vilvoorde", "addr:state": "Tous les r\u00e9gions", "addr:postcode": "1800", "addr:country": "Belgium", "name": "Ricoh Vilvoorde", "phone": "+32 (0)2 558 22 11", "brand": "Ricoh"}, "geometry": {"type": "Point", "coordinates": [4.4000675, 50.9151484]}},
{"type": "Feature", "id": "tpvATYeXRUM9KJ9UzNzTsa6kBYM=", "properties": {"ref": "23", "@spider": "ricoh_europe", "addr:full": "Unit 2510, The Quadrant, Aztec West, ", "addr:city": "Bristol", "addr:state": "South West", "addr:postcode": "BS32 4AQ", "addr:country": "United Kingdom", "name": "Ricoh - Bristol", "phone": "+44 1454615000", "brand": "Ricoh"}, "geometry": {"type": "Point", "coordinates": [-2.5710058, 51.5451869]}},
{"type": "Feature", "id": "LjMMOTGhBDjcQUEgwAdHTwwSoII=", "properties": {"ref": "28", "@spider": "ricoh_europe", "addr:full": "De Witbogt 22A", "addr:city": "Eindhoven", "addr:state": "Noord-Brabant", "addr:postcode": "5652 AG ", "addr:country": "Netherlands", "name": "Document Center Brabant", "phone": "040 -820 02 13", "brand": "Ricoh"}, "geometry": {"type": "Point", "coordinates": [5.43353, 51.432454]}},
{"type": "Feature", "id": "bG-oQzH8apczPAi8jqs9Z7jwDao=", "properties": {"ref": "32", "@spider": "ricoh_europe", "addr:full": "Lavendelheide 21", "addr:city": "Drachten", "addr:state": "Drenthe", "addr:postcode": "9202 PD", "addr:country": "Netherlands", "name": "Document Center Noord", "phone": "0850-685 090 ", "brand": "Ricoh"}, "geometry": {"type": "Point", "coordinates": [6.123384, 53.102588]}},
{"type": "Feature", "id": "Mv4iQZJLzEgUN_PnIG4wI5hE76o=", "properties": {"ref": "33", "@spider": "ricoh_europe", "addr:full": "Lavendelheide 21", "addr:city": "Drachten", "addr:state": "Friesland", "addr:postcode": "9202 PD", "addr:country": "Netherlands", "name": "Document Center Noord ", "phone": "0850-685 090", "brand": "Ricoh"}, "geometry": {"type": "Point", "coordinates": [6.123384, 53.102588]}},
{"type": "Feature", "id": "_7b-HezjVIJg54WdIuQV_wYK0ao=", "properties": {"ref": "51", "@spider": "ricoh_europe", "addr:full": "Wamberg 37", "addr:city": "Amsterdam", "addr:state": "Noord-Holland", "addr:postcode": "1083 CW", "addr:country": "Netherlands", "name": "Ricoh Business Center", "phone": "020 -7630840 ", "brand": "Ricoh"}, "geometry": {"type": "Point", "coordinates": [4.8836782, 52.3276348]}},
{"type": "Feature", "id": "F6L7jGjaXmr2grSvMntQlZIfT44=", "properties": {"ref": "53", "@spider": "ricoh_europe", "addr:full": "Unit 1 (Ground Floor), Greenwood Court, Skyliner Way, Bury St Edmunds, Suffolk", "addr:city": "Bury", "addr:state": "East of England", "addr:postcode": "IP32 7GY", "addr:country": "United Kingdom", "name": "Ricoh - Bury", "phone": "+44 \t1604666490", "brand": "Ricoh"}, "geometry": {"type": "Point", "coordinates": [0.7104932, 52.2429228]}},
{"type": "Feature", "id": "YOwtVJn1jxiIi7u6V0re0AYRgXg=", "properties": {"ref": "54", "@spider": "ricoh_europe", "addr:full": "Cardiff City Stadium, Leckwith Road", "addr:city": "Cardiff", "addr:state": "Wales", "addr:postcode": "CF11 8AZ", "addr:country": "United Kingdom", "name": "Ricoh - Cardiff", "phone": "+44 2920 642 590", "brand": "Ricoh"}, "geometry": {"type": "Point", "coordinates": [-3.2041312, 51.4729389]}},
{"type": "Feature", "id": "9POu-Ttmp4GRrADSZcT665WuyTo=", "properties": {"ref": "55", "@spider": "ricoh_europe", "addr:full": "7 Blenheim Court, Lustleigh Close, Marsh Barton", "addr:city": "Exeter", "addr:state": "South West", "addr:postcode": "EX2 8PW", "addr:country": "United Kingdom", "name": "Ricoh - Exeter", "phone": "+44 1392 823 880", "brand": "Ricoh"}, "geometry": {"type": "Point", "coordinates": [-3.5238941, 50.6993288]}},
{"type": "Feature", "id": "3cFe7r7t7zHp6eL_NNcNKkCkU9U=", "properties": {"ref": "56", "@spider": "ricoh_europe", "addr:full": "Unit 11 Bankside, The Watermark Gateshead", "addr:city": "Gateshead", "addr:state": "North East", "addr:postcode": "NE11 9SY", "addr:country": "United Kingdom", "name": "Ricoh - Gateshead", "phone": "+44 \t191 490 1048", "brand": "Ricoh"}, "geometry": {"type": "Point", "coordinates": [-1.587206, 54.9658487]}},
{"type": "Feature", "id": "CAvILnqc-kwuCkQbKu89p6lDtgE=", "properties": {"ref": "57", "@spider": "ricoh_europe", "addr:full": "Unit 4 Earl Haig Road, Earl Haid Road, Hillington,", "addr:city": "Glasgow", "addr:state": "Scotland", "addr:postcode": "G52 4JU", "addr:country": "United Kingdom", "name": "Ricoh - Glasgow", "phone": "+44 141 810 2400", "brand": "Ricoh"}, "geometry": {"type": "Point", "coordinates": [-4.3674655, 55.8593076]}},
{"type": "Feature", "id": "OW1qGeao3y5oatX44mLfpg4JrEs=", "properties": {"ref": "58", "@spider": "ricoh_europe", "addr:full": "Unit 2 Bothwell Business Park, Candymill Lane,", "addr:city": "Hamilton", "addr:state": "Scotland", "addr:postcode": "ML3 0FD", "addr:country": "United Kingdom", "name": "Ricoh - Hamilton", "phone": "+44 1698 477480", "brand": "Ricoh"}, "geometry": {"type": "Point", "coordinates": [-4.0573918, 55.7927811]}},
{"type": "Feature", "id": "W3X8NGkypLRmjD2s6zsgzRrVVZc=", "properties": {"ref": "59", "@spider": "ricoh_europe", "addr:full": "Units 1-9 Caresgate Road North", "addr:city": "Inverness", "addr:state": "Scotland", "addr:postcode": "IV9 8DU", "addr:country": "United Kingdom", "name": "Ricoh - Inverness", "phone": "+44 1463 710 798", "brand": "Ricoh"}, "geometry": {"type": "Point", "coordinates": [-4.243189, 57.487264]}},
{"type": "Feature", "id": "_xKZgFWb_KVRM84SNfEwEbvsliQ=", "properties": {"ref": "60", "@spider": "ricoh_europe", "addr:full": "Ricoh House, Angels Wing, Hunslet Road, Hunslet", "addr:city": "Leeds", "addr:state": "Yorkshire and the Humber", "addr:postcode": "LS10 1AF", "addr:country": "United Kingdom", "name": "Ricoh - Leeds", "phone": "+44 113 244 5050", "brand": "Ricoh"}, "geometry": {"type": "Point", "coordinates": [-1.5321953, 53.7843742]}},
{"type": "Feature", "id": "MWX3Gv04UHmDpglZiyUg9XadzC4=", "properties": {"ref": "61", "@spider": "ricoh_europe", "addr:full": "3 Meikle Road, Kirkton Campus", "addr:city": "Livingston", "addr:state": "Scotland", "addr:postcode": "EH54 7DE", "addr:country": "United Kingdom", "name": "Ricoh - Livingston", "phone": "+44 1506 412206", "brand": "Ricoh"}, "geometry": {"type": "Point", "coordinates": [-3.5330349, 55.8809187]}},
{"type": "Feature", "id": "AxwNj1lPsmtYc19F7Zrf9oJqa0U=", "properties": {"ref": "62", "@spider": "ricoh_europe", "addr:full": "22nd Floor, The Broadgate Tower, 20 Primrose Street", "addr:city": "London", "addr:state": "London", "addr:postcode": "EC2A 2EW", "addr:country": "United Kingdom", "name": "Ricoh - London - Broadgate Tower", "phone": "+44 207 655 0100", "brand": "Ricoh"}, "geometry": {"type": "Point", "coordinates": [-0.0793523, 51.5208225]}},
{"type": "Feature", "id": "qHrKCRJEA_7A5q4QO2uPiX8UUPE=", "properties": {"ref": "63", "@spider": "ricoh_europe", "addr:full": "Lenvale House Hollingworth Court Turkey Mill Ashford Road ", "addr:city": "Maidstone", "addr:state": "South East", "addr:postcode": "ME14 5PN", "addr:country": "United Kingdom", "name": "Ricoh - Maidstone", "phone": "+44 1622 675471", "brand": "Ricoh"}, "geometry": {"type": "Point", "coordinates": [0.5377306, 51.2716273]}},
{"type": "Feature", "id": "KGo75rBEuQOdMH7Zn1PYx4ksMw4=", "properties": {"ref": "64", "@spider": "ricoh_europe", "addr:full": "Ricoh House, Unit 2, Wells Place", "addr:city": "Merstham", "addr:state": "South East", "addr:postcode": "\tRH1 3LG", "addr:country": "United Kingdom", "name": "Ricoh - Merstham", "phone": "/", "brand": "Ricoh"}, "geometry": {"type": "Point", "coordinates": [-0.1548819, 51.2581706]}},
{"type": "Feature", "id": "yzwexuLVd2kg7JKD8BDcoHR5Vuo=", "properties": {"ref": "65", "@spider": "ricoh_europe", "addr:full": "300 & 800 Pavilion Drive, Northampton Business Park", "addr:city": "Northampton", "addr:state": "East Midlands", "addr:postcode": "NN4 7YL", "addr:country": "United Kingdom", "name": "Ricoh - Northampton", "phone": "+44 1604 814900", "brand": "Ricoh"}, "geometry": {"type": "Point", "coordinates": [-0.8793428, 52.2182452]}},
{"type": "Feature", "id": "TRer68I4akTjX4Aa-aPewKyL9tk=", "properties": {"ref": "66", "@spider": "ricoh_europe", "addr:full": "Unit 3 Block B Theale Lakes Business Park, Moulden Way", "addr:city": "Reading", "addr:state": "South East", "addr:postcode": "RG7 4GB", "addr:country": "United Kingdom", "name": "Ricoh - Reading", "phone": "+44 1189 833 893", "brand": "Ricoh"}, "geometry": {"type": "Point", "coordinates": [-1.0698788, 51.4250292]}},
{"type": "Feature", "id": "aXQi-EMBlH-plqd3BaKtXRzHiKw=", "properties": {"ref": "67", "@spider": "ricoh_europe", "addr:full": "Ricoh House, Tudor Road, Manor Park", "addr:city": "Runcorn", "addr:state": "North West", "addr:postcode": "WA7 1TA", "addr:country": "United Kingdom", "name": "Ricoh - Runcorn", "phone": "+44 1928 599 599", "brand": "Ricoh"}, "geometry": {"type": "Point", "coordinates": [-2.6760751, 53.3448208]}},
{"type": "Feature", "id": "5MYiL2hvWqbBnBgcViMC2Zf8rMQ=", "properties": {"ref": "68", "@spider": "ricoh_europe", "addr:full": "Forum 3, Solent Business Park, Whiteley, Fareham", "addr:city": "Southampton", "addr:state": "South East", "addr:postcode": "PO15 7FH", "addr:country": "United Kingdom", "name": "Ricoh - Southampton", "phone": "+44 1489 611800", "brand": "Ricoh"}, "geometry": {"type": "Point", "coordinates": [-1.2449356, 50.8780078]}},
{"type": "Feature", "id": "-sjo50Q0i7DJv594FLvKL38YojQ=", "properties": {"ref": "69", "@spider": "ricoh_europe", "addr:full": "West Wing, 2nd Floor, Building 3, Abbey View", "addr:city": "St Albans", "addr:state": "East of England", "addr:postcode": "AL1 2PS", "addr:country": "United Kingdom", "name": "Ricoh - St Albans", "phone": "+44 208 328 1000", "brand": "Ricoh"}, "geometry": {"type": "Point", "coordinates": [-0.343131, 51.7443097]}},
{"type": "Feature", "id": "IiodPXTDjA7E_vtpfYGZNi8kkBo=", "properties": {"ref": "70", "@spider": "ricoh_europe", "addr:full": "Watermans Business Park, 1 Kingsbury Crescent", "addr:city": "Livingston", "addr:state": "London", "addr:postcode": "TW18 3BA", "addr:country": "United Kingdom", "name": "Ricoh - Staines upon Thames", "phone": "+44 1784 416 900", "brand": "Ricoh"}, "geometry": {"type": "Point", "coordinates": [-0.5195987, 51.4336144]}},
{"type": "Feature", "id": "8WGloUa5SEDVNYmU7X1LEpknPvU=", "properties": {"ref": "71", "@spider": "ricoh_europe", "addr:full": "Priorslee", "addr:city": "Telford", "addr:state": "West Midlands", "addr:postcode": "TF2 9NS", "addr:country": "United Kingdom", "name": "Ricoh - Telford", "phone": "+44 1952 211100", "brand": "Ricoh"}, "geometry": {"type": "Point", "coordinates": [-2.4179271, 52.6814469]}},
{"type": "Feature", "id": "McLQwqYv1GlSCi1GoA850rQTBtA=", "properties": {"ref": "72", "@spider": "ricoh_europe", "addr:full": "1st Floor Unit 3, Glenthorne Court, Truro Business Park", "addr:city": "Truro", "addr:state": "South West", "addr:postcode": "TR4 9NY", "addr:country": "United Kingdom", "name": "Ricoh - Truro, Cornwall", "phone": "+44 1872 275 474", "brand": "Ricoh"}, "geometry": {"type": "Point", "coordinates": [-5.1230572, 50.2622063]}},
{"type": "Feature", "id": "THzTn1BGRjD-bT2bINBztGVjs1Q=", "properties": {"ref": "73", "@spider": "ricoh_europe", "addr:full": "70 Sinclair Drive, Park Farm Industrial Estate", "addr:city": "Wellingborough", "addr:state": "East Midlands", "addr:postcode": "NN8 6UY", "addr:country": "United Kingdom", "name": "Ricoh - Wellingborough", "phone": "+44 1933 676205", "brand": "Ricoh"}, "geometry": {"type": "Point", "coordinates": [-0.7358587, 52.3102235]}},
{"type": "Feature", "id": "wc04US9nQpZeqhQV8fzO3ORjxmY=", "properties": {"ref": "74", "@spider": "ricoh_europe", "addr:full": "General Wolfe House, 83 High Street", "addr:city": "Westerham", "addr:state": "South East", "addr:postcode": "TN16 1PG", "addr:country": "United Kingdom", "name": "Ricoh - Westerham", "phone": "/", "brand": "Ricoh"}, "geometry": {"type": "Point", "coordinates": [0.0677221, 51.2650558]}},
{"type": "Feature", "id": "AkdTBjdvd5RSudVcPdU2nMTwlbA=", "properties": {"ref": "75", "@spider": "ricoh_europe", "addr:full": "Ricoh Arena, Phoenix Way, Foleshill", "addr:city": "Coventry", "addr:state": "West Midlands", "addr:postcode": "CV6 6GE", "addr:country": "United Kingdom", "name": "Ricoh Arena Coventry", "phone": "+44 2476700800", "brand": "Ricoh"}, "geometry": {"type": "Point", "coordinates": [-1.497429, 52.4482668]}},
{"type": "Feature", "id": "vQ5233H4x4wCwIU8K5pbkV0hZVA=", "properties": {"ref": "76", "@spider": "ricoh_europe", "addr:full": "Atrium Business Park. Zone Industrielle de Bourmicht, 37 Rue du Puits Romain", "addr:city": "Bertrange", "addr:state": "Luxembourg", "addr:postcode": "8070", "addr:country": "Luxembourg", "name": "Ricoh Luxembourg", "phone": "+352 33 58 88", "brand": "Ricoh"}, "geometry": {"type": "Point", "coordinates": [6.079934, 49.607752]}},
{"type": "Feature", "id": "NcXe4r7_DCxLBH4jWlfKQxwQEOU=", "properties": {"ref": "98", "@spider": "ricoh_europe", "addr:full": "Oluf Palmes Alle 25B", "addr:city": "\u00c5rhus N", "addr:state": "Jylland", "addr:postcode": "8200", "addr:country": "Denmark", "name": "Ricoh Danmark A/S - \u00c5rhus N", "phone": "+4570106768", "brand": "Ricoh"}, "geometry": {"type": "Point", "coordinates": [10.18683, 56.188061]}},
{"type": "Feature", "id": "BYWo9tVe4hTpI_werDehpADx3Gc=", "properties": {"ref": "99", "@spider": "ricoh_europe", "addr:full": "Nordager 19", "addr:city": "Kolding", "addr:state": "Jylland", "addr:postcode": "6000", "addr:country": "Denmark", "name": "Ricoh Danmark A/S - Kolding", "phone": "+4570106768", "brand": "Ricoh"}, "geometry": {"type": "Point", "coordinates": [9.484857, 55.546268]}},
{"type": "Feature", "id": "mqaFccf7lJvPTTIbah7M7tsYjH0=", "properties": {"ref": "100", "@spider": "ricoh_europe", "addr:full": "Delta Park 37", "addr:city": "Vallensb\u00e6k Strand", "addr:state": "Sj\u00e6lland", "addr:postcode": "2665", "addr:country": "Denmark", "name": "Ricoh Danmark A/S - Vallensb\u00e6k Strand", "phone": "+4570106768", "brand": "Ricoh"}, "geometry": {"type": "Point", "coordinates": [12.387228, 55.628262]}},
{"type": "Feature", "id": "_6B9zo95crySpoMUNQzDad_hL6o=", "properties": {"ref": "136", "@spider": "ricoh_europe", "addr:full": "Konrad-Zuse-Ring 5-7", "addr:city": "M\u00f6nchengladbach", "addr:state": "Nordrhein-Westfalen", "addr:postcode": "41179", "addr:country": "Germany", "name": "IT Services - M\u00f6nchengladbach", "phone": "0049 21616550", "brand": "Ricoh"}, "geometry": {"type": "Point", "coordinates": [6.389943, 51.17107]}},
{"type": "Feature", "id": "oqPPR02pgHcv7kCAd9Gf4KVbH2o=", "properties": {"ref": "137", "@spider": "ricoh_europe", "addr:full": "Wilhelm-Schickard-Stra\u00dfe 2 ", "addr:city": "M\u00fcnster ", "addr:state": "Niedersachsen", "addr:postcode": "48149 ", "addr:country": "Germany", "name": "IT Services - M\u00fcnster", "phone": "0049 251921080 ", "brand": "Ricoh"}, "geometry": {"type": "Point", "coordinates": [7.594006, 51.975897]}},
{"type": "Feature", "id": "seGnHP4EO86ROfeC3y5QbYjKd2s=", "properties": {"ref": "149", "@spider": "ricoh_europe", "addr:full": "Otto-Hahn-Str. 20 ", "addr:city": "Aschheim/Dornach ", "addr:state": "Bayern", "addr:postcode": "85609", "addr:country": "Germany", "name": "Ricoh -  Business & Service Center Aschheim/Dornach ", "phone": "0049 899049930 ", "brand": "Ricoh"}, "geometry": {"type": "Point", "coordinates": [11.682543, 48.148723]}},
{"type": "Feature", "id": "KpHQMjiLSfQCt9VKVLqEIueEj7k=", "properties": {"ref": "150", "@spider": "ricoh_europe", "addr:full": "Oberrather Str. 6 ", "addr:city": "D\u00fcsseldorf  ", "addr:state": "Nordrhein-Westfalen", "addr:postcode": "40472", "addr:country": "Germany", "name": "Ricoh -  Business & Service Center D\u00fcsseldorf  ", "phone": "0049 211920820 ", "brand": "Ricoh"}, "geometry": {"type": "Point", "coordinates": [6.821329, 51.263368]}},
{"type": "Feature", "id": "uYx5TQgN9_bT6rlqSZhPJoJoAEA=", "properties": {"ref": "151", "@spider": "ricoh_europe", "addr:full": "Am Kaiserkai 1 ", "addr:city": "Hamburg ", "addr:state": "Hamburg", "addr:postcode": "20457", "addr:country": "Germany", "name": "Ricoh -  Business & Service Center Hamburg ", "phone": "0049 40532010 ", "brand": "Ricoh"}, "geometry": {"type": "Point", "coordinates": [9.99305, 53.541622]}},
{"type": "Feature", "id": "ivBOabK-_albUwCcPK4OuvrF0sE=", "properties": {"ref": "152", "@spider": "ricoh_europe", "addr:full": "Gutenbergstr. 6 + 8  ", "addr:city": "Neu-Isenburg", "addr:state": "Hessen", "addr:postcode": "63263", "addr:country": "Germany", "name": "Ricoh -  Business & Service Center Neu-Isenburg", "phone": "0049 610220230", "brand": "Ricoh"}, "geometry": {"type": "Point", "coordinates": [8.680376, 50.043623]}},
{"type": "Feature", "id": "0HPwZZeiPja8Ll9mOgquoinK5VY=", "properties": {"ref": "153", "@spider": "ricoh_europe", "addr:full": "Rheinstra\u00dfe 40 ", "addr:city": "N\u00fcrnberg ", "addr:state": "Bayern", "addr:postcode": "90451", "addr:country": "Germany", "name": "Ricoh -  Business & Service Center N\u00fcrnberg  ", "phone": "0049 911931780 ", "brand": "Ricoh"}, "geometry": {"type": "Point", "coordinates": [11.055146, 49.415609]}},
{"type": "Feature", "id": "Fg9Vsbr9GvEb_uwa51Lwohq7jqM=", "properties": {"ref": "154", "@spider": "ricoh_europe", "addr:full": "Sankt-Johannis-Str. 5 ", "addr:city": "Radolfzell ", "addr:state": "Baden-W\u00fcrttemberg", "addr:postcode": "78315", "addr:country": "Germany", "name": "Ricoh -  Business & Service Center Radolfzell ", "phone": "0049 773294400 ", "brand": "Ricoh"}, "geometry": {"type": "Point", "coordinates": [8.9714, 47.74036]}},
{"type": "Feature", "id": "m00CfGFyNQmR-6p-n4bubVtYqq0=", "properties": {"ref": "155", "@spider": "ricoh_europe", "addr:full": "Kesselstra\u00dfe 19 ", "addr:city": "Stuttgart ", "addr:state": "Baden-W\u00fcrttemberg", "addr:postcode": "70327", "addr:country": "Germany", "name": "Ricoh -  Business & Service Center Stuttgart ", "phone": "0049 71152890 ", "brand": "Ricoh"}, "geometry": {"type": "Point", "coordinates": [9.251029, 48.767223]}},
{"type": "Feature", "id": "P6drF2YYbHLO50_wTXFvatIVpNc=", "properties": {"ref": "156", "@spider": "ricoh_europe", "addr:full": "Rudower Chaussee 13 ", "addr:city": "Berlin ", "addr:state": "Berlin", "addr:postcode": "12489", "addr:country": "Germany", "name": "Ricoh - Business & Service Center Berlin ", "phone": "0049 303800090 ", "brand": "Ricoh"}, "geometry": {"type": "Point", "coordinates": [13.535609, 52.432227]}},
{"type": "Feature", "id": "NOynTDXHEkNsnxEIKKkt5TZhWAo=", "properties": {"ref": "157", "@spider": "ricoh_europe", "addr:full": "Torgauer Str. 231/233 ", "addr:city": "Leipzig ", "addr:state": "Sachsen", "addr:postcode": "04347 ", "addr:country": "Germany", "name": "Ricoh - Business & Service Center Leipzig", "phone": "0049 341908210 ", "brand": "Ricoh"}, "geometry": {"type": "Point", "coordinates": [12.446486, 51.362677]}},
{"type": "Feature", "id": "AtsaJc3cPCjjQtODRzwBt7yz9kg=", "properties": {"ref": "158", "@spider": "ricoh_europe", "addr:full": "\"Vahrenwalder Str. 315 ", "addr:city": "Hannover ", "addr:state": "Niedersachsen", "addr:postcode": "30179", "addr:country": "Germany", "name": "Ricoh - Hauptverwaltung & Business & Service Center ", "phone": "\"0049 51167420 ", "brand": "Ricoh"}, "geometry": {"type": "Point", "coordinates": [9.732107, 52.421332]}},
{"type": "Feature", "id": "a2-LMzrmT6yjBnmvQE3TQ9lXjQ4=", "properties": {"ref": "159", "@spider": "ricoh_europe", "addr:full": "Otto-Brenner-Stra\u00dfe 247 ", "addr:city": "Bielefeld ", "addr:state": "Nordrhein-Westfalen", "addr:postcode": "33604 ", "addr:country": "Germany", "name": "Ricoh - Sales Office", "phone": "0049 521520530 ", "brand": "Ricoh"}, "geometry": {"type": "Point", "coordinates": [8.560244, 52.004947]}},
{"type": "Feature", "id": "1UKSo4AUk9kqDrYff1hyRSEVGwE=", "properties": {"ref": "160", "@spider": "ricoh_europe", "addr:full": "Georg Kohl Stra\u00dfe 42 ", "addr:city": "Brackenheim ", "addr:state": "Baden-W\u00fcrttemberg", "addr:postcode": "74336 ", "addr:country": "Germany", "name": "Ricoh Document Center - Brackenheim   ", "phone": "0049 71359910", "brand": "Ricoh"}, "geometry": {"type": "Point", "coordinates": [9.067534, 49.079399]}},
{"type": "Feature", "id": "aMLRx9DoVwF7PsVHZp3vZ3xStz0=", "properties": {"ref": "195", "@spider": "ricoh_europe", "addr:full": "ul. \u017bwirki i Wigury 18A", "addr:city": "Warszawa", "addr:state": "woj. mazowieckie", "addr:postcode": "02-092", "addr:country": "Poland", "name": "RICOH POLSKA", "phone": "0048222561555", "brand": "Ricoh"}, "geometry": {"type": "Point", "coordinates": [20.9839954, 52.190134]}},
{"type": "Feature", "id": "AVjPhw8Ll-0TU-ca75pwZCjeyg0=", "properties": {"ref": "196", "@spider": "ricoh_europe", "addr:full": "ul. Ks. Bpa H. Bednorza 2A-6 (Bud.B-4)\u00a0", "addr:city": "Katowice", "addr:state": "woj. \u015bl\u0105skie", "addr:postcode": "40-384\u00a0", "addr:country": "Poland", "name": "RICOH POLSKA, Oddzia\u0142 Katowice", "phone": "(32) 251 82 12", "brand": "Ricoh"}, "geometry": {"type": "Point", "coordinates": [19.0939898, 50.2639339]}},
{"type": "Feature", "id": "IzNEuP98tK4jm7U3DDiNS-J4zWs=", "properties": {"ref": "197", "@spider": "ricoh_europe", "addr:full": "ul. Tkacka 65\u00a0", "addr:city": "Szczecin", "addr:state": "woj. zachodniopomorskie", "addr:postcode": "70-556", "addr:country": "Poland", "name": "RICOH POLSKA, Oddzia\u0142 Szczecin", "phone": "0048914646888", "brand": "Ricoh"}, "geometry": {"type": "Point", "coordinates": [14.5534698, 53.4275264]}},
{"type": "Feature", "id": "oB1lIef2_xVs_jCUMTDF4NgPg08=", "properties": {"ref": "198", "@spider": "ricoh_europe", "addr:full": "Al. Grunwaldzka 472C", "addr:city": "Gda\u0144sk", "addr:state": "woj. pomorskie", "addr:postcode": "80-309", "addr:country": "Poland", "name": "RICOH POLSKA, Oddzia\u0142 w Tr\u00f3jmie\u015bcie", "phone": "(58) 733 82 68", "brand": "Ricoh"}, "geometry": {"type": "Point", "coordinates": [18.570957, 54.403754]}},
{"type": "Feature", "id": "FFj1tt5IE4utfpb2zjesD4Zj_Hc=", "properties": {"ref": "199", "@spider": "ricoh_europe", "addr:full": "ul. Grabiszy\u0144ska 241F", "addr:city": "Wroc\u0142aw", "addr:state": "woj. dolno\u015bl\u0105skie", "addr:postcode": "53-234", "addr:country": "Poland", "name": "RICOH POLSKA, Oddzia\u0142 Wroc\u0142aw", "phone": "0048713390544", "brand": "Ricoh"}, "geometry": {"type": "Point", "coordinates": [16.9841209, 51.0968949]}},
{"type": "Feature", "id": "N7lxCqX2ALJph1L2Q6wtbtmszzs=", "properties": {"ref": "210", "@spider": "ricoh_europe", "addr:full": "Parc du Golf-Pichaury ZAC 750 Ave Guilibert de la Lauzi\u00e8re  B\u00e2timent 33 - CS10377", "addr:city": "Aix en Provence", "addr:state": "Provence-Alpes-C\u00f4te d'Azur", "addr:postcode": "13799", "addr:country": "France", "name": "Agence Aix en Provence", "phone": "337 621 841 01000", "brand": "Ricoh"}, "geometry": {"type": "Point", "coordinates": [5.4474270000000615, 43.529742]}},
{"type": "Feature", "id": "e4e5WCcgnhGQi29BXu86dxaB-Vo=", "properties": {"ref": "211", "@spider": "ricoh_europe", "addr:full": "14 av Roger Dumoulin ZI Longpr\u00e9", "addr:city": "Amiens", "addr:state": "Hauts-de-France", "addr:postcode": "80000", "addr:country": "France", "name": "Agence Amiens", "phone": "337 621 841 01059", "brand": "Ricoh"}, "geometry": {"type": "Point", "coordinates": [2.2957529999999906, 49.894067]}},
{"type": "Feature", "id": "QHTL7xTn8Kmez-ugIsqOgnMGRlw=", "properties": {"ref": "212", "@spider": "ricoh_europe", "addr:full": "27 Rue de Montbron", "addr:city": "Angoul\u00e8me", "addr:state": "Nouvelle-Aquitaine", "addr:postcode": "16000", "addr:country": "France", "name": "Agence Angoul\u00e8me", "phone": "337 621 841 00416", "brand": "Ricoh"}, "geometry": {"type": "Point", "coordinates": [0.15623690000006718, 45.648377]}},
{"type": "Feature", "id": "if3HVx3VdXzJAzo3zbbKHcmjBqE=", "properties": {"ref": "213", "@spider": "ricoh_europe", "addr:full": "15 av Albert Denis  ZA Les Fourneaux  Bat 1 Lot 1", "addr:city": "Angoulins", "addr:state": "Nouvelle-Aquitaine", "addr:postcode": "17690", "addr:country": "France", "name": "Agence Angoulins", "phone": "337 621 841 00382", "brand": "Ricoh"}, "geometry": {"type": "Point", "coordinates": [-1.1102610000000368, 46.10386589999999]}},
{"type": "Feature", "id": "favOj5s1W7rjV1Tmpr4Crsv2zTo=", "properties": {"ref": "214", "@spider": "ricoh_europe", "addr:full": "Centre d'Affaires du Port 6 rue de Porstrein", "addr:city": "Brest", "addr:state": "Bretagne", "addr:postcode": "29200", "addr:country": "France", "name": "Agence Brest", "phone": "/", "brand": "Ricoh"}, "geometry": {"type": "Point", "coordinates": [-4.4860760000000255, 48.390394]}},
{"type": "Feature", "id": "7K59jnKedSegoie1CkzTmZ5M7rI=", "properties": {"ref": "215", "@spider": "ricoh_europe", "addr:full": "5 Chemin des Presses  B\u00e2t B - Technopolis", "addr:city": "Cagnes sur mer", "addr:state": "Provence-Alpes-C\u00f4te d'Azur", "addr:postcode": "06890", "addr:country": "France", "name": "Agence Cagnes sur mer", "phone": "337 621 841 00556", "brand": "Ricoh"}, "geometry": {"type": "Point", "coordinates": [7.148820000000001, 43.663739]}},
{"type": "Feature", "id": "FGpVtmFFPh87vogOFTP7U7Qo0hM=", "properties": {"ref": "216", "@spider": "ricoh_europe", "addr:full": "Parc d'Activit\u00e9s de la Rigourdi\u00e8re IMM. B. Appollo 8 Rue de la Rigourdi\u00e8re", "addr:city": "Cesson S\u00e9vign\u00e9", "addr:state": "Bretagne", "addr:postcode": "35510", "addr:country": "France", "name": "Agence Cesson S\u00e9vign\u00e9", "phone": "337 621 841 00937", "brand": "Ricoh"}, "geometry": {"type": "Point", "coordinates": [-1.6029230000000325, 48.11947199999999]}},
{"type": "Feature", "id": "QU7iDshd27j625juwD8K1CJ7AsE=", "properties": {"ref": "217", "@spider": "ricoh_europe", "addr:full": "7 Rue Cataroux", "addr:city": "Clermont-Ferrand Cedex 2", "addr:state": "Auvergne-Rh\u00f4ne-Alpes", "addr:postcode": "63017", "addr:country": "France", "name": "Agence Clermont-Ferrand Cedex 2", "phone": "337 621 841 00887", "brand": "Ricoh"}, "geometry": {"type": "Point", "coordinates": [3.0870250000000397, 45.77722199999999]}},
{"type": "Feature", "id": "i--UZ0keFS8MIUiV2XG8N4MViFw=", "properties": {"ref": "218", "@spider": "ricoh_europe", "addr:full": "B\u00e2timent Olympus d'Effiscience, 9 Rue L\u00e9opold S\u00e9dar-Senghor", "addr:city": "Colombelles", "addr:state": "Basse-Normandie", "addr:postcode": "14460", "addr:country": "France", "name": "Agence Colombelles", "phone": "337 621 841 01125", "brand": "Ricoh"}, "geometry": {"type": "Point", "coordinates": [-0.30726, 49.187461]}},
{"type": "Feature", "id": "9bW-QVhLbj5tvzpudpMpu8VXykg=", "properties": {"ref": "219", "@spider": "ricoh_europe", "addr:full": "28 Milkyway Avenue", "addr:city": "Johannesburg", "addr:state": "All regions", "addr:postcode": "2090", "addr:country": "South Africa", "name": "Ricoh South Africa", "phone": " 0800 100 040 (Toll free in South Africa)", "brand": "Ricoh"}, "geometry": {"type": "Point", "coordinates": [28.1140714, -26.0712841]}},
{"type": "Feature", "id": "7VVZBpVIap-iXHKZ-ZCGgSq5J5U=", "properties": {"ref": "220", "@spider": "ricoh_europe", "addr:full": "Parc de Collines West Park B\u00e2timent B 2 avenue de Strasbourg", "addr:city": "Didenheim", "addr:state": "Grand Est", "addr:postcode": "68350", "addr:country": "France", "name": "Agence Didenheim", "phone": "337 621 841 01026", "brand": "Ricoh"}, "geometry": {"type": "Point", "coordinates": [7.302875999999969, 47.717881]}},
{"type": "Feature", "id": "q4uf65dUdkbNRZdQaeiqrLDC1GU=", "properties": {"ref": "221", "@spider": "ricoh_europe", "addr:full": "Parc Valmy 8 rue Jeanne Barret", "addr:city": "Dijon", "addr:state": "Bourgogne-Franche-Comt\u00e9", "addr:postcode": "21000", "addr:country": "France", "name": "Agence Dijon", "phone": "337 621 841 01067", "brand": "Ricoh"}, "geometry": {"type": "Point", "coordinates": [5.041479999999979, 47.322047]}},
{"type": "Feature", "id": "4SKXrY20hl-jFuOIoIAo1WXsoZ0=", "properties": {"ref": "222", "@spider": "ricoh_europe", "addr:full": "A\u00e9roparc Espace Plein Sud 3 Rue Icare CS 50166", "addr:city": "Entzheim", "addr:state": "Grand Est", "addr:postcode": "67960", "addr:country": "France", "name": "Agence Entzheim", "phone": "337 621 841 00911", "brand": "Ricoh"}, "geometry": {"type": "Point", "coordinates": [7.632306999999969, 48.536734]}},
{"type": "Feature", "id": "goUYRT3SYGZuwxyFXJBxhwVFPvA=", "properties": {"ref": "223", "@spider": "ricoh_europe", "addr:full": "Eurospace de Vinci- Alpespace BAT Neptune - 1er \u00e9tage Voie Albert Einstein", "addr:city": "Francin", "addr:state": "Auvergne-Rh\u00f4ne-Alpes", "addr:postcode": "73800", "addr:country": "France", "name": "Agence Francin", "phone": "337 621 841 00978", "brand": "Ricoh"}, "geometry": {"type": "Point", "coordinates": [6.0278107999999975, 45.50123500000001]}},
{"type": "Feature", "id": "Ha2LXUk01JrXCgCPlzF039Pf6Ig=", "properties": {"ref": "224", "@spider": "ricoh_europe", "addr:full": "ZAC La Liodi\u00e8re 5 Rue de la Flotti\u00e8re", "addr:city": "Jou\u00e9 Les Tours Cedex", "addr:state": "Centre-Val de Loire", "addr:postcode": "37305", "addr:country": "France", "name": "Agence Jou\u00e9 Les Tours Cedex", "phone": "337 621 841 00374", "brand": "Ricoh"}, "geometry": {"type": "Point", "coordinates": [0.661309899999992, 47.351861]}},
{"type": "Feature", "id": "OphBAYfdxWKW1Ky7QrtLaj1Svno=", "properties": {"ref": "225", "@spider": "ricoh_europe", "addr:full": "Lotissement du Parc LEINSTER  Parc du CONNEMARA 94 Rue du LEINSTER  - Bat C  BP 94214", "addr:city": "La Chapelle s/ Erdre", "addr:state": "Centre-Val de Loire", "addr:postcode": "44240", "addr:country": "France", "name": "Agence La Chapelle s/ Erdre", "phone": "337 621 841 01158", "brand": "Ricoh"}, "geometry": {"type": "Point", "coordinates": [-1.5506379999999353, 47.29957599999999]}},
{"type": "Feature", "id": "7HrGwf4SAEfT-cneCqakzWUF6QM=", "properties": {"ref": "226", "@spider": "ricoh_europe", "addr:full": "Les PLEIADES 417 Route de la Farlede", "addr:city": "La Garde", "addr:state": "Provence-Alpes-C\u00f4te d'Azur", "addr:postcode": "83130", "addr:country": "France", "name": "Agence La Garde", "phone": "337 621 841 01182", "brand": "Ricoh"}, "geometry": {"type": "Point", "coordinates": [6.017199000000005, 43.128777]}},
{"type": "Feature", "id": "GJx9DhWLbOb8tx3IV6NK6XFmxwk=", "properties": {"ref": "227", "@spider": "ricoh_europe", "addr:full": "Lake Park - Zac de l'Hers 308 All\u00e9e du Lac BP 67687", "addr:city": "Lab\u00e8ge", "addr:state": "Occitanie", "addr:postcode": "31670", "addr:country": "France", "name": "Agence Lab\u00e8ge", "phone": "337 621 841 00929", "brand": "Ricoh"}, "geometry": {"type": "Point", "coordinates": [1.528055600000016, 43.5367334]}},
{"type": "Feature", "id": "D2edIt315thKEhze2lQb8IFi1Fk=", "properties": {"ref": "228", "@spider": "ricoh_europe", "addr:full": "Le Mill\u00e9nium Rue Ir\u00e8ne Joliot Curie", "addr:city": "Lacroix Saint Ouen", "addr:state": "Hauts-de-France", "addr:postcode": "60610", "addr:country": "France", "name": "Agence Lacroix Saint Ouen", "phone": "337 621 841 01117", "brand": "Ricoh"}, "geometry": {"type": "Point", "coordinates": [2.7866579999999885, 49.35528499999999]}},
{"type": "Feature", "id": "XMXu06xXHOU4vgLuHMUW-kqrY6o=", "properties": {"ref": "229", "@spider": "ricoh_europe", "addr:full": "Parc d'activit\u00e9 P\u00e9gase Rue Galil\u00e9e", "addr:city": "Lannion", "addr:state": "Bretagne", "addr:postcode": "22300", "addr:country": "France", "name": "Agence Lannion", "phone": "337 621 841 01083", "brand": "Ricoh"}, "geometry": {"type": "Point", "coordinates": [-3.4591440000000375, 48.732084]}},
{"type": "Feature", "id": "15lQzG_o-m0fipGd1brl6S6mq78=", "properties": {"ref": "230", "@spider": "ricoh_europe", "addr:full": "Technopole de l'Universit\u00e9 28 Rue Xavier Bichat", "addr:city": "Le Mans Cedex 2", "addr:state": "Pays de la Loire", "addr:postcode": "72000", "addr:country": "France", "name": "Agence Le Mans Cedex 2", "phone": "337 621 841 01190", "brand": "Ricoh"}, "geometry": {"type": "Point", "coordinates": [0.1995560000000296, 48.00611000000001]}},
{"type": "Feature", "id": "O-6OfX7brSo3r34YwV-YRidbyuE=", "properties": {"ref": "270", "@spider": "ricoh_europe", "addr:full": "Thorm\u00f8hlens Gate 53D, 4 etg.", "addr:city": "Bergen", "addr:state": "Hordaland", "addr:postcode": "5006", "addr:country": "Norway", "name": "Ricoh Norge - Bergen", "phone": "+47 22 58 78 00", "brand": "Ricoh"}, "geometry": {"type": "Point", "coordinates": [5.330698, 60.380965]}},
{"type": "Feature", "id": "aJEFVnaWYIPm3HrvDM-ViB6BeZ4=", "properties": {"ref": "271", "@spider": "ricoh_europe", "addr:full": "Gr\u00e5terudveien 1, Eikhaugen N\u00e6ringspark", "addr:city": "Drammen", "addr:state": "Buskerud", "addr:postcode": "3036", "addr:country": "Norway", "name": "Ricoh Norge - Drammen og T\u00f8nsberg ", "phone": "+47 22 58 78 00", "brand": "Ricoh"}, "geometry": {"type": "Point", "coordinates": [10.247796, 59.697902]}},
{"type": "Feature", "id": "MY97L6bal7q-m73h4__O5S3nsDc=", "properties": {"ref": "272", "@spider": "ricoh_europe", "addr:full": "Wilbergjordet 1", "addr:city": "Fredrikstad", "addr:state": "\u00d8stfold", "addr:postcode": "1605", "addr:country": "Norway", "name": "Ricoh Norge - Fredrikstad", "phone": "+47 22 58 78 00", "brand": "Ricoh"}, "geometry": {"type": "Point", "coordinates": [10.951799, 59.222547]}},
{"type": "Feature", "id": "4L8QcjcPux1q6gHvYFjHlldLN-M=", "properties": {"ref": "273", "@spider": "ricoh_europe", "addr:full": "\u00c6girs vei 10", "addr:city": "Kristiansand", "addr:state": "Vest-Agder", "addr:postcode": "4632", "addr:country": "Norway", "name": "Ricoh Norge - Kristiansand", "phone": "+47 22 58 78 00", "brand": "Ricoh"}, "geometry": {"type": "Point", "coordinates": [8.029481, 58.154551]}},
{"type": "Feature", "id": "ZNryJNsFXmLwvu7Jt6RFvIjSB2I=", "properties": {"ref": "274", "@spider": "ricoh_europe", "addr:full": "Ingvald Ystg\u00e5rds vei 1", "addr:city": "Trondheim", "addr:state": "S\u00f8r-Tr\u00f8nderlag", "addr:postcode": "7047", "addr:country": "Norway", "name": "Ricoh Norge - Trondheim", "phone": " +47 22 58 78 00", "brand": "Ricoh"}, "geometry": {"type": "Point", "coordinates": [10.470132, 63.422016]}},
{"type": "Feature", "id": "fKRep6_ghTKE6crVkRyOUF9YOYY=", "properties": {"ref": "361", "@spider": "ricoh_europe", "addr:full": "\u043f\u0440. \u0410\u043b\u044c-\u0424\u0430\u0440\u0430\u0431\u0438, 7 \u0431\u043b\u043e\u043a 5\u0430, \u043e\u0444. 136, 5 \u044d\u0442\u0430\u0436, \u0411\u0426 \u041d\u0443\u0440\u043b\u044b \u0422\u0430\u0443", "addr:city": "\u0410\u043b\u043c\u0430\u0442\u044b", "addr:state": "\u041a\u0430\u0437\u0430\u0445\u0441\u0442\u0430\u043d", "addr:postcode": "50059", "addr:country": "Russia", "name": "\u0424\u0438\u043b\u0438\u0430\u043b \u041e\u041e\u041e \u0420\u0438\u043a\u043e \u0420\u0443\u0441 \u0426\u0435\u043d\u0442\u0440\u0430\u043b\u044c\u043d\u0430\u044f \u0410\u0437\u0438\u044f", "phone": "7(775)2439955", "brand": "Ricoh"}, "geometry": {"type": "Point", "coordinates": [76.947163, 43.230345]}},
{"type": "Feature", "id": "_rzqlXjh_1ycb4PF5UaSUxscOGA=", "properties": {"ref": "369", "@spider": "ricoh_europe", "addr:full": "Centre d'Affaires LE SIGNAL 2 Rue Ir\u00e8ne Joliot Curie", "addr:city": "Les Auxons", "addr:state": "Bourgogne-Franche-Comt\u00e9", "addr:postcode": "25870", "addr:country": "France", "name": "Agence Les Auxons", "phone": "337 621 841 01216", "brand": "Ricoh"}, "geometry": {"type": "Point", "coordinates": [5.9493453000000045, 47.3005089]}},
{"type": "Feature", "id": "nWJBDpp_2wNrE46-9vjugNpKUP8=", "properties": {"ref": "370", "@spider": "ricoh_europe", "addr:full": "Z.I. du Hellu 4 Rue Paul Langevin", "addr:city": "Lezennes", "addr:state": "Hauts-de-France", "addr:postcode": "59260", "addr:country": "France", "name": "Agence Lezennes", "phone": "337 621 841 00515", "brand": "Ricoh"}, "geometry": {"type": "Point", "coordinates": [3.1170549999999366, 50.61496400000001]}},
{"type": "Feature", "id": "Fmz3lH4SgJErsq7otKdMrMuwDK4=", "properties": {"ref": "371", "@spider": "ricoh_europe", "addr:full": "18 place Winston Churchill", "addr:city": "Limoges", "addr:state": "Nouvelle-Aquitaine", "addr:postcode": "87000", "addr:country": "France", "name": "Agence Limoges", "phone": "/", "brand": "Ricoh"}, "geometry": {"type": "Point", "coordinates": [1.2611050000000432, 45.83361900000001]}},
{"type": "Feature", "id": "4ES4JnYylQoxowP9soNKWmYcVTc=", "properties": {"ref": "372", "@spider": "ricoh_europe", "addr:full": "Parc St Jacques II 7 rue Paul Langevin", "addr:city": "Maxeville", "addr:state": "Grand Est", "addr:postcode": "54320", "addr:country": "France", "name": "Agence Maxeville", "phone": "337 621 841 00465", "brand": "Ricoh"}, "geometry": {"type": "Point", "coordinates": [6.165042999999969, 48.711211]}},
{"type": "Feature", "id": "UMqUIdXhsn5nv4Rj8aJiEaW16xI=", "properties": {"ref": "373", "@spider": "ricoh_europe", "addr:full": "Parc Technologique de la Vatine Le Soho 9 Rue Linus Carl Pauling", "addr:city": "Mont Saint Aignan", "addr:state": "Normandie", "addr:postcode": "76130", "addr:country": "France", "name": "Agence Mont Saint Aignan", "phone": "337 621 841 00358", "brand": "Ricoh"}, "geometry": {"type": "Point", "coordinates": [1.0797979999999825, 49.459778]}},
{"type": "Feature", "id": "UUslX92R5sO6we0GW7Vrp5KHRtc=", "properties": {"ref": "374", "@spider": "ricoh_europe", "addr:full": "1905 Route d'Arras", "addr:city": "Raillencourt Sainte-Olle", "addr:state": "Hauts-de-France", "addr:postcode": "59554", "addr:country": "France", "name": "Agence Raillencourt Sainte-Olle", "phone": "337 621 841 01208", "brand": "Ricoh"}, "geometry": {"type": "Point", "coordinates": [3.1686970000000656, 50.19059]}},
{"type": "Feature", "id": "EDQ7UaY8IeQ3kf3EYlwGfiYmzdk=", "properties": {"ref": "375", "@spider": "ricoh_europe", "addr:full": "109 Rue Edmond Rostand", "addr:city": "Reims", "addr:state": "Grand Est", "addr:postcode": "51100", "addr:country": "France", "name": "Agence Reims", "phone": "337 621 841 01174", "brand": "Ricoh"}, "geometry": {"type": "Point", "coordinates": [4.031696000000011, 49.258329]}},
{"type": "Feature", "id": "fyea9PyvZIneiInuYU-TScxJCXQ=", "properties": {"ref": "376", "@spider": "ricoh_europe", "addr:full": "7/9, avenue Robert Schuman", "addr:city": "Rungis", "addr:state": "\u00cele-de-France", "addr:postcode": "94150", "addr:country": "France", "name": "Agence Ricoh France", "phone": "0 892 012012", "brand": "Ricoh"}, "geometry": {"type": "Point", "coordinates": [2.3554476, 48.7469365]}},
{"type": "Feature", "id": "wOqeJl9iUwCeC334Cva3X90j26U=", "properties": {"ref": "377", "@spider": "ricoh_europe", "addr:full": "Hovedkontor Valle Wood", "addr:city": "Innspurten 13", "addr:state": "Oslo", "addr:postcode": "0663", "addr:country": "Norway", "name": "Ricoh Norge AS ", "phone": "0047 22 58 78 00", "brand": "Ricoh"}, "geometry": {"type": "Point", "coordinates": [10.806795720615042, 59.916939684430815]}},
{"type": "Feature", "id": "usZIlJdcHw9Qs1Qa5S61AQxJ0P8=", "properties": {"ref": "381", "@spider": "ricoh_europe", "addr:full": "ZA des Perches - Bat B4 10/12 All\u00e9e Irene Joliot Curie", "addr:city": "Saint Priest", "addr:state": "Auvergne-Rh\u00f4ne-Alpes", "addr:postcode": "69800", "addr:country": "France", "name": "Agence Saint Priest", "phone": "337 621 841 01075", "brand": "Ricoh"}, "geometry": {"type": "Point", "coordinates": [4.947071000000051, 45.698938]}},
{"type": "Feature", "id": "_pX2ZXFICsat2pBkVjL8LScvHKE=", "properties": {"ref": "382", "@spider": "ricoh_europe", "addr:full": "ZAC Les Sables de Sary 163 Rue des Sables de Sary", "addr:city": "Saran", "addr:state": "Centre-Val de Loire", "addr:postcode": "45770", "addr:country": "France", "name": "Agence Saran", "phone": "337 621 841 00408", "brand": "Ricoh"}, "geometry": {"type": "Point", "coordinates": [1.8807339999999613, 47.94791]}},
{"type": "Feature", "id": "IG-XCV1ujN1SJCu_6d6UDTccKFQ=", "properties": {"ref": "383", "@spider": "ricoh_europe", "addr:full": "Pelus Plaza  16 avenue de Pythagore B\u00e2t. 1 - Entr\u00e9e B - RDC", "addr:city": "M\u00e9rignac", "addr:state": "Nouvelle-Aquitaine", "addr:postcode": "33700", "addr:country": "France", "name": "Agency M\u00e9rignac", "phone": "337 621 841 01042", "brand": "Ricoh"}, "geometry": {"type": "Point", "coordinates": [-0.6563579999999547, 44.8448769]}},
{"type": "Feature", "id": "sk1ZzvjCumBtab8Kydgx2D1Afmg=", "properties": {"ref": "384", "@spider": "ricoh_europe", "addr:full": "1350 Rue Albert Einstein", "addr:city": "Montpellier", "addr:state": "Occitanie", "addr:postcode": "34000", "addr:country": "France", "name": "Agency Montpellier", "phone": "337 621 841 01166", "brand": "Ricoh"}, "geometry": {"type": "Point", "coordinates": [3.8767159999999876, 43.610769]}},
{"type": "Feature", "id": "oFjLcIJbljuvQ_d-32EMzjaU508=", "properties": {"ref": "395", "@spider": "ricoh_europe", "addr:full": "RUE BARTHELEMY CONSTESTIN", "addr:city": "FOURQUES", "addr:state": "Occitanie", "addr:postcode": "30300", "addr:country": "France", "name": "PARTENAIRE CAP SOLUTIONS", "phone": "+33820000371", "brand": "Ricoh"}, "geometry": {"type": "Point", "coordinates": [4.361724, 43.4146612]}},
{"type": "Feature", "id": "ujenrCrKQJgXi3EFAeymPsSjv2Y=", "properties": {"ref": "407", "@spider": "ricoh_europe", "addr:full": "14 QUAI DU CANAL", "addr:city": "ROANNE", "addr:state": "Auvergne-Rh\u00f4ne-Alpes", "addr:postcode": "42300", "addr:country": "France", "name": "PARTENAIRE IMAGE LASER COULEUR", "phone": "+33477680505", "brand": "Ricoh"}, "geometry": {"type": "Point", "coordinates": [4.58491, 46.239152]}},
{"type": "Feature", "id": "eEobx5Gr96byfxzoqxJPKMJsD1I=", "properties": {"ref": "421", "@spider": "ricoh_europe", "addr:full": "49 AVENUE JEAN JAURES", "addr:city": "CACHAN", "addr:state": "\u00cele-de-France", "addr:postcode": "94230", "addr:country": "France", "name": "PARTENAIRE PRO BUREAUTIQUE", "phone": "+33180915480", "brand": "Ricoh"}, "geometry": {"type": "Point", "coordinates": [2.1922498, 48.472647]}},
{"type": "Feature", "id": "Vn4xiXUlSqv06jm8JNTBOHGka_s=", "properties": {"ref": "431", "@spider": "ricoh_europe", "addr:full": "Ingarvsv\u00e4gen 1", "addr:city": " Falun", "addr:state": "Falun", "addr:postcode": "791 77", "addr:country": "Sweden", "name": "Ricoh IT Partner - Falun", "phone": "0046 010-177 12 80", "brand": "Ricoh"}, "geometry": {"type": "Point", "coordinates": [15.6030587, 60.6053798]}},
{"type": "Feature", "id": "KnYCjW6gNZjs3474YhaFoV9HcG4=", "properties": {"ref": "434", "@spider": "ricoh_europe", "addr:full": "Vasalidsv\u00e4gen 16", "addr:city": "Mora", "addr:state": "Mora", "addr:postcode": "792 23", "addr:country": "Sweden", "name": "Ricoh IT Partner - Mora", "phone": "0046 010-177 12 80", "brand": "Ricoh"}, "geometry": {"type": "Point", "coordinates": [14.5458966, 61.0156592]}},
{"type": "Feature", "id": "iLkTMXdwjaiCqgVtOqfu1N2nnr8=", "properties": {"ref": "436", "@spider": "ricoh_europe", "addr:full": "G\u00e4rdev\u00e4gen 5B", "addr:city": "Sundsvall", "addr:state": "Sundsvall", "addr:postcode": "856 50", "addr:country": "Sweden", "name": "Ricoh IT Partner - Sundsvall", "phone": "0046 010-177 12 80", "brand": "Ricoh"}, "geometry": {"type": "Point", "coordinates": [17.3492358, 62.4155427]}},
{"type": "Feature", "id": "WVv8zPT_w_Gt4tbh6lnLu1o9LWk=", "properties": {"ref": "443", "@spider": "ricoh_europe", "addr:full": "Ahjokatu 12", "addr:city": "Jyv\u00e4skyl\u00e4", "addr:state": "All regions for Finland", "addr:postcode": "40100", "addr:country": "Finland", "name": "Ricoh Finland Oy - Jyv\u00e4skyl\u00e4", "phone": "0207 370 300", "brand": "Ricoh"}, "geometry": {"type": "Point", "coordinates": [25.780444, 62.257337]}},
{"type": "Feature", "id": "5YbFlVCBmIN9_cB6QHjpw7K0AZM=", "properties": {"ref": "444", "@spider": "ricoh_europe", "addr:full": "Linjakatu 4", "addr:city": "Lahti", "addr:state": "All regions for Finland", "addr:postcode": "15100", "addr:country": "Finland", "name": "Ricoh Finland Oy - Lahti", "phone": "0207 370 300", "brand": "Ricoh"}, "geometry": {"type": "Point", "coordinates": [25.654932, 60.970172]}},
{"type": "Feature", "id": "FNHlmszaBic18txlrZsLrmewNGg=", "properties": {"ref": "452", "@spider": "ricoh_europe", "addr:full": "Niittytaival 13", "addr:city": "Espoo", "addr:state": "All regions for Finland", "addr:postcode": "02200", "addr:country": "Finland", "name": "R-Office Uusimaa Oy - Espoo", "phone": "0290 009 025", "brand": "Ricoh"}, "geometry": {"type": "Point", "coordinates": [23.0784195, 60.7958126]}},
{"type": "Feature", "id": "aZjZTum3hHtjInxOBYgI6fWdrSk=", "properties": {"ref": "484", "@spider": "ricoh_europe", "addr:full": "Be\u015ftepeler Mahallesi Nergis Sokak Via Flat Plaza No : 7/2-41 S\u00f6\u011f\u00fct\u00f6z\u00fc", "addr:city": "Yenimahalle", "addr:state": "Ankara", "addr:postcode": "06560", "addr:country": "Turkey", "name": "Ricoh Turkey Ankara", "phone": "+90 312 478 01 39 ", "brand": "Ricoh"}, "geometry": {"type": "Point", "coordinates": [32.808035, 39.914448]}},
{"type": "Feature", "id": "p4PbMHe3vBeMzWTDFoHkv4qafoQ=", "properties": {"ref": "485", "@spider": "ricoh_europe", "addr:full": "Fulya Mah. Ortaklar Caddesi Bah\u00e7eler Sokak No: 20 Mecidiyek\u00f6y", "addr:city": "\u015ei\u015fli", "addr:state": "\u0130stanbul", "addr:postcode": "34394", "addr:country": "Turkey", "name": "Ricoh Turkey Genel Merkez", "phone": "+90 212 370 96 00 \u00a0", "brand": "Ricoh"}, "geometry": {"type": "Point", "coordinates": [28.993817, 41.064324]}},
{"type": "Feature", "id": "ulHBt5bXQoWXyo2QYpX7xlAPHZc=", "properties": {"ref": "486", "@spider": "ricoh_europe", "addr:full": "\u00c7\u0131narl\u0131 Mah 1572 Sk. No.33", "addr:city": "Withco", "addr:state": "\u0130zmir", "addr:postcode": "35510", "addr:country": "Turkey", "name": "Ricoh Turkey \u0130zmir", "phone": " +90 232 445 15 68", "brand": "Ricoh"}, "geometry": {"type": "Point", "coordinates": [27.167977, 38.457365]}},
{"type": "Feature", "id": "Hd6VtYGCcptiC62wtP1MQakKxfU=", "properties": {"ref": "490", "@spider": "ricoh_europe", "addr:full": "First Floor Unit 160, Airside Business Park, Swords", "addr:city": "Co Dublin", "addr:state": "All regions in Ireland", "addr:postcode": "-", "addr:country": "Ireland", "name": "Ricoh Dublin", "phone": "-", "brand": "Ricoh"}, "geometry": {"type": "Point", "coordinates": [-6.3755786, 53.3309755]}},
{"type": "Feature", "id": "R2W-qGApnJiBRbSGBzEWRVbTuCk=", "properties": {"ref": "491", "@spider": "ricoh_europe", "addr:full": "127 Slaney Road ", "addr:city": "Dublin", "addr:state": "All regions in Ireland", "addr:postcode": "CO", "addr:country": "Ireland", "name": "Ricoh Ireland Ltd - Headquarters", "phone": "+353 (1) 8301388", "brand": "Ricoh"}, "geometry": {"type": "Point", "coordinates": [-6.2874932, 53.3730657]}},
{"type": "Feature", "id": "7Ip7ZLCEHt23uPsbeHHoqY6UQiI=", "properties": {"ref": "492", "@spider": "ricoh_europe", "addr:full": "Unit  A1 Hume Centre, Park West ", "addr:city": "Dublin 12", "addr:state": "All regions in Ireland", "addr:postcode": "-", "addr:country": "Ireland", "name": "Ricoh Print and Document Services Ltd", "phone": "+353 (1) 6239000", "brand": "Ricoh"}, "geometry": {"type": "Point", "coordinates": [-6.3755786, 53.3309755]}},
{"type": "Feature", "id": "Gz9LLIENrmVeLdjfF8Zv39S3hlY=", "properties": {"ref": "494", "@spider": "ricoh_europe", "addr:full": "Norra Obbolav\u00e4gen 115", "addr:city": "Ume\u00e5", "addr:state": "Ume\u00e5", "addr:postcode": "904 22", "addr:country": "Sweden", "name": "Ricoh IT Partner - Ume\u00e5", "phone": "0046 010-177 12 80", "brand": "Ricoh"}, "geometry": {"type": "Point", "coordinates": [20.2761388, 63.8039035]}},
{"type": "Feature", "id": "Sq5RXpe-B_VHP-d1ATvfKEvHzSA=", "properties": {"ref": "495", "@spider": "ricoh_europe", "addr:full": "Kungs\u00e4ngsv\u00e4gen 31A", "addr:city": "Uppsala", "addr:state": "Uppsala", "addr:postcode": "753 23", "addr:country": "Sweden", "name": "Ricoh IT Partner - Uppsala", "phone": "0046 010-177 12 80", "brand": "Ricoh"}, "geometry": {"type": "Point", "coordinates": [17.6718014, 59.8465138]}},
{"type": "Feature", "id": "D4H95HHy0IIq1juIsBPfhnj-FAk=", "properties": {"ref": "510", "@spider": "ricoh_europe", "addr:full": "Gustav Adolfs gata 57", "addr:city": "Sk\u00f6vde", "addr:state": "Sk\u00f6vde", "addr:postcode": "541 45", "addr:country": "Sweden", "name": "Ricoh IT Partner Sk\u00f6vde", "phone": "0046 500 49 59 90", "brand": "Ricoh"}, "geometry": {"type": "Point", "coordinates": [13.8533277, 58.4063184]}},
{"type": "Feature", "id": "C4YHyJuOv3TcGUz3phs95X2TGVk=", "properties": {"ref": "511", "@spider": "ricoh_europe", "addr:full": "Str\u00f6mstadsv\u00e4gen 15", "addr:city": "Uddevalla", "addr:state": "Uddevalla", "addr:postcode": "451 50 ", "addr:country": "Sweden", "name": "Ricoh IT Partner Uddevalla", "phone": "-", "brand": "Ricoh"}, "geometry": {"type": "Point", "coordinates": [11.9277101, 58.3526296]}},
{"type": "Feature", "id": "oQvvG6I5ClJr1DjS-eBSl_k1W3w=", "properties": {"ref": "517", "@spider": "ricoh_europe", "addr:full": "Alfagatan 9, ", "addr:city": "G\u00f6teborg", "addr:state": "G\u00f6teborg", "addr:postcode": "431 49", "addr:country": "Sweden", "name": "Ricoh Sverige AB - G\u00f6teborg", "phone": "031-703 59 00", "brand": "Ricoh"}, "geometry": {"type": "Point", "coordinates": [11.9319853, 57.7000535]}},
{"type": "Feature", "id": "2vWO76aPPufcuW7WdbpSHSHiU0k=", "properties": {"ref": "518", "@spider": "ricoh_europe", "addr:full": "H\u00f6jagatan 1 A", "addr:city": "Malm\u00f6", "addr:state": "Malm\u00f6", "addr:postcode": "212 33 ", "addr:country": "Sweden", "name": "Ricoh Sverige AB - Malm\u00f6", "phone": "0046 40 - 59 21 50 ", "brand": "Ricoh"}, "geometry": {"type": "Point", "coordinates": [13.0643093, 55.5800717]}},
{"type": "Feature", "id": "tMF5Q6WbxHiSu_N0pdtZQPI4WvA=", "properties": {"ref": "519", "@spider": "ricoh_europe", "addr:full": "Storgatan 53", "addr:city": "N\u00e4ssj\u00f6", "addr:state": "N\u00e4ssj\u00f6", "addr:postcode": "571 32", "addr:country": "Sweden", "name": "Ricoh Sverige AB - N\u00e4ssj\u00f6", "phone": "0046 08-734 33 00", "brand": "Ricoh"}, "geometry": {"type": "Point", "coordinates": [14.691351, 57.656776]}},
{"type": "Feature", "id": "DMWB-ffQ01A3F75sIxybmH_bzTM=", "properties": {"ref": "520", "@spider": "ricoh_europe", "addr:full": "R\u00f6ntgenv\u00e4gen 2", "addr:city": "Stockholm ", "addr:state": "Stockholm", "addr:postcode": "171 29", "addr:country": "Sweden", "name": "Ricoh Sverige AB - Stockholm ", "phone": "0046 8-734 33 00", "brand": "Ricoh"}, "geometry": {"type": "Point", "coordinates": [17.9769294, 59.357337]}},
{"type": "Feature", "id": "ESnzuvDU_8au1xlkRd-RxPzcDZs=", "properties": {"ref": "574", "@spider": "ricoh_europe", "addr:full": "Moosstrasse 8a", "addr:city": "Sch\u00f6nb\u00fchl (Bern)", "addr:state": "Bern", "addr:postcode": "3322", "addr:country": "Switzerland", "name": "Ricoh Schweiz AG - Bern", "phone": "0844 360 360", "brand": "Ricoh"}, "geometry": {"type": "Point", "coordinates": [7.4943998, 47.0165038]}},
{"type": "Feature", "id": "Ya5XRXPl8rk16Lc77NK-MXwULeQ=", "properties": {"ref": "575", "@spider": "ricoh_europe", "addr:full": "Route de Buchillon 1", "addr:city": "Etoy", "addr:state": "Vaud", "addr:postcode": "1163", "addr:country": "Switzerland", "name": "Ricoh Schweiz AG - Etoy", "phone": "021 632 88 88", "brand": "Ricoh"}, "geometry": {"type": "Point", "coordinates": [6.4118235, 46.4732653]}},
{"type": "Feature", "id": "v_JYf6OyOjbXzbwC6_gjqWAGBno=", "properties": {"ref": "576", "@spider": "ricoh_europe", "addr:full": "Altgraben 31", "addr:city": "H\u00e4rkingen", "addr:state": "Solothurn", "addr:postcode": "4624", "addr:country": "Switzerland", "name": "Ricoh Schweiz AG - H\u00e4rkingen", "phone": "0844 360 360", "brand": "Ricoh"}, "geometry": {"type": "Point", "coordinates": [7.8098005, 47.3168799]}},
{"type": "Feature", "id": "wNXrUGvF3HsRMQgyA1LOYpkO5ks=", "properties": {"ref": "577", "@spider": "ricoh_europe", "addr:full": "Hertistrasse 2", "addr:city": "Wallisellen", "addr:state": "Z\u00fcrich", "addr:postcode": "8304", "addr:country": "Switzerland", "name": "Ricoh Schweiz AG \u2013 Hauptsitz", "phone": "0844 36 03 60", "brand": "Ricoh"}, "geometry": {"type": "Point", "coordinates": [8.5820405, 47.4141521]}},
{"type": "Feature", "id": "TRWZynkeH8ZvS185ihuGO6BgDog=", "properties": {"ref": "578", "@spider": "ricoh_europe", "addr:full": "Bionstrasse 5", "addr:city": "St. Gallen", "addr:state": "St. Gallen", "addr:postcode": "9015", "addr:country": "Switzerland", "name": "Ricoh Schweiz AG - St. Gallen", "phone": "0844 360 360", "brand": "Ricoh"}, "geometry": {"type": "Point", "coordinates": [9.3128507, 47.408214]}},
{"type": "Feature", "id": "i9W6ad1t8EvNIVmMmpfiisv0SZY=", "properties": {"ref": "590", "@spider": "ricoh_europe", "addr:full": "O\u00b4Donell 15, Local", "addr:city": "Madrid", "addr:state": "Madrid", "addr:postcode": "28009", "addr:country": "Spain", "name": "C.R.I. Retiro", "phone": "91 426 21 88", "brand": "Ricoh"}, "geometry": {"type": "Point", "coordinates": [-3.6805112, 40.4221734]}},
{"type": "Feature", "id": "HFKTqppiHbglpSArNM8sORpaLlo=", "properties": {"ref": "594", "@spider": "ricoh_europe", "addr:full": "Paseo de la Glorieta, 26", "addr:city": "Huelva", "addr:state": "Huelva", "addr:postcode": "21002", "addr:country": "Spain", "name": "Compa\u00f1\u00eda Ofim\u00e1tica F.M. 4", "phone": "959 28 07 84", "brand": "Ricoh"}, "geometry": {"type": "Point", "coordinates": [-6.9599524, 37.261908]}},
{"type": "Feature", "id": "nCjsAVwMJenE_FRy0wi78jAz_fo=", "properties": {"ref": "646", "@spider": "ricoh_europe", "addr:full": "Calle Estonia, 9", "addr:city": "M\u00e1laga", "addr:state": "M\u00e1laga", "addr:postcode": "45600", "addr:country": "Spain", "name": "Multioficinas", "phone": "95 234 34 04", "brand": "Ricoh"}, "geometry": {"type": "Point", "coordinates": [-4.4974585, 36.6944871]}},
{"type": "Feature", "id": "6ptfokBo1LLXRDNRDT4gLU6Uhs8=", "properties": {"ref": "656", "@spider": "ricoh_europe", "addr:full": "Parque Tecnol\u00f3gico de Asturias, Parcela 43", "addr:city": "Llanera", "addr:state": "Asturias", "addr:postcode": "33428", "addr:country": "Spain", "name": "Ricoh Asturias", "phone": "98 526 84 03", "brand": "Ricoh"}, "geometry": {"type": "Point", "coordinates": [-5.8278215, 43.4224965]}},
{"type": "Feature", "id": "GDZrNvgA3mAvTjR1k1UffYyy7Zg=", "properties": {"ref": "657", "@spider": "ricoh_europe", "addr:full": "Av. Via Augusta 71-73", "addr:city": "Sant Cugat del Vall\u00e8s", "addr:state": "Barcelona", "addr:postcode": "08174", "addr:country": "Spain", "name": "Ricoh Barcelona", "phone": "98 526 84 03", "brand": "Ricoh"}, "geometry": {"type": "Point", "coordinates": [2.0551033, 41.487018]}},
{"type": "Feature", "id": "8ZA-c9dB4Ps1w89KrDJ_u8XhSKY=", "properties": {"ref": "658", "@spider": "ricoh_europe", "addr:full": "Alameda de Mazarredo, 18 bis bajo", "addr:city": "Bilbao", "addr:state": "Bizkaia", "addr:postcode": "48009", "addr:country": "Spain", "name": "Ricoh Bilbao", "phone": "944 35 69 50", "brand": "Ricoh"}, "geometry": {"type": "Point", "coordinates": [-2.9327852, 43.2673378]}},
{"type": "Feature", "id": "YE3Kxj44tBogdXbX_TKks2RtGQU=", "properties": {"ref": "659", "@spider": "ricoh_europe", "addr:full": "Calle Jos\u00e9 Luis P\u00e9rez Pujadas, 14  Edificio Forum de Negocios M\u00f3dulo B.3.5 ", "addr:city": "Granada", "addr:state": "Granada", "addr:postcode": "18006", "addr:country": "Spain", "name": "Ricoh Granada", "phone": "958 13 18 65", "brand": "Ricoh"}, "geometry": {"type": "Point", "coordinates": [-3.6317732, 37.1779153]}},
{"type": "Feature", "id": "3mzIXVP23-ISNvVPSrskm6paDY4=", "properties": {"ref": "660", "@spider": "ricoh_europe", "addr:full": "Calle Gambrinus 7, 2\u00ba - L  Pol\u00edgono Industrial A Grela ", "addr:city": "A Coru\u00f1a", "addr:state": "A Coru\u00f1a", "addr:postcode": "15008", "addr:country": "Spain", "name": "Ricoh La Coru\u00f1a", "phone": "98 126 27 81 / 98 126 27 50", "brand": "Ricoh"}, "geometry": {"type": "Point", "coordinates": [-8.4268347, 43.352645]}},
{"type": "Feature", "id": "R6WgjMb4NwCCHGG7UrnY-Es0wTc=", "properties": {"ref": "661", "@spider": "ricoh_europe", "addr:full": "Calle Cantabria, 2  Edificio Amura ", "addr:city": "Alcobendas", "addr:state": "Madrid", "addr:postcode": "28108", "addr:country": "Spain", "name": "Ricoh Madrid", "phone": "91 708 20 50 ", "brand": "Ricoh"}, "geometry": {"type": "Point", "coordinates": [-3.7385117, 40.459894]}},
{"type": "Feature", "id": "5m9BgU-a3yYWMfn-s2rAcEYWZWw=", "properties": {"ref": "662", "@spider": "ricoh_europe", "addr:full": "Calle Marie Curie, 12  Conjunto Tecnol\u00f3gico I+D, 11  Bloque A, Local A2  Parque Tecnol\u00f3gico de Andaluc\u00eda", "addr:city": "Campanillas", "addr:state": "M\u00e1laga", "addr:postcode": "29590", "addr:country": "Spain", "name": "Ricoh M\u00e1laga", "phone": "952 02 03 19 ", "brand": "Ricoh"}, "geometry": {"type": "Point", "coordinates": [-4.5579937, 36.736511]}},
{"type": "Feature", "id": "8JvQXDRPxJ9CBfqOE0Mr286NXeQ=", "properties": {"ref": "663", "@spider": "ricoh_europe", "addr:full": "Calle Gremi Fusters, 33 PL.2 Oficina 206  Edificio Vipasima ", "addr:city": "Palma de Mallorca", "addr:state": "Baleares", "addr:postcode": "07009", "addr:country": "Spain", "name": "Ricoh Mallorca", "phone": "971 43 43 60 ", "brand": "Ricoh"}, "geometry": {"type": "Point", "coordinates": [2.7097993, 39.6433825]}},
{"type": "Feature", "id": "LLsJQWwtm2e44qpSYwpC3VhXhoM=", "properties": {"ref": "664", "@spider": "ricoh_europe", "addr:full": "Edificio Klammer c/ Arcadio Mar\u00eda Larraona, 1   2\u00ba Planta", "addr:city": "Pamplona", "addr:state": "Navarra", "addr:postcode": "31008", "addr:country": "Spain", "name": "Ricoh Pamplona", "phone": "948 250 911", "brand": "Ricoh"}, "geometry": {"type": "Point", "coordinates": [-1.6660363, 42.8114463]}},
{"type": "Feature", "id": "5bQscBFBKPKHK6BfhaU8IlA7lTc=", "properties": {"ref": "665", "@spider": "ricoh_europe", "addr:full": "Fernando M\u00fagica, 11 1\u00ba A  Pol\u00edgono Belartza ", "addr:city": "Donostia-San Sebasti\u00e1n", "addr:state": "Gipuzkoa", "addr:postcode": "20018", "addr:country": "Spain", "name": "Ricoh San Sebasti\u00e1n", "phone": "943 36 89 00", "brand": "Ricoh"}, "geometry": {"type": "Point", "coordinates": [-2.0152577, 43.2812798]}},
{"type": "Feature", "id": "1u_AquB6EDfuzREzenj2IEjvh5o=", "properties": {"ref": "666", "@spider": "ricoh_europe", "addr:full": "Centro de Negocios, 72A - Oficina 101 ", "addr:city": "Guarnizo", "addr:state": "Cantabria", "addr:postcode": "39611", "addr:country": "Spain", "name": "Ricoh Santander", "phone": "942 56 50 22", "brand": "Ricoh"}, "geometry": {"type": "Point", "coordinates": [-3.9181262, 43.3963264]}},
{"type": "Feature", "id": "By8CHyR8Aofd7uEA3uWyiZzIV2s=", "properties": {"ref": "667", "@spider": "ricoh_europe", "addr:full": "Calle Esclusa 11, Locales 2 y 3  Edificio Galia Puerto ", "addr:city": "Sevilla", "addr:state": "Sevilla", "addr:postcode": "41011", "addr:country": "Spain", "name": "Ricoh Sevilla", "phone": "95 565 83 47 ", "brand": "Ricoh"}, "geometry": {"type": "Point", "coordinates": [-6.0016231, 37.3680963]}},
{"type": "Feature", "id": "BZIY3PdhZLwZa3McgIS6UJgUXX0=", "properties": {"ref": "668", "@spider": "ricoh_europe", "addr:full": "Calle Juan de la Cierva y Codorniu, 27  Edificio Wellness 1 Parque Tecnol\u00f3gico de Valencia", "addr:city": "Paterna", "addr:state": "Valencia", "addr:postcode": "46980", "addr:country": "Spain", "name": "Ricoh Valencia", "phone": "96 131 83 10", "brand": "Ricoh"}, "geometry": {"type": "Point", "coordinates": [-0.4588128, 39.5467328]}},
{"type": "Feature", "id": "lAw5fR7m77T_vA2xnhAdrEVQLF4=", "properties": {"ref": "669", "@spider": "ricoh_europe", "addr:full": "Venta de la Estrella, 6 Pabell\u00f3n 1  Pol\u00edgono Uritiasolo", "addr:city": "Vitoria-Gasteiz", "addr:state": "Araba - \u00c1lava", "addr:postcode": "01006", "addr:country": "Spain", "name": "Ricoh Vitoria", "phone": "945 14 53 11", "brand": "Ricoh"}, "geometry": {"type": "Point", "coordinates": [-2.6600469, 42.8362503]}},
{"type": "Feature", "id": "ABe_YeYVRrjgwzYOeJG9_2Sl_Mg=", "properties": {"ref": "670", "@spider": "ricoh_europe", "addr:full": "Av. Manuel Rodr\u00edguez Ayuso  No 114 (Ctra. Madrid Km 315,7)", "addr:city": "Zaragoza", "addr:state": "Zaragoza", "addr:postcode": "50012", "addr:country": "Spain", "name": "Ricoh Zaragoza", "phone": "976 53 82 53", "brand": "Ricoh"}, "geometry": {"type": "Point", "coordinates": [-0.9302582, 41.6449657]}},
{"type": "Feature", "id": "zGkBrvHy0io_F4lmjfI_vaWFI30=", "properties": {"ref": "671", "@spider": "ricoh_europe", "addr:full": "Calle \u00c1ngel San Gabriel, 25", "addr:city": "Albacete", "addr:state": "Albacete", "addr:postcode": "02002", "addr:country": "Spain", "name": "Ricoh-Alba", "phone": "967 22 11 56", "brand": "Ricoh"}, "geometry": {"type": "Point", "coordinates": [-1.8606686, 38.98532]}},
{"type": "Feature", "id": "iLSCTmXYtwrsWKjLPs8ujESZrxI=", "properties": {"ref": "680", "@spider": "ricoh_europe", "addr:full": "Calle Latorre, 155 - 157", "addr:city": "Sabadell", "addr:state": "Barcelona", "addr:postcode": "08203", "addr:country": "Spain", "name": "Salvans", "phone": "93 710 46 88", "brand": "Ricoh"}, "geometry": {"type": "Point", "coordinates": [2.1082912, 41.5384079]}},
{"type": "Feature", "id": "RSq0kIwXfzfYr7tmSDsOUHK3YoQ=", "properties": {"ref": "684", "@spider": "ricoh_europe", "addr:full": "Avenida Consejo de Europa s/n (Edificio Melkart - Zona Franca)", "addr:city": "C\u00e1diz", "addr:state": "C\u00e1diz", "addr:postcode": "11011", "addr:country": "Spain", "name": "Servicios de Oficina de C\u00e1diz", "phone": "956 29 05 66", "brand": "Ricoh"}, "geometry": {"type": "Point", "coordinates": [-6.2697167, 36.501495]}},
{"type": "Feature", "id": "wbFsZN459xDQsSQCyY8VX6BbYVA=", "properties": {"ref": "685", "@spider": "ricoh_europe", "addr:full": "Calle Fray Tom\u00e1s Valle, 9", "addr:city": "Algeciras", "addr:state": "C\u00e1diz", "addr:postcode": "11202", "addr:country": "Spain", "name": "Servicios de Oficinas de Algeciras", "phone": "956 58 70 09", "brand": "Ricoh"}, "geometry": {"type": "Point", "coordinates": [-5.4501994, 36.137463]}},
{"type": "Feature", "id": "4ix5liia81oMKKVmYUij5swVqcI=", "properties": {"ref": "696", "@spider": "ricoh_europe", "addr:full": "Calle J\u00fapiter, 6 (Mod. BPI San Fernando)", "addr:city": "San Fernando de Henares", "addr:state": "Madrid", "addr:postcode": "28830", "addr:country": "Spain", "name": "Sistemas Ofim\u00e1ticos Madrid", "phone": "902 88 48 30", "brand": "Ricoh"}, "geometry": {"type": "Point", "coordinates": [-3.4928404, 40.4498895]}}]}