{"type":"FeatureCollection","features":[{"type": "Feature", "id": "JAveUiaFnUccjlKvcVPQQrP51hw=", "properties": {"ref": "1615 East Main Street, Greenwood IN (I-65, exit 99)", "amenity:fuel": true, "fuel:diesel": true, "fuel:propane": true, "fuel:HGV_diesel": true, "hgv": true, "@spider": "road_ranger", "addr:full": "1615 East Main Street, Greenwood IN (I-65, exit 99)", "addr:country": "US", "name": "Road Ranger", "brand": "Road Ranger", "brand:wikidata": "Q7339377"}, "geometry": {"type": "Point", "coordinates": [-86.070351819574, 39.613491380772]}},
{"type": "Feature", "id": "Iq3J0wsgqKnaNYg7G992xV0ZimM=", "properties": {"ref": "990 West State Road 42, Brazil IN (I-70, exit 23)", "amenity:fuel": true, "fuel:diesel": true, "fuel:propane": true, "fuel:HGV_diesel": true, "hgv": true, "@spider": "road_ranger", "addr:full": "990 West State Road 42, Brazil IN (I-70, exit 23)", "addr:country": "US", "name": "Road Ranger", "brand": "Road Ranger", "brand:wikidata": "Q7339377"}, "geometry": {"type": "Point", "coordinates": [-87.125467211008, 39.446799599892]}},
{"type": "Feature", "id": "dwlrCZBn-GNd1DMl-t86GjzPl1U=", "properties": {"ref": "2151 Ripley, Lake Station IN (I-80/94, exit 15A)", "amenity:fuel": true, "fuel:diesel": true, "fuel:propane": true, "fuel:HGV_diesel": true, "hgv": true, "@spider": "road_ranger", "addr:full": "2151 Ripley, Lake Station IN (I-80/94, exit 15A)", "addr:country": "US", "name": "Road Ranger", "brand": "Road Ranger", "brand:wikidata": "Q7339377"}, "geometry": {"type": "Point", "coordinates": [-87.239649134988, 41.578516978978]}},
{"type": "Feature", "id": "W1j9hEE8S2GPiQr9UCjZjgmUSIA=", "properties": {"ref": "2003 Illinois Hwy 1, Marshall IL (I-70 exit 147)", "amenity:fuel": true, "fuel:diesel": true, "fuel:propane": true, "fuel:HGV_diesel": true, "hgv": true, "@spider": "road_ranger", "addr:full": "2003 Illinois Hwy 1, Marshall IL (I-70 exit 147)", "addr:country": "US", "name": "Road Ranger", "brand": "Road Ranger", "brand:wikidata": "Q7339377"}, "geometry": {"type": "Point", "coordinates": [-87.691613608073, 39.424683083014]}},
{"type": "Feature", "id": "C--1T10bw89zOZGkvCoOtibEJYk=", "properties": {"ref": "3401 S California Ave, Chicago IL (I-55, Exit 288)", "amenity:fuel": true, "fuel:diesel": true, "fuel:propane": true, "fuel:HGV_diesel": true, "hgv": true, "@spider": "road_ranger", "addr:full": "3401 S California Ave, Chicago IL (I-55, Exit 288)", "addr:country": "US", "name": "Road Ranger", "brand": "Road Ranger", "brand:wikidata": "Q7339377"}, "geometry": {"type": "Point", "coordinates": [-87.694532776687, 41.831464903269]}},
{"type": "Feature", "id": "OeB9_cLh2nPvsWkDjEQ3uEMniCQ=", "properties": {"ref": "1776 South Court Street, Grayville IL (I-64 Exit 130)", "amenity:fuel": true, "fuel:diesel": true, "fuel:propane": true, "fuel:HGV_diesel": true, "hgv": true, "@spider": "road_ranger", "addr:full": "1776 South Court Street, Grayville IL (I-64 Exit 130)", "addr:country": "US", "name": "Road Ranger", "brand": "Road Ranger", "brand:wikidata": "Q7339377"}, "geometry": {"type": "Point", "coordinates": [-87.999532965676, 38.240242552523]}},
{"type": "Feature", "id": "Q86C7XLIxEobDHY3m3a9fH7oVAs=", "properties": {"ref": "4910 North Market Street, Champaign IL (I-57, Exit 240)", "amenity:fuel": true, "fuel:diesel": true, "fuel:propane": true, "fuel:HGV_diesel": true, "hgv": true, "@spider": "road_ranger", "addr:full": "4910 North Market Street, Champaign IL (I-57, Exit 240)", "addr:country": "US", "name": "Road Ranger", "brand": "Road Ranger", "brand:wikidata": "Q7339377"}, "geometry": {"type": "Point", "coordinates": [-88.240235117791, 40.17802209055]}},
{"type": "Feature", "id": "--IDOwce1_NEmxMaAsLQzplPd5A=", "properties": {"ref": "1112 East Southline Dr, Tuscola IL (I-57, exit 212)", "amenity:fuel": true, "fuel:diesel": true, "fuel:propane": true, "fuel:HGV_diesel": true, "hgv": true, "@spider": "road_ranger", "addr:full": "1112 East Southline Dr, Tuscola IL (I-57, exit 212)", "addr:country": "US", "name": "Road Ranger", "brand": "Road Ranger", "brand:wikidata": "Q7339377"}, "geometry": {"type": "Point", "coordinates": [-88.268128535235, 39.792192009313]}},
{"type": "Feature", "id": "sfmhgqkTwZnIIQF88ETVo78JFZk=", "properties": {"ref": "1946 Energy Dr, East Troy WI (I-43, exit 38)", "amenity:fuel": true, "fuel:diesel": true, "fuel:propane": true, "fuel:HGV_diesel": true, "hgv": true, "@spider": "road_ranger", "addr:full": "1946 Energy Dr, East Troy WI (I-43, exit 38)", "addr:country": "US", "name": "Road Ranger", "brand": "Road Ranger", "brand:wikidata": "Q7339377"}, "geometry": {"type": "Point", "coordinates": [-88.3892241, 42.790629914701]}},
{"type": "Feature", "id": "t4IA7psFv7l-10AjhAWx9MIUMRI=", "properties": {"ref": "19N681 US Highway 20, Hampshire IL (I-90 exit 42)", "amenity:fuel": true, "fuel:diesel": true, "fuel:propane": true, "fuel:HGV_diesel": true, "hgv": true, "@spider": "road_ranger", "addr:full": "19N681 US Highway 20, Hampshire IL (I-90 exit 42)", "addr:country": "US", "name": "Road Ranger", "brand": "Road Ranger", "brand:wikidata": "Q7339377"}, "geometry": {"type": "Point", "coordinates": [-88.5119539, 42.149298048615]}},
{"type": "Feature", "id": "ktHYVD_LrtNVGEit_U4gkTj7qEk=", "properties": {"ref": "3041 N. Illinois Route 71, Ottawa IL (I-80, exit 93)", "amenity:fuel": true, "fuel:diesel": true, "fuel:propane": true, "fuel:HGV_diesel": true, "hgv": true, "@spider": "road_ranger", "addr:full": "3041 N. Illinois Route 71, Ottawa IL (I-80, exit 93)", "addr:country": "US", "name": "Road Ranger", "brand": "Road Ranger", "brand:wikidata": "Q7339377"}, "geometry": {"type": "Point", "coordinates": [-88.7770452, 41.37894151399]}},
{"type": "Feature", "id": "5y7sLqBOnqt7SkD4KQfa5ETpSa8=", "properties": {"ref": "1701 IL-148, Marion IL (I-57 exit 45)", "amenity:fuel": true, "fuel:diesel": true, "fuel:propane": true, "fuel:HGV_diesel": true, "hgv": true, "@spider": "road_ranger", "addr:full": "1701 IL-148, Marion IL (I-57 exit 45)", "addr:country": "US", "name": "Road Ranger", "brand": "Road Ranger", "brand:wikidata": "Q7339377"}, "geometry": {"type": "Point", "coordinates": [-88.985803, 37.619951]}},
{"type": "Feature", "id": "4LILPx9bCeQ-2hPvWHc0pcHf6HI=", "properties": {"ref": "7500 East Riverside Blvd., Loves Park IL (I-90 exit 12)", "amenity:fuel": true, "fuel:diesel": true, "fuel:propane": true, "fuel:HGV_diesel": true, "hgv": true, "@spider": "road_ranger", "addr:full": "7500 East Riverside Blvd., Loves Park IL (I-90 exit 12)", "addr:country": "US", "name": "Road Ranger", "brand": "Road Ranger", "brand:wikidata": "Q7339377"}, "geometry": {"type": "Point", "coordinates": [-88.969333068053, 42.31947082843]}},
{"type": "Feature", "id": "BRlu3O7X6TCpDaj59Qfl5jHRPME=", "properties": {"ref": "6070 Gardner Street, South Beloit IL (I-90, exit 1)", "amenity:fuel": true, "fuel:diesel": true, "fuel:propane": true, "fuel:HGV_diesel": true, "hgv": true, "@spider": "road_ranger", "addr:full": "6070 Gardner Street, South Beloit IL (I-90, exit 1)", "addr:country": "US", "name": "Road Ranger", "brand": "Road Ranger", "brand:wikidata": "Q7339377"}, "geometry": {"type": "Point", "coordinates": [-88.9993718, 42.490980425995]}},
{"type": "Feature", "id": "Ka9roXW_AOSQuNi7efNbQlk87Kg=", "properties": {"ref": "890 E. Highway 38, Rochelle IL (I-39, exit 99)", "amenity:fuel": true, "fuel:diesel": true, "fuel:propane": true, "fuel:HGV_diesel": true, "hgv": true, "@spider": "road_ranger", "addr:full": "890 E. Highway 38, Rochelle IL (I-39, exit 99)", "addr:country": "US", "name": "Road Ranger", "brand": "Road Ranger", "brand:wikidata": "Q7339377"}, "geometry": {"type": "Point", "coordinates": [-89.0350026, 41.933487893349]}},
{"type": "Feature", "id": "Rj_U9F2pl1qAQeCk5mMaoMTL5A4=", "properties": {"ref": "1311 Carolyn Dr, Minonk IL (I-39, Exit 27)", "amenity:fuel": true, "fuel:diesel": true, "fuel:propane": true, "fuel:HGV_diesel": true, "hgv": true, "@spider": "road_ranger", "addr:full": "1311 Carolyn Dr, Minonk IL (I-39, Exit 27)", "addr:country": "US", "name": "Road Ranger", "brand": "Road Ranger", "brand:wikidata": "Q7339377"}, "geometry": {"type": "Point", "coordinates": [-89.053454603041, 40.912973117594]}},
{"type": "Feature", "id": "q-MQSizxM9qF6p2ljN7NTVCTKyw=", "properties": {"ref": "2705 12th Street, Mendota, IL (I-39, exit 72)", "amenity:fuel": true, "fuel:diesel": true, "fuel:propane": true, "fuel:HGV_diesel": true, "hgv": true, "@spider": "road_ranger", "addr:full": "2705 12th Street, Mendota, IL (I-39, exit 72)", "addr:country": "US", "name": "Road Ranger", "brand": "Road Ranger", "brand:wikidata": "Q7339377"}, "geometry": {"type": "Point", "coordinates": [-89.066749708895, 41.553886930383]}},
{"type": "Feature", "id": "-iEErD1u4V8Yiue3GP9nHTsyFdw=", "properties": {"ref": "1101 North 7th Street, Rochelle IL", "amenity:fuel": true, "fuel:diesel": true, "fuel:propane": null, "fuel:HGV_diesel": true, "hgv": true, "@spider": "road_ranger", "addr:full": "1101 North 7th Street, Rochelle IL", "addr:country": "US", "name": "Road Ranger", "brand": "Road Ranger", "brand:wikidata": "Q7339377"}, "geometry": {"type": "Point", "coordinates": [-89.0679032, 41.934286214266]}},
{"type": "Feature", "id": "v1S-4TIsOec5CP-cFv2FZ9fmr9A=", "properties": {"ref": "4980 S. Main Street, Rockford IL (Exit US 20 to IL 2)", "amenity:fuel": true, "fuel:diesel": true, "fuel:propane": true, "fuel:HGV_diesel": true, "hgv": true, "@spider": "road_ranger", "addr:full": "4980 S. Main Street, Rockford IL (Exit US 20 to IL 2)", "addr:country": "US", "name": "Road Ranger", "brand": "Road Ranger", "brand:wikidata": "Q7339377"}, "geometry": {"type": "Point", "coordinates": [-89.1077166, 42.208525314404]}},
{"type": "Feature", "id": "M9Ffuj2V62exnhjJON2gG8dwIbA=", "properties": {"ref": "315 E. Dixie Road Suite A, McLean IL (I-55, exit 145)", "amenity:fuel": true, "fuel:diesel": true, "fuel:propane": true, "fuel:HGV_diesel": true, "hgv": true, "@spider": "road_ranger", "addr:full": "315 E. Dixie Road Suite A, McLean IL (I-55, exit 145)", "addr:country": "US", "name": "Road Ranger", "brand": "Road Ranger", "brand:wikidata": "Q7339377"}, "geometry": {"type": "Point", "coordinates": [-89.168844820971, 40.310462067864]}},
{"type": "Feature", "id": "3sPDEYC9t5Yq0wkuWy4HaUrpp9w=", "properties": {"ref": "2762 County Hwy North, Cottage Grove WI (I-90, exit 147)", "amenity:fuel": true, "fuel:diesel": true, "fuel:propane": true, "fuel:HGV_diesel": true, "hgv": true, "@spider": "road_ranger", "addr:full": "2762 County Hwy North, Cottage Grove WI (I-90, exit 147)", "addr:country": "US", "name": "Road Ranger", "brand": "Road Ranger", "brand:wikidata": "Q7339377"}, "geometry": {"type": "Point", "coordinates": [-89.199772776339, 42.998488065922]}},
{"type": "Feature", "id": "7ymMEt1sbo2R5Lib7L5UKfyfYJo=", "properties": {"ref": "902 N Elida St, Winnebago IL (US 20 MM#8)", "amenity:fuel": true, "fuel:diesel": true, "fuel:propane": true, "fuel:HGV_diesel": true, "hgv": true, "@spider": "road_ranger", "addr:full": "902 N Elida St, Winnebago IL (US 20 MM#8)", "addr:country": "US", "name": "Road Ranger", "brand": "Road Ranger", "brand:wikidata": "Q7339377"}, "geometry": {"type": "Point", "coordinates": [-89.242550241104, 42.280547913418]}},
{"type": "Feature", "id": "1FOs8_FbCjoV_CIg3tSBvi-rF_g=", "properties": {"ref": "2835 North Main, Princeton IL (I-80, exit 56)", "amenity:fuel": true, "fuel:diesel": true, "fuel:propane": true, "fuel:HGV_diesel": true, "hgv": true, "@spider": "road_ranger", "addr:full": "2835 North Main, Princeton IL (I-80, exit 56)", "addr:country": "US", "name": "Road Ranger", "brand": "Road Ranger", "brand:wikidata": "Q7339377"}, "geometry": {"type": "Point", "coordinates": [-89.4685448, 41.402944314002]}},
{"type": "Feature", "id": "fSLe20xa_HytORY-Y_aoNASOQmw=", "properties": {"ref": "1801 S. Galena Avenue, Dixon IL (I-88 Exit 54)", "amenity:fuel": true, "fuel:diesel": true, "fuel:propane": true, "fuel:HGV_diesel": true, "hgv": true, "@spider": "road_ranger", "addr:full": "1801 S. Galena Avenue, Dixon IL (I-88 Exit 54)", "addr:country": "US", "name": "Road Ranger", "brand": "Road Ranger", "brand:wikidata": "Q7339377"}, "geometry": {"type": "Point", "coordinates": [-89.4751275, 41.82277451421]}},
{"type": "Feature", "id": "e-xJdvWMFwuFSxhloifVptTM15A=", "properties": {"ref": "905 Hen House Road, Okawville IL (I-64, exit 41)", "amenity:fuel": true, "fuel:diesel": true, "fuel:propane": true, "fuel:HGV_diesel": true, "hgv": true, "@spider": "road_ranger", "addr:full": "905 Hen House Road, Okawville IL (I-64, exit 41)", "addr:country": "US", "name": "Road Ranger", "brand": "Road Ranger", "brand:wikidata": "Q7339377"}, "geometry": {"type": "Point", "coordinates": [-89.5342269, 38.436478412603]}},
{"type": "Feature", "id": "JK_SrC-LlKbU7CiMl3tnVB0ENUI=", "properties": {"ref": "3752 Camp Butler, Springfield, iL (I-55, exit 100A)", "amenity:fuel": true, "fuel:diesel": true, "fuel:propane": true, "fuel:HGV_diesel": true, "hgv": true, "@spider": "road_ranger", "addr:full": "3752 Camp Butler, Springfield, iL (I-55, exit 100A)", "addr:country": "US", "name": "Road Ranger", "brand": "Road Ranger", "brand:wikidata": "Q7339377"}, "geometry": {"type": "Point", "coordinates": [-89.583694158548, 39.830628348344]}},
{"type": "Feature", "id": "yiF8G_Dv5U0EnWBp3sbABRNpGew=", "properties": {"ref": "500 Toronto Road, Springfield IL (I-55, exit 90)", "amenity:fuel": true, "fuel:diesel": true, "fuel:propane": true, "fuel:HGV_diesel": true, "hgv": true, "@spider": "road_ranger", "addr:full": "500 Toronto Road, Springfield IL (I-55, exit 90)", "addr:country": "US", "name": "Road Ranger", "brand": "Road Ranger", "brand:wikidata": "Q7339377"}, "geometry": {"type": "Point", "coordinates": [-89.649135, 39.71325731319]}},
{"type": "Feature", "id": "rtZ7Y22zGOUiV5rUqzck0QX0x3Y=", "properties": {"ref": "700 King Rd., New Berlin IL (I-72, Exit 82)", "amenity:fuel": true, "fuel:diesel": true, "fuel:propane": true, "fuel:HGV_diesel": true, "hgv": true, "@spider": "road_ranger", "addr:full": "700 King Rd., New Berlin IL (I-72, Exit 82)", "addr:country": "US", "name": "Road Ranger", "brand": "Road Ranger", "brand:wikidata": "Q7339377"}, "geometry": {"type": "Point", "coordinates": [-89.924479362268, 39.732346322364]}},
{"type": "Feature", "id": "RGDAGcMkqvGe25DmQbYijGCy9ys=", "properties": {"ref": "102 E. Woody, Oakdale WI (I-90/94, exit 15A)", "amenity:fuel": true, "fuel:diesel": true, "fuel:propane": true, "fuel:HGV_diesel": true, "hgv": true, "@spider": "road_ranger", "addr:full": "102 E. Woody, Oakdale WI (I-90/94, exit 15A)", "addr:country": "US", "name": "Road Ranger", "brand": "Road Ranger", "brand:wikidata": "Q7339377"}, "geometry": {"type": "Point", "coordinates": [-90.375666200525, 43.963876928071]}},
{"type": "Feature", "id": "ThxXsZiP8fW6eQW1aEFk-D-KMnA=", "properties": {"ref": "205 North Highway Dr., Fenton MO (I-44, exit 275)", "amenity:fuel": true, "fuel:diesel": true, "fuel:propane": true, "fuel:HGV_diesel": true, "hgv": true, "@spider": "road_ranger", "addr:full": "205 North Highway Dr., Fenton MO (I-44, exit 275)", "addr:country": "US", "name": "Road Ranger", "brand": "Road Ranger", "brand:wikidata": "Q7339377"}, "geometry": {"type": "Point", "coordinates": [-90.4402527, 38.543452012651]}},
{"type": "Feature", "id": "NHnMjMq4nTXRMbsZ0DP5l9jsaQo=", "properties": {"ref": "2202 N Main St, Brinkley AR (I-40 exit 216)", "amenity:fuel": true, "fuel:diesel": true, "fuel:propane": true, "fuel:HGV_diesel": true, "hgv": true, "@spider": "road_ranger", "addr:full": "2202 N Main St, Brinkley AR (I-40 exit 216)", "addr:country": "US", "name": "Road Ranger", "brand": "Road Ranger", "brand:wikidata": "Q7339377"}, "geometry": {"type": "Point", "coordinates": [-91.194662565641, 34.913758495878]}},
{"type": "Feature", "id": "dkoePCdmULJ32rLUVYP-saNYnXw=", "properties": {"ref": "100 Plaza Drive, Elkrun Heights IA (Hwy 20, exit 68)", "amenity:fuel": true, "fuel:diesel": true, "fuel:propane": true, "fuel:HGV_diesel": true, "hgv": true, "@spider": "road_ranger", "addr:full": "100 Plaza Drive, Elkrun Heights IA (Hwy 20, exit 68)", "addr:country": "US", "name": "Road Ranger", "brand": "Road Ranger", "brand:wikidata": "Q7339377"}, "geometry": {"type": "Point", "coordinates": [-92.24712037432, 42.461117731653]}},
{"type": "Feature", "id": "3Iz-GaYHRPuwW1jJDwE3DhdIMk8=", "properties": {"ref": "22345 Hwy 28, St Roberts MO (I-44, exit 163)", "amenity:fuel": true, "fuel:diesel": true, "fuel:propane": true, "fuel:HGV_diesel": true, "hgv": true, "@spider": "road_ranger", "addr:full": "22345 Hwy 28, St Roberts MO (I-44, exit 163)", "addr:country": "US", "name": "Road Ranger", "brand": "Road Ranger", "brand:wikidata": "Q7339377"}, "geometry": {"type": "Point", "coordinates": [-92.1003536, 37.836333612334]}},
{"type": "Feature", "id": "YdA-oWSUm_PzS8roHXxorjvCgi8=", "properties": {"ref": "907 N. McCoy Blvd., New Boston TX (I-30, exit 201)", "amenity:fuel": true, "fuel:diesel": true, "fuel:propane": true, "fuel:HGV_diesel": true, "hgv": true, "@spider": "road_ranger", "addr:full": "907 N. McCoy Blvd., New Boston TX (I-30, exit 201)", "addr:country": "US", "name": "Road Ranger", "brand": "Road Ranger", "brand:wikidata": "Q7339377"}, "geometry": {"type": "Point", "coordinates": [-94.4094629, 33.478606710502]}},
{"type": "Feature", "id": "bNqZptnrnricvMh_ae3fwG5DkyI=", "properties": {"ref": "6615 N. Interstate Highway 35, Waco TX (1-35, exit 342B)", "amenity:fuel": true, "fuel:diesel": true, "fuel:propane": true, "fuel:HGV_diesel": true, "hgv": true, "@spider": "road_ranger", "addr:full": "6615 N. Interstate Highway 35, Waco TX (1-35, exit 342B)", "addr:country": "US", "name": "Road Ranger", "brand": "Road Ranger", "brand:wikidata": "Q7339377"}, "geometry": {"type": "Point", "coordinates": [-97.098516322789, 31.650740193053]}},
{"type": "Feature", "id": "ZyAF5eY3OTpAr1lJlvaJ868VRPw=", "properties": {"ref": "18337 Templeton Avenue, Combes TX (I-69 (Hwy 77) & Templeton St)", "amenity:fuel": true, "fuel:diesel": true, "fuel:propane": true, "fuel:HGV_diesel": true, "hgv": true, "@spider": "road_ranger", "addr:full": "18337 Templeton Avenue, Combes TX (I-69 (Hwy 77) & Templeton St)", "addr:country": "US", "name": "Road Ranger", "brand": "Road Ranger", "brand:wikidata": "Q7339377"}, "geometry": {"type": "Point", "coordinates": [-97.72891819259, 26.248869771073]}},
{"type": "Feature", "id": "PsYFOuoRsFm9Pj1x63Cdd-fpa4Q=", "properties": {"ref": "10602 S. Cage Blvd, Pharr TX (Military HWY 281)", "amenity:fuel": true, "fuel:diesel": true, "fuel:propane": true, "fuel:HGV_diesel": true, "hgv": true, "@spider": "road_ranger", "addr:full": "10602 S. Cage Blvd, Pharr TX (Military HWY 281)", "addr:country": "US", "name": "Road Ranger", "brand": "Road Ranger", "brand:wikidata": "Q7339377"}, "geometry": {"type": "Point", "coordinates": [-98.201649076984, 26.093573472458]}},
{"type": "Feature", "id": "GcT2hZfTwWSkWQ2IBlgj-quBr0I=", "properties": {"ref": "9977 North Interstate 35, Moore TX (I-35, exit 111)", "amenity:fuel": true, "fuel:diesel": true, "fuel:propane": true, "fuel:HGV_diesel": true, "hgv": true, "@spider": "road_ranger", "addr:full": "9977 North Interstate 35, Moore TX (I-35, exit 111)", "addr:country": "US", "name": "Road Ranger", "brand": "Road Ranger", "brand:wikidata": "Q7339377"}, "geometry": {"type": "Point", "coordinates": [-99.050575841105, 29.029083471945]}},
{"type": "Feature", "id": "Ww6Ct0Cv2Fpv4kGhxKGA9iRpt3k=", "properties": {"ref": "45 E. Texas State Highway 44, Encinal TX (I-35, exit 39)", "amenity:fuel": true, "fuel:diesel": true, "fuel:propane": true, "fuel:HGV_diesel": true, "hgv": true, "@spider": "road_ranger", "addr:full": "45 E. Texas State Highway 44, Encinal TX (I-35, exit 39)", "addr:country": "US", "name": "Road Ranger", "brand": "Road Ranger", "brand:wikidata": "Q7339377"}, "geometry": {"type": "Point", "coordinates": [-99.3487299, 28.046883926508]}},
{"type": "Feature", "id": "32vmIsTE8SWvtSfo_AImjc-B9cM=", "properties": {"ref": "601 Highway 277 N., Sonora TX (I-10, exit 400)", "amenity:fuel": true, "fuel:diesel": true, "fuel:propane": true, "fuel:HGV_diesel": true, "hgv": true, "@spider": "road_ranger", "addr:full": "601 Highway 277 N., Sonora TX (I-10, exit 400)", "addr:country": "US", "name": "Road Ranger", "brand": "Road Ranger", "brand:wikidata": "Q7339377"}, "geometry": {"type": "Point", "coordinates": [-100.6458837, 30.580641809384]}},
{"type": "Feature", "id": "enzYQIqCMx15YqW-OaV7VT9U4T4=", "properties": {"ref": "10490 W. Interstate Highway 20, Odessa TX (I-20, exit 108)", "amenity:fuel": true, "fuel:diesel": true, "fuel:propane": true, "fuel:HGV_diesel": true, "hgv": true, "@spider": "road_ranger", "addr:full": "10490 W. Interstate Highway 20, Odessa TX (I-20, exit 108)", "addr:country": "US", "name": "Road Ranger", "brand": "Road Ranger", "brand:wikidata": "Q7339377"}, "geometry": {"type": "Point", "coordinates": [-102.4786852, 31.788501289399]}},
{"type": "Feature", "id": "W9oYUS3nLzG1dkefvt8-CNiUgVk=", "properties": {"ref": "2300 TX-464 Loop Rd. Monahans, Texas", "amenity:fuel": true, "fuel:diesel": true, "fuel:propane": true, "fuel:HGV_diesel": true, "hgv": true, "@spider": "road_ranger", "addr:full": "2300 TX-464 Loop Rd. Monahans, Texas", "addr:country": "US", "name": "Road Ranger", "brand": "Road Ranger", "brand:wikidata": "Q7339377"}, "geometry": {"type": "Point", "coordinates": [-102.9179212, 31.588653709765]}}]}