{"type":"FeatureCollection","features":[{"type": "Feature", "id": "8p6uiojcut-Z-m8a01Fy3Gisw0w=", "properties": {"ref": "1615 East Main Street, Greenwood IN (I-65, exit 99)", "@spider": "roadranger", "addr:full": "1615 East Main Street, Greenwood IN (I-65", "addr:city": "exit", "addr:state": "99)", "name": "Road Ranger", "phone": "815315-4987", "brand": "Road Ranger"}, "geometry": {"type": "Point", "coordinates": [-86.070351819574, 39.613491380772]}},
{"type": "Feature", "id": "6uvKDHF7Syn19f7NNW0gp8Tx0Rw=", "properties": {"ref": "990 West State Road 42, Brazil IN (I-70, exit 23)", "@spider": "roadranger", "addr:full": "990 West State Road 42, Brazil IN (I-70", "addr:city": "exit", "addr:state": "23)", "name": "Road Ranger", "phone": "815209-9052", "brand": "Road Ranger"}, "geometry": {"type": "Point", "coordinates": [-87.125467211008, 39.446799599892]}},
{"type": "Feature", "id": "oEQ-kKQsOd2KvOW6qAviiWJ4Qyk=", "properties": {"ref": "2151 Ripley, Lake Station IN (I-80/94, exit 15A)", "@spider": "roadranger", "addr:full": "2151 Ripley, Lake Station IN (I-80/94", "addr:city": "exit", "addr:state": "15A)", "name": "Road Ranger", "phone": "815239-6205", "brand": "Road Ranger"}, "geometry": {"type": "Point", "coordinates": [-87.239649134988, 41.578516978978]}},
{"type": "Feature", "id": "7O3c9IWxANoF0nKpRgrMpRa38Ew=", "properties": {"ref": "2003 Illinois Hwy 1, Marshall IL (I-70 exit 147)", "@spider": "roadranger", "addr:full": "2003 Illinois Hwy 1", "addr:city": "Marshall IL (I-70 exit", "addr:state": "147)", "name": "Road Ranger", "phone": "815977-7323", "brand": "Road Ranger"}, "geometry": {"type": "Point", "coordinates": [-87.691613608073, 39.424683083014]}},
{"type": "Feature", "id": "TkJzOtHg4h2BPuGaW9N33vm1FlU=", "properties": {"ref": "3401 S California Ave, Chicago IL (I-55, Exit 288)", "@spider": "roadranger", "addr:full": "3401 S California Ave, Chicago IL (I-55", "addr:city": "Exit", "addr:state": "288)", "name": "Road Ranger", "phone": "815977-7020", "brand": "Road Ranger"}, "geometry": {"type": "Point", "coordinates": [-87.694532776687, 41.831464903269]}},
{"type": "Feature", "id": "bbJF3TlMBOKSUVA7ORh6l0d88rw=", "properties": {"ref": "1776 South Court Street, Grayville IL (I-64 Exit 130)", "@spider": "roadranger", "addr:full": "1776 South Court Street", "addr:city": "Grayville IL (I-64 Exit", "addr:state": "130)", "name": "Road Ranger", "phone": "815977-7083", "brand": "Road Ranger"}, "geometry": {"type": "Point", "coordinates": [-87.999532965676, 38.240242552523]}},
{"type": "Feature", "id": "IZ5fvzLkrELduM2rxDk1-Vugl20=", "properties": {"ref": "4910 North Market Street, Champaign IL (I-57, Exit 240)", "@spider": "roadranger", "addr:full": "4910 North Market Street, Champaign IL (I-57", "addr:city": "Exit", "addr:state": "240)", "name": "Road Ranger", "phone": "815315-4991", "brand": "Road Ranger"}, "geometry": {"type": "Point", "coordinates": [-88.240235117791, 40.17802209055]}},
{"type": "Feature", "id": "241Cyw0G6G-R_dopXGZi5SphNxk=", "properties": {"ref": "1112 East Southline Dr, Tuscola IL (I-57, exit 212)", "@spider": "roadranger", "addr:full": "1112 East Southline Dr, Tuscola IL (I-57", "addr:city": "exit", "addr:state": "212)", "name": "Road Ranger", "phone": "815315-4210", "brand": "Road Ranger"}, "geometry": {"type": "Point", "coordinates": [-88.268128535235, 39.792192009313]}},
{"type": "Feature", "id": "s7ZMgKnruNU7cvsUaCCzDIMNXYY=", "properties": {"ref": "1946 Energy Dr, East Troy WI (I-43, exit 38)", "@spider": "roadranger", "addr:full": "1946 Energy Dr, East Troy WI (I-43", "addr:city": "exit", "addr:state": "38)", "name": "Road Ranger", "phone": "815315-4979", "brand": "Road Ranger"}, "geometry": {"type": "Point", "coordinates": [-88.3892241, 42.790629914701]}},
{"type": "Feature", "id": "yGmYg2N09iZ9Qyx1tbi49W-Sfl8=", "properties": {"ref": "19N681 US Highway 20, Hampshire IL (I-90 exit 42)", "@spider": "roadranger", "addr:full": "19N681 US Highway 20", "addr:city": "Hampshire IL (I-90 exit", "addr:state": "42)", "name": "Road Ranger", "phone": "815209-9013", "brand": "Road Ranger"}, "geometry": {"type": "Point", "coordinates": [-88.5119539, 42.149298048615]}},
{"type": "Feature", "id": "F-9JgQRqWvt6iQCasEVcNjAaKOk=", "properties": {"ref": "3041 N. Illinois Route 71, Ottawa IL (I-80, exit 93)", "@spider": "roadranger", "addr:full": "3041 N. Illinois Route 71, Ottawa IL (I-80", "addr:city": "exit", "addr:state": "93)", "name": "Road Ranger", "phone": "815516-0946", "brand": "Road Ranger"}, "geometry": {"type": "Point", "coordinates": [-88.7770452, 41.37894151399]}},
{"type": "Feature", "id": "asibMigRfFG4FSoTZph58b-SkLA=", "properties": {"ref": "1701 IL-148, Marion IL (I-57 exit 45)", "@spider": "roadranger", "addr:full": "1701 IL-148", "addr:city": "Marion IL (I-57 exit", "addr:state": "45)", "name": "Road Ranger", "phone": "815860-0947", "brand": "Road Ranger"}, "geometry": {"type": "Point", "coordinates": [-88.985803, 37.619951]}},
{"type": "Feature", "id": "JQgd3D1DQ5nxrYTe2x6SYxCMCmg=", "properties": {"ref": "7500 East Riverside Blvd., Loves Park IL (I-90 exit 12)", "@spider": "roadranger", "addr:full": "7500 East Riverside Blvd.", "addr:city": "Loves Park IL (I-90 exit", "addr:state": "12)", "name": "Road Ranger", "phone": "815580-4221", "brand": "Road Ranger"}, "geometry": {"type": "Point", "coordinates": [-88.969333068053, 42.31947082843]}},
{"type": "Feature", "id": "FXmUkd-fipcCW_70VP3ZAkycwr0=", "properties": {"ref": "6070 Gardner Street, South Beloit IL (I-90, exit 1)", "@spider": "roadranger", "addr:full": "6070 Gardner Street, South Beloit IL (I-90", "addr:city": "exit", "addr:state": "1)", "name": "Road Ranger", "phone": "815264-4311", "brand": "Road Ranger"}, "geometry": {"type": "Point", "coordinates": [-88.9993718, 42.490980425995]}},
{"type": "Feature", "id": "WA8J3ysa8z_6joXQvstUW38qSCs=", "properties": {"ref": "890 E. Highway 38, Rochelle IL (I-39, exit 99)", "@spider": "roadranger", "addr:full": "890 E. Highway 38, Rochelle IL (I-39", "addr:city": "exit", "addr:state": "99)", "name": "Road Ranger", "phone": "815209-9038", "brand": "Road Ranger"}, "geometry": {"type": "Point", "coordinates": [-89.0350026, 41.933487893349]}},
{"type": "Feature", "id": "W3aDi6jhUI69fBXOV3F6RbrG9F8=", "properties": {"ref": "1311 Carolyn Dr, Minonk IL (I-39, Exit 27)", "@spider": "roadranger", "addr:full": "1311 Carolyn Dr, Minonk IL (I-39", "addr:city": "Exit", "addr:state": "27)", "name": "Road Ranger", "phone": "815315-4189", "brand": "Road Ranger"}, "geometry": {"type": "Point", "coordinates": [-89.053454603041, 40.912973117594]}},
{"type": "Feature", "id": "qLQ4KQ9kDxDgsmmTS5eYs0zay44=", "properties": {"ref": "2705 12th Street, Mendota, IL (I-39, exit 72)", "@spider": "roadranger", "addr:full": "2705 12th Street, Mendota, IL (I-39", "addr:city": "exit", "addr:state": "72)", "name": "Road Ranger", "phone": "815315-4210", "brand": "Road Ranger"}, "geometry": {"type": "Point", "coordinates": [-89.066749708895, 41.553886930383]}},
{"type": "Feature", "id": "wjxIVYtBgLd1zXKS3s2Sek3Xw6s=", "properties": {"ref": "1101 North 7th Street, Rochelle IL", "@spider": "roadranger", "addr:full": "1101 North 7th Street", "addr:city": "Rochelle", "addr:state": "IL", "name": "Road Ranger", "phone": "815656-4433", "brand": "Road Ranger"}, "geometry": {"type": "Point", "coordinates": [-89.0679032, 41.934286214266]}},
{"type": "Feature", "id": "NMi0emdKIbn6cgAaDQeTgfovtQY=", "properties": {"ref": "4980 S. Main Street, Rockford IL (Exit US 20 to IL 2)", "@spider": "roadranger", "addr:full": "4980 S. Main Street", "addr:city": "Rockford IL (Exit US 20 to IL", "addr:state": "2)", "name": "Road Ranger", "phone": "815315-4974", "brand": "Road Ranger"}, "geometry": {"type": "Point", "coordinates": [-89.1077166, 42.208525314404]}},
{"type": "Feature", "id": "3ZK6OtsAAHk6J8PXKmAwsf3ejKg=", "properties": {"ref": "315 E. Dixie Road Suite A, McLean IL (I-55, exit 145)", "@spider": "roadranger", "addr:full": "315 E. Dixie Road Suite A, McLean IL (I-55", "addr:city": "exit", "addr:state": "145)", "name": "Road Ranger", "phone": "815315-0774", "brand": "Road Ranger"}, "geometry": {"type": "Point", "coordinates": [-89.168844820971, 40.310462067864]}},
{"type": "Feature", "id": "XQ_qbuneA99WPYx0u4rJ17wSt64=", "properties": {"ref": "2762 County Hwy North, Cottage Grove WI (I-90, exit 147)", "@spider": "roadranger", "addr:full": "2762 County Hwy North, Cottage Grove WI (I-90", "addr:city": "exit", "addr:state": "147)", "name": "Road Ranger", "phone": "815580-4842", "brand": "Road Ranger"}, "geometry": {"type": "Point", "coordinates": [-89.199772776339, 42.998488065922]}},
{"type": "Feature", "id": "Sbh_A7YGYArp9j4Wc5-6_J7PNwo=", "properties": {"ref": "902 N Elida St, Winnebago IL (US 20 MM#8)", "@spider": "roadranger", "addr:full": "902 N Elida St", "addr:city": "Winnebago IL (US 20", "addr:state": "MM#8)", "name": "Road Ranger", "phone": "815957-4049", "brand": "Road Ranger"}, "geometry": {"type": "Point", "coordinates": [-89.242550241104, 42.280547913418]}},
{"type": "Feature", "id": "80cPb862NQotFsL7-wNKCXAQSts=", "properties": {"ref": "2835 North Main, Princeton IL (I-80, exit 56)", "@spider": "roadranger", "addr:full": "2835 North Main, Princeton IL (I-80", "addr:city": "exit", "addr:state": "56)", "name": "Road Ranger", "phone": "815315-4951", "brand": "Road Ranger"}, "geometry": {"type": "Point", "coordinates": [-89.4685448, 41.402944314002]}},
{"type": "Feature", "id": "e5gkzU5SLPldY8QeDJrdKvK058c=", "properties": {"ref": "1801 S. Galena Avenue, Dixon IL (I-88 Exit 54)", "@spider": "roadranger", "addr:full": "1801 S. Galena Avenue", "addr:city": "Dixon IL (I-88 Exit", "addr:state": "54)", "name": "Road Ranger", "phone": "815516-1998", "brand": "Road Ranger"}, "geometry": {"type": "Point", "coordinates": [-89.4751275, 41.82277451421]}},
{"type": "Feature", "id": "zxVVBL7Wt1cOxjeq-stdxG18zKs=", "properties": {"ref": "905 Hen House Road, Okawville IL (I-64, exit 41)", "@spider": "roadranger", "addr:full": "905 Hen House Road, Okawville IL (I-64", "addr:city": "exit", "addr:state": "41)", "name": "Road Ranger", "phone": "815656-4143", "brand": "Road Ranger"}, "geometry": {"type": "Point", "coordinates": [-89.5342269, 38.436478412603]}},
{"type": "Feature", "id": "DLRnPR8o_X_4KR6PaCQMeFab0pw=", "properties": {"ref": "3752 Camp Butler, Springfield, iL (I-55, exit 100A)", "@spider": "roadranger", "addr:full": "3752 Camp Butler, Springfield, iL (I-55", "addr:city": "exit", "addr:state": "100A)", "name": "Road Ranger", "phone": "815209-9059", "brand": "Road Ranger"}, "geometry": {"type": "Point", "coordinates": [-89.583694158548, 39.830628348344]}},
{"type": "Feature", "id": "67ysANM9vcgqT7DRdGv5Sld6U-4=", "properties": {"ref": "500 Toronto Road, Springfield IL (I-55, exit 90)", "@spider": "roadranger", "addr:full": "500 Toronto Road, Springfield IL (I-55", "addr:city": "exit", "addr:state": "90)", "name": "Road Ranger", "phone": "815516-0863", "brand": "Road Ranger"}, "geometry": {"type": "Point", "coordinates": [-89.649135, 39.71325731319]}},
{"type": "Feature", "id": "e6T6_phQUx8h22UfWWH_zbGFxR0=", "properties": {"ref": "700 King Rd., New Berlin IL (I-72, Exit 82)", "@spider": "roadranger", "addr:full": "700 King Rd., New Berlin IL (I-72", "addr:city": "Exit", "addr:state": "82)", "name": "Road Ranger", "phone": "815209-9009", "brand": "Road Ranger"}, "geometry": {"type": "Point", "coordinates": [-89.924479362268, 39.732346322364]}},
{"type": "Feature", "id": "UgwaCgZcUhqX11yOB-d65HeHCjM=", "properties": {"ref": "102 E. Woody, Oakdale WI (I-90/94, exit 15A)", "@spider": "roadranger", "addr:full": "102 E. Woody, Oakdale WI (I-90/94", "addr:city": "exit", "addr:state": "15A)", "name": "Road Ranger", "phone": "815209-9040", "brand": "Road Ranger"}, "geometry": {"type": "Point", "coordinates": [-90.375666200525, 43.963876928071]}},
{"type": "Feature", "id": "1rGLLLRxYqId478TXb11E5GLkQI=", "properties": {"ref": "205 North Highway Dr., Fenton MO (I-44, exit 275)", "@spider": "roadranger", "addr:full": "205 North Highway Dr., Fenton MO (I-44", "addr:city": "exit", "addr:state": "275)", "name": "Road Ranger", "phone": "815566-4043", "brand": "Road Ranger"}, "geometry": {"type": "Point", "coordinates": [-90.4402527, 38.543452012651]}},
{"type": "Feature", "id": "RDsdA9J2C0YfT6_6HhCi39lAIu0=", "properties": {"ref": "2202 N Main St, Brinkley AR (I-40 exit 216)", "@spider": "roadranger", "addr:full": "2202 N Main St", "addr:city": "Brinkley AR (I-40 exit", "addr:state": "216)", "name": "Road Ranger", "phone": "815561-4367", "brand": "Road Ranger"}, "geometry": {"type": "Point", "coordinates": [-91.194662565641, 34.913758495878]}},
{"type": "Feature", "id": "Bh-g9FIW8daUXvjauDOLk8OpbbQ=", "properties": {"ref": "100 Plaza Drive, Elkrun Heights IA (Hwy 20, exit 68)", "@spider": "roadranger", "addr:full": "100 Plaza Drive, Elkrun Heights IA (Hwy 20", "addr:city": "exit", "addr:state": "68)", "name": "Road Ranger", "phone": "815315-0271", "brand": "Road Ranger"}, "geometry": {"type": "Point", "coordinates": [-92.24712037432, 42.461117731653]}},
{"type": "Feature", "id": "nb5d1aPkeiSFFZm5EBmWJNeKwrA=", "properties": {"ref": "22345 Hwy 28, St Roberts MO (I-44, exit 163)", "@spider": "roadranger", "addr:full": "22345 Hwy 28, St Roberts MO (I-44", "addr:city": "exit", "addr:state": "163)", "name": "Road Ranger", "phone": "815315-4953", "brand": "Road Ranger"}, "geometry": {"type": "Point", "coordinates": [-92.1003536, 37.836333612334]}},
{"type": "Feature", "id": "SnP0gnOTP6FVGgLzmtkYZ-DScfk=", "properties": {"ref": "907 N. McCoy Blvd., New Boston TX (I-30, exit 201)", "@spider": "roadranger", "addr:full": "907 N. McCoy Blvd., New Boston TX (I-30", "addr:city": "exit", "addr:state": "201)", "name": "Road Ranger", "phone": "815860-0925", "brand": "Road Ranger"}, "geometry": {"type": "Point", "coordinates": [-94.4094629, 33.478606710502]}},
{"type": "Feature", "id": "oG9lqy7K4boPd4guC46BQYcUscE=", "properties": {"ref": "6615 N. Interstate Highway 35, Waco TX (1-35, exit 342B)", "@spider": "roadranger", "addr:full": "6615 N. Interstate Highway 35, Waco TX (1-35", "addr:city": "exit", "addr:state": "342B)", "name": "Road Ranger", "phone": "815977-7865", "brand": "Road Ranger"}, "geometry": {"type": "Point", "coordinates": [-97.098516322789, 31.650740193053]}},
{"type": "Feature", "id": "Y_eIxUmf9ekm8xNaXQs5GWMqAl4=", "properties": {"ref": "18337 Templeton Avenue, Combes TX (I-69 (Hwy 77) & Templeton St)", "@spider": "roadranger", "addr:full": "18337 Templeton Avenue", "addr:city": "Combes TX (I-69 (Hwy 77) & Templeton", "addr:state": "St)", "name": "Road Ranger", "phone": "815977-7376", "brand": "Road Ranger"}, "geometry": {"type": "Point", "coordinates": [-97.72891819259, 26.248869771073]}},
{"type": "Feature", "id": "vGw_WRtVOYoX7RdPIEzndC6koYw=", "properties": {"ref": "10602 S. Cage Blvd, Pharr TX (Military HWY 281)", "@spider": "roadranger", "addr:full": "10602 S. Cage Blvd", "addr:city": "Pharr TX (Military HWY", "addr:state": "281)", "name": "Road Ranger", "phone": "815977-7082", "brand": "Road Ranger"}, "geometry": {"type": "Point", "coordinates": [-98.201649076984, 26.093573472458]}},
{"type": "Feature", "id": "tPtKEH1d_xixn6CvH3PxmpLojMM=", "properties": {"ref": "9977 North Interstate 35, Moore TX (I-35, exit 111)", "@spider": "roadranger", "addr:full": "9977 North Interstate 35, Moore TX (I-35", "addr:city": "exit", "addr:state": "111)", "name": "Road Ranger", "phone": "830663-2940", "brand": "Road Ranger"}, "geometry": {"type": "Point", "coordinates": [-99.050575841105, 29.029083471945]}},
{"type": "Feature", "id": "ZlawZGXbzOHB-F2zPFnoTVkGK8Y=", "properties": {"ref": "45 E. Texas State Highway 44, Encinal TX (I-35, exit 39)", "@spider": "roadranger", "addr:full": "45 E. Texas State Highway 44, Encinal TX (I-35", "addr:city": "exit", "addr:state": "39)", "name": "Road Ranger", "phone": "815977-7374", "brand": "Road Ranger"}, "geometry": {"type": "Point", "coordinates": [-99.3487299, 28.046883926508]}},
{"type": "Feature", "id": "MmbbS7hk6rQdmlvnWPibVIv9KGo=", "properties": {"ref": "601 Highway 277 N., Sonora TX (I-10, exit 400)", "@spider": "roadranger", "addr:full": "601 Highway 277 N., Sonora TX (I-10", "addr:city": "exit", "addr:state": "400)", "name": "Road Ranger", "phone": "815860-0016", "brand": "Road Ranger"}, "geometry": {"type": "Point", "coordinates": [-100.6458837, 30.580641809384]}},
{"type": "Feature", "id": "m4Gr89tALsIMlpJTwO6PzTFgqyQ=", "properties": {"ref": "10490 W. Interstate Highway 20, Odessa TX (I-20, exit 108)", "@spider": "roadranger", "addr:full": "10490 W. Interstate Highway 20, Odessa TX (I-20", "addr:city": "exit", "addr:state": "108)", "name": "Road Ranger", "phone": "815977-7328", "brand": "Road Ranger"}, "geometry": {"type": "Point", "coordinates": [-102.4786852, 31.788501289399]}},
{"type": "Feature", "id": "nQ3NEVmet073xlk5nEGmhYDgOI8=", "properties": {"ref": "2300 TX-464 Loop Rd. Monahans, Texas", "@spider": "roadranger", "addr:full": "2300 TX-464 Loop Rd. Monahans", "addr:state": "Texas", "name": "Road Ranger", "phone": "815655-2800", "brand": "Road Ranger"}, "geometry": {"type": "Point", "coordinates": [-102.9179212, 31.588653709765]}}]}