{"type":"FeatureCollection","features":[{"type": "Feature", "id": "sk1XHNp8BfJu81uqjb4umn6o6eI=", "properties": {"ref": "3676", "maps_url": null, "url": "nordrhein-westfalen/morsbach/waldbroeler-str--37.html", "region": "nordrhein-westfalen", "store_code": "3676", "@spider": "rossmann_de", "addr:street": "Waldbr\u00f6ler Str. 37", "addr:city": "morsbach", "addr:postcode": "51597", "name": "Morsbach, 51597, Waldbr\u00f6ler Str. 37"}, "geometry": {"type": "Point", "coordinates": [7.722693336031, 50.874080205362]}},
{"type": "Feature", "id": "HehBfihEQicSNZ87Mi7C9xYOps4=", "properties": {"ref": "3640", "maps_url": "https://maps.google.com/maps?cid=12023532686076428838", "url": "nordrhein-westfalen/detmold/friedrich-ebert-str--86.html", "region": "nordrhein-westfalen", "store_code": "3640", "@spider": "rossmann_de", "addr:street": "Friedrich-Ebert-Str. 86", "addr:city": "detmold", "addr:postcode": "32760", "name": "Detmold, 32760, Friedrich-Ebert-Str. 86", "opening_hours": "Mo-Sa 08:30-19:00"}, "geometry": {"type": "Point", "coordinates": [8.843927446903, 51.923519436486]}},
{"type": "Feature", "id": "RDv2grp_fyMAHsPSvn21tze5-U0=", "properties": {"ref": "2791", "maps_url": "https://maps.google.com/maps?cid=17841403090306827621", "url": "nordrhein-westfalen/porta-westfalica/feldstr--20-b.html", "region": "nordrhein-westfalen", "store_code": "2791", "@spider": "rossmann_de", "addr:street": "Feldstr. 20 b", "addr:city": "porta-westfalica", "addr:postcode": "32457", "name": "Porta Westfalica, 32457, Feldstr. 20 b", "opening_hours": "Mo-Sa 09:00-20:00"}, "geometry": {"type": "Point", "coordinates": [8.902682319505, 52.259201764943]}},
{"type": "Feature", "id": "ej20kFa5zERv_B4KLf1-j0K6zUY=", "properties": {"ref": "2790", "maps_url": "https://maps.google.com/maps?cid=1429360003720104730", "url": "nordrhein-westfalen/remscheid/alleestr--77-81.html", "region": "nordrhein-westfalen", "store_code": "2790", "@spider": "rossmann_de", "addr:street": "Alleestr. 77-81", "addr:city": "remscheid", "addr:postcode": "42853", "name": "Remscheid, 42853, Alleestr. 77-81", "opening_hours": "Mo-Fr 09:00-20:00; Sa 08:30-19:00"}, "geometry": {"type": "Point", "coordinates": [7.186278230629, 51.180989992474]}},
{"type": "Feature", "id": "QdERt4hc-27f5CaPnc_BsXGM2B8=", "properties": {"ref": "2306", "maps_url": "https://maps.google.com/maps?cid=13354438278961010200", "url": "sachsen/dresden/jacob-winter-platz-13.html", "region": "sachsen", "store_code": "2306", "@spider": "rossmann_de", "addr:street": "Jacob-Winter-Platz 13", "addr:city": "dresden", "addr:postcode": "01239", "name": "Dresden, 01239, Jacob-Winter-Platz 13", "opening_hours": "Mo-Sa 08:00-20:00"}, "geometry": {"type": "Point", "coordinates": [13.796021454915, 51.006383211717]}},
{"type": "Feature", "id": "0Fqjk8n9yEpOYCLNFJ5T32UYDI8=", "properties": {"ref": "3638", "maps_url": "https://maps.google.com/maps?cid=17332297164896766494", "url": "hessen/gruendau/rudolf-walther-str--4a.html", "region": "hessen", "store_code": "3638", "@spider": "rossmann_de", "addr:street": "Rudolf-Walther-Str. 4a", "addr:city": "gruendau", "addr:postcode": "63584", "name": "Gr\u00fcndau, 63584, Rudolf-Walther-Str. 4a", "opening_hours": "Mo-Fr 09:00-20:00; Sa 08:00-20:00"}, "geometry": {"type": "Point", "coordinates": [9.13522171113, 50.202986372684]}},
{"type": "Feature", "id": "7EViaRPMIw21aeuz_eB8g1riGPU=", "properties": {"ref": "2789", "maps_url": "https://maps.google.com/maps?cid=13267138101770926483", "url": "brandenburg/potsdam/alexander-klein-str--4.html", "region": "brandenburg", "store_code": "2789", "@spider": "rossmann_de", "addr:street": "Alexander-Klein-Str. 4", "addr:city": "potsdam", "addr:postcode": "14469", "name": "Potsdam, 14469, Alexander-Klein-Str. 4", "opening_hours": "Mo-Sa 08:00-20:00"}, "geometry": {"type": "Point", "coordinates": [13.037057329228, 52.414294010018]}},
{"type": "Feature", "id": "i1dJVNQRJXql7YA2sdNEurtiWbQ=", "properties": {"ref": "2305", "maps_url": "https://maps.google.com/maps?cid=15337943478912215113", "url": "sachsen/dresden/pirnaer-landstr--230.html", "region": "sachsen", "store_code": "2305", "@spider": "rossmann_de", "addr:street": "Pirnaer Landstr. 230", "addr:city": "dresden", "addr:postcode": "01259", "name": "Dresden, 01259, Pirnaer Landstr. 230", "opening_hours": "Mo-Sa 08:00-20:00"}, "geometry": {"type": "Point", "coordinates": [13.841109021911, 51.002482349278]}},
{"type": "Feature", "id": "4z_ZB-acfN2GCAGLonT2Ktw5dDw=", "properties": {"ref": "3639", "maps_url": "https://maps.google.com/maps?cid=7055660337364892691", "url": "thueringen/gotha/schoene-allee-12.html", "region": "thueringen", "store_code": "3639", "@spider": "rossmann_de", "addr:street": "Sch\u00f6ne Allee 12", "addr:city": "gotha", "addr:postcode": "99867", "name": "Gotha, 99867, Sch\u00f6ne Allee 12", "opening_hours": "Mo-Sa 08:00-20:00"}, "geometry": {"type": "Point", "coordinates": [10.716410634824, 50.944856878494]}},
{"type": "Feature", "id": "2cQxJkrQA5n3M0P-rWvfPi4aLWg=", "properties": {"ref": "2788", "maps_url": "https://maps.google.com/maps?cid=7033062834597506257", "url": "niedersachsen/fuerstenau/werner-von-siemens-str--17.html", "region": "niedersachsen", "store_code": "2788", "@spider": "rossmann_de", "addr:street": "Werner-von-Siemens-Str. 17", "addr:city": "fuerstenau", "addr:postcode": "49584", "name": "F\u00fcrstenau, 49584, Werner-von-Siemens-Str. 17", "opening_hours": "Mo-Sa 08:30-20:00"}, "geometry": {"type": "Point", "coordinates": [7.688832294635, 52.51502209003]}},
{"type": "Feature", "id": "lw04us0LD-DkdP6JH_Cwq4nXsGk=", "properties": {"ref": "2787", "maps_url": "https://maps.google.com/maps?cid=4118587299380114992", "url": "nordrhein-westfalen/duesseldorf/niederrheinstr--76-78.html", "region": "nordrhein-westfalen", "store_code": "2787", "@spider": "rossmann_de", "addr:street": "Niederrheinstr. 76-78", "addr:city": "duesseldorf", "addr:postcode": "40474", "name": "D\u00fcsseldorf, 40474, Niederrheinstr. 76-78", "opening_hours": "Mo-Sa 07:30-21:00"}, "geometry": {"type": "Point", "coordinates": [6.743946848989, 51.273993826168]}},
{"type": "Feature", "id": "nuNYJmLVns6Q299aDqOjem_Uyns=", "properties": {"ref": "2303", "maps_url": "https://maps.google.com/maps?cid=10457384485587584961", "url": "nordrhein-westfalen/duesseldorf/benderstr--32.html", "region": "nordrhein-westfalen", "store_code": "2303", "@spider": "rossmann_de", "addr:street": "Benderstr. 32", "addr:city": "duesseldorf", "addr:postcode": "40625", "name": "D\u00fcsseldorf, 40625, Benderstr. 32", "opening_hours": "Mo-Sa 08:00-20:30"}, "geometry": {"type": "Point", "coordinates": [6.856424531419, 51.237094657936]}},
{"type": "Feature", "id": "IX7VsjB7zhalcZQ0BHTm8YNyS48=", "properties": {"ref": "2785", "maps_url": "https://maps.google.com/maps?cid=13177978389509850277", "url": "schleswig-holstein/ahrensboek/boekenbarg-4.html", "region": "schleswig-holstein", "store_code": "2785", "@spider": "rossmann_de", "addr:street": "B\u00f6kenbarg 4", "addr:city": "ahrensboek", "addr:postcode": "23623", "name": "Ahrensb\u00f6k, 23623, B\u00f6kenbarg 4", "opening_hours": "Mo-Sa 08:00-20:00"}, "geometry": {"type": "Point", "coordinates": [10.576227411856, 54.009657388598]}},
{"type": "Feature", "id": "QuCpn8LlHuMTA7qw6CLQ3jsF7gk=", "properties": {"ref": "2301", "maps_url": "https://maps.google.com/maps?cid=14853966451281897103", "url": "nordrhein-westfalen/dortmund/westenhellweg-65.html", "region": "nordrhein-westfalen", "store_code": "2301", "@spider": "rossmann_de", "addr:street": "Westenhellweg 65", "addr:city": "dortmund", "addr:postcode": "44137", "name": "Dortmund, 44137, Westenhellweg 65", "opening_hours": "Mo-Th 09:00-21:00; Fr-Sa 09:00-22:00"}, "geometry": {"type": "Point", "coordinates": [7.461317666964, 51.514430107515]}},
{"type": "Feature", "id": "g-gOtQZZPEtLQAUamXw0UJMCw00=", "properties": {"ref": "2784", "maps_url": "https://maps.google.com/maps?cid=3937905987908740026", "url": "nordrhein-westfalen/alsdorf/allensteiner-str--15.html", "region": "nordrhein-westfalen", "store_code": "2784", "@spider": "rossmann_de", "addr:street": "Allensteiner Str. 15", "addr:city": "alsdorf", "addr:postcode": "52477", "name": "Alsdorf, 52477, Allensteiner Str. 15", "opening_hours": "Mo-Sa 08:00-21:00"}, "geometry": {"type": "Point", "coordinates": [6.169135110785, 50.873376603649]}},
{"type": "Feature", "id": "nFhV57PO78jvxcER5H1E53O9J08=", "properties": {"ref": "2300", "maps_url": "https://maps.google.com/maps?cid=14235652812098190349", "url": "niedersachsen/braunschweig/damm-4.html", "region": "niedersachsen", "store_code": "2300", "@spider": "rossmann_de", "addr:street": "Damm 4", "addr:city": "braunschweig", "addr:postcode": "38100", "name": "Braunschweig, 38100, Damm 4", "opening_hours": "Mo-We 08:30-20:00; Th 08:30-21:00; Fr-Sa 08:30-20:00"}, "geometry": {"type": "Point", "coordinates": [10.522268981411, 52.262362831911]}},
{"type": "Feature", "id": "lYCPRlx6ddRdm4gs_1QdpRTr3qk=", "properties": {"ref": "2783", "maps_url": "https://maps.google.com/maps?cid=7471875764728079793", "url": "nordrhein-westfalen/essen/kupferdreher-str--128.html", "region": "nordrhein-westfalen", "store_code": "2783", "@spider": "rossmann_de", "addr:street": "Kupferdreher Str. 128", "addr:city": "essen", "addr:postcode": "45257", "name": "Essen, 45257, Kupferdreher Str. 128", "opening_hours": "Mo-Fr 08:00-19:30; Sa 08:00-17:00"}, "geometry": {"type": "Point", "coordinates": [7.082399858416, 51.393878073928]}},
{"type": "Feature", "id": "osWO8n_wOA9hH_1AOmAaS-AWb7I=", "properties": {"ref": "3630", "maps_url": "https://maps.google.com/maps?cid=1066832797656599946", "url": "berlin/berlin/schlossstr--1.html", "region": "berlin", "store_code": "3630", "@spider": "rossmann_de", "addr:street": "Schlo\u00dfstr. 1", "addr:city": "berlin", "addr:postcode": "12163", "name": "Berlin, 12163, Schlo\u00dfstr. 1"}, "geometry": {"type": "Point", "coordinates": [13.32625159047, 52.464558992831]}},
{"type": "Feature", "id": "xV3o4cHJHg_YpNxVC2aOWowFn7w=", "properties": {"ref": "3631", "maps_url": "https://maps.google.com/maps?cid=3137602957125818060", "url": "nordrhein-westfalen/oberhausen/heinestr--5.html", "region": "nordrhein-westfalen", "store_code": "3631", "@spider": "rossmann_de", "addr:street": "Heinestr. 5", "addr:city": "oberhausen", "addr:postcode": "46117", "name": "Oberhausen, 46117, Heinestr. 5", "opening_hours": "Mo-Sa 08:00-20:00"}, "geometry": {"type": "Point", "coordinates": [6.885864007618, 51.501952083135]}},
{"type": "Feature", "id": "aUbqFQstS83xTPEUjvobSnzmMys=", "properties": {"ref": "3633", "maps_url": "https://maps.google.com/maps?cid=4534170196052413114", "url": "hamburg/hamburg/alte-elbgaustr--1.html", "region": "hamburg", "store_code": "3633", "@spider": "rossmann_de", "addr:street": "Alte Elbgaustr. 1", "addr:city": "hamburg", "addr:postcode": "22523", "name": "Hamburg, 22523, Alte Elbgaustr. 1", "opening_hours": "Mo-Sa 08:00-20:00"}, "geometry": {"type": "Point", "coordinates": [9.904985645155, 53.607101110425]}},
{"type": "Feature", "id": "N6heYz_8bJizxcssYdimrnccW0o=", "properties": {"ref": "2308", "maps_url": "https://maps.google.com/maps?cid=6365045938908357467", "url": "nordrhein-westfalen/dortmund/schuetzenstr--96.html", "region": "nordrhein-westfalen", "store_code": "2308", "@spider": "rossmann_de", "addr:street": "Sch\u00fctzenstr. 96", "addr:city": "dortmund", "addr:postcode": "44147", "name": "Dortmund, 44147, Sch\u00fctzenstr. 96", "opening_hours": "Mo-Sa 08:00-20:00"}, "geometry": {"type": "Point", "coordinates": [7.450864458626, 51.525412003597]}},
{"type": "Feature", "id": "AWP1Luf4PA85J67Xqsct4Z_qwd0=", "properties": {"ref": "2307", "maps_url": "https://maps.google.com/maps?cid=1427837835344518462", "url": "nordrhein-westfalen/dortmund/deutsche-str--4.html", "region": "nordrhein-westfalen", "store_code": "2307", "@spider": "rossmann_de", "addr:street": "Deutsche Str. 4", "addr:city": "dortmund", "addr:postcode": "44339", "name": "Dortmund, 44339, Deutsche Str. 4", "opening_hours": "Mo-Sa 08:00-20:00"}, "geometry": {"type": "Point", "coordinates": [7.462882419891, 51.547543821116]}},
{"type": "Feature", "id": "e6StXhdudb_ZymhMjwuyjBn_Os0=", "properties": {"ref": "3651", "maps_url": "https://maps.google.com/maps?cid=8151607686030761643", "url": "baden-wuerttemberg/heilbronn/berliner-platz-12.html", "region": "baden-wuerttemberg", "store_code": "3651", "@spider": "rossmann_de", "addr:street": "Berliner Platz 12", "addr:city": "heilbronn", "addr:postcode": "74072", "name": "Heilbronn, 74072, Berliner Platz 12", "opening_hours": "Mo-Sa 09:00-20:00"}, "geometry": {"type": "Point", "coordinates": [9.221481126244, 49.145910701477]}},
{"type": "Feature", "id": "wvqGRRR3SAmgm6l7PVX-yKNoL_A=", "properties": {"ref": "2320", "maps_url": "https://maps.google.com/maps?cid=2429096618702575800", "url": "nordrhein-westfalen/hueckeswagen/etapler-platz-4.html", "region": "nordrhein-westfalen", "store_code": "2320", "@spider": "rossmann_de", "addr:street": "Etapler Platz 4", "addr:city": "hueckeswagen", "addr:postcode": "42499", "name": "H\u00fcckeswagen, 42499, Etapler Platz 4", "opening_hours": "Mo-Fr 08:30-19:00; Sa 08:30-18:00"}, "geometry": {"type": "Point", "coordinates": [7.343990579193, 51.150186896048]}},
{"type": "Feature", "id": "d_LIA8G8SXcBBcGRTE5KzxrB938=", "properties": {"ref": "2317", "maps_url": "https://maps.google.com/maps?cid=4564158380437587213", "url": "sachsen/freiberg/burgstr--21-23.html", "region": "sachsen", "store_code": "2317", "@spider": "rossmann_de", "addr:street": "Burgstr. 21-23", "addr:city": "freiberg", "addr:postcode": "09599", "name": "Freiberg, 09599, Burgstr. 21-23", "opening_hours": "Mo-Fr 08:30-19:00; Sa 08:30-18:00"}, "geometry": {"type": "Point", "coordinates": [13.341467183778, 50.919032101828]}},
{"type": "Feature", "id": "NotYUezNFGQPZAK8G65O72QdxKY=", "properties": {"ref": "2315", "maps_url": "https://maps.google.com/maps?cid=4378729450534365265", "url": "sachsen/freital/an-der-spinnerei-8.html", "region": "sachsen", "store_code": "2315", "@spider": "rossmann_de", "addr:street": "An der Spinnerei 8", "addr:city": "freital", "addr:postcode": "01705", "name": "Freital, 01705, An der Spinnerei 8", "opening_hours": "Mo-Fr 08:30-20:00; Sa 08:30-19:00"}, "geometry": {"type": "Point", "coordinates": [13.622868938105, 50.976548188005]}},
{"type": "Feature", "id": "F1V9QwhbP84AChtBgPyk6WpdPhY=", "properties": {"ref": "2798", "maps_url": "https://maps.google.com/maps?cid=1345397262173408958", "url": "nordrhein-westfalen/neuenkirchen/alphons-hecking-platz-8.html", "region": "nordrhein-westfalen", "store_code": "2798", "@spider": "rossmann_de", "addr:street": "Alphons-Hecking-Platz 8", "addr:city": "neuenkirchen", "addr:postcode": "48485", "name": "Neuenkirchen, 48485, Alphons-Hecking-Platz 8", "opening_hours": "Mo-Sa 08:00-20:00"}, "geometry": {"type": "Point", "coordinates": [7.368943157703, 52.242523510364]}},
{"type": "Feature", "id": "V5yNAv8Repy9SN3a-LDrcTGQYkA=", "properties": {"ref": "2314", "maps_url": "https://maps.google.com/maps?cid=11822544865863182618", "url": "saarland/freisen/bahnhofstr--50-c.html", "region": "saarland", "store_code": "2314", "@spider": "rossmann_de", "addr:street": "Bahnhofstr. 50 c", "addr:city": "freisen", "addr:postcode": "66629", "name": "Freisen, 66629, Bahnhofstr. 50 c", "opening_hours": "Mo-Fr 08:30-20:00; Sa 08:00-20:00"}, "geometry": {"type": "Point", "coordinates": [7.242183759451, 49.551919716382]}},
{"type": "Feature", "id": "bPF6sHiOL51GwcRnxdslAUJP9j0=", "properties": {"ref": "2797", "maps_url": "https://maps.google.com/maps?cid=15315368308645765716", "url": "nordrhein-westfalen/sassenberg/von-galen-str--21.html", "region": "nordrhein-westfalen", "store_code": "2797", "@spider": "rossmann_de", "addr:street": "Von-Galen-Str. 21", "addr:city": "sassenberg", "addr:postcode": "48336", "name": "Sassenberg, 48336, Von-Galen-Str. 21", "opening_hours": "Mo-Sa 08:00-20:00"}, "geometry": {"type": "Point", "coordinates": [8.039569578425, 51.989777188587]}},
{"type": "Feature", "id": "74gJxJfkkjFRiqaltMW72-hrBK8=", "properties": {"ref": "2313", "maps_url": "https://maps.google.com/maps?cid=15618319256078330961", "url": "hessen/frankfurt-am-main/kaiserstr--58.html", "region": "hessen", "store_code": "2313", "@spider": "rossmann_de", "addr:street": "Kaiserstr. 58", "addr:city": "frankfurt-am-main", "addr:postcode": "60329", "name": "Frankfurt am Main, 60329, Kaiserstr. 58", "opening_hours": "Mo-Sa 08:30-20:00"}, "geometry": {"type": "Point", "coordinates": [8.667878050441, 50.108325957667]}},
{"type": "Feature", "id": "7d-InGhLK55IvyffRwft8U8eCCE=", "properties": {"ref": "2312", "maps_url": "https://maps.google.com/maps?cid=11622894414459544010", "url": "baden-wuerttemberg/gernsbach/gottlieb-klumpp-str--16.html", "region": "baden-wuerttemberg", "store_code": "2312", "@spider": "rossmann_de", "addr:street": "Gottlieb-Klumpp-Str. 16", "addr:city": "gernsbach", "addr:postcode": "76593", "name": "Gernsbach, 76593, Gottlieb-Klumpp-Str. 16", "opening_hours": "Mo-Sa 08:00-20:00"}, "geometry": {"type": "Point", "coordinates": [8.338528904955, 48.763296781699]}},
{"type": "Feature", "id": "_dH6lrtN5pnEzyfVsG3OFf6kwC8=", "properties": {"ref": "5", "maps_url": "https://maps.google.com/maps?cid=5731011431111087232", "url": "niedersachsen/hannover/melanchthonstr--56.html", "region": "niedersachsen", "store_code": "5", "@spider": "rossmann_de", "addr:street": "Melanchthonstr. 56", "addr:city": "hannover", "addr:postcode": "30165", "name": "Hannover, 30165, Melanchthonstr. 56", "opening_hours": "Mo-Sa 08:00-20:00"}, "geometry": {"type": "Point", "coordinates": [9.732930495332, 52.398631163424]}},
{"type": "Feature", "id": "ViLr7qF6a_IA4iEmZ4A12zGyzsc=", "properties": {"ref": "6", "maps_url": "https://maps.google.com/maps?cid=5767406577525116336", "url": "niedersachsen/laatzen/marktplatz-11.html", "region": "niedersachsen", "store_code": "6", "@spider": "rossmann_de", "addr:street": "Marktplatz 11", "addr:city": "laatzen", "addr:postcode": "30880", "name": "Laatzen, 30880, Marktplatz 11", "opening_hours": "Mo-Sa 08:00-20:00"}, "geometry": {"type": "Point", "coordinates": [9.812204507636, 52.308290834677]}},
{"type": "Feature", "id": "PyFmCD_fQYtvDYzzfOAwWND1wf8=", "properties": {"ref": "2794", "maps_url": "https://maps.google.com/maps?cid=16733826692690366132", "url": "berlin/berlin/oraniendamm-6-10.html", "region": "berlin", "store_code": "2794", "@spider": "rossmann_de", "addr:street": "Oraniendamm 6-10", "addr:city": "berlin", "addr:postcode": "13469", "name": "Berlin, 13469, Oraniendamm 6-10", "opening_hours": "Mo-Th 08:00-20:00; Fr-Sa 08:00-21:00"}, "geometry": {"type": "Point", "coordinates": [13.32594317276, 52.60773047861]}},
{"type": "Feature", "id": "UQuxFUUzUF_pklKo1nyY0u8lBDk=", "properties": {"ref": "2310", "maps_url": "https://maps.google.com/maps?cid=10011558729160191077", "url": "thueringen/erfurt/mainzer-str--38-39.html", "region": "thueringen", "store_code": "2310", "@spider": "rossmann_de", "addr:street": "Mainzer Str. 38/39", "addr:city": "erfurt", "addr:postcode": "99089", "name": "Erfurt, 99089, Mainzer Str. 38/39", "opening_hours": "Mo-Sa 08:00-20:00"}, "geometry": {"type": "Point", "coordinates": [11.014629974166, 51.004181509369]}},
{"type": "Feature", "id": "IZFka5brLtVJX51PiZ8eX1utlMo=", "properties": {"ref": "3641", "maps_url": "https://maps.google.com/maps?cid=3078714455559769130", "url": "hessen/homberg/ohmstr--8-10.html", "region": "hessen", "store_code": "3641", "@spider": "rossmann_de", "addr:street": "Ohmstr. 8, 10", "addr:city": "homberg", "addr:postcode": "35315", "name": "Homberg, 35315, Ohmstr. 8, 10", "opening_hours": "Mo-Fr 08:30-20:00; Sa 08:30-18:00"}, "geometry": {"type": "Point", "coordinates": [8.988518777822, 50.733285883146]}},
{"type": "Feature", "id": "VdUazWip2Ze_pkD7fFAonsRQLpU=", "properties": {"ref": "8", "maps_url": "https://maps.google.com/maps?cid=7187317007955422728", "url": "niedersachsen/hannover/grupenstr--4.html", "region": "niedersachsen", "store_code": "8", "@spider": "rossmann_de", "addr:street": "Grupenstr. 4", "addr:city": "hannover", "addr:postcode": "30159", "name": "Hannover, 30159, Grupenstr. 4", "opening_hours": "Mo-Fr 08:30-21:00; Sa 09:00-21:00"}, "geometry": {"type": "Point", "coordinates": [9.737000088148, 52.372568690591]}},
{"type": "Feature", "id": "2SHgGri1-KWzTODcTmEygcZRZng=", "properties": {"ref": "3642", "maps_url": "https://maps.google.com/maps?cid=5952558639073662069", "url": "rheinland-pfalz/hermeskeil/am-doerrenbach-11.html", "region": "rheinland-pfalz", "store_code": "3642", "@spider": "rossmann_de", "addr:street": "Am D\u00f6rrenbach 11", "addr:city": "hermeskeil", "addr:postcode": "54411", "name": "Hermeskeil, 54411, Am D\u00f6rrenbach 11", "opening_hours": "Mo-Sa 08:00-20:00"}, "geometry": {"type": "Point", "coordinates": [6.934426557578, 49.659287841803]}},
{"type": "Feature", "id": "8080yFFyerBrJEaru1WOlGl4jlQ=", "properties": {"ref": "3644", "maps_url": "https://maps.google.com/maps?cid=16626813630625644310", "url": "hamburg/hamburg/kaekenflur-16-a.html", "region": "hamburg", "store_code": "3644", "@spider": "rossmann_de", "addr:street": "K\u00e4kenflur 16 a", "addr:city": "hamburg", "addr:postcode": "22419", "name": "Hamburg, 22419, K\u00e4kenflur 16 a", "opening_hours": "Mo-Sa 08:00-20:00"}, "geometry": {"type": "Point", "coordinates": [10.000245243655, 53.672113692667]}},
{"type": "Feature", "id": "7VnT6K7-GRCCGZh946iN1CeaqAM=", "properties": {"ref": "3645", "maps_url": "https://maps.google.com/maps?cid=12098733536330829883", "url": "baden-wuerttemberg/herrenberg/seelaenderplatz-1.html", "region": "baden-wuerttemberg", "store_code": "3645", "@spider": "rossmann_de", "addr:street": "Seel\u00e4nderplatz 1", "addr:city": "herrenberg", "addr:postcode": "71083", "name": "Herrenberg, 71083, Seel\u00e4nderplatz 1", "opening_hours": "Mo-Sa 08:00-20:00"}, "geometry": {"type": "Point", "coordinates": [8.867951010099, 48.597684494922]}},
{"type": "Feature", "id": "ErGa9QyT7AjuGpPnHLevEjBjlbs=", "properties": {"ref": "3648", "maps_url": "https://maps.google.com/maps?cid=12562770050555726392", "url": "nordrhein-westfalen/hagen/esserstr--20.html", "region": "nordrhein-westfalen", "store_code": "3648", "@spider": "rossmann_de", "addr:street": "Esserstr. 20", "addr:city": "hagen", "addr:postcode": "58119", "name": "Hagen, 58119, Esserstr. 20", "opening_hours": "Mo-Sa 08:00-20:00"}, "geometry": {"type": "Point", "coordinates": [7.563688553852, 51.359749571157]}},
{"type": "Feature", "id": "D2CTRC12qQRIgA4sZyR2clihaZg=", "properties": {"ref": "3660", "maps_url": "https://maps.google.com/maps?cid=8977249517156056244", "url": "nordrhein-westfalen/horstmar/koppelstr--4.html", "region": "nordrhein-westfalen", "store_code": "3660", "@spider": "rossmann_de", "addr:street": "Koppelstr. 4", "addr:city": "horstmar", "addr:postcode": "48612", "name": "Horstmar, 48612, Koppelstr. 4", "opening_hours": "Mo-Sa 08:00-20:00"}, "geometry": {"type": "Point", "coordinates": [7.311117075828, 52.083224185321]}},
{"type": "Feature", "id": "aB27cd9UpJgnGqa8rkhrXkbtoGo=", "properties": {"ref": "3662", "maps_url": "https://maps.google.com/maps?cid=12132210462823744239", "url": "schleswig-holstein/trittau/poststr--5.html", "region": "schleswig-holstein", "store_code": "3662", "@spider": "rossmann_de", "addr:street": "Poststr. 5", "addr:city": "trittau", "addr:postcode": "22946", "name": "Trittau, 22946, Poststr. 5", "opening_hours": "Mo-Sa 08:00-19:00"}, "geometry": {"type": "Point", "coordinates": [10.40811627866, 53.609403941257]}},
{"type": "Feature", "id": "Iem60T3pcFLmZPtfz8hpVma3_bI=", "properties": {"ref": "2330", "maps_url": "https://maps.google.com/maps?cid=12201947320479216354", "url": "niedersachsen/hildesheim/alfelder-str--55-a.html", "region": "niedersachsen", "store_code": "2330", "@spider": "rossmann_de", "addr:street": "Alfelder Str. 55 A", "addr:city": "hildesheim", "addr:postcode": "31139", "name": "Hildesheim, 31139, Alfelder Str. 55 A", "opening_hours": "Mo-Sa 08:00-20:00"}, "geometry": {"type": "Point", "coordinates": [9.940943334459, 52.140069234253]}},
{"type": "Feature", "id": "zwHoE3LAaRSX0i3OGWfzbz9Geig=", "properties": {"ref": "2326", "maps_url": "https://maps.google.com/maps?cid=12988980046306383875", "url": "niedersachsen/hameln/osterstr--42-43.html", "region": "niedersachsen", "store_code": "2326", "@spider": "rossmann_de", "addr:street": "Osterstr. 42-43", "addr:city": "hameln", "addr:postcode": "31785", "name": "Hameln, 31785, Osterstr. 42-43", "opening_hours": "Mo-Sa 08:00-20:00"}, "geometry": {"type": "Point", "coordinates": [9.35828612231, 52.104438878206]}},
{"type": "Feature", "id": "qIL8pxBMwFfi-Q26h6x6uvePpAQ=", "properties": {"ref": "2325", "maps_url": "https://maps.google.com/maps?cid=619282017289425121", "url": "bayern/herrieden/industriestr--5.html", "region": "bayern", "store_code": "2325", "@spider": "rossmann_de", "addr:street": "Industriestr. 5", "addr:city": "herrieden", "addr:postcode": "91567", "name": "Herrieden, 91567, Industriestr. 5", "opening_hours": "Mo-Sa 08:00-20:00"}, "geometry": {"type": "Point", "coordinates": [10.50558651799, 49.234093033533]}},
{"type": "Feature", "id": "mHsX3efhO7ROz_1mzoljdXDO3EU=", "properties": {"ref": "2323", "maps_url": "https://maps.google.com/maps?cid=15277933863705832351", "url": "hamburg/hamburg/spitalerstr--4.html", "region": "hamburg", "store_code": "2323", "@spider": "rossmann_de", "addr:street": "Spitalerstr. 4", "addr:city": "hamburg", "addr:postcode": "20095", "name": "Hamburg, 20095, Spitalerstr. 4", "opening_hours": "Mo-Sa 08:00-21:00"}, "geometry": {"type": "Point", "coordinates": [10.004259215813, 53.552532375094]}},
{"type": "Feature", "id": "rCReXCd66DBcgZy7Up545pq0B_o=", "properties": {"ref": "2321", "maps_url": "https://maps.google.com/maps?cid=16618002603607945128", "url": "bayern/hutthurm/am-kreisel-6.html", "region": "bayern", "store_code": "2321", "@spider": "rossmann_de", "addr:street": "Am Kreisel 6", "addr:city": "hutthurm", "addr:postcode": "94116", "name": "Hutthurm, 94116, Am Kreisel 6", "opening_hours": "Mo-Sa 08:00-20:00"}, "geometry": {"type": "Point", "coordinates": [13.482936494816, 48.668976104023]}},
{"type": "Feature", "id": "u4K3T6CONWzkOQJ7rbsCS2yeYc0=", "properties": {"ref": "3652", "maps_url": "https://maps.google.com/maps?cid=608387166417705887", "url": "nordrhein-westfalen/herten/bahnhofstr--79.html", "region": "nordrhein-westfalen", "store_code": "3652", "@spider": "rossmann_de", "addr:street": "Bahnhofstr. 79", "addr:city": "herten", "addr:postcode": "45701", "name": "Herten, 45701, Bahnhofstr. 79", "opening_hours": "Mo-Sa 08:30-19:30"}, "geometry": {"type": "Point", "coordinates": [7.086003038452, 51.604392249409]}},
{"type": "Feature", "id": "V6KUcqM9amwUDzg-e8pm6CUdFSs=", "properties": {"ref": "3654", "maps_url": "https://maps.google.com/maps?cid=14898425687925045533", "url": "bayern/tuerkheim/woerishofer-str--28.html", "region": "bayern", "store_code": "3654", "@spider": "rossmann_de", "addr:street": "W\u00f6rishofer Str. 28", "addr:city": "tuerkheim", "addr:postcode": "86842", "name": "T\u00fcrkheim, 86842, W\u00f6rishofer Str. 28", "opening_hours": "Mo-Sa 08:00-20:00"}, "geometry": {"type": "Point", "coordinates": [10.635162064007, 48.055710444181]}},
{"type": "Feature", "id": "orHzdbo4PGAreJ-ET6FdVopWg0s=", "properties": {"ref": "3655", "maps_url": "https://maps.google.com/maps?cid=290776067667998785", "url": "nordrhein-westfalen/augustdorf/rosenstr--6.html", "region": "nordrhein-westfalen", "store_code": "3655", "@spider": "rossmann_de", "addr:street": "Rosenstr. 6", "addr:city": "augustdorf", "addr:postcode": "32832", "name": "Augustdorf, 32832, Rosenstr. 6", "opening_hours": "Mo-Sa 08:30-19:30"}, "geometry": {"type": "Point", "coordinates": [8.736231320516, 51.908826472245]}},
{"type": "Feature", "id": "xBETmcL6m9IQv3kXCVCkrWbJw3g=", "properties": {"ref": "3656", "maps_url": "https://maps.google.com/maps?cid=17060601568164157721", "url": "nordrhein-westfalen/dormagen/koelner-str--96-100.html", "region": "nordrhein-westfalen", "store_code": "3656", "@spider": "rossmann_de", "addr:street": "K\u00f6lner Str. 96-100", "addr:city": "dormagen", "addr:postcode": "41539", "name": "Dormagen, 41539, K\u00f6lner Str. 96-100", "opening_hours": "Mo-Sa 08:30-19:00"}, "geometry": {"type": "Point", "coordinates": [6.840730283917, 51.09395948155]}},
{"type": "Feature", "id": "Milztfc7BU7xIFPHh8rGIc4pRHU=", "properties": {"ref": "3673", "maps_url": "https://maps.google.com/maps?cid=8001056060973816816", "url": "niedersachsen/nienburg/lange-str--87.html", "region": "niedersachsen", "store_code": "3673", "@spider": "rossmann_de", "addr:street": "Lange Str. 87", "addr:city": "nienburg", "addr:postcode": "31582", "name": "Nienburg, 31582, Lange Str. 87", "opening_hours": "Mo-Th 08:00-19:00; Fr 08:00-22:00; Sa 08:00-18:00"}, "geometry": {"type": "Point", "coordinates": [9.206723677617, 52.641166640369]}},
{"type": "Feature", "id": "OLP94R1-n4E8UJLl8KgCxMM4aVc=", "properties": {"ref": "1011", "maps_url": "https://maps.google.com/maps?cid=13512447513944784143", "url": "bayern/muenchen/passauerstr--38.html", "region": "bayern", "store_code": "1011", "@spider": "rossmann_de", "addr:street": "Passauerstr. 38", "addr:city": "muenchen", "addr:postcode": "81369", "name": "M\u00fcnchen, 81369, Passauerstr. 38", "opening_hours": "Mo-Sa 08:00-20:00"}, "geometry": {"type": "Point", "coordinates": [11.533577356346, 48.113267061118]}},
{"type": "Feature", "id": "UffpNDQo-R5Q1aFqRu-Hl3L7TSA=", "properties": {"ref": "2341", "maps_url": "https://maps.google.com/maps?cid=9622234422529313208", "url": "sachsen-anhalt/magdeburg/kosmos-promenade-10.html", "region": "sachsen-anhalt", "store_code": "2341", "@spider": "rossmann_de", "addr:street": "Kosmos-Promenade 10", "addr:city": "magdeburg", "addr:postcode": "39118", "name": "Magdeburg, 39118, Kosmos-Promenade 10", "opening_hours": "Mo-Fr 08:00-19:00; Sa 08:00-16:00"}, "geometry": {"type": "Point", "coordinates": [11.612407891209, 52.089851915589]}},
{"type": "Feature", "id": "ppAwJZ4a63GofPUPwnmrXMcLDx0=", "properties": {"ref": "2340", "maps_url": "https://maps.google.com/maps?cid=3698454777178511076", "url": "nordrhein-westfalen/muenster/salzstr--57.html", "region": "nordrhein-westfalen", "store_code": "2340", "@spider": "rossmann_de", "addr:street": "Salzstr. 57", "addr:city": "muenster", "addr:postcode": "48143", "name": "M\u00fcnster, 48143, Salzstr. 57", "opening_hours": "Mo-Fr 08:00-20:00; Sa 08:00-21:00"}, "geometry": {"type": "Point", "coordinates": [7.629292706199, 51.96201117465]}},
{"type": "Feature", "id": "xvVNVLKFXaJSPjhMOV96fwHr48U=", "properties": {"ref": "2339", "maps_url": "https://maps.google.com/maps?cid=2047119914159020362", "url": "sachsen/limbach-oberfrohna/helenenstr--12.html", "region": "sachsen", "store_code": "2339", "@spider": "rossmann_de", "addr:street": "Helenenstr. 12", "addr:city": "limbach-oberfrohna", "addr:postcode": "09212", "name": "Limbach-Oberfrohna, 09212, Helenenstr. 12", "opening_hours": "Mo-Fr 08:00-20:00; Sa 08:00-18:00"}, "geometry": {"type": "Point", "coordinates": [12.759148898478, 50.858872878662]}},
{"type": "Feature", "id": "Xo3SCds3gGKti54ewx_C56GZOHc=", "properties": {"ref": "2336", "maps_url": "https://maps.google.com/maps?cid=17481162954516709160", "url": "niedersachsen/holzminden/buelte-7.html", "region": "niedersachsen", "store_code": "2336", "@spider": "rossmann_de", "addr:street": "B\u00fclte 7", "addr:city": "holzminden", "addr:postcode": "37603", "name": "Holzminden, 37603, B\u00fclte 7", "opening_hours": "Mo-Sa 08:00-20:00"}, "geometry": {"type": "Point", "coordinates": [9.464753139747, 51.841180202591]}},
{"type": "Feature", "id": "oqVGnn_fQt_fbmxpugK0-kf8uEY=", "properties": {"ref": "1004", "maps_url": "https://maps.google.com/maps?cid=2099916863651587813", "url": "nordrhein-westfalen/aachen/haarener-gracht-1.html", "region": "nordrhein-westfalen", "store_code": "1004", "@spider": "rossmann_de", "addr:street": "Haarener Gracht 1", "addr:city": "aachen", "addr:postcode": "52080", "name": "Aachen, 52080, Haarener Gracht 1", "opening_hours": "Mo-Fr 09:00-19:00; Sa 09:00-18:00"}, "geometry": {"type": "Point", "coordinates": [6.127368877378, 50.795578831469]}},
{"type": "Feature", "id": "yPn3dncAwajxWyNlwioNnQtOds4=", "properties": {"ref": "2334", "maps_url": "https://maps.google.com/maps?cid=5428894821738405066", "url": "sachsen/kamenz/markt-14.html", "region": "sachsen", "store_code": "2334", "@spider": "rossmann_de", "addr:street": "Markt 14", "addr:city": "kamenz", "addr:postcode": "01917", "name": "Kamenz, 01917, Markt 14", "opening_hours": "Mo-Fr 08:00-20:00; Sa 08:00-16:00"}, "geometry": {"type": "Point", "coordinates": [14.095160818827, 51.270405891726]}},
{"type": "Feature", "id": "v8yC1DvDKDJ2bxM6gmatpPQ2eKQ=", "properties": {"ref": "2332", "maps_url": "https://maps.google.com/maps?cid=10317523969132464940", "url": "nordrhein-westfalen/koenigswinter/an-der-alten-schule-1-9.html", "region": "nordrhein-westfalen", "store_code": "2332", "@spider": "rossmann_de", "addr:street": "An der Alten Schule 1-9", "addr:city": "koenigswinter", "addr:postcode": "53639", "name": "K\u00f6nigswinter, 53639, An der Alten Schule 1-9", "opening_hours": "Mo-Fr 08:00-20:00; Sa 08:00-18:00"}, "geometry": {"type": "Point", "coordinates": [7.276269958608, 50.710162997573]}},
{"type": "Feature", "id": "o3IbYj4R16jC5nLsCyTyVToM-8k=", "properties": {"ref": "3666", "maps_url": "https://maps.google.com/maps?cid=13935313840125087927", "url": "thueringen/jena/wiesenstr--2.html", "region": "thueringen", "store_code": "3666", "@spider": "rossmann_de", "addr:street": "Wiesenstr. 2", "addr:city": "jena", "addr:postcode": "07749", "name": "Jena, 07749, Wiesenstr. 2", "opening_hours": "Mo-Sa 08:00-20:00"}, "geometry": {"type": "Point", "coordinates": [11.593990883703, 50.931942958658]}},
{"type": "Feature", "id": "FD9K6WhsB8jGFGtoquwH7c_q2rY=", "properties": {"ref": "3667", "maps_url": "https://maps.google.com/maps?cid=5064396500271475271", "url": "rheinland-pfalz/fussgoenheim/am-weisenheimer-weg-3.html", "region": "rheinland-pfalz", "store_code": "3667", "@spider": "rossmann_de", "addr:street": "Am Weisenheimer Weg 3", "addr:city": "fussgoenheim", "addr:postcode": "67136", "name": "Fu\u00dfg\u00f6nheim, 67136, Am Weisenheimer Weg 3", "opening_hours": "Mo-Sa 08:00-20:00"}, "geometry": {"type": "Point", "coordinates": [8.285792485819, 49.468073245361]}},
{"type": "Feature", "id": "N1XgXZ7UnL0-xfqjsrN5KZl4uiU=", "properties": {"ref": "1009", "maps_url": "https://maps.google.com/maps?cid=9914655347073293392", "url": "nordrhein-westfalen/koeln/olpener-str--886.html", "region": "nordrhein-westfalen", "store_code": "1009", "@spider": "rossmann_de", "addr:street": "Olpener Str. 886", "addr:city": "koeln", "addr:postcode": "51109", "name": "K\u00f6ln, 51109, Olpener Str. 886", "opening_hours": "Mo-Fr 09:00-19:00; Sa 09:00-15:00"}, "geometry": {"type": "Point", "coordinates": [7.075124066063, 50.945175723916]}},
{"type": "Feature", "id": "_DnPS_CrrfuCqWk74fqZDXZX_6o=", "properties": {"ref": "3680", "maps_url": "https://maps.google.com/maps?cid=12453071335003495119", "url": "sachsen/plauen/bahnhofstr--11-15.html", "region": "sachsen", "store_code": "3680", "@spider": "rossmann_de", "addr:street": "Bahnhofstr. 11-15", "addr:city": "plauen", "addr:postcode": "08523", "name": "Plauen, 08523, Bahnhofstr. 11-15", "opening_hours": "Mo-Fr 08:00-20:00; Sa 08:00-18:00"}, "geometry": {"type": "Point", "coordinates": [12.135941921516, 50.498159672428]}},
{"type": "Feature", "id": "gHpE4c9XP5VBdG5gPW2tx758bRY=", "properties": {"ref": "3681", "maps_url": "https://maps.google.com/maps?cid=6304309794430746753", "url": "bayern/augsburg/ulmer-str--91.html", "region": "bayern", "store_code": "3681", "@spider": "rossmann_de", "addr:street": "Ulmer Str. 91", "addr:city": "augsburg", "addr:postcode": "86156", "name": "Augsburg, 86156, Ulmer Str. 91", "opening_hours": "Mo-Sa 08:00-20:00"}, "geometry": {"type": "Point", "coordinates": [10.86430228816, 48.380420584849]}},
{"type": "Feature", "id": "voe0CbfcPofjWBuBezvB6vGja_s=", "properties": {"ref": "3683", "maps_url": "https://maps.google.com/maps?cid=15466447511692138277", "url": "bayern/wartenberg/strogenstr--63.html", "region": "bayern", "store_code": "3683", "@spider": "rossmann_de", "addr:street": "Strogenstr. 63", "addr:city": "wartenberg", "addr:postcode": "85456", "name": "Wartenberg, 85456, Strogenstr. 63", "opening_hours": "Mo-Sa 08:00-20:00"}, "geometry": {"type": "Point", "coordinates": [11.984381262536, 48.408560203944]}},
{"type": "Feature", "id": "HFRLo11fV1Hc92J706SNXhUldgc=", "properties": {"ref": "3684", "maps_url": "https://maps.google.com/maps?cid=7486470805155748644", "url": "nordrhein-westfalen/warstein/franz-hegemann-str--5.html", "region": "nordrhein-westfalen", "store_code": "3684", "@spider": "rossmann_de", "addr:street": "Franz-Hegemann-Str. 5", "addr:city": "warstein", "addr:postcode": "59581", "name": "Warstein, 59581, Franz-Hegemann-Str. 5", "opening_hours": "Mo-Sa 08:30-20:00"}, "geometry": {"type": "Point", "coordinates": [8.357001635917, 51.450871258443]}},
{"type": "Feature", "id": "-yDLhDRKB2T2FnKsiYaAHf4AP-w=", "properties": {"ref": "1022", "maps_url": "https://maps.google.com/maps?cid=17712757177917026810", "url": "bayern/muenchen/leonrodplatz-1-2.html", "region": "bayern", "store_code": "1022", "@spider": "rossmann_de", "addr:street": "Leonrodplatz 1-2", "addr:city": "muenchen", "addr:postcode": "80636", "name": "M\u00fcnchen, 80636, Leonrodplatz 1-2", "opening_hours": "Mo-Sa 08:00-20:00"}, "geometry": {"type": "Point", "coordinates": [11.547948155104, 48.158621079954]}},
{"type": "Feature", "id": "KQF1hmfdEiYZTFLxG_54x3QkpfU=", "properties": {"ref": "2353", "maps_url": "https://maps.google.com/maps?cid=9091599113456275105", "url": "niedersachsen/oldenburg/alter-postweg-125.html", "region": "niedersachsen", "store_code": "2353", "@spider": "rossmann_de", "addr:street": "Alter Postweg 125", "addr:city": "oldenburg", "addr:postcode": "26133", "name": "Oldenburg, 26133, Alter Postweg 125", "opening_hours": "Mo-Sa 08:00-21:00"}, "geometry": {"type": "Point", "coordinates": [8.211490476609, 53.102420566682]}},
{"type": "Feature", "id": "0OVT9G6hWoBL9NB6gCLNWSU1rbM=", "properties": {"ref": "2352", "maps_url": "https://maps.google.com/maps?cid=7103176343873937873", "url": "niedersachsen/osnabrueck/buersche-str--135.html", "region": "niedersachsen", "store_code": "2352", "@spider": "rossmann_de", "addr:street": "Buersche Str. 135", "addr:city": "osnabrueck", "addr:postcode": "49084", "name": "Osnabr\u00fcck, 49084, Buersche Str. 135", "opening_hours": "Mo-Sa 08:00-20:00"}, "geometry": {"type": "Point", "coordinates": [8.074073868486, 52.275431284532]}},
{"type": "Feature", "id": "bZeuwGN8b_sDneSakTOxqjuAsEw=", "properties": {"ref": "1019", "maps_url": "https://maps.google.com/maps?cid=13481891836996545103", "url": "bayern/freising/untere-hauptstr--10.html", "region": "bayern", "store_code": "1019", "@spider": "rossmann_de", "addr:street": "Untere Hauptstr. 10", "addr:city": "freising", "addr:postcode": "85354", "name": "Freising, 85354, Untere Hauptstr. 10", "opening_hours": "Mo-Fr 08:00-20:00; Sa 08:00-19:00"}, "geometry": {"type": "Point", "coordinates": [11.745146326274, 48.400944601584]}},
{"type": "Feature", "id": "_4tO64E6PxVOd8WqWRg13eW_bho=", "properties": {"ref": "1018", "maps_url": "https://maps.google.com/maps?cid=3227413233998969822", "url": "bayern/muenchen/rumfordstr--10.html", "region": "bayern", "store_code": "1018", "@spider": "rossmann_de", "addr:street": "Rumfordstr. 10", "addr:city": "muenchen", "addr:postcode": "80469", "name": "M\u00fcnchen, 80469, Rumfordstr. 10", "opening_hours": "Mo-Sa 08:00-20:00"}, "geometry": {"type": "Point", "coordinates": [11.576571848737, 48.133175545554]}},
{"type": "Feature", "id": "cB9m_PUEXJelugjRC_GeapxzcBc=", "properties": {"ref": "2349", "maps_url": "https://maps.google.com/maps?cid=9545485128373762413", "url": "baden-wuerttemberg/niedernhall/criesbacher-str--20.html", "region": "baden-wuerttemberg", "store_code": "2349", "@spider": "rossmann_de", "addr:street": "Criesbacher Str. 20", "addr:city": "niedernhall", "addr:postcode": "74676", "name": "Niedernhall, 74676, Criesbacher Str. 20", "opening_hours": "Mo-Sa 08:00-20:00"}, "geometry": {"type": "Point", "coordinates": [9.614641910772, 49.299333027311]}},
{"type": "Feature", "id": "9sL35clvzguwPWIulyyTzUhRdCA=", "properties": {"ref": "2348", "maps_url": "https://maps.google.com/maps?cid=13643853825772466837", "url": "baden-wuerttemberg/mainhardt/im-seetal-15.html", "region": "baden-wuerttemberg", "store_code": "2348", "@spider": "rossmann_de", "addr:street": "Im Seetal 15", "addr:city": "mainhardt", "addr:postcode": "74535", "name": "Mainhardt, 74535, Im Seetal 15", "opening_hours": "Mo-Fr 09:00-19:00; Sa 09:00-18:00"}, "geometry": {"type": "Point", "coordinates": [9.566159460526, 49.076063612461]}},
{"type": "Feature", "id": "jkxnyK4Sxmz5flqzm_EwrMOKpl4=", "properties": {"ref": "1016", "maps_url": "https://maps.google.com/maps?cid=5367603055421342658", "url": "bayern/vaterstetten/wendelsteinstr--5.html", "region": "bayern", "store_code": "1016", "@spider": "rossmann_de", "addr:street": "Wendelsteinstr. 5", "addr:city": "vaterstetten", "addr:postcode": "85591", "name": "Vaterstetten, 85591, Wendelsteinstr. 5", "opening_hours": "Mo-Fr 08:30-19:00; Sa 08:30-15:00"}, "geometry": {"type": "Point", "coordinates": [11.769543820795, 48.105487463785]}},
{"type": "Feature", "id": "K_PR8dCD0e_BiIKWGc3W2ksscjo=", "properties": {"ref": "2347", "maps_url": "https://maps.google.com/maps?cid=394470261122708574", "url": "nordrhein-westfalen/muenster/hiltruper-str--22.html", "region": "nordrhein-westfalen", "store_code": "2347", "@spider": "rossmann_de", "addr:street": "Hiltruper Str. 22", "addr:city": "muenster", "addr:postcode": "48167", "name": "M\u00fcnster, 48167, Hiltruper Str. 22", "opening_hours": "Mo-Sa 08:30-20:00"}, "geometry": {"type": "Point", "coordinates": [7.724029971801, 51.91448505463]}},
{"type": "Feature", "id": "jCBOtsD1Cqjhkf36lBp5sse3hls=", "properties": {"ref": "1015", "maps_url": "https://maps.google.com/maps?cid=3998621925041442958", "url": "bayern/haar/leibstr--24.html", "region": "bayern", "store_code": "1015", "@spider": "rossmann_de", "addr:street": "Leibstr. 24", "addr:city": "haar", "addr:postcode": "85540", "name": "Haar, 85540, Leibstr. 24", "opening_hours": "Mo-Sa 08:00-20:00"}, "geometry": {"type": "Point", "coordinates": [11.732548577308, 48.108751099273]}},
{"type": "Feature", "id": "5RZ0K4tHDXoIxm1SlT2DpoD-jQU=", "properties": {"ref": "2346", "maps_url": "https://maps.google.com/maps?cid=13482597795521754561", "url": "sachsen-anhalt/magdeburg/otto-von-guericke-str--11.html", "region": "sachsen-anhalt", "store_code": "2346", "@spider": "rossmann_de", "addr:street": "Otto-von-Guericke-Str. 11", "addr:city": "magdeburg", "addr:postcode": "39104", "name": "Magdeburg, 39104, Otto-von-Guericke-Str. 11", "opening_hours": "Mo-Sa 08:00-20:00"}, "geometry": {"type": "Point", "coordinates": [11.631253422977, 52.130805536038]}},
{"type": "Feature", "id": "kQ9ninuQccbWJMH8bU_3tJoVVWc=", "properties": {"ref": "2344", "maps_url": "https://maps.google.com/maps?cid=16962104231415401369", "url": "sachsen-anhalt/magdeburg/olvenstedter-scheid-26.html", "region": "sachsen-anhalt", "store_code": "2344", "@spider": "rossmann_de", "addr:street": "Olvenstedter Scheid 26", "addr:city": "magdeburg", "addr:postcode": "39130", "name": "Magdeburg, 39130, Olvenstedter Scheid 26", "opening_hours": "Mo-Sa 08:00-20:00"}, "geometry": {"type": "Point", "coordinates": [11.589951880601, 52.150914332255]}},
{"type": "Feature", "id": "v-piSlSM25a74Aw8DW-xNKWrFs0=", "properties": {"ref": "2343", "maps_url": "https://maps.google.com/maps?cid=16847700139633425206", "url": "nordrhein-westfalen/marl/huelsstr--13-15.html", "region": "nordrhein-westfalen", "store_code": "2343", "@spider": "rossmann_de", "addr:street": "H\u00fclsstr. 13/15", "addr:city": "marl", "addr:postcode": "45772", "name": "Marl, 45772, H\u00fclsstr. 13/15", "opening_hours": "Mo-Fr 09:00-19:00; Sa 09:00-16:00"}, "geometry": {"type": "Point", "coordinates": [7.13040975733, 51.663951034776]}},
{"type": "Feature", "id": "LPKHgDiG-sbTGbs6ncRRQ4vUQic=", "properties": {"ref": "3677", "maps_url": "https://maps.google.com/maps?cid=17279691149811112063", "url": "bayern/mainaschaff/johann-dahlem-str--11.html", "region": "bayern", "store_code": "3677", "@spider": "rossmann_de", "addr:street": "Johann-Dahlem-Str. 11", "addr:city": "mainaschaff", "addr:postcode": "63814", "name": "Mainaschaff, 63814, Johann-Dahlem-Str. 11", "opening_hours": "Mo-Sa 08:00-20:00"}, "geometry": {"type": "Point", "coordinates": [9.084900317099, 49.986833757576]}},
{"type": "Feature", "id": "qSMj_FvpoPoZcSsrqpgi5JSXYxQ=", "properties": {"ref": "3679", "maps_url": "https://maps.google.com/maps?cid=12048369309443358696", "url": "bayern/postbauer-heng/pyrbaumer-str--3-a.html", "region": "bayern", "store_code": "3679", "@spider": "rossmann_de", "addr:street": "Pyrbaumer Str. 3 a", "addr:city": "postbauer-heng", "addr:postcode": "92353", "name": "Postbauer-Heng, 92353, Pyrbaumer Str. 3 a", "opening_hours": "Mo-Sa 08:00-20:00"}, "geometry": {"type": "Point", "coordinates": [11.351219353655, 49.311768435414]}},
{"type": "Feature", "id": "bo_bRkKdsDDBRZsQmu_aqMU5-lk=", "properties": {"ref": "3692", "maps_url": "https://maps.google.com/maps?cid=2608057906660783149", "url": "baden-wuerttemberg/ulm/pfullendorfer-str--11.html", "region": "baden-wuerttemberg", "store_code": "3692", "@spider": "rossmann_de", "addr:street": "Pfullendorfer Str. 11", "addr:city": "ulm", "addr:postcode": "89079", "name": "Ulm, 89079, Pfullendorfer Str. 11", "opening_hours": "Mo-Sa 08:00-20:00"}, "geometry": {"type": "Point", "coordinates": [9.974395466955, 48.35082130373]}},
{"type": "Feature", "id": "VIA0SQ_s2E3lD9hHQzMMztyuvu8=", "properties": {"ref": "3694", "maps_url": "https://maps.google.com/maps?cid=7449605265090299754", "url": "berlin/berlin/hildburghauser-str--29a.html", "region": "berlin", "store_code": "3694", "@spider": "rossmann_de", "addr:street": "Hildburghauser Str. 29A", "addr:city": "berlin", "addr:postcode": "12279", "name": "Berlin, 12279, Hildburghauser Str. 29A", "opening_hours": "Mo-Sa 08:00-20:00"}, "geometry": {"type": "Point", "coordinates": [13.353392120258, 52.412789164486]}},
{"type": "Feature", "id": "OIjqHkX7stHyUL1KxZxetWrWi-o=", "properties": {"ref": "3695", "maps_url": "https://maps.google.com/maps?cid=374777935566401047", "url": "brandenburg/kleinmachnow/adolf-grimme-ring-8.html", "region": "brandenburg", "store_code": "3695", "@spider": "rossmann_de", "addr:street": "Adolf-Grimme-Ring 8", "addr:city": "kleinmachnow", "addr:postcode": "14532", "name": "Kleinmachnow, 14532, Adolf-Grimme-Ring 8", "opening_hours": "Mo-Sa 08:00-20:00"}, "geometry": {"type": "Point", "coordinates": [13.220355643843, 52.403275196907]}},
{"type": "Feature", "id": "TEi1GkCGc89gH8Lel7oskwLiwh8=", "properties": {"ref": "3211", "maps_url": "https://maps.google.com/maps?cid=7994034090215538895", "url": "niedersachsen/belm/marktring-18-22.html", "region": "niedersachsen", "store_code": "3211", "@spider": "rossmann_de", "addr:street": "Marktring 18-22", "addr:city": "belm", "addr:postcode": "49191", "name": "Belm, 49191, Marktring 18-22", "opening_hours": "Mo-Sa 08:00-20:00"}, "geometry": {"type": "Point", "coordinates": [8.125915212821, 52.303041980505]}},
{"type": "Feature", "id": "S9iEhISaMgHNqfeOjZuCOA772js=", "properties": {"ref": "3210", "maps_url": "https://maps.google.com/maps?cid=13662162361838934771", "url": "niedersachsen/hildesheim/bahnhofsplatz-1.html", "region": "niedersachsen", "store_code": "3210", "@spider": "rossmann_de", "addr:street": "Bahnhofsplatz 1", "addr:city": "hildesheim", "addr:postcode": "31134", "name": "Hildesheim, 31134, Bahnhofsplatz 1", "opening_hours": "Mo-Sa 06:00-21:00; Su 08:00-20:30"}, "geometry": {"type": "Point", "coordinates": [9.952926860375, 52.159446880186]}},
{"type": "Feature", "id": "V72H8pZmQeQBxfqglo5MBb26t3c=", "properties": {"ref": "1032", "maps_url": "https://maps.google.com/maps?cid=12492879766580761231", "url": "bayern/olching/hauptstr--37.html", "region": "bayern", "store_code": "1032", "@spider": "rossmann_de", "addr:street": "Hauptstr. 37", "addr:city": "olching", "addr:postcode": "82140", "name": "Olching, 82140, Hauptstr. 37", "opening_hours": "Mo-Fr 08:00-20:00; Sa 08:00-18:00"}, "geometry": {"type": "Point", "coordinates": [11.328549244581, 48.207742695261]}},
{"type": "Feature", "id": "XBMkLj2_K-0qSbN-hKuSjKHlDmw=", "properties": {"ref": "2363", "maps_url": "https://maps.google.com/maps?cid=17164295414683282282", "url": "niedersachsen/salzgitter/schaeferwiese-4-c.html", "region": "niedersachsen", "store_code": "2363", "@spider": "rossmann_de", "addr:street": "Sch\u00e4ferwiese 4 c", "addr:city": "salzgitter", "addr:postcode": "38239", "name": "Salzgitter, 38239, Sch\u00e4ferwiese 4 c", "opening_hours": "Mo-Sa 08:00-20:00"}, "geometry": {"type": "Point", "coordinates": [10.458612863186, 52.194874031923]}},
{"type": "Feature", "id": "LM2Ru7d3jZkWTl0mZ7ucEV3ZtQ4=", "properties": {"ref": "2362", "maps_url": "https://maps.google.com/maps?cid=5455503091549101163", "url": "nordrhein-westfalen/salzkotten/am-wallgraben-14.html", "region": "nordrhein-westfalen", "store_code": "2362", "@spider": "rossmann_de", "addr:street": "Am Wallgraben 14", "addr:city": "salzkotten", "addr:postcode": "33154", "name": "Salzkotten, 33154, Am Wallgraben 14", "opening_hours": "Mo-Sa 08:00-20:00"}, "geometry": {"type": "Point", "coordinates": [8.604871339308, 51.673348173829]}},
{"type": "Feature", "id": "V_c1Nbkr5jUbkjz0jegKbKrwB-k=", "properties": {"ref": "2361", "maps_url": "https://maps.google.com/maps?cid=13946716384774082235", "url": "bayern/reichertshofen/wackerstr--2.html", "region": "bayern", "store_code": "2361", "@spider": "rossmann_de", "addr:street": "Wackerstr. 2", "addr:city": "reichertshofen", "addr:postcode": "85084", "name": "Reichertshofen, 85084, Wackerstr. 2", "opening_hours": "Mo-Sa 08:00-20:00"}, "geometry": {"type": "Point", "coordinates": [11.476024541874, 48.653477902834]}},
{"type": "Feature", "id": "37XkmWuNLK1oO2UM_Qhr2grcrA8=", "properties": {"ref": "3207", "maps_url": "https://maps.google.com/maps?cid=7159910180040642869", "url": "niedersachsen/osnabrueck/iburger-str--225.html", "region": "niedersachsen", "store_code": "3207", "@spider": "rossmann_de", "addr:street": "Iburger Str. 225", "addr:city": "osnabrueck", "addr:postcode": "49082", "name": "Osnabr\u00fcck, 49082, Iburger Str. 225", "opening_hours": "Mo-Sa 08:00-20:00"}, "geometry": {"type": "Point", "coordinates": [8.06407374787, 52.24752095352]}},
{"type": "Feature", "id": "oY4RF_6qQvIxQFmFhbU45tOoHVA=", "properties": {"ref": "3206", "maps_url": "https://maps.google.com/maps?cid=12257414502002279690", "url": "bayern/obertraubling/regensburger-str--73.html", "region": "bayern", "store_code": "3206", "@spider": "rossmann_de", "addr:street": "Regensburger Str. 73", "addr:city": "obertraubling", "addr:postcode": "93083", "name": "Obertraubling, 93083, Regensburger Str. 73", "opening_hours": "Mo-Sa 08:00-20:00"}, "geometry": {"type": "Point", "coordinates": [12.156623385163, 48.973500428058]}},
{"type": "Feature", "id": "TdyVDSMlCCAXlxa5OEhsBe3DjRs=", "properties": {"ref": "1028", "maps_url": "https://maps.google.com/maps?cid=15507967559212728435", "url": "bayern/groebenzell/kirchenstr--12.html", "region": "bayern", "store_code": "1028", "@spider": "rossmann_de", "addr:street": "Kirchenstr. 12", "addr:city": "groebenzell", "addr:postcode": "82194", "name": "Gr\u00f6benzell, 82194, Kirchenstr. 12", "opening_hours": "Mo-Fr 08:00-20:00; Sa 08:00-18:00"}, "geometry": {"type": "Point", "coordinates": [11.372347729153, 48.194323340283]}},
{"type": "Feature", "id": "f4zPz4rGJXqDbJHk8MDE5OqTm-Q=", "properties": {"ref": "2359", "maps_url": "https://maps.google.com/maps?cid=15739430066529197808", "url": "niedersachsen/ronnenberg/chemnitzer-str--2-a.html", "region": "niedersachsen", "store_code": "2359", "@spider": "rossmann_de", "addr:street": "Chemnitzer Str. 2 a", "addr:city": "ronnenberg", "addr:postcode": "30952", "name": "Ronnenberg, 30952, Chemnitzer Str. 2 a", "opening_hours": "Mo-Sa 08:00-20:00"}, "geometry": {"type": "Point", "coordinates": [9.668966030401, 52.344166465179]}},
{"type": "Feature", "id": "WB7h_ZLOXinTuxExXXbXdNq74DA=", "properties": {"ref": "3205", "maps_url": "https://maps.google.com/maps?cid=16021396893762396667", "url": "hessen/stockstadt/friedrich-ludwig-jahn-str--27.html", "region": "hessen", "store_code": "3205", "@spider": "rossmann_de", "addr:street": "Friedrich-Ludwig-Jahn-Str. 27", "addr:city": "stockstadt", "addr:postcode": "64589", "name": "Stockstadt, 64589, Friedrich-Ludwig-Jahn-Str. 27", "opening_hours": "Mo-Sa 08:00-20:00"}, "geometry": {"type": "Point", "coordinates": [8.477906825732, 49.813064742776]}},
{"type": "Feature", "id": "OkKCeZMsRQYYU9F4M2uXbvXMtd0=", "properties": {"ref": "1027", "maps_url": "https://maps.google.com/maps?cid=15883886223893622146", "url": "bayern/muenchen/knorrstr--59.html", "region": "bayern", "store_code": "1027", "@spider": "rossmann_de", "addr:street": "Knorrstr. 59", "addr:city": "muenchen", "addr:postcode": "80807", "name": "M\u00fcnchen, 80807, Knorrstr. 59", "opening_hours": "Mo-Sa 08:00-20:00"}, "geometry": {"type": "Point", "coordinates": [11.572720321957, 48.184219707164]}},
{"type": "Feature", "id": "1wEKm0KBd7IJ7vE8ARTmDvynbOs=", "properties": {"ref": "3204", "maps_url": "https://maps.google.com/maps?cid=14614160152283719241", "url": "mecklenburg-vorpommern/schwerin/greifswalder-str--1.html", "region": "mecklenburg-vorpommern", "store_code": "3204", "@spider": "rossmann_de", "addr:street": "Greifswalder Str. 1", "addr:city": "schwerin", "addr:postcode": "19057", "name": "Schwerin, 19057, Greifswalder Str. 1", "opening_hours": "Mo-Sa 08:00-20:00"}, "geometry": {"type": "Point", "coordinates": [11.353103569967, 53.6469684074]}},
{"type": "Feature", "id": "2stANbOjqgXhx2U2HUKRxGIgO8M=", "properties": {"ref": "1026", "maps_url": "https://maps.google.com/maps?cid=654190849532233695", "url": "bayern/planegg/bahnhofstr--42.html", "region": "bayern", "store_code": "1026", "@spider": "rossmann_de", "addr:street": "Bahnhofstr. 42", "addr:city": "planegg", "addr:postcode": "82152", "name": "Planegg, 82152, Bahnhofstr. 42", "opening_hours": "Mo-Fr 08:00-20:00; Sa 08:00-18:00"}, "geometry": {"type": "Point", "coordinates": [11.415365802321, 48.105025569393]}},
{"type": "Feature", "id": "x2_0RLZZFiVc7IAthGUxYXaZf0s=", "properties": {"ref": "2357", "maps_url": "https://maps.google.com/maps?cid=7859720075406051954", "url": "bayern/roding/further-str--4.html", "region": "bayern", "store_code": "2357", "@spider": "rossmann_de", "addr:street": "Further Str. 4", "addr:city": "roding", "addr:postcode": "93426", "name": "Roding, 93426, Further Str. 4", "opening_hours": "Mo-Sa 08:00-20:00"}, "geometry": {"type": "Point", "coordinates": [12.521805017256, 49.197072281305]}},
{"type": "Feature", "id": "oCJTyn6PRZFXm1DHuAuoN7C1Hvo=", "properties": {"ref": "1025", "maps_url": "https://maps.google.com/maps?cid=17766708907911240257", "url": "bayern/muenchen/herterichstr--99.html", "region": "bayern", "store_code": "1025", "@spider": "rossmann_de", "addr:street": "Herterichstr. 99", "addr:city": "muenchen", "addr:postcode": "81477", "name": "M\u00fcnchen, 81477, Herterichstr. 99", "opening_hours": "Mo-Sa 08:00-20:00"}, "geometry": {"type": "Point", "coordinates": [11.507890779394, 48.078225591515]}},
{"type": "Feature", "id": "azrKoHAjbKAbsRKwTiikiMUpdSw=", "properties": {"ref": "2356", "maps_url": "https://maps.google.com/maps?cid=10911033445980759542", "url": "brandenburg/pritzwalk/rostocker-str--8.html", "region": "brandenburg", "store_code": "2356", "@spider": "rossmann_de", "addr:street": "Rostocker Str. 8", "addr:city": "pritzwalk", "addr:postcode": "16928", "name": "Pritzwalk, 16928, Rostocker Str. 8", "opening_hours": "Mo-Fr 08:00-19:00; Sa 08:00-18:00"}, "geometry": {"type": "Point", "coordinates": [12.1740806455, 53.15937150996]}},
{"type": "Feature", "id": "lM4FGnrLQxotRMk8p6dMVWir0Lg=", "properties": {"ref": "3202", "maps_url": "https://maps.google.com/maps?cid=8976691354726340720", "url": "brandenburg/schulzendorf/ernst-thaelmann-str--128.html", "region": "brandenburg", "store_code": "3202", "@spider": "rossmann_de", "addr:street": "Ernst-Th\u00e4lmann-Str. 128", "addr:city": "schulzendorf", "addr:postcode": "15732", "name": "Schulzendorf, 15732, Ernst-Th\u00e4lmann-Str. 128", "opening_hours": "Mo-Sa 08:00-20:00"}, "geometry": {"type": "Point", "coordinates": [13.591533455273, 52.36392190814]}},
{"type": "Feature", "id": "7PTY1RYgbjkqS0m22eLzkvp8bSk=", "properties": {"ref": "601", "maps_url": "https://maps.google.com/maps?cid=3865835067654445250", "url": "sachsen/dresden/oesterreicher-str--33.html", "region": "sachsen", "store_code": "601", "@spider": "rossmann_de", "addr:street": "\u00d6sterreicher Str. 33", "addr:city": "dresden", "addr:postcode": "01279", "name": "Dresden, 01279, \u00d6sterreicher Str. 33", "opening_hours": "Mo-Sa 08:00-20:00"}, "geometry": {"type": "Point", "coordinates": [13.836857744829, 51.026089303908]}},
{"type": "Feature", "id": "nLtjlDsnTkTbhF_cX_eHwBRkHZY=", "properties": {"ref": "3201", "maps_url": "https://maps.google.com/maps?cid=14831100812995132842", "url": "nordrhein-westfalen/selm/ferdinand-spahn-weg-1a.html", "region": "nordrhein-westfalen", "store_code": "3201", "@spider": "rossmann_de", "addr:street": "Ferdinand-Spahn-Weg 1a", "addr:city": "selm", "addr:postcode": "59379", "name": "Selm, 59379, Ferdinand-Spahn-Weg 1a", "opening_hours": "Mo-Sa 08:00-20:00"}, "geometry": {"type": "Point", "coordinates": [7.473451473501, 51.666660805109]}},
{"type": "Feature", "id": "zJnwZsE1RUpeynjnO7kW7iIVCc0=", "properties": {"ref": "2354", "maps_url": "https://maps.google.com/maps?cid=13567488712081832949", "url": "nordrhein-westfalen/oelde/lange-str--39.html", "region": "nordrhein-westfalen", "store_code": "2354", "@spider": "rossmann_de", "addr:street": "Lange Str. 39", "addr:city": "oelde", "addr:postcode": "59302", "name": "Oelde, 59302, Lange Str. 39", "opening_hours": "Mo-Sa 08:30-20:00"}, "geometry": {"type": "Point", "coordinates": [8.144566166019, 51.823578986526]}},
{"type": "Feature", "id": "DqeOvnIT5lBw009ZaUAFHafViGk=", "properties": {"ref": "602", "maps_url": "https://maps.google.com/maps?cid=5379952354388249536", "url": "sachsen-anhalt/eisleben/markt-11.html", "region": "sachsen-anhalt", "store_code": "602", "@spider": "rossmann_de", "addr:street": "Markt 11", "addr:city": "eisleben", "addr:postcode": "06295", "name": "Eisleben, 06295, Markt 11", "opening_hours": "Mo-Fr 08:00-19:00; Sa 08:00-18:00; Su 13:00-18:00"}, "geometry": {"type": "Point", "coordinates": [11.546634359871, 51.528485523097]}},
{"type": "Feature", "id": "QbY0GF56rxJcqd4-ENi3Cbtc1CY=", "properties": {"ref": "3685", "maps_url": "https://maps.google.com/maps?cid=9616150501327465751", "url": "thueringen/weida/am-schafberge-2.html", "region": "thueringen", "store_code": "3685", "@spider": "rossmann_de", "addr:street": "Am Schafberge 2", "addr:city": "weida", "addr:postcode": "07570", "name": "Weida, 07570, Am Schafberge 2", "opening_hours": "Mo-Sa 08:00-20:00"}, "geometry": {"type": "Point", "coordinates": [12.040025055652, 50.77967209205]}},
{"type": "Feature", "id": "54U5GXQOVDlurgEOafIvH8cCAQ8=", "properties": {"ref": "3686", "maps_url": "https://maps.google.com/maps?cid=11711961970803810469", "url": "mecklenburg-vorpommern/wismar/am-wiesengrund-1a.html", "region": "mecklenburg-vorpommern", "store_code": "3686", "@spider": "rossmann_de", "addr:street": "Am Wiesengrund 1A", "addr:city": "wismar", "addr:postcode": "23970", "name": "Wismar, 23970, Am Wiesengrund 1A", "opening_hours": "Mo-Sa 08:00-20:00"}, "geometry": {"type": "Point", "coordinates": [11.482620096872, 53.911406290752]}},
{"type": "Feature", "id": "3QqrTRVUcM2hM2waWl2syNTtRWc=", "properties": {"ref": "3687", "maps_url": "https://maps.google.com/maps?cid=14700148169891399616", "url": "baden-wuerttemberg/weissach-im-tal/welzheimer-str--42.html", "region": "baden-wuerttemberg", "store_code": "3687", "@spider": "rossmann_de", "addr:street": "Welzheimer Str. 42", "addr:city": "weissach-im-tal", "addr:postcode": "71554", "name": "Weissach im Tal, 71554, Welzheimer Str. 42", "opening_hours": "Mo-Sa 08:00-20:00"}, "geometry": {"type": "Point", "coordinates": [9.480359496322, 48.925805969948]}},
{"type": "Feature", "id": "QLequK0IAo1ZjxX9PpoGj4HdhvQ=", "properties": {"ref": "608", "maps_url": "https://maps.google.com/maps?cid=561900437034855956", "url": "brandenburg/senftenberg/am-neumarkt-2-4.html", "region": "brandenburg", "store_code": "608", "@spider": "rossmann_de", "addr:street": "Am Neumarkt 2-4", "addr:city": "senftenberg", "addr:postcode": "01968", "name": "Senftenberg, 01968, Am Neumarkt 2-4", "opening_hours": "Mo-Fr 08:00-19:00; Sa 08:00-18:00"}, "geometry": {"type": "Point", "coordinates": [14.002925922722, 51.517307661302]}},
{"type": "Feature", "id": "yljyMUuppxboAVLNw9ADpuuZCZM=", "properties": {"ref": "3222", "maps_url": "https://maps.google.com/maps?cid=10753084791674141925", "url": "brandenburg/herzberg/leipziger-str--12.html", "region": "brandenburg", "store_code": "3222", "@spider": "rossmann_de", "addr:street": "Leipziger Str. 12", "addr:city": "herzberg", "addr:postcode": "04916", "name": "Herzberg, 04916, Leipziger Str. 12", "opening_hours": "Mo-Sa 08:00-20:00"}, "geometry": {"type": "Point", "coordinates": [13.22313922308, 51.691151426483]}},
{"type": "Feature", "id": "JNO150heDMi99mR4jNP-dtjpvbQ=", "properties": {"ref": "2375", "maps_url": "https://maps.google.com/maps?cid=8567073503418776907", "url": "niedersachsen/uchte/zur-ihle-3-5.html", "region": "niedersachsen", "store_code": "2375", "@spider": "rossmann_de", "addr:street": "Zur Ihle 3-5", "addr:city": "uchte", "addr:postcode": "31600", "name": "Uchte, 31600, Zur Ihle 3-5", "opening_hours": "Mo-Fr 09:00-19:00; Sa 09:00-18:00"}, "geometry": {"type": "Point", "coordinates": [8.902889680602, 52.498748727699]}},
{"type": "Feature", "id": "MDLKbgXLoP8npbb46_4Emyzt4yA=", "properties": {"ref": "3221", "maps_url": "https://maps.google.com/maps?cid=48688410054136199", "url": "sachsen/meerane/august-bebel-str--47.html", "region": "sachsen", "store_code": "3221", "@spider": "rossmann_de", "addr:street": "August-Bebel-Str. 47", "addr:city": "meerane", "addr:postcode": "08393", "name": "Meerane, 08393, August-Bebel-Str. 47", "opening_hours": "Mo-Fr 08:00-20:00; Sa 08:00-18:00"}, "geometry": {"type": "Point", "coordinates": [12.466476281715, 50.850077166168]}},
{"type": "Feature", "id": "pMJcIcBqr7NJLGIMzek9LSBRE8Y=", "properties": {"ref": "1042", "maps_url": "https://maps.google.com/maps?cid=11187418489911883988", "url": "bayern/unterhaching/bahnhofsweg-10.html", "region": "bayern", "store_code": "1042", "@spider": "rossmann_de", "addr:street": "Bahnhofsweg 10", "addr:city": "unterhaching", "addr:postcode": "82008", "name": "Unterhaching, 82008, Bahnhofsweg 10", "opening_hours": "Mo-Sa 08:00-20:00"}, "geometry": {"type": "Point", "coordinates": [11.613396412321, 48.065831918631]}},
{"type": "Feature", "id": "thJz2uRu9Lf7blOm5qSntPswTfQ=", "properties": {"ref": "2373", "maps_url": "https://maps.google.com/maps?cid=8124361319419509265", "url": "schleswig-holstein/trappenkamp/gablonzer-str--3a.html", "region": "schleswig-holstein", "store_code": "2373", "@spider": "rossmann_de", "addr:street": "Gablonzer Str. 3a", "addr:city": "trappenkamp", "addr:postcode": "24610", "name": "Trappenkamp, 24610, Gablonzer Str. 3a", "opening_hours": "Mo-Sa 08:00-21:00"}, "geometry": {"type": "Point", "coordinates": [10.214279714748, 54.043020541456]}},
{"type": "Feature", "id": "BAWmF9myzBGZaOA7FM0FfhiMopE=", "properties": {"ref": "2372", "maps_url": "https://maps.google.com/maps?cid=12097214643491259253", "url": "hessen/staufenberg/marktstr--3.html", "region": "hessen", "store_code": "2372", "@spider": "rossmann_de", "addr:street": "Marktstr. 3", "addr:city": "staufenberg", "addr:postcode": "35460", "name": "Staufenberg, 35460, Marktstr. 3", "opening_hours": "Mo-Sa 08:00-20:00"}, "geometry": {"type": "Point", "coordinates": [8.737049450193, 50.657508446302]}},
{"type": "Feature", "id": "LOiZMg48gXMlEp_EiSFS9ZRAbe0=", "properties": {"ref": "2370", "maps_url": "https://maps.google.com/maps?cid=2745975833405853230", "url": "rheinland-pfalz/selters/luisenstr--11.html", "region": "rheinland-pfalz", "store_code": "2370", "@spider": "rossmann_de", "addr:street": "Luisenstr. 11", "addr:city": "selters", "addr:postcode": "56242", "name": "Selters, 56242, Luisenstr. 11", "opening_hours": "Mo-Sa 08:00-19:00"}, "geometry": {"type": "Point", "coordinates": [7.759269757503, 50.535718520302]}},
{"type": "Feature", "id": "qV59ircsDGHWlZMvKA5bRSseEw8=", "properties": {"ref": "3219", "maps_url": "https://maps.google.com/maps?cid=14292669166426180984", "url": "rheinland-pfalz/bodenheim/lange-ruthe-5.html", "region": "rheinland-pfalz", "store_code": "3219", "@spider": "rossmann_de", "addr:street": "Lange Ruthe 5", "addr:city": "bodenheim", "addr:postcode": "55294", "name": "Bodenheim, 55294, Lange Ruthe 5", "opening_hours": "Mo-Sa 08:00-20:00"}, "geometry": {"type": "Point", "coordinates": [8.325202959187, 49.92590972273]}},
{"type": "Feature", "id": "oq76L3KglXinBcMfMzbrHXWAfqo=", "properties": {"ref": "3218", "maps_url": "https://maps.google.com/maps?cid=14235506700308991663", "url": "bayern/muenchen/neurieder-str--14.html", "region": "bayern", "store_code": "3218", "@spider": "rossmann_de", "addr:street": "Neurieder Str. 14", "addr:city": "muenchen", "addr:postcode": "81475", "name": "M\u00fcnchen, 81475, Neurieder Str. 14", "opening_hours": "Mo-Fr 08:30-20:00; Sa 08:00-20:00"}, "geometry": {"type": "Point", "coordinates": [11.48514917938, 48.087332990369]}},
{"type": "Feature", "id": "JngEbu_0F4ezYks3xl49wMwVi18=", "properties": {"ref": "3217", "maps_url": "https://maps.google.com/maps?cid=16323659877792625547", "url": "nordrhein-westfalen/leverkusen/heinrich-von-stephan-str--4.html", "region": "nordrhein-westfalen", "store_code": "3217", "@spider": "rossmann_de", "addr:street": "Heinrich-von-Stephan-Str. 4", "addr:city": "leverkusen", "addr:postcode": "51373", "name": "Leverkusen, 51373, Heinrich-von-Stephan-Str. 4", "opening_hours": "Mo-Sa 09:00-19:00"}, "geometry": {"type": "Point", "coordinates": [6.990041818274, 51.031350191787]}},
{"type": "Feature", "id": "ROaZ4y6yeDIR2QbSk-nZJAjqupk=", "properties": {"ref": "1039", "maps_url": "https://maps.google.com/maps?cid=11480634846283469014", "url": "bayern/muenchen/agnes-bernauer-str--151.html", "region": "bayern", "store_code": "1039", "@spider": "rossmann_de", "addr:street": "Agnes-Bernauer-Str. 151", "addr:city": "muenchen", "addr:postcode": "80687", "name": "M\u00fcnchen, 80687, Agnes-Bernauer-Str. 151", "opening_hours": "Mo-Sa 08:00-20:00"}, "geometry": {"type": "Point", "coordinates": [11.489607068979, 48.140503362501]}},
{"type": "Feature", "id": "7Q2VngwwiLZUUZY9ChOQSQCwKWI=", "properties": {"ref": "2369", "maps_url": "https://maps.google.com/maps?cid=14141224532992064033", "url": "nordrhein-westfalen/roesrath/hauptstr--53-57.html", "region": "nordrhein-westfalen", "store_code": "2369", "@spider": "rossmann_de", "addr:street": "Hauptstr. 53-57", "addr:city": "roesrath", "addr:postcode": "51503", "name": "R\u00f6srath, 51503, Hauptstr. 53-57", "opening_hours": "Mo-Fr 08:00-19:00; Sa 08:00-17:00"}, "geometry": {"type": "Point", "coordinates": [7.182558269623, 50.897502467375]}},
{"type": "Feature", "id": "XQTS3CdTt4DHMzHIjIjkVY24IUI=", "properties": {"ref": "3215", "maps_url": "https://maps.google.com/maps?cid=12375589740535667662", "url": "bayern/freilassing/lindenstr--22.html", "region": "bayern", "store_code": "3215", "@spider": "rossmann_de", "addr:street": "Lindenstr. 22", "addr:city": "freilassing", "addr:postcode": "83395", "name": "Freilassing, 83395, Lindenstr. 22", "opening_hours": "Mo-Sa 08:00-20:00"}, "geometry": {"type": "Point", "coordinates": [12.979795344347, 47.839251167184]}},
{"type": "Feature", "id": "nqwOPYfLYV_9DDXucYhqDXTz-Yc=", "properties": {"ref": "3214", "maps_url": "https://maps.google.com/maps?cid=12050082467783864697", "url": "baden-wuerttemberg/eislingen/schlossplatz-3--5.html", "region": "baden-wuerttemberg", "store_code": "3214", "@spider": "rossmann_de", "addr:street": "Schlossplatz 3 + 5", "addr:city": "eislingen", "addr:postcode": "73054", "name": "Eislingen, 73054, Schlossplatz 3 + 5", "opening_hours": "Mo-Sa 08:00-20:00"}, "geometry": {"type": "Point", "coordinates": [9.705978491581, 48.697229854739]}},
{"type": "Feature", "id": "dnP2ywGgPMZDfgE-fCV3rIa0N_w=", "properties": {"ref": "2367", "maps_url": "https://maps.google.com/maps?cid=13754207746388195928", "url": "rheinland-pfalz/ramstein-miesenbach/rathausring-6.html", "region": "rheinland-pfalz", "store_code": "2367", "@spider": "rossmann_de", "addr:street": "Rathausring 6", "addr:city": "ramstein-miesenbach", "addr:postcode": "66877", "name": "Ramstein-Miesenbach, 66877, Rathausring 6", "opening_hours": "Mo-Sa 08:00-20:00"}, "geometry": {"type": "Point", "coordinates": [7.554462294432, 49.449353891779]}},
{"type": "Feature", "id": "PsKu7DFQRSNvOhGzSENSNzU7aTU=", "properties": {"ref": "3213", "maps_url": "https://maps.google.com/maps?cid=12290404913114047619", "url": "niedersachsen/emsbueren/in-der-maate-8.html", "region": "niedersachsen", "store_code": "3213", "@spider": "rossmann_de", "addr:street": "In der Maate 8", "addr:city": "emsbueren", "addr:postcode": "48488", "name": "Emsb\u00fcren, 48488, In der Maate 8", "opening_hours": "Mo-Sa 08:00-20:00"}, "geometry": {"type": "Point", "coordinates": [7.295637636137, 52.391170531936]}},
{"type": "Feature", "id": "2vFqzccpzw5mdwmOpLv7QjgQgBE=", "properties": {"ref": "3212", "maps_url": "https://maps.google.com/maps?cid=1702887789694439296", "url": "niedersachsen/georgsmarienhuette/am-rathaus-16.html", "region": "niedersachsen", "store_code": "3212", "@spider": "rossmann_de", "addr:street": "Am Rathaus 16", "addr:city": "georgsmarienhuette", "addr:postcode": "49124", "name": "Georgsmarienh\u00fctte, 49124, Am Rathaus 16", "opening_hours": "Mo-Sa 08:00-20:00"}, "geometry": {"type": "Point", "coordinates": [8.067950726938, 52.205104339665]}},
{"type": "Feature", "id": "0JYTSC9ldmaBli82Kth3e6NcvjA=", "properties": {"ref": "2365", "maps_url": "https://maps.google.com/maps?cid=1916922500002491654", "url": "niedersachsen/schoeningen/bismarckstr--2.html", "region": "niedersachsen", "store_code": "2365", "@spider": "rossmann_de", "addr:street": "Bismarckstr. 2", "addr:city": "schoeningen", "addr:postcode": "38364", "name": "Sch\u00f6ningen, 38364, Bismarckstr. 2", "opening_hours": "Mo-Fr 08:30-19:00; Sa 08:30-18:00"}, "geometry": {"type": "Point", "coordinates": [10.97074577534, 52.138305875223]}},
{"type": "Feature", "id": "yogvcWIjafZvkncxVDxiA1KpiUw=", "properties": {"ref": "613", "maps_url": "https://maps.google.com/maps?cid=9408172871982612098", "url": "berlin/berlin/otto-schmirgal-str--1.html", "region": "berlin", "store_code": "613", "@spider": "rossmann_de", "addr:street": "Otto-Schmirgal-Str. 1", "addr:city": "berlin", "addr:postcode": "10319", "name": "Berlin, 10319, Otto-Schmirgal-Str. 1", "opening_hours": "Mo-Sa 08:00-20:00"}, "geometry": {"type": "Point", "coordinates": [13.521850015723, 52.497649038945]}},
{"type": "Feature", "id": "ipxIxflaNfrhQYPcUGJtrttqnBg=", "properties": {"ref": "3696", "maps_url": "https://maps.google.com/maps?cid=11332591560695761880", "url": "hessen/ruesselsheim/europaplatz-135.html", "region": "hessen", "store_code": "3696", "@spider": "rossmann_de", "addr:street": "Europaplatz 1,3,5", "addr:city": "ruesselsheim", "addr:postcode": "65428", "name": "R\u00fcsselsheim, 65428, Europaplatz 1,3,5", "opening_hours": "Mo-Sa 08:00-20:00"}, "geometry": {"type": "Point", "coordinates": [8.412914526688, 49.992717894218]}},
{"type": "Feature", "id": "rxtvn3u3KltfDQNhkS_mqW7-jt0=", "properties": {"ref": "3698", "maps_url": "https://maps.google.com/maps?cid=16272158386577018391", "url": "nordrhein-westfalen/velbert/friedrichstr--202.html", "region": "nordrhein-westfalen", "store_code": "3698", "@spider": "rossmann_de", "addr:street": "Friedrichstr. 202", "addr:city": "velbert", "addr:postcode": "42551", "name": "Velbert, 42551, Friedrichstr. 202", "opening_hours": "Mo-Fr 09:00-19:00; Sa 09:00-16:00; Su 13:00-18:00"}, "geometry": {"type": "Point", "coordinates": [7.047446036439, 51.339156342207]}},
{"type": "Feature", "id": "aYUdlB0aLYNblOTavok7H9Nez0k=", "properties": {"ref": "3699", "maps_url": "https://maps.google.com/maps?cid=12630439983418672797", "url": "sachsen/zwickau/marienthaler-str--19.html", "region": "sachsen", "store_code": "3699", "@spider": "rossmann_de", "addr:street": "Marienthaler Str. 19", "addr:city": "zwickau", "addr:postcode": "08060", "name": "Zwickau, 08060, Marienthaler Str. 19", "opening_hours": "Mo-Sa 08:00-20:00"}, "geometry": {"type": "Point", "coordinates": [12.472010278161, 50.719924436454]}},
{"type": "Feature", "id": "IFVVASTgtm2ArV1Z6BP-w6gyKCY=", "properties": {"ref": "617", "maps_url": "https://maps.google.com/maps?cid=13662775664377997702", "url": "thueringen/heilbad-heiligenstadt/wilhelmstr--47.html", "region": "thueringen", "store_code": "617", "@spider": "rossmann_de", "addr:street": "Wilhelmstr. 47", "addr:city": "heilbad-heiligenstadt", "addr:postcode": "37308", "name": "Heilbad Heiligenstadt, 37308, Wilhelmstr. 47", "opening_hours": "Mo-Fr 08:30-19:00; Sa 08:30-15:00"}, "geometry": {"type": "Point", "coordinates": [10.137580807202, 51.377459028241]}},
{"type": "Feature", "id": "FaX-NRhOu-tVTC1JVzi7WBv_iWA=", "properties": {"ref": "1055", "maps_url": "https://maps.google.com/maps?cid=11548106473776336533", "url": "bayern/muenchen/augustenstr--79.html", "region": "bayern", "store_code": "1055", "@spider": "rossmann_de", "addr:street": "Augustenstr. 79", "addr:city": "muenchen", "addr:postcode": "80333", "name": "M\u00fcnchen, 80333, Augustenstr. 79", "opening_hours": "Mo-Sa 08:00-20:00"}, "geometry": {"type": "Point", "coordinates": [11.563797805398, 48.15074346825]}},
{"type": "Feature", "id": "Wfel0ejy2zUBrDpvGJv-SYE_TDM=", "properties": {"ref": "2385", "maps_url": "https://maps.google.com/maps?cid=6427491837963638141", "url": "nordrhein-westfalen/witten/annenstr--175.html", "region": "nordrhein-westfalen", "store_code": "2385", "@spider": "rossmann_de", "addr:street": "Annenstr. 175", "addr:city": "witten", "addr:postcode": "58453", "name": "Witten, 58453, Annenstr. 175", "opening_hours": "Mo-Fr 08:00-20:00; Sa 08:00-19:00"}, "geometry": {"type": "Point", "coordinates": [7.376047334407, 51.447648931214]}},
{"type": "Feature", "id": "4y1mHHJURccAljZHx6nHJ2u-iNo=", "properties": {"ref": "3231", "maps_url": "https://maps.google.com/maps?cid=602799110898262294", "url": "niedersachsen/horneburg/burggraben-1.html", "region": "niedersachsen", "store_code": "3231", "@spider": "rossmann_de", "addr:street": "Burggraben 1", "addr:city": "horneburg", "addr:postcode": "21640", "name": "Horneburg, 21640, Burggraben 1", "opening_hours": "Mo-Sa 08:00-20:00"}, "geometry": {"type": "Point", "coordinates": [9.582553340242, 53.507731031774]}},
{"type": "Feature", "id": "tURvaGOFIbJ7yEcWCIkQrr3sEqs=", "properties": {"ref": "2384", "maps_url": "https://maps.google.com/maps?cid=11465204184650884153", "url": "niedersachsen/weyhe/handelsweg-1.html", "region": "niedersachsen", "store_code": "2384", "@spider": "rossmann_de", "addr:street": "Handelsweg 1", "addr:city": "weyhe", "addr:postcode": "28844", "name": "Weyhe, 28844, Handelsweg 1", "opening_hours": "Mo-Sa 08:00-20:00"}, "geometry": {"type": "Point", "coordinates": [8.851167680925, 52.980525173286]}},
{"type": "Feature", "id": "TxISX0QhXBGA4PREpg1cVKv9G6o=", "properties": {"ref": "3230", "maps_url": "https://maps.google.com/maps?cid=1666378904040591875", "url": "rheinland-pfalz/kaiserslautern/kerststr--9-15.html", "region": "rheinland-pfalz", "store_code": "3230", "@spider": "rossmann_de", "addr:street": "Kerststr. 9-15", "addr:city": "kaiserslautern", "addr:postcode": "67655", "name": "Kaiserslautern, 67655, Kerststr. 9-15", "opening_hours": "Mo-Sa 08:00-20:00"}, "geometry": {"type": "Point", "coordinates": [7.76903094098, 49.442701902143]}},
{"type": "Feature", "id": "wghxjxayYwiiNnJY-h0vchbqbaY=", "properties": {"ref": "2383", "maps_url": "https://maps.google.com/maps?cid=6542414561481841077", "url": "niedersachsen/wathlingen/bachstr--2.html", "region": "niedersachsen", "store_code": "2383", "@spider": "rossmann_de", "addr:street": "Bachstr. 2", "addr:city": "wathlingen", "addr:postcode": "29339", "name": "Wathlingen, 29339, Bachstr. 2", "opening_hours": "Mo-Sa 08:00-20:00"}, "geometry": {"type": "Point", "coordinates": [10.140306071195, 52.540835228289]}},
{"type": "Feature", "id": "Ykx3Be_3Tmc10junVCYeKUwvfQE=", "properties": {"ref": "1051", "maps_url": "https://maps.google.com/maps?cid=17612062842914596301", "url": "bayern/muenchen/freischuetzstr--11.html", "region": "bayern", "store_code": "1051", "@spider": "rossmann_de", "addr:street": "Freisch\u00fctzstr. 11", "addr:city": "muenchen", "addr:postcode": "81927", "name": "M\u00fcnchen, 81927, Freisch\u00fctzstr. 11", "opening_hours": "Mo-Sa 08:00-20:00"}, "geometry": {"type": "Point", "coordinates": [11.64153950728, 48.157739690539]}},
{"type": "Feature", "id": "4oSw53jyAeWs-oBm9fV0llf5NbM=", "properties": {"ref": "1050", "maps_url": "https://maps.google.com/maps?cid=8471422011851236890", "url": "bayern/graefelfing/bahnhofstr--79-81.html", "region": "bayern", "store_code": "1050", "@spider": "rossmann_de", "addr:street": "Bahnhofstr. 79-81", "addr:city": "graefelfing", "addr:postcode": "82166", "name": "Gr\u00e4felfing, 82166, Bahnhofstr. 79-81", "opening_hours": "Mo-Fr 08:00-20:00; Sa 08:00-18:00"}, "geometry": {"type": "Point", "coordinates": [11.429284074765, 48.118338360526]}},
{"type": "Feature", "id": "4eERnb9xVoRQJ3aiu6Xvy5SGyr0=", "properties": {"ref": "2381", "maps_url": "https://maps.google.com/maps?cid=10357038281974672950", "url": "baden-wuerttemberg/oberderdingen/sternenfelser-str--55.html", "region": "baden-wuerttemberg", "store_code": "2381", "@spider": "rossmann_de", "addr:street": "Sternenfelser Str. 55", "addr:city": "oberderdingen", "addr:postcode": "75038", "name": "Oberderdingen, 75038, Sternenfelser Str. 55", "opening_hours": "Mo-Sa 08:00-20:00"}, "geometry": {"type": "Point", "coordinates": [8.807134137192, 49.061087333373]}},
{"type": "Feature", "id": "tG3oBGkFam8mbKeM-R2ehGw5sLw=", "properties": {"ref": "2380", "maps_url": "https://maps.google.com/maps?cid=8372155884531588203", "url": "bayern/ingolstadt/goethestr--61.html", "region": "bayern", "store_code": "2380", "@spider": "rossmann_de", "addr:street": "Goethestr. 61", "addr:city": "ingolstadt", "addr:postcode": "85055", "name": "Ingolstadt, 85055, Goethestr. 61", "opening_hours": "Mo-Sa 08:00-20:00"}, "geometry": {"type": "Point", "coordinates": [11.444792365241, 48.772993184978]}},
{"type": "Feature", "id": "AUdIR_Abf0RJI9MkuMe5yakx6E0=", "properties": {"ref": "3229", "maps_url": "https://maps.google.com/maps?cid=11140995856985588770", "url": "hessen/korbach/briloner-landstr--31.html", "region": "hessen", "store_code": "3229", "@spider": "rossmann_de", "addr:street": "Briloner Landstr. 31", "addr:city": "korbach", "addr:postcode": "34497", "name": "Korbach, 34497, Briloner Landstr. 31", "opening_hours": "Mo-Sa 08:00-20:00"}, "geometry": {"type": "Point", "coordinates": [8.865273850979, 51.277259769049]}},
{"type": "Feature", "id": "_447UGyVCfhei4s7TLFY0NLfKgc=", "properties": {"ref": "620", "maps_url": "https://maps.google.com/maps?cid=12297606696676772805", "url": "thueringen/saalfeld/markt-3-5.html", "region": "thueringen", "store_code": "620", "@spider": "rossmann_de", "addr:street": "Markt 3-5", "addr:city": "saalfeld", "addr:postcode": "07318", "name": "Saalfeld, 07318, Markt 3-5", "opening_hours": "Mo-Fr 07:30-19:30; Sa 08:00-18:00"}, "geometry": {"type": "Point", "coordinates": [11.361208619629, 50.647543193368]}},
{"type": "Feature", "id": "jSCDuW41kQkT313kCzdaM3aGf7A=", "properties": {"ref": "2378", "maps_url": "https://maps.google.com/maps?cid=304305177507014311", "url": "bayern/waldkirchen/bannholzstr--35.html", "region": "bayern", "store_code": "2378", "@spider": "rossmann_de", "addr:street": "Bannholzstr. 35", "addr:city": "waldkirchen", "addr:postcode": "94065", "name": "Waldkirchen, 94065, Bannholzstr. 35", "opening_hours": "Mo-Sa 08:00-20:00"}, "geometry": {"type": "Point", "coordinates": [13.608314359012, 48.733613721838]}},
{"type": "Feature", "id": "SzEzTOyhc1nMgXy8qh-wFCYLccI=", "properties": {"ref": "3224", "maps_url": "https://maps.google.com/maps?cid=7940280096098967489", "url": "bayern/nabburg/angerweiher-3-a.html", "region": "bayern", "store_code": "3224", "@spider": "rossmann_de", "addr:street": "Angerweiher 3 a", "addr:city": "nabburg", "addr:postcode": "92507", "name": "Nabburg, 92507, Angerweiher 3 a", "opening_hours": "Mo-Sa 08:00-20:00"}, "geometry": {"type": "Point", "coordinates": [12.190070657558, 49.453208223983]}},
{"type": "Feature", "id": "cG56lZ3KsJCl2zZ12u7lsnoyd8k=", "properties": {"ref": "3223", "maps_url": "https://maps.google.com/maps?cid=9078777351468715065", "url": "brandenburg/nauen/schillerstr--4.html", "region": "brandenburg", "store_code": "3223", "@spider": "rossmann_de", "addr:street": "Schillerstr. 4", "addr:city": "nauen", "addr:postcode": "14641", "name": "Nauen, 14641, Schillerstr. 4", "opening_hours": "Mo-Sa 08:00-20:00"}, "geometry": {"type": "Point", "coordinates": [12.857583667251, 52.610838915721]}},
{"type": "Feature", "id": "1_t3bzojVsyAGqOniALb2vxTgXk=", "properties": {"ref": "624", "maps_url": "https://maps.google.com/maps?cid=8372964230025972019", "url": "niedersachsen/oyten/hauptstr--106.html", "region": "niedersachsen", "store_code": "624", "@spider": "rossmann_de", "addr:street": "Hauptstr. 106", "addr:city": "oyten", "addr:postcode": "28876", "name": "Oyten, 28876, Hauptstr. 106", "opening_hours": "Mo-Fr 08:30-19:00; Sa 08:30-18:00"}, "geometry": {"type": "Point", "coordinates": [9.013461811731, 53.058897662324]}},
{"type": "Feature", "id": "SrXGby1Sp-mqk0Vdktp7dOni3eY=", "properties": {"ref": "629", "maps_url": "https://maps.google.com/maps?cid=6947334038636666020", "url": "berlin/berlin/badstr--4.html", "region": "berlin", "store_code": "629", "@spider": "rossmann_de", "addr:street": "Badstr. 4", "addr:city": "berlin", "addr:postcode": "13357", "name": "Berlin, 13357, Badstr. 4", "opening_hours": "Mo-Sa 08:00-21:00"}, "geometry": {"type": "Point", "coordinates": [13.38781613516, 52.549587363986]}},
{"type": "Feature", "id": "z2V0nSOW2DYtHZN-5rMNAD0ctyA=", "properties": {"ref": "3244", "maps_url": "https://maps.google.com/maps?cid=16723088573231065389", "url": "hamburg/hamburg/seeveplatz-1.html", "region": "hamburg", "store_code": "3244", "@spider": "rossmann_de", "addr:street": "Seeveplatz 1", "addr:city": "hamburg", "addr:postcode": "21073", "name": "Hamburg, 21073, Seeveplatz 1", "opening_hours": "Mo-Sa 08:00-20:00"}, "geometry": {"type": "Point", "coordinates": [9.987432675022, 53.457931820069]}},
{"type": "Feature", "id": "ySCdjJY2lTPfAa_5iWwCVy7PZWM=", "properties": {"ref": "1065", "maps_url": "https://maps.google.com/maps?cid=1622892434734173146", "url": "bayern/muenchen/einsteinstr--104.html", "region": "bayern", "store_code": "1065", "@spider": "rossmann_de", "addr:street": "Einsteinstr. 104", "addr:city": "muenchen", "addr:postcode": "81675", "name": "M\u00fcnchen, 81675, Einsteinstr. 104", "opening_hours": "Mo-Sa 08:00-20:00"}, "geometry": {"type": "Point", "coordinates": [11.608396913467, 48.135858403276]}},
{"type": "Feature", "id": "aaRD4MDl_AGp0l4g6HPblG5jgBA=", "properties": {"ref": "2396", "maps_url": "https://maps.google.com/maps?cid=11344044846697914026", "url": "hessen/bad-schwalbach/edmund-heusinger-str--3.html", "region": "hessen", "store_code": "2396", "@spider": "rossmann_de", "addr:street": "Edmund-Heusinger-Str. 3", "addr:city": "bad-schwalbach", "addr:postcode": "65307", "name": "Bad Schwalbach, 65307, Edmund-Heusinger-Str. 3", "opening_hours": "Mo-Sa 08:00-20:00"}, "geometry": {"type": "Point", "coordinates": [8.04999359154, 50.142354619096]}},
{"type": "Feature", "id": "nXllhA2klNHVO-PIufKNhbo1Bqo=", "properties": {"ref": "3242", "maps_url": "https://maps.google.com/maps?cid=10656077802499010309", "url": "sachsen-anhalt/havelberg/uferstr--12.html", "region": "sachsen-anhalt", "store_code": "3242", "@spider": "rossmann_de", "addr:street": "Uferstr. 12", "addr:city": "havelberg", "addr:postcode": "39539", "name": "Havelberg, 39539, Uferstr. 12", "opening_hours": "Mo-Fr 08:30-19:00; Sa 08:30-18:00"}, "geometry": {"type": "Point", "coordinates": [12.071881935711, 52.824932427053]}},
{"type": "Feature", "id": "QRDL8zQlgI4_A1ZSdEpDey2mDiQ=", "properties": {"ref": "2395", "maps_url": "https://maps.google.com/maps?cid=12161596360023939300", "url": "niedersachsen/bruchhausen-vilsen/zur-kleinbahn-3.html", "region": "niedersachsen", "store_code": "2395", "@spider": "rossmann_de", "addr:street": "Zur Kleinbahn 3", "addr:city": "bruchhausen-vilsen", "addr:postcode": "27305", "name": "Bruchhausen-Vilsen, 27305, Zur Kleinbahn 3", "opening_hours": "Mo-Sa 09:00-19:00"}, "geometry": {"type": "Point", "coordinates": [8.994234495984, 52.828363298132]}},
{"type": "Feature", "id": "NK3gC1fk3M8-Is54LIFYUG5f_6w=", "properties": {"ref": "2391", "maps_url": "https://maps.google.com/maps?cid=1131148269290479030", "url": "niedersachsen/noerten-hardenberg/goettinger-str--15-16.html", "region": "niedersachsen", "store_code": "2391", "@spider": "rossmann_de", "addr:street": "G\u00f6ttinger Str. 15-16", "addr:city": "noerten-hardenberg", "addr:postcode": "37176", "name": "N\u00f6rten-Hardenberg, 37176, G\u00f6ttinger Str. 15-16", "opening_hours": "Mo-Sa 08:00-20:00"}, "geometry": {"type": "Point", "coordinates": [9.937110896903, 51.628536403527]}},
{"type": "Feature", "id": "N11DjyPaUf_sbm3jv3hvH_yyckc=", "properties": {"ref": "3239", "maps_url": "https://maps.google.com/maps?cid=6160053974472454575", "url": "nordrhein-westfalen/moenchengladbach/geusenstr--20.html", "region": "nordrhein-westfalen", "store_code": "3239", "@spider": "rossmann_de", "addr:street": "Geusenstr. 20", "addr:city": "moenchengladbach", "addr:postcode": "41179", "name": "M\u00f6nchengladbach, 41179, Geusenstr. 20", "opening_hours": "Mo-Sa 08:00-20:00"}, "geometry": {"type": "Point", "coordinates": [6.368839020141, 51.147951170603]}},
{"type": "Feature", "id": "BdYcKdR2T9LXAFOV8bSoL1PyS-I=", "properties": {"ref": "3238", "maps_url": "https://maps.google.com/maps?cid=4555922411392918857", "url": "nordrhein-westfalen/luenen/baukelweg-1-c.html", "region": "nordrhein-westfalen", "store_code": "3238", "@spider": "rossmann_de", "addr:street": "Baukelweg 1 c", "addr:city": "luenen", "addr:postcode": "44532", "name": "L\u00fcnen, 44532, Baukelweg 1 c", "opening_hours": "Mo-Sa 08:00-20:00"}, "geometry": {"type": "Point", "coordinates": [7.548256620168, 51.59333965501]}},
{"type": "Feature", "id": "KiJRRtSusBBkhDjap6mdVhVqzto=", "properties": {"ref": "631", "maps_url": "https://maps.google.com/maps?cid=75543771351236451", "url": "berlin/berlin/frankfurter-allee-113.html", "region": "berlin", "store_code": "631", "@spider": "rossmann_de", "addr:street": "Frankfurter Allee 113", "addr:city": "berlin", "addr:postcode": "10365", "name": "Berlin, 10365, Frankfurter Allee 113", "opening_hours": "Mo-Sa 09:00-21:00"}, "geometry": {"type": "Point", "coordinates": [13.47603152682, 52.514174861213]}},
{"type": "Feature", "id": "G08JdTYi-_h7Y6RGXvtuwIVvq08=", "properties": {"ref": "3237", "maps_url": "https://maps.google.com/maps?cid=16201084803214335233", "url": "niedersachsen/wilhelmshaven/freiligrathstr--199.html", "region": "niedersachsen", "store_code": "3237", "@spider": "rossmann_de", "addr:street": "Freiligrathstr. 199", "addr:city": "wilhelmshaven", "addr:postcode": "26386", "name": "Wilhelmshaven, 26386, Freiligrathstr. 199", "opening_hours": "Mo-Fr 08:00-20:00; Sa 08:00-21:00"}, "geometry": {"type": "Point", "coordinates": [8.118821947167, 53.546278118594]}},
{"type": "Feature", "id": "b4NZsFEBwLseXrFkH3FQ8X-nAw4=", "properties": {"ref": "632", "maps_url": "https://maps.google.com/maps?cid=15692603538298259046", "url": "mecklenburg-vorpommern/greifswald/ernst-thaelmann-ring-11.html", "region": "mecklenburg-vorpommern", "store_code": "632", "@spider": "rossmann_de", "addr:street": "Ernst-Th\u00e4lmann-Ring 11", "addr:city": "greifswald", "addr:postcode": "17491", "name": "Greifswald, 17491, Ernst-Th\u00e4lmann-Ring 11", "opening_hours": "Mo-Fr 08:00-18:30; Sa 08:00-14:00"}, "geometry": {"type": "Point", "coordinates": [13.418426977062, 54.08110184712]}},
{"type": "Feature", "id": "dsyBf_115uPDIczy52XOXKvh3gU=", "properties": {"ref": "3236", "maps_url": "https://maps.google.com/maps?cid=3577272726919485205", "url": "niedersachsen/bodenwerder/ernst-reuter-str--7.html", "region": "niedersachsen", "store_code": "3236", "@spider": "rossmann_de", "addr:street": "Ernst-Reuter-Str. 7", "addr:city": "bodenwerder", "addr:postcode": "37619", "name": "Bodenwerder, 37619, Ernst-Reuter-Str. 7", "opening_hours": "Mo-Sa 08:00-20:00"}, "geometry": {"type": "Point", "coordinates": [9.50526940484, 51.982601812043]}},
{"type": "Feature", "id": "gwvR-TlQ4tkfhIcfA2JU6P41VBU=", "properties": {"ref": "2389", "maps_url": "https://maps.google.com/maps?cid=4697630718078909830", "url": "baden-wuerttemberg/stuttgart/adalbert-stifter-str--101.html", "region": "baden-wuerttemberg", "store_code": "2389", "@spider": "rossmann_de", "addr:street": "Adalbert-Stifter-Str. 101", "addr:city": "stuttgart", "addr:postcode": "70437", "name": "Stuttgart, 70437, Adalbert-Stifter-Str. 101", "opening_hours": "Mo-Sa 08:00-20:00"}, "geometry": {"type": "Point", "coordinates": [9.203499661472, 48.83629494425]}},
{"type": "Feature", "id": "JmPutwMNrcESsOubkGS0O-zBPLY=", "properties": {"ref": "633", "maps_url": "https://maps.google.com/maps?cid=11499107494238311436", "url": "thueringen/erfurt/bahnhofstr--46-47.html", "region": "thueringen", "store_code": "633", "@spider": "rossmann_de", "addr:street": "Bahnhofstr. 46-47", "addr:city": "erfurt", "addr:postcode": "99084", "name": "Erfurt, 99084, Bahnhofstr. 46-47", "opening_hours": "Mo-Sa 08:00-20:00"}, "geometry": {"type": "Point", "coordinates": [11.034672511043, 50.975449941502]}},
{"type": "Feature", "id": "qU-uBB9rJ5oEbj6lTZECapEwMKs=", "properties": {"ref": "3235", "maps_url": "https://maps.google.com/maps?cid=13775698985748791277", "url": "baden-wuerttemberg/wolfschlugen/max-eyth-str--13.html", "region": "baden-wuerttemberg", "store_code": "3235", "@spider": "rossmann_de", "addr:street": "Max-Eyth-Str. 13", "addr:city": "wolfschlugen", "addr:postcode": "72649", "name": "Wolfschlugen, 72649, Max-Eyth-Str. 13", "opening_hours": "Mo-Sa 08:00-20:00"}, "geometry": {"type": "Point", "coordinates": [9.300462503217, 48.648674293104]}},
{"type": "Feature", "id": "QFy-YKZFuxX6Ob5V2n-XGCU_nfU=", "properties": {"ref": "2388", "maps_url": "https://maps.google.com/maps?cid=14571296077790305539", "url": "berlin/berlin/hoenower-str--76.html", "region": "berlin", "store_code": "2388", "@spider": "rossmann_de", "addr:street": "H\u00f6nower Str. 76", "addr:city": "berlin", "addr:postcode": "12623", "name": "Berlin, 12623, H\u00f6nower Str. 76", "opening_hours": "Mo-Sa 08:00-20:00"}, "geometry": {"type": "Point", "coordinates": [13.612630389654, 52.511180634426]}},
{"type": "Feature", "id": "RbbAEBRbSdgTE6fZxhlWS_i5ueE=", "properties": {"ref": "3234", "maps_url": "https://maps.google.com/maps?cid=14183408841043024947", "url": "nordrhein-westfalen/frechen/hauptstr--124-126.html", "region": "nordrhein-westfalen", "store_code": "3234", "@spider": "rossmann_de", "addr:street": "Hauptstr. 124-126", "addr:city": "frechen", "addr:postcode": "50226", "name": "Frechen, 50226, Hauptstr. 124-126", "opening_hours": "Mo-Th 08:30-19:00; Fr 08:00-19:00; Sa 08:30-18:00"}, "geometry": {"type": "Point", "coordinates": [6.806991177074, 50.909305112312]}},
{"type": "Feature", "id": "hN_0l-hWwrT6Nfe0F7VBK6pQcPY=", "properties": {"ref": "2387", "maps_url": "https://maps.google.com/maps?cid=11461359490069806802", "url": "hessen/sontra/niedertor-1.html", "region": "hessen", "store_code": "2387", "@spider": "rossmann_de", "addr:street": "Niedertor 1", "addr:city": "sontra", "addr:postcode": "36205", "name": "Sontra, 36205, Niedertor 1", "opening_hours": "Mo-Sa 08:00-20:00"}, "geometry": {"type": "Point", "coordinates": [9.935029051238, 51.07178691204]}},
{"type": "Feature", "id": "sY-vKF2K9X9VA18mhjnJ2I4oZwM=", "properties": {"ref": "3255", "maps_url": "https://maps.google.com/maps?cid=4583062504230612035", "url": "sachsen/meissen/grossenhainer-str--10-12.html", "region": "sachsen", "store_code": "3255", "@spider": "rossmann_de", "addr:street": "Gro\u00dfenhainer Str. 10/12", "addr:city": "meissen", "addr:postcode": "01662", "name": "Mei\u00dfen, 01662, Gro\u00dfenhainer Str. 10/12", "opening_hours": "Mo-Sa 08:00-20:00"}, "geometry": {"type": "Point", "coordinates": [13.486852026554, 51.164879129563]}},
{"type": "Feature", "id": "BBcnRhgOfxWA6PNlo0kM4XCnjNo=", "properties": {"ref": "1077", "maps_url": "https://maps.google.com/maps?cid=416529381818626223", "url": "bayern/augsburg/augsburger-str--16.html", "region": "bayern", "store_code": "1077", "@spider": "rossmann_de", "addr:street": "Augsburger Str. 16", "addr:city": "augsburg", "addr:postcode": "86157", "name": "Augsburg, 86157, Augsburger Str. 16", "opening_hours": "Mo-Sa 08:00-20:00"}, "geometry": {"type": "Point", "coordinates": [10.873050619509, 48.363608941588]}},
{"type": "Feature", "id": "2IO13aKHThujdPCFNsV2zWz5txY=", "properties": {"ref": "3254", "maps_url": "https://maps.google.com/maps?cid=14610364977092521078", "url": "bayern/muenchen/romanplatz-9.html", "region": "bayern", "store_code": "3254", "@spider": "rossmann_de", "addr:street": "Romanplatz 9", "addr:city": "muenchen", "addr:postcode": "80639", "name": "M\u00fcnchen, 80639, Romanplatz 9", "opening_hours": "Mo-Sa 08:00-20:00"}, "geometry": {"type": "Point", "coordinates": [11.511913360375, 48.155019522433]}},
{"type": "Feature", "id": "EEVgzoZ41tynr0z_DS51gUZUGKU=", "properties": {"ref": "3252", "maps_url": "https://maps.google.com/maps?cid=15859631283307649365", "url": "niedersachsen/harsum/carl-zeiss-str--2.html", "region": "niedersachsen", "store_code": "3252", "@spider": "rossmann_de", "addr:street": "Carl-Zeiss-Str. 2", "addr:city": "harsum", "addr:postcode": "31177", "name": "Harsum, 31177, Carl-Zeiss-Str. 2", "opening_hours": "Mo-Sa 08:00-20:00"}, "geometry": {"type": "Point", "coordinates": [9.969945817751, 52.21268757167]}},
{"type": "Feature", "id": "fhVnRtvshozQ_Ci1h4SdwE1LGy4=", "properties": {"ref": "1074", "maps_url": "https://maps.google.com/maps?cid=11793035845107992064", "url": "nordrhein-westfalen/duesseldorf/rethelstr--162.html", "region": "nordrhein-westfalen", "store_code": "1074", "@spider": "rossmann_de", "addr:street": "Rethelstr. 162", "addr:city": "duesseldorf", "addr:postcode": "40237", "name": "D\u00fcsseldorf, 40237, Rethelstr. 162", "opening_hours": "Mo-Sa 08:00-20:30"}, "geometry": {"type": "Point", "coordinates": [6.800914448485, 51.238601957454]}},
{"type": "Feature", "id": "JOjXIYDw2oMkr3cuxp0HNMBLcN0=", "properties": {"ref": "3251", "maps_url": "https://maps.google.com/maps?cid=10395293672504042620", "url": "hessen/hanau/geleitstr--66-a.html", "region": "hessen", "store_code": "3251", "@spider": "rossmann_de", "addr:street": "Geleitstr. 66 a", "addr:city": "hanau", "addr:postcode": "63456", "name": "Hanau, 63456, Geleitstr. 66 a", "opening_hours": "Mo-Sa 08:00-20:00"}, "geometry": {"type": "Point", "coordinates": [8.91920795203, 50.103608711286]}},
{"type": "Feature", "id": "8gQulPmkuE4ETqHaH5V7wctXk2Q=", "properties": {"ref": "3250", "maps_url": "https://maps.google.com/maps?cid=14540594835163433709", "url": "nordrhein-westfalen/herford/bruederstr--19.html", "region": "nordrhein-westfalen", "store_code": "3250", "@spider": "rossmann_de", "addr:street": "Br\u00fcderstr. 19", "addr:city": "herford", "addr:postcode": "32052", "name": "Herford, 32052, Br\u00fcderstr. 19", "opening_hours": "Mo-Fr 08:30-20:00; Sa 08:30-19:00"}, "geometry": {"type": "Point", "coordinates": [8.674393652616, 52.114813321947]}},
{"type": "Feature", "id": "U-DWUYJoi1MQmOfP6OZzh3B_IkY=", "properties": {"ref": "3249", "maps_url": "https://maps.google.com/maps?cid=16878953858756712574", "url": "niedersachsen/sottrum/grosse-str--38.html", "region": "niedersachsen", "store_code": "3249", "@spider": "rossmann_de", "addr:street": "Gro\u00dfe Str. 38", "addr:city": "sottrum", "addr:postcode": "27367", "name": "Sottrum, 27367, Gro\u00dfe Str. 38", "opening_hours": "Mo-Sa 08:00-20:00"}, "geometry": {"type": "Point", "coordinates": [9.233631027627, 53.115122922043]}},
{"type": "Feature", "id": "l2IIriUJZ5-EeleqaAEeaf5rJZU=", "properties": {"ref": "3248", "maps_url": "https://maps.google.com/maps?cid=8832776726579609869", "url": "niedersachsen/rodenberg/amtsstr--6.html", "region": "niedersachsen", "store_code": "3248", "@spider": "rossmann_de", "addr:street": "Amtsstr. 6", "addr:city": "rodenberg", "addr:postcode": "31552", "name": "Rodenberg, 31552, Amtsstr. 6", "opening_hours": "Mo-Fr 08:00-19:00; Sa 08:00-20:00"}, "geometry": {"type": "Point", "coordinates": [9.355069217844, 52.312099210022]}},
{"type": "Feature", "id": "xMF4jzhCrIKAqhg_tLBEYqxR0mE=", "properties": {"ref": "3247", "maps_url": "https://maps.google.com/maps?cid=2654268144969051089", "url": "niedersachsen/geeste/meppener-str--5.html", "region": "niedersachsen", "store_code": "3247", "@spider": "rossmann_de", "addr:street": "Meppener Str. 5", "addr:city": "geeste", "addr:postcode": "49744", "name": "Geeste, 49744, Meppener Str. 5", "opening_hours": "Mo-Sa 08:00-20:00"}, "geometry": {"type": "Point", "coordinates": [7.231834980243, 52.592138597526]}},
{"type": "Feature", "id": "SqFGL85UwscexmRGa-e7JYJ_HSQ=", "properties": {"ref": "1069", "maps_url": "https://maps.google.com/maps?cid=17144604266963229422", "url": "bayern/deisenhofen/bahnhofstr--1.html", "region": "bayern", "store_code": "1069", "@spider": "rossmann_de", "addr:street": "Bahnhofstr. 1", "addr:city": "deisenhofen", "addr:postcode": "82041", "name": "Deisenhofen, 82041, Bahnhofstr. 1", "opening_hours": "Mo-Fr 08:00-20:00; Sa 08:00-18:00"}, "geometry": {"type": "Point", "coordinates": [11.590346016429, 48.018237851362]}},
{"type": "Feature", "id": "hAhA_xYosshnE1-cjfSawvKg46s=", "properties": {"ref": "3246", "maps_url": "https://maps.google.com/maps?cid=795605524950788655", "url": "baden-wuerttemberg/aalen/marktplatz-26.html", "region": "baden-wuerttemberg", "store_code": "3246", "@spider": "rossmann_de", "addr:street": "Marktplatz 26", "addr:city": "aalen", "addr:postcode": "73430", "name": "Aalen, 73430, Marktplatz 26", "opening_hours": "Mo-Fr 09:00-19:00; Sa 09:00-22:00"}, "geometry": {"type": "Point", "coordinates": [10.09336685179, 48.836565455279]}},
{"type": "Feature", "id": "U7FVUEk8_dOCUSlpeEeqhXl_PLM=", "properties": {"ref": "1068", "maps_url": "https://maps.google.com/maps?cid=12337935369075423156", "url": "bayern/muenchen/senftenauerstr--95.html", "region": "bayern", "store_code": "1068", "@spider": "rossmann_de", "addr:street": "Senftenauerstr. 95", "addr:city": "muenchen", "addr:postcode": "80689", "name": "M\u00fcnchen, 80689, Senftenauerstr. 95", "opening_hours": "Mo-Sa 08:00-20:00"}, "geometry": {"type": "Point", "coordinates": [11.487265460477, 48.130023383337]}},
{"type": "Feature", "id": "M_EBu4Ue0eCYKk95j_D6KSYyOJw=", "properties": {"ref": "645", "maps_url": "https://maps.google.com/maps?cid=16150666508373122192", "url": "berlin/berlin/bruno-taut-str--1.html", "region": "berlin", "store_code": "645", "@spider": "rossmann_de", "addr:street": "Bruno-Taut-Str. 1", "addr:city": "berlin", "addr:postcode": "12524", "name": "Berlin, 12524, Bruno-Taut-Str. 1", "opening_hours": "Mo-Fr 08:00-20:00; Sa 08:00-18:00"}, "geometry": {"type": "Point", "coordinates": [13.572570393856, 52.412170748965]}},
{"type": "Feature", "id": "_C7QlUd0Q0VAYbChVgAm3dscc8A=", "properties": {"ref": "3245", "maps_url": "https://maps.google.com/maps?cid=13223000372871860809", "url": "bayern/allershausen/buergermeister-neumeyr-str--2.html", "region": "bayern", "store_code": "3245", "@spider": "rossmann_de", "addr:street": "B\u00fcrgermeister-Neumeyr-Str. 2", "addr:city": "allershausen", "addr:postcode": "85391", "name": "Allershausen, 85391, B\u00fcrgermeister-Neumeyr-Str. 2", "opening_hours": "Mo-Sa 08:00-20:00"}, "geometry": {"type": "Point", "coordinates": [11.581938908292, 48.428554088752]}},
{"type": "Feature", "id": "wu_7ap_eAl8eFMUXF-T5nVUgZ0s=", "properties": {"ref": "648", "maps_url": "https://maps.google.com/maps?cid=6403826483396401813", "url": "sachsen-anhalt/bitterfeld/burgstr--13-15.html", "region": "sachsen-anhalt", "store_code": "648", "@spider": "rossmann_de", "addr:street": "Burgstr. 13-15", "addr:city": "bitterfeld", "addr:postcode": "06749", "name": "Bitterfeld, 06749, Burgstr. 13-15", "opening_hours": "Mo-Fr 08:30-19:00; Sa 08:30-18:00"}, "geometry": {"type": "Point", "coordinates": [12.329117511704, 51.625277834372]}},
{"type": "Feature", "id": "JdEOkYopHr0xiX3kHo6KJxT1vZ4=", "properties": {"ref": "3264", "maps_url": "https://maps.google.com/maps?cid=3450526851015880280", "url": "thueringen/jena/goethestr--3-b.html", "region": "thueringen", "store_code": "3264", "@spider": "rossmann_de", "addr:street": "Goethestr. 3 b", "addr:city": "jena", "addr:postcode": "07743", "name": "Jena, 07743, Goethestr. 3 b", "opening_hours": "Mo-Sa 09:00-20:00"}, "geometry": {"type": "Point", "coordinates": [11.582386194415, 50.927249065962]}},
{"type": "Feature", "id": "ZBsotENfLr7d9BBK1AoY2bCUL9k=", "properties": {"ref": "1086", "maps_url": "https://maps.google.com/maps?cid=10295256994829623939", "url": "nordrhein-westfalen/duesseldorf/henkelstr--3-5.html", "region": "nordrhein-westfalen", "store_code": "1086", "@spider": "rossmann_de", "addr:street": "Henkelstr. 3-5", "addr:city": "duesseldorf", "addr:postcode": "40589", "name": "D\u00fcsseldorf, 40589, Henkelstr. 3-5", "opening_hours": "Mo-Sa 08:00-20:00"}, "geometry": {"type": "Point", "coordinates": [6.834082868856, 51.175620799588]}},
{"type": "Feature", "id": "-D2oCKjLNxNGGVZ0Bt9ytx7Odd0=", "properties": {"ref": "3262", "maps_url": "https://maps.google.com/maps?cid=16756869608911542407", "url": "thueringen/neustadt-a-d--orla/zum-festplatz-1.html", "region": "thueringen", "store_code": "3262", "@spider": "rossmann_de", "addr:street": "Zum Festplatz 1", "addr:city": "neustadt-a-d--orla", "addr:postcode": "07806", "name": "Neustadt a.d. Orla, 07806, Zum Festplatz 1", "opening_hours": "Mo-Sa 08:00-20:00"}, "geometry": {"type": "Point", "coordinates": [11.755503527219, 50.735800324339]}},
{"type": "Feature", "id": "wY16ftY9vBMyk_IXFAOQu0r-vKc=", "properties": {"ref": "1082", "maps_url": "https://maps.google.com/maps?cid=8023632759926000554", "url": "nordrhein-westfalen/koeln/breite-str--137-139.html", "region": "nordrhein-westfalen", "store_code": "1082", "@spider": "rossmann_de", "addr:street": "Breite Str. 137-139", "addr:city": "koeln", "addr:postcode": "50667", "name": "K\u00f6ln, 50667, Breite Str. 137-139", "opening_hours": "Mo-Sa 09:00-20:00"}, "geometry": {"type": "Point", "coordinates": [6.947623932, 50.938527627069]}},
{"type": "Feature", "id": "L0Y7UV80q-sGoTQuPNu84P-ogXY=", "properties": {"ref": "3259", "maps_url": "https://maps.google.com/maps?cid=10758820699463866749", "url": "rheinland-pfalz/muelheim-kaerlich/industriestr--8.html", "region": "rheinland-pfalz", "store_code": "3259", "@spider": "rossmann_de", "addr:street": "Industriestr. 8", "addr:city": "muelheim-kaerlich", "addr:postcode": "56218", "name": "M\u00fclheim-K\u00e4rlich, 56218, Industriestr. 8", "opening_hours": "Mo-Sa 08:00-20:00"}, "geometry": {"type": "Point", "coordinates": [7.532268105322, 50.395451954172]}},
{"type": "Feature", "id": "cp_eOoWazNZ9XIS0UBpgZB2yueA=", "properties": {"ref": "3258", "maps_url": "https://maps.google.com/maps?cid=11421424041933111144", "url": "nordrhein-westfalen/duisburg/friedrich-alfred-str--82-88.html", "region": "nordrhein-westfalen", "store_code": "3258", "@spider": "rossmann_de", "addr:street": "Friedrich-Alfred-Str. 82-88", "addr:city": "duisburg", "addr:postcode": "47226", "name": "Duisburg, 47226, Friedrich-Alfred-Str. 82-88", "opening_hours": "Mo-Fr 08:30-19:00; Sa 08:30-18:00"}, "geometry": {"type": "Point", "coordinates": [6.716457091256, 51.409752856994]}},
{"type": "Feature", "id": "zLly38WpyVTPhtL6qh-Y9k8M7W0=", "properties": {"ref": "3257", "maps_url": "https://maps.google.com/maps?cid=14947419141582030744", "url": "nordrhein-westfalen/nettetal/freiheitstr--21.html", "region": "nordrhein-westfalen", "store_code": "3257", "@spider": "rossmann_de", "addr:street": "Freiheitstr. 21", "addr:city": "nettetal", "addr:postcode": "41334", "name": "Nettetal, 41334, Freiheitstr. 21", "opening_hours": "Mo-Fr 09:00-20:00; Sa 08:30-19:00"}, "geometry": {"type": "Point", "coordinates": [6.272338623637, 51.306286669198]}},
{"type": "Feature", "id": "MFZ_JV6ebNQLQiB8y3_YiGPFygA=", "properties": {"ref": "3256", "maps_url": "https://maps.google.com/maps?cid=16750040901230037900", "url": "nordrhein-westfalen/moenchengladbach/poststr--37-41.html", "region": "nordrhein-westfalen", "store_code": "3256", "@spider": "rossmann_de", "addr:street": "Poststr. 37-41", "addr:city": "moenchengladbach", "addr:postcode": "41189", "name": "M\u00f6nchengladbach, 41189, Poststr. 37-41", "opening_hours": "Mo-Sa 08:00-19:00"}, "geometry": {"type": "Point", "coordinates": [6.413388159421, 51.132000699354]}},
{"type": "Feature", "id": "7Ft9Y-8L0WFBzwQ7uqtTHqq9VGc=", "properties": {"ref": "1091", "maps_url": "https://maps.google.com/maps?cid=8618416930472604858", "url": "nordrhein-westfalen/duesseldorf/unterrather-str--179.html", "region": "nordrhein-westfalen", "store_code": "1091", "@spider": "rossmann_de", "addr:street": "Unterrather Str. 179", "addr:city": "duesseldorf", "addr:postcode": "40468", "name": "D\u00fcsseldorf, 40468, Unterrather Str. 179", "opening_hours": "Mo-Fr 09:00-19:00; Sa 09:00-17:00"}, "geometry": {"type": "Point", "coordinates": [6.774539911737, 51.271967832099]}},
{"type": "Feature", "id": "fNLi7QXpW9XSTdDTDB5MwHg5xsc=", "properties": {"ref": "1090", "maps_url": "https://maps.google.com/maps?cid=1348205882527427430", "url": "nordrhein-westfalen/duesseldorf/altenbrueckstr--15.html", "region": "nordrhein-westfalen", "store_code": "1090", "@spider": "rossmann_de", "addr:street": "Altenbr\u00fcckstr. 15", "addr:city": "duesseldorf", "addr:postcode": "40599", "name": "D\u00fcsseldorf, 40599, Altenbr\u00fcckstr. 15", "opening_hours": "Mo-Sa 08:00-20:00"}, "geometry": {"type": "Point", "coordinates": [6.865379799046, 51.181557801675]}},
{"type": "Feature", "id": "qfp-64_2No8hVldvArLef0YnhH4=", "properties": {"ref": "1099", "maps_url": "https://maps.google.com/maps?cid=2273873780299942013", "url": "nordrhein-westfalen/kaarst/am-neumarkt-1.html", "region": "nordrhein-westfalen", "store_code": "1099", "@spider": "rossmann_de", "addr:street": "Am Neumarkt 1", "addr:city": "kaarst", "addr:postcode": "41564", "name": "Kaarst, 41564, Am Neumarkt 1", "opening_hours": "Mo-Fr 09:00-20:00; Sa 09:00-18:00; Su 13:00-18:00"}, "geometry": {"type": "Point", "coordinates": [6.620098179409, 51.226397786981]}},
{"type": "Feature", "id": "aG3r1t6PwqhkcPi84p0HPwCeAhk=", "properties": {"ref": "3275", "maps_url": "https://maps.google.com/maps?cid=9776819215532779919", "url": "thueringen/bad-berka/weimarische-str--1.html", "region": "thueringen", "store_code": "3275", "@spider": "rossmann_de", "addr:street": "Weimarische Str. 1", "addr:city": "bad-berka", "addr:postcode": "99438", "name": "Bad Berka, 99438, Weimarische Str. 1", "opening_hours": "Mo-Fr 08:00-20:00; Sa 08:00-18:00"}, "geometry": {"type": "Point", "coordinates": [11.282112707469, 50.900415993839]}},
{"type": "Feature", "id": "c9GEmm2wlFD5E7P6VOuErVuYoOs=", "properties": {"ref": "3273", "maps_url": "https://maps.google.com/maps?cid=5888898065365198261", "url": "niedersachsen/peine/kirchvordener-str--35.html", "region": "niedersachsen", "store_code": "3273", "@spider": "rossmann_de", "addr:street": "Kirchvordener Str. 35", "addr:city": "peine", "addr:postcode": "31228", "name": "Peine, 31228, Kirchvordener Str. 35", "opening_hours": "Mo-Sa 08:00-20:00"}, "geometry": {"type": "Point", "coordinates": [10.185009234117, 52.342611058386]}},
{"type": "Feature", "id": "GWKxUKpbtWc9yaJMX4ahtqJrRqE=", "properties": {"ref": "3272", "maps_url": "https://maps.google.com/maps?cid=11001198805758451145", "url": "baden-wuerttemberg/pfinztal/woeschbacher-str--37.html", "region": "baden-wuerttemberg", "store_code": "3272", "@spider": "rossmann_de", "addr:street": "W\u00f6schbacher Str. 37", "addr:city": "pfinztal", "addr:postcode": "76327", "name": "Pfinztal, 76327, W\u00f6schbacher Str. 37", "opening_hours": "Mo-Sa 08:00-20:00"}, "geometry": {"type": "Point", "coordinates": [8.535399003917, 49.003896061587]}},
{"type": "Feature", "id": "tQHb93dUlU45_4BeL8xAvXc6nZ0=", "properties": {"ref": "3270", "maps_url": "https://maps.google.com/maps?cid=6356999108041323056", "url": "bayern/augsburg/oberbuergermeister-hohner-str--1.html", "region": "bayern", "store_code": "3270", "@spider": "rossmann_de", "addr:street": "Oberb\u00fcrgermeister-Hohner-Str. 1", "addr:city": "augsburg", "addr:postcode": "86153", "name": "Augsburg, 86153, Oberb\u00fcrgermeister-Hohner-Str. 1", "opening_hours": "Mo-Sa 08:00-20:00"}, "geometry": {"type": "Point", "coordinates": [10.911067322335, 48.364448491863]}},
{"type": "Feature", "id": "foyONN2bfXIjRcq_apsdubd61-o=", "properties": {"ref": "665", "maps_url": "https://maps.google.com/maps?cid=16965798044207554039", "url": "brandenburg/schwedt/landgrabenpark-1.html", "region": "brandenburg", "store_code": "665", "@spider": "rossmann_de", "addr:street": "Landgrabenpark 1", "addr:city": "schwedt", "addr:postcode": "16303", "name": "Schwedt, 16303, Landgrabenpark 1", "opening_hours": "Mo-Sa 08:00-20:00"}, "geometry": {"type": "Point", "coordinates": [14.27250584791, 53.065651055056]}},
{"type": "Feature", "id": "t-2TskoP65Mq0-OZfjSQGhZUCDc=", "properties": {"ref": "3269", "maps_url": "https://maps.google.com/maps?cid=6860369809485583185", "url": "rheinland-pfalz/plaidt/fraukircher-str--26-d.html", "region": "rheinland-pfalz", "store_code": "3269", "@spider": "rossmann_de", "addr:street": "Fraukircher Str. 26 d", "addr:city": "plaidt", "addr:postcode": "56637", "name": "Plaidt, 56637, Fraukircher Str. 26 d", "opening_hours": "Mo-Sa 09:00-20:00"}, "geometry": {"type": "Point", "coordinates": [7.382404786532, 50.389076835804]}},
{"type": "Feature", "id": "cKxE0xLz8lS2X5_J98yn6JQinMI=", "properties": {"ref": "3267", "maps_url": "https://maps.google.com/maps?cid=11612029396798260570", "url": "brandenburg/zossen/stubenrauchstr--24.html", "region": "brandenburg", "store_code": "3267", "@spider": "rossmann_de", "addr:street": "Stubenrauchstr. 24", "addr:city": "zossen", "addr:postcode": "15806", "name": "Zossen, 15806, Stubenrauchstr. 24", "opening_hours": "Mo-Sa 08:00-20:00"}, "geometry": {"type": "Point", "coordinates": [13.443974689476, 52.225219934054]}},
{"type": "Feature", "id": "xG4wTPnl63hJn8PWPtXcwITFCos=", "properties": {"ref": "1089", "maps_url": "https://maps.google.com/maps?cid=17078095253591781165", "url": "nordrhein-westfalen/duesseldorf/nordstr--58.html", "region": "nordrhein-westfalen", "store_code": "1089", "@spider": "rossmann_de", "addr:street": "Nordstr. 58", "addr:city": "duesseldorf", "addr:postcode": "40477", "name": "D\u00fcsseldorf, 40477, Nordstr. 58", "opening_hours": "Mo-Sa 08:30-20:30"}, "geometry": {"type": "Point", "coordinates": [6.779524438673, 51.238348869567]}},
{"type": "Feature", "id": "V85CVStOeczePti9ovwhAKkg1gE=", "properties": {"ref": "3280", "maps_url": "https://maps.google.com/maps?cid=12499848860407118887", "url": "sachsen/leipzig/zwickauer-str--125-129.html", "region": "sachsen", "store_code": "3280", "@spider": "rossmann_de", "addr:street": "Zwickauer Str. 125-129", "addr:city": "leipzig", "addr:postcode": "04279", "name": "Leipzig, 04279, Zwickauer Str. 125-129", "opening_hours": "Mo-Sa 08:00-20:00"}, "geometry": {"type": "Point", "coordinates": [12.396969510901, 51.30062363975]}},
{"type": "Feature", "id": "JwQMuNtuEYE8tyS8irGzaYLGJUM=", "properties": {"ref": "3288", "maps_url": "https://maps.google.com/maps?cid=14401044487220107089", "url": "sachsen-anhalt/hettstedt/untere-bahnhofstr--5.html", "region": "sachsen-anhalt", "store_code": "3288", "@spider": "rossmann_de", "addr:street": "Untere Bahnhofstr. 5", "addr:city": "hettstedt", "addr:postcode": "06333", "name": "Hettstedt, 06333, Untere Bahnhofstr. 5", "opening_hours": "Mo-Fr 08:00-19:00; Sa 08:00-18:00"}, "geometry": {"type": "Point", "coordinates": [11.513147420997, 51.643984003102]}},
{"type": "Feature", "id": "_apMP5D_sduYYEci8lckG74DO4g=", "properties": {"ref": "3287", "maps_url": "https://maps.google.com/maps?cid=8784392586479095633", "url": "nordrhein-westfalen/castrop-rauxel/am-landwehrbach-5.html", "region": "nordrhein-westfalen", "store_code": "3287", "@spider": "rossmann_de", "addr:street": "Am Landwehrbach 5", "addr:city": "castrop-rauxel", "addr:postcode": "44575", "name": "Castrop-Rauxel, 44575, Am Landwehrbach 5", "opening_hours": "Mo-Sa 08:00-20:00"}, "geometry": {"type": "Point", "coordinates": [7.292521230667, 51.555377478767]}},
{"type": "Feature", "id": "culFig9o-t7TrfOi4rf8r8HlieA=", "properties": {"ref": "3286", "maps_url": "https://maps.google.com/maps?cid=2925950251448652320", "url": "nordrhein-westfalen/castrop-rauxel/freiheitstr--23.html", "region": "nordrhein-westfalen", "store_code": "3286", "@spider": "rossmann_de", "addr:street": "Freiheitstr. 23", "addr:city": "castrop-rauxel", "addr:postcode": "44581", "name": "Castrop-Rauxel, 44581, Freiheitstr. 23", "opening_hours": "Mo-Sa 08:00-20:00"}, "geometry": {"type": "Point", "coordinates": [7.309755222271, 51.598756780722]}},
{"type": "Feature", "id": "5LaByAxBf42tH7wxAEEOzHSkLfQ=", "properties": {"ref": "3284", "maps_url": "https://maps.google.com/maps?cid=11997856308054000591", "url": "baden-wuerttemberg/elzach/freiburger-str--23.html", "region": "baden-wuerttemberg", "store_code": "3284", "@spider": "rossmann_de", "addr:street": "Freiburger Str. 23", "addr:city": "elzach", "addr:postcode": "79215", "name": "Elzach, 79215, Freiburger Str. 23", "opening_hours": "Mo-Sa 08:00-20:00"}, "geometry": {"type": "Point", "coordinates": [8.063557778022, 48.168304879507]}},
{"type": "Feature", "id": "Qzj8oVbjaaBxq-6l6Re6rakwOrQ=", "properties": {"ref": "3283", "maps_url": "https://maps.google.com/maps?cid=2882536827279643698", "url": "niedersachsen/hannover/elmstr--12.html", "region": "niedersachsen", "store_code": "3283", "@spider": "rossmann_de", "addr:street": "Elmstr. 12", "addr:city": "hannover", "addr:postcode": "30657", "name": "Hannover, 30657, Elmstr. 12", "opening_hours": "Mo-Sa 08:00-20:00"}, "geometry": {"type": "Point", "coordinates": [9.780004162564, 52.414496741868]}},
{"type": "Feature", "id": "afVofPO4boMYqWbXXdkPMDsow1A=", "properties": {"ref": "3281", "maps_url": "https://maps.google.com/maps?cid=3008736305131615733", "url": "mecklenburg-vorpommern/zinnowitz/glienbergweg-24-b.html", "region": "mecklenburg-vorpommern", "store_code": "3281", "@spider": "rossmann_de", "addr:street": "Glienbergweg 24 b", "addr:city": "zinnowitz", "addr:postcode": "17454", "name": "Zinnowitz, 17454, Glienbergweg 24 b", "opening_hours": "Mo-Sa 08:00-20:00"}, "geometry": {"type": "Point", "coordinates": [13.908765637527, 54.075115718785]}},
{"type": "Feature", "id": "VjDYWlfIEMedED-vEjuWsKj_1_4=", "properties": {"ref": "674", "maps_url": "https://maps.google.com/maps?cid=14801630846959850971", "url": "mecklenburg-vorpommern/schwerin/marienplatz-5-6.html", "region": "mecklenburg-vorpommern", "store_code": "674", "@spider": "rossmann_de", "addr:street": "Marienplatz 5-6", "addr:city": "schwerin", "addr:postcode": "19053", "name": "Schwerin, 19053, Marienplatz 5-6", "opening_hours": "Mo-Sa 08:00-20:00"}, "geometry": {"type": "Point", "coordinates": [11.410347588565, 53.627790173907]}},
{"type": "Feature", "id": "zBdhQliFlRQal6CqEKH2hWfE4S0=", "properties": {"ref": "675", "maps_url": "https://maps.google.com/maps?cid=6741068875734340372", "url": "sachsen-anhalt/magdeburg/ernst-reuter-allee-11.html", "region": "sachsen-anhalt", "store_code": "675", "@spider": "rossmann_de", "addr:street": "Ernst-Reuter-Allee 11", "addr:city": "magdeburg", "addr:postcode": "39104", "name": "Magdeburg, 39104, Ernst-Reuter-Allee 11", "opening_hours": "Mo-Sa 08:30-20:00"}, "geometry": {"type": "Point", "coordinates": [11.636637700211, 52.130525679061]}},
{"type": "Feature", "id": "Jp5LGW2Jj4vnAjB5B9CMnyQXHlM=", "properties": {"ref": "676", "maps_url": "https://maps.google.com/maps?cid=15287231119653939449", "url": "berlin/berlin/friedrichstr--147.html", "region": "berlin", "store_code": "676", "@spider": "rossmann_de", "addr:street": "Friedrichstr. 147", "addr:city": "berlin", "addr:postcode": "10117", "name": "Berlin, 10117, Friedrichstr. 147", "opening_hours": "Mo-Fr 07:00-22:00; Sa 09:00-22:00"}, "geometry": {"type": "Point", "coordinates": [13.388184444427, 52.519650798345]}},
{"type": "Feature", "id": "1WZsaiwoaShsuK_NSFDVG1HKAls=", "properties": {"ref": "677", "maps_url": "https://maps.google.com/maps?cid=8310006656172357093", "url": "berlin/berlin/pablo-neruda-str--2-4.html", "region": "berlin", "store_code": "677", "@spider": "rossmann_de", "addr:street": "Pablo-Neruda-Str. 2-4", "addr:city": "berlin", "addr:postcode": "12559", "name": "Berlin, 12559, Pablo-Neruda-Str. 2-4", "opening_hours": "Mo-Sa 08:00-20:00"}, "geometry": {"type": "Point", "coordinates": [13.588039008752, 52.441352750277]}},
{"type": "Feature", "id": "3WJRkNvpFPvZ0Kf8ij2hXUmc434=", "properties": {"ref": "3278", "maps_url": "https://maps.google.com/maps?cid=472034064096057606", "url": "rheinland-pfalz/bad-sobernheim/poststr--20.html", "region": "rheinland-pfalz", "store_code": "3278", "@spider": "rossmann_de", "addr:street": "Poststr. 20", "addr:city": "bad-sobernheim", "addr:postcode": "55566", "name": "Bad Sobernheim, 55566, Poststr. 20", "opening_hours": "Mo-Fr 08:00-20:00; Sa 08:00-21:00"}, "geometry": {"type": "Point", "coordinates": [7.654075914851, 49.782676738252]}},
{"type": "Feature", "id": "G7hES4K9NN2mJDpWu1bth9_cjHs=", "properties": {"ref": "3291", "maps_url": "https://maps.google.com/maps?cid=4064823969886577144", "url": "baden-wuerttemberg/blumberg/leo-wohleb-str--4.html", "region": "baden-wuerttemberg", "store_code": "3291", "@spider": "rossmann_de", "addr:street": "Leo-Wohleb-Str. 4", "addr:city": "blumberg", "addr:postcode": "78176", "name": "Blumberg, 78176, Leo-Wohleb-Str. 4", "opening_hours": "Mo-Sa 08:00-20:00"}, "geometry": {"type": "Point", "coordinates": [8.540158390592, 47.837885442922]}},
{"type": "Feature", "id": "M9787t955NcMz03Hpe8QGuOU6rc=", "properties": {"ref": "3290", "maps_url": "https://maps.google.com/maps?cid=9495352324890914031", "url": "hessen/fulda/am-bahnhof-3.html", "region": "hessen", "store_code": "3290", "@spider": "rossmann_de", "addr:street": "Am Bahnhof 3", "addr:city": "fulda", "addr:postcode": "36037", "name": "Fulda, 36037, Am Bahnhof 3", "opening_hours": "Mo-Fr 06:00-22:00; Sa-Su 08:00-22:00"}, "geometry": {"type": "Point", "coordinates": [9.683802830211, 50.554526214304]}},
{"type": "Feature", "id": "ZdD08JcmcNEn9DK56fXnB5lR5SA=", "properties": {"ref": "3298", "maps_url": "https://maps.google.com/maps?cid=10601891785618026838", "url": "baden-wuerttemberg/bad-bellingen/badstr--9-1.html", "region": "baden-wuerttemberg", "store_code": "3298", "@spider": "rossmann_de", "addr:street": "Badstr. 9/1", "addr:city": "bad-bellingen", "addr:postcode": "79415", "name": "Bad Bellingen, 79415, Badstr. 9/1", "opening_hours": "Mo-Sa 08:00-20:00"}, "geometry": {"type": "Point", "coordinates": [7.552617753717, 47.731181205012]}},
{"type": "Feature", "id": "0mRX4wZRRttCszxm1sQgh8dJ4eA=", "properties": {"ref": "3294", "maps_url": "https://maps.google.com/maps?cid=17813022123620930631", "url": "bayern/iphofen/bahnhofstr--67-a.html", "region": "bayern", "store_code": "3294", "@spider": "rossmann_de", "addr:street": "Bahnhofstr. 67 a", "addr:city": "iphofen", "addr:postcode": "97346", "name": "Iphofen, 97346, Bahnhofstr. 67 a", "opening_hours": "Mo-Sa 08:00-20:00"}, "geometry": {"type": "Point", "coordinates": [10.261377636505, 49.694916372933]}},
{"type": "Feature", "id": "sWN-8Ih8d-sWTz9HSwMm4rLagCY=", "properties": {"ref": "3293", "maps_url": "https://maps.google.com/maps?cid=7503200953317772902", "url": "rheinland-pfalz/mainz/alte-markthalle-4.html", "region": "rheinland-pfalz", "store_code": "3293", "@spider": "rossmann_de", "addr:street": "Alte Markthalle 4", "addr:city": "mainz", "addr:postcode": "55120", "name": "Mainz, 55120, Alte Markthalle 4", "opening_hours": "Mo-Sa 08:00-20:00"}, "geometry": {"type": "Point", "coordinates": [8.221289590094, 50.023872513177]}},
{"type": "Feature", "id": "FqywFH9pobCxexrN2wlYj0K5iaA=", "properties": {"ref": "682", "maps_url": "https://maps.google.com/maps?cid=15843465986866239781", "url": "sachsen/leipzig/lindenthal-str--35-37.html", "region": "sachsen", "store_code": "682", "@spider": "rossmann_de", "addr:street": "Lindenthal Str. 35/37", "addr:city": "leipzig", "addr:postcode": "04155", "name": "Leipzig, 04155, Lindenthal Str. 35/37", "opening_hours": "Mo-Fr 08:00-20:00; Sa 08:00-18:00"}, "geometry": {"type": "Point", "coordinates": [12.3653869913, 51.362800013641]}},
{"type": "Feature", "id": "94Q01E0OaSwvjVkZwieDHuGg5r4=", "properties": {"ref": "200", "maps_url": "https://maps.google.com/maps?cid=14832297713962196860", "url": "niedersachsen/hannover/podbielskistr--185-187.html", "region": "niedersachsen", "store_code": "200", "@spider": "rossmann_de", "addr:street": "Podbielskistr. 185-187", "addr:city": "hannover", "addr:postcode": "30177", "name": "Hannover, 30177, Podbielskistr. 185-187", "opening_hours": "Mo-Fr 08:30-20:00; Sa 08:30-18:00"}, "geometry": {"type": "Point", "coordinates": [9.77731819987, 52.399286070288]}},
{"type": "Feature", "id": "1ofCRPy2EiL1_KnXXfKsIzTb2Ig=", "properties": {"ref": "687", "maps_url": "https://maps.google.com/maps?cid=10742813029158529779", "url": "berlin/berlin/friedrichstr--141a-142.html", "region": "berlin", "store_code": "687", "@spider": "rossmann_de", "addr:street": "Friedrichstr. 141a/142", "addr:city": "berlin", "addr:postcode": "10117", "name": "Berlin, 10117, Friedrichstr. 141a/142", "opening_hours": "Mo-Fr 06:00-21:00; Sa 09:00-20:00; Su 09:00-21:00"}, "geometry": {"type": "Point", "coordinates": [13.387851702602, 52.520937947267]}},
{"type": "Feature", "id": "y4et4_ruT104sPiReu-4FMj6D78=", "properties": {"ref": "689", "maps_url": "https://maps.google.com/maps?cid=13151461328253049715", "url": "berlin/berlin/am-treptower-park-14.html", "region": "berlin", "store_code": "689", "@spider": "rossmann_de", "addr:street": "Am Treptower Park 14", "addr:city": "berlin", "addr:postcode": "12435", "name": "Berlin, 12435, Am Treptower Park 14", "opening_hours": "Mo-Sa 09:00-20:30"}, "geometry": {"type": "Point", "coordinates": [13.457114796263, 52.49033561421]}},
{"type": "Feature", "id": "__60IqEnTK5cfLuulwhVKZX2bzU=", "properties": {"ref": "208", "maps_url": "https://maps.google.com/maps?cid=15358556529575119894", "url": "niedersachsen/koenigslutter/am-markt-7.html", "region": "niedersachsen", "store_code": "208", "@spider": "rossmann_de", "addr:street": "Am Markt 7", "addr:city": "koenigslutter", "addr:postcode": "38154", "name": "K\u00f6nigslutter, 38154, Am Markt 7", "opening_hours": "Mo-Fr 08:30-19:00; Sa 08:30-16:00"}, "geometry": {"type": "Point", "coordinates": [10.817947959982, 52.251199808357]}},
{"type": "Feature", "id": "nN0Fg8JAxV4L4yWNvA7Y3TTAjpk=", "properties": {"ref": "209", "maps_url": "https://maps.google.com/maps?cid=18057982735263096659", "url": "nordrhein-westfalen/bielefeld/niedernstr--26.html", "region": "nordrhein-westfalen", "store_code": "209", "@spider": "rossmann_de", "addr:street": "Niedernstr. 26", "addr:city": "bielefeld", "addr:postcode": "33602", "name": "Bielefeld, 33602, Niedernstr. 26", "opening_hours": "Mo-Sa 08:00-20:00"}, "geometry": {"type": "Point", "coordinates": [8.532458705701, 52.022253463971]}},
{"type": "Feature", "id": "0t_4GRaFSM9erZ5ER7Rhu7dlplE=", "properties": {"ref": "692", "maps_url": "https://maps.google.com/maps?cid=11467647250724603456", "url": "berlin/berlin/schnellerstr--21-22.html", "region": "berlin", "store_code": "692", "@spider": "rossmann_de", "addr:street": "Schnellerstr. 21-22", "addr:city": "berlin", "addr:postcode": "12439", "name": "Berlin, 12439, Schnellerstr. 21-22", "opening_hours": "Mo-Sa 09:00-21:00"}, "geometry": {"type": "Point", "coordinates": [13.508619703079, 52.456966305623]}},
{"type": "Feature", "id": "5FSfZmKDIQoxc13QmxbMyKA6t3s=", "properties": {"ref": "698", "maps_url": "https://maps.google.com/maps?cid=18027234700734430168", "url": "mecklenburg-vorpommern/wismar/zierower-landstr--2.html", "region": "mecklenburg-vorpommern", "store_code": "698", "@spider": "rossmann_de", "addr:street": "Zierower Landstr. 2", "addr:city": "wismar", "addr:postcode": "23968", "name": "Wismar, 23968, Zierower Landstr. 2", "opening_hours": "Mo-Sa 08:00-20:00"}, "geometry": {"type": "Point", "coordinates": [11.403787641203, 53.903208964037]}},
{"type": "Feature", "id": "WHKA6u_AlhbapA3htMd3d0xRzYg=", "properties": {"ref": "221", "maps_url": "https://maps.google.com/maps?cid=17074547148444578975", "url": "niedersachsen/wilhelmshaven/marktstr--66.html", "region": "niedersachsen", "store_code": "221", "@spider": "rossmann_de", "addr:street": "Marktstr. 66", "addr:city": "wilhelmshaven", "addr:postcode": "26382", "name": "Wilhelmshaven, 26382, Marktstr. 66", "opening_hours": "Mo-Sa 09:00-19:00"}, "geometry": {"type": "Point", "coordinates": [8.112010658675, 53.520100466211]}},
{"type": "Feature", "id": "M8is9DJ54ZsDxatXeSYie94s_JA=", "properties": {"ref": "222", "maps_url": "https://maps.google.com/maps?cid=7695117914001631572", "url": "niedersachsen/springe/fuenfhausenstr--2.html", "region": "niedersachsen", "store_code": "222", "@spider": "rossmann_de", "addr:street": "F\u00fcnfhausenstr. 2", "addr:city": "springe", "addr:postcode": "31832", "name": "Springe, 31832, F\u00fcnfhausenstr. 2", "opening_hours": "Mo-Fr 08:30-18:30; Sa 08:30-18:00"}, "geometry": {"type": "Point", "coordinates": [9.554621723664, 52.209635351427]}},
{"type": "Feature", "id": "24LDgg7rn6fhNvi0f_hC-hMjqsc=", "properties": {"ref": "223", "maps_url": "https://maps.google.com/maps?cid=11473564608145509873", "url": "niedersachsen/gifhorn/steinweg-53.html", "region": "niedersachsen", "store_code": "223", "@spider": "rossmann_de", "addr:street": "Steinweg 53", "addr:city": "gifhorn", "addr:postcode": "38518", "name": "Gifhorn, 38518, Steinweg 53", "opening_hours": "Mo-Sa 08:00-19:00"}, "geometry": {"type": "Point", "coordinates": [10.547184878703, 52.484406864161]}},
{"type": "Feature", "id": "D3F0d6d2Q61x9BHxrpdvNp0Sc1o=", "properties": {"ref": "226", "maps_url": "https://maps.google.com/maps?cid=8021589703402118803", "url": "niedersachsen/einbeck/marktplatz-20.html", "region": "niedersachsen", "store_code": "226", "@spider": "rossmann_de", "addr:street": "Marktplatz 20", "addr:city": "einbeck", "addr:postcode": "37574", "name": "Einbeck, 37574, Marktplatz 20", "opening_hours": "Mo-Fr 08:30-19:00; Sa 08:30-18:00"}, "geometry": {"type": "Point", "coordinates": [9.86815, 51.81791]}},
{"type": "Feature", "id": "4THxJ6Nj739DDcuaOpKLy0n5vro=", "properties": {"ref": "235", "maps_url": "https://maps.google.com/maps?cid=17873503849471288902", "url": "schleswig-holstein/kiel/holtenauer-str--1.html", "region": "schleswig-holstein", "store_code": "235", "@spider": "rossmann_de", "addr:street": "Holtenauer Str. 1", "addr:city": "kiel", "addr:postcode": "24103", "name": "Kiel, 24103, Holtenauer Str. 1", "opening_hours": "Mo-Fr 08:30-19:00; Sa 08:30-18:00"}, "geometry": {"type": "Point", "coordinates": [10.133686610445, 54.32870317251]}},
{"type": "Feature", "id": "5JVJK1z86P08WeYlAHL9-GVyH-0=", "properties": {"ref": "236", "maps_url": "https://maps.google.com/maps?cid=7894674611773170697", "url": "schleswig-holstein/bad-schwartau/markttwiete-3.html", "region": "schleswig-holstein", "store_code": "236", "@spider": "rossmann_de", "addr:street": "Markttwiete 3", "addr:city": "bad-schwartau", "addr:postcode": "23611", "name": "Bad Schwartau, 23611, Markttwiete 3", "opening_hours": "Mo-Fr 08:00-19:00; Sa 08:00-18:00"}, "geometry": {"type": "Point", "coordinates": [10.69771, 53.91851]}},
{"type": "Feature", "id": "AseZTZx9Nf5bl06XjbT4hFdFb38=", "properties": {"ref": "237", "maps_url": "https://maps.google.com/maps?cid=7912590524803288998", "url": "hamburg/hamburg/heussweg-35.html", "region": "hamburg", "store_code": "237", "@spider": "rossmann_de", "addr:street": "Heu\u00dfweg 35", "addr:city": "hamburg", "addr:postcode": "20255", "name": "Hamburg, 20255, Heu\u00dfweg 35", "opening_hours": "Mo-Sa 08:00-20:30"}, "geometry": {"type": "Point", "coordinates": [9.951628815781, 53.576792135053]}},
{"type": "Feature", "id": "Qf9LqVZQ6ttOsJvrdhfr0UhXbco=", "properties": {"ref": "239", "maps_url": "https://maps.google.com/maps?cid=9934697702673532203", "url": "hamburg/hamburg/kandinskyallee-4-12.html", "region": "hamburg", "store_code": "239", "@spider": "rossmann_de", "addr:street": "Kandinskyallee 4-12", "addr:city": "hamburg", "addr:postcode": "22115", "name": "Hamburg, 22115, Kandinskyallee 4-12", "opening_hours": "Mo-Sa 08:00-21:00"}, "geometry": {"type": "Point", "coordinates": [10.150398643409, 53.525690632463]}},
{"type": "Feature", "id": "v7Oc2I_ucxoJ214YJ3VKnFxxc1w=", "properties": {"ref": "1909", "maps_url": "https://maps.google.com/maps?cid=1229343070886618755", "url": "hessen/frankfurt-am-main/valentin-senger-str--140.html", "region": "hessen", "store_code": "1909", "@spider": "rossmann_de", "addr:street": "Valentin-Senger-Str. 140", "addr:city": "frankfurt-am-main", "addr:postcode": "60389", "name": "Frankfurt am Main, 60389, Valentin-Senger-Str. 140", "opening_hours": "Mo-Fr 09:00-20:00; Sa 08:00-20:00"}, "geometry": {"type": "Point", "coordinates": [8.699711162577, 50.140067538936]}},
{"type": "Feature", "id": "liE9zGLb6HBxooKHMKKbApP5R90=", "properties": {"ref": "245", "maps_url": "https://maps.google.com/maps?cid=13532817217333110113", "url": "niedersachsen/wennigsen/hauptstr--3-a-c.html", "region": "niedersachsen", "store_code": "245", "@spider": "rossmann_de", "addr:street": "Hauptstr. 3 a-c", "addr:city": "wennigsen", "addr:postcode": "30974", "name": "Wennigsen, 30974, Hauptstr. 3 a-c", "opening_hours": "Mo-Fr 08:30-18:30; Sa 08:30-14:00"}, "geometry": {"type": "Point", "coordinates": [9.573668992936, 52.272987234974]}},
{"type": "Feature", "id": "N_slH_jUTivkIvd2xE_It32nKrc=", "properties": {"ref": "1907", "maps_url": "https://maps.google.com/maps?cid=2500714806394584553", "url": "rheinland-pfalz/trier/fleischstr--47.html", "region": "rheinland-pfalz", "store_code": "1907", "@spider": "rossmann_de", "addr:street": "Fleischstr. 47", "addr:city": "trier", "addr:postcode": "54290", "name": "Trier, 54290, Fleischstr. 47", "opening_hours": "Mo-Sa 09:00-20:00"}, "geometry": {"type": "Point", "coordinates": [6.637129488602, 49.754527349115]}},
{"type": "Feature", "id": "0yS6fLN1sNg73YxgPh7oB8YHwQg=", "properties": {"ref": "1906", "maps_url": "https://maps.google.com/maps?cid=971890937832572228", "url": "hessen/idstein/wiesbadener-str--15.html", "region": "hessen", "store_code": "1906", "@spider": "rossmann_de", "addr:street": "Wiesbadener Str. 15", "addr:city": "idstein", "addr:postcode": "65510", "name": "Idstein, 65510, Wiesbadener Str. 15", "opening_hours": "Mo-Sa 08:30-20:00"}, "geometry": {"type": "Point", "coordinates": [8.267148023901, 50.220120226006]}},
{"type": "Feature", "id": "GV12iLjFl5qMCQAx1-JntxyugwQ=", "properties": {"ref": "1902", "maps_url": "https://maps.google.com/maps?cid=12193415540717271673", "url": "niedersachsen/osterode-am-harz/kornmarkt-9.html", "region": "niedersachsen", "store_code": "1902", "@spider": "rossmann_de", "addr:street": "Kornmarkt 9", "addr:city": "osterode-am-harz", "addr:postcode": "37520", "name": "Osterode am Harz, 37520, Kornmarkt 9", "opening_hours": "Mo-Fr 08:30-19:00; Sa 08:30-16:00"}, "geometry": {"type": "Point", "coordinates": [10.250846386992, 51.727457038671]}},
{"type": "Feature", "id": "DTs3DEG8Hw7x_Y-3Ztc4ggJXcvE=", "properties": {"ref": "1901", "maps_url": "https://maps.google.com/maps?cid=10630146608630827171", "url": "nordrhein-westfalen/werdohl/freiheitstr--1.html", "region": "nordrhein-westfalen", "store_code": "1901", "@spider": "rossmann_de", "addr:street": "Freiheitstr. 1", "addr:city": "werdohl", "addr:postcode": "58791", "name": "Werdohl, 58791, Freiheitstr. 1", "opening_hours": "Mo-Fr 08:30-19:30; Sa 08:30-18:00"}, "geometry": {"type": "Point", "coordinates": [7.763276430825, 51.259263291028]}},
{"type": "Feature", "id": "2QcDfZOXVHFCoAfPKXVSMgxZZNc=", "properties": {"ref": "1900", "maps_url": "https://maps.google.com/maps?cid=1119305191350343447", "url": "berlin/berlin/schoenhauser-allee-79.html", "region": "berlin", "store_code": "1900", "@spider": "rossmann_de", "addr:street": "Sch\u00f6nhauser Allee 79", "addr:city": "berlin", "addr:postcode": "10439", "name": "Berlin, 10439, Sch\u00f6nhauser Allee 79", "opening_hours": "Mo-Sa 09:00-21:00"}, "geometry": {"type": "Point", "coordinates": [13.416216372867, 52.549337002037]}},
{"type": "Feature", "id": "77ufLQVxIOEnJNkn-hVCm_cWoBo=", "properties": {"ref": "254", "maps_url": "https://maps.google.com/maps?cid=11050110083207698295", "url": "hamburg/hamburg/fuhlsbuettler-str--184.html", "region": "hamburg", "store_code": "254", "@spider": "rossmann_de", "addr:street": "Fuhlsb\u00fcttler Str. 184", "addr:city": "hamburg", "addr:postcode": "22307", "name": "Hamburg, 22307, Fuhlsb\u00fcttler Str. 184", "opening_hours": "Mo-Sa 08:00-21:00"}, "geometry": {"type": "Point", "coordinates": [10.044462942042, 53.593959588508]}},
{"type": "Feature", "id": "zr5K28jCGEI-FAFGYL3zpuDWXPY=", "properties": {"ref": "255", "maps_url": "https://maps.google.com/maps?cid=13440625146626229115", "url": "nordrhein-westfalen/sundern/hauptstr--63.html", "region": "nordrhein-westfalen", "store_code": "255", "@spider": "rossmann_de", "addr:street": "Hauptstr. 63", "addr:city": "sundern", "addr:postcode": "59846", "name": "Sundern, 59846, Hauptstr. 63", "opening_hours": "Mo-Fr 08:30-19:00; Sa 08:30-18:00"}, "geometry": {"type": "Point", "coordinates": [8.0040758315, 51.326824964567]}},
{"type": "Feature", "id": "BaWWgK-4yKoONEaOVA2BwM6BqMk=", "properties": {"ref": "257", "maps_url": "https://maps.google.com/maps?cid=4428249730793544824", "url": "niedersachsen/stade/holzstr--15-17.html", "region": "niedersachsen", "store_code": "257", "@spider": "rossmann_de", "addr:street": "Holzstr. 15-17", "addr:city": "stade", "addr:postcode": "21682", "name": "Stade, 21682, Holzstr. 15-17", "opening_hours": "Mo-Fr 08:30-19:00; Sa 08:30-18:00"}, "geometry": {"type": "Point", "coordinates": [9.475665424655, 53.59848626334]}},
{"type": "Feature", "id": "gCdhSky6KyTAIf4pZ0ST3U0nLAE=", "properties": {"ref": "259", "maps_url": "https://maps.google.com/maps?cid=17895829142411526192", "url": "niedersachsen/leer/muehlenstr--108.html", "region": "niedersachsen", "store_code": "259", "@spider": "rossmann_de", "addr:street": "M\u00fchlenstr. 108", "addr:city": "leer", "addr:postcode": "26789", "name": "Leer, 26789, M\u00fchlenstr. 108", "opening_hours": "Mo-Fr 09:00-19:00; Sa 09:00-22:00"}, "geometry": {"type": "Point", "coordinates": [7.460598640439, 53.231057361952]}},
{"type": "Feature", "id": "MtmXno8KzbxKB9tuWGRU9YyDwFI=", "properties": {"ref": "1914", "maps_url": "https://maps.google.com/maps?cid=16702575967987160907", "url": "sachsen/eilenburg/marktplatz-3.html", "region": "sachsen", "store_code": "1914", "@spider": "rossmann_de", "addr:street": "Marktplatz 3", "addr:city": "eilenburg", "addr:postcode": "04838", "name": "Eilenburg, 04838, Marktplatz 3", "opening_hours": "Mo-Sa 08:00-20:00"}, "geometry": {"type": "Point", "coordinates": [12.634009836412, 51.459836780648]}},
{"type": "Feature", "id": "6TR0x4z7HGnc5GRmijqmOfPHA6Q=", "properties": {"ref": "1913", "maps_url": "https://maps.google.com/maps?cid=15761281211456788570", "url": "mecklenburg-vorpommern/bergen/nonnenseestr--1.html", "region": "mecklenburg-vorpommern", "store_code": "1913", "@spider": "rossmann_de", "addr:street": "Nonnenseestr. 1", "addr:city": "bergen", "addr:postcode": "18528", "name": "Bergen, 18528, Nonnenseestr. 1", "opening_hours": "Mo-Sa 08:00-20:00"}, "geometry": {"type": "Point", "coordinates": [13.422320050925, 54.427311248703]}},
{"type": "Feature", "id": "copkVylQSAwTxbtc0XsUS7Z8EvI=", "properties": {"ref": "1911", "maps_url": "https://maps.google.com/maps?cid=5777682435252165030", "url": "hessen/erlensee/leipziger-str--41.html", "region": "hessen", "store_code": "1911", "@spider": "rossmann_de", "addr:street": "Leipziger Str. 41", "addr:city": "erlensee", "addr:postcode": "63526", "name": "Erlensee, 63526, Leipziger Str. 41", "opening_hours": "Mo-Sa 08:00-20:00"}, "geometry": {"type": "Point", "coordinates": [8.984188523868, 50.156044107888]}},
{"type": "Feature", "id": "sf4JUfR1BDlhVgg8Hdqv13oIgc0=", "properties": {"ref": "262", "maps_url": "https://maps.google.com/maps?cid=6051943753165877226", "url": "schleswig-holstein/flensburg/holm-9.html", "region": "schleswig-holstein", "store_code": "262", "@spider": "rossmann_de", "addr:street": "Holm 9", "addr:city": "flensburg", "addr:postcode": "24937", "name": "Flensburg, 24937, Holm 9", "opening_hours": "Mo-Sa 08:00-20:00"}, "geometry": {"type": "Point", "coordinates": [9.43462, 54.78569]}},
{"type": "Feature", "id": "g2JNX0tyqXgXuIYGn3ExPv1Za9k=", "properties": {"ref": "1921", "maps_url": "https://maps.google.com/maps?cid=11884538813093541963", "url": "nordrhein-westfalen/bestwig/bundesstr--147-a.html", "region": "nordrhein-westfalen", "store_code": "1921", "@spider": "rossmann_de", "addr:street": "Bundesstr. 147 a", "addr:city": "bestwig", "addr:postcode": "59909", "name": "Bestwig, 59909, Bundesstr. 147 a", "opening_hours": "Mo-Fr 08:00-20:00; Sa 08:00-18:00"}, "geometry": {"type": "Point", "coordinates": [8.40031035149, 51.361734298318]}},
{"type": "Feature", "id": "9o9WfJYLj73oNC-XzrYedCAww0I=", "properties": {"ref": "264", "maps_url": "https://maps.google.com/maps?cid=2297093587732749765", "url": "schleswig-holstein/luebeck/werner-kock-str--4.html", "region": "schleswig-holstein", "store_code": "264", "@spider": "rossmann_de", "addr:street": "Werner-Kock-Str. 4", "addr:city": "luebeck", "addr:postcode": "23554", "name": "L\u00fcbeck, 23554, Werner-Kock-Str. 4", "opening_hours": "Mo-Sa 08:30-20:00"}, "geometry": {"type": "Point", "coordinates": [10.672669043552, 53.867295838142]}},
{"type": "Feature", "id": "T1Bi6R0o1GCpRvJ-CmqiEbNJZ-8=", "properties": {"ref": "1920", "maps_url": "https://maps.google.com/maps?cid=18000945899833930010", "url": "niedersachsen/hannover/brabeckstr--16.html", "region": "niedersachsen", "store_code": "1920", "@spider": "rossmann_de", "addr:street": "Brabeckstr. 16", "addr:city": "hannover", "addr:postcode": "30559", "name": "Hannover, 30559, Brabeckstr. 16", "opening_hours": "Mo-Sa 08:00-20:00"}, "geometry": {"type": "Point", "coordinates": [9.826861784986, 52.358965574215]}},
{"type": "Feature", "id": "obpqt6nVYPAu4RQjL-E2e7_ZD7c=", "properties": {"ref": "265", "maps_url": "https://maps.google.com/maps?cid=12177550877508134928", "url": "bremen/bremen/ritterhuder-heerstr--6.html", "region": "bremen", "store_code": "265", "@spider": "rossmann_de", "addr:street": "Ritterhuder Heerstr. 6", "addr:city": "bremen", "addr:postcode": "28239", "name": "Bremen, 28239, Ritterhuder Heerstr. 6", "opening_hours": "Mo-Fr 08:00-20:00; Sa 08:00-21:00"}, "geometry": {"type": "Point", "coordinates": [8.736711833385, 53.134510051541]}},
{"type": "Feature", "id": "oLQSHnaCprB22obZPKNFNDenP1w=", "properties": {"ref": "267", "maps_url": "https://maps.google.com/maps?cid=2337974072127022785", "url": "niedersachsen/schuettorf/graf-egbert-str--23.html", "region": "niedersachsen", "store_code": "267", "@spider": "rossmann_de", "addr:street": "Graf-Egbert-Str. 23", "addr:city": "schuettorf", "addr:postcode": "48465", "name": "Sch\u00fcttorf, 48465, Graf-Egbert-Str. 23", "opening_hours": "Mo-Sa 08:00-21:00"}, "geometry": {"type": "Point", "coordinates": [7.225854633372, 52.318962229682]}},
{"type": "Feature", "id": "H2mc3adhxMG7C6jMoq2GShvPxB4=", "properties": {"ref": "1929", "maps_url": "https://maps.google.com/maps?cid=11713784309650588893", "url": "hessen/dillenburg/hauptstr--113c.html", "region": "hessen", "store_code": "1929", "@spider": "rossmann_de", "addr:street": "Hauptstr. 113c", "addr:city": "dillenburg", "addr:postcode": "35684", "name": "Dillenburg, 35684, Hauptstr. 113c", "opening_hours": "Mo-Sa 08:00-20:00"}, "geometry": {"type": "Point", "coordinates": [8.305500659212, 50.776357171443]}},
{"type": "Feature", "id": "XbsWsSavA44M44XMp0-Kg8OOGOM=", "properties": {"ref": "1928", "maps_url": "https://maps.google.com/maps?cid=12354653579064222077", "url": "brandenburg/cottbus/gerhart-hauptmann-str--15.html", "region": "brandenburg", "store_code": "1928", "@spider": "rossmann_de", "addr:street": "Gerhart-Hauptmann-Str. 15", "addr:city": "cottbus", "addr:postcode": "03044", "name": "Cottbus, 03044, Gerhart-Hauptmann-Str. 15", "opening_hours": "Mo-Sa 08:00-20:00"}, "geometry": {"type": "Point", "coordinates": [14.343624720361, 51.773084003987]}},
{"type": "Feature", "id": "tdNKcLTb5Bc1Sq3yX6CNe3e_y8U=", "properties": {"ref": "1927", "maps_url": "https://maps.google.com/maps?cid=4716816126741987594", "url": "niedersachsen/spelle/hauptstr--39.html", "region": "niedersachsen", "store_code": "1927", "@spider": "rossmann_de", "addr:street": "Hauptstr. 39", "addr:city": "spelle", "addr:postcode": "48480", "name": "Spelle, 48480, Hauptstr. 39", "opening_hours": "Mo-Sa 08:00-20:00"}, "geometry": {"type": "Point", "coordinates": [7.470215292699, 52.365013967817]}},
{"type": "Feature", "id": "YAyuQloMv5QcMtCTTrUvkEQE9pM=", "properties": {"ref": "1926", "maps_url": "https://maps.google.com/maps?cid=10218263516779609711", "url": "hessen/raunheim/floersheimer-str--1.html", "region": "hessen", "store_code": "1926", "@spider": "rossmann_de", "addr:street": "Fl\u00f6rsheimer Str. 1", "addr:city": "raunheim", "addr:postcode": "65479", "name": "Raunheim, 65479, Fl\u00f6rsheimer Str. 1", "opening_hours": "Mo-Sa 09:00-20:00"}, "geometry": {"type": "Point", "coordinates": [8.436825183448, 50.008336781999]}},
{"type": "Feature", "id": "IwZku0pS1N3KCcf4zuxByDbI8Xo=", "properties": {"ref": "1925", "maps_url": "https://maps.google.com/maps?cid=13698539888372697299", "url": "niedersachsen/ottersberg/am-damm-17.html", "region": "niedersachsen", "store_code": "1925", "@spider": "rossmann_de", "addr:street": "Am Damm 17", "addr:city": "ottersberg", "addr:postcode": "28870", "name": "Ottersberg, 28870, Am Damm 17", "opening_hours": "Mo-Fr 08:30-20:00; Sa 08:30-19:00"}, "geometry": {"type": "Point", "coordinates": [9.140855645154, 53.113917395164]}},
{"type": "Feature", "id": "8qS6lJ-05ea7anVJ5A-VBkZWWk0=", "properties": {"ref": "1922", "maps_url": "https://maps.google.com/maps?cid=4683056991583947825", "url": "thueringen/altenburg/markt-17.html", "region": "thueringen", "store_code": "1922", "@spider": "rossmann_de", "addr:street": "Markt 17", "addr:city": "altenburg", "addr:postcode": "04600", "name": "Altenburg, 04600, Markt 17", "opening_hours": "Mo-Sa 08:00-19:00"}, "geometry": {"type": "Point", "coordinates": [12.434221522838, 50.985502876725]}},
{"type": "Feature", "id": "sIMrTW8QRN-BvlvVUoHQVEOq_do=", "properties": {"ref": "272", "maps_url": "https://maps.google.com/maps?cid=6571136842129761515", "url": "schleswig-holstein/schwentinental/mergenthaler-str--32.html", "region": "schleswig-holstein", "store_code": "272", "@spider": "rossmann_de", "addr:street": "Mergenthaler Str. 32", "addr:city": "schwentinental", "addr:postcode": "24223", "name": "Schwentinental, 24223, Mergenthaler Str. 32", "opening_hours": "Mo-Sa 08:00-20:00"}, "geometry": {"type": "Point", "coordinates": [10.219218577329, 54.288789592631]}},
{"type": "Feature", "id": "Dnmu7vHb14U5W2c5wVHzs6pdTa0=", "properties": {"ref": "274", "maps_url": "https://maps.google.com/maps?cid=16057267581441718727", "url": "niedersachsen/hannover/badenstedter-str--215.html", "region": "niedersachsen", "store_code": "274", "@spider": "rossmann_de", "addr:street": "Badenstedter Str. 215", "addr:city": "hannover", "addr:postcode": "30455", "name": "Hannover, 30455, Badenstedter Str. 215", "opening_hours": "Mo-Fr 08:30-19:00; Sa 08:30-18:00"}, "geometry": {"type": "Point", "coordinates": [9.671507888342, 52.355580863442]}},
{"type": "Feature", "id": "oeDEW0tomrPDMEUxzx3WlcAcaEw=", "properties": {"ref": "1932", "maps_url": "https://maps.google.com/maps?cid=13295757575167560731", "url": "rheinland-pfalz/worms/schoenauer-str--20.html", "region": "rheinland-pfalz", "store_code": "1932", "@spider": "rossmann_de", "addr:street": "Sch\u00f6nauer Str. 20", "addr:city": "worms", "addr:postcode": "67547", "name": "Worms, 67547, Sch\u00f6nauer Str. 20", "opening_hours": "Mo-Sa 08:00-20:00"}, "geometry": {"type": "Point", "coordinates": [8.362686474465, 49.626179583544]}},
{"type": "Feature", "id": "YV274W9Q3B_6S1b1WSiSnwUU0qI=", "properties": {"ref": "1931", "maps_url": "https://maps.google.com/maps?cid=18153201495156627790", "url": "rheinland-pfalz/worms/wilhelm-leuschner-str--11.html", "region": "rheinland-pfalz", "store_code": "1931", "@spider": "rossmann_de", "addr:street": "Wilhelm-Leuschner-Str. 11", "addr:city": "worms", "addr:postcode": "67547", "name": "Worms, 67547, Wilhelm-Leuschner-Str. 11", "opening_hours": "Mo-Sa 08:00-20:00"}, "geometry": {"type": "Point", "coordinates": [8.358720973932, 49.63343101457]}},
{"type": "Feature", "id": "DIEoasbhHkkiwkUmufXz9hm_YEw=", "properties": {"ref": "1930", "maps_url": "https://maps.google.com/maps?cid=11930200533887518966", "url": "sachsen/delitzsch/eisenbahnstr--24.html", "region": "sachsen", "store_code": "1930", "@spider": "rossmann_de", "addr:street": "Eisenbahnstr. 24", "addr:city": "delitzsch", "addr:postcode": "04509", "name": "Delitzsch, 04509, Eisenbahnstr. 24", "opening_hours": "Mo-Sa 08:00-20:00"}, "geometry": {"type": "Point", "coordinates": [12.344781510173, 51.525048715508]}},
{"type": "Feature", "id": "WSSHNMH-K7cTbM5bH8OSKd-TJmI=", "properties": {"ref": "1938", "maps_url": "https://maps.google.com/maps?cid=1882659852983839742", "url": "thueringen/kahla/oelwiesenweg-1-a.html", "region": "thueringen", "store_code": "1938", "@spider": "rossmann_de", "addr:street": "\u00d6lwiesenweg 1 a", "addr:city": "kahla", "addr:postcode": "07768", "name": "Kahla, 07768, \u00d6lwiesenweg 1 a", "opening_hours": "Mo-Sa 08:00-20:00"}, "geometry": {"type": "Point", "coordinates": [11.590549260265, 50.806883612907]}},
{"type": "Feature", "id": "mWaQADluqR3MwLbWElQTxN8YcwA=", "properties": {"ref": "1936", "maps_url": "https://maps.google.com/maps?cid=8785484216293828043", "url": "nordrhein-westfalen/minden/viktoriastr--15-a.html", "region": "nordrhein-westfalen", "store_code": "1936", "@spider": "rossmann_de", "addr:street": "Viktoriastr. 15 a", "addr:city": "minden", "addr:postcode": "32423", "name": "Minden, 32423, Viktoriastr. 15 a", "opening_hours": "Mo-Sa 08:00-20:00"}, "geometry": {"type": "Point", "coordinates": [8.93746808168, 52.28972763418]}},
{"type": "Feature", "id": "cl9EcrrERCughhXVzz8vtEmbzuQ=", "properties": {"ref": "1935", "maps_url": "https://maps.google.com/maps?cid=13187429510227616946", "url": "nordrhein-westfalen/siegen/sandstr--163.html", "region": "nordrhein-westfalen", "store_code": "1935", "@spider": "rossmann_de", "addr:street": "Sandstr. 163", "addr:city": "siegen", "addr:postcode": "57072", "name": "Siegen, 57072, Sandstr. 163", "opening_hours": "Mo-Sa 08:00-20:00"}, "geometry": {"type": "Point", "coordinates": [8.028152365454, 50.881920907025]}},
{"type": "Feature", "id": "Uaq7sJvWm6eKPsV__U-Y1ynCNkQ=", "properties": {"ref": "1934", "maps_url": "https://maps.google.com/maps?cid=2702429846094922286", "url": "sachsen-anhalt/jessen/rosa-luxemburg-str--70.html", "region": "sachsen-anhalt", "store_code": "1934", "@spider": "rossmann_de", "addr:street": "Rosa-Luxemburg-Str. 70", "addr:city": "jessen", "addr:postcode": "06917", "name": "Jessen, 06917, Rosa-Luxemburg-Str. 70", "opening_hours": "Mo-Sa 08:00-20:00"}, "geometry": {"type": "Point", "coordinates": [12.969371144069, 51.793738175203]}},
{"type": "Feature", "id": "5gNd1_8P_Yg1ahZVjpr6vsuAJh8=", "properties": {"ref": "283", "maps_url": "https://maps.google.com/maps?cid=662695809564141509", "url": "nordrhein-westfalen/bad-lippspringe/an-der-weberei-10.html", "region": "nordrhein-westfalen", "store_code": "283", "@spider": "rossmann_de", "addr:street": "An der Weberei 10", "addr:city": "bad-lippspringe", "addr:postcode": "33175", "name": "Bad Lippspringe, 33175, An der Weberei 10", "opening_hours": "Mo-Sa 08:00-20:00"}, "geometry": {"type": "Point", "coordinates": [8.804541187551, 51.776577431835]}},
{"type": "Feature", "id": "pNHZm53Iz1CVeqBasuk0TLFO0qM=", "properties": {"ref": "286", "maps_url": "https://maps.google.com/maps?cid=5496627283434080256", "url": "sachsen-anhalt/wernigerode/breite-str--3.html", "region": "sachsen-anhalt", "store_code": "286", "@spider": "rossmann_de", "addr:street": "Breite Str. 3", "addr:city": "wernigerode", "addr:postcode": "38855", "name": "Wernigerode, 38855, Breite Str. 3", "opening_hours": "Mo-Sa 08:30-19:00; Su 13:00-18:00"}, "geometry": {"type": "Point", "coordinates": [10.784900063573, 51.833795542603]}},
{"type": "Feature", "id": "tT8VLeBI4fIf7Xn7Evk7OUsp7ek=", "properties": {"ref": "289", "maps_url": "https://maps.google.com/maps?cid=4137226058668024032", "url": "nordrhein-westfalen/gronau/neustr--16-20.html", "region": "nordrhein-westfalen", "store_code": "289", "@spider": "rossmann_de", "addr:street": "Neustr. 16-20", "addr:city": "gronau", "addr:postcode": "48599", "name": "Gronau, 48599, Neustr. 16-20", "opening_hours": "Mo-Sa 08:30-20:00"}, "geometry": {"type": "Point", "coordinates": [7.02371965827, 52.21156560466]}},
{"type": "Feature", "id": "l9hvthBDHcmM25rvka-1JrpKfOQ=", "properties": {"ref": "1949", "maps_url": "https://maps.google.com/maps?cid=15702862294343729837", "url": "sachsen/oschatz/nossener-str--5.html", "region": "sachsen", "store_code": "1949", "@spider": "rossmann_de", "addr:street": "Nossener Str. 5", "addr:city": "oschatz", "addr:postcode": "04758", "name": "Oschatz, 04758, Nossener Str. 5", "opening_hours": "Mo-Sa 08:00-20:00"}, "geometry": {"type": "Point", "coordinates": [13.123288859147, 51.291541209179]}},
{"type": "Feature", "id": "jq-f5yF5KlPG-AuarteydhY5zNk=", "properties": {"ref": "1945", "maps_url": "https://maps.google.com/maps?cid=12709261730172059139", "url": "nordrhein-westfalen/harsewinkel/muensterstr--4-a.html", "region": "nordrhein-westfalen", "store_code": "1945", "@spider": "rossmann_de", "addr:street": "M\u00fcnsterstr. 4 a", "addr:city": "harsewinkel", "addr:postcode": "33428", "name": "Harsewinkel, 33428, M\u00fcnsterstr. 4 a", "opening_hours": "Mo-Fr 08:30-20:00; Sa 08:30-18:00"}, "geometry": {"type": "Point", "coordinates": [8.22524311309, 51.961372768566]}},
{"type": "Feature", "id": "hbKM2BMI-WYiXqn1dmTdXdbtZtk=", "properties": {"ref": "1944", "maps_url": "https://maps.google.com/maps?cid=4189831834469863810", "url": "sachsen/dresden/boltenhagener-str--71.html", "region": "sachsen", "store_code": "1944", "@spider": "rossmann_de", "addr:street": "Boltenhagener Str. 71", "addr:city": "dresden", "addr:postcode": "01109", "name": "Dresden, 01109, Boltenhagener Str. 71", "opening_hours": "Mo-Sa 08:00-20:00"}, "geometry": {"type": "Point", "coordinates": [13.768345483898, 51.118631595377]}},
{"type": "Feature", "id": "QJFCMvOymWs3fJALMu8LdjkQ5Fw=", "properties": {"ref": "290", "maps_url": "https://maps.google.com/maps?cid=4848107038389083952", "url": "hessen/kassel/wolfhager-str--392-a.html", "region": "hessen", "store_code": "290", "@spider": "rossmann_de", "addr:street": "Wolfhager Str. 392 a", "addr:city": "kassel", "addr:postcode": "34128", "name": "Kassel, 34128, Wolfhager Str. 392 a"}, "geometry": {"type": "Point", "coordinates": [9.436836495095, 51.337796381827]}},
{"type": "Feature", "id": "n5XjKArHX65IkhPo2MkX_MWmlLE=", "properties": {"ref": "292", "maps_url": "https://maps.google.com/maps?cid=539936889345551459", "url": "niedersachsen/hannover/anderter-str--1-3.html", "region": "niedersachsen", "store_code": "292", "@spider": "rossmann_de", "addr:street": "Anderter Str. 1-3", "addr:city": "hannover", "addr:postcode": "30629", "name": "Hannover, 30629, Anderter Str. 1-3", "opening_hours": "Mo-Sa 08:00-20:00"}, "geometry": {"type": "Point", "coordinates": [9.854543744758, 52.390568864722]}},
{"type": "Feature", "id": "hBW57ZCN00c9dISnrDAPpe5w8KM=", "properties": {"ref": "293", "maps_url": "https://maps.google.com/maps?cid=13411420227494083444", "url": "nordrhein-westfalen/bueren/burgstr--36-38.html", "region": "nordrhein-westfalen", "store_code": "293", "@spider": "rossmann_de", "addr:street": "Burgstr. 36-38", "addr:city": "bueren", "addr:postcode": "33142", "name": "B\u00fcren, 33142, Burgstr. 36-38", "opening_hours": "Mo-Fr 08:30-19:00; Sa 08:00-18:00"}, "geometry": {"type": "Point", "coordinates": [8.5585654322, 51.551874400661]}},
{"type": "Feature", "id": "plSGiNUiq-wlGRmzgAZXHkmXQ4g=", "properties": {"ref": "1954", "maps_url": "https://maps.google.com/maps?cid=10497708455549229260", "url": "nordrhein-westfalen/warendorf/industriestr--9.html", "region": "nordrhein-westfalen", "store_code": "1954", "@spider": "rossmann_de", "addr:street": "Industriestr. 9", "addr:city": "warendorf", "addr:postcode": "48231", "name": "Warendorf, 48231, Industriestr. 9", "opening_hours": "Mo-Sa 08:00-20:00"}, "geometry": {"type": "Point", "coordinates": [7.964342785035, 51.922061001172]}},
{"type": "Feature", "id": "C08-ylDYB6M7shVWPI6qjnMQMVU=", "properties": {"ref": "297", "maps_url": "https://maps.google.com/maps?cid=1378437383175691674", "url": "hamburg/hamburg/rugenbarg-17.html", "region": "hamburg", "store_code": "297", "@spider": "rossmann_de", "addr:street": "Rugenbarg 17", "addr:city": "hamburg", "addr:postcode": "22549", "name": "Hamburg, 22549, Rugenbarg 17", "opening_hours": "Mo-Fr 08:00-20:00; Sa 08:00-18:00"}, "geometry": {"type": "Point", "coordinates": [9.84596, 53.57446]}}]}