{"type":"FeatureCollection","features":[{"type": "Feature", "id": "i70DJIqH1IHMIjjg5bSLKn38Jsw=", "properties": {"ref": "192", "amenity:chargingstation": false, "amenity:fuel": true, "fuel:diesel": null, "fuel:e15": null, "fuel:e85": null, "@spider": "royal_farms", "addr:full": "3314 Market Street", "addr:city": "Aston", "addr:state": "PA", "addr:postcode": "19014", "addr:country": "US", "phone": "(610) 200-3554", "brand": "Royal Farms", "brand:wikidata": "Q7374169"}},
{"type": "Feature", "id": "OldUuBw6xwOMH7XnLgb2ImvAa6k=", "properties": {"ref": "195", "amenity:chargingstation": false, "amenity:fuel": true, "fuel:diesel": null, "fuel:e15": null, "fuel:e85": null, "@spider": "royal_farms", "addr:full": "2130 West Chester Pike", "addr:city": "Broomall", "addr:state": "PA", "addr:postcode": "19008", "addr:country": "US", "phone": "484-427-2295", "opening_hours": "24/7", "brand": "Royal Farms", "brand:wikidata": "Q7374169"}},
{"type": "Feature", "id": "uuwQECCjeQtTbhmgYj41U8mUIIc=", "properties": {"ref": "234", "amenity:chargingstation": false, "amenity:fuel": true, "fuel:diesel": null, "fuel:e15": null, "fuel:e85": null, "@spider": "royal_farms", "addr:full": "207 E. Main Street", "addr:city": "Collegeville", "addr:state": "PA", "addr:postcode": "19426", "addr:country": "US", "phone": "1-484-854-0294", "opening_hours": "24/7", "brand": "Royal Farms", "brand:wikidata": "Q7374169"}},
{"type": "Feature", "id": "HI82GPzw8ZGPZDL-nWgI6EL-S4w=", "properties": {"ref": "240", "amenity:chargingstation": false, "amenity:fuel": true, "fuel:diesel": null, "fuel:e15": null, "fuel:e85": null, "@spider": "royal_farms", "addr:full": "935 Bethlehem Pike", "addr:city": "Colmar", "addr:state": "PA", "addr:postcode": "18915", "addr:country": "US", "phone": "(215) 716-2142", "brand": "Royal Farms", "brand:wikidata": "Q7374169"}},
{"type": "Feature", "id": "siBqdLAGfPNgU8sQ-Ve-FxLuIsI=", "properties": {"ref": "147", "amenity:chargingstation": false, "amenity:fuel": true, "fuel:diesel": null, "fuel:e15": null, "fuel:e85": null, "@spider": "royal_farms", "addr:full": "933 Broad Street", "addr:city": "Delta", "addr:state": "PA", "addr:postcode": "17314", "addr:country": "US", "phone": "(717) 455-7160", "opening_hours": "24/7", "brand": "Royal Farms", "brand:wikidata": "Q7374169"}},
{"type": "Feature", "id": "ZhVGpRMQW1h-pA9bBf_YQj1difI=", "properties": {"ref": "144", "amenity:chargingstation": false, "amenity:fuel": true, "fuel:diesel": null, "fuel:e15": null, "fuel:e85": null, "@spider": "royal_farms", "addr:full": "3120 Carlisle Rd", "addr:city": "Dover", "addr:state": "PA", "addr:postcode": "17315", "addr:country": "US", "phone": "(717) 900-3204", "opening_hours": "24/7", "brand": "Royal Farms", "brand:wikidata": "Q7374169"}},
{"type": "Feature", "id": "A8T_kN3-bCHNoi3j3bMBCS0i4jo=", "properties": {"ref": "225", "amenity:chargingstation": false, "amenity:fuel": true, "fuel:diesel": null, "fuel:e15": null, "fuel:e85": null, "@spider": "royal_farms", "addr:full": "5031 Horseshoe Pike", "addr:city": "Downingtown", "addr:state": "PA", "addr:postcode": "19335", "addr:country": "US", "phone": "(610) 514-1055", "opening_hours": "24/7", "brand": "Royal Farms", "brand:wikidata": "Q7374169"}},
{"type": "Feature", "id": "E7fP49e1Te0_n7edDIRY1x9UfKY=", "properties": {"ref": "221", "amenity:chargingstation": false, "amenity:fuel": true, "fuel:diesel": null, "fuel:e15": null, "fuel:e85": null, "@spider": "royal_farms", "addr:full": "145 N MacDade Blvd", "addr:city": "Glenolden", "addr:state": "PA", "addr:postcode": "19036", "addr:country": "US", "phone": "(267) 583-1233", "opening_hours": "24/7", "brand": "Royal Farms", "brand:wikidata": "Q7374169"}},
{"type": "Feature", "id": "S_WXi898QBqKUpaUfX_L_9OWnT0=", "properties": {"ref": "118", "amenity:chargingstation": false, "amenity:fuel": true, "fuel:diesel": null, "fuel:e15": null, "fuel:e85": null, "@spider": "royal_farms", "addr:full": "101 Carlisle Street", "addr:city": "Hanover", "addr:state": "PA", "addr:postcode": "17331", "addr:country": "US", "phone": "(717) 630-4415", "brand": "Royal Farms", "brand:wikidata": "Q7374169"}},
{"type": "Feature", "id": "uO57UWzQvaoDQdiB-6NdSUCenas=", "properties": {"ref": "132", "amenity:chargingstation": false, "amenity:fuel": true, "fuel:diesel": null, "fuel:e15": null, "fuel:e85": null, "@spider": "royal_farms", "addr:full": "1780 Sumneytown Pike", "addr:city": "Kulpsville", "addr:state": "PA", "addr:postcode": "19438", "addr:country": "US", "phone": "(215) 647-6373", "opening_hours": "24/7", "brand": "Royal Farms", "brand:wikidata": "Q7374169"}},
{"type": "Feature", "id": "yhk_OTuapxsLnyWfOF8-pCuiVPI=", "properties": {"ref": "260", "amenity:chargingstation": false, "amenity:fuel": true, "fuel:diesel": null, "fuel:e15": null, "fuel:e85": null, "@spider": "royal_farms", "addr:full": "200 Rohrerstown Road", "addr:city": "Lancaster", "addr:state": "PA", "addr:postcode": "17603", "addr:country": "US", "phone": "(717) 305-4808", "brand": "Royal Farms", "brand:wikidata": "Q7374169"}},
{"type": "Feature", "id": "wcBHZQEzzXhg9uZmfyRhVXZi1Lo=", "properties": {"ref": "129", "amenity:chargingstation": false, "amenity:fuel": true, "fuel:diesel": null, "fuel:e15": null, "fuel:e85": null, "@spider": "royal_farms", "addr:full": "450 N. Queen Street", "addr:city": "Littlestown", "addr:state": "PA", "addr:postcode": "17340", "addr:country": "US", "phone": "(215) 647-6372", "opening_hours": "24/7", "brand": "Royal Farms", "brand:wikidata": "Q7374169"}},
{"type": "Feature", "id": "NXPsZXboT9DCRFbaG64jTcOjfCE=", "properties": {"ref": "155", "amenity:chargingstation": false, "amenity:fuel": true, "fuel:diesel": null, "fuel:e15": null, "fuel:e85": null, "@spider": "royal_farms", "addr:full": "1820 Markley St.", "addr:city": "Norristown", "addr:state": "PA", "addr:postcode": "19401", "addr:country": "US", "phone": "484-754-7690", "opening_hours": "24/7", "brand": "Royal Farms", "brand:wikidata": "Q7374169"}},
{"type": "Feature", "id": "67mNP4qzbOFMI5WXSjx5hj20BXY=", "properties": {"ref": "200", "amenity:chargingstation": false, "amenity:fuel": true, "fuel:diesel": null, "fuel:e15": true, "fuel:e85": true, "@spider": "royal_farms", "addr:full": "467 Sumneytown Pike", "addr:city": "North Wales", "addr:state": "PA", "addr:postcode": "19454", "addr:country": "US", "phone": "267-613-6032", "opening_hours": "24/7", "brand": "Royal Farms", "brand:wikidata": "Q7374169"}},
{"type": "Feature", "id": "nyrx7ulK60DAh2f7l7cOUE0iyGY=", "properties": {"ref": "242", "amenity:chargingstation": false, "amenity:fuel": true, "fuel:diesel": true, "fuel:e15": null, "fuel:e85": null, "@spider": "royal_farms", "addr:full": "2501 Church Street", "addr:city": "Philadelphia", "addr:state": "PA", "addr:postcode": "19124", "addr:country": "US", "phone": "(215) 992-7539", "opening_hours": "24/7", "brand": "Royal Farms", "brand:wikidata": "Q7374169"}},
{"type": "Feature", "id": "rJt_mwTZTGk3xp4MNrVk_DGWJfg=", "properties": {"ref": "202", "amenity:chargingstation": true, "amenity:fuel": true, "fuel:diesel": null, "fuel:e15": null, "fuel:e85": null, "@spider": "royal_farms", "addr:full": "105 Stewart Ave", "addr:city": "Ridley Park", "addr:state": "PA", "addr:postcode": "19078", "addr:country": "US", "phone": "(484) 754-7685", "opening_hours": "24/7", "brand": "Royal Farms", "brand:wikidata": "Q7374169"}},
{"type": "Feature", "id": "AlOa5VwksshRtQ2yCCiqZIbjmbE=", "properties": {"ref": "214", "amenity:chargingstation": false, "amenity:fuel": true, "fuel:diesel": null, "fuel:e15": null, "fuel:e85": null, "@spider": "royal_farms", "addr:full": "17302 Draco Road", "addr:city": "Stewartstown", "addr:state": "PA", "addr:postcode": "17363", "addr:country": "US", "phone": "(717) 993-4305", "brand": "Royal Farms", "brand:wikidata": "Q7374169"}},
{"type": "Feature", "id": "w7GTcda5Lg6Y1BTlOf6dEo2pxkE=", "properties": {"ref": "126", "amenity:chargingstation": false, "amenity:fuel": true, "fuel:diesel": null, "fuel:e15": null, "fuel:e85": null, "@spider": "royal_farms", "addr:full": "850 Hellam Street", "addr:city": "Wrightsville", "addr:state": "PA", "addr:postcode": "17368", "addr:country": "US", "phone": "(717) 252-8510", "opening_hours": "24/7", "brand": "Royal Farms", "brand:wikidata": "Q7374169"}},
{"type": "Feature", "id": "tGZDTnK8niY869LgzW_ZDSyyePU=", "properties": {"ref": "162", "amenity:chargingstation": false, "amenity:fuel": true, "fuel:diesel": null, "fuel:e15": null, "fuel:e85": null, "@spider": "royal_farms", "addr:full": "1170 Loucks Rd.", "addr:city": "York", "addr:state": "PA", "addr:postcode": "17404", "addr:country": "US", "phone": "(717) 900-3206", "opening_hours": "24/7", "brand": "Royal Farms", "brand:wikidata": "Q7374169"}},
{"type": "Feature", "id": "ytw-aq-u7U8eIJ_Ex3ojaXvC7qg=", "properties": {"ref": "272", "amenity:chargingstation": false, "amenity:fuel": true, "fuel:diesel": null, "fuel:e15": null, "fuel:e85": null, "@spider": "royal_farms", "addr:full": "3315 Concord Road", "addr:city": "York", "addr:state": "PA", "addr:postcode": "17402", "addr:country": "US", "phone": "717-814-5276", "opening_hours": "24/7", "brand": "Royal Farms", "brand:wikidata": "Q7374169"}},
{"type": "Feature", "id": "P-yickFZMpJJ6OvKjL7NEp4LJvc=", "properties": {"ref": "122", "amenity:chargingstation": false, "amenity:fuel": true, "fuel:diesel": null, "fuel:e15": null, "fuel:e85": null, "@spider": "royal_farms", "addr:full": "2605 S. Queen Street", "addr:city": "York", "addr:state": "PA", "addr:postcode": "17402", "addr:country": "US", "phone": "(717) 900-3205", "opening_hours": "24/7", "brand": "Royal Farms", "brand:wikidata": "Q7374169"}},
{"type": "Feature", "id": "rXJXcsCLZGz9cS_wzrvAMr7w-q8=", "properties": {"ref": "161", "amenity:chargingstation": false, "amenity:fuel": true, "fuel:diesel": null, "fuel:e15": null, "fuel:e85": null, "@spider": "royal_farms", "addr:full": "1551 Pulaski Highway and Wellington", "addr:city": "Bear", "addr:state": "DE", "addr:postcode": "19702", "addr:country": "US", "phone": "(302) 918-6341", "opening_hours": "24/7", "brand": "Royal Farms", "brand:wikidata": "Q7374169"}},
{"type": "Feature", "id": "lrnc5k0Pfj4hd7wo0CjJarFFMsQ=", "properties": {"ref": "109", "amenity:chargingstation": true, "amenity:fuel": true, "fuel:diesel": true, "fuel:e15": null, "fuel:e85": null, "@spider": "royal_farms", "addr:full": "18657 Sussex Hwy", "addr:city": "Bridgeville", "addr:state": "DE", "addr:postcode": "19933", "addr:country": "US", "phone": "(302) 956-8600", "opening_hours": "24/7", "brand": "Royal Farms", "brand:wikidata": "Q7374169"}},
{"type": "Feature", "id": "prarBtNH86PnNudDhwykyifOKO4=", "properties": {"ref": "316", "amenity:chargingstation": false, "amenity:fuel": true, "fuel:diesel": true, "fuel:e15": null, "fuel:e85": null, "@spider": "royal_farms", "addr:full": "32335 Dupont Blvd.", "addr:city": "Dagsboro", "addr:state": "DE", "addr:postcode": "19939", "addr:country": "US", "phone": "302-364-5408", "opening_hours": "24/7", "brand": "Royal Farms", "brand:wikidata": "Q7374169"}},
{"type": "Feature", "id": "345osB8R8wiRZJohuZx-qu9wkzU=", "properties": {"ref": "151", "amenity:chargingstation": false, "amenity:fuel": true, "fuel:diesel": null, "fuel:e15": null, "fuel:e85": null, "@spider": "royal_farms", "addr:full": "293 South Salisbury Blvd", "addr:city": "Dover", "addr:state": "DE", "addr:postcode": "19904", "addr:country": "US", "phone": "(302) 883-6263", "opening_hours": "24/7", "brand": "Royal Farms", "brand:wikidata": "Q7374169"}},
{"type": "Feature", "id": "YMaFPPZXlUHmKggwObSnyAeRrIQ=", "properties": {"ref": "119", "amenity:chargingstation": false, "amenity:fuel": true, "fuel:diesel": null, "fuel:e15": null, "fuel:e85": null, "@spider": "royal_farms", "addr:full": "5456 N. Dupont Hwy", "addr:city": "Dover", "addr:state": "DE", "addr:postcode": "19901", "addr:country": "US", "phone": "(302) 883-6262", "opening_hours": "24/7", "brand": "Royal Farms", "brand:wikidata": "Q7374169"}},
{"type": "Feature", "id": "Cye66wvp3bcIg_KQl6FbA3bizrM=", "properties": {"ref": "110", "amenity:chargingstation": false, "amenity:fuel": true, "fuel:diesel": null, "fuel:e15": null, "fuel:e85": null, "@spider": "royal_farms", "addr:full": "295 S. Dupont Hwy", "addr:city": "Dover", "addr:state": "DE", "addr:postcode": "19901", "addr:country": "US", "phone": "(302) 883-6261", "brand": "Royal Farms", "brand:wikidata": "Q7374169"}},
{"type": "Feature", "id": "XwCjDLvzhR-fjv_aSWj1Xmpb-SE=", "properties": {"ref": "139", "amenity:chargingstation": false, "amenity:fuel": true, "fuel:diesel": null, "fuel:e15": null, "fuel:e85": null, "@spider": "royal_farms", "addr:full": "6 West Lebanon Road", "addr:city": "Dover", "addr:state": "DE", "addr:postcode": "19901", "addr:country": "US", "phone": "(302) 943-6661", "opening_hours": "24/7", "brand": "Royal Farms", "brand:wikidata": "Q7374169"}},
{"type": "Feature", "id": "dLjUTjnygy_Y6VNWCgcTzLvTKE4=", "properties": {"ref": "141", "amenity:chargingstation": false, "amenity:fuel": true, "fuel:diesel": null, "fuel:e15": null, "fuel:e85": null, "@spider": "royal_farms", "addr:full": "16979 Beach Highway", "addr:city": "Ellendale", "addr:state": "DE", "addr:postcode": "19941", "addr:country": "US", "phone": "(302) 682-6021", "opening_hours": "24/7", "brand": "Royal Farms", "brand:wikidata": "Q7374169"}},
{"type": "Feature", "id": "z5eHwMoimNIdC8Eoh3NFrMbXdLQ=", "properties": {"ref": "13", "amenity:chargingstation": false, "amenity:fuel": true, "fuel:diesel": null, "fuel:e15": null, "fuel:e85": null, "@spider": "royal_farms", "addr:full": "11460 S. Dupont Hwy", "addr:city": "Felton", "addr:state": "DE", "addr:postcode": "19943", "addr:country": "US", "phone": "(302) 284-6014", "opening_hours": "24/7", "brand": "Royal Farms", "brand:wikidata": "Q7374169"}},
{"type": "Feature", "id": "pwQ6zVQqOl2qmFItMILYUAVVkBY=", "properties": {"ref": "44", "amenity:chargingstation": false, "amenity:fuel": true, "fuel:diesel": null, "fuel:e15": null, "fuel:e85": null, "@spider": "royal_farms", "addr:full": "701 Coastal Hwy", "addr:city": "Fenwick", "addr:state": "DE", "addr:postcode": "19944", "addr:country": "US", "phone": "(302) 581-6020", "brand": "Royal Farms", "brand:wikidata": "Q7374169"}},
{"type": "Feature", "id": "w6v-6MYyo3woNvr2lp6MGDIBf8c=", "properties": {"ref": "158", "amenity:chargingstation": false, "amenity:fuel": true, "fuel:diesel": null, "fuel:e15": null, "fuel:e85": null, "@spider": "royal_farms", "addr:full": "20579 Dupont Blvd", "addr:city": "Georgetown", "addr:state": "DE", "addr:postcode": "19947", "addr:country": "US", "phone": "(302) 841-6361", "opening_hours": "24/7", "brand": "Royal Farms", "brand:wikidata": "Q7374169"}},
{"type": "Feature", "id": "hR0cmT90a2svxFrFlXxFRMZIh2M=", "properties": {"ref": "120", "amenity:chargingstation": false, "amenity:fuel": true, "fuel:diesel": true, "fuel:e15": null, "fuel:e85": null, "@spider": "royal_farms", "addr:full": "2 Schultz Rd.", "addr:city": "Greenwood", "addr:state": "DE", "addr:postcode": "19950", "addr:country": "US", "phone": "(302) 815-6300", "opening_hours": "24/7", "brand": "Royal Farms", "brand:wikidata": "Q7374169"}},
{"type": "Feature", "id": "5cLi66PXrTIo6GUw7I6xzhxwCvM=", "properties": {"ref": "296", "amenity:chargingstation": false, "amenity:fuel": true, "fuel:diesel": null, "fuel:e15": null, "fuel:e85": null, "@spider": "royal_farms", "addr:full": "26454 Lewes Georgetown Highway", "addr:city": "Harbeson", "addr:state": "DE", "addr:postcode": "19951", "addr:country": "US", "phone": "302-643-9997", "opening_hours": "24/7", "brand": "Royal Farms", "brand:wikidata": "Q7374169"}},
{"type": "Feature", "id": "oXT2o5DtKb9iQk4XJfr_-x4kGus=", "properties": {"ref": "121", "amenity:chargingstation": false, "amenity:fuel": true, "fuel:diesel": null, "fuel:e15": null, "fuel:e85": null, "@spider": "royal_farms", "addr:full": "7250 Milford Harrington Highway", "addr:city": "Harrington", "addr:state": "DE", "addr:postcode": "19952", "addr:country": "US", "phone": "(302) 786-6272", "opening_hours": "24/7", "brand": "Royal Farms", "brand:wikidata": "Q7374169"}},
{"type": "Feature", "id": "9H2O956UBeSTqfoL_5H_JlpHedA=", "properties": {"ref": "117", "amenity:chargingstation": false, "amenity:fuel": true, "fuel:diesel": null, "fuel:e15": null, "fuel:e85": null, "@spider": "royal_farms", "addr:full": "6358 Halltown Road", "addr:city": "Hartly", "addr:state": "DE", "addr:postcode": "19953", "addr:country": "US", "phone": "(302) 786-6271", "opening_hours": "24/7", "brand": "Royal Farms", "brand:wikidata": "Q7374169"}},
{"type": "Feature", "id": "lqI6DLmxGWr7onxI6fbzM2j0SzE=", "properties": {"ref": "114", "amenity:chargingstation": false, "amenity:fuel": true, "fuel:diesel": null, "fuel:e15": null, "fuel:e85": null, "@spider": "royal_farms", "addr:full": "10722 Georgetown Road", "addr:city": "Laurel", "addr:state": "DE", "addr:postcode": "19956", "addr:country": "US", "phone": "(302) 715-7016", "opening_hours": "24/7", "brand": "Royal Farms", "brand:wikidata": "Q7374169"}},
{"type": "Feature", "id": "-_LOhv2wP2HnTWYL_VMp6sZkJGA=", "properties": {"ref": "171", "amenity:chargingstation": false, "amenity:fuel": true, "fuel:diesel": true, "fuel:e15": null, "fuel:e85": null, "@spider": "royal_farms", "addr:full": "30983 Sussex Highway", "addr:city": "Laurel", "addr:state": "DE", "addr:postcode": "19956", "addr:country": "US", "phone": "(302) 715-7017", "opening_hours": "24/7", "brand": "Royal Farms", "brand:wikidata": "Q7374169"}},
{"type": "Feature", "id": "MNgq37gKTmQ8Cp17nQYASIqknGc=", "properties": {"ref": "236", "amenity:chargingstation": false, "amenity:fuel": true, "fuel:diesel": true, "fuel:e15": null, "fuel:e85": null, "@spider": "royal_farms", "addr:full": "840 Middletown Warwick Road", "addr:city": "Middletown", "addr:state": "DE", "addr:postcode": "19709", "addr:country": "US", "phone": "(302) 696-4088", "brand": "Royal Farms", "brand:wikidata": "Q7374169"}},
{"type": "Feature", "id": "6XeQOgwa04uLl8aGY_Rib4NrBO4=", "properties": {"ref": "142", "amenity:chargingstation": false, "amenity:fuel": true, "fuel:diesel": null, "fuel:e15": null, "fuel:e85": null, "@spider": "royal_farms", "addr:full": "108 Silicato Parkway", "addr:city": "Milford", "addr:state": "DE", "addr:postcode": "19963", "addr:country": "US", "phone": "(302) 643-6006", "opening_hours": "24/7", "brand": "Royal Farms", "brand:wikidata": "Q7374169"}},
{"type": "Feature", "id": "9zQMOkBQTDDLMtHfp3KQ2j0a4L0=", "properties": {"ref": "51", "amenity:chargingstation": false, "amenity:fuel": true, "fuel:diesel": null, "fuel:e15": null, "fuel:e85": null, "@spider": "royal_farms", "addr:full": "566 South Dupont Blvd.", "addr:city": "Milford", "addr:state": "DE", "addr:postcode": "19963", "addr:country": "US", "phone": "(302) 696-4086", "opening_hours": "24/7", "brand": "Royal Farms", "brand:wikidata": "Q7374169"}},
{"type": "Feature", "id": "xa3AZeliCz8wRPynyi0-fKhmllU=", "properties": {"ref": "123", "amenity:chargingstation": false, "amenity:fuel": true, "fuel:diesel": null, "fuel:e15": null, "fuel:e85": null, "@spider": "royal_farms", "addr:full": "26672 John J Williams Hwy.", "addr:city": "Millsboro", "addr:state": "DE", "addr:postcode": "19966", "addr:country": "US", "phone": "(302) 927-2947", "opening_hours": "24/7", "brand": "Royal Farms", "brand:wikidata": "Q7374169"}},
{"type": "Feature", "id": "oAsIFyG2XzUnGtg2LAWkI-qV0Os=", "properties": {"ref": "295", "amenity:chargingstation": false, "amenity:fuel": true, "fuel:diesel": null, "fuel:e15": null, "fuel:e85": null, "@spider": "royal_farms", "addr:full": "30217 Commerce Drive", "addr:city": "Millsboro", "addr:state": "DE", "addr:postcode": "19966", "addr:country": "US", "phone": "(302) 316-3050", "opening_hours": "24/7", "brand": "Royal Farms", "brand:wikidata": "Q7374169"}},
{"type": "Feature", "id": "IASzLbvuejQn8q9FarLuADTTfi0=", "properties": {"ref": "349", "amenity:chargingstation": false, "amenity:fuel": true, "fuel:diesel": null, "fuel:e15": null, "fuel:e85": null, "@spider": "royal_farms", "addr:full": "2154 New Castle Avenue", "addr:city": "New Castle", "addr:state": "DE", "addr:postcode": "19720", "addr:country": "US", "phone": "(302) 561-9348", "brand": "Royal Farms", "brand:wikidata": "Q7374169"}},
{"type": "Feature", "id": "zEv0XQ-YnAL3beVtL9n-nWLAe4g=", "properties": {"ref": "197", "amenity:chargingstation": false, "amenity:fuel": true, "fuel:diesel": null, "fuel:e15": null, "fuel:e85": null, "@spider": "royal_farms", "addr:full": "457 Stanton Christiana Rd", "addr:city": "Newark", "addr:state": "DE", "addr:postcode": "19713", "addr:country": "US", "phone": "(302) 409-3992", "brand": "Royal Farms", "brand:wikidata": "Q7374169"}},
{"type": "Feature", "id": "Sfs6F8z6qWaBji0WJip7yJFyMVM=", "properties": {"ref": "99", "amenity:chargingstation": false, "amenity:fuel": true, "fuel:diesel": null, "fuel:e15": null, "fuel:e85": null, "@spider": "royal_farms", "addr:full": "865 Old Baltimore Pike", "addr:city": "Newark", "addr:state": "DE", "addr:postcode": "19702", "addr:country": "US", "phone": "(302) 607-7369", "opening_hours": "24/7", "brand": "Royal Farms", "brand:wikidata": "Q7374169"}},
{"type": "Feature", "id": "8q1na11xaxJWrrsdb3l89No-Xpc=", "properties": {"ref": "160", "amenity:chargingstation": false, "amenity:fuel": true, "fuel:diesel": null, "fuel:e15": null, "fuel:e85": null, "@spider": "royal_farms", "addr:full": "2808 Pulaski Highway", "addr:city": "Newark", "addr:state": "DE", "addr:postcode": "19702", "addr:country": "US", "phone": "(302) 918-6340", "opening_hours": "24/7", "brand": "Royal Farms", "brand:wikidata": "Q7374169"}},
{"type": "Feature", "id": "m3qaH4Bc3Jd3UrOlFC3J1zAGdi0=", "properties": {"ref": "176", "amenity:chargingstation": false, "amenity:fuel": true, "fuel:diesel": null, "fuel:e15": null, "fuel:e85": null, "@spider": "royal_farms", "addr:full": "58 Atlantic Avenue", "addr:city": "Ocean View", "addr:state": "DE", "addr:postcode": "19970", "addr:country": "US", "phone": "(302) 581-6023", "opening_hours": "24/7", "brand": "Royal Farms", "brand:wikidata": "Q7374169"}},
{"type": "Feature", "id": "9hpUpqfrTHxD_jU4GyjYRj3f03M=", "properties": {"ref": "212", "amenity:chargingstation": false, "amenity:fuel": true, "fuel:diesel": null, "fuel:e15": null, "fuel:e85": null, "@spider": "royal_farms", "addr:full": "19791 Coastal Highway", "addr:city": "Rehoboth Beach", "addr:state": "DE", "addr:postcode": "19971", "addr:country": "US", "phone": "(302) 569-6015", "opening_hours": "24/7", "brand": "Royal Farms", "brand:wikidata": "Q7374169"}},
{"type": "Feature", "id": "yyUWpesMyFO2-zac7jCweVQgQ5Q=", "properties": {"ref": "226", "amenity:chargingstation": false, "amenity:fuel": true, "fuel:diesel": null, "fuel:e15": null, "fuel:e85": null, "@spider": "royal_farms", "addr:full": "18904 Coastal Highway", "addr:city": "Rehoboth Beach", "addr:state": "DE", "addr:postcode": "19971", "addr:country": "US", "phone": "(302) 703-4024", "opening_hours": "24/7", "brand": "Royal Farms", "brand:wikidata": "Q7374169"}},
{"type": "Feature", "id": "kA9mdS5pnZCkCzCrDgFCeWbg1G4=", "properties": {"ref": "37", "amenity:chargingstation": false, "amenity:fuel": false, "fuel:diesel": null, "fuel:e15": null, "fuel:e85": null, "@spider": "royal_farms", "addr:full": "427 Rehoboth Avenue", "addr:city": "Rehoboth Beach", "addr:state": "DE", "addr:postcode": "19971", "addr:country": "US", "phone": "(302) 569-6014", "brand": "Royal Farms", "brand:wikidata": "Q7374169"}},
{"type": "Feature", "id": "it5Q7DkLSeq8YvwEHbhKjk4di9g=", "properties": {"ref": "38", "amenity:chargingstation": false, "amenity:fuel": true, "fuel:diesel": null, "fuel:e15": null, "fuel:e85": null, "@spider": "royal_farms", "addr:full": "500 High Street", "addr:city": "Seaford", "addr:state": "DE", "addr:postcode": "19973", "addr:country": "US", "phone": "(302) 536-6098", "brand": "Royal Farms", "brand:wikidata": "Q7374169"}},
{"type": "Feature", "id": "SZfxhbDDQ11UTd9bt3l141VMnt4=", "properties": {"ref": "125", "amenity:chargingstation": false, "amenity:fuel": true, "fuel:diesel": null, "fuel:e15": null, "fuel:e85": null, "@spider": "royal_farms", "addr:full": "8800 Concord Road", "addr:city": "Seaford", "addr:state": "DE", "addr:postcode": "19973", "addr:country": "US", "phone": "(302) 536-6100", "opening_hours": "24/7", "brand": "Royal Farms", "brand:wikidata": "Q7374169"}},
{"type": "Feature", "id": "b-LuHKsfesLkHptu0IFLGpwARKk=", "properties": {"ref": "263", "amenity:chargingstation": false, "amenity:fuel": true, "fuel:diesel": null, "fuel:e15": null, "fuel:e85": null, "@spider": "royal_farms", "addr:full": "36347 Lighthouse Road", "addr:city": "Selbyville", "addr:state": "DE", "addr:postcode": "19975", "addr:country": "US", "phone": "(302) 581-6022", "opening_hours": "24/7", "brand": "Royal Farms", "brand:wikidata": "Q7374169"}},
{"type": "Feature", "id": "MH3bZ8zYJgZulh57cgwAPnJd8Nk=", "properties": {"ref": "337", "amenity:chargingstation": false, "amenity:fuel": true, "fuel:diesel": true, "fuel:e15": null, "fuel:e85": null, "@spider": "royal_farms", "addr:full": "38166 Dupont Blvd.", "addr:city": "Selbyville", "addr:state": "DE", "addr:postcode": "19975", "addr:country": "US", "phone": "302-402-3009", "opening_hours": "24/7", "brand": "Royal Farms", "brand:wikidata": "Q7374169"}},
{"type": "Feature", "id": "crBDPvWLqrbk4w4Gp3tRIR2rPSk=", "properties": {"ref": "146", "amenity:chargingstation": false, "amenity:fuel": true, "fuel:diesel": null, "fuel:e15": null, "fuel:e85": null, "@spider": "royal_farms", "addr:full": "304 N. Dupont Blvd", "addr:city": "Smyrna", "addr:state": "DE", "addr:postcode": "19977", "addr:country": "US", "phone": "(302) 514-6130", "opening_hours": "24/7", "brand": "Royal Farms", "brand:wikidata": "Q7374169"}},
{"type": "Feature", "id": "iQHx5LQ09oN7q04jqmmXnajuxV8=", "properties": {"ref": "196", "amenity:chargingstation": false, "amenity:fuel": true, "fuel:diesel": null, "fuel:e15": null, "fuel:e85": null, "@spider": "royal_farms", "addr:full": "3701 Kirkwood Highway", "addr:city": "Wilmington", "addr:state": "DE", "addr:postcode": "19808", "addr:country": "US", "phone": "(302) 409-3991", "opening_hours": "24/7", "brand": "Royal Farms", "brand:wikidata": "Q7374169"}},
{"type": "Feature", "id": "aA7PAcfaECkgFETnqYBP2b-I-xY=", "properties": {"ref": "89", "amenity:chargingstation": false, "amenity:fuel": true, "fuel:diesel": null, "fuel:e15": null, "fuel:e85": null, "@spider": "royal_farms", "addr:full": "1021  Middleton Road", "addr:city": "Aberdeen", "addr:state": "MD", "addr:postcode": "21001", "addr:country": "US", "phone": "(410) 306-9272", "brand": "Royal Farms", "brand:wikidata": "Q7374169"}},
{"type": "Feature", "id": "cMpZN8TnjKZYSnMRhdAYR6Gs4LQ=", "properties": {"ref": "188", "amenity:chargingstation": false, "amenity:fuel": true, "fuel:diesel": null, "fuel:e15": null, "fuel:e85": null, "@spider": "royal_farms", "addr:full": "742 S. Philadelphia Road", "addr:city": "Aberdeen", "addr:state": "MD", "addr:postcode": "21001", "addr:country": "US", "phone": "(410) 306-9273", "opening_hours": "24/7", "brand": "Royal Farms", "brand:wikidata": "Q7374169"}},
{"type": "Feature", "id": "2RQbaiBOeU_I2mJ2fCj-n4e1Gm8=", "properties": {"ref": "271", "amenity:chargingstation": false, "amenity:fuel": true, "fuel:diesel": null, "fuel:e15": null, "fuel:e85": null, "@spider": "royal_farms", "addr:full": "3710 Churchville Road", "addr:city": "Aberdeen", "addr:state": "MD", "addr:postcode": "21001", "addr:country": "US", "phone": "1-443-788-4771", "opening_hours": "24/7", "brand": "Royal Farms", "brand:wikidata": "Q7374169"}},
{"type": "Feature", "id": "ve9PffBnldEi-FOwUPQtZ2MU-UM=", "properties": {"ref": "290", "amenity:chargingstation": false, "amenity:fuel": true, "fuel:diesel": null, "fuel:e15": null, "fuel:e85": null, "@spider": "royal_farms", "addr:full": "12 South Blackhorse Pike", "addr:city": "Bellmawr", "addr:state": "NJ", "addr:postcode": "08031", "addr:country": "US", "phone": "(856) 208-3239", "opening_hours": "24/7", "brand": "Royal Farms", "brand:wikidata": "Q7374169"}},
{"type": "Feature", "id": "RquWUS0G-7Gz1dak6mnq1YoZhOA=", "properties": {"ref": "187", "amenity:chargingstation": false, "amenity:fuel": true, "fuel:diesel": null, "fuel:e15": true, "fuel:e85": true, "@spider": "royal_farms", "addr:full": "10 Box Hill South Parkway", "addr:city": "Abingdon", "addr:state": "MD", "addr:postcode": "21009", "addr:country": "US", "phone": "(410) 670-5041", "opening_hours": "24/7", "brand": "Royal Farms", "brand:wikidata": "Q7374169"}},
{"type": "Feature", "id": "jYl1vbiCcvYgT5VI7h9CthkxPg4=", "properties": {"ref": "28", "amenity:chargingstation": false, "amenity:fuel": false, "fuel:diesel": null, "fuel:e15": null, "fuel:e85": null, "@spider": "royal_farms", "addr:full": "424 Sixth Street", "addr:city": "Annapolis", "addr:state": "MD", "addr:postcode": "21403", "addr:country": "US", "phone": "(410) 793-8043", "opening_hours": "24/7", "brand": "Royal Farms", "brand:wikidata": "Q7374169"}},
{"type": "Feature", "id": "5kjv_3_Mf-bZf40fr-Iwn-UlM6o=", "properties": {"ref": "48", "amenity:chargingstation": false, "amenity:fuel": false, "fuel:diesel": null, "fuel:e15": null, "fuel:e85": null, "@spider": "royal_farms", "addr:full": "4045 Wilkins Avenue", "addr:city": "Arbutus", "addr:state": "MD", "addr:postcode": "21229", "addr:country": "US", "phone": "(410) 501-1063", "brand": "Royal Farms", "brand:wikidata": "Q7374169"}},
{"type": "Feature", "id": "uVKlIMC9_2oLa3Jtf9U2278EesI=", "properties": {"ref": "14", "amenity:chargingstation": false, "amenity:fuel": false, "fuel:diesel": null, "fuel:e15": null, "fuel:e85": null, "@spider": "royal_farms", "addr:full": "4384 Hollins Ferry Road", "addr:city": "Baltimore", "addr:state": "MD", "addr:postcode": "21227", "addr:country": "US", "phone": "(410) 501-1061", "opening_hours": "24/7", "brand": "Royal Farms", "brand:wikidata": "Q7374169"}},
{"type": "Feature", "id": "ffU4huqMu5h3tXRVCSYdWSmmaFk=", "properties": {"ref": "111", "amenity:chargingstation": false, "amenity:fuel": true, "fuel:diesel": true, "fuel:e15": true, "fuel:e85": true, "@spider": "royal_farms", "addr:full": "1200 S. Ponca Street", "addr:city": "Baltimore", "addr:state": "MD", "addr:postcode": "21224", "addr:country": "US", "phone": "(410) 387-4343", "opening_hours": "24/7", "brand": "Royal Farms", "brand:wikidata": "Q7374169"}},
{"type": "Feature", "id": "M4UynTx_aEBerFWqoJduoueW7Kc=", "properties": {"ref": "9", "amenity:chargingstation": false, "amenity:fuel": true, "fuel:diesel": null, "fuel:e15": null, "fuel:e85": null, "@spider": "royal_farms", "addr:full": "6416 Windsor Mill Road", "addr:city": "Baltimore", "addr:state": "MD", "addr:postcode": "21207", "addr:country": "US", "phone": "(410) 862-9142", "opening_hours": "24/7", "brand": "Royal Farms", "brand:wikidata": "Q7374169"}},
{"type": "Feature", "id": "JJZK7kaRF7PhFVXynqkXl4fFCJk=", "properties": {"ref": "184", "amenity:chargingstation": false, "amenity:fuel": true, "fuel:diesel": null, "fuel:e15": null, "fuel:e85": null, "@spider": "royal_farms", "addr:full": "2 S. Whitehorse Pike", "addr:city": "Berlin", "addr:state": "NJ", "addr:postcode": "08009", "addr:country": "US", "phone": "240-204-5549", "brand": "Royal Farms", "brand:wikidata": "Q7374169"}},
{"type": "Feature", "id": "vXQVcWMx75NCieBA80P-kxi9zfE=", "properties": {"ref": "209", "amenity:chargingstation": false, "amenity:fuel": true, "fuel:diesel": null, "fuel:e15": null, "fuel:e85": null, "@spider": "royal_farms", "addr:full": "170 Berkley Road", "addr:city": "Clarksboro", "addr:state": "NJ", "addr:postcode": "08020", "addr:country": "US", "phone": "(856) 599-8108", "brand": "Royal Farms", "brand:wikidata": "Q7374169"}},
{"type": "Feature", "id": "__4DnieQkFXm31n3CBIXO49I0uA=", "properties": {"ref": "322", "amenity:chargingstation": false, "amenity:fuel": true, "fuel:diesel": null, "fuel:e15": null, "fuel:e85": null, "@spider": "royal_farms", "addr:full": "1431 Blackwood Clementon Rd", "addr:city": "Clementon", "addr:state": "NJ", "addr:postcode": "08021", "addr:country": "US", "phone": "(856) 210-9344", "opening_hours": "24/7", "brand": "Royal Farms", "brand:wikidata": "Q7374169"}},
{"type": "Feature", "id": "UyMMzRpWBFwi5NrkdT7RS6J9lWc=", "properties": {"ref": "331", "amenity:chargingstation": false, "amenity:fuel": true, "fuel:diesel": null, "fuel:e15": null, "fuel:e85": null, "@spider": "royal_farms", "addr:full": "3117 Fire Road", "addr:city": "Egg Harbor Township", "addr:state": "NJ", "addr:postcode": "08234", "addr:country": "US", "phone": "(609) 415-3331", "opening_hours": "24/7", "brand": "Royal Farms", "brand:wikidata": "Q7374169"}},
{"type": "Feature", "id": "GOYSQTKcADPknUkxBDhr4yL-xwc=", "properties": {"ref": "366", "amenity:chargingstation": false, "amenity:fuel": true, "fuel:diesel": null, "fuel:e15": null, "fuel:e85": null, "@spider": "royal_farms", "addr:full": "6105 E. Black Horse Pike", "addr:city": "Egg Harbor Twp", "addr:state": "NJ", "addr:postcode": "08234", "addr:country": "US", "phone": "609-241-9288", "opening_hours": "24/7", "brand": "Royal Farms", "brand:wikidata": "Q7374169"}},
{"type": "Feature", "id": "x0lCfI2aMbV4eMMr_aIFg7H_hng=", "properties": {"ref": "251", "amenity:chargingstation": false, "amenity:fuel": true, "fuel:diesel": null, "fuel:e15": null, "fuel:e85": null, "@spider": "royal_farms", "addr:full": "1200 Crescent Blvd.", "addr:city": "Gloucester", "addr:state": "NJ", "addr:postcode": "08031", "addr:country": "US", "phone": "(856) 754-7520", "brand": "Royal Farms", "brand:wikidata": "Q7374169"}},
{"type": "Feature", "id": "GrQn3AR8_NUy_Rj-y_8nan7ynTw=", "properties": {"ref": "64", "amenity:chargingstation": false, "amenity:fuel": true, "fuel:diesel": null, "fuel:e15": null, "fuel:e85": null, "@spider": "royal_farms", "addr:full": "7950 Pulaski Highway", "addr:city": "Baltimore", "addr:state": "MD", "addr:postcode": "21237", "addr:country": "US", "phone": "(410) 505-9102", "opening_hours": "24/7", "brand": "Royal Farms", "brand:wikidata": "Q7374169"}},
{"type": "Feature", "id": "kwrL7EH0pGUtmEe--x8by9hY-0E=", "properties": {"ref": "24", "amenity:chargingstation": false, "amenity:fuel": false, "fuel:diesel": null, "fuel:e15": null, "fuel:e85": null, "@spider": "royal_farms", "addr:full": "406 Bowleys Quarter Rd", "addr:city": "Baltimore", "addr:state": "MD", "addr:postcode": "21220", "addr:country": "US", "phone": "(410) 344-8055", "brand": "Royal Farms", "brand:wikidata": "Q7374169"}},
{"type": "Feature", "id": "GUSW2w5HAEpxUvFdlXaaef9mXvA=", "properties": {"ref": "33", "amenity:chargingstation": false, "amenity:fuel": false, "fuel:diesel": null, "fuel:e15": null, "fuel:e85": null, "@spider": "royal_farms", "addr:full": "2050 Fleet Street", "addr:city": "Baltimore", "addr:state": "MD", "addr:postcode": "21231", "addr:country": "US", "phone": "(410) 387-4330", "opening_hours": "24/7", "brand": "Royal Farms", "brand:wikidata": "Q7374169"}},
{"type": "Feature", "id": "rR1vD4ayhtBT80bNoQS4YWoKBP4=", "properties": {"ref": "50", "amenity:chargingstation": false, "amenity:fuel": true, "fuel:diesel": null, "fuel:e15": null, "fuel:e85": null, "@spider": "royal_farms", "addr:full": "2704 Washington Blvd", "addr:city": "Baltimore", "addr:state": "MD", "addr:postcode": "21230", "addr:country": "US", "phone": "(410) 387-4333", "opening_hours": "24/7", "brand": "Royal Farms", "brand:wikidata": "Q7374169"}},
{"type": "Feature", "id": "PYnaE8ML25Lu6a6bIii6xuDPvJI=", "properties": {"ref": "261", "amenity:chargingstation": false, "amenity:fuel": true, "fuel:diesel": null, "fuel:e15": null, "fuel:e85": null, "@spider": "royal_farms", "addr:full": "340 East Evesham Avenue", "addr:city": "Magnolia", "addr:state": "NJ", "addr:postcode": "08049", "addr:country": "US", "phone": "(856) 821-4309", "opening_hours": "24/7", "brand": "Royal Farms", "brand:wikidata": "Q7374169"}},
{"type": "Feature", "id": "L_EHFsM6HFDta4sf_aTc5H5Rn-o=", "properties": {"ref": "299", "amenity:chargingstation": false, "amenity:fuel": true, "fuel:diesel": null, "fuel:e15": null, "fuel:e85": null, "@spider": "royal_farms", "addr:full": "1 North Main Street", "addr:city": "Manville", "addr:state": "NJ", "addr:postcode": "08835", "addr:country": "US", "phone": "908-448-2577", "brand": "Royal Farms", "brand:wikidata": "Q7374169"}},
{"type": "Feature", "id": "pGNyRysZbr-a5cibeghmiWQ9ULI=", "properties": {"ref": "274", "amenity:chargingstation": false, "amenity:fuel": true, "fuel:diesel": null, "fuel:e15": null, "fuel:e85": null, "@spider": "royal_farms", "addr:full": "600 Rt. 73 North", "addr:city": "Marlton", "addr:state": "NJ", "addr:postcode": "08053", "addr:country": "US", "phone": "1-856-334-0306", "brand": "Royal Farms", "brand:wikidata": "Q7374169"}},
{"type": "Feature", "id": "rwDq1UOUbEGyj_lksprjqdpmgls=", "properties": {"ref": "285", "amenity:chargingstation": false, "amenity:fuel": true, "fuel:diesel": null, "fuel:e15": null, "fuel:e85": null, "@spider": "royal_farms", "addr:full": "3123 Route 38", "addr:city": "Mt. Laurel", "addr:state": "NJ", "addr:postcode": "08054", "addr:country": "US", "phone": "(856) 600-4985", "brand": "Royal Farms", "brand:wikidata": "Q7374169"}},
{"type": "Feature", "id": "XaZXidXcF6J6zUw_OwliYb_l4dM=", "properties": {"ref": "3", "amenity:chargingstation": false, "amenity:fuel": false, "fuel:diesel": null, "fuel:e15": null, "fuel:e85": null, "@spider": "royal_farms", "addr:full": "7204 York Road", "addr:city": "Baltimore", "addr:state": "MD", "addr:postcode": "21212", "addr:country": "US", "phone": "(443) 761-6494", "opening_hours": "24/7", "brand": "Royal Farms", "brand:wikidata": "Q7374169"}},
{"type": "Feature", "id": "u0zXJlCwNhx6hNwSoeEdRWScZn8=", "properties": {"ref": "49", "amenity:chargingstation": false, "amenity:fuel": false, "fuel:diesel": null, "fuel:e15": null, "fuel:e85": null, "@spider": "royal_farms", "addr:full": "6067 Falls Road", "addr:city": "Baltimore", "addr:state": "MD", "addr:postcode": "21209", "addr:country": "US", "phone": "(410) 387-4332", "brand": "Royal Farms", "brand:wikidata": "Q7374169"}},
{"type": "Feature", "id": "1XqXUe-gbaYWZKUAEy1rMqjd4V4=", "properties": {"ref": "35", "amenity:chargingstation": false, "amenity:fuel": true, "fuel:diesel": null, "fuel:e15": null, "fuel:e85": null, "@spider": "royal_farms", "addr:full": "8803 Philadelphia Road", "addr:city": "Baltimore", "addr:state": "MD", "addr:postcode": "21237", "addr:country": "US", "phone": "(443) 922-2132", "opening_hours": "24/7", "brand": "Royal Farms", "brand:wikidata": "Q7374169"}},
{"type": "Feature", "id": "CTVFzYek_Rij552jU5foYZ6AYh4=", "properties": {"ref": "164", "amenity:chargingstation": false, "amenity:fuel": true, "fuel:diesel": null, "fuel:e15": null, "fuel:e85": null, "@spider": "royal_farms", "addr:full": "680 Cross Keys Road", "addr:city": "Sicklerville", "addr:state": "NJ", "addr:postcode": "08081", "addr:country": "US", "phone": "856-404-6143", "brand": "Royal Farms", "brand:wikidata": "Q7374169"}},
{"type": "Feature", "id": "jXUct4L29eUdJuPCgGNAMZstVBg=", "properties": {"ref": "309", "amenity:chargingstation": false, "amenity:fuel": true, "fuel:diesel": null, "fuel:e15": null, "fuel:e85": null, "@spider": "royal_farms", "addr:full": "620 Haddonfield-Berlin Rd", "addr:city": "Voorhees Twp,", "addr:state": "NJ", "addr:postcode": "08043", "addr:country": "US", "phone": "(856) 281-7427", "opening_hours": "24/7", "brand": "Royal Farms", "brand:wikidata": "Q7374169"}},
{"type": "Feature", "id": "WD5h8pHdS14twywT3bw1J-jGKyw=", "properties": {"ref": "29", "amenity:chargingstation": false, "amenity:fuel": false, "fuel:diesel": null, "fuel:e15": null, "fuel:e85": null, "@spider": "royal_farms", "addr:full": "627 Mace Avenue", "addr:city": "Baltimore", "addr:state": "MD", "addr:postcode": "21221", "addr:country": "US", "phone": "(443) 922-2131", "brand": "Royal Farms", "brand:wikidata": "Q7374169"}},
{"type": "Feature", "id": "EDbwt5e4vkBhVl7TqIxxWC5BzeU=", "properties": {"ref": "60", "amenity:chargingstation": false, "amenity:fuel": true, "fuel:diesel": true, "fuel:e15": null, "fuel:e85": null, "@spider": "royal_farms", "addr:full": "6100 Holabird Avenue", "addr:city": "Baltimore", "addr:state": "MD", "addr:postcode": "21224", "addr:country": "US", "phone": "(410) 387-4335", "opening_hours": "24/7", "brand": "Royal Farms", "brand:wikidata": "Q7374169"}},
{"type": "Feature", "id": "tmIGOWY9tIUd4MU4ToKcKRedEis=", "properties": {"ref": "52", "amenity:chargingstation": false, "amenity:fuel": false, "fuel:diesel": null, "fuel:e15": null, "fuel:e85": null, "@spider": "royal_farms", "addr:full": "2410 East Joppa Road", "addr:city": "Baltimore", "addr:state": "MD", "addr:postcode": "21234", "addr:country": "US", "phone": "(410) 874-2054", "opening_hours": "24/7", "brand": "Royal Farms", "brand:wikidata": "Q7374169"}},
{"type": "Feature", "id": "yKM0D66Oln1EDpl3lYMWYMfK_Co=", "properties": {"ref": "17", "amenity:chargingstation": false, "amenity:fuel": false, "fuel:diesel": null, "fuel:e15": null, "fuel:e85": null, "@spider": "royal_farms", "addr:full": "8207 Harford Road", "addr:city": "Baltimore", "addr:state": "MD", "addr:postcode": "21234", "addr:country": "US", "phone": "(410) 513-8545", "opening_hours": "24/7", "brand": "Royal Farms", "brand:wikidata": "Q7374169"}},
{"type": "Feature", "id": "XzfzLpufuNuufRGiAmu0j2kgXww=", "properties": {"ref": "41", "amenity:chargingstation": false, "amenity:fuel": false, "fuel:diesel": null, "fuel:e15": null, "fuel:e85": null, "@spider": "royal_farms", "addr:full": "206 West Cold Spring Lane", "addr:city": "Baltimore", "addr:state": "MD", "addr:postcode": "21210", "addr:country": "US", "phone": "(410) 387-4331", "opening_hours": "24/7", "brand": "Royal Farms", "brand:wikidata": "Q7374169"}},
{"type": "Feature", "id": "UYzWif5Q3rKaonFvp67j_7KCLIo=", "properties": {"ref": "55", "amenity:chargingstation": false, "amenity:fuel": false, "fuel:diesel": null, "fuel:e15": null, "fuel:e85": null, "@spider": "royal_farms", "addr:full": "3701 Fleet Street", "addr:city": "Baltimore", "addr:state": "MD", "addr:postcode": "21224", "addr:country": "US", "phone": "(410) 387-4334", "opening_hours": "24/7", "brand": "Royal Farms", "brand:wikidata": "Q7374169"}},
{"type": "Feature", "id": "lZcsHh0bPzuD_n3W73Ocqr8W8LY=", "properties": {"ref": "92", "amenity:chargingstation": false, "amenity:fuel": true, "fuel:diesel": null, "fuel:e15": null, "fuel:e85": null, "@spider": "royal_farms", "addr:full": "1440 Key Hwy", "addr:city": "Baltimore", "addr:state": "MD", "addr:postcode": "21230", "addr:country": "US", "phone": "(410) 387-4340", "opening_hours": "24/7", "brand": "Royal Farms", "brand:wikidata": "Q7374169"}},
{"type": "Feature", "id": "M_BmvkMV9aJe7ulkXa2nYhSw_Zk=", "properties": {"ref": "249", "amenity:chargingstation": false, "amenity:fuel": true, "fuel:diesel": null, "fuel:e15": true, "fuel:e85": true, "@spider": "royal_farms", "addr:full": "43101 Van Metre Drive", "addr:city": "Ashburn", "addr:state": "VA", "addr:postcode": "20148", "addr:country": "US", "phone": "(703) 729-5447", "opening_hours": "24/7", "brand": "Royal Farms", "brand:wikidata": "Q7374169"}},
{"type": "Feature", "id": "CJtLGNTW75Xq5tGXVh-O8m5xiVs=", "properties": {"ref": "61", "amenity:chargingstation": false, "amenity:fuel": true, "fuel:diesel": null, "fuel:e15": null, "fuel:e85": null, "@spider": "royal_farms", "addr:full": "3333 Fayette Street", "addr:city": "Baltimore", "addr:state": "MD", "addr:postcode": "21224", "addr:country": "US", "phone": "(410) 387-4336", "opening_hours": "24/7", "brand": "Royal Farms", "brand:wikidata": "Q7374169"}},
{"type": "Feature", "id": "-aNO4lG-TwRy0TT81WQjJQmPlHM=", "properties": {"ref": "91", "amenity:chargingstation": false, "amenity:fuel": false, "fuel:diesel": null, "fuel:e15": null, "fuel:e85": null, "@spider": "royal_farms", "addr:full": "920 W. 36th Street", "addr:city": "Baltimore", "addr:state": "MD", "addr:postcode": "21211", "addr:country": "US", "phone": "(410) 387-4325", "opening_hours": "24/7", "brand": "Royal Farms", "brand:wikidata": "Q7374169"}},
{"type": "Feature", "id": "q8dzjePrmCeBpNJ6rVTtYVnhpZI=", "properties": {"ref": "2", "amenity:chargingstation": false, "amenity:fuel": true, "fuel:diesel": null, "fuel:e15": null, "fuel:e85": null, "@spider": "royal_farms", "addr:full": "898 S. Marlyn Ave", "addr:city": "Baltimore", "addr:state": "MD", "addr:postcode": "21221", "addr:country": "US", "phone": "(410) 406-8492", "opening_hours": "24/7", "brand": "Royal Farms", "brand:wikidata": "Q7374169"}},
{"type": "Feature", "id": "fRiuksv4D3n0UNhzCm5pABB2O3U=", "properties": {"ref": "63", "amenity:chargingstation": false, "amenity:fuel": true, "fuel:diesel": null, "fuel:e15": null, "fuel:e85": null, "@spider": "royal_farms", "addr:full": "4820 O'Donnell Street", "addr:city": "Baltimore", "addr:state": "MD", "addr:postcode": "21224", "addr:country": "US", "phone": "(410) 387-4337", "opening_hours": "24/7", "brand": "Royal Farms", "brand:wikidata": "Q7374169"}},
{"type": "Feature", "id": "-CwGaOL2W5wFGCVb6OlG3shjw6w=", "properties": {"ref": "377", "amenity:chargingstation": false, "amenity:fuel": true, "fuel:diesel": true, "fuel:e15": null, "fuel:e85": null, "@spider": "royal_farms", "addr:full": "10088 James Madison Highway", "addr:city": "Bealeton", "addr:state": "VA", "addr:postcode": "22712", "addr:country": "US", "phone": "540-402-1005", "opening_hours": "24/7", "brand": "Royal Farms", "brand:wikidata": "Q7374169"}},
{"type": "Feature", "id": "b9TZ2jxsacN2KsFOnETx8Q_5lsc=", "properties": {"ref": "108", "amenity:chargingstation": false, "amenity:fuel": true, "fuel:diesel": true, "fuel:e15": null, "fuel:e85": null, "@spider": "royal_farms", "addr:full": "29214 Lankford Highway", "addr:city": "Cape Charles", "addr:state": "VA", "addr:postcode": "23310", "addr:country": "US", "phone": "(757) 331-6210", "opening_hours": "24/7", "brand": "Royal Farms", "brand:wikidata": "Q7374169"}},
{"type": "Feature", "id": "R7UyDtxQDwkEOCBNddZb8hJFXOg=", "properties": {"ref": "152", "amenity:chargingstation": false, "amenity:fuel": true, "fuel:diesel": null, "fuel:e15": true, "fuel:e85": true, "@spider": "royal_farms", "addr:full": "25451 Lizzio Center Drive", "addr:city": "Chantilly", "addr:state": "VA", "addr:postcode": "20152", "addr:country": "US", "phone": "(703) 260-1989", "opening_hours": "24/7", "brand": "Royal Farms", "brand:wikidata": "Q7374169"}},
{"type": "Feature", "id": "iFfwwGS1O26pzPAlhtI3sC8irFQ=", "properties": {"ref": "157", "amenity:chargingstation": false, "amenity:fuel": true, "fuel:diesel": null, "fuel:e15": null, "fuel:e85": null, "@spider": "royal_farms", "addr:full": "3026 Churchland Blvd", "addr:city": "Chesapeake", "addr:state": "VA", "addr:postcode": "23321", "addr:country": "US", "phone": "(757) 998-8399", "opening_hours": "24/7", "brand": "Royal Farms", "brand:wikidata": "Q7374169"}},
{"type": "Feature", "id": "VIUVVSaNb3uY3tZFqHQ3A85f1sA=", "properties": {"ref": "42", "amenity:chargingstation": false, "amenity:fuel": true, "fuel:diesel": null, "fuel:e15": null, "fuel:e85": null, "@spider": "royal_farms", "addr:full": "1302 Windlass Drive", "addr:city": "Baltimore", "addr:state": "MD", "addr:postcode": "21220", "addr:country": "US", "phone": "(410) 406-8495", "opening_hours": "24/7", "brand": "Royal Farms", "brand:wikidata": "Q7374169"}},
{"type": "Feature", "id": "1Xj9fZhoaUCPBZa95-5nbBsNzjI=", "properties": {"ref": "31", "amenity:chargingstation": false, "amenity:fuel": false, "fuel:diesel": null, "fuel:e15": null, "fuel:e85": null, "@spider": "royal_farms", "addr:full": "2700 Taylor Avenue", "addr:city": "Baltimore", "addr:state": "MD", "addr:postcode": "21234", "addr:country": "US", "phone": "(410) 513-8546", "opening_hours": "24/7", "brand": "Royal Farms", "brand:wikidata": "Q7374169"}},
{"type": "Feature", "id": "rGczthSrImOgpA8GkVNaY3yw25c=", "properties": {"ref": "11", "amenity:chargingstation": false, "amenity:fuel": false, "fuel:diesel": null, "fuel:e15": null, "fuel:e85": null, "@spider": "royal_farms", "addr:full": "5232 Harford Road", "addr:city": "Baltimore", "addr:state": "MD", "addr:postcode": "21214", "addr:country": "US", "phone": "(410) 387-4327", "brand": "Royal Farms", "brand:wikidata": "Q7374169"}},
{"type": "Feature", "id": "bHCui7Tbnufw_Ilj6g4A2qPQ_mk=", "properties": {"ref": "115", "amenity:chargingstation": false, "amenity:fuel": true, "fuel:diesel": null, "fuel:e15": null, "fuel:e85": null, "@spider": "royal_farms", "addr:full": "4317 Lankford Hwy", "addr:city": "Exmore", "addr:state": "VA", "addr:postcode": "23350", "addr:country": "US", "phone": "(757) 414-9216", "opening_hours": "24/7", "brand": "Royal Farms", "brand:wikidata": "Q7374169"}},
{"type": "Feature", "id": "XiCTu4oxrYNau3k8OzQ1QGeZB6Q=", "properties": {"ref": "237", "amenity:chargingstation": false, "amenity:fuel": true, "fuel:diesel": null, "fuel:e15": null, "fuel:e85": null, "@spider": "royal_farms", "addr:full": "1221 Warrenton Road", "addr:city": "Fredericksburg", "addr:state": "VA", "addr:postcode": "22406", "addr:country": "US", "phone": "(540) 907-4527", "brand": "Royal Farms", "brand:wikidata": "Q7374169"}},
{"type": "Feature", "id": "Q0-ntO9-lwb017TW0rlYSAQHNuk=", "properties": {"ref": "359", "amenity:chargingstation": false, "amenity:fuel": true, "fuel:diesel": null, "fuel:e15": null, "fuel:e85": null, "@spider": "royal_farms", "addr:full": "10520 Patriot Hwy", "addr:city": "Fredericksburg", "addr:state": "VA", "addr:postcode": "22408", "addr:country": "US", "phone": "540-684-3358", "opening_hours": "24/7", "brand": "Royal Farms", "brand:wikidata": "Q7374169"}},
{"type": "Feature", "id": "up8ldOvKAVkmTEI0mKWuCn_jpk0=", "properties": {"ref": "335", "amenity:chargingstation": false, "amenity:fuel": true, "fuel:diesel": null, "fuel:e15": null, "fuel:e85": null, "@spider": "royal_farms", "addr:full": "2216 Plank Road", "addr:city": "Fredericksburg", "addr:state": "VA", "addr:postcode": "22401", "addr:country": "US", "phone": "540-322-2196", "opening_hours": "24/7", "brand": "Royal Farms", "brand:wikidata": "Q7374169"}},
{"type": "Feature", "id": "3-PkulJxwaYOVTKtQbetbAWyVZs=", "properties": {"ref": "86", "amenity:chargingstation": false, "amenity:fuel": true, "fuel:diesel": null, "fuel:e15": null, "fuel:e85": null, "@spider": "royal_farms", "addr:full": "3601 Potee Street", "addr:city": "Baltimore", "addr:state": "MD", "addr:postcode": "21225", "addr:country": "US", "phone": "(410) 387-4338", "opening_hours": "24/7", "brand": "Royal Farms", "brand:wikidata": "Q7374169"}},
{"type": "Feature", "id": "XaQ4MWIBhm4LzT6gONwBKZ0LonA=", "properties": {"ref": "20", "amenity:chargingstation": false, "amenity:fuel": true, "fuel:diesel": null, "fuel:e15": null, "fuel:e85": null, "@spider": "royal_farms", "addr:full": "1119 West 41st Street", "addr:city": "Baltimore", "addr:state": "MD", "addr:postcode": "21211", "addr:country": "US", "phone": "(410) 387-4328", "opening_hours": "24/7", "brand": "Royal Farms", "brand:wikidata": "Q7374169"}},
{"type": "Feature", "id": "TT85fNyGt7V5Ixk3kVB4f61vQmQ=", "properties": {"ref": "6", "amenity:chargingstation": false, "amenity:fuel": false, "fuel:diesel": null, "fuel:e15": null, "fuel:e85": null, "@spider": "royal_farms", "addr:full": "3635 Keswick Road", "addr:city": "Baltimore", "addr:state": "MD", "addr:postcode": "21211", "addr:country": "US", "phone": "(410) 387-4326", "opening_hours": "24/7", "brand": "Royal Farms", "brand:wikidata": "Q7374169"}},
{"type": "Feature", "id": "fRYBHulEP1ZzBGNMep-NEqYWiO4=", "properties": {"ref": "106", "amenity:chargingstation": false, "amenity:fuel": true, "fuel:diesel": null, "fuel:e15": null, "fuel:e85": null, "@spider": "royal_farms", "addr:full": "3360 Annapolis Rd", "addr:city": "Baltimore", "addr:state": "MD", "addr:postcode": "21230", "addr:country": "US", "phone": "(410) 387-4342", "brand": "Royal Farms", "brand:wikidata": "Q7374169"}},
{"type": "Feature", "id": "db8lfIr8LNTbh_H5nDycmJwlcbs=", "properties": {"ref": "179", "amenity:chargingstation": false, "amenity:fuel": true, "fuel:diesel": null, "fuel:e15": true, "fuel:e85": true, "@spider": "royal_farms", "addr:full": "4401 North Point Blvd.", "addr:city": "Baltimore", "addr:state": "MD", "addr:postcode": "21222", "addr:country": "US", "phone": "443-407-7109", "opening_hours": "24/7", "brand": "Royal Farms", "brand:wikidata": "Q7374169"}},
{"type": "Feature", "id": "i9lNFAt6nNE01arKGS3ZbOT7rBY=", "properties": {"ref": "346", "amenity:chargingstation": false, "amenity:fuel": true, "fuel:diesel": null, "fuel:e15": null, "fuel:e85": null, "@spider": "royal_farms", "addr:full": "1202 South Caton Ave", "addr:city": "Baltimore", "addr:state": "MD", "addr:postcode": "21227", "addr:country": "US", "phone": "443-297-7112", "opening_hours": "24/7", "brand": "Royal Farms", "brand:wikidata": "Q7374169"}},
{"type": "Feature", "id": "ICSIwtJdMvfQrtc5TGGuszHGrVY=", "properties": {"ref": "297", "amenity:chargingstation": false, "amenity:fuel": true, "fuel:diesel": null, "fuel:e15": null, "fuel:e85": null, "@spider": "royal_farms", "addr:full": "5000 Plank Road", "addr:city": "Fredericksburg", "addr:state": "VA", "addr:postcode": "22407", "addr:country": "US", "phone": "(540) 368-6099", "opening_hours": "24/7", "brand": "Royal Farms", "brand:wikidata": "Q7374169"}},
{"type": "Feature", "id": "ylVeFEZAywMRtUjRuWtUhDN5vOc=", "properties": {"ref": "270", "amenity:chargingstation": false, "amenity:fuel": true, "fuel:diesel": null, "fuel:e15": null, "fuel:e85": null, "@spider": "royal_farms", "addr:full": "260 Crooked Run Plaza", "addr:city": "Front Royal", "addr:state": "VA", "addr:postcode": "22630", "addr:country": "US", "phone": "(540) 551-1818", "opening_hours": "24/7", "brand": "Royal Farms", "brand:wikidata": "Q7374169"}},
{"type": "Feature", "id": "03XY-mSjlNuuC0wWaDch89ouOjs=", "properties": {"ref": "105", "amenity:chargingstation": false, "amenity:fuel": true, "fuel:diesel": null, "fuel:e15": null, "fuel:e85": null, "@spider": "royal_farms", "addr:full": "16135 Lankford Hwy", "addr:city": "Nelsonia", "addr:state": "VA", "addr:postcode": "23414", "addr:country": "US", "phone": "(757) 665-8200", "opening_hours": "24/7", "brand": "Royal Farms", "brand:wikidata": "Q7374169"}},
{"type": "Feature", "id": "QEdBRSNEJ1_PiN98ooamQCG6drQ=", "properties": {"ref": "79", "amenity:chargingstation": false, "amenity:fuel": true, "fuel:diesel": true, "fuel:e15": null, "fuel:e85": null, "@spider": "royal_farms", "addr:full": "2497 Lankford Hwy", "addr:city": "New Church", "addr:state": "VA", "addr:postcode": "23415", "addr:country": "US", "phone": "(757) 824-8053", "opening_hours": "24/7", "brand": "Royal Farms", "brand:wikidata": "Q7374169"}},
{"type": "Feature", "id": "xsm1GyEDOP7ik2aOv2WBdQaxYN4=", "properties": {"ref": "317", "amenity:chargingstation": false, "amenity:fuel": true, "fuel:diesel": null, "fuel:e15": null, "fuel:e85": null, "@spider": "royal_farms", "addr:full": "5350 E. Virginia Beach Blvd.", "addr:city": "Norfolk", "addr:state": "VA", "addr:postcode": "23502", "addr:country": "US", "phone": "(757) 364-0032", "opening_hours": "24/7", "brand": "Royal Farms", "brand:wikidata": "Q7374169"}},
{"type": "Feature", "id": "sWrUnHSN3oQ_OXo8aDxq4Hpb-Zs=", "properties": {"ref": "340", "amenity:chargingstation": false, "amenity:fuel": true, "fuel:diesel": null, "fuel:e15": null, "fuel:e85": null, "@spider": "royal_farms", "addr:full": "2000 Forest Park Avenue", "addr:city": "Baltimore", "addr:state": "MD", "addr:postcode": "21207", "addr:country": "US", "phone": "410-450-4317", "opening_hours": "24/7", "brand": "Royal Farms", "brand:wikidata": "Q7374169"}},
{"type": "Feature", "id": "kUeTw5yJZjsfD24OGTq8oY3L4pQ=", "properties": {"ref": "169", "amenity:chargingstation": true, "amenity:fuel": true, "fuel:diesel": true, "fuel:e15": null, "fuel:e85": null, "@spider": "royal_farms", "addr:full": "6201 Pulaski Highway", "addr:city": "Baltimore", "addr:state": "MD", "addr:postcode": "21205", "addr:country": "US", "phone": "(410) 387-4347", "brand": "Royal Farms", "brand:wikidata": "Q7374169"}},
{"type": "Feature", "id": "xOmdfneeSGTe___1DglTbS1gokA=", "properties": {"ref": "247", "amenity:chargingstation": false, "amenity:fuel": true, "fuel:diesel": null, "fuel:e15": null, "fuel:e85": null, "@spider": "royal_farms", "addr:full": "2215 W Patapsco Ave", "addr:city": "Baltimore", "addr:state": "MD", "addr:postcode": "21230", "addr:country": "US", "phone": "(410) 387-2767", "opening_hours": "24/7", "brand": "Royal Farms", "brand:wikidata": "Q7374169"}},
{"type": "Feature", "id": "ZpvU5rhz99g_kubMVXnynctPkcY=", "properties": {"ref": "153", "amenity:chargingstation": false, "amenity:fuel": true, "fuel:diesel": null, "fuel:e15": null, "fuel:e85": null, "@spider": "royal_farms", "addr:full": "1501 62ND Street", "addr:city": "Baltimore", "addr:state": "MD", "addr:postcode": "21237", "addr:country": "US", "phone": "(410) 387-4345", "brand": "Royal Farms", "brand:wikidata": "Q7374169"}},
{"type": "Feature", "id": "rQirJe5WQIrZQUPLpLUMoe1lXEQ=", "properties": {"ref": "138", "amenity:chargingstation": false, "amenity:fuel": true, "fuel:diesel": null, "fuel:e15": null, "fuel:e85": null, "@spider": "royal_farms", "addr:full": "1530 Russell Street", "addr:city": "Baltimore", "addr:state": "MD", "addr:postcode": "21230", "addr:country": "US", "phone": "(410) 387-4344", "opening_hours": "24/7", "brand": "Royal Farms", "brand:wikidata": "Q7374169"}},
{"type": "Feature", "id": "fBJCezEiDaZl7sa9Hcrv1TvaazA=", "properties": {"ref": "134", "amenity:chargingstation": false, "amenity:fuel": true, "fuel:diesel": null, "fuel:e15": null, "fuel:e85": null, "@spider": "royal_farms", "addr:full": "25220 Lankford Highway", "addr:city": "Onley", "addr:state": "VA", "addr:postcode": "23418", "addr:country": "US", "phone": "(757) 302-6134", "opening_hours": "24/7", "brand": "Royal Farms", "brand:wikidata": "Q7374169"}},
{"type": "Feature", "id": "qIIDJnDPMpSdPnLkTDZpT5kmQfA=", "properties": {"ref": "103", "amenity:chargingstation": false, "amenity:fuel": true, "fuel:diesel": null, "fuel:e15": null, "fuel:e85": null, "@spider": "royal_farms", "addr:full": "20474 Lankford Highway", "addr:city": "Parksley", "addr:state": "VA", "addr:postcode": "23421", "addr:country": "US", "phone": "(757) 665-8031", "opening_hours": "24/7", "brand": "Royal Farms", "brand:wikidata": "Q7374169"}},
{"type": "Feature", "id": "VxBarJPcirRjn-7NKXu_edT1p2Q=", "properties": {"ref": "205", "amenity:chargingstation": false, "amenity:fuel": true, "fuel:diesel": null, "fuel:e15": true, "fuel:e85": null, "@spider": "royal_farms", "addr:full": "3601 Victory Blvd", "addr:city": "Portsmouth", "addr:state": "VA", "addr:postcode": "23701", "addr:country": "US", "phone": "(757) 998-8015", "opening_hours": "24/7", "brand": "Royal Farms", "brand:wikidata": "Q7374169"}},
{"type": "Feature", "id": "BrWOjciiakI0pTVZpro5BdStqcQ=", "properties": {"ref": "130", "amenity:chargingstation": false, "amenity:fuel": true, "fuel:diesel": null, "fuel:e15": null, "fuel:e85": null, "@spider": "royal_farms", "addr:full": "1201 South Church St.", "addr:city": "Smithfield", "addr:state": "VA", "addr:postcode": "23430", "addr:country": "US", "phone": "(757) 824-8055", "opening_hours": "24/7", "brand": "Royal Farms", "brand:wikidata": "Q7374169"}},
{"type": "Feature", "id": "YmPVCaJl5_G2N6zA3q3NERS7xj0=", "properties": {"ref": "175", "amenity:chargingstation": false, "amenity:fuel": true, "fuel:diesel": null, "fuel:e15": null, "fuel:e85": null, "@spider": "royal_farms", "addr:full": "2150 Centerville Turnpike", "addr:city": "Virginia Beach", "addr:state": "VA", "addr:postcode": "23464", "addr:country": "US", "phone": "(757) 524-3609", "opening_hours": "24/7", "brand": "Royal Farms", "brand:wikidata": "Q7374169"}},
{"type": "Feature", "id": "Vq3wxEi_ZAn75T-JmeZf2tsLEsE=", "properties": {"ref": "159", "amenity:chargingstation": false, "amenity:fuel": true, "fuel:diesel": null, "fuel:e15": null, "fuel:e85": null, "@spider": "royal_farms", "addr:full": "1801 Washington Blvd", "addr:city": "Baltimore", "addr:state": "MD", "addr:postcode": "21230", "addr:country": "US", "phone": "(410) 387-4346", "opening_hours": "24/7", "brand": "Royal Farms", "brand:wikidata": "Q7374169"}},
{"type": "Feature", "id": "QjgOI31ibdSo84pqS1acBV8IbN0=", "properties": {"ref": "100", "amenity:chargingstation": false, "amenity:fuel": false, "fuel:diesel": null, "fuel:e15": null, "fuel:e85": null, "@spider": "royal_farms", "addr:full": "36 Light Street (Light at Lombard)", "addr:city": "Baltimore", "addr:state": "MD", "addr:postcode": "21202", "addr:country": "US", "phone": "(410) 387-4341", "opening_hours": "24/7", "brand": "Royal Farms", "brand:wikidata": "Q7374169"}},
{"type": "Feature", "id": "-msOnGUS2J0lBl1Zp15R9QWXGC0=", "properties": {"ref": "23", "amenity:chargingstation": false, "amenity:fuel": true, "fuel:diesel": true, "fuel:e15": null, "fuel:e85": null, "@spider": "royal_farms", "addr:full": "6411 Fort Smallwood Road", "addr:city": "Baltimore", "addr:state": "MD", "addr:postcode": "21226", "addr:country": "US", "phone": "(410) 387-4329", "opening_hours": "24/7", "brand": "Royal Farms", "brand:wikidata": "Q7374169"}},
{"type": "Feature", "id": "pqV6iGLMIoNCov5YT6P8DwTEPaE=", "properties": {"ref": "229", "amenity:chargingstation": false, "amenity:fuel": true, "fuel:diesel": null, "fuel:e15": true, "fuel:e85": true, "@spider": "royal_farms", "addr:full": "5801 Eastern Avenue", "addr:city": "Baltimore", "addr:state": "MD", "addr:postcode": "21224", "addr:country": "US", "phone": "443-884-2216", "opening_hours": "24/7", "brand": "Royal Farms", "brand:wikidata": "Q7374169"}},
{"type": "Feature", "id": "x4rvXOZt0_AqeeWfODJ88GugUPM=", "properties": {"ref": "30", "amenity:chargingstation": false, "amenity:fuel": true, "fuel:diesel": null, "fuel:e15": null, "fuel:e85": null, "@spider": "royal_farms", "addr:full": "33620 Chincoteague Road", "addr:city": "Wallops Island", "addr:state": "VA", "addr:postcode": "23337", "addr:country": "US", "phone": "(757) 800-6440", "opening_hours": "24/7", "brand": "Royal Farms", "brand:wikidata": "Q7374169"}},
{"type": "Feature", "id": "cW_5MbZCJK_gzj1jGXuOBjz8Myg=", "properties": {"ref": "124", "amenity:chargingstation": false, "amenity:fuel": true, "fuel:diesel": null, "fuel:e15": null, "fuel:e85": null, "@spider": "royal_farms", "addr:full": "1500 George Wash Mem. Hwy.", "addr:city": "Yorktown", "addr:state": "VA", "addr:postcode": "23693", "addr:country": "US", "phone": "(757) 873-4408", "opening_hours": "24/7", "brand": "Royal Farms", "brand:wikidata": "Q7374169"}},
{"type": "Feature", "id": "sSm4OGwMSPcmJBNAhfrY-CBXLV0=", "properties": {"ref": "74", "amenity:chargingstation": false, "amenity:fuel": true, "fuel:diesel": null, "fuel:e15": null, "fuel:e85": null, "@spider": "royal_farms", "addr:full": "1525 East Joppa Road", "addr:city": "Baynesville", "addr:state": "MD", "addr:postcode": "21286", "addr:country": "US", "phone": "(443) 761-6495", "opening_hours": "24/7", "brand": "Royal Farms", "brand:wikidata": "Q7374169"}},
{"type": "Feature", "id": "GDjzvt55jetkcGK5cJMye8oW8Xg=", "properties": {"ref": "170", "amenity:chargingstation": false, "amenity:fuel": true, "fuel:diesel": null, "fuel:e15": null, "fuel:e85": null, "@spider": "royal_farms", "addr:full": "2201 Jack Lane", "addr:city": "Bel Air", "addr:state": "MD", "addr:postcode": "21015", "addr:country": "US", "phone": "(410) 399-3092", "opening_hours": "24/7", "brand": "Royal Farms", "brand:wikidata": "Q7374169"}},
{"type": "Feature", "id": "w6tAk7Ed_69a6kYRcq_TAVC1GSs=", "properties": {"ref": "25", "amenity:chargingstation": false, "amenity:fuel": true, "fuel:diesel": null, "fuel:e15": null, "fuel:e85": null, "@spider": "royal_farms", "addr:full": "1601 E. Churchville Road", "addr:city": "Bel Air", "addr:state": "MD", "addr:postcode": "21015", "addr:country": "US", "phone": "(410) 399-3091", "brand": "Royal Farms", "brand:wikidata": "Q7374169"}},
{"type": "Feature", "id": "9GstcB343Vfm5iJM8hjf9FszSdA=", "properties": {"ref": "178", "amenity:chargingstation": false, "amenity:fuel": true, "fuel:diesel": null, "fuel:e15": null, "fuel:e85": null, "@spider": "royal_farms", "addr:full": "10633 Ocean Gateway", "addr:city": "Berlin", "addr:state": "MD", "addr:postcode": "21811", "addr:country": "US", "phone": "(410) 205-8957", "opening_hours": "24/7", "brand": "Royal Farms", "brand:wikidata": "Q7374169"}},
{"type": "Feature", "id": "VuuRKJCivByplbdXYhljpUYHV3s=", "properties": {"ref": "238", "amenity:chargingstation": false, "amenity:fuel": true, "fuel:diesel": null, "fuel:e15": null, "fuel:e85": null, "@spider": "royal_farms", "addr:full": "7401 Moores Road", "addr:city": "Brandywine", "addr:state": "MD", "addr:postcode": "20613", "addr:country": "US", "phone": "410-698-1424", "opening_hours": "24/7", "brand": "Royal Farms", "brand:wikidata": "Q7374169"}},
{"type": "Feature", "id": "QtwT3mzeO5bHZbsD3bt5zS1EDfs=", "properties": {"ref": "131", "amenity:chargingstation": true, "amenity:fuel": true, "fuel:diesel": null, "fuel:e15": null, "fuel:e85": null, "@spider": "royal_farms", "addr:full": "2703 Ocean Gateway", "addr:city": "Cambridge", "addr:state": "MD", "addr:postcode": "21613", "addr:country": "US", "phone": "(443) 972-5440", "opening_hours": "24/7", "brand": "Royal Farms", "brand:wikidata": "Q7374169"}},
{"type": "Feature", "id": "mzf-cTwyixLlqg0pVqxwL1xU1n4=", "properties": {"ref": "204", "amenity:chargingstation": true, "amenity:fuel": true, "fuel:diesel": null, "fuel:e15": null, "fuel:e85": null, "@spider": "royal_farms", "addr:full": "6210 Allentown Road", "addr:city": "Camp Springs", "addr:state": "MD", "addr:postcode": "20748", "addr:country": "US", "phone": "(301) 836-9195", "opening_hours": "24/7", "brand": "Royal Farms", "brand:wikidata": "Q7374169"}},
{"type": "Feature", "id": "OJg437fAFDWbYYxmnjayrdCfaLU=", "properties": {"ref": "302", "amenity:chargingstation": false, "amenity:fuel": true, "fuel:diesel": null, "fuel:e15": null, "fuel:e85": null, "@spider": "royal_farms", "addr:full": "6124 Edmondson Avenue", "addr:city": "Catonsville", "addr:state": "MD", "addr:postcode": "21228", "addr:country": "US", "phone": "443-840-6802", "opening_hours": "24/7", "brand": "Royal Farms", "brand:wikidata": "Q7374169"}},
{"type": "Feature", "id": "gcesYefULAHY6M1rYem4ECHnHyI=", "properties": {"ref": "136", "amenity:chargingstation": true, "amenity:fuel": true, "fuel:diesel": null, "fuel:e15": null, "fuel:e85": null, "@spider": "royal_farms", "addr:full": "115 N Bohemia Ave", "addr:city": "Cecilton", "addr:state": "MD", "addr:postcode": "21913", "addr:country": "US", "phone": "(410) 275-0275", "opening_hours": "24/7", "brand": "Royal Farms", "brand:wikidata": "Q7374169"}},
{"type": "Feature", "id": "vdg5cmHzciqTn_QdO_6DNZFu34I=", "properties": {"ref": "47", "amenity:chargingstation": false, "amenity:fuel": true, "fuel:diesel": null, "fuel:e15": null, "fuel:e85": null, "@spider": "royal_farms", "addr:full": "12545 Eastern Avenue", "addr:city": "Chase", "addr:state": "MD", "addr:postcode": "21220", "addr:country": "US", "phone": "(410) 344-8056", "opening_hours": "24/7", "brand": "Royal Farms", "brand:wikidata": "Q7374169"}},
{"type": "Feature", "id": "WOnjJsahWK0vQq-YtrFx6sctSHo=", "properties": {"ref": "250", "amenity:chargingstation": false, "amenity:fuel": true, "fuel:diesel": null, "fuel:e15": null, "fuel:e85": null, "@spider": "royal_farms", "addr:full": "859 High Street", "addr:city": "Chesterstown", "addr:state": "MD", "addr:postcode": "21620", "addr:country": "US", "phone": "(410) 919-9750", "opening_hours": "24/7", "brand": "Royal Farms", "brand:wikidata": "Q7374169"}},
{"type": "Feature", "id": "x9LlGiUxEjFU2O2wNV6Bw6QjkXc=", "properties": {"ref": "18", "amenity:chargingstation": false, "amenity:fuel": true, "fuel:diesel": null, "fuel:e15": null, "fuel:e85": null, "@spider": "royal_farms", "addr:full": "6502 Church Hill Road", "addr:city": "Chestertown", "addr:state": "MD", "addr:postcode": "21620", "addr:country": "US", "phone": "(410) 770-2767", "opening_hours": "24/7", "brand": "Royal Farms", "brand:wikidata": "Q7374169"}},
{"type": "Feature", "id": "9KfNUurKzjHGGgYMuXiKyi7m4yI=", "properties": {"ref": "190", "amenity:chargingstation": false, "amenity:fuel": true, "fuel:diesel": null, "fuel:e15": null, "fuel:e85": null, "@spider": "royal_farms", "addr:full": "5573 Shady Side Road", "addr:city": "Churchton", "addr:state": "MD", "addr:postcode": "20733", "addr:country": "US", "phone": "(301) 836-9194", "opening_hours": "24/7", "brand": "Royal Farms", "brand:wikidata": "Q7374169"}},
{"type": "Feature", "id": "E3dPAiYQk7VQR2poMHEMIMuJ00w=", "properties": {"ref": "186", "amenity:chargingstation": false, "amenity:fuel": true, "fuel:diesel": null, "fuel:e15": true, "fuel:e85": true, "@spider": "royal_farms", "addr:full": "7084 Minstrel Way", "addr:city": "Columbia", "addr:state": "MD", "addr:postcode": "21046", "addr:country": "US", "phone": "410-505-9104", "opening_hours": "24/7", "brand": "Royal Farms", "brand:wikidata": "Q7374169"}},
{"type": "Feature", "id": "OUa2OIg8Dv_m3JE0pcHQ55bI3Ew=", "properties": {"ref": "85", "amenity:chargingstation": false, "amenity:fuel": false, "fuel:diesel": null, "fuel:e15": null, "fuel:e85": null, "@spider": "royal_farms", "addr:full": "8755 Centre Park Drive", "addr:city": "Columbia", "addr:state": "MD", "addr:postcode": "21045", "addr:country": "US", "phone": "(443) 259-9999", "brand": "Royal Farms", "brand:wikidata": "Q7374169"}},
{"type": "Feature", "id": "0d6Vyrk5qBsMiy-6Jt2bhulBj4g=", "properties": {"ref": "87", "amenity:chargingstation": false, "amenity:fuel": true, "fuel:diesel": null, "fuel:e15": null, "fuel:e85": null, "@spider": "royal_farms", "addr:full": "379 Conowingo Road", "addr:city": "Conowingo", "addr:state": "MD", "addr:postcode": "21918", "addr:country": "US", "phone": "(410) 214-0096", "opening_hours": "24/7", "brand": "Royal Farms", "brand:wikidata": "Q7374169"}},
{"type": "Feature", "id": "vQ3Sn5q-IUZka3dhr0_HJaFM208=", "properties": {"ref": "4", "amenity:chargingstation": false, "amenity:fuel": true, "fuel:diesel": null, "fuel:e15": null, "fuel:e85": null, "@spider": "royal_farms", "addr:full": "502 Market Street", "addr:city": "Denton", "addr:state": "MD", "addr:postcode": "21629", "addr:country": "US", "phone": "(410) 479-6140", "brand": "Royal Farms", "brand:wikidata": "Q7374169"}},
{"type": "Feature", "id": "cvtiQ-Cd5oX-xYJc86xo7hMuhsA=", "properties": {"ref": "135", "amenity:chargingstation": false, "amenity:fuel": true, "fuel:diesel": null, "fuel:e15": null, "fuel:e85": null, "@spider": "royal_farms", "addr:full": "8859 Harmony Road", "addr:city": "Denton", "addr:state": "MD", "addr:postcode": "21629", "addr:country": "US", "phone": "(410) 479-6145", "opening_hours": "24/7", "brand": "Royal Farms", "brand:wikidata": "Q7374169"}},
{"type": "Feature", "id": "2mtyWJ9v9R6dWBXBjgASGWdEt_s=", "properties": {"ref": "269", "amenity:chargingstation": false, "amenity:fuel": true, "fuel:diesel": null, "fuel:e15": null, "fuel:e85": null, "@spider": "royal_farms", "addr:full": "3700 Donnell Drive", "addr:city": "District Heights", "addr:state": "MD", "addr:postcode": "20747", "addr:country": "US", "phone": "(240) 788-2269", "opening_hours": "24/7", "brand": "Royal Farms", "brand:wikidata": "Q7374169"}},
{"type": "Feature", "id": "RDX9zt0DC4Wa7HkMZ5iiBClws3c=", "properties": {"ref": "287", "amenity:chargingstation": false, "amenity:fuel": true, "fuel:diesel": null, "fuel:e15": null, "fuel:e85": null, "@spider": "royal_farms", "addr:full": "3300 Forestville Road", "addr:city": "District Heights", "addr:state": "MD", "addr:postcode": "20747", "addr:country": "US", "phone": "240-619-8287", "opening_hours": "24/7", "brand": "Royal Farms", "brand:wikidata": "Q7374169"}},
{"type": "Feature", "id": "yfc_CmTkWpzoqULb5762lqzaXGA=", "properties": {"ref": "26", "amenity:chargingstation": false, "amenity:fuel": false, "fuel:diesel": null, "fuel:e15": null, "fuel:e85": null, "@spider": "royal_farms", "addr:full": "18A Dundalk Avenue", "addr:city": "Dundalk", "addr:state": "MD", "addr:postcode": "21222", "addr:country": "US", "phone": "(443) 503-7159", "opening_hours": "24/7", "brand": "Royal Farms", "brand:wikidata": "Q7374169"}},
{"type": "Feature", "id": "vh7eA3OivLQtX9vSrBdmVzUgyVA=", "properties": {"ref": "68", "amenity:chargingstation": false, "amenity:fuel": true, "fuel:diesel": null, "fuel:e15": null, "fuel:e85": null, "@spider": "royal_farms", "addr:full": "7701 German Hill Road", "addr:city": "Dundalk", "addr:state": "MD", "addr:postcode": "21222", "addr:country": "US", "phone": "(443) 503-7160", "opening_hours": "24/7", "brand": "Royal Farms", "brand:wikidata": "Q7374169"}},
{"type": "Feature", "id": "AWld5rzRDp_XmDKEZ4JquPUDIuA=", "properties": {"ref": "21", "amenity:chargingstation": false, "amenity:fuel": true, "fuel:diesel": null, "fuel:e15": null, "fuel:e85": null, "@spider": "royal_farms", "addr:full": "4015 North Point Blvd", "addr:city": "Dundalk", "addr:state": "MD", "addr:postcode": "21222", "addr:country": "US", "phone": "(410) 709-5106", "opening_hours": "24/7", "brand": "Royal Farms", "brand:wikidata": "Q7374169"}},
{"type": "Feature", "id": "0Zquup2Xhf4OsWm44-_yJRnkWx8=", "properties": {"ref": "53", "amenity:chargingstation": false, "amenity:fuel": true, "fuel:diesel": null, "fuel:e15": null, "fuel:e85": null, "@spider": "royal_farms", "addr:full": "7655 Ocean Gateway", "addr:city": "Easton", "addr:state": "MD", "addr:postcode": "21601", "addr:country": "US", "phone": "(410) 205-8754", "brand": "Royal Farms", "brand:wikidata": "Q7374169"}},
{"type": "Feature", "id": "cb6qNPR20QCp8Iv3UhM37uPExMc=", "properties": {"ref": "56", "amenity:chargingstation": false, "amenity:fuel": false, "fuel:diesel": null, "fuel:e15": null, "fuel:e85": null, "@spider": "royal_farms", "addr:full": "301 Londontown Road", "addr:city": "Edgewater", "addr:state": "MD", "addr:postcode": "21037", "addr:country": "US", "phone": "(410) 940-6531", "brand": "Royal Farms", "brand:wikidata": "Q7374169"}},
{"type": "Feature", "id": "so7F8QmFflqimJcckM85U5MtND0=", "properties": {"ref": "65", "amenity:chargingstation": false, "amenity:fuel": true, "fuel:diesel": null, "fuel:e15": null, "fuel:e85": null, "@spider": "royal_farms", "addr:full": "630 Edgewood Road", "addr:city": "Edgewood", "addr:state": "MD", "addr:postcode": "21040", "addr:country": "US", "phone": "(443) 922-2133", "opening_hours": "24/7", "brand": "Royal Farms", "brand:wikidata": "Q7374169"}},
{"type": "Feature", "id": "G36V-s1ykXy7w730jDlXfsTF1GU=", "properties": {"ref": "77", "amenity:chargingstation": false, "amenity:fuel": true, "fuel:diesel": true, "fuel:e15": true, "fuel:e85": true, "@spider": "royal_farms", "addr:full": "2603 Philadelphia Road", "addr:city": "Edgewood", "addr:state": "MD", "addr:postcode": "21040", "addr:country": "US", "phone": "(443) 922-2134", "opening_hours": "24/7", "brand": "Royal Farms", "brand:wikidata": "Q7374169"}},
{"type": "Feature", "id": "uY4fOUcKwbKruJHLUR3a59iF8CE=", "properties": {"ref": "174", "amenity:chargingstation": false, "amenity:fuel": true, "fuel:diesel": null, "fuel:e15": null, "fuel:e85": null, "@spider": "royal_farms", "addr:full": "1261 Liberty Road", "addr:city": "Eldersburg", "addr:state": "MD", "addr:postcode": "21784", "addr:country": "US", "phone": "(410) 875-8172", "opening_hours": "24/7", "brand": "Royal Farms", "brand:wikidata": "Q7374169"}},
{"type": "Feature", "id": "RJ_-25TmX6fXJIc_9MSNCCI3sVY=", "properties": {"ref": "54", "amenity:chargingstation": false, "amenity:fuel": true, "fuel:diesel": null, "fuel:e15": true, "fuel:e85": true, "@spider": "royal_farms", "addr:full": "8268 Lark Brown Road", "addr:city": "Elkridge", "addr:state": "MD", "addr:postcode": "21075", "addr:country": "US", "phone": "(443) 733-5209", "opening_hours": "24/7", "brand": "Royal Farms", "brand:wikidata": "Q7374169"}},
{"type": "Feature", "id": "57L-tVmkZkLNN6OiBXVSZ93BqHM=", "properties": {"ref": "84", "amenity:chargingstation": false, "amenity:fuel": true, "fuel:diesel": null, "fuel:e15": null, "fuel:e85": null, "@spider": "royal_farms", "addr:full": "25 Augustine Herman Hwy", "addr:city": "Elkton", "addr:state": "MD", "addr:postcode": "21921", "addr:country": "US", "phone": "(410) 441-2041", "brand": "Royal Farms", "brand:wikidata": "Q7374169"}},
{"type": "Feature", "id": "HHegv0DwkkaImloFMyM0DIXwrO4=", "properties": {"ref": "101", "amenity:chargingstation": false, "amenity:fuel": true, "fuel:diesel": null, "fuel:e15": null, "fuel:e85": null, "@spider": "royal_farms", "addr:full": "1199 East Pulaski Hwy. (Delancy)", "addr:city": "Elkton", "addr:state": "MD", "addr:postcode": "21921", "addr:country": "US", "phone": "(410) 441-2042", "opening_hours": "24/7", "brand": "Royal Farms", "brand:wikidata": "Q7374169"}},
{"type": "Feature", "id": "Dr0S2SGVFGws6AID3aT7LOhpw2k=", "properties": {"ref": "71", "amenity:chargingstation": false, "amenity:fuel": true, "fuel:diesel": null, "fuel:e15": null, "fuel:e85": null, "@spider": "royal_farms", "addr:full": "8235 Eastern Blvd.", "addr:city": "Essex", "addr:state": "MD", "addr:postcode": "21224", "addr:country": "US", "phone": "(443) 503-7161", "brand": "Royal Farms", "brand:wikidata": "Q7374169"}},
{"type": "Feature", "id": "HE70P3VXqleQOF28HTs9gp9b-qA=", "properties": {"ref": "104", "amenity:chargingstation": false, "amenity:fuel": true, "fuel:diesel": null, "fuel:e15": null, "fuel:e85": null, "@spider": "royal_farms", "addr:full": "1010 Old Eastern Ave", "addr:city": "Essex", "addr:state": "MD", "addr:postcode": "21221", "addr:country": "US", "phone": "(410) 406-8498", "opening_hours": "24/7", "brand": "Royal Farms", "brand:wikidata": "Q7374169"}},
{"type": "Feature", "id": "B7TON7NBHJ1tbnuIQq4ph2iDwas=", "properties": {"ref": "15", "amenity:chargingstation": false, "amenity:fuel": true, "fuel:diesel": null, "fuel:e15": null, "fuel:e85": null, "@spider": "royal_farms", "addr:full": "1601 Middleborough Road", "addr:city": "Essex", "addr:state": "MD", "addr:postcode": "21221", "addr:country": "US", "phone": "(410) 406-8497", "brand": "Royal Farms", "brand:wikidata": "Q7374169"}},
{"type": "Feature", "id": "KEx6ULg_fDlfhq8AsxXv9UhVMLM=", "properties": {"ref": "93", "amenity:chargingstation": false, "amenity:fuel": true, "fuel:diesel": null, "fuel:e15": null, "fuel:e85": null, "@spider": "royal_farms", "addr:full": "1915 Belair Rd.", "addr:city": "Fallston", "addr:state": "MD", "addr:postcode": "21047", "addr:country": "US", "phone": "(410) 698-0121", "brand": "Royal Farms", "brand:wikidata": "Q7374169"}},
{"type": "Feature", "id": "LE9YzRDN9VZ2b2QJyD6Z2CIFfWo=", "properties": {"ref": "355", "amenity:chargingstation": false, "amenity:fuel": true, "fuel:diesel": true, "fuel:e15": null, "fuel:e85": null, "@spider": "royal_farms", "addr:full": "331 Bloomingdale Avenue", "addr:city": "Federalsburg", "addr:state": "MD", "addr:postcode": "21632", "addr:country": "US", "phone": "443-746-0682", "opening_hours": "24/7", "brand": "Royal Farms", "brand:wikidata": "Q7374169"}},
{"type": "Feature", "id": "LSk6orJ3VMDHfDOdendxW7ILtxY=", "properties": {"ref": "67", "amenity:chargingstation": false, "amenity:fuel": true, "fuel:diesel": null, "fuel:e15": null, "fuel:e85": null, "@spider": "royal_farms", "addr:full": "7201 Balto-Annapolis Blvd", "addr:city": "Ferndale", "addr:state": "MD", "addr:postcode": "21061", "addr:country": "US", "phone": "(410) 691-8187", "opening_hours": "24/7", "brand": "Royal Farms", "brand:wikidata": "Q7374169"}},
{"type": "Feature", "id": "hHWGnGDcr1vpaSElbLrGft5cB1g=", "properties": {"ref": "199", "amenity:chargingstation": false, "amenity:fuel": true, "fuel:diesel": null, "fuel:e15": null, "fuel:e85": null, "@spider": "royal_farms", "addr:full": "Rock Spring Road", "addr:city": "Forest Hill", "addr:state": "MD", "addr:postcode": "21050", "addr:country": "US", "phone": "(410) 399-3093", "opening_hours": "24/7", "brand": "Royal Farms", "brand:wikidata": "Q7374169"}},
{"type": "Feature", "id": "8cXB4pshfDC4GRXP_rLOtJLZFag=", "properties": {"ref": "347", "amenity:chargingstation": false, "amenity:fuel": true, "fuel:diesel": null, "fuel:e15": null, "fuel:e85": null, "@spider": "royal_farms", "addr:full": "2050 Yellow Springs Road", "addr:city": "Frederick", "addr:state": "MD", "addr:postcode": "21702", "addr:country": "US", "phone": "(240) 367-9381", "brand": "Royal Farms", "brand:wikidata": "Q7374169"}},
{"type": "Feature", "id": "I5f1AL9i74z766FQfBv77DE0ka4=", "properties": {"ref": "321", "amenity:chargingstation": false, "amenity:fuel": true, "fuel:diesel": null, "fuel:e15": null, "fuel:e85": null, "@spider": "royal_farms", "addr:full": "1708 Monocacy Blvd.", "addr:city": "Frederick", "addr:state": "MD", "addr:postcode": "21701", "addr:country": "US", "phone": "(240) 397-5844", "opening_hours": "24/7", "brand": "Royal Farms", "brand:wikidata": "Q7374169"}},
{"type": "Feature", "id": "oV3GQH0CctlfBlBdsAE6Ma7fEEY=", "properties": {"ref": "307", "amenity:chargingstation": false, "amenity:fuel": true, "fuel:diesel": null, "fuel:e15": null, "fuel:e85": null, "@spider": "royal_farms", "addr:full": "7402 Shockley Dr", "addr:city": "Frederick", "addr:state": "MD", "addr:postcode": "21704", "addr:country": "US", "phone": "(301) 696-1060", "opening_hours": "24/7", "brand": "Royal Farms", "brand:wikidata": "Q7374169"}},
{"type": "Feature", "id": "K4FnSjT6_pVKWpbPA4AkF-QL0NA=", "properties": {"ref": "384", "amenity:chargingstation": false, "amenity:fuel": true, "fuel:diesel": null, "fuel:e15": null, "fuel:e85": null, "@spider": "royal_farms", "addr:full": "101 W. Cedar Lane", "addr:city": "Fruitland", "addr:state": "MD", "addr:postcode": "21826", "addr:country": "US", "phone": "302-846-7008", "opening_hours": "24/7", "brand": "Royal Farms", "brand:wikidata": "Q7374169"}},
{"type": "Feature", "id": "sj1gLeDPy53R1A_qFgho0QhNtTY=", "properties": {"ref": "257", "amenity:chargingstation": false, "amenity:fuel": true, "fuel:diesel": null, "fuel:e15": null, "fuel:e85": true, "@spider": "royal_farms", "addr:full": "7560 Belair Road", "addr:city": "Fullerton", "addr:state": "MD", "addr:postcode": "21236", "addr:country": "US", "phone": "410-870-7257", "opening_hours": "24/7", "brand": "Royal Farms", "brand:wikidata": "Q7374169"}},
{"type": "Feature", "id": "s7kKcWLOp-ibXRwEjb9yQmzhuyY=", "properties": {"ref": "113", "amenity:chargingstation": false, "amenity:fuel": true, "fuel:diesel": null, "fuel:e15": null, "fuel:e85": null, "@spider": "royal_farms", "addr:full": "4007 Sykesville Rd", "addr:city": "Gamber", "addr:state": "MD", "addr:postcode": "21048", "addr:country": "US", "phone": "(410) 875-8173", "opening_hours": "24/7", "brand": "Royal Farms", "brand:wikidata": "Q7374169"}},
{"type": "Feature", "id": "OqcIQEButgWGvPN9nK1AZJX4l8w=", "properties": {"ref": "206", "amenity:chargingstation": false, "amenity:fuel": true, "fuel:diesel": null, "fuel:e15": true, "fuel:e85": true, "@spider": "royal_farms", "addr:full": "700 Annapolis Road", "addr:city": "Gambrills", "addr:state": "MD", "addr:postcode": "21054", "addr:country": "US", "phone": "(443) 292-7134", "opening_hours": "24/7", "brand": "Royal Farms", "brand:wikidata": "Q7374169"}},
{"type": "Feature", "id": "T9My9fAlX12vE3gMfVTaZYcbX6Y=", "properties": {"ref": "148", "amenity:chargingstation": true, "amenity:fuel": true, "fuel:diesel": null, "fuel:e15": null, "fuel:e85": null, "@spider": "royal_farms", "addr:full": "1114 Maryland Rt. 3 North", "addr:city": "Gambrills", "addr:state": "MD", "addr:postcode": "21054", "addr:country": "US", "phone": "(443) 292-7133", "opening_hours": "24/7", "brand": "Royal Farms", "brand:wikidata": "Q7374169"}},
{"type": "Feature", "id": "ARvN0NqLImTTaGfqPQQUQPZLyrU=", "properties": {"ref": "16", "amenity:chargingstation": false, "amenity:fuel": true, "fuel:diesel": null, "fuel:e15": null, "fuel:e85": null, "@spider": "royal_farms", "addr:full": "6901 Governor Ritchie Hwy", "addr:city": "Glen Burnie", "addr:state": "MD", "addr:postcode": "21061", "addr:country": "US", "phone": "(410) 691-8190", "opening_hours": "24/7", "brand": "Royal Farms", "brand:wikidata": "Q7374169"}},
{"type": "Feature", "id": "NOytQfU5bNftBxflArzOnbLEe-U=", "properties": {"ref": "22", "amenity:chargingstation": false, "amenity:fuel": false, "fuel:diesel": null, "fuel:e15": null, "fuel:e85": null, "@spider": "royal_farms", "addr:full": "200 Oak Manor Drive", "addr:city": "Glen Burnie", "addr:state": "MD", "addr:postcode": "21061", "addr:country": "US", "phone": "(410) 691-8191", "opening_hours": "24/7", "brand": "Royal Farms", "brand:wikidata": "Q7374169"}},
{"type": "Feature", "id": "mJK4UqWibhNbtIxLXInlIiOcQkc=", "properties": {"ref": "133", "amenity:chargingstation": true, "amenity:fuel": true, "fuel:diesel": null, "fuel:e15": null, "fuel:e85": null, "@spider": "royal_farms", "addr:full": "930 Cromwell Park Drive", "addr:city": "Glen Burnie", "addr:state": "MD", "addr:postcode": "21061", "addr:country": "US", "phone": "(410) 691-8188", "opening_hours": "24/7", "brand": "Royal Farms", "brand:wikidata": "Q7374169"}},
{"type": "Feature", "id": "iKIPe7rBZ6IwWQqRVZSTM31cvcI=", "properties": {"ref": "76", "amenity:chargingstation": true, "amenity:fuel": true, "fuel:diesel": null, "fuel:e15": null, "fuel:e85": null, "@spider": "royal_farms", "addr:full": "3901 Ten Oaks Road", "addr:city": "Glenelg", "addr:state": "MD", "addr:postcode": "21737", "addr:country": "US", "phone": "(443) 259-9998", "opening_hours": "24/7", "brand": "Royal Farms", "brand:wikidata": "Q7374169"}},
{"type": "Feature", "id": "pJkErmNL7uFEyoNkBkOhbsxjrIs=", "properties": {"ref": "208", "amenity:chargingstation": false, "amenity:fuel": true, "fuel:diesel": null, "fuel:e15": null, "fuel:e85": null, "@spider": "royal_farms", "addr:full": "108 Jackson Creek Road", "addr:city": "Grasonville", "addr:state": "MD", "addr:postcode": "21638", "addr:country": "US", "phone": "(410) 702-6231", "opening_hours": "24/7", "brand": "Royal Farms", "brand:wikidata": "Q7374169"}},
{"type": "Feature", "id": "-KRVH5fq0SP_3QJp71njkWz4Aow=", "properties": {"ref": "46", "amenity:chargingstation": false, "amenity:fuel": true, "fuel:diesel": null, "fuel:e15": null, "fuel:e85": null, "@spider": "royal_farms", "addr:full": "4308 Washington Blvd", "addr:city": "Halethorpe", "addr:state": "MD", "addr:postcode": "21227", "addr:country": "US", "phone": "(410) 501-1062", "opening_hours": "24/7", "brand": "Royal Farms", "brand:wikidata": "Q7374169"}},
{"type": "Feature", "id": "5beS98kVgwMoJgAG3ue93bV8shU=", "properties": {"ref": "69", "amenity:chargingstation": false, "amenity:fuel": true, "fuel:diesel": null, "fuel:e15": null, "fuel:e85": null, "@spider": "royal_farms", "addr:full": "405 Juniata Street", "addr:city": "Havre De Grace", "addr:state": "MD", "addr:postcode": "21078", "addr:country": "US", "phone": "(410) 942-2012", "brand": "Royal Farms", "brand:wikidata": "Q7374169"}},
{"type": "Feature", "id": "sPmDliqgEs4w4HKNz4Chy7G94GU=", "properties": {"ref": "194", "amenity:chargingstation": false, "amenity:fuel": true, "fuel:diesel": null, "fuel:e15": null, "fuel:e85": null, "@spider": "royal_farms", "addr:full": "803 Pulaski Highway", "addr:city": "Havre De Grace", "addr:state": "MD", "addr:postcode": "21078", "addr:country": "US", "phone": "(410) 942-2013", "opening_hours": "24/7", "brand": "Royal Farms", "brand:wikidata": "Q7374169"}},
{"type": "Feature", "id": "us9ZiKlNP-qvC6PhI1ABb2eXgMs=", "properties": {"ref": "191", "amenity:chargingstation": true, "amenity:fuel": true, "fuel:diesel": true, "fuel:e15": null, "fuel:e85": null, "@spider": "royal_farms", "addr:full": "11119 McCormick Road", "addr:city": "Hunt Valley", "addr:state": "MD", "addr:postcode": "21031", "addr:country": "US", "phone": "(410) 568-7645", "opening_hours": "24/7", "brand": "Royal Farms", "brand:wikidata": "Q7374169"}},
{"type": "Feature", "id": "GbLoTY4DuWPbNiEZs3UQStz9BP0=", "properties": {"ref": "241", "amenity:chargingstation": false, "amenity:fuel": true, "fuel:diesel": null, "fuel:e15": true, "fuel:e85": true, "@spider": "royal_farms", "addr:full": "6120 Annapolis Road", "addr:city": "Hyattsville", "addr:state": "MD", "addr:postcode": "20784", "addr:country": "US", "phone": "301-852-6241", "opening_hours": "24/7", "brand": "Royal Farms", "brand:wikidata": "Q7374169"}},
{"type": "Feature", "id": "Ix9mZRq4xk4F94dCq8wkJRdhM-c=", "properties": {"ref": "230", "amenity:chargingstation": false, "amenity:fuel": true, "fuel:diesel": null, "fuel:e15": true, "fuel:e85": true, "@spider": "royal_farms", "addr:full": "7136 Montevideo Road", "addr:city": "Jessup", "addr:state": "MD", "addr:postcode": "20794", "addr:country": "US", "phone": "1-443-733-5211", "opening_hours": "24/7", "brand": "Royal Farms", "brand:wikidata": "Q7374169"}},
{"type": "Feature", "id": "5l1-wipXN61ZnW_TjvGH30Yo8EQ=", "properties": {"ref": "75", "amenity:chargingstation": false, "amenity:fuel": true, "fuel:diesel": null, "fuel:e15": null, "fuel:e85": null, "@spider": "royal_farms", "addr:full": "8686 Washington Blvd", "addr:city": "Jessup", "addr:state": "MD", "addr:postcode": "20794", "addr:country": "US", "phone": "(443) 733-5210", "opening_hours": "24/7", "brand": "Royal Farms", "brand:wikidata": "Q7374169"}},
{"type": "Feature", "id": "K9q4fFFHwOPWKpKTux3kZYpWq1U=", "properties": {"ref": "294", "amenity:chargingstation": false, "amenity:fuel": true, "fuel:diesel": true, "fuel:e15": true, "fuel:e85": null, "@spider": "royal_farms", "addr:full": "1105 S. Mountain Road", "addr:city": "Joppa", "addr:state": "MD", "addr:postcode": "21085", "addr:country": "US", "phone": "410-670-5291", "opening_hours": "24/7", "brand": "Royal Farms", "brand:wikidata": "Q7374169"}},
{"type": "Feature", "id": "xGA_0BssjmvNczN34Luu5ovHMjI=", "properties": {"ref": "1", "amenity:chargingstation": true, "amenity:fuel": true, "fuel:diesel": null, "fuel:e15": null, "fuel:e85": null, "@spider": "royal_farms", "addr:full": "2620 Mountain Rd.", "addr:city": "Joppa", "addr:state": "MD", "addr:postcode": "21085", "addr:country": "US", "phone": "(410) 698-0123", "brand": "Royal Farms", "brand:wikidata": "Q7374169"}},
{"type": "Feature", "id": "X0ah2e3xdNj1v6vZWUwggveJOa8=", "properties": {"ref": "70", "amenity:chargingstation": false, "amenity:fuel": true, "fuel:diesel": null, "fuel:e15": null, "fuel:e85": null, "@spider": "royal_farms", "addr:full": "500 Joppa Farm Road", "addr:city": "Joppatowne", "addr:state": "MD", "addr:postcode": "21085", "addr:country": "US", "phone": "(410) 698-0124", "opening_hours": "24/7", "brand": "Royal Farms", "brand:wikidata": "Q7374169"}},
{"type": "Feature", "id": "uj-2cQQsCXiRNqxYQhmqqyM5q5M=", "properties": {"ref": "112", "amenity:chargingstation": false, "amenity:fuel": true, "fuel:diesel": null, "fuel:e15": null, "fuel:e85": null, "@spider": "royal_farms", "addr:full": "3505 Washington Blvd", "addr:city": "Lansdowne", "addr:state": "MD", "addr:postcode": "21227", "addr:country": "US", "phone": "(410) 501-1064", "opening_hours": "24/7", "brand": "Royal Farms", "brand:wikidata": "Q7374169"}},
{"type": "Feature", "id": "bJWqcdRWYF3SCRgi1p_g_UtD0Pc=", "properties": {"ref": "244", "amenity:chargingstation": false, "amenity:fuel": true, "fuel:diesel": null, "fuel:e15": true, "fuel:e85": true, "@spider": "royal_farms", "addr:full": "6901 Van Dusen Road", "addr:city": "Laurel", "addr:state": "MD", "addr:postcode": "20707", "addr:country": "US", "phone": "(240) 459-3293", "opening_hours": "24/7", "brand": "Royal Farms", "brand:wikidata": "Q7374169"}},
{"type": "Feature", "id": "JUUs1ASdSIXSJqt2udCffxLzwW8=", "properties": {"ref": "211", "amenity:chargingstation": false, "amenity:fuel": true, "fuel:diesel": null, "fuel:e15": null, "fuel:e85": null, "@spider": "royal_farms", "addr:full": "3470 Ft. Meade Road", "addr:city": "Laurel", "addr:state": "MD", "addr:postcode": "20724", "addr:country": "US", "phone": "443-837-7210", "opening_hours": "24/7", "brand": "Royal Farms", "brand:wikidata": "Q7374169"}},
{"type": "Feature", "id": "MnFa7priAXehjCOApvSDbnMuvd0=", "properties": {"ref": "45", "amenity:chargingstation": false, "amenity:fuel": false, "fuel:diesel": null, "fuel:e15": null, "fuel:e85": null, "@spider": "royal_farms", "addr:full": "400 Camp Meade Road", "addr:city": "Linthicum", "addr:state": "MD", "addr:postcode": "21090", "addr:country": "US", "phone": "(410) 691-8186", "brand": "Royal Farms", "brand:wikidata": "Q7374169"}},
{"type": "Feature", "id": "E0oeln4BADrd92kye-0P9_oeHWU=", "properties": {"ref": "193", "amenity:chargingstation": false, "amenity:fuel": true, "fuel:diesel": null, "fuel:e15": null, "fuel:e85": null, "@spider": "royal_farms", "addr:full": "803 Pinnacle Drive", "addr:city": "Linthicum Heights", "addr:state": "MD", "addr:postcode": "21090", "addr:country": "US", "phone": "(410) 609-8093", "opening_hours": "24/7", "brand": "Royal Farms", "brand:wikidata": "Q7374169"}},
{"type": "Feature", "id": "fkTVZCORS5WhVbjHl5cKyqkjL78=", "properties": {"ref": "43", "amenity:chargingstation": false, "amenity:fuel": false, "fuel:diesel": null, "fuel:e15": null, "fuel:e85": null, "@spider": "royal_farms", "addr:full": "501 Seminary Avenue", "addr:city": "Lutherville", "addr:state": "MD", "addr:postcode": "21093", "addr:country": "US", "phone": "(443) 761-6499", "brand": "Royal Farms", "brand:wikidata": "Q7374169"}},
{"type": "Feature", "id": "lHbnCIDqwX3-G88MOuKk82zgFN0=", "properties": {"ref": "128", "amenity:chargingstation": false, "amenity:fuel": true, "fuel:diesel": null, "fuel:e15": null, "fuel:e85": null, "@spider": "royal_farms", "addr:full": "3320 Eastern Blvd.", "addr:city": "Middle River", "addr:state": "MD", "addr:postcode": "21220", "addr:country": "US", "phone": "(410) 406-8500", "opening_hours": "24/7", "brand": "Royal Farms", "brand:wikidata": "Q7374169"}},
{"type": "Feature", "id": "P6J3fcSObNPG_mL2BDod_YNba9Q=", "properties": {"ref": "150", "amenity:chargingstation": false, "amenity:fuel": true, "fuel:diesel": null, "fuel:e15": null, "fuel:e85": null, "@spider": "royal_farms", "addr:full": "11905 Market Way and Rt. 43", "addr:city": "Middle River", "addr:state": "MD", "addr:postcode": "21220", "addr:country": "US", "phone": "(410) 344-8058", "opening_hours": "24/7", "brand": "Royal Farms", "brand:wikidata": "Q7374169"}},
{"type": "Feature", "id": "gWzfdCxOx0hoVrf3LT_hoHn73dU=", "properties": {"ref": "266", "amenity:chargingstation": false, "amenity:fuel": true, "fuel:diesel": null, "fuel:e15": true, "fuel:e85": true, "@spider": "royal_farms", "addr:full": "9518 Pulaski Highway", "addr:city": "Middle River", "addr:state": "MD", "addr:postcode": "21220", "addr:country": "US", "phone": "1 (410) 450-4295", "opening_hours": "24/7", "brand": "Royal Farms", "brand:wikidata": "Q7374169"}},
{"type": "Feature", "id": "kMPEBm_jkGxopGxhsxWF_u3rl7o=", "properties": {"ref": "98", "amenity:chargingstation": false, "amenity:fuel": true, "fuel:diesel": null, "fuel:e15": null, "fuel:e85": null, "@spider": "royal_farms", "addr:full": "8198 Veterans Hwy", "addr:city": "Millersville", "addr:state": "MD", "addr:postcode": "21108", "addr:country": "US", "phone": "(443) 343-7298", "opening_hours": "24/7", "brand": "Royal Farms", "brand:wikidata": "Q7374169"}},
{"type": "Feature", "id": "zIW8tPURzE8LC-CFizAGhJZhSto=", "properties": {"ref": "88", "amenity:chargingstation": false, "amenity:fuel": true, "fuel:diesel": null, "fuel:e15": null, "fuel:e85": null, "@spider": "royal_farms", "addr:full": "3209 Jarrettsville Pike Rd", "addr:city": "Monkton", "addr:state": "MD", "addr:postcode": "21111", "addr:country": "US", "phone": "(410) 692-3082", "brand": "Royal Farms", "brand:wikidata": "Q7374169"}},
{"type": "Feature", "id": "-_RWAVxfNOM-lDs087oQ--J0oy8=", "properties": {"ref": "278", "amenity:chargingstation": false, "amenity:fuel": true, "fuel:diesel": null, "fuel:e15": true, "fuel:e85": true, "@spider": "royal_farms", "addr:full": "100 Monument Avenue", "addr:city": "National Harbor", "addr:state": "MD", "addr:postcode": "20745", "addr:country": "US", "phone": "(240) 253-6444", "opening_hours": "24/7", "brand": "Royal Farms", "brand:wikidata": "Q7374169"}},
{"type": "Feature", "id": "QExlOdRJgXy_z6GN4JnoCYRUUZo=", "properties": {"ref": "96", "amenity:chargingstation": true, "amenity:fuel": true, "fuel:diesel": true, "fuel:e15": null, "fuel:e85": null, "@spider": "royal_farms", "addr:full": "500 Mechanics Valley Road", "addr:city": "North East", "addr:state": "MD", "addr:postcode": "21901", "addr:country": "US", "phone": "(410) 656-5104", "opening_hours": "24/7", "brand": "Royal Farms", "brand:wikidata": "Q7374169"}},
{"type": "Feature", "id": "l2Ur8Y655_wmKYz-siQeAo4zKZo=", "properties": {"ref": "36", "amenity:chargingstation": false, "amenity:fuel": true, "fuel:diesel": null, "fuel:e15": null, "fuel:e85": null, "@spider": "royal_farms", "addr:full": "8307 Coastal Highway", "addr:city": "Ocean City", "addr:state": "MD", "addr:postcode": "21843", "addr:country": "US", "phone": "(302) 846-7966", "brand": "Royal Farms", "brand:wikidata": "Q7374169"}},
{"type": "Feature", "id": "Ymqp6U8SPjJKA6XUFVOGUFLdbfY=", "properties": {"ref": "107", "amenity:chargingstation": true, "amenity:fuel": true, "fuel:diesel": null, "fuel:e15": null, "fuel:e85": null, "@spider": "royal_farms", "addr:full": "12826A Ocean Gateway", "addr:city": "Ocean City", "addr:state": "MD", "addr:postcode": "21842", "addr:country": "US", "phone": "(410) 213-5525", "opening_hours": "24/7", "brand": "Royal Farms", "brand:wikidata": "Q7374169"}},
{"type": "Feature", "id": "d8Cdm6oIazcCK92oObfhKa3IhW4=", "properties": {"ref": "149", "amenity:chargingstation": false, "amenity:fuel": true, "fuel:diesel": null, "fuel:e15": null, "fuel:e85": null, "@spider": "royal_farms", "addr:full": "1560 Annapolis Road", "addr:city": "Odenton", "addr:state": "MD", "addr:postcode": "21113", "addr:country": "US", "phone": "(410) 874-2055", "opening_hours": "24/7", "brand": "Royal Farms", "brand:wikidata": "Q7374169"}},
{"type": "Feature", "id": "bzvZQmnl1aZzdkkV1lFgywy812w=", "properties": {"ref": "140", "amenity:chargingstation": false, "amenity:fuel": true, "fuel:diesel": null, "fuel:e15": null, "fuel:e85": null, "@spider": "royal_farms", "addr:full": "10988 Red Run Blvd.", "addr:city": "Owings Mills", "addr:state": "MD", "addr:postcode": "21117", "addr:country": "US", "phone": "(410) 205-8457", "opening_hours": "24/7", "brand": "Royal Farms", "brand:wikidata": "Q7374169"}},
{"type": "Feature", "id": "zfpz_IAtgXDOmlzSrACpKr2ZgPk=", "properties": {"ref": "180", "amenity:chargingstation": false, "amenity:fuel": true, "fuel:diesel": null, "fuel:e15": null, "fuel:e85": null, "@spider": "royal_farms", "addr:full": "11510 Reisterstown Road", "addr:city": "Owings Mills", "addr:state": "MD", "addr:postcode": "21117", "addr:country": "US", "phone": "(410) 205-8458", "opening_hours": "24/7", "brand": "Royal Farms", "brand:wikidata": "Q7374169"}},
{"type": "Feature", "id": "N8OvY53wCjphZFnUcY9RQBVrThg=", "properties": {"ref": "231", "amenity:chargingstation": false, "amenity:fuel": true, "fuel:diesel": null, "fuel:e15": null, "fuel:e85": null, "@spider": "royal_farms", "addr:full": "9740 Reisterstown Road", "addr:city": "Owings Mills", "addr:state": "MD", "addr:postcode": "21117", "addr:country": "US", "phone": "443-264-4623", "opening_hours": "24/7", "brand": "Royal Farms", "brand:wikidata": "Q7374169"}},
{"type": "Feature", "id": "aJtshIGxoj_od6uPkF17SDBBZ8M=", "properties": {"ref": "183", "amenity:chargingstation": false, "amenity:fuel": true, "fuel:diesel": null, "fuel:e15": null, "fuel:e85": null, "@spider": "royal_farms", "addr:full": "8551 Fort Smallwood Road", "addr:city": "Pasadena", "addr:state": "MD", "addr:postcode": "21122", "addr:country": "US", "phone": "(410) 317-6015", "opening_hours": "24/7", "brand": "Royal Farms", "brand:wikidata": "Q7374169"}},
{"type": "Feature", "id": "CdDG-r2ePq-lO3EmiBohi800IsI=", "properties": {"ref": "39", "amenity:chargingstation": false, "amenity:fuel": true, "fuel:diesel": null, "fuel:e15": null, "fuel:e85": null, "@spider": "royal_farms", "addr:full": "2500 Mountain Road", "addr:city": "Pasadena", "addr:state": "MD", "addr:postcode": "21122", "addr:country": "US", "phone": "(410) 317-6014", "opening_hours": "24/7", "brand": "Royal Farms", "brand:wikidata": "Q7374169"}},
{"type": "Feature", "id": "tM9bwQJfZb9c5I43hyNS024Xdow=", "properties": {"ref": "32", "amenity:chargingstation": false, "amenity:fuel": false, "fuel:diesel": null, "fuel:e15": null, "fuel:e85": null, "@spider": "royal_farms", "addr:full": "4500 Mountain Road", "addr:city": "Pasadena", "addr:state": "MD", "addr:postcode": "21122", "addr:country": "US", "phone": "(410) 317-6013", "brand": "Royal Farms", "brand:wikidata": "Q7374169"}},
{"type": "Feature", "id": "aXnST4Up4CC7lYFExLXOdFPZVsU=", "properties": {"ref": "181", "amenity:chargingstation": false, "amenity:fuel": true, "fuel:diesel": null, "fuel:e15": null, "fuel:e85": null, "@spider": "royal_farms", "addr:full": "9620 Belair Road", "addr:city": "Perry Hall", "addr:state": "MD", "addr:postcode": "21236", "addr:country": "US", "phone": "(410) 513-8470", "opening_hours": "24/7", "brand": "Royal Farms", "brand:wikidata": "Q7374169"}},
{"type": "Feature", "id": "xCE0_wivoZy5urfqTh2XUJ0sJGo=", "properties": {"ref": "267", "amenity:chargingstation": false, "amenity:fuel": true, "fuel:diesel": null, "fuel:e15": true, "fuel:e85": true, "@spider": "royal_farms", "addr:full": "1825 Perryville Road", "addr:city": "Perryville", "addr:state": "MD", "addr:postcode": "21903", "addr:country": "US", "phone": "(410) 642-5740", "opening_hours": "24/7", "brand": "Royal Farms", "brand:wikidata": "Q7374169"}},
{"type": "Feature", "id": "q2u1IZCCkSxAVlYe1tYGO-p5S2g=", "properties": {"ref": "27", "amenity:chargingstation": false, "amenity:fuel": true, "fuel:diesel": null, "fuel:e15": null, "fuel:e85": null, "@spider": "royal_farms", "addr:full": "5415 Pulaski Highway", "addr:city": "Perryville", "addr:state": "MD", "addr:postcode": "21903", "addr:country": "US", "phone": "(410) 642-5737", "brand": "Royal Farms", "brand:wikidata": "Q7374169"}},
{"type": "Feature", "id": "_lnW96yBW9zW0C4EGE9QvMqj1tc=", "properties": {"ref": "81", "amenity:chargingstation": false, "amenity:fuel": false, "fuel:diesel": null, "fuel:e15": null, "fuel:e85": null, "@spider": "royal_farms", "addr:full": "2330 Smith Avenue", "addr:city": "Pikesville", "addr:state": "MD", "addr:postcode": "21209", "addr:country": "US", "phone": "(410) 205-8456", "opening_hours": "24/7", "brand": "Royal Farms", "brand:wikidata": "Q7374169"}},
{"type": "Feature", "id": "UCc9NrCs1eAJm3NiQ7S34dyCCCQ=", "properties": {"ref": "94", "amenity:chargingstation": false, "amenity:fuel": true, "fuel:diesel": null, "fuel:e15": null, "fuel:e85": null, "@spider": "royal_farms", "addr:full": "1336 Jacob Tome Hwy", "addr:city": "Port Deposit", "addr:state": "MD", "addr:postcode": "21904", "addr:country": "US", "phone": "(410) 214-0104", "opening_hours": "24/7", "brand": "Royal Farms", "brand:wikidata": "Q7374169"}},
{"type": "Feature", "id": "jwAN9ZA9T9DoUMdNthQ6S__8_4g=", "properties": {"ref": "97", "amenity:chargingstation": false, "amenity:fuel": true, "fuel:diesel": null, "fuel:e15": null, "fuel:e85": null, "@spider": "royal_farms", "addr:full": "30452 Mt. Vernon Road", "addr:city": "Princess Anne", "addr:state": "MD", "addr:postcode": "21853", "addr:country": "US", "phone": "(410) 856-1472", "opening_hours": "24/7", "brand": "Royal Farms", "brand:wikidata": "Q7374169"}},
{"type": "Feature", "id": "fVsjh5GvL7e3icv8CG2Hr127Ujs=", "properties": {"ref": "80", "amenity:chargingstation": false, "amenity:fuel": true, "fuel:diesel": null, "fuel:e15": null, "fuel:e85": null, "@spider": "royal_farms", "addr:full": "32303 Queen Anne Hwy", "addr:city": "Queen Anne", "addr:state": "MD", "addr:postcode": "21657", "addr:country": "US", "phone": "(410) 690-8043", "opening_hours": "24/7", "brand": "Royal Farms", "brand:wikidata": "Q7374169"}},
{"type": "Feature", "id": "ugjHVS7_ux1XHQU8lR3Ro2jU3UQ=", "properties": {"ref": "163", "amenity:chargingstation": false, "amenity:fuel": true, "fuel:diesel": null, "fuel:e15": null, "fuel:e85": null, "@spider": "royal_farms", "addr:full": "105 Clay Drive", "addr:city": "Queenstown", "addr:state": "MD", "addr:postcode": "21658", "addr:country": "US", "phone": "(410) 827-2062", "brand": "Royal Farms", "brand:wikidata": "Q7374169"}},
{"type": "Feature", "id": "KcX0QJqdHXxZJ9kiDHx1pgw66Vs=", "properties": {"ref": "173", "amenity:chargingstation": false, "amenity:fuel": true, "fuel:diesel": null, "fuel:e15": null, "fuel:e85": null, "@spider": "royal_farms", "addr:full": "9043 Liberty Road", "addr:city": "Randallstown", "addr:state": "MD", "addr:postcode": "21133", "addr:country": "US", "phone": "(410) 702-6230", "opening_hours": "24/7", "brand": "Royal Farms", "brand:wikidata": "Q7374169"}},
{"type": "Feature", "id": "JpjTfXhsdg1fLfdepEiT_fXK0Z4=", "properties": {"ref": "34", "amenity:chargingstation": false, "amenity:fuel": true, "fuel:diesel": null, "fuel:e15": null, "fuel:e85": null, "@spider": "royal_farms", "addr:full": "15 Hanover Pike", "addr:city": "Reisterstown", "addr:state": "MD", "addr:postcode": "21136", "addr:country": "US", "phone": "(410) 702-6232", "opening_hours": "24/7", "brand": "Royal Farms", "brand:wikidata": "Q7374169"}},
{"type": "Feature", "id": "QVRdARHfG5CTe9-xRrcuPIQtemY=", "properties": {"ref": "8", "amenity:chargingstation": false, "amenity:fuel": false, "fuel:diesel": null, "fuel:e15": null, "fuel:e85": null, "@spider": "royal_farms", "addr:full": "1630 West Joppa Rd", "addr:city": "Ruxton", "addr:state": "MD", "addr:postcode": "21204", "addr:country": "US", "phone": "(443) 761-6496", "brand": "Royal Farms", "brand:wikidata": "Q7374169"}},
{"type": "Feature", "id": "Z7fnA-triMmi4KaI1OUPLSsWSSM=", "properties": {"ref": "73", "amenity:chargingstation": false, "amenity:fuel": true, "fuel:diesel": null, "fuel:e15": null, "fuel:e85": null, "@spider": "royal_farms", "addr:full": "1401 South Division Street", "addr:city": "Salisbury", "addr:state": "MD", "addr:postcode": "21801", "addr:country": "US", "phone": "(410) 845-2660", "opening_hours": "24/7", "brand": "Royal Farms", "brand:wikidata": "Q7374169"}},
{"type": "Feature", "id": "QJWfh_S1sCLSj5WZbL8GwTroQXY=", "properties": {"ref": "83", "amenity:chargingstation": false, "amenity:fuel": true, "fuel:diesel": null, "fuel:e15": null, "fuel:e85": null, "@spider": "royal_farms", "addr:full": "101 North Salisbury Avenue", "addr:city": "Salisbury", "addr:state": "MD", "addr:postcode": "21801", "addr:country": "US", "phone": "(410) 709-5105", "opening_hours": "24/7", "brand": "Royal Farms", "brand:wikidata": "Q7374169"}},
{"type": "Feature", "id": "VjDHS27OuAc-pVczrQ3Ro8nCq5c=", "properties": {"ref": "5", "amenity:chargingstation": false, "amenity:fuel": true, "fuel:diesel": null, "fuel:e15": null, "fuel:e85": null, "@spider": "royal_farms", "addr:full": "901 Snow Hill Road", "addr:city": "Salisbury", "addr:state": "MD", "addr:postcode": "21804", "addr:country": "US", "phone": "(410) 845-2590", "opening_hours": "24/7", "brand": "Royal Farms", "brand:wikidata": "Q7374169"}},
{"type": "Feature", "id": "6mKon8vk4U2pGo45b2ShNHOe-Vs=", "properties": {"ref": "167", "amenity:chargingstation": false, "amenity:fuel": true, "fuel:diesel": null, "fuel:e15": null, "fuel:e85": null, "@spider": "royal_farms", "addr:full": "31954 Summer Drive", "addr:city": "Salisbury", "addr:state": "MD", "addr:postcode": "21804", "addr:country": "US", "phone": "(410) 845-2990", "opening_hours": "24/7", "brand": "Royal Farms", "brand:wikidata": "Q7374169"}},
{"type": "Feature", "id": "PRYXCCdtW4YfVmZmpAFW1jr0iiw=", "properties": {"ref": "137", "amenity:chargingstation": false, "amenity:fuel": true, "fuel:diesel": null, "fuel:e15": null, "fuel:e85": null, "@spider": "royal_farms", "addr:full": "1150 Pemberton Drive", "addr:city": "Salisbury", "addr:state": "MD", "addr:postcode": "21801", "addr:country": "US", "phone": "(410) 845-2780", "opening_hours": "24/7", "brand": "Royal Farms", "brand:wikidata": "Q7374169"}},
{"type": "Feature", "id": "n-wlicJDRlkJox7f1Ecwdjv_fPU=", "properties": {"ref": "127", "amenity:chargingstation": true, "amenity:fuel": true, "fuel:diesel": null, "fuel:e15": null, "fuel:e85": null, "@spider": "royal_farms", "addr:full": "7900 Royalty Way", "addr:city": "Salisbury", "addr:state": "MD", "addr:postcode": "21801", "addr:country": "US", "phone": "(410) 875-8171", "opening_hours": "24/7", "brand": "Royal Farms", "brand:wikidata": "Q7374169"}},
{"type": "Feature", "id": "S4Wegbp7afkMN-vT83pIXwgLFpU=", "properties": {"ref": "283", "amenity:chargingstation": false, "amenity:fuel": true, "fuel:diesel": null, "fuel:e15": null, "fuel:e85": null, "@spider": "royal_farms", "addr:full": "1033 S. Salisbury Blvd.", "addr:city": "Salisbury", "addr:state": "MD", "addr:postcode": "21801", "addr:country": "US", "phone": "(410) 202-3231", "opening_hours": "24/7", "brand": "Royal Farms", "brand:wikidata": "Q7374169"}},
{"type": "Feature", "id": "Xcm7_h-TK_TgTwDb4r2HRa32rAk=", "properties": {"ref": "40", "amenity:chargingstation": false, "amenity:fuel": true, "fuel:diesel": null, "fuel:e15": null, "fuel:e85": null, "@spider": "royal_farms", "addr:full": "7843 Telegraph Road", "addr:city": "Severn", "addr:state": "MD", "addr:postcode": "21144", "addr:country": "US", "phone": "(410) 514-0024", "opening_hours": "24/7", "brand": "Royal Farms", "brand:wikidata": "Q7374169"}},
{"type": "Feature", "id": "QHCqlknhy1YqKO94qgKCewnmJOU=", "properties": {"ref": "82", "amenity:chargingstation": false, "amenity:fuel": true, "fuel:diesel": null, "fuel:e15": null, "fuel:e85": null, "@spider": "royal_farms", "addr:full": "517 Ritchie Highway", "addr:city": "Severna Park", "addr:state": "MD", "addr:postcode": "21146", "addr:country": "US", "phone": "(410) 793-8044", "opening_hours": "24/7", "brand": "Royal Farms", "brand:wikidata": "Q7374169"}},
{"type": "Feature", "id": "awFqcg5xul2mFj4tGNlI-sW6AKg=", "properties": {"ref": "345", "amenity:chargingstation": false, "amenity:fuel": true, "fuel:diesel": true, "fuel:e15": true, "fuel:e85": null, "@spider": "royal_farms", "addr:full": "7300 Bethlehem Blvd.", "addr:city": "Sparrows Point", "addr:state": "MD", "addr:postcode": "21219", "addr:country": "US", "phone": "667-217-5344", "opening_hours": "24/7", "brand": "Royal Farms", "brand:wikidata": "Q7374169"}},
{"type": "Feature", "id": "ckczzeOB-aq0LcsILYPssAYKwxo=", "properties": {"ref": "95", "amenity:chargingstation": false, "amenity:fuel": true, "fuel:diesel": null, "fuel:e15": null, "fuel:e85": null, "@spider": "royal_farms", "addr:full": "3606 Conowingo Road", "addr:city": "Street", "addr:state": "MD", "addr:postcode": "21154", "addr:country": "US", "phone": "(410) 457-1000", "opening_hours": "24/7", "brand": "Royal Farms", "brand:wikidata": "Q7374169"}},
{"type": "Feature", "id": "envXyjaeVC132BHp3_2UssPjvQc=", "properties": {"ref": "12", "amenity:chargingstation": false, "amenity:fuel": false, "fuel:diesel": null, "fuel:e15": null, "fuel:e85": null, "@spider": "royal_farms", "addr:full": "5 East Timonium Road", "addr:city": "Timonium", "addr:state": "MD", "addr:postcode": "21093", "addr:country": "US", "phone": "(443) 761-6497", "opening_hours": "24/7", "brand": "Royal Farms", "brand:wikidata": "Q7374169"}},
{"type": "Feature", "id": "K3ROex8BM-WVkzaGO0-8_mJwpmY=", "properties": {"ref": "57", "amenity:chargingstation": false, "amenity:fuel": true, "fuel:diesel": null, "fuel:e15": true, "fuel:e85": true, "@spider": "royal_farms", "addr:full": "100 W. Padonia Road", "addr:city": "Timonium", "addr:state": "MD", "addr:postcode": "21093", "addr:country": "US", "phone": "+1 (443) 377-1029", "opening_hours": "24/7", "brand": "Royal Farms", "brand:wikidata": "Q7374169"}},
{"type": "Feature", "id": "WYMUBKbD6QCDUle00AoYEua7cxk=", "properties": {"ref": "19", "amenity:chargingstation": false, "amenity:fuel": false, "fuel:diesel": null, "fuel:e15": null, "fuel:e85": null, "@spider": "royal_farms", "addr:full": "601 Southwick Drive", "addr:city": "Towson", "addr:state": "MD", "addr:postcode": "21286", "addr:country": "US", "phone": "443-761-6498", "brand": "Royal Farms", "brand:wikidata": "Q7374169"}},
{"type": "Feature", "id": "1OrGQvO3Cwt8JPrqueTeUkpZN1k=", "properties": {"ref": "326", "amenity:chargingstation": false, "amenity:fuel": true, "fuel:diesel": null, "fuel:e15": true, "fuel:e85": true, "@spider": "royal_farms", "addr:full": "5351 Ritchie Marlboro Road", "addr:city": "Upper Marlboro", "addr:state": "MD", "addr:postcode": "20774", "addr:country": "US", "phone": "240-326-3046", "opening_hours": "24/7", "brand": "Royal Farms", "brand:wikidata": "Q7374169"}},
{"type": "Feature", "id": "7jVkJscTkeatoQbbz2t6XOBLhNc=", "properties": {"ref": "166", "amenity:chargingstation": false, "amenity:fuel": true, "fuel:diesel": null, "fuel:e15": null, "fuel:e85": null, "@spider": "royal_farms", "addr:full": "1700 Sansbury Road", "addr:city": "Upper Marlboro", "addr:state": "MD", "addr:postcode": "20774", "addr:country": "US", "phone": "(410) 698-0122", "opening_hours": "24/7", "brand": "Royal Farms", "brand:wikidata": "Q7374169"}},
{"type": "Feature", "id": "yXth7ICRQVK_Yer2YIBnRoLn6SQ=", "properties": {"ref": "217", "amenity:chargingstation": true, "amenity:fuel": true, "fuel:diesel": null, "fuel:e15": null, "fuel:e85": null, "@spider": "royal_farms", "addr:full": "9180 Fingerboard Road", "addr:city": "Urbana", "addr:state": "MD", "addr:postcode": "21704", "addr:country": "US", "phone": "(240) 341-0270", "opening_hours": "24/7", "brand": "Royal Farms", "brand:wikidata": "Q7374169"}},
{"type": "Feature", "id": "x-p7dBiH29EAjyGTdrh18V6qqWU=", "properties": {"ref": "62", "amenity:chargingstation": true, "amenity:fuel": true, "fuel:diesel": null, "fuel:e15": null, "fuel:e85": null, "@spider": "royal_farms", "addr:full": "1818 Baltimore Blvd", "addr:city": "Westminster", "addr:state": "MD", "addr:postcode": "21157", "addr:country": "US", "phone": "(410) 701-5104", "opening_hours": "24/7", "brand": "Royal Farms", "brand:wikidata": "Q7374169"}},
{"type": "Feature", "id": "AznUkGvQ03utwYGkLLl-6e8VPsw=", "properties": {"ref": "102", "amenity:chargingstation": true, "amenity:fuel": true, "fuel:diesel": true, "fuel:e15": true, "fuel:e85": true, "@spider": "royal_farms", "addr:full": "10740 Pulaski Hwy", "addr:city": "White Marsh", "addr:state": "MD", "addr:postcode": "21162", "addr:country": "US", "phone": "(410) 344-8057", "opening_hours": "24/7", "brand": "Royal Farms", "brand:wikidata": "Q7374169"}},
{"type": "Feature", "id": "1b87-Sqpt4MKIRThAQu3EFQ2zUQ=", "properties": {"ref": "311", "amenity:chargingstation": false, "amenity:fuel": true, "fuel:diesel": true, "fuel:e15": null, "fuel:e85": null, "@spider": "royal_farms", "addr:full": "5360 Nottingridge Road", "addr:city": "White Marsh", "addr:state": "MD", "addr:postcode": "21236", "addr:country": "US", "phone": "(443) 692-1821", "opening_hours": "24/7", "brand": "Royal Farms", "brand:wikidata": "Q7374169"}}]}