{"type":"FeatureCollection","features":[{"type": "Feature", "id": "1uXdSAgggf0C9Sh9MttjJklC4MI=", "properties": {"ref": "https://www.rubios.com/restaurant-locations/california/san-diego/mission-bay", "@spider": "rubios", "addr:full": "4504 East Mission Bay Drive", "addr:city": "San Diego", "addr:state": "California", "addr:postcode": "92109", "addr:country": "United States", "name": "Mission Bay", "phone": "858-272-2801", "website": "https://www.rubios.com/restaurant-locations/california/san-diego/mission-bay", "opening_hours": "Mon - Thu: 10:30 am-9:00 pm  Fri: 10:30 am-10:00 pm  Sat: 10:30 am-9:00 pm  Sun: 11:00 am-9:00 pm  ", "brand": "Rubio's"}, "geometry": {"type": "Point", "coordinates": [-117.2091628, 32.7809776]}},
{"type": "Feature", "id": "N0SphU02WD21Xmsh60FM9ixShU8=", "properties": {"ref": "https://www.rubios.com/restaurant-locations/california/mission-viejo/shops-mission-viejo", "@spider": "rubios", "addr:full": "555 The Shops at Mission Viejo", "addr:city": "Mission Viejo", "addr:state": "California", "addr:postcode": "92691", "addr:country": "United States", "name": "The Shops at Mission Viejo", "phone": "949-364-5988", "website": "https://www.rubios.com/restaurant-locations/california/mission-viejo/shops-mission-viejo", "opening_hours": "Mon - Fri: 12:00 pm-2:00 pm  ", "brand": "Rubio's"}, "geometry": {"type": "Point", "coordinates": [-117.6691519, 33.5587351]}},
{"type": "Feature", "id": "DmjF1f3nNkV6UeIvACvpibzrDtc=", "properties": {"ref": "https://www.rubios.com/restaurant-locations/california/orange/outlets-orange", "@spider": "rubios", "addr:full": "20 City Boulevard West", "addr:city": "Orange", "addr:state": "California", "addr:postcode": "92868", "addr:country": "United States", "name": "Outlets at Orange", "phone": "714-769-3177", "website": "https://www.rubios.com/restaurant-locations/california/orange/outlets-orange", "opening_hours": "Mon - Wed: 11:00 am-8:00 pm  Thu: 10:30 am-9:00 pm  Fri - Sat: 10:00 am-9:00 pm  Sun: 10:30 am-8:00 pm  ", "brand": "Rubio's"}, "geometry": {"type": "Point", "coordinates": [-117.8929285, 33.7826672]}},
{"type": "Feature", "id": "eUk5lMO8QF2N8CeXDajYlUbAzx8=", "properties": {"ref": "https://www.rubios.com/restaurant-locations/california/san-diego/rancho-bernardo", "@spider": "rubios", "addr:full": "16588 Bernardo Center Drive", "addr:city": "San Diego", "addr:state": "California", "addr:postcode": "92128", "addr:country": "United States", "name": "Rancho Bernardo", "phone": "858-613-7785", "website": "https://www.rubios.com/restaurant-locations/california/san-diego/rancho-bernardo", "opening_hours": "Mon - Sat: 10:00 am-9:00 pm  Sun: 10:30 am-9:00 pm  ", "brand": "Rubio's"}, "geometry": {"type": "Point", "coordinates": [-117.0775235, 33.0150824]}},
{"type": "Feature", "id": "lSqcDyizO8BLErWGInvJT7A1ZzU=", "properties": {"ref": "https://www.rubios.com/restaurant-locations/california/san-diego/scripps-ranch", "@spider": "rubios", "addr:full": "10785 Scripps Poway Pkwy.", "addr:city": "San Diego", "addr:state": "California", "addr:postcode": "92131", "addr:country": "United States", "name": "Scripps Ranch", "phone": "858-578-1981", "website": "https://www.rubios.com/restaurant-locations/california/san-diego/scripps-ranch", "opening_hours": "Mon - Fri: 10:30 am-9:00 pm  Sat: 11:00 am-9:00 pm  Sun: 11:00 am-8:00 pm  ", "brand": "Rubio's"}, "geometry": {"type": "Point", "coordinates": [-117.0968298, 32.9363434]}},
{"type": "Feature", "id": "01CC3XmpOuUDY34TJZ_wBSYKCpQ=", "properties": {"ref": "https://www.rubios.com/restaurant-locations/california/san-diego/mission-gorge", "@spider": "rubios", "addr:full": "10460 Friars Road", "addr:city": "San Diego", "addr:state": "California", "addr:postcode": "92120", "addr:country": "United States", "name": "Mission Gorge", "phone": "619-285-9985", "website": "https://www.rubios.com/restaurant-locations/california/san-diego/mission-gorge", "opening_hours": "Mon - Sun: 10:30 am-9:00 pm  ", "brand": "Rubio's"}, "geometry": {"type": "Point", "coordinates": [-117.0983007, 32.7922038]}},
{"type": "Feature", "id": "pOw0VvllMfPAInvebiNXrn-3NbE=", "properties": {"ref": "https://www.rubios.com/restaurant-locations/california/san-diego/mission-valley", "@spider": "rubios", "addr:full": "2075 Camino de la Reina", "addr:city": "San Diego", "addr:state": "California", "addr:postcode": "92108", "addr:country": "United States", "name": "Mission Valley", "phone": "619-299-6502", "website": "https://www.rubios.com/restaurant-locations/california/san-diego/mission-valley", "opening_hours": "Mon - Sat: 10:00 am-9:00 pm  Sun: 10:00 am-8:30 pm  ", "brand": "Rubio's"}, "geometry": {"type": "Point", "coordinates": [-117.1419628, 32.7711693]}},
{"type": "Feature", "id": "JoZF-L2kooupMvcHHUyywjlGXZ4=", "properties": {"ref": "https://www.rubios.com/restaurant-locations/california/san-diego/kearny-mesa-clairemont-mesa-ruffner-rd", "@spider": "rubios", "addr:full": "7420 Clairemont Mesa Blvd.", "addr:city": "San Diego", "addr:state": "California", "addr:postcode": "92111", "addr:country": "United States", "name": "Kearny Mesa - Clairemont Mesa & Ruffner Rd", "phone": "858-268-5770", "website": "https://www.rubios.com/restaurant-locations/california/san-diego/kearny-mesa-clairemont-mesa-ruffner-rd", "opening_hours": "Mon - Sun: 10:00 am-9:00 pm  ", "brand": "Rubio's"}, "geometry": {"type": "Point", "coordinates": [-117.1584141, 32.8335752]}},
{"type": "Feature", "id": "woL4LuuyBaf0cuEcG-A8IGqb4O4=", "properties": {"ref": "https://www.rubios.com/restaurant-locations/california/san-diego/point-loma", "@spider": "rubios", "addr:full": "3555 Rosecrans Street", "addr:city": "San Diego", "addr:state": "California", "addr:postcode": "92110", "addr:country": "United States", "name": "Point Loma", "phone": "619-223-2631", "website": "https://www.rubios.com/restaurant-locations/california/san-diego/point-loma", "opening_hours": "Mon - Thu: 10:30 am-9:00 pm  Fri: 10:30 am-10:00 pm  Sat: 10:30 am-9:00 pm  Sun: 11:00 am-9:00 pm  ", "brand": "Rubio's"}, "geometry": {"type": "Point", "coordinates": [-117.204728, 32.7498156]}},
{"type": "Feature", "id": "PD85O-LJfExPF0Ywkme7hLwhERQ=", "properties": {"ref": "https://www.rubios.com/restaurant-locations/california/san-diego/pacific-beach", "@spider": "rubios", "addr:full": "910 Grand Avenue", "addr:city": "San Diego", "addr:state": "California", "addr:postcode": "92109", "addr:country": "United States", "name": "Pacific Beach", "phone": "858-270-4800", "website": "https://www.rubios.com/restaurant-locations/california/san-diego/pacific-beach", "opening_hours": "Mon - Sat: 10:30 am-9:00 pm  Sun: 11:00 am-9:00 pm  ", "brand": "Rubio's"}, "geometry": {"type": "Point", "coordinates": [-117.2525086, 32.795607]}},
{"type": "Feature", "id": "R9Kj1eNH4sclXFVuVVdW-g4Y3CU=", "properties": {"ref": "https://www.rubios.com/restaurant-locations/california/san-diego/sorrento-mesa", "@spider": "rubios", "addr:full": "9254 Scranton Road", "addr:city": "San Diego", "addr:state": "California", "addr:postcode": "92121", "addr:country": "United States", "name": "Sorrento Mesa", "phone": "858-678-0611", "website": "https://www.rubios.com/restaurant-locations/california/san-diego/sorrento-mesa", "opening_hours": "Mon - Fri: 10:30 am-8:00 pm  Sat: 10:30 am-5:00 pm  ", "brand": "Rubio's"}, "geometry": {"type": "Point", "coordinates": [-117.201604, 32.8908072]}},
{"type": "Feature", "id": "AnEqADURTXDt-4i-Q0jmGbYnD_o=", "properties": {"ref": "https://www.rubios.com/restaurant-locations/california/san-diego/del-mar", "@spider": "rubios", "addr:full": "3545 Del Mar Heights Road", "addr:city": "San Diego", "addr:state": "California", "addr:postcode": "92130", "addr:country": "United States", "name": "Del Mar", "phone": "858-481-8002", "website": "https://www.rubios.com/restaurant-locations/california/san-diego/del-mar", "opening_hours": "Mon - Sat: 10:30 am-10:00 pm  Sun: 11:00 am-9:00 pm  ", "brand": "Rubio's"}, "geometry": {"type": "Point", "coordinates": [-117.2304534, 32.9540956]}},
{"type": "Feature", "id": "cZ17PIwdhvrg3H9OjnTVhaAKP4E=", "properties": {"ref": "https://www.rubios.com/restaurant-locations/california/san-diego/fashion-valley-mall", "@spider": "rubios", "addr:full": "7007 Friars Road", "addr:city": "San Diego", "addr:state": "California", "addr:postcode": "92108", "addr:country": "United States", "name": "Fashion Valley Mall", "phone": "619-718-9975", "website": "https://www.rubios.com/restaurant-locations/california/san-diego/fashion-valley-mall", "opening_hours": "Mon - Sat: 11:00 am-8:00 pm  Sun: 11:00 am-6:00 pm  ", "brand": "Rubio's"}, "geometry": {"type": "Point", "coordinates": [-117.1633768, 32.7700062]}},
{"type": "Feature", "id": "6YIq7ssKVmw-Y-k39PQ3GXhF-0Y=", "properties": {"ref": "https://www.rubios.com/restaurant-locations/california/los-angeles/ucla", "@spider": "rubios", "addr:full": "308 Westwood Plaza - 1st Floor", "addr:city": "Los Angeles", "addr:state": "California", "addr:postcode": "90024", "addr:country": "United States", "name": "UCLA", "phone": "310-794-4009", "website": "https://www.rubios.com/restaurant-locations/california/los-angeles/ucla", "opening_hours": "Mon - Thu: 10:00 am-9:00 pm  Fri: 10:00 am-8:00 pm  ", "brand": "Rubio's"}, "geometry": {"type": "Point", "coordinates": [-118.444, 34.070374]}},
{"type": "Feature", "id": "b1F0dXmRDhqRfbAZvHaGf7R35Qg=", "properties": {"ref": "https://www.rubios.com/restaurant-locations/california/san-diego/carmel-mountain-ranch", "@spider": "rubios", "addr:full": "12002 Carmel Mountain Road", "addr:city": "San Diego", "addr:state": "California", "addr:postcode": "92128", "addr:country": "United States", "name": "Carmel Mountain Ranch", "phone": "858-675-9398", "website": "https://www.rubios.com/restaurant-locations/california/san-diego/carmel-mountain-ranch", "opening_hours": "Mon - Thu: 10:30 am-9:00 pm  Fri: 10:30 am-10:00 pm  Sat: 10:30 am-9:00 pm  Sun: 11:00 am-9:00 pm  ", "brand": "Rubio's"}, "geometry": {"type": "Point", "coordinates": [-117.0765121, 32.9834642]}},
{"type": "Feature", "id": "sAtYI1NoW7XLXMR2d_EorIFn8zI=", "properties": {"ref": "https://www.rubios.com/restaurant-locations/california/san-diego/la-jolla-towne-center", "@spider": "rubios", "addr:full": "8935 Towne Centre Drive", "addr:city": "San Diego", "addr:state": "California", "addr:postcode": "92122", "addr:country": "United States", "name": "La Jolla - Towne Center", "phone": "858-453-1666", "website": "https://www.rubios.com/restaurant-locations/california/san-diego/la-jolla-towne-center", "opening_hours": "Mon - Sat: 10:30 am-9:00 pm  Sun: 11:00 am-9:00 pm  ", "brand": "Rubio's"}, "geometry": {"type": "Point", "coordinates": [-117.2062237, 32.8678131]}},
{"type": "Feature", "id": "qXY_55DtRtHymE2_w4kK_zmCCE4=", "properties": {"ref": "https://www.rubios.com/restaurant-locations/california/san-diego/sdsu-san-diego-state", "@spider": "rubios", "addr:full": "East Commons Building", "addr:city": "San Diego", "addr:state": "California", "addr:postcode": "92182", "addr:country": "United States", "name": "SDSU - San Diego State", "phone": "619-594-6656", "website": "https://www.rubios.com/restaurant-locations/california/san-diego/sdsu-san-diego-state", "opening_hours": "Mon - Thu: 10:00 am-8:00 pm  Fri: 10:00 am-5:00 pm  ", "brand": "Rubio's"}, "geometry": {"type": "Point", "coordinates": [-117.0703061, 32.7759864]}},
{"type": "Feature", "id": "L8PQ0R1xlEOZolL0pbziOP79OG8=", "properties": {"ref": "https://www.rubios.com/restaurant-locations/california/san-diego/torrey-highlands", "@spider": "rubios", "addr:full": "7836 Highlands Village Place", "addr:city": "San Diego", "addr:state": "California", "addr:postcode": "92129", "addr:country": "United States", "name": "Torrey Highlands", "phone": "858-484-6518", "website": "https://www.rubios.com/restaurant-locations/california/san-diego/torrey-highlands", "opening_hours": "Mon - Fri: 10:30 am-9:00 pm  Sat: 10:30 am-5:00 pm  Sun: 11:00 am-5:00 pm  ", "brand": "Rubio's"}, "geometry": {"type": "Point", "coordinates": [-117.1550142, 32.9622204]}},
{"type": "Feature", "id": "QyLoBby0i0yf6N6-hBDOXKLi7Bo=", "properties": {"ref": "https://www.rubios.com/restaurant-locations/california/san-diego/kearny-mesa-clairemont-mesa-blvd", "@spider": "rubios", "addr:full": "9187 Clairemont Mesa Blvd.", "addr:city": "San Diego", "addr:state": "California", "addr:postcode": "92123", "addr:country": "United States", "name": "Kearny Mesa - Clairemont Mesa Blvd", "phone": "858-278-0726", "website": "https://www.rubios.com/restaurant-locations/california/san-diego/kearny-mesa-clairemont-mesa-blvd", "opening_hours": "Mon - Fri: 10:00 am-9:00 pm  Sat: 10:00 am-8:00 pm  Sun: 10:30 am-8:00 pm  ", "brand": "Rubio's"}, "geometry": {"type": "Point", "coordinates": [-117.1315766, 32.8307902]}},
{"type": "Feature", "id": "tUAqZKmFoOP5IcTMrmzR2qvv2V0=", "properties": {"ref": "https://www.rubios.com/restaurant-locations/california/rolling-hills-estates/rolling-hills", "@spider": "rubios", "addr:full": "550 Deep Valley Drive", "addr:city": "Rolling Hills Estates", "addr:state": "California", "addr:postcode": "90274", "addr:country": "United States", "name": "Rolling Hills", "phone": "310-265-7718", "website": "https://www.rubios.com/restaurant-locations/california/rolling-hills-estates/rolling-hills", "opening_hours": "Mon - Sun: 11:00 am-7:00 pm  ", "brand": "Rubio's"}, "geometry": {"type": "Point", "coordinates": [-118.3731306, 33.772589]}},
{"type": "Feature", "id": "_5MopJg8AYB-OoBxgl2DGjcOyQs=", "properties": {"ref": "https://www.rubios.com/restaurant-locations/california/san-diego/mira-mesa", "@spider": "rubios", "addr:full": "10732 Westview Parkway", "addr:city": "San Diego", "addr:state": "California", "addr:postcode": "92126", "addr:country": "United States", "name": "Mira Mesa", "phone": "858-831-0634", "website": "https://www.rubios.com/restaurant-locations/california/san-diego/mira-mesa", "opening_hours": "Mon - Sat: 10:00 am-10:00 pm  Sun: 10:30 am-9:00 pm  ", "brand": "Rubio's"}, "geometry": {"type": "Point", "coordinates": [-117.1208453, 32.9159605]}}]}