{"type":"FeatureCollection","features":[{"type": "Feature", "id": "Ra5ktpmJP538PTLDiRcWOCiqq3U=", "properties": {"ref": "21322", "@spider": "safeway_ca", "addr:full": "8100-100 Street", "addr:city": "Grande  Prairie", "addr:state": "ab", "addr:postcode": "T8V 6H7", "name": "Safeway Southview Safeway", "phone": "780-833-8620", "website": "https://www.safeway.ca/stores/safeway-southview/", "opening_hours": "Mo-Su 07:00-22:00", "brand": "Safeway", "brand:wikidata": "Q17111901"}, "geometry": {"type": "Point", "coordinates": [-118.794939, 55.155617]}},
{"type": "Feature", "id": "At85oqqgOq6wkTqSg2h0QL4I7Ag=", "properties": {"ref": "11753", "@spider": "safeway_ca", "addr:full": "6401 120 Street", "addr:city": "Delta", "addr:state": "bc", "addr:postcode": "V4E 3G3", "name": "Safeway Sunshine Hills Safeway", "phone": "604-596-4885", "website": "https://www.safeway.ca/stores/safeway-sunshine-hills/", "opening_hours": "Mo-Su 07:00-22:00", "brand": "Safeway", "brand:wikidata": "Q17111901"}, "geometry": {"type": "Point", "coordinates": [-122.8929, 49.1199]}},
{"type": "Feature", "id": "selBpmwq4DuLExir0hDl-Z43nts=", "properties": {"ref": "11751", "@spider": "safeway_ca", "addr:full": "2733 WestBroadway", "addr:city": "Vancouver", "addr:state": "bc", "addr:postcode": "V6K 2G5", "name": "Safeway West Broadway Safeway", "phone": "604-732-5226", "website": "https://www.safeway.ca/stores/safeway-west-broadway/", "opening_hours": "Mo-Su 07:00-23:00", "brand": "Safeway", "brand:wikidata": "Q17111901"}, "geometry": {"type": "Point", "coordinates": [-123.1675, 49.2648]}},
{"type": "Feature", "id": "6eVgHG7eB5sHmmEZxupg3SDyjmc=", "properties": {"ref": "11760", "@spider": "safeway_ca", "addr:full": "6153-200 Street", "addr:city": "Langley", "addr:state": "bc", "addr:postcode": "V2Y 1A2", "name": "Safeway Willowbrook Park Safeway", "phone": "604-533-3291", "website": "https://www.safeway.ca/stores/safeway-willowbrook-park/", "opening_hours": "Mo-Su 07:00-22:00", "brand": "Safeway", "brand:wikidata": "Q17111901"}, "geometry": {"type": "Point", "coordinates": [-122.6717, 49.1146]}},
{"type": "Feature", "id": "wbaDKPLiyfUYlT1tvkYr7mGxiOs=", "properties": {"ref": "11759", "@spider": "safeway_ca", "addr:full": "5385 Headland Drive West", "addr:city": "Vancouver", "addr:state": "bc", "addr:postcode": "V7W 3C7", "name": "Safeway Caulfeild Village Safeway", "phone": "604-926-2550", "website": "https://www.safeway.ca/stores/safeway-caulfeild-village/", "opening_hours": "Mo-Sa 07:00-21:00; Su 07:00-19:00", "brand": "Safeway", "brand:wikidata": "Q17111901"}, "geometry": {"type": "Point", "coordinates": [-123.2528, 49.351]}},
{"type": "Feature", "id": "YhwJc7mlOcnzop_oFtct_Tz6smo=", "properties": {"ref": "11748", "@spider": "safeway_ca", "addr:full": "780 2601 Westview Drive", "addr:city": "North Vancouver", "addr:state": "bc", "addr:postcode": "V7N 3X4", "name": "Safeway Westview Mall Safeway", "phone": "604-988-6645", "website": "https://www.safeway.ca/stores/safeway-westview-mall/", "opening_hours": "Mo-Su 07:00-22:00", "brand": "Safeway", "brand:wikidata": "Q17111901"}, "geometry": {"type": "Point", "coordinates": [-123.0909, 49.3331]}},
{"type": "Feature", "id": "nO6XQpRww6z8YX-83crVbqoPGlo=", "properties": {"ref": "11761", "@spider": "safeway_ca", "addr:full": "4300-32 Street", "addr:city": "Vernon", "addr:state": "bc", "addr:postcode": "V1T 9H1", "name": "Safeway Vernon Square Mall Safeway", "phone": "250-542-2627", "website": "https://www.safeway.ca/stores/safeway-vernon-square-mall/", "opening_hours": "Mo-Su 07:00-23:00", "brand": "Safeway", "brand:wikidata": "Q17111901"}, "geometry": {"type": "Point", "coordinates": [-119.276, 50.2756]}},
{"type": "Feature", "id": "clh-2uIFSNCxs5Jh6tdcGWLO5ZM=", "properties": {"ref": "11758", "@spider": "safeway_ca", "addr:full": "1766 Robson Street", "addr:city": "Vancouver", "addr:state": "bc", "addr:postcode": "V6G 1E2", "name": "Safeway Robson Safeway", "phone": "604-683-6155", "website": "https://www.safeway.ca/stores/safeway-robson/", "opening_hours": "Mo-Su 07:00-23:00", "brand": "Safeway", "brand:wikidata": "Q17111901"}, "geometry": {"type": "Point", "coordinates": [-123.135023, 49.290778]}},
{"type": "Feature", "id": "ovSzlXUdya-hH8innNgJp8z1XPM=", "properties": {"ref": "11756", "@spider": "safeway_ca", "addr:full": "6564 East Hastings Street", "addr:city": "Burnaby", "addr:state": "bc", "addr:postcode": "V5B 1S2", "name": "Safeway Kensington Square Safeway", "phone": "604-291-2901", "website": "https://www.safeway.ca/stores/safeway-kensington-square/", "opening_hours": "Mo-Su 07:00-22:00", "brand": "Safeway", "brand:wikidata": "Q17111901"}, "geometry": {"type": "Point", "coordinates": [-123.0047, 49.2803]}},
{"type": "Feature", "id": "tMriB0tP9YF_WJQqYUdjrqxkACM=", "properties": {"ref": "11754", "@spider": "safeway_ca", "addr:full": "4440 Hastings Street", "addr:city": "Burnaby", "addr:state": "bc", "addr:postcode": "V5C 2K2", "name": "Safeway Burnaby Heights Safeway", "phone": "604-205-6922", "website": "https://www.safeway.ca/stores/safeway-burnaby-heights/", "opening_hours": "Mo-Su 07:00-22:00", "brand": "Safeway", "brand:wikidata": "Q17111901"}, "geometry": {"type": "Point", "coordinates": [-123.0047, 49.2803]}},
{"type": "Feature", "id": "fqDihzOF8THwVLOOEOwjCmigWwA=", "properties": {"ref": "11755", "@spider": "safeway_ca", "addr:full": "20871 Fraser Highway", "addr:city": "Langley", "addr:state": "bc", "addr:postcode": "V3A 4G7", "name": "Safeway Langley Fraser Safeway", "phone": "604-534-4363", "website": "https://www.safeway.ca/stores/safeway-langley-fraser/", "opening_hours": "Mo-Su 07:00-23:00", "brand": "Safeway", "brand:wikidata": "Q17111901"}, "geometry": {"type": "Point", "coordinates": [-122.6435, 49.1025]}},
{"type": "Feature", "id": "nqi6SE0OYgpfwCVu7HK9Pt7_dNo=", "properties": {"ref": "11776", "@spider": "safeway_ca", "addr:full": "1100 2850 Shaughnessy Street", "addr:city": "Port Coquitlam", "addr:state": "bc", "addr:postcode": "V3C 6K5", "name": "Safeway Shaughnessy Station Safeway", "phone": "604-945-4072", "website": "https://www.safeway.ca/stores/safeway-shaughnessy-station/", "opening_hours": "Mo-Su 07:00-22:00", "brand": "Safeway", "brand:wikidata": "Q17111901"}, "geometry": {"type": "Point", "coordinates": [-122.7746, 49.2655]}},
{"type": "Feature", "id": "BJ05nOaNQ4ZYQyqWhv-8vMkZaaM=", "properties": {"ref": "11775", "@spider": "safeway_ca", "addr:full": "100, 4915 - 130 Avenue SE", "addr:city": "Calgary", "addr:state": "ab", "addr:postcode": "T2Z 3V8", "name": "Safeway South Trail Crossing Safeway", "phone": "403-257-8510", "website": "https://www.safeway.ca/stores/safeway-south-trail-crossing/", "opening_hours": "Mo-Su 07:00-22:00", "brand": "Safeway", "brand:wikidata": "Q17111901"}, "geometry": {"type": "Point", "coordinates": [-113.963445, 50.930296]}},
{"type": "Feature", "id": "2qqZ5Ybf4zfKt4OgLCMlzGFQS2I=", "properties": {"ref": "11771", "@spider": "safeway_ca", "addr:full": "3410 Kingsway Street", "addr:city": "Vancouver", "addr:state": "bc", "addr:postcode": "V5R 5L4", "name": "Safeway Collingwood Safeway", "phone": "604-439-0090", "website": "https://www.safeway.ca/stores/safeway-collingwood/", "opening_hours": "Mo-Su 07:00-23:00", "brand": "Safeway", "brand:wikidata": "Q17111901"}, "geometry": {"type": "Point", "coordinates": [-123.0334, 49.2318]}},
{"type": "Feature", "id": "e0GHgqeY8NFdnWAwJMxCl98zxIE=", "properties": {"ref": "11770", "@spider": "safeway_ca", "addr:full": "220 800 Carnarvon Street", "addr:city": "New Westminster", "addr:state": "bc", "addr:postcode": "V3M 0G3", "name": "Safeway New Westminster Station Safeway", "phone": "604-522-2019", "website": "https://www.safeway.ca/stores/safeway-new-westminster-station/", "opening_hours": "Mo-Su 06:00-23:00", "brand": "Safeway", "brand:wikidata": "Q17111901"}, "geometry": {"type": "Point", "coordinates": [-122.9123, 49.2015]}},
{"type": "Feature", "id": "XpxUxvS-Pl1cA8ZEnaa0MF3XSoU=", "properties": {"ref": "11769", "@spider": "safeway_ca", "addr:full": "1599 2 Avenue", "addr:city": "Trail", "addr:state": "bc", "addr:postcode": "V1R 1M3", "name": "Safeway Trail Safeway", "phone": "250-368-8710", "website": "https://www.safeway.ca/stores/safeway-trail/", "opening_hours": "Mo-Su 07:00-21:00", "brand": "Safeway", "brand:wikidata": "Q17111901"}, "geometry": {"type": "Point", "coordinates": [-117.701, 49.098]}},
{"type": "Feature", "id": "C6ht8jVdTAp-ZGwQGpq1Hblbegg=", "properties": {"ref": "11830", "@spider": "safeway_ca", "addr:full": "375 Aspen Glen Landing SW", "addr:city": "Calgary", "addr:state": "ab", "addr:postcode": "T3H 0N6", "name": "Safeway Aspen Safeway", "phone": "403-217-5521", "website": "https://www.safeway.ca/stores/safeway-aspen/", "opening_hours": "Mo-Su 07:00-22:00", "brand": "Safeway", "brand:wikidata": "Q17111901"}, "geometry": {"type": "Point", "coordinates": [-114.208899, 51.041034]}},
{"type": "Feature", "id": "6Yo_Co55PK_C65Lt0MujKgnkJcs=", "properties": {"ref": "11852", "@spider": "safeway_ca", "addr:full": "70 North Court Street", "addr:city": "Thunder Bay", "addr:state": "on", "addr:postcode": "P7B 2Z3", "name": "Safeway Court Street Pharmacy Only Safeway", "phone": "807-345-2651", "website": "https://www.safeway.ca/stores/safeway-court-street/", "opening_hours": "Mo-Fr 09:00-21:00; Sa-Su 10:00-18:00", "brand": "Safeway", "brand:wikidata": "Q17111901"}, "geometry": {"type": "Point", "coordinates": [-89.219769, 48.438673]}},
{"type": "Feature", "id": "fuL7xG386fXqNGgisIS8t3XPCbI=", "properties": {"ref": "11859", "@spider": "safeway_ca", "addr:full": "1612 Ness Avenue", "addr:city": "Winnipeg", "addr:state": "mb", "addr:postcode": "R3J 3X3", "name": "Safeway Madison Square Safeway", "phone": "204-775-6348", "website": "https://www.safeway.ca/stores/safeway-madison-square/", "opening_hours": "Mo-Su 07:00-23:00", "brand": "Safeway", "brand:wikidata": "Q17111901"}, "geometry": {"type": "Point", "coordinates": [-97.203704, 49.883497]}},
{"type": "Feature", "id": "0-Fvt0YjiF1KV-L6IyJOz6P9muQ=", "properties": {"ref": "11858", "@spider": "safeway_ca", "addr:full": "1441 Henderson Hwy", "addr:city": "Winnipeg", "addr:state": "mb", "addr:postcode": "R2G 1N4", "name": "Safeway River East Plaza Safeway", "phone": "204-338-4600", "website": "https://www.safeway.ca/stores/safeway-river-east-plaza/", "opening_hours": "Mo-Su 07:00-23:00", "brand": "Safeway", "brand:wikidata": "Q17111901"}, "geometry": {"type": "Point", "coordinates": [-97.082666, 49.94605]}},
{"type": "Feature", "id": "8FhPfr7Olc5E3cG7zwIcLXqzrEo=", "properties": {"ref": "11857", "@spider": "safeway_ca", "addr:full": "100, 135 Chestermere Station Way", "addr:city": "Chestermere", "addr:state": "ab", "addr:postcode": "T1X 1V2", "name": "Safeway Chestermere Safeway", "phone": "403-410-9700", "website": "https://www.safeway.ca/stores/safeway-chestermere/", "opening_hours": "Mo-Su 07:00-22:00", "brand": "Safeway", "brand:wikidata": "Q17111901"}, "geometry": {"type": "Point", "coordinates": [-113.825183, 51.049804]}},
{"type": "Feature", "id": "pGo6RHunQoF_AOk8YvG3ezIPWiI=", "properties": {"ref": "11854", "@spider": "safeway_ca", "addr:full": "417 Scott Street", "addr:city": "Fort Frances", "addr:state": "on", "addr:postcode": "P9A 1H3", "name": "Safeway Fort Frances Safeway", "phone": "807-274-4521", "website": "https://www.safeway.ca/stores/safeway-fort-frances/", "opening_hours": "Mo-Sa 07:00-22:00; Su 08:00-20:00", "brand": "Safeway", "brand:wikidata": "Q17111901"}, "geometry": {"type": "Point", "coordinates": [-93.391355, 48.60964]}},
{"type": "Feature", "id": "7NhZcXKbieNeAHAEegVrrJvVKSs=", "properties": {"ref": "11853", "@spider": "safeway_ca", "addr:full": "400 First Avenue South", "addr:city": "Kenora", "addr:state": "on", "addr:postcode": "P9N 3X7", "name": "Safeway Kenora Safeway", "phone": "807-468-9023", "website": "https://www.safeway.ca/stores/safeway-kenora/", "opening_hours": "Mo-Sa 07:00-22:00; Su 08:00-20:00", "brand": "Safeway", "brand:wikidata": "Q17111901"}, "geometry": {"type": "Point", "coordinates": [-94.48616, 49.76606]}},
{"type": "Feature", "id": "tLpkUJTyffUMzplrKynefGtNi2k=", "properties": {"ref": "11773", "@spider": "safeway_ca", "addr:full": "200 2 Avenue West", "addr:city": "Price Rupert", "addr:state": "bc", "addr:postcode": "V8J 1G5", "name": "Safeway Prince Rupert Safeway", "phone": "250-624-2412", "website": "https://www.safeway.ca/stores/safeway-prince-rupert/", "opening_hours": "Mo-Su 07:00-22:00", "brand": "Safeway", "brand:wikidata": "Q17111901"}, "geometry": {"type": "Point", "coordinates": [-130.3248, 54.3147]}},
{"type": "Feature", "id": "2WoLpT5_3l1u0IJ4tns6PRPBlNg=", "properties": {"ref": "11855", "@spider": "safeway_ca", "addr:full": "75 Whyte Avenue,", "addr:city": "Dryden", "addr:state": "on", "addr:postcode": "P8N 3E6", "name": "Safeway Dryden Safeway", "phone": "807-223-3276", "website": "https://www.safeway.ca/stores/safeway-dryden/", "opening_hours": "Mo-Sa 07:00-22:00; Su 08:00-20:00", "brand": "Safeway", "brand:wikidata": "Q17111901"}, "geometry": {"type": "Point", "coordinates": [-92.838787, 49.782077]}},
{"type": "Feature", "id": "u7oPiodxJFhv-m56JAVb_FUdrhQ=", "properties": {"ref": "11851", "@spider": "safeway_ca", "addr:full": "3737-37 Street SW", "addr:city": "Calgary", "addr:state": "ab", "addr:postcode": "T3E 6L6", "name": "Safeway Glamorgan Safeway", "phone": "403-698-8222", "website": "https://www.safeway.ca/stores/safeway-glamorgan/", "opening_hours": "Mo-Su 07:00-22:00", "brand": "Safeway", "brand:wikidata": "Q17111901"}, "geometry": {"type": "Point", "coordinates": [-114.142041, 51.020723]}},
{"type": "Feature", "id": "wHS6hzd19ePKoYpvqULTF-deTXI=", "properties": {"ref": "11892", "@spider": "safeway_ca", "addr:full": "399 36 Street NE", "addr:city": "Calgary", "addr:state": "ab", "addr:postcode": "T2A 7R4", "name": "Safeway Northgate Calgary Safeway", "phone": "403-248-0848", "website": "https://www.safeway.ca/stores/safeway-northgate-calgary/", "opening_hours": "Mo-Su 07:00-22:00", "brand": "Safeway", "brand:wikidata": "Q17111901"}, "geometry": {"type": "Point", "coordinates": [-113.984972, 51.054311]}},
{"type": "Feature", "id": "oSoU12S3TITRsmEW-2V3pUw20V8=", "properties": {"ref": "11891", "@spider": "safeway_ca", "addr:full": "2223 Victoria Avenue East", "addr:city": "Regina", "addr:state": "sk", "addr:postcode": "S4N 6E4", "name": "Safeway Victoria Square Safeway", "phone": "306-789-3191", "website": "https://www.safeway.ca/stores/safeway-victoria-square/", "opening_hours": "Mo-Sa 07:00-22:00; Su 07:00-21:00", "brand": "Safeway", "brand:wikidata": "Q17111901"}, "geometry": {"type": "Point", "coordinates": [-104.550554, 50.444642]}},
{"type": "Feature", "id": "3_4TGpqgfuP2ewMqEUehWRX4Fk4=", "properties": {"ref": "11889", "@spider": "safeway_ca", "addr:full": "200 1st Ave NW", "addr:city": "Moose Jaw", "addr:state": "sk", "addr:postcode": "S6H 1K9", "name": "Moose Jaw Safeway", "phone": "306-693-8033", "website": "https://www.safeway.ca/stores/moose-jaw/", "opening_hours": "Mo-Sa 08:00-21:00; Su 10:00-19:00", "brand": "Safeway", "brand:wikidata": "Q17111901"}, "geometry": {"type": "Point", "coordinates": [-105.538531, 50.392082]}},
{"type": "Feature", "id": "xSDvGOU0-dJBQOicKqN1y2pL3r8=", "properties": {"ref": "11856", "@spider": "safeway_ca", "addr:full": "594 Mountain At McGregor", "addr:city": "Winnipeg", "addr:state": "mb", "addr:postcode": "R2W 1L2", "name": "Safeway Mountain and McGregor Safeway", "phone": "204-589-2588", "website": "https://www.safeway.ca/stores/safeway-mountain-and-mcgregor/", "opening_hours": "Mo-Su 07:00-21:30", "brand": "Safeway", "brand:wikidata": "Q17111901"}, "geometry": {"type": "Point", "coordinates": [-97.143463, 49.924079]}},
{"type": "Feature", "id": "ha_qAfPkADcaTk7LxVNAMFSR77Q=", "properties": {"ref": "11887", "@spider": "safeway_ca", "addr:full": "1 Springs Drive", "addr:city": "Swift Current", "addr:state": "sk", "addr:postcode": "S9H 3X6", "name": "Safeway Swift Current Safeway", "phone": "306-773-6325", "website": "https://www.safeway.ca/stores/safeway-swift-current/", "opening_hours": "Mo-Su 08:00-21:00", "brand": "Safeway", "brand:wikidata": "Q17111901"}, "geometry": {"type": "Point", "coordinates": [-107.780321, 50.304355]}},
{"type": "Feature", "id": "7WMo1nWik8MkCUZZFqAGGkKzTdM=", "properties": {"ref": "11886", "@spider": "safeway_ca", "addr:full": "3015 Gordon Road", "addr:city": "Regina", "addr:state": "sk", "addr:postcode": "S4S 6H7", "name": "Safeway Southland Mall Safeway", "phone": "306-586-5140", "website": "https://www.safeway.ca/stores/safeway-southland-mall/", "opening_hours": "Mo-Sa 07:00-22:00; Su 07:00-21:00", "brand": "Safeway", "brand:wikidata": "Q17111901"}, "geometry": {"type": "Point", "coordinates": [-104.62509, 50.404921]}},
{"type": "Feature", "id": "WTBZd-JX_aDYgDS0swuB9tbdNB0=", "properties": {"ref": "11885", "@spider": "safeway_ca", "addr:full": "2931 13 Avenue", "addr:city": "Regina", "addr:state": "sk", "addr:postcode": "S4T 1N8", "name": "Safeway Cathedral Safeway", "phone": "306-522-5453", "website": "https://www.safeway.ca/stores/safeway-cathedral/", "opening_hours": "Mo-Sa 07:00-22:00; Su 07:00-21:00", "brand": "Safeway", "brand:wikidata": "Q17111901"}, "geometry": {"type": "Point", "coordinates": [-104.623516, 50.445499]}},
{"type": "Feature", "id": "cOM23gZ2Z2pgZrWtkSCvp0P7lHI=", "properties": {"ref": "11915", "@spider": "safeway_ca", "addr:full": "6112 50 Street", "addr:city": "Leduc", "addr:state": "ab", "addr:postcode": "T9E 6N7", "name": "Safeway Leduc Safeway", "phone": "780-986-0407", "website": "https://www.safeway.ca/stores/safeway-leduc/", "opening_hours": "Mo-Su 07:00-22:00", "brand": "Safeway", "brand:wikidata": "Q17111901"}, "geometry": {"type": "Point", "coordinates": [-113.548979, 53.274004]}},
{"type": "Feature", "id": "F68LXLIwqtfhYfcDgCRKx-qHjtc=", "properties": {"ref": "11914", "@spider": "safeway_ca", "addr:full": "5005 Dalhousie Drive NW", "addr:city": "Calgary", "addr:state": "ab", "addr:postcode": "T3A 5R8", "name": "Safeway Dalhousie Station Safeway", "phone": "403-202-0425", "website": "https://www.safeway.ca/stores/safeway-dalhousie-station/", "opening_hours": "Mo-Su 07:00-22:00", "brand": "Safeway", "brand:wikidata": "Q17111901"}, "geometry": {"type": "Point", "coordinates": [-114.161659, 51.105916]}},
{"type": "Feature", "id": "A4NdXdksn68hc2eKk6lNrKczSXk=", "properties": {"ref": "11913", "@spider": "safeway_ca", "addr:full": "1600 90 Avenue SW", "addr:city": "Calgary", "addr:state": "ab", "addr:postcode": "T2V 5A8", "name": "Safeway Glenmore Landing Safeway", "phone": "403-255-2755", "website": "https://www.safeway.ca/stores/safeway-glenmore-landing/", "opening_hours": "Mo-Su 07:00-22:00", "brand": "Safeway", "brand:wikidata": "Q17111901"}, "geometry": {"type": "Point", "coordinates": [-114.097293, 50.973935]}},
{"type": "Feature", "id": "CNHXqvHi_Sh6g0w7qB2S47EvV6c=", "properties": {"ref": "11912", "@spider": "safeway_ca", "addr:full": "11011 Bonaventure Drive SE", "addr:city": "Calgary", "addr:state": "ab", "addr:postcode": "T2J 6S1", "name": "Safeway Southcentre Safeway", "phone": "403-278-5225", "website": "https://www.safeway.ca/stores/safeway-southcentre/", "opening_hours": "Mo-Su 07:00-22:00", "brand": "Safeway", "brand:wikidata": "Q17111901"}, "geometry": {"type": "Point", "coordinates": [-114.060913, 50.953436]}},
{"type": "Feature", "id": "v6f3pDn6jbBWk3XQZJofx2IGR20=", "properties": {"ref": "11911", "@spider": "safeway_ca", "addr:full": "3550 32 Avenue NE", "addr:city": "Calgary", "addr:state": "ab", "addr:postcode": "T1Y 6J2", "name": "Safeway Whitehorn Safeway", "phone": "403-291-2035", "website": "https://www.safeway.ca/stores/safeway-whitehorn/", "opening_hours": "Mo-Su 07:00-22:00", "brand": "Safeway", "brand:wikidata": "Q17111901"}, "geometry": {"type": "Point", "coordinates": [-113.984355, 51.081503]}},
{"type": "Feature", "id": "hauMhnoWSH8XUpxxRSaIBXyO7z4=", "properties": {"ref": "11922", "@spider": "safeway_ca", "addr:full": "11410 -104 Avenue NW", "addr:city": "Edmonton", "addr:state": "ab", "addr:postcode": "T5K 2S5", "name": "Safeway Oliver Safeway", "phone": "780-424-1087", "website": "https://www.safeway.ca/stores/safeway-oliver/", "opening_hours": "Mo-Su 07:00-22:00", "brand": "Safeway", "brand:wikidata": "Q17111901"}, "geometry": {"type": "Point", "coordinates": [-113.51851, 53.546746]}},
{"type": "Feature", "id": "tGE_ADeGI3mVI1TtZIAHYdh0X40=", "properties": {"ref": "11921", "@spider": "safeway_ca", "addr:full": "8720 156 Street", "addr:city": "Edmonton", "addr:state": "ab", "addr:postcode": "T5R 5W9", "name": "Safeway Meadowlark Safeway", "phone": "780-486-0584", "website": "https://www.safeway.ca/stores/safeway-meadowlark/", "opening_hours": "Mo-Su 07:00-22:00", "brand": "Safeway", "brand:wikidata": "Q17111901"}, "geometry": {"type": "Point", "coordinates": [-113.592977, 53.521076]}},
{"type": "Feature", "id": "j7e3dLLXKUZF1w9uWn7PeZ9Htjk=", "properties": {"ref": "11923", "@spider": "safeway_ca", "addr:full": "9925 -114 Avenue", "addr:city": "Grande  Prairie", "addr:state": "ab", "addr:postcode": "T8V 4A9", "name": "Safeway Northgate Grande Prarie Safeway", "phone": "780-532-7517", "website": "https://www.safeway.ca/stores/safeway-northgate-grande-prarie/", "opening_hours": "Mo-Su 07:00-22:00", "brand": "Safeway", "brand:wikidata": "Q17111901"}, "geometry": {"type": "Point", "coordinates": [-118.804844, 55.183848]}},
{"type": "Feature", "id": "V2jZWc30qvBTefaQl7yg73L0kw8=", "properties": {"ref": "11920", "@spider": "safeway_ca", "addr:full": "2750 Fairway Plaza Road South", "addr:city": "Lethbridge", "addr:state": "ab", "addr:postcode": "T1K 6Z3", "name": "Safeway Fairway Plaza Safeway", "phone": "403-328-8444", "website": "https://www.safeway.ca/stores/safeway-fairway-plaza/", "opening_hours": "Mo-Su 07:00-22:00", "brand": "Safeway", "brand:wikidata": "Q17111901"}, "geometry": {"type": "Point", "coordinates": [-112.793798, 49.666198]}},
{"type": "Feature", "id": "kJ6yIZrvAhjvqPfGsPs4WpU1DZU=", "properties": {"ref": "11919", "@spider": "safeway_ca", "addr:full": "200 Stewart Green SW", "addr:city": "Calgary", "addr:state": "ab", "addr:postcode": "T3H 3C8", "name": "Safeway Westhills Towne Centre Safeway", "phone": "403-246-4484", "website": "https://www.safeway.ca/stores/safeway-westhills-towne-centre/", "opening_hours": "Mo-Su 07:00-22:00", "brand": "Safeway", "brand:wikidata": "Q17111901"}, "geometry": {"type": "Point", "coordinates": [-114.168041, 51.014532]}},
{"type": "Feature", "id": "bJWD_3WTiz_qa8BlJi7EGnRGvNA=", "properties": {"ref": "11917", "@spider": "safeway_ca", "addr:full": "300 2 Hebert Road", "addr:city": "St. Albert", "addr:state": "ab", "addr:postcode": "T8N 5T8", "name": "Safeway Gateway Village Centre RX Safeway", "phone": "780-460-9356", "website": "https://www.safeway.ca/stores/safeway-gateway-village-centre/", "opening_hours": "24/7", "brand": "Safeway", "brand:wikidata": "Q17111901"}, "geometry": {"type": "Point", "coordinates": [-113.606556, 53.622474]}},
{"type": "Feature", "id": "oJ0om8ZcsSTOL9AfyQwgnKvLzK8=", "properties": {"ref": "11904", "@spider": "safeway_ca", "addr:full": "99 Crowfoot Crescent NW", "addr:city": "Calgary", "addr:state": "ab", "addr:postcode": "T3G 2L5", "name": "Safeway Crowfoot Safeway", "phone": "403-239-9000", "website": "https://www.safeway.ca/stores/safeway-crowfoot/", "opening_hours": "Mo-Su 07:00-22:00", "brand": "Safeway", "brand:wikidata": "Q17111901"}, "geometry": {"type": "Point", "coordinates": [-114.200648, 51.125262]}},
{"type": "Feature", "id": "-qqmt9SvI8mbb_cAIvSNBQeHaw4=", "properties": {"ref": "11825", "@spider": "safeway_ca", "addr:full": "94 Mcleod Avenue", "addr:city": "Spruce Grove", "addr:state": "ab", "addr:postcode": "T7X 1R2", "name": "Safeway Spruce Grove Safeway", "phone": "780-962-9183", "website": "https://www.safeway.ca/stores/safeway-spruce-grove/", "opening_hours": "Mo-Su 07:00-22:00", "brand": "Safeway", "brand:wikidata": "Q17111901"}, "geometry": {"type": "Point", "coordinates": [-113.911416, 53.542405]}},
{"type": "Feature", "id": "C05BgS3QzariRnhC_NOKyr0Pnjc=", "properties": {"ref": "11806", "@spider": "safeway_ca", "addr:full": "9123-100 Street", "addr:city": "Fort St. John", "addr:state": "bc", "addr:postcode": "V1J 3X3", "name": "Safeway Fort St. John Safeway", "phone": "250-261-5477", "website": "https://www.safeway.ca/stores/safeway-fort-st-john/", "opening_hours": "Mo-Su 06:00-23:00", "brand": "Safeway", "brand:wikidata": "Q17111901"}, "geometry": {"type": "Point", "coordinates": [-120.8453, 56.2381]}},
{"type": "Feature", "id": "IXvUqiqKcnIcXrbBL8OSzMV3xM8=", "properties": {"ref": "11763", "@spider": "safeway_ca", "addr:full": "700 15355 -24 Avenue", "addr:city": "Surrey", "addr:state": "bc", "addr:postcode": "V4A 2H9", "name": "Safeway Peninsula Village Safeway", "phone": "604-535-8960", "website": "https://www.safeway.ca/stores/safeway-peninsula-village/", "opening_hours": "Mo-Su 07:00-22:00", "brand": "Safeway", "brand:wikidata": "Q17111901"}, "geometry": {"type": "Point", "coordinates": [-122.7958, 49.0469]}},
{"type": "Feature", "id": "rFv4XdWAojBPjHhTPOz7ULPjgJU=", "properties": {"ref": "21422", "@spider": "safeway_ca", "addr:full": "1611 Davie St", "addr:city": "Vancouver", "addr:state": "bc", "addr:postcode": "V6G 1W1", "name": "Safeway Davie Street Safeway", "phone": "604-669-8313", "website": "https://www.safeway.ca/stores/safeway-davie-street/", "opening_hours": "Mo-Su 07:00-23:00", "brand": "Safeway", "brand:wikidata": "Q17111901"}, "geometry": {"type": "Point", "coordinates": [-123.138921, 49.285748]}},
{"type": "Feature", "id": "SZHWia27zCNeRhbR7ffJnEYr3qA=", "properties": {"ref": "11888", "@spider": "safeway_ca", "addr:full": "2995 2nd Ave W", "addr:city": "Prince Albert", "addr:state": "sk", "addr:postcode": "S6V 5V5", "name": "South Hill Mall Safeway", "phone": "306-922-1242", "website": "https://www.safeway.ca/stores/south-hill-mall/", "opening_hours": "Mo-Su 08:00-22:00", "brand": "Safeway", "brand:wikidata": "Q17111901"}, "geometry": {"type": "Point", "coordinates": [-105.763534, 53.185731]}},
{"type": "Feature", "id": "XfvMjx3hus-guS6rNmwQqKm7MmM=", "properties": {"ref": "21449", "@spider": "safeway_ca", "addr:full": "2101 Lahb Ave", "addr:city": "Vancouver", "addr:state": "bc", "addr:postcode": "V6L 0B9", "name": "Safeway Arbutus Safeway", "phone": "604-731-5331", "website": "https://www.safeway.ca/stores/safeway-arbutus/", "opening_hours": "Mo-Su 07:00-23:00", "brand": "Safeway", "brand:wikidata": "Q17111901"}, "geometry": {"type": "Point", "coordinates": [-123.154008, 49.248882]}},
{"type": "Feature", "id": "iDKyMKU95EcCDF5hyxr4Rn_8KNY=", "properties": {"ref": "18701", "@spider": "safeway_ca", "addr:full": "1033 Austin Ave", "addr:city": "Coquitlam", "addr:state": "bc", "addr:postcode": "V3K 3P2", "name": "Safeway Austin Heights Safeway", "phone": "604-939-2850", "website": "https://www.safeway.ca/stores/safeway-austin-heights/", "opening_hours": "Mo-Su 07:00-22:00", "brand": "Safeway", "brand:wikidata": "Q17111901"}, "geometry": {"type": "Point", "coordinates": [-122.8655, 49.2494]}},
{"type": "Feature", "id": "jffkRIdxWxcEQDpSIcort0pVTsA=", "properties": {"ref": "11931", "@spider": "safeway_ca", "addr:full": "2020 Sherwood Drive", "addr:city": "Sherwood Park", "addr:state": "ab", "addr:postcode": "T8A 3H9", "name": "Safeway Sherwood Park Mall Safeway", "phone": "780-467-3037", "website": "https://www.safeway.ca/stores/safeway-sherwood-park-mall/", "opening_hours": "Mo-Su 07:00-22:00", "brand": "Safeway", "brand:wikidata": "Q17111901"}, "geometry": {"type": "Point", "coordinates": [-113.293332, 53.529111]}},
{"type": "Feature", "id": "pzuMaDojDo6S8GrRxqsZyDe-lRU=", "properties": {"ref": "11929", "@spider": "safeway_ca", "addr:full": "2995 2 Avenue West", "addr:city": "Prince Albert", "addr:state": "sk", "addr:postcode": "S6V 5V5", "name": "Safeway South Hill Mall Safeway", "phone": "306-922-1242", "website": "https://www.safeway.ca/stores/safeway-south-hill-mall/", "opening_hours": "Mo-Su 08:00-22:00", "brand": "Safeway", "brand:wikidata": "Q17111901"}, "geometry": {"type": "Point", "coordinates": [-105.763524, 53.18579]}},
{"type": "Feature", "id": "RkyHxejKsxCJF-crTllDu4bEnvg=", "properties": {"ref": "11928", "@spider": "safeway_ca", "addr:full": "580 Clarke Road", "addr:city": "Coquitlam", "addr:state": "bc", "addr:postcode": "V3J 3X5", "name": "Safeway Burquitlam Safeway", "phone": "604-931-0110", "website": "https://www.safeway.ca/stores/safeway-burquitlam/", "opening_hours": "Mo-Su 07:00-23:00", "brand": "Safeway", "brand:wikidata": "Q17111901"}, "geometry": {"type": "Point", "coordinates": [-122.887836, 49.262871]}},
{"type": "Feature", "id": "0Ace34S8i9vF3sJsY_gTKmbYFVQ=", "properties": {"ref": "11927", "@spider": "safeway_ca", "addr:full": "5211 - 44th St.", "addr:city": "Lloydminster", "addr:state": "ab", "addr:postcode": "T9V 0A7", "name": "Safeway Lloydminster Safeway", "phone": "780-875-3448", "website": "https://www.safeway.ca/stores/safeway-lloydminster/", "opening_hours": "Mo-Su 07:00-22:00", "brand": "Safeway", "brand:wikidata": "Q17111901"}, "geometry": {"type": "Point", "coordinates": [-110.012826, 53.276662]}},
{"type": "Feature", "id": "Mw7rfMTz_7GmhAbFMFNgVaH00Fw=", "properties": {"ref": "11926", "@spider": "safeway_ca", "addr:full": "8475 Granville St.", "addr:city": "Vancouver", "addr:state": "bc", "addr:postcode": "V6P 4Z9", "name": "Safeway Marpole Safeway", "phone": "604-261-1204", "website": "https://www.safeway.ca/stores/safeway-marpole/", "opening_hours": "Mo-Su 07:00-22:00", "brand": "Safeway", "brand:wikidata": "Q17111901"}, "geometry": {"type": "Point", "coordinates": [-123.1413, 49.2099]}},
{"type": "Feature", "id": "oEXBkq6M40H76uwv8lwRr9r9XAY=", "properties": {"ref": "11925", "@spider": "safeway_ca", "addr:full": "395 St.Albert Trail", "addr:city": "St. Albert", "addr:state": "ab", "addr:postcode": "T8N 5Z9", "name": "Safeway Inglewood Safeway", "phone": "780-458-3620", "website": "https://www.safeway.ca/stores/safeway-inglewood/", "opening_hours": "Mo-Su 07:00-22:00", "brand": "Safeway", "brand:wikidata": "Q17111901"}, "geometry": {"type": "Point", "coordinates": [-113.625536, 53.645113]}},
{"type": "Feature", "id": "PUFOeoCEItHnYoJ4DwrVZyDduXM=", "properties": {"ref": "11910", "@spider": "safeway_ca", "addr:full": "8120 Beddington Blvd NW", "addr:city": "Calgary", "addr:state": "ab", "addr:postcode": "T3K 2A8", "name": "Safeway Beddington Safeway", "phone": "403-295-6895", "website": "https://www.safeway.ca/stores/safeway-beddington/", "opening_hours": "Mo-Su 07:00-22:00", "brand": "Safeway", "brand:wikidata": "Q17111901"}, "geometry": {"type": "Point", "coordinates": [-114.073548, 51.125386]}},
{"type": "Feature", "id": "Vfj-w4CWkAAqAEQh3CrZJmtzITY=", "properties": {"ref": "11909", "@spider": "safeway_ca", "addr:full": "70 Shawville Boulevard SE", "addr:city": "Calgary", "addr:state": "ab", "addr:postcode": "T2Y 2Z3", "name": "Safeway Shawnessy Safeway", "phone": "403-256-1401", "website": "https://www.safeway.ca/stores/safeway-shawnessy/", "opening_hours": "Mo-Su 08:00-22:00", "brand": "Safeway", "brand:wikidata": "Q17111901"}, "geometry": {"type": "Point", "coordinates": [-114.068409, 50.908443]}},
{"type": "Feature", "id": "90x7XoTAk-K2x82hY8oNMSO6pHU=", "properties": {"ref": "11907", "@spider": "safeway_ca", "addr:full": "2525 Woodview Drive SW", "addr:city": "Calgary", "addr:state": "ab", "addr:postcode": "T2W 4N4", "name": "Safeway Woodbine Safeway", "phone": "403-238-1400", "website": "https://www.safeway.ca/stores/safeway-woodbine/", "opening_hours": "Mo-Su 08:00-22:00", "brand": "Safeway", "brand:wikidata": "Q17111901"}, "geometry": {"type": "Point", "coordinates": [-114.120141, 50.940333]}},
{"type": "Feature", "id": "hZrgnyJho0re8C7EQzA2XZbyrj8=", "properties": {"ref": "11916", "@spider": "safeway_ca", "addr:full": "576 Riverbend Square NW", "addr:city": "Edmonton", "addr:state": "ab", "addr:postcode": "T6R 2E3", "name": "Safeway Riverbend Square Safeway", "phone": "780-434-6124", "website": "https://www.safeway.ca/stores/safeway-riverbend-square/", "opening_hours": "Mo-Su 07:00-22:00", "brand": "Safeway", "brand:wikidata": "Q17111901"}, "geometry": {"type": "Point", "coordinates": [-113.584021, 53.468592]}},
{"type": "Feature", "id": "vNUcbGDAx2La9mdikcgRuT1_kTU=", "properties": {"ref": "24897", "@spider": "safeway_ca", "addr:full": "134 Primrose Drive", "addr:city": "Saskatoon", "addr:state": "sk", "addr:postcode": "S7K 5S6", "name": "Safeway Lawson Heights Safeway", "phone": "306-934-8185", "website": "https://www.safeway.ca/stores/safeway-lawson-heights/", "opening_hours": "Mo-Su 08:00-22:00", "brand": "Safeway", "brand:wikidata": "Q17111901"}, "geometry": {"type": "Point", "coordinates": [-106.641654, 52.169328]}},
{"type": "Feature", "id": "93aoSpbLGwWzG9FRvjxKGTNCDSw=", "properties": {"ref": "11905", "@spider": "safeway_ca", "addr:full": "410 10 Street NW", "addr:city": "Calgary", "addr:state": "ab", "addr:postcode": "T2N 1V9", "name": "Safeway Kensington Safeway", "phone": "403-270-3054", "website": "https://www.safeway.ca/stores/safeway-kensington/", "opening_hours": "Mo-Su 07:00-22:00", "brand": "Safeway", "brand:wikidata": "Q17111901"}, "geometry": {"type": "Point", "coordinates": [-114.08524, 51.056181]}},
{"type": "Feature", "id": "yoLpHbx1_i6dQJdvkt-37WMDmIg=", "properties": {"ref": "11902", "@spider": "safeway_ca", "addr:full": "505 Main Street", "addr:city": "Airdrie", "addr:state": "ab", "addr:postcode": "T4B 2B8", "name": "Safeway Tower Lane Mall Safeway", "phone": "403-948-4838", "website": "https://www.safeway.ca/stores/safeway-tower-lane-mall/", "opening_hours": "Mo-Su 07:00-22:00", "brand": "Safeway", "brand:wikidata": "Q17111901"}, "geometry": {"type": "Point", "coordinates": [-114.015666, 51.288342]}},
{"type": "Feature", "id": "Ugfdp5ULUtOOBFSpwo4wg7iGK9U=", "properties": {"ref": "96665", "@spider": "safeway_ca", "addr:full": "134 Primrose Drive", "addr:city": "Saskatoon", "addr:state": "sk", "addr:postcode": "S7K 5S6", "name": "Safeway Lawson Heights Safeway", "phone": "306-934-8185", "website": "https://www.safeway.ca/stores/safeway-lawson-heights-2/", "opening_hours": "Mo-Su 07:00-22:00", "brand": "Safeway", "brand:wikidata": "Q17111901"}, "geometry": {"type": "Point", "coordinates": [-106.641654, 52.169328]}},
{"type": "Feature", "id": "Gdc6CC9804HXP6IySMyhWTqS2JI=", "properties": {"ref": "11930", "@spider": "safeway_ca", "addr:full": "200 1 Avenue North West", "addr:city": "Moose Jaw", "addr:state": "sk", "addr:postcode": "S6H 1K9", "name": "Safeway Moose Jaw Safeway", "phone": "306-693-8033", "website": "https://www.safeway.ca/stores/safeway-moose-jaw/", "opening_hours": "Mo-Sa 07:00-21:00; Su 08:00-19:00", "brand": "Safeway", "brand:wikidata": "Q17111901"}, "geometry": {"type": "Point", "coordinates": [-105.538531, 50.392083]}},
{"type": "Feature", "id": "H6ESLHDqKw8lBerAJznqY9AxpQw=", "properties": {"ref": "22116", "@spider": "safeway_ca", "addr:full": "813 11 Avenue SW", "addr:city": "Calgary", "addr:state": "ab", "addr:postcode": "T2R 0E6", "name": "Safeway Beltline Safeway", "phone": "403-264-1375", "website": "https://www.safeway.ca/stores/safeway-beltline/", "opening_hours": "Mo-Su 07:00-22:00", "brand": "Safeway", "brand:wikidata": "Q17111901"}, "geometry": {"type": "Point", "coordinates": [-114.080093, 51.042358]}},
{"type": "Feature", "id": "zQzPE66vxTQEj8ppR__26zwHri8=", "properties": {"ref": "11897", "@spider": "safeway_ca", "addr:full": "1, 755 Lake Bonavista Drive SE", "addr:city": "Calgary", "addr:state": "ab", "addr:postcode": "T2J 0N3", "name": "Safeway Bonavista Shopping Plaza Safeway", "phone": "403-271-1616", "website": "https://www.safeway.ca/stores/safeway-bonavista-shopping-plaza/", "opening_hours": "Mo-Su 07:00-21:00", "brand": "Safeway", "brand:wikidata": "Q17111901"}, "geometry": {"type": "Point", "coordinates": [-114.047124, 50.942453]}},
{"type": "Feature", "id": "y1nemx50OsUq-b-f_vO1mgVBgwA=", "properties": {"ref": "11924", "@spider": "safeway_ca", "addr:full": "985 Fir Street", "addr:city": "Sherwood Park", "addr:state": "ab", "addr:postcode": "T8A 4N5", "name": "Safeway Wye Road Safeway", "phone": "780-467-0177", "website": "https://www.safeway.ca/stores/safeway-wye-road/", "opening_hours": "Mo-Su 07:00-22:00", "brand": "Safeway", "brand:wikidata": "Q17111901"}, "geometry": {"type": "Point", "coordinates": [-113.324443, 53.513526]}},
{"type": "Feature", "id": "rq5XtoEW36-aDm6bVWO_8GHe058=", "properties": {"ref": "11906", "@spider": "safeway_ca", "addr:full": "7740 18 Street SE", "addr:city": "Calgary", "addr:state": "ab", "addr:postcode": "T2C 2N5", "name": "Safeway Ogden Safeway", "phone": "403-236-1210", "website": "https://www.safeway.ca/stores/safeway-ogden/", "opening_hours": "Mo-Su 08:00-22:00", "brand": "Safeway", "brand:wikidata": "Q17111901"}, "geometry": {"type": "Point", "coordinates": [-114.015019, 50.984073]}},
{"type": "Feature", "id": "gxBEMqKPj_T29kdzMv-W5uAuUso=", "properties": {"ref": "11896", "@spider": "safeway_ca", "addr:full": "524 Elbow Drive SW", "addr:city": "Calgary", "addr:state": "ab", "addr:postcode": "T2S 2H6", "name": "Safeway Mission Elbow Drive Safeway", "phone": "403-228-6141", "website": "https://www.safeway.ca/stores/safeway-mission-elbow-drive/", "opening_hours": "Mo 22:00-22:00; Tu-Su 07:00-22:00", "brand": "Safeway", "brand:wikidata": "Q17111901"}, "geometry": {"type": "Point", "coordinates": [-114.072774, 51.029693]}},
{"type": "Feature", "id": "2-cxGT-AQIZIY3gNtV9LTuvm_CY=", "properties": {"ref": "11903", "@spider": "safeway_ca", "addr:full": "55 Castleridge Boulevard NE", "addr:city": "Calgary", "addr:state": "ab", "addr:postcode": "T3J 3J8", "name": "Safeway Castleridge Safeway", "phone": "403-293-0255", "website": "https://www.safeway.ca/stores/safeway-castleridge/", "opening_hours": "Mo-Su 07:00-22:00", "brand": "Safeway", "brand:wikidata": "Q17111901"}, "geometry": {"type": "Point", "coordinates": [-113.95948, 51.097343]}},
{"type": "Feature", "id": "06rj8h-p4bIoZtfRSTFPJRM21pw=", "properties": {"ref": "11901", "@spider": "safeway_ca", "addr:full": "3625 Shaganappi Trail NW", "addr:city": "Calgary", "addr:state": "ab", "addr:postcode": "T3A 0E2", "name": "Safeway Market Mall Calgary Safeway", "phone": "403-286-5510", "website": "https://www.safeway.ca/stores/safeway-market-mall-calgary/", "opening_hours": "Mo-Su 07:00-22:00", "brand": "Safeway", "brand:wikidata": "Q17111901"}, "geometry": {"type": "Point", "coordinates": [-114.15541, 51.084639]}},
{"type": "Feature", "id": "eEuEtEO0MLgJi3qRpkaMAsYcCd4=", "properties": {"ref": "11895", "@spider": "safeway_ca", "addr:full": "3292 Dunmore Road SE", "addr:city": "Medicine Hat", "addr:state": "ab", "addr:postcode": "T1B 2R4", "name": "Safeway Medicine Hat Mall Safeway", "phone": "403-527-7537", "website": "https://www.safeway.ca/stores/safeway-medicine-hat-mall/", "opening_hours": "Mo-Su 07:00-22:00", "brand": "Safeway", "brand:wikidata": "Q17111901"}, "geometry": {"type": "Point", "coordinates": [-110.647228, 50.003945]}},
{"type": "Feature", "id": "K2eRiLopOPXro5VBTHrDDxLPMZY=", "properties": {"ref": "11894", "@spider": "safeway_ca", "addr:full": "1200 37 Street SW", "addr:city": "Calgary", "addr:state": "ab", "addr:postcode": "T3C 1S2", "name": "Safeway Westbrook Mall Safeway", "phone": "403-246-0003", "website": "https://www.safeway.ca/stores/safeway-westbrook-mall/", "opening_hours": "Mo-Su 07:00-22:00", "brand": "Safeway", "brand:wikidata": "Q17111901"}, "geometry": {"type": "Point", "coordinates": [-114.1403, 51.042258]}},
{"type": "Feature", "id": "QUnk5eAGnPl_iSlIZfwXIKlhXxI=", "properties": {"ref": "11893", "@spider": "safeway_ca", "addr:full": "318 Marten St", "addr:city": "Banff", "addr:state": "ab", "addr:postcode": "T1L 1B4", "name": "Banff Safeway", "phone": "403-762-5378", "website": "https://www.safeway.ca/stores/banff/", "opening_hours": "Mo-Su 08:00-23:00", "brand": "Safeway", "brand:wikidata": "Q17111901"}, "geometry": {"type": "Point", "coordinates": [-115.571687, 51.179329]}},
{"type": "Feature", "id": "pIohOR16ue4ZsiKIlJfLArXPvq0=", "properties": {"ref": "11884", "@spider": "safeway_ca", "addr:full": "353 Albert Street North", "addr:city": "Regina", "addr:state": "sk", "addr:postcode": "S4R 3C3", "name": "Safeway Northgate Mall Safeway", "phone": "306-543-8749", "website": "https://www.safeway.ca/stores/safeway-northgate-mall/", "opening_hours": "Mo-Sa 07:00-22:00; Su 07:00-21:00", "brand": "Safeway", "brand:wikidata": "Q17111901"}, "geometry": {"type": "Point", "coordinates": [-104.616865, 50.48294]}},
{"type": "Feature", "id": "pS8Zr62HyGPVp8ZVXbr2-7rvylw=", "properties": {"ref": "11898", "@spider": "safeway_ca", "addr:full": "20 1818 Centre Street NE", "addr:city": "Calgary", "addr:state": "ab", "addr:postcode": "T2E 2S6", "name": "Safeway Beacon Heights Safeway", "phone": "403-276-3328", "website": "https://www.safeway.ca/stores/safeway-beacon-heights/", "opening_hours": "Mo-Su 07:00-22:00", "brand": "Safeway", "brand:wikidata": "Q17111901"}, "geometry": {"type": "Point", "coordinates": [-114.062528, 51.067938]}},
{"type": "Feature", "id": "sY070j7Ev3cLsQw9Bd5MFsghITc=", "properties": {"ref": "11882", "@spider": "safeway_ca", "addr:full": "1860 McOrmond Drive,", "addr:city": "Saskatoon", "addr:state": "sk", "addr:postcode": "S7S 0A5", "name": "Safeway University Heights Safeway", "phone": "306-934-5060", "website": "https://www.safeway.ca/stores/safeway-university-heights/", "opening_hours": "Mo-Su 07:00-22:00", "brand": "Safeway", "brand:wikidata": "Q17111901"}, "geometry": {"type": "Point", "coordinates": [-106.566933, 52.14953]}},
{"type": "Feature", "id": "gI8gcEV_TIzZuaDU0fKfe8vtZ8c=", "properties": {"ref": "22115", "@spider": "safeway_ca", "addr:full": "3900 Grant Avenue", "addr:city": "Winnipeg", "addr:state": "mb", "addr:postcode": "R3R 3C2", "name": "Safeway Charleswood Centre Safeway", "phone": "204-837-5339", "website": "https://www.safeway.ca/stores/safeway-charleswood-centre/", "opening_hours": "Mo-Su 07:00-23:00", "brand": "Safeway", "brand:wikidata": "Q17111901"}, "geometry": {"type": "Point", "coordinates": [-97.263886, 49.858306]}},
{"type": "Feature", "id": "mVyCfL6in8_XBTbjcs0CiApCS50=", "properties": {"ref": "11876", "@spider": "safeway_ca", "addr:full": "499 River Avenue", "addr:city": "Winnipeg", "addr:state": "mb", "addr:postcode": "R3L 0C9", "name": "Safeway River Avenue Safeway", "phone": "204-452-2276", "website": "https://www.safeway.ca/stores/safeway-river-avenue/", "opening_hours": "Mo-Su 07:00-23:00", "brand": "Safeway", "brand:wikidata": "Q17111901"}, "geometry": {"type": "Point", "coordinates": [-97.149107, 49.878283]}},
{"type": "Feature", "id": "LdR_3VU3GID_99x9djYt4FYdrdo=", "properties": {"ref": "11875", "@spider": "safeway_ca", "addr:full": "1625 Kenaston Boulevard", "addr:city": "Winnipeg", "addr:state": "mb", "addr:postcode": "R3P 2M4", "name": "Safeway Lindenridge Safeway", "phone": "204-488-9404", "website": "https://www.safeway.ca/stores/safeway-lindenridge/", "opening_hours": "Mo-Su 07:00-23:00", "brand": "Safeway", "brand:wikidata": "Q17111901"}, "geometry": {"type": "Point", "coordinates": [-97.204009, 49.822428]}},
{"type": "Feature", "id": "8g1s53PHs2gXgfdJmKkrocRfC9I=", "properties": {"ref": "11874", "@spider": "safeway_ca", "addr:full": "654 Kildare Avenue East", "addr:city": "Winnipeg", "addr:state": "mb", "addr:postcode": "R2C 0P8", "name": "Safeway Transcona Safeway", "phone": "204-222-6902", "website": "https://www.safeway.ca/stores/safeway-transcona/", "opening_hours": "Mo-Su 07:00-22:00", "brand": "Safeway", "brand:wikidata": "Q17111901"}, "geometry": {"type": "Point", "coordinates": [-96.985676, 49.900121]}},
{"type": "Feature", "id": "JkeV7rqB8iSw5m9tzFxrVeZpkFo=", "properties": {"ref": "11873", "@spider": "safeway_ca", "addr:full": "2025 Corydon At Edgeland", "addr:city": "Winnipeg", "addr:state": "mb", "addr:postcode": "R3P 0N5", "name": "Safeway Tuxedo Safeway", "phone": "204-489-6498", "website": "https://www.safeway.ca/stores/safeway-tuxedo/", "opening_hours": "Mo-Su 07:00-22:00", "brand": "Safeway", "brand:wikidata": "Q17111901"}, "geometry": {"type": "Point", "coordinates": [-97.212765, 49.867318]}},
{"type": "Feature", "id": "MTPeTRNYk-ukKS1IfVRdO4uNgWU=", "properties": {"ref": "11872", "@spider": "safeway_ca", "addr:full": "850 Keewatin Street", "addr:city": "Winnipeg", "addr:state": "mb", "addr:postcode": "R2R 0Z5", "name": "Safeway Tyndall Square Safeway", "phone": "204-694-5087", "website": "https://www.safeway.ca/stores/safeway-tyndall-square/", "opening_hours": "Mo-Su 07:00-21:00", "brand": "Safeway", "brand:wikidata": "Q17111901"}, "geometry": {"type": "Point", "coordinates": [-97.195238, 49.937342]}},
{"type": "Feature", "id": "Bnx_fRtI2I6TpJ-NI1cI-BMtL70=", "properties": {"ref": "11871", "@spider": "safeway_ca", "addr:full": "2155 Pembina Highway", "addr:city": "Winnipeg", "addr:state": "mb", "addr:postcode": "R3T 5S9", "name": "Safeway Pembina Village Safeway", "phone": "204-269-6548", "website": "https://www.safeway.ca/stores/safeway-pembina-village/", "opening_hours": "Mo-Su 07:00-22:00", "brand": "Safeway", "brand:wikidata": "Q17111901"}, "geometry": {"type": "Point", "coordinates": [-97.152568, 49.811859]}},
{"type": "Feature", "id": "t9zxgxlw7gTDc1GR8CCOFKFwrtc=", "properties": {"ref": "11869", "@spider": "safeway_ca", "addr:full": "3393 Portage Avenue", "addr:city": "Winnipeg", "addr:state": "mb", "addr:postcode": "R3K 2G7", "name": "Safeway Crestview Safeway", "phone": "204-888-3200", "website": "https://www.safeway.ca/stores/safeway-crestview/", "opening_hours": "Mo-Su 07:00-23:00", "brand": "Safeway", "brand:wikidata": "Q17111901"}, "geometry": {"type": "Point", "coordinates": [-97.298975, 49.882767]}},
{"type": "Feature", "id": "QwBWEZOdbmaAczTKVK-Ty9JEI74=", "properties": {"ref": "11865", "@spider": "safeway_ca", "addr:full": "318 Manitoba Avenue", "addr:city": "Selkirk", "addr:state": "mb", "addr:postcode": "R1A 0Y7", "name": "Safeway Selkirk Safeway", "phone": "204-482-5775", "website": "https://www.safeway.ca/stores/safeway-selkirk/", "opening_hours": "Mo-Su 07:00-22:00", "brand": "Safeway", "brand:wikidata": "Q17111901"}, "geometry": {"type": "Point", "coordinates": [-96.875162, 50.144867]}},
{"type": "Feature", "id": "a4BeJwT1f1iyM-X8o2Qb9umpcGg=", "properties": {"ref": "11863", "@spider": "safeway_ca", "addr:full": "300 Mystery Lake Road", "addr:city": "Thompson", "addr:state": "mb", "addr:postcode": "R8N 0M2", "name": "Safeway City Centre Mall Safeway", "phone": "204-677-2600", "website": "https://www.safeway.ca/stores/safeway-city-centre-mall/", "opening_hours": "Mo-Sa 07:00-23:00; Su 07:00-21:00", "brand": "Safeway", "brand:wikidata": "Q17111901"}, "geometry": {"type": "Point", "coordinates": [-97.84839, 55.744226]}},
{"type": "Feature", "id": "fehmGAtK8AIat5RcoYdjz0tc31w=", "properties": {"ref": "11861", "@spider": "safeway_ca", "addr:full": "921 18 Street North", "addr:city": "Brandon", "addr:state": "mb", "addr:postcode": "R7A 7S1", "name": "Safeway Corral Centre Safeway", "phone": "204-726-8014", "website": "https://www.safeway.ca/stores/safeway-corral-centre/", "opening_hours": "Mo-Su 07:00-23:00", "brand": "Safeway", "brand:wikidata": "Q17111901"}, "geometry": {"type": "Point", "coordinates": [-99.96054, 49.866798]}},
{"type": "Feature", "id": "2z3cl50U0dZ1_p7SVIUiNMTyIJU=", "properties": {"ref": "11867", "@spider": "safeway_ca", "addr:full": "50 1450 Main Street", "addr:city": "Dauphin", "addr:state": "mb", "addr:postcode": "R7N 1M8", "name": "Safeway Dauphin Safeway", "phone": "204-638-4745", "website": "https://www.safeway.ca/stores/safeway-dauphin/", "opening_hours": "Mo-Sa 08:00-22:00; Su 09:00-18:00", "brand": "Safeway", "brand:wikidata": "Q17111901"}, "geometry": {"type": "Point", "coordinates": [-100.063227, 51.135303]}},
{"type": "Feature", "id": "2SY0MvJ-lV8ZSPFPwAJ8VONgfZs=", "properties": {"ref": "11868", "@spider": "safeway_ca", "addr:full": "285 Marion At Braemar", "addr:city": "Winnipeg", "addr:state": "mb", "addr:postcode": "R2H 0T8", "name": "Safeway Marion and Braemar Safeway", "phone": "204-237-6824", "website": "https://www.safeway.ca/stores/safeway-marion-and-braemar/", "opening_hours": "Mo-Su 07:00-23:00", "brand": "Safeway", "brand:wikidata": "Q17111901"}, "geometry": {"type": "Point", "coordinates": [-97.116045, 49.881709]}},
{"type": "Feature", "id": "7HdJ5G-5oiZpxITgPBnctYABf7w=", "properties": {"ref": "11866", "@spider": "safeway_ca", "addr:full": "655 Osborne At Kylemore", "addr:city": "Winnipeg", "addr:state": "mb", "addr:postcode": "R3L 2B7", "name": "Safeway Osborne and Kylemore Safeway", "phone": "204-475-0793", "website": "https://www.safeway.ca/stores/safeway-osborne-and-kylemore/", "opening_hours": "Mo-Su 07:00-21:30", "brand": "Safeway", "brand:wikidata": "Q17111901"}, "geometry": {"type": "Point", "coordinates": [-97.133676, 49.862839]}},
{"type": "Feature", "id": "aGdmlQwEJjVJSfFNw5_aSPb-OPY=", "properties": {"ref": "11862", "@spider": "safeway_ca", "addr:full": "498 Mountain Ave", "addr:city": "Neepawa", "addr:state": "mb", "addr:postcode": "R0J 1H0", "name": "Safeway Neepawa Safeway", "phone": "204-476-5423", "website": "https://www.safeway.ca/stores/safeway-neepawa/", "opening_hours": "Mo-Su 08:00-21:00", "brand": "Safeway", "brand:wikidata": "Q17111901"}, "geometry": {"type": "Point", "coordinates": [-99.402063, 50.15353]}},
{"type": "Feature", "id": "8lEk3SK3EHdnb_8o9iDCxEWKzRU=", "properties": {"ref": "11850", "@spider": "safeway_ca", "addr:full": "1015 Dawson Road", "addr:city": "Thunder Bay", "addr:state": "on", "addr:postcode": "P7B 6S7", "name": "Safeway Dawson Road Safeway", "phone": "807-768-0099", "website": "https://www.safeway.ca/stores/safeway-dawson-road/", "opening_hours": "Mo-Su 07:00-23:00", "brand": "Safeway", "brand:wikidata": "Q17111901"}, "geometry": {"type": "Point", "coordinates": [-89.254654, 48.450495]}},
{"type": "Feature", "id": "dp5jDlctVtqOA67-Xfo9u6gVvkM=", "properties": {"ref": "11849", "@spider": "safeway_ca", "addr:full": "115 West Arthur Street", "addr:city": "Thunder Bay", "addr:state": "on", "addr:postcode": "P7E 5P7", "name": "Safeway Arthur Street Safeway", "phone": "807-473-5993", "website": "https://www.safeway.ca/stores/safeway-arthur-street/", "opening_hours": "Mo-Su 07:00-23:00", "brand": "Safeway", "brand:wikidata": "Q17111901"}, "geometry": {"type": "Point", "coordinates": [-89.279533, 48.381971]}},
{"type": "Feature", "id": "XQGjkondgOP4o3l8TfG_acSnzCs=", "properties": {"ref": "11848", "@spider": "safeway_ca", "addr:full": "11200, 11216 - 8 Street", "addr:city": "Dawson Creek", "addr:state": "bc", "addr:postcode": "V1G 3R4", "name": "Safeway Dawson Creek Safeway", "phone": "250-782-2253", "website": "https://www.safeway.ca/stores/safeway-dawson-creek/", "opening_hours": "Mo-Su 07:00-23:00", "brand": "Safeway", "brand:wikidata": "Q17111901"}, "geometry": {"type": "Point", "coordinates": [-120.2213, 55.7484]}},
{"type": "Feature", "id": "2VcVoVgT2P_QGTkZPq61RZtZXHo=", "properties": {"ref": "11846", "@spider": "safeway_ca", "addr:full": "2304-109 Street NW", "addr:city": "Edmonton", "addr:state": "ab", "addr:postcode": "T6J 5E5", "name": "Safeway Heritage Safeway", "phone": "780-430-4278", "website": "https://www.safeway.ca/stores/safeway-heritage/", "opening_hours": "Mo-Su 07:00-23:00", "brand": "Safeway", "brand:wikidata": "Q17111901"}, "geometry": {"type": "Point", "coordinates": [-113.509755, 53.454632]}},
{"type": "Feature", "id": "7lghlDE6rFNXANjfWxGo1P3Q4WE=", "properties": {"ref": "11845", "@spider": "safeway_ca", "addr:full": "1,550 UniversityDrive W", "addr:city": "Lethbridge", "addr:state": "ab", "addr:postcode": "T1J 4T3", "name": "Safeway West Lethbridge Safeway", "phone": "403-329-6382", "website": "https://www.safeway.ca/stores/safeway-west-lethbridge/", "opening_hours": "Mo-Su 07:00-22:00", "brand": "Safeway", "brand:wikidata": "Q17111901"}, "geometry": {"type": "Point", "coordinates": [-112.893084, 49.693114]}},
{"type": "Feature", "id": "wQUOLgkKSlT38r6UgGaiQWGv9RY=", "properties": {"ref": "11844", "@spider": "safeway_ca", "addr:full": "1200 Railway Avenue", "addr:city": "Canmore", "addr:state": "ab", "addr:postcode": "T1W 1P4", "name": "Safeway Canmore Safeway", "phone": "403-609-2955", "website": "https://www.safeway.ca/stores/safeway-canmore/", "opening_hours": "Mo-Su 07:00-22:00", "brand": "Safeway", "brand:wikidata": "Q17111901"}, "geometry": {"type": "Point", "coordinates": [-115.357644, 51.092365]}},
{"type": "Feature", "id": "hpKcpG-SO1upUrIPFTOcXZEb2Ys=", "properties": {"ref": "11843", "@spider": "safeway_ca", "addr:full": "5607- 4 Street NW", "addr:city": "Calgary", "addr:state": "ab", "addr:postcode": "T2K 1B3", "name": "Safeway Thorncliffe Safeway", "phone": "403-730-4955", "website": "https://www.safeway.ca/stores/safeway-thorncliffe/", "opening_hours": "Mo-Su 07:00-22:00", "brand": "Safeway", "brand:wikidata": "Q17111901"}, "geometry": {"type": "Point", "coordinates": [-114.071507, 51.101574]}},
{"type": "Feature", "id": "EoFMvylMonwRzFnOJZvyr-_lg_A=", "properties": {"ref": "11860", "@spider": "safeway_ca", "addr:full": "600 Sargent At Sherbrook", "addr:city": "Winnipeg", "addr:state": "mb", "addr:postcode": "R3E 0A1", "name": "Safeway Sargent Safeway", "phone": "204-783-0149", "website": "https://www.safeway.ca/stores/safeway-sargent/", "opening_hours": "24/7", "brand": "Safeway", "brand:wikidata": "Q17111901"}, "geometry": {"type": "Point", "coordinates": [-97.159249, 49.895986]}},
{"type": "Feature", "id": "8_2TuEwrP2RyW3Fc3-F4sVsUQ9Q=", "properties": {"ref": "11842", "@spider": "safeway_ca", "addr:full": "610 Big Rock Lane", "addr:city": "Okotoks", "addr:state": "ab", "addr:postcode": "T1S 1B3", "name": "Safeway Okotoks Safeway", "phone": "403-938-9341", "website": "https://www.safeway.ca/stores/safeway-okotoks/", "opening_hours": "Mo-Su 08:00-21:00", "brand": "Safeway", "brand:wikidata": "Q17111901"}, "geometry": {"type": "Point", "coordinates": [-113.981088, 50.717437]}},
{"type": "Feature", "id": "VjQZ5tJO3v7ftLryyt-XOr5j4Is=", "properties": {"ref": "11841", "@spider": "safeway_ca", "addr:full": "5048 - 16 Avenue NW", "addr:city": "Calgary", "addr:state": "ab", "addr:postcode": "T3B 0N3", "name": "Safeway Montgomery Safeway", "phone": "403-288-3219", "website": "https://www.safeway.ca/stores/safeway-montgomery/", "opening_hours": "Mo-Su 07:00-22:00", "brand": "Safeway", "brand:wikidata": "Q17111901"}, "geometry": {"type": "Point", "coordinates": [-114.166036, 51.074901]}},
{"type": "Feature", "id": "2alk2Nc83wS33eH7jAr9VRhuf7w=", "properties": {"ref": "11840", "@spider": "safeway_ca", "addr:full": "615 Division Avenue South", "addr:city": "Medicine Hat", "addr:state": "ab", "addr:postcode": "T1A 2J9", "name": "Safeway Division Avenue Safeway", "phone": "403-504-2920", "website": "https://www.safeway.ca/stores/safeway-division-avenue/", "opening_hours": "Mo-Su 07:00-22:00", "brand": "Safeway", "brand:wikidata": "Q17111901"}, "geometry": {"type": "Point", "coordinates": [-110.686994, 50.033288]}},
{"type": "Feature", "id": "Oj4asRcPbemhM3a8LhgrYH9ylKc=", "properties": {"ref": "11839", "@spider": "safeway_ca", "addr:full": "304- 5 Avenue West", "addr:city": "Cochrane", "addr:state": "ab", "addr:postcode": "T4C 2A5", "name": "Safeway Cochrane Safeway", "phone": "403-851-1290", "website": "https://www.safeway.ca/stores/safeway-cochrane/", "opening_hours": "Mo-Su 07:00-22:00", "brand": "Safeway", "brand:wikidata": "Q17111901"}, "geometry": {"type": "Point", "coordinates": [-114.476041, 51.18549]}},
{"type": "Feature", "id": "h34bTHB2AERhDBVQ4dy0hh9hXqk=", "properties": {"ref": "11838", "@spider": "safeway_ca", "addr:full": "1846,1632 - 14 Avenue NW", "addr:city": "Calgary", "addr:state": "ab", "addr:postcode": "T2N 1M7", "name": "Safeway North Hill Mall Safeway", "phone": "403-210-0002", "website": "https://www.safeway.ca/stores/safeway-north-hill-mall/", "opening_hours": "Mo-Su 07:00-22:00", "brand": "Safeway", "brand:wikidata": "Q17111901"}, "geometry": {"type": "Point", "coordinates": [-114.099644, 51.065432]}},
{"type": "Feature", "id": "l9CZfXoPCh8GaBdjHleycCashFg=", "properties": {"ref": "11837", "@spider": "safeway_ca", "addr:full": "2425-34 Avenue SW", "addr:city": "Calgary", "addr:state": "ab", "addr:postcode": "T2T 6E3", "name": "Safeway Garrison Woods Safeway", "phone": "403-240-1098", "website": "https://www.safeway.ca/stores/safeway-garrison-woods/", "opening_hours": "Mo-Su 07:00-22:00", "brand": "Safeway", "brand:wikidata": "Q17111901"}, "geometry": {"type": "Point", "coordinates": [-114.116653, 51.022725]}},
{"type": "Feature", "id": "3ce2pinlimLyy9jrJY0q4lANAis=", "properties": {"ref": "11834", "@spider": "safeway_ca", "addr:full": "9601 Franklin Avenue", "addr:city": "Fort McMurray", "addr:state": "ab", "addr:postcode": "T9H 2J8", "name": "Safeway Fort McMurray RX & Gas Bar Safeway", "phone": "780-790-1988", "website": "https://www.safeway.ca/stores/safeway-downtown-fort-mcmurray/", "opening_hours": "Mo-Su 07:00-22:00", "brand": "Safeway", "brand:wikidata": "Q17111901"}, "geometry": {"type": "Point", "coordinates": [-111.374502, 56.723089]}},
{"type": "Feature", "id": "BphPNBidg0Yf7aVW1QylmtGee70=", "properties": {"ref": "11833", "@spider": "safeway_ca", "addr:full": "5110 Windermere Blvd", "addr:city": "Edmonton", "addr:state": "ab", "addr:postcode": "T6W 0L9", "name": "Safeway Windermere Safeway", "phone": "780-436-1854", "website": "https://www.safeway.ca/stores/safeway-windermere/", "opening_hours": "Mo-Su 07:00-23:00", "brand": "Safeway", "brand:wikidata": "Q17111901"}, "geometry": {"type": "Point", "coordinates": [-113.600339, 53.434863]}},
{"type": "Feature", "id": "iFomN598TKPATiziabLrWXthUus=", "properties": {"ref": "11831", "@spider": "safeway_ca", "addr:full": "100A 5015 - 111 Street NW", "addr:city": "Edmonton", "addr:state": "ab", "addr:postcode": "T6H 4M6", "name": "Safeway Southgate Safeway", "phone": "780-435-5132", "website": "https://www.safeway.ca/stores/safeway-southgate/", "opening_hours": "Mo-Su 07:00-22:00", "brand": "Safeway", "brand:wikidata": "Q17111901"}, "geometry": {"type": "Point", "coordinates": [-113.515434, 53.487886]}},
{"type": "Feature", "id": "z15Dq_PviX4F2uYqa6OWpr5nWBk=", "properties": {"ref": "11828", "@spider": "safeway_ca", "addr:full": "2534 Guardian Road", "addr:city": "Edmonton", "addr:state": "ab", "addr:postcode": "T5T 1K8", "name": "Safeway The Grange Safeway", "phone": "780-490-0418", "website": "https://www.safeway.ca/stores/safeway-the-grange/", "opening_hours": "Mo-Su 07:00-22:00", "brand": "Safeway", "brand:wikidata": "Q17111901"}, "geometry": {"type": "Point", "coordinates": [-113.67124, 53.507963]}},
{"type": "Feature", "id": "IX25NINRqfM3QZWyp4_f2Aex1Ws=", "properties": {"ref": "11827", "@spider": "safeway_ca", "addr:full": "3901 56 Street", "addr:city": "Wetaskiwin", "addr:state": "ab", "addr:postcode": "T9A 2B1", "name": "Safeway Wetaskiwin Safeway", "phone": "780-352-2041", "website": "https://www.safeway.ca/stores/safeway-wetaskiwin/", "opening_hours": "Mo-Su 07:00-21:00", "brand": "Safeway", "brand:wikidata": "Q17111901"}, "geometry": {"type": "Point", "coordinates": [-113.390068, 52.958493]}},
{"type": "Feature", "id": "sosqxXZM3BT5xk9yi8U3N9uBZpg=", "properties": {"ref": "11826", "@spider": "safeway_ca", "addr:full": "#185, 8330 - 82 Avenue NW", "addr:city": "Edmonton", "addr:state": "ab", "addr:postcode": "T6C 0Y6", "name": "Safeway Bonnie Doon Safeway", "phone": "780-469-9464", "website": "https://www.safeway.ca/stores/safeway-bonnie-doon/", "opening_hours": "Mo-Su 07:00-22:00", "brand": "Safeway", "brand:wikidata": "Q17111901"}, "geometry": {"type": "Point", "coordinates": [-113.456813, 53.518105]}},
{"type": "Feature", "id": "FsBzcGHfrZUxm1QAgmfSMkkMjo8=", "properties": {"ref": "11823", "@spider": "safeway_ca", "addr:full": "10930 - 82 Avenue NW", "addr:city": "Edmonton", "addr:state": "ab", "addr:postcode": "T6G 0S8", "name": "Safeway Garneau Safeway", "phone": "780-433-6930", "website": "https://www.safeway.ca/stores/safeway-garneau/", "opening_hours": "Mo-Su 07:00-22:00", "brand": "Safeway", "brand:wikidata": "Q17111901"}, "geometry": {"type": "Point", "coordinates": [-113.513538, 53.518797]}},
{"type": "Feature", "id": "GMAe2cJXP4s4JNYqB4ZsJ-7Rbpo=", "properties": {"ref": "11822", "@spider": "safeway_ca", "addr:full": "9450 - 86 Avenue", "addr:city": "Fort Saskatchewan", "addr:state": "ab", "addr:postcode": "T8L 4P4", "name": "Safeway Fort Saskatchewan Safeway", "phone": "780-998-4065", "website": "https://www.safeway.ca/stores/safeway-fort-saskatchewan/", "opening_hours": "Mo-Su 07:00-22:00", "brand": "Safeway", "brand:wikidata": "Q17111901"}, "geometry": {"type": "Point", "coordinates": [-113.210218, 53.694208]}},
{"type": "Feature", "id": "R5KMOWuraqFdYt_E6TdTAFcwAxU=", "properties": {"ref": "11819", "@spider": "safeway_ca", "addr:full": "500,900 Carmichael Lane", "addr:city": "Hinton", "addr:state": "ab", "addr:postcode": "T7V 1Y6", "name": "Safeway Parks West Mall Safeway", "phone": "780-865-5982", "website": "https://www.safeway.ca/stores/safeway-parks-west-mall/", "opening_hours": "Mo-Su 07:00-22:00", "brand": "Safeway", "brand:wikidata": "Q17111901"}, "geometry": {"type": "Point", "coordinates": [-117.624393, 53.383124]}},
{"type": "Feature", "id": "-83A84nH3hT1dCHQqmzRuBzbFn8=", "properties": {"ref": "11818", "@spider": "safeway_ca", "addr:full": "5821 Terrace Road NW", "addr:city": "Edmonton", "addr:state": "ab", "addr:postcode": "T6A 0A1", "name": "Safeway Capilano Mall Safeway", "phone": "780-466-9001", "website": "https://www.safeway.ca/stores/safeway-capilano-mall/", "opening_hours": "Mo-Su 07:00-22:00", "brand": "Safeway", "brand:wikidata": "Q17111901"}, "geometry": {"type": "Point", "coordinates": [-113.421795, 53.539006]}},
{"type": "Feature", "id": "D-nMrv4D2-NfAHoPS-ybSFonXLM=", "properties": {"ref": "11817", "@spider": "safeway_ca", "addr:full": "200, 9499 - 137 Avenue NW", "addr:city": "Edmonton", "addr:state": "ab", "addr:postcode": "T5E 5R8", "name": "Safeway Northgate Centre Safeway", "phone": "780-406-6455", "website": "https://www.safeway.ca/stores/safeway-northgate-centre/", "opening_hours": "Mo-Su 07:00-22:00", "brand": "Safeway", "brand:wikidata": "Q17111901"}, "geometry": {"type": "Point", "coordinates": [-113.488915, 53.597903]}},
{"type": "Feature", "id": "geF3oT44vdvIYTXrCj8ABYjlIoE=", "properties": {"ref": "11816", "@spider": "safeway_ca", "addr:full": "601 111th Ave & Groat Road", "addr:city": "Edmonton", "addr:state": "ab", "addr:postcode": "T5M 3L7", "name": "Safeway Westmount Centre Safeway", "phone": "780-451-1860", "website": "https://www.safeway.ca/stores/safeway-westmount-centre/", "opening_hours": "Mo-Su 07:00-22:00", "brand": "Safeway", "brand:wikidata": "Q17111901"}, "geometry": {"type": "Point", "coordinates": [-113.542344, 53.544874]}},
{"type": "Feature", "id": "XCipSUdDZAht3g4RtuDwJrdERBY=", "properties": {"ref": "11835", "@spider": "safeway_ca", "addr:full": "100,38 Avenue & Millwoods Road", "addr:city": "Edmonton", "addr:state": "ab", "addr:postcode": "T6K 3L6", "name": "Safeway Millbourne MallPharmacy Safeway", "phone": "780-462-4424", "website": "https://www.safeway.ca/stores/safeway-millbourne-mall/", "opening_hours": "24/7", "brand": "Safeway", "brand:wikidata": "Q17111901"}, "geometry": {"type": "Point", "coordinates": [-113.437318, 53.474331]}},
{"type": "Feature", "id": "Owo9qvmd0JM_vD7RA_TX7gqj7GY=", "properties": {"ref": "11815", "@spider": "safeway_ca", "addr:full": "200, 6800 - 48 Avenue", "addr:city": "Camrose", "addr:state": "ab", "addr:postcode": "T4V 4T1", "name": "Safeway Cornerstone Safeway", "phone": "780-672-1211", "website": "https://www.safeway.ca/stores/safeway-cornerstone/", "opening_hours": "Mo-Su 07:00-21:00", "brand": "Safeway", "brand:wikidata": "Q17111901"}, "geometry": {"type": "Point", "coordinates": [-112.862102, 53.019454]}},
{"type": "Feature", "id": "nRzmke0vZPqcMzdNigQSMhCfIeU=", "properties": {"ref": "11814", "@spider": "safeway_ca", "addr:full": "9710-170 Street NW", "addr:city": "Edmonton", "addr:state": "ab", "addr:postcode": "T5T 5L5", "name": "Safeway Terra Losa Safeway", "phone": "780-486-4242", "website": "https://www.safeway.ca/stores/safeway-terra-losa/", "opening_hours": "Mo-Su 07:00-22:00", "brand": "Safeway", "brand:wikidata": "Q17111901"}, "geometry": {"type": "Point", "coordinates": [-113.617874, 53.533674]}},
{"type": "Feature", "id": "-pGfQu7eZgIHNJUDVj7uzl2MeOk=", "properties": {"ref": "11836", "@spider": "safeway_ca", "addr:full": "850 Saddletowne Circle NE", "addr:city": "Calgary", "addr:state": "ab", "addr:postcode": "T3J 0H5", "name": "Safeway Saddle Ridge Pharmacy Only Safeway", "phone": "403-293-0915", "website": "https://www.safeway.ca/stores/safeway-saddle-ridge/", "opening_hours": "24/7", "brand": "Safeway", "brand:wikidata": "Q17111901"}, "geometry": {"type": "Point", "coordinates": [-113.945268, 51.123654]}},
{"type": "Feature", "id": "XaEnUUOHKT-djHf30Fk0rPxOnUE=", "properties": {"ref": "11832", "@spider": "safeway_ca", "addr:full": "15007 Stony Plain Road NW", "addr:city": "Edmonton", "addr:state": "ab", "addr:postcode": "T5P 4W1", "name": "Safeway Jasper GatesPharmacy Onl Safeway", "phone": "780-483-3255", "website": "https://www.safeway.ca/stores/safeway-jasper-gates/", "opening_hours": "24/7", "brand": "Safeway", "brand:wikidata": "Q17111901"}, "geometry": {"type": "Point", "coordinates": [-113.580835, 53.539799]}},
{"type": "Feature", "id": "m1kx5OYxpfzmJrqj1F6htjZ44RM=", "properties": {"ref": "11813", "@spider": "safeway_ca", "addr:full": "500 Manning Crossing NW", "addr:city": "Edmonton", "addr:state": "ab", "addr:postcode": "T5A 5A1", "name": "Safeway Manning Crossing Safeway", "phone": "780-475-2896", "website": "https://www.safeway.ca/stores/safeway-manning-crossing/", "opening_hours": "Mo-Su 07:00-22:00", "brand": "Safeway", "brand:wikidata": "Q17111901"}, "geometry": {"type": "Point", "coordinates": [-113.422995, 53.600995]}},
{"type": "Feature", "id": "dpq8YuhmYcQt_oXA_De2EVKmDXk=", "properties": {"ref": "11812", "@spider": "safeway_ca", "addr:full": "4408-50 Avenue", "addr:city": "Red Deer", "addr:state": "ab", "addr:postcode": "T4N 3Z6", "name": "Safeway Port O'Call Mall Safeway", "phone": "403-346-1886", "website": "https://www.safeway.ca/stores/safeway-port-ocall-mall/", "opening_hours": "Mo-Su 07:00-22:00", "brand": "Safeway", "brand:wikidata": "Q17111901"}, "geometry": {"type": "Point", "coordinates": [-113.814113, 52.263926]}},
{"type": "Feature", "id": "kFVO3hSdsQXs12nvsn_X94rpXiU=", "properties": {"ref": "11829", "@spider": "safeway_ca", "addr:full": "146, 3210 118 Ave NW", "addr:city": "Edmonton", "addr:state": "ab", "addr:postcode": "T5W 4W1", "name": "Abbotsfield Pharmacy Safeway", "phone": "780-477-0855", "website": "https://www.safeway.ca/stores/abbotsfield-pharmacy/", "opening_hours": "Mo-Fr 09:00-20:00; Sa 09:30-17:30; Su 11:00-17:00", "brand": "Safeway", "brand:wikidata": "Q17111901"}, "geometry": {"type": "Point", "coordinates": [-113.390517, 53.571422]}},
{"type": "Feature", "id": "vsDz7RdfBM6W9hhmdf4WvVcHVLs=", "properties": {"ref": "11808", "@spider": "safeway_ca", "addr:full": "1721 Columbia Avenue", "addr:city": "Castlegar", "addr:state": "bc", "addr:postcode": "V1N 2W6", "name": "Safeway Castlegar Safeway", "phone": "250-365-7771", "website": "https://www.safeway.ca/stores/safeway-castlegar/", "opening_hours": "Mo-Su 07:00-22:00", "brand": "Safeway", "brand:wikidata": "Q17111901"}, "geometry": {"type": "Point", "coordinates": [-117.6568, 49.3017]}},
{"type": "Feature", "id": "sBBOLOh_ZiM5FOeaPS1nztg0m2o=", "properties": {"ref": "11807", "@spider": "safeway_ca", "addr:full": "1200 Baker Street", "addr:city": "Cranbrook", "addr:state": "bc", "addr:postcode": "V1C 1A8", "name": "Safeway Cranbrook Mall Safeway", "phone": "250-489-1165", "website": "https://www.safeway.ca/stores/safeway-cranbrook-mall/", "opening_hours": "Mo-Su 07:00-22:00", "brand": "Safeway", "brand:wikidata": "Q17111901"}, "geometry": {"type": "Point", "coordinates": [-115.7623, 49.5124]}},
{"type": "Feature", "id": "XLW4QPggiG--wrDQssfU1_4WcaA=", "properties": {"ref": "98038", "@spider": "safeway_ca", "addr:full": "8100-100 Street", "addr:city": "Grande  Prairie", "addr:state": "ab", "addr:postcode": "T8V 6H7", "name": "Safeway Southview Safeway", "phone": "780-833-8620", "website": "https://www.safeway.ca/stores/safeway-southview-2/", "opening_hours": "Mo-Su 07:00-22:00", "brand": "Safeway", "brand:wikidata": "Q17111901"}, "geometry": {"type": "Point", "coordinates": [-118.794939, 55.155617]}},
{"type": "Feature", "id": "e5CggInZJVCv_UUWK_IfGwfVdnA=", "properties": {"ref": "11802", "@spider": "safeway_ca", "addr:full": "45610 Luckakuck Way", "addr:city": "Chilliwack", "addr:state": "bc", "addr:postcode": "V2R 1A2", "name": "Safeway Sardis Safeway", "phone": "604-858-8115", "website": "https://www.safeway.ca/stores/safeway-sardis/", "opening_hours": "Mo-Su 07:00-22:00", "brand": "Safeway", "brand:wikidata": "Q17111901"}, "geometry": {"type": "Point", "coordinates": [-121.9642, 49.1399]}},
{"type": "Feature", "id": "Fws66xklzJ3QuOrYfskPmBbdx6c=", "properties": {"ref": "11801", "@spider": "safeway_ca", "addr:full": "8671 No.1 Road", "addr:city": "Richmond", "addr:state": "bc", "addr:postcode": "V7C 1V2", "name": "Safeway Seafair Safeway", "phone": "604-271-8790", "website": "https://www.safeway.ca/stores/safeway-seafair/", "opening_hours": "Mo-Su 07:00-22:00", "brand": "Safeway", "brand:wikidata": "Q17111901"}, "geometry": {"type": "Point", "coordinates": [-123.1824, 49.1499]}},
{"type": "Feature", "id": "HHV7FxrLtT8HHYHjAHYfH6SJyWc=", "properties": {"ref": "11800", "@spider": "safeway_ca", "addr:full": "1780 East Broadway", "addr:city": "Vancouver", "addr:state": "bc", "addr:postcode": "V5N 1W3", "name": "Safeway Broadway and Commercial Safeway", "phone": "604-873-0225", "website": "https://www.safeway.ca/stores/safeway-broadway-and-commercial/", "opening_hours": "Mo-Su 07:00-23:00", "brand": "Safeway", "brand:wikidata": "Q17111901"}, "geometry": {"type": "Point", "coordinates": [-123.0684, 49.2615]}},
{"type": "Feature", "id": "2Pjk4ofRZJJR0HjOKkchM7KW35w=", "properties": {"ref": "11824", "@spider": "safeway_ca", "addr:full": "550 Cassils Road West", "addr:city": "Brooks", "addr:state": "ab", "addr:postcode": "T1R 0V4", "name": "Safeway Brooks Safeway", "phone": "403-362-6851", "website": "https://www.safeway.ca/stores/safeway-brooks/", "opening_hours": "Mo-Su 07:00-22:00", "brand": "Safeway", "brand:wikidata": "Q17111901"}, "geometry": {"type": "Point", "coordinates": [-111.903095, 50.572718]}},
{"type": "Feature", "id": "7oj4uwP4oJBMPT7LQ6yJdAg3pAg=", "properties": {"ref": "11821", "@spider": "safeway_ca", "addr:full": "12950-137 Avenue NW", "addr:city": "Edmonton", "addr:state": "ab", "addr:postcode": "T5L 4Y8", "name": "Safeway Pallisades RX & GB Safeway", "phone": "780-377-2402", "website": "https://www.safeway.ca/stores/safeway-pallisades/", "opening_hours": "Mo-Su 08:00-22:00", "brand": "Safeway", "brand:wikidata": "Q17111901"}, "geometry": {"type": "Point", "coordinates": [-113.546104, 53.599578]}},
{"type": "Feature", "id": "j8gyZQxDx0Miyi-w9QRIOh3Zv9g=", "properties": {"ref": "11799", "@spider": "safeway_ca", "addr:full": "1175 Mt.Seymour Road", "addr:city": "North Vancouver", "addr:state": "bc", "addr:postcode": "V7H 2Y4", "name": "Safeway Parkgate Village Safeway", "phone": "604-924-1302", "website": "https://www.safeway.ca/stores/safeway-parkgate-village/", "opening_hours": "Mo-Su 07:00-22:00", "brand": "Safeway", "brand:wikidata": "Q17111901"}, "geometry": {"type": "Point", "coordinates": [-122.9709, 49.317]}},
{"type": "Feature", "id": "P_VpwW430NEyu99TLhpdVmRhdn8=", "properties": {"ref": "11796", "@spider": "safeway_ca", "addr:full": "801 1301 Main Street", "addr:city": "Penticton", "addr:state": "bc", "addr:postcode": "V2A 5E9", "name": "Safeway Penticton Plaza Safeway", "phone": "250-487-2103", "website": "https://www.safeway.ca/stores/safeway-penticton-plaza/", "opening_hours": "Mo-Su 07:00-22:00", "brand": "Safeway", "brand:wikidata": "Q17111901"}, "geometry": {"type": "Point", "coordinates": [-119.5891, 49.4849]}},
{"type": "Feature", "id": "89PFTajyGFS9Q9JdwS4Y8ddE2JQ=", "properties": {"ref": "11795", "@spider": "safeway_ca", "addr:full": "697 Bernard Avenue", "addr:city": "Kelowna", "addr:state": "bc", "addr:postcode": "V1Y 6P4", "name": "Safeway Downtown Kelowna Safeway", "phone": "250-860-0332", "website": "https://www.safeway.ca/stores/safeway-downtown-kelowna/", "opening_hours": "Mo-Su 07:00-23:00", "brand": "Safeway", "brand:wikidata": "Q17111901"}, "geometry": {"type": "Point", "coordinates": [-119.4898, 49.8858]}},
{"type": "Feature", "id": "Rz5vMmiq_zrRk5PVDdr7HSk2mOQ=", "properties": {"ref": "11792", "@spider": "safeway_ca", "addr:full": "1170 East 27 Street", "addr:city": "North Vancouver", "addr:state": "bc", "addr:postcode": "V7J 1S1", "name": "Safeway Lynn Valley Safeway", "phone": "604-980-3316", "website": "https://www.safeway.ca/stores/safeway-lynn-valley/", "opening_hours": "Mo-Su 07:00-22:00", "brand": "Safeway", "brand:wikidata": "Q17111901"}, "geometry": {"type": "Point", "coordinates": [-123.0419, 49.3342]}},
{"type": "Feature", "id": "_E-pJE8N9MfteDs54U6QxFP5KkI=", "properties": {"ref": "11790", "@spider": "safeway_ca", "addr:full": "211 Anderson", "addr:city": "Nelson", "addr:state": "bc", "addr:postcode": "V1L 3X8", "name": "Safeway Nelson Safeway", "phone": "250-352-9710", "website": "https://www.safeway.ca/stores/safeway-nelson/", "opening_hours": "Mo-Su 07:00-21:00", "brand": "Safeway", "brand:wikidata": "Q17111901"}, "geometry": {"type": "Point", "coordinates": [-117.2824, 49.5007]}},
{"type": "Feature", "id": "BfDiOdNX3Cg0baGRLSfNctzuock=", "properties": {"ref": "11811", "@spider": "safeway_ca", "addr:full": "600, 6655 - 178 Street NW", "addr:city": "Edmonton", "addr:state": "ab", "addr:postcode": "T5T 4J5", "name": "Safeway Callingwood Safeway", "phone": "780-487-1050", "website": "https://www.safeway.ca/stores/safeway-callingwood/", "opening_hours": "Mo-Su 07:00-22:00", "brand": "Safeway", "brand:wikidata": "Q17111901"}, "geometry": {"type": "Point", "coordinates": [-113.628964, 53.500975]}},
{"type": "Feature", "id": "oNrByaEVK7pCqX6Y6v5ItY355qc=", "properties": {"ref": "11810", "@spider": "safeway_ca", "addr:full": "4202 Southpark Drive", "addr:city": "Stony Plain", "addr:state": "ab", "addr:postcode": "T7Z 1L1", "name": "Safeway Stony Plain Safeway", "phone": "780-963-2330", "website": "https://www.safeway.ca/stores/safeway-stony-plain/", "opening_hours": "Mo-Su 07:00-22:00", "brand": "Safeway", "brand:wikidata": "Q17111901"}, "geometry": {"type": "Point", "coordinates": [-113.978948, 53.540161]}},
{"type": "Feature", "id": "KK-TfmLOGrZIRsiebnm_3vTOS1Q=", "properties": {"ref": "11809", "@spider": "safeway_ca", "addr:full": "8118 -118 Avenue NW", "addr:city": "Edmonton", "addr:state": "ab", "addr:postcode": "T5B 0S1", "name": "Safeway Coliseum RX Gas Bar Safeway", "phone": "780-477-6459", "website": "https://www.safeway.ca/stores/safeway-coliseum/", "opening_hours": "24/7", "brand": "Safeway", "brand:wikidata": "Q17111901"}, "geometry": {"type": "Point", "coordinates": [-113.466468, 53.57121]}},
{"type": "Feature", "id": "cu1uPvuwmnTzBykryG8OV8-lJrI=", "properties": {"ref": "11788", "@spider": "safeway_ca", "addr:full": "1450 King Street", "addr:city": "Smithers", "addr:state": "bc", "addr:postcode": "V0J 2N0", "name": "Safeway Smithers Safeway", "phone": "250-847-2622", "website": "https://www.safeway.ca/stores/safeway-smithers/", "opening_hours": "Mo-Su 07:00-22:00", "brand": "Safeway", "brand:wikidata": "Q17111901"}, "geometry": {"type": "Point", "coordinates": [-127.1615, 54.7805]}},
{"type": "Feature", "id": "YOnXvgX_cQNp_vJ2bOsPuKaNcbQ=", "properties": {"ref": "11787", "@spider": "safeway_ca", "addr:full": "2315 West 4 Avenue", "addr:city": "Vancouver", "addr:state": "bc", "addr:postcode": "V6K 1P2", "name": "Safeway West Fourth and Vine Safeway", "phone": "604-737-9803", "website": "https://www.safeway.ca/stores/safeway-west-fourth-and-vine/", "opening_hours": "Mo-Su 07:00-23:00", "brand": "Safeway", "brand:wikidata": "Q17111901"}, "geometry": {"type": "Point", "coordinates": [-123.1589, 49.2687]}},
{"type": "Feature", "id": "yIc2NTUNrsVcmO1ldUkSZ3HCfc4=", "properties": {"ref": "11786", "@spider": "safeway_ca", "addr:full": "990 King Edward Avenue", "addr:city": "West Vancouver", "addr:state": "bc", "addr:postcode": "V5Z 2M9", "name": "Safeway King Edward Mall Safeway", "phone": "604-733-0073", "website": "https://www.safeway.ca/stores/safeway-king-edward-mall/", "opening_hours": "Mo-Su 07:00-23:00", "brand": "Safeway", "brand:wikidata": "Q17111901"}, "geometry": {"type": "Point", "coordinates": [-123.127, 49.2486]}},
{"type": "Feature", "id": "yt9bxJg2WNKrgIbX8WqDBMQ7xn4=", "properties": {"ref": "11784", "@spider": "safeway_ca", "addr:full": "4655 Lakelse Avenue", "addr:city": "Terrace", "addr:state": "bc", "addr:postcode": "V8G 1R3", "name": "Safeway Terrace Safeway", "phone": "250-635-7206", "website": "https://www.safeway.ca/stores/safeway-terrace/", "opening_hours": "Mo-Su 07:00-22:00", "brand": "Safeway", "brand:wikidata": "Q17111901"}, "geometry": {"type": "Point", "coordinates": [-128.5913, 54.5157]}},
{"type": "Feature", "id": "dR8010fWlz__xDTkFR9i-uM4cdE=", "properties": {"ref": "11778", "@spider": "safeway_ca", "addr:full": "12825 16 Avenue", "addr:city": "Surrey", "addr:state": "bc", "addr:postcode": "V4A 1N5", "name": "Safeway Ocean Park Safeway", "phone": "604-531-3422", "website": "https://www.safeway.ca/stores/safeway-ocean-park/", "opening_hours": "Mo-Su 07:00-22:00", "brand": "Safeway", "brand:wikidata": "Q17111901"}, "geometry": {"type": "Point", "coordinates": [-122.8664, 49.0322]}},
{"type": "Feature", "id": "T4kLQosg8rrnrA7zPvMpb7zMftE=", "properties": {"ref": "11766", "@spider": "safeway_ca", "addr:full": "445 Reid Street", "addr:city": "Quesnel", "addr:state": "bc", "addr:postcode": "V2J 2M7", "name": "Safeway Quesnel Safeway", "phone": "250-992-6477", "website": "https://www.safeway.ca/stores/safeway-quesnel/", "opening_hours": "Mo-Su 07:00-22:00", "brand": "Safeway", "brand:wikidata": "Q17111901"}, "geometry": {"type": "Point", "coordinates": [-122.4983, 52.9795]}},
{"type": "Feature", "id": "pkpCBoPh1opZai9gO9hMNVJhgTg=", "properties": {"ref": "11765", "@spider": "safeway_ca", "addr:full": "800 McBride Boulevard", "addr:city": "New Westminster", "addr:state": "bc", "addr:postcode": "V3L 2B8", "name": "Safeway McBride Safeway", "phone": "604-524-4418", "website": "https://www.safeway.ca/stores/safeway-mcbride/", "opening_hours": "Mo-Su 07:00-22:00", "brand": "Safeway", "brand:wikidata": "Q17111901"}, "geometry": {"type": "Point", "coordinates": [-122.9142, 49.2223]}},
{"type": "Feature", "id": "BegM0t7h3Psqs5y3aEAajwcxn3o=", "properties": {"ref": "11764", "@spider": "safeway_ca", "addr:full": "750 Fortune Drive", "addr:city": "Kamloops", "addr:state": "bc", "addr:postcode": "V2B 2L2", "name": "Safeway Fortune Safeway", "phone": "250-376-4129", "website": "https://www.safeway.ca/stores/safeway-fortune/", "opening_hours": "Mo-Su 07:00-23:00", "brand": "Safeway", "brand:wikidata": "Q17111901"}, "geometry": {"type": "Point", "coordinates": [-120.3608, 50.7007]}},
{"type": "Feature", "id": "0n5QXwcP2JLwpyLUrpJPLqHi6AQ=", "properties": {"ref": "11762", "@spider": "safeway_ca", "addr:full": "8860-152 Street", "addr:city": "Surrey", "addr:state": "bc", "addr:postcode": "V3R 4E4", "name": "Safeway Fleetwood Safeway", "phone": "604-589-4774", "website": "https://www.safeway.ca/stores/safeway-fleetwood/", "opening_hours": "Mo-Su 07:00-22:00", "brand": "Safeway", "brand:wikidata": "Q17111901"}, "geometry": {"type": "Point", "coordinates": [-122.80081, 49.163324]}}]}