{"type":"FeatureCollection","features":[{"type": "Feature", "id": "QDFIGihQ2AfIDQViC_6iP4EzneI=", "properties": {"ref": "A2953743", "@spider": "shoprite", "addr:full": "949 Beards Hill Road", "addr:city": "Aberdeen", "addr:state": "Maryland", "addr:postcode": "21001", "name": "ShopRite of Aberdeen, MD", "website": "https://shoprite.com/store/A2953743", "brand": "ShopRite"}, "geometry": {"type": "Point", "coordinates": [-76.181332, 39.525384]}},
{"type": "Feature", "id": "Hhe4hOSckdB6zcLlyE0znbcOh7w=", "properties": {"ref": "8A003746", "@spider": "shoprite", "addr:full": "1606 Dooley Road", "addr:city": "Cardiff", "addr:state": "Maryland", "addr:postcode": "21160", "name": "ShopRite of Cardiff", "website": "https://shoprite.com/store/8A003746", "brand": "ShopRite"}, "geometry": {"type": "Point", "coordinates": [-76.342521, 39.720429]}},
{"type": "Feature", "id": "p86SXbHvjo-LFggcWDTcCtSTglI=", "properties": {"ref": "19433744", "@spider": "shoprite", "addr:full": "5 Bel Air South Parkway", "addr:city": "Bel Air", "addr:state": "Maryland", "addr:postcode": "21015", "name": "ShopRite of Festival", "website": "https://shoprite.com/store/19433744", "brand": "ShopRite"}, "geometry": {"type": "Point", "coordinates": [-76.325493, 39.493319]}},
{"type": "Feature", "id": "8tV4rkqySmywqzlc3m51D-u6qxw=", "properties": {"ref": "5B3E3741", "@spider": "shoprite", "addr:full": "2101 Rockspring Road", "addr:city": "Forest Hill", "addr:state": "Maryland", "addr:postcode": "21050", "name": "ShopRite of Forest Hill", "website": "https://shoprite.com/store/5B3E3741", "brand": "ShopRite"}, "geometry": {"type": "Point", "coordinates": [-76.384913, 39.575044]}},
{"type": "Feature", "id": "RwOD4_6gMB-4f2s-psIRVt3zjgA=", "properties": {"ref": "B9F0605", "@spider": "shoprite", "addr:full": "1600 W Newport Pike", "addr:city": "Wilmington", "addr:state": "Delaware", "addr:postcode": "19804", "name": "ShopRite of 1st State Plaza", "website": "https://shoprite.com/store/B9F0605", "brand": "ShopRite"}, "geometry": {"type": "Point", "coordinates": [-75.627908, 39.714709]}},
{"type": "Feature", "id": "77ZjnBj_yvcO-3qTyjV90c7LkmE=", "properties": {"ref": "7837567", "@spider": "shoprite", "addr:full": "1300 Rocky Run Parkway", "addr:city": "Wilmington", "addr:state": "Delaware", "addr:postcode": "19803", "name": "ShopRite of Brandywine Commons", "website": "https://shoprite.com/store/7837567", "brand": "ShopRite"}, "geometry": {"type": "Point", "coordinates": [-75.548371, 39.824935]}},
{"type": "Feature", "id": "TF_wCA3uJsKFHWH2BiersM2zYho=", "properties": {"ref": "536C1781", "@spider": "shoprite", "addr:full": "501 South Walnut Street", "addr:city": "Wilmington", "addr:state": "Delaware", "addr:postcode": "19801", "name": "ShopRite of Christina Crossing", "website": "https://shoprite.com/store/536C1781", "brand": "ShopRite"}, "geometry": {"type": "Point", "coordinates": [-75.554777, 39.731313]}},
{"type": "Feature", "id": "dkS7-YHUwZuPj6uP-hCDyU9ifzU=", "properties": {"ref": "0B36118737", "@spider": "shoprite", "addr:full": "700 Plaza Drive", "addr:city": "Newark", "addr:state": "Delaware", "addr:postcode": "19702", "name": "ShopRite of Four Seasons", "website": "https://shoprite.com/store/0B36118737", "brand": "ShopRite"}, "geometry": {"type": "Point", "coordinates": [-75.746506, 39.626992]}},
{"type": "Feature", "id": "ZocDYS7zuKQFBYC6mHwUupHOhNI=", "properties": {"ref": "3E1F1780", "@spider": "shoprite", "addr:full": "1101 Governors Place", "addr:city": "Bear", "addr:state": "Delaware", "addr:postcode": "19701", "name": "ShopRite of Governor's Square", "website": "https://shoprite.com/store/3E1F1780", "brand": "ShopRite"}, "geometry": {"type": "Point", "coordinates": [-75.664896, 39.63204]}},
{"type": "Feature", "id": "f51OY9AveZszV_ewNqxsCFg1YpA=", "properties": {"ref": "8E2C607", "@spider": "shoprite", "addr:full": "19 Chestnut Hill Plaza", "addr:city": "Newark", "addr:state": "Delaware", "addr:postcode": "19713", "name": "ShopRite of Newark, DE", "website": "https://shoprite.com/store/8E2C607", "brand": "ShopRite"}, "geometry": {"type": "Point", "coordinates": [-75.723363, 39.662419]}},
{"type": "Feature", "id": "ooFLiGuWXJP7TKqSaDnfOTtURM8=", "properties": {"ref": "C7C7123750", "@spider": "shoprite", "addr:full": "4601 Liberty Heights Ave", "addr:city": "Baltimore", "addr:state": "Maryland", "addr:postcode": "21207", "name": "ShopRite of Howard Park", "website": "https://shoprite.com/store/C7C7123750", "brand": "ShopRite"}, "geometry": {"type": "Point", "coordinates": [-76.695016, 39.331081]}},
{"type": "Feature", "id": "z0N8UkLx0Pb24VKAqXCsMCKS5pE=", "properties": {"ref": "4C243747", "@spider": "shoprite", "addr:full": "14330 Jarrettsville Pike", "addr:city": "Phoenix", "addr:state": "Maryland", "addr:postcode": "21131", "name": "ShopRite of Jacksonville", "website": "https://shoprite.com/store/4C243747", "brand": "ShopRite"}, "geometry": {"type": "Point", "coordinates": [-76.560235, 39.520161]}},
{"type": "Feature", "id": "g6_sOXQs1HYfN26ejV4leZQwEOI=", "properties": {"ref": "25DE3742", "@spider": "shoprite", "addr:full": "223 N Main Street", "addr:city": "Bel Air", "addr:state": "Maryland", "addr:postcode": "21014", "name": "ShopRite of Main Street", "website": "https://shoprite.com/store/25DE3742", "brand": "ShopRite"}, "geometry": {"type": "Point", "coordinates": [-76.353266, 39.539559]}},
{"type": "Feature", "id": "x5DuZN2zRU8ou70DNr1ZmmVLets=", "properties": {"ref": "4C8078528", "@spider": "shoprite", "addr:full": "2401 Cleanleigh Drive", "addr:city": "Parkville", "addr:state": "Maryland", "addr:postcode": "21234", "name": "ShopRite of Parkville", "website": "https://shoprite.com/store/4C8078528", "brand": "ShopRite"}, "geometry": {"type": "Point", "coordinates": [-76.564027, 39.372419]}},
{"type": "Feature", "id": "k9M_6S010gQPvFQ3OLJbsFCloVU=", "properties": {"ref": "F08E3745", "@spider": "shoprite", "addr:full": "1321 Riverside Parkway", "addr:city": "Belcamp", "addr:state": "Maryland", "addr:postcode": "21017", "name": "ShopRite of Riverside", "website": "https://shoprite.com/store/F08E3745", "brand": "ShopRite"}, "geometry": {"type": "Point", "coordinates": [-76.247392, 39.48018]}},
{"type": "Feature", "id": "KbRYchC98xuDOFLbzyZ0DL3mUpM=", "properties": {"ref": "D5665969", "@spider": "shoprite", "addr:full": "37 W Aylesbury Road", "addr:city": "Lutherville-Timonium", "addr:state": "Maryland", "addr:postcode": "21093", "name": "ShopRite of Timonium, MD", "website": "https://shoprite.com/store/D5665969", "brand": "ShopRite"}, "geometry": {"type": "Point", "coordinates": [-76.627501, 39.437253]}},
{"type": "Feature", "id": "iQjlwu3KQR8BtZX4t6kt4N002kw=", "properties": {"ref": "5435123760", "@spider": "shoprite", "addr:full": "133-11 20th Ave", "addr:city": "College Point", "addr:state": "New York", "addr:postcode": "11356", "name": "ShopRite of 20th Ave.", "website": "https://shoprite.com/store/5435123760", "brand": "ShopRite"}, "geometry": {"type": "Point", "coordinates": [-73.835224, 40.783231]}},
{"type": "Feature", "id": "J7wVxi-6qpkpZyXSexl2evHijKw=", "properties": {"ref": "DE596162", "@spider": "shoprite", "addr:full": "709 Central Ave", "addr:city": "Albany", "addr:state": "New York", "addr:postcode": "12206", "name": "ShopRite of Albany", "website": "https://shoprite.com/store/DE596162", "brand": "ShopRite"}, "geometry": {"type": "Point", "coordinates": [-73.78455, 42.677409]}},
{"type": "Feature", "id": "ISdp2esDy3vG1FWX_08C_oP2AQI=", "properties": {"ref": "C429610", "@spider": "shoprite", "addr:full": "1080 McDonald Ave", "addr:city": "Brooklyn", "addr:state": "New York", "addr:postcode": "11230", "name": "ShopRite of Avenue I", "website": "https://shoprite.com/store/C429610", "brand": "ShopRite"}, "geometry": {"type": "Point", "coordinates": [-73.977109, 40.626775]}},
{"type": "Feature", "id": "PUZg2V4PBsjg768yQaONTHluELw=", "properties": {"ref": "6E3D399", "@spider": "shoprite", "addr:full": "1905 Sunrise Hwy", "addr:city": "Bay Shore", "addr:state": "New York", "addr:postcode": "11706", "name": "ShopRite of Bay Shore", "website": "https://shoprite.com/store/6E3D399", "brand": "ShopRite"}, "geometry": {"type": "Point", "coordinates": [-73.233219, 40.740268]}},
{"type": "Feature", "id": "UFk3-Ile9dgNY-7F3ScFR7fTVv0=", "properties": {"ref": "BB84372", "@spider": "shoprite", "addr:full": "747 Bedford Road", "addr:city": "Bedford Hills", "addr:state": "New York", "addr:postcode": "10507", "name": "ShopRite of Bedford Hills", "website": "https://shoprite.com/store/BB84372", "brand": "ShopRite"}, "geometry": {"type": "Point", "coordinates": [-73.715228, 41.224858]}},
{"type": "Feature", "id": "8WZXXbxQhAOT0UsnEuUR7BTECFQ=", "properties": {"ref": "57D5123773", "@spider": "shoprite", "addr:full": "3901 Hempstead Turnpike", "addr:city": "Bethpage", "addr:state": "New York", "addr:postcode": "11714", "name": "ShopRite of Bethpage", "website": "https://shoprite.com/store/57D5123773", "brand": "ShopRite"}, "geometry": {"type": "Point", "coordinates": [-73.491564, 40.726311]}},
{"type": "Feature", "id": "eK_AD4ZqBF8f-gfMgzB52-fhSxc=", "properties": {"ref": "09F9123789", "@spider": "shoprite", "addr:full": "1994 Bruckner Blvd", "addr:city": "Bronx", "addr:state": "New York", "addr:postcode": "10473", "name": "ShopRite of Bruckner Blvd", "website": "https://shoprite.com/store/09F9123789", "brand": "ShopRite"}, "geometry": {"type": "Point", "coordinates": [-73.855307, 40.824064]}},
{"type": "Feature", "id": "ceIoqzh2VA8aq7d-sQS0K6XuKJ4=", "properties": {"ref": "BDD2621", "@spider": "shoprite", "addr:full": "184 Route 52", "addr:city": "Carmel", "addr:state": "New York", "addr:postcode": "10512", "name": "ShopRite of Carmel", "website": "https://shoprite.com/store/BDD2621", "brand": "ShopRite"}, "geometry": {"type": "Point", "coordinates": [-73.680262, 41.43613]}},
{"type": "Feature", "id": "dRddvcg0tp86agye_s4uiKBffIc=", "properties": {"ref": "C16C625", "@spider": "shoprite", "addr:full": "78 Brookside Avenue Suite 122", "addr:city": "Chester", "addr:state": "New York", "addr:postcode": "10918", "name": "ShopRite of Chester Plaza, NY", "website": "https://shoprite.com/store/C16C625", "brand": "ShopRite"}, "geometry": {"type": "Point", "coordinates": [-74.283795, 41.360385]}},
{"type": "Feature", "id": "DrD-N7r9mVWHq1XTvVBEQEZqNXE=", "properties": {"ref": "CE8079103", "@spider": "shoprite", "addr:full": "1730 Central Avenue", "addr:city": "Colonie", "addr:state": "New York", "addr:postcode": "12205", "name": "ShopRite of Colonie", "website": "https://shoprite.com/store/CE8079103", "brand": "ShopRite"}, "geometry": {"type": "Point", "coordinates": [-73.844041, 42.724164]}},
{"type": "Feature", "id": "aR_n38ItguSMlYPzYncEA9vq0yI=", "properties": {"ref": "C5D15478", "@spider": "shoprite", "addr:full": "1 Garet Place", "addr:city": "Commack", "addr:state": "New York", "addr:postcode": "11725", "name": "ShopRite of Commack", "website": "https://shoprite.com/store/C5D15478", "brand": "ShopRite"}, "geometry": {"type": "Point", "coordinates": [-73.288822, 40.807794]}},
{"type": "Feature", "id": "Km2dy8oiNRiKDIbduF-9YflCPq0=", "properties": {"ref": "3D90123793", "@spider": "shoprite", "addr:full": "3140 East Main Street, Suite 300", "addr:city": "Mohegan Lake", "addr:state": "New York", "addr:postcode": "10547", "name": "ShopRite of Cortlandt", "website": "https://shoprite.com/store/3D90123793", "brand": "ShopRite"}, "geometry": {"type": "Point", "coordinates": [-73.868313, 41.313165]}},
{"type": "Feature", "id": "tkAJZcNhFWRbzBe92NYrM__nfx0=", "properties": {"ref": "8351123787", "@spider": "shoprite", "addr:full": "1675 Old Country Road", "addr:city": "Plainview", "addr:state": "New York", "addr:postcode": "11803", "name": "ShopRite of Country Pointe", "website": "https://shoprite.com/store/8351123787", "brand": "ShopRite"}, "geometry": {"type": "Point", "coordinates": [-73.443907, 40.783384]}},
{"type": "Feature", "id": "I2VF-N8_-gacM5hnZfRXhPdXAqg=", "properties": {"ref": "7F09373", "@spider": "shoprite", "addr:full": "460 South Riverside Avenue", "addr:city": "Croton-on-Hudson", "addr:state": "New York", "addr:postcode": "10520", "name": "ShopRite of Croton", "website": "https://shoprite.com/store/7F09373", "brand": "ShopRite"}, "geometry": {"type": "Point", "coordinates": [-73.879477, 41.192142]}},
{"type": "Feature", "id": "zx1GJQuCeG4yNf-RPnHLUC7RKV8=", "properties": {"ref": "8D7E123772", "@spider": "shoprite", "addr:full": "1960 Deer Park Avenue", "addr:city": "Deer Park", "addr:state": "New York", "addr:postcode": "11729", "name": "ShopRite of Deer Park", "website": "https://shoprite.com/store/8D7E123772", "brand": "ShopRite"}, "geometry": {"type": "Point", "coordinates": [-73.331979, 40.764329]}},
{"type": "Feature", "id": "oE2UAsQWHxhYG4REFljeCL-Qgto=", "properties": {"ref": "0828630", "@spider": "shoprite", "addr:full": "1 ShopRite Boulevard", "addr:city": "Ellenville", "addr:state": "New York", "addr:postcode": "12428", "name": "ShopRite of Ellenville", "website": "https://shoprite.com/store/0828630", "brand": "ShopRite"}, "geometry": {"type": "Point", "coordinates": [-74.381492, 41.731107]}},
{"type": "Feature", "id": "rSDX3Nhq8zamPdBRZU_1GjnwpPM=", "properties": {"ref": "0C90632", "@spider": "shoprite", "addr:full": "738 Route 9, Suite 2,", "addr:city": "Fishkill", "addr:state": "New York", "addr:postcode": "12524", "name": "ShopRite of Fishkill", "website": "https://shoprite.com/store/0C90632", "brand": "ShopRite"}, "geometry": {"type": "Point", "coordinates": [-73.897792, 41.539643]}},
{"type": "Feature", "id": "Q-oZajsd-T_pvzcvS9DeWijYrcY=", "properties": {"ref": "BF05597", "@spider": "shoprite", "addr:full": "985 Richmond Avenue", "addr:city": "Staten Island", "addr:state": "New York", "addr:postcode": "10314", "name": "ShopRite of Forest & Richmond", "website": "https://shoprite.com/store/BF05597", "brand": "ShopRite"}, "geometry": {"type": "Point", "coordinates": [-74.148556, 40.622856]}},
{"type": "Feature", "id": "F7_8Br5wS9qNyHTLl19SV74j6o4=", "properties": {"ref": "4B31558", "@spider": "shoprite", "addr:full": "56 West Ramapo Road", "addr:city": "Garnerville", "addr:state": "New York", "addr:postcode": "10923", "name": "ShopRite of Garnerville", "website": "https://shoprite.com/store/4B31558", "brand": "ShopRite"}, "geometry": {"type": "Point", "coordinates": [-74.008654, 41.200295]}},
{"type": "Feature", "id": "rXnVUEj7SzBsoWE-uAPVVqD4ctw=", "properties": {"ref": "244A123747", "@spider": "shoprite", "addr:full": "590 Gateway Drive", "addr:city": "Brooklyn", "addr:state": "New York", "addr:postcode": "11239", "name": "ShopRite of Gateway Center", "website": "https://shoprite.com/store/244A123747", "brand": "ShopRite"}, "geometry": {"type": "Point", "coordinates": [-73.871212, 40.651854]}},
{"type": "Feature", "id": "pj4J1x8Qkr118Bz55pbnxancHc8=", "properties": {"ref": "CCCE603", "@spider": "shoprite", "addr:full": "25-43 Prospect Street", "addr:city": "Yonkers", "addr:state": "New York", "addr:postcode": "10701", "name": "ShopRite of Greenway Plaza", "website": "https://shoprite.com/store/CCCE603", "brand": "ShopRite"}, "geometry": {"type": "Point", "coordinates": [-73.900797, 40.933047]}},
{"type": "Feature", "id": "XNNfT_0LVb59m5qEmKiQv9r7hyo=", "properties": {"ref": "54CE392", "@spider": "shoprite", "addr:full": "335 Nesconset Hwy (Rt 347)", "addr:city": "Hauppauge", "addr:state": "New York", "addr:postcode": "11788", "name": "ShopRite of Hauppauge", "website": "https://shoprite.com/store/54CE392", "brand": "ShopRite"}, "geometry": {"type": "Point", "coordinates": [-73.20261, 40.826667]}},
{"type": "Feature", "id": "BsWJkp8gT8jlzrU7DdL6BS8JrSs=", "properties": {"ref": "1492123792", "@spider": "shoprite", "addr:full": "351 Fairview Avenue", "addr:city": "Hudson", "addr:state": "New York", "addr:postcode": "12534", "name": "ShopRite of Hudson", "website": "https://shoprite.com/store/1492123792", "brand": "ShopRite"}, "geometry": {"type": "Point", "coordinates": [-73.763559, 42.272047]}},
{"type": "Feature", "id": "huSarynNo7qycKTIAZc8wvk6Vmk=", "properties": {"ref": "C266123805", "@spider": "shoprite", "addr:full": "2656 Hylan Boulevard Suite 100", "addr:city": "Staten Island", "addr:state": "New York", "addr:postcode": "10306", "name": "ShopRite of Hylan Plaza", "website": "https://shoprite.com/store/C266123805", "brand": "ShopRite"}, "geometry": {"type": "Point", "coordinates": [-74.113162, 40.567337]}},
{"type": "Feature", "id": "ADImTCB9e2tci8zblZuuapBq7Yg=", "properties": {"ref": "B801624", "@spider": "shoprite", "addr:full": "801 Miron Lane", "addr:city": "Kingston", "addr:state": "New York", "addr:postcode": "12401", "name": "ShopRite of Kingston", "website": "https://shoprite.com/store/B801624", "brand": "ShopRite"}, "geometry": {"type": "Point", "coordinates": [-73.986227, 41.960128]}},
{"type": "Feature", "id": "0sdZl3-oVzsK0cMvZoHn-QVJisg=", "properties": {"ref": "CD0D123774", "@spider": "shoprite", "addr:full": "1643 NY-82 Suite 1", "addr:city": "LaGrangeville", "addr:state": "New York", "addr:postcode": "12540", "name": "ShopRite of LaGrangeville", "website": "https://shoprite.com/store/CD0D123774", "brand": "ShopRite"}, "geometry": {"type": "Point", "coordinates": [-73.772687, 41.629522]}},
{"type": "Feature", "id": "1HLjWMK54T7TZjr52tbaJ76lIsY=", "properties": {"ref": "A932123790", "@spider": "shoprite", "addr:full": "601 Portion Rd", "addr:city": "Lake Ronkonkoma", "addr:state": "New York", "addr:postcode": "11779", "name": "ShopRite of Lake Ronkonkoma", "website": "https://shoprite.com/store/A932123790", "brand": "ShopRite"}, "geometry": {"type": "Point", "coordinates": [-73.088843, 40.832331]}},
{"type": "Feature", "id": "YnWnL3D9x-1D5X0xVRp8Nvw0eYM=", "properties": {"ref": "9F55629", "@spider": "shoprite", "addr:full": "1955 State Route 52", "addr:city": "Liberty", "addr:state": "New York", "addr:postcode": "12754", "name": "ShopRite of Liberty", "website": "https://shoprite.com/store/9F55629", "brand": "ShopRite"}, "geometry": {"type": "Point", "coordinates": [-74.720172, 41.783002]}},
{"type": "Feature", "id": "Mjza2aQ6VGXulI2-QSdHBoB5TnA=", "properties": {"ref": "7B4A123780", "@spider": "shoprite", "addr:full": "5508 Sunrise Highway", "addr:city": "Massapequa", "addr:state": "New York", "addr:postcode": "11758", "name": "ShopRite of Massapequa", "website": "https://shoprite.com/store/7B4A123780", "brand": "ShopRite"}, "geometry": {"type": "Point", "coordinates": [-73.436986, 40.675679]}},
{"type": "Feature", "id": "jX0lSq30tg2S9CaRjfuCUfHsOjo=", "properties": {"ref": "59D3634", "@spider": "shoprite", "addr:full": "125 Dolson Ave", "addr:city": "Middletown", "addr:state": "New York", "addr:postcode": "10940", "name": "ShopRite of Middletown", "website": "https://shoprite.com/store/59D3634", "brand": "ShopRite"}, "geometry": {"type": "Point", "coordinates": [-74.423682, 41.42923]}},
{"type": "Feature", "id": "mHrc5ANImhxu5zJUxtMgA84KVyQ=", "properties": {"ref": "D4F9622", "@spider": "shoprite", "addr:full": "785 State Route 17M, Suite 1,", "addr:city": "Monroe", "addr:state": "New York", "addr:postcode": "10950", "name": "ShopRite of Monroe", "website": "https://shoprite.com/store/D4F9622", "brand": "ShopRite"}, "geometry": {"type": "Point", "coordinates": [-74.193995, 41.331846]}},
{"type": "Feature", "id": "zxoPylTACQ4u00lcc9pP6Hw06FQ=", "properties": {"ref": "F8F1623", "@spider": "shoprite", "addr:full": "99 Hawkins Dr", "addr:city": "Montgomery", "addr:state": "New York", "addr:postcode": "12549", "name": "ShopRite of Montgomery, NY", "website": "https://shoprite.com/store/F8F1623", "brand": "ShopRite"}, "geometry": {"type": "Point", "coordinates": [-74.210376, 41.511399]}},
{"type": "Feature", "id": "yOMD8SbjOdZQl0hOD13xUg1gRKc=", "properties": {"ref": "BF64620", "@spider": "shoprite", "addr:full": "46 Thompson Square", "addr:city": "Monticello", "addr:state": "New York", "addr:postcode": "12701", "name": "ShopRite of Monticello", "website": "https://shoprite.com/store/BF64620", "brand": "ShopRite"}, "geometry": {"type": "Point", "coordinates": [-74.670711, 41.666957]}},
{"type": "Feature", "id": "Kcx6e6QFhub-HIRUrIBiW6s35WA=", "properties": {"ref": "5153736", "@spider": "shoprite", "addr:full": "Main St", "addr:city": "New City", "addr:state": "New York", "addr:postcode": "10956", "name": "ShopRite of New City", "website": "https://shoprite.com/store/5153736", "brand": "ShopRite"}, "geometry": {"type": "Point", "coordinates": [-73.987657, 41.149128]}},
{"type": "Feature", "id": "PlPO_LFtvHsq-Kf2YZKz-5y1WBQ=", "properties": {"ref": "FFD4123770", "@spider": "shoprite", "addr:full": "2335 New Hyde Park Road", "addr:city": "New Hyde Park", "addr:state": "New York", "addr:postcode": "11042", "name": "ShopRite of New Hyde Park", "website": "https://shoprite.com/store/FFD4123770", "brand": "ShopRite"}, "geometry": {"type": "Point", "coordinates": [-73.689777, 40.758134]}},
{"type": "Feature", "id": "Cub5Qz15pc7NASuk6xC6wzZAm7A=", "properties": {"ref": "EDBF635", "@spider": "shoprite", "addr:full": "258 Main Street", "addr:city": "New Paltz", "addr:state": "New York", "addr:postcode": "12561", "name": "ShopRite of New Paltz", "website": "https://shoprite.com/store/EDBF635", "brand": "ShopRite"}, "geometry": {"type": "Point", "coordinates": [-74.069413, 41.741537]}},
{"type": "Feature", "id": "opKgR9y0_wefiduJUE841aytDAw=", "properties": {"ref": "883C3876", "@spider": "shoprite", "addr:full": "8 Joyce Rd & Palmer Ave", "addr:city": "New Rochelle", "addr:state": "New York", "addr:postcode": "10801", "name": "ShopRite of New Rochelle", "website": "https://shoprite.com/store/883C3876", "brand": "ShopRite"}, "geometry": {"type": "Point", "coordinates": [-73.778969, 40.916521]}},
{"type": "Feature", "id": "3KlIj-62DBdD_Pxh_6w4N4qgwbA=", "properties": {"ref": "52B75970", "@spider": "shoprite", "addr:full": "2333 Nott Street East", "addr:city": "Niskayuna", "addr:state": "New York", "addr:postcode": "12309", "name": "ShopRite of Niskayuna", "website": "https://shoprite.com/store/52B75970", "brand": "ShopRite"}, "geometry": {"type": "Point", "coordinates": [-73.889748, 42.816673]}},
{"type": "Feature", "id": "w4Qg6_HvPpPQ0BBsRwEW_roqcmc=", "properties": {"ref": "0DDE123786", "@spider": "shoprite", "addr:full": "102 Van Rensselaer Square", "addr:city": "Rensselaer", "addr:state": "New York", "addr:postcode": "12144", "name": "ShopRite of North Greenbush", "website": "https://shoprite.com/store/0DDE123786", "brand": "ShopRite"}, "geometry": {"type": "Point", "coordinates": [-73.690625, 42.656931]}},
{"type": "Feature", "id": "m6adxR8FH5qWbH8djoF4g2vAXZc=", "properties": {"ref": "FCBE123813", "@spider": "shoprite", "addr:full": "10 Winslow Gate Road", "addr:city": "Poughkeepsie", "addr:state": "New York", "addr:postcode": "12601", "name": "ShopRite of North Poughkeepsie", "website": "https://shoprite.com/store/FCBE123813", "brand": "ShopRite"}, "geometry": {"type": "Point", "coordinates": [-73.92826, 41.72909]}},
{"type": "Feature", "id": "F9A-aYNC3_PT6Nwi3DiUUlhG11M=", "properties": {"ref": "18E55966", "@spider": "shoprite", "addr:full": "95 Sunrise Highway", "addr:city": "Patchogue", "addr:state": "New York", "addr:postcode": "11772", "name": "ShopRite of Patchogue", "website": "https://shoprite.com/store/18E55966", "brand": "ShopRite"}, "geometry": {"type": "Point", "coordinates": [-73.005942, 40.78112]}},
{"type": "Feature", "id": "XORCWFJpC68wEr5h185ci7gniT8=", "properties": {"ref": "E892734", "@spider": "shoprite", "addr:full": "26 N Middletown Rd", "addr:city": "Pearl River", "addr:state": "New York", "addr:postcode": "10965", "name": "ShopRite of Pearl River", "website": "https://shoprite.com/store/E892734", "brand": "ShopRite"}, "geometry": {"type": "Point", "coordinates": [-74.011663, 41.060814]}},
{"type": "Feature", "id": "Z55iwB2juY4NN-CBJK6JSSBTGt8=", "properties": {"ref": "5F94608", "@spider": "shoprite", "addr:full": "444 Woodbury Road", "addr:city": "Plainview", "addr:state": "New York", "addr:postcode": "11803", "name": "ShopRite of Plainview - Woodbury Rd", "website": "https://shoprite.com/store/5F94608", "brand": "ShopRite"}, "geometry": {"type": "Point", "coordinates": [-73.501064, 40.785821]}},
{"type": "Feature", "id": "JsKlGh9BGM2TEHz9UyLDv-WAiQA=", "properties": {"ref": "B450123796", "@spider": "shoprite", "addr:full": "5145 Nesconset Highway", "addr:city": "Port Jefferson Station", "addr:state": "New York", "addr:postcode": "11776", "name": "ShopRite of Port Jefferson", "website": "https://shoprite.com/store/B450123796", "brand": "ShopRite"}, "geometry": {"type": "Point", "coordinates": [-73.042918, 40.925846]}},
{"type": "Feature", "id": "61SNHoKU0jObULI-QzxMd7RLuJA=", "properties": {"ref": "9EAE826", "@spider": "shoprite", "addr:full": "1895 South Rd Suite 3B", "addr:city": "Poughkeepsie", "addr:state": "New York", "addr:postcode": "12601", "name": "ShopRite of Poughkeepsie", "website": "https://shoprite.com/store/9EAE826", "brand": "ShopRite"}, "geometry": {"type": "Point", "coordinates": [-73.92006, 41.619449]}},
{"type": "Feature", "id": "ifGuiPjjUygWLzlHAuQfSbPNgoA=", "properties": {"ref": "77C3123791", "@spider": "shoprite", "addr:full": "1510 Old Country Road", "addr:city": "Riverhead", "addr:state": "New York", "addr:postcode": "11901", "name": "ShopRite of Riverhead", "website": "https://shoprite.com/store/77C3123791", "brand": "ShopRite"}, "geometry": {"type": "Point", "coordinates": [-72.695122, 40.929037]}},
{"type": "Feature", "id": "Ut1I96OFxydzNP7pjU3PZ85DHwE=", "properties": {"ref": "24583957", "@spider": "shoprite", "addr:full": "955 Central Avenue", "addr:city": "Scarsdale", "addr:state": "New York", "addr:postcode": "10583", "name": "ShopRite of Scarsdale", "website": "https://shoprite.com/store/24583957", "brand": "ShopRite"}, "geometry": {"type": "Point", "coordinates": [-73.823111, 40.991499]}},
{"type": "Feature", "id": "0C5z5sOe1BexIJwIZmVuHFQ7rzA=", "properties": {"ref": "AB8E78913", "@spider": "shoprite", "addr:full": "71 College Plaza Selden", "addr:city": "Selden", "addr:state": "New York", "addr:postcode": "11784", "name": "ShopRite of Selden", "website": "https://shoprite.com/store/AB8E78913", "brand": "ShopRite"}, "geometry": {"type": "Point", "coordinates": [-73.047136, 40.866247]}},
{"type": "Feature", "id": "IRLRGdJig1eU2foEl4amrD8QeOs=", "properties": {"ref": "41F578539", "@spider": "shoprite", "addr:full": "41 Vista Boulevard", "addr:city": "Slingerlands", "addr:state": "New York", "addr:postcode": "12159", "name": "ShopRite of Slingerlands", "website": "https://shoprite.com/store/41F578539", "brand": "ShopRite"}, "geometry": {"type": "Point", "coordinates": [-73.863074, 42.642028]}},
{"type": "Feature", "id": "8xJaOM40aMlaJv0U__Ka_9sYG2o=", "properties": {"ref": "3B615468", "@spider": "shoprite", "addr:full": "22 Holt Drive", "addr:city": "Stony Point", "addr:state": "New York", "addr:postcode": "10980", "name": "ShopRite of Stony Point", "website": "https://shoprite.com/store/3B615468", "brand": "ShopRite"}, "geometry": {"type": "Point", "coordinates": [-73.982361, 41.217865]}},
{"type": "Feature", "id": "aXNyyV322TqbgChBS0YbyMh0exM=", "properties": {"ref": "BEEE602", "@spider": "shoprite", "addr:full": "960 Broadway Rt 141", "addr:city": "Thornwood", "addr:state": "New York", "addr:postcode": "10594", "name": "ShopRite of Thornwood", "website": "https://shoprite.com/store/BEEE602", "brand": "ShopRite"}, "geometry": {"type": "Point", "coordinates": [-73.779213, 41.125156]}},
{"type": "Feature", "id": "l5mfbn8ZXbGEupihaRACmo-BnUU=", "properties": {"ref": "A33D601", "@spider": "shoprite", "addr:full": "278 Tuckahoe Road", "addr:city": "Yonkers", "addr:state": "New York", "addr:postcode": "10710", "name": "ShopRite of Tuckahoe", "website": "https://shoprite.com/store/A33D601", "brand": "ShopRite"}, "geometry": {"type": "Point", "coordinates": [-73.858693, 40.953388]}},
{"type": "Feature", "id": "uf7gMf1NoT0pt15zgdzKyK9TW9c=", "properties": {"ref": "D2535701", "@spider": "shoprite", "addr:full": "1121 Jerusalem Ave", "addr:city": "Uniondale", "addr:state": "New York", "addr:postcode": "11553", "name": "ShopRite of Uniondale", "website": "https://shoprite.com/store/D2535701", "brand": "ShopRite"}, "geometry": {"type": "Point", "coordinates": [-73.578885, 40.695726]}},
{"type": "Feature", "id": "gOhquAyAdAnp6zQ4hMsBnFVXAuo=", "properties": {"ref": "4326628", "@spider": "shoprite", "addr:full": "384 Windsor Highway", "addr:city": "Vails Gate", "addr:state": "New York", "addr:postcode": "12584", "name": "ShopRite of Vailsgate", "website": "https://shoprite.com/store/4326628", "brand": "ShopRite"}, "geometry": {"type": "Point", "coordinates": [-74.057237, 41.45761]}},
{"type": "Feature", "id": "DngyCigTeC8W7Vw3GVW-FqNiue0=", "properties": {"ref": "D508123776", "@spider": "shoprite", "addr:full": "3010 Veterans Rd West", "addr:city": "Staten Island", "addr:state": "New York", "addr:postcode": "10309", "name": "ShopRite of Veterans Rd", "website": "https://shoprite.com/store/D508123776", "brand": "ShopRite"}, "geometry": {"type": "Point", "coordinates": [-74.235157, 40.528342]}},
{"type": "Feature", "id": "NdB9ReeNKdT4UShsXlI8hGSvLyk=", "properties": {"ref": "B5DE619", "@spider": "shoprite", "addr:full": "20 Lloyds Lane", "addr:city": "Middletown", "addr:state": "New York", "addr:postcode": "10940", "name": "ShopRite of Wallkill", "website": "https://shoprite.com/store/B5DE619", "brand": "ShopRite"}, "geometry": {"type": "Point", "coordinates": [-74.396727, 41.453459]}},
{"type": "Feature", "id": "pIbj1dtrK4ZKukt2WElgxiemyrY=", "properties": {"ref": "53D2631", "@spider": "shoprite", "addr:full": "153 State Route 94S", "addr:city": "Warwick", "addr:state": "New York", "addr:postcode": "10990", "name": "ShopRite of Warwick", "website": "https://shoprite.com/store/53D2631", "brand": "ShopRite"}, "geometry": {"type": "Point", "coordinates": [-74.380962, 41.235802]}},
{"type": "Feature", "id": "3Qhr_hrDxxQTUZbki9jVgKbnZWo=", "properties": {"ref": "9911748", "@spider": "shoprite", "addr:full": "243 East Route 59", "addr:city": "West Nyack", "addr:state": "New York", "addr:postcode": "10994", "name": "ShopRite of West Nyack", "website": "https://shoprite.com/store/9911748", "brand": "ShopRite"}, "geometry": {"type": "Point", "coordinates": [-73.95894, 41.092798]}},
{"type": "Feature", "id": "cb8mXloYgnhpuS0gzF5H5YaAUkw=", "properties": {"ref": "756A4227", "@spider": "shoprite", "addr:full": "13 City Place", "addr:city": "White Plains", "addr:state": "New York", "addr:postcode": "10601", "name": "ShopRite of White Plains", "website": "https://shoprite.com/store/756A4227", "brand": "ShopRite"}, "geometry": {"type": "Point", "coordinates": [-73.765667, 41.032215]}},
{"type": "Feature", "id": "ZkbGxR1Aj4WHSYhmxPWPdwRqa5A=", "properties": {"ref": "57CF79091", "@spider": "shoprite", "addr:full": "54 No. Middletown Rd.", "addr:city": "Pearl River", "addr:state": "New York", "addr:postcode": "10965", "name": "ShopRite Liquors of Pearl River", "website": "https://shoprite.com/store/57CF79091", "brand": "ShopRite"}, "geometry": {"type": "Point", "coordinates": [-74.011789, 41.061626]}},
{"type": "Feature", "id": "GguaOC9cz_dNuINUf6IOUJ4pWgk=", "properties": {"ref": "DA87780", "@spider": "shoprite", "addr:full": "318 Lloyd Road", "addr:city": "Aberdeen", "addr:state": "New Jersey", "addr:postcode": "07747", "name": "ShopRite of Aberdeen, NJ", "website": "https://shoprite.com/store/DA87780", "brand": "ShopRite"}, "geometry": {"type": "Point", "coordinates": [-74.22154, 40.395279]}},
{"type": "Feature", "id": "R3p_4z82wCPQ7F0popNJLqX8sVs=", "properties": {"ref": "AA7D363", "@spider": "shoprite", "addr:full": "616 Whitehorse Pike", "addr:city": "Absecon", "addr:state": "New Jersey", "addr:postcode": "08201", "name": "ShopRite of Absecon", "website": "https://shoprite.com/store/AA7D363", "brand": "ShopRite"}, "geometry": {"type": "Point", "coordinates": [-74.511215, 39.433203]}},
{"type": "Feature", "id": "kZ2754AXlNCda0bqr05zaRbea3U=", "properties": {"ref": "425D703", "@spider": "shoprite", "addr:full": "583-9 Avenue C", "addr:city": "Bayonne", "addr:state": "New Jersey", "addr:postcode": "07002", "name": "ShopRite of Bayonne-26 Street", "website": "https://shoprite.com/store/425D703", "brand": "ShopRite"}, "geometry": {"type": "Point", "coordinates": [-74.131019, 40.645915]}},
{"type": "Feature", "id": "arcHlg2bt9NC89UqHvOBiDcs3M8=", "properties": {"ref": "38EE793", "@spider": "shoprite", "addr:full": "431 Atlantic City Boulevard", "addr:city": "Bayville", "addr:state": "New Jersey", "addr:postcode": "08721", "name": "ShopRite of Bayville", "website": "https://shoprite.com/store/38EE793", "brand": "ShopRite"}, "geometry": {"type": "Point", "coordinates": [-74.152834, 39.913857]}},
{"type": "Feature", "id": "fit6YJjZzy5h4mMSvHvQLCTYep4=", "properties": {"ref": "DE2C123725", "@spider": "shoprite", "addr:full": "726 Washington Ave", "addr:city": "Belleville", "addr:state": "New Jersey", "addr:postcode": "07109", "name": "ShopRite of Belleville", "website": "https://shoprite.com/store/DE2C123725", "brand": "ShopRite"}, "geometry": {"type": "Point", "coordinates": [-74.145329, 40.804861]}},
{"type": "Feature", "id": "RazKSCV8BPJFLSR_ON8rru9n_LE=", "properties": {"ref": "BDB4123807", "@spider": "shoprite", "addr:full": "1732 NJ-35", "addr:city": "Belmar", "addr:state": "New Jersey", "addr:postcode": "07719", "name": "ShopRite of Belmar - Rt. 35 & 18th Ave", "website": "https://shoprite.com/store/BDB4123807", "brand": "ShopRite"}, "geometry": {"type": "Point", "coordinates": [-74.045029, 40.169794]}},
{"type": "Feature", "id": "ZAXMZwrfnJ6bmzJnpqILy-HssQU=", "properties": {"ref": "95BF675", "@spider": "shoprite", "addr:full": "Rte 73 & Minck Avenue", "addr:city": "West Berlin", "addr:state": "New Jersey", "addr:postcode": "08091", "name": "ShopRite of Berlin", "website": "https://shoprite.com/store/95BF675", "brand": "ShopRite"}, "geometry": {"type": "Point", "coordinates": [-74.934481, 39.806977]}},
{"type": "Feature", "id": "9nOuxMzoTFFi8_E8CKXhO_zfPVY=", "properties": {"ref": "0B75762", "@spider": "shoprite", "addr:full": "93 Morristown Road", "addr:city": "Bernardsville", "addr:state": "New Jersey", "addr:postcode": "07924", "name": "ShopRite of Bernardsville", "website": "https://shoprite.com/store/0B75762", "brand": "ShopRite"}, "geometry": {"type": "Point", "coordinates": [-74.562345, 40.718968]}},
{"type": "Feature", "id": "dCidj6dmTy2877DcbLLZJbtkjkY=", "properties": {"ref": "8029684", "@spider": "shoprite", "addr:full": "622 US-206", "addr:city": "Bordentown", "addr:state": "New Jersey", "addr:postcode": "08505", "name": "ShopRite of Bordentown", "website": "https://shoprite.com/store/8029684", "brand": "ShopRite"}, "geometry": {"type": "Point", "coordinates": [-74.703934, 40.173786]}},
{"type": "Feature", "id": "jvrLuY-Ez1R7lkqi34UF2_5P92w=", "properties": {"ref": "7D31764", "@spider": "shoprite", "addr:full": "611 West Union Avenue", "addr:city": "Bound Brook", "addr:state": "New Jersey", "addr:postcode": "08805", "name": "ShopRite of Bound Brook", "website": "https://shoprite.com/store/7D31764", "brand": "ShopRite"}, "geometry": {"type": "Point", "coordinates": [-74.552952, 40.570241]}},
{"type": "Feature", "id": "GO65efojBfbFUg9OJSRx9RC8S-8=", "properties": {"ref": "B38C765", "@spider": "shoprite", "addr:full": "3166 Route 22", "addr:city": "Branchburg", "addr:state": "New Jersey", "addr:postcode": "08876", "name": "ShopRite of Branchburg", "website": "https://shoprite.com/store/B38C765", "brand": "ShopRite"}, "geometry": {"type": "Point", "coordinates": [-74.691986, 40.604744]}},
{"type": "Feature", "id": "NVruhOyHIlW4A3CunD9pSLMrda8=", "properties": {"ref": "A5D1787", "@spider": "shoprite", "addr:full": "668 Rte 70", "addr:city": "Brick", "addr:state": "New Jersey", "addr:postcode": "08723", "name": "ShopRite of Bricktown", "website": "https://shoprite.com/store/A5D1787", "brand": "ShopRite"}, "geometry": {"type": "Point", "coordinates": [-74.144252, 40.061766]}},
{"type": "Feature", "id": "tbfMdqFyfuOW9Ce63_jijsEUBmc=", "properties": {"ref": "F442733", "@spider": "shoprite", "addr:full": "1409 Broad Street", "addr:city": "Bloomfield", "addr:state": "New Jersey", "addr:postcode": "07003", "name": "ShopRite of Brookdale", "website": "https://shoprite.com/store/F442733", "brand": "ShopRite"}, "geometry": {"type": "Point", "coordinates": [-74.183526, 40.837563]}},
{"type": "Feature", "id": "ECH6HDPbccy2qMsaoSpTsDSqSHk=", "properties": {"ref": "9335660", "@spider": "shoprite", "addr:full": "3745 Aramingo Avenue", "addr:city": "Philadelphia", "addr:state": "Pennsylvania", "addr:postcode": "19137", "name": "ShopRite of Aramingo Avenue", "website": "https://shoprite.com/store/9335660", "brand": "ShopRite"}, "geometry": {"type": "Point", "coordinates": [-75.091669, 39.994572]}},
{"type": "Feature", "id": "FMTzRFqVyiJln-XlkZxGakzFQ0A=", "properties": {"ref": "4019645", "@spider": "shoprite", "addr:full": "495 Hope Street", "addr:city": "Stamford", "addr:state": "Connecticut", "addr:postcode": "06906", "name": "Grade A Market of Hope Street", "website": "https://shoprite.com/store/4019645", "brand": "ShopRite"}, "geometry": {"type": "Point", "coordinates": [-73.521678, 41.076768]}},
{"type": "Feature", "id": "orpkBqW1EQDp9ErhJgSjsV5T99E=", "properties": {"ref": "C6A3661", "@spider": "shoprite", "addr:full": "Rte 130 & Browning Road", "addr:city": "Brooklawn", "addr:state": "New Jersey", "addr:postcode": "08030", "name": "ShopRite of Brooklawn", "website": "https://shoprite.com/store/C6A3661", "brand": "ShopRite"}, "geometry": {"type": "Point", "coordinates": [-75.111806, 39.879206]}},
{"type": "Feature", "id": "l8hs4IFXGxWysU6gJIwMGrJD6K0=", "properties": {"ref": "A90F657", "@spider": "shoprite", "addr:full": "2200 Bristol Road", "addr:city": "Bensalem", "addr:state": "Pennsylvania", "addr:postcode": "19020", "name": "ShopRite of Bensalem", "website": "https://shoprite.com/store/A90F657", "brand": "ShopRite"}, "geometry": {"type": "Point", "coordinates": [-74.924061, 40.129803]}},
{"type": "Feature", "id": "YHiEdcUPO_hmeihxSjH0vaEaYyE=", "properties": {"ref": "8BE678950", "@spider": "shoprite", "addr:full": "4701 Freemansburg Ave", "addr:city": "Bethlehem", "addr:state": "Pennsylvania", "addr:postcode": "18045", "name": "ShopRite of Bethlehem", "website": "https://shoprite.com/store/8BE678950", "brand": "ShopRite"}, "geometry": {"type": "Point", "coordinates": [-75.295964, 40.649266]}},
{"type": "Feature", "id": "vVqAAqA4yWZeEZGfAIkWaI3FijY=", "properties": {"ref": "8AA5123806", "@spider": "shoprite", "addr:full": "3409 Birney Ave", "addr:city": "Moosic", "addr:state": "Pennsylvania", "addr:postcode": "18507", "name": "ShopRite of Birney Plaza", "website": "https://shoprite.com/store/8AA5123806", "brand": "ShopRite"}, "geometry": {"type": "Point", "coordinates": [-75.702144, 41.375784]}},
{"type": "Feature", "id": "DfnkTH-VpN0Cc8QSYUi4S049Yg4=", "properties": {"ref": "03CA123788", "@spider": "shoprite", "addr:full": "5597 Tulip St #99", "addr:city": "Philadelphia", "addr:state": "Pennsylvania", "addr:postcode": "19124", "name": "ShopRite of Bridge and Harbison", "website": "https://shoprite.com/store/03CA123788", "brand": "ShopRite"}, "geometry": {"type": "Point", "coordinates": [-75.06817, 40.012456]}},
{"type": "Feature", "id": "HIL4nFRsx5h0YRyUfy_PR0TTr0s=", "properties": {"ref": "10BC78912", "@spider": "shoprite", "addr:full": "107 Kinsley Drive", "addr:city": "Brodheadsville", "addr:state": "Pennsylvania", "addr:postcode": "18322", "name": "ShopRite of Brodheadsville", "website": "https://shoprite.com/store/10BC78912", "brand": "ShopRite"}, "geometry": {"type": "Point", "coordinates": [-75.422983, 40.919133]}},
{"type": "Feature", "id": "tZF-Zrsa_VkmAKfUx3hkDp_hoPM=", "properties": {"ref": "CF48644", "@spider": "shoprite", "addr:full": "563 Newfield Avenue", "addr:city": "Stamford", "addr:state": "Connecticut", "addr:postcode": "06905", "name": "Grade A Market of Newfield Avenue", "website": "https://shoprite.com/store/CF48644", "brand": "ShopRite"}, "geometry": {"type": "Point", "coordinates": [-73.532366, 41.080393]}},
{"type": "Feature", "id": "rio3xjQxD8h5OpsDm5gWlNl2tt0=", "properties": {"ref": "959A639", "@spider": "shoprite", "addr:full": "1200 Farmington Avenue & Route 6", "addr:city": "Bristol", "addr:state": "Connecticut", "addr:postcode": "06010", "name": "ShopRite of Bristol", "website": "https://shoprite.com/store/959A639", "brand": "ShopRite"}, "geometry": {"type": "Point", "coordinates": [-72.902416, 41.69699]}},
{"type": "Feature", "id": "v_RaEmZpN9N6EBTcvvUL7ItsX5k=", "properties": {"ref": "410C612", "@spider": "shoprite", "addr:full": "143 Federal Road", "addr:city": "Brookfield", "addr:state": "Connecticut", "addr:postcode": "06804", "name": "ShopRite of Brookfield", "website": "https://shoprite.com/store/410C612", "brand": "ShopRite"}, "geometry": {"type": "Point", "coordinates": [-73.406313, 41.437047]}},
{"type": "Feature", "id": "vkRQhUFszYxsHO5d6gA51M3iuyc=", "properties": {"ref": "A9F7123754", "@spider": "shoprite", "addr:full": "1817 Mount Holly Rd", "addr:city": "Burlington", "addr:state": "New Jersey", "addr:postcode": "08016", "name": "ShopRite of Burlington", "website": "https://shoprite.com/store/A9F7123754", "brand": "ShopRite"}, "geometry": {"type": "Point", "coordinates": [-74.841057, 40.053679]}},
{"type": "Feature", "id": "qRZ7pKDLDWxGl43zUfBDZ1uiG7c=", "properties": {"ref": "7DA0376", "@spider": "shoprite", "addr:full": "90-80 Route 206 North", "addr:city": "Byram Township", "addr:state": "New Jersey", "addr:postcode": "07874", "name": "ShopRite of Byram", "website": "https://shoprite.com/store/7DA0376", "brand": "ShopRite"}, "geometry": {"type": "Point", "coordinates": [-74.718522, 40.934819]}},
{"type": "Feature", "id": "J1TPSF6C-Q2sLaPtSMxyhuECgfs=", "properties": {"ref": "22DB123777", "@spider": "shoprite", "addr:full": "5075 Edgmont Ave", "addr:city": "Brookhaven", "addr:state": "Pennsylvania", "addr:postcode": "19015", "name": "ShopRite of Brookhaven", "website": "https://shoprite.com/store/22DB123777", "brand": "ShopRite"}, "geometry": {"type": "Point", "coordinates": [-75.39579, 39.880087]}},
{"type": "Feature", "id": "MuD3d6yL7d40k_UXyeMWFQSOrCY=", "properties": {"ref": "1A93655", "@spider": "shoprite", "addr:full": "2471 W Cheltenham Ave., Ste A", "addr:city": "Wyncote", "addr:state": "Pennsylvania", "addr:postcode": "19095", "name": "ShopRite of Cheltenham Square", "website": "https://shoprite.com/store/1A93655", "brand": "ShopRite"}, "geometry": {"type": "Point", "coordinates": [-75.156895, 40.075449]}},
{"type": "Feature", "id": "DAQ7lOJWU6ooR0uEK10akAURm4U=", "properties": {"ref": "504C3951", "@spider": "shoprite", "addr:full": "110 Albany Turnpike, Suite 200", "addr:city": "Canton", "addr:state": "Connecticut", "addr:postcode": "06019", "name": "ShopRite of Canton", "website": "https://shoprite.com/store/504C3951", "brand": "ShopRite"}, "geometry": {"type": "Point", "coordinates": [-72.881104, 41.822048]}},
{"type": "Feature", "id": "c5KqmzAtahLq_eXS31Y7bCuqBbE=", "properties": {"ref": "86224011", "@spider": "shoprite", "addr:full": "266 East Main Street", "addr:city": "Clinton", "addr:state": "Connecticut", "addr:postcode": "06413", "name": "ShopRite of Clinton CT", "website": "https://shoprite.com/store/86224011", "brand": "ShopRite"}, "geometry": {"type": "Point", "coordinates": [-72.501968, 41.27018]}},
{"type": "Feature", "id": "gUYImMSTwcw9g2WA0EIvcbDF3kk=", "properties": {"ref": "0DE0770", "@spider": "shoprite", "addr:full": "801 Roosevelt Avenue", "addr:city": "Carteret", "addr:state": "New Jersey", "addr:postcode": "07008", "name": "ShopRite of Carteret", "website": "https://shoprite.com/store/0DE0770", "brand": "ShopRite"}, "geometry": {"type": "Point", "coordinates": [-74.228068, 40.589285]}},
{"type": "Feature", "id": "ALb1QQRg1fcJvMALxHtaxGod9d4=", "properties": {"ref": "1420746", "@spider": "shoprite", "addr:full": "641 Shunpike Road", "addr:city": "Chatham", "addr:state": "New Jersey", "addr:postcode": "07928", "name": "ShopRite of Chatham", "website": "https://shoprite.com/store/1420746", "brand": "ShopRite"}, "geometry": {"type": "Point", "coordinates": [-74.431979, 40.745445]}},
{"type": "Feature", "id": "i9-nyVSR6GPKMtzvRELlOxej1SE=", "properties": {"ref": "60071082", "@spider": "shoprite", "addr:full": "921 Drinker Tnpke Suite 24", "addr:city": "Covington Township", "addr:state": "Pennsylvania", "addr:postcode": "18444", "name": "ShopRite of Daleville", "website": "https://shoprite.com/store/60071082", "brand": "ShopRite"}, "geometry": {"type": "Point", "coordinates": [-75.517868, 41.308322]}},
{"type": "Feature", "id": "TI7E41Wo77WItVi8g4GcHtsyA3k=", "properties": {"ref": "1AD0123688", "@spider": "shoprite", "addr:full": "5000 State Road", "addr:city": "Drexel Hill", "addr:state": "Pennsylvania", "addr:postcode": "19026", "name": "ShopRite of Drexeline", "website": "https://shoprite.com/store/1AD0123688", "brand": "ShopRite"}, "geometry": {"type": "Point", "coordinates": [-75.322153, 39.945702]}},
{"type": "Feature", "id": "mT7dnWgZrtzhh64ZgIv7L1gy7Ro=", "properties": {"ref": "52B8654", "@spider": "shoprite", "addr:full": "55 East Germantown Pike", "addr:city": "East Norriton", "addr:state": "Pennsylvania", "addr:postcode": "19401", "name": "ShopRite of East Norriton", "website": "https://shoprite.com/store/52B8654", "brand": "ShopRite"}, "geometry": {"type": "Point", "coordinates": [-75.308707, 40.140727]}},
{"type": "Feature", "id": "q_en59Z9OkKqavH4Ef5rxwRzGX0=", "properties": {"ref": "0E1D649", "@spider": "shoprite", "addr:full": "1568 Chester Pike Unit B-1", "addr:city": "Eddystone", "addr:state": "Pennsylvania", "addr:postcode": "19022", "name": "ShopRite of Eddystone", "website": "https://shoprite.com/store/0E1D649", "brand": "ShopRite"}, "geometry": {"type": "Point", "coordinates": [-75.340036, 39.864902]}},
{"type": "Feature", "id": "rwZ-GnDo9eec0dkGmzGDLNeVgQY=", "properties": {"ref": "4C7D797", "@spider": "shoprite", "addr:full": "1990 West Main Street", "addr:city": "Stamford", "addr:state": "Connecticut", "addr:postcode": "06902", "name": "ShopRite of Commerce St.-Stamford, CT", "website": "https://shoprite.com/store/4C7D797", "brand": "ShopRite"}, "geometry": {"type": "Point", "coordinates": [-73.564922, 41.047371]}},
{"type": "Feature", "id": "Y_iedT8itigruRsb1S3b_T3QYMc=", "properties": {"ref": "CAF9123797", "@spider": "shoprite", "addr:full": "45 Shunpike Road", "addr:city": "Cromwell", "addr:state": "Connecticut", "addr:postcode": "06416", "name": "ShopRite of Cromwell", "website": "https://shoprite.com/store/CAF9123797", "brand": "ShopRite"}, "geometry": {"type": "Point", "coordinates": [-72.678278, 41.604201]}},
{"type": "Feature", "id": "agss8OBV97dFymcFFKcQ_ED1I_4=", "properties": {"ref": "D367123778", "@spider": "shoprite", "addr:full": "1 Padanaram Rd.", "addr:city": "Danbury", "addr:state": "Connecticut", "addr:postcode": "06811", "name": "ShopRite of Danbury", "website": "https://shoprite.com/store/D367123778", "brand": "ShopRite"}, "geometry": {"type": "Point", "coordinates": [-73.456143, 41.413044]}},
{"type": "Feature", "id": "Dn3evG8hWNYeXeaikVq7rCBWwaU=", "properties": {"ref": "161A614", "@spider": "shoprite", "addr:full": "49 Pershing Drive", "addr:city": "Derby", "addr:state": "Connecticut", "addr:postcode": "06418", "name": "ShopRite of Derby", "website": "https://shoprite.com/store/161A614", "brand": "ShopRite"}, "geometry": {"type": "Point", "coordinates": [-73.086462, 41.330431]}},
{"type": "Feature", "id": "yNzByUEF7O2Trcelkgf1yYzA8Tw=", "properties": {"ref": "6CF33992", "@spider": "shoprite", "addr:full": "31 Main Street         On the East Hartford/Glastonbury Line", "addr:city": "East Hartford", "addr:state": "Connecticut", "addr:postcode": "06118", "name": "ShopRite of East Hartford", "website": "https://shoprite.com/store/6CF33992", "brand": "ShopRite"}, "geometry": {"type": "Point", "coordinates": [-72.618775, 41.728643]}},
{"type": "Feature", "id": "0u-hBo08CKkknxXWoZhj8xfSF-M=", "properties": {"ref": "C627119202", "@spider": "shoprite", "addr:full": "745 Foxon Rd", "addr:city": "East Haven", "addr:state": "Connecticut", "addr:postcode": "06513", "name": "ShopRite of East Haven", "website": "https://shoprite.com/store/C627119202", "brand": "ShopRite"}, "geometry": {"type": "Point", "coordinates": [-72.854753, 41.323544]}},
{"type": "Feature", "id": "7MO1WgFFZWcfGRemt0SlRoSf9L0=", "properties": {"ref": "7AAF744", "@spider": "shoprite", "addr:full": "Rt 206 Maple Avenue", "addr:city": "Chester", "addr:state": "New Jersey", "addr:postcode": "07930", "name": "ShopRite of Chester, NJ", "website": "https://shoprite.com/store/7AAF744", "brand": "ShopRite"}, "geometry": {"type": "Point", "coordinates": [-74.694819, 40.780841]}},
{"type": "Feature", "id": "MrL7gTUvjyJ3rSlX9fZ1Zt8Pqbk=", "properties": {"ref": "7BE41313", "@spider": "shoprite", "addr:full": "1200 Chews Landing Road", "addr:city": "Laurel Springs", "addr:state": "New Jersey", "addr:postcode": "08021", "name": "ShopRite of Chews Landing", "website": "https://shoprite.com/store/7BE41313", "brand": "ShopRite"}, "geometry": {"type": "Point", "coordinates": [-75.037698, 39.818195]}},
{"type": "Feature", "id": "AqmLVt3N1pEwGwYQV7NZDG_9HHw=", "properties": {"ref": "B984656", "@spider": "shoprite", "addr:full": "547 South Oxford Valley Rd", "addr:city": "Fairless Hills", "addr:state": "Pennsylvania", "addr:postcode": "19030", "name": "ShopRite of Fairless Hills", "website": "https://shoprite.com/store/B984656", "brand": "ShopRite"}, "geometry": {"type": "Point", "coordinates": [-74.847445, 40.169405]}},
{"type": "Feature", "id": "_8l6yaPTcNiZpMExLJu7CEk-Kgc=", "properties": {"ref": "333E118736", "@spider": "shoprite", "addr:full": "2800 Fox Street", "addr:city": "Philadelphia", "addr:state": "Pennsylvania", "addr:postcode": "19129", "name": "ShopRite of Fox Street", "website": "https://shoprite.com/store/333E118736", "brand": "ShopRite"}, "geometry": {"type": "Point", "coordinates": [-75.179163, 40.009121]}},
{"type": "Feature", "id": "3lIMZmuLZY-SioTyzts3vJLRCBE=", "properties": {"ref": "5D6F4010", "@spider": "shoprite", "addr:full": "1975 Black Rock Turnpike", "addr:city": "Fairfield", "addr:state": "Connecticut", "addr:postcode": "06825", "name": "ShopRite of Fairfield", "website": "https://shoprite.com/store/5D6F4010", "brand": "ShopRite"}, "geometry": {"type": "Point", "coordinates": [-73.249904, 41.180002]}},
{"type": "Feature", "id": "mTBqVdzpT0IM62B8Sb5vH0tfbnk=", "properties": {"ref": "D98F3954", "@spider": "shoprite", "addr:full": "2100 Dixwell Ave", "addr:city": "Hamden", "addr:state": "Connecticut", "addr:postcode": "06514", "name": "ShopRite of Hamden", "website": "https://shoprite.com/store/D98F3954", "brand": "ShopRite"}, "geometry": {"type": "Point", "coordinates": [-72.922289, 41.36965]}},
{"type": "Feature", "id": "Nb_AhAnKDIMvEF2qvGaOqJXiDRc=", "properties": {"ref": "D673799", "@spider": "shoprite", "addr:full": "214 Spencer Street", "addr:city": "Manchester", "addr:state": "Connecticut", "addr:postcode": "06040", "name": "ShopRite of Manchester", "website": "https://shoprite.com/store/D673799", "brand": "ShopRite"}, "geometry": {"type": "Point", "coordinates": [-72.57046, 41.765675]}},
{"type": "Feature", "id": "ZW9ZS-usLlgeR_4d09fn6n6qRGw=", "properties": {"ref": "ABC5389", "@spider": "shoprite", "addr:full": "935 Boston Post Rd.", "addr:city": "Milford", "addr:state": "Connecticut", "addr:postcode": "06460", "name": "ShopRite of Milford, CT", "website": "https://shoprite.com/store/ABC5389", "brand": "ShopRite"}, "geometry": {"type": "Point", "coordinates": [-73.049103, 41.231813]}},
{"type": "Feature", "id": "D5EAqws9tgv67rlRZ3kN2VPWMjk=", "properties": {"ref": "F7FA643", "@spider": "shoprite", "addr:full": "351 North Frontage Road", "addr:city": "New London", "addr:state": "Connecticut", "addr:postcode": "06320", "name": "ShopRite of New London", "website": "https://shoprite.com/store/F7FA643", "brand": "ShopRite"}, "geometry": {"type": "Point", "coordinates": [-72.11758, 41.3717]}},
{"type": "Feature", "id": "VzcYwMbsVuIo9RxLn-LNNwVKkP4=", "properties": {"ref": "8D50613", "@spider": "shoprite", "addr:full": "Connecticut & Scribner Aves", "addr:city": "Norwalk", "addr:state": "Connecticut", "addr:postcode": "06850", "name": "ShopRite of Norwalk", "website": "https://shoprite.com/store/8D50613", "brand": "ShopRite"}, "geometry": {"type": "Point", "coordinates": [-73.440566, 41.102472]}},
{"type": "Feature", "id": "E0TclXtcoIMC02rJrdqlya2kZlM=", "properties": {"ref": "D6243355", "@spider": "shoprite", "addr:full": "141 Route 130 South", "addr:city": "Cinnaminson", "addr:state": "New Jersey", "addr:postcode": "08077", "name": "ShopRite of Cinnaminson", "website": "https://shoprite.com/store/D6243355", "brand": "ShopRite"}, "geometry": {"type": "Point", "coordinates": [-75.009923, 39.990748]}},
{"type": "Feature", "id": "b6oW9LAB4unfdkkGSSVBFB4D56s=", "properties": {"ref": "070C334", "@spider": "shoprite", "addr:full": "76 Central Avenue", "addr:city": "Clark", "addr:state": "New Jersey", "addr:postcode": "07066", "name": "ShopRite of Clark", "website": "https://shoprite.com/store/070C334", "brand": "ShopRite"}, "geometry": {"type": "Point", "coordinates": [-74.305277, 40.629139]}},
{"type": "Feature", "id": "Jt-QR9OueiIYQ7XO20IPsqsDNgk=", "properties": {"ref": "AAD0676", "@spider": "shoprite", "addr:full": "101 East Olney Ave", "addr:city": "Philadelphia", "addr:state": "Pennsylvania", "addr:postcode": "19120", "name": "ShopRite of Front & Olney", "website": "https://shoprite.com/store/AAD0676", "brand": "ShopRite"}, "geometry": {"type": "Point", "coordinates": [-75.11875, 40.036896]}},
{"type": "Feature", "id": "hXWM4OrMk05Di2TLvJHo7YyiAa8=", "properties": {"ref": "74EC123761", "@spider": "shoprite", "addr:full": "140 North Macdade Blvd", "addr:city": "Glenolden", "addr:state": "Pennsylvania", "addr:postcode": "19036", "name": "ShopRite of Glenolden", "website": "https://shoprite.com/store/74EC123761", "brand": "ShopRite"}, "geometry": {"type": "Point", "coordinates": [-75.290243, 39.908268]}},
{"type": "Feature", "id": "uxN7Aa23W2DDq5-SH2Dfxv2mewc=", "properties": {"ref": "E6395972", "@spider": "shoprite", "addr:full": "170 Forty Foot Road", "addr:city": "Hatfield", "addr:state": "Pennsylvania", "addr:postcode": "19440", "name": "ShopRite of Hatfield", "website": "https://shoprite.com/store/E6395972", "brand": "ShopRite"}, "geometry": {"type": "Point", "coordinates": [-75.317989, 40.266988]}},
{"type": "Feature", "id": "MWIu3dwZijHnQzHakuT6pcbkgNA=", "properties": {"ref": "851C653", "@spider": "shoprite", "addr:full": "2900 Island Avenue Suite 2946", "addr:city": "Philadelphia", "addr:state": "Pennsylvania", "addr:postcode": "19153", "name": "ShopRite of Island Avenue", "website": "https://shoprite.com/store/851C653", "brand": "ShopRite"}, "geometry": {"type": "Point", "coordinates": [-75.241849, 39.901572]}},
{"type": "Feature", "id": "KYrnc_osvJc0TxbJTp3zMpwFeRE=", "properties": {"ref": "DD3F685", "@spider": "shoprite", "addr:full": "6725 Frankford Ave", "addr:city": "Philadelphia", "addr:state": "Pennsylvania", "addr:postcode": "19135", "name": "ShopRite of Knorr Street", "website": "https://shoprite.com/store/DD3F685", "brand": "ShopRite"}, "geometry": {"type": "Point", "coordinates": [-75.051201, 40.031491]}},
{"type": "Feature", "id": "6vhILXlIk1KIyPL_LVcwk1NTqx8=", "properties": {"ref": "BFDE400", "@spider": "shoprite", "addr:full": "634 West Main St", "addr:city": "Norwich", "addr:state": "Connecticut", "addr:postcode": "06360", "name": "ShopRite of Norwich", "website": "https://shoprite.com/store/BFDE400", "brand": "ShopRite"}, "geometry": {"type": "Point", "coordinates": [-72.101146, 41.513424]}},
{"type": "Feature", "id": "Mqz63OUb8oreGlcGLvFJDgDlRnk=", "properties": {"ref": "EC50123779", "@spider": "shoprite", "addr:full": "259 Bull Hill Lane", "addr:city": "Orange", "addr:state": "Connecticut", "addr:postcode": "06477", "name": "ShopRite of Orange, CT", "website": "https://shoprite.com/store/EC50123779", "brand": "ShopRite"}, "geometry": {"type": "Point", "coordinates": [-72.987141, 41.273704]}},
{"type": "Feature", "id": "ZTuohkZYq5iKCxx9GWAMJW-YxA0=", "properties": {"ref": "647F3989", "@spider": "shoprite", "addr:full": "875 Bridgeport Ave", "addr:city": "Shelton", "addr:state": "Connecticut", "addr:postcode": "06484", "name": "ShopRite of Shelton", "website": "https://shoprite.com/store/647F3989", "brand": "ShopRite"}, "geometry": {"type": "Point", "coordinates": [-73.134702, 41.264899]}},
{"type": "Feature", "id": "yy-On0EJxWkRxlHj5_06a6DwcvI=", "properties": {"ref": "58AE611", "@spider": "shoprite", "addr:full": "200 Shippan Ave", "addr:city": "Stamford", "addr:state": "Connecticut", "addr:postcode": "06902", "name": "ShopRite of Shippan Ave- Stamford, CT", "website": "https://shoprite.com/store/58AE611", "brand": "ShopRite"}, "geometry": {"type": "Point", "coordinates": [-73.52347, 41.048396]}},
{"type": "Feature", "id": "pvqsRB4YXDTQsV4M342Us6lc2Es=", "properties": {"ref": "A1AB4009", "@spider": "shoprite", "addr:full": "775 Main St South", "addr:city": "Southbury", "addr:state": "Connecticut", "addr:postcode": "06488", "name": "ShopRite of Southbury", "website": "https://shoprite.com/store/A1AB4009", "brand": "ShopRite"}, "geometry": {"type": "Point", "coordinates": [-73.22966, 41.463003]}},
{"type": "Feature", "id": "kN3hF1t2971T73JUKj1Shc9-d9s=", "properties": {"ref": "3FCA5171", "@spider": "shoprite", "addr:full": "750 Queen Street", "addr:city": "Southington", "addr:state": "Connecticut", "addr:postcode": "06489", "name": "ShopRite of Southington", "website": "https://shoprite.com/store/3FCA5171", "brand": "ShopRite"}, "geometry": {"type": "Point", "coordinates": [-72.875141, 41.636545]}},
{"type": "Feature", "id": "fh0mMQoql3w-SjqwrDDCH7R4t5U=", "properties": {"ref": "176E556", "@spider": "shoprite", "addr:full": "50 Walmart Plaza", "addr:city": "Clinton", "addr:state": "New Jersey", "addr:postcode": "08809", "name": "ShopRite of Clinton NJ", "website": "https://shoprite.com/store/176E556", "brand": "ShopRite"}, "geometry": {"type": "Point", "coordinates": [-74.921111, 40.627113]}},
{"type": "Feature", "id": "FyzDn8XYTIOWoyp8O63gsED2ty8=", "properties": {"ref": "271B708", "@spider": "shoprite", "addr:full": "3147 Kennedy Blvd", "addr:city": "North Bergen", "addr:state": "New Jersey", "addr:postcode": "07047", "name": "ShopRite of Columbia Park", "website": "https://shoprite.com/store/271B708", "brand": "ShopRite"}, "geometry": {"type": "Point", "coordinates": [-74.035172, 40.774653]}},
{"type": "Feature", "id": "_5AIFyJwDSZeETnbzpW_T7iq20E=", "properties": {"ref": "F580123815", "@spider": "shoprite", "addr:full": "111 Hulst Drive", "addr:city": "Matamoras", "addr:state": "Pennsylvania", "addr:postcode": "18336", "name": "ShopRite of Matamoras", "website": "https://shoprite.com/store/F580123815", "brand": "ShopRite"}, "geometry": {"type": "Point", "coordinates": [-74.72233, 41.35204]}},
{"type": "Feature", "id": "zILbWaGr34TcVrZQJDFaLmlldMA=", "properties": {"ref": "58753196", "@spider": "shoprite", "addr:full": "9910 Frankford Ave", "addr:city": "Philadelphia", "addr:state": "Pennsylvania", "addr:postcode": "19114", "name": "ShopRite of Morrell Plaza", "website": "https://shoprite.com/store/58753196", "brand": "ShopRite"}, "geometry": {"type": "Point", "coordinates": [-74.985071, 40.064964]}},
{"type": "Feature", "id": "Gl1NZRHXV5SsuGioO_hhWOXQVnQ=", "properties": {"ref": "40583953", "@spider": "shoprite", "addr:full": "250 Barnum Ave Cutoff", "addr:city": "Stratford", "addr:state": "Connecticut", "addr:postcode": "06614", "name": "ShopRite of Stratford", "website": "https://shoprite.com/store/40583953", "brand": "ShopRite"}, "geometry": {"type": "Point", "coordinates": [-73.119744, 41.20078]}},
{"type": "Feature", "id": "1oqyu19CtDU6YO5PDkL8-8dKQ0w=", "properties": {"ref": "6AA9123798", "@spider": "shoprite", "addr:full": "35 Talcottville Rd", "addr:city": "Vernon", "addr:state": "Connecticut", "addr:postcode": "06066", "name": "ShopRite of Vernon at Tri City Plaza", "website": "https://shoprite.com/store/6AA9123798", "brand": "ShopRite"}, "geometry": {"type": "Point", "coordinates": [-72.498293, 41.827059]}},
{"type": "Feature", "id": "XqIXF7T0EpzVOi6TJO7UlxFxmk4=", "properties": {"ref": "A4214012", "@spider": "shoprite", "addr:full": "846 North Colony Road", "addr:city": "Wallingford", "addr:state": "Connecticut", "addr:postcode": "06492", "name": "ShopRite of Wallingford", "website": "https://shoprite.com/store/A4214012", "brand": "ShopRite"}, "geometry": {"type": "Point", "coordinates": [-72.80887, 41.478956]}},
{"type": "Feature", "id": "oTI7SBI_tOcJRc_ANCQvkk9yLGM=", "properties": {"ref": "92273195", "@spider": "shoprite", "addr:full": "943 Wolcott Street", "addr:city": "Waterbury", "addr:state": "Connecticut", "addr:postcode": "06705", "name": "ShopRite of Waterbury", "website": "https://shoprite.com/store/92273195", "brand": "ShopRite"}, "geometry": {"type": "Point", "coordinates": [-73.009205, 41.567868]}},
{"type": "Feature", "id": "feySxOt-sLikHgu-R9JVus3zW4I=", "properties": {"ref": "904A667", "@spider": "shoprite", "addr:full": "1310 Fairview Boulevard", "addr:city": "Delran", "addr:state": "New Jersey", "addr:postcode": "08075", "name": "ShopRite of Delran", "website": "https://shoprite.com/store/904A667", "brand": "ShopRite"}, "geometry": {"type": "Point", "coordinates": [-74.945503, 40.018367]}},
{"type": "Feature", "id": "FuDvt9RewFs-0XgE9o_Y0B9RF7I=", "properties": {"ref": "04E1119192", "@spider": "shoprite", "addr:full": "1255 West Landis Avenue", "addr:city": "Vineland", "addr:state": "New Jersey", "addr:postcode": "08360", "name": "ShopRite of Delsea", "website": "https://shoprite.com/store/04E1119192", "brand": "ShopRite"}, "geometry": {"type": "Point", "coordinates": [-75.050261, 39.486776]}},
{"type": "Feature", "id": "NsQGyKt7BkgDq3O9HDnPT6rYvXc=", "properties": {"ref": "ACAD1081", "@spider": "shoprite", "addr:full": "89 State Route 940", "addr:city": "Mount Pocono", "addr:state": "Pennsylvania", "addr:postcode": "18344", "name": "ShopRite of Mt Pocono", "website": "https://shoprite.com/store/ACAD1081", "brand": "ShopRite"}, "geometry": {"type": "Point", "coordinates": [-75.356767, 41.124588]}},
{"type": "Feature", "id": "GJvXl-XXHZuIKxF24R3oZ1TvnnQ=", "properties": {"ref": "977B652", "@spider": "shoprite", "addr:full": "24th St & Oregon Ave", "addr:city": "Philadelphia", "addr:state": "Pennsylvania", "addr:postcode": "19145", "name": "ShopRite of Oregon Ave", "website": "https://shoprite.com/store/977B652", "brand": "ShopRite"}, "geometry": {"type": "Point", "coordinates": [-75.186487, 39.919142]}},
{"type": "Feature", "id": "OTtsYYEwjDvZSdtImNsMt4n6V4g=", "properties": {"ref": "0FDE647", "@spider": "shoprite", "addr:full": "6301 Oxford Avenue", "addr:city": "Philadelphia", "addr:state": "Pennsylvania", "addr:postcode": "19111", "name": "ShopRite of Oxford & Levick", "website": "https://shoprite.com/store/0FDE647", "brand": "ShopRite"}, "geometry": {"type": "Point", "coordinates": [-75.08816, 40.043858]}},
{"type": "Feature", "id": "b9r8ma0-3jOzsSsISlfpgIs7nlg=", "properties": {"ref": "C7271766", "@spider": "shoprite", "addr:full": "1575 North 52nd St Suite 400", "addr:city": "Philadelphia", "addr:state": "Pennsylvania", "addr:postcode": "19131", "name": "ShopRite of Parkside", "website": "https://shoprite.com/store/C7271766", "brand": "ShopRite"}, "geometry": {"type": "Point", "coordinates": [-75.223881, 39.978023]}},
{"type": "Feature", "id": "YHaA4-ZUN6ZbP-2wJ_B7543NKdU=", "properties": {"ref": "AB62681", "@spider": "shoprite", "addr:full": "11000 Roosevelt Blvd", "addr:city": "Philadelphia", "addr:state": "Pennsylvania", "addr:postcode": "19116", "name": "ShopRite of Roosevelt Blvd", "website": "https://shoprite.com/store/AB62681", "brand": "ShopRite"}, "geometry": {"type": "Point", "coordinates": [-75.008939, 40.102705]}},
{"type": "Feature", "id": "5jlO8v8n5f5CJfnvENoYwrd9pUo=", "properties": {"ref": "EBA7668", "@spider": "shoprite", "addr:full": "6901 Ridge Avenue", "addr:city": "Philadelphia", "addr:state": "Pennsylvania", "addr:postcode": "19128", "name": "ShopRite of Roxborough", "website": "https://shoprite.com/store/EBA7668", "brand": "ShopRite"}, "geometry": {"type": "Point", "coordinates": [-75.227226, 40.04403]}},
{"type": "Feature", "id": "erE2j-85ggGflliQST6KOGtTDjk=", "properties": {"ref": "88EA3952", "@spider": "shoprite", "addr:full": "40 Hazard Ave", "addr:city": "Enfield", "addr:state": "Connecticut", "addr:postcode": "06082", "name": "Shoprite of Brookside Plaza", "website": "https://shoprite.com/store/88EA3952", "brand": "ShopRite"}, "geometry": {"type": "Point", "coordinates": [-72.580462, 41.988055]}},
{"type": "Feature", "id": "p0Xs-X13XqAs7f0ih4V1iCFov_0=", "properties": {"ref": "3D65777", "@spider": "shoprite", "addr:full": "14-22 West Prospect Street", "addr:city": "East Brunswick", "addr:state": "New Jersey", "addr:postcode": "08816", "name": "ShopRite of East Brunswick", "website": "https://shoprite.com/store/3D65777", "brand": "ShopRite"}, "geometry": {"type": "Point", "coordinates": [-74.396513, 40.456984]}},
{"type": "Feature", "id": "7j_4ADsjIeqYgHkzSllSEyPalJw=", "properties": {"ref": "E538123801", "@spider": "shoprite", "addr:full": "344 Stroud Mall Rd Suite 100", "addr:city": "Stroudsburg", "addr:state": "Pennsylvania", "addr:postcode": "18360", "name": "ShopRite of Stroudsburg", "website": "https://shoprite.com/store/E538123801", "brand": "ShopRite"}, "geometry": {"type": "Point", "coordinates": [-75.224237, 40.990182]}},
{"type": "Feature", "id": "y0s-1yqCc3mR7VWLVwMjkUph1W4=", "properties": {"ref": "96563993", "@spider": "shoprite", "addr:full": "942 West Street Road", "addr:city": "Warminster", "addr:state": "Pennsylvania", "addr:postcode": "18974", "name": "ShopRite of Warminster", "website": "https://shoprite.com/store/96563993", "brand": "ShopRite"}, "geometry": {"type": "Point", "coordinates": [-75.108625, 40.20961]}},
{"type": "Feature", "id": "bgYcmIZ1Huv26z7E7WQE-NP9nig=", "properties": {"ref": "3298687", "@spider": "shoprite", "addr:full": "1115 West Chester Pike", "addr:city": "West Chester", "addr:state": "Pennsylvania", "addr:postcode": "19382", "name": "ShopRite of West Chester", "website": "https://shoprite.com/store/3298687", "brand": "ShopRite"}, "geometry": {"type": "Point", "coordinates": [-75.572773, 39.970536]}},
{"type": "Feature", "id": "mfulz64Jth85FchA0_PXS9RsX6s=", "properties": {"ref": "41E01513", "@spider": "shoprite", "addr:full": "330 Oregon Ave", "addr:city": "Philadelphia", "addr:state": "Pennsylvania", "addr:postcode": "19148", "name": "ShopRite of Whitman Plaza", "website": "https://shoprite.com/store/41E01513", "brand": "ShopRite"}, "geometry": {"type": "Point", "coordinates": [-75.155435, 39.913158]}},
{"type": "Feature", "id": "s2QWrz7ukNmENxVzKjyYEYk-6cc=", "properties": {"ref": "4E53123746", "@spider": "shoprite", "addr:full": "1603 Big Oak Road", "addr:city": "Yardley", "addr:state": "Pennsylvania", "addr:postcode": "19067", "name": "ShopRite of Yardley", "website": "https://shoprite.com/store/4E53123746", "brand": "ShopRite"}, "geometry": {"type": "Point", "coordinates": [-74.866539, 40.198339]}},
{"type": "Feature", "id": "jiaXCr7yiANg8FFhRLcHYrqytkc=", "properties": {"ref": "DFA0738", "@spider": "shoprite", "addr:full": "533 Martin Luther King Boulevard", "addr:city": "East Orange", "addr:state": "New Jersey", "addr:postcode": "07019", "name": "ShopRite of East Orange", "website": "https://shoprite.com/store/DFA0738", "brand": "ShopRite"}, "geometry": {"type": "Point", "coordinates": [-74.218697, 40.766396]}},
{"type": "Feature", "id": "pwrKXuKdkDkynifTJlm1_Zw_2ag=", "properties": {"ref": "B3B0769", "@spider": "shoprite", "addr:full": "319 Route 130", "addr:city": "East Windsor", "addr:state": "New Jersey", "addr:postcode": "08520", "name": "ShopRite of East Windsor", "website": "https://shoprite.com/store/B3B0769", "brand": "ShopRite"}, "geometry": {"type": "Point", "coordinates": [-74.528836, 40.279793]}},
{"type": "Feature", "id": "g9qvBVwlbSE1ZtN7hoKGnC0gMhw=", "properties": {"ref": "027F776", "@spider": "shoprite", "addr:full": "775 US-1", "addr:city": "Edison", "addr:state": "New Jersey", "addr:postcode": "08817", "name": "ShopRite of Edison", "website": "https://shoprite.com/store/027F776", "brand": "ShopRite"}, "geometry": {"type": "Point", "coordinates": [-74.383819, 40.512056]}},
{"type": "Feature", "id": "UqwukH9a6pGFMJb3Xe4D0gSVGq8=", "properties": {"ref": "829E724", "@spider": "shoprite", "addr:full": "865 West Grand Street", "addr:city": "Elizabeth", "addr:state": "New Jersey", "addr:postcode": "07202", "name": "ShopRite of Elizabeth", "website": "https://shoprite.com/store/829E724", "brand": "ShopRite"}, "geometry": {"type": "Point", "coordinates": [-74.238914, 40.66384]}},
{"type": "Feature", "id": "cXTmtcjqmx4reu4Vzqoq47P4OwI=", "properties": {"ref": "C02A701", "@spider": "shoprite", "addr:full": "425 Old Hook Road", "addr:city": "Emerson", "addr:state": "New Jersey", "addr:postcode": "07630", "name": "ShopRite of Emerson", "website": "https://shoprite.com/store/C02A701", "brand": "ShopRite"}, "geometry": {"type": "Point", "coordinates": [-74.006966, 40.981769]}},
{"type": "Feature", "id": "BDsRyjd5JWouZrb8Xs9vp_lXnq8=", "properties": {"ref": "DD79722", "@spider": "shoprite", "addr:full": "40 Nathaniel Place", "addr:city": "Englewood", "addr:state": "New Jersey", "addr:postcode": "07631", "name": "ShopRite of Englewood", "website": "https://shoprite.com/store/DD79722", "brand": "ShopRite"}, "geometry": {"type": "Point", "coordinates": [-73.975547, 40.896667]}},
{"type": "Feature", "id": "2_iSbRPidceLc3yffhGyWuqioDY=", "properties": {"ref": "FB49688", "@spider": "shoprite", "addr:full": "3003 English Creek Avenue", "addr:city": "Egg Harbor Township", "addr:state": "New Jersey", "addr:postcode": "08234", "name": "ShopRite of English Creek", "website": "https://shoprite.com/store/FB49688", "brand": "ShopRite"}, "geometry": {"type": "Point", "coordinates": [-74.613343, 39.433116]}},
{"type": "Feature", "id": "DxxUFgTPD3hn1qWY4GNM0mYbE9A=", "properties": {"ref": "8FA8775", "@spider": "shoprite", "addr:full": "2909 Washington Road", "addr:city": "Parlin", "addr:state": "New Jersey", "addr:postcode": "08859", "name": "ShopRite of Ernston Road", "website": "https://shoprite.com/store/8FA8775", "brand": "ShopRite"}, "geometry": {"type": "Point", "coordinates": [-74.312848, 40.467509]}},
{"type": "Feature", "id": "sP--wUxPznXN6cFSz8Ca0KlNCaA=", "properties": {"ref": "5F1C753", "@spider": "shoprite", "addr:full": "1 Rooney Circle", "addr:city": "West Orange", "addr:state": "New Jersey", "addr:postcode": "07052", "name": "ShopRite of Essex Green", "website": "https://shoprite.com/store/5F1C753", "brand": "ShopRite"}, "geometry": {"type": "Point", "coordinates": [-74.255569, 40.79507]}},
{"type": "Feature", "id": "bwty2o6GUKkRFvQZx2BO8wk2BKU=", "properties": {"ref": "E13A1309", "@spider": "shoprite", "addr:full": "400 East Evesham Road", "addr:city": "Cherry Hill", "addr:state": "New Jersey", "addr:postcode": "08003", "name": "ShopRite of Evesham Road", "website": "https://shoprite.com/store/E13A1309", "brand": "ShopRite"}, "geometry": {"type": "Point", "coordinates": [-74.972938, 39.861887]}},
{"type": "Feature", "id": "kFV-v1gi6Wnaa3SByquuvyhd6uY=", "properties": {"ref": "B728665", "@spider": "shoprite", "addr:full": "1750 North Olden Avenue", "addr:city": "Ewing", "addr:state": "New Jersey", "addr:postcode": "08638", "name": "ShopRite of Ewing", "website": "https://shoprite.com/store/B728665", "brand": "ShopRite"}, "geometry": {"type": "Point", "coordinates": [-74.769471, 40.249662]}},
{"type": "Feature", "id": "e-TcH69l2PS1CpBolaqzSGH2KhE=", "properties": {"ref": "4B10790", "@spider": "shoprite", "addr:full": "860 Fischer Blvd", "addr:city": "Toms River", "addr:state": "New Jersey", "addr:postcode": "08753", "name": "ShopRite of Fischer Bay", "website": "https://shoprite.com/store/4B10790", "brand": "ShopRite"}, "geometry": {"type": "Point", "coordinates": [-74.136463, 39.971235]}},
{"type": "Feature", "id": "viiuXOjJJ160bnmKUVrwP3KJisU=", "properties": {"ref": "7C71731", "@spider": "shoprite", "addr:full": "90 Bartley Road", "addr:city": "Flanders", "addr:state": "New Jersey", "addr:postcode": "07836", "name": "ShopRite of Flanders", "website": "https://shoprite.com/store/7C71731", "brand": "ShopRite"}, "geometry": {"type": "Point", "coordinates": [-74.712221, 40.834919]}},
{"type": "Feature", "id": "LLS5xE7_Xbnbd-HBQBQM3Rh1U28=", "properties": {"ref": "92CC332", "@spider": "shoprite", "addr:full": "272 Rt 202 & 31", "addr:city": "Flemington", "addr:state": "New Jersey", "addr:postcode": "08822", "name": "ShopRite of Flemington", "website": "https://shoprite.com/store/92CC332", "brand": "ShopRite"}, "geometry": {"type": "Point", "coordinates": [-74.855271, 40.497006]}},
{"type": "Feature", "id": "P5vBDljzxuWsM-rGP1ULvCeDb84=", "properties": {"ref": "773B749", "@spider": "shoprite", "addr:full": "270 NJ-23", "addr:city": "Franklin", "addr:state": "New Jersey", "addr:postcode": "07416", "name": "ShopRite of Franklin", "website": "https://shoprite.com/store/773B749", "brand": "ShopRite"}, "geometry": {"type": "Point", "coordinates": [-74.579127, 41.117562]}},
{"type": "Feature", "id": "WjWxK2e_LSElNSdFRLtuTHxAYM0=", "properties": {"ref": "45EA779", "@spider": "shoprite", "addr:full": "South St & Rt # 9", "addr:city": "Freehold", "addr:state": "New Jersey", "addr:postcode": "07728", "name": "ShopRite of Freehold", "website": "https://shoprite.com/store/45EA779", "brand": "ShopRite"}, "geometry": {"type": "Point", "coordinates": [-74.275912, 40.243314]}},
{"type": "Feature", "id": "QV-AetpM2BifIAlH36UXarwm4Eg=", "properties": {"ref": "23311308", "@spider": "shoprite", "addr:full": "401 South Pitney Road", "addr:city": "Galloway", "addr:state": "New Jersey", "addr:postcode": "08205", "name": "ShopRite of Galloway", "website": "https://shoprite.com/store/23311308", "brand": "ShopRite"}, "geometry": {"type": "Point", "coordinates": [-74.495583, 39.462527]}},
{"type": "Feature", "id": "kxeL6Tir-j3xSHqk6CfF9AXDOmA=", "properties": {"ref": "0254683", "@spider": "shoprite", "addr:full": "2240 West Marlton Pike", "addr:city": "Cherry Hill", "addr:state": "New Jersey", "addr:postcode": "08002", "name": "ShopRite of Garden State Pavilion", "website": "https://shoprite.com/store/0254683", "brand": "ShopRite"}, "geometry": {"type": "Point", "coordinates": [-75.042474, 39.929158]}},
{"type": "Feature", "id": "1AymIlHCs8gxdlBGuC7bzTXtMVA=", "properties": {"ref": "DD7D719", "@spider": "shoprite", "addr:full": "563 North Avenue East", "addr:city": "Garwood", "addr:state": "New Jersey", "addr:postcode": "07027", "name": "ShopRite of Garwood", "website": "https://shoprite.com/store/DD7D719", "brand": "ShopRite"}, "geometry": {"type": "Point", "coordinates": [-74.331156, 40.652125]}},
{"type": "Feature", "id": "QkgpPeaIKFnwSyShH0lKn9-Glbg=", "properties": {"ref": "1AF4674", "@spider": "shoprite", "addr:full": "Route 295 & 401 Harmony Rd", "addr:city": "Gibbstown", "addr:state": "New Jersey", "addr:postcode": "08027", "name": "ShopRite of Gibbstown", "website": "https://shoprite.com/store/1AF4674", "brand": "ShopRite"}, "geometry": {"type": "Point", "coordinates": [-75.26065, 39.817015]}},
{"type": "Feature", "id": "ovMoKADcdwXubKzHeXzvrVHRarM=", "properties": {"ref": "06FD679", "@spider": "shoprite", "addr:full": "201 Dalton Drive", "addr:city": "Glassboro", "addr:state": "New Jersey", "addr:postcode": "08028", "name": "ShopRite of Glassboro", "website": "https://shoprite.com/store/06FD679", "brand": "ShopRite"}, "geometry": {"type": "Point", "coordinates": [-75.109484, 39.719309]}},
{"type": "Feature", "id": "dh7N7ns4k68sWd9TTWSN-YgeGxo=", "properties": {"ref": "EC03123695", "@spider": "shoprite", "addr:full": "178 E Hanover Ave", "addr:city": "Morristown", "addr:state": "New Jersey", "addr:postcode": "07960", "name": "ShopRite of Greater Morristown", "website": "https://shoprite.com/store/EC03123695", "brand": "ShopRite"}, "geometry": {"type": "Point", "coordinates": [-74.468915, 40.81393]}},
{"type": "Feature", "id": "9rlmEZQlvPJYumKxn5Gl4qAbH2M=", "properties": {"ref": "434F532", "@spider": "shoprite", "addr:full": "1207 Route 22", "addr:city": "Phillipsburg", "addr:state": "New Jersey", "addr:postcode": "08865", "name": "ShopRite of Greenwich", "website": "https://shoprite.com/store/434F532", "brand": "ShopRite"}, "geometry": {"type": "Point", "coordinates": [-75.143415, 40.68015]}},
{"type": "Feature", "id": "lD8UNJjHVEh1ECnerUckwJeNYCo=", "properties": {"ref": "3121588", "@spider": "shoprite", "addr:full": "500 South River Street", "addr:city": "Hackensack", "addr:state": "New Jersey", "addr:postcode": "07601", "name": "ShopRite of Hackensack", "website": "https://shoprite.com/store/3121588", "brand": "ShopRite"}, "geometry": {"type": "Point", "coordinates": [-74.034559, 40.863578]}},
{"type": "Feature", "id": "bU3cbWaCFNcWlOW0GiUuDuyhZBQ=", "properties": {"ref": "1627666", "@spider": "shoprite", "addr:full": "1520 Route 38 East", "addr:city": "Hainesport", "addr:state": "New Jersey", "addr:postcode": "08036", "name": "ShopRite of Hainesport", "website": "https://shoprite.com/store/1627666", "brand": "ShopRite"}, "geometry": {"type": "Point", "coordinates": [-74.808602, 39.981462]}},
{"type": "Feature", "id": "Wbj2_iJO6XAniiBIBORjhSd0-FI=", "properties": {"ref": "8B13670", "@spider": "shoprite", "addr:full": "130 Marketplace Blvd", "addr:city": "Hamilton Township", "addr:state": "New Jersey", "addr:postcode": "08691", "name": "ShopRite of Hamilton Market Place", "website": "https://shoprite.com/store/8B13670", "brand": "ShopRite"}, "geometry": {"type": "Point", "coordinates": [-74.642496, 40.19188]}},
{"type": "Feature", "id": "-5Y8FVLNmwGUihDluut-6F-z42s=", "properties": {"ref": "C772680", "@spider": "shoprite", "addr:full": "1225 Rt 33 Hamilton Plaza", "addr:city": "Hamilton Township", "addr:state": "New Jersey", "addr:postcode": "08690", "name": "ShopRite of Hamilton Square", "website": "https://shoprite.com/store/C772680", "brand": "ShopRite"}, "geometry": {"type": "Point", "coordinates": [-74.664674, 40.22605]}},
{"type": "Feature", "id": "AHfjGQIxvvt3CWzraHhvQnUnfrE=", "properties": {"ref": "87DC692", "@spider": "shoprite", "addr:full": "80 South Whitehorse Pike", "addr:city": "Hammonton", "addr:state": "New Jersey", "addr:postcode": "08037", "name": "ShopRite of Hammonton", "website": "https://shoprite.com/store/87DC692", "brand": "ShopRite"}, "geometry": {"type": "Point", "coordinates": [-74.787151, 39.64485]}},
{"type": "Feature", "id": "VTTtPng72ntW-hN8QSiC7jYFMMA=", "properties": {"ref": "7822119211", "@spider": "shoprite", "addr:full": "3120 State Highway 35", "addr:city": "Hazlet", "addr:state": "New Jersey", "addr:postcode": "07730", "name": "ShopRite of Hazlet", "website": "https://shoprite.com/store/7822119211", "brand": "ShopRite"}, "geometry": {"type": "Point", "coordinates": [-74.183323, 40.419005]}},
{"type": "Feature", "id": "W586dJXES1JdJJoac_8Gb-dZVDs=", "properties": {"ref": "4651761", "@spider": "shoprite", "addr:full": "Rt 206 & Amwell Rd", "addr:city": "Hillsborough", "addr:state": "New Jersey", "addr:postcode": "08844", "name": "ShopRite of Hillsborough", "website": "https://shoprite.com/store/4651761", "brand": "ShopRite"}, "geometry": {"type": "Point", "coordinates": [-74.643214, 40.500499]}},
{"type": "Feature", "id": "OmjS28xbCiF0Wa-_3M4y3UdXizg=", "properties": {"ref": "4487590", "@spider": "shoprite", "addr:full": "372 Broadway", "addr:city": "Hillsdale", "addr:state": "New Jersey", "addr:postcode": "07642", "name": "ShopRite of Hillsdale", "website": "https://shoprite.com/store/4487590", "brand": "ShopRite"}, "geometry": {"type": "Point", "coordinates": [-74.041369, 41.012753]}},
{"type": "Feature", "id": "Gi9CaKl_W5hSL1ScbXW_K2Yd3NQ=", "properties": {"ref": "43C7717", "@spider": "shoprite", "addr:full": "370 Route 22 West", "addr:city": "Hillside", "addr:state": "New Jersey", "addr:postcode": "07205", "name": "ShopRite of Hillside", "website": "https://shoprite.com/store/43C7717", "brand": "ShopRite"}, "geometry": {"type": "Point", "coordinates": [-74.234321, 40.700405]}},
{"type": "Feature", "id": "GaIuGQShe1hAurao1pG-JFaT4ko=", "properties": {"ref": "7EF2370", "@spider": "shoprite", "addr:full": "900 Madison St", "addr:city": "Hoboken", "addr:state": "New Jersey", "addr:postcode": "07030", "name": "ShopRite of Hoboken", "website": "https://shoprite.com/store/7EF2370", "brand": "ShopRite"}, "geometry": {"type": "Point", "coordinates": [-74.036571, 40.749467]}},
{"type": "Feature", "id": "2Edpn6TjLR2o6md2fVGipp_F-pE=", "properties": {"ref": "13CD123753", "@spider": "shoprite", "addr:full": "4594 Route 9 S", "addr:city": "Howell", "addr:state": "New Jersey", "addr:postcode": "07731", "name": "ShopRite of Howell", "website": "https://shoprite.com/store/13CD123753", "brand": "ShopRite"}, "geometry": {"type": "Point", "coordinates": [-74.225153, 40.139954]}},
{"type": "Feature", "id": "dyQgMD_5BYnTq4m2z9VNKN4wFz0=", "properties": {"ref": "32CB792", "@spider": "shoprite", "addr:full": "260 N County Line Rd", "addr:city": "Jackson", "addr:state": "New Jersey", "addr:postcode": "08527", "name": "ShopRite of Jackson", "website": "https://shoprite.com/store/32CB792", "brand": "ShopRite"}, "geometry": {"type": "Point", "coordinates": [-74.293045, 40.139048]}},
{"type": "Feature", "id": "Jg2OhUaqLeDesoAU1letLiLcmWI=", "properties": {"ref": "C73C695", "@spider": "shoprite", "addr:full": "100 Passaic Ave", "addr:city": "Kearny", "addr:state": "New Jersey", "addr:postcode": "07032", "name": "ShopRite of Kearny", "website": "https://shoprite.com/store/C73C695", "brand": "ShopRite"}, "geometry": {"type": "Point", "coordinates": [-74.160296, 40.756877]}},
{"type": "Feature", "id": "lgJ7Q_qvHZe2BWYpeUJZjuXaUHA=", "properties": {"ref": "285D789", "@spider": "shoprite", "addr:full": "Rt 9 & First Street", "addr:city": "Lanoka Harbor", "addr:state": "New Jersey", "addr:postcode": "08734", "name": "ShopRite of Lacey Township", "website": "https://shoprite.com/store/285D789", "brand": "ShopRite"}, "geometry": {"type": "Point", "coordinates": [-74.185544, 39.850787]}},
{"type": "Feature", "id": "J4HhwZETJa_Ht7au-hmy2mscUbQ=", "properties": {"ref": "B94B678", "@spider": "shoprite", "addr:full": "3600 E Landis Ave", "addr:city": "Vineland", "addr:state": "New Jersey", "addr:postcode": "08360", "name": "ShopRite of Landis", "website": "https://shoprite.com/store/B94B678", "brand": "ShopRite"}, "geometry": {"type": "Point", "coordinates": [-74.959373, 39.484275]}},
{"type": "Feature", "id": "f-lj_cDLgbIkC3LZBWOx_vu17PE=", "properties": {"ref": "9A61677", "@spider": "shoprite", "addr:full": "1224 Blackwood/Clementon Rd.", "addr:city": "Clementon", "addr:state": "New Jersey", "addr:postcode": "08021", "name": "ShopRite of Laurel Hill", "website": "https://shoprite.com/store/9A61677", "brand": "ShopRite"}, "geometry": {"type": "Point", "coordinates": [-75.02544, 39.803096]}},
{"type": "Feature", "id": "Mz2ikrPcuAYGOF2lq0HX2D98CzU=", "properties": {"ref": "879186729", "@spider": "shoprite", "addr:full": "130 N White Horse Pike", "addr:city": "Lawnside", "addr:state": "New Jersey", "addr:postcode": "08045", "name": "ShopRite of Lawnside", "website": "https://shoprite.com/store/879186729", "brand": "ShopRite"}, "geometry": {"type": "Point", "coordinates": [-75.043639, 39.867741]}},
{"type": "Feature", "id": "dN7yKHI1R2QU03vVAxQPdCHu6po=", "properties": {"ref": "73E1594", "@spider": "shoprite", "addr:full": "3373 Brunswick Pike", "addr:city": "Lawrenceville", "addr:state": "New Jersey", "addr:postcode": "08648", "name": "ShopRite of Lawrenceville", "website": "https://shoprite.com/store/73E1594", "brand": "ShopRite"}, "geometry": {"type": "Point", "coordinates": [-74.682433, 40.299354]}},
{"type": "Feature", "id": "hrxDe8HMa1zKOJ_Kqa7fCX8SDNY=", "properties": {"ref": "B865333", "@spider": "shoprite", "addr:full": "60 Beaver Brook Rd.", "addr:city": "Lincoln Park", "addr:state": "New Jersey", "addr:postcode": "07035", "name": "ShopRite of Lincoln Park", "website": "https://shoprite.com/store/B865333", "brand": "ShopRite"}, "geometry": {"type": "Point", "coordinates": [-74.309652, 40.925364]}},
{"type": "Feature", "id": "Zd1CuSuoddo1QFlwDtmrdQ6wswc=", "properties": {"ref": "FB03721", "@spider": "shoprite", "addr:full": "Rt 1 N & Stiles Street", "addr:city": "Linden", "addr:state": "New Jersey", "addr:postcode": "07036", "name": "ShopRite of Linden", "website": "https://shoprite.com/store/FB03721", "brand": "ShopRite"}, "geometry": {"type": "Point", "coordinates": [-74.247154, 40.618325]}},
{"type": "Feature", "id": "hXjn3nvUtP5DB05gwsuRn9sTBno=", "properties": {"ref": "F049551", "@spider": "shoprite", "addr:full": "Browertown Rd", "addr:city": "Little Falls", "addr:state": "New Jersey", "addr:postcode": "07424", "name": "ShopRite of Little Falls", "website": "https://shoprite.com/store/F049551", "brand": "ShopRite"}, "geometry": {"type": "Point", "coordinates": [-74.211391, 40.881767]}},
{"type": "Feature", "id": "GPvFDQi8HvgpnMPZ6r_AxJFkvC0=", "properties": {"ref": "BBA4739", "@spider": "shoprite", "addr:full": "483 S Livingston Avenue", "addr:city": "Livingston", "addr:state": "New Jersey", "addr:postcode": "07039", "name": "ShopRite of Livingston", "website": "https://shoprite.com/store/BBA4739", "brand": "ShopRite"}, "geometry": {"type": "Point", "coordinates": [-74.321517, 40.774985]}},
{"type": "Feature", "id": "bims_iNLEeoSLbt-D6viDA4Ref0=", "properties": {"ref": "F7A81295", "@spider": "shoprite", "addr:full": "175 Main Street", "addr:city": "Lodi", "addr:state": "New Jersey", "addr:postcode": "07644", "name": "ShopRite of Lodi", "website": "https://shoprite.com/store/F7A81295", "brand": "ShopRite"}, "geometry": {"type": "Point", "coordinates": [-74.085012, 40.879585]}},
{"type": "Feature", "id": "qX7ih511yeZgQDoj0RvsvJODJZ0=", "properties": {"ref": "1EEF699", "@spider": "shoprite", "addr:full": "540 New York Ave Delafld Rd", "addr:city": "Lyndhurst", "addr:state": "New Jersey", "addr:postcode": "07071", "name": "ShopRite of Lyndhurst", "website": "https://shoprite.com/store/1EEF699", "brand": "ShopRite"}, "geometry": {"type": "Point", "coordinates": [-74.118779, 40.811994]}},
{"type": "Feature", "id": "5rvyMX53eWG119wHsF_UGy1-2V8=", "properties": {"ref": "BF80788", "@spider": "shoprite", "addr:full": "Rt 72 Stafford Sq", "addr:city": "Manahawkin", "addr:state": "New Jersey", "addr:postcode": "08050", "name": "ShopRite of Manahawkin", "website": "https://shoprite.com/store/BF80788", "brand": "ShopRite"}, "geometry": {"type": "Point", "coordinates": [-74.269096, 39.697511]}},
{"type": "Feature", "id": "8R7-83WFRB1jGRVaPgR06-U_RaM=", "properties": {"ref": "CE84791", "@spider": "shoprite", "addr:full": "1001 Rt 70 West", "addr:city": "Manchester", "addr:state": "New Jersey", "addr:postcode": "08759", "name": "ShopRite of Manchester, NJ", "website": "https://shoprite.com/store/CE84791", "brand": "ShopRite"}, "geometry": {"type": "Point", "coordinates": [-74.299721, 40.014522]}},
{"type": "Feature", "id": "sYiTal-2UnN79lgcyjkI_T1eqIA=", "properties": {"ref": "298C737", "@spider": "shoprite", "addr:full": "Rt 57 West & Allen St", "addr:city": "Hackettstown", "addr:state": "New Jersey", "addr:postcode": "07840", "name": "ShopRite of Mansfield", "website": "https://shoprite.com/store/298C737", "brand": "ShopRite"}, "geometry": {"type": "Point", "coordinates": [-74.836386, 40.823081]}},
{"type": "Feature", "id": "tfp78-6BzL2vp9Sk6A3S8GgKJkQ=", "properties": {"ref": "DC61725", "@spider": "shoprite", "addr:full": "280 Union Hill Rd & Rt 9", "addr:city": "Marlboro", "addr:state": "New Jersey", "addr:postcode": "07751", "name": "ShopRite of Marlboro", "website": "https://shoprite.com/store/DC61725", "brand": "ShopRite"}, "geometry": {"type": "Point", "coordinates": [-74.305756, 40.342731]}},
{"type": "Feature", "id": "nmXEPuGsrVA8XM6YTDyl0-2kwnQ=", "properties": {"ref": "2D59671", "@spider": "shoprite", "addr:full": "307 West Route 70", "addr:city": "Marlton", "addr:state": "New Jersey", "addr:postcode": "08053", "name": "ShopRite of Marlton", "website": "https://shoprite.com/store/2D59671", "brand": "ShopRite"}, "geometry": {"type": "Point", "coordinates": [-74.932543, 39.896088]}},
{"type": "Feature", "id": "dAA_9MEgjzd_Wt9mc5ZfbMC3V2w=", "properties": {"ref": "FE4A3768", "@spider": "shoprite", "addr:full": "4 W Roosevelt Blvd", "addr:city": "Marmora", "addr:state": "New Jersey", "addr:postcode": "08223", "name": "ShopRite of Marmora", "website": "https://shoprite.com/store/FE4A3768", "brand": "ShopRite"}, "geometry": {"type": "Point", "coordinates": [-74.64702, 39.264032]}},
{"type": "Feature", "id": "CFSC564W_Tnb32LxwT7kf3jDt7I=", "properties": {"ref": "E65B663", "@spider": "shoprite", "addr:full": "208 Rt 70 East", "addr:city": "Medford", "addr:state": "New Jersey", "addr:postcode": "08055", "name": "ShopRite of Medford", "website": "https://shoprite.com/store/E65B663", "brand": "ShopRite"}, "geometry": {"type": "Point", "coordinates": [-74.820769, 39.903632]}},
{"type": "Feature", "id": "hHIoFqF7Vs0AVUHPHBIL7xeWqMA=", "properties": {"ref": "60EF711", "@spider": "shoprite", "addr:full": "Luis Marin Blvd & 6th St", "addr:city": "Jersey City", "addr:state": "New Jersey", "addr:postcode": "07302", "name": "ShopRite of Metro Plaza", "website": "https://shoprite.com/store/60EF711", "brand": "ShopRite"}, "geometry": {"type": "Point", "coordinates": [-74.040099, 40.724348]}},
{"type": "Feature", "id": "e4cDUzgbBEodRGNfkuzXoCDBbOs=", "properties": {"ref": "E4BE123808", "@spider": "shoprite", "addr:full": "1500 State Highway 35 South", "addr:city": "Middletown", "addr:state": "New Jersey", "addr:postcode": "07748", "name": "ShopRite of Middletown NJ - Kings Commons", "website": "https://shoprite.com/store/E4BE123808", "brand": "ShopRite"}, "geometry": {"type": "Point", "coordinates": [-74.127329, 40.403537]}},
{"type": "Feature", "id": "AjbazjtTiiUIRs2X7nO5DsrTYLE=", "properties": {"ref": "09EF755", "@spider": "shoprite", "addr:full": "220 Main Street", "addr:city": "Millburn", "addr:state": "New Jersey", "addr:postcode": "07041", "name": "ShopRite of Millburn", "website": "https://shoprite.com/store/09EF755", "brand": "ShopRite"}, "geometry": {"type": "Point", "coordinates": [-74.307334, 40.717988]}},
{"type": "Feature", "id": "JtLFQ6nw6DsQaIiGeFUlNwTjYv4=", "properties": {"ref": "89081270", "@spider": "shoprite", "addr:full": "2102-2130 North 2nd Street", "addr:city": "Millville", "addr:state": "New Jersey", "addr:postcode": "08332", "name": "ShopRite of Millville", "website": "https://shoprite.com/store/89081270", "brand": "ShopRite"}, "geometry": {"type": "Point", "coordinates": [-75.040531, 39.420125]}},
{"type": "Feature", "id": "e-rmUXBkwvSEBRQdq2-7CAn8KD4=", "properties": {"ref": "F01A781", "@spider": "shoprite", "addr:full": "Rt 206 and Rt 518", "addr:city": "Montgomery Township", "addr:state": "New Jersey", "addr:postcode": "08558", "name": "ShopRite of Montgomery, NJ", "website": "https://shoprite.com/store/F01A781", "brand": "ShopRite"}, "geometry": {"type": "Point", "coordinates": [-74.647089, 40.404866]}},
{"type": "Feature", "id": "6GvaYbHiGajYfeONYQuFV6amwT0=", "properties": {"ref": "25C01307", "@spider": "shoprite", "addr:full": "127 Ark Road", "addr:city": "Mount Laurel", "addr:state": "New Jersey", "addr:postcode": "08054", "name": "ShopRite of Mount Laurel at Ark Road", "website": "https://shoprite.com/store/25C01307", "brand": "ShopRite"}, "geometry": {"type": "Point", "coordinates": [-74.87003, 39.973776]}},
{"type": "Feature", "id": "CXddArW32Ko5eQ99kjuj2Bm7CvI=", "properties": {"ref": "C931686", "@spider": "shoprite", "addr:full": "1000 Nixon Drive", "addr:city": "Mount Laurel", "addr:state": "New Jersey", "addr:postcode": "08054", "name": "ShopRite of Mt. Laurel", "website": "https://shoprite.com/store/C931686", "brand": "ShopRite"}, "geometry": {"type": "Point", "coordinates": [-74.965851, 39.937974]}},
{"type": "Feature", "id": "iugGsNJDxthz4ItaB-1MRBmFNFQ=", "properties": {"ref": "E0A61314", "@spider": "shoprite", "addr:full": "143 Bridgeton Pike", "addr:city": "Mullica Hill", "addr:state": "New Jersey", "addr:postcode": "08062", "name": "ShopRite of Mullica Hill", "website": "https://shoprite.com/store/E0A61314", "brand": "ShopRite"}, "geometry": {"type": "Point", "coordinates": [-75.218655, 39.724291]}},
{"type": "Feature", "id": "ru8xUPbmg53pAG4oShZprg-SzEA=", "properties": {"ref": "7C02756", "@spider": "shoprite", "addr:full": "2200 Asbury Ave", "addr:city": "Neptune", "addr:state": "New Jersey", "addr:postcode": "07753", "name": "ShopRite of Neptune", "website": "https://shoprite.com/store/7C02756", "brand": "ShopRite"}, "geometry": {"type": "Point", "coordinates": [-74.042994, 40.224418]}},
{"type": "Feature", "id": "j6gdZFYXaeiv7mcGVT2DgKWoy0k=", "properties": {"ref": "6441727", "@spider": "shoprite", "addr:full": "75 Rt 46/Lackawana Plaza", "addr:city": "Netcong", "addr:state": "New Jersey", "addr:postcode": "07857", "name": "ShopRite of Netcong", "website": "https://shoprite.com/store/6441727", "brand": "ShopRite"}, "geometry": {"type": "Point", "coordinates": [-74.705331, 40.896848]}},
{"type": "Feature", "id": "5vACEd5bv6hG4d4LJ5K2M29R7KA=", "properties": {"ref": "C551123799", "@spider": "shoprite", "addr:full": "250 River Rd", "addr:city": "New Milford", "addr:state": "New Jersey", "addr:postcode": "07646", "name": "ShopRite of New Milford", "website": "https://shoprite.com/store/C551123799", "brand": "ShopRite"}, "geometry": {"type": "Point", "coordinates": [-74.019998, 40.94515]}},
{"type": "Feature", "id": "XCgYZ1xg-XvX1HTdj9q91le6n3s=", "properties": {"ref": "DCF7123758", "@spider": "shoprite", "addr:full": "206 Springfield Ave", "addr:city": "Newark", "addr:state": "New Jersey", "addr:postcode": "07103", "name": "ShopRite of Newark, NJ", "website": "https://shoprite.com/store/DCF7123758", "brand": "ShopRite"}, "geometry": {"type": "Point", "coordinates": [-74.1869411, 40.7349079]}},
{"type": "Feature", "id": "rd9mQvqR3J_UkfHPhGHd4odYK5Q=", "properties": {"ref": "8C15732", "@spider": "shoprite", "addr:full": "127 Water Street", "addr:city": "Newton", "addr:state": "New Jersey", "addr:postcode": "07860", "name": "ShopRite of Newton", "website": "https://shoprite.com/store/8C15732", "brand": "ShopRite"}, "geometry": {"type": "Point", "coordinates": [-74.744878, 41.065498]}},
{"type": "Feature", "id": "vw6-ZSWHLQjSdppiiFKCruTMJv8=", "properties": {"ref": "D019773", "@spider": "shoprite", "addr:full": "400 Renaissance Blvd", "addr:city": "North Brunswick", "addr:state": "New Jersey", "addr:postcode": "08902", "name": "ShopRite of North Brunswick", "website": "https://shoprite.com/store/D019773", "brand": "ShopRite"}, "geometry": {"type": "Point", "coordinates": [-74.489834, 40.433688]}},
{"type": "Feature", "id": "R9o-jL8UkYRp5lxVd2ZAoXUdScY=", "properties": {"ref": "E000561", "@spider": "shoprite", "addr:full": "246 Livingston Ave", "addr:city": "Northvale", "addr:state": "New Jersey", "addr:postcode": "07647", "name": "ShopRite of Northvale", "website": "https://shoprite.com/store/E000561", "brand": "ShopRite"}, "geometry": {"type": "Point", "coordinates": [-73.944856, 41.012466]}},
{"type": "Feature", "id": "4tHG6bl6N1vm3s4ym1wz6s9Wvo8=", "properties": {"ref": "C088347", "@spider": "shoprite", "addr:full": "437 Franklin Ave", "addr:city": "Nutley", "addr:state": "New Jersey", "addr:postcode": "07110", "name": "ShopRite of Nutley", "website": "https://shoprite.com/store/C088347", "brand": "ShopRite"}, "geometry": {"type": "Point", "coordinates": [-74.158176, 40.821713]}},
{"type": "Feature", "id": "mZUSOK2iwpIsyNx_d1EbBPO4oJE=", "properties": {"ref": "0624283", "@spider": "shoprite", "addr:full": "14 Post Road", "addr:city": "Oakland", "addr:state": "New Jersey", "addr:postcode": "07436", "name": "ShopRite of Oakland", "website": "https://shoprite.com/store/0624283", "brand": "ShopRite"}, "geometry": {"type": "Point", "coordinates": [-74.256299, 41.014557]}},
{"type": "Feature", "id": "cJ7rh4vTiiwsNq41P0FxYYak7Xw=", "properties": {"ref": "9913726", "@spider": "shoprite", "addr:full": "2239 U.S. 9", "addr:city": "Old Bridge", "addr:state": "New Jersey", "addr:postcode": "08857", "name": "ShopRite of Old Bridge", "website": "https://shoprite.com/store/9913726", "brand": "ShopRite"}, "geometry": {"type": "Point", "coordinates": [-74.304836, 40.410613]}},
{"type": "Feature", "id": "3S3rBBMMbZ9qBVdafIVXSGV9NuU=", "properties": {"ref": "0B25713", "@spider": "shoprite", "addr:full": "Central Blvd & Depot Place", "addr:city": "Palisades Park", "addr:state": "New Jersey", "addr:postcode": "07650", "name": "ShopRite of Palisades Park", "website": "https://shoprite.com/store/0B25713", "brand": "ShopRite"}, "geometry": {"type": "Point", "coordinates": [-74.004666, 40.851981]}},
{"type": "Feature", "id": "twyHEt-xlU6E8LBZslew-FlcgSg=", "properties": {"ref": "776C718", "@spider": "shoprite", "addr:full": "224 Rt 4 East At Forest Ave", "addr:city": "Paramus", "addr:state": "New Jersey", "addr:postcode": "07652", "name": "ShopRite of Paramus", "website": "https://shoprite.com/store/776C718", "brand": "ShopRite"}, "geometry": {"type": "Point", "coordinates": [-74.052792, 40.913967]}},
{"type": "Feature", "id": "2J7HTmKwWFihll0rayuIfVAYqOI=", "properties": {"ref": "E7F7757", "@spider": "shoprite", "addr:full": "808 Route 46", "addr:city": "Parsippany", "addr:state": "New Jersey", "addr:postcode": "07054", "name": "ShopRite of Parsippany", "website": "https://shoprite.com/store/E7F7757", "brand": "ShopRite"}, "geometry": {"type": "Point", "coordinates": [-74.375503, 40.865489]}},
{"type": "Feature", "id": "1iekvg_Zj7_DcgxWNwyDVpI0_ug=", "properties": {"ref": "20C6704", "@spider": "shoprite", "addr:full": "503 Paulison Avenue", "addr:city": "Passaic", "addr:state": "New Jersey", "addr:postcode": "07055", "name": "ShopRite of Passaic on Paulison Ave", "website": "https://shoprite.com/store/20C6704", "brand": "ShopRite"}, "geometry": {"type": "Point", "coordinates": [-74.139813, 40.862192]}},
{"type": "Feature", "id": "-vt0AskcjVmlO6RwVXvg-akk6L4=", "properties": {"ref": "99D5682", "@spider": "shoprite", "addr:full": "2555 Pennington Road", "addr:city": "Pennington", "addr:state": "New Jersey", "addr:postcode": "08534", "name": "ShopRite of Pennington", "website": "https://shoprite.com/store/99D5682", "brand": "ShopRite"}, "geometry": {"type": "Point", "coordinates": [-74.787115, 40.306228]}},
{"type": "Feature", "id": "d4blPmGyhbNikzLNm_x-ZJBgcak=", "properties": {"ref": "6EBE716", "@spider": "shoprite", "addr:full": "Convery Blvd & Fayette", "addr:city": "Perth Amboy", "addr:state": "New Jersey", "addr:postcode": "08861", "name": "ShopRite of Perth Amboy", "website": "https://shoprite.com/store/6EBE716", "brand": "ShopRite"}, "geometry": {"type": "Point", "coordinates": [-74.287163, 40.516616]}},
{"type": "Feature", "id": "KjSXSh2WbQwjRHBAz-kSzlRI2bk=", "properties": {"ref": "1CCA774", "@spider": "shoprite", "addr:full": "Piscataway Twn Centre", "addr:city": "Piscataway", "addr:state": "New Jersey", "addr:postcode": "08854", "name": "ShopRite of Piscataway", "website": "https://shoprite.com/store/1CCA774", "brand": "ShopRite"}, "geometry": {"type": "Point", "coordinates": [-74.442585, 40.551542]}},
{"type": "Feature", "id": "XBqawpm7bZyB7nJbhB39WXvCVYs=", "properties": {"ref": "0157697", "@spider": "shoprite", "addr:full": "Rt 17 & Franklin Turnpike", "addr:city": "Ramsey", "addr:state": "New Jersey", "addr:postcode": "07446", "name": "ShopRite of Ramsey", "website": "https://shoprite.com/store/0157697", "brand": "ShopRite"}, "geometry": {"type": "Point", "coordinates": [-74.137062, 41.067792]}},
{"type": "Feature", "id": "oDoud7qkof-2cqfMKOpNTNKEQl8=", "properties": {"ref": "CDB9800", "@spider": "shoprite", "addr:full": "1700 Route 47 South", "addr:city": "Rio Grande", "addr:state": "New Jersey", "addr:postcode": "08242", "name": "ShopRite of Rio Grande", "website": "https://shoprite.com/store/CDB9800", "brand": "ShopRite"}, "geometry": {"type": "Point", "coordinates": [-74.868739, 39.011966]}},
{"type": "Feature", "id": "FqOxfT3JFF8g3KckrHGtwVWUfm4=", "properties": {"ref": "3DF4706", "@spider": "shoprite", "addr:full": "1717 River Road", "addr:city": "Fair Lawn", "addr:state": "New Jersey", "addr:postcode": "07410", "name": "ShopRite of River Road", "website": "https://shoprite.com/store/3DF4706", "brand": "ShopRite"}, "geometry": {"type": "Point", "coordinates": [-74.13745, 40.938484]}},
{"type": "Feature", "id": "0kzHBjU64Y-tEsam3cky-dIgKjQ=", "properties": {"ref": "DFFD705", "@spider": "shoprite", "addr:full": "220 W Passaic St", "addr:city": "Rochelle Park", "addr:state": "New Jersey", "addr:postcode": "07662", "name": "ShopRite of Rochelle Park", "website": "https://shoprite.com/store/DFFD705", "brand": "ShopRite"}, "geometry": {"type": "Point", "coordinates": [-74.080496, 40.915267]}},
{"type": "Feature", "id": "uGk3ix4SpP_Xy8c3h94vSgEc-Gs=", "properties": {"ref": "D341747", "@spider": "shoprite", "addr:full": "Route 46 East", "addr:city": "Rockaway", "addr:state": "New Jersey", "addr:postcode": "07866", "name": "ShopRite of Rockaway", "website": "https://shoprite.com/store/D341747", "brand": "ShopRite"}, "geometry": {"type": "Point", "coordinates": [-74.536357, 40.884758]}},
{"type": "Feature", "id": "PDf9phoDQfK607ctuawC46wTj4o=", "properties": {"ref": "96EE5986", "@spider": "shoprite", "addr:full": "2 Route 37 West", "addr:city": "Toms River", "addr:state": "New Jersey", "addr:postcode": "08753", "name": "ShopRite of Route 37", "website": "https://shoprite.com/store/96EE5986", "brand": "ShopRite"}, "geometry": {"type": "Point", "coordinates": [-74.205799, 39.965892]}},
{"type": "Feature", "id": "jeUS72_pZUfgZduX7FPdNTDmfr0=", "properties": {"ref": "3C55827", "@spider": "shoprite", "addr:full": "382 Egg Harbor Road", "addr:city": "Sewell", "addr:state": "New Jersey", "addr:postcode": "08080", "name": "ShopRite of Sewell", "website": "https://shoprite.com/store/3C55827", "brand": "ShopRite"}, "geometry": {"type": "Point", "coordinates": [-75.075683, 39.75321]}},
{"type": "Feature", "id": "4RqkD8Mbfw8_q8Nq1nB1uYUGsOY=", "properties": {"ref": "1200123794", "@spider": "shoprite", "addr:full": "1151 Shrewsbury Avenue", "addr:city": "Shrewsbury", "addr:state": "New Jersey", "addr:postcode": "07702", "name": "ShopRite of Shrewsbury", "website": "https://shoprite.com/store/1200123794", "brand": "ShopRite"}, "geometry": {"type": "Point", "coordinates": [-74.065202, 40.313314]}},
{"type": "Feature", "id": "05f6gic4V9Mo4MLn4Y_WT_jJmFw=", "properties": {"ref": "F7621312", "@spider": "shoprite", "addr:full": "542 Berlin Cross Keys Road", "addr:city": "Sicklerville", "addr:state": "New Jersey", "addr:postcode": "08081", "name": "ShopRite of Sicklerville", "website": "https://shoprite.com/store/F7621312", "brand": "ShopRite"}, "geometry": {"type": "Point", "coordinates": [-74.996168, 39.741307]}},
{"type": "Feature", "id": "54-zmhy6_5C04Gj2FgkkHs4A_No=", "properties": {"ref": "A0EA690", "@spider": "shoprite", "addr:full": "Rt 9 & Bethel Road", "addr:city": "Somers Point", "addr:state": "New Jersey", "addr:postcode": "08244", "name": "ShopRite of Somers Point", "website": "https://shoprite.com/store/A0EA690", "brand": "ShopRite"}, "geometry": {"type": "Point", "coordinates": [-74.596322, 39.332391]}},
{"type": "Feature", "id": "WZkQbbjtrwKaj4zEZYD-7XuOPOE=", "properties": {"ref": "EB3F1516", "@spider": "shoprite", "addr:full": "435 Elizabeth Avenue", "addr:city": "Somerset", "addr:state": "New Jersey", "addr:postcode": "08873", "name": "ShopRite of Somerset", "website": "https://shoprite.com/store/EB3F1516", "brand": "ShopRite"}, "geometry": {"type": "Point", "coordinates": [-74.537774, 40.530764]}},
{"type": "Feature", "id": "Po4CWeb-iE_mjFyWOgicz9T_UB8=", "properties": {"ref": "4C955967", "@spider": "shoprite", "addr:full": "1 South Davenport Street", "addr:city": "Somerville", "addr:state": "New Jersey", "addr:postcode": "08876", "name": "ShopRite of Somerville", "website": "https://shoprite.com/store/4C955967", "brand": "ShopRite"}, "geometry": {"type": "Point", "coordinates": [-74.615164, 40.56786]}},
{"type": "Feature", "id": "ReVgJbcCMC1dhkEMgbisgpsFLx8=", "properties": {"ref": "D483123802", "@spider": "shoprite", "addr:full": "4154 US Route 1", "addr:city": "Monmouth Junction", "addr:state": "New Jersey", "addr:postcode": "08852", "name": "ShopRite of South Brunswick at Heritage Plaza", "website": "https://shoprite.com/store/D483123802", "brand": "ShopRite"}, "geometry": {"type": "Point", "coordinates": [-74.570601, 40.385439]}},
{"type": "Feature", "id": "Lrt-HVvuFv2U54VFHW7tyCgM7l4=", "properties": {"ref": "D69C123781", "@spider": "shoprite", "addr:full": "3600 Park Ave", "addr:city": "South Plainfield", "addr:state": "New Jersey", "addr:postcode": "07080", "name": "ShopRite of South Plainfield", "website": "https://shoprite.com/store/D69C123781", "brand": "ShopRite"}, "geometry": {"type": "Point", "coordinates": [-74.393029, 40.576612]}},
{"type": "Feature", "id": "guHGqMmLAq8JcjTM09ov46ADZN8=", "properties": {"ref": "0974123800", "@spider": "shoprite", "addr:full": "18 North Village Boulevard", "addr:city": "Sparta", "addr:state": "New Jersey", "addr:postcode": "07871", "name": "ShopRite of Sparta", "website": "https://shoprite.com/store/0974123800", "brand": "ShopRite"}, "geometry": {"type": "Point", "coordinates": [-74.656539, 41.076683]}},
{"type": "Feature", "id": "jV_zkhAznd0MSqBKOA62rtFsg3I=", "properties": {"ref": "3572346", "@spider": "shoprite", "addr:full": "380 Summerhill Road", "addr:city": "Spotswood", "addr:state": "New Jersey", "addr:postcode": "08884", "name": "ShopRite of Spotswood", "website": "https://shoprite.com/store/3572346", "brand": "ShopRite"}, "geometry": {"type": "Point", "coordinates": [-74.385359, 40.407419]}},
{"type": "Feature", "id": "mwUKq4p5QsltXv381a1W3sw-BTU=", "properties": {"ref": "586E751", "@spider": "shoprite", "addr:full": "727 Morris Tpke", "addr:city": "Springfield", "addr:state": "New Jersey", "addr:postcode": "07081", "name": "ShopRite of Springfield", "website": "https://shoprite.com/store/586E751", "brand": "ShopRite"}, "geometry": {"type": "Point", "coordinates": [-74.331102, 40.718991]}},
{"type": "Feature", "id": "YoKZcn6kMfeL9IxCSJ69SRtqw5Y=", "properties": {"ref": "63FA760", "@spider": "shoprite", "addr:full": "1153 Valley Road", "addr:city": "Stirling", "addr:state": "New Jersey", "addr:postcode": "07980", "name": "ShopRite of Stirling", "website": "https://shoprite.com/store/63FA760", "brand": "ShopRite"}, "geometry": {"type": "Point", "coordinates": [-74.487877, 40.667276]}},
{"type": "Feature", "id": "A8_fD0JWaFnhJ6gLcH7BM9xlZc4=", "properties": {"ref": "C909745", "@spider": "shoprite", "addr:full": "Roxbury Mall #3", "addr:city": "Succasunna", "addr:state": "New Jersey", "addr:postcode": "07876", "name": "ShopRite of Succasunna", "website": "https://shoprite.com/store/C909745", "brand": "ShopRite"}, "geometry": {"type": "Point", "coordinates": [-74.649069, 40.868014]}},
{"type": "Feature", "id": "KfZm7WmOk7JuOm3TNx29T2fWpTc=", "properties": {"ref": "B75B1311", "@spider": "shoprite", "addr:full": "892 Union Mill Road", "addr:city": "Mount Laurel", "addr:state": "New Jersey", "addr:postcode": "08054", "name": "ShopRite of Union Mill Road", "website": "https://shoprite.com/store/B75B1311", "brand": "ShopRite"}, "geometry": {"type": "Point", "coordinates": [-74.91523, 39.937802]}},
{"type": "Feature", "id": "BUesytP9vi63bSHlH-dJ3QqZGWw=", "properties": {"ref": "41C8123737", "@spider": "shoprite", "addr:full": "2401D US Highway 22 W", "addr:city": "Union", "addr:state": "New Jersey", "addr:postcode": "07083", "name": "ShopRite of Union, NJ - Highway 22", "website": "https://shoprite.com/store/41C8123737", "brand": "ShopRite"}, "geometry": {"type": "Point", "coordinates": [-74.296143, 40.691348]}},
{"type": "Feature", "id": "c7b2MKdxBskJDEK0oWcj71xk6-w=", "properties": {"ref": "0E00672", "@spider": "shoprite", "addr:full": "1000 North Pearl Street", "addr:city": "Upper Deerfield", "addr:state": "New Jersey", "addr:postcode": "08302", "name": "ShopRite of Upper Deerfield", "website": "https://shoprite.com/store/0E00672", "brand": "ShopRite"}, "geometry": {"type": "Point", "coordinates": [-75.213233, 39.457366]}},
{"type": "Feature", "id": "1WXNsSD73Gx2M1OwbCO_FO-M94c=", "properties": {"ref": "68A6785", "@spider": "shoprite", "addr:full": "2433 Highway 34", "addr:city": "Manasquan", "addr:state": "New Jersey", "addr:postcode": "08736", "name": "ShopRite of Wall Township", "website": "https://shoprite.com/store/68A6785", "brand": "ShopRite"}, "geometry": {"type": "Point", "coordinates": [-74.08043, 40.121531]}},
{"type": "Feature", "id": "eXpRON59DJZzsKJ-hW3RlIL8oLw=", "properties": {"ref": "2458123755", "@spider": "shoprite", "addr:full": "375 Paterson Ave.", "addr:city": "Wallington", "addr:state": "New Jersey", "addr:postcode": "07057", "name": "ShopRite of Wallington", "website": "https://shoprite.com/store/2458123755", "brand": "ShopRite"}, "geometry": {"type": "Point", "coordinates": [-74.106828, 40.84493]}},
{"type": "Feature", "id": "YMApiNXLWgBzSgbz6fjVnB6zuRo=", "properties": {"ref": "5B5E1767", "@spider": "shoprite", "addr:full": "501 Route 9 Suite 100", "addr:city": "Waretown", "addr:state": "New Jersey", "addr:postcode": "08758", "name": "ShopRite of Waretown", "website": "https://shoprite.com/store/5B5E1767", "brand": "ShopRite"}, "geometry": {"type": "Point", "coordinates": [-74.199049, 39.795905]}},
{"type": "Feature", "id": "7zn6VkIUWqBPlCMXOReSAiIQzZQ=", "properties": {"ref": "E9E9758", "@spider": "shoprite", "addr:full": "2 Club House Drive at Route 31 South", "addr:city": "Washington", "addr:state": "New Jersey", "addr:postcode": "07882", "name": "ShopRite of Washington, NJ- Rt 31", "website": "https://shoprite.com/store/E9E9758", "brand": "ShopRite"}, "geometry": {"type": "Point", "coordinates": [-74.97553, 40.738626]}},
{"type": "Feature", "id": "ZSOL0grUIaZ8OcVTCGW70jbl1iw=", "properties": {"ref": "85C2766", "@spider": "shoprite", "addr:full": "1701 Route 22 West", "addr:city": "Watchung", "addr:state": "New Jersey", "addr:postcode": "07060", "name": "ShopRite of Watchung", "website": "https://shoprite.com/store/85C2766", "brand": "ShopRite"}, "geometry": {"type": "Point", "coordinates": [-74.409831, 40.649892]}},
{"type": "Feature", "id": "XWVyeAysbei2QqFPPjh7jhjKsBo=", "properties": {"ref": "C71B123814", "@spider": "shoprite", "addr:full": "30 Wayne Hills Mall", "addr:city": "Wayne", "addr:state": "New Jersey", "addr:postcode": "07470", "name": "ShopRite of Wayne Hills Mall", "website": "https://shoprite.com/store/C71B123814", "brand": "ShopRite"}, "geometry": {"type": "Point", "coordinates": [-74.23978, 40.96234]}},
{"type": "Feature", "id": "6m3gT66tMt5tWHSsUzdeyZmMpSs=", "properties": {"ref": "F3C9730", "@spider": "shoprite", "addr:full": "540 Passaic Ave", "addr:city": "West Caldwell", "addr:state": "New Jersey", "addr:postcode": "07006", "name": "ShopRite of West Caldwell", "website": "https://shoprite.com/store/F3C9730", "brand": "ShopRite"}, "geometry": {"type": "Point", "coordinates": [-74.296699, 40.848278]}},
{"type": "Feature", "id": "DOCKeU5jhzrE4PBcmi94-HqtGzI=", "properties": {"ref": "C977694", "@spider": "shoprite", "addr:full": "1077 Mantua Pike", "addr:city": "West Deptford", "addr:state": "New Jersey", "addr:postcode": "08096", "name": "ShopRite of West Deptford", "website": "https://shoprite.com/store/C977694", "brand": "ShopRite"}, "geometry": {"type": "Point", "coordinates": [-75.170382, 39.804622]}},
{"type": "Feature", "id": "K8KL369KLAlx-6hxfJS-SeZIqkk=", "properties": {"ref": "0117782", "@spider": "shoprite", "addr:full": "Rt 36 and 71", "addr:city": "West Long Branch", "addr:state": "New Jersey", "addr:postcode": "07764", "name": "ShopRite of West Long Branch", "website": "https://shoprite.com/store/0117782", "brand": "ShopRite"}, "geometry": {"type": "Point", "coordinates": [-74.031991, 40.296082]}},
{"type": "Feature", "id": "nrb17ai-d5omHFUmTVKaDLSZ7wo=", "properties": {"ref": "ABCA589", "@spider": "shoprite", "addr:full": "23 Marshall Hill Road", "addr:city": "West Milford", "addr:state": "New Jersey", "addr:postcode": "07480", "name": "ShopRite of West Milford", "website": "https://shoprite.com/store/ABCA589", "brand": "ShopRite"}, "geometry": {"type": "Point", "coordinates": [-74.365469, 41.131412]}},
{"type": "Feature", "id": "wu69iCGQBiicWkr43cGssQo4HmE=", "properties": {"ref": "7AB3768", "@spider": "shoprite", "addr:full": "314 Route 15", "addr:city": "Wharton", "addr:state": "New Jersey", "addr:postcode": "07885", "name": "ShopRite of Wharton", "website": "https://shoprite.com/store/7AB3768", "brand": "ShopRite"}, "geometry": {"type": "Point", "coordinates": [-74.570405, 40.904952]}},
{"type": "Feature", "id": "pnq77ceFUttyCZbdrXz5xzsSDmQ=", "properties": {"ref": "9198664", "@spider": "shoprite", "addr:full": "100 South Blackhorse Pike", "addr:city": "Williamstown", "addr:state": "New Jersey", "addr:postcode": "08094", "name": "ShopRite of Williamstown", "website": "https://shoprite.com/store/9198664", "brand": "ShopRite"}, "geometry": {"type": "Point", "coordinates": [-74.990198, 39.688457]}},
{"type": "Feature", "id": "O_iWbPw1MhP2GnqYKZnlpZ6yhMg=", "properties": {"ref": "7330772", "@spider": "shoprite", "addr:full": "877 St George Ave", "addr:city": "Woodbridge", "addr:state": "New Jersey", "addr:postcode": "07095", "name": "ShopRite of Woodbridge", "website": "https://shoprite.com/store/7330772", "brand": "ShopRite"}, "geometry": {"type": "Point", "coordinates": [-74.292634, 40.567563]}},
{"type": "Feature", "id": "LQCrEo2o9m8XXLYlE_ngULU0uNU=", "properties": {"ref": "E8FA123795", "@spider": "shoprite", "addr:full": "430 Greenwood Avenue", "addr:city": "Wyckoff", "addr:state": "New Jersey", "addr:postcode": "07481", "name": "ShopRite of Wyckoff ", "website": "https://shoprite.com/store/E8FA123795", "brand": "ShopRite"}, "geometry": {"type": "Point", "coordinates": [-74.169846, 41.013517]}},
{"type": "Feature", "id": "a0GFiN7mIY7GCva9rRygwEJm1vQ=", "properties": {"ref": "1BAD79067", "@spider": "shoprite", "addr:full": "35-07 Broadway", "addr:city": "Fair Lawn", "addr:state": "New Jersey", "addr:postcode": "07410", "name": "ShopRite Liquors of Fair Lawn", "website": "https://shoprite.com/store/1BAD79067", "brand": "ShopRite"}, "geometry": {"type": "Point", "coordinates": [-74.101234, 40.925692]}},
{"type": "Feature", "id": "Fwt_MOW5MCoDG15v5FxBZTdH0Q8=", "properties": {"ref": "3C8379068", "@spider": "shoprite", "addr:full": "100 State Route 23", "addr:city": "Franklin", "addr:state": "New Jersey", "addr:postcode": "07416", "name": "ShopRite Liquors of Franklin Boro", "website": "https://shoprite.com/store/3C8379068", "brand": "ShopRite"}, "geometry": {"type": "Point", "coordinates": [-74.581515, 41.102704]}},
{"type": "Feature", "id": "JuTZN5H06Zvucd9yCU3aL5BdcPs=", "properties": {"ref": "8BED79074", "@spider": "shoprite", "addr:full": "400 Luis Marin Blvd.", "addr:city": "Jersey City", "addr:state": "New Jersey", "addr:postcode": "07302", "name": "ShopRite Liquors of Jersey City", "website": "https://shoprite.com/store/8BED79074", "brand": "ShopRite"}, "geometry": {"type": "Point", "coordinates": [-74.040074, 40.724371]}},
{"type": "Feature", "id": "7oXAhNUhUyfEFohdoPEzR6u_DeI=", "properties": {"ref": "8B0779083", "@spider": "shoprite", "addr:full": "224 Rt. 4 East & Forest Avenue", "addr:city": "Paramus", "addr:state": "New Jersey", "addr:postcode": "07652", "name": "ShopRite Liquors of Paramus", "website": "https://shoprite.com/store/8B0779083", "brand": "ShopRite"}, "geometry": {"type": "Point", "coordinates": [-74.052778, 40.913958]}},
{"type": "Feature", "id": "ue5LvuUfQiShkP_eyy3o1RwFjDo=", "properties": {"ref": "06B279086", "@spider": "shoprite", "addr:full": "220 W. Passaic Street", "addr:city": "Rochelle Park", "addr:state": "New Jersey", "addr:postcode": "07662", "name": "ShopRite Liquors of Rochelle Park", "website": "https://shoprite.com/store/06B279086", "brand": "ShopRite"}, "geometry": {"type": "Point", "coordinates": [-74.080509, 40.915295]}},
{"type": "Feature", "id": "arlTo4O_WwojVBapq_mSnZATMrU=", "properties": {"ref": "774479087", "@spider": "shoprite", "addr:full": "439 Rte. 46 East", "addr:city": "Rockaway", "addr:state": "New Jersey", "addr:postcode": "07866", "name": "ShopRite Liquors of Rockaway", "website": "https://shoprite.com/store/774479087", "brand": "ShopRite"}, "geometry": {"type": "Point", "coordinates": [-74.536357, 40.884758]}},
{"type": "Feature", "id": "ux2z-q3i9nFw2uTyZJ3XmEku4QM=", "properties": {"ref": "BBE179090", "@spider": "shoprite", "addr:full": "306 Rt. 15", "addr:city": "Wharton", "addr:state": "New Jersey", "addr:postcode": "07885", "name": "ShopRite Liquors of Wharton", "website": "https://shoprite.com/store/BBE179090", "brand": "ShopRite"}, "geometry": {"type": "Point", "coordinates": [-74.570378, 40.904969]}},
{"type": "Feature", "id": "Q1C9rvdNqD3OKOHtATCa8QzhlV4=", "properties": {"ref": "072879070", "@spider": "shoprite", "addr:full": "80-80 Main Street", "addr:city": "Hackettstown", "addr:state": "New Jersey", "addr:postcode": "07840", "name": "ShopRite Wines & Spirits", "website": "https://shoprite.com/store/072879070", "brand": "ShopRite"}, "geometry": {"type": "Point", "coordinates": [-74.833202, 40.854695]}},
{"type": "Feature", "id": "GO3E0ZKOdC9P0mrSmQVdtuF0e6E=", "properties": {"ref": "C15379095", "@spider": "shoprite", "addr:full": "583 Avenue C", "addr:city": "Bayonne", "addr:state": "New Jersey", "addr:postcode": "07002", "name": "ShopRite Wines & Spirits of Bayonne", "website": "https://shoprite.com/store/C15379095", "brand": "ShopRite"}, "geometry": {"type": "Point", "coordinates": [-74.119283, 40.667457]}},
{"type": "Feature", "id": "mMKkYJ9phwSUrb9QegvXdDktNao=", "properties": {"ref": "784C123812", "@spider": "shoprite", "addr:full": "1817 Mount Holly Rd", "addr:city": "Burlington", "addr:state": "New Jersey", "addr:postcode": "08078", "name": "ShopRite Wines & Spirits of Burlington", "website": "https://shoprite.com/store/784C123812", "brand": "ShopRite"}, "geometry": {"type": "Point", "coordinates": [-74.841057, 40.053679]}},
{"type": "Feature", "id": "2ahFH3ktRpBhenB5ygi21N9__f0=", "properties": {"ref": "944A79061", "@spider": "shoprite", "addr:full": "90 Route 206 North", "addr:city": "Byram Township", "addr:state": "New Jersey", "addr:postcode": "07874", "name": "ShopRite Wines & Spirits of Byram", "website": "https://shoprite.com/store/944A79061", "brand": "ShopRite"}, "geometry": {"type": "Point", "coordinates": [-74.718499, 40.934769]}},
{"type": "Feature", "id": "qnzVIiFiCF5g0SufOyahIzd1bNM=", "properties": {"ref": "317179062", "@spider": "shoprite", "addr:full": "478 Bloomfield Avenue", "addr:city": "Caldwell", "addr:state": "New Jersey", "addr:postcode": "07006", "name": "ShopRite Wines & Spirits of Caldwell", "website": "https://shoprite.com/store/317179062", "brand": "ShopRite"}, "geometry": {"type": "Point", "coordinates": [-74.281786, 40.842819]}},
{"type": "Feature", "id": "9GqNudkJA_vKCfdKHCmol3YIcY8=", "properties": {"ref": "BA73123735", "@spider": "shoprite", "addr:full": "Route 70 and Cornell Drive", "addr:city": "Cherry Hill", "addr:state": "New Jersey", "addr:postcode": "08002", "name": "ShopRite Wines & Spirits of Cherry Hill", "website": "https://shoprite.com/store/BA73123735", "brand": "ShopRite"}, "geometry": {"type": "Point", "coordinates": [-75.042514, 39.929203]}},
{"type": "Feature", "id": "pkugtNIsL0szMs8wNiNhsinfESg=", "properties": {"ref": "074979063", "@spider": "shoprite", "addr:full": "120 Rte. 206 South", "addr:city": "Chester", "addr:state": "New Jersey", "addr:postcode": "07930", "name": "ShopRite Wines & Spirits of Chester", "website": "https://shoprite.com/store/074979063", "brand": "ShopRite"}, "geometry": {"type": "Point", "coordinates": [-74.698456, 40.780618]}},
{"type": "Feature", "id": "exHuZF_q3F1j9YW-LSiawzsiDZc=", "properties": {"ref": "492C79094", "@spider": "shoprite", "addr:full": "141 Route 130", "addr:city": "Cinnaminson", "addr:state": "New Jersey", "addr:postcode": "08077", "name": "ShopRite Wines & Spirits of Cinnaminson", "website": "https://shoprite.com/store/492C79094", "brand": "ShopRite"}, "geometry": {"type": "Point", "coordinates": [-75.00998, 39.990717]}},
{"type": "Feature", "id": "YJoCwy4zw4UUsgtQc4Flyv2doZY=", "properties": {"ref": "8F13123785", "@spider": "shoprite", "addr:full": "895 Paulison Ave.", "addr:city": "Clifton", "addr:state": "New Jersey", "addr:postcode": "07011", "name": "ShopRite Wines & Spirits of Clifton", "website": "https://shoprite.com/store/8F13123785", "brand": "ShopRite"}, "geometry": {"type": "Point", "coordinates": [-74.154913, 40.871485]}},
{"type": "Feature", "id": "OeKawjZuh61deC944RVZzj3kCq0=", "properties": {"ref": "425979064", "@spider": "shoprite", "addr:full": "41 Old Highway 22", "addr:city": "Clinton", "addr:state": "New Jersey", "addr:postcode": "08809", "name": "ShopRite Wines & Spirits of Clinton", "website": "https://shoprite.com/store/425979064", "brand": "ShopRite"}, "geometry": {"type": "Point", "coordinates": [-74.905797, 40.638281]}},
{"type": "Feature", "id": "pf-13UXthIYNUiNLD-VFq2NZk_M=", "properties": {"ref": "3E1179065", "@spider": "shoprite", "addr:full": "425 Old Hook Road", "addr:city": "Emerson", "addr:state": "New Jersey", "addr:postcode": "07630", "name": "ShopRite Wines & Spirits of Emerson", "website": "https://shoprite.com/store/3E1179065", "brand": "ShopRite"}, "geometry": {"type": "Point", "coordinates": [-74.006647, 40.98061]}},
{"type": "Feature", "id": "j8Ehl90OnvvbQvmyv1Ai575yn3c=", "properties": {"ref": "DE1979066", "@spider": "shoprite", "addr:full": "55 Nathaniel Place", "addr:city": "Englewood", "addr:state": "New Jersey", "addr:postcode": "07631", "name": "ShopRite Wines & Spirits of Englewood", "website": "https://shoprite.com/store/DE1979066", "brand": "ShopRite"}, "geometry": {"type": "Point", "coordinates": [-73.975545, 40.896677]}},
{"type": "Feature", "id": "nEKnvqhEoYFvZv8b4d-LJwwAKgg=", "properties": {"ref": "229779069", "@spider": "shoprite", "addr:full": "3585 Rt. 9 North", "addr:city": "Freehold", "addr:state": "New Jersey", "addr:postcode": "07728", "name": "ShopRite Wines & Spirits of Freehold", "website": "https://shoprite.com/store/229779069", "brand": "ShopRite"}, "geometry": {"type": "Point", "coordinates": [-74.277995, 40.243414]}},
{"type": "Feature", "id": "zaxqo088oiXx994UpJgE_cO6aBw=", "properties": {"ref": "F99C123734", "@spider": "shoprite", "addr:full": "178 E Hanover Ave", "addr:city": "Morristown", "addr:state": "New Jersey", "addr:postcode": "07960", "name": "ShopRite Wines & Spirits of Greater Morristown", "website": "https://shoprite.com/store/F99C123734", "brand": "ShopRite"}, "geometry": {"type": "Point", "coordinates": [-74.468915, 40.81393]}},
{"type": "Feature", "id": "tb3bkSQSrJwO6UZlgSQ9wRvRAiU=", "properties": {"ref": "470279072", "@spider": "shoprite", "addr:full": "372 Broadway", "addr:city": "Hillsdale", "addr:state": "New Jersey", "addr:postcode": "07642", "name": "ShopRite Wines & Spirits of Hillsdale", "website": "https://shoprite.com/store/470279072", "brand": "ShopRite"}, "geometry": {"type": "Point", "coordinates": [-74.041411, 41.012762]}},
{"type": "Feature", "id": "dEQDhNtq3x9djXtYLYiRD2K9nq0=", "properties": {"ref": "037579073", "@spider": "shoprite", "addr:full": "900 Madison St", "addr:city": "Hoboken", "addr:state": "New Jersey", "addr:postcode": "07030", "name": "ShopRite Wines & Spirits of Hoboken", "website": "https://shoprite.com/store/037579073", "brand": "ShopRite"}, "geometry": {"type": "Point", "coordinates": [-74.03656, 40.749466]}},
{"type": "Feature", "id": "ixNTP-bkS2JnOnT72zL2VIPUXOs=", "properties": {"ref": "281379075", "@spider": "shoprite", "addr:full": "98 Passaic Avenue", "addr:city": "Kearny", "addr:state": "New Jersey", "addr:postcode": "07032", "name": "ShopRite Wines & Spirits of Kearny", "website": "https://shoprite.com/store/281379075", "brand": "ShopRite"}, "geometry": {"type": "Point", "coordinates": [-74.160293, 40.756884]}},
{"type": "Feature", "id": "OaF6SrrkH36ZMMNxAJ_y7dHPHGA=", "properties": {"ref": "2D8C79076", "@spider": "shoprite", "addr:full": "60 Beaverbrook Road", "addr:city": "Lincoln Park", "addr:state": "New Jersey", "addr:postcode": "07035", "name": "ShopRite Wines & Spirits of Lincoln Park", "website": "https://shoprite.com/store/2D8C79076", "brand": "ShopRite"}, "geometry": {"type": "Point", "coordinates": [-74.30964, 40.925346]}},
{"type": "Feature", "id": "ZqKTP-Dz3tHxt26tZtOGN7uClXU=", "properties": {"ref": "C6AF79077", "@spider": "shoprite", "addr:full": "171 Browertown Road", "addr:city": "Little Falls", "addr:state": "New Jersey", "addr:postcode": "07424", "name": "ShopRite Wines & Spirits of Little Falls", "website": "https://shoprite.com/store/C6AF79077", "brand": "ShopRite"}, "geometry": {"type": "Point", "coordinates": [-74.211364, 40.881762]}},
{"type": "Feature", "id": "F7thEyqtum2_IM3dMdk5EQOlBZM=", "properties": {"ref": "366579093", "@spider": "shoprite", "addr:full": "165 Main St Bergen County", "addr:city": "Lodi", "addr:state": "New Jersey", "addr:postcode": "07644", "name": "ShopRite Wines & Spirits of Lodi", "website": "https://shoprite.com/store/366579093", "brand": "ShopRite"}, "geometry": {"type": "Point", "coordinates": [-74.085, 40.879584]}},
{"type": "Feature", "id": "dZd1VQPOVobH1Q7y__MNZ0knzu4=", "properties": {"ref": "F29779078", "@spider": "shoprite", "addr:full": "540 New York Avenue", "addr:city": "Lyndhurst", "addr:state": "New Jersey", "addr:postcode": "07071", "name": "ShopRite Wines & Spirits of Lyndhurst", "website": "https://shoprite.com/store/F29779078", "brand": "ShopRite"}, "geometry": {"type": "Point", "coordinates": [-74.118642, 40.812131]}},
{"type": "Feature", "id": "HFWKXyTqQPLIbME5b2iZtHxrmU0=", "properties": {"ref": "A68579071", "@spider": "shoprite", "addr:full": "3161 Quakerbridge", "addr:city": "Hamilton Township", "addr:state": "New Jersey", "addr:postcode": "08619", "name": "ShopRite Wines & Spirits of Mercerville", "website": "https://shoprite.com/store/A68579071", "brand": "ShopRite"}, "geometry": {"type": "Point", "coordinates": [-74.684784, 40.248431]}},
{"type": "Feature", "id": "95SBzpux3eLA_tCbBORkZjyS5vQ=", "properties": {"ref": "F22C123809", "@spider": "shoprite", "addr:full": "1500 State Highway Route 35 South", "addr:city": "Middletown", "addr:state": "New Jersey", "addr:postcode": "07748", "name": "ShopRite Wines & Spirits of Middletown", "website": "https://shoprite.com/store/F22C123809", "brand": "ShopRite"}, "geometry": {"type": "Point", "coordinates": [-74.127329, 40.403537]}},
{"type": "Feature", "id": "kMJJj4xwkQEY7R_fnMNxog9jxi8=", "properties": {"ref": "68C779079", "@spider": "shoprite", "addr:full": "2200 Rt. 66", "addr:city": "Neptune", "addr:state": "New Jersey", "addr:postcode": "07753", "name": "ShopRite Wines & Spirits of Neptune", "website": "https://shoprite.com/store/68C779079", "brand": "ShopRite"}, "geometry": {"type": "Point", "coordinates": [-74.042817, 40.224616]}},
{"type": "Feature", "id": "2oM5sU75xN5Dne6zedAYYHGQoAk=", "properties": {"ref": "E96A79080", "@spider": "shoprite", "addr:full": "75 Rte. 46", "addr:city": "Netcong", "addr:state": "New Jersey", "addr:postcode": "07857", "name": "ShopRite Wines & Spirits of Netcong", "website": "https://shoprite.com/store/E96A79080", "brand": "ShopRite"}, "geometry": {"type": "Point", "coordinates": [-74.705332, 40.896855]}},
{"type": "Feature", "id": "E7F0AqNIQxl6K0SoqKoxlNt3nYM=", "properties": {"ref": "1BD679081", "@spider": "shoprite", "addr:full": "125 Water Street", "addr:city": "Newton", "addr:state": "New Jersey", "addr:postcode": "07860", "name": "ShopRite Wines & Spirits of Newton", "website": "https://shoprite.com/store/1BD679081", "brand": "ShopRite"}, "geometry": {"type": "Point", "coordinates": [-74.744866, 41.065553]}},
{"type": "Feature", "id": "o_NkoFQzoAPbLWrO2QL0tpgmlz8=", "properties": {"ref": "00C079082", "@spider": "shoprite", "addr:full": "246 Livingston Street", "addr:city": "Northvale", "addr:state": "New Jersey", "addr:postcode": "07647", "name": "ShopRite Wines & Spirits of Northvale", "website": "https://shoprite.com/store/00C079082", "brand": "ShopRite"}, "geometry": {"type": "Point", "coordinates": [-73.944889, 41.012486]}},
{"type": "Feature", "id": "yPXVXHrvXEwmaqnyEoOlf5rxDqA=", "properties": {"ref": "C04C79084", "@spider": "shoprite", "addr:full": "808 Route 46", "addr:city": "Parsippany", "addr:state": "New Jersey", "addr:postcode": "07054", "name": "ShopRite Wines & Spirits of Parsippany", "website": "https://shoprite.com/store/C04C79084", "brand": "ShopRite"}, "geometry": {"type": "Point", "coordinates": [-74.375537, 40.865482]}},
{"type": "Feature", "id": "VZVKOU-iHFle0X9QALacTg5KxWE=", "properties": {"ref": "5C61123803", "@spider": "shoprite", "addr:full": "16 North Village Blvd", "addr:city": "Sparta", "addr:state": "New Jersey", "addr:postcode": "07871", "name": "ShopRite Wines & Spirits of Sparta", "website": "https://shoprite.com/store/5C61123803", "brand": "ShopRite"}, "geometry": {"type": "Point", "coordinates": [-74.657532, 41.077027]}},
{"type": "Feature", "id": "58YsYXVtsrmdqrSvp7f1fpNnM4g=", "properties": {"ref": "5A5379088", "@spider": "shoprite", "addr:full": "281-021 Rte. 10 Roxbury Mall", "addr:city": "Succasunna", "addr:state": "New Jersey", "addr:postcode": "07876", "name": "ShopRite Wines & Spirits of Succasunna", "website": "https://shoprite.com/store/5A5379088", "brand": "ShopRite"}, "geometry": {"type": "Point", "coordinates": [-74.649084, 40.868082]}},
{"type": "Feature", "id": "uwfhNyXlDkFHB7gLv5LLD8HYoJI=", "properties": {"ref": "F34179089", "@spider": "shoprite", "addr:full": "3666 E. Landis Avenue", "addr:city": "Vineland", "addr:state": "New Jersey", "addr:postcode": "08361", "name": "ShopRite Wines & Spirits of Vineland", "website": "https://shoprite.com/store/F34179089", "brand": "ShopRite"}, "geometry": {"type": "Point", "coordinates": [-74.959332, 39.484227]}},
{"type": "Feature", "id": "doi3Un-POpVQGa3TmIslBL5L05U=", "properties": {"ref": "EF09123784", "@spider": "shoprite", "addr:full": "375 Paterson Ave.", "addr:city": "Wallington", "addr:state": "New Jersey", "addr:postcode": "07057", "name": "ShopRite Wines & Spirits of Wallington", "website": "https://shoprite.com/store/EF09123784", "brand": "ShopRite"}, "geometry": {"type": "Point", "coordinates": [-74.106626, 40.844815]}},
{"type": "Feature", "id": "1PAX0M8PTh4rh_LM6BiddB8eS-o=", "properties": {"ref": "10BF123811", "@spider": "shoprite", "addr:full": "766 Route 23", "addr:city": "Wantage", "addr:state": "New Jersey", "addr:postcode": "07461", "name": "ShopRite Wines & Spirits of Wantage", "website": "https://shoprite.com/store/10BF123811", "brand": "ShopRite"}, "geometry": {"type": "Point", "coordinates": [-74.6171471, 41.2247272]}},
{"type": "Feature", "id": "ciGRvaLNqX6ZfgqhEDUjktiRVhU=", "properties": {"ref": "4BDB123810", "@spider": "shoprite", "addr:full": "57 Rt 46 Suite 204", "addr:city": "Hackettstown", "addr:state": "New Jersey", "addr:postcode": "07840", "name": "ShopRite Wines & Spirits of Wash. Township", "website": "https://shoprite.com/store/4BDB123810", "brand": "ShopRite"}, "geometry": {"type": "Point", "coordinates": [-74.81367, 40.84445]}},
{"type": "Feature", "id": "fW2VP3Fv5GsV_qP7rUA_z6zyv5c=", "properties": {"ref": "5DF879096", "@spider": "shoprite", "addr:full": "384 Egg Harbor Road", "addr:city": "Sewell", "addr:state": "New Jersey", "addr:postcode": "08080", "name": "ShopRite Wines and Spirits #889", "website": "https://shoprite.com/store/5DF879096", "brand": "ShopRite"}, "geometry": {"type": "Point", "coordinates": [-75.075683, 39.75321]}},
{"type": "Feature", "id": "W-Xwtstfe18OU2M147_U-59995o=", "properties": {"ref": "DB3079092", "@spider": "shoprite", "addr:full": "333 South Avenue East", "addr:city": "Westfield", "addr:state": "New Jersey", "addr:postcode": "07090", "name": "ShopRite Wines and Spirits of Westfield", "website": "https://shoprite.com/store/DB3079092", "brand": "ShopRite"}, "geometry": {"type": "Point", "coordinates": [-74.338518, 40.650172]}}]}