{"type":"FeatureCollection","features":[{"type": "Feature", "id": "6NT3taKRDZmWrzMERyzVdcCCOP0=", "properties": {"ref": "2", "@spider": "simonmed", "addr:full": "10111 Hole Ave. ", "addr:city": "Riverside", "addr:state": "CA", "addr:postcode": "92503", "name": "SimonMed Imaging - Riverside", "phone": "(951) 352-0555", "website": "https://www.simonmed.com/locations", "opening_hours": "Mo 07:00-20:00; Tu 07:00-20:00; We 07:00-20:00; Th 07:00-20:00; Fr 07:00-20:00; Sa 07:00-13:00; Su 07:00-13:00", "brand": "SimonMed"}, "geometry": {"type": "Point", "coordinates": [-117.458435, 33.9146538]}},
{"type": "Feature", "id": "9ldekJBeqgX-SkbxcQr2-9X_Mro=", "properties": {"ref": "3", "@spider": "simonmed", "addr:full": "105 South Drive Suite 110", "addr:city": "Mountain View", "addr:state": "CA", "addr:postcode": "94040", "name": "SimonMed Imaging - Mountain View (CA)", "phone": "(650) 259-3165", "website": "https://www.simonmed.com/locations", "opening_hours": "Mo 07:00-15:30; Tu 07:00-15:30; We 07:00-15:30; Th 07:00-15:30; Fr 07:00-15:30", "brand": "SimonMed"}, "geometry": {"type": "Point", "coordinates": [-122.078331, 37.3672523]}},
{"type": "Feature", "id": "OyNacXU-3Bg90dKmZWDuQh2aG3k=", "properties": {"ref": "4", "@spider": "simonmed", "addr:full": "10815 W. McDowell Road Suite 102", "addr:city": "Avondale", "addr:state": "AZ", "addr:postcode": "85392", "name": "SimonMed Imaging - Avondale", "phone": "(623) 433-0121", "website": "https://www.simonmed.com/locations", "opening_hours": "Mo 06:30-22:00; Tu 06:30-22:00; We 06:30-22:00; Th 06:30-22:00; Fr 06:30-22:00; Sa 06:30-22:00; Su 07:00-19:00", "brand": "SimonMed"}, "geometry": {"type": "Point", "coordinates": [-112.291954, 33.46294]}},
{"type": "Feature", "id": "YRRF0J3iC8gajytIZOPcUwjhCws=", "properties": {"ref": "5", "@spider": "simonmed", "addr:full": "1110 W Fairbanks Ave. ", "addr:city": "Winter Park", "addr:state": "FL", "addr:postcode": "32789", "name": "SimonMed Imaging - Winter Park", "phone": "(407) 629-7474", "website": "https://www.simonmed.com/locations", "opening_hours": "Mo 08:00-18:00; Tu 08:00-18:00; We 08:00-18:00; Th 08:00-18:00; Fr 08:00-18:00", "brand": "SimonMed"}, "geometry": {"type": "Point", "coordinates": [-81.36406, 28.5928059]}},
{"type": "Feature", "id": "mcY2wIRjr8nuujfYHre4Xh3EnLk=", "properties": {"ref": "6", "@spider": "simonmed", "addr:full": "1111 South Dobson Road Suite 105", "addr:city": "Mesa", "addr:state": "AZ", "addr:postcode": "85202", "name": "SimonMed Imaging - Mesa Desert Campus", "phone": "(480) 964-4995", "website": "https://www.simonmed.com/locations", "opening_hours": "Mo 06:45-20:00; Tu 06:45-20:00; We 06:45-20:00; Th 06:45-20:00; Fr 06:45-20:00; Sa 07:00-20:00; Su 08:00-18:00", "brand": "SimonMed"}, "geometry": {"type": "Point", "coordinates": [-111.8746, 33.39441]}},
{"type": "Feature", "id": "4K56GKPPuJz976H5KlyzYHYa9YI=", "properties": {"ref": "7", "@spider": "simonmed", "addr:full": "1180 Post Street ", "addr:city": "San Francisco", "addr:state": "CA", "addr:postcode": "94109", "name": "Simonmed Imaging - San Francisco Post St", "phone": "(415) 248-3700", "website": "https://www.simonmed.com/locations", "opening_hours": "Mo 08:00-16:30; Tu 08:00-16:30; We 08:00-16:30; Th 08:00-16:30; Fr 08:00-16:30; Sa 08:00-16:00", "brand": "SimonMed"}, "geometry": {"type": "Point", "coordinates": [-122.421227, 37.7869339]}},
{"type": "Feature", "id": "-KfRs8TpYQB9N90Z-eEao5W9Y5k=", "properties": {"ref": "8", "@spider": "simonmed", "addr:full": "130 S 63rd Street Suite 123", "addr:city": "Mesa", "addr:state": "AZ", "addr:postcode": "85206", "name": "SimonMed Imaging - Baywood", "phone": "(480) 264-4900", "website": "https://www.simonmed.com/locations", "opening_hours": "Mo 06:30-22:00; Tu 06:30-22:00; We 06:30-22:00; Th 06:30-22:00; Fr 06:30-22:00; Sa 07:00-20:00; Su 08:00-14:00", "brand": "SimonMed"}, "geometry": {"type": "Point", "coordinates": [-111.695839, 33.41291]}},
{"type": "Feature", "id": "e4T6vEWQarANg5Ey8ggzKifWkx4=", "properties": {"ref": "9", "@spider": "simonmed", "addr:full": "1331 North 7th St. Suite 150", "addr:city": "Phoenix", "addr:state": "AZ", "addr:postcode": "85006", "name": "SimonMed Imaging - Phoenix Highfield Open MRI", "phone": "(602) 253-0000", "website": "https://www.simonmed.com/locations", "opening_hours": "Mo 06:00-18:00; Tu 06:00-18:00; We 06:00-18:00; Th 06:00-18:00; Fr 06:00-18:00; Sa 07:00-17:00", "brand": "SimonMed"}, "geometry": {"type": "Point", "coordinates": [-112.064125, 33.4633865]}},
{"type": "Feature", "id": "EyqE6uylH6XzxlnKIDr0fTVrMKI=", "properties": {"ref": "10", "@spider": "simonmed", "addr:full": "13624 W. Camino Del Sol Suite 300", "addr:city": "Sun City West", "addr:state": "AZ", "addr:postcode": "85375", "name": "SimonMed Imaging - Sun City West", "phone": "(623) 214-6609", "website": "https://www.simonmed.com/locations", "opening_hours": "Mo 06:15-17:00; Tu 06:15-17:00; We 06:15-17:00; Th 06:15-17:00; Fr 06:15-17:00; Sa 08:00-16:00", "brand": "SimonMed"}, "geometry": {"type": "Point", "coordinates": [-112.356369, 33.6547623]}},
{"type": "Feature", "id": "F3zm-KofVai5nYLGG3IKsdqflDU=", "properties": {"ref": "11", "@spider": "simonmed", "addr:full": "13657 W McDowell Road Suite 111", "addr:city": "Goodyear", "addr:state": "AZ", "addr:postcode": "85395", "name": "SimonMed Imaging - Goodyear Palm Valley", "phone": "(623) 535-1166", "website": "https://www.simonmed.com/locations", "opening_hours": "Mo 08:00-18:00; Tu 08:00-18:00; We 08:00-18:00; Th 08:00-18:00; Fr 08:00-18:00; Sa 08:00-14:00", "brand": "SimonMed"}, "geometry": {"type": "Point", "coordinates": [-112.35318, 33.4634666]}},
{"type": "Feature", "id": "KO3fSpKt4YTxeIGGsW0gEgMPzOo=", "properties": {"ref": "12", "@spider": "simonmed", "addr:full": "1425 S Greenfield Road Bldg 2, Suite 114", "addr:city": "Mesa", "addr:state": "AZ", "addr:postcode": "85206", "name": "SimonMed Imaging - Greenfield", "phone": "(480) 324-8033", "website": "https://www.simonmed.com/locations", "opening_hours": "Mo 06:30-22:00; Tu 06:30-22:00; We 06:30-22:00; Th 06:30-22:00; Fr 06:30-22:00; Sa 07:30-19:00; Su 07:30-17:00", "brand": "SimonMed"}, "geometry": {"type": "Point", "coordinates": [-111.735985, 33.3898735]}},
{"type": "Feature", "id": "A7RAAqHUH4NAvoAqFb_r4NZ3L4I=", "properties": {"ref": "13", "@spider": "simonmed", "addr:full": "14651 S Bascom Avenue Suite 120", "addr:city": "Los Gatos", "addr:state": "CA", "addr:postcode": "95032", "name": "SimonMed Imaging - Los Gatos", "phone": "(408) 356-9013", "website": "https://www.simonmed.com/locations", "opening_hours": "Mo 08:00-16:30; Tu 08:00-16:30; We 08:00-16:30; Th 08:00-16:30; Fr 08:00-16:30; Sa 08:00-13:00", "brand": "SimonMed"}, "geometry": {"type": "Point", "coordinates": [-121.950912, 37.2557831]}},
{"type": "Feature", "id": "dCu04RYIKUKyPpFml9ScnXohZF4=", "properties": {"ref": "14", "@spider": "simonmed", "addr:full": "14823 W Bell Road Suite 110", "addr:city": "Surprise", "addr:state": "AZ", "addr:postcode": "85374", "name": "SimonMed Imaging - Stadium Village", "phone": "(623) 302-7900", "website": "https://www.simonmed.com/locations", "opening_hours": "Mo 07:00-17:00; Tu 07:00-17:00; We 07:00-17:00; Th 07:00-17:00; Fr 07:00-17:00", "brand": "SimonMed"}, "geometry": {"type": "Point", "coordinates": [-112.379272, 33.637207]}},
{"type": "Feature", "id": "9JmuRLc0cbgRvNk-0U27Mi6UzdU=", "properties": {"ref": "15", "@spider": "simonmed", "addr:full": "15810 South 45th St. Suite 110", "addr:city": "Phoenix", "addr:state": "AZ", "addr:postcode": "85048", "name": "SimonMed Imaging - Ahwatukee", "phone": "(480) 753-6161", "website": "https://www.simonmed.com/locations", "opening_hours": "Mo 07:00-18:00; Tu 07:00-18:00; We 07:00-18:00; Th 07:00-18:00; Fr 07:00-18:00; Sa 08:00-16:00", "brand": "SimonMed"}, "geometry": {"type": "Point", "coordinates": [-111.987312, 33.3038559]}},
{"type": "Feature", "id": "zSRSnUzok9_6L24_HghTpixx62I=", "properties": {"ref": "16", "@spider": "simonmed", "addr:full": "1845 W. Orange Grove Road Bldg 5, Suite 105", "addr:city": "Tucson", "addr:state": "AZ", "addr:postcode": "85704", "name": "SimonMed Imaging - Orange Grove", "phone": "(520) 230-4900", "website": "https://www.simonmed.com/locations", "opening_hours": "Mo 07:00-17:00; Tu 07:00-17:00; We 07:00-17:00; Th 07:00-17:00; Fr 07:00-17:00; Sa 08:00-15:00", "brand": "SimonMed"}, "geometry": {"type": "Point", "coordinates": [-111.004921, 32.3224678]}},
{"type": "Feature", "id": "Pf-YPUXVyNhLwdjiAn8U8IwD8fc=", "properties": {"ref": "18", "@spider": "simonmed", "addr:full": "1870 W Frye Road Suite 3", "addr:city": "Chandler", "addr:state": "AZ", "addr:postcode": "85224", "name": "SimonMed Imaging - Dobson Village II", "phone": "(480) 264-2350", "website": "https://www.simonmed.com/locations", "opening_hours": "Mo 06:30-22:00; Tu 06:30-22:00; We 06:30-22:00; Th 06:30-22:00; Fr 06:30-22:00; Sa 06:30-21:00; Su 06:30-21:00", "brand": "SimonMed"}, "geometry": {"type": "Point", "coordinates": [-111.874229, 33.299057]}},
{"type": "Feature", "id": "wtc7Vc-D6-B5ipeg-urIQ1QwCcc=", "properties": {"ref": "19", "@spider": "simonmed", "addr:full": "20414 N 27th Ave. Suite 150", "addr:city": "Phoenix", "addr:state": "AZ", "addr:postcode": "85027", "name": "SimonMed Imaging - Deer Valley", "phone": "(623) 234-2520", "website": "https://www.simonmed.com/locations", "opening_hours": "Mo 07:00-17:00; Tu 07:00-17:00; We 07:00-17:00; Th 07:00-17:00; Fr 07:00-17:00; Sa 08:00-17:00", "brand": "SimonMed"}, "geometry": {"type": "Point", "coordinates": [-112.117638, 33.6719742]}},
{"type": "Feature", "id": "2XYTup17fnOw2J3_Y6wGv6evvz4=", "properties": {"ref": "20", "@spider": "simonmed", "addr:full": "208 West Oak Street ", "addr:city": "Kissimmee", "addr:state": "FL", "addr:postcode": "34741", "name": "SimonMed Imaging - Kissimmee", "phone": "(407) 846-8700", "website": "https://www.simonmed.com/locations", "opening_hours": "Mo 06:00-22:00; Tu 06:00-22:00; We 06:00-22:00; Th 06:00-22:00; Fr 06:00-22:00; Sa 08:00-18:00", "brand": "SimonMed"}, "geometry": {"type": "Point", "coordinates": [-81.40575, 28.3002911]}},
{"type": "Feature", "id": "J1FiJLRMVgsI22kAs1bqAo4xBh4=", "properties": {"ref": "21", "@spider": "simonmed", "addr:full": "20830 N. Tatum Boulevard Suite 190", "addr:city": "Phoenix", "addr:state": "AZ", "addr:postcode": "85050", "name": "SimonMed Imaging - Desert Ridge", "phone": "(480) 306-7900", "website": "https://www.simonmed.com/locations", "opening_hours": "Mo 08:00-17:00; Tu 08:00-17:00; We 08:00-17:00; Th 08:00-17:00; Fr 08:00-17:00; Sa 08:00-16:00", "brand": "SimonMed"}, "geometry": {"type": "Point", "coordinates": [-111.980476, 33.674305]}},
{"type": "Feature", "id": "ZiT9rmxS8BfdaWyXW--uLOpsoXs=", "properties": {"ref": "22", "@spider": "simonmed", "addr:full": "225 West Hospitality Lane Suite 100", "addr:city": "San Bernardino", "addr:state": "CA", "addr:postcode": "92408", "name": "SimonMed Imaging - San Bernardino", "phone": "(909) 890-5856", "website": "https://www.simonmed.com/locations", "opening_hours": "Mo 07:00-21:00; Tu 07:00-21:00; We 07:00-21:00; Th 07:00-21:00; Fr 07:00-21:00; Sa 07:00-14:00", "brand": "SimonMed"}, "geometry": {"type": "Point", "coordinates": [-117.288422, 34.06528]}},
{"type": "Feature", "id": "gp6-oy-JF67kd9nYEDIt92PZngQ=", "properties": {"ref": "23", "@spider": "simonmed", "addr:full": "235 S. Dobson Road Bldg L, Unit 1", "addr:city": "Chandler", "addr:state": "AZ", "addr:postcode": "85224", "name": "SimonMed Imaging - Dobson Village I", "phone": "(480) 264-2300", "website": "https://www.simonmed.com/locations", "opening_hours": "Mo 07:00-18:00; Tu 07:00-18:00; We 07:00-18:00; Th 07:00-18:00; Fr 07:00-18:00", "brand": "SimonMed"}, "geometry": {"type": "Point", "coordinates": [-111.875725, 33.3001862]}},
{"type": "Feature", "id": "TkCGV3mm_hYnLcCdXilADnqQZNQ=", "properties": {"ref": "24", "@spider": "simonmed", "addr:full": "2620 N. 3rd Street Suite 102 ", "addr:city": "Phoenix", "addr:state": "AZ", "addr:postcode": "85004", "name": "SimonMed Imaging - Phoenix", "phone": "(602) 234-2994", "website": "https://www.simonmed.com/locations", "opening_hours": "Mo 06:15-22:00; Tu 06:15-22:00; We 06:15-22:00; Th 06:15-22:00; Fr 06:15-22:00; Sa 06:00-21:00; Su 07:00-20:00", "brand": "SimonMed"}, "geometry": {"type": "Point", "coordinates": [-112.07193, 33.477726]}},
{"type": "Feature", "id": "gySLcAXAiQc41qiHMpRStU_Zg-E=", "properties": {"ref": "25", "@spider": "simonmed", "addr:full": "2680 S. Val Vista Drive Bldg 7, Suite 135", "addr:city": "Gilbert", "addr:state": "AZ", "addr:postcode": "85295", "name": "SimonMed Imaging - Spectrum", "phone": "(480) 584-4900", "website": "https://www.simonmed.com/locations", "opening_hours": "Mo 06:30-22:00; Tu 06:30-22:00; We 06:30-22:00; Th 06:30-22:00; Fr 06:30-22:00; Sa 07:00-17:00; Su 08:00-17:00", "brand": "SimonMed"}, "geometry": {"type": "Point", "coordinates": [-111.757011, 33.3013077]}},
{"type": "Feature", "id": "xQe81jlbNDA6YwELA_EQga7JTe4=", "properties": {"ref": "26", "@spider": "simonmed", "addr:full": "3033 N Windsong Drive Suite 102", "addr:city": "Prescott Valley", "addr:state": "AZ", "addr:postcode": "86314", "name": "SimonMed Imaging - Prescott Valley", "phone": "(928) 772-5250", "website": "https://www.simonmed.com/locations", "opening_hours": "Mo 07:00-19:00; Tu 07:00-19:00; We 06:45-19:00; Th 07:00-19:00; Fr 07:00-19:00", "brand": "SimonMed"}, "geometry": {"type": "Point", "coordinates": [-112.326416, 34.5870857]}},
{"type": "Feature", "id": "lG1Q0TDfMWTibf_o5n7W9vCjLN0=", "properties": {"ref": "27", "@spider": "simonmed", "addr:full": "310 N. Wilmot Road Suite 302", "addr:city": "Tucson", "addr:state": "AZ", "addr:postcode": "85711", "name": "SimonMed Imaging - Wilmot", "phone": "(520) 449-8001", "website": "https://www.simonmed.com/locations", "opening_hours": "Mo 08:00-18:00; Tu 08:00-18:00; We 08:00-18:00; Th 08:00-18:00; Fr 08:00-18:00; Sa 08:00-14:00", "brand": "SimonMed"}, "geometry": {"type": "Point", "coordinates": [-110.857544, 32.225235]}},
{"type": "Feature", "id": "7rp9IGAi6qQA2SewjMLN497Bt48=", "properties": {"ref": "29", "@spider": "simonmed", "addr:full": "325 Sacramento St. ", "addr:city": "San Francisco", "addr:state": "CA", "addr:postcode": "94111", "name": "SimonMed Imaging - San Francisco Sacramento St ", "phone": "(415) 321-4674", "website": "https://www.simonmed.com/locations", "opening_hours": "Mo 06:00-22:00; Tu 06:00-22:00; We 06:00-22:00; Th 06:00-22:00; Fr 06:00-22:00; Sa 07:00-15:00; Su 07:00-15:30", "brand": "SimonMed"}, "geometry": {"type": "Point", "coordinates": [-122.399406, 37.7940559]}},
{"type": "Feature", "id": "bvp__qAnxsi6H2zKc432Pqy9IgA=", "properties": {"ref": "30", "@spider": "simonmed", "addr:full": "345 Convention Way Suite D-1", "addr:city": "Redwood City", "addr:state": "CA", "addr:postcode": "94063", "name": "Simonmed Imaging - Redwood City", "phone": "(650) 306-3900", "website": "https://www.simonmed.com/locations", "opening_hours": "Mo 06:30-17:00; Tu 06:30-17:00; We 06:30-17:00; Th 06:30-17:00; Fr 06:30-17:00; Sa 07:00-15:30; Su 08:00-16:30", "brand": "SimonMed"}, "geometry": {"type": "Point", "coordinates": [-122.229118, 37.49392]}},
{"type": "Feature", "id": "F67EbRPJ1fCDhNO4nSKJe3-YQFY=", "properties": {"ref": "31", "@spider": "simonmed", "addr:full": "36297 N Gantzel Road Suite 101", "addr:city": "Queen Creek", "addr:state": "AZ", "addr:postcode": "85140", "name": "SimonMed Imaging - Queen Creek", "phone": "(480) 809-4400", "website": "https://www.simonmed.com/locations", "opening_hours": "Mo 07:15-20:00; Tu 07:15-20:00; We 07:15-20:00; Th 07:15-20:00; Fr 07:15-20:00; Sa 08:00-16:00", "brand": "SimonMed"}, "geometry": {"type": "Point", "coordinates": [-111.56485, 33.2087631]}},
{"type": "Feature", "id": "sjkrur8h1VtCPdRFVnDqTX_eF4Y=", "properties": {"ref": "33", "@spider": "simonmed", "addr:full": "4144 Redwood Highway Suite B", "addr:city": "San Rafael", "addr:state": "CA", "addr:postcode": "94903", "name": "SimonMed Imaging - San Rafael", "phone": "(415) 479-9907", "website": "https://www.simonmed.com/locations", "opening_hours": "Mo 07:00-15:30; Tu 07:00-15:30; We 07:00-15:30; Th 07:00-15:30; Fr 07:00-15:30; Sa 08:00-16:00; Su 08:00-15:45", "brand": "SimonMed"}, "geometry": {"type": "Point", "coordinates": [-122.54126, 38.0100441]}},
{"type": "Feature", "id": "zxajUx4Yf8IG-4Sd1ULF_KqDnlw=", "properties": {"ref": "34", "@spider": "simonmed", "addr:full": "455 Hickey Boulevard Suite 200", "addr:city": "Daly City", "addr:state": "CA", "addr:postcode": "94015", "name": "SimonMed Imaging - Daly City", "phone": "(650) 757-2030", "website": "https://www.simonmed.com/locations", "opening_hours": "Mo 06:00-22:00; Tu 06:00-22:00; We 06:00-22:00; Th 06:00-22:00; Fr 06:00-22:00; Sa 06:00-17:00; Su 06:00-14:00", "brand": "SimonMed"}, "geometry": {"type": "Point", "coordinates": [-122.468216, 37.6639862]}},
{"type": "Feature", "id": "Ch9X2oP0JspIEusP12bpxOTWNIM=", "properties": {"ref": "36", "@spider": "simonmed", "addr:full": "6000 Turkey Lake Road Suite 107", "addr:city": "Orlando", "addr:state": "FL", "addr:postcode": "32819", "name": "SimonMed Imaging - Sand Lake", "phone": "(407) 514-1840", "website": "https://www.simonmed.com/locations", "opening_hours": "Mo 07:00-20:00; Tu 07:00-20:00; We 07:00-20:00; Th 07:00-20:00; Fr 07:00-20:00; Sa 08:00-18:00", "brand": "SimonMed"}, "geometry": {"type": "Point", "coordinates": [-81.47501, 28.4767323]}},
{"type": "Feature", "id": "r43Ku3w7CzdyACzGDhH2rP7ZmvE=", "properties": {"ref": "38", "@spider": "simonmed", "addr:full": "665 Munras Avenue Suite 109", "addr:city": "Monterey", "addr:state": "CA", "addr:postcode": "93940", "name": "SimonMed Imaging - Monterey", "phone": "(831) 656-9800", "website": "https://www.simonmed.com/locations", "opening_hours": "Mo 07:00-18:00; Tu 07:00-18:00; We 07:00-18:00; Th 07:00-18:00; Fr 07:00-18:00; Sa 07:00-16:30", "brand": "SimonMed"}, "geometry": {"type": "Point", "coordinates": [-121.892815, 36.5957832]}},
{"type": "Feature", "id": "WXI3hwI8I0CK0fhUlfFAH2dr-IA=", "properties": {"ref": "39", "@spider": "simonmed", "addr:full": "6707 N 19th Ave Ste 101", "addr:city": "Phoenix", "addr:state": "AZ", "addr:postcode": "85015", "name": "SimonMed Imaging - 19th Avenue Women's Ctr", "phone": "(602) 688-6200", "website": "https://www.simonmed.com/locations", "opening_hours": "Mo 07:00-17:00; Tu 07:00-17:00; We 07:00-17:00; Th 07:00-17:00; Fr 07:00-17:00; Sa 08:00-14:00", "brand": "SimonMed"}, "geometry": {"type": "Point", "coordinates": [-112.099144, 33.535923]}},
{"type": "Feature", "id": "CID1pXDnZbgKb-uhofcnFSHa3gU=", "properties": {"ref": "40", "@spider": "simonmed", "addr:full": "6707 N 19th Ave. Suite 108", "addr:city": "Phoenix", "addr:state": "AZ", "addr:postcode": "85015", "name": "SimonMed Imaging - 19th Avenue ", "phone": "(602) 688-6200", "website": "https://www.simonmed.com/locations", "opening_hours": "Mo 07:00-17:00; Tu 07:00-17:00; We 07:00-17:00; Th 07:00-17:00; Fr 07:00-17:00; Sa 08:00-14:00", "brand": "SimonMed"}, "geometry": {"type": "Point", "coordinates": [-112.099144, 33.535923]}},
{"type": "Feature", "id": "ICfMoT8qb0J-flk0TaCqNJCPfRI=", "properties": {"ref": "41", "@spider": "simonmed", "addr:full": "725 S Dobson Road Suite 105", "addr:city": "Chandler", "addr:state": "AZ", "addr:postcode": "85224", "name": "SimonMed Imaging - Chandler South Campus", "phone": "(480) 812-1705", "website": "https://www.simonmed.com/locations", "opening_hours": "Mo 08:00-17:00; Tu 08:00-17:00; We 08:00-17:00; Th 08:00-17:00; Fr 08:00-17:00", "brand": "SimonMed"}, "geometry": {"type": "Point", "coordinates": [-111.875549, 33.29387]}},
{"type": "Feature", "id": "LOmfQP4lR9aKfKn_BiLOEZvsm6Y=", "properties": {"ref": "42", "@spider": "simonmed", "addr:full": "7304 E. Deer Valley Road Suite 105", "addr:city": "Scottsdale", "addr:state": "AZ", "addr:postcode": "85255", "name": "SimonMed Imaging - Thompson Peak", "phone": "(480) 264-2400", "website": "https://www.simonmed.com/locations", "opening_hours": "Mo 08:30-16:30; Tu 08:30-16:30; We 08:30-16:30; Th 08:30-16:30; Fr 08:30-16:30", "brand": "SimonMed"}, "geometry": {"type": "Point", "coordinates": [-111.922676, 33.6845131]}},
{"type": "Feature", "id": "Wywp2uFnP4wKMPBCZQY8cEWOiaA=", "properties": {"ref": "43", "@spider": "simonmed", "addr:full": "7424 Red Bug Lake Road ", "addr:city": "Oviedo", "addr:state": "FL", "addr:postcode": "32765", "name": "SimonMed Imaging - Oviedo", "phone": "(407) 971-6344", "website": "https://www.simonmed.com/locations", "opening_hours": "Mo 07:00-17:00; Tu 07:00-17:00; We 07:00-17:00; Th 07:00-17:00; Fr 07:00-17:00", "brand": "SimonMed"}, "geometry": {"type": "Point", "coordinates": [-81.24482, 28.64929]}},
{"type": "Feature", "id": "2I0CbOBihkB7yl7D2OGzos0Fvyo=", "properties": {"ref": "45", "@spider": "simonmed", "addr:full": "775 North Alafaya Trail ", "addr:city": "Orlando", "addr:state": "FL", "addr:postcode": "32828", "name": "SimonMed Imaging - Waterford Lakes", "phone": "(321) 235-8700", "website": "https://www.simonmed.com/locations", "opening_hours": "Mo 06:30-22:00; Tu 06:30-22:00; We 06:30-22:00; Th 06:30-22:00; Fr 06:30-22:00; Sa 08:00-18:00", "brand": "SimonMed"}, "geometry": {"type": "Point", "coordinates": [-81.20695, 28.55672]}},
{"type": "Feature", "id": "j9GNzQd4yD0CCpTSjjApMwWGJdo=", "properties": {"ref": "46", "@spider": "simonmed", "addr:full": "8370 Wilshire Boulevard Suite 110", "addr:city": "Beverly Hills", "addr:state": "CA", "addr:postcode": "90211", "name": "SimonMed Imaging  - Beverly Hills", "phone": "(323) 966-0000", "website": "https://www.simonmed.com/locations", "opening_hours": "Mo 06:00-20:00; Tu 06:00-20:00; We 06:00-20:00; Th 06:00-20:00; Fr 06:00-20:00; Sa 06:30-14:30", "brand": "SimonMed"}, "geometry": {"type": "Point", "coordinates": [-118.373863, 34.0642929]}},
{"type": "Feature", "id": "CilHLOLlrJDMXfw4nUl2uWT9v9A=", "properties": {"ref": "48", "@spider": "simonmed", "addr:full": "875 North Greenfield Road Suite 107", "addr:city": "Gilbert", "addr:state": "AZ", "addr:postcode": "85234", "name": "SimonMed Imaging - North Gilbert Superstition", "phone": "(480) 813-8700", "website": "https://www.simonmed.com/locations", "opening_hours": "Mo 07:00-17:00; Tu 07:00-17:00; We 07:00-17:00; Th 07:00-17:00; Fr 07:00-17:00", "brand": "SimonMed"}, "geometry": {"type": "Point", "coordinates": [-111.738113, 33.3662071]}},
{"type": "Feature", "id": "lSf_tE2XLlA3wi68NMKG8Yo41pE=", "properties": {"ref": "50", "@spider": "simonmed", "addr:full": "9403 W Thunderbird Road ", "addr:city": "Peoria", "addr:state": "AZ", "addr:postcode": "85381", "name": "SimonMed Imaging - Sun City Peoria", "phone": "(623) 234-8700", "website": "https://www.simonmed.com/locations", "opening_hours": "Mo 06:30-22:00; Tu 06:30-22:00; We 06:30-22:00; Th 06:30-22:00; Fr 06:30-22:00; Sa 07:00-19:00; Su 07:00-19:00", "brand": "SimonMed"}, "geometry": {"type": "Point", "coordinates": [-112.262222, 33.60926]}},
{"type": "Feature", "id": "PiQKEph6Spi5plmDqyGZyzos1c0=", "properties": {"ref": "53", "@spider": "simonmed", "addr:full": "5410 W. Thunderbird Road Suite 100", "addr:city": "Glendale", "addr:state": "AZ", "addr:postcode": "85306", "name": "SimonMed Imaging - Thunderbird", "phone": "(602) 682-5000", "website": "https://www.simonmed.com/locations", "opening_hours": "Mo 06:30-22:00; Tu 06:30-22:00; We 06:30-22:00; Th 06:30-22:00; Fr 06:30-22:00; Sa 06:30-22:00; Su 07:00-19:00", "brand": "SimonMed"}, "geometry": {"type": "Point", "coordinates": [-112.1759, 33.61113]}},
{"type": "Feature", "id": "M0FV8xu3kFoS_yfHte9sGNMI3nw=", "properties": {"ref": "54", "@spider": "simonmed", "addr:full": "7455 W. Washington Ave Ste 120", "addr:city": "Las Vegas", "addr:state": "NV", "addr:postcode": "89128", "name": "SimonMed Imaging - Summerlin", "phone": "(702) 433-6455", "website": "https://www.simonmed.com/locations", "opening_hours": "Mo 08:00-18:00; Tu 08:00-18:00; We 08:00-18:00; Th 08:00-18:00; Fr 08:00-18:00; Sa 07:00-21:00; Su 07:00-21:00", "brand": "SimonMed"}, "geometry": {"type": "Point", "coordinates": [-115.2531, 36.1813354]}},
{"type": "Feature", "id": "hCZz-hGdF30swCi1neGq_LLgJso=", "properties": {"ref": "55", "@spider": "simonmed", "addr:full": "3560 E. Flamingo Road Suite 100", "addr:city": "Las Vegas", "addr:state": "NV", "addr:postcode": "89121", "name": "SimonMed Imaging - Las Vegas", "phone": "(702) 433-6944", "website": "https://www.simonmed.com/locations", "opening_hours": "Mo 08:00-18:00; Tu 08:00-18:00; We 08:00-18:00; Th 08:00-18:00; Fr 08:00-20:00; Sa 08:00-17:00", "brand": "SimonMed"}, "geometry": {"type": "Point", "coordinates": [-115.097473, 36.1159325]}},
{"type": "Feature", "id": "_177-rvRQsQoYdo2DkQtRezuC1Y=", "properties": {"ref": "56", "@spider": "simonmed", "addr:full": "4640 W. Craig Rd ", "addr:city": "North Las Vegas", "addr:state": "NV", "addr:postcode": "89032", "name": "SimonMed Imaging - North Las Vegas", "phone": "(702) 433-6971", "website": "https://www.simonmed.com/locations", "opening_hours": "Mo 08:00-17:00; Tu 08:00-17:00; We 08:00-17:00; Th 08:00-17:00; Fr 08:00-17:00", "brand": "SimonMed"}, "geometry": {"type": "Point", "coordinates": [-115.205093, 36.2394333]}},
{"type": "Feature", "id": "DGSGG3xzx_6Rv711wOAQzCyLojQ=", "properties": {"ref": "57", "@spider": "simonmed", "addr:full": "6740 E Camelback Road Suite 100", "addr:city": "Scottsdale", "addr:state": "AZ", "addr:postcode": "85251", "name": "SimonMed Imaging - Fashion Square", "phone": "(480) 478-8400", "website": "https://www.simonmed.com/locations", "opening_hours": "Mo 07:00-20:00; Tu 07:00-20:00; We 07:00-20:00; Th 07:00-20:00; Fr 07:00-20:00; Sa 08:00-17:00", "brand": "SimonMed"}, "geometry": {"type": "Point", "coordinates": [-111.936356, 33.5023537]}},
{"type": "Feature", "id": "7pVASwjcxUWFeXZDfOvi2NFTVz8=", "properties": {"ref": "60", "@spider": "simonmed", "addr:full": "725 S. Dobson Rd Suite 105B", "addr:city": "Chandler", "addr:state": "AZ", "addr:postcode": "85224", "name": "SimonMed Interventional Radiology - Chandler South", "phone": "(480) 786-2850", "website": "https://www.simonmed.com/locations", "opening_hours": "Mo 08:00-19:00; Tu 08:00-19:00; We 08:00-19:00; Th 08:00-19:00; Fr 08:00-19:00", "brand": "SimonMed"}, "geometry": {"type": "Point", "coordinates": [-111.875549, 33.29387]}},
{"type": "Feature", "id": "mAINWxuR99n6tTPpBJRmktOwmMQ=", "properties": {"ref": "63", "@spider": "simonmed", "addr:full": "4219 E. Bell Rd ", "addr:city": "Phoenix", "addr:state": "AZ", "addr:postcode": "85032", "name": "SimonMed Imaging - Paradise Valley", "phone": "(480) 584-5525", "website": "https://www.simonmed.com/locations", "opening_hours": "Mo 07:00-20:00; Tu 07:00-20:00; We 07:00-20:00; Th 07:00-20:00; Fr 07:00-20:00", "brand": "SimonMed"}, "geometry": {"type": "Point", "coordinates": [-111.989838, 33.6402626]}},
{"type": "Feature", "id": "e7ndUNpO_1KXZ4ootXn2k5UOv_8=", "properties": {"ref": "64", "@spider": "simonmed", "addr:full": "2080 W. Southern Ave Bldg C", "addr:city": "Apache Junction", "addr:state": "AZ", "addr:postcode": "85120", "name": "SimonMed Imaging - Apache Junction", "phone": "(480) 474-5960", "website": "https://www.simonmed.com/locations", "opening_hours": "Mo 08:00-17:00; Tu 08:00-17:00; We 08:00-17:00; Th 08:00-17:00; Fr 08:00-17:00", "brand": "SimonMed"}, "geometry": {"type": "Point", "coordinates": [-111.567841, 33.3936653]}},
{"type": "Feature", "id": "bcQsmVFel9vJr8aPH0zHKvMRLm0=", "properties": {"ref": "65", "@spider": "simonmed", "addr:full": "2502 E. Camelback Rd Suite 160", "addr:city": "Phoenix", "addr:state": "AZ", "addr:postcode": "85016", "name": "SimonMed Imaging - Biltmore", "phone": "(480) 428-5980", "website": "https://www.simonmed.com/locations", "opening_hours": "Mo 07:00-20:00; Tu 07:00-20:00; We 07:00-20:00; Th 07:00-20:00; Fr 07:00-20:00; Sa 08:30-17:00", "brand": "SimonMed"}, "geometry": {"type": "Point", "coordinates": [-112.028725, 33.5104446]}},
{"type": "Feature", "id": "QyMs_QpZXbSjc0KchfM_nPXqyzU=", "properties": {"ref": "66", "@spider": "simonmed", "addr:full": "10440 E. Riggs Rd. Suite 120", "addr:city": "Chandler", "addr:state": "AZ", "addr:postcode": "85248", "name": "SimonMed Imaging - Sun Lakes", "phone": "(480) 883-6860", "website": "https://www.simonmed.com/locations", "opening_hours": "Mo 07:15-17:00; Tu 07:15-17:00; We 07:15-17:00; Th 07:15-17:00; Fr 07:15-17:00", "brand": "SimonMed"}, "geometry": {"type": "Point", "coordinates": [-111.821907, 33.21886]}},
{"type": "Feature", "id": "0Qhi0bQyrqoc-WYYKRK7S1koHXc=", "properties": {"ref": "67", "@spider": "simonmed", "addr:full": "6301 Mountain Vista St Ste 103", "addr:city": "Henderson", "addr:state": "NV", "addr:postcode": "89014", "name": "SimonMed Imaging - Henderson", "phone": "(702) 433-7216", "website": "https://www.simonmed.com/locations", "opening_hours": "Mo 08:30-17:00; Tu 08:30-17:00; We 08:30-17:00; Th 08:30-17:00; Fr 08:30-17:00; Sa 08:00-16:00", "brand": "SimonMed"}, "geometry": {"type": "Point", "coordinates": [-115.073936, 36.0750427]}},
{"type": "Feature", "id": "EWSCQ_TmUHfogUEUuQQEpMFVszY=", "properties": {"ref": "68", "@spider": "simonmed", "addr:full": "9201 E. Mountain View Road Suite 100", "addr:city": "Scottsdale", "addr:state": "AZ", "addr:postcode": "85258", "name": "SimonMed Imaging - Scottsdale Mountain View Women's Center", "phone": "(480) 614-8555", "website": "https://www.simonmed.com/locations", "opening_hours": "Mo 07:00-17:00; Tu 07:00-17:00; We 07:00-17:00; Th 07:00-17:00; Fr 07:00-17:00", "brand": "SimonMed"}, "geometry": {"type": "Point", "coordinates": [-111.88063, 33.57606]}},
{"type": "Feature", "id": "rZ2a35yi6Hdq9kYi_1rf331qt9Q=", "properties": {"ref": "69", "@spider": "simonmed", "addr:full": "9201 E. Mountain View Road Suite 137", "addr:city": "Scottsdale", "addr:state": "AZ", "addr:postcode": "85258", "name": "SimonMed Imaging - Mountain View (AZ)", "phone": "(480) 614-8555", "website": "https://www.simonmed.com/locations", "opening_hours": "Mo 06:00-20:00; Tu 06:00-20:00; We 06:00-20:00; Th 06:00-20:00; Fr 06:00-20:00; Sa 06:00-17:00; Su 06:00-14:00", "brand": "SimonMed"}, "geometry": {"type": "Point", "coordinates": [-111.880615, 33.57556]}},
{"type": "Feature", "id": "l0WrDfcAVs3U-K4zAksR_WFVIWs=", "properties": {"ref": "70", "@spider": "simonmed", "addr:full": "6320 W. Union Hills Dr Bldg A, Ste 120", "addr:city": "Glendale", "addr:state": "AZ", "addr:postcode": "85308", "name": "SimonMed Imaging - Arrowhead", "phone": "(602) 535-2840", "website": "https://www.simonmed.com/locations", "opening_hours": "Mo 06:30-22:00; Tu 06:30-22:00; We 06:30-22:00; Th 06:30-22:00; Fr 06:30-22:00; Sa 08:00-16:00; Su 08:00-17:00", "brand": "SimonMed"}, "geometry": {"type": "Point", "coordinates": [-112.1982, 33.655]}},
{"type": "Feature", "id": "pt89sHUIvjsZ0fKiYu8JKWO1H1M=", "properties": {"ref": "72", "@spider": "simonmed", "addr:full": "225 W. State Rd. 434 Ste 104", "addr:city": "Longwood", "addr:state": "FL", "addr:postcode": "32750", "name": "SimonMed Imaging - Longwood", "phone": "(407) 304-1000", "website": "https://www.simonmed.com/locations", "opening_hours": "Mo 08:00-17:00; Tu 08:00-17:00; We 08:00-17:00; Th 08:00-17:00; Fr 08:00-17:00", "brand": "SimonMed"}, "geometry": {"type": "Point", "coordinates": [-81.3497849, 28.6983452]}},
{"type": "Feature", "id": "B8sgDV86K5Sr_DBaovhfpiooPcI=", "properties": {"ref": "73", "@spider": "simonmed", "addr:full": "1425 S Greenfield Road Bldg 2, Suite 112", "addr:city": "Mesa", "addr:state": "AZ", "addr:postcode": "85206", "name": "SimonMed Imaging - Greenfield Women's Center", "phone": "(480) 809-4340", "website": "https://www.simonmed.com/locations", "opening_hours": "Mo 08:00-16:30; Tu 08:00-16:30; We 08:00-16:30; Th 08:00-16:30; Fr 08:00-16:30; Sa 08:00-13:00", "brand": "SimonMed"}, "geometry": {"type": "Point", "coordinates": [-111.735985, 33.3898735]}},
{"type": "Feature", "id": "trOcToGUHC8Tk8N_lbhQN5s_SmY=", "properties": {"ref": "75", "@spider": "simonmed", "addr:full": "3201 W. Peoria Ave #B402", "addr:city": "Phoenix", "addr:state": "AZ", "addr:postcode": "85029", "name": "SimonMed Imaging - Metro II", "phone": "(602) 688-6120", "website": "https://www.simonmed.com/locations", "opening_hours": "Mo 08:30-17:00; Tu 08:30-17:00; We 08:30-17:00; Th 08:30-17:00; Fr 08:30-17:00", "brand": "SimonMed"}, "geometry": {"type": "Point", "coordinates": [-112.12867, 33.5811348]}},
{"type": "Feature", "id": "Cq1HkfTfH_I5fGJrppBj7Vj6v9g=", "properties": {"ref": "76", "@spider": "simonmed", "addr:full": "790 Gail Gardner way ", "addr:city": "Prescott", "addr:state": "AZ", "addr:postcode": "86305", "name": "SimonMed Imaging - Prescott", "phone": "(928) 776-9900", "website": "https://www.simonmed.com/locations", "opening_hours": "Mo 08:30-17:00; Tu 08:30-17:00; We 08:30-17:00; Th 08:30-17:00; Fr 08:30-17:00; Sa 08:00-16:00", "brand": "SimonMed"}, "geometry": {"type": "Point", "coordinates": [-112.487213, 34.5554962]}},
{"type": "Feature", "id": "Wx-IUook_Joc_N_7FVIrzagTFhE=", "properties": {"ref": "77", "@spider": "simonmed", "addr:full": "1690 Barton Rd. Suite # 108", "addr:city": "Redlands", "addr:state": "CA", "addr:postcode": "92373", "name": "SimonMed Imaging - Redlands", "phone": "(909) 806-7025", "website": "https://www.simonmed.com/locations", "opening_hours": "Mo 08:00-19:00; Tu 08:00-17:00; We 08:00-19:00; Th 08:00-17:00; Fr 08:00-17:00; Sa 08:00-14:00", "brand": "SimonMed"}, "geometry": {"type": "Point", "coordinates": [-117.212723, 34.04865]}},
{"type": "Feature", "id": "tJgxmuVKNNAqEWhRkEGiyqrFf5k=", "properties": {"ref": "78", "@spider": "simonmed", "addr:full": "1313 W. Saint Mary's Rd ", "addr:city": "Tucson ", "addr:state": "AZ", "addr:postcode": "85745", "name": "SimonMed Imaging - Saint Mary's", "phone": "(520) 449-8115", "website": "https://www.simonmed.com/locations", "opening_hours": "Mo 08:30-17:00; Tu 08:30-17:00; We 08:30-17:00; Th 08:30-17:00; Fr 08:30-17:00", "brand": "SimonMed"}, "geometry": {"type": "Point", "coordinates": [-110.992775, 32.2288857]}},
{"type": "Feature", "id": "OBKJcXcdVp09FkM3iT5ztjPLm8Q=", "properties": {"ref": "79", "@spider": "simonmed", "addr:full": "3061 S Maryland Parkway Ste 102", "addr:city": "Las Vegas", "addr:state": "NV", "addr:postcode": "89109", "name": "SimonMed Imaging - Maryland", "phone": "(702) 369-4570", "website": "https://www.simonmed.com/locations", "opening_hours": "Mo 08:00-17:00; Tu 08:00-17:00; We 08:00-17:00; Th 08:00-17:00; Fr 08:00-17:00; Sa 13:00-14:00", "brand": "SimonMed"}, "geometry": {"type": "Point", "coordinates": [-115.136932, 36.141983]}},
{"type": "Feature", "id": "pFLPIhyVYYOITyDDSAyEPCuH71A=", "properties": {"ref": "80", "@spider": "simonmed", "addr:full": "9201 E. Mountain View Rd Ste 112", "addr:city": "Scottsdale", "addr:state": "AZ", "addr:postcode": "85258", "name": "SimonMed Interventional Radiology - Mountain View", "phone": "(480) 584-6800", "website": "https://www.simonmed.com/locations", "opening_hours": "Mo 08:00-19:00; Tu 08:00-19:00; We 08:00-19:00; Th 08:00-17:00; Fr 08:00-19:00; Sa 08:00-19:00", "brand": "SimonMed"}, "geometry": {"type": "Point", "coordinates": [-111.880615, 33.57556]}},
{"type": "Feature", "id": "tAIHP_FByZ46M0Xch-3lptsnjfA=", "properties": {"ref": "82", "@spider": "simonmed", "addr:full": "155 N. San Vicente Blvd 1st Floor", "addr:city": "Beverly Hills", "addr:state": "CA", "addr:postcode": "90211", "name": "SimonMed Imaging - San Vicente", "phone": "(323) 433-7800", "website": "https://www.simonmed.com/locations", "opening_hours": "Mo 08:00-16:30; Tu 08:00-16:30; We 08:00-16:30; Th 08:00-16:30; Fr 08:00-16:30", "brand": "SimonMed"}, "geometry": {"type": "Point", "coordinates": [-118.375114, 34.0684]}},
{"type": "Feature", "id": "R1EyKVq20AEzPPR0nm9Zyz2RXsY=", "properties": {"ref": "83", "@spider": "simonmed", "addr:full": "818 S. Watson Rd. Suite # 102", "addr:city": "Buckeye", "addr:state": "AZ", "addr:postcode": "85326", "name": "SimonMed Imaging - Buckeye", "phone": "(623) 302-9080", "website": "https://www.simonmed.com/locations", "opening_hours": "Mo 08:30-17:00; Tu 08:30-17:00; We 08:30-17:00; Th 08:30-17:00; Fr 08:30-17:00; Sa 08:00-16:00", "brand": "SimonMed"}, "geometry": {"type": "Point", "coordinates": [-112.557426, 33.4394455]}},
{"type": "Feature", "id": "LiLpMwQmd4kYrtDau4drKzEuj88=", "properties": {"ref": "84", "@spider": "simonmed", "addr:full": "10125 W. Colonial Dr. Suite # 114", "addr:city": "Ocoee", "addr:state": "FL", "addr:postcode": "34761", "name": "SimonMed Imaging - Ocoee II", "phone": "(407) 531-7100", "website": "https://www.simonmed.com/locations", "opening_hours": "Mo 07:00-20:00; Tu 07:00-20:00; We 07:00-20:00; Th 07:00-20:00; Fr 07:00-20:00; Sa 08:00-16:00", "brand": "SimonMed"}, "geometry": {"type": "Point", "coordinates": [-81.3497849, 28.6983452]}},
{"type": "Feature", "id": "n7_fGAVkOdl6S0kAqYug_EUSEb4=", "properties": {"ref": "86", "@spider": "simonmed", "addr:full": "3618 W. Anthem Way Suite D 104", "addr:city": "Anthem", "addr:state": "AZ", "addr:postcode": "85086", "name": "SimonMed Imaging - Anthem", "phone": "(623) 879-3740", "website": "https://www.simonmed.com/locations", "opening_hours": "Mo 08:15-17:00; Tu 08:30-17:00; We 08:15-17:00; Th 08:15-17:00; Fr 08:15-17:00", "brand": "SimonMed"}, "geometry": {"type": "Point", "coordinates": [-112.137192, 33.867115]}},
{"type": "Feature", "id": "tnSHrRcZhMSfc0HbANPOXx-BCEM=", "properties": {"ref": "87", "@spider": "simonmed", "addr:full": "1664 E. Florence Blvd. Suite #18", "addr:city": "Casa Grande", "addr:state": "AZ", "addr:postcode": "85222", "name": "SimonMed Imaging - Casa Grande", "phone": "(520) 421-4875", "website": "https://www.simonmed.com/locations", "opening_hours": "Mo 07:00-17:30; Tu 07:00-17:30; We 07:00-17:30; Th 07:00-17:30; Fr 07:00-17:30; Sa 08:00-17:00; Su 08:00-15:00", "brand": "SimonMed"}, "geometry": {"type": "Point", "coordinates": [-111.715584, 32.88022]}},
{"type": "Feature", "id": "OWdKoQVYpBCaJlbHZS42Z2r-lXI=", "properties": {"ref": "89", "@spider": "simonmed", "addr:full": "11960 Lioness Way Suite 140", "addr:city": "Parker", "addr:state": "CO", "addr:postcode": "80134", "name": "SimonMed Imaging - Parker", "phone": "(303) 643-0200", "website": "https://www.simonmed.com/locations", "opening_hours": "Mo 07:45-17:00; Tu 07:45-17:00; We 07:45-17:00; Th 07:45-17:00; Fr 07:45-17:00", "brand": "SimonMed"}, "geometry": {"type": "Point", "coordinates": [-104.850616, 39.5347137]}},
{"type": "Feature", "id": "tgXjoalzYRJ1l9ga5VVwrFs3uZg=", "properties": {"ref": "90", "@spider": "simonmed", "addr:full": "7610 Cheyenne Blvd Suite #100", "addr:city": "Las Vegas", "addr:state": "NV", "addr:postcode": "89129", "name": "SimonMed Imaging - Northwest", "phone": "(702) 665-5195", "website": "https://www.simonmed.com/locations", "opening_hours": "Mo 07:45-17:00; Tu 07:45-17:00; We 07:45-17:00; Th 07:45-17:00; Fr 07:45-17:00; Sa 08:00-17:00", "brand": "SimonMed"}, "geometry": {"type": "Point", "coordinates": [-115.2613, 36.2186127]}},
{"type": "Feature", "id": "aojgHS0utUgHgJIGRDUX_LTbQZY=", "properties": {"ref": "91", "@spider": "simonmed", "addr:full": "265 Citrus Tower Blvd., # 100 ", "addr:city": "Clermont", "addr:state": "FL", "addr:postcode": "34711", "name": "SimonMed Florida Clermont", "phone": "(352) 241-7440", "website": "https://www.simonmed.com/locations", "opening_hours": "Mo 07:00-17:30; Tu 07:00-17:30; We 07:00-17:30; Th 07:00-17:30; Fr 07:00-17:30", "brand": "SimonMed"}, "geometry": {"type": "Point", "coordinates": [-81.74114, 28.5634823]}},
{"type": "Feature", "id": "B2f0lmUBL9LX9_rUMgnc46btBGI=", "properties": {"ref": "92", "@spider": "simonmed", "addr:full": "8921 W. Thomas Rd. Ste 101", "addr:city": "Phoenix", "addr:state": "AZ", "addr:postcode": "85037", "name": "SimonMed Imaging - Estrella", "phone": "(602) 601-4000", "website": "https://www.simonmed.com/locations", "opening_hours": "Mo 06:00-22:00; Tu 06:00-22:00; We 06:00-22:00; Th 06:00-22:00; Fr 06:00-22:00; Sa 07:00-20:00; Su 07:00-19:00", "brand": "SimonMed"}, "geometry": {"type": "Point", "coordinates": [-112.253586, 33.47849]}},
{"type": "Feature", "id": "ou-RxS9tk9Rx7ArYbVMd1w7SscY=", "properties": {"ref": "93", "@spider": "simonmed", "addr:full": "4051 Upper Creek Dr, Suite 103A ", "addr:city": "Sun City", "addr:state": "FL", "addr:postcode": "33573", "name": "SimonMed Imaging - Sun City  ", "phone": "(813) 634-0010", "website": "https://www.simonmed.com/locations", "opening_hours": "Mo 08:00-17:00; Tu 08:00-17:00; We 08:00-17:00; Th 08:00-17:00; Fr 08:00-17:00", "brand": "SimonMed"}, "geometry": {"type": "Point", "coordinates": [-82.36698, 27.7128773]}},
{"type": "Feature", "id": "K_lgwTCGqZ6COL4i7o6dw0aokbM=", "properties": {"ref": "94", "@spider": "simonmed", "addr:full": "14302 Bruce B Downs Blvd ", "addr:city": "Tampa", "addr:state": "FL", "addr:postcode": "33613", "name": "SimonMed Imaging - Tampa", "phone": "(813) 979-7580", "website": "https://www.simonmed.com/locations", "opening_hours": "Mo 08:00-17:00; Tu 08:00-17:00; We 08:00-17:00; Th 08:00-17:00; Fr 08:00-17:00", "brand": "SimonMed"}, "geometry": {"type": "Point", "coordinates": [-82.42689, 28.07691]}},
{"type": "Feature", "id": "p9Kr8AZy5fDFRMNLvkcpnK00gx8=", "properties": {"ref": "95", "@spider": "simonmed", "addr:full": "3570 S. Val Vista Drive Suite 101", "addr:city": "Gilbert", "addr:state": "AZ", "addr:postcode": "85297", "name": "SimonMed Imaging - Copperpoint", "phone": "(480) 534-8835", "website": "https://www.simonmed.com/locations", "opening_hours": "Mo 08:00-17:00; Tu 08:00-17:00; We 08:00-17:00; Th 08:00-17:00; Fr 08:00-17:00; Sa 08:00-14:00", "brand": "SimonMed"}, "geometry": {"type": "Point", "coordinates": [-111.755936, 33.285553]}},
{"type": "Feature", "id": "TB7s34W81RpVBp4FhJdZ4tL_US8=", "properties": {"ref": "96", "@spider": "simonmed", "addr:full": "917 Rinehart Road Suite 1051", "addr:city": "Lake Mary", "addr:state": "FL", "addr:postcode": "32746", "name": "SimonMed Florida Lake Mary II", "phone": "(407) 708-0475", "website": "https://www.simonmed.com/locations", "opening_hours": "Mo 08:00-18:00; Tu 08:00-18:00; We 08:00-18:00; Th 08:00-18:00; Fr 08:00-18:00", "brand": "SimonMed"}, "geometry": {"type": "Point", "coordinates": [-81.3471451, 28.7836647]}},
{"type": "Feature", "id": "4PHISl4YrEGPRbsfpz8IS9oZ5lk=", "properties": {"ref": "98", "@spider": "simonmed", "addr:full": "2620 N. 3rd Street Suite 101", "addr:city": "Phoenix", "addr:state": "AZ", "addr:postcode": "85004", "name": "SimonMed INC Phoenix", "phone": "(602) 234-2994", "website": "https://www.simonmed.com/locations", "opening_hours": "Mo 06:45-16:00; Tu 06:45-16:00; We 06:45-15:30; Th 06:45-16:00; Fr 06:45-17:30; Sa 08:00-16:00", "brand": "SimonMed"}, "geometry": {"type": "Point", "coordinates": [-112.07193, 33.477726]}},
{"type": "Feature", "id": "IkKkM8XDJZrk-m9lydUTYexWYCQ=", "properties": {"ref": "101", "@spider": "simonmed", "addr:full": "3201 W. Peoria Ave #B301", "addr:city": "Phoenix", "addr:state": "AZ", "addr:postcode": "85029", "name": "SimonMed Imaging Metro I", "phone": "(602) 688-6120", "website": "https://www.simonmed.com/locations", "opening_hours": "Mo 08:30-17:00; Tu 08:30-17:00; We 08:30-17:00; Th 08:30-17:00; Fr 08:30-17:00", "brand": "SimonMed"}, "geometry": {"type": "Point", "coordinates": [-112.12867, 33.5811348]}},
{"type": "Feature", "id": "DIVM_BIbxAlmOW9ddBP4PFvVicU=", "properties": {"ref": "103", "@spider": "simonmed", "addr:full": "2620 N. 3rd St. Suite 105", "addr:city": "Phoenix", "addr:state": "AZ", "addr:postcode": "85004", "name": "SimonMed Phoenix Biopsy Center", "phone": "(623) 302-7950", "website": "https://www.simonmed.com/locations", "opening_hours": "Mo 08:00-17:00; Tu 08:00-17:00; We 08:00-17:00; Th 08:00-17:00; Fr 08:00-17:00; Sa 08:00-16:00", "brand": "SimonMed"}, "geometry": {"type": "Point", "coordinates": [-112.07193, 33.477726]}},
{"type": "Feature", "id": "V73HIqx2z1j6s9omEIpVdT23Mm8=", "properties": {"ref": "119", "@spider": "simonmed", "addr:full": "2141 E. Camelback Rd. 110", "addr:city": "Phoenix", "addr:state": "AZ", "addr:postcode": "85016", "name": "SimonMed Imaging \u2013 Camelback", "phone": "(602) 954-0954", "website": "https://www.simonmed.com/locations", "opening_hours": "Mo 08:30-17:00; Tu 08:30-17:00; We 08:30-17:00; Th 08:30-17:00; Fr 08:30-17:00", "brand": "SimonMed"}, "geometry": {"type": "Point", "coordinates": [-112.03511, 33.50888]}},
{"type": "Feature", "id": "AvmrF8Qc28JH1lpNRXf5LFLwDRw=", "properties": {"ref": "120", "@spider": "simonmed", "addr:full": "5620 W. Thunderbird Rd #A", "addr:city": "Glendale", "addr:state": "AZ", "addr:postcode": "85306", "name": "SimonMed Imaging \u2013 Fountains", "phone": "(602) 863-9729", "website": "https://www.simonmed.com/locations", "opening_hours": "Mo 08:00-17:00; Tu 08:00-17:00; We 08:00-17:00; Th 08:00-17:00; Fr 08:00-17:00; Sa 08:00-16:00; Su 08:00-17:00", "brand": "SimonMed"}, "geometry": {"type": "Point", "coordinates": [-112.180321, 33.6120453]}},
{"type": "Feature", "id": "63-ZMZwT3AWiRyoKl-3IIKntcvE=", "properties": {"ref": "121", "@spider": "simonmed", "addr:full": "9139 W. Thunderbird Rd. #112", "addr:city": "Peoria", "addr:state": "AZ", "addr:postcode": "85381", "name": "SimonMed Imaging \u2013 Peoria Plaza", "phone": "(623) 875-1637", "website": "https://www.simonmed.com/locations", "opening_hours": "Mo 06:00-19:00; Tu 06:00-19:00; We 06:00-19:00; Th 06:00-19:00; Fr 06:00-19:00; Sa 06:00-19:00; Su 08:00-16:00", "brand": "SimonMed"}, "geometry": {"type": "Point", "coordinates": [-112.25563, 33.6081]}},
{"type": "Feature", "id": "a6Lf7gRD2-rNyrGrfVZSTKNNuFI=", "properties": {"ref": "122", "@spider": "simonmed", "addr:full": "875 Cypress Parkway, Poinciana ", "addr:city": "Poinciana", "addr:state": "FL", "addr:postcode": "34759", "name": "SimonMed Florida Poinciana", "phone": "(407) 944-2220", "website": "https://www.simonmed.com/locations", "opening_hours": "Mo 08:00-17:00; Tu 08:00-17:00; We 08:00-17:00; Th 08:00-17:00; Fr 08:00-17:00; Sa 08:00-14:00", "brand": "SimonMed"}, "geometry": {"type": "Point", "coordinates": [-81.4502, 28.1483383]}},
{"type": "Feature", "id": "buisYaqwB3nb_UDKcMiKl305caA=", "properties": {"ref": "123", "@spider": "simonmed", "addr:full": "7540 Oso Blanca Rd Ste 140", "addr:city": "Las Vegas", "addr:state": "NV", "addr:postcode": "89149", "name": "SimonMed Imaging \u2013 Centennial", "phone": "(702) 658-4300", "website": "https://www.simonmed.com/locations", "opening_hours": "Mo 08:00-17:00; Tu 08:00-17:00; We 08:00-17:00; Th 08:00-17:00; Fr 08:00-17:00", "brand": "SimonMed"}, "geometry": {"type": "Point", "coordinates": [-115.288483, 36.2967453]}},
{"type": "Feature", "id": "rghGK6-liwACVudWzXIRqxcv6uU=", "properties": {"ref": "126", "@spider": "simonmed", "addr:full": "24022 Calle de la Plata suite 100 ", "addr:city": "Laguna Hills", "addr:state": "CA", "addr:postcode": "92653", "name": "SimonMed Imaging \u2013 Laguna Hills", "phone": "(949) 330-8996", "website": "https://www.simonmed.com/locations", "opening_hours": "Mo 08:00-16:30; Tu 08:00-16:30; We 08:00-16:30; Th 08:00-16:30; Fr 08:00-16:30", "brand": "SimonMed"}, "geometry": {"type": "Point", "coordinates": [-117.710854, 33.61023]}},
{"type": "Feature", "id": "KM00Bh_at5Aq2CoImmoZLePJp9s=", "properties": {"ref": "128", "@spider": "simonmed", "addr:full": "211 N. 1st St. ", "addr:city": "Leesburg", "addr:state": "FL", "addr:postcode": "34748", "name": "Simonmed Imaging Leesburg", "phone": "(352) 435-0111", "website": "https://www.simonmed.com/locations", "opening_hours": "Mo 08:00-17:00; Tu 08:00-17:00; We 08:00-17:00; Th 08:00-17:00; Fr 08:00-17:00", "brand": "SimonMed"}, "geometry": {"type": "Point", "coordinates": [-81.87583, 28.812067]}},
{"type": "Feature", "id": "txOhTXUNGfoZbftIXiZETF58nso=", "properties": {"ref": "129", "@spider": "simonmed", "addr:full": "13940 N. US 441, Suite 201 ", "addr:city": "The Villages", "addr:state": "FL", "addr:postcode": "32159", "name": "Simonmed Imaging The Villages", "phone": "(352) 750-1551", "website": "https://www.simonmed.com/locations", "opening_hours": "Mo 08:00-17:00; Tu 08:00-17:00; We 08:00-17:00; Th 08:00-17:00; Fr 08:00-17:00", "brand": "SimonMed"}, "geometry": {"type": "Point", "coordinates": [-81.9649658, 28.9590416]}},
{"type": "Feature", "id": "UVNO2oQHxdRt-HiVWgF2u8FrcK0=", "properties": {"ref": "131", "@spider": "simonmed", "addr:full": "1110 E. Missouri Ave. Suite 410", "addr:city": "Phoenix", "addr:state": "AZ", "addr:postcode": "85014", "name": "SimonMed Imaging - Stand Up Open MRI", "phone": "(602) 749-8601", "website": "https://www.simonmed.com/locations", "opening_hours": "Mo 07:00-17:00; Tu 07:00-17:00; We 07:00-17:00; Th 07:00-17:00; Fr 07:00-17:00", "brand": "SimonMed"}, "geometry": {"type": "Point", "coordinates": [-112.058319, 33.51699]}},
{"type": "Feature", "id": "u30WaHMCEBrBlhEbJqVnxyDWeUY=", "properties": {"ref": "132", "@spider": "simonmed", "addr:full": "1760 E. Pecos Rd. Suite 101", "addr:city": "Gilbert", "addr:state": "AZ", "addr:postcode": "85295", "name": "SimonMed Imaging - Rome Towers", "phone": "(480) 855-8060", "website": "https://www.simonmed.com/locations", "opening_hours": "Mo 08:00-18:00; Tu 08:00-18:00; We 08:00-18:00; Th 08:00-18:00; Fr 08:00-18:00; Sa 08:00-14:00", "brand": "SimonMed"}, "geometry": {"type": "Point", "coordinates": [-111.752365, 33.2964325]}},
{"type": "Feature", "id": "TyC_2AuUDGpdQJrkVHPBsGZlvPo=", "properties": {"ref": "133", "@spider": "simonmed", "addr:full": "2830 N. 3rd St. ", "addr:city": "Phoenix", "addr:state": "AZ", "addr:postcode": "85004", "name": "SimonMed Imaging - Thomas", "phone": "(602) 200-1750", "website": "https://www.simonmed.com/locations", "opening_hours": "Mo 08:30-17:00; Tu 08:30-17:00; We 08:30-17:00; Th 08:30-17:00; Fr 08:30-17:00", "brand": "SimonMed"}, "geometry": {"type": "Point", "coordinates": [-112.069832, 33.4799957]}},
{"type": "Feature", "id": "KcI3j-h3FDFCVCGRUj82mO_pTBU=", "properties": {"ref": "134", "@spider": "simonmed", "addr:full": "4045 East Bell Rd. Suite #143", "addr:city": "Phoenix", "addr:state": "AZ", "addr:postcode": "85032", "name": "SimonMed Imaging - East Bell", "phone": "(602) 867-5780", "website": "https://www.simonmed.com/locations", "opening_hours": "Mo 08:00-17:00; Tu 08:00-17:00; We 08:00-17:00; Th 08:00-17:00; Fr 08:00-17:00; Sa 07:00-17:00", "brand": "SimonMed"}, "geometry": {"type": "Point", "coordinates": [-111.994682, 33.63961]}},
{"type": "Feature", "id": "6J4m89-HV8biA325JI6-hCXTntU=", "properties": {"ref": "138", "@spider": "simonmed", "addr:full": "1345 E. McKellips Suite 106 ", "addr:city": "Mesa", "addr:state": "AZ", "addr:postcode": "85203", "name": "SimonMed Imaging \u2013 Mesa McKellips", "phone": "(480) 265-8101", "website": "https://www.simonmed.com/locations", "opening_hours": "Mo 08:00-17:00; Tu 08:30-17:00; We 08:00-17:00; Th 08:30-17:00; Fr 08:00-17:00", "brand": "SimonMed"}, "geometry": {"type": "Point", "coordinates": [-111.802177, 33.45108]}},
{"type": "Feature", "id": "AIlr5m4zN_RsQCAQWF64HtqtJ30=", "properties": {"ref": "139", "@spider": "simonmed", "addr:full": "939 N. Broadway ", "addr:city": "Denver", "addr:state": "CO", "addr:postcode": "80203", "name": "SimonMed Imaging - Broadway", "phone": "(303) 633-1280", "website": "https://www.simonmed.com/locations", "opening_hours": "Mo 08:30-17:00; Tu 08:30-17:00; We 08:30-17:00; Th 08:30-17:00; Fr 08:30-17:00", "brand": "SimonMed"}, "geometry": {"type": "Point", "coordinates": [-104.987617, 39.7311554]}},
{"type": "Feature", "id": "2-3U6JnVD_PKt6tivcHYdg1fi4g=", "properties": {"ref": "141", "@spider": "simonmed", "addr:full": "14251 E. Fremont Ave. ", "addr:city": "Centennial", "addr:state": "CO", "addr:postcode": "80112", "name": "SimonMed Imaging - Centennial", "phone": "(720) 886-9420", "website": "https://www.simonmed.com/locations", "opening_hours": "Mo 08:30-17:00; Tu 08:30-17:00; We 08:30-17:00; Th 08:30-17:00; Fr 08:30-17:00", "brand": "SimonMed"}, "geometry": {"type": "Point", "coordinates": [-104.823509, 39.58485]}},
{"type": "Feature", "id": "OkIhRttj1TdDLZk-vRMESYmFzSg=", "properties": {"ref": "142", "@spider": "simonmed", "addr:full": "11375 S. Sam Houston Parkway W.  Suite 150", "addr:city": "Houston", "addr:state": "TX", "addr:postcode": "77031", "name": "SimonMed Imaging - Beltway", "phone": "(346) 335-8555", "website": "https://www.simonmed.com/locations", "opening_hours": "Mo 08:30-17:00; Tu 08:30-17:00; We 08:30-17:00; Th 08:30-17:00; Fr 08:30-17:00", "brand": "SimonMed"}, "geometry": {"type": "Point", "coordinates": [-95.54442, 29.6474972]}},
{"type": "Feature", "id": "jDa9lLOW1DqL_BzJ4Hp6B6RVGJ4=", "properties": {"ref": "143", "@spider": "simonmed", "addr:full": "2256 W. Holcombe Blvd ", "addr:city": "Houston", "addr:state": "TX", "addr:postcode": "77030", "name": "SimonMed Imaging \u2013 Med Center", "phone": "(346) 335-8512", "website": "https://www.simonmed.com/locations", "opening_hours": "Mo 08:30-17:00; Tu 08:30-17:00; We 08:30-17:00; Th 08:30-17:00; Fr 08:30-17:00", "brand": "SimonMed"}, "geometry": {"type": "Point", "coordinates": [-95.41165, 29.7065773]}},
{"type": "Feature", "id": "zgXLPh99bHxuxgIj1VYuiq5Cm7U=", "properties": {"ref": "144", "@spider": "simonmed", "addr:full": "745 Orienta Ave Suite 1161", "addr:city": "Altamonte Springs", "addr:state": "FL", "addr:postcode": "32701", "name": "SimonMed Florida Altamonte Springs III", "phone": "(321) 207-4474", "website": "https://www.simonmed.com/locations", "opening_hours": "Mo 07:00-17:30; Tu 07:00-17:30; We 07:30-17:30; Th 07:00-17:30; Fr 07:00-17:30; Sa 08:00-16:00", "brand": "SimonMed"}, "geometry": {"type": "Point", "coordinates": [-81.36357, 28.661478]}},
{"type": "Feature", "id": "zjsR2SzqC0GoINQL9EiQV1ObrkA=", "properties": {"ref": "145", "@spider": "simonmed", "addr:full": "5424 E. Southern Ave. Suite 104", "addr:city": "Mesa", "addr:state": "AZ", "addr:postcode": "85206", "name": "SimonMed Imaging - Mesa Higley", "phone": "(480) 218-3250", "website": "https://www.simonmed.com/locations", "opening_hours": "Mo 08:00-17:00; Tu 08:00-17:00; We 08:00-17:00; Th 08:00-17:00; Fr 08:00-17:00", "brand": "SimonMed"}, "geometry": {"type": "Point", "coordinates": [-111.713661, 33.39414]}},
{"type": "Feature", "id": "MBJZhyTvJoCu5huDdLqjyzVIMdM=", "properties": {"ref": "147", "@spider": "simonmed", "addr:full": "1960 W. Frye Rd Suite 1", "addr:city": "Chandler", "addr:state": "AZ", "addr:postcode": "85224", "name": "SimonMed - Dobson Women\u2019s Center", "phone": "(480) 306-7340", "website": "https://www.simonmed.com/locations", "opening_hours": "Mo 06:30-18:00; Tu 07:00-18:00; We 07:00-18:00; Th 07:00-18:00; Fr 07:00-18:00; Sa 08:00-16:00; Su 08:00-12:00", "brand": "SimonMed"}, "geometry": {"type": "Point", "coordinates": [-111.875404, 33.2987823]}},
{"type": "Feature", "id": "GREwJ7gYmcswDAD5Z1aO8ESJYLs=", "properties": {"ref": "148", "@spider": "simonmed", "addr:full": "6215 21st Ave W Suite A", "addr:city": "Bradenton", "addr:state": "FL", "addr:postcode": "34209", "name": "SimonMed Imaging - Bradenton(Park South)", "phone": "(941) 795-4449", "website": "https://www.simonmed.com/locations", "opening_hours": "Mo 08:00-17:00; Tu 08:00-17:00; We 08:00-17:00; Th 08:00-17:00; Fr 08:00-17:00", "brand": "SimonMed"}, "geometry": {"type": "Point", "coordinates": [-82.62463, 27.4833775]}},
{"type": "Feature", "id": "Vt8fjrdXhUfw-rNUqT333-M3dqg=", "properties": {"ref": "150", "@spider": "simonmed", "addr:full": "861 Coronado Center Dr. Ste 101", "addr:city": "Henderson", "addr:state": "NV", "addr:postcode": "89052", "name": "SimonMed Imaging - Coronado", "phone": "(702) 260-2120", "website": "https://www.simonmed.com/locations", "opening_hours": "Mo 08:00-17:00; Tu 08:00-17:00; We 08:00-17:00; Th 08:00-17:00; Fr 08:00-17:00", "brand": "SimonMed"}, "geometry": {"type": "Point", "coordinates": [-115.110374, 36.0004959]}},
{"type": "Feature", "id": "JOgLt94sEyrRRR6Nmk2PBpg7Az8=", "properties": {"ref": "151", "@spider": "simonmed", "addr:full": "8530 West Sunset Rd Ste 120", "addr:city": "Las Vegas", "addr:state": "NV", "addr:postcode": "89113", "name": "SimonMed Imaging - Southwest", "phone": "(702) 522-8780", "website": "https://www.simonmed.com/locations", "opening_hours": "Mo 08:00-17:00; Tu 08:00-17:00; We 08:00-17:00; Th 08:00-17:00; Fr 08:00-17:00", "brand": "SimonMed"}, "geometry": {"type": "Point", "coordinates": [-115.278526, 36.0703]}},
{"type": "Feature", "id": "38_5ueiuBC4XRXW2UM40n1Q0TW8=", "properties": {"ref": "152", "@spider": "simonmed", "addr:full": "4161 Tamiami Trail Building 2 Unit #204", "addr:city": "Port Charlotte", "addr:state": "FL", "addr:postcode": "33952", "name": "SimonMed Port Charlotte", "phone": "(941) 235-3280", "website": "https://www.simonmed.com/locations", "opening_hours": "Mo 08:00-17:00; Tu 08:00-17:00; We 08:00-17:00; Th 08:00-17:00; Fr 08:00-17:00", "brand": "SimonMed"}, "geometry": {"type": "Point", "coordinates": [-82.08581, 26.9725018]}},
{"type": "Feature", "id": "tdwd60Lpgtzm6n4Uv6O_2uzr7uA=", "properties": {"ref": "153", "@spider": "simonmed", "addr:full": "1000 N Humphreys Ste 100", "addr:city": "Flagstaff", "addr:state": "AZ", "addr:postcode": "86001", "name": "SimonMed Imaging - Flagstaff", "phone": "(928) 223-0200", "website": "https://www.simonmed.com/locations", "opening_hours": "Mo 08:30-17:00; Tu 08:30-17:00; We 08:30-17:00; Th 08:30-17:00; Fr 08:30-17:00", "brand": "SimonMed"}, "geometry": {"type": "Point", "coordinates": [-111.647209, 35.2068138]}},
{"type": "Feature", "id": "au0Klbnz1m8KUvaiExYxUF9ImYQ=", "properties": {"ref": "154", "@spider": "simonmed", "addr:full": "2121 S Orange Ave ", "addr:city": "Orlando", "addr:state": "FL", "addr:postcode": "32806", "name": "SimonMed Imaging - Kaley II", "phone": "(407) 514-1870", "website": "https://www.simonmed.com/locations", "opening_hours": "Mo 07:00-17:00; Tu 07:00-17:00; We 07:00-17:00; Th 07:00-17:00; Fr 07:00-17:00; Sa 08:00-16:00", "brand": "SimonMed"}, "geometry": {"type": "Point", "coordinates": [-81.3762741, 28.518158]}},
{"type": "Feature", "id": "8ywy6iwdHB5anGbURVAdBPhzR5w=", "properties": {"ref": "155", "@spider": "simonmed", "addr:full": "1325 N Litchfield Rd Ste 115", "addr:city": "Goodyear", "addr:state": "AZ", "addr:postcode": "85395", "name": "SimonMed Imaging - Litchfield", "phone": "(602) 584-4944", "website": "https://www.simonmed.com/locations", "opening_hours": "Mo 08:30-17:00; Tu 08:30-17:00; We 08:30-17:00; Th 08:30-17:00; Fr 08:30-17:00", "brand": "SimonMed"}, "geometry": {"type": "Point", "coordinates": [-112.358215, 33.4747276]}},
{"type": "Feature", "id": "Ku6iS_L0qxM9YkFaGm26vwQufaA=", "properties": {"ref": "156", "@spider": "simonmed", "addr:full": "14301 E Cedar Ave Unit E", "addr:city": "Aurora", "addr:state": "CO", "addr:postcode": "80012", "name": "SimonMed Imaging - Aurora", "phone": "(720) 492-1985", "website": "https://www.simonmed.com/locations", "opening_hours": "Mo 08:30-17:00; Tu 08:30-17:00; We 08:30-17:00; Th 08:30-17:00; Fr 08:30-17:00", "brand": "SimonMed"}, "geometry": {"type": "Point", "coordinates": [-104.821037, 39.7132263]}},
{"type": "Feature", "id": "PvDs6TMgKoSCri_BMNrtsgzSsm4=", "properties": {"ref": "157", "@spider": "simonmed", "addr:full": "44555 Edison Rd ", "addr:city": "Maricopa", "addr:state": "AZ", "addr:postcode": "85138", "name": "SimonMed Imaging - Maricopa", "phone": "(520) 666-7960", "website": "https://www.simonmed.com/locations", "opening_hours": "Mo 08:30-17:00; Tu 08:30-17:00; We 08:30-17:00; Th 08:30-17:00; Fr 08:30-17:00", "brand": "SimonMed"}, "geometry": {"type": "Point", "coordinates": [-111.932182, 33.0652]}},
{"type": "Feature", "id": "9BANBqsUNloJL-6WmKh4t91NxGU=", "properties": {"ref": "158", "@spider": "simonmed", "addr:full": "1825 Civic Center Suite 1", "addr:city": "Santa Clara", "addr:state": "CA", "addr:postcode": "95050", "name": "SimonMed Imaging - Santa Clara", "phone": "(408) 296-5555", "website": "https://www.simonmed.com/locations", "opening_hours": "Mo 07:00-17:00; Tu 07:00-17:00; We 07:00-17:00; Th 07:00-17:00; Fr 07:00-17:00", "brand": "SimonMed"}, "geometry": {"type": "Point", "coordinates": [-121.905663, 37.352253]}},
{"type": "Feature", "id": "cHRpH6GGKSHAkLGV_BC5DIkAt1A=", "properties": {"ref": "159", "@spider": "simonmed", "addr:full": "730 Goodlette Rd #101", "addr:city": "Naples", "addr:state": "FL", "addr:postcode": "34102", "name": "Simonmed Imaging - Naples", "phone": "(239) 307-0234", "website": "https://www.simonmed.com/locations", "opening_hours": "Mo 08:00-17:00; Tu 08:00-17:00; We 08:00-17:00; Th 08:00-17:00; Fr 08:00-17:00", "brand": "SimonMed"}, "geometry": {"type": "Point", "coordinates": [-81.79188, 26.1966972]}},
{"type": "Feature", "id": "CVvCRQYlfytrJKZBMfWwmki9c4c=", "properties": {"ref": "160", "@spider": "simonmed", "addr:full": "15775 Laguna Canyon Rd ", "addr:city": "Irvine", "addr:state": "CA", "addr:postcode": "92618", "name": "SimonMed Imaging - Irvine", "phone": "(949) 522-8120", "website": "https://www.simonmed.com/locations", "opening_hours": "Mo 08:00-16:30; Tu 08:00-16:30; We 08:00-16:30; Th 08:00-16:30; Fr 08:00-16:30", "brand": "SimonMed"}, "geometry": {"type": "Point", "coordinates": [-117.7612, 33.66653]}},
{"type": "Feature", "id": "wZJloHajveWdKUFzQToJYggjWKg=", "properties": {"ref": "161", "@spider": "simonmed", "addr:full": "10151 Enterprise Center Blvd. #109", "addr:city": "Boynton Beach", "addr:state": "FL", "addr:postcode": "33437", "name": "SimonMed Imaging - Boynton Beach", "phone": "(561) 600-3019", "website": "https://www.simonmed.com/locations", "opening_hours": "Mo 08:00-17:00; Tu 08:00-17:00; We 08:00-17:00; Th 08:00-17:00; Fr 08:00-17:00", "brand": "SimonMed"}, "geometry": {"type": "Point", "coordinates": [-80.16771, 26.52584]}},
{"type": "Feature", "id": "swc7kmQbTh181nOC3regxqj3LDw=", "properties": {"ref": "162", "@spider": "simonmed", "addr:full": "2500 S 8th Ave ", "addr:city": "Yuma", "addr:state": "AZ", "addr:postcode": "85364", "name": "SimonMed Imaging - Yuma", "phone": "(928) 304-7801", "website": "https://www.simonmed.com/locations", "opening_hours": "Mo 08:30-17:00; Tu 08:30-17:00; We 08:30-17:00; Th 08:30-17:00; Fr 08:30-17:00", "brand": "SimonMed"}, "geometry": {"type": "Point", "coordinates": [-114.630089, 32.68179]}},
{"type": "Feature", "id": "m5DsN3zB7KTQSZpvnzwkWLvFWX8=", "properties": {"ref": "163", "@spider": "simonmed", "addr:full": "2990 N Swan Rd Ste 145", "addr:city": "Tucson", "addr:state": "AZ", "addr:postcode": "85712", "name": "SimonMed Imaging - Plaza Palomino", "phone": "(520) 783-3510", "website": "https://www.simonmed.com/locations", "opening_hours": "Mo 08:30-17:00; Tu 08:30-17:00; We 08:30-17:00; Th 08:30-17:00; Fr 08:30-17:00", "brand": "SimonMed"}, "geometry": {"type": "Point", "coordinates": [-110.89151, 32.26073]}},
{"type": "Feature", "id": "fJXM0Iimtop8f2ffhE_UW7Kof9M=", "properties": {"ref": "164", "@spider": "simonmed", "addr:full": "303 W 1st Street #303, #305, #307", "addr:city": "Sanford", "addr:state": "FL", "addr:postcode": "32771", "name": "SimonMed Imaging - Sanford", "phone": "(321) 275-3132", "website": "https://www.simonmed.com/locations", "opening_hours": "Mo 08:00-17:00; Tu 08:00-17:00; We 08:00-17:00; Th 08:00-17:00; Fr 08:00-17:00", "brand": "SimonMed"}, "geometry": {"type": "Point", "coordinates": [-81.27044, 28.81175]}},
{"type": "Feature", "id": "wwz2Qa5DVJ6SuULimyo_PFevYOg=", "properties": {"ref": "165", "@spider": "simonmed", "addr:full": "110 S Macdill Ste 203", "addr:city": "Tampa", "addr:state": "FL", "addr:postcode": "33609", "name": "SimonMed Imaging - Macdill", "phone": "(813) 499-0541", "website": "https://www.simonmed.com/locations", "opening_hours": "Mo 08:00-17:00; Tu 08:00-17:00; We 08:00-17:00; Th 08:00-17:00; Fr 08:00-17:00", "brand": "SimonMed"}, "geometry": {"type": "Point", "coordinates": [-82.49297, 27.94387]}},
{"type": "Feature", "id": "MGTKiTJ4cEfSsDfQ8AW4-MGo2XE=", "properties": {"ref": "166", "@spider": "simonmed", "addr:full": "840 Dr. Martin Luther King Jr St N Ste 100", "addr:city": "St Petersburg", "addr:state": "FL", "addr:postcode": "33705", "name": "SimonMed Imaging - St. Petersburg", "phone": "(727) 440-8250", "website": "https://www.simonmed.com/locations", "opening_hours": "Mo 08:00-17:00; Tu 08:00-17:00; We 08:00-17:00; Th 08:00-17:00; Fr 08:00-17:00", "brand": "SimonMed"}, "geometry": {"type": "Point", "coordinates": [-82.64726, 27.78068]}},
{"type": "Feature", "id": "BiK-HHZbdrT8EtCZykWNeL3D3jI=", "properties": {"ref": "167", "@spider": "simonmed", "addr:full": "1125 Miranda Ln ", "addr:city": "Kissimmee", "addr:state": "FL", "addr:postcode": "34741", "name": "SimonMed Imaging - Hunter's Creek", "phone": "(689) 204-0153", "website": "https://www.simonmed.com/locations", "opening_hours": "Mo 08:00-17:00; Tu 08:00-17:00; We 08:00-17:00; Th 08:00-17:00; Fr 08:00-17:00", "brand": "SimonMed"}, "geometry": {"type": "Point", "coordinates": [-81.41487, 28.34704]}},
{"type": "Feature", "id": "fxRVZA7dlLRe0F87OSpMQ3rh_ZQ=", "properties": {"ref": "168", "@spider": "simonmed", "addr:full": "7903 S. Broadway Rd Ste A", "addr:city": "Littleton", "addr:state": "CO", "addr:postcode": "80122", "name": "SimonMed Imaging - Littleton", "phone": "(720) 449-8800", "website": "https://www.simonmed.com/locations", "brand": "SimonMed"}, "geometry": {"type": "Point", "coordinates": [-104.988457, 39.56616]}},
{"type": "Feature", "id": "QtxBPgIrwDoqw0pzuetgiLgJOPA=", "properties": {"ref": "169", "@spider": "simonmed", "addr:full": "613 Oakfield Dr ", "addr:city": "Brandon", "addr:state": "FL", "addr:postcode": "33511", "name": "SimonMed Imaging - Brandon", "phone": "(813) 703-8027", "website": "https://www.simonmed.com/locations", "opening_hours": "Mo 08:00-17:00; Tu 08:00-17:00; We 08:00-17:00; Th 08:00-17:00; Fr 08:00-17:00", "brand": "SimonMed"}, "geometry": {"type": "Point", "coordinates": [-82.29233, 27.93378]}},
{"type": "Feature", "id": "4iim9tgdcaNv7tHWfmwJl0v_gAI=", "properties": {"ref": "170", "@spider": "simonmed", "addr:full": "3531 Fashion Way Suite 2", "addr:city": "Torrance", "addr:state": "CA", "addr:postcode": "90503", "name": "SimonMed Imaging - Torrance", "phone": "(310) 974-1260", "website": "https://www.simonmed.com/locations", "opening_hours": "Mo 08:00-16:30; Tu 08:00-16:30; We 08:00-16:30; Th 08:00-16:30; Fr 08:00-16:30", "brand": "SimonMed"}, "geometry": {"type": "Point", "coordinates": [-118.349838, 33.8353]}},
{"type": "Feature", "id": "CG4M93bDefN5lTl_TwSGqutWUcw=", "properties": {"ref": "171", "@spider": "simonmed", "addr:full": "9134 W. Olympic Blvd ", "addr:city": "Beverly Hills", "addr:state": "CA", "addr:postcode": "90212", "name": "SimonMed Imaging - Beverly Hills Olympic", "phone": "(424) 421-7140", "website": "https://www.simonmed.com/locations", "brand": "SimonMed"}, "geometry": {"type": "Point", "coordinates": [-118.391289, 34.05899]}},
{"type": "Feature", "id": "npGBi8zVi0JeGOMbvBYVeY5CgVg=", "properties": {"ref": "172", "@spider": "simonmed", "addr:full": "1915 Aloma Ave ", "addr:city": "Winter Park", "addr:state": "FL", "addr:postcode": "32792", "name": "SimonMed Imaging - Winter Park II", "phone": "(321) 203-5710", "website": "https://www.simonmed.com/locations", "opening_hours": "Mo 08:00-17:00; Tu 08:00-17:00; We 08:00-17:00; Th 08:00-17:00; Fr 08:00-17:00", "brand": "SimonMed"}, "geometry": {"type": "Point", "coordinates": [-81.32714, 28.60135]}},
{"type": "Feature", "id": "IB_orp6WBu-xR6AXO6Rx5HZqUvY=", "properties": {"ref": "173", "@spider": "simonmed", "addr:full": "170 E. 77th Street ", "addr:city": "New York", "addr:state": "NY", "addr:postcode": "10075", "name": "SimonMed Imaging - Carnegie Hill", "phone": "(212) 369-9200", "website": "https://www.simonmed.com/locations", "opening_hours": "Mo 08:00-18:00; Tu 08:00-18:00; We 08:00-18:00; Th 08:00-18:00; Fr 08:00-18:00; Sa 08:00-12:00", "brand": "SimonMed"}, "geometry": {"type": "Point", "coordinates": [-73.95915, 40.77309]}},
{"type": "Feature", "id": "mSmFkJxBKR6aMEWe71XJ1EgMWi0=", "properties": {"ref": "174", "@spider": "simonmed", "addr:full": "499 N El Camino Real C100", "addr:city": "Encinitas", "addr:state": "CA", "addr:postcode": "92024", "name": "SimonMed - Encinitas", "phone": "(760) 334-4065", "website": "https://www.simonmed.com/locations", "opening_hours": "Mo 08:30-17:00; Tu 08:30-17:00; We 08:30-17:00; Th 08:30-17:00; Fr 08:30-17:00", "brand": "SimonMed"}, "geometry": {"type": "Point", "coordinates": [-117.259727, 33.04599]}},
{"type": "Feature", "id": "g-BJ9xY8FG5UPZ3-QEgKpxO2tEY=", "properties": {"ref": "175", "@spider": "simonmed", "addr:full": "303 E. Army Trail Road Suite 110", "addr:city": "Bloomingdale", "addr:state": "Il", "addr:postcode": "60108", "name": "SimonMed - Bloomingdale", "phone": "(630) 529-9400", "website": "https://www.simonmed.com/locations", "opening_hours": "Mo 07:00-21:00; Tu 07:00-21:00; We 07:00-21:00; Th 07:00-12:00; Fr 07:00-21:00; Sa 08:00-14:00", "brand": "SimonMed"}, "geometry": {"type": "Point", "coordinates": [-88.05951, 41.93578]}},
{"type": "Feature", "id": "Ktslt9i48INklcgehhopl4jJRWA=", "properties": {"ref": "176", "@spider": "simonmed", "addr:full": "446 E. Ontario Street Suite 106", "addr:city": "Chicago", "addr:state": "Il", "addr:postcode": "60611", "name": "SimonMed - Streeterville", "phone": "(312) 440-0016", "website": "https://www.simonmed.com/locations", "opening_hours": "Mo 07:00-21:00; Tu 07:00-21:00; We 07:00-21:00; Th 07:00-21:00; Fr 07:00-21:00; Sa 08:00-14:00", "brand": "SimonMed"}, "geometry": {"type": "Point", "coordinates": [-87.61644, 41.89359]}},
{"type": "Feature", "id": "z8j20oPMY96I54pqKJgrfoIuL5k=", "properties": {"ref": "177", "@spider": "simonmed", "addr:full": "754 Essington Road ", "addr:city": "Joliet", "addr:state": "Il", "addr:postcode": "60435", "name": "SimonMed - Joliet", "phone": "(815) 741-4100", "website": "https://www.simonmed.com/locations", "opening_hours": "Mo 07:00-21:00; Tu 07:00-21:00; We 07:00-21:00; Th 07:00-21:00; Fr 07:00-21:00; Sa 08:00-14:00", "brand": "SimonMed"}, "geometry": {"type": "Point", "coordinates": [-88.15992, 41.53588]}},
{"type": "Feature", "id": "iSSialHahZnYudp8oTKYZOP2XOk=", "properties": {"ref": "178", "@spider": "simonmed", "addr:full": "9121 W 159th Street Suite B&C", "addr:city": "Orland Hills", "addr:state": "Il", "addr:postcode": "60487", "name": "SimonMed - Orland", "phone": "(708) 226-9400", "website": "https://www.simonmed.com/locations", "opening_hours": "Mo 07:00-21:00; Tu 07:00-21:00; We 07:00-21:00; Th 07:00-21:00; Fr 07:00-21:00; Sa 08:00-14:00", "brand": "SimonMed"}, "geometry": {"type": "Point", "coordinates": [-87.84112, 41.60088]}},
{"type": "Feature", "id": "ZrEdjAahjViGSUuNnw7U4o-VJ9A=", "properties": {"ref": "179", "@spider": "simonmed", "addr:full": "3212 W Vollmer Road ", "addr:city": "Olympia Fields", "addr:state": "Il", "addr:postcode": "60461", "name": "SimonMed - Olympia Fields", "phone": "(708) 481-9800", "website": "https://www.simonmed.com/locations", "opening_hours": "Mo 07:00-21:00; Tu 07:00-21:00; We 07:00-21:00; Th 07:00-21:00; Fr 07:00-21:00; Sa 08:00-14:00", "brand": "SimonMed"}, "geometry": {"type": "Point", "coordinates": [-84.52591, 41.3763]}},
{"type": "Feature", "id": "WnGpjpCCj_6syrMNFKvzx9CwaBQ=", "properties": {"ref": "180", "@spider": "simonmed", "addr:full": "3960 Hillside Drive Suite 106", "addr:city": "Delafield", "addr:state": "WI", "addr:postcode": "53018", "name": "SimonMed - Delafield", "phone": "(262) 646-6950", "website": "https://www.simonmed.com/locations", "opening_hours": "Tu 09:00-18:00; Th 09:00-18:00; Fr 22:00-16:00", "brand": "SimonMed"}, "geometry": {"type": "Point", "coordinates": [-88.36705, 43.04844]}},
{"type": "Feature", "id": "C6rE909Ugaqt7JSWs-y4BRqMQqA=", "properties": {"ref": "181", "@spider": "simonmed", "addr:full": "20530 North Rand Road #350", "addr:city": "Deer Park", "addr:state": "Il", "addr:postcode": "60010", "name": "SimonMed - Deer Park", "phone": "(847) 550-6740", "website": "https://www.simonmed.com/locations", "opening_hours": "Mo 07:00-21:00; Tu 07:00-21:00; We 07:00-21:00; Th 07:00-21:00; Fr 07:00-21:00; Sa 08:00-14:00", "brand": "SimonMed"}, "geometry": {"type": "Point", "coordinates": [-88.05357, 42.16191]}},
{"type": "Feature", "id": "hpwk879Z8pvW5t3VDvebKFwJCII=", "properties": {"ref": "182", "@spider": "simonmed", "addr:full": "7205 S 51st Ave Ste 101", "addr:city": "Laveen", "addr:state": "AZ", "addr:postcode": "85339", "name": "SimonMed Imaging - Laveen", "phone": "(602) 627-0170", "website": "https://www.simonmed.com/locations", "opening_hours": "Mo 08:30-17:00; Tu 08:30-17:00; We 08:30-17:00; Th 08:30-17:00; Fr 08:30-17:00", "brand": "SimonMed"}, "geometry": {"type": "Point", "coordinates": [-112.1679, 33.37999]}},
{"type": "Feature", "id": "tAsjIvMagoky5n8dshpSkCILO2c=", "properties": {"ref": "183", "@spider": "simonmed", "addr:full": "6200 S McClintock Dr  Ste 114 & 115", "addr:city": "Tempe", "addr:state": "AZ", "addr:postcode": "85283", "name": "SimonMed Imaging - McClintock", "phone": "(602) 483-1350", "website": "https://www.simonmed.com/locations", "opening_hours": "Mo 08:00-16:00; Tu 08:00-16:00; We 08:00-16:00; Th 08:00-16:00; Fr 08:00-16:00", "brand": "SimonMed"}, "geometry": {"type": "Point", "coordinates": [-111.91201, 33.365]}},
{"type": "Feature", "id": "40ULjuyKfqGepJgeIpz13n6S_oc=", "properties": {"ref": "184", "@spider": "simonmed", "addr:full": "4700 Chamberlin Lane ", "addr:city": "Louisville", "addr:state": "KY", "addr:postcode": "40241", "name": "SimonMed Imaging - Louisville", "phone": "(502) 901-2010", "website": "https://www.simonmed.com/locations", "opening_hours": "Mo 08:30-17:00; Tu 08:30-17:00; We 08:30-17:00; Th 08:30-17:00; Fr 08:30-17:00", "brand": "SimonMed"}, "geometry": {"type": "Point", "coordinates": [-85.59512, 38.31381]}},
{"type": "Feature", "id": "6OxcPNn63avcTuruoIDGlNV8Rjo=", "properties": {"ref": "185", "@spider": "simonmed", "addr:full": "1350 W. Fairbanks Ave ", "addr:city": "Winter Park", "addr:state": "FL", "addr:postcode": "32789", "name": "SimonMed Imaging - Winter Park III", "phone": "(321) 203-5730", "website": "https://www.simonmed.com/locations", "opening_hours": "Mo 08:00-16:30; Tu 08:00-16:30; We 08:00-16:30; Th 08:00-16:30; Fr 08:00-16:30", "brand": "SimonMed"}, "geometry": {"type": "Point", "coordinates": [-81.36747, 28.5931]}},
{"type": "Feature", "id": "CvT6du3F9hxO-pYlemMRnEJY0B8=", "properties": {"ref": "187", "@spider": "simonmed", "addr:full": "1605 Queens Dr ", "addr:city": "Woodbury", "addr:state": "MN", "addr:postcode": "55125", "name": "SimonMed Imaging - Woodbury", "phone": "(651) 333-3075", "website": "https://www.simonmed.com/locations", "opening_hours": "Mo 09:00-17:00; Tu 09:00-17:00; We 09:00-17:00; Th 09:00-17:00; Fr 09:00-17:00", "brand": "SimonMed"}, "geometry": {"type": "Point", "coordinates": [-93.1273651, 45.6041641]}},
{"type": "Feature", "id": "QRA6GZ6zaD2pN2DsKUCb62gFpe4=", "properties": {"ref": "194", "@spider": "simonmed", "addr:full": "6138 Kennerly Rd Ste 100", "addr:city": "Jacksonville", "addr:state": "FL", "addr:postcode": "32216", "name": "SimonMed Imaging - Jacksonville", "phone": "(904) 638-0217", "website": "https://www.simonmed.com/locations", "opening_hours": "Mo 08:30-17:00; Tu 08:30-17:00; We 08:30-17:00; Th 08:30-17:00; Fr 08:30-17:00", "brand": "SimonMed"}, "geometry": {"type": "Point", "coordinates": [-81.60034, 30.283617]}},
{"type": "Feature", "id": "FZ2j9sTvTKeT3RqDNRtZGGYu9Bo=", "properties": {"ref": "195", "@spider": "simonmed", "addr:full": "1704 66th St ", "addr:city": "Richfield", "addr:state": "MN", "addr:postcode": "55423", "name": "SimonMed Imaging - Richfield", "phone": "(612) 746-6591", "website": "https://www.simonmed.com/locations", "opening_hours": "Mo 08:30-16:00; Tu 08:30-16:00; We 08:30-16:00; Th 08:30-16:00; Fr 08:30-16:00", "brand": "SimonMed"}, "geometry": {"type": "Point", "coordinates": [-93.2494659, 44.8843842]}},
{"type": "Feature", "id": "iLhCrAwxwyfXhxxc0KC8EVHwpE8=", "properties": {"ref": "196", "@spider": "simonmed", "addr:full": "2005 Silvernail Rd Ste 111", "addr:city": "Pewaukee", "addr:state": "WI", "addr:postcode": "53072", "name": "SimonMed Imaging Pewaukee", "website": "https://www.simonmed.com/locations", "opening_hours": "Mo 07:30-17:00; Tu 07:30-17:00; We 07:30-17:00; Th 07:30-17:00; Fr 07:30-17:00", "brand": "SimonMed"}, "geometry": {"type": "Point", "coordinates": [-88.25884, 43.0424919]}},
{"type": "Feature", "id": "lZ-z4lyyzo4BuBcGoRmndhCG-UM=", "properties": {"ref": "198", "@spider": "simonmed", "addr:full": "911 E. Oak Street ", "addr:city": "Kissimmee ", "addr:state": "FL", "addr:postcode": "34744", "name": "SimonMed - Heritage Square", "phone": "(407) 847-3070", "website": "https://www.simonmed.com/locations", "opening_hours": "Mo 08:15-17:00; Tu 08:15-17:00; We 08:15-17:00; Th 08:15-17:00; Fr 08:15-17:00", "brand": "SimonMed"}, "geometry": {"type": "Point", "coordinates": [-81.39571, 28.3011074]}},
{"type": "Feature", "id": "LbUfDe1929WH8yUvIakgniu-5qU=", "properties": {"ref": "199", "@spider": "simonmed", "addr:full": "7806 Lake Underhill Rd Suite 101", "addr:city": "Orlando", "addr:state": "FL", "addr:postcode": "32822", "name": "SimonMed - Lake Underhill", "phone": "(407) 608-6800", "website": "https://www.simonmed.com/locations", "opening_hours": "Mo 08:15-17:00; Tu 08:15-17:00; We 08:15-17:00; Th 08:15-17:00; Fr 08:15-17:00", "brand": "SimonMed"}, "geometry": {"type": "Point", "coordinates": [-81.28001, 28.5386639]}}]}