{"type":"FeatureCollection","features":[{"type": "Feature", "id": "-7C7VKBArTvvk_HonFO5xmNWG0s=", "properties": {"ref": "223", "location_type": "RegionalMall", "@spider": "simonmalls", "addr:full": "2901 S Capital of Texas Hwy, Austin, TX 78746", "addr:city": "Austin", "addr:state": "TX", "addr:postcode": "78746", "addr:country": "UNITED STATES", "name": "Barton Creek Square", "phone": "(512) 327-7041", "website": "https://www.simon.com/mall/barton-creek-square", "brand": "Simon Malls"}, "geometry": {"type": "Point", "coordinates": [-97.807037, 30.257727]}},
{"type": "Feature", "id": "9EFjl67pzVZ_2yM6zHAqOGz1x7s=", "properties": {"ref": "332", "location_type": "RegionalMall", "@spider": "simonmalls", "addr:full": "385 Southbridge St, Auburn, MA 01501", "addr:city": "Auburn", "addr:state": "MA", "addr:postcode": "01501", "addr:country": "UNITED STATES", "name": "Auburn Mall", "phone": "(508) 832-2314", "website": "https://www.simon.com/mall/auburn-mall", "brand": "Simon Malls"}, "geometry": {"type": "Point", "coordinates": [-71.835179, 42.202105]}},
{"type": "Feature", "id": "DfQj2AjHr3vsmPdft5fpw5x_9Rs=", "properties": {"ref": "1230", "location_type": "MillsProperty", "@spider": "simonmalls", "addr:full": "7000 Arundel Mills Cir, Hanover, MD 21076", "addr:city": "Hanover", "addr:state": "MD", "addr:postcode": "21076", "addr:country": "UNITED STATES", "name": "Arundel Mills", "phone": "(410) 540-5110", "website": "https://www.simon.com/mall/arundel-mills", "brand": "Simon Malls"}, "geometry": {"type": "Point", "coordinates": [-76.724707, 39.157819]}},
{"type": "Feature", "id": "Tkbn8xftSZA0oSZ9KesDatKTzok=", "properties": {"ref": "1281", "location_type": "MillsProperty", "@spider": "simonmalls", "addr:full": "7600 Arundel Mills Blvd, Hanover, MD 21076", "addr:city": "Hanover", "addr:state": "MD", "addr:postcode": "21076", "addr:country": "UNITED STATES", "name": "Arundel Mills Marketplace", "phone": "(410) 540-5110", "website": "https://www.simon.com/mall/arundel-mills-marketplace", "brand": "Simon Malls"}, "geometry": {"type": "Point", "coordinates": [-76.727306, 39.154038]}},
{"type": "Feature", "id": "smTqOAchWi3QGk9n9kWLgce_CTw=", "properties": {"ref": "1226", "location_type": "MillsProperty", "@spider": "simonmalls", "addr:full": "5000 S Arizona Mills Cir, Tempe, AZ 85282", "addr:city": "Tempe", "addr:state": "AZ", "addr:postcode": "85282", "addr:country": "UNITED STATES", "name": "Arizona Mills", "phone": "(480) 491-7300", "website": "https://www.simon.com/mall/arizona-mills", "brand": "Simon Malls"}, "geometry": {"type": "Point", "coordinates": [-111.964472, 33.383045]}},
{"type": "Feature", "id": "NoHAH2xAIEXg0yElJucKMTC7OJM=", "properties": {"ref": "329", "location_type": "RegionalMall", "@spider": "simonmalls", "addr:full": "1850 Apple Blossom Dr, Winchester, VA 22601", "addr:city": "Winchester", "addr:state": "VA", "addr:postcode": "22601", "addr:country": "UNITED STATES", "name": "Apple Blossom Mall", "phone": "(540) 665-0202", "website": "https://www.simon.com/mall/apple-blossom-mall", "brand": "Simon Malls"}, "geometry": {"type": "Point", "coordinates": [-78.163745, 39.160165]}},
{"type": "Feature", "id": "_hN-Jyc9NEMt2I-9V-_YkIdb5HE=", "properties": {"ref": "231", "location_type": "RegionalMall", "@spider": "simonmalls", "addr:full": "320 W 5th Ave, Anchorage, AK 99501", "addr:city": "Anchorage", "addr:state": "AK", "addr:postcode": "99501", "addr:country": "UNITED STATES", "name": "Anchorage 5th Avenue Mall", "phone": "(907) 258-4003", "website": "https://www.simon.com/mall/anchorage-5th-avenue-mall", "brand": "Simon Malls"}, "geometry": {"type": "Point", "coordinates": [-149.88861, 61.217162]}},
{"type": "Feature", "id": "4MwPWfdXewzUiKOJWi4H1q_E4Gw=", "properties": {"ref": "1345", "location_type": "CommunityLifestyleCenter", "@spider": "simonmalls", "addr:full": "2200 Louisiana Blvd NE, Albuquerque, NM 87110", "addr:city": "Albuquerque", "addr:state": "NM", "addr:postcode": "87110", "addr:country": "UNITED STATES", "name": "ABQ Uptown", "phone": "(505) 872-0263", "website": "https://www.simon.com/mall/abq-uptown", "brand": "Simon Malls"}, "geometry": {"type": "Point", "coordinates": [-106.56711, 35.103543]}},
{"type": "Feature", "id": "SoGjtnUHbFUVeVKg63L152Mj7gg=", "properties": {"ref": "795", "location_type": "RegionalMall", "@spider": "simonmalls", "addr:full": "7021 S Memorial Dr, Tulsa, OK 74133", "addr:city": "Tulsa", "addr:state": "OK", "addr:postcode": "74133", "addr:country": "UNITED STATES", "name": "Woodland Hills Mall", "phone": "(918) 252-7511", "website": "https://www.simon.com/mall/woodland-hills-mall", "brand": "Simon Malls"}, "geometry": {"type": "Point", "coordinates": [-95.881655, 36.063341]}},
{"type": "Feature", "id": "BWZBPGXqsmt1_NwDGLMK3t2BWUs=", "properties": {"ref": "1353", "location_type": "RegionalMall", "@spider": "simonmalls", "addr:full": "5 Woodfield Mall, Schaumburg, IL 60173", "addr:city": "Schaumburg", "addr:state": "IL", "addr:postcode": "60173", "addr:country": "UNITED STATES", "name": "Woodfield Mall", "phone": "(847) 330-0220", "website": "https://www.simon.com/mall/woodfield-mall", "brand": "Simon Malls"}, "geometry": {"type": "Point", "coordinates": [-88.037125, 42.046416]}},
{"type": "Feature", "id": "60GTkn5ZK_Q2DNQlOXMzRplKd9g=", "properties": {"ref": "895", "location_type": "OutletCenter", "@spider": "simonmalls", "addr:full": "549 South Chillicothe Rd, Aurora, OH 44202", "addr:city": "Aurora", "addr:state": "OH", "addr:postcode": "44202", "addr:country": "UNITED STATES", "name": "Aurora Farms Premium Outlets", "phone": "(330) 562-2001", "website": "https://www.premiumoutlets.com/outlet/aurora-farms", "brand": "Simon Malls"}, "geometry": {"type": "Point", "coordinates": [-81.343187, 41.301898]}},
{"type": "Feature", "id": "TGGEsYdtXmk330Zm1vWRBN9akZI=", "properties": {"ref": "840", "location_type": "RegionalMall", "@spider": "simonmalls", "addr:full": "2760 N Germantown Pkwy, Memphis, TN 38133", "addr:city": "Memphis", "addr:state": "TN", "addr:postcode": "38133", "addr:country": "UNITED STATES", "name": "Wolfchase Galleria", "phone": "(901) 381-2764", "website": "https://www.simon.com/mall/wolfchase-galleria", "brand": "Simon Malls"}, "geometry": {"type": "Point", "coordinates": [-89.793299, 35.203409]}},
{"type": "Feature", "id": "2nFgCdW9KBoWfeHU6JKuywh-5lU=", "properties": {"ref": "898", "location_type": "OutletCenter", "@spider": "simonmalls", "addr:full": "820 W Stacy Rd, Allen, TX 75013", "addr:city": "Allen", "addr:state": "TX", "addr:postcode": "75013", "addr:country": "UNITED STATES", "name": "Allen Premium Outlets", "phone": "(972) 678-7001", "website": "https://www.premiumoutlets.com/outlet/allen", "brand": "Simon Malls"}, "geometry": {"type": "Point", "coordinates": [-96.660751, 33.132718]}},
{"type": "Feature", "id": "jmR8okmkXWda4DNIPqF8x5-VFMU=", "properties": {"ref": "883", "location_type": "OutletCenter", "@spider": "simonmalls", "addr:full": "6415 Labeaux Ave NE, Albertville, MN 55301", "addr:city": "Albertville", "addr:state": "MN", "addr:postcode": "55301", "addr:country": "UNITED STATES", "name": "Albertville Premium Outlets", "phone": "(763) 497-9713", "website": "https://www.premiumoutlets.com/outlet/albertville", "brand": "Simon Malls"}, "geometry": {"type": "Point", "coordinates": [-93.661746, 45.244586]}},
{"type": "Feature", "id": "-6aCUC6v6jwlMAC280bO9OVjCP0=", "properties": {"ref": "180", "location_type": "RegionalMall", "@spider": "simonmalls", "addr:full": "2501 Wabash Ave, Springfield, IL 62704", "addr:city": "Springfield", "addr:state": "IL", "addr:postcode": "62704", "addr:country": "UNITED STATES", "name": "White Oaks Mall", "phone": "(217) 787-0110", "website": "https://www.simon.com/mall/white-oaks-mall", "brand": "Simon Malls"}, "geometry": {"type": "Point", "coordinates": [-89.703614, 39.767244]}},
{"type": "Feature", "id": "G8dh-hMr951WZ4BaJKwP-6cAFOU=", "properties": {"ref": "882", "location_type": "OutletCenter", "@spider": "simonmalls", "addr:full": "1 Premium Outlet Blvd, Wrentham, MA 02093", "addr:city": "Wrentham", "addr:state": "MA", "addr:postcode": "02093", "addr:country": "UNITED STATES", "name": "Wrentham Village Premium Outlets", "phone": "(508) 384-2876", "website": "https://www.premiumoutlets.com/outlet/wrentham-village", "brand": "Simon Malls"}, "geometry": {"type": "Point", "coordinates": [-71.352639, 42.038138]}},
{"type": "Feature", "id": "Z8jGcgesR9L_dWjELjOoPGvu250=", "properties": {"ref": "202", "location_type": "RegionalMall", "@spider": "simonmalls", "addr:full": "7600 Kingston Pike, Knoxville, TN 37919", "addr:city": "Knoxville", "addr:state": "TN", "addr:postcode": "37919", "addr:country": "UNITED STATES", "name": "West Town Mall", "phone": "(865) 693-4731", "website": "https://www.simon.com/mall/west-town-mall", "brand": "Simon Malls"}, "geometry": {"type": "Point", "coordinates": [-84.037235, 35.925114]}},
{"type": "Feature", "id": "yq72snnmMaIwKDdKo1PXVa8gvnw=", "properties": {"ref": "106", "location_type": "RegionalMall", "@spider": "simonmalls", "addr:full": "160 Walt Whitman Rd, Huntington Station, NY 11746", "addr:city": "Huntington Station", "addr:state": "NY", "addr:postcode": "11746", "addr:country": "UNITED STATES", "name": "Walt Whitman Shops", "phone": "(631) 271-1746", "website": "https://www.simon.com/mall/walt-whitman-shops", "brand": "Simon Malls"}, "geometry": {"type": "Point", "coordinates": [-73.410172, 40.822261]}},
{"type": "Feature", "id": "f_zjulFwGnBJKQXn9n7Dmw3dli4=", "properties": {"ref": "893", "location_type": "OutletCenter", "@spider": "simonmalls", "addr:full": "498 Red Apple Ct, Central Valley, NY 10917", "addr:city": "Central Valley", "addr:state": "NY", "addr:postcode": "10917", "addr:country": "UNITED STATES", "name": "Woodbury Common Premium Outlets", "phone": "(845) 928-7467", "website": "https://www.premiumoutlets.com/outlet/woodbury-common", "brand": "Simon Malls"}, "geometry": {"type": "Point", "coordinates": [-74.125769, 41.31628]}},
{"type": "Feature", "id": "Cqc3y9SXrJN_C8C37aS-ML7S-Tk=", "properties": {"ref": "1367", "location_type": "OutletCenter", "@spider": "simonmalls", "addr:full": "1001 Arney Rd, Woodburn, OR 97071", "addr:city": "Woodburn", "addr:state": "OR", "addr:postcode": "97071", "addr:country": "UNITED STATES", "name": "Woodburn Premium Outlets", "phone": "(503) 980-6442", "website": "https://www.premiumoutlets.com/outlet/woodburn", "brand": "Simon Malls"}, "geometry": {"type": "Point", "coordinates": [-122.878561, 45.156167]}},
{"type": "Feature", "id": "nfXVs_l7_0Hbv59BI89JmSTZJ0Q=", "properties": {"ref": "1338", "location_type": "OutletCenter", "@spider": "simonmalls", "addr:full": "5715 Richmond Rd, Williamsburg, VA 23188", "addr:city": "Williamsburg", "addr:state": "VA", "addr:postcode": "23188", "addr:country": "UNITED STATES", "name": "Williamsburg Premium Outlets", "phone": "(757) 565-1119", "website": "https://www.premiumoutlets.com/outlet/williamsburg", "brand": "Simon Malls"}, "geometry": {"type": "Point", "coordinates": [-76.737232, 37.319613]}},
{"type": "Feature", "id": "6CreXqn6e0As4i3dKqSDBdq7N7k=", "properties": {"ref": "192", "location_type": "RegionalMall", "@spider": "simonmalls", "addr:full": "6501 N Grape Rd, Mishawaka, IN 46545", "addr:city": "Mishawaka", "addr:state": "IN", "addr:postcode": "46545", "addr:country": "UNITED STATES", "name": "University Park Mall", "phone": "(574) 271-5531", "website": "https://www.simon.com/mall/university-park-mall", "brand": "Simon Malls"}, "geometry": {"type": "Point", "coordinates": [-86.190405, 41.719184]}},
{"type": "Feature", "id": "aD33Plo-zg-DSTDMJCKDgdeyQgs=", "properties": {"ref": "1376", "location_type": "CommunityLifestyleCenter", "@spider": "simonmalls", "addr:full": "1612 S University Dr, Fort Worth, TX 76107", "addr:city": "Fort Worth", "addr:state": "TX", "addr:postcode": "76107", "addr:country": "UNITED STATES", "name": "University Park Village", "phone": "(817) 332-5700", "website": "https://www.simon.com/mall/university-park-village", "brand": "Simon Malls"}, "geometry": {"type": "Point", "coordinates": [-97.363613, 32.727546]}},
{"type": "Feature", "id": "3yGY6NRCxeWqXFwa7jfHUTMjQ0I=", "properties": {"ref": "135", "location_type": "RegionalMall", "@spider": "simonmalls", "addr:full": "6901 22nd Ave N, St Petersburg, FL 33710", "addr:city": "St Petersburg", "addr:state": "FL", "addr:postcode": "33710", "addr:country": "UNITED STATES", "name": "Tyrone Square", "phone": "(727) 345-0126", "website": "https://www.simon.com/mall/tyrone-square", "brand": "Simon Malls"}, "geometry": {"type": "Point", "coordinates": [-82.733381, 27.793787]}},
{"type": "Feature", "id": "m-3AtIPXcjGZPy4zHluIbUsQ7co=", "properties": {"ref": "145", "location_type": "RegionalMall", "@spider": "simonmalls", "addr:full": "3174 NW Federal Hwy, Jensen Beach, FL 34957", "addr:city": "Jensen Beach", "addr:state": "FL", "addr:postcode": "34957", "addr:country": "UNITED STATES", "name": "Treasure Coast Square", "phone": "(772) 692-9401", "website": "https://www.simon.com/mall/treasure-coast-square", "brand": "Simon Malls"}, "geometry": {"type": "Point", "coordinates": [-80.274782, 27.241619]}},
{"type": "Feature", "id": "FlD_BkdO0bOUGcL1bG0OjKYAUdo=", "properties": {"ref": "177", "location_type": "RegionalMall", "@spider": "simonmalls", "addr:full": "7700 E Kellogg Dr, Wichita, KS 67207", "addr:city": "Wichita", "addr:state": "KS", "addr:postcode": "67207", "addr:country": "UNITED STATES", "name": "Towne East Square", "phone": "(316) 686-4849", "website": "https://www.simon.com/mall/towne-east-square", "brand": "Simon Malls"}, "geometry": {"type": "Point", "coordinates": [-97.246995, 37.683226]}},
{"type": "Feature", "id": "4RNBnBiMUGpqfjJ6Qv7M92ffB68=", "properties": {"ref": "144", "location_type": "RegionalMall", "@spider": "simonmalls", "addr:full": "6000 Glades Rd, Boca Raton, FL 33431", "addr:city": "Boca Raton", "addr:state": "FL", "addr:postcode": "33431", "addr:country": "UNITED STATES", "name": "Town Center at Boca Raton", "phone": "(561) 368-6001", "website": "https://www.simon.com/mall/town-center-at-boca-raton", "brand": "Simon Malls"}, "geometry": {"type": "Point", "coordinates": [-80.132754, 26.365014]}},
{"type": "Feature", "id": "r8JgxzbZeoDo5dS2aV2tqNwsSy8=", "properties": {"ref": "892", "location_type": "OutletCenter", "@spider": "simonmalls", "addr:full": "655 NY-318, Waterloo, NY 13165", "addr:city": "Waterloo", "addr:state": "NY", "addr:postcode": "13165", "addr:country": "UNITED STATES", "name": "Waterloo Premium Outlets", "phone": "(315) 539-1147", "website": "https://www.premiumoutlets.com/outlet/waterloo", "brand": "Simon Malls"}, "geometry": {"type": "Point", "coordinates": [-76.921377, 42.956187]}},
{"type": "Feature", "id": "PsUnVCNfyBK2xfm77-aaH15bzNc=", "properties": {"ref": "171", "location_type": "RegionalMall", "@spider": "simonmalls", "addr:full": "2415 Sagamore Pkwy S, Lafayette, IN 47905", "addr:city": "Lafayette", "addr:state": "IN", "addr:postcode": "47905", "addr:country": "UNITED STATES", "name": "Tippecanoe Mall", "phone": "(765) 448-6177", "website": "https://www.simon.com/mall/tippecanoe-mall", "brand": "Simon Malls"}, "geometry": {"type": "Point", "coordinates": [-86.8504, 40.391543]}},
{"type": "Feature", "id": "DP5KgBfrbqvcQYvSGBL2M5OahiQ=", "properties": {"ref": "877", "location_type": "OutletCenter", "@spider": "simonmalls", "addr:full": "94-790 Lumiaina St, Waipahu, HI 96797", "addr:city": "Waipahu", "addr:state": "HI", "addr:postcode": "96797", "addr:country": "UNITED STATES", "name": "Waikele Premium Outlets", "phone": "(808) 676-1497", "website": "https://www.premiumoutlets.com/outlet/waikele", "brand": "Simon Malls"}, "geometry": {"type": "Point", "coordinates": [-158.006739, 21.402193]}},
{"type": "Feature", "id": "qlUQwJA2NZGITYR1nxo04pPSmUM=", "properties": {"ref": "105", "location_type": "RegionalMall", "@spider": "simonmalls", "addr:full": "125 Westchester Ave, White Plains, NY 10601", "addr:city": "White Plains", "addr:state": "NY", "addr:postcode": "10601", "addr:country": "UNITED STATES", "name": "The Westchester", "phone": "(914) 421-1333", "website": "https://www.simon.com/mall/the-westchester", "brand": "Simon Malls"}, "geometry": {"type": "Point", "coordinates": [-73.759053, 41.031124]}},
{"type": "Feature", "id": "_kRcBwilSLoZB27Os9dQShD3DiY=", "properties": {"ref": "872", "location_type": "OutletCenter", "@spider": "simonmalls", "addr:full": "321 Nut Tree Rd, Vacaville, CA 95687", "addr:city": "Vacaville", "addr:state": "CA", "addr:postcode": "95687", "addr:country": "UNITED STATES", "name": "Vacaville Premium Outlets", "phone": "(707) 447-2255", "website": "https://www.premiumoutlets.com/outlet/vacaville", "brand": "Simon Malls"}, "geometry": {"type": "Point", "coordinates": [-121.956992, 38.365719]}},
{"type": "Feature", "id": "oxwgcfIlJb-Wid0_BFcy0KgP4AA=", "properties": {"ref": "1228", "location_type": "RegionalMall", "@spider": "simonmalls", "addr:full": "390 Hackensack Ave, Hackensack, NJ 07601", "addr:city": "Hackensack", "addr:state": "NJ", "addr:postcode": "07601", "addr:country": "UNITED STATES", "name": "The Shops at Riverside", "phone": "(201) 489-0151", "website": "https://www.simon.com/mall/the-shops-at-riverside", "brand": "Simon Malls"}, "geometry": {"type": "Point", "coordinates": [-74.030045, 40.905838]}},
{"type": "Feature", "id": "znjJ2zyef4GY2zYCxnEJeYNHRBU=", "properties": {"ref": "239", "location_type": "RegionalMall", "@spider": "simonmalls", "addr:full": "555 The Shops at Mission Viejo, Mission Viejo, CA 92691", "addr:city": "Mission Viejo", "addr:state": "CA", "addr:postcode": "92691", "addr:country": "UNITED STATES", "name": "The Shops at Mission Viejo", "phone": "(949) 364-1832", "website": "https://www.simon.com/mall/the-shops-at-mission-viejo", "brand": "Simon Malls"}, "geometry": {"type": "Point", "coordinates": [-117.669539, 33.557668]}},
{"type": "Feature", "id": "4I2E-2dyE_yawjRhPN6VpcIkXMg=", "properties": {"ref": "101", "location_type": "RegionalMall", "@spider": "simonmalls", "addr:full": "5101 Fashion Drive, Nanuet, NY 10954", "addr:city": "Nanuet", "addr:state": "NY", "addr:postcode": "10954", "addr:country": "UNITED STATES", "name": "The Shops at Nanuet", "phone": "(845) 367-9450", "website": "https://www.simon.com/mall/the-shops-at-nanuet", "brand": "Simon Malls"}, "geometry": {"type": "Point", "coordinates": [-74.016373, 41.096049]}},
{"type": "Feature", "id": "yZqimQPQBfUdeJDTLTnWTqu-6TE=", "properties": {"ref": "1373", "location_type": "OutletCenter", "@spider": "simonmalls", "addr:full": "3965 Eagan Outlets Pky, Eagan, MN 55122", "addr:city": "Eagan", "addr:state": "MN", "addr:postcode": "55122", "addr:country": "UNITED STATES", "name": "Twin Cities Premium Outlets", "phone": "(612) 235-4343", "website": "https://www.premiumoutlets.com/outlet/twin-cities", "brand": "Simon Malls"}, "geometry": {"type": "Point", "coordinates": [-93.214606, 44.815629]}},
{"type": "Feature", "id": "Fo9bs8jVe6mlM-rQ1Fbrgu9AS5s=", "properties": {"ref": "1379", "location_type": "OutletCenter", "@spider": "simonmalls", "addr:full": "6401 W Marana Center Blvd, Tucson, AZ 85742", "addr:city": "Tucson", "addr:state": "AZ", "addr:postcode": "85742", "addr:country": "UNITED STATES", "name": "Tucson Premium Outlets", "phone": "(520) 572-1122", "website": "https://www.premiumoutlets.com/outlet/tucson", "brand": "Simon Malls"}, "geometry": {"type": "Point", "coordinates": [-111.101551, 32.375255]}},
{"type": "Feature", "id": "cRdQIcucPLO8DS2ZWbiSORRHAxY=", "properties": {"ref": "1387", "location_type": "RegionalMall", "@spider": "simonmalls", "addr:full": "3720 S Las Vegas Blvd, Las Vegas, NV 89158", "addr:city": "Las Vegas", "addr:state": "NV", "addr:postcode": "89158", "addr:country": "UNITED STATES", "name": "The Shops at Crystals", "phone": "(702) 590-9202", "website": "https://www.simon.com/mall/the-shops-at-crystals", "brand": "Simon Malls"}, "geometry": {"type": "Point", "coordinates": [-115.17431, 36.107997]}},
{"type": "Feature", "id": "bqLRjlx6F_8ghmAC2ATclKFUNrQ=", "properties": {"ref": "1375", "location_type": "RegionalMall", "@spider": "simonmalls", "addr:full": "5188 Monahans Ave, Fort Worth, TX 76109", "addr:city": "Fort Worth", "addr:state": "TX", "addr:postcode": "76109", "addr:country": "UNITED STATES", "name": "The Shops At Clearfork", "phone": "(817) 732-9552", "website": "https://www.simon.com/mall/the-shops-at-clearfork", "brand": "Simon Malls"}, "geometry": {"type": "Point", "coordinates": [-97.399635, 32.710076]}},
{"type": "Feature", "id": "S5OLjK-tsixmQ21MGjNWucfEvK0=", "properties": {"ref": "786", "location_type": "RegionalMall", "@spider": "simonmalls", "addr:full": "199 Boylston St, Chestnut Hill, MA 02467", "addr:city": "Chestnut Hill", "addr:state": "MA", "addr:postcode": "02467", "addr:country": "UNITED STATES", "name": "The Shops at Chestnut Hill", "phone": "(617) 965-3038", "website": "https://www.simon.com/mall/the-shops-at-chestnut-hill", "brand": "Simon Malls"}, "geometry": {"type": "Point", "coordinates": [-71.175989, 42.321335]}},
{"type": "Feature", "id": "xm9I-ueDvMPUaG3kQH3Ur8Ypxfo=", "properties": {"ref": "1236", "location_type": "MillsProperty", "@spider": "simonmalls", "addr:full": "20 City Blvd W, Orange, CA 92868", "addr:city": "Orange", "addr:state": "CA", "addr:postcode": "92868", "addr:country": "UNITED STATES", "name": "The Outlets at Orange", "phone": "(714) 769-4001", "website": "https://www.simon.com/mall/the-outlets-at-orange", "brand": "Simon Malls"}, "geometry": {"type": "Point", "coordinates": [-117.892613, 33.782786]}},
{"type": "Feature", "id": "pva-kvOv2SI54NsuhvXl3jna0Zk=", "properties": {"ref": "788", "location_type": "CommunityLifestyleCenter", "@spider": "simonmalls", "addr:full": "4400 Sharon Rd, Charlotte, NC 28211", "addr:city": "Charlotte", "addr:state": "NC", "addr:postcode": "28211", "addr:country": "UNITED STATES", "name": "SouthPark", "phone": "(704) 295-0975", "website": "https://www.simon.com/mall/southpark/map/", "brand": "Simon Malls"}, "geometry": {"type": "Point", "coordinates": [-80.831759, 35.152187]}},
{"type": "Feature", "id": "l4_sSnBs4PS0bTS6KzTFN3eSdOc=", "properties": {"ref": "1374", "location_type": "MillsProperty", "@spider": "simonmalls", "addr:full": "651 Kapkowski Rd, Elizabeth, NJ 07201", "addr:city": "Elizabeth", "addr:state": "NJ", "addr:postcode": "07201", "addr:country": "UNITED STATES", "name": "The Mills at Jersey Gardens", "phone": "(908) 436-3005", "website": "https://www.simon.com/mall/the-mills-at-jersey-gardens", "brand": "Simon Malls"}, "geometry": {"type": "Point", "coordinates": [-74.171582, 40.660114]}},
{"type": "Feature", "id": "2y7uVcFLuAf6XoPaIJCs-apiAIs=", "properties": {"ref": "337", "location_type": "RegionalMall", "@spider": "simonmalls", "addr:full": "1500 S Willow St, Manchester, NH 03103", "addr:city": "Manchester", "addr:state": "NH", "addr:postcode": "03103", "addr:country": "UNITED STATES", "name": "The Mall of New Hampshire", "phone": "(603) 669-0434", "website": "https://www.simon.com/mall/the-mall-of-new-hampshire", "brand": "Simon Malls"}, "geometry": {"type": "Point", "coordinates": [-71.431925, 42.955622]}},
{"type": "Feature", "id": "78rtU2Wk9M6_bsQj7mQLb07jukw=", "properties": {"ref": "347", "location_type": "RegionalMall", "@spider": "simonmalls", "addr:full": "99 Rockingham Park Blvd, Salem, NH 03079", "addr:city": "Salem", "addr:state": "NH", "addr:postcode": "03079", "addr:country": "UNITED STATES", "name": "The Mall at Rockingham Park", "phone": "(603) 894-5526", "website": "https://www.simon.com/mall/the-mall-at-rockingham-park", "brand": "Simon Malls"}, "geometry": {"type": "Point", "coordinates": [-71.231822, 42.767509]}},
{"type": "Feature", "id": "X1UOR7gS9S90q6_or0y1qRe9zBI=", "properties": {"ref": "805", "location_type": "RegionalMall", "@spider": "simonmalls", "addr:full": "5085 Westheimer Rd, Houston, TX 77056", "addr:city": "Houston", "addr:state": "TX", "addr:postcode": "77056", "addr:country": "UNITED STATES", "name": "The Galleria", "phone": "(713) 966-3500", "website": "https://www.simon.com/mall/the-galleria", "brand": "Simon Malls"}, "geometry": {"type": "Point", "coordinates": [-95.463434, 29.739195]}},
{"type": "Feature", "id": "baWQETFEaBxlHnM1xuVXc6re8EE=", "properties": {"ref": "224", "location_type": "RegionalMall", "@spider": "simonmalls", "addr:full": "3500 Las Vegas Blvd S, Las Vegas, NV 89109", "addr:city": "Las Vegas", "addr:state": "NV", "addr:postcode": "89109", "addr:country": "UNITED STATES", "name": "The Forum Shops at Caesars Palace", "phone": "(702) 893-3807", "website": "https://www.simon.com/mall/the-forum-shops-at-caesars-palace", "brand": "Simon Malls"}, "geometry": {"type": "Point", "coordinates": [-115.176126, 36.119001]}},
{"type": "Feature", "id": "sZb-ubOAAdD0ur3wHjaZUvdrJm8=", "properties": {"ref": "139", "location_type": "RegionalMall", "@spider": "simonmalls", "addr:full": "8001 S Orange Blossom Trail, Orlando, FL 32809", "addr:city": "Orlando", "addr:state": "FL", "addr:postcode": "32809", "addr:country": "UNITED STATES", "name": "The Florida Mall", "phone": "(407) 851-7234", "website": "https://www.simon.com/mall/the-florida-mall", "brand": "Simon Malls"}, "geometry": {"type": "Point", "coordinates": [-81.395509, 28.445924]}},
{"type": "Feature", "id": "5N-pyhzmS-5nevA92bzHFHbMjYA=", "properties": {"ref": "1232", "location_type": "RegionalMall", "@spider": "simonmalls", "addr:full": "8888 SW 136 St, Miami, FL 33176", "addr:city": "Miami", "addr:state": "FL", "addr:postcode": "33176", "addr:country": "UNITED STATES", "name": "The Falls", "phone": "(305) 255-4571", "website": "https://www.simon.com/mall/the-falls", "brand": "Simon Malls"}, "geometry": {"type": "Point", "coordinates": [-80.338372, 25.644235]}},
{"type": "Feature", "id": "G1xiKFeWfx0fIh2K_YtRnWRyr9Q=", "properties": {"ref": "166", "location_type": "RegionalMall", "@spider": "simonmalls", "addr:full": "8702 Keystone Crossing, Indianapolis, IN 46240", "addr:city": "Indianapolis", "addr:state": "IN", "addr:postcode": "46240", "addr:country": "UNITED STATES", "name": "The Fashion Mall at Keystone", "phone": "(317) 574-4002", "website": "https://www.simon.com/mall/the-fashion-mall-at-keystone", "brand": "Simon Malls"}, "geometry": {"type": "Point", "coordinates": [-86.109424, 39.914278]}},
{"type": "Feature", "id": "NlX53tGKtirvimfvVIjFg6k_wcM=", "properties": {"ref": "925", "location_type": "RegionalMall", "@spider": "simonmalls", "addr:full": "5000 W Empire Mall, Sioux Falls, SD 57106", "addr:city": "Sioux Falls", "addr:state": "SD", "addr:postcode": "57106", "addr:country": "UNITED STATES", "name": "The Empire Mall", "phone": "(605) 361-3301", "website": "https://www.simon.com/mall/the-empire-mall", "brand": "Simon Malls"}, "geometry": {"type": "Point", "coordinates": [-96.775808, 43.511156]}},
{"type": "Feature", "id": "uMNY8b2MrRDlhq_CXC5XRuGD1uY=", "properties": {"ref": "1207", "location_type": "RegionalMall", "@spider": "simonmalls", "addr:full": "11410 Century Oaks Terrace, Austin, TX 78758", "addr:city": "Austin", "addr:state": "TX", "addr:postcode": "78758", "addr:country": "UNITED STATES", "name": "The Domain", "phone": "(512) 873-8099", "website": "https://www.simon.com/mall/the-domain", "brand": "Simon Malls"}, "geometry": {"type": "Point", "coordinates": [-97.725883, 30.402065]}},
{"type": "Feature", "id": "PwpFmkhkFNNhGxJfOiLBZissL6Q=", "properties": {"ref": "124", "location_type": "RegionalMall", "@spider": "simonmalls", "addr:full": "10300 Southside Blvd, Jacksonville, FL 32256", "addr:city": "Jacksonville", "addr:state": "FL", "addr:postcode": "32256", "addr:country": "UNITED STATES", "name": "The Avenues", "phone": "(904) 363-3054", "website": "https://www.simon.com/mall/the-avenues", "brand": "Simon Malls"}, "geometry": {"type": "Point", "coordinates": [-81.554024, 30.184439]}},
{"type": "Feature", "id": "FKH3sgwRQzHGQyWcjLbyHRxMiGY=", "properties": {"ref": "238", "location_type": "RegionalMall", "@spider": "simonmalls", "addr:full": "4502 S Steele St, Tacoma, WA 98409", "addr:city": "Tacoma", "addr:state": "WA", "addr:postcode": "98409", "addr:country": "UNITED STATES", "name": "Tacoma Mall", "phone": "(253) 475-4566", "website": "https://www.simon.com/mall/tacoma-mall", "brand": "Simon Malls"}, "geometry": {"type": "Point", "coordinates": [-122.468741, 47.216092]}},
{"type": "Feature", "id": "4bEoGBxn6daURCle5TojiMZd-Nc=", "properties": {"ref": "161", "location_type": "RegionalMall", "@spider": "simonmalls", "addr:full": "3265 W Market St, Fairlawn, OH 44333", "addr:city": "Fairlawn", "addr:state": "OH", "addr:postcode": "44333", "addr:country": "UNITED STATES", "name": "Summit Mall", "phone": "(330) 867-6997", "website": "https://www.simon.com/mall/summit-mall", "brand": "Simon Malls"}, "geometry": {"type": "Point", "coordinates": [-81.617013, 41.133943]}},
{"type": "Feature", "id": "MZt_F96De2D2FfiMPnRZsuMMCo8=", "properties": {"ref": "1241", "location_type": "MillsProperty", "@spider": "simonmalls", "addr:full": "5900 Sugarloaf Pkwy, Lawrenceville, GA 30043", "addr:city": "Lawrenceville", "addr:state": "GA", "addr:postcode": "30043", "addr:country": "UNITED STATES", "name": "Sugarloaf Mills", "phone": "(678) 847-5226", "website": "https://www.simon.com/mall/sugarloaf-mills", "brand": "Simon Malls"}, "geometry": {"type": "Point", "coordinates": [-84.080965, 33.980671]}},
{"type": "Feature", "id": "z65GD8zQmwzaCzsw_xvXacX_9EE=", "properties": {"ref": "1242", "location_type": "RegionalMall", "@spider": "simonmalls", "addr:full": "1 Stoneridge Mall Rd, Pleasanton, CA 94588", "addr:city": "Pleasanton", "addr:state": "CA", "addr:postcode": "94588", "addr:country": "UNITED STATES", "name": "Stoneridge Shopping Center", "phone": "(925) 737-4100", "website": "https://www.simon.com/mall/stoneridge-shopping-center", "brand": "Simon Malls"}, "geometry": {"type": "Point", "coordinates": [-121.928845, 37.695266]}},
{"type": "Feature", "id": "jSY278hiO4_y3slqbG0P48ZSbco=", "properties": {"ref": "841", "location_type": "RegionalMall", "@spider": "simonmalls", "addr:full": "660 Stanford Shopping Ctr, Palo Alto, CA 94304", "addr:city": "Palo Alto", "addr:state": "CA", "addr:postcode": "94304", "addr:country": "UNITED STATES", "name": "Stanford Shopping Center", "phone": "(650) 617-8202", "website": "https://www.simon.com/mall/stanford-shopping-center", "brand": "Simon Malls"}, "geometry": {"type": "Point", "coordinates": [-122.171574, 37.443126]}},
{"type": "Feature", "id": "2Yo_7TlIxUx51yGO7dV3BY7bBHY=", "properties": {"ref": "897", "location_type": "OutletCenter", "@spider": "simonmalls", "addr:full": "1000 Premium Outlets Dr, Tannersville, PA 18372", "addr:city": "Tannersville", "addr:state": "PA", "addr:postcode": "18372", "addr:country": "UNITED STATES", "name": "The Crossings Premium Outlets", "phone": "(570) 629-4650", "website": "https://www.premiumoutlets.com/outlet/the-crossings", "brand": "Simon Malls"}, "geometry": {"type": "Point", "coordinates": [-75.312073, 41.047187]}},
{"type": "Feature", "id": "NcsjqM1foGtcvzUX6f7MFzHzhTg=", "properties": {"ref": "857", "location_type": "RegionalMall", "@spider": "simonmalls", "addr:full": "4663 River City Dr, Jacksonville, FL 32246", "addr:city": "Jacksonville", "addr:state": "FL", "addr:postcode": "32246", "addr:country": "UNITED STATES", "name": "St. Johns Town Center", "phone": "(904) 998-7507", "website": "https://www.simon.com/mall/st-johns-town-center", "brand": "Simon Malls"}, "geometry": {"type": "Point", "coordinates": [-81.525324, 30.256871]}},
{"type": "Feature", "id": "ahg_qhgcyKKPACAa-NYM_hCMj7Y=", "properties": {"ref": "123", "location_type": "RegionalMall", "@spider": "simonmalls", "addr:full": "11110 Mall Cir, Waldorf, MD 20603", "addr:city": "Waldorf", "addr:state": "MD", "addr:postcode": "20603", "addr:country": "UNITED STATES", "name": "St. Charles Towne Center", "phone": "(301) 870-6997", "website": "https://www.simon.com/mall/st-charles-towne-center", "brand": "Simon Malls"}, "geometry": {"type": "Point", "coordinates": [-76.925585, 38.617447]}},
{"type": "Feature", "id": "FpLqsO8UKjOZFWqtiNgkmc3Z0KE=", "properties": {"ref": "1429", "location_type": "OutletCenter", "@spider": "simonmalls", "addr:full": "225 West Washington St 10th Floor, Indianapolis, IN 46204", "addr:city": "Indianapolis", "addr:state": "IN", "addr:postcode": "46204", "addr:country": "UNITED STATES", "name": "Test Mall - Lab - Do not Delete", "phone": "(317) 263-1600", "website": "https://www.premiumoutlets.com/outlet/test-mall--lab--do-not-delete", "brand": "Simon Malls"}, "geometry": {"type": "Point", "coordinates": [-86.162329, 39.766824]}},
{"type": "Feature", "id": "p2y14Dt-kPsl4x0ak4KvYcDfvng=", "properties": {"ref": "340", "location_type": "RegionalMall", "@spider": "simonmalls", "addr:full": "1201 Broadway, Saugus, MA 01906", "addr:city": "Saugus", "addr:state": "MA", "addr:postcode": "01906", "addr:country": "UNITED STATES", "name": "Square One Mall", "phone": "(781) 231-9087", "website": "https://www.simon.com/mall/square-one-mall", "brand": "Simon Malls"}, "geometry": {"type": "Point", "coordinates": [-71.027447, 42.460834]}},
{"type": "Feature", "id": "pGbHH23n0eTayd4QLd-mCw6GYS0=", "properties": {"ref": "1378", "location_type": "OutletCenter", "@spider": "simonmalls", "addr:full": "2300 Grand Cypress Drive, Lutz, FL 33559", "addr:city": "Lutz", "addr:state": "FL", "addr:postcode": "33559", "addr:country": "UNITED STATES", "name": "Tampa Premium Outlets", "phone": "(813) 909-8716", "website": "https://www.premiumoutlets.com/outlet/tampa", "brand": "Simon Malls"}, "geometry": {"type": "Point", "coordinates": [-82.3906, 28.190354]}},
{"type": "Feature", "id": "ulB-LaZe-XDEHRCTH_qv5opPH6Y=", "properties": {"ref": "147", "location_type": "RegionalMall", "@spider": "simonmalls", "addr:full": "250 Granite St, Braintree, MA 02184", "addr:city": "Braintree", "addr:state": "MA", "addr:postcode": "02184", "addr:country": "UNITED STATES", "name": "South Shore Plaza", "phone": "(781) 843-8201", "website": "https://www.simon.com/mall/south-shore-plaza", "brand": "Simon Malls"}, "geometry": {"type": "Point", "coordinates": [-71.023768, 42.221995]}},
{"type": "Feature", "id": "z698jleckBI8EvdJKT01dCjJGts=", "properties": {"ref": "1249", "location_type": "RegionalMall", "@spider": "simonmalls", "addr:full": "10 Southdale Center, Edina, MN 55435", "addr:city": "Edina", "addr:state": "MN", "addr:postcode": "55435", "addr:country": "UNITED STATES", "name": "Southdale Center", "phone": "(952) 925-7874", "website": "https://www.simon.com/mall/southdale-center", "brand": "Simon Malls"}, "geometry": {"type": "Point", "coordinates": [-93.32478, 44.880658]}},
{"type": "Feature", "id": "S7qQ-J7ZmJ4CoxHsMCi19dsbN20=", "properties": {"ref": "159", "location_type": "RegionalMall", "@spider": "simonmalls", "addr:full": "301 S Hills Vlg, Pittsburgh, PA 15241", "addr:city": "Pittsburgh", "addr:state": "PA", "addr:postcode": "15241", "addr:country": "UNITED STATES", "name": "South Hills Village", "phone": "(412) 308-1373", "website": "https://www.simon.com/mall/south-hills-village", "brand": "Simon Malls"}, "geometry": {"type": "Point", "coordinates": [-80.056053, 40.342376]}},
{"type": "Feature", "id": "luIOKhuHzaBg_68Aeta3oLZquKY=", "properties": {"ref": "1363", "location_type": "OutletCenter", "@spider": "simonmalls", "addr:full": "18521 Outlet Blvd, Chesterfield, MO 63005", "addr:city": "Chesterfield", "addr:state": "MO", "addr:postcode": "63005", "addr:country": "UNITED STATES", "name": "St. Louis Premium Outlets", "phone": "(314) 399-8150", "website": "https://www.premiumoutlets.com/outlet/st-louis", "brand": "Simon Malls"}, "geometry": {"type": "Point", "coordinates": [-90.661463, 38.67742]}},
{"type": "Feature", "id": "M6H749j-bfAkFgBDjzDR-ylB95s=", "properties": {"ref": "103", "location_type": "RegionalMall", "@spider": "simonmalls", "addr:full": "313 Smith Haven Mall, Lake Grove, NY 11755", "addr:city": "Lake Grove", "addr:state": "NY", "addr:postcode": "11755", "addr:country": "UNITED STATES", "name": "Smith Haven Mall", "phone": "(631) 724-8066", "website": "https://www.simon.com/mall/smith-haven-mall", "brand": "Simon Malls"}, "geometry": {"type": "Point", "coordinates": [-73.130107, 40.864913]}},
{"type": "Feature", "id": "v1jR03eYI4JdW06mPFz-6rqP3Qs=", "properties": {"ref": "1262", "location_type": "MillsProperty", "@spider": "simonmalls", "addr:full": "12801 W Sunrise Blvd, Sunrise, FL 33323", "addr:city": "Sunrise", "addr:state": "FL", "addr:postcode": "33323", "addr:country": "UNITED STATES", "name": "Sawgrass Mills", "phone": "(954) 846-2300", "website": "https://www.simon.com/mall/sawgrass-mills", "brand": "Simon Malls"}, "geometry": {"type": "Point", "coordinates": [-80.320787, 26.151701]}},
{"type": "Feature", "id": "K59kGBzr8fAuU_2HELyainRrNak=", "properties": {"ref": "875", "location_type": "OutletCenter", "@spider": "simonmalls", "addr:full": "2700 State Road 16, St Augustine, FL 32092", "addr:city": "St Augustine", "addr:state": "FL", "addr:postcode": "32092", "addr:country": "UNITED STATES", "name": "St. Augustine Premium Outlets", "phone": "(904) 825-3627", "website": "https://www.premiumoutlets.com/outlet/st-augustine", "brand": "Simon Malls"}, "geometry": {"type": "Point", "coordinates": [-81.417068, 29.924017]}},
{"type": "Feature", "id": "rdx_NJBqsiTNXAqIpt-p4p6lXTY=", "properties": {"ref": "237", "location_type": "RegionalMall", "@spider": "simonmalls", "addr:full": "1071 Santa Rosa Plaza, Santa Rosa, CA 95401", "addr:city": "Santa Rosa", "addr:state": "CA", "addr:postcode": "95401", "addr:country": "UNITED STATES", "name": "Santa Rosa Plaza", "phone": "(707) 575-0115", "website": "https://www.simon.com/mall/santa-rosa-plaza", "brand": "Simon Malls"}, "geometry": {"type": "Point", "coordinates": [-122.716481, 38.438817]}},
{"type": "Feature", "id": "v9i0OGLMjnx1VoR7AaPQ9OKAD2A=", "properties": {"ref": "158", "location_type": "RegionalMall", "@spider": "simonmalls", "addr:full": "1000 Ross Park Mall Dr, Pittsburgh, PA 15237", "addr:city": "Pittsburgh", "addr:state": "PA", "addr:postcode": "15237", "addr:country": "UNITED STATES", "name": "Ross Park Mall", "phone": "(412) 369-4401", "website": "https://www.simon.com/mall/ross-park-mall", "brand": "Simon Malls"}, "geometry": {"type": "Point", "coordinates": [-80.008053, 40.543442]}},
{"type": "Feature", "id": "l0Wm3Qiu63YewyQPgLIiMocjs6k=", "properties": {"ref": "102", "location_type": "RegionalMall", "@spider": "simonmalls", "addr:full": "630 Old Country Rd, Garden City, NY 11530", "addr:city": "Garden City", "addr:state": "NY", "addr:postcode": "11530", "addr:country": "UNITED STATES", "name": "Roosevelt Field", "phone": "(516) 742-8001", "website": "https://www.simon.com/mall/roosevelt-field", "brand": "Simon Malls"}, "geometry": {"type": "Point", "coordinates": [-73.612808, 40.738063]}},
{"type": "Feature", "id": "LKRPRZyz3v42ydrwITU_YHGo63w=", "properties": {"ref": "116", "location_type": "RegionalMall", "@spider": "simonmalls", "addr:full": "301 Mount Hope Ave, Rockaway, NJ 07866", "addr:city": "Rockaway", "addr:state": "NJ", "addr:postcode": "07866", "addr:country": "UNITED STATES", "name": "Rockaway Townsquare", "phone": "(973) 361-4071", "website": "https://www.simon.com/mall/rockaway-townsquare", "brand": "Simon Malls"}, "geometry": {"type": "Point", "coordinates": [-74.553961, 40.907114]}},
{"type": "Feature", "id": "uTBrOHnT3IV5C6Y4JfUzBs_ldfo=", "properties": {"ref": "1348", "location_type": "OutletCenter", "@spider": "simonmalls", "addr:full": "10562 Emerald Coast Pkwy W, Destin, FL 32550", "addr:city": "Destin", "addr:state": "FL", "addr:postcode": "32550", "addr:country": "UNITED STATES", "name": "Silver Sands Premium Outlets", "phone": "(850) 337-0628", "website": "https://www.premiumoutlets.com/outlet/silver-sands", "brand": "Simon Malls"}, "geometry": {"type": "Point", "coordinates": [-86.348359, 30.37889]}},
{"type": "Feature", "id": "NbDSqmKIe2OSNWRPzKQHxRvXtdg=", "properties": {"ref": "917", "location_type": "OutletCenter", "@spider": "simonmalls", "addr:full": "10600 Quil Ceda Blvd, Tulalip, WA 98271", "addr:city": "Tulalip", "addr:state": "WA", "addr:postcode": "98271", "addr:country": "UNITED STATES", "name": "Seattle Premium Outlets", "phone": "(360) 716-3900", "website": "https://www.premiumoutlets.com/outlet/seattle", "brand": "Simon Malls"}, "geometry": {"type": "Point", "coordinates": [-122.188311, 48.093531]}},
{"type": "Feature", "id": "ZpxLAA1dOLcvAVe9lMXknJ6DYSA=", "properties": {"ref": "849", "location_type": "RegionalMall", "@spider": "simonmalls", "addr:full": "3320 US Highway 1 Unit 150, Lawrenceville, NJ 08648", "addr:city": "Lawrenceville", "addr:state": "NJ", "addr:postcode": "08648", "addr:country": "UNITED STATES", "name": "Quaker Bridge Mall", "phone": "(609) 799-8130", "website": "https://www.simon.com/mall/quaker-bridge-mall", "brand": "Simon Malls"}, "geometry": {"type": "Point", "coordinates": [-74.681631, 40.290861]}},
{"type": "Feature", "id": "QWHx5E9I6e64ol0T3vryWmhMTyY=", "properties": {"ref": "198", "location_type": "RegionalMall", "@spider": "simonmalls", "addr:full": "496 W Prien Lake Rd, Lake Charles, LA 70601", "addr:city": "Lake Charles", "addr:state": "LA", "addr:postcode": "70601", "addr:country": "UNITED STATES", "name": "Prien Lake Mall", "phone": "(337) 477-7487", "website": "https://www.simon.com/mall/prien-lake-mall", "brand": "Simon Malls"}, "geometry": {"type": "Point", "coordinates": [-93.226481, 30.200455]}},
{"type": "Feature", "id": "_yaBTngn_HQlPqNddSuR9f0xHtI=", "properties": {"ref": "1260", "location_type": "MillsProperty", "@spider": "simonmalls", "addr:full": "2700 Potomac Mills Cir, Woodbridge, VA 22192", "addr:city": "Woodbridge", "addr:state": "VA", "addr:postcode": "22192", "addr:country": "UNITED STATES", "name": "Potomac Mills", "phone": "(703) 496-9301", "website": "https://www.simon.com/mall/potomac-mills", "brand": "Simon Malls"}, "geometry": {"type": "Point", "coordinates": [-77.295063, 38.643339]}},
{"type": "Feature", "id": "MhMBLesAsp48HXiBc1WRo4cgjEk=", "properties": {"ref": "1337", "location_type": "OutletCenter", "@spider": "simonmalls", "addr:full": "3939 S Interstate 35 , San Marcos, TX 78666", "addr:city": "San Marcos", "addr:state": "TX", "addr:postcode": "78666", "addr:country": "UNITED STATES", "name": "San Marcos Premium Outlets", "phone": "(512) 396-2200", "website": "https://www.premiumoutlets.com/outlet/san-marcos", "brand": "Simon Malls"}, "geometry": {"type": "Point", "coordinates": [-97.987275, 29.824217]}},
{"type": "Feature", "id": "3jppDtZ0jXAS2ITuVZGmE6Zru7A=", "properties": {"ref": "1354", "location_type": "OutletCenter", "@spider": "simonmalls", "addr:full": "2774 Livermore Outlets Drive, Livermore, CA 94551", "addr:city": "Livermore", "addr:state": "CA", "addr:postcode": "94551", "addr:country": "UNITED STATES", "name": "San Francisco Premium Outlets", "phone": "(925) 292-8530", "website": "https://www.premiumoutlets.com/outlet/san-francisco", "brand": "Simon Malls"}, "geometry": {"type": "Point", "coordinates": [-121.845142, 37.698677]}},
{"type": "Feature", "id": "eQ_0nEuXvbufnGrNyPknWAqgfuQ=", "properties": {"ref": "1210", "location_type": "OutletCenter", "@spider": "simonmalls", "addr:full": "4401 N Interstate 35, Round Rock, TX 78664", "addr:city": "Round Rock", "addr:state": "TX", "addr:postcode": "78664", "addr:country": "UNITED STATES", "name": "Round Rock Premium Outlets", "phone": "(512) 819-0002", "website": "https://www.premiumoutlets.com/outlet/round-rock", "brand": "Simon Malls"}, "geometry": {"type": "Point", "coordinates": [-97.6897, 30.566409]}},
{"type": "Feature", "id": "mtvmO7WaRCcNIQtgIhOWRVG-sm0=", "properties": {"ref": "1204", "location_type": "CommunityLifestyleCenter", "@spider": "simonmalls", "addr:full": "600 Pier Park Dr, Panama City Beach, FL 32413", "addr:city": "Panama City Beach", "addr:state": "FL", "addr:postcode": "32413", "addr:country": "UNITED STATES", "name": "Pier Park", "phone": "(850) 236-9962", "website": "https://www.simon.com/mall/pier-park", "brand": "Simon Malls"}, "geometry": {"type": "Point", "coordinates": [-85.873475, 30.218135]}},
{"type": "Feature", "id": "YU1qHinzXKABHlO_7To3ELcoadA=", "properties": {"ref": "1215", "location_type": "OutletCenter", "@spider": "simonmalls", "addr:full": "5001 E Expressway 83, Mercedes, TX 78570", "addr:city": "Mercedes", "addr:state": "TX", "addr:postcode": "78570", "addr:country": "UNITED STATES", "name": "Rio Grande Valley Premium Outlets", "phone": "(956) 565-3910", "website": "https://www.premiumoutlets.com/outlet/rio-grande-valley", "brand": "Simon Malls"}, "geometry": {"type": "Point", "coordinates": [-97.887797, 26.162872]}},
{"type": "Feature", "id": "PNkOE4-lHRz9fH5MtYwP0Gf-O40=", "properties": {"ref": "1336", "location_type": "OutletCenter", "@spider": "simonmalls", "addr:full": "441 Outlet Center Dr, Queenstown, MD 21658", "addr:city": "Queenstown", "addr:state": "MD", "addr:postcode": "21658", "addr:country": "UNITED STATES", "name": "Queenstown Premium Outlets", "phone": "(410) 827-8699", "website": "https://www.premiumoutlets.com/outlet/queenstown", "brand": "Simon Malls"}, "geometry": {"type": "Point", "coordinates": [-76.159844, 38.983025]}},
{"type": "Feature", "id": "OIXvkzK_fJ6J48ZK9Et2RsPjd_w=", "properties": {"ref": "210", "location_type": "RegionalMall", "@spider": "simonmalls", "addr:full": "3500 Peachtree Rd NE, Atlanta, GA 30326", "addr:city": "Atlanta", "addr:state": "GA", "addr:postcode": "30326", "addr:country": "UNITED STATES", "name": "Phipps Plaza", "phone": "(404) 261-7910", "website": "https://www.simon.com/mall/phipps-plaza", "brand": "Simon Malls"}, "geometry": {"type": "Point", "coordinates": [-84.361986, 33.852544]}},
{"type": "Feature", "id": "db3Y0-eceG_plx1HERGyU7sBC3s=", "properties": {"ref": "1245", "location_type": "MillsProperty", "@spider": "simonmalls", "addr:full": "1455 Franklin Mills Cir, Philadelphia, PA 19154", "addr:city": "Philadelphia", "addr:state": "PA", "addr:postcode": "19154", "addr:country": "UNITED STATES", "name": "Philadelphia Mills", "phone": "(215) 613-2222", "website": "https://www.simon.com/mall/philadelphia-mills", "brand": "Simon Malls"}, "geometry": {"type": "Point", "coordinates": [-74.961623, 40.087492]}},
{"type": "Feature", "id": "V9ahlZuxVkA1ycFoiGFxsDXJY3o=", "properties": {"ref": "789", "location_type": "RegionalMall", "@spider": "simonmalls", "addr:full": "310 Daniel Webster Hwy, Nashua, NH 03060", "addr:city": "Nashua", "addr:state": "NH", "addr:postcode": "03060", "addr:country": "UNITED STATES", "name": "Pheasant Lane Mall", "phone": "(603) 888-0005", "website": "https://www.simon.com/mall/pheasant-lane-mall", "brand": "Simon Malls"}, "geometry": {"type": "Point", "coordinates": [-71.437365, 42.701125]}},
{"type": "Feature", "id": "Ia08jETDXQfRskw23vN2hQ8olSw=", "properties": {"ref": "1335", "location_type": "OutletCenter", "@spider": "simonmalls", "addr:full": "11211 120th Ave, Pleasant Prairie, WI 53158", "addr:city": "Pleasant Prairie", "addr:state": "WI", "addr:postcode": "53158", "addr:country": "UNITED STATES", "name": "Pleasant Prairie Premium Outlets", "phone": "(262) 857-3061", "website": "https://www.premiumoutlets.com/outlet/pleasant-prairie", "brand": "Simon Malls"}, "geometry": {"type": "Point", "coordinates": [-87.948435, 42.516663]}},
{"type": "Feature", "id": "H2Bec06zq6IbfLYM_4Qnu2QNn1I=", "properties": {"ref": "811", "location_type": "RegionalMall", "@spider": "simonmalls", "addr:full": "1901 NW Expressway, Oklahoma City, OK 73118", "addr:city": "Oklahoma City", "addr:state": "OK", "addr:postcode": "73118", "addr:country": "UNITED STATES", "name": "Penn Square Mall", "phone": "(405) 841-2696", "website": "https://www.simon.com/mall/penn-square-mall", "brand": "Simon Malls"}, "geometry": {"type": "Point", "coordinates": [-97.544411, 35.524848]}},
{"type": "Feature", "id": "2RHJygPx3crm-Z2tXfi-4zSj6PI=", "properties": {"ref": "1334", "location_type": "OutletCenter", "@spider": "simonmalls", "addr:full": "333 Five Cities Dr , Pismo Beach, CA 93449", "addr:city": "Pismo Beach", "addr:state": "CA", "addr:postcode": "93449", "addr:country": "UNITED STATES", "name": "Pismo Beach Premium Outlets", "phone": "(805) 773-4662", "website": "https://www.premiumoutlets.com/outlet/pismo-beach", "brand": "Simon Malls"}, "geometry": {"type": "Point", "coordinates": [-120.627833, 35.135435]}},
{"type": "Feature", "id": "IQkb02R7J4A6XXZ9xG2oeeM5VMo=", "properties": {"ref": "848", "location_type": "RegionalMall", "@spider": "simonmalls", "addr:full": "2300 E Lincoln Hwy, Langhorne, PA 19047", "addr:city": "Langhorne", "addr:state": "PA", "addr:postcode": "19047", "addr:country": "UNITED STATES", "name": "Oxford Valley Mall", "phone": "(215) 752-0845", "website": "https://www.simon.com/mall/oxford-valley-mall", "brand": "Simon Malls"}, "geometry": {"type": "Point", "coordinates": [-74.880624, 40.183816]}},
{"type": "Feature", "id": "SMS-B25A2p1eSau3GXA35BqiMQc=", "properties": {"ref": "1351", "location_type": "OutletCenter", "@spider": "simonmalls", "addr:full": "4976 Premium Outlet Way  , Chandler, AZ 85226", "addr:city": "Chandler", "addr:state": "AZ", "addr:postcode": "85226", "addr:country": "UNITED STATES", "name": "Phoenix Premium Outlets", "phone": "(480) 639-1764", "website": "https://www.premiumoutlets.com/outlet/phoenix", "brand": "Simon Malls"}, "geometry": {"type": "Point", "coordinates": [-111.973491, 33.287609]}},
{"type": "Feature", "id": "zQMz9ltG5QMDnLWThhQ41zQ49pw=", "properties": {"ref": "1269", "location_type": "OutletCenter", "@spider": "simonmalls", "addr:full": "18 W Lightcap Rd, Pottstown, PA 19464", "addr:city": "Pottstown", "addr:state": "PA", "addr:postcode": "19464", "addr:country": "UNITED STATES", "name": "Philadelphia Premium Outlets", "phone": "(610) 718-9051", "website": "https://www.premiumoutlets.com/outlet/philadelphia", "brand": "Simon Malls"}, "geometry": {"type": "Point", "coordinates": [-75.570563, 40.236614]}},
{"type": "Feature", "id": "NpJ-qCRt2m69APpk6Ey2YaYe_ZA=", "properties": {"ref": "189", "location_type": "RegionalMall", "@spider": "simonmalls", "addr:full": "288 Orland Square Dr, Orland Park, IL 60462", "addr:city": "Orland Park", "addr:state": "IL", "addr:postcode": "60462", "addr:country": "UNITED STATES", "name": "Orland Square", "phone": "(708) 349-1647", "website": "https://www.simon.com/mall/orland-square", "brand": "Simon Malls"}, "geometry": {"type": "Point", "coordinates": [-87.848246, 41.619726]}},
{"type": "Feature", "id": "v5RZNdNYblhDDZLUAZ4j_aN4KXs=", "properties": {"ref": "1259", "location_type": "MillsProperty", "@spider": "simonmalls", "addr:full": "433 Opry Mills Dr, Nashville, TN 37214", "addr:city": "Nashville", "addr:state": "TN", "addr:postcode": "37214", "addr:country": "UNITED STATES", "name": "Opry Mills", "phone": "(615) 514-1100", "website": "https://www.simon.com/mall/opry-mills", "brand": "Simon Malls"}, "geometry": {"type": "Point", "coordinates": [-86.692944, 36.204711]}},
{"type": "Feature", "id": "CZv0lfvYQf1Y6E--aQNAqnWquzo=", "properties": {"ref": "1258", "location_type": "MillsProperty", "@spider": "simonmalls", "addr:full": "1 Mills Cir, Ontario, CA 91764", "addr:city": "Ontario", "addr:state": "CA", "addr:postcode": "91764", "addr:country": "UNITED STATES", "name": "Ontario Mills", "phone": "(909) 484-8301", "website": "https://www.simon.com/mall/ontario-mills", "brand": "Simon Malls"}, "geometry": {"type": "Point", "coordinates": [-117.551993, 34.072984]}},
{"type": "Feature", "id": "5vEWmjnxfPcxUOQ4CejtfdbnGHg=", "properties": {"ref": "871", "location_type": "OutletCenter", "@spider": "simonmalls", "addr:full": "2200 Petaluma Blvd N, Petaluma, CA 94952", "addr:city": "Petaluma", "addr:state": "CA", "addr:postcode": "94952", "addr:country": "UNITED STATES", "name": "Petaluma Village Premium Outlets", "phone": "(707) 778-7452", "website": "https://www.premiumoutlets.com/outlet/petaluma-village", "brand": "Simon Malls"}, "geometry": {"type": "Point", "coordinates": [-122.649897, 38.256944]}},
{"type": "Feature", "id": "QfPEBuR3zNTxOSxJNMidd9ydW8Y=", "properties": {"ref": "115", "location_type": "RegionalMall", "@spider": "simonmalls", "addr:full": "1201 Hooper Ave, Toms River, NJ 08753", "addr:city": "Toms River", "addr:state": "NJ", "addr:postcode": "08753", "addr:country": "UNITED STATES", "name": "Ocean County Mall", "phone": "(732) 244-8201", "website": "https://www.simon.com/mall/ocean-county-mall", "brand": "Simon Malls"}, "geometry": {"type": "Point", "coordinates": [-74.178014, 39.98063]}},
{"type": "Feature", "id": "_oKJdWXqu7dSTfOgUFbxtasC03U=", "properties": {"ref": "338", "location_type": "RegionalMall", "@spider": "simonmalls", "addr:full": "210 Andover St, Peabody, MA 01960", "addr:city": "Peabody", "addr:state": "MA", "addr:postcode": "01960", "addr:country": "UNITED STATES", "name": "Northshore Mall", "phone": "(978) 531-3441", "website": "https://www.simon.com/mall/northshore-mall", "brand": "Simon Malls"}, "geometry": {"type": "Point", "coordinates": [-70.944278, 42.540781]}},
{"type": "Feature", "id": "jDYumt0q8UbiDi8q3t-4nVouZnM=", "properties": {"ref": "236", "location_type": "RegionalMall", "@spider": "simonmalls", "addr:full": "401 NE Northgate Way, Seattle, WA 98125", "addr:city": "Seattle", "addr:state": "WA", "addr:postcode": "98125", "addr:country": "UNITED STATES", "name": "Northgate Station", "phone": "(206) 362-4778", "website": "https://www.simon.com/mall/northgate-station", "brand": "Simon Malls"}, "geometry": {"type": "Point", "coordinates": [-122.325865, 47.706123]}},
{"type": "Feature", "id": "EHvIDRaJ7IDMkJsBNnJJMgGKn-c=", "properties": {"ref": "885", "location_type": "OutletCenter", "@spider": "simonmalls", "addr:full": "4540 Osage Beach Pkwy, Osage Beach, MO 65065", "addr:city": "Osage Beach", "addr:state": "MO", "addr:postcode": "65065", "addr:country": "UNITED STATES", "name": "Osage Beach Outlet Marketplace", "phone": "(573) 348-2065", "website": "https://www.premiumoutlets.com/outlet/osage-beach-outlet-marketplace", "brand": "Simon Malls"}, "geometry": {"type": "Point", "coordinates": [-92.62728, 38.143883]}},
{"type": "Feature", "id": "fuSYKBMLSB0I3s1yE28m6wfJo-8=", "properties": {"ref": "874", "location_type": "OutletCenter", "@spider": "simonmalls", "addr:full": "8200 Vineland Ave, Orlando, FL 32821", "addr:city": "Orlando", "addr:state": "FL", "addr:postcode": "32821", "addr:country": "UNITED STATES", "name": "Orlando Vineland Premium Outlets", "phone": "(407) 238-0703", "website": "https://www.premiumoutlets.com/outlet/orlando-vineland", "brand": "Simon Malls"}, "geometry": {"type": "Point", "coordinates": [-81.492364, 28.387174]}},
{"type": "Feature", "id": "YyMroi_uAcDIkDDlAMh1XrpoliU=", "properties": {"ref": "1333", "location_type": "OutletCenter", "@spider": "simonmalls", "addr:full": "5269 International Dr, Orlando, FL 32819", "addr:city": "Orlando", "addr:state": "FL", "addr:postcode": "32819", "addr:country": "UNITED STATES", "name": "Orlando Outlet Marketplace", "phone": "(407) 352-9600", "website": "https://www.premiumoutlets.com/outlet/orlando-outlet-marketplace", "brand": "Simon Malls"}, "geometry": {"type": "Point", "coordinates": [-81.45211, 28.468138]}},
{"type": "Feature", "id": "4o2EvAgkWea9BJdX8us582hkPdk=", "properties": {"ref": "1332", "location_type": "OutletCenter", "@spider": "simonmalls", "addr:full": "4951 International Dr, Orlando, FL 32819", "addr:city": "Orlando", "addr:state": "FL", "addr:postcode": "32819", "addr:country": "UNITED STATES", "name": "Orlando International Premium Outlets", "phone": "(407) 352-9611", "website": "https://www.premiumoutlets.com/outlet/orlando-international", "brand": "Simon Malls"}, "geometry": {"type": "Point", "coordinates": [-81.451358, 28.474689]}},
{"type": "Feature", "id": "OrnALPmBRoGFIS5mzPtJ9Fa76oU=", "properties": {"ref": "220", "location_type": "RegionalMall", "@spider": "simonmalls", "addr:full": "1101 Melbourne Rd, Hurst, TX 76053", "addr:city": "Hurst", "addr:state": "TX", "addr:postcode": "76053", "addr:country": "UNITED STATES", "name": "North East Mall", "phone": "(817) 589-9603", "website": "https://www.simon.com/mall/north-east-mall", "brand": "Simon Malls"}, "geometry": {"type": "Point", "coordinates": [-97.199768, 32.829864]}},
{"type": "Feature", "id": "ymCgskRwqCNsKrT0l6wMefAUuqo=", "properties": {"ref": "985", "location_type": "RegionalMall", "@spider": "simonmalls", "addr:full": "125 18th St, Jersey City , NJ 07310", "addr:city": "Jersey City", "addr:state": "NJ", "addr:postcode": "07310", "addr:country": "UNITED STATES", "name": "Newport Plaza", "phone": "(201) 626-2078", "website": "https://www.simon.com/mall/newport-plaza", "brand": "Simon Malls"}, "geometry": {"type": "Point", "coordinates": [-74.040513, 40.734576]}},
{"type": "Feature", "id": "J7_hZNIZANfWMqZm_FXhnLwCspU=", "properties": {"ref": "114", "location_type": "RegionalMall", "@spider": "simonmalls", "addr:full": "30 Mall Dr W, Jersey City, NJ 07310", "addr:city": "Jersey City", "addr:state": "NJ", "addr:postcode": "07310", "addr:country": "UNITED STATES", "name": "Newport Centre", "phone": "(201) 626-2078", "website": "https://www.simon.com/mall/newport-centre", "brand": "Simon Malls"}, "geometry": {"type": "Point", "coordinates": [-74.038087, 40.726921]}},
{"type": "Feature", "id": "12Vy9NX7QHzzBrIfzA9KtmBA5cQ=", "properties": {"ref": "986", "location_type": "RegionalMall", "@spider": "simonmalls", "addr:full": "613 Washington Blvd, Jersey City, NJ 07310", "addr:city": "Jersey City", "addr:state": "NJ", "addr:postcode": "07310", "addr:country": "UNITED STATES", "name": "Newport Crossing", "phone": "(201) 626-2078", "website": "https://www.simon.com/mall/newport-crossing", "brand": "Simon Malls"}, "geometry": {"type": "Point", "coordinates": [-74.035188, 40.730704]}},
{"type": "Feature", "id": "UTT6q7ZQo2Hjzygi2KRlD5MGDT0=", "properties": {"ref": "185", "location_type": "RegionalMall", "@spider": "simonmalls", "addr:full": "1600 Miller Trunk Hwy, Duluth, MN 55811", "addr:city": "Duluth", "addr:state": "MN", "addr:postcode": "55811", "addr:country": "UNITED STATES", "name": "Miller Hill Mall", "phone": "(218) 733-9101", "website": "https://www.simon.com/mall/miller-hill-mall", "brand": "Simon Malls"}, "geometry": {"type": "Point", "coordinates": [-92.159103, 46.803437]}},
{"type": "Feature", "id": "l6Ux_8_v_gz_-xjFW-mJc90ukkU=", "properties": {"ref": "218", "location_type": "RegionalMall", "@spider": "simonmalls", "addr:full": "4511 N Midkiff Dr, Midland, TX 79705", "addr:city": "Midland", "addr:state": "TX", "addr:postcode": "79705", "addr:country": "UNITED STATES", "name": "Midland Park Mall", "phone": "(432) 694-1664", "website": "https://www.simon.com/mall/midland-park-mall", "brand": "Simon Malls"}, "geometry": {"type": "Point", "coordinates": [-102.131735, 32.030406]}},
{"type": "Feature", "id": "kCkRxNtV--dcAjIg2Y6LACrhkEY=", "properties": {"ref": "141", "location_type": "RegionalMall", "@spider": "simonmalls", "addr:full": "1455 NW 107th Ave, Doral, FL 33172", "addr:city": "Doral", "addr:state": "FL", "addr:postcode": "33172", "addr:country": "UNITED STATES", "name": "Miami International Mall", "phone": "(305) 593-1777", "website": "https://www.simon.com/mall/miami-international-mall", "brand": "Simon Malls"}, "geometry": {"type": "Point", "coordinates": [-80.36496, 25.786671]}},
{"type": "Feature", "id": "3nlSfPO1IgGURPBpsvwQQjVJTIc=", "properties": {"ref": "113", "location_type": "RegionalMall", "@spider": "simonmalls", "addr:full": "55 Parsonage Rd, Edison, NJ 08837", "addr:city": "Edison", "addr:state": "NJ", "addr:postcode": "08837", "addr:country": "UNITED STATES", "name": "Menlo Park Mall", "phone": "(732) 549-1900", "website": "https://www.simon.com/mall/menlo-park-mall", "brand": "Simon Malls"}, "geometry": {"type": "Point", "coordinates": [-74.335532, 40.547728]}},
{"type": "Feature", "id": "51TuGxHmc5Q9_ewkwCARMX4ThA4=", "properties": {"ref": "876", "location_type": "OutletCenter", "@spider": "simonmalls", "addr:full": "800 Highway 400 S, Dawsonville, GA 30534", "addr:city": "Dawsonville", "addr:state": "GA", "addr:postcode": "30534", "addr:country": "UNITED STATES", "name": "North Georgia Premium Outlets", "phone": "(706) 216-3609", "website": "https://www.premiumoutlets.com/outlet/north-georgia", "brand": "Simon Malls"}, "geometry": {"type": "Point", "coordinates": [-84.048106, 34.35688]}},
{"type": "Feature", "id": "8_4a0zpghfrsHklXMIOhZZLzumM=", "properties": {"ref": "1256", "location_type": "RegionalMall", "@spider": "simonmalls", "addr:full": "5000 Meadowood Mall Cir, Reno, NV 89502", "addr:city": "Reno", "addr:state": "NV", "addr:postcode": "89502", "addr:country": "UNITED STATES", "name": "Meadowood Mall", "phone": "(775) 827-8451", "website": "https://www.simon.com/mall/meadowood-mall", "brand": "Simon Malls"}, "geometry": {"type": "Point", "coordinates": [-119.78282, 39.473896]}},
{"type": "Feature", "id": "dpY2g8-Cdq_A6R9yAlH9i6bjfAM=", "properties": {"ref": "1382", "location_type": "OutletCenter", "@spider": "simonmalls", "addr:full": "1600 Premium Outlets Blvd, Norfolk, VA 23502", "addr:city": "Norfolk", "addr:state": "VA", "addr:postcode": "23502", "addr:country": "UNITED STATES", "name": "Norfolk Premium Outlets", "phone": "(757) 673-6427", "website": "https://www.premiumoutlets.com/outlet/norfolk", "brand": "Simon Malls"}, "geometry": {"type": "Point", "coordinates": [-76.199552, 36.882107]}},
{"type": "Feature", "id": "9eesOZex0VK1Ycg0RPfKL6C9Ybg=", "properties": {"ref": "208", "location_type": "RegionalMall", "@spider": "simonmalls", "addr:full": "3333 Buford Dr, Buford, GA 30519", "addr:city": "Buford", "addr:state": "GA", "addr:postcode": "30519", "addr:country": "UNITED STATES", "name": "Mall of Georgia", "phone": "(770) 271-9458", "website": "https://www.simon.com/mall/mall-of-georgia", "brand": "Simon Malls"}, "geometry": {"type": "Point", "coordinates": [-83.984484, 34.065141]}},
{"type": "Feature", "id": "MuTBnJVVfHOjwDMfwodBEbxW_uY=", "properties": {"ref": "196", "location_type": "RegionalMall", "@spider": "simonmalls", "addr:full": "3929 McCain Blvd, North Little Rock, AR 72116", "addr:city": "North Little Rock", "addr:state": "AR", "addr:postcode": "72116", "addr:country": "UNITED STATES", "name": "McCain Mall", "phone": "(501) 758-6317", "website": "https://www.simon.com/mall/mccain-mall", "brand": "Simon Malls"}, "geometry": {"type": "Point", "coordinates": [-92.226538, 34.7928]}},
{"type": "Feature", "id": "qER-U_IW55SE99H-eSQBumrJvT0=", "properties": {"ref": "901", "location_type": "OutletCenter", "@spider": "simonmalls", "addr:full": "461 S Fork Ave SW, North Bend, WA 98045", "addr:city": "North Bend", "addr:state": "WA", "addr:postcode": "98045", "addr:country": "UNITED STATES", "name": "North Bend Premium Outlets", "phone": "(425) 888-4505", "website": "https://www.premiumoutlets.com/outlet/north-bend", "brand": "Simon Malls"}, "geometry": {"type": "Point", "coordinates": [-121.795576, 47.490978]}},
{"type": "Feature", "id": "BqqW_C_dWBCaf00cA2rKLY1ieL8=", "properties": {"ref": "111", "location_type": "RegionalMall", "@spider": "simonmalls", "addr:full": "112 Eisenhower Pkwy, Livingston, NJ 07039", "addr:city": "Livingston", "addr:state": "NJ", "addr:postcode": "07039", "addr:country": "UNITED STATES", "name": "Livingston Mall", "phone": "(973) 994-9391", "website": "https://www.simon.com/mall/livingston-mall", "brand": "Simon Malls"}, "geometry": {"type": "Point", "coordinates": [-74.353789, 40.776901]}},
{"type": "Feature", "id": "RkTF-CugEfyNoJEgTC9M2_wTZ28=", "properties": {"ref": "870", "location_type": "OutletCenter", "@spider": "simonmalls", "addr:full": "629 Factory Stores Dr, Napa, CA 94558", "addr:city": "Napa", "addr:state": "CA", "addr:postcode": "94558", "addr:country": "UNITED STATES", "name": "Napa Premium Outlets", "phone": "(707) 226-6219", "website": "https://www.premiumoutlets.com/outlet/napa", "brand": "Simon Malls"}, "geometry": {"type": "Point", "coordinates": [-122.303059, 38.296079]}},
{"type": "Feature", "id": "yUGHPo_kTgRFMo-tARImk5wbG3M=", "properties": {"ref": "1308", "location_type": "CommunityLifestyleCenter", "@spider": "simonmalls", "addr:full": "135 Independence Way, Danvers, MA 01923", "addr:city": "Danvers", "addr:state": "MA", "addr:postcode": "01923", "addr:country": "UNITED STATES", "name": "Liberty Tree Strip", "phone": "(978) 777-0795", "website": "https://www.simon.com/mall/liberty-tree-strip", "brand": "Simon Malls"}, "geometry": {"type": "Point", "coordinates": [-70.939858, 42.551452]}},
{"type": "Feature", "id": "u76IcTT4kPVAsiYnZmEwGNEj1R0=", "properties": {"ref": "207", "location_type": "RegionalMall", "@spider": "simonmalls", "addr:full": "3393 Peachtree Rd NE, Atlanta, GA 30326", "addr:city": "Atlanta", "addr:state": "GA", "addr:postcode": "30326", "addr:country": "UNITED STATES", "name": "Lenox Square", "phone": "(404) 233-7575", "website": "https://www.simon.com/mall/lenox-square", "brand": "Simon Malls"}, "geometry": {"type": "Point", "coordinates": [-84.362142, 33.846292]}},
{"type": "Feature", "id": "cjYuGPFzCg58pSBU3tvgb6nl1pQ=", "properties": {"ref": "346", "location_type": "RegionalMall", "@spider": "simonmalls", "addr:full": "100 Independence Way, Danvers, MA 01923", "addr:city": "Danvers", "addr:state": "MA", "addr:postcode": "01923", "addr:country": "UNITED STATES", "name": "Liberty Tree Mall", "phone": "(978) 777-0795", "website": "https://www.simon.com/mall/liberty-tree-mall", "brand": "Simon Malls"}, "geometry": {"type": "Point", "coordinates": [-70.940105, 42.552709]}},
{"type": "Feature", "id": "ZFNgAxPunadRllXH0Pl5fA68MNk=", "properties": {"ref": "846", "location_type": "RegionalMall", "@spider": "simonmalls", "addr:full": "250 Lehigh Valley Mall, Whitehall, PA 18052", "addr:city": "Whitehall", "addr:state": "PA", "addr:postcode": "18052", "addr:country": "UNITED STATES", "name": "Lehigh Valley Mall", "phone": "(610) 264-5511", "website": "https://www.simon.com/mall/lehigh-valley-mall", "brand": "Simon Malls"}, "geometry": {"type": "Point", "coordinates": [-75.480104, 40.630904]}},
{"type": "Feature", "id": "CkdagNkhoeBpN6AytwyNooK6prE=", "properties": {"ref": "1268", "location_type": "OutletCenter", "@spider": "simonmalls", "addr:full": "80 Premium Outlets Blvd, Merrimack, NH 03054", "addr:city": "Merrimack", "addr:state": "NH", "addr:postcode": "03054", "addr:country": "UNITED STATES", "name": "Merrimack Premium Outlets", "phone": "(603) 424-6287", "website": "https://www.premiumoutlets.com/outlet/merrimack", "brand": "Simon Malls"}, "geometry": {"type": "Point", "coordinates": [-71.500786, 42.825759]}},
{"type": "Feature", "id": "OTpyG7BZOiDoq5UNMPo8JZq7JvQ=", "properties": {"ref": "227", "location_type": "RegionalMall", "@spider": "simonmalls", "addr:full": "11200 Lakeline Mall Dr, Cedar Park, TX 78613", "addr:city": "Cedar Park", "addr:state": "TX", "addr:postcode": "78613", "addr:country": "UNITED STATES", "name": "Lakeline  Mall", "phone": "(512) 257-8501", "website": "https://www.simon.com/mall/lakeline-mall", "brand": "Simon Malls"}, "geometry": {"type": "Point", "coordinates": [-97.806959, 30.470378]}},
{"type": "Feature", "id": "MHcu7CdisN-D_LtvYt2tXEmeE48=", "properties": {"ref": "226", "location_type": "RegionalMall", "@spider": "simonmalls", "addr:full": "2200 S 10th St, McAllen, TX 78503", "addr:city": "McAllen", "addr:state": "TX", "addr:postcode": "78503", "addr:country": "UNITED STATES", "name": "La Plaza Mall", "phone": "(956) 972-5454", "website": "https://www.simon.com/mall/la-plaza-mall", "brand": "Simon Malls"}, "geometry": {"type": "Point", "coordinates": [-98.235896, 26.184866]}},
{"type": "Feature", "id": "5nOLay_LZEkQhbHsyXJjv0jDtLM=", "properties": {"ref": "845", "location_type": "RegionalMall", "@spider": "simonmalls", "addr:full": "160 N Gulph Rd, King of Prussia, PA 19406", "addr:city": "King of Prussia", "addr:state": "PA", "addr:postcode": "19406", "addr:country": "UNITED STATES", "name": "King of Prussia", "phone": "(610) 265-5794", "website": "https://www.simon.com/mall/king-of-prussia", "brand": "Simon Malls"}, "geometry": {"type": "Point", "coordinates": [-75.390953, 40.088227]}},
{"type": "Feature", "id": "1l75Gusu6ke7_f7kizj0JoTMncU=", "properties": {"ref": "880", "location_type": "OutletCenter", "@spider": "simonmalls", "addr:full": "601 Wabash St, Michigan City, IN 46360", "addr:city": "Michigan City", "addr:state": "IN", "addr:postcode": "46360", "addr:country": "UNITED STATES", "name": "Lighthouse Place Premium Outlets", "phone": "(219) 874-2915", "website": "https://www.premiumoutlets.com/outlet/lighthouse-place", "brand": "Simon Malls"}, "geometry": {"type": "Point", "coordinates": [-86.906732, 41.714591]}},
{"type": "Feature", "id": "dA0tsW2KHiMkat5ekBCVwGzg1Vk=", "properties": {"ref": "1253", "location_type": "MillsProperty", "@spider": "simonmalls", "addr:full": "5000 Katy Mills Cir, Katy, TX 77494", "addr:city": "Katy", "addr:state": "TX", "addr:postcode": "77494", "addr:country": "UNITED STATES", "name": "Katy Mills", "phone": "(281) 644-5015", "website": "https://www.simon.com/mall/katy-mills", "brand": "Simon Malls"}, "geometry": {"type": "Point", "coordinates": [-95.80937, 29.775746]}},
{"type": "Feature", "id": "odKAqnkHzNlVuTE4Em6knHHGEFQ=", "properties": {"ref": "1330", "location_type": "OutletCenter", "@spider": "simonmalls", "addr:full": "17 Premium Outlets Blvd, Lee, MA 01238", "addr:city": "Lee", "addr:state": "MA", "addr:postcode": "01238", "addr:country": "UNITED STATES", "name": "Lee Premium Outlets", "phone": "(413) 243-2063", "website": "https://www.premiumoutlets.com/outlet/lee", "brand": "Simon Malls"}, "geometry": {"type": "Point", "coordinates": [-73.234177, 42.294464]}},
{"type": "Feature", "id": "ojA8JNIPqjm89BB2P24Mga_jkHM=", "properties": {"ref": "886", "location_type": "OutletCenter", "@spider": "simonmalls", "addr:full": "7400 Las Vegas Blvd S, Las Vegas, NV 89123", "addr:city": "Las Vegas", "addr:state": "NV", "addr:postcode": "89123", "addr:country": "UNITED STATES", "name": "Las Vegas South Premium Outlets", "phone": "(702) 896-2247", "website": "https://www.premiumoutlets.com/outlet/las-vegas-south", "brand": "Simon Malls"}, "geometry": {"type": "Point", "coordinates": [-115.168928, 36.053933]}},
{"type": "Feature", "id": "T9fK7II_4IyG-xApGx6AUSOq3Ew=", "properties": {"ref": "887", "location_type": "OutletCenter", "@spider": "simonmalls", "addr:full": "875 S Grand Central Pkwy, Las Vegas, NV 89106", "addr:city": "Las Vegas", "addr:state": "NV", "addr:postcode": "89106", "addr:country": "UNITED STATES", "name": "Las Vegas North Premium Outlets", "phone": "(702) 474-7500", "website": "https://www.premiumoutlets.com/outlet/las-vegas-north", "brand": "Simon Malls"}, "geometry": {"type": "Point", "coordinates": [-115.157749, 36.163651]}},
{"type": "Feature", "id": "eLp4Z7_V3eZzubrpoEFPXnFtmAI=", "properties": {"ref": "899", "location_type": "OutletCenter", "@spider": "simonmalls", "addr:full": "241 Fort Evans Rd NE, Leesburg, VA 20176", "addr:city": "Leesburg", "addr:state": "VA", "addr:postcode": "20176", "addr:country": "UNITED STATES", "name": "Leesburg Premium Outlets", "phone": "(703) 737-3077", "website": "https://www.premiumoutlets.com/outlet/leesburg", "brand": "Simon Malls"}, "geometry": {"type": "Point", "coordinates": [-77.538453, 39.106767]}},
{"type": "Feature", "id": "OwV8o_EdK35a2Hj5IxJUJyjob8w=", "properties": {"ref": "1278", "location_type": "OutletCenter", "@spider": "simonmalls", "addr:full": "4211 Camino de la Plaza, San Diego, CA 92173", "addr:city": "San Diego", "addr:state": "CA", "addr:postcode": "92173", "addr:country": "UNITED STATES", "name": "Las Americas Premium Outlets", "phone": "(619) 934-9022", "website": "https://www.premiumoutlets.com/outlet/las-americas", "brand": "Simon Malls"}, "geometry": {"type": "Point", "coordinates": [-117.041465, 32.543694]}},
{"type": "Feature", "id": "TYD-AX1WbFMKuc3GT2Cd56Y59ao=", "properties": {"ref": "881", "location_type": "OutletCenter", "@spider": "simonmalls", "addr:full": "375 US Route 1, Kittery, ME 03904", "addr:city": "Kittery", "addr:state": "ME", "addr:postcode": "03904", "addr:country": "UNITED STATES", "name": "Kittery Premium Outlets", "phone": "(207) 439-7993", "website": "https://www.premiumoutlets.com/outlet/kittery", "brand": "Simon Malls"}, "geometry": {"type": "Point", "coordinates": [-70.73081, 43.115225]}},
{"type": "Feature", "id": "MTfximni0eIqpE2xeiv3PT4tLCc=", "properties": {"ref": "206", "location_type": "RegionalMall", "@spider": "simonmalls", "addr:full": "700 Haywood Rd, Greenville, SC 29607", "addr:city": "Greenville", "addr:state": "SC", "addr:postcode": "29607", "addr:country": "UNITED STATES", "name": "Haywood Mall", "phone": "(864) 288-0512", "website": "https://www.simon.com/mall/haywood-mall", "brand": "Simon Malls"}, "geometry": {"type": "Point", "coordinates": [-82.333378, 34.849831]}},
{"type": "Feature", "id": "lmGFmfL_0VhNQFHuVOd2sLS21cs=", "properties": {"ref": "1214", "location_type": "CommunityLifestyleCenter", "@spider": "simonmalls", "addr:full": "13901 Town Center Blvd, Noblesville, IN 46060", "addr:city": "Noblesville", "addr:state": "IN", "addr:postcode": "46060", "addr:country": "UNITED STATES", "name": "Hamilton Town Center", "phone": "(317) 214-6956", "website": "https://www.simon.com/mall/hamilton-town-center", "brand": "Simon Malls"}, "geometry": {"type": "Point", "coordinates": [-85.931567, 39.991545]}},
{"type": "Feature", "id": "T8nOKPrV2svIg2W1CmWNeTa17xI=", "properties": {"ref": "1251", "location_type": "MillsProperty", "@spider": "simonmalls", "addr:full": "6170 W Grand Ave, Gurnee, IL 60031", "addr:city": "Gurnee", "addr:state": "IL", "addr:postcode": "60031", "addr:country": "UNITED STATES", "name": "Gurnee Mills", "phone": "(847) 263-2414", "website": "https://www.simon.com/mall/gurnee-mills", "brand": "Simon Malls"}, "geometry": {"type": "Point", "coordinates": [-87.957164, 42.38904]}},
{"type": "Feature", "id": "hYk1rilkarkDDV51dEU1GKa6yR4=", "properties": {"ref": "902", "location_type": "OutletCenter", "@spider": "simonmalls", "addr:full": "575 Linmar Ln, Johnson Creek, WI 53038", "addr:city": "Johnson Creek", "addr:state": "WI", "addr:postcode": "53038", "addr:country": "UNITED STATES", "name": "Johnson Creek Premium Outlets", "phone": "(920) 699-4112", "website": "https://www.premiumoutlets.com/outlet/johnson-creek", "brand": "Simon Malls"}, "geometry": {"type": "Point", "coordinates": [-88.762995, 43.090144]}},
{"type": "Feature", "id": "hm_pEgVu6W49Gvfw6jMIRbYv0rU=", "properties": {"ref": "1267", "location_type": "OutletCenter", "@spider": "simonmalls", "addr:full": "1 Premium Outlet Blvd, Tinton Falls, NJ 07753", "addr:city": "Tinton Falls", "addr:state": "NJ", "addr:postcode": "07753", "addr:country": "UNITED STATES", "name": "Jersey Shore Premium Outlets", "phone": "(732) 918-1323", "website": "https://www.premiumoutlets.com/outlet/jersey-shore", "brand": "Simon Malls"}, "geometry": {"type": "Point", "coordinates": [-74.094329, 40.224152]}},
{"type": "Feature", "id": "BUKzpMnOsJzNCv9sfZ7oVcW7XwU=", "properties": {"ref": "888", "location_type": "OutletCenter", "@spider": "simonmalls", "addr:full": "537 Monmouth Rd, Jackson, NJ 08527", "addr:city": "Jackson", "addr:state": "NJ", "addr:postcode": "08527", "addr:country": "UNITED STATES", "name": "Jackson Premium Outlets", "phone": "(732) 833-0680", "website": "https://www.premiumoutlets.com/outlet/jackson", "brand": "Simon Malls"}, "geometry": {"type": "Point", "coordinates": [-74.417352, 40.16169]}},
{"type": "Feature", "id": "D3655kLA03rxrwPQ8t3K27zMs60=", "properties": {"ref": "879", "location_type": "OutletCenter", "@spider": "simonmalls", "addr:full": "11622 NE Executive Dr, Edinburgh, IN 46124", "addr:city": "Edinburgh", "addr:state": "IN", "addr:postcode": "46124", "addr:country": "UNITED STATES", "name": "Indiana Premium Outlets", "phone": "(812) 526-9765", "website": "https://www.premiumoutlets.com/outlet/indiana", "brand": "Simon Malls"}, "geometry": {"type": "Point", "coordinates": [-85.96122, 39.30988]}},
{"type": "Feature", "id": "PMDrAxP5vHz9FrjK8MFBaPMHdrA=", "properties": {"ref": "165", "location_type": "RegionalMall", "@spider": "simonmalls", "addr:full": "1251 US Highway 31 N, Greenwood, IN 46142", "addr:city": "Greenwood", "addr:state": "IN", "addr:postcode": "46142", "addr:country": "UNITED STATES", "name": "Greenwood Park Mall", "phone": "(317) 887-8601", "website": "https://www.simon.com/mall/greenwood-park-mall", "brand": "Simon Malls"}, "geometry": {"type": "Point", "coordinates": [-86.120496, 39.632718]}},
{"type": "Feature", "id": "ZUbVXHX-6cgrF-_Oie5AKAk4tHM=", "properties": {"ref": "1250", "location_type": "MillsProperty", "@spider": "simonmalls", "addr:full": "447 Great Mall Dr, Milpitas, CA 95035", "addr:city": "Milpitas", "addr:state": "CA", "addr:postcode": "95035", "addr:country": "UNITED STATES", "name": "Great Mall", "phone": "(408) 945-4022", "website": "https://www.simon.com/mall/great-mall", "brand": "Simon Malls"}, "geometry": {"type": "Point", "coordinates": [-121.897412, 37.415738]}},
{"type": "Feature", "id": "hdOcsYXw-d_Q4T7hBmil3hGn1pg=", "properties": {"ref": "1225", "location_type": "OutletCenter", "@spider": "simonmalls", "addr:full": "29300 Hempstead Rd, Cypress, TX 77433", "addr:city": "Cypress", "addr:state": "TX", "addr:postcode": "77433", "addr:country": "UNITED STATES", "name": "Houston Premium Outlets", "phone": "(281) 304-1670", "website": "https://www.premiumoutlets.com/outlet/houston", "brand": "Simon Malls"}, "geometry": {"type": "Point", "coordinates": [-95.756573, 29.997041]}},
{"type": "Feature", "id": "jtruhCH9Qa6mSbxvUTwcjabt8nU=", "properties": {"ref": "1248", "location_type": "MillsProperty", "@spider": "simonmalls", "addr:full": "3000 Grapevine Mills Pkwy, Grapevine, TX 76051", "addr:city": "Grapevine", "addr:state": "TX", "addr:postcode": "76051", "addr:country": "UNITED STATES", "name": "Grapevine Mills", "phone": "(972) 724-4910", "website": "https://www.simon.com/mall/grapevine-mills", "brand": "Simon Malls"}, "geometry": {"type": "Point", "coordinates": [-97.04276, 32.965993]}},
{"type": "Feature", "id": "3J_PRPIZgVGUhT6ICvGwPXsmDyY=", "properties": {"ref": "1326", "location_type": "OutletCenter", "@spider": "simonmalls", "addr:full": "10000 Factory Shop Blvd, Gulfport, MS 39503", "addr:city": "Gulfport", "addr:state": "MS", "addr:postcode": "39503", "addr:country": "UNITED STATES", "name": "Gulfport Premium Outlets", "phone": "(228) 867-6101", "website": "https://www.premiumoutlets.com/outlet/gulfport", "brand": "Simon Malls"}, "geometry": {"type": "Point", "coordinates": [-89.099158, 30.428974]}},
{"type": "Feature", "id": "Ssx73_VM18JwgvFmi8iKihWWnVk=", "properties": {"ref": "1327", "location_type": "OutletCenter", "@spider": "simonmalls", "addr:full": "495 Premium Outlet Blvd, Hagerstown, MD 21740", "addr:city": "Hagerstown", "addr:state": "MD", "addr:postcode": "21740", "addr:country": "UNITED STATES", "name": "Hagerstown Premium Outlets", "phone": "(301) 790-0300", "website": "https://www.premiumoutlets.com/outlet/hagerstown", "brand": "Simon Malls"}, "geometry": {"type": "Point", "coordinates": [-77.733129, 39.608093]}},
{"type": "Feature", "id": "9vl3-EgpwyE1QR81Ovy6pykYhQs=", "properties": {"ref": "1074", "location_type": "RegionalMall", "@spider": "simonmalls", "addr:full": "245 Cedar Sage Dr, Garland, TX 75040", "addr:city": "Garland", "addr:state": "TX", "addr:postcode": "75040", "addr:country": "UNITED STATES", "name": "Firewheel Town Center", "phone": "(972) 675-1041", "website": "https://www.simon.com/mall/firewheel-town-center", "brand": "Simon Malls"}, "geometry": {"type": "Point", "coordinates": [-96.612316, 32.952703]}},
{"type": "Feature", "id": "47BF_Yj8uz01PzgoA2NvKTtaMCc=", "properties": {"ref": "765", "location_type": "RegionalMall", "@spider": "simonmalls", "addr:full": "7007 Friars Rd, San Diego, CA 92108", "addr:city": "San Diego", "addr:state": "CA", "addr:postcode": "92108", "addr:country": "UNITED STATES", "name": "Fashion Valley", "phone": "(619) 297-3381", "website": "https://www.simon.com/mall/fashion-valley", "brand": "Simon Malls"}, "geometry": {"type": "Point", "coordinates": [-117.166733, 32.767961]}},
{"type": "Feature", "id": "Jwxg7BSuuCHjMAjXIAdtfIps3Sg=", "properties": {"ref": "1339", "location_type": "OutletCenter", "@spider": "simonmalls", "addr:full": "1911 Leesburg Grove City Rd, Grove City, PA 16127", "addr:city": "Grove City", "addr:state": "PA", "addr:postcode": "16127", "addr:country": "UNITED STATES", "name": "Grove City Premium Outlets", "phone": "(724) 748-3875", "website": "https://www.premiumoutlets.com/outlet/grove-city", "brand": "Simon Malls"}, "geometry": {"type": "Point", "coordinates": [-80.157477, 41.141132]}},
{"type": "Feature", "id": "6l2WxcdPPrB6CBakZHhbXJeyax4=", "properties": {"ref": "157", "location_type": "RegionalMall", "@spider": "simonmalls", "addr:full": "1100 S Hayes St, Arlington, VA 22202", "addr:city": "Arlington", "addr:state": "VA", "addr:postcode": "22202", "addr:country": "UNITED STATES", "name": "Fashion Centre at Pentagon City", "phone": "(703) 415-2401", "website": "https://www.simon.com/mall/fashion-centre-at-pentagon-city", "brand": "Simon Malls"}, "geometry": {"type": "Point", "coordinates": [-77.060991, 38.862966]}},
{"type": "Feature", "id": "WYlHwUeAp6_JjOD5ghIWzdS4HRM=", "properties": {"ref": "1243", "location_type": "RegionalMall", "@spider": "simonmalls", "addr:full": "1365 N DuPont Hwy, Dover, DE 19901", "addr:city": "Dover", "addr:state": "DE", "addr:postcode": "19901", "addr:country": "UNITED STATES", "name": "Dover Mall", "phone": "(302) 678-4000", "website": "https://www.simon.com/mall/dover-mall", "brand": "Simon Malls"}, "geometry": {"type": "Point", "coordinates": [-75.53965, 39.193897]}},
{"type": "Feature", "id": "MrTVwHqtITgPb9Q8ed8t7Rr5uuM=", "properties": {"ref": "1355", "location_type": "OutletCenter", "@spider": "simonmalls", "addr:full": "2950 W Interstate 20, Grand Prairie, TX 75052", "addr:city": "Grand Prairie", "addr:state": "TX", "addr:postcode": "75052", "addr:country": "UNITED STATES", "name": "Grand Prairie Premium Outlets", "phone": "(972) 602-8389", "website": "https://www.premiumoutlets.com/outlet/grand-prairie", "brand": "Simon Malls"}, "geometry": {"type": "Point", "coordinates": [-97.05364, 32.679375]}},
{"type": "Feature", "id": "wVhZau5KhQPr-xtNWXzS-dSL9F8=", "properties": {"ref": "1298", "location_type": "CommunityLifestyleCenter", "@spider": "simonmalls", "addr:full": "1265 N DuPont Hwy, Dover, DE 19901", "addr:city": "Dover", "addr:state": "DE", "addr:postcode": "19901", "addr:country": "UNITED STATES", "name": "Dover Commons", "phone": "(302) 678-4001", "website": "https://www.simon.com/mall/dover-commons", "brand": "Simon Malls"}, "geometry": {"type": "Point", "coordinates": [-75.539694, 39.190341]}},
{"type": "Feature", "id": "1mL-TT-D8c-5TTI7MfQIfOFSjUg=", "properties": {"ref": "1377", "location_type": "OutletCenter", "@spider": "simonmalls", "addr:full": "100 Premium Outlet Dr, Blackwood, NJ 08012", "addr:city": "Blackwood", "addr:state": "NJ", "addr:postcode": "08012", "addr:country": "UNITED STATES", "name": "Gloucester Premium Outlets", "phone": "(856) 302-4471", "website": "https://www.premiumoutlets.com/outlet/gloucester", "brand": "Simon Malls"}, "geometry": {"type": "Point", "coordinates": [-75.052188, 39.785852]}},
{"type": "Feature", "id": "PchjsdTy2hXHvNCN_hrN6EC1sY8=", "properties": {"ref": "1325", "location_type": "OutletCenter", "@spider": "simonmalls", "addr:full": "1 Factory Shops Blvd, Gaffney, SC 29341", "addr:city": "Gaffney", "addr:state": "SC", "addr:postcode": "29341", "addr:country": "UNITED STATES", "name": "Gaffney Outlet Marketplace", "phone": "(864) 902-9911", "website": "https://www.premiumoutlets.com/outlet/gaffney-outlet-marketplace", "brand": "Simon Malls"}, "geometry": {"type": "Point", "coordinates": [-81.712177, 35.081973]}},
{"type": "Feature", "id": "42-cEIqJhjdFWpUOrOC5ruQ_XA0=", "properties": {"ref": "869", "location_type": "OutletCenter", "@spider": "simonmalls", "addr:full": "681 Leavesley Rd, Gilroy, CA 95020", "addr:city": "Gilroy", "addr:state": "CA", "addr:postcode": "95020", "addr:country": "UNITED STATES", "name": "Gilroy Premium Outlets", "phone": "(408) 842-3732", "website": "https://www.premiumoutlets.com/outlet/gilroy", "brand": "Simon Malls"}, "geometry": {"type": "Point", "coordinates": [-121.564471, 37.025183]}},
{"type": "Feature", "id": "Ssg5rH5a750UyOIsSPj2JDOnNqA=", "properties": {"ref": "868", "location_type": "OutletCenter", "@spider": "simonmalls", "addr:full": "13000 Folsom Blvd, Folsom, CA 95630", "addr:city": "Folsom", "addr:state": "CA", "addr:postcode": "95630", "addr:country": "UNITED STATES", "name": "Folsom Premium Outlets", "phone": "(916) 985-0313", "website": "https://www.premiumoutlets.com/outlet/folsom", "brand": "Simon Malls"}, "geometry": {"type": "Point", "coordinates": [-121.187932, 38.643781]}},
{"type": "Feature", "id": "vRwcsRP6vfptgSFYzl9MtJQ2AoY=", "properties": {"ref": "1285", "location_type": "RegionalMall", "@spider": "simonmalls", "addr:full": "14200 W Colfax Ave, Lakewood, CO 80401", "addr:city": "Lakewood", "addr:state": "CO", "addr:postcode": "80401", "addr:country": "UNITED STATES", "name": "Denver West Village", "phone": "(303) 590-1634", "website": "https://www.simon.com/mall/denver-west-village", "brand": "Simon Malls"}, "geometry": {"type": "Point", "coordinates": [-105.161712, 39.736263]}},
{"type": "Feature", "id": "CmhZEPKlCm2o5TWPJKBw_sMurag=", "properties": {"ref": "1324", "location_type": "OutletCenter", "@spider": "simonmalls", "addr:full": "250 E Palm Dr, Florida City, FL 33034", "addr:city": "Florida City", "addr:state": "FL", "addr:postcode": "33034", "addr:country": "UNITED STATES", "name": "Florida Keys Outlet Marketplace", "phone": "(305) 248-4727", "website": "https://www.premiumoutlets.com/outlet/florida-keys-outlet-marketplace", "brand": "Simon Malls"}, "geometry": {"type": "Point", "coordinates": [-80.473095, 25.452554]}},
{"type": "Feature", "id": "qEeErJVUxIKmMMuDb8AeX2CjL-w=", "properties": {"ref": "1240", "location_type": "RegionalMall", "@spider": "simonmalls", "addr:full": "3525 Carson St, Torrance, CA 90503", "addr:city": "Torrance", "addr:state": "CA", "addr:postcode": "90503", "addr:country": "UNITED STATES", "name": "Del Amo Fashion Center", "phone": "(310) 542-8525", "website": "https://www.simon.com/mall/del-amo-fashion-center", "brand": "Simon Malls"}, "geometry": {"type": "Point", "coordinates": [-118.349415, 33.830765]}},
{"type": "Feature", "id": "Q0-t8SWJGyXxiKe-Pl5a1a127kY=", "properties": {"ref": "138", "location_type": "RegionalMall", "@spider": "simonmalls", "addr:full": "7535 N Kendall Dr, Miami, FL 33156", "addr:city": "Miami", "addr:state": "FL", "addr:postcode": "33156", "addr:country": "UNITED STATES", "name": "Dadeland Mall", "phone": "(305) 665-6227", "website": "https://www.simon.com/mall/dadeland-mall", "brand": "Simon Malls"}, "geometry": {"type": "Point", "coordinates": [-80.312495, 25.690545]}},
{"type": "Feature", "id": "y-50WyDE_5aNkovi5zKx6FDVayk=", "properties": {"ref": "193", "location_type": "RegionalMall", "@spider": "simonmalls", "addr:full": "5100 N 9th Ave, Pensacola, FL 32504", "addr:city": "Pensacola", "addr:state": "FL", "addr:postcode": "32504", "addr:country": "UNITED STATES", "name": "Cordova Mall", "phone": "(850) 477-7562", "website": "https://www.simon.com/mall/cordova-mall", "brand": "Simon Malls"}, "geometry": {"type": "Point", "coordinates": [-87.207241, 30.475114]}},
{"type": "Feature", "id": "MwtWn9htkPVC6WdY5thDGE6MyQM=", "properties": {"ref": "137", "location_type": "RegionalMall", "@spider": "simonmalls", "addr:full": "9469 W Atlantic Blvd, Coral Springs, FL 33071", "addr:city": "Coral Springs", "addr:state": "FL", "addr:postcode": "33071", "addr:country": "UNITED STATES", "name": "Coral Square", "phone": "(954) 755-5552", "website": "https://www.simon.com/mall/coral-square", "brand": "Simon Malls"}, "geometry": {"type": "Point", "coordinates": [-80.249125, 26.241401]}},
{"type": "Feature", "id": "ecP9TpQ9TuRqJ-rVqXLeS8En6bo=", "properties": {"ref": "1323", "location_type": "OutletCenter", "@spider": "simonmalls", "addr:full": "5461 Factory Shops Blvd, Ellenton, FL 34222", "addr:city": "Ellenton", "addr:state": "FL", "addr:postcode": "34222", "addr:country": "UNITED STATES", "name": "Ellenton Premium Outlets", "phone": "(941) 729-8615", "website": "https://www.premiumoutlets.com/outlet/ellenton", "brand": "Simon Malls"}, "geometry": {"type": "Point", "coordinates": [-82.507606, 27.534275]}},
{"type": "Feature", "id": "lWgl4Tp7mHGfnLJ0WbRAYlVNUmg=", "properties": {"ref": "784", "location_type": "RegionalMall", "@spider": "simonmalls", "addr:full": "100 Huntington Ave, Boston, MA 02116", "addr:city": "Boston", "addr:state": "MA", "addr:postcode": "02116", "addr:country": "UNITED STATES", "name": "Copley Place", "phone": "(617) 262-6600", "website": "https://www.simon.com/mall/copley-place", "brand": "Simon Malls"}, "geometry": {"type": "Point", "coordinates": [-71.077769, 42.347175]}},
{"type": "Feature", "id": "rwTm-Cl_aGdHubpk5l8TN9_i2dc=", "properties": {"ref": "1239", "location_type": "MillsProperty", "@spider": "simonmalls", "addr:full": "8111 Concord Mills Blvd, Concord, NC 28027", "addr:city": "Concord", "addr:state": "NC", "addr:postcode": "28027", "addr:country": "UNITED STATES", "name": "Concord Mills", "phone": "(980) 258-6013", "website": "https://www.simon.com/mall/concord-mills", "brand": "Simon Malls"}, "geometry": {"type": "Point", "coordinates": [-80.721971, 35.369009]}},
{"type": "Feature", "id": "nyyxBw9df5vdLo1MDBF1SsF3g4E=", "properties": {"ref": "234", "location_type": "RegionalMall", "@spider": "simonmalls", "addr:full": "1321 N Columbia Center Blvd, Kennewick, WA 99336", "addr:city": "Kennewick", "addr:state": "WA", "addr:postcode": "99336", "addr:country": "UNITED STATES", "name": "Columbia Center", "phone": "(509) 783-2109", "website": "https://www.simon.com/mall/columbia-center", "brand": "Simon Malls"}, "geometry": {"type": "Point", "coordinates": [-119.227167, 46.226089]}},
{"type": "Feature", "id": "GXxMmVEvkIEwVSIFo6KGYllxrd0=", "properties": {"ref": "867", "location_type": "OutletCenter", "@spider": "simonmalls", "addr:full": "48400 Seminole Dr, Cabazon, CA 92230", "addr:city": "Cabazon", "addr:state": "CA", "addr:postcode": "92230", "addr:country": "UNITED STATES", "name": "Desert Hills Premium Outlets", "phone": "(951) 849-5018", "website": "https://www.premiumoutlets.com/outlet/desert-hills", "brand": "Simon Malls"}, "geometry": {"type": "Point", "coordinates": [-116.815491, 33.928778]}},
{"type": "Feature", "id": "GFHcadEi5kvnGlX42kQTai2Cyuw=", "properties": {"ref": "1237", "location_type": "MillsProperty", "@spider": "simonmalls", "addr:full": "14500 W Colfax Ave, Lakewood, CO 80401", "addr:city": "Lakewood", "addr:state": "CO", "addr:postcode": "80401", "addr:country": "UNITED STATES", "name": "Colorado Mills", "phone": "(303) 590-1634", "website": "https://www.simon.com/mall/colorado-mills", "brand": "Simon Malls"}, "geometry": {"type": "Point", "coordinates": [-105.158288, 39.731722]}},
{"type": "Feature", "id": "ExMoJDA2Tf-a6n3rLnRfGwaTlls=", "properties": {"ref": "148", "location_type": "RegionalMall", "@spider": "simonmalls", "addr:full": "2894 E 3rd St, Bloomington, IN 47401", "addr:city": "Bloomington", "addr:state": "IN", "addr:postcode": "47401", "addr:country": "UNITED STATES", "name": "College Mall", "phone": "(812) 339-9370", "website": "https://www.simon.com/mall/college-mall", "brand": "Simon Malls"}, "geometry": {"type": "Point", "coordinates": [-86.495715, 39.160946]}},
{"type": "Feature", "id": "OfbfH3odD0noRGpN_PU6wOTjaWA=", "properties": {"ref": "1202", "location_type": "RegionalMall", "@spider": "simonmalls", "addr:full": "23106 Fashion Dr, Estero, FL 33928", "addr:city": "Estero", "addr:state": "FL", "addr:postcode": "33928", "addr:country": "UNITED STATES", "name": "Coconut Point", "phone": "(239) 992-9966", "website": "https://www.simon.com/mall/coconut-point", "brand": "Simon Malls"}, "geometry": {"type": "Point", "coordinates": [-81.807185, 26.403885]}},
{"type": "Feature", "id": "b-c0gfwu5msaKHwYJo6HxiRu4ug=", "properties": {"ref": "163", "location_type": "RegionalMall", "@spider": "simonmalls", "addr:full": "49 W Maryland St, Indianapolis, IN 46204", "addr:city": "Indianapolis", "addr:state": "IN", "addr:postcode": "46204", "addr:country": "UNITED STATES", "name": "Circle Centre Mall", "phone": "(317) 681-5615", "website": "https://www.simon.com/mall/circle-centre-mall", "brand": "Simon Malls"}, "geometry": {"type": "Point", "coordinates": [-86.159397, 39.765257]}},
{"type": "Feature", "id": "UDyiYGoFI7SFCO-DEC4hPNRa5vQ=", "properties": {"ref": "1390", "location_type": "OutletCenter", "@spider": "simonmalls", "addr:full": "13801 Grant St, Thornton, CO 80023", "addr:city": "Thornton", "addr:state": "CO", "addr:postcode": "80023", "addr:country": "UNITED STATES", "name": "Denver Premium Outlets", "phone": "(303) 200-3815", "website": "https://www.premiumoutlets.com/outlet/denver", "brand": "Simon Malls"}, "geometry": {"type": "Point", "coordinates": [-104.984553, 39.946605]}},
{"type": "Feature", "id": "R6cNVVbWTreKc8GWRZ-uTdcAhJg=", "properties": {"ref": "213", "location_type": "RegionalMall", "@spider": "simonmalls", "addr:full": "8401 Gateway Blvd W, El Paso, TX 79925", "addr:city": "El Paso", "addr:state": "TX", "addr:postcode": "79925", "addr:country": "UNITED STATES", "name": "Cielo Vista Mall", "phone": "(915) 779-7071", "website": "https://www.simon.com/mall/cielo-vista-mall", "brand": "Simon Malls"}, "geometry": {"type": "Point", "coordinates": [-106.37921, 31.775044]}},
{"type": "Feature", "id": "bFNWH0caUfUsA9UlG6kgv62Lp_E=", "properties": {"ref": "162", "location_type": "RegionalMall", "@spider": "simonmalls", "addr:full": "6020 E 82nd St, Indianapolis, IN 46250", "addr:city": "Indianapolis", "addr:state": "IN", "addr:postcode": "46250", "addr:country": "UNITED STATES", "name": "Castleton Square", "phone": "(317) 849-9994", "website": "https://www.simon.com/mall/castleton-square", "brand": "Simon Malls"}, "geometry": {"type": "Point", "coordinates": [-86.065221, 39.908971]}},
{"type": "Feature", "id": "IZoIqxJYDssJ7kvOD7buXX2ui2Q=", "properties": {"ref": "333", "location_type": "RegionalMall", "@spider": "simonmalls", "addr:full": "769 Iyannough Rd, Hyannis, MA 02601", "addr:city": "Hyannis", "addr:state": "MA", "addr:postcode": "02601", "addr:country": "UNITED STATES", "name": "Cape Cod Mall", "phone": "(508) 771-0201", "website": "https://www.simon.com/mall/cape-cod-mall", "brand": "Simon Malls"}, "geometry": {"type": "Point", "coordinates": [-70.297971, 41.668084]}},
{"type": "Feature", "id": "Xc4XSG7-blroSVzqKT7C-kq-PTM=", "properties": {"ref": "146", "location_type": "RegionalMall", "@spider": "simonmalls", "addr:full": "75 Middlesex Turnpike, Burlington, MA 01803", "addr:city": "Burlington", "addr:state": "MA", "addr:postcode": "01803", "addr:country": "UNITED STATES", "name": "Burlington Mall", "phone": "(781) 272-8668", "website": "https://www.simon.com/mall/burlington-mall", "brand": "Simon Malls"}, "geometry": {"type": "Point", "coordinates": [-71.217098, 42.481052]}},
{"type": "Feature", "id": "aFZjKXS-x4wRi9o39D5z5JkBEqU=", "properties": {"ref": "873", "location_type": "OutletCenter", "@spider": "simonmalls", "addr:full": "20 Killingworth Turnpike, Clinton, CT 06413", "addr:city": "Clinton", "addr:state": "CT", "addr:postcode": "06413", "addr:country": "UNITED STATES", "name": "Clinton Premium Outlets", "phone": "(860) 669-3066", "website": "https://www.premiumoutlets.com/outlet/clinton", "brand": "Simon Malls"}, "geometry": {"type": "Point", "coordinates": [-72.534114, 41.292012]}},
{"type": "Feature", "id": "9jRQ4tajmmsuXgjL6plQNd7OB7Q=", "properties": {"ref": "212", "location_type": "RegionalMall", "@spider": "simonmalls", "addr:full": "4601 S Broadway Ave, Tyler, TX 75703", "addr:city": "Tyler", "addr:state": "TX", "addr:postcode": "75703", "addr:country": "UNITED STATES", "name": "Broadway Square", "phone": "(903) 561-7055", "website": "https://www.simon.com/mall/broadway-square", "brand": "Simon Malls"}, "geometry": {"type": "Point", "coordinates": [-95.302639, 32.299381]}},
{"type": "Feature", "id": "bKPsL3Uc_np2neRq1SZOwbo-56E=", "properties": {"ref": "1383", "location_type": "OutletCenter", "@spider": "simonmalls", "addr:full": "22705 Clarksburg Rd, Clarksburg, MD 20871", "addr:city": "Clarksburg", "addr:state": "MD", "addr:postcode": "20871", "addr:country": "UNITED STATES", "name": "Clarksburg Premium Outlets", "phone": "(301) 337-6535", "website": "https://www.premiumoutlets.com/outlet/clarksburg", "brand": "Simon Malls"}, "geometry": {"type": "Point", "coordinates": [-77.28596, 39.228106]}},
{"type": "Feature", "id": "t6S-Hu5FExsZIQoGhZSdhrQG1wg=", "properties": {"ref": "1231", "location_type": "RegionalMall", "@spider": "simonmalls", "addr:full": "100 Briarwood Cir, Ann Arbor, MI 48108", "addr:city": "Ann Arbor", "addr:state": "MI", "addr:postcode": "48108", "addr:country": "UNITED STATES", "name": "Briarwood Mall", "phone": "(734) 769-9610", "website": "https://www.simon.com/mall/briarwood-mall", "brand": "Simon Malls"}, "geometry": {"type": "Point", "coordinates": [-83.746537, 42.24039]}},
{"type": "Feature", "id": "FCDDVmmgxhI7D832qX-CKN5KdPI=", "properties": {"ref": "1279", "location_type": "OutletCenter", "@spider": "simonmalls", "addr:full": "400 Premium Outlets Dr, Monroe, OH 45050", "addr:city": "Monroe", "addr:state": "OH", "addr:postcode": "45050", "addr:country": "UNITED STATES", "name": "Cincinnati Premium Outlets", "phone": "(513) 539-0711", "website": "https://www.premiumoutlets.com/outlet/cincinnati", "brand": "Simon Malls"}, "geometry": {"type": "Point", "coordinates": [-84.337135, 39.433908]}},
{"type": "Feature", "id": "Xvuoba0ReUUO264n6Kl5e_quSNo=", "properties": {"ref": "233", "location_type": "RegionalMall", "@spider": "simonmalls", "addr:full": "1065 Brea Mall, Brea, CA 92821", "addr:city": "Brea", "addr:state": "CA", "addr:postcode": "92821", "addr:country": "UNITED STATES", "name": "Brea Mall", "phone": "(714) 990-2733", "website": "https://www.simon.com/mall/brea-mall", "brand": "Simon Malls"}, "geometry": {"type": "Point", "coordinates": [-117.886414, 33.915477]}},
{"type": "Feature", "id": "ZpoMAP5-JYjx6_kkEjfHr313luQ=", "properties": {"ref": "878", "location_type": "OutletCenter", "@spider": "simonmalls", "addr:full": "1650 Premium Outlet Blvd, Aurora, IL 60502", "addr:city": "Aurora", "addr:state": "IL", "addr:postcode": "60502", "addr:country": "UNITED STATES", "name": "Chicago Premium Outlets", "phone": "(630) 692-1451", "website": "https://www.premiumoutlets.com/outlet/chicago", "brand": "Simon Malls"}, "geometry": {"type": "Point", "coordinates": [-88.27397, 41.800478]}},
{"type": "Feature", "id": "8v_3uGMjVB7eP-MKfoIk5HlBJJo=", "properties": {"ref": "894", "location_type": "OutletCenter", "@spider": "simonmalls", "addr:full": "1025 Outlet Center Dr, Smithfield, NC 27577", "addr:city": "Smithfield", "addr:state": "NC", "addr:postcode": "27577", "addr:country": "UNITED STATES", "name": "Carolina Premium Outlets", "phone": "(919) 989-8453", "website": "https://www.premiumoutlets.com/outlet/carolina", "brand": "Simon Malls"}, "geometry": {"type": "Point", "coordinates": [-78.314387, 35.509225]}},
{"type": "Feature", "id": "D13L9GpsN9TNdxQhPGWU-nzzOn4=", "properties": {"ref": "1372", "location_type": "OutletCenter", "@spider": "simonmalls", "addr:full": "5404 New Fashion Way, Charlotte, NC 28278", "addr:city": "Charlotte", "addr:state": "NC", "addr:postcode": "28278", "addr:country": "UNITED STATES", "name": "Charlotte Premium Outlets", "phone": "(704) 837-8100", "website": "https://www.premiumoutlets.com/outlet/charlotte", "brand": "Simon Malls"}, "geometry": {"type": "Point", "coordinates": [-80.970161, 35.169368]}},
{"type": "Feature", "id": "zALlfWu1I8OOZu3BNvSmKdeGmlk=", "properties": {"ref": "181", "location_type": "RegionalMall", "@spider": "simonmalls", "addr:full": "303 Bay Park Sq, Green Bay, WI 54304", "addr:city": "Green Bay", "addr:state": "WI", "addr:postcode": "54304", "addr:country": "UNITED STATES", "name": "Bay Park Square", "phone": "(920) 499-2421", "website": "https://www.simon.com/mall/bay-park-square", "brand": "Simon Malls"}, "geometry": {"type": "Point", "coordinates": [-88.065994, 44.483821]}},
{"type": "Feature", "id": "1R0scWoBLoD40J9vSqJQ1Edr2cs=", "properties": {"ref": "1280", "location_type": "OutletCenter", "@spider": "simonmalls", "addr:full": "740 E Ventura Blvd, Camarillo, CA 93010", "addr:city": "Camarillo", "addr:state": "CA", "addr:postcode": "93010", "addr:country": "UNITED STATES", "name": "Camarillo Premium Outlets", "phone": "(805) 445-8515", "website": "https://www.premiumoutlets.com/outlet/camarillo", "brand": "Simon Malls"}, "geometry": {"type": "Point", "coordinates": [-119.060378, 34.21665]}},
{"type": "Feature", "id": "lUVyrdy3qmKgYSvdaQB_5wUW5lE=", "properties": {"ref": "866", "location_type": "OutletCenter", "@spider": "simonmalls", "addr:full": "5620 Paseo Del Norte, Carlsbad, CA 92008", "addr:city": "Carlsbad", "addr:state": "CA", "addr:postcode": "92008", "addr:country": "UNITED STATES", "name": "Carlsbad Premium Outlets", "phone": "(760) 804-9045", "website": "https://www.premiumoutlets.com/outlet/carlsbad", "brand": "Simon Malls"}, "geometry": {"type": "Point", "coordinates": [-117.321098, 33.126454]}},
{"type": "Feature", "id": "qXPlzwtctUXdi1TG61CuGBrdkDU=", "properties": {"ref": "1322", "location_type": "OutletCenter", "@spider": "simonmalls", "addr:full": "455 Belwood Rd, Calhoun, GA 30701", "addr:city": "Calhoun", "addr:state": "GA", "addr:postcode": "30701", "addr:country": "UNITED STATES", "name": "Calhoun Outlet Marketplace", "phone": "(706) 602-1305", "website": "https://www.premiumoutlets.com/outlet/calhoun-outlet-marketplace", "brand": "Simon Malls"}, "geometry": {"type": "Point", "coordinates": [-84.918426, 34.460206]}},
{"type": "Feature", "id": "GTA2jzTRxKLu2jLyCpm9JQLcnzk=", "properties": {"ref": "174", "location_type": "RegionalMall", "@spider": "simonmalls", "addr:full": "2825 S Glenstone Ave, Springfield, MO 65804", "addr:city": "Springfield", "addr:state": "MO", "addr:postcode": "65804", "addr:country": "UNITED STATES", "name": "Battlefield Mall", "phone": "(417) 883-4111", "website": "https://www.simon.com/mall/battlefield-mall", "brand": "Simon Malls"}, "geometry": {"type": "Point", "coordinates": [-93.265815, 37.162676]}},
{"type": "Feature", "id": "nSz9Zm-Doxoz21oBII5ojWI9pEQ=", "properties": {"ref": "1321", "location_type": "OutletCenter", "@spider": "simonmalls", "addr:full": "12240 South Beyer Rd, Birch Run, MI 48415", "addr:city": "Birch Run", "addr:state": "MI", "addr:postcode": "48415", "addr:country": "UNITED STATES", "name": "Birch Run Premium Outlets", "phone": "(989) 624-6226", "website": "https://www.premiumoutlets.com/outlet/birch-run", "brand": "Simon Malls"}, "geometry": {"type": "Point", "coordinates": [-83.777537, 43.246775]}}]}