{"type":"FeatureCollection","features":[{"type": "Feature", "id": "3k59aQTTT2XaOK-QmPilymZn7pI=", "properties": {"ref": "1489", "@spider": "soma", "addr:full": "1 Garden State Plaza, Space 2157", "addr:city": "Paramus", "addr:state": "NJ", "addr:postcode": "07652", "addr:country": "US", "name": "Westfield Garden State Plaza", "website": "https://stores.soma.com/s/westfield-garden-state-plaza", "brand": "Soma"}, "geometry": {"type": "Point", "coordinates": [-74.07528, 40.91804]}},
{"type": "Feature", "id": "cNs1x2w-lZ-UwtXtL-vVnCgkAwo=", "properties": {"ref": "1436", "@spider": "soma", "addr:full": "125 Westchester Avenue, Sp 2200", "addr:city": "White Plains", "addr:state": "NY", "addr:postcode": "10601", "addr:country": "US", "name": "The Westchester", "website": "https://stores.soma.com/s/the-westchester", "brand": "Soma"}, "geometry": {"type": "Point", "coordinates": [-73.7683784, 41.0322939]}},
{"type": "Feature", "id": "574drma1vGKgDWhwVsuyE5E2DHc=", "properties": {"ref": "1648", "@spider": "soma", "addr:full": "75 W Route 59", "addr:city": "Nanuet", "addr:state": "NY", "addr:postcode": "10954", "addr:country": "US", "name": "The Shops at Nanuet", "website": "https://stores.soma.com/s/soma-the-shops-at-nanuet", "brand": "Soma"}, "geometry": {"type": "Point", "coordinates": [-74.016328, 41.095484]}},
{"type": "Feature", "id": "kOwQ9aL7v0RLNvwDtXC7k4NI-7o=", "properties": {"ref": "1908", "@spider": "soma", "addr:full": "160-5 Route 110", "addr:city": "Huntington Station", "addr:state": "NY", "addr:postcode": "11746", "addr:country": "US", "name": "Walt Whitman Mall", "website": "https://stores.soma.com/s/soma-walt-whitman-mall", "brand": "Soma"}, "geometry": {"type": "Point", "coordinates": [-73.4119768, 40.8259824]}},
{"type": "Feature", "id": "0PP-E_kkFQZsuPeqvvM5Ywps-uQ=", "properties": {"ref": "1863", "@spider": "soma", "addr:full": "400 Commons Way, Ste. 109", "addr:city": "Bridgewater", "addr:state": "NJ", "addr:postcode": "08807", "addr:country": "US", "name": "Bridgewater Commons", "website": "https://stores.soma.com/s/soma-bridgewater-commons", "brand": "Soma"}, "geometry": {"type": "Point", "coordinates": [-74.6193168, 40.5861219]}},
{"type": "Feature", "id": "etyxyUxZ6VV8wI2r6DcNAt6fVLU=", "properties": {"ref": "1429", "@spider": "soma", "addr:full": "3710 Route 9", "addr:city": "Freehold", "addr:state": "NJ", "addr:postcode": "07728", "addr:country": "US", "name": "Freehold Raceway Mall", "website": "https://stores.soma.com/s/soma-freehold-raceway-mall", "brand": "Soma"}, "geometry": {"type": "Point", "coordinates": [-74.3000294, 40.2531111]}},
{"type": "Feature", "id": "NtNAKVgkZ1eZw42oXvycirxGVt4=", "properties": {"ref": "33948", "@spider": "soma", "addr:full": "100 N Water St, Ste 1975", "addr:city": "Norwalk", "addr:state": "CT", "addr:postcode": "06854", "addr:country": "US", "name": "The SoNo Collection", "website": "https://stores.soma.com/s/the-sono-collection", "brand": "Soma"}, "geometry": {"type": "Point", "coordinates": [-73.41944, 41.10238]}},
{"type": "Feature", "id": "Hi54DkuRl_6QbwgVnKTMG6KjBFM=", "properties": {"ref": "1780", "@spider": "soma", "addr:full": "636 Smith Haven Mall, Ste. R-07", "addr:city": "Lake Grove", "addr:state": "NY", "addr:postcode": "11755", "addr:country": "US", "name": "Smith Haven Mall", "website": "https://stores.soma.com/s/soma-smith-haven-mall", "brand": "Soma"}, "geometry": {"type": "Point", "coordinates": [-73.1301103, 40.8647885]}},
{"type": "Feature", "id": "dDPjHLxNxXfAMlurkq-Tm1vkP_E=", "properties": {"ref": "1859", "@spider": "soma", "addr:full": "7 Backus Ave, Ste. 106", "addr:city": "Danbury", "addr:state": "CT", "addr:postcode": "06810", "addr:country": "US", "name": "Danbury Fair Mall", "website": "https://stores.soma.com/s/danbury-fair-mall", "brand": "Soma"}, "geometry": {"type": "Point", "coordinates": [-73.482171, 41.379475]}},
{"type": "Feature", "id": "7juQazf-17kykpss0qXkF-Gly7w=", "properties": {"ref": "1795", "@spider": "soma", "addr:full": "1527 Main Street, Suite 100", "addr:city": "Warrington", "addr:state": "PA", "addr:postcode": "18976", "addr:country": "US", "name": "The Shops at Valley Square", "website": "https://stores.soma.com/s/soma-the-shops-at-valley-square", "brand": "Soma"}, "geometry": {"type": "Point", "coordinates": [-75.1359871, 40.2324097]}},
{"type": "Feature", "id": "yufyhPA29WpqoNTZ0W28a_XVo2k=", "properties": {"ref": "1659", "@spider": "soma", "addr:full": "1460 Bethlehem Pike, Ste. 340", "addr:city": "North Wales", "addr:state": "PA", "addr:postcode": "19454", "addr:country": "US", "name": "The Shoppes at English Village", "website": "https://stores.soma.com/s/the-shoppes-at-english-village", "brand": "Soma"}, "geometry": {"type": "Point", "coordinates": [-75.2230486, 40.2085723]}},
{"type": "Feature", "id": "WOk7-MP3HsHTCRPojetJqs1yWLg=", "properties": {"ref": "1496", "@spider": "soma", "addr:full": "2905 E. Skyline Drive, Ste 178", "addr:city": "Tucson", "addr:state": "AZ", "addr:postcode": "85718", "addr:country": "US", "name": "La Encantada", "website": "https://stores.soma.com/s/soma-la-encantada", "brand": "Soma"}, "geometry": {"type": "Point", "coordinates": [-110.929999, 32.325357]}},
{"type": "Feature", "id": "q_6w2DvVR_gl4AAOIs99xBw6dq4=", "properties": {"ref": "22997", "@spider": "soma", "addr:full": "1500 Polaris Pkwy, Ste 1206", "addr:city": "Columbus", "addr:state": "OH", "addr:postcode": "43240", "addr:country": "US", "name": "Polaris Fashion Place", "website": "https://stores.soma.com/s/polaris-fashion-place", "brand": "Soma"}, "geometry": {"type": "Point", "coordinates": [-82.980385, 40.145933]}},
{"type": "Feature", "id": "EKPZbVGP4EHEpPAYUOyvTXEguL4=", "properties": {"ref": "5197", "@spider": "soma", "addr:full": "1595 W Lane Ave", "addr:city": "Upper Arlington", "addr:state": "OH", "addr:postcode": "43221", "addr:country": "US", "name": "The Shops on Lane Avenue", "website": "https://stores.soma.com/s/soma-the-shops-on-lane-avenue", "brand": "Soma"}, "geometry": {"type": "Point", "coordinates": [-83.052569, 40.007148]}},
{"type": "Feature", "id": "JUaDszzyDVB-UV3TVYeoQl_oZ2o=", "properties": {"ref": "1653", "@spider": "soma", "addr:full": "17420 Hall Rd, Suite 132", "addr:city": "Clinton Township", "addr:state": "MI", "addr:postcode": "48038", "addr:country": "US", "name": "The Mall at Partridge Creek", "website": "https://stores.soma.com/s/soma-the-mall-at-partridge-creek", "brand": "Soma"}, "geometry": {"type": "Point", "coordinates": [-82.9445943, 42.6256152]}},
{"type": "Feature", "id": "mgCLiFevxEGLcYJjKVwt7WOWIT8=", "properties": {"ref": "1860", "@spider": "soma", "addr:full": "2800 W Big Beaver Rd, Sp M-134", "addr:city": "Troy", "addr:state": "MI", "addr:postcode": "48084", "addr:country": "US", "name": "Somerset Collection North", "website": "https://stores.soma.com/s/soma-somerset-collection-north", "brand": "Soma"}, "geometry": {"type": "Point", "coordinates": [-83.184024, 42.563202]}},
{"type": "Feature", "id": "WSnaWHaM-yerru_nhOYaYAVIWrk=", "properties": {"ref": "1854", "@spider": "soma", "addr:full": "2945 Center Valley Parkw, Suite 310", "addr:city": "Center Valley", "addr:state": "PA", "addr:postcode": "18034", "addr:country": "US", "name": "The Promenade Shops at Saucon Valle", "website": "https://stores.soma.com/s/the-promenade-shops-at-saucon-valle", "brand": "Soma"}, "geometry": {"type": "Point", "coordinates": [-75.4107246, 40.5594205]}},
{"type": "Feature", "id": "QfN0pXvKI7JrYZYDzHGswRg-z1E=", "properties": {"ref": "1848", "@spider": "soma", "addr:full": "500 Route 73 S., A23", "addr:city": "Marlton", "addr:state": "NJ", "addr:postcode": "08053", "addr:country": "US", "name": "The Promenade at Sagemore", "website": "https://stores.soma.com/s/the-promenade-at-sagemore", "brand": "Soma"}, "geometry": {"type": "Point", "coordinates": [-74.9204973, 39.87604]}},
{"type": "Feature", "id": "PTFjVawGmYjVBcqAYPC8Bwt0IE4=", "properties": {"ref": "1785", "@spider": "soma", "addr:full": "2000 Route 38", "addr:city": "Cherry Hill", "addr:state": "NJ", "addr:postcode": "08002", "addr:country": "US", "name": "Cherry Hill Mall", "website": "https://stores.soma.com/s/soma-cherry-hill-mall", "brand": "Soma"}, "geometry": {"type": "Point", "coordinates": [-75.0261976, 39.9418533]}},
{"type": "Feature", "id": "v0KMEjafd66S-bTt5k9S9PvwqtA=", "properties": {"ref": "1346", "@spider": "soma", "addr:full": "690 West DeKalb Pike", "addr:city": "King of Prussia", "addr:state": "PA", "addr:postcode": "19406", "addr:country": "US", "name": "King of Prussia Mall", "website": "https://stores.soma.com/s/king-of-prussia-mall", "brand": "Soma"}, "geometry": {"type": "Point", "coordinates": [-75.3855588, 40.0890849]}},
{"type": "Feature", "id": "Cw3mMV9tD4Cm3NjLiIA10eAdZ04=", "properties": {"ref": "1894", "@spider": "soma", "addr:full": "171 Market Street, Suite 2", "addr:city": "Collegeville", "addr:state": "PA", "addr:postcode": "19426", "addr:country": "US", "name": "Providence Town Center", "website": "https://stores.soma.com/s/soma-providence-town-center", "brand": "Soma"}, "geometry": {"type": "Point", "coordinates": [-75.4800859, 40.165519]}},
{"type": "Feature", "id": "eZyowKtZzRjN4V3N-1O6cNa-NKc=", "properties": {"ref": "1802", "@spider": "soma", "addr:full": "923 Baltimore Pike., Sp 18A", "addr:city": "Glen Mills", "addr:state": "PA", "addr:postcode": "19342", "addr:country": "US", "name": "The Shoppes at Brinton Lake", "website": "https://stores.soma.com/s/the-shoppes-at-brinton-lake", "brand": "Soma"}, "geometry": {"type": "Point", "coordinates": [-75.5103484, 39.9016273]}},
{"type": "Feature", "id": "6uWSuTFrlAPXpQXq8ogSzt91W4M=", "properties": {"ref": "1491", "@spider": "soma", "addr:full": "201 Evergreen Way., Suite 235", "addr:city": "South Windsor", "addr:state": "CT", "addr:postcode": "06074", "addr:country": "US", "name": "The Promenade Shops at Evergreen Wa", "website": "https://stores.soma.com/s/soma-the-promenade-shops-at-evergreen-wa", "brand": "Soma"}, "geometry": {"type": "Point", "coordinates": [-72.5571607, 41.8117006]}},
{"type": "Feature", "id": "IMXUrdoek8WNowS9guzfI_N7JvM=", "properties": {"ref": "1651", "@spider": "soma", "addr:full": "430 Park City Center", "addr:city": "Lancaster", "addr:state": "PA", "addr:postcode": "17601", "addr:country": "US", "name": "Park City Center", "website": "https://stores.soma.com/s/soma-park-city-center", "brand": "Soma"}, "geometry": {"type": "Point", "coordinates": [-76.3411922, 40.0650647]}},
{"type": "Feature", "id": "t1qgvCcbiq-k_obQDFEhyxTtea0=", "properties": {"ref": "1498", "@spider": "soma", "addr:full": "34986 Midway Outlet Driv, Space 125", "addr:city": "Rehoboth Beach", "addr:state": "DE", "addr:postcode": "19971", "addr:country": "US", "name": "Tanger Outlet Center Rehoboth Beach", "website": "https://stores.soma.com/s/soma-tanger-outlet-center-rehoboth-beach", "brand": "Soma"}, "geometry": {"type": "Point", "coordinates": [-75.1403605, 38.7343735]}},
{"type": "Feature", "id": "zNXDgAh9Vi50Ykv5c4G8VcK8uPo=", "properties": {"ref": "1882", "@spider": "soma", "addr:full": "16 Hillside Road", "addr:city": "Cranston", "addr:state": "RI", "addr:postcode": "02920", "addr:country": "US", "name": "Garden City Center", "website": "https://stores.soma.com/s/soma-garden-city-center", "brand": "Soma"}, "geometry": {"type": "Point", "coordinates": [-71.458185, 41.76438]}},
{"type": "Feature", "id": "62XGBvETeTuYKkUAYQiDj0Uxaq4=", "properties": {"ref": "1819", "@spider": "soma", "addr:full": "1822 South Val Vista Dri, Suite 102", "addr:city": "Mesa", "addr:state": "AZ", "addr:postcode": "85204", "addr:country": "US", "name": "Village Square at Dana Park", "website": "https://stores.soma.com/s/village-square-at-dana-park", "brand": "Soma"}, "geometry": {"type": "Point", "coordinates": [-111.7567834, 33.3822893]}},
{"type": "Feature", "id": "fKRkxCISbBKUbkEpv6XE5HRBnNI=", "properties": {"ref": "1752", "@spider": "soma", "addr:full": "2168 E Williams Field Ro, Suite 114", "addr:city": "Gilbert", "addr:state": "AZ", "addr:postcode": "85295", "addr:country": "US", "name": "San Tan Village", "website": "https://stores.soma.com/s/soma-san-tan-village", "brand": "Soma"}, "geometry": {"type": "Point", "coordinates": [-111.7433091, 33.3102901]}},
{"type": "Feature", "id": "rGEBQwzu8sOUdXaZIm6MMiiq89c=", "properties": {"ref": "1458", "@spider": "soma", "addr:full": "15051 N Kierland Blvd, Suite 160", "addr:city": "Scottsdale", "addr:state": "AZ", "addr:postcode": "85254", "addr:country": "US", "name": "Kierland Commons", "website": "https://stores.soma.com/s/soma-kierland-commons", "brand": "Soma"}, "geometry": {"type": "Point", "coordinates": [-111.9300659, 33.6240765]}},
{"type": "Feature", "id": "MsCmkRupLtR-oryTEjCMm5GTzL0=", "properties": {"ref": "3160", "@spider": "soma", "addr:full": "7014 East Camelback Rd, Ste 1036", "addr:city": "Scottsdale", "addr:state": "AZ", "addr:postcode": "85251", "addr:country": "US", "name": "Scottsdale Fashion Square", "website": "https://stores.soma.com/s/soma-scottsdale-fashion-square", "brand": "Soma"}, "geometry": {"type": "Point", "coordinates": [-111.9294198, 33.5028371]}},
{"type": "Feature", "id": "_ihP-gvzv7JhVW9W1kkxJbqfoRw=", "properties": {"ref": "1349", "@spider": "soma", "addr:full": "3111 W. Chandler Blvd, #1184", "addr:city": "Chandler", "addr:state": "AZ", "addr:postcode": "85226", "addr:country": "US", "name": "Chandler Fashion Center", "website": "https://stores.soma.com/s/chandler-fashion-center", "brand": "Soma"}, "geometry": {"type": "Point", "coordinates": [-111.8985267, 33.3017106]}},
{"type": "Feature", "id": "4aFUYRmA1wNVVvDXjVD8iGK7tlM=", "properties": {"ref": "1437", "@spider": "soma", "addr:full": "2502 East Camelback Road, Ste182", "addr:city": "Phoenix", "addr:state": "AZ", "addr:postcode": "85016", "addr:country": "US", "name": "Biltmore Fashion Park", "website": "https://stores.soma.com/s/soma-biltmore-fashion-park", "brand": "Soma"}, "geometry": {"type": "Point", "coordinates": [-112.0286923, 33.5103953]}},
{"type": "Feature", "id": "m8DU_Ov2UJDdAiYhlQmgWQ8u6sA=", "properties": {"ref": "1710", "@spider": "soma", "addr:full": "7700 West Arrowhead Towne Ce, #1093", "addr:city": "Glendale", "addr:state": "AZ", "addr:postcode": "85308", "addr:country": "US", "name": "Arrowhead Towne Center", "website": "https://stores.soma.com/s/arrowhead-towne-center", "brand": "Soma"}, "geometry": {"type": "Point", "coordinates": [-112.2252174, 33.6421362]}},
{"type": "Feature", "id": "Il9zC-VNLfDmdpEgho8jhLf4O1c=", "properties": {"ref": "1917", "@spider": "soma", "addr:full": "3540 East Longwing Lane, Suite 115", "addr:city": "Meridian", "addr:state": "ID", "addr:postcode": "83646", "addr:country": "US", "name": "The Village at Meridian", "website": "https://stores.soma.com/s/soma-the-village-at-meridian", "brand": "Soma"}, "geometry": {"type": "Point", "coordinates": [-116.3505889, 43.6214803]}},
{"type": "Feature", "id": "ckH-zmrB1BmiYsyJYrpTTTcbJVg=", "properties": {"ref": "1885", "@spider": "soma", "addr:full": "2260 Village Walk Drive., Suite 114", "addr:city": "Henderson", "addr:state": "NV", "addr:postcode": "89052", "addr:country": "US", "name": "The District at Green Valley Ranch", "website": "https://stores.soma.com/s/the-district-at-green-valley-ranch", "brand": "Soma"}, "geometry": {"type": "Point", "coordinates": [-115.0877546, 36.0214762]}},
{"type": "Feature", "id": "cgfgE5DRHDKeIGy9Ip18IjA5lWU=", "properties": {"ref": "1831", "@spider": "soma", "addr:full": "6800 Main Street", "addr:city": "Wilmington", "addr:state": "NC", "addr:postcode": "28405", "addr:country": "US", "name": "Mayfaire Town Center", "website": "https://stores.soma.com/s/soma-mayfaire-town-center", "brand": "Soma"}, "geometry": {"type": "Point", "coordinates": [-77.8320835, 34.2426081]}},
{"type": "Feature", "id": "3FX2qlumhoUY-TFzxzFARLVpdLs=", "properties": {"ref": "1862", "@spider": "soma", "addr:full": "27226 Novi Road, SP. A119", "addr:city": "Novi", "addr:state": "MI", "addr:postcode": "48377", "addr:country": "US", "name": "Twelve Oaks Mall", "website": "https://stores.soma.com/s/soma-twelve-oaks-mall", "brand": "Soma"}, "geometry": {"type": "Point", "coordinates": [-83.4750241, 42.5123116]}},
{"type": "Feature", "id": "CHNYjrJLGsQ4I2ELGUOZQGlwxz4=", "properties": {"ref": "1502", "@spider": "soma", "addr:full": "6801 Northlake Mall Dr, Suite 234", "addr:city": "Charlotte", "addr:state": "NC", "addr:postcode": "28216", "addr:country": "US", "name": "Northlake Mall", "website": "https://stores.soma.com/s/northlake-mall", "brand": "Soma"}, "geometry": {"type": "Point", "coordinates": [-80.851181, 35.352549]}},
{"type": "Feature", "id": "SzWU5LEWQR4IgvYY-EPzfnI7tQ0=", "properties": {"ref": "1423", "@spider": "soma", "addr:full": "12156 South Beyer Rd, Ste V018", "addr:city": "Birch Run", "addr:state": "MI", "addr:postcode": "48415", "addr:country": "US", "name": "Birch Run Premium Outlets", "website": "https://stores.soma.com/s/soma-birch-run-premium-outlets", "brand": "Soma"}, "geometry": {"type": "Point", "coordinates": [-83.7781827, 43.2470733]}},
{"type": "Feature", "id": "MUlzjWDZyVqYEoUyYRR59hHOmvU=", "properties": {"ref": "1580", "@spider": "soma", "addr:full": "4400 Sharon Road., Suite G07", "addr:city": "Charlotte", "addr:state": "NC", "addr:postcode": "28211", "addr:country": "US", "name": "SouthPark (NC)", "website": "https://stores.soma.com/s/southpark-nc", "brand": "Soma"}, "geometry": {"type": "Point", "coordinates": [-80.8321253, 35.1523852]}},
{"type": "Feature", "id": "Mg5Phvc9UKWtXIoL36kMPiGfYBc=", "properties": {"ref": "1915", "@spider": "soma", "addr:full": "7808-D Rea Road", "addr:city": "Charlotte", "addr:state": "NC", "addr:postcode": "28277", "addr:country": "US", "name": "Stonecrest at Piper Glen", "website": "https://stores.soma.com/s/stonecrest-at-piper-glen", "brand": "Soma"}, "geometry": {"type": "Point", "coordinates": [-80.815083, 35.060754]}},
{"type": "Feature", "id": "YGLAscxJYKM2vUtXL0SsOOfmybY=", "properties": {"ref": "1913", "@spider": "soma", "addr:full": "5195 Deerfield Blvd, Suite 1100", "addr:city": "Mason", "addr:state": "OH", "addr:postcode": "45040", "addr:country": "US", "name": "Deerfield Towne Center", "website": "https://stores.soma.com/s/soma-deerfield-towne-center", "brand": "Soma"}, "geometry": {"type": "Point", "coordinates": [-84.3176396, 39.307968]}},
{"type": "Feature", "id": "CmvyDDwDEpXfWcyH-81IKWMsPxk=", "properties": {"ref": "1796", "@spider": "soma", "addr:full": "7552 Gibson St.", "addr:city": "Liberty Township", "addr:state": "OH", "addr:postcode": "45069", "addr:country": "US", "name": "Liberty Center", "website": "https://stores.soma.com/s/soma-liberty-center", "brand": "Soma"}, "geometry": {"type": "Point", "coordinates": [-84.37342, 39.371441]}},
{"type": "Feature", "id": "QA5Bxqlq28j3Nnscoq-GR55f4Og=", "properties": {"ref": "1726", "@spider": "soma", "addr:full": "4004 Howard Ave", "addr:city": "Myrtle Beach", "addr:state": "SC", "addr:postcode": "29577", "addr:country": "US", "name": "The Market Common Myrtle Beach", "website": "https://stores.soma.com/s/soma-the-market-common-myrtle-beach", "brand": "Soma"}, "geometry": {"type": "Point", "coordinates": [-78.9392394, 33.6698115]}},
{"type": "Feature", "id": "RD-hNOJwnPR1rsqaKkV3xd3BG2w=", "properties": {"ref": "1861", "@spider": "soma", "addr:full": "23160 Fashion Drive, Ste. 109", "addr:city": "Estero", "addr:state": "FL", "addr:postcode": "33928", "addr:country": "US", "name": "Coconut Point", "website": "https://stores.soma.com/s/soma-coconut-point", "brand": "Soma"}, "geometry": {"type": "Point", "coordinates": [-81.8076003, 26.4016165]}},
{"type": "Feature", "id": "3OGiCHdOwdMZFvH_2iQmoBhsL8M=", "properties": {"ref": "1733", "@spider": "soma", "addr:full": "5435 Tamiami Trail N.", "addr:city": "Naples", "addr:state": "FL", "addr:postcode": "34108", "addr:country": "US", "name": "Waterside Shops at Pelican Bay", "website": "https://stores.soma.com/s/waterside-shops-at-pelican-bay", "brand": "Soma"}, "geometry": {"type": "Point", "coordinates": [-81.8026774, 26.213165]}},
{"type": "Feature", "id": "-fwUJxYDvv31VQVNxPaL-Yh3Anc=", "properties": {"ref": "1792", "@spider": "soma", "addr:full": "1432 Commons Drive", "addr:city": "Geneva", "addr:state": "IL", "addr:postcode": "60134", "addr:country": "US", "name": "Geneva Commons", "website": "https://stores.soma.com/s/soma-geneva-commons", "brand": "Soma"}, "geometry": {"type": "Point", "coordinates": [-88.3435137, 41.8911769]}},
{"type": "Feature", "id": "z9PYiByE7rKcX28JySNCETWTce8=", "properties": {"ref": "1510", "@spider": "soma", "addr:full": "3625 Dallas Highway, Suite 610", "addr:city": "Marietta", "addr:state": "GA", "addr:postcode": "30064", "addr:country": "US", "name": "The Avenue West Cobb", "website": "https://stores.soma.com/s/the-avenue-west-cobb", "brand": "Soma"}, "geometry": {"type": "Point", "coordinates": [-84.6570419, 33.9522431]}},
{"type": "Feature", "id": "qe6Rh29ltxlbH9AwYHXEDV7ZwoQ=", "properties": {"ref": "1490", "@spider": "soma", "addr:full": "825 Dulaney Valley Road, Suite 2235", "addr:city": "Towson", "addr:state": "MD", "addr:postcode": "21204", "addr:country": "US", "name": "Towson Town Center", "website": "https://stores.soma.com/s/soma-towson-town-center", "brand": "Soma"}, "geometry": {"type": "Point", "coordinates": [-76.6006278, 39.4038996]}},
{"type": "Feature", "id": "ybzgI4CVFtScO8hvJciooBNzxVM=", "properties": {"ref": "1488", "@spider": "soma", "addr:full": "1245 Worcester Street", "addr:city": "Natick", "addr:state": "MA", "addr:postcode": "01760", "addr:country": "US", "name": "Natick Mall", "website": "https://stores.soma.com/s/natick-mall", "brand": "Soma"}, "geometry": {"type": "Point", "coordinates": [-71.3819171, 42.301113]}},
{"type": "Feature", "id": "swWPQFE61c_SV6Gv8AIKsoxHtZg=", "properties": {"ref": "1680", "@spider": "soma", "addr:full": "3200 Las Vegas Blvd Sou, Space 1180", "addr:city": "Las Vegas", "addr:state": "NV", "addr:postcode": "89109", "addr:country": "US", "name": "Fashion Show", "website": "https://stores.soma.com/s/fashion-show", "brand": "Soma"}, "geometry": {"type": "Point", "coordinates": [-115.1715512, 36.1272241]}},
{"type": "Feature", "id": "kRIxESYuxjHIyJcW0p-4huxvoRc=", "properties": {"ref": "1815", "@spider": "soma", "addr:full": "1980 Festival Plaza Driv, Suite 110", "addr:city": "Las Vegas", "addr:state": "NV", "addr:postcode": "89135", "addr:country": "US", "name": "Downtown Summerlin", "website": "https://stores.soma.com/s/soma-downtown-summerlin", "brand": "Soma"}, "geometry": {"type": "Point", "coordinates": [-115.3331687, 36.1500216]}},
{"type": "Feature", "id": "rcHiKPEmVGa2laexd-IM5w0tVhk=", "properties": {"ref": "1742", "@spider": "soma", "addr:full": "73100 El Paseo", "addr:city": "Palm Desert", "addr:state": "CA", "addr:postcode": "92260", "addr:country": "US", "name": "The Shops on El Paseo", "website": "https://stores.soma.com/s/the-shops-on-el-paseo", "brand": "Soma"}, "geometry": {"type": "Point", "coordinates": [-116.3890815, 33.7200389]}},
{"type": "Feature", "id": "_1HFYwUmu00vg1USuzCkhmvvOw8=", "properties": {"ref": "1722", "@spider": "soma", "addr:full": "7425 166th Ave NE, Ste C120", "addr:city": "Redmond", "addr:state": "WA", "addr:postcode": "98052", "addr:country": "US", "name": "Redmond Town Center", "website": "https://stores.soma.com/s/soma-redmond-town-center", "brand": "Soma"}, "geometry": {"type": "Point", "coordinates": [-122.11912, 47.6709888]}},
{"type": "Feature", "id": "UrZE4V6gNl8_Tj9hRONxZBdRg5s=", "properties": {"ref": "1790", "@spider": "soma", "addr:full": "13925 South Virginia St", "addr:city": "Reno", "addr:state": "NV", "addr:postcode": "89511", "addr:country": "US", "name": "The Summit Reno", "website": "https://stores.soma.com/s/the-summit-reno", "brand": "Soma"}, "geometry": {"type": "Point", "coordinates": [-119.7511759, 39.4065597]}},
{"type": "Feature", "id": "KnEvJ5bkdrfvQCvaw77zk_mGEo4=", "properties": {"ref": "1526", "@spider": "soma", "addr:full": "2012 Bellevue Sq", "addr:city": "Bellevue", "addr:state": "WA", "addr:postcode": "98004", "addr:country": "US", "name": "Bellevue Square", "website": "https://stores.soma.com/s/soma-bellevue-square", "brand": "Soma"}, "geometry": {"type": "Point", "coordinates": [-122.2016442, 47.6288692]}},
{"type": "Feature", "id": "IvJdWoxVRTRG_Wi2S8dfdKL_Ywg=", "properties": {"ref": "1500", "@spider": "soma", "addr:full": "3000 184th Street SW, Suite 312", "addr:city": "Lynnwood", "addr:state": "WA", "addr:postcode": "98037", "addr:country": "US", "name": "Alderwood", "website": "https://stores.soma.com/s/soma-alderwood", "brand": "Soma"}, "geometry": {"type": "Point", "coordinates": [-122.2725709, 47.8299542]}},
{"type": "Feature", "id": "yPBhpxQNIyjBG10Ws0eYLf6LXXg=", "properties": {"ref": "1791", "@spider": "soma", "addr:full": "2800 Southcenter Mall", "addr:city": "Tukwila", "addr:state": "WA", "addr:postcode": "98188", "addr:country": "US", "name": "Westfield Southcenter", "website": "https://stores.soma.com/s/westfield-southcenter", "brand": "Soma"}, "geometry": {"type": "Point", "coordinates": [-122.2587505, 47.4589221]}},
{"type": "Feature", "id": "SiAYnqcfEXL4EDV6FSdpiY3tjis=", "properties": {"ref": "1734", "@spider": "soma", "addr:full": "40756 Winchester Road, Suite 280", "addr:city": "Temecula", "addr:state": "CA", "addr:postcode": "92591", "addr:country": "US", "name": "Promenade Temecula", "website": "https://stores.soma.com/s/soma-promenade-temecula", "brand": "Soma"}, "geometry": {"type": "Point", "coordinates": [-117.1573354, 33.5263224]}},
{"type": "Feature", "id": "rCbXzpkddpngsJQKHGksE36BlSI=", "properties": {"ref": "1803", "@spider": "soma", "addr:full": "12390 South Mainstreet", "addr:city": "Rancho Cucamonga", "addr:state": "CA", "addr:postcode": "91739", "addr:country": "US", "name": "Victoria Gardens", "website": "https://stores.soma.com/s/soma-victoria-gardens", "brand": "Soma"}, "geometry": {"type": "Point", "coordinates": [-117.5334968, 34.1108632]}},
{"type": "Feature", "id": "Dfo8PwMi10QFHPXzidjEBRobn74=", "properties": {"ref": "1350", "@spider": "soma", "addr:full": "200 East Via Rancho Parkwa, Ste 175", "addr:city": "Escondido", "addr:state": "CA", "addr:postcode": "92025", "addr:country": "US", "name": "Westfield North County Fair", "website": "https://stores.soma.com/s/westfield-north-county-fair", "brand": "Soma"}, "geometry": {"type": "Point", "coordinates": [-117.0649122, 33.070471]}},
{"type": "Feature", "id": "4Iz1UVjSuvbdpNJIoyVQgq_CwZg=", "properties": {"ref": "3047", "@spider": "soma", "addr:full": "7875 Montgomery Rd, Space 2327", "addr:city": "Cincinnati", "addr:state": "OH", "addr:postcode": "45236", "addr:country": "US", "name": "Kenwood Towne Centre", "website": "https://stores.soma.com/s/soma-kenwood-towne-centre", "brand": "Soma"}, "geometry": {"type": "Point", "coordinates": [-84.377994, 39.204368]}},
{"type": "Feature", "id": "b3xV64g4pUpgsuTEiBMmVy9PKvo=", "properties": {"ref": "3157", "@spider": "soma", "addr:full": "10 Brook St., Suite 135", "addr:city": "Asheville", "addr:state": "NC", "addr:postcode": "28803", "addr:country": "US", "name": "Biltmore Village", "website": "https://stores.soma.com/s/soma-biltmore-village", "brand": "Soma"}, "geometry": {"type": "Point", "coordinates": [-82.5410173, 35.5670456]}},
{"type": "Feature", "id": "Y9WXYp6kDQZfhw8nI734vMuVF64=", "properties": {"ref": "1506", "@spider": "soma", "addr:full": "4110 W. Jefferson Boulevard", "addr:city": "Fort Wayne", "addr:state": "IN", "addr:postcode": "46804", "addr:country": "US", "name": "Jefferson Pointe", "website": "https://stores.soma.com/s/jefferson-pointe", "brand": "Soma"}, "geometry": {"type": "Point", "coordinates": [-85.1970798, 41.0710794]}},
{"type": "Feature", "id": "cLOArymuGaF69v2KihlwT8Em7R8=", "properties": {"ref": "1737", "@spider": "soma", "addr:full": "3401 Nicholasville Road, Suite D410", "addr:city": "Lexington", "addr:state": "KY", "addr:postcode": "40503", "addr:country": "US", "name": "Fayette Mall", "website": "https://stores.soma.com/s/fayette-mall", "brand": "Soma"}, "geometry": {"type": "Point", "coordinates": [-84.5271844, 37.9890031]}},
{"type": "Feature", "id": "wnLL1va69PZmpWb-jfa847oodxw=", "properties": {"ref": "1807", "@spider": "soma", "addr:full": "4840 Forest Drive, Suite 11", "addr:city": "Columbia", "addr:state": "SC", "addr:postcode": "29206", "addr:country": "US", "name": "Trenholm Plaza", "website": "https://stores.soma.com/s/soma-trenholm-plaza", "brand": "Soma"}, "geometry": {"type": "Point", "coordinates": [-80.9635041, 34.0172171]}},
{"type": "Feature", "id": "h22oAJs_InMHRcsgv0jkYgDCofc=", "properties": {"ref": "1620", "@spider": "soma", "addr:full": "1125 Woodruff Road, Suite 1801", "addr:city": "Greenville", "addr:state": "SC", "addr:postcode": "29607", "addr:country": "US", "name": "The Shops at Greenridge", "website": "https://stores.soma.com/s/the-shops-at-greenridge", "brand": "Soma"}, "geometry": {"type": "Point", "coordinates": [-82.3012549, 34.8291923]}},
{"type": "Feature", "id": "8rZYzba6K2pFD41LGfXfO4rOHVE=", "properties": {"ref": "1504", "@spider": "soma", "addr:full": "3195 Twenty Eighth Stree, Ste K-111", "addr:city": "Kentwood", "addr:state": "MI", "addr:postcode": "49512", "addr:country": "US", "name": "Woodland Mall", "website": "https://stores.soma.com/s/woodland-mall", "brand": "Soma"}, "geometry": {"type": "Point", "coordinates": [-85.6447492, 42.8694731]}},
{"type": "Feature", "id": "L-dArnkT7wkvyMp1EId8qv2wR0I=", "properties": {"ref": "1788", "@spider": "soma", "addr:full": "1239 Belk Drive, Ste 100", "addr:city": "Mount Pleasant", "addr:state": "SC", "addr:postcode": "29464", "addr:country": "US", "name": "Mount Pleasant Towne Centre", "website": "https://stores.soma.com/s/mount-pleasant-towne-centre", "brand": "Soma"}, "geometry": {"type": "Point", "coordinates": [-79.8303549, 32.830038]}},
{"type": "Feature", "id": "6MK-mevEXxLgkl5KzSCI5peLCqs=", "properties": {"ref": "1508", "@spider": "soma", "addr:full": "197 Meeting Street, Suite B106", "addr:city": "Charleston", "addr:state": "SC", "addr:postcode": "29401", "addr:country": "US", "name": "The Shops at Charleston Place", "website": "https://stores.soma.com/s/the-shops-at-charleston-place", "brand": "Soma"}, "geometry": {"type": "Point", "coordinates": [-79.9325, 32.776111111111]}},
{"type": "Feature", "id": "niD-F47pg_KR0YV1eHE7yht5e-A=", "properties": {"ref": "1347", "@spider": "soma", "addr:full": "8702 Keystone Crossing Blvd", "addr:city": "Indianapolis", "addr:state": "IN", "addr:postcode": "46240", "addr:country": "US", "name": "The Fashion Mall at Keystone", "website": "https://stores.soma.com/s/the-fashion-mall-at-keystone", "brand": "Soma"}, "geometry": {"type": "Point", "coordinates": [-86.106041, 39.910503]}},
{"type": "Feature", "id": "0KKoK1xypoLv6pYlgCs6fSEe-Y8=", "properties": {"ref": "1759", "@spider": "soma", "addr:full": "14390 Clay Terrace Blvd, Suite 130", "addr:city": "Carmel", "addr:state": "IN", "addr:postcode": "46032", "addr:country": "US", "name": "Clay Terrace", "website": "https://stores.soma.com/s/soma-clay-terrace", "brand": "Soma"}, "geometry": {"type": "Point", "coordinates": [-86.1295481, 39.9994875]}},
{"type": "Feature", "id": "ojiT4nxNqyebNB6j558IDMuVjDk=", "properties": {"ref": "1729", "@spider": "soma", "addr:full": "7900 Shelbyville Road, Space A03", "addr:city": "Louisville", "addr:state": "KY", "addr:postcode": "40222", "addr:country": "US", "name": "Oxmoor Center", "website": "https://stores.soma.com/s/soma-oxmoor-center", "brand": "Soma"}, "geometry": {"type": "Point", "coordinates": [-85.6103634, 38.2465422]}},
{"type": "Feature", "id": "YlbPBSJl6tb6-Vqdbq_v8T7FHPo=", "properties": {"ref": "1712", "@spider": "soma", "addr:full": "11331 Parkside Dr", "addr:city": "Knoxville", "addr:state": "TN", "addr:postcode": "37934", "addr:country": "US", "name": "Colonial Pinnacle at Turkey Creek", "website": "https://stores.soma.com/s/soma-colonial-pinnacle-at-turkey-creek", "brand": "Soma"}, "geometry": {"type": "Point", "coordinates": [-84.1600316, 35.9016735]}},
{"type": "Feature", "id": "G2Gy-yQzttBJ4Dbt_h5hdouQFhI=", "properties": {"ref": "1787", "@spider": "soma", "addr:full": "600 Fifth Avenue South, 104-106", "addr:city": "Naples", "addr:state": "FL", "addr:postcode": "34102", "addr:country": "US", "name": "The Colonnade on 5th", "website": "https://stores.soma.com/s/the-colonnade-on-5th", "brand": "Soma"}, "geometry": {"type": "Point", "coordinates": [-81.7991816, 26.1410256]}},
{"type": "Feature", "id": "3z_7i2O9EkBKc6gYcKKqKMSu430=", "properties": {"ref": "1354", "@spider": "soma", "addr:full": "8888 SW 136th Street., Suite 424", "addr:city": "Miami", "addr:state": "FL", "addr:postcode": "33176", "addr:country": "US", "name": "The Falls", "website": "https://stores.soma.com/s/soma-the-falls", "brand": "Soma"}, "geometry": {"type": "Point", "coordinates": [-80.3394789, 25.6443825]}},
{"type": "Feature", "id": "q7z9iOF40Rg5ZXWvovFRYKu1anY=", "properties": {"ref": "1616", "@spider": "soma", "addr:full": "1843 Village West Parkway, SP C-115", "addr:city": "Kansas City", "addr:state": "KS", "addr:postcode": "66111", "addr:country": "US", "name": "Legends Outlets Kansas City", "website": "https://stores.soma.com/s/soma-legends-outlets-kansas-city", "brand": "Soma"}, "geometry": {"type": "Point", "coordinates": [-94.8453148, 39.165826]}},
{"type": "Feature", "id": "fNnJyTF0dl-OPYyqVL8gVanK790=", "properties": {"ref": "1817", "@spider": "soma", "addr:full": "2203 Promenade Blvd, Ste 2115", "addr:city": "Rogers", "addr:state": "AR", "addr:postcode": "72758", "addr:country": "US", "name": "Pinnacle Hills Promenade", "website": "https://stores.soma.com/s/pinnacle-hills-promenade", "brand": "Soma"}, "geometry": {"type": "Point", "coordinates": [-94.1735802, 36.3074909]}},
{"type": "Feature", "id": "6LjpCDFYKVt9rcZ3x0YcKLO8ZW0=", "properties": {"ref": "1427", "@spider": "soma", "addr:full": "17251 Davenport Street, Suite 117", "addr:city": "Omaha", "addr:state": "NE", "addr:postcode": "68118", "addr:country": "US", "name": "Village Pointe Shopping Center", "website": "https://stores.soma.com/s/village-pointe-shopping-center", "brand": "Soma"}, "geometry": {"type": "Point", "coordinates": [-96.1832384, 41.2608696]}},
{"type": "Feature", "id": "rESG6PzeMN3f3-Q5bK-jz0Xv_o0=", "properties": {"ref": "1736", "@spider": "soma", "addr:full": "3301 Veterans Memorial Bl, Space 41", "addr:city": "Metairie", "addr:state": "LA", "addr:postcode": "70002", "addr:country": "US", "name": "Lakeside Shopping Center", "website": "https://stores.soma.com/s/soma-lakeside-shopping-center", "brand": "Soma"}, "geometry": {"type": "Point", "coordinates": [-90.1573392, 30.0060907]}},
{"type": "Feature", "id": "aI1fZ8jwVTdQai_0fbc3EU3phUU=", "properties": {"ref": "1906", "@spider": "soma", "addr:full": "4001 West 41st St, Suite #210", "addr:city": "Sioux Falls", "addr:state": "SD", "addr:postcode": "57106", "addr:country": "US", "name": "The Empire Mall", "website": "https://stores.soma.com/s/soma-the-empire-mall", "brand": "Soma"}, "geometry": {"type": "Point", "coordinates": [-96.7745923, 43.5118966]}},
{"type": "Feature", "id": "lYA1RbGF5qS6iwl2fQrOh1TrA6g=", "properties": {"ref": "1704", "@spider": "soma", "addr:full": "7021 S Memorial Dr, Ste 152A", "addr:city": "Tulsa", "addr:state": "OK", "addr:postcode": "74133", "addr:country": "US", "name": "Woodland Hills Mall", "website": "https://stores.soma.com/s/soma-woodland-hills-mall", "brand": "Soma"}, "geometry": {"type": "Point", "coordinates": [-95.8818735, 36.0632284]}},
{"type": "Feature", "id": "FcBGKEShSK4Z7GdeZG3ArlbyLBY=", "properties": {"ref": "1877", "@spider": "soma", "addr:full": "6535 Youree Dr", "addr:city": "Shreveport", "addr:state": "LA", "addr:postcode": "71105", "addr:country": "US", "name": "Shoppes at Bellemead", "website": "https://stores.soma.com/s/shoppes-at-bellemead", "brand": "Soma"}, "geometry": {"type": "Point", "coordinates": [-93.7194106, 32.4473033]}},
{"type": "Feature", "id": "kTjd2Gq5Vv5wRjb_KdOVF2b3KvU=", "properties": {"ref": "1829", "@spider": "soma", "addr:full": "2615 Medical Center Parkway", "addr:city": "Murfreesboro", "addr:state": "TN", "addr:postcode": "37129", "addr:country": "US", "name": "The Avenue Murfreesboro", "website": "https://stores.soma.com/s/soma-the-avenue-murfreesboro", "brand": "Soma"}, "geometry": {"type": "Point", "coordinates": [-86.4464451, 35.8628485]}},
{"type": "Feature", "id": "mQgbZbYK7lD9FIOF6ihH6hcwigQ=", "properties": {"ref": "1839", "@spider": "soma", "addr:full": "5080 Riverside Drive", "addr:city": "Macon", "addr:state": "GA", "addr:postcode": "31210", "addr:country": "US", "name": "The Shoppes at River Crossing", "website": "https://stores.soma.com/s/soma-the-shoppes-at-river-crossing", "brand": "Soma"}, "geometry": {"type": "Point", "coordinates": [-83.7151055, 32.9250006]}},
{"type": "Feature", "id": "mN9MPfl0X5Qks2bVXBXmoLarO0Q=", "properties": {"ref": "1711", "@spider": "soma", "addr:full": "2126 Abbott Martin Road, Suite 165", "addr:city": "Nashville", "addr:state": "TN", "addr:postcode": "37215", "addr:country": "US", "name": "The Mall at Green Hills", "website": "https://stores.soma.com/s/soma-the-mall-at-green-hills", "brand": "Soma"}, "geometry": {"type": "Point", "coordinates": [-86.814796, 36.107504]}},
{"type": "Feature", "id": "1BSo1BTb3wYW_kHiJaJXfAuCkrA=", "properties": {"ref": "1576", "@spider": "soma", "addr:full": "1800 Galleria Boulevard, Suite 1280", "addr:city": "Franklin", "addr:state": "TN", "addr:postcode": "37067", "addr:country": "US", "name": "Cool Springs Galleria", "website": "https://stores.soma.com/s/cool-springs-galleria", "brand": "Soma"}, "geometry": {"type": "Point", "coordinates": [-86.8135382, 35.957118]}},
{"type": "Feature", "id": "cl3e99tl62uk9v6UojuhRULCeeA=", "properties": {"ref": "1812", "@spider": "soma", "addr:full": "252 City Circle", "addr:city": "Peachtree City", "addr:state": "GA", "addr:postcode": "30269", "addr:country": "US", "name": "The Avenue Peachtree City", "website": "https://stores.soma.com/s/soma-the-avenue-peachtree-city", "brand": "Soma"}, "geometry": {"type": "Point", "coordinates": [-84.5935794, 33.3956536]}},
{"type": "Feature", "id": "RG9fHkmLkcDtCpxoGRjL6vTnj4I=", "properties": {"ref": "1804", "@spider": "soma", "addr:full": "4301 W Wisconsin Ave", "addr:city": "Appleton", "addr:state": "WI", "addr:postcode": "54913", "addr:country": "US", "name": "Fox River Mall", "website": "https://stores.soma.com/s/soma-fox-river-mall", "brand": "Soma"}, "geometry": {"type": "Point", "coordinates": [-88.4705139, 44.2692534]}},
{"type": "Feature", "id": "v1xdyRbYElJFfNg7mtj3s5koZdg=", "properties": {"ref": "1853", "@spider": "soma", "addr:full": "600 Sea Island Road, Suite 4", "addr:city": "St Simons Island", "addr:state": "GA", "addr:postcode": "31522", "addr:country": "US", "name": "Shops at Sea Island", "website": "https://stores.soma.com/s/soma-shops-at-sea-island", "brand": "Soma"}, "geometry": {"type": "Point", "coordinates": [-81.379211, 31.183288]}},
{"type": "Feature", "id": "-6a2MEVfeF-FpZKJJU-893bK0zI=", "properties": {"ref": "1485", "@spider": "soma", "addr:full": "2508 Solomons Island Rd", "addr:city": "Annapolis", "addr:state": "MD", "addr:postcode": "21401", "addr:country": "US", "name": "Annapolis Harbour Center", "website": "https://stores.soma.com/s/annapolis-harbour-center", "brand": "Soma"}, "geometry": {"type": "Point", "coordinates": [-76.544977, 38.9757825]}},
{"type": "Feature", "id": "KO-qEkxu0enmhszKH4RjFmpBai8=", "properties": {"ref": "1830", "@spider": "soma", "addr:full": "10300 Little Patuxent Pkw, Ste 3125", "addr:city": "Columbia", "addr:state": "MD", "addr:postcode": "21044", "addr:country": "US", "name": "The Mall in Columbia", "website": "https://stores.soma.com/s/soma-the-mall-in-columbia", "brand": "Soma"}, "geometry": {"type": "Point", "coordinates": [-76.8602836, 39.2153947]}},
{"type": "Feature", "id": "tUzQSrfFDdpr-7SrLBnc4t-7dtI=", "properties": {"ref": "1912", "@spider": "soma", "addr:full": "1407 South Main Chapel W, Suite 101", "addr:city": "Gambrills", "addr:state": "MD", "addr:postcode": "21054", "addr:country": "US", "name": "Waugh Chapel Towne Centre", "website": "https://stores.soma.com/s/soma-waugh-chapel-towne-centre", "brand": "Soma"}, "geometry": {"type": "Point", "coordinates": [-76.6833152, 39.0335]}},
{"type": "Feature", "id": "gg2E3ggkzN3DCkFnrcsmnYLCFMc=", "properties": {"ref": "1615", "@spider": "soma", "addr:full": "250 Granite Street, Sp 1245A", "addr:city": "Braintree", "addr:state": "MA", "addr:postcode": "02184", "addr:country": "US", "name": "South Shore Plaza", "website": "https://stores.soma.com/s/south-shore-plaza", "brand": "Soma"}, "geometry": {"type": "Point", "coordinates": [-71.0040013, 42.2079017]}},
{"type": "Feature", "id": "YeJX_agCKlvAv6wDn_xM-71mlxs=", "properties": {"ref": "1784", "@spider": "soma", "addr:full": "10308 Destiny USA Drive", "addr:city": "Syracuse", "addr:state": "NY", "addr:postcode": "13204", "addr:country": "US", "name": "Destiny USA", "website": "https://stores.soma.com/s/soma-destiny-usa", "brand": "Soma"}, "geometry": {"type": "Point", "coordinates": [-76.1711906, 43.0717901]}},
{"type": "Feature", "id": "lQyX_rdvzYAyy1uwImofcoUsPwE=", "properties": {"ref": "1422", "@spider": "soma", "addr:full": "5217 Buckeystown Pike", "addr:city": "Frederick", "addr:state": "MD", "addr:postcode": "21704", "addr:country": "US", "name": "Westview Promenade", "website": "https://stores.soma.com/s/westview-promenade", "brand": "Soma"}, "geometry": {"type": "Point", "coordinates": [-77.4120322, 39.3736104]}},
{"type": "Feature", "id": "7ZqNMrS3gUOFHKgzP7oljpg5rdU=", "properties": {"ref": "1731", "@spider": "soma", "addr:full": "7101 Democracy Boulevard", "addr:city": "Bethesda", "addr:state": "MD", "addr:postcode": "20817", "addr:country": "US", "name": "Westfield Montgomery", "website": "https://stores.soma.com/s/soma-westfield-montgomery", "brand": "Soma"}, "geometry": {"type": "Point", "coordinates": [-77.1459575, 39.0241209]}},
{"type": "Feature", "id": "sWykDRsBXphpT2uc3YSlVOOe6Wc=", "properties": {"ref": "1501", "@spider": "soma", "addr:full": "4729 Point Fosdick Drive, Space 400", "addr:city": "Gig Harbor", "addr:state": "WA", "addr:postcode": "98335", "addr:country": "US", "name": "Uptown Gig Harbor", "website": "https://stores.soma.com/s/uptown-gig-harbor", "brand": "Soma"}, "geometry": {"type": "Point", "coordinates": [-122.5772147, 47.3012928]}},
{"type": "Feature", "id": "G6_7uxqP3GYf7wS22AT5sNCu3A4=", "properties": {"ref": "1753", "@spider": "soma", "addr:full": "1925 Calle Barcelona., #162", "addr:city": "Carlsbad", "addr:state": "CA", "addr:postcode": "92009", "addr:country": "US", "name": "The Forum at Carlsbad", "website": "https://stores.soma.com/s/soma-the-forum-at-carlsbad", "brand": "Soma"}, "geometry": {"type": "Point", "coordinates": [-117.2660381, 33.0720678]}},
{"type": "Feature", "id": "mbSB1j5WP3Q-5z2OkNK2PwETVao=", "properties": {"ref": "1786", "@spider": "soma", "addr:full": "3450 Wrightsboro Rd, Ste B-228", "addr:city": "Augusta", "addr:state": "GA", "addr:postcode": "30909", "addr:country": "US", "name": "Augusta Mall", "website": "https://stores.soma.com/s/soma-augusta-mall", "brand": "Soma"}, "geometry": {"type": "Point", "coordinates": [-82.0805568, 33.4654142]}},
{"type": "Feature", "id": "rLauuHJCJhfIhUadQ88q1fGqNn4=", "properties": {"ref": "1618", "@spider": "soma", "addr:full": "1256 Fording Island Road, Suite 145", "addr:city": "Bluffton", "addr:state": "SC", "addr:postcode": "29910", "addr:country": "US", "name": "Tanger Outlet Center Hilton Head I", "website": "https://stores.soma.com/s/soma-tanger-outlet-center-hilton-head-i", "brand": "Soma"}, "geometry": {"type": "Point", "coordinates": [-80.8315712, 32.247185]}},
{"type": "Feature", "id": "janNdLtxEhfBBL3fHjGx64gDCgE=", "properties": {"ref": "1901", "@spider": "soma", "addr:full": "#1 North Forest Beach", "addr:city": "Hilton Head Island", "addr:state": "SC", "addr:postcode": "29928", "addr:country": "US", "name": "Coligny Plaza Shopping Center", "website": "https://stores.soma.com/s/coligny-plaza-shopping-center", "brand": "Soma"}, "geometry": {"type": "Point", "coordinates": [-80.7509392, 32.1444205]}},
{"type": "Feature", "id": "7beRiWtR6kSQ9HI3-VR4jXCNfdA=", "properties": {"ref": "1426", "@spider": "soma", "addr:full": "800 Highway 400 South, Ste 855", "addr:city": "Dawsonville", "addr:state": "GA", "addr:postcode": "30534", "addr:country": "US", "name": "North Georgia Premium Outlets", "website": "https://stores.soma.com/s/soma-north-georgia-premium-outlets", "brand": "Soma"}, "geometry": {"type": "Point", "coordinates": [-84.0478628, 34.3578144]}},
{"type": "Feature", "id": "G3xtH6FGgJ-NUNkIfAEI2iN2pYs=", "properties": {"ref": "1524", "@spider": "soma", "addr:full": "835 North Michigan Ave, Ste  302", "addr:city": "Chicago", "addr:state": "IL", "addr:postcode": "60611", "addr:country": "US", "name": "Water Tower Place", "website": "https://stores.soma.com/s/soma-water-tower-place", "brand": "Soma"}, "geometry": {"type": "Point", "coordinates": [-87.6235594, 41.8979675]}},
{"type": "Feature", "id": "NRkCf04jD1Q7PDEBJhodaxWSLnE=", "properties": {"ref": "35018", "@spider": "soma", "addr:full": "1020 Barrow Industrial Par, Ste 100", "addr:city": "Winder", "addr:state": "GA", "addr:postcode": "30680", "addr:country": "US", "name": "Soma Virtual store", "website": "https://stores.soma.com/s/soma-virtual-store", "brand": "Soma"}, "geometry": {"type": "Point", "coordinates": [-83.818496, 33.965261]}},
{"type": "Feature", "id": "Tzow2N2am98VH-UoxjHhWSaeta0=", "properties": {"ref": "1497", "@spider": "soma", "addr:full": "4999 Old Orchard  Center, Suite M20", "addr:city": "Skokie", "addr:state": "IL", "addr:postcode": "60077", "addr:country": "US", "name": "Westfield Old Orchard", "website": "https://stores.soma.com/s/soma-westfield-old-orchard", "brand": "Soma"}, "geometry": {"type": "Point", "coordinates": [-87.7494007, 42.0591148]}},
{"type": "Feature", "id": "x2FOimFz6CwTjgxs_bDZAv4nCho=", "properties": {"ref": "1782", "@spider": "soma", "addr:full": " 410 Peachtree Parkway", "addr:city": "Cumming", "addr:state": "GA", "addr:postcode": "30041", "addr:country": "US", "name": "The Collection at Forsyth", "website": "https://stores.soma.com/s/soma-the-collection-at-forsyth", "brand": "Soma"}, "geometry": {"type": "Point", "coordinates": [-84.1782583, 34.1540934]}},
{"type": "Feature", "id": "qaJRLZCZNCnhSundJHzioRXr9bQ=", "properties": {"ref": "1891", "@spider": "soma", "addr:full": "5525 Abercorn Street", "addr:city": "Savannah", "addr:state": "GA", "addr:postcode": "31405", "addr:country": "US", "name": "Abercorn Walk", "website": "https://stores.soma.com/s/abercorn-walk", "brand": "Soma"}, "geometry": {"type": "Point", "coordinates": [-81.1111707, 32.024832]}},
{"type": "Feature", "id": "BoyTtlqRU03P5u9yPjb1bwQB1Hg=", "properties": {"ref": "1899", "@spider": "soma", "addr:full": "5725 Johnston St", "addr:city": "Lafayette", "addr:state": "LA", "addr:postcode": "70503", "addr:country": "US", "name": "The Mall of Acadiana", "website": "https://stores.soma.com/s/soma-the-mall-of-acadiana", "brand": "Soma"}, "geometry": {"type": "Point", "coordinates": [-92.0758348, 30.1712085]}},
{"type": "Feature", "id": "ho7tDavfGyO3RZytstKOIwf3B_8=", "properties": {"ref": "1904", "@spider": "soma", "addr:full": "1900 North Rock Road, Suite 114", "addr:city": "Wichita", "addr:state": "KS", "addr:postcode": "67206", "addr:country": "US", "name": "Bradley Fair Shopping Center", "website": "https://stores.soma.com/s/soma-bradley-fair-shopping-center", "brand": "Soma"}, "geometry": {"type": "Point", "coordinates": [-97.2425966, 37.7187491]}},
{"type": "Feature", "id": "Z0VKTBZ7PseuTPv0jYcLVZcSEh4=", "properties": {"ref": "1834", "@spider": "soma", "addr:full": "1486 S. Bryant Avenue", "addr:city": "Edmond", "addr:state": "OK", "addr:postcode": "73034", "addr:country": "US", "name": "Spring Creek Plaza", "website": "https://stores.soma.com/s/spring-creek-plaza", "brand": "Soma"}, "geometry": {"type": "Point", "coordinates": [-97.4594457, 35.6388064]}},
{"type": "Feature", "id": "qO2SK3BY2da2lhKXx3DftrByLCs=", "properties": {"ref": "1433", "@spider": "soma", "addr:full": "7634 West Reno Avenue, Suite 630", "addr:city": "Oklahoma City", "addr:state": "OK", "addr:postcode": "73127", "addr:country": "US", "name": "The Outlet Shoppes at Oklahoma City", "website": "https://stores.soma.com/s/the-outlet-shoppes-at-oklahoma-city", "brand": "Soma"}, "geometry": {"type": "Point", "coordinates": [-97.6502462, 35.4624406]}},
{"type": "Feature", "id": "5vzkoTbDkZuCXL7AGk1F2942ckI=", "properties": {"ref": "1852", "@spider": "soma", "addr:full": "1037 East Interstate 30, Suite 103", "addr:city": "Rockwall", "addr:state": "TX", "addr:postcode": "75087", "addr:country": "US", "name": "Plaza at Rockwall", "website": "https://stores.soma.com/s/plaza-at-rockwall", "brand": "Soma"}, "geometry": {"type": "Point", "coordinates": [-96.4511953, 32.9084682]}},
{"type": "Feature", "id": "jh67H_rDKI2iHgv5lj6_K6K8sq0=", "properties": {"ref": "1879", "@spider": "soma", "addr:full": "831 Watters Creek Blvd", "addr:city": "Allen", "addr:state": "TX", "addr:postcode": "75013", "addr:country": "US", "name": "Watters Creek at Montgomery Farm", "website": "https://stores.soma.com/s/soma-watters-creek-at-montgomery-farm", "brand": "Soma"}, "geometry": {"type": "Point", "coordinates": [-96.6951938, 33.1235926]}},
{"type": "Feature", "id": "IC-Su4twJovjFQPFCPoBXLVHY4c=", "properties": {"ref": "1721", "@spider": "soma", "addr:full": "303 Veterans Pkwy.", "addr:city": "Normal", "addr:state": "IL", "addr:postcode": "61761", "addr:country": "US", "name": "The Shoppes at College Hills", "website": "https://stores.soma.com/s/soma-the-shoppes-at-college-hills", "brand": "Soma"}, "geometry": {"type": "Point", "coordinates": [-88.955502, 40.5075211]}},
{"type": "Feature", "id": "ddozmEe4YmB5BQPzgnJFIskt0nM=", "properties": {"ref": "1622", "@spider": "soma", "addr:full": "340 The Bridge Street.", "addr:city": "Huntsville", "addr:state": "AL", "addr:postcode": "35806", "addr:country": "US", "name": "Bridge Street Town Centre (Huntsvil", "website": "https://stores.soma.com/s/soma-bridge-street-town-centre-huntsvil", "brand": "Soma"}, "geometry": {"type": "Point", "coordinates": [-86.6731849, 34.7174527]}},
{"type": "Feature", "id": "5lr9vl3pi615Wy5e-WrNxGwjuKY=", "properties": {"ref": "1871", "@spider": "soma", "addr:full": "66 West Towne Mall", "addr:city": "Madison", "addr:state": "WI", "addr:postcode": "53719", "addr:country": "US", "name": "West Towne Mall", "website": "https://stores.soma.com/s/west-towne-mall", "brand": "Soma"}, "geometry": {"type": "Point", "coordinates": [-89.5063665, 43.0572549]}},
{"type": "Feature", "id": "cnzYuJzk34d6-cZVRItjlNy_i7k=", "properties": {"ref": "1428", "@spider": "soma", "addr:full": "5201 West War Memorial Dr, Ste 420", "addr:city": "Peoria", "addr:state": "IL", "addr:postcode": "61615", "addr:country": "US", "name": "Shoppes at Grand Prairie", "website": "https://stores.soma.com/s/soma-shoppes-at-grand-prairie", "brand": "Soma"}, "geometry": {"type": "Point", "coordinates": [-89.673712, 40.7787369]}},
{"type": "Feature", "id": "R69Zy-MTWsjHJtYmHbIx_NH4qZg=", "properties": {"ref": "1644", "@spider": "soma", "addr:full": "6301 Whitesville Road", "addr:city": "Columbus", "addr:state": "GA", "addr:postcode": "31904", "addr:country": "US", "name": "The Shoppes at Bradley Park", "website": "https://stores.soma.com/s/the-shoppes-at-bradley-park", "brand": "Soma"}, "geometry": {"type": "Point", "coordinates": [-84.9665198, 32.5354583]}},
{"type": "Feature", "id": "maGBxNZrHEHi9p3dUgrdxA2MPg8=", "properties": {"ref": "1720", "@spider": "soma", "addr:full": "4751 River City Dr, Suite 113", "addr:city": "Jacksonville", "addr:state": "FL", "addr:postcode": "32246", "addr:country": "US", "name": "St Johns Town Center", "website": "https://stores.soma.com/s/soma-st-johns-town-center", "brand": "Soma"}, "geometry": {"type": "Point", "coordinates": [-81.5250002, 30.2563526]}},
{"type": "Feature", "id": "qK35jj0qimiQfAJMmkKaYnlSdQQ=", "properties": {"ref": "1424", "@spider": "soma", "addr:full": "2700 State Road 16, Ste 1002", "addr:city": "St Augustine", "addr:state": "FL", "addr:postcode": "32092", "addr:country": "US", "name": "St. Augustine Premium Outlets", "website": "https://stores.soma.com/s/soma-st-augustine-premium-outlets", "brand": "Soma"}, "geometry": {"type": "Point", "coordinates": [-81.415791, 29.921074]}},
{"type": "Feature", "id": "5X3ahXEJa97eLPYTvo4SkK-af_g=", "properties": {"ref": "1492", "@spider": "soma", "addr:full": "117 Summit Boulevard, Suite A4", "addr:city": "Birmingham", "addr:state": "AL", "addr:postcode": "35243", "addr:country": "US", "name": "The Summit Birmingham", "website": "https://stores.soma.com/s/the-summit-birmingham", "brand": "Soma"}, "geometry": {"type": "Point", "coordinates": [-86.7315676, 33.4458389]}},
{"type": "Feature", "id": "aqKeYoIm-2HQmGQ-FcnKk2lUY7U=", "properties": {"ref": "1750", "@spider": "soma", "addr:full": "46 West County Center", "addr:city": "Des Peres", "addr:state": "MO", "addr:postcode": "63131", "addr:country": "US", "name": "West County Center", "website": "https://stores.soma.com/s/west-county-center", "brand": "Soma"}, "geometry": {"type": "Point", "coordinates": [-90.4468532, 38.6004016]}},
{"type": "Feature", "id": "fLg6CG5-SXxkCaIx71Om_V_T1p8=", "properties": {"ref": "1851", "@spider": "soma", "addr:full": "8021 L Tysons Corner Center", "addr:city": "McLean", "addr:state": "VA", "addr:postcode": "22102", "addr:country": "US", "name": "Tysons Corner Center", "website": "https://stores.soma.com/s/tysons-corner-center", "brand": "Soma"}, "geometry": {"type": "Point", "coordinates": [-77.2217, 38.9161]}},
{"type": "Feature", "id": "dV6DajMIPtLOSKWEk7YGmXS8_gc=", "properties": {"ref": "1897", "@spider": "soma", "addr:full": "6819 Springfield Mall", "addr:city": "Springfield", "addr:state": "VA", "addr:postcode": "22150", "addr:country": "US", "name": "Springfield Town Center", "website": "https://stores.soma.com/s/soma-springfield-town-center", "brand": "Soma"}, "geometry": {"type": "Point", "coordinates": [-77.1774606, 38.7738859]}},
{"type": "Feature", "id": "CKtMzZ5NnJhBn_LPFySuR89kBsI=", "properties": {"ref": "1512", "@spider": "soma", "addr:full": "15100 Potomac Town Place, Suite 150", "addr:city": "Woodbridge", "addr:state": "VA", "addr:postcode": "22191", "addr:country": "US", "name": "Stonebridge at Potomac Town Center", "website": "https://stores.soma.com/s/soma-stonebridge-at-potomac-town-center", "brand": "Soma"}, "geometry": {"type": "Point", "coordinates": [-77.2879754, 38.627875]}},
{"type": "Feature", "id": "pr9a19DCjkL4LuSfrhnobMh89Ng=", "properties": {"ref": "1907", "@spider": "soma", "addr:full": "14005 Promenade Commons Street", "addr:city": "Gainesville", "addr:state": "VA", "addr:postcode": "20155", "addr:country": "US", "name": "Virginia Gateway", "website": "https://stores.soma.com/s/soma-virginia-gateway", "brand": "Soma"}, "geometry": {"type": "Point", "coordinates": [-77.6063318, 38.7885892]}},
{"type": "Feature", "id": "BnCHtCAFRzpXcokIf5dTujx5uHY=", "properties": {"ref": "1835", "@spider": "soma", "addr:full": "257 Eastview Mall, Space F9", "addr:city": "Victor", "addr:state": "NY", "addr:postcode": "14564", "addr:country": "US", "name": "Eastview Mall", "website": "https://stores.soma.com/s/soma-eastview-mall", "brand": "Soma"}, "geometry": {"type": "Point", "coordinates": [-77.4440761, 43.0296947]}},
{"type": "Feature", "id": "o0EdDLEO1cQrYnmz2alh-9P3BbE=", "properties": {"ref": "1511", "@spider": "soma", "addr:full": "1 Towne Centre Blvd, Suite 2300", "addr:city": "Fredericksburg", "addr:state": "VA", "addr:postcode": "22407", "addr:country": "US", "name": "The Village at Spotsylvania Towne C", "website": "https://stores.soma.com/s/the-village-at-spotsylvania-towne-c", "brand": "Soma"}, "geometry": {"type": "Point", "coordinates": [-77.510197, 38.288465]}},
{"type": "Feature", "id": "AYCuVTsAYXN4HE5hFO7377uJbn4=", "properties": {"ref": "3048", "@spider": "soma", "addr:full": "128A The Shops at Mission Viejo.", "addr:city": "Mission Viejo", "addr:state": "CA", "addr:postcode": "92691", "addr:country": "US", "name": "The Shops at Mission Viejo", "website": "https://stores.soma.com/s/soma-the-shops-at-mission-viejo", "brand": "Soma"}, "geometry": {"type": "Point", "coordinates": [-117.6675938, 33.559289]}},
{"type": "Feature", "id": "h8Yjrh2QB-2B1Tbgbem2uNiFu8A=", "properties": {"ref": "1793", "@spider": "soma", "addr:full": "12000 SE 82nd Avenue, Suite 1050", "addr:city": "Happy Valley", "addr:state": "OR", "addr:postcode": "97086", "addr:country": "US", "name": "Clackamas Town Center", "website": "https://stores.soma.com/s/soma-clackamas-town-center", "brand": "Soma"}, "geometry": {"type": "Point", "coordinates": [-122.5713485, 45.4357354]}},
{"type": "Feature", "id": "weSG_od6bEaSCdCh22pSHfkLt5g=", "properties": {"ref": "1619", "@spider": "soma", "addr:full": "3333 Bear Street, Ste 201", "addr:city": "Costa Mesa", "addr:state": "CA", "addr:postcode": "92626", "addr:country": "US", "name": "South Coast Plaza", "website": "https://stores.soma.com/s/soma-south-coast-plaza", "brand": "Soma"}, "geometry": {"type": "Point", "coordinates": [-117.892915, 33.692049]}},
{"type": "Feature", "id": "3iQdN4MZXlsSZoP9Wi_BhF1UMqY=", "properties": {"ref": "1344", "@spider": "soma", "addr:full": "12205 Seal Beach Blvd", "addr:city": "Seal Beach", "addr:state": "CA", "addr:postcode": "90740", "addr:country": "US", "name": "The Shops at Rossmoor", "website": "https://stores.soma.com/s/the-shops-at-rossmoor", "brand": "Soma"}, "geometry": {"type": "Point", "coordinates": [-118.0733608, 33.7854271]}},
{"type": "Feature", "id": "kua7pSTY4YicWOyAGFPPuNklDuA=", "properties": {"ref": "1528", "@spider": "soma", "addr:full": "9330 SW Washington Square Rd", "addr:city": "Tigard", "addr:state": "OR", "addr:postcode": "97223", "addr:country": "US", "name": "Washington Square", "website": "https://stores.soma.com/s/soma-washington-square", "brand": "Soma"}, "geometry": {"type": "Point", "coordinates": [-122.782964, 45.452849]}},
{"type": "Feature", "id": "9_eGjwiGmtkMBvLjizJGVaLk2tw=", "properties": {"ref": "1348", "@spider": "soma", "addr:full": "24201 W Valencia Blvd, Ste 3634", "addr:city": "Valencia", "addr:state": "CA", "addr:postcode": "91355", "addr:country": "US", "name": "Westfield Valencia Town Center", "website": "https://stores.soma.com/s/soma-westfield-valencia-town-center", "brand": "Soma"}, "geometry": {"type": "Point", "coordinates": [-118.5576289, 34.4156571]}},
{"type": "Feature", "id": "wBmTy5yTSlbkTQ8LSRITVyzwuSY=", "properties": {"ref": "1814", "@spider": "soma", "addr:full": "14006 Riverside Drive, #73", "addr:city": "Sherman Oaks", "addr:state": "CA", "addr:postcode": "91423", "addr:country": "US", "name": "Westfield Fashion Square", "website": "https://stores.soma.com/s/soma-westfield-fashion-square", "brand": "Soma"}, "geometry": {"type": "Point", "coordinates": [-118.437235, 34.156972]}},
{"type": "Feature", "id": "MeUwXouZHUW5m9uWCDTSMEDRxk4=", "properties": {"ref": "1658", "@spider": "soma", "addr:full": "768 West Shaw Avenue, Ste. 105", "addr:city": "Fresno", "addr:state": "CA", "addr:postcode": "93704", "addr:country": "US", "name": "Fig Garden Village", "website": "https://stores.soma.com/s/fig-garden-village", "brand": "Soma"}, "geometry": {"type": "Point", "coordinates": [-119.8050551, 36.8085027]}},
{"type": "Feature", "id": "QN__d3CS6F66bHPMgoNfg2o03I4=", "properties": {"ref": "1434", "@spider": "soma", "addr:full": "9000 Ming Avenue", "addr:city": "Bakersfield", "addr:state": "CA", "addr:postcode": "93311", "addr:country": "US", "name": "The Marketplace", "website": "https://stores.soma.com/s/soma-the-marketplace", "brand": "Soma"}, "geometry": {"type": "Point", "coordinates": [-119.1033447, 35.3414141]}},
{"type": "Feature", "id": "j_3AiHo6BdiinYUEZTiMpFh2MTY=", "properties": {"ref": "1745", "@spider": "soma", "addr:full": "3200 N Sepulveda Blvd, Suite A-6", "addr:city": "Manhattan Beach", "addr:state": "CA", "addr:postcode": "90266", "addr:country": "US", "name": "Manhattan Village", "website": "https://stores.soma.com/s/manhattan-village", "brand": "Soma"}, "geometry": {"type": "Point", "coordinates": [-118.394016, 33.8995437]}},
{"type": "Feature", "id": "sIGbndc1Gr2_gaqfDLlMyu9fZjQ=", "properties": {"ref": "1531", "@spider": "soma", "addr:full": "2146 Northbrook Court", "addr:city": "Northbrook", "addr:state": "IL", "addr:postcode": "60062", "addr:country": "US", "name": "Northbrook Court", "website": "https://stores.soma.com/s/northbrook-court", "brand": "Soma"}, "geometry": {"type": "Point", "coordinates": [-87.8168414, 42.1512579]}},
{"type": "Feature", "id": "hbX8aqafa7DMTGlTAGGIlg26mr4=", "properties": {"ref": "1893", "@spider": "soma", "addr:full": "9500 West 143rd St", "addr:city": "Orland Park", "addr:state": "IL", "addr:postcode": "60462", "addr:country": "US", "name": "Orland Park Crossing", "website": "https://stores.soma.com/s/orland-park-crossing", "brand": "Soma"}, "geometry": {"type": "Point", "coordinates": [-87.851927, 41.6315301]}},
{"type": "Feature", "id": "JaI_B8ctSOB10g81-TLI0gqPiXo=", "properties": {"ref": "1832", "@spider": "soma", "addr:full": "2115 Gunbarrel Rd, Ste 5", "addr:city": "Chattanooga", "addr:state": "TN", "addr:postcode": "37421", "addr:country": "US", "name": "Hamilton Corner", "website": "https://stores.soma.com/s/hamilton-corner", "brand": "Soma"}, "geometry": {"type": "Point", "coordinates": [-85.153992, 35.03446]}},
{"type": "Feature", "id": "T9XvNk8bnzhwxVv5JzaKwPzAV_8=", "properties": {"ref": "1778", "@spider": "soma", "addr:full": "2601 Preston Road, Ste. 1198", "addr:city": "Frisco", "addr:state": "TX", "addr:postcode": "75034", "addr:country": "US", "name": "Stonebriar Centre", "website": "https://stores.soma.com/s/stonebriar-centre", "brand": "Soma"}, "geometry": {"type": "Point", "coordinates": [-96.8113749, 33.0991489]}},
{"type": "Feature", "id": "ovSWYRd54lx_Y5FAy5bOv3x-8I4=", "properties": {"ref": "1525", "@spider": "soma", "addr:full": "1900 Preston Road, Ste.  160", "addr:city": "Plano", "addr:state": "TX", "addr:postcode": "75093", "addr:country": "US", "name": "Preston Park Village", "website": "https://stores.soma.com/s/preston-park-village", "brand": "Soma"}, "geometry": {"type": "Point", "coordinates": [-96.7910958, 33.0252916]}},
{"type": "Feature", "id": "HRSAGH5Vhtu8H9NIvx60jf0KJB4=", "properties": {"ref": "1684", "@spider": "soma", "addr:full": "17089 North Outer 40 Rd", "addr:city": "Chesterfield", "addr:state": "MO", "addr:postcode": "63005", "addr:country": "US", "name": "Taubman Prestige Outlets of Chester", "website": "https://stores.soma.com/s/taubman-prestige-outlets-of-chester", "brand": "Soma"}, "geometry": {"type": "Point", "coordinates": [-90.5834763, 38.6707479]}},
{"type": "Feature", "id": "BdvgfX2u4yYV44KLVrP9gNb5SwA=", "properties": {"ref": "1738", "@spider": "soma", "addr:full": "1113 Main Street", "addr:city": "The Villages", "addr:state": "FL", "addr:postcode": "32159", "addr:country": "US", "name": "Spanish Springs Town Square", "website": "https://stores.soma.com/s/spanish-springs-town-square", "brand": "Soma"}, "geometry": {"type": "Point", "coordinates": [-81.949352, 28.940933]}},
{"type": "Feature", "id": "TLoWxPvVQBmV_pAPFudD3pA5TnY=", "properties": {"ref": "1647", "@spider": "soma", "addr:full": "460 Orlando Ave, Suite 112", "addr:city": "Winter Park", "addr:state": "FL", "addr:postcode": "32789", "addr:country": "US", "name": "Winter Park Village", "website": "https://stores.soma.com/s/soma-winter-park-village", "brand": "Soma"}, "geometry": {"type": "Point", "coordinates": [-81.36513, 28.60376]}},
{"type": "Feature", "id": "y6gpGc9-iG0qQTszoGysUGl4lU4=", "properties": {"ref": "3944", "@spider": "soma", "addr:full": "7615 W Farmington Blvd, Ste 34", "addr:city": "Germantown", "addr:state": "TN", "addr:postcode": "38138", "addr:country": "US", "name": "The Shops of Saddle Creek", "website": "https://stores.soma.com/s/soma-the-shops-of-saddle-creek", "brand": "Soma"}, "geometry": {"type": "Point", "coordinates": [-89.809148, 35.094732]}},
{"type": "Feature", "id": "SdwDsg9CwpFz8C22zw_yIofj-Fs=", "properties": {"ref": "1806", "@spider": "soma", "addr:full": "111 South Broadway., Suite 104", "addr:city": "Rochester", "addr:state": "MN", "addr:postcode": "55904", "addr:country": "US", "name": "Shops at University Square", "website": "https://stores.soma.com/s/shops-at-university-square", "brand": "Soma"}, "geometry": {"type": "Point", "coordinates": [-92.4634778, 44.0224899]}},
{"type": "Feature", "id": "OkK4t3GGajNsqOsu9wO3ugaU9Vg=", "properties": {"ref": "1723", "@spider": "soma", "addr:full": "28250 Paseo Drive, 130", "addr:city": "Wesley Chapel", "addr:state": "FL", "addr:postcode": "33543", "addr:country": "US", "name": "The Shops at Wiregrass", "website": "https://stores.soma.com/s/soma-the-shops-at-wiregrass", "brand": "Soma"}, "geometry": {"type": "Point", "coordinates": [-82.3487031, 28.1886023]}},
{"type": "Feature", "id": "9vT7gcR2Qg3rpQB-Pb3nE1-C7js=", "properties": {"ref": "1869", "@spider": "soma", "addr:full": "1445 Town Center", "addr:city": "Lakeland", "addr:state": "FL", "addr:postcode": "33803", "addr:country": "US", "name": "Lakeside Village", "website": "https://stores.soma.com/s/lakeside-village", "brand": "Soma"}, "geometry": {"type": "Point", "coordinates": [-81.9766313, 28.0019685]}},
{"type": "Feature", "id": "TInykf-bkcsGcBVEVGuARUUIk1s=", "properties": {"ref": "1743", "@spider": "soma", "addr:full": "4365 Legendary Drive, D103", "addr:city": "Destin", "addr:state": "FL", "addr:postcode": "32541", "addr:country": "US", "name": "Destin Commons", "website": "https://stores.soma.com/s/destin-commons", "brand": "Soma"}, "geometry": {"type": "Point", "coordinates": [-86.4240988, 30.3911423]}},
{"type": "Feature", "id": "XbhuLmrThwoUhIn_qLXfB8iesBQ=", "properties": {"ref": "1845", "@spider": "soma", "addr:full": "9040 Hudson Road", "addr:city": "Woodbury", "addr:state": "MN", "addr:postcode": "55125", "addr:country": "US", "name": "Woodbury Lakes", "website": "https://stores.soma.com/s/soma-woodbury-lakes", "brand": "Soma"}, "geometry": {"type": "Point", "coordinates": [-92.9223011, 44.9452677]}},
{"type": "Feature", "id": "oC7aa0Gd7Wu_RtSURyYm8ikCwlA=", "properties": {"ref": "1581", "@spider": "soma", "addr:full": "8077 Citrus Park Town C, Space 8077", "addr:city": "Tampa", "addr:state": "FL", "addr:postcode": "33625", "addr:country": "US", "name": "Westfield Citrus Park", "website": "https://stores.soma.com/s/westfield-citrus-park", "brand": "Soma"}, "geometry": {"type": "Point", "coordinates": [-82.577848, 28.0688742]}},
{"type": "Feature", "id": "hogpkbpASiRqN19oywLdWPTd2jk=", "properties": {"ref": "1682", "@spider": "soma", "addr:full": "2223 N Westshore Blvd", "addr:city": "Tampa", "addr:state": "FL", "addr:postcode": "33607", "addr:country": "US", "name": "International Plaza and Bay Street", "website": "https://stores.soma.com/s/soma-international-plaza-and-bay-street", "brand": "Soma"}, "geometry": {"type": "Point", "coordinates": [-82.524032, 27.959678]}},
{"type": "Feature", "id": "yeTOzK-nygWvI8ChjniDcy9zTeI=", "properties": {"ref": "1583", "@spider": "soma", "addr:full": "27001 US Highway 19 N, Spc 2019", "addr:city": "Clearwater", "addr:state": "FL", "addr:postcode": "33761", "addr:country": "US", "name": "Westfield Countryside", "website": "https://stores.soma.com/s/westfield-countryside", "brand": "Soma"}, "geometry": {"type": "Point", "coordinates": [-82.734008, 28.016614]}},
{"type": "Feature", "id": "xXkVlIUF5UB5UUSxZmAB8uxP1y8=", "properties": {"ref": "1739", "@spider": "soma", "addr:full": "1595 Highway 36 W, Sp 380", "addr:city": "Roseville", "addr:state": "MN", "addr:postcode": "55113", "addr:country": "US", "name": "Rosedale Center", "website": "https://stores.soma.com/s/soma-rosedale-center", "brand": "Soma"}, "geometry": {"type": "Point", "coordinates": [-93.168842, 45.012839]}},
{"type": "Feature", "id": "sb5k_R334b3kaw2pYnWJcSdoHuw=", "properties": {"ref": "1866", "@spider": "soma", "addr:full": "135 West Market, Suite W135", "addr:city": "Bloomington", "addr:state": "MN", "addr:postcode": "55425", "addr:country": "US", "name": "Mall of America", "website": "https://stores.soma.com/s/soma-mall-of-america", "brand": "Soma"}, "geometry": {"type": "Point", "coordinates": [-93.2446758, 44.8545518]}},
{"type": "Feature", "id": "IdChLm0BO8wIvhd_VzR_67paf5s=", "properties": {"ref": "1847", "@spider": "soma", "addr:full": "364 Maine Mall Rd", "addr:city": "South Portland", "addr:state": "ME", "addr:postcode": "04106", "addr:country": "US", "name": "Maine Mall", "website": "https://stores.soma.com/s/soma-maine-mall", "brand": "Soma"}, "geometry": {"type": "Point", "coordinates": [-70.3344073, 43.6337186]}},
{"type": "Feature", "id": "-ZLwIPqF9qRb5YJvP7Jxp8QD-D8=", "properties": {"ref": "1708", "@spider": "soma", "addr:full": "5715-74 Richmond Road, Ste 74", "addr:city": "Williamsburg", "addr:state": "VA", "addr:postcode": "23188", "addr:country": "US", "name": "Williamsburg Premium Outlets", "website": "https://stores.soma.com/s/soma-williamsburg-premium-outlets", "brand": "Soma"}, "geometry": {"type": "Point", "coordinates": [-76.7375873, 37.3210839]}},
{"type": "Feature", "id": "okCKzuojqb3UbMSOS9YWBZsNy0c=", "properties": {"ref": "1579", "@spider": "soma", "addr:full": "11800 W. Broad Street, Suite 2332", "addr:city": "Richmond", "addr:state": "VA", "addr:postcode": "23233", "addr:country": "US", "name": "Short Pump Town Center", "website": "https://stores.soma.com/s/soma-short-pump-town-center", "brand": "Soma"}, "geometry": {"type": "Point", "coordinates": [-77.6201591, 37.6568884]}},
{"type": "Feature", "id": "06Fm_lZG2i3FqS77_pg1EtB3HPM=", "properties": {"ref": "1706", "@spider": "soma", "addr:full": "518 West Hillcrest Dr, R009", "addr:city": "Thousand Oaks", "addr:state": "CA", "addr:postcode": "91360", "addr:country": "US", "name": "The Oaks", "website": "https://stores.soma.com/s/soma-the-oaks", "brand": "Soma"}, "geometry": {"type": "Point", "coordinates": [-118.8674737, 34.1812977]}},
{"type": "Feature", "id": "n2I6GY9rshpl3aJi2_b6UwDSCv8=", "properties": {"ref": "1841", "@spider": "soma", "addr:full": "320 Palladio Parkway", "addr:city": "Folsom", "addr:state": "CA", "addr:postcode": "95630", "addr:country": "US", "name": "Palladio at Broadstone", "website": "https://stores.soma.com/s/soma-palladio-at-broadstone", "brand": "Soma"}, "geometry": {"type": "Point", "coordinates": [-121.1189634, 38.6498044]}},
{"type": "Feature", "id": "bwsWO95chfW-SD9SgKEemmmg41o=", "properties": {"ref": "1707", "@spider": "soma", "addr:full": "1013 Galleria Blvd, Ste 120", "addr:city": "Roseville", "addr:state": "CA", "addr:postcode": "95678", "addr:country": "US", "name": "The Fountains", "website": "https://stores.soma.com/s/soma-the-fountains", "brand": "Soma"}, "geometry": {"type": "Point", "coordinates": [-121.2690734, 38.7675389]}},
{"type": "Feature", "id": "h8kLj81Ufo3mL7sbikqqR_T9gOA=", "properties": {"ref": "1649", "@spider": "soma", "addr:full": "631 Town Center Drive", "addr:city": "Oxnard", "addr:state": "CA", "addr:postcode": "93036", "addr:country": "US", "name": "The Collection at Riverpark", "website": "https://stores.soma.com/s/the-collection-at-riverpark", "brand": "Soma"}, "geometry": {"type": "Point", "coordinates": [-119.1774124, 34.240043]}},
{"type": "Feature", "id": "quyhkGoqUwlRfbtL97eayvaAZeg=", "properties": {"ref": "1886", "@spider": "soma", "addr:full": "508 Pavilions Ln", "addr:city": "Sacramento", "addr:state": "CA", "addr:postcode": "95825", "addr:country": "US", "name": "Pavilions", "website": "https://stores.soma.com/s/pavilions", "brand": "Soma"}, "geometry": {"type": "Point", "coordinates": [-121.4105345, 38.575326]}},
{"type": "Feature", "id": "2TubNNcLiX3CwUBejYJq-0MKPKU=", "properties": {"ref": "1794", "@spider": "soma", "addr:full": "2625 Stoneridge Mall Rd", "addr:city": "Pleasanton", "addr:state": "CA", "addr:postcode": "94588", "addr:country": "US", "name": "Stoneridge Shopping Center", "website": "https://stores.soma.com/s/soma-stoneridge-shopping-center", "brand": "Soma"}, "geometry": {"type": "Point", "coordinates": [-121.92808, 37.695888]}},
{"type": "Feature", "id": "tDZMwDZ_b8jQjc8MKMpcEuzcHD4=", "properties": {"ref": "3205", "@spider": "soma", "addr:full": "45 Broadway Ln", "addr:city": "Walnut Creek", "addr:state": "CA", "addr:postcode": "94596", "addr:country": "US", "name": "Broadway Plaza", "website": "https://stores.soma.com/s/soma-broadway-plaza", "brand": "Soma"}, "geometry": {"type": "Point", "coordinates": [-122.0582492, 37.8946721]}},
{"type": "Feature", "id": "-mnBXbz3U7O2FbLUHwd6OhKay0w=", "properties": {"ref": "1617", "@spider": "soma", "addr:full": "2855 Stevens Creek Blvd., Ste 2429", "addr:city": "Santa Clara", "addr:state": "CA", "addr:postcode": "95050", "addr:country": "US", "name": "Westfield Valley Fair", "website": "https://stores.soma.com/s/soma-westfield-valley-fair", "brand": "Soma"}, "geometry": {"type": "Point", "coordinates": [-121.9453801, 37.3253267]}},
{"type": "Feature", "id": "M6S3-RS-6PiIRP4y1ilY9mHlBFI=", "properties": {"ref": "1880", "@spider": "soma", "addr:full": "718 Village Court.", "addr:city": "Santa Rosa", "addr:state": "CA", "addr:postcode": "95405", "addr:country": "US", "name": "Montgomery Village Shopping Center", "website": "https://stores.soma.com/s/montgomery-village-shopping-center", "brand": "Soma"}, "geometry": {"type": "Point", "coordinates": [-122.6864529, 38.4437063]}},
{"type": "Feature", "id": "YmXFr8mYUoNTLl8zSSUN4lIPiw4=", "properties": {"ref": "1527", "@spider": "soma", "addr:full": "452 Oakbrook Center", "addr:city": "Oak Brook", "addr:state": "IL", "addr:postcode": "60523", "addr:country": "US", "name": "Oakbrook Center", "website": "https://stores.soma.com/s/oakbrook-center", "brand": "Soma"}, "geometry": {"type": "Point", "coordinates": [-87.9505431, 41.8509705]}},
{"type": "Feature", "id": "oEL740IIZXnZY6TZKibWc6YGxfw=", "properties": {"ref": "1838", "@spider": "soma", "addr:full": "5145 Peachtree Parkway, Suite 453", "addr:city": "Norcross", "addr:state": "GA", "addr:postcode": "30092", "addr:country": "US", "name": "The Forum on Peachtree Parkway", "website": "https://stores.soma.com/s/the-forum-on-peachtree-parkway", "brand": "Soma"}, "geometry": {"type": "Point", "coordinates": [-84.2164277, 33.9815796]}},
{"type": "Feature", "id": "t8GKUINBZuHjiVvDtXf0mukaXo8=", "properties": {"ref": "1903", "@spider": "soma", "addr:full": "122 Hawthorn Center", "addr:city": "Vernon Hills", "addr:state": "IL", "addr:postcode": "60061", "addr:country": "US", "name": "Hawthorn Mall", "website": "https://stores.soma.com/s/hawthorn-mall", "brand": "Soma"}, "geometry": {"type": "Point", "coordinates": [-87.9499412, 42.2430635]}},
{"type": "Feature", "id": "4RLsu-v5-cP7ZAawHLj5hxe6xBo=", "properties": {"ref": "1747", "@spider": "soma", "addr:full": "7300 North Point Parkway, Ste 116", "addr:city": "Alpharetta", "addr:state": "GA", "addr:postcode": "30022", "addr:country": "US", "name": "North Point Village", "website": "https://stores.soma.com/s/north-point-village", "brand": "Soma"}, "geometry": {"type": "Point", "coordinates": [-84.3017305, 34.0422922]}},
{"type": "Feature", "id": "5OCG9qA2FltGBJLao6Bt2GQwtWg=", "properties": {"ref": "1709", "@spider": "soma", "addr:full": "20530 North Rand Road, Suite 330", "addr:city": "Deer Park", "addr:state": "IL", "addr:postcode": "60010", "addr:country": "US", "name": "Deer Park Town Center", "website": "https://stores.soma.com/s/deer-park-town-center", "brand": "Soma"}, "geometry": {"type": "Point", "coordinates": [-88.053225, 42.1603071]}},
{"type": "Feature", "id": "OfVmP-E2cDgXtx-j0SKCptmDvTY=", "properties": {"ref": "1660", "@spider": "soma", "addr:full": "4400 Ashford Dunwoody Rd., Ste 1610", "addr:city": "Atlanta", "addr:state": "GA", "addr:postcode": "30346", "addr:country": "US", "name": "Perimeter Mall", "website": "https://stores.soma.com/s/soma-perimeter-mall", "brand": "Soma"}, "geometry": {"type": "Point", "coordinates": [-84.3400292, 33.9232565]}},
{"type": "Feature", "id": "MNKPxEqMfN_yYLYfT2BpbhJNE28=", "properties": {"ref": "1730", "@spider": "soma", "addr:full": "4475 Roswell Rd, Suite 1200", "addr:city": "Marietta", "addr:state": "GA", "addr:postcode": "30062", "addr:country": "US", "name": "The Avenue East Cobb", "website": "https://stores.soma.com/s/the-avenue-east-cobb", "brand": "Soma"}, "geometry": {"type": "Point", "coordinates": [-84.4205625, 33.9882766]}},
{"type": "Feature", "id": "cBe7F2qZUnAZH9HxlS3IAfXSu3Q=", "properties": {"ref": "1483", "@spider": "soma", "addr:full": "533 Preston Royal Shopping Center", "addr:city": "Dallas", "addr:state": "TX", "addr:postcode": "75230", "addr:country": "US", "name": "Preston Royal Shopping Center", "website": "https://stores.soma.com/s/preston-royal-shopping-center", "brand": "Soma"}, "geometry": {"type": "Point", "coordinates": [-96.7868794, 32.9005121]}},
{"type": "Feature", "id": "_pIgl8pojHqgHUi3anGVHkBEMjE=", "properties": {"ref": "1461", "@spider": "soma", "addr:full": "4071 Deer Creek, Ste 120", "addr:city": "Highland Village", "addr:state": "TX", "addr:postcode": "75077", "addr:country": "US", "name": "The Shops at Highland Village", "website": "https://stores.soma.com/s/soma-the-shops-at-highland-village", "brand": "Soma"}, "geometry": {"type": "Point", "coordinates": [-97.085364, 33.0734188]}},
{"type": "Feature", "id": "F-DNzHN4qMkb2DtkArkmGf3ZrCQ=", "properties": {"ref": "1529", "@spider": "soma", "addr:full": "301 Grand Avenue West.", "addr:city": "Southlake", "addr:state": "TX", "addr:postcode": "76092", "addr:country": "US", "name": "Southlake Town Square", "website": "https://stores.soma.com/s/southlake-town-square", "brand": "Soma"}, "geometry": {"type": "Point", "coordinates": [-97.1303853, 32.9442475]}},
{"type": "Feature", "id": "NuQ312QS9mDRvR64NSAEl3ANeRw=", "properties": {"ref": "1760", "@spider": "soma", "addr:full": "2950 West Interstate 20, Suite 417", "addr:city": "Grand Prairie", "addr:state": "TX", "addr:postcode": "75052", "addr:country": "US", "name": "Grand Prairie Premium Outlets", "website": "https://stores.soma.com/s/soma-grand-prairie-premium-outlets", "brand": "Soma"}, "geometry": {"type": "Point", "coordinates": [-97.0536472, 32.6794741]}},
{"type": "Feature", "id": "5BtEKDSHwhhh-eqAxh7P0jMZkoc=", "properties": {"ref": "1836", "@spider": "soma", "addr:full": "10 Southdale Center", "addr:city": "Edina", "addr:state": "MN", "addr:postcode": "55435", "addr:country": "US", "name": "Southdale Center", "website": "https://stores.soma.com/s/southdale-center", "brand": "Soma"}, "geometry": {"type": "Point", "coordinates": [-93.3252002, 44.8811755]}},
{"type": "Feature", "id": "ohY355LB_N3_UU9x3kKuvF8TBy0=", "properties": {"ref": "1911", "@spider": "soma", "addr:full": "3101 PGA Boulevard", "addr:city": "Palm Beach Gardens", "addr:state": "FL", "addr:postcode": "33410", "addr:country": "US", "name": "The Gardens Mall", "website": "https://stores.soma.com/s/the-gardens-mall", "brand": "Soma"}, "geometry": {"type": "Point", "coordinates": [-80.0853836, 26.8473981]}},
{"type": "Feature", "id": "LTiOdUX1IfR6piQwhA-40ToRzm8=", "properties": {"ref": "1857", "@spider": "soma", "addr:full": "5100 North 9th Avenue, Ste A110A", "addr:city": "Pensacola", "addr:state": "FL", "addr:postcode": "32504", "addr:country": "US", "name": "Cordova Mall", "website": "https://stores.soma.com/s/cordova-mall", "brand": "Soma"}, "geometry": {"type": "Point", "coordinates": [-87.207522, 30.475326]}},
{"type": "Feature", "id": "aRsd8Q36DNSZo1fDVG0s70KZFGM=", "properties": {"ref": "1462", "@spider": "soma", "addr:full": "12645 Wayzata Boulevard", "addr:city": "Minnetonka", "addr:state": "MN", "addr:postcode": "55305", "addr:country": "US", "name": "Ridgedale Center", "website": "https://stores.soma.com/s/ridgedale-center", "brand": "Soma"}, "geometry": {"type": "Point", "coordinates": [-93.439779, 44.9712786]}},
{"type": "Feature", "id": "bjuG92nG5vfwirO4q3hK2xAwbPI=", "properties": {"ref": "3044", "@spider": "soma", "addr:full": "1771 Palm Beach Lakes Blv, Ste W305", "addr:city": "West Palm Beach", "addr:state": "FL", "addr:postcode": "33401", "addr:country": "US", "name": "Palm Beach Outlets", "website": "https://stores.soma.com/s/soma-palm-beach-outlets", "brand": "Soma"}, "geometry": {"type": "Point", "coordinates": [-80.088308, 26.724729]}},
{"type": "Feature", "id": "rMXaXG1IyOO1OEoTN0GCVkaTkh0=", "properties": {"ref": "1495", "@spider": "soma", "addr:full": "101 Jordan Creek Parkway, Ste 11274", "addr:city": "West Des Moines", "addr:state": "IA", "addr:postcode": "50266", "addr:country": "US", "name": "Jordan Creek Town Center", "website": "https://stores.soma.com/s/jordan-creek-town-center", "brand": "Soma"}, "geometry": {"type": "Point", "coordinates": [-93.8070392, 41.5702624]}},
{"type": "Feature", "id": "00ksIFPP56T4Kajf3Paov5fyaug=", "properties": {"ref": "1425", "@spider": "soma", "addr:full": "5253 Factory Shops Boulevard", "addr:city": "Ellenton", "addr:state": "FL", "addr:postcode": "34222", "addr:country": "US", "name": "Ellenton Premium Outlets", "website": "https://stores.soma.com/s/soma-ellenton-premium-outlets", "brand": "Soma"}, "geometry": {"type": "Point", "coordinates": [-82.50667, 27.535176]}},
{"type": "Feature", "id": "wHiwThONuy5R8rfQ6ExaeDtp48g=", "properties": {"ref": "1918", "@spider": "soma", "addr:full": "140 University Town Center Dr", "addr:city": "Sarasota", "addr:state": "FL", "addr:postcode": "34243", "addr:country": "US", "name": "The Mall at University Town Center", "website": "https://stores.soma.com/s/soma-the-mall-at-university-town-center", "brand": "Soma"}, "geometry": {"type": "Point", "coordinates": [-82.4531881, 27.384433]}},
{"type": "Feature", "id": "9djCo9OynZ9Eg4y0W9BCUPjpTR0=", "properties": {"ref": "1484", "@spider": "soma", "addr:full": "443D John Ringling Boulevard", "addr:city": "Sarasota", "addr:state": "FL", "addr:postcode": "34236", "addr:country": "US", "name": "St Armands Circle", "website": "https://stores.soma.com/s/st-armands-circle", "brand": "Soma"}, "geometry": {"type": "Point", "coordinates": [-82.5767522, 27.3190401]}},
{"type": "Feature", "id": "TJiLOStI40tFWzvSWauCuZppIdk=", "properties": {"ref": "1849", "@spider": "soma", "addr:full": "9097 W Atlantic Avenue", "addr:city": "Delray Beach", "addr:state": "FL", "addr:postcode": "33446", "addr:country": "US", "name": "Delray Marketplace", "website": "https://stores.soma.com/s/soma-delray-marketplace", "brand": "Soma"}, "geometry": {"type": "Point", "coordinates": [-80.1908185, 26.454642]}},
{"type": "Feature", "id": "389cEm2PAIvxBKaz55QSpzPkgVo=", "properties": {"ref": "1685", "@spider": "soma", "addr:full": "2601 South McKenzie St, Space 460", "addr:city": "Foley", "addr:state": "AL", "addr:postcode": "36535", "addr:country": "US", "name": "Tanger Outlet Center Foley", "website": "https://stores.soma.com/s/soma-tanger-outlet-center-foley", "brand": "Soma"}, "geometry": {"type": "Point", "coordinates": [-87.6799151, 30.3758599]}},
{"type": "Feature", "id": "BLJsbSP6oZj1NIz3W1lxktridLU=", "properties": {"ref": "1751", "@spider": "soma", "addr:full": "1000 Ross Park Mall Dr., Space L15B", "addr:city": "Pittsburgh", "addr:state": "PA", "addr:postcode": "15237", "addr:country": "US", "name": "Ross Park Mall", "website": "https://stores.soma.com/s/soma-ross-park-mall", "brand": "Soma"}, "geometry": {"type": "Point", "coordinates": [-80.0087509, 40.5445685]}},
{"type": "Feature", "id": "2YfF4L9k6XT3AdJgKyM-g2CvCgQ=", "properties": {"ref": "1776", "@spider": "soma", "addr:full": "301 S Hills Village", "addr:city": "Pittsburgh", "addr:state": "PA", "addr:postcode": "15241", "addr:country": "US", "name": "South Hills Village", "website": "https://stores.soma.com/s/soma-south-hills-village", "brand": "Soma"}, "geometry": {"type": "Point", "coordinates": [-80.0579966, 40.3410823]}},
{"type": "Feature", "id": "0AT3nWobpfzRiVCHGOwEFXCHFIg=", "properties": {"ref": "1881", "@spider": "soma", "addr:full": "1210 Robinson Centre Drive", "addr:city": "Pittsburgh", "addr:state": "PA", "addr:postcode": "15205", "addr:country": "US", "name": "The Mall at Robinson", "website": "https://stores.soma.com/s/soma-the-mall-at-robinson", "brand": "Soma"}, "geometry": {"type": "Point", "coordinates": [-80.158189, 40.451127]}},
{"type": "Feature", "id": "ghOy-ucEp57bTd2iYFoiECSQRfI=", "properties": {"ref": "1431", "@spider": "soma", "addr:full": "25265 Cedar Rd", "addr:city": "Lyndhurst", "addr:state": "OH", "addr:postcode": "44124", "addr:country": "US", "name": "Legacy Village", "website": "https://stores.soma.com/s/legacy-village", "brand": "Soma"}, "geometry": {"type": "Point", "coordinates": [-81.5001601, 41.5031623]}},
{"type": "Feature", "id": "rueB5KdENLbtJGnqHeSiROI4Sl4=", "properties": {"ref": "1614", "@spider": "soma", "addr:full": "3265 West Market Street, Ste 608", "addr:city": "Akron", "addr:state": "OH", "addr:postcode": "44333", "addr:country": "US", "name": "Summit Mall", "website": "https://stores.soma.com/s/soma-summit-mall", "brand": "Soma"}, "geometry": {"type": "Point", "coordinates": [-81.6178665, 41.1338108]}},
{"type": "Feature", "id": "Bx3ey0A5M4sOpeRSSpDeTKDXWjg=", "properties": {"ref": "1494", "@spider": "soma", "addr:full": "173 Main Street", "addr:city": "Westlake", "addr:state": "OH", "addr:postcode": "44145", "addr:country": "US", "name": "Crocker Park", "website": "https://stores.soma.com/s/soma-crocker-park", "brand": "Soma"}, "geometry": {"type": "Point", "coordinates": [-81.9516445, 41.4588932]}},
{"type": "Feature", "id": "jWISpngU2nSBAn5y35r4d5ORuDE=", "properties": {"ref": "3046", "@spider": "soma", "addr:full": "4325 Glenwood Ave, Suite 1010", "addr:city": "Raleigh", "addr:state": "NC", "addr:postcode": "27612", "addr:country": "US", "name": "Crabtree Valley Mall", "website": "https://stores.soma.com/s/soma-crabtree-valley-mall", "brand": "Soma"}, "geometry": {"type": "Point", "coordinates": [-78.6794257, 35.8394667]}},
{"type": "Feature", "id": "ddsrpvc1leLzLBCuZq-JBdctmsI=", "properties": {"ref": "1663", "@spider": "soma", "addr:full": "6910 Fayetteville Rd, Ste 163", "addr:city": "Durham", "addr:state": "NC", "addr:postcode": "27713", "addr:country": "US", "name": "The Streets at Southpoint", "website": "https://stores.soma.com/s/soma-the-streets-at-southpoint", "brand": "Soma"}, "geometry": {"type": "Point", "coordinates": [-78.940771, 35.90504]}},
{"type": "Feature", "id": "4q7FD4iNqZ85M-Dr2P03RBBuwBs=", "properties": {"ref": "1725", "@spider": "soma", "addr:full": "2113 Village Market Pl", "addr:city": "Morrisville", "addr:state": "NC", "addr:postcode": "27560", "addr:country": "US", "name": "Park West Village", "website": "https://stores.soma.com/s/soma-park-west-village", "brand": "Soma"}, "geometry": {"type": "Point", "coordinates": [-78.8173261, 35.8067441]}},
{"type": "Feature", "id": "meAOuThNwhbzX9njvClIipoI0Zw=", "properties": {"ref": "1661", "@spider": "soma", "addr:full": "3326 West Friendly Ave, Ste. 108", "addr:city": "Greensboro", "addr:state": "NC", "addr:postcode": "27410", "addr:country": "US", "name": "The Shops at Friendly Center", "website": "https://stores.soma.com/s/the-shops-at-friendly-center", "brand": "Soma"}, "geometry": {"type": "Point", "coordinates": [-79.8374145, 36.0866269]}},
{"type": "Feature", "id": "eQHiakOQD7Do1_GXCT43BwR4ncA=", "properties": {"ref": "1864", "@spider": "soma", "addr:full": "460 Del Monte Center", "addr:city": "Monterey", "addr:state": "CA", "addr:postcode": "93940", "addr:country": "US", "name": "Del Monte Center", "website": "https://stores.soma.com/s/soma-del-monte-center", "brand": "Soma"}, "geometry": {"type": "Point", "coordinates": [-121.8973453, 36.5834665]}},
{"type": "Feature", "id": "6s-aHj7mFu1hiOr3IlsQVfC0mVI=", "properties": {"ref": "1530", "@spider": "soma", "addr:full": "2500 N Mayfair Road, Ste 408", "addr:city": "Wauwatosa", "addr:state": "WI", "addr:postcode": "53226", "addr:country": "US", "name": "Mayfair", "website": "https://stores.soma.com/s/soma-mayfair", "brand": "Soma"}, "geometry": {"type": "Point", "coordinates": [-88.0456476, 43.0638475]}},
{"type": "Feature", "id": "0azIn6o9Bk98nzxk68Gt_4pMXC4=", "properties": {"ref": "1910", "@spider": "soma", "addr:full": "100 West Higgins Rd, Suite Q-60", "addr:city": "South Barrington", "addr:state": "IL", "addr:postcode": "60010", "addr:country": "US", "name": "The Arboretum of South Barrington", "website": "https://stores.soma.com/s/soma-the-arboretum-of-south-barrington", "brand": "Soma"}, "geometry": {"type": "Point", "coordinates": [-88.189093, 42.0757284]}},
{"type": "Feature", "id": "qm_5Oa65chNdp6tpRMLSwc7MiM8=", "properties": {"ref": "1799", "@spider": "soma", "addr:full": "3393 Peachtree Rd NE", "addr:city": "Atlanta", "addr:state": "GA", "addr:postcode": "30326", "addr:country": "US", "name": "Lenox Square", "website": "https://stores.soma.com/s/soma-lenox-square", "brand": "Soma"}, "geometry": {"type": "Point", "coordinates": [-84.3646921, 33.8488441]}},
{"type": "Feature", "id": "6k6g5zYcFaSBI6mjTlOsNPEMmPw=", "properties": {"ref": "1865", "@spider": "soma", "addr:full": "1636 Cumberland Mall S.E.", "addr:city": "Atlanta", "addr:state": "GA", "addr:postcode": "30339", "addr:country": "US", "name": "Cumberland Mall", "website": "https://stores.soma.com/s/cumberland-mall", "brand": "Soma"}, "geometry": {"type": "Point", "coordinates": [-84.4687993, 33.879868]}},
{"type": "Feature", "id": "HZgf1ShI5sYE5Cm40iKhlTNYy9Q=", "properties": {"ref": "1914", "@spider": "soma", "addr:full": "401 S Mt Juliet Rd", "addr:city": "Mount Juliet", "addr:state": "TN", "addr:postcode": "37122", "addr:country": "US", "name": "Providence Marketplace", "website": "https://stores.soma.com/s/providence-marketplace", "brand": "Soma"}, "geometry": {"type": "Point", "coordinates": [-86.51198, 36.16483]}},
{"type": "Feature", "id": "Tv1mwJSmGa0QlYPAMwi6hkFdyUg=", "properties": {"ref": "1645", "@spider": "soma", "addr:full": "4000 Arlington Highlands B, Ste 165", "addr:city": "Arlington", "addr:state": "TX", "addr:postcode": "76018", "addr:country": "US", "name": "Arlington Highlands", "website": "https://stores.soma.com/s/soma-arlington-highlands", "brand": "Soma"}, "geometry": {"type": "Point", "coordinates": [-97.1097772, 32.6799171]}},
{"type": "Feature", "id": "Zi2GQjEvZTIlymByE2H1dr8awuY=", "properties": {"ref": "1432", "@spider": "soma", "addr:full": "1000 Highland Colony Parkway", "addr:city": "Ridgeland", "addr:state": "MS", "addr:postcode": "39157", "addr:country": "US", "name": "Renaissance at Colony Park", "website": "https://stores.soma.com/s/soma-renaissance-at-colony-park", "brand": "Soma"}, "geometry": {"type": "Point", "coordinates": [-90.1471642, 32.4345218]}},
{"type": "Feature", "id": "NKDjt60duLKEfwMm5SGf6naFnL8=", "properties": {"ref": "1818", "@spider": "soma", "addr:full": "218 Dogwood Boulevard", "addr:city": "Flowood", "addr:state": "MS", "addr:postcode": "39232", "addr:country": "US", "name": "Dogwood Festival Market", "website": "https://stores.soma.com/s/dogwood-festival-market", "brand": "Soma"}, "geometry": {"type": "Point", "coordinates": [-90.060952, 32.3386984]}},
{"type": "Feature", "id": "Rrdk63i5oJSDIYSdTPVy4cKrTgA=", "properties": {"ref": "1352", "@spider": "soma", "addr:full": "2825 S. Glenstone Ave., Ste V07A", "addr:city": "Springfield", "addr:state": "MO", "addr:postcode": "65804", "addr:country": "US", "name": "Battlefield Mall", "website": "https://stores.soma.com/s/battlefield-mall", "brand": "Soma"}, "geometry": {"type": "Point", "coordinates": [-93.2656737, 37.1627417]}},
{"type": "Feature", "id": "26-I41LJYzdfpjzzdAdd9_VzIOM=", "properties": {"ref": "1457", "@spider": "soma", "addr:full": "6891 Daniels Pkwy, Suite 122", "addr:city": "Fort Myers", "addr:state": "FL", "addr:postcode": "33912", "addr:country": "US", "name": "Daniels Marketplace", "website": "https://stores.soma.com/s/daniels-marketplace", "brand": "Soma"}, "geometry": {"type": "Point", "coordinates": [-81.84161, 26.54677]}},
{"type": "Feature", "id": "lNgb-cX7g7wCfv7d0yDB5G3wFLE=", "properties": {"ref": "1755", "@spider": "soma", "addr:full": "331 SW 145th Terrace", "addr:city": "Pembroke Pines", "addr:state": "FL", "addr:postcode": "33027", "addr:country": "US", "name": "The Shops at Pembroke Gardens", "website": "https://stores.soma.com/s/soma-the-shops-at-pembroke-gardens", "brand": "Soma"}, "geometry": {"type": "Point", "coordinates": [-80.3365428, 26.0051923]}},
{"type": "Feature", "id": "k40iI8z29Ax-Qel_9ha2LDXnD-w=", "properties": {"ref": "1890", "@spider": "soma", "addr:full": "201 N University Ave", "addr:city": "Little Rock", "addr:state": "AR", "addr:postcode": "72205", "addr:country": "US", "name": "Midtowne Little Rock", "website": "https://stores.soma.com/s/soma-midtowne-little-rock", "brand": "Soma"}, "geometry": {"type": "Point", "coordinates": [-92.3406837, 34.7532888]}},
{"type": "Feature", "id": "iFFfN61irCtrfqkg85bEid3qvgs=", "properties": {"ref": "1748", "@spider": "soma", "addr:full": "10801 Corkscrew Rd., Suite 407", "addr:city": "Estero", "addr:state": "FL", "addr:postcode": "33928", "addr:country": "US", "name": "Miromar Outlets", "website": "https://stores.soma.com/s/soma-miromar-outlets", "brand": "Soma"}, "geometry": {"type": "Point", "coordinates": [-81.774619, 26.437134]}},
{"type": "Feature", "id": "hXmhLjiZKePgKGlxQmazzXN9LKU=", "properties": {"ref": "1646", "@spider": "soma", "addr:full": "416 South Stratford Road, Suite 400", "addr:city": "Winston-Salem", "addr:state": "NC", "addr:postcode": "27103", "addr:country": "US", "name": "Thruway Center", "website": "https://stores.soma.com/s/thruway-center", "brand": "Soma"}, "geometry": {"type": "Point", "coordinates": [-80.2838826, 36.0908312]}},
{"type": "Feature", "id": "6NxPo4715aeoMgOM-oKueT15T-Q=", "properties": {"ref": "1888", "@spider": "soma", "addr:full": "830 Kingwood Dr", "addr:city": "Kingwood", "addr:state": "TX", "addr:postcode": "77339", "addr:country": "US", "name": "Kingwood Commons", "website": "https://stores.soma.com/s/soma-kingwood-commons", "brand": "Soma"}, "geometry": {"type": "Point", "coordinates": [-95.2432327, 30.050402]}},
{"type": "Feature", "id": "14pz_fgIGHX2xDCHYhB0SM8nDiE=", "properties": {"ref": "1779", "@spider": "soma", "addr:full": "1604 South University Dri, Ste. 509", "addr:city": "Fort Worth", "addr:state": "TX", "addr:postcode": "76107", "addr:country": "US", "name": "University Park Village", "website": "https://stores.soma.com/s/soma-university-park-village", "brand": "Soma"}, "geometry": {"type": "Point", "coordinates": [-97.3637407, 32.7281659]}},
{"type": "Feature", "id": "giHDSthD2CmLXO-7SMv0zJyjeew=", "properties": {"ref": "1749", "@spider": "soma", "addr:full": "1201 Lake Woodlands Dr, Ste 1142", "addr:city": "The Woodlands", "addr:state": "TX", "addr:postcode": "77380", "addr:country": "US", "name": "The Woodlands Mall", "website": "https://stores.soma.com/s/the-woodlands-mall", "brand": "Soma"}, "geometry": {"type": "Point", "coordinates": [-95.456446, 30.162829]}},
{"type": "Feature", "id": "0QxO80byLXxExfeedGr88WMoenY=", "properties": {"ref": "1868", "@spider": "soma", "addr:full": "700 Baybrook Mall., Ste C-111", "addr:city": "Friendswood", "addr:state": "TX", "addr:postcode": "77546", "addr:country": "US", "name": "Baybrook Mall", "website": "https://stores.soma.com/s/soma-baybrook-mall", "brand": "Soma"}, "geometry": {"type": "Point", "coordinates": [-95.1491462, 29.5437632]}},
{"type": "Feature", "id": "R4EMHTqomnm4cKYLfGKq7E8IXA8=", "properties": {"ref": "1746", "@spider": "soma", "addr:full": "5515 Kelvin Street, Suite 100", "addr:city": "Houston", "addr:state": "TX", "addr:postcode": "77005", "addr:country": "US", "name": "Rice Village", "website": "https://stores.soma.com/s/rice-village", "brand": "Soma"}, "geometry": {"type": "Point", "coordinates": [-95.4162996, 29.7163235]}},
{"type": "Feature", "id": "4w3RKbF7EtQB0uzCdkiUdfd1DUA=", "properties": {"ref": "1486", "@spider": "soma", "addr:full": "4036 Westheimer", "addr:city": "Houston", "addr:state": "TX", "addr:postcode": "77027", "addr:country": "US", "name": "Highland Village", "website": "https://stores.soma.com/s/soma-highland-village", "brand": "Soma"}, "geometry": {"type": "Point", "coordinates": [-95.4459994, 29.7425027]}},
{"type": "Feature", "id": "yZ_NCe1m8sD_EXqS2kTjvEuE-Lk=", "properties": {"ref": "1900", "@spider": "soma", "addr:full": "303 Memorial City Way", "addr:city": "Houston", "addr:state": "TX", "addr:postcode": "77024", "addr:country": "US", "name": "Memorial City Mall", "website": "https://stores.soma.com/s/memorial-city-mall", "brand": "Soma"}, "geometry": {"type": "Point", "coordinates": [-95.5379936, 29.7806697]}},
{"type": "Feature", "id": "D_tbAG2Qt8WwmeYwc8TRyoWoSxc=", "properties": {"ref": "1741", "@spider": "soma", "addr:full": "12850 Memorial Drive, Ste. 426A", "addr:city": "Houston", "addr:state": "TX", "addr:postcode": "77024", "addr:country": "US", "name": "Town & Country Village", "website": "https://stores.soma.com/s/soma-town-country-village", "brand": "Soma"}, "geometry": {"type": "Point", "coordinates": [-95.5614967, 29.7731832]}},
{"type": "Feature", "id": "0s1s8AwojKFwBZXQ3Ubn6df9ceU=", "properties": {"ref": "1813", "@spider": "soma", "addr:full": "16535 Southwest Freeway, Ste. 2010", "addr:city": "Sugar Land", "addr:state": "TX", "addr:postcode": "77479", "addr:country": "US", "name": "First Colony Mall", "website": "https://stores.soma.com/s/soma-first-colony-mall", "brand": "Soma"}, "geometry": {"type": "Point", "coordinates": [-95.6244816, 29.5919665]}},
{"type": "Feature", "id": "69eFKikfmxRxxGrabHvxbKQHZiA=", "properties": {"ref": "1833", "@spider": "soma", "addr:full": "23501 Cinco Ranch Boulevard", "addr:city": "Katy", "addr:state": "TX", "addr:postcode": "77494", "addr:country": "US", "name": "LaCenterra at Cinco Ranch", "website": "https://stores.soma.com/s/soma-lacenterra-at-cinco-ranch", "brand": "Soma"}, "geometry": {"type": "Point", "coordinates": [-95.7769571, 29.7430021]}},
{"type": "Feature", "id": "GhcHmouoKZs1u-z3pcJ6-lbWxDU=", "properties": {"ref": "1744", "@spider": "soma", "addr:full": "10000 Research Blvd., Ste111", "addr:city": "Austin", "addr:state": "TX", "addr:postcode": "78759", "addr:country": "US", "name": "The Arboretum", "website": "https://stores.soma.com/s/the-arboretum", "brand": "Soma"}, "geometry": {"type": "Point", "coordinates": [-97.747357, 30.3909046]}},
{"type": "Feature", "id": "Ws9mssSG0xksPRpLaXPfapw-ok0=", "properties": {"ref": "1584", "@spider": "soma", "addr:full": "2901 Capital of Texas Hi, Ste. H01C", "addr:city": "Austin", "addr:state": "TX", "addr:postcode": "78746", "addr:country": "US", "name": "Barton Creek Square", "website": "https://stores.soma.com/s/soma-barton-creek-square", "brand": "Soma"}, "geometry": {"type": "Point", "coordinates": [-97.8109006, 30.3276523]}},
{"type": "Feature", "id": "S1KOEbzp_v22ZrAaWD-I1GsE9_s=", "properties": {"ref": "1809", "@spider": "soma", "addr:full": "12700 Hill Country Blvd, Ste S-135", "addr:city": "Bee Cave", "addr:state": "TX", "addr:postcode": "78738", "addr:country": "US", "name": "Hill Country Galleria", "website": "https://stores.soma.com/s/soma-hill-country-galleria", "brand": "Soma"}, "geometry": {"type": "Point", "coordinates": [-97.9412992, 30.3095141]}},
{"type": "Feature", "id": "sxbFKS0rGvkAeo8ylA5tXEZ9sd8=", "properties": {"ref": "1732", "@spider": "soma", "addr:full": "3939 IH 35 South, Space 180", "addr:city": "San Marcos", "addr:state": "TX", "addr:postcode": "78666", "addr:country": "US", "name": "San Marcos Premium Outlets", "website": "https://stores.soma.com/s/soma-san-marcos-premium-outlets", "brand": "Soma"}, "geometry": {"type": "Point", "coordinates": [-97.9788345, 29.8321375]}},
{"type": "Feature", "id": "wDvBDA686wqwmu59z4NISVz3lr0=", "properties": {"ref": "1916", "@spider": "soma", "addr:full": "7701 W I-40, 716", "addr:city": "Amarillo", "addr:state": "TX", "addr:postcode": "79121", "addr:country": "US", "name": "Westgate Mall", "website": "https://stores.soma.com/s/soma-westgate-mall", "brand": "Soma"}, "geometry": {"type": "Point", "coordinates": [-101.9298369, 35.1846774]}},
{"type": "Feature", "id": "bYNDmxeVEPjgfDV44D_CadHEJ6A=", "properties": {"ref": "1887", "@spider": "soma", "addr:full": "255 East Basse Rd, Ste. 812", "addr:city": "San Antonio", "addr:state": "TX", "addr:postcode": "78209", "addr:country": "US", "name": "Alamo Quarry Market", "website": "https://stores.soma.com/s/alamo-quarry-market", "brand": "Soma"}, "geometry": {"type": "Point", "coordinates": [-98.4810464, 29.4978324]}},
{"type": "Feature", "id": "aFafFLMKt2BGkPAQjnm44PFEvd4=", "properties": {"ref": "1777", "@spider": "soma", "addr:full": "15900 La Cantera Pkwy, Suite 3335", "addr:city": "San Antonio", "addr:state": "TX", "addr:postcode": "78256", "addr:country": "US", "name": "The Shops at La Cantera", "website": "https://stores.soma.com/s/soma-the-shops-at-la-cantera", "brand": "Soma"}, "geometry": {"type": "Point", "coordinates": [-98.6152042, 29.594415]}},
{"type": "Feature", "id": "xC4B0wgn8KIdKIMUZfiPLjk4ux0=", "properties": {"ref": "1808", "@spider": "soma", "addr:full": "5488 South Padre Island, Suite 1540", "addr:city": "Corpus Christi", "addr:state": "TX", "addr:postcode": "78411", "addr:country": "US", "name": "La Palmera", "website": "https://stores.soma.com/s/soma-la-palmera", "brand": "Soma"}, "geometry": {"type": "Point", "coordinates": [-97.372454, 27.7110251]}},
{"type": "Feature", "id": "Dc0CLh8V7a-WH2C5ExpxvVb4Uvw=", "properties": {"ref": "1883", "@spider": "soma", "addr:full": " 8201 Quaker Avenue, Suite 142", "addr:city": "Lubbock", "addr:state": "TX", "addr:postcode": "79424", "addr:country": "US", "name": "Kingsgate Center", "website": "https://stores.soma.com/s/soma-kingsgate-center", "brand": "Soma"}, "geometry": {"type": "Point", "coordinates": [-101.9037687, 33.5187505]}},
{"type": "Feature", "id": "mPuEARt7TzUalaHngmOQ7NzTcw8=", "properties": {"ref": "1842", "@spider": "soma", "addr:full": "5865 Sky Pond Dr", "addr:city": "Loveland", "addr:state": "CO", "addr:postcode": "80538", "addr:country": "US", "name": "The Promenade Shops at Centerra", "website": "https://stores.soma.com/s/soma-the-promenade-shops-at-centerra", "brand": "Soma"}, "geometry": {"type": "Point", "coordinates": [-104.990317, 40.4145298]}},
{"type": "Feature", "id": "GA5AEI0sFukuMGkowKKLGGjsjfQ=", "properties": {"ref": "1867", "@spider": "soma", "addr:full": "8425 Park Meadows Center, Suite 107", "addr:city": "Lone Tree", "addr:state": "CO", "addr:postcode": "80124", "addr:country": "US", "name": "Park Meadows", "website": "https://stores.soma.com/s/soma-park-meadows", "brand": "Soma"}, "geometry": {"type": "Point", "coordinates": [-104.8748749, 39.5629822]}},
{"type": "Feature", "id": "rSWlm_IdJ6ib8zB29ar0CsQHYCE=", "properties": {"ref": "1683", "@spider": "soma", "addr:full": "3000 East First Ave, Space 1102", "addr:city": "Denver", "addr:state": "CO", "addr:postcode": "80206", "addr:country": "US", "name": "Cherry Creek Shopping Center", "website": "https://stores.soma.com/s/cherry-creek-shopping-center", "brand": "Soma"}, "geometry": {"type": "Point", "coordinates": [-104.954917, 39.71732]}},
{"type": "Feature", "id": "wCeTO8HSLWg3PSA3cwMsoKP99YE=", "properties": {"ref": "1493", "@spider": "soma", "addr:full": "1845 Briargate Parkway, Suite 429", "addr:city": "Colorado Springs", "addr:state": "CO", "addr:postcode": "80920", "addr:country": "US", "name": "The Promenade Shops at Briargate", "website": "https://stores.soma.com/s/the-promenade-shops-at-briargate", "brand": "Soma"}, "geometry": {"type": "Point", "coordinates": [-104.7942916, 38.9625618]}},
{"type": "Feature", "id": "6z3PAv1RnlfXZRDkGG4tThHKOws=", "properties": {"ref": "1905", "@spider": "soma", "addr:full": "2900 W Loop 250 N, Suite 130", "addr:city": "Midland", "addr:state": "TX", "addr:postcode": "79705", "addr:country": "US", "name": "The Commons Northpark", "website": "https://stores.soma.com/s/soma-the-commons-northpark", "brand": "Soma"}, "geometry": {"type": "Point", "coordinates": [-102.1561348, 32.0080969]}},
{"type": "Feature", "id": "_lfN6aYXhC4xBKqCnXC3pgIZUFI=", "properties": {"ref": "3744", "@spider": "soma", "addr:full": "2200 S 10th St, Ste D03", "addr:city": "McAllen", "addr:state": "TX", "addr:postcode": "78503", "addr:country": "US", "name": "La Plaza Mall", "website": "https://stores.soma.com/s/soma-la-plaza-mall", "brand": "Soma"}, "geometry": {"type": "Point", "coordinates": [-98.235672, 26.183836]}},
{"type": "Feature", "id": "DPAXqETZwxSf4mE-3x7UqiCS_T0=", "properties": {"ref": "1532", "@spider": "soma", "addr:full": "2241 Q Street NE, Ste 7C", "addr:city": "Albuquerque", "addr:state": "NM", "addr:postcode": "87110", "addr:country": "US", "name": "ABQ Uptown", "website": "https://stores.soma.com/s/soma-abq-uptown", "brand": "Soma"}, "geometry": {"type": "Point", "coordinates": [-106.5674855, 35.1033284]}}]}