{"type":"FeatureCollection","features":[{"type": "Feature", "id": "uwgzvcCjfRFzlUJzdUf41MuQVHc=", "properties": {"ref": "https://www.sonesta.com/ec/loja/sonesta-hotel-loja", "@spider": "sonesta", "addr:full": "Av. Zoilo Rodriguez y, Antisana", "addr:city": "Loja", "addr:postcode": "110150", "addr:country": "EC", "name": "Sonesta Hotel Loja", "phone": "593.7.258.9000", "brand": "Sonesta"}, "geometry": {"type": "Point", "coordinates": [-79.4689, -4.28614]}},
{"type": "Feature", "id": "A5_Gtf_5ZIRrMzsV8EGRitFq9U0=", "properties": {"ref": "https://www.sonesta.com/ca/ontario/thornhill/sonesta-es-suites-toronto-markham", "@spider": "sonesta", "addr:full": "355 South Park Road", "addr:city": "Thornhill", "addr:state": "ON", "addr:postcode": "L3T 7W2", "addr:country": "CA", "name": "Sonesta ES Suites Toronto Markham", "phone": "1.905.771.9333", "brand": "Sonesta"}, "geometry": {"type": "Point", "coordinates": [-79.3901, 43.8378]}},
{"type": "Feature", "id": "vnEcSNvdeRZ4ivJfz5qDyI8vYCs=", "properties": {"ref": "https://www.sonesta.com/eg/cairo-governorate/cairo/sonesta-st-george-1-nile-cruise-ship", "@spider": "sonesta", "addr:full": "3 Hassan Sadek St.", "addr:city": "Cairo", "addr:state": "Cairo Governorate", "addr:postcode": "11757", "addr:country": "EG", "name": "Sonesta St. George 1 Nile Cruise Ship", "brand": "Sonesta"}, "geometry": {"type": "Point", "coordinates": [32.6307, 25.6771]}},
{"type": "Feature", "id": "JYzDi9FF4VvJr-bFLp7V6C_BHn4=", "properties": {"ref": "https://www.sonesta.com/sx/maho-bay/sonesta-ocean-point-resort-st-maarten", "@spider": "sonesta", "addr:full": "1A Rhine Road", "addr:city": "Maho Bay", "addr:postcode": "null,\"addressCountry\":\"SX\"},\"geo\":{\"@type\":\"GeoCoordinates", "addr:country": "SX", "name": "Sonesta Ocean Point Resort - St Maarten", "phone": "1.721.545.3100", "brand": "Sonesta"}, "geometry": {"type": "Point", "coordinates": [-63.1209, 18.0419]}},
{"type": "Feature", "id": "wxKL9_PcT_oDD_ZHu6cmE44UdyQ=", "properties": {"ref": "https://www.sonesta.com/sx/maho-bay/sonesta-maho-beach-resort-casino-spa-st-maarten", "@spider": "sonesta", "addr:full": "1 Rhine Rd.", "addr:city": "Maho Bay", "addr:postcode": "null,\"addressCountry\":\"SX\"},\"geo\":{\"@type\":\"GeoCoordinates", "addr:country": "SX", "name": "Sonesta Maho Beach Resort, Casino & Spa - St Maarten", "phone": "1.721.545.2115", "brand": "Sonesta"}, "geometry": {"type": "Point", "coordinates": [-63.1209, 18.0419]}},
{"type": "Feature", "id": "z01H3aKCAvIVXgAv-0Jk8P3Cg3Q=", "properties": {"ref": "https://www.sonesta.com/pe/urubamba/sonesta-posadas-del-inca-sacred-valley-yucay", "@spider": "sonesta", "addr:full": "Plaza Manco II 123 Yucay", "addr:city": "Urubamba", "addr:state": "\",\"postalCode\":\"", "addr:country": "PE", "name": "Sonesta Posadas Del Inca - Sacred Valley - Yucay", "phone": "51.84.20.1107", "brand": "Sonesta"}, "geometry": {"type": "Point", "coordinates": [-72.0877, -13.3166]}},
{"type": "Feature", "id": "8VxVSOGpslDhgb9uZq5bxOSIREI=", "properties": {"ref": "https://www.sonesta.com/eg/nasr-city-cairo/sonesta-moon-goddess-nile-cruise-ship", "@spider": "sonesta", "addr:full": "3 El Tayaran Street", "addr:city": "Nasr City, Cairo", "addr:state": "\",\"postalCode\":\"", "addr:country": "EG", "name": "Sonesta Moon Goddess Nile Cruise Ship", "brand": "Sonesta"}, "geometry": {"type": "Point", "coordinates": [31.2246, 30.0741]}},
{"type": "Feature", "id": "7W_hHSng7yFqXm4df6AgzBLhFLg=", "properties": {"ref": "https://www.sonesta.com/eg/nasr-city-cairo/sonesta-star-goddess-nile-cruise-ship", "@spider": "sonesta", "addr:full": "3 El Tayaran Street", "addr:city": "Nasr City, Cairo", "addr:state": "\",\"postalCode\":\"", "addr:country": "EG", "name": "Sonesta Star Goddess Nile Cruise Ship", "brand": "Sonesta"}, "geometry": {"type": "Point", "coordinates": [31.224, 30.0725]}},
{"type": "Feature", "id": "qKqKwlqVxUud08WZZTlfL0NuJqc=", "properties": {"ref": "https://www.sonesta.com/eg/cairo/sonesta-cruise-collection-nile-river", "@spider": "sonesta", "addr:full": "Sonesta Star & Moon Goddess Cruise Ships", "addr:city": "Cairo", "addr:state": "\",\"postalCode\":\"", "addr:country": "EG", "name": "Sonesta Cruise Collection - Nile River", "brand": "Sonesta"}, "geometry": {"type": "Point", "coordinates": [31.3178, 30.0791]}},
{"type": "Feature", "id": "Oogmp8LR7yF5aZeVetaTI592Hys=", "properties": {"ref": "https://www.sonesta.com/pe/lima/sonesta-hotel-el-olivar-lima", "@spider": "sonesta", "addr:full": "Pancho Fierro 194 San Isidro", "addr:city": "Lima", "addr:state": "\",\"postalCode\":\"", "addr:country": "PE", "name": "Sonesta Hotel El Olivar Lima", "phone": "511.712.6000", "brand": "Sonesta"}, "geometry": {"type": "Point", "coordinates": [-77.035, -12.098]}},
{"type": "Feature", "id": "e2jtS8LyRXSA_1qg0jyBE3-1_5U=", "properties": {"ref": "https://www.sonesta.com/pe/cusco/sonesta-hotel-cusco", "@spider": "sonesta", "addr:full": "Av. El Sol 954", "addr:city": "Cusco", "addr:state": "\",\"postalCode\":\"", "addr:country": "PE", "name": "Sonesta Hotel Cusco", "phone": "51.84.58.1200", "brand": "Sonesta"}, "geometry": {"type": "Point", "coordinates": [-71.9732, -13.5247]}},
{"type": "Feature", "id": "5YXS8CgFTOiIHZ1fL3POgH0_MxE=", "properties": {"ref": "https://www.sonesta.com/pe/cerro-colorado/sonesta-hotel-arequipa", "@spider": "sonesta", "addr:full": "Urbanizaci\u00f3n. Teresa de Jesus, Mz I Inter. 1", "addr:city": "Cerro Colorado", "addr:state": "\",\"postalCode\":\"", "addr:country": "PE", "name": "Sonesta Hotel Arequipa", "phone": "51.54.308777", "brand": "Sonesta"}, "geometry": {"type": "Point", "coordinates": [-71.6188, -16.3487]}},
{"type": "Feature", "id": "N2xjr3Rp5nvFEWJN3vWwY4LGRq4=", "properties": {"ref": "https://www.sonesta.com/eg/luxor/sonesta-st-george-hotel-luxor", "@spider": "sonesta", "addr:full": "Corniche El Nile Street", "addr:city": "Luxor", "addr:state": "\",\"postalCode\":\"", "addr:country": "EG", "name": "Sonesta St. George Hotel - Luxor", "phone": "20.95.2382575", "brand": "Sonesta"}, "geometry": {"type": "Point", "coordinates": [32.637, 25.6971]}},
{"type": "Feature", "id": "OdgNVC9FpM6DjFxpkx0ko5Qgy8w=", "properties": {"ref": "https://www.sonesta.com/eg/nasr-city-cairo/sonesta-hotel-tower-casino-cairo", "@spider": "sonesta", "addr:full": "3 El Tayran Street", "addr:city": "Nasr City, Cairo", "addr:state": "\",\"postalCode\":\"", "addr:country": "EG", "name": "Sonesta Hotel, Tower & Casino - Cairo", "phone": "20.2.22641111", "brand": "Sonesta"}, "geometry": {"type": "Point", "coordinates": [31.3157, 30.0793]}},
{"type": "Feature", "id": "OK5wZ0Ijb2n9SlsjhWlSBwvuwNg=", "properties": {"ref": "https://www.sonesta.com/co/cesar/valledupar/sonesta-hotel-valledupar", "@spider": "sonesta", "addr:full": "Diagonal 10 No. 6N-15", "addr:city": "Valledupar", "addr:state": "CES", "addr:country": "CO", "name": "Sonesta Hotel Valledupar", "phone": "57.5.574.8686 ", "brand": "Sonesta"}, "geometry": {"type": "Point", "coordinates": [-73.2572, 10.4786]}},
{"type": "Feature", "id": "kZvuih55d5RdWpepmQBxh6s6ECE=", "properties": {"ref": "https://www.sonesta.com/co/pereira/sonesta-hotel-pereira", "@spider": "sonesta", "addr:full": "Km.7 Via Cerritos", "addr:city": "Pereira", "addr:state": "\",\"postalCode\":\"", "addr:country": "CO", "name": "Sonesta Hotel Pereira", "phone": "576.311.3600", "brand": "Sonesta"}, "geometry": {"type": "Point", "coordinates": [-75.8089, 4.81006]}},
{"type": "Feature", "id": "1KKLKFg3Ux0_OHDIdtwfAiQoSEk=", "properties": {"ref": "https://www.sonesta.com/us/illinois/chicago/royal-sonesta-chicago-downtown", "@spider": "sonesta", "addr:full": "71 E Wacker Drive", "addr:city": "Chicago", "addr:state": "IL", "addr:postcode": "60601", "addr:country": "US", "name": "Royal Sonesta Chicago Downtown", "phone": "1.312.346.7100", "brand": "Sonesta"}, "geometry": {"type": "Point", "coordinates": [-87.6279, 41.8874]}},
{"type": "Feature", "id": "ZrOFQBtu8eFI5_1c8aGO8JUqVsg=", "properties": {"ref": "https://www.sonesta.com/us/arizona/tempe/sonesta-select-tempe-downtown", "@spider": "sonesta", "addr:full": "601 South Ash Ave", "addr:city": "Tempe", "addr:state": "AZ", "addr:postcode": "85281", "addr:country": "US", "name": "Sonesta Select Tempe Downtown", "phone": "1.480.966.2800", "brand": "Sonesta"}, "geometry": {"type": "Point", "coordinates": [-111.943, 33.4252]}},
{"type": "Feature", "id": "ix_kAIoyDFFEI0wxU78IlSqugQc=", "properties": {"ref": "https://www.sonesta.com/us/iowa/west-des-moines/sonesta-simply-suites-des-moines", "@spider": "sonesta", "addr:full": "7625 Office Plaza Drive N.", "addr:city": "West Des Moines", "addr:state": "IA", "addr:postcode": "50266", "addr:country": "US", "name": "Sonesta Simply Suites Des Moines", "phone": "1.515.221.0001", "brand": "Sonesta"}, "geometry": {"type": "Point", "coordinates": [-93.8115, 41.5879]}},
{"type": "Feature", "id": "oU5X-2S3A6J4-YvaIRt3Yih9ze0=", "properties": {"ref": "https://www.sonesta.com/us/illinois/schiller-park/sonesta-simply-suites-chicago-ohare-airport", "@spider": "sonesta", "addr:full": "4021 N. Mannheim Rd.", "addr:city": "Schiller Park", "addr:state": "IL", "addr:postcode": "60176", "addr:country": "US", "name": "Sonesta Simply Suites Chicago O'Hare Airport", "phone": "1.847.671.4663", "brand": "Sonesta"}, "geometry": {"type": "Point", "coordinates": [-87.8888, 41.9523]}},
{"type": "Feature", "id": "7PLOtpUUt2-kHONmmd5uGLOsN1w=", "properties": {"ref": "https://www.sonesta.com/us/texas/fort-worth/sonesta-simply-suites-fort-worth-fossil-creek", "@spider": "sonesta", "addr:full": "5201 Endicott Avenue", "addr:city": "Fort Worth", "addr:state": "TX", "addr:postcode": "76137", "addr:country": "US", "name": "Sonesta Simply Suites Fort Worth Fossil Creek", "phone": "1.817.838.8229", "brand": "Sonesta"}, "geometry": {"type": "Point", "coordinates": [-97.2947, 32.8379]}},
{"type": "Feature", "id": "uu8jmB3yNvK-rj4GS0SfTV1lVAk=", "properties": {"ref": "https://www.sonesta.com/us/texas/fort-worth/sonesta-es-suites-fort-worth-fossil-creek", "@spider": "sonesta", "addr:full": "5801 Sandshell Dr", "addr:city": "Fort Worth", "addr:state": "TX", "addr:postcode": "76137", "addr:country": "US", "name": "Sonesta ES Suites Fort Worth Fossil Creek", "phone": "1.817.439.1300", "brand": "Sonesta"}, "geometry": {"type": "Point", "coordinates": [-97.3111, 32.8503]}},
{"type": "Feature", "id": "blT79N4_hphsEWh5XYVa_0W0De8=", "properties": {"ref": "https://www.sonesta.com/us/texas/fort-worth/sonesta-select-fort-worth-fossil-creek", "@spider": "sonesta", "addr:full": "3751 NE Loop 820", "addr:city": "Fort Worth", "addr:state": "TX", "addr:postcode": "76137", "addr:country": "US", "name": "Sonesta Select Fort Worth Fossil Creek", "phone": "1.817.847.0044", "brand": "Sonesta"}, "geometry": {"type": "Point", "coordinates": [-97.295, 32.8404]}},
{"type": "Feature", "id": "lNS1RwKzSRsDf4L4Qcb3QD8rjcg=", "properties": {"ref": "https://www.sonesta.com/us/maryland/linthicum-heights/sonesta-es-suites-baltimore-bwi-airport", "@spider": "sonesta", "addr:full": "1160 Winterson Road", "addr:city": "Linthicum Heights", "addr:state": "MD", "addr:postcode": "21090", "addr:country": "US", "name": "Sonesta ES Suites Baltimore BWI Airport", "phone": "1.410.691.0255", "brand": "Sonesta"}, "geometry": {"type": "Point", "coordinates": [-76.6786, 39.2038]}},
{"type": "Feature", "id": "PjrMFIxXBEnC-HOSjFflC57BKJg=", "properties": {"ref": "https://www.sonesta.com/us/texas/austin/sonesta-simply-suites-austin-domain-area", "@spider": "sonesta", "addr:full": "9701 Stonelake Boulevard", "addr:city": "Austin", "addr:state": "TX", "addr:postcode": "78759", "addr:country": "US", "name": "Sonesta Simply Suites Austin The Domain Area", "phone": "1.512.338.1611", "brand": "Sonesta"}, "geometry": {"type": "Point", "coordinates": [-97.7394, 30.3885]}},
{"type": "Feature", "id": "S9veOpyerrcApJ6aLztaUsYpwgI=", "properties": {"ref": "https://www.sonesta.com/us/texas/austin/sonesta-es-suites-austin-domain-area", "@spider": "sonesta", "addr:full": "10201 Stonelake Blvd", "addr:city": "Austin", "addr:state": "TX", "addr:postcode": "78759", "addr:country": "US", "name": "Sonesta ES Suites Austin The Domain Area", "phone": "1.512.349.0888", "brand": "Sonesta"}, "geometry": {"type": "Point", "coordinates": [-97.7413, 30.3933]}},
{"type": "Feature", "id": "VBaXqhkHcNt2WJe-MD2Oraxdjgg=", "properties": {"ref": "https://www.sonesta.com/us/texas/san-antonio/sonesta-simply-suites-san-antonio-northwest-medical-center", "@spider": "sonesta", "addr:full": "9350 IH 10 West", "addr:city": "San Antonio", "addr:state": "TX", "addr:postcode": "78230", "addr:country": "US", "name": "Sonesta Simply Suites San Antonio Northwest - Medical Center", "phone": "1.210.615.0550", "brand": "Sonesta"}, "geometry": {"type": "Point", "coordinates": [-98.5593, 29.5251]}},
{"type": "Feature", "id": "0NrdqgJKuuN6dtHWFmowb6O3N2Y=", "properties": {"ref": "https://www.sonesta.com/us/louisiana/baton-rouge/sonesta-es-suites-baton-rouge-university-southgate", "@spider": "sonesta", "addr:full": "4001 Nicholson Drive", "addr:city": "Baton Rouge", "addr:state": "LA", "addr:postcode": "70808", "addr:country": "US", "name": "Sonesta ES Suites Baton Rouge University at Southgate", "phone": "1.225.456.5430", "brand": "Sonesta"}, "geometry": {"type": "Point", "coordinates": [-91.1822, 30.4009]}},
{"type": "Feature", "id": "gJgRrTEG13IFwQbHJpyCOOSufmA=", "properties": {"ref": "https://www.sonesta.com/us/louisiana/new-orleans/sonesta-es-suites-new-orleans-convention-center", "@spider": "sonesta", "addr:full": "345 St. Joseph Street", "addr:city": "New Orleans", "addr:state": "LA", "addr:postcode": "70130", "addr:country": "US", "name": "Sonesta ES Suites New Orleans Convention Center", "phone": "1.504.522.1300", "brand": "Sonesta"}, "geometry": {"type": "Point", "coordinates": [-90.0687, 29.9437]}},
{"type": "Feature", "id": "tKUxpOxBmLMIcTyLyxNc1RkGinY=", "properties": {"ref": "https://www.sonesta.com/us/louisiana/new-orleans/sonesta-es-suites-new-orleans", "@spider": "sonesta", "addr:full": "212 Loyola Avenue", "addr:city": "New Orleans", "addr:state": "LA", "addr:postcode": "70112", "addr:country": "US", "name": "Sonesta ES Suites New Orleans", "phone": "1.504.533.9002", "brand": "Sonesta"}, "geometry": {"type": "Point", "coordinates": [-90.0751, 29.954]}},
{"type": "Feature", "id": "8AiAWpVkwujFcrVbq-SMi0o4fwo=", "properties": {"ref": "https://www.sonesta.com/us/texas/houston/sonesta-es-suites-houston-galleria", "@spider": "sonesta", "addr:full": "5190 Hidalgo Street", "addr:city": "Houston", "addr:state": "TX", "addr:postcode": "77056", "addr:country": "US", "name": "Sonesta ES Suites Houston Galleria", "phone": "1.713.355.8888", "brand": "Sonesta"}, "geometry": {"type": "Point", "coordinates": [-95.4661, 29.7358]}},
{"type": "Feature", "id": "HNU1N2YqS4HDzpvfp480JjGt_bE=", "properties": {"ref": "https://www.sonesta.com/us/texas/houston/sonesta-es-suites-houston-nasa-clear-lake", "@spider": "sonesta", "addr:full": "525 Bay Area Boulevard", "addr:city": "Houston", "addr:state": "TX", "addr:postcode": "77058", "addr:country": "US", "name": "Sonesta ES Suites Houston - NASA Clear Lake", "phone": "1.281.486.2424", "brand": "Sonesta"}, "geometry": {"type": "Point", "coordinates": [-95.1259, 29.552]}},
{"type": "Feature", "id": "V30CCkWzbYNtxVZTmq_YKeKzQZU=", "properties": {"ref": "https://www.sonesta.com/us/texas/houston/sonesta-simply-suites-houston-nasa-clear-lake", "@spider": "sonesta", "addr:full": "2737 Bay Area Blvd", "addr:city": "Houston", "addr:state": "TX", "addr:postcode": "77058", "addr:country": "US", "name": "Sonesta Simply Suites Houston - NASA Clear Lake", "phone": "1.281.461.3060", "brand": "Sonesta"}, "geometry": {"type": "Point", "coordinates": [-95.1085, 29.5785]}},
{"type": "Feature", "id": "ZwvL8HPEJFW7SUMEHsuCroEF2aw=", "properties": {"ref": "https://www.sonesta.com/us/texas/houston/sonesta-simply-suites-houston-galleria-medical-center", "@spider": "sonesta", "addr:full": "4900 Loop Central Dr.", "addr:city": "Houston", "addr:state": "TX", "addr:postcode": "77081", "addr:country": "US", "name": "Sonesta Simply Suites Houston Galleria Medical Center", "phone": "1.713.839.9411", "brand": "Sonesta"}, "geometry": {"type": "Point", "coordinates": [-95.4578, 29.7254]}},
{"type": "Feature", "id": "o_DuXnqbiC0T9TVYuhcU4peG2gw=", "properties": {"ref": "https://www.sonesta.com/us/texas/houston/sonesta-simply-suites-houston-citycentre-i-10-west", "@spider": "sonesta", "addr:full": "10503 Town and Country Way", "addr:city": "Houston", "addr:state": "TX", "addr:postcode": "77024", "addr:country": "US", "name": "Sonesta Simply Suites Houston CityCentre I-10 West", "phone": "1.713.464.2677", "brand": "Sonesta"}, "geometry": {"type": "Point", "coordinates": [-95.5571, 29.7811]}},
{"type": "Feature", "id": "Dwt3MdDswKBcYjC4er6SMNsG7x0=", "properties": {"ref": "https://www.sonesta.com/us/missouri/st-louis/chase-park-plaza-royal-sonesta-st-louis", "@spider": "sonesta", "addr:full": "212 N. Kingshighway Blvd.", "addr:city": "St. Louis", "addr:state": "MO", "addr:postcode": "63108", "addr:country": "US", "name": "The Chase Park Plaza Royal Sonesta St. Louis", "phone": "1.314.633.3000", "brand": "Sonesta"}, "geometry": {"type": "Point", "coordinates": [-90.2638, 38.6441]}},
{"type": "Feature", "id": "VGfsWF7v0DE6UB5rau-Bo61jocM=", "properties": {"ref": "https://www.sonesta.com/us/texas/san-antonio/sonesta-es-suites-san-antonio-northwest-medical-center", "@spider": "sonesta", "addr:full": "4320 Spectrum One", "addr:city": "San Antonio", "addr:state": "TX", "addr:postcode": "78230", "addr:country": "US", "name": "Sonesta ES Suites San Antonio Northwest - Medical Center", "phone": "1.210.558.9009", "brand": "Sonesta"}, "geometry": {"type": "Point", "coordinates": [-98.5674, 29.5366]}},
{"type": "Feature", "id": "YAEUtNSV4othKoGZcDpXIQGIhTk=", "properties": {"ref": "https://www.sonesta.com/us/texas/austin/stephen-f-austin-royal-sonesta-hotel", "@spider": "sonesta", "addr:full": "701 Congress Avenue", "addr:city": "Austin", "addr:state": "TX", "addr:postcode": "78701", "addr:country": "US", "name": "The Stephen F Austin Royal Sonesta Hotel", "phone": "1.512.457.8800", "brand": "Sonesta"}, "geometry": {"type": "Point", "coordinates": [-97.742, 30.2691]}},
{"type": "Feature", "id": "NFGcGyXnYNrISFDYXLBOIB2KVHc=", "properties": {"ref": "https://www.sonesta.com/us/pennsylvania/philadelphia/sonesta-select-philadelphia-airport", "@spider": "sonesta", "addr:full": "8900 Bartram Avenue", "addr:city": "Philadelphia", "addr:state": "PA", "addr:postcode": "19153", "addr:country": "US", "name": "Sonesta Select Philadelphia Airport", "phone": "1.215.365.2200", "brand": "Sonesta"}, "geometry": {"type": "Point", "coordinates": [-75.2491, 39.8855]}},
{"type": "Feature", "id": "n7AYlbi0PCL7Z0WMANJQEisc9gU=", "properties": {"ref": "https://www.sonesta.com/us/illinois/rosemont/sonesta-chicago-ohare-airport-rosemont", "@spider": "sonesta", "addr:full": "10233 West Higgins Road", "addr:city": "Rosemont", "addr:state": "IL", "addr:postcode": "60018", "addr:country": "US", "name": "Sonesta Chicago O'Hare Airport Rosemont", "phone": "1.847.954.8600", "brand": "Sonesta"}, "geometry": {"type": "Point", "coordinates": [-87.8843, 41.997]}},
{"type": "Feature", "id": "ggR0Xxps-TMImbjBqpWH8danyHY=", "properties": {"ref": "https://www.sonesta.com/us/california/san-ramon/sonesta-select-san-ramon", "@spider": "sonesta", "addr:full": "18090 San Ramon Valley Blvd.", "addr:city": "San Ramon", "addr:state": "CA", "addr:postcode": "94583", "addr:country": "US", "name": "Sonesta Select San Ramon", "phone": "1.925.866.2900", "brand": "Sonesta"}, "geometry": {"type": "Point", "coordinates": [-121.965, 37.7578]}},
{"type": "Feature", "id": "e8zUZB6Cuf8WQIFhTgM6vPNhRaA=", "properties": {"ref": "https://www.sonesta.com/us/california/fresno/sonesta-es-suites-fresno", "@spider": "sonesta", "addr:full": "5322 North Diana Avenue", "addr:city": "Fresno", "addr:state": "CA", "addr:postcode": "93710", "addr:country": "US", "name": "Sonesta ES Suites Fresno", "phone": "1.559.222.8900", "brand": "Sonesta"}, "geometry": {"type": "Point", "coordinates": [-119.787, 36.8142]}},
{"type": "Feature", "id": "oM0-RbpQbEbt0mqfrx2GyGJIBFc=", "properties": {"ref": "https://www.sonesta.com/us/georgia/hapeville/sonesta-select-atlanta-airport-north", "@spider": "sonesta", "addr:full": "3399 International Boulevard", "addr:city": "Hapeville", "addr:state": "GA", "addr:postcode": "30354", "addr:country": "US", "name": "Sonesta Select Atlanta Airport North", "phone": "1.404.559.1043", "brand": "Sonesta"}, "geometry": {"type": "Point", "coordinates": [-84.4239, 33.6619]}},
{"type": "Feature", "id": "uy4MPARno-doSD4V06IrdtaQaRA=", "properties": {"ref": "https://www.sonesta.com/us/georgia/norcross/sonesta-select-atlanta-norcross-i-85", "@spider": "sonesta", "addr:full": "6235 McDonough Drive", "addr:city": "Norcross", "addr:state": "GA", "addr:postcode": "30093", "addr:country": "US", "name": "Sonesta Select Atlanta Norcross I-85", "phone": "1.770.242.7172", "brand": "Sonesta"}, "geometry": {"type": "Point", "coordinates": [-84.214, 33.9104]}},
{"type": "Feature", "id": "HSLO0sqsFjDGW6cgnqh_ebJit-8=", "properties": {"ref": "https://www.sonesta.com/us/georgia/duluth/sonesta-gwinnett-place-atlanta", "@spider": "sonesta", "addr:full": "1775 Pleasant Hill Road", "addr:city": "Duluth", "addr:state": "GA", "addr:postcode": "30096", "addr:country": "US", "name": "Sonesta Gwinnett Place Atlanta", "phone": "1.770.923.1775", "brand": "Sonesta"}, "geometry": {"type": "Point", "coordinates": [-84.1284, 33.9483]}},
{"type": "Feature", "id": "fbNQhds-HI1hReM07A1mbzZGHBI=", "properties": {"ref": "https://www.sonesta.com/us/georgia/atlanta/sonesta-select-atlanta-cumberland-galleria", "@spider": "sonesta", "addr:full": "3000 Cumberland Blvd SE", "addr:city": "Atlanta", "addr:state": "GA", "addr:postcode": "30339", "addr:country": "US", "name": "Sonesta Select Atlanta Cumberland Galleria", "phone": "1.770.952.2555", "brand": "Sonesta"}, "geometry": {"type": "Point", "coordinates": [-84.4657, 33.8778]}},
{"type": "Feature", "id": "R51Bblr7pvpxxsPhpE4GdQDOFnY=", "properties": {"ref": "https://www.sonesta.com/us/georgia/atlanta/sonesta-select-atlanta-midtown-georgia-tech", "@spider": "sonesta", "addr:full": "1132 Techwood Drive", "addr:city": "Atlanta", "addr:state": "GA", "addr:postcode": "30318", "addr:country": "US", "name": "Sonesta Select Atlanta Midtown Georgia Tech", "phone": "1.404.607.1112", "brand": "Sonesta"}, "geometry": {"type": "Point", "coordinates": [-84.3929, 33.7856]}},
{"type": "Feature", "id": "7peg43EjnJNy0Zw4JKuxDcTrUdM=", "properties": {"ref": "https://www.sonesta.com/us/georgia/atlanta/sonesta-atlanta-northwest-galleria", "@spider": "sonesta", "addr:full": "6345 Powers Ferry Road NW", "addr:city": "Atlanta", "addr:state": "GA", "addr:postcode": "30339", "addr:country": "US", "name": "Sonesta Atlanta Northwest Galleria", "phone": "1.770.955.1700", "brand": "Sonesta"}, "geometry": {"type": "Point", "coordinates": [-84.4231, 33.9057]}},
{"type": "Feature", "id": "lo5xvOWWWidWCV2ygDEAU0lHOK0=", "properties": {"ref": "https://www.sonesta.com/us/florida/clearwater/sonesta-simply-suites-clearwater", "@spider": "sonesta", "addr:full": "13231 49th St. N.", "addr:city": "Clearwater", "addr:state": "FL", "addr:postcode": "33762", "addr:country": "US", "name": "Sonesta Simply Suites Clearwater", "phone": "1.727.573.3344", "brand": "Sonesta"}, "geometry": {"type": "Point", "coordinates": [-82.7007, 27.8926]}},
{"type": "Feature", "id": "JrJxbJ2Oh8r5fpQ8IdqpG1Gm-oU=", "properties": {"ref": "https://www.sonesta.com/us/arizona/flagstaff/sonesta-es-suites-flagstaff", "@spider": "sonesta", "addr:full": "1400 N. Country Club Road", "addr:city": "Flagstaff", "addr:state": "AZ", "addr:postcode": "86004", "addr:country": "US", "name": "Sonesta ES Suites Flagstaff", "phone": "1.928.526.5555 ", "brand": "Sonesta"}, "geometry": {"type": "Point", "coordinates": [-111.577, 35.2094]}},
{"type": "Feature", "id": "C0Ell1xMhOSvrVEVfm-Yx6Y3I4E=", "properties": {"ref": "https://www.sonesta.com/us/pennsylvania/philadelphia/sonesta-philadelphia-rittenhouse-square", "@spider": "sonesta", "addr:full": "1800 Market Street", "addr:city": "Philadelphia", "addr:state": "PA", "addr:postcode": "19103", "addr:country": "US", "name": "Sonesta Philadelphia Rittenhouse Square", "phone": "1.215.561.7500", "brand": "Sonesta"}, "geometry": {"type": "Point", "coordinates": [-75.1703, 39.9528]}},
{"type": "Feature", "id": "8_pC6JlUcAMK0k8_5HrRULGV6nI=", "properties": {"ref": "https://www.sonesta.com/us/minnesota/minneapolis/royal-sonesta-minneapolis-downtown", "@spider": "sonesta", "addr:full": "35 S 7th Street", "addr:city": "Minneapolis", "addr:state": "MN", "addr:postcode": "55402", "addr:country": "US", "name": "Royal Sonesta Minneapolis Downtown", "phone": "1.612.339.4900", "brand": "Sonesta"}, "geometry": {"type": "Point", "coordinates": [-93.2736, 44.9771]}},
{"type": "Feature", "id": "UwQQHKfg2jAUA2I3pSC9vjhdBaM=", "properties": {"ref": "https://www.sonesta.com/us/texas/houston/sonesta-simply-suites-houston-w-beltway", "@spider": "sonesta", "addr:full": "4033 W Sam Houston Parkway South", "addr:city": "Houston", "addr:state": "TX", "addr:postcode": "77042", "addr:country": "US", "name": "Sonesta Simply Suites Houston W Beltway", "phone": "1.713.780.7881", "brand": "Sonesta"}, "geometry": {"type": "Point", "coordinates": [-95.5561, 29.7209]}},
{"type": "Feature", "id": "mLpgCL1FCnfzkEZ-ApYFUxHtk-g=", "properties": {"ref": "https://www.sonesta.com/us/new-jersey/parsippany/sonesta-es-suites-parsippany", "@spider": "sonesta", "addr:full": "61 Interpace Pkwy", "addr:city": "Parsippany", "addr:state": "NJ", "addr:postcode": "07054", "addr:country": "US", "name": "Sonesta ES Suites Parsippany", "phone": "1.973.334.2907", "brand": "Sonesta"}, "geometry": {"type": "Point", "coordinates": [-75.0335, 41.5433]}},
{"type": "Feature", "id": "yER5d-2INgH_7RLKm0vQ_gi1nv4=", "properties": {"ref": "https://www.sonesta.com/us/maryland/linthicum-heights/sonesta-simply-suites-baltimore-bwi-airport", "@spider": "sonesta", "addr:full": "1247 Winterson Road", "addr:city": "Linthicum Heights", "addr:state": "MD", "addr:postcode": "21090", "addr:country": "US", "name": "Sonesta Simply Suites Baltimore BWI Airport", "phone": "1.410.850.9214", "brand": "Sonesta"}, "geometry": {"type": "Point", "coordinates": [-76.6907, 39.2041]}},
{"type": "Feature", "id": "tAWgEbLQZCfjMxjHmhn4CTdhp00=", "properties": {"ref": "https://www.sonesta.com/us/new-jersey/parsippany-troy-hills/sonesta-es-suites-parsippany-morris-plains", "@spider": "sonesta", "addr:full": "3 Gatehall Drive", "addr:city": "Parsippany-Troy Hills", "addr:state": "NJ", "addr:postcode": "07054", "addr:country": "US", "name": "Sonesta ES Suites Parsippany Morris Plains", "phone": "1.973.984.3313", "brand": "Sonesta"}, "geometry": {"type": "Point", "coordinates": [-74.4664, 40.8478]}},
{"type": "Feature", "id": "aeq9-_e9n36-58FQoLgFWfZ9c7U=", "properties": {"ref": "https://www.sonesta.com/us/massachusetts/cambridge/royal-sonesta-boston", "@spider": "sonesta", "addr:full": "40 Edwin Land Boulevard", "addr:city": "Cambridge", "addr:state": "MA", "addr:postcode": "02142", "addr:country": "US", "name": "Royal Sonesta Boston", "phone": "1.617.806.4200", "brand": "Sonesta"}, "geometry": {"type": "Point", "coordinates": [-71.0749, 42.3667]}},
{"type": "Feature", "id": "N_ZdtYXE-zdDcytwZaE4PpfnV80=", "properties": {"ref": "https://www.sonesta.com/us/missouri/kansas-city/sonesta-select-kansas-city-airport-prairie-view", "@spider": "sonesta", "addr:full": "7600 NW 97th Terrace", "addr:city": "Kansas City", "addr:state": "MO", "addr:postcode": "64153", "addr:country": "US", "name": "Sonesta Select Kansas City Airport Prairie View", "phone": "1.816.891.0871", "brand": "Sonesta"}, "geometry": {"type": "Point", "coordinates": [-94.67, 39.2708]}},
{"type": "Feature", "id": "QFbc8rNw_CUinGgJjvPMUXXqEpw=", "properties": {"ref": "https://www.sonesta.com/us/arizona/tucson/sonesta-select-tucson-airport", "@spider": "sonesta", "addr:full": "6885 South Tucson Boulevard", "addr:city": "Tucson", "addr:state": "AZ", "addr:postcode": "85756", "addr:country": "US", "name": "Sonesta Select Tucson Airport", "phone": "1.520.295.0405", "brand": "Sonesta"}, "geometry": {"type": "Point", "coordinates": [-110.936, 32.1273]}},
{"type": "Feature", "id": "c5a4V0779nAfLRHKI4Ptrtk-R4Y=", "properties": {"ref": "https://www.sonesta.com/us/georgia/duluth/sonesta-select-atlanta-duluth", "@spider": "sonesta", "addr:full": "3530 Venture Parkway", "addr:city": "Duluth", "addr:state": "GA", "addr:postcode": "30096", "addr:country": "US", "name": "Sonesta Select Atlanta Duluth", "phone": "1.770.623.9699", "brand": "Sonesta"}, "geometry": {"type": "Point", "coordinates": [-84.1279, 33.954]}},
{"type": "Feature", "id": "p-hKd8lrO0iF0Weki5JBghUHrzQ=", "properties": {"ref": "https://www.sonesta.com/us/texas/austin/sonesta-select-austin-north", "@spider": "sonesta", "addr:full": "7522 North IH-35", "addr:city": "Austin", "addr:state": "TX", "addr:postcode": "78752", "addr:country": "US", "name": "Sonesta Select Austin North", "phone": "1.512.323.2121", "brand": "Sonesta"}, "geometry": {"type": "Point", "coordinates": [-97.7037, 30.3383]}},
{"type": "Feature", "id": "rPHoaTd4DnYvcqyFRll-N5T7fzw=", "properties": {"ref": "https://www.sonesta.com/us/indiana/fort-wayne/sonesta-select-fort-wayne", "@spider": "sonesta", "addr:full": "111 W. Washington Ctr. Rd.", "addr:city": "Fort Wayne", "addr:state": "IN", "addr:postcode": "46825", "addr:country": "US", "name": "Sonesta Select Fort Wayne", "phone": "1.260.471.8522", "brand": "Sonesta"}, "geometry": {"type": "Point", "coordinates": [-85.1424, 41.1314]}},
{"type": "Feature", "id": "f45QJNRtBQi2WGxA0Xn9zIBdXWE=", "properties": {"ref": "https://www.sonesta.com/us/california/pleasant-hill/sonesta-select-pleasant-hill", "@spider": "sonesta", "addr:full": "2250 Contra Costa Blvd", "addr:city": "Pleasant Hill", "addr:state": "CA", "addr:postcode": "94523", "addr:country": "US", "name": "Sonesta Select Pleasant Hill", "phone": "1.925.691.1444", "brand": "Sonesta"}, "geometry": {"type": "Point", "coordinates": [-122.06, 37.9459]}},
{"type": "Feature", "id": "ExWUoNB4Ehp__7zoaGETEvZ6POk=", "properties": {"ref": "https://www.sonesta.com/us/hawaii/lihue/royal-sonesta-kauai-resort-lihue", "@spider": "sonesta", "addr:full": "3610 Rice Street", "addr:city": "Lihue", "addr:state": "HI", "addr:postcode": "96766", "addr:country": "US", "name": "Royal Sonesta Kaua'i Resort Lihue", "phone": "1.808.245.5050", "brand": "Sonesta"}, "geometry": {"type": "Point", "coordinates": [-159.35, 21.963]}},
{"type": "Feature", "id": "YrFcdovvGCqESi8hwWdtiFwCgR8=", "properties": {"ref": "https://www.sonesta.com/us/washington/renton/sonesta-simply-suites-seattle-renton", "@spider": "sonesta", "addr:full": "300 SW 19th Street", "addr:city": "Renton", "addr:state": "WA", "addr:postcode": "98057", "addr:country": "US", "name": "Sonesta Simply Suites Seattle Renton", "phone": "1.425.917.2000", "brand": "Sonesta"}, "geometry": {"type": "Point", "coordinates": [-122.221, 47.4638]}},
{"type": "Feature", "id": "X_5Wae6grGmgU3Idx4tWDWP6yn8=", "properties": {"ref": "https://www.sonesta.com/us/arizona/scottsdale/sonesta-simply-suites-scottsdale-north", "@spider": "sonesta", "addr:full": "10740 North 90th Street", "addr:city": "Scottsdale", "addr:state": "AZ", "addr:postcode": "85260", "addr:country": "US", "name": "Sonesta Simply Suites Scottsdale North", "phone": "1.480.551.1100", "brand": "Sonesta"}, "geometry": {"type": "Point", "coordinates": [-111.887, 33.5841]}},
{"type": "Feature", "id": "HzXVZrF8tAFmHv7XpJNNa9t6d-Q=", "properties": {"ref": "https://www.sonesta.com/us/virginia/falls-church/sonesta-simply-suites-falls-church", "@spider": "sonesta", "addr:full": "205 Hillwood Avenue", "addr:city": "Falls Church", "addr:state": "VA", "addr:postcode": "22046", "addr:country": "US", "name": "Sonesta Simply Suites Falls Church", "phone": "1.703.237.6172", "brand": "Sonesta"}, "geometry": {"type": "Point", "coordinates": [-77.1708, 38.8788]}},
{"type": "Feature", "id": "I_opRNXvRBT1XrSD99fPyLmhqR0=", "properties": {"ref": "https://www.sonesta.com/us/washington/renton/sonesta-select-seattle-renton", "@spider": "sonesta", "addr:full": "200 SW 19th Street", "addr:city": "Renton", "addr:state": "WA", "addr:postcode": "98057", "addr:country": "US", "name": "Sonesta Select Seattle Renton", "phone": "1.425.226.4100", "brand": "Sonesta"}, "geometry": {"type": "Point", "coordinates": [-122.221, 47.4633]}},
{"type": "Feature", "id": "DP_XDSUazMJjM-FsY8vbUO7EhFs=", "properties": {"ref": "https://www.sonesta.com/us/tennessee/nashville/sonesta-select-nashville-airport-suites", "@spider": "sonesta", "addr:full": "1100 Airport Center Drive", "addr:city": "Nashville", "addr:state": "TN", "addr:postcode": "37214", "addr:country": "US", "name": "Sonesta Select Nashville Airport Suites", "phone": "1.615.884.6111", "brand": "Sonesta"}, "geometry": {"type": "Point", "coordinates": [-86.6641, 36.1451]}},
{"type": "Feature", "id": "eytp_dBR_ylZ23bikkuPRtAl_1A=", "properties": {"ref": "https://www.sonesta.com/us/arizona/tempe/sonesta-es-suites-tempe", "@spider": "sonesta", "addr:full": "5075 S. Priest Drive", "addr:city": "Tempe", "addr:state": "AZ", "addr:postcode": "85282", "addr:country": "US", "name": "Sonesta ES Suites Tempe", "phone": "1.480.756.2122", "brand": "Sonesta"}, "geometry": {"type": "Point", "coordinates": [-111.962, 33.3793]}},
{"type": "Feature", "id": "BrJyt1XHc845LxKiqVN42eyC3to=", "properties": {"ref": "https://www.sonesta.com/us/california/south-san-francisco/sonesta-es-suites-san-francisco-airport-oyster-point-waterfront", "@spider": "sonesta", "addr:full": "1350 Veterans Boulevard", "addr:city": "South San Francisco", "addr:state": "CA", "addr:postcode": "94080", "addr:country": "US", "name": "Sonesta ES Suites San Francisco Airport Oyster Point Waterfront", "phone": "1.650.837.9000", "brand": "Sonesta"}, "geometry": {"type": "Point", "coordinates": [-122.394, 37.667]}},
{"type": "Feature", "id": "oZkcEu6Iorb5vAd7q7RIQ2OqBgQ=", "properties": {"ref": "https://www.sonesta.com/us/california/san-diego/sonesta-es-suites-carmel-mountain-rancho-bernardo", "@spider": "sonesta", "addr:full": "11002 Rancho Carmel Drive", "addr:city": "San Diego", "addr:state": "CA", "addr:postcode": "92128", "addr:country": "US", "name": "Sonesta ES Suites Carmel Mountain Rancho Bernardo", "phone": "1.858.673.1900", "brand": "Sonesta"}, "geometry": {"type": "Point", "coordinates": [-117.084, 32.9773]}},
{"type": "Feature", "id": "19W51T_M9UbYbfU7LEMx_eMpK78=", "properties": {"ref": "https://www.sonesta.com/us/arizona/scottsdale/sonesta-es-suites-scottsdale-paradise-valley", "@spider": "sonesta", "addr:full": "6040 N. Scottsdale Road", "addr:city": "Scottsdale", "addr:state": "AZ", "addr:postcode": "85253", "addr:country": "US", "name": "Sonesta ES Suites Scottsdale Paradise Valley", "phone": "1.480.948.8666", "brand": "Sonesta"}, "geometry": {"type": "Point", "coordinates": [-111.927, 33.5255]}},
{"type": "Feature", "id": "v3R4rk1Q0X768oQksBu5FormBBY=", "properties": {"ref": "https://www.sonesta.com/us/texas/san-antonio/sonesta-es-suites-san-antonio-downtown-alamo-plaza", "@spider": "sonesta", "addr:full": "425 Bonham Street", "addr:city": "San Antonio", "addr:state": "TX", "addr:postcode": "78205", "addr:country": "US", "name": "Sonesta ES Suites San Antonio Downtown Alamo Plaza", "phone": "1.210.212.5555", "brand": "Sonesta"}, "geometry": {"type": "Point", "coordinates": [-98.4841, 29.4272]}},
{"type": "Feature", "id": "N1n7S3ZDMTmDNBHzdOILwGWRXCs=", "properties": {"ref": "https://www.sonesta.com/us/nevada/reno/sonesta-es-suites-reno", "@spider": "sonesta", "addr:full": "9845 Gateway Drive", "addr:city": "Reno", "addr:state": "NV", "addr:postcode": "89521", "addr:country": "US", "name": "Sonesta ES Suites Reno", "phone": "1.775.853.8800", "brand": "Sonesta"}, "geometry": {"type": "Point", "coordinates": [-119.763, 39.4399]}},
{"type": "Feature", "id": "4mqbzchd9AcYt1xRV78DkwefiOA=", "properties": {"ref": "https://www.sonesta.com/us/tennessee/brentwood/sonesta-es-suites-nashville-brentwood", "@spider": "sonesta", "addr:full": "206 Ward Circle", "addr:city": "Brentwood", "addr:state": "TN", "addr:postcode": "37027", "addr:country": "US", "name": "Sonesta ES Suites Nashville Brentwood", "phone": "1.615.371.0100", "brand": "Sonesta"}, "geometry": {"type": "Point", "coordinates": [-86.8006, 36.0312]}},
{"type": "Feature", "id": "L3EuDbahg4qFubN494sMZyy30OY=", "properties": {"ref": "https://www.sonesta.com/us/virginia/fairfax/sonesta-es-suites-fairfax-fair-lakes", "@spider": "sonesta", "addr:full": "12815 Fairlakes Parkway", "addr:city": "Fairfax", "addr:state": "VA", "addr:postcode": "22033", "addr:country": "US", "name": "Sonesta ES Suites Fairfax Fair Lakes", "phone": "1.703.266.4900", "brand": "Sonesta"}, "geometry": {"type": "Point", "coordinates": [-77.3843, 38.8623]}},
{"type": "Feature", "id": "oxXQDhglFaLUHD4vWfR6ttMQ3aw=", "properties": {"ref": "https://www.sonesta.com/us/california/fountain-valley/sonesta-es-suites-huntington-beach-fountain-valley", "@spider": "sonesta", "addr:full": "9930 Slater Avenue", "addr:city": "Fountain Valley", "addr:state": "CA", "addr:postcode": "92708", "addr:country": "US", "name": "Sonesta ES Suites Huntington Beach Fountain Valley", "phone": "1.714.965.8000", "brand": "Sonesta"}, "geometry": {"type": "Point", "coordinates": [-117.957, 33.7084]}},
{"type": "Feature", "id": "fURDE3ptESguvupXOOrscWhCULw=", "properties": {"ref": "https://www.sonesta.com/us/texas/dallas/sonesta-es-suites-dallas-market-center", "@spider": "sonesta", "addr:full": "6950 N. Stemmons Freeway", "addr:city": "Dallas", "addr:state": "TX", "addr:postcode": "75247", "addr:country": "US", "name": "Sonesta ES Suites Dallas Market Center", "phone": "1.214.631.2472", "brand": "Sonesta"}, "geometry": {"type": "Point", "coordinates": [-96.8656, 32.8144]}},
{"type": "Feature", "id": "PdatdPa078pAaizXq1R1xWggbZE=", "properties": {"ref": "https://www.sonesta.com/us/texas/dallas/sonesta-es-suites-dallas-central-expressway", "@spider": "sonesta", "addr:full": "10333 N. Central Expressway", "addr:city": "Dallas", "addr:state": "TX", "addr:postcode": "75231", "addr:country": "US", "name": "Sonesta ES Suites Dallas Central Expressway", "phone": "1.214.750.8220", "brand": "Sonesta"}, "geometry": {"type": "Point", "coordinates": [-96.7716, 32.8874]}},
{"type": "Feature", "id": "QdwXGHt_EfNtIBn7GS-6WQe-RcY=", "properties": {"ref": "https://www.sonesta.com/us/illinois/waukegan/sonesta-es-suites-chicago-waukegan-gurnee", "@spider": "sonesta", "addr:full": "1440 South White Oak Drive", "addr:city": "Waukegan", "addr:state": "IL", "addr:postcode": "60085", "addr:country": "US", "name": "Sonesta ES Suites Chicago Waukegan Gurnee", "phone": "1.847.689.9240", "brand": "Sonesta"}, "geometry": {"type": "Point", "coordinates": [-87.8942, 42.3345]}},
{"type": "Feature", "id": "uQ4Ss-A-T39wg4g-zD0ZYAw_8uI=", "properties": {"ref": "https://www.sonesta.com/us/illinois/chicago/sonesta-es-suites-chicago-downtown-magnificent-mile-medical", "@spider": "sonesta", "addr:full": "201 East Walton Place", "addr:city": "Chicago", "addr:state": "IL", "addr:postcode": "60611", "addr:country": "US", "name": "Sonesta ES Suites Chicago Downtown Magnificent Mile - Medical", "phone": "1.312.943.9800", "brand": "Sonesta"}, "geometry": {"type": "Point", "coordinates": [-87.622, 41.8999]}},
{"type": "Feature", "id": "eZ3HnBoZMfY8AOBb4FAU5kbD-Hc=", "properties": {"ref": "https://www.sonesta.com/us/west-virginia/charleston/sonesta-es-suites-charleston", "@spider": "sonesta", "addr:full": "200 Hotel Circle", "addr:city": "Charleston", "addr:state": "WV", "addr:postcode": "25311", "addr:country": "US", "name": "Sonesta ES Suites Charleston", "phone": "1.304.345.4200", "brand": "Sonesta"}, "geometry": {"type": "Point", "coordinates": [-81.6061, 38.3538]}},
{"type": "Feature", "id": "xwGqP85i39jNqNVh7nwgUk_UZfU=", "properties": {"ref": "https://www.sonesta.com/us/massachusetts/westborough/sonesta-es-suites-boston-westborough", "@spider": "sonesta", "addr:full": "25 Connector Road", "addr:city": "Westborough", "addr:state": "MA", "addr:postcode": "01581", "addr:country": "US", "name": "Sonesta ES Suites Boston Westborough", "phone": "1.508.366.7700", "brand": "Sonesta"}, "geometry": {"type": "Point", "coordinates": [-71.5866, 42.2854]}},
{"type": "Feature", "id": "H4ogF0M6ke-0BAmrWzjI63XLkNY=", "properties": {"ref": "https://www.sonesta.com/us/alabama/birmingham/sonesta-es-suites-birmingham-homewood", "@spider": "sonesta", "addr:full": "50 State Farm Parkway", "addr:city": "Birmingham", "addr:state": "AL", "addr:postcode": "35209", "addr:country": "US", "name": "Sonesta ES Suites Birmingham Homewood ", "phone": "1.205.943.0044", "brand": "Sonesta"}, "geometry": {"type": "Point", "coordinates": [-86.8216, 33.4564]}},
{"type": "Feature", "id": "xXRMb6ESgs_VfnEVdMQn7jIi2eQ=", "properties": {"ref": "https://www.sonesta.com/us/georgia/kennesaw/sonesta-es-suites-atlanta-kennesaw-town-center", "@spider": "sonesta", "addr:full": "3443 Busbee Dr NW", "addr:city": "Kennesaw", "addr:state": "GA", "addr:postcode": "30144", "addr:country": "US", "name": "Sonesta ES Suites Atlanta Kennesaw Town Center", "phone": "1.770.218.1018", "brand": "Sonesta"}, "geometry": {"type": "Point", "coordinates": [-84.5778, 34.0364]}},
{"type": "Feature", "id": "rCt0etAia4ByHUQahTmvlNX9sJU=", "properties": {"ref": "https://www.sonesta.com/us/georgia/alpharetta/sonesta-es-suites-atlanta-alpharetta-windward", "@spider": "sonesta", "addr:full": "5465 Windward Pkwy", "addr:city": "Alpharetta", "addr:state": "GA", "addr:postcode": "30004", "addr:country": "US", "name": "Sonesta ES Suites Atlanta Alpharetta Windward", "phone": "1.770.664.0664", "brand": "Sonesta"}, "geometry": {"type": "Point", "coordinates": [-84.2706, 34.087]}},
{"type": "Feature", "id": "RlAERZynqd9BqmH-OLV-D_35UBc=", "properties": {"ref": "https://www.sonesta.com/us/georgia/alpharetta/sonesta-es-suites-atlanta-alpharetta-north-point-mall", "@spider": "sonesta", "addr:full": "1325 North Point Drive", "addr:city": "Alpharetta", "addr:state": "GA", "addr:postcode": "30022", "addr:country": "US", "name": "Sonesta ES Suites Atlanta Alpharetta North Point Mall", "phone": "1.770.587.1151", "brand": "Sonesta"}, "geometry": {"type": "Point", "coordinates": [-84.2911, 34.0511]}},
{"type": "Feature", "id": "pRyXtWDCcGA4pG_Oh4h6KwvZl1w=", "properties": {"ref": "https://www.sonesta.com/us/maryland/annapolis/sonesta-es-suites-annapolis", "@spider": "sonesta", "addr:full": "170 Admiral Cochrane Drive", "addr:city": "Annapolis", "addr:state": "MD", "addr:postcode": "21401", "addr:country": "US", "name": "Sonesta ES Suites Annapolis", "phone": "1.410.573.0300", "brand": "Sonesta"}, "geometry": {"type": "Point", "coordinates": [-76.552, 38.974]}},
{"type": "Feature", "id": "qduft8s3Q1i0mVF09DEHEirNNUw=", "properties": {"ref": "https://www.sonesta.com/us/new-mexico/albuquerque/sonesta-es-suites-albuquerque", "@spider": "sonesta", "addr:full": "3300 Prospect Avenue NE", "addr:city": "Albuquerque", "addr:state": "NM", "addr:postcode": "87107", "addr:country": "US", "name": "Sonesta ES Suites Albuquerque", "phone": "1.505.881.2661", "brand": "Sonesta"}, "geometry": {"type": "Point", "coordinates": [-106.608, 35.1071]}},
{"type": "Feature", "id": "KGV9kzAhLWzjb71nNwMR1WHygQE=", "properties": {"ref": "https://www.sonesta.com/us/tennessee/nashville/sonesta-nashville-airport", "@spider": "sonesta", "addr:full": "600 Marriott Drive", "addr:city": "Nashville", "addr:state": "TN", "addr:postcode": "37214", "addr:country": "US", "name": "Sonesta Nashville Airport", "phone": "1.615.889.9300", "brand": "Sonesta"}, "geometry": {"type": "Point", "coordinates": [-86.6935, 36.1462]}},
{"type": "Feature", "id": "40YsWqI1k2Jy6LuWUPa8gl1-VwE=", "properties": {"ref": "https://www.sonesta.com/us/new-jersey/tinton-falls/sonesta-select-tinton-falls-eatontown", "@spider": "sonesta", "addr:full": "600 Hope Road", "addr:city": "Tinton Falls", "addr:state": "NJ", "addr:postcode": "07724", "addr:country": "US", "name": "Sonesta Select Tinton Falls Eatontown", "phone": "1.732.389.2100", "brand": "Sonesta"}, "geometry": {"type": "Point", "coordinates": [-74.08, 40.2894]}},
{"type": "Feature", "id": "44k0NrA3A53tOQUBeK4wzPPjiWw=", "properties": {"ref": "https://www.sonesta.com/us/washington/bellevue/sonesta-select-seattle-bellevue-redmond", "@spider": "sonesta", "addr:full": "14615 NE 29th Place", "addr:city": "Bellevue", "addr:state": "WA", "addr:postcode": "98007", "addr:country": "US", "name": "Sonesta Select Seattle Bellevue Redmond", "phone": "1.425.869.5300", "brand": "Sonesta"}, "geometry": {"type": "Point", "coordinates": [-122.146, 47.6352]}},
{"type": "Feature", "id": "7QCNCI49-9itlzVtan_X7a-IjbQ=", "properties": {"ref": "https://www.sonesta.com/us/arizona/scottsdale/sonesta-select-scottsdale-mayo-clinic-campus", "@spider": "sonesta", "addr:full": "13444 E. Shea Boulevard", "addr:city": "Scottsdale", "addr:state": "AZ", "addr:postcode": "85259", "addr:country": "US", "name": "Sonesta Select Scottsdale at Mayo Clinic Campus", "phone": "1.480.860.4000", "brand": "Sonesta"}, "geometry": {"type": "Point", "coordinates": [-111.791, 33.5836]}},
{"type": "Feature", "id": "FDD59RuH3IwlxJLRJNSseajVB3s=", "properties": {"ref": "https://www.sonesta.com/us/california/san-jose/sonesta-select-san-jose-airport", "@spider": "sonesta", "addr:full": "1727 Technology Drive", "addr:city": "San Jose", "addr:state": "CA", "addr:postcode": "95110", "addr:country": "US", "name": "Sonesta Select San Jose Airport ", "phone": "1.408.441.6111", "brand": "Sonesta"}, "geometry": {"type": "Point", "coordinates": [-121.919, 37.3657]}},
{"type": "Feature", "id": "PcnFqWrw3W-GWMEXH3Sx-1291b0=", "properties": {"ref": "https://www.sonesta.com/us/california/south-san-francisco/sonesta-select-san-francisco-airport-oyster-point-waterfront", "@spider": "sonesta", "addr:full": "1300 Veterans Boulevard", "addr:city": "South San Francisco", "addr:state": "CA", "addr:postcode": "94080", "addr:country": "US", "name": "Sonesta Select San Francisco Airport Oyster Point Waterfront", "phone": "1.650.871.4100", "brand": "Sonesta"}, "geometry": {"type": "Point", "coordinates": [-122.395, 37.6662]}},
{"type": "Feature", "id": "Ac0qMFYl6FDXL1Ub5gAppDSASEY=", "properties": {"ref": "https://www.sonesta.com/us/north-carolina/morrisville/sonesta-select-raleigh-durham-airport-morrisville", "@spider": "sonesta", "addr:full": "2001 Hospitality Court", "addr:city": "Morrisville", "addr:state": "NC", "addr:postcode": "27560", "addr:country": "US", "name": "Sonesta Select Raleigh Durham Airport Morrisville", "phone": "1.919.467.9444", "brand": "Sonesta"}, "geometry": {"type": "Point", "coordinates": [-78.8153, 35.859]}},
{"type": "Feature", "id": "beao7KUhPm4ieQqgSKH4qe0hU4g=", "properties": {"ref": "https://www.sonesta.com/us/arizona/chandler/sonesta-select-phoenix-chandler", "@spider": "sonesta", "addr:full": "920 North 54th Street", "addr:city": "Chandler", "addr:state": "AZ", "addr:postcode": "85226", "addr:country": "US", "name": "Sonesta Select Phoenix Chandler", "phone": "1.480.763.9500", "brand": "Sonesta"}, "geometry": {"type": "Point", "coordinates": [-111.971, 33.3184]}},
{"type": "Feature", "id": "FV3jIj8jb9KEdarth6d4WAJR1fc=", "properties": {"ref": "https://www.sonesta.com/us/arizona/phoenix/sonesta-select-phoenix-camelback", "@spider": "sonesta", "addr:full": "2101 E. Camelback Road", "addr:city": "Phoenix", "addr:state": "AZ", "addr:postcode": "85016", "addr:country": "US", "name": "Sonesta Select Phoenix Camelback", "phone": "1.602.955.5200", "brand": "Sonesta"}, "geometry": {"type": "Point", "coordinates": [-112.037, 33.5078]}},
{"type": "Feature", "id": "1W_GNKTHkJrCzihz3cDB5wFeolA=", "properties": {"ref": "https://www.sonesta.com/us/california/emeryville/sonesta-emeryville-oakland", "@spider": "sonesta", "addr:full": "5555 Shellmound Street", "addr:city": "Emeryville", "addr:state": "CA", "addr:postcode": "94608", "addr:country": "US", "name": "Sonesta Emeryville Oakland", "phone": "1.510.652.8777", "brand": "Sonesta"}, "geometry": {"type": "Point", "coordinates": [-122.294, 37.8349]}},
{"type": "Feature", "id": "zlGZemZt2-oFzJNaPzT8jdhF53M=", "properties": {"ref": "https://www.sonesta.com/us/rhode-island/middletown/sonesta-select-newport-middletown", "@spider": "sonesta", "addr:full": "9 Commerce Drive", "addr:city": "Middletown", "addr:state": "RI", "addr:postcode": "02842", "addr:country": "US", "name": "Sonesta Select Newport Middletown", "phone": "1.401.849.8000", "brand": "Sonesta"}, "geometry": {"type": "Point", "coordinates": [-71.2984, 41.529]}},
{"type": "Feature", "id": "6GUfQd0vrDf1FEWtemxDaM6AUlo=", "properties": {"ref": "https://www.sonesta.com/us/minnesota/eden-prairie/sonesta-select-minneapolis-eden-prairie", "@spider": "sonesta", "addr:full": "11391 Viking Drive", "addr:city": "Eden Prairie", "addr:state": "MN", "addr:postcode": "55344", "addr:country": "US", "name": "Sonesta Select Minneapolis Eden Prairie", "phone": "1.952.942.9100", "brand": "Sonesta"}, "geometry": {"type": "Point", "coordinates": [-93.4226, 44.8631]}},
{"type": "Feature", "id": "tr7XsIxmhDsUH6BGsGfTEDjnd4E=", "properties": {"ref": "https://www.sonesta.com/us/wisconsin/brookfield/sonesta-select-milwaukee-brookfield", "@spider": "sonesta", "addr:full": "16865 W. Bluemound Road", "addr:city": "Brookfield", "addr:state": "WI", "addr:postcode": "53005", "addr:country": "US", "name": "Sonesta Select Milwaukee Brookfield", "phone": "1.262.821.1800", "brand": "Sonesta"}, "geometry": {"type": "Point", "coordinates": [-88.1228, 43.036]}},
{"type": "Feature", "id": "56s1peNUW-DzZpa7sw3XuA9iZ6c=", "properties": {"ref": "https://www.sonesta.com/us/florida/miami-lakes/sonesta-select-miami-lakes", "@spider": "sonesta", "addr:full": "15700 NW 77th Court", "addr:city": "Miami Lakes", "addr:state": "FL", "addr:postcode": "33016", "addr:country": "US", "name": "Sonesta Select Miami Lakes", "phone": "1.305.556.6665", "brand": "Sonesta"}, "geometry": {"type": "Point", "coordinates": [-80.3268, 25.916]}},
{"type": "Feature", "id": "zxr_mB88LeIQ86Chcp0CHpQtnvo=", "properties": {"ref": "https://www.sonesta.com/us/new-jersey/mahwah/sonesta-select-mahwah", "@spider": "sonesta", "addr:full": "140 NJ-17 South", "addr:city": "Mahwah", "addr:state": "NJ", "addr:postcode": "07430", "addr:country": "US", "name": "Sonesta Select Mahwah", "phone": "1.201.529.5200", "brand": "Sonesta"}, "geometry": {"type": "Point", "coordinates": [-74.1648, 41.0997]}},
{"type": "Feature", "id": "-qxV0Adx9foQrqWZTkBBNtrDJ8Y=", "properties": {"ref": "https://www.sonesta.com/us/california/el-segundo/sonesta-select-los-angeles-lax-el-segundo", "@spider": "sonesta", "addr:full": "2000 E. Mariposa Avenue", "addr:city": "El Segundo", "addr:state": "CA", "addr:postcode": "90245", "addr:country": "US", "name": "Sonesta Select Los Angeles LAX El Segundo", "phone": "1.310.322.0700", "brand": "Sonesta"}, "geometry": {"type": "Point", "coordinates": [-118.392, 33.9231]}},
{"type": "Feature", "id": "Y4bLKGJpS6xzwLV00cACUKGUb6M=", "properties": {"ref": "https://www.sonesta.com/us/california/torrance/sonesta-select-los-angeles-torrance-south-bay", "@spider": "sonesta", "addr:full": "1925 W. 190th Street", "addr:city": "Torrance", "addr:state": "CA", "addr:postcode": "90504", "addr:country": "US", "name": "Sonesta Select Los Angeles Torrance South Bay", "phone": "1.310.532.1722", "brand": "Sonesta"}, "geometry": {"type": "Point", "coordinates": [-118.312, 33.8591]}},
{"type": "Feature", "id": "ncWUEo4198si0y-yaGFJ0HucE58=", "properties": {"ref": "https://www.sonesta.com/us/nevada/las-vegas/sonesta-select-las-vegas-summerlin", "@spider": "sonesta", "addr:full": "1901 North Rainbow Blvd", "addr:city": "Las Vegas", "addr:state": "NV", "addr:postcode": "89108", "addr:country": "US", "name": "Sonesta Select Las Vegas Summerlin", "phone": "1.702.646.4400", "brand": "Sonesta"}, "geometry": {"type": "Point", "coordinates": [-115.243, 36.1928]}},
{"type": "Feature", "id": "2wKazJTOyGexlovre7nOLsn3_fg=", "properties": {"ref": "https://www.sonesta.com/us/california/laguna-hills/sonesta-select-laguna-hills-irvine-spectrum", "@spider": "sonesta", "addr:full": "23175 Avenida de la Carlota", "addr:city": "Laguna Hills", "addr:state": "CA", "addr:postcode": "92653", "addr:country": "US", "name": "Sonesta Select Laguna Hills Irvine Spectrum", "phone": "1.949.859.5500", "brand": "Sonesta"}, "geometry": {"type": "Point", "coordinates": [-117.72, 33.6256]}},
{"type": "Feature", "id": "Hvvvfq7HtlgMz3Yssx0NW4bUnIM=", "properties": {"ref": "https://www.sonesta.com/us/missouri/kansas-city/sonesta-select-kansas-city-south-overland-park", "@spider": "sonesta", "addr:full": "500 E 105 Street", "addr:city": "Kansas City", "addr:state": "MO", "addr:postcode": "64131", "addr:country": "US", "name": "Sonesta Select Kansas City South Overland Park", "phone": "1.816.941.3333", "brand": "Sonesta"}, "geometry": {"type": "Point", "coordinates": [-94.5871, 38.9389]}},
{"type": "Feature", "id": "K9r3clkGp-_UsAWLK1GZwqLuP4E=", "properties": {"ref": "https://www.sonesta.com/us/missouri/kansas-city/sonesta-select-kansas-city-airport-tiffany-springs", "@spider": "sonesta", "addr:full": "7901 NW Tiffany Springs Parkway", "addr:city": "Kansas City", "addr:state": "MO", "addr:postcode": "64153", "addr:country": "US", "name": "Sonesta Select Kansas City Airport Tiffany Springs", "phone": "1.816.891.7500", "brand": "Sonesta"}, "geometry": {"type": "Point", "coordinates": [-94.6722, 39.2716]}},
{"type": "Feature", "id": "j8sVWQPtbhGtAZraBv6cVHzqc4I=", "properties": {"ref": "https://www.sonesta.com/us/indiana/indianapolis/sonesta-select-indianapolis-carmel", "@spider": "sonesta", "addr:full": "37 W 103rd Street", "addr:city": "Indianapolis", "addr:state": "IN", "addr:postcode": "46290", "addr:country": "US", "name": "Sonesta Select Indianapolis Carmel", "phone": "1.317.571.1110", "brand": "Sonesta"}, "geometry": {"type": "Point", "coordinates": [-86.1594, 39.9357]}},
{"type": "Feature", "id": "FfzQHZTzbhR8UYyHFHKFlLGNMtE=", "properties": {"ref": "https://www.sonesta.com/us/california/fountain-valley/sonesta-select-huntington-beach-fountain-valley", "@spider": "sonesta", "addr:full": "9950 Slater Road", "addr:city": "Fountain Valley", "addr:state": "CA", "addr:postcode": "92708", "addr:country": "US", "name": "Sonesta Select Huntington Beach Fountain Valley", "phone": "1.714.968.5775", "brand": "Sonesta"}, "geometry": {"type": "Point", "coordinates": [-117.955, 33.7082]}},
{"type": "Feature", "id": "0o1UOxP1WUtrtMbmsqmH67x4H0o=", "properties": {"ref": "https://www.sonesta.com/us/new-jersey/whippany/sonesta-select-whippany-hanover", "@spider": "sonesta", "addr:full": "157 Route 10 East", "addr:city": "Whippany", "addr:state": "NJ", "addr:postcode": "07981", "addr:country": "US", "name": "Sonesta Select Whippany Hanover", "phone": "1.973.887.8700", "brand": "Sonesta"}, "geometry": {"type": "Point", "coordinates": [-74.4008, 40.8147]}},
{"type": "Feature", "id": "nDmhXCh4MJPqSDZySnQg19npfXw=", "properties": {"ref": "https://www.sonesta.com/us/michigan/novi/sonesta-select-detroit-novi", "@spider": "sonesta", "addr:full": "42700 W 11 Mile Rd", "addr:city": "Novi", "addr:state": "MI", "addr:postcode": "48375", "addr:country": "US", "name": "Sonesta Select Detroit Novi", "phone": "1.248.380.1234", "brand": "Sonesta"}, "geometry": {"type": "Point", "coordinates": [-83.4681, 42.482]}},
{"type": "Feature", "id": "xhPrWzH6YUg0Y8KCJ-qZyoST0B0=", "properties": {"ref": "https://www.sonesta.com/us/michigan/auburn-hills/sonesta-select-detroit-auburn-hills", "@spider": "sonesta", "addr:full": "2550 Aimee Lane", "addr:city": "Auburn Hills", "addr:state": "MI", "addr:postcode": "48326", "addr:country": "US", "name": "Sonesta Select Detroit Auburn Hills", "phone": "1.248.373.4100", "brand": "Sonesta"}, "geometry": {"type": "Point", "coordinates": [-83.2414, 42.6582]}},
{"type": "Feature", "id": "6n9-unfbpfGGIf19jTQ6EvfKZyI=", "properties": {"ref": "https://www.sonesta.com/us/texas/dallas/sonesta-select-dallas-central-expressway", "@spider": "sonesta", "addr:full": "10325 N. Central Expressway", "addr:city": "Dallas", "addr:state": "TX", "addr:postcode": "75231", "addr:country": "US", "name": "Sonesta Select Dallas Central Expressway", "phone": "1.214.739.2500", "brand": "Sonesta"}, "geometry": {"type": "Point", "coordinates": [-96.7711, 32.887]}},
{"type": "Feature", "id": "lGQyPI4ShRAxwCu7zhgmYWa10AM=", "properties": {"ref": "https://www.sonesta.com/us/texas/richardson/sonesta-select-dallas-richardson", "@spider": "sonesta", "addr:full": "2191 N. Greenville Avenue", "addr:city": "Richardson", "addr:state": "TX", "addr:postcode": "75082", "addr:country": "US", "name": "Sonesta Select Dallas Richardson", "phone": "1.972.994.9933", "brand": "Sonesta"}, "geometry": {"type": "Point", "coordinates": [-96.7083, 32.9796]}},
{"type": "Feature", "id": "cUfsL8P2sQ9KAbT_V3Wihj8d_sE=", "properties": {"ref": "https://www.sonesta.com/us/california/camarillo/sonesta-select-camarillo", "@spider": "sonesta", "addr:full": "4994 Verdugo Way", "addr:city": "Camarillo", "addr:state": "CA", "addr:postcode": "93012", "addr:country": "US", "name": "Sonesta Select Camarillo", "phone": "1.805.388.1020", "brand": "Sonesta"}, "geometry": {"type": "Point", "coordinates": [-119.006, 34.2146]}},
{"type": "Feature", "id": "d2QnmKCeT01aqcktoeT1SjQxWj4=", "properties": {"ref": "https://www.sonesta.com/us/north-carolina/charlotte/sonesta-select-charlotte-university-research-park", "@spider": "sonesta", "addr:full": "333 West W.T. Harris Boulevard", "addr:city": "Charlotte", "addr:state": "NC", "addr:postcode": "28262", "addr:country": "US", "name": "Sonesta Select Charlotte University Research Park", "phone": "1.704.549.4888", "brand": "Sonesta"}, "geometry": {"type": "Point", "coordinates": [-80.7537, 35.3071]}},
{"type": "Feature", "id": "YdSr2QVkJtvoOAe5Fz9Sj5PCCrg=", "properties": {"ref": "https://www.sonesta.com/us/massachusetts/stoughton/sonesta-select-boston-stoughton", "@spider": "sonesta", "addr:full": "200 Technology Center Drive", "addr:city": "Stoughton", "addr:state": "MA", "addr:postcode": "02072", "addr:country": "US", "name": "Sonesta Select Boston Stoughton", "phone": "1.781.297.7000", "brand": "Sonesta"}, "geometry": {"type": "Point", "coordinates": [-71.0626, 42.1591]}},
{"type": "Feature", "id": "92YgxeIkm4U6stZRV0GMFt8obFA=", "properties": {"ref": "https://www.sonesta.com/us/massachusetts/milford/sonesta-select-boston-milford", "@spider": "sonesta", "addr:full": "10 Fortune Boulevard", "addr:city": "Milford", "addr:state": "MA", "addr:postcode": "01757", "addr:country": "US", "name": "Sonesta Select Boston Milford", "phone": "1.508.634.9500", "brand": "Sonesta"}, "geometry": {"type": "Point", "coordinates": [-71.5074, 42.1627]}},
{"type": "Feature", "id": "v4A8QD1K6EqQzVnlb417XIUlW7M=", "properties": {"ref": "https://www.sonesta.com/us/massachusetts/lowell/sonesta-select-boston-lowell-chelmsford", "@spider": "sonesta", "addr:full": "30 Industrial Avenue East", "addr:city": "Lowell", "addr:state": "MA", "addr:postcode": "01852", "addr:country": "US", "name": "Sonesta Select Boston Lowell Chelmsford", "phone": "1.978.458.7575", "brand": "Sonesta"}, "geometry": {"type": "Point", "coordinates": [-71.3177, 42.6154]}},
{"type": "Feature", "id": "ZRHjGCTF3vqktHhgeBimlw9LN14=", "properties": {"ref": "https://www.sonesta.com/us/massachusetts/foxborough/sonesta-select-boston-foxborough-mansfield", "@spider": "sonesta", "addr:full": "35 Foxborough Boulevard", "addr:city": "Foxborough", "addr:state": "MA", "addr:postcode": "02035", "addr:country": "US", "name": "Sonesta Select Boston Foxborough Mansfield", "phone": "1.508.543.5222", "brand": "Sonesta"}, "geometry": {"type": "Point", "coordinates": [-71.2374, 42.0399]}},
{"type": "Feature", "id": "E4R6G2izCEXSE07-rJ3atJLs_Zw=", "properties": {"ref": "https://www.sonesta.com/us/massachusetts/danvers/sonesta-select-boston-danvers", "@spider": "sonesta", "addr:full": "275 Independence Way", "addr:city": "Danvers", "addr:state": "MA", "addr:postcode": "01923", "addr:country": "US", "name": "Sonesta Select Boston Danvers ", "phone": "1.978.777.8630", "brand": "Sonesta"}, "geometry": {"type": "Point", "coordinates": [-70.9375, 42.5547]}},
{"type": "Feature", "id": "i6c9AZY4s_4sgt1kordgGsyDEzw=", "properties": {"ref": "https://www.sonesta.com/us/iowa/bettendorf/sonesta-select-bettendorf-quad-cities", "@spider": "sonesta", "addr:full": "895 Golden Valley Drive", "addr:city": "Bettendorf", "addr:state": "IA", "addr:postcode": "52722", "addr:country": "US", "name": "Sonesta Select Bettendorf Quad Cities", "phone": "1.563.355.3999", "brand": "Sonesta"}, "geometry": {"type": "Point", "coordinates": [-90.5214, 41.5581]}},
{"type": "Feature", "id": "jYQY69PfTXbFmEZLHhxtEMiax8M=", "properties": {"ref": "https://www.sonesta.com/us/alabama/birmingham/sonesta-select-birmingham-colonnade", "@spider": "sonesta", "addr:full": "4300 Colonade Parkway", "addr:city": "Birmingham", "addr:state": "AL", "addr:postcode": "35243", "addr:country": "US", "name": "Sonesta Select Birmingham Colonnade", "phone": "1.205.967.4466", "brand": "Sonesta"}, "geometry": {"type": "Point", "coordinates": [-86.736, 33.4363]}},
{"type": "Feature", "id": "pNdeI6VGTDR6Max7aKnN86tE4pA=", "properties": {"ref": "https://www.sonesta.com/us/south-carolina/spartanburg/sonesta-select-spartanburg", "@spider": "sonesta", "addr:full": "110 Mobile Drive", "addr:city": "Spartanburg", "addr:state": "SC", "addr:postcode": "29303", "addr:country": "US", "name": "Sonesta Select Spartanburg", "phone": "1.864.585.2400", "brand": "Sonesta"}, "geometry": {"type": "Point", "coordinates": [-81.9711, 34.9843]}},
{"type": "Feature", "id": "PxBokqf7_q9jZlmlo6DwFhtJVp4=", "properties": {"ref": "https://www.sonesta.com/us/florida/boca-raton/sonesta-select-boca-raton", "@spider": "sonesta", "addr:full": "2000 NW Executive Center Circle", "addr:city": "Boca Raton", "addr:state": "FL", "addr:postcode": "33431", "addr:country": "US", "name": "Sonesta Select Boca Raton", "phone": "1.561.241.7070", "brand": "Sonesta"}, "geometry": {"type": "Point", "coordinates": [-80.1241, 26.369]}},
{"type": "Feature", "id": "dvobeEpwGuC_ZHVpxsB8_tz73bE=", "properties": {"ref": "https://www.sonesta.com/us/north-carolina/durham/sonesta-select-durham-research-triangle-park", "@spider": "sonesta", "addr:full": "301 Residence Inn Blvd", "addr:city": "Durham", "addr:state": "NC", "addr:postcode": "27713", "addr:country": "US", "name": "Sonesta Select Durham Research Triangle Park", "phone": "1.919.484.2900", "brand": "Sonesta"}, "geometry": {"type": "Point", "coordinates": [-78.8964, 35.9048]}},
{"type": "Feature", "id": "xMfmBKMB2Wv-Ut6QGbI6J0FpvMM=", "properties": {"ref": "https://www.sonesta.com/us/illinois/west-dundee/sonesta-select-chicago-elgin-west-dundee", "@spider": "sonesta", "addr:full": "2175 Marriott Drive", "addr:city": "West Dundee", "addr:state": "IL", "addr:postcode": "60118", "addr:country": "US", "name": "Sonesta Select Chicago Elgin West Dundee", "phone": "1.847.429.0300", "brand": "Sonesta"}, "geometry": {"type": "Point", "coordinates": [-88.2891, 42.0747]}},
{"type": "Feature", "id": "AvtrJVDCksoBJiMZFkNav3M3gFY=", "properties": {"ref": "https://www.sonesta.com/us/illinois/arlington-heights/sonesta-select-arlington-heights-north", "@spider": "sonesta", "addr:full": "3700 N. Wilke Road", "addr:city": "Arlington Heights", "addr:state": "IL", "addr:postcode": "60004", "addr:country": "US", "name": "Sonesta Select Arlington Heights North", "phone": "1.847.394.9999", "brand": "Sonesta"}, "geometry": {"type": "Point", "coordinates": [-88.0062, 42.1433]}},
{"type": "Feature", "id": "b782qyhc9PUM3U25nk9viRDqh_U=", "properties": {"ref": "https://www.sonesta.com/us/tennessee/chattanooga/sonesta-select-chattanooga-hamilton-place", "@spider": "sonesta", "addr:full": "2210 Bams Drive", "addr:city": "Chattanooga", "addr:state": "TN", "addr:postcode": "37421", "addr:country": "US", "name": "Sonesta Select Chattanooga Hamilton Place", "phone": "1.423.499.4400", "brand": "Sonesta"}, "geometry": {"type": "Point", "coordinates": [-85.1586, 35.0398]}},
{"type": "Feature", "id": "DnYNoputE790U8VsxYGiFlxvQ_Q=", "properties": {"ref": "https://www.sonesta.com/us/massachusetts/woburn/sonesta-select-boston-woburn-burlington", "@spider": "sonesta", "addr:full": "240 Mishawum Road", "addr:city": "Woburn", "addr:state": "MA", "addr:postcode": "01801", "addr:country": "US", "name": "Sonesta Select Boston Woburn Burlington", "phone": "1.781.932.3200", "brand": "Sonesta"}, "geometry": {"type": "Point", "coordinates": [-71.1414, 42.5035]}},
{"type": "Feature", "id": "6BhUw0R7Emg0NA6-Z-_cXD3bQBQ=", "properties": {"ref": "https://www.sonesta.com/us/washington/seattle/alexis-royal-sonesta-hotel-seattle", "@spider": "sonesta", "addr:full": "1007 First Avenue", "addr:city": "Seattle", "addr:state": "WA", "addr:postcode": "98104", "addr:country": "US", "name": "The Alexis Royal Sonesta Hotel Seattle", "phone": "1.206.624.4844", "brand": "Sonesta"}, "geometry": {"type": "Point", "coordinates": [-122.337, 47.6049]}},
{"type": "Feature", "id": "79TF6YuUFosQBx-lvvqXuZQWSps=", "properties": {"ref": "https://www.sonesta.com/us/illinois/chicago/allegro-royal-sonesta-hotel-chicago-loop", "@spider": "sonesta", "addr:full": "171 W. Randolph Street", "addr:city": "Chicago", "addr:state": "IL", "addr:postcode": "60601", "addr:country": "US", "name": "The Allegro Royal Sonesta Hotel Chicago Loop", "phone": "1.312.236.0123", "brand": "Sonesta"}, "geometry": {"type": "Point", "coordinates": [-87.6333, 41.8842]}},
{"type": "Feature", "id": "xuu-9hrni7JNQoTTlpIiaA5Jtyk=", "properties": {"ref": "https://www.sonesta.com/us/oregon/portland/royal-sonesta-portland-downtown", "@spider": "sonesta", "addr:full": "506 SW Washington Street", "addr:city": "Portland", "addr:state": "OR", "addr:postcode": "97204", "addr:country": "US", "name": "Royal Sonesta Portland Downtown", "phone": "1.503.222.0001", "brand": "Sonesta"}, "geometry": {"type": "Point", "coordinates": [-122.677, 45.5204]}},
{"type": "Feature", "id": "LI1p9W0EOyfdX_P8DC2KkoAZJtM=", "properties": {"ref": "https://www.sonesta.com/us/district-columbia/washington/royal-sonesta-washington-dc-dupont-circle", "@spider": "sonesta", "addr:full": "2121 P Street NW", "addr:city": "Washington", "addr:state": "DC", "addr:postcode": "20037", "addr:country": "US", "name": "Royal Sonesta Washington DC Dupont Circle", "phone": "1.202.448.1800", "brand": "Sonesta"}, "geometry": {"type": "Point", "coordinates": [-77.0474, 38.9098]}},
{"type": "Feature", "id": "0GcYeQHGwa3auhvnYoLFPNoUoT4=", "properties": {"ref": "https://www.sonesta.com/us/illinois/chicago/royal-sonesta-chicago-river-north", "@spider": "sonesta", "addr:full": "505 N. State Street", "addr:city": "Chicago", "addr:state": "IL", "addr:postcode": "60654", "addr:country": "US", "name": "Royal Sonesta Chicago River North", "phone": "1.312.755.9703", "brand": "Sonesta"}, "geometry": {"type": "Point", "coordinates": [-87.6275, 41.8911]}},
{"type": "Feature", "id": "t84V19lY9x2VpB-Ru6MOJngkskw=", "properties": {"ref": "https://www.sonesta.com/us/puerto-rico/carolina/royal-sonesta-san-juan", "@spider": "sonesta", "addr:full": "5961 Isla Verde Avenue", "addr:city": "Carolina", "addr:state": "PR", "addr:postcode": "00979", "addr:country": "US", "name": "Royal Sonesta San Juan ", "phone": "1.787.791.6100", "brand": "Sonesta"}, "geometry": {"type": "Point", "coordinates": [-66.0201, 18.4431]}},
{"type": "Feature", "id": "SWLBozDhG-4aAe8c0WEjvF9vmWY=", "properties": {"ref": "https://www.sonesta.com/us/kansas/wichita/sonesta-simply-suites-wichita-northeast", "@spider": "sonesta", "addr:full": "3141 N. Webb Road", "addr:city": "Wichita", "addr:state": "KS", "addr:postcode": "67226", "addr:country": "US", "name": "Sonesta Simply Suites Wichita Northeast", "phone": "1.316.634.6070", "brand": "Sonesta"}, "geometry": {"type": "Point", "coordinates": [-97.2301, 37.7412]}},
{"type": "Feature", "id": "Jvcg4fMu0X_N-hbELd4AY6BxUiA=", "properties": {"ref": "https://www.sonesta.com/us/kansas/wichita/sonesta-simply-suites-wichita-airport", "@spider": "sonesta", "addr:full": "570 South Julia Street", "addr:city": "Wichita", "addr:state": "KS", "addr:postcode": "67209", "addr:country": "US", "name": "Sonesta Simply Suites Wichita Airport", "phone": "1.316.942.0400", "brand": "Sonesta"}, "geometry": {"type": "Point", "coordinates": [-97.412, 37.6758]}},
{"type": "Feature", "id": "YryWmmPgqGCsPqzbprcMRcQpELs=", "properties": {"ref": "https://www.sonesta.com/us/missouri/earth-city/sonesta-simply-suites-st-louis-earth-city", "@spider": "sonesta", "addr:full": "3250 Rider Trail S.", "addr:city": "Earth City", "addr:state": "MO", "addr:postcode": "63045", "addr:country": "US", "name": "Sonesta Simply Suites St Louis Earth City", "phone": "1.314.770.2744", "brand": "Sonesta"}, "geometry": {"type": "Point", "coordinates": [-90.4551, 38.761]}},
{"type": "Feature", "id": "FSAoJzuAh79-CAPnU3OgQN_2rlc=", "properties": {"ref": "https://www.sonesta.com/us/new-jersey/somerset/sonesta-simply-suites-somerset", "@spider": "sonesta", "addr:full": "41 World's Fair Drive", "addr:city": "Somerset", "addr:state": "NJ", "addr:postcode": "08873", "addr:country": "US", "name": "Sonesta Simply Suites Somerset", "phone": "1.732.748.1400", "brand": "Sonesta"}, "geometry": {"type": "Point", "coordinates": [-74.5186, 40.5294]}},
{"type": "Feature", "id": "W0tORQzbyNVd0R3wX6ZRUqTcQQA=", "properties": {"ref": "https://www.sonesta.com/us/california/santa-clara/sonesta-simply-suites-silicon-valley-santa-clara", "@spider": "sonesta", "addr:full": "481 El Camino Real", "addr:city": "Santa Clara", "addr:state": "CA", "addr:postcode": "95050", "addr:country": "US", "name": "Sonesta Simply Suites Silicon Valley - Santa Clara", "phone": "1.408.241.9305", "brand": "Sonesta"}, "geometry": {"type": "Point", "coordinates": [-121.936, 37.3524]}},
{"type": "Feature", "id": "cRL72cNphSVyTHtVGpMuRZUisGM=", "properties": {"ref": "https://www.sonesta.com/us/utah/salt-lake-city/sonesta-simply-suites-salt-lake-city-airport", "@spider": "sonesta", "addr:full": "2170 West North Temple", "addr:city": "Salt Lake City", "addr:state": "UT", "addr:postcode": "84116", "addr:country": "US", "name": "Sonesta Simply Suites Salt Lake City Airport", "phone": "1.801.359.7500", "brand": "Sonesta"}, "geometry": {"type": "Point", "coordinates": [-111.953, 40.7724]}},
{"type": "Feature", "id": "OAolVei5CYEMasDWVxeFsn4HbCM=", "properties": {"ref": "https://www.sonesta.com/us/texas/plano/sonesta-simply-suites-plano-frisco", "@spider": "sonesta", "addr:full": "4701 Legacy Dr.", "addr:city": "Plano", "addr:state": "TX", "addr:postcode": "75024", "addr:country": "US", "name": "Sonesta Simply Suites Plano Frisco", "phone": "1.972.618.5446", "brand": "Sonesta"}, "geometry": {"type": "Point", "coordinates": [-96.7924, 33.0714]}},
{"type": "Feature", "id": "4YJaBDJnBljcJkksb2DF7lJebZ0=", "properties": {"ref": "https://www.sonesta.com/us/pennsylvania/pittsburgh/sonesta-simply-suites-pittsburgh-airport", "@spider": "sonesta", "addr:full": "100 Chauvet Drive", "addr:city": "Pittsburgh", "addr:state": "PA", "addr:postcode": "15275", "addr:country": "US", "name": "Sonesta Simply Suites Pittsburgh Airport", "phone": "1.412.787.7770", "brand": "Sonesta"}, "geometry": {"type": "Point", "coordinates": [-80.1831, 40.4491]}},
{"type": "Feature", "id": "Z6JgH8dSZ2LR5NCCSP8eLlaWJ7c=", "properties": {"ref": "https://www.sonesta.com/us/arizona/tempe/sonesta-simply-suites-phoenix-tempe", "@spider": "sonesta", "addr:full": "1335 W. Baseline Road", "addr:city": "Tempe", "addr:state": "AZ", "addr:postcode": "85283", "addr:country": "US", "name": "Sonesta Simply Suites Phoenix Tempe", "phone": "1.480.777.0440", "brand": "Sonesta"}, "geometry": {"type": "Point", "coordinates": [-111.959, 33.3775]}},
{"type": "Feature", "id": "z10uzqnl4vJ7F0c9h7P_1vUH0wk=", "properties": {"ref": "https://www.sonesta.com/us/arizona/phoenix/sonesta-simply-suites-phoenix-glendale", "@spider": "sonesta", "addr:full": "11411 N. Black Canyon Hwy", "addr:city": "Phoenix", "addr:state": "AZ", "addr:postcode": "85029", "addr:country": "US", "name": "Sonesta Simply Suites Phoenix Glendale", "phone": "1.602.861.4900", "brand": "Sonesta"}, "geometry": {"type": "Point", "coordinates": [-112.116, 33.5897]}},
{"type": "Feature", "id": "KvPeSQ_tdo2BpA0mPZJcMvIcGo4=", "properties": {"ref": "https://www.sonesta.com/us/new-jersey/mount-laurel/sonesta-simply-suites-philadelphia-mount-laurel", "@spider": "sonesta", "addr:full": "4000 Crawford Place", "addr:city": "Mount Laurel", "addr:state": "NJ", "addr:postcode": "08054", "addr:country": "US", "name": "Sonesta Simply Suites Philadelphia Mount Laurel", "phone": "1.856.642.7567", "brand": "Sonesta"}, "geometry": {"type": "Point", "coordinates": [-74.9496, 39.9151]}},
{"type": "Feature", "id": "RKH1lUS91qTmxYsnTYv-U832b5M=", "properties": {"ref": "https://www.sonesta.com/us/pennsylvania/horsham/sonesta-simply-suites-philadelphia-willow-grove", "@spider": "sonesta", "addr:full": "250 Business Center Drive", "addr:city": "Horsham", "addr:state": "PA", "addr:postcode": "19044", "addr:country": "US", "name": "Sonesta Simply Suites Philadelphia - Willow Grove", "phone": "1.215.328.9119", "brand": "Sonesta"}, "geometry": {"type": "Point", "coordinates": [-75.1506, 40.1673]}},
{"type": "Feature", "id": "bPvqseCfQAwPv3L0CrxGwxA-rn4=", "properties": {"ref": "https://www.sonesta.com/us/new-jersey/morris-plains/sonesta-simply-suites-parsippany-morris-plains", "@spider": "sonesta", "addr:full": "100 Candlewood Dr.", "addr:city": "Morris Plains", "addr:state": "NJ", "addr:postcode": "07950", "addr:country": "US", "name": "Sonesta Simply Suites Parsippany Morris Plains", "phone": "1.973.984.9960", "brand": "Sonesta"}, "geometry": {"type": "Point", "coordinates": [-74.4725, 40.8474]}},
{"type": "Feature", "id": "p4l9palUxBhkaErCQiuTNszleBY=", "properties": {"ref": "https://www.sonesta.com/us/california/lake-forest/sonesta-simply-suites-irvine-east-foothill", "@spider": "sonesta", "addr:full": "3 South Pointe Drive", "addr:city": "Lake Forest", "addr:state": "CA", "addr:postcode": "92630", "addr:country": "US", "name": "Sonesta Simply Suites Irvine East Foothill", "phone": "1.949.598.9105", "brand": "Sonesta"}, "geometry": {"type": "Point", "coordinates": [-117.699, 33.6586]}},
{"type": "Feature", "id": "NGs335spTGKK8HoRqCFb--1HVcE=", "properties": {"ref": "https://www.sonesta.com/us/california/irvine/sonesta-simply-suites-irvine-spectrum", "@spider": "sonesta", "addr:full": "16150 Sand Canyon Ave.", "addr:city": "Irvine", "addr:state": "CA", "addr:postcode": "92618", "addr:country": "US", "name": "Sonesta Simply Suites Irvine Spectrum", "phone": "1.949.788.0500", "brand": "Sonesta"}, "geometry": {"type": "Point", "coordinates": [-117.77, 33.6621]}},
{"type": "Feature", "id": "4BWxWXquHgsMv6w8zfhUhv_Dgm8=", "properties": {"ref": "https://www.sonesta.com/us/california/santa-ana/sonesta-simply-suites-orange-county-airport", "@spider": "sonesta", "addr:full": "2600 S. Red Hill Avenue", "addr:city": "Santa Ana", "addr:state": "CA", "addr:postcode": "92705", "addr:country": "US", "name": "Sonesta Simply Suites Orange County Airport", "phone": "1.949.250.0404", "brand": "Sonesta"}, "geometry": {"type": "Point", "coordinates": [-117.843, 33.7069]}},
{"type": "Feature", "id": "j1zwf5lXt70yWjkalA7BYVs_lfg=", "properties": {"ref": "https://www.sonesta.com/us/oklahoma/oklahoma-city/sonesta-simply-suites-oklahoma-city-airport", "@spider": "sonesta", "addr:full": "4400 River Park Drive", "addr:city": "Oklahoma City", "addr:state": "OK", "addr:postcode": "73108", "addr:country": "US", "name": "Sonesta Simply Suites Oklahoma City Airport", "phone": "1.405.680.8770", "brand": "Sonesta"}, "geometry": {"type": "Point", "coordinates": [-97.5993, 35.4467]}},
{"type": "Feature", "id": "WvYX9TqFuVgojcwVMDl6moygQvc=", "properties": {"ref": "https://www.sonesta.com/us/tennessee/brentwood/sonesta-simply-suites-nashville-brentwood", "@spider": "sonesta", "addr:full": "5129 Virginia Way", "addr:city": "Brentwood", "addr:state": "TN", "addr:postcode": "37027", "addr:country": "US", "name": "Sonesta Simply Suites Nashville Brentwood", "phone": "1.615.309.0600", "brand": "Sonesta"}, "geometry": {"type": "Point", "coordinates": [-86.8052, 36.0315]}},
{"type": "Feature", "id": "y-QoH4yf08FpM7xPjH7PXhi8yfk=", "properties": {"ref": "https://www.sonesta.com/us/new-york/nanuet/sonesta-simply-suites-nanuet", "@spider": "sonesta", "addr:full": "20 Overlook Blvd.", "addr:city": "Nanuet", "addr:state": "NY", "addr:postcode": "10954", "addr:country": "US", "name": "Sonesta Simply Suites Nanuet", "phone": "1.845.371.4445", "brand": "Sonesta"}, "geometry": {"type": "Point", "coordinates": [-74.0275, 41.1069]}},
{"type": "Feature", "id": "lcs6ltdQ7bJzOFKWIkmmtL9Im2U=", "properties": {"ref": "https://www.sonesta.com/us/florida/miami/sonesta-simply-suites-miami-airport-doral", "@spider": "sonesta", "addr:full": "8855 NW 27th St.", "addr:city": "Miami", "addr:state": "FL", "addr:postcode": "33172", "addr:country": "US", "name": "Sonesta Simply Suites Miami Airport Doral", "phone": "1.305.591.9099", "brand": "Sonesta"}, "geometry": {"type": "Point", "coordinates": [-80.3429, 25.8007]}},
{"type": "Feature", "id": "44ud1wfT1QjAAlEk42qZkVsHz7E=", "properties": {"ref": "https://www.sonesta.com/us/nevada/las-vegas/sonesta-simply-suites-las-vegas-convention-center", "@spider": "sonesta", "addr:full": "4034 South Paradise Road", "addr:city": "Las Vegas", "addr:state": "NV", "addr:postcode": "89109", "addr:country": "US", "name": "Sonesta Simply Suites Las Vegas Convention Center", "phone": "1.702.836.3660", "brand": "Sonesta"}, "geometry": {"type": "Point", "coordinates": [-115.154, 36.1158]}},
{"type": "Feature", "id": "VXa54wP92g3sZZ2LjZsGPLAaK68=", "properties": {"ref": "https://www.sonesta.com/us/tennessee/knoxville/sonesta-simply-suites-knoxville", "@spider": "sonesta", "addr:full": "10206 Parkside Drive", "addr:city": "Knoxville", "addr:state": "TN", "addr:postcode": "37922", "addr:country": "US", "name": "Sonesta Simply Suites Knoxville", "phone": "1.865.777.0400", "brand": "Sonesta"}, "geometry": {"type": "Point", "coordinates": [-84.1258, 35.9081]}},
{"type": "Feature", "id": "-gVriufuRfoNO3YT1ZXso6KKgiw=", "properties": {"ref": "https://www.sonesta.com/us/new-jersey/jersey-city/sonesta-simply-suites-jersey-city", "@spider": "sonesta", "addr:full": "21 2nd Street", "addr:city": "Jersey City", "addr:state": "NJ", "addr:postcode": "07302", "addr:country": "US", "name": "Sonesta Simply Suites Jersey City", "phone": "1.201.659.2500", "brand": "Sonesta"}, "geometry": {"type": "Point", "coordinates": [-74.0341, 40.7209]}},
{"type": "Feature", "id": "jkfvnTMozJNxNsOriV652rLk6es=", "properties": {"ref": "https://www.sonesta.com/us/florida/jacksonville/sonesta-simply-suites-jacksonville", "@spider": "sonesta", "addr:full": "4990 Belfort Road", "addr:city": "Jacksonville", "addr:state": "FL", "addr:postcode": "32256", "addr:country": "US", "name": "Sonesta Simply Suites Jacksonville", "phone": "1.904.296.7785", "brand": "Sonesta"}, "geometry": {"type": "Point", "coordinates": [-81.5846, 30.2465]}},
{"type": "Feature", "id": "avrLwsBlQAlehKFd7zA7PK2s5T4=", "properties": {"ref": "https://www.sonesta.com/us/michigan/ann-arbor/sonesta-simply-suites-detroit-ann-arbor", "@spider": "sonesta", "addr:full": "701 Waymarket Drive", "addr:city": "Ann Arbor", "addr:state": "MI", "addr:postcode": "48103", "addr:country": "US", "name": "Sonesta Simply Suites Detroit Ann Arbor", "phone": "1.734.663.2818", "brand": "Sonesta"}, "geometry": {"type": "Point", "coordinates": [-83.7579, 42.2438]}},
{"type": "Feature", "id": "P3QgYEd8DqKzpi_frewfkuf87L0=", "properties": {"ref": "https://www.sonesta.com/us/colorado/golden/sonesta-simply-suites-denver-west-federal-center", "@spider": "sonesta", "addr:full": "895 Tabor Street", "addr:city": "Golden", "addr:state": "CO", "addr:postcode": "80401", "addr:country": "US", "name": "Sonesta Simply Suites Denver West Federal Center", "phone": "1.303.232.7171", "brand": "Sonesta"}, "geometry": {"type": "Point", "coordinates": [-105.13, 39.731]}},
{"type": "Feature", "id": "NbQsC81j4a1X4dr4FUb-Nd-eK9g=", "properties": {"ref": "https://www.sonesta.com/us/texas/dallas/sonesta-simply-suites-dallas-richardson", "@spider": "sonesta", "addr:full": "12525 Greenville Ave.", "addr:city": "Dallas", "addr:state": "TX", "addr:postcode": "75243", "addr:country": "US", "name": "Sonesta Simply Suites Dallas Richardson", "phone": "1.972.669.9606", "brand": "Sonesta"}, "geometry": {"type": "Point", "coordinates": [-96.7437, 32.9182]}},
{"type": "Feature", "id": "DS3rYqCEzUxdpmo0NG9WhqaFlSs=", "properties": {"ref": "https://www.sonesta.com/us/texas/irving/sonesta-simply-suites-dallas-las-colinas", "@spider": "sonesta", "addr:full": "5300 Green Park Drive", "addr:city": "Irving", "addr:state": "TX", "addr:postcode": "75038", "addr:country": "US", "name": "Sonesta Simply Suites Dallas Las Colinas", "phone": "1.972.714.9990", "brand": "Sonesta"}, "geometry": {"type": "Point", "coordinates": [-96.9532, 32.8832]}},
{"type": "Feature", "id": "8VxWoNaZxW1SEVP275HhMhuYybw=", "properties": {"ref": "https://www.sonesta.com/us/texas/dallas/sonesta-simply-suites-dallas-galleria", "@spider": "sonesta", "addr:full": "13939 Noel Road", "addr:city": "Dallas", "addr:state": "TX", "addr:postcode": "75240", "addr:country": "US", "name": "Sonesta Simply Suites Dallas Galleria", "phone": "1.972.233.6888", "brand": "Sonesta"}, "geometry": {"type": "Point", "coordinates": [-96.8189, 32.9378]}},
{"type": "Feature", "id": "leD4dXiSannXgP8Lwe57gx_ZNyQ=", "properties": {"ref": "https://www.sonesta.com/us/ohio/gahanna/sonesta-simply-suites-columbus-airport-gahanna", "@spider": "sonesta", "addr:full": "590 Taylor Rd.", "addr:city": "Gahanna", "addr:state": "OH", "addr:postcode": "43230", "addr:country": "US", "name": "Sonesta Simply Suites Columbus Airport Gahanna", "phone": "1.614.863.4033", "brand": "Sonesta"}, "geometry": {"type": "Point", "coordinates": [-82.8606, 40.0047]}},
{"type": "Feature", "id": "lytLchXJC7IkoW-DT7eWIGnUp5E=", "properties": {"ref": "https://www.sonesta.com/us/ohio/north-olmsted/sonesta-simply-suites-cleveland-north-olmsted-airport", "@spider": "sonesta", "addr:full": "24741 Country Club Blvd.", "addr:city": "North Olmsted", "addr:state": "OH", "addr:postcode": "44070", "addr:country": "US", "name": "Sonesta Simply Suites Cleveland North Olmsted Airport", "phone": "1.440.716.0584", "brand": "Sonesta"}, "geometry": {"type": "Point", "coordinates": [-81.8957, 41.4156]}},
{"type": "Feature", "id": "oYm-DnxqECSF68S8JqB5vNE_h58=", "properties": {"ref": "https://www.sonesta.com/us/illinois/waukegan/sonesta-simply-suites-chicago-waukegan", "@spider": "sonesta", "addr:full": "1151 S. Waukegan Rd.", "addr:city": "Waukegan", "addr:state": "IL", "addr:postcode": "60085", "addr:country": "US", "name": "Sonesta Simply Suites Chicago Waukegan", "phone": "1.847.578.5250", "brand": "Sonesta"}, "geometry": {"type": "Point", "coordinates": [-87.8939, 42.3388]}},
{"type": "Feature", "id": "Mb8ac21Z1akn6Ld3bgtOp9IDli8=", "properties": {"ref": "https://www.sonesta.com/us/illinois/warrenville/sonesta-simply-suites-chicago-naperville", "@spider": "sonesta", "addr:full": "27 W. 300 Warrenville Rd.", "addr:city": "Warrenville", "addr:state": "IL", "addr:postcode": "60555", "addr:country": "US", "name": "Sonesta Simply Suites Chicago Naperville", "phone": "1.630.836.1650", "brand": "Sonesta"}, "geometry": {"type": "Point", "coordinates": [-88.1563, 41.8143]}},
{"type": "Feature", "id": "byF3lpWdCUpvJw6lFpqk9_llDPQ=", "properties": {"ref": "https://www.sonesta.com/us/illinois/libertyville/sonesta-simply-suites-chicago-libertyville", "@spider": "sonesta", "addr:full": "1100 N. US Route 45", "addr:city": "Libertyville", "addr:state": "IL", "addr:postcode": "60048", "addr:country": "US", "name": "Sonesta Simply Suites Chicago Libertyville", "phone": "1.847.247.9900", "brand": "Sonesta"}, "geometry": {"type": "Point", "coordinates": [-88.0036, 42.2963]}},
{"type": "Feature", "id": "ZU9ExchwJliMWdxAOgZLRWweGfg=", "properties": {"ref": "https://www.sonesta.com/us/north-carolina/charlotte/sonesta-simply-suites-charlotte-university", "@spider": "sonesta", "addr:full": "8812 University East Drive", "addr:city": "Charlotte", "addr:state": "NC", "addr:postcode": "28213", "addr:country": "US", "name": "Sonesta Simply Suites Charlotte University", "phone": "1.704.598.9863", "brand": "Sonesta"}, "geometry": {"type": "Point", "coordinates": [-80.728, 35.2859]}},
{"type": "Feature", "id": "URoBlN5Q58fuMuTfYhJPZtZF0HY=", "properties": {"ref": "https://www.sonesta.com/us/massachusetts/burlington/sonesta-simply-suites-boston-burlington", "@spider": "sonesta", "addr:full": "130 Middlesex Turnpike", "addr:city": "Burlington", "addr:state": "MA", "addr:postcode": "01803", "addr:country": "US", "name": "Sonesta Simply Suites Boston Burlington", "phone": "1.781.229.4300", "brand": "Sonesta"}, "geometry": {"type": "Point", "coordinates": [-71.2241, 42.4863]}},
{"type": "Feature", "id": "y59LrplxQLs2EQs5Z_I9o2R8gyM=", "properties": {"ref": "https://www.sonesta.com/us/georgia/duluth/sonesta-simply-suites-atlanta-gwinnett-place", "@spider": "sonesta", "addr:full": "3665 Shackleford Rd.", "addr:city": "Duluth", "addr:state": "GA", "addr:postcode": "30096", "addr:country": "US", "name": "Sonesta Simply Suites Atlanta Gwinnett Place", "phone": "1.678.380.0414", "brand": "Sonesta"}, "geometry": {"type": "Point", "coordinates": [-84.5067, 33.8588]}},
{"type": "Feature", "id": "66khtTmr0zVBF9JzhYih3vDsOlA=", "properties": {"ref": "https://www.sonesta.com/us/texas/arlington/sonesta-simply-suites-arlington", "@spider": "sonesta", "addr:full": "2221 Brookhollow Plaza Dr.", "addr:city": "Arlington", "addr:state": "TX", "addr:postcode": "76006", "addr:country": "US", "name": "Sonesta Simply Suites Arlington", "phone": "1.817.649.3336", "brand": "Sonesta"}, "geometry": {"type": "Point", "coordinates": [-97.0732, 32.7641]}},
{"type": "Feature", "id": "S4bq7IXvODZBaSmFBighbFE3yM4=", "properties": {"ref": "https://www.sonesta.com/us/california/garden-grove/sonesta-simply-suites-anaheim", "@spider": "sonesta", "addr:full": "12901 Garden Grove Blvd.", "addr:city": "Garden Grove", "addr:state": "CA", "addr:postcode": "92843", "addr:country": "US", "name": "Sonesta Simply Suites Anaheim", "phone": "1.714.539.4200", "brand": "Sonesta"}, "geometry": {"type": "Point", "coordinates": [-117.908, 33.8051]}},
{"type": "Feature", "id": "SoOos3hjLZJMOb4_j7icUa12vhU=", "properties": {"ref": "https://www.sonesta.com/us/new-mexico/albuquerque/sonesta-simply-suites-albuquerque", "@spider": "sonesta", "addr:full": "3025 Menaul Blvd NE", "addr:city": "Albuquerque", "addr:state": "NM", "addr:postcode": "87107", "addr:country": "US", "name": "Sonesta Simply Suites Albuquerque", "phone": "1.505.888.3424", "brand": "Sonesta"}, "geometry": {"type": "Point", "coordinates": [-106.612, 35.1101]}},
{"type": "Feature", "id": "KoLSzvZcA67Qfs-gNyt05AccCh4=", "properties": {"ref": "https://www.sonesta.com/us/massachusetts/braintree/sonesta-simply-suites-boston-braintree", "@spider": "sonesta", "addr:full": "235 Wood Rd", "addr:city": "Braintree", "addr:state": "MA", "addr:postcode": "02184", "addr:country": "US", "name": "Sonesta Simply Suites Boston Braintree", "phone": "1.781.849.7450", "brand": "Sonesta"}, "geometry": {"type": "Point", "coordinates": [-71.0416, 42.2206]}},
{"type": "Feature", "id": "tHTbycUYXfu-HxDeCkzW3Hi6ESc=", "properties": {"ref": "https://www.sonesta.com/us/california/torrance/sonesta-es-suites-torrance-redondo-beach", "@spider": "sonesta", "addr:full": "19901 Prairie Ave.", "addr:city": "Torrance", "addr:state": "CA", "addr:postcode": "90503", "addr:country": "US", "name": "Sonesta ES Suites Torrance Redondo Beach", "phone": "1.310.371.8525", "brand": "Sonesta"}, "geometry": {"type": "Point", "coordinates": [-118.349, 33.8505]}},
{"type": "Feature", "id": "0xSrGrllITsEsbI2ZAkafVWcXR0=", "properties": {"ref": "https://www.sonesta.com/us/california/sunnyvale/sonesta-es-suites-sunnyvale", "@spider": "sonesta", "addr:full": "900 Hamlin Ct.", "addr:city": "Sunnyvale", "addr:state": "CA", "addr:postcode": "94089", "addr:country": "US", "name": "Sonesta ES Suites Sunnyvale", "phone": "1.408.745.1515", "brand": "Sonesta"}, "geometry": {"type": "Point", "coordinates": [-122.032, 37.4001]}},
{"type": "Feature", "id": "FqVOxBNy92fPFovI8EsSouf0-n0=", "properties": {"ref": "https://www.sonesta.com/us/california/san-jose/sonesta-es-suites-san-jose-airport", "@spider": "sonesta", "addr:full": "1602 Crane Court", "addr:city": "San Jose", "addr:state": "CA", "addr:postcode": "95112", "addr:country": "US", "name": "Sonesta ES Suites San Jose Airport", "phone": "1.408.436.1600", "brand": "Sonesta"}, "geometry": {"type": "Point", "coordinates": [-121.914, 37.3724]}},
{"type": "Feature", "id": "xPLJF_6Oga01uOBVThCc8y6QiX8=", "properties": {"ref": "https://www.sonesta.com/us/california/san-diego/sonesta-es-suites-san-diego-sorrento-mesa", "@spider": "sonesta", "addr:full": "6639 Mira Mesa Blvd", "addr:city": "San Diego", "addr:state": "CA", "addr:postcode": "92121", "addr:country": "US", "name": "Sonesta ES Suites San Diego - Sorrento Mesa", "phone": "1.858.453.5343", "brand": "Sonesta"}, "geometry": {"type": "Point", "coordinates": [-117.177, 32.906]}},
{"type": "Feature", "id": "FQSJqGouwGmFcrLPPTA7Xjg1lU8=", "properties": {"ref": "https://www.sonesta.com/us/california/san-bruno/sonesta-es-suites-san-francisco-airport-san-bruno", "@spider": "sonesta", "addr:full": "1350 Huntington Ave.", "addr:city": "San Bruno", "addr:state": "CA", "addr:postcode": "94066", "addr:country": "US", "name": "Sonesta ES Suites San Francisco Airport San Bruno", "phone": "1.650.588.0770", "brand": "Sonesta"}, "geometry": {"type": "Point", "coordinates": [-122.421, 37.6415]}},
{"type": "Feature", "id": "pZ8XXVN1XVKbdJ7VSgIGaXRhCHI=", "properties": {"ref": "https://www.sonesta.com/us/california/san-diego/sonesta-es-suites-san-diego-rancho-bernardo", "@spider": "sonesta", "addr:full": "11855 Avenue of Industry", "addr:city": "San Diego", "addr:state": "CA", "addr:postcode": "92128", "addr:country": "US", "name": "Sonesta ES Suites San Diego - Rancho Bernardo", "phone": "1.858.487.0900", "brand": "Sonesta"}, "geometry": {"type": "Point", "coordinates": [-117.078, 32.9901]}},
{"type": "Feature", "id": "rIHe-6JqyWCfKxjEbwGqyvwmQDo=", "properties": {"ref": "https://www.sonesta.com/us/washington/vancouver/sonesta-es-suites-portland-vancouver-41st-street", "@spider": "sonesta", "addr:full": "7301 NE 41st Street", "addr:city": "Vancouver", "addr:state": "WA", "addr:postcode": "98662", "addr:country": "US", "name": "Sonesta ES Suites Portland Vancouver 41st Street", "phone": "1.360.891.8282", "brand": "Sonesta"}, "geometry": {"type": "Point", "coordinates": [-122.6, 45.6511]}},
{"type": "Feature", "id": "MQzlNEIDSaej2Hej5GDpV_Zu-9U=", "properties": {"ref": "https://www.sonesta.com/us/florida/plantation/sonesta-es-suites-fort-lauderdale-plantation", "@spider": "sonesta", "addr:full": "410 North Pine Island Road", "addr:city": "Plantation", "addr:state": "FL", "addr:postcode": "33324", "addr:country": "US", "name": "Sonesta ES Suites Fort Lauderdale Plantation", "phone": "1.954.577.9696", "brand": "Sonesta"}, "geometry": {"type": "Point", "coordinates": [-80.2637, 26.1259]}},
{"type": "Feature", "id": "aU2zB7bKzIoB-LBLy0L4RYAJuDE=", "properties": {"ref": "https://www.sonesta.com/us/florida/orlando/sonesta-es-suites-lake-buena-vista-orlando", "@spider": "sonesta", "addr:full": "8751 Suiteside Drive", "addr:city": "Orlando", "addr:state": "FL", "addr:postcode": "32836", "addr:country": "US", "name": "Sonesta ES Suites Lake Buena Vista - Orlando", "phone": "1.407.238.0777", "brand": "Sonesta"}, "geometry": {"type": "Point", "coordinates": [-81.5075, 28.3904]}},
{"type": "Feature", "id": "FZxLvaPMbg0yuUbfe90LmA5tNuA=", "properties": {"ref": "https://www.sonesta.com/us/virginia/herndon/sonesta-es-suites-dulles-airport", "@spider": "sonesta", "addr:full": "13700 Coppermine Rd.", "addr:city": "Herndon", "addr:state": "VA", "addr:postcode": "20171", "addr:country": "US", "name": "Sonesta ES Suites Dulles Airport", "phone": "1.703.713.6800", "brand": "Sonesta"}, "geometry": {"type": "Point", "coordinates": [-77.4328, 38.9489]}},
{"type": "Feature", "id": "MHaBT2r-Xii6zLxHLUFeqLRAg84=", "properties": {"ref": "https://www.sonesta.com/us/colorado/lone-tree/sonesta-es-suites-denver-south-park-meadows", "@spider": "sonesta", "addr:full": "7820 Park Meadows Drive", "addr:city": "Lone Tree", "addr:state": "CO", "addr:postcode": "80124", "addr:country": "US", "name": "Sonesta ES Suites Denver South - Park Meadows", "phone": "1.303.649.1010", "brand": "Sonesta"}, "geometry": {"type": "Point", "coordinates": [-104.897, 39.5618]}},
{"type": "Feature", "id": "P6MLofOlkAI4JMBFYEPSWLdXQHA=", "properties": {"ref": "https://www.sonesta.com/us/texas/irving/sonesta-es-suites-dallas-las-colinas", "@spider": "sonesta", "addr:full": "1201 Executive Circle", "addr:city": "Irving", "addr:state": "TX", "addr:postcode": "75038", "addr:country": "US", "name": "Sonesta ES Suites Dallas - Las Colinas", "phone": "1.972.465.9400", "brand": "Sonesta"}, "geometry": {"type": "Point", "coordinates": [-96.9697, 32.8858]}},
{"type": "Feature", "id": "poKeufb9i_39xNpS74Fs-4kjr90=", "properties": {"ref": "https://www.sonesta.com/us/california/chatsworth/sonesta-es-suites-chatsworth", "@spider": "sonesta", "addr:full": "21902 Lassen St.", "addr:city": "Chatsworth", "addr:state": "CA", "addr:postcode": "91311", "addr:country": "US", "name": "Sonesta ES Suites Chatsworth", "phone": "1.818.773.0707", "brand": "Sonesta"}, "geometry": {"type": "Point", "coordinates": [-118.607, 34.2492]}},
{"type": "Feature", "id": "zYO_ad-_bO8_FdFwutfNFjeJ5nI=", "properties": {"ref": "https://www.sonesta.com/us/georgia/atlanta/sonesta-es-suites-atlanta-perimeter-center", "@spider": "sonesta", "addr:full": "4601 Ridgeview Road", "addr:city": "Atlanta", "addr:state": "GA", "addr:postcode": "30338", "addr:country": "US", "name": "Sonesta ES Suites Atlanta - Perimeter Center", "phone": "1.678.320.0111", "brand": "Sonesta"}, "geometry": {"type": "Point", "coordinates": [-84.3455, 33.9317]}},
{"type": "Feature", "id": "VPQBRVocoN813XwSS0u3DA4Mwd0=", "properties": {"ref": "https://www.sonesta.com/us/california/anaheim/sonesta-es-suites-anaheim-resort-area", "@spider": "sonesta", "addr:full": "1855 S. Manchester Avenue", "addr:city": "Anaheim", "addr:state": "CA", "addr:postcode": "92802", "addr:country": "US", "name": "Sonesta ES Suites Anaheim Resort Area", "phone": "1.714.748.7700", "brand": "Sonesta"}, "geometry": {"type": "Point", "coordinates": [-117.921, 33.8094]}},
{"type": "Feature", "id": "fkfmUpC7Z31zWeGU0NEFrueoxGQ=", "properties": {"ref": "https://www.sonesta.com/us/georgia/alpharetta/sonesta-es-suites-atlanta-alpharetta-avalon", "@spider": "sonesta", "addr:full": "3980 North Point Parkway", "addr:city": "Alpharetta", "addr:state": "GA", "addr:postcode": "30005", "addr:country": "US", "name": "Sonesta ES Suites Atlanta Alpharetta Avalon", "phone": "1.770.569.7200", "brand": "Sonesta"}, "geometry": {"type": "Point", "coordinates": [-84.2622, 34.0687]}},
{"type": "Feature", "id": "TSkmZoMqe5UlqX_xSxceA2yZuME=", "properties": {"ref": "https://www.sonesta.com/us/georgia/atlanta/sonesta-atlanta-airport-north", "@spider": "sonesta", "addr:full": "1325 Virginia Ave", "addr:city": "Atlanta", "addr:state": "GA", "addr:postcode": "30344", "addr:country": "US", "name": "Sonesta Atlanta Airport North", "phone": "1.404.768.6660", "brand": "Sonesta"}, "geometry": {"type": "Point", "coordinates": [-84.4338, 33.6602]}},
{"type": "Feature", "id": "3NFBv3_oMFqQKGZ9xy9nbd5JUeM=", "properties": {"ref": "https://www.sonesta.com/us/florida/miami/sonesta-miami-airport", "@spider": "sonesta", "addr:full": "950 NW LeJeune Road", "addr:city": "Miami", "addr:state": "FL", "addr:postcode": "33126", "addr:country": "US", "name": "Sonesta Miami Airport", "phone": "1.305.446.9000", "brand": "Sonesta"}, "geometry": {"type": "Point", "coordinates": [-80.2651, 25.7811]}},
{"type": "Feature", "id": "O2ayIALaLTaObhxEhhIhX1KZ_w4=", "properties": {"ref": "https://www.sonesta.com/us/north-carolina/charlotte/sonesta-charlotte-executive-park", "@spider": "sonesta", "addr:full": "5700 Westpark Drive", "addr:city": "Charlotte", "addr:state": "NC", "addr:postcode": "28217", "addr:country": "US", "name": "Sonesta Charlotte Executive Park", "phone": "1.704.527.9650", "brand": "Sonesta"}, "geometry": {"type": "Point", "coordinates": [-80.892, 35.1594]}},
{"type": "Feature", "id": "nPZSszM2av1OmBOJkynkMHHWRZ0=", "properties": {"ref": "https://www.sonesta.com/us/wisconsin/wauwatosa/sonesta-milwaukee-west-wauwatosa", "@spider": "sonesta", "addr:full": "10499 Innovation Drive", "addr:city": "Wauwatosa", "addr:state": "WI", "addr:postcode": "53226", "addr:country": "US", "name": "Sonesta Milwaukee West Wauwatosa", "phone": "1.414.475.9500", "brand": "Sonesta"}, "geometry": {"type": "Point", "coordinates": [-88.0483, 43.0446]}},
{"type": "Feature", "id": "bDHCQu50XUX1FPPoLOmn9miplvI=", "properties": {"ref": "https://www.sonesta.com/us/california/los-angeles/sonesta-los-angeles-airport-lax", "@spider": "sonesta", "addr:full": "5985 W. Century Blvd", "addr:city": "Los Angeles", "addr:state": "CA", "addr:postcode": "90045", "addr:country": "US", "name": "Sonesta Los Angeles Airport LAX", "phone": "1.310.642.7500", "brand": "Sonesta"}, "geometry": {"type": "Point", "coordinates": [-118.391, 33.9462]}},
{"type": "Feature", "id": "5sU30-bDgCRj0Zs5jC6wcfWChEM=", "properties": {"ref": "https://www.sonesta.com/us/ohio/columbus/sonesta-columbus-downtown", "@spider": "sonesta", "addr:full": "33 East Nationwide Blvd", "addr:city": "Columbus", "addr:state": "OH", "addr:postcode": "43215", "addr:country": "US", "name": "Sonesta Columbus Downtown", "phone": "1.614.461.4100", "brand": "Sonesta"}, "geometry": {"type": "Point", "coordinates": [-83.0006, 39.9688]}},
{"type": "Feature", "id": "3G-jC0OniN1vcU6tKfhLBaR9Eqw=", "properties": {"ref": "https://www.sonesta.com/us/colorado/denver/sonesta-denver-downtown", "@spider": "sonesta", "addr:full": "1450 Glenarm Place", "addr:city": "Denver", "addr:state": "CO", "addr:postcode": "80202", "addr:country": "US", "name": "Sonesta Denver Downtown", "phone": "1.303.573.1450", "brand": "Sonesta"}, "geometry": {"type": "Point", "coordinates": [-104.935, 39.757]}},
{"type": "Feature", "id": "mlQiqE_NBcPwcaHGdek8nZd9CVY=", "properties": {"ref": "https://www.sonesta.com/us/new-york/white-plains/sonesta-white-plains-downtown", "@spider": "sonesta", "addr:full": "66 Hale Avenue", "addr:city": "White Plains", "addr:state": "NY", "addr:postcode": "10601", "addr:country": "US", "name": "Sonesta White Plains Downtown", "phone": "1.914.682.0050", "brand": "Sonesta"}, "geometry": {"type": "Point", "coordinates": [-73.7626, 41.03]}},
{"type": "Feature", "id": "1n4tXXHEQxZO45GgJ8DsAKmlLD0=", "properties": {"ref": "https://www.sonesta.com/us/california/redondo-beach/sonesta-redondo-beach-marina", "@spider": "sonesta", "addr:full": "300 North Harbor Drive", "addr:city": "Redondo Beach", "addr:state": "CA", "addr:postcode": "90277", "addr:country": "US", "name": "Sonesta Redondo Beach & Marina", "phone": "1.310.318.8888", "brand": "Sonesta"}, "geometry": {"type": "Point", "coordinates": [-118.395, 33.8456]}},
{"type": "Feature", "id": "eQkYGWQbcvSaCyUWJyuCSxuDSL0=", "properties": {"ref": "https://www.sonesta.com/us/california/milpitas/sonesta-san-jose", "@spider": "sonesta", "addr:full": "777 Bellew Drive", "addr:city": "Milpitas", "addr:state": "CA", "addr:postcode": "95035", "addr:country": "US", "name": "Sonesta San Jose", "phone": "1.408.321.9500", "brand": "Sonesta"}, "geometry": {"type": "Point", "coordinates": [-121.922, 37.4226]}},
{"type": "Feature", "id": "Jbq-k1EAs87R8UQPYXMg3xmJiLQ=", "properties": {"ref": "https://www.sonesta.com/us/georgia/atlanta/sonesta-atlanta-airport-south", "@spider": "sonesta", "addr:full": "4669 Airport Blvd", "addr:city": "Atlanta", "addr:state": "GA", "addr:postcode": "30337", "addr:country": "US", "name": "Sonesta Atlanta Airport South ", "phone": "1.404.487.5000", "brand": "Sonesta"}, "geometry": {"type": "Point", "coordinates": [-84.4549, 33.628]}},
{"type": "Feature", "id": "ui2pgNlLcjndDuzR1nL_zvo1I_U=", "properties": {"ref": "https://www.sonesta.com/us/california/anaheim/sonesta-anaheim-resort-area", "@spider": "sonesta", "addr:full": "1915 S. Manchester Avenue", "addr:city": "Anaheim", "addr:state": "CA", "addr:postcode": "92802", "addr:country": "US", "name": "Sonesta Anaheim Resort Area", "phone": "1.714.748.7777", "brand": "Sonesta"}, "geometry": {"type": "Point", "coordinates": [-117.901, 33.8003]}},
{"type": "Feature", "id": "SF4B3N9nE8wKLo664FyEwcPzmG8=", "properties": {"ref": "https://www.sonesta.com/us/texas/dallas/sonesta-suites-dallas-park-central", "@spider": "sonesta", "addr:full": "7800 Alpha Road", "addr:city": "Dallas", "addr:state": "TX", "addr:postcode": "75240", "addr:country": "US", "name": "Sonesta Suites Dallas Park Central", "phone": "1.972.233.7600", "brand": "Sonesta"}, "geometry": {"type": "Point", "coordinates": [-96.7712, 32.9263]}},
{"type": "Feature", "id": "Wm-4KR-ozyQYLQV1oA94-jU0VZs=", "properties": {"ref": "https://www.sonesta.com/us/texas/dallas/sonesta-es-suites-dallas-park-central", "@spider": "sonesta", "addr:full": "7880 Alpha Road", "addr:city": "Dallas", "addr:state": "TX", "addr:postcode": "75240", "addr:country": "US", "name": "Sonesta ES Suites Dallas Park Central", "phone": "1.972.391.0000", "brand": "Sonesta"}, "geometry": {"type": "Point", "coordinates": [-96.7714, 32.9271]}},
{"type": "Feature", "id": "yqR-cm_zmrgCW1ZeuzH--HwS59M=", "properties": {"ref": "https://www.sonesta.com/us/california/irvine/sonesta-irvine-orange-county-airport", "@spider": "sonesta", "addr:full": "17941 Von Karman Avenue", "addr:city": "Irvine", "addr:state": "CA", "addr:postcode": "92614", "addr:country": "US", "name": "Sonesta Irvine - Orange County Airport", "phone": "1.949.863.1999", "brand": "Sonesta"}, "geometry": {"type": "Point", "coordinates": [-117.853, 33.6815]}},
{"type": "Feature", "id": "AEwxm4s6V9hF5N5G9OyJN2uPyIo=", "properties": {"ref": "https://www.sonesta.com/us/arizona/scottsdale/sonesta-suites-scottsdale-gainey-ranch", "@spider": "sonesta", "addr:full": "7300 E Gainey Suites Drive", "addr:city": "Scottsdale", "addr:state": "AZ", "addr:postcode": "85258", "addr:country": "US", "name": "Sonesta Suites Scottsdale Gainey Ranch", "phone": "1.480.922.6969", "brand": "Sonesta"}, "geometry": {"type": "Point", "coordinates": [-111.924, 33.5644]}},
{"type": "Feature", "id": "mfFIMFuBJIY8FhCJ55K3p3zGASg=", "properties": {"ref": "https://www.sonesta.com/us/california/san-francisco/clift-royal-sonesta-hotel", "@spider": "sonesta", "addr:full": "495 Geary Street", "addr:city": "San Francisco", "addr:state": "CA", "addr:postcode": "94102", "addr:country": "US", "name": "The Clift Royal Sonesta Hotel", "phone": "1.415.775.4700", "brand": "Sonesta"}, "geometry": {"type": "Point", "coordinates": [-122.411, 37.7868]}},
{"type": "Feature", "id": "kQ3NIah9-AIM1-_dblZzUSU3URA=", "properties": {"ref": "https://www.sonesta.com/us/georgia/duluth/sonesta-es-suites-gwinnett-place-atlanta", "@spider": "sonesta", "addr:full": "1775 Pleasant Hill Road", "addr:city": "Duluth", "addr:state": "GA", "addr:postcode": "30096", "addr:country": "US", "name": "Sonesta ES Suites Gwinnett Place Atlanta", "phone": "1.770.923.1775", "brand": "Sonesta"}, "geometry": {"type": "Point", "coordinates": [-84.1285, 33.948]}},
{"type": "Feature", "id": "fPqneViZGvViD5Sh7k6XR0dAU5E=", "properties": {"ref": "https://www.sonesta.com/us/georgia/chamblee/sonesta-es-suites-atlanta-perimeter-center-east", "@spider": "sonesta", "addr:full": "1901 Savoy Drive", "addr:city": "Chamblee", "addr:state": "GA", "addr:postcode": "30341", "addr:country": "US", "name": "Sonesta ES Suites Atlanta - Perimeter Center East", "phone": "1.770.455.4446", "brand": "Sonesta"}, "geometry": {"type": "Point", "coordinates": [-84.3104, 33.9193]}},
{"type": "Feature", "id": "iFkyimZjFL2YG7BdflWJGZ1EwlE=", "properties": {"ref": "https://www.sonesta.com/us/alabama/birmingham/sonesta-es-suites-birmingham", "@spider": "sonesta", "addr:full": "3 Greenhill Parkway", "addr:city": "Birmingham", "addr:state": "AL", "addr:postcode": "35242", "addr:country": "US", "name": "Sonesta ES Suites Birmingham", "phone": "1.205.991.8686", "brand": "Sonesta"}, "geometry": {"type": "Point", "coordinates": [-86.6982, 33.4238]}},
{"type": "Feature", "id": "1BLPurEBiCE0EL-X6gMLc3dBLR0=", "properties": {"ref": "https://www.sonesta.com/us/illinois/lombard/sonesta-es-suites-chicago-lombard", "@spider": "sonesta", "addr:full": "2001 South Highland Avenue", "addr:city": "Lombard", "addr:state": "IL", "addr:postcode": "60148", "addr:country": "US", "name": "Sonesta ES Suites Chicago - Lombard", "phone": "1.630.629.7800", "brand": "Sonesta"}, "geometry": {"type": "Point", "coordinates": [-88.011, 41.8466]}},
{"type": "Feature", "id": "Se9Osi7AdXVygJpLgRN5FsyLZUo=", "properties": {"ref": "https://www.sonesta.com/us/ohio/cincinnati/sonesta-es-suites-cincinnati-blue-ash", "@spider": "sonesta", "addr:full": "11401 Reed Hartman Highway", "addr:city": "Cincinnati", "addr:state": "OH", "addr:postcode": "45241", "addr:country": "US", "name": "Sonesta ES Suites Cincinnati - Blue Ash", "phone": "1.513.530.5060", "brand": "Sonesta"}, "geometry": {"type": "Point", "coordinates": [-84.3747, 39.2755]}},
{"type": "Feature", "id": "9qBprLuOY66c9slruNKooiqITlk=", "properties": {"ref": "https://www.sonesta.com/us/florida/jacksonville/sonesta-es-suites-jacksonville", "@spider": "sonesta", "addr:full": "8365 Dix Ellis Trail", "addr:city": "Jacksonville", "addr:state": "FL", "addr:postcode": "32256", "addr:country": "US", "name": "Sonesta ES Suites Jacksonville", "phone": "1.904.733.8088", "brand": "Sonesta"}, "geometry": {"type": "Point", "coordinates": [-81.5711, 30.217]}},
{"type": "Feature", "id": "OHtifMwtHzvAGWYdokuJYA6CNIk=", "properties": {"ref": "https://www.sonesta.com/us/ohio/cincinnati/sonesta-es-suites-cincinnati-sharonville-west", "@spider": "sonesta", "addr:full": "11689 Chester Road", "addr:city": "Cincinnati", "addr:state": "OH", "addr:postcode": "45246", "addr:country": "US", "name": "Sonesta ES Suites Cincinnati - Sharonville West", "phone": "1.513.771.2525", "brand": "Sonesta"}, "geometry": {"type": "Point", "coordinates": [-84.4434, 39.2869]}},
{"type": "Feature", "id": "MZdWdCvuJveQ2P-UvFnIxr02vUI=", "properties": {"ref": "https://www.sonesta.com/us/tennessee/memphis/sonesta-es-suites-memphis", "@spider": "sonesta", "addr:full": "6141 Old Poplar Pike", "addr:city": "Memphis", "addr:state": "TN", "addr:postcode": "38119", "addr:country": "US", "name": "Sonesta ES Suites Memphis", "phone": "1.901.685.9595", "brand": "Sonesta"}, "geometry": {"type": "Point", "coordinates": [-89.8582, 35.1006]}},
{"type": "Feature", "id": "9DYIBvXXH_XR_2jLobRA9j6jKOY=", "properties": {"ref": "https://www.sonesta.com/us/alabama/montgomery/sonesta-es-suites-montgomery", "@spider": "sonesta", "addr:full": "1200 Hilmar Court", "addr:city": "Montgomery", "addr:state": "AL", "addr:postcode": "36117", "addr:country": "US", "name": "Sonesta ES Suites Montgomery", "phone": "1.334.270.3300", "brand": "Sonesta"}, "geometry": {"type": "Point", "coordinates": [-86.2098, 32.3615]}},
{"type": "Feature", "id": "52dSiE60LTr64G9O3MBDLWZ8uac=", "properties": {"ref": "https://www.sonesta.com/us/washington/vancouver/sonesta-es-suites-portland-vancouver-parkway", "@spider": "sonesta", "addr:full": "8005 NE Parkway Drive", "addr:city": "Vancouver", "addr:state": "WA", "addr:postcode": "98662", "addr:country": "US", "name": "Sonesta ES Suites Portland Vancouver Parkway", "phone": "1.360.253.4800", "brand": "Sonesta"}, "geometry": {"type": "Point", "coordinates": [-122.591, 45.6547]}},
{"type": "Feature", "id": "GkHIku5iAitRh9DDDzMKpWMULdY=", "properties": {"ref": "https://www.sonesta.com/us/rhode-island/warwick/sonesta-es-suites-providence-airport", "@spider": "sonesta", "addr:full": "500 Kilvert Street", "addr:city": "Warwick", "addr:state": "RI", "addr:postcode": "02886", "addr:country": "US", "name": "Sonesta ES Suites Providence - Airport", "phone": "1.401.737.7100", "brand": "Sonesta"}, "geometry": {"type": "Point", "coordinates": [-71.4549, 41.7287]}},
{"type": "Feature", "id": "h3GrTsa0Npoqz436X1QPjIZHtdE=", "properties": {"ref": "https://www.sonesta.com/us/missouri/chesterfield/sonesta-es-suites-st-louis-chesterfield", "@spider": "sonesta", "addr:full": "15431 Conway Road", "addr:city": "Chesterfield", "addr:state": "MO", "addr:postcode": "63017", "addr:country": "US", "name": "Sonesta ES Suites St. Louis - Chesterfield", "phone": "1.636.537.1444", "brand": "Sonesta"}, "geometry": {"type": "Point", "coordinates": [-90.5523, 38.6524]}},
{"type": "Feature", "id": "4CtLQ5iAS0uAyjwcWjei__QSkjI=", "properties": {"ref": "https://www.sonesta.com/us/delaware/newark/sonesta-es-suites-wilmington-newark", "@spider": "sonesta", "addr:full": "240 Chapman Road", "addr:city": "Newark", "addr:state": "DE", "addr:postcode": "19702", "addr:country": "US", "name": "Sonesta ES Suites Wilmington - Newark", "phone": "1.302.453.9200", "brand": "Sonesta"}, "geometry": {"type": "Point", "coordinates": [-75.6816, 39.6674]}},
{"type": "Feature", "id": "NKrvP4od1tVH0iSaYolZQK_s60o=", "properties": {"ref": "https://www.sonesta.com/us/california/milpitas/sonesta-silicon-valley", "@spider": "sonesta", "addr:full": "1820 Barber Lane", "addr:city": "Milpitas", "addr:state": "CA", "addr:postcode": "95035", "addr:country": "US", "name": "Sonesta Silicon Valley", "phone": "1.408.943.9080", "brand": "Sonesta"}, "geometry": {"type": "Point", "coordinates": [-121.912, 37.4006]}},
{"type": "Feature", "id": "l0EGMl83KO7_bJFUt-cXHRRbjK8=", "properties": {"ref": "https://www.sonesta.com/us/texas/bee-cave/sonesta-bee-cave-austin", "@spider": "sonesta", "addr:full": "12525 Bee Cave Parkway", "addr:city": "Bee Cave", "addr:state": "TX", "addr:postcode": "78738", "addr:country": "US", "name": "Sonesta Bee Cave Austin", "phone": "1.512.483.5900", "brand": "Sonesta"}, "geometry": {"type": "Point", "coordinates": [-97.9354, 30.3097]}},
{"type": "Feature", "id": "F4ruwNAiWFTxw9oO7nIxe_NpClA=", "properties": {"ref": "https://www.sonesta.com/us/south-carolina/hilton-head-island/sonesta-resort-hilton-head-island", "@spider": "sonesta", "addr:full": "130 Shipyard Drive", "addr:city": "Hilton Head Island", "addr:state": "SC", "addr:postcode": "29928", "addr:country": "US", "name": "Sonesta Resort Hilton Head Island", "phone": "1.843.842.2400", "brand": "Sonesta"}, "geometry": {"type": "Point", "coordinates": [-80.7318, 32.1543]}},
{"type": "Feature", "id": "jG0G2-c7uTVldBxkmnfyR59r0zg=", "properties": {"ref": "https://www.sonesta.com/us/missouri/st-louis/sonesta-es-suites-st-louis-westport", "@spider": "sonesta", "addr:full": "1855 Craigshire Road", "addr:city": "St. Louis", "addr:state": "MO", "addr:postcode": "63146", "addr:country": "US", "name": "Sonesta ES Suites St. Louis - Westport", "phone": "1.314.878.1555", "brand": "Sonesta"}, "geometry": {"type": "Point", "coordinates": [-90.4467, 38.6916]}},
{"type": "Feature", "id": "13Dd3nu_C4GE_rW57Tj0V5UXcl8=", "properties": {"ref": "https://www.sonesta.com/us/arizona/tucson/sonesta-es-suites-tucson", "@spider": "sonesta", "addr:full": "6477 E Speedway Blvd", "addr:city": "Tucson", "addr:state": "AZ", "addr:postcode": "85710", "addr:country": "US", "name": "Sonesta ES Suites Tucson", "phone": "1.520.721.0991", "brand": "Sonesta"}, "geometry": {"type": "Point", "coordinates": [-110.854, 32.2358]}},
{"type": "Feature", "id": "Ww1f5fiA7KbQsQxclqVazIcwPXY=", "properties": {"ref": "https://www.sonesta.com/us/new-jersey/somerset/sonesta-es-suites-somerset", "@spider": "sonesta", "addr:full": "260 Davidson Ave", "addr:city": "Somerset", "addr:state": "NJ", "addr:postcode": "08873", "addr:country": "US", "name": "Sonesta ES Suites Somerset", "phone": "1.732.356.8000", "brand": "Sonesta"}, "geometry": {"type": "Point", "coordinates": [-74.525, 40.5333]}},
{"type": "Feature", "id": "ggvassxoi5u2L7zJgaZKrSttYJU=", "properties": {"ref": "https://www.sonesta.com/us/new-jersey/somers-point/sonesta-es-suites-somers-point", "@spider": "sonesta", "addr:full": "900 Mays Landing Road", "addr:city": "Somers Point", "addr:state": "NJ", "addr:postcode": "08244", "addr:country": "US", "name": "Sonesta ES Suites Somers Point", "phone": "1.609.927.6400", "brand": "Sonesta"}, "geometry": {"type": "Point", "coordinates": [-74.6103, 39.3113]}},
{"type": "Feature", "id": "NUr2_pKvi_HhNUiYKeRzifF7R6E=", "properties": {"ref": "https://www.sonesta.com/us/illinois/schaumburg/sonesta-es-suites-chicago-schaumburg", "@spider": "sonesta", "addr:full": "901 East Woodfield Office Ct", "addr:city": "Schaumburg", "addr:state": "IL", "addr:postcode": "60173", "addr:country": "US", "name": "Sonesta ES Suites Chicago - Schaumburg", "phone": "1.847.619.6677", "brand": "Sonesta"}, "geometry": {"type": "Point", "coordinates": [-88.0589, 42.0453]}},
{"type": "Feature", "id": "0gTGum0_qkHSWJMaxXd9jMfFyRo=", "properties": {"ref": "https://www.sonesta.com/us/new-jersey/princeton/sonesta-es-suites-princeton", "@spider": "sonesta", "addr:full": "4375 US Route 1 South", "addr:city": "Princeton", "addr:state": "NJ", "addr:postcode": "08540", "addr:country": "US", "name": "Sonesta ES Suites Princeton", "phone": "1.609.951.0009", "brand": "Sonesta"}, "geometry": {"type": "Point", "coordinates": [-74.5996, 40.3647]}},
{"type": "Feature", "id": "nesai-fNrfxqi68oVcUep0gk1vY=", "properties": {"ref": "https://www.sonesta.com/us/florida/orlando/sonesta-es-suites-orlando-international-drive", "@spider": "sonesta", "addr:full": "8480 International Drive", "addr:city": "Orlando", "addr:state": "FL", "addr:postcode": "32819", "addr:country": "US", "name": "Sonesta ES Suites Orlando - International Drive", "phone": "1.407.352.2400", "brand": "Sonesta"}, "geometry": {"type": "Point", "coordinates": [-81.4711, 28.4425]}},
{"type": "Feature", "id": "Qeuq-URQL_si6CI49i6BkmAb0rw=", "properties": {"ref": "https://www.sonesta.com/us/nebraska/omaha/sonesta-es-suites-omaha", "@spider": "sonesta", "addr:full": "6990 Dodge St", "addr:city": "Omaha", "addr:state": "NE", "addr:postcode": "68132", "addr:country": "US", "name": "Sonesta ES Suites Omaha", "phone": "1.402.553.8898", "brand": "Sonesta"}, "geometry": {"type": "Point", "coordinates": [-96.0202, 41.2611]}},
{"type": "Feature", "id": "S-Q3hi6w3NCLIzilKXzeKDGzP5Q=", "properties": {"ref": "https://www.sonesta.com/us/oklahoma/oklahoma-city/sonesta-es-suites-oklahoma-city", "@spider": "sonesta", "addr:full": "4361 W Reno Ave", "addr:city": "Oklahoma City", "addr:state": "OK", "addr:postcode": "73107", "addr:country": "US", "name": "Sonesta ES Suites Oklahoma City", "phone": "1.405.942.4500", "brand": "Sonesta"}, "geometry": {"type": "Point", "coordinates": [-97.5983, 35.4648]}},
{"type": "Feature", "id": "mIGtVi-2DatCM1MaoP3LL7Y0xEY=", "properties": {"ref": "https://www.sonesta.com/us/new-jersey/monmouth-junction/sonesta-es-suites-south-brunswick-princeton", "@spider": "sonesta", "addr:full": "4225 US Highway 1", "addr:city": "Monmouth Junction", "addr:state": "NJ", "addr:postcode": "08852", "addr:country": "US", "name": "Sonesta ES Suites South Brunswick - Princeton", "phone": "1.732.329.9600", "brand": "Sonesta"}, "geometry": {"type": "Point", "coordinates": [-74.5826, 40.3789]}},
{"type": "Feature", "id": "jOl9oRwLRTrcDCkCE-H-TcQh8TU=", "properties": {"ref": "https://www.sonesta.com/us/minnesota/eagan/sonesta-es-suites-minneapolis-st-paul-airport", "@spider": "sonesta", "addr:full": "3040 Eagandale Place", "addr:city": "Eagan", "addr:state": "MN", "addr:postcode": "55121", "addr:country": "US", "name": "Sonesta ES Suites Minneapolis - St. Paul Airport", "phone": "1.651.688.0363", "brand": "Sonesta"}, "geometry": {"type": "Point", "coordinates": [-93.1577, 44.8461]}},
{"type": "Feature", "id": "3GaoSYrX45s0O8bOWDjjj4vns40=", "properties": {"ref": "https://www.sonesta.com/us/pennsylvania/malvern/sonesta-es-suites-malvern-valley-forge", "@spider": "sonesta", "addr:full": "20 Morehall Road", "addr:city": "Malvern", "addr:state": "PA", "addr:postcode": "19355", "addr:country": "US", "name": "Sonesta ES Suites Malvern Valley Forge", "phone": "1.610.296.4343", "brand": "Sonesta"}, "geometry": {"type": "Point", "coordinates": [-75.5235, 40.0453]}},
{"type": "Feature", "id": "vAhcgPWWPWZVbK7tsjr4V46gGqM=", "properties": {"ref": "https://www.sonesta.com/us/ohio/dublin/sonesta-es-suites-dublin-columbus", "@spider": "sonesta", "addr:full": "435 Metro Place South", "addr:city": "Dublin", "addr:state": "OH", "addr:postcode": "43017", "addr:country": "US", "name": "Sonesta ES Suites Dublin Columbus", "phone": "1.614.791.0403 ", "brand": "Sonesta"}, "geometry": {"type": "Point", "coordinates": [-83.1261, 40.0926]}},
{"type": "Feature", "id": "-rfziv34tPR5vMNTpzkRGoM93oY=", "properties": {"ref": "https://www.sonesta.com/us/maryland/columbia/sonesta-es-suites-columbia-baltimore", "@spider": "sonesta", "addr:full": "8844 Columbia 100 Parkway", "addr:city": "Columbia", "addr:state": "MD", "addr:postcode": "21045", "addr:country": "US", "name": "Sonesta ES Suites Columbia Baltimore ", "phone": "1.410.964.9494 ", "brand": "Sonesta"}, "geometry": {"type": "Point", "coordinates": [-76.8137, 39.2314]}},
{"type": "Feature", "id": "7u5DEWQwUdEo9P_xmWJmn3x6Hmk=", "properties": {"ref": "https://www.sonesta.com/us/colorado/colorado-springs/sonesta-es-suites-colorado-springs", "@spider": "sonesta", "addr:full": "3880 Academy Blvd N", "addr:city": "Colorado Springs", "addr:state": "CO", "addr:postcode": "80917", "addr:country": "US", "name": "Sonesta ES Suites Colorado Springs", "phone": "1.719.574.0370", "brand": "Sonesta"}, "geometry": {"type": "Point", "coordinates": [-104.758, 38.8873]}},
{"type": "Feature", "id": "OoKXL_z2rpJJXrb01-NOaO564mQ=", "properties": {"ref": "https://www.sonesta.com/us/ohio/westlake/sonesta-es-suites-cleveland-westlake", "@spider": "sonesta", "addr:full": "30100 Clemens Road", "addr:city": "Westlake", "addr:state": "OH", "addr:postcode": "44145", "addr:country": "US", "name": "Sonesta ES Suites Cleveland Westlake", "phone": "1.440.892.2254", "brand": "Sonesta"}, "geometry": {"type": "Point", "coordinates": [-81.9548, 41.4711]}},
{"type": "Feature", "id": "hu9RaudiphbAWmWqeYq6mFUALcg=", "properties": {"ref": "https://www.sonesta.com/us/ohio/middleburg-heights/sonesta-es-suites-cleveland-airport", "@spider": "sonesta", "addr:full": "17525 Rosbough Drive", "addr:city": "Middleburg Heights", "addr:state": "OH", "addr:postcode": "44130", "addr:country": "US", "name": "Sonesta ES Suites Cleveland Airport", "phone": "1.440.234.6688", "brand": "Sonesta"}, "geometry": {"type": "Point", "coordinates": [-81.8221, 41.3741]}},
{"type": "Feature", "id": "hvGyp5NcLWAkgfqUCVO4hVZQc9s=", "properties": {"ref": "https://www.sonesta.com/us/ohio/cincinnati/sonesta-es-suites-cincinnati-sharonville-east", "@spider": "sonesta", "addr:full": "2670 East Kemper Road", "addr:city": "Cincinnati", "addr:state": "OH", "addr:postcode": "45241", "addr:country": "US", "name": "Sonesta ES Suites Cincinnati - Sharonville East", "phone": "1.513.772.8888", "brand": "Sonesta"}, "geometry": {"type": "Point", "coordinates": [-84.427, 39.2845]}},
{"type": "Feature", "id": "_GDgNVxe-6t3ki6uZGWKM1R2E68=", "properties": {"ref": "https://www.sonesta.com/us/florida/fort-lauderdale/sonesta-fort-lauderdale-beach", "@spider": "sonesta", "addr:full": "999 N Fort Lauderdale Beach Blvd", "addr:city": "Fort Lauderdale", "addr:state": "FL", "addr:postcode": "33304", "addr:country": "US", "name": "Sonesta Fort Lauderdale Beach", "phone": "1.954.315.1460", "brand": "Sonesta"}, "geometry": {"type": "Point", "coordinates": [-80.1037, 26.1376]}},
{"type": "Feature", "id": "1L_zdAO98TJdLbPr6Aj8MPdzcOs=", "properties": {"ref": "https://www.sonesta.com/us/massachusetts/andover/sonesta-es-suites-andover-boston", "@spider": "sonesta", "addr:full": "4 Tech Drive", "addr:city": "Andover", "addr:state": "MA", "addr:postcode": "01810", "addr:country": "US", "name": "Sonesta ES Suites Andover Boston", "phone": "1.978.686.2000", "brand": "Sonesta"}, "geometry": {"type": "Point", "coordinates": [-71.2087, 42.6886]}},
{"type": "Feature", "id": "rNGSJoHlVhVajddfnqP-i4MM_vQ=", "properties": {"ref": "https://www.sonesta.com/us/north-carolina/charlotte/sonesta-es-suites-charlotte-arrowood", "@spider": "sonesta", "addr:full": "7925 Forest Pine Drive", "addr:city": "Charlotte", "addr:state": "NC", "addr:postcode": "28273", "addr:country": "US", "name": "Sonesta ES Suites Charlotte Arrowood", "phone": " 1.704.527.6767 ", "brand": "Sonesta"}, "geometry": {"type": "Point", "coordinates": [-80.9051, 35.1349]}},
{"type": "Feature", "id": "ItzaOhmze3liAgtESYMrwTKR6YQ=", "properties": {"ref": "https://www.sonesta.com/us/vermont/burlington/sonesta-es-suites-burlington-vt", "@spider": "sonesta", "addr:full": "35 Hurricane Lane", "addr:city": "Burlington", "addr:state": "VT", "addr:postcode": "05495", "addr:country": "US", "name": "Sonesta ES Suites Burlington, VT", "phone": "1.802.878.2001", "brand": "Sonesta"}, "geometry": {"type": "Point", "coordinates": [-73.1143, 44.4376]}},
{"type": "Feature", "id": "ZYmr3hVZLKf2Ide9Cm-LUWQkqgo=", "properties": {"ref": "https://www.sonesta.com/us/massachusetts/burlington/sonesta-es-suites-burlington-boston", "@spider": "sonesta", "addr:full": "11 Old Concord Road", "addr:city": "Burlington", "addr:state": "MA", "addr:postcode": "01803", "addr:country": "US", "name": "Sonesta ES Suites Burlington Boston", "phone": "1.781.221.2233", "brand": "Sonesta"}, "geometry": {"type": "Point", "coordinates": [-71.2111, 42.4753]}},
{"type": "Feature", "id": "Tw-KDdVpr52MnT3Xg-ZujiQYoCs=", "properties": {"ref": "https://www.sonesta.com/us/louisiana/new-orleans/royal-sonesta-new-orleans", "@spider": "sonesta", "addr:full": "300 Bourbon Street", "addr:city": "New Orleans", "addr:state": "LA", "addr:postcode": "70130", "addr:country": "US", "name": "Royal Sonesta New Orleans", "phone": "1.504.586.0300", "brand": "Sonesta"}, "geometry": {"type": "Point", "coordinates": [-90.0679, 29.9558]}},
{"type": "Feature", "id": "1eA0ybiQbUinpzO20Su5fCKF7K8=", "properties": {"ref": "https://www.sonesta.com/us/texas/houston/royal-sonesta-houston-galleria", "@spider": "sonesta", "addr:full": "2222 West Loop South", "addr:city": "Houston", "addr:state": "TX", "addr:postcode": "77027", "addr:country": "US", "name": "Royal Sonesta Houston Galleria", "phone": "1.713.627.7600", "brand": "Sonesta"}, "geometry": {"type": "Point", "coordinates": [-95.4589, 29.7441]}},
{"type": "Feature", "id": "NfyWc1uhmtWdF7f5H0idTW0zm_Q=", "properties": {"ref": "https://www.sonesta.com/us/georgia/atlanta/sonesta-es-suites-atlanta-perimeter-center-north", "@spider": "sonesta", "addr:full": "760 Mount Vernon Highway Northeast", "addr:city": "Atlanta", "addr:state": "GA", "addr:postcode": "30328", "addr:country": "US", "name": "Sonesta ES Suites Atlanta - Perimeter Center North", "phone": "1.404.250.0110", "brand": "Sonesta"}, "geometry": {"type": "Point", "coordinates": [-84.3618, 33.9286]}},
{"type": "Feature", "id": "KuI9ISY2yr4uUvGvYWpnVeKvbHc=", "properties": {"ref": "https://www.sonesta.com/us/maryland/baltimore/royal-sonesta-harbor-court-baltimore", "@spider": "sonesta", "addr:full": "550 Light Street", "addr:city": "Baltimore", "addr:state": "MD", "addr:postcode": "21202", "addr:country": "US", "name": "Royal Sonesta Harbor Court Baltimore", "phone": "1.410.234.0550 ", "brand": "Sonesta"}, "geometry": {"type": "Point", "coordinates": [-76.6134, 39.2826]}},
{"type": "Feature", "id": "2gagDWsZb_IsIG-HFjB4yZvhZHA=", "properties": {"ref": "https://www.sonesta.com/essuites", "@spider": "sonesta", "addr:full": "255 Washington Street", "addr:city": "Newton", "addr:state": "MA", "addr:postcode": "02458", "addr:country": "US", "name": "Sonesta ES Suites", "phone": "800.SONESTA", "brand": "Sonesta"}, "geometry": {"type": "Point", "coordinates": [-71.184, 42.3578]}},
{"type": "Feature", "id": "RbBwZLouXsNnZJF-hYcLpngAqTw=", "properties": {"ref": "https://www.sonesta.com/us/michigan/ann-arbor/sonesta-es-suites-ann-arbor", "@spider": "sonesta", "addr:full": "800 Victors Way", "addr:city": "Ann Arbor", "addr:state": "MI", "addr:postcode": "48108", "addr:country": "US", "name": "Sonesta ES Suites Ann Arbor", "phone": "1.734.996.5666", "brand": "Sonesta"}, "geometry": {"type": "Point", "coordinates": [-83.7354, 42.2384]}},
{"type": "Feature", "id": "pbfuHRIbc9iiWULBCTF45md0IGY=", "properties": {"ref": "https://www.sonesta.com/us/virginia/charlottesville/sonesta-es-suites-charlottesville-university", "@spider": "sonesta", "addr:full": "1111 Millmont Street", "addr:city": "Charlottesville", "addr:state": "VA", "addr:postcode": "22903", "addr:country": "US", "name": "Sonesta ES Suites Charlottesville University", "phone": "1.434.923.0300", "brand": "Sonesta"}, "geometry": {"type": "Point", "coordinates": [-78.5032, 38.0529]}},
{"type": "Feature", "id": "2n6aWm6Cp_YfwDRO9DBMqyF9y6s=", "properties": {"ref": "https://www.sonesta.com/us/texas/austin/sonesta-simply-suites-austin-south", "@spider": "sonesta", "addr:full": "4320 Interstate 35 Service S", "addr:city": "Austin", "addr:state": "TX", "addr:postcode": "78745", "addr:country": "US", "name": "Sonesta Simply Suites Austin South", "phone": "1.512.444.8882", "brand": "Sonesta"}, "geometry": {"type": "Point", "coordinates": [-97.7576, 30.2126]}},
{"type": "Feature", "id": "eg2EXxeJNZTVKgpUruC7g8d91dY=", "properties": {"ref": "https://www.sonesta.com/us/new-jersey/florham-park/sonesta-hamilton-park-morristown-hotel-conference-center", "@spider": "sonesta", "addr:full": "175 Park Ave", "addr:city": "Florham Park", "addr:state": "NJ", "addr:postcode": "07932", "addr:country": "US", "name": "Sonesta Hamilton Park Morristown Hotel & Conference Center", "phone": "1.973.377.2424", "brand": "Sonesta"}, "geometry": {"type": "Point", "coordinates": [-74.4305, 40.7797]}},
{"type": "Feature", "id": "_b01kOf8ShTdEYhN7-yXBQ5zsag=", "properties": {"ref": "https://www.sonesta.com/us/michigan/novi/sonesta-simply-suites-detroit-novi", "@spider": "sonesta", "addr:full": "42600 Eleven Mile Road", "addr:city": "Novi", "addr:state": "MI", "addr:postcode": "48375", "addr:country": "US", "name": "Sonesta Simply Suites Detroit Novi", "phone": "1.248.305.5533", "brand": "Sonesta"}, "geometry": {"type": "Point", "coordinates": [-83.4671, 42.4821]}},
{"type": "Feature", "id": "yHeG3xEdxa4sqJ5zwD5ZXWM8cUU=", "properties": {"ref": "https://www.sonesta.com/us/michigan/southfield/sonesta-simply-suites-detroit-southfield", "@spider": "sonesta", "addr:full": "1 Corporate Drive", "addr:city": "Southfield", "addr:state": "MI", "addr:postcode": "48076", "addr:country": "US", "name": "Sonesta Simply Suites Detroit Southfield", "phone": "1.248.945.0010", "brand": "Sonesta"}, "geometry": {"type": "Point", "coordinates": [-83.2592, 42.4847]}},
{"type": "Feature", "id": "D6JCDzjwW3J251gpViELeN2jnvM=", "properties": {"ref": "https://www.sonesta.com/us/michigan/troy/sonesta-simply-suites-detroit-troy", "@spider": "sonesta", "addr:full": "2550 Troy Center Dr.", "addr:city": "Troy", "addr:state": "MI", "addr:postcode": "48084", "addr:country": "US", "name": "Sonesta Simply Suites Detroit Troy", "phone": "1.248.269.6600", "brand": "Sonesta"}, "geometry": {"type": "Point", "coordinates": [-83.1601, 42.5571]}},
{"type": "Feature", "id": "r7y9l-4o3YlzTBfoLwdticirPt4=", "properties": {"ref": "https://www.sonesta.com/us/michigan/warren/sonesta-simply-suites-detroit-warren", "@spider": "sonesta", "addr:full": "7010 Convention Blvd", "addr:city": "Warren", "addr:state": "MI", "addr:postcode": "48092", "addr:country": "US", "name": "Sonesta Simply Suites Detroit Warren", "phone": "1.586.978.1261", "brand": "Sonesta"}, "geometry": {"type": "Point", "coordinates": [-83.0332, 42.5303]}},
{"type": "Feature", "id": "TzrmIMXXSRVQ_cO-7uKBvCYycDo=", "properties": {"ref": "https://www.sonesta.com/us/minnesota/richfield/sonesta-simply-suites-minneapolis-richfield", "@spider": "sonesta", "addr:full": "351 West 77th Street", "addr:city": "Richfield", "addr:state": "MN", "addr:postcode": "55423", "addr:country": "US", "name": "Sonesta Simply Suites Minneapolis Richfield", "phone": "1.612.869.7704", "brand": "Sonesta"}, "geometry": {"type": "Point", "coordinates": [-93.2844, 44.8628]}},
{"type": "Feature", "id": "RBH68I5WAOL-Sw2VQyhvZhRhGBo=", "properties": {"ref": "https://www.sonesta.com/us/alabama/huntsville/sonesta-simply-suites-huntsville-research-park", "@spider": "sonesta", "addr:full": "201 Exchange Place", "addr:city": "Huntsville", "addr:state": "AL", "addr:postcode": "35806", "addr:country": "US", "name": "Sonesta Simply Suites Huntsville Research Park", "phone": "1.256.830.8222", "brand": "Sonesta"}, "geometry": {"type": "Point", "coordinates": [-86.6706, 34.711]}},
{"type": "Feature", "id": "PF7ayWihIJXkLqBYzUBXRdCEbFw=", "properties": {"ref": "https://www.sonesta.com/us/pennsylvania/bethlehem/sonesta-es-suites-allentown-bethlehem-airport", "@spider": "sonesta", "addr:full": "2180 Motel Drive", "addr:city": "Bethlehem", "addr:state": "PA", "addr:postcode": "18018", "addr:country": "US", "name": "Sonesta ES Suites Allentown Bethlehem Airport", "phone": "1.610.317.2662", "brand": "Sonesta"}, "geometry": {"type": "Point", "coordinates": [-75.4254, 40.6453]}},
{"type": "Feature", "id": "IUse2aWfQYrfCsEpBjvJuZd0O7U=", "properties": {"ref": "https://www.sonesta.com/us/north-carolina/morrisville/sonesta-es-suites-raleigh-durham-airport-morrisville", "@spider": "sonesta", "addr:full": "2020 Hospitality Court", "addr:city": "Morrisville", "addr:state": "NC", "addr:postcode": "27560", "addr:country": "US", "name": "Sonesta ES Suites Raleigh Durham Airport Morrisville", "phone": "1.919.467.8689", "brand": "Sonesta"}, "geometry": {"type": "Point", "coordinates": [-78.8158, 35.8581]}},
{"type": "Feature", "id": "Me2SfkLwTXzG38DqGRmrUwTz6a0=", "properties": {"ref": "https://www.sonesta.com/us/north-carolina/cary/sonesta-es-suites-raleigh-cary", "@spider": "sonesta", "addr:full": "2900 Regency Parkway", "addr:city": "Cary", "addr:state": "NC", "addr:postcode": "27518", "addr:country": "US", "name": "Sonesta ES Suites Raleigh Cary", "phone": "1.919.467.4080", "brand": "Sonesta"}, "geometry": {"type": "Point", "coordinates": [-78.7895, 35.7329]}},
{"type": "Feature", "id": "vmxWJ-I3udTyupNYHTpFdOl_7B8=", "properties": {"ref": "https://www.sonesta.com/us/michigan/warren/sonesta-es-suites-detroit-warren", "@spider": "sonesta", "addr:full": "30120 N Civic Center Drive", "addr:city": "Warren", "addr:state": "MI", "addr:postcode": "48093", "addr:country": "US", "name": "Sonesta ES Suites Detroit Warren", "phone": "1.586.558.8050", "brand": "Sonesta"}, "geometry": {"type": "Point", "coordinates": [-83.0266, 42.5146]}},
{"type": "Feature", "id": "V9v2njGMlGDUUFePVKHAsoJ0Y50=", "properties": {"ref": "https://www.sonesta.com/us/michigan/auburn-hills/sonesta-es-suites-auburn-hills-detroit", "@spider": "sonesta", "addr:full": "2050 Featherstone Road", "addr:city": "Auburn Hills", "addr:state": "MI", "addr:postcode": "48326", "addr:country": "US", "name": "Sonesta ES Suites Auburn Hills Detroit", "phone": "1.248.322.4600", "brand": "Sonesta"}, "geometry": {"type": "Point", "coordinates": [-83.2477, 42.6485]}},
{"type": "Feature", "id": "vofBIJoMvlC3Q1hDb1HPXCrr9M8=", "properties": {"ref": "https://www.sonesta.com/us/virginia/hampton/sonesta-simply-suites-hampton", "@spider": "sonesta", "addr:full": "401 Butler Farm Road", "addr:city": "Hampton", "addr:state": "VA", "addr:postcode": "23666", "addr:country": "US", "name": "Sonesta Simply Suites Hampton", "phone": "1.757.766.8976", "brand": "Sonesta"}, "geometry": {"type": "Point", "coordinates": [-76.4053, 37.0623]}},
{"type": "Feature", "id": "E6eJBzYaPgFSN7fYkDoQVFZfZLI=", "properties": {"ref": "https://www.sonesta.com/us/virginia/arlington/sonesta-select-arlington-rosslyn", "@spider": "sonesta", "addr:full": "1533 Claredon Boulevard", "addr:city": "Arlington", "addr:state": "VA", "addr:postcode": "22209", "addr:country": "US", "name": "Sonesta Select Arlington Rosslyn", "phone": "1.703.528.2222", "brand": "Sonesta"}, "geometry": {"type": "Point", "coordinates": [-77.0759, 38.894]}},
{"type": "Feature", "id": "tWO9UYndQK5O__lJ15HU_YWzM4A=", "properties": {"ref": "https://www.sonesta.com/us/maryland/greenbelt/sonesta-select-greenbelt-college-park", "@spider": "sonesta", "addr:full": "6301 Golden Triangle Drive", "addr:city": "Greenbelt", "addr:state": "MD", "addr:postcode": "20770", "addr:country": "US", "name": "Sonesta Select Greenbelt College Park", "phone": "1.301.441.3311", "brand": "Sonesta"}, "geometry": {"type": "Point", "coordinates": [-76.8984, 38.9973]}},
{"type": "Feature", "id": "nWyNWu9Oe_ZCmoinFnvca2JKg64=", "properties": {"ref": "https://www.sonesta.com/us/maryland/columbia/sonesta-select-columbia", "@spider": "sonesta", "addr:full": "8910 Stanford Boulevard", "addr:city": "Columbia", "addr:state": "MD", "addr:postcode": "21045", "addr:country": "US", "name": "Sonesta Select Columbia", "phone": "1.410.290.0002", "brand": "Sonesta"}, "geometry": {"type": "Point", "coordinates": [-76.8154, 39.1937]}},
{"type": "Feature", "id": "VohWKh-vgmWNOAdmcu7XaSokp2o=", "properties": {"ref": "https://www.sonesta.com/us/delaware/newark/sonesta-select-newark-christiana-mall", "@spider": "sonesta", "addr:full": "48 Geoffrey Drive", "addr:city": "Newark", "addr:state": "DE", "addr:postcode": "19713", "addr:country": "US", "name": "Sonesta Select Newark Christiana Mall", "phone": "1.302.456.3800", "brand": "Sonesta"}, "geometry": {"type": "Point", "coordinates": [-75.6537, 39.6867]}},
{"type": "Feature", "id": "uW07Kdh05D3jni16cu3AsE5c-iI=", "properties": {"ref": "https://www.sonesta.com/us/texas/richardson/sonesta-es-suites-dallas-richardson", "@spider": "sonesta", "addr:full": "1040 Waterwood Drive", "addr:city": "Richardson", "addr:state": "TX", "addr:postcode": "75082", "addr:country": "US", "name": "Sonesta ES Suites Dallas Richardson", "phone": "1.972.669.5888", "brand": "Sonesta"}, "geometry": {"type": "Point", "coordinates": [-96.7086, 32.981]}},
{"type": "Feature", "id": "tWRTl9Ebcl5PiXP7i26LuYSzRXs=", "properties": {"ref": "https://www.sonesta.com/us/pennsylvania/bethlehem/sonesta-select-allentown-bethlehem-airport", "@spider": "sonesta", "addr:full": "2160 Motel Drive", "addr:city": "Bethlehem", "addr:state": "PA", "addr:postcode": "18018", "addr:country": "US", "name": "Sonesta Select Allentown Bethlehem Airport", "phone": "1.610.317.6200", "brand": "Sonesta"}, "geometry": {"type": "Point", "coordinates": [-75.4257, 40.6444]}},
{"type": "Feature", "id": "F4qlJFIVAxciqFjryWBbn7cmIBc=", "properties": {"ref": "https://www.sonesta.com/us/kansas/overland-park/sonesta-simply-suites-kansas-city-overland-park", "@spider": "sonesta", "addr:full": "11001 Oakmont", "addr:city": "Overland Park", "addr:state": "KS", "addr:postcode": "66210", "addr:country": "US", "name": "Sonesta Simply Suites Kansas City Overland Park", "phone": "1.913.469.5557", "brand": "Sonesta"}, "geometry": {"type": "Point", "coordinates": [-94.7283, 38.9293]}},
{"type": "Feature", "id": "xc1EUqRgo68v1BCk8kdZVAYndwA=", "properties": {"ref": "https://www.sonesta.com/us/alabama/birmingham/sonesta-simply-suites-birmingham-hoover", "@spider": "sonesta", "addr:full": "600 Corporate Ridge Drive", "addr:city": "Birmingham", "addr:state": "AL", "addr:postcode": "35242", "addr:country": "US", "name": "Sonesta Simply Suites Birmingham Hoover", "phone": "1.205.991.0272", "brand": "Sonesta"}, "geometry": {"type": "Point", "coordinates": [-86.6922, 33.4167]}},
{"type": "Feature", "id": "vW9wKHpIixUtVLj07ukuLPV6_VU=", "properties": {"ref": "https://www.sonesta.com/simplysuites", "@spider": "sonesta", "addr:full": "255 Washington Street", "addr:city": "Newton", "addr:state": "MA", "addr:postcode": "02458", "addr:country": "US", "name": "Sonesta Simply Suites", "phone": "1.800.Sonesta", "brand": "Sonesta"}, "geometry": {"type": "Point", "coordinates": [-71.184, 42.3578]}},
{"type": "Feature", "id": "Radj_B81mfnHRzRVua2RV4lN660=", "properties": {"ref": "https://www.sonesta.com/us/massachusetts/newton/sonesta-travel-pass", "@spider": "sonesta", "addr:full": "255 Washington Street", "addr:city": "Newton", "addr:state": "MA", "addr:postcode": "02458", "addr:country": "US", "name": "Sonesta Travel Pass", "phone": "855.622.2160", "brand": "Sonesta"}, "geometry": {"type": "Point", "coordinates": [-71.184, 42.3579]}},
{"type": "Feature", "id": "rtPr38cr0oMOmc2OCObaS83tFFA=", "properties": {"ref": "https://www.sonesta.com/us/massachusetts/newton/customer-care", "@spider": "sonesta", "addr:full": "255 Washington Street", "addr:city": "Newton", "addr:state": "MA", "addr:postcode": "02458", "addr:country": "US", "name": "Customer Care", "brand": "Sonesta"}, "geometry": {"type": "Point", "coordinates": [-71.184, 42.3579]}},
{"type": "Feature", "id": "RBvVnSHGb5Wndxg9jBRJItinf48=", "properties": {"ref": "https://www.sonesta.com/ca/ontario/toronto/yorkville-royal-sonesta-hotel-toronto", "@spider": "sonesta", "addr:full": "220 Bloor Street West", "addr:city": "Toronto", "addr:state": "ON", "addr:postcode": "M5S 1T8", "addr:country": "CA", "name": "The Yorkville Royal Sonesta Hotel Toronto", "phone": "1.416.960.5200", "brand": "Sonesta"}, "geometry": {"type": "Point", "coordinates": [-79.3969, 43.6685]}},
{"type": "Feature", "id": "8F3IqwKxTjf4qpCZe3oqR7W1WOc=", "properties": {"ref": "https://www.sonesta.com/co/tolima/ibague/sonesta-hotel-ibague", "@spider": "sonesta", "addr:full": "Carrera 8 # 57-57 Centro Comercial Acqua", "addr:city": "Ibagu\u00e9", "addr:state": "TOL", "addr:country": "CO", "name": "Sonesta Hotel Ibagu\u00e9", "phone": "57.8.277.1110", "brand": "Sonesta"}, "geometry": {"type": "Point", "coordinates": [-75.2045, 4.44039]}},
{"type": "Feature", "id": "f_BpuLtUZKf3vWxAm09CXVxbNfQ=", "properties": {"ref": "https://www.sonesta.com/co/cundinamarca/bogot\u00e1/sonesta-hotel-bogot\u00e1", "@spider": "sonesta", "addr:full": "Avenida Carrera 15A # 125-26", "addr:city": "Bogot\u00e1", "addr:state": "CUN", "addr:country": "CO", "name": "Sonesta Hotel Bogot\u00e1", "phone": "57.1.658.55.00", "brand": "Sonesta"}, "geometry": {"type": "Point", "coordinates": [-74.0436, 4.70356]}},
{"type": "Feature", "id": "vhBY3JdSOZmHyQ9GxCmW3zqKgPE=", "properties": {"ref": "https://www.sonesta.com/cl/osorno/sonesta-hotel-osorno", "@spider": "sonesta", "addr:full": "Ejercito 395 Rahue", "addr:city": "Osorno", "addr:state": "\",\"postalCode\":\"", "addr:country": "CL", "name": "Sonesta Hotel Osorno", "phone": "56.64.255.5000", "brand": "Sonesta"}, "geometry": {"type": "Point", "coordinates": [-73.1456, -40.5756]}},
{"type": "Feature", "id": "_s1mMx1uY2szpvgHaTB0HqGXj6E=", "properties": {"ref": "https://www.sonesta.com/co/bolivar/cartagena/sonesta-hotel-cartagena", "@spider": "sonesta", "addr:full": "Carrera 9 # 35-104 Anillo Vial", "addr:city": "Cartagena", "addr:state": "BOL", "addr:country": "CO", "name": "Sonesta Hotel Cartagena", "phone": "57.5.653.5656", "brand": "Sonesta"}, "geometry": {"type": "Point", "coordinates": [-75.4991, 10.4674]}},
{"type": "Feature", "id": "tyICzFdQXmAq9Vqx85FKDX0-KcE=", "properties": {"ref": "https://www.sonesta.com/pe/puno/sonesta-posadas-del-inca-lake-titicaca-puno", "@spider": "sonesta", "addr:full": "Sesquicentenario 610", "addr:city": "Puno", "addr:state": "\",\"postalCode\":\"", "addr:country": "PE", "name": "Sonesta Posadas Del Inca - Lake Titicaca - Puno", "phone": "51.51.36.4114", "brand": "Sonesta"}, "geometry": {"type": "Point", "coordinates": [-69.9974, -15.8288]}},
{"type": "Feature", "id": "8aHuMstk4_S1rtEZfg1sUuP8sGE=", "properties": {"ref": "https://www.sonesta.com/co/santander/bucaramanga/sonesta-hotel-bucaramanga", "@spider": "sonesta", "addr:full": "Carrera 27 # 29 \u2013 145 Ca\u00f1averal Oriental Floridablanca Area Metropolitana de Bucaramanga", "addr:city": "Bucaramanga", "addr:state": "SAN", "addr:country": "CO", "name": "Sonesta Hotel Bucaramanga", "phone": "57.7.618.6818", "brand": "Sonesta"}, "geometry": {"type": "Point", "coordinates": [-73.1052, 7.07175]}}]}