{"type":"FeatureCollection","features":[{"type": "Feature", "id": "POwzAIAn0u9ZYdhze5bGUTApwmI=", "properties": {"ref": "superu-pierrefeuduvar", "@spider": "systeme_u", "addr:full": "AVENUE FREDERIC MISTRAL LIEU DIT LE LOGIS", "addr:city": "PIERREFEU DU VAR", "addr:postcode": "83390", "addr:country": "FR", "name": "SUPER U PIERREFEU DU VAR", "phone": "0494487360", "website": "https://www.magasins-u.com/magasin/superu-pierrefeuduvar", "opening_hours": "Mo-Sa 08:30-19:30; Su 08:30-12:30", "brand": "Systeme U"}, "geometry": {"type": "Point", "coordinates": [6.14541, 43.22012]}},
{"type": "Feature", "id": "jO7h0jIoYL-sOEY3D8zUZt9umOo=", "properties": {"ref": "superu-laverpilliere", "@spider": "systeme_u", "addr:full": "RUE DE PICARDIE.", "addr:city": "LA VERPILLIERE", "addr:postcode": "38290", "addr:country": "FR", "name": "SUPER U LA VERPILLIERE", "phone": "0474952870", "website": "https://www.magasins-u.com/magasin/superu-laverpilliere", "opening_hours": "Mo-Sa 08:30-20:00; Su 09:00-12:30", "brand": "Systeme U"}, "geometry": {"type": "Point", "coordinates": [5.13188, 45.64276]}},
{"type": "Feature", "id": "jtPPCFZC1g5mEsgUQMwy7dilAMo=", "properties": {"ref": "uexpress-equeurdreville", "@spider": "systeme_u", "addr:full": "60-66 RUE DE LA PAIX", "addr:city": "EQUEURDREVILLE", "addr:postcode": "50120", "addr:country": "FR", "name": "U EXPRESS EQUEURDREVILLE", "phone": "0233948663", "website": "https://www.magasins-u.com/magasin/uexpress-equeurdreville", "opening_hours": "Mo-Sa 08:30-20:00; Su 09:00-12:30", "brand": "Systeme U"}, "geometry": {"type": "Point", "coordinates": [-1.65042, 49.64971]}},
{"type": "Feature", "id": "sqRU61ngvOSeJ8YRgaSEBmRB3ho=", "properties": {"ref": "superu-fayence", "@spider": "systeme_u", "addr:full": "86 ROUTE DE FREJUS QUARTIER DU PLAN", "addr:city": "FAYENCE", "addr:postcode": "83440", "addr:country": "FR", "name": "SUPER U FAYENCE", "phone": "0494762242", "website": "https://www.magasins-u.com/magasin/superu-fayence", "opening_hours": "Mo-Sa 08:30-20:00; Su 08:30-13:00", "brand": "Systeme U"}, "geometry": {"type": "Point", "coordinates": [6.6899, 43.62105]}},
{"type": "Feature", "id": "GS2kceVDzVQ-XcZVsfmY_Du7o-E=", "properties": {"ref": "uexpress-bordeaux", "@spider": "systeme_u", "addr:full": "RUE JULES GUESDE PLACE DES CAPUCINS", "addr:city": "BORDEAUX", "addr:postcode": "33000", "addr:country": "FR", "name": "U EXPRESS BORDEAUX CAPUCINS", "phone": "0556923521", "website": "https://www.magasins-u.com/magasin/uexpress-bordeaux", "opening_hours": "Mo-Sa 08:00-21:00; Su 09:00-13:30", "brand": "Systeme U"}, "geometry": {"type": "Point", "coordinates": [-0.56702, 44.83027]}},
{"type": "Feature", "id": "AAeldAWBBJvys07V9lCv6iT7LwM=", "properties": {"ref": "uexpress-capesterre", "@spider": "systeme_u", "addr:full": "73, RUE PAUL LACAV\u00c9", "addr:city": "CAPESTERRE  BELLE EAU", "addr:postcode": "97130", "addr:country": "FR", "name": "U EXPRESS CAPESTERRE LACAVE", "phone": "0590864334", "website": "https://www.magasins-u.com/magasin/uexpress-capesterre", "opening_hours": "Mo-Th 08:00-13:00; Fr-Sa 08:00-19:30; Su 08:00-12:00", "brand": "Systeme U"}, "geometry": {"type": "Point", "coordinates": [-61.56315, 16.04483]}},
{"type": "Feature", "id": "OC2_jOY5BM3GC17fAgu7vCQ6kJk=", "properties": {"ref": "superu-saintmarslajaille", "@spider": "systeme_u", "addr:full": "ROUTE DE CHATEAUBRIAND", "addr:city": "SAINT MARS LA JAILLE", "addr:postcode": "44540", "addr:country": "FR", "name": "SUPER U ST-MARS-LA -JAILLE", "phone": "0240970142", "website": "https://www.magasins-u.com/magasin/superu-saintmarslajaille", "opening_hours": "Mo-Sa 08:45-19:30", "brand": "Systeme U"}, "geometry": {"type": "Point", "coordinates": [-1.18596, 47.53141]}},
{"type": "Feature", "id": "rIzdTFCwPu5wjtezYeTE4iZKbc0=", "properties": {"ref": "superu-donzere", "@spider": "systeme_u", "addr:full": "280 AV JEAN MOULIN RN 7", "addr:city": "DONZERE", "addr:postcode": "26290", "addr:country": "FR", "name": "SUPER U DONZERE", "phone": "0475505000", "website": "https://www.magasins-u.com/magasin/superu-donzere", "opening_hours": "Mo-Sa 08:30-19:30; Su 09:00-12:30", "brand": "Systeme U"}, "geometry": {"type": "Point", "coordinates": [4.71278, 44.43234]}},
{"type": "Feature", "id": "1tyWE-hvwTLjBzvTmNEzM0PGous=", "properties": {"ref": "uexpress-marsillargues", "@spider": "systeme_u", "addr:full": "10 RUE ALPHONSE DAUDET", "addr:city": "MARSILLARGUES", "addr:postcode": "34590", "addr:country": "FR", "name": "U EXPRESS MARSILLARGUES", "phone": "0467712354", "website": "https://www.magasins-u.com/magasin/uexpress-marsillargues", "opening_hours": "Mo-Sa 09:00-19:30", "brand": "Systeme U"}, "geometry": {"type": "Point", "coordinates": [4.17822, 43.66245]}},
{"type": "Feature", "id": "clgG0f0Mg0QdTLnePZn-zRkeHck=", "properties": {"ref": "superu-saintgeorgeslesbaillargeaux", "@spider": "systeme_u", "addr:full": "ROUTE DU CHAMP DE GAIN C.C. LA MAMOT", "addr:city": "SAINT GEORGES LES BAILLARGEAUX", "addr:postcode": "86130", "addr:country": "FR", "name": "SUPER U ST-GEORGES-LES BAILLARGEAU", "phone": "0549522805", "website": "https://www.magasins-u.com/magasin/superu-saintgeorgeslesbaillargeaux", "opening_hours": "Mo-Sa 09:00-19:30; Su 09:00-12:15", "brand": "Systeme U"}, "geometry": {"type": "Point", "coordinates": [0.40684, 46.67045]}},
{"type": "Feature", "id": "ASJRn2EesScqcfnRkS9BuQDmhzQ=", "properties": {"ref": "superu-bruguieres", "@spider": "systeme_u", "addr:full": "AVENUE DU BRUGUET", "addr:city": "BRUGUIERES", "addr:postcode": "31150", "addr:country": "FR", "name": "SUPER U BRUGUIERES", "phone": "0562798899", "website": "https://www.magasins-u.com/magasin/superu-bruguieres", "opening_hours": "Mo-Sa 09:00-19:30; Su 09:00-12:30", "brand": "Systeme U"}, "geometry": {"type": "Point", "coordinates": [1.41415, 43.72147]}},
{"type": "Feature", "id": "E_gkyxv7RmMjw7H9teNFIu7MqP0=", "properties": {"ref": "superu-illesurtet", "@spider": "systeme_u", "addr:full": "CENTRE COMMERCIAL LE RIBERAL LIEU-DIT DIT CAMP LLARG", "addr:city": "ILLE SUR TET", "addr:postcode": "66130", "addr:country": "FR", "name": "SUPER U ILLE SUR TET", "phone": "0468848770", "website": "https://www.magasins-u.com/magasin/superu-illesurtet", "opening_hours": "Mo-Sa 08:30-20:00", "brand": "Systeme U"}, "geometry": {"type": "Point", "coordinates": [2.63355, 42.67667]}},
{"type": "Feature", "id": "lruvqoIQYEUEJWqog6NTbgLS5rM=", "properties": {"ref": "superu-saintmacaireenmauges", "@spider": "systeme_u", "addr:full": "8, RUE KONRAD ADENAUER CENTRE COMM AU PAYS DES MAUGES", "addr:city": "SAINT MACAIRE EN MAUGES", "addr:postcode": "49450", "addr:country": "FR", "name": "SUPER U ST-MACAIRE-EN-MAUGES", "phone": "0241491380", "website": "https://www.magasins-u.com/magasin/superu-saintmacaireenmauges", "opening_hours": "Mo-Th 08:45-19:30; Fr 08:45-20:00; Sa 08:45-19:30", "brand": "Systeme U"}, "geometry": {"type": "Point", "coordinates": [-0.98932, 47.11413]}},
{"type": "Feature", "id": "LQGFGTHX0xG1MF9VpqVVAO8ZiS4=", "properties": {"ref": "hyperu-saintes", "@spider": "systeme_u", "addr:full": "COURS MAR\u00c9CHAL LECLERC", "addr:city": "SAINTES", "addr:postcode": "17100", "addr:country": "FR", "name": "HYPER U SAINTES", "phone": "0546933270", "website": "https://www.magasins-u.com/magasin/hyperu-saintes", "opening_hours": "Mo-Sa 08:30-20:00", "brand": "Systeme U"}, "geometry": {"type": "Point", "coordinates": [-0.65155, 45.75329]}},
{"type": "Feature", "id": "KhhJPx2JJ1zKFvnhx1RKddBQAfQ=", "properties": {"ref": "superu-malansac", "@spider": "systeme_u", "addr:full": "PARC ACTIVIT\u00c9S DE LA CHAUSS\u00c9E", "addr:city": "MALANSAC", "addr:postcode": "56220", "addr:country": "FR", "name": "SUPER U MALANSAC", "phone": "0297662887", "website": "https://www.magasins-u.com/magasin/superu-malansac", "opening_hours": "Mo-Th 08:45-19:30; Fr 08:45-20:00; Sa 08:45-19:30; Su 09:00-12:30", "brand": "Systeme U"}, "geometry": {"type": "Point", "coordinates": [-2.29798, 47.66892]}},
{"type": "Feature", "id": "AriqLagqzQ44j9XViCLhjxzhBYM=", "properties": {"ref": "superu-saintmartindecrau", "@spider": "systeme_u", "addr:full": "ZA DU SALAT AV.MARKGRONINGEN DOMAINE DE LA BERGERIE", "addr:city": "ST MARTIN DE CRAU", "addr:postcode": "13310", "addr:country": "FR", "name": "SUPER U ST MARTIN DE CRAU", "phone": "0490472300", "website": "https://www.magasins-u.com/magasin/superu-saintmartindecrau", "opening_hours": "Mo-Sa 08:30-20:00; Su 09:00-12:30", "brand": "Systeme U"}, "geometry": {"type": "Point", "coordinates": [4.79792, 43.63946]}},
{"type": "Feature", "id": "Kzpd15d5uqZYJ87VFkzzi81zh3s=", "properties": {"ref": "superu-nogent", "@spider": "systeme_u", "addr:full": "RUE AMBROISE PAR\u00c9", "addr:city": "NOGENT", "addr:postcode": "52800", "addr:country": "FR", "name": "SUPER U NOGENT", "phone": "0325317879", "website": "https://www.magasins-u.com/magasin/superu-nogent", "opening_hours": "Mo-Sa 08:30-19:00; Su 09:00-12:00", "brand": "Systeme U"}, "geometry": {"type": "Point", "coordinates": [5.34961, 48.03357]}},
{"type": "Feature", "id": "TPXgrAqrAvNeQvDEAjbPed-t33E=", "properties": {"ref": "superu-lapommeraye", "@spider": "systeme_u", "addr:full": "ROUTE DE BOURGNEUF", "addr:city": "LA POMMERAYE", "addr:postcode": "49620", "addr:country": "FR", "name": "SUPER U LA POMMERAYE", "phone": "0241721720", "website": "https://www.magasins-u.com/magasin/superu-lapommeraye", "opening_hours": "Mo-Sa 09:00-19:30", "brand": "Systeme U"}, "geometry": {"type": "Point", "coordinates": [-0.85722, 47.34938]}},
{"type": "Feature", "id": "DqiMqkFb7wRKo09A-R9kpNWfOVg=", "properties": {"ref": "superu-ouillylevicomte", "@spider": "systeme_u", "addr:full": "ROUTE DE COQUAINVILLIERS ZI LA VALL\u00c9E", "addr:city": "OUILLY LE VICOMTE", "addr:postcode": "14100", "addr:country": "FR", "name": "SUPER U OUILLY LE VICOMTE", "phone": "0231630888", "website": "https://www.magasins-u.com/magasin/superu-ouillylevicomte", "opening_hours": "Mo-Sa 09:00-19:30", "brand": "Systeme U"}, "geometry": {"type": "Point", "coordinates": [0.21484, 49.17153]}},
{"type": "Feature", "id": "J1oS2QacQ3tZGlw6P1l7eLzIzx8=", "properties": {"ref": "superu-rennesfougeres", "@spider": "systeme_u", "addr:full": "205, RUE DE FOUG\u00c8RES BP 30434", "addr:city": "RENNES", "addr:postcode": "35000", "addr:country": "FR", "name": "SUPER U RENNES FOUGERES", "phone": "0299360426", "website": "https://www.magasins-u.com/magasin/superu-rennesfougeres", "opening_hours": "Mo-Sa 09:00-20:00", "brand": "Systeme U"}, "geometry": {"type": "Point", "coordinates": [-1.65953, 48.12365]}},
{"type": "Feature", "id": "SGEkxL5BHvBTI32FkAEURoudY6o=", "properties": {"ref": "uexpress-molietsetmaa", "@spider": "systeme_u", "addr:full": "LIEU DIT BOUSSOUAYRE 2401 AVENUE DES LACS", "addr:city": "MOLIETS ET MAA", "addr:postcode": "40660", "addr:country": "FR", "name": "U EXPRESS MOLIETS ET MAA", "phone": " ", "website": "https://www.magasins-u.com/magasin/uexpress-molietsetmaa", "opening_hours": "Mo-Sa 09:00-19:30; Su 09:00-12:30", "brand": "Systeme U"}, "geometry": {"type": "Point", "coordinates": [-1.35034, 43.8529]}},
{"type": "Feature", "id": "qxdVCn_jZbgnCz5UMEcN3TNf7Vg=", "properties": {"ref": "superu-neuvilleferrieres", "@spider": "systeme_u", "addr:country": "FR", "website": "https://www.magasins-u.com/magasin/superu-neuvilleferrieres", "brand": "Systeme U"}},
{"type": "Feature", "id": "Mf7F8yqyvWuej__G4sqGX8OjJ-A=", "properties": {"ref": "superu-beaupreau", "@spider": "systeme_u", "addr:full": "RUE DE LA P\u00c9PINI\u00c8RE CENTRE COMMERCIAL LE PLANTY", "addr:city": "BEAUPR\u00c9AU", "addr:postcode": "49600", "addr:country": "FR", "name": "SUPER U BEAUPREAU", "phone": "0241636239", "website": "https://www.magasins-u.com/magasin/superu-beaupreau", "opening_hours": "Mo-Th 08:45-19:30; Fr 08:45-20:00; Sa 08:45-19:30", "brand": "Systeme U"}, "geometry": {"type": "Point", "coordinates": [-0.98459, 47.2112]}},
{"type": "Feature", "id": "CTVQIN8apxADMabh1XwUL_qvXgY=", "properties": {"ref": "superu-lachapellebassemer", "@spider": "systeme_u", "addr:full": "BOULEVARD PASTEUR CENTRE COMMERCIAL LE VAL FLEURI", "addr:city": "LA CHAPELLE BASSE MER", "addr:postcode": "44450", "addr:country": "FR", "name": "SUPER U LA CHAPELLE-BASSE-MER", "phone": "0240063592", "website": "https://www.magasins-u.com/magasin/superu-lachapellebassemer", "opening_hours": "Mo-Sa 08:30-20:00", "brand": "Systeme U"}, "geometry": {"type": "Point", "coordinates": [-1.33843, 47.26836]}},
{"type": "Feature", "id": "aEllW7NWsKJw75T-jORbGtdFYiY=", "properties": {"ref": "uexpress-montdemarsan", "@spider": "systeme_u", "addr:full": "2 AVENUE DE SABRES", "addr:city": "MONT DE MARSAN", "addr:postcode": "40000", "addr:country": "FR", "name": "U EXPRESS MONT DE MARSAN", "phone": "0558064602", "website": "https://www.magasins-u.com/magasin/uexpress-montdemarsan", "opening_hours": "Mo-Sa 08:30-19:30; Su 09:00-12:30", "brand": "Systeme U"}, "geometry": {"type": "Point", "coordinates": [-0.5131, 43.89705]}},
{"type": "Feature", "id": "4udEB2jRgFd0Aslwnm7s2fU8FXs=", "properties": {"ref": "superu-saintetiennedemontluc", "@spider": "systeme_u", "addr:full": "24, ROUTE DE COU\u00c9RON", "addr:city": "SAINT ETIENNE DE MONTLUC", "addr:postcode": "44360", "addr:country": "FR", "name": "SUPER U ST-ETIENNE-DE-MONTLUC", "phone": "0240869767", "website": "https://www.magasins-u.com/magasin/superu-saintetiennedemontluc", "opening_hours": "Mo-Sa 08:30-20:00", "brand": "Systeme U"}, "geometry": {"type": "Point", "coordinates": [-1.77429, 47.26991]}},
{"type": "Feature", "id": "S3O1lMokJVWvyUsgoLnKOuFc3_E=", "properties": {"ref": "superu-flixecourt", "@spider": "systeme_u", "addr:full": "ZAC DES HAUTS DU VAL DE NIEVRE AVENUE DU CH\u00c2TEAU", "addr:city": "FLIXECOURT", "addr:postcode": "80420", "addr:country": "FR", "name": "SUPER U FLIXECOURT", "phone": "0322403060", "website": "https://www.magasins-u.com/magasin/superu-flixecourt", "opening_hours": "Mo-Sa 08:30-19:30; Su 09:00-12:30", "brand": "Systeme U"}, "geometry": {"type": "Point", "coordinates": [2.06607, 50.02836]}},
{"type": "Feature", "id": "SOL-ySH91-ImWSpeVnDmPyACgAU=", "properties": {"ref": "superu-diemeringen", "@spider": "systeme_u", "addr:full": "RUE PAUL PARAY", "addr:city": "DIEMERINGEN", "addr:postcode": "67430", "addr:country": "FR", "name": "SUPER U DIEMERINGEN", "phone": "0388004848", "website": "https://www.magasins-u.com/magasin/superu-diemeringen", "opening_hours": "Mo-Th 08:30-19:00; Fr 08:30-19:30; Sa 08:30-18:00", "brand": "Systeme U"}, "geometry": {"type": "Point", "coordinates": [7.18994, 48.93917]}},
{"type": "Feature", "id": "Z0VgKZb3tvQcSqr_nv-4w3mfGKo=", "properties": {"ref": "uexpress-gavray", "@spider": "systeme_u", "addr:full": "7 RUE DE L'H\u00d4TEL SAINT DENIS", "addr:city": "GAVRAY", "addr:postcode": "50450", "addr:country": "FR", "name": "U EXPRESS GAVRAY", "phone": "0233610877", "website": "https://www.magasins-u.com/magasin/uexpress-gavray", "opening_hours": "Mo-Fr 09:00-12:30; Sa 09:00-19:15", "brand": "Systeme U"}, "geometry": {"type": "Point", "coordinates": [-1.35355, 48.91342]}},
{"type": "Feature", "id": "mwIqDt_53Hlr5pKEgrALhYSUAg0=", "properties": {"ref": "hyperu-saintave", "@spider": "systeme_u", "addr:full": "ROUTE DE PONTIVY ESPACE COMMERCIAL CO\u00cbT DIGO", "addr:city": "SAINT AV\u00c9", "addr:postcode": "56890", "addr:country": "FR", "name": "HYPER U SAINT AVE", "phone": "0297476162", "website": "https://www.magasins-u.com/magasin/hyperu-saintave", "opening_hours": "Mo-Sa 08:30-20:00", "brand": "Systeme U"}, "geometry": {"type": "Point", "coordinates": [-2.76437, 47.68377]}},
{"type": "Feature", "id": "rXvncpywztf3kPHgc51k8ccUExI=", "properties": {"ref": "superu-villaines", "@spider": "systeme_u", "addr:full": "ROUTE DU MANS", "addr:city": "VILLAINES LA JUHEL", "addr:postcode": "53700", "addr:country": "FR", "name": "SUPER U VILLAINES-LA-JUHEL", "phone": "0243032135", "website": "https://www.magasins-u.com/magasin/superu-villaines", "opening_hours": "Mo-Sa 08:30-19:30", "brand": "Systeme U"}, "geometry": {"type": "Point", "coordinates": [-0.27169, 48.34083]}},
{"type": "Feature", "id": "bRo-ch24MxXdKrDMFmDZwj-qmGY=", "properties": {"ref": "superu-montignylesmetz", "@spider": "systeme_u", "addr:full": "28 RUE DE NOMENY", "addr:city": "MONTIGNY LES METZ", "addr:postcode": "57950", "addr:country": "FR", "name": "SUPER U MONTIGNY LES METZ", "phone": "0387634593", "website": "https://www.magasins-u.com/magasin/superu-montignylesmetz", "opening_hours": "Mo-Sa 08:30-20:00", "brand": "Systeme U"}, "geometry": {"type": "Point", "coordinates": [6.15631, 49.0876]}},
{"type": "Feature", "id": "iOqGBiCKhnsrEOvSK2vUHF-UAD0=", "properties": {"ref": "superu-cancale", "@spider": "systeme_u", "addr:full": "ESPACE COMMERCIALE EMERAUDE RUE DE LA BRETONNIERE", "addr:city": "CANCALE", "addr:postcode": "35260", "addr:country": "FR", "name": "SUPER U CANCALE", "phone": "0299898611", "website": "https://www.magasins-u.com/magasin/superu-cancale", "opening_hours": "Mo-Th 09:00-19:30; Fr 09:00-20:00; Sa 09:00-19:30", "brand": "Systeme U"}, "geometry": {"type": "Point", "coordinates": [-1.86743, 48.67964]}},
{"type": "Feature", "id": "pbM15AI-dgkGr3csuJseAkRn2V4=", "properties": {"ref": "superu-voiron", "@spider": "systeme_u", "addr:full": "76 BOULEVARD DENFERT ROCHEREAU", "addr:city": "VOIRON", "addr:postcode": "38500", "addr:country": "FR", "name": "SUPER U VOIRON", "phone": "0476058225", "website": "https://www.magasins-u.com/magasin/superu-voiron", "opening_hours": "Mo-Sa 08:30-20:00; Su 08:30-12:45", "brand": "Systeme U"}, "geometry": {"type": "Point", "coordinates": [5.59518, 45.35998]}},
{"type": "Feature", "id": "XMZil0aHjBCtKWfW2v9AmzFTP4s=", "properties": {"ref": "superu-andorra", "@spider": "systeme_u", "addr:full": "AV MERITXELL 94 AD500 ANDORRA LA VELLA", "addr:city": "PRINCIPAT D ANDORRA", "addr:postcode": "99900", "addr:country": "FR", "name": "SUPER U ANDORRE MERITXELL", "phone": " ", "website": "https://www.magasins-u.com/magasin/superu-andorra", "opening_hours": "Mo-Sa 09:30-21:00; Su 09:00-20:00", "brand": "Systeme U"}, "geometry": {"type": "Point", "coordinates": [1.53047, 42.50827]}},
{"type": "Feature", "id": "EJvxk7w7ClCNjkNRi75jZh4g_Rk=", "properties": {"ref": "uexpress-meyssac", "@spider": "systeme_u", "addr:full": "ROUTE DE COLLONGES", "addr:city": "MEYSSAC", "addr:postcode": "19500", "addr:country": "FR", "name": "U EXPRESS MEYSSAC", "phone": "0555253304", "website": "https://www.magasins-u.com/magasin/uexpress-meyssac", "opening_hours": "Mo-Sa 08:30-19:30; Su 08:30-13:00", "brand": "Systeme U"}, "geometry": {"type": "Point", "coordinates": [1.66994, 45.05658]}},
{"type": "Feature", "id": "2uvnicPWZ0DzvBqOWsEGlTxaAUE=", "properties": {"ref": "superu-doldebretagne", "@spider": "systeme_u", "addr:full": "RUE DU DOCTEUR GRINGOIRE", "addr:city": "DOL DE BRETAGNE", "addr:postcode": "35120", "addr:country": "FR", "name": "SUPER U DOL-DE-BRETAGNE", "phone": "0299480486", "website": "https://www.magasins-u.com/magasin/superu-doldebretagne", "opening_hours": "Mo-Th 08:30-19:30; Fr 08:30-20:00; Sa 08:30-19:30", "brand": "Systeme U"}, "geometry": {"type": "Point", "coordinates": [-1.74188, 48.54735]}},
{"type": "Feature", "id": "h0GLldsS3mAALFsu9dM9sMAvRqs=", "properties": {"ref": "superu-gertwiller", "@spider": "systeme_u", "addr:full": "2 route de Bourgheim", "addr:city": "GERTWILLER", "addr:postcode": "67140", "addr:country": "FR", "name": "SUPER U GERTWILLER", "phone": "0388080081", "website": "https://www.magasins-u.com/magasin/superu-gertwiller", "opening_hours": "Mo-Th 08:30-19:30; Fr 08:30-20:00; Sa 08:00-19:30", "brand": "Systeme U"}, "geometry": {"type": "Point", "coordinates": [7.47572, 48.41567]}},
{"type": "Feature", "id": "09pU68JKGrFs2hG1nw_8WlYlAKk=", "properties": {"ref": "superu-ganges", "@spider": "systeme_u", "addr:full": "QUARTIER DES CALQUIERES", "addr:city": "GANGES", "addr:postcode": "34190", "addr:country": "FR", "name": "SUPER U GANGES", "phone": "0467738916", "website": "https://www.magasins-u.com/magasin/superu-ganges", "opening_hours": "Mo-Sa 08:30-19:30; Su 08:30-12:00", "brand": "Systeme U"}, "geometry": {"type": "Point", "coordinates": [3.70621, 43.9305]}},
{"type": "Feature", "id": "te4btKAxeKvcjE4V2l-mS0eAYNg=", "properties": {"ref": "superu-bouaye", "@spider": "systeme_u", "addr:full": "53, RUE DE NANTES", "addr:city": "BOUAYE", "addr:postcode": "44830", "addr:country": "FR", "name": "SUPER U BOUAYE", "phone": "0240654062", "website": "https://www.magasins-u.com/magasin/superu-bouaye", "opening_hours": "Mo-Th 08:30-19:30; Fr 08:30-20:00; Sa 08:30-19:30; Su 09:15-12:30", "brand": "Systeme U"}, "geometry": {"type": "Point", "coordinates": [-1.67907, 47.14355]}},
{"type": "Feature", "id": "Qm_U9CdS0ExuQLpDs6v5ioudLU0=", "properties": {"ref": "superu-thouars", "@spider": "systeme_u", "addr:full": "2, BOULEVARD DE DIEPHOLZ", "addr:city": "THOUARS", "addr:postcode": "79100", "addr:country": "FR", "name": "SUPER U THOUARS", "phone": "0549663034", "website": "https://www.magasins-u.com/magasin/superu-thouars", "opening_hours": "Mo-Th 08:30-19:30; Fr 08:30-20:00; Sa 08:30-19:30", "brand": "Systeme U"}, "geometry": {"type": "Point", "coordinates": [-0.199, 46.98126]}},
{"type": "Feature", "id": "hDzJ2qjeE0DnGKd5gTn2IirxTrY=", "properties": {"ref": "uexpress-lemansrepublique", "@spider": "systeme_u", "addr:full": "PLACE DE LA R\u00c9PUBLIQUE .", "addr:city": "LE MANS", "addr:postcode": "72000", "addr:country": "FR", "name": "U EXPRESS LE MANS REPUBLIQUE", "phone": "0243143110", "website": "https://www.magasins-u.com/magasin/uexpress-lemansrepublique", "opening_hours": "Mo-Sa 08:30-20:30; Su 08:30-13:00", "brand": "Systeme U"}, "geometry": {"type": "Point", "coordinates": [0.19648, 48.00451]}},
{"type": "Feature", "id": "iXE-LE1IoKXQirdqWq16xwYZeTg=", "properties": {"ref": "superu-vaisonlaromaine", "@spider": "systeme_u", "addr:full": "AVENUE MARCEL PAGNOL", "addr:city": "VAISON LA ROMAINE", "addr:postcode": "84110", "addr:country": "FR", "name": "SUPER U VAISON LA ROMAINE", "phone": "0490100600", "website": "https://www.magasins-u.com/magasin/superu-vaisonlaromaine", "opening_hours": "Mo-Sa 08:30-20:00; Su 09:00-12:30", "brand": "Systeme U"}, "geometry": {"type": "Point", "coordinates": [5.08293, 44.24276]}},
{"type": "Feature", "id": "ALQe_gh9PSkVXnUDIrK2atARziI=", "properties": {"ref": "uexpress-corbelin", "@spider": "systeme_u", "addr:full": "AVENUE DES FRERES GUIGUET LIEU DIT LE MALEIN", "addr:city": "CORBELIN", "addr:postcode": "38630", "addr:country": "FR", "name": "U EXPRESS CORBELIN", "phone": "0437050090", "website": "https://www.magasins-u.com/magasin/uexpress-corbelin", "opening_hours": "Mo-Sa 08:30-20:00; Su 08:30-12:30", "brand": "Systeme U"}, "geometry": {"type": "Point", "coordinates": [5.53691, 45.60824]}},
{"type": "Feature", "id": "iuSWCmzaCbDMKWVqtwxs6PJOujU=", "properties": {"ref": "superu-tavaux", "@spider": "systeme_u", "addr:full": "Route Nationale 73", "addr:city": "TAVAUX", "addr:postcode": "39500", "addr:country": "FR", "name": "SUPER U TAVAUX", "phone": "0384819587", "website": "https://www.magasins-u.com/magasin/superu-tavaux", "opening_hours": "Mo-Sa 08:30-20:00; Su 09:00-12:30", "brand": "Systeme U"}, "geometry": {"type": "Point", "coordinates": [5.41873, 47.04298]}},
{"type": "Feature", "id": "DHft_wzDz_y5_NDXheTCP-6WcuQ=", "properties": {"ref": "uexpress-grans", "@spider": "systeme_u", "addr:full": "IMPASSE LES CH\u00caNES VERTS CAMPS JOUVEN", "addr:city": "GRANS", "addr:postcode": "13450", "addr:country": "FR", "name": "U EXPRESS GRANS", "phone": " ", "website": "https://www.magasins-u.com/magasin/uexpress-grans", "opening_hours": "Mo-Sa 08:30-20:00; Su 08:30-12:30", "brand": "Systeme U"}, "geometry": {"type": "Point", "coordinates": [5.07473, 43.60189]}},
{"type": "Feature", "id": "aAzgB5UVBDNvJoBybt_AH5cg1Io=", "properties": {"ref": "superu-bourgsaintmaurice", "@spider": "systeme_u", "addr:full": "Route des Arcs BP 99", "addr:city": "BOURG ST MAURICE CEDEX", "addr:postcode": "73704", "addr:country": "FR", "name": "SUPER U BOURG ST MAURICE", "phone": "0479072411", "website": "https://www.magasins-u.com/magasin/superu-bourgsaintmaurice", "opening_hours": "Mo-Sa 08:00-19:30", "brand": "Systeme U"}, "geometry": {"type": "Point", "coordinates": [6.78056, 45.62354]}},
{"type": "Feature", "id": "7KOafGvQl8NYtIw7hJfiOFFUog8=", "properties": {"ref": "uexpress-saintmaurdesfosses", "@spider": "systeme_u", "addr:full": "73 AVENUE JEAN JAUR\u00c8S", "addr:city": "ST MAUR DES FOSSES", "addr:postcode": "94100", "addr:country": "FR", "name": "U EXPRESS ST MAUR DES FOSSES", "phone": "0141792861", "website": "https://www.magasins-u.com/magasin/uexpress-saintmaurdesfosses", "opening_hours": "Mo-Sa 08:30-20:00; Su 09:00-13:00", "brand": "Systeme U"}, "geometry": {"type": "Point", "coordinates": [2.48151, 48.78883]}},
{"type": "Feature", "id": "klW4ooneUt9VenPYFjNz3SzjyJc=", "properties": {"ref": "superu-change", "@spider": "systeme_u", "addr:full": "CENTRE DU GRAND PIN", "addr:city": "CHANG\u00c9", "addr:postcode": "72560", "addr:country": "FR", "name": "SUPER U CHANGE", "phone": "0243783010", "website": "https://www.magasins-u.com/magasin/superu-change", "opening_hours": "Mo-Th 08:30-19:30; Fr 08:30-20:00; Sa 08:30-19:30", "brand": "Systeme U"}, "geometry": {"type": "Point", "coordinates": [0.27369, 47.98144]}},
{"type": "Feature", "id": "oKuBcDrvp3I03RAusAl42B_oY2g=", "properties": {"ref": "superu-baillif", "@spider": "systeme_u", "addr:full": "Z.I. P\u00c8RES BLANCS", "addr:city": "BAILLIF", "addr:postcode": "97123", "addr:country": "FR", "name": "SUPER U BAILLIF", "phone": "0590608382", "website": "https://www.magasins-u.com/magasin/superu-baillif", "opening_hours": "Mo-Sa 08:00-20:00; Su 08:30-12:45", "brand": "Systeme U"}, "geometry": {"type": "Point", "coordinates": [-61.74443, 16.01213]}},
{"type": "Feature", "id": "6fNu9iGPFeanDg3juk0XcCuZmwI=", "properties": {"ref": "uexpress-bastiapaoli", "@spider": "systeme_u", "addr:full": "6 BOULEVARD PAOLI", "addr:city": "BASTIA", "addr:postcode": "20200", "addr:country": "FR", "name": "U EXPRESS BASTIA PAOLI", "phone": "0495320211", "website": "https://www.magasins-u.com/magasin/uexpress-bastiapaoli", "opening_hours": "Mo-Sa 08:00-20:00; Su 08:30-12:30", "brand": "Systeme U"}, "geometry": {"type": "Point", "coordinates": [9.44814, 42.69654]}},
{"type": "Feature", "id": "_IRhRfWAStJrldQ1lAPF4Qjo4ko=", "properties": {"ref": "superu-parisornano", "@spider": "systeme_u", "addr:full": "34 BOULEVARD ORNANO 125 RUE CLIGNANCOURT", "addr:city": "PARIS", "addr:postcode": "75018", "addr:country": "FR", "name": "SUPER U PARIS ORNANO", "phone": "0146067590", "website": "https://www.magasins-u.com/magasin/superu-parisornano", "opening_hours": "Mo-Sa 08:30-20:00; Su 09:00-13:00", "brand": "Systeme U"}, "geometry": {"type": "Point", "coordinates": [2.34801, 48.89366]}},
{"type": "Feature", "id": "3G66nerkPO1uOivj4ZFCLFMmT1Y=", "properties": {"ref": "superu-lariche", "@spider": "systeme_u", "addr:full": "42 RUE DES HAUTES MARCHES", "addr:city": "LA RICHE", "addr:postcode": "37520", "addr:country": "FR", "name": "SUPER U LA RICHE", "phone": "0247374969", "website": "https://www.magasins-u.com/magasin/superu-lariche", "opening_hours": "Mo-Sa 08:30-19:30; Su 09:00-12:30", "brand": "Systeme U"}, "geometry": {"type": "Point", "coordinates": [0.65802, 47.38593]}},
{"type": "Feature", "id": "QsEpxj_DX9o6vuCaB8fJvPD4Ia8=", "properties": {"ref": "uexpress-saintremydeprovence", "@spider": "systeme_u", "addr:full": "48 AVENUE DURAND MAILLANE", "addr:city": "ST REMY DE PROVENCE", "addr:postcode": "13210", "addr:country": "FR", "name": "U EXPRESS ST REMY DE PROVENCE", "phone": "0965106277", "website": "https://www.magasins-u.com/magasin/uexpress-saintremydeprovence", "opening_hours": "Mo-Su 07:30-20:00", "brand": "Systeme U"}, "geometry": {"type": "Point", "coordinates": [4.83096, 43.78626]}},
{"type": "Feature", "id": "SBGFfHJQA-UbuePUtVLGgrV1Yg0=", "properties": {"ref": "hyperu-saintphilbertdegrandlieu", "@spider": "systeme_u", "addr:full": "ESPACE COMMERCIAL GRAND LAC", "addr:city": "SAINT PHILBERT DE GRAND LIEU", "addr:postcode": "44310", "addr:country": "FR", "name": "HYPER U ST-PHILBERT-DE-GRANDLIEU", "phone": "0240787384", "website": "https://www.magasins-u.com/magasin/hyperu-saintphilbertdegrandlieu", "opening_hours": "Mo-Sa 08:30-20:00", "brand": "Systeme U"}, "geometry": {"type": "Point", "coordinates": [-1.64096, 47.04646]}},
{"type": "Feature", "id": "apx1keYwmBYv6-yE3lNu3y2S3N4=", "properties": {"ref": "uexpress-carpentras", "@spider": "systeme_u", "addr:full": "319 AV NOTRE DAME DE SANTE", "addr:city": "CARPENTRAS", "addr:postcode": "84200", "addr:country": "FR", "name": "U EXPRESS CARPENTRAS", "phone": "0490606548", "website": "https://www.magasins-u.com/magasin/uexpress-carpentras", "opening_hours": "Mo-Sa 08:30-20:00; Su 08:30-13:00", "brand": "Systeme U"}, "geometry": {"type": "Point", "coordinates": [5.04877, 44.05955]}},
{"type": "Feature", "id": "I0dCb4knJYpUvopwvCt_KZoDXTQ=", "properties": {"ref": "hyperu-lachapellesurerdre", "@spider": "systeme_u", "addr:full": "ZAC DE LA BERANGERAIS", "addr:city": "LA CHAPELLE SUR ERDRE", "addr:postcode": "44240", "addr:country": "FR", "name": "HYPER U LA CHAPELLE-SUR-ERDRE", "phone": "0240728672", "website": "https://www.magasins-u.com/magasin/hyperu-lachapellesurerdre", "opening_hours": "Mo-Sa 09:00-20:30", "brand": "Systeme U"}, "geometry": {"type": "Point", "coordinates": [-1.55249, 47.28435]}},
{"type": "Feature", "id": "qqt56gsh5NUkFQPUO8ZXBoQiyvA=", "properties": {"ref": "superu-ydes", "@spider": "systeme_u", "addr:full": "AVENUE DE LA REPUBLIQUE", "addr:city": "YDES", "addr:postcode": "15210", "addr:country": "FR", "name": "SUPER U YDES", "phone": "0471673985", "website": "https://www.magasins-u.com/magasin/superu-ydes", "opening_hours": "Mo-Sa 08:30-19:30; Su 09:00-12:30", "brand": "Systeme U"}, "geometry": {"type": "Point", "coordinates": [2.43403, 45.34091]}},
{"type": "Feature", "id": "Xhg9WWcnijq1BikR1UY04_4JwuA=", "properties": {"ref": "uexpress-malaucene", "@spider": "systeme_u", "addr:full": "COURS DES ISNARDS", "addr:city": "MALAUCENE", "addr:postcode": "84340", "addr:country": "FR", "name": "U EXPRESS MALAUCENE", "phone": "0490652242", "website": "https://www.magasins-u.com/magasin/uexpress-malaucene", "opening_hours": "Mo-Th 08:30-19:30; Fr 08:30-18:30; Sa 08:30-19:30; Su 08:30-12:30", "brand": "Systeme U"}, "geometry": {"type": "Point", "coordinates": [5.133, 44.17437]}},
{"type": "Feature", "id": "FyVFQDz6Y-YRRF3zk7MeSMvkNzk=", "properties": {"ref": "hyperu-chateaugiron", "@spider": "systeme_u", "addr:full": "CENTRE COMMERCIAL UNIVER RUE DES COMPTOIRS", "addr:city": "CH\u00c2TEAUGIRON", "addr:postcode": "35410", "addr:country": "FR", "name": "HYPER U CHATEAUGIRON", "phone": "0299374945", "website": "https://www.magasins-u.com/magasin/hyperu-chateaugiron", "opening_hours": "Mo-Sa 08:30-20:00", "brand": "Systeme U"}, "geometry": {"type": "Point", "coordinates": [-1.51465, 48.0436]}},
{"type": "Feature", "id": "r_YTtp-Gujn1SrqOyQCKGWGbVTA=", "properties": {"ref": "uexpress-saintlouis", "@spider": "systeme_u", "addr:full": "BAS DE LA SOURCE SAINT LOUIS", "addr:city": "MARIE GALANTE", "addr:postcode": "97134", "addr:country": "FR", "name": "U EXPRESS ST-LOUIS", "phone": "0590970030", "website": "https://www.magasins-u.com/magasin/uexpress-saintlouis", "opening_hours": "Mo-Sa 08:30-13:00; Su 09:00-13:00", "brand": "Systeme U"}, "geometry": {"type": "Point", "coordinates": [-61.31807, 15.95476]}},
{"type": "Feature", "id": "bXsyYNApPibjSPrB-MklJ-6l5zo=", "properties": {"ref": "superu-labastidesaintpierre", "@spider": "systeme_u", "addr:full": "AVENUE JEAN JAURES", "addr:city": "LABASTIDE ST PIERRE", "addr:postcode": "82370", "addr:country": "FR", "name": "SUPER U LABASTIDE ST PIERRE", "phone": "0563640271", "website": "https://www.magasins-u.com/magasin/superu-labastidesaintpierre", "opening_hours": "Mo-Th 08:30-19:30; Fr 08:30-20:00; Sa 08:30-19:30; Su 08:30-12:15", "brand": "Systeme U"}, "geometry": {"type": "Point", "coordinates": [1.37779, 43.91475]}},
{"type": "Feature", "id": "_HpHBF04NiR0fyoVr4yy14Ks7AY=", "properties": {"ref": "superu-mortagnesursevre", "@spider": "systeme_u", "addr:full": "2 RUE DU SOLEIL LEVANT", "addr:city": "MORTAGNE SUR S\u00c8VRE", "addr:postcode": "85290", "addr:country": "FR", "name": "SUPER U MORTAGNE-SUR-SEVRE", "phone": "0251630404", "website": "https://www.magasins-u.com/magasin/superu-mortagnesursevre", "opening_hours": "Mo-Th 08:45-19:30; Fr 08:45-20:00; Sa 08:45-19:30", "brand": "Systeme U"}, "geometry": {"type": "Point", "coordinates": [-0.94519, 46.99766]}},
{"type": "Feature", "id": "onwtkvHTEzoULL2zppasgj1sNso=", "properties": {"ref": "uexpress-strasbourgrobertsau", "@spider": "systeme_u", "addr:full": "67 RUE BOECKLIN", "addr:city": "STRASBOURG", "addr:postcode": "67000", "addr:country": "FR", "name": "U EXPRESS STRASBOURG ROBERTSAU", "phone": "0388319740", "website": "https://www.magasins-u.com/magasin/uexpress-strasbourgrobertsau", "opening_hours": "Mo-Fr 09:00-20:00; Sa 08:00-19:00", "brand": "Systeme U"}, "geometry": {"type": "Point", "coordinates": [7.7804, 48.60046]}},
{"type": "Feature", "id": "h8DJxhPvjOIYwMAc-5sU6mYRh9Y=", "properties": {"ref": "superu-talange", "@spider": "systeme_u", "addr:full": "Zone commerciale du Triangle", "addr:city": "TALANGE", "addr:postcode": "57525", "addr:country": "FR", "name": "SUPER U TALANGE", "phone": "0387702410", "website": "https://www.magasins-u.com/magasin/superu-talange", "opening_hours": "Mo-Sa 08:30-20:00", "brand": "Systeme U"}, "geometry": {"type": "Point", "coordinates": [6.1725, 49.24123]}},
{"type": "Feature", "id": "J3VIVSdrmLa7PBNJQ8YzAc9LEPE=", "properties": {"ref": "uexpress-grandruestrasbourg", "@spider": "systeme_u", "addr:full": "5 GRAND RUE", "addr:city": "STRASBOURG", "addr:postcode": "67000", "addr:country": "FR", "name": "U EXPRESS STRASBOURG GRAND RUE", "phone": "0388756311", "website": "https://www.magasins-u.com/magasin/uexpress-grandruestrasbourg", "opening_hours": "Mo-Sa 08:00-21:30; Su 09:00-12:45", "brand": "Systeme U"}, "geometry": {"type": "Point", "coordinates": [7.73987, 48.58264]}},
{"type": "Feature", "id": "AbiV4wjS9GBryMl_zsrplPESrgY=", "properties": {"ref": "superu-muzillac", "@spider": "systeme_u", "addr:full": "ZONE COMMERCIALE ESPACE LITTORAL", "addr:city": "MUZILLAC", "addr:postcode": "56190", "addr:country": "FR", "name": "SUPER U MUZILLAC", "phone": "0297414848", "website": "https://www.magasins-u.com/magasin/superu-muzillac", "opening_hours": "Mo-Sa 08:45-19:30", "brand": "Systeme U"}, "geometry": {"type": "Point", "coordinates": [-2.51192, 47.56019]}},
{"type": "Feature", "id": "hfwskyon1hCYheqmeF4v1r9D1is=", "properties": {"ref": "uexpress-saintjunienbrossolette", "@spider": "systeme_u", "addr:country": "FR", "website": "https://www.magasins-u.com/magasin/uexpress-saintjunienbrossolette", "brand": "Systeme U"}},
{"type": "Feature", "id": "48bON5YLWjZF2qPsy03Mhc0uMig=", "properties": {"ref": "superu-monts", "@spider": "systeme_u", "addr:full": "9, RUE DE LA VASSELI\u00c8RE", "addr:city": "MONTS", "addr:postcode": "37260", "addr:country": "FR", "name": "SUPER U MONTS", "phone": "0247267050", "website": "https://www.magasins-u.com/magasin/superu-monts", "opening_hours": "Mo-Sa 09:00-19:30; Su 09:00-12:00", "brand": "Systeme U"}, "geometry": {"type": "Point", "coordinates": [0.64235, 47.27694]}},
{"type": "Feature", "id": "OblOhsFIjVPkUW8QVzcSzk7QGs8=", "properties": {"ref": "uexpress-loudun", "@spider": "systeme_u", "addr:country": "FR", "website": "https://www.magasins-u.com/magasin/uexpress-loudun", "brand": "Systeme U"}},
{"type": "Feature", "id": "2XbtIQ4oWErSL7Q0CTPs-N76qPk=", "properties": {"ref": "uexpress-cholet", "@spider": "systeme_u", "addr:full": "ZAC DE LA SARDINERIE LES ARCADES ROUGE", "addr:city": "CHOLET", "addr:postcode": "49300", "addr:country": "FR", "name": "U EXPRESS CHOLET", "phone": "0241562046", "website": "https://www.magasins-u.com/magasin/uexpress-cholet", "opening_hours": "Mo-Sa 08:30-20:00; Su 09:30-12:30", "brand": "Systeme U"}, "geometry": {"type": "Point", "coordinates": [-0.88417, 47.06127]}},
{"type": "Feature", "id": "VECpfHy-96uSuJQoVhLKWLGqats=", "properties": {"ref": "uexpress-saintaygulf", "@spider": "systeme_u", "addr:full": "1113 AVENUE DE LA CORNICHE D'AZUR", "addr:city": "SAINT AYGULF", "addr:postcode": "83370", "addr:country": "FR", "name": "U EXPRESS SAINT AYGULF", "phone": "0494810142", "website": "https://www.magasins-u.com/magasin/uexpress-saintaygulf", "opening_hours": "Mo-Sa 08:30-19:30; Su 09:00-13:00", "brand": "Systeme U"}, "geometry": {"type": "Point", "coordinates": [6.72326, 43.38634]}},
{"type": "Feature", "id": "-WpT2NRMrGlPGQANpGOww026z80=", "properties": {"ref": "uexpress-ogeulesbains", "@spider": "systeme_u", "addr:full": "Avenue d'OSSAU", "addr:city": "OGEU LES BAINS", "addr:postcode": "64680", "addr:country": "FR", "name": "U EXPRESS OGEU LES BAINS", "phone": "0559349239", "website": "https://www.magasins-u.com/magasin/uexpress-ogeulesbains", "opening_hours": "Mo-Sa 08:30-12:00; Su 08:30-12:30", "brand": "Systeme U"}, "geometry": {"type": "Point", "coordinates": [-0.50787, 43.15348]}},
{"type": "Feature", "id": "93QZrT_iDDbAYWRUpvvSs7YA9YU=", "properties": {"ref": "uexpress-thouars", "@spider": "systeme_u", "addr:country": "FR", "website": "https://www.magasins-u.com/magasin/uexpress-thouars", "brand": "Systeme U"}},
{"type": "Feature", "id": "bZER721RGvxmI4QoJsQsIi-z65E=", "properties": {"ref": "uexpress-caudebecleselbeuf", "@spider": "systeme_u", "addr:country": "FR", "website": "https://www.magasins-u.com/magasin/uexpress-caudebecleselbeuf", "brand": "Systeme U"}},
{"type": "Feature", "id": "JMzH7s1ZwH0ZldsOj3KqcVVFjas=", "properties": {"ref": "uexpress-lemoule", "@spider": "systeme_u", "addr:full": "ANGLE BD ROUG\u00c9 ET RUE DUCHASSAING", "addr:city": "LE MOULE", "addr:postcode": "97160", "addr:country": "FR", "name": "U EXPRESS LE MOULE", "phone": "0590892585", "website": "https://www.magasins-u.com/magasin/uexpress-lemoule", "opening_hours": "Mo-Sa 09:00-19:00", "brand": "Systeme U"}, "geometry": {"type": "Point", "coordinates": [-61.34667, 16.33167]}},
{"type": "Feature", "id": "3_PBJjcbvws8iap083iXjfrw2YI=", "properties": {"ref": "superu-mordelles", "@spider": "systeme_u", "addr:full": "AVENUE DES PLATANES", "addr:city": "MORDELLES", "addr:postcode": "35310", "addr:country": "FR", "name": "SUPER U MORDELLES", "phone": "0299851310", "website": "https://www.magasins-u.com/magasin/superu-mordelles", "opening_hours": "Mo-Sa 08:30-20:00", "brand": "Systeme U"}, "geometry": {"type": "Point", "coordinates": [-1.83646, 48.07989]}},
{"type": "Feature", "id": "Pe1KLG4koVa7lfYECGC8gF6cXMU=", "properties": {"ref": "superu-tregastel", "@spider": "systeme_u", "addr:full": "RUE POUL PALUD", "addr:city": "TR\u00c9GASTEL", "addr:postcode": "22730", "addr:country": "FR", "name": "SUPER U TREGASTEL", "phone": "0296234840", "website": "https://www.magasins-u.com/magasin/superu-tregastel", "opening_hours": "Mo-Sa 08:45-19:30", "brand": "Systeme U"}, "geometry": {"type": "Point", "coordinates": [-3.49813, 48.8241]}},
{"type": "Feature", "id": "W4VwfO_My9NrtBHCnTlU4DrRos0=", "properties": {"ref": "uexpress-lepontet", "@spider": "systeme_u", "addr:full": "36 BIS AV CHARLES DE GAULLE", "addr:city": "LE PONTET", "addr:postcode": "84134", "addr:country": "FR", "name": "U EXPRESS LE PONTET", "phone": " ", "website": "https://www.magasins-u.com/magasin/uexpress-lepontet", "opening_hours": "Mo-Th 08:30-19:30; Fr-Sa 08:30-20:00; Su 08:30-13:00", "brand": "Systeme U"}, "geometry": {"type": "Point", "coordinates": [4.85051, 43.95801]}},
{"type": "Feature", "id": "d58Jszq5zRJiCGt2a51lM8m_Vnw=", "properties": {"ref": "hyperu-savenay", "@spider": "systeme_u", "addr:full": "ZAC DE LA COLLERAYE", "addr:city": "SAVENAY", "addr:postcode": "44260", "addr:country": "FR", "name": "HYPER U SAVENAY", "phone": "0240588300", "website": "https://www.magasins-u.com/magasin/hyperu-savenay", "opening_hours": "Mo-Sa 08:30-20:00", "brand": "Systeme U"}, "geometry": {"type": "Point", "coordinates": [-1.93657, 47.37135]}},
{"type": "Feature", "id": "QvtNFsQZJqKBdTcCIIbNk4OdWig=", "properties": {"ref": "uexpress-marignane", "@spider": "systeme_u", "addr:country": "FR", "website": "https://www.magasins-u.com/magasin/uexpress-marignane", "brand": "Systeme U"}},
{"type": "Feature", "id": "BFk6MeZ2CRjFMzNxe440wXGNeaU=", "properties": {"ref": "superu-romille", "@spider": "systeme_u", "addr:full": "2, RUE DE BROC\u00c9LIANDE", "addr:city": "ROMILL\u00c9", "addr:postcode": "35850", "addr:country": "FR", "name": "SUPER U ROMILLE", "phone": "0299682830", "website": "https://www.magasins-u.com/magasin/superu-romille", "opening_hours": "Mo-Sa 08:30-20:00; Su 09:30-12:30", "brand": "Systeme U"}, "geometry": {"type": "Point", "coordinates": [-1.887, 48.21672]}},
{"type": "Feature", "id": "0h_N2SRRSpA2Osc6kPyY-1MpiJ4=", "properties": {"ref": "uexpress-cronenbourg", "@spider": "systeme_u", "addr:full": "26 ALLEE DE L'HOUBLONNIERE", "addr:city": "STRASBOURG", "addr:postcode": "67200", "addr:country": "FR", "name": "U EXPRESS CRONENBOURG", "phone": "0388305430", "website": "https://www.magasins-u.com/magasin/uexpress-cronenbourg", "opening_hours": "Mo-Sa 08:30-20:30; Su 09:00-12:45", "brand": "Systeme U"}, "geometry": {"type": "Point", "coordinates": [7.71397, 48.59336]}},
{"type": "Feature", "id": "XZ9u9rdijiwpD1zZG7DRI1h6i-Q=", "properties": {"ref": "superu-fonbeauzard", "@spider": "systeme_u", "addr:full": "121 ROUTE DE BESSIERES", "addr:city": "FONBEAUZARD", "addr:postcode": "31140", "addr:country": "FR", "name": "SUPER U FONBEAUZARD", "phone": "0562798818", "website": "https://www.magasins-u.com/magasin/superu-fonbeauzard", "opening_hours": "Mo-Sa 08:30-20:00; Su 09:00-12:30", "brand": "Systeme U"}, "geometry": {"type": "Point", "coordinates": [1.44888, 43.68133]}},
{"type": "Feature", "id": "5Ih3HxiQAnGkmQ55CVtbqLcvvHY=", "properties": {"ref": "uexpress-tulette", "@spider": "systeme_u", "addr:full": "ROUTE DE NYONS", "addr:city": "TULETTE", "addr:postcode": "26790", "addr:country": "FR", "name": "U EXPRESS TULETTE", "phone": "0475985403", "website": "https://www.magasins-u.com/magasin/uexpress-tulette", "opening_hours": "Mo-Sa 08:30-19:30; Su 08:30-12:30", "brand": "Systeme U"}, "geometry": {"type": "Point", "coordinates": [4.94265, 44.28774]}},
{"type": "Feature", "id": "0BxOBLyRYv1WmGFGAsgA1XrktFM=", "properties": {"ref": "superu-saintgermaindubois", "@spider": "systeme_u", "addr:full": "ROUTE DE PIERRE DE BRESSE", "addr:city": "ST GERMAIN DU BOIS", "addr:postcode": "71330", "addr:country": "FR", "name": "SUPER U ST GERMAIN DU BOIS", "phone": "0385720378", "website": "https://www.magasins-u.com/magasin/superu-saintgermaindubois", "opening_hours": "Mo-Sa 08:30-19:30; Su 09:00-12:30", "brand": "Systeme U"}, "geometry": {"type": "Point", "coordinates": [5.24315, 46.75532]}},
{"type": "Feature", "id": "L8fTYWhZfM70StxrJEi4Wf5EBIg=", "properties": {"ref": "uexpress-golfejuan", "@spider": "systeme_u", "addr:full": "8 AVENUE DU MIDI", "addr:city": "GOLFE JUAN", "addr:postcode": "06220", "addr:country": "FR", "name": "U EXPRESS GOLFE JUAN", "phone": "0492904455", "website": "https://www.magasins-u.com/magasin/uexpress-golfejuan", "opening_hours": "Mo-Sa 08:00-20:00; Su 08:30-13:00", "brand": "Systeme U"}, "geometry": {"type": "Point", "coordinates": [7.07447, 43.56751]}},
{"type": "Feature", "id": "2O1LDz6bKQsQu0pv6r-i8aqDCOs=", "properties": {"ref": "uexpress-ruffieux", "@spider": "systeme_u", "addr:full": "ZONE ARTISANALE DE SAUMONT", "addr:city": "RUFFIEUX", "addr:postcode": "73310", "addr:country": "FR", "name": "U EXPRESS RUFFIEUX", "phone": "0479540423", "website": "https://www.magasins-u.com/magasin/uexpress-ruffieux", "opening_hours": "Mo-Sa 08:30-19:30; Su 08:45-12:00", "brand": "Systeme U"}, "geometry": {"type": "Point", "coordinates": [5.8378, 45.84942]}},
{"type": "Feature", "id": "w22Slr7qt4ssrhIh667ae-iGQAw=", "properties": {"ref": "uexpress-venelles", "@spider": "systeme_u", "addr:full": "RUE DES ECOLES", "addr:city": "VENELLES", "addr:postcode": "13770", "addr:country": "FR", "name": "U EXPRESS VENELLES", "phone": "0442547278", "website": "https://www.magasins-u.com/magasin/uexpress-venelles", "opening_hours": "Mo-Sa 08:30-20:00; Su 08:30-12:45", "brand": "Systeme U"}, "geometry": {"type": "Point", "coordinates": [5.48335, 43.59881]}},
{"type": "Feature", "id": "MdS2Z0N5Ab8ZCxOdhg0NeTuTvOM=", "properties": {"ref": "superu-mandeure", "@spider": "systeme_u", "addr:full": "15 rue de Beaulieu", "addr:city": "MANDEURE", "addr:postcode": "25350", "addr:country": "FR", "name": "SUPER U MANDEURE", "phone": "0381363465", "website": "https://www.magasins-u.com/magasin/superu-mandeure", "opening_hours": "Mo-Sa 08:30-19:30; Su 09:00-12:30", "brand": "Systeme U"}, "geometry": {"type": "Point", "coordinates": [6.81367, 47.44736]}},
{"type": "Feature", "id": "y7n_NCfe38vGiU__kiU1xM54QXk=", "properties": {"ref": "superu-vagney", "@spider": "systeme_u", "addr:full": "11B RUE DU GENERAL DE GAULLE", "addr:city": "VAGNEY", "addr:postcode": "88125", "addr:country": "FR", "name": "SUPER U VAGNEY", "phone": "0329248590", "website": "https://www.magasins-u.com/magasin/superu-vagney", "opening_hours": "Mo-Sa 08:30-19:30; Su 09:00-12:00", "brand": "Systeme U"}, "geometry": {"type": "Point", "coordinates": [6.71559, 48.0122]}},
{"type": "Feature", "id": "4CKJpysjbnNhV6LSehVgKN0Qlzo=", "properties": {"ref": "superu-saumur", "@spider": "systeme_u", "addr:full": "RUE DU CLOS COUTARD", "addr:city": "SAUMUR", "addr:postcode": "49400", "addr:country": "FR", "name": "SUPER U SAUMUR", "phone": "0241510569", "website": "https://www.magasins-u.com/magasin/superu-saumur", "opening_hours": "Mo-Sa 08:30-19:30; Su 08:30-12:30", "brand": "Systeme U"}, "geometry": {"type": "Point", "coordinates": [-0.06881, 47.25125]}},
{"type": "Feature", "id": "qyC28fpaBBmUYiIX1nihsgbVKzg=", "properties": {"ref": "superu-montarnaud", "@spider": "systeme_u", "addr:full": "ZAC DU PRADAS RUE MARTIN LUTHER KING", "addr:city": "MONTARNAUD", "addr:postcode": "34570", "addr:country": "FR", "name": "SUPER U MONTARNAUD PRADAS", "phone": "0467609451", "website": "https://www.magasins-u.com/magasin/superu-montarnaud", "opening_hours": "Mo-Sa 08:30-20:00; Su 08:30-12:30", "brand": "Systeme U"}, "geometry": {"type": "Point", "coordinates": [3.69571, 43.64276]}},
{"type": "Feature", "id": "5_MpjqbzSpOGbCoOYflIYhcWSBI=", "properties": {"ref": "superu-nozay", "@spider": "systeme_u", "addr:full": "ZONE DU PONTRAIT 15, BD DU PETIT VERSAILLES", "addr:city": "NOZAY", "addr:postcode": "44170", "addr:country": "FR", "name": "SUPER U NOZAY", "phone": "0240794090", "website": "https://www.magasins-u.com/magasin/superu-nozay", "opening_hours": "Mo-Th 08:45-19:30; Fr 08:45-20:00; Sa 08:45-19:30", "brand": "Systeme U"}, "geometry": {"type": "Point", "coordinates": [-1.62903, 47.57234]}},
{"type": "Feature", "id": "oqZnAmqhMdAhMxoYl3Tw_R-Qa0E=", "properties": {"ref": "hyperu-neuillysurmarne", "@spider": "systeme_u", "addr:full": "25 AVENUE JEAN JAURES LA POINTE DE GOURNAY", "addr:city": "NEUILLY SUR MARNE", "addr:postcode": "93330", "addr:country": "FR", "name": "HYPER U NEUILLY S/M PTE GOURNAY", "phone": "0143094040", "website": "https://www.magasins-u.com/magasin/hyperu-neuillysurmarne", "opening_hours": "Mo-Sa 08:00-20:30; Su 08:00-13:00", "brand": "Systeme U"}, "geometry": {"type": "Point", "coordinates": [2.54563, 48.86289]}},
{"type": "Feature", "id": "RQ4uKpn7_UdZAx2fXqOs4f3dWBY=", "properties": {"ref": "superu-lechesnay", "@spider": "systeme_u", "addr:full": "54 RUE POTTIER", "addr:city": "LE CHESNAY", "addr:postcode": "78150", "addr:country": "FR", "name": "SUPER U LE CHESNAY POTTIER", "phone": "0139548760", "website": "https://www.magasins-u.com/magasin/superu-lechesnay", "opening_hours": "Mo-Sa 08:30-20:15; Su 08:30-12:45", "brand": "Systeme U"}, "geometry": {"type": "Point", "coordinates": [2.12564, 48.82757]}},
{"type": "Feature", "id": "MjYBD6wim1EwcWRPi2DGt_IKDFE=", "properties": {"ref": "uexpress-lesmages", "@spider": "systeme_u", "addr:full": "LE VILLAGE", "addr:city": "LES MAGES", "addr:postcode": "30960", "addr:country": "FR", "name": "U EXPRESS LES MAGES", "phone": "0466247704", "website": "https://www.magasins-u.com/magasin/uexpress-lesmages", "opening_hours": "Mo-Sa 08:30-20:00; Su 09:00-13:00", "brand": "Systeme U"}, "geometry": {"type": "Point", "coordinates": [4.16376, 44.22625]}},
{"type": "Feature", "id": "zGpdbiN-_WKpQ9P_j6gzGnM4Jrs=", "properties": {"ref": "superu-bompas", "@spider": "systeme_u", "addr:full": "ROUTE DE TORREILLES", "addr:city": "BOMPAS", "addr:postcode": "66430", "addr:country": "FR", "name": "SUPER U BOMPAS", "phone": "0468632001", "website": "https://www.magasins-u.com/magasin/superu-bompas", "opening_hours": "Mo-Sa 08:30-19:30; Su 08:30-12:30", "brand": "Systeme U"}, "geometry": {"type": "Point", "coordinates": [2.93283, 42.72123]}},
{"type": "Feature", "id": "vWjr2RZZ6pSMXoVteJF0P-uP4sw=", "properties": {"ref": "superu-verdunsurgaronne", "@spider": "systeme_u", "addr:full": "ROUTE DE MAS GRENIER", "addr:city": "VERDUN/GARONNE", "addr:postcode": "82600", "addr:country": "FR", "name": "SUPER U VERDUN S/GARONNE", "phone": "0563643732", "website": "https://www.magasins-u.com/magasin/superu-verdunsurgaronne", "opening_hours": "Mo-Sa 08:30-20:00; Su 09:00-12:30", "brand": "Systeme U"}, "geometry": {"type": "Point", "coordinates": [1.22946, 43.85362]}},
{"type": "Feature", "id": "Um8aATYHuuAJ1_9-KGunupgITRI=", "properties": {"ref": "superu-lachatre", "@spider": "systeme_u", "addr:full": "AVENUE D'AUVERGNE", "addr:city": "LA CH\u00c2TRE", "addr:postcode": "36400", "addr:country": "FR", "name": "SUPER U LA CHATRE", "phone": "0254621621", "website": "https://www.magasins-u.com/magasin/superu-lachatre", "opening_hours": "Mo-Sa 08:30-19:30", "brand": "Systeme U"}, "geometry": {"type": "Point", "coordinates": [2.00236, 46.5824]}},
{"type": "Feature", "id": "6xPjkReWgNSAsHM03xzDHSZpYss=", "properties": {"ref": "superu-saintemereeglise", "@spider": "systeme_u", "addr:full": "ZA DES CRUTELLES", "addr:city": "STE MERE EGLISE", "addr:postcode": "50480", "addr:country": "FR", "name": "SUPER U STE MERE EGLISE", "phone": "0233413095", "website": "https://www.magasins-u.com/magasin/superu-saintemereeglise", "opening_hours": "Mo-Sa 08:30-19:30", "brand": "Systeme U"}, "geometry": {"type": "Point", "coordinates": [-1.32351, 49.40344]}},
{"type": "Feature", "id": "ZYbaZq3YouwVMvrvikf2pZ95W0k=", "properties": {"ref": "superu-evreux", "@spider": "systeme_u", "addr:full": "4 PLACE DE LA R\u00c9PUBLIQUE", "addr:city": "EVREUX", "addr:postcode": "27000", "addr:country": "FR", "name": "SUPER U EVREUX", "phone": "0232393100", "website": "https://www.magasins-u.com/magasin/superu-evreux", "opening_hours": "Mo-Sa 08:30-20:00; Su 09:00-12:30", "brand": "Systeme U"}, "geometry": {"type": "Point", "coordinates": [1.15785, 49.02627]}},
{"type": "Feature", "id": "cP8B7wsMyuqsKO9k4vibTeGlLx0=", "properties": {"ref": "uexpress-graveson", "@spider": "systeme_u", "addr:full": "PLACE DU MARCHE", "addr:city": "GRAVESON", "addr:postcode": "13690", "addr:country": "FR", "name": "U EXPRESS GRAVESON", "phone": "0490958350", "website": "https://www.magasins-u.com/magasin/uexpress-graveson", "opening_hours": "Mo 08:30-20:00; Tu 08:30-12:30; We-Sa 08:30-20:00; Su 09:00-13:00", "brand": "Systeme U"}, "geometry": {"type": "Point", "coordinates": [4.77598, 43.85012]}},
{"type": "Feature", "id": "--VSSPmTOeCn3ZbD5zDrmXB4L7c=", "properties": {"ref": "superu-cavignac", "@spider": "systeme_u", "addr:full": "LE BOURG", "addr:city": "CAVIGNAC", "addr:postcode": "33620", "addr:country": "FR", "name": "SUPER U CAVIGNAC", "phone": "0557681120", "website": "https://www.magasins-u.com/magasin/superu-cavignac", "opening_hours": "Mo-Sa 08:30-20:00; Su 08:30-12:30", "brand": "Systeme U"}, "geometry": {"type": "Point", "coordinates": [-0.38737, 45.09537]}},
{"type": "Feature", "id": "8EhEvpbgs_L1g6ZkpKD98SysYHQ=", "properties": {"ref": "uexpress-lafrettesurseine", "@spider": "systeme_u", "addr:full": "4 PLACE DE LA GARE", "addr:city": "LA FRETTE SUR SEINE", "addr:postcode": "95530", "addr:country": "FR", "name": "U EXPRESS LA FRETTE SUR SEINE", "phone": "0130405600", "website": "https://www.magasins-u.com/magasin/uexpress-lafrettesurseine", "opening_hours": "Mo-Sa 08:30-20:00; Su 09:00-12:45", "brand": "Systeme U"}, "geometry": {"type": "Point", "coordinates": [2.18026, 48.98036]}},
{"type": "Feature", "id": "0JOHGlySx1cliRk9Apo366v7eEs=", "properties": {"ref": "superu-senneceylesdijon", "@spider": "systeme_u", "addr:full": "Route de Chevigny", "addr:city": "SENNECEY LES DIJON", "addr:postcode": "21800", "addr:country": "FR", "name": "SUPER U SENNECEY LES DIJON", "phone": "0380726720", "website": "https://www.magasins-u.com/magasin/superu-senneceylesdijon", "opening_hours": "Mo-Sa 08:30-20:00; Su 09:00-12:30", "brand": "Systeme U"}, "geometry": {"type": "Point", "coordinates": [5.10013, 47.29084]}},
{"type": "Feature", "id": "9LIHqaOp9sprWSvDKD0H3haWf1s=", "properties": {"ref": "uexpress-mentongaravan", "@spider": "systeme_u", "addr:full": "TERRE PLEIN NOUVEAU PORT GARAVAN", "addr:city": "MENTON", "addr:postcode": "06500", "addr:country": "FR", "name": "U EXPRESS MENTON GARAVAN", "phone": "04.92.41.74.10", "website": "https://www.magasins-u.com/magasin/uexpress-mentongaravan", "opening_hours": "Mo-Sa 08:45-19:30", "brand": "Systeme U"}, "geometry": {"type": "Point", "coordinates": [7.51386, 43.78267]}},
{"type": "Feature", "id": "zwVnahDjwiiqhPM0iOEub8UowNQ=", "properties": {"ref": "superu-marseillesakakini", "@spider": "systeme_u", "addr:full": "95 BD SAKAKINI", "addr:city": "MARSEILLE", "addr:postcode": "13005", "addr:country": "FR", "name": "SUPER U MARSEILLE SAKAKINI", "phone": "0496121300", "website": "https://www.magasins-u.com/magasin/superu-marseillesakakini", "opening_hours": "Mo-Sa 08:30-20:00; Su 09:00-13:00", "brand": "Systeme U"}, "geometry": {"type": "Point", "coordinates": [5.40172, 43.29389]}},
{"type": "Feature", "id": "Om6KmGWvETWaEF2GqOK2Q-D1D9o=", "properties": {"ref": "uexpress-ablis", "@spider": "systeme_u", "addr:full": "1 & 3 RUE DE BOINVILLE 18 RUE DE LA CASTAIGNE", "addr:city": "ABLIS", "addr:postcode": "78660", "addr:country": "FR", "name": "U EXPRESS ABLIS", "phone": "0130880438", "website": "https://www.magasins-u.com/magasin/uexpress-ablis", "opening_hours": "Mo-Fr 09:00-13:00; Sa 09:00-20:00; Su 09:00-13:00", "brand": "Systeme U"}, "geometry": {"type": "Point", "coordinates": [1.83769, 48.51511]}}]}