{"type":"FeatureCollection","features":[{"type": "Feature", "id": "3_gRaQjWw7TJPMeApLyY8bfNR-U=", "properties": {"ref": "https://locations.tacojohns.com/ny/jamaica/john-f--kennedy-international-airport.html", "@spider": "taco_johns", "addr:full": "John F. Kennedy International Airport", "addr:city": "Jamaica", "addr:state": "NY", "addr:postcode": "11430", "addr:country": "USA", "name": "Taco John's", "phone": "(800) 854-0819", "website": "https://locations.tacojohns.com/ny/jamaica/john-f--kennedy-international-airport.html"}, "geometry": {"type": "Point", "coordinates": [-73.790735, 40.642866]}},
{"type": "Feature", "id": "t9GmtkuUnu4J5vwSdLlS0c0guYc=", "properties": {"ref": "https://locations.tacojohns.com/nv/reno/770-s-wells-ave.html", "@spider": "taco_johns", "addr:full": "770 S Wells Ave", "addr:city": "Reno", "addr:state": "NV", "addr:postcode": "89502", "addr:country": "USA", "name": "Taco John's", "phone": "(775) 786-8422", "website": "https://locations.tacojohns.com/nv/reno/770-s-wells-ave.html"}, "geometry": {"type": "Point", "coordinates": [-119.80286883564986, 39.518638176676525]}},
{"type": "Feature", "id": "JojmHdcQYR0P9cmhEJUelCNK2J8=", "properties": {"ref": "https://locations.tacojohns.com/ar/russellville/1819-east-main-st.html", "@spider": "taco_johns", "addr:full": "1819 East Main St", "addr:city": "Russellville", "addr:state": "AR", "addr:postcode": "72801", "addr:country": "USA", "name": "Taco John's", "phone": "(479) 280-1932", "website": "https://locations.tacojohns.com/ar/russellville/1819-east-main-st.html"}, "geometry": {"type": "Point", "coordinates": [-93.1114912033081, 35.278647621479585]}},
{"type": "Feature", "id": "9jrX5b-OpBOWKTOFgt0fIZ58vtk=", "properties": {"ref": "https://locations.tacojohns.com/ut/fillmore/915-south-1100-west.html", "@spider": "taco_johns", "addr:full": "915 South 1100 West", "addr:city": "Fillmore", "addr:state": "UT", "addr:postcode": "84631", "addr:country": "USA", "name": "Taco John's", "phone": "(800) 854-0819", "website": "https://locations.tacojohns.com/ut/fillmore/915-south-1100-west.html"}, "geometry": {"type": "Point", "coordinates": [-112.3535439, 38.950318]}},
{"type": "Feature", "id": "92qhBAmAikFl0IDyQoXL83Di1ZE=", "properties": {"ref": "https://locations.tacojohns.com/mt/sidney/724-s-central-ave.html", "@spider": "taco_johns", "addr:full": "724 S Central Ave", "addr:city": "Sidney", "addr:state": "MT", "addr:postcode": "59270", "addr:country": "USA", "name": "Taco John's", "phone": "(406) 433-2295", "website": "https://locations.tacojohns.com/mt/sidney/724-s-central-ave.html"}, "geometry": {"type": "Point", "coordinates": [-104.16122238367973, 47.70873878885482]}},
{"type": "Feature", "id": "-hsYCOseBoHepXn-rU95SoCBki8=", "properties": {"ref": "https://locations.tacojohns.com/mn/worthington/1444-oxford-st.html", "@spider": "taco_johns", "addr:full": "1444 Oxford St", "addr:city": "Worthington", "addr:state": "MN", "addr:postcode": "56187", "addr:country": "USA", "name": "Taco John's", "phone": "(507) 376-6661", "website": "https://locations.tacojohns.com/mn/worthington/1444-oxford-st.html"}, "geometry": {"type": "Point", "coordinates": [-95.59129133820534, 43.63097342565734]}},
{"type": "Feature", "id": "2oQWWlDSwCPczgExpJVzuq5brXY=", "properties": {"ref": "https://locations.tacojohns.com/ky/somerset/2700-south-highway-27.html", "@spider": "taco_johns", "addr:full": "2700 South Highway 27", "addr:city": "Somerset", "addr:state": "KY", "addr:postcode": "42501", "addr:country": "USA", "name": "Taco John's", "phone": "(606) 679-9998", "website": "https://locations.tacojohns.com/ky/somerset/2700-south-highway-27.html"}, "geometry": {"type": "Point", "coordinates": [-84.6235733, 37.0559349]}},
{"type": "Feature", "id": "GJrztyewNRfodfpNx0GHLZ1P0Kg=", "properties": {"ref": "https://locations.tacojohns.com/in/peru/850-n-broadway.html", "@spider": "taco_johns", "addr:full": "850 N Broadway", "addr:city": "Peru", "addr:state": "IN", "addr:postcode": "46970", "addr:country": "USA", "name": "Taco John's", "phone": "(765) 919-4554", "website": "https://locations.tacojohns.com/in/peru/850-n-broadway.html"}, "geometry": {"type": "Point", "coordinates": [-86.0792796, 40.7693905]}},
{"type": "Feature", "id": "5upyUldJNCYDHYbE9LzYilWXhFk=", "properties": {"ref": "https://locations.tacojohns.com/il/rockford/3269-s-alpine-rd.html", "@spider": "taco_johns", "addr:full": "3269 S Alpine Rd", "addr:city": "Rockford", "addr:state": "IL", "addr:postcode": "61109", "addr:country": "USA", "name": "Taco John's", "phone": "(779) 368-0832", "website": "https://locations.tacojohns.com/il/rockford/3269-s-alpine-rd.html"}, "geometry": {"type": "Point", "coordinates": [-89.02938095606066, 42.22773863737194]}},
{"type": "Feature", "id": "CXPTtzlvt4wF37zuHVGZlQKnP5c=", "properties": {"ref": "https://locations.tacojohns.com/id/twin-falls/1643-washington-st-no.html", "@spider": "taco_johns", "addr:full": "1643 Washington St No", "addr:city": "Twin Falls", "addr:state": "ID", "addr:postcode": "83301", "addr:country": "USA", "name": "Taco John's", "phone": "(208) 933-2190", "website": "https://locations.tacojohns.com/id/twin-falls/1643-washington-st-no.html"}, "geometry": {"type": "Point", "coordinates": [-114.48017817002028, 42.590622217099]}},
{"type": "Feature", "id": "zmAYFFTjYVTVZpge5b9lABKUF80=", "properties": {"ref": "https://locations.tacojohns.com/co/windsor/7605-royal-vista-circle.html", "@spider": "taco_johns", "addr:full": "7605 Royal Vista Circle", "addr:city": "Windsor", "addr:state": "CO", "addr:postcode": "80528", "addr:country": "USA", "name": "Taco John's", "phone": "(970) 266-2665", "website": "https://locations.tacojohns.com/co/windsor/7605-royal-vista-circle.html"}, "geometry": {"type": "Point", "coordinates": [-104.98728275299072, 40.47889209278517]}},
{"type": "Feature", "id": "a1_XX8YmRTK8OSHzaLlViirsz4Q=", "properties": {"ref": "https://locations.tacojohns.com/co/westminster/280-w-136th-ave.html", "@spider": "taco_johns", "addr:full": "280 W 136th Ave", "addr:city": "Westminster", "addr:state": "CO", "addr:postcode": "80234", "addr:country": "USA", "name": "Taco John's", "phone": "(720) 728-6886", "website": "https://locations.tacojohns.com/co/westminster/280-w-136th-ave.html"}, "geometry": {"type": "Point", "coordinates": [-104.9926822, 39.9413727]}},
{"type": "Feature", "id": "YjKkEg7Hs6MMdXi4Hpx6ALWbwjI=", "properties": {"ref": "https://locations.tacojohns.com/wy/worland/1001-pulliam-ave.html", "@spider": "taco_johns", "addr:full": "1001 Pulliam Ave", "addr:city": "Worland", "addr:state": "WY", "addr:postcode": "82401", "addr:country": "USA", "name": "Taco John's", "phone": "(307) 347-6429", "website": "https://locations.tacojohns.com/wy/worland/1001-pulliam-ave.html"}, "geometry": {"type": "Point", "coordinates": [-107.95537501573563, 44.019140708259066]}},
{"type": "Feature", "id": "8MeXTgR70GQV13SrP603tMeWGGA=", "properties": {"ref": "https://locations.tacojohns.com/wi/kaukauna/300-east-ann-st.html", "@spider": "taco_johns", "addr:full": "300 East Ann St", "addr:city": "Kaukauna", "addr:state": "WI", "addr:postcode": "54130", "addr:country": "USA", "name": "Taco John's", "phone": "(920) 766-6080", "website": "https://locations.tacojohns.com/wi/kaukauna/300-east-ann-st.html"}, "geometry": {"type": "Point", "coordinates": [-88.2718367, 44.2601669]}},
{"type": "Feature", "id": "mxsOv9DAOuGETz2A3APLo72PbT0=", "properties": {"ref": "https://locations.tacojohns.com/wa/spokane/e-1002-wellesley.html", "@spider": "taco_johns", "addr:full": "E 1002 Wellesley", "addr:city": "Spokane", "addr:state": "WA", "addr:postcode": "99207", "addr:country": "USA", "name": "Taco John's", "phone": "(509) 487-6093", "website": "https://locations.tacojohns.com/wa/spokane/e-1002-wellesley.html"}, "geometry": {"type": "Point", "coordinates": [-117.3945701122284, 47.70045504854438]}},
{"type": "Feature", "id": "lh-ZBpM7PZIKts2kdbXHVdrn6I4=", "properties": {"ref": "https://locations.tacojohns.com/wa/moses-lake/4315-prichard-road.html", "@spider": "taco_johns", "addr:full": "4315 Prichard Road", "addr:city": "Moses Lake", "addr:state": "WA", "addr:postcode": "98837", "addr:country": "USA", "name": "Taco John's", "phone": "(800) 854-0819", "website": "https://locations.tacojohns.com/wa/moses-lake/4315-prichard-road.html"}, "geometry": {"type": "Point", "coordinates": [-119.3405897, 47.1037511]}},
{"type": "Feature", "id": "1nqPuIhSTmzlKobfJyX45Qy2SKU=", "properties": {"ref": "https://locations.tacojohns.com/tn/white-house/1003-hwy-76.html", "@spider": "taco_johns", "addr:full": "1003 Hwy 76", "addr:city": "White House", "addr:state": "TN", "addr:postcode": "37188", "addr:country": "USA", "name": "Taco John's", "phone": "(615) 672-6902", "website": "https://locations.tacojohns.com/tn/white-house/1003-hwy-76.html"}, "geometry": {"type": "Point", "coordinates": [-86.6875444, 36.4678933]}},
{"type": "Feature", "id": "UKbHk6azA1_6bQeVd7bYkCvRGxI=", "properties": {"ref": "https://locations.tacojohns.com/ne/york/3609-s-lincoln-ave.html", "@spider": "taco_johns", "addr:full": "3609 S Lincoln Ave", "addr:city": "York", "addr:state": "NE", "addr:postcode": "68467", "addr:country": "USA", "name": "Taco John's", "phone": "(402) 362-4736", "website": "https://locations.tacojohns.com/ne/york/3609-s-lincoln-ave.html"}, "geometry": {"type": "Point", "coordinates": [-97.59687916315374, 40.82758830258333]}},
{"type": "Feature", "id": "aiCdWQ4f60Ufrxa2AYtQanByV-w=", "properties": {"ref": "https://locations.tacojohns.com/ne/york/1806-lincoln-ave.html", "@spider": "taco_johns", "addr:full": "1806 Lincoln Ave", "addr:city": "York", "addr:state": "NE", "addr:postcode": "68467", "addr:country": "USA", "name": "Taco John's", "phone": "(402) 362-4737", "website": "https://locations.tacojohns.com/ne/york/1806-lincoln-ave.html"}, "geometry": {"type": "Point", "coordinates": [-97.59260455812705, 40.87829317885086]}},
{"type": "Feature", "id": "kRGn5CiQmgPMXYcl3dR9C3L3vgw=", "properties": {"ref": "https://locations.tacojohns.com/mo/st-joseph/6110-lake-ave.html", "@spider": "taco_johns", "addr:full": "6110 Lake Ave", "addr:city": "St Joseph", "addr:state": "MO", "addr:postcode": "64504", "addr:country": "USA", "name": "Taco John's", "phone": "(816) 238-5685", "website": "https://locations.tacojohns.com/mo/st-joseph/6110-lake-ave.html"}, "geometry": {"type": "Point", "coordinates": [-94.87322735043563, 39.712700524516606]}},
{"type": "Feature", "id": "DIBJ8Szvct5PCpdeAtaydWcbRgs=", "properties": {"ref": "https://locations.tacojohns.com/mo/st-joseph/2205-n-belt-highway.html", "@spider": "taco_johns", "addr:full": "2205 N Belt Highway", "addr:city": "St Joseph", "addr:state": "MO", "addr:postcode": "64506", "addr:country": "USA", "name": "Taco John's", "phone": "(816) 364-2131", "website": "https://locations.tacojohns.com/mo/st-joseph/2205-n-belt-highway.html"}, "geometry": {"type": "Point", "coordinates": [-94.80292707681656, 39.784973951031155]}},
{"type": "Feature", "id": "mnV08YFzIvboAzuyz_tARP3cV4g=", "properties": {"ref": "https://locations.tacojohns.com/mo/st-joseph/1315-s-belt-highway.html", "@spider": "taco_johns", "addr:full": "1315 S Belt Highway", "addr:city": "St Joseph", "addr:state": "MO", "addr:postcode": "64507", "addr:country": "USA", "name": "Taco John's", "phone": "(816) 364-3355", "website": "https://locations.tacojohns.com/mo/st-joseph/1315-s-belt-highway.html"}, "geometry": {"type": "Point", "coordinates": [-94.8020607233048, 39.75452716574477]}},
{"type": "Feature", "id": "gIvU6vPsGgNCTCqOwgBZ5_sJTNg=", "properties": {"ref": "https://locations.tacojohns.com/ks/wichita/7107-w--37th-street.html", "@spider": "taco_johns", "addr:full": "7107 W. 37th Street", "addr:city": "Wichita", "addr:state": "KS", "addr:postcode": "67205", "addr:country": "USA", "name": "Taco John's", "phone": "(800) 854-0819", "website": "https://locations.tacojohns.com/ks/wichita/7107-w--37th-street.html"}, "geometry": {"type": "Point", "coordinates": [-97.42580812721701, 37.75169183456649]}},
{"type": "Feature", "id": "Jnwe0mLxeFZYk3YJ01-JTWeEDkc=", "properties": {"ref": "https://locations.tacojohns.com/ia/west-des-moines/7253-vista-dr.html", "@spider": "taco_johns", "addr:full": "7253 Vista Dr", "addr:city": "West Des Moines", "addr:state": "IA", "addr:postcode": "50266", "addr:country": "USA", "name": "Taco John's", "phone": "(515) 457-9100", "website": "https://locations.tacojohns.com/ia/west-des-moines/7253-vista-dr.html"}, "geometry": {"type": "Point", "coordinates": [-93.80735144019127, 41.58957716916364]}},
{"type": "Feature", "id": "1Toj-qOUfbl4AsAZ9--hXiHIozo=", "properties": {"ref": "https://locations.tacojohns.com/ia/west-des-moines/350-grand-ave.html", "@spider": "taco_johns", "addr:full": "350 Grand Ave", "addr:city": "West Des Moines", "addr:state": "IA", "addr:postcode": "50265", "addr:country": "USA", "name": "Taco John's", "phone": "(515) 255-4485", "website": "https://locations.tacojohns.com/ia/west-des-moines/350-grand-ave.html"}, "geometry": {"type": "Point", "coordinates": [-93.70681734110451, 41.58230698109849]}},
{"type": "Feature", "id": "301M4iJCHY-QEix6nRYmEYSDXgY=", "properties": {"ref": "https://locations.tacojohns.com/ks/wichita/656-s-west-st.html", "@spider": "taco_johns", "addr:full": "656 S West St", "addr:city": "Wichita", "addr:state": "KS", "addr:postcode": "67213", "addr:country": "USA", "name": "Taco John's", "phone": "(316) 945-7509", "website": "https://locations.tacojohns.com/ks/wichita/656-s-west-st.html"}, "geometry": {"type": "Point", "coordinates": [-97.38859, 37.67439]}},
{"type": "Feature", "id": "2ZW9g9pelR8Y-Dn_5ygaJ_OmmQw=", "properties": {"ref": "https://locations.tacojohns.com/tn/morristown/2770-w-andrew-johnson-highway.html", "@spider": "taco_johns", "addr:full": "2770 W Andrew Johnson Highway", "addr:city": "Morristown", "addr:state": "TN", "addr:postcode": "37814", "addr:country": "USA", "name": "Taco John's", "phone": "(423) 587-2640", "website": "https://locations.tacojohns.com/tn/morristown/2770-w-andrew-johnson-highway.html"}, "geometry": {"type": "Point", "coordinates": [-83.33317058535613, 36.20202665694531]}},
{"type": "Feature", "id": "5ML3qS0TUWO4N9k26Cr_w70vazc=", "properties": {"ref": "https://locations.tacojohns.com/tn/elizabethton/601-broad-st.html", "@spider": "taco_johns", "addr:full": "601 Broad St", "addr:city": "Elizabethton", "addr:state": "TN", "addr:postcode": "37643", "addr:country": "USA", "name": "Taco John's", "phone": "(423) 543-4999", "website": "https://locations.tacojohns.com/tn/elizabethton/601-broad-st.html"}, "geometry": {"type": "Point", "coordinates": [-82.21529468893999, 36.35194628787764]}},
{"type": "Feature", "id": "d7AmhIpOTk8DK555GT8YA60xZM8=", "properties": {"ref": "https://locations.tacojohns.com/tn/dover/415-donelson-pkwy.html", "@spider": "taco_johns", "addr:full": "415 Donelson Pkwy", "addr:city": "Dover", "addr:state": "TN", "addr:postcode": "37058", "addr:country": "USA", "name": "Taco John's", "phone": "(931) 634-8050", "website": "https://locations.tacojohns.com/tn/dover/415-donelson-pkwy.html"}, "geometry": {"type": "Point", "coordinates": [-87.8405961, 36.4869679]}},
{"type": "Feature", "id": "A4QSmC6xPk8jpzWl5aLhfH37RJw=", "properties": {"ref": "https://locations.tacojohns.com/tn/clarksville/955-n--riverside-drive.html", "@spider": "taco_johns", "addr:full": "955 N. Riverside Drive", "addr:city": "Clarksville", "addr:state": "TN", "addr:postcode": "37040", "addr:country": "USA", "name": "Taco John's", "phone": "(800) 854-0819", "website": "https://locations.tacojohns.com/tn/clarksville/955-n--riverside-drive.html"}, "geometry": {"type": "Point", "coordinates": [-87.366083, 36.538779]}},
{"type": "Feature", "id": "YI9QTJgeTyDCeMt3TfnK0MBQsNA=", "properties": {"ref": "https://locations.tacojohns.com/wa/kennewick/701-vineyard-dr.html", "@spider": "taco_johns", "addr:full": "701 Vineyard Dr", "addr:city": "Kennewick", "addr:state": "WA", "addr:postcode": "99336", "addr:country": "USA", "name": "Taco John's", "phone": "(509) 586-2964", "website": "https://locations.tacojohns.com/wa/kennewick/701-vineyard-dr.html"}, "geometry": {"type": "Point", "coordinates": [-119.12767007946968, 46.206848143393046]}},
{"type": "Feature", "id": "KTxD8WCc70zYiLrYa23D_-I4Mmc=", "properties": {"ref": "https://locations.tacojohns.com/wi/wittenberg/412-n-genesee-st.html", "@spider": "taco_johns", "addr:full": "412 N Genesee St", "addr:city": "Wittenberg", "addr:state": "WI", "addr:postcode": "54499", "addr:country": "USA", "name": "Taco John's", "phone": "(715) 253-2340", "website": "https://locations.tacojohns.com/wi/wittenberg/412-n-genesee-st.html"}, "geometry": {"type": "Point", "coordinates": [-89.1685791, 44.8316802]}},
{"type": "Feature", "id": "hG3sdbqNK9vuamSS64AnnpdXsJE=", "properties": {"ref": "https://locations.tacojohns.com/wi/wisconsin-rapids/610-e-grand-ave.html", "@spider": "taco_johns", "addr:full": "610 E Grand Ave", "addr:city": "Wisconsin Rapids", "addr:state": "WI", "addr:postcode": "54494", "addr:country": "USA", "name": "Taco John's", "phone": "(715) 421-0602", "website": "https://locations.tacojohns.com/wi/wisconsin-rapids/610-e-grand-ave.html"}, "geometry": {"type": "Point", "coordinates": [-89.81908634305, 44.38790482455414]}},
{"type": "Feature", "id": "TcF9biH5T0cswQN750OZHThr0D4=", "properties": {"ref": "https://locations.tacojohns.com/wi/wautoma/w7684-state-rd-21.html", "@spider": "taco_johns", "addr:full": "W7684 State Rd 21", "addr:city": "Wautoma", "addr:state": "WI", "addr:postcode": "54982", "addr:country": "USA", "name": "Taco John's", "phone": "(920) 787-1050", "website": "https://locations.tacojohns.com/wi/wautoma/w7684-state-rd-21.html"}, "geometry": {"type": "Point", "coordinates": [-89.266415, 44.068624]}},
{"type": "Feature", "id": "n13rRvNzCX-iKXpJuKEdzXwjf6I=", "properties": {"ref": "https://locations.tacojohns.com/wi/waukesha/317-n-grand-ave.html", "@spider": "taco_johns", "addr:full": "317 N Grand Ave", "addr:city": "Waukesha", "addr:state": "WI", "addr:postcode": "53186", "addr:country": "USA", "name": "Taco John's", "phone": "(262) 524-9898", "website": "https://locations.tacojohns.com/wi/waukesha/317-n-grand-ave.html"}, "geometry": {"type": "Point", "coordinates": [-88.23136746883392, 43.006383026447274]}},
{"type": "Feature", "id": "a9-m1XOR2VzcFiKMk6lcv3wl9nU=", "properties": {"ref": "https://locations.tacojohns.com/wi/superior/2437-tower-ave.html", "@spider": "taco_johns", "addr:full": "2437 Tower Ave", "addr:city": "Superior", "addr:state": "WI", "addr:postcode": "54880", "addr:country": "USA", "name": "Taco John's", "phone": "(715) 395-1725", "website": "https://locations.tacojohns.com/wi/superior/2437-tower-ave.html"}, "geometry": {"type": "Point", "coordinates": [-92.10463419556618, 46.708176299914406]}},
{"type": "Feature", "id": "3CIpOwOMHOwowFuO06-RQSVUxU0=", "properties": {"ref": "https://locations.tacojohns.com/wi/stevens-point/1616-academy-ave.html", "@spider": "taco_johns", "addr:full": "1616 Academy Ave", "addr:city": "Stevens Point", "addr:state": "WI", "addr:postcode": "54481", "addr:country": "USA", "name": "Taco John's", "phone": "(715) 544-4402", "website": "https://locations.tacojohns.com/wi/stevens-point/1616-academy-ave.html"}, "geometry": {"type": "Point", "coordinates": [-89.5756, 44.5361]}},
{"type": "Feature", "id": "SWphbfrbR9sxflbn5U2GPWQG7yQ=", "properties": {"ref": "https://locations.tacojohns.com/wi/schofield/5512-us-highway-51-s.html", "@spider": "taco_johns", "addr:full": "5512 US Highway 51 S", "addr:city": "Schofield", "addr:state": "WI", "addr:postcode": "54476", "addr:country": "USA", "name": "Taco John's", "phone": "(715) 298-3413", "website": "https://locations.tacojohns.com/wi/schofield/5512-us-highway-51-s.html"}, "geometry": {"type": "Point", "coordinates": [-89.60627049207687, 44.90683535836392]}},
{"type": "Feature", "id": "Yv2uYsjIgPco_lJ0Ws19OvDlQr8=", "properties": {"ref": "https://locations.tacojohns.com/wi/rice-lake/2941-s-decker-dr.html", "@spider": "taco_johns", "addr:full": "2941 S Decker Dr", "addr:city": "Rice Lake", "addr:state": "WI", "addr:postcode": "54868", "addr:country": "USA", "name": "Taco John's", "phone": "(715) 234-3011", "website": "https://locations.tacojohns.com/wi/rice-lake/2941-s-decker-dr.html"}, "geometry": {"type": "Point", "coordinates": [-91.75254464149475, 45.472383257542084]}},
{"type": "Feature", "id": "8wtfKylvwux86Lr743KrowVwCS0=", "properties": {"ref": "https://locations.tacojohns.com/wi/rhinelander/2141-lincoln-st.html", "@spider": "taco_johns", "addr:full": "2141 Lincoln St", "addr:city": "Rhinelander", "addr:state": "WI", "addr:postcode": "54501", "addr:country": "USA", "name": "Taco John's", "phone": "(715) 362-7996", "website": "https://locations.tacojohns.com/wi/rhinelander/2141-lincoln-st.html"}, "geometry": {"type": "Point", "coordinates": [-89.38243972512282, 45.63376984815254]}},
{"type": "Feature", "id": "dxy-rHmQYXpPzNlwQAL6-T6G6pU=", "properties": {"ref": "https://locations.tacojohns.com/wi/platteville/1465-e-business-highway-151.html", "@spider": "taco_johns", "addr:full": "1465 E Business Highway 151", "addr:city": "Platteville", "addr:state": "WI", "addr:postcode": "53818", "addr:country": "USA", "name": "Taco John's", "phone": "(608) 348-5400", "website": "https://locations.tacojohns.com/wi/platteville/1465-e-business-highway-151.html"}, "geometry": {"type": "Point", "coordinates": [-90.4538069665432, 42.732495744295576]}},
{"type": "Feature", "id": "DvM92Csdj5Sh9WJltJM67xrb3Eo=", "properties": {"ref": "https://locations.tacojohns.com/wi/osseo/12910-cox-lane.html", "@spider": "taco_johns", "addr:full": "12910 Cox Lane", "addr:city": "Osseo", "addr:state": "WI", "addr:postcode": "54758", "addr:country": "USA", "name": "Taco John's", "phone": "(715) 597-6819", "website": "https://locations.tacojohns.com/wi/osseo/12910-cox-lane.html"}, "geometry": {"type": "Point", "coordinates": [-91.20933830738068, 44.57979247301117]}},
{"type": "Feature", "id": "_dVTkc1F3doVv5GYdMmCI6uhUUA=", "properties": {"ref": "https://locations.tacojohns.com/wi/oshkosh/105-n-sawyer-st.html", "@spider": "taco_johns", "addr:full": "105 N Sawyer St", "addr:city": "Oshkosh", "addr:state": "WI", "addr:postcode": "54902", "addr:country": "USA", "name": "Taco John's", "phone": "(920) 230-8226", "website": "https://locations.tacojohns.com/wi/oshkosh/105-n-sawyer-st.html"}, "geometry": {"type": "Point", "coordinates": [-88.56783449649811, 44.01815315589568]}},
{"type": "Feature", "id": "P4e7radLhTYwfK4EzBH5ulbe3q8=", "properties": {"ref": "https://locations.tacojohns.com/wi/monona/6305-monona-dr.html", "@spider": "taco_johns", "addr:full": "6305 Monona Dr", "addr:city": "Monona", "addr:state": "WI", "addr:postcode": "53716", "addr:country": "USA", "name": "Taco John's", "phone": "(608) 221-4622", "website": "https://locations.tacojohns.com/wi/monona/6305-monona-dr.html"}, "geometry": {"type": "Point", "coordinates": [-89.32553440332413, 43.04989783348944]}},
{"type": "Feature", "id": "8URCMyhjeSZGKNdQ8Og2lAqcWio=", "properties": {"ref": "https://locations.tacojohns.com/wi/menomonie/1526-broadway-st-n.html", "@spider": "taco_johns", "addr:full": "1526 Broadway St N", "addr:city": "Menomonie", "addr:state": "WI", "addr:postcode": "54751", "addr:country": "USA", "name": "Taco John's", "phone": "(715) 235-4477", "website": "https://locations.tacojohns.com/wi/menomonie/1526-broadway-st-n.html"}, "geometry": {"type": "Point", "coordinates": [-91.93126919122733, 44.900587382965895]}},
{"type": "Feature", "id": "4cZ1kw6X2C6pte6ZU87P4Z58-0c=", "properties": {"ref": "https://locations.tacojohns.com/wi/marshfield/813-n-central-ave.html", "@spider": "taco_johns", "addr:full": "813 N Central Ave", "addr:city": "Marshfield", "addr:state": "WI", "addr:postcode": "54449", "addr:country": "USA", "name": "Taco John's", "phone": "(715) 387-4884", "website": "https://locations.tacojohns.com/wi/marshfield/813-n-central-ave.html"}, "geometry": {"type": "Point", "coordinates": [-90.16750084610976, 44.6746512812014]}},
{"type": "Feature", "id": "qDOoSUNPvHDRk71RB5jf2_1GHs0=", "properties": {"ref": "https://locations.tacojohns.com/wi/lake-hallie/2982-commercial-blvd.html", "@spider": "taco_johns", "addr:full": "2982 Commercial Blvd", "addr:city": "Lake Hallie", "addr:state": "WI", "addr:postcode": "54729", "addr:country": "USA", "name": "Taco John's", "phone": "(715) 726-2335", "website": "https://locations.tacojohns.com/wi/lake-hallie/2982-commercial-blvd.html"}, "geometry": {"type": "Point", "coordinates": [-91.41937617790984, 44.88602830264141]}},
{"type": "Feature", "id": "KD7c7tZ6c9--yE0mKciaIaO9St8=", "properties": {"ref": "https://locations.tacojohns.com/wi/janesville/2821-milton-ave.html", "@spider": "taco_johns", "addr:full": "2821 Milton Ave", "addr:city": "Janesville", "addr:state": "WI", "addr:postcode": "53545", "addr:country": "USA", "name": "Taco John's", "phone": "(608) 563-2096", "website": "https://locations.tacojohns.com/wi/janesville/2821-milton-ave.html"}, "geometry": {"type": "Point", "coordinates": [-88.99933144947892, 42.71755079194605]}},
{"type": "Feature", "id": "O08CqMOKUP5IHF1ny6feqdwjpDE=", "properties": {"ref": "https://locations.tacojohns.com/wi/hudson/710-11th-st-s.html", "@spider": "taco_johns", "addr:full": "710 11th St S", "addr:city": "Hudson", "addr:state": "WI", "addr:postcode": "54016", "addr:country": "USA", "name": "Taco John's", "phone": "(715) 386-5522", "website": "https://locations.tacojohns.com/wi/hudson/710-11th-st-s.html"}, "geometry": {"type": "Point", "coordinates": [-92.74335667490959, 44.96361086098414]}},
{"type": "Feature", "id": "RIMMkR58CNu7dYeHVU8PKJu_ES4=", "properties": {"ref": "https://locations.tacojohns.com/wi/fond-du-lac/84-north-main-st.html", "@spider": "taco_johns", "addr:full": "84 North Main St", "addr:city": "Fond du Lac", "addr:state": "WI", "addr:postcode": "54935", "addr:country": "USA", "name": "Taco John's", "phone": "(920) 922-4400", "website": "https://locations.tacojohns.com/wi/fond-du-lac/84-north-main-st.html"}, "geometry": {"type": "Point", "coordinates": [-88.4473805129528, 43.781591581674604]}},
{"type": "Feature", "id": "XqdqYJyrtDx5sH9YOb2ge-O7EBE=", "properties": {"ref": "https://locations.tacojohns.com/wi/edgerton/11180-goede-rd.html", "@spider": "taco_johns", "addr:full": "11180 Goede Rd", "addr:city": "Edgerton", "addr:state": "WI", "addr:postcode": "53534", "addr:country": "USA", "name": "Taco John's", "phone": "(608) 884-0196", "website": "https://locations.tacojohns.com/wi/edgerton/11180-goede-rd.html"}, "geometry": {"type": "Point", "coordinates": [-89.024564, 42.8356358]}},
{"type": "Feature", "id": "yfUI3IJEzGa8M4e6k-YESomgY8g=", "properties": {"ref": "https://locations.tacojohns.com/wi/eau-claire/2001-brackett-ave.html", "@spider": "taco_johns", "addr:full": "2001 Brackett Ave", "addr:city": "Eau Claire", "addr:state": "WI", "addr:postcode": "54701", "addr:country": "USA", "name": "Taco John's", "phone": "(715) 834-0031", "website": "https://locations.tacojohns.com/wi/eau-claire/2001-brackett-ave.html"}, "geometry": {"type": "Point", "coordinates": [-91.47303164005285, 44.79964535097243]}},
{"type": "Feature", "id": "eofqTejP3WnhBqCMo6br1t5p3fg=", "properties": {"ref": "https://locations.tacojohns.com/wi/chippewa-falls/257-w-prairie-view-rd.html", "@spider": "taco_johns", "addr:full": "257 W Prairie View Rd", "addr:city": "Chippewa Falls", "addr:state": "WI", "addr:postcode": "54729", "addr:country": "USA", "name": "Taco John's", "phone": "(715) 723-5011", "website": "https://locations.tacojohns.com/wi/chippewa-falls/257-w-prairie-view-rd.html"}, "geometry": {"type": "Point", "coordinates": [-91.39089836384107, 44.913031960756065]}},
{"type": "Feature", "id": "jJYAw6OYbAnQdJxWST9kACI0Jw0=", "properties": {"ref": "https://locations.tacojohns.com/wi/black-river-falls/400-oasis-rd.html", "@spider": "taco_johns", "addr:full": "400 Oasis Rd", "addr:city": "Black River Falls", "addr:state": "WI", "addr:postcode": "54615", "addr:country": "USA", "name": "Taco John's", "phone": "(715) 284-3010", "website": "https://locations.tacojohns.com/wi/black-river-falls/400-oasis-rd.html"}, "geometry": {"type": "Point", "coordinates": [-90.82033485174179, 44.296267608270995]}},
{"type": "Feature", "id": "RSmqPAUB6hWxc5lQ6rX03AEGH48=", "properties": {"ref": "https://locations.tacojohns.com/wi/beloit/147-liberty-ave.html", "@spider": "taco_johns", "addr:full": "147 Liberty Ave", "addr:city": "Beloit", "addr:state": "WI", "addr:postcode": "53511", "addr:country": "USA", "name": "Taco John's", "phone": "(608) 365-7055", "website": "https://locations.tacojohns.com/wi/beloit/147-liberty-ave.html"}, "geometry": {"type": "Point", "coordinates": [-89.03825104236608, 42.51138181257235]}},
{"type": "Feature", "id": "DTUBSs26KMcpBXwUfLl-xjc-5EA=", "properties": {"ref": "https://locations.tacojohns.com/wi/bellevue/2672-eaton-rd.html", "@spider": "taco_johns", "addr:full": "2672 Eaton Rd", "addr:city": "Bellevue", "addr:state": "WI", "addr:postcode": "54311", "addr:country": "USA", "name": "Taco John's", "phone": "(920) 406-7630", "website": "https://locations.tacojohns.com/wi/bellevue/2672-eaton-rd.html"}, "geometry": {"type": "Point", "coordinates": [-87.9492661356926, 44.46470882473955]}},
{"type": "Feature", "id": "TSQ4HXGflY99MO47IHaGyTlcn5o=", "properties": {"ref": "https://locations.tacojohns.com/wi/antigo/2405-highway-45-n.html", "@spider": "taco_johns", "addr:full": "2405 Highway 45 N", "addr:city": "Antigo", "addr:state": "WI", "addr:postcode": "54409", "addr:country": "USA", "name": "Taco John's", "phone": "(715) 627-0500", "website": "https://locations.tacojohns.com/wi/antigo/2405-highway-45-n.html"}, "geometry": {"type": "Point", "coordinates": [-89.14749473333359, 45.16469008002933]}},
{"type": "Feature", "id": "loHBNnO7HGmAt4EOeutMyfxw7K8=", "properties": {"ref": "https://locations.tacojohns.com/wy/wheatland/1457-south-st.html", "@spider": "taco_johns", "addr:full": "1457 South St", "addr:city": "Wheatland", "addr:state": "WY", "addr:postcode": "82201", "addr:country": "USA", "name": "Taco John's", "phone": "(307) 322-4058", "website": "https://locations.tacojohns.com/wy/wheatland/1457-south-st.html"}, "geometry": {"type": "Point", "coordinates": [-104.96141150593758, 42.0513600155497]}},
{"type": "Feature", "id": "5gsgGZ9gktHp690R1sSRC6x36bw=", "properties": {"ref": "https://locations.tacojohns.com/wy/torrington/224-w-20th-st.html", "@spider": "taco_johns", "addr:full": "224 W 20th St", "addr:city": "Torrington", "addr:state": "WY", "addr:postcode": "82240", "addr:country": "USA", "name": "Taco John's", "phone": "(307) 532-3711", "website": "https://locations.tacojohns.com/wy/torrington/224-w-20th-st.html"}, "geometry": {"type": "Point", "coordinates": [-104.18690087597696, 42.06421516477393]}},
{"type": "Feature", "id": "13VxqnF1WZmjt7eRPnc2QFOximM=", "properties": {"ref": "https://locations.tacojohns.com/wy/thermopolis/407-park-st.html", "@spider": "taco_johns", "addr:full": "407 Park St", "addr:city": "Thermopolis", "addr:state": "WY", "addr:postcode": "82443", "addr:country": "USA", "name": "Taco John's", "phone": "(307) 864-2262", "website": "https://locations.tacojohns.com/wy/thermopolis/407-park-st.html"}, "geometry": {"type": "Point", "coordinates": [-108.20920678230323, 43.650328407496154]}},
{"type": "Feature", "id": "moH1jsyBKvUZhpNntCop0nyl40I=", "properties": {"ref": "https://locations.tacojohns.com/wy/sheridan/2175-sugarland-dr.html", "@spider": "taco_johns", "addr:full": "2175 Sugarland Dr", "addr:city": "Sheridan", "addr:state": "WY", "addr:postcode": "82801", "addr:country": "USA", "name": "Taco John's", "phone": "(307) 673-4709", "website": "https://locations.tacojohns.com/wy/sheridan/2175-sugarland-dr.html"}, "geometry": {"type": "Point", "coordinates": [-106.93924158811569, 44.77425926205827]}},
{"type": "Feature", "id": "O7gAHJYcDkYbqpTOuqRYiaiXp0M=", "properties": {"ref": "https://locations.tacojohns.com/wy/rock-springs/450-n-center-st.html", "@spider": "taco_johns", "addr:full": "450 N Center St", "addr:city": "Rock Springs", "addr:state": "WY", "addr:postcode": "82901", "addr:country": "USA", "name": "Taco John's", "phone": "(307) 362-2252", "website": "https://locations.tacojohns.com/wy/rock-springs/450-n-center-st.html"}, "geometry": {"type": "Point", "coordinates": [-109.2243455350399, 41.590119810087906]}},
{"type": "Feature", "id": "TmxU44aia4bppInG8_a6BcaHA5o=", "properties": {"ref": "https://locations.tacojohns.com/wi/la-crosse/602-monitor-st.html", "@spider": "taco_johns", "addr:full": "602 Monitor St", "addr:city": "La Crosse", "addr:state": "WI", "addr:postcode": "54603", "addr:country": "USA", "name": "Taco John's", "phone": "(608) 782-1750", "website": "https://locations.tacojohns.com/wi/la-crosse/602-monitor-st.html"}, "geometry": {"type": "Point", "coordinates": [-91.24772742390633, 43.8280477771471]}},
{"type": "Feature", "id": "GhYgqd3urKotmeJG1-rKzej1i1Y=", "properties": {"ref": "https://locations.tacojohns.com/wi/la-crosse/1211-jackson-st.html", "@spider": "taco_johns", "addr:full": "1211 Jackson St", "addr:city": "La Crosse", "addr:state": "WI", "addr:postcode": "54601", "addr:country": "USA", "name": "Taco John's", "phone": "(608) 782-1890", "website": "https://locations.tacojohns.com/wi/la-crosse/1211-jackson-st.html"}, "geometry": {"type": "Point", "coordinates": [-91.23905139418639, 43.80167218610926]}},
{"type": "Feature", "id": "JewlpM4yKW1MlxnDOxwFf55U5dI=", "properties": {"ref": "https://locations.tacojohns.com/wy/riverton/623-w-main-st.html", "@spider": "taco_johns", "addr:full": "623 W Main St", "addr:city": "Riverton", "addr:state": "WY", "addr:postcode": "82501", "addr:country": "USA", "name": "Taco John's", "phone": "(307) 856-9649", "website": "https://locations.tacojohns.com/wy/riverton/623-w-main-st.html"}, "geometry": {"type": "Point", "coordinates": [-108.39858993887901, 43.024322675656386]}},
{"type": "Feature", "id": "K_szvRwJOpKWw20FoehYuRza74c=", "properties": {"ref": "https://locations.tacojohns.com/wy/rawlins/1821-e-cedar-st.html", "@spider": "taco_johns", "addr:full": "1821 E Cedar St", "addr:city": "Rawlins", "addr:state": "WY", "addr:postcode": "82301", "addr:country": "USA", "name": "Taco John's", "phone": "(307) 324-4932", "website": "https://locations.tacojohns.com/wy/rawlins/1821-e-cedar-st.html"}, "geometry": {"type": "Point", "coordinates": [-107.21669733524323, 41.792492601288295]}},
{"type": "Feature", "id": "JmPyoMp9t9K2K_UDvGFk6_-Zx4c=", "properties": {"ref": "https://locations.tacojohns.com/wy/powell/525-east-coulter-ave.html", "@spider": "taco_johns", "addr:full": "525 East Coulter Ave", "addr:city": "Powell", "addr:state": "WY", "addr:postcode": "82435", "addr:country": "USA", "name": "Taco John's", "phone": "(307) 754-9527", "website": "https://locations.tacojohns.com/wy/powell/525-east-coulter-ave.html"}, "geometry": {"type": "Point", "coordinates": [-108.75218018889427, 44.753183119881804]}},
{"type": "Feature", "id": "QWALN62yvbGKmsB-AOpDkvDdiSw=", "properties": {"ref": "https://locations.tacojohns.com/wy/newcastle/5007-highway-16.html", "@spider": "taco_johns", "addr:full": "5007 Highway 16", "addr:city": "Newcastle", "addr:state": "WY", "addr:postcode": "82701", "addr:country": "USA", "name": "Taco John's", "phone": "(307) 746-2002", "website": "https://locations.tacojohns.com/wy/newcastle/5007-highway-16.html"}, "geometry": {"type": "Point", "coordinates": [-104.17767605542048, 43.84819014288785]}},
{"type": "Feature", "id": "8lkuUjIRpb0c_UTmCylJJCMCPbk=", "properties": {"ref": "https://locations.tacojohns.com/wy/mills/3533-w-yellowstone-highway.html", "@spider": "taco_johns", "addr:full": "3533 W Yellowstone Highway", "addr:city": "Mills", "addr:state": "WY", "addr:postcode": "82604", "addr:country": "USA", "name": "Taco John's", "phone": "(307) 235-8102", "website": "https://locations.tacojohns.com/wy/mills/3533-w-yellowstone-highway.html"}, "geometry": {"type": "Point", "coordinates": [-106.37435093522072, 42.84749074995462]}},
{"type": "Feature", "id": "4U5Y7cYNOpPZK9DfJ2eQyFYK9wE=", "properties": {"ref": "https://locations.tacojohns.com/wy/laramie/2114-grand-ave.html", "@spider": "taco_johns", "addr:full": "2114 Grand Ave", "addr:city": "Laramie", "addr:state": "WY", "addr:postcode": "82070", "addr:country": "USA", "name": "Taco John's", "phone": "(307) 745-5085", "website": "https://locations.tacojohns.com/wy/laramie/2114-grand-ave.html"}, "geometry": {"type": "Point", "coordinates": [-105.56671385809352, 41.30934202951765]}},
{"type": "Feature", "id": "Vx--qTOrMusjU8eH33Krxo3slFs=", "properties": {"ref": "https://locations.tacojohns.com/wy/lander/870-main-st.html", "@spider": "taco_johns", "addr:full": "870 Main St", "addr:city": "Lander", "addr:state": "WY", "addr:postcode": "82520", "addr:country": "USA", "name": "Taco John's", "phone": "(307) 332-0291", "website": "https://locations.tacojohns.com/wy/lander/870-main-st.html"}, "geometry": {"type": "Point", "coordinates": [-108.74289572238922, 42.83586465795851]}},
{"type": "Feature", "id": "ybM4Wkk-f7-VKjwMTg85_Uh8qa8=", "properties": {"ref": "https://locations.tacojohns.com/wi/appleton/4301-w-wisconsin-ave.html", "@spider": "taco_johns", "addr:full": "4301 W Wisconsin Ave", "addr:city": "Appleton", "addr:state": "WI", "addr:postcode": "54913", "addr:country": "USA", "name": "Taco John's", "phone": "(920) 997-6061", "website": "https://locations.tacojohns.com/wi/appleton/4301-w-wisconsin-ave.html"}, "geometry": {"type": "Point", "coordinates": [-88.47034788292058, 44.26874021519465]}},
{"type": "Feature", "id": "A30ZQyTQP1AmbbEsQRw4E6AL20s=", "properties": {"ref": "https://locations.tacojohns.com/wi/appleton/1416-n-richmond-st.html", "@spider": "taco_johns", "addr:full": "1416 N Richmond St", "addr:city": "Appleton", "addr:state": "WI", "addr:postcode": "54911", "addr:country": "USA", "name": "Taco John's", "phone": "(920) 733-0544", "website": "https://locations.tacojohns.com/wi/appleton/1416-n-richmond-st.html"}, "geometry": {"type": "Point", "coordinates": [-88.41532811522484, 44.27425248009383]}},
{"type": "Feature", "id": "hgRRUNs8nA4BbtpLJ4KZR8_SgWM=", "properties": {"ref": "https://locations.tacojohns.com/wy/douglas/400-teton-way.html", "@spider": "taco_johns", "addr:full": "400 Teton Way", "addr:city": "Douglas", "addr:state": "WY", "addr:postcode": "82633", "addr:country": "USA", "name": "Taco John's", "phone": "(307) 358-3744", "website": "https://locations.tacojohns.com/wy/douglas/400-teton-way.html"}, "geometry": {"type": "Point", "coordinates": [-105.4037788510322, 42.763285679132544]}},
{"type": "Feature", "id": "64x6bS_jXKvsOxmaYvAJ3MPCHiw=", "properties": {"ref": "https://locations.tacojohns.com/wy/cody/2207-17th-st.html", "@spider": "taco_johns", "addr:full": "2207 17th St", "addr:city": "Cody", "addr:state": "WY", "addr:postcode": "82414", "addr:country": "USA", "name": "Taco John's", "phone": "(307) 527-6424", "website": "https://locations.tacojohns.com/wy/cody/2207-17th-st.html"}, "geometry": {"type": "Point", "coordinates": [-109.05287149044426, 44.5145794737804]}},
{"type": "Feature", "id": "3moGFE0_MQ1kdSbImLn2i2A6VVU=", "properties": {"ref": "https://locations.tacojohns.com/co/wellington/7910-s-6th-st.html", "@spider": "taco_johns", "addr:full": "7910 S 6th St", "addr:city": "Wellington", "addr:state": "CO", "addr:postcode": "80549", "addr:country": "USA", "name": "Taco John's", "phone": "(970) 568-3967", "website": "https://locations.tacojohns.com/co/wellington/7910-s-6th-st.html"}, "geometry": {"type": "Point", "coordinates": [-104.99964371323586, 40.70080476900333]}},
{"type": "Feature", "id": "GcaIEJO0dBzudibgNAlJLYMrUGU=", "properties": {"ref": "https://locations.tacojohns.com/co/thornton/9675-washington-st.html", "@spider": "taco_johns", "addr:full": "9675 Washington St", "addr:city": "Thornton", "addr:state": "CO", "addr:postcode": "80229", "addr:country": "USA", "name": "Taco John's", "phone": "(303) 484-9828", "website": "https://locations.tacojohns.com/co/thornton/9675-washington-st.html"}, "geometry": {"type": "Point", "coordinates": [-104.97838275881804, 39.87233945415428]}},
{"type": "Feature", "id": "KMiUstDqnID6OD-1_f7EtMq9M8g=", "properties": {"ref": "https://locations.tacojohns.com/co/sterling/317-w-main-st.html", "@spider": "taco_johns", "addr:full": "317 W Main St", "addr:city": "Sterling", "addr:state": "CO", "addr:postcode": "80751", "addr:country": "USA", "name": "Taco John's", "phone": "(970) 522-5564", "website": "https://locations.tacojohns.com/co/sterling/317-w-main-st.html"}, "geometry": {"type": "Point", "coordinates": [-103.21591168642044, 40.62518363841615]}},
{"type": "Feature", "id": "B5jLREAqt7Uk1jTvQNzPkRsdoyY=", "properties": {"ref": "https://locations.tacojohns.com/co/montrose/1300-e-main-st.html", "@spider": "taco_johns", "addr:full": "1300 E Main St", "addr:city": "Montrose", "addr:state": "CO", "addr:postcode": "81401", "addr:country": "USA", "name": "Taco John's", "phone": "(970) 765-2224", "website": "https://locations.tacojohns.com/co/montrose/1300-e-main-st.html"}, "geometry": {"type": "Point", "coordinates": [-107.86663681268692, 38.485924503571965]}},
{"type": "Feature", "id": "hcj68GXAgC6TZg_P29AEZcXdcUE=", "properties": {"ref": "https://locations.tacojohns.com/co/loveland/1635-n-lincoln-ave.html", "@spider": "taco_johns", "addr:full": "1635 N Lincoln Ave", "addr:city": "Loveland", "addr:state": "CO", "addr:postcode": "80538", "addr:country": "USA", "name": "Taco John's", "phone": "(970) 667-2066", "website": "https://locations.tacojohns.com/co/loveland/1635-n-lincoln-ave.html"}, "geometry": {"type": "Point", "coordinates": [-105.07345139980316, 40.41071860667073]}},
{"type": "Feature", "id": "C5F76tCiPmKSG9eISjnjtlWD28Y=", "properties": {"ref": "https://locations.tacojohns.com/co/lamar/1701-s-main-st.html", "@spider": "taco_johns", "addr:full": "1701 S Main St", "addr:city": "Lamar", "addr:state": "CO", "addr:postcode": "81052", "addr:country": "USA", "name": "Taco John's", "phone": "(719) 336-3006", "website": "https://locations.tacojohns.com/co/lamar/1701-s-main-st.html"}, "geometry": {"type": "Point", "coordinates": [-102.6172892828207, 38.07240721935454]}},
{"type": "Feature", "id": "guEg2_lB8PjscHchdAC6t2cWhYE=", "properties": {"ref": "https://locations.tacojohns.com/co/greeley/2508-11th-ave.html", "@spider": "taco_johns", "addr:full": "2508 11th Ave", "addr:city": "Greeley", "addr:state": "CO", "addr:postcode": "80631", "addr:country": "USA", "name": "Taco John's", "phone": "(970) 352-2857", "website": "https://locations.tacojohns.com/co/greeley/2508-11th-ave.html"}, "geometry": {"type": "Point", "coordinates": [-104.69655635210074, 40.39683423407959]}},
{"type": "Feature", "id": "rRcz0pQ4wPAI8KdKgMwtnnAEavE=", "properties": {"ref": "https://locations.tacojohns.com/co/grand-junction/1430-north-ave.html", "@spider": "taco_johns", "addr:full": "1430 North Ave", "addr:city": "Grand Junction", "addr:state": "CO", "addr:postcode": "81501", "addr:country": "USA", "name": "Taco John's", "phone": "(970) 314-9620", "website": "https://locations.tacojohns.com/co/grand-junction/1430-north-ave.html"}, "geometry": {"type": "Point", "coordinates": [-108.5486267, 39.0776312]}},
{"type": "Feature", "id": "6LlRbkZm3GZjz6fPzxb6x7jSWRQ=", "properties": {"ref": "https://locations.tacojohns.com/co/fort-morgan/120-w-riverview-ave.html", "@spider": "taco_johns", "addr:full": "120 W Riverview Ave", "addr:city": "Fort Morgan", "addr:state": "CO", "addr:postcode": "80701", "addr:country": "USA", "name": "Taco John's", "phone": "(970) 867-3403", "website": "https://locations.tacojohns.com/co/fort-morgan/120-w-riverview-ave.html"}, "geometry": {"type": "Point", "coordinates": [-103.80233511328697, 40.26098712099781]}},
{"type": "Feature", "id": "bZHRZUvTAy9IGHleUXdHX6GuODI=", "properties": {"ref": "https://locations.tacojohns.com/wy/gillette/808-e-2nd-st.html", "@spider": "taco_johns", "addr:full": "808 E 2nd St", "addr:city": "Gillette", "addr:state": "WY", "addr:postcode": "82716", "addr:country": "USA", "name": "Taco John's", "phone": "(307) 682-2224", "website": "https://locations.tacojohns.com/wy/gillette/808-e-2nd-st.html"}, "geometry": {"type": "Point", "coordinates": [-105.49171641469002, 44.29264491029746]}},
{"type": "Feature", "id": "W9rhsi7x5VfWBmNya1Dd3XoWyl4=", "properties": {"ref": "https://locations.tacojohns.com/wy/gillette/610-e-box-elder-rd.html", "@spider": "taco_johns", "addr:full": "610 E Box Elder Rd", "addr:city": "Gillette", "addr:state": "WY", "addr:postcode": "82718", "addr:country": "USA", "name": "Taco John's", "phone": "(307) 685-6950", "website": "https://locations.tacojohns.com/wy/gillette/610-e-box-elder-rd.html"}, "geometry": {"type": "Point", "coordinates": [-105.49645453691483, 44.27585029700597]}},
{"type": "Feature", "id": "PpWmD46A4xpBynBo_5XQiaNK3ws=", "properties": {"ref": "https://locations.tacojohns.com/co/denver/5810-logan-st.html", "@spider": "taco_johns", "addr:full": "5810 Logan St", "addr:city": "Denver", "addr:state": "CO", "addr:postcode": "80216", "addr:country": "USA", "name": "Taco John's", "phone": "(720) 889-1780", "website": "https://locations.tacojohns.com/co/denver/5810-logan-st.html"}, "geometry": {"type": "Point", "coordinates": [-104.98230457305908, 39.802309106216775]}},
{"type": "Feature", "id": "Wv3HDNuRxURVqGN2eoxwLDd_I9M=", "properties": {"ref": "https://locations.tacojohns.com/co/clifton/3226-hwy-6-and-24.html", "@spider": "taco_johns", "addr:full": "3226 Hwy 6 and 24", "addr:city": "Clifton", "addr:state": "CO", "addr:postcode": "81520", "addr:country": "USA", "name": "Taco John's", "phone": "(970) 314-2291", "website": "https://locations.tacojohns.com/co/clifton/3226-hwy-6-and-24.html"}, "geometry": {"type": "Point", "coordinates": [-108.4560974, 39.090113]}},
{"type": "Feature", "id": "0aQMpqe2u3ieDTiAQKpTos3s-Rc=", "properties": {"ref": "https://locations.tacojohns.com/co/berthoud/swc-i-25-hwy-56.html", "@spider": "taco_johns", "addr:full": "SWC I-25/Hwy 56", "addr:city": "Berthoud", "addr:state": "CO", "addr:postcode": "80513", "addr:country": "USA", "name": "Taco John's", "phone": "(970) 532-2507", "website": "https://locations.tacojohns.com/co/berthoud/swc-i-25-hwy-56.html"}, "geometry": {"type": "Point", "coordinates": [-104.9841257, 40.3051305]}},
{"type": "Feature", "id": "JwRLV9RyyAjpjbGmE4LyphPuyQk=", "properties": {"ref": "https://locations.tacojohns.com/wy/cheyenne/5421-yellowstone-rd.html", "@spider": "taco_johns", "addr:full": "5421 Yellowstone Rd", "addr:city": "Cheyenne", "addr:state": "WY", "addr:postcode": "82009", "addr:country": "USA", "name": "Taco John's", "phone": "(307) 637-2863", "website": "https://locations.tacojohns.com/wy/cheyenne/5421-yellowstone-rd.html"}, "geometry": {"type": "Point", "coordinates": [-104.82819649443655, 41.169281985140756]}},
{"type": "Feature", "id": "n0YcCuXvGbyiTA6WcRpwhiUzCZs=", "properties": {"ref": "https://locations.tacojohns.com/wy/casper/80-west-f-st.html", "@spider": "taco_johns", "addr:full": "80 West F St", "addr:city": "Casper", "addr:state": "WY", "addr:postcode": "82601", "addr:country": "USA", "name": "Taco John's", "phone": "(307) 235-0297", "website": "https://locations.tacojohns.com/wy/casper/80-west-f-st.html"}, "geometry": {"type": "Point", "coordinates": [-106.3259822353939, 42.85749008053625]}},
{"type": "Feature", "id": "Ohj71F6W5yNd_5PL0-0UkjBgdwE=", "properties": {"ref": "https://locations.tacojohns.com/wy/casper/766-cy-ave.html", "@spider": "taco_johns", "addr:full": "766 CY Ave", "addr:city": "Casper", "addr:state": "WY", "addr:postcode": "82601", "addr:country": "USA", "name": "Taco John's", "phone": "(307) 265-6805", "website": "https://locations.tacojohns.com/wy/casper/766-cy-ave.html"}, "geometry": {"type": "Point", "coordinates": [-106.33452415466309, 42.8371627823031]}},
{"type": "Feature", "id": "lKL_b704w0bRbhHhbAstBHIppT4=", "properties": {"ref": "https://locations.tacojohns.com/wy/casper/4035-plaza-dr.html", "@spider": "taco_johns", "addr:full": "4035 Plaza Dr", "addr:city": "Casper", "addr:state": "WY", "addr:postcode": "82604", "addr:country": "USA", "name": "Taco John's", "phone": "(307) 337-2942", "website": "https://locations.tacojohns.com/wy/casper/4035-plaza-dr.html"}, "geometry": {"type": "Point", "coordinates": [-106.3690613, 42.8173463]}},
{"type": "Feature", "id": "qRuycpz6Jf2Il8bHxyLuaifHQ7s=", "properties": {"ref": "https://locations.tacojohns.com/wy/casper/4031-e-2nd-st.html", "@spider": "taco_johns", "addr:full": "4031 E 2nd St", "addr:city": "Casper", "addr:state": "WY", "addr:postcode": "82609", "addr:country": "USA", "name": "Taco John's", "phone": "(307) 235-4016", "website": "https://locations.tacojohns.com/wy/casper/4031-e-2nd-st.html"}, "geometry": {"type": "Point", "coordinates": [-106.27509042620659, 42.84861459770736]}},
{"type": "Feature", "id": "_ohhzP0Bl0HMPTVfng2AEInyjSk=", "properties": {"ref": "https://locations.tacojohns.com/wy/cheyenne/3411-e-pershing-blvd.html", "@spider": "taco_johns", "addr:full": "3411 E Pershing Blvd", "addr:city": "Cheyenne", "addr:state": "WY", "addr:postcode": "82001", "addr:country": "USA", "name": "Taco John's", "phone": "(307) 634-7430", "website": "https://locations.tacojohns.com/wy/cheyenne/3411-e-pershing-blvd.html"}, "geometry": {"type": "Point", "coordinates": [-104.7679589, 41.1452601]}},
{"type": "Feature", "id": "VogyJxdMId98orVZYqQwicRtvVs=", "properties": {"ref": "https://locations.tacojohns.com/wy/cheyenne/3308-dell-range-blvd.html", "@spider": "taco_johns", "addr:full": "3308 Dell Range Blvd", "addr:city": "Cheyenne", "addr:state": "WY", "addr:postcode": "82009", "addr:country": "USA", "name": "Taco John's", "phone": "(307) 514-3244", "website": "https://locations.tacojohns.com/wy/cheyenne/3308-dell-range-blvd.html"}, "geometry": {"type": "Point", "coordinates": [-104.76873727890052, 41.160387884753206]}},
{"type": "Feature", "id": "e6fBHsiNry7wsvHpuRO3xgt18tw=", "properties": {"ref": "https://locations.tacojohns.com/wy/cheyenne/2220-carey-ave.html", "@spider": "taco_johns", "addr:full": "2220 Carey Ave", "addr:city": "Cheyenne", "addr:state": "WY", "addr:postcode": "82001", "addr:country": "USA", "name": "Taco John's", "phone": "(307) 634-7853", "website": "https://locations.tacojohns.com/wy/cheyenne/2220-carey-ave.html"}, "geometry": {"type": "Point", "coordinates": [-104.82056200504303, 41.138260635711895]}},
{"type": "Feature", "id": "oVQa0m06EriLmJBHfyDxxUZjrus=", "properties": {"ref": "https://locations.tacojohns.com/wy/cheyenne/101-s-greeley-highway.html", "@spider": "taco_johns", "addr:full": "101 S Greeley Highway", "addr:city": "Cheyenne", "addr:state": "WY", "addr:postcode": "82007", "addr:country": "USA", "name": "Taco John's", "phone": "(307) 634-1555", "website": "https://locations.tacojohns.com/wy/cheyenne/101-s-greeley-highway.html"}, "geometry": {"type": "Point", "coordinates": [-104.8027628660202, 41.11655074041031]}},
{"type": "Feature", "id": "ZNV1o7NULQPiMdAJ0pbDCOjYsV8=", "properties": {"ref": "https://locations.tacojohns.com/id/grangeville/901-w-main-st.html", "@spider": "taco_johns", "addr:full": "901 W Main St", "addr:city": "Grangeville", "addr:state": "ID", "addr:postcode": "83530", "addr:country": "USA", "name": "Taco John's", "phone": "(208) 983-7508", "website": "https://locations.tacojohns.com/id/grangeville/901-w-main-st.html"}, "geometry": {"type": "Point", "coordinates": [-116.1085677, 45.925566]}},
{"type": "Feature", "id": "z6NED83LLXQX7zIs5J9X8CM__Vo=", "properties": {"ref": "https://locations.tacojohns.com/il/milan/120-e--10th-avenue.html", "@spider": "taco_johns", "addr:full": "120 E. 10th Avenue", "addr:city": "Milan", "addr:state": "IL", "addr:postcode": "61264", "addr:country": "USA", "name": "Taco John's", "phone": "(309) 948-2018", "website": "https://locations.tacojohns.com/il/milan/120-e--10th-avenue.html"}, "geometry": {"type": "Point", "coordinates": [-90.56637309999999, 41.44231569999999]}},
{"type": "Feature", "id": "Nvt7_hL0me-hvnRFxoMDZY7xQRA=", "properties": {"ref": "https://locations.tacojohns.com/co/fort-collins/200-e-horsetooth-rd.html", "@spider": "taco_johns", "addr:full": "200 E Horsetooth Rd", "addr:city": "Fort Collins", "addr:state": "CO", "addr:postcode": "80525", "addr:country": "USA", "name": "Taco John's", "phone": "(970) 204-4335", "website": "https://locations.tacojohns.com/co/fort-collins/200-e-horsetooth-rd.html"}, "geometry": {"type": "Point", "coordinates": [-105.0749534368515, 40.53853557476881]}},
{"type": "Feature", "id": "KGQNQSnA3K2ErIo06P53u4kYGLc=", "properties": {"ref": "https://locations.tacojohns.com/co/fort-collins/1609-specht-point-rd.html", "@spider": "taco_johns", "addr:full": "1609 Specht Point Rd", "addr:city": "Fort Collins", "addr:state": "CO", "addr:postcode": "80525", "addr:country": "USA", "name": "Taco John's", "phone": "(970) 472-0086", "website": "https://locations.tacojohns.com/co/fort-collins/1609-specht-point-rd.html"}, "geometry": {"type": "Point", "coordinates": [-105.03650665283203, 40.56689792089522]}},
{"type": "Feature", "id": "mp5Aw4iM2t4pWAvspysuFjRa_OE=", "properties": {"ref": "https://locations.tacojohns.com/il/marion/903-n-court-st.html", "@spider": "taco_johns", "addr:full": "903 N Court St", "addr:city": "Marion", "addr:state": "IL", "addr:postcode": "62959", "addr:country": "USA", "name": "Taco John's", "phone": "(618) 993-8901", "website": "https://locations.tacojohns.com/il/marion/903-n-court-st.html"}, "geometry": {"type": "Point", "coordinates": [-88.93231811376609, 37.73740892154864]}},
{"type": "Feature", "id": "XxmXUqOvmvbM6Ba1LNApRtRFelE=", "properties": {"ref": "https://locations.tacojohns.com/il/machesney-park/8304-n-2nd-st.html", "@spider": "taco_johns", "addr:full": "8304 N 2nd St", "addr:city": "Machesney Park", "addr:state": "IL", "addr:postcode": "61115", "addr:country": "USA", "name": "Taco John's", "phone": "(815) 877-3141", "website": "https://locations.tacojohns.com/il/machesney-park/8304-n-2nd-st.html"}, "geometry": {"type": "Point", "coordinates": [-89.05234068632132, 42.34300113635697]}},
{"type": "Feature", "id": "Ib2UEVO15pSnReptHFK-0kJkqbM=", "properties": {"ref": "https://locations.tacojohns.com/il/jacksonville/201-loves-drive-.html", "@spider": "taco_johns", "addr:full": "201 Loves Drive.", "addr:city": "Jacksonville", "addr:state": "IL", "addr:postcode": "62650", "addr:country": "USA", "name": "Taco John's", "phone": "(217) 243-0400", "website": "https://locations.tacojohns.com/il/jacksonville/201-loves-drive-.html"}, "geometry": {"type": "Point", "coordinates": [-90.229963, 39.689589]}},
{"type": "Feature", "id": "9H8qIg0gUr2F457Z3xjuuGshTdA=", "properties": {"ref": "https://locations.tacojohns.com/il/galesburg/1922-n-henderson-st.html", "@spider": "taco_johns", "addr:full": "1922 N Henderson St", "addr:city": "Galesburg", "addr:state": "IL", "addr:postcode": "61401", "addr:country": "USA", "name": "Taco John's", "phone": "(309) 297-4072", "website": "https://locations.tacojohns.com/il/galesburg/1922-n-henderson-st.html"}, "geometry": {"type": "Point", "coordinates": [-90.38356393575668, 40.97142126808317]}},
{"type": "Feature", "id": "iq2r6LMibqDPqxbXcVvxN0CbECw=", "properties": {"ref": "https://locations.tacojohns.com/il/east-peoria/2422-e-washington-st.html", "@spider": "taco_johns", "addr:full": "2422 E Washington St", "addr:city": "East Peoria", "addr:state": "IL", "addr:postcode": "61611", "addr:country": "USA", "name": "Taco John's", "phone": "(309) 699-7412", "website": "https://locations.tacojohns.com/il/east-peoria/2422-e-washington-st.html"}, "geometry": {"type": "Point", "coordinates": [-89.53857153654099, 40.67458843934413]}},
{"type": "Feature", "id": "U46zanhlbPpMfqjcgxjxGkRtl0E=", "properties": {"ref": "https://locations.tacojohns.com/il/east-moline/653-avenue-of-the-cities.html", "@spider": "taco_johns", "addr:full": "653 Avenue of the Cities", "addr:city": "East Moline", "addr:state": "IL", "addr:postcode": "61244", "addr:country": "USA", "name": "Taco John's", "phone": "(309) 912-7685", "website": "https://locations.tacojohns.com/il/east-moline/653-avenue-of-the-cities.html"}, "geometry": {"type": "Point", "coordinates": [-90.4468862, 41.4897252]}},
{"type": "Feature", "id": "1OQo98LearpE3qUmnSSztm9I2_o=", "properties": {"ref": "https://locations.tacojohns.com/il/creve-coeur/725-s-main-st.html", "@spider": "taco_johns", "addr:full": "725 S Main St", "addr:city": "Creve Coeur", "addr:state": "IL", "addr:postcode": "61610", "addr:country": "USA", "name": "Taco John's", "phone": "(309) 698-0027", "website": "https://locations.tacojohns.com/il/creve-coeur/725-s-main-st.html"}, "geometry": {"type": "Point", "coordinates": [-89.60948243737221, 40.63544102978997]}},
{"type": "Feature", "id": "3V56FFNo-cXYjHyHpln0P1H-4xA=", "properties": {"ref": "https://locations.tacojohns.com/il/champaign/902-meijer-dr.html", "@spider": "taco_johns", "addr:full": "902 Meijer Dr", "addr:city": "Champaign", "addr:state": "IL", "addr:postcode": "61822", "addr:country": "USA", "name": "Taco John's", "phone": "(217) 607-5577", "website": "https://locations.tacojohns.com/il/champaign/902-meijer-dr.html"}, "geometry": {"type": "Point", "coordinates": [-88.259031, 40.14689724604292]}},
{"type": "Feature", "id": "VOGGDcEb0TOP5Uo_aNBT6qYxJJA=", "properties": {"ref": "https://locations.tacojohns.com/il/bradley/484-s-kennedy-dr.html", "@spider": "taco_johns", "addr:full": "484 S Kennedy Dr", "addr:city": "Bradley", "addr:state": "IL", "addr:postcode": "60915", "addr:country": "USA", "name": "Taco John's", "phone": "(815) 939-3064", "website": "https://locations.tacojohns.com/il/bradley/484-s-kennedy-dr.html"}, "geometry": {"type": "Point", "coordinates": [-87.87659704685211, 41.13900905501796]}},
{"type": "Feature", "id": "qVFwSdp0xW8dN3JZf81KeAQewIs=", "properties": {"ref": "https://locations.tacojohns.com/il/bourbonnais/562-william-r-latham-sr-dr.html", "@spider": "taco_johns", "addr:full": "562 William R Latham Sr Dr", "addr:city": "Bourbonnais", "addr:state": "IL", "addr:postcode": "60914", "addr:country": "USA", "name": "Taco John's", "phone": "(815) 929-1333", "website": "https://locations.tacojohns.com/il/bourbonnais/562-william-r-latham-sr-dr.html"}, "geometry": {"type": "Point", "coordinates": [-87.88365608381764, 41.16217866876966]}},
{"type": "Feature", "id": "dTiIiafoxOSzfajUQYtTyLDf43g=", "properties": {"ref": "https://locations.tacojohns.com/il/bloomington/1525-s-main-st.html", "@spider": "taco_johns", "addr:full": "1525 S Main St", "addr:city": "Bloomington", "addr:state": "IL", "addr:postcode": "61701", "addr:country": "USA", "name": "Taco John's", "phone": "(309) 828-4336", "website": "https://locations.tacojohns.com/il/bloomington/1525-s-main-st.html"}, "geometry": {"type": "Point", "coordinates": [-88.99318724870682, 40.46295106525294]}},
{"type": "Feature", "id": "KzHcNEZqhcFNRY1-hN2cPPGvO0E=", "properties": {"ref": "https://locations.tacojohns.com/in/lebanon/2004-n-lebanon-st.html", "@spider": "taco_johns", "addr:full": "2004 N Lebanon St", "addr:city": "Lebanon", "addr:state": "IN", "addr:postcode": "46052", "addr:country": "USA", "name": "Taco John's", "phone": "(765) 481-2400", "website": "https://locations.tacojohns.com/in/lebanon/2004-n-lebanon-st.html"}, "geometry": {"type": "Point", "coordinates": [-86.47292, 40.0644]}},
{"type": "Feature", "id": "DmuHhjXtLd-WXwsh41egtcPQ1MI=", "properties": {"ref": "https://locations.tacojohns.com/in/huntington/1379-flaxmill-rd.html", "@spider": "taco_johns", "addr:full": "1379 Flaxmill Rd", "addr:city": "Huntington", "addr:state": "IN", "addr:postcode": "46750", "addr:country": "USA", "name": "Taco John's", "phone": "(260) 504-4051", "website": "https://locations.tacojohns.com/in/huntington/1379-flaxmill-rd.html"}, "geometry": {"type": "Point", "coordinates": [-85.5237563, 40.8883541]}},
{"type": "Feature", "id": "YJJS-4TxqzBkF05sYjQAQbuoQKw=", "properties": {"ref": "https://locations.tacojohns.com/ia/waverly/617-w-bremer-ave.html", "@spider": "taco_johns", "addr:full": "617 W Bremer Ave", "addr:city": "Waverly", "addr:state": "IA", "addr:postcode": "50677", "addr:country": "USA", "name": "Taco John's", "phone": "(319) 352-5055", "website": "https://locations.tacojohns.com/ia/waverly/617-w-bremer-ave.html"}, "geometry": {"type": "Point", "coordinates": [-92.47860746832885, 42.725452472833744]}},
{"type": "Feature", "id": "pC_it4B6Q6JmkTWMP8NpgPhu10Q=", "properties": {"ref": "https://locations.tacojohns.com/ia/waukee/205-hickman-rd.html", "@spider": "taco_johns", "addr:full": "205 Hickman Rd", "addr:city": "Waukee", "addr:state": "IA", "addr:postcode": "50263", "addr:country": "USA", "name": "Taco John's", "phone": "(515) 216-2204", "website": "https://locations.tacojohns.com/ia/waukee/205-hickman-rd.html"}, "geometry": {"type": "Point", "coordinates": [-93.8668998, 41.6154546]}},
{"type": "Feature", "id": "Kce-9nEFO1WQFgX4Euh8h3diRSg=", "properties": {"ref": "https://locations.tacojohns.com/ia/waterloo/1620-laporte-rd.html", "@spider": "taco_johns", "addr:full": "1620 Laporte Rd", "addr:city": "Waterloo", "addr:state": "IA", "addr:postcode": "50702", "addr:country": "USA", "name": "Taco John's", "phone": "(319) 233-3651", "website": "https://locations.tacojohns.com/ia/waterloo/1620-laporte-rd.html"}, "geometry": {"type": "Point", "coordinates": [-92.32306256890291, 42.470499319364656]}},
{"type": "Feature", "id": "MW_82s0ogaXGloKc4bdADEOxni8=", "properties": {"ref": "https://locations.tacojohns.com/ia/urbandale/3924-nw-urbandale-dr.html", "@spider": "taco_johns", "addr:full": "3924 NW Urbandale Dr", "addr:city": "Urbandale", "addr:state": "IA", "addr:postcode": "50322", "addr:country": "USA", "name": "Taco John's", "phone": "(515) 252-9977", "website": "https://locations.tacojohns.com/ia/urbandale/3924-nw-urbandale-dr.html"}, "geometry": {"type": "Point", "coordinates": [-93.756733708085, 41.6316222949004]}},
{"type": "Feature", "id": "kgqGJbLw9rRi6phcaniRa8E80uI=", "properties": {"ref": "https://locations.tacojohns.com/ia/spirit-lake/2329-circle-dr-w.html", "@spider": "taco_johns", "addr:full": "2329 Circle Dr W", "addr:city": "Spirit Lake", "addr:state": "IA", "addr:postcode": "51360", "addr:country": "USA", "name": "Taco John's", "phone": "(712) 336-4849", "website": "https://locations.tacojohns.com/ia/spirit-lake/2329-circle-dr-w.html"}, "geometry": {"type": "Point", "coordinates": [-95.12568906134231, 43.42002254410304]}},
{"type": "Feature", "id": "-HUFy3iG_mZk8xkNC9b2jdfR7A4=", "properties": {"ref": "https://locations.tacojohns.com/ia/sioux-center/334-n-main-ave.html", "@spider": "taco_johns", "addr:full": "334 N Main Ave", "addr:city": "Sioux Center", "addr:state": "IA", "addr:postcode": "51250", "addr:country": "USA", "name": "Taco John's", "phone": "(712) 722-3435", "website": "https://locations.tacojohns.com/ia/sioux-center/334-n-main-ave.html"}, "geometry": {"type": "Point", "coordinates": [-96.17520245166816, 43.08035969473745]}},
{"type": "Feature", "id": "4FFwVwzurwjYqhxJAV6DwTLARXA=", "properties": {"ref": "https://locations.tacojohns.com/ia/sheldon/100-34th-ave.html", "@spider": "taco_johns", "addr:full": "100 34th Ave", "addr:city": "Sheldon", "addr:state": "IA", "addr:postcode": "51201", "addr:country": "USA", "name": "Taco John's", "phone": "(712) 324-5287", "website": "https://locations.tacojohns.com/ia/sheldon/100-34th-ave.html"}, "geometry": {"type": "Point", "coordinates": [-95.81739772883606, 43.185602088585014]}},
{"type": "Feature", "id": "cuiXhwr0Hp9RfXzbxLRuvkEqP90=", "properties": {"ref": "https://locations.tacojohns.com/ia/pella/911-w-16th-st.html", "@spider": "taco_johns", "addr:full": "911 W 16th St", "addr:city": "Pella", "addr:state": "IA", "addr:postcode": "50219", "addr:country": "USA", "name": "Taco John's", "phone": "(641) 628-8818", "website": "https://locations.tacojohns.com/ia/pella/911-w-16th-st.html"}, "geometry": {"type": "Point", "coordinates": [-92.95194536447525, 41.4088484538181]}},
{"type": "Feature", "id": "DEptNJJXFXzVEClQIRBpmOU91AA=", "properties": {"ref": "https://locations.tacojohns.com/ia/ottumwa/423-church-st.html", "@spider": "taco_johns", "addr:full": "423 Church St", "addr:city": "Ottumwa", "addr:state": "IA", "addr:postcode": "52501", "addr:country": "USA", "name": "Taco John's", "phone": "(641) 682-0965", "website": "https://locations.tacojohns.com/ia/ottumwa/423-church-st.html"}, "geometry": {"type": "Point", "coordinates": [-92.41907894611353, 41.00926684063329]}},
{"type": "Feature", "id": "fq1fipNRExXIQJLJt-hLW3xDzIc=", "properties": {"ref": "https://locations.tacojohns.com/ia/oskaloosa/711-a-ave-w.html", "@spider": "taco_johns", "addr:full": "711 A Ave W", "addr:city": "Oskaloosa", "addr:state": "IA", "addr:postcode": "52577", "addr:country": "USA", "name": "Taco John's", "phone": "(641) 673-3264", "website": "https://locations.tacojohns.com/ia/oskaloosa/711-a-ave-w.html"}, "geometry": {"type": "Point", "coordinates": [-92.65303462743759, 41.296447319085686]}},
{"type": "Feature", "id": "IlPSt0NUpRW5U3BWG3K9Mwu7B-c=", "properties": {"ref": "https://locations.tacojohns.com/ia/orange-city/224-8th-st-sw.html", "@spider": "taco_johns", "addr:full": "224 8th St SW", "addr:city": "Orange City", "addr:state": "IA", "addr:postcode": "51041", "addr:country": "USA", "name": "Taco John's", "phone": "(712) 737-4555", "website": "https://locations.tacojohns.com/ia/orange-city/224-8th-st-sw.html"}, "geometry": {"type": "Point", "coordinates": [-96.06089651584625, 42.99734404742846]}},
{"type": "Feature", "id": "YxCgCw3Z2XU2GqQGGGvXRsETIlM=", "properties": {"ref": "https://locations.tacojohns.com/ia/norwalk/1611-sunset-dr.html", "@spider": "taco_johns", "addr:full": "1611 Sunset Dr", "addr:city": "Norwalk", "addr:state": "IA", "addr:postcode": "50211", "addr:country": "USA", "name": "Taco John's", "phone": "(515) 981-0598", "website": "https://locations.tacojohns.com/ia/norwalk/1611-sunset-dr.html"}, "geometry": {"type": "Point", "coordinates": [-93.67655, 41.483252]}},
{"type": "Feature", "id": "-OjOu67k5BkMrfSjpGpqUO7kiek=", "properties": {"ref": "https://locations.tacojohns.com/ia/newton/2106-1st-ave-e.html", "@spider": "taco_johns", "addr:full": "2106 1st Ave E", "addr:city": "Newton", "addr:state": "IA", "addr:postcode": "50208", "addr:country": "USA", "name": "Taco John's", "phone": "(641) 792-1798", "website": "https://locations.tacojohns.com/ia/newton/2106-1st-ave-e.html"}, "geometry": {"type": "Point", "coordinates": [-93.02494436502457, 41.69955663343998]}},
{"type": "Feature", "id": "zx8vhWySy018-ug5WFGRpwlaSYU=", "properties": {"ref": "https://locations.tacojohns.com/ia/muscatine/2516-park-avenue.html", "@spider": "taco_johns", "addr:full": "2516 Park Avenue", "addr:city": "Muscatine", "addr:state": "IA", "addr:postcode": "52761", "addr:country": "USA", "name": "Taco John's", "phone": "(563) 264-8911", "website": "https://locations.tacojohns.com/ia/muscatine/2516-park-avenue.html"}, "geometry": {"type": "Point", "coordinates": [-91.030887, 41.451043]}},
{"type": "Feature", "id": "DKOfmCY01mc8aFl_lf4j4YBwCJA=", "properties": {"ref": "https://locations.tacojohns.com/ia/missouri-valley/1971-highway-30.html", "@spider": "taco_johns", "addr:full": "1971 Highway 30", "addr:city": "Missouri Valley", "addr:state": "IA", "addr:postcode": "51555", "addr:country": "USA", "name": "Taco John's", "phone": "(712) 642-3448", "website": "https://locations.tacojohns.com/ia/missouri-valley/1971-highway-30.html"}, "geometry": {"type": "Point", "coordinates": [-95.92016637325287, 41.55070178673848]}},
{"type": "Feature", "id": "-W2bIkZd7M4dDCtP4YyZbfeXlPg=", "properties": {"ref": "https://locations.tacojohns.com/in/evansville/2509-washington-ave.html", "@spider": "taco_johns", "addr:full": "2509 Washington Ave", "addr:city": "Evansville", "addr:state": "IN", "addr:postcode": "47714", "addr:country": "USA", "name": "Taco John's", "phone": "(812) 473-7841", "website": "https://locations.tacojohns.com/in/evansville/2509-washington-ave.html"}, "geometry": {"type": "Point", "coordinates": [-87.51866966485971, 37.962367081606544]}},
{"type": "Feature", "id": "-GIRB-VecwMiIDezyIS2GcremQI=", "properties": {"ref": "https://locations.tacojohns.com/in/evansville/604-n-st-joe-ave.html", "@spider": "taco_johns", "addr:full": "604 N St Joe Ave", "addr:city": "Evansville", "addr:state": "IN", "addr:postcode": "47712", "addr:country": "USA", "name": "Taco John's", "phone": "(812) 467-0804", "website": "https://locations.tacojohns.com/in/evansville/604-n-st-joe-ave.html"}, "geometry": {"type": "Point", "coordinates": [-87.60079106994056, 37.98353762746252]}},
{"type": "Feature", "id": "7ItWkKPdfj71fDk3-gcPi_Z2CoQ=", "properties": {"ref": "https://locations.tacojohns.com/ia/mason-city/603-s-federal-ave.html", "@spider": "taco_johns", "addr:full": "603 S Federal Ave", "addr:city": "Mason City", "addr:state": "IA", "addr:postcode": "50401", "addr:country": "USA", "name": "Taco John's", "phone": "(641) 423-8503", "website": "https://locations.tacojohns.com/ia/mason-city/603-s-federal-ave.html"}, "geometry": {"type": "Point", "coordinates": [-93.200713545084, 43.146013797535836]}},
{"type": "Feature", "id": "HsO-9mwGd0jRQh7k4lAXk72i1l8=", "properties": {"ref": "https://locations.tacojohns.com/ia/marshalltown/907-s-center-st.html", "@spider": "taco_johns", "addr:full": "907 S Center St", "addr:city": "Marshalltown", "addr:state": "IA", "addr:postcode": "50158", "addr:country": "USA", "name": "Taco John's", "phone": "(641) 753-6211", "website": "https://locations.tacojohns.com/ia/marshalltown/907-s-center-st.html"}, "geometry": {"type": "Point", "coordinates": [-92.91329070925713, 42.03743379744562]}},
{"type": "Feature", "id": "Rne50eZ75jOitVc7lVmbc3QX3SY=", "properties": {"ref": "https://locations.tacojohns.com/ia/maquoketa/1306-43rd-st.html", "@spider": "taco_johns", "addr:full": "1306 43rd St", "addr:city": "Maquoketa", "addr:state": "IA", "addr:postcode": "52060", "addr:country": "USA", "name": "Taco John's", "phone": "(563) 652-0048", "website": "https://locations.tacojohns.com/ia/maquoketa/1306-43rd-st.html"}, "geometry": {"type": "Point", "coordinates": [-90.68706216663259, 42.0691474972803]}},
{"type": "Feature", "id": "PX7UhHcRbYAFop-EIUd2ElG1uyA=", "properties": {"ref": "https://locations.tacojohns.com/ia/le-mars/320-5th-ave-sw.html", "@spider": "taco_johns", "addr:full": "320 5th Ave SW", "addr:city": "Le Mars", "addr:state": "IA", "addr:postcode": "51031", "addr:country": "USA", "name": "Taco John's", "phone": "(712) 546-4008", "website": "https://locations.tacojohns.com/ia/le-mars/320-5th-ave-sw.html"}, "geometry": {"type": "Point", "coordinates": [-96.17323815822601, 42.78867310577559]}},
{"type": "Feature", "id": "Bl0bv8ilEBLe5_mEp0zwEw02mMQ=", "properties": {"ref": "https://locations.tacojohns.com/ia/sioux-city/3601-gordon-dr.html", "@spider": "taco_johns", "addr:full": "3601 Gordon Dr", "addr:city": "Sioux City", "addr:state": "IA", "addr:postcode": "51106", "addr:country": "USA", "name": "Taco John's", "phone": "(712) 255-9996", "website": "https://locations.tacojohns.com/ia/sioux-city/3601-gordon-dr.html"}, "geometry": {"type": "Point", "coordinates": [-96.36082070323027, 42.48653812779024]}},
{"type": "Feature", "id": "dORl-5oIB2oToKiGusiP20rPzCw=", "properties": {"ref": "https://locations.tacojohns.com/ia/sioux-city/3218-singing-hills-blvd.html", "@spider": "taco_johns", "addr:full": "3218 Singing Hills Blvd", "addr:city": "Sioux City", "addr:state": "IA", "addr:postcode": "51106", "addr:country": "USA", "name": "Taco John's", "phone": "(712) 222-1223", "website": "https://locations.tacojohns.com/ia/sioux-city/3218-singing-hills-blvd.html"}, "geometry": {"type": "Point", "coordinates": [-96.36619719118016, 42.43525835662474]}},
{"type": "Feature", "id": "Sgq_ixjC8D9xNywk6NhmUA1CG9k=", "properties": {"ref": "https://locations.tacojohns.com/ia/sioux-city/2111-27th-st.html", "@spider": "taco_johns", "addr:full": "2111 27th St", "addr:city": "Sioux City", "addr:state": "IA", "addr:postcode": "51104", "addr:country": "USA", "name": "Taco John's", "phone": "(712) 255-8709", "website": "https://locations.tacojohns.com/ia/sioux-city/2111-27th-st.html"}, "geometry": {"type": "Point", "coordinates": [-96.38348042964935, 42.5178280491347]}},
{"type": "Feature", "id": "T957RKNKJ7jhqijrXnAsEM2U2-E=", "properties": {"ref": "https://locations.tacojohns.com/ia/sioux-city/1721-hamilton-blvd.html", "@spider": "taco_johns", "addr:full": "1721 Hamilton Blvd", "addr:city": "Sioux City", "addr:state": "IA", "addr:postcode": "51103", "addr:country": "USA", "name": "Taco John's", "phone": "(712) 258-8023", "website": "https://locations.tacojohns.com/ia/sioux-city/1721-hamilton-blvd.html"}, "geometry": {"type": "Point", "coordinates": [-96.41702371092833, 42.509253812133366]}},
{"type": "Feature", "id": "3lZfs7V5QPP2y8Gfjwslcg0gIyo=", "properties": {"ref": "https://locations.tacojohns.com/ia/indianola/1103-n-jefferson-way.html", "@spider": "taco_johns", "addr:full": "1103 N Jefferson Way", "addr:city": "Indianola", "addr:state": "IA", "addr:postcode": "50125", "addr:country": "USA", "name": "Taco John's", "phone": "(515) 961-3335", "website": "https://locations.tacojohns.com/ia/indianola/1103-n-jefferson-way.html"}, "geometry": {"type": "Point", "coordinates": [-93.55892749877967, 41.370504033292654]}},
{"type": "Feature", "id": "wd_J74OMLa4XDi_6oluPLL3uE0g=", "properties": {"ref": "https://locations.tacojohns.com/ia/hiawatha/1940-blairs-ferry-rd.html", "@spider": "taco_johns", "addr:full": "1940 Blairs Ferry Rd", "addr:city": "Hiawatha", "addr:state": "IA", "addr:postcode": "52233", "addr:country": "USA", "name": "Taco John's", "phone": "(319) 200-4800", "website": "https://locations.tacojohns.com/ia/hiawatha/1940-blairs-ferry-rd.html"}, "geometry": {"type": "Point", "coordinates": [-91.66721345767212, 42.03500617221274]}},
{"type": "Feature", "id": "Q4EQNn930aU4szSvjWlD1VH7XRc=", "properties": {"ref": "https://locations.tacojohns.com/ia/grinnell/1020-west-st.html", "@spider": "taco_johns", "addr:full": "1020 West St", "addr:city": "Grinnell", "addr:state": "IA", "addr:postcode": "50112", "addr:country": "USA", "name": "Taco John's", "phone": "(641) 236-4863", "website": "https://locations.tacojohns.com/ia/grinnell/1020-west-st.html"}, "geometry": {"type": "Point", "coordinates": [-92.72693576663869, 41.74557972017931]}},
{"type": "Feature", "id": "530EyQed5ZRT8kJqfsXjIvebyxY=", "properties": {"ref": "https://locations.tacojohns.com/ia/grimes/250-se-destination-dr.html", "@spider": "taco_johns", "addr:full": "250 SE Destination Dr", "addr:city": "Grimes", "addr:state": "IA", "addr:postcode": "50111", "addr:country": "USA", "name": "Taco John's", "phone": "(515) 986-3360", "website": "https://locations.tacojohns.com/ia/grimes/250-se-destination-dr.html"}, "geometry": {"type": "Point", "coordinates": [-93.76950236412085, 41.68668576046274]}},
{"type": "Feature", "id": "r6fisznmG1ujOUG4-jJYMOW3laM=", "properties": {"ref": "https://locations.tacojohns.com/ia/fairfield/703-w-burlington-ave.html", "@spider": "taco_johns", "addr:full": "703 W Burlington Ave", "addr:city": "Fairfield", "addr:state": "IA", "addr:postcode": "52556", "addr:country": "USA", "name": "Taco John's", "phone": "(641) 472-7833", "website": "https://locations.tacojohns.com/ia/fairfield/703-w-burlington-ave.html"}, "geometry": {"type": "Point", "coordinates": [-91.97244420647621, 41.006772208226]}},
{"type": "Feature", "id": "ztzRrXFSAXeSSXwv8SISyuW9oMk=", "properties": {"ref": "https://locations.tacojohns.com/ia/creston/708-s-walnut-st.html", "@spider": "taco_johns", "addr:full": "708 S Walnut St", "addr:city": "Creston", "addr:state": "IA", "addr:postcode": "50801", "addr:country": "USA", "name": "Taco John's", "phone": "(641) 782-4731", "website": "https://locations.tacojohns.com/ia/creston/708-s-walnut-st.html"}, "geometry": {"type": "Point", "coordinates": [-94.36056643724436, 41.049543338101934]}},
{"type": "Feature", "id": "SnLXVglvQmW-N9_Hn38VPNL-gxg=", "properties": {"ref": "https://locations.tacojohns.com/ia/coralville/2601-james-street.html", "@spider": "taco_johns", "addr:full": "2601 James Street", "addr:city": "Coralville", "addr:state": "IA", "addr:postcode": "52241", "addr:country": "USA", "name": "Taco John's", "phone": "(319) 519-5041", "website": "https://locations.tacojohns.com/ia/coralville/2601-james-street.html"}, "geometry": {"type": "Point", "coordinates": [-91.6045935, 41.6854672]}},
{"type": "Feature", "id": "j7i-O00jLb-ytUNsZrAXZuZN7tQ=", "properties": {"ref": "https://locations.tacojohns.com/ia/clear-lake/2905-4th-ave-south.html", "@spider": "taco_johns", "addr:full": "2905 4th Ave South", "addr:city": "Clear Lake", "addr:state": "IA", "addr:postcode": "50428", "addr:country": "USA", "name": "Taco John's", "phone": "(641) 357-0900", "website": "https://locations.tacojohns.com/ia/clear-lake/2905-4th-ave-south.html"}, "geometry": {"type": "Point", "coordinates": [-93.35310459136963, 43.13295742064769]}},
{"type": "Feature", "id": "NcDkXis7vWUzzBzRYglQVwUAHDw=", "properties": {"ref": "https://locations.tacojohns.com/ia/cherokee/902-n-2nd-st.html", "@spider": "taco_johns", "addr:full": "902 N 2nd St", "addr:city": "Cherokee", "addr:state": "IA", "addr:postcode": "51012", "addr:country": "USA", "name": "Taco John's", "phone": "(712) 225-0374", "website": "https://locations.tacojohns.com/ia/cherokee/902-n-2nd-st.html"}, "geometry": {"type": "Point", "coordinates": [-95.55102290960349, 42.76169206349258]}},
{"type": "Feature", "id": "p8Ba_lIDo_vynB9kae-3gQYyxZk=", "properties": {"ref": "https://locations.tacojohns.com/ia/charles-city/905-gilbert-st.html", "@spider": "taco_johns", "addr:full": "905 Gilbert St", "addr:city": "Charles City", "addr:state": "IA", "addr:postcode": "50616", "addr:country": "USA", "name": "Taco John's", "phone": "(641) 257-0511", "website": "https://locations.tacojohns.com/ia/charles-city/905-gilbert-st.html"}, "geometry": {"type": "Point", "coordinates": [-92.6829881966114, 43.06561247816176]}},
{"type": "Feature", "id": "GDq7L4mYcQDRH5sFOceF_1J5DzQ=", "properties": {"ref": "https://locations.tacojohns.com/ia/cedar-falls/6210-university-ave.html", "@spider": "taco_johns", "addr:full": "6210 University Ave", "addr:city": "Cedar Falls", "addr:state": "IA", "addr:postcode": "50613", "addr:country": "USA", "name": "Taco John's", "phone": "(319) 277-6658", "website": "https://locations.tacojohns.com/ia/cedar-falls/6210-university-ave.html"}, "geometry": {"type": "Point", "coordinates": [-92.43258118629456, 42.51376425931726]}},
{"type": "Feature", "id": "Wq6BOGjnGL0vBkBVWiIpqYkdQBI=", "properties": {"ref": "https://locations.tacojohns.com/ia/carroll/513-e-6th-st.html", "@spider": "taco_johns", "addr:full": "513 E 6th St", "addr:city": "Carroll", "addr:state": "IA", "addr:postcode": "51401", "addr:country": "USA", "name": "Taco John's", "phone": "(712) 792-2646", "website": "https://locations.tacojohns.com/ia/carroll/513-e-6th-st.html"}, "geometry": {"type": "Point", "coordinates": [-94.86052215099335, 42.06423678448428]}},
{"type": "Feature", "id": "v7xe54OBPSuWxdXU8gPMflJmCcA=", "properties": {"ref": "https://locations.tacojohns.com/ia/burlington/119-s-roosevelt-av.html", "@spider": "taco_johns", "addr:full": "119 S Roosevelt Av", "addr:city": "Burlington", "addr:state": "IA", "addr:postcode": "52601", "addr:country": "USA", "name": "Taco John's", "phone": "(319) 754-5114", "website": "https://locations.tacojohns.com/ia/burlington/119-s-roosevelt-av.html"}, "geometry": {"type": "Point", "coordinates": [-91.1421315, 40.8091684]}},
{"type": "Feature", "id": "3cnssi_z7okwXU7_L1Yra2FZe3g=", "properties": {"ref": "https://locations.tacojohns.com/ia/boone/415-story-st.html", "@spider": "taco_johns", "addr:full": "415 Story St", "addr:city": "Boone", "addr:state": "IA", "addr:postcode": "50036", "addr:country": "USA", "name": "Taco John's", "phone": "(515) 432-7600", "website": "https://locations.tacojohns.com/ia/boone/415-story-st.html"}, "geometry": {"type": "Point", "coordinates": [-93.88034105300903, 42.0601983882255]}},
{"type": "Feature", "id": "jw_jSAvELAggFfcDS7ruFJxN_8Q=", "properties": {"ref": "https://locations.tacojohns.com/ia/avoca/7005-n-chestnut-st.html", "@spider": "taco_johns", "addr:full": "7005 N Chestnut St", "addr:city": "Avoca", "addr:state": "IA", "addr:postcode": "51521", "addr:country": "USA", "name": "Taco John's", "phone": "(712) 343-4007", "website": "https://locations.tacojohns.com/ia/avoca/7005-n-chestnut-st.html"}, "geometry": {"type": "Point", "coordinates": [-95.3345022681055, 41.49948203992398]}},
{"type": "Feature", "id": "rHkx89uyDSZxO1DZDxCFeTEtyzE=", "properties": {"ref": "https://locations.tacojohns.com/ia/ankeny/319-s-ankeny-blvd.html", "@spider": "taco_johns", "addr:full": "319 S Ankeny Blvd", "addr:city": "Ankeny", "addr:state": "IA", "addr:postcode": "50023", "addr:country": "USA", "name": "Taco John's", "phone": "(515) 964-9800", "website": "https://locations.tacojohns.com/ia/ankeny/319-s-ankeny-blvd.html"}, "geometry": {"type": "Point", "coordinates": [-93.5998995, 41.7284373]}},
{"type": "Feature", "id": "DDqRziiAUD4MjfbxLeImRMAPiYE=", "properties": {"ref": "https://locations.tacojohns.com/ia/ames/500-lincoln-way.html", "@spider": "taco_johns", "addr:full": "500 Lincoln Way", "addr:city": "Ames", "addr:state": "IA", "addr:postcode": "50010", "addr:country": "USA", "name": "Taco John's", "phone": "(515) 232-3176", "website": "https://locations.tacojohns.com/ia/ames/500-lincoln-way.html"}, "geometry": {"type": "Point", "coordinates": [-93.61724140497245, 42.022597386421566]}},
{"type": "Feature", "id": "4vNID6s9y36p2W5c20PZ2TykEBM=", "properties": {"ref": "https://locations.tacojohns.com/ia/dubuque/2258-flint-hill-dr.html", "@spider": "taco_johns", "addr:full": "2258 Flint Hill Dr", "addr:city": "Dubuque", "addr:state": "IA", "addr:postcode": "52003", "addr:country": "USA", "name": "Taco John's", "phone": "(563) 583-3642", "website": "https://locations.tacojohns.com/ia/dubuque/2258-flint-hill-dr.html"}, "geometry": {"type": "Point", "coordinates": [-90.67457556724548, 42.45846514064028]}},
{"type": "Feature", "id": "mKR3YtDSoWRWTKi0sW7fUXkyIJM=", "properties": {"ref": "https://locations.tacojohns.com/ia/des-moines/921-e-euclid-ave.html", "@spider": "taco_johns", "addr:full": "921 E Euclid Ave", "addr:city": "Des Moines", "addr:state": "IA", "addr:postcode": "50316", "addr:country": "USA", "name": "Taco John's", "phone": "(515) 262-0110", "website": "https://locations.tacojohns.com/ia/des-moines/921-e-euclid-ave.html"}, "geometry": {"type": "Point", "coordinates": [-93.6053288, 41.6274969]}},
{"type": "Feature", "id": "nNi2zgW9xX9KLvT9aRQ9JXwPx_k=", "properties": {"ref": "https://locations.tacojohns.com/ia/davenport/320-w-kimberly-rd.html", "@spider": "taco_johns", "addr:full": "320 W Kimberly Rd", "addr:city": "Davenport", "addr:state": "IA", "addr:postcode": "52806", "addr:country": "USA", "name": "Taco John's", "phone": "(563) 388-7322", "website": "https://locations.tacojohns.com/ia/davenport/320-w-kimberly-rd.html"}, "geometry": {"type": "Point", "coordinates": [-90.5762899, 41.5626131]}},
{"type": "Feature", "id": "whjREchN3Q6Q9ylCqrap1saYgN4=", "properties": {"ref": "https://locations.tacojohns.com/ia/davenport/1915-e-kimberly-rd.html", "@spider": "taco_johns", "addr:full": "1915 E Kimberly Rd", "addr:city": "Davenport", "addr:state": "IA", "addr:postcode": "52807", "addr:country": "USA", "name": "Taco John's", "phone": "(563) 355-2044", "website": "https://locations.tacojohns.com/ia/davenport/1915-e-kimberly-rd.html"}, "geometry": {"type": "Point", "coordinates": [-90.54802626371384, 41.55636006776825]}},
{"type": "Feature", "id": "2hNjuqZhQCwYmZGXCFJDfZyFIss=", "properties": {"ref": "https://locations.tacojohns.com/ia/council-bluffs/2300-w-broadway.html", "@spider": "taco_johns", "addr:full": "2300 W Broadway", "addr:city": "Council Bluffs", "addr:state": "IA", "addr:postcode": "51501", "addr:country": "USA", "name": "Taco John's", "phone": "(712) 323-7088", "website": "https://locations.tacojohns.com/ia/council-bluffs/2300-w-broadway.html"}, "geometry": {"type": "Point", "coordinates": [-95.8786484599114, 41.262190732082146]}},
{"type": "Feature", "id": "xv6YvWx0zSjNr659nLCgKZCq7XU=", "properties": {"ref": "https://locations.tacojohns.com/ia/council-bluffs/217-e-broadway.html", "@spider": "taco_johns", "addr:full": "217 E Broadway", "addr:city": "Council Bluffs", "addr:state": "IA", "addr:postcode": "51503", "addr:country": "USA", "name": "Taco John's", "phone": "(712) 323-5121", "website": "https://locations.tacojohns.com/ia/council-bluffs/217-e-broadway.html"}, "geometry": {"type": "Point", "coordinates": [-95.84211409091955, 41.264065785282256]}},
{"type": "Feature", "id": "WqKGB46-We4-XGGR-wI7ZIRLPl8=", "properties": {"ref": "https://locations.tacojohns.com/ia/des-moines/5824-douglas-ave.html", "@spider": "taco_johns", "addr:full": "5824 Douglas Ave", "addr:city": "Des Moines", "addr:state": "IA", "addr:postcode": "50322", "addr:country": "USA", "name": "Taco John's", "phone": "(515) 270-4624", "website": "https://locations.tacojohns.com/ia/des-moines/5824-douglas-ave.html"}, "geometry": {"type": "Point", "coordinates": [-93.6986546, 41.6289602]}},
{"type": "Feature", "id": "AS8pHefM5lgLx6tkWH_Lorw-7WU=", "properties": {"ref": "https://locations.tacojohns.com/ia/des-moines/2727-sw-9th-st.html", "@spider": "taco_johns", "addr:full": "2727 SW 9th St", "addr:city": "Des Moines", "addr:state": "IA", "addr:postcode": "50315", "addr:country": "USA", "name": "Taco John's", "phone": "(515) 282-8800", "website": "https://locations.tacojohns.com/ia/des-moines/2727-sw-9th-st.html"}, "geometry": {"type": "Point", "coordinates": [-93.62535417079926, 41.56041128537331]}},
{"type": "Feature", "id": "4UFLv_uTgB-XFmxcg1CcNjIBYcU=", "properties": {"ref": "https://locations.tacojohns.com/ia/des-moines/2600-ingersoll-ave.html", "@spider": "taco_johns", "addr:full": "2600 Ingersoll Ave", "addr:city": "Des Moines", "addr:state": "IA", "addr:postcode": "50312", "addr:country": "USA", "name": "Taco John's", "phone": "(515) 243-6900", "website": "https://locations.tacojohns.com/ia/des-moines/2600-ingersoll-ave.html"}, "geometry": {"type": "Point", "coordinates": [-93.65236761423148, 41.58549514619102]}},
{"type": "Feature", "id": "e6XIO6I6Ymhm5nNL3LSDTwt06qo=", "properties": {"ref": "https://locations.tacojohns.com/ia/cedar-rapids/4401-1st-ave-se.html", "@spider": "taco_johns", "addr:full": "4401 1st Ave SE", "addr:city": "Cedar Rapids", "addr:state": "IA", "addr:postcode": "52402", "addr:country": "USA", "name": "Taco John's", "phone": "(319) 393-6101", "website": "https://locations.tacojohns.com/ia/cedar-rapids/4401-1st-ave-se.html"}, "geometry": {"type": "Point", "coordinates": [-91.62740886211401, 42.02243054237268]}},
{"type": "Feature", "id": "auDRSRXPrNkE5YQ-YimHAXmrfKs=", "properties": {"ref": "https://locations.tacojohns.com/ia/cedar-rapids/226-edgewood-rd-nw.html", "@spider": "taco_johns", "addr:full": "226 Edgewood Rd NW", "addr:city": "Cedar Rapids", "addr:state": "IA", "addr:postcode": "52405", "addr:country": "USA", "name": "Taco John's", "phone": "(319) 396-2025", "website": "https://locations.tacojohns.com/ia/cedar-rapids/226-edgewood-rd-nw.html"}, "geometry": {"type": "Point", "coordinates": [-91.71644881367683, 41.974120351240835]}},
{"type": "Feature", "id": "BNwYgMo4VhcvY3EgqfT_rGJdAk8=", "properties": {"ref": "https://locations.tacojohns.com/ia/des-moines/2121-hubbell-ave.html", "@spider": "taco_johns", "addr:full": "2121 Hubbell Ave", "addr:city": "Des Moines", "addr:state": "IA", "addr:postcode": "50317", "addr:country": "USA", "name": "Taco John's", "phone": "(515) 262-5211", "website": "https://locations.tacojohns.com/ia/des-moines/2121-hubbell-ave.html"}, "geometry": {"type": "Point", "coordinates": [-93.57909277081484, 41.59975418682194]}},
{"type": "Feature", "id": "Un_k_zIloifkMN0M8NwiJE411e8=", "properties": {"ref": "https://locations.tacojohns.com/ia/des-moines/1250-e-army-post-rd.html", "@spider": "taco_johns", "addr:full": "1250 E Army Post Rd", "addr:city": "Des Moines", "addr:state": "IA", "addr:postcode": "50315", "addr:country": "USA", "name": "Taco John's", "phone": "(515) 285-1331", "website": "https://locations.tacojohns.com/ia/des-moines/1250-e-army-post-rd.html"}, "geometry": {"type": "Point", "coordinates": [-93.59906983275351, 41.52695532419278]}},
{"type": "Feature", "id": "FHWkouHjzjCktAhwak3ZvBBsikI=", "properties": {"ref": "https://locations.tacojohns.com/ia/dubuque/17-e-20th-st.html", "@spider": "taco_johns", "addr:full": "17 E 20th St", "addr:city": "Dubuque", "addr:state": "IA", "addr:postcode": "52001", "addr:country": "USA", "name": "Taco John's", "phone": "(563) 582-3443", "website": "https://locations.tacojohns.com/ia/dubuque/17-e-20th-st.html"}, "geometry": {"type": "Point", "coordinates": [-90.66974624991423, 42.511523180204115]}},
{"type": "Feature", "id": "6DZtUCO7KLDNDHKqdl1YtfefqfE=", "properties": {"ref": "https://locations.tacojohns.com/ia/altoona/2501-adventureland-dr.html", "@spider": "taco_johns", "addr:full": "2501 Adventureland Dr", "addr:city": "Altoona", "addr:state": "IA", "addr:postcode": "50009", "addr:country": "USA", "name": "Taco John's", "phone": "(515) 967-8777", "website": "https://locations.tacojohns.com/ia/altoona/2501-adventureland-dr.html"}, "geometry": {"type": "Point", "coordinates": [-93.49275514483452, 41.6589780909972]}},
{"type": "Feature", "id": "9Vph4x9GxXKdU94w82S6eL2jo8U=", "properties": {"ref": "https://locations.tacojohns.com/ks/olathe/18617-151st-st.html", "@spider": "taco_johns", "addr:full": "18617 151st St", "addr:city": "Olathe", "addr:state": "KS", "addr:postcode": "66062", "addr:country": "USA", "name": "Taco John's", "phone": "(913) 829-8226", "website": "https://locations.tacojohns.com/ks/olathe/18617-151st-st.html"}, "geometry": {"type": "Point", "coordinates": [-94.8006038591484, 38.85421181351348]}},
{"type": "Feature", "id": "wowSJjLX41HJN4COh4eaoHqEWFA=", "properties": {"ref": "https://locations.tacojohns.com/ks/manhattan/214-leavenworth-st.html", "@spider": "taco_johns", "addr:full": "214 Leavenworth St", "addr:city": "Manhattan", "addr:state": "KS", "addr:postcode": "66502", "addr:country": "USA", "name": "Taco John's", "phone": "(785) 320-6133", "website": "https://locations.tacojohns.com/ks/manhattan/214-leavenworth-st.html"}, "geometry": {"type": "Point", "coordinates": [-96.55947625637054, 39.18177716423823]}},
{"type": "Feature", "id": "Vh9FLrcFL5K0UipUBmJplZ8GnbI=", "properties": {"ref": "https://locations.tacojohns.com/ks/liberal/1000-pancake-blvd.html", "@spider": "taco_johns", "addr:full": "1000 Pancake Blvd", "addr:city": "Liberal", "addr:state": "KS", "addr:postcode": "67901", "addr:country": "USA", "name": "Taco John's", "phone": "(620) 626-5409", "website": "https://locations.tacojohns.com/ks/liberal/1000-pancake-blvd.html"}, "geometry": {"type": "Point", "coordinates": [-100.90146195337297, 37.04467319793489]}},
{"type": "Feature", "id": "50KwNWFQ8jGJLHoa1Yw8RA0Prx8=", "properties": {"ref": "https://locations.tacojohns.com/ks/lansing/480-n-main-st.html", "@spider": "taco_johns", "addr:full": "480 N Main St", "addr:city": "Lansing", "addr:state": "KS", "addr:postcode": "66043", "addr:country": "USA", "name": "Taco John's", "phone": "(913) 364-5036", "website": "https://locations.tacojohns.com/ks/lansing/480-n-main-st.html"}, "geometry": {"type": "Point", "coordinates": [-94.89946112036705, 39.25652164324279]}},
{"type": "Feature", "id": "0gIK6CR4zFXN4OSBBAeBkYeYgU0=", "properties": {"ref": "https://locations.tacojohns.com/ks/hutchinson/420-e-30th-ave.html", "@spider": "taco_johns", "addr:full": "420 E 30th Ave", "addr:city": "Hutchinson", "addr:state": "KS", "addr:postcode": "67502", "addr:country": "USA", "name": "Taco John's", "phone": "(620) 259-7270", "website": "https://locations.tacojohns.com/ks/hutchinson/420-e-30th-ave.html"}, "geometry": {"type": "Point", "coordinates": [-97.9237979650498, 38.08690764898221]}},
{"type": "Feature", "id": "_0ZqKU33L82M78zy0RhqUyjuWPE=", "properties": {"ref": "https://locations.tacojohns.com/ks/goodland/2304-commerce-rd.html", "@spider": "taco_johns", "addr:full": "2304 Commerce Rd", "addr:city": "Goodland", "addr:state": "KS", "addr:postcode": "67735", "addr:country": "USA", "name": "Taco John's", "phone": "(785) 890-8226", "website": "https://locations.tacojohns.com/ks/goodland/2304-commerce-rd.html"}, "geometry": {"type": "Point", "coordinates": [-101.72684043645859, 39.332216591219854]}},
{"type": "Feature", "id": "JFmGnzbGG0sDAK-5HKuSN_kipSE=", "properties": {"ref": "https://locations.tacojohns.com/ks/garden-city/2875-e-shulman-ave.html", "@spider": "taco_johns", "addr:full": "2875 E Shulman Ave", "addr:city": "Garden City", "addr:state": "KS", "addr:postcode": "67846", "addr:country": "USA", "name": "Taco John's", "phone": "(620) 260-9843", "website": "https://locations.tacojohns.com/ks/garden-city/2875-e-shulman-ave.html"}, "geometry": {"type": "Point", "coordinates": [-100.837301, 37.9753312]}},
{"type": "Feature", "id": "ugJEANz5STAMlJ0RAnD4VcUlGeY=", "properties": {"ref": "https://locations.tacojohns.com/ks/concordia/2122-lincoln-street.html", "@spider": "taco_johns", "addr:full": "2122 Lincoln Street", "addr:city": "Concordia", "addr:state": "KS", "addr:postcode": "66901", "addr:country": "USA", "name": "Taco John's", "phone": "(785) 243-4335", "website": "https://locations.tacojohns.com/ks/concordia/2122-lincoln-street.html"}, "geometry": {"type": "Point", "coordinates": [-97.657919973135, 39.55564925829308]}},
{"type": "Feature", "id": "UwyRPdfKe6RLRrgc09e6b9PPoSU=", "properties": {"ref": "https://locations.tacojohns.com/ks/colby/625-w-willow.html", "@spider": "taco_johns", "addr:full": "625 W Willow", "addr:city": "Colby", "addr:state": "KS", "addr:postcode": "67701", "addr:country": "USA", "name": "Taco John's", "phone": "(785) 460-8226", "website": "https://locations.tacojohns.com/ks/colby/625-w-willow.html"}, "geometry": {"type": "Point", "coordinates": [-101.05209723114967, 39.36580533014369]}},
{"type": "Feature", "id": "0I29mPoGgbsjU7ibnMSBTALqUxY=", "properties": {"ref": "https://locations.tacojohns.com/ks/chanute/1503-s-santa-fe-ave.html", "@spider": "taco_johns", "addr:full": "1503 S Santa Fe Ave", "addr:city": "Chanute", "addr:state": "KS", "addr:postcode": "66720", "addr:country": "USA", "name": "Taco John's", "phone": "(620) 433-4056", "website": "https://locations.tacojohns.com/ks/chanute/1503-s-santa-fe-ave.html"}, "geometry": {"type": "Point", "coordinates": [-95.45281291007996, 37.66564150531812]}},
{"type": "Feature", "id": "17avyBzMjk1fZEr31Uj9BCGbhwc=", "properties": {"ref": "https://locations.tacojohns.com/ks/bonner-springs/13032-kansas-ave.html", "@spider": "taco_johns", "addr:full": "13032 Kansas Ave", "addr:city": "Bonner Springs", "addr:state": "KS", "addr:postcode": "66012", "addr:country": "USA", "name": "Taco John's", "phone": "(913) 422-7304", "website": "https://locations.tacojohns.com/ks/bonner-springs/13032-kansas-ave.html"}, "geometry": {"type": "Point", "coordinates": [-94.88315688820876, 39.08750313835961]}},
{"type": "Feature", "id": "BkretGjcSRzncznfT1zGr8vmJf0=", "properties": {"ref": "https://locations.tacojohns.com/ks/atchison/216-s-10th-st.html", "@spider": "taco_johns", "addr:full": "216 S 10th St", "addr:city": "Atchison", "addr:state": "KS", "addr:postcode": "66002", "addr:country": "USA", "name": "Taco John's", "phone": "(913) 367-0276", "website": "https://locations.tacojohns.com/ks/atchison/216-s-10th-st.html"}, "geometry": {"type": "Point", "coordinates": [-95.1269848644734, 39.55953492215567]}},
{"type": "Feature", "id": "AVFg9mPckuwMb2ptcLW8wMCLBGY=", "properties": {"ref": "https://locations.tacojohns.com/ky/princeton/530-us-hwy-62-west.html", "@spider": "taco_johns", "addr:full": "530 US Hwy 62 West", "addr:city": "Princeton", "addr:state": "KY", "addr:postcode": "42445", "addr:country": "USA", "name": "Taco John's", "phone": "(270) 365-7112", "website": "https://locations.tacojohns.com/ky/princeton/530-us-hwy-62-west.html"}, "geometry": {"type": "Point", "coordinates": [-87.9041249, 37.1108073]}},
{"type": "Feature", "id": "fllc16JYVdBD_YoPpdxxCFoIuao=", "properties": {"ref": "https://locations.tacojohns.com/ky/murray/1100-chestnut-st.html", "@spider": "taco_johns", "addr:full": "1100 Chestnut St", "addr:city": "Murray", "addr:state": "KY", "addr:postcode": "42071", "addr:country": "USA", "name": "Taco John's", "phone": "(270) 753-9697", "website": "https://locations.tacojohns.com/ky/murray/1100-chestnut-st.html"}, "geometry": {"type": "Point", "coordinates": [-88.31384271383291, 36.617478125737264]}},
{"type": "Feature", "id": "-i4yMV_RzNssCuweSsKY229mFDw=", "properties": {"ref": "https://locations.tacojohns.com/ks/salina/418-e-iron-ave.html", "@spider": "taco_johns", "addr:full": "418 E Iron Ave", "addr:city": "Salina", "addr:state": "KS", "addr:postcode": "67401", "addr:country": "USA", "name": "Taco John's", "phone": "(785) 825-6382", "website": "https://locations.tacojohns.com/ks/salina/418-e-iron-ave.html"}, "geometry": {"type": "Point", "coordinates": [-97.6047192939252, 38.84018058499113]}},
{"type": "Feature", "id": "1MDwEZpf53dLtKzpGaYPoPCVQi8=", "properties": {"ref": "https://locations.tacojohns.com/ks/salina/3049-riffel-dr.html", "@spider": "taco_johns", "addr:full": "3049 Riffel Dr", "addr:city": "Salina", "addr:state": "KS", "addr:postcode": "67401", "addr:country": "USA", "name": "Taco John's", "phone": "(785) 404-1600", "website": "https://locations.tacojohns.com/ks/salina/3049-riffel-dr.html"}, "geometry": {"type": "Point", "coordinates": [-97.61372119188309, 38.781272202875925]}},
{"type": "Feature", "id": "ie43BppLcbwtf9hzurlq7Q67Ek0=", "properties": {"ref": "https://locations.tacojohns.com/ky/mayfield/1016-paris-rd.html", "@spider": "taco_johns", "addr:full": "1016 Paris Rd", "addr:city": "Mayfield", "addr:state": "KY", "addr:postcode": "42066", "addr:country": "USA", "name": "Taco John's", "phone": "(270) 247-0545", "website": "https://locations.tacojohns.com/ky/mayfield/1016-paris-rd.html"}, "geometry": {"type": "Point", "coordinates": [-88.62995267135886, 36.7278281397127]}},
{"type": "Feature", "id": "C39j80sYJccqtXtAg90pL50W394=", "properties": {"ref": "https://locations.tacojohns.com/ky/madisonville/1076-n-main-st.html", "@spider": "taco_johns", "addr:full": "1076 N Main St", "addr:city": "Madisonville", "addr:state": "KY", "addr:postcode": "42431", "addr:country": "USA", "name": "Taco John's", "phone": "(270) 821-6568", "website": "https://locations.tacojohns.com/ky/madisonville/1076-n-main-st.html"}, "geometry": {"type": "Point", "coordinates": [-87.4977506920709, 37.345334958514265]}},
{"type": "Feature", "id": "Tx3LUm7G23DQTAIAZXtihTdxN14=", "properties": {"ref": "https://locations.tacojohns.com/ks/lawrence/2309-haskell-ave.html", "@spider": "taco_johns", "addr:full": "2309 Haskell Ave", "addr:city": "Lawrence", "addr:state": "KS", "addr:postcode": "66046", "addr:country": "USA", "name": "Taco John's", "phone": "(785) 842-5533", "website": "https://locations.tacojohns.com/ks/lawrence/2309-haskell-ave.html"}, "geometry": {"type": "Point", "coordinates": [-95.2238193154335, 38.941945468585445]}},
{"type": "Feature", "id": "OT7XpAVQULMzauZshB1eM1MxNK8=", "properties": {"ref": "https://locations.tacojohns.com/ks/lawrence/1101-w-6th-st.html", "@spider": "taco_johns", "addr:full": "1101 W 6th St", "addr:city": "Lawrence", "addr:state": "KS", "addr:postcode": "66044", "addr:country": "USA", "name": "Taco John's", "phone": "(785) 843-0936", "website": "https://locations.tacojohns.com/ks/lawrence/1101-w-6th-st.html"}, "geometry": {"type": "Point", "coordinates": [-95.24786129593849, 38.9728433610435]}},
{"type": "Feature", "id": "7ulerhOc1vUBIiMpQRzQzBB5iiw=", "properties": {"ref": "https://locations.tacojohns.com/ky/henderson/1949-us-highway-41-n.html", "@spider": "taco_johns", "addr:full": "1949 US Highway 41 N", "addr:city": "Henderson", "addr:state": "KY", "addr:postcode": "42420", "addr:country": "USA", "name": "Taco John's", "phone": "(270) 830-6585", "website": "https://locations.tacojohns.com/ky/henderson/1949-us-highway-41-n.html"}, "geometry": {"type": "Point", "coordinates": [-87.5747474, 37.8634188]}},
{"type": "Feature", "id": "u1qRBrQ9pBfOlLFF2cGL-HBsGgY=", "properties": {"ref": "https://locations.tacojohns.com/ky/benton/360-main-st.html", "@spider": "taco_johns", "addr:full": "360 Main St", "addr:city": "Benton", "addr:state": "KY", "addr:postcode": "42025", "addr:country": "USA", "name": "Taco John's", "phone": "(270) 527-1670", "website": "https://locations.tacojohns.com/ky/benton/360-main-st.html"}, "geometry": {"type": "Point", "coordinates": [-88.35055679082876, 36.866290559906]}},
{"type": "Feature", "id": "HUBFKLR1PFgmKJ9KQOggYM6qXms=", "properties": {"ref": "https://locations.tacojohns.com/mn/winona/1213-gilmore-ave.html", "@spider": "taco_johns", "addr:full": "1213 Gilmore Ave", "addr:city": "Winona", "addr:state": "MN", "addr:postcode": "55987", "addr:country": "USA", "name": "Taco John's", "phone": "(507) 452-6057", "website": "https://locations.tacojohns.com/mn/winona/1213-gilmore-ave.html"}, "geometry": {"type": "Point", "coordinates": [-91.668788, 44.046761094836604]}},
{"type": "Feature", "id": "zCWCSgwh7A0cObD0E0P7K5JPyBg=", "properties": {"ref": "https://locations.tacojohns.com/mn/willmar/1303-s-1st-st.html", "@spider": "taco_johns", "addr:full": "1303 S 1st St", "addr:city": "Willmar", "addr:state": "MN", "addr:postcode": "56201", "addr:country": "USA", "name": "Taco John's", "phone": "(320) 231-2716", "website": "https://locations.tacojohns.com/mn/willmar/1303-s-1st-st.html"}, "geometry": {"type": "Point", "coordinates": [-95.04175, 45.10962]}},
{"type": "Feature", "id": "5Gr7kNCAe7vnn4WPnjs9Kx_08fU=", "properties": {"ref": "https://locations.tacojohns.com/mn/white-bear-lake/4430-s-lake-st.html", "@spider": "taco_johns", "addr:full": "4430 S Lake St", "addr:city": "White Bear Lake", "addr:state": "MN", "addr:postcode": "55110", "addr:country": "USA", "name": "Taco John's", "phone": "(651) 653-5997", "website": "https://locations.tacojohns.com/mn/white-bear-lake/4430-s-lake-st.html"}, "geometry": {"type": "Point", "coordinates": [-93.01739299999997, 45.075244529421795]}},
{"type": "Feature", "id": "NpeQZU34lCBS3KPBEq-cY3JxlSU=", "properties": {"ref": "https://locations.tacojohns.com/mn/waseca/1401-n-state-st.html", "@spider": "taco_johns", "addr:full": "1401 N State St", "addr:city": "Waseca", "addr:state": "MN", "addr:postcode": "56093", "addr:country": "USA", "name": "Taco John's", "phone": "(507) 833-2201", "website": "https://locations.tacojohns.com/mn/waseca/1401-n-state-st.html"}, "geometry": {"type": "Point", "coordinates": [-93.50769370794296, 44.09208821241339]}},
{"type": "Feature", "id": "pjCd0ZHHb7sc_ZnhYgGQUrZMCbA=", "properties": {"ref": "https://locations.tacojohns.com/mn/waite-park/29-division-st.html", "@spider": "taco_johns", "addr:full": "29 Division St", "addr:city": "Waite Park", "addr:state": "MN", "addr:postcode": "56387", "addr:country": "USA", "name": "Taco John's", "phone": "(320) 251-4220", "website": "https://locations.tacojohns.com/mn/waite-park/29-division-st.html"}, "geometry": {"type": "Point", "coordinates": [-94.2151572, 45.553796]}},
{"type": "Feature", "id": "QEDXvwvrcIO53NRln1irRRdKMng=", "properties": {"ref": "https://locations.tacojohns.com/mn/thief-river-falls/122-3rd-st-w.html", "@spider": "taco_johns", "addr:full": "122 3rd St W", "addr:city": "Thief River Falls", "addr:state": "MN", "addr:postcode": "56701", "addr:country": "USA", "name": "Taco John's", "phone": "(218) 681-5987", "website": "https://locations.tacojohns.com/mn/thief-river-falls/122-3rd-st-w.html"}, "geometry": {"type": "Point", "coordinates": [-96.18281685009481, 48.118934065309325]}},
{"type": "Feature", "id": "slIwOL72GF0UEFZ95JI-XP1Fk_M=", "properties": {"ref": "https://locations.tacojohns.com/mn/st--francis/22945-lake-george-blvd.html", "@spider": "taco_johns", "addr:full": "22945 Lake George Blvd", "addr:city": "St. Francis", "addr:state": "MN", "addr:postcode": "55070", "addr:country": "USA", "name": "Taco John's", "phone": "(763) 753-7885", "website": "https://locations.tacojohns.com/mn/st--francis/22945-lake-george-blvd.html"}, "geometry": {"type": "Point", "coordinates": [-93.3462759, 45.3859541]}},
{"type": "Feature", "id": "zj-c150AtIMOqOaUmR1Znj7sc70=", "properties": {"ref": "https://locations.tacojohns.com/ky/paducah/5266-us-highway-60.html", "@spider": "taco_johns", "addr:full": "5266 US Highway 60", "addr:city": "Paducah", "addr:state": "KY", "addr:postcode": "42001", "addr:country": "USA", "name": "Taco John's", "phone": "(270) 558-5206", "website": "https://locations.tacojohns.com/ky/paducah/5266-us-highway-60.html"}, "geometry": {"type": "Point", "coordinates": [-88.7015242, 37.0716514]}},
{"type": "Feature", "id": "WLg8r7Mg2OLTye1diPKl2BLDtM4=", "properties": {"ref": "https://locations.tacojohns.com/ky/paducah/2956-jackson-st.html", "@spider": "taco_johns", "addr:full": "2956 Jackson St", "addr:city": "Paducah", "addr:state": "KY", "addr:postcode": "42003", "addr:country": "USA", "name": "Taco John's", "phone": "(270) 442-9399", "website": "https://locations.tacojohns.com/ky/paducah/2956-jackson-st.html"}, "geometry": {"type": "Point", "coordinates": [-88.63042786717409, 37.06678336139402]}},
{"type": "Feature", "id": "Y3e5M4TzUFPQKNKTUPsy-_eyvN8=", "properties": {"ref": "https://locations.tacojohns.com/ky/paducah/2201-bridge-st.html", "@spider": "taco_johns", "addr:full": "2201 Bridge St", "addr:city": "Paducah", "addr:state": "KY", "addr:postcode": "42003", "addr:country": "USA", "name": "Taco John's", "phone": "(270) 443-6716", "website": "https://locations.tacojohns.com/ky/paducah/2201-bridge-st.html"}, "geometry": {"type": "Point", "coordinates": [-88.58216688036919, 37.057129264852094]}},
{"type": "Feature", "id": "98KR6kcZHVhkvgp8Q-ZkYjD-EUk=", "properties": {"ref": "https://locations.tacojohns.com/mn/st-peter/103-n-minnesota-ave.html", "@spider": "taco_johns", "addr:full": "103 N Minnesota Ave", "addr:city": "St Peter", "addr:state": "MN", "addr:postcode": "56082", "addr:country": "USA", "name": "Taco John's", "phone": "(507) 934-6201", "website": "https://locations.tacojohns.com/mn/st-peter/103-n-minnesota-ave.html"}, "geometry": {"type": "Point", "coordinates": [-93.95497754216194, 44.32603073244298]}},
{"type": "Feature", "id": "JH6GropytdHRnSTeNzUTJ0q0h9w=", "properties": {"ref": "https://locations.tacojohns.com/mn/st-paul/3340-rice-st.html", "@spider": "taco_johns", "addr:full": "3340 Rice St", "addr:city": "St Paul", "addr:state": "MN", "addr:postcode": "55126", "addr:country": "USA", "name": "Taco John's", "phone": "(651) 483-5776", "website": "https://locations.tacojohns.com/mn/st-paul/3340-rice-st.html"}, "geometry": {"type": "Point", "coordinates": [-93.10582313695448, 45.04232917754013]}},
{"type": "Feature", "id": "F3aCST6rrZNIskIuOH62l4T5cNs=", "properties": {"ref": "https://locations.tacojohns.com/mn/st-joseph/211-county-rd-75-w.html", "@spider": "taco_johns", "addr:full": "211 County Rd 75 W", "addr:city": "St Joseph", "addr:state": "MN", "addr:postcode": "56374", "addr:country": "USA", "name": "Taco John's", "phone": "(320) 557-0557", "website": "https://locations.tacojohns.com/mn/st-joseph/211-county-rd-75-w.html"}, "geometry": {"type": "Point", "coordinates": [-94.32003825902939, 45.56810864744159]}},
{"type": "Feature", "id": "oyiel3tNvBzob_qpOTKHGMpV8vs=", "properties": {"ref": "https://locations.tacojohns.com/mn/shakopee/1301-heather-st.html", "@spider": "taco_johns", "addr:full": "1301 Heather St", "addr:city": "Shakopee", "addr:state": "MN", "addr:postcode": "55379", "addr:country": "USA", "name": "Taco John's", "phone": "(952) 496-2798", "website": "https://locations.tacojohns.com/mn/shakopee/1301-heather-st.html"}, "geometry": {"type": "Point", "coordinates": [-93.50781708955765, 44.78252802831051]}},
{"type": "Feature", "id": "GjR5Kd-oTRNpTXFesRRs2qR7hcY=", "properties": {"ref": "https://locations.tacojohns.com/mn/savage/4111-egan-dr.html", "@spider": "taco_johns", "addr:full": "4111 Egan Dr", "addr:city": "Savage", "addr:state": "MN", "addr:postcode": "55378", "addr:country": "USA", "name": "Taco John's", "phone": "(952) 890-6100", "website": "https://locations.tacojohns.com/mn/savage/4111-egan-dr.html"}, "geometry": {"type": "Point", "coordinates": [-93.33105951547628, 44.74595791092329]}},
{"type": "Feature", "id": "L5z85VBWEqWJnrwCRavI2ihs05A=", "properties": {"ref": "https://locations.tacojohns.com/mn/sartell/155-county-rd-120.html", "@spider": "taco_johns", "addr:full": "155 County Rd 120", "addr:city": "Sartell", "addr:state": "MN", "addr:postcode": "56377", "addr:country": "USA", "name": "Taco John's", "phone": "(320) 281-5588", "website": "https://locations.tacojohns.com/mn/sartell/155-county-rd-120.html"}, "geometry": {"type": "Point", "coordinates": [-94.19309735298157, 45.591758114700184]}},
{"type": "Feature", "id": "xjc_ZPQ3UcMwC9Aj2JCUNN7Su8w=", "properties": {"ref": "https://locations.tacojohns.com/mn/rosemount/15085-canada-ave.html", "@spider": "taco_johns", "addr:full": "15085 Canada Ave", "addr:city": "Rosemount", "addr:state": "MN", "addr:postcode": "55068", "addr:country": "USA", "name": "Taco John's", "phone": "(651) 423-6005", "website": "https://locations.tacojohns.com/mn/rosemount/15085-canada-ave.html"}, "geometry": {"type": "Point", "coordinates": [-93.13248308750195, 44.72987507116067]}},
{"type": "Feature", "id": "9prc5Q_kPq-QNldmbvZuZNROLFI=", "properties": {"ref": "https://locations.tacojohns.com/mn/rochester/1045-7th-st-northwest.html", "@spider": "taco_johns", "addr:full": "1045 7th St Northwest", "addr:city": "Rochester", "addr:state": "MN", "addr:postcode": "55901", "addr:country": "USA", "name": "Taco John's", "phone": "(507) 281-9409", "website": "https://locations.tacojohns.com/mn/rochester/1045-7th-st-northwest.html"}, "geometry": {"type": "Point", "coordinates": [-92.47849347444571, 44.03169629807868]}},
{"type": "Feature", "id": "qWOTv6mSLB6yhAPrB_jD_rJsDno=", "properties": {"ref": "https://locations.tacojohns.com/mn/princeton/301-s-rum-river-dr.html", "@spider": "taco_johns", "addr:full": "301 S Rum River Dr", "addr:city": "Princeton", "addr:state": "MN", "addr:postcode": "55371", "addr:country": "USA", "name": "Taco John's", "phone": "(763) 389-5478", "website": "https://locations.tacojohns.com/mn/princeton/301-s-rum-river-dr.html"}, "geometry": {"type": "Point", "coordinates": [-93.58052909374237, 45.56680080741407]}},
{"type": "Feature", "id": "-TuhQAvquHlJu3jl1LI6ji0WY7M=", "properties": {"ref": "https://locations.tacojohns.com/mn/owatonna/1839-s-cedar-ave.html", "@spider": "taco_johns", "addr:full": "1839 S Cedar Ave", "addr:city": "Owatonna", "addr:state": "MN", "addr:postcode": "55060", "addr:country": "USA", "name": "Taco John's", "phone": "(507) 451-2023", "website": "https://locations.tacojohns.com/mn/owatonna/1839-s-cedar-ave.html"}, "geometry": {"type": "Point", "coordinates": [-93.22540730237961, 44.06502830944468]}},
{"type": "Feature", "id": "mx0kuts38wDANYxDB76D1AkOpJI=", "properties": {"ref": "https://locations.tacojohns.com/mn/onamia/38668-us-highway-169.html", "@spider": "taco_johns", "addr:full": "38668 US Highway 169", "addr:city": "Onamia", "addr:state": "MN", "addr:postcode": "56359", "addr:country": "USA", "name": "Taco John's", "phone": "(320) 738-1399", "website": "https://locations.tacojohns.com/mn/onamia/38668-us-highway-169.html"}, "geometry": {"type": "Point", "coordinates": [-93.643845, 46.107906]}},
{"type": "Feature", "id": "0yyMRCx7qyjqpBLM6psnEuvyA0g=", "properties": {"ref": "https://locations.tacojohns.com/mn/oakdale/1010-gershwin-ave-n.html", "@spider": "taco_johns", "addr:full": "1010 Gershwin Ave N", "addr:city": "Oakdale", "addr:state": "MN", "addr:postcode": "55128", "addr:country": "USA", "name": "Taco John's", "phone": "(651) 738-6831", "website": "https://locations.tacojohns.com/mn/oakdale/1010-gershwin-ave-n.html"}, "geometry": {"type": "Point", "coordinates": [-92.98170447349548, 44.96349319649741]}},
{"type": "Feature", "id": "DnysLBhkuaxy7e1QC18b3CVh5ko=", "properties": {"ref": "https://locations.tacojohns.com/mn/oak-park-heights/5910-neal-ave-n.html", "@spider": "taco_johns", "addr:full": "5910 Neal Ave N", "addr:city": "Oak Park Heights", "addr:state": "MN", "addr:postcode": "55082", "addr:country": "USA", "name": "Taco John's", "phone": "(651) 439-7771", "website": "https://locations.tacojohns.com/mn/oak-park-heights/5910-neal-ave-n.html"}, "geometry": {"type": "Point", "coordinates": [-92.84736335277557, 45.033375621445536]}},
{"type": "Feature", "id": "W_DqDRolDT_SfI8oo0LoFcNBvzU=", "properties": {"ref": "https://locations.tacojohns.com/mn/new-ulm/1301-s-broadway-st.html", "@spider": "taco_johns", "addr:full": "1301 S Broadway St", "addr:city": "New Ulm", "addr:state": "MN", "addr:postcode": "56073", "addr:country": "USA", "name": "Taco John's", "phone": "(507) 354-8226", "website": "https://locations.tacojohns.com/mn/new-ulm/1301-s-broadway-st.html"}, "geometry": {"type": "Point", "coordinates": [-94.44782674312592, 44.2998430515354]}},
{"type": "Feature", "id": "GOEMwaYP3EKCJx8DnQrQz4YeZ1E=", "properties": {"ref": "https://locations.tacojohns.com/mn/new-hope/4217-winnetka-ave-n.html", "@spider": "taco_johns", "addr:full": "4217 Winnetka Ave N", "addr:city": "New Hope", "addr:state": "MN", "addr:postcode": "55428", "addr:country": "USA", "name": "Taco John's", "phone": "(763) 432-7294", "website": "https://locations.tacojohns.com/mn/new-hope/4217-winnetka-ave-n.html"}, "geometry": {"type": "Point", "coordinates": [-93.3824897, 45.0334412]}},
{"type": "Feature", "id": "xdTIh5cftmv5zn9UjNZRapT0VN8=", "properties": {"ref": "https://locations.tacojohns.com/mn/new-brighton/2040-silver-lake-rd-nw.html", "@spider": "taco_johns", "addr:full": "2040 Silver Lake Rd NW", "addr:city": "New Brighton", "addr:state": "MN", "addr:postcode": "55112", "addr:country": "USA", "name": "Taco John's", "phone": "(651) 636-8065", "website": "https://locations.tacojohns.com/mn/new-brighton/2040-silver-lake-rd-nw.html"}, "geometry": {"type": "Point", "coordinates": [-93.2193338, 45.0837113]}},
{"type": "Feature", "id": "sFSDAYHfnMBMAVjTBbZW2Pb2DWA=", "properties": {"ref": "https://locations.tacojohns.com/mn/morris/108-atlantic-ave.html", "@spider": "taco_johns", "addr:full": "108 Atlantic Ave", "addr:city": "Morris", "addr:state": "MN", "addr:postcode": "56267", "addr:country": "USA", "name": "Taco John's", "phone": "(320) 589-2133", "website": "https://locations.tacojohns.com/mn/morris/108-atlantic-ave.html"}, "geometry": {"type": "Point", "coordinates": [-95.9108617901802, 45.58310766710296]}},
{"type": "Feature", "id": "QyljQ2p-BBVTjWpeQ61nhW4_79c=", "properties": {"ref": "https://locations.tacojohns.com/mn/moorhead/801-center-ave.html", "@spider": "taco_johns", "addr:full": "801 Center Ave", "addr:city": "Moorhead", "addr:state": "MN", "addr:postcode": "56560", "addr:country": "USA", "name": "Taco John's", "phone": "(218) 233-0012", "website": "https://locations.tacojohns.com/mn/moorhead/801-center-ave.html"}, "geometry": {"type": "Point", "coordinates": [-96.767306, 46.8748243]}},
{"type": "Feature", "id": "t9IZXV26fO8fK1mg1Dnel7B-QXA=", "properties": {"ref": "https://locations.tacojohns.com/mn/monticello/9495-deegan-ave-ne.html", "@spider": "taco_johns", "addr:full": "9495 Deegan Ave NE", "addr:city": "Monticello", "addr:state": "MN", "addr:postcode": "55362", "addr:country": "USA", "name": "Taco John's", "phone": "(763) 295-6913", "website": "https://locations.tacojohns.com/mn/monticello/9495-deegan-ave-ne.html"}, "geometry": {"type": "Point", "coordinates": [-93.80703608159735, 45.28813343523296]}},
{"type": "Feature", "id": "4Ji2Ax-Wo23SEaxmUrokHdU_wAI=", "properties": {"ref": "https://locations.tacojohns.com/mn/minneapolis/607-marquette-ave.html", "@spider": "taco_johns", "addr:full": "607 Marquette Ave", "addr:city": "Minneapolis", "addr:state": "MN", "addr:postcode": "55402", "addr:country": "USA", "name": "Taco John's", "phone": "(612) 332-7000", "website": "https://locations.tacojohns.com/mn/minneapolis/607-marquette-ave.html"}, "geometry": {"type": "Point", "coordinates": [-93.270018, 44.976878]}},
{"type": "Feature", "id": "rWZEpppAhhWR_Bdygz1bm7p_Gwo=", "properties": {"ref": "https://locations.tacojohns.com/mn/marshall/1300-e-college-dr.html", "@spider": "taco_johns", "addr:full": "1300 E College Dr", "addr:city": "Marshall", "addr:state": "MN", "addr:postcode": "56258", "addr:country": "USA", "name": "Taco John's", "phone": "(507) 537-1363", "website": "https://locations.tacojohns.com/mn/marshall/1300-e-college-dr.html"}, "geometry": {"type": "Point", "coordinates": [-95.76864570379257, 44.45020470783649]}},
{"type": "Feature", "id": "i1yBau6yCK2o6tyrtTX9G6uY-_w=", "properties": {"ref": "https://locations.tacojohns.com/mn/maple-grove/13320-grove-dr.html", "@spider": "taco_johns", "addr:full": "13320 Grove Dr", "addr:city": "Maple Grove", "addr:state": "MN", "addr:postcode": "55369", "addr:country": "USA", "name": "Taco John's", "phone": "(763) 416-1460", "website": "https://locations.tacojohns.com/mn/maple-grove/13320-grove-dr.html"}, "geometry": {"type": "Point", "coordinates": [-93.44922959804535, 45.10420554277235]}},
{"type": "Feature", "id": "YrR3vQk74ea02uAJXTUrTP99xUo=", "properties": {"ref": "https://locations.tacojohns.com/mn/luverne/900-s-kniss-ave.html", "@spider": "taco_johns", "addr:full": "900 S Kniss Ave", "addr:city": "Luverne", "addr:state": "MN", "addr:postcode": "56156", "addr:country": "USA", "name": "Taco John's", "phone": "(507) 283-4562", "website": "https://locations.tacojohns.com/mn/luverne/900-s-kniss-ave.html"}, "geometry": {"type": "Point", "coordinates": [-96.21374713631667, 43.643448862683044]}},
{"type": "Feature", "id": "LHawCECos-VTA0yUleSicUKkzEQ=", "properties": {"ref": "https://locations.tacojohns.com/mn/little-falls/109-lemieur-st.html", "@spider": "taco_johns", "addr:full": "109 Lemieur St", "addr:city": "Little Falls", "addr:state": "MN", "addr:postcode": "56345", "addr:country": "USA", "name": "Taco John's", "phone": "(320) 632-2754", "website": "https://locations.tacojohns.com/mn/little-falls/109-lemieur-st.html"}, "geometry": {"type": "Point", "coordinates": [-94.33733448386192, 45.97425705094682]}},
{"type": "Feature", "id": "Lq3v_vF1vIASKehcR4WMyPcntw0=", "properties": {"ref": "https://locations.tacojohns.com/mn/litchfield/719-e-depot.html", "@spider": "taco_johns", "addr:full": "719 E Depot", "addr:city": "Litchfield", "addr:state": "MN", "addr:postcode": "55355", "addr:country": "USA", "name": "Taco John's", "phone": "(320) 693-3554", "website": "https://locations.tacojohns.com/mn/litchfield/719-e-depot.html"}, "geometry": {"type": "Point", "coordinates": [-94.51416539400952, 45.12355738001037]}},
{"type": "Feature", "id": "mdqj26KiINQHwP4begXkxt8ZJq8=", "properties": {"ref": "https://locations.tacojohns.com/mn/hutchinson/134-4th-ave-nw.html", "@spider": "taco_johns", "addr:full": "134 4th Ave NW", "addr:city": "Hutchinson", "addr:state": "MN", "addr:postcode": "55350", "addr:country": "USA", "name": "Taco John's", "phone": "(320) 587-3424", "website": "https://locations.tacojohns.com/mn/hutchinson/134-4th-ave-nw.html"}, "geometry": {"type": "Point", "coordinates": [-94.37346920371061, 44.89678607186918]}},
{"type": "Feature", "id": "ZrZWAfnfhLso2avoSKdPHGyX3Ac=", "properties": {"ref": "https://locations.tacojohns.com/mn/hibbing/2500-13th-ave-e.html", "@spider": "taco_johns", "addr:full": "2500 13th Ave E", "addr:city": "Hibbing", "addr:state": "MN", "addr:postcode": "55746", "addr:country": "USA", "name": "Taco John's", "phone": "(218) 262-5052", "website": "https://locations.tacojohns.com/mn/hibbing/2500-13th-ave-e.html"}, "geometry": {"type": "Point", "coordinates": [-92.923561, 47.420264]}},
{"type": "Feature", "id": "zz4mCH0LGaFM0a6hmTmEd_yssAs=", "properties": {"ref": "https://locations.tacojohns.com/mn/grand-rapids/910-s-pokegama-ave.html", "@spider": "taco_johns", "addr:full": "910 S Pokegama Ave", "addr:city": "Grand Rapids", "addr:state": "MN", "addr:postcode": "55744", "addr:country": "USA", "name": "Taco John's", "phone": "(218) 999-7474", "website": "https://locations.tacojohns.com/mn/grand-rapids/910-s-pokegama-ave.html"}, "geometry": {"type": "Point", "coordinates": [-93.52815049141776, 47.222238217453565]}},
{"type": "Feature", "id": "EC_S090NCERndCqgg9wmdu9GXvw=", "properties": {"ref": "https://locations.tacojohns.com/mn/forest-lake/1966-w-brdway-ave.html", "@spider": "taco_johns", "addr:full": "1966 W BRdway Ave", "addr:city": "Forest Lake", "addr:state": "MN", "addr:postcode": "55025", "addr:country": "USA", "name": "Taco John's", "phone": "(651) 464-7590", "website": "https://locations.tacojohns.com/mn/forest-lake/1966-w-brdway-ave.html"}, "geometry": {"type": "Point", "coordinates": [-93.00860971212387, 45.279014221166356]}},
{"type": "Feature", "id": "o7VKlhD93G_QToCQl2E8eaNaCIU=", "properties": {"ref": "https://locations.tacojohns.com/mn/fergus-falls/1212-n-union-ave.html", "@spider": "taco_johns", "addr:full": "1212 N Union Ave", "addr:city": "Fergus Falls", "addr:state": "MN", "addr:postcode": "56537", "addr:country": "USA", "name": "Taco John's", "phone": "(218) 739-3563", "website": "https://locations.tacojohns.com/mn/fergus-falls/1212-n-union-ave.html"}, "geometry": {"type": "Point", "coordinates": [-96.07711046934128, 46.29539177158085]}},
{"type": "Feature", "id": "3aY_TbP2UkTB3sHWu2z4g-OlXIk=", "properties": {"ref": "https://locations.tacojohns.com/mn/faribault/1431-4th-st-nw.html", "@spider": "taco_johns", "addr:full": "1431 4th St NW", "addr:city": "Faribault", "addr:state": "MN", "addr:postcode": "55021", "addr:country": "USA", "name": "Taco John's", "phone": "(507) 334-3287", "website": "https://locations.tacojohns.com/mn/faribault/1431-4th-st-nw.html"}, "geometry": {"type": "Point", "coordinates": [-93.28958988189697, 44.2922897318004]}},
{"type": "Feature", "id": "o8yQA1I3ISqTzrLqHvQP1uyoBog=", "properties": {"ref": "https://locations.tacojohns.com/mn/fairmont/901-e-blue-earth-ave.html", "@spider": "taco_johns", "addr:full": "901 E Blue Earth Ave", "addr:city": "Fairmont", "addr:state": "MN", "addr:postcode": "56031", "addr:country": "USA", "name": "Taco John's", "phone": "(507) 238-2322", "website": "https://locations.tacojohns.com/mn/fairmont/901-e-blue-earth-ave.html"}, "geometry": {"type": "Point", "coordinates": [-94.45051120968856, 43.65243588463787]}},
{"type": "Feature", "id": "3VytQbJdl8BtN9rr4oCmhSGtcmI=", "properties": {"ref": "https://locations.tacojohns.com/mn/elk-river/18033-zane-st-nw.html", "@spider": "taco_johns", "addr:full": "18033 Zane St NW", "addr:city": "Elk River", "addr:state": "MN", "addr:postcode": "55330", "addr:country": "USA", "name": "Taco John's", "phone": "(763) 441-6380", "website": "https://locations.tacojohns.com/mn/elk-river/18033-zane-st-nw.html"}, "geometry": {"type": "Point", "coordinates": [-93.55048835277557, 45.29849776144114]}},
{"type": "Feature", "id": "IXgxJO6ELUdEPNVKGm56pcfwrhM=", "properties": {"ref": "https://locations.tacojohns.com/mn/detroit-lakes/233-east-frazee-st.html", "@spider": "taco_johns", "addr:full": "233 East Frazee St", "addr:city": "Detroit Lakes", "addr:state": "MN", "addr:postcode": "56501", "addr:country": "USA", "name": "Taco John's", "phone": "(218) 844-4660", "website": "https://locations.tacojohns.com/mn/detroit-lakes/233-east-frazee-st.html"}, "geometry": {"type": "Point", "coordinates": [-95.8416731, 46.8154401]}},
{"type": "Feature", "id": "GdyG3GOlIK5w3WIV1g3F6QhZ-Ww=", "properties": {"ref": "https://locations.tacojohns.com/mn/crookston/605-n-main-st.html", "@spider": "taco_johns", "addr:full": "605 N Main St", "addr:city": "Crookston", "addr:state": "MN", "addr:postcode": "56716", "addr:country": "USA", "name": "Taco John's", "phone": "(218) 281-7357", "website": "https://locations.tacojohns.com/mn/crookston/605-n-main-st.html"}, "geometry": {"type": "Point", "coordinates": [-96.60489904137648, 47.779311248310336]}},
{"type": "Feature", "id": "qHRgqFiy3QY0AqhBr2jHFz7wwiE=", "properties": {"ref": "https://locations.tacojohns.com/mn/cloquet/1200-highway-33-s.html", "@spider": "taco_johns", "addr:full": "1200 Highway 33 S", "addr:city": "Cloquet", "addr:state": "MN", "addr:postcode": "55720", "addr:country": "USA", "name": "Taco John's", "phone": "(218) 879-0902", "website": "https://locations.tacojohns.com/mn/cloquet/1200-highway-33-s.html"}, "geometry": {"type": "Point", "coordinates": [-92.4563312977989, 46.70662298685759]}},
{"type": "Feature", "id": "JiqBGJvt-fIQB6TDusJbIXQZQlU=", "properties": {"ref": "https://locations.tacojohns.com/mn/cambridge/225-2nd-ave-ne.html", "@spider": "taco_johns", "addr:full": "225 2nd Ave NE", "addr:city": "Cambridge", "addr:state": "MN", "addr:postcode": "55008", "addr:country": "USA", "name": "Taco John's", "phone": "(763) 689-4553", "website": "https://locations.tacojohns.com/mn/cambridge/225-2nd-ave-ne.html"}, "geometry": {"type": "Point", "coordinates": [-93.22224589439429, 45.57391372510333]}},
{"type": "Feature", "id": "uyL1ie7oqLQsd4Y0EcJzafcM718=", "properties": {"ref": "https://locations.tacojohns.com/mn/mankato/2112-n-broad-court.html", "@spider": "taco_johns", "addr:full": "2112 N Broad Court", "addr:city": "Mankato", "addr:state": "MN", "addr:postcode": "56001", "addr:country": "USA", "name": "Taco John's", "phone": "(507) 388-2836", "website": "https://locations.tacojohns.com/mn/mankato/2112-n-broad-court.html"}, "geometry": {"type": "Point", "coordinates": [-93.9824540913105, 44.187197112806395]}},
{"type": "Feature", "id": "yqZSLeHrXqgPUbxwt4XdaxIfSPA=", "properties": {"ref": "https://locations.tacojohns.com/mn/mankato/1040-madison-ave.html", "@spider": "taco_johns", "addr:full": "1040 Madison Ave", "addr:city": "Mankato", "addr:state": "MN", "addr:postcode": "56001", "addr:country": "USA", "name": "Taco John's", "phone": "(507) 386-8226", "website": "https://locations.tacojohns.com/mn/mankato/1040-madison-ave.html"}, "geometry": {"type": "Point", "coordinates": [-93.97959217429161, 44.16712287017154]}},
{"type": "Feature", "id": "vVPImR8Gc5XESF9_7iR--rJYVSA=", "properties": {"ref": "https://locations.tacojohns.com/mn/buffalo/1201-highway-25-n.html", "@spider": "taco_johns", "addr:full": "1201 Highway 25 N", "addr:city": "Buffalo", "addr:state": "MN", "addr:postcode": "55313", "addr:country": "USA", "name": "Taco John's", "phone": "(763) 682-9100", "website": "https://locations.tacojohns.com/mn/buffalo/1201-highway-25-n.html"}, "geometry": {"type": "Point", "coordinates": [-93.8767871260643, 45.18535847656974]}},
{"type": "Feature", "id": "AaIUsdKk4EdHYAKALnljr4qhJCA=", "properties": {"ref": "https://locations.tacojohns.com/mn/brainerd/301-ne-washington-st.html", "@spider": "taco_johns", "addr:full": "301 NE Washington St", "addr:city": "Brainerd", "addr:state": "MN", "addr:postcode": "56401", "addr:country": "USA", "name": "Taco John's", "phone": "(218) 829-7375", "website": "https://locations.tacojohns.com/mn/brainerd/301-ne-washington-st.html"}, "geometry": {"type": "Point", "coordinates": [-94.20475775235133, 46.35848994022097]}},
{"type": "Feature", "id": "iQ7HLmIoFVv_GVdfLXkkGAuHz8A=", "properties": {"ref": "https://locations.tacojohns.com/mn/blaine/11724-ulysses-st-ne.html", "@spider": "taco_johns", "addr:full": "11724 Ulysses St NE", "addr:city": "Blaine", "addr:state": "MN", "addr:postcode": "55434", "addr:country": "USA", "name": "Taco John's", "phone": "(763) 767-3344", "website": "https://locations.tacojohns.com/mn/blaine/11724-ulysses-st-ne.html"}, "geometry": {"type": "Point", "coordinates": [-93.23844283819199, 45.18335455102661]}},
{"type": "Feature", "id": "n5YvYibopstMzCcUhFbw1m_aRPw=", "properties": {"ref": "https://locations.tacojohns.com/mn/bemidji/1285-paul-bunyan-dr-nw.html", "@spider": "taco_johns", "addr:full": "1285 Paul Bunyan Dr NW", "addr:city": "Bemidji", "addr:state": "MN", "addr:postcode": "56601", "addr:country": "USA", "name": "Taco John's", "phone": "(218) 444-2266", "website": "https://locations.tacojohns.com/mn/bemidji/1285-paul-bunyan-dr-nw.html"}, "geometry": {"type": "Point", "coordinates": [-94.89868998527527, 47.49296111665992]}},
{"type": "Feature", "id": "5fGf_YqQMA2nmid-fXx3v-jJ97M=", "properties": {"ref": "https://locations.tacojohns.com/mn/austin/308-w-oakland-ave.html", "@spider": "taco_johns", "addr:full": "308 W Oakland Ave", "addr:city": "Austin", "addr:state": "MN", "addr:postcode": "55912", "addr:country": "USA", "name": "Taco John's", "phone": "(507) 433-3870", "website": "https://locations.tacojohns.com/mn/austin/308-w-oakland-ave.html"}, "geometry": {"type": "Point", "coordinates": [-92.9783874323333, 43.66679254882089]}},
{"type": "Feature", "id": "zoTJ-o-Qk_7Xr7JjJE-mQ0BLjUE=", "properties": {"ref": "https://locations.tacojohns.com/mn/alexandria/1702-broadway-st.html", "@spider": "taco_johns", "addr:full": "1702 Broadway St", "addr:city": "Alexandria", "addr:state": "MN", "addr:postcode": "56308", "addr:country": "USA", "name": "Taco John's", "phone": "(320) 763-7885", "website": "https://locations.tacojohns.com/mn/alexandria/1702-broadway-st.html"}, "geometry": {"type": "Point", "coordinates": [-95.37827968597418, 45.87224718199332]}},
{"type": "Feature", "id": "jjTiKKJ_ZVjvooQBM9SVHfxZLSw=", "properties": {"ref": "https://locations.tacojohns.com/mn/albertville/5952-large-ave.html", "@spider": "taco_johns", "addr:full": "5952 Large Ave", "addr:city": "Albertville", "addr:state": "MN", "addr:postcode": "55301", "addr:country": "USA", "name": "Taco John's", "phone": "(763) 276-7187", "website": "https://locations.tacojohns.com/mn/albertville/5952-large-ave.html"}, "geometry": {"type": "Point", "coordinates": [-93.6516998, 45.2373593]}},
{"type": "Feature", "id": "CidaTR7Hl2MTbJEahAFZ8U3G5ps=", "properties": {"ref": "https://locations.tacojohns.com/mn/albert-lea/2225-e-main-st.html", "@spider": "taco_johns", "addr:full": "2225 E Main St", "addr:city": "Albert Lea", "addr:state": "MN", "addr:postcode": "56007", "addr:country": "USA", "name": "Taco John's", "phone": "(507) 373-9818", "website": "https://locations.tacojohns.com/mn/albert-lea/2225-e-main-st.html"}, "geometry": {"type": "Point", "coordinates": [-93.33781063556671, 43.656054703424985]}},
{"type": "Feature", "id": "Ko8cqi3renvq9VwNFN4H1Oox870=", "properties": {"ref": "https://locations.tacojohns.com/mo/sikeston/1409-e-malone.html", "@spider": "taco_johns", "addr:full": "1409 E Malone", "addr:city": "Sikeston", "addr:state": "MO", "addr:postcode": "63801", "addr:country": "USA", "name": "Taco John's", "phone": "(573) 471-3344", "website": "https://locations.tacojohns.com/mo/sikeston/1409-e-malone.html"}, "geometry": {"type": "Point", "coordinates": [-89.56522670491086, 36.88287632701381]}},
{"type": "Feature", "id": "cnvaJMHgwEk_dRKcsund0W-m6Lw=", "properties": {"ref": "https://locations.tacojohns.com/mo/poplar-bluff/2780-tucker-road.html", "@spider": "taco_johns", "addr:full": "2780 Tucker Road", "addr:city": "Poplar Bluff", "addr:state": "MO", "addr:postcode": "63901", "addr:country": "USA", "name": "Taco John's", "phone": "(573) 727-8145", "website": "https://locations.tacojohns.com/mo/poplar-bluff/2780-tucker-road.html"}, "geometry": {"type": "Point", "coordinates": [-90.437976, 36.767669]}},
{"type": "Feature", "id": "eGlV4GnMLQwul6HKD9J2u3PADBQ=", "properties": {"ref": "https://locations.tacojohns.com/mn/duluth/4601-grand-ave.html", "@spider": "taco_johns", "addr:full": "4601 Grand Ave", "addr:city": "Duluth", "addr:state": "MN", "addr:postcode": "55807", "addr:country": "USA", "name": "Taco John's", "phone": "(218) 624-1044", "website": "https://locations.tacojohns.com/mn/duluth/4601-grand-ave.html"}, "geometry": {"type": "Point", "coordinates": [-92.15979382395744, 46.74591696274999]}},
{"type": "Feature", "id": "Ve7fJq8il9t9N2l5Tco8IZY94tg=", "properties": {"ref": "https://locations.tacojohns.com/mn/duluth/312-e-central-entrance.html", "@spider": "taco_johns", "addr:full": "312 E Central Entrance", "addr:city": "Duluth", "addr:state": "MN", "addr:postcode": "55811", "addr:country": "USA", "name": "Taco John's", "phone": "(218) 727-5667", "website": "https://locations.tacojohns.com/mn/duluth/312-e-central-entrance.html"}, "geometry": {"type": "Point", "coordinates": [-92.1251421, 46.800077]}},
{"type": "Feature", "id": "c4uJXN5LNRPH1lT870KngW3ilf8=", "properties": {"ref": "https://locations.tacojohns.com/mn/duluth/1810-london-rd.html", "@spider": "taco_johns", "addr:full": "1810 London Rd", "addr:city": "Duluth", "addr:state": "MN", "addr:postcode": "55812", "addr:country": "USA", "name": "Taco John's", "phone": "(218) 728-4797", "website": "https://locations.tacojohns.com/mn/duluth/1810-london-rd.html"}, "geometry": {"type": "Point", "coordinates": [-92.07278832793236, 46.802273733467864]}},
{"type": "Feature", "id": "RvfFDZ4K8K5AeqD6EZVu5hdlsao=", "properties": {"ref": "https://locations.tacojohns.com/mn/duluth/1600-miller-trunk-highway.html", "@spider": "taco_johns", "addr:full": "1600 Miller Trunk Highway", "addr:city": "Duluth", "addr:state": "MN", "addr:postcode": "55811", "addr:country": "USA", "name": "Taco John's", "phone": "(218) 727-1896", "website": "https://locations.tacojohns.com/mn/duluth/1600-miller-trunk-highway.html"}, "geometry": {"type": "Point", "coordinates": [-92.159208, 46.802656]}},
{"type": "Feature", "id": "yDFaYEJ_FIRO0-KU--qmb0UM-5M=", "properties": {"ref": "https://locations.tacojohns.com/mo/odessa/309-n-2nd-st.html", "@spider": "taco_johns", "addr:full": "309 N 2nd St", "addr:city": "Odessa", "addr:state": "MO", "addr:postcode": "64076", "addr:country": "USA", "name": "Taco John's", "phone": "(816) 633-8662", "website": "https://locations.tacojohns.com/mo/odessa/309-n-2nd-st.html"}, "geometry": {"type": "Point", "coordinates": [-93.95372495055199, 39.00366733317271]}},
{"type": "Feature", "id": "tM_dhXLyzVsJmELJlRvFpBBBNBQ=", "properties": {"ref": "https://locations.tacojohns.com/mo/maryville/1015-s-main-st.html", "@spider": "taco_johns", "addr:full": "1015 S Main St", "addr:city": "Maryville", "addr:state": "MO", "addr:postcode": "64468", "addr:country": "USA", "name": "Taco John's", "phone": "(660) 582-8056", "website": "https://locations.tacojohns.com/mo/maryville/1015-s-main-st.html"}, "geometry": {"type": "Point", "coordinates": [-94.87330781670607, 40.33494773000157]}},
{"type": "Feature", "id": "jrc5DkhBqomZVnHjtSVFMgUVXEw=", "properties": {"ref": "https://locations.tacojohns.com/mo/lebanon/1215-millcreek-rd.html", "@spider": "taco_johns", "addr:full": "1215 Millcreek Rd", "addr:city": "Lebanon", "addr:state": "MO", "addr:postcode": "65536", "addr:country": "USA", "name": "Taco John's", "phone": "(417) 533-7000", "website": "https://locations.tacojohns.com/mo/lebanon/1215-millcreek-rd.html"}, "geometry": {"type": "Point", "coordinates": [-92.64475199295327, 37.68420942756331]}},
{"type": "Feature", "id": "cxcA5USLVWuPU63YXIQQxWMzKZY=", "properties": {"ref": "https://locations.tacojohns.com/mo/independence/4242-s-noland-rd.html", "@spider": "taco_johns", "addr:full": "4242 S Noland Rd", "addr:city": "Independence", "addr:state": "MO", "addr:postcode": "64055", "addr:country": "USA", "name": "Taco John's", "phone": "(816) 381-7827", "website": "https://locations.tacojohns.com/mo/independence/4242-s-noland-rd.html"}, "geometry": {"type": "Point", "coordinates": [-94.4156322883606, 39.04268566568019]}},
{"type": "Feature", "id": "cI0DrR_Db3ooBrWT6QPybD410no=", "properties": {"ref": "https://locations.tacojohns.com/mo/columbia/2300-bernadette-dr.html", "@spider": "taco_johns", "addr:full": "2300 Bernadette Dr", "addr:city": "Columbia", "addr:state": "MO", "addr:postcode": "65203", "addr:country": "USA", "name": "Taco John's", "phone": "(573) 499-9992", "website": "https://locations.tacojohns.com/mo/columbia/2300-bernadette-dr.html"}, "geometry": {"type": "Point", "coordinates": [-92.37524628639216, 38.963705128431215]}},
{"type": "Feature", "id": "zMLTFsuLeNK-eStdKNtUjPjUZaU=", "properties": {"ref": "https://locations.tacojohns.com/mo/cape-girardeau/111-n-kings-highway.html", "@spider": "taco_johns", "addr:full": "111 N Kings Highway", "addr:city": "Cape Girardeau", "addr:state": "MO", "addr:postcode": "63701", "addr:country": "USA", "name": "Taco John's", "phone": "(573) 651-3555", "website": "https://locations.tacojohns.com/mo/cape-girardeau/111-n-kings-highway.html"}, "geometry": {"type": "Point", "coordinates": [-89.55231919884682, 37.30855219816557]}},
{"type": "Feature", "id": "F340NhmYXEjwk3pMWRWkSSi3YC4=", "properties": {"ref": "https://locations.tacojohns.com/mt/miles-city/911-s-haynes-st.html", "@spider": "taco_johns", "addr:full": "911 S Haynes St", "addr:city": "Miles City", "addr:state": "MT", "addr:postcode": "59301", "addr:country": "USA", "name": "Taco John's", "phone": "(406) 234-2627", "website": "https://locations.tacojohns.com/mt/miles-city/911-s-haynes-st.html"}, "geometry": {"type": "Point", "coordinates": [-105.8229893445968, 46.399649607168094]}},
{"type": "Feature", "id": "0wjaOfiJxgwKeFp5ZrGl0UZnhQs=", "properties": {"ref": "https://locations.tacojohns.com/mt/livingston/1115-w-lewis-st.html", "@spider": "taco_johns", "addr:full": "1115 W Lewis St", "addr:city": "Livingston", "addr:state": "MT", "addr:postcode": "59047", "addr:country": "USA", "name": "Taco John's", "phone": "(406) 222-1911", "website": "https://locations.tacojohns.com/mt/livingston/1115-w-lewis-st.html"}, "geometry": {"type": "Point", "coordinates": [-110.57077670491083, 45.65361353802787]}},
{"type": "Feature", "id": "eu8Qnhe5FDuL_qmV-sbG2YqiNao=", "properties": {"ref": "https://locations.tacojohns.com/mt/kalispell/150-n-main-st.html", "@spider": "taco_johns", "addr:full": "150 N Main St", "addr:city": "Kalispell", "addr:state": "MT", "addr:postcode": "59901", "addr:country": "USA", "name": "Taco John's", "phone": "(406) 755-3140", "website": "https://locations.tacojohns.com/mt/kalispell/150-n-main-st.html"}, "geometry": {"type": "Point", "coordinates": [-114.31535, 48.2013]}},
{"type": "Feature", "id": "7teEQ6G6gDQVEYbzZe13qdpxkWs=", "properties": {"ref": "https://locations.tacojohns.com/mt/helena/2301-n-montana-ave.html", "@spider": "taco_johns", "addr:full": "2301 N Montana Ave", "addr:city": "Helena", "addr:state": "MT", "addr:postcode": "59601", "addr:country": "USA", "name": "Taco John's", "phone": "(406) 443-3710", "website": "https://locations.tacojohns.com/mt/helena/2301-n-montana-ave.html"}, "geometry": {"type": "Point", "coordinates": [-112.0203401372055, 46.608097158589565]}},
{"type": "Feature", "id": "jTQEvv0gY2O1RyIfByNpALbsk4M=", "properties": {"ref": "https://locations.tacojohns.com/mt/havre/505-1st-st-west.html", "@spider": "taco_johns", "addr:full": "505 1st St West", "addr:city": "Havre", "addr:state": "MT", "addr:postcode": "59501", "addr:country": "USA", "name": "Taco John's", "phone": "(406) 265-6100", "website": "https://locations.tacojohns.com/mt/havre/505-1st-st-west.html"}, "geometry": {"type": "Point", "coordinates": [-109.6923358645472, 48.555151154384426]}},
{"type": "Feature", "id": "qUI2eBWN6m-r2qJAg79jxP17XYQ=", "properties": {"ref": "https://locations.tacojohns.com/mt/hardin/215-14th-st-w.html", "@spider": "taco_johns", "addr:full": "215 14th St W", "addr:city": "Hardin", "addr:state": "MT", "addr:postcode": "59034", "addr:country": "USA", "name": "Taco John's", "phone": "(406) 665-1370", "website": "https://locations.tacojohns.com/mt/hardin/215-14th-st-w.html"}, "geometry": {"type": "Point", "coordinates": [-107.61107148977317, 45.74384139708263]}},
{"type": "Feature", "id": "YeZOZClCpnveD_bf20qWVgYmQwk=", "properties": {"ref": "https://locations.tacojohns.com/mt/browning/232-central-ave-w.html", "@spider": "taco_johns", "addr:full": "232 Central Ave W", "addr:city": "Browning", "addr:state": "MT", "addr:postcode": "59417", "addr:country": "USA", "name": "Taco John's", "phone": "(406) 338-4831", "website": "https://locations.tacojohns.com/mt/browning/232-central-ave-w.html"}, "geometry": {"type": "Point", "coordinates": [-113.01779240369797, 48.555655437830474]}},
{"type": "Feature", "id": "8Z4eTgmD4pWxyO7RkFohjbraOXc=", "properties": {"ref": "https://locations.tacojohns.com/mt/bozeman/303-n-7th-ave.html", "@spider": "taco_johns", "addr:full": "303 N 7th Ave", "addr:city": "Bozeman", "addr:state": "MT", "addr:postcode": "59715", "addr:country": "USA", "name": "Taco John's", "phone": "(406) 587-0373", "website": "https://locations.tacojohns.com/mt/bozeman/303-n-7th-ave.html"}, "geometry": {"type": "Point", "coordinates": [-111.04668083044089, 45.68209785497402]}},
{"type": "Feature", "id": "M6qbloBHBuQS7jtCEQ5K1Gvup8Q=", "properties": {"ref": "https://locations.tacojohns.com/ne/south-sioux-city/2701-dakota-ave.html", "@spider": "taco_johns", "addr:full": "2701 Dakota Ave", "addr:city": "South Sioux City", "addr:state": "NE", "addr:postcode": "68776", "addr:country": "USA", "name": "Taco John's", "phone": "(402) 494-4002", "website": "https://locations.tacojohns.com/ne/south-sioux-city/2701-dakota-ave.html"}, "geometry": {"type": "Point", "coordinates": [-96.41450913997681, 42.46416738459768]}},
{"type": "Feature", "id": "pK6xCM79Bul9zer_iJpiYt7dl9g=", "properties": {"ref": "https://locations.tacojohns.com/ne/sidney/645-chase-st.html", "@spider": "taco_johns", "addr:full": "645 Chase St", "addr:city": "Sidney", "addr:state": "NE", "addr:postcode": "69162", "addr:country": "USA", "name": "Taco John's", "phone": "(308) 254-4832", "website": "https://locations.tacojohns.com/ne/sidney/645-chase-st.html"}, "geometry": {"type": "Point", "coordinates": [-102.950604, 41.109754]}},
{"type": "Feature", "id": "wRYQuznONnpcIt5uCjXk1oLOUQw=", "properties": {"ref": "https://locations.tacojohns.com/ne/scottsbluff/3206-ave-i.html", "@spider": "taco_johns", "addr:full": "3206 Ave I", "addr:city": "Scottsbluff", "addr:state": "NE", "addr:postcode": "69361", "addr:country": "USA", "name": "Taco John's", "phone": "(308) 633-3100", "website": "https://locations.tacojohns.com/ne/scottsbluff/3206-ave-i.html"}, "geometry": {"type": "Point", "coordinates": [-103.6759614944458, 41.87848636314129]}},
{"type": "Feature", "id": "GK-GHvUpSP1vI9WUZvKbQjNHl0Q=", "properties": {"ref": "https://locations.tacojohns.com/ne/ogallala/302-oregon-trail.html", "@spider": "taco_johns", "addr:full": "302 Oregon Trail", "addr:city": "Ogallala", "addr:state": "NE", "addr:postcode": "69153", "addr:country": "USA", "name": "Taco John's", "phone": "(308) 284-8226", "website": "https://locations.tacojohns.com/ne/ogallala/302-oregon-trail.html"}, "geometry": {"type": "Point", "coordinates": [-101.7180633, 41.1117744]}},
{"type": "Feature", "id": "dQlnZNDrR0c1MtIT90MtnJZW_fI=", "properties": {"ref": "https://locations.tacojohns.com/ne/o-neill/1002-e-douglas-st.html", "@spider": "taco_johns", "addr:full": "1002 E Douglas St", "addr:city": "O'Neill", "addr:state": "NE", "addr:postcode": "68763", "addr:country": "USA", "name": "Taco John's", "phone": "(402) 336-3421", "website": "https://locations.tacojohns.com/ne/o-neill/1002-e-douglas-st.html"}, "geometry": {"type": "Point", "coordinates": [-98.63769337534904, 42.458039687518124]}},
{"type": "Feature", "id": "kj-CLELD80D6lDd9PNAo7nBqIfA=", "properties": {"ref": "https://locations.tacojohns.com/mt/missoula/623-w-broadway.html", "@spider": "taco_johns", "addr:full": "623 W Broadway", "addr:city": "Missoula", "addr:state": "MT", "addr:postcode": "59802", "addr:country": "USA", "name": "Taco John's", "phone": "(406) 543-7273", "website": "https://locations.tacojohns.com/mt/missoula/623-w-broadway.html"}, "geometry": {"type": "Point", "coordinates": [-114.00300666689873, 46.87452856884427]}},
{"type": "Feature", "id": "7Kc8TkMfYr8Tu4l3Htp8chjI6aY=", "properties": {"ref": "https://locations.tacojohns.com/mt/missoula/2600-s-reserve-st.html", "@spider": "taco_johns", "addr:full": "2600 S Reserve St", "addr:city": "Missoula", "addr:state": "MT", "addr:postcode": "59801", "addr:country": "USA", "name": "Taco John's", "phone": "(406) 543-7275", "website": "https://locations.tacojohns.com/mt/missoula/2600-s-reserve-st.html"}, "geometry": {"type": "Point", "coordinates": [-114.03917759656906, 46.84675680181166]}},
{"type": "Feature", "id": "1utgWKWxkNRYJySehsmLMBYIAhM=", "properties": {"ref": "https://locations.tacojohns.com/ne/norfolk/801-s-13th-st.html", "@spider": "taco_johns", "addr:full": "801 S 13th St", "addr:city": "Norfolk", "addr:state": "NE", "addr:postcode": "68701", "addr:country": "USA", "name": "Taco John's", "phone": "(402) 316-7832", "website": "https://locations.tacojohns.com/ne/norfolk/801-s-13th-st.html"}, "geometry": {"type": "Point", "coordinates": [-97.42600411176682, 42.02485545014219]}},
{"type": "Feature", "id": "CsHPyGowcRwml1egVicxylxKxUg=", "properties": {"ref": "https://locations.tacojohns.com/ne/nebraska-city/2410-s-11th-st.html", "@spider": "taco_johns", "addr:full": "2410 S 11th St", "addr:city": "Nebraska City", "addr:state": "NE", "addr:postcode": "68410", "addr:country": "USA", "name": "Taco John's", "phone": "(402) 873-7956", "website": "https://locations.tacojohns.com/ne/nebraska-city/2410-s-11th-st.html"}, "geometry": {"type": "Point", "coordinates": [-95.86001247167587, 40.65560414797018]}},
{"type": "Feature", "id": "Q221-hFdNOeDa1NSFxNJEjp4lO4=", "properties": {"ref": "https://locations.tacojohns.com/ne/mccook/710-west-b-st.html", "@spider": "taco_johns", "addr:full": "710 West B St", "addr:city": "McCook", "addr:state": "NE", "addr:postcode": "69001", "addr:country": "USA", "name": "Taco John's", "phone": "(308) 345-1980", "website": "https://locations.tacojohns.com/ne/mccook/710-west-b-st.html"}, "geometry": {"type": "Point", "coordinates": [-100.63607856631279, 40.19862055717286]}},
{"type": "Feature", "id": "qbWwTPcKfTlZbkD9c9PP0SVKSKs=", "properties": {"ref": "https://locations.tacojohns.com/mt/great-falls/825-northwest-bypass.html", "@spider": "taco_johns", "addr:full": "825 Northwest Bypass", "addr:city": "Great Falls", "addr:state": "MT", "addr:postcode": "59404", "addr:country": "USA", "name": "Taco John's", "phone": "(406) 453-4141", "website": "https://locations.tacojohns.com/mt/great-falls/825-northwest-bypass.html"}, "geometry": {"type": "Point", "coordinates": [-111.32641822099686, 47.51652138829545]}},
{"type": "Feature", "id": "uRjuCFAH5AVnjEKezuTyOZDut20=", "properties": {"ref": "https://locations.tacojohns.com/mt/great-falls/1301-10th-ave-s.html", "@spider": "taco_johns", "addr:full": "1301 10th Ave S", "addr:city": "Great Falls", "addr:state": "MT", "addr:postcode": "59405", "addr:country": "USA", "name": "Taco John's", "phone": "(406) 727-2222", "website": "https://locations.tacojohns.com/mt/great-falls/1301-10th-ave-s.html"}, "geometry": {"type": "Point", "coordinates": [-111.28474071621895, 47.49458311539215]}},
{"type": "Feature", "id": "Be6Gm90zy9De34tX1P5FEhGzzMU=", "properties": {"ref": "https://locations.tacojohns.com/mt/great-falls/1001-14th-st-n.html", "@spider": "taco_johns", "addr:full": "1001 14th St N", "addr:city": "Great Falls", "addr:state": "MT", "addr:postcode": "59401", "addr:country": "USA", "name": "Taco John's", "phone": "(406) 727-2758", "website": "https://locations.tacojohns.com/mt/great-falls/1001-14th-st-n.html"}, "geometry": {"type": "Point", "coordinates": [-111.28223821520805, 47.516494215730766]}},
{"type": "Feature", "id": "H8gsFh0qtvgXlyhaiXlOgkzRVy8=", "properties": {"ref": "https://locations.tacojohns.com/mt/billings/749-s-20th-st-w.html", "@spider": "taco_johns", "addr:full": "749 S 20th St W", "addr:city": "Billings", "addr:state": "MT", "addr:postcode": "59102", "addr:country": "USA", "name": "Taco John's", "phone": "(406) 655-9764", "website": "https://locations.tacojohns.com/mt/billings/749-s-20th-st-w.html"}, "geometry": {"type": "Point", "coordinates": [-108.56614932707333, 45.75701001415465]}},
{"type": "Feature", "id": "-P6BJXqcDcJSZAP1iEot1n-0HMA=", "properties": {"ref": "https://locations.tacojohns.com/mt/billings/402-main-st.html", "@spider": "taco_johns", "addr:full": "402 Main St", "addr:city": "Billings", "addr:state": "MT", "addr:postcode": "59105", "addr:country": "USA", "name": "Taco John's", "phone": "(406) 248-8002", "website": "https://locations.tacojohns.com/mt/billings/402-main-st.html"}, "geometry": {"type": "Point", "coordinates": [-108.47673983275354, 45.8054876294839]}},
{"type": "Feature", "id": "h6ZrwiDd1TlxXpoTRfYTng2cBRo=", "properties": {"ref": "https://locations.tacojohns.com/mt/billings/2655-central-ave.html", "@spider": "taco_johns", "addr:full": "2655 Central Ave", "addr:city": "Billings", "addr:state": "MT", "addr:postcode": "59102", "addr:country": "USA", "name": "Taco John's", "phone": "(406) 534-1008", "website": "https://locations.tacojohns.com/mt/billings/2655-central-ave.html"}, "geometry": {"type": "Point", "coordinates": [-108.58376562595367, 45.77002073419202]}},
{"type": "Feature", "id": "NgA2Ia3Fa7TnYq7_GaMujcE4iN4=", "properties": {"ref": "https://locations.tacojohns.com/mt/billings/1105-grand-ave.html", "@spider": "taco_johns", "addr:full": "1105 Grand Ave", "addr:city": "Billings", "addr:state": "MT", "addr:postcode": "59102", "addr:country": "USA", "name": "Taco John's", "phone": "(406) 252-3318", "website": "https://locations.tacojohns.com/mt/billings/1105-grand-ave.html"}, "geometry": {"type": "Point", "coordinates": [-108.54436665773392, 45.78442891733754]}},
{"type": "Feature", "id": "s8mdj6Lw6zGRl427GunqUYO2Snw=", "properties": {"ref": "https://locations.tacojohns.com/ne/omaha/5445-l-st.html", "@spider": "taco_johns", "addr:full": "5445 L St", "addr:city": "Omaha", "addr:state": "NE", "addr:postcode": "68117", "addr:country": "USA", "name": "Taco John's", "phone": "(402) 731-8250", "website": "https://locations.tacojohns.com/ne/omaha/5445-l-st.html"}, "geometry": {"type": "Point", "coordinates": [-95.99856734275818, 41.21194951845108]}},
{"type": "Feature", "id": "unGX5svYHXwEL_9zoNQhVtCk9ME=", "properties": {"ref": "https://locations.tacojohns.com/ne/omaha/350-n-168th-circle.html", "@spider": "taco_johns", "addr:full": "350 N 168th Circle", "addr:city": "Omaha", "addr:state": "NE", "addr:postcode": "68118", "addr:country": "USA", "name": "Taco John's", "phone": "(402) 330-5253", "website": "https://locations.tacojohns.com/ne/omaha/350-n-168th-circle.html"}, "geometry": {"type": "Point", "coordinates": [-96.17852302642859, 41.2619986536928]}},
{"type": "Feature", "id": "qqATUz5NgC9GqUS88FOCBL9a5KQ=", "properties": {"ref": "https://locations.tacojohns.com/ne/omaha/2901-n-108th-st.html", "@spider": "taco_johns", "addr:full": "2901 N 108th St", "addr:city": "Omaha", "addr:state": "NE", "addr:postcode": "68164", "addr:country": "USA", "name": "Taco John's", "phone": "(402) 964-2111", "website": "https://locations.tacojohns.com/ne/omaha/2901-n-108th-st.html"}, "geometry": {"type": "Point", "coordinates": [-96.08104258775711, 41.28447014045095]}},
{"type": "Feature", "id": "u0z6r-n6JidvVIRXvGGq2soJ6JU=", "properties": {"ref": "https://locations.tacojohns.com/ne/omaha/15375-weir-st.html", "@spider": "taco_johns", "addr:full": "15375 Weir St", "addr:city": "Omaha", "addr:state": "NE", "addr:postcode": "68137", "addr:country": "USA", "name": "Taco John's", "phone": "(402) 614-4250", "website": "https://locations.tacojohns.com/ne/omaha/15375-weir-st.html"}, "geometry": {"type": "Point", "coordinates": [-96.15526467561722, 41.20563259849005]}},
{"type": "Feature", "id": "tOdotwmggUiYK5qywOV0CqvqQp0=", "properties": {"ref": "https://locations.tacojohns.com/ne/omaha/1115-s-saddle-creek-rd.html", "@spider": "taco_johns", "addr:full": "1115 S Saddle Creek Rd", "addr:city": "Omaha", "addr:state": "NE", "addr:postcode": "68106", "addr:country": "USA", "name": "Taco John's", "phone": "(402) 553-7400", "website": "https://locations.tacojohns.com/ne/omaha/1115-s-saddle-creek-rd.html"}, "geometry": {"type": "Point", "coordinates": [-95.9879574403385, 41.24822741995051]}},
{"type": "Feature", "id": "PV4LLS9LCgUIxEg4ec1FcRdi7Co=", "properties": {"ref": "https://locations.tacojohns.com/ne/north-platte/3211-detco-circle.html", "@spider": "taco_johns", "addr:full": "3211 Detco Circle", "addr:city": "North Platte", "addr:state": "NE", "addr:postcode": "69101", "addr:country": "USA", "name": "Taco John's", "phone": "(308) 534-0200", "website": "https://locations.tacojohns.com/ne/north-platte/3211-detco-circle.html"}, "geometry": {"type": "Point", "coordinates": [-100.76460758895496, 41.105687694934055]}},
{"type": "Feature", "id": "HHMBXFYb-HQiVulO4c1U2dWgyAY=", "properties": {"ref": "https://locations.tacojohns.com/ne/north-platte/1216-e-4th-st.html", "@spider": "taco_johns", "addr:full": "1216 E 4th St", "addr:city": "North Platte", "addr:state": "NE", "addr:postcode": "69101", "addr:country": "USA", "name": "Taco John's", "phone": "(308) 534-2258", "website": "https://locations.tacojohns.com/ne/north-platte/1216-e-4th-st.html"}, "geometry": {"type": "Point", "coordinates": [-100.74931606650352, 41.13441841348931]}},
{"type": "Feature", "id": "CNj-zGfOXxtPABTocOIQkY28lpk=", "properties": {"ref": "https://locations.tacojohns.com/ne/lexington/501-n-madison.html", "@spider": "taco_johns", "addr:full": "501 N Madison", "addr:city": "Lexington", "addr:state": "NE", "addr:postcode": "68850", "addr:country": "USA", "name": "Taco John's", "phone": "(308) 324-6610", "website": "https://locations.tacojohns.com/ne/lexington/501-n-madison.html"}, "geometry": {"type": "Point", "coordinates": [-99.74475552598449, 40.77797137206032]}},
{"type": "Feature", "id": "sVwmTS_OnzusFmK9cm5FIparFR8=", "properties": {"ref": "https://locations.tacojohns.com/ne/lincoln/5641-s-56th-st.html", "@spider": "taco_johns", "addr:full": "5641 S 56th St", "addr:city": "Lincoln", "addr:state": "NE", "addr:postcode": "68516", "addr:country": "USA", "name": "Taco John's", "phone": "(402) 423-8230", "website": "https://locations.tacojohns.com/ne/lincoln/5641-s-56th-st.html"}, "geometry": {"type": "Point", "coordinates": [-96.64499312639236, 40.75740313771139]}},
{"type": "Feature", "id": "SN2GKNTR4fxXcIR8773IfzR_zeA=", "properties": {"ref": "https://locations.tacojohns.com/ne/lincoln/4700-vine-st.html", "@spider": "taco_johns", "addr:full": "4700 Vine St", "addr:city": "Lincoln", "addr:state": "NE", "addr:postcode": "68503", "addr:country": "USA", "name": "Taco John's", "phone": "(402) 466-3950", "website": "https://locations.tacojohns.com/ne/lincoln/4700-vine-st.html"}, "geometry": {"type": "Point", "coordinates": [-96.65470004081726, 40.82111783034507]}},
{"type": "Feature", "id": "tuj6Ic-OvSP74YgjEplFXmkG8nY=", "properties": {"ref": "https://locations.tacojohns.com/ne/lincoln/3301-n-27th-st.html", "@spider": "taco_johns", "addr:full": "3301 N 27th St", "addr:city": "Lincoln", "addr:state": "NE", "addr:postcode": "68521", "addr:country": "USA", "name": "Taco John's", "phone": "(402) 466-8226", "website": "https://locations.tacojohns.com/ne/lincoln/3301-n-27th-st.html"}, "geometry": {"type": "Point", "coordinates": [-96.68270096182823, 40.84510439168445]}},
{"type": "Feature", "id": "iXg_BCiClaxTW4FpfvpRnJUdz78=", "properties": {"ref": "https://locations.tacojohns.com/ne/lincoln/2301-n-84th-st.html", "@spider": "taco_johns", "addr:full": "2301 N 84th St", "addr:city": "Lincoln", "addr:state": "NE", "addr:postcode": "68507", "addr:country": "USA", "name": "Taco John's", "phone": "(402) 325-0105", "website": "https://locations.tacojohns.com/ne/lincoln/2301-n-84th-st.html"}, "geometry": {"type": "Point", "coordinates": [-96.60648599267006, 40.835655499752846]}},
{"type": "Feature", "id": "IW6qpsRrL_ojbrr9uJj2lqdPzaI=", "properties": {"ref": "https://locations.tacojohns.com/ne/lincoln/1126-south-st.html", "@spider": "taco_johns", "addr:full": "1126 South St", "addr:city": "Lincoln", "addr:state": "NE", "addr:postcode": "68502", "addr:country": "USA", "name": "Taco John's", "phone": "(402) 477-2943", "website": "https://locations.tacojohns.com/ne/lincoln/1126-south-st.html"}, "geometry": {"type": "Point", "coordinates": [-96.70471519231796, 40.792147663031884]}},
{"type": "Feature", "id": "D7z6_fXo9O2Rda35pOQhAwOpLMQ=", "properties": {"ref": "https://locations.tacojohns.com/ne/holdrege/225-w-4th-ave.html", "@spider": "taco_johns", "addr:full": "225 W 4th Ave", "addr:city": "Holdrege", "addr:state": "NE", "addr:postcode": "68949", "addr:country": "USA", "name": "Taco John's", "phone": "(308) 995-0509", "website": "https://locations.tacojohns.com/ne/holdrege/225-w-4th-ave.html"}, "geometry": {"type": "Point", "coordinates": [-99.38298538327217, 40.43758351561037]}},
{"type": "Feature", "id": "zyfjkIbRdrei6GnkrTJub1o3M2c=", "properties": {"ref": "https://locations.tacojohns.com/ne/hastings/729-s-burlington-st.html", "@spider": "taco_johns", "addr:full": "729 S Burlington St", "addr:city": "Hastings", "addr:state": "NE", "addr:postcode": "68901", "addr:country": "USA", "name": "Taco John's", "phone": "(402) 462-4211", "website": "https://locations.tacojohns.com/ne/hastings/729-s-burlington-st.html"}, "geometry": {"type": "Point", "coordinates": [-98.39215859770775, 40.57617518184148]}},
{"type": "Feature", "id": "Gau6TQVvSdjl6Xv5DTC0Zo9eCDw=", "properties": {"ref": "https://locations.tacojohns.com/ne/gretna/11310-wickersham.html", "@spider": "taco_johns", "addr:full": "11310 Wickersham", "addr:city": "Gretna", "addr:state": "NE", "addr:postcode": "68028", "addr:country": "USA", "name": "Taco John's", "phone": "(402) 315-9347", "website": "https://locations.tacojohns.com/ne/gretna/11310-wickersham.html"}, "geometry": {"type": "Point", "coordinates": [-96.1618347, 41.1452407]}},
{"type": "Feature", "id": "LV_TAIr2qFnk5TUtgitNUtPG3r4=", "properties": {"ref": "https://locations.tacojohns.com/ne/gering/3650-n-10th-st.html", "@spider": "taco_johns", "addr:full": "3650 N 10th St", "addr:city": "Gering", "addr:state": "NE", "addr:postcode": "69341", "addr:country": "USA", "name": "Taco John's", "phone": "(308) 632-3100", "website": "https://locations.tacojohns.com/ne/gering/3650-n-10th-st.html"}, "geometry": {"type": "Point", "coordinates": [-103.66101714225806, 41.84782043214425]}},
{"type": "Feature", "id": "SF_rt2N3lIhsgtMZDHo3TBrhL4I=", "properties": {"ref": "https://locations.tacojohns.com/ne/fremont/3310-e-elk-lane.html", "@spider": "taco_johns", "addr:full": "3310 E Elk Lane", "addr:city": "Fremont", "addr:state": "NE", "addr:postcode": "68025", "addr:country": "USA", "name": "Taco John's", "phone": "(402) 620-4385", "website": "https://locations.tacojohns.com/ne/fremont/3310-e-elk-lane.html"}, "geometry": {"type": "Point", "coordinates": [-96.4550270140171, 41.450699046579025]}},
{"type": "Feature", "id": "_J1r0K4aqJ5-3ZSGzRGUVpmXAw8=", "properties": {"ref": "https://locations.tacojohns.com/ne/columbus/3805-howard-blvd.html", "@spider": "taco_johns", "addr:full": "3805 Howard Blvd", "addr:city": "Columbus", "addr:state": "NE", "addr:postcode": "68601", "addr:country": "USA", "name": "Taco John's", "phone": "(402) 564-1022", "website": "https://locations.tacojohns.com/ne/columbus/3805-howard-blvd.html"}, "geometry": {"type": "Point", "coordinates": [-97.37477660179138, 41.43234767396901]}},
{"type": "Feature", "id": "weeM6YzXN4GknOztNLx7CO7Oomo=", "properties": {"ref": "https://locations.tacojohns.com/ne/chadron/1310-w-highway-20.html", "@spider": "taco_johns", "addr:full": "1310 W Highway 20", "addr:city": "Chadron", "addr:state": "NE", "addr:postcode": "69337", "addr:country": "USA", "name": "Taco John's", "phone": "(308) 432-4509", "website": "https://locations.tacojohns.com/ne/chadron/1310-w-highway-20.html"}, "geometry": {"type": "Point", "coordinates": [-103.01856279373169, 42.82887595336334]}},
{"type": "Feature", "id": "CaXNC3dmRb9flNZhQ8QQCiBuaA4=", "properties": {"ref": "https://locations.tacojohns.com/ne/central-city/930-g-st.html", "@spider": "taco_johns", "addr:full": "930 G St", "addr:city": "Central City", "addr:state": "NE", "addr:postcode": "68826", "addr:country": "USA", "name": "Taco John's", "phone": "(308) 946-2801", "website": "https://locations.tacojohns.com/ne/central-city/930-g-st.html"}, "geometry": {"type": "Point", "coordinates": [-98.00991959405115, 41.11073484438379]}},
{"type": "Feature", "id": "CtmAzdgv8X5R9R3-rTSjnxVV5Zk=", "properties": {"ref": "https://locations.tacojohns.com/ne/broken-bow/2990-south-e-st.html", "@spider": "taco_johns", "addr:full": "2990 South E St", "addr:city": "Broken Bow", "addr:state": "NE", "addr:postcode": "68822", "addr:country": "USA", "name": "Taco John's", "phone": "(308) 767-2070", "website": "https://locations.tacojohns.com/ne/broken-bow/2990-south-e-st.html"}, "geometry": {"type": "Point", "coordinates": [-99.66427800882263, 41.40108325674974]}},
{"type": "Feature", "id": "Jjnk8WGbSaqgqNM4frXZlZcw-vM=", "properties": {"ref": "https://locations.tacojohns.com/ne/bridgeport/102-west-5th-st.html", "@spider": "taco_johns", "addr:full": "102 West 5th St", "addr:city": "Bridgeport", "addr:state": "NE", "addr:postcode": "69336", "addr:country": "USA", "name": "Taco John's", "phone": "(308) 262-3100", "website": "https://locations.tacojohns.com/ne/bridgeport/102-west-5th-st.html"}, "geometry": {"type": "Point", "coordinates": [-103.0999879615137, 41.67097056325509]}},
{"type": "Feature", "id": "V0lYKs4d908EPLam-qP-ZDWLXjA=", "properties": {"ref": "https://locations.tacojohns.com/ne/kearney/419-e-25th-st.html", "@spider": "taco_johns", "addr:full": "419 E 25th St", "addr:city": "Kearney", "addr:state": "NE", "addr:postcode": "68847", "addr:country": "USA", "name": "Taco John's", "phone": "(308) 234-9515", "website": "https://locations.tacojohns.com/ne/kearney/419-e-25th-st.html"}, "geometry": {"type": "Point", "coordinates": [-99.07510936260218, 40.6999303796854]}},
{"type": "Feature", "id": "DwRqtUkJKFmUgqRRQ3JYI5Wp6ts=", "properties": {"ref": "https://locations.tacojohns.com/ne/kearney/105-w-56th-st.html", "@spider": "taco_johns", "addr:full": "105 W 56th St", "addr:city": "Kearney", "addr:state": "NE", "addr:postcode": "68847", "addr:country": "USA", "name": "Taco John's", "phone": "(308) 224-2400", "website": "https://locations.tacojohns.com/ne/kearney/105-w-56th-st.html"}, "geometry": {"type": "Point", "coordinates": [-99.0825001, 40.7286427]}},
{"type": "Feature", "id": "iJbgmDMngRAfWV5Ij5yRkUGr3HM=", "properties": {"ref": "https://locations.tacojohns.com/ne/bellevue/1314-harlan-dr.html", "@spider": "taco_johns", "addr:full": "1314 Harlan Dr", "addr:city": "Bellevue", "addr:state": "NE", "addr:postcode": "68005", "addr:country": "USA", "name": "Taco John's", "phone": "(402) 934-9655", "website": "https://locations.tacojohns.com/ne/bellevue/1314-harlan-dr.html"}, "geometry": {"type": "Point", "coordinates": [-95.91228561850585, 41.14083458322284]}},
{"type": "Feature", "id": "aLfL7t0pxTv4QFN16j4LLTqL6S4=", "properties": {"ref": "https://locations.tacojohns.com/ne/beatrice/1215-n-6th-st.html", "@spider": "taco_johns", "addr:full": "1215 N 6th St", "addr:city": "Beatrice", "addr:state": "NE", "addr:postcode": "68310", "addr:country": "USA", "name": "Taco John's", "phone": "(402) 228-1334", "website": "https://locations.tacojohns.com/ne/beatrice/1215-n-6th-st.html"}, "geometry": {"type": "Point", "coordinates": [-96.74690768122673, 40.2784575149161]}},
{"type": "Feature", "id": "b4bDAWZ7vFS1IufGsmJduRrOMG0=", "properties": {"ref": "https://locations.tacojohns.com/ne/alliance/824-e-3rd-st.html", "@spider": "taco_johns", "addr:full": "824 E 3rd St", "addr:city": "Alliance", "addr:state": "NE", "addr:postcode": "69301", "addr:country": "USA", "name": "Taco John's", "phone": "(308) 762-6590", "website": "https://locations.tacojohns.com/ne/alliance/824-e-3rd-st.html"}, "geometry": {"type": "Point", "coordinates": [-102.85998120903969, 42.09760644436906]}},
{"type": "Feature", "id": "ZcZklebNQiffNRsPIW4K7ftE7Gs=", "properties": {"ref": "https://locations.tacojohns.com/ne/grand-island/1007-w-2nd-st.html", "@spider": "taco_johns", "addr:full": "1007 W 2nd St", "addr:city": "Grand Island", "addr:state": "NE", "addr:postcode": "68801", "addr:country": "USA", "name": "Taco John's", "phone": "(308) 384-6141", "website": "https://locations.tacojohns.com/ne/grand-island/1007-w-2nd-st.html"}, "geometry": {"type": "Point", "coordinates": [-98.34933268278974, 40.92050360499097]}},
{"type": "Feature", "id": "0-DZ5qfcucBl96pf1cuiMDjzl4w=", "properties": {"ref": "https://locations.tacojohns.com/ne/grand-island/2210-n-webb-rd.html", "@spider": "taco_johns", "addr:full": "2210 N Webb Rd", "addr:city": "Grand Island", "addr:state": "NE", "addr:postcode": "68803", "addr:country": "USA", "name": "Taco John's", "phone": "(308) 381-8267", "website": "https://locations.tacojohns.com/ne/grand-island/2210-n-webb-rd.html"}, "geometry": {"type": "Point", "coordinates": [-98.37918877601624, 40.94200119653041]}},
{"type": "Feature", "id": "f0AJF92QV-hRKyi74VuI_j1Xcao=", "properties": {"ref": "https://locations.tacojohns.com/ne/grand-island/1408-s-locust-st.html", "@spider": "taco_johns", "addr:full": "1408 S Locust St", "addr:city": "Grand Island", "addr:state": "NE", "addr:postcode": "68801", "addr:country": "USA", "name": "Taco John's", "phone": "(308) 382-0380", "website": "https://locations.tacojohns.com/ne/grand-island/1408-s-locust-st.html"}, "geometry": {"type": "Point", "coordinates": [-98.3400821685791, 40.907061516079175]}},
{"type": "Feature", "id": "QJGnG9A38Mu2o1dyEytH3OxymBw=", "properties": {"ref": "https://locations.tacojohns.com/sd/deadwood/86-charles-st.html", "@spider": "taco_johns", "addr:full": "86 Charles St", "addr:city": "Deadwood", "addr:state": "SD", "addr:postcode": "57732", "addr:country": "USA", "name": "Taco John's", "phone": "(605) 578-3975", "website": "https://locations.tacojohns.com/sd/deadwood/86-charles-st.html"}, "geometry": {"type": "Point", "coordinates": [-103.72975990176201, 44.36970330644668]}},
{"type": "Feature", "id": "khsITk-7qr0uptBVxjAGeMvdmh8=", "properties": {"ref": "https://locations.tacojohns.com/sd/chamberlain/126-s-front-st.html", "@spider": "taco_johns", "addr:full": "126 S Front St", "addr:city": "Chamberlain", "addr:state": "SD", "addr:postcode": "57325", "addr:country": "USA", "name": "Taco John's", "phone": "(605) 734-4115", "website": "https://locations.tacojohns.com/sd/chamberlain/126-s-front-st.html"}, "geometry": {"type": "Point", "coordinates": [-99.3385542, 43.7957675]}},
{"type": "Feature", "id": "4AZvXxRfoTwxtcyqUo4oykJsK88=", "properties": {"ref": "https://locations.tacojohns.com/sd/canton/704-e-5th-st.html", "@spider": "taco_johns", "addr:full": "704 E 5th St", "addr:city": "Canton", "addr:state": "SD", "addr:postcode": "57013", "addr:country": "USA", "name": "Taco John's", "phone": "(605) 987-2410", "website": "https://locations.tacojohns.com/sd/canton/704-e-5th-st.html"}, "geometry": {"type": "Point", "coordinates": [-96.58459337802924, 43.30106980789204]}},
{"type": "Feature", "id": "G1yeVhH41TndYE64pYn5iZKyWxQ=", "properties": {"ref": "https://locations.tacojohns.com/sd/brookings/609-medary-ave.html", "@spider": "taco_johns", "addr:full": "609 Medary Ave", "addr:city": "Brookings", "addr:state": "SD", "addr:postcode": "57006", "addr:country": "USA", "name": "Taco John's", "phone": "(605) 692-7524", "website": "https://locations.tacojohns.com/sd/brookings/609-medary-ave.html"}, "geometry": {"type": "Point", "coordinates": [-96.78888114543952, 44.31198110470354]}},
{"type": "Feature", "id": "_qPQdWoeo-RZwtB6brOZFnoO_Ao=", "properties": {"ref": "https://locations.tacojohns.com/sd/brandon/101-split-rock-blvd.html", "@spider": "taco_johns", "addr:full": "101 Split Rock Blvd", "addr:city": "Brandon", "addr:state": "SD", "addr:postcode": "57005", "addr:country": "USA", "name": "Taco John's", "phone": "(605) 582-7287", "website": "https://locations.tacojohns.com/sd/brandon/101-split-rock-blvd.html"}, "geometry": {"type": "Point", "coordinates": [-96.573072317791, 43.59496020109994]}},
{"type": "Feature", "id": "9t1j2Usnrmlrt7fdl8JmX9sw-FY=", "properties": {"ref": "https://locations.tacojohns.com/sd/belle-fourche/1401-mill-st.html", "@spider": "taco_johns", "addr:full": "1401 Mill St", "addr:city": "Belle Fourche", "addr:state": "SD", "addr:postcode": "57717", "addr:country": "USA", "name": "Taco John's", "phone": "(605) 892-6436", "website": "https://locations.tacojohns.com/sd/belle-fourche/1401-mill-st.html"}, "geometry": {"type": "Point", "coordinates": [-103.85547101497644, 44.66235381750818]}},
{"type": "Feature", "id": "a74WgZNVDvyQgc9ZrvrKyEs9G1Y=", "properties": {"ref": "https://locations.tacojohns.com/sd/aberdeen/2300-se-6th-ave.html", "@spider": "taco_johns", "addr:full": "2300 SE 6th Ave", "addr:city": "Aberdeen", "addr:state": "SD", "addr:postcode": "57401", "addr:country": "USA", "name": "Taco John's", "phone": "(605) 225-2533", "website": "https://locations.tacojohns.com/sd/aberdeen/2300-se-6th-ave.html"}, "geometry": {"type": "Point", "coordinates": [-98.45542788505549, 45.45895292185747]}},
{"type": "Feature", "id": "cryD_U7e6V2uwXJXVYjbr7om41c=", "properties": {"ref": "https://locations.tacojohns.com/sd/north-sioux-city/1240-river-dr.html", "@spider": "taco_johns", "addr:full": "1240 River Dr", "addr:city": "North Sioux City", "addr:state": "SD", "addr:postcode": "57049", "addr:country": "USA", "name": "Taco John's", "phone": "(605) 232-5809", "website": "https://locations.tacojohns.com/sd/north-sioux-city/1240-river-dr.html"}, "geometry": {"type": "Point", "coordinates": [-96.49510726332664, 42.52434478424316]}},
{"type": "Feature", "id": "jiQEMKy-Xg4FuUm7QHnolqo_nsI=", "properties": {"ref": "https://locations.tacojohns.com/sd/mobridge/221-e-grand-crossing.html", "@spider": "taco_johns", "addr:full": "221 E Grand Crossing", "addr:city": "Mobridge", "addr:state": "SD", "addr:postcode": "57601", "addr:country": "USA", "name": "Taco John's", "phone": "(605) 845-7559", "website": "https://locations.tacojohns.com/sd/mobridge/221-e-grand-crossing.html"}, "geometry": {"type": "Point", "coordinates": [-100.43125167489052, 45.53718928522758]}},
{"type": "Feature", "id": "B2SsT9YhENP4UYtjoSqtVK5kZ0c=", "properties": {"ref": "https://locations.tacojohns.com/sd/mitchell/701-n-sanborn-blvd.html", "@spider": "taco_johns", "addr:full": "701 N Sanborn Blvd", "addr:city": "Mitchell", "addr:state": "SD", "addr:postcode": "57301", "addr:country": "USA", "name": "Taco John's", "phone": "(605) 996-4445", "website": "https://locations.tacojohns.com/sd/mitchell/701-n-sanborn-blvd.html"}, "geometry": {"type": "Point", "coordinates": [-98.03008988499641, 43.71556089792705]}},
{"type": "Feature", "id": "tB2p732Z6KaIgKmpRJI0mHVetcw=", "properties": {"ref": "https://locations.tacojohns.com/sd/mission/643-2nd-street.html", "@spider": "taco_johns", "addr:full": "643 2nd Street", "addr:city": "Mission", "addr:state": "SD", "addr:postcode": "57555", "addr:country": "USA", "name": "Taco John's", "phone": "(605) 856-4419", "website": "https://locations.tacojohns.com/sd/mission/643-2nd-street.html"}, "geometry": {"type": "Point", "coordinates": [-100.6496607, 43.3051027]}},
{"type": "Feature", "id": "NFz8FHxff2auuNlhhxrPPL7VazU=", "properties": {"ref": "https://locations.tacojohns.com/sd/yankton/1014-broadway-st.html", "@spider": "taco_johns", "addr:full": "1014 Broadway St", "addr:city": "Yankton", "addr:state": "SD", "addr:postcode": "57078", "addr:country": "USA", "name": "Taco John's", "phone": "(605) 665-4114", "website": "https://locations.tacojohns.com/sd/yankton/1014-broadway-st.html"}, "geometry": {"type": "Point", "coordinates": [-97.39639880510367, 42.88011871452943]}},
{"type": "Feature", "id": "DFejUYw9IQYkdKhgrjESJasL7WM=", "properties": {"ref": "https://locations.tacojohns.com/oh/circleville/25727-durdoc-street.html", "@spider": "taco_johns", "addr:full": "25727 Durdoc Street", "addr:city": "Circleville", "addr:state": "OH", "addr:postcode": "43113", "addr:country": "USA", "name": "Taco John's", "phone": "(740) 474-4126", "website": "https://locations.tacojohns.com/oh/circleville/25727-durdoc-street.html"}, "geometry": {"type": "Point", "coordinates": [-82.9573322, 39.55613049999999]}},
{"type": "Feature", "id": "pR2kVP3NKdIRhXZQuH3IrkiUBug=", "properties": {"ref": "https://locations.tacojohns.com/nd/williston/1215-2nd-ave-w.html", "@spider": "taco_johns", "addr:full": "1215 2nd Ave W", "addr:city": "Williston", "addr:state": "ND", "addr:postcode": "58801", "addr:country": "USA", "name": "Taco John's", "phone": "(701) 572-7980", "website": "https://locations.tacojohns.com/nd/williston/1215-2nd-ave-w.html"}, "geometry": {"type": "Point", "coordinates": [-103.62627357244492, 48.15655562428973]}},
{"type": "Feature", "id": "6n8GotjkrtNAppWCEnFVtjuqss4=", "properties": {"ref": "https://locations.tacojohns.com/nd/west-fargo/1560-13th-ave-e.html", "@spider": "taco_johns", "addr:full": "1560 13th Ave E", "addr:city": "West Fargo", "addr:state": "ND", "addr:postcode": "58078", "addr:country": "USA", "name": "Taco John's", "phone": "(701) 281-1977", "website": "https://locations.tacojohns.com/nd/west-fargo/1560-13th-ave-e.html"}, "geometry": {"type": "Point", "coordinates": [-96.87549948692316, 46.86241749814112]}},
{"type": "Feature", "id": "dJgwekjV-bCUTGblJD1atKmitHY=", "properties": {"ref": "https://locations.tacojohns.com/nd/wahpeton/801-dakota-ave.html", "@spider": "taco_johns", "addr:full": "801 Dakota Ave", "addr:city": "Wahpeton", "addr:state": "ND", "addr:postcode": "58075", "addr:country": "USA", "name": "Taco John's", "phone": "(701) 642-4680", "website": "https://locations.tacojohns.com/nd/wahpeton/801-dakota-ave.html"}, "geometry": {"type": "Point", "coordinates": [-96.6116005406002, 46.263648934460875]}},
{"type": "Feature", "id": "oJ8SnCTNaeNCl01t3HSKOPTPk2c=", "properties": {"ref": "https://locations.tacojohns.com/nd/valley-city/148-2nd-st-ne.html", "@spider": "taco_johns", "addr:full": "148 2nd St NE", "addr:city": "Valley City", "addr:state": "ND", "addr:postcode": "58072", "addr:country": "USA", "name": "Taco John's", "phone": "(701) 845-5495", "website": "https://locations.tacojohns.com/nd/valley-city/148-2nd-st-ne.html"}, "geometry": {"type": "Point", "coordinates": [-98.0020460486412, 46.923948481144]}},
{"type": "Feature", "id": "MwnAMu1Hyj4J0DNR2NpRm3_TWpE=", "properties": {"ref": "https://locations.tacojohns.com/nd/parshall/305-2nd-ave-ne.html", "@spider": "taco_johns", "addr:full": "305 2nd Ave NE", "addr:city": "Parshall", "addr:state": "ND", "addr:postcode": "58770", "addr:country": "USA", "name": "Taco John's", "phone": "(701) 862-4444", "website": "https://locations.tacojohns.com/nd/parshall/305-2nd-ave-ne.html"}, "geometry": {"type": "Point", "coordinates": [-102.1281143, 47.9558742]}},
{"type": "Feature", "id": "L57vM5YP6bviXWfrsxl2Fwrw63U=", "properties": {"ref": "https://locations.tacojohns.com/nd/mandan/814-e-main-st.html", "@spider": "taco_johns", "addr:full": "814 E Main St", "addr:city": "Mandan", "addr:state": "ND", "addr:postcode": "58554", "addr:country": "USA", "name": "Taco John's", "phone": "(701) 663-2828", "website": "https://locations.tacojohns.com/nd/mandan/814-e-main-st.html"}, "geometry": {"type": "Point", "coordinates": [-100.87880373001099, 46.82829395144945]}},
{"type": "Feature", "id": "TSbAUOGsKc_B9daYgQXPEBOK8eo=", "properties": {"ref": "https://locations.tacojohns.com/nd/jamestown/718-10th-st-se.html", "@spider": "taco_johns", "addr:full": "718 10th St SE", "addr:city": "Jamestown", "addr:state": "ND", "addr:postcode": "58401", "addr:country": "USA", "name": "Taco John's", "phone": "(701) 252-2508", "website": "https://locations.tacojohns.com/nd/jamestown/718-10th-st-se.html"}, "geometry": {"type": "Point", "coordinates": [-98.69797962161101, 46.89880708541517]}},
{"type": "Feature", "id": "EjVM4A2VdqIWSHgJZ0kg-Z-g2kA=", "properties": {"ref": "https://locations.tacojohns.com/nd/grand-forks/2522-gateway-dr.html", "@spider": "taco_johns", "addr:full": "2522 Gateway Dr", "addr:city": "Grand Forks", "addr:state": "ND", "addr:postcode": "58203", "addr:country": "USA", "name": "Taco John's", "phone": "(701) 757-0813", "website": "https://locations.tacojohns.com/nd/grand-forks/2522-gateway-dr.html"}, "geometry": {"type": "Point", "coordinates": [-97.06390321254736, 47.93332710648423]}},
{"type": "Feature", "id": "QhhWrE_z4NcFoHKp_yVBvu7TZn8=", "properties": {"ref": "https://locations.tacojohns.com/nd/drayton/7988-160th-avenue-ne.html", "@spider": "taco_johns", "addr:full": "7988 160th Avenue NE", "addr:city": "Drayton", "addr:state": "ND", "addr:postcode": "58225", "addr:country": "USA", "name": "Taco John's", "phone": "(800) 854-0819", "website": "https://locations.tacojohns.com/nd/drayton/7988-160th-avenue-ne.html"}, "geometry": {"type": "Point", "coordinates": [-97.1903791, 48.5696412]}},
{"type": "Feature", "id": "fUiri_DeGTWVcB3qPNn-E27gvlg=", "properties": {"ref": "https://locations.tacojohns.com/nd/dickinson/180-14th-st-w.html", "@spider": "taco_johns", "addr:full": "180 14th St W", "addr:city": "Dickinson", "addr:state": "ND", "addr:postcode": "58601", "addr:country": "USA", "name": "Taco John's", "phone": "(701) 483-0975", "website": "https://locations.tacojohns.com/nd/dickinson/180-14th-st-w.html"}, "geometry": {"type": "Point", "coordinates": [-102.78636664152145, 46.89820643736086]}},
{"type": "Feature", "id": "pS5Tquy-1dOP389r-C3VFNd9jEo=", "properties": {"ref": "https://locations.tacojohns.com/nd/devils-lake/354-highway-2-w.html", "@spider": "taco_johns", "addr:full": "354 Highway 2 W", "addr:city": "Devils Lake", "addr:state": "ND", "addr:postcode": "58301", "addr:country": "USA", "name": "Taco John's", "phone": "(701) 662-2227", "website": "https://locations.tacojohns.com/nd/devils-lake/354-highway-2-w.html"}, "geometry": {"type": "Point", "coordinates": [-98.87071162462234, 48.1069153757161]}},
{"type": "Feature", "id": "2jYdORKZ-bb3fr6fFuDJdidkL_o=", "properties": {"ref": "https://locations.tacojohns.com/oh/bellville/972-sr-97-west.html", "@spider": "taco_johns", "addr:full": "972 SR 97 West", "addr:city": "Bellville", "addr:state": "OH", "addr:postcode": "44813", "addr:country": "USA", "name": "Taco John's", "phone": "(419) 886-0209", "website": "https://locations.tacojohns.com/oh/bellville/972-sr-97-west.html"}, "geometry": {"type": "Point", "coordinates": [-82.545764, 40.65252]}},
{"type": "Feature", "id": "975EMgSMlg-J5gvEVhb1p6y21rw=", "properties": {"ref": "https://locations.tacojohns.com/oh/athens/392-richland-ave.html", "@spider": "taco_johns", "addr:full": "392 Richland Ave", "addr:city": "Athens", "addr:state": "OH", "addr:postcode": "45701", "addr:country": "USA", "name": "Taco John's", "phone": "(740) 594-4766", "website": "https://locations.tacojohns.com/oh/athens/392-richland-ave.html"}, "geometry": {"type": "Point", "coordinates": [-82.10409792512792, 39.31440086172983]}},
{"type": "Feature", "id": "Lgzl_ICYWnbm_KP4qUs54jV253o=", "properties": {"ref": "https://locations.tacojohns.com/sd/watertown/24-9th-ave-se.html", "@spider": "taco_johns", "addr:full": "24 9th Ave SE", "addr:city": "Watertown", "addr:state": "SD", "addr:postcode": "57201", "addr:country": "USA", "name": "Taco John's", "phone": "(605) 886-3149", "website": "https://locations.tacojohns.com/sd/watertown/24-9th-ave-se.html"}, "geometry": {"type": "Point", "coordinates": [-97.11709573454942, 44.889808867988776]}},
{"type": "Feature", "id": "-lUh_NHmHcS2_Jq2ct9cTvTKZK0=", "properties": {"ref": "https://locations.tacojohns.com/sd/vermillion/825-e-cherry-st.html", "@spider": "taco_johns", "addr:full": "825 E Cherry St", "addr:city": "Vermillion", "addr:state": "SD", "addr:postcode": "57069", "addr:country": "USA", "name": "Taco John's", "phone": "(605) 624-9431", "website": "https://locations.tacojohns.com/sd/vermillion/825-e-cherry-st.html"}, "geometry": {"type": "Point", "coordinates": [-96.91880869120496, 42.78630949904279]}},
{"type": "Feature", "id": "vgdVyfjQk7KqGUUqzZnrSJf9iCU=", "properties": {"ref": "https://locations.tacojohns.com/sd/sturgis/2314-s-junction-ave.html", "@spider": "taco_johns", "addr:full": "2314 S Junction Ave", "addr:city": "Sturgis", "addr:state": "SD", "addr:postcode": "57785", "addr:country": "USA", "name": "Taco John's", "phone": "(605) 347-3556", "website": "https://locations.tacojohns.com/sd/sturgis/2314-s-junction-ave.html"}, "geometry": {"type": "Point", "coordinates": [-103.50840523838997, 44.400228301384296]}},
{"type": "Feature", "id": "h7EPK_u_-M_dyVXcmJm7QIfiVbs=", "properties": {"ref": "https://locations.tacojohns.com/sd/spearfish/504-w-jackson-blvd.html", "@spider": "taco_johns", "addr:full": "504 W Jackson Blvd", "addr:city": "Spearfish", "addr:state": "SD", "addr:postcode": "57783", "addr:country": "USA", "name": "Taco John's", "phone": "(605) 642-4620", "website": "https://locations.tacojohns.com/sd/spearfish/504-w-jackson-blvd.html"}, "geometry": {"type": "Point", "coordinates": [-103.86516451835632, 44.49059323894355]}},
{"type": "Feature", "id": "v6hfiiNHid-lDAv_WSV6gZoxqlI=", "properties": {"ref": "https://locations.tacojohns.com/sd/sisseton/406-e-hickory-st.html", "@spider": "taco_johns", "addr:full": "406 E Hickory St", "addr:city": "Sisseton", "addr:state": "SD", "addr:postcode": "57262", "addr:country": "USA", "name": "Taco John's", "phone": "(605) 698-7310", "website": "https://locations.tacojohns.com/sd/sisseton/406-e-hickory-st.html"}, "geometry": {"type": "Point", "coordinates": [-97.0453776760296, 45.65989519093249]}},
{"type": "Feature", "id": "SR611_DwoFzm92VSERGSKMxKRMI=", "properties": {"ref": "https://locations.tacojohns.com/nd/minot/623-north-broadway.html", "@spider": "taco_johns", "addr:full": "623 North Broadway", "addr:city": "Minot", "addr:state": "ND", "addr:postcode": "58703", "addr:country": "USA", "name": "Taco John's", "phone": "(701) 838-5611", "website": "https://locations.tacojohns.com/nd/minot/623-north-broadway.html"}, "geometry": {"type": "Point", "coordinates": [-101.29653931779092, 48.243281709854536]}},
{"type": "Feature", "id": "pEZNTAKRXqPODLr5b_bC6gIMvHk=", "properties": {"ref": "https://locations.tacojohns.com/nd/minot/1725-south-broadway.html", "@spider": "taco_johns", "addr:full": "1725 South Broadway", "addr:city": "Minot", "addr:state": "ND", "addr:postcode": "58701", "addr:country": "USA", "name": "Taco John's", "phone": "(701) 838-3289", "website": "https://locations.tacojohns.com/nd/minot/1725-south-broadway.html"}, "geometry": {"type": "Point", "coordinates": [-101.29555018993415, 48.21548042332444]}},
{"type": "Feature", "id": "8zuVkSV6PaEITnl3_3qsKdXdhpU=", "properties": {"ref": "https://locations.tacojohns.com/sd/pine-ridge/500-us-18.html", "@spider": "taco_johns", "addr:full": "500 US-18", "addr:city": "Pine Ridge", "addr:state": "SD", "addr:postcode": "57770", "addr:country": "USA", "name": "Taco John's", "phone": "(605) 867-5333", "website": "https://locations.tacojohns.com/sd/pine-ridge/500-us-18.html"}, "geometry": {"type": "Point", "coordinates": [-102.5552159, 43.0255779]}},
{"type": "Feature", "id": "a-JzAGdtIHeJks29W-YqZq8BAlk=", "properties": {"ref": "https://locations.tacojohns.com/nd/fargo/4522-26th-ave-s.html", "@spider": "taco_johns", "addr:full": "4522 26th Ave S", "addr:city": "Fargo", "addr:state": "ND", "addr:postcode": "58104", "addr:country": "USA", "name": "Taco John's", "phone": "(701) 356-8900", "website": "https://locations.tacojohns.com/nd/fargo/4522-26th-ave-s.html"}, "geometry": {"type": "Point", "coordinates": [-96.86274021863937, 46.83964855274829]}},
{"type": "Feature", "id": "W0wlljLh9_zhrQ7f6iUHEu3CiyQ=", "properties": {"ref": "https://locations.tacojohns.com/nd/fargo/318-n-10th-st.html", "@spider": "taco_johns", "addr:full": "318 N 10th St", "addr:city": "Fargo", "addr:state": "ND", "addr:postcode": "58102", "addr:country": "USA", "name": "Taco John's", "phone": "(701) 232-9500", "website": "https://locations.tacojohns.com/nd/fargo/318-n-10th-st.html"}, "geometry": {"type": "Point", "coordinates": [-96.7942875623703, 46.88019211685069]}},
{"type": "Feature", "id": "WgwkZIcTFXhlaekoZbFDZ-vpznU=", "properties": {"ref": "https://locations.tacojohns.com/nd/fargo/2601-32nd-ave-s.html", "@spider": "taco_johns", "addr:full": "2601 32nd Ave S", "addr:city": "Fargo", "addr:state": "ND", "addr:postcode": "58103", "addr:country": "USA", "name": "Taco John's", "phone": "(701) 237-6039", "website": "https://locations.tacojohns.com/nd/fargo/2601-32nd-ave-s.html"}, "geometry": {"type": "Point", "coordinates": [-96.8227091, 46.8327481]}},
{"type": "Feature", "id": "URWYOZOHXD2zWfrs1kUk7mAUR2s=", "properties": {"ref": "https://locations.tacojohns.com/nd/fargo/2201-s-13th-ave.html", "@spider": "taco_johns", "addr:full": "2201 S 13th Ave", "addr:city": "Fargo", "addr:state": "ND", "addr:postcode": "58103", "addr:country": "USA", "name": "Taco John's", "phone": "(701) 232-0551", "website": "https://locations.tacojohns.com/nd/fargo/2201-s-13th-ave.html"}, "geometry": {"type": "Point", "coordinates": [-96.81571438908571, 46.86193699655771]}},
{"type": "Feature", "id": "lB3RXrRFDc_KS5RTxToFGJXL0Gg=", "properties": {"ref": "https://locations.tacojohns.com/nd/bismarck/320-s-3rd-st.html", "@spider": "taco_johns", "addr:full": "320 S 3rd St", "addr:city": "Bismarck", "addr:state": "ND", "addr:postcode": "58501", "addr:country": "USA", "name": "Taco John's", "phone": "(701) 222-1878", "website": "https://locations.tacojohns.com/nd/bismarck/320-s-3rd-st.html"}, "geometry": {"type": "Point", "coordinates": [-100.78838570796307, 46.80235945873413]}},
{"type": "Feature", "id": "kanSluFd6LxiBm3nWdvJh9V6w8s=", "properties": {"ref": "https://locations.tacojohns.com/nd/bismarck/1922-e-brdway-ave.html", "@spider": "taco_johns", "addr:full": "1922 E BRdway Ave", "addr:city": "Bismarck", "addr:state": "ND", "addr:postcode": "58501", "addr:country": "USA", "name": "Taco John's", "phone": "(701) 258-5151", "website": "https://locations.tacojohns.com/nd/bismarck/1922-e-brdway-ave.html"}, "geometry": {"type": "Point", "coordinates": [-100.76207222791709, 46.80636649659796]}},
{"type": "Feature", "id": "Yd-HyQ-KLSFRokIqtcNt7I9u9O8=", "properties": {"ref": "https://locations.tacojohns.com/nd/bismarck/1911-n-13th-st.html", "@spider": "taco_johns", "addr:full": "1911 N 13th St", "addr:city": "Bismarck", "addr:state": "ND", "addr:postcode": "58501", "addr:country": "USA", "name": "Taco John's", "phone": "(701) 223-7547", "website": "https://locations.tacojohns.com/nd/bismarck/1911-n-13th-st.html"}, "geometry": {"type": "Point", "coordinates": [-100.77191233634949, 46.8265441239864]}},
{"type": "Feature", "id": "7gzmn_dO5R4nebS474HqV3ThYDU=", "properties": {"ref": "https://locations.tacojohns.com/nd/bismarck/1518-burnt-boat-dr.html", "@spider": "taco_johns", "addr:full": "1518 Burnt Boat Dr", "addr:city": "Bismarck", "addr:state": "ND", "addr:postcode": "58503", "addr:country": "USA", "name": "Taco John's", "phone": "(701) 258-1688", "website": "https://locations.tacojohns.com/nd/bismarck/1518-burnt-boat-dr.html"}, "geometry": {"type": "Point", "coordinates": [-100.81633910536766, 46.83135119549497]}},
{"type": "Feature", "id": "WnnDFVp9kdPmaQKh1dhWFHTX774=", "properties": {"ref": "https://locations.tacojohns.com/sd/pierre/415-e-sioux-ave.html", "@spider": "taco_johns", "addr:full": "415 E Sioux Ave", "addr:city": "Pierre", "addr:state": "SD", "addr:postcode": "57501", "addr:country": "USA", "name": "Taco John's", "phone": "(605) 224-2083", "website": "https://locations.tacojohns.com/sd/pierre/415-e-sioux-ave.html"}, "geometry": {"type": "Point", "coordinates": [-100.34929543733591, 44.36388287973569]}},
{"type": "Feature", "id": "5-CJ9Yc453BVTeq4FyBxvB_D5Mw=", "properties": {"ref": "https://locations.tacojohns.com/sd/milbank/219-w-4th-ave.html", "@spider": "taco_johns", "addr:full": "219 W 4th Ave", "addr:city": "Milbank", "addr:state": "SD", "addr:postcode": "57252", "addr:country": "USA", "name": "Taco John's", "phone": "(605) 432-4906", "website": "https://locations.tacojohns.com/sd/milbank/219-w-4th-ave.html"}, "geometry": {"type": "Point", "coordinates": [-96.64242847546313, 45.21913450203302]}},
{"type": "Feature", "id": "JZP07wV4YpIbP2DoOh7G-E--nfc=", "properties": {"ref": "https://locations.tacojohns.com/sd/huron/410-dakota-ave-n.html", "@spider": "taco_johns", "addr:full": "410 Dakota Ave N", "addr:city": "Huron", "addr:state": "SD", "addr:postcode": "57350", "addr:country": "USA", "name": "Taco John's", "phone": "(605) 352-4474", "website": "https://locations.tacojohns.com/sd/huron/410-dakota-ave-n.html"}, "geometry": {"type": "Point", "coordinates": [-98.21378993243115, 44.37083210761078]}},
{"type": "Feature", "id": "pB-oXCIvEx10ndzGDMtc01E8jww=", "properties": {"ref": "https://locations.tacojohns.com/sd/hot-springs/1145-jensen-highway.html", "@spider": "taco_johns", "addr:full": "1145 Jensen Highway", "addr:city": "Hot Springs", "addr:state": "SD", "addr:postcode": "57747", "addr:country": "USA", "name": "Taco John's", "phone": "(605) 745-6880", "website": "https://locations.tacojohns.com/sd/hot-springs/1145-jensen-highway.html"}, "geometry": {"type": "Point", "coordinates": [-103.46256628632545, 43.422130953519115]}},
{"type": "Feature", "id": "RD4BEl-s3qLKoQSY0ChMDsoCrts=", "properties": {"ref": "https://locations.tacojohns.com/sd/sioux-falls/6729-w-41st-st.html", "@spider": "taco_johns", "addr:full": "6729 W 41st St", "addr:city": "Sioux Falls", "addr:state": "SD", "addr:postcode": "57106", "addr:country": "USA", "name": "Taco John's", "phone": "(605) 362-1020", "website": "https://locations.tacojohns.com/sd/sioux-falls/6729-w-41st-st.html"}, "geometry": {"type": "Point", "coordinates": [-96.8102253, 43.5143892]}},
{"type": "Feature", "id": "oGc__K5rJu0XXcqZk5mBQ4UHPTE=", "properties": {"ref": "https://locations.tacojohns.com/sd/sioux-falls/5100-s-louise-ave.html", "@spider": "taco_johns", "addr:full": "5100 S Louise Ave", "addr:city": "Sioux Falls", "addr:state": "SD", "addr:postcode": "57108", "addr:country": "USA", "name": "Taco John's", "phone": "(605) 361-9920", "website": "https://locations.tacojohns.com/sd/sioux-falls/5100-s-louise-ave.html"}, "geometry": {"type": "Point", "coordinates": [-96.7702751, 43.4994841]}},
{"type": "Feature", "id": "AVpCYVrFIoEJS7s8W1Ud88g0Dzs=", "properties": {"ref": "https://locations.tacojohns.com/sd/sioux-falls/4209-n-cliff-ave.html", "@spider": "taco_johns", "addr:full": "4209 N Cliff Ave", "addr:city": "Sioux Falls", "addr:state": "SD", "addr:postcode": "57104", "addr:country": "USA", "name": "Taco John's", "phone": "(605) 338-7121", "website": "https://locations.tacojohns.com/sd/sioux-falls/4209-n-cliff-ave.html"}, "geometry": {"type": "Point", "coordinates": [-96.7118531, 43.5929109]}},
{"type": "Feature", "id": "R-rT2Ej1ebRmWLDJ4n0z7yRozh8=", "properties": {"ref": "https://locations.tacojohns.com/sd/rapid-city/2810-w-main-st.html", "@spider": "taco_johns", "addr:full": "2810 W Main St", "addr:city": "Rapid City", "addr:state": "SD", "addr:postcode": "57702", "addr:country": "USA", "name": "Taco John's", "phone": "(605) 343-7844", "website": "https://locations.tacojohns.com/sd/rapid-city/2810-w-main-st.html"}, "geometry": {"type": "Point", "coordinates": [-103.2659333, 44.0823593]}},
{"type": "Feature", "id": "MY28RNdoM2BzFl7gtscKa9Qizac=", "properties": {"ref": "https://locations.tacojohns.com/sd/rapid-city/2200-n-maple-ave.html", "@spider": "taco_johns", "addr:full": "2200 N Maple Ave", "addr:city": "Rapid City", "addr:state": "SD", "addr:postcode": "57701", "addr:country": "USA", "name": "Taco John's", "phone": "(605) 342-6996", "website": "https://locations.tacojohns.com/sd/rapid-city/2200-n-maple-ave.html"}, "geometry": {"type": "Point", "coordinates": [-103.21473402763002, 44.10722965661644]}},
{"type": "Feature", "id": "cj7Xql9A5Yw_zdxJ3v9bHXfQ2d0=", "properties": {"ref": "https://locations.tacojohns.com/sd/rapid-city/1828-haines-ave.html", "@spider": "taco_johns", "addr:full": "1828 Haines Ave", "addr:city": "Rapid City", "addr:state": "SD", "addr:postcode": "57701", "addr:country": "USA", "name": "Taco John's", "phone": "(605) 343-3119", "website": "https://locations.tacojohns.com/sd/rapid-city/1828-haines-ave.html"}, "geometry": {"type": "Point", "coordinates": [-103.22122471781768, 44.10274081910962]}},
{"type": "Feature", "id": "M_vc4lrmXww21zP8CSZQfd93rbQ=", "properties": {"ref": "https://locations.tacojohns.com/sd/rapid-city/1710-cambell-st.html", "@spider": "taco_johns", "addr:full": "1710 Cambell St", "addr:city": "Rapid City", "addr:state": "SD", "addr:postcode": "57701", "addr:country": "USA", "name": "Taco John's", "phone": "(605) 343-6778", "website": "https://locations.tacojohns.com/sd/rapid-city/1710-cambell-st.html"}, "geometry": {"type": "Point", "coordinates": [-103.19129303097725, 44.069677747210406]}},
{"type": "Feature", "id": "c049wx6f88VDh5VNrmPZEIbm_Bg=", "properties": {"ref": "https://locations.tacojohns.com/sd/sioux-falls/4001-w-41st-st.html", "@spider": "taco_johns", "addr:full": "4001 W 41st St", "addr:city": "Sioux Falls", "addr:state": "SD", "addr:postcode": "57106", "addr:country": "USA", "name": "Taco John's", "phone": "(605) 361-7970", "website": "https://locations.tacojohns.com/sd/sioux-falls/4001-w-41st-st.html"}, "geometry": {"type": "Point", "coordinates": [-96.77578978033637, 43.51087367691687]}},
{"type": "Feature", "id": "u2hC4ln5zGezdv8P-EqlUvk_C4o=", "properties": {"ref": "https://locations.tacojohns.com/sd/sioux-falls/1920-w-12th-st.html", "@spider": "taco_johns", "addr:full": "1920 W 12th St", "addr:city": "Sioux Falls", "addr:state": "SD", "addr:postcode": "57104", "addr:country": "USA", "name": "Taco John's", "phone": "(605) 338-8518", "website": "https://locations.tacojohns.com/sd/sioux-falls/1920-w-12th-st.html"}, "geometry": {"type": "Point", "coordinates": [-96.7533268434085, 43.54430419207854]}},
{"type": "Feature", "id": "CPGhqY1m7TSM8yIIA2svBrHq-rM=", "properties": {"ref": "https://locations.tacojohns.com/sd/sioux-falls/1804-s--sycamore-avenue.html", "@spider": "taco_johns", "addr:full": "1804 S. Sycamore Avenue", "addr:city": "Sioux Falls", "addr:state": "SD", "addr:postcode": "57110", "addr:country": "USA", "name": "Taco John's", "phone": "(605) 271-1191", "website": "https://locations.tacojohns.com/sd/sioux-falls/1804-s--sycamore-avenue.html"}, "geometry": {"type": "Point", "coordinates": [-96.6709395, 43.5291094]}},
{"type": "Feature", "id": "R7VBY9NrGlpJc-f9NDsQYQQyyx4=", "properties": {"ref": "https://locations.tacojohns.com/sd/sioux-falls/1704-e-10th-st.html", "@spider": "taco_johns", "addr:full": "1704 E 10th St", "addr:city": "Sioux Falls", "addr:state": "SD", "addr:postcode": "57103", "addr:country": "USA", "name": "Taco John's", "phone": "(605) 339-9558", "website": "https://locations.tacojohns.com/sd/sioux-falls/1704-e-10th-st.html"}, "geometry": {"type": "Point", "coordinates": [-96.7048135, 43.5471345]}},
{"type": "Feature", "id": "_3HulzjqOXdliC_ZzlFWfVT1hVg=", "properties": {"ref": "https://locations.tacojohns.com/sd/sioux-falls/1420-w-41st-st.html", "@spider": "taco_johns", "addr:full": "1420 W 41st St", "addr:city": "Sioux Falls", "addr:state": "SD", "addr:postcode": "57105", "addr:country": "USA", "name": "Taco John's", "phone": "(605) 339-2730", "website": "https://locations.tacojohns.com/sd/sioux-falls/1420-w-41st-st.html"}, "geometry": {"type": "Point", "coordinates": [-96.7433479652027, 43.51514458527061]}},
{"type": "Feature", "id": "Olu7lVq38DH1E85GzJjGsfkVHjE=", "properties": {"ref": "https://locations.tacojohns.com/sd/sioux-falls/1224-e-57th-st.html", "@spider": "taco_johns", "addr:full": "1224 E 57th St", "addr:city": "Sioux Falls", "addr:state": "SD", "addr:postcode": "57108", "addr:country": "USA", "name": "Taco John's", "phone": "(605) 332-0300", "website": "https://locations.tacojohns.com/sd/sioux-falls/1224-e-57th-st.html"}, "geometry": {"type": "Point", "coordinates": [-96.70823693275452, 43.50099563287942]}},
{"type": "Feature", "id": "nmBdFCV2Pxq7u0fj4HoFmYxq5D8=", "properties": {"ref": "https://locations.tacojohns.com/sd/eagle-butte/24327-us-highway-212.html", "@spider": "taco_johns", "addr:full": "24327 US Highway 212", "addr:city": "Eagle Butte", "addr:state": "SD", "addr:postcode": "57625", "addr:country": "USA", "name": "Taco John's", "phone": "(605) 964-8146", "website": "https://locations.tacojohns.com/sd/eagle-butte/24327-us-highway-212.html"}, "geometry": {"type": "Point", "coordinates": [-101.23542012896297, 45.00773630213095]}}]}