{"type":"FeatureCollection","features":[{"type": "Feature", "id": "1RbFJQyqod2MetvvNAQi1uQbRME=", "properties": {"ref": "14", "@spider": "tacotote", "addr:full": "Avenida Am\u00e9ricas Norte 960, Ciudad Juarez", "name": "Am\u00e9ricas", "brand": "El Taco Tote"}, "geometry": {"type": "Point", "coordinates": [-106.455831, 31.745153]}},
{"type": "Feature", "id": "dDuGcsd6fBFc5Pv2Uw7rTSxzUe4=", "properties": {"ref": "15", "@spider": "tacotote", "addr:full": "G\u00f3mez Mor\u00edn 7530, C.P. 32350 Cd. Juarez", "name": "Gomez Morin", "brand": "El Taco Tote"}, "geometry": {"type": "Point", "coordinates": [-106.41559, 31.718603]}},
{"type": "Feature", "id": "TN3DDPip1XS4BN0XfOyUKbjb_8U=", "properties": {"ref": "16", "@spider": "tacotote", "addr:full": "Adolfo L\u00f3pez Mateos C.P. 32340 Ju\u00e1rez", "name": "L\u00f3pez Mateos", "brand": "El Taco Tote"}, "geometry": {"type": "Point", "coordinates": [-106.450042, 31.731401]}},
{"type": "Feature", "id": "4MEU9NNIbg1O7wNU3iMfy8Rw9u4=", "properties": {"ref": "17", "@spider": "tacotote", "addr:full": "Avenida Te\u00f3filo Borunda 8681 Partido Iglesias, 32528 Cd. Ju\u00e1rez", "name": "Misiones", "brand": "El Taco Tote"}, "geometry": {"type": "Point", "coordinates": [-106.408093, 31.68435]}},
{"type": "Feature", "id": "SFx1Nm1mOqjPHw__UjvHTRu_YLM=", "properties": {"ref": "19", "@spider": "tacotote", "addr:full": "Estadio 399, Centro, Torreon MX", "name": "Estadio", "brand": "El Taco Tote"}, "geometry": {"type": "Point", "coordinates": [-103.428797, 25.537461]}},
{"type": "Feature", "id": "M56P42uAZ-QD3oPGiGCqXv0GqLk=", "properties": {"ref": "20", "@spider": "tacotote", "addr:full": "Blvd. Independencia 724 Col. Centro Torre\u00f3n, Coahuila", "name": "Independencia", "brand": "El Taco Tote"}, "geometry": {"type": "Point", "coordinates": [-103.440696, 25.554226]}},
{"type": "Feature", "id": "T1xKasc9jdRdcjzg7aru0qpMnb8=", "properties": {"ref": "11", "@spider": "tacotote", "addr:full": "4811 North Stone Avenue, Tucson, AZ 85704, United States", "name": "Stone", "brand": "El Taco Tote"}, "geometry": {"type": "Point", "coordinates": [-110.971373, 32.293789]}},
{"type": "Feature", "id": "LFDd6wptT2q6eR39bHCN6ZMU7Ac=", "properties": {"ref": "12", "@spider": "tacotote", "addr:full": "1340 North Wilmot Road, Tucson, AZ 85712, United States", "name": "Wilmot", "brand": "El Taco Tote"}, "geometry": {"type": "Point", "coordinates": [-110.857451, 32.23908]}},
{"type": "Feature", "id": "JXa1dbzmA6n2dh-uTzAsoRPPmaU=", "properties": {"ref": "21", "@spider": "tacotote", "addr:full": "3464 West Camelback Road, Phoenix, AZ 85017, United States", "name": "Camelback", "brand": "El Taco Tote"}, "geometry": {"type": "Point", "coordinates": [-112.133845, 33.509731]}},
{"type": "Feature", "id": "yOom8ld1OtpFMHBycc53O_EcUQg=", "properties": {"ref": "9", "@spider": "tacotote", "addr:full": "10211 McPherson Road, Laredo, TX 78041, United States", "name": "McPherson", "brand": "El Taco Tote"}, "geometry": {"type": "Point", "coordinates": [-99.477656, 27.602466]}},
{"type": "Feature", "id": "PrV_uKmHik8ZdEffTA2X4--sGEg=", "properties": {"ref": "10", "@spider": "tacotote", "addr:full": "5603 San Dario Avenue, Laredo, TX, United States", "name": "San Dario", "brand": "El Taco Tote"}, "geometry": {"type": "Point", "coordinates": [-99.502756, 27.553891]}},
{"type": "Feature", "id": "btaTTt8Ez6mXQm8-KXGw_FhQz9U=", "properties": {"ref": "2", "@spider": "tacotote", "addr:full": "1000 Magruder St, El Paso, TX 79925, United States", "name": "Basset", "brand": "El Taco Tote"}, "geometry": {"type": "Point", "coordinates": [-106.414777, 31.782067]}},
{"type": "Feature", "id": "_Ty6xl0cX87wSEkGGFV_CCIHl6U=", "properties": {"ref": "3", "@spider": "tacotote", "addr:full": "3480 Joe Battle Boulevard, El Paso, TX 79938, United States", "name": "Joe Battle", "brand": "El Taco Tote"}, "geometry": {"type": "Point", "coordinates": [-106.267294, 31.796079]}},
{"type": "Feature", "id": "2KbGr2z3WNnwhoO0R_m_-eaVdco=", "properties": {"ref": "4", "@spider": "tacotote", "addr:full": "9933 Kenworthy Street, El Paso, TX 79924, United States", "name": "Northeast", "brand": "El Taco Tote"}, "geometry": {"type": "Point", "coordinates": [-106.433783, 31.896048]}},
{"type": "Feature", "id": "hnCNw-hWbA17GVYqb876YibaWjM=", "properties": {"ref": "5", "@spider": "tacotote", "addr:full": "7101 N. Mesa El Paso TX 79912", "name": "Resler", "brand": "El Taco Tote"}, "geometry": {"type": "Point", "coordinates": [-106.552919, 31.83551]}},
{"type": "Feature", "id": "zBIbT0I37wiNZbEHMG5-ZqwVTbM=", "properties": {"ref": "6", "@spider": "tacotote", "addr:full": "2921 North Mesa Street, El Paso, TX 79902, United States", "name": "UTEP", "brand": "El Taco Tote"}, "geometry": {"type": "Point", "coordinates": [-106.505477, 31.779521]}},
{"type": "Feature", "id": "5o1CvsMYYuxC8LiALzLeCoORaa4=", "properties": {"ref": "7", "@spider": "tacotote", "addr:full": "1461 N Zaragoza El Paso TX 79936", "name": "Zaragoza", "brand": "El Taco Tote"}, "geometry": {"type": "Point", "coordinates": [-106.293152, 31.736973]}},
{"type": "Feature", "id": "IUvcQKl_r3fwO20RnkCGcgGCf5o=", "properties": {"ref": "25", "@spider": "tacotote", "addr:full": "7083 S Desert Blvd, Canutillo, TX, United States", "name": "Canutillo", "brand": "El Taco Tote"}, "geometry": {"type": "Point", "coordinates": [-106.583882, 31.914677]}},
{"type": "Feature", "id": "Dm2lz_nHdOvb6YUgcaC1zZzGQgM=", "properties": {"ref": "13", "@spider": "tacotote", "addr:full": "Blvrd Antonio Ortiz Mena 3308, Leones Universidad, Chihuahua, Mexico", "name": "Ortiz Mena", "brand": "El Taco Tote"}, "geometry": {"type": "Point", "coordinates": [-106.1, 28.65645]}},
{"type": "Feature", "id": "OV8PxTCWU8FzlBrbBxbP0rxGrZI=", "properties": {"ref": "26", "@spider": "tacotote", "addr:full": "Perif\u00e9rico de la Juventud 5915, Centro, Chihuahua, Mexico", "name": "Paseo Central", "brand": "El Taco Tote"}, "geometry": {"type": "Point", "coordinates": [-106.121261, 28.630868]}},
{"type": "Feature", "id": "l4R79Lrt5htsM_lJU3Cn2zU6_Gg=", "properties": {"ref": "18", "@spider": "tacotote", "addr:full": "4701 Central Avenue Southeast, Albuquerque, NM, United States", "name": "Central", "brand": "El Taco Tote"}, "geometry": {"type": "Point", "coordinates": [-106.586295, 35.077727]}},
{"type": "Feature", "id": "_qttL2qjdt9Cw5TH4kbUA1Yir_0=", "properties": {"ref": "23", "@spider": "tacotote", "addr:full": "Campeche 2804, Nuevo Laredo, Tamaulipas, 88240", "name": "Campeche", "brand": "El Taco Tote"}, "geometry": {"type": "Point", "coordinates": [-99.506194, 27.469784]}},
{"type": "Feature", "id": "4XQoLhIObcilx8f3rOaKLtCreNE=", "properties": {"ref": "22", "@spider": "tacotote", "addr:full": "9502 W IH 10, San Antonio, TX, United States", "name": "IH-10", "brand": "El Taco Tote"}, "geometry": {"type": "Point", "coordinates": [-98.560514, 29.528356]}}]}