{"type":"FeatureCollection","features":[{"type": "Feature", "id": "8393pHdWuJVA17AuAb4ij3UkKfg=", "properties": {"ref": "20380", "@spider": "tacocabana", "addr:full": "12714 W Lake Houston Pkwy", "addr:city": "Houston", "addr:state": "TX", "addr:postcode": "77044", "addr:country": "US", "phone": "(281) 767-6099", "website": "https://olo.tacocabana.com/menu/tc20380?showInfoModal=true", "brand": "Taco Cabana"}, "geometry": {"type": "Point", "coordinates": [-95.194888, 29.924172]}},
{"type": "Feature", "id": "hRrvOF73nUq2SpsYMowwr24F-R0=", "properties": {"ref": "20101", "@spider": "tacocabana", "addr:full": "3310 San Pedro", "addr:city": "San Antonio", "addr:state": "TX", "addr:postcode": "78212", "addr:country": "US", "phone": "(210) 733-9332", "website": "https://olo.tacocabana.com/menu/taco-cabana-san-pedrolwoodsan-antonio-tx?showInfoModal=true", "brand": "Taco Cabana"}, "geometry": {"type": "Point", "coordinates": [-98.4990606, 29.4662303]}},
{"type": "Feature", "id": "9b2v_AzVlvF28jwOyOcfscFXabc=", "properties": {"ref": "20102", "@spider": "tacocabana", "addr:full": "2627 N.W. Loop 410", "addr:city": "San Antonio", "addr:state": "TX", "addr:postcode": "78230", "addr:country": "US", "phone": "(210) 366-0284", "website": "https://olo.tacocabana.com/menu/taco-cabana-nw-loop-410-san-antonio-tx?showInfoModal=true", "brand": "Taco Cabana"}, "geometry": {"type": "Point", "coordinates": [-98.5359906, 29.5121696]}},
{"type": "Feature", "id": "YlNNF-VQCJER1kQY8j4QIq-iDkM=", "properties": {"ref": "20104", "@spider": "tacocabana", "addr:full": "8105 Fourwinds", "addr:city": "San Antonio", "addr:state": "TX", "addr:postcode": "78239", "addr:country": "US", "phone": "(210) 637-1188", "website": "https://olo.tacocabana.com/menu/taco-cabana-fourwindssan-antonio-tx?showInfoModal=true", "brand": "Taco Cabana"}, "geometry": {"type": "Point", "coordinates": [-98.3954447, 29.5109273]}},
{"type": "Feature", "id": "rUDSC-cmJmcELaFUJVBvGtXLr7U=", "properties": {"ref": "20106", "@spider": "tacocabana", "addr:full": "15925 San Pedro", "addr:city": "San Antonio", "addr:state": "TX", "addr:postcode": "78232", "addr:country": "US", "phone": "(210) 490-1107", "website": "https://olo.tacocabana.com/menu/taco-cabana-san-pedroashbysan-antonio-tx?showInfoModal=true", "brand": "Taco Cabana"}, "geometry": {"type": "Point", "coordinates": [-98.4753279, 29.5876503]}},
{"type": "Feature", "id": "iDgpJGLcLodOOkE5DQW3ryjm490=", "properties": {"ref": "20109", "@spider": "tacocabana", "addr:full": "3003 Thousand Oaks", "addr:city": "San Antonio", "addr:state": "TX", "addr:postcode": "78247", "addr:country": "US", "phone": "(210) 545-6034", "website": "https://olo.tacocabana.com/menu/taco-cabana-thousand-oakssan-antonio-tx?showInfoModal=true", "brand": "Taco Cabana"}, "geometry": {"type": "Point", "coordinates": [-98.4398646, 29.5761047]}},
{"type": "Feature", "id": "CxJ7l8EokA-Q2EnOVE_cSKH70Os=", "properties": {"ref": "20110", "@spider": "tacocabana", "addr:full": "2347 E. Southcross", "addr:city": "San Antonio", "addr:state": "TX", "addr:postcode": "78223", "addr:country": "US", "phone": "(210) 532-2422", "website": "https://olo.tacocabana.com/menu/taco-cabana-east-southcrosssan-antonio-tx?showInfoModal=true", "brand": "Taco Cabana"}, "geometry": {"type": "Point", "coordinates": [-98.4571771, 29.3756517]}},
{"type": "Feature", "id": "vidkOcKL5W0YthdSazPrdqHmohI=", "properties": {"ref": "20111", "@spider": "tacocabana", "addr:full": "8516 Fredericksburg Rd", "addr:city": "San Antonio", "addr:state": "TX", "addr:postcode": "78229", "addr:country": "US", "phone": "(210) 615-0902", "website": "https://olo.tacocabana.com/menu/taco-cabana-fredbgwurzbachsan-antonio-tx?showInfoModal=true", "brand": "Taco Cabana"}, "geometry": {"type": "Point", "coordinates": [-98.572724, 29.5197839]}},
{"type": "Feature", "id": "k8_0B6tXqMuxMMCt-fK-d2y65ys=", "properties": {"ref": "20112", "@spider": "tacocabana", "addr:full": "7339 San Pedro", "addr:city": "San Antonio", "addr:state": "TX", "addr:postcode": "78216", "addr:country": "US", "phone": "(210) 344-9724", "website": "https://olo.tacocabana.com/menu/taco-cabana-sanpedrorectorsan-antonio-tx?showInfoModal=true", "brand": "Taco Cabana"}, "geometry": {"type": "Point", "coordinates": [-98.4996181, 29.5165738]}},
{"type": "Feature", "id": "-_dOteEDSqEeNZ2s4UAbwl-EUvo=", "properties": {"ref": "20113", "@spider": "tacocabana", "addr:full": "1533 Pat Booker Rd", "addr:city": "Universal City", "addr:state": "TX", "addr:postcode": "78148", "addr:country": "US", "phone": "(210) 659-6606", "website": "https://olo.tacocabana.com/menu/taco-cabana-p-booker-rd-universal-city-tx?showInfoModal=true", "brand": "Taco Cabana"}, "geometry": {"type": "Point", "coordinates": [-98.304289, 29.5516153]}},
{"type": "Feature", "id": "I1aJE-ENWaj9WAIi4gQQap9y8_I=", "properties": {"ref": "20114", "@spider": "tacocabana", "addr:full": "8315 Bandera Rd", "addr:city": "San Antonio", "addr:state": "TX", "addr:postcode": "78250", "addr:country": "US", "phone": "(210) 520-7951", "website": "https://olo.tacocabana.com/menu/taco-cabana-banderaguilbeusan-antonio-tx?showInfoModal=true", "brand": "Taco Cabana"}, "geometry": {"type": "Point", "coordinates": [-98.6380813, 29.5200396]}},
{"type": "Feature", "id": "8Wpc2SH1jP831B2svcH994shXAo=", "properties": {"ref": "20115", "@spider": "tacocabana", "addr:full": "6867 New Hwy 90 W", "addr:city": "San Antonio", "addr:state": "TX", "addr:postcode": "78227", "addr:country": "US", "phone": "(210) 675-7558", "website": "https://olo.tacocabana.com/menu/taco-cabana-new-hwy-90-wsan-antonio-tx?showInfoModal=true", "brand": "Taco Cabana"}, "geometry": {"type": "Point", "coordinates": [-98.6281126, 29.4033379]}},
{"type": "Feature", "id": "PZLeWH_aAliqehMCdCAxUwHkRMo=", "properties": {"ref": "20116", "@spider": "tacocabana", "addr:full": "6040 Bandera Rd", "addr:city": "San Antonio", "addr:state": "TX", "addr:postcode": "78238", "addr:country": "US", "phone": "(210) 681-9779", "website": "https://olo.tacocabana.com/menu/taco-cabana-banderahwy-410san-antonio-tx?showInfoModal=true", "brand": "Taco Cabana"}, "geometry": {"type": "Point", "coordinates": [-98.6048276, 29.4837574]}},
{"type": "Feature", "id": "YYM1hbxhF468jspl-wuZ3bDIyV4=", "properties": {"ref": "20118", "@spider": "tacocabana", "addr:full": "1255 N.E. Loop 410", "addr:city": "San Antonio", "addr:state": "TX", "addr:postcode": "78209", "addr:country": "US", "phone": "(210) 822-6877", "website": "https://olo.tacocabana.com/menu/taco-cabana-ne-loop-410san-antoino-tx?showInfoModal=true", "brand": "Taco Cabana"}, "geometry": {"type": "Point", "coordinates": [-98.4493774, 29.5167248]}},
{"type": "Feature", "id": "ZxLcKgrmFFOQJdwRYANFOdxY9ig=", "properties": {"ref": "20119", "@spider": "tacocabana", "addr:full": "4622 Rittiman", "addr:city": "San Antonio", "addr:state": "TX", "addr:postcode": "78218", "addr:country": "US", "phone": "(210) 666-5236", "website": "https://olo.tacocabana.com/menu/taco-cabana-rittimansan-antonio-tx?showInfoModal=true", "brand": "Taco Cabana"}, "geometry": {"type": "Point", "coordinates": [-98.4006263, 29.4837868]}},
{"type": "Feature", "id": "bX6FRZugsWRnmQRVDUXYGRRnEok=", "properties": {"ref": "20120", "@spider": "tacocabana", "addr:full": "12731 I-10", "addr:city": "San Antonio", "addr:state": "TX", "addr:postcode": "78230", "addr:country": "US", "phone": "(210) 694-4060", "website": "https://olo.tacocabana.com/menu/taco-cabana-ih-10-westsan-antonio-tx?showInfoModal=true", "brand": "Taco Cabana"}, "geometry": {"type": "Point", "coordinates": [-98.5895089, 29.5614989]}},
{"type": "Feature", "id": "Z2UzjphJEQwUsLxQENAKw_1ZExk=", "properties": {"ref": "20125", "@spider": "tacocabana", "addr:full": "13376 Research Blvd.", "addr:city": "Austin", "addr:state": "TX", "addr:postcode": "78750", "addr:country": "US", "phone": "(512) 335-4331", "website": "https://olo.tacocabana.com/menu/taco-cabana-research-andersonaustin-tx?showInfoModal=true", "brand": "Taco Cabana"}, "geometry": {"type": "Point", "coordinates": [-97.7889744, 30.4446245]}},
{"type": "Feature", "id": "Z9fJCfON0du-L8qfc2BZcfrYY-E=", "properties": {"ref": "20126", "@spider": "tacocabana", "addr:full": "2110 S. IH-35", "addr:city": "Round Rock", "addr:state": "TX", "addr:postcode": "78681", "addr:country": "US", "phone": "(512) 388-0945", "website": "https://olo.tacocabana.com/menu/taco-cabana-south-ih-35round-rock-tx?showInfoModal=true", "brand": "Taco Cabana"}, "geometry": {"type": "Point", "coordinates": [-97.6785736, 30.489979]}},
{"type": "Feature", "id": "g-J4GfPFxzi0xtt6Nd1CkgmQyuQ=", "properties": {"ref": "20127", "@spider": "tacocabana", "addr:full": "9605 Research Blvd", "addr:city": "Austin", "addr:state": "TX", "addr:postcode": "78759", "addr:country": "US", "phone": "(512) 338-0345", "website": "https://olo.tacocabana.com/menu/taco-cabana-research-n-capitalaustin-tx?showInfoModal=true", "brand": "Taco Cabana"}, "geometry": {"type": "Point", "coordinates": [-97.7430071, 30.3882973]}},
{"type": "Feature", "id": "cUZrFc52boBMa_ap0z7sGBz2RmA=", "properties": {"ref": "20128", "@spider": "tacocabana", "addr:full": "12525 N. Mopac Expwy.", "addr:city": "Austin", "addr:state": "TX", "addr:postcode": "78727", "addr:country": "US", "phone": "(512) 255-1002", "website": "https://olo.tacocabana.com/menu/taco-cabana-north-mopac-expwyaustin-tx?showInfoModal=true", "brand": "Taco Cabana"}, "geometry": {"type": "Point", "coordinates": [-97.7027018, 30.4207051]}},
{"type": "Feature", "id": "D0yJ6pDYcJLEIuhsGSrIFc-fC-M=", "properties": {"ref": "20129", "@spider": "tacocabana", "addr:full": "2507 E. Riverside", "addr:city": "Austin", "addr:state": "TX", "addr:postcode": "78741", "addr:country": "US", "phone": "(512) 462-2236", "website": "https://olo.tacocabana.com/menu/taco-cabana-east-riverside-draustin-tx?showInfoModal=true", "brand": "Taco Cabana"}, "geometry": {"type": "Point", "coordinates": [-97.724294, 30.2337725]}},
{"type": "Feature", "id": "yTJTWVLtWJ4GtI1rkSlswNwaQl8=", "properties": {"ref": "20130", "@spider": "tacocabana", "addr:full": "8030 Culebra", "addr:city": "San Antonio", "addr:state": "TX", "addr:postcode": "78251", "addr:country": "US", "phone": "(210) 684-1946", "website": "https://olo.tacocabana.com/menu/taco-cabana-culebrasan-antonio-tx?showInfoModal=true", "brand": "Taco Cabana"}, "geometry": {"type": "Point", "coordinates": [-98.6457715, 29.4648558]}},
{"type": "Feature", "id": "rsS8Gr5787t1Y6ha_S9YxU75ZEI=", "properties": {"ref": "20132", "@spider": "tacocabana", "addr:full": "3923 Lemmon Ave", "addr:city": "Dallas", "addr:state": "TX", "addr:postcode": "75219", "addr:country": "US", "phone": "(214) 522-3770", "website": "https://olo.tacocabana.com/menu/taco-cabana-lemmon-avedallas-tx?showInfoModal=true", "brand": "Taco Cabana"}, "geometry": {"type": "Point", "coordinates": [-96.8078197, 32.8133916]}},
{"type": "Feature", "id": "RTeVX9PL1ZZB_w6lHE_pC2iQytU=", "properties": {"ref": "20133", "@spider": "tacocabana", "addr:full": "6600 Camp Bowie Blvd.", "addr:city": "Ft. Worth", "addr:state": "TX", "addr:postcode": "76116", "addr:country": "US", "phone": "(817) 738-6741", "website": "https://olo.tacocabana.com/menu/taco-cabana-camp-bowie-blvdft-worth-tx?showInfoModal=true", "brand": "Taco Cabana"}, "geometry": {"type": "Point", "coordinates": [-97.4300064, 32.7230852]}},
{"type": "Feature", "id": "C8ruBHfnsrH6HGs652BnOy_h1Mw=", "properties": {"ref": "20136", "@spider": "tacocabana", "addr:full": "6919 Greenville", "addr:city": "Dallas", "addr:state": "TX", "addr:postcode": "75231", "addr:country": "US", "phone": "(214) 739-1218", "website": "https://olo.tacocabana.com/menu/taco-cabana-greenville-park-dallas-tx?showInfoModal=true", "brand": "Taco Cabana"}, "geometry": {"type": "Point", "coordinates": [-96.7644316, 32.8724667]}},
{"type": "Feature", "id": "NMwel4h2xMDJsa_A2N3IEiOsGEw=", "properties": {"ref": "20139", "@spider": "tacocabana", "addr:full": "2393 S. Stemmons Fwy.", "addr:city": "Lewisville", "addr:state": "TX", "addr:postcode": "75067", "addr:country": "US", "phone": "(972) 315-3529", "website": "https://olo.tacocabana.com/menu/taco-cabana-s-stemmons-fwylewisville-tx?showInfoModal=true", "brand": "Taco Cabana"}, "geometry": {"type": "Point", "coordinates": [-96.9736389, 33.0066083]}},
{"type": "Feature", "id": "RrOUB22BDP9p_25uat6mJtq6ip4=", "properties": {"ref": "20140", "@spider": "tacocabana", "addr:full": "6430 IH-35 S.", "addr:city": "Austin", "addr:state": "TX", "addr:postcode": "78745", "addr:country": "US", "phone": "(512) 462-3082", "website": "https://olo.tacocabana.com/menu/taco-cabana-ih-35-southaustin-tx?showInfoModal=true", "brand": "Taco Cabana"}, "geometry": {"type": "Point", "coordinates": [-97.7710222, 30.1913549]}},
{"type": "Feature", "id": "7pYjij1gZdo2JDRbaZp12a1-OYg=", "properties": {"ref": "20141", "@spider": "tacocabana", "addr:full": "700 N. Loop 610 W", "addr:city": "Houston", "addr:state": "TX", "addr:postcode": "77018", "addr:country": "US", "phone": "(713) 864-4233", "website": "https://olo.tacocabana.com/menu/taco-cabana-north-loop-610-whouston-tx?showInfoModal=true", "brand": "Taco Cabana"}, "geometry": {"type": "Point", "coordinates": [-95.4105182, 29.813359]}},
{"type": "Feature", "id": "TdteGsE6pWSWNNTAwWz4tzdykwQ=", "properties": {"ref": "20144", "@spider": "tacocabana", "addr:full": "7501 Bellaire Blvd.", "addr:city": "Houston", "addr:state": "TX", "addr:postcode": "77036", "addr:country": "US", "phone": "(713) 981-7801", "website": "https://olo.tacocabana.com/menu/taco-cabana-bellaire-blvdhouston-tx?showInfoModal=true", "brand": "Taco Cabana"}, "geometry": {"type": "Point", "coordinates": [-95.5148206, 29.7043743]}},
{"type": "Feature", "id": "nS87qPxZ0EVtH2nAjlVMM-qtD_Y=", "properties": {"ref": "20146", "@spider": "tacocabana", "addr:full": "6551 N. Beach St.", "addr:city": "Ft. Worth", "addr:state": "TX", "addr:postcode": "76137", "addr:country": "US", "phone": "(817) 306-9676", "website": "https://olo.tacocabana.com/menu/taco-cabana-north-beach-stft-worth-tx?showInfoModal=true", "brand": "Taco Cabana"}, "geometry": {"type": "Point", "coordinates": [-97.2906414, 32.860606]}},
{"type": "Feature", "id": "tmlaeREEgxGwHu1hdsx3DlN7QYg=", "properties": {"ref": "20148", "@spider": "tacocabana", "addr:full": "11441 Katy Frwy", "addr:city": "Houston", "addr:state": "TX", "addr:postcode": "77079", "addr:country": "US", "phone": "(713) 935-9076", "website": "https://olo.tacocabana.com/menu/taco-cabana-katy-freewayhouston-tx?showInfoModal=true", "brand": "Taco Cabana"}, "geometry": {"type": "Point", "coordinates": [-95.5844158, 29.7837972]}},
{"type": "Feature", "id": "QVlM2NMcX_pW93ZduOHtjllxgqM=", "properties": {"ref": "20149", "@spider": "tacocabana", "addr:full": "202 S. Loop 336 W", "addr:city": "Conroe", "addr:state": "TX", "addr:postcode": "77304", "addr:country": "US", "phone": "(936) 756-5599", "website": "https://olo.tacocabana.com/menu/taco-cabana-south-loop-336-wconroe-tx?showInfoModal=true", "brand": "Taco Cabana"}, "geometry": {"type": "Point", "coordinates": [-95.4589015, 30.2806776]}},
{"type": "Feature", "id": "7MSuMlJi1Wvjslt_VSvRDbVIGdw=", "properties": {"ref": "20151", "@spider": "tacocabana", "addr:full": "135 Long St", "addr:city": "San Marcos", "addr:state": "TX", "addr:postcode": "78666", "addr:country": "US", "phone": "(512) 392-1500", "website": "https://olo.tacocabana.com/menu/taco-cabana-long-stsan-marcos-tx?showInfoModal=true", "brand": "Taco Cabana"}, "geometry": {"type": "Point", "coordinates": [-97.9226659, 29.8848551]}},
{"type": "Feature", "id": "mj-3s1xb1Zv2y1ZvhxMV5WYNwTs=", "properties": {"ref": "20154", "@spider": "tacocabana", "addr:full": "811 N Interstate 35 Frontage Road", "addr:city": "New Braunfels", "addr:state": "TX", "addr:postcode": "78130", "addr:country": "US", "phone": "(830) 620-4099", "website": "https://olo.tacocabana.com/menu/taco-cabana-ih-35-north-new-braunfels-tx?showInfoModal=true", "brand": "Taco Cabana"}, "geometry": {"type": "Point", "coordinates": [-98.0991911, 29.6970529]}},
{"type": "Feature", "id": "nAYxrtWPcighItyEZHEP4_jdYms=", "properties": {"ref": "20157", "@spider": "tacocabana", "addr:full": "5115  Rigsby", "addr:city": "San Antonio", "addr:state": "TX", "addr:postcode": "78222", "addr:country": "US", "phone": "(210) 648-3618", "website": "https://olo.tacocabana.com/menu/taco-cabana-rigsbysan-antonio-tx?showInfoModal=true", "brand": "Taco Cabana"}, "geometry": {"type": "Point", "coordinates": [-98.3909699, 29.3986396]}},
{"type": "Feature", "id": "eLml1WFxv0f9enFt852sAFqcGwg=", "properties": {"ref": "20158", "@spider": "tacocabana", "addr:full": "8213 Marbach", "addr:city": "San Antonio", "addr:state": "TX", "addr:postcode": "78227", "addr:country": "US", "phone": "(210) 673-6548", "website": "https://olo.tacocabana.com/menu/taco-cabana-marbachsan-antonio-tx?showInfoModal=true", "brand": "Taco Cabana"}, "geometry": {"type": "Point", "coordinates": [-98.6524528, 29.418154]}},
{"type": "Feature", "id": "eGHwW6zX012rCKnTV74rcKFzxpc=", "properties": {"ref": "20159", "@spider": "tacocabana", "addr:full": "15002 FM 1825", "addr:city": "Pflugerville", "addr:state": "TX", "addr:postcode": "78660", "addr:country": "US", "phone": "(512) 251-5667", "website": "https://olo.tacocabana.com/menu/taco-cabana-fm-1825pflugerville-tx?showInfoModal=true", "brand": "Taco Cabana"}, "geometry": {"type": "Point", "coordinates": [-97.6661924, 30.4425849]}},
{"type": "Feature", "id": "_kMlWZk2_OpIiQwySmFq7ORuH9g=", "properties": {"ref": "20160", "@spider": "tacocabana", "addr:full": "4992 FM 3009", "addr:city": "Schertz", "addr:state": "TX", "addr:postcode": "78154", "addr:country": "US", "phone": "(210) 566-4322", "website": "https://olo.tacocabana.com/menu/taco-cabana-fm-3009-schertz-tx?showInfoModal=true", "brand": "Taco Cabana"}, "geometry": {"type": "Point", "coordinates": [-98.2756387, 29.5990537]}},
{"type": "Feature", "id": "6HnqAjOudKRchwcHFIKqK8NtlGo=", "properties": {"ref": "20172", "@spider": "tacocabana", "addr:full": "4903 W. Bellfort St.", "addr:city": "Houston", "addr:state": "TX", "addr:postcode": "77035", "addr:country": "US", "phone": "(713) 721-0293", "website": "https://olo.tacocabana.com/menu/taco-cabana-west-bellfort-sthouston-tx?showInfoModal=true", "brand": "Taco Cabana"}, "geometry": {"type": "Point", "coordinates": [-95.4625075, 29.6702729]}},
{"type": "Feature", "id": "jEsstLE2pPkJvfiN9xzp-0wIaUc=", "properties": {"ref": "20176", "@spider": "tacocabana", "addr:full": "3819 Red Bluff Rd.", "addr:city": "Pasadena", "addr:state": "TX", "addr:postcode": "77503", "addr:country": "US", "phone": "(713) 472-2247", "website": "https://olo.tacocabana.com/menu/taco-cabana-red-bluff-rdpasadena-tx?showInfoModal=true", "brand": "Taco Cabana"}, "geometry": {"type": "Point", "coordinates": [-95.1552823, 29.6845393]}},
{"type": "Feature", "id": "um-BBQs8SPeOmB1zJfC3gmvbxb8=", "properties": {"ref": "20182", "@spider": "tacocabana", "addr:full": "373 S. Mason Rd", "addr:city": "Katy", "addr:state": "TX", "addr:postcode": "77450", "addr:country": "US", "phone": "(281) 579-9312", "website": "https://olo.tacocabana.com/menu/taco-cabana-south-mason-rdkaty-tx?showInfoModal=true", "brand": "Taco Cabana"}, "geometry": {"type": "Point", "coordinates": [-95.7512533, 29.7801752]}},
{"type": "Feature", "id": "9bGMVATRf0V7BC3dRaWDxk9_p3o=", "properties": {"ref": "20191", "@spider": "tacocabana", "addr:full": "11824 Webb Chapel Rd.", "addr:city": "Dallas", "addr:state": "TX", "addr:postcode": "75234", "addr:country": "US", "phone": "(972) 620-0139", "website": "https://olo.tacocabana.com/menu/taco-cabana-webb-chapel-rddallas-tx?showInfoModal=true", "brand": "Taco Cabana"}, "geometry": {"type": "Point", "coordinates": [-96.8726066, 32.9111889]}},
{"type": "Feature", "id": "wz6O1ehc16vUFLUcL1ikjWPcFfI=", "properties": {"ref": "20192", "@spider": "tacocabana", "addr:full": "15120 Marsh Lane", "addr:city": "Addison", "addr:state": "TX", "addr:postcode": "75001", "addr:country": "US", "phone": "(972) 243-5288", "website": "https://olo.tacocabana.com/menu/taco-cabana-marsh-laneaddison-tx?showInfoModal=true", "brand": "Taco Cabana"}, "geometry": {"type": "Point", "coordinates": [-96.8551814, 32.953988]}},
{"type": "Feature", "id": "qRjbfFWstuEnyRJEGHJIWytciTY=", "properties": {"ref": "20195", "@spider": "tacocabana", "addr:full": "2531 E. Pioneer Pkwy", "addr:city": "Arlington", "addr:state": "TX", "addr:postcode": "76010", "addr:country": "US", "phone": "(817) 459-2182", "website": "https://olo.tacocabana.com/menu/taco-cabana-east-pioneer-pkwyarlington-tx?showInfoModal=true", "brand": "Taco Cabana"}, "geometry": {"type": "Point", "coordinates": [-97.0656841, 32.7128389]}},
{"type": "Feature", "id": "ay0vsXPuh17OKeX1it3LDnVsrBo=", "properties": {"ref": "20197", "@spider": "tacocabana", "addr:full": "11779 Plano Rd.", "addr:city": "Dallas", "addr:state": "TX", "addr:postcode": "75243", "addr:country": "US", "phone": "(214) 343-1151", "website": "https://olo.tacocabana.com/menu/taco-cabana-plano-rddallas-tx?showInfoModal=true", "brand": "Taco Cabana"}, "geometry": {"type": "Point", "coordinates": [-96.7010962, 32.9086234]}},
{"type": "Feature", "id": "a7C6cp5sKU-E65m2iQVGaZmQMvY=", "properties": {"ref": "20199", "@spider": "tacocabana", "addr:full": "9705 Manchaca", "addr:city": "Austin", "addr:state": "TX", "addr:postcode": "78748", "addr:country": "US", "phone": "(512) 280-5626", "website": "https://olo.tacocabana.com/menu/taco-cabana-manchacaaustin-tx?showInfoModal=true", "brand": "Taco Cabana"}, "geometry": {"type": "Point", "coordinates": [-97.8223272, 30.1752168]}},
{"type": "Feature", "id": "u8FfBF2nxrz7TvB_wdGNiRhzXPg=", "properties": {"ref": "20202", "@spider": "tacocabana", "addr:full": "1633 SW Military Dr", "addr:city": "San Antonio", "addr:state": "TX", "addr:postcode": "78221", "addr:country": "US", "phone": "(210) 922-3060", "website": "https://olo.tacocabana.com/menu/taco-cabana-sw-militarysan-antonio-tx?showInfoModal=true", "brand": "Taco Cabana"}, "geometry": {"type": "Point", "coordinates": [-98.5193463, 29.3570097]}},
{"type": "Feature", "id": "6ZvTJNrPU00j5SPDObQ7OLQB7tY=", "properties": {"ref": "20203", "@spider": "tacocabana", "addr:full": "8415 Research Blvd", "addr:city": "Austin", "addr:state": "TX", "addr:postcode": "78758", "addr:country": "US", "phone": "(512) 832-0311", "website": "https://olo.tacocabana.com/menu/taco-cabana-researchclearfieldaustin-tx?showInfoModal=true", "brand": "Taco Cabana"}, "geometry": {"type": "Point", "coordinates": [-97.7156606, 30.358657]}},
{"type": "Feature", "id": "VxT5E9szT4wZVa02XrqR8MNae_g=", "properties": {"ref": "20206", "@spider": "tacocabana", "addr:full": "2117 W. Ben White Blvd.", "addr:city": "Austin", "addr:state": "TX", "addr:postcode": "78704", "addr:country": "US", "phone": "(512) 462-2242", "website": "https://olo.tacocabana.com/menu/taco-cabana-west-ben-white-blvdaustin-tx?showInfoModal=true", "brand": "Taco Cabana"}, "geometry": {"type": "Point", "coordinates": [-97.7914676, 30.2305755]}},
{"type": "Feature", "id": "_Ph3UdnbsSgZG5SYHMp-xCRcywE=", "properties": {"ref": "20207", "@spider": "tacocabana", "addr:full": "4723 W. Commerce", "addr:city": "San Antonio", "addr:state": "TX", "addr:postcode": "78237", "addr:country": "US", "phone": "(210) 436-4464", "website": "https://olo.tacocabana.com/menu/taco-cabana-w-commercesan-antonio-tx?showInfoModal=true", "brand": "Taco Cabana"}, "geometry": {"type": "Point", "coordinates": [-98.5561145, 29.4312982]}},
{"type": "Feature", "id": "dPJnbD2U0VXIlnxwxvE7lEPaA0o=", "properties": {"ref": "20208", "@spider": "tacocabana", "addr:full": "2908 Broadway", "addr:city": "San Antonio", "addr:state": "TX", "addr:postcode": "78209", "addr:country": "US", "phone": "(210) 829-1616", "website": "https://olo.tacocabana.com/menu/taco-cabana-bwayhumphrayssan-antonio-tx?showInfoModal=true", "brand": "Taco Cabana"}, "geometry": {"type": "Point", "coordinates": [-98.4715786, 29.4536785]}},
{"type": "Feature", "id": "Pa1DAkj5vMcECIztNXCG4J69dBQ=", "properties": {"ref": "20212", "@spider": "tacocabana", "addr:full": "543 W. Malone", "addr:city": "San Antonio", "addr:state": "TX", "addr:postcode": "78214", "addr:country": "US", "phone": "(210) 534-8533", "website": "https://olo.tacocabana.com/menu/taco-cabana-west-malonesan-antonio-tx?showInfoModal=true", "brand": "Taco Cabana"}, "geometry": {"type": "Point", "coordinates": [-98.5112828, 29.3876869]}},
{"type": "Feature", "id": "3kIvPkv_IjgpS-rivKFBN2y6XE8=", "properties": {"ref": "20215", "@spider": "tacocabana", "addr:full": "1777 N. Lee Trevino", "addr:city": "El Paso", "addr:state": "TX", "addr:postcode": "79936", "addr:country": "US", "phone": "(915) 595-8898", "website": "https://olo.tacocabana.com/menu/taco-cabana-lee-trevinoel-paso-tx?showInfoModal=true", "brand": "Taco Cabana"}, "geometry": {"type": "Point", "coordinates": [-106.3194762, 31.7642989]}},
{"type": "Feature", "id": "0cZf24hURCjF5vcK2KUt9Y6_BCU=", "properties": {"ref": "20216", "@spider": "tacocabana", "addr:full": "5866 N. Mesa", "addr:city": "El Paso", "addr:state": "TX", "addr:postcode": "79912", "addr:country": "US", "phone": "(915) 833-9337", "website": "https://olo.tacocabana.com/menu/taco-cabana-n-mesa-sunlandel-paso-tx?showInfoModal=true", "brand": "Taco Cabana"}, "geometry": {"type": "Point", "coordinates": [-106.5269667, 31.8287584]}},
{"type": "Feature", "id": "MZLL1Ymq8RmtH1iIFHmG6KzkeXA=", "properties": {"ref": "20219", "@spider": "tacocabana", "addr:full": "4810 Hondo Pass", "addr:city": "El Paso", "addr:state": "TX", "addr:postcode": "79904", "addr:country": "US", "phone": "(915) 755-7116", "website": "https://olo.tacocabana.com/menu/taco-cabana-hondo-passel-paso-tx?showInfoModal=true", "brand": "Taco Cabana"}, "geometry": {"type": "Point", "coordinates": [-106.429775, 31.8694932]}},
{"type": "Feature", "id": "LWPH2cIFdV1SkM33YS_7sXjw_EQ=", "properties": {"ref": "20225", "@spider": "tacocabana", "addr:full": "7870 N. Mesa", "addr:city": "El Paso", "addr:state": "TX", "addr:postcode": "79932", "addr:country": "US", "phone": "(915) 581-6091", "website": "https://olo.tacocabana.com/menu/taco-cabana-north-mesa-hwy-10el-paso-tx?showInfoModal=true", "brand": "Taco Cabana"}, "geometry": {"type": "Point", "coordinates": [-106.5730011, 31.8405285]}},
{"type": "Feature", "id": "QukrHCtN94mMprIEOJbhyqO42vQ=", "properties": {"ref": "20231", "@spider": "tacocabana", "addr:full": "3930 S. Carrier Pkwy.", "addr:city": "Grand Prairie", "addr:state": "TX", "addr:postcode": "75052", "addr:country": "US", "phone": "(972) 642-7556", "website": "https://olo.tacocabana.com/menu/taco-cabana-s-carrier-pkwygrnd-prairie-tx?showInfoModal=true", "brand": "Taco Cabana"}, "geometry": {"type": "Point", "coordinates": [-97.0074061, 32.6779783]}},
{"type": "Feature", "id": "WfukVWNEdTfz2MtjIyRQ5fD68hA=", "properties": {"ref": "20232", "@spider": "tacocabana", "addr:full": "525 Surf", "addr:city": "Lewisville", "addr:state": "TX", "addr:postcode": "75067", "addr:country": "US", "phone": "(972) 353-5575", "website": "https://olo.tacocabana.com/menu/taco-cabana-surflewisville-tx?showInfoModal=true", "brand": "Taco Cabana"}, "geometry": {"type": "Point", "coordinates": [-97.013683, 33.0443635]}},
{"type": "Feature", "id": "DV5HDi1cll3N2lKlqzhLkTs9iaM=", "properties": {"ref": "20234", "@spider": "tacocabana", "addr:full": "11212 Fuqua Ave.", "addr:city": "Houston", "addr:state": "TX", "addr:postcode": "77089", "addr:country": "US", "phone": "(281) 464-3131", "website": "https://olo.tacocabana.com/menu/taco-cabana-fuqua-avehouston-tx?showInfoModal=true", "brand": "Taco Cabana"}, "geometry": {"type": "Point", "coordinates": [-95.2194496, 29.612939]}},
{"type": "Feature", "id": "A_cIGhf7EuYGzvBQpybFedEOQK0=", "properties": {"ref": "20237", "@spider": "tacocabana", "addr:full": "2520 N. Highway 123 Bypass", "addr:city": "Seguin", "addr:state": "TX", "addr:postcode": "78155", "addr:country": "US", "phone": "(830) 372-3466", "website": "https://olo.tacocabana.com/menu/taco-cabana-n-hway-123-bypass-seguin-tx?showInfoModal=true", "brand": "Taco Cabana"}, "geometry": {"type": "Point", "coordinates": [-97.9508158, 29.5977332]}},
{"type": "Feature", "id": "lxJsVVx7lPYrVYYa1MDuSnM8eFY=", "properties": {"ref": "20238", "@spider": "tacocabana", "addr:full": "11880 Bissonet", "addr:city": "Houston", "addr:state": "TX", "addr:postcode": "77099", "addr:country": "US", "phone": "(281) 879-4660", "website": "https://olo.tacocabana.com/menu/taco-cabana-bissonethouston-tx?showInfoModal=true", "brand": "Taco Cabana"}, "geometry": {"type": "Point", "coordinates": [-95.5870216, 29.6755606]}},
{"type": "Feature", "id": "W6cbaIN3QgCRcWxVryMqxlY9-Ak=", "properties": {"ref": "20239", "@spider": "tacocabana", "addr:full": "4313 S. Freeway", "addr:city": "Ft. Worth", "addr:state": "TX", "addr:postcode": "76115", "addr:country": "US", "phone": "(817) 921-5056", "website": "https://olo.tacocabana.com/menu/taco-cabana-south-freewayft-worth-tx?showInfoModal=true", "brand": "Taco Cabana"}, "geometry": {"type": "Point", "coordinates": [-97.3197814, 32.68472]}},
{"type": "Feature", "id": "1isRW09mHH4xDQDNTU1Icc4ik3A=", "properties": {"ref": "20240", "@spider": "tacocabana", "addr:full": "2005 W. University Ave", "addr:city": "McKinney", "addr:state": "TX", "addr:postcode": "75070", "addr:country": "US", "phone": "(972) 562-8865", "website": "https://olo.tacocabana.com/menu/taco-cabana-w-university-avemckinney-tx?showInfoModal=true", "brand": "Taco Cabana"}, "geometry": {"type": "Point", "coordinates": [-96.6377155, 33.2161708]}},
{"type": "Feature", "id": "AyFiwpWZ48YX3xORv6z0K93rsOo=", "properties": {"ref": "20241", "@spider": "tacocabana", "addr:full": "10325 North Freeway", "addr:city": "Houston", "addr:state": "TX", "addr:postcode": "77037", "addr:country": "US", "phone": "(281) 272-2210", "website": "https://olo.tacocabana.com/menu/taco-cabana-north-fway-westhouston-tx?showInfoModal=true", "brand": "Taco Cabana"}, "geometry": {"type": "Point", "coordinates": [-95.4136827, 29.9164846]}},
{"type": "Feature", "id": "vXxgJtynuPAA8lk1IWwsUDCiJYk=", "properties": {"ref": "20244", "@spider": "tacocabana", "addr:full": "6750 Hwy 6 North", "addr:city": "Houston", "addr:state": "TX", "addr:postcode": "77084", "addr:country": "US", "phone": "(281) 859-4949", "website": "https://olo.tacocabana.com/menu/taco-cabana-highway-6-northhouston-tx?showInfoModal=true", "brand": "Taco Cabana"}, "geometry": {"type": "Point", "coordinates": [-95.6447887, 29.8756269]}},
{"type": "Feature", "id": "b9Ggl2GaATFfRh6bKl8MJ1Fa7rQ=", "properties": {"ref": "20247", "@spider": "tacocabana", "addr:full": "433 W. Bandera Rd.", "addr:city": "Boerne", "addr:state": "TX", "addr:postcode": "78006", "addr:country": "US", "phone": "(904) 559-1521", "website": "https://olo.tacocabana.com/menu/taco-cabana-west-bandera-rdboeme-tx?showInfoModal=true", "brand": "Taco Cabana"}, "geometry": {"type": "Point", "coordinates": [-98.7347381, 29.7800237]}},
{"type": "Feature", "id": "JCcg9oS_7ny1DGx1mw5jYyGqhl8=", "properties": {"ref": "20250", "@spider": "tacocabana", "addr:full": "13455 E. Freeway", "addr:city": "Houston", "addr:state": "TX", "addr:postcode": "77015", "addr:country": "US", "phone": "(713) 450-0856", "website": "https://olo.tacocabana.com/menu/taco-cabana-east-freewayhouston-tx?showInfoModal=true", "brand": "Taco Cabana"}, "geometry": {"type": "Point", "coordinates": [-95.1839031, 29.7712984]}},
{"type": "Feature", "id": "1ffH2-o4rBrUXBs2rYGTt84dWaE=", "properties": {"ref": "20251", "@spider": "tacocabana", "addr:full": "1130 N. Loop 1604 W., # 105", "addr:city": "San Antonio", "addr:state": "TX", "addr:postcode": "78248", "addr:country": "US", "phone": "(210) 764-1348", "website": "https://olo.tacocabana.com/menu/taco-cabana-n-loop-1604-wsan-antonio-tx?showInfoModal=true", "brand": "Taco Cabana"}, "geometry": {"type": "Point", "coordinates": [-98.5096374, 29.6078141]}},
{"type": "Feature", "id": "Z6VbmUm7Mvnz3qO00H94pxfEtYg=", "properties": {"ref": "20252", "@spider": "tacocabana", "addr:full": "105 Louetta Crossing", "addr:city": "Spring", "addr:state": "TX", "addr:postcode": "77373", "addr:country": "US", "phone": "(281) 355-9016", "website": "https://olo.tacocabana.com/menu/taco-cabana-louetta-crossingspring-tx?showInfoModal=true", "brand": "Taco Cabana"}, "geometry": {"type": "Point", "coordinates": [-95.4328651, 30.0636037]}},
{"type": "Feature", "id": "TmG83I6VA2SrTBcE_JSaM1zjb8c=", "properties": {"ref": "20253", "@spider": "tacocabana", "addr:full": "5850 Highway 6", "addr:city": "Missouri City", "addr:state": "TX", "addr:postcode": "77459", "addr:country": "US", "phone": "(281) 499-2464", "website": "https://olo.tacocabana.com/menu/taco-cabana-highway-6missouri-city-tx?showInfoModal=true", "brand": "Taco Cabana"}, "geometry": {"type": "Point", "coordinates": [-95.5670209, 29.5677192]}},
{"type": "Feature", "id": "Cr1uswNz_hNWrRllbNuDOXTYQAg=", "properties": {"ref": "20254", "@spider": "tacocabana", "addr:full": "100 Walton Way", "addr:city": "Cedar Park", "addr:state": "TX", "addr:postcode": "78613", "addr:country": "US", "phone": "(512) 260-2441", "website": "https://olo.tacocabana.com/menu/taco-cabana-walton-waycedar-park-tx?showInfoModal=true", "brand": "Taco Cabana"}, "geometry": {"type": "Point", "coordinates": [-97.8315686, 30.5225091]}},
{"type": "Feature", "id": "cr9Dg3DsFuZ4KzHVpYp3rlNJkCo=", "properties": {"ref": "20255", "@spider": "tacocabana", "addr:full": "20720 U.S. Hwy N. 281", "addr:city": "San Antonio", "addr:state": "TX", "addr:postcode": "78258", "addr:country": "US", "phone": "(210) 499-5032", "website": "https://olo.tacocabana.com/menu/taco-cabana-us-highway-281san-antonio-tx?showInfoModal=true", "brand": "Taco Cabana"}, "geometry": {"type": "Point", "coordinates": [-98.4571023, 29.6347116]}},
{"type": "Feature", "id": "PDx_AzG8B0W_zZvNpgN-YoXD8d0=", "properties": {"ref": "20258", "@spider": "tacocabana", "addr:full": "11722 I-35 N Frontage Road", "addr:city": "San Antonio", "addr:state": "TX", "addr:postcode": "78233", "addr:country": "US", "phone": "(210) 656-5430", "website": "https://olo.tacocabana.com/menu/taco-cabana-ih-35-northsan-antonio-tx?showInfoModal=true", "brand": "Taco Cabana"}, "geometry": {"type": "Point", "coordinates": [-98.3663187, 29.5462183]}},
{"type": "Feature", "id": "ELHNkvjb3BkO5w-hiNsoh2tOYKY=", "properties": {"ref": "20259", "@spider": "tacocabana", "addr:full": "11305 Clay Road", "addr:city": "Houston", "addr:state": "TX", "addr:postcode": "77041", "addr:country": "US", "phone": "(713) 460-5166", "website": "https://olo.tacocabana.com/menu/taco-cabana-clay-rdhouston-tx?showInfoModal=true", "brand": "Taco Cabana"}, "geometry": {"type": "Point", "coordinates": [-95.5647224, 29.8315046]}},
{"type": "Feature", "id": "NPT51ar-8-u08yPA2nmagDbAci8=", "properties": {"ref": "20262", "@spider": "tacocabana", "addr:full": "207 FM 2094", "addr:city": "Clearlake Shores", "addr:state": "TX", "addr:postcode": "77565", "addr:country": "US", "phone": "(281) 334-6242", "website": "https://olo.tacocabana.com/menu/taco-cabana-clear-lake-shoreskemah-tx?showInfoModal=true", "brand": "Taco Cabana"}, "geometry": {"type": "Point", "coordinates": [-95.020623, 29.5403835]}},
{"type": "Feature", "id": "rI_ioUwYSoctSwWIf5spIc2YsFU=", "properties": {"ref": "20264", "@spider": "tacocabana", "addr:full": "11707 Loop W. 1604 North", "addr:city": "San Antonio", "addr:state": "TX", "addr:postcode": "78250", "addr:country": "US", "phone": "(210) 695-1362", "website": "https://olo.tacocabana.com/menu/taco-cabana-loop-w-1604-nsan-antonio-tx?showInfoModal=true", "brand": "Taco Cabana"}, "geometry": {"type": "Point", "coordinates": [-98.6694486, 29.552877]}},
{"type": "Feature", "id": "iiZP2nnGUsz7VYsy0C-FAIjCpf4=", "properties": {"ref": "20265", "@spider": "tacocabana", "addr:full": "4360  Dallas/Ft. Worth Turnpike", "addr:city": "Dallas", "addr:state": "TX", "addr:postcode": "75211", "addr:country": "US", "phone": "(214) 623-0397", "website": "https://olo.tacocabana.com/menu/taco-cabana-1-30-cockrell-hilldallas-tx?showInfoModal=true", "brand": "Taco Cabana"}, "geometry": {"type": "Point", "coordinates": [-96.8976573, 32.7653522]}},
{"type": "Feature", "id": "s5CwWfH___amy3VfeRnbbTefO9M=", "properties": {"ref": "20266", "@spider": "tacocabana", "addr:full": "5959 Broadway", "addr:city": "Garland", "addr:state": "TX", "addr:postcode": "75043", "addr:country": "US", "phone": "(972) 240-4200", "website": "https://olo.tacocabana.com/menu/taco-cabana-1-30-beltline-rdgarland-tx?showInfoModal=true", "brand": "Taco Cabana"}, "geometry": {"type": "Point", "coordinates": [-96.5961292, 32.8427694]}},
{"type": "Feature", "id": "bTVcUziuzF9PXpfIdHVxTAu09x4=", "properties": {"ref": "20268", "@spider": "tacocabana", "addr:full": "3079 College Park Drive", "addr:city": "The Woodlands", "addr:state": "TX", "addr:postcode": "77380", "addr:country": "US", "phone": "(936) 271-4777", "website": "https://olo.tacocabana.com/menu/taco-cabana-hwy-242st-lukeswoodlands-tx?showInfoModal=true", "brand": "Taco Cabana"}, "geometry": {"type": "Point", "coordinates": [-95.4625974, 30.206299]}},
{"type": "Feature", "id": "oAEK00UAMC5AX6BjBtxCW-zu_1E=", "properties": {"ref": "20272", "@spider": "tacocabana", "addr:full": "6345 Gateway West", "addr:city": "El Paso", "addr:state": "TX", "addr:postcode": "79925", "addr:country": "US", "phone": "(915) 775-1460", "website": "https://olo.tacocabana.com/menu/taco-cabana-geronimo-gateway-wel-paso-tx?showInfoModal=true", "brand": "Taco Cabana"}, "geometry": {"type": "Point", "coordinates": [-106.4056304, 31.7825251]}},
{"type": "Feature", "id": "V8PbnzIqEi8tBoYnk1J6LFD5V_U=", "properties": {"ref": "20273", "@spider": "tacocabana", "addr:full": "955 North Burleson Blvd", "addr:city": "Burleson", "addr:state": "TX", "addr:postcode": "76028", "addr:country": "US", "phone": "(817) 295-1163", "website": "https://olo.tacocabana.com/menu/taco-cabana-n-burleson-blvdburleson-tx?showInfoModal=true", "brand": "Taco Cabana"}, "geometry": {"type": "Point", "coordinates": [-97.3200556, 32.5617602]}},
{"type": "Feature", "id": "AYA8oculZW3vDTkgA3Kyej0QSsE=", "properties": {"ref": "20274", "@spider": "tacocabana", "addr:full": "9210 RL Thornton Freeway", "addr:city": "Dallas", "addr:state": "TX", "addr:postcode": "75228", "addr:country": "US", "phone": "(214) 660-8583", "website": "https://olo.tacocabana.com/menu/taco-cabana-r-l-thornton-fwaydallas-tx?showInfoModal=true", "brand": "Taco Cabana"}, "geometry": {"type": "Point", "coordinates": [-96.6886448, 32.7958739]}},
{"type": "Feature", "id": "eHSHDM9TAMgmM6YkwW6LkYLaV6k=", "properties": {"ref": "20276", "@spider": "tacocabana", "addr:full": "25955 MW Frwy", "addr:city": "Cypress", "addr:state": "TX", "addr:postcode": "77429", "addr:country": "US", "phone": "(281) 256-0680", "website": "https://olo.tacocabana.com/menu/taco-cabana-spring-cypresshouston-tx?showInfoModal=true", "brand": "Taco Cabana"}, "geometry": {"type": "Point", "coordinates": [-95.6926184, 29.9687751]}},
{"type": "Feature", "id": "UlG7f2LDOQTxxcHLwkFA2zupvMU=", "properties": {"ref": "20277", "@spider": "tacocabana", "addr:full": "4360 Little Rd", "addr:city": "Arlington", "addr:state": "TX", "addr:postcode": "76016", "addr:country": "US", "phone": "(817) 561-2040", "website": "https://olo.tacocabana.com/menu/taco-cabana-little-rdarlington-tx?showInfoModal=true", "brand": "Taco Cabana"}, "geometry": {"type": "Point", "coordinates": [-97.1967491, 32.6777291]}},
{"type": "Feature", "id": "MM0AoB9ZrhmvUxZ1CA3Vy25qPcQ=", "properties": {"ref": "20278", "@spider": "tacocabana", "addr:full": "6611 S. Mopac Expressway", "addr:city": "Austin", "addr:state": "TX", "addr:postcode": "78749", "addr:country": "US", "phone": "(512) 358-0726", "website": "https://olo.tacocabana.com/menu/taco-cabana-s-mopac-expresswayaustin-tx?showInfoModal=true", "brand": "Taco Cabana"}, "geometry": {"type": "Point", "coordinates": [-97.8353433, 30.2199628]}},
{"type": "Feature", "id": "gBIcKv1PoXleGHM7P_cFJqPhatw=", "properties": {"ref": "20279", "@spider": "tacocabana", "addr:full": "203 South I-45", "addr:city": "Ennis", "addr:state": "TX", "addr:postcode": "75119", "addr:country": "US", "phone": "(972) 875-6850", "website": "https://olo.tacocabana.com/menu/taco-cabana-south-i-45ennis-tx?showInfoModal=true", "brand": "Taco Cabana"}, "geometry": {"type": "Point", "coordinates": [-96.6154062, 32.3325161]}},
{"type": "Feature", "id": "W4DA_8s4MRFyzGBo9Xnu4j2iEjY=", "properties": {"ref": "20280", "@spider": "tacocabana", "addr:full": "6826 N. Loop 1604 E.", "addr:city": "San Antonio", "addr:state": "TX", "addr:postcode": "78247", "addr:country": "US", "phone": "(210) 590-4374", "website": "https://olo.tacocabana.com/menu/taco-cabana-n-loop-1604-esan-antonio-tx?showInfoModal=true", "brand": "Taco Cabana"}, "geometry": {"type": "Point", "coordinates": [-98.3548827, 29.5935496]}},
{"type": "Feature", "id": "Wk5WPj5ZRF--28Q4XU-9MYGMRQ8=", "properties": {"ref": "20281", "@spider": "tacocabana", "addr:full": "3922 Little York Rd", "addr:city": "Houston", "addr:state": "TX", "addr:postcode": "77093", "addr:country": "US", "phone": "(713) 694-4192", "website": "https://olo.tacocabana.com/menu/taco-cabana-little-york-rdhouston-tx?showInfoModal=true", "brand": "Taco Cabana"}, "geometry": {"type": "Point", "coordinates": [-95.3284075, 29.8693767]}},
{"type": "Feature", "id": "3CCGwx0pvM1damkfvybpeRJfEHU=", "properties": {"ref": "20282", "@spider": "tacocabana", "addr:full": "2041 N Central Expressway", "addr:city": "Richardson", "addr:state": "TX", "addr:postcode": "75080", "addr:country": "US", "phone": "(972) 238-1141", "website": "https://olo.tacocabana.com/menu/taco-cabana-n-central-expwayrichardson-tx?showInfoModal=true", "brand": "Taco Cabana"}, "geometry": {"type": "Point", "coordinates": [-96.7166011, 32.9764529]}},
{"type": "Feature", "id": "7D1v9dhJLMRmQlH6ra3sHhIfn2c=", "properties": {"ref": "20283", "@spider": "tacocabana", "addr:full": "698 Highway 71 West", "addr:city": "Bastrop", "addr:state": "TX", "addr:postcode": "78602", "addr:country": "US", "phone": "(512) 332-0478", "website": "https://olo.tacocabana.com/menu/taco-cabana-highway-71-westbastrop-tx?showInfoModal=true", "brand": "Taco Cabana"}, "geometry": {"type": "Point", "coordinates": [-97.3490817, 30.1105056]}},
{"type": "Feature", "id": "1Lx13hvlrElLGsD0xenxqiIkyhU=", "properties": {"ref": "20284", "@spider": "tacocabana", "addr:full": "2885 Gulf Freeway South", "addr:city": "League City", "addr:state": "TX", "addr:postcode": "77573", "addr:country": "US", "phone": "(281) 337-2340", "website": "https://olo.tacocabana.com/menu/taco-cabana-gulf-freeway-sleague-city-tx?showInfoModal=true", "brand": "Taco Cabana"}, "geometry": {"type": "Point", "coordinates": [-95.0934741, 29.4680631]}},
{"type": "Feature", "id": "IQQ4JQlVQ1CRiSWBgtViZginmGw=", "properties": {"ref": "20285", "@spider": "tacocabana", "addr:full": "5738 W Loop 1604 N", "addr:city": "San Antonio", "addr:state": "TX", "addr:postcode": "78251", "addr:country": "US", "phone": "(210) 688-6731", "website": "https://olo.tacocabana.com/menu/taco-cabana-w-loop-1604-nsan-antonio-tx?showInfoModal=true", "brand": "Taco Cabana"}, "geometry": {"type": "Point", "coordinates": [-98.7054294, 29.4902776]}},
{"type": "Feature", "id": "IK3paGVGAr-KncnWu1J-9fToBE0=", "properties": {"ref": "20286", "@spider": "tacocabana", "addr:full": "1101 E. Spring Creek Pkwy", "addr:city": "Plano", "addr:state": "TX", "addr:postcode": "75074", "addr:country": "US", "phone": "(972) 423-4701", "website": "https://olo.tacocabana.com/menu/taco-cabana-e-spring-creek-pkwy-plano-tx?showInfoModal=true", "brand": "Taco Cabana"}, "geometry": {"type": "Point", "coordinates": [-96.6922721, 33.0577372]}},
{"type": "Feature", "id": "nYPV10S3eRnRzwO7COUl3KYgAYU=", "properties": {"ref": "20287", "@spider": "tacocabana", "addr:full": "801 N. Beach St,", "addr:city": "Ft Worth", "addr:state": "TX", "addr:postcode": "76111", "addr:country": "US", "phone": "(682) 647-1269", "website": "https://olo.tacocabana.com/menu/taco-cabana-n-beach-stft-worth-tx?showInfoModal=true", "brand": "Taco Cabana"}, "geometry": {"type": "Point", "coordinates": [-97.2879431, 32.7739694]}},
{"type": "Feature", "id": "qA17vf6cqgdbfmLjyLf2Kahb_dc=", "properties": {"ref": "20288", "@spider": "tacocabana", "addr:full": "4400 Palm Valley Blvd", "addr:city": "Round Rock", "addr:state": "TX", "addr:postcode": "78664", "addr:country": "US", "phone": "(512) 218-4137", "website": "https://olo.tacocabana.com/menu/taco-cabana-palm-valley-blvdround-rock-tx?showInfoModal=true", "brand": "Taco Cabana"}, "geometry": {"type": "Point", "coordinates": [-97.6165685, 30.5319382]}},
{"type": "Feature", "id": "G5omF4gubtW9E85goGjVQptw3Do=", "properties": {"ref": "20291", "@spider": "tacocabana", "addr:full": "3721 Highway 75 North", "addr:city": "Sherman", "addr:state": "TX", "addr:postcode": "75090", "addr:country": "US", "phone": "(903) 892-0419", "website": "https://olo.tacocabana.com/menu/taco-cabana-hwy-75-northsherman-tx?showInfoModal=true", "brand": "Taco Cabana"}, "geometry": {"type": "Point", "coordinates": [-96.6078984, 33.6769611]}},
{"type": "Feature", "id": "kAD3w3IPet47hThrupQJNcqitic=", "properties": {"ref": "20294", "@spider": "tacocabana", "addr:full": "1007 W University Ave #2", "addr:city": "Georgetown", "addr:state": "TX", "addr:postcode": "78628", "addr:country": "US", "phone": "(512) 863-7306", "website": "https://olo.tacocabana.com/menu/taco-cabana-w-univ-ave-2georgetown-tx?showInfoModal=true", "brand": "Taco Cabana"}, "geometry": {"type": "Point", "coordinates": [-97.6932173, 30.630982]}},
{"type": "Feature", "id": "R7yUotvkXVJ1Y6qSOta3JUSnTR4=", "properties": {"ref": "20296", "@spider": "tacocabana", "addr:full": "602 W Loop 1604N", "addr:city": "San Antonio", "addr:state": "TX", "addr:postcode": "78251", "addr:country": "US", "phone": "(210) 521-2383", "website": "https://olo.tacocabana.com/menu/taco-cabana-w-loop-1604nsan-antonio-tx?showInfoModal=true", "brand": "Taco Cabana"}, "geometry": {"type": "Point", "coordinates": [-98.7100519, 29.4382331]}},
{"type": "Feature", "id": "tRgCwnpgZVKsESXUJDgOpyu8ddg=", "properties": {"ref": "20297", "@spider": "tacocabana", "addr:full": "1880 Joe Battle Blvd", "addr:city": "El Paso", "addr:state": "TX", "addr:postcode": "79936", "addr:country": "US", "phone": "(915) 849-8358", "website": "https://olo.tacocabana.com/menu/taco-cabana-joe-battle-blvdel-paso-tx?showInfoModal=true", "brand": "Taco Cabana"}, "geometry": {"type": "Point", "coordinates": [-106.266633, 31.7597231]}},
{"type": "Feature", "id": "KQB5n3CQFT820GxbkuuTvi9Su8I=", "properties": {"ref": "20299", "@spider": "tacocabana", "addr:full": "11111 Broadway", "addr:city": "Pearland", "addr:state": "TX", "addr:postcode": "77584", "addr:country": "US", "phone": "(713) 340-1185", "website": "https://olo.tacocabana.com/menu/taco-cabana-broadwaypearland-tx?showInfoModal=true", "brand": "Taco Cabana"}, "geometry": {"type": "Point", "coordinates": [-95.3922782, 29.556281]}},
{"type": "Feature", "id": "5ttNKpMXPBuedAjcFOG09CSwK9A=", "properties": {"ref": "20314", "@spider": "tacocabana", "addr:full": "2410 Briarcrest Dr", "addr:city": "Bryan", "addr:state": "TX", "addr:postcode": "77802", "addr:country": "US", "phone": "(979) 776-0555", "website": "https://olo.tacocabana.com/menu/taco-cabana-briarcrest-drbryan-tx?showInfoModal=true", "brand": "Taco Cabana"}, "geometry": {"type": "Point", "coordinates": [-96.3298561, 30.6606887]}},
{"type": "Feature", "id": "fA7eRWTT-S68TSle8zjZ58OIwJs=", "properties": {"ref": "20325", "@spider": "tacocabana", "addr:full": "19231 Stone Oak Parkway", "addr:city": "San Antonio", "addr:state": "TX", "addr:postcode": "78258", "addr:country": "US", "phone": "(210) 499-0232", "website": "https://olo.tacocabana.com/menu/taco-cabana-stone-oak-pkysan-antonio-tx?showInfoModal=true", "brand": "Taco Cabana"}, "geometry": {"type": "Point", "coordinates": [-98.4956945, 29.6282047]}},
{"type": "Feature", "id": "xC57vH3OcHqFE98F1gy_m4MiNI0=", "properties": {"ref": "20327", "@spider": "tacocabana", "addr:full": "3550 S General Bruce Dr, Bldg H", "addr:city": "Temple", "addr:state": "TX", "addr:postcode": "76504", "addr:country": "US", "phone": "(254) 742-2500", "website": "https://olo.tacocabana.com/menu/taco-cabana-s-gen-bruce-dr-bld-htemple-tx?showInfoModal=true", "brand": "Taco Cabana"}, "geometry": {"type": "Point", "coordinates": [-97.3859728, 31.0925506]}},
{"type": "Feature", "id": "QieVqmd9XXfzlqFQqkjDnxTwv1s=", "properties": {"ref": "20328", "@spider": "tacocabana", "addr:full": "786 N I-35", "addr:city": "Lancaster", "addr:state": "TX", "addr:postcode": "75146", "addr:country": "US", "phone": "(972) 223-5700", "website": "https://olo.tacocabana.com/menu/taco-cabana-n-i35lancaster-tx?showInfoModal=true", "brand": "Taco Cabana"}, "geometry": {"type": "Point", "coordinates": [-96.8217436, 32.5977177]}},
{"type": "Feature", "id": "zq62b2ZfMSM98Qx-HHJJd8gLCyQ=", "properties": {"ref": "20329", "@spider": "tacocabana", "addr:full": "8645 Cypress Waters Blvd", "addr:city": "Irving", "addr:state": "TX", "addr:postcode": "75063", "addr:country": "US", "phone": "(214) 496-0385", "website": "https://olo.tacocabana.com/menu/taco-cabana-cypress-waters-blvdirving-tx?showInfoModal=true", "brand": "Taco Cabana"}, "geometry": {"type": "Point", "coordinates": [-96.9921048, 32.9246509]}},
{"type": "Feature", "id": "tir85NLCPc8lDL5Dz_AqVNpjL_I=", "properties": {"ref": "20330", "@spider": "tacocabana", "addr:full": "8930 W Sam Houston Pky N", "addr:city": "Houston", "addr:state": "TX", "addr:postcode": "77040", "addr:country": "US", "phone": "(281) 617-5867", "website": "https://olo.tacocabana.com/menu/taco-cabana-w-sam-houston-pky-nhouston-tx?showInfoModal=true", "brand": "Taco Cabana"}, "geometry": {"type": "Point", "coordinates": [-95.5498509, 29.9018298]}},
{"type": "Feature", "id": "yeGUHRN7OjTruFZpwiYuoOMEBo4=", "properties": {"ref": "20332", "@spider": "tacocabana", "addr:full": "110 US Hwy 80 East", "addr:city": "Mesquite", "addr:state": "TX", "addr:postcode": "75149", "addr:country": "US", "phone": "(214) 329-9247", "website": "https://olo.tacocabana.com/menu/taco-cabana-us-hwy-80-eastmesquite-tx?showInfoModal=true", "brand": "Taco Cabana"}, "geometry": {"type": "Point", "coordinates": [-96.5946632, 32.7894677]}},
{"type": "Feature", "id": "nOMSq_1tuSQJKbZZ9Uet2ZYLRmU=", "properties": {"ref": "20333", "@spider": "tacocabana", "addr:full": "5930 Gulf Freeway", "addr:city": "Houston", "addr:state": "TX", "addr:postcode": "77023", "addr:country": "US", "phone": "(713) 514-0751", "website": "https://olo.tacocabana.com/menu/taco-cabana-gulf-freewayhouston-tx-2?showInfoModal=true", "brand": "Taco Cabana"}, "geometry": {"type": "Point", "coordinates": [-95.3147024, 29.7137911]}},
{"type": "Feature", "id": "B3SvQEbrZCeDvjYDeBZ3dF77Uss=", "properties": {"ref": "20334", "@spider": "tacocabana", "addr:full": "21121 Tomball Parkway", "addr:city": "Houston", "addr:state": "TX", "addr:postcode": "77070", "addr:country": "US", "phone": "(281) 251-4325", "website": "https://olo.tacocabana.com/menu/taco-cabana-tomball-parkwayhouston-tx?showInfoModal=true", "brand": "Taco Cabana"}, "geometry": {"type": "Point", "coordinates": [-95.5805237, 29.9974402]}},
{"type": "Feature", "id": "ZZ1qexCUEsRa1NvxVY3RycM037I=", "properties": {"ref": "20338", "@spider": "tacocabana", "addr:full": "2601 Dean St", "addr:city": "Balch Springs", "addr:state": "TX", "addr:postcode": "75180", "addr:country": "US", "phone": "(972) 557-5444", "website": "https://olo.tacocabana.com/menu/taco-cabana-dean-stbalch-springs-tx?showInfoModal=true", "brand": "Taco Cabana"}, "geometry": {"type": "Point", "coordinates": [-96.6136979, 32.7335258]}},
{"type": "Feature", "id": "5zEvAfbVhVXKWx1-KTGiy4m-a08=", "properties": {"ref": "20339", "@spider": "tacocabana", "addr:full": "16770 Southwest Freeway", "addr:city": "Sugar Land", "addr:state": "TX", "addr:postcode": "77479", "addr:country": "US", "phone": "(281) 980-9683", "website": "https://olo.tacocabana.com/menu/taco-cabana-southwest-fwysugar-land-tx?showInfoModal=true", "brand": "Taco Cabana"}, "geometry": {"type": "Point", "coordinates": [-95.6353006, 29.5910257]}},
{"type": "Feature", "id": "8RB0ZsK6eutF_6FzgXddkPbBybA=", "properties": {"ref": "20340", "@spider": "tacocabana", "addr:full": "101 S Industrial Blvd", "addr:city": "Euless", "addr:state": "TX", "addr:postcode": "76040", "addr:country": "US", "phone": "(817) 545-9792", "website": "https://olo.tacocabana.com/menu/taco-cabana-s-industrial-blvdeuless-tx?showInfoModal=true", "brand": "Taco Cabana"}, "geometry": {"type": "Point", "coordinates": [-97.09912, 32.8368242]}},
{"type": "Feature", "id": "MF3ldBCSMxJzoZIrPQfrhIYOAww=", "properties": {"ref": "20341", "@spider": "tacocabana", "addr:full": "25103 W Interstate 10 Frontage Road", "addr:city": "San Antonio", "addr:state": "TX", "addr:postcode": "78257", "addr:country": "US", "phone": "(210) 698-7351", "website": "https://olo.tacocabana.com/menu/taco-cabana-ih-10-wsan-antonio-tx?showInfoModal=true", "brand": "Taco Cabana"}, "geometry": {"type": "Point", "coordinates": [-98.6362762, 29.6742418]}},
{"type": "Feature", "id": "M73PaT5gtFcMllNf_1y8dj8UC7M=", "properties": {"ref": "20343", "@spider": "tacocabana", "addr:full": "167 Yale St", "addr:city": "Houston", "addr:state": "TX", "addr:postcode": "77007", "addr:country": "US", "phone": "(713) 864-2314", "website": "https://olo.tacocabana.com/menu/taco-cabana-yale-sthouston-tx?showInfoModal=true", "brand": "Taco Cabana"}, "geometry": {"type": "Point", "coordinates": [-95.3990884, 29.7734199]}},
{"type": "Feature", "id": "2fLOErd7Y4dysORlFL7lHD-m69E=", "properties": {"ref": "20344", "@spider": "tacocabana", "addr:full": "2635 N Stemmons Freeway", "addr:city": "Dallas", "addr:state": "TX", "addr:postcode": "75207", "addr:country": "US", "phone": "(214) 951-7808", "website": "https://olo.tacocabana.com/menu/taco-cabana-n-stemmons-freewaydallas-tx?showInfoModal=true", "brand": "Taco Cabana"}, "geometry": {"type": "Point", "coordinates": [-96.842326, 32.8065239]}},
{"type": "Feature", "id": "UOiOaTCyZ96HLzGGOw_AkllIjJM=", "properties": {"ref": "20347", "@spider": "tacocabana", "addr:full": "4721 S Cooper St", "addr:city": "Arlington", "addr:state": "TX", "addr:postcode": "76017", "addr:country": "US", "phone": "(817) 557-1637", "website": "https://olo.tacocabana.com/menu/taco-cabana-s-cooper-starlington-tx?showInfoModal=true", "brand": "Taco Cabana"}, "geometry": {"type": "Point", "coordinates": [-97.133734, 32.6694504]}},
{"type": "Feature", "id": "HCrz_79qCDhnD7NiH9eRT8PuFhQ=", "properties": {"ref": "20348", "@spider": "tacocabana", "addr:full": "18130 Coit Rd", "addr:city": "Dallas", "addr:state": "TX", "addr:postcode": "75252", "addr:country": "US", "phone": "(972) 758-5390", "website": "https://olo.tacocabana.com/menu/taco-cabana-coit-rddallas-tx?showInfoModal=true", "brand": "Taco Cabana"}, "geometry": {"type": "Point", "coordinates": [-96.7672582, 32.998616]}},
{"type": "Feature", "id": "6HS4RIfO_bDdFUBXZYQn93MLxYk=", "properties": {"ref": "20349", "@spider": "tacocabana", "addr:full": "1205 N Highway 77", "addr:city": "Waxahachie", "addr:state": "TX", "addr:postcode": "75165", "addr:country": "US", "phone": "(972) 923-7781", "website": "https://olo.tacocabana.com/menu/taco-cabana-n-highway-77waxahachie-tx?showInfoModal=true", "brand": "Taco Cabana"}, "geometry": {"type": "Point", "coordinates": [-96.8409688, 32.4170363]}},
{"type": "Feature", "id": "HVQiZJgSNMeY-BInPFr2_0f7-Hg=", "properties": {"ref": "20350", "@spider": "tacocabana", "addr:full": "15239 Montfort Dr", "addr:city": "Dallas", "addr:state": "TX", "addr:postcode": "75248", "addr:country": "US", "phone": "(972) 716-9552", "website": "https://olo.tacocabana.com/menu/taco-cabana-montfort-drdallas-tx?showInfoModal=true", "brand": "Taco Cabana"}, "geometry": {"type": "Point", "coordinates": [-96.8190015, 32.9576326]}},
{"type": "Feature", "id": "Qgs9eFwZ-_ULPds9wZEFZ2gycbM=", "properties": {"ref": "20351", "@spider": "tacocabana", "addr:full": "5242 N Lamar Blvd", "addr:city": "Austin", "addr:state": "TX", "addr:postcode": "78751", "addr:country": "US", "phone": "(512) 323-0191", "website": "https://olo.tacocabana.com/menu/taco-cabana-n-lamar-blvdaustin-tx?showInfoModal=true", "brand": "Taco Cabana"}, "geometry": {"type": "Point", "coordinates": [-97.7298323, 30.3210426]}},
{"type": "Feature", "id": "LosChT2J9kCVyMSQU0Hj6jb37Lg=", "properties": {"ref": "20352", "@spider": "tacocabana", "addr:full": "11801 Gateway West Blvd", "addr:city": "El Paso", "addr:state": "TX", "addr:postcode": "79936", "addr:country": "US", "phone": "(915) 595-6608", "website": "https://olo.tacocabana.com/menu/taco-cabana-i-10-adabel-lnel-paso-tx?showInfoModal=true", "brand": "Taco Cabana"}, "geometry": {"type": "Point", "coordinates": [-106.3120278, 31.7285786]}},
{"type": "Feature", "id": "JL9Fbf4v7xzk9CQLAoKE5O9m6MM=", "properties": {"ref": "20354", "@spider": "tacocabana", "addr:full": "US 59 & North Park", "addr:city": "Kingwood", "addr:state": "TX", "addr:postcode": "77339", "addr:country": "US", "phone": "(281) 354-0198", "website": "https://olo.tacocabana.com/menu/taco-cabana-us-59-north-parkkingwood-tx?showInfoModal=true", "brand": "Taco Cabana"}, "geometry": {"type": "Point", "coordinates": [-95.2447256, 30.0709026]}},
{"type": "Feature", "id": "adXU54voUQrByDZd2brP62YxNbY=", "properties": {"ref": "20355", "@spider": "tacocabana", "addr:full": "US 380 & Bonnie Brae", "addr:city": "Denton", "addr:state": "TX", "addr:postcode": "76207", "addr:country": "US", "phone": "(940) 205-4662", "website": "https://olo.tacocabana.com/menu/taco-cabana-us-380-bonnie-braedenton-tx?showInfoModal=true", "brand": "Taco Cabana"}, "geometry": {"type": "Point", "coordinates": [-97.1609678, 33.229767]}},
{"type": "Feature", "id": "J8DGYzIwbwhPQ0lHDHQfyDwchYE=", "properties": {"ref": "20357", "@spider": "tacocabana", "addr:full": "I 35 & Kyle Pkwy", "addr:city": "Kyle", "addr:state": "TX", "addr:postcode": "78640", "addr:country": "US", "phone": "(512) 504-7681", "website": "https://olo.tacocabana.com/menu/taco-cabana-i-35-kyle-pkwykyle-tx?showInfoModal=true", "brand": "Taco Cabana"}, "geometry": {"type": "Point", "coordinates": [-97.8586535, 30.0100629]}},
{"type": "Feature", "id": "NpF_1bNYpYGdpqd9CPra6HjVM-w=", "properties": {"ref": "20359", "@spider": "tacocabana", "addr:full": "1253 Austin Hwy", "addr:city": "San Antonio", "addr:state": "TX", "addr:postcode": "78209", "addr:country": "US", "phone": "(210) 200-7994", "website": "https://olo.tacocabana.com/menu/taco-cabana-austin-seidelsan-antonio-tx?showInfoModal=true", "brand": "Taco Cabana"}, "geometry": {"type": "Point", "coordinates": [-98.4439459, 29.4893503]}},
{"type": "Feature", "id": "4zvP4iunk9zDk3_6GeWqlE3x1sQ=", "properties": {"ref": "20362", "@spider": "tacocabana", "addr:full": "9719 Poteet Jourdanton Fwy, Ste 104", "addr:city": "San Antonio", "addr:state": "TX", "addr:postcode": "78211", "addr:country": "US", "phone": "(210) 200-7988", "website": "https://olo.tacocabana.com/menu/taco-cabana-palo-alto-410san-antonio-tx?showInfoModal=true", "brand": "Taco Cabana"}, "geometry": {"type": "Point", "coordinates": [-98.5535088, 29.3218077]}},
{"type": "Feature", "id": "ufaSHzypLGI4esz5TjmgvZRqHtc=", "properties": {"ref": "20364", "@spider": "tacocabana", "addr:full": "253 IH 45 S", "addr:city": "Huntsville", "addr:state": "TX", "addr:postcode": "77340", "addr:country": "US", "phone": "(936) 213-6250", "website": "https://olo.tacocabana.com/menu/taco-cabana-i-45-smither-rdhuntsville-tx?showInfoModal=true", "brand": "Taco Cabana"}, "geometry": {"type": "Point", "coordinates": [-95.5643737, 30.7083506]}},
{"type": "Feature", "id": "MDyAvr_2kQWoBJ-FNg7iSt4QkCU=", "properties": {"ref": "20402", "@spider": "tacocabana", "addr:full": "8101 S. Main", "addr:city": "Houston", "addr:state": "TX", "addr:postcode": "77025", "addr:country": "US", "phone": "(713) 668-4863", "website": "https://olo.tacocabana.com/menu/taco-cabana-south-mainhouston-tx?showInfoModal=true", "brand": "Taco Cabana"}, "geometry": {"type": "Point", "coordinates": [-95.4172525, 29.6906486]}},
{"type": "Feature", "id": "cN4Wz7gQyLzhdlDeFIJ3JkLmYjw=", "properties": {"ref": "20403", "@spider": "tacocabana", "addr:full": "2729 - 61st St.", "addr:city": "Galveston", "addr:state": "TX", "addr:postcode": "77551", "addr:country": "US", "phone": "(409) 740-1316", "website": "https://olo.tacocabana.com/menu/taco-cabana-61st-streetgalvaeston-tx?showInfoModal=true", "brand": "Taco Cabana"}, "geometry": {"type": "Point", "coordinates": [-94.8290929, 29.2707633]}},
{"type": "Feature", "id": "Tnly43ju3UxGFVhLBqm65rN6YWw=", "properties": {"ref": "20404", "@spider": "tacocabana", "addr:full": "3905 Kirby", "addr:city": "Houston", "addr:state": "TX", "addr:postcode": "77098", "addr:country": "US", "phone": "(713) 528-6933", "website": "https://olo.tacocabana.com/menu/taco-cabana-kirbyhouston-tx?showInfoModal=true", "brand": "Taco Cabana"}, "geometry": {"type": "Point", "coordinates": [-95.4182759, 29.7318202]}},
{"type": "Feature", "id": "eKbGUyTFg9-UZKxOlLqUuADkfgI=", "properties": {"ref": "20409", "@spider": "tacocabana", "addr:full": "11079 Westheimer", "addr:city": "Houston", "addr:state": "TX", "addr:postcode": "77042", "addr:country": "US", "phone": "(713) 953-0696", "website": "https://olo.tacocabana.com/menu/taco-cabana-westheimerwiloresthouston-tx?showInfoModal=true", "brand": "Taco Cabana"}, "geometry": {"type": "Point", "coordinates": [-95.5700554, 29.7362448]}},
{"type": "Feature", "id": "tul2GnvKWLj8fQsSzmiR6A2e7bI=", "properties": {"ref": "20410", "@spider": "tacocabana", "addr:full": "705 W. Bay Area", "addr:city": "Webster", "addr:state": "TX", "addr:postcode": "77598", "addr:country": "US", "phone": "(281) 557-7500", "website": "https://olo.tacocabana.com/menu/taco-cabana-west-bay-areawebster-tx?showInfoModal=true", "brand": "Taco Cabana"}, "geometry": {"type": "Point", "coordinates": [-95.134554, 29.5439033]}},
{"type": "Feature", "id": "wmorspRrY7QIIGoE0rOrWUN-YJ4=", "properties": {"ref": "20701", "@spider": "tacocabana", "addr:full": "4355  W. Camp Wisdom Rd.", "addr:city": "Dallas", "addr:state": "TX", "addr:postcode": "75237", "addr:country": "US", "phone": "(972) 709-7451", "website": "https://olo.tacocabana.com/menu/taco-cabana-camp-wisdom-rddallas-tx?showInfoModal=true", "brand": "Taco Cabana"}, "geometry": {"type": "Point", "coordinates": [-96.8910252, 32.6623981]}},
{"type": "Feature", "id": "MgfmZ5q5xKzJHpflBsn6x4icXTQ=", "properties": {"ref": "20703", "@spider": "tacocabana", "addr:full": "12475 E. N.W. Hwy", "addr:city": "Dallas", "addr:state": "TX", "addr:postcode": "75228", "addr:country": "US", "phone": "(214) 328-1876", "website": "https://olo.tacocabana.com/menu/taco-cabana-e-nw-highwaydallas-tx?showInfoModal=true", "brand": "Taco Cabana"}, "geometry": {"type": "Point", "coordinates": [-96.6663758, 32.8645044]}},
{"type": "Feature", "id": "5LRQnQ8_vyX4mbVxEIApKc4VtSs=", "properties": {"ref": "20371", "@spider": "tacocabana", "addr:full": "6311 Garth Road", "addr:city": "Baytown", "addr:state": "TX", "addr:postcode": "77521", "addr:country": "US", "phone": "(281) 839-2551", "website": "https://olo.tacocabana.com/menu/tc-20371?showInfoModal=true", "brand": "Taco Cabana"}, "geometry": {"type": "Point", "coordinates": [-94.9808159, 29.7930459]}},
{"type": "Feature", "id": "rfiTpBu4seFm4yZTl4t9VEvSm90=", "properties": {"ref": "20367", "@spider": "tacocabana", "addr:full": "24611 Katy Fwy", "addr:city": "Katy", "addr:state": "TX", "addr:postcode": "77494", "addr:country": "US", "phone": "(281) 769-3674", "website": "https://olo.tacocabana.com/menu/tc-20367?showInfoModal=true", "brand": "Taco Cabana"}, "geometry": {"type": "Point", "coordinates": [-95.7970306, 29.7843997]}},
{"type": "Feature", "id": "9ZEodcXwzrkLsRMueTn_7rn8MvQ=", "properties": {"ref": "20368", "@spider": "tacocabana", "addr:full": "1241 FM 148", "addr:city": "Terrell", "addr:state": "TX", "addr:postcode": "75160", "addr:country": "US", "phone": "(972) 346-1855", "website": "https://olo.tacocabana.com/menu/tc-20368?showInfoModal=true", "brand": "Taco Cabana"}, "geometry": {"type": "Point", "coordinates": [-96.3212988, 32.7187275]}},
{"type": "Feature", "id": "ZIOhVphGFYf9GjWdQwyeldtgMHI=", "properties": {"ref": "20374", "@spider": "tacocabana", "addr:full": "4335 Thousand Oaks", "addr:city": "San Antonio", "addr:state": "TX", "addr:postcode": "78217", "addr:country": "US", "phone": "(210) 817-4305", "website": "https://olo.tacocabana.com/menu/tc-20374?showInfoModal=true", "brand": "Taco Cabana"}, "geometry": {"type": "Point", "coordinates": [-98.4081854, 29.5516114]}},
{"type": "Feature", "id": "yf-PoCt2zUb3fyNmnhvgNkjOTNU=", "properties": {"ref": "20373", "@spider": "tacocabana", "addr:full": "4315 NW Loop 410", "addr:city": "San Antonio ", "addr:state": "TX", "addr:postcode": "78229", "addr:country": "US", "phone": "(210) 817-4302", "website": "https://olo.tacocabana.com/menu/tc-20373?showInfoModal=true", "brand": "Taco Cabana"}, "geometry": {"type": "Point", "coordinates": [-98.5690542, 29.4901375]}},
{"type": "Feature", "id": "VK34Zst0EC2yf064NSGiM-roA88=", "properties": {"ref": "20372", "@spider": "tacocabana", "addr:full": "838 E. Bitters", "addr:city": "San Antonio", "addr:state": "TX", "addr:postcode": "78216", "addr:country": "US", "phone": "(210) 817-4301", "website": "https://olo.tacocabana.com/menu/tc-20372?showInfoModal=true", "brand": "Taco Cabana"}, "geometry": {"type": "Point", "coordinates": [-98.4814384, 29.5635593]}},
{"type": "Feature", "id": "dmen1pJ07i6iHD8cHJXMBCcn8Mk=", "properties": {"ref": "20379", "@spider": "tacocabana", "addr:full": "104 East FM 544 ", "addr:city": "Murphy", "addr:state": "TX", "addr:postcode": "75094", "addr:country": "US", "phone": "(469) 250-6753", "website": "https://olo.tacocabana.com/menu/tc-20379?showInfoModal=true", "brand": "Taco Cabana"}, "geometry": {"type": "Point", "coordinates": [-96.6122834, 33.0110118]}},
{"type": "Feature", "id": "koejRU0-AKCK-xDANDLrAXQNWy4=", "properties": {"ref": "20376", "@spider": "tacocabana", "addr:full": "10219 W. Grand Parkway S ", "addr:city": "Richmond", "addr:state": "TX", "addr:postcode": "77406", "addr:country": "US", "phone": "(281) 725-6495", "website": "https://olo.tacocabana.com/menu/tc-20376?showInfoModal=true", "brand": "Taco Cabana"}, "geometry": {"type": "Point", "coordinates": [-95.7369785, 29.6607313]}},
{"type": "Feature", "id": "TmCVXwpScLEBIvsYeTHav3yS7DI=", "properties": {"ref": "20571", "@spider": "tacocabana", "addr:full": "6500 San Mateo NE", "addr:city": "San Mateo", "addr:state": "NM", "addr:postcode": "87109", "addr:country": "US", "phone": "(505) 821-0203", "website": "https://olo.tacocabana.com/menu/tc-20571?showInfoModal=true", "brand": "Taco Cabana"}, "geometry": {"type": "Point", "coordinates": [-106.5860536, 35.1510296]}},
{"type": "Feature", "id": "DcpbVcN1PJSoh4oDPM5elbrRpBc=", "properties": {"ref": "20572", "@spider": "tacocabana", "addr:full": "8330 Montgomery Blvd", "addr:city": "Albuquerque", "addr:state": "NM", "addr:postcode": "87111", "addr:country": "US", "phone": "(505) 275-2600", "website": "https://olo.tacocabana.com/menu/tc-20572?showInfoModal=true", "brand": "Taco Cabana"}, "geometry": {"type": "Point", "coordinates": [-106.5516298, 35.1302393]}},
{"type": "Feature", "id": "Mle17moVab-RbnvwA2IrJelIIiI=", "properties": {"ref": "20573", "@spider": "tacocabana", "addr:full": "3301-01 Coors Blvd NW", "addr:city": "Albuquerque", "addr:state": "NM", "addr:postcode": "87120", "addr:country": "US", "phone": "(505) 836-1650", "website": "https://olo.tacocabana.com/menu/tc-20573?showInfoModal=true", "brand": "Taco Cabana"}, "geometry": {"type": "Point", "coordinates": [-106.70218, 35.120805]}},
{"type": "Feature", "id": "cwUeGHsgtSAtF58AiBZ-QyMnTNM=", "properties": {"ref": "20574", "@spider": "tacocabana", "addr:full": "10210 Central Avenue SE", "addr:city": "Albuquerque", "addr:state": "NM", "addr:postcode": "87123", "addr:country": "US", "phone": "(505) 323-2690", "website": "https://olo.tacocabana.com/menu/tc-20574?showInfoModal=true", "brand": "Taco Cabana"}, "geometry": {"type": "Point", "coordinates": [-106.5346788, 35.0717185]}},
{"type": "Feature", "id": "fP9vGGgY2moZRgSlgB4ZTCHX3ik=", "properties": {"ref": "20575", "@spider": "tacocabana", "addr:full": "2014 Unser Blvd SE", "addr:city": "Rio Rancho", "addr:state": "NM", "addr:postcode": "87124", "addr:country": "US", "phone": "(505) 994-8478", "website": "https://olo.tacocabana.com/menu/tc-20575?showInfoModal=true", "brand": "Taco Cabana"}, "geometry": {"type": "Point", "coordinates": [-106.6961151, 35.2236348]}},
{"type": "Feature", "id": "c6fDiZ6KI2YXGLTnn54W_uMbbuI=", "properties": {"ref": "20576", "@spider": "tacocabana", "addr:full": "3701 7 Bar Loop Rd NW", "addr:city": "Albuquerque", "addr:state": "NM", "addr:postcode": "87114", "addr:country": "US", "phone": "(505) 898-5346", "website": "https://olo.tacocabana.com/menu/tc-20576?showInfoModal=true", "brand": "Taco Cabana"}, "geometry": {"type": "Point", "coordinates": [-106.660786, 35.2013943]}}]}