{"type":"FeatureCollection","features":[{"type": "Feature", "id": "uk-8nhXIXAXf4Ok3og9fJ6a0THg=", "properties": {"ref": "USA515", "@spider": "the_north_face", "addr:full": "5085 Westheimer Road", "addr:city": "Houston", "addr:state": "TX", "addr:postcode": "77056", "addr:country": "US", "name": "The North Face at The Galleria At Houston", "phone": "(713) 622-9375", "brand": "The North Face"}, "geometry": {"type": "Point", "coordinates": [-95.463174, 29.7397941]}},
{"type": "Feature", "id": "OZ_yAEX2J_C4-sL53hHlDOx2FmI=", "properties": {"ref": "USA59", "@spider": "the_north_face", "addr:full": "8687 N.Central Expy Ste#F2-919", "addr:city": "Dallas", "addr:state": "TX", "addr:postcode": "75225", "addr:country": "US", "name": "The North Face Northpark Center", "phone": "(214) 987-1436", "brand": "The North Face"}, "geometry": {"type": "Point", "coordinates": [-96.7720003397034, 32.8691106294672]}},
{"type": "Feature", "id": "tkjAO_FCWeSXHgpImYUfCYtanPg=", "properties": {"ref": "USA54", "@spider": "the_north_face", "addr:full": "2240 Q Street NE", "addr:city": "Albuquerque", "addr:state": "NM", "addr:postcode": "87110", "addr:country": "US", "name": "The North Face ABQ Uptown", "phone": "(505) 872-0134", "brand": "The North Face"}, "geometry": {"type": "Point", "coordinates": [-106.566898139485, 35.1022218068631]}},
{"type": "Feature", "id": "UL1gdMd9zIm0wsDn7Oxtn75L7Pg=", "properties": {"ref": "USA25", "@spider": "the_north_face", "addr:full": "312 W. 47th Street", "addr:city": "Kansas City", "addr:state": "MO", "addr:postcode": "64112", "addr:country": "US", "name": "The North Face Country Club Plaza", "phone": "(816) 756-0300", "brand": "The North Face"}, "geometry": {"type": "Point", "coordinates": [-94.59066, 39.04229]}},
{"type": "Feature", "id": "RX02tXClQh9aBhnnAsSqs1vF1rY=", "properties": {"ref": "USA529", "@spider": "the_north_face", "addr:full": "1464 St Louis Galleria", "addr:city": "St. Louis", "addr:state": "MO", "addr:postcode": "63117-1168", "addr:country": "US", "name": "The North Face St. Louis Galleria", "phone": "314-925-2483", "brand": "The North Face"}, "geometry": {"type": "Point", "coordinates": [-90.347152238806, 38.6352568656716]}},
{"type": "Feature", "id": "Ir7nCN6C8rQRAUqhvq7ATJLoE40=", "properties": {"ref": "USA505", "@spider": "the_north_face", "addr:full": "2126 Abbott Martin Road", "addr:city": "Nashville", "addr:state": "TN", "addr:postcode": "37215", "addr:country": "US", "name": "The North Face The Mall at Green Hills", "phone": "(615) 292-4414", "brand": "The North Face"}, "geometry": {"type": "Point", "coordinates": [-86.81822, 36.10634]}},
{"type": "Feature", "id": "jb_WNWP-kTPUY_9W1glNavShPws=", "properties": {"ref": "USA528", "@spider": "the_north_face", "addr:full": "3000 E. First Ave", "addr:city": "Denver", "addr:state": "CO", "addr:postcode": "80206", "addr:country": "US", "name": "The North Face Cherry Creek Shopping Center", "phone": "303-218-3244", "brand": "The North Face"}, "geometry": {"type": "Point", "coordinates": [-104.954356228868, 39.7170176733983]}},
{"type": "Feature", "id": "9TqsbW0RFzluExX8IP9SVJRlCJM=", "properties": {"ref": "USA519", "@spider": "the_north_face", "addr:full": "1129 Pearl Street", "addr:city": "Boulder", "addr:state": "CO", "addr:postcode": "80302", "addr:country": "US", "name": "The North Face Pearl St Mall", "phone": "(303) 449-1760", "brand": "The North Face"}, "geometry": {"type": "Point", "coordinates": [-105.280932857143, 40.01768]}},
{"type": "Feature", "id": "L0uNyN96jAS9mrvhoyQNe_CqbuA=", "properties": {"ref": "USA520", "@spider": "the_north_face", "addr:full": "3393 Peachtree Rd NE", "addr:city": "Atlanta", "addr:state": "GA", "addr:postcode": "30326", "addr:country": "US", "name": "The North Face Lenox Sq", "phone": "(404)949-0238", "brand": "The North Face"}, "geometry": {"type": "Point", "coordinates": [-84.365, 33.84893]}},
{"type": "Feature", "id": "g0bH9CzNXbpGVF5gNXNWCOf3r7I=", "properties": {"ref": "USA44", "@spider": "the_north_face", "addr:full": "8702 Keystone Crossings", "addr:city": "Indianapolis", "addr:state": "IN", "addr:postcode": "46240", "addr:country": "US", "name": "The North Face The Fashion Mall at Keystone", "phone": "(317) 843-9419", "brand": "The North Face"}, "geometry": {"type": "Point", "coordinates": [-86.1095835571624, 39.9143021235102]}},
{"type": "Feature", "id": "p_BI-H3MVZ2tHhjb4AiITPh7UaM=", "properties": {"ref": "USA518", "@spider": "the_north_face", "addr:full": "1629 N. Damen Avenue", "addr:city": "Chicago", "addr:state": "IL", "addr:postcode": "60647", "addr:country": "US", "name": "The North Face Damen Ave", "phone": "773-252-4603", "brand": "The North Face"}, "geometry": {"type": "Point", "coordinates": [-87.6773018, 41.9114123]}},
{"type": "Feature", "id": "mkoaLdJ6KvCi3RHGn4PF65tJKNE=", "properties": {"ref": "USA10", "@spider": "the_north_face", "addr:full": "875 N. Michigan Avenue", "addr:city": "Chicago", "addr:state": "IL", "addr:postcode": "60611", "addr:country": "US", "name": "The North Face Chicago", "phone": "(312) 337-7200", "brand": "The North Face"}, "geometry": {"type": "Point", "coordinates": [-87.6230821, 41.8988085]}},
{"type": "Feature", "id": "YLgvOcRig142XY8IwFQcFnNAr-w=", "properties": {"ref": "USA57", "@spider": "the_north_face", "addr:full": "4999 Old Orchard Center", "addr:city": "Skokie", "addr:state": "IL", "addr:postcode": "60077", "addr:country": "US", "name": "The North Face Westfield Old Orchard", "phone": "(847) 674-0906", "brand": "The North Face"}, "geometry": {"type": "Point", "coordinates": [-87.7490376, 42.0615141]}},
{"type": "Feature", "id": "BxmiHF29kM-TVeOfdDbSw4X-a-E=", "properties": {"ref": "USA52", "@spider": "the_north_face", "addr:full": "95 North Moorland Road", "addr:city": "Brookfield", "addr:state": "WI", "addr:postcode": "53005", "addr:country": "US", "name": "The North Face Brookfield Square", "phone": "(262) 641-0802", "brand": "The North Face"}, "geometry": {"type": "Point", "coordinates": [-88.1121675, 43.032014]}},
{"type": "Feature", "id": "Jfyehe2eum8qmMvRcup1aBvue9k=", "properties": {"ref": "USA513", "@spider": "the_north_face", "addr:full": "166 South Avenue", "addr:city": "Bloomington", "addr:state": "MN", "addr:postcode": "55425", "addr:country": "US", "name": "The North Face Mall of America", "phone": "(952) 854-1493", "brand": "The North Face"}, "geometry": {"type": "Point", "coordinates": [-93.2417279, 44.853986]}},
{"type": "Feature", "id": "_yaAHK4uXm2QQiQm0CcyjWpbPbQ=", "properties": {"ref": "USA523", "@spider": "the_north_face", "addr:full": "3510 Galleria, Suite 3477", "addr:city": "Edina", "addr:state": "MN", "addr:postcode": "55435", "addr:country": "US", "name": "The North Face Galleria Edina", "phone": "(952) 929-1641", "brand": "The North Face"}, "geometry": {"type": "Point", "coordinates": [-93.3260259728507, 44.8763566968326]}},
{"type": "Feature", "id": "vn8rH2RPmNL9kAueGCfFWYbxgJI=", "properties": {"ref": "USA507", "@spider": "the_north_face", "addr:full": "4400 Sharon Rd. Space G10-A", "addr:city": "Charlotte", "addr:state": "NC", "addr:postcode": "28211", "addr:country": "US", "name": "The North Face Southpark Mall", "phone": "704-365-1253", "brand": "The North Face"}, "geometry": {"type": "Point", "coordinates": [-80.82862, 35.15124]}},
{"type": "Feature", "id": "YS5l4gFImPd-v6dbIBQ1Ha3K3dY=", "properties": {"ref": "USA43", "@spider": "the_north_face", "addr:full": "4025 Gramercy Street", "addr:city": "Columbus", "addr:state": "OH", "addr:postcode": "43219", "addr:country": "US", "name": "The North Face Easton Town Center", "phone": "(614) 337-1147", "brand": "The North Face"}, "geometry": {"type": "Point", "coordinates": [-82.9148136363636, 40.0516968181818]}},
{"type": "Feature", "id": "vgbvjN3BWYwbVOobcw1HS4gFFhI=", "properties": {"ref": "USA320", "@spider": "the_north_face", "addr:full": "400 South Wilson Road", "addr:city": "Sunbury", "addr:state": "OH", "addr:postcode": "43074", "addr:country": "US", "name": "The North Face Tanger Outlets Columbus", "phone": "(740) 965-3675", "brand": "The North Face"}, "geometry": {"type": "Point", "coordinates": [-82.9241758, 40.2601833]}},
{"type": "Feature", "id": "34DRZtMagVUP1BtgLmI1X0ecMys=", "properties": {"ref": "USA45", "@spider": "the_north_face", "addr:full": "3159 28th Street SE", "addr:city": "Kentwood", "addr:state": "MI", "addr:postcode": "49512", "addr:country": "US", "name": "The North Face Woodland Mall", "phone": "616-940-0681", "brand": "The North Face"}, "geometry": {"type": "Point", "coordinates": [-85.5882422449523, 42.9148302578369]}},
{"type": "Feature", "id": "qmJlRvOD1pHTO6rQCIliBtvU5no=", "properties": {"ref": "USA521", "@spider": "the_north_face", "addr:full": "19575 Biscayne Blvd, Space 327", "addr:city": "Aventura", "addr:state": "FL", "addr:postcode": "33180", "addr:country": "US", "name": "The North Face Aventura Mall", "phone": "(305) 466-7372", "brand": "The North Face"}, "geometry": {"type": "Point", "coordinates": [-80.14678, 25.956672]}},
{"type": "Feature", "id": "ib8MG62waFBU-ACeL_fpdwt3qLE=", "properties": {"ref": "USA524", "@spider": "the_north_face", "addr:full": "27318 Novi Road", "addr:city": "Novi", "addr:state": "MI", "addr:postcode": "48377", "addr:country": "US", "name": "The North Face Twelve Oaks Mall", "phone": "248.697.9459", "brand": "The North Face"}, "geometry": {"type": "Point", "coordinates": [-83.4759673310225, 42.4894952859619]}},
{"type": "Feature", "id": "7Sx-317AhqSIhv2xO_0BGGmJ6NE=", "properties": {"ref": "USA46", "@spider": "the_north_face", "addr:full": "4325 Glenwood Ave", "addr:city": "Raleigh", "addr:state": "NC", "addr:postcode": "27612", "addr:country": "US", "name": "The North Face Crabtree Valley Mall", "phone": "(919) 571-2722", "brand": "The North Face"}, "geometry": {"type": "Point", "coordinates": [-78.67848, 35.84123]}},
{"type": "Feature", "id": "tG96VQ7NZ5TQo0MxUyDkJ9Bbg7A=", "properties": {"ref": "USA20", "@spider": "the_north_face", "addr:full": "2800 West Big Beaver", "addr:city": "Troy", "addr:state": "MI", "addr:postcode": "48084", "addr:country": "US", "name": "The North Face Somerset Collection", "phone": "(248) 816-2800", "brand": "The North Face"}, "geometry": {"type": "Point", "coordinates": [-83.18385, 42.56145]}},
{"type": "Feature", "id": "BvJRzPkwDBqw8GSo27RfH7N76iQ=", "properties": {"ref": "USA37", "@spider": "the_north_face", "addr:full": "28853 Chagrin Boulevard", "addr:city": "Woodmere", "addr:state": "OH", "addr:postcode": "44122", "addr:country": "US", "name": "The North Face Woodmere", "phone": "(216) 378-7310", "brand": "The North Face"}, "geometry": {"type": "Point", "coordinates": [-81.4773709, 41.4635523]}},
{"type": "Feature", "id": "ptkxVWkOb7rl6Bb5qOn1OnIRp6c=", "properties": {"ref": "USA506", "@spider": "the_north_face", "addr:full": "3333 Bear Street", "addr:city": "Costa Mesa", "addr:state": "CA", "addr:postcode": "92626", "addr:country": "US", "name": "The North Face South Coast Plaza", "phone": "(714) 549-2107", "brand": "The North Face"}, "geometry": {"type": "Point", "coordinates": [-117.89226, 33.69285]}},
{"type": "Feature", "id": "4dhi--g9T6fWmVSxpLaZgyfhcY0=", "properties": {"ref": "USA17", "@spider": "the_north_face", "addr:full": "7911 Tysons Corner Center", "addr:city": "Tysons", "addr:state": "VA", "addr:postcode": "22102", "addr:country": "US", "name": "The North Face Tysons Corner Center", "phone": "(703) 917-0111", "brand": "The North Face"}, "geometry": {"type": "Point", "coordinates": [-77.2208421592455, 38.9193320928932]}},
{"type": "Feature", "id": "S8QWKCI0-dpPd2Yb-u31bXt0Bzk=", "properties": {"ref": "USA48", "@spider": "the_north_face", "addr:full": "4848 Bethesda Avenue", "addr:city": "Bethesda", "addr:state": "MD", "addr:postcode": "20814", "addr:country": "US", "name": "The North Face Bethesda Row", "phone": "301-654-3223", "brand": "The North Face"}, "geometry": {"type": "Point", "coordinates": [-77.0971526015404, 38.9808834743366]}},
{"type": "Feature", "id": "Yt3ZA_tjdXM5WlWGCbyvRN79E7k=", "properties": {"ref": "USA514", "@spider": "the_north_face", "addr:full": "2002 Annapolis Mall", "addr:city": "Annapolis", "addr:state": "MD", "addr:postcode": "21401", "addr:country": "US", "name": "The North Face Westfield Annapolis", "phone": "(410) 571-9530", "brand": "The North Face"}, "geometry": {"type": "Point", "coordinates": [-76.5444916018021, 38.9922258398198]}},
{"type": "Feature", "id": "1DmV80Eb4BojzIRBa_bYBXFhkx8=", "properties": {"ref": "USA534", "@spider": "the_north_face", "addr:full": "825 Dulaney Valley Road", "addr:city": "Towson", "addr:state": "MD", "addr:postcode": "21204", "addr:country": "US", "name": "The North Face Towson Town Center", "phone": "410-494-0590", "brand": "The North Face"}, "geometry": {"type": "Point", "coordinates": [-76.6014720335796, 39.4047589469441]}},
{"type": "Feature", "id": "4Xesoh2Tc4k_ZJDBDh7xOm7Y4IQ=", "properties": {"ref": "CAN1261", "@spider": "the_north_face", "addr:full": "300 Taylor Road", "addr:city": "Niagara on the Lake", "addr:state": "ON", "addr:postcode": "L0S 1J0", "addr:country": "CA", "name": "The North Face - The Outlets Collection at Niagara", "phone": "(905) 684-4686", "brand": "The North Face"}, "geometry": {"type": "Point", "coordinates": [-79.16763, 43.15024]}},
{"type": "Feature", "id": "MVMcbnK1pHL4ZI9_nqCGu4GdOXE=", "properties": {"ref": "TPSSI-1887GAWM", "@spider": "the_north_face", "addr:full": "1887 GRANT AVE", "addr:city": "WINNIPEG", "addr:state": "MB", "addr:postcode": "R3N 1Z2", "addr:country": "CA", "name": "THE NORTH FACE", "phone": "204-284-8631", "website": "http://thenorthfacewinnipeg.ca", "brand": "The North Face"}, "geometry": {"type": "Point", "coordinates": [-97.2047, 49.85722]}},
{"type": "Feature", "id": "ywemP-IgCBsboaXRvnQ6VZgRDbQ=", "properties": {"ref": "BMRL-138MRBMO-2", "@spider": "the_north_face", "addr:full": "190 Jozo Weider Blvd", "addr:city": "BLUE MOUNTAINS", "addr:state": "ON", "addr:postcode": "L9Y 3Z2", "addr:country": "CA", "name": "THE NORTH FACE BLUE MOUNTAIN", "website": "http://thenorthfacebluemountain.ca", "brand": "The North Face"}, "geometry": {"type": "Point", "coordinates": [-80.3097076057523, 44.5056215291877]}},
{"type": "Feature", "id": "rrNUqXRd-fvqmyBaIneC6jEZ9lI=", "properties": {"ref": "USA35", "@spider": "the_north_face", "addr:full": "802 West Idaho Street", "addr:city": "Boise", "addr:state": "ID", "addr:postcode": "83702", "addr:country": "US", "name": "The North Face Boise", "phone": "(208) 331-9790", "brand": "The North Face"}, "geometry": {"type": "Point", "coordinates": [-116.202774693878, 43.616382244898]}},
{"type": "Feature", "id": "pINclZux73Pl9ZsqfRqqw7i-A0g=", "properties": {"ref": "USA531", "@spider": "the_north_face", "addr:full": "140 Christiana Mall", "addr:city": "Newark", "addr:state": "DE", "addr:postcode": "19702", "addr:country": "US", "name": "The North Face Christiana Mall", "phone": "302-318-0064", "website": "http://stores.thenorthface.com/de/newark/USA531/", "brand": "The North Face"}, "geometry": {"type": "Point", "coordinates": [-75.65214, 39.67853]}},
{"type": "Feature", "id": "6yFt45TV2ffVBDYPs4vo3Dbph5o=", "properties": {"ref": "USA316", "@spider": "the_north_face", "addr:full": "18 W. Lightcap Road", "addr:city": "Pottstown", "addr:state": "PA", "addr:postcode": "19464", "addr:country": "US", "name": "The North Face Philadelphia Premium Outlets", "phone": "(610) 323-6575", "brand": "The North Face"}, "geometry": {"type": "Point", "coordinates": [-75.57426, 40.23539]}},
{"type": "Feature", "id": "tNHEuWMIyrzesJmN3ZbEytXqfok=", "properties": {"ref": "USA58", "@spider": "the_north_face", "addr:full": "240 High Street Ext.", "addr:city": "Victor", "addr:state": "NY", "addr:postcode": "14564", "addr:country": "US", "name": "The North Face Rochester", "phone": "(585) 398-2477", "brand": "The North Face"}, "geometry": {"type": "Point", "coordinates": [-77.4381884, 43.0262215]}},
{"type": "Feature", "id": "gsr0hFPMIMOPMp7YjZyxR0kbEKM=", "properties": {"ref": "USA29", "@spider": "the_north_face", "addr:full": "160 North Gulph Road", "addr:city": "King of Prussia", "addr:state": "PA", "addr:postcode": "19406", "addr:country": "US", "name": "The North Face King of Prussia", "phone": "(610) 337-1773", "brand": "The North Face"}, "geometry": {"type": "Point", "coordinates": [-75.39342, 40.08539]}},
{"type": "Feature", "id": "ERWL0mT0MrwgKT_mnjnM2Yz6uI8=", "properties": {"ref": "USA41", "@spider": "the_north_face", "addr:full": "1515 Walnut Street", "addr:city": "Philadelphia", "addr:state": "PA", "addr:postcode": "19102", "addr:country": "US", "name": "The North Face Philadelphia", "phone": "(215) 496-0332", "brand": "The North Face"}, "geometry": {"type": "Point", "coordinates": [-75.16675, 39.94965]}},
{"type": "Feature", "id": "nEz-jud-4KqW3riTpvWahLjkXdg=", "properties": {"ref": "TPSSI-3425VAERS", "@spider": "the_north_face", "addr:full": "2018 Park Street", "addr:city": "REGINA", "addr:state": "SK", "addr:postcode": "S4N 2G6", "addr:country": "CA", "name": "THE NORTH FACE", "phone": "306-586-8631", "website": "http://thenorthfaceregina.ca", "brand": "The North Face"}, "geometry": {"type": "Point", "coordinates": [-104.5723345, 50.44676125]}},
{"type": "Feature", "id": "-5ZObu3VYHiqaSJUDYdn5fRo0Qs=", "properties": {"ref": "USA533", "@spider": "the_north_face", "addr:full": "2000 Route 38, Space 1775", "addr:city": "Cherry Hill", "addr:state": "NJ", "addr:postcode": "08002", "addr:country": "US", "name": "The North Face Cherry Hill Mall", "phone": "(856) 333-3042", "brand": "The North Face"}, "geometry": {"type": "Point", "coordinates": [-75.0233144339768, 39.9409833880768]}},
{"type": "Feature", "id": "RrmJHhe_ko8QHS45tN76-In4OFA=", "properties": {"ref": "USA308", "@spider": "the_north_face", "addr:full": "1000 Premium Outlets Drive", "addr:city": "Tannersville", "addr:state": "PA", "addr:postcode": "18372", "addr:country": "US", "name": "The North Face The Crossings Premium Outlets", "phone": "(570) 620-3025", "brand": "The North Face"}, "geometry": {"type": "Point", "coordinates": [-75.3125459, 41.0479573]}},
{"type": "Feature", "id": "f598gE0I28L1y3VLIhh4CUETOdc=", "properties": {"ref": "USA21", "@spider": "the_north_face", "addr:full": "2855 Stevens Creek Boulevard", "addr:city": "Santa Clara", "addr:state": "CA", "addr:postcode": "95050", "addr:country": "US", "name": "The North Face Westfield Valley Fair Mall", "phone": "(408) 553-0190", "brand": "The North Face"}, "geometry": {"type": "Point", "coordinates": [-121.945868787879, 37.32345]}},
{"type": "Feature", "id": "ZFQ12CjGIAgFZG-2coTzwwMxPAA=", "properties": {"ref": "USA517", "@spider": "the_north_face", "addr:full": "180 El Camino Real", "addr:city": "Palo Alto", "addr:state": "CA", "addr:postcode": "94304", "addr:country": "US", "name": "The North Face Stanford Shopping Center", "phone": "(650) 289-9372", "brand": "The North Face"}, "geometry": {"type": "Point", "coordinates": [-122.169437346939, 37.4450073469388]}},
{"type": "Feature", "id": "CdugVnBnlnRiig3wKK_7EmZzI4c=", "properties": {"ref": "USA1", "@spider": "the_north_face", "addr:full": "180 Post Street", "addr:city": "San Francisco", "addr:state": "CA", "addr:postcode": "94108", "addr:country": "US", "name": "The North Face Post Street", "phone": "(415) 433-3223", "brand": "The North Face"}, "geometry": {"type": "Point", "coordinates": [-122.4050811, 37.7888711]}},
{"type": "Feature", "id": "LwC1VpXAKcyiGTxcwU3vmP3hCLs=", "properties": {"ref": "USA527", "@spider": "the_north_face", "addr:full": "584 Broadway B -103", "addr:city": "New York", "addr:state": "NY", "addr:postcode": "10012", "addr:country": "US", "name": "The North Face Soho", "phone": "212 -226-6094", "brand": "The North Face"}, "geometry": {"type": "Point", "coordinates": [-73.9972222, 40.7246715]}},
{"type": "Feature", "id": "DcdzB2pmEHeKBIfw0Oup1w3_UGI=", "properties": {"ref": "USA510", "@spider": "the_north_face", "addr:full": "1 Garden State Plaza", "addr:city": "Paramus", "addr:state": "NJ", "addr:postcode": "07652", "addr:country": "US", "name": "The North Face Westfield Garden State Plaza", "phone": "(201) 291-0540", "brand": "The North Face"}, "geometry": {"type": "Point", "coordinates": [-74.07902, 40.91475]}},
{"type": "Feature", "id": "crxPJyuDyx0uqZLmdgYoo4Ed01Y=", "properties": {"ref": "USA516", "@spider": "the_north_face", "addr:full": "510 Fifth Avenue", "addr:city": "New York", "addr:state": "NY", "addr:postcode": "10036", "addr:country": "US", "name": "The North Face Fifth Ave.", "phone": "(212) 221-1929", "brand": "The North Face"}, "geometry": {"type": "Point", "coordinates": [-73.9807004074097, 40.7542150182341]}},
{"type": "Feature", "id": "1Jn_HdiZYV1QpYtA5wFeyedD8X0=", "properties": {"ref": "USA12", "@spider": "the_north_face", "addr:full": "2101 Broadway", "addr:city": "New York", "addr:state": "NY", "addr:postcode": "10023", "addr:country": "US", "name": "The North Face Broadway", "phone": "212-362-1000", "brand": "The North Face"}, "geometry": {"type": "Point", "coordinates": [-73.98183, 40.77958]}},
{"type": "Feature", "id": "h2xf7L0Yhu0yTcbL7bqVetx_Zig=", "properties": {"ref": "USA28", "@spider": "the_north_face", "addr:full": "125 Westchester Avenue", "addr:city": "White Plains", "addr:state": "NY", "addr:postcode": "10601", "addr:country": "US", "name": "The North Face The Westchester", "phone": "(914) 644-1750", "brand": "The North Face"}, "geometry": {"type": "Point", "coordinates": [-73.75976, 41.03248]}},
{"type": "Feature", "id": "6sNNey1ISTnuUfVFWQfnc5E49RE=", "properties": {"ref": "TPSSI-6015SESS", "@spider": "the_north_face", "addr:full": "601 51st Street East", "addr:city": "SASKATOON", "addr:state": "SK", "addr:postcode": "S7K 7J7", "addr:country": "CA", "name": "THE NORTH FACE", "website": "http://thenorthfacesaskatoon.ca", "brand": "The North Face"}, "geometry": {"type": "Point", "coordinates": [-106.66059, 52.17299]}},
{"type": "Feature", "id": "Zs1MmBExAdmsn0Qzoj-juvhH72E=", "properties": {"ref": "USA509", "@spider": "the_north_face", "addr:full": "519 Westfarms Mall", "addr:city": "Farmington", "addr:state": "CT", "addr:postcode": "06032", "addr:country": "US", "name": "The North Face Westfarms Shopping Mall", "phone": "(860) 313-0537", "brand": "The North Face"}, "geometry": {"type": "Point", "coordinates": [-72.7610992703863, 41.7239726752504]}},
{"type": "Feature", "id": "u7UakFA5mFNOeAzaor3tS5bWeYM=", "properties": {"ref": "USA47", "@spider": "the_north_face", "addr:full": "714 West Main Street", "addr:city": "Spokane", "addr:state": "WA", "addr:postcode": "99201", "addr:country": "US", "name": "The North Face River Park Square", "phone": "509-747-5389", "brand": "The North Face"}, "geometry": {"type": "Point", "coordinates": [-117.4228306, 47.6593669]}},
{"type": "Feature", "id": "I9IV6rjZKSsWw93CDYHeFwTmgcw=", "properties": {"ref": "USA508", "@spider": "the_north_face", "addr:full": "143 Providence Place", "addr:city": "Providence", "addr:state": "RI", "addr:postcode": "02903", "addr:country": "US", "name": "The North Face Providence Place", "phone": "(401) 228-3667", "brand": "The North Face"}, "geometry": {"type": "Point", "coordinates": [-71.4177764321608, 41.8277556281407]}},
{"type": "Feature", "id": "iBcsFSuA0db4_Y5e4OevwHtxOno=", "properties": {"ref": "CAN1263", "@spider": "the_north_face", "addr:full": "19001 Chemin Notre-Dame", "addr:city": "Mirabel", "addr:state": "QC", "addr:postcode": "J7J 0T1", "addr:country": "CA", "name": "The North Face Premium Outlets Montreal", "phone": "450-419-6994", "brand": "The North Face"}, "geometry": {"type": "Point", "coordinates": [-73.9147, 45.67489]}},
{"type": "Feature", "id": "axGYV2aeuxkx1xwPMFP1Z7PUUc0=", "properties": {"ref": "BTNF-4924SSWMQ", "@spider": "the_north_face", "addr:full": "4924 SHERBROOKE ST W", "addr:city": "Westmount", "addr:state": "QC", "addr:postcode": "H3Z 1H3", "addr:country": "CA", "name": "THE NORTH FACE WESTMOUNT", "phone": "514-489-1517", "website": "http://thenorthfacemontreal.ca", "brand": "The North Face"}, "geometry": {"type": "Point", "coordinates": [-73.6045293877551, 45.4780273469388]}},
{"type": "Feature", "id": "8Ht1a1bN-QP9kFPrY6GqiEgQKYU=", "properties": {"ref": "CAN1213", "@spider": "the_north_face", "addr:full": "1247 Ste Catherine  West", "addr:city": "Montreal", "addr:state": "QC", "addr:postcode": "H3G 1P3", "addr:country": "CA", "name": "The North Face - Montreal", "phone": "514-284-1113", "brand": "The North Face"}, "geometry": {"type": "Point", "coordinates": [-73.5745627272727, 45.4983390909091]}},
{"type": "Feature", "id": "Qasqlqu9EtIQpV8R-VceAklzdSc=", "properties": {"ref": "USA23", "@spider": "the_north_face", "addr:full": "1245 Worcester Street", "addr:city": "Natick", "addr:state": "MA", "addr:postcode": "01760", "addr:country": "US", "name": "The North Face Natick Mall", "phone": "(508) 651-7676", "brand": "The North Face"}, "geometry": {"type": "Point", "coordinates": [-71.38522, 42.29922]}},
{"type": "Feature", "id": "BBlbTYXIGQ_L3yyyCB8WFhv3GFk=", "properties": {"ref": "AUSOM-9140LBS120", "@spider": "the_north_face", "addr:full": "9140 LEDUC BLVD", "addr:city": "BROSSARD", "addr:state": "QC", "addr:postcode": "J4Y 0L2", "addr:country": "CA", "name": "THE NORTH FACE BROSSARD", "phone": "450-462-9898", "brand": "The North Face"}, "geometry": {"type": "Point", "coordinates": [-73.439702979128, 45.4462447926275]}},
{"type": "Feature", "id": "OYj6AOKEdfDea6G98RCrANPx0cU=", "properties": {"ref": "USA53", "@spider": "the_north_face", "addr:full": "250 Granite Street", "addr:city": "Braintree", "addr:state": "MA", "addr:postcode": "02184", "addr:country": "US", "name": "The North Face South Shore Plaza", "phone": "(781) 848-1000", "brand": "The North Face"}, "geometry": {"type": "Point", "coordinates": [-71.02807, 42.2205]}},
{"type": "Feature", "id": "PZxK-73zF8Zla09p1xJN1put68o=", "properties": {"ref": "USA14", "@spider": "the_north_face", "addr:full": "326 Newbury Street", "addr:city": "Boston", "addr:state": "MA", "addr:postcode": "02115", "addr:country": "US", "name": "The North Face Boston", "phone": "(617) 536-8060", "brand": "The North Face"}, "geometry": {"type": "Point", "coordinates": [-71.0859673684211, 42.3486631578947]}},
{"type": "Feature", "id": "E0hSE0eMya4UAoTROjHvMYHU3MU=", "properties": {"ref": "USA39", "@spider": "the_north_face", "addr:full": "210 Andover Street", "addr:city": "Peabody", "addr:state": "MA", "addr:postcode": "01960", "addr:country": "US", "name": "The North Face Northshore Mall", "phone": "(978) 531-2211", "brand": "The North Face"}, "geometry": {"type": "Point", "coordinates": [-70.943273, 42.5396335]}},
{"type": "Feature", "id": "FnWB5oIabMJVcrf8vEQzE7KqMhU=", "properties": {"ref": "TNF-124BABA", "@spider": "the_north_face", "addr:full": "124 BANFF AVE", "addr:city": "BANFF", "addr:state": "AB", "addr:postcode": "T1L 1A4", "addr:country": "CA", "name": "THE NORTH FACE", "phone": "403-762-0775", "website": "http://thenorthfacebanff.ca", "brand": "The North Face"}, "geometry": {"type": "Point", "coordinates": [-115.571118571429, 51.1749242857143]}},
{"type": "Feature", "id": "cFjbTlmeLr7FW01E2MNxnB0QpvU=", "properties": {"ref": "USA16", "@spider": "the_north_face", "addr:full": "1202 NW Davis Street", "addr:city": "Portland", "addr:state": "OR", "addr:postcode": "97209", "addr:country": "US", "name": "The North Face Portland", "phone": "(503) 727-0200", "brand": "The North Face"}, "geometry": {"type": "Point", "coordinates": [-122.683210612245, 45.5243695918367]}},
{"type": "Feature", "id": "sdMwGuJcUaXi4qiDfD0eqWXIcx0=", "properties": {"ref": "USA49", "@spider": "the_north_face", "addr:full": "1001 Bellevue Square", "addr:city": "Bellevue", "addr:state": "WA", "addr:postcode": "98004", "addr:country": "US", "name": "The North Face Bellevue Square", "phone": "(425) 455-7349", "brand": "The North Face"}, "geometry": {"type": "Point", "coordinates": [-122.201713133208, 47.6170279924953]}},
{"type": "Feature", "id": "FF1TdxvU1QYaajJyGZ9g4Kz7Slk=", "properties": {"ref": "USA532", "@spider": "the_north_face", "addr:full": "520 Pike St.", "addr:city": "Seattle", "addr:state": "WA", "addr:postcode": "98101", "addr:country": "US", "name": "The North Face Pike Street", "phone": "206-467-4114", "brand": "The North Face"}, "geometry": {"type": "Point", "coordinates": [-122.3350376, 47.6113021]}},
{"type": "Feature", "id": "kj6HFFOCjEcLI4Pp9aK6-rjZEqE=", "properties": {"ref": "USA19", "@spider": "the_north_face", "addr:full": "2682 NE Village LN", "addr:city": "Seattle", "addr:state": "WA", "addr:postcode": "98105", "addr:country": "US", "name": "The North Face University Village", "phone": "(206) 525-8500", "brand": "The North Face"}, "geometry": {"type": "Point", "coordinates": [-122.297327692871, 47.6623683307947]}},
{"type": "Feature", "id": "1FK3VidseATHTDlN3z4pKF_Qak4=", "properties": {"ref": "CAN1214", "@spider": "the_north_face", "addr:full": "792 Granville Street", "addr:city": "Vancouver", "addr:state": "BC", "addr:postcode": "V6Z 1E4", "addr:country": "CA", "name": "The North Face - Granville Street", "phone": "604-687-4542", "website": "http://thenorthfacevancouver.ca", "brand": "The North Face"}, "geometry": {"type": "Point", "coordinates": [-123.119697755102, 49.2814367346939]}},
{"type": "Feature", "id": "m_4HHCWLmDxb0k_XpM4jP4B9ZD0=", "properties": {"ref": "TNFSM-C43AN7S170", "@spider": "the_north_face", "addr:full": "CARRERA 25A N\u00ba1A SUR - 45 LOCAL 1312", "addr:city": "MEDELLIN", "addr:state": "ANTIOQUIA", "addr:country": "CO", "name": "THE NORTH FACE EL TESORO", "phone": "57(094) 321 64 41", "brand": "The North Face"}, "geometry": {"type": "Point", "coordinates": [-75.5812119, 6.244203]}},
{"type": "Feature", "id": "kgxQfuqbQe2t3wO9tRF7kJRjLbY=", "properties": {"ref": "USA511", "@spider": "the_north_face", "addr:full": "305 W. 5th Avenue", "addr:city": "Anchorage", "addr:state": "AK", "addr:postcode": "99501", "addr:country": "US", "name": "The North Face Anchorage", "phone": "(907) 279-1480", "brand": "The North Face"}, "geometry": {"type": "Point", "coordinates": [-149.887648, 61.217805]}},
{"type": "Feature", "id": "KjmfYhu7g6vx8ccOXqHCmYGzsk0=", "properties": {"ref": "USA512", "@spider": "the_north_face", "addr:full": "1450 Ala Moana Boulevard", "addr:city": "Honolulu", "addr:state": "HI", "addr:postcode": "96814", "addr:country": "US", "name": "The North Face Ala Moana Center", "phone": "(808) 949-8502", "brand": "The North Face"}, "geometry": {"type": "Point", "coordinates": [-157.842793265306, 21.2894259183673]}},
{"type": "Feature", "id": "kagUhaV_tM46dKwnKqt4ikwoYBo=", "properties": {"ref": "USA83", "@spider": "the_north_face", "addr:full": "3939 I-35 S", "addr:city": "San Marcos", "addr:state": "TX", "addr:postcode": "78666", "addr:country": "US", "name": "The North Face San Marcos Premium Outlets", "phone": "(512) 392-6900", "brand": "The North Face"}, "geometry": {"type": "Point", "coordinates": [-97.9803606, 29.8287208]}},
{"type": "Feature", "id": "ofWZX_HqiBnMCwN2N0f-DQvjYIo=", "properties": {"ref": "USA323", "@spider": "the_north_face", "addr:full": "820 W. Stacy Rd.", "addr:city": "Allen", "addr:state": "TX", "addr:postcode": "75013", "addr:country": "US", "name": "The North Face Allen Premium Outlets", "phone": "(972) 678-0075", "brand": "The North Face"}, "geometry": {"type": "Point", "coordinates": [-96.661166, 33.1326412]}},
{"type": "Feature", "id": "QfHoaTRNI_FRFjCcu8GYQ62gvjs=", "properties": {"ref": "USA312", "@spider": "the_north_face", "addr:full": "7650 W. Reno Avenue", "addr:city": "Oklahoma City", "addr:state": "OK", "addr:postcode": "73127", "addr:country": "US", "name": "The North Face OKC Outlets", "phone": "(405) 491-2836", "brand": "The North Face"}, "geometry": {"type": "Point", "coordinates": [-97.6505538888889, 35.46416]}},
{"type": "Feature", "id": "OGt6aM7hkRziekbcOnIbPiY18Pg=", "properties": {"ref": "USA87", "@spider": "the_north_face", "addr:full": "10562 Emerald Coast Parkway", "addr:city": "Destin", "addr:state": "FL", "addr:postcode": "32550", "addr:country": "US", "name": "The North Face Silver Sands Premium Outlets", "phone": "(850) 654-9738", "brand": "The North Face"}, "geometry": {"type": "Point", "coordinates": [-86.3508638116781, 30.3778544402322]}},
{"type": "Feature", "id": "_AtOXcy198wttA94lmYTXvH8lro=", "properties": {"ref": "USA317", "@spider": "the_north_face", "addr:full": "21311 Nebraska Crossing Drive", "addr:city": "Gretna", "addr:state": "NE", "addr:postcode": "68028", "addr:country": "US", "name": "The North Face Nebraska Crossing Outlet", "phone": "(402) 332-0771", "brand": "The North Face"}, "geometry": {"type": "Point", "coordinates": [-96.249584, 41.0991796]}},
{"type": "Feature", "id": "GcgyCQHeq-E_IQ2q-pFVaRPRZdo=", "properties": {"ref": "USA80", "@spider": "the_north_face", "addr:full": "5050 Factory Shops Blvd.", "addr:city": "Castle Rock", "addr:state": "CO", "addr:postcode": "80108", "addr:country": "US", "name": "The North Face Outlets at Castle Rock", "phone": "303-814-6077", "brand": "The North Face"}, "geometry": {"type": "Point", "coordinates": [-104.875021637317, 39.4134030860895]}},
{"type": "Feature", "id": "-NVpDVF5cmstzf8R3lIeJ9JJM7A=", "properties": {"ref": "USA86", "@spider": "the_north_face", "addr:full": "800 Highway 400 South", "addr:city": "Dawsonville", "addr:state": "GA", "addr:postcode": "30534", "addr:country": "US", "name": "The North Face North Georgia Premium Outlets", "phone": "(706) 216-2499", "brand": "The North Face"}, "geometry": {"type": "Point", "coordinates": [-84.04577, 34.35644]}},
{"type": "Feature", "id": "tE-8_mNtuLejhptPbjJYnq1ImVE=", "properties": {"ref": "USA303", "@spider": "the_north_face", "addr:full": "1155 Buck Creek Road", "addr:city": "Simpsonville", "addr:state": "KY", "addr:postcode": "40067", "addr:country": "US", "name": "The North Face The Outlet Shoppes of the Bluegrass", "phone": "(502)722-5256", "brand": "The North Face"}, "geometry": {"type": "Point", "coordinates": [-85.3481191517907, 38.2004410311208]}},
{"type": "Feature", "id": "V24BsznpmwVuAB3YLIw4Bg-Ltzk=", "properties": {"ref": "USA306", "@spider": "the_north_face", "addr:full": "1645 Parkway", "addr:city": "Sevierville", "addr:state": "TN", "addr:postcode": "37862", "addr:country": "US", "name": "The North Face Tanger Outlets Sevierville", "phone": "(865) 774-0242", "brand": "The North Face"}, "geometry": {"type": "Point", "coordinates": [-83.5728343161561, 35.8330360137281]}},
{"type": "Feature", "id": "_A6k4LC5qJSS_zjrxOopm0fxGCA=", "properties": {"ref": "USA75", "@spider": "the_north_face", "addr:full": "633 Premium Outlets Drive", "addr:city": "Monroe", "addr:state": "OH", "addr:postcode": "45050", "addr:country": "US", "name": "The North Face Cincinnati Premium Outlets", "phone": "(513) 539-9368", "brand": "The North Face"}, "geometry": {"type": "Point", "coordinates": [-84.3387653, 39.4339883]}},
{"type": "Feature", "id": "VgDtZTJ4zV9X1nGVG8qAnw9lYsQ=", "properties": {"ref": "USA85", "@spider": "the_north_face", "addr:full": "8225 Vineland Ave", "addr:city": "Orlando", "addr:state": "FL", "addr:postcode": "32821", "addr:country": "US", "name": "The North Face Orlando Premium Outlets", "phone": "(407) 239-0255", "brand": "The North Face"}, "geometry": {"type": "Point", "coordinates": [-81.489541577193, 28.388789982722]}},
{"type": "Feature", "id": "LEIWnR9e2brGUPZ2jfMTsNGZMM8=", "properties": {"ref": "USA69", "@spider": "the_north_face", "addr:full": "4961 International Drive", "addr:city": "Orlando", "addr:state": "FL", "addr:postcode": "32819", "addr:country": "US", "name": "The North Face Orlando International Premium Outlets", "phone": "(407) 248-1277", "brand": "The North Face"}, "geometry": {"type": "Point", "coordinates": [-81.4491310487953, 28.4745737327056]}},
{"type": "Feature", "id": "r1UAUtuQHLjbySQiFppYnTjeyhs=", "properties": {"ref": "USA307", "@spider": "the_north_face", "addr:full": "1201 Lighthouse Place", "addr:city": "Michigan City", "addr:state": "IN", "addr:postcode": "46360", "addr:country": "US", "name": "The North Face Lighthouse Place Premium Outlets", "phone": "(219) 878-1909", "brand": "The North Face"}, "geometry": {"type": "Point", "coordinates": [-86.90617, 41.71726]}},
{"type": "Feature", "id": "_QMFcBf1upgcns4mRMOd9ci_SgE=", "properties": {"ref": "USA73", "@spider": "the_north_face", "addr:full": "11601 108th St., Space 577", "addr:city": "Pleasant Prairie", "addr:state": "WI", "addr:postcode": "53158", "addr:country": "US", "name": "The North Face Pleasant Prairie Premium Outlets", "phone": "(262) 857-1188", "brand": "The North Face"}, "geometry": {"type": "Point", "coordinates": [-87.9483569, 42.5175843]}},
{"type": "Feature", "id": "zdHDYzH7iUSLUzn3sQhePyomgqg=", "properties": {"ref": "USA324", "@spider": "the_north_face", "addr:full": "1414 Fording Island Rd.", "addr:city": "Bluffton", "addr:state": "SC", "addr:postcode": "29910", "addr:country": "US", "name": "The North Face Tanger Outlets Hilton Head", "phone": "(843) 815-7717", "brand": "The North Face"}, "geometry": {"type": "Point", "coordinates": [-80.8182712, 32.238984]}},
{"type": "Feature", "id": "q8B6gvh0LC5cofNcTr8qa5htxMI=", "properties": {"ref": "USA325", "@spider": "the_north_face", "addr:full": "4840 Tanger Outlet Boulevard", "addr:city": "North Charleston", "addr:state": "SC", "addr:postcode": "29418", "addr:country": "US", "name": "The North Face Tanger Outlets at Charleston", "phone": "(843) 747-0313", "brand": "The North Face"}, "geometry": {"type": "Point", "coordinates": [-80.01630092051, 32.8743469255344]}},
{"type": "Feature", "id": "c2h8itIAYHQFhO9zl0WeUYYlwT4=", "properties": {"ref": "USA315", "@spider": "the_north_face", "addr:full": "6415 Labeaux Avenue NE", "addr:city": "Albertville", "addr:state": "MN", "addr:postcode": "55301", "addr:country": "US", "name": "The North Face Albertville Premium Outlets", "phone": "(763) 497-0066", "brand": "The North Face"}, "geometry": {"type": "Point", "coordinates": [-93.66339, 45.24444]}},
{"type": "Feature", "id": "z6vFifZF67FCM0QZio0cI-am4MM=", "properties": {"ref": "USA322", "@spider": "the_north_face", "addr:full": "3001 S. Washburn St., Space A50", "addr:city": "Oshkosh", "addr:state": "WI", "addr:postcode": "54904", "addr:country": "US", "name": "The North Face The Outlet Shoppes at Oshkosh", "phone": "(920) 235-0470", "brand": "The North Face"}, "geometry": {"type": "Point", "coordinates": [-88.583304511185, 43.9833675801315]}},
{"type": "Feature", "id": "fLy68Nab9kINIMetoj_3Bmqo2lk=", "properties": {"ref": "USA314", "@spider": "the_north_face", "addr:full": "525 S Grand Central Parkway", "addr:city": "Las Vegas", "addr:state": "NV", "addr:postcode": "89106", "addr:country": "US", "name": "The North Face Las Vegas North Premium Outlets", "phone": "(702) 380-4259", "brand": "The North Face"}, "geometry": {"type": "Point", "coordinates": [-115.155740317856, 36.1659401024115]}},
{"type": "Feature", "id": "NKA6i79FHOzSXsjBloA2Lmc5Z44=", "properties": {"ref": "USA301", "@spider": "the_north_face", "addr:full": "12801 W Sunrise", "addr:city": "Sunrise", "addr:state": "FL", "addr:postcode": "33323", "addr:country": "US", "name": "The North Face Sawgrass Mills Outlet", "phone": "(954) 835-9430", "brand": "The North Face"}, "geometry": {"type": "Point", "coordinates": [-80.3216719, 26.1508777]}},
{"type": "Feature", "id": "CCh-bWlLGNlN64IJfz0GpPaDNnc=", "properties": {"ref": "USA82", "@spider": "the_north_face", "addr:full": "10827 Kings Road", "addr:city": "Myrtle Beach", "addr:state": "SC", "addr:postcode": "29572", "addr:country": "US", "name": "The North Face Tanger Outlets Myrtle Beach Hwy 17", "phone": "(843) 213-0860", "brand": "The North Face"}, "geometry": {"type": "Point", "coordinates": [-78.7703612249139, 33.7847748996556]}},
{"type": "Feature", "id": "ufICNc1NWlWVfiFp1Vnpa_I_jlk=", "properties": {"ref": "USA311", "@spider": "the_north_face", "addr:full": "48650 Seminole Drive", "addr:city": "Cabazon", "addr:state": "CA", "addr:postcode": "92230", "addr:country": "US", "name": "The North Face Desert Hills Premium Outlets", "phone": "(951) 849-1261", "brand": "The North Face"}, "geometry": {"type": "Point", "coordinates": [-116.814662571429, 33.9274565714286]}},
{"type": "Feature", "id": "xDAn_F8vaCGDJHqwba2ct2dTNnY=", "properties": {"ref": "USA302", "@spider": "the_north_face", "addr:full": "4321 Camino De La Plaza", "addr:city": "San Diego", "addr:state": "CA", "addr:postcode": "92173", "addr:country": "US", "name": "The North Face Las Americas Premium Outlets", "phone": "(619) 662-4613", "brand": "The North Face"}, "geometry": {"type": "Point", "coordinates": [-117.0396392, 32.543206]}},
{"type": "Feature", "id": "oIFno44Sd9r5vI6XV_Hjb19QVo0=", "properties": {"ref": "USA68", "@spider": "the_north_face", "addr:full": "12150 Beyer Road", "addr:city": "Birch Run", "addr:state": "MI", "addr:postcode": "48415", "addr:country": "US", "name": "The North Face Birch Run Premium Outlets", "phone": "(989) 624-3000", "brand": "The North Face"}, "geometry": {"type": "Point", "coordinates": [-83.7798193, 43.2474789]}},
{"type": "Feature", "id": "RXFdGVSrN2cGzEEohSnH7Ltxcdo=", "properties": {"ref": "USA305", "@spider": "the_north_face", "addr:full": "549 S Chillicothe Road", "addr:city": "Aurora", "addr:state": "OH", "addr:postcode": "44202", "addr:country": "US", "name": "The North Face Aurora Farms Premium Outlets", "phone": "(330) 995-2222", "brand": "The North Face"}, "geometry": {"type": "Point", "coordinates": [-81.3455940956005, 41.3024690344799]}},
{"type": "Feature", "id": "1bu8YEgju05kCCebssUhVFx7x6Q=", "properties": {"ref": "USA318", "@spider": "the_north_face", "addr:full": "4410 Mills Circle", "addr:city": "Ontario", "addr:state": "CA", "addr:postcode": "91764", "addr:country": "US", "name": "The North Face Outlet Ontario Mills", "phone": "(909) 476-6490", "brand": "The North Face"}, "geometry": {"type": "Point", "coordinates": [-117.55511, 34.07085]}},
{"type": "Feature", "id": "0pvq6nd22PKTUoOIwMtK_5_IDDk=", "properties": {"ref": "USA79", "@spider": "the_north_face", "addr:full": "1911 Leesburg Grove City Road", "addr:city": "Grove City", "addr:state": "PA", "addr:postcode": "16127", "addr:country": "US", "name": "The North Face Grove City Premium Outlets", "phone": "(724) 748-9159", "brand": "The North Face"}, "geometry": {"type": "Point", "coordinates": [-80.15826, 41.1434288888889]}},
{"type": "Feature", "id": "u0TqxNFREnWDezAQH1Fqrf62tB4=", "properties": {"ref": "USA76", "@spider": "the_north_face", "addr:full": "950 Camarillo Center Drive", "addr:city": "Camarillo", "addr:state": "CA", "addr:postcode": "93010", "addr:country": "US", "name": "The North Face Camarillo Premium Outlets", "phone": "(805) 484-4010", "brand": "The North Face"}, "geometry": {"type": "Point", "coordinates": [-119.0573173, 34.214021]}},
{"type": "Feature", "id": "3W95orwUapcGAnTC271MFGjxYM8=", "properties": {"ref": "USA310", "@spider": "the_north_face", "addr:full": "2700 Potomac Mills Circle", "addr:city": "Woodbridge", "addr:state": "VA", "addr:postcode": "22192", "addr:country": "US", "name": "The North Face Potomac Mills Outlet", "phone": "(703) 494-6301", "brand": "The North Face"}, "geometry": {"type": "Point", "coordinates": [-77.2995593884602, 38.6451412230796]}},
{"type": "Feature", "id": "qzOqwmgYnPmqYzFITCcKA4InAtc=", "properties": {"ref": "USA77", "@spider": "the_north_face", "addr:full": "5715-66A Richmond Road", "addr:city": "Williamsburg", "addr:state": "VA", "addr:postcode": "23188", "addr:country": "US", "name": "The North Face Williamsburg Premium Outlets", "phone": "(757) 253-8620", "brand": "The North Face"}, "geometry": {"type": "Point", "coordinates": [-76.739468, 37.32192]}},
{"type": "Feature", "id": "Yf903Nu7VqRMUJpb1doq_jrcxEE=", "properties": {"ref": "USA84", "@spider": "the_north_face", "addr:full": "495 Premium Outlets Blvd", "addr:city": "Hagerstown", "addr:state": "MD", "addr:postcode": "21740", "addr:country": "US", "name": "The North Face Hagerstown Premium Outlets", "phone": "(301) 745-9676", "brand": "The North Face"}, "geometry": {"type": "Point", "coordinates": [-77.7346928, 39.6070289]}},
{"type": "Feature", "id": "PL5xIlhDQqbzxn4FykNm-ccg2rU=", "properties": {"ref": "USA328", "@spider": "the_north_face", "addr:full": "1600 Premium Outlets Boulevard", "addr:city": "Norfolk", "addr:state": "VA", "addr:postcode": "23502", "addr:country": "US", "name": "The North Face Norfolk Premium Outlets", "phone": "(757) 966-2800", "brand": "The North Face"}, "geometry": {"type": "Point", "coordinates": [-76.1994414, 36.882108]}},
{"type": "Feature", "id": "DwGM2g4V-R6mpMQBIuMDYoEkACM=", "properties": {"ref": "CAN1260", "@spider": "the_north_face", "addr:full": "1 Bass Pro Mills Drive", "addr:city": "Vaughan", "addr:state": "ON", "addr:postcode": "L4K 5W4", "addr:country": "CA", "name": "The North Face Vaughn Mills Outlet", "phone": "(905) 760-0088", "brand": "The North Face"}, "geometry": {"type": "Point", "coordinates": [-79.53323, 43.82275]}},
{"type": "Feature", "id": "C5_KbycLt_3gvOrI_IrIy1B9DW0=", "properties": {"ref": "USA329", "@spider": "the_north_face", "addr:full": "1295 Stanley K Tanger Drive", "addr:city": "Lancaster", "addr:state": "PA", "addr:postcode": "17602", "addr:country": "US", "name": "The North Face Tanger Outlets Lancaster", "phone": "(717) 291-5475", "brand": "The North Face"}, "geometry": {"type": "Point", "coordinates": [-76.22172, 40.02412]}},
{"type": "Feature", "id": "GXMUWphvxn0aE8UvLtALKHz_ID8=", "properties": {"ref": "USA321", "@spider": "the_north_face", "addr:full": "36706 Bayside Outlet Drive", "addr:city": "Rehoboth Beach", "addr:state": "DE", "addr:postcode": "19971", "addr:country": "US", "name": "The North Face Tanger Outlets Rehoboth Beach", "phone": "(302) 227-3203", "brand": "The North Face"}, "geometry": {"type": "Point", "coordinates": [-75.1100258585859, 38.7155745454545]}},
{"type": "Feature", "id": "rwInL2uVm7qoLwlbm4AyMeMeLgU=", "properties": {"ref": "USA81", "@spider": "the_north_face", "addr:full": "8555 San Ysidro Ave.", "addr:city": "Gilroy", "addr:state": "CA", "addr:postcode": "95020", "addr:country": "US", "name": "The North Face Gilroy Premium Outlets", "phone": "(408) 842-8242", "brand": "The North Face"}, "geometry": {"type": "Point", "coordinates": [-121.56645, 37.02579]}},
{"type": "Feature", "id": "OkoXRjxJ8F9ivRKRRL9kDe7_YVE=", "properties": {"ref": "USA313", "@spider": "the_north_face", "addr:full": "3790 Livermore Outlets Drive", "addr:city": "Livermore", "addr:state": "CA", "addr:postcode": "94551", "addr:country": "US", "name": "The North Face San Francisco Premium Outlets", "phone": "(925) 454-0546", "brand": "The North Face"}, "geometry": {"type": "Point", "coordinates": [-121.8411432, 37.699383]}},
{"type": "Feature", "id": "mJOBKi5y1ovK6zhhuO5x7mrkoVs=", "properties": {"ref": "USA304", "@spider": "the_north_face", "addr:full": "366 Nut Tree Road", "addr:city": "Vacaville", "addr:state": "CA", "addr:postcode": "95687", "addr:country": "US", "name": "The North Face Vacaville Premium Outlets", "phone": "(707) 448-8631", "brand": "The North Face"}, "geometry": {"type": "Point", "coordinates": [-121.953258349575, 38.3665180111595]}},
{"type": "Feature", "id": "51iF-veriKzlPGUeKeD_ivdNAA8=", "properties": {"ref": "USA60", "@spider": "the_north_face", "addr:full": "1238 Fifth Street", "addr:city": "Berkeley", "addr:state": "CA", "addr:postcode": "94710", "addr:country": "US", "name": "The North Face Outlet Berkeley", "phone": "(510) 526-3530", "brand": "The North Face"}, "geometry": {"type": "Point", "coordinates": [-122.302806734694, 37.8802214285714]}},
{"type": "Feature", "id": "9KxzTqtQPgVicHUSFY4k9P2D1tU=", "properties": {"ref": "USA64", "@spider": "the_north_face", "addr:full": "461 Dune Road", "addr:city": "Central Valley", "addr:state": "NY", "addr:postcode": "10917", "addr:country": "US", "name": "The North Face Woodbury Common Premium Outlets", "phone": "(845) 928-4900", "website": "https://www.thenorthface.com/", "brand": "The North Face"}, "geometry": {"type": "Point", "coordinates": [-74.1268196, 41.3175761]}},
{"type": "Feature", "id": "r8LSatbKxPrHNvlrNPgQcQt9Lyw=", "properties": {"ref": "USA319", "@spider": "the_north_face", "addr:full": "1222 Tanger Mall Dr", "addr:city": "Riverhead", "addr:state": "NY", "addr:postcode": "11901", "addr:country": "US", "name": "The North Face Tanger Outlets Riverhead", "phone": "(631) 369-2148", "brand": "The North Face"}, "geometry": {"type": "Point", "coordinates": [-72.7153849113007, 40.9193270532196]}},
{"type": "Feature", "id": "7eqaiabIioJveBE7gpUZKlgE4Dc=", "properties": {"ref": "USA74", "@spider": "the_north_face", "addr:full": "1001 Arney Road", "addr:city": "Woodburn", "addr:state": "OR", "addr:postcode": "97071", "addr:country": "US", "name": "The North Face Woodburn Premium Outlets", "phone": "(503) 982-5060", "brand": "The North Face"}, "geometry": {"type": "Point", "coordinates": [-122.878148791729, 45.1541812082711]}},
{"type": "Feature", "id": "3ZylJjZj_4Qz0cFO6S8hi4rUVq0=", "properties": {"ref": "USA88", "@spider": "the_north_face", "addr:full": "1500 SE East Devils Lake Road", "addr:city": "Lincoln City", "addr:state": "OR", "addr:postcode": "97367", "addr:country": "US", "name": "The North Face Lincoln City Outlet", "phone": "(541) 996-7588", "brand": "The North Face"}, "geometry": {"type": "Point", "coordinates": [-124.010838, 44.9581101]}},
{"type": "Feature", "id": "t0moH5SlXinGuH3LYOdaquQXV_4=", "properties": {"ref": "WMK-489BAKB-2", "@spider": "the_north_face", "addr:full": "489 BERNARD AVE", "addr:city": "KELOWNA", "addr:state": "BC", "addr:postcode": "V1Y 6N8", "addr:country": "CA", "name": "THE NORTH FACE", "brand": "The North Face"}, "geometry": {"type": "Point", "coordinates": [-119.493706122449, 49.8863089795918]}},
{"type": "Feature", "id": "0ctKi70_Sxp8s1mIDbPUOO3ZeQc=", "properties": {"ref": "USA62", "@spider": "the_north_face", "addr:full": "5 Bow Street", "addr:city": "Freeport", "addr:state": "ME", "addr:postcode": "04032", "addr:country": "US", "name": "The North Face Freeport Maine Outlet", "phone": "(207) 865-0300", "brand": "The North Face"}, "geometry": {"type": "Point", "coordinates": [-70.1024320361675, 43.857186814467]}},
{"type": "Feature", "id": "wBQoFtnPwaVJC0twJaSGU2NOmhc=", "properties": {"ref": "USA78", "@spider": "the_north_face", "addr:full": "10600 Quil Ceda Blvd.", "addr:city": "Tulalip", "addr:state": "WA", "addr:postcode": "98271", "addr:country": "US", "name": "The North Face Seattle Premium Outlets", "phone": "360 716 3300", "brand": "The North Face"}, "geometry": {"type": "Point", "coordinates": [-122.18563, 48.09168]}},
{"type": "Feature", "id": "753jXK3zoDs0CXeqHo644qj2j8Y=", "properties": {"ref": "CAN1262", "@spider": "the_north_face", "addr:full": "7899 Templeton Station Road", "addr:city": "Richmond", "addr:state": "BC", "addr:postcode": "V7B 0B7", "addr:country": "CA", "name": "The North Face McArthur Glen Designer Outlet", "phone": "604-257-2950", "brand": "The North Face"}, "geometry": {"type": "Point", "coordinates": [-123.1414861, 49.1976072]}}]}