{"type":"FeatureCollection","features":[{"type": "Feature", "id": "8Uxsxe19ANBoFrKOYxpafNQBlG8=", "properties": {"ref": "1576557", "@spider": "the_keg_steakhouse", "addr:full": "2142 West Railway St", "addr:city": "Abbotsford", "addr:state": "BC", "addr:postcode": "V2S 2E2", "addr:country": "CA", "name": "The Keg Steakhouse + Bar - Abbotsford", "phone": "604-855-9893", "website": "https://www.kegsteakhouse.com/locations/abbotsford-keg", "opening_hours": "Mo-Th 17:00-22:00; Fr 16:30-23:00; Sa 16:00-23:00; Su 16:00-21:30", "brand": "The Keg Steakhouse"}, "geometry": {"type": "Point", "coordinates": [-122.278675, 49.041734]}},
{"type": "Feature", "id": "L16bLIXeEa1MXJ81U-pNwnDEiS8=", "properties": {"ref": "1261309", "@spider": "the_keg_steakhouse", "addr:full": "190 Kingston Rd E", "addr:city": "Ajax", "addr:state": "ON", "addr:postcode": "L1Z 0C7", "addr:country": "CA", "name": "The Keg Steakhouse + Bar - Ajax", "phone": "905-428-8600", "website": "https://www.kegsteakhouse.com/locations/?search=ajax", "opening_hours": "Mo-Th 16:00-00:00; Fr 16:00-01:00; Sa 15:00-01:00; Su 15:00-23:00", "brand": "The Keg Steakhouse"}, "geometry": {"type": "Point", "coordinates": [-79.0129, 43.86419]}},
{"type": "Feature", "id": "75_1Fd40xU_d09gje5a_OND-l8E=", "properties": {"ref": "1253450", "@spider": "the_keg_steakhouse", "addr:full": "4001 Arlington Highlands Blvd", "addr:city": "Arlington", "addr:state": "TX", "addr:postcode": "76018", "addr:country": "US", "name": "The Keg Steakhouse + Bar - Arlington", "phone": "817-465-3700", "website": "https://www.kegsteakhouse.com/locations/?search=arlington", "opening_hours": "Mo-Sa 16:00-23:00; Su 16:00-22:00", "brand": "The Keg Steakhouse"}, "geometry": {"type": "Point", "coordinates": [-97.1083284055, 32.6797556518]}},
{"type": "Feature", "id": "WpiKtBMgVwuz_5qUU5S2RV1Ul5A=", "properties": {"ref": "1585219", "@spider": "the_keg_steakhouse", "addr:full": "106 First Commerce Dr", "addr:city": "Aurora", "addr:state": "ON", "addr:postcode": "L4G 0H5", "addr:country": "CA", "name": "The Keg Steakhouse + Bar - Aurora", "phone": "905-713-0534", "website": "https://www.kegsteakhouse.com/locations/?search=arlington", "opening_hours": "Mo-We 16:00-00:00; Th 16:00-01:00; Fr-Sa 15:00-01:00; Su 15:00-23:00", "brand": "The Keg Steakhouse"}, "geometry": {"type": "Point", "coordinates": [-79.4157, 44.01378]}},
{"type": "Feature", "id": "rTb_0Q4t0wooXCvwlkLmZu6vLkY=", "properties": {"ref": "1372760", "@spider": "the_keg_steakhouse", "addr:full": "521 Banff Ave", "addr:city": "Banff", "addr:state": "AB", "addr:postcode": "T1L 1A4", "addr:country": "CA", "name": "The Keg Steakhouse + Bar - Banff Caribou", "phone": "403-762-4442", "website": "https://www.kegsteakhouse.com/locations/?search=Bamalea", "opening_hours": "Mo-Th 06:30-22:00; Fr-Sa 06:30-22:30; Su 06:30-22:00", "brand": "The Keg Steakhouse"}, "geometry": {"type": "Point", "coordinates": [-115.56168, 51.18391]}},
{"type": "Feature", "id": "w7qDlzuVWvzqK-1Wj7bFU32gH28=", "properties": {"ref": "1372759", "@spider": "the_keg_steakhouse", "addr:full": "117 Banff Ave", "addr:city": "Banff", "addr:state": "AB", "addr:postcode": "T1L 1A4", "addr:country": "CA", "name": "The Keg Steakhouse + Bar - Banff Downtown", "phone": "403-760-3030", "website": "https://www.kegsteakhouse.com/locations/?search=Banff%20Downtown", "opening_hours": "Mo-Su 16:00-22:00", "brand": "The Keg Steakhouse"}, "geometry": {"type": "Point", "coordinates": [-115.571135, 51.17475]}},
{"type": "Feature", "id": "DhtOQOpp9VaU9gZ-9c_OGfHkdEA=", "properties": {"ref": "1373206", "@spider": "the_keg_steakhouse", "addr:full": "110 Concert Way", "addr:city": "Barrie", "addr:state": "ON", "addr:postcode": "L4N 6N5", "addr:country": "CA", "name": "The Keg Steakhouse + Bar - Barrie", "phone": "705-720-7333", "website": "https://www.kegsteakhouse.com/locations/?search=%20Barrie", "opening_hours": "Mo-Th 16:00-23:00; Fr 16:00-00:00; Sa 14:00-00:00; Su 14:00-22:00", "brand": "The Keg Steakhouse"}, "geometry": {"type": "Point", "coordinates": [-79.683544, 44.33805]}},
{"type": "Feature", "id": "JSq_XRe-xTT2bB3TxanEt097vjo=", "properties": {"ref": "1369653", "@spider": "the_keg_steakhouse", "addr:full": "46 Peel Centre Dr", "addr:city": "Brampton", "addr:state": "ON", "addr:postcode": "L6T 4E2", "addr:country": "CA", "name": "The Keg Steakhouse + Bar - Bramalea", "phone": "289-632-6322", "opening_hours": "Mo-Th 16:00-23:00; Fr 16:00-00:00; Sa 15:00-00:00; Su 15:00-23:00", "brand": "The Keg Steakhouse"}, "geometry": {"type": "Point", "coordinates": [-79.72567, 43.71491]}},
{"type": "Feature", "id": "GkLtiXkdk_WVjnBtTQXNeGJX5io=", "properties": {"ref": "1368263", "@spider": "the_keg_steakhouse", "addr:full": "70 Gillingham Dr", "addr:city": "Brampton", "addr:state": "ON", "addr:postcode": "L6X 4X7", "addr:country": "CA", "name": "The Keg Steakhouse + Bar - Brampton", "phone": "905-456-3733", "website": "http://www.kegsteakhouse.com", "opening_hours": "Mo-Th 16:00-23:00; Fr 16:00-00:00; Sa 15:00-00:00; Su 15:00-23:00", "brand": "The Keg Steakhouse"}, "geometry": {"type": "Point", "coordinates": [-79.788731, 43.702837]}},
{"type": "Feature", "id": "aeATg5bAC8f_wK5d5XMiYcmpguI=", "properties": {"ref": "1368142", "@spider": "the_keg_steakhouse", "addr:full": "1836 Brandon Ave", "addr:city": "Brandon", "addr:state": "MB", "addr:postcode": "R7B 3G8", "addr:country": "CA", "name": "The Keg Steakhouse + Bar - Brandon", "phone": "204-725-4223", "website": "https://www.kegsteakhouse.com/locations/?search=brandon", "opening_hours": "Mo-Th 16:00-22:00; Fr-Sa 16:00-23:00; Su 16:00-21:00", "brand": "The Keg Steakhouse"}, "geometry": {"type": "Point", "coordinates": [-99.96301, 49.83257]}},
{"type": "Feature", "id": "mDQXbUCceGOatm8o4DDY0auU0Uo=", "properties": {"ref": "1354373", "@spider": "the_keg_steakhouse", "addr:full": "61 Lynden Rd", "addr:city": "Brantford", "addr:state": "ON", "addr:postcode": "N3R 7J9", "addr:country": "CA", "name": "The Keg Steakhouse + Bar - Brantford", "phone": "519-757-0024", "website": "http://www.kegsteakhouse.com", "opening_hours": "Mo-Th 16:30-23:00; Fr 16:30-00:00; Sa 15:30-00:00; Su 15:30-23:00", "brand": "The Keg Steakhouse"}, "geometry": {"type": "Point", "coordinates": [-80.24282, 43.1744]}},
{"type": "Feature", "id": "Py-UOa0XVsEGQ-Q-qza0cgpvYVo=", "properties": {"ref": "1261319", "@spider": "the_keg_steakhouse", "addr:full": "3130 S Service Rd", "addr:city": "Burlington", "addr:state": "ON", "addr:postcode": "L7N 3J3", "addr:country": "CA", "name": "The Keg Steakhouse + Bar - Burlington", "phone": "905-681-1810", "website": "http://www.kegsteakhouse.com", "opening_hours": "Mo-Th 16:00-23:00; Fr 16:00-00:00; Sa 15:00-00:00; Su 16:00-23:00", "brand": "The Keg Steakhouse"}, "geometry": {"type": "Point", "coordinates": [-79.7992, 43.35483]}},
{"type": "Feature", "id": "x8BVogdyBZtLw2SCc83UJ9Ovx7U=", "properties": {"ref": "1261310", "@spider": "the_keg_steakhouse", "addr:full": "4510 Still Creek Ave", "addr:city": "Burnaby", "addr:state": "BC", "addr:postcode": "V5C 0B5", "addr:country": "CA", "name": "The Keg Steakhouse + Bar - Burnaby", "phone": "604-294-4626", "website": "http://www.kegsteakhouse.com", "opening_hours": "Mo-Th 16:00-23:00; Fr-Sa 15:30-00:00; Su 15:30-22:00", "brand": "The Keg Steakhouse"}, "geometry": {"type": "Point", "coordinates": [-123.00304, 49.25999]}},
{"type": "Feature", "id": "t26pzx3ZjVdVEzmFPfd3PPwkgi0=", "properties": {"ref": "1246823", "@spider": "the_keg_steakhouse", "addr:full": "320 4 Ave SW", "addr:city": "Calgary", "addr:state": "AB", "addr:postcode": "T2P 2S6", "addr:country": "CA", "name": "The Keg Steakhouse + Bar - Calgary 4th Ave", "phone": "403-699-9843", "website": "https://www.kegsteakhouse.com/locations/?search=brandon", "opening_hours": "Mo-Fr 11:00-23:00; Sa 12:00-23:00; Su 12:00-22:00", "brand": "The Keg Steakhouse"}, "geometry": {"type": "Point", "coordinates": [-114.06938, 51.04971]}},
{"type": "Feature", "id": "oeaLiQyh8plr-Yx4xKuOMalc24w=", "properties": {"ref": "1261326", "@spider": "the_keg_steakhouse", "addr:full": "130 Crowfoot Terrace NW", "addr:city": "Calgary", "addr:state": "AB", "addr:postcode": "T3G 4J8", "addr:country": "CA", "name": "The Keg Steakhouse + Bar - Crowfoot", "phone": "403-208-0220", "website": "https://www.kegsteakhouse.com/locations/?search=Colorado%20Mills", "opening_hours": "Mo-Th 16:00-22:00; Fr-Sa 15:00-23:00; Su 15:00-22:00", "brand": "The Keg Steakhouse"}, "geometry": {"type": "Point", "coordinates": [-114.202035, 51.127717]}},
{"type": "Feature", "id": "yFMq4OaGnSDh4rdql7sjb0e0YIo=", "properties": {"ref": "1261335", "@spider": "the_keg_steakhouse", "addr:full": "7104 Macleod Trail", "addr:city": "Calgary", "addr:state": "AB", "addr:postcode": "T2H 0L3", "addr:country": "CA", "name": "The Keg Steakhouse + Bar - Macleod Trail", "phone": "403-253-2534", "website": "http://www.kegsteakhouse.com", "opening_hours": "Mo-Th 16:00-23:00; Fr-Sa 15:00-00:00; Su 15:00-23:00", "brand": "The Keg Steakhouse"}, "geometry": {"type": "Point", "coordinates": [-114.064007, 50.983494]}},
{"type": "Feature", "id": "LT_1quFUQgWPfhmGWzkVxbQm6u4=", "properties": {"ref": "1635487", "@spider": "the_keg_steakhouse", "addr:full": "3625 Shaganappi Trail NW", "addr:city": "Calgary", "addr:state": "AB", "addr:postcode": "T3A 0E2", "addr:country": "CA", "name": "The Keg Steakhouse + Bar- Market Mall", "phone": "587-355-0300", "website": "https://www.kegsteakhouse.com/locations/market-mall-keg/", "brand": "The Keg Steakhouse"}, "geometry": {"type": "Point", "coordinates": [-114.153, 51.0856]}},
{"type": "Feature", "id": "Pi1YLT9YDOsJU-UZZPsDbOvMEXA=", "properties": {"ref": "1500221", "@spider": "the_keg_steakhouse", "addr:full": "100-4600 130th Avenue", "addr:city": "Calgary", "addr:state": "AB", "addr:postcode": "T2Z 0C2", "addr:country": "CA", "name": "The Keg Steakhouse + Bar -- South Pointe", "phone": "403-726-1022", "website": "http://www.kegsteakhouse.com", "opening_hours": "Mo-Th 16:00-22:00; Fr 16:00-23:00; Sa 15:00-23:00; Su 15:00-21:30", "brand": "The Keg Steakhouse"}, "geometry": {"type": "Point", "coordinates": [-113.96935, 50.93224]}},
{"type": "Feature", "id": "jaqGiM1pHLWEGc4XeTt9KxRpu24=", "properties": {"ref": "1368030", "@spider": "the_keg_steakhouse", "addr:full": "44 Pinebush Rd", "addr:city": "Cambridge", "addr:state": "ON", "addr:postcode": "N1R 8K5", "addr:country": "CA", "name": "The Keg Steakhouse + Bar - Cambridge", "phone": "519-624-7337", "website": "http://www.kegsteakhouse.com", "opening_hours": "Mo-Th 16:00-22:00; Fr 16:00-23:00; Sa 15:00-23:00; Su 15:00-22:00", "brand": "The Keg Steakhouse"}, "geometry": {"type": "Point", "coordinates": [-80.32269, 43.40897]}},
{"type": "Feature", "id": "icChdYLrLKhrVUgXtZgk7AaYm9A=", "properties": {"ref": "1253461", "@spider": "the_keg_steakhouse", "addr:full": "3065 W Chandler Blvd", "addr:city": "Chandler", "addr:state": "AZ", "addr:postcode": "85226", "addr:country": "US", "name": "The Keg Steakhouse + Bar - Chandler", "phone": "480-899-7500", "website": "https://www.kegsteakhouse.com/locations/?search=Cambridge", "opening_hours": "Mo-Sa 16:00-23:00; Su 16:00-22:00", "brand": "The Keg Steakhouse"}, "geometry": {"type": "Point", "coordinates": [-111.89618, 33.30464]}},
{"type": "Feature", "id": "qKcRclxWvJZIlivwp47kvx8pbBo=", "properties": {"ref": "1403289", "@spider": "the_keg_steakhouse", "addr:full": "2991 Lougheed Hwy Unit 130", "addr:city": "Coquitlam", "addr:state": "BC", "addr:postcode": "V3B 6J6", "addr:country": "CA", "name": "The Keg Steakhouse + Bar - Coquitlam", "phone": "604-464-5340", "website": "http://www.kegsteakhouse.com", "opening_hours": "Mo-Th 16:00-23:00; Fr-Sa 16:00-00:00; Su 16:00-22:00", "brand": "The Keg Steakhouse"}, "geometry": {"type": "Point", "coordinates": [-122.7958, 49.27606]}},
{"type": "Feature", "id": "BYsex7gJsiCXspTBEDE90KCvUQ4=", "properties": {"ref": "1605485", "@spider": "the_keg_steakhouse", "addr:full": "11 Fyne Lane", "addr:city": "Dartmouth", "addr:state": "NS", "addr:postcode": "B3B 0N6", "addr:country": "CA", "name": "The Keg Steakhouse + Bar- Dartmouth Crossing", "phone": "902-480-2368", "website": "https://www.kegsteakhouse.com/locations", "brand": "The Keg Steakhouse"}, "geometry": {"type": "Point", "coordinates": [-63.565854, 44.708715]}},
{"type": "Feature", "id": "CctRDW1N3309Pd01AYE_lF9K2Ck=", "properties": {"ref": "1585248", "@spider": "the_keg_steakhouse", "addr:full": "13960-137th Ave NW", "addr:city": "Edmonton", "addr:state": "AB", "addr:postcode": "T5L 5H1", "addr:country": "CA", "name": "The Keg Steakhouse + Bar - Skyview", "phone": "780-472-0707", "website": "https://www.kegsteakhouse.com/", "opening_hours": "Mo-We 16:00-23:00; Th-Fr 16:00-00:00; Sa 15:00-00:00; Su 15:00-23:00", "brand": "The Keg Steakhouse"}, "geometry": {"type": "Point", "coordinates": [-113.561907, 53.59955]}},
{"type": "Feature", "id": "1PXm5Mx4YYZQ35eviytbqgHrv4Q=", "properties": {"ref": "1261331", "@spider": "the_keg_steakhouse", "addr:full": "1631 102 St NW", "addr:city": "Edmonton", "addr:state": "AB", "addr:postcode": "T6N 1M3", "addr:country": "CA", "name": "The Keg Steakhouse + Bar - South Edmonton Common", "phone": "780-485-6530", "website": "http://www.kegsteakhouse.com", "opening_hours": "Mo-Th 16:00-23:00; Fr 16:00-00:00; Sa 15:00-00:00; Su 16:00-23:00", "brand": "The Keg Steakhouse"}, "geometry": {"type": "Point", "coordinates": [-113.49091, 53.44458]}},
{"type": "Feature", "id": "Vtee_NxnbA5qxPI_94-CZtJoWHg=", "properties": {"ref": "1261317", "@spider": "the_keg_steakhouse", "addr:full": "9960 170 St NW", "addr:city": "Edmonton", "addr:state": "AB", "addr:postcode": "T5T 5L5", "addr:country": "CA", "name": "The Keg Steakhouse + Bar - West Edmonton", "phone": "780-414-1114", "website": "http://www.kegsteakhouse.com", "opening_hours": "Mo-Th 16:00-23:00; Fr 16:00-00:00; Sa 15:00-00:00; Su 16:00-23:00", "brand": "The Keg Steakhouse"}, "geometry": {"type": "Point", "coordinates": [-113.61541, 53.53714]}},
{"type": "Feature", "id": "IZ-w_3GqsGlxYIgS3bVoDsJAMp8=", "properties": {"ref": "1440860", "@spider": "the_keg_steakhouse", "addr:full": "6320 Currents Dr NW", "addr:city": "Edmonton", "addr:state": "AB", "addr:postcode": "T6W 0L8", "addr:country": "CA", "name": "The Keg Steakhouse + Bar - Windermere", "phone": "587-454-2660", "website": "https://www.kegsteakhouse.com/", "opening_hours": "Mo-We 16:00-23:00; Th-Fr 16:00-00:00; Sa 15:00-00:00; Su 15:00-23:00", "brand": "The Keg Steakhouse"}, "geometry": {"type": "Point", "coordinates": [-113.607512, 53.436064]}},
{"type": "Feature", "id": "TQWw0BYgL1KT6k0o_0kylPoYARA=", "properties": {"ref": "1372123", "@spider": "the_keg_steakhouse", "addr:full": "10006 Macdonald Ave", "addr:city": "Fort Mcmurray", "addr:state": "AB", "addr:postcode": "T9H 1S8", "addr:country": "CA", "name": "The Keg Steakhouse + Bar - Fort McMurray", "phone": "780-791-2540", "website": "http://www.kegsteakhouse.com", "opening_hours": "Mo-Sa 16:00-23:00; Su 16:00-22:00", "brand": "The Keg Steakhouse"}, "geometry": {"type": "Point", "coordinates": [-111.38302, 56.72745]}},
{"type": "Feature", "id": "vYa_I5h3Jm0zB87S97rYppXYG_g=", "properties": {"ref": "656853", "@spider": "the_keg_steakhouse", "addr:full": "2240 East Williams Field Road", "addr:city": "Gilbert", "addr:state": "AZ", "addr:postcode": "85295", "addr:country": "US", "name": "The Keg Steakhouse + Bar - Gilbert", "phone": "480-821-1500", "website": "http://www.kegsteakhouse.com", "opening_hours": "Mo-Sa 16:00-23:00; Su 16:00-22:00", "brand": "The Keg Steakhouse"}, "geometry": {"type": "Point", "coordinates": [-111.7438588, 33.307267]}},
{"type": "Feature", "id": "F0j0Ta_pJgQsx7VzbicCIdfdvNc=", "properties": {"ref": "1585237", "@spider": "the_keg_steakhouse", "addr:full": "10532 100 Ave", "addr:city": "Grande Prairie", "addr:state": "AB", "addr:postcode": "T8V 0V9", "addr:country": "CA", "name": "The Keg Steakhouse + Bar - Grande Prairie", "phone": "780-539-6699", "website": "http://www.kegsteakhouse.com", "opening_hours": "Mo-Th 16:00-23:00; Fr-Sa 16:00-00:00; Su 16:00-22:00", "brand": "The Keg Steakhouse"}, "geometry": {"type": "Point", "coordinates": [-118.81319, 55.17096]}},
{"type": "Feature", "id": "KYySDJBQWH32UZfqGn3uy2biuEE=", "properties": {"ref": "1355621", "@spider": "the_keg_steakhouse", "addr:full": "49 Clair Rd E", "addr:city": "Guelph", "addr:state": "ON", "addr:postcode": "N1L 0J7", "addr:country": "CA", "name": "The Keg Steakhouse + Bar -- Guelph", "phone": "519-829-1234", "website": "http://www.kegsteakhouse.com", "opening_hours": "Mo-Th 16:00-23:00; Fr 16:00-00:00; Sa 15:00-00:00; Su 15:00-22:00", "brand": "The Keg Steakhouse"}, "geometry": {"type": "Point", "coordinates": [-80.18771, 43.50131]}},
{"type": "Feature", "id": "Xw2u3E2evnVQc9TdNzpx8JraNnM=", "properties": {"ref": "1375225", "@spider": "the_keg_steakhouse", "addr:full": "1712 Market St", "addr:city": "Halifax", "addr:state": "NS", "addr:postcode": "B3J 2E3", "addr:country": "CA", "name": "The Keg Steakhouse + Bar - Halifax", "phone": "902-425-8355", "website": "http://www.kegsteakhouse.com", "opening_hours": "Mo-Sa 16:00-00:00; Su 16:00-23:00", "brand": "The Keg Steakhouse"}, "geometry": {"type": "Point", "coordinates": [-63.57641, 44.64703]}},
{"type": "Feature", "id": "2gNr5ZqtiZmPSidZ_XUJ3Fe0Aos=", "properties": {"ref": "1354444", "@spider": "the_keg_steakhouse", "addr:full": "1170 Upper James St", "addr:city": "Hamilton", "addr:state": "ON", "addr:postcode": "L9C 3B1", "addr:country": "CA", "name": "The Keg Steakhouse + Bar -Hamilton Mountain", "phone": "905-574-7880", "website": "http://www.kegsteakhouse.com", "opening_hours": "Mo-We 16:00-22:00; Th-Fr 16:00-22:30; Sa 15:00-22:30; Su 15:00-21:30", "brand": "The Keg Steakhouse"}, "geometry": {"type": "Point", "coordinates": [-79.88737, 43.21714]}},
{"type": "Feature", "id": "5XipXjMsS6glT8q8Z5fPRKBpA2Y=", "properties": {"ref": "1585239", "@spider": "the_keg_steakhouse", "addr:full": "15 Huntmar Dr", "addr:city": "Stittsville", "addr:state": "ON", "addr:postcode": "K2S 0P6", "addr:country": "CA", "name": "The Keg Steakhouse + Bar - Kanata", "phone": "613-836-6282", "website": "http://www.kegsteakhouse.com", "opening_hours": "Mo-Th 16:30-22:00; Fr 16:30-22:30; Sa 16:00-22:30; Su 16:00-21:30", "brand": "The Keg Steakhouse"}, "geometry": {"type": "Point", "coordinates": [-75.91306, 45.28333]}},
{"type": "Feature", "id": "QR4qf9HFhZR99ZfPTXtfddQrP-0=", "properties": {"ref": "1286812", "@spider": "the_keg_steakhouse", "addr:full": "1825 Underhill St", "addr:city": "Kelowna", "addr:state": "BC", "addr:postcode": "V1X 8G8", "addr:country": "CA", "name": "The Keg Steakhouse + Bar-- Kelowna", "phone": "778-484-3810", "website": "https://www.kegsteakhouse.com/", "opening_hours": "Mo-Th 16:00-23:00; Fr-Sa 16:00-00:00; Su 16:00-22:00", "brand": "The Keg Steakhouse"}, "geometry": {"type": "Point", "coordinates": [-119.434756, 49.881314]}},
{"type": "Feature", "id": "7XHUNVYoTCtiEc9T_XgVOMVQnhI=", "properties": {"ref": "1270839", "@spider": "the_keg_steakhouse", "addr:full": "300 King St E", "addr:city": "Kingston", "addr:state": "ON", "addr:postcode": "K7L 3B4", "addr:country": "CA", "name": "The Keg Steakhouse + Bar - Kingston", "phone": "613-549-1333", "website": "http://www.kegsteakhouse.com", "opening_hours": "Mo-Th 16:00-22:00; Fr-Sa 16:00-23:00; Su 16:00-21:00", "brand": "The Keg Steakhouse"}, "geometry": {"type": "Point", "coordinates": [-76.48193, 44.22986]}},
{"type": "Feature", "id": "CCnNv8oU6FPWgy0T11xVnk0JKjY=", "properties": {"ref": "786776", "@spider": "the_keg_steakhouse", "addr:full": "14065 W Colfax Dr", "addr:city": "Lakewood", "addr:state": "CO", "addr:postcode": "80401", "addr:country": "US", "name": "The Keg Steakhouse + Bar - Colorado Mills", "phone": "303-238-7500", "website": "https://www.kegsteakhouse.com/locations/?search=Colorado%20Mills", "opening_hours": "Mo-Sa 15:00-23:00; Su 15:00-22:00", "brand": "The Keg Steakhouse"}, "geometry": {"type": "Point", "coordinates": [-105.15846, 39.73503]}},
{"type": "Feature", "id": "-XN8OjypnjF2CLqJzmyQ4jYLptc=", "properties": {"ref": "1435687", "@spider": "the_keg_steakhouse", "addr:full": "9020 202 St", "addr:city": "Langley", "addr:state": "BC", "addr:postcode": "V1M 4B8", "addr:country": "CA", "name": "The Keg Steakhouse + Bar - Langley", "phone": "604-881-0081", "website": "https://www.kegsteakhouse.com/", "opening_hours": "Mo-Th 16:00-22:00; Fr-Sa 16:00-23:00; Su 16:00-22:00", "brand": "The Keg Steakhouse"}, "geometry": {"type": "Point", "coordinates": [-122.66233, 49.16662]}},
{"type": "Feature", "id": "k5NmGHGqfP0xGVZRXrHyf4J2Ag0=", "properties": {"ref": "1252103", "@spider": "the_keg_steakhouse", "addr:full": "859 W John Carpenter Fwy", "addr:city": "Irving", "addr:state": "TX", "addr:postcode": "75039", "addr:country": "US", "name": "The Keg Steakhouse + Bar - Las Colinas", "phone": "972-556-9188", "website": "http://www.kegsteakhouse.com", "opening_hours": "Mo-Sa 16:00-23:00; Su 16:00-22:00", "brand": "The Keg Steakhouse"}, "geometry": {"type": "Point", "coordinates": [-96.96222, 32.89066]}},
{"type": "Feature", "id": "7RypaCdbzR1lMCbyc7Ss9aH_hfc=", "properties": {"ref": "1322889", "@spider": "the_keg_steakhouse", "addr:full": "3035 Boul Le Carrefour", "addr:city": "Laval", "addr:state": "QC", "addr:postcode": "H7T 1C8", "addr:country": "CA", "name": "The Keg Steakhouse + Bar - Laval", "phone": "450-681-4445", "website": "http://www.kegsteakhouse.com", "opening_hours": "Mo-Th 17:00-22:00; Fr 17:00-23:00; Sa 15:00-23:00; Su 15:00-22:00", "brand": "The Keg Steakhouse"}, "geometry": {"type": "Point", "coordinates": [-73.74995, 45.56831]}},
{"type": "Feature", "id": "fkckdlnsPAJcJsxtvoN07R8tKGw=", "properties": {"ref": "1351028", "@spider": "the_keg_steakhouse", "addr:full": "1717 Mayor Magrath Dr S", "addr:city": "Lethbridge", "addr:state": "AB", "addr:postcode": "T1K 2R7", "addr:country": "CA", "name": "The Keg Steakhouse + Bar - Lethbridge", "phone": "403-327-2727", "website": "https://www.kegsteakhouse.com/", "opening_hours": "Mo-Th 16:00-22:00; Fr-Sa 16:00-23:00; Su 16:00-21:00", "brand": "The Keg Steakhouse"}, "geometry": {"type": "Point", "coordinates": [-112.80115, 49.67535]}},
{"type": "Feature", "id": "TGWNO7sFDoSmJAlNPEVPYkWaFI4=", "properties": {"ref": "1398197", "@spider": "the_keg_steakhouse", "addr:full": "1680 Richmond St", "addr:city": "London", "addr:state": "ON", "addr:postcode": "N6G 3Y9", "addr:country": "CA", "name": "The Keg Steakhouse + Bar - Masonville", "phone": "519-601-4045", "website": "http://www.kegsteakhouse.com", "opening_hours": "Mo-We 16:00-00:00; Th 16:00-01:00; Fr-Sa 15:00-01:00; Su 15:00-23:00", "brand": "The Keg Steakhouse"}, "geometry": {"type": "Point", "coordinates": [-81.28177, 43.02498]}},
{"type": "Feature", "id": "CmovdIKDHvjrGWmu8iIJ7ErvBTQ=", "properties": {"ref": "1585245", "@spider": "the_keg_steakhouse", "addr:full": "1170 Wellington Rd", "addr:city": "London", "addr:state": "ON", "addr:postcode": "N6E 1M3", "addr:country": "CA", "name": "The Keg Steakhouse + Bar - London South", "phone": "519-686-5811", "website": "http://www.kegsteakhouse.com", "opening_hours": "Mo-Fr 16:00-01:00; Sa 15:00-01:00; Su 15:00-00:00", "brand": "The Keg Steakhouse"}, "geometry": {"type": "Point", "coordinates": [-81.218594, 42.929065]}},
{"type": "Feature", "id": "L20oQM-_lIvh0asj6orzliCh6Q8=", "properties": {"ref": "1253468", "@spider": "the_keg_steakhouse", "addr:full": "18110 Alderwood Mall Pkwy", "addr:city": "Lynnwood", "addr:state": "WA", "addr:postcode": "98037", "addr:country": "US", "name": "The Keg Steakhouse + Bar - Lynnwood", "phone": "425-778-0900", "website": "http://www.kegsteakhouse.com", "opening_hours": "Mo-Th 11:00-22:00; Fr 11:00-23:00; Sa 12:00-23:00; Su 12:00-22:00", "brand": "The Keg Steakhouse"}, "geometry": {"type": "Point", "coordinates": [-122.27044, 47.83479]}},
{"type": "Feature", "id": "AJing4_f0NpGwjgErF0xdI5tS54=", "properties": {"ref": "1338359", "@spider": "the_keg_steakhouse", "addr:full": "20640 Dewdney Trunk Rd", "addr:city": "Maple Ridge", "addr:state": "BC", "addr:postcode": "V2X 3E5", "addr:country": "CA", "name": "The Keg Steakhouse + Bar - Maple Ridge", "phone": "604-465-8911", "website": "http://www.kegsteakhouse.com", "brand": "The Keg Steakhouse"}, "geometry": {"type": "Point", "coordinates": [-122.649168, 49.22053]}},
{"type": "Feature", "id": "AyED-VFvJe6ipg0YlI-BbG20BRU=", "properties": {"ref": "1377590", "@spider": "the_keg_steakhouse", "addr:full": "2550 Box Springs Blvd NW", "addr:city": "Medicine Hat", "addr:state": "AB", "addr:postcode": "T1C 0C8", "addr:country": "CA", "name": "The Keg Steakhouse + Bar - Medicine Hat", "phone": "403-548-2737", "website": "http://www.kegsteakhouse.com", "opening_hours": "Mo-Th 16:00-23:00; Fr-Sa 16:00-00:00; Su 16:00-23:00", "brand": "The Keg Steakhouse"}, "geometry": {"type": "Point", "coordinates": [-110.743674, 50.067811]}},
{"type": "Feature", "id": "C-4tsm7DSih5sNuCFl8e0YONetY=", "properties": {"ref": "1368799", "@spider": "the_keg_steakhouse", "addr:full": "670 Matheson Blvd W", "addr:city": "Mississauga", "addr:state": "ON", "addr:postcode": "L5R 3T2", "addr:country": "CA", "name": "The Keg Steakhouse + Bar - Mississauga Heartland", "phone": "905-502-0002", "website": "http://www.kegsteakhouse.com", "opening_hours": "Mo-Th 11:30-23:00; Fr 11:30-00:00; Sa 13:00-00:00; Su 13:00-23:00", "brand": "The Keg Steakhouse"}, "geometry": {"type": "Point", "coordinates": [-79.68909, 43.60917]}},
{"type": "Feature", "id": "IZL9saFqpPNMa9cyYo6tGP8rbyY=", "properties": {"ref": "354079", "@spider": "the_keg_steakhouse", "addr:full": "3130 Argentia Rd", "addr:city": "Mississauga", "addr:state": "ON", "addr:postcode": "L5N 0B1", "addr:country": "CA", "name": "The Keg Steakhouse + Bar - Mississauga Northwest", "phone": "905-567-9111", "website": "http://www.kegsteakhouse.com", "opening_hours": "Mo-Th 16:00-22:30; Fr-Sa 15:30-23:00; Su 15:30-22:00", "brand": "The Keg Steakhouse"}, "geometry": {"type": "Point", "coordinates": [-79.78686, 43.594]}},
{"type": "Feature", "id": "4PeoUvTKga5EzhlFjUZ5ofj-4zk=", "properties": {"ref": "1762615", "@spider": "the_keg_steakhouse", "addr:full": "55 City Centre Dr", "addr:city": "Mississauga", "addr:state": "ON", "addr:postcode": "L5B 1M3", "addr:country": "CA", "name": "The Keg Steakhouse + Bar- Square One", "phone": "905-569-6100", "brand": "The Keg Steakhouse"}, "geometry": {"type": "Point", "coordinates": [-79.63828, 43.59384]}},
{"type": "Feature", "id": "d8SwYF5C6_JcLqRcVka6IiUdjmU=", "properties": {"ref": "1354594", "@spider": "the_keg_steakhouse", "addr:full": "576 Main St", "addr:city": "Moncton", "addr:state": "NB", "addr:postcode": "E1C 0M6", "addr:country": "CA", "name": "The Keg Steakhouse + Bar - Moncton", "phone": "506-386-4534", "website": "http://www.kegsteakhouse.com", "brand": "The Keg Steakhouse"}, "geometry": {"type": "Point", "coordinates": [-64.77344, 46.08957]}},
{"type": "Feature", "id": "a1Zut_qw7cdZPg8rbXmkudNEqvY=", "properties": {"ref": "1322890", "@spider": "the_keg_steakhouse", "addr:full": "25 St Paul St E", "addr:city": "Montr\u00e9al", "addr:state": "QC", "addr:postcode": "H2Y 1G2", "addr:country": "CA", "name": "The Keg Steakhouse + Bar - Montreal", "phone": "514-871-9093", "website": "http://www.kegsteakhouse.com", "opening_hours": "Mo-Th 16:00-22:00; Fr 16:00-23:00; Sa 15:00-23:00; Su 15:00-22:00", "brand": "The Keg Steakhouse"}, "geometry": {"type": "Point", "coordinates": [-73.55376, 45.50605]}},
{"type": "Feature", "id": "zGF5q93iZvmVrtLSCNt-RiYKR1g=", "properties": {"ref": "1322888", "@spider": "the_keg_steakhouse", "addr:full": "5 Place Ville-Marie", "addr:city": "Montr\u00e9al", "addr:state": "QC", "addr:postcode": "H3B 2G2", "addr:country": "CA", "name": "The Keg Steakhouse + Bar - Place Ville Marie", "phone": "514-868-1999", "website": "http://www.kegsteakhouse.com", "opening_hours": "Mo-We 11:00-00:00; Th-Fr 11:00-01:00; Sa 16:00-01:00; Su 16:00-00:00", "brand": "The Keg Steakhouse"}, "geometry": {"type": "Point", "coordinates": [-73.56954, 45.50074]}},
{"type": "Feature", "id": "hLhUEaFcKWQXgZQwh9PN-Zabwvs=", "properties": {"ref": "1585250", "@spider": "the_keg_steakhouse", "addr:full": "18195 Yonge St", "addr:city": "Newmarket", "addr:state": "ON", "addr:postcode": "L3Y 4V8", "addr:country": "CA", "name": "The Keg Steakhouse + Bar - Newmarket", "phone": "905-830-0615", "website": "http://www.kegsteakhouse.com", "opening_hours": "Mo-Th 16:00-00:00; Fr 16:00-01:00; Sa 15:00-01:00; Su 15:00-23:00", "brand": "The Keg Steakhouse"}, "geometry": {"type": "Point", "coordinates": [-79.478883, 44.048763]}},
{"type": "Feature", "id": "Bh_lvlEbiiqz0eJUyH7r4A-kgvY=", "properties": {"ref": "1246467", "@spider": "the_keg_steakhouse", "addr:full": "5950 Victoria Ave", "addr:city": "Niagara Falls", "addr:state": "ON", "addr:postcode": "L2G 3L7", "addr:country": "CA", "name": "The Keg Steakhouse + Bar - Niagara Courtyard Marriott", "phone": "905-353-4022", "website": "http://www.kegsteakhouse.com", "opening_hours": "Mo-Th 16:00-22:00; Fr 15:00-23:00; Sa 12:00-00:00; Su 12:00-22:00", "brand": "The Keg Steakhouse"}, "geometry": {"type": "Point", "coordinates": [-79.08028, 43.08881]}},
{"type": "Feature", "id": "eIgcDuIpjAiCp0MVF9SGEgETI8k=", "properties": {"ref": "1585231", "@spider": "the_keg_steakhouse", "addr:full": "6700 Fallsview Blvd", "addr:city": "Niagara Falls", "addr:state": "ON", "addr:postcode": "L2G 3W6", "addr:country": "CA", "name": "The Keg Steakhouse + Bar -Fallsview", "phone": "905-374-5170", "website": "http://www.kegsteakhouse.com", "opening_hours": "Mo-Th 12:00-23:00; Fr-Sa 12:00-00:00; Su 12:00-23:00", "brand": "The Keg Steakhouse"}, "geometry": {"type": "Point", "coordinates": [-79.08207, 43.07951]}},
{"type": "Feature", "id": "MwGUkyTyHies88qfEWrhb3Gxyws=", "properties": {"ref": "1585226", "@spider": "the_keg_steakhouse", "addr:full": "300 Hays Blvd", "addr:city": "Oakville", "addr:state": "ON", "addr:postcode": "L6H 7P3", "addr:country": "CA", "name": "The Keg Steakhouse + Bar - Oakville", "phone": "905-257-2700", "website": "http://www.kegsteakhouse.com", "opening_hours": "Mo-Th 16:00-00:00; Fr 16:00-01:00; Sa 15:00-01:00; Su 15:00-23:00", "brand": "The Keg Steakhouse"}, "geometry": {"type": "Point", "coordinates": [-79.71647, 43.48502]}},
{"type": "Feature", "id": "WtDhvDyoaTRGh1NjkmMSeG6_788=", "properties": {"ref": "1253447", "@spider": "the_keg_steakhouse", "addr:full": "12005 N Oracle Rd", "addr:city": "Tucson", "addr:state": "AZ", "addr:postcode": "85737", "addr:country": "US", "name": "The Keg Steakhouse + Bar - Oro Valley", "phone": "520-219-9500", "website": "http://www.kegsteakhouse.com", "opening_hours": "Mo-Sa 15:00-23:00; Su 15:00-22:00", "brand": "The Keg Steakhouse"}, "geometry": {"type": "Point", "coordinates": [-110.93939, 32.42371]}},
{"type": "Feature", "id": "kJl64VE9wTvjbVVSVIJpb8CDyVM=", "properties": {"ref": "1261327", "@spider": "the_keg_steakhouse", "addr:full": "255 Stevenson Rd S", "addr:city": "Oshawa", "addr:state": "ON", "addr:postcode": "L1J 6Y4", "addr:country": "CA", "name": "The Keg Steakhouse + Bar - Oshawa", "phone": "905-571-3212", "website": "http://www.kegsteakhouse.com", "opening_hours": "Mo-Th 16:00-22:00; Fr 16:00-23:00; Sa 15:00-23:00; Su 15:00-22:00", "brand": "The Keg Steakhouse"}, "geometry": {"type": "Point", "coordinates": [-78.880315, 43.886368]}},
{"type": "Feature", "id": "f9Ydk8rqti__tOOwMXLzEKIs2II=", "properties": {"ref": "1585238", "@spider": "the_keg_steakhouse", "addr:full": "376 Hunt Club Rd", "addr:city": "Ottawa", "addr:state": "ON", "addr:postcode": "K1V 1C1", "addr:country": "CA", "name": "The Keg Steakhouse + Bar - Hunt Club", "phone": "613-248-0509", "website": "http://www.kegsteakhouse.com", "opening_hours": "Mo-Th 16:30-22:00; Fr 16:30-23:00; Sa 16:00-23:00; Su 16:00-22:00", "brand": "The Keg Steakhouse"}, "geometry": {"type": "Point", "coordinates": [-75.68179, 45.33909]}},
{"type": "Feature", "id": "4kcB4tBwsb1tfYjB_E4gM45b6PI=", "properties": {"ref": "1585228", "@spider": "the_keg_steakhouse", "addr:full": "529 Richmond Rd", "addr:city": "Ottawa", "addr:state": "ON", "addr:postcode": "K2A 0G3", "addr:country": "CA", "name": "The Keg Steakhouse + Bar - Ottawa Manor", "phone": "613-724-1242", "website": "http://www.kegsteakhouse.com", "opening_hours": "Mo-Th 17:00-21:30; Fr 17:00-22:00; Sa 16:30-22:00; Su 16:30-21:00", "brand": "The Keg Steakhouse"}, "geometry": {"type": "Point", "coordinates": [-75.76242, 45.38846]}},
{"type": "Feature", "id": "HwrfMrB0xW-q2-pBUbw6MJi_mnk=", "properties": {"ref": "1585229", "@spider": "the_keg_steakhouse", "addr:full": "75 York St", "addr:city": "Ottawa", "addr:state": "ON", "addr:postcode": "K1N 5T2", "addr:country": "CA", "name": "The Keg Steakhouse + Bar - Ottawa Market", "phone": "613-241-8514", "website": "http://www.kegsteakhouse.com", "opening_hours": "Mo-Th 17:00-22:00; Fr 16:30-23:00; Sa 16:00-23:00; Su 16:30-22:00", "brand": "The Keg Steakhouse"}, "geometry": {"type": "Point", "coordinates": [-75.69196, 45.42899]}},
{"type": "Feature", "id": "VYyUclAVbPgz2WyjfnSwAcG8br4=", "properties": {"ref": "1367459", "@spider": "the_keg_steakhouse", "addr:full": "820 High St", "addr:city": "Peterborough", "addr:state": "ON", "addr:postcode": "K9J 1Z3", "addr:country": "CA", "name": "The Keg Steakhouse + Bar - Peterborough", "phone": "705-874-8200", "website": "http://www.kegsteakhouse.com", "opening_hours": "Mo-Th 16:00-21:30; Fr 16:00-22:00; Sa 15:00-22:00; Su 15:30-21:00", "brand": "The Keg Steakhouse"}, "geometry": {"type": "Point", "coordinates": [-78.333537, 44.285234]}},
{"type": "Feature", "id": "u4f00uQowso6gH7ySc8KkOJX_Nk=", "properties": {"ref": "1253451", "@spider": "the_keg_steakhouse", "addr:full": "21001 N Tatum Blvd", "addr:city": "Phoenix", "addr:state": "AZ", "addr:postcode": "85050", "addr:country": "US", "name": "The Keg Steakhouse + Bar - Desert Ridge", "phone": "480-419-7772", "website": "http://www.kegsteakhouse.com", "opening_hours": "Mo-Fr 16:00-23:00; Sa 15:00-23:00; Su 15:00-22:00", "brand": "The Keg Steakhouse"}, "geometry": {"type": "Point", "coordinates": [-111.97725, 33.67876]}},
{"type": "Feature", "id": "l3an_V31Yp5ExCwQ1dpZlW5HYi4=", "properties": {"ref": "290562", "@spider": "the_keg_steakhouse", "addr:full": "6101 W Park Blvd", "addr:city": "Plano", "addr:state": "TX", "addr:postcode": "75093", "addr:country": "US", "name": "The Keg Steakhouse + Bar - Plano", "phone": "972-403-0430", "website": "http://www.kegsteakhouse.com", "opening_hours": "Mo-Sa 16:00-22:00; Su 16:00-21:00", "brand": "The Keg Steakhouse"}, "geometry": {"type": "Point", "coordinates": [-96.83192, 33.02768]}},
{"type": "Feature", "id": "fNvvFkIIlmPdYId1Gmtc81GQs_Q=", "properties": {"ref": "1322887", "@spider": "the_keg_steakhouse", "addr:full": "6815 Trans-Canada Hwy Local F017", "addr:city": "Pointe-Claire", "addr:state": "QC", "addr:postcode": "H9R 1C4", "addr:country": "CA", "name": "The Keg Steakhouse + Bar - Pointe Claire", "phone": "514-630-0202", "website": "http://www.kegsteakhouse.com", "opening_hours": "Mo-Th 17:00-22:00; Fr 17:00-23:00; Sa 16:00-23:00; Su 16:00-22:00", "brand": "The Keg Steakhouse"}, "geometry": {"type": "Point", "coordinates": [-73.814571, 45.452204]}},
{"type": "Feature", "id": "w0DgUPv36QeoJQbqwtXkEg9bRQ0=", "properties": {"ref": "1245887", "@spider": "the_keg_steakhouse", "addr:full": "582 George St", "addr:city": "Prince George", "addr:state": "BC", "addr:postcode": "V2L 1R7", "addr:country": "CA", "name": "The Keg Steakhouse + Bar -- Prince George", "phone": "250-563-1768", "website": "http://www.kegsteakhouse.com", "opening_hours": "Mo-Th 16:00-23:00; Fr-Sa 16:00-00:00; Su 16:00-23:00", "brand": "The Keg Steakhouse"}, "geometry": {"type": "Point", "coordinates": [-122.74434, 53.91382]}},
{"type": "Feature", "id": "49LOoR6ev9-XYhCrUpT0Jvb-i3s=", "properties": {"ref": "1246474", "@spider": "the_keg_steakhouse", "addr:full": "6365 50 Ave", "addr:city": "Red Deer", "addr:state": "AB", "addr:postcode": "T4N 4C7", "addr:country": "CA", "name": "The Keg Steakhouse + Bar - Red Deer", "phone": "403-309-5499", "website": "http://www.kegsteakhouse.com", "opening_hours": "Mo-Th 16:00-23:00; Fr-Sa 14:00-00:00; Su 14:00-23:00", "brand": "The Keg Steakhouse"}, "geometry": {"type": "Point", "coordinates": [-113.813784, 52.286954]}},
{"type": "Feature", "id": "qo0fPeQnIiT0XZrYKgCS4TiDojU=", "properties": {"ref": "1343533", "@spider": "the_keg_steakhouse", "addr:full": "2515 Dewdney Ave", "addr:city": "Regina", "addr:state": "SK", "addr:postcode": "S4R 8R2", "addr:country": "CA", "name": "The Keg Steakhouse + Bar - Regina Crossing", "phone": "306-352-9691", "website": "http://www.kegsteakhouse.com", "opening_hours": "Mo-Th 11:00-00:00; Fr 11:00-01:00; Sa 16:00-01:00; Su 16:00-22:00", "brand": "The Keg Steakhouse"}, "geometry": {"type": "Point", "coordinates": [-104.61708, 50.454778]}},
{"type": "Feature", "id": "GVGmtvhI-yynm3DUBLwGkhMYplE=", "properties": {"ref": "1346317", "@spider": "the_keg_steakhouse", "addr:full": "4265 Albert St", "addr:city": "Regina", "addr:state": "SK", "addr:postcode": "S4S 3R6", "addr:country": "CA", "name": "The Keg Steakhouse + Bar - Regina South", "phone": "306-585-1717", "website": "http://www.kegsteakhouse.com", "opening_hours": "Mo-Th 16:00-23:00; Fr-Sa 16:00-00:00; Su 16:00-22:00", "brand": "The Keg Steakhouse"}, "geometry": {"type": "Point", "coordinates": [-104.61704, 50.41099]}},
{"type": "Feature", "id": "UcaZHb04W8NnaLSw5y9FPAAGe0o=", "properties": {"ref": "1261330", "@spider": "the_keg_steakhouse", "addr:full": "162 York Blvd", "addr:city": "Richmond Hill", "addr:state": "ON", "addr:postcode": "L4B 3J6", "addr:country": "CA", "name": "The Keg Steakhouse + Bar - Richmond Hill", "phone": "905-882-0500", "website": "http://www.kegsteakhouse.com", "opening_hours": "Mo-Th 15:00-00:00; Fr 15:00-01:00; Sa 16:00-01:00; Su 16:00-23:00", "brand": "The Keg Steakhouse"}, "geometry": {"type": "Point", "coordinates": [-79.37576, 43.84826]}},
{"type": "Feature", "id": "jaCJAKxaaCzSQT7Ru9LvmrEnhCY=", "properties": {"ref": "1556295", "@spider": "the_keg_steakhouse", "addr:full": "11151 No. 5 Rd", "addr:city": "Richmond", "addr:state": "BC", "addr:postcode": "V7A 4E8", "addr:country": "CA", "name": "The Keg Steakhouse + Bar -- Richmond South", "phone": "604-272-1399", "website": "http://www.kegsteakhouse.com", "opening_hours": "Mo-Th 17:00-22:00; Fr-Sa 16:30-23:00; Su 16:30-21:30", "brand": "The Keg Steakhouse"}, "geometry": {"type": "Point", "coordinates": [-123.09276, 49.1314]}},
{"type": "Feature", "id": "JzSYCLHGeuewtkMN6_lHI7sWk-s=", "properties": {"ref": "1457019", "@spider": "the_keg_steakhouse", "addr:full": "755 Boulevard des Promenades", "addr:city": "Saint-Bruno-De-Montarville", "addr:state": "QC", "addr:postcode": "J3V 6A8", "addr:country": "CA", "name": "The Keg Steakhouse + Bar - Saint Bruno", "phone": "450-283-3333", "website": "http://www.kegsteakhouse.com", "opening_hours": "Mo-We 16:00-23:00; Th-Sa 16:00-00:00; Su 16:00-23:00", "brand": "The Keg Steakhouse"}, "geometry": {"type": "Point", "coordinates": [-73.374091, 45.503245]}},
{"type": "Feature", "id": "xWalWQ6IoiywiYh1xe2jcwEI_aE=", "properties": {"ref": "1623376", "@spider": "the_keg_steakhouse", "addr:full": "143 Gibson Bend", "addr:city": "Saskatoon", "addr:state": "SK", "addr:postcode": "S7K 0P1", "addr:country": "CA", "name": "The Keg Steakhouse + Bar- Brighton", "phone": "306-244-0024", "website": "https://www.kegsteakhouse.com/locations/brighton-keg/", "brand": "The Keg Steakhouse"}, "geometry": {"type": "Point", "coordinates": [-106.5500735, 52.1321174]}},
{"type": "Feature", "id": "wrTBOKY-Ti9wtMq-1LjM0sbba_g=", "properties": {"ref": "1585247", "@spider": "the_keg_steakhouse", "addr:full": "700-5000 Emerald Dr", "addr:city": "Sherwood Park", "addr:state": "AB", "addr:postcode": "T8H 0P5", "addr:country": "CA", "name": "The Keg Steakhouse + Bar - Sherwood Park", "phone": "587-200-9697", "website": "http://www.kegsteakhouse.com", "opening_hours": "Mo-Th 16:00-23:00; Fr-Sa 16:00-00:00; Su 16:00-22:00", "brand": "The Keg Steakhouse"}, "geometry": {"type": "Point", "coordinates": [-113.28352, 53.5676]}},
{"type": "Feature", "id": "IdGBImitGWVCFdy1ydnHerRpcQI=", "properties": {"ref": "1368034", "@spider": "the_keg_steakhouse", "addr:full": "344 Glendale Ave", "addr:city": "St Catharines", "addr:state": "ON", "addr:postcode": "L2T 4E3", "addr:country": "CA", "name": "The Keg Steakhouse + Bar - St. Catharines", "phone": "905-680-4585", "website": "http://www.kegsteakhouse.com", "opening_hours": "Mo-Th 16:00-23:00; Fr 16:00-00:00; Sa 15:00-00:00; Su 15:00-22:00", "brand": "The Keg Steakhouse"}, "geometry": {"type": "Point", "coordinates": [-79.21453, 43.13559]}},
{"type": "Feature", "id": "Hzsl6PwY0UGOZKDbO51nn7mVXSw=", "properties": {"ref": "1349771", "@spider": "the_keg_steakhouse", "addr:full": "127 Harbour Dr", "addr:city": "St. John's", "addr:state": "NL", "addr:postcode": "A1C 1A5", "addr:country": "CA", "name": "The Keg Steakhouse + Bar - St. John's", "phone": "709-726-4534", "website": "http://www.kegsteakhouse.com", "opening_hours": "Mo-Th 16:00-00:00; Fr 16:00-01:00; Sa 15:00-01:00; Su 15:00-00:00", "brand": "The Keg Steakhouse"}, "geometry": {"type": "Point", "coordinates": [-52.70934, 47.56092]}},
{"type": "Feature", "id": "tm5trbeQh7EoahLJpnjCSrhi9OY=", "properties": {"ref": "1350710", "@spider": "the_keg_steakhouse", "addr:full": "1396 Kingsway", "addr:city": "Sudbury", "addr:state": "ON", "addr:postcode": "P3B 0A3", "addr:country": "CA", "name": "The Keg Steakhouse + Bar - Sudbury", "phone": "705-525-0802", "website": "http://www.kegsteakhouse.com", "opening_hours": "Mo-Th 16:00-22:30; Fr-Sa 16:00-23:00; Su 16:00-21:30", "brand": "The Keg Steakhouse"}, "geometry": {"type": "Point", "coordinates": [-80.94624, 46.50498]}},
{"type": "Feature", "id": "VHSV3ggC6LMZZzUYxOXtJTDLxCA=", "properties": {"ref": "1423777", "@spider": "the_keg_steakhouse", "addr:full": "15180 32nd Avenue Diversion", "addr:city": "Surrey", "addr:state": "BC", "addr:postcode": "V3Z 3M1", "addr:country": "CA", "name": "The Keg Steakhouse + Bar -- Morgan Creek", "phone": "604-542-9733", "website": "http://www.kegsteakhouse.com", "opening_hours": "Mo-Th 17:00-22:00; Fr 16:30-23:00; Sa 16:00-23:00; Su 16:00-22:00", "brand": "The Keg Steakhouse"}, "geometry": {"type": "Point", "coordinates": [-122.801853, 49.061959]}},
{"type": "Feature", "id": "uxIzV5DpkcPc-JBmRJAQdsa1824=", "properties": {"ref": "1261329", "@spider": "the_keg_steakhouse", "addr:full": "7948 120 Street", "addr:city": "Surrey", "addr:state": "BC", "addr:postcode": "V3W 3N2", "addr:country": "CA", "name": "The Keg Steakhouse + Bar - Scott Road", "phone": "604-591-6161", "website": "http://www.kegsteakhouse.com", "opening_hours": "Mo-Th 11:30-23:00; Fr 11:30-00:00; Sa 15:00-00:00; Su 15:00-23:00", "brand": "The Keg Steakhouse"}, "geometry": {"type": "Point", "coordinates": [-122.89031, 49.147666]}},
{"type": "Feature", "id": "s3wwXVIJqnI5uT6FbrSJEeNUqeI=", "properties": {"ref": "1253446", "@spider": "the_keg_steakhouse", "addr:full": "23 McClintock Dr", "addr:city": "Tempe", "addr:state": "AZ", "addr:postcode": "85281", "addr:country": "US", "name": "The Keg Steakhouse + Bar - Tempe", "phone": "480-557-5552", "website": "http://www.kegsteakhouse.com", "opening_hours": "Mo-Sa 16:00-23:00; Su 16:00-22:00", "brand": "The Keg Steakhouse"}, "geometry": {"type": "Point", "coordinates": [-111.9059, 33.43215]}},
{"type": "Feature", "id": "0ukyjjvEItooKDghDGpnSnUxauU=", "properties": {"ref": "1309274", "@spider": "the_keg_steakhouse", "addr:full": "735 Hewitson St", "addr:city": "Thunder Bay", "addr:state": "ON", "addr:postcode": "P7B 6B5", "addr:country": "CA", "name": "The Keg Steakhouse + Bar - Thunder Bay", "phone": "807-623-1960", "website": "http://www.kegsteakhouse.com", "opening_hours": "Mo-Tu 16:00-00:00; We-Sa 16:00-01:00; Su 16:00-00:00", "brand": "The Keg Steakhouse"}, "geometry": {"type": "Point", "coordinates": [-89.25687, 48.40489]}},
{"type": "Feature", "id": "9cZpVGLC7abJYkmQOaDzVG9hZ_g=", "properties": {"ref": "1261314", "@spider": "the_keg_steakhouse", "addr:full": "927 Dixon Rd", "addr:city": "Toronto", "addr:state": "ON", "addr:postcode": "M9W 1J8", "addr:country": "CA", "name": "The Keg Steakhouse + Bar - Dixon Road", "phone": "416-675-2311", "website": "https://www.kegsteakhouse.com/locations/dixon-road-keg", "opening_hours": "Mo-Th 11:30-00:00; Fr 11:30-01:00; Sa 15:00-01:00; Su 15:00-23:00", "brand": "The Keg Steakhouse"}, "geometry": {"type": "Point", "coordinates": [-79.5974, 43.68626]}},
{"type": "Feature", "id": "uNskeX05apASVEJiCXTpV_oArqo=", "properties": {"ref": "1261322", "@spider": "the_keg_steakhouse", "addr:full": "26 The Esplanade", "addr:city": "Toronto", "addr:state": "ON", "addr:postcode": "M5E 1A6", "addr:country": "CA", "name": "The Keg Steakhouse + Bar - Esplanade", "phone": "416-367-0685", "website": "https://www.kegsteakhouse.com/locations/?search=Esplanade", "opening_hours": "Mo-We 16:00-22:00; Th-Sa 16:00-23:00; Su 16:00-22:00", "brand": "The Keg Steakhouse"}, "geometry": {"type": "Point", "coordinates": [-79.37489, 43.64675]}},
{"type": "Feature", "id": "4MzLLCPCgKDmb48ZEED3kDN9pJI=", "properties": {"ref": "1261333", "@spider": "the_keg_steakhouse", "addr:full": "60 Estate Dr", "addr:city": "Scarborough", "addr:state": "ON", "addr:postcode": "M1H 2Z1", "addr:country": "CA", "name": "The Keg Steakhouse + Bar - Estate Drive", "phone": "416-438-1452", "website": "https://www.kegsteakhouse.com/locations/estate-drive-keg", "opening_hours": "Mo-Th 16:00-22:30; Fr 16:00-23:00; Sa 15:00-23:00; Su 16:00-22:00", "brand": "The Keg Steakhouse"}, "geometry": {"type": "Point", "coordinates": [-79.23487, 43.78263]}},
{"type": "Feature", "id": "9Z9K4dAvWIjX1B9NGAmLoIKV8qo=", "properties": {"ref": "1261312", "@spider": "the_keg_steakhouse", "addr:full": "560 King St W", "addr:city": "Toronto", "addr:state": "ON", "addr:postcode": "M5V 0L5", "addr:country": "CA", "name": "The Keg Steakhouse + Bar -- King West", "phone": "416-364-7227", "website": "http://www.kegsteakhouse.com", "opening_hours": "Mo-Th 16:00-23:00; Fr-Sa 16:00-01:00; Su 16:00-23:00", "brand": "The Keg Steakhouse"}, "geometry": {"type": "Point", "coordinates": [-79.39879, 43.64504]}},
{"type": "Feature", "id": "tzl5lN4BBFq_ZmAbrM4kt0tpMOI=", "properties": {"ref": "1261332", "@spider": "the_keg_steakhouse", "addr:full": "1977 Leslie St", "addr:city": "North York", "addr:state": "ON", "addr:postcode": "M3B 2M3", "addr:country": "CA", "name": "The Keg Steakhouse + Bar - Leslie", "phone": "416-446-1045", "website": "http://www.kegsteakhouse.com", "opening_hours": "Mo-Fr 11:30-14:30; Sa 15:00-23:00; Su 15:00-22:00", "brand": "The Keg Steakhouse"}, "geometry": {"type": "Point", "coordinates": [-79.36128, 43.75873]}},
{"type": "Feature", "id": "Az9EOU0S9hQ7vArxlh7J04sMM6c=", "properties": {"ref": "1250040", "@spider": "the_keg_steakhouse", "addr:full": "515 Jarvis St", "addr:city": "Toronto", "addr:state": "ON", "addr:postcode": "M4Y 2H7", "addr:country": "CA", "name": "The Keg Steakhouse + Bar - Mansion", "phone": "416-964-6609", "website": "http://www.kegsteakhouse.com", "opening_hours": "Mo-Th 16:00-00:00; Fr-Sa 16:00-01:00; Su 16:00-00:00", "brand": "The Keg Steakhouse"}, "geometry": {"type": "Point", "coordinates": [-79.37788, 43.66683]}},
{"type": "Feature", "id": "nD41M-f2eCEFS_auEvqzPR-aNds=", "properties": {"ref": "1585242", "@spider": "the_keg_steakhouse", "addr:full": "5015 Yonge St", "addr:city": "North York", "addr:state": "ON", "addr:postcode": "M2N 5P1", "addr:country": "CA", "name": "The Keg Steakhouse + Bar - North York", "phone": "416-733-2555", "website": "http://www.kegsteakhouse.com", "opening_hours": "Mo-Th 16:00-22:30; Fr-Sa 16:00-23:00; Su 16:00-22:00", "brand": "The Keg Steakhouse"}, "geometry": {"type": "Point", "coordinates": [-79.411861, 43.766541]}},
{"type": "Feature", "id": "LiONJuSAREOynU_xlOQG053Xm6g=", "properties": {"ref": "1402790", "@spider": "the_keg_steakhouse", "addr:full": "600-25 The West Mall", "addr:city": "Etobicoke", "addr:state": "ON", "addr:postcode": "M9C 1B8", "addr:country": "CA", "name": "The Keg Steakhouse + Bar -- Sherway Gardens", "phone": "416-626-3707", "website": "http://www.kegsteakhouse.com", "opening_hours": "Mo-Th 15:00-00:00; Fr-Sa 15:00-01:00; Su 15:00-00:00", "brand": "The Keg Steakhouse"}, "geometry": {"type": "Point", "coordinates": [-79.560636, 43.609599]}},
{"type": "Feature", "id": "EePH6vYtFxj2CLPPXidU6CsNd-I=", "properties": {"ref": "1261328", "@spider": "the_keg_steakhouse", "addr:full": "2201 Yonge St", "addr:city": "Toronto", "addr:state": "ON", "addr:postcode": "M4S 2B2", "addr:country": "CA", "name": "The Keg Steakhouse + Bar -Yonge & Eglinton", "phone": "416-484-4646", "website": "http://www.kegsteakhouse.com", "brand": "The Keg Steakhouse"}, "geometry": {"type": "Point", "coordinates": [-79.397845, 43.705925]}},
{"type": "Feature", "id": "0xZuZ5nz10KQvdxrip8gTL3ViC8=", "properties": {"ref": "1400112", "@spider": "the_keg_steakhouse", "addr:full": "165 York St", "addr:city": "Toronto", "addr:state": "ON", "addr:postcode": "M5H 3R8", "addr:country": "CA", "name": "The Keg Steakhouse + Bar - York Street", "phone": "416-703-1773", "website": "http://www.kegsteakhouse.com", "opening_hours": "Mo-We 11:30-01:00; Th-Fr 11:30-02:00; Sa 16:00-02:00; Su 16:00-00:00", "brand": "The Keg Steakhouse"}, "geometry": {"type": "Point", "coordinates": [-79.38402, 43.64964]}},
{"type": "Feature", "id": "kX0w11HAPcXu7YgfoQctq2uZJJ0=", "properties": {"ref": "1246445", "@spider": "the_keg_steakhouse", "addr:full": "310-1121 Alberni St", "addr:city": "Vancouver", "addr:state": "BC", "addr:postcode": "V6E 4T9", "addr:country": "CA", "name": "The Keg Steakhouse + Bar - Alberni", "phone": "604-685-4388", "website": "https://www.kegsteakhouse.com/locations/?search=alberni", "opening_hours": "Mo-Th 11:30-00:00; Fr 11:30-01:00; Sa 15:00-01:00; Su 15:00-23:00", "brand": "The Keg Steakhouse"}, "geometry": {"type": "Point", "coordinates": [-123.12416, 49.28596]}},
{"type": "Feature", "id": "aE9cvMTjlf8EtCtLgD6NlrcSEvI=", "properties": {"ref": "1246863", "@spider": "the_keg_steakhouse", "addr:full": "688 Dunsmuir St", "addr:city": "Vancouver", "addr:state": "BC", "addr:postcode": "V6B 1N3", "addr:country": "CA", "name": "The Keg Steakhouse + Bar - Dunsmuir", "phone": "604-685-7502", "website": "http://www.kegsteakhouse.com", "opening_hours": "Mo-Th 11:30-00:00; Fr 11:30-01:00; Sa 16:00-01:00; Su 16:00-23:00", "brand": "The Keg Steakhouse"}, "geometry": {"type": "Point", "coordinates": [-123.116372, 49.283573]}},
{"type": "Feature", "id": "fE6a4_fUecnAbysqDLZEN8w_FJU=", "properties": {"ref": "1246672", "@spider": "the_keg_steakhouse", "addr:full": "1499 Anderson Street", "addr:city": "Vancouver", "addr:state": "BC", "addr:postcode": "V6H 3R5", "addr:country": "CA", "name": "The Keg Steakhouse + Bar - Granville Island", "phone": "604-685-4735", "website": "http://www.kegsteakhouse.com", "opening_hours": "Mo-Th 11:30-23:00; Fr-Sa 11:30-00:00; Su 11:30-22:00", "brand": "The Keg Steakhouse"}, "geometry": {"type": "Point", "coordinates": [-123.13593, 49.27073]}},
{"type": "Feature", "id": "m7MU0FXdeGJde46qgpHIaoLwOjw=", "properties": {"ref": "1246539", "@spider": "the_keg_steakhouse", "addr:full": "1011 Mainland St", "addr:city": "Vancouver", "addr:state": "BC", "addr:postcode": "V6B 5P9", "addr:country": "CA", "name": "The Keg Steakhouse + Bar- Yaletown", "phone": "604-633-2534", "website": "https://www.kegsteakhouse.com/", "opening_hours": "Mo-Th 16:00-00:00; Fr-Sa 16:30-01:30; Su 16:00-00:00", "brand": "The Keg Steakhouse"}, "geometry": {"type": "Point", "coordinates": [-123.119114, 49.27652]}},
{"type": "Feature", "id": "haEl2jx0FM1Rja43xosvnHMZ6IE=", "properties": {"ref": "1585234", "@spider": "the_keg_steakhouse", "addr:full": "3300 Rutherford Rd", "addr:city": "Vaughan", "addr:state": "ON", "addr:postcode": "L4K 5Z2", "addr:country": "CA", "name": "The Keg Steakhouse + Bar - Vaughan Mills", "phone": "905-417-3570", "website": "http://www.kegsteakhouse.com", "opening_hours": "Mo-We 16:00-00:00; Th-Fr 16:00-01:00; Sa 15:00-01:00; Su 12:00-23:00", "brand": "The Keg Steakhouse"}, "geometry": {"type": "Point", "coordinates": [-79.54148, 43.82994]}},
{"type": "Feature", "id": "ykSLRQGkCx5qPiNcs3uAodN0mPk=", "properties": {"ref": "1246565", "@spider": "the_keg_steakhouse", "addr:full": "500 Fort Street", "addr:city": "Victoria", "addr:state": "BC", "addr:postcode": "V8W 1E6", "addr:country": "CA", "name": "The Keg Steakhouse + Bar - Fort Street", "phone": "250-386-7789", "website": "https://www.kegsteakhouse.com/", "opening_hours": "Mo-Th 16:30-22:00; Fr-Sa 16:30-23:00; Su 16:30-22:00", "brand": "The Keg Steakhouse"}, "geometry": {"type": "Point", "coordinates": [-123.36954, 48.42523]}},
{"type": "Feature", "id": "BOAHvjvwrSyShCk20Z8gc0fwrFc=", "properties": {"ref": "1246564", "@spider": "the_keg_steakhouse", "addr:full": "3940 Quadra St", "addr:city": "Victoria", "addr:state": "BC", "addr:postcode": "V8X 1J6", "addr:country": "CA", "name": "The Keg Steakhouse + Bar -- Saanich", "phone": "250-479-1651", "website": "http://www.kegsteakhouse.com", "opening_hours": "Mo-Th 16:30-22:00; Fr-Sa 16:00-23:00; Su 16:00-22:00", "brand": "The Keg Steakhouse"}, "geometry": {"type": "Point", "coordinates": [-123.36188, 48.46594]}},
{"type": "Feature", "id": "KTRzM-mdEkjuMPsjywjKToQCiN4=", "properties": {"ref": "1350790", "@spider": "the_keg_steakhouse", "addr:full": "36 Horseshoe Crescent", "addr:city": "Waterdown", "addr:state": "ON", "addr:postcode": "L0R 2H2", "addr:country": "CA", "name": "The Keg Steakhouse + Bar - Waterdown", "phone": "905-690-1709", "website": "http://www.kegsteakhouse.com", "opening_hours": "Mo-Th 16:30-23:00; Fr 16:30-00:00; Sa 15:30-00:00; Su 15:30-23:00", "brand": "The Keg Steakhouse"}, "geometry": {"type": "Point", "coordinates": [-80.07612, 43.30751]}},
{"type": "Feature", "id": "wC54zocytNmQaLFKLGYMajgzYYI=", "properties": {"ref": "1369219", "@spider": "the_keg_steakhouse", "addr:full": "42 Northfield Dr E", "addr:city": "Waterloo", "addr:state": "ON", "addr:postcode": "N2L 6A1", "addr:country": "CA", "name": "The Keg Steakhouse + Bar - Waterloo", "phone": "519-725-4444", "website": "http://www.kegsteakhouse.com", "opening_hours": "Mo-Th 16:00-23:00; Fr 16:00-00:00; Sa 15:00-00:00; Su 15:00-23:00", "brand": "The Keg Steakhouse"}, "geometry": {"type": "Point", "coordinates": [-80.53031, 43.50315]}},
{"type": "Feature", "id": "QfgOtEl_aV6j_w3oKt4ovjix_b8=", "properties": {"ref": "1585243", "@spider": "the_keg_steakhouse", "addr:full": "731 Main St Unit 110", "addr:city": "West Vancouver", "addr:state": "BC", "addr:postcode": "V7T 0A5", "addr:country": "CA", "name": "The Keg Steakhouse + Bar - Park Royal", "phone": "604-922-1387", "website": "http://www.kegsteakhouse.com", "opening_hours": "Mo-Th 15:00-23:00; Fr-Sa 15:00-00:00; Su 15:00-23:00", "brand": "The Keg Steakhouse"}, "geometry": {"type": "Point", "coordinates": [-123.139842, 49.325817]}},
{"type": "Feature", "id": "E88YyNHd-txMQF2fKu83gMZUp40=", "properties": {"ref": "1246664", "@spider": "the_keg_steakhouse", "addr:full": "4429 Sundial Pl", "addr:city": "Whistler", "addr:state": "BC", "addr:postcode": "V0N 1B4", "addr:country": "CA", "name": "The Keg Steakhouse + Bar - Whistler", "phone": "604-932-5151", "website": "https://www.kegsteakhouse.com/", "opening_hours": "Mo-Th 15:00-22:00; Fr-Sa 15:00-23:00; Su 15:00-22:00", "brand": "The Keg Steakhouse"}, "geometry": {"type": "Point", "coordinates": [-122.95411, 50.11487]}},
{"type": "Feature", "id": "IMJpGa2_xeak3ujjWouB9MQIbS8=", "properties": {"ref": "1286815", "@spider": "the_keg_steakhouse", "addr:full": "490 Division Rd", "addr:city": "Windsor", "addr:state": "ON", "addr:postcode": "N9A 6K7", "addr:country": "CA", "name": "The Keg Steakhouse + Bar - Windsor Devonshire", "phone": "519-969-3146", "website": "http://www.kegsteakhouse.com", "opening_hours": "Mo-Th 16:00-23:00; Fr-Sa 14:00-00:00; Su 14:00-23:00", "brand": "The Keg Steakhouse"}, "geometry": {"type": "Point", "coordinates": [-83.00162, 42.27131]}},
{"type": "Feature", "id": "ShF84hsF0XmbQQC-y8c98lllbtk=", "properties": {"ref": "1246475", "@spider": "the_keg_steakhouse", "addr:full": "1 Riverside Dr W", "addr:city": "Windsor", "addr:state": "ON", "addr:postcode": "N9A 5K3", "addr:country": "CA", "name": "The Keg Steakhouse + Bar - Windsor Riverside", "phone": "519-254-1646", "website": "http://www.kegsteakhouse.com", "opening_hours": "Mo-Th 17:00-22:00; Fr-Sa 16:00-23:00; Su 16:00-21:30", "brand": "The Keg Steakhouse"}, "geometry": {"type": "Point", "coordinates": [-83.04089, 42.31906]}},
{"type": "Feature", "id": "z3L5K9WZU8EjM_cj7tgJvavTkWU=", "properties": {"ref": "1361722", "@spider": "the_keg_steakhouse", "addr:full": "115 Garry St", "addr:city": "Winnipeg", "addr:state": "MB", "addr:postcode": "R3C 1G5", "addr:country": "CA", "name": "The Keg Steakhouse + Bar - Garry Street", "phone": "204-942-7619", "website": "https://www.kegsteakhouse.com/", "opening_hours": "Mo-Th 15:00-00:00; Fr-Sa 15:00-01:00; Su 15:00-23:00", "brand": "The Keg Steakhouse"}, "geometry": {"type": "Point", "coordinates": [-97.1376, 49.88899]}},
{"type": "Feature", "id": "0g29DldYBikyhKgjuXyzNZ5SBEM=", "properties": {"ref": "1361723", "@spider": "the_keg_steakhouse", "addr:full": "2034 McGillivray Blvd", "addr:city": "Winnipeg", "addr:state": "MB", "addr:postcode": "R3Y 1V5", "addr:country": "CA", "name": "The Keg Steakhouse + Bar -- Southside", "phone": "204-477-5300", "website": "http://www.kegsteakhouse.com", "opening_hours": "Mo-Th 11:30-00:00; Fr 11:30-01:00; Sa 14:00-01:00; Su 14:00-23:00", "brand": "The Keg Steakhouse"}, "geometry": {"type": "Point", "coordinates": [-97.19499, 49.82283]}},
{"type": "Feature", "id": "14_Yp8WOhtkro-8X1LbjjmPDUB0=", "properties": {"ref": "1361725", "@spider": "the_keg_steakhouse", "addr:full": "2553 Portage Ave", "addr:city": "Winnipeg", "addr:state": "MB", "addr:postcode": "R3J 0P3", "addr:country": "CA", "name": "The Keg Steakhouse + Bar -- St. James", "phone": "204-885-5275", "website": "http://www.kegsteakhouse.com", "opening_hours": "Mo-Th 15:00-00:00; Fr-Sa 15:00-01:00; Su 15:00-23:00", "brand": "The Keg Steakhouse"}, "geometry": {"type": "Point", "coordinates": [-97.26208, 49.87603]}},
{"type": "Feature", "id": "Zys5UwqZ6ZYlSkb_-ZrGPUWOJGc=", "properties": {"ref": "1699744", "@spider": "the_keg_steakhouse", "addr:full": "6210 Highway 7", "addr:city": "Woodbridge", "addr:state": "ON", "addr:postcode": "L4H 4G3", "addr:country": "CA", "name": "The Keg Steakhouse + Bar- Woodbridge", "phone": "905-264-7787", "website": "https://kegsteakhouse.com/en/locations", "brand": "The Keg Steakhouse"}, "geometry": {"type": "Point", "coordinates": [-79.624059, 43.772492]}}]}