{"type":"FeatureCollection","features":[{"type": "Feature", "id": "uPrujtjSEJGgdTxdr3RrmnUabkE=", "properties": {"ref": "441", "@spider": "thefreshgrocer", "addr:full": "5301 Chew Ave", "addr:city": "Philadelphia", "addr:state": "PA", "addr:postcode": "19138", "name": "The Fresh Grocer of LaSalle", "phone": "(267) 323-3800", "website": "https://www.thefreshgrocer.com/sm/planning/rsid/441", "opening_hours": "Sun - Sat 6am - 11pm", "brand": "The Fresh Grocer", "brand:wikidata": "Q18389721"}, "geometry": {"type": "Point", "coordinates": [-75.159991, 40.043811]}},
{"type": "Feature", "id": "4IYJMCDlFZNwCiL6jlM34HCTXy4=", "properties": {"ref": "432", "@spider": "thefreshgrocer", "addr:full": "5601 Chestnut St", "addr:city": "Philadelphia", "addr:state": "PA", "addr:postcode": "19139", "name": "The Fresh Grocer of 56th & Chestnut", "phone": "(215) 474-2600", "website": "https://www.thefreshgrocer.com/sm/planning/rsid/432", "opening_hours": "Sun - Sat 6am-11pm", "brand": "The Fresh Grocer", "brand:wikidata": "Q18389721"}, "geometry": {"type": "Point", "coordinates": [-75.234311, 39.960723]}},
{"type": "Feature", "id": "RxTrgkz8xGPJK_zkrDVDoA5iHhc=", "properties": {"ref": "448", "@spider": "thefreshgrocer", "addr:full": "1501 N Broad St", "addr:city": "Philadelphia", "addr:state": "PA", "addr:postcode": "19122", "name": "The Fresh Grocer of Progress Plaza", "phone": "(215) 531-9333", "website": "https://www.thefreshgrocer.com/sm/planning/rsid/448", "opening_hours": "Sun-Sat 6 am - 1 am", "brand": "The Fresh Grocer", "brand:wikidata": "Q18389721"}, "geometry": {"type": "Point", "coordinates": [-75.157669, 39.976889]}},
{"type": "Feature", "id": "0dDQRkA-xy_d5FfVoTTLj0b2cy4=", "properties": {"ref": "456", "@spider": "thefreshgrocer", "addr:full": "4160 Monument Road", "addr:city": "Philadelphia", "addr:state": "PA", "addr:postcode": "19131-1726", "name": "The Fresh Grocer of Monument Road", "phone": "(215) 581-4990", "website": "https://www.thefreshgrocer.com/sm/planning/rsid/456", "opening_hours": "Sunday - Saturday 7:00 AM - 11:00 PM", "brand": "The Fresh Grocer", "brand:wikidata": "Q18389721"}, "geometry": {"type": "Point", "coordinates": [-75.21359, 40.002758]}},
{"type": "Feature", "id": "-th3HD7hHbg_8Is1ogMdnDEWYag=", "properties": {"ref": "415", "@spider": "thefreshgrocer", "addr:full": "1000 Easton Rd.", "addr:city": "Wyncote", "addr:state": "PA", "addr:postcode": "19095-2918", "name": "The Fresh Grocer of Wyncote", "phone": "(215) 376-0111", "website": "https://www.thefreshgrocer.com/sm/planning/rsid/415", "opening_hours": "Monday - Sunday 7 am - 11 pm", "brand": "The Fresh Grocer", "brand:wikidata": "Q18389721"}, "geometry": {"type": "Point", "coordinates": [-75.167934, 40.08243]}},
{"type": "Feature", "id": "yMgisiqKimTUt3upspGgmW-ec9M=", "properties": {"ref": "438", "@spider": "thefreshgrocer", "addr:full": "421 S. 69th St", "addr:city": "Upper Darby", "addr:state": "PA", "addr:postcode": "19082", "name": "The Fresh Grocer of Upper Darby", "phone": "(610) 352-1222", "website": "https://www.thefreshgrocer.com/sm/planning/rsid/438", "opening_hours": "Mon-Sun 6am-11pm", "brand": "The Fresh Grocer", "brand:wikidata": "Q18389721"}, "geometry": {"type": "Point", "coordinates": [-75.257392, 39.953617]}},
{"type": "Feature", "id": "5HfRR71eg9ZOGqWxw-Tw4xhubgs=", "properties": {"ref": "459", "@spider": "thefreshgrocer", "addr:full": "3021 Grays Ferry Ave", "addr:city": "Philadelphia", "addr:state": "PA", "addr:postcode": "19146", "name": "The Fresh Grocer of Grays Ferry", "phone": "(215) 468-1550", "website": "https://www.thefreshgrocer.com/sm/planning/rsid/459", "opening_hours": "Sun-Sat 6am-11pm", "brand": "The Fresh Grocer", "brand:wikidata": "Q18389721"}, "geometry": {"type": "Point", "coordinates": [-75.193305, 39.940413]}},
{"type": "Feature", "id": "hFpMi0FfBgmdjFGPiRrlvq3BC_w=", "properties": {"ref": "144", "@spider": "thefreshgrocer", "addr:full": "510 Inman Ave", "addr:city": "Colonia", "addr:state": "NJ", "addr:postcode": "07067", "name": "The Fresh Grocer of Inman Ave", "phone": "(732) 388-6363", "website": "https://www.thefreshgrocer.com/sm/planning/rsid/144", "opening_hours": "Monday \u2013 Saturday : 7AM-10PM\nSunday 7AM-8PM\nSenior Shop Hour: 7AM-8AM (Monday - Friday)", "brand": "The Fresh Grocer", "brand:wikidata": "Q18389721"}, "geometry": {"type": "Point", "coordinates": [-74.32518, 40.59941]}},
{"type": "Feature", "id": "d6JS-Fju1gDV17SARosFhsFu9JM=", "properties": {"ref": "147", "@spider": "thefreshgrocer", "addr:full": "315 Pascack Rd", "addr:city": "Washington Township", "addr:state": "NJ", "addr:postcode": "07676", "name": "The Fresh Grocer of Pascack Rd", "phone": "(201) 666-2185", "website": "https://www.thefreshgrocer.com/sm/planning/rsid/147", "opening_hours": "Monday \u2013 Saturday : 7AM-10PM\nSunday 7AM-9PM\nSenior Shop Hour: 7AM-8AM (Monday - Friday)", "brand": "The Fresh Grocer", "brand:wikidata": "Q18389721"}, "geometry": {"type": "Point", "coordinates": [-74.062806, 40.986667]}},
{"type": "Feature", "id": "bUqGQ23BsyOHopM85jB8qHwy8PA=", "properties": {"ref": "145", "@spider": "thefreshgrocer", "addr:full": "1068 High Mountain Rd", "addr:city": "North Haledon", "addr:state": "NJ", "addr:postcode": "07508", "name": "The Fresh Grocer of High Mountain Rd", "phone": "(973) 423-5506", "website": "https://www.thefreshgrocer.com/sm/planning/rsid/145", "opening_hours": "Monday \u2013 Saturday : 7AM-10PM", "brand": "The Fresh Grocer", "brand:wikidata": "Q18389721"}, "geometry": {"type": "Point", "coordinates": [-74.1915, 40.9723]}},
{"type": "Feature", "id": "UarIOEmOyg0DBwTfwMIfJPb6Dns=", "properties": {"ref": "146", "@spider": "thefreshgrocer", "addr:full": "597 Pompton Ave", "addr:city": "Cedar Grove", "addr:state": "NJ", "addr:postcode": "07009", "name": "The Fresh Grocer of Pompton Ave", "phone": "(973) 595-0655", "website": "https://www.thefreshgrocer.com/sm/planning/rsid/146", "opening_hours": "Monday \u2013 Saturday : 7AM-10PM\nSunday 7AM-9PM\nSenior Shop Hour: 7AM-8AM (Monday - Friday)", "brand": "The Fresh Grocer", "brand:wikidata": "Q18389721"}, "geometry": {"type": "Point", "coordinates": [-74.228889, 40.853561]}}]}