{"type":"FeatureCollection","features":[{"type": "Feature", "id": "Pt1fZoG5KdTSP_PL3g3r4JUZTx8=", "properties": {"ref": "15555", "@spider": "thirty_foods", "addr:full": "3475 Quadra Street", "addr:city": "Victoria", "addr:state": "British Columbia", "addr:postcode": "V8X1G8", "name": "Thrifty Foods Cloverdale", "phone": "2503822751", "opening_hours": "Sa 07:00-22:00", "brand": "Thirty Foods"}, "geometry": {"type": "Point", "coordinates": [-123.359205, 48.45423]}},
{"type": "Feature", "id": "UGFWeealHUmk1bBjeHnJWjOZeF8=", "properties": {"ref": "15545", "@spider": "thirty_foods", "addr:full": "#101 - 3995 Quadra Street", "addr:city": "Victoria", "addr:state": "British Columbia", "addr:postcode": "V8X1J8", "name": "Thrifty Foods Quadra", "phone": "2504830029", "opening_hours": "Sa 07:00-22:00", "brand": "Thirty Foods"}, "geometry": {"type": "Point", "coordinates": [-123.363035, 48.468763]}},
{"type": "Feature", "id": "UThiD_wFGPbHgB1vwEvic6cDi44=", "properties": {"ref": "15559", "@spider": "thirty_foods", "addr:full": "1580 Hillside Avenue", "addr:city": "Victoria", "addr:state": "British Columbia", "addr:postcode": "V8T4Y3", "name": "Thrifty Foods Hillside", "phone": "2503709591", "opening_hours": "Sa 07:00-22:00", "brand": "Thirty Foods"}, "geometry": {"type": "Point", "coordinates": [-123.337711, 48.445471]}},
{"type": "Feature", "id": "W0jPHwCjI4g8sSicE4_VzXyaUZA=", "properties": {"ref": "15563", "@spider": "thirty_foods", "addr:full": "1626 McKenzie Avenue", "addr:city": "Victoria", "addr:state": "British Columbia", "addr:postcode": "V8N1A5", "name": "Thrifty Foods Tuscany Village", "phone": "2503600692", "opening_hours": "Sa 07:00-22:00", "brand": "Thirty Foods"}, "geometry": {"type": "Point", "coordinates": [-123.3316, 48.4694]}},
{"type": "Feature", "id": "tSjBmRxiEXTCygAyttweqwW1Xmo=", "properties": {"ref": "15548", "@spider": "thirty_foods", "addr:full": "475 Simcoe Street", "addr:city": "Victoria", "addr:state": "British Columbia", "addr:postcode": "V8V4T4", "name": "Thrifty Foods James Bay", "phone": "2503862554", "opening_hours": "Sa 07:00-22:00", "brand": "Thirty Foods"}, "geometry": {"type": "Point", "coordinates": [-123.3749, 48.415]}},
{"type": "Feature", "id": "F_gO8DprUS93xsEgKDPTSmsTg2c=", "properties": {"ref": "15544", "@spider": "thirty_foods", "addr:full": "1590 Fairfield Road", "addr:city": "Victoria", "addr:state": "British Columbia", "addr:postcode": "V8S1G1", "name": "Thrifty Foods Fairfield", "phone": "2505989193", "opening_hours": "Sa 07:00-22:00", "brand": "Thirty Foods"}, "geometry": {"type": "Point", "coordinates": [-123.3374, 48.4132]}},
{"type": "Feature", "id": "ojVjwserz9hqnkeY-v0CjfpajaY=", "properties": {"ref": "15557", "@spider": "thirty_foods", "addr:full": "1495 Admirals Road", "addr:city": "Victoria", "addr:state": "British Columbia", "addr:postcode": "V9A2P8", "name": "Thrifty Foods Admirals Walk", "phone": "2503806505", "opening_hours": "Sa 07:00-22:00", "brand": "Thirty Foods"}, "geometry": {"type": "Point", "coordinates": [-123.4283, 48.4467]}},
{"type": "Feature", "id": "_71zfzjStBQ7-TKRoD2y7Bwvuic=", "properties": {"ref": "15551", "@spider": "thirty_foods", "addr:full": "#100 - 777 Royal Oak Drive", "addr:city": "Victoria", "addr:state": "British Columbia", "addr:postcode": "V8X4V1", "name": "Thrifty Foods Broadmead", "phone": "2507277633", "opening_hours": "Sa 07:00-22:00", "brand": "Thirty Foods"}, "geometry": {"type": "Point", "coordinates": [-123.3842, 48.4982]}},
{"type": "Feature", "id": "m8Md5tYUAg7fIlSIzuLlzGSKiV8=", "properties": {"ref": "15550G1", "@spider": "thirty_foods", "addr:full": "1860 Island Highway", "addr:city": "Victoria", "addr:state": "British Columbia", "addr:postcode": "V9Z0A1", "name": "Thrifty Foods Sooke Delivery Service", "phone": "2504742168", "opening_hours": "Sa 07:00-22:00", "brand": "Thirty Foods"}, "geometry": {"type": "Point", "coordinates": [-123.469036, 48.444049]}},
{"type": "Feature", "id": "XFlpXif2Zyw2jYMRGfqm6LbtmXQ=", "properties": {"ref": "15550", "@spider": "thirty_foods", "addr:full": "1860 Island Highway", "addr:city": "Victoria", "addr:state": "British Columbia", "addr:postcode": "V9B1J2", "name": "Thrifty Foods Colwood", "phone": "2504742168", "opening_hours": "Sa 07:00-22:00", "brand": "Thirty Foods"}, "geometry": {"type": "Point", "coordinates": [-123.4706, 48.4435]}},
{"type": "Feature", "id": "YwLTry9hvbMScf5rErui5l_79C0=", "properties": {"ref": "23847", "@spider": "thirty_foods", "addr:full": "3011 Merchant Way", "addr:city": " Langford", "addr:state": "British Columbia", "addr:postcode": "V9B0W9", "name": "Thrifty Foods Belmont", "phone": "2503911869", "opening_hours": "Sa 07:00-22:00", "brand": "Thirty Foods"}, "geometry": {"type": "Point", "coordinates": [-123.5095, 48.4378]}},
{"type": "Feature", "id": "L-aAn9fQXEeiu3Fi4oxGmtUqL3M=", "properties": {"ref": "15556", "@spider": "thirty_foods", "addr:full": "7860 Wallace Drive", "addr:city": "Saanichton", "addr:state": "British Columbia", "addr:postcode": "V8M2B3", "name": "Thrifty Foods Central Saanich", "phone": "2505440980", "opening_hours": "Sa 07:00-22:00", "brand": "Thirty Foods"}, "geometry": {"type": "Point", "coordinates": [-123.4179, 48.5961]}},
{"type": "Feature", "id": "ap1PxLDaswqnNczJEqce35qhMdw=", "properties": {"ref": "15547", "@spider": "thirty_foods", "addr:full": "9810 Seventh Street", "addr:city": "Sidney", "addr:state": "British Columbia", "addr:postcode": "V8L4W6", "name": "Thrifty Foods Sidney", "phone": "2506560946", "opening_hours": "Sa 07:00-22:00", "brand": "Thirty Foods"}, "geometry": {"type": "Point", "coordinates": [-123.4048, 48.6501]}},
{"type": "Feature", "id": "ftBgESeYldLMNnk6eQVp0cs_QoA=", "properties": {"ref": "15546", "@spider": "thirty_foods", "addr:full": "#50 - 2720 Mill Bay Road", "addr:city": "Mill Bay", "addr:state": "British Columbia", "addr:postcode": "V0R2P0", "name": "Thrifty Foods Mill Bay", "phone": "2507433261", "opening_hours": "Sa 07:00-22:00", "brand": "Thirty Foods"}, "geometry": {"type": "Point", "coordinates": [-123.558866, 48.65075]}},
{"type": "Feature", "id": "gsayug0w0e681AMJomdP_iF_Ttw=", "properties": {"ref": "15553", "@spider": "thirty_foods", "addr:full": "114 Purvis Lane", "addr:city": "Saltspring Island", "addr:state": "British Columbia", "addr:postcode": "V8K2S5", "name": "Thrifty Foods Saltspring Island", "phone": "2505371522", "opening_hours": "Sa 07:00-21:00", "brand": "Thirty Foods"}, "geometry": {"type": "Point", "coordinates": [-123.482266, 48.829221]}},
{"type": "Feature", "id": "wJZ5YQvBbK8XqRiDlni9unj6JJM=", "properties": {"ref": "16141", "@spider": "thirty_foods", "addr:full": "#1 - 2755 Beverly Street", "addr:city": "Duncan", "addr:state": "British Columbia", "addr:postcode": "V9L6X2", "name": "Thrifty Foods Duncan", "phone": "2507152630", "opening_hours": "Sa 07:00-22:00", "brand": "Thirty Foods"}, "geometry": {"type": "Point", "coordinates": [-123.7088, 48.7865]}},
{"type": "Feature", "id": "HiJmP4pf5pH4z5UhkXNQBGIQ4sI=", "properties": {"ref": "15560", "@spider": "thirty_foods", "addr:full": "#1207 - 56th Street", "addr:city": "Delta", "addr:state": "British Columbia", "addr:postcode": "V4L2A6", "name": "Thrifty Foods Tsawwassen", "phone": "6049489210", "opening_hours": "Sa 07:00-22:00", "brand": "Thirty Foods"}, "geometry": {"type": "Point", "coordinates": [-123.0708, 49.0251]}},
{"type": "Feature", "id": "TzUk-zX00vLSR6OgSDO5EEZFyAs=", "properties": {"ref": "16844", "@spider": "thirty_foods", "addr:full": "#102 - 15745 Croydon Drive", "addr:city": "Surrey", "addr:state": "British Columbia", "addr:postcode": "V3Z2L5", "name": "Thrifty Foods Morgan Crossing", "phone": "6045427851", "opening_hours": "Sa 07:00-22:00", "brand": "Thirty Foods"}, "geometry": {"type": "Point", "coordinates": [-122.785, 49.0482]}},
{"type": "Feature", "id": "bXRv_67kxiR_Xr4-o9nxQUPuuhc=", "properties": {"ref": "15549", "@spider": "thirty_foods", "addr:full": "650 South Terminal Avenue", "addr:city": "Nanaimo", "addr:state": "British Columbia", "addr:postcode": "V9R5E2", "name": "Thrifty Foods Port Place", "phone": "2507292937", "opening_hours": "Sa 07:00-21:00", "brand": "Thirty Foods"}, "geometry": {"type": "Point", "coordinates": [-123.9319, 49.1646]}},
{"type": "Feature", "id": "6kUWua_k-5SCkcB1x1HgVpdxO3s=", "properties": {"ref": "17166", "@spider": "thirty_foods", "addr:full": "#120 - 845 Marine Drive", "addr:city": "North Vancouver", "addr:state": "British Columbia", "addr:postcode": "V7P0A8", "name": "Thrifty Foods North Vancouver", "phone": "6049292299", "opening_hours": "Sa 07:00-21:00", "brand": "Thirty Foods"}, "geometry": {"type": "Point", "coordinates": [-123.0964, 49.3202]}},
{"type": "Feature", "id": "HePn7YNcQupA6Rq9gefEnbQXl-c=", "properties": {"ref": "15558", "@spider": "thirty_foods", "addr:full": "5801 Turner Road", "addr:city": "Nanaimo", "addr:state": "British Columbia", "addr:postcode": "V9T6L8", "name": "Thrifty Foods Longwood Station", "phone": "2507294950", "opening_hours": "Sa 07:00-22:00", "brand": "Thirty Foods"}, "geometry": {"type": "Point", "coordinates": [-124.0361, 49.2236]}},
{"type": "Feature", "id": "UKw2qQXowomoz_n6j8Pdo6sFuGA=", "properties": {"ref": "16045", "@spider": "thirty_foods", "addr:full": "170 Brew Street", "addr:city": "Port Moody", "addr:state": "British Columbia", "addr:postcode": "V3H0E7", "name": "Thrifty Foods Port Moody", "phone": "6049494251", "opening_hours": "Sa 07:00-22:00", "brand": "Thirty Foods"}, "geometry": {"type": "Point", "coordinates": [-122.828423, 49.279849]}},
{"type": "Feature", "id": "1eBxC5X5KNRHxbxNuOU7bNF30KA=", "properties": {"ref": "23405", "@spider": "thirty_foods", "addr:full": "3210 Edgemont Blvd", "addr:city": "North Vancouver", "addr:state": "British Columbia", "addr:postcode": "V7R0A7", "name": "Thrifty Foods Edgemont Market", "phone": "6049690064", "opening_hours": "Sa 07:00-22:00", "brand": "Thirty Foods"}, "geometry": {"type": "Point", "coordinates": [-123.103487, 49.338755]}},
{"type": "Feature", "id": "mvRKUYwMgQ-IwYb0hHahCqP6zLc=", "properties": {"ref": "15552", "@spider": "thirty_foods", "addr:full": "280 East Island Highway", "addr:city": "Parksville", "addr:state": "British Columbia", "addr:postcode": "V9P2H1", "name": "Thrifty Foods Parksville", "phone": "2502488823", "opening_hours": "Sa 07:00-22:00", "brand": "Thirty Foods"}, "geometry": {"type": "Point", "coordinates": [-124.3053, 49.3189]}},
{"type": "Feature", "id": "MkM6xN3UZOHmFqEq7jOJMsO0OuE=", "properties": {"ref": "22584", "@spider": "thirty_foods", "addr:full": "1551 Cliffe Ave", "addr:city": "Courtenay", "addr:state": "British Columbia", "addr:postcode": "V9N2K6", "name": "Thrifty Foods Courtenay Cliffe Ave", "phone": "2503381383", "opening_hours": "Sa 07:00-22:00", "brand": "Thirty Foods"}, "geometry": {"type": "Point", "coordinates": [-124.9934, 49.6846]}},
{"type": "Feature", "id": "3IA5-d94olH05xyoHlTroofgIHo=", "properties": {"ref": "17605", "@spider": "thirty_foods", "addr:full": "#100 - 444 Lerwick Road", "addr:city": "Courtenay", "addr:state": "British Columbia", "addr:postcode": "V9N9G4", "name": "Thrifty Foods Crown Isle", "phone": "2503315101", "opening_hours": "Sa 07:00-21:00", "brand": "Thirty Foods"}, "geometry": {"type": "Point", "coordinates": [-124.9624, 49.7097]}},
{"type": "Feature", "id": "ZsOiIKdTCI4GOA5REW6Rw4KyUXA=", "properties": {"ref": "15561", "@spider": "thirty_foods", "addr:full": "1400 Ironwood Road", "addr:city": "Campbell River", "addr:state": "British Columbia", "addr:postcode": "V9W5T5", "name": "Thrifty Foods Campbell River", "phone": "2508503581", "opening_hours": "Sa 07:00-21:00", "brand": "Thirty Foods"}, "geometry": {"type": "Point", "coordinates": [-125.2566, 50.0301]}}]}