{"type":"FeatureCollection","features":[{"type": "Feature", "id": "uKVkYpU_gjLmnNcbdVXHdJQhtbg=", "properties": {"ref": "260", "@spider": "timberland", "addr:full": "L301 Woodfield Mall", "addr:city": "Schaumburg", "addr:state": "IL", "addr:postcode": "60173", "addr:country": "US", "name": "Timberland ", "phone": "847-619-6275", "brand": "Timberland"}, "geometry": {"type": "Point", "coordinates": [-88.038248, 42.045624]}},
{"type": "Feature", "id": "JZaeg0LYZh7aketJOU_3sDvYYHc=", "properties": {"ref": "257", "@spider": "timberland", "addr:full": "625 North Michigan Ave", "addr:city": "Chicago", "addr:state": "IL", "addr:postcode": "60611", "addr:country": "US", "name": "Timberland ", "phone": "312-573-2234", "brand": "Timberland"}, "geometry": {"type": "Point", "coordinates": [-87.624196, 41.893212]}},
{"type": "Feature", "id": "2aHZoPkj-keJ_NtvJCeQfWR8b_c=", "properties": {"ref": "254", "@spider": "timberland", "addr:full": "4999 Old Orchard Shopping Center", "addr:city": "Skokie", "addr:state": "IL", "addr:postcode": "60077", "addr:country": "US", "name": "Timberland ", "phone": "847-673-0856", "brand": "Timberland"}, "geometry": {"type": "Point", "coordinates": [-87.74831, 42.059329]}},
{"type": "Feature", "id": "_J2Ah2VuwhbFL-9LoSmIMo45ZIg=", "properties": {"ref": "266", "@spider": "timberland", "addr:full": "278 West Market Street", "addr:city": "Bloomington", "addr:state": "MN", "addr:postcode": "55425", "addr:country": "US", "name": "Timberland ", "phone": "952-858-9908", "brand": "Timberland"}, "geometry": {"type": "Point", "coordinates": [-93.2432309, 44.854928]}},
{"type": "Feature", "id": "pIIMcKs5MVfDzFuTp_PQ4jhd9UQ=", "properties": {"ref": "4320", "@spider": "timberland", "addr:full": "Local 113", "addr:city": "San Pedro-Sula", "addr:country": "HN", "name": "Timberland - San Pedro-Sula", "phone": "(504) 580 1048", "brand": "Timberland"}, "geometry": {"type": "Point", "coordinates": [-88.06054, 15.5283]}},
{"type": "Feature", "id": "LA1h2aOMvpzbA4dX1d732yU-Ts0=", "properties": {"ref": "261", "@spider": "timberland", "addr:full": "7974 Tysons Corner Center", "addr:city": "McLean", "addr:state": "VA", "addr:postcode": "22102", "addr:country": "US", "name": "Timberland ", "phone": "703-356-0862", "brand": "Timberland"}, "geometry": {"type": "Point", "coordinates": [-77.221944, 38.918234]}},
{"type": "Feature", "id": "npBjX9wO2plfBKhC6r1_P1NIpeg=", "properties": {"ref": "224", "@spider": "timberland", "addr:full": "160 North Gulph Road", "addr:city": "King of Prussia", "addr:state": "PA", "addr:postcode": "19406", "addr:country": "US", "name": "Timberland ", "phone": "(610) 491-8035", "brand": "Timberland"}, "geometry": {"type": "Point", "coordinates": [-75.38582667, 40.08673667]}},
{"type": "Feature", "id": "wHfTrBn66RbwIqiNJnMXMAg24Mo=", "properties": {"ref": "263", "@spider": "timberland", "addr:full": "180 El Camino Real", "addr:city": "Palo Alto", "addr:state": "CA", "addr:postcode": "94304", "addr:country": "US", "name": "Timberland ", "phone": "650.330.1680", "brand": "Timberland"}, "geometry": {"type": "Point", "coordinates": [-122.171427, 37.443897]}},
{"type": "Feature", "id": "Si9qtKKQ5OF0dX06SI2xdPz7pIU=", "properties": {"ref": "249", "@spider": "timberland", "addr:full": "474 Broadway", "addr:city": "New York", "addr:state": "NY", "addr:postcode": "10013", "addr:country": "US", "name": "Timberland ", "phone": "646-613-7292", "brand": "Timberland"}, "geometry": {"type": "Point", "coordinates": [-74.000255, 40.721315]}},
{"type": "Feature", "id": "vpX9VD9G6ao5tAHfEIe_KGWxU2A=", "properties": {"ref": "259", "@spider": "timberland", "addr:full": "One Garden State Plaza", "addr:city": "Paramus", "addr:state": "NJ", "addr:postcode": "07652", "addr:country": "US", "name": "Timberland ", "phone": "201-843-1289", "brand": "Timberland"}, "geometry": {"type": "Point", "coordinates": [-74.07902, 40.91475]}},
{"type": "Feature", "id": "OMQDwSHKcYDFyTYJLqm_iiru7hc=", "properties": {"ref": "252", "@spider": "timberland", "addr:full": "28 West 34th Street", "addr:city": "New York", "addr:state": "NY", "addr:postcode": "10001", "addr:country": "US", "name": "Timberland ", "phone": "212-564-5921", "brand": "Timberland"}, "geometry": {"type": "Point", "coordinates": [-73.98792, 40.74985]}},
{"type": "Feature", "id": "PpFSIc0Xjo90WFol_sNeoqbJPOY=", "properties": {"ref": "507", "@spider": "timberland", "addr:full": "90-15 Queens Blvd", "addr:city": "Elmhurst", "addr:state": "NY", "addr:postcode": "11373", "addr:country": "US", "name": "Timberland ", "phone": "929-205-5932", "brand": "Timberland"}, "geometry": {"type": "Point", "coordinates": [-73.87176352, 40.73414863]}},
{"type": "Feature", "id": "NPeU6oy1OywzGCWtzBrSqfvBcfM=", "properties": {"ref": "220", "@spider": "timberland", "addr:full": "125 Westchester Avenue", "addr:city": "White Plains", "addr:state": "NY", "addr:postcode": "10601", "addr:country": "US", "name": "Timberland ", "phone": "914-328-2237", "brand": "Timberland"}, "geometry": {"type": "Point", "coordinates": [-73.75976, 41.03248]}},
{"type": "Feature", "id": "SiWvcalmYCNBIoiEwcICPrYyNEE=", "properties": {"ref": "1800", "@spider": "timberland", "addr:full": "Local 212", "addr:city": "San Jose", "addr:country": "CR", "name": "Timberland - San Jose", "phone": "(506) 201 8031", "brand": "Timberland"}, "geometry": {"type": "Point", "coordinates": [-84.24091, 10.01043]}},
{"type": "Feature", "id": "_eu9MHp8cSo6Q_XG9GamXxxQBCo=", "properties": {"ref": "251", "@spider": "timberland", "addr:full": "201 Newbury Street", "addr:city": "Boston", "addr:state": "MA", "addr:postcode": "02116", "addr:country": "US", "name": "Timberland ", "phone": "617-247-1478", "brand": "Timberland"}, "geometry": {"type": "Point", "coordinates": [-71.07991, 42.35031]}},
{"type": "Feature", "id": "wBr5KkvHf_9y4nBRcIU4SQFj_Z4=", "properties": {"ref": "280", "@spider": "timberland", "addr:full": "200 Domain Drive", "addr:city": "Stratham", "addr:state": "NH", "addr:postcode": "03885", "addr:country": "US", "name": "Timberland ", "phone": "603-773-1600", "brand": "Timberland"}, "geometry": {"type": "Point", "coordinates": [-70.89098, 42.9748]}},
{"type": "Feature", "id": "O5TZLNH8aUirGHjQiKIc4O_KS4g=", "properties": {"ref": "262", "@spider": "timberland", "addr:full": "245 Bellevue Square", "addr:city": "Bellevue", "addr:state": "WA", "addr:postcode": "98004", "addr:country": "US", "name": "Timberland ", "phone": "425-453-4685", "brand": "Timberland"}, "geometry": {"type": "Point", "coordinates": [-122.204078, 47.615285]}},
{"type": "Feature", "id": "u3nm5higb0j5HdkoFWQ6iva4Uvk=", "properties": {"ref": "8420", "@spider": "timberland", "addr:full": "Local 52", "addr:city": "Panama City", "addr:country": "PA", "name": "Timberland - Panama City", "phone": "507-302-3773", "brand": "Timberland"}, "geometry": {"type": "Point", "coordinates": [-79.5174632, 8.9758529]}},
{"type": "Feature", "id": "M-azr6h4NnBXioORGZAY7f2ibxs=", "properties": {"ref": "10920", "@spider": "timberland", "addr:full": "Avenida El Mojan", "addr:city": "Maracaibo", "addr:country": "VE", "name": "Timberland - Maracaibo", "phone": "+ 58 261 7400858", "brand": "Timberland"}, "geometry": {"type": "Point", "coordinates": [-71.7147951, 10.6544509]}},
{"type": "Feature", "id": "JNbn90TSrMYzJJVwdl_-5Za-BKE=", "properties": {"ref": "10980", "@spider": "timberland", "addr:full": "Calle 10 entre Av. Libertador y Antonio Jose de Sucre", "addr:city": "San Cristobal", "addr:country": "VE", "name": "Timberland - San Cristobal", "phone": "+58 276 3403423", "brand": "Timberland"}, "geometry": {"type": "Point", "coordinates": [-72.2341583, 7.7931484]}},
{"type": "Feature", "id": "KD_7hwr9tBVJIrHrWLkyniytEok=", "properties": {"ref": "10860", "@spider": "timberland", "addr:full": "Av. Los Leones con Avenida Libertador", "addr:city": "Barquisimeto", "addr:country": "VE", "name": "Timberland - Barquisimeto", "phone": "+58-251 2546538", "brand": "Timberland"}, "geometry": {"type": "Point", "coordinates": [-69.284542, 10.0784474]}},
{"type": "Feature", "id": "3-VXfu2ua_q5gb0Xs4g296XLkg0=", "properties": {"ref": "10900", "@spider": "timberland", "addr:full": "Terminal International", "addr:city": "Maiquetia", "addr:country": "VE", "name": "Timberland - Maiquetia", "phone": "+ 58 212 3551450", "brand": "Timberland"}, "geometry": {"type": "Point", "coordinates": [-67.0060347, 10.5976243]}},
{"type": "Feature", "id": "0BlM1op4UE6bvvE8VDqkMqdM2G0=", "properties": {"ref": "10880", "@spider": "timberland", "addr:full": "Av. Libertador", "addr:city": "Caracas", "addr:country": "VE", "name": "Timberland - Caracas", "phone": "+58 212 267 7671", "brand": "Timberland"}, "geometry": {"type": "Point", "coordinates": [-66.8872097, 10.5001866]}},
{"type": "Feature", "id": "0oq0uDXApTAsaTE-hkPQw1GdN0E=", "properties": {"ref": "11000", "@spider": "timberland", "addr:full": "Av. Ppal de las Merecedes con Calle Copernico", "addr:city": "Tolon", "addr:country": "VE", "name": "Timberland - Tolon", "phone": "+58 300 8611 / 8612", "brand": "Timberland"}, "geometry": {"type": "Point", "coordinates": [-66.8609499, 10.4809862]}},
{"type": "Feature", "id": "murAMo1IXw6KQhR4HmqCohut3_w=", "properties": {"ref": "10940", "@spider": "timberland", "addr:full": "Av. Jovito Villalba", "addr:city": "Margarita", "addr:country": "VE", "name": "Timberland - Margarita", "phone": "+58 295 260-2179", "brand": "Timberland"}, "geometry": {"type": "Point", "coordinates": [-63.8274953, 10.9929452]}},
{"type": "Feature", "id": "kjgd_243Eeh-FNX-7sMmJkrJCdc=", "properties": {"ref": "10960", "@spider": "timberland", "addr:full": "Av Guayana", "addr:city": "Puerto Ordaz", "addr:country": "VE", "name": "Timberland - Puerto Ordaz", "phone": "+58 286 6003260", "brand": "Timberland"}, "geometry": {"type": "Point", "coordinates": [-62.7157639, 8.3007834]}},
{"type": "Feature", "id": "R6v1ICAxyfgPl_L8OpZPiejAVIQ=", "properties": {"ref": "1340", "@spider": "timberland", "addr:full": "300 Di&#xe1;rio de Not&#xed;cias", "addr:city": "Porto Alegre", "addr:postcode": "90.810-080", "addr:country": "BR", "name": "Timberland -Porto Alegre", "phone": "(5551) 3242-2622", "brand": "Timberland"}, "geometry": {"type": "Point", "coordinates": [-72.766667, -8.2]}},
{"type": "Feature", "id": "XN_TgcexJXwZc_h4xObcgtH44qU=", "properties": {"ref": "8440", "@spider": "timberland", "addr:full": "Local 173", "addr:city": "Lima-Surco", "addr:country": "PE", "name": "Timberland - Lima-Surco", "phone": "(511) 435 5467", "brand": "Timberland"}, "geometry": {"type": "Point", "coordinates": [-77.038037, -12.0974823]}},
{"type": "Feature", "id": "UExRgGBX_uGz-O1KFWdVN7JJOCg=", "properties": {"ref": "1620", "@spider": "timberland", "addr:full": "Bamaceda 3242 L-202", "addr:city": "Calama", "addr:country": "CL", "name": "Timberland - Calama", "phone": "+56 55 369 056", "brand": "Timberland"}, "geometry": {"type": "Point", "coordinates": [-68.9215313, -22.4497402]}},
{"type": "Feature", "id": "rN3ig_kwcisiy7JYf7hwBrmv62A=", "properties": {"ref": "1100", "@spider": "timberland", "addr:full": "702 Av.Virrey Toledo", "addr:city": "Salta", "addr:postcode": "4400", "addr:country": "AR", "name": "Timberland -Salta", "phone": "(+54387)4311119", "brand": "Timberland"}, "geometry": {"type": "Point", "coordinates": [-65.4030757, -24.7809363]}},
{"type": "Feature", "id": "eeZM_49XSMrxmtWBSZzJA4BH46c=", "properties": {"ref": "1400", "@spider": "timberland", "addr:full": "3300 Jamel Cecilio", "addr:city": "Goiania", "addr:postcode": "74810-100", "addr:country": "BR", "name": "Timberland -Goiania", "phone": "(5562 3954-7792", "brand": "Timberland"}, "geometry": {"type": "Point", "coordinates": [-49.2328034, -16.7079791]}},
{"type": "Feature", "id": "gRHns9wSOhcbojnoyxNZqs5gYSo=", "properties": {"ref": "1560", "@spider": "timberland", "addr:full": "SAI/SO Area 6580", "addr:city": "Brasilia", "addr:postcode": "71219-900", "addr:country": "BR", "name": "Timberland -Brasilia", "phone": "(5561) 3233-9192", "brand": "Timberland"}, "geometry": {"type": "Point", "coordinates": [-47.9552839, -15.8335067]}},
{"type": "Feature", "id": "u968MKV3hg8BbVoCdIOkwcYNV6c=", "properties": {"ref": "1780", "@spider": "timberland", "addr:full": "Av. Libertad 1348 Loc. 031", "addr:city": "Vina del Mar City", "addr:country": "CL", "name": "Timberland - Vina del Mar City", "phone": "56-32-2381185", "brand": "Timberland"}, "geometry": {"type": "Point", "coordinates": [-71.5500276, -33.0153481]}},
{"type": "Feature", "id": "L9SMWdeRUlM42n7pCVoYzTMGV9Y=", "properties": {"ref": "1720", "@spider": "timberland", "addr:full": "Avda. La Dehesa # 1445 L-1081", "addr:city": "Santiago City", "addr:country": "CL", "name": "Timberland - Santiago City", "phone": "+ 56 2 216 1252", "brand": "Timberland"}, "geometry": {"type": "Point", "coordinates": [-70.5152664, -33.3575796]}},
{"type": "Feature", "id": "-IAYzj5XPlnJfOQqJNGarLjJ0jU=", "properties": {"ref": "1680", "@spider": "timberland", "addr:full": "Avda. Kennedy # 5413 L-031", "addr:city": "Santiago City", "addr:country": "CL", "name": "Timberland - Santiago City", "phone": "+562 219 4284", "brand": "Timberland"}, "geometry": {"type": "Point", "coordinates": [-70.5782494, -33.4021934]}},
{"type": "Feature", "id": "1UySaoENOAY02VK1ZqgoxWKIoEk=", "properties": {"ref": "1700", "@spider": "timberland", "addr:full": "Avda . Las Condes 9001 L-1029", "addr:city": "Santiago City", "addr:country": "CL", "name": "Timberland - Santiago City", "phone": "+562 213 1366", "brand": "Timberland"}, "geometry": {"type": "Point", "coordinates": [-70.5437307, -33.3927698]}},
{"type": "Feature", "id": "6rsFadh3KyPuQJ28NECOT-92_5U=", "properties": {"ref": "11912", "@spider": "timberland", "addr:full": "1501 L.C121-125 Americo Vespucio", "addr:city": "Santiago City", "addr:country": "CL", "name": "Timberland - Oeste Plaza", "brand": "Timberland"}, "geometry": {"type": "Point", "coordinates": [-70.6692655, -33.4488897]}},
{"type": "Feature", "id": "3yfYS06xorEEjsZgVGZeh3yXuH0=", "properties": {"ref": "1240", "@spider": "timberland", "addr:full": "3280 Av Acceso Este Lateral", "addr:city": "Mendoza", "addr:postcode": "5500", "addr:country": "AR", "name": "Timberland -Mendoza", "phone": "(+54261) 449-0122", "brand": "Timberland"}, "geometry": {"type": "Point", "coordinates": [-68.8380012, -32.8922273]}},
{"type": "Feature", "id": "hEYrb8NR1zGmFh6UB-KEELTslgM=", "properties": {"ref": "TRBSM-CCSAS3L7PA-1", "@spider": "timberland", "addr:full": "C.C. SIAM. Av.Siam, 3, local 7, planta 0 Adeje", "addr:city": "Santa Cruz de Tenerife", "addr:postcode": "38660", "addr:country": "ES", "name": "Timberland - SIAM MALL", "phone": "34922798739", "brand": "Timberland"}, "geometry": {"type": "Point", "coordinates": [-16.722647, 28.068684]}},
{"type": "Feature", "id": "REAaewe9zOi_95rSSbvvfNqwZH4=", "properties": {"ref": "TRBCS-SSCPBL8PLA-1", "@spider": "timberland", "addr:full": "Safari Shopping Center. Pl. Baja, Local 8. Playa las Am&#xe9;ricas Adeje", "addr:city": "Santa Cruz de Tenerife", "addr:postcode": "38640", "addr:country": "ES", "name": "Timberland - CC SAFARI", "phone": "34922751413", "brand": "Timberland"}, "geometry": {"type": "Point", "coordinates": [-16.67924, 28.106433]}},
{"type": "Feature", "id": "uml3ko1HtxW9QMVg1NBMvvvwKjg=", "properties": {"ref": "TRBLL-CH64SCDLLS-1", "@spider": "timberland", "addr:full": "c/ Herradores, 64 San Cristobal de la Laguna", "addr:city": "Santa Cruz de Tenerife", "addr:postcode": "38201", "addr:country": "ES", "name": "Timberland - LA LAGUNA", "phone": "34922267205", "brand": "Timberland"}, "geometry": {"type": "Point", "coordinates": [-16.3174882, 28.4885978]}},
{"type": "Feature", "id": "ON-0fEyLyb6kqeNFwdsg_5r4Bkc=", "properties": {"ref": "1260", "@spider": "timberland", "addr:full": "1400 Duarte Quir&#xf3;s", "addr:city": "Cordoba", "addr:postcode": "5000", "addr:country": "AR", "name": "Timberland -Cordoba", "phone": "(+54351) 482-228", "brand": "Timberland"}, "geometry": {"type": "Point", "coordinates": [-64.2044287, -31.4127232]}},
{"type": "Feature", "id": "aG3bLWGYDIkF2MOuQ02m8HKYH_w=", "properties": {"ref": "TRBET-CCETAFVM21-1", "@spider": "timberland", "addr:full": "C.C. El Tablero. Av.Francisco Vega Monroy, 21 San Bartolom&#xe9; de Tirajana", "addr:city": "Las Palmas", "addr:postcode": "35100", "addr:country": "ES", "name": "Timberland - EL TABLERO", "phone": "34928148435", "brand": "Timberland"}, "geometry": {"type": "Point", "coordinates": [-15.6015023, 27.7673413]}},
{"type": "Feature", "id": "245hePkzEdcI23KPPXZMaGFy8Nk=", "properties": {"ref": "1640", "@spider": "timberland", "addr:full": "Avda. Jorge Alessandri #3177 L-121", "addr:city": "Concepcion City", "addr:country": "CL", "name": "Timberland - Concepcion City", "phone": "+56 41 290 6855", "brand": "Timberland"}, "geometry": {"type": "Point", "coordinates": [-73.0587082, -36.7802354]}},
{"type": "Feature", "id": "GgjoFPvVEzbDIlTnXrQGmlfsj7s=", "properties": {"ref": "1380", "@spider": "timberland", "addr:full": "1600 Oleg&#xe1;rio Maciel", "addr:city": "Belo Horizonte", "addr:postcode": "30320-900", "addr:country": "BR", "name": "Timberland -Belo Horizonte", "phone": "(5531) 3292-9302", "brand": "Timberland"}, "geometry": {"type": "Point", "coordinates": [-43.9474041, -19.9279851]}},
{"type": "Feature", "id": "aPa2w1CFdfToH5SBLQEbGtp2AXc=", "properties": {"ref": "1480", "@spider": "timberland", "addr:full": "777 Iguatemi", "addr:city": "Campinas", "addr:postcode": "13092-902", "addr:country": "BR", "name": "Timberland -Campinas", "phone": "(5519) 3751-1109", "brand": "Timberland"}, "geometry": {"type": "Point", "coordinates": [-47.0276343, -22.8926666]}},
{"type": "Feature", "id": "OVnRVzaY6nLJgwbJovstjDFYpdI=", "properties": {"ref": "1360", "@spider": "timberland", "addr:full": "3049 Rodovia BR 356", "addr:city": "Belo Horizonte", "addr:postcode": "30180-915", "addr:country": "BR", "name": "Timberland -Belo Horizonte", "phone": "(5531) 3286-1325", "brand": "Timberland"}, "geometry": {"type": "Point", "coordinates": [-43.9445729, -19.9742624]}},
{"type": "Feature", "id": "lxEBtkVC11I9dHQTCdSpdPzLafQ=", "properties": {"ref": "1140", "@spider": "timberland", "addr:full": "385 Jun&#xed;n", "addr:city": "Rosario", "addr:postcode": "2000", "addr:country": "AR", "name": "Timberland -Rosario", "phone": "(+54341) 436-0880", "brand": "Timberland"}, "geometry": {"type": "Point", "coordinates": [-60.668602, -32.926523]}},
{"type": "Feature", "id": "n4xdLCsEqGl1ttP91K3xswgHPSA=", "properties": {"ref": "TIMBE-K412R", "@spider": "timberland", "addr:full": "Kringlan 4-12", "addr:city": "Reykjavik", "addr:postcode": "103", "addr:country": "IS", "name": "Timberland -Kringlan", "phone": "+354 6632380", "brand": "Timberland"}, "geometry": {"type": "Point", "coordinates": [-21.896789, 64.129323]}},
{"type": "Feature", "id": "f58er5iruwvjAIHaE67cvw_kuUk=", "properties": {"ref": "TRBSC-PCCT", "@spider": "timberland", "addr:full": "Plaza Candelaria", "addr:city": "Canarias Tenerife", "addr:postcode": "38002", "addr:country": "ES", "name": "Timberland - Santa Cruz de Tenerife", "brand": "Timberland"}, "geometry": {"type": "Point", "coordinates": [-16.2491051, 28.4668437]}},
{"type": "Feature", "id": "17TqqG64aIvS9zNXiYDGHK_hLbs=", "properties": {"ref": "180", "@spider": "timberland", "addr:full": "4015 I-35 South", "addr:city": "San Marcos", "addr:state": "TX", "addr:postcode": "78666", "addr:country": "US", "name": "Timberland Outlet Store", "phone": "512-353-3100", "brand": "Timberland"}, "geometry": {"type": "Point", "coordinates": [-97.93887, 29.86859]}},
{"type": "Feature", "id": "mRNY9g0EmVRFU3uFzgAyFvfPlVI=", "properties": {"ref": "146", "@spider": "timberland", "addr:full": "800 Highway 400 South", "addr:city": "Dawsonville", "addr:state": "GA", "addr:postcode": "30534", "addr:country": "US", "name": "Timberland Outlet Store", "phone": "706-216-4053", "brand": "Timberland"}, "geometry": {"type": "Point", "coordinates": [-84.04577, 34.35644]}},
{"type": "Feature", "id": "nI6uGoWtGAnzNyKLTRzq13UR7pc=", "properties": {"ref": "153", "@spider": "timberland", "addr:full": "800 Steven B. Tanger Blvd.", "addr:city": "Commerce", "addr:state": "GA", "addr:postcode": "30529", "addr:country": "US", "name": "Timberland Outlet Store", "phone": "706-336-6961", "brand": "Timberland"}, "geometry": {"type": "Point", "coordinates": [-83.47121134, 34.25101346]}},
{"type": "Feature", "id": "KqIDlv85z4VEXLp3FPZRat29SBk=", "properties": {"ref": "191", "@spider": "timberland", "addr:full": "1650 Premium Outlets Blvd.", "addr:city": "Aurora", "addr:state": "IL", "addr:postcode": "60502", "addr:country": "US", "name": "Timberland Outlet Store", "phone": "630-236-1066", "brand": "Timberland"}, "geometry": {"type": "Point", "coordinates": [-88.27782, 41.8011]}},
{"type": "Feature", "id": "QRGaOesNf-ZYTBXfG7GzK_kRJsc=", "properties": {"ref": "178", "@spider": "timberland", "addr:full": "8200 Vineland Avenue", "addr:city": "Orlando", "addr:state": "FL", "addr:postcode": "32821", "addr:country": "US", "name": "Timberland Outlet Store", "phone": "407-465-1900", "brand": "Timberland"}, "geometry": {"type": "Point", "coordinates": [-81.49615765, 28.38594928]}},
{"type": "Feature", "id": "VzESNg6Wq6G0JQCYjvsRU9CnM2I=", "properties": {"ref": "325", "@spider": "timberland", "addr:full": "15777 State Road 535", "addr:city": "Orlando", "addr:state": "FL", "addr:postcode": "32821", "addr:country": "US", "name": "Timberland Outlet Store", "phone": "407-238-2042", "brand": "Timberland"}, "geometry": {"type": "Point", "coordinates": [-81.49362, 28.35398]}},
{"type": "Feature", "id": "U3ZzF3_cNY2ILhoyf1H1V8OTou4=", "properties": {"ref": "147", "@spider": "timberland", "addr:full": "4963 International Drive", "addr:city": "Orlando", "addr:state": "FL", "addr:postcode": "32819", "addr:country": "US", "name": "Timberland Outlet Store", "phone": "407-370-6630", "brand": "Timberland"}, "geometry": {"type": "Point", "coordinates": [-81.452241, 28.474606]}},
{"type": "Feature", "id": "qsi0fz1C5NJLojvvNbM3rrd6Tow=", "properties": {"ref": "333", "@spider": "timberland", "addr:full": "11601 108th Street", "addr:city": "Pleasant Prairie", "addr:state": "WI", "addr:postcode": "53158", "addr:country": "US", "name": "Timberland Outlet Store", "phone": "262-857-2526", "brand": "Timberland"}, "geometry": {"type": "Point", "coordinates": [-87.94725, 42.51951]}},
{"type": "Feature", "id": "nmZk5lFyDa1IKY6QuIWK-68KZFA=", "properties": {"ref": "317", "@spider": "timberland", "addr:full": "7400 Las Vegas Blvd. South", "addr:city": "Las Vegas", "addr:state": "NV", "addr:postcode": "89123", "addr:country": "US", "name": "Timberland Outlet Store", "phone": "702-260-9666", "brand": "Timberland"}, "geometry": {"type": "Point", "coordinates": [-115.1723429, 36.05511824]}},
{"type": "Feature", "id": "B5d3mTv15Vs_PTnb6HNof-OvhqQ=", "properties": {"ref": "188", "@spider": "timberland", "addr:full": "785 South Grand Central Parkway", "addr:city": "Las Vegas", "addr:state": "NV", "addr:postcode": "89106", "addr:country": "US", "name": "Timberland Outlet Store", "phone": "(702) 366-0796", "brand": "Timberland"}, "geometry": {"type": "Point", "coordinates": [-115.1563078, 36.16430043]}},
{"type": "Feature", "id": "L6DYNBvwDlPn4MkPUhsXGT1o-wo=", "properties": {"ref": "184", "@spider": "timberland", "addr:full": "12801 West Sunrise Blvd.", "addr:city": "Sunrise", "addr:state": "FL", "addr:postcode": "33323", "addr:country": "US", "name": "Timberland Outlet Store", "phone": "954-838-7203", "brand": "Timberland"}, "geometry": {"type": "Point", "coordinates": [-80.32446996, 26.14502521]}},
{"type": "Feature", "id": "HFAJEu8835RhmLrVNqCO_cfjKEI=", "properties": {"ref": "143", "@spider": "timberland", "addr:full": "4630 Highway 501", "addr:city": "Myrtle Beach", "addr:state": "SC", "addr:postcode": "29579", "addr:country": "US", "name": "Timberland Outlet Store", "phone": "843-236-4869", "brand": "Timberland"}, "geometry": {"type": "Point", "coordinates": [-78.958015, 33.750861]}},
{"type": "Feature", "id": "g_qh725f3-4QU2Zs1WP_pny2g6U=", "properties": {"ref": "330", "@spider": "timberland", "addr:full": "4211 Camino de la Plaza", "addr:city": "San Diego", "addr:state": "CA", "addr:postcode": "92173", "addr:country": "US", "name": "Timberland Outlet Store", "phone": "619-662-4676", "brand": "Timberland"}, "geometry": {"type": "Point", "coordinates": [-117.042444, 32.54542741]}},
{"type": "Feature", "id": "SXO-990hcpBbgo5b2M2DCL0zdj8=", "properties": {"ref": "304", "@spider": "timberland", "addr:full": "4564 Baldwin Road", "addr:city": "Auburn Hills", "addr:state": "MI", "addr:postcode": "48326", "addr:country": "US", "name": "Timberland Outlet Store", "phone": "248-451-0506", "brand": "Timberland"}, "geometry": {"type": "Point", "coordinates": [-83.30659895, 42.70177852]}},
{"type": "Feature", "id": "07plPxIxI1IA_dSzt3E1fp1F8lo=", "properties": {"ref": "186", "@spider": "timberland", "addr:full": "1025 Outlet Center Dr", "addr:city": "Smithfield", "addr:state": "NC", "addr:postcode": "27577", "addr:country": "US", "name": "Timberland Outlet Store", "phone": "919-934-4300", "brand": "Timberland"}, "geometry": {"type": "Point", "coordinates": [-78.3122946, 35.5107585]}},
{"type": "Feature", "id": "uBjmZM2f2mSZf7JQsm7Zu075Gfw=", "properties": {"ref": "309", "@spider": "timberland", "addr:full": "One Mills Circle", "addr:city": "Ontario", "addr:state": "CA", "addr:postcode": "91764", "addr:country": "US", "name": "Timberland Outlet Store", "phone": "909-476-9025", "brand": "Timberland"}, "geometry": {"type": "Point", "coordinates": [-117.551689, 34.073011]}},
{"type": "Feature", "id": "GoK6jGhRV2ud9uI8U-WgAj9PsU8=", "properties": {"ref": "338", "@spider": "timberland", "addr:full": "100 Citadel Drive", "addr:city": "Commerce", "addr:state": "CA", "addr:postcode": "90040", "addr:country": "US", "name": "Timberland Outlet Store", "phone": "323.278.3581", "brand": "Timberland"}, "geometry": {"type": "Point", "coordinates": [-118.15308, 34.00487]}},
{"type": "Feature", "id": "wBXcyr-67PVqxZeCu4huPh02a5U=", "properties": {"ref": "136", "@spider": "timberland", "addr:full": "1911 Leesburg Grove City Road", "addr:city": "Grove City", "addr:state": "PA", "addr:postcode": "16127", "addr:country": "US", "name": "Timberland Outlet Store", "phone": "724-748-4049", "brand": "Timberland"}, "geometry": {"type": "Point", "coordinates": [-80.15826, 41.14342889]}},
{"type": "Feature", "id": "TvTna9CbmGwEeIYMvy6SiX6hOSE=", "properties": {"ref": "156", "@spider": "timberland", "addr:full": "690 West Ventura Blvd.", "addr:city": "Camarillo", "addr:state": "CA", "addr:postcode": "93010", "addr:country": "US", "name": "Timberland Outlet Store", "phone": "805-987-5622", "brand": "Timberland"}, "geometry": {"type": "Point", "coordinates": [-119.0777207, 34.21941103]}},
{"type": "Feature", "id": "dL0omN1wwOkpQ07DxAJn3LdNMQU=", "properties": {"ref": "185", "@spider": "timberland", "addr:full": "2700 Potomac Mills Circle", "addr:city": "Woodbridge", "addr:state": "VA", "addr:postcode": "22192", "addr:country": "US", "name": "Timberland Outlet Store", "phone": "703-492-2223", "brand": "Timberland"}, "geometry": {"type": "Point", "coordinates": [-77.29955939, 38.64514122]}},
{"type": "Feature", "id": "e5p_kkJfWu11bMEP-7TZm4KQ6Iw=", "properties": {"ref": "148", "@spider": "timberland", "addr:full": "5711-80 Richmond Rd.", "addr:city": "Williamsburg", "addr:state": "VA", "addr:postcode": "23188", "addr:country": "US", "name": "Timberland Outlet Store", "phone": "757-229-4592", "brand": "Timberland"}, "geometry": {"type": "Point", "coordinates": [-76.73556857, 37.32058643]}},
{"type": "Feature", "id": "tYGrnG573FuRZAdY_nr0SUnAGfs=", "properties": {"ref": "322", "@spider": "timberland", "addr:full": "7000 Arundel Mills Circle", "addr:city": "Hanover", "addr:state": "MD", "addr:postcode": "21076", "addr:country": "US", "name": "Timberland Outlet Store", "phone": "410-796-2820", "brand": "Timberland"}, "geometry": {"type": "Point", "coordinates": [-76.72561, 39.16238]}},
{"type": "Feature", "id": "KibhP8MS9uMjsDM88L2ybXpPqvc=", "properties": {"ref": "334", "@spider": "timberland", "addr:full": "1833 Fashion Outlet Blvd", "addr:city": "Niagara Falls", "addr:state": "NY", "addr:postcode": "14304", "addr:country": "US", "name": "Timberland Outlet Store", "phone": "(716) 297-0439", "brand": "Timberland"}, "geometry": {"type": "Point", "coordinates": [-78.980904, 43.095807]}},
{"type": "Feature", "id": "fPojywgwW_yuF-x1mpu0XZ91gVk=", "properties": {"ref": "122", "@spider": "timberland", "addr:full": "1260 Stanley K. Tanger Blvd", "addr:city": "Lancaster", "addr:state": "PA", "addr:postcode": "17602", "addr:country": "US", "name": "Timberland Outlet Store", "phone": "717-291-3281", "brand": "Timberland"}, "geometry": {"type": "Point", "coordinates": [-76.21985, 40.025522]}},
{"type": "Feature", "id": "ohpmBRQ_HwyLyxJCH6drx62sTB4=", "properties": {"ref": "139", "@spider": "timberland", "addr:full": "34986 Midway Outlet Drive", "addr:city": "Rehoboth Beach", "addr:state": "DE", "addr:postcode": "19971", "addr:country": "US", "name": "Timberland Outlet Store", "phone": "302-644-0680", "brand": "Timberland"}, "geometry": {"type": "Point", "coordinates": [-75.14191574, 38.73387513]}},
{"type": "Feature", "id": "d1CbThMavkAjsE-7z67MaLKBnxw=", "properties": {"ref": "316", "@spider": "timberland", "addr:full": "18 Lightcap Road", "addr:city": "Pottstown", "addr:state": "PA", "addr:postcode": "19464", "addr:country": "US", "name": "Timberland Outlet Store", "phone": "610-327-1734", "brand": "Timberland"}, "geometry": {"type": "Point", "coordinates": [-75.55855305, 40.22947662]}},
{"type": "Feature", "id": "VZex4FryWvjCZFeoZe3GvCpQ1FY=", "properties": {"ref": "126", "@spider": "timberland", "addr:full": "681 Leavesly Road", "addr:city": "Gilroy", "addr:state": "CA", "addr:postcode": "95020", "addr:country": "US", "name": "Timberland Outlet Store", "phone": "408-848-5255", "brand": "Timberland"}, "geometry": {"type": "Point", "coordinates": [-121.56313, 37.0237]}},
{"type": "Feature", "id": "fcLOFz-OHWGkBWy9zsROsbQYR7I=", "properties": {"ref": "142", "@spider": "timberland", "addr:full": "1000 Premium Outlets Drive", "addr:city": "Tannersville", "addr:state": "PA", "addr:postcode": "18372", "addr:country": "US", "name": "Timberland Outlet Store", "phone": "570-620-1772", "brand": "Timberland"}, "geometry": {"type": "Point", "coordinates": [-75.31535, 41.049]}},
{"type": "Feature", "id": "_afpDq-TZtrFtPIs3JtlGA8WHSs=", "properties": {"ref": "187", "@spider": "timberland", "addr:full": "117 North Michigan Ave.", "addr:city": "Atlantic City", "addr:state": "NJ", "addr:postcode": "08401", "addr:country": "US", "name": "Timberland Outlet Store", "phone": "609-347-0835", "brand": "Timberland"}, "geometry": {"type": "Point", "coordinates": [-74.43674694, 39.36080041]}},
{"type": "Feature", "id": "txS2WE9MGAccp64TzqJtKjlFIgE=", "properties": {"ref": "161", "@spider": "timberland", "addr:full": "67 Liberty Village", "addr:city": "Flemington", "addr:state": "NJ", "addr:postcode": "08822", "addr:country": "US", "name": "Timberland Outlet Store", "phone": "908-284-2994", "brand": "Timberland"}, "geometry": {"type": "Point", "coordinates": [-74.862729, 40.503791]}},
{"type": "Feature", "id": "Jy6_K2CKtYztYh2QokUL2qKA6pE=", "properties": {"ref": "305", "@spider": "timberland", "addr:full": "447 Great Mall Drive", "addr:city": "Milpitas", "addr:state": "CA", "addr:postcode": "95035", "addr:country": "US", "name": "Timberland Outlet Store", "phone": "408-942-7067", "brand": "Timberland"}, "geometry": {"type": "Point", "coordinates": [-121.8946029, 37.41624102]}},
{"type": "Feature", "id": "ZMBhIbl1JjuKFqh9MOaxjXejtkA=", "properties": {"ref": "331", "@spider": "timberland", "addr:full": "3626 Livermore Outlets Drive", "addr:city": "Livermore", "addr:state": "CA", "addr:postcode": "94551", "addr:country": "US", "name": "Timberland Outlet Store", "phone": "925-245-0655", "brand": "Timberland"}, "geometry": {"type": "Point", "coordinates": [-121.841823, 37.699111]}},
{"type": "Feature", "id": "xFQTL37np250Y3hKWGYPlQZZtkg=", "properties": {"ref": "160", "@spider": "timberland", "addr:full": "537 Monmouth Rd", "addr:city": "Jackson", "addr:state": "NJ", "addr:postcode": "08527", "addr:country": "US", "name": "Timberland Outlet Store", "phone": "732-833-1884", "brand": "Timberland"}, "geometry": {"type": "Point", "coordinates": [-74.42018, 40.16294]}},
{"type": "Feature", "id": "P7BK9UpKDm9XSv5RJYSXkjjShtw=", "properties": {"ref": "308", "@spider": "timberland", "addr:full": "268 Nut Tree Road", "addr:city": "Vacaville", "addr:state": "CA", "addr:postcode": "95687", "addr:country": "US", "name": "Timberland Outlet Store", "phone": "707-449-1672", "brand": "Timberland"}, "geometry": {"type": "Point", "coordinates": [-121.954004, 38.369047]}},
{"type": "Feature", "id": "hOFsFbepSVgYTwNjjg6JaUsjR8Y=", "properties": {"ref": "320", "@spider": "timberland", "addr:full": "1 Premium Outlet Blvd", "addr:city": "Tinton Falls", "addr:state": "NJ", "addr:postcode": "07753", "addr:country": "US", "name": "Timberland Outlet Store", "phone": "732-493-6183", "brand": "Timberland"}, "geometry": {"type": "Point", "coordinates": [-74.09203, 40.22425]}},
{"type": "Feature", "id": "K3bLulP3VEw9ytFRZ2ea_TtUQ0E=", "properties": {"ref": "323", "@spider": "timberland", "addr:full": "651 Kapkowski Road", "addr:city": "Elizabeth", "addr:state": "NJ", "addr:postcode": "07201", "addr:country": "US", "name": "Timberland Outlet Store", "phone": "908-352-5390", "brand": "Timberland"}, "geometry": {"type": "Point", "coordinates": [-74.174855, 40.66244]}},
{"type": "Feature", "id": "B-QTxG_MLAIWXQ4G42iQyzbt5oI=", "properties": {"ref": "329", "@spider": "timberland", "addr:full": "680 Bluebird Ct", "addr:city": "Central Valley", "addr:state": "NY", "addr:postcode": "10917", "addr:country": "US", "name": "Timberland Outlet Store", "phone": "845-928-4628", "brand": "Timberland"}, "geometry": {"type": "Point", "coordinates": [-74.1241042, 41.3156137]}},
{"type": "Feature", "id": "R_KHKmwmHY_mCOdmHEvYpJSAIGA=", "properties": {"ref": "319", "@spider": "timberland", "addr:full": "1601 The Arches Circle", "addr:city": "Deer Park", "addr:state": "NY", "addr:postcode": "11729", "addr:country": "US", "name": "Timberland Outlet Store", "phone": "631-242-4598", "brand": "Timberland"}, "geometry": {"type": "Point", "coordinates": [-73.304003, 40.765361]}},
{"type": "Feature", "id": "q8_DqMFIiL2nM1KU0Kgd5gL2eJI=", "properties": {"ref": "132", "@spider": "timberland", "addr:full": "517 Tanger Mall Drive", "addr:city": "Riverhead", "addr:state": "NY", "addr:postcode": "11901", "addr:country": "US", "name": "Timberland Outlet Store", "phone": "631-369-5282", "brand": "Timberland"}, "geometry": {"type": "Point", "coordinates": [-72.715407, 40.919974]}},
{"type": "Feature", "id": "XIp8SLtERl1BFAea8Vv76C6PFQo=", "properties": {"ref": "121", "@spider": "timberland", "addr:full": "1444 State Route 9", "addr:city": "Lake George", "addr:state": "NY", "addr:postcode": "12845", "addr:country": "US", "name": "Timberland Outlet Store", "phone": "518-793-2682", "brand": "Timberland"}, "geometry": {"type": "Point", "coordinates": [-73.69983, 43.365706]}},
{"type": "Feature", "id": "1pPgBIU9KPrShyCIckVArbZD00U=", "properties": {"ref": "166", "@spider": "timberland", "addr:full": "One Premium Outlets Blvd.", "addr:city": "Wrentham", "addr:state": "MA", "addr:postcode": "02093", "addr:country": "US", "name": "Timberland Outlet Store", "phone": "508-384-5780", "brand": "Timberland"}, "geometry": {"type": "Point", "coordinates": [-71.34698, 42.03617]}},
{"type": "Feature", "id": "zh7Kb_lyGzq2yI7qFpRBROUnUI0=", "properties": {"ref": "328", "@spider": "timberland", "addr:full": "80 Premium Outlets Blvd", "addr:city": "Merrimack", "addr:state": "NH", "addr:postcode": "03054", "addr:country": "US", "name": "Timberland Outlet Store", "phone": "603-424-6506", "brand": "Timberland"}, "geometry": {"type": "Point", "coordinates": [-71.5009616, 42.8258621]}},
{"type": "Feature", "id": "9ELpJ3BEyevW57BCPJWTSeJR494=", "properties": {"ref": "326", "@spider": "timberland", "addr:full": "2 Common Court", "addr:city": "North Conway", "addr:state": "NH", "addr:postcode": "03860", "addr:country": "US", "name": "Timberland Outlet Store", "phone": "603-356-3833", "brand": "Timberland"}, "geometry": {"type": "Point", "coordinates": [-71.11468909, 44.02317764]}},
{"type": "Feature", "id": "J_TAQOBt5L2MxOVf3jIY45VNYXc=", "properties": {"ref": "TRBLC-DML6ADLPLC-1", "@spider": "timberland", "addr:full": "Dulce M&#xaa; Loinaz, 6. Av. De la Playa. Los Cristianos Arona", "addr:city": "Santa Cruz de Tenerife", "addr:postcode": "38640", "addr:country": "ES", "name": "Timberland - LOS CRISTIANOS", "phone": "34922789858", "brand": "Timberland"}, "geometry": {"type": "Point", "coordinates": [-16.67924, 28.106433]}},
{"type": "Feature", "id": "SiMXu25eZKyuCC5g3BMB67C7yaw=", "properties": {"ref": "335", "@spider": "timberland", "addr:full": "20 City Boulevard West", "addr:city": "Orange", "addr:state": "CA", "addr:postcode": "92868", "addr:country": "US", "name": "Timberland Outlet Store", "phone": "714-704-0014", "brand": "Timberland"}, "geometry": {"type": "Point", "coordinates": [-117.89052, 33.78329]}},
{"type": "Feature", "id": "wY_g2ppdBNUypjG5J-mOIk1LFUg=", "properties": {"ref": "332", "@spider": "timberland", "addr:full": "20-A Killingworth Turnpike", "addr:city": "Clinton", "addr:state": "CT", "addr:postcode": "06413", "addr:country": "US", "name": "Timberland Outlet Store", "phone": "860-664-0281", "brand": "Timberland"}, "geometry": {"type": "Point", "coordinates": [-72.53213, 41.289456]}},
{"type": "Feature", "id": "-Rym9AgkTebuN27VdQycZlQvWRg=", "properties": {"ref": "336", "@spider": "timberland", "addr:full": "10600 Quil Ceda Blvd.", "addr:city": "Tulalip", "addr:state": "WA", "addr:postcode": "98271", "addr:country": "US", "name": "Timberland Outlet Store", "phone": "360-716-2727", "brand": "Timberland"}, "geometry": {"type": "Point", "coordinates": [-122.18563, 48.09168]}}]}