{"type":"FeatureCollection","features":[{"type": "Feature", "id": "nT10uQy093ff7GBsVMuVd6nxQt4=", "properties": {"ref": "-1566706934", "@spider": "tommy_hilfiger", "addr:full": "4401 North IH 35", "addr:city": "Round Rock", "addr:state": "TX", "addr:postcode": "78664", "addr:country": "US", "name": "Tommy Hilfiger", "phone": "512-931-2327", "brand": "Tommy Hilfiger"}, "geometry": {"type": "Point", "coordinates": [-97.689499, 30.565678]}},
{"type": "Feature", "id": "yrFTPpt4V5oTSDD5n4-nY3qRdsA=", "properties": {"ref": "-1566706854", "@spider": "tommy_hilfiger", "addr:full": "15853 North Freeway", "addr:city": "Forth Worth", "addr:state": "TX", "addr:postcode": "76177", "addr:country": "US", "name": "Tommy Hilfiger", "phone": "682-831-1487", "brand": "Tommy Hilfiger"}, "geometry": {"type": "Point", "coordinates": [-97.3118, 32.943]}},
{"type": "Feature", "id": "m170wNAf_7TPzt0td0iJojJnjmc=", "properties": {"ref": "-1566706912", "@spider": "tommy_hilfiger", "addr:full": "2950 W Interstate Route 20", "addr:city": "Grand Prairie", "addr:state": "TX", "addr:postcode": "75052", "addr:country": "US", "name": "Tommy Hilfiger", "phone": "972-606-4706", "brand": "Tommy Hilfiger"}, "geometry": {"type": "Point", "coordinates": [-97.053842, 32.679114]}},
{"type": "Feature", "id": "Hh5YEzv6ad5lDxtoZ1PLVoNdWto=", "properties": {"ref": "-1566706893", "@spider": "tommy_hilfiger", "addr:full": "2950 W Interstate Route 20", "addr:city": "Grand Prairie", "addr:state": "TX", "addr:postcode": "75052", "addr:country": "US", "name": "Tommy Hilfiger", "phone": "972-602-6892", "brand": "Tommy Hilfiger"}, "geometry": {"type": "Point", "coordinates": [-97.053842, 32.679114]}},
{"type": "Feature", "id": "w-e5Tr3A2hqQOr2OkGX61YenfJw=", "properties": {"ref": "-1566706959", "@spider": "tommy_hilfiger", "addr:full": "3000 Grapevine Mills Parkway", "addr:city": "Grapevine", "addr:state": "TX", "addr:postcode": "76051", "addr:country": "US", "name": "Tommy Hilfiger", "phone": "972-874-0172", "brand": "Tommy Hilfiger"}, "geometry": {"type": "Point", "coordinates": [-97.043085, 32.964271]}},
{"type": "Feature", "id": "5Ucq_w7iZkEqcGXB24I_9O_dAP4=", "properties": {"ref": "-1566706914", "@spider": "tommy_hilfiger", "addr:full": "3939 IH-35 South", "addr:city": "San Marcos", "addr:state": "TX", "addr:postcode": "78666", "addr:country": "US", "name": "Tommy Hilfiger", "phone": "512-393-2020", "brand": "Tommy Hilfiger"}, "geometry": {"type": "Point", "coordinates": [-97.980159, 29.828406]}},
{"type": "Feature", "id": "fjjiIeinBwr3tM5lAviDi6ZVM_k=", "properties": {"ref": "-1566707004", "@spider": "tommy_hilfiger", "addr:full": "4015 Interstate 35 South", "addr:city": "San Marcos", "addr:state": "TX", "addr:postcode": "78666", "addr:country": "US", "name": "Tommy Hilfiger", "phone": "512-353-3718", "brand": "Tommy Hilfiger"}, "geometry": {"type": "Point", "coordinates": [-97.988482, 29.822544]}},
{"type": "Feature", "id": "vtwvc77RaaEwbiXE8dSzQAZ0ZwA=", "properties": {"ref": "-1566706961", "@spider": "tommy_hilfiger", "addr:full": "820 West Stacy Road", "addr:city": "Allen", "addr:state": "TX", "addr:postcode": "75013", "addr:country": "US", "name": "Tommy Hilfiger", "phone": "972-678-1056", "brand": "Tommy Hilfiger"}, "geometry": {"type": "Point", "coordinates": [-96.6608, 33.132672]}},
{"type": "Feature", "id": "Y8y5lXwA8Ll0OFg7YRDC0K8HXIQ=", "properties": {"ref": "-1566706916", "@spider": "tommy_hilfiger", "addr:full": "7628 W. Reno Ave", "addr:city": "Oklahoma City", "addr:state": "OK", "addr:postcode": "73127", "addr:country": "US", "name": "Tommy Hilfiger", "phone": "405-787-8227", "brand": "Tommy Hilfiger"}, "geometry": {"type": "Point", "coordinates": [-97.648337, 35.462832]}},
{"type": "Feature", "id": "h_tGL0FLogvwqTYvVSSc6S_P50o=", "properties": {"ref": "-1566706917", "@spider": "tommy_hilfiger", "addr:full": "29300 Hempstead HWY", "addr:city": "Cypress", "addr:state": "TX", "addr:postcode": "77433", "addr:country": "US", "name": "Tommy Hilfiger", "phone": "281-758-2979", "brand": "Tommy Hilfiger"}, "geometry": {"type": "Point", "coordinates": [-95.752329, 29.993754]}},
{"type": "Feature", "id": "IkoZJc6kfnrWFbtlHZWp9OE_HAY=", "properties": {"ref": "-1566706869", "@spider": "tommy_hilfiger", "addr:full": "29300 Hempstead Rd.", "addr:city": "Cypress", "addr:state": "TX", "addr:postcode": "77433", "addr:country": "US", "name": "Tommy Hilfiger", "phone": "281-256-8402", "brand": "Tommy Hilfiger"}, "geometry": {"type": "Point", "coordinates": [-95.752329, 29.993754]}},
{"type": "Feature", "id": "qF_ZZGfhI27s4NQxNBWKsDicd0s=", "properties": {"ref": "-1566706975", "@spider": "tommy_hilfiger", "addr:full": "5000 Katy Mills Circle", "addr:city": "Katy", "addr:state": "TX", "addr:postcode": "77494", "addr:country": "US", "name": "Tommy Hilfiger", "phone": "281-644-5888", "brand": "Tommy Hilfiger"}, "geometry": {"type": "Point", "coordinates": [-95.809278, 29.775485]}},
{"type": "Feature", "id": "rbtNdM-vAbIfBdK_LKXhSYeyg40=", "properties": {"ref": "-1566706859", "@spider": "tommy_hilfiger", "addr:full": "1600 Waters Street", "addr:city": "Laredo", "addr:state": "TX", "addr:postcode": "78040", "addr:country": "US", "name": "Tommy Hilfiger", "phone": "956-231-5542", "brand": "Tommy Hilfiger"}, "geometry": {"type": "Point", "coordinates": [-99.51122, 27.501755]}},
{"type": "Feature", "id": "F4qLo1xvnenfx0_sa29Tf3cdjyU=", "properties": {"ref": "-1566706891", "@spider": "tommy_hilfiger", "addr:full": "5885 Gulf Freeway", "addr:city": "Texas City", "addr:state": "TX", "addr:postcode": "77591", "addr:country": "US", "name": "Tommy Hilfiger", "phone": "281-534-8811", "brand": "Tommy Hilfiger"}, "geometry": {"type": "Point", "coordinates": [-95.058303, 29.425412]}},
{"type": "Feature", "id": "vzq4dZzTGuUk0WWwCiOa02FcI4A=", "properties": {"ref": "-1566706927", "@spider": "tommy_hilfiger", "addr:full": "7051 South Desert Blvd.", "addr:city": "Canutilo", "addr:state": "TX", "addr:postcode": "79835", "addr:country": "US", "name": "Tommy Hilfiger", "phone": "915-877-9902", "brand": "Tommy Hilfiger"}, "geometry": {"type": "Point", "coordinates": [-106.586268, 31.911976]}},
{"type": "Feature", "id": "gVklNtOXwloZ9dYgtjtJx74ljvk=", "properties": {"ref": "-1566706931", "@spider": "tommy_hilfiger", "addr:full": "5001 E. Expwy 83", "addr:city": "Mercedes", "addr:state": "TX", "addr:postcode": "78570", "addr:country": "US", "name": "Tommy Hilfiger", "phone": "956-514-9011", "brand": "Tommy Hilfiger"}, "geometry": {"type": "Point", "coordinates": [-97.888151, 26.163286]}},
{"type": "Feature", "id": "Dxj3y8RDY3n2_H7adj0-YiiohnA=", "properties": {"ref": "-1566706919", "@spider": "tommy_hilfiger", "addr:full": "5001 E. Expwy 83", "addr:city": "Mercedes", "addr:state": "TX", "addr:postcode": "78570", "addr:country": "US", "name": "Tommy Hilfiger", "phone": "956-825-9743", "brand": "Tommy Hilfiger"}, "geometry": {"type": "Point", "coordinates": [-97.888151, 26.163286]}},
{"type": "Feature", "id": "BDfguTt5CXeP7BMmEfo7viqnaNg=", "properties": {"ref": "-1566706852", "@spider": "tommy_hilfiger", "addr:full": "11201 Bass Pro Parkway", "addr:city": "Little Rock", "addr:state": "AR", "addr:postcode": "72210", "addr:country": "US", "name": "Tommy Hilfiger", "phone": "501-455-7408", "brand": "Tommy Hilfiger"}, "geometry": {"type": "Point", "coordinates": [-92.409662, 34.661569]}},
{"type": "Feature", "id": "4lA418WEocaRZYPi9mCMEQQX4C4=", "properties": {"ref": "-1566707023", "@spider": "tommy_hilfiger", "addr:full": "300 Tanger Boulevard", "addr:city": "Branson", "addr:state": "MO", "addr:postcode": "65616", "addr:country": "US", "name": "Tommy Hilfiger", "phone": "417-335-8822", "brand": "Tommy Hilfiger"}, "geometry": {"type": "Point", "coordinates": [-93.26441, 36.645224]}},
{"type": "Feature", "id": "fkRklb_eDAwod2R8xplcjdTEAq0=", "properties": {"ref": "-1566706850", "@spider": "tommy_hilfiger", "addr:full": "2200 Tanger Blvd.", "addr:city": "Gonzales", "addr:state": "LA", "addr:postcode": "70737", "addr:country": "US", "name": "Tommy Hilfiger", "phone": "225-644-1957", "brand": "Tommy Hilfiger"}, "geometry": {"type": "Point", "coordinates": [-90.952331, 30.213389]}},
{"type": "Feature", "id": "4UYm-Xn9qyqXAthsfvvhMfKN0Dg=", "properties": {"ref": "-1566706933", "@spider": "tommy_hilfiger", "addr:full": "1847 Village West Parkway", "addr:city": "Kansas City", "addr:state": "KS", "addr:postcode": "66111", "addr:country": "US", "name": "Tommy Hilfiger", "phone": "913-328-0907", "brand": "Tommy Hilfiger"}, "geometry": {"type": "Point", "coordinates": [-94.826589, 39.125875]}},
{"type": "Feature", "id": "FVFK9cGc2J89O_W7tMfbeGa0Kp0=", "properties": {"ref": "-1566707034", "@spider": "tommy_hilfiger", "addr:full": "5050 Factory Shops Boulevard", "addr:city": "Castle Rock", "addr:state": "CO", "addr:postcode": "80104", "addr:country": "US", "name": "Tommy Hilfiger", "phone": "303-688-8877", "brand": "Tommy Hilfiger"}, "geometry": {"type": "Point", "coordinates": [-104.872641, 39.413726]}},
{"type": "Feature", "id": "Ya0vd2fz_CTUUVdu1sAjPVzfMN0=", "properties": {"ref": "-1566706857", "@spider": "tommy_hilfiger", "addr:full": "500 Port Of New Orleans", "addr:city": "New Orleans", "addr:state": "LA", "addr:postcode": "70130", "addr:country": "US", "name": "Tommy Hilfiger", "phone": "504-581-6107", "brand": "Tommy Hilfiger"}, "geometry": {"type": "Point", "coordinates": [-90.062343, 29.94654]}},
{"type": "Feature", "id": "sxp9jFSWQ9RvfDAhIjqt6MTwfGk=", "properties": {"ref": "-1566706871", "@spider": "tommy_hilfiger", "addr:full": "5205 Airways Blvd.", "addr:city": "South Haven", "addr:state": "MS", "addr:postcode": "38671", "addr:country": "US", "name": "Tommy Hilfiger", "phone": "662-349-1923", "brand": "Tommy Hilfiger"}, "geometry": {"type": "Point", "coordinates": [-89.99067, 34.936052]}},
{"type": "Feature", "id": "IPd85rkshxf25kga6nvcEtNAyJM=", "properties": {"ref": "-1566706944", "@spider": "tommy_hilfiger", "addr:full": "14500 West Colfax Ave.", "addr:city": "Lakewood", "addr:state": "CO", "addr:postcode": "80401", "addr:country": "US", "name": "Tommy Hilfiger", "phone": "720-497-0215", "brand": "Tommy Hilfiger"}, "geometry": {"type": "Point", "coordinates": [-105.158987, 39.734829]}},
{"type": "Feature", "id": "N8GghIfabo482UX1ko1KCvabOOQ=", "properties": {"ref": "-1566706856", "@spider": "tommy_hilfiger", "addr:full": "13801 Grant St.", "addr:city": "Thornton", "addr:state": "CO", "addr:postcode": "80023", "addr:country": "US", "name": "Tommy Hilfiger", "phone": "720-929-8141", "brand": "Tommy Hilfiger"}, "geometry": {"type": "Point", "coordinates": [-104.9818, 39.9555]}},
{"type": "Feature", "id": "5t_lJC3oLGTu0_gU5C68BF6WyPU=", "properties": {"ref": "-1566706979", "@spider": "tommy_hilfiger", "addr:full": "10855 Factory Shops Boulevard", "addr:city": "Gulfport", "addr:state": "MS", "addr:postcode": "39503", "addr:country": "US", "name": "Tommy Hilfiger", "phone": "228-575-9534", "brand": "Tommy Hilfiger"}, "geometry": {"type": "Point", "coordinates": [-89.101278, 30.429323]}},
{"type": "Feature", "id": "v0fchLr5FuTtXAu4OZWyAbA92CQ=", "properties": {"ref": "-1566707031", "@spider": "tommy_hilfiger", "addr:full": "5801 McWhinney Boulevard", "addr:city": "Loveland", "addr:state": "CO", "addr:postcode": "80538", "addr:country": "US", "name": "Tommy Hilfiger", "phone": "970-203-9484", "brand": "Tommy Hilfiger"}, "geometry": {"type": "Point", "coordinates": [-104.995833, 40.411378]}},
{"type": "Feature", "id": "-Z9xOiOa4FoOYmVqH-nZmABll8U=", "properties": {"ref": "-1566706862", "@spider": "tommy_hilfiger", "addr:full": "6401 W Marana Center Blvd", "addr:city": "Tucson", "addr:state": "AZ", "addr:postcode": "85742", "addr:country": "US", "name": "Tommy Hilfiger", "phone": "520-686-5671", "brand": "Tommy Hilfiger"}, "geometry": {"type": "Point", "coordinates": [-111.102638, 32.375724]}},
{"type": "Feature", "id": "mctO_jQkNrOoRr0gIAKlJxafVqg=", "properties": {"ref": "-1421077798", "@spider": "tommy_hilfiger", "addr:full": "21317 Nebraska Crossing Dr.", "addr:city": "Gretna", "addr:state": "NE", "addr:postcode": "68028", "addr:country": "US", "name": "Tommy Hilfiger", "phone": "531-222-2788", "brand": "Tommy Hilfiger"}, "geometry": {"type": "Point", "coordinates": [-96.2489642, 41.0986843]}},
{"type": "Feature", "id": "VhBVItdLE45TMwzYMUUDMONiqKU=", "properties": {"ref": "-1566706883", "@spider": "tommy_hilfiger", "addr:full": "18517 Outlet Blvd", "addr:city": "Chesterfield", "addr:state": "MO", "addr:postcode": "63005", "addr:country": "US", "name": "Tommy Hilfiger", "phone": "636-778-1380", "brand": "Tommy Hilfiger"}, "geometry": {"type": "Point", "coordinates": [-90.660278, 38.677207]}},
{"type": "Feature", "id": "ay6MRhfG2Zw1dtK2MjpJe554gSY=", "properties": {"ref": "-1566706997", "@spider": "tommy_hilfiger", "addr:full": "5000 Arizona Mills Circle", "addr:city": "Tempe", "addr:state": "AZ", "addr:postcode": "85282", "addr:country": "US", "name": "Tommy Hilfiger", "phone": "480-775-1843", "brand": "Tommy Hilfiger"}, "geometry": {"type": "Point", "coordinates": [-111.964483, 33.383127]}},
{"type": "Feature", "id": "waZCjG8NX6SXdOlkYkT0IACZa6U=", "properties": {"ref": "-1566706885", "@spider": "tommy_hilfiger", "addr:full": "4976 Premium Outlets Way", "addr:city": "Chandler", "addr:state": "AZ", "addr:postcode": "85226", "addr:country": "US", "name": "Tommy Hilfiger", "phone": "480-639-1708", "brand": "Tommy Hilfiger"}, "geometry": {"type": "Point", "coordinates": [-111.974094, 33.287017]}},
{"type": "Feature", "id": "CQoL5itPHGgK-RuDdOK8uvGnnDU=", "properties": {"ref": "-1566706945", "@spider": "tommy_hilfiger", "addr:full": "4250 West Anthem Way", "addr:city": "Phoenix", "addr:state": "AZ", "addr:postcode": "85086", "addr:country": "US", "name": "Tommy Hilfiger", "phone": "623-465-2295", "brand": "Tommy Hilfiger"}, "geometry": {"type": "Point", "coordinates": [-112.149783, 33.87406]}},
{"type": "Feature", "id": "hy0sc-tgEf_kc1_CN2TJ7oxUd3c=", "properties": {"ref": "-1566706889", "@spider": "tommy_hilfiger", "addr:full": "6800 N. 95th Ave", "addr:city": "Glendale", "addr:state": "AZ", "addr:postcode": "85305", "addr:country": "US", "name": "Tommy Hilfiger", "phone": "623-872-6233", "brand": "Tommy Hilfiger"}, "geometry": {"type": "Point", "coordinates": [-112.266883, 33.534838]}},
{"type": "Feature", "id": "mkNgjFQJKKmq8nrzPIrUaD-nrSQ=", "properties": {"ref": "-1566707007", "@spider": "tommy_hilfiger", "addr:full": "2601 South McKenzie Street", "addr:city": "Foley", "addr:state": "AL", "addr:postcode": "36535", "addr:country": "US", "name": "Tommy Hilfiger", "phone": "251-943-9781", "brand": "Tommy Hilfiger"}, "geometry": {"type": "Point", "coordinates": [-87.679955, 30.37572]}},
{"type": "Feature", "id": "ynDuxSthxVqG8qxa0_j9XhgiGlQ=", "properties": {"ref": "-1566706860", "@spider": "tommy_hilfiger", "addr:full": "523 Bass Pro Drive NW", "addr:city": "Altoona", "addr:state": "IA", "addr:postcode": "50009", "addr:country": "US", "name": "Tommy Hilfiger", "phone": "515-957-8969", "brand": "Tommy Hilfiger"}, "geometry": {"type": "Point", "coordinates": [-93.5138, 41.6546]}},
{"type": "Feature", "id": "NWrmFv-eLddCsSuUeJ8gW8v2c1s=", "properties": {"ref": "-1566706907", "@spider": "tommy_hilfiger", "addr:full": "6200 Grand Boulevard East", "addr:city": "Leeds", "addr:state": "AL", "addr:postcode": "35094", "addr:country": "US", "name": "Tommy Hilfiger", "phone": "205-699-7331", "brand": "Tommy Hilfiger"}, "geometry": {"type": "Point", "coordinates": [-86.596356, 33.549083]}},
{"type": "Feature", "id": "DXnma39gJPpLiTerFjos5fZy2K4=", "properties": {"ref": "-1566707026", "@spider": "tommy_hilfiger", "addr:full": "1991 O'Donnell Road", "addr:city": "Williamsburg", "addr:state": "IA", "addr:postcode": "52361", "addr:country": "US", "name": "Tommy Hilfiger", "phone": "319-668-9099", "brand": "Tommy Hilfiger"}, "geometry": {"type": "Point", "coordinates": [-92.005549, 41.688678]}},
{"type": "Feature", "id": "i2DcK49QOFshLeOWF1BI7BtCjJg=", "properties": {"ref": "-1566706996", "@spider": "tommy_hilfiger", "addr:full": "10746 Emerald Coast Parkway West", "addr:city": "Destin", "addr:state": "FL", "addr:postcode": "32550", "addr:country": "US", "name": "Tommy Hilfiger", "phone": "850-650-2990", "brand": "Tommy Hilfiger"}, "geometry": {"type": "Point", "coordinates": [-86.353549, 30.380633]}},
{"type": "Feature", "id": "su8tRg7hGQS5Y16UzHB2g_gfkjI=", "properties": {"ref": "-1566706963", "@spider": "tommy_hilfiger", "addr:full": "222 Opry Mills Drive", "addr:city": "Nashville", "addr:state": "TN", "addr:postcode": "37214", "addr:country": "US", "name": "Tommy Hilfiger", "phone": "615-800-8298", "brand": "Tommy Hilfiger"}, "geometry": {"type": "Point", "coordinates": [-86.692063, 36.203133]}},
{"type": "Feature", "id": "TN6CI0H2piG1KjACtXre6tbnVmw=", "properties": {"ref": "-1566707024", "@spider": "tommy_hilfiger", "addr:full": "A1300 Tuscola Boulevard", "addr:city": "Tuscola", "addr:state": "IL", "addr:postcode": "61953", "addr:country": "US", "name": "Tommy Hilfiger", "phone": "217-253-5880", "brand": "Tommy Hilfiger"}, "geometry": {"type": "Point", "coordinates": [-88.269197, 39.790014]}},
{"type": "Feature", "id": "awrrv7GP_Tw1QLc9HrV2I-W_cYQ=", "properties": {"ref": "-1566706966", "@spider": "tommy_hilfiger", "addr:full": "6699 North Landmark Drive", "addr:city": "Park City", "addr:state": "UT", "addr:postcode": "84098", "addr:country": "US", "name": "Tommy Hilfiger", "phone": "435-645-8885", "brand": "Tommy Hilfiger"}, "geometry": {"type": "Point", "coordinates": [-111.551416, 40.728042]}},
{"type": "Feature", "id": "cRZil3RB5hD8gYYmONPjYp56nA4=", "properties": {"ref": "-1566706902", "@spider": "tommy_hilfiger", "addr:full": "3700 NORTH CABELAS BLVD", "addr:city": "Lehi", "addr:state": "UT", "addr:postcode": "84043", "addr:country": "US", "name": "Tommy Hilfiger", "phone": "801-901-1310", "brand": "Tommy Hilfiger"}, "geometry": {"type": "Point", "coordinates": [-111.885045, 40.434915]}},
{"type": "Feature", "id": "qNotkwicFiEl3kT5hZYphP2j4Aw=", "properties": {"ref": "-1566706888", "@spider": "tommy_hilfiger", "addr:full": "915 Ridgewalk Pkwy", "addr:city": "Woodstock", "addr:state": "GA", "addr:postcode": "30188", "addr:country": "US", "name": "Tommy Hilfiger", "phone": "678-445-0770", "brand": "Tommy Hilfiger"}, "geometry": {"type": "Point", "coordinates": [-84.527318, 34.120278]}},
{"type": "Feature", "id": "3txnVawiAxAps5WniF5e_cMxEQc=", "properties": {"ref": "-1566706793", "@spider": "tommy_hilfiger", "addr:full": "950 Pilot Road", "addr:city": "Las Vegas", "addr:state": "NV", "addr:postcode": "89119", "addr:country": "US", "name": "Tommy Hilfiger", "phone": "702-914-2238", "brand": "Tommy Hilfiger"}, "geometry": {"type": "Point", "coordinates": [-115.142925, 36.066499]}},
{"type": "Feature", "id": "ha5IeRc78Rb48TRNxfrbxFyYuRA=", "properties": {"ref": "-1566706949", "@spider": "tommy_hilfiger", "addr:full": "7400 Las Vegas Blvd. South", "addr:city": "Las Vegas", "addr:state": "NV", "addr:postcode": "89123", "addr:country": "US", "name": "Tommy Hilfiger", "phone": "702-492-0300", "brand": "Tommy Hilfiger"}, "geometry": {"type": "Point", "coordinates": [-115.169581, 36.055008]}},
{"type": "Feature", "id": "D06OdEpVPpCkRPzc3oMEsq-PH_c=", "properties": {"ref": "-1566706946", "@spider": "tommy_hilfiger", "addr:full": "885 Grand Central Parkway", "addr:city": "N. Las Vegas", "addr:state": "NV", "addr:postcode": "89106", "addr:country": "US", "name": "Tommy Hilfiger", "phone": "702-382-1630", "brand": "Tommy Hilfiger"}, "geometry": {"type": "Point", "coordinates": [-115.157231, 36.162948]}},
{"type": "Feature", "id": "c-FljqwQOhmSRU8Z2aj3WW6yJgM=", "properties": {"ref": "-1566706882", "@spider": "tommy_hilfiger", "addr:full": "805 Grand Central Parkway", "addr:city": "Las Vegas", "addr:state": "NV", "addr:postcode": "89106", "addr:country": "US", "name": "Tommy Hilfiger", "phone": "702-477-0132", "brand": "Tommy Hilfiger"}, "geometry": {"type": "Point", "coordinates": [-115.15781, 36.16412]}},
{"type": "Feature", "id": "p4O45l6Lj61suz8AhdiAEFdAgPc=", "properties": {"ref": "-1566706941", "@spider": "tommy_hilfiger", "addr:full": "1000 Tanger Drive", "addr:city": "Locust Grove", "addr:state": "GA", "addr:postcode": "30248", "addr:country": "US", "name": "Tommy Hilfiger", "phone": "770-957-7366", "brand": "Tommy Hilfiger"}, "geometry": {"type": "Point", "coordinates": [-84.12248, 33.347922]}},
{"type": "Feature", "id": "0xYXOxcy8mNV-5jLg8PUXXONUwY=", "properties": {"ref": "-1566706987", "@spider": "tommy_hilfiger", "addr:full": "32100 Las Vegas Boulevard South", "addr:city": "Primm", "addr:state": "NV", "addr:postcode": "89019", "addr:country": "US", "name": "Tommy Hilfiger", "phone": "702-874-1788", "brand": "Tommy Hilfiger"}, "geometry": {"type": "Point", "coordinates": [-115.386345, 35.610451]}},
{"type": "Feature", "id": "MYkG19Doph4ek57SGkyDjEdDDXs=", "properties": {"ref": "-1566706915", "@spider": "tommy_hilfiger", "addr:full": "5900 Sugarloaf Parkway", "addr:city": "Lawrenceville", "addr:state": "GA", "addr:postcode": "30043", "addr:country": "US", "name": "Tommy Hilfiger", "phone": "678-847-0401", "brand": "Tommy Hilfiger"}, "geometry": {"type": "Point", "coordinates": [-84.085018, 33.97683]}},
{"type": "Feature", "id": "5kcqOV4p2J1_QiBSPW02ijSmZXw=", "properties": {"ref": "-1566706876", "@spider": "tommy_hilfiger", "addr:full": "1155 Buck Creek Road", "addr:city": "Simpsonville", "addr:state": "KY", "addr:postcode": "40067", "addr:country": "US", "name": "Tommy Hilfiger", "phone": "502-722-8387", "brand": "Tommy Hilfiger"}, "geometry": {"type": "Point", "coordinates": [-85.348836, 38.205644]}},
{"type": "Feature", "id": "IKcplRCHpzGPD_NzBC4kVRR9IW8=", "properties": {"ref": "-1566706983", "@spider": "tommy_hilfiger", "addr:full": "800 Highway 400 South", "addr:city": "Dawsonville", "addr:state": "GA", "addr:postcode": "30534", "addr:country": "US", "name": "Tommy Hilfiger", "phone": "706-216-7888", "brand": "Tommy Hilfiger"}, "geometry": {"type": "Point", "coordinates": [-84.046547, 34.360288]}},
{"type": "Feature", "id": "jKQpIkHPczKZy6sYMSzz-y4FbDs=", "properties": {"ref": "-1566707016", "@spider": "tommy_hilfiger", "addr:full": "12085 North Executive Drive", "addr:city": "Edinburgh", "addr:state": "IN", "addr:postcode": "46124", "addr:country": "US", "name": "Tommy Hilfiger", "phone": "812-526-8899", "brand": "Tommy Hilfiger"}, "geometry": {"type": "Point", "coordinates": [-85.961929, 39.311849]}},
{"type": "Feature", "id": "FtjjID88sq6woq4poL7DQlY0H2g=", "properties": {"ref": "-1566706947", "@spider": "tommy_hilfiger", "addr:full": "1650 Premium Outlet s Blvd", "addr:city": "Aurora", "addr:state": "IL", "addr:postcode": "60502", "addr:country": "US", "name": "Tommy Hilfiger", "phone": "630-236-8749", "brand": "Tommy Hilfiger"}, "geometry": {"type": "Point", "coordinates": [-88.273783, 41.800629]}},
{"type": "Feature", "id": "UUYJwJ6IZxHvq1DcA7-apPCgC-M=", "properties": {"ref": "-1566706867", "@spider": "tommy_hilfiger", "addr:full": "1650 Premium Outlets Boulevard", "addr:city": "Aurora", "addr:state": "IL", "addr:postcode": "60504", "addr:country": "US", "name": "Tommy Hilfiger", "phone": "630-499-4042", "brand": "Tommy Hilfiger"}, "geometry": {"type": "Point", "coordinates": [-88.273783, 41.800629]}},
{"type": "Feature", "id": "8eWseoK44BCDFjEJ3ZtknjfwQpY=", "properties": {"ref": "-1566706886", "@spider": "tommy_hilfiger", "addr:full": "5220 Fashion Outlet Way", "addr:city": "Rosemont", "addr:state": "IL", "addr:postcode": "60018", "addr:country": "US", "name": "Tommy Hilfiger", "phone": "847-233-9742", "brand": "Tommy Hilfiger"}, "geometry": {"type": "Point", "coordinates": [-87.865888, 41.974159]}},
{"type": "Feature", "id": "7AMgcNoIE4neBUI6Q7nO-wYPTsc=", "properties": {"ref": "-1566706880", "@spider": "tommy_hilfiger", "addr:full": "3905 Eagan Outlets Pkwy", "addr:city": "Eagan", "addr:state": "MN", "addr:postcode": "55122", "addr:country": "US", "name": "Tommy Hilfiger", "phone": "952-686-7858", "brand": "Tommy Hilfiger"}, "geometry": {"type": "Point", "coordinates": [-93.211241, 44.816434]}},
{"type": "Feature", "id": "2WIHnT7rfvwp91fogpNYXEm4jc0=", "properties": {"ref": "-1566706897", "@spider": "tommy_hilfiger", "addr:full": "800 Steven B Tanger Boulevard", "addr:city": "Commerce", "addr:state": "GA", "addr:postcode": "30529", "addr:country": "US", "name": "Tommy Hilfiger", "phone": "706-335-8144", "brand": "Tommy Hilfiger"}, "geometry": {"type": "Point", "coordinates": [-83.472878, 34.251245]}},
{"type": "Feature", "id": "VOMsomb3VTdRfDy9oxBJq1dB8cs=", "properties": {"ref": "-1566707001", "@spider": "tommy_hilfiger", "addr:full": "1645 Parkway Drive", "addr:city": "Sevierville", "addr:state": "TN", "addr:postcode": "37862", "addr:country": "US", "name": "Tommy Hilfiger", "phone": "865-453-0004", "brand": "Tommy Hilfiger"}, "geometry": {"type": "Point", "coordinates": [-83.570784, 35.833362]}},
{"type": "Feature", "id": "D0JOP7nz-JfqGYe5qDLki-7LAw0=", "properties": {"ref": "-1566706958", "@spider": "tommy_hilfiger", "addr:full": "6170 West Grand Avenue", "addr:city": "Gurnee", "addr:state": "IL", "addr:postcode": "60031", "addr:country": "US", "name": "Tommy Hilfiger", "phone": "847-856-8388", "brand": "Tommy Hilfiger"}, "geometry": {"type": "Point", "coordinates": [-87.95518, 42.38349]}},
{"type": "Feature", "id": "P0_QbS2MvN1rLjRefg-4ug_yAbE=", "properties": {"ref": "-1566706993", "@spider": "tommy_hilfiger", "addr:full": "11211 120th Avenue", "addr:city": "Pleasant Prairie", "addr:state": "WI", "addr:postcode": "53158", "addr:country": "US", "name": "Tommy Hilfiger", "phone": "262-857-9688", "brand": "Tommy Hilfiger"}, "geometry": {"type": "Point", "coordinates": [-87.94895, 42.51394]}},
{"type": "Feature", "id": "nZyad6qm2EOE8wV-gnE2ogmA49M=", "properties": {"ref": "-1566706988", "@spider": "tommy_hilfiger", "addr:full": "612 West Linmar Lane", "addr:city": "Johnson Creek", "addr:state": "WI", "addr:postcode": "53038", "addr:country": "US", "name": "Tommy Hilfiger", "phone": "920-699-2888", "brand": "Tommy Hilfiger"}, "geometry": {"type": "Point", "coordinates": [-88.762436, 43.092162]}},
{"type": "Feature", "id": "BKZ7ugoUC1x6S2XW-i4AdMDLxDY=", "properties": {"ref": "-1566706990", "@spider": "tommy_hilfiger", "addr:full": "5003 Willows Road", "addr:city": "Alpine", "addr:state": "CA", "addr:postcode": "91901", "addr:country": "US", "name": "Tommy Hilfiger", "phone": "619-659-8887", "brand": "Tommy Hilfiger"}, "geometry": {"type": "Point", "coordinates": [-116.705341, 32.840316]}},
{"type": "Feature", "id": "QpVVz65xj-hJdNTxTbXoIs2OCfY=", "properties": {"ref": "-1566707018", "@spider": "tommy_hilfiger", "addr:full": "1303 Lighthouse Place", "addr:city": "Michigan City", "addr:state": "IN", "addr:postcode": "46360", "addr:country": "US", "name": "Tommy Hilfiger", "phone": "219-878-9888", "brand": "Tommy Hilfiger"}, "geometry": {"type": "Point", "coordinates": [-86.90482, 41.71472]}},
{"type": "Feature", "id": "FIpVgyheJYu7iAV0wnLXl6mROe0=", "properties": {"ref": "-1566707015", "@spider": "tommy_hilfiger", "addr:full": "48650 Seminole Drive", "addr:city": "Cabazon", "addr:state": "CA", "addr:postcode": "92230", "addr:country": "US", "name": "Tommy Hilfiger", "phone": "951-849-5848", "brand": "Tommy Hilfiger"}, "geometry": {"type": "Point", "coordinates": [-116.813383, 33.928361]}},
{"type": "Feature", "id": "mlesU4h6mcpqWkJ_8z5a994aaaM=", "properties": {"ref": "-1566707006", "@spider": "tommy_hilfiger", "addr:full": "4061 Camino de la Plaza suite 490", "addr:city": "San Ysidro", "addr:state": "CA", "addr:postcode": "92173", "addr:country": "US", "name": "Tommy Hilfiger", "phone": "619-934-7182", "brand": "Tommy Hilfiger"}, "geometry": {"type": "Point", "coordinates": [-117.044076, 32.543961]}},
{"type": "Feature", "id": "BpnQXph_As6cNSJiyUlvXpSKMd4=", "properties": {"ref": "-1566707028", "@spider": "tommy_hilfiger", "addr:full": "2796 Tanger Way", "addr:city": "Barstow", "addr:state": "CA", "addr:postcode": "92311", "addr:country": "US", "name": "Tommy Hilfiger", "phone": "760-253-2888", "brand": "Tommy Hilfiger"}, "geometry": {"type": "Point", "coordinates": [-117.085202, 34.846362]}},
{"type": "Feature", "id": "9WRuAsBcpsPaaJhnoGw6uqa32Dk=", "properties": {"ref": "-1566706910", "@spider": "tommy_hilfiger", "addr:full": "201 Premium Outlets Drive", "addr:city": "Monroe", "addr:state": "OH", "addr:postcode": "45050", "addr:country": "US", "name": "Tommy Hilfiger", "phone": "513-539-7106", "brand": "Tommy Hilfiger"}, "geometry": {"type": "Point", "coordinates": [-84.3345, 39.4367]}},
{"type": "Feature", "id": "uHzHYZwf8BdkX6v_UyJLhjlwIQk=", "properties": {"ref": "-1566706991", "@spider": "tommy_hilfiger", "addr:full": "5610 Paseo Del Norte", "addr:city": "Carlsbad", "addr:state": "CA", "addr:postcode": "92008", "addr:country": "US", "name": "Tommy Hilfiger", "phone": "760-431-8806", "brand": "Tommy Hilfiger"}, "geometry": {"type": "Point", "coordinates": [-117.320748, 33.126841]}},
{"type": "Feature", "id": "H6xZVGaksNzv3tPbP3HP_P92O_4=", "properties": {"ref": "-1566706870", "@spider": "tommy_hilfiger", "addr:full": "800 Brevard Road", "addr:city": "Asheville", "addr:state": "NC", "addr:postcode": "28806", "addr:country": "US", "name": "Tommy Hilfiger", "phone": "828-665-9562", "brand": "Tommy Hilfiger"}, "geometry": {"type": "Point", "coordinates": [-82.603027, 35.529428]}},
{"type": "Feature", "id": "W2kfjQ_fBj66bNfA43OMrKMie1I=", "properties": {"ref": "-1566706962", "@spider": "tommy_hilfiger", "addr:full": "4410 E. Mills Blvd", "addr:city": "Ontario", "addr:state": "CA", "addr:postcode": "91764", "addr:country": "US", "name": "Tommy Hilfiger", "phone": "909-466-1167", "brand": "Tommy Hilfiger"}, "geometry": {"type": "Point", "coordinates": [-117.554726, 34.07199]}},
{"type": "Feature", "id": "Vqs4lQ41w8VSDm6M7Fl-OuUB1DE=", "properties": {"ref": "-1566707030", "@spider": "tommy_hilfiger", "addr:full": "3001 South Washburn Avenue", "addr:city": "Oshkosh", "addr:state": "WI", "addr:postcode": "54904", "addr:country": "US", "name": "Tommy Hilfiger", "phone": "920-231-8858", "brand": "Tommy Hilfiger"}, "geometry": {"type": "Point", "coordinates": [-88.583765, 43.983757]}},
{"type": "Feature", "id": "1vM1rCklOjYvN6E5OxhsqnekN2Q=", "properties": {"ref": "-1566706930", "@spider": "tommy_hilfiger", "addr:full": "101 West Avenida Vista Hermosa", "addr:city": "San Clemente", "addr:state": "CA", "addr:postcode": "92672", "addr:country": "US", "name": "Tommy Hilfiger", "phone": "949-498-2509", "brand": "Tommy Hilfiger"}, "geometry": {"type": "Point", "coordinates": [-117.627584, 33.440909]}},
{"type": "Feature", "id": "vRHyjfYNFG2DmksdBR6CTfC17mo=", "properties": {"ref": "-1566706904", "@spider": "tommy_hilfiger", "addr:full": "20 City Blvd West", "addr:city": "Orange", "addr:state": "CA", "addr:postcode": "92868", "addr:country": "US", "name": "Tommy Hilfiger", "phone": "714-712-7313", "brand": "Tommy Hilfiger"}, "geometry": {"type": "Point", "coordinates": [-117.893121, 33.783303]}},
{"type": "Feature", "id": "dii88FfHiN0E5Wt-kopytG81DkU=", "properties": {"ref": "-1566706851", "@spider": "tommy_hilfiger", "addr:full": "4871 Celebration Point Ave", "addr:city": "Gainesville", "addr:state": "FL", "addr:postcode": "32607", "addr:country": "US", "name": "Tommy Hilfiger", "phone": "352-375-8681", "brand": "Tommy Hilfiger"}, "geometry": {"type": "Point", "coordinates": [-82.395412, 29.625158]}},
{"type": "Feature", "id": "ugy8pjhl86K4N1Hmpl3A_KoC--w=", "properties": {"ref": "-1566706992", "@spider": "tommy_hilfiger", "addr:full": "8800 Factory Shops Boulevard", "addr:city": "Jeffersonville", "addr:state": "OH", "addr:postcode": "43128", "addr:country": "US", "name": "Tommy Hilfiger", "phone": "740-948-9848", "brand": "Tommy Hilfiger"}, "geometry": {"type": "Point", "coordinates": [-83.600742, 39.622187]}},
{"type": "Feature", "id": "cNrw6ioOMxswQWWw_WN5cyjPIts=", "properties": {"ref": "-1566707020", "@spider": "tommy_hilfiger", "addr:full": "6245 North Old 27", "addr:city": "Fremont", "addr:state": "IN", "addr:postcode": "46737", "addr:country": "US", "name": "Tommy Hilfiger", "phone": "260-833-6545", "brand": "Tommy Hilfiger"}, "geometry": {"type": "Point", "coordinates": [-85.003361, 41.734546]}},
{"type": "Feature", "id": "FxElEo2k8pQK5IRLrMPMCqszTYg=", "properties": {"ref": "-610540062", "@spider": "tommy_hilfiger", "addr:full": "8860 Apollo Way", "addr:city": "Downey", "addr:state": "CA", "addr:postcode": "90242", "addr:country": "US", "name": "Tommy Hilfiger", "phone": "(562) 299- 6292", "brand": "Tommy Hilfiger"}, "geometry": {"type": "Point", "coordinates": [-118.1313777, 33.9215673]}},
{"type": "Feature", "id": "Rhd9hfoOA3sBnjnfgJm1y6_geCI=", "properties": {"ref": "-1566706786", "@spider": "tommy_hilfiger", "addr:full": "5920 Corvette Street", "addr:city": "Commerce", "addr:state": "CA", "addr:postcode": "90040", "addr:country": "US", "name": "Tommy Hilfiger", "phone": "323-869-4975", "brand": "Tommy Hilfiger"}, "geometry": {"type": "Point", "coordinates": [-118.152646, 34.007747]}},
{"type": "Feature", "id": "vAF7shVw14K07XdAhDIdvjsLP-E=", "properties": {"ref": "-1566706939", "@spider": "tommy_hilfiger", "addr:full": "100 Citadel Dr.", "addr:city": "Commerce", "addr:state": "CA", "addr:postcode": "90040", "addr:country": "US", "name": "Tommy Hilfiger", "phone": "323-720-9450", "brand": "Tommy Hilfiger"}, "geometry": {"type": "Point", "coordinates": [-118.1527653, 34.00794137]}},
{"type": "Feature", "id": "55d2I1ZAEiBxkCHeTOo2HKyEcYI=", "properties": {"ref": "-1566706981", "@spider": "tommy_hilfiger", "addr:full": "360 Factory Shops Boulevard", "addr:city": "Gaffney", "addr:state": "SC", "addr:postcode": "29341", "addr:country": "US", "name": "Tommy Hilfiger", "phone": "864-206-0858", "brand": "Tommy Hilfiger"}, "geometry": {"type": "Point", "coordinates": [-81.710897, 35.081884]}},
{"type": "Feature", "id": "RRXqjlcAlM4jkgvnr740CRPPXYc=", "properties": {"ref": "-1566706879", "@spider": "tommy_hilfiger", "addr:full": "2398 Grand Cypress Drive", "addr:city": "Lutz", "addr:state": "FL", "addr:postcode": "33559", "addr:country": "US", "name": "Tommy Hilfiger", "phone": "813-379-3298", "brand": "Tommy Hilfiger"}, "geometry": {"type": "Point", "coordinates": [-82.39122, 28.19]}},
{"type": "Feature", "id": "L1HuV88_PZTV5FLd5thKhw_kNE4=", "properties": {"ref": "-1566706874", "@spider": "tommy_hilfiger", "addr:full": "350 84th St SW", "addr:city": "Byron Center", "addr:state": "MI", "addr:postcode": "49315", "addr:country": "US", "name": "Tommy Hilfiger", "phone": "616-878-4176", "brand": "Tommy Hilfiger"}, "geometry": {"type": "Point", "coordinates": [-85.671129, 42.808575]}},
{"type": "Feature", "id": "Kf133QEP45ZgMis82IByIlYORBg=", "properties": {"ref": "-1566706890", "@spider": "tommy_hilfiger", "addr:full": "5147 Factory Shops Blvd", "addr:city": "Ellenton", "addr:state": "FL", "addr:postcode": "34222", "addr:country": "US", "name": "Tommy Hilfiger", "phone": "941-722-0700", "brand": "Tommy Hilfiger"}, "geometry": {"type": "Point", "coordinates": [-82.508422, 27.537598]}},
{"type": "Feature", "id": "zbxSTCUPwJ9XypwKky_fWCVhDEE=", "properties": {"ref": "-1566706984", "@spider": "tommy_hilfiger", "addr:full": "5103 Factory Shops Boulevard", "addr:city": "Ellenton", "addr:state": "FL", "addr:postcode": "34222", "addr:country": "US", "name": "Tommy Hilfiger", "phone": "941-722-5117", "brand": "Tommy Hilfiger"}, "geometry": {"type": "Point", "coordinates": [-82.50842, 27.53759]}},
{"type": "Feature", "id": "765DRx4wNB62mr2_h6wnxw9hUxU=", "properties": {"ref": "-1566706875", "@spider": "tommy_hilfiger", "addr:full": "200 Tanger Outlet Blvd", "addr:city": "Pooler", "addr:state": "GA", "addr:postcode": "31322", "addr:country": "US", "name": "Tommy Hilfiger", "phone": "912-450-0470", "brand": "Tommy Hilfiger"}, "geometry": {"type": "Point", "coordinates": [-81.243528, 32.134616]}},
{"type": "Feature", "id": "7AtUT8XjhLBdddHguVRhfLrrMMo=", "properties": {"ref": "-1566706978", "@spider": "tommy_hilfiger", "addr:full": "2700 State Road 16", "addr:city": "St Augustine", "addr:state": "FL", "addr:postcode": "32092", "addr:country": "US", "name": "Tommy Hilfiger", "phone": "904-827-1901", "brand": "Tommy Hilfiger"}, "geometry": {"type": "Point", "coordinates": [-81.416866, 29.923754]}},
{"type": "Feature", "id": "BU7B5rH9er4169m94o5M-KNhkj4=", "properties": {"ref": "-1566706872", "@spider": "tommy_hilfiger", "addr:full": "400 South Wilson Road", "addr:city": "Sunbury", "addr:state": "OH", "addr:postcode": "43074", "addr:country": "US", "name": "Tommy Hilfiger", "phone": "740-965-6421", "brand": "Tommy Hilfiger"}, "geometry": {"type": "Point", "coordinates": [-82.924979, 40.260211]}},
{"type": "Feature", "id": "Ckw2YadkWQWT0gWWDuBBjy3e1oI=", "properties": {"ref": "-1566706877", "@spider": "tommy_hilfiger", "addr:full": "5506 New Fashion Way", "addr:city": "Charlotte", "addr:state": "NC", "addr:postcode": "28278", "addr:country": "US", "name": "Tommy Hilfiger", "phone": "704-583-2295", "brand": "Tommy Hilfiger"}, "geometry": {"type": "Point", "coordinates": [-80.970537, 35.16925]}},
{"type": "Feature", "id": "cNM0fZCyFEdTO-cOre4ymYXlNIU=", "properties": {"ref": "-1566706964", "@spider": "tommy_hilfiger", "addr:full": "1254 Fording Island Road", "addr:city": "Bluffton", "addr:state": "SC", "addr:postcode": "29910", "addr:country": "US", "name": "Tommy Hilfiger", "phone": "843-706-0855", "brand": "Tommy Hilfiger"}, "geometry": {"type": "Point", "coordinates": [-80.833574, 32.245383]}},
{"type": "Feature", "id": "Fjr-9E2eJXf83Tu54h8tnl-3H9c=", "properties": {"ref": "-1566706878", "@spider": "tommy_hilfiger", "addr:full": "5701 Outlets at Tejon Parkway", "addr:city": "Arvin", "addr:state": "CA", "addr:postcode": "93203", "addr:country": "US", "name": "Tommy Hilfiger", "phone": "661-858-2059", "brand": "Tommy Hilfiger"}, "geometry": {"type": "Point", "coordinates": [-118.941812, 34.984864]}},
{"type": "Feature", "id": "Lcjnrey7B-dcU6Afadp5Vd0iqhU=", "properties": {"ref": "-1566706866", "@spider": "tommy_hilfiger", "addr:full": "950 Camarillo Center Dr", "addr:city": "Camarillo", "addr:state": "CA", "addr:postcode": "93010", "addr:country": "US", "name": "Tommy Hilfiger", "phone": "805-389-4387", "brand": "Tommy Hilfiger"}, "geometry": {"type": "Point", "coordinates": [-119.058161, 34.214475]}},
{"type": "Feature", "id": "HdLdvnF_F-tAI3vlkPXolpSNoDU=", "properties": {"ref": "-1566706972", "@spider": "tommy_hilfiger", "addr:full": "740 Ventura Blvd", "addr:city": "Camarillo", "addr:state": "CA", "addr:postcode": "93010", "addr:country": "US", "name": "Tommy Hilfiger", "phone": "805-484-3040", "brand": "Tommy Hilfiger"}, "geometry": {"type": "Point", "coordinates": [-119.060439, 34.215813]}},
{"type": "Feature", "id": "XK8AsCvFeP7H0Tw3QKtxVKuI8Zc=", "properties": {"ref": "-1566706973", "@spider": "tommy_hilfiger", "addr:full": "8200 Vineland Avenue", "addr:city": "Orlando", "addr:state": "FL", "addr:postcode": "32821", "addr:country": "US", "name": "Tommy Hilfiger", "phone": "407-239-7488", "brand": "Tommy Hilfiger"}, "geometry": {"type": "Point", "coordinates": [-81.492448, 28.387329]}},
{"type": "Feature", "id": "32vV7xxGM8a9sLjQSID6uBQJvqs=", "properties": {"ref": "-1566706976", "@spider": "tommy_hilfiger", "addr:full": "8111 Concord Mills Boulevard", "addr:city": "Concord", "addr:state": "NC", "addr:postcode": "28027", "addr:country": "US", "name": "Tommy Hilfiger", "phone": "704-979-8088", "brand": "Tommy Hilfiger"}, "geometry": {"type": "Point", "coordinates": [-80.722138, 35.369109]}},
{"type": "Feature", "id": "d_jtHKSrHdDe3EUi1n5DxnDEvU4=", "properties": {"ref": "-1566706797", "@spider": "tommy_hilfiger", "addr:full": "9101 International Drive", "addr:city": "Orlando", "addr:state": "FL", "addr:postcode": "32819", "addr:country": "US", "name": "Tommy Hilfiger", "phone": "407-355-0965", "brand": "Tommy Hilfiger"}, "geometry": {"type": "Point", "coordinates": [-81.470145, 28.432843]}},
{"type": "Feature", "id": "H4nWXNZn6HB0MHFm3mFz6QQbs4I=", "properties": {"ref": "-1566706974", "@spider": "tommy_hilfiger", "addr:full": "4953 International Drive", "addr:city": "Orlando", "addr:state": "FL", "addr:postcode": "32819", "addr:country": "US", "name": "Tommy Hilfiger", "phone": "407-354-0225", "brand": "Tommy Hilfiger"}, "geometry": {"type": "Point", "coordinates": [-81.452321, 28.475102]}},
{"type": "Feature", "id": "NGZgSPBOOJHQmsF1SXeHsiHDxYc=", "properties": {"ref": "-1566706913", "@spider": "tommy_hilfiger", "addr:full": "4963 International Drive", "addr:city": "Orlando", "addr:state": "FL", "addr:postcode": "32819", "addr:country": "US", "name": "Tommy Hilfiger", "phone": "407-354-3102", "brand": "Tommy Hilfiger"}, "geometry": {"type": "Point", "coordinates": [-81.452161, 28.474639]}},
{"type": "Feature", "id": "8qEIpdIHjb1uoSQJ0CXYWOkgVBA=", "properties": {"ref": "-1566706899", "@spider": "tommy_hilfiger", "addr:full": "5269 In ternational Drive", "addr:city": "Orlando", "addr:state": "FL", "addr:postcode": "32819", "addr:country": "US", "name": "Tommy Hilfiger", "phone": "407-352-8518", "brand": "Tommy Hilfiger"}, "geometry": {"type": "Point", "coordinates": [-81.451236, 28.467131]}},
{"type": "Feature", "id": "aVN2LowFj-kbN0nk9jXPtLP6LTw=", "properties": {"ref": "-1566706918", "@spider": "tommy_hilfiger", "addr:full": "15591 Apopka Vineland Rd", "addr:city": "Lake Buena Vista", "addr:state": "FL", "addr:postcode": "32821", "addr:country": "US", "name": "Tommy Hilfiger", "phone": "407-238-0142", "brand": "Tommy Hilfiger"}, "geometry": {"type": "Point", "coordinates": [-81.486522, 28.350305]}},
{"type": "Feature", "id": "RX-Gnpm-0cQ16_eu_7bnSDjvOA4=", "properties": {"ref": "-1566706795", "@spider": "tommy_hilfiger", "addr:full": "7445 Exchange Drive", "addr:city": "Orlando", "addr:state": "FL", "addr:postcode": "32809", "addr:country": "US", "name": "Tommy Hilfiger", "phone": "407-816-4266", "brand": "Tommy Hilfiger"}, "geometry": {"type": "Point", "coordinates": [-81.413944, 28.45694]}},
{"type": "Feature", "id": "vOdcieIamjE2qxFQ3jjRYwkvUKw=", "properties": {"ref": "-1421077797", "@spider": "tommy_hilfiger", "addr:full": "2613 W. Osceola Parkway", "addr:city": "Kissimmee", "addr:state": "FL", "addr:postcode": "34741", "addr:country": "US", "name": "Tommy Hilfiger", "phone": "689-204-0272", "brand": "Tommy Hilfiger"}, "geometry": {"type": "Point", "coordinates": [-81.42862966, 28.34208949]}},
{"type": "Feature", "id": "_yslrNRG9GWijF5tJCMU9edw1ig=", "properties": {"ref": "-1566706853", "@spider": "tommy_hilfiger", "addr:full": "1100 Cornerstone Blvd.", "addr:city": "Daytona", "addr:state": "FL", "addr:postcode": "32117", "addr:country": "US", "name": "Tommy Hilfiger", "phone": "386-274-2855", "brand": "Tommy Hilfiger"}, "geometry": {"type": "Point", "coordinates": [-81.09891, 29.21344]}},
{"type": "Feature", "id": "Gnoe4kZvSsjU2qpcKKK7OXMzaMU=", "properties": {"ref": "-1566706957", "@spider": "tommy_hilfiger", "addr:full": "1475 North Burkhart Road", "addr:city": "Howell", "addr:state": "MI", "addr:postcode": "48855", "addr:country": "US", "name": "Tommy Hilfiger", "phone": "517-552-6475", "brand": "Tommy Hilfiger"}, "geometry": {"type": "Point", "coordinates": [-83.99364, 42.62127]}},
{"type": "Feature", "id": "Z-4Fv9T-mk9gkUIxDTDMnpBFemY=", "properties": {"ref": "-1566706929", "@spider": "tommy_hilfiger", "addr:full": "20350 Summerlin Road", "addr:city": "Ft. Myers", "addr:state": "FL", "addr:postcode": "33908", "addr:country": "US", "name": "Tommy Hilfiger", "phone": "239-481-5204", "brand": "Tommy Hilfiger"}, "geometry": {"type": "Point", "coordinates": [-81.973879, 26.494711]}},
{"type": "Feature", "id": "6WbiWa7n6k3_r_5S2CDApsgApyw=", "properties": {"ref": "-1566706932", "@spider": "tommy_hilfiger", "addr:full": "1703 Retherford Street", "addr:city": "Tulare", "addr:state": "CA", "addr:postcode": "93274", "addr:country": "US", "name": "Tommy Hilfiger", "phone": "559-684-7314", "brand": "Tommy Hilfiger"}, "geometry": {"type": "Point", "coordinates": [-119.33503, 36.229388]}},
{"type": "Feature", "id": "CQJF5-BVeFAkw-9Df-MKf_K607o=", "properties": {"ref": "-1566706954", "@spider": "tommy_hilfiger", "addr:full": "10801 Corkscrew Road", "addr:city": "Estero", "addr:state": "FL", "addr:postcode": "33928", "addr:country": "US", "name": "Tommy Hilfiger", "phone": "239-498-4466", "brand": "Tommy Hilfiger"}, "geometry": {"type": "Point", "coordinates": [-81.776032, 26.436018]}},
{"type": "Feature", "id": "FOD-5m2yHOieQIERbUEaTMh8fuY=", "properties": {"ref": "-1566706938", "@spider": "tommy_hilfiger", "addr:full": "4840 Tanger Outlet Blvd.", "addr:city": "N. Charleston", "addr:state": "SC", "addr:postcode": "29418", "addr:country": "US", "name": "Tommy Hilfiger", "phone": "843-747-5144", "brand": "Tommy Hilfiger"}, "geometry": {"type": "Point", "coordinates": [-80.018178, 32.873221]}},
{"type": "Feature", "id": "vY8cXpJWItEKdZKM304txH8nvcI=", "properties": {"ref": "-1566706844", "@spider": "tommy_hilfiger", "addr:full": "1555 Talbot Street", "addr:city": "LaSalle", "addr:postcode": "N9H 2N2", "addr:country": "CA", "name": "Tommy Hilfiger", "phone": "519-250-7922", "brand": "Tommy Hilfiger"}, "geometry": {"type": "Point", "coordinates": [-83.013149, 42.239696]}},
{"type": "Feature", "id": "UO-o3POxjqTYEAGtLDebWj-zS9A=", "properties": {"ref": "-1566706951", "@spider": "tommy_hilfiger", "addr:full": "4754 Baldwin Road", "addr:city": "Auburn Hills", "addr:state": "MI", "addr:postcode": "48326", "addr:country": "US", "name": "Tommy Hilfiger", "phone": "248-332-3122", "brand": "Tommy Hilfiger"}, "geometry": {"type": "Point", "coordinates": [-83.3066, 42.707]}},
{"type": "Feature", "id": "srE91La6XJdKmWMLx5AgYk2-KTw=", "properties": {"ref": "-1566707008", "@spider": "tommy_hilfiger", "addr:full": "8901 Market Place Drive", "addr:city": "Birch Run", "addr:state": "MI", "addr:postcode": "48415", "addr:country": "US", "name": "Tommy Hilfiger", "phone": "989-624-2888", "brand": "Tommy Hilfiger"}, "geometry": {"type": "Point", "coordinates": [-83.776726, 43.245389]}},
{"type": "Feature", "id": "HhGkXbxILz13E6zRceDefcXYKhU=", "properties": {"ref": "-1566706942", "@spider": "tommy_hilfiger", "addr:full": "1822 94th Drive", "addr:city": "Vero Beach", "addr:state": "FL", "addr:postcode": "32966", "addr:country": "US", "name": "Tommy Hilfiger", "phone": "772-569-1181", "brand": "Tommy Hilfiger"}, "geometry": {"type": "Point", "coordinates": [-80.52069, 27.636881]}},
{"type": "Feature", "id": "By8ZL4cS1djiOBWGwjx2tKZtE28=", "properties": {"ref": "-1566706965", "@spider": "tommy_hilfiger", "addr:full": "549 South Chillicothe Road Route 43", "addr:city": "Aurora", "addr:state": "OH", "addr:postcode": "44202", "addr:country": "US", "name": "Tommy Hilfiger", "phone": "330-995-8600", "brand": "Tommy Hilfiger"}, "geometry": {"type": "Point", "coordinates": [-81.345534, 41.302058]}},
{"type": "Feature", "id": "6H5Yhj6AE-fmoUr9NBC6lAvfyfg=", "properties": {"ref": "-1566707000", "@spider": "tommy_hilfiger", "addr:full": "333 Five Cities Drive", "addr:city": "Pismo Beach", "addr:state": "CA", "addr:postcode": "93449", "addr:country": "US", "name": "Tommy Hilfiger", "phone": "805-773-8897", "brand": "Tommy Hilfiger"}, "geometry": {"type": "Point", "coordinates": [-120.627703, 35.135766]}},
{"type": "Feature", "id": "lekOHuq13-nVGggBjJTSxzxoaCI=", "properties": {"ref": "-1566706909", "@spider": "tommy_hilfiger", "addr:full": "4000 Arrowhead blvd", "addr:city": "Mebane", "addr:state": "NC", "addr:postcode": "27302", "addr:country": "US", "name": "Tommy Hilfiger", "phone": "919-304-2600", "brand": "Tommy Hilfiger"}, "geometry": {"type": "Point", "coordinates": [-79.26478, 36.075254]}},
{"type": "Feature", "id": "i390uW4nWR86AwP40f_7znfZq2Y=", "properties": {"ref": "-1566706998", "@spider": "tommy_hilfiger", "addr:full": "4633 Factory Stores Boulevard", "addr:city": "Myrtle Beach", "addr:state": "SC", "addr:postcode": "29579", "addr:country": "US", "name": "Tommy Hilfiger", "phone": "843-236-3003", "brand": "Tommy Hilfiger"}, "geometry": {"type": "Point", "coordinates": [-78.9582, 33.75126]}},
{"type": "Feature", "id": "qzfI9Ko2nQ1wEMtpIWM5eanjviA=", "properties": {"ref": "-1566706952", "@spider": "tommy_hilfiger", "addr:full": "10835 Kings Road", "addr:city": "Myrtle Beach", "addr:state": "SC", "addr:postcode": "29572", "addr:country": "US", "name": "Tommy Hilfiger", "phone": "843-449-8464", "brand": "Tommy Hilfiger"}, "geometry": {"type": "Point", "coordinates": [-78.774256, 33.784331]}},
{"type": "Feature", "id": "j28NrWxY2ZzO7zVUzZckjqoXl_k=", "properties": {"ref": "-1566706926", "@spider": "tommy_hilfiger", "addr:full": "2200 Tanger Blvd.", "addr:city": "Washington", "addr:state": "PA", "addr:postcode": "15301", "addr:country": "US", "name": "Tommy Hilfiger", "phone": "724-222-8560", "brand": "Tommy Hilfiger"}, "geometry": {"type": "Point", "coordinates": [-80.212103, 40.21689]}},
{"type": "Feature", "id": "HrSvci9UaxbebOyHyIfzqz5OOjI=", "properties": {"ref": "-1566706803", "@spider": "tommy_hilfiger", "addr:full": "555 Sterling Lyon Parkway", "addr:city": "Winnipeg", "addr:postcode": "R3P 1E9", "addr:country": "CA", "name": "Tommy Hilfiger", "phone": "204-691-6133", "brand": "Tommy Hilfiger"}, "geometry": {"type": "Point", "coordinates": [-97.212401, 49.844814]}},
{"type": "Feature", "id": "tjLLDxM1Ku9g0UWfVBpA41fOfy8=", "properties": {"ref": "-1566706881", "@spider": "tommy_hilfiger", "addr:full": "1771 Palm Beach Lakes Blvd", "addr:city": "West Palm Beach", "addr:state": "FL", "addr:postcode": "33401", "addr:country": "US", "name": "Tommy Hilfiger", "phone": "561-688-1133", "brand": "Tommy Hilfiger"}, "geometry": {"type": "Point", "coordinates": [-80.087204, 26.724464]}},
{"type": "Feature", "id": "QY7p5EEvF2SstzZEMBtrBwOoP8I=", "properties": {"ref": "-1566706982", "@spider": "tommy_hilfiger", "addr:full": "12801 West Sunrise Blvd", "addr:city": "Sunrise", "addr:state": "FL", "addr:postcode": "33323", "addr:country": "US", "name": "Tommy Hilfiger", "phone": "954-846-2125", "brand": "Tommy Hilfiger"}, "geometry": {"type": "Point", "coordinates": [-80.324691, 26.14621]}},
{"type": "Feature", "id": "zBASstL_1uPdm85cBIfe0OBhDZE=", "properties": {"ref": "-1566706921", "@spider": "tommy_hilfiger", "addr:full": "12801 West Sunrise Blvd", "addr:city": "Sunrise", "addr:state": "FL", "addr:postcode": "33323", "addr:country": "US", "name": "Tommy Hilfiger", "phone": "954-838-0713", "brand": "Tommy Hilfiger"}, "geometry": {"type": "Point", "coordinates": [-80.324691, 26.14621]}},
{"type": "Feature", "id": "dBCN_249Qyb8wYjikq4aT_G0atM=", "properties": {"ref": "-1566706792", "@spider": "tommy_hilfiger", "addr:full": "2829 N Commerce Parkway", "addr:city": "Miramar", "addr:state": "FL", "addr:postcode": "33025", "addr:country": "US", "name": "Tommy Hilfiger", "phone": "954-885-0001", "brand": "Tommy Hilfiger"}, "geometry": {"type": "Point", "coordinates": [-80.282443, 25.983411]}},
{"type": "Feature", "id": "oVsp-n6j1PNVJi9TLM3l2yNSMLs=", "properties": {"ref": "-1566706943", "@spider": "tommy_hilfiger", "addr:full": "11401 NW 12th Street", "addr:city": "Miami", "addr:state": "FL", "addr:postcode": "33172", "addr:country": "US", "name": "Tommy Hilfiger", "phone": "305-597-6301", "brand": "Tommy Hilfiger"}, "geometry": {"type": "Point", "coordinates": [-80.37588, 25.785786]}},
{"type": "Feature", "id": "xWJLJlRW6AUFLLROAfWqvBKnD8o=", "properties": {"ref": "-1566706903", "@spider": "tommy_hilfiger", "addr:full": "250 East Palm Drive", "addr:city": "Florida City", "addr:state": "FL", "addr:postcode": "33034", "addr:country": "US", "name": "Tommy Hilfiger", "phone": "305-245-6118", "brand": "Tommy Hilfiger"}, "geometry": {"type": "Point", "coordinates": [-80.472953, 25.452311]}},
{"type": "Feature", "id": "4i47spzzvNIiIfGydjRtSdIG_Xc=", "properties": {"ref": "-1566706865", "@spider": "tommy_hilfiger", "addr:full": "250 Ease Palm Drive", "addr:city": "Florida City", "addr:state": "FL", "addr:postcode": "33034", "addr:country": "US", "name": "Tommy Hilfiger", "phone": "305-248-9945", "brand": "Tommy Hilfiger"}, "geometry": {"type": "Point", "coordinates": [-80.472859, 25.452343]}},
{"type": "Feature", "id": "IhKmhxvB7UMJvUvcOlmnTT-8Fs8=", "properties": {"ref": "-1566706977", "@spider": "tommy_hilfiger", "addr:full": "1261 Outlet Center Drive", "addr:city": "Smithfield", "addr:state": "NC", "addr:postcode": "27577", "addr:country": "US", "name": "Tommy Hilfiger", "phone": "919-989-1940", "brand": "Tommy Hilfiger"}, "geometry": {"type": "Point", "coordinates": [-78.309225, 35.511004]}},
{"type": "Feature", "id": "_5gtCw5I0emnLwu6Ak9W7v2qBvs=", "properties": {"ref": "-1566707005", "@spider": "tommy_hilfiger", "addr:full": "1911 Leesburg Rd.", "addr:city": "Grove City", "addr:state": "PA", "addr:postcode": "16127", "addr:country": "US", "name": "Tommy Hilfiger", "phone": "724-748-3260", "brand": "Tommy Hilfiger"}, "geometry": {"type": "Point", "coordinates": [-80.08552, 41.159784]}},
{"type": "Feature", "id": "ePOURDY4Ey57r81U_3sxsccW9xg=", "properties": {"ref": "-1566706832", "@spider": "tommy_hilfiger", "addr:full": "1270 Wellington Road", "addr:city": "London", "addr:postcode": "N6E 1M3", "addr:country": "CA", "name": "Tommy Hilfiger", "phone": "519-690-2269", "brand": "Tommy Hilfiger"}, "geometry": {"type": "Point", "coordinates": [-81.217136, 42.927711]}},
{"type": "Feature", "id": "D2gAZvHc0_ZBn142EpDFFvvtx9k=", "properties": {"ref": "-1566706955", "@spider": "tommy_hilfiger", "addr:full": "8300 Arroyo Circle", "addr:city": "Gilroy", "addr:state": "CA", "addr:postcode": "95020", "addr:country": "US", "name": "Tommy Hilfiger", "phone": "408-846-0998", "brand": "Tommy Hilfiger"}, "geometry": {"type": "Point", "coordinates": [-121.561121, 37.021748]}},
{"type": "Feature", "id": "UDzMtjv2MsEZfoB1B2hdH0DJSFY=", "properties": {"ref": "-1566707003", "@spider": "tommy_hilfiger", "addr:full": "13000 Folsom Boulevard", "addr:city": "Folsom", "addr:state": "CA", "addr:postcode": "95630", "addr:country": "US", "name": "Tommy Hilfiger", "phone": "916-351-1238", "brand": "Tommy Hilfiger"}, "geometry": {"type": "Point", "coordinates": [-121.189647, 38.644514]}},
{"type": "Feature", "id": "mJ8BCKzDfFUWz6H_nY2FICXP-ks=", "properties": {"ref": "-1566706787", "@spider": "tommy_hilfiger", "addr:full": "5885 La Ribera St.", "addr:city": "Livermore", "addr:state": "CA", "addr:postcode": "94550", "addr:country": "US", "name": "Tommy Hilfiger", "phone": "925-449-1207", "brand": "Tommy Hilfiger"}, "geometry": {"type": "Point", "coordinates": [-121.721983, 37.6988]}},
{"type": "Feature", "id": "K46XGcFALt8DT3Wfy0AEdVlZWWQ=", "properties": {"ref": "-1566706956", "@spider": "tommy_hilfiger", "addr:full": "568 Great Mall Drive", "addr:city": "Milpitas", "addr:state": "CA", "addr:postcode": "95035", "addr:country": "US", "name": "Tommy Hilfiger", "phone": "408-956-8461", "brand": "Tommy Hilfiger"}, "geometry": {"type": "Point", "coordinates": [-121.89691, 37.41611]}},
{"type": "Feature", "id": "MSzJJth-ZexlhTUatJuXhUmyF2c=", "properties": {"ref": "-1566706911", "@spider": "tommy_hilfiger", "addr:full": "3394 Livermore Outlets Drive", "addr:city": "Livermore", "addr:state": "CA", "addr:postcode": "94551", "addr:country": "US", "name": "Tommy Hilfiger", "phone": "925-447-4420", "brand": "Tommy Hilfiger"}, "geometry": {"type": "Point", "coordinates": [-121.844855, 37.69812]}},
{"type": "Feature", "id": "au_A046brJt_XA9e2uw6vVxR0OY=", "properties": {"ref": "-1566706894", "@spider": "tommy_hilfiger", "addr:full": "3236 Livermore Outlets Drive", "addr:city": "Livermore", "addr:state": "CA", "addr:postcode": "94551", "addr:country": "US", "name": "Tommy Hilfiger", "phone": "925-447-7410", "brand": "Tommy Hilfiger"}, "geometry": {"type": "Point", "coordinates": [-121.844862, 37.6981]}},
{"type": "Feature", "id": "amA62HjQK7rt7yDdPDmV74nMhts=", "properties": {"ref": "-1566706960", "@spider": "tommy_hilfiger", "addr:full": "292 Nut Tree Road", "addr:city": "Vacaville", "addr:state": "CA", "addr:postcode": "95687", "addr:country": "US", "name": "Tommy Hilfiger", "phone": "707-446-1843", "brand": "Tommy Hilfiger"}, "geometry": {"type": "Point", "coordinates": [-121.953375, 38.368342]}},
{"type": "Feature", "id": "qB9GtevrUKSm0wBdpk3dYJLHKJ0=", "properties": {"ref": "-1566706817", "@spider": "tommy_hilfiger", "addr:full": "34 Pinebrush Road", "addr:city": "Cambridge", "addr:postcode": "N1R 8K5", "addr:country": "CA", "name": "Tommy Hilfiger", "phone": "519-624-9104", "brand": "Tommy Hilfiger"}, "geometry": {"type": "Point", "coordinates": [-80.324748, 43.410013]}},
{"type": "Feature", "id": "SrE7w4cHENi8ShmXILdxX09m5bE=", "properties": {"ref": "-1566707011", "@spider": "tommy_hilfiger", "addr:full": "827 Freeway Drive", "addr:city": "Napa", "addr:state": "CA", "addr:postcode": "94558", "addr:country": "US", "name": "Tommy Hilfiger", "phone": "707-224-1270", "brand": "Tommy Hilfiger"}, "geometry": {"type": "Point", "coordinates": [-122.303785, 38.296435]}},
{"type": "Feature", "id": "kwITLJetEsXiYR8B5AYuSUFZLxM=", "properties": {"ref": "-1566706989", "@spider": "tommy_hilfiger", "addr:full": "210 Prime Outlets Boulevard", "addr:city": "Hagerstown", "addr:state": "MD", "addr:postcode": "21740", "addr:country": "US", "name": "Tommy Hilfiger", "phone": "301-739-8868", "brand": "Tommy Hilfiger"}, "geometry": {"type": "Point", "coordinates": [-77.732808, 39.607525]}},
{"type": "Feature", "id": "T5guETjT0PiVij-iipNuI1A2llg=", "properties": {"ref": "-1566706920", "@spider": "tommy_hilfiger", "addr:full": "241 Fort Evans Road NE", "addr:city": "Leesburg", "addr:state": "VA", "addr:postcode": "20176", "addr:country": "US", "name": "Tommy Hilfiger", "phone": "703-777-9008", "brand": "Tommy Hilfiger"}, "geometry": {"type": "Point", "coordinates": [-77.538563, 39.106429]}},
{"type": "Feature", "id": "qZF274KZeP0-fewqlbE2bE84CJk=", "properties": {"ref": "-1566706986", "@spider": "tommy_hilfiger", "addr:full": "241 Fort Evans Road NE", "addr:city": "Leesburg", "addr:state": "VA", "addr:postcode": "20176", "addr:country": "US", "name": "Tommy Hilfiger", "phone": "703-737-3878", "brand": "Tommy Hilfiger"}, "geometry": {"type": "Point", "coordinates": [-77.538563, 39.106429]}},
{"type": "Feature", "id": "p3Tm06IZN6rYEXgMl8EWAgr2RgA=", "properties": {"ref": "-1566706818", "@spider": "tommy_hilfiger", "addr:full": "3499 Wyecroft Road", "addr:city": "Oakville", "addr:postcode": "L6L 0B6", "addr:country": "CA", "name": "Tommy Hilfiger", "phone": "905-827-4523", "brand": "Tommy Hilfiger"}, "geometry": {"type": "Point", "coordinates": [-79.750124, 43.39821]}},
{"type": "Feature", "id": "HKVnt6WdoSANsgGCsH2c2TLIf1c=", "properties": {"ref": "-1566706995", "@spider": "tommy_hilfiger", "addr:full": "2700 Potomac Mills Circle", "addr:city": "Woodbridge", "addr:state": "VA", "addr:postcode": "22192", "addr:country": "US", "name": "Tommy Hilfiger", "phone": "703-494-1807", "brand": "Tommy Hilfiger"}, "geometry": {"type": "Point", "coordinates": [-77.29556, 38.64344]}},
{"type": "Feature", "id": "N8Z15DVDMUvOHwyh__6bzw1ynis=", "properties": {"ref": "-1566706800", "@spider": "tommy_hilfiger", "addr:full": "13850 Steeles Avenue West", "addr:city": "Halton Hills", "addr:postcode": "L7G0J1", "addr:country": "CA", "name": "Tommy Hilfiger", "phone": "905-864-3913", "brand": "Tommy Hilfiger"}, "geometry": {"type": "Point", "coordinates": [-79.82991, 43.575173]}},
{"type": "Feature", "id": "O3im-ztIDBO5SFz3DFOOVqHQDIE=", "properties": {"ref": "-1566706810", "@spider": "tommy_hilfiger", "addr:full": "13850 Steeles Avenue West", "addr:city": "Halton Hills", "addr:postcode": "L7G 0J1", "addr:country": "CA", "name": "Tommy Hilfiger", "phone": "905-864-8057", "brand": "Tommy Hilfiger"}, "geometry": {"type": "Point", "coordinates": [-79.82991, 43.575173]}},
{"type": "Feature", "id": "wwTi2UHuqvZPBMYAukz2mE0-lbc=", "properties": {"ref": "-1566706928", "@spider": "tommy_hilfiger", "addr:full": "2200 Petaluma Blvd North", "addr:city": "Petaluma", "addr:state": "CA", "addr:postcode": "94952", "addr:country": "US", "name": "Tommy Hilfiger", "phone": "707-765-6525", "brand": "Tommy Hilfiger"}, "geometry": {"type": "Point", "coordinates": [-122.649561, 38.256318]}},
{"type": "Feature", "id": "eyQkzA4PA-vvVItLVvxlpRU_cHc=", "properties": {"ref": "-1566706805", "@spider": "tommy_hilfiger", "addr:full": "775 Britannia Road West", "addr:city": "Mississauga", "addr:postcode": "L5V 2Y1", "addr:country": "CA", "name": "Tommy Hilfiger", "phone": "905-813-7660", "brand": "Tommy Hilfiger"}, "geometry": {"type": "Point", "coordinates": [-79.697132, 43.611723]}},
{"type": "Feature", "id": "HHx3ZnPiDGr3fKm8aGKym3Ue6jw=", "properties": {"ref": "-1566706837", "@spider": "tommy_hilfiger", "addr:full": "775 Britannia Road W", "addr:city": "Mississauga", "addr:postcode": "L5V 2Y1", "addr:country": "CA", "name": "Tommy Hilfiger", "phone": "905-826-9645", "brand": "Tommy Hilfiger"}, "geometry": {"type": "Point", "coordinates": [-79.697132, 43.611723]}},
{"type": "Feature", "id": "lPwD5BuoUkiVZE0YEF4TfebJHpg=", "properties": {"ref": "-1566706826", "@spider": "tommy_hilfiger", "addr:full": "190 Great Lakes Drive", "addr:city": "Brampton", "addr:postcode": "L6R 2K7", "addr:country": "CA", "name": "Tommy Hilfiger", "phone": "905-799-3884", "brand": "Tommy Hilfiger"}, "geometry": {"type": "Point", "coordinates": [-79.765342, 43.73108]}},
{"type": "Feature", "id": "3ufqlU7GsWpmsS5v4oCQeFxmUK0=", "properties": {"ref": "-1566706858", "@spider": "tommy_hilfiger", "addr:full": "22705 Clarksburg Road", "addr:city": "Clarksburg", "addr:state": "MD", "addr:postcode": "20871", "addr:country": "US", "name": "Tommy Hilfiger", "phone": "301-916-1472", "brand": "Tommy Hilfiger"}, "geometry": {"type": "Point", "coordinates": [-77.28567, 39.2281]}},
{"type": "Feature", "id": "M5m2SilNsJyTUmc985gVxJEFYa0=", "properties": {"ref": "-1566706791", "@spider": "tommy_hilfiger", "addr:full": "5181 Bradco Blvd", "addr:city": "Mississauga", "addr:postcode": "L4W 2A6", "addr:country": "CA", "name": "Tommy Hilfiger", "phone": "905-282-1291", "brand": "Tommy Hilfiger"}, "geometry": {"type": "Point", "coordinates": [-79.629549, 43.635742]}},
{"type": "Feature", "id": "M8X99FZvyfT8q8QYkMpFv0Ev9G8=", "properties": {"ref": "-1566707009", "@spider": "tommy_hilfiger", "addr:full": "5715 Richmond Road", "addr:city": "Williamsburg", "addr:state": "VA", "addr:postcode": "23188", "addr:country": "US", "name": "Tommy Hilfiger", "phone": "757-564-8888", "brand": "Tommy Hilfiger"}, "geometry": {"type": "Point", "coordinates": [-76.739111, 37.321535]}},
{"type": "Feature", "id": "aGoshCRVy5uxuZlgkspJAWzyj9s=", "properties": {"ref": "-1566706848", "@spider": "tommy_hilfiger", "addr:full": "1250 South Service Road", "addr:city": "Mississauga", "addr:postcode": "L5E 1V4", "addr:country": "CA", "name": "Tommy Hilfiger", "phone": "905-274-3396", "brand": "Tommy Hilfiger"}, "geometry": {"type": "Point", "coordinates": [-79.569291, 43.592834]}},
{"type": "Feature", "id": "xXX88YeX2wEdKmq6TTvVAwIEj9s=", "properties": {"ref": "-1566706808", "@spider": "tommy_hilfiger", "addr:full": "300 Taylor Road", "addr:city": "Niagara-On-The-Lake", "addr:postcode": "L0S 1J0", "addr:country": "CA", "name": "Tommy Hilfiger", "phone": "905-708-1015", "brand": "Tommy Hilfiger"}, "geometry": {"type": "Point", "coordinates": [-79.171691, 43.158006]}},
{"type": "Feature", "id": "KEj6t6LphF4Mky5kU_45oDpQo5U=", "properties": {"ref": "-1566706846", "@spider": "tommy_hilfiger", "addr:full": "7500 Lundy's Lane", "addr:city": "Niagara Falls", "addr:postcode": "L2H 1G8", "addr:country": "CA", "name": "Tommy Hilfiger", "phone": "905-354-6194", "brand": "Tommy Hilfiger"}, "geometry": {"type": "Point", "coordinates": [-79.119655, 43.088213]}},
{"type": "Feature", "id": "p9lRb05FCyF-9XLMr4iK-avpqKQ=", "properties": {"ref": "-1566706887", "@spider": "tommy_hilfiger", "addr:full": "6800 Oxon Hill Rd", "addr:city": "National Harbor", "addr:state": "MD", "addr:postcode": "20745", "addr:country": "US", "name": "Tommy Hilfiger", "phone": "301-839-1034", "brand": "Tommy Hilfiger"}, "geometry": {"type": "Point", "coordinates": [-77.001313, 38.794555]}},
{"type": "Feature", "id": "nARrXwCR_bLleabi6UwQ3bwRt1k=", "properties": {"ref": "-1566706802", "@spider": "tommy_hilfiger", "addr:full": "900 Dufferin St", "addr:city": "Toronto", "addr:postcode": "M6H 1K8", "addr:country": "CA", "name": "Tommy Hilfiger", "phone": "416-533-2183", "brand": "Tommy Hilfiger"}, "geometry": {"type": "Point", "coordinates": [-79.433855, 43.654852]}},
{"type": "Feature", "id": "cSutDcLkFK3ULuX1NustwsPOgoI=", "properties": {"ref": "-1566706835", "@spider": "tommy_hilfiger", "addr:full": "1 Bass Pro Mills Drive", "addr:city": "Vaughan", "addr:postcode": "L4K 5W4", "addr:country": "CA", "name": "Tommy Hilfiger", "phone": "905-760-2084", "brand": "Tommy Hilfiger"}, "geometry": {"type": "Point", "coordinates": [-79.539461, 43.825972]}},
{"type": "Feature", "id": "PgFoVstEOEhqFcgrJMKlElzf2to=", "properties": {"ref": "-1566707010", "@spider": "tommy_hilfiger", "addr:full": "1800 Military Road", "addr:city": "Niagara Falls", "addr:state": "NY", "addr:postcode": "14304", "addr:country": "US", "name": "Tommy Hilfiger", "phone": "716-297-3113", "brand": "Tommy Hilfiger"}, "geometry": {"type": "Point", "coordinates": [-78.978499, 43.097434]}},
{"type": "Feature", "id": "2vulVFjj7oZlJ4ChQltQkcspNww=", "properties": {"ref": "-1566706908", "@spider": "tommy_hilfiger", "addr:full": "1863 Gettysburg Village Dr", "addr:city": "Gettysburg", "addr:state": "PA", "addr:postcode": "17325", "addr:country": "US", "name": "Tommy Hilfiger", "phone": "717-337-1200", "brand": "Tommy Hilfiger"}, "geometry": {"type": "Point", "coordinates": [-77.200399, 39.793756]}},
{"type": "Feature", "id": "S0pCQLAKBX9K4ikkboDoK3GQ5Go=", "properties": {"ref": "-1566706812", "@spider": "tommy_hilfiger", "addr:full": "1800 Sheppard avenue", "addr:city": "North York", "addr:postcode": "M2J 5A7", "addr:country": "CA", "name": "Tommy Hilfiger", "phone": "416-497-3659", "brand": "Tommy Hilfiger"}, "geometry": {"type": "Point", "coordinates": [-79.34575, 43.777179]}},
{"type": "Feature", "id": "jCqO5wy3gqGM4ORqBnsq1VLMWjo=", "properties": {"ref": "-1566706843", "@spider": "tommy_hilfiger", "addr:full": "3311 Simcoe Road 89", "addr:city": "Cookstown", "addr:postcode": "L0L 1L0", "addr:country": "CA", "name": "Tommy Hilfiger", "phone": "705-458-1454", "brand": "Tommy Hilfiger"}, "geometry": {"type": "Point", "coordinates": [-79.651279, 44.198993]}},
{"type": "Feature", "id": "y91HEpcKzJJXFO33QBTGVKksIEc=", "properties": {"ref": "-781306928", "@spider": "tommy_hilfiger", "addr:full": "300 Borough Drive", "addr:city": "Scarborough", "addr:postcode": "M1P 4P5", "addr:country": "CA", "name": "Tommy Hilfiger", "phone": "416-290-6959", "brand": "Tommy Hilfiger"}, "geometry": {"type": "Point", "coordinates": [-79.2589628, 43.7767656]}},
{"type": "Feature", "id": "AjQxlMt3kSveNiathb5T_fEdNTc=", "properties": {"ref": "-1566706855", "@spider": "tommy_hilfiger", "addr:full": "1600 Premium Outlets Blvd.", "addr:city": "Norfolk", "addr:state": "VA", "addr:postcode": "23502", "addr:country": "US", "name": "Tommy Hilfiger", "phone": "757-447-5813", "brand": "Tommy Hilfiger"}, "geometry": {"type": "Point", "coordinates": [-76.200096, 36.881718]}},
{"type": "Feature", "id": "kBPV8I5iWyd0DClBRQlVhsz96cQ=", "properties": {"ref": "-1566706940", "@spider": "tommy_hilfiger", "addr:full": "7000 Arundel Mills Circle", "addr:city": "Hanover", "addr:state": "MD", "addr:postcode": "21076", "addr:country": "US", "name": "Tommy Hilfiger", "phone": "443-755-9610", "brand": "Tommy Hilfiger"}, "geometry": {"type": "Point", "coordinates": [-76.72526, 39.158232]}},
{"type": "Feature", "id": "kVAHckS50tcLyeMX8fvWmqZ1Y1k=", "properties": {"ref": "-1566706840", "@spider": "tommy_hilfiger", "addr:full": "1899 Brock Road", "addr:city": "Pickering", "addr:postcode": "L1V 4H7", "addr:country": "CA", "name": "Tommy Hilfiger", "phone": "905-426-9677", "brand": "Tommy Hilfiger"}, "geometry": {"type": "Point", "coordinates": [-79.071685, 43.845703]}},
{"type": "Feature", "id": "UDCqWt7BopfkXtnpL4e1efA4ZrY=", "properties": {"ref": "-1566707032", "@spider": "tommy_hilfiger", "addr:full": "130 Outlet Square", "addr:city": "Hershey", "addr:state": "PA", "addr:postcode": "17033", "addr:country": "US", "name": "Tommy Hilfiger", "phone": "717-534-2160", "brand": "Tommy Hilfiger"}, "geometry": {"type": "Point", "coordinates": [-76.64586, 40.29631]}},
{"type": "Feature", "id": "QXwZWUm65XW2rDgqbrTCCTtFIDc=", "properties": {"ref": "-1566706936", "@spider": "tommy_hilfiger", "addr:full": "221 Outlet Dr.", "addr:city": "Queenstown", "addr:state": "MD", "addr:postcode": "21658", "addr:country": "US", "name": "Tommy Hilfiger", "phone": "410-827-4535", "brand": "Tommy Hilfiger"}, "geometry": {"type": "Point", "coordinates": [-76.160318, 38.983256]}},
{"type": "Feature", "id": "VlgbOct1vMVCGSCF8O_3oIHbQeE=", "properties": {"ref": "-1566707025", "@spider": "tommy_hilfiger", "addr:full": "113 Stanley K Tanger Drive", "addr:city": "Lancaster", "addr:state": "PA", "addr:postcode": "17602", "addr:country": "US", "name": "Tommy Hilfiger", "phone": "717-394-8810", "brand": "Tommy Hilfiger"}, "geometry": {"type": "Point", "coordinates": [-76.222343, 40.02639]}},
{"type": "Feature", "id": "7uFs1aGn2kitzY1Jkbd_7P0wQEQ=", "properties": {"ref": "-1566706901", "@spider": "tommy_hilfiger", "addr:full": "47 East Market St", "addr:city": "Corning", "addr:state": "NY", "addr:postcode": "14830", "addr:country": "US", "name": "Tommy Hilfiger", "phone": "607-962-2555", "brand": "Tommy Hilfiger"}, "geometry": {"type": "Point", "coordinates": [-77.052645, 42.143257]}},
{"type": "Feature", "id": "eBuHMeGQdWf5AtqZHrBDqbWe5ks=", "properties": {"ref": "-1566706971", "@spider": "tommy_hilfiger", "addr:full": "655 Route 318", "addr:city": "Waterloo", "addr:state": "NY", "addr:postcode": "13165", "addr:country": "US", "name": "Tommy Hilfiger", "phone": "315-539-8933", "brand": "Tommy Hilfiger"}, "geometry": {"type": "Point", "coordinates": [-76.921528, 42.956323]}},
{"type": "Feature", "id": "eEHSyq35QAw2ZPU21DzFZSswUiM=", "properties": {"ref": "-1566707012", "@spider": "tommy_hilfiger", "addr:full": "35000 Midway Outlet Drive", "addr:city": "Rehoboth Beach", "addr:state": "DE", "addr:postcode": "19971", "addr:country": "US", "name": "Tommy Hilfiger", "phone": "302-645-4990", "brand": "Tommy Hilfiger"}, "geometry": {"type": "Point", "coordinates": [-75.140601, 38.734399]}},
{"type": "Feature", "id": "goml_wKbEcsURjd1T709eF9RwSc=", "properties": {"ref": "-1566706924", "@spider": "tommy_hilfiger", "addr:full": "18 Lightcap Road", "addr:city": "Pottstown", "addr:state": "PA", "addr:postcode": "19464", "addr:country": "US", "name": "Tommy Hilfiger", "phone": "610-718-9571", "brand": "Tommy Hilfiger"}, "geometry": {"type": "Point", "coordinates": [-75.570626, 40.236618]}},
{"type": "Feature", "id": "KD78KaIjbWfawu2aEviYepU2TXA=", "properties": {"ref": "-1566706892", "@spider": "tommy_hilfiger", "addr:full": "77 Sands Blvd", "addr:city": "Bethlehem", "addr:state": "PA", "addr:postcode": "18015", "addr:country": "US", "name": "Tommy Hilfiger", "phone": "610-997-5470", "brand": "Tommy Hilfiger"}, "geometry": {"type": "Point", "coordinates": [-75.358359, 40.615113]}},
{"type": "Feature", "id": "hBD0Ku-ybZ4MfnazmD6KsIG8AhM=", "properties": {"ref": "-1566706873", "@spider": "tommy_hilfiger", "addr:full": "100 Premium Outlet Drive", "addr:city": "Blackwood", "addr:state": "NJ", "addr:postcode": "08012", "addr:country": "US", "name": "Tommy Hilfiger", "phone": "856-221-8282", "brand": "Tommy Hilfiger"}, "geometry": {"type": "Point", "coordinates": [-75.052857, 39.784332]}},
{"type": "Feature", "id": "6SJluv0Zg8PRDIMzYDoU9E7Ravs=", "properties": {"ref": "-1566707014", "@spider": "tommy_hilfiger", "addr:full": "1000 Premium Outlets Drive", "addr:city": "Tannersville", "addr:state": "PA", "addr:postcode": "18372", "addr:country": "US", "name": "Tommy Hilfiger", "phone": "570-629-7093", "brand": "Tommy Hilfiger"}, "geometry": {"type": "Point", "coordinates": [-75.312595, 41.047501]}},
{"type": "Feature", "id": "RGZXL370yBPnddwGmHqYXbHnfwg=", "properties": {"ref": "-1566706863", "@spider": "tommy_hilfiger", "addr:full": "1000 Premium Outlets Drive", "addr:city": "Tannersville", "addr:state": "PA", "addr:postcode": "18372", "addr:country": "US", "name": "Tommy Hilfiger", "phone": "570-629-3949", "brand": "Tommy Hilfiger"}, "geometry": {"type": "Point", "coordinates": [-75.312595, 41.047501]}},
{"type": "Feature", "id": "4JmA6qV0xZHeiuAZi3V_xBZyoyg=", "properties": {"ref": "-1566707002", "@spider": "tommy_hilfiger", "addr:full": "1800 Franklin Mills Circle", "addr:city": "Philadelphia", "addr:state": "PA", "addr:postcode": "19154", "addr:country": "US", "name": "Tommy Hilfiger", "phone": "215-637-7889", "brand": "Tommy Hilfiger"}, "geometry": {"type": "Point", "coordinates": [-74.961972, 40.089938]}},
{"type": "Feature", "id": "iTJb5otJ056a1SI9hehsCIhUdbw=", "properties": {"ref": "-1566706814", "@spider": "tommy_hilfiger", "addr:full": "261055 Crossiron blvd", "addr:city": "Rocky View", "addr:postcode": "T4A 0G3", "addr:country": "CA", "name": "Tommy Hilfiger", "phone": "403-274-3528", "brand": "Tommy Hilfiger"}, "geometry": {"type": "Point", "coordinates": [-113.99451, 51.20306]}},
{"type": "Feature", "id": "Nx0NvM4qifu6M1GQ9khKznTX_MU=", "properties": {"ref": "-1566706948", "@spider": "tommy_hilfiger", "addr:full": "2001 Atlantic Avenue", "addr:city": "Atlantic City", "addr:state": "NJ", "addr:postcode": "08401", "addr:country": "US", "name": "Tommy Hilfiger", "phone": "609-345-5299", "brand": "Tommy Hilfiger"}, "geometry": {"type": "Point", "coordinates": [-74.436519, 39.359745]}},
{"type": "Feature", "id": "SDMD7Jr505Nw2BoRlACK4pUuZII=", "properties": {"ref": "-1566706822", "@spider": "tommy_hilfiger", "addr:full": "97 Dalton Avenue", "addr:city": "Kingston", "addr:postcode": "K7K 0C4", "addr:country": "CA", "name": "Tommy Hilfiger", "phone": "613-544-3496", "brand": "Tommy Hilfiger"}, "geometry": {"type": "Point", "coordinates": [-76.502618, 44.267216]}},
{"type": "Feature", "id": "zI_U4ceX8je0pVzBUmSfCsXA1cA=", "properties": {"ref": "-1566706905", "@spider": "tommy_hilfiger", "addr:full": "450 NW 257th Way", "addr:city": "Troutdale", "addr:state": "OR", "addr:postcode": "97060", "addr:country": "US", "name": "Tommy Hilfiger", "phone": "503-674-2400", "brand": "Tommy Hilfiger"}, "geometry": {"type": "Point", "coordinates": [-122.389704, 45.542662]}},
{"type": "Feature", "id": "0z6BQjwHwxf-vJ2C-_1MfNKTUbE=", "properties": {"ref": "-1566706985", "@spider": "tommy_hilfiger", "addr:full": "537 Monmouth Road", "addr:city": "Jackson", "addr:state": "NJ", "addr:postcode": "08527", "addr:country": "US", "name": "Tommy Hilfiger", "phone": "732-928-8807", "brand": "Tommy Hilfiger"}, "geometry": {"type": "Point", "coordinates": [-74.417664, 40.161485]}},
{"type": "Feature", "id": "2sPiaD_-YEx4AkLVK70ctH0Wewo=", "properties": {"ref": "-1566706864", "@spider": "tommy_hilfiger", "addr:full": "1001 Arney Road", "addr:city": "Woodburn", "addr:state": "OR", "addr:postcode": "97071", "addr:country": "US", "name": "Tommy Hilfiger", "phone": "503-981-2939", "brand": "Tommy Hilfiger"}, "geometry": {"type": "Point", "coordinates": [-122.877988, 45.156417]}},
{"type": "Feature", "id": "dJecgAD6W0ODNVZla2NQKHfOx6s=", "properties": {"ref": "-1566706980", "@spider": "tommy_hilfiger", "addr:full": "1001 Arney Road", "addr:city": "Woodburn", "addr:state": "OR", "addr:postcode": "97071", "addr:country": "US", "name": "Tommy Hilfiger", "phone": "503-981-8883", "brand": "Tommy Hilfiger"}, "geometry": {"type": "Point", "coordinates": [-122.877988, 45.156417]}},
{"type": "Feature", "id": "HUzbI8YWRjXU5H5gpimDHk5CpiQ=", "properties": {"ref": "-1566706935", "@spider": "tommy_hilfiger", "addr:full": "1 Premium Outlets Blvd", "addr:city": "Tinton Falls", "addr:state": "NJ", "addr:postcode": "07753", "addr:country": "US", "name": "Tommy Hilfiger", "phone": "732-695-1444", "brand": "Tommy Hilfiger"}, "geometry": {"type": "Point", "coordinates": [-74.093841, 40.223634]}},
{"type": "Feature", "id": "dlxxa3XE8nhbgZY8YXN88F-njIQ=", "properties": {"ref": "-1566706896", "@spider": "tommy_hilfiger", "addr:full": "651 Kapkowski Road", "addr:city": "Elizabeth", "addr:state": "NJ", "addr:postcode": "07201", "addr:country": "US", "name": "Tommy Hilfiger", "phone": "908-436-9881", "brand": "Tommy Hilfiger"}, "geometry": {"type": "Point", "coordinates": [-74.170856, 40.65975]}},
{"type": "Feature", "id": "CBbJ-tyHfqJAwU01JLJZiUdQWHU=", "properties": {"ref": "-1566706796", "@spider": "tommy_hilfiger", "addr:full": "30 Enterprise Avenue", "addr:city": "Secaucus", "addr:state": "NJ", "addr:postcode": "07094", "addr:country": "US", "name": "Tommy Hilfiger", "phone": "201-863-5600", "brand": "Tommy Hilfiger"}, "geometry": {"type": "Point", "coordinates": [-74.06774, 40.783987]}},
{"type": "Feature", "id": "z4lHWtaUYL-qTkAN5rFkeE38yLs=", "properties": {"ref": "-1566706906", "@spider": "tommy_hilfiger", "addr:full": "2701Bergen Town Center", "addr:city": "Paramus", "addr:state": "NJ", "addr:postcode": "07652", "addr:country": "US", "name": "Tommy Hilfiger", "phone": "201-712-7984", "brand": "Tommy Hilfiger"}, "geometry": {"type": "Point", "coordinates": [-74.059242, 40.915641]}},
{"type": "Feature", "id": "jkG_lrVbMVUHpwkrP0hRgPEXcYI=", "properties": {"ref": "-1566707033", "@spider": "tommy_hilfiger", "addr:full": "231 Red Apple Court", "addr:city": "Central Valley", "addr:state": "NY", "addr:postcode": "10917", "addr:country": "US", "name": "Tommy Hilfiger", "phone": "845-928-8888", "brand": "Tommy Hilfiger"}, "geometry": {"type": "Point", "coordinates": [-74.127845, 41.315149]}},
{"type": "Feature", "id": "wqAHAe_FP7j-slyK7rTETdyDibU=", "properties": {"ref": "-1566706794", "@spider": "tommy_hilfiger", "addr:full": "1073 Route 94", "addr:city": "New Windsor", "addr:state": "NY", "addr:postcode": "12553", "addr:country": "US", "name": "Tommy Hilfiger", "phone": "845-565-2019", "brand": "Tommy Hilfiger"}, "geometry": {"type": "Point", "coordinates": [-74.06348, 41.450288]}},
{"type": "Feature", "id": "1rYLXcRyK_QCgeidGJqDtDLMPwk=", "properties": {"ref": "-1566706809", "@spider": "tommy_hilfiger", "addr:full": "8555 Campeau Drive", "addr:city": "Kanata", "addr:postcode": "K2T 0K5", "addr:country": "CA", "name": "Tommy Hilfiger", "phone": "613-836-7274", "brand": "Tommy Hilfiger"}, "geometry": {"type": "Point", "coordinates": [-75.937717, 45.29782]}},
{"type": "Feature", "id": "4dkBQEhvt2N7riMAAh3pBI5LmXY=", "properties": {"ref": "-1566706950", "@spider": "tommy_hilfiger", "addr:full": "1101 Outlet Collection&#xa0;Way", "addr:city": "Auburn", "addr:state": "WA", "addr:postcode": "98001", "addr:country": "US", "name": "Tommy Hilfiger", "phone": "253-735-9400", "brand": "Tommy Hilfiger"}, "geometry": {"type": "Point", "coordinates": [-122.245056, 47.298607]}},
{"type": "Feature", "id": "vV9YvGksf3-3AW9BU75rzZvysNA=", "properties": {"ref": "-1566706833", "@spider": "tommy_hilfiger", "addr:full": "1377 Woodroffe Avenue", "addr:city": "Ottawa", "addr:postcode": "K2G 1V7", "addr:country": "CA", "name": "Tommy Hilfiger", "phone": "613-727-3222", "brand": "Tommy Hilfiger"}, "geometry": {"type": "Point", "coordinates": [-75.760934, 45.349667]}},
{"type": "Feature", "id": "fSS9NBEsdIrHMzAOBOgirQGER6g=", "properties": {"ref": "-1566706925", "@spider": "tommy_hilfiger", "addr:full": "455 Commack Road", "addr:city": "Deer Park", "addr:state": "NY", "addr:postcode": "11729", "addr:country": "US", "name": "Tommy Hilfiger", "phone": "631-242-0674", "brand": "Tommy Hilfiger"}, "geometry": {"type": "Point", "coordinates": [-73.30516, 40.764338]}},
{"type": "Feature", "id": "ihcgIVy5BIhaKCwSh_tGMI7DEdc=", "properties": {"ref": "-1566706815", "@spider": "tommy_hilfiger", "addr:full": "75, boulevard de la Gappe", "addr:city": "Gatineau", "addr:postcode": "J8T 0B5", "addr:country": "CA", "name": "Tommy Hilfiger", "phone": "819-561-0630", "brand": "Tommy Hilfiger"}, "geometry": {"type": "Point", "coordinates": [-75.717484, 45.466451]}},
{"type": "Feature", "id": "crMnlYsP41RyX8GcX6QeIMvrICo=", "properties": {"ref": "-1566706819", "@spider": "tommy_hilfiger", "addr:full": "550 Terminal Avenue", "addr:city": "Ottawa", "addr:postcode": "K1G 0Z3", "addr:country": "CA", "name": "Tommy Hilfiger", "phone": "613-860-0782", "brand": "Tommy Hilfiger"}, "geometry": {"type": "Point", "coordinates": [-75.645548, 45.414625]}},
{"type": "Feature", "id": "js9gZFFvQvAMIAgu2jKB3n8DbgA=", "properties": {"ref": "-1566706868", "@spider": "tommy_hilfiger", "addr:full": "10600 Quil Ceda Boulevard", "addr:city": "Tulalip", "addr:state": "WA", "addr:postcode": "98271", "addr:country": "US", "name": "Tommy Hilfiger", "phone": "360-716-3104", "brand": "Tommy Hilfiger"}, "geometry": {"type": "Point", "coordinates": [-122.188476, 48.093561]}},
{"type": "Feature", "id": "bDD-cWM47IHkbGvwhyH2N5bZV0Q=", "properties": {"ref": "-1566706937", "@spider": "tommy_hilfiger", "addr:full": "10600 Quil Ceda Blvd.", "addr:city": "Tulalip", "addr:state": "WA", "addr:postcode": "98271", "addr:country": "US", "name": "Tommy Hilfiger", "phone": "360-716-3863", "brand": "Tommy Hilfiger"}, "geometry": {"type": "Point", "coordinates": [-122.188476, 48.093561]}},
{"type": "Feature", "id": "uk5Wh7O1724VP4G6KGWjpN5-qJw=", "properties": {"ref": "-1566706801", "@spider": "tommy_hilfiger", "addr:full": "#1 Outlet Collection Way", "addr:city": "Edmonton International Airport", "addr:postcode": "T9E 1J5", "addr:country": "CA", "name": "Tommy Hilfiger", "phone": "780-890-3286", "brand": "Tommy Hilfiger"}, "geometry": {"type": "Point", "coordinates": [-113.554309, 53.302121]}},
{"type": "Feature", "id": "VOvYpjtIek5HZm_ZpuumZoIDTaw=", "properties": {"ref": "-1566706994", "@spider": "tommy_hilfiger", "addr:full": "200 Prime Outlets Blvd", "addr:city": "Lee", "addr:state": "MA", "addr:postcode": "01238", "addr:country": "US", "name": "Tommy Hilfiger", "phone": "413-243-4022", "brand": "Tommy Hilfiger"}, "geometry": {"type": "Point", "coordinates": [-73.235311, 42.294444]}},
{"type": "Feature", "id": "D9VPuvTHMnul-I_FsOnG0LUWJzU=", "properties": {"ref": "-1566707022", "@spider": "tommy_hilfiger", "addr:full": "1770 West Main Street", "addr:city": "Riverhead", "addr:state": "NY", "addr:postcode": "11901", "addr:country": "US", "name": "Tommy Hilfiger", "phone": "631-727-5947", "brand": "Tommy Hilfiger"}, "geometry": {"type": "Point", "coordinates": [-72.71666, 40.91982]}},
{"type": "Feature", "id": "wLGHcAynUQzddNkpBiNWlImNk0U=", "properties": {"ref": "-1566707029", "@spider": "tommy_hilfiger", "addr:full": "1439 State Road Route 9 -#14", "addr:city": "Lake George", "addr:state": "NY", "addr:postcode": "12845", "addr:country": "US", "name": "Tommy Hilfiger", "phone": "518-926-7860", "brand": "Tommy Hilfiger"}, "geometry": {"type": "Point", "coordinates": [-73.700965, 43.365592]}},
{"type": "Feature", "id": "TQsZDzXL3sT4f111GBBMO9T6hbI=", "properties": {"ref": "-1566706842", "@spider": "tommy_hilfiger", "addr:full": "1907 99th Street N.W.", "addr:city": "Edmonton", "addr:postcode": "T6N 1M7", "addr:country": "CA", "name": "Tommy Hilfiger", "phone": "780-465-6936", "brand": "Tommy Hilfiger"}, "geometry": {"type": "Point", "coordinates": [-113.484499, 53.448488]}},
{"type": "Feature", "id": "GyHCF-jT1WLdIpmiziAiwMjB5Nk=", "properties": {"ref": "-1566706999", "@spider": "tommy_hilfiger", "addr:full": "20 Killingworth Turnpike", "addr:city": "Clinton", "addr:state": "CT", "addr:postcode": "06413", "addr:country": "US", "name": "Tommy Hilfiger", "phone": "860-669-2126", "brand": "Tommy Hilfiger"}, "geometry": {"type": "Point", "coordinates": [-72.533257, 41.291839]}},
{"type": "Feature", "id": "5w3FHML4AH7StrHLMEdj69bBuZE=", "properties": {"ref": "-1566706823", "@spider": "tommy_hilfiger", "addr:full": "3150, boulevard de la Gare", "addr:city": "Vaudreuil", "addr:postcode": "J7V 8W5", "addr:country": "CA", "name": "Tommy Hilfiger", "phone": "450-455-4685", "brand": "Tommy Hilfiger"}, "geometry": {"type": "Point", "coordinates": [-74.047318, 45.404168]}},
{"type": "Feature", "id": "tDJreHf2LPeG7D7YTPDvPQxr4ZI=", "properties": {"ref": "-1566706895", "@spider": "tommy_hilfiger", "addr:full": "455 Trolley Line Blvd", "addr:city": "Mashantucket", "addr:state": "CT", "addr:postcode": "06338", "addr:country": "US", "name": "Tommy Hilfiger", "phone": "860-383-2860", "brand": "Tommy Hilfiger"}, "geometry": {"type": "Point", "coordinates": [-71.9667, 41.4666]}},
{"type": "Feature", "id": "wuMPtOEUlA4FMLcGjCjmK4p4-Xo=", "properties": {"ref": "-1566706816", "@spider": "tommy_hilfiger", "addr:full": "16031 24th avenue", "addr:city": "Surrey", "addr:postcode": "V3Z 9H7", "addr:country": "CA", "name": "Tommy Hilfiger", "phone": "604-531-4214", "brand": "Tommy Hilfiger"}, "geometry": {"type": "Point", "coordinates": [-122.77778, 49.046837]}},
{"type": "Feature", "id": "9XxSo-Q5FgfInuEzTKnQFQUoeA0=", "properties": {"ref": "-1566706807", "@spider": "tommy_hilfiger", "addr:full": "19001, chemin Notre-Dame", "addr:city": "Mirabel", "addr:postcode": "J7J 0R6", "addr:country": "CA", "name": "Tommy Hilfiger", "phone": "450-437-6130", "brand": "Tommy Hilfiger"}, "geometry": {"type": "Point", "coordinates": [-73.920527, 45.673985]}},
{"type": "Feature", "id": "eIoZZdAwZee51QrpCV2h71RW8e8=", "properties": {"ref": "-1566706836", "@spider": "tommy_hilfiger", "addr:full": "2400, autoroute Chomedey", "addr:city": "Laval", "addr:postcode": "H7X 4G8", "addr:country": "CA", "name": "Tommy Hilfiger", "phone": "450-689-0039", "brand": "Tommy Hilfiger"}, "geometry": {"type": "Point", "coordinates": [-73.790503, 45.536028]}},
{"type": "Feature", "id": "4tsyGIdAqWHz7ujU8oQCPNHEzoc=", "properties": {"ref": "-1566706804", "@spider": "tommy_hilfiger", "addr:full": "5000 Canoe Passway", "addr:city": "Tsawwassen", "addr:postcode": "V4M 0B3", "addr:country": "CA", "name": "Tommy Hilfiger", "phone": "604-948-1757", "brand": "Tommy Hilfiger"}, "geometry": {"type": "Point", "coordinates": [-123.085671, 49.037093]}},
{"type": "Feature", "id": "D_Rh2a9obBVv8tEIJolq_UmEQH0=", "properties": {"ref": "-1566706829", "@spider": "tommy_hilfiger", "addr:full": "805 Boyd Street", "addr:city": "New Westminster", "addr:postcode": "V3M 5X2", "addr:country": "CA", "name": "Tommy Hilfiger", "phone": "604-395-8124", "brand": "Tommy Hilfiger"}, "geometry": {"type": "Point", "coordinates": [-122.948182, 49.194228]}},
{"type": "Feature", "id": "Ij4EsewXclRoKZ0hOFFvAwcLTjc=", "properties": {"ref": "-1566706830", "@spider": "tommy_hilfiger", "addr:full": "1007, rue du Marche Central", "addr:city": "Montreal", "addr:postcode": "H4N 1J8", "addr:country": "CA", "name": "Tommy Hilfiger", "phone": "514-388-4343", "brand": "Tommy Hilfiger"}, "geometry": {"type": "Point", "coordinates": [-73.655673, 45.534522]}},
{"type": "Feature", "id": "OOZKvGf2HUEpCE72U8OEWJq2fpw=", "properties": {"ref": "-1566706799", "@spider": "tommy_hilfiger", "addr:full": "4700 Kingsway", "addr:city": "Burnaby", "addr:postcode": "V5H 4M1", "addr:country": "CA", "name": "Tommy Hilfiger", "phone": "604-630-1020", "brand": "Tommy Hilfiger"}, "geometry": {"type": "Point", "coordinates": [-123.002759, 49.226252]}},
{"type": "Feature", "id": "XHLp7HXRcf7hkToBVchUQvmPT0M=", "properties": {"ref": "-1566706806", "@spider": "tommy_hilfiger", "addr:full": "7899 Templeton Road", "addr:city": "Richmond", "addr:postcode": "V7B 0B7", "addr:country": "CA", "name": "Tommy Hilfiger", "phone": "604-273-4201", "brand": "Tommy Hilfiger"}, "geometry": {"type": "Point", "coordinates": [-123.141057, 49.198577]}},
{"type": "Feature", "id": "CqwuC7hTQ-7EcIU3xxIUzkLEoKo=", "properties": {"ref": "-1566706825", "@spider": "tommy_hilfiger", "addr:full": "9305, boulevard Leduc", "addr:city": "Brossard", "addr:postcode": "J4Y 0A5", "addr:country": "CA", "name": "Tommy Hilfiger", "phone": "450-462-7771", "brand": "Tommy Hilfiger"}, "geometry": {"type": "Point", "coordinates": [-73.43808, 45.444272]}},
{"type": "Feature", "id": "BNwh4sALz3_nEBCQ6PzAS5VyhxU=", "properties": {"ref": "-1566706828", "@spider": "tommy_hilfiger", "addr:full": "352, montee des Pionniers", "addr:city": "Lachenaie", "addr:postcode": "J6V 1N9", "addr:country": "CA", "name": "Tommy Hilfiger", "phone": "450-585-0000", "brand": "Tommy Hilfiger"}, "geometry": {"type": "Point", "coordinates": [-73.511084, 45.714811]}},
{"type": "Feature", "id": "6MOR_AgUeFsyjw6_v0Y8Di_8mIQ=", "properties": {"ref": "-1566706839", "@spider": "tommy_hilfiger", "addr:full": "582, chemin de Touraine", "addr:city": "Boucherville", "addr:postcode": "J4B 5E4", "addr:country": "CA", "name": "Tommy Hilfiger", "phone": "450-645-9333", "brand": "Tommy Hilfiger"}, "geometry": {"type": "Point", "coordinates": [-73.407389, 45.572712]}},
{"type": "Feature", "id": "9D1-HWoW8cHBVhEWfxlqdwBW2r8=", "properties": {"ref": "-1566706953", "@spider": "tommy_hilfiger", "addr:full": "One Premium Outlets Blvd", "addr:city": "Wrentham", "addr:state": "MA", "addr:postcode": "02093", "addr:country": "US", "name": "Tommy Hilfiger", "phone": "508-384-0849", "brand": "Tommy Hilfiger"}, "geometry": {"type": "Point", "coordinates": [-71.353105, 42.038909]}},
{"type": "Feature", "id": "2NBx_o7nqFvZSM6OIbAb9s4Fbnk=", "properties": {"ref": "-1566706898", "@spider": "tommy_hilfiger", "addr:full": "80 Premium Outlets Blvd", "addr:city": "Merrimack", "addr:state": "NH", "addr:postcode": "03054", "addr:country": "US", "name": "Tommy Hilfiger", "phone": "603-424-7323", "brand": "Tommy Hilfiger"}, "geometry": {"type": "Point", "coordinates": [-71.500519, 42.826496]}},
{"type": "Feature", "id": "JgkhFwYcVOYuSrrUpj5rUR9kDBo=", "properties": {"ref": "-1566707027", "@spider": "tommy_hilfiger", "addr:full": "375 US Route 1", "addr:city": "Kittery", "addr:state": "ME", "addr:postcode": "03904", "addr:country": "US", "name": "Tommy Hilfiger", "phone": "207-439-0860", "brand": "Tommy Hilfiger"}, "geometry": {"type": "Point", "coordinates": [-70.7263, 43.1174]}},
{"type": "Feature", "id": "GBV-D6qBMQyNGSIraFF_E260pbU=", "properties": {"ref": "-1566706838", "@spider": "tommy_hilfiger", "addr:full": "5700, boulevard des Gradins", "addr:city": "Quebec", "addr:postcode": "G2J 1R7", "addr:country": "CA", "name": "Tommy Hilfiger", "phone": "418-624-4811", "brand": "Tommy Hilfiger"}, "geometry": {"type": "Point", "coordinates": [-71.275614, 46.843077]}},
{"type": "Feature", "id": "pfIxp6NjCsGPnnV_eNI5Eh-RwqY=", "properties": {"ref": "-1566706820", "@spider": "tommy_hilfiger", "addr:full": "1401, boulevard Talbot", "addr:city": "Chicoutimi", "addr:postcode": "G7H 5N6", "addr:country": "CA", "name": "Tommy Hilfiger", "phone": "418-698-3408", "brand": "Tommy Hilfiger"}, "geometry": {"type": "Point", "coordinates": [-71.053236, 48.404891]}},
{"type": "Feature", "id": "gFWm5xFaiIODDpmQ-3rUV9O-eoU=", "properties": {"ref": "-1566706824", "@spider": "tommy_hilfiger", "addr:full": "62 Wyse Street", "addr:city": "Moncton,", "addr:postcode": "E1G 0Z5", "addr:country": "CA", "name": "Tommy Hilfiger", "phone": "506-854-2191", "brand": "Tommy Hilfiger"}, "geometry": {"type": "Point", "coordinates": [-64.825772, 46.117937]}},
{"type": "Feature", "id": "RHTgG0yb11J8QdTx9fqKqfshw18=", "properties": {"ref": "-1566706834", "@spider": "tommy_hilfiger", "addr:full": "102 Hector Gate", "addr:city": "Dartmouth", "addr:postcode": "B3B 0B9", "addr:country": "CA", "name": "Tommy Hilfiger", "phone": "902-468-6042", "brand": "Tommy Hilfiger"}, "geometry": {"type": "Point", "coordinates": [-63.562236, 44.703656]}},
{"type": "Feature", "id": "INkG2NPejX9fZXhOJ8bm-0wXO9o=", "properties": {"ref": "-1566706969", "@spider": "tommy_hilfiger", "addr:full": "Premium Outlets Blvd", "addr:city": "Barceloneta", "addr:state": "PR", "addr:postcode": "00617", "addr:country": "US", "name": "Tommy Hilfiger", "phone": "787-970-1400", "brand": "Tommy Hilfiger"}, "geometry": {"type": "Point", "coordinates": [-66.541555, 18.43933]}},
{"type": "Feature", "id": "2f0WtOf0960dNg_McaRqVX5SqYk=", "properties": {"ref": "-1566706922", "@spider": "tommy_hilfiger", "addr:full": "206 Calle Del Cristo", "addr:city": "San Juan", "addr:state": "PR", "addr:postcode": "33323", "addr:country": "US", "name": "Tommy Hilfiger", "phone": "787-729-2232", "brand": "Tommy Hilfiger"}, "geometry": {"type": "Point", "coordinates": [-66.118174, 18.465053]}},
{"type": "Feature", "id": "j75cdvu7Yqaqj7V8NPDsejdHQtc=", "properties": {"ref": "-1566706968", "@spider": "tommy_hilfiger", "addr:full": "18400 State RD. #3", "addr:city": "Canovanas", "addr:state": "PR", "addr:postcode": "00729", "addr:country": "US", "name": "Tommy Hilfiger", "phone": "787-886-3737", "brand": "Tommy Hilfiger"}, "geometry": {"type": "Point", "coordinates": [-65.882591, 18.377119]}},
{"type": "Feature", "id": "iw3joV9YNe-LACQhIDO8REFaIrc=", "properties": {"ref": "-591941409", "@spider": "tommy_hilfiger", "addr:full": "48 Kenmount Road", "addr:city": "St. John's", "addr:postcode": "A1B 1W3", "addr:country": "CA", "name": "Tommy Hilfiger", "phone": "709-910-5947", "brand": "Tommy Hilfiger"}, "geometry": {"type": "Point", "coordinates": [-52.7527113, 47.5590278]}},
{"type": "Feature", "id": "pFBIgBGllyezKC80bw65iyV7mqM=", "properties": {"ref": "-1566706884", "@spider": "tommy_hilfiger", "addr:full": "900 Front St", "addr:city": "Lahaina", "addr:state": "HI", "addr:postcode": "96761", "addr:country": "US", "name": "Tommy Hilfiger", "phone": "808-667-1222", "brand": "Tommy Hilfiger"}, "geometry": {"type": "Point", "coordinates": [-156.680812, 20.878592]}},
{"type": "Feature", "id": "OI0-VMZFH5SeD5HpQz8298lcnjQ=", "properties": {"ref": "-1566706789", "@spider": "tommy_hilfiger", "addr:full": "94-1388 Moaniani St", "addr:city": "Waipahu", "addr:state": "HI", "addr:postcode": "96797", "addr:country": "US", "name": "Tommy Hilfiger", "phone": "808-676-1531", "brand": "Tommy Hilfiger"}, "geometry": {"type": "Point", "coordinates": [-157.995993, 21.421986]}},
{"type": "Feature", "id": "yWjNk0KLTuJ8ubGt8kzZOet8H8g=", "properties": {"ref": "-1566706900", "@spider": "tommy_hilfiger", "addr:full": "94-790 Lumiaina St", "addr:city": "Waipahu", "addr:state": "HI", "addr:postcode": "96797", "addr:country": "US", "name": "Tommy Hilfiger", "phone": "808-678-8825", "brand": "Tommy Hilfiger"}, "geometry": {"type": "Point", "coordinates": [-158.006733, 21.402205]}},
{"type": "Feature", "id": "O14KnstX9N76XykG4zNkz-bjc2I=", "properties": {"ref": "-1566706967", "@spider": "tommy_hilfiger", "addr:full": "94-790 Lumiaina Street", "addr:city": "Waipahu", "addr:state": "HI", "addr:postcode": "96797", "addr:country": "US", "name": "Tommy Hilfiger", "phone": "808-677-5402", "brand": "Tommy Hilfiger"}, "geometry": {"type": "Point", "coordinates": [-158.006733, 21.402205]}}]}