{"type":"FeatureCollection","features":[{"type": "Feature", "id": "xuV8IwWnNZNy5ffMIWMO0hc1UTs=", "properties": {"ref": "82", "@spider": "viva_chicken", "addr:full": "12206 Copper Way", "addr:city": "Charlotte", "addr:state": "North Carolina", "addr:postcode": "28277", "addr:country": "United States", "name": "Ballantyne", "phone": "(704) 341-8174", "website": "https://vivachicken.com/ballantyne-charlotte-nc/", "opening_hours": "Mo-Su 11:00-21:00", "brand": "Viva Chicken"}, "geometry": {"type": "Point", "coordinates": [-80.8444573, 35.0705847]}},
{"type": "Feature", "id": "2BEDAXG2p_MH62eb3NnUEklxeYk=", "properties": {"ref": "77", "@spider": "viva_chicken", "addr:full": "8694 Concord Mills Boulevard, Suite 10", "addr:city": "Concord", "addr:state": "North Carolina", "addr:postcode": "28027", "addr:country": "United States", "name": "Concord", "phone": "(704) 910-0327 ", "website": "https://vivachicken.com/concord-charlotte-nc/", "opening_hours": "Mo-Su 11:00-21:00", "brand": "Viva Chicken"}, "geometry": {"type": "Point", "coordinates": [-80.729965, 35.375142]}},
{"type": "Feature", "id": "IHJAK25k43XN17C69YWyK2uxbi0=", "properties": {"ref": "79", "@spider": "viva_chicken", "addr:full": "1617 Elizabeth Avenue", "addr:city": "Charlotte", "addr:state": "North Carolina", "addr:postcode": "28204", "addr:country": "United States", "name": "Elizabeth Avenue", "phone": "(980) 335-0176", "website": "https://vivachicken.com/elizabeth-charlotte-nc/", "opening_hours": "Mo-Su 11:00-21:00", "brand": "Viva Chicken"}, "geometry": {"type": "Point", "coordinates": [-80.8258629, 35.2135409]}},
{"type": "Feature", "id": "o8yKPAgxbodZSHeCIkeaotsuiE4=", "properties": {"ref": "87", "@spider": "viva_chicken", "addr:full": "2205 East Franklin Blvd, Suite 100", "addr:city": "Gastonia", "addr:state": "North Carolina", "addr:postcode": "28054", "addr:country": "United States", "name": "Gastonia", "phone": "(704) 603-6135", "website": "https://vivachicken.com/gastonia-charlotte-nc/", "opening_hours": "Mo-Su 11:00-21:00", "brand": "Viva Chicken"}, "geometry": {"type": "Point", "coordinates": [-81.127083, 35.259366]}},
{"type": "Feature", "id": "C28V4r_C4o41cQvVhWLmHmOJQvE=", "properties": {"ref": "89", "@spider": "viva_chicken", "addr:full": "4520 West Wendover Ave, Suite 110", "addr:city": "Greensboro", "addr:state": "North Carolina", "addr:postcode": "27409", "addr:country": "United States", "name": "Greensboro", "phone": "336-355-4970", "website": "https://vivachicken.com/greensboro-nc/", "opening_hours": "Mo-Su 11:00-21:00", "brand": "Viva Chicken"}, "geometry": {"type": "Point", "coordinates": [-79.90749110000002, 36.0539594]}},
{"type": "Feature", "id": "TfnltIZov23rs6Ln_B3GdOC3XFs=", "properties": {"ref": "80", "@spider": "viva_chicken", "addr:full": "9121 Sam Furr Road, Suite 106", "addr:city": "Huntersville", "addr:state": "North Carolina", "addr:postcode": "28078", "addr:country": "United States", "name": "Huntersville", "phone": "(704) 896-7350", "website": "https://vivachicken.com/huntersville-charlotte-nc/", "opening_hours": "Mo-Su 11:00-21:00", "brand": "Viva Chicken"}, "geometry": {"type": "Point", "coordinates": [-80.8741335, 35.4428729]}},
{"type": "Feature", "id": "dWdwg1Rn-10bXO6kSLYpadxCkLE=", "properties": {"ref": "78", "@spider": "viva_chicken", "addr:full": "4500 Park Road, Suite 100", "addr:city": "Charlotte", "addr:state": "North Carolina", "addr:postcode": "28209", "addr:country": "United States", "name": "Park Road", "phone": "(980) 999-5777", "website": "https://vivachicken.com/park-road-charlotte-nc/", "opening_hours": "Mo-Su 11:00-21:00", "brand": "Viva Chicken"}, "geometry": {"type": "Point", "coordinates": [-80.851192, 35.16992]}},
{"type": "Feature", "id": "IHUdbFcZ_pd7yncv-dOG1MMYJxw=", "properties": {"ref": "88", "@spider": "viva_chicken", "addr:full": "9695 Redstone Drive, Suite 500", "addr:city": "Indian Land", "addr:state": "South Carolina", "addr:postcode": "29707", "addr:country": "United States", "name": "RedStone", "phone": "(803) 336-2808", "website": "https://vivachicken.com/redstone-indian-land-sc/", "opening_hours": "Mo-Su 11:00-21:00", "brand": "Viva Chicken"}, "geometry": {"type": "Point", "coordinates": [-80.8545251, 34.9979165]}},
{"type": "Feature", "id": "s4VwIrPGJ5_W92coyLrYHv7FpxM=", "properties": {"ref": "83", "@spider": "viva_chicken", "addr:full": "1183 E 100 S", "addr:city": "St. George", "addr:state": "Utah", "addr:postcode": "84790", "addr:country": "United States", "name": "St. George", "phone": "(435) 628-8855", "website": "https://vivachicken.com/st-george-ut/", "opening_hours": "Mo-Su 11:00-21:00", "brand": "Viva Chicken"}, "geometry": {"type": "Point", "coordinates": [-113.5582023, 37.1067243]}},
{"type": "Feature", "id": "EcAraOH2lkl70UQAUsMqJqe5Hhs=", "properties": {"ref": "84", "@spider": "viva_chicken", "addr:full": "6461 Old Monroe Road, Suite A.", "addr:city": "Indian Trail", "addr:state": "North Carolina", "addr:postcode": "28079", "addr:country": "United States", "name": "Sun Valley", "phone": "(980) 425-3497", "website": "https://vivachicken.com/sun-valley-indian-trail-nc/", "opening_hours": "Mo-Su 11:00-21:00", "brand": "Viva Chicken"}, "geometry": {"type": "Point", "coordinates": [-80.659844, 35.0576]}},
{"type": "Feature", "id": "IB4Cs_nsguJsgoEfig5YuVCQ57w=", "properties": {"ref": "81", "@spider": "viva_chicken", "addr:full": "11641 Waverly Center Drive Suite K1", "addr:city": "Charlotte", "addr:state": "North Carolina", "addr:postcode": "28277", "addr:country": "United States", "name": "Waverly", "phone": "(980) 225-7059", "website": "https://vivachicken.com/waverly-charlotte-nc/", "opening_hours": "Mo-Su 11:00-21:00", "brand": "Viva Chicken"}, "geometry": {"type": "Point", "coordinates": [-80.7682478, 35.0510953]}},
{"type": "Feature", "id": "AAtNz_BqnIm504XAvC9BaqxGBZU=", "properties": {"ref": "90", "@spider": "viva_chicken", "addr:full": "3493 Burke Mill Rd", "addr:city": "Winston-Salem", "addr:state": "North Carolina", "addr:postcode": "27103", "addr:country": "United States", "name": "Winston-Salem", "phone": "336-607-5355", "website": "https://vivachicken.com/winstonsalem-location/", "opening_hours": "Mo-Su 11:00-21:00", "brand": "Viva Chicken"}, "geometry": {"type": "Point", "coordinates": [-80.31348980000001, 36.0589314]}},
{"type": "Feature", "id": "Ymod_PpRzSv_S85RSFvBJlrY5CM=", "properties": {"ref": "91", "@spider": "viva_chicken", "addr:full": "1139 Woodruff Rd", "addr:city": "Greenville", "addr:state": "South Carolina", "addr:postcode": "29607", "addr:country": "United States", "name": "Woodruff Rd. GVL", "phone": "8646865809", "website": "https://www.vivachicken.com/woodruffrd_gvl/", "opening_hours": "Mo-Su 11:00-21:00", "brand": "Viva Chicken"}, "geometry": {"type": "Point", "coordinates": [-82.294868, 34.82539]}}]}