{"type":"FeatureCollection","features":[{"type": "Feature", "id": "koqLl_GWqxE0n1681A3iAXsWPGk=", "properties": {"ref": "683", "@spider": "waitrose", "addr:full": "Merthyr Road, Llanfoist, Abergavenny, Monmouthshire", "addr:postcode": "NP7 9LL", "name": "Waitrose Abergavenny", "phone": "01873 851184", "website": "https://www.waitrose.com/content/waitrose/en/bf_home/bf/683.html", "opening_hours": "Mo-Tu 08:00-18:00; We-Th 07:30-20:00; Fr 07:00-18:00; Sa off; Su 10:00-16:00", "brand": "Waitrose"}, "geometry": {"type": "Point", "coordinates": [-3.02827, 51.81828]}},
{"type": "Feature", "id": "pfraqN_0L94utdVg0gWQGwXSn0k=", "properties": {"ref": "560", "@spider": "waitrose", "addr:full": "The Parade, London road, Alderley Edge, Cheshire", "addr:postcode": "SK9 7JX", "name": "Waitrose Alderley Edge", "phone": "01625 590 742", "website": "https://www.waitrose.com/content/waitrose/en/bf_home/bf/560.html", "opening_hours": "Mo-Th 07:00-21:00; Fr 07:00-18:00; Sa off; Su 11:00-17:00", "brand": "Waitrose"}, "geometry": {"type": "Point", "coordinates": [-2.23694, 53.30269]}},
{"type": "Feature", "id": "oZE-NLmxuqy5il0sLk60xA2r7U0=", "properties": {"ref": "494", "@spider": "waitrose", "addr:full": "10 Draybank Road (off Sinderland Road), Broadheath, Altrincham, Greater Manchester", "addr:housenumber": "10", "addr:street": "Draybank Road ", "addr:postcode": "WA14 5ZL", "name": "Waitrose Altrincham", "phone": "0161 929 7802", "website": "https://www.waitrose.com/content/waitrose/en/bf_home/bf/494.html", "opening_hours": "Mo-Th 08:00-20:00; Fr 08:00-18:00; Sa off; Su 11:00-17:00", "brand": "Waitrose"}, "geometry": {"type": "Point", "coordinates": [-2.36511, 53.40541]}},
{"type": "Feature", "id": "HKzSZZu_zFIgpzzt4lc917KGeBU=", "properties": {"ref": "719", "@spider": "waitrose", "addr:full": "Balham High Road, Balham, London, Greater London", "addr:postcode": "SW12 9BN", "name": "Waitrose & Partners Balham", "phone": "020 86750319", "website": "https://www.waitrose.com/content/waitrose/en/bf_home/bf/719.html", "opening_hours": "Mo 10:00-19:00; Tu-Th 08:00-22:00; Fr 08:00-18:00; Sa off; Su 11:00-17:00", "brand": "Waitrose"}, "geometry": {"type": "Point", "coordinates": [-0.1518, 51.445]}},
{"type": "Feature", "id": "-qyn8ZzSPzA4Ww2XX9NYjKXVgGA=", "properties": {"ref": "578", "@spider": "waitrose", "addr:full": "46 Sycamore Road, Amersham, Buckinghamshire", "addr:housenumber": "46", "addr:street": "Sycamore Road", "addr:postcode": "HP6 5DR", "name": "Little Waitrose Amersham", "phone": "01494 433434", "website": "https://www.waitrose.com/content/waitrose/en/bf_home/bf/578.html", "opening_hours": "Mo-Tu 07:30-20:00; We-Th 07:30-21:00; Fr 07:30-18:00; Sa off; Su 10:00-16:00", "brand": "Waitrose"}, "geometry": {"type": "Point", "coordinates": [-0.60628, 51.67757]}},
{"type": "Feature", "id": "aqxDangJI_9Vm6_GbFogCacTrps=", "properties": {"ref": "211", "@spider": "waitrose", "addr:full": "Abbey Close, Abingdon, Oxfordshire", "addr:postcode": "OX14 3HL", "name": "Waitrose Abingdon", "phone": "01235 535003", "website": "https://www.waitrose.com/content/waitrose/en/bf_home/bf/211.html", "opening_hours": "Mo-Tu 09:00-18:00; We-Th 07:30-21:00; Fr 07:30-18:00; Sa off; Su 10:00-16:00", "brand": "Waitrose"}, "geometry": {"type": "Point", "coordinates": [-1.27967, 51.67208]}},
{"type": "Feature", "id": "JiTekbIpVC763FwrqEHoGNT0KnA=", "properties": {"ref": "335", "@spider": "waitrose", "addr:full": "Admiral Park, St Peter Port, Guernsey", "addr:postcode": "GY1 2AL", "name": "Waitrose Admiral Park Guernsey", "phone": "01481 729222", "website": "https://www.waitrose.com/content/waitrose/en/bf_home/bf/335.html", "opening_hours": "Mo-Tu 09:00-18:00; We-Th 08:00-20:00; Fr 08:00-18:00; Sa off; Su 10:00-16:00", "brand": "Waitrose"}, "geometry": {"type": "Point", "coordinates": [-2.53779, 49.46706]}},
{"type": "Feature", "id": "1EHSHWX6N1ikoX0IaYwxPhRnBGg=", "properties": {"ref": "542", "@spider": "waitrose", "addr:full": "Market Street, Addlestone, Surrey", "addr:postcode": "KT15 2GL", "name": "Welcome to Waitrose Addlestone", "phone": "01932 820019", "website": "https://www.waitrose.com/content/waitrose/en/bf_home/bf/542.html", "opening_hours": "Mo-Tu 09:00-18:00; We-Th 08:00-21:00; Fr 08:00-18:00; Sa off; Su 12:00-18:00", "brand": "Waitrose"}, "geometry": {"type": "Point", "coordinates": [-0.49072, 51.37063]}},
{"type": "Feature", "id": "EHYu3RtSh1faUWPjdJ8wWRE3DPA=", "properties": {"ref": "329", "@spider": "waitrose", "addr:full": "Station Road, Alton, Hampshire", "addr:postcode": "GU34 2PZ", "name": "Waitrose Alton", "phone": "01420 541063", "website": "https://www.waitrose.com/content/waitrose/en/bf_home/bf/329.html", "opening_hours": "Mo-Tu 08:00-18:00; We-Th 08:00-21:00; Fr 08:00-18:00; Sa off; Su 10:00-16:00", "brand": "Waitrose"}, "geometry": {"type": "Point", "coordinates": [-0.96797, 51.15253]}},
{"type": "Feature", "id": "QrTQHRLe4TJj0geukCaFir-wemA=", "properties": {"ref": "137", "@spider": "waitrose", "addr:full": "Mid-Kent Shopping Centre, Allington Park, Maidstone, Kent", "addr:postcode": "ME16 0PX", "name": "Waitrose Allington Park", "phone": "01622 752274", "website": "https://www.waitrose.com/content/waitrose/en/bf_home/bf/137.html", "opening_hours": "Mo-Tu 08:00-18:00; We-Th 08:00-20:00; Fr 07:00-18:00; Sa off; Su 10:00-16:00", "brand": "Waitrose"}, "geometry": {"type": "Point", "coordinates": [0.49749, 51.28618]}},
{"type": "Feature", "id": "zH_7OzT7FNn9MM-BdY1zSHugHTQ=", "properties": {"ref": "738", "@spider": "waitrose", "addr:full": "Bagshot Road, Bracknell, Berkshire", "addr:postcode": "RG12 9SE", "name": "little Waitrose Bagshot Road-Branch Finder", "phone": "01344 860293", "website": "https://www.waitrose.com/content/waitrose/en/bf_home/bf/738.html", "opening_hours": "Mo-Su 00:00-23:59", "brand": "Waitrose"}, "geometry": {"type": "Point", "coordinates": [-0.74652, 51.40524]}},
{"type": "Feature", "id": "xZZ5y8L9RFUIUD6CIfnHB5j_zXU=", "properties": {"ref": "474", "@spider": "waitrose", "addr:full": "Off Moorfield Road, Alcester, Warwickshire", "addr:postcode": "B49 5DA", "name": "Waitrose Alcester", "phone": "01789 766740", "website": "https://www.waitrose.com/content/waitrose/en/bf_home/bf/474.html", "opening_hours": "Mo-Tu 09:00-18:00; We-Th 08:00-20:00; Fr 08:00-18:00; Sa off; Su 10:00-16:00", "brand": "Waitrose"}, "geometry": {"type": "Point", "coordinates": [-1.87016, 52.21646]}},
{"type": "Feature", "id": "RLfKyPrdvp0ZtIARkF0VwWzKlr8=", "properties": {"ref": "168", "@spider": "waitrose", "addr:full": "67 Chantry Way, The Chantry Centre, Andover, Hampshire", "addr:housenumber": "67", "addr:street": "Chantry Way", "addr:postcode": "SP10 1LY", "name": "Waitrose Andover", "phone": "01264 355515", "website": "https://www.waitrose.com/content/waitrose/en/bf_home/bf/168.html", "opening_hours": "Mo-Tu 09:30-16:30; We 08:00-19:00; Th 08:00-20:00; Fr 08:00-18:00; Sa off; Su 10:00-16:00", "brand": "Waitrose"}, "geometry": {"type": "Point", "coordinates": [-1.48122, 51.2085]}},
{"type": "Feature", "id": "egny9i01SzmXSj_Jh-KDZvMBjBQ=", "properties": {"ref": "705", "@spider": "waitrose", "addr:full": "Repton Park, Ashford, Kent", "addr:postcode": "TN23 3RT", "name": "Waitrose Ashford", "phone": "01233 660082", "website": "https://www.waitrose.com/content/waitrose/en/bf_home/bf/705.html", "opening_hours": "Mo-Tu 08:00-18:00; We-Th 07:30-20:00; Fr 07:30-18:00; Sa off; Su 11:00-17:00", "brand": "Waitrose"}, "geometry": {"type": "Point", "coordinates": [0.85768, 51.15566]}},
{"type": "Feature", "id": "O8SFkz0JGKhOJrpcfzaE6NXK-SY=", "properties": {"ref": "514", "@spider": "waitrose", "addr:full": "London Road, Bagshot, Surrey", "addr:postcode": "GU19 5DG", "name": "Waitrose Bagshot", "phone": "01276 472 580", "website": "https://www.waitrose.com/content/waitrose/en/bf_home/bf/514.html", "opening_hours": "Mo-Tu 08:00-18:00; We-Th 07:30-21:00; Fr 07:30-18:00; Sa off; Su 10:00-16:00", "brand": "Waitrose"}, "geometry": {"type": "Point", "coordinates": [-0.69943, 51.35549]}},
{"type": "Feature", "id": "cjysgKdaAoi-YCguRt7lx4IfdGI=", "properties": {"ref": "625", "@spider": "waitrose", "addr:full": "Waterside, Exchange Street, Aylesbury, Buckinghamshire", "addr:postcode": "HP20 1AL", "name": "Waitrose Aylesbury-Branch Finder-Waitrose.com", "phone": "01296 436930", "website": "https://www.waitrose.com/content/waitrose/en/bf_home/bf/625.html", "opening_hours": "Mo-Tu 09:00-18:00; We-Fr 07:30-20:00; Sa off; Su 11:00-17:00", "brand": "Waitrose"}, "geometry": {"type": "Point", "coordinates": [-0.80824, 51.81496]}},
{"type": "Feature", "id": "fftg3ZKXlaqQFskw01FmbC9aw5A=", "properties": {"ref": "455", "@spider": "waitrose", "addr:full": "St Andrews Avenue, Colchester, Essex", "addr:postcode": "CO4 3EQ", "name": "Waitrose Colchester", "phone": "01206 861230", "website": "https://www.waitrose.com/content/waitrose/en/bf_home/bf/455.html", "opening_hours": "Mo-Tu 09:00-18:00; We-Th 08:00-20:00; Fr 08:00-18:00; Sa off; Su 10:30-16:30", "brand": "Waitrose"}, "geometry": {"type": "Point", "coordinates": [0.91875, 51.89314]}},
{"type": "Feature", "id": "dAAY78xJkMcgIwTY9_q06cn-amU=", "properties": {"ref": "580", "@spider": "waitrose", "addr:full": "Albion Way, Horsham, West Sussex", "addr:postcode": "RH12 1AJ", "name": "Waitrose Horsham", "phone": "01403 275 313", "website": "https://www.waitrose.com/content/waitrose/en/bf_home/bf/580.html", "opening_hours": "Mo-Tu 08:00-18:00; We-Th 07:30-21:00; Fr 07:30-18:00; Sa off; Su 10:30-16:30", "brand": "Waitrose"}, "geometry": {"type": "Point", "coordinates": [-0.33529, 51.06395]}},
{"type": "Feature", "id": "b-j34wYONqxrQzdb6ui2iTTJvb0=", "properties": {"ref": "949", "@spider": "waitrose", "addr:full": "M40 Motorway, Junction 13/12, Banbury Road, Ashorne, Warwick, Warwickshire", "addr:postcode": "CV35 0AA", "name": "Waitrose at Warwick South Services", "phone": "0800 188 884", "website": "https://www.waitrose.com/content/waitrose/en/bf_home/bf/949.html", "opening_hours": "Mo-Fr 07:00-22:00; Sa off; Su 07:00-22:00", "brand": "Waitrose"}, "geometry": {"type": "Point", "coordinates": [-1.50491, 52.21733]}},
{"type": "Feature", "id": "jM0Ovn02dKoUk8_m6lnJXarkQhA=", "properties": {"ref": "814", "@spider": "waitrose", "addr:full": "M1 Motorway, Junction 30/3, Woodall, South Yorkshire", "addr:postcode": "S26 7XR", "name": "Waitrose at Woodall South services", "phone": "0800 188 884", "website": "https://www.waitrose.com/content/waitrose/en/bf_home/bf/814.html", "opening_hours": "Mo-Fr 07:00-22:00; Sa off; Su 07:00-22:00", "brand": "Waitrose"}, "geometry": {"type": "Point", "coordinates": [-1.27859, 53.31424]}},
{"type": "Feature", "id": "Qn9GiZWHn8Lu2SBvu6yZoVS8tjg=", "properties": {"ref": "773", "@spider": "waitrose", "addr:full": "41-46 King William Street, London, Greater London", "addr:housenumber": "41-46", "addr:street": "King William Street", "addr:postcode": "EC4R 9AN", "name": "little Waitrose Monument-Branch Finder-Waitrose.com", "phone": "02072 831726", "website": "https://www.waitrose.com/content/waitrose/en/bf_home/bf/773.html", "opening_hours": "Mo-Su off", "brand": "Waitrose"}, "geometry": {"type": "Point", "coordinates": [-0.08666, 51.51014]}},
{"type": "Feature", "id": "zrjiyPQND-aEcdap5z7Pkrtm5WQ=", "properties": {"ref": "667", "@spider": "waitrose", "addr:full": "Sovereign Way, Tonbridge, Kent", "addr:postcode": "TN9 1RG", "name": "Waitrose Tonbridge", "phone": "01732 358964", "website": "https://www.waitrose.com/content/waitrose/en/bf_home/bf/667.html", "opening_hours": "Mo-Tu 07:30-18:00; We-Th 07:30-20:00; Fr 07:30-18:00; Sa off; Su 10:00-16:00", "brand": "Waitrose"}, "geometry": {"type": "Point", "coordinates": [0.27622, 51.19423]}},
{"type": "Feature", "id": "mT8o44mrGlbBJjXYXN-Folil_-Q=", "properties": {"ref": "573", "@spider": "waitrose", "addr:full": "Little Waitrose, 23 Walbrook, London, City of London", "addr:postcode": "EC4N 8AF", "name": "Little Waitrose Walbrook", "phone": "020 7929 4818", "website": "https://www.waitrose.com/content/waitrose/en/bf_home/bf/573.html", "opening_hours": "Mo-Su off", "brand": "Waitrose"}, "geometry": {"type": "Point", "coordinates": [-0.09013, 51.51199]}},
{"type": "Feature", "id": "y5kbr-NtTm6tkldidqze0nttzkA=", "properties": {"ref": "462", "@spider": "waitrose", "addr:full": "Westfield London, London, Greater London", "addr:postcode": "W12 7GA", "name": "Waitrose Westfield", "phone": "020 8749 1201", "website": "https://www.waitrose.com/content/waitrose/en/bf_home/bf/462.html", "opening_hours": "Mo-Tu 10:00-21:00; We-Th 08:00-22:00; Fr 08:00-19:00; Sa-Su 12:00-18:00", "brand": "Waitrose"}, "geometry": {"type": "Point", "coordinates": [-0.21907, 51.50628]}},
{"type": "Feature", "id": "BpJK2BTV3GqgUal4030qkKCrc_U=", "properties": {"ref": "675", "@spider": "waitrose", "addr:full": "1 St Martin's Street, Wallingford, Oxfordshire", "addr:housenumber": "1", "addr:street": "St Martin", "addr:postcode": "OX10 0EF", "name": "Waitrose Wallingford", "phone": "01491 832030", "website": "https://www.waitrose.com/content/waitrose/en/bf_home/bf/675.html", "opening_hours": "Mo-Tu 09:00-18:00; We-Th 08:00-21:00; Fr 08:00-18:00; Sa off; Su 10:00-16:00", "brand": "Waitrose"}, "geometry": {"type": "Point", "coordinates": [-1.12561, 51.60077]}},
{"type": "Feature", "id": "j7uOi63fmDgUnqytswq2GiueLgg=", "properties": {"ref": "662", "@spider": "waitrose", "addr:full": "Norwich Road, Wymondham, Norfolk", "addr:postcode": "NR18 0SH", "name": "Waitrose Wymondham", "phone": "01953 607772", "website": "https://www.waitrose.com/content/waitrose/en/bf_home/bf/662.html", "opening_hours": "Mo-Tu 08:00-18:00; We-Th 07:30-21:00; Fr 07:30-18:00; Sa off; Su 10:00-16:00", "brand": "Waitrose"}, "geometry": {"type": "Point", "coordinates": [1.13637, 52.57918]}},
{"type": "Feature", "id": "tM23xD-b9EthnWvBrs-b0df1rXo=", "properties": {"ref": "198", "@spider": "waitrose", "addr:full": "Tresham Crescent, Yateley, Hampshire", "addr:postcode": "GU46 6FR", "name": "Waitrose Yateley", "phone": "01252 861888", "website": "https://www.waitrose.com/content/waitrose/en/bf_home/bf/198.html", "opening_hours": "Mo-Tu 09:00-19:00; We-Th 08:00-20:00; Fr 08:00-18:00; Sa off; Su 10:00-16:00", "brand": "Waitrose"}, "geometry": {"type": "Point", "coordinates": [-0.84634, 51.33899]}},
{"type": "Feature", "id": "-Ig0b2d1i_QrGQNiEKBSPHQEU4E=", "properties": {"ref": "151", "@spider": "waitrose", "addr:full": "51 Northumbria Drive, Henleaze, Bristol, Bristol", "addr:housenumber": "51", "addr:street": "Northumbria Drive", "addr:postcode": "BS9 4HN", "name": "Waitrose Westbury Park", "phone": "0117 9624244", "website": "https://www.waitrose.com/content/waitrose/en/bf_home/bf/151.html", "opening_hours": "Mo-Tu 08:00-18:00; We-Th 07:30-21:00; Fr 07:30-18:00; Sa off; Su 10:00-16:00", "brand": "Waitrose"}, "geometry": {"type": "Point", "coordinates": [-2.61223, 51.48039]}},
{"type": "Feature", "id": "mS6O6ZV2lslg3WamlBDREW1K1K0=", "properties": {"ref": "689", "@spider": "waitrose", "addr:full": "High Street, Worthing, West Sussex", "addr:postcode": "BN11 1LL", "name": "Waitrose & Partners Worthing", "phone": "01903 230222", "website": "https://www.waitrose.com/content/waitrose/en/bf_home/bf/689.html", "opening_hours": "Mo-Tu 08:00-20:00; We-Th 08:00-21:00; Fr 08:00-19:00; Sa 11:00-17:00; Su 10:00-16:00", "brand": "Waitrose"}, "geometry": {"type": "Point", "coordinates": [-0.36765, 50.81377]}},
{"type": "Feature", "id": "OBO56YVn9jxm0B3Pd-ptKrva0Mc=", "properties": {"ref": "311", "@spider": "waitrose", "addr:full": "Foss Islands Road, York, North Yorkshire", "addr:postcode": "YO31 7UL", "name": "Waitrose York", "phone": "01904 653563", "website": "https://www.waitrose.com/content/waitrose/en/bf_home/bf/311.html", "opening_hours": "Mo 08:00-21:00; Tu 08:00-20:00; We-Th 08:00-21:00; Fr 07:00-18:00; Sa off; Su 11:00-17:00", "brand": "Waitrose"}, "geometry": {"type": "Point", "coordinates": [-1.06992, 53.95588]}},
{"type": "Feature", "id": "9_EHXEp6mv2g25g7VlWnNUszRDU=", "properties": {"ref": "700", "@spider": "waitrose", "addr:full": "223 London Road, Worcester, Worcestershire", "addr:housenumber": "223", "addr:street": "London Road", "addr:postcode": "WR5 2JG", "name": "Waitrose Worcester", "phone": "01905 352071", "website": "https://www.waitrose.com/content/waitrose/en/bf_home/bf/700.html", "opening_hours": "Mo 08:00-18:00; Tu 08:00-19:00; We-Th 07:30-21:00; Fr 07:30-18:00; Sa off; Su 10:00-16:00", "brand": "Waitrose"}, "geometry": {"type": "Point", "coordinates": [-2.1955, 52.18266]}},
{"type": "Feature", "id": "V_Om-EKcJyIG9E1Li5hc4GByaaA=", "properties": {"ref": "661", "@spider": "waitrose", "addr:full": "Stone Place, Worcester Park, Greater London", "addr:postcode": "KT4 8DX", "name": "Waitrose Worcester Park", "phone": "02083 307582", "website": "https://www.waitrose.com/content/waitrose/en/bf_home/bf/661.html", "opening_hours": "Mo-Th 08:00-21:00; Fr 08:00-18:00; Sa off; Su 10:00-16:00", "brand": "Waitrose"}, "geometry": {"type": "Point", "coordinates": [-0.24354, 51.37819]}},
{"type": "Feature", "id": "WLLzR2CgXrCMKoiQshbeq1weh3Y=", "properties": {"ref": "726", "@spider": "waitrose", "addr:full": "Newport Pagnell Road, Wootton, Northampton, Northamptonshire", "addr:postcode": "NN4 6HP", "name": "Welcome to Waitrose Wootton", "phone": "01604708448", "website": "https://www.waitrose.com/content/waitrose/en/bf_home/bf/726.html", "opening_hours": "Mo-Tu 08:00-18:00; We-Th 07:00-22:00; Fr 07:00-18:00; Sa off; Su 11:00-17:00", "brand": "Waitrose"}, "geometry": {"type": "Point", "coordinates": [-0.89203, 52.21029]}},
{"type": "Feature", "id": "jthCrqasKDNWNszbRnVYOvDzdUg=", "properties": {"ref": "180", "@spider": "waitrose", "addr:full": "108 Crockhamwell Road, Woodley, Reading, Berkshire", "addr:housenumber": "108", "addr:street": "Crockhamwell Road", "addr:postcode": "RG5 3JW", "name": "Waitrose Woodley", "phone": "0118 9690438", "website": "https://www.waitrose.com/content/waitrose/en/bf_home/bf/180.html", "opening_hours": "Mo-Tu 09:00-18:00; We-Th 08:00-20:00; Fr 08:00-18:00; Sa off; Su 10:00-16:00", "brand": "Waitrose"}, "geometry": {"type": "Point", "coordinates": [-0.90548, 51.45181]}},
{"type": "Feature", "id": "eRqTZp20luhofZC61qg1qc5sS_Y=", "properties": {"ref": "161", "@spider": "waitrose", "addr:full": "345 Wimborne Road, Winton, Bournemouth, Dorset", "addr:housenumber": "345", "addr:street": "Wimborne Road", "addr:postcode": "BH9 2AD", "name": "Waitrose Winton", "phone": "01202 522200", "website": "https://www.waitrose.com/content/waitrose/en/bf_home/bf/161.html", "opening_hours": "Mo 08:00-20:00; Tu 08:00-18:00; We-Th 08:00-20:00; Fr 08:00-18:00; Sa off; Su 10:00-16:00", "brand": "Waitrose"}, "geometry": {"type": "Point", "coordinates": [-1.87904, 50.74069]}},
{"type": "Feature", "id": "yrWDBBujKi_xVXW-OgjKutowdho=", "properties": {"ref": "142", "@spider": "waitrose", "addr:full": "25 Woolgate Centre, Market Square, Witney, Oxfordshire", "addr:housenumber": "25", "addr:street": "Woolgate Centre", "addr:postcode": "OX28 6AR", "name": "Waitrose Witney", "phone": "01993 778411", "website": "https://www.waitrose.com/content/waitrose/en/bf_home/bf/142.html", "opening_hours": "Mo-Tu 09:00-18:00; We-Th 07:30-20:00; Fr 08:00-18:00; Sa off; Su 10:00-16:00", "brand": "Waitrose"}, "geometry": {"type": "Point", "coordinates": [-1.48343, 51.78482]}},
{"type": "Feature", "id": "2j6WxcMiJXaGx4VL9bS1ux5aRzA=", "properties": {"ref": "221", "@spider": "waitrose", "addr:full": "Rectory Road, Wokingham, Berkshire", "addr:postcode": "RG40 1BB", "name": "Waitrose Wokingham", "phone": "0118 9771699", "website": "https://www.waitrose.com/content/waitrose/en/bf_home/bf/221.html", "opening_hours": "Mo-Tu 08:00-18:00; We-Th 08:00-21:00; Fr 08:00-18:00; Sa off; Su 10:00-16:00", "brand": "Waitrose"}, "geometry": {"type": "Point", "coordinates": [-0.83357, 51.41167]}},
{"type": "Feature", "id": "f3-TgTxi_3InizWKao5L0xw3hog=", "properties": {"ref": "878", "@spider": "waitrose", "addr:full": "889 Green lanes, Winchmore Hill, Greater London", "addr:housenumber": "889", "addr:street": "Green lanes", "addr:postcode": "N21 2QP", "name": "Waitrose & Partners Winchmore Hill", "phone": "0208 360 3373", "website": "https://www.waitrose.com/content/waitrose/en/bf_home/bf/878.html", "opening_hours": "Mo-Tu 09:00-22:00; We-Th 08:00-22:00; Fr 08:00-19:00; Sa 11:00-19:00; Su 11:00-17:00", "brand": "Waitrose"}, "geometry": {"type": "Point", "coordinates": [-0.0957, 51.63524]}},
{"type": "Feature", "id": "oD2Rl0dN1-kehBZh3eD4V9oQj4w=", "properties": {"ref": "528", "@spider": "waitrose", "addr:full": "2 Wimbledon Hill Road, Wimbledon, Greater London", "addr:housenumber": "2", "addr:street": "Wimbledon Hill Road", "addr:postcode": "SW19 7NS", "name": "little Waitrose Wimbledon Hill", "phone": "02089 475551", "website": "https://www.waitrose.com/content/waitrose/en/bf_home/bf/528.html", "opening_hours": "Mo-Th 07:00-22:00; Fr 07:00-19:00; Sa off; Su 07:00-22:00", "brand": "Waitrose"}, "geometry": {"type": "Point", "coordinates": [-0.20754, 51.42087]}},
{"type": "Feature", "id": "0nqV4KHf7Zs46wA8f8aIfW_IIO8=", "properties": {"ref": "463", "@spider": "waitrose", "addr:full": "Stockbridge Road, Winchester, Hampshire", "addr:postcode": "SO22 6EL", "name": "Waitrose Winchester", "phone": "01962 868544", "website": "https://www.waitrose.com/content/waitrose/en/bf_home/bf/463.html", "opening_hours": "Mo-Th 08:00-21:00; Fr 08:00-18:00; Sa off; Su 10:00-16:00", "brand": "Waitrose"}, "geometry": {"type": "Point", "coordinates": [-1.33733, 51.07425]}},
{"type": "Feature", "id": "CydgdUrUcvEcOP9R-jH19Ga9P5U=", "properties": {"ref": "805", "@spider": "waitrose", "addr:full": "Rowlands Hill, Wimborne, Dorset", "addr:postcode": "BH21 1AN", "name": "Waitrose Wimborne", "phone": "01202 840157", "website": "https://www.waitrose.com/content/waitrose/en/bf_home/bf/805.html", "opening_hours": "Mo-Th 08:00-20:00; Fr 08:00-18:00; Sa off; Su 10:00-16:00", "brand": "Waitrose"}, "geometry": {"type": "Point", "coordinates": [-1.9822, 50.80031]}},
{"type": "Feature", "id": "rktSqBadB5XO_9TUmUDTC4m2USM=", "properties": {"ref": "772", "@spider": "waitrose", "addr:full": "King Edward Court, Windsor, Berkshire", "addr:postcode": "SL4 1TG", "name": "Waitrose Windsor", "phone": "01753 860565", "website": "https://www.waitrose.com/content/waitrose/en/bf_home/bf/772.html", "opening_hours": "Mo 08:00-18:00; Tu-Th 08:00-21:00; Fr 08:00-18:00; Sa off; Su 11:00-17:00", "brand": "Waitrose"}, "geometry": {"type": "Point", "coordinates": [-0.61033, 51.48202]}},
{"type": "Feature", "id": "xW22eD2O0GlO05iDxL9YIltIp70=", "properties": {"ref": "314", "@spider": "waitrose", "addr:full": "Alexandra Road, Wimbledon, Greater London", "addr:postcode": "SW19 7JY", "name": "Waitrose Wimbledon", "phone": "020 8947 9619", "website": "https://www.waitrose.com/content/waitrose/en/bf_home/bf/314.html", "opening_hours": "Mo-Tu 08:00-18:00; We-Th 08:00-21:00; Fr 08:00-18:00; Sa off; Su 11:00-17:00", "brand": "Waitrose"}, "geometry": {"type": "Point", "coordinates": [-0.20432, 51.42307]}},
{"type": "Feature", "id": "DJfFMi9WekTXMXUkSoXe6I9c0dc=", "properties": {"ref": "309", "@spider": "waitrose", "addr:full": "2 Phillips Road, Weston-super-Mare, Somerset", "addr:housenumber": "2", "addr:street": "Phillips Road", "addr:postcode": "BS23 3UZ", "name": "Waitrose Weston-Super-Mare", "phone": "01934 416800", "website": "https://www.waitrose.com/content/waitrose/en/bf_home/bf/309.html", "opening_hours": "Mo-Tu 09:00-18:00; We-Th 08:00-21:00; Fr 08:00-18:00; Sa off; Su 11:00-17:00", "brand": "Waitrose"}, "geometry": {"type": "Point", "coordinates": [-2.95823, 51.3401]}},
{"type": "Feature", "id": "bPwOkSmusKhtw7QdE72ZWoLFtXU=", "properties": {"ref": "711", "@spider": "waitrose", "addr:full": "Church Street, Wilmslow, Cheshire", "addr:postcode": "SK9 1AY", "name": "Waitrose Wilmslow", "phone": "01625 538831", "website": "https://www.waitrose.com/content/waitrose/en/bf_home/bf/711.html", "opening_hours": "Mo-Th 08:00-20:00; Fr 08:00-18:00; Sa off; Su 10:00-16:00", "brand": "Waitrose"}, "geometry": {"type": "Point", "coordinates": [-2.2294, 53.3283]}},
{"type": "Feature", "id": "i2c8_yPxyZjRO89IWMe0RoY5dfc=", "properties": {"ref": "697", "@spider": "waitrose", "addr:full": "Beverley Road, Willerby, E Riding Yorkshire", "addr:postcode": "HU10 6EB", "name": "Waitrose Willerby", "phone": "01482 655266", "website": "https://www.waitrose.com/content/waitrose/en/bf_home/bf/697.html", "opening_hours": "Mo 08:00-21:00; Tu 08:00-20:00; We-Th 08:00-21:00; Fr 08:00-18:00; Sa off; Su 10:00-16:00", "brand": "Waitrose"}, "geometry": {"type": "Point", "coordinates": [-0.45531, 53.76393]}},
{"type": "Feature", "id": "j-TvX-AB0AqDN72eZRbCevikC20=", "properties": {"ref": "124", "@spider": "waitrose", "addr:full": "1305 High Road, Whetstone, London, Greater London", "addr:housenumber": "1305", "addr:street": "High Road", "addr:postcode": "N20 9HX", "name": "Waitrose Whetstone", "phone": "020 8446 0323", "website": "https://www.waitrose.com/content/waitrose/en/bf_home/bf/124.html", "opening_hours": "Mo-Th 08:00-21:00; Fr 08:00-19:00; Sa off; Su 11:00-17:00", "brand": "Waitrose"}, "geometry": {"type": "Point", "coordinates": [-0.17554, 51.63128]}},
{"type": "Feature", "id": "jz0Rrbe2xcp7FMckpXJL9_mJHZ8=", "properties": {"ref": "157", "@spider": "waitrose", "addr:full": "62 High Street, Weybridge, Surrey", "addr:housenumber": "62", "addr:street": "High Street", "addr:postcode": "KT13 8BL", "name": "Waitrose Weybridge", "phone": "01932 858077", "website": "https://www.waitrose.com/content/waitrose/en/bf_home/bf/157.html", "opening_hours": "Mo 09:00-18:00; Tu-Th 07:30-20:00; Fr 07:30-18:00; Sa-Su 10:00-16:00", "brand": "Waitrose"}, "geometry": {"type": "Point", "coordinates": [-0.45686, 51.37362]}},
{"type": "Feature", "id": "9lF2m3sUalrPxKKhz2Hjw6lGT4U=", "properties": {"ref": "524", "@spider": "waitrose", "addr:full": "319 West End Lane, London, Greater London", "addr:housenumber": "319", "addr:street": "West End Lane", "addr:postcode": "NW6 1RN", "name": "Little Waitrose West Hampstead", "phone": "020 7794 2368", "website": "https://www.waitrose.com/content/waitrose/en/bf_home/bf/524.html", "opening_hours": "Mo-Th 07:00-22:00; Fr 07:00-20:00; Sa 11:00-19:00; Su 07:00-22:00", "brand": "Waitrose"}, "geometry": {"type": "Point", "coordinates": [-0.1928, 51.55151]}},
{"type": "Feature", "id": "ijtsOBgHsbh8w9Zl_srCI-1Z1No=", "properties": {"ref": "587", "@spider": "waitrose", "addr:full": "116 - 128 North End Road, West Kensington, Greater London", "addr:postcode": "W14 9PP", "name": "little Waitrose West Kensington", "phone": "02030 800170", "website": "https://www.waitrose.com/content/waitrose/en/bf_home/bf/587.html", "opening_hours": "Mo-Th 07:00-22:00; Fr 07:00-20:00; Sa off; Su 07:00-22:00", "brand": "Waitrose"}, "geometry": {"type": "Point", "coordinates": [-0.20522, 51.4886]}},
{"type": "Feature", "id": "heLxzIyyn13n0pqfmv6ppMtPaJ4=", "properties": {"ref": "189", "@spider": "waitrose", "addr:full": "60 Station Approach, West Byfleet, Surrey", "addr:housenumber": "60", "addr:street": "Station Approach", "addr:postcode": "KT14 6NE", "name": "Waitrose West Byfleet", "phone": "01932 351028", "website": "https://www.waitrose.com/content/waitrose/en/bf_home/bf/189.html", "opening_hours": "Mo-Tu 08:00-18:00; We-Th 07:30-21:00; Fr 07:30-18:00; Sa off; Su 10:00-16:00", "brand": "Waitrose"}, "geometry": {"type": "Point", "coordinates": [-0.5052, 51.3376]}},
{"type": "Feature", "id": "7G-70RT76oRGdchmcgT5nzkBYkY=", "properties": {"ref": "764", "@spider": "waitrose", "addr:full": "2 Alexandria Road, West Ealing, London, Greater London", "addr:housenumber": "2", "addr:street": "Alexandria Road", "addr:postcode": "W13 0NL", "name": "Waitrose West Ealing", "phone": "0208 579 0991", "website": "https://www.waitrose.com/content/waitrose/en/bf_home/bf/764.html", "opening_hours": "Mo 09:00-19:00; Tu 07:30-19:00; We-Th 07:30-21:00; Fr 07:30-18:00; Sa off; Su 11:00-17:00", "brand": "Waitrose"}, "geometry": {"type": "Point", "coordinates": [-0.32005, 51.51321]}},
{"type": "Feature", "id": "VcUushLDJEsfrtCBnx_L47m0Wqg=", "properties": {"ref": "204", "@spider": "waitrose", "addr:full": "Bridge Road, Welwyn Garden City, Hertfordshire", "addr:postcode": "AL8 6AB", "name": "Waitrose Welwyn Garden City", "phone": "01707 373400", "website": "https://www.waitrose.com/content/waitrose/en/bf_home/bf/204.html", "opening_hours": "Mo-Tu 08:00-20:00; We-Th 07:00-21:00; Fr 07:00-18:00; Sa off; Su 11:00-17:00", "brand": "Waitrose"}, "geometry": {"type": "Point", "coordinates": [-0.2045, 51.8038]}},
{"type": "Feature", "id": "1AAwVvWQIXR-NU4hhsXCtI737xs=", "properties": {"ref": "729", "@spider": "waitrose", "addr:full": "Whiting Way, Wells, Somerset", "addr:postcode": "BA5 2PJ", "name": "Waitrose Wells", "phone": "01749 672570", "website": "https://www.waitrose.com/content/waitrose/en/bf_home/bf/729.html", "opening_hours": "Mo-Tu 09:00-18:00; We-Th 08:00-20:00; Fr 08:00-18:00; Sa off; Su 11:00-17:00", "brand": "Waitrose"}, "geometry": {"type": "Point", "coordinates": [-2.65198, 51.21006]}},
{"type": "Feature", "id": "QDBfV2ly8cv09-OsQxthrWKm5lI=", "properties": {"ref": "701", "@spider": "waitrose", "addr:full": "Station Road, Warminster, Wiltshire", "addr:postcode": "BA12 9BR", "name": "Waitrose Warminster", "phone": "01985 848441", "website": "https://www.waitrose.com/content/waitrose/en/bf_home/bf/701.html", "opening_hours": "Mo 08:00-18:00; Tu-Th 08:00-20:00; Fr 08:00-18:00; Sa off; Su 10:00-16:00", "brand": "Waitrose"}, "geometry": {"type": "Point", "coordinates": [-2.1779, 51.20564]}},
{"type": "Feature", "id": "zZQO0sr-sYmHvB9q6MmntsL_wG0=", "properties": {"ref": "153", "@spider": "waitrose", "addr:full": "17 Wallingford Street, Wantage, Oxfordshire", "addr:housenumber": "17", "addr:street": "Wallingford Street", "addr:postcode": "OX12 8BD", "name": "Waitrose Wantage", "phone": "01235 772313", "website": "https://www.waitrose.com/content/waitrose/en/bf_home/bf/153.html", "opening_hours": "Mo-Tu 09:00-18:00; We-Th 08:00-20:00; Fr 08:00-18:00; Sa off; Su 10:00-16:00", "brand": "Waitrose"}, "geometry": {"type": "Point", "coordinates": [-1.4249, 51.58884]}},
{"type": "Feature", "id": "ZPmOal-d4QrIHhFS31L9kV5UBvo=", "properties": {"ref": "781", "@spider": "waitrose", "addr:full": "Intu Watford, 52 The Harlequin, Watford, Hertfordshire", "addr:postcode": "WD17 2TW", "name": "little Waitrose at John Lewis Watford", "phone": "01923287906 - 5106/5456/5880", "website": "https://www.waitrose.com/content/waitrose/en/bf_home/bf/781.html", "opening_hours": "Mo-Su off", "brand": "Waitrose"}, "geometry": {"type": "Point", "coordinates": [-0.3922, 51.65467]}},
{"type": "Feature", "id": "IQX8gYPEOXCv-ODARqttHZxIUzs=", "properties": {"ref": "673", "@spider": "waitrose", "addr:full": "66/67 Southside Shopping Centre, Wandsworth High Street, London, Greater London", "addr:postcode": "SW18 4TG", "name": "Waitrose Wandsworth", "phone": "020 8870 4933", "website": "https://www.waitrose.com/content/waitrose/en/bf_home/bf/673.html", "opening_hours": "Mo 08:00-19:00; Tu 10:00-19:00; We-Th 08:00-20:00; Fr 08:00-18:00; Sa off; Su 11:00-17:00", "brand": "Waitrose"}, "geometry": {"type": "Point", "coordinates": [-0.1938, 51.45427]}},
{"type": "Feature", "id": "XdXdYA86DkluA7TwO6_LjZzExkY=", "properties": {"ref": "721", "@spider": "waitrose", "addr:full": "Capitol Centre, Walton-Le-Dale, Preston, Lancashire", "addr:postcode": "PR5 4AW", "name": "Waitrose Preston, Walton-le-Dale", "phone": "01772 886066", "website": "https://www.waitrose.com/content/waitrose/en/bf_home/bf/721.html", "opening_hours": "Mo 08:00-21:00; Tu 09:00-18:00; We-Th 08:00-21:00; Fr 08:00-18:00; Sa off; Su 11:00-17:00", "brand": "Waitrose"}, "geometry": {"type": "Point", "coordinates": [-2.67769, 53.74882]}},
{"type": "Feature", "id": "noELnObZDrj8Ylcj_HAWfSdBCoA=", "properties": {"ref": "315", "@spider": "waitrose", "addr:full": "34 - 46  High Street, Wellington, Somerset", "addr:postcode": "TA21 8RD", "name": "Waitrose Wellington", "phone": "01823 663577", "website": "https://www.waitrose.com/content/waitrose/en/bf_home/bf/315.html", "opening_hours": "Mo-Tu 09:00-18:00; We-Th 08:00-20:00; Fr 08:00-18:00; Sa off; Su 10:00-16:00", "brand": "Waitrose"}, "geometry": {"type": "Point", "coordinates": [-3.22558, 50.97933]}},
{"type": "Feature", "id": "Hp5L9PDRkMbDhLzWLodgetit0oo=", "properties": {"ref": "410", "@spider": "waitrose", "addr:full": "M40 Motorway, Junction 12/13, Banbury Road, Ashorne, Warwick, Warwickshire", "addr:postcode": "CV35 0AA", "name": "Waitrose at Warwick North Services", "website": "https://www.waitrose.com/content/waitrose/en/bf_home/bf/410.html", "opening_hours": "Mo-Fr 07:00-22:00; Sa off; Su 07:00-22:00", "brand": "Waitrose"}, "geometry": {"type": "Point", "coordinates": [-1.50541, 52.21649]}},
{"type": "Feature", "id": "XR4EwmjKH0Eb1_WyvaGUkR2YiwM=", "properties": {"ref": "449", "@spider": "waitrose", "addr:full": "M25 Motorway, Junction 23, Bignell Corner, South Mimms, Potters Bar, Hertfordshire", "addr:postcode": "EN6 3QQ", "name": "Waitrose at South Mimms Services", "website": "https://www.waitrose.com/content/waitrose/en/bf_home/bf/449.html", "opening_hours": "Mo-Fr 07:00-22:00; Sa off; Su 07:00-22:00", "brand": "Waitrose"}, "geometry": {"type": "Point", "coordinates": [-0.22423, 51.68737]}},
{"type": "Feature", "id": "KWiF4oy5M3uphhFe2pKpM29lqto=", "properties": {"ref": "962", "@spider": "waitrose", "addr:full": "A34/A40/A44 Peartree Interchange, Peartree Roundabout, Woodstock Road, Oxford, Oxfordshire", "addr:postcode": "OX2 8JZ", "name": "Waitrose at Peartree Services", "phone": "0800 188 884", "website": "https://www.waitrose.com/content/waitrose/en/bf_home/bf/962.html", "opening_hours": "Mo-Fr 07:00-22:00; Sa off; Su 07:00-22:00", "brand": "Waitrose"}, "geometry": {"type": "Point", "coordinates": [-1.28416, 51.79412]}},
{"type": "Feature", "id": "6ml24V7B80ACP2arSlCDyruvNis=", "properties": {"ref": "811", "@spider": "waitrose", "addr:full": "M5 Motorway Junction 13/14,, Lower Wick, Dursley, Gloucestershire", "addr:postcode": "GL11 6DD", "name": "Waitrose at Michael Wood", "website": "https://www.waitrose.com/content/waitrose/en/bf_home/bf/811.html", "opening_hours": "Mo-Fr 07:00-22:00; Sa off; Su 07:00-22:00", "brand": "Waitrose"}, "geometry": {"type": "Point", "coordinates": [-2.42329, 51.65855]}},
{"type": "Feature", "id": "WpVfj33I26nopXNDOeu0cWvOdxQ=", "properties": {"ref": "646", "@spider": "waitrose", "addr:full": "M1 Motorway, Junction 14/15, Newport Pagnell, Buckinghamshire", "addr:postcode": "MK16 9EZ", "name": "Waitrose at Newport Pagnell Services", "phone": "0800 188 884", "website": "https://www.waitrose.com/content/waitrose/en/bf_home/bf/646.html", "opening_hours": "Mo-Fr 07:00-22:00; Sa off; Su 07:00-22:00", "brand": "Waitrose"}, "geometry": {"type": "Point", "coordinates": [-0.74931, 52.08283]}},
{"type": "Feature", "id": "U0o1fZaOxF_Qm2JIVazRw7j3CjY=", "properties": {"ref": "448", "@spider": "waitrose", "addr:full": "M40 Motorway, Junction 8a, Thame Road, Waterstock, Oxford, Oxfordshire", "addr:postcode": "OX33 1LJ", "name": "Waitrose at Oxford Services", "website": "https://www.waitrose.com/content/waitrose/en/bf_home/bf/448.html", "opening_hours": "Mo-Fr 07:00-22:00; Sa off; Su 07:00-22:00", "brand": "Waitrose"}, "geometry": {"type": "Point", "coordinates": [-1.09715, 51.738]}},
{"type": "Feature", "id": "G3Fq3RVGaEXvqtDnhjoafs0MHA0=", "properties": {"ref": "411", "@spider": "waitrose", "addr:full": "M4 Motorway, Junction 14/15, Membury, Lambourne, Hungerford, Berkshire", "addr:postcode": "RG17 7TZ", "name": "Waitrose at Membury West Services", "website": "https://www.waitrose.com/content/waitrose/en/bf_home/bf/411.html", "opening_hours": "Mo-Fr 07:00-22:00; Sa off; Su 07:00-22:00", "brand": "Waitrose"}, "geometry": {"type": "Point", "coordinates": [-1.55968, 51.48117]}},
{"type": "Feature", "id": "SQRaxxwknJCqCG5XVjc8gZSGQHI=", "properties": {"ref": "812", "@spider": "waitrose", "addr:full": "M4 Motorway, Junction 14/15,, Membury, Lambourne, Berkshire", "addr:postcode": "RG17 7TZ", "name": "Waitrose at Membury North Services", "website": "https://www.waitrose.com/content/waitrose/en/bf_home/bf/812.html", "opening_hours": "Mo-Fr 07:00-22:00; Sa off; Su 07:00-22:00", "brand": "Waitrose"}, "geometry": {"type": "Point", "coordinates": [-1.55839, 51.48406]}},
{"type": "Feature", "id": "z1morsXSWSmQkegAN6GTM4dj16E=", "properties": {"ref": "647", "@spider": "waitrose", "addr:full": "M1 Motorway, Junction 2/4, Mill Hill, London, Greater London", "addr:postcode": "NW7 3HB", "name": "Waitrose at London Gateway Services", "phone": "0800 188 884", "website": "https://www.waitrose.com/content/waitrose/en/bf_home/bf/647.html", "opening_hours": "Mo-Fr 07:00-22:00; Sa off; Su 07:00-22:00", "brand": "Waitrose"}, "geometry": {"type": "Point", "coordinates": [-0.26672, 51.63384]}},
{"type": "Feature", "id": "4gpHgbAenH332yVu-_V7iF9U6vg=", "properties": {"ref": "947", "@spider": "waitrose", "addr:full": "M1 Motorway, Junction 21/21a, Leicester Forest East, Leicester, Leicestershire", "addr:postcode": "LE3 3GB", "name": "Waitrose at Leicester Forest East Services", "website": "https://www.waitrose.com/content/waitrose/en/bf_home/bf/947.html", "opening_hours": "Mo-Fr 07:00-22:00; Sa off; Su 07:00-22:00", "brand": "Waitrose"}, "geometry": {"type": "Point", "coordinates": [-1.20786, 52.61997]}},
{"type": "Feature", "id": "BTfAnNOEAowWjVTVrzDlnKWq0tU=", "properties": {"ref": "623", "@spider": "waitrose", "addr:full": "M6 Motorway, Junction 15/16, Three Mile Lane, Keele, Newcastle under Lyme, Staffordshire", "addr:postcode": "ST5 5HG", "name": "Waitrose at Keele North Services", "website": "https://www.waitrose.com/content/waitrose/en/bf_home/bf/623.html", "opening_hours": "Mo-Fr 07:00-22:00; Sa off; Su 07:00-22:00", "brand": "Waitrose"}, "geometry": {"type": "Point", "coordinates": [-2.28984, 52.99325]}},
{"type": "Feature", "id": "e5lt7W7erqRxiu9dQIIMyXLe8U8=", "properties": {"ref": "424", "@spider": "waitrose", "addr:full": "M42 Motorway, Junction 2, Redditch Road, Alvechurch, Birmingham, Worcestershire", "addr:postcode": "B48 7AU", "name": "Waitrose at Hopwood Park Services", "phone": "0121 4474000", "website": "https://www.waitrose.com/content/waitrose/en/bf_home/bf/424.html", "opening_hours": "Mo-Fr 07:00-22:00; Sa off; Su 07:00-22:00", "brand": "Waitrose"}, "geometry": {"type": "Point", "coordinates": [-1.94784, 52.36342]}},
{"type": "Feature", "id": "rziL_XscUKioVuQjq1CP7m6FU6E=", "properties": {"ref": "909", "@spider": "waitrose", "addr:full": "M5 Motorway, Junction 19, Portbury, Bristol, Somerset", "addr:postcode": "BS20 7XG", "name": "Waitrose at Gordano Services", "website": "https://www.waitrose.com/content/waitrose/en/bf_home/bf/909.html", "opening_hours": "Mo-Fr 07:00-22:00; Sa off; Su 07:00-22:00", "brand": "Waitrose"}, "geometry": {"type": "Point", "coordinates": [-2.70793, 51.47751]}},
{"type": "Feature", "id": "CDf0B_KnEYeUebyYlYEeeaQfifU=", "properties": {"ref": "409", "@spider": "waitrose", "addr:full": "M6 Motorway, Junction 3/4, Highfield Lane, Corley, Coventry, Warwickshire", "addr:postcode": "CV7 8NR", "name": "Waitrose at Corley North Services", "website": "https://www.waitrose.com/content/waitrose/en/bf_home/bf/409.html", "opening_hours": "Mo-Fr 07:00-22:00; Sa off; Su 07:00-22:00", "brand": "Waitrose"}, "geometry": {"type": "Point", "coordinates": [-1.5467, 52.47185]}},
{"type": "Feature", "id": "7taXjZ7f_3lto2kBIwvFjepI8hs=", "properties": {"ref": "924", "@spider": "waitrose", "addr:full": "Old Dunmow Road, Bishops Stortford, Essex", "addr:postcode": "CM23 5QZ", "name": "Waitrose at Birchanger Green Services", "website": "https://www.waitrose.com/content/waitrose/en/bf_home/bf/924.html", "opening_hours": "Mo-Fr 07:00-22:00; Sa off; Su 07:00-22:00", "brand": "Waitrose"}, "geometry": {"type": "Point", "coordinates": [0.19492, 51.8716]}},
{"type": "Feature", "id": "dq4dasYNjRkjSegzWZWNlhenLN0=", "properties": {"ref": "974", "@spider": "waitrose", "addr:full": "M4 Motorway,Junction 30, Cardiff Gate Business Park, Pontprennau, Cardiff, Glamorgan", "addr:postcode": "CF23 8RA", "name": "Waitrose at Cardiff Gate Services", "website": "https://www.waitrose.com/content/waitrose/en/bf_home/bf/974.html", "opening_hours": "Mo-Fr 07:00-22:00; Sa off; Su 07:00-22:00", "brand": "Waitrose"}, "geometry": {"type": "Point", "coordinates": [-3.13775, 51.53997]}},
{"type": "Feature", "id": "dtdSrAee23lZQW8OXwc1TyfZORI=", "properties": {"ref": "1257", "@spider": "waitrose", "addr:full": "Eastern Mangroves Promenade, Abu Dhabi, U.A.E.", "name": "Waitrose Eastern Mangrove", "phone": "0091 24498658", "website": "https://www.waitrose.com/content/waitrose/en/bf_home/bf/1257.html", "opening_hours": "Mo-Su 08:00-23:00", "brand": "Waitrose"}, "geometry": {"type": "Point", "coordinates": [54.43908, 24.44614]}},
{"type": "Feature", "id": "dfHIXo47lM_uV-2uwK6thRPmcoA=", "properties": {"ref": "1255", "@spider": "waitrose", "addr:full": "Boutik Mall, Sun and Sky Towers, Al Reem Island, Abu Dhabi, U.A.E.", "name": "Waitrose Sun & Sky Towers", "phone": "0091 2 6740210", "website": "https://www.waitrose.com/content/waitrose/en/bf_home/bf/1255.html", "opening_hours": "Mo-Su 07:00-23:00", "brand": "Waitrose"}, "geometry": {"type": "Point", "coordinates": [54.40724, 24.49614]}},
{"type": "Feature", "id": "qFZzo1UwDZE6bF0eFAvma-SZhnI=", "properties": {"ref": "1258", "@spider": "waitrose", "addr:full": "Saadiyat Beach 14, Saadiyat Beach Community Centre, Abu Dhabi, Abu Dhabi, 677", "name": "Waitrose Saadiyat Beach", "phone": "0091 2 5562044", "website": "https://www.waitrose.com/content/waitrose/en/bf_home/bf/1258.html", "opening_hours": "Mo-Su 08:00-23:00", "brand": "Waitrose"}, "geometry": {"type": "Point", "coordinates": [54.27, 24.32]}},
{"type": "Feature", "id": "_y3gqZaFpOwZLzNX_-cUiBoyBrI=", "properties": {"ref": "1254", "@spider": "waitrose", "addr:full": "Etihad Towers, The Avenue, Abu Dhabi, U.A.E.", "name": "Waitrose Etihad Towers", "phone": "0091 2 4471987", "website": "https://www.waitrose.com/content/waitrose/en/bf_home/bf/1254.html", "opening_hours": "Mo-Su 08:00-22:00", "brand": "Waitrose"}, "geometry": {"type": "Point", "coordinates": [54.32109, 24.45892]}},
{"type": "Feature", "id": "lX9eiDr0rSFLAYT6Tu-2_bGc1M8=", "properties": {"ref": "1253", "@spider": "waitrose", "addr:full": "Dubai Marina Mall, Exit 31 directly off, Sheikh Zayed Road, Dubai, U.A.E.", "name": "Waitrose Dubai Marina Mall", "phone": "00971 4 4342626", "website": "https://www.waitrose.com/content/waitrose/en/bf_home/bf/1253.html", "opening_hours": "Mo-Th 10:00-23:00; Fr-Sa 10:00-23:30; Su 10:00-23:00", "brand": "Waitrose"}, "geometry": {"type": "Point", "coordinates": [55.14037, 25.07663]}},
{"type": "Feature", "id": "Bn2nC09QcZ_bj1Iw3o-R7Ly7AsU=", "properties": {"ref": "1251", "@spider": "waitrose", "addr:full": "The Dubai Mall, LG-144, PO Box 6324, Dubai, U.A.E.", "name": "Waitrose Dubai Mall", "phone": "00971 4 4340700", "website": "https://www.waitrose.com/content/waitrose/en/bf_home/bf/1251.html", "opening_hours": "Mo-Su 08:00-23:30", "brand": "Waitrose"}, "geometry": {"type": "Point", "coordinates": [55.28334, 25.19941]}},
{"type": "Feature", "id": "lHRXg2vJow1lAXCjySYh5A5CduI=", "properties": {"ref": "503", "@spider": "waitrose", "addr:full": "M54 Motorway, Junction 4, A464 Priorslee Road, Shifnal, Shropshire", "addr:postcode": "TF11 8TG", "name": "Waitrose at Telford Services", "website": "https://www.waitrose.com/content/waitrose/en/bf_home/bf/503.html", "opening_hours": "Mo-Fr 07:00-22:00; Sa off; Su 07:00-22:00", "brand": "Waitrose"}, "geometry": {"type": "Point", "coordinates": [-2.4021, 52.67743]}},
{"type": "Feature", "id": "6MRXv8dkGeaKpJK3OfAaGfYgtQI=", "properties": {"ref": "762", "@spider": "waitrose", "addr:full": "A74M, Junction 21/22,Trunk Road, Gretna Green, Dumfries", "addr:postcode": "DG16 5HQ", "name": "Waitrose at Gretna Green Services", "phone": "0800 188 884", "website": "https://www.waitrose.com/content/waitrose/en/bf_home/bf/762.html", "opening_hours": "Mo-Fr 07:00-22:00; Sa off; Su 07:00-22:00", "brand": "Waitrose"}, "geometry": {"type": "Point", "coordinates": [-3.0837, 55.0079]}},
{"type": "Feature", "id": "kPI0UGFtOiPXDNTmqOBAD0ibZn0=", "properties": {"ref": "613", "@spider": "waitrose", "addr:full": "M1 Motorway Jct 21/21a, Leicester, Leicestershire", "addr:postcode": "LE3 3GB", "name": "Waitrose at Leicester Forest East South Services", "website": "https://www.waitrose.com/content/waitrose/en/bf_home/bf/613.html", "opening_hours": "Mo-Fr 07:00-22:00; Sa off; Su 07:00-22:00", "brand": "Waitrose"}, "geometry": {"type": "Point", "coordinates": [-1.20802, 52.61801]}},
{"type": "Feature", "id": "eR0TSOXFMUxpSbGZpPgAKkNPkOY=", "properties": {"ref": "800", "@spider": "waitrose", "addr:full": "M62 motorway, Junction 25/26, Clifton, Brighouse, West Yorkshire", "addr:postcode": "HD6 4JX", "name": "Waitrose at Harts Head Moor West Services", "website": "https://www.waitrose.com/content/waitrose/en/bf_home/bf/800.html", "opening_hours": "Mo-Fr 07:00-22:00; Sa off; Su 07:00-22:00", "brand": "Waitrose"}, "geometry": {"type": "Point", "coordinates": [-1.747, 53.71158]}},
{"type": "Feature", "id": "Zs_Yce7QxwsasLHSgDG8R9yE8c0=", "properties": {"ref": "813", "@spider": "waitrose", "addr:full": "M5 Motorway, Junction 13/14, Lower Wick, Gloucestershire", "addr:postcode": "GL11 6DD", "name": "Waitrose at Michealwood South Services", "website": "https://www.waitrose.com/content/waitrose/en/bf_home/bf/813.html", "opening_hours": "Mo-Fr 07:00-21:00; Sa off; Su 07:00-21:00", "brand": "Waitrose"}, "geometry": {"type": "Point", "coordinates": [-2.43257, 51.65575]}},
{"type": "Feature", "id": "I69Mf7ATajXxCrnkuMfRJ7JLa7k=", "properties": {"ref": "803", "@spider": "waitrose", "addr:full": "M6 motorway. Junction 27/28, Mill Lane, Chorley, Lancashire", "addr:postcode": "PR7 5LR", "name": "Waitrose at Charnock Richard North Services", "website": "https://www.waitrose.com/content/waitrose/en/bf_home/bf/803.html", "opening_hours": "Mo-Fr 07:00-22:00; Sa off; Su 07:00-22:00", "brand": "Waitrose"}, "geometry": {"type": "Point", "coordinates": [-2.69281, 53.6298]}},
{"type": "Feature", "id": "QTpnLAnHcPQ3LWQeobVvDWIGwqk=", "properties": {"ref": "537", "@spider": "waitrose", "addr:full": "M6 Motorway, Junction 3 and 4, Highfield Lane, Coventry, Warwickshire", "addr:postcode": "CV7 8NR", "name": "Waitrose at Corley South Services", "website": "https://www.waitrose.com/content/waitrose/en/bf_home/bf/537.html", "opening_hours": "Mo-Fr 07:00-22:00; Sa off; Su 07:00-22:00", "brand": "Waitrose"}, "geometry": {"type": "Point", "coordinates": [-1.54679, 52.47193]}},
{"type": "Feature", "id": "lCQuOr6MV5ePlcnTGUxBiirq6_s=", "properties": {"ref": "1252", "@spider": "waitrose", "addr:full": "Waitrose, 144, Al Thanya Street, Um Al Sheif, Dubai, U.A.E.", "name": "Waitrose Al Thanya", "phone": "0091 4 3286022", "website": "https://www.waitrose.com/content/waitrose/en/bf_home/bf/1252.html", "opening_hours": "Mo-Su 07:30-23:00", "brand": "Waitrose"}, "geometry": {"type": "Point", "coordinates": [55.20753, 25.13735]}},
{"type": "Feature", "id": "X76ORLe8WwDi1DAXiAB1cRPhb_Y=", "properties": {"ref": "789", "@spider": "waitrose", "addr:full": "3 Bond Way, London, Greater London", "addr:housenumber": "3", "addr:street": "Bond Way", "addr:postcode": "SW8 1SJ", "name": "Waitrose Vauxhall", "phone": "02070 910892", "website": "https://www.waitrose.com/content/waitrose/en/bf_home/bf/789.html", "opening_hours": "Mo 06:00-23:00; Tu 07:00-22:00; We-Th 06:00-23:00; Fr 06:00-20:00; Sa 11:00-19:00; Su 07:00-23:00", "brand": "Waitrose"}, "geometry": {"type": "Point", "coordinates": [-0.12411, 51.48486]}},
{"type": "Feature", "id": "oylaMuphgWsYfXEu0qwk5blYlQA=", "properties": {"ref": "860", "@spider": "waitrose", "addr:full": "Waitrose Ltd, Bressenden Place, Victoria, London, Greater London", "addr:postcode": "SW1E 5DH", "name": "Waitrose Bressenden Place", "phone": "0207 834 6618", "website": "https://www.waitrose.com/content/waitrose/en/bf_home/bf/860.html", "opening_hours": "Mo-Th 07:00-22:00; Fr 07:00-20:00; Sa 11:00-19:00; Su 12:00-18:00", "brand": "Waitrose"}, "geometry": {"type": "Point", "coordinates": [-0.14281, 51.49801]}},
{"type": "Feature", "id": "1jfyRmFgftlazPg5k5zbdfrRumU=", "properties": {"ref": "1256", "@spider": "waitrose", "addr:full": "Al Zeina, Al Raha Beach, P.O Box No. 677, Abu Dhabi, U.A.E.", "name": "Waitrose Al Zeina", "phone": "0091 2 5562044", "website": "https://www.waitrose.com/content/waitrose/en/bf_home/bf/1256.html", "opening_hours": "Mo-Su 08:00-21:00", "brand": "Waitrose"}, "geometry": {"type": "Point", "coordinates": [54.61582, 24.45703]}},
{"type": "Feature", "id": "sHkTl_Ax_1Y1sX78Ys5FreVAruw=", "properties": {"ref": "783", "@spider": "waitrose", "addr:full": "62 Victoria Street, Westminster, London, Greater London", "addr:housenumber": "62", "addr:street": "Victoria Street", "addr:postcode": "SW1E 6QP", "name": "Waitrose Victoria-Branch Finder-Waitrose.com", "phone": "02078 218859", "website": "https://www.waitrose.com/content/waitrose/en/bf_home/bf/783.html", "opening_hours": "Mo-Th 07:00-22:00; Fr 07:00-20:00; Sa 11:00-19:00; Su 07:00-22:00", "brand": "Waitrose"}, "geometry": {"type": "Point", "coordinates": [-0.1375, 51.49766]}},
{"type": "Feature", "id": "Id3AkC-jribqCtKqZy0lYpzffN4=", "properties": {"ref": "423", "@spider": "waitrose", "addr:full": "M3 Motorway, Junction 4a/5, Fleet, Hampshire", "addr:postcode": "GU51 1AA", "name": "Waitrose at Fleet South Services", "phone": "01252 621656", "website": "https://www.waitrose.com/content/waitrose/en/bf_home/bf/423.html", "opening_hours": "Mo-Fr 07:00-22:00; Sa off; Su 07:00-22:00", "brand": "Waitrose"}, "geometry": {"type": "Point", "coordinates": [-0.85654, 51.29466]}},
{"type": "Feature", "id": "MznFYuoAXAyFDQPa7fl9yBDXJU8=", "properties": {"ref": "943", "@spider": "waitrose", "addr:full": "M3 Motorway, Junction 4a/5, Fleet, Hampshire", "addr:postcode": "GU51 1AA", "name": "Waitrose at Fleet North Services", "phone": "0800 188 884", "website": "https://www.waitrose.com/content/waitrose/en/bf_home/bf/943.html", "opening_hours": "Mo-Fr 07:00-22:00; Sa off; Su 07:00-22:00", "brand": "Waitrose"}, "geometry": {"type": "Point", "coordinates": [-0.8557, 51.29611]}},
{"type": "Feature", "id": "a0CLRFoSq1nv6-k2L7w-HBN-nUI=", "properties": {"ref": "486", "@spider": "waitrose", "addr:full": "218 St Marys Lane, Upminster, Greater London", "addr:housenumber": "218", "addr:street": "St Marys Lane", "addr:postcode": "RM14 3BT", "name": "Waitrose Upminster", "phone": "01708 224444", "website": "https://www.waitrose.com/content/waitrose/en/bf_home/bf/486.html", "opening_hours": "Mo-Tu 08:00-18:00; We-Th 07:30-21:00; Fr 07:30-18:00; Sa off; Su 11:00-17:00", "brand": "Waitrose"}, "geometry": {"type": "Point", "coordinates": [0.25272, 51.55638]}},
{"type": "Feature", "id": "cHUzXBqsCyQjqWpZmSMvZeuJEAc=", "properties": {"ref": "238", "@spider": "waitrose", "addr:full": "London Road, Twyford, Berkshire", "addr:postcode": "RG10 9EH", "name": "Waitrose Twyford", "phone": "0118 9344646", "website": "https://www.waitrose.com/content/waitrose/en/bf_home/bf/238.html", "opening_hours": "Mo-Tu 09:00-18:00; We-Th 08:00-21:00; Fr 08:00-18:00; Sa off; Su 10:00-16:00", "brand": "Waitrose"}, "geometry": {"type": "Point", "coordinates": [-0.86634, 51.47788]}},
{"type": "Feature", "id": "1ycE2ImMIRk3ZCnPIkLYvqntnFI=", "properties": {"ref": "648", "@spider": "waitrose", "addr:full": "Tregurra Park, Newquay Rd, Truro, Cornwall", "addr:postcode": "TR1 1RH", "name": "Waitrose Truro", "phone": "01872 225861", "website": "https://www.waitrose.com/content/waitrose/en/bf_home/bf/648.html", "opening_hours": "Mo-Th 08:00-21:00; Fr 08:00-18:00; Sa off; Su 10:00-16:00", "brand": "Waitrose"}, "geometry": {"type": "Point", "coordinates": [-5.03486, 50.27323]}},
{"type": "Feature", "id": "njF6gDbDP2cs3Tm4yu7FxOJVXyM=", "properties": {"ref": "506", "@spider": "waitrose", "addr:full": "96-98 High Street, Uckfield, East Sussex, East Sussex", "addr:housenumber": "96-98", "addr:street": "High Street", "addr:postcode": "TN22 1PU", "name": "Waitrose Uckfield", "phone": "01825 763221", "website": "https://www.waitrose.com/content/waitrose/en/bf_home/bf/506.html", "opening_hours": "Mo-Tu 08:00-18:00; We-Th 07:30-20:00; Fr 07:30-18:00; Sa off; Su 10:00-16:00", "brand": "Waitrose"}, "geometry": {"type": "Point", "coordinates": [0.0962, 50.96936]}},
{"type": "Feature", "id": "sIL1bLcNvmGAdQZy6kVfSKoxRno=", "properties": {"ref": "660", "@spider": "waitrose", "addr:full": "50 London Road, Twickenham, Greater London", "addr:housenumber": "50", "addr:street": "London Road", "addr:postcode": "TW1 3RJ", "name": "Waitrose Twickenham", "phone": "020 8891 4421", "website": "https://www.waitrose.com/content/waitrose/en/bf_home/bf/660.html", "opening_hours": "Mo 07:30-19:00; Tu 08:00-19:00; We-Th 07:30-21:00; Fr 07:30-18:00; Sa off; Su 10:00-16:00", "brand": "Waitrose"}, "geometry": {"type": "Point", "coordinates": [-0.32879, 51.4483]}},
{"type": "Feature", "id": "0OH9ZvyRVOQP1-tb-hKYz5QMMcQ=", "properties": {"ref": "599", "@spider": "waitrose", "addr:full": "Trinity Road, Uttoxeter, Staffordshire", "addr:postcode": "ST14 8AQ", "name": "Waitrose Uttoxeter", "phone": "01889565765", "website": "https://www.waitrose.com/content/waitrose/en/bf_home/bf/599.html", "opening_hours": "Mo-Tu 09:00-18:00; We-Th 08:00-20:00; Fr 08:00-18:00; Sa off; Su 10:00-16:00", "brand": "Waitrose"}, "geometry": {"type": "Point", "coordinates": [-1.86197, 52.89687]}},
{"type": "Feature", "id": "WnZ5fPqW3RZYq4yCM5Hajf--xoA=", "properties": {"ref": "682", "@spider": "waitrose", "addr:full": "Richmond Road, Towcester, Northamptonshire", "addr:postcode": "NN12 6HZ", "name": "Waitrose Towcester", "phone": "01327 354994", "website": "https://www.waitrose.com/content/waitrose/en/bf_home/bf/682.html", "opening_hours": "Mo-Tu 09:00-18:00; We-Th 08:00-21:00; Fr 08:00-18:00; Sa off; Su 10:00-16:00", "brand": "Waitrose"}, "geometry": {"type": "Point", "coordinates": [-0.9894, 52.1301]}},
{"type": "Feature", "id": "UDedc30NtpkjBKYSk68N1SqvINs=", "properties": {"ref": "739", "@spider": "waitrose", "addr:full": "Tubs Hill, London Road, Sevenoaks, Kent", "addr:postcode": "TN13 1DH", "name": "Little Waitrose Tubs Hill", "phone": "01732 465298", "website": "https://www.waitrose.com/content/waitrose/en/bf_home/bf/739.html", "opening_hours": "Mo-Su 07:00-23:00", "brand": "Waitrose"}, "geometry": {"type": "Point", "coordinates": [0.17979, 51.27789]}},
{"type": "Feature", "id": "jybO0nohFdMHwPAjiVdo-rb-VeI=", "properties": {"ref": "206", "@spider": "waitrose", "addr:full": "Greyhound Lane, Thame, Oxfordshire", "addr:postcode": "OX9 3ZD", "name": "Waitrose Thame", "phone": "01844 260360", "website": "https://www.waitrose.com/content/waitrose/en/bf_home/bf/206.html", "opening_hours": "Mo-Th 07:30-20:00; Fr 07:00-18:00; Sa off; Su 10:00-16:00", "brand": "Waitrose"}, "geometry": {"type": "Point", "coordinates": [-0.97802, 51.74955]}},
{"type": "Feature", "id": "ANyooG2T_ZW5Y9TwlQGjkk5ETz4=", "properties": {"ref": "201", "@spider": "waitrose", "addr:full": "10 Sayers Lane, Tenterden, Kent", "addr:housenumber": "10", "addr:street": "Sayers Lane", "addr:postcode": "TN30 6BW", "name": "Waitrose Tenterden", "phone": "01580 765168", "website": "https://www.waitrose.com/content/waitrose/en/bf_home/bf/201.html", "opening_hours": "Mo-Tu 07:30-18:00; We-Th 07:30-20:00; Fr 07:30-17:00; Sa off; Su 10:00-16:00", "brand": "Waitrose"}, "geometry": {"type": "Point", "coordinates": [0.68861, 51.06836]}},
{"type": "Feature", "id": "h-TlAbIhJzcSpfQLsm7hUmUQk4o=", "properties": {"ref": "659", "@spider": "waitrose", "addr:full": "48-53 The Broadway, Thatcham, Berkshire", "addr:housenumber": "48-53", "addr:street": "The Broadway", "addr:postcode": "RG19 3HN", "name": "Waitrose Thatcham", "phone": "01635 868113", "website": "https://www.waitrose.com/content/waitrose/en/bf_home/bf/659.html", "opening_hours": "Mo-Tu 08:00-18:00; We-Th 08:00-21:00; Fr 08:00-18:00; Sa off; Su 10:00-16:00", "brand": "Waitrose"}, "geometry": {"type": "Point", "coordinates": [-1.25597, 51.40265]}},
{"type": "Feature", "id": "mu8HWduWzVkJFxkkglx3T2ueZUA=", "properties": {"ref": "504", "@spider": "waitrose", "addr:full": "Mill Lane, Wichelstowe, Swindon, Wiltshire", "addr:postcode": "SN1 7BX", "name": "Waitrose Swindon", "phone": "01793 874273", "website": "https://www.waitrose.com/content/waitrose/en/bf_home/bf/504.html", "opening_hours": "Mo 07:00-21:00; Tu 07:00-18:00; We-Th 07:00-21:00; Fr 07:00-18:00; Sa off; Su 10:00-16:00", "brand": "Waitrose"}, "geometry": {"type": "Point", "coordinates": [-1.80723, 51.5448]}},
{"type": "Feature", "id": "KIDj_R5CmjyhFOsIqTPB5hg_MQs=", "properties": {"ref": "125", "@spider": "waitrose", "addr:full": "32-39 Temple Fortune Parade, London, Greater London", "addr:housenumber": "32-39", "addr:street": "Temple Fortune Parade", "addr:postcode": "NW11 0QS", "name": "Waitrose Temple Fortune", "phone": "020 8458 6645", "website": "https://www.waitrose.com/content/waitrose/en/bf_home/bf/125.html", "opening_hours": "Mo-Th 08:00-20:00; Fr 08:00-19:00; Sa-Su 11:00-17:00", "brand": "Waitrose"}, "geometry": {"type": "Point", "coordinates": [-0.19981, 51.58299]}},
{"type": "Feature", "id": "5YAwptoB7O32xwl9ZyioN5BDqC4=", "properties": {"ref": "686", "@spider": "waitrose", "addr:full": "Castle Acre Road, Swaffham, Norfolk", "addr:postcode": "PE37 7HT", "name": "Waitrose Swaffham", "phone": "01760 336307", "website": "https://www.waitrose.com/content/waitrose/en/bf_home/bf/686.html", "opening_hours": "Mo-Tu 09:00-18:00; We-Th 07:30-20:00; Fr 07:30-18:00; Sa off; Su 10:00-16:00", "brand": "Waitrose"}, "geometry": {"type": "Point", "coordinates": [0.68407, 52.65573]}},
{"type": "Feature", "id": "TWR5A4fqZYevnLNXPYqfPBj4GHw=", "properties": {"ref": "232", "@spider": "waitrose", "addr:full": "15a Claremont Road, Surbiton, Greater London", "addr:postcode": "KT6 4QR", "name": "Waitrose Surbiton", "phone": "020 8399 4020", "website": "https://www.waitrose.com/content/waitrose/en/bf_home/bf/232.html", "opening_hours": "Mo-Tu 08:00-18:00; We-Th 07:00-21:00; Fr 07:00-18:00; Sa off; Su 11:00-17:00", "brand": "Waitrose"}, "geometry": {"type": "Point", "coordinates": [-0.30455, 51.39371]}},
{"type": "Feature", "id": "Ku18r54Uls_AzBWQFWWo8j-pmZQ=", "properties": {"ref": "190", "@spider": "waitrose", "addr:full": "London Road, Sunningdale, Berkshire", "addr:postcode": "SL5 0HD", "name": "Waitrose Sunningdale", "phone": "01344 872770", "website": "https://www.waitrose.com/content/waitrose/en/bf_home/bf/190.html", "opening_hours": "Mo-Tu 08:00-18:00; We-Th 07:30-21:00; Fr 07:30-18:00; Sa off; Su 10:00-16:00", "brand": "Waitrose"}, "geometry": {"type": "Point", "coordinates": [-0.63366, 51.39158]}},
{"type": "Feature", "id": "oBCy9YDKNSdwXWBVe7fC9KQyNYc=", "properties": {"ref": "658", "@spider": "waitrose", "addr:full": "Station Road, Sudbury, Suffolk", "addr:postcode": "CO10 2SS", "name": "Waitrose Sudbury", "phone": "01787880373", "website": "https://www.waitrose.com/content/waitrose/en/bf_home/bf/658.html", "opening_hours": "Mo-Tu 08:00-18:00; We-Th 07:00-21:00; Fr 07:00-18:00; Sa off; Su 10:00-16:00", "brand": "Waitrose"}, "geometry": {"type": "Point", "coordinates": [0.7318, 52.03707]}},
{"type": "Feature", "id": "oGIDxhOsLx6b-hw_W1CmrfhBCiQ=", "properties": {"ref": "328", "@spider": "waitrose", "addr:full": "The Arcade, Westfield Stratford City, London, Greater London", "addr:postcode": "E20 1EH", "name": "Waitrose Stratford City", "phone": "020 8534 3986", "website": "https://www.waitrose.com/content/waitrose/en/bf_home/bf/328.html", "opening_hours": "Mo 08:00-21:00; Tu 10:00-21:00; We-Th 08:00-21:00; Fr 08:00-18:00; Sa-Su 12:00-18:00", "brand": "Waitrose"}, "geometry": {"type": "Point", "coordinates": [-0.00636, 51.54434]}},
{"type": "Feature", "id": "FGDVJLsvg-nVZUyMTg1P1FdgzxM=", "properties": {"ref": "155", "@spider": "waitrose", "addr:full": "Ryemarket, Stourbridge, West Midlands", "addr:postcode": "DY8 1HJ", "name": "Waitrose Stourbridge", "phone": "01384 378209", "website": "https://www.waitrose.com/content/waitrose/en/bf_home/bf/155.html", "opening_hours": "Mo-Tu 08:00-18:00; We-Th 08:00-20:00; Fr 08:00-18:00; Sa off; Su 10:00-16:00", "brand": "Waitrose"}, "geometry": {"type": "Point", "coordinates": [-2.14642, 52.45576]}},
{"type": "Feature", "id": "7eDEjZ73ZgGByOekUX0abOJvHas=", "properties": {"ref": "708", "@spider": "waitrose", "addr:full": "The Rosebird Centre, Shipston Road, Stratford upon Avon, Warwickshire", "addr:postcode": "CV37 8LU", "name": "Waitrose Stratford-upon-Avon", "phone": "01789 263465", "website": "https://www.waitrose.com/content/waitrose/en/bf_home/bf/708.html", "opening_hours": "Mo-Tu 09:00-18:00; We-Th 08:00-21:00; Fr 08:00-18:00; Sa off; Su 10:00-16:00", "brand": "Waitrose"}, "geometry": {"type": "Point", "coordinates": [-1.70024, 52.18088]}},
{"type": "Feature", "id": "vA47KAKrtqcEuS-Fie4vtvYWBRM=", "properties": {"ref": "210", "@spider": "waitrose", "addr:full": "London Road, Stroud, Gloucestershire", "addr:postcode": "GL5 2AP", "name": "Waitrose Stroud", "phone": "01453 757067", "website": "https://www.waitrose.com/content/waitrose/en/bf_home/bf/210.html", "opening_hours": "Mo-Tu 07:30-18:00; We-Th 07:30-21:00; Fr 07:30-18:00; Sa off; Su 10:00-16:00", "brand": "Waitrose"}, "geometry": {"type": "Point", "coordinates": [-2.2127, 51.74137]}},
{"type": "Feature", "id": "EoQU3kncZcI0XoyB5G--QeDvFFA=", "properties": {"ref": "484", "@spider": "waitrose", "addr:full": "West Street, Stamford, Lincolnshire", "addr:postcode": "PE9 2PR", "name": "Waitrose Stamford", "phone": "01780 759136", "website": "https://www.waitrose.com/content/waitrose/en/bf_home/bf/484.html", "opening_hours": "Mo-Tu 08:00-18:00; We-Th 08:00-21:00; Fr 08:00-18:00; Sa off; Su 10:00-16:00", "brand": "Waitrose"}, "geometry": {"type": "Point", "coordinates": [-0.48526, 52.6525]}},
{"type": "Feature", "id": "yaW9YZU2xqZwiUJ-RgWqjInkVlc=", "properties": {"ref": "317", "@spider": "waitrose", "addr:full": "Old Mill Square, Storrington, West Sussex", "addr:postcode": "RH20 4NQ", "name": "Waitrose Storrington", "phone": "01903 741210", "website": "https://www.waitrose.com/content/waitrose/en/bf_home/bf/317.html", "opening_hours": "Mo-Tu 08:00-18:00; We-Th 08:00-20:00; Fr 08:00-18:00; Sa off; Su 10:00-16:00", "brand": "Waitrose"}, "geometry": {"type": "Point", "coordinates": [-0.45194, 50.91816]}},
{"type": "Feature", "id": "bATKpdKLrEHrqhg_RcfWlNExFUg=", "properties": {"ref": "620", "@spider": "waitrose", "addr:full": "Waitrose Ltd, Unit 1, Burghmuir Retail Park, Burghmuir Road, Stirlingshire", "addr:postcode": "FK7 7GX", "name": "Waitrose Stirling", "phone": "01786 464021", "website": "https://www.waitrose.com/content/waitrose/en/bf_home/bf/620.html", "opening_hours": "Mo-Th 08:00-21:00; Fr 07:00-18:00; Sa off; Su 09:00-20:00", "brand": "Waitrose"}, "geometry": {"type": "Point", "coordinates": [-3.93288, 56.11357]}},
{"type": "Feature", "id": "ZrYzA6X2PzJ2Ifa5pCHMC82f11Y=", "properties": {"ref": "332", "@spider": "waitrose", "addr:full": "Rue des Pres, St Saviour, Jersey", "addr:postcode": "JE2 7PN", "name": "Waitrose St Saviour Jersey", "phone": "01534 280168", "website": "https://www.waitrose.com/content/waitrose/en/bf_home/bf/332.html", "opening_hours": "Mo-Tu 09:00-18:00; We-Th 08:00-21:00; Fr 08:00-18:00; Sa off; Su 10:00-16:00", "brand": "Waitrose"}, "geometry": {"type": "Point", "coordinates": [-2.08457, 49.18024]}},
{"type": "Feature", "id": "F5tplLO8YHqG3Hl-fenUHlWz6_I=", "properties": {"ref": "170", "@spider": "waitrose", "addr:full": "Marmion Road, Southsea, Portsmouth, Hampshire", "addr:postcode": "PO5 2EJ", "name": "Waitrose Southsea", "phone": "023 9287 3584", "website": "https://www.waitrose.com/content/waitrose/en/bf_home/bf/170.html", "opening_hours": "Mo-Th 08:00-20:00; Fr 08:00-18:00; Sa off; Su 10:00-16:00", "brand": "Waitrose"}, "geometry": {"type": "Point", "coordinates": [-1.08697, 50.78589]}},
{"type": "Feature", "id": "9GIMU-QGAxwUcD5vU5BxYAu5HSI=", "properties": {"ref": "334", "@spider": "waitrose", "addr:full": "La Vallee Des Vaux, St Helier, Jersey", "addr:postcode": "JE2 3GA", "name": "Waitrose St Helier Jersey", "phone": "01534 888201", "website": "https://www.waitrose.com/content/waitrose/en/bf_home/bf/334.html", "opening_hours": "Mo-Tu 09:00-18:00; We-Th 08:00-21:00; Fr 08:00-18:00; Sa off; Su 10:00-16:00", "brand": "Waitrose"}, "geometry": {"type": "Point", "coordinates": [-2.10302, 49.19621]}},
{"type": "Feature", "id": "Xmgu1WkBdtX0QyF-3o81caSCTKM=", "properties": {"ref": "753", "@spider": "waitrose", "addr:full": "Thomas More Street, St Katharine Docks, London, Greater London", "addr:postcode": "E1W 1YY", "name": "Waitrose St Katharine Docks", "phone": "0207 7021640", "website": "https://www.waitrose.com/content/waitrose/en/bf_home/bf/753.html", "opening_hours": "Mo-Tu 09:00-20:00; We-Th 07:30-22:00; Fr 07:30-19:00; Sa off; Su 11:00-17:00", "brand": "Waitrose"}, "geometry": {"type": "Point", "coordinates": [-0.06788, 51.50716]}},
{"type": "Feature", "id": "wKZgOO5L6PzMLo00UWIiqLtZ4j0=", "properties": {"ref": "185", "@spider": "waitrose", "addr:full": "Priory Lane, St Neots, Cambridgeshire", "addr:postcode": "PE19 2BH", "name": "Waitrose St Neots", "phone": "01480 473372", "website": "https://www.waitrose.com/content/waitrose/en/bf_home/bf/185.html", "opening_hours": "Mo 09:00-18:00; Tu-Th 08:00-20:00; Fr 08:00-18:00; Sa off; Su 10:00-16:00", "brand": "Waitrose"}, "geometry": {"type": "Point", "coordinates": [-0.27192, 52.22865]}},
{"type": "Feature", "id": "Zw3eh_dwJnGA9GEhi7bAecqLiNw=", "properties": {"ref": "166", "@spider": "waitrose", "addr:full": "1 Ermine Close, Mayne Avenue, St Albans, Hertfordshire", "addr:housenumber": "1", "addr:street": "Ermine Close", "addr:postcode": "AL3 4JZ", "name": "Waitrose St Albans", "phone": "01727 831117", "website": "https://www.waitrose.com/content/waitrose/en/bf_home/bf/166.html", "opening_hours": "Mo-Tu 09:00-18:00; We-Th 08:00-21:00; Fr 08:00-18:00; Sa off; Su 11:00-17:00", "brand": "Waitrose"}, "geometry": {"type": "Point", "coordinates": [-0.36043, 51.74648]}},
{"type": "Feature", "id": "JfMP7tR1iuG24uNOFAmYBdE8Jho=", "properties": {"ref": "108", "@spider": "waitrose", "addr:full": "Station Road, St Ives, Cambridgeshire", "addr:postcode": "PE27 5BW", "name": "Waitrose St Ives", "phone": "01480 492949", "website": "https://www.waitrose.com/content/waitrose/en/bf_home/bf/108.html", "opening_hours": "Mo-Tu 09:00-18:00; We-Th 08:00-21:00; Fr 08:00-18:00; Sa off; Su 10:00-16:00", "brand": "Waitrose"}, "geometry": {"type": "Point", "coordinates": [-0.06883, 52.32231]}},
{"type": "Feature", "id": "RHOIxTz_RsAYXJPUtLQA_7klCOw=", "properties": {"ref": "815", "@spider": "waitrose", "addr:full": "West Quay Shopping Centre, Southampton, Southampton, Hampshire", "addr:postcode": "SO15 1QA", "name": "Little Waitrose at John Lewis Southampton", "phone": "02380 216400", "website": "https://www.waitrose.com/content/waitrose/en/bf_home/bf/815.html", "opening_hours": "Mo-Th 09:00-20:00; Fr 09:00-17:00; Sa off; Su 10:30-17:00", "brand": "Waitrose"}, "geometry": {"type": "Point", "coordinates": [-1.40796, 50.90419]}},
{"type": "Feature", "id": "iH7o9imKLfFR60yR44V5TPcY6S4=", "properties": {"ref": "213", "@spider": "waitrose", "addr:full": "Fossetts Way, Eastern Avenue, Southend-on-Sea, Essex", "addr:postcode": "SS2 4DQ", "name": "Waitrose Southend-on-Sea", "phone": "01702 603403", "website": "https://www.waitrose.com/content/waitrose/en/bf_home/bf/213.html", "opening_hours": "Mo-Tu 09:00-18:00; We-Th 07:30-20:00; Fr 07:30-18:00; Sa off; Su 11:00-17:00", "brand": "Waitrose"}, "geometry": {"type": "Point", "coordinates": [0.72458, 51.55587]}},
{"type": "Feature", "id": "Pwu7mhwPa5hSx8loqoDlVqYVqyo=", "properties": {"ref": "703", "@spider": "waitrose", "addr:full": "Unit 10b, South Bank Tower Estate,Stamford Street, South Bank Tower, Greater London", "addr:postcode": "SE1 9LS", "name": "Little Waitrose South bank tower", "phone": "020792 80672", "website": "https://www.waitrose.com/content/waitrose/en/bf_home/bf/703.html", "opening_hours": "Mo-Th 08:00-20:00; Fr 07:00-22:00; Sa off; Su 08:00-22:00", "brand": "Waitrose"}, "geometry": {"type": "Point", "coordinates": [-0.10564, 51.50726]}},
{"type": "Feature", "id": "e33Hw6vUdb3diVvBq6UsCK5Vglc=", "properties": {"ref": "657", "@spider": "waitrose", "addr:full": "Stowford Rise, Sidmouth, Devon", "addr:postcode": "EX10 9GA", "name": "Waitrose Sidmouth", "phone": "01395 519416", "website": "https://www.waitrose.com/content/waitrose/en/bf_home/bf/657.html", "opening_hours": "Mo-Tu 08:00-20:00; We-Th 08:00-21:00; Fr 08:00-18:00; Sa off; Su 10:00-16:00", "brand": "Waitrose"}, "geometry": {"type": "Point", "coordinates": [-3.24427, 50.70007]}},
{"type": "Feature", "id": "xRPg2HcD9pQ0bLqYKKIzEq2GYYk=", "properties": {"ref": "643", "@spider": "waitrose", "addr:full": "1/3 High Street, Sidcup, Greater London", "addr:postcode": "DA14 6EN", "name": "little Waitrose Sidcup", "phone": "02083 095722", "website": "https://www.waitrose.com/content/waitrose/en/bf_home/bf/643.html", "opening_hours": "Mo-Tu 08:00-18:00; We-Th 08:00-21:00; Fr 08:00-19:00; Sa 09:00-17:00; Su 11:00-17:00", "brand": "Waitrose"}, "geometry": {"type": "Point", "coordinates": [0.10526, 51.42524]}},
{"type": "Feature", "id": "WGyXTvYdWFtYxZJXXN8Qo8rZoMY=", "properties": {"ref": "231", "@spider": "waitrose", "addr:full": "92-96 High Road, South Woodford, London, Greater London", "addr:housenumber": "92-96", "addr:street": "High Road", "addr:postcode": "E18 2NA", "name": "Waitrose South Woodford", "phone": "020 8989 0022", "website": "https://www.waitrose.com/content/waitrose/en/bf_home/bf/231.html", "opening_hours": "Mo-Tu 08:00-20:00; We-Th 07:30-21:00; Fr 07:30-19:00; Sa off; Su 11:00-17:00", "brand": "Waitrose"}, "geometry": {"type": "Point", "coordinates": [0.02248, 51.59528]}},
{"type": "Feature", "id": "joEMPC9cMfRrHPUSZkx4OpoqlsY=", "properties": {"ref": "720", "@spider": "waitrose", "addr:full": "121/131 Portswood Road, Portswood, Southampton, Hampshire", "addr:postcode": "SO17 2FX", "name": "Waitrose Southampton", "phone": "023 8067 9890", "website": "https://www.waitrose.com/content/waitrose/en/bf_home/bf/720.html", "opening_hours": "Mo-Th 08:00-20:00; Fr 08:00-18:00; Sa off; Su 10:00-16:00", "brand": "Waitrose"}, "geometry": {"type": "Point", "coordinates": [-1.3945, 50.9246]}},
{"type": "Feature", "id": "CivjtOAeqZl8NKg1rSEnPr4UfAI=", "properties": {"ref": "642", "@spider": "waitrose", "addr:full": "29 Homer Road, Solihull, West Midlands", "addr:housenumber": "29", "addr:street": "Homer Road", "addr:postcode": "B91 3QG", "name": "Waitrose Solihull", "phone": "0121 704 0455", "website": "https://www.waitrose.com/content/waitrose/en/bf_home/bf/642.html", "opening_hours": "Mo-Tu 09:00-18:00; We-Th 07:30-21:00; Fr 08:00-18:00; Sa off; Su 10:30-16:00", "brand": "Waitrose"}, "geometry": {"type": "Point", "coordinates": [-1.78265, 52.41302]}},
{"type": "Feature", "id": "NA8ZHd_XXHwnlO7E5mf_47kiTdc=", "properties": {"ref": "219", "@spider": "waitrose", "addr:full": "140 Northolt Road, South Harrow, Greater London", "addr:housenumber": "140", "addr:street": "Northolt Road", "addr:postcode": "HA2 0EG", "name": "Waitrose South Harrow", "phone": "020 8423 1955", "website": "https://www.waitrose.com/content/waitrose/en/bf_home/bf/219.html", "opening_hours": "Mo-Tu 08:00-19:00; We-Th 07:30-21:00; Fr 07:30-19:00; Sa off; Su 11:00-17:00", "brand": "Waitrose"}, "geometry": {"type": "Point", "coordinates": [-0.35117, 51.56681]}},
{"type": "Feature", "id": "Cj0W6nUNFVnkXEjsq3JIdMuwIJs=", "properties": {"ref": "604", "@spider": "waitrose", "addr:full": "Cheap Street, Sherborne, Dorset, Dorset", "addr:postcode": "DT9 3BA", "name": "Waitrose Sherborne", "phone": "01935389490", "website": "https://www.waitrose.com/content/waitrose/en/bf_home/bf/604.html", "opening_hours": "Mo-Tu 08:00-18:00; We-Th 08:00-21:00; Fr 08:00-18:00; Sa off; Su 10:00-16:00", "brand": "Waitrose"}, "geometry": {"type": "Point", "coordinates": [-2.51704, 50.94963]}},
{"type": "Feature", "id": "DNpuF_mNrtXtIK8q1iRA7t4uE2g=", "properties": {"ref": "695", "@spider": "waitrose", "addr:full": "1-3 Ecclesall Rd, Sheffield, South Yorkshire", "addr:housenumber": "1-3", "addr:street": "Ecclesall Rd", "addr:postcode": "S11 8HY", "name": "Waitrose Sheffield", "phone": "01142 722027", "website": "https://www.waitrose.com/content/waitrose/en/bf_home/bf/695.html", "opening_hours": "Mo 09:00-18:00; Tu-Th 08:00-21:00; Fr 08:00-18:00; Sa off; Su 10:30-16:30", "brand": "Waitrose"}, "geometry": {"type": "Point", "coordinates": [-1.4805, 53.37287]}},
{"type": "Feature", "id": "rjklI7gyRpTIE-dAfX09gUlmasM=", "properties": {"ref": "483", "@spider": "waitrose", "addr:full": "Church Street, Saxmundham, Suffolk", "addr:postcode": "IP17 1EP", "name": "Waitrose Saxmundham", "phone": "01728 603004", "website": "https://www.waitrose.com/content/waitrose/en/bf_home/bf/483.html", "opening_hours": "Mo-Tu 09:00-18:00; We-Th 08:00-20:00; Fr 08:00-18:00; Sa off; Su 10:00-16:00", "brand": "Waitrose"}, "geometry": {"type": "Point", "coordinates": [1.49263, 52.21404]}},
{"type": "Feature", "id": "_LPR-1WPI_5uxC5akIRWyOF-RsM=", "properties": {"ref": "677", "@spider": "waitrose", "addr:full": "87 Limpsfield Rd, South Croydon, Sanderstead, Greater London", "addr:housenumber": "87", "addr:street": "Limpsfield Rd", "addr:postcode": "CR2 9LE", "name": "Waitrose Sanderstead", "phone": "020 8916 0757", "website": "https://www.waitrose.com/content/waitrose/en/bf_home/bf/677.html", "opening_hours": "Mo 08:00-18:00; Tu 08:00-19:00; We-Th 08:00-21:00; Fr 08:00-18:00; Sa off; Su 10:00-16:00", "brand": "Waitrose"}, "geometry": {"type": "Point", "coordinates": [-0.07548, 51.33235]}},
{"type": "Feature", "id": "PjVcQMnDLWjQm_DAN559md_x9jA=", "properties": {"ref": "182", "@spider": "waitrose", "addr:full": "58 High Street, Sevenoaks, Kent", "addr:housenumber": "58", "addr:street": "High Street", "addr:postcode": "TN13 1JR", "name": "Waitrose Sevenoaks", "phone": "01732 450180", "website": "https://www.waitrose.com/content/waitrose/en/bf_home/bf/182.html", "opening_hours": "Mo-Tu 08:00-20:00; We-Th 07:30-20:00; Fr 08:00-18:00; Sa off; Su 10:00-16:00", "brand": "Waitrose"}, "geometry": {"type": "Point", "coordinates": [0.19339, 51.26981]}},
{"type": "Feature", "id": "59NDbjNnFHvTI5jKBnl_4zev2aY=", "properties": {"ref": "534", "@spider": "waitrose", "addr:full": "St Albans Road, Watford, Hertfordshire", "addr:postcode": "WD24 7RU", "name": "Waitrose Dome Roundabout", "phone": "01923 819628", "website": "https://www.waitrose.com/content/waitrose/en/bf_home/bf/534.html", "opening_hours": "Mo-Su 00:00-23:59", "brand": "Waitrose"}, "geometry": {"type": "Point", "coordinates": [-0.39463, 51.68113]}},
{"type": "Feature", "id": "YjN3sMJOat3dZEaGh2CFwh4Xsl8=", "properties": {"ref": "656", "@spider": "waitrose", "addr:full": "Tamar View, Saltash, Cornwall", "addr:postcode": "PL12 6LD", "name": "Waitrose Saltash", "phone": "01752 849067", "website": "https://www.waitrose.com/content/waitrose/en/bf_home/bf/656.html", "opening_hours": "Mo-Tu 09:00-18:00; We-Th 07:30-21:00; Fr 07:30-18:00; Sa off; Su 10:00-16:00", "brand": "Waitrose"}, "geometry": {"type": "Point", "coordinates": [-4.23394, 50.42166]}},
{"type": "Feature", "id": "TAl58vpR2StcuL2kcsbaIGuNlYs=", "properties": {"ref": "596", "@spider": "waitrose", "addr:full": "Broadmark Lane, Rustington, West Sussex", "addr:postcode": "BN16 2NE", "name": "Waitrose Rustington", "phone": "01903 778 772", "website": "https://www.waitrose.com/content/waitrose/en/bf_home/bf/596.html", "opening_hours": "Mo-Tu 08:00-18:00; We-Th 07:30-20:00; Fr 07:30-18:00; Sa off; Su 10:00-16:00", "brand": "Waitrose"}, "geometry": {"type": "Point", "coordinates": [-0.505, 50.80978]}},
{"type": "Feature", "id": "oRcBN31xYdBeAICCvgjbnLFr9k0=", "properties": {"ref": "226", "@spider": "waitrose", "addr:full": "Churchill Way West, Salisbury, Wiltshire", "addr:postcode": "SP2 7TS", "name": "Waitrose Salisbury", "phone": "01722 329429", "website": "https://www.waitrose.com/content/waitrose/en/bf_home/bf/226.html", "opening_hours": "Mo-Tu 08:00-18:00; We-Th 07:30-20:00; Fr 07:30-18:00; Sa off; Su 10:00-16:00", "brand": "Waitrose"}, "geometry": {"type": "Point", "coordinates": [-1.80184, 51.07606]}},
{"type": "Feature", "id": "IiKTiVuoaWrzDaoWsZvny2fAAsI=", "properties": {"ref": "135", "@spider": "waitrose", "addr:full": "Hill Street, Saffron Walden, Essex", "addr:postcode": "CB10 1EH", "name": "Waitrose Saffron Walden", "phone": "01799 525724", "website": "https://www.waitrose.com/content/waitrose/en/bf_home/bf/135.html", "opening_hours": "Mo-Tu 08:00-18:00; We-Th 07:00-21:00; Fr 07:00-18:00; Sa off; Su 10:00-16:00", "brand": "Waitrose"}, "geometry": {"type": "Point", "coordinates": [0.24195, 52.02306]}},
{"type": "Feature", "id": "k8v_JrUuQWVsOujKNlFZEUcDtSo=", "properties": {"ref": "690", "@spider": "waitrose", "addr:full": "Crown Park, Rushden, Northamptonshire", "addr:postcode": "NN10 6AR", "name": "Waitrose Rushden", "phone": "01933 355099", "website": "https://www.waitrose.com/content/waitrose/en/bf_home/bf/690.html", "opening_hours": "Mo 08:00-20:00; Tu 08:00-18:00; We-Th 08:00-21:00; Fr 08:00-18:00; Sa off; Su 10:30-16:30", "brand": "Waitrose"}, "geometry": {"type": "Point", "coordinates": [-0.6188, 52.2991]}},
{"type": "Feature", "id": "NQa3C0nF4zZwMQBOj9out_gYK_0=", "properties": {"ref": "680", "@spider": "waitrose", "addr:full": "Flat Lane, Sandbach, Cheshire", "addr:postcode": "CW11 4BE", "name": "Waitrose Sandbach", "phone": "01270 766777", "website": "https://www.waitrose.com/content/waitrose/en/bf_home/bf/680.html", "opening_hours": "Mo 08:00-19:00; Tu 09:00-18:00; We-Th 08:00-21:00; Fr 08:00-18:00; Sa off; Su 10:00-16:00", "brand": "Waitrose"}, "geometry": {"type": "Point", "coordinates": [-2.36349, 53.14271]}},
{"type": "Feature", "id": "Q0GvaiXcKP8cvAsqv_IQZjPGHkY=", "properties": {"ref": "197", "@spider": "waitrose", "addr:full": "9 Kingsend, Ruislip, Greater London", "addr:housenumber": "9", "addr:street": "Kingsend", "addr:postcode": "HA4 7DS", "name": "Waitrose Ruislip", "phone": "01895 631544", "website": "https://www.waitrose.com/content/waitrose/en/bf_home/bf/197.html", "opening_hours": "Mo-Tu 08:30-18:00; We-Th 07:00-21:00; Fr 07:00-18:00; Sa off; Su 10:00-16:00", "brand": "Waitrose"}, "geometry": {"type": "Point", "coordinates": [-0.423, 51.57137]}},
{"type": "Feature", "id": "DilbSummp2VgYppinR2ZMUC3B4M=", "properties": {"ref": "736", "@spider": "waitrose", "addr:full": "237-239 Roehampton Lane, London, Greater London", "addr:housenumber": "237-239", "addr:street": "Roehampton Lane", "addr:postcode": "SW15 4LB", "name": "little Waitrose Roehampton", "phone": "0208 7852056", "website": "https://www.waitrose.com/content/waitrose/en/bf_home/bf/736.html", "opening_hours": "Mo-Sa 00:00-23:59; Su 23:59-23:59", "brand": "Waitrose"}, "geometry": {"type": "Point", "coordinates": [-0.2396, 51.44958]}},
{"type": "Feature", "id": "sw68n3XxtdFs7zaq4dwzsQWbCSg=", "properties": {"ref": "333", "@spider": "waitrose", "addr:full": "Rohais, St Peter Port, Guernsey", "addr:postcode": "GY1 1FG", "name": "Waitrose Rohais Guernsey", "phone": "01481 729888", "website": "https://www.waitrose.com/content/waitrose/en/bf_home/bf/333.html", "opening_hours": "Mo-Tu 09:00-18:00; We-Th 08:00-20:00; Fr 08:00-18:00; Sa off; Su 10:00-16:00", "brand": "Waitrose"}, "geometry": {"type": "Point", "coordinates": [-2.55944, 49.46093]}},
{"type": "Feature", "id": "04D4lNc_15mXdZmeluXfF89z6kE=", "properties": {"ref": "671", "@spider": "waitrose", "addr:full": "32 Alma Road, Romsey, Hampshire", "addr:housenumber": "32", "addr:street": "Alma Road", "addr:postcode": "SO51 8AS", "name": "Waitrose & Partners Romsey", "phone": "01794 523617", "website": "https://www.waitrose.com/content/waitrose/en/bf_home/bf/671.html", "opening_hours": "Mo-Th 08:00-20:00; Fr 08:00-18:00; Sa off; Su 10:00-16:00", "brand": "Waitrose"}, "geometry": {"type": "Point", "coordinates": [-1.49614, 50.99069]}},
{"type": "Feature", "id": "KcoKPt7hciafSS8kBGoxAhdniG0=", "properties": {"ref": "698", "@spider": "waitrose", "addr:full": "Homestead Road, Rickmansworth, Hertfordshire", "addr:postcode": "WD3 1FX", "name": "Waitrose Rickmansworth", "phone": "01923 718595", "website": "https://www.waitrose.com/content/waitrose/en/bf_home/bf/698.html", "opening_hours": "Mo-Tu 08:00-18:00; We-Th 08:00-21:00; Fr 08:00-18:00; Sa off; Su 10:00-16:00", "brand": "Waitrose"}, "geometry": {"type": "Point", "coordinates": [-0.4704, 51.641]}},
{"type": "Feature", "id": "hFrSkermrEFSLwZRTmnYatILM1k=", "properties": {"ref": "188", "@spider": "waitrose", "addr:full": "4-10 Sheen Road, Richmond, Greater London", "addr:housenumber": "4-10", "addr:street": "Sheen Road", "addr:postcode": "TW9 1AE", "name": "Waitrose Richmond", "phone": "020 8948 6288", "website": "https://www.waitrose.com/content/waitrose/en/bf_home/bf/188.html", "opening_hours": "Mo-Tu 08:00-19:00; We-Th 08:00-21:00; Fr 08:00-19:00; Sa off; Su 11:00-17:00", "brand": "Waitrose"}, "geometry": {"type": "Point", "coordinates": [-0.3014, 51.46235]}},
{"type": "Feature", "id": "m1MSdq1Fvh4KuncHfUcKfGdV1hA=", "properties": {"ref": "203", "@spider": "waitrose", "addr:full": "The Furlong, Ringwood, Hampshire", "addr:postcode": "BH24 1AT", "name": "Waitrose Ringwood", "phone": "01425 477729", "website": "https://www.waitrose.com/content/waitrose/en/bf_home/bf/203.html", "opening_hours": "Mo-Tu 07:30-18:00; We-Th 07:30-20:00; Fr 07:30-18:00; Sa off; Su 10:00-16:00", "brand": "Waitrose"}, "geometry": {"type": "Point", "coordinates": [-1.79344, 50.84729]}},
{"type": "Feature", "id": "OdBweHb7sBAuBFa6I1PKQBNhBaw=", "properties": {"ref": "336", "@spider": "waitrose", "addr:full": "Red Houses, St Brelade, Jersey", "addr:postcode": "JE3 8LB", "name": "Waitrose Red Houses Jersey", "phone": "01534 888349", "website": "https://www.waitrose.com/content/waitrose/en/bf_home/bf/336.html", "opening_hours": "Mo-Tu 09:00-18:00; We-Th 08:00-21:00; Fr 08:00-18:00; Sa off; Su 10:00-16:00", "brand": "Waitrose"}, "geometry": {"type": "Point", "coordinates": [-2.20121, 49.19207]}},
{"type": "Feature", "id": "V2ltkpvCJghetr4ARlAVpB0maN8=", "properties": {"ref": "218", "@spider": "waitrose", "addr:full": "980 Oxford Road, Reading, Berkshire", "addr:housenumber": "980", "addr:street": "Oxford Road", "addr:postcode": "RG30 6WR", "name": "Waitrose Reading", "phone": "0118 9422444", "website": "https://www.waitrose.com/content/waitrose/en/bf_home/bf/218.html", "opening_hours": "Mo-Tu 09:00-18:00; We-Th 07:30-21:00; Fr 07:00-18:00; Sa off; Su 10:00-16:00", "brand": "Waitrose"}, "geometry": {"type": "Point", "coordinates": [-1.01912, 51.46573]}},
{"type": "Feature", "id": "vwVpEXSvjYz-iob2rTZ1uPJjzSY=", "properties": {"ref": "160", "@spider": "waitrose", "addr:full": "Queen Street, Ramsgate, Kent", "addr:postcode": "CT11 9EJ", "name": "Waitrose Ramsgate", "phone": "01843 583107", "website": "https://www.waitrose.com/content/waitrose/en/bf_home/bf/160.html", "opening_hours": "Mo-Tu 08:00-18:00; We-Th 08:00-20:00; Fr 08:00-18:00; Sa off; Su 10:00-16:00", "brand": "Waitrose"}, "geometry": {"type": "Point", "coordinates": [1.41699, 51.33269]}},
{"type": "Feature", "id": "9NIfBA5UWHGRWWBR1ac73g2jSd0=", "properties": {"ref": "225", "@spider": "waitrose", "addr:full": "Putney Exchange Shopping Centre, High Street, Putney, London, Greater London", "addr:postcode": "SW15 1TW", "name": "Waitrose Putney", "phone": "020 8246 6848", "website": "https://www.waitrose.com/content/waitrose/en/bf_home/bf/225.html", "opening_hours": "Mo 09:00-18:00; Tu-Th 08:00-20:00; Fr 08:00-18:00; Sa off; Su 11:00-17:00", "brand": "Waitrose"}, "geometry": {"type": "Point", "coordinates": [-0.21626, 51.4639]}},
{"type": "Feature", "id": "-gcfNtiZORtbZgJKDwMpqmou7_M=", "properties": {"ref": "846", "@spider": "waitrose", "addr:full": "Coombe  Lane, Raynes Park, London, Greater London", "addr:postcode": "SW20 0BS", "name": "Waitrose Raynes Park", "phone": "020 8944 8035", "website": "https://www.waitrose.com/content/waitrose/en/bf_home/bf/846.html", "opening_hours": "Mo-Tu 09:00-18:00; We-Th 08:00-21:00; Fr 08:00-18:00; Sa off; Su 10:00-16:00", "brand": "Waitrose"}, "geometry": {"type": "Point", "coordinates": [-0.2335, 51.40863]}},
{"type": "Feature", "id": "N9PWlJvVniP8P_t8kzalwts6QxM=", "properties": {"ref": "312", "@spider": "waitrose", "addr:full": "Park Lane, Poynton, Cheshire", "addr:postcode": "SK12 1RD", "name": "Waitrose Poynton", "phone": "01625 858033", "website": "https://www.waitrose.com/content/waitrose/en/bf_home/bf/312.html", "opening_hours": "Mo-Tu 09:00-18:00; We-Th 08:00-20:00; Fr 08:00-18:00; Sa off; Su 10:00-16:00", "brand": "Waitrose"}, "geometry": {"type": "Point", "coordinates": [-2.11971, 53.34895]}},
{"type": "Feature", "id": "5eSUZCG96x4677IL2P5O4wwJEuc=", "properties": {"ref": "457", "@spider": "waitrose", "addr:full": "Croescadarn Close, Pontprennau, Cardiff", "addr:postcode": "CF23 8AN", "name": "Waitrose Cardiff", "phone": "029 2073 5545", "website": "https://www.waitrose.com/content/waitrose/en/bf_home/bf/457.html", "opening_hours": "Mo-Tu 09:00-18:00; We-Th 07:30-20:00; Fr 07:30-18:00; Sa off; Su 10:00-16:00", "brand": "Waitrose"}, "geometry": {"type": "Point", "coordinates": [-3.13927, 51.53174]}},
{"type": "Feature", "id": "MqjQPxL4o8WnIQNftO28i_6qbCk=", "properties": {"ref": "669", "@spider": "waitrose", "addr:full": "Harbour Road, Portishead, Somerset", "addr:postcode": "BS20 7DE", "name": "Waitrose & Partners Portishead", "phone": "01275 847907", "website": "https://www.waitrose.com/content/waitrose/en/bf_home/bf/669.html", "opening_hours": "Mo-Tu 09:00-18:00; We-Th 07:00-20:00; Fr 07:00-18:00; Sa off; Su 10:30-16:30", "brand": "Waitrose"}, "geometry": {"type": "Point", "coordinates": [-2.76368, 51.48557]}},
{"type": "Feature", "id": "LTCT836gP6ql-6WBUWvDBkAo8rY=", "properties": {"ref": "733", "@spider": "waitrose", "addr:full": "Queen Mother Square, Poundbury, Dorset", "addr:postcode": "DT1 3BW", "name": "Waitrose Poundbury", "phone": "01305 250938", "website": "https://www.waitrose.com/content/waitrose/en/bf_home/bf/733.html", "opening_hours": "Mo-Th 08:00-21:00; Fr 08:00-18:00; Sa-Su 10:00-16:00", "brand": "Waitrose"}, "geometry": {"type": "Point", "coordinates": [-2.46214, 50.71441]}},
{"type": "Feature", "id": "AUxzSFUYLG9hfyKw7EK04Ja_hYU=", "properties": {"ref": "482", "@spider": "waitrose", "addr:full": "27 Main Street, Ponteland, Northumberland", "addr:housenumber": "27", "addr:street": "Main Street", "addr:postcode": "NE20 9NH", "name": "Waitrose Ponteland", "phone": "01661 823900", "website": "https://www.waitrose.com/content/waitrose/en/bf_home/bf/482.html", "opening_hours": "Mo-Th 08:00-21:00; Fr 08:00-17:00; Sa off; Su 10:00-16:00", "brand": "Waitrose"}, "geometry": {"type": "Point", "coordinates": [-1.74431, 55.04886]}},
{"type": "Feature", "id": "AfLoW5Na3mkdocQEWQLXLTh8vF4=", "properties": {"ref": "614", "@spider": "waitrose", "addr:full": "19-21 Warwick Way, Pimlico, London, Greater London", "addr:housenumber": "19-21", "addr:street": "Warwick Way", "addr:postcode": "SW1V 1QT", "name": "Little Waitrose Pimlico", "phone": "02078 285112", "website": "https://www.waitrose.com/content/waitrose/en/bf_home/bf/614.html", "opening_hours": "Mo-Th 07:00-22:00; Fr 07:00-20:00; Sa 11:00-19:00; Su 07:00-22:00", "brand": "Waitrose"}, "geometry": {"type": "Point", "coordinates": [-0.13946, 51.49244]}},
{"type": "Feature", "id": "LoOEiMe_AfVE8pygvo2lFIdzLyk=", "properties": {"ref": "209", "@spider": "waitrose", "addr:full": "8 Rams Walk, Petersfield, Hampshire", "addr:housenumber": "8", "addr:street": "Rams Walk", "addr:postcode": "GU32 3JA", "name": "Waitrose Petersfield", "phone": "01730 233339", "website": "https://www.waitrose.com/content/waitrose/en/bf_home/bf/209.html", "opening_hours": "Mo-Tu 09:00-18:00; We-Th 07:30-20:00; Fr 07:30-18:00; Sa off; Su 10:00-16:00", "brand": "Waitrose"}, "geometry": {"type": "Point", "coordinates": [-0.93664, 51.00434]}},
{"type": "Feature", "id": "YPv5POXsO1rrfurDW-M6auUWPsQ=", "properties": {"ref": "568", "@spider": "waitrose", "addr:full": "52 Queensway, Petts Wood, Orpington, Orpington, Greater London", "addr:housenumber": "52", "addr:street": "Queensway", "addr:postcode": "BR5 1EA", "name": "Little Waitrose Petts Wood", "phone": "01689 873031", "website": "https://www.waitrose.com/content/waitrose/en/bf_home/bf/568.html", "opening_hours": "Mo-Su 07:00-23:00", "brand": "Waitrose"}, "geometry": {"type": "Point", "coordinates": [0.07385, 51.38767]}},
{"type": "Feature", "id": "upQsKdyEbpytLehnXNYl_zjwhVc=", "properties": {"ref": "655", "@spider": "waitrose", "addr:full": "Church Road, Paddock Wood, Kent", "addr:postcode": "TN12 6EX", "name": "Waitrose Paddock Wood", "phone": "01892 836647", "website": "https://www.waitrose.com/content/waitrose/en/bf_home/bf/655.html", "opening_hours": "Mo-Tu 08:00-18:00; We-Th 08:00-20:00; Fr 08:00-18:00; Sa off; Su 10:00-16:00", "brand": "Waitrose"}, "geometry": {"type": "Point", "coordinates": [0.3909, 51.1816]}},
{"type": "Feature", "id": "cTciZ4K1Cum6RJHERe85GqjuWXM=", "properties": {"ref": "766", "@spider": "waitrose", "addr:full": "311-313 Ashley Road, Poole, Dorset", "addr:housenumber": "311-313", "addr:street": "Ashley Road", "addr:postcode": "BH14 0AP", "name": "Waitrose Parkstone", "phone": "01202 718051", "website": "https://www.waitrose.com/content/waitrose/en/bf_home/bf/766.html", "opening_hours": "Mo-Th 08:00-20:00; Fr 08:00-18:00; Sa off; Su 10:00-16:00", "brand": "Waitrose"}, "geometry": {"type": "Point", "coordinates": [-1.9399, 50.7287]}},
{"type": "Feature", "id": "76OYFRQYb-TyQATCHZrCUoXuRoc=", "properties": {"ref": "516", "@spider": "waitrose", "addr:full": "Heathmans Road, Parsons Green, London, Greater London", "addr:postcode": "SW6 4TH", "name": "Little Waitrose Parsons Green", "phone": "02077 315427", "website": "https://www.waitrose.com/content/waitrose/en/bf_home/bf/516.html", "opening_hours": "Mo-Th 07:00-21:00; Fr 07:00-19:00; Sa-Su 12:00-18:00", "brand": "Waitrose"}, "geometry": {"type": "Point", "coordinates": [-0.20125, 51.47432]}},
{"type": "Feature", "id": "HV-ITRPxnk3qpBhDpi5Slk9Trxk=", "properties": {"ref": "531", "@spider": "waitrose", "addr:full": "Mayors Walk, Peterborough, Cambridgeshire", "addr:postcode": "PE1 2AD", "name": "Waitrose Peterborough", "phone": "01733 554945", "website": "https://www.waitrose.com/content/waitrose/en/bf_home/bf/531.html", "opening_hours": "Mo-Tu 08:00-20:00; We-Th 07:00-21:00; Fr 07:00-18:00; Sa off; Su 10:30-16:30", "brand": "Waitrose"}, "geometry": {"type": "Point", "coordinates": [-0.24941, 52.576]}},
{"type": "Feature", "id": "hT9AEuZeWmcm35vuLpPUWarPzQI=", "properties": {"ref": "758", "@spider": "waitrose", "addr:full": "66 East Road, Oundle, Northamptonshire", "addr:housenumber": "66", "addr:street": "East Road", "addr:postcode": "PE8 4BZ", "name": "Waitrose Oundle", "phone": "01832274696", "website": "https://www.waitrose.com/content/waitrose/en/bf_home/bf/758.html", "opening_hours": "Mo-Tu 09:00-18:00; We-Th 08:00-20:00; Fr 08:00-18:00; Sa off; Su 10:00-16:00", "brand": "Waitrose"}, "geometry": {"type": "Point", "coordinates": [-0.4641, 52.48435]}},
{"type": "Feature", "id": "m-CeId-IKWybAmBQlHnKP146duU=", "properties": {"ref": "581", "@spider": "waitrose", "addr:full": "Botley Road, Oxford, Oxfordshire", "addr:postcode": "OX2 0HH", "name": "Oxford Botley Road", "phone": "01865 202043", "website": "https://www.waitrose.com/content/waitrose/en/bf_home/bf/581.html", "opening_hours": "Mo-Tu 09:00-18:00; We-Th 08:00-21:00; Fr 08:00-19:00; Sa off; Su 10:00-16:00", "brand": "Waitrose"}, "geometry": {"type": "Point", "coordinates": [-1.28046, 51.75279]}},
{"type": "Feature", "id": "HjLvBVQ2rhnz4WMp3xKmsVBeQlo=", "properties": {"ref": "691", "@spider": "waitrose", "addr:full": "60 Westgate, Otley, West Yorkshire", "addr:housenumber": "60", "addr:street": "Westgate", "addr:postcode": "LS21 3AS", "name": "Waitrose Otley", "phone": "01943 468467", "website": "https://www.waitrose.com/content/waitrose/en/bf_home/bf/691.html", "opening_hours": "Mo-Tu 08:30-20:00; We-Th 08:00-20:00; Fr 08:00-18:00; Sa off; Su 10:00-16:00", "brand": "Waitrose"}, "geometry": {"type": "Point", "coordinates": [-1.6983, 53.9038]}},
{"type": "Feature", "id": "-pT0G6npbq281fxr_T6n1ezh3Tw=", "properties": {"ref": "456", "@spider": "waitrose", "addr:full": "John Lewis, 300 Oxford Street, London, Greater London", "addr:postcode": "W1A 1EX", "name": "Waitrose & Partners Oxford Street JL Foodhall", "phone": "0203 073 0504", "website": "https://www.waitrose.com/content/waitrose/en/bf_home/bf/456.html", "opening_hours": "Mo-Tu 10:00-20:00; We 09:00-20:00; Th 09:00-21:00; Fr 09:00-18:00; Sa off; Su 12:00-18:00", "brand": "Waitrose"}, "geometry": {"type": "Point", "coordinates": [-0.14497, 51.5153]}},
{"type": "Feature", "id": "or8biV_XWyCYw1w_zPpzLw1lL1w=", "properties": {"ref": "838", "@spider": "waitrose", "addr:full": "159 Station Road East, Oxted, Surrey", "addr:housenumber": "159", "addr:street": "Station Road East", "addr:postcode": "RH8 0QE", "name": "Little Waitrose Oxted", "phone": "01883 715740", "website": "https://www.waitrose.com/content/waitrose/en/bf_home/bf/838.html", "opening_hours": "Mo-Tu 08:00-20:00; We-Th 07:00-21:00; Fr 07:00-19:00; Sa 09:00-17:00; Su 10:00-16:00", "brand": "Waitrose"}, "geometry": {"type": "Point", "coordinates": [-0.00515, 51.25901]}},
{"type": "Feature", "id": "B8wjAQTGZmfuIRzoF6jRzSphlWA=", "properties": {"ref": "234", "@spider": "waitrose", "addr:full": "School Way, Okehampton, Devon", "addr:postcode": "EX20 1WL", "name": "Waitrose Okehampton", "phone": "01837 659008", "website": "https://www.waitrose.com/content/waitrose/en/bf_home/bf/234.html", "opening_hours": "Mo-Tu 09:00-18:00; We-Th 08:00-21:00; Fr 08:00-18:00; Sa off; Su 10:00-16:00", "brand": "Waitrose"}, "geometry": {"type": "Point", "coordinates": [-4.00409, 50.74045]}},
{"type": "Feature", "id": "CRyUUbunDb1d2JS1d9H2KNWPCLM=", "properties": {"ref": "752", "@spider": "waitrose", "addr:full": "3 Babbage Gate, OakGrove, Milton Keynes, Buckinghamshire", "addr:housenumber": "3", "addr:street": "Babbage Gate", "addr:postcode": "MK10 9SU", "name": "Waitrose Oakgrove, Milton Keynes", "phone": "01908 230565", "website": "https://www.waitrose.com/content/waitrose/en/bf_home/bf/752.html", "opening_hours": "Mo-Tu 08:00-20:00; We-Th 07:00-22:00; Fr 07:00-18:00; Sa off; Su 11:00-17:00", "brand": "Waitrose"}, "geometry": {"type": "Point", "coordinates": [-0.71344, 52.03807]}},
{"type": "Feature", "id": "e17a3AhRUW-LapvsUpa796_kuqw=", "properties": {"ref": "583", "@spider": "waitrose", "addr:full": "99 - 103 Old Brompton Road, London, Greater London", "addr:postcode": "SW7 3RD", "name": "little Waitrose Old Brompton Road", "phone": "02075 815769", "website": "https://www.waitrose.com/content/waitrose/en/bf_home/bf/583.html", "opening_hours": "Mo-Th 07:00-22:00; Fr 07:00-20:00; Sa 11:00-19:00; Su 07:00-22:00", "brand": "Waitrose"}, "geometry": {"type": "Point", "coordinates": [-0.17922, 51.49199]}},
{"type": "Feature", "id": "pOTIRYKi_SOeH9jhd9NJc4pU2r0=", "properties": {"ref": "644", "@spider": "waitrose", "addr:full": "123-138 Notting Hill Gate, London, Greater London", "addr:housenumber": "123-138", "addr:street": "Notting Hill Gate", "addr:postcode": "W11 3QG", "name": "Little Waitrose Notting Hill Gate", "phone": "02072 219746", "website": "https://www.waitrose.com/content/waitrose/en/bf_home/bf/644.html", "opening_hours": "Mo 07:00-23:00; Tu 07:00-22:00; We-Th 07:00-23:00; Fr 07:00-20:00; Sa 10:00-18:00; Su 07:00-23:00", "brand": "Waitrose"}, "geometry": {"type": "Point", "coordinates": [-0.19776, 51.50886]}},
{"type": "Feature", "id": "kN1uyVyBT5ADAFev_lJprc0p1Hg=", "properties": {"ref": "833", "@spider": "waitrose", "addr:full": "31 Milton Street, Nottingham, Nottinghamshire", "addr:housenumber": "31", "addr:street": "Milton Street", "addr:postcode": "NG1 4AF", "name": "Little Waitrose Nottingham, Trinity Square", "phone": "01159 419289", "website": "https://www.waitrose.com/content/waitrose/en/bf_home/bf/833.html", "opening_hours": "Mo-Th 07:00-20:00; Fr 07:00-18:00; Sa off; Su 11:00-17:00", "brand": "Waitrose"}, "geometry": {"type": "Point", "coordinates": [-1.14845, 52.95569]}},
{"type": "Feature", "id": "z8yE-eoCICv2FOTEQ2kyxKzu5tI=", "properties": {"ref": "759", "@spider": "waitrose", "addr:full": "22 London Road, Northwich, Cheshire", "addr:housenumber": "22", "addr:street": "London Road", "addr:postcode": "CW9 5HD", "name": "Welcome to Waitrose Northwich", "phone": "01606 333122", "website": "https://www.waitrose.com/content/waitrose/en/bf_home/bf/759.html", "opening_hours": "Mo-Tu 09:00-18:00; We-Th 08:00-21:00; Fr 08:00-18:00; Sa off; Su 10:00-16:00", "brand": "Waitrose"}, "geometry": {"type": "Point", "coordinates": [-2.51421, 53.25906]}},
{"type": "Feature", "id": "wGlUjyRAm-5HjTcTFaxIVexsMV0=", "properties": {"ref": "186", "@spider": "waitrose", "addr:full": "52 Green Lane, Northwood, Greater London", "addr:housenumber": "52", "addr:street": "Green Lane", "addr:postcode": "HA6 2XW", "name": "Waitrose & Partners Northwood", "phone": "01923 820515", "website": "https://www.waitrose.com/content/waitrose/en/bf_home/bf/186.html", "opening_hours": "Mo 09:00-18:00; Tu 08:00-20:00; We-Th 07:30-21:00; Fr 07:30-18:00; Sa off; Su 11:00-17:00", "brand": "Waitrose"}, "geometry": {"type": "Point", "coordinates": [-0.4246, 51.61138]}},
{"type": "Feature", "id": "6U3vMRQlrYIvF9Z1dbaY7kihxr0=", "properties": {"ref": "222", "@spider": "waitrose", "addr:full": "Eaton Centre, Church Lane, Eaton, Norfolk", "addr:postcode": "NR4 6NU", "name": "Waitrose Norwich", "phone": "01603 458114", "website": "https://www.waitrose.com/content/waitrose/en/bf_home/bf/222.html", "opening_hours": "Mo-Tu 08:00-18:00; We-Th 07:00-20:00; Fr 07:00-18:00; Sa off; Su 10:00-16:00", "brand": "Waitrose"}, "geometry": {"type": "Point", "coordinates": [1.25119, 52.60794]}},
{"type": "Feature", "id": "F6z2WonrtZeTLlcUs74XDgPkTvE=", "properties": {"ref": "622", "@spider": "waitrose", "addr:full": "Cromer Road, North Walsham, Norfolk, Norfolk", "addr:postcode": "NR28 0NB", "name": "North Walsham", "phone": "01692 503109", "website": "https://www.waitrose.com/content/waitrose/en/bf_home/bf/622.html", "opening_hours": "Mo-Tu 08:00-18:00; We-Th 08:00-20:00; Fr 08:00-18:00; Sa off; Su 10:30-16:30", "brand": "Waitrose"}, "geometry": {"type": "Point", "coordinates": [1.3655, 52.82822]}},
{"type": "Feature", "id": "3JihQmDPaII_E50y7AEuACGL_Bo=", "properties": {"ref": "687", "@spider": "waitrose", "addr:full": "Audley Road, Newport, Shropshire", "addr:postcode": "TF10 7DL", "name": "Waitrose Newport", "phone": "01952 811360", "website": "https://www.waitrose.com/content/waitrose/en/bf_home/bf/687.html", "opening_hours": "Mo-Tu 08:00-18:00; We-Th 08:00-20:00; Fr 08:00-18:00; Sa off; Su 10:00-16:00", "brand": "Waitrose"}, "geometry": {"type": "Point", "coordinates": [-2.37539, 52.76956]}},
{"type": "Feature", "id": "bKQlEDjet6dGMvxL8gXu-fMVx0A=", "properties": {"ref": "676", "@spider": "waitrose", "addr:full": "Oxford Road, Newbury, Berkshire", "addr:postcode": "RG14 1NB", "name": "Waitrose Newbury", "phone": "01635 552061", "website": "https://www.waitrose.com/content/waitrose/en/bf_home/bf/676.html", "opening_hours": "Mo-Tu 09:00-18:00; We-Th 08:00-21:00; Fr 08:00-18:00; Sa off; Su 10:00-16:00", "brand": "Waitrose"}, "geometry": {"type": "Point", "coordinates": [-1.3292, 51.4073]}},
{"type": "Feature", "id": "IIZOY7_1R5zkszQ1t_MflGgIzZ4=", "properties": {"ref": "327", "@spider": "waitrose", "addr:full": "2 Greenlaw Place, Newton Mearns, East Renfrewshire", "addr:housenumber": "2", "addr:street": "Greenlaw Place", "addr:postcode": "G77 6GW", "name": "Waitrose Newton Mearns", "phone": "0141 616 3144", "website": "https://www.waitrose.com/content/waitrose/en/bf_home/bf/327.html", "opening_hours": "Mo-Th 08:00-21:00; Fr 08:00-18:00; Sa off; Su 10:00-19:00", "brand": "Waitrose"}, "geometry": {"type": "Point", "coordinates": [-4.34896, 55.78316]}},
{"type": "Feature", "id": "uxiX381AUHXRvd4gS_NRBDqBTPg=", "properties": {"ref": "674", "@spider": "waitrose", "addr:full": "Fred Archer Way, Newmarket, Suffolk", "addr:postcode": "CB8 8NY", "name": "Waitrose Newmarket", "phone": "01638 561728", "website": "https://www.waitrose.com/content/waitrose/en/bf_home/bf/674.html", "opening_hours": "Mo-Tu 09:00-18:00; We-Th 07:00-20:00; Fr 07:00-18:00; Sa off; Su 10:00-16:00", "brand": "Waitrose"}, "geometry": {"type": "Point", "coordinates": [0.4074, 52.2471]}},
{"type": "Feature", "id": "ceybgo8VKTu6zby6IYtHScnvraI=", "properties": {"ref": "131", "@spider": "waitrose", "addr:full": "24-28 High Street, New Malden, Greater London", "addr:housenumber": "24-28", "addr:street": "High Street", "addr:postcode": "KT3 4HE", "name": "Waitrose New Malden", "phone": "0208 9428988", "website": "https://www.waitrose.com/content/waitrose/en/bf_home/bf/131.html", "opening_hours": "Mo-Tu 09:00-18:00; We-Th 08:00-21:00; Fr 08:00-18:00; Sa off; Su 10:00-16:00", "brand": "Waitrose"}, "geometry": {"type": "Point", "coordinates": [-0.25592, 51.40235]}},
{"type": "Feature", "id": "SW7IWf_dL-E4_67kBuxaKJtmto8=", "properties": {"ref": "515", "@spider": "waitrose", "addr:full": "140 High Street, Nailsea, Bristol, Somerset", "addr:housenumber": "140", "addr:street": "High Street", "addr:postcode": "BS48 1AP", "name": "Waitrose Nailsea", "phone": "01275 812000", "website": "https://www.waitrose.com/content/waitrose/en/bf_home/bf/515.html", "opening_hours": "Mo-Tu 08:00-18:00; We-Th 08:00-20:00; Fr 08:00-18:00; Sa off; Su 11:00-17:00", "brand": "Waitrose"}, "geometry": {"type": "Point", "coordinates": [-2.75801, 51.43352]}},
{"type": "Feature", "id": "9k9yhyvTO8iVP-s2_CzpatxZQ10=", "properties": {"ref": "227", "@spider": "waitrose", "addr:full": "Ossington Way, Newark, Nottinghamshire", "addr:postcode": "NG24 1FF", "name": "Waitrose Newark", "phone": "01636 640404", "website": "https://www.waitrose.com/content/waitrose/en/bf_home/bf/227.html", "opening_hours": "Mo-Tu 08:00-18:00; We-Th 08:00-20:00; Fr 07:00-17:00; Sa off; Su 10:00-16:00", "brand": "Waitrose"}, "geometry": {"type": "Point", "coordinates": [-0.81209, 53.07985]}},
{"type": "Feature", "id": "_yawwcwaLACKj5O2uHQOhbL5Xig=", "properties": {"ref": "761", "@spider": "waitrose", "addr:full": "145 Morningside Road, Edinburgh, Scotland", "addr:housenumber": "145", "addr:street": "Morningside Road", "addr:postcode": "EH10 4AX", "name": "Waitrose Morningside", "phone": "0131 447 6899", "website": "https://www.waitrose.com/content/waitrose/en/bf_home/bf/761.html", "opening_hours": "Mo-Th 08:00-21:00; Fr 08:00-18:00; Sa off; Su 09:00-20:00", "brand": "Waitrose"}, "geometry": {"type": "Point", "coordinates": [-3.2093, 55.9294]}},
{"type": "Feature", "id": "vQl8nyBui5Azui6deH4m612oeeM=", "properties": {"ref": "403", "@spider": "waitrose", "addr:full": "Granite Way, Mountsorrel, Leicestershire", "addr:postcode": "LE12 7TZ", "name": "Waitrose Mountsorrel", "phone": "01509 415304", "website": "https://www.waitrose.com/content/waitrose/en/bf_home/bf/403.html", "opening_hours": "Mo 09:00-18:00; Tu-Th 08:00-21:00; Fr 08:00-18:00; Sa off; Su 10:00-16:00", "brand": "Waitrose"}, "geometry": {"type": "Point", "coordinates": [-1.15194, 52.7356]}},
{"type": "Feature", "id": "6BsU3druD4S_4X25BBT6YemcBJc=", "properties": {"ref": "639", "@spider": "waitrose", "addr:full": "390 Muswell Hill Broadway, London, Greater London", "addr:housenumber": "390", "addr:street": "Muswell Hill Broadway", "addr:postcode": "N10 1DJ", "name": "Little Waitrose Muswell Hill", "phone": "02088 831971", "website": "https://www.waitrose.com/content/waitrose/en/bf_home/bf/639.html", "opening_hours": "Mo-Th 07:00-22:00; Fr 07:00-20:00; Sa 11:00-19:00; Su 07:00-22:00", "brand": "Waitrose"}, "geometry": {"type": "Point", "coordinates": [-0.14242, 51.59159]}},
{"type": "Feature", "id": "5-0T8FducN50uBDjmEZuYgGwnoY=", "properties": {"ref": "217", "@spider": "waitrose", "addr:full": "110-114 Monnow Street, Monmouth, Monmouthshire", "addr:housenumber": "110-114", "addr:street": "Monnow Street", "addr:postcode": "NP25 3EQ", "name": "Waitrose Monmouth", "phone": "01600 772552", "website": "https://www.waitrose.com/content/waitrose/en/bf_home/bf/217.html", "opening_hours": "Mo-Tu 09:00-18:00; We-Th 07:30-21:00; Fr 07:30-18:00; Sa off; Su 10:00-16:00", "brand": "Waitrose"}, "geometry": {"type": "Point", "coordinates": [-2.71847, 51.80987]}}]}