{"type":"FeatureCollection","features":[{"type": "Feature", "id": "rWGiNs0nJYUYiElijAlu6RxItLQ=", "properties": {"ref": "00556", "@spider": "wawa", "addr:full": "12502 OCEAN GATEWAY", "addr:city": "OCEAN CITY", "addr:state": "MD", "addr:postcode": "21842-9538", "name": "WAWA, STORE # 0556", "phone": "410-213-1632", "website": "https://www.wawa.com/stores/00556/md-ocean-city-12502-ocean-gateway", "opening_hours": "24/7", "brand": "Wawa"}, "geometry": {"type": "Point", "coordinates": [-75.119081, 38.338407]}},
{"type": "Feature", "id": "GSntqXA9V-6Ablf-oeEjd2IB-rc=", "properties": {"ref": "00566", "@spider": "wawa", "addr:full": "12001- COASTAL HIGHWAY", "addr:city": "OCEAN CITY", "addr:state": "MD", "addr:postcode": "21842", "name": "WAWA, STORE # 0566", "phone": "410-524-6730", "website": "https://www.wawa.com/stores/00566/md-ocean-city-12001--coastal-highway", "opening_hours": "24/7", "brand": "Wawa"}, "geometry": {"type": "Point", "coordinates": [-75.05672, 38.426237]}},
{"type": "Feature", "id": "pSeHaMSnN5Lqg7eMaeSZkzBW_Bw=", "properties": {"ref": "00836", "@spider": "wawa", "addr:full": "774 GARFIELD PARKWAY", "addr:city": "BETHANY BEACH", "addr:state": "DE", "addr:postcode": "19930", "name": "WAWA, STORE # 0836", "phone": "302-537-2663", "website": "https://www.wawa.com/stores/00836/de-bethany-beach-774-garfield-parkway", "opening_hours": "24/7", "brand": "Wawa"}, "geometry": {"type": "Point", "coordinates": [-75.0709, 38.539808]}},
{"type": "Feature", "id": "M3-1GvOOwRyudLVJ6rdvs11JCC0=", "properties": {"ref": "00555", "@spider": "wawa", "addr:full": "668 S. SALISBURY BLVD.", "addr:city": "SALISBURY", "addr:state": "MD", "addr:postcode": "21801", "name": "WAWA, STORE # 0555", "phone": "410-677-0384", "website": "https://www.wawa.com/stores/00555/md-salisbury-668-s-salisbury-blvd", "opening_hours": "24/7", "brand": "Wawa"}, "geometry": {"type": "Point", "coordinates": [-75.60073, 38.358175]}},
{"type": "Feature", "id": "C2prY_fIvP09ar5QYDqbDT_0rh0=", "properties": {"ref": "00561", "@spider": "wawa", "addr:full": "2740 NORTH SALISBURY BLVD.", "addr:city": "SALISBURY", "addr:state": "MD", "addr:postcode": "21801", "name": "WAWA, STORE # 0561", "phone": "410-548-7946", "website": "https://www.wawa.com/stores/00561/md-salisbury-2740-north-salisbury-blvd", "opening_hours": "24/7", "brand": "Wawa"}, "geometry": {"type": "Point", "coordinates": [-75.56596, 38.420697]}},
{"type": "Feature", "id": "l9qgo_9Ec4VEVHBGZj_x3o-22wY=", "properties": {"ref": "00837", "@spider": "wawa", "addr:full": "102 EAST DUPONT HIGHWAY", "addr:city": "MILLSBORO", "addr:state": "DE", "addr:postcode": "19966", "name": "WAWA, STORE # 0837", "phone": "302-934-1844", "website": "https://www.wawa.com/stores/00837/de-millsboro-102-east-dupont-highway", "opening_hours": "24/7", "brand": "Wawa"}, "geometry": {"type": "Point", "coordinates": [-75.29594, 38.584683]}},
{"type": "Feature", "id": "4AgbCLUkVXmZhHPJM-CtjgX577k=", "properties": {"ref": "00856", "@spider": "wawa", "addr:full": "38711 SUSSEX HIGHWAY", "addr:city": "DELMAR", "addr:state": "DE", "addr:postcode": "19940", "name": "WAWA, STORE # 0856", "phone": "302-846-3272", "website": "https://www.wawa.com/stores/00856/de-delmar-38711-sussex-highway", "opening_hours": "24/7", "brand": "Wawa"}, "geometry": {"type": "Point", "coordinates": [-75.557044, 38.456094]}},
{"type": "Feature", "id": "WQl4355B_i_b-dp2u9qZlPPZ04o=", "properties": {"ref": "00865", "@spider": "wawa", "addr:full": "24930 JOHN J WILLIAMS HWY", "addr:city": "MILLSBORO", "addr:state": "DE", "addr:postcode": "19966", "name": "WAWA, STORE # 0865", "phone": "302-945-1834", "website": "https://www.wawa.com/stores/00865/de-millsboro-24930-john-j-williams-hwy", "opening_hours": "24/7", "brand": "Wawa"}, "geometry": {"type": "Point", "coordinates": [-75.195383, 38.633941]}},
{"type": "Feature", "id": "KeAmYG2PUVLNx9LSkZjrLMHGr_Q=", "properties": {"ref": "00871", "@spider": "wawa", "addr:full": "30155 VETERANS WAY", "addr:city": "REHOBOTH BEACH", "addr:state": "DE", "addr:postcode": "19971", "name": "WAWA, STORE # 0871", "phone": "302-227-1893", "website": "https://www.wawa.com/stores/00871/de-rehoboth-beach-30155-veterans-way", "opening_hours": "24/7", "brand": "Wawa"}, "geometry": {"type": "Point", "coordinates": [-75.103297, 38.712962]}},
{"type": "Feature", "id": "q_YahRMd9jArrFaFpZx-KyN5KOk=", "properties": {"ref": "00849", "@spider": "wawa", "addr:full": "4500 HIGHWAY 1, RT. 1 & RT. 24", "addr:city": "REHOBOTH BEACH", "addr:state": "DE", "addr:postcode": "19971", "name": "WAWA, STORE # 0849", "phone": "302-644-4210", "website": "https://www.wawa.com/stores/00849/de-rehoboth-beach-4500-highway-1,-rt-1-and-rt-24", "opening_hours": "24/7", "brand": "Wawa"}, "geometry": {"type": "Point", "coordinates": [-75.132262, 38.731499]}},
{"type": "Feature", "id": "pSBS_67r2Fpzf8xr8-Iy-6CdkV8=", "properties": {"ref": "00834", "@spider": "wawa", "addr:full": "17663 DARTMOUTH DR.", "addr:city": "LEWES", "addr:state": "DE", "addr:postcode": "19958", "name": "WAWA, STORE # 0834", "phone": "302-645-5637", "website": "https://www.wawa.com/stores/00834/de-lewes-17663-dartmouth-dr", "opening_hours": "24/7", "brand": "Wawa"}, "geometry": {"type": "Point", "coordinates": [-75.15401, 38.743921]}},
{"type": "Feature", "id": "vDr3Hah2-sAxb_EDN0AQJUL9-6w=", "properties": {"ref": "00874", "@spider": "wawa", "addr:full": "22929 SUSSEX HWY", "addr:city": "SEAFORD", "addr:state": "DE", "addr:postcode": "19973", "name": "WAWA, STORE # 0874", "phone": "(302) 888-9442", "website": "https://www.wawa.com/stores/00874/de-seaford-22929-sussex-hwy", "opening_hours": "24/7", "brand": "Wawa"}, "geometry": {"type": "Point", "coordinates": [-75.593416, 38.660032]}},
{"type": "Feature", "id": "80DeOAGtckLWcB0zNkJdv2dQAJE=", "properties": {"ref": "00864", "@spider": "wawa", "addr:full": "18586 SUSSEX HIGHWAY", "addr:city": "BRIDGEVILLE", "addr:state": "DE", "addr:postcode": "19933", "name": "WAWA, STORE # 0864", "phone": "302-337-7424", "website": "https://www.wawa.com/stores/00864/de-bridgeville-18586-sussex-highway", "opening_hours": "24/7", "brand": "Wawa"}, "geometry": {"type": "Point", "coordinates": [-75.591548, 38.726056]}},
{"type": "Feature", "id": "YqXGqdeXncu-0SeF5MomemnyZ0g=", "properties": {"ref": "00452", "@spider": "wawa", "addr:full": "1426-28 TEXAS AVENUE", "addr:city": "CAPE MAY", "addr:state": "NJ", "addr:postcode": "08204", "name": "WAWA, STORE # 0452", "phone": "609-884-6753", "website": "https://www.wawa.com/stores/00452/nj-cape-may-1426-28-texas-avenue", "opening_hours": "24/7", "brand": "Wawa"}, "geometry": {"type": "Point", "coordinates": [-74.909118, 38.946751]}},
{"type": "Feature", "id": "6FTU-3ZjK7Fi5oaiU3xVkGpfoJE=", "properties": {"ref": "00729", "@spider": "wawa", "addr:full": "418 WEST RIO GRANDE AVENUE", "addr:city": "WILDWOOD", "addr:state": "NJ", "addr:postcode": "08260", "name": "WAWA, STORE # 0729", "phone": "609-729-6339", "website": "https://www.wawa.com/stores/00729/nj-wildwood-418-west-rio-grande-avenue", "opening_hours": "24/7", "brand": "Wawa"}, "geometry": {"type": "Point", "coordinates": [-74.82944, 38.987176]}},
{"type": "Feature", "id": "eW3HzndhfDbWshuo5jmbEYm5x9Q=", "properties": {"ref": "00980", "@spider": "wawa", "addr:full": "3719 BAYSHORE RD", "addr:city": "CAPE MAY", "addr:state": "NJ", "addr:postcode": "08204-3553", "name": "WAWA, STORE # 0980", "phone": "609-886-0004", "website": "https://www.wawa.com/stores/00980/nj-cape-may-3719-bayshore-rd", "opening_hours": "24/7", "brand": "Wawa"}, "geometry": {"type": "Point", "coordinates": [-74.941231, 38.982979]}},
{"type": "Feature", "id": "kab6O6Hw336tfmWYHZOsVs-9bDs=", "properties": {"ref": "00954", "@spider": "wawa", "addr:full": "3200 NEW JERSEY AVE.", "addr:city": "WILDWOOD", "addr:state": "NJ", "addr:postcode": "08260", "name": "WAWA, STORE # 0954", "phone": "609-729-8701", "website": "https://www.wawa.com/stores/00954/nj-wildwood-3200-new-jersey-ave", "opening_hours": "24/7", "brand": "Wawa"}, "geometry": {"type": "Point", "coordinates": [-74.814569, 38.992195]}},
{"type": "Feature", "id": "qd1cbf8yVFkvu_u3qZZbixlhNAM=", "properties": {"ref": "08322", "@spider": "wawa", "addr:full": "330 W SPRUCE AVE", "addr:city": "NORTH WILDWOOD", "addr:state": "NJ", "addr:postcode": "08260-3058", "name": "WAWA, STORE # 8322", "phone": "609-522-0910", "website": "https://www.wawa.com/stores/08322/nj-north-wildwood-330-w-spruce-ave", "opening_hours": "24/7", "brand": "Wawa"}, "geometry": {"type": "Point", "coordinates": [-74.796077, 39.012033]}},
{"type": "Feature", "id": "PXs6IPHlfTmN_9PfLpl4T_OTO2Y=", "properties": {"ref": "00946", "@spider": "wawa", "addr:full": "3601 ROUTE 9 SOUTH", "addr:city": "RIO GRANDE", "addr:state": "NJ", "addr:postcode": "08242", "name": "WAWA, STORE # 0946", "phone": "609-889-3122", "website": "https://www.wawa.com/stores/00946/nj-rio-grande-3601-route-9-south", "opening_hours": "24/7", "brand": "Wawa"}, "geometry": {"type": "Point", "coordinates": [-74.87641, 39.015658]}},
{"type": "Feature", "id": "1fgLD1Q-Lysi-_lE5e18bo6fCq4=", "properties": {"ref": "00851", "@spider": "wawa", "addr:full": "902 N. DUPONT BLVD", "addr:city": "MILFORD", "addr:state": "DE", "addr:postcode": "19963", "name": "WAWA, STORE # 0851", "phone": "302-424-2300", "website": "https://www.wawa.com/stores/00851/de-milford-902-n-dupont-blvd", "opening_hours": "24/7", "brand": "Wawa"}, "geometry": {"type": "Point", "coordinates": [-75.43156, 38.928291]}},
{"type": "Feature", "id": "8Rsh3SI9ba4SFW_puT7I0bwmSpI=", "properties": {"ref": "00963", "@spider": "wawa", "addr:full": "1515 BAYSHORE RD.", "addr:city": "VILLAS", "addr:state": "NJ", "addr:postcode": "08251", "name": "WAWA, STORE # 0963", "phone": "609-889-8971", "website": "https://www.wawa.com/stores/00963/nj-villas-1515-bayshore-rd", "opening_hours": "24/7", "brand": "Wawa"}, "geometry": {"type": "Point", "coordinates": [-74.93451, 39.023124]}},
{"type": "Feature", "id": "cmf9AQUgxq2O-r2Tn0wvzmRrWR8=", "properties": {"ref": "00563", "@spider": "wawa", "addr:full": "601 SUNBURST HIGHWAY", "addr:city": "CAMBRIDGE", "addr:state": "MD", "addr:postcode": "21613", "name": "WAWA, STORE # 0563", "phone": "410-901-9794", "website": "https://www.wawa.com/stores/00563/md-cambridge-601-sunburst-highway", "opening_hours": "24/7", "brand": "Wawa"}, "geometry": {"type": "Point", "coordinates": [-76.06626, 38.561096]}},
{"type": "Feature", "id": "ldfMGo1-jvZVn8OfjAZjkSy4wrY=", "properties": {"ref": "00342", "@spider": "wawa", "addr:full": "9404 THIRD AVENUE", "addr:city": "STONE HARBOR", "addr:state": "NJ", "addr:postcode": "08247", "name": "WAWA, STORE # 0342", "phone": "609-368-3265", "website": "https://www.wawa.com/stores/00342/nj-stone-harbor-9404-third-avenue", "opening_hours": "06:00-22:00", "brand": "Wawa"}, "geometry": {"type": "Point", "coordinates": [-74.7596, 39.055563]}},
{"type": "Feature", "id": "df6uHJaTxm7jJpamFLpeo9XVyfc=", "properties": {"ref": "00492", "@spider": "wawa", "addr:full": "224 SOUTH MAIN STREET (@ ATLAN", "addr:city": "CAPE MAY COURT HOUSE", "addr:state": "NJ", "addr:postcode": "08210", "name": "WAWA, STORE # 0492", "phone": "609-465-1461", "website": "https://www.wawa.com/stores/00492/nj-cape-may-court-house-224-south-main-street-(@-atlan", "opening_hours": "24/7", "brand": "Wawa"}, "geometry": {"type": "Point", "coordinates": [-74.825523, 39.078018]}},
{"type": "Feature", "id": "fgVaXhX7_JfbwNErW2RnVMEkJT0=", "properties": {"ref": "00432", "@spider": "wawa", "addr:full": "2701 OCEAN DRIVE", "addr:city": "AVALON", "addr:state": "NJ", "addr:postcode": "08202", "name": "WAWA, STORE # 0432", "phone": "609-967-3326", "website": "https://www.wawa.com/stores/00432/nj-avalon-2701-ocean-drive", "opening_hours": "06:00-22:00", "brand": "Wawa"}, "geometry": {"type": "Point", "coordinates": [-74.72321, 39.098628]}},
{"type": "Feature", "id": "7Abar1xTTG6yX88rqhhY7ILCAoo=", "properties": {"ref": "08608", "@spider": "wawa", "addr:full": "1700 VIRGINIA BEACH BLVD", "addr:city": "VIRGINIA BEACH", "addr:state": "VA", "addr:postcode": "23454", "name": "WAWA, STORE # 8608", "phone": "757-422-6300", "website": "https://www.wawa.com/stores/08608/va-virginia-beach-1700-virginia-beach-blvd", "opening_hours": "24/7", "brand": "Wawa"}, "geometry": {"type": "Point", "coordinates": [-76.02165, 36.843244]}},
{"type": "Feature", "id": "7rMTKUodkq2QRM51MBwrv1oaE8s=", "properties": {"ref": "00678", "@spider": "wawa", "addr:full": "2501 VIRGINIA BEACH BLVD", "addr:city": "VIRGINIA BEACH", "addr:state": "VA", "addr:postcode": "23452", "name": "WAWA, STORE # 0678", "phone": "757-431-3123", "website": "https://www.wawa.com/stores/00678/va-virginia-beach-2501-virginia-beach-blvd", "opening_hours": "24/7", "brand": "Wawa"}, "geometry": {"type": "Point", "coordinates": [-76.05592, 36.840471]}},
{"type": "Feature", "id": "T5i6S-lxlpRxKg-WpZ6gc4XWato=", "properties": {"ref": "00675", "@spider": "wawa", "addr:full": "4800 SHORE DRIVE", "addr:city": "VIRGINIA BEACH", "addr:state": "VA", "addr:postcode": "23455", "name": "WAWA, STORE # 0675", "phone": "757-460-5329", "website": "https://www.wawa.com/stores/00675/va-virginia-beach-4800-shore-drive", "opening_hours": "24/7", "brand": "Wawa"}, "geometry": {"type": "Point", "coordinates": [-76.13609, 36.905203]}},
{"type": "Feature", "id": "GeXSO6ap9zZr7ambpoexBjwr8So=", "properties": {"ref": "00694", "@spider": "wawa", "addr:full": "2954 VIRGINIA BEACH BLVD.", "addr:city": "VIRGINIA BEACH", "addr:state": "VA", "addr:postcode": "23462", "name": "WAWA, STORE # 0694", "phone": "757-340-2615", "website": "https://www.wawa.com/stores/00694/va-virginia-beach-2954-virginia-beach-blvd", "opening_hours": "24/7", "brand": "Wawa"}, "geometry": {"type": "Point", "coordinates": [-76.074698, 36.844503]}},
{"type": "Feature", "id": "QJ6WYxm_YHiJSbmmeT-0_vBcYoA=", "properties": {"ref": "00671", "@spider": "wawa", "addr:full": "201 SOUTH ROSEMONT RD.", "addr:city": "VIRGINIA BEACH", "addr:state": "VA", "addr:postcode": "23452", "name": "WAWA, STORE # 0671", "phone": "757-463-8936", "website": "https://www.wawa.com/stores/00671/va-virginia-beach-201-south-rosemont-rd", "opening_hours": "24/7", "brand": "Wawa"}, "geometry": {"type": "Point", "coordinates": [-76.0961, 36.833618]}},
{"type": "Feature", "id": "3k5bAqqWGA9ibowbAyszfDU6V4A=", "properties": {"ref": "00300", "@spider": "wawa", "addr:full": "3801 LANDIS AVENUE", "addr:city": "SEA ISLE CITY", "addr:state": "NJ", "addr:postcode": "08243", "name": "WAWA, STORE # 0300", "phone": "609-263-2330", "website": "https://www.wawa.com/stores/00300/nj-sea-isle-city-3801-landis-avenue", "opening_hours": "06:00-22:00", "brand": "Wawa"}, "geometry": {"type": "Point", "coordinates": [-74.68942, 39.157393]}},
{"type": "Feature", "id": "g3rMkP3yyE2N2V0HIApjkzxHxrk=", "properties": {"ref": "08609", "@spider": "wawa", "addr:full": "5701 NORTHAMPTON BLVD", "addr:city": "VIRGINIA BEACH", "addr:state": "VA", "addr:postcode": "23455", "name": "WAWA, STORE # 8609", "phone": "757-460-1114", "website": "https://www.wawa.com/stores/08609/va-virginia-beach-5701-northampton-blvd", "opening_hours": "24/7", "brand": "Wawa"}, "geometry": {"type": "Point", "coordinates": [-76.179228, 36.885646]}},
{"type": "Feature", "id": "LASVv73_ZaBZUIN8P_56DgMWrMk=", "properties": {"ref": "00589", "@spider": "wawa", "addr:full": "8118 OCEAN GATEWAY", "addr:city": "EASTON", "addr:state": "MD", "addr:postcode": "21601", "name": "WAWA, STORE # 0589", "phone": "410-819-3830", "website": "https://www.wawa.com/stores/00589/md-easton-8118-ocean-gateway", "opening_hours": "24/7", "brand": "Wawa"}, "geometry": {"type": "Point", "coordinates": [-76.06135, 38.771816]}},
{"type": "Feature", "id": "VHPttNyQPYbIGOq0KEE5w7WfDLo=", "properties": {"ref": "08642", "@spider": "wawa", "addr:full": "301 E. MERCURY BLVD", "addr:city": "HAMPTON", "addr:state": "VA", "addr:postcode": "23663", "name": "WAWA, STORE # 8642", "phone": "757-589-4169", "website": "https://www.wawa.com/stores/08642/va-hampton-301-e-mercury-blvd", "opening_hours": "24/7", "brand": "Wawa"}, "geometry": {"type": "Point", "coordinates": [-76.32487, 37.03298]}},
{"type": "Feature", "id": "bVWKZiGUFcHouU4Da0UZ-bEN52I=", "properties": {"ref": "00690", "@spider": "wawa", "addr:full": "4377 HOLLAND ROAD", "addr:city": "VIRGINIA BEACH", "addr:state": "VA", "addr:postcode": "23462", "name": "WAWA, STORE # 0690", "phone": "757-326-6464", "website": "https://www.wawa.com/stores/00690/va-virginia-beach-4377-holland-road", "opening_hours": "24/7", "brand": "Wawa"}, "geometry": {"type": "Point", "coordinates": [-76.126289, 36.822372]}},
{"type": "Feature", "id": "PVqUSJFhh9ifSnkPh9AeRpwXAWk=", "properties": {"ref": "00465", "@spider": "wawa", "addr:full": "2500 SEA ISLE BLVD. UNIT 1", "addr:city": "OCEAN VIEW", "addr:state": "NJ", "addr:postcode": "08230", "name": "WAWA, STORE # 0465", "phone": "609-624-9379", "website": "https://www.wawa.com/stores/00465/nj-ocean-view-2500-sea-isle-blvd-unit-1", "opening_hours": "24/7", "brand": "Wawa"}, "geometry": {"type": "Point", "coordinates": [-74.7326, 39.176577]}},
{"type": "Feature", "id": "jZWJEDUzs1laTKo0FWtCGf4eZ_8=", "properties": {"ref": "00587", "@spider": "wawa", "addr:full": "22530 THREE NOTCH RD.", "addr:city": "LEXINGTON PARK", "addr:state": "MD", "addr:postcode": "20653-2131", "name": "WAWA, STORE # 0587", "phone": "240-725-0531", "website": "https://www.wawa.com/stores/00587/md-lexington-park-22530-three-notch-rd", "opening_hours": "24/7", "brand": "Wawa"}, "geometry": {"type": "Point", "coordinates": [-76.476776, 38.286931]}},
{"type": "Feature", "id": "x2Z9ZidPVQmv3k9uWNDyprBWgRM=", "properties": {"ref": "00679", "@spider": "wawa", "addr:full": "1579 LYNNHAVEN PARKWAY", "addr:city": "VIRGINIA BEACH", "addr:state": "VA", "addr:postcode": "23456", "name": "WAWA, STORE # 0679", "phone": "757-368-9109", "website": "https://www.wawa.com/stores/00679/va-virginia-beach-1579-lynnhaven-parkway", "opening_hours": "24/7", "brand": "Wawa"}, "geometry": {"type": "Point", "coordinates": [-76.10241, 36.795911]}},
{"type": "Feature", "id": "FCaDbiRqbw-V8o6EJdVgPGnC_s0=", "properties": {"ref": "08604", "@spider": "wawa", "addr:full": "975 EAST LITTLE CREEK ROAD", "addr:city": "NORFOLK", "addr:state": "VA", "addr:postcode": "23518", "name": "WAWA, STORE # 8604", "phone": "757-480-7436", "website": "https://www.wawa.com/stores/08604/va-norfolk-975-east-little-creek-road", "opening_hours": "24/7", "brand": "Wawa"}, "geometry": {"type": "Point", "coordinates": [-76.24232, 36.913941]}},
{"type": "Feature", "id": "z82_xbAto0DUfv9KH-znOHEKgos=", "properties": {"ref": "00652", "@spider": "wawa", "addr:full": "5120 GEORGE WASHINGTON MEMORIA", "addr:city": "HAYES", "addr:state": "VA", "addr:postcode": "23072-2826", "name": "WAWA, STORE # 0652", "phone": "804-693-3010", "website": "https://www.wawa.com/stores/00652/va-hayes-5120-george-washington-memoria", "opening_hours": "24/7", "brand": "Wawa"}, "geometry": {"type": "Point", "coordinates": [-76.52352, 37.344484]}},
{"type": "Feature", "id": "8sks5rFD9CmGl2OpWnEXQ5pF1HU=", "properties": {"ref": "08628", "@spider": "wawa", "addr:full": "6301 N MILITARY HWY", "addr:city": "NORFOLK", "addr:state": "VA", "addr:postcode": "23518-5436", "name": "WAWA, STORE # 8628", "phone": "757-857-3071", "website": "https://www.wawa.com/stores/08628/va-norfolk-6301-n-military-hwy", "opening_hours": "24/7", "brand": "Wawa"}, "geometry": {"type": "Point", "coordinates": [-76.22626, 36.897126]}},
{"type": "Feature", "id": "6G6ZMncRegPX0qRW37l5Ho-_3Wg=", "properties": {"ref": "00470", "@spider": "wawa", "addr:full": "1180 RT. 47 (@ MAIN STREET)", "addr:city": "DENNISVILLE", "addr:state": "NJ", "addr:postcode": "08214", "name": "WAWA, STORE # 0470", "phone": "609-861-7147", "website": "https://www.wawa.com/stores/00470/nj-dennisville-1180-rt-47-(@-main-street)", "opening_hours": "24/7", "brand": "Wawa"}, "geometry": {"type": "Point", "coordinates": [-74.82143, 39.190591]}},
{"type": "Feature", "id": "C7RHr53_mNBvWkke2eMy3cebydU=", "properties": {"ref": "08661", "@spider": "wawa", "addr:full": "701 N. NEWTOWN RD", "addr:city": "NORFOLK", "addr:state": "VA", "addr:postcode": "23502", "name": "WAWA, STORE # 8661", "phone": "757-785-4462", "website": "https://www.wawa.com/stores/08661/va-norfolk-701-n-newtown-rd", "opening_hours": "24/7", "brand": "Wawa"}, "geometry": {"type": "Point", "coordinates": [-76.1807, 36.8485]}},
{"type": "Feature", "id": "5z9yuk0-LQ3hgddXNjXzn4QNlAQ=", "properties": {"ref": "08645", "@spider": "wawa", "addr:full": "1146 N. MILITARY HWY.", "addr:city": "NORFOLK", "addr:state": "VA", "addr:postcode": "23502", "name": "WAWA, STORE # 8645", "phone": "757-525-9914", "website": "https://www.wawa.com/stores/08645/va-norfolk-1146-n-military-hwy", "opening_hours": "03:00-01:00", "brand": "Wawa"}, "geometry": {"type": "Point", "coordinates": [-76.2096, 36.8613]}},
{"type": "Feature", "id": "gO9WJYikSKYDo40Srk2svFWu7Mk=", "properties": {"ref": "00687", "@spider": "wawa", "addr:full": "5824 GEORGE WASHINGTON MEMORIA", "addr:city": "YORKTOWN", "addr:state": "VA", "addr:postcode": "23692-2774", "name": "WAWA, STORE # 0687", "phone": "757-833-7801", "website": "https://www.wawa.com/stores/00687/va-yorktown-5824-george-washington-memoria", "opening_hours": "24/7", "brand": "Wawa"}, "geometry": {"type": "Point", "coordinates": [-76.46499, 37.165506]}},
{"type": "Feature", "id": "weUFhRfELROtqScg9xMJOZCN948=", "properties": {"ref": "00592", "@spider": "wawa", "addr:full": "23141 THREE NOTCH RD.", "addr:city": "CALIFORNIA", "addr:state": "MD", "addr:postcode": "20619", "name": "WAWA, STORE # 0592", "phone": "301-866-6080", "website": "https://www.wawa.com/stores/00592/md-california-23141-three-notch-rd", "opening_hours": "24/7", "brand": "Wawa"}, "geometry": {"type": "Point", "coordinates": [-76.51936, 38.302751]}},
{"type": "Feature", "id": "ElHmTchAbREsejrntlXiwADlGJA=", "properties": {"ref": "08618", "@spider": "wawa", "addr:full": "5048 FERRELL PARKWAY", "addr:city": "VIRGINIA BEACH", "addr:state": "VA", "addr:postcode": "23454", "name": "WAWA, STORE # 8618", "phone": "757-495-1390", "website": "https://www.wawa.com/stores/08618/va-virginia-beach-5048-ferrell-parkway", "opening_hours": "24/7", "brand": "Wawa"}, "geometry": {"type": "Point", "coordinates": [-76.16797, 36.794321]}},
{"type": "Feature", "id": "CAamUPTAFxj-MozdsWk-J2rSA3s=", "properties": {"ref": "08633", "@spider": "wawa", "addr:full": "3360 E PRINCESS ANNE RED", "addr:city": "NORFOLK", "addr:state": "VA", "addr:postcode": "23502-1564", "name": "WAWA, STORE # 8633", "phone": "757-855-2060", "website": "https://www.wawa.com/stores/08633/va-norfolk-3360-e-princess-anne-red", "opening_hours": "05:00-00:00", "brand": "Wawa"}, "geometry": {"type": "Point", "coordinates": [-76.245142, 36.863276]}},
{"type": "Feature", "id": "7wM0_gDl2vH8hsZa4pl2H5nta1w=", "properties": {"ref": "08657", "@spider": "wawa", "addr:full": "2610 GEORGE WASHINGTON MEM HWY", "addr:city": "YORKTOWN", "addr:state": "VA", "addr:postcode": "23693", "name": "WAWA, STORE # 8657", "phone": "757-664-9577", "website": "https://www.wawa.com/stores/08657/va-yorktown-2610-george-washington-mem-hwy", "opening_hours": "24/7", "brand": "Wawa"}, "geometry": {"type": "Point", "coordinates": [-76.456763, 37.120749]}},
{"type": "Feature", "id": "aRU8HzBDuu57leznhUhQlqfEBzE=", "properties": {"ref": "00876", "@spider": "wawa", "addr:full": "200 EAST STREET", "addr:city": "CAMDEN", "addr:state": "DE", "addr:postcode": "19934", "name": "WAWA, STORE # 0876", "phone": "302-455-7791", "website": "https://www.wawa.com/stores/00876/de-camden-200-east-street", "opening_hours": "24/7", "brand": "Wawa"}, "geometry": {"type": "Point", "coordinates": [-75.540307, 39.108979]}},
{"type": "Feature", "id": "PxXVwKGFyIFSD0kRNdo17d3erB4=", "properties": {"ref": "00656", "@spider": "wawa", "addr:full": "14803 WARWICK BOULEVARD", "addr:city": "NEWPORT NEWS", "addr:state": "VA", "addr:postcode": "23608", "name": "WAWA, STORE # 0656", "phone": "757-874-2704", "website": "https://www.wawa.com/stores/00656/va-newport-news-14803-warwick-boulevard", "opening_hours": "24/7", "brand": "Wawa"}, "geometry": {"type": "Point", "coordinates": [-76.54673, 37.136763]}},
{"type": "Feature", "id": "njpe0aZEq7yRmCTA4T3ECseI7Sw=", "properties": {"ref": "08631", "@spider": "wawa", "addr:full": "12095 JEFFERSON AVE", "addr:city": "NEWPORT NEWS", "addr:state": "VA", "addr:postcode": "23606-4325", "name": "WAWA, STORE # 8631", "phone": "757-269-4213", "website": "https://www.wawa.com/stores/08631/va-newport-news-12095-jefferson-ave", "opening_hours": "24/7", "brand": "Wawa"}, "geometry": {"type": "Point", "coordinates": [-76.492595, 37.100383]}},
{"type": "Feature", "id": "xSqYJQFEGuKyaqi54_4FPUnuAnc=", "properties": {"ref": "00685", "@spider": "wawa", "addr:full": "772 J. CLYDE MORRIS BLVD", "addr:city": "NEWPORT NEWS", "addr:state": "VA", "addr:postcode": "23607", "name": "WAWA, STORE # 0685", "phone": "757-873-4737", "website": "https://www.wawa.com/stores/00685/va-newport-news-772-j-clyde-morris-blvd", "opening_hours": "24/7", "brand": "Wawa"}, "geometry": {"type": "Point", "coordinates": [-76.45954, 37.080586]}},
{"type": "Feature", "id": "U47LuikVUZcKivNj1qAU44vxA5A=", "properties": {"ref": "08654", "@spider": "wawa", "addr:full": "11124 JEFFERSON AVENUE", "addr:city": "NEWPORT NEWS", "addr:state": "VA", "addr:postcode": "23601", "name": "WAWA, STORE # 8654", "phone": "757-852-0055", "website": "https://www.wawa.com/stores/08654/va-newport-news-11124-jefferson-avenue", "opening_hours": "24/7", "brand": "Wawa"}, "geometry": {"type": "Point", "coordinates": [-76.464792, 37.05939]}},
{"type": "Feature", "id": "Lg0b75wCG9YF5mNZaQd-PaSXEis=", "properties": {"ref": "00699", "@spider": "wawa", "addr:full": "842 MERRIMAC TRAIL", "addr:city": "WILLIAMSBURG", "addr:state": "VA", "addr:postcode": "23185-5314", "name": "WAWA, STORE # 0699", "phone": "757-220-5046", "website": "https://www.wawa.com/stores/00699/va-williamsburg-842-merrimac-trail", "opening_hours": "24/7", "brand": "Wawa"}, "geometry": {"type": "Point", "coordinates": [-76.67656, 37.266111]}},
{"type": "Feature", "id": "8sFWtV1tRkfw0-3RGm2IKxHHbM4=", "properties": {"ref": "08629", "@spider": "wawa", "addr:full": "2401 W. MERCURY BLVD", "addr:city": "HAMPTON", "addr:state": "VA", "addr:postcode": "23666-3101", "name": "WAWA, STORE # 8629", "phone": "757-825-0941", "website": "https://www.wawa.com/stores/08629/va-hampton-2401-w-mercury-blvd", "opening_hours": "04:00-00:00", "brand": "Wawa"}, "geometry": {"type": "Point", "coordinates": [-76.4095, 37.0365]}},
{"type": "Feature", "id": "VncBPTbuF3mtg50H1zRAE0lMDC4=", "properties": {"ref": "08641", "@spider": "wawa", "addr:full": "5280 W MERCURY BLVD", "addr:city": "NEWPORT NEWS", "addr:state": "VA", "addr:postcode": "23605-2700", "name": "WAWA, STORE # 8641", "phone": "757-838-0514", "website": "https://www.wawa.com/stores/08641/va-newport-news-5280-w-mercury-blvd", "opening_hours": "24/7", "brand": "Wawa"}, "geometry": {"type": "Point", "coordinates": [-76.440365, 37.022279]}},
{"type": "Feature", "id": "eAXjqr0ztPEHQSfZSCvs6aw6Qxw=", "properties": {"ref": "00681", "@spider": "wawa", "addr:full": "315 RICHMOND RD.", "addr:city": "WILLIAMSBURG", "addr:state": "VA", "addr:postcode": "23185", "name": "WAWA, STORE # 0681", "phone": "757-258-1322", "website": "https://www.wawa.com/stores/00681/va-williamsburg-315-richmond-rd", "opening_hours": "24/7", "brand": "Wawa"}, "geometry": {"type": "Point", "coordinates": [-76.71193, 37.273297]}},
{"type": "Feature", "id": "PC-qDYMDq8zapKN5nbpaiXIMgh0=", "properties": {"ref": "08664", "@spider": "wawa", "addr:full": "6446 RICHMOND ROAD", "addr:city": "WILLIAMSBURG", "addr:state": "VA", "addr:postcode": "23188", "name": "WAWA, STORE # 8664", "phone": "757-500-2450", "website": "https://www.wawa.com/stores/08664/va-williamsburg-6446-richmond-road", "opening_hours": "24/7", "brand": "Wawa"}, "geometry": {"type": "Point", "coordinates": [-76.754341, 37.340324]}},
{"type": "Feature", "id": "2qZw_TilIvRAd-UvAIWo5J49CgI=", "properties": {"ref": "08606", "@spider": "wawa", "addr:full": "8105 HAMPTON BLVD", "addr:city": "NORFOLK", "addr:state": "VA", "addr:postcode": "23505", "name": "WAWA, STORE # 8606", "phone": "757-451-2706", "website": "https://www.wawa.com/stores/08606/va-norfolk-8105-hampton-blvd", "opening_hours": "24/7", "brand": "Wawa"}, "geometry": {"type": "Point", "coordinates": [-76.31815, 36.926766]}},
{"type": "Feature", "id": "b-zkbUYUOvyCjWa9fLdfLaA3UEE=", "properties": {"ref": "00695", "@spider": "wawa", "addr:full": "3408 WESTERN BRANCH BLVD", "addr:city": "CHESAPEAKE", "addr:state": "VA", "addr:postcode": "23321", "name": "WAWA, STORE # 0695", "phone": "757-638-6431", "website": "https://www.wawa.com/stores/00695/va-chesapeake-3408-western-branch-blvd", "opening_hours": "24/7", "brand": "Wawa"}, "geometry": {"type": "Point", "coordinates": [-76.41615, 36.866388]}},
{"type": "Feature", "id": "QqoXzJ3IzRS26_Uf6agPChjpk-g=", "properties": {"ref": "08672", "@spider": "wawa", "addr:full": "720 LONDON BLVD", "addr:city": "PORTSMOUTH", "addr:state": "VA", "addr:postcode": "23704", "name": "WAWA, STORE # 8672", "phone": "757-932-1311", "website": "https://www.wawa.com/stores/08672/va-portsmouth-720-london-blvd", "opening_hours": "24/7", "brand": "Wawa"}, "geometry": {"type": "Point", "coordinates": [-76.30657, 36.83715]}},
{"type": "Feature", "id": "CSonCLYRA2QyFXuXk4JoDZAuUQI=", "properties": {"ref": "08636", "@spider": "wawa", "addr:full": "1200 FREDERICK BLVD", "addr:city": "PORTSMOUTH", "addr:state": "VA", "addr:postcode": "23707-4119", "name": "WAWA, STORE # 8636", "phone": "757-393-0189", "website": "https://www.wawa.com/stores/08636/va-portsmouth-1200-frederick-blvd", "opening_hours": "24/7", "brand": "Wawa"}, "geometry": {"type": "Point", "coordinates": [-76.3392, 36.8278]}},
{"type": "Feature", "id": "B1CjYulvXOAbQXEY3pwcJ8c6mAU=", "properties": {"ref": "08612", "@spider": "wawa", "addr:full": "4005 VICTORY BLVD", "addr:city": "PORTSMOUTH", "addr:state": "VA", "addr:postcode": "23701", "name": "WAWA, STORE # 8612", "phone": "757-488-1472", "website": "https://www.wawa.com/stores/08612/va-portsmouth-4005-victory-blvd", "opening_hours": "24/7", "brand": "Wawa"}, "geometry": {"type": "Point", "coordinates": [-76.35991, 36.810551]}},
{"type": "Feature", "id": "SIi9Ym3KD5d6lPArZh7UhVox7cI=", "properties": {"ref": "08638", "@spider": "wawa", "addr:full": "2916 GODWIN BLVD", "addr:city": "SUFFOLK", "addr:state": "VA", "addr:postcode": "23434-8040", "name": "WAWA, STORE # 8638", "phone": "757-925-2869", "website": "https://www.wawa.com/stores/08638/va-suffolk-2916-godwin-blvd", "opening_hours": "24/7", "brand": "Wawa"}, "geometry": {"type": "Point", "coordinates": [-76.5826, 36.7778]}},
{"type": "Feature", "id": "vI5x80tnA2FAlZdqQ5V_0dpMf8o=", "properties": {"ref": "00654", "@spider": "wawa", "addr:full": "720 WOODLAKE DRIVE", "addr:city": "CHESAPEAKE", "addr:state": "VA", "addr:postcode": "23320", "name": "WAWA, STORE # 0654", "phone": "757-420-3053", "website": "https://www.wawa.com/stores/00654/va-chesapeake-720-woodlake-drive", "opening_hours": "24/7", "brand": "Wawa"}, "geometry": {"type": "Point", "coordinates": [-76.23562, 36.790994]}},
{"type": "Feature", "id": "IZSWZKi8oq3l-fY5z-im7n1qaRg=", "properties": {"ref": "08670", "@spider": "wawa", "addr:full": "1921 CENTERVILLE TPK", "addr:city": "VIRGINIA BEACH", "addr:state": "VA", "addr:postcode": "23464", "name": "WAWA, STORE # 8670", "phone": "(757) 937-7706", "website": "https://www.wawa.com/stores/08670/va-virginia-beach-1921-centerville-tpk", "opening_hours": "24/7", "brand": "Wawa"}, "geometry": {"type": "Point", "coordinates": [-76.19224725, 36.7799219]}},
{"type": "Feature", "id": "l0wdP32ZuBdG0MN0dFdpjmc6hJ8=", "properties": {"ref": "08632", "@spider": "wawa", "addr:full": "471 KEMPSVILLE RD", "addr:city": "CHESAPEAKE", "addr:state": "VA", "addr:postcode": "23320-3721", "name": "WAWA, STORE # 8632", "phone": "757-549-1670", "website": "https://www.wawa.com/stores/08632/va-chesapeake-471-kempsville-rd", "opening_hours": "24/7", "brand": "Wawa"}, "geometry": {"type": "Point", "coordinates": [-76.2262, 36.7425]}},
{"type": "Feature", "id": "vK41-o5Z5fKB11I_PsisHQ0rd6k=", "properties": {"ref": "08613", "@spider": "wawa", "addr:full": "101 HILLCREST PKWY", "addr:city": "CHESAPEAKE", "addr:state": "VA", "addr:postcode": "23328", "name": "WAWA, STORE # 8613", "phone": "757-432-1900", "website": "https://www.wawa.com/stores/08613/va-chesapeake-101-hillcrest-pkwy", "opening_hours": "24/7", "brand": "Wawa"}, "geometry": {"type": "Point", "coordinates": [-76.22484, 36.657751]}},
{"type": "Feature", "id": "Bw6lqC-KkkzcrEyNAN3dbTGgejM=", "properties": {"ref": "00698", "@spider": "wawa", "addr:full": "907 COLONIAL CORNER DRIVE", "addr:city": "HOPEWELL", "addr:state": "VA", "addr:postcode": "23860", "name": "WAWA, STORE # 0698", "phone": "804-452-3089", "website": "https://www.wawa.com/stores/00698/va-hopewell-907-colonial-corner-drive", "opening_hours": "24/7", "brand": "Wawa"}, "geometry": {"type": "Point", "coordinates": [-77.31685, 37.271472]}},
{"type": "Feature", "id": "PGiheM0R6O3gBwVzTe2PLM1Jw0U=", "properties": {"ref": "00676", "@spider": "wawa", "addr:full": "600 E. HUNDRED RD.", "addr:city": "CHESTER", "addr:state": "VA", "addr:postcode": "23836-2757", "name": "WAWA, STORE # 0676", "phone": "804-530-0822", "website": "https://www.wawa.com/stores/00676/va-chester-600-e-hundred-rd", "opening_hours": "24/7", "brand": "Wawa"}, "geometry": {"type": "Point", "coordinates": [-77.34548, 37.347104]}},
{"type": "Feature", "id": "_3G74hsaIGT2NtzaoYhm3xvXSuc=", "properties": {"ref": "00683", "@spider": "wawa", "addr:full": "3199 SOUTH CRATER ROAD", "addr:city": "PETERSBURG", "addr:state": "VA", "addr:postcode": "23805", "name": "WAWA, STORE # 0683", "phone": "804-862-3551", "website": "https://www.wawa.com/stores/00683/va-petersburg-3199-south-crater-road", "opening_hours": "24/7", "brand": "Wawa"}, "geometry": {"type": "Point", "coordinates": [-77.370036, 37.189407]}},
{"type": "Feature", "id": "SejLd07fKdSt3qML8D4h7461TpA=", "properties": {"ref": "08624", "@spider": "wawa", "addr:full": "1270 TEMPLE AVE", "addr:city": "COLONIAL HEIGHTS", "addr:state": "VA", "addr:postcode": "23834-2984", "name": "WAWA, STORE # 8624", "phone": "804-520-6982", "website": "https://www.wawa.com/stores/08624/va-colonial-heights-1270-temple-ave", "opening_hours": "24/7", "brand": "Wawa"}, "geometry": {"type": "Point", "coordinates": [-77.383566, 37.254414]}},
{"type": "Feature", "id": "qVD_p-F4wqj73arjeDsbnlWO1-0=", "properties": {"ref": "00693", "@spider": "wawa", "addr:full": "604 BOULEVARD", "addr:city": "COLONIAL HEIGHTS", "addr:state": "VA", "addr:postcode": "23834-3261", "name": "WAWA, STORE # 0693", "phone": "804-526-9823", "website": "https://www.wawa.com/stores/00693/va-colonial-heights-604-boulevard", "opening_hours": "24/7", "brand": "Wawa"}, "geometry": {"type": "Point", "coordinates": [-77.41088, 37.244293]}},
{"type": "Feature", "id": "DloI0MQGrUmBErL-5312OT8i9Yo=", "properties": {"ref": "08605", "@spider": "wawa", "addr:full": "500 SOUTH AIRPORT DRIVE", "addr:city": "SANDSTON", "addr:state": "VA", "addr:postcode": "23150", "name": "WAWA, STORE # 8605", "phone": "804-652-1890", "website": "https://www.wawa.com/stores/08605/va-sandston-500-south-airport-drive", "opening_hours": "24/7", "brand": "Wawa"}, "geometry": {"type": "Point", "coordinates": [-77.32899, 37.524799]}},
{"type": "Feature", "id": "BXl33ZeQveQDzbx646-IOpXx73g=", "properties": {"ref": "00684", "@spider": "wawa", "addr:full": "15840 JEFFERSON DAVIS HIGHWAY", "addr:city": "COLONIAL HEIGHTS", "addr:state": "VA", "addr:postcode": "23834-5202", "name": "WAWA, STORE # 0684", "phone": "804-526-6022", "website": "https://www.wawa.com/stores/00684/va-colonial-heights-15840-jefferson-davis-highway", "opening_hours": "24/7", "brand": "Wawa"}, "geometry": {"type": "Point", "coordinates": [-77.409794, 37.306045]}},
{"type": "Feature", "id": "5WELdAaQH3BZWJEVu9bh6Y7Oo9U=", "properties": {"ref": "08626", "@spider": "wawa", "addr:full": "5301 SOUTH LABURNUM AVE", "addr:city": "HENRICO", "addr:state": "VA", "addr:postcode": "23231-4413", "name": "WAWA, STORE # 8626", "phone": "804-226-1040", "website": "https://www.wawa.com/stores/08626/va-henrico-5301-south-laburnum-ave", "opening_hours": "24/7", "brand": "Wawa"}, "geometry": {"type": "Point", "coordinates": [-77.348803, 37.511781]}},
{"type": "Feature", "id": "hTRlxpD5svGGVaayBknh4DcMcac=", "properties": {"ref": "00692", "@spider": "wawa", "addr:full": "11701 JEFFERSON DAVIS HWY.", "addr:city": "CHESTER", "addr:state": "VA", "addr:postcode": "23831", "name": "WAWA, STORE # 0692", "phone": "804-717-9475", "website": "https://www.wawa.com/stores/00692/va-chester-11701-jefferson-davis-hwy", "opening_hours": "24/7", "brand": "Wawa"}, "geometry": {"type": "Point", "coordinates": [-77.416508, 37.367534]}},
{"type": "Feature", "id": "DMfRrcFKIKIuj-HzfFX31U-vHx4=", "properties": {"ref": "08634", "@spider": "wawa", "addr:full": "7847 COMPASS POINT LANE", "addr:city": "MECHANICSVILLE", "addr:state": "VA", "addr:postcode": "23111-6515", "name": "WAWA, STORE # 8634", "phone": "804-569-6149", "website": "https://www.wawa.com/stores/08634/va-mechanicsville-7847-compass-point-lane", "opening_hours": "24/7", "brand": "Wawa"}, "geometry": {"type": "Point", "coordinates": [-77.328321, 37.613293]}},
{"type": "Feature", "id": "YQ2C9w2lWfKCovB9Wy9w6iotkGQ=", "properties": {"ref": "08635", "@spider": "wawa", "addr:full": "1300 N. LABURNUM AVENUE", "addr:city": "RICHMOND", "addr:state": "VA", "addr:postcode": "23223-2618", "name": "WAWA, STORE # 8635", "phone": "804-225-8104", "website": "https://www.wawa.com/stores/08635/va-richmond-1300-n-laburnum-avenue", "opening_hours": "24/7", "brand": "Wawa"}, "geometry": {"type": "Point", "coordinates": [-77.3767, 37.562]}},
{"type": "Feature", "id": "ocdzpoQ-gBlYzIY2xGrQo0utE6k=", "properties": {"ref": "00670", "@spider": "wawa", "addr:full": "11021 IRON BRIDGE ROAD (RT. 10", "addr:city": "CHESTER", "addr:state": "VA", "addr:postcode": "23831-1440", "name": "WAWA, STORE # 0670", "phone": "804-706-6623", "website": "https://www.wawa.com/stores/00670/va-chester-11021-iron-bridge-road-(rt-10", "opening_hours": "24/7", "brand": "Wawa"}, "geometry": {"type": "Point", "coordinates": [-77.497729, 37.364281]}},
{"type": "Feature", "id": "Etrko2DryfoQYqXSHZxpjVcyGVM=", "properties": {"ref": "00673", "@spider": "wawa", "addr:full": "6001 IRONBRIDGE ROAD", "addr:city": "NORTH CHESTERFIELD", "addr:state": "VA", "addr:postcode": "23234-5225", "name": "WAWA, STORE # 0673", "phone": "804-275-5484", "website": "https://www.wawa.com/stores/00673/va-north-chesterfield-6001-ironbridge-road", "opening_hours": "24/7", "brand": "Wawa"}, "geometry": {"type": "Point", "coordinates": [-77.48913, 37.435069]}},
{"type": "Feature", "id": "Q_-yfc8d66TCJqKXrg_8YhWeG9s=", "properties": {"ref": "00657", "@spider": "wawa", "addr:full": "12001 SOUTHSHORE POINT DR.", "addr:city": "MIDLOTHIAN", "addr:state": "VA", "addr:postcode": "23112-2088", "name": "WAWA, STORE # 0657", "phone": "804-639-2015", "website": "https://www.wawa.com/stores/00657/va-midlothian-12001-southshore-point-dr", "opening_hours": "24/7", "brand": "Wawa"}, "geometry": {"type": "Point", "coordinates": [-77.66518, 37.405186]}},
{"type": "Feature", "id": "tRhpyQ_r3aJBUkLroRPYtBUB3P0=", "properties": {"ref": "08651", "@spider": "wawa", "addr:full": "16000 OTTERDALE RD", "addr:city": "MIDLOTHIAN", "addr:state": "VA", "addr:postcode": "23114", "name": "WAWA, STORE # 8651", "phone": "804-362-0777", "website": "https://www.wawa.com/stores/08651/va-midlothian-16000-otterdale-rd", "opening_hours": "24/7", "brand": "Wawa"}, "geometry": {"type": "Point", "coordinates": [-77.7086069923, 37.398384355]}},
{"type": "Feature", "id": "EdMputzvNOysQkV9ssnInZ1TmAc=", "properties": {"ref": "00674", "@spider": "wawa", "addr:full": "3850 N. BAILEY BRIDGE ROAD", "addr:city": "MIDLOTHIAN", "addr:state": "VA", "addr:postcode": "23112-2912", "name": "WAWA, STORE # 0674", "phone": "804-277-4131", "website": "https://www.wawa.com/stores/00674/va-midlothian-3850-n-bailey-bridge-road", "opening_hours": "24/7", "brand": "Wawa"}, "geometry": {"type": "Point", "coordinates": [-77.610548, 37.434614]}},
{"type": "Feature", "id": "KnXVoEAj1ep_dEM2_faFrXsniSI=", "properties": {"ref": "08625", "@spider": "wawa", "addr:full": "10135 HULL STREET ROAD", "addr:city": "MIDLOTHIAN", "addr:state": "VA", "addr:postcode": "23112-3301", "name": "WAWA, STORE # 8625", "phone": "804-674-4381", "website": "https://www.wawa.com/stores/08625/va-midlothian-10135-hull-street-road", "opening_hours": "24/7", "brand": "Wawa"}, "geometry": {"type": "Point", "coordinates": [-77.583035, 37.442133]}},
{"type": "Feature", "id": "nCR23QocYlnwEXpGP_cpWsUfcJE=", "properties": {"ref": "00672", "@spider": "wawa", "addr:full": "7500 MIDLOTHIAN TURNPIKE", "addr:city": "RICHMOND", "addr:state": "VA", "addr:postcode": "23225-5420", "name": "WAWA, STORE # 0672", "phone": "804-675-4880", "website": "https://www.wawa.com/stores/00672/va-richmond-7500-midlothian-turnpike", "opening_hours": "24/7", "brand": "Wawa"}, "geometry": {"type": "Point", "coordinates": [-77.53506, 37.500523]}},
{"type": "Feature", "id": "zquNfTlVn3cCoHvtBo2ooP3k85k=", "properties": {"ref": "00659", "@spider": "wawa", "addr:full": "11021 MIDLOTHIAN TPK", "addr:city": "RICHMOND", "addr:state": "VA", "addr:postcode": "23235-4709", "name": "WAWA, STORE # 0659", "phone": "804-897-4283", "website": "https://www.wawa.com/stores/00659/va-richmond-11021-midlothian-tpk", "opening_hours": "24/7", "brand": "Wawa"}, "geometry": {"type": "Point", "coordinates": [-77.60081, 37.505336]}},
{"type": "Feature", "id": "LcZkab1zmOD1w_w_s1-V6DO5zcY=", "properties": {"ref": "08623", "@spider": "wawa", "addr:full": "150 PIKE VIEW DR", "addr:city": "MIDLOTHIAN", "addr:state": "VA", "addr:postcode": "23113", "name": "WAWA, STORE # 8623", "phone": "804-794-4518", "website": "https://www.wawa.com/stores/08623/va-midlothian-150-pike-view-dr", "opening_hours": "24/7", "brand": "Wawa"}, "geometry": {"type": "Point", "coordinates": [-77.698883, 37.513172]}},
{"type": "Feature", "id": "Tf1HNcH_sdMYetKyMYEhg4ApU2M=", "properties": {"ref": "08600", "@spider": "wawa", "addr:full": "7316 FOREST HILL AVE", "addr:city": "RICHMOND", "addr:state": "VA", "addr:postcode": "23225", "name": "WAWA, STORE # 8600", "phone": "804-560-0365", "website": "https://www.wawa.com/stores/08600/va-richmond-7316-forest-hill-ave", "opening_hours": "24/7", "brand": "Wawa"}, "geometry": {"type": "Point", "coordinates": [-77.53158, 37.537728]}},
{"type": "Feature", "id": "8uo4uOGKmKJnRKoSHshYfePaUNg=", "properties": {"ref": "08648", "@spider": "wawa", "addr:full": "3100 N. ARTHUR ASHE BLVD", "addr:city": "RICHMOND", "addr:state": "VA", "addr:postcode": "23230", "name": "WAWA, STORE # 8648", "phone": "804-362-7442", "website": "https://www.wawa.com/stores/08648/va-richmond-3100-n-arthur-ashe-blvd", "opening_hours": "24/7", "brand": "Wawa"}, "geometry": {"type": "Point", "coordinates": [-77.464054, 37.574222]}},
{"type": "Feature", "id": "IOSot_BpUnPCKi6PMwtM2T6mx70=", "properties": {"ref": "08630", "@spider": "wawa", "addr:full": "2415 STAPLES MILL RD", "addr:city": "RICHMOND", "addr:state": "VA", "addr:postcode": "23230-2510", "name": "WAWA, STORE # 8630", "phone": "804-354-6804", "website": "https://www.wawa.com/stores/08630/va-richmond-2415-staples-mill-rd", "opening_hours": "24/7", "brand": "Wawa"}, "geometry": {"type": "Point", "coordinates": [-77.492698, 37.591706]}},
{"type": "Feature", "id": "qaY2yn8Iq5-lSJl2c8ZZn248jhc=", "properties": {"ref": "08647", "@spider": "wawa", "addr:full": "9100 THREE CHOPT ROAD", "addr:city": "HENRICO", "addr:state": "VA", "addr:postcode": "23229", "name": "WAWA, STORE # 8647", "phone": "804-459-8828", "website": "https://www.wawa.com/stores/08647/va-henrico-9100-three-chopt-road", "opening_hours": "05:00-00:00", "brand": "Wawa"}, "geometry": {"type": "Point", "coordinates": [-77.56387, 37.61227]}},
{"type": "Feature", "id": "9iyULtpn_9AqjBoFXVE4teJXxyY=", "properties": {"ref": "00655", "@spider": "wawa", "addr:full": "5221 BROOK ROAD", "addr:city": "RICHMOND", "addr:state": "VA", "addr:postcode": "23227", "name": "WAWA, STORE # 0655", "phone": "804-266-1031", "website": "https://www.wawa.com/stores/00655/va-richmond-5221-brook-road", "opening_hours": "24/7", "brand": "Wawa"}, "geometry": {"type": "Point", "coordinates": [-77.453998, 37.604618]}},
{"type": "Feature", "id": "jTJdZFCxkDShVzBF9uOYc-aRUe8=", "properties": {"ref": "08603", "@spider": "wawa", "addr:full": "8017 W. BROAD STREET", "addr:city": "HENRICO", "addr:state": "VA", "addr:postcode": "23294", "name": "WAWA, STORE # 8603", "phone": "804-290-4374", "website": "https://www.wawa.com/stores/08603/va-henrico-8017-w-broad-street", "opening_hours": "24/7", "brand": "Wawa"}, "geometry": {"type": "Point", "coordinates": [-77.53161, 37.625114]}},
{"type": "Feature", "id": "mSAMVwbAIKnoGXyBgDI4X67oqy4=", "properties": {"ref": "00682", "@spider": "wawa", "addr:full": "8851 STAPLES MILL ROAD", "addr:city": "HENRICO", "addr:state": "VA", "addr:postcode": "23228-2014", "name": "WAWA, STORE # 0682", "phone": "804-262-7335", "website": "https://www.wawa.com/stores/00682/va-henrico-8851-staples-mill-road", "opening_hours": "24/7", "brand": "Wawa"}, "geometry": {"type": "Point", "coordinates": [-77.50858, 37.635361]}},
{"type": "Feature", "id": "sfZSFk4xmrHAoTYdlaG5yp2VTvY=", "properties": {"ref": "08615", "@spider": "wawa", "addr:full": "11052 WEST BROAD STREET", "addr:city": "RICHMOND", "addr:state": "VA", "addr:postcode": "23220", "name": "WAWA, STORE # 8615", "phone": "804-527-8302", "website": "https://www.wawa.com/stores/08615/va-richmond-11052-west-broad-street", "opening_hours": "24/7", "brand": "Wawa"}, "geometry": {"type": "Point", "coordinates": [-77.59022, 37.64838]}},
{"type": "Feature", "id": "ATo7d7krSrkaUeub2WJxeMCBLho=", "properties": {"ref": "00677", "@spider": "wawa", "addr:full": "8800 BROOK ROAD", "addr:city": "GLEN ALLEN", "addr:state": "VA", "addr:postcode": "23060", "name": "WAWA, STORE # 0677", "phone": "804-264-4698", "website": "https://www.wawa.com/stores/00677/va-glen-allen-8800-brook-road", "opening_hours": "24/7", "brand": "Wawa"}, "geometry": {"type": "Point", "coordinates": [-77.461139, 37.642978]}},
{"type": "Feature", "id": "ZWg4xwMdFawdnhqrnf_Dal25Tiw=", "properties": {"ref": "00696", "@spider": "wawa", "addr:full": "12564 BROAD STREET", "addr:city": "HENRICO", "addr:state": "VA", "addr:postcode": "23233-7300", "name": "WAWA, STORE # 0696", "phone": "804-360-2119", "website": "https://www.wawa.com/stores/00696/va-henrico-12564-broad-street", "opening_hours": "24/7", "brand": "Wawa"}, "geometry": {"type": "Point", "coordinates": [-77.64978, 37.663798]}},
{"type": "Feature", "id": "qwcfrs6UowMM008kHJf8j_wrvtM=", "properties": {"ref": "08602", "@spider": "wawa", "addr:full": "9179 CHAMBERLAYNE ROAD", "addr:city": "MECHANICSVILLE", "addr:state": "VA", "addr:postcode": "23116", "name": "WAWA, STORE # 8602", "phone": "804-746-4052", "website": "https://www.wawa.com/stores/08602/va-mechanicsville-9179-chamberlayne-road", "opening_hours": "24/7", "brand": "Wawa"}, "geometry": {"type": "Point", "coordinates": [-77.404251, 37.649469]}},
{"type": "Feature", "id": "qeDtqU24lutjwFwTDrq3WZLbL1Y=", "properties": {"ref": "08607", "@spider": "wawa", "addr:full": "10373 SLIDING HILL ROAD", "addr:city": "ASHLAND", "addr:state": "VA", "addr:postcode": "23005", "name": "WAWA, STORE # 8607", "phone": "804-550-2970", "website": "https://www.wawa.com/stores/08607/va-ashland-10373-sliding-hill-road", "opening_hours": "24/7", "brand": "Wawa"}, "geometry": {"type": "Point", "coordinates": [-77.460297, 37.68628]}},
{"type": "Feature", "id": "CyvwDlJB8qDeoWt68doNJRasD1Q=", "properties": {"ref": "08652", "@spider": "wawa", "addr:full": "100 NORTH WASHINGTON HWY", "addr:city": "ASHLAND", "addr:state": "VA", "addr:postcode": "23005", "name": "WAWA, STORE # 8652", "phone": "804-412-8088", "website": "https://www.wawa.com/stores/08652/va-ashland-100-north-washington-hwy", "opening_hours": "24/7", "brand": "Wawa"}, "geometry": {"type": "Point", "coordinates": [-77.47165, 37.75859]}},
{"type": "Feature", "id": "IMNkL3M3S48NHQUZk2cTgoHzu6s=", "properties": {"ref": "08617", "@spider": "wawa", "addr:full": "10060 JEFFERSON DAVIS HIGHWAY", "addr:city": "FREDERICKSBURG", "addr:state": "VA", "addr:postcode": "22407", "name": "WAWA, STORE # 8617", "phone": "540-710-7970", "website": "https://www.wawa.com/stores/08617/va-fredericksburg-10060-jefferson-davis-highway", "opening_hours": "24/7", "brand": "Wawa"}, "geometry": {"type": "Point", "coordinates": [-77.50693, 38.225972]}},
{"type": "Feature", "id": "9IDtqdDr2Dml6Bbh_JwmU_uTcO4=", "properties": {"ref": "00663", "@spider": "wawa", "addr:full": "10626-1063 COURTHOUSE ROAD", "addr:city": "FREDERICKSBURG", "addr:state": "VA", "addr:postcode": "22407-1602", "name": "WAWA, STORE # 0663", "phone": "540-898-4278", "website": "https://www.wawa.com/stores/00663/va-fredericksburg-10626-1063-courthouse-road", "opening_hours": "24/7", "brand": "Wawa"}, "geometry": {"type": "Point", "coordinates": [-77.5151, 38.247741]}},
{"type": "Feature", "id": "GXZphzcmyqy8fcYwMZkgIxuuvy0=", "properties": {"ref": "00583", "@spider": "wawa", "addr:full": "27605 THREE NOTCH RD.", "addr:city": "MECHANICSVILLE", "addr:state": "MD", "addr:postcode": "20659-3374", "name": "WAWA, STORE # 0583", "phone": "301-818-0450", "website": "https://www.wawa.com/stores/00583/md-mechanicsville-27605-three-notch-rd", "opening_hours": "24/7", "brand": "Wawa"}, "geometry": {"type": "Point", "coordinates": [-76.71574, 38.426744]}},
{"type": "Feature", "id": "B_-t-Hdf3eNljvCt1ZF9BrgqnlI=", "properties": {"ref": "00591", "@spider": "wawa", "addr:full": "305 MARKET SQUARE DRIVE", "addr:city": "PRINCE FREDERICK", "addr:state": "MD", "addr:postcode": "20678", "name": "WAWA, STORE # 0591", "phone": "410-414-7247", "website": "https://www.wawa.com/stores/00591/md-prince-frederick-305-market-square-drive", "opening_hours": "24/7", "brand": "Wawa"}, "geometry": {"type": "Point", "coordinates": [-76.59899, 38.557041]}},
{"type": "Feature", "id": "51EN9Pj7a-tubAO40IIeGzM2NvE=", "properties": {"ref": "00588", "@spider": "wawa", "addr:full": "30320 THREE NOTCH ROAD", "addr:city": "CHARLOTTE HALL", "addr:state": "MD", "addr:postcode": "20622-3189", "name": "WAWA, STORE # 0588", "phone": "301-290-5971", "website": "https://www.wawa.com/stores/00588/md-charlotte-hall-30320-three-notch-road", "opening_hours": "24/7", "brand": "Wawa"}, "geometry": {"type": "Point", "coordinates": [-76.773898, 38.501543]}},
{"type": "Feature", "id": "g9sN-01cmUpjBcO7SGoxi6SXt0A=", "properties": {"ref": "00573", "@spider": "wawa", "addr:full": "10205 KIRKSVILLE LANE", "addr:city": "DUNKIRK", "addr:state": "MD", "addr:postcode": "20754", "name": "WAWA, STORE # 0573", "phone": "410-286-7235", "website": "https://www.wawa.com/stores/00573/md-dunkirk-10205-kirksville-lane", "opening_hours": "24/7", "brand": "Wawa"}, "geometry": {"type": "Point", "coordinates": [-76.661045, 38.717591]}},
{"type": "Feature", "id": "RbLAkvAu2TKIhkusfFNzNuLY2ig=", "properties": {"ref": "00568", "@spider": "wawa", "addr:full": "4210 CRAIN HWY (@ BILLINGSLEY)", "addr:city": "WHITE PLAINS", "addr:state": "MD", "addr:postcode": "20695-3000", "name": "WAWA, STORE # 0568", "phone": "301-645-0831", "website": "https://www.wawa.com/stores/00568/md-white-plains-4210-crain-hwy-(@-billingsley)", "opening_hours": "24/7", "brand": "Wawa"}, "geometry": {"type": "Point", "coordinates": [-76.937156, 38.595198]}},
{"type": "Feature", "id": "ikYJs0sYRnzOm9D6ZBwcy-K-qg0=", "properties": {"ref": "00584", "@spider": "wawa", "addr:full": "5955 CRAIN HWY.", "addr:city": "LA PLATA", "addr:state": "MD", "addr:postcode": "20646-4264", "name": "WAWA, STORE # 0584", "phone": "301-609-7295", "website": "https://www.wawa.com/stores/00584/md-la-plata-5955-crain-hwy", "opening_hours": "24/7", "brand": "Wawa"}, "geometry": {"type": "Point", "coordinates": [-76.98655, 38.548741]}},
{"type": "Feature", "id": "S3cbVaGiXQdPwB9KbW_V5c5gk-E=", "properties": {"ref": "00565", "@spider": "wawa", "addr:full": "11505 BERRY ROAD", "addr:city": "WALDORF", "addr:state": "MD", "addr:postcode": "20603", "name": "WAWA, STORE # 0565", "phone": "301-363-7010", "website": "https://www.wawa.com/stores/00565/md-waldorf-11505-berry-road", "opening_hours": "24/7", "brand": "Wawa"}, "geometry": {"type": "Point", "coordinates": [-76.91908, 38.629589]}},
{"type": "Feature", "id": "dZCZUxjBry6UUC2ZfCwmV1srmKA=", "properties": {"ref": "00580", "@spider": "wawa", "addr:full": "16410 MCKENDREE RD.", "addr:city": "BRANDYWINE", "addr:state": "MD", "addr:postcode": "20613-8063", "name": "WAWA, STORE # 0580", "phone": "301-782-7432", "website": "https://www.wawa.com/stores/00580/md-brandywine-16410-mckendree-rd", "opening_hours": "24/7", "brand": "Wawa"}, "geometry": {"type": "Point", "coordinates": [-76.875845, 38.664594]}},
{"type": "Feature", "id": "tN5k1pBbtf6H67sxQiJNhHr64HQ=", "properties": {"ref": "00669", "@spider": "wawa", "addr:full": "5362 JAMES MADISON HIGHWAY", "addr:city": "KING GEORGE", "addr:state": "VA", "addr:postcode": "22485-5355", "name": "WAWA, STORE # 0669", "phone": "540-644-8045", "website": "https://www.wawa.com/stores/00669/va-king-george-5362-james-madison-highway", "opening_hours": "24/7", "brand": "Wawa"}, "geometry": {"type": "Point", "coordinates": [-77.07762, 38.339674]}},
{"type": "Feature", "id": "36lHFH6Drh6nNqRabjyjaoefW84=", "properties": {"ref": "08514", "@spider": "wawa", "addr:full": "6101 ALLENTOWN ROAD", "addr:city": "SUITLAND", "addr:state": "MD", "addr:postcode": "20746", "name": "WAWA, STORE # 8514", "phone": "(240) 673-3133", "website": "https://www.wawa.com/stores/08514/md-suitland-6101-allentown-road", "opening_hours": "24/7", "brand": "Wawa"}, "geometry": {"type": "Point", "coordinates": [-76.904315, 38.8071]}},
{"type": "Feature", "id": "9pfQisQYrCJm5rxWqdLvjjcYKfQ=", "properties": {"ref": "00562", "@spider": "wawa", "addr:full": "163 SOUTHEAST CRAIN HIGHWAY", "addr:city": "UPPER MARLBORO", "addr:state": "MD", "addr:postcode": "20774-8804", "name": "WAWA, STORE # 0562", "phone": "301-218-3154", "website": "https://www.wawa.com/stores/00562/md-upper-marlboro-163-southeast-crain-highway", "opening_hours": "24/7", "brand": "Wawa"}, "geometry": {"type": "Point", "coordinates": [-76.720142, 38.889121]}},
{"type": "Feature", "id": "mFMDr_ZF-nhnm-BU2pzkY6hQCAw=", "properties": {"ref": "00577", "@spider": "wawa", "addr:full": "3166 SOLOMONS ISLAND RD.", "addr:city": "EDGEWATER", "addr:state": "MD", "addr:postcode": "21037", "name": "WAWA, STORE # 0577", "phone": "410-956-7003", "website": "https://www.wawa.com/stores/00577/md-edgewater-3166-solomons-island-rd", "opening_hours": "24/7", "brand": "Wawa"}, "geometry": {"type": "Point", "coordinates": [-76.567951, 38.935887]}},
{"type": "Feature", "id": "C2qJ3Ar_DPdUvZc27JnbesLccNU=", "properties": {"ref": "00597", "@spider": "wawa", "addr:full": "1401 HAMPTON PARK BLVD", "addr:city": "CAPITOL HEIGHTS", "addr:state": "MD", "addr:postcode": "20743", "name": "WAWA, STORE # 0597", "phone": "301-336-1704", "website": "https://www.wawa.com/stores/00597/md-capitol-heights-1401-hampton-park-blvd", "opening_hours": "24/7", "brand": "Wawa"}, "geometry": {"type": "Point", "coordinates": [-76.850792, 38.870096]}},
{"type": "Feature", "id": "JcOKkzOFSNFWxwbNCqSNZ-O72rI=", "properties": {"ref": "00549", "@spider": "wawa", "addr:full": "628 ADMIRAL DRIVE", "addr:city": "ANNAPOLIS", "addr:state": "MD", "addr:postcode": "21401-2151", "name": "WAWA, STORE # 0549", "phone": "410-974-6436", "website": "https://www.wawa.com/stores/00549/md-annapolis-628-admiral-drive", "opening_hours": "24/7", "brand": "Wawa"}, "geometry": {"type": "Point", "coordinates": [-76.53262, 38.994748]}},
{"type": "Feature", "id": "i_n3dVxe-AddDUp-V2_bBDyg0uw=", "properties": {"ref": "08518", "@spider": "wawa", "addr:full": "101 HISSEY ROAD", "addr:city": "GRASONVILLE", "addr:state": "MD", "addr:postcode": "21638", "name": "WAWA, STORE # 8518", "phone": "443-390-2460", "website": "https://www.wawa.com/stores/08518/md-grasonville-101-hissey-road", "opening_hours": "24/7", "brand": "Wawa"}, "geometry": {"type": "Point", "coordinates": [-76.193185, 38.965518]}},
{"type": "Feature", "id": "ii0EazPamlsAinEVGa94GH1w8JM=", "properties": {"ref": "00662", "@spider": "wawa", "addr:full": "2051 DANIEL STUART SQUARE", "addr:city": "WOODBRIDGE", "addr:state": "VA", "addr:postcode": "22191", "name": "WAWA, STORE # 0662", "phone": "703-492-9858", "website": "https://www.wawa.com/stores/00662/va-woodbridge-2051-daniel-stuart-square", "opening_hours": "24/7", "brand": "Wawa"}, "geometry": {"type": "Point", "coordinates": [-77.27556, 38.632871]}},
{"type": "Feature", "id": "wFi82jMITVey8ziFenDD1i4m5dk=", "properties": {"ref": "00680", "@spider": "wawa", "addr:full": "15809 JEFFERSON DAVIS HIGHWAY", "addr:city": "WOODBRIDGE", "addr:state": "VA", "addr:postcode": "22191-4222", "name": "WAWA, STORE # 0680", "phone": "703-583-3558", "website": "https://www.wawa.com/stores/00680/va-woodbridge-15809-jefferson-davis-highway", "opening_hours": "24/7", "brand": "Wawa"}, "geometry": {"type": "Point", "coordinates": [-77.29007, 38.60908]}},
{"type": "Feature", "id": "evpkmv8Z8NwViHCq1Pj5Z-a3Ff4=", "properties": {"ref": "00569", "@spider": "wawa", "addr:full": "321 BUSCHS FRONTAGE ROAD", "addr:city": "ANNAPOLIS", "addr:state": "MD", "addr:postcode": "21401", "name": "WAWA, STORE # 0569", "phone": "410-757-2328", "website": "https://www.wawa.com/stores/00569/md-annapolis-321-buschs-frontage-road", "opening_hours": "24/7", "brand": "Wawa"}, "geometry": {"type": "Point", "coordinates": [-76.45624, 39.026841]}},
{"type": "Feature", "id": "NB5acVsCjnRWNrBCoJ_tv4rZRso=", "properties": {"ref": "06008", "@spider": "wawa", "addr:full": "1250 H STREET NW", "addr:city": "WASHINGTON", "addr:state": "DC", "addr:postcode": "20005", "name": "WAWA, STORE # 6008", "phone": "202-552-5524", "website": "https://www.wawa.com/stores/06008/dc-washington-1250-h-street-nw", "opening_hours": "24/7", "brand": "Wawa"}, "geometry": {"type": "Point", "coordinates": [-77.029591, 38.8997896]}},
{"type": "Feature", "id": "2h-2V7qmO1LipWtYsEFwBHKoIb8=", "properties": {"ref": "06007", "@spider": "wawa", "addr:full": "1 THOMAS CIRCLE NW", "addr:city": "WASHINGTON", "addr:state": "DC", "addr:postcode": "20005", "name": "WAWA, STORE # 6007", "phone": "202-916-8884", "website": "https://www.wawa.com/stores/06007/dc-washington-1-thomas-circle-nw", "opening_hours": "24/7", "brand": "Wawa"}, "geometry": {"type": "Point", "coordinates": [-77.03234581, 38.90533451]}},
{"type": "Feature", "id": "utMwI2RpqhMYMDR0EFNGVOMdaX0=", "properties": {"ref": "00661", "@spider": "wawa", "addr:full": "13355 MINNEVILLE ROAD", "addr:city": "WOODBRIDGE", "addr:state": "VA", "addr:postcode": "22192", "name": "WAWA, STORE # 0661", "phone": "703-492-9984", "website": "https://www.wawa.com/stores/00661/va-woodbridge-13355-minneville-road", "opening_hours": "24/7", "brand": "Wawa"}, "geometry": {"type": "Point", "coordinates": [-77.29983, 38.658928]}},
{"type": "Feature", "id": "e2z5DbjMoM2YrK8-KSyMTe4x2aM=", "properties": {"ref": "06001", "@spider": "wawa", "addr:full": "1111 19TH ST NW", "addr:city": "WASHINGTON", "addr:state": "DC", "addr:postcode": "20036", "name": "WAWA, STORE # 6001", "phone": "202-470-1816", "website": "https://www.wawa.com/stores/06001/dc-washington-1111-19th-st-nw", "opening_hours": "24/7", "brand": "Wawa"}, "geometry": {"type": "Point", "coordinates": [-77.0432319, 38.9044036]}},
{"type": "Feature", "id": "a6ys2hj6TA1nVyjob3YoCXhJwn8=", "properties": {"ref": "00665", "@spider": "wawa", "addr:full": "72 AUSTIN PARK DRIVE", "addr:city": "STAFFORD", "addr:state": "VA", "addr:postcode": "22554-8461", "name": "WAWA, STORE # 0665", "phone": "540-288-0655", "website": "https://www.wawa.com/stores/00665/va-stafford-72-austin-park-drive", "opening_hours": "24/7", "brand": "Wawa"}, "geometry": {"type": "Point", "coordinates": [-77.40386, 38.449699]}},
{"type": "Feature", "id": "HcpqyzHIVLkHmGAe7Wm2lGOfjCQ=", "properties": {"ref": "06003", "@spider": "wawa", "addr:full": "1222 WISCONSIN AVENUE", "addr:city": "WASHINGTON", "addr:state": "DC", "addr:postcode": "20007", "name": "WAWA, STORE # 6003", "phone": "202-559-2717", "website": "https://www.wawa.com/stores/06003/dc-washington-1222-wisconsin-avenue", "opening_hours": "24/7", "brand": "Wawa"}, "geometry": {"type": "Point", "coordinates": [-77.063023, 38.905979]}},
{"type": "Feature", "id": "uhAcL_ShbNxg4-A6smiGp7yc02E=", "properties": {"ref": "06005", "@spider": "wawa", "addr:full": "1400 IRVING STREET NW", "addr:city": "WASHINGTON", "addr:state": "DC", "addr:postcode": "20010", "name": "WAWA, STORE # 6005", "phone": "202-470-0238", "website": "https://www.wawa.com/stores/06005/dc-washington-1400-irving-street-nw", "opening_hours": "24/7", "brand": "Wawa"}, "geometry": {"type": "Point", "coordinates": [-77.03269453, 38.92876968]}},
{"type": "Feature", "id": "q5XHag0bzTJiuy5BzZRJo2xMnjI=", "properties": {"ref": "00595", "@spider": "wawa", "addr:full": "701 ANNAPOLIS RD", "addr:city": "GAMBRILLS", "addr:state": "MD", "addr:postcode": "21054-1309", "name": "WAWA, STORE # 0595", "phone": "410-923-5240", "website": "https://www.wawa.com/stores/00595/md-gambrills-701-annapolis-rd", "opening_hours": "24/7", "brand": "Wawa"}, "geometry": {"type": "Point", "coordinates": [-76.656624, 39.056566]}},
{"type": "Feature", "id": "EoteaDjrFHxBFa9IxGwYL2gZkRA=", "properties": {"ref": "00697", "@spider": "wawa", "addr:full": "105 GARRISONVILLE ROAD", "addr:city": "STAFFORD", "addr:state": "VA", "addr:postcode": "22554-1523", "name": "WAWA, STORE # 0697", "phone": "540-659-8672", "website": "https://www.wawa.com/stores/00697/va-stafford-105-garrisonville-road", "opening_hours": "24/7", "brand": "Wawa"}, "geometry": {"type": "Point", "coordinates": [-77.41198, 38.467169]}},
{"type": "Feature", "id": "1ZfnbQ-t15-avYHKDyhU63B1xmk=", "properties": {"ref": "00688", "@spider": "wawa", "addr:full": "275 BUTLER ROAD", "addr:city": "FREDERICKSBURG", "addr:state": "VA", "addr:postcode": "22405-2438", "name": "WAWA, STORE # 0688", "phone": "540-899-2796", "website": "https://www.wawa.com/stores/00688/va-fredericksburg-275-butler-road", "opening_hours": "24/7", "brand": "Wawa"}, "geometry": {"type": "Point", "coordinates": [-77.45028, 38.31648]}},
{"type": "Feature", "id": "Ja7mrCGzDNTl8e5A_hMGYtN_DHg=", "properties": {"ref": "00658", "@spider": "wawa", "addr:full": "3402 SHANNON PARK DR", "addr:city": "FREDERICKSBURG", "addr:state": "VA", "addr:postcode": "22408-2373", "name": "WAWA, STORE # 0658", "phone": "540-368-3924", "website": "https://www.wawa.com/stores/00658/va-fredericksburg-3402-shannon-park-dr", "opening_hours": "24/7", "brand": "Wawa"}, "geometry": {"type": "Point", "coordinates": [-77.44803, 38.271146]}},
{"type": "Feature", "id": "aojOVNUnq9P70IdU0uZAwypLl_E=", "properties": {"ref": "00689", "@spider": "wawa", "addr:full": "15 EUSTACE ROAD", "addr:city": "STAFFORD", "addr:state": "VA", "addr:postcode": "22554-3717", "name": "WAWA, STORE # 0689", "phone": "540-288-2057", "website": "https://www.wawa.com/stores/00689/va-stafford-15-eustace-road", "opening_hours": "24/7", "brand": "Wawa"}, "geometry": {"type": "Point", "coordinates": [-77.43589, 38.473164]}},
{"type": "Feature", "id": "bw1zGIuLVSPcd9VWsw7h8slt_x4=", "properties": {"ref": "06004", "@spider": "wawa", "addr:full": "4530 40TH STREET NW A", "addr:city": "WASHINGTON", "addr:state": "DC", "addr:postcode": "20016", "name": "WAWA, STORE # 6004", "phone": "202-558-0404", "website": "https://www.wawa.com/stores/06004/dc-washington-4530-40th-street-nw-a", "opening_hours": "24/7", "brand": "Wawa"}, "geometry": {"type": "Point", "coordinates": [-77.07896, 38.948237]}},
{"type": "Feature", "id": "ve3xUIlriuEzjKmELS3wemmzFOw=", "properties": {"ref": "00593", "@spider": "wawa", "addr:full": "10515 BALTIMORE AVENUE", "addr:city": "BELTSVILLE", "addr:state": "MD", "addr:postcode": "20705", "name": "WAWA, STORE # 0593", "phone": "301-595-2013", "website": "https://www.wawa.com/stores/00593/md-beltsville-10515-baltimore-avenue", "opening_hours": "24/7", "brand": "Wawa"}, "geometry": {"type": "Point", "coordinates": [-76.917086, 39.02737]}},
{"type": "Feature", "id": "FdNa5WLTMjwjN_pd28R2CBBDXbM=", "properties": {"ref": "00572", "@spider": "wawa", "addr:full": "8300 VETERANS HWY", "addr:city": "MILLERSVILLE", "addr:state": "MD", "addr:postcode": "21108-1409", "name": "WAWA, STORE # 0572", "phone": "410-729-9991", "website": "https://www.wawa.com/stores/00572/md-millersville-8300-veterans-hwy", "opening_hours": "24/7", "brand": "Wawa"}, "geometry": {"type": "Point", "coordinates": [-76.63172, 39.110618]}},
{"type": "Feature", "id": "7-1Qzheho8GrRMYxy6dmNYqMT2w=", "properties": {"ref": "08627", "@spider": "wawa", "addr:full": "9 SOUTH GATEWAY DR", "addr:city": "FREDERICKSBURG", "addr:state": "VA", "addr:postcode": "22406", "name": "WAWA, STORE # 8627", "phone": "540-300-6047", "website": "https://www.wawa.com/stores/08627/va-fredericksburg-9-south-gateway-dr", "opening_hours": "24/7", "brand": "Wawa"}, "geometry": {"type": "Point", "coordinates": [-77.496258, 38.343527]}},
{"type": "Feature", "id": "aIWqofAyRr_cQuK9u3tTWgxBWKM=", "properties": {"ref": "00653", "@spider": "wawa", "addr:full": "4625 HARRISON ROAD", "addr:city": "FREDERICKSBURG", "addr:state": "VA", "addr:postcode": "22408-1838", "name": "WAWA, STORE # 0653", "phone": "540-898-3701", "website": "https://www.wawa.com/stores/00653/va-fredericksburg-4625-harrison-road", "opening_hours": "24/7", "brand": "Wawa"}, "geometry": {"type": "Point", "coordinates": [-77.4941, 38.264408]}},
{"type": "Feature", "id": "RKwgSA-AUsJbqyh02eNW5GS8Jc0=", "properties": {"ref": "00691", "@spider": "wawa", "addr:full": "199 FALCON DRIVE", "addr:city": "FREDERICKSBURG", "addr:state": "VA", "addr:postcode": "22408-1930", "name": "WAWA, STORE # 0691", "phone": "540-834-2025", "website": "https://www.wawa.com/stores/00691/va-fredericksburg-199-falcon-drive", "opening_hours": "24/7", "brand": "Wawa"}, "geometry": {"type": "Point", "coordinates": [-77.493122, 38.249665]}},
{"type": "Feature", "id": "rGGVuyTqBIdwiQbGUEqXYtqiXRI=", "properties": {"ref": "00667", "@spider": "wawa", "addr:full": "2390 PLANK ROAD", "addr:city": "FREDERICKSBURG", "addr:state": "VA", "addr:postcode": "22401", "name": "WAWA, STORE # 0667", "phone": "540-899-2043", "website": "https://www.wawa.com/stores/00667/va-fredericksburg-2390-plank-road", "opening_hours": "24/7", "brand": "Wawa"}, "geometry": {"type": "Point", "coordinates": [-77.50027, 38.295644]}},
{"type": "Feature", "id": "0-JHeURDPLKz7LncH4p-QXyCHmY=", "properties": {"ref": "00668", "@spider": "wawa", "addr:full": "830 WARRENTON ROAD", "addr:city": "FREDERICKSBURG", "addr:state": "VA", "addr:postcode": "22406-1072", "name": "WAWA, STORE # 0668", "phone": "540-373-0571", "website": "https://www.wawa.com/stores/00668/va-fredericksburg-830-warrenton-road", "opening_hours": "24/7", "brand": "Wawa"}, "geometry": {"type": "Point", "coordinates": [-77.51019, 38.355726]}},
{"type": "Feature", "id": "_49tWriDNklYMclVZYbAHyB6n08=", "properties": {"ref": "00660", "@spider": "wawa", "addr:full": "1140 CARL D. SILVER PARKWAY", "addr:city": "FREDERICKSBURG", "addr:state": "VA", "addr:postcode": "22401", "name": "WAWA, STORE # 0660", "phone": "540-785-3438", "website": "https://www.wawa.com/stores/00660/va-fredericksburg-1140-carl-d-silver-parkway", "opening_hours": "24/7", "brand": "Wawa"}, "geometry": {"type": "Point", "coordinates": [-77.51373, 38.297254]}},
{"type": "Feature", "id": "tAF_-j4t6PvaL4YybYVJzpWtmCE=", "properties": {"ref": "00664", "@spider": "wawa", "addr:full": "4527 PLANK ROAD RTE 3", "addr:city": "FREDERICKSBURG", "addr:state": "VA", "addr:postcode": "22407-4811", "name": "WAWA, STORE # 0664", "phone": "540-785-5535", "website": "https://www.wawa.com/stores/00664/va-fredericksburg-4527-plank-road-rte-3", "opening_hours": "24/7", "brand": "Wawa"}, "geometry": {"type": "Point", "coordinates": [-77.53807, 38.289956]}},
{"type": "Feature", "id": "RD-a2sf4IyI2P5ffecw8Klf8lq4=", "properties": {"ref": "08637", "@spider": "wawa", "addr:full": "11111 NOKESVILLE RD", "addr:city": "MANASSAS", "addr:state": "VA", "addr:postcode": "20112", "name": "WAWA, STORE # 8637", "phone": "703-257-1630", "website": "https://www.wawa.com/stores/08637/va-manassas-11111-nokesville-rd", "opening_hours": "24/7", "brand": "Wawa"}, "geometry": {"type": "Point", "coordinates": [-77.532174, 38.737121]}},
{"type": "Feature", "id": "AQw_40ajCS4kjH0G6cRwi2xLblY=", "properties": {"ref": "08622", "@spider": "wawa", "addr:full": "510 FROST AVENUE", "addr:city": "WARRENTON", "addr:state": "VA", "addr:postcode": "20186", "name": "WAWA, STORE # 8622", "phone": "540-349-8999", "website": "https://www.wawa.com/stores/08622/va-warrenton-510-frost-avenue", "opening_hours": "24/7", "brand": "Wawa"}, "geometry": {"type": "Point", "coordinates": [-77.808854, 38.716614]}},
{"type": "Feature", "id": "geYR2zfgiKUp1ImY_6rKtEeVcX4=", "properties": {"ref": "08644", "@spider": "wawa", "addr:full": "9471 LIBERIA AVE", "addr:city": "MANASSAS", "addr:state": "VA", "addr:postcode": "20110", "name": "WAWA, STORE # 8644", "phone": "571-363-3039", "website": "https://www.wawa.com/stores/08644/va-manassas-9471-liberia-ave", "opening_hours": "24/7", "brand": "Wawa"}, "geometry": {"type": "Point", "coordinates": [-77.44889, 38.75053]}},
{"type": "Feature", "id": "WNqaIy-xE-8PawRLsgIfnH99zoA=", "properties": {"ref": "00651", "@spider": "wawa", "addr:full": "14461 LEE HWY.", "addr:city": "GAINESVILLE", "addr:state": "VA", "addr:postcode": "20155", "name": "WAWA, STORE # 0651", "phone": "571-261-4089", "website": "https://www.wawa.com/stores/00651/va-gainesville-14461-lee-hwy", "opening_hours": "24/7", "brand": "Wawa"}, "geometry": {"type": "Point", "coordinates": [-77.62237, 38.792423]}},
{"type": "Feature", "id": "xLp4rSZbG6cY2OcqobjFQs3R2yQ=", "properties": {"ref": "08658", "@spider": "wawa", "addr:full": "10691 DAVIDSON PLACE", "addr:city": "MANASSAS", "addr:state": "VA", "addr:postcode": "20109", "name": "WAWA, STORE # 8658", "phone": "571-292-3396", "website": "https://www.wawa.com/stores/08658/va-manassas-10691-davidson-place", "opening_hours": "24/7", "brand": "Wawa"}, "geometry": {"type": "Point", "coordinates": [-77.515527, 38.79332]}},
{"type": "Feature", "id": "T0YMoA18GCvysn8tu1l0sIFS004=", "properties": {"ref": "08639", "@spider": "wawa", "addr:full": "3450 HISTORIC SULLY WAY", "addr:city": "CHANTILLY", "addr:state": "VA", "addr:postcode": "20151-3037", "name": "WAWA, STORE # 8639", "phone": "703-689-8917", "website": "https://www.wawa.com/stores/08639/va-chantilly-3450-historic-sully-way", "opening_hours": "24/7", "brand": "Wawa"}, "geometry": {"type": "Point", "coordinates": [-77.4266, 38.91455]}},
{"type": "Feature", "id": "6ljXuWw9wjNNT0iSfOTlIzb7Jws=", "properties": {"ref": "08669", "@spider": "wawa", "addr:full": "465 MAPLE AVE W.", "addr:city": "VIENNA", "addr:state": "VA", "addr:postcode": "22180", "name": "WAWA, STORE # 8669", "phone": "703-559-7944", "website": "https://www.wawa.com/stores/08669/va-vienna-465-maple-ave-w", "opening_hours": "24/7", "brand": "Wawa"}, "geometry": {"type": "Point", "coordinates": [-77.273923, 38.894901]}},
{"type": "Feature", "id": "cMFwPig-ktX7jSX-GryFt7dP9KA=", "properties": {"ref": "08640", "@spider": "wawa", "addr:full": "23055 OAKGROVE ROAD", "addr:city": "STERLING", "addr:state": "VA", "addr:postcode": "20166", "name": "WAWA, STORE # 8640", "phone": "571-441-2622", "website": "https://www.wawa.com/stores/08640/va-sterling-23055-oakgrove-road", "opening_hours": "24/7", "brand": "Wawa"}, "geometry": {"type": "Point", "coordinates": [-77.411535, 38.977994]}},
{"type": "Feature", "id": "uf0chILKSAxOccLrrvbW11ecJ6E=", "properties": {"ref": "08659", "@spider": "wawa", "addr:full": "3267 PROFFIT RD", "addr:city": "CHARLOTTESVILLE", "addr:state": "VA", "addr:postcode": "22911", "name": "WAWA, STORE # 8659", "phone": "434-260-0074", "website": "https://www.wawa.com/stores/08659/va-charlottesville-3267-proffit-rd", "opening_hours": "24/7", "brand": "Wawa"}, "geometry": {"type": "Point", "coordinates": [-78.434994, 38.1323303]}},
{"type": "Feature", "id": "IsHkS7yN9Fqt_ZhfxRD9nIhGHVs=", "properties": {"ref": "05199", "@spider": "wawa", "addr:full": "2325 E. FLETCHER AVE", "addr:city": "TAMPA", "addr:state": "FL", "addr:postcode": "33612", "name": "WAWA, STORE # 5199", "phone": "813-977-7493", "website": "https://www.wawa.com/stores/05199/fl-tampa-2325-e-fletcher-ave", "opening_hours": "24/7", "brand": "Wawa"}, "geometry": {"type": "Point", "coordinates": [-82.4306, 28.06924]}},
{"type": "Feature", "id": "FD89XeBVFBTrKVN9MS2PLAMJbtg=", "properties": {"ref": "05107", "@spider": "wawa", "addr:full": "2901 E FOWLER AVE", "addr:city": "TAMPA", "addr:state": "FL", "addr:postcode": "33612-6278", "name": "WAWA, STORE # 5107", "phone": "813-971-5434", "website": "https://www.wawa.com/stores/05107/fl-tampa-2901-e-fowler-ave", "opening_hours": "24/7", "brand": "Wawa"}, "geometry": {"type": "Point", "coordinates": [-82.4268815, 28.0532971]}},
{"type": "Feature", "id": "FhcKL2ZNQna_IxijJ1230SN3mqs=", "properties": {"ref": "05154", "@spider": "wawa", "addr:full": "804 E. BEARS AVE", "addr:city": "TAMPA", "addr:state": "FL", "addr:postcode": "33613", "name": "WAWA, STORE # 5154", "phone": "813-631-5131", "website": "https://www.wawa.com/stores/05154/fl-tampa-804-e-bears-ave", "opening_hours": "24/7", "brand": "Wawa"}, "geometry": {"type": "Point", "coordinates": [-82.4521834, 28.0888521]}},
{"type": "Feature", "id": "BHzIJSidOdGcoLVOp4IHwT58yMI=", "properties": {"ref": "05319", "@spider": "wawa", "addr:full": "5011 E BUSCH BLVD", "addr:city": "TAMPA", "addr:state": "FL", "addr:postcode": "33617", "name": "WAWA, STORE # 5319", "phone": "813-524-5378", "website": "https://www.wawa.com/stores/05319/fl-tampa-5011-e-busch-blvd", "opening_hours": "24/7", "brand": "Wawa"}, "geometry": {"type": "Point", "coordinates": [-82.400734, 28.032067]}},
{"type": "Feature", "id": "QClWgBjz6fmHhy8lpCnE7mWHOV4=", "properties": {"ref": "05196", "@spider": "wawa", "addr:full": "8325 N FLORIDA AVE", "addr:city": "TAMPA", "addr:state": "FL", "addr:postcode": "33604-3005", "name": "WAWA, STORE # 5196", "phone": "813-867-2100", "website": "https://www.wawa.com/stores/05196/fl-tampa-8325-n-florida-ave", "opening_hours": "24/7", "brand": "Wawa"}, "geometry": {"type": "Point", "coordinates": [-82.45881, 28.0248]}},
{"type": "Feature", "id": "8Lgm_tc7y7EiI1B3Gb8BRpgVMX4=", "properties": {"ref": "05191", "@spider": "wawa", "addr:full": "15524 N. DALE MABRY HIGHWAY", "addr:city": "TAMPA", "addr:state": "FL", "addr:postcode": "33618", "name": "WAWA, STORE # 5191", "phone": "727-400-3988", "website": "https://www.wawa.com/stores/05191/fl-tampa-15524-n-dale-mabry-highway", "opening_hours": "24/7", "brand": "Wawa"}, "geometry": {"type": "Point", "coordinates": [-82.50318, 28.093287]}},
{"type": "Feature", "id": "XMT2cKQpXNngdsgh2dxIT6GuDNo=", "properties": {"ref": "05251", "@spider": "wawa", "addr:full": "8458 N. DALE MABRY HWY.", "addr:city": "TAMPA", "addr:state": "FL", "addr:postcode": "33614", "name": "WAWA, STORE # 5251", "phone": "813-820-1228", "website": "https://www.wawa.com/stores/05251/fl-tampa-8458-n-dale-mabry-hwy", "opening_hours": "24/7", "brand": "Wawa"}, "geometry": {"type": "Point", "coordinates": [-82.505847, 28.026769]}},
{"type": "Feature", "id": "C2JlKcz5ziolpoUOlB08YT-Rd0A=", "properties": {"ref": "05183", "@spider": "wawa", "addr:full": "1760 HILLSBOROUGH AVE", "addr:city": "TAMPA", "addr:state": "FL", "addr:postcode": "33603-1131", "name": "WAWA, STORE # 5183", "phone": "813-873-3649", "website": "https://www.wawa.com/stores/05183/fl-tampa-1760-hillsborough-ave", "opening_hours": "24/7", "brand": "Wawa"}, "geometry": {"type": "Point", "coordinates": [-82.47805, 27.99555]}},
{"type": "Feature", "id": "qk1J1FHBFhPzEF8Bh3VRdPUjYCg=", "properties": {"ref": "05146", "@spider": "wawa", "addr:full": "7408 HILLSBOROUGH AVE", "addr:city": "TAMPA", "addr:state": "FL", "addr:postcode": "33610-4228", "name": "WAWA, STORE # 5146", "phone": "813-620-0480", "website": "https://www.wawa.com/stores/05146/fl-tampa-7408-hillsborough-ave", "opening_hours": "24/7", "brand": "Wawa"}, "geometry": {"type": "Point", "coordinates": [-82.372715, 27.996738]}},
{"type": "Feature", "id": "-YTMoaN3fg2XByoU-k2gxFpbIgc=", "properties": {"ref": "05231", "@spider": "wawa", "addr:full": "2502 N. 50TH ST", "addr:city": "TAMPA", "addr:state": "FL", "addr:postcode": "33619", "name": "WAWA, STORE # 5231", "phone": "813-603-1910", "website": "https://www.wawa.com/stores/05231/fl-tampa-2502-n-50th-st", "opening_hours": "24/7", "brand": "Wawa"}, "geometry": {"type": "Point", "coordinates": [-82.402878, 27.965717]}},
{"type": "Feature", "id": "5Kqw3EfBZX_ZfxKxsVMwInTb_pQ=", "properties": {"ref": "05114", "@spider": "wawa", "addr:full": "3942 N. US HIGHWAY 301", "addr:city": "TAMPA", "addr:state": "FL", "addr:postcode": "33619", "name": "WAWA, STORE # 5114", "phone": "813-623-3295", "website": "https://www.wawa.com/stores/05114/fl-tampa-3942-n-us-highway-301", "opening_hours": "24/7", "brand": "Wawa"}, "geometry": {"type": "Point", "coordinates": [-82.36146, 27.98094]}},
{"type": "Feature", "id": "u8LM1sAdOmyuPHntGgqKD5HJffE=", "properties": {"ref": "05139", "@spider": "wawa", "addr:full": "5702 W WATERS AVE", "addr:city": "TAMPA", "addr:state": "FL", "addr:postcode": "33634-1215", "name": "WAWA, STORE # 5139", "phone": "813-884-2031", "website": "https://www.wawa.com/stores/05139/fl-tampa-5702-w-waters-ave", "opening_hours": "24/7", "brand": "Wawa"}, "geometry": {"type": "Point", "coordinates": [-82.5426016, 28.0247359]}},
{"type": "Feature", "id": "Mdy4K_-nKNpBHiMLne5oikpjnt4=", "properties": {"ref": "05267", "@spider": "wawa", "addr:full": "25155 MAREN WAY", "addr:city": "LAND O LAKES", "addr:state": "FL", "addr:postcode": "34639", "name": "WAWA, STORE # 5267", "phone": "813-649-3544", "website": "https://www.wawa.com/stores/05267/fl-land-o-lakes-25155-maren-way", "opening_hours": "24/7", "brand": "Wawa"}, "geometry": {"type": "Point", "coordinates": [-82.400195, 28.189432]}},
{"type": "Feature", "id": "-Od9hso3359g3QaiYSKXvBpdcrE=", "properties": {"ref": "05226", "@spider": "wawa", "addr:full": "27866 STATE ROAD 56", "addr:city": "WESLEY CHAPEL", "addr:state": "FL", "addr:postcode": "33543", "name": "WAWA, STORE # 5226", "phone": "813-494-2329", "website": "https://www.wawa.com/stores/05226/fl-wesley-chapel-27866-state-road-56", "opening_hours": "24/7", "brand": "Wawa"}, "geometry": {"type": "Point", "coordinates": [-82.354987, 28.185681]}},
{"type": "Feature", "id": "lmEj5Fod94aiIAcI2iv2cVDDsEE=", "properties": {"ref": "05122", "@spider": "wawa", "addr:full": "401 N DALE MABRY HWY", "addr:city": "TAMPA", "addr:state": "FL", "addr:postcode": "33609-1240", "name": "WAWA, STORE # 5122", "phone": "813-874-2760", "website": "https://www.wawa.com/stores/05122/fl-tampa-401-n-dale-mabry-hwy", "opening_hours": "24/7", "brand": "Wawa"}, "geometry": {"type": "Point", "coordinates": [-82.5053532, 27.9490042]}},
{"type": "Feature", "id": "PSMmZ9t7MWxjueb93X-4e91M8z4=", "properties": {"ref": "05311", "@spider": "wawa", "addr:full": "7540 W. HILLSBOROUGH AVE", "addr:city": "TAMPA", "addr:state": "FL", "addr:postcode": "33615", "name": "WAWA, STORE # 5311", "phone": "813-392-3656", "website": "https://www.wawa.com/stores/05311/fl-tampa-7540-w-hillsborough-ave", "opening_hours": "24/7", "brand": "Wawa"}, "geometry": {"type": "Point", "coordinates": [-82.564123, 27.996141]}},
{"type": "Feature", "id": "AgDP0P5_4Y_zc_mN93CUdMrAiJ4=", "properties": {"ref": "05335", "@spider": "wawa", "addr:full": "11623 E. DR MLK BLVD", "addr:city": "SEFFNER", "addr:state": "FL", "addr:postcode": "33584", "name": "WAWA, STORE # 5335", "phone": "813-820-1595", "website": "https://www.wawa.com/stores/05335/fl-seffner-11623-e-dr-mlk-blvd", "opening_hours": "24/7", "brand": "Wawa"}, "geometry": {"type": "Point", "coordinates": [-82.30232, 27.9814]}},
{"type": "Feature", "id": "YVAHhs59ueVZHnnaByit8K1jvxw=", "properties": {"ref": "05127", "@spider": "wawa", "addr:full": "2604 SOUTH US HIGHWAY", "addr:city": "TAMPA", "addr:state": "FL", "addr:postcode": "33619", "name": "WAWA, STORE # 5127", "phone": "813-620-3076", "website": "https://www.wawa.com/stores/05127/fl-tampa-2604-south-us-highway", "opening_hours": "24/7", "brand": "Wawa"}, "geometry": {"type": "Point", "coordinates": [-82.34858, 27.92432]}},
{"type": "Feature", "id": "uyhNek7Li2jeY9IOH_kj3DYRwbQ=", "properties": {"ref": "05197", "@spider": "wawa", "addr:full": "1710 W. BRANDON BLVD", "addr:city": "BRANDON", "addr:state": "FL", "addr:postcode": "33510", "name": "WAWA, STORE # 5197", "phone": "813-400-5296", "website": "https://www.wawa.com/stores/05197/fl-brandon-1710-w-brandon-blvd", "opening_hours": "24/7", "brand": "Wawa"}, "geometry": {"type": "Point", "coordinates": [-82.309747, 27.937242]}},
{"type": "Feature", "id": "WHAB_flatfe39Ms4p2CnT-_4DRw=", "properties": {"ref": "05240", "@spider": "wawa", "addr:full": "28225 STATE ROAD 54", "addr:city": "WESLEY CHAPEL", "addr:state": "FL", "addr:postcode": "33544", "name": "WAWA, STORE # 5240", "phone": "813-395-0087", "website": "https://www.wawa.com/stores/05240/fl-wesley-chapel-28225-state-road-54", "opening_hours": "24/7", "brand": "Wawa"}, "geometry": {"type": "Point", "coordinates": [-82.349057, 28.237012]}},
{"type": "Feature", "id": "x4JOEzHBulTIc92sD25WZYZh7Z0=", "properties": {"ref": "05301", "@spider": "wawa", "addr:full": "3660 W GANDY BLVD", "addr:city": "TAMPA", "addr:state": "FL", "addr:postcode": "33611", "name": "WAWA, STORE # 5301", "phone": "813-502-0103", "website": "https://www.wawa.com/stores/05301/fl-tampa-3660-w-gandy-blvd", "opening_hours": "24/7", "brand": "Wawa"}, "geometry": {"type": "Point", "coordinates": [-82.50461, 27.89359]}},
{"type": "Feature", "id": "GHYPRBD3GlhWqB8EuQwPKpKpsLU=", "properties": {"ref": "05133", "@spider": "wawa", "addr:full": "10115 BLOOMINGDALE AVE", "addr:city": "RIVERVIEW", "addr:state": "FL", "addr:postcode": "33578", "name": "WAWA, STORE # 5133", "phone": "813-620-3518", "website": "https://www.wawa.com/stores/05133/fl-riverview-10115-bloomingdale-ave", "opening_hours": "24/7", "brand": "Wawa"}, "geometry": {"type": "Point", "coordinates": [-82.3364252, 27.8930892]}},
{"type": "Feature", "id": "99ZFFQQwGeWg-spheEdiUSGdaG4=", "properties": {"ref": "05334", "@spider": "wawa", "addr:full": "12048 STATE ROAD 54", "addr:city": "ODESSA", "addr:state": "FL", "addr:postcode": "33556", "name": "WAWA, STORE # 5334", "phone": "813-445-5770", "website": "https://www.wawa.com/stores/05334/fl-odessa-12048-state-road-54", "opening_hours": "24/7", "brand": "Wawa"}, "geometry": {"type": "Point", "coordinates": [-82.61631, 28.189579]}},
{"type": "Feature", "id": "eif1wPuUNMd72_uQ3YIhBV6Z5E8=", "properties": {"ref": "05152", "@spider": "wawa", "addr:full": "2926 E. STATE RD 60", "addr:city": "VALRICO", "addr:state": "FL", "addr:postcode": "33594", "name": "WAWA, STORE # 5152", "phone": "813-661-6414", "website": "https://www.wawa.com/stores/05152/fl-valrico-2926-e-state-rd-60", "opening_hours": "24/7", "brand": "Wawa"}, "geometry": {"type": "Point", "coordinates": [-82.2364072, 27.9386262]}},
{"type": "Feature", "id": "rVZgb8GdUqtDXqMdM2zTFpYnQ_E=", "properties": {"ref": "05167", "@spider": "wawa", "addr:full": "9615 S US HIGHWAY 301", "addr:city": "RIVERVIEW", "addr:state": "FL", "addr:postcode": "33578", "name": "WAWA, STORE # 5167", "phone": "813-677-0251", "website": "https://www.wawa.com/stores/05167/fl-riverview-9615-s-us-highway-301", "opening_hours": "24/7", "brand": "Wawa"}, "geometry": {"type": "Point", "coordinates": [-82.3280642, 27.8584322]}},
{"type": "Feature", "id": "7T5m_fUFLvqPErq2atdcQB_ffgU=", "properties": {"ref": "05151", "@spider": "wawa", "addr:full": "2224 BLOOMINGDALE AVE", "addr:city": "VALRICO", "addr:state": "FL", "addr:postcode": "33594-6212", "name": "WAWA, STORE # 5151", "phone": "813-654-8763", "website": "https://www.wawa.com/stores/05151/fl-valrico-2224-bloomingdale-ave", "opening_hours": "24/7", "brand": "Wawa"}, "geometry": {"type": "Point", "coordinates": [-82.2451643, 27.8938175]}},
{"type": "Feature", "id": "r8EhZ9OTJjSrg8J9aDm-SojERxU=", "properties": {"ref": "05162", "@spider": "wawa", "addr:full": "2705 THONOTOSASSA RD", "addr:city": "PLANT CITY", "addr:state": "FL", "addr:postcode": "33563", "name": "WAWA, STORE # 5162", "phone": "813-752-1508", "website": "https://www.wawa.com/stores/05162/fl-plant-city-2705-thonotosassa-rd", "opening_hours": "24/7", "brand": "Wawa"}, "geometry": {"type": "Point", "coordinates": [-82.1526492, 28.0258952]}},
{"type": "Feature", "id": "cKPNSyRHmIxMos89rV9RnLHBcJs=", "properties": {"ref": "05286", "@spider": "wawa", "addr:full": "13323 BOYETTE ROAD", "addr:city": "RIVERVIEW", "addr:state": "FL", "addr:postcode": "33569", "name": "WAWA, STORE # 5286", "phone": "813-437-2608", "website": "https://www.wawa.com/stores/05286/fl-riverview-13323-boyette-road", "opening_hours": "24/7", "brand": "Wawa"}, "geometry": {"type": "Point", "coordinates": [-82.2699, 27.8529]}},
{"type": "Feature", "id": "MHiBdTWZm2DB7nvANVgHi8QQ3vk=", "properties": {"ref": "05294", "@spider": "wawa", "addr:full": "26508 US HIGHWAY 19 N.", "addr:city": "CLEARWATER", "addr:state": "FL", "addr:postcode": "33761", "name": "WAWA, STORE # 5294", "phone": "727-314-8002", "website": "https://www.wawa.com/stores/05294/fl-clearwater-26508-us-highway-19-n", "opening_hours": "24/7", "brand": "Wawa"}, "geometry": {"type": "Point", "coordinates": [-82.738102, 28.012926]}},
{"type": "Feature", "id": "AqlDT4rMfkQcukgM007p2SgKUtI=", "properties": {"ref": "05285", "@spider": "wawa", "addr:full": "6450 GALL BLVD", "addr:city": "ZEPHYRHILLS", "addr:state": "FL", "addr:postcode": "33542", "name": "WAWA, STORE # 5285", "phone": "813-393-1807", "website": "https://www.wawa.com/stores/05285/fl-zephyrhills-6450-gall-blvd", "opening_hours": "24/7", "brand": "Wawa"}, "geometry": {"type": "Point", "coordinates": [-82.187814, 28.251734]}},
{"type": "Feature", "id": "_sZ2_xX9dIFh5-2j5_HY1uwr0_Y=", "properties": {"ref": "05252", "@spider": "wawa", "addr:full": "8601 4TH STREET N", "addr:city": "SAINT PETERSBURG", "addr:state": "FL", "addr:postcode": "33701", "name": "WAWA, STORE # 5252", "phone": "727-350-1036", "website": "https://www.wawa.com/stores/05252/fl-saint-petersburg-8601-4th-street-n", "opening_hours": "24/7", "brand": "Wawa"}, "geometry": {"type": "Point", "coordinates": [-82.638162, 27.850805]}},
{"type": "Feature", "id": "IELOWhKpjAHbXs0ObKkpyI20RjU=", "properties": {"ref": "05175", "@spider": "wawa", "addr:full": "13026 S US HIGHWAY 301", "addr:city": "RIVERVIEW", "addr:state": "FL", "addr:postcode": "33578", "name": "WAWA, STORE # 5175", "phone": "813-671-9506", "website": "https://www.wawa.com/stores/05175/fl-riverview-13026-s-us-highway-301", "opening_hours": "24/7", "brand": "Wawa"}, "geometry": {"type": "Point", "coordinates": [-82.33374, 27.79701]}},
{"type": "Feature", "id": "CS9-LwR8zo3y6ohbTw3PtKsiQWA=", "properties": {"ref": "05181", "@spider": "wawa", "addr:full": "1929 US HIGHWAY 19", "addr:city": "HOLIDAY", "addr:state": "FL", "addr:postcode": "34691", "name": "WAWA, STORE # 5181", "phone": "727-934-7464", "website": "https://www.wawa.com/stores/05181/fl-holiday-1929-us-highway-19", "opening_hours": "24/7", "brand": "Wawa"}, "geometry": {"type": "Point", "coordinates": [-82.740844, 28.186922]}},
{"type": "Feature", "id": "dcr2getOTS9j8Fk-4ezKz9UHq2M=", "properties": {"ref": "05163", "@spider": "wawa", "addr:full": "2177 GULF TO BAY BLVD", "addr:city": "CLEARWATER", "addr:state": "FL", "addr:postcode": "33758-4748", "name": "WAWA, STORE # 5163", "phone": "727-442-7506", "website": "https://www.wawa.com/stores/05163/fl-clearwater-2177-gulf-to-bay-blvd", "opening_hours": "24/7", "brand": "Wawa"}, "geometry": {"type": "Point", "coordinates": [-82.7466, 27.96019]}},
{"type": "Feature", "id": "ikvPhZcfUQBmpIyw9cFjbFa9fGM=", "properties": {"ref": "05109", "@spider": "wawa", "addr:full": "8330 RIDGE ROAD", "addr:city": "PORT RICHEY", "addr:state": "FL", "addr:postcode": "34668-6056", "name": "WAWA, STORE # 5109", "phone": "727-848-5425", "website": "https://www.wawa.com/stores/05109/fl-port-richey-8330-ridge-road", "opening_hours": "24/7", "brand": "Wawa"}, "geometry": {"type": "Point", "coordinates": [-82.6768375, 28.2799269]}},
{"type": "Feature", "id": "Ryv4CD2WGmf0Nxgbpv6xRFp1ANc=", "properties": {"ref": "05149", "@spider": "wawa", "addr:full": "15701 US HIGHWAY 19 N", "addr:city": "CLEARWATER", "addr:state": "FL", "addr:postcode": "33764-7712", "name": "WAWA, STORE # 5149", "phone": "727-531-1061", "website": "https://www.wawa.com/stores/05149/fl-clearwater-15701-us-highway-19-n", "opening_hours": "24/7", "brand": "Wawa"}, "geometry": {"type": "Point", "coordinates": [-82.728478, 27.915269]}},
{"type": "Feature", "id": "glBemBRIn2QIyZ3GHWz29kYwCGM=", "properties": {"ref": "05115", "@spider": "wawa", "addr:full": "4026 US  HWY 19", "addr:city": "NEW PORT RICHEY", "addr:state": "FL", "addr:postcode": "34652-5945", "name": "WAWA, STORE # 5115", "phone": "727-847-5134", "website": "https://www.wawa.com/stores/05115/fl-new-port-richey-4026-us--hwy-19", "opening_hours": "24/7", "brand": "Wawa"}, "geometry": {"type": "Point", "coordinates": [-82.7365908, 28.2175496]}},
{"type": "Feature", "id": "CgWrfdRARR-5ZiAyM6N5wlIbi_c=", "properties": {"ref": "05110", "@spider": "wawa", "addr:full": "3101 GANDY BLVD", "addr:city": "PINELLAS PARK", "addr:state": "FL", "addr:postcode": "33782-6140", "name": "WAWA, STORE # 5110", "phone": "727-576-1804", "website": "https://www.wawa.com/stores/05110/fl-pinellas-park-3101-gandy-blvd", "opening_hours": "24/7", "brand": "Wawa"}, "geometry": {"type": "Point", "coordinates": [-82.677669, 27.845816]}},
{"type": "Feature", "id": "i503UrJ-e2fja47XT4xINiIHGc0=", "properties": {"ref": "05125", "@spider": "wawa", "addr:full": "6200 N 34 ST", "addr:city": "PINELLAS PARK", "addr:state": "FL", "addr:postcode": "33781-6231", "name": "WAWA, STORE # 5125", "phone": "727-526-8350", "website": "https://www.wawa.com/stores/05125/fl-pinellas-park-6200-n-34-st", "opening_hours": "24/7", "brand": "Wawa"}, "geometry": {"type": "Point", "coordinates": [-82.680166, 27.828569]}},
{"type": "Feature", "id": "6Dc73axP_Vk6vtkCJvSkG0GLSF4=", "properties": {"ref": "05108", "@spider": "wawa", "addr:full": "8519 US HIGHWAY 19", "addr:city": "PORT RICHEY", "addr:state": "FL", "addr:postcode": "34668-5344", "name": "WAWA, STORE # 5108", "phone": "727-219-1010", "website": "https://www.wawa.com/stores/05108/fl-port-richey-8519-us-highway-19", "opening_hours": "24/7", "brand": "Wawa"}, "geometry": {"type": "Point", "coordinates": [-82.717849, 28.280989]}},
{"type": "Feature", "id": "QhDNnZxXoEyyhLKtVOaVo75FSHo=", "properties": {"ref": "05275", "@spider": "wawa", "addr:full": "9021 STATE ROAD 52", "addr:city": "HUDSON", "addr:state": "FL", "addr:postcode": "34669", "name": "WAWA, STORE # 5275", "phone": "727-605-0022", "website": "https://www.wawa.com/stores/05275/fl-hudson-9021-state-road-52", "opening_hours": "24/7", "brand": "Wawa"}, "geometry": {"type": "Point", "coordinates": [-82.665247, 28.331677]}},
{"type": "Feature", "id": "Pj9YsTyWsiZar8jVv_jw-TSksNM=", "properties": {"ref": "05141", "@spider": "wawa", "addr:full": "8910 ULMERTON RD", "addr:city": "LARGO", "addr:state": "FL", "addr:postcode": "33771-3839", "name": "WAWA, STORE # 5141", "phone": "727-228-3122", "website": "https://www.wawa.com/stores/05141/fl-largo-8910-ulmerton-rd", "opening_hours": "24/7", "brand": "Wawa"}, "geometry": {"type": "Point", "coordinates": [-82.7635972, 27.8936662]}},
{"type": "Feature", "id": "BRmpTwR6L4t5h1P2HoEUEGJ98wI=", "properties": {"ref": "05148", "@spider": "wawa", "addr:full": "3650 34 STREET N", "addr:city": "SAINT PETERSBURG", "addr:state": "FL", "addr:postcode": "33713-1521", "name": "WAWA, STORE # 5148", "phone": "727-521-5627", "website": "https://www.wawa.com/stores/05148/fl-saint-petersburg-3650-34-street-n", "opening_hours": "24/7", "brand": "Wawa"}, "geometry": {"type": "Point", "coordinates": [-82.6809992, 27.8054802]}},
{"type": "Feature", "id": "iGXdg08CnuqKb5FdqD49V2MmF_U=", "properties": {"ref": "05176", "@spider": "wawa", "addr:full": "1215 N. MISSOURI AVE", "addr:city": "LARGO", "addr:state": "FL", "addr:postcode": "33770", "name": "WAWA, STORE # 5176", "phone": "727-581-0206", "website": "https://www.wawa.com/stores/05176/fl-largo-1215-n-missouri-ave", "opening_hours": "24/7", "brand": "Wawa"}, "geometry": {"type": "Point", "coordinates": [-82.78796, 27.92799]}},
{"type": "Feature", "id": "TMM2lulp1Lj10ViMGOZUmXU5w-g=", "properties": {"ref": "05159", "@spider": "wawa", "addr:full": "2465 22 AVENUE", "addr:city": "SAINT PETERSBURG", "addr:state": "FL", "addr:postcode": "33713-3054", "name": "WAWA, STORE # 5159", "phone": "727-822-8168", "website": "https://www.wawa.com/stores/05159/fl-saint-petersburg-2465-22-avenue", "opening_hours": "24/7", "brand": "Wawa"}, "geometry": {"type": "Point", "coordinates": [-82.667212, 27.79277]}},
{"type": "Feature", "id": "JUGDc9vi0wLtIebW7BL8aLVeMAc=", "properties": {"ref": "05198", "@spider": "wawa", "addr:full": "16620 S. US 301", "addr:city": "WIMAUMA", "addr:state": "FL", "addr:postcode": "33598", "name": "WAWA, STORE # 5198", "phone": "813-494-2579", "website": "https://www.wawa.com/stores/05198/fl-wimauma-16620-s-us-301", "opening_hours": "24/7", "brand": "Wawa"}, "geometry": {"type": "Point", "coordinates": [-82.334282, 27.711878]}},
{"type": "Feature", "id": "02VtMfd_u5O3CqAR35zeK9MxeYM=", "properties": {"ref": "05215", "@spider": "wawa", "addr:full": "8800 PARK BLVD", "addr:city": "SEMINOLE", "addr:state": "FL", "addr:postcode": "33777", "name": "WAWA, STORE # 5215", "phone": "727-452-6467", "website": "https://www.wawa.com/stores/05215/fl-seminole-8800-park-blvd", "opening_hours": "24/7", "brand": "Wawa"}, "geometry": {"type": "Point", "coordinates": [-82.76117, 27.83906]}},
{"type": "Feature", "id": "fZAO5dtjGBpvMmCVA07HKSDwLHk=", "properties": {"ref": "05241", "@spider": "wawa", "addr:full": "5901 9TH AVE N.", "addr:city": "SAINT PETERSBURG", "addr:state": "FL", "addr:postcode": "33710", "name": "WAWA, STORE # 5241", "phone": "727-551-4443", "website": "https://www.wawa.com/stores/05241/fl-saint-petersburg-5901-9th-ave-n", "opening_hours": "24/7", "brand": "Wawa"}, "geometry": {"type": "Point", "coordinates": [-82.715325, 27.781168]}},
{"type": "Feature", "id": "_W2SufGzYq2kY5yVHPYugWFnJ3U=", "properties": {"ref": "05147", "@spider": "wawa", "addr:full": "12750 WALSINGHAM RD", "addr:city": "LARGO", "addr:state": "FL", "addr:postcode": "33774", "name": "WAWA, STORE # 5147", "phone": "727-595-7850", "website": "https://www.wawa.com/stores/05147/fl-largo-12750-walsingham-rd", "opening_hours": "24/7", "brand": "Wawa"}, "geometry": {"type": "Point", "coordinates": [-82.8153, 27.87988]}},
{"type": "Feature", "id": "mHY2Y4ZUQRsc0ff6rkJFYGMZvYQ=", "properties": {"ref": "05129", "@spider": "wawa", "addr:full": "9501 BAY PINES BLVD", "addr:city": "SAINT PETERSBURG", "addr:state": "FL", "addr:postcode": "33708-3784", "name": "WAWA, STORE # 5129", "phone": "727-391-1483", "website": "https://www.wawa.com/stores/05129/fl-saint-petersburg-9501-bay-pines-blvd", "opening_hours": "24/7", "brand": "Wawa"}, "geometry": {"type": "Point", "coordinates": [-82.7710762, 27.8146472]}}]}