{"type":"FeatureCollection","features":[{"type": "Feature", "id": "_DzV1WofmhKkcAmNuAQRM_U913c=", "properties": {"ref": "2216", "@spider": "wellstar", "addr:full": "3747 Roswell Road Suite 107", "addr:city": "Marietta", "addr:state": "GA", "addr:postcode": "30062", "name": "Wellstar Urgent Care", "phone": "(470) 956-0150", "opening_hours": "Mo-Su 07:00-22:00", "brand": "WellStar Health System"}, "geometry": {"type": "Point", "coordinates": [-84.4447395, 33.9803208]}},
{"type": "Feature", "id": "1yBPtM6AsVxkzee9AfDpdq39W-I=", "properties": {"ref": "2408", "@spider": "wellstar", "addr:full": "2450 Old Milton Parkway Suite 102", "addr:city": "Alpharetta", "addr:state": "GA", "addr:postcode": "30009", "name": "Wellstar Urgent Care", "phone": "(470) 267-0320", "opening_hours": "Mo-Su 08:00-19:30", "brand": "WellStar Health System"}, "geometry": {"type": "Point", "coordinates": [-84.28683459999999, 34.0707153]}},
{"type": "Feature", "id": "aH4AaNIvHzE7VNyxWB4peowTTDg=", "properties": {"ref": "2470", "@spider": "wellstar", "addr:full": "3576 Highway 138 SE", "addr:city": "Stockbridge", "addr:state": "GA", "addr:postcode": "30281", "name": "Wellstar Urgent Care", "phone": "(770) 474-7448", "opening_hours": "Mo-Su 08:00-19:30", "brand": "WellStar Health System"}, "geometry": {"type": "Point", "coordinates": [-84.2734278, 33.5505801]}},
{"type": "Feature", "id": "Zo499pVQvdPTKsX67qpgmRiXuMM=", "properties": {"ref": "2276", "@spider": "wellstar", "addr:full": "4550 Cobb Parkway North NW Suite 101", "addr:city": "Acworth", "addr:state": "GA", "addr:postcode": "30101", "name": "Wellstar Urgent Care", "phone": "(470) 956-0100", "opening_hours": "Mo-Su 07:00-22:00", "brand": "WellStar Health System"}, "geometry": {"type": "Point", "coordinates": [-84.7231938, 34.0679136]}},
{"type": "Feature", "id": "onARQYSkf3W-UFyyHhkHeX--_Tk=", "properties": {"ref": "3478", "@spider": "wellstar", "addr:full": "120 Greystone Power Boulevard Suite 110", "addr:city": "Dallas", "addr:state": "GA", "addr:postcode": "30157", "name": "Wellstar Urgent Care", "phone": "(470) 267-1540", "opening_hours": "Mo-Su 08:00-19:30", "brand": "WellStar Health System"}, "geometry": {"type": "Point", "coordinates": [-84.79916709999999, 33.9017559]}},
{"type": "Feature", "id": "IMLvkGtmJSb07HlePJxuph88rEQ=", "properties": {"ref": "2870", "@spider": "wellstar", "addr:full": "1120 Wellstar Way Suite 105", "addr:city": "Holly Springs", "addr:state": "GA", "addr:postcode": "30114", "name": "Wellstar Urgent Care", "phone": "(678) 494-2500", "opening_hours": "Mo-Su 07:00-22:00", "brand": "WellStar Health System"}, "geometry": {"type": "Point", "coordinates": [-84.5198669, 34.1429328]}},
{"type": "Feature", "id": "2CF73I9Sz2kEc-6lWsDt4eZJP2w=", "properties": {"ref": "2370", "@spider": "wellstar", "addr:full": "4441 Atlanta Road SE Suite 107", "addr:city": "Smyrna", "addr:state": "GA", "addr:postcode": "30080", "name": "Wellstar Urgent Care", "phone": "(470) 956-0330", "opening_hours": "Mo-Su 07:00-22:00", "brand": "WellStar Health System"}, "geometry": {"type": "Point", "coordinates": [-84.4898406, 33.8466533]}},
{"type": "Feature", "id": "0wFFh5VvQDZ9bxOL65Kdw5eirDw=", "properties": {"ref": "2524", "@spider": "wellstar", "addr:full": "3600 Sandy Plains Road", "addr:city": "Marietta", "addr:state": "GA", "addr:postcode": "30066", "name": "Wellstar Urgent Care", "phone": "(770) 977-4547", "opening_hours": "Mo-Su 08:00-19:30", "brand": "WellStar Health System"}, "geometry": {"type": "Point", "coordinates": [-84.4614433, 34.0369405]}},
{"type": "Feature", "id": "6Y0WRklmbLAEXTXh59PU_uAWQLg=", "properties": {"ref": "2540", "@spider": "wellstar", "addr:full": "4480 North Cooper Lake Road SE Suite 100", "addr:city": "Smyrna", "addr:state": "GA", "addr:postcode": "30082", "name": "Wellstar Urgent Care", "phone": "(770) 333-1300", "opening_hours": "Mo-Su 08:00-19:30", "brand": "WellStar Health System"}, "geometry": {"type": "Point", "coordinates": [-84.5312975, 33.8441973]}},
{"type": "Feature", "id": "-lGtOYu51RwS8mg9dUUWQ6XqbDM=", "properties": {"ref": "2406", "@spider": "wellstar", "addr:full": "5655 Atlanta Highway Suite A", "addr:city": "Alpharetta", "addr:state": "GA", "addr:postcode": "30004", "name": "Wellstar Urgent Care", "phone": "(770) 343-6364", "brand": "WellStar Health System"}, "geometry": {"type": "Point", "coordinates": [-84.25170949999999, 34.1453215]}},
{"type": "Feature", "id": "hUg1ub2xog3YGinL5ba4Z0eFEpw=", "properties": {"ref": "2616", "@spider": "wellstar", "addr:full": "2890 Delk Road SE", "addr:city": "Marietta", "addr:state": "GA", "addr:postcode": "30067", "name": "Wellstar Urgent Care", "phone": "(770) 955-8620", "opening_hours": "Mo-Su 10:00-19:30", "brand": "WellStar Health System"}, "geometry": {"type": "Point", "coordinates": [-84.46802389999999, 33.9234826]}},
{"type": "Feature", "id": "SQ05N1fkjdaKRd_VVqEKvEMx8x0=", "properties": {"ref": "2504", "@spider": "wellstar", "addr:full": "3805 Cherokee Street NW", "addr:city": "Kennesaw", "addr:state": "GA", "addr:postcode": "30144", "name": "Wellstar Urgent Care", "phone": "(770) 426-5665", "opening_hours": "Mo-Su 08:00-19:30", "brand": "WellStar Health System"}, "geometry": {"type": "Point", "coordinates": [-84.60105469999999, 34.0464811]}},
{"type": "Feature", "id": "E0C_oQvir5RoDOMNpCzoNM96XP8=", "properties": {"ref": "2472", "@spider": "wellstar", "addr:full": "12201 Highway 92 Suite D", "addr:city": "Woodstock", "addr:state": "GA", "addr:postcode": "30188", "name": "Wellstar Urgent Care", "phone": "(770) 517-4621", "opening_hours": "Mo-Su 10:00-19:30", "brand": "WellStar Health System"}, "geometry": {"type": "Point", "coordinates": [-84.4816283, 34.0880309]}},
{"type": "Feature", "id": "Ix1Z9XoasFpuhEv23RNU8LamV20=", "properties": {"ref": "2542", "@spider": "wellstar", "addr:full": "818 Church Street Suite 100", "addr:city": "Marietta", "addr:state": "GA", "addr:postcode": "30060", "name": "Wellstar Urgent Care", "phone": "(770) 590-4190", "opening_hours": "Mo-Su 07:00-22:00", "brand": "WellStar Health System"}, "geometry": {"type": "Point", "coordinates": [-84.5501061, 33.971368]}},
{"type": "Feature", "id": "ObtNQ4Jl_o7_vfehyANT_kflxi0=", "properties": {"ref": "2474", "@spider": "wellstar", "addr:full": "3730 Carmia Drive SW Suite 110", "addr:city": "Atlanta", "addr:state": "GA", "addr:postcode": "30331", "name": "Wellstar Urgent Care", "phone": "(404) 344-7286", "opening_hours": "Mo-Su 10:00-19:30", "brand": "WellStar Health System"}, "geometry": {"type": "Point", "coordinates": [-84.5108308, 33.6564551]}},
{"type": "Feature", "id": "xbe9zDAAwBEk7HB-jB1C0nUsA0k=", "properties": {"ref": "2448", "@spider": "wellstar", "addr:full": "12460 Crabapple Road Suite 901", "addr:city": "Alpharetta", "addr:state": "GA", "addr:postcode": "30004", "name": "Wellstar Urgent Care", "phone": "(678) 762-0574", "opening_hours": "Mo-Su 08:00-19:30", "brand": "WellStar Health System"}, "geometry": {"type": "Point", "coordinates": [-84.35716250000002, 34.08541659999999]}},
{"type": "Feature", "id": "svc9FRwxuH8Y3SC6gpWnMPTQKUo=", "properties": {"ref": "2800", "@spider": "wellstar", "addr:full": "1360 Upper Hembree Road Suite 100", "addr:city": "Roswell", "addr:state": "GA", "addr:postcode": "30076", "name": "Wellstar Urgent Care", "phone": "(470) 956-4430", "opening_hours": "Sa-Su 08:00-19:30", "brand": "WellStar Health System"}, "geometry": {"type": "Point", "coordinates": [-84.3199362, 34.0671415]}},
{"type": "Feature", "id": "iwQ4yAGZYmvROIICIw3vGjiO_Xw=", "properties": {"ref": "120", "@spider": "wellstar", "addr:full": "2540 Windy Hill Road SE", "addr:city": "Marietta", "addr:state": "GA", "addr:postcode": "30067", "name": "Wellstar Windy Hill Hospital", "phone": "(770) 644-1000", "brand": "WellStar Health System"}, "geometry": {"type": "Point", "coordinates": [-84.4810681, 33.8997724]}},
{"type": "Feature", "id": "ZqLzS4pe6ysqJ9cG40fagEHy_sU=", "properties": {"ref": "108", "@spider": "wellstar", "addr:full": "677 Church Street NE", "addr:city": "Marietta", "addr:state": "GA", "addr:postcode": "30060", "name": "Wellstar Kennestone Hospital", "phone": "(770) 793-5000", "brand": "WellStar Health System"}, "geometry": {"type": "Point", "coordinates": [-84.5538124, 33.9698263]}},
{"type": "Feature", "id": "CtgzIC8KrW0RHWZDrxYXlo7Ze6s=", "properties": {"ref": "114", "@spider": "wellstar", "addr:full": "601 South 8th Street", "addr:city": "Griffin", "addr:state": "GA", "addr:postcode": "30224", "name": "Wellstar Spalding Regional Hospital", "phone": "(770) 228-2721", "brand": "WellStar Health System"}, "geometry": {"type": "Point", "coordinates": [-84.2695366, 33.2392675]}},
{"type": "Feature", "id": "rhbTG00zpjiRsgieOVAolNhhKhI=", "properties": {"ref": "116", "@spider": "wellstar", "addr:full": "1050 McDonough Road", "addr:city": "Jackson", "addr:state": "GA", "addr:postcode": "30233", "name": "Wellstar Sylvan Grove Hospital", "phone": "(770) 775-7861", "brand": "WellStar Health System"}, "geometry": {"type": "Point", "coordinates": [-83.9800099, 33.3038168]}},
{"type": "Feature", "id": "wHRsssIrDzUrJgXqXFhShApTcYo=", "properties": {"ref": "110", "@spider": "wellstar", "addr:full": "3000 Hospital Boulevard", "addr:city": "Roswell", "addr:state": "GA", "addr:postcode": "30076", "name": "Wellstar North Fulton Hospital", "phone": "(770) 751-2500", "brand": "WellStar Health System"}, "geometry": {"type": "Point", "coordinates": [-84.322048, 34.0630661]}},
{"type": "Feature", "id": "-Hti1arMR4jIMeJgELo1l_4jipI=", "properties": {"ref": "102", "@spider": "wellstar", "addr:full": "1170 Cleveland Avenue", "addr:city": "Atlanta", "addr:state": "GA", "addr:postcode": "30344", "name": "Wellstar Atlanta Medical Center South", "phone": "(404) 466-1170", "brand": "WellStar Health System"}, "geometry": {"type": "Point", "coordinates": [-84.4291437, 33.6803257]}},
{"type": "Feature", "id": "UXhzFIc6jf3lxyFpxM5Iu0vuqXk=", "properties": {"ref": "118", "@spider": "wellstar", "addr:full": "1514 Vernon Road", "addr:city": "LaGrange", "addr:state": "GA", "addr:postcode": "30240", "name": "Wellstar West Georgia Medical Center", "phone": "(706) 882-1411", "brand": "WellStar Health System"}, "geometry": {"type": "Point", "coordinates": [-85.0607962, 33.032557]}},
{"type": "Feature", "id": "vJ2U1aLR7eKU9aaLz8FpEmXGTqM=", "properties": {"ref": "112", "@spider": "wellstar", "addr:full": "2518 Jimmy Lee Smith Parkway", "addr:city": "Hiram", "addr:state": "GA", "addr:postcode": "30141", "name": "Wellstar Paulding Hospital", "phone": "(470) 644-7000", "brand": "WellStar Health System"}, "geometry": {"type": "Point", "coordinates": [-84.7837041, 33.9007199]}},
{"type": "Feature", "id": "bXY_KPXP0C0XsiTyBsCKlrhcdl8=", "properties": {"ref": "100", "@spider": "wellstar", "addr:full": "303 Parkway Drive NE", "addr:city": "Atlanta", "addr:state": "GA", "addr:postcode": "30312", "name": "Wellstar Atlanta Medical Center", "phone": "(404) 265-4000", "brand": "WellStar Health System"}, "geometry": {"type": "Point", "coordinates": [-84.3751549, 33.7629109]}},
{"type": "Feature", "id": "ZLgbgoFrcDZAIFXfUcH1XBu646I=", "properties": {"ref": "104", "@spider": "wellstar", "addr:full": "3950 Austell Road", "addr:city": "Austell", "addr:state": "GA", "addr:postcode": "30106", "name": "Wellstar Cobb Hospital", "phone": "(770) 732-4000", "brand": "WellStar Health System"}, "geometry": {"type": "Point", "coordinates": [-84.6062873, 33.8571113]}},
{"type": "Feature", "id": "ZYenXr-F70Nd4in9fiebL0cKY1w=", "properties": {"ref": "106", "@spider": "wellstar", "addr:full": "8954 Hospital Drive", "addr:city": "Douglasville", "addr:state": "GA", "addr:postcode": "30134", "name": "Wellstar Douglas Hospital", "phone": " (470) 644-6000", "brand": "WellStar Health System"}, "geometry": {"type": "Point", "coordinates": [-84.7336686, 33.739037]}},
{"type": "Feature", "id": "IX5OFgCo7U-cVB8n18dEjJ16GDc=", "properties": {"ref": "158", "@spider": "wellstar", "addr:full": "115 Cherry Street NE", "addr:city": "Marietta", "addr:state": "GA", "addr:postcode": "30060", "name": "Wellstar Kennestone Emergency Department", "phone": "(770) 793-5700", "brand": "WellStar Health System"}, "geometry": {"type": "Point", "coordinates": [-84.5513466, 33.9681821]}},
{"type": "Feature", "id": "8eNS48aMl4nUtbCVdZbFV7im6DQ=", "properties": {"ref": "157", "@spider": "wellstar", "addr:full": "8954 Hospital Drive", "addr:city": "Douglasville", "addr:state": "GA", "addr:postcode": "30134", "name": "Wellstar Douglas Pediatric Emergency Department", "phone": " (770) 920-6422", "brand": "WellStar Health System"}, "geometry": {"type": "Point", "coordinates": [-84.7336633, 33.7390326]}},
{"type": "Feature", "id": "_9Fwj7ggGI8kL_Fx3WB2h3cuLSU=", "properties": {"ref": "166", "@spider": "wellstar", "addr:full": "1050 McDonough Road", "addr:city": "Jackson", "addr:state": "GA", "addr:postcode": "30233", "name": "Wellstar Sylvan Grove Emergency Department", "phone": "(770) 775-7861", "brand": "WellStar Health System"}, "geometry": {"type": "Point", "coordinates": [-83.9800099, 33.3038168]}},
{"type": "Feature", "id": "vfcZ_qFvSu5eXqxjMD02yYtkQv4=", "properties": {"ref": "151", "@spider": "wellstar", "addr:full": "2518 Jimmy Lee Smith Pkwy", "addr:city": "Hiram", "addr:state": "GA", "addr:postcode": "30141", "name": "Wellstar Paulding Pediatric Emergency Department", "phone": "(470) 644-7130", "brand": "WellStar Health System"}, "geometry": {"type": "Point", "coordinates": [-84.7836988, 33.9007155]}},
{"type": "Feature", "id": "RS_Ta-qvZYkr-SG232lrPNs6BRc=", "properties": {"ref": "153", "@spider": "wellstar", "addr:full": "3950 Austell Road SW", "addr:city": "Austell", "addr:state": "GA", "addr:postcode": "30106", "name": "Wellstar Cobb Pediatric Emergency Department", "phone": " (770) 732-3882", "brand": "WellStar Health System"}, "geometry": {"type": "Point", "coordinates": [-84.606282, 33.8571069]}},
{"type": "Feature", "id": "MtP4H1k-9-br2odewlSK2EH_kI8=", "properties": {"ref": "168", "@spider": "wellstar", "addr:full": "1514 Vernon Road", "addr:city": "LaGrange", "addr:state": "GA", "addr:postcode": "30240", "name": "Wellstar West Georgia Emergency Department", "phone": "(706) 882-1411", "brand": "WellStar Health System"}, "geometry": {"type": "Point", "coordinates": [-85.0607962, 33.032557]}},
{"type": "Feature", "id": "BFjCnyYZC72d-2q93vbTzA_2AGM=", "properties": {"ref": "152", "@spider": "wellstar", "addr:full": "1170 Cleveland Avenue", "addr:city": "Atlanta", "addr:state": "GA", "addr:postcode": "30344", "name": "Wellstar Atlanta Medical South Emergency Department", "phone": "(404) 466-1600", "brand": "WellStar Health System"}, "geometry": {"type": "Point", "coordinates": [-84.4291384, 33.6803257]}},
{"type": "Feature", "id": "nGSqcSC9A-kK00neA0SIeV025zw=", "properties": {"ref": "164", "@spider": "wellstar", "addr:full": "601 South 8th Street", "addr:city": "Griffin", "addr:state": "GA", "addr:postcode": "30224", "name": "Wellstar Spalding Regional Emergency Department", "phone": "(770) 228-2721", "brand": "WellStar Health System"}, "geometry": {"type": "Point", "coordinates": [-84.2695366, 33.2392675]}},
{"type": "Feature", "id": "u43rNDW98tF_k60tCww5VUbfSp8=", "properties": {"ref": "156", "@spider": "wellstar", "addr:full": "8954 Hospital Drive", "addr:city": "Douglasville", "addr:state": "GA", "addr:postcode": "30134", "name": "Wellstar Douglas Emergency Department", "phone": "(770) 949-1500", "brand": "WellStar Health System"}, "geometry": {"type": "Point", "coordinates": [-84.7336686, 33.739037]}},
{"type": "Feature", "id": "YXO8oz7jQqBrLAyJ6e9bDC7S9uI=", "properties": {"ref": "162", "@spider": "wellstar", "addr:full": "2518 Jimmy Lee Smith Parkway", "addr:city": "Hiram", "addr:state": "GA", "addr:postcode": "30141", "name": "Wellstar Paulding Emergency Department", "phone": "(470) 644-7000", "brand": "WellStar Health System"}, "geometry": {"type": "Point", "coordinates": [-84.7837041, 33.9007199]}},
{"type": "Feature", "id": "jpMJq0SXHwutxmSEdwyOxn_rzpY=", "properties": {"ref": "154", "@spider": "wellstar", "addr:full": "3950 Austell Road SW", "addr:city": "Austell", "addr:state": "GA", "addr:postcode": "30106", "name": "Wellstar Cobb Emergency Department", "phone": "(470) 732-4000", "brand": "WellStar Health System"}, "geometry": {"type": "Point", "coordinates": [-84.6062873, 33.8571113]}},
{"type": "Feature", "id": "lZYMO7XYNUD6geaXSamb3CXNZ6w=", "properties": {"ref": "160", "@spider": "wellstar", "addr:full": "3000 Hospital Boulevard", "addr:city": "Roswell", "addr:state": "GA", "addr:postcode": "30076", "name": "Wellstar North Fulton Emergency Department", "phone": "(770) 751-2505", "brand": "WellStar Health System"}, "geometry": {"type": "Point", "coordinates": [-84.322048, 34.0630661]}},
{"type": "Feature", "id": "pU_qmbQLV02JRJbcWulH7KdM7To=", "properties": {"ref": "150", "@spider": "wellstar", "addr:full": "303 Parkway Drive NE", "addr:city": "Atlanta", "addr:state": "GA", "addr:postcode": "30312", "name": "Wellstar Atlanta Medical Emergency Department", "phone": "(404) 265-4136", "brand": "WellStar Health System"}, "geometry": {"type": "Point", "coordinates": [-84.3751496, 33.7629109]}},
{"type": "Feature", "id": "NLdm4pAG0Jj4aJ6YMs_ldqnDhrM=", "properties": {"ref": "155", "@spider": "wellstar", "addr:full": "115 Cherry St", "addr:city": "Marietta", "addr:state": "GA 30060", "name": "Wellstar Kennestone Pediatric Emergency Department", "phone": "(470) 793-0414", "brand": "WellStar Health System"}, "geometry": {"type": "Point", "coordinates": [-84.5515809, 33.9685202]}},
{"type": "Feature", "id": "lHv48GDJbEpXHHyBKCJJJ_Dpb0o=", "properties": {"ref": "202", "@spider": "wellstar", "addr:full": "4550 Cobb Parkway North NW", "addr:city": "Acworth", "addr:state": "GA", "addr:postcode": "30101", "name": "Wellstar Acworth Health Park", "phone": "(470) 956-0050", "brand": "WellStar Health System"}, "geometry": {"type": "Point", "coordinates": [-84.7253825, 34.067918]}},
{"type": "Feature", "id": "xfx4CValTLlB-oug8JxmBd_oeww=", "properties": {"ref": "208", "@spider": "wellstar", "addr:full": "3747 Roswell Road", "addr:city": "Marietta", "addr:state": "GA", "addr:postcode": "30062", "name": "Wellstar East Cobb Health Park", "phone": "(470) 956-0250", "brand": "WellStar Health System"}, "geometry": {"type": "Point", "coordinates": [-84.4469282, 33.9803252]}},
{"type": "Feature", "id": "TZ7eAMyPNQaw6uuDuQjrjpxhhgI=", "properties": {"ref": "206", "@spider": "wellstar", "addr:full": "1120 Wellstar Way", "addr:city": "Holly Springs", "addr:state": "GA", "addr:postcode": "30114", "name": "Wellstar Cherokee Health Park", "phone": "(470) 267-0025", "brand": "WellStar Health System"}, "geometry": {"type": "Point", "coordinates": [-84.5220556, 34.1429372]}},
{"type": "Feature", "id": "ViYY9zlvxx_l5VSlv8Yfg2czrfo=", "properties": {"ref": "210", "@spider": "wellstar", "addr:full": "4441 Atlanta Road SE", "addr:city": "Smyrna", "addr:state": "GA", "addr:postcode": "30080", "name": "Wellstar Vinings Health Park", "phone": "(470) 956-0350", "brand": "WellStar Health System"}, "geometry": {"type": "Point", "coordinates": [-84.4920293, 33.8466577]}},
{"type": "Feature", "id": "9jY7xuI16JAtU3J3s_PdeDL5uGs=", "properties": {"ref": "204", "@spider": "wellstar", "addr:full": "2450 Old Milton Parkway", "addr:city": "Alpharetta", "addr:state": "GA", "addr:postcode": "30009", "name": "Wellstar Avalon Health Park", "phone": "(470) 267-0260", "opening_hours": "Mo-Su 08:00-20:00", "brand": "WellStar Health System"}, "geometry": {"type": "Point", "coordinates": [-84.2890286, 34.0707197]}},
{"type": "Feature", "id": "26IYyDcqUh9jpQBUY8aZDJgATlc=", "properties": {"ref": "13842", "@spider": "wellstar", "addr:full": "4940 Governors Drive Suite 209", "addr:city": "Forest Park", "addr:state": "GA", "addr:postcode": "30297", "name": " Grace Medical Practice, LTD", "phone": "(770) 277-1290", "brand": "WellStar Health System"}, "geometry": {"type": "Point", "coordinates": [-84.375931, 33.6195128]}},
{"type": "Feature", "id": "CdodSLbHKH6nKsABcsGAO0HJ8Ss=", "properties": {"ref": "1586", "@spider": "wellstar", "addr:full": "120 Vann Street NE Suite 150", "addr:city": "Marietta", "addr:state": "GA", "addr:postcode": "30060", "name": " Plastic Surgery Center of the South", "phone": "(770) 421-1242", "brand": "WellStar Health System"}, "geometry": {"type": "Point", "coordinates": [-84.54945099999999, 33.97194690000001]}},
{"type": "Feature", "id": "xoHB1G2e2TFXWW8h3zFr0o9fNHI=", "properties": {"ref": "2054", "@spider": "wellstar", "addr:full": "4904 Timber Ridge Drive Suite 303", "addr:city": "Douglasville", "addr:state": "GA", "addr:postcode": "30135", "name": " Classicare Internal Medicine", "phone": "(770) 489-5000", "brand": "WellStar Health System"}, "geometry": {"type": "Point", "coordinates": [-84.73592099999999, 33.7296963]}},
{"type": "Feature", "id": "3Ky1QagHUc36HY5Hmy1WCPi6ZPs=", "properties": {"ref": "3358", "@spider": "wellstar", "addr:full": "148 Bill Carruth Parkway Suite 340", "addr:city": "Hiram", "addr:state": "GA", "addr:postcode": "30141", "name": "Wellstar Neurology", "phone": "(470) 956-3845", "brand": "WellStar Health System"}, "geometry": {"type": "Point", "coordinates": [-84.78110679999999, 33.9007916]}},
{"type": "Feature", "id": "KYnVoV5nFR6biaIkg8Ni0XDbtQ4=", "properties": {"ref": "3510", "@spider": "wellstar", "addr:full": "1517 Vernon Road", "addr:city": "LaGrange", "addr:state": "GA", "addr:postcode": "30240", "name": " Quest Healthcare Solutions", "phone": "(706) 882-1411", "brand": "WellStar Health System"}, "geometry": {"type": "Point", "coordinates": [-85.05543279999999, 33.0317212]}},
{"type": "Feature", "id": "oIRXQQbWZuyuLc4eDkKwvYtVpIs=", "properties": {"ref": "3278", "@spider": "wellstar", "addr:full": "116 Upper Riverdale Road SW", "addr:city": "Riverdale", "addr:state": "GA", "addr:postcode": "30274", "name": "Wellstar Gynecologic Oncology", "phone": "(770) 907-3570", "brand": "WellStar Health System"}, "geometry": {"type": "Point", "coordinates": [-84.3937495, 33.5757776]}},
{"type": "Feature", "id": "sFfDMkkQ8NrLK3CfsPmzfLMzMxs=", "properties": {"ref": "304", "@spider": "wellstar", "addr:full": "3747 Roswell Road Suite 113", "addr:city": "Marietta", "addr:state": "GA", "addr:postcode": "30062", "name": "Wellstar Pharmacy", "phone": "(470) 956-0170", "opening_hours": "Mo-Fr 08:00-18:00", "brand": "WellStar Health System"}, "geometry": {"type": "Point", "coordinates": [-84.4447331594573, 33.9803642404911]}},
{"type": "Feature", "id": "vaUT2YaLu0FPdNK1D1V_-B-3cyI=", "properties": {"ref": "818", "@spider": "wellstar", "addr:full": "3747 Roswell Road Suite 217", "addr:city": "Marietta", "addr:state": "GA", "addr:postcode": "30062", "name": "Wellstar Sleep Center at East Cobb Park", "phone": "(470) 644-1755 ", "opening_hours": "Mo-Fr 08:30-17:00", "brand": "WellStar Health System"}, "geometry": {"type": "Point", "coordinates": [-84.4447602, 33.9803314]}},
{"type": "Feature", "id": "D9JNfShCE6CPkn4QGXqbrqrtXt0=", "properties": {"ref": "2450", "@spider": "wellstar", "addr:full": "699 Church Street NE Suite 340", "addr:city": "Marietta", "addr:state": "GA", "addr:postcode": "30060", "name": "Wellstar Otology", "phone": "(678) 355-1620", "brand": "WellStar Health System"}, "geometry": {"type": "Point", "coordinates": [-84.55125249999999, 33.9694326]}},
{"type": "Feature", "id": "fpw7xkRZb_Fd90a1kyW4EtsBMyY=", "properties": {"ref": "2510", "@spider": "wellstar", "addr:full": "1602 Vernon Road Suite 200", "addr:city": "LaGrange", "addr:state": "GA", "addr:postcode": "30240", "name": "Wellstar Obstetrics and Gynecology", "phone": "(706) 880-7252", "brand": "WellStar Health System"}, "geometry": {"type": "Point", "coordinates": [-85.06369, 33.0315429]}},
{"type": "Feature", "id": "tB5_tbwzzpxUfqYHM7DYit7OAsU=", "properties": {"ref": "13500", "@spider": "wellstar", "addr:full": "1050 McDonough Road", "addr:city": "Jackson", "addr:state": "GA", "addr:postcode": "30233", "name": " Georgia Imaging Associates", "phone": "(614) 210-1885", "brand": "WellStar Health System"}, "geometry": {"type": "Point", "coordinates": [-83.9778159, 33.3038123]}},
{"type": "Feature", "id": "YDe7NHfaaexubtLCwMDLOkizPfU=", "properties": {"ref": "3318", "@spider": "wellstar", "addr:full": "1505 Northside Boulevard Suite 3900", "addr:city": "Cumming", "addr:state": "GA", "addr:postcode": "30041", "name": "Wellstar Northside Hearing and Balance Center", "phone": "(770) 475-3361", "brand": "WellStar Health System"}, "geometry": {"type": "Point", "coordinates": [-84.14021500000001, 34.1770705]}},
{"type": "Feature", "id": "Bd9JdPcLMQEFRl5VjXzybWR7rdM=", "properties": {"ref": "2840", "@spider": "wellstar", "addr:full": "6002 Professional Parkway Suite 280", "addr:city": "Douglasville", "addr:state": "GA", "addr:postcode": "30134", "name": "Wellstar Allergy & Asthma", "phone": "(770) 333-2027", "brand": "WellStar Health System"}, "geometry": {"type": "Point", "coordinates": [-84.7273933, 33.7412967]}},
{"type": "Feature", "id": "A5GZZM9usCUIMZ-LVfErQG67Sq8=", "properties": {"ref": "1744", "@spider": "wellstar", "addr:full": "1505 Northside Boulevard Suite 1300", "addr:city": "Cumming", "addr:state": "GA", "addr:postcode": "30041", "name": " Hyperbaric Physicians of GA", "phone": "(770) 771-6400", "brand": "WellStar Health System"}, "geometry": {"type": "Point", "coordinates": [-84.14021500000001, 34.1770705]}},
{"type": "Feature", "id": "OSUfi5NtRSdr73Gkv0wDBmiD6NE=", "properties": {"ref": "3444", "@spider": "wellstar", "addr:full": "4550 Cobb Parkway North NW Suite 201A", "addr:city": "Acworth", "addr:state": "GA", "addr:postcode": "30101", "name": "Wellstar Family Medicine (Acworth)", "phone": "(770) 974-4655", "brand": "WellStar Health System"}, "geometry": {"type": "Point", "coordinates": [-84.7231938, 34.0679136]}},
{"type": "Feature", "id": "oTPo0zObQmBgsLSI577ytxVvbmU=", "properties": {"ref": "1422", "@spider": "wellstar", "addr:full": "6335 Hospital Parkway Suite 200", "addr:city": "Johns Creek", "addr:state": "GA", "addr:postcode": "30097", "name": " Resurgens Orthopaedics", "phone": "(404) 575-4500", "brand": "WellStar Health System"}, "geometry": {"type": "Point", "coordinates": [-84.1759435, 34.066186]}},
{"type": "Feature", "id": "g28F2eKGRdt1sHtnl8G22RmHHrE=", "properties": {"ref": "13706", "@spider": "wellstar", "addr:full": "1201 Georgian Park", "addr:city": "Peachtree City", "addr:state": "GA", "addr:postcode": "30269", "name": " Lifeboat Medical Associates", "phone": "(770) 631-4873", "brand": "WellStar Health System"}, "geometry": {"type": "Point", "coordinates": [-84.59185049999999, 33.4352629]}},
{"type": "Feature", "id": "_2b9xA3txcgKKhWb_PxHEx855cI=", "properties": {"ref": "1170", "@spider": "wellstar", "addr:full": "2401 Newnan Crossing Boulevard E Suite 140", "addr:city": "Newnan", "addr:state": "GA", "addr:postcode": "30265", "name": " Atlanta Perinatal Associates", "phone": "(404) 876-6071", "brand": "WellStar Health System"}, "geometry": {"type": "Point", "coordinates": [-84.7512242, 33.3603518]}},
{"type": "Feature", "id": "Ch4XNk0Otiec_NYUCEJ7AieJLg4=", "properties": {"ref": "629", "@spider": "wellstar", "addr:full": "400 Tower Road Suite 110", "addr:city": "Marietta", "addr:state": "GA", "addr:postcode": "30060", "name": "Wellstar Lab Services", "phone": "(770) 793-5900", "opening_hours": "Mo-Fr 08:00-17:00", "brand": "WellStar Health System"}, "geometry": {"type": "Point", "coordinates": [-84.5584286, 33.9706819]}},
{"type": "Feature", "id": "DdrMFfErf9O-WqGfkHDWxBUt1rM=", "properties": {"ref": "2772", "@spider": "wellstar", "addr:full": "3950 Austell Road", "addr:city": "Austell", "addr:state": "GA", "addr:postcode": "30106", "name": "Wellstar Pulmonary Medicine", "phone": "(770) 422-1372", "brand": "WellStar Health System"}, "geometry": {"type": "Point", "coordinates": [-84.6040933, 33.8571069]}},
{"type": "Feature", "id": "oXQlj4r0ciOe3y2mLnqcZhQrpYA=", "properties": {"ref": "13668", "@spider": "wellstar", "addr:full": "12201 Highway 92 Suite D", "addr:city": "Woodstock", "addr:state": "GA", "addr:postcode": "30188", "name": "Wellstar KSU Health Center", "phone": "(770) 517-4621", "brand": "WellStar Health System"}, "geometry": {"type": "Point", "coordinates": [-84.4816283, 34.0880309]}},
{"type": "Feature", "id": "fuFrSgOvWusR3SZTJFZbT0JfCpk=", "properties": {"ref": "2430", "@spider": "wellstar", "addr:full": "315 Boulevard NE Suite 500", "addr:city": "Atlanta", "addr:state": "GA", "addr:postcode": "30312", "name": "Wellstar Surgical Specialists of Atlanta", "phone": "(404) 265-3635", "brand": "WellStar Health System"}, "geometry": {"type": "Point", "coordinates": [-84.37137290000001, 33.7630308]}},
{"type": "Feature", "id": "WITsyDbK3Hw80WfZFzphywPUZNM=", "properties": {"ref": "1618", "@spider": "wellstar", "addr:full": "1500 South Johnson Ferry Road", "addr:city": "Atlanta", "addr:state": "GA", "addr:postcode": "30319", "name": " Kennestone Family Medicine", "phone": "(770) 795-8070", "brand": "WellStar Health System"}, "geometry": {"type": "Point", "coordinates": [-84.34785839999999, 33.9029937]}},
{"type": "Feature", "id": "SLr8dtBn2nuhYttB4XFG6zmGbrQ=", "properties": {"ref": "13490", "@spider": "wellstar", "addr:full": "55 Whitcher Street NE Suite 160", "addr:city": "Marietta", "addr:state": "GA", "addr:postcode": "30060", "name": "Wellstar Cardiovascular Medicine", "phone": "(770) 424-6893", "brand": "WellStar Health System"}, "geometry": {"type": "Point", "coordinates": [-84.5513203, 33.9668232]}},
{"type": "Feature", "id": "F1lgcAq6tRa59YLRgUk81WOa82I=", "properties": {"ref": "2454", "@spider": "wellstar", "addr:full": "175 White Street NW Suite 100", "addr:city": "Marietta", "addr:state": "GA", "addr:postcode": "30060", "name": "Wellstar Palliative Medicine", "phone": "(470) 793-0200", "brand": "WellStar Health System"}, "geometry": {"type": "Point", "coordinates": [-84.55473219999999, 33.9718764]}},
{"type": "Feature", "id": "9ZM5hjfqQ8TfthA2zDDePrCGOTk=", "properties": {"ref": "445", "@spider": "wellstar", "addr:full": "3540 Cobb Parkway NW Suite 300", "addr:city": "Acworth", "addr:state": "GA", "addr:postcode": "30101", "name": " PT Solutions of Acworth East", "phone": "(678) 501-6300", "brand": "WellStar Health System"}, "geometry": {"type": "Point", "coordinates": [-84.6929104, 34.0412804]}},
{"type": "Feature", "id": "_A5toUzLU7W4nJTIV58lGCVupTw=", "properties": {"ref": "13678", "@spider": "wellstar", "addr:full": "454 LaGrange Street", "addr:city": "Greenville", "addr:state": "GA", "addr:postcode": "30222", "name": "Wellstar Internal Medicine", "phone": "(706) 845-3599", "brand": "WellStar Health System"}, "geometry": {"type": "Point", "coordinates": [-84.7238627, 33.0238734]}},
{"type": "Feature", "id": "3i3QBuqK1tDRuUKcMff4fw3HRvI=", "properties": {"ref": "2732", "@spider": "wellstar", "addr:full": "1120 Wellstar Way Suite 302", "addr:city": "Holly Springs", "addr:state": "GA", "addr:postcode": "30114", "name": "Wellstar Hand Surgery", "phone": "(470) 267-0190", "brand": "WellStar Health System"}, "geometry": {"type": "Point", "coordinates": [-84.5198669, 34.1429328]}},
{"type": "Feature", "id": "qAnabuvLE4nrck8qKZq6GGTsqb4=", "properties": {"ref": "13914", "@spider": "wellstar", "addr:full": "61 Whitcher Street Suite 2150", "addr:city": "Marietta", "addr:state": "GA", "addr:postcode": "30060", "name": " Pediatric Emergency Medicine Associates", "phone": "(770) 422-4268", "brand": "WellStar Health System"}, "geometry": {"type": "Point", "coordinates": [-84.5516894, 33.9671871]}},
{"type": "Feature", "id": "rZSKthjYlpKMRuj10Ji5GFNTXt0=", "properties": {"ref": "1472", "@spider": "wellstar", "addr:full": "3890 Johns Creek Parkway Suite 180", "addr:city": "Suwanee", "addr:state": "GA", "addr:postcode": "30024", "name": " Infectious Disease Services of Georgia", "phone": "(678) 551-6970", "brand": "WellStar Health System"}, "geometry": {"type": "Point", "coordinates": [-84.1627206, 34.0677619]}},
{"type": "Feature", "id": "lT0qpYMtx6qYqQ0yX_OT9XNSR2Q=", "properties": {"ref": "2944", "@spider": "wellstar", "addr:full": "4250 Brownsville Road", "addr:city": "Powder Springs", "addr:state": "GA", "addr:postcode": "30127", "name": "Wellstar Palliative Medicine", "phone": "(678) 567-8000", "brand": "WellStar Health System"}, "geometry": {"type": "Point", "coordinates": [-84.6946095, 33.8505334]}},
{"type": "Feature", "id": "pgRKuiBiQG7u4wWYxGwarTUkqBE=", "properties": {"ref": "13686", "@spider": "wellstar", "addr:full": "3000 Hospital Boulevard", "addr:city": "Roswell", "addr:state": "GA", "addr:postcode": "30076", "name": "Wellstar Neuroscience", "phone": "(770) 663-4649", "brand": "WellStar Health System"}, "geometry": {"type": "Point", "coordinates": [-84.31985399999999, 34.0630617]}},
{"type": "Feature", "id": "N6NiisyJHVwQbOllN_n3F2B8Qwk=", "properties": {"ref": "1604", "@spider": "wellstar", "addr:full": "5673 Peachtree Dunwoody Road NE Suite 470", "addr:city": "Atlanta", "addr:state": "GA", "addr:postcode": "30342", "name": " Village Podiatry Group", "phone": "(404) 237-3668", "brand": "WellStar Health System"}, "geometry": {"type": "Point", "coordinates": [-84.35033109999999, 33.9100496]}},
{"type": "Feature", "id": "00GGLPd40DUPf7yf0jA3oQ9NJlc=", "properties": {"ref": "2888", "@spider": "wellstar", "addr:full": "148 Bill Carruth Parkway Suite 180", "addr:city": "Hiram", "addr:state": "GA", "addr:postcode": "30141", "name": "Wellstar General Surgery", "phone": "(770) 445-4915", "brand": "WellStar Health System"}, "geometry": {"type": "Point", "coordinates": [-84.78110679999999, 33.9007916]}},
{"type": "Feature", "id": "Kmsi_k9xZIwn8ZmZWtIcn37FmTE=", "properties": {"ref": "2212", "@spider": "wellstar", "addr:full": "8954 Hospital Drive", "addr:city": "Douglasville", "addr:state": "GA", "addr:postcode": "30134", "name": "Wellstar Hospitalist Group Medicine", "phone": "(678) 838-2585", "brand": "WellStar Health System"}, "geometry": {"type": "Point", "coordinates": [-84.7314746, 33.7390326]}},
{"type": "Feature", "id": "H7J5eAPwqvE-AlmUng7VBTDSQ48=", "properties": {"ref": "2596", "@spider": "wellstar", "addr:full": "4581 South Cobb Drive SE Suite 100", "addr:city": "Smyrna", "addr:state": "GA", "addr:postcode": "30080", "name": "Wellstar Pediatric & Adolescent Center", "phone": "(770) 801-5000", "brand": "WellStar Health System"}, "geometry": {"type": "Point", "coordinates": [-84.4985391, 33.8439108]}},
{"type": "Feature", "id": "hAO7FuIIo6xkVNTzQFixDI24-bY=", "properties": {"ref": "1382", "@spider": "wellstar", "addr:full": "1109 Eagles Landing Parkway", "addr:city": "Stockbridge", "addr:state": "GA", "addr:postcode": "30281", "name": " American Foot & Leg Specialist", "phone": "(404) 363-9944", "brand": "WellStar Health System"}, "geometry": {"type": "Point", "coordinates": [-84.22487439999999, 33.5089859]}},
{"type": "Feature", "id": "1aCYuKnKyagLr7ntTbkySUnYmWc=", "properties": {"ref": "1584", "@spider": "wellstar", "addr:full": "5400 Laurel Springs Parkway Suite 1403", "addr:city": "Suwanee", "addr:state": "GA", "addr:postcode": "30024", "name": " South Atlanta Urology & Gynecology Associates", "phone": "(678) 904-5211", "brand": "WellStar Health System"}, "geometry": {"type": "Point", "coordinates": [-84.15769279999999, 34.0851226]}},
{"type": "Feature", "id": "i88mSJtya8-SR2gg7M-fc-bQ8no=", "properties": {"ref": "922", "@spider": "wellstar", "addr:full": "2518 Jimmy Lee Smith Parkway Atrium Conference Room, Second Level", "addr:city": "Hiram", "addr:state": "GA", "addr:postcode": "30141", "name": "Wellstar Diabetes Center at Paulding Hospital ", "phone": "(770) 793-7828", "brand": "WellStar Health System"}, "geometry": {"type": "Point", "coordinates": [-84.7816248, 33.901053]}},
{"type": "Feature", "id": "hZVepCb63sN1LgeDSM8G_2qXZTk=", "properties": {"ref": "13536", "@spider": "wellstar", "addr:full": "2001 Professional Parkway Suite 250", "addr:city": "Woodstock", "addr:state": "GA", "addr:postcode": "30188", "name": " Goodman Dermatology, PC", "phone": "(770) 754-0791", "brand": "WellStar Health System"}, "geometry": {"type": "Point", "coordinates": [-84.5218093, 34.0828839]}},
{"type": "Feature", "id": "u-JJLGpAEbArkH1GGYpER-BVcAc=", "properties": {"ref": "3042", "@spider": "wellstar", "addr:full": "777 West Peachtree Street", "addr:city": "Norcross", "addr:state": "GA", "addr:postcode": "30071", "name": " Buford-Norcross Primary Care", "phone": "(770) 246-6100", "brand": "WellStar Health System"}, "geometry": {"type": "Point", "coordinates": [-84.22357769999999, 33.9356813]}},
{"type": "Feature", "id": "3zSTZcZR85NWz9wVfaeeQe4Q1qQ=", "properties": {"ref": "452", "@spider": "wellstar", "addr:full": "4880 Lower Roswell Road Suite 625", "addr:city": "Marietta", "addr:state": "GA", "addr:postcode": "30068", "name": " PT Solutions of Lower Roswell", "phone": "(678) 809-8443", "brand": "WellStar Health System"}, "geometry": {"type": "Point", "coordinates": [-84.4096426, 33.9637545]}},
{"type": "Feature", "id": "1JtjT8V6WOJJTP4tsAJD8UlD2Dg=", "properties": {"ref": "420", "@spider": "wellstar", "addr:full": "144 Bill Carruth Parkway Suite 1600", "addr:city": "Hiram", "addr:state": "GA", "addr:postcode": "30141", "name": "Wellstar Physical Therapy", "phone": " (470) 956-8990", "opening_hours": "Mo-Th 07:00-19:00; Fr 07:00-17:00", "brand": "WellStar Health System"}, "geometry": {"type": "Point", "coordinates": [-84.7810955, 33.9007128]}},
{"type": "Feature", "id": "NyeKA-reHjFAkrO-mYAKY70C5hA=", "properties": {"ref": "2528", "@spider": "wellstar", "addr:full": "3950 Austell Road", "addr:city": "Austell", "addr:state": "GA", "addr:postcode": "30106", "name": "Wellstar Pathologist Group", "phone": "(770) 732-3585", "brand": "WellStar Health System"}, "geometry": {"type": "Point", "coordinates": [-84.6040933, 33.8571069]}},
{"type": "Feature", "id": "I__C5EJuygBzlXhvbo01xZ4JId0=", "properties": {"ref": "1836", "@spider": "wellstar", "addr:full": "3535 Roswell Road Suite 54", "addr:city": "Marietta", "addr:state": "GA", "addr:postcode": "30062", "name": " Advance Foot & Ankle Ins of GA", "phone": "(678) 679-3300", "brand": "WellStar Health System"}, "geometry": {"type": "Point", "coordinates": [-84.4489361, 33.9797467]}},
{"type": "Feature", "id": "OPByvD4Q9j6uHJuobw7LKUDNzxY=", "properties": {"ref": "2134", "@spider": "wellstar", "addr:full": "1700 Hospital South Drive Suite 404", "addr:city": "Austell", "addr:state": "GA", "addr:postcode": "30106", "name": "Wellstar Urology", "phone": "(770) 428-4475", "opening_hours": "Mo-Fr 08:00-16:30", "brand": "WellStar Health System"}, "geometry": {"type": "Point", "coordinates": [-84.60510409999999, 33.855786]}},
{"type": "Feature", "id": "JIsg_y2FrwwC3WeNEjC-QC7q7Tc=", "properties": {"ref": "1398", "@spider": "wellstar", "addr:full": "4374 Atlanta Highway Suite 129", "addr:city": "Hiram", "addr:state": "GA", "addr:postcode": "30141", "name": " Douglas Neurology Associates", "phone": "(678) 838-2180", "brand": "WellStar Health System"}, "geometry": {"type": "Point", "coordinates": [-84.77292460000001, 33.9033001]}},
{"type": "Feature", "id": "mySZB3899rsPIPTILeCpJE9v-mc=", "properties": {"ref": "2328", "@spider": "wellstar", "addr:full": "205 Hawkins Store Road NW Suite B1", "addr:city": "Kennesaw", "addr:state": "GA", "addr:postcode": "30144", "name": "Wellstar North Cobb Pediatrics", "phone": "(770) 928-0862", "brand": "WellStar Health System"}, "geometry": {"type": "Point", "coordinates": [-84.55624689999999, 34.057479]}},
{"type": "Feature", "id": "g0qQmnqMmTXFmAsZbuOIfsJGtWU=", "properties": {"ref": "1704", "@spider": "wellstar", "addr:full": "5041 Dallas Highway Suite 101H", "addr:city": "Powder Springs", "addr:state": "GA", "addr:postcode": "30127", "name": " Village Podiatry Group", "phone": "(770) 499-0080", "brand": "WellStar Health System"}, "geometry": {"type": "Point", "coordinates": [-84.69857069999999, 33.9408832]}},
{"type": "Feature", "id": "NWjmsyIdk08AC2dbfkI7t_vl9l8=", "properties": {"ref": "3164", "@spider": "wellstar", "addr:full": "980 Woodstock Parkway Suite 300", "addr:city": "Woodstock", "addr:state": "GA", "addr:postcode": "30188", "name": " Center for Spine Interventions, PC", "phone": "(678) 813-2741", "brand": "WellStar Health System"}, "geometry": {"type": "Point", "coordinates": [-84.5325845, 34.113036]}},
{"type": "Feature", "id": "Btfv_BTuxYVieGK8-hEHgjQg-8w=", "properties": {"ref": "2574", "@spider": "wellstar", "addr:full": "1180 Ernest W Barrett Parkway Suite 100", "addr:city": "Kennesaw", "addr:state": "GA", "addr:postcode": "30144", "name": "Wellstar Pediatric Anesthesia", "phone": "(770) 644-1274", "brand": "WellStar Health System"}, "geometry": {"type": "Point", "coordinates": [-84.58452690000001, 34.001146]}},
{"type": "Feature", "id": "l66vWbNuM5eemdaq6i5LnOl4WRM=", "properties": {"ref": "13872", "@spider": "wellstar", "addr:full": "598 Nancy Street NW Suite 150", "addr:city": "Marietta", "addr:state": "GA", "addr:postcode": "30060", "name": " NW Oral & Maxillofacial Sury.", "phone": "(770) 672-5629", "brand": "WellStar Health System"}, "geometry": {"type": "Point", "coordinates": [-84.55644699999999, 33.965623]}},
{"type": "Feature", "id": "Xy1V3BJwFqfTT4kaxoiBnW6l4yY=", "properties": {"ref": "3290", "@spider": "wellstar", "addr:full": "8954 Hospital Drive", "addr:city": "Douglasville", "addr:state": "GA", "addr:postcode": "30134", "name": "Wellstar Sound Physicians", "phone": "(678) 838-2585", "brand": "WellStar Health System"}, "geometry": {"type": "Point", "coordinates": [-84.7314746, 33.7390326]}},
{"type": "Feature", "id": "qvDDoThSY8oCiygFMvcBwdoot1A=", "properties": {"ref": "2304", "@spider": "wellstar", "addr:full": "1551 Doctors Drive", "addr:city": "LaGrange", "addr:state": "GA", "addr:postcode": "30240", "name": "Wellstar Pulmonary Medicine", "phone": "(706) 880-7222", "opening_hours": "Mo-Th 08:00-17:00; Fr 08:00-15:00", "brand": "WellStar Health System"}, "geometry": {"type": "Point", "coordinates": [-85.0593485, 33.0302747]}},
{"type": "Feature", "id": "e741bHED5aROa_fJcxyhA9vGJxM=", "properties": {"ref": "2916", "@spider": "wellstar", "addr:full": "3886 Princeton Lakes Way SW Suite 160", "addr:city": "Atlanta", "addr:state": "GA", "addr:postcode": "30331", "name": "Wellstar Gynecologic Oncology", "phone": "(770) 792-6262", "opening_hours": "Mo-Fr 08:00-16:30", "brand": "WellStar Health System"}, "geometry": {"type": "Point", "coordinates": [-84.5137805, 33.6612905]}},
{"type": "Feature", "id": "RmRQGez-CGI0VmJWijwimLKdRzc=", "properties": {"ref": "2544", "@spider": "wellstar", "addr:full": "1791 Mulkey Road Suite 200", "addr:city": "Austell", "addr:state": "GA", "addr:postcode": "30106", "name": "Wellstar Cobb Gynecologists", "phone": "(770) 732-5400", "opening_hours": "Mo-Th 08:30-16:30; Fr 08:00-15:30", "brand": "WellStar Health System"}, "geometry": {"type": "Point", "coordinates": [-84.6055131, 33.8585862]}},
{"type": "Feature", "id": "QFwqEBzCm6QRFPaPMuhfZtQkXPQ=", "properties": {"ref": "413", "@spider": "wellstar", "addr:full": "1600 Vernon Road", "addr:city": "LaGrange", "addr:state": "GA", "addr:postcode": "30240", "name": "Wellstar Physical Therapy", "phone": " (706) 845-3883", "opening_hours": "Mo-Th 07:00-17:30; Fr 07:00-17:00", "brand": "WellStar Health System"}, "geometry": {"type": "Point", "coordinates": [-85.0653512, 33.0311272]}},
{"type": "Feature", "id": "FCsqfovZluoUPKOpvPke2qtvrwI=", "properties": {"ref": "3200", "@spider": "wellstar", "addr:full": "833 Campbell Hill Street NW Suite 250", "addr:city": "Marietta", "addr:state": "GA", "addr:postcode": "30060", "name": "Wellstar Internal Med Assoc of Marietta", "phone": "(470) 956-2020", "brand": "WellStar Health System"}, "geometry": {"type": "Point", "coordinates": [-84.5524397, 33.9719488]}},
{"type": "Feature", "id": "q4OWQh6QpkndVc_Bc7jOhtebWvk=", "properties": {"ref": "2762", "@spider": "wellstar", "addr:full": "55 Whitcher Street Suite 130A", "addr:city": "Marietta", "addr:state": "GA", "addr:postcode": "30060", "name": "Wellstar Internal Medicine Lovett", "phone": "(770) 428-0462", "brand": "WellStar Health System"}, "geometry": {"type": "Point", "coordinates": [-84.5513203, 33.9668232]}},
{"type": "Feature", "id": "ii-zo88deiN7gSdiSXAaH3iNIh4=", "properties": {"ref": "1506", "@spider": "wellstar", "addr:full": "2045 Highway 34 E", "addr:city": "Newnan", "addr:state": "GA", "addr:postcode": "30265", "name": " Skin Cancer Specialists, PC", "phone": "(770) 502-0202", "brand": "WellStar Health System"}, "geometry": {"type": "Point", "coordinates": [-84.71392399999999, 33.4030259]}},
{"type": "Feature", "id": "fMmsjLmEMVyxkd8OwLinoflgE3k=", "properties": {"ref": "2608", "@spider": "wellstar", "addr:full": "6095 Professional Parkway Suite 100", "addr:city": "Douglasville", "addr:state": "GA", "addr:postcode": "30134", "name": "Wellstar Creekside Pediatrics", "phone": "(770) 920-2255", "opening_hours": "Mo-Fr 08:30-16:45; Sa 09:00-12:00", "brand": "WellStar Health System"}, "geometry": {"type": "Point", "coordinates": [-84.7300054, 33.7405373]}},
{"type": "Feature", "id": "Ac02-OF9GGZCxNOq6yCuaAkhrpk=", "properties": {"ref": "1212", "@spider": "wellstar", "addr:full": "240 Ponce De Leon Avenue", "addr:city": "Atlanta", "addr:state": "GA", "addr:postcode": "30308", "name": " Southeast Kidney Associates", "phone": "(404) 761-0819", "brand": "WellStar Health System"}, "geometry": {"type": "Point", "coordinates": [-84.3795444, 33.7729301]}},
{"type": "Feature", "id": "h9HCpMzRdM-HZjh_Ay65f-OKvSU=", "properties": {"ref": "1550", "@spider": "wellstar", "addr:full": "702 Canton Road NE", "addr:city": "Marietta", "addr:state": "GA", "addr:postcode": "30060", "name": " The Philip Israel Breast Center, PC", "phone": "(770) 428-4486", "brand": "WellStar Health System"}, "geometry": {"type": "Point", "coordinates": [-84.547364, 33.9687831]}},
{"type": "Feature", "id": "HYFd4oan66DdnV_Nau5cH-aw3a8=", "properties": {"ref": "1358", "@spider": "wellstar", "addr:full": "699 Church Street NE Suite 220", "addr:city": "Marietta", "addr:state": "GA", "addr:postcode": "30060", "name": " Marietta Ob-Gyn Affiliates", "phone": "(770) 422-8505", "brand": "WellStar Health System"}, "geometry": {"type": "Point", "coordinates": [-84.55125249999999, 33.9694326]}},
{"type": "Feature", "id": "SUQC3YVnmko4Mx8-BW1NFLLEQGE=", "properties": {"ref": "415", "@spider": "wellstar", "addr:full": "702 Veterans Parkway", "addr:city": "Barnesville", "addr:state": "GA", "addr:postcode": "30204", "name": "Wellstar Physical Therapy", "phone": "(770) 358-0715", "opening_hours": "Mo-Th 08:00-18:30; Fr 08:00-16:30", "brand": "WellStar Health System"}, "geometry": {"type": "Point", "coordinates": [-84.1700604, 33.0417562]}},
{"type": "Feature", "id": "scHLDNJQ711ZUdwd5Oox5I66SIs=", "properties": {"ref": "4003", "@spider": "wellstar", "addr:full": "1700 Hospital South Drive Suite 410", "addr:city": "Austell", "addr:state": "GA", "addr:postcode": "30106", "name": "Wellstar Cardiac Diagnostics", "phone": "(770) 732-4500", "opening_hours": "Mo-Th 08:00-16:30", "brand": "WellStar Health System"}, "geometry": {"type": "Point", "coordinates": [-84.6072928, 33.855786]}},
{"type": "Feature", "id": "feTo3X0526_fpzcKZljbLTdUJHo=", "properties": {"ref": "13880", "@spider": "wellstar", "addr:full": "1211 Johnson Ferry Road", "addr:city": "Marietta", "addr:state": "GA", "addr:postcode": "30068", "name": "Wellstar Hand Surgery", "phone": "(470) 267-0190", "brand": "WellStar Health System"}, "geometry": {"type": "Point", "coordinates": [-84.4199337, 33.9784803]}},
{"type": "Feature", "id": "qypGaTht1tZLEBiuuG2rO9--2TU=", "properties": {"ref": "1560", "@spider": "wellstar", "addr:full": "200 Galleria Parkway SE Suite 590", "addr:city": "Atlanta", "addr:state": "GA", "addr:postcode": "30339", "name": " Center Cosmetic/Reconstructive", "phone": "(770) 951-7595", "brand": "WellStar Health System"}, "geometry": {"type": "Point", "coordinates": [-84.4635957, 33.8858946]}},
{"type": "Feature", "id": "PD7h3auKKS84R2uerCRVSI_zcxI=", "properties": {"ref": "1018", "@spider": "wellstar", "addr:full": "3823 Roswell Road Suite 201", "addr:city": "Marietta", "addr:state": "GA", "addr:postcode": "30062", "name": " Acupuncture and Injury", "phone": "(678) 247-2115", "brand": "WellStar Health System"}, "geometry": {"type": "Point", "coordinates": [-84.440282, 33.9785318]}},
{"type": "Feature", "id": "21-UumfdFuLrCSEMrg6eWEAP7cw=", "properties": {"ref": "13596", "@spider": "wellstar", "addr:full": "677 Church Street NE", "addr:city": "Marietta", "addr:state": "GA", "addr:postcode": "30060", "name": "Wellstar Rheumatology Associates", "phone": "(770) 793-7750", "brand": "WellStar Health System"}, "geometry": {"type": "Point", "coordinates": [-84.5516503, 33.9694112]}},
{"type": "Feature", "id": "2qnLYe6LB1z6bnjuRM2EVzmkpas=", "properties": {"ref": "13812", "@spider": "wellstar", "addr:full": "355 Tower Road NE Suite 300", "addr:city": "Marietta", "addr:state": "GA", "addr:postcode": "30060", "name": "Wellstar Internal Medicine", "phone": "(770) 427-2457", "brand": "WellStar Health System"}, "geometry": {"type": "Point", "coordinates": [-84.5560422, 33.9696765]}},
{"type": "Feature", "id": "kD-CdQ-IBs_-8gmXdRI_mc-oJA4=", "properties": {"ref": "620", "@spider": "wellstar", "addr:full": "4500 Hospital Boulevard Suite 120", "addr:city": "Roswell", "addr:state": "GA", "addr:postcode": "30076", "name": "Wellstar Lab Services at North Fulton Hospital", "phone": " (770) 793-5900", "opening_hours": "Mo-Fr 08:00-17:00", "brand": "WellStar Health System"}, "geometry": {"type": "Point", "coordinates": [-84.3202224, 34.0630925]}},
{"type": "Feature", "id": "zlg0DGNPXaSnOS0zTVMwKolx2PA=", "properties": {"ref": "2000", "@spider": "wellstar", "addr:full": "440 Ernest W Barrett Parkway NW Suite 62", "addr:city": "Kennesaw", "addr:state": "GA", "addr:postcode": "30144", "name": " Barret Parkway Foot and Leg Sp", "phone": "(770) 422-0280", "brand": "WellStar Health System"}, "geometry": {"type": "Point", "coordinates": [-84.5645018, 34.012755]}},
{"type": "Feature", "id": "i8eIL5IRwshnDYZijoxoDuhfaZA=", "properties": {"ref": "2744", "@spider": "wellstar", "addr:full": "1180 Ernest W Barrett Parkway NW Suite 102B", "addr:city": "Kennesaw", "addr:state": "GA", "addr:postcode": "30144", "name": "Wellstar Pediatrics East Cobb", "phone": "(678) 354-2273", "brand": "WellStar Health System"}, "geometry": {"type": "Point", "coordinates": [-84.58452690000001, 34.001146]}},
{"type": "Feature", "id": "AC1PTiRm20pFhoAEyjxyBrJ-MAI=", "properties": {"ref": "3012", "@spider": "wellstar", "addr:full": "1790 Mulkey Road Suite 9A", "addr:city": "Austell", "addr:state": "GA", "addr:postcode": "30106", "name": " Women's Healthcare Ctr of GA", "phone": "(770) 739-1200", "brand": "WellStar Health System"}, "geometry": {"type": "Point", "coordinates": [-84.60574489999999, 33.8593133]}},
{"type": "Feature", "id": "P1lg3WZnPbiuhF6KdbPrRaFv58s=", "properties": {"ref": "2612", "@spider": "wellstar", "addr:full": "54 Tower Road NE", "addr:city": "Marietta", "addr:state": "GA", "addr:postcode": "30060", "name": "Wellstar Marietta Internal Medicine", "phone": "(770) 427-4682", "opening_hours": "Mo-Fr 08:30-17:00", "brand": "WellStar Health System"}, "geometry": {"type": "Point", "coordinates": [-84.55346310000002, 33.9707349]}},
{"type": "Feature", "id": "5W4Lcr5Zajc2xfWkAntR5hZJl8Q=", "properties": {"ref": "2180", "@spider": "wellstar", "addr:full": "6001 Professional Parkway Suite 2080", "addr:city": "Douglasville", "addr:state": "GA", "addr:postcode": "30134", "name": "Wellstar Cardiovascular Medicine", "phone": "(678) 715-5080", "opening_hours": "Mo-Fr 07:45-17:00", "brand": "WellStar Health System"}, "geometry": {"type": "Point", "coordinates": [-84.7277198, 33.740614]}},
{"type": "Feature", "id": "8fVZHkDHB7pXh3wLonkQF4kQUSU=", "properties": {"ref": "2166", "@spider": "wellstar", "addr:full": "61 Whitcher Street NE Suite 4120", "addr:city": "Marietta", "addr:state": "GA", "addr:postcode": "30060", "name": "Wellstar Thoracic Surgery", "phone": "(770) 424-9732", "opening_hours": "Mo-Fr 08:00-17:00", "brand": "WellStar Health System"}, "geometry": {"type": "Point", "coordinates": [-84.5516894, 33.9671871]}},
{"type": "Feature", "id": "5C-_TtUILf4sGhfnSTEHNpbs1Ik=", "properties": {"ref": "726", "@spider": "wellstar", "addr:full": "3747 Roswell Road Suite 102", "addr:city": "Marietta", "addr:state": "GA", "addr:postcode": "30062", "name": "Wellstar Imaging Services at East Cobb Health Park", "phone": "(678) 581-5900", "opening_hours": "Mo-Fr 08:00-17:00", "brand": "WellStar Health System"}, "geometry": {"type": "Point", "coordinates": [-84.444636, 33.980346]}},
{"type": "Feature", "id": "WNxtgv4EgMooFV-nwmVAFfUygsc=", "properties": {"ref": "13702", "@spider": "wellstar", "addr:full": "600 Professional Drive Suite 130", "addr:city": "Lawrenceville", "addr:state": "GA", "addr:postcode": "30046", "name": " North Fulton General Surgery", "phone": "(770) 442-3117", "brand": "WellStar Health System"}, "geometry": {"type": "Point", "coordinates": [-84.0110413, 33.9641894]}},
{"type": "Feature", "id": "lG-o56xo4gniE22k_C2rh6JsxCE=", "properties": {"ref": "742", "@spider": "wellstar", "addr:full": "6002 Professional Parkway Suite 120", "addr:city": "Douglasville", "addr:state": "GA", "addr:postcode": "30134", "name": "Wellstar Imaging Services ", "phone": "(678) 581-5900", "opening_hours": "Mo-Fr 07:00-18:00", "brand": "WellStar Health System"}, "geometry": {"type": "Point", "coordinates": [-84.729582, 33.7412967]}},
{"type": "Feature", "id": "-GafZn3nE-7W_m7tfsdRyXpw42M=", "properties": {"ref": "13746", "@spider": "wellstar", "addr:full": "1555 Doctors Drive Suite 102", "addr:city": "LaGrange", "addr:state": "GA", "addr:postcode": "30240", "name": "Wellstar Rehab Medicine", "phone": "(706) 298-5592", "brand": "WellStar Health System"}, "geometry": {"type": "Point", "coordinates": [-85.0604846, 33.0303195]}},
{"type": "Feature", "id": "lklh1fUEzh8vs8H5bO9vbFSKgkY=", "properties": {"ref": "2842", "@spider": "wellstar", "addr:full": "3355 Cascade Road Suite 100", "addr:city": "Atlanta", "addr:state": "GA", "addr:postcode": "30311", "name": "Wellstar Family Medicine", "phone": "(404) 691-2529", "opening_hours": "Mo-Th 08:00-16:00; Fr 08:00-12:00", "brand": "WellStar Health System"}, "geometry": {"type": "Point", "coordinates": [-84.498662, 33.7230209]}},
{"type": "Feature", "id": "ckKxy3lgKNEUzUtw2u3N807B3Pw=", "properties": {"ref": "1740", "@spider": "wellstar", "addr:full": "1505 Stone Bridge Parkway Suite 100", "addr:city": "Woodstock", "addr:state": "GA", "addr:postcode": "30189", "name": " Vascular Surgical Associates, P.C.", "phone": "(770) 423-0595", "opening_hours": "Mo-Fr 08:00-17:00", "brand": "WellStar Health System"}, "geometry": {"type": "Point", "coordinates": [-84.5365774, 34.1031046]}},
{"type": "Feature", "id": "XKLSOD7jf_wKCyCJ619HtHos-gc=", "properties": {"ref": "3232", "@spider": "wellstar", "addr:full": "1120 Wellstar Way Suite 305", "addr:city": "Holly Springs", "addr:state": "GA", "addr:postcode": "30114", "name": " Northwest Georgia Oncology Centers Wellstar", "phone": "(470) 267-0230", "opening_hours": "Mo-Tu 08:30-17:00", "brand": "WellStar Health System"}, "geometry": {"type": "Point", "coordinates": [-84.5198669, 34.1429328]}},
{"type": "Feature", "id": "1XoHAx0JQiIa0i6aMUCbFc5ygr4=", "properties": {"ref": "1062", "@spider": "wellstar", "addr:full": "1300 Ridenour Boulevard NW Suite 300", "addr:city": "Kennesaw", "addr:state": "GA", "addr:postcode": "30152", "name": " MAK Anesthesia Wellstar", "phone": "(770) 702-1806", "brand": "WellStar Health System"}, "geometry": {"type": "Point", "coordinates": [-84.5894776, 33.995764]}},
{"type": "Feature", "id": "LTSCChD7ue_g2BHr4SS6oP0LWpY=", "properties": {"ref": "1328", "@spider": "wellstar", "addr:full": "950 Sanders Road", "addr:city": "Cumming", "addr:state": "GA", "addr:postcode": "30041", "name": " North Fulton Ear, Nose & Throat Associates", "phone": "(770) 886-5821", "brand": "WellStar Health System"}, "geometry": {"type": "Point", "coordinates": [-84.1246716, 34.1830538]}},
{"type": "Feature", "id": "Vdr5AHwVbweyoz3gQLElhTXT280=", "properties": {"ref": "1306", "@spider": "wellstar", "addr:full": "1350 Upper Hembree Road Suite 100", "addr:city": "Roswell", "addr:state": "GA", "addr:postcode": "30076", "name": " Village Podiatry Group", "phone": "(770) 663-8011", "brand": "WellStar Health System"}, "geometry": {"type": "Point", "coordinates": [-84.3201417, 34.0676279]}},
{"type": "Feature", "id": "2fOUFEpfvhq6FZ0PAWKSulPeDdg=", "properties": {"ref": "1952", "@spider": "wellstar", "addr:full": "3875 Austell Road Suite 101", "addr:city": "Austell", "addr:state": "GA", "addr:postcode": "30106", "name": " Cobb Neph Hypertension Assoc.", "phone": "(678) 460-2700", "brand": "WellStar Health System"}, "geometry": {"type": "Point", "coordinates": [-84.59931139999999, 33.8585847]}},
{"type": "Feature", "id": "1CVSdgxBih7C-O7PvmdHpgqyBNw=", "properties": {"ref": "1988", "@spider": "wellstar", "addr:full": "670 North Avenue NW Suite 100", "addr:city": "Marietta", "addr:state": "GA", "addr:postcode": "30060", "name": " Marietta Rheumatology Assoc.", "phone": "(770) 590-8328", "brand": "WellStar Health System"}, "geometry": {"type": "Point", "coordinates": [-84.55529299999999, 33.967728]}},
{"type": "Feature", "id": "2YAEmpnKdko-yM-Z-MJUujH6mwk=", "properties": {"ref": "1868", "@spider": "wellstar", "addr:full": "86 Upper Riverdale Road Suite 100", "addr:city": "Riverdale", "addr:state": "GA", "addr:postcode": "30274", "name": " Akstein Eye Center, PC", "phone": "(770) 996-4844", "brand": "WellStar Health System"}, "geometry": {"type": "Point", "coordinates": [-84.39223059999999, 33.5765372]}},
{"type": "Feature", "id": "qCOnraovD4UM3EiiquFAfx_9etc=", "properties": {"ref": "2170", "@spider": "wellstar", "addr:full": "1000 Corporate Center Drive Suite 200", "addr:city": "Morrow", "addr:state": "GA", "addr:postcode": "30260", "name": "Wellstar Family Medicine", "phone": "(770) 968-6464", "opening_hours": "Mo 09:00-16:30; Tu 09:00-19:30; We-Fr 09:00-16:30; Sa 10:00-12:30", "brand": "WellStar Health System"}, "geometry": {"type": "Point", "coordinates": [-84.3330872, 33.5710573]}},
{"type": "Feature", "id": "w95RBInZ-Kyu7ncCNdfiS2_nOyM=", "properties": {"ref": "13496", "@spider": "wellstar", "addr:full": "112 Corporate Drive", "addr:city": "Carrollton", "addr:state": "GA", "addr:postcode": "30117", "name": " Mahaveer Vakharia, MD", "phone": "(770) 214-2300", "brand": "WellStar Health System"}, "geometry": {"type": "Point", "coordinates": [-85.059534, 33.588495]}},
{"type": "Feature", "id": "CxklC790nwKDJtPYlWa6wE3fS_g=", "properties": {"ref": "2796", "@spider": "wellstar", "addr:full": "3747 Roswell Road Suite 206", "addr:city": "Marietta", "addr:state": "GA", "addr:postcode": "30062", "name": "Wellstar Kennestone Women's Health Clinic", "phone": "(770) 980-1818", "brand": "WellStar Health System"}, "geometry": {"type": "Point", "coordinates": [-84.4447395, 33.9803208]}},
{"type": "Feature", "id": "EQ_ggVzcYP0O49v3c3kgpCWPyIU=", "properties": {"ref": "2722", "@spider": "wellstar", "addr:full": "1790 Mulkey Road Suite 7", "addr:city": "Austell", "addr:state": "GA", "addr:postcode": "30106", "name": "Wellstar ENT", "phone": "(770) 819-1435", "opening_hours": "Mo-Fr 08:00-17:00", "brand": "WellStar Health System"}, "geometry": {"type": "Point", "coordinates": [-84.60574489999999, 33.8593133]}},
{"type": "Feature", "id": "5fXnC-zWjDTgOX2OOof-ov88cO4=", "properties": {"ref": "804", "@spider": "wellstar", "addr:full": "120 Stonebridge Parkway Suite 110C", "addr:city": "Woodstock", "addr:state": "GA", "addr:postcode": "30189", "name": "Wellstar Sleep Center", "phone": "(470) 644-1755 ", "opening_hours": "Mo-Fr 08:30-16:30", "brand": "WellStar Health System"}, "geometry": {"type": "Point", "coordinates": [-84.539438, 34.1000902]}},
{"type": "Feature", "id": "vRYoyzTG7qSnk1zt9IrA9qetySE=", "properties": {"ref": "1852", "@spider": "wellstar", "addr:full": "3635 Savannah Place Drive Suite 450A", "addr:city": "Duluth", "addr:state": "GA", "addr:postcode": "30096", "name": " North Atlanta Medical & Digestive Care, LLC", "phone": "(770) 346-0900", "brand": "WellStar Health System"}, "geometry": {"type": "Point", "coordinates": [-84.16737719999999, 34.0021065]}},
{"type": "Feature", "id": "im7BmpmGH9LyIDsoA189-U1fcnY=", "properties": {"ref": "2506", "@spider": "wellstar", "addr:full": "619 South 8th Street Suite 301", "addr:city": "Griffin", "addr:state": "GA", "addr:postcode": "30224", "name": "Wellstar General Surgery", "phone": "(770) 229-6072", "brand": "WellStar Health System"}, "geometry": {"type": "Point", "coordinates": [-84.2674591, 33.2387137]}},
{"type": "Feature", "id": "GQce9c-X_xSsc2wLJQvc_HoRwNY=", "properties": {"ref": "2652", "@spider": "wellstar", "addr:full": "600 West Memorial Drive", "addr:city": "Dallas", "addr:state": "GA", "addr:postcode": "30132", "name": "Wellstar Hospitalist Group Medicine", "phone": "(770) 443-4757", "brand": "WellStar Health System"}, "geometry": {"type": "Point", "coordinates": [-84.85296509999999, 33.919528]}},
{"type": "Feature", "id": "cDOKkv4mMLFUPMCrLgz7tjtU82k=", "properties": {"ref": "2726", "@spider": "wellstar", "addr:full": "6043 Prestley Mill Road Suite C", "addr:city": "Douglasville", "addr:state": "GA", "addr:postcode": "30134", "name": "Wellstar Infectious Disease", "phone": "(770) 920-3076", "brand": "WellStar Health System"}, "geometry": {"type": "Point", "coordinates": [-84.73069919999999, 33.7382595]}},
{"type": "Feature", "id": "0x6CCjpC3LnYS6BibfTp70QkJuo=", "properties": {"ref": "2788", "@spider": "wellstar", "addr:full": "619 South 8th Street Suite 301", "addr:city": "Griffin", "addr:state": "GA", "addr:postcode": "30224", "name": "Wellstar Trauma Acute Care Surgery", "phone": "(770) 229-6072", "brand": "WellStar Health System"}, "geometry": {"type": "Point", "coordinates": [-84.2674591, 33.2387137]}},
{"type": "Feature", "id": "TX9qyRYTD3yssbpDoR4Lyl6F7a4=", "properties": {"ref": "732", "@spider": "wellstar", "addr:full": "4441 Atlanta Road SE Suite 101", "addr:city": "Smyrna", "addr:state": "GA", "addr:postcode": "30080", "name": "Wellstar Imaging Services", "phone": "(678) 581-5900", "opening_hours": "Mo-Fr 07:00-19:00; Sa 08:00-12:00", "brand": "WellStar Health System"}, "geometry": {"type": "Point", "coordinates": [-84.489546, 33.8469626]}},
{"type": "Feature", "id": "ijMyKj0SL5PWFatl_LLEesnfUGU=", "properties": {"ref": "13708", "@spider": "wellstar", "addr:full": "1600 Vernon Road Suite A", "addr:city": "LaGrange", "addr:state": "GA", "addr:postcode": "30240", "name": "Wellstar General Surgery & Bariatrics", "phone": "(706) 880-7321", "brand": "WellStar Health System"}, "geometry": {"type": "Point", "coordinates": [-85.06316249999999, 33.0311272]}},
{"type": "Feature", "id": "HjOmB1KDZZwJQ5uSijBM3JkN2w8=", "properties": {"ref": "2200", "@spider": "wellstar", "addr:full": "3950 Austell Road", "addr:city": "Austell", "addr:state": "GA", "addr:postcode": "30106", "name": "Wellstar Palliative Medicine", "phone": "(770) 793-7899", "brand": "WellStar Health System"}, "geometry": {"type": "Point", "coordinates": [-84.6040933, 33.8571069]}},
{"type": "Feature", "id": "kMO2cLuhw7oMeEGBNlviLMfOYOU=", "properties": {"ref": "2228", "@spider": "wellstar", "addr:full": "475 Dickson Avenue NW", "addr:city": "Marietta", "addr:state": "GA", "addr:postcode": "30064", "name": "Wellstar Palliative Medicine", "phone": "(770) 793-7899", "brand": "WellStar Health System"}, "geometry": {"type": "Point", "coordinates": [-84.5681581, 33.971774]}},
{"type": "Feature", "id": "fE3_S8lrzdwUcP6S9dDcCLXQ840=", "properties": {"ref": "441", "@spider": "wellstar", "addr:full": "2955 Peachtree Road NW Suite A1", "addr:city": "Atlanta", "addr:state": "GA", "addr:postcode": "30305", "name": " PT Solutions of Buckhead", "phone": "(404) 263-0676", "brand": "WellStar Health System"}, "geometry": {"type": "Point", "coordinates": [-84.3837397, 33.8355023]}},
{"type": "Feature", "id": "WpFXZXC37mout0vrfzFKELuiX1E=", "properties": {"ref": "1070", "@spider": "wellstar", "addr:full": "1170 Cleveland Avenue", "addr:city": "East Point", "addr:state": "GA", "addr:postcode": "30344", "name": " Apollo MD", "phone": "(404) 466-1170", "brand": "WellStar Health System"}, "geometry": {"type": "Point", "coordinates": [-84.4269497, 33.6803213]}},
{"type": "Feature", "id": "LUDpsfZDT4yCL-eli7Y80jd1ndE=", "properties": {"ref": "1458", "@spider": "wellstar", "addr:full": "550 Peachtree Street NE Suite 1900", "addr:city": "Atlanta", "addr:state": "GA", "addr:postcode": "30308", "name": " Resurgens Orthopaedics", "phone": "(404) 215-2000", "brand": "WellStar Health System"}, "geometry": {"type": "Point", "coordinates": [-84.38584850000001, 33.769688]}},
{"type": "Feature", "id": "D42XzDLJ7MwFkoMceWK_smzDpT4=", "properties": {"ref": "13910", "@spider": "wellstar", "addr:full": "3747 Roswell Road Suite 201", "addr:city": "Marietta", "addr:state": "GA", "addr:postcode": "30062", "name": "Wellstar Pediatric & Adolescent Center", "phone": "(770) 578-2868", "brand": "WellStar Health System"}, "geometry": {"type": "Point", "coordinates": [-84.4447395, 33.9803208]}},
{"type": "Feature", "id": "OzR38XTpwpQGbbSqPsYZltFADWg=", "properties": {"ref": "419", "@spider": "wellstar", "addr:full": "1180 Ernest W Barrett Parkway NW Suite 102C", "addr:city": "Kennesaw", "addr:state": "GA", "addr:postcode": "30144", "name": "Wellstar Physical Therapy", "phone": "(678) 797-5734", "opening_hours": "Mo 07:00-18:00; Tu 10:00-19:00; We 07:00-18:00; Th 10:00-19:00; Fr 07:00-11:00", "brand": "WellStar Health System"}, "geometry": {"type": "Point", "coordinates": [-84.5867156, 34.001146]}},
{"type": "Feature", "id": "JY5JS3XlU6Z5ELxOi7zxQ5vBA2g=", "properties": {"ref": "13666", "@spider": "wellstar", "addr:full": "3600 Sandy Plains Road", "addr:city": "Marietta", "addr:state": "GA", "addr:postcode": "30066", "name": "Wellstar KSU Health Center", "phone": "(770) 977-4547", "brand": "WellStar Health System"}, "geometry": {"type": "Point", "coordinates": [-84.4614433, 34.0369405]}},
{"type": "Feature", "id": "IuGr6D4w69SiP-4AhSBJNgGEToI=", "properties": {"ref": "2344", "@spider": "wellstar", "addr:full": "4550 Cobb Parkway North NW Suite 210", "addr:city": "Acworth", "addr:state": "GA", "addr:postcode": "30101", "name": "Wellstar Pulmonary Medicine", "phone": "(770) 422-1372", "opening_hours": "Mo-Fr 08:00-16:30", "brand": "WellStar Health System"}, "geometry": {"type": "Point", "coordinates": [-84.7231938, 34.0679136]}},
{"type": "Feature", "id": "4wqlcyb2EuuL254QlTT20oCUJHI=", "properties": {"ref": "1670", "@spider": "wellstar", "addr:full": "4441 Atlanta Road SE Suite 204", "addr:city": "Smyrna", "addr:state": "GA", "addr:postcode": "30080", "name": " Gastrointestinal Specialists of Georgia, Inc.", "phone": "(678) 741-5000", "brand": "WellStar Health System"}, "geometry": {"type": "Point", "coordinates": [-84.4898406, 33.8466533]}},
{"type": "Feature", "id": "m5XwOakg_Gd-U-WdRevwuuk5Y10=", "properties": {"ref": "408", "@spider": "wellstar", "addr:full": "330 Kennestone Hospital Boulevard", "addr:city": "Marietta", "addr:state": "GA", "addr:postcode": "30060", "name": "Wellstar Health Place", "phone": "(770) 793-7300", "opening_hours": "Mo-Fr 04:45-21:00; Sa-Su 08:00-17:00", "brand": "WellStar Health System"}, "geometry": {"type": "Point", "coordinates": [-84.5559384, 33.9688805]}},
{"type": "Feature", "id": "91T9_fSr_aNCj-ZwqG7aJ6rlJBk=", "properties": {"ref": "2462", "@spider": "wellstar", "addr:full": "780 Canton Road NE Suite 310", "addr:city": "Marietta", "addr:state": "GA", "addr:postcode": "30060", "name": "Wellstar Neurology", "phone": "(770) 422-3602", "brand": "WellStar Health System"}, "geometry": {"type": "Point", "coordinates": [-84.5468717, 33.9715289]}},
{"type": "Feature", "id": "VK-J39UXYle8lcL9C-CAWI0nBzA=", "properties": {"ref": "2558", "@spider": "wellstar", "addr:full": "355 Tower Road NE Suite 300", "addr:city": "Marietta", "addr:state": "GA", "addr:postcode": "30060", "name": "Wellstar Internal Med Assoc of Marietta", "phone": "(770) 427-2457", "opening_hours": "Mo-Fr 07:30-16:30", "brand": "WellStar Health System"}, "geometry": {"type": "Point", "coordinates": [-84.5560422, 33.9696765]}},
{"type": "Feature", "id": "K55j2R1-NtufrMIMt3E0aGqtP0c=", "properties": {"ref": "1968", "@spider": "wellstar", "addr:full": "1810 Mulkey Road Suite 102", "addr:city": "Austell", "addr:state": "GA", "addr:postcode": "30106", "name": " Cobb Women's Health", "phone": "(770) 944-8660", "brand": "WellStar Health System"}, "geometry": {"type": "Point", "coordinates": [-84.6073129, 33.8598312]}},
{"type": "Feature", "id": "I52sbj3ZNYvGXPG_gnfSbYBsTjM=", "properties": {"ref": "13554", "@spider": "wellstar", "addr:full": "355 Tower Road NE Suite 103", "addr:city": "Marietta", "addr:state": "GA", "addr:postcode": "30060", "name": "Wellstar Podiatry", "phone": "(770) 590-4188", "brand": "WellStar Health System"}, "geometry": {"type": "Point", "coordinates": [-84.5560422, 33.9696765]}},
{"type": "Feature", "id": "_INWzL1uJYpfTfC2fGGRaDf_UBU=", "properties": {"ref": "1892", "@spider": "wellstar", "addr:full": "3200 Downwood Circle Suite 680", "addr:city": "Atlanta", "addr:state": "GA", "addr:postcode": "30327", "name": " Advanced Neurology Center", "phone": "(678) 501-5420", "brand": "WellStar Health System"}, "geometry": {"type": "Point", "coordinates": [-84.42653949999999, 33.8418993]}},
{"type": "Feature", "id": "cJ2bDMMUjhHdqKS1soPVCav9xkI=", "properties": {"ref": "816", "@spider": "wellstar", "addr:full": "303 Parkway Drive NE", "addr:city": "Atlanta", "addr:state": "GA", "addr:postcode": "30312", "name": "Wellstar Sleep Center at Atlanta Medical Center", "phone": "(470) 644-1755 ", "opening_hours": "Mo-Fr 08:30-17:00", "brand": "WellStar Health System"}, "geometry": {"type": "Point", "coordinates": [-84.3732345, 33.7629065]}},
{"type": "Feature", "id": "U2boGEkmw80hYf-g5X0nk9_cJK0=", "properties": {"ref": "1104", "@spider": "wellstar", "addr:full": "771 Old Norcross Road Suite 225", "addr:city": "Lawrenceville", "addr:state": "GA", "addr:postcode": "30046", "name": " North Atlanta Primary Care", "phone": "(770) 442-1911", "brand": "WellStar Health System"}, "geometry": {"type": "Point", "coordinates": [-84.01765120000002, 33.9584352]}},
{"type": "Feature", "id": "N8sUbD39lT_cV5flJTrSBQqPAkw=", "properties": {"ref": "3288", "@spider": "wellstar", "addr:full": "895 Canton Road", "addr:city": "Marietta", "addr:state": "GA", "addr:postcode": "30060", "name": " Shelton Hospitalist Group", "phone": "(770) 427-8111", "brand": "WellStar Health System"}, "geometry": {"type": "Point", "coordinates": [-84.5491466, 33.974122]}},
{"type": "Feature", "id": "OX95GUCoLD73UqxqGOhM2JTtOhI=", "properties": {"ref": "1842", "@spider": "wellstar", "addr:full": "880 Canton Road Suite 400", "addr:city": "Marietta", "addr:state": "GA", "addr:postcode": "30060", "name": " North Georgia Kidney Specialists", "phone": "(770) 528-9788", "brand": "WellStar Health System"}, "geometry": {"type": "Point", "coordinates": [-84.54812919999999, 33.9729749]}},
{"type": "Feature", "id": "69JioH3KE2y_xbJCQm_WesfpwBo=", "properties": {"ref": "808", "@spider": "wellstar", "addr:full": "1514 Vernon Road", "addr:city": "LaGrange", "addr:state": "GA", "addr:postcode": "30240", "name": "Wellstar Sleep Lab at West Georgia Medical Center", "opening_hours": "Mo-Fr 08:30-17:00", "brand": "WellStar Health System"}, "geometry": {"type": "Point", "coordinates": [-85.0607909, 33.032552]}},
{"type": "Feature", "id": "OPXu2zgjlKZJQVUvoU3EcgrvjrY=", "properties": {"ref": "2650", "@spider": "wellstar", "addr:full": "2130 Anderson Mill Road", "addr:city": "Austell", "addr:state": "GA", "addr:postcode": "30106", "name": "Wellstar Hospitalist Group Medicine", "phone": "(770) 941-8813", "brand": "WellStar Health System"}, "geometry": {"type": "Point", "coordinates": [-84.61606479999999, 33.849656]}},
{"type": "Feature", "id": "UPbl7y5eCt_sDJv9Yls0ASJOchg=", "properties": {"ref": "464", "@spider": "wellstar", "addr:full": "1810 Jonesboro Road", "addr:city": "McDonough", "addr:state": "GA", "addr:postcode": "30253", "name": " PT Solutions of McDonough", "phone": "(678) 402-9789", "brand": "WellStar Health System"}, "geometry": {"type": "Point", "coordinates": [-84.2160004, 33.467479]}},
{"type": "Feature", "id": "K-PizHyTWcw4pKbg_Hx70uyQmno=", "properties": {"ref": "1562", "@spider": "wellstar", "addr:full": "141 Lacy Street Suite 200", "addr:city": "Marietta", "addr:state": "GA", "addr:postcode": "30060", "name": " Kayal Dermatology & Skin Cancer Specialists", "phone": "(770) 426-7177", "brand": "WellStar Health System"}, "geometry": {"type": "Point", "coordinates": [-84.5564311, 33.9662853]}},
{"type": "Feature", "id": "mTQaQ6uop3nWD62wKZcaNwvB6dM=", "properties": {"ref": "13624", "@spider": "wellstar", "addr:full": "5329 North Henry Boulevard", "addr:city": "Stockbridge", "addr:state": "GA", "addr:postcode": "30281", "name": " Southern Medical Clinic, LLC", "phone": "(678) 289-9988", "brand": "WellStar Health System"}, "geometry": {"type": "Point", "coordinates": [-84.25247069999999, 33.547662]}},
{"type": "Feature", "id": "p3m6cQd1x_SpaTqujarPsoov2ug=", "properties": {"ref": "13800", "@spider": "wellstar", "addr:full": "2061 Peachtree Road NW Suite 350", "addr:city": "Atlanta", "addr:state": "GA", "addr:postcode": "30309", "name": " Georgia Reproductive Specialists", "phone": "(706) 395-4919", "brand": "WellStar Health System"}, "geometry": {"type": "Point", "coordinates": [-84.39206200000001, 33.811117]}},
{"type": "Feature", "id": "vw_inJUF-0YXRch_Tf_xBI_5FZo=", "properties": {"ref": "13844", "@spider": "wellstar", "addr:full": "120 Vann Street NE Suite 100", "addr:city": "Marietta", "addr:state": "GA", "addr:postcode": "30060", "name": " Village Podiatry Group", "phone": "(678) 574-0861", "brand": "WellStar Health System"}, "geometry": {"type": "Point", "coordinates": [-84.54945099999999, 33.97194690000001]}},
{"type": "Feature", "id": "rcR1el0JYXYZ4x9Cs4GHs4oPb28=", "properties": {"ref": "2360", "@spider": "wellstar", "addr:full": "145 North Medical Parkway", "addr:city": "Woodstock", "addr:state": "GA", "addr:postcode": "30189", "name": "Wellstar Towne Lake Medical Center", "phone": "(770) 592-3000", "opening_hours": "Mo-Fr 07:30-17:00", "brand": "WellStar Health System"}, "geometry": {"type": "Point", "coordinates": [-84.5516209, 34.1095283]}},
{"type": "Feature", "id": "a3iei5qoPuAWqNKkYgrrr8VTQjQ=", "properties": {"ref": "13856", "@spider": "wellstar", "addr:full": "3921 Shallowford Road", "addr:city": "Marietta", "addr:state": "GA", "addr:postcode": "30062", "name": "Wellstar Primary Care", "phone": "(770) 649-9100", "brand": "WellStar Health System"}, "geometry": {"type": "Point", "coordinates": [-84.43659029999999, 34.0320025]}},
{"type": "Feature", "id": "ohEdd4rFp5r0mqg7lG6sYk2d3dc=", "properties": {"ref": "13730", "@spider": "wellstar", "addr:full": "1136 Cleveland Avenue Suite 309", "addr:city": "East Point", "addr:state": "GA", "addr:postcode": "30344", "name": " Mohammad Al-Mulki, M.D., P.C.", "phone": "(404) 630-9954", "brand": "WellStar Health System"}, "geometry": {"type": "Point", "coordinates": [-84.4260061, 33.6811063]}},
{"type": "Feature", "id": "6QP05lkBqg0fkQbgRnFuIogx4Sk=", "properties": {"ref": "2598", "@spider": "wellstar", "addr:full": "1810 Mulkey Road Suite 201", "addr:city": "Austell", "addr:state": "GA", "addr:postcode": "30106", "name": "Wellstar Pediatric & Adolescent Center", "phone": "(770) 819-9262", "brand": "WellStar Health System"}, "geometry": {"type": "Point", "coordinates": [-84.6073129, 33.8598312]}},
{"type": "Feature", "id": "S3fypayGzxAODZqpZwmEuTRvjMg=", "properties": {"ref": "1614", "@spider": "wellstar", "addr:full": "8901 Stonebridge Boulevard Suite 100", "addr:city": "Douglasville", "addr:state": "GA", "addr:postcode": "30134", "name": " The Lung Centers of Georgia", "phone": "(678) 838-3000", "brand": "WellStar Health System"}, "geometry": {"type": "Point", "coordinates": [-84.7310439, 33.7373103]}},
{"type": "Feature", "id": "i6GsmNcl0doYJn946VIEztCUPqo=", "properties": {"ref": "820", "@spider": "wellstar", "addr:full": "4441 Atlanta Road SE Suite 318", "addr:city": "Smyrna", "addr:state": "GA", "addr:postcode": "30080", "name": "Wellstar Sleep Center at Vinings Health Park", "opening_hours": "Sa-Su 07:00-19:00", "brand": "WellStar Health System"}, "geometry": {"type": "Point", "coordinates": [-84.4898406, 33.8466533]}},
{"type": "Feature", "id": "lRlphx2LDLdoqMw-zD9vQqyG6Pg=", "properties": {"ref": "455", "@spider": "wellstar", "addr:full": "549 Amsterdam Avenue NE Unit 2", "addr:city": "Atlanta", "addr:state": "GA", "addr:postcode": "30306", "name": " PT Solutions of Morningside", "phone": "(404) 532-1059", "brand": "WellStar Health System"}, "geometry": {"type": "Point", "coordinates": [-84.3713147, 33.7878955]}},
{"type": "Feature", "id": "Nih__8z11PlWld_Lg2oRqgCdcEg=", "properties": {"ref": "1466", "@spider": "wellstar", "addr:full": "1300 Upper Hembree Road Building 100 Suite D", "addr:city": "Roswell", "addr:state": "GA", "addr:postcode": "30076", "name": " Providence Women's Healthcare", "phone": "(770) 670-6170", "brand": "WellStar Health System"}, "geometry": {"type": "Point", "coordinates": [-84.32162129999999, 34.0675227]}},
{"type": "Feature", "id": "6miJF6g1ZVf67utfzNpDsMwpDkM=", "properties": {"ref": "1298", "@spider": "wellstar", "addr:full": "1230 Johnson Ferry Place Suite H15 H20", "addr:city": "Marietta", "addr:state": "GA", "addr:postcode": "30068", "name": " Barrack Spine & Joint Medicine", "phone": "(678) 738-7601", "brand": "WellStar Health System"}, "geometry": {"type": "Point", "coordinates": [-84.4208774, 33.9807368]}},
{"type": "Feature", "id": "CXJdEruPejBB-YtD3ZR7fopOAmM=", "properties": {"ref": "13742", "@spider": "wellstar", "addr:full": "562 Concord Road SE", "addr:city": "Smyrna", "addr:state": "GA", "addr:postcode": "30082", "name": "Wellstar West Cobb Medical Center", "phone": "(770) 384-9830", "brand": "WellStar Health System"}, "geometry": {"type": "Point", "coordinates": [-84.5361027, 33.8687484]}},
{"type": "Feature", "id": "3GNeV0XwGbF9DgWIi5_3jVeDz8I=", "properties": {"ref": "2646", "@spider": "wellstar", "addr:full": "613 Roselane Street NW", "addr:city": "Marietta", "addr:state": "GA", "addr:postcode": "30060", "name": "Wellstar Hospitalist Group Medicine", "phone": "(678) 872-2621", "brand": "WellStar Health System"}, "geometry": {"type": "Point", "coordinates": [-84.5576387, 33.9670984]}},
{"type": "Feature", "id": "bW0FxgOabw46c8bX2EfgdfnfhMM=", "properties": {"ref": "2592", "@spider": "wellstar", "addr:full": "4250 Brownsville Road", "addr:city": "Powder Springs", "addr:state": "GA", "addr:postcode": "30127", "name": "Wellstar Pathologist Group", "phone": "(678) 567-8000", "brand": "WellStar Health System"}, "geometry": {"type": "Point", "coordinates": [-84.6946095, 33.8505334]}},
{"type": "Feature", "id": "2c_m4mPD02PERVoYx5WK7ela1wY=", "properties": {"ref": "2956", "@spider": "wellstar", "addr:full": "5150 Stilesboro Road Suite 220", "addr:city": "Kennesaw", "addr:state": "GA", "addr:postcode": "30152", "name": "Wellstar Pediatrics at Brookstone", "phone": "(770) 424-8222", "opening_hours": "Mo-Fr 08:00-17:00", "brand": "WellStar Health System"}, "geometry": {"type": "Point", "coordinates": [-84.69975099999999, 33.9959669]}},
{"type": "Feature", "id": "HH4B_M4Ps_6TeqZxY7sulXBUReE=", "properties": {"ref": "3454", "@spider": "wellstar", "addr:full": "708 South 8th Street", "addr:city": "Griffin", "addr:state": "GA", "addr:postcode": "30224", "name": "Wellstar Family Medicine", "phone": "(770) 228-5402", "brand": "WellStar Health System"}, "geometry": {"type": "Point", "coordinates": [-84.26545159999999, 33.2360342]}},
{"type": "Feature", "id": "TvXNgzQ9D4h4PtTdXVnZdHpEEoY=", "properties": {"ref": "3350", "@spider": "wellstar", "addr:full": "780 Canton Road NE Suite 400", "addr:city": "Marietta", "addr:state": "GA", "addr:postcode": "30060", "name": "Wellstar Neurology", "phone": "(770) 422-3602", "brand": "WellStar Health System"}, "geometry": {"type": "Point", "coordinates": [-84.5468717, 33.9715289]}},
{"type": "Feature", "id": "09I99Sw47FD5LmfajdySmFG1R-o=", "properties": {"ref": "2260", "@spider": "wellstar", "addr:full": "3747 Roswell Road Suite 201", "addr:city": "Marietta", "addr:state": "GA", "addr:postcode": "30062", "name": "Wellstar Towne Lake Pediatrics", "phone": "(770) 578-2868", "brand": "WellStar Health System"}, "geometry": {"type": "Point", "coordinates": [-84.4447395, 33.9803208]}},
{"type": "Feature", "id": "iV1yjO_wFq3KL2j_EYyeKSdfKIg=", "properties": {"ref": "4017", "@spider": "wellstar", "addr:full": "400 Tower Road NE Suite 160", "addr:city": "Marietta", "addr:state": "GA", "addr:postcode": "30060", "name": "Wellstar Rheumatology Associates", "phone": "(770) 420-1690", "brand": "WellStar Health System"}, "geometry": {"type": "Point", "coordinates": [-84.5562059, 33.9707258]}},
{"type": "Feature", "id": "hGv-JjPHDTOJG_MzyNbDhVm3EDM=", "properties": {"ref": "2476", "@spider": "wellstar", "addr:full": "4895 Windward Parkway Suite 202", "addr:city": "Alpharetta", "addr:state": "GA", "addr:postcode": "30004", "name": "Wellstar Family Medicine", "phone": "(770) 475-0888", "opening_hours": "Mo-Th 07:30-17:00; Fr 07:30-13:30", "brand": "WellStar Health System"}, "geometry": {"type": "Point", "coordinates": [-84.2805889, 34.0976163]}},
{"type": "Feature", "id": "tLQUgl0fPTt9oeN1ncmQWSLDkXk=", "properties": {"ref": "2416", "@spider": "wellstar", "addr:full": "148 Bill Carruth Parkway Suite 100", "addr:city": "Hiram", "addr:state": "GA", "addr:postcode": "30141", "name": "Wellstar Pulmonary Medicine", "phone": "(770) 422-1372", "opening_hours": "Mo-Fr 07:30-16:45", "brand": "WellStar Health System"}, "geometry": {"type": "Point", "coordinates": [-84.78110679999999, 33.9007916]}},
{"type": "Feature", "id": "zyfGElkbpZDL_O6cfzP55g1qTf0=", "properties": {"ref": "1310", "@spider": "wellstar", "addr:full": "4450 Calibre Crossing NW Suite 1130", "addr:city": "Acworth", "addr:state": "GA", "addr:postcode": "30101", "name": " Village Podiatry Group", "phone": "(678) 403-7000", "brand": "WellStar Health System"}, "geometry": {"type": "Point", "coordinates": [-84.7218422, 34.063865]}},
{"type": "Feature", "id": "D9j-WJhpPF9quJZWnDmQu784InI=", "properties": {"ref": "1832", "@spider": "wellstar", "addr:full": "5001 Peachtree Boulevard Suite 115", "addr:city": "Atlanta", "addr:state": "GA", "addr:postcode": "30341", "name": " American Family Care", "phone": "(770) 458-8929", "brand": "WellStar Health System"}, "geometry": {"type": "Point", "coordinates": [-84.315086, 33.8848826]}},
{"type": "Feature", "id": "WUMgO8dUZzPd3WGONMiR4xkNXZA=", "properties": {"ref": "1412", "@spider": "wellstar", "addr:full": "3451 Ernest W Barrett Parkway NW Suite 170", "addr:city": "Marietta", "addr:state": "GA", "addr:postcode": "30064", "name": " Ankle and Foot Centers of Georgia", "phone": "(678) 593-3127", "brand": "WellStar Health System"}, "geometry": {"type": "Point", "coordinates": [-84.62260739999999, 33.9474544]}},
{"type": "Feature", "id": "rTLIs_ZnC_As_rOMUseucJ4wT_Y=", "properties": {"ref": "2296", "@spider": "wellstar", "addr:full": "3885 Princeton Lakes Way SW Suite 300", "addr:city": "Atlanta", "addr:state": "GA", "addr:postcode": "30331", "name": "Wellstar Metro Atlanta Cardiovascular Medicine", "phone": "(470) 956-9471", "brand": "WellStar Health System"}, "geometry": {"type": "Point", "coordinates": [-84.5144359, 33.6600998]}},
{"type": "Feature", "id": "1ymwqgUJvTwt79MZ7qaFkgcLqwk=", "properties": {"ref": "2588", "@spider": "wellstar", "addr:full": "55 Whitcher Street NE Suite 400", "addr:city": "Marietta", "addr:state": "GA", "addr:postcode": "30060", "name": "Wellstar Comprehensive Bariatric Svcs", "phone": "(770) 919-7050", "brand": "WellStar Health System"}, "geometry": {"type": "Point", "coordinates": [-84.5513203, 33.9668232]}},
{"type": "Feature", "id": "7FxN-GB8QxwHtMZlhD1bxzP3mSY=", "properties": {"ref": "2748", "@spider": "wellstar", "addr:full": "3747 Roswell Road Suite 318", "addr:city": "Marietta", "addr:state": "GA", "addr:postcode": "30062", "name": "Wellstar Gynecologic Oncology", "phone": "(770) 792-6262", "opening_hours": "Mo-Fr 08:00-16:30", "brand": "WellStar Health System"}, "geometry": {"type": "Point", "coordinates": [-84.4447395, 33.9803208]}},
{"type": "Feature", "id": "YaCjFcsqDNRhobxqv8tb2hyBpc8=", "properties": {"ref": "310", "@spider": "wellstar", "addr:full": "4550 Cobb Parkway North NW Suite 102", "addr:city": "Acworth", "addr:state": "GA", "addr:postcode": "30101", "name": "Wellstar Pharmacy", "phone": "(470) 956-0005", "opening_hours": "Mo-Fr 08:00-18:00", "brand": "WellStar Health System"}, "geometry": {"type": "Point", "coordinates": [-84.7233604, 34.068118]}},
{"type": "Feature", "id": "QnTlpfE_IlrTsMjRjM4WirJNSU4=", "properties": {"ref": "3148", "@spider": "wellstar", "addr:full": "3000 Hospital Boulevard", "addr:city": "Roswell", "addr:state": "GA", "addr:postcode": "30076", "name": "Wellstar Neurology", "phone": "(770) 664-9600", "brand": "WellStar Health System"}, "geometry": {"type": "Point", "coordinates": [-84.31985399999999, 34.0630617]}},
{"type": "Feature", "id": "MUJwauKZ-UvjWNnLO6h3DGnR2vA=", "properties": {"ref": "1332", "@spider": "wellstar", "addr:full": "285 Boulevard NE Suite 610", "addr:city": "Atlanta", "addr:state": "GA", "addr:postcode": "30312", "name": " Midtown Neurology", "phone": "(404) 653-0039", "brand": "WellStar Health System"}, "geometry": {"type": "Point", "coordinates": [-84.3714961, 33.7622968]}},
{"type": "Feature", "id": "32qsU7fz-4QLtTAzlEylR_0YrXQ=", "properties": {"ref": "1396", "@spider": "wellstar", "addr:full": "2615 East West Connector Suite 122", "addr:city": "Austell", "addr:state": "GA", "addr:postcode": "30106", "name": " Douglas Neurology Associates", "phone": "(678) 838-2180", "brand": "WellStar Health System"}, "geometry": {"type": "Point", "coordinates": [-84.62260739999999, 33.8629835]}},
{"type": "Feature", "id": "PpM6uM54XOP7uFo5o3q56OInHWI=", "properties": {"ref": "1558", "@spider": "wellstar", "addr:full": "1198 Buckhead Crossing Suite D", "addr:city": "Woodstock", "addr:state": "GA", "addr:postcode": "30189", "name": " Village Podiatry Group", "phone": "(770) 928-9263", "brand": "WellStar Health System"}, "geometry": {"type": "Point", "coordinates": [-84.539952, 34.1081006]}},
{"type": "Feature", "id": "DP6vKGo60vIEQdoBsYyi_slLSOo=", "properties": {"ref": "13582", "@spider": "wellstar", "addr:full": "835 Cogburn Avenue NW Suite 270", "addr:city": "Marietta", "addr:state": "GA", "addr:postcode": "30060", "name": " Skin Cancer Specialists, PC", "phone": "(770) 422-5557", "brand": "WellStar Health System"}, "geometry": {"type": "Point", "coordinates": [-84.5556637, 33.9724115]}},
{"type": "Feature", "id": "2Mz5FGTBxXdGpOg6oRi6zyb8VgY=", "properties": {"ref": "2784", "@spider": "wellstar", "addr:full": "736 Whitlock Avenue NW Suite 600", "addr:city": "Marietta", "addr:state": "GA", "addr:postcode": "30064", "name": "Wellstar Pediatric & Adolescent Center", "phone": "(770) 801-3465", "brand": "WellStar Health System"}, "geometry": {"type": "Point", "coordinates": [-84.5738877, 33.9536152]}},
{"type": "Feature", "id": "e-CLiCVQO8g3z1TPX7CVS033Ou8=", "properties": {"ref": "1702", "@spider": "wellstar", "addr:full": "711 Canton Road NE Suite 300", "addr:city": "Marietta", "addr:state": "GA", "addr:postcode": "30060", "name": " Gastrointestinal Specialists of Georgia, Inc.", "phone": "(678) 741-5000", "brand": "WellStar Health System"}, "geometry": {"type": "Point", "coordinates": [-84.54822279999999, 33.9698954]}},
{"type": "Feature", "id": "-fIl4rFJA3EWGD3i7aCk8shjQcs=", "properties": {"ref": "13750", "@spider": "wellstar", "addr:full": "355 Tower Road NE Suite 103", "addr:city": "Marietta", "addr:state": "GA", "addr:postcode": "30060", "name": "Wellstar Hand Surgery", "phone": "(770) 917-6795", "brand": "WellStar Health System"}, "geometry": {"type": "Point", "coordinates": [-84.5560422, 33.9696765]}},
{"type": "Feature", "id": "kpg2yaDTneRls7AAFoGapysbjSM=", "properties": {"ref": "1508", "@spider": "wellstar", "addr:full": "10 Cloverleaf Drive", "addr:city": "Cartersville", "addr:state": "GA", "addr:postcode": "30120", "name": " Skin Cancer Specialists, PC", "phone": "(770) 606-8026", "brand": "WellStar Health System"}, "geometry": {"type": "Point", "coordinates": [-84.7956359, 34.1972798]}},
{"type": "Feature", "id": "nreGXMvz1iylUboAr6PzAZTvRog=", "properties": {"ref": "2204", "@spider": "wellstar", "addr:full": "285 Boulevard NE Suite 120", "addr:city": "Atlanta", "addr:state": "GA", "addr:postcode": "30312", "name": "Wellstar Obstetrics and Gynecology", "phone": "(404) 265-2800", "brand": "WellStar Health System"}, "geometry": {"type": "Point", "coordinates": [-84.3714961, 33.7622968]}},
{"type": "Feature", "id": "mpF-VCyDnxC53fQjbijC8_NAozw=", "properties": {"ref": "2238", "@spider": "wellstar", "addr:full": "145 North Medical Parkway", "addr:city": "Woodstock", "addr:state": "GA", "addr:postcode": "30189", "name": "Wellstar Towne Lake Pediatrics", "phone": "(770) 517-1900", "opening_hours": "Mo-Fr 08:00-17:00", "brand": "WellStar Health System"}, "geometry": {"type": "Point", "coordinates": [-84.5516209, 34.1095283]}},
{"type": "Feature", "id": "H9xj_I-bxoDMLqxYs0znmRcDWU0=", "properties": {"ref": "1446", "@spider": "wellstar", "addr:full": "285 Boulevard NE Suite 510", "addr:city": "Atlanta", "addr:state": "GA", "addr:postcode": "30312", "name": " Atlanta Urological Group, PC", "phone": "(404) 524-5082", "brand": "WellStar Health System"}, "geometry": {"type": "Point", "coordinates": [-84.3714961, 33.7622968]}},
{"type": "Feature", "id": "6ts2OIgli0u891h9ddOlrpNAQsY=", "properties": {"ref": "2626", "@spider": "wellstar", "addr:full": "3950 Austell Road", "addr:city": "Austell", "addr:state": "GA", "addr:postcode": "30106", "name": "Wellstar Intensivists", "phone": "(770) 422-1372", "brand": "WellStar Health System"}, "geometry": {"type": "Point", "coordinates": [-84.6040933, 33.8571069]}},
{"type": "Feature", "id": "EOEwNlvRUB4AQv5E9f0LHeoZMpU=", "properties": {"ref": "2282", "@spider": "wellstar", "addr:full": "285 Boulevard NE Suite 525", "addr:city": "Atlanta", "addr:state": "GA", "addr:postcode": "30312", "name": "Wellstar Internal Medicine", "phone": "(404) 265-1044", "opening_hours": "Mo-Th 08:00-17:00; Fr 08:00-12:00", "brand": "WellStar Health System"}, "geometry": {"type": "Point", "coordinates": [-84.3714961, 33.7622968]}},
{"type": "Feature", "id": "Y6xJcLGUHcPLnfvtWdYSOfcvI4Y=", "properties": {"ref": "606", "@spider": "wellstar", "addr:full": "1625 Hospital North Drive", "addr:city": "Austell", "addr:state": "GA", "addr:postcode": "30106", "name": "Wellstar Lab Services at Cobb Imaging Center", "phone": " (770) 793-5900", "opening_hours": "Mo-Fr 07:00-18:00", "brand": "WellStar Health System"}, "geometry": {"type": "Point", "coordinates": [-84.6016181, 33.857446]}},
{"type": "Feature", "id": "9F7EHJ9cKUVwAtGjTbksuAJjH0k=", "properties": {"ref": "13578", "@spider": "wellstar", "addr:full": "8954 Hospital Drive", "addr:city": "Douglasville", "addr:state": "GA", "addr:postcode": "30134", "name": " Pediatric Emergency Medicine Associates", "phone": "(770) 938-0772", "brand": "WellStar Health System"}, "geometry": {"type": "Point", "coordinates": [-84.7314746, 33.7390326]}},
{"type": "Feature", "id": "A3HuGm4ZKHdkeUeM5LxnHs68fTc=", "properties": {"ref": "2972", "@spider": "wellstar", "addr:full": "699 Church Street NE Suite 235", "addr:city": "Marietta", "addr:state": "GA", "addr:postcode": "30060", "name": "Wellstar Urogynecology", "phone": "(770) 590-4175", "brand": "WellStar Health System"}, "geometry": {"type": "Point", "coordinates": [-84.55125249999999, 33.9694326]}},
{"type": "Feature", "id": "u8-5TgxwqK_dTzCCx7sVTf8fdB4=", "properties": {"ref": "1368", "@spider": "wellstar", "addr:full": "604A South 8th Street", "addr:city": "Griffin", "addr:state": "GA", "addr:postcode": "30224", "name": " South Atlanta Lung and Sleep Clinic, Inc.", "phone": "(770) 227-1999", "brand": "WellStar Health System"}, "geometry": {"type": "Point", "coordinates": [-84.26543099999999, 33.2399918]}},
{"type": "Feature", "id": "pda3xuauQufOxD0jsW1OoQQMGSY=", "properties": {"ref": "2008", "@spider": "wellstar", "addr:full": "4904 Timber Ridge Drive Suite 102", "addr:city": "Douglasville", "addr:state": "GA", "addr:postcode": "30135", "name": " Kamlesh D. Nayak, MD", "phone": "(770) 489-8165", "brand": "WellStar Health System"}, "geometry": {"type": "Point", "coordinates": [-84.73592099999999, 33.7296963]}},
{"type": "Feature", "id": "n2pN0MmRv334DPi9hLirJxJq1PQ=", "properties": {"ref": "4005", "@spider": "wellstar", "addr:full": "2450 Old Milton Parkway Suite 208", "addr:city": "Alpharetta", "addr:state": "GA", "addr:postcode": "30009", "name": "Wellstar Cardiac Diagnostics", "phone": "(470) 267-0460", "opening_hours": "Mo-Fr 08:00-16:00", "brand": "WellStar Health System"}, "geometry": {"type": "Point", "coordinates": [-84.2890286, 34.0707197]}},
{"type": "Feature", "id": "QhI4OVRKANUVK-fdf_454DwOn4Q=", "properties": {"ref": "2436", "@spider": "wellstar", "addr:full": "4900 Ivey Road NW Suite 1320", "addr:city": "Acworth", "addr:state": "GA", "addr:postcode": "30101", "name": "Wellstar Urology", "phone": "(770) 428-4475", "brand": "WellStar Health System"}, "geometry": {"type": "Point", "coordinates": [-84.69995569999999, 34.0374369]}},
{"type": "Feature", "id": "ChpD6312AqsudIbyO5IhTIcgb5w=", "properties": {"ref": "13904", "@spider": "wellstar", "addr:full": "148 Bill Carruth Parkway Suite 340", "addr:city": "Hiram", "addr:state": "GA", "addr:postcode": "30141", "name": "Wellstar Neurosurgery", "phone": "(770) 422-2326", "brand": "WellStar Health System"}, "geometry": {"type": "Point", "coordinates": [-84.78110679999999, 33.9007916]}},
{"type": "Feature", "id": "K5ae114L4WoD3_6l0WdUVCU_Vdw=", "properties": {"ref": "1330", "@spider": "wellstar", "addr:full": "3885 Princeton Lakes Way Suite 402", "addr:city": "Atlanta", "addr:state": "GA", "addr:postcode": "30331", "name": " Grace Medical Practice, LTD", "phone": "(404) 349-0496", "brand": "WellStar Health System"}, "geometry": {"type": "Point", "coordinates": [-84.5144359, 33.6600998]}},
{"type": "Feature", "id": "ZCKeXryTQjYmfB9j7FQLDWYI7JI=", "properties": {"ref": "2700", "@spider": "wellstar", "addr:full": "619 South 8th Street Suite 301", "addr:city": "Griffin", "addr:state": "GA", "addr:postcode": "30224", "name": "Wellstar Infectious Disease", "phone": "(770) 229-6072", "brand": "WellStar Health System"}, "geometry": {"type": "Point", "coordinates": [-84.2674591, 33.2387137]}},
{"type": "Feature", "id": "2wSYXhqLaoqcmLZyEiLUCFXZBPA=", "properties": {"ref": "1912", "@spider": "wellstar", "addr:full": "148 Bill Carruth Parkway Suite 280", "addr:city": "Hiram", "addr:state": "GA", "addr:postcode": "30141", "name": " MetroDerm, PC", "phone": "(678) 363-3343", "brand": "WellStar Health System"}, "geometry": {"type": "Point", "coordinates": [-84.78110679999999, 33.9007916]}},
{"type": "Feature", "id": "VazKwpUp2nUOLDCB4dMYdHZYSDw=", "properties": {"ref": "1350", "@spider": "wellstar", "addr:full": "3200 Highlands Parkway SE Suite 250", "addr:city": "Smyrna", "addr:state": "GA", "addr:postcode": "30082", "name": " Gastroenterology Consultants", "phone": "(770) 442-5882", "brand": "WellStar Health System"}, "geometry": {"type": "Point", "coordinates": [-84.4973917, 33.8287292]}},
{"type": "Feature", "id": "Z0U_xB0eM89daK8AMZTMQxnrtP4=", "properties": {"ref": "2174", "@spider": "wellstar", "addr:full": "2500 Hospital Boulevard Suite 290", "addr:city": "Roswell", "addr:state": "GA", "addr:postcode": "30076", "name": "Wellstar Urology", "phone": "(470) 956-4230", "brand": "WellStar Health System"}, "geometry": {"type": "Point", "coordinates": [-84.32174460000002, 34.0625418]}},
{"type": "Feature", "id": "ledwHsX3ChSnDIlblGQzxXPH90A=", "properties": {"ref": "13794", "@spider": "wellstar", "addr:full": "1497 Lafayette Parkway", "addr:city": "LaGrange", "addr:state": "GA", "addr:postcode": "30241", "name": "Wellstar Internal Medicine", "phone": "(706) 880-7335", "brand": "WellStar Health System"}, "geometry": {"type": "Point", "coordinates": [-84.9850451, 33.0422316]}},
{"type": "Feature", "id": "4wC7DllQdAnpNC-zyreTFWhUhdc=", "properties": {"ref": "4011", "@spider": "wellstar", "addr:full": "55 Whitcher Street Suite 350", "addr:city": "Marietta", "addr:state": "GA", "addr:postcode": "30060", "name": "Wellstar Cardiac Diagnostics", "phone": "(770) 424-6893", "opening_hours": "Mo-Th 08:00-16:30", "brand": "WellStar Health System"}, "geometry": {"type": "Point", "coordinates": [-84.553509, 33.9668232]}},
{"type": "Feature", "id": "mxbg8dDVqth8U5hF6LK7pJ3RovM=", "properties": {"ref": "1158", "@spider": "wellstar", "addr:full": "1355 Church Street Extension NE Suite G", "addr:city": "Marietta", "addr:state": "GA", "addr:postcode": "30060", "name": " MDVIP Preventive Care and Wellness", "phone": "(678) 388-1355", "brand": "WellStar Health System"}, "geometry": {"type": "Point", "coordinates": [-84.5529719, 33.9740997]}},
{"type": "Feature", "id": "P5Az4NEXGRLK-ESPMEwGv6d7K3o=", "properties": {"ref": "13866", "@spider": "wellstar", "addr:full": "8954 Hospital Drive Building C", "addr:city": "Douglasville", "addr:state": "GA", "addr:postcode": "30134", "name": "Wellstar Douglasville Medical Center", "phone": "(770) 947-4415", "brand": "WellStar Health System"}, "geometry": {"type": "Point", "coordinates": [-84.7314746, 33.7390326]}},
{"type": "Feature", "id": "TeT5ZvUekMCpeo1hzQC3Lfbu3Jo=", "properties": {"ref": "1826", "@spider": "wellstar", "addr:full": "2885 Headland Drive", "addr:city": "East Point", "addr:state": "GA", "addr:postcode": "30344", "name": " Precious L. Braswell, MD, OBGYN, LLC", "phone": "(404) 344-9333", "brand": "WellStar Health System"}, "geometry": {"type": "Point", "coordinates": [-84.4832732, 33.6906614]}},
{"type": "Feature", "id": "m_u8OaMYM-JTqH-xX6rhtva1g6k=", "properties": {"ref": "2250", "@spider": "wellstar", "addr:full": "582 Concord Road SE", "addr:city": "Smyrna", "addr:state": "GA", "addr:postcode": "30082", "name": "Wellstar GME Family Practice", "phone": "(470) 956-4000", "brand": "WellStar Health System"}, "geometry": {"type": "Point", "coordinates": [-84.5362256, 33.8694058]}},
{"type": "Feature", "id": "actLpoGpO9xIisS289w9VBpyt3M=", "properties": {"ref": "2206", "@spider": "wellstar", "addr:full": "3950 Austell Road", "addr:city": "Austell", "addr:state": "GA", "addr:postcode": "30106", "name": "Wellstar Hospitalist Group Pediatrics", "phone": "(470) 732-5299", "brand": "WellStar Health System"}, "geometry": {"type": "Point", "coordinates": [-84.6040933, 33.8571069]}},
{"type": "Feature", "id": "-8PA0srtG35Z5Bo9jvrTSegT4ds=", "properties": {"ref": "2318", "@spider": "wellstar", "addr:full": "2540 Windy Hill Road SE", "addr:city": "Marietta", "addr:state": "GA", "addr:postcode": "30067", "name": "Wellstar Anesthesia", "phone": "(770) 644-1274", "brand": "WellStar Health System"}, "geometry": {"type": "Point", "coordinates": [-84.4799148, 33.8998474]}},
{"type": "Feature", "id": "_ImKgWP85M1ch41kqvefuiOSvBk=", "properties": {"ref": "1470", "@spider": "wellstar", "addr:full": "4035 Johns Creek Parkway Suite A", "addr:city": "Suwanee", "addr:state": "GA", "addr:postcode": "30024", "name": " Providence Women's Healthcare", "phone": "(770) 670-6170", "brand": "WellStar Health System"}, "geometry": {"type": "Point", "coordinates": [-84.1622673, 34.0702982]}},
{"type": "Feature", "id": "QtuUEAT1sVH5Q9fTpRr-S6qjmEs=", "properties": {"ref": "414", "@spider": "wellstar", "addr:full": "261 Parkway Drive NE", "addr:city": "Atlanta", "addr:state": "GA", "addr:postcode": "30312", "name": "Wellstar Physical Therapy ", "phone": "(404) 265-4633", "opening_hours": "Mo 08:00-17:30; Tu 08:00-18:00; We 08:00-17:30; Th 08:00-18:00; Fr 08:00-12:00", "brand": "WellStar Health System"}, "geometry": {"type": "Point", "coordinates": [-84.3761567, 33.761618]}},
{"type": "Feature", "id": "KcCo3z0H78-3ptrTq03ptAGzhzk=", "properties": {"ref": "1058", "@spider": "wellstar", "addr:full": "790 Church Street NE Suite 400", "addr:city": "Marietta", "addr:state": "GA", "addr:postcode": "30060", "name": " Quantum Radiology", "phone": "(678) 581-3830", "brand": "WellStar Health System"}, "geometry": {"type": "Point", "coordinates": [-84.5489188, 33.9710116]}},
{"type": "Feature", "id": "SIETyJ_9nYVlEFGBk98CiPtSoD4=", "properties": {"ref": "13802", "@spider": "wellstar", "addr:full": "61 Whitcher Street Suite 4140", "addr:city": "Marietta", "addr:state": "GA", "addr:postcode": "30060", "name": " Georgia Reproductive Specialists", "phone": "(678) 540-1098", "brand": "WellStar Health System"}, "geometry": {"type": "Point", "coordinates": [-84.5516894, 33.9671871]}},
{"type": "Feature", "id": "wyM8pcqH9qtl8x5qxCP9e_o9vWY=", "properties": {"ref": "1954", "@spider": "wellstar", "addr:full": "4019 Johns Road Suite 100", "addr:city": "Dallas", "addr:state": "GA", "addr:postcode": "30132", "name": " Cobb Neph Hypertension Assoc.", "phone": "(678) 460-2700", "brand": "WellStar Health System"}, "geometry": {"type": "Point", "coordinates": [-84.8537389, 33.921255]}},
{"type": "Feature", "id": "rnkaYhoMLNWCdeROifg8trPZDIg=", "properties": {"ref": "3000", "@spider": "wellstar", "addr:full": "4280 East West Connector SE", "addr:city": "Smyrna", "addr:state": "GA", "addr:postcode": "30082", "name": " Thomas Eye Group", "phone": "(404) 256-1507", "brand": "WellStar Health System"}, "geometry": {"type": "Point", "coordinates": [-84.503579, 33.8413093]}},
{"type": "Feature", "id": "__jGD8P2nWcn-pGagmEqVseCGUI=", "properties": {"ref": "1366", "@spider": "wellstar", "addr:full": "375 McDonough Road", "addr:city": "Jackson", "addr:state": "GA", "addr:postcode": "30233", "name": " Jorge Moreno, Jr., MD", "phone": "(770) 775-4622", "brand": "WellStar Health System"}, "geometry": {"type": "Point", "coordinates": [-83.9710777, 33.296975]}},
{"type": "Feature", "id": "HhFdwKk71Wzt5GIkXWGfZoyjVfI=", "properties": {"ref": "2548", "@spider": "wellstar", "addr:full": "3747 Roswell Road Suite 213", "addr:city": "Marietta", "addr:state": "GA", "addr:postcode": "30062", "name": "Wellstar Cardiovascular Medicine", "phone": "(770) 321-3490", "opening_hours": "Mo-Fr 08:00-17:00", "brand": "WellStar Health System"}, "geometry": {"type": "Point", "coordinates": [-84.4447395, 33.9803208]}},
{"type": "Feature", "id": "ZMlKigJEvBlZ6zVOZk2veYZndQE=", "properties": {"ref": "2628", "@spider": "wellstar", "addr:full": "3805 Cherokee Street NW", "addr:city": "Kennesaw", "addr:state": "GA", "addr:postcode": "30144", "name": "Wellstar Kennesaw Family Medicine", "phone": "(770) 426-5666", "brand": "WellStar Health System"}, "geometry": {"type": "Point", "coordinates": [-84.60105469999999, 34.0464811]}},
{"type": "Feature", "id": "Yj7YHrtEjte0abwgvEHzKALaDVw=", "properties": {"ref": "2350", "@spider": "wellstar", "addr:full": "1700 Hospital South Drive Suite 102", "addr:city": "Austell", "addr:state": "GA", "addr:postcode": "30106", "name": "Wellstar Neurosurgery", "phone": "(470) 956-4410", "brand": "WellStar Health System"}, "geometry": {"type": "Point", "coordinates": [-84.60510409999999, 33.855786]}},
{"type": "Feature", "id": "IqUDaP99ldygXRz6FLWTGAGiOpo=", "properties": {"ref": "3100", "@spider": "wellstar", "addr:full": "100 Lacy Street Suite 150", "addr:city": "Marietta", "addr:state": "GA", "addr:postcode": "30060", "name": "Wellstar Psychological Services", "phone": "(770) 793-7635", "brand": "WellStar Health System"}, "geometry": {"type": "Point", "coordinates": [-84.553917, 33.9674156]}}]}