{"type":"FeatureCollection","features":[{"type": "Feature", "id": "MbVW2BmDkRxYRVgWT4YPds6B3bA=", "properties": {"ref": "81067737139", "@spider": "windsor", "addr:full": "5100 N. 9th Ave.", "addr:city": "Pensacola", "addr:state": "FL", "addr:postcode": "32504", "name": "Cordova Mall", "phone": "(850) 332-1095", "brand": "Windsor"}, "geometry": {"type": "Point", "coordinates": [-87.2080333, 30.4749135]}},
{"type": "Feature", "id": "xhp-vp8FE1TDWoBZZOGmZJr-tqc=", "properties": {"ref": "81000628275", "@spider": "windsor", "addr:full": "4125 Cleveland Ave", "addr:city": "Fort Myers", "addr:state": "FL", "addr:postcode": "33901", "name": "Edison Mall", "phone": "(239) 772-4140", "brand": "Windsor"}, "geometry": {"type": "Point", "coordinates": [-81.848466, 26.645426]}},
{"type": "Feature", "id": "pIGtV7G4f9m5jkQ-mNqDdlNg-YY=", "properties": {"ref": "81000202291", "@spider": "windsor", "addr:full": "1700 W New Haven Ave", "addr:city": "Melbourne", "addr:state": "FL", "addr:postcode": "32904", "name": "Melbourne Square Mall", "phone": "(321) 237-0294", "brand": "Windsor"}, "geometry": {"type": "Point", "coordinates": [-80.649106, 28.078982]}},
{"type": "Feature", "id": "cqYUv1rJ30qal_i2YmQe3CijhAk=", "properties": {"ref": "80934567987", "@spider": "windsor", "addr:full": "177 Market Street", "addr:city": "Westlake", "addr:state": "OH", "addr:postcode": "44145", "name": "Crocker Park - Coming 2023", "brand": "Windsor"}, "geometry": {"type": "Point", "coordinates": [-81.951893, 41.457497]}},
{"type": "Feature", "id": "etBnnAYht4NnJYF09rrUM9zNkl8=", "properties": {"ref": "80934469683", "@spider": "windsor", "addr:full": "5050 Factory Shops Blvd.", "addr:city": "Castle Rock", "addr:state": "CO", "addr:postcode": "80108", "name": "Outlets at Castle Rock - Coming 2022", "brand": "Windsor"}, "geometry": {"type": "Point", "coordinates": [-104.872899, 39.413543]}},
{"type": "Feature", "id": "y2MNv93H4iRPuGunnfU81AGAs1c=", "properties": {"ref": "80696803379", "@spider": "windsor", "addr:full": "293 Valley River Center", "addr:city": "Eugene", "addr:state": "OR", "addr:postcode": "97401", "name": "Valley River Center", "phone": "(541) 246-6962", "brand": "Windsor"}, "geometry": {"type": "Point", "coordinates": [-123.1058825, 44.0680219]}},
{"type": "Feature", "id": "QQtlrHDRG_WyS2vYyilVyCX8U_o=", "properties": {"ref": "79817441331", "@spider": "windsor", "addr:full": "8401 Park Meadowns Center Dr. ", "addr:city": "Lone Tree", "addr:state": "CO", "addr:postcode": "80124", "name": "Coming 2021 - Park Meadows Mall", "brand": "Windsor"}, "geometry": {"type": "Point", "coordinates": [-104.876691, 39.559317]}},
{"type": "Feature", "id": "hLWss9hlhBgen_sKgt5Z41RMoes=", "properties": {"ref": "79966765107", "@spider": "windsor", "addr:full": "6901 22nd Ave", "addr:city": "St Petersburg", "addr:state": "FL", "addr:postcode": "33710", "name": "Tyrone Square", "phone": "(727) 300-0151", "brand": "Windsor"}, "geometry": {"type": "Point", "coordinates": [-82.734773, 27.791884]}},
{"type": "Feature", "id": "kFtzDU0Jf4p4JE2fUTsAuVz1vtg=", "properties": {"ref": "79817179187", "@spider": "windsor", "addr:full": "3393 Peachtree Rd N.E. ", "addr:city": "Atlanta", "addr:state": "GA", "addr:postcode": "30326", "name": "Lenox Square", "phone": "(470) 816-5650", "brand": "Windsor"}, "geometry": {"type": "Point", "coordinates": [-84.363274, 33.849312]}},
{"type": "Feature", "id": "_20B1Z9Nl7FBIFcjt6GS_xI2YmM=", "properties": {"ref": "79817277491", "@spider": "windsor", "addr:full": "23106 Fashion Dr. ", "addr:city": "Estero", "addr:state": "FL", "addr:postcode": "33928", "name": "Coconut Point", "phone": "(239) 908-6868", "brand": "Windsor"}, "geometry": {"type": "Point", "coordinates": [-81.8076206, 26.404552]}},
{"type": "Feature", "id": "ZdZIddMOFJFnmggavnx4Ji_Lcqk=", "properties": {"ref": "79817244723", "@spider": "windsor", "addr:full": "4601 S. Broadway ", "addr:city": "Tyler", "addr:state": "TX", "addr:postcode": "75703", "name": "Broadway Square", "phone": "(903) 202-0174", "brand": "Windsor"}, "geometry": {"type": "Point", "coordinates": [-95.300559, 32.349668]}},
{"type": "Feature", "id": "O7uNlQqzKs9c_kEvK4En_wyf24E=", "properties": {"ref": "79817211955", "@spider": "windsor", "addr:full": "333 Apache Mall ", "addr:city": "Rochester", "addr:state": "MN", "addr:postcode": "55902", "name": "Apache Mall", "phone": "(507) 216-3518", "brand": "Windsor"}, "geometry": {"type": "Point", "coordinates": [-92.4778823852539, 44.005916595458984]}},
{"type": "Feature", "id": "9b-PbxYWSpGqmbhOw9aD5SdRmj4=", "properties": {"ref": "79817146419", "@spider": "windsor", "addr:full": "1201 Hooper Ave ", "addr:city": "Toms River", "addr:state": "NJ", "addr:postcode": "08753", "name": "Ocean County Mall", "phone": "(732) 703-6058", "brand": "Windsor"}, "geometry": {"type": "Point", "coordinates": [-74.182673, 39.978958]}},
{"type": "Feature", "id": "SjRhWVwG1QQno__93uqhhvHEMmo=", "properties": {"ref": "79817113651", "@spider": "windsor", "addr:full": "6002 Slide Rd ", "addr:city": "Lubbock", "addr:state": "TX", "addr:postcode": "79414", "name": "South Plains Mall", "phone": "(806) 370-1526", "brand": "Windsor"}, "geometry": {"type": "Point", "coordinates": [-101.92248, 33.539621]}},
{"type": "Feature", "id": "YsfhW6CeMKh-ztj8SNdDsDY163s=", "properties": {"ref": "79817080883", "@spider": "windsor", "addr:full": "3174 NW Federal Hwy ", "addr:city": "Jensen Beach", "addr:state": "FL", "addr:postcode": "34957", "name": "Treasure Coast Square", "phone": "(772) 208-3088", "brand": "Windsor"}, "geometry": {"type": "Point", "coordinates": [-80.2718813, 27.2446252]}},
{"type": "Feature", "id": "O07djgO1uJZVlG19F1J7qBRZOB8=", "properties": {"ref": "79817048115", "@spider": "windsor", "addr:full": "3500 Oleander Dr. ", "addr:city": "Wilmington", "addr:state": "NC", "addr:postcode": "28403", "name": "Independence Mall", "phone": "(910) 218-2020", "brand": "Windsor"}, "geometry": {"type": "Point", "coordinates": [-77.90481567382812, 34.21623611450195]}},
{"type": "Feature", "id": "K_nG6VJ5wxLWvWXAZ1IF4rHLFjQ=", "properties": {"ref": "79817310259", "@spider": "windsor", "addr:full": "1 W. Flatiron Cr. ", "addr:city": "Broomfield", "addr:state": "CO", "addr:postcode": "80021", "name": "Flatiron Crossing", "phone": "(720) 805-0870", "brand": "Windsor"}, "geometry": {"type": "Point", "coordinates": [-105.086836, 39.903688]}},
{"type": "Feature", "id": "82K1lavsa5CfgF7Jvnh5ybSBeH4=", "properties": {"ref": "79817015347", "@spider": "windsor", "addr:full": "4511 N. Midkiff Dr ", "addr:city": "MIdland", "addr:state": "TX", "addr:postcode": "79705", "name": "Midland Park Mall", "phone": "(432) 219-6985", "brand": "Windsor"}, "geometry": {"type": "Point", "coordinates": [-102.128821, 32.031703]}},
{"type": "Feature", "id": "F_BiR-5s44hdEj6SYZt-TaUjGhs=", "properties": {"ref": "79816949811", "@spider": "windsor", "addr:full": "11025 Carolina Place Pkwy ", "addr:city": "Pineville", "addr:state": "NC", "addr:postcode": "28134", "name": "Carolina Place", "phone": "(704) 456-9591", "brand": "Windsor"}, "geometry": {"type": "Point", "coordinates": [-80.879678, 35.082775]}},
{"type": "Feature", "id": "J7WnDfeY70fnw4o4b5OFSTMul1Q=", "properties": {"ref": "79816917043", "@spider": "windsor", "addr:full": "8401 Gateway Blvd West ", "addr:city": "El Paso", "addr:state": "TX", "addr:postcode": "79925", "name": "Cielo Vista Mall", "phone": "(915) 255-1982", "brand": "Windsor"}, "geometry": {"type": "Point", "coordinates": [-106.379966, 31.773013]}},
{"type": "Feature", "id": "yinLDlZQxhJz-tcNhuZVQzdD9Rk=", "properties": {"ref": "79816884275", "@spider": "windsor", "addr:full": "14400 Bear Valley Rd ", "addr:city": "Victorville", "addr:state": "CA", "addr:postcode": "92392", "name": "The Mall of Victor Valley", "phone": "(442) 267-6266", "brand": "Windsor"}, "geometry": {"type": "Point", "coordinates": [-117.35092163085938, 34.47039794921875]}},
{"type": "Feature", "id": "Y9DgcHy9az_QMsjf2wc1FZinMxU=", "properties": {"ref": "79814492211", "@spider": "windsor", "addr:full": "7875 Montgomery Rd  ", "addr:city": "Cincinnati", "addr:state": "OH", "addr:postcode": "45236", "name": "Kenwood Towne Centre", "phone": "(513) 334-2186", "brand": "Windsor"}, "geometry": {"type": "Point", "coordinates": [-84.3775651, 39.201316]}},
{"type": "Feature", "id": "z9_tJwRIXY8o7mBHa0br-QlUMGE=", "properties": {"ref": "79814459443", "@spider": "windsor", "addr:full": "4464 Cedar Park Dr.", "addr:city": "Beavercreek", "addr:state": "OH", "addr:postcode": "45440", "name": "The Greene Town Center", "phone": "(937) 705-0134", "brand": "Windsor"}, "geometry": {"type": "Point", "coordinates": [-84.103235, 39.694367]}},
{"type": "Feature", "id": "HdzqdSoqLcsQvT20XcspDYYjp14=", "properties": {"ref": "79800893491", "@spider": "windsor", "addr:full": "30 Mall Drive West ", "addr:city": "Jersey City", "addr:state": "NJ", "addr:postcode": "07310", "name": "Newport Centre", "phone": "(201) 448-9294", "brand": "Windsor"}, "geometry": {"type": "Point", "coordinates": [-74.176341, 40.717548]}},
{"type": "Feature", "id": "cpc2cX6tTLuC-SCdvtYLJB7N6q8=", "properties": {"ref": "79800860723", "@spider": "windsor", "addr:full": "100 W. Broadway ", "addr:city": "Glendale", "addr:state": "CA", "addr:postcode": "91210", "name": "Glendale Galleria", "phone": "(747) 228-3237", "brand": "Windsor"}, "geometry": {"type": "Point", "coordinates": [-118.256681, 34.146491]}},
{"type": "Feature", "id": "-ICOQYl5F7NgZMP_SDm9Czipdko=", "properties": {"ref": "79800762419", "@spider": "windsor", "addr:full": "2414 E. Sunrise Blvd ", "addr:city": "Fort Lauderdale\t", "addr:state": "FL", "addr:postcode": "33304", "name": "The Galleria at Fort Lauderdale", "phone": "(954) 488-2321", "brand": "Windsor"}, "geometry": {"type": "Point", "coordinates": [-80.11249542236328, 26.137874603271484]}},
{"type": "Feature", "id": "SogpVAVRSBXl5D-XUmtAqzg4wmw=", "properties": {"ref": "79800729651", "@spider": "windsor", "addr:full": "12801 W. Sunrise Blvd ", "addr:city": "Sunrise", "addr:state": "FL", "addr:postcode": "33323", "name": "Sawgrass Mills", "phone": "(754) 225-4129", "brand": "Windsor"}, "geometry": {"type": "Point", "coordinates": [-80.322519, 26.144522]}},
{"type": "Feature", "id": "-ieP0oeIEb1Cs-dh5FITTYWuloI=", "properties": {"ref": "79800696883", "@spider": "windsor", "addr:full": "3401 Dale Rd. ", "addr:city": "Modesto", "addr:state": "CA", "addr:postcode": "95356", "name": "Vintage Faire Mall", "phone": "(209) 900-4739", "brand": "Windsor"}, "geometry": {"type": "Point", "coordinates": [-121.049891, 37.690255]}},
{"type": "Feature", "id": "vM4AXiIL4sU__ZMDtJR6s4xgF3Q=", "properties": {"ref": "79800664115", "@spider": "windsor", "addr:full": "11800 Broad St. ", "addr:city": "Richmond", "addr:state": "VA", "addr:postcode": "23233", "name": "Short Pump Town Center", "phone": "(804) 476-2017", "brand": "Windsor"}, "geometry": {"type": "Point", "coordinates": [-77.619876, 37.656138]}},
{"type": "Feature", "id": "EYLH7O7gf4Eg1ZW0WOU3BCXKpco=", "properties": {"ref": "79800631347", "@spider": "windsor", "addr:full": "1500 Apalachee Pkwy ", "addr:city": "Tallahassee", "addr:state": "FL", "addr:postcode": "32301", "name": "Governor's Square", "phone": "(850) 329-8262", "brand": "Windsor"}, "geometry": {"type": "Point", "coordinates": [-84.253506, 30.436468]}},
{"type": "Feature", "id": "e116KLJ263DTsMff8Qa6QnValiY=", "properties": {"ref": "79800565811", "@spider": "windsor", "addr:full": "200 N Dartmouth Mall", "addr:city": "Dartmouth", "addr:state": "MA", "addr:postcode": "02747", "name": "Dartmouth Mall", "phone": "(774) 224-0147", "brand": "Windsor"}, "geometry": {"type": "Point", "coordinates": [-70.989939, 41.642458]}},
{"type": "Feature", "id": "fkX4uZir-7xFoTZ3sBKZpz9SmiU=", "properties": {"ref": "79800533043", "@spider": "windsor", "addr:full": "600 West Glades Rd ", "addr:city": "Boca Raton", "addr:state": "FL", "addr:postcode": "33431", "name": "Town Center at Boca Raton", "phone": "(561) 805-3721", "brand": "Windsor"}, "geometry": {"type": "Point", "coordinates": [-80.130885, 26.368375]}},
{"type": "Feature", "id": "6I7HYhxKKhQD_eI5utxnhNfOES4=", "properties": {"ref": "79800500275", "@spider": "windsor", "addr:full": "3241 20th Ave ", "addr:city": "San Francisco", "addr:state": "CA", "addr:postcode": "94132", "name": "Stonestown Galleria", "phone": "(628) 628-1828", "brand": "Windsor"}, "geometry": {"type": "Point", "coordinates": [-122.4765212, 37.7276435]}},
{"type": "Feature", "id": "fpaYnDWPrY27rG3wQM3zQ4KhJfw=", "properties": {"ref": "79800401971", "@spider": "windsor", "addr:full": "6501 N. Grape Rd", "addr:city": "Mishawaka", "addr:state": "IN", "addr:postcode": "46545", "name": "University Park", "phone": "(574) 213-0289", "brand": "Windsor"}, "geometry": {"type": "Point", "coordinates": [-86.187814, 41.717638]}},
{"type": "Feature", "id": "RgX1FOVTIUdt2rQYQrIHcRlne5A=", "properties": {"ref": "79800369203", "@spider": "windsor", "addr:full": "2031 S. Mooney Blvd. ", "addr:city": "Visalia", "addr:state": "CA", "addr:postcode": "93277", "name": "Visalia Mall", "phone": "(559) 372-9496", "brand": "Windsor"}, "geometry": {"type": "Point", "coordinates": [-119.31391143798828, 36.30938720703125]}},
{"type": "Feature", "id": "2pIZSOub-N1Zx-c7PIXIcNfuOCE=", "properties": {"ref": "79800336435", "@spider": "windsor", "addr:full": "2300 Bernadette Dr. ", "addr:city": "Columbia", "addr:state": "MO", "addr:postcode": "65203", "name": "Columbia Mall", "phone": "(573)355-5910", "brand": "Windsor"}, "geometry": {"type": "Point", "coordinates": [-92.37152099609375, 38.96536636352539]}},
{"type": "Feature", "id": "kwx4Oo1CN3ETOeS1TH60JzbWcRM=", "properties": {"ref": "79800303667", "@spider": "windsor", "addr:full": "2203 Promenade Blvd ", "addr:city": "Rogers", "addr:state": "AR", "addr:postcode": "72758", "name": "Pinnacle Hills Promenade", "phone": "(479) 278-4340", "brand": "Windsor"}, "geometry": {"type": "Point", "coordinates": [-94.1753497, 36.3043883]}},
{"type": "Feature", "id": "M3aQZ0BwQvx_XQ2LFIgZcdRjVok=", "properties": {"ref": "79800270899", "@spider": "windsor", "addr:full": "26300 Cedar Rd ", "addr:city": "Beachwood", "addr:state": "OH", "addr:postcode": "44122", "name": "Beachwood Place", "phone": "(440) 459-0194", "brand": "Windsor"}, "geometry": {"type": "Point", "coordinates": [-81.494265, 41.501131]}},
{"type": "Feature", "id": "dUaRWozTfDnAzQL3_7NbKrBgHvQ=", "properties": {"ref": "79817343027", "@spider": "windsor", "addr:full": "1321 N. Columbia Center Blvd ", "addr:city": "Kennewick", "addr:state": "WA", "addr:postcode": "99336", "name": "Columbia Center", "phone": "(509) 873-3409", "brand": "Windsor"}, "geometry": {"type": "Point", "coordinates": [-119.2234758, 46.2254712]}},
{"type": "Feature", "id": "CGZLkcAx84-K1XYRute8S_s6ZYQ=", "properties": {"ref": "79817375795", "@spider": "windsor", "addr:full": "75 Middlesex Turnpike ", "addr:city": "Burlington", "addr:state": "MA", "addr:postcode": "01803", "name": "Burlington Mall", "phone": "(781) 226-1159", "brand": "Windsor"}, "geometry": {"type": "Point", "coordinates": [-71.2146987915039, 42.476951599121094]}},
{"type": "Feature", "id": "v4OASepQ12U-SCG6y_QLdjDRNqo=", "properties": {"ref": "79817408563", "@spider": "windsor", "addr:full": "5450 Meadowood Mall Circle ", "addr:city": "Reno", "addr:state": "NV", "addr:postcode": "89502", "name": "Meadowood Mall", "phone": "(775) 446-6880", "brand": "Windsor"}, "geometry": {"type": "Point", "coordinates": [-119.78010559082031, 39.47233200073242]}},
{"type": "Feature", "id": "mlHR2TsOwYnvONT4O4qrFXX2o54=", "properties": {"ref": "79817474099", "@spider": "windsor", "addr:full": "1000 Ross Park Mall Dr. ", "addr:city": "Pittsburgh", "addr:state": "PA", "addr:postcode": "15237", "name": "Ross Park Mall", "phone": "(412) 318-5559", "brand": "Windsor"}, "geometry": {"type": "Point", "coordinates": [-80.006526, 40.54104]}},
{"type": "Feature", "id": "5OXAg3rJxllQtkB0AoRfIsieF-4=", "properties": {"ref": "79817506867", "@spider": "windsor", "addr:full": "1675 West 49th St ", "addr:city": "Hialeah", "addr:state": "FL", "addr:postcode": "33012", "name": "Westland Mall - Coming 2022", "brand": "Windsor"}, "geometry": {"type": "Point", "coordinates": [-80.3173241, 25.8684968]}},
{"type": "Feature", "id": "rJtfkrO32-6xk1WTF0BxtXb8R2M=", "properties": {"ref": "79817572403", "@spider": "windsor", "addr:full": "5000 Empire Mall ", "addr:city": "Sioux Falls", "addr:state": "SD", "addr:postcode": "57106", "name": "Empire Mall", "phone": "(605) 743-0411", "brand": "Windsor"}, "geometry": {"type": "Point", "coordinates": [-96.774797, 43.514205]}},
{"type": "Feature", "id": "iaigqk5T7WJFgACI2zF13q_Kv5I=", "properties": {"ref": "79799484467", "@spider": "windsor", "addr:full": "500 Baybrook Mall Space #1314", "addr:city": "Friendswood", "addr:state": "TX", "addr:postcode": "77546", "name": "Baybrook Mall", "phone": "(281) 317-7925", "brand": "Windsor"}, "geometry": {"type": "Point", "coordinates": [-95.153285, 29.542513]}},
{"type": "Feature", "id": "Bv-QdmYHjxMoU_IAnEOitg2TvHw=", "properties": {"ref": "79799451699", "@spider": "windsor", "addr:full": "3506 Capital City Mall Dr. ", "addr:city": "Camp Hill", "addr:state": "PA", "addr:postcode": "17011", "name": "Capital City Mall", "phone": "(717) 516-2019", "brand": "Windsor"}, "geometry": {"type": "Point", "coordinates": [-76.930218, 40.225147]}},
{"type": "Feature", "id": "GDDi8fk_MlPSEltubAV1dMpCWjU=", "properties": {"ref": "79799418931", "@spider": "windsor", "addr:full": "8200 Perry Hall Blvd ", "addr:city": "Baltimore", "addr:state": "MD", "addr:postcode": "21236", "name": "Coming 2021 - White Marsh Mall", "brand": "Windsor"}, "geometry": {"type": "Point", "coordinates": [-76.4674566, 39.3749337]}},
{"type": "Feature", "id": "B1PKdNb8I-myypl831jkFHkfcek=", "properties": {"ref": "79799386163", "@spider": "windsor", "addr:full": "3000 Riverchase Galleria Space 108", "addr:city": "Hoover", "addr:state": "AL", "addr:postcode": "35244", "name": "Riverchase Galleria", "phone": "(205) 417-1225", "brand": "Windsor"}, "geometry": {"type": "Point", "coordinates": [-86.790111, 33.364114]}},
{"type": "Feature", "id": "7jYR_WJq-AtPELAa1MllG4ZtgkU=", "properties": {"ref": "79799353395", "@spider": "windsor", "addr:full": "1071 Santa Rosa Plaza ", "addr:city": "Santa Rosa", "addr:state": "CA", "addr:postcode": "95401", "name": "Santa Rosa Mall", "phone": "(707) 324-1102", "brand": "Windsor"}, "geometry": {"type": "Point", "coordinates": [-122.71722412109375, 38.43881607055664]}},
{"type": "Feature", "id": "Od-kLdQPSJ1WdrUAAsWUIaHvUCk=", "properties": {"ref": "79799320627", "@spider": "windsor", "addr:full": "400 Commons Way ", "addr:city": "Bridgewater", "addr:state": "NJ", "addr:postcode": "08807", "name": "Bridgewater Commons", "phone": "(908) 524-0134", "brand": "Windsor"}, "geometry": {"type": "Point", "coordinates": [-74.6193844, 40.5859998]}},
{"type": "Feature", "id": "ClyUFiKrCAbIc1Ni94acZNEP-N8=", "properties": {"ref": "79799287859", "@spider": "windsor", "addr:full": "12300 Jefferson Ave, ", "addr:city": "Newport News", "addr:state": "VA", "addr:postcode": "23602", "name": "Patrick Henry Mall", "phone": "(757) 528-2629", "brand": "Windsor"}, "geometry": {"type": "Point", "coordinates": [-76.500753, 37.11382]}},
{"type": "Feature", "id": "koJVv0FU4LwW9aUBoA8QaIC9O6g=", "properties": {"ref": "79799222323", "@spider": "windsor", "addr:full": "364 Maine Mall Rd ", "addr:city": "South Portland", "addr:state": "ME", "addr:postcode": "04106", "name": "Maine Mall", "phone": "(207) 464-4418", "brand": "Windsor"}, "geometry": {"type": "Point", "coordinates": [-70.337961, 43.633997]}},
{"type": "Feature", "id": "tsxaHZGFvTOBX_5pzyI89YqAeZ4=", "properties": {"ref": "79799189555", "@spider": "windsor", "addr:full": "60 31st Ave", "addr:city": "San Mateo", "addr:state": "CA", "addr:postcode": "94403", "name": "Coming 2021 - Hillsdale Shopping Center", "brand": "Windsor"}, "geometry": {"type": "Point", "coordinates": [-122.302565, 37.537548]}},
{"type": "Feature", "id": "F1lymEtur9PzxUg1w_7t-Q8xRh0=", "properties": {"ref": "79798992947", "@spider": "windsor", "addr:full": "3265 W. Market St ", "addr:city": "Fairlawn", "addr:state": "OH", "addr:postcode": "44333", "name": "Summit Mall", "phone": "(234) 200-0527", "brand": "Windsor"}, "geometry": {"type": "Point", "coordinates": [-81.617742, 41.131885]}},
{"type": "Feature", "id": "tdStQhru6XC0-szGB3z5BUcX4zg=", "properties": {"ref": "79798960179", "@spider": "windsor", "addr:full": "6500 Springfield Mall ", "addr:city": "Springfield", "addr:state": "VA", "addr:postcode": "22150", "name": "Springfield Town Center", "phone": "(571) 932-3125", "brand": "Windsor"}, "geometry": {"type": "Point", "coordinates": [-77.185465, 38.777825]}},
{"type": "Feature", "id": "DTmeE8TI_QhcXCMo7N5UdKNZzdw=", "properties": {"ref": "79798894643", "@spider": "windsor", "addr:full": "14006 Riverside Dr. ", "addr:city": "Sherman Oaks", "addr:state": "CA", "addr:postcode": "91423", "name": "Sherman Oaks Fashion Square", "phone": "(747) 233-5433", "brand": "Windsor"}, "geometry": {"type": "Point", "coordinates": [-118.437598, 34.157532]}},
{"type": "Feature", "id": "LnLJGqzfaCXxsBOf_XdSKLfH22s=", "properties": {"ref": "79798861875", "@spider": "windsor", "addr:full": "24201 Valencia Blvd ", "addr:city": "Santa Clarita", "addr:state": "CA", "addr:postcode": "91355", "name": "Valencia Town Center", "phone": "(661) 383-2407", "brand": "Windsor"}, "geometry": {"type": "Point", "coordinates": [-118.556816, 34.413124]}},
{"type": "Feature", "id": "jv9mDNfIDzpvdpcBa7tbNVGEc3s=", "properties": {"ref": "79826026547", "@spider": "windsor", "addr:full": "2000 NJ-38 ", "addr:city": "Cherry Hill", "addr:state": "NJ", "addr:postcode": "08002", "name": "Cherry Hill Mall", "phone": "(845) 632-0246", "brand": "Windsor"}, "geometry": {"type": "Point", "coordinates": [-75.019059, 39.933446]}},
{"type": "Feature", "id": "gIbvvgzB-3RtF-hhKbTcJmiDdJA=", "properties": {"ref": "48456925235", "@spider": "windsor", "addr:full": "4502 S Steele St", "addr:city": "Tacoma", "addr:state": "WA", "addr:postcode": "98409", "name": "Tacoma Mall", "phone": "(425) 230 - 2562", "brand": "Windsor"}, "geometry": {"type": "Point", "coordinates": [-122.46768, 47.21785]}},
{"type": "Feature", "id": "GSbCHs12GTZULNzBDdKI0iR9y_4=", "properties": {"ref": "48184885299", "@spider": "windsor", "addr:full": "700 Haywood Rd", "addr:city": "Greenville", "addr:state": "SC", "addr:postcode": "29607", "name": "Greenville Haywood Mall", "phone": "864-516-7943", "brand": "Windsor"}, "geometry": {"type": "Point", "coordinates": [-82.33351, 34.85006]}},
{"type": "Feature", "id": "ZU3rBdtICErOKPI-0XHzx04WxIM=", "properties": {"ref": "48184852531", "@spider": "windsor", "addr:full": "7600 Kingston Pike", "addr:city": "Knoxville", "addr:state": "TN", "addr:postcode": "37919", "name": "Knoxville West Town Mall", "phone": "865-299-6355", "brand": "Windsor"}, "geometry": {"type": "Point", "coordinates": [-84.03756, 35.92704]}},
{"type": "Feature", "id": "E70eNramiMZLC8V5k0T_z2nfFXs=", "properties": {"ref": "48009773107", "@spider": "windsor", "addr:full": "98-1005 Moanalua Rd", "addr:city": "Aiea", "addr:state": "HI", "addr:postcode": "96701", "name": "Aiea Pearlridge Center", "phone": "(808) 354-0040", "brand": "Windsor"}, "geometry": {"type": "Point", "coordinates": [-157.94029, 21.38521]}},
{"type": "Feature", "id": "GzMZ6JIIbm2zDM7MBIiOTBphhok=", "properties": {"ref": "48009674803", "@spider": "windsor", "addr:full": "197 Westbank Expy", "addr:city": "Gretna", "addr:state": "LA", "addr:postcode": "70053", "name": "Gretna Oakwood Center", "phone": "(504) 294 -4480", "brand": "Windsor"}, "geometry": {"type": "Point", "coordinates": [-90.03871, 29.92162]}},
{"type": "Feature", "id": "TACro9PWM1RH3GOnl1glab3aY90=", "properties": {"ref": "48009642035", "@spider": "windsor", "addr:full": "6401 Bluebonnet Blvd", "addr:city": "Baton Rouge", "addr:state": "LA", "addr:postcode": "70836", "name": "Baton Rouge Mall of Louisiana", "phone": "(225)300-6278", "brand": "Windsor"}, "geometry": {"type": "Point", "coordinates": [-91.08716, 30.39316]}},
{"type": "Feature", "id": "INiqQFUI8YGpclQO3cvL-XsRWH0=", "properties": {"ref": "48009609267", "@spider": "windsor", "addr:full": "1900 Tamiami Trail N", "addr:city": "Naples", "addr:state": "FL", "addr:postcode": "34102", "name": "Coastland Center", "phone": "(561) 287-9628", "brand": "Windsor"}, "geometry": {"type": "Point", "coordinates": [-81.79662, 26.16985]}},
{"type": "Feature", "id": "kyeb9p0BOHJb8NaIR38B57SVItE=", "properties": {"ref": "48009576499", "@spider": "windsor", "addr:full": "8700 N.E. Vancouver Mall Drive", "addr:city": "Vancouver", "addr:state": "WA", "addr:postcode": "98662", "name": "Vancouver Mall", "phone": "971-278-2536", "brand": "Windsor"}, "geometry": {"type": "Point", "coordinates": [-122.58363, 45.65819]}},
{"type": "Feature", "id": "sMqGtZF47lZ4DWie23oKKRoScvQ=", "properties": {"ref": "48009510963", "@spider": "windsor", "addr:full": "2200 S 10th St", "addr:city": "McAllen", "addr:state": "TX", "addr:postcode": "78503", "name": "La Plaza Mall", "phone": "(956) 278-0242", "brand": "Windsor"}, "geometry": {"type": "Point", "coordinates": [-98.23589, 26.18435]}},
{"type": "Feature", "id": "3YdsPUbyKS-BE48Lx3WkZaWHFxs=", "properties": {"ref": "48009445427", "@spider": "windsor", "addr:full": "1451 Coral Ridge Ave", "addr:city": "Coralville", "addr:state": "IA", "addr:postcode": "52241", "name": "Coralville Coral Ridge Mall", "phone": "319-224-5188", "brand": "Windsor"}, "geometry": {"type": "Point", "coordinates": [-91.60261, 41.69092]}},
{"type": "Feature", "id": "PZyPx0D0EN9iE62A4WZ3jgEiSOw=", "properties": {"ref": "48009412659", "@spider": "windsor", "addr:full": "3195 28th Street SE", "addr:city": "Grand Rapids", "addr:state": "MI", "addr:postcode": "49512", "name": "Grand Rapids Woodland Mall", "phone": "(616)483-0732", "brand": "Windsor"}, "geometry": {"type": "Point", "coordinates": [-85.58822, 42.91627]}},
{"type": "Feature", "id": "z4w4RqSNt6EN4z2iDRlcrSG6aLw=", "properties": {"ref": "48000892979", "@spider": "windsor", "addr:full": "101 Jordan Creek Pkwy", "addr:city": "Des Moines", "addr:state": "IA", "addr:postcode": "50266", "name": "Des Moines Jordan Creek Town Center", "phone": "(515) 585-0256", "brand": "Windsor"}, "geometry": {"type": "Point", "coordinates": [-93.80467, 41.56988]}},
{"type": "Feature", "id": "52c6BEWuKsz_f9QEfXmyJXVtucc=", "properties": {"ref": "48000827443", "@spider": "windsor", "addr:full": "132 Christiana Mall", "addr:city": "Newark", "addr:state": "DE", "addr:postcode": "19702 ", "name": "Christiana Mall", "phone": "302-276-8995", "brand": "Windsor"}, "geometry": {"type": "Point", "coordinates": [-75.652, 39.67553]}},
{"type": "Feature", "id": "tjksPlOXi8kHAnmXGPq-vD2C8Rk=", "properties": {"ref": "48000794675", "@spider": "windsor", "addr:full": "410 Palladio Pkwy", "addr:city": "Folsom", "addr:state": "CA", "addr:postcode": "95630", "name": "Folsom Palladio Mall", "phone": "(916) 461-4589", "brand": "Windsor"}, "geometry": {"type": "Point", "coordinates": [-121.119972, 38.650028]}},
{"type": "Feature", "id": "qswkzO53L2MhOAVuXILXn3pJCX8=", "properties": {"ref": "48000729139", "@spider": "windsor", "addr:full": "6100 O St", "addr:city": "Lincoln", "addr:state": "NE", "addr:postcode": "68505", "name": "Lincoln Gateway Mall", "phone": "(402) 205-7228", "brand": "Windsor"}, "geometry": {"type": "Point", "coordinates": [-96.63686, 40.81574]}},
{"type": "Feature", "id": "RxCeNZm2cUK1vOlX5g19QKcz3KM=", "properties": {"ref": "48000663603", "@spider": "windsor", "addr:full": "3401 Nicholasville Rd", "addr:city": "Lexington", "addr:state": "KY", "addr:postcode": "40503", "name": "Lexington Fayette Mall", "phone": "(859) 308-3012", "brand": "Windsor"}, "geometry": {"type": "Point", "coordinates": [-84.52869, 37.99091]}},
{"type": "Feature", "id": "TwpeuIIbqxj2MDTVJxM_U_ivYX8=", "properties": {"ref": "47977431091", "@spider": "windsor", "addr:full": "10000 California St", "addr:city": "Omaha", "addr:state": "NE", "addr:postcode": "68114", "name": "Westroads Mall", "phone": "(402) 281-0619", "brand": "Windsor"}, "geometry": {"type": "Point", "coordinates": [-96.06854, 41.26674]}},
{"type": "Feature", "id": "wDCzp4kcQH8G2aPBpAZAX62SORo=", "properties": {"ref": "47977332787", "@spider": "windsor", "addr:full": "1450 Ala Moana Blvd", "addr:city": "Honolulu", "addr:state": "HI", "addr:postcode": "96814", "name": "Honolulu Ala Moana Center", "phone": "(808) 427-1050", "brand": "Windsor"}, "geometry": {"type": "Point", "coordinates": [-157.84354, 21.29115]}},
{"type": "Feature", "id": "8muwCdml7VogHBPGI2N2wCk5FRQ=", "properties": {"ref": "47977300019", "@spider": "windsor", "addr:full": "350 N Milwaukee St", "addr:city": "Boise", "addr:state": "ID", "addr:postcode": "83704", "name": "Boise Towne Square", "phone": "(208) 515-2760", "brand": "Windsor"}, "geometry": {"type": "Point", "coordinates": [-116.27645, 43.60886]}},
{"type": "Feature", "id": "YvyeTdgiKXAuipK6WO7xJ4gCTVY=", "properties": {"ref": "45619019827", "@spider": "windsor", "addr:full": "901 Market Street", "addr:city": "Philadelphia", "addr:state": "PA", "addr:postcode": "19107", "name": "Fashion District Philadelphia", "phone": "(267) 457-4075", "brand": "Windsor"}, "geometry": {"type": "Point", "coordinates": [-75.15536, 39.95198]}},
{"type": "Feature", "id": "6ZgU1adQ-Ov3F5HDJ9oeYJEvA14=", "properties": {"ref": "45624197171", "@spider": "windsor", "addr:full": "10300  Little Patuxent Pkwy", "addr:city": "Columbia", "addr:state": "MD", "addr:postcode": "21044", "name": "The Mall in Columbia", "phone": "(410) 794-1201", "brand": "Windsor"}, "geometry": {"type": "Point", "coordinates": [-76.8615, 39.2157]}},
{"type": "Feature", "id": "MlHRS2s7ITaaqRwxYE36qcC9Pfs=", "properties": {"ref": "45620461619", "@spider": "windsor", "addr:full": "12000 SE 82nd Ave", "addr:city": "Happy Valley", "addr:state": "OR", "addr:postcode": "97086", "name": "Happy Valley Clackamas Town Center", "phone": "(503) 406-1430", "brand": "Windsor"}, "geometry": {"type": "Point", "coordinates": [-122.573, 45.4359]}},
{"type": "Feature", "id": "1030F_UGgHVBW1_VrEprQK_cKxU=", "properties": {"ref": "45619183667", "@spider": "windsor", "addr:full": "6000 Sepulveda Blvd", "addr:city": "Culver City", "addr:state": "CA", "addr:postcode": "90230", "name": "Westfield Culver City", "phone": "(424) 216-6003", "brand": "Windsor"}, "geometry": {"type": "Point", "coordinates": [-118.394, 33.9855]}},
{"type": "Feature", "id": "AVksfEakSi7NnVaA05Hz8i4cdn0=", "properties": {"ref": "45625180211", "@spider": "windsor", "addr:full": "35000 W. Warren Blvd", "addr:city": "Westland", "addr:state": "MI", "addr:postcode": "48185", "name": "Westland Shopping Center", "phone": "(734) 237-1539", "brand": "Windsor"}, "geometry": {"type": "Point", "coordinates": [-83.3894, 42.341]}},
{"type": "Feature", "id": "loYOOcp_dF97TTiFr2gFR6DMmcc=", "properties": {"ref": "45621444659", "@spider": "windsor", "addr:full": "5000 Shelbyville Rd", "addr:city": "Louisville", "addr:state": "KY", "addr:postcode": "40207", "name": "Louisville Mall St. Matthews", "phone": "(502) 410-1607", "brand": "Windsor"}, "geometry": {"type": "Point", "coordinates": [-85.6231, 38.2468]}},
{"type": "Feature", "id": "hl4eR06SKTf8C2tBJXI-krNrwX4=", "properties": {"ref": "45620363315", "@spider": "windsor", "addr:full": "1251 Us Hwy 31 N", "addr:city": "Greenwood", "addr:state": "IN", "addr:postcode": "46142", "name": "Greenwood Park Mall", "phone": "(317) 215-5401", "brand": "Windsor"}, "geometry": {"type": "Point", "coordinates": [-86.121, 39.6323]}},
{"type": "Feature", "id": "l4lG6a77G_9wEbtNGExTxhjXsV8=", "properties": {"ref": "45620756531", "@spider": "windsor", "addr:full": "6020 E. 82nd St", "addr:city": "Indianapolis", "addr:state": "IN", "addr:postcode": "46250", "name": "Indianapolis Castleton Square", "phone": "(317) 204-2248", "brand": "Windsor"}, "geometry": {"type": "Point", "coordinates": [-86.0649, 39.9089]}},
{"type": "Feature", "id": "foQI6Mkm0abcDuybPY09WEaGEcw=", "properties": {"ref": "45622460467", "@spider": "windsor", "addr:full": "1901 Northwest Expressway", "addr:city": "Oklahoma City", "addr:state": "OK", "addr:postcode": "73118", "name": "Penn Square Mall", "phone": "(405) 301-8086", "brand": "Windsor"}, "geometry": {"type": "Point", "coordinates": [-97.544, 35.5247]}},
{"type": "Feature", "id": "KdQmpmbSkVkPFpsDW0RDJr4Wh4M=", "properties": {"ref": "45624098867", "@spider": "windsor", "addr:full": "23000 Eureka Rd", "addr:city": "Taylor", "addr:state": "MI", "addr:postcode": "48180", "name": "Taylor Southland Center", "phone": "(313) 263-3313", "brand": "Windsor"}, "geometry": {"type": "Point", "coordinates": [-83.2547, 42.2006]}},
{"type": "Feature", "id": "1C-j0lnP1MD0VjbzQBwpu5c7_0E=", "properties": {"ref": "45621739571", "@spider": "windsor", "addr:full": "2109 Southlake Mall", "addr:city": "Merrillville", "addr:state": "IN", "addr:postcode": "46410", "name": "Merrillville Southlake Mall", "phone": "(219) 682-2115", "brand": "Windsor"}, "geometry": {"type": "Point", "coordinates": [-87.310431, 41.468447]}},
{"type": "Feature", "id": "vaU67-hMWz_jFvkMlbhMw3fDofQ=", "properties": {"ref": "45618200627", "@spider": "windsor", "addr:full": "1388 Fox Valley Center", "addr:city": "Aurora", "addr:state": "IL", "addr:postcode": "60504", "name": "Aurora Fox Valley Mall", "phone": "(630) 631-0470", "brand": "Windsor"}, "geometry": {"type": "Point", "coordinates": [-88.2135, 41.759]}},
{"type": "Feature", "id": "A5Ea_WrSE_6hrj1KQsauZJ3zB4k=", "properties": {"ref": "45624754227", "@spider": "windsor", "addr:full": "112 Hawthorn Center", "addr:city": "Vernon Hills", "addr:state": "IL", "addr:postcode": "60061", "name": "Vernon Hills Hawthorn Mall", "phone": "(224) 475-4410", "brand": "Windsor"}, "geometry": {"type": "Point", "coordinates": [-87.9499, 42.2426]}},
{"type": "Feature", "id": "EnBybGCy1QtcKgmj-V8zzF8as1A=", "properties": {"ref": "45620002867", "@spider": "windsor", "addr:full": "3710 Route 9", "addr:city": "Freehold", "addr:state": "NJ", "addr:postcode": "07728", "name": "Freehold Raceway Mall", "phone": "(732) 252-0410", "brand": "Windsor"}, "geometry": {"type": "Point", "coordinates": [-74.3002, 40.2533]}},
{"type": "Feature", "id": "ldx7sacoTdS_E-Qnc5eBKP2Qyfg=", "properties": {"ref": "45624623155", "@spider": "windsor", "addr:full": "5870 E. Broadway Blvd", "addr:city": "Tucson", "addr:state": "AZ", "addr:postcode": "85711", "name": "Tucson Park Place", "phone": "(520) 844-2650", "brand": "Windsor"}, "geometry": {"type": "Point", "coordinates": [-110.8655, 32.2197]}},
{"type": "Feature", "id": "PZ9dAH6uc2eB8jgRltFah_kmNsg=", "properties": {"ref": "45622231091", "@spider": "windsor", "addr:full": "4200e N. Harlem Ave", "addr:city": "Norridge", "addr:state": "IL", "addr:postcode": "60706", "name": "Harlem Irving Plaza", "phone": "(708) 716-0254", "brand": "Windsor"}, "geometry": {"type": "Point", "coordinates": [-87.8073, 41.9559]}},
{"type": "Feature", "id": "LTHKExXVrxDr5p4D-pcu41YrwrQ=", "properties": {"ref": "45619478579", "@spider": "windsor", "addr:full": "80 W. County Center Dr", "addr:city": "Des Peres", "addr:state": "MO", "addr:postcode": "63131", "name": "Des Peres West County Center", "phone": "(314) 561-7400", "brand": "Windsor"}, "geometry": {"type": "Point", "coordinates": [-90.448, 38.6024]}},
{"type": "Feature", "id": "i4eyH-n3Af7E9dkEi-Sj2-5dy30=", "properties": {"ref": "45624688691", "@spider": "windsor", "addr:full": "7021 S. Memorial Dr", "addr:city": "Tulsa", "addr:state": "OK", "addr:postcode": "74133", "name": "Tulsa Woodland Hills Mall", "phone": "(918) 720-0090", "brand": "Windsor"}, "geometry": {"type": "Point", "coordinates": [-95.88107, 36.062972]}},
{"type": "Feature", "id": "gJ7Lp3VeNg8JtX--m44IsTXPcS4=", "properties": {"ref": "45620723763", "@spider": "windsor", "addr:full": "18813 E. 39th St", "addr:city": "Independence", "addr:state": "MO", "addr:postcode": "64057", "name": "Independence Center", "phone": "(816) 278-5200", "brand": "Windsor"}, "geometry": {"type": "Point", "coordinates": [-94.358, 39.0459]}},
{"type": "Feature", "id": "2Eyqxu6NF8ADPQAKCSfgKON182Y=", "properties": {"ref": "45622591539", "@spider": "windsor", "addr:full": "11297 W. 95th St", "addr:city": "Overland Park", "addr:state": "KS", "addr:postcode": "66214", "name": "Oak Park Mall", "phone": "(913) 904-0700", "brand": "Windsor"}, "geometry": {"type": "Point", "coordinates": [-94.720726, 38.953853]}},
{"type": "Feature", "id": "FP-F5MOsACufQ8dgnwqKNk3PZ1s=", "properties": {"ref": "45619839027", "@spider": "windsor", "addr:full": "134 St. Clair Square", "addr:city": "Fairview Heights", "addr:state": "IL", "addr:postcode": "62208", "name": "Fairview Heights St. Clair Square", "phone": "(618) 688-0130", "brand": "Windsor"}, "geometry": {"type": "Point", "coordinates": [-89.9802, 38.5961]}},
{"type": "Feature", "id": "0XvEylYs9E9FiTqf_dWi7LQXeZ4=", "properties": {"ref": "45623214131", "@spider": "windsor", "addr:full": "7200 Harrison Ave", "addr:city": "Rockford", "addr:state": "IL", "addr:postcode": "61112", "name": "Rockford Cherryvale Mall", "phone": "(815) 516-1600", "brand": "Windsor"}, "geometry": {"type": "Point", "coordinates": [-88.9756, 42.246]}},
{"type": "Feature", "id": "E-F2T1DSMsM0PV07LhBrvc12lW8=", "properties": {"ref": "45622526003", "@spider": "windsor", "addr:full": "288 Orland Square Dr", "addr:city": "Orland Park", "addr:state": "IL", "addr:postcode": "60462", "name": "Orland Square Mall", "phone": "(708) 675-4200", "brand": "Windsor"}, "geometry": {"type": "Point", "coordinates": [-87.848259, 41.619801]}},
{"type": "Feature", "id": "6Z_dS4Gl0uaKaQ-A3nn-SngJCSw=", "properties": {"ref": "45624262707", "@spider": "windsor", "addr:full": "3811 S. Cooper St", "addr:city": "Arlington", "addr:state": "TX", "addr:postcode": "76015", "name": "The Parks At Arlington", "phone": "(817) 768-1835", "brand": "Windsor"}, "geometry": {"type": "Point", "coordinates": [-97.12959, 32.679345]}},
{"type": "Feature", "id": "7XHrgZP5MxN-qcy1w756G6Gol_A=", "properties": {"ref": "45619413043", "@spider": "windsor", "addr:full": "1700 W. International Speedway Blvd", "addr:city": "Daytona Beach", "addr:state": "FL", "addr:postcode": "32114", "name": "Daytona Beach Volusia Mall", "phone": "(386) 255-4607", "brand": "Windsor"}, "geometry": {"type": "Point", "coordinates": [-81.0636, 29.1968]}},
{"type": "Feature", "id": "hbNsqUeLYqsiQuXueSINXbXznEg=", "properties": {"ref": "45622198323", "@spider": "windsor", "addr:full": "3030 Plaza Bonita Rd", "addr:city": "National City", "addr:state": "CA", "addr:postcode": "91950", "name": "Westfield Plaza Bonita", "phone": "(619) 472-9268", "brand": "Windsor"}, "geometry": {"type": "Point", "coordinates": [-117.0658, 32.6565]}},
{"type": "Feature", "id": "tCo1TEc_P3Gp9uaGGJ8NAbNTQUg=", "properties": {"ref": "45623509043", "@spider": "windsor", "addr:full": "2800 N. Main St", "addr:city": "Santa Ana", "addr:state": "CA", "addr:postcode": "92705", "name": "Santa Ana Mainplace Mall", "phone": "(714) 558-7912", "brand": "Windsor"}, "geometry": {"type": "Point", "coordinates": [-117.869143, 33.776189]}},
{"type": "Feature", "id": "C6vthnDGLZz-tlRgHWCsAcLf-cc=", "properties": {"ref": "45624950835", "@spider": "windsor", "addr:full": "316 Brandon Towne Center", "addr:city": "Brandon", "addr:state": "FL", "addr:postcode": "33511", "name": "Westfield Brandon", "phone": "(813) 654-7629", "brand": "Windsor"}, "geometry": {"type": "Point", "coordinates": [-82.326482, 27.934065]}},
{"type": "Feature", "id": "xUmpMRAZU6t_4HsUDGjUK5zskng=", "properties": {"ref": "45623705651", "@spider": "windsor", "addr:full": "555 Shops At Mission Viejo", "addr:city": "Mission Viejo", "addr:state": "CA", "addr:postcode": "92691", "name": "The Shops At Mission Viejo", "phone": "(949) 381-1001", "brand": "Windsor"}, "geometry": {"type": "Point", "coordinates": [-117.6684, 33.5588]}},
{"type": "Feature", "id": "qHE0M2mM1ToyLEiySI2V-rz1K00=", "properties": {"ref": "45619314739", "@spider": "windsor", "addr:full": "2785 Cabot Dr", "addr:city": "Corona", "addr:state": "CA", "addr:postcode": "92883", "name": "Corona The Shops At Dos Lagos", "phone": "(951) 277-0250", "brand": "Windsor"}, "geometry": {"type": "Point", "coordinates": [-117.5082, 33.813]}},
{"type": "Feature", "id": "LcRq_a27sUaQCEBk4fi0TAsNmdM=", "properties": {"ref": "45620166707", "@spider": "windsor", "addr:full": "7700 W. Arrowhead Towne Center", "addr:city": "Glendale", "addr:state": "AZ", "addr:postcode": "85308", "name": "Glendale Arrowhead Towne Center", "phone": "(623) 878-4202", "brand": "Windsor"}, "geometry": {"type": "Point", "coordinates": [-112.2254, 33.6421]}},
{"type": "Feature", "id": "jYoW4yiYekpktSyRu0B-hSFr4tA=", "properties": {"ref": "45622493235", "@spider": "windsor", "addr:full": "#1 MILLS CIRCLE", "addr:city": "Ontario", "addr:state": "CA", "addr:postcode": "91764-5200", "name": "Ontario Mills", "phone": "(909) 484-0551", "brand": "Windsor"}, "geometry": {"type": "Point", "coordinates": [-117.551596, 34.073011]}},
{"type": "Feature", "id": "5WU7HCD8EsNXp9d0-O40dPsEg_4=", "properties": {"ref": "45624918067", "@spider": "windsor", "addr:full": "1000 Palisades Center Dr", "addr:city": "West Nyack", "addr:state": "NY", "addr:postcode": "10994", "name": "West Nyack Palisades Center", "phone": "(845)-512-5007", "brand": "Windsor"}, "geometry": {"type": "Point", "coordinates": [-73.9568, 41.098]}},
{"type": "Feature", "id": "p-Au9SlU4UAaRNeE5E24DQj_w4U=", "properties": {"ref": "45624131635", "@spider": "windsor", "addr:full": "5000 S Arizona Mills Circle", "addr:city": "Tempe", "addr:state": "AZ", "addr:postcode": "85282", "name": "Tempe Arizona Mills", "phone": "(480) 755-4114", "brand": "Windsor"}, "geometry": {"type": "Point", "coordinates": [-111.9645, 33.3831]}},
{"type": "Feature", "id": "1Ls7e0kHEO4Qh2Z5FEXEK-Ggzu4=", "properties": {"ref": "45620265011", "@spider": "windsor", "addr:full": "3000 Grapevine Mills Parkway", "addr:city": "Grapevine", "addr:state": "TX", "addr:postcode": "76051", "name": "Grapevine Mills", "phone": "(972) 338-3616", "brand": "Windsor"}, "geometry": {"type": "Point", "coordinates": [-97.042408, 32.966167]}},
{"type": "Feature", "id": "jt82RQTFTemIQjMbPvD5OblY-oA=", "properties": {"ref": "45619118131", "@spider": "windsor", "addr:full": "1640 Camino Del Rio North", "addr:city": "San Diego", "addr:state": "CA", "addr:postcode": "92108", "name": "Mission Valley", "phone": "(858) 256-5231", "brand": "Windsor"}, "geometry": {"type": "Point", "coordinates": [-117.1506, 32.7669]}},
{"type": "Feature", "id": "nzp9917KyYtRPNBfWwzvT_RLxgs=", "properties": {"ref": "45619052595", "@spider": "windsor", "addr:full": "2000 Willowbrook Mall", "addr:city": "Houston", "addr:state": "TX", "addr:postcode": "77070", "name": "Houston Willowbrook Mall", "phone": "(281) 671-9630", "brand": "Windsor"}, "geometry": {"type": "Point", "coordinates": [-95.54637, 29.95908]}},
{"type": "Feature", "id": "B30at3jrLH9LDQBkDW5aGKkt16A=", "properties": {"ref": "45623377971", "@spider": "windsor", "addr:full": "7400 San Pedro Ave", "addr:city": "San Antonio", "addr:state": "TX", "addr:postcode": "78216", "name": "San Antonio North Star Mall", "phone": "(210) 489-1234", "brand": "Windsor"}, "geometry": {"type": "Point", "coordinates": [-98.49726, 29.517342]}},
{"type": "Feature", "id": "8QYUKe7QPNl7FxAOP6kIn1zaONU=", "properties": {"ref": "45619904563", "@spider": "windsor", "addr:full": "4201 Coldwater Rd", "addr:city": "Fort Wayne", "addr:state": "IN", "addr:postcode": "46805", "name": "Fort Wayne Glenbrook Square", "phone": "(260) 482-2684", "brand": "Windsor"}, "geometry": {"type": "Point", "coordinates": [-85.1385, 41.1162]}},
{"type": "Feature", "id": "LroNC0vd6Soz5g_FnPwxnnihOfE=", "properties": {"ref": "45619150899", "@spider": "windsor", "addr:full": "1400 Willowbrook Mall", "addr:city": "Wayne", "addr:state": "NJ", "addr:postcode": "07470", "name": "Wayne Willowbrook Mall", "phone": "(973) 987-8924", "brand": "Windsor"}, "geometry": {"type": "Point", "coordinates": [-74.2605, 40.89]}},
{"type": "Feature", "id": "MNtIuwbPGuZt7N0OfbnjI7Lwp9k=", "properties": {"ref": "45621313587", "@spider": "windsor", "addr:full": "203 Yorktown Center", "addr:city": "Lombard", "addr:state": "IL", "addr:postcode": "60148", "name": "Lombard Yorktown Center", "phone": "(630) 495-1394", "brand": "Windsor"}, "geometry": {"type": "Point", "coordinates": [-88.0083, 41.8429]}},
{"type": "Feature", "id": "dljT0NOPnsb9y82eZY8nOb3636s=", "properties": {"ref": "45620133939", "@spider": "windsor", "addr:full": "13350 Dallas Parkway", "addr:city": "Dallas", "addr:state": "TX", "addr:postcode": "75240", "name": "Galleria Dallas", "phone": "(972) 385-3405", "brand": "Windsor"}, "geometry": {"type": "Point", "coordinates": [-96.820039, 32.930235]}},
{"type": "Feature", "id": "bzeVOzdP2q73q-RTsTG3RN_DZsw=", "properties": {"ref": "45624819763", "@spider": "windsor", "addr:full": "400 Bald Hill Rd", "addr:city": "Warwick", "addr:state": "RI", "addr:postcode": "02886", "name": "Warwick Mall", "phone": "(401) 250-3967", "brand": "Windsor"}, "geometry": {"type": "Point", "coordinates": [-71.4766, 41.7245]}},
{"type": "Feature", "id": "zuvos3szkZfkwOTq5gJgK7YOrcA=", "properties": {"ref": "45617905715", "@spider": "windsor", "addr:full": "1185 Annapolis Mall Rd", "addr:city": "Annapolis", "addr:state": "MD", "addr:postcode": "21401", "name": "Annapolis Mall", "phone": "(410) 501-5622", "brand": "Windsor"}, "geometry": {"type": "Point", "coordinates": [-76.547537, 38.989837]}},
{"type": "Feature", "id": "ZaNj4FtuzQzckkGTq0-kTSTtUDY=", "properties": {"ref": "45621018675", "@spider": "windsor", "addr:full": "14500 W. Colfax Ave", "addr:city": "Lakewood", "addr:state": "CO", "addr:postcode": "80401", "name": "Lakewood Colorado Mills", "phone": "(720) 248-9614", "brand": "Windsor"}, "geometry": {"type": "Point", "coordinates": [-105.158513, 39.731591]}},
{"type": "Feature", "id": "C3Q1r9Hr2x04pr7nADpQTOQXuF0=", "properties": {"ref": "45624328243", "@spider": "windsor", "addr:full": "2134 Montebello Town Center", "addr:city": "Montebello", "addr:state": "CA", "addr:postcode": "90640", "name": "The Shops at Montebello", "phone": "(323) 248-0634", "brand": "Windsor"}, "geometry": {"type": "Point", "coordinates": [-118.0874, 34.0359]}},
{"type": "Feature", "id": "1IH3RSlIWaxDXiC4Iy77T5lyjSg=", "properties": {"ref": "45622067251", "@spider": "windsor", "addr:full": "2000 Coastal Grand Circle", "addr:city": "Myrtle Beach", "addr:state": "SC", "addr:postcode": "29577", "name": "Coastal Grand Mall", "phone": "(843) 492-7015", "brand": "Windsor"}, "geometry": {"type": "Point", "coordinates": [-78.9235, 33.7036]}},
{"type": "Feature", "id": "4e2_SYiCMzyadiBRR0zpE38D-c8=", "properties": {"ref": "45623803955", "@spider": "windsor", "addr:full": "1155 Saint Louis Galleria", "addr:city": "St Louis", "addr:state": "MO", "addr:postcode": "63117", "name": "St. Louis Saint Louis Galleria", "phone": "(314) 274-6219", "brand": "Windsor"}, "geometry": {"type": "Point", "coordinates": [-90.3477, 38.6351]}},
{"type": "Feature", "id": "_Z9HDyBEbRWEsgqjC9kRZbPWcRI=", "properties": {"ref": "45618855987", "@spider": "windsor", "addr:full": "2100 Hamilton Place Blvd", "addr:city": "Chattanooga", "addr:state": "TN", "addr:postcode": "37421", "name": "Chattanooga Hamilton Place", "phone": "(423)933-2277", "brand": "Windsor"}, "geometry": {"type": "Point", "coordinates": [-85.158711, 35.034535]}},
{"type": "Feature", "id": "hcS80Xc6UIZELyTcGiTQsfAnzHg=", "properties": {"ref": "45619970099", "@spider": "windsor", "addr:full": "1800 Galleria Blvd", "addr:city": "Franklin", "addr:state": "TN", "addr:postcode": "37067", "name": "Franklin Coolsprings Galleria", "phone": "(615) 656-8520", "brand": "Windsor"}, "geometry": {"type": "Point", "coordinates": [-86.814335, 35.956732]}},
{"type": "Feature", "id": "SsfI8p2pO5bcY7dFgAL3tMlyX6I=", "properties": {"ref": "45621411891", "@spider": "windsor", "addr:full": "4801 Outer Loop", "addr:city": "Louisville", "addr:state": "KY", "addr:postcode": "40219", "name": "Louisville Jefferson Mall", "phone": "(502) 792-7370", "brand": "Windsor"}, "geometry": {"type": "Point", "coordinates": [-85.6705, 38.1414]}},
{"type": "Feature", "id": "t1A2KQhm51spo-q-jC1AkqoKI58=", "properties": {"ref": "45622034483", "@spider": "windsor", "addr:full": "22500 Town Circle", "addr:city": "Moreno Valley", "addr:state": "CA", "addr:postcode": "92553", "name": "Moreno Valley Mall", "phone": "(951) 842-2659", "brand": "Windsor"}, "geometry": {"type": "Point", "coordinates": [-117.2715, 33.9407]}},
{"type": "Feature", "id": "UrGEThd1mBESnoSZyozONCuFk-U=", "properties": {"ref": "45618593843", "@spider": "windsor", "addr:full": "95 N. Moorland Rd", "addr:city": "Brookfield", "addr:state": "WI", "addr:postcode": "53005", "name": "Brookfield Square", "phone": "(262) 784-7918", "brand": "Windsor"}, "geometry": {"type": "Point", "coordinates": [-88.109601, 43.032355]}},
{"type": "Feature", "id": "q7750ZOCoW5EGVV4yg6F5iPllkE=", "properties": {"ref": "45625245747", "@spider": "windsor", "addr:full": "271 Lehigh Valley Mall", "addr:city": "Whitehall", "addr:state": "PA", "addr:postcode": "18052", "name": "Whitehall Lehigh Valley Mall", "phone": "(610) 973-7484", "brand": "Windsor"}, "geometry": {"type": "Point", "coordinates": [-75.4843, 40.6296]}},
{"type": "Feature", "id": "V_oowQlINl29dJ84mrYQC_qDXIU=", "properties": {"ref": "45619871795", "@spider": "windsor", "addr:full": "3341 S Linden Rd", "addr:city": "Flint", "addr:state": "MI", "addr:postcode": "48507", "name": "Flint Genesee Valley Center", "phone": "(810) 644-5058", "brand": "Windsor"}, "geometry": {"type": "Point", "coordinates": [-83.768053, 42.980866]}},
{"type": "Feature", "id": "BuW8fn2mYxvdhcigivTTlkVCcKc=", "properties": {"ref": "45623443507", "@spider": "windsor", "addr:full": "2200 Eastridge Loop", "addr:city": "San Jose", "addr:state": "CA", "addr:postcode": "95122", "name": "San Jose Eastridge Mall", "phone": "(669) 223-0359", "brand": "Windsor"}, "geometry": {"type": "Point", "coordinates": [-121.8172, 37.3269]}},
{"type": "Feature", "id": "l7AMnSBocujVQGSecf-Y2gaujCY=", "properties": {"ref": "45618888755", "@spider": "windsor", "addr:full": "444 Chicago Ridge Mall", "addr:city": "Chicago Ridge", "addr:state": "IL", "addr:postcode": "60415", "name": "Chicago Ridge Mall", "phone": "(708) 424-8531", "brand": "Windsor"}, "geometry": {"type": "Point", "coordinates": [-87.7825, 41.7156]}},
{"type": "Feature", "id": "riG63EvMvGT9o0YSoyG1SA2ji44=", "properties": {"ref": "45620559923", "@spider": "windsor", "addr:full": "358 N. Broadway Commons", "addr:city": "Hicksville", "addr:state": "NY", "addr:postcode": "11801", "name": "Hicksville Broadway Commons", "phone": "(516) 271-2777", "brand": "Windsor"}, "geometry": {"type": "Point", "coordinates": [-73.529951, 40.77273]}},
{"type": "Feature", "id": "x2v7PGR9UcxQFM8ApF1tj9S9W18=", "properties": {"ref": "45620396083", "@spider": "windsor", "addr:full": "6170 Grand Ave", "addr:city": "Gurnee", "addr:state": "IL", "addr:postcode": "60031", "name": "Gurnee Mills", "phone": "(847) 855-7439", "brand": "Windsor"}, "geometry": {"type": "Point", "coordinates": [-87.955383, 42.386822]}},
{"type": "Feature", "id": "vpbnFC3wWe7R6nuout58vZ5qKPU=", "properties": {"ref": "45623869491", "@spider": "windsor", "addr:full": "14600 Lakeside Circle", "addr:city": "Sterling Heights", "addr:state": "MI", "addr:postcode": "48313", "name": "Sterling Heights Lakeside Mall", "phone": "(586) 532-1599", "brand": "Windsor"}, "geometry": {"type": "Point", "coordinates": [-82.9858, 42.623]}},
{"type": "Feature", "id": "QSqX8FDZrvF1CYAcbnGHQ8hDIlk=", "properties": {"ref": "45619085363", "@spider": "windsor", "addr:full": "3000 184th St SW", "addr:city": "Lynnwood", "addr:state": "WA", "addr:postcode": "98037", "name": "Lynnwood Alderwood", "phone": "(425) 616-3767", "brand": "Windsor"}, "geometry": {"type": "Point", "coordinates": [-122.2749, 47.8288]}},
{"type": "Feature", "id": "fdcFgXiP5KcRZIxhxSllh71XdB0=", "properties": {"ref": "45620789299", "@spider": "windsor", "addr:full": "719 Spectrum Center Dr", "addr:city": "Irvine", "addr:state": "CA", "addr:postcode": "92618", "name": "Irvine Spectrum Center", "phone": "(949) 788-0804", "brand": "Windsor"}, "geometry": {"type": "Point", "coordinates": [-117.746307, 33.650528]}},
{"type": "Feature", "id": "F6m6CtuqFIt0_MBNjRTKMAM2Yw0=", "properties": {"ref": "45624557619", "@spider": "windsor", "addr:full": "462 West 14 Mile Rd", "addr:city": "Troy", "addr:state": "MI", "addr:postcode": "48083", "name": "Troy Oakland Mall", "phone": "(248) 270-2930", "brand": "Windsor"}, "geometry": {"type": "Point", "coordinates": [-83.1109, 42.5371]}},
{"type": "Feature", "id": "117hNMup8uMqOF0ol_gIgi1nm9w=", "properties": {"ref": "45618167859", "@spider": "windsor", "addr:full": "3450 Wrightsboro Rd", "addr:city": "Augusta", "addr:state": "GA", "addr:postcode": "30909", "name": "Augusta Mall", "phone": "(706) 619-1196", "brand": "Windsor"}, "geometry": {"type": "Point", "coordinates": [-82.078614, 33.461777]}},
{"type": "Feature", "id": "4fRgVvAJnfFfE0jXtBK4S75GlTI=", "properties": {"ref": "45624459315", "@spider": "windsor", "addr:full": "5001 Monroe St", "addr:city": "Toledo", "addr:state": "OH", "addr:postcode": "43623", "name": "Toledo Franklin Park Mall", "phone": "(419) 407-8400", "brand": "Windsor"}, "geometry": {"type": "Point", "coordinates": [-83.6406, 41.6948]}},
{"type": "Feature", "id": "nZkbDt1IcTeu6B5VKU4Hu-jEA5M=", "properties": {"ref": "45623935027", "@spider": "windsor", "addr:full": "16535 Southwest Fwy", "addr:city": "Sugar Land", "addr:state": "TX", "addr:postcode": "77479", "name": "Sugar Land First Colony Mall", "phone": "(832) 838-4516", "brand": "Windsor"}, "geometry": {"type": "Point", "coordinates": [-95.623366, 29.592646]}},
{"type": "Feature", "id": "2Bk_tyHeA02wu00SS3-HdGEpk84=", "properties": {"ref": "45625114675", "@spider": "windsor", "addr:full": "5065 Main St", "addr:city": "Trumbull", "addr:state": "CT", "addr:postcode": "06611", "name": "Westfield Trumbull", "phone": "(203) 638-1090", "brand": "Windsor"}, "geometry": {"type": "Point", "coordinates": [-73.2269, 41.2294]}},
{"type": "Feature", "id": "Tyir4UYXhz3SUuvDJnlxSmkRFVk=", "properties": {"ref": "45623640115", "@spider": "windsor", "addr:full": "7014 E. Camelback Rd", "addr:city": "Scottsdale", "addr:state": "AZ", "addr:postcode": "85251", "name": "Scottsdale Fashion Square", "phone": "(480) 420-3708", "brand": "Windsor"}, "geometry": {"type": "Point", "coordinates": [-111.9294, 33.5028]}},
{"type": "Feature", "id": "JPykMkdi6DMs47fXAa8uVEbctDA=", "properties": {"ref": "45620101171", "@spider": "windsor", "addr:full": "6419 Newberry Rd", "addr:city": "Gainesville", "addr:state": "FL", "addr:postcode": "32605", "name": "Gainesville The Oaks Mall", "phone": "(352)251-3706", "brand": "Windsor"}, "geometry": {"type": "Point", "coordinates": [-82.412444, 29.657123]}},
{"type": "Feature", "id": "xJ-DKQEZVuB4sWFaZ7FMzHKx6bE=", "properties": {"ref": "45619347507", "@spider": "windsor", "addr:full": "5488 S. Padre Island Dr", "addr:city": "Corpus Christi", "addr:state": "TX", "addr:postcode": "78411", "name": "Corpus Christi La Palmera Mall", "phone": "(361) 353-0039", "brand": "Windsor"}, "geometry": {"type": "Point", "coordinates": [-97.3726, 27.7111]}},
{"type": "Feature", "id": "rKI3f5V89fxC5MuM5ZczJlzMOJo=", "properties": {"ref": "45618790451", "@spider": "windsor", "addr:full": "3499 W. Chandler Blvd", "addr:city": "Chandler", "addr:state": "AZ", "addr:postcode": "85226", "name": "Chandler Fashion Center", "phone": "(480) 786-9348", "brand": "Windsor"}, "geometry": {"type": "Point", "coordinates": [-111.9028, 33.3055]}},
{"type": "Feature", "id": "QpG3_uAup4y0wR56dmeYrI4_Nrk=", "properties": {"ref": "45624786995", "@spider": "windsor", "addr:full": "701 Lynnhaven Parkway", "addr:city": "Virginia Beach", "addr:state": "VA", "addr:postcode": "23452", "name": "Virginia Beach Lynnhaven Mall", "phone": "(757) 777-9044", "brand": "Windsor"}, "geometry": {"type": "Point", "coordinates": [-76.0711, 36.8178]}},
{"type": "Feature", "id": "GpCtbtzXvGdQ-9lkRDK75ILAbkI=", "properties": {"ref": "45620985907", "@spider": "windsor", "addr:full": "321 Lakewood Center Mall", "addr:city": "Lakewood", "addr:state": "CA", "addr:postcode": "90712", "name": "Lakewood Center", "phone": "(562) 633-1413", "brand": "Windsor"}, "geometry": {"type": "Point", "coordinates": [-118.1388, 33.8506]}},
{"type": "Feature", "id": "6tcTbbSsQ5xRKN_giUzix6Tsrhk=", "properties": {"ref": "45620658227", "@spider": "windsor", "addr:full": "20131 Highway 59 North", "addr:city": "Humble", "addr:state": "TX", "addr:postcode": "77338", "name": "Deerbrook Mall", "phone": "(346) 318-0055", "brand": "Windsor"}, "geometry": {"type": "Point", "coordinates": [-95.2698, 30.0094]}},
{"type": "Feature", "id": "VfyFvw-y0k4JeGYgFLlJg4MFNB8=", "properties": {"ref": "45620690995", "@spider": "windsor", "addr:full": "1101 Melbourne Rd", "addr:city": "Hurst", "addr:state": "TX", "addr:postcode": "76053", "name": "North East Mall", "phone": "(817) 284-0951", "brand": "Windsor"}, "geometry": {"type": "Point", "coordinates": [-97.200241, 32.830059]}},
{"type": "Feature", "id": "cOIUWg_tPQgGnQ5KMITOJdKsOzQ=", "properties": {"ref": "45617807411", "@spider": "windsor", "addr:full": "451 E. Altamonte Dr", "addr:city": "Altamonte Springs", "addr:state": "FL", "addr:postcode": "32701", "name": "Altamonte Springs Altamonte Mall", "phone": "(407) 794-1452", "brand": "Windsor"}, "geometry": {"type": "Point", "coordinates": [-81.3773, 28.6656]}},
{"type": "Feature", "id": "e3io28WVt4Zi4aYGWui6NYVeWVU=", "properties": {"ref": "45621870643", "@spider": "windsor", "addr:full": "1201 Boston Post Rd", "addr:city": "Milford", "addr:state": "CT", "addr:postcode": "06460", "name": "Connecticut Post Mall", "phone": "(203) 647-1550", "brand": "Windsor"}, "geometry": {"type": "Point", "coordinates": [-73.0362, 41.2366]}},
{"type": "Feature", "id": "nNk-x_7lSRymTz0O1U_zBtVr8M0=", "properties": {"ref": "45625016371", "@spider": "windsor", "addr:full": "470 Lewis Ave", "addr:city": "Meriden", "addr:state": "CT", "addr:postcode": "06451", "name": "Westfield Meriden", "phone": "(203) 580-3090", "brand": "Windsor"}, "geometry": {"type": "Point", "coordinates": [-72.8079, 41.5509]}},
{"type": "Feature", "id": "A3jheB1nPhfARngqOHGqsMTJcvw=", "properties": {"ref": "45620822067", "@spider": "windsor", "addr:full": "10300 Southside Blvd", "addr:city": "Jacksonville", "addr:state": "FL", "addr:postcode": "32256", "name": "The Avenues", "phone": "(904) 328-1040", "brand": "Windsor"}, "geometry": {"type": "Point", "coordinates": [-81.5542, 30.1844]}},
{"type": "Feature", "id": "a_23y8Nnav6ub1t44x_Lsrzw0-E=", "properties": {"ref": "45618364467", "@spider": "windsor", "addr:full": "7101 Democracy Blvd", "addr:city": "Bethesda", "addr:state": "MD", "addr:postcode": "20817", "name": "Bethesda Westfield Montgomery", "phone": "(240) 200-0221", "brand": "Windsor"}, "geometry": {"type": "Point", "coordinates": [-77.1434, 39.0216]}},
{"type": "Feature", "id": "pGdkXBuO-X4ufTXjuVn3HSud03g=", "properties": {"ref": "45619937331", "@spider": "windsor", "addr:full": "4800 South Hulen St", "addr:city": "Fort Worth", "addr:state": "TX", "addr:postcode": "76132", "name": "Fort Worth Hulen Mall", "phone": "(817) 763-5429", "brand": "Windsor"}, "geometry": {"type": "Point", "coordinates": [-97.398209, 32.678398]}},
{"type": "Feature", "id": "CHSE4O0fWkRPt6sbF_nI_3lqmIY=", "properties": {"ref": "45623246899", "@spider": "windsor", "addr:full": "1689 Arden Way", "addr:city": "Sacramento", "addr:state": "CA", "addr:postcode": "95815", "name": "Sacramento Arden Fair", "phone": "(916) 553-2252", "brand": "Windsor"}, "geometry": {"type": "Point", "coordinates": [-121.4279, 38.6015]}},
{"type": "Feature", "id": "NYlSHasUP5Z39cvsQVQlF6anbok=", "properties": {"ref": "45619642419", "@spider": "windsor", "addr:full": "651 Kapkowski Rd", "addr:city": "Elizabeth", "addr:state": "NJ", "addr:postcode": "07201", "name": "Elizabeth The Mills At Jersey Gardens", "phone": "(908) 213-5510", "brand": "Windsor"}, "geometry": {"type": "Point", "coordinates": [-74.1716, 40.66]}},
{"type": "Feature", "id": "pRrqgHvoXBmdVT9qMU8LQrlsfCk=", "properties": {"ref": "45623672883", "@spider": "windsor", "addr:full": "2800 Southcenter Mall", "addr:city": "Seattle", "addr:state": "WA", "addr:postcode": "98188", "name": "Seattle Westfield Southcenter", "phone": "(425) 655-7524", "brand": "Windsor"}, "geometry": {"type": "Point", "coordinates": [-122.2577, 47.4591]}},
{"type": "Feature", "id": "f0myoEvvAPqQmQkEeZCuEXdosyk=", "properties": {"ref": "45620920371", "@spider": "windsor", "addr:full": "160 N. Gulph Rd", "addr:city": "King Of Prussia", "addr:state": "PA", "addr:postcode": "19406", "name": "King Of Prussia", "phone": "(484) 254-4451", "brand": "Windsor"}, "geometry": {"type": "Point", "coordinates": [-75.3859, 40.0891]}},
{"type": "Feature", "id": "qSGFlCCGFep1LHOqK3J6bU10zQM=", "properties": {"ref": "45624229939", "@spider": "windsor", "addr:full": "20 City Blvd", "addr:city": "Orange", "addr:state": "CA", "addr:postcode": "92868", "name": "The Outlets At Orange", "phone": "(714) 450-6783", "brand": "Windsor"}, "geometry": {"type": "Point", "coordinates": [-117.8933, 33.7831]}},
{"type": "Feature", "id": "98kTttqIg08qUdf8oSMglCBFFJY=", "properties": {"ref": "45625409587", "@spider": "windsor", "addr:full": "2700 Potomac Mills Circle", "addr:city": "Woodbridge", "addr:state": "VA", "addr:postcode": "22192", "name": "Woodbridge Potomac Mills", "phone": "(571) 402-8478", "brand": "Windsor"}, "geometry": {"type": "Point", "coordinates": [-77.2995, 38.6433]}},
{"type": "Feature", "id": "EgIsbt5QT0Fjg8t7Q8nfMkgu4JU=", "properties": {"ref": "45618036787", "@spider": "windsor", "addr:full": "1100 S. Hayes St", "addr:city": "Arlington", "addr:state": "VA", "addr:postcode": "22202", "name": "Arlington Fashion Centre At Pentagon City", "phone": "(571) 483-8171", "brand": "Windsor"}, "geometry": {"type": "Point", "coordinates": [-77.0605, 38.8633]}},
{"type": "Feature", "id": "1mjyXLQGWAPvzdcCcX2S3vBskzU=", "properties": {"ref": "45620428851", "@spider": "windsor", "addr:full": "7000 Arundel Mills Circle", "addr:city": "Hanover", "addr:state": "MD", "addr:postcode": "21076", "name": "Hanover Arundel Mills", "phone": "(443) 599-8858", "brand": "Windsor"}, "geometry": {"type": "Point", "coordinates": [-76.7247, 39.1576]}},
{"type": "Feature", "id": "FSM1ZQNV_9ecjzP8tdVwzaD-jIs=", "properties": {"ref": "45620854835", "@spider": "windsor", "addr:full": "5000 Katy Mills Circle", "addr:city": "Katy", "addr:state": "TX", "addr:postcode": "77494", "name": "Katy Mills", "phone": "(281) 519-0383", "brand": "Windsor"}, "geometry": {"type": "Point", "coordinates": [-95.8069, 29.7791]}},
{"type": "Feature", "id": "2rSQ7pyOtzT1Vd1kywnDD5Kmlcw=", "properties": {"ref": "45618954291", "@spider": "windsor", "addr:full": "100 Columbiana Circle", "addr:city": "Columbia", "addr:state": "SC", "addr:postcode": "29212", "name": "Columbia Columbiana Centre", "phone": "(803) 756-3240", "brand": "Windsor"}, "geometry": {"type": "Point", "coordinates": [-81.1556, 34.0785]}},
{"type": "Feature", "id": "drmevGhNeiZwlrYOKMNrcPMElSo=", "properties": {"ref": "45623771187", "@spider": "windsor", "addr:full": "1250 Baltimore Pike", "addr:city": "Springfield", "addr:state": "PA", "addr:postcode": "19064", "name": "Springfield Mall", "phone": "(484) 326-2260", "brand": "Windsor"}, "geometry": {"type": "Point", "coordinates": [-75.3518, 39.9152]}},
{"type": "Feature", "id": "RlI6uwrc-03zL2ujnWuZxwmQXR4=", "properties": {"ref": "45619281971", "@spider": "windsor", "addr:full": "9469 W. Atlantic Blvd", "addr:city": "Coral Springs", "addr:state": "FL", "addr:postcode": "33071", "name": "Coral Springs Coral Square", "phone": "(754)225-2411", "brand": "Windsor"}, "geometry": {"type": "Point", "coordinates": [-80.2494, 26.2419]}},
{"type": "Feature", "id": "9w-t6h8a2vHoKQLWpdOY5mfjoCc=", "properties": {"ref": "45618135091", "@spider": "windsor", "addr:full": "4000 Baldwin Rd", "addr:city": "Auburn Hills", "addr:state": "MI", "addr:postcode": "48326", "name": "Auburn Hills Great Lakes Crossing Outlets", "phone": "(248) 745-9677", "brand": "Windsor"}, "geometry": {"type": "Point", "coordinates": [-83.29736, 42.70222]}},
{"type": "Feature", "id": "fZeTyY_vXNPvlffnKFFpNa01nwY=", "properties": {"ref": "45618987059", "@spider": "windsor", "addr:full": "1500 Polaris Parkway", "addr:city": "Columbus", "addr:state": "OH", "addr:postcode": "43240", "name": "Columbus Polaris Fashion Place", "phone": "(614) 392-7301", "brand": "Windsor"}, "geometry": {"type": "Point", "coordinates": [-82.9824, 40.1444]}},
{"type": "Feature", "id": "gkXXQY6EkkrIhCvczFr0NFPQMAY=", "properties": {"ref": "45622100019", "@spider": "windsor", "addr:full": "310 Daniel Webster Hwy", "addr:city": "Nashua", "addr:state": "NH", "addr:postcode": "03060", "name": "Pheasant Lane Mall", "phone": "(978) 419-2019", "brand": "Windsor"}, "geometry": {"type": "Point", "coordinates": [-71.4373, 42.7018]}},
{"type": "Feature", "id": "pYHz_77cW8U2FgeKDCvYfZEMmCg=", "properties": {"ref": "45617872947", "@spider": "windsor", "addr:full": "488 Briarwood Circle", "addr:city": "Ann Arbor", "addr:state": "MI", "addr:postcode": "48108", "name": "Ann Arbor Briarwood Mall", "phone": "(734) 385-4416", "brand": "Windsor"}, "geometry": {"type": "Point", "coordinates": [-83.74672, 42.24033]}},
{"type": "Feature", "id": "XUs1FkXkX2eey2twqrd9adUEV4Y=", "properties": {"ref": "45619773491", "@spider": "windsor", "addr:full": "11750 Fair Oaks Mall", "addr:city": "Fairfax", "addr:state": "VA", "addr:postcode": "22033", "name": "Fairfax Fair Oaks Mall", "phone": "(703) 570-6203", "brand": "Windsor"}, "geometry": {"type": "Point", "coordinates": [-77.359093, 38.862831]}},
{"type": "Feature", "id": "Q6YPojyOj8juI7hcsuTy-JTbam4=", "properties": {"ref": "50475270195", "@spider": "windsor", "addr:full": "1 Stoneridge Mall Rd", "addr:city": "Pleasanton", "addr:state": "CA", "addr:postcode": "94566", "name": "Pleasanton Stoneridge Shopping Center", "phone": "(925) 396-2590", "brand": "Windsor"}, "geometry": {"type": "Point", "coordinates": [-121.928, 37.6958]}},
{"type": "Feature", "id": "IPdqEfOZlVOfOa33TZkjf4vY4OU=", "properties": {"ref": "45622984755", "@spider": "windsor", "addr:full": "4325 Glenwood Ave", "addr:city": "Raleigh", "addr:state": "NC", "addr:postcode": "27612", "name": "Raleigh Crabtree Valley Mall", "phone": "(919) 364-2250", "brand": "Windsor"}, "geometry": {"type": "Point", "coordinates": [-78.681236, 35.841209]}},
{"type": "Feature", "id": "EXgcbA1RI4mTw0B7APHBVjfFwnw=", "properties": {"ref": "45624983603", "@spider": "windsor", "addr:full": "1151 Galleria Blvd", "addr:city": "Roseville", "addr:state": "CA", "addr:postcode": "95678", "name": "Westfield Galleria At Roseville", "phone": "(916) 580-2798", "brand": "Windsor"}, "geometry": {"type": "Point", "coordinates": [-121.2693, 38.7734]}},
{"type": "Feature", "id": "HBzVK6THFklmeoRe5o7-QSw5mAk=", "properties": {"ref": "45622689843", "@spider": "windsor", "addr:full": "210 Andover St", "addr:city": "Peabody", "addr:state": "MA", "addr:postcode": "01960", "name": "Northshore Mall", "phone": "(978) 326-9050", "brand": "Windsor"}, "geometry": {"type": "Point", "coordinates": [-70.9612, 42.5326]}},
{"type": "Feature", "id": "ca1GsqQLIeibMFqB1iMCnOp3gyQ=", "properties": {"ref": "45623574579", "@spider": "windsor", "addr:full": "7804 Abercorn St", "addr:city": "Savannah", "addr:state": "GA", "addr:postcode": "31406", "name": "Savannah Oglethorpe Mall", "phone": "(912) 217-3775", "brand": "Windsor"}, "geometry": {"type": "Point", "coordinates": [-81.2827, 32.0043]}},
{"type": "Feature", "id": "Crhpgm7-jaFMPs8tND3Rf5mbtuc=", "properties": {"ref": "45623115827", "@spider": "windsor", "addr:full": "1141 Galleria At Tyler", "addr:city": "Riverside", "addr:state": "CA", "addr:postcode": "92503", "name": "Riverside Galleria At Tyler", "phone": "(951) 351-1294", "brand": "Windsor"}, "geometry": {"type": "Point", "coordinates": [-117.457, 33.9096]}},
{"type": "Feature", "id": "uu4s_HcyEuUuQMkJok2VTPxp9w0=", "properties": {"ref": "45619380275", "@spider": "windsor", "addr:full": "7 Backus Ave", "addr:city": "Danbury", "addr:state": "CT", "addr:postcode": "06810", "name": "Danbury Fair", "phone": "(203) 312-7577", "brand": "Windsor"}, "geometry": {"type": "Point", "coordinates": [-73.4817, 41.3801]}},
{"type": "Feature", "id": "LqgdIbHXKdiRJ0yZOvgY3R1tYuE=", "properties": {"ref": "45623050291", "@spider": "windsor", "addr:full": "1815 Hawthorne Blvd", "addr:city": "Redondo Beach", "addr:state": "CA", "addr:postcode": "90278", "name": "PERMANENTLY CLOSED - Redondo Beach South Bay Galleria", "phone": "(310) 542-7576", "brand": "Windsor"}, "geometry": {"type": "Point", "coordinates": [-118.3547, 33.8714]}},
{"type": "Feature", "id": "2-CbH0EIg15Xay2nAroROcErk3s=", "properties": {"ref": "45619707955", "@spider": "windsor", "addr:full": "272 E. Via Rancho Parkway", "addr:city": "Escondido", "addr:state": "CA", "addr:postcode": "92025", "name": "Escondido Westfield North County", "phone": "(760) 746-2793", "brand": "Windsor"}, "geometry": {"type": "Point", "coordinates": [-117.0658, 33.0711]}},
{"type": "Feature", "id": "J5s96xxtXQ62-HrOuyVzZ1rNBpg=", "properties": {"ref": "45618724915", "@spider": "windsor", "addr:full": "2525 El Camino Real", "addr:city": "Carlsbad", "addr:state": "CA", "addr:postcode": "92008", "name": "The Shoppes At Carlsbad", "phone": "(442) 287-0024", "brand": "Windsor"}, "geometry": {"type": "Point", "coordinates": [-117.330343, 33.177979]}},
{"type": "Feature", "id": "f1Z1Z5UiHGYfnk9PYgDO-9g2luE=", "properties": {"ref": "45620527155", "@spider": "windsor", "addr:full": "1300 W. Sunset Rd", "addr:city": "Henderson", "addr:state": "NV", "addr:postcode": "89014", "name": "Henderson Galleria At Sunset", "phone": "(702) 456-1120", "brand": "Windsor"}, "geometry": {"type": "Point", "coordinates": [-115.04252, 36.0672]}},
{"type": "Feature", "id": "8t5taHv975AbhBbCsdjUVucl4Ho=", "properties": {"ref": "45624721459", "@spider": "windsor", "addr:full": "1961 Chain Bridge Rd", "addr:city": "Tysons Corner", "addr:state": "VA", "addr:postcode": "22102", "name": "Tysons Corner Center", "phone": "(703) 278-3610", "brand": "Windsor"}, "geometry": {"type": "Point", "coordinates": [-77.2223, 38.9179]}},
{"type": "Feature", "id": "BcCfk2VEuK3xqQgWyVXriR0BVY0=", "properties": {"ref": "45623345203", "@spider": "windsor", "addr:full": "796 Northridge Mall", "addr:city": "Salinas", "addr:state": "CA", "addr:postcode": "93906", "name": "Salinas Northridge Mall", "phone": "(831) 296-3377", "brand": "Windsor"}, "geometry": {"type": "Point", "coordinates": [-121.6582, 36.7169]}},
{"type": "Feature", "id": "CcMUhcjenYopWJ80sxMRg4iohTw=", "properties": {"ref": "45622951987", "@spider": "windsor", "addr:full": "90-15 Queens Blvd", "addr:city": "Elmhurst", "addr:state": "NY", "addr:postcode": "11373", "name": "Queens Center", "phone": "(347) 437-2471", "brand": "Windsor"}, "geometry": {"type": "Point", "coordinates": [-73.8709, 40.7345]}},
{"type": "Feature", "id": "4fH8561twwWn_pLN7Ky__ZN5who=", "properties": {"ref": "45619740723", "@spider": "windsor", "addr:full": "800 N. Green River Rd", "addr:city": "Evansville", "addr:state": "IN", "addr:postcode": "47715", "name": "Evansville Eastland Mall", "phone": "(812) 228-4640", "brand": "Windsor"}, "geometry": {"type": "Point", "coordinates": [-87.496, 37.9847]}},
{"type": "Feature", "id": "V3pO2EfgCrCPOqZjHEIqjnLLDJY=", "properties": {"ref": "45619806259", "@spider": "windsor", "addr:full": "1350 Travis Blvd", "addr:city": "Fairfield", "addr:state": "CA", "addr:postcode": "94533", "name": "Fairfield Solano Town Center", "phone": "(707) 416-4010", "brand": "Windsor"}, "geometry": {"type": "Point", "coordinates": [-122.0546, 38.2604]}},
{"type": "Feature", "id": "qDfheZdoTiOKr2lrl5JfViQyhew=", "properties": {"ref": "45623410739", "@spider": "windsor", "addr:full": "500 Inland Center Dr", "addr:city": "San Bernardino", "addr:state": "CA", "addr:postcode": "92408", "name": "San Bernardino Inland Center", "phone": "(909) 281-0670", "brand": "Windsor"}, "geometry": {"type": "Point", "coordinates": [-117.2974, 34.0851]}},
{"type": "Feature", "id": "-V3VWZTDxAcS_Qy0aYrNbzJ6f0k=", "properties": {"ref": "45622624307", "@spider": "windsor", "addr:full": "520 Collection Blvd", "addr:city": "Oxnard", "addr:state": "CA", "addr:postcode": "93036", "name": "The Collection At Riverpark", "phone": "(805) 253-1396", "brand": "Windsor"}, "geometry": {"type": "Point", "coordinates": [-119.176428, 34.240053]}},
{"type": "Feature", "id": "IpjjBPGDQO-8szslDRl2S1ojb3Q=", "properties": {"ref": "45619445811", "@spider": "windsor", "addr:full": "1750 Deptford Center Rd", "addr:city": "Deptford", "addr:state": "NJ", "addr:postcode": "08096", "name": "Deptford Mall", "phone": "(856) 827-3003", "brand": "Windsor"}, "geometry": {"type": "Point", "coordinates": [-75.098, 39.8315]}},
{"type": "Feature", "id": "LEdqPePgHFRhdLylW3-V3MVQMUk=", "properties": {"ref": "45618528307", "@spider": "windsor", "addr:full": "1065 Brea Mall", "addr:city": "Brea", "addr:state": "CA", "addr:postcode": "92821", "name": "Brea Mall", "phone": "(714) 990-4453", "brand": "Windsor"}, "geometry": {"type": "Point", "coordinates": [-117.8876, 33.916]}},
{"type": "Feature", "id": "YiFtACnyuJ80k6tZVHcj9_oo37E=", "properties": {"ref": "45617676339", "@spider": "windsor", "addr:full": "6600 Menaul Blvd NE", "addr:city": "Albuquerque", "addr:state": "NM", "addr:postcode": "87110", "name": "Albuquerque Coronado Center", "phone": "(505) 225-7055", "brand": "Windsor"}, "geometry": {"type": "Point", "coordinates": [-106.5702, 35.1071]}},
{"type": "Feature", "id": "PHDxfCGPM1RaznfQv-O0gGXxQFQ=", "properties": {"ref": "45618397235", "@spider": "windsor", "addr:full": "60 E. Broadway", "addr:city": "Bloomington", "addr:state": "MN", "addr:postcode": "55425", "name": "Bloomington Mall Of America", "phone": "(952) 495-2525", "brand": "Windsor"}, "geometry": {"type": "Point", "coordinates": [-93.2401, 44.8545]}},
{"type": "Feature", "id": "-Nr2rONaaKPttYH6hofZl8WdTKA=", "properties": {"ref": "45618266163", "@spider": "windsor", "addr:full": "2701 Ming Ave", "addr:city": "Bakersfield", "addr:state": "CA", "addr:postcode": "93304", "name": "Bakersfield Valley Plaza Mall", "phone": "(661) 232-0070", "brand": "Windsor"}, "geometry": {"type": "Point", "coordinates": [-119.036262, 35.337131]}},
{"type": "Feature", "id": "0UqF6LWpTeZIXTXohXknGNLy5ko=", "properties": {"ref": "45624361011", "@spider": "windsor", "addr:full": "1201 Lake Woodlands Dr", "addr:city": "Woodlands", "addr:state": "TX", "addr:postcode": "77380", "name": "The Woodlands Mall", "phone": "(346) 220-6302", "brand": "Windsor"}, "geometry": {"type": "Point", "coordinates": [-95.4554, 30.1643]}},
{"type": "Feature", "id": "RbJx1EeMA0t3EENV7GF399AyHbw=", "properties": {"ref": "45619609651", "@spider": "windsor", "addr:full": "499 Parkway Plaza", "addr:city": "El Cajon", "addr:state": "CA", "addr:postcode": "92020", "name": "El Cajon Parkway Plaza", "phone": "(619) 387-9001", "brand": "Windsor"}, "geometry": {"type": "Point", "coordinates": [-116.9665, 32.8045]}},
{"type": "Feature", "id": "u0OsJZOm1XPPA_EctiEr5NoQaKM=", "properties": {"ref": "45622820915", "@spider": "windsor", "addr:full": "112 Plaza Dr", "addr:city": "West Covina", "addr:state": "CA", "addr:postcode": "91790", "name": "Plaza West Covina", "phone": "(626) 337-2651", "brand": "Windsor"}, "geometry": {"type": "Point", "coordinates": [-117.9346, 34.0713]}},
{"type": "Feature", "id": "en2HxPBITTTCJaJyX98jrAKSDPY=", "properties": {"ref": "45621805107", "@spider": "windsor", "addr:full": "1455 NW 107th Ave", "addr:city": "Doral", "addr:state": "FL", "addr:postcode": "33172", "name": "Miami International Mall", "phone": "(786) 749-9399", "brand": "Windsor"}, "geometry": {"type": "Point", "coordinates": [-80.3649, 25.7867]}},
{"type": "Feature", "id": "h9W3aGOWV2Ye1y2NNbT_1NRR2m4=", "properties": {"ref": "45620068403", "@spider": "windsor", "addr:full": "2601 Preston Rd", "addr:city": "Frisco", "addr:state": "TX", "addr:postcode": "75034", "name": "Frisco Stonebriar Centre", "phone": "(469) 430-9703", "brand": "Windsor"}, "geometry": {"type": "Point", "coordinates": [-96.8113, 33.0992]}},
{"type": "Feature", "id": "xAgPo5mFY8R_Dy4mLXt4C34288Y=", "properties": {"ref": "45620953139", "@spider": "windsor", "addr:full": "313 Smith Haven Mall", "addr:city": "Lake Grove", "addr:state": "NY", "addr:postcode": "11755", "name": "Lake Grove Smith Haven Mall", "phone": "(631) 621-6011", "brand": "Windsor"}, "geometry": {"type": "Point", "coordinates": [-73.1299, 40.8637]}},
{"type": "Feature", "id": "3Po-qRiUVc6CNzLFJZCMkvzK54U=", "properties": {"ref": "45619675187", "@spider": "windsor", "addr:full": "5800 Peach St", "addr:city": "Erie", "addr:state": "PA", "addr:postcode": "16565", "name": "Erie Millcreek Mall", "phone": "(814) 636-6700", "brand": "Windsor"}, "geometry": {"type": "Point", "coordinates": [-80.0962, 42.0677]}},
{"type": "Feature", "id": "U4EDH4tK4OW9trxXzuYlIC7vKP0=", "properties": {"ref": "45624852531", "@spider": "windsor", "addr:full": "2500 N. Mayfair Rd", "addr:city": "Wauwatosa", "addr:state": "WI", "addr:postcode": "53226", "name": "Wauwatosa Mayfair Mall", "phone": "(414) 448-6876", "brand": "Windsor"}, "geometry": {"type": "Point", "coordinates": [-88.0414, 43.05]}},
{"type": "Feature", "id": "PJpjHLyMvNW-DDTMHrs5MVM7oQo=", "properties": {"ref": "45624524851", "@spider": "windsor", "addr:full": "825 Dulaney Valley Rd", "addr:city": "Towson", "addr:state": "MD", "addr:postcode": "21204", "name": "Towson Town Center", "phone": "(410) 220-0301", "brand": "Windsor"}, "geometry": {"type": "Point", "coordinates": [-76.5993, 39.4045]}},
{"type": "Feature", "id": "z2Yi0Bd-HVmYqV0bx5zvs4vxvnU=", "properties": {"ref": "45623148595", "@spider": "windsor", "addr:full": "7979 Pittsford Victor Rd", "addr:city": "Victor", "addr:state": "NY", "addr:postcode": "14564", "name": "Rochester Eastview Mall", "phone": "(585) 213-1616", "brand": "Windsor"}, "geometry": {"type": "Point", "coordinates": [-77.4437, 43.0277]}},
{"type": "Feature", "id": "CUBkuMruKkY2LwLFr_ElKz8sEc8=", "properties": {"ref": "45622165555", "@spider": "windsor", "addr:full": "1245 Worcester St", "addr:city": "Natick", "addr:state": "MA", "addr:postcode": "01760", "name": "Natick Mall", "phone": "(508) 465-8410", "brand": "Windsor"}, "geometry": {"type": "Point", "coordinates": [-71.3844, 42.3019]}},
{"type": "Feature", "id": "1WNAzFyjSj94puhOFm6LMk4x8Mg=", "properties": {"ref": "45621084211", "@spider": "windsor", "addr:full": "3200 S. Las Vegas Blvd", "addr:city": "Las Vegas", "addr:state": "NV", "addr:postcode": "89109", "name": "Las Vegas Fashion Show", "phone": "(702) 509-7711", "brand": "Windsor"}, "geometry": {"type": "Point", "coordinates": [-115.1716, 36.1272]}},
{"type": "Feature", "id": "I6r06gCXrOiHfVQLB1V96aIzMBY=", "properties": {"ref": "45625278515", "@spider": "windsor", "addr:full": "7700 E. Kellogg Dr", "addr:city": "Wichita", "addr:state": "KS", "addr:postcode": "67207", "name": "Wichita Towne East Square", "phone": "(316) 215-8191", "brand": "Windsor"}, "geometry": {"type": "Point", "coordinates": [-97.2471, 37.6834]}},
{"type": "Feature", "id": "TOGzNiONew6BQg7kHkKbtyHlH44=", "properties": {"ref": "45621116979", "@spider": "windsor", "addr:full": "7400 S. Las Vegas Blvd", "addr:city": "Las Vegas", "addr:state": "NV", "addr:postcode": "89123", "name": "Las Vegas South Premium Outlets", "phone": "(702) 846-1390", "brand": "Windsor"}, "geometry": {"type": "Point", "coordinates": [-115.169, 36.0524]}},
{"type": "Feature", "id": "l2dmuVjC2-vfM5r_3T3mOuBgrOI=", "properties": {"ref": "45619576883", "@spider": "windsor", "addr:full": "5043 Tuttle Crossing Blvd", "addr:city": "Dublin", "addr:state": "OH", "addr:postcode": "43016", "name": "The Mall At Tuttle Crossing", "phone": "(614) 379-6644", "brand": "Windsor"}, "geometry": {"type": "Point", "coordinates": [-83.1323, 40.0733]}},
{"type": "Feature", "id": "0YjnjixKUaZQCZSZ4qyC2X0OzDg=", "properties": {"ref": "45620297779", "@spider": "windsor", "addr:full": "5300 S. 76th St", "addr:city": "Greendale", "addr:state": "WI", "addr:postcode": "53129", "name": "Greendale Southridge Mall", "phone": "(414) 448-6760", "brand": "Windsor"}, "geometry": {"type": "Point", "coordinates": [-87.9943, 42.9373]}},
{"type": "Feature", "id": "aVDDJW2jT8XhpaktdCho4opCfyg=", "properties": {"ref": "45618331699", "@spider": "windsor", "addr:full": "301 S. Hills Village", "addr:city": "Bethel Park", "addr:state": "PA", "addr:postcode": "15241", "name": "Bethel Park South Hills Village", "phone": "(412) 226-9678", "brand": "Windsor"}, "geometry": {"type": "Point", "coordinates": [-80.0533, 40.3411]}},
{"type": "Feature", "id": "rx8WqwpBo0xM6gSwkxmcjkfMAlE=", "properties": {"ref": "45623738419", "@spider": "windsor", "addr:full": "2825 S. Glenstone Ave", "addr:city": "Springfield", "addr:state": "MO", "addr:postcode": "65804", "name": "Springfield Battlefield Mall", "phone": "(417) 228-9290", "brand": "Windsor"}, "geometry": {"type": "Point", "coordinates": [-93.2645, 37.1622]}},
{"type": "Feature", "id": "DddmDZK5HCyQzBj5wg1JiQd5mx0=", "properties": {"ref": "45622788147", "@spider": "windsor", "addr:full": "100 Robinson Center Dr", "addr:city": "Pittsburgh", "addr:state": "PA", "addr:postcode": "15205", "name": "The Mall At Robinson", "phone": "(412) 430-0227", "brand": "Windsor"}, "geometry": {"type": "Point", "coordinates": [-80.1574, 40.4547]}},
{"type": "Feature", "id": "TKCAsn4fyRuXuqfbQIv_mJziOBY=", "properties": {"ref": "45619216435", "@spider": "windsor", "addr:full": "8111 Concord Mills Blvd", "addr:city": "Concord", "addr:state": "NC", "addr:postcode": "28027", "name": "Concord Mills", "phone": "(980) 777-1001", "brand": "Windsor"}, "geometry": {"type": "Point", "coordinates": [-80.7222, 35.369]}},
{"type": "Feature", "id": "rQl21ykwNEnTwTsr9meeC8SMTjQ=", "properties": {"ref": "45621248051", "@spider": "windsor", "addr:full": "5900 Sugarloaf Parkway", "addr:city": "Lawrenceville", "addr:state": "GA", "addr:postcode": "30043", "name": "Lawrenceville Sugarloaf Mills", "phone": "(770) 415-9701", "brand": "Windsor"}, "geometry": {"type": "Point", "coordinates": [-84.0809, 33.9808]}},
{"type": "Feature", "id": "Ir9EjE2Vr0szE_fd6hO7G4L0r7M=", "properties": {"ref": "45622755379", "@spider": "windsor", "addr:full": "1455 Franklin Mills Circle", "addr:city": "Philadelphia", "addr:state": "PA", "addr:postcode": "19154", "name": "Philadelphia Mills", "phone": "(215) 278-8876", "brand": "Windsor"}, "geometry": {"type": "Point", "coordinates": [-74.961, 40.0876]}},
{"type": "Feature", "id": "Qt7RHG98uiaucsaZyyRtAFUruGg=", "properties": {"ref": "45623541811", "@spider": "windsor", "addr:full": "8201 S. Tamiami Trail", "addr:city": "Sarasota", "addr:state": "FL", "addr:postcode": "34238", "name": "Sarasota Square", "phone": "(941) 222-0717", "brand": "Windsor"}, "geometry": {"type": "Point", "coordinates": [-82.4931, 27.2347]}},
{"type": "Feature", "id": "5jzDPhSYWkvkizXzwZ0uFexNaHQ=", "properties": {"ref": "45625147443", "@spider": "windsor", "addr:full": "11160 Veirs Mill Rd", "addr:city": "Wheaton", "addr:state": "MD", "addr:postcode": "20902", "name": "Westfield Wheaton", "phone": "(301) 850-0960", "brand": "Windsor"}, "geometry": {"type": "Point", "coordinates": [-77.052, 39.0353]}},
{"type": "Feature", "id": "3cDk1tIERSx0ldYjFmyFOiCiNMc=", "properties": {"ref": "45618626611", "@spider": "windsor", "addr:full": "1 Walden Galleria", "addr:city": "Buffalo", "addr:state": "NY", "addr:postcode": "14225", "name": "Buffalo Walden Galleria", "phone": "(716) 200-1456", "brand": "Windsor"}, "geometry": {"type": "Point", "coordinates": [-78.7634, 42.912]}},
{"type": "Feature", "id": "Lc2Uz2ZG7F3fYpM5Q0tgvdDAHSU=", "properties": {"ref": "45625311283", "@spider": "windsor", "addr:full": "2500 W Moreland Rd", "addr:city": "Willow Grove", "addr:state": "PA", "addr:postcode": "19090", "name": "Willow Grove Willow Grove Park Mall", "phone": "(267) 818-9132", "brand": "Windsor"}, "geometry": {"type": "Point", "coordinates": [-75.1235, 40.1401]}},
{"type": "Feature", "id": "e54fD-Rzyig2vCa-5JUZNVHkNnE=", "properties": {"ref": "45620887603", "@spider": "windsor", "addr:full": "400 Barrett Parkway", "addr:city": "Kennesaw", "addr:state": "GA", "addr:postcode": "30144", "name": "Kennesaw Town Center At Cobb", "phone": "(770) 450-9500", "brand": "Windsor"}, "geometry": {"type": "Point", "coordinates": [-84.5643, 34.018]}},
{"type": "Feature", "id": "toBWaX475BGKdJjAgd3cRAHtjNo=", "properties": {"ref": "45619544115", "@spider": "windsor", "addr:full": "1980 Festival Plaza Dr", "addr:city": "Las Vegas", "addr:state": "NV", "addr:postcode": "89135", "name": "Downtown Summerlin Mall", "phone": "(702) 537-0095", "brand": "Windsor"}, "geometry": {"type": "Point", "coordinates": [-115.3331, 36.15]}},
{"type": "Feature", "id": "IpWvckVH1JK0RjD_QJ6g0DTgS6s=", "properties": {"ref": "45618659379", "@spider": "windsor", "addr:full": "3333 Buford Dr Ne", "addr:city": "Buford", "addr:state": "GA", "addr:postcode": "30519", "name": "Buford Mall Of Georgia", "phone": "(678) 926-9311", "brand": "Windsor"}, "geometry": {"type": "Point", "coordinates": [-83.984, 34.0641]}},
{"type": "Feature", "id": "ILx0kIonganuVjLN_foN16G8WJo=", "properties": {"ref": "45621542963", "@spider": "windsor", "addr:full": "1500 S. Willow St", "addr:city": "Manchester", "addr:state": "NH", "addr:postcode": "03103", "name": "Manchester Mall Of New Hampshire", "phone": "(603) 782-4838", "brand": "Windsor"}, "geometry": {"type": "Point", "coordinates": [-71.4327, 42.9554]}},
{"type": "Feature", "id": "rqCbpwWIjuZk6p3tJPjr9Zzy5Ds=", "properties": {"ref": "45618495539", "@spider": "windsor", "addr:full": "250 Granite St", "addr:city": "Braintree", "addr:state": "MA", "addr:postcode": "02184", "name": "Braintree South Shore Plaza", "phone": "(781) 428-4058", "brand": "Windsor"}, "geometry": {"type": "Point", "coordinates": [-71.0227, 42.2201]}},
{"type": "Feature", "id": "x6Pt7GzF9AqB82cbvDUCynoZBAo=", "properties": {"ref": "45621280819", "@spider": "windsor", "addr:full": "112 Eisenhower Parkway", "addr:city": "Livingston", "addr:state": "NJ", "addr:postcode": "07039", "name": "Livingston Mall", "phone": "(862) 245-2318", "brand": "Windsor"}, "geometry": {"type": "Point", "coordinates": [-74.3538, 40.7769]}},
{"type": "Feature", "id": "ydci_DMz85yTM3QSAjoWoZ6hSL0=", "properties": {"ref": "45618069555", "@spider": "windsor", "addr:full": "2860 Cumberland Mall Se", "addr:city": "Atlanta", "addr:state": "GA", "addr:postcode": "30339", "name": "Atlanta Cumberland Mall", "phone": "(770) 450-1544", "brand": "Windsor"}, "geometry": {"type": "Point", "coordinates": [-84.4687, 33.8804]}},
{"type": "Feature", "id": "Uyndwd6YUeDolDPKUiSuGsdT3UU=", "properties": {"ref": "45617709107", "@spider": "windsor", "addr:full": "1000 Northpoint Circle", "addr:city": "Alpharetta", "addr:state": "GA", "addr:postcode": "30022", "name": "Alpharetta North Point Mall", "phone": "(770) 450-1556", "brand": "Windsor"}, "geometry": {"type": "Point", "coordinates": [-84.2951, 34.0471]}},
{"type": "Feature", "id": "l_VxIa44e2fF7mOwebm7xxAeJNc=", "properties": {"ref": "45620330547", "@spider": "windsor", "addr:full": "410 Four Seasons Blvd", "addr:city": "Greensboro", "addr:state": "NC", "addr:postcode": "27427", "name": "Greensboro Four Seasons Town Centre", "phone": "(336) 285-0740", "brand": "Windsor"}, "geometry": {"type": "Point", "coordinates": [-79.8383, 36.0396]}},
{"type": "Feature", "id": "BEUNMyL0sID__iKYVegLHKKBe5k=", "properties": {"ref": "45622132787", "@spider": "windsor", "addr:full": "433 Opry Mills Dr", "addr:city": "Nashville", "addr:state": "TN", "addr:postcode": "37214", "name": "Opry Mills", "phone": "(615) 647-8908", "brand": "Windsor"}, "geometry": {"type": "Point", "coordinates": [-86.69239, 36.20366]}},
{"type": "Feature", "id": "xPskGh8kPKKXHm6n-6PrhxHhmVI=", "properties": {"ref": "45618757683", "@spider": "windsor", "addr:full": "11200 Lakeline Mall Dr", "addr:city": "Cedar Park", "addr:state": "TX", "addr:postcode": "78613", "name": "Cedar Park Lakeline Mall", "phone": "(512) 817-3444", "brand": "Windsor"}, "geometry": {"type": "Point", "coordinates": [-97.8017, 30.472]}},
{"type": "Feature", "id": "sGdgdtPk_VRNnt7_k_7C94ufl7Y=", "properties": {"ref": "45625344051", "@spider": "windsor", "addr:full": "3320 Silas Creek Parkway", "addr:city": "Winston-Salem", "addr:state": "NC", "addr:postcode": "27103", "name": "Winston Salem Hanes Mall", "phone": "(336) 283-7103", "brand": "Windsor"}, "geometry": {"type": "Point", "coordinates": [-80.2993, 36.0718]}},
{"type": "Feature", "id": "mvQXe0HuqlF0hWKglJ1nXq0goKI=", "properties": {"ref": "45618233395", "@spider": "windsor", "addr:full": "2901 S. Capital Of Texas Hwy", "addr:city": "Austin", "addr:state": "TX", "addr:postcode": "78746", "name": "Austin Barton Creek Square", "phone": "(512) 580-3200", "brand": "Windsor"}, "geometry": {"type": "Point", "coordinates": [-97.8081, 30.285]}},
{"type": "Feature", "id": "l2DW6Cak-PJN6EcmSf44Pk3TIzo=", "properties": {"ref": "45621051443", "@spider": "windsor", "addr:full": "142 Park City Center", "addr:city": "Lancaster", "addr:state": "PA", "addr:postcode": "17601", "name": "Lancaster Park City Center", "phone": "(717) 282-1400", "brand": "Windsor"}, "geometry": {"type": "Point", "coordinates": [-76.3395, 40.067]}},
{"type": "Feature", "id": "LEGHy-S3Txja8JdlXGZYbEFmZjM=", "properties": {"ref": "45623181363", "@spider": "windsor", "addr:full": "301 Mount Hope Ave", "addr:city": "Rockaway", "addr:state": "NJ", "addr:postcode": "07866", "name": "Rockaway Townsquare", "phone": "(973) 453-4817", "brand": "Windsor"}, "geometry": {"type": "Point", "coordinates": [-74.554, 40.9071]}},
{"type": "Feature", "id": "YDfBMrsVYUR8Js9pRbcKIHIBPeA=", "properties": {"ref": "45622919219", "@spider": "windsor", "addr:full": "1 Providence Place", "addr:city": "Providence", "addr:state": "RI", "addr:postcode": "02903", "name": "Providence Place", "phone": "(401) 214-0330", "brand": "Windsor"}, "geometry": {"type": "Point", "coordinates": [-71.4167, 41.8274]}},
{"type": "Feature", "id": "cBvKv34hb3u6j_7m_8nTRWs2pYs=", "properties": {"ref": "45621510195", "@spider": "windsor", "addr:full": "146 W. Towne Mall", "addr:city": "Madison", "addr:state": "WI", "addr:postcode": "53719", "name": "Madison West Towne Mall", "phone": "(608) 571-0109", "brand": "Windsor"}, "geometry": {"type": "Point", "coordinates": [-89.4993, 43.0321]}},
{"type": "Feature", "id": "2fOZKVBv7lMUOQwiK4LxwcO2qxA=", "properties": {"ref": "45621477427", "@spider": "windsor", "addr:full": "89 E. Towne Mall", "addr:city": "Madison", "addr:state": "WI", "addr:postcode": "53704", "name": "Madison East Towne Mall", "phone": "(608) 509-7320", "brand": "Windsor"}, "geometry": {"type": "Point", "coordinates": [-89.3523, 43.1205]}},
{"type": "Feature", "id": "7B1OZPxWafreJrA96tKXttWaE4c=", "properties": {"ref": "45622427699", "@spider": "windsor", "addr:full": "1982 W. Grand River Ave", "addr:city": "Okemos", "addr:state": "MI", "addr:postcode": "48864", "name": "Meridian Mall", "phone": "(517) 258-7170", "brand": "Windsor"}, "geometry": {"type": "Point", "coordinates": [-84.4195, 42.7253]}},
{"type": "Feature", "id": "XZmXqg2_B140bDygMaKlmOw9-8g=", "properties": {"ref": "45618823219", "@spider": "windsor", "addr:full": "6801 Northlake Mall Dr", "addr:city": "Charlotte", "addr:state": "NC", "addr:postcode": "28216", "name": "Charlotte Northlake Mall", "phone": "(980) 256-3786", "brand": "Windsor"}, "geometry": {"type": "Point", "coordinates": [-80.8512, 35.3521]}},
{"type": "Feature", "id": "3Or2D2HAQqFg-pPB8cPO4Gmdbxw=", "properties": {"ref": "45621837875", "@spider": "windsor", "addr:full": "1 Galleria Dr", "addr:city": "Middletown", "addr:state": "NY", "addr:postcode": "10941", "name": "Galleria At Crystal Run", "phone": "(845) 208-9700", "brand": "Windsor"}, "geometry": {"type": "Point", "coordinates": [-74.3671, 41.4532]}},
{"type": "Feature", "id": "QzUMz4ByCFYsosnkm-yt4lB9ZH8=", "properties": {"ref": "45622263859", "@spider": "windsor", "addr:full": "2150 Northwoods Blvd", "addr:city": "North Charleston", "addr:state": "SC", "addr:postcode": "29406", "name": "Northwoods Mall", "phone": "(843) 501-0223", "brand": "Windsor"}, "geometry": {"type": "Point", "coordinates": [-80.0445, 32.9442]}},
{"type": "Feature", "id": "Z53xYgA86wxT5iQmlqCqOo9OnBo=", "properties": {"ref": "45617348659", "@spider": "windsor", "addr:full": "1 Crossgates Mall Rd", "addr:city": "Albany", "addr:state": "NY", "addr:postcode": "12203", "name": "Albany Crossgates Mall", "phone": "(518)-556-6469", "brand": "Windsor"}, "geometry": {"type": "Point", "coordinates": [-73.8454, 42.6884]}},
{"type": "Feature", "id": "WKHTRv7kNPxcKtu_5eazaOBhiXc=", "properties": {"ref": "45617971251", "@spider": "windsor", "addr:full": "4301 W. Wisconsin Ave", "addr:city": "Appleton", "addr:state": "WI", "addr:postcode": "54913", "name": "Appleton Fox River Mall", "phone": "(920)903-3085", "brand": "Windsor"}, "geometry": {"type": "Point", "coordinates": [-88.471351, 44.26885]}},
{"type": "Feature", "id": "mPakKdRr6JHpMq6GOHjnOOVsegg=", "properties": {"ref": "45623967795", "@spider": "windsor", "addr:full": "9090 Destiny USA Dr", "addr:city": "Syracuse", "addr:state": "NY", "addr:postcode": "13204", "name": "Syracuse Destiny USA", "phone": "(315) 748-5050", "brand": "Windsor"}, "geometry": {"type": "Point", "coordinates": [-76.1728, 43.0691]}},
{"type": "Feature", "id": "qr_z3yVGJMPPaL7-YgKE7yUVEek=", "properties": {"ref": "45624590387", "@spider": "windsor", "addr:full": "4500 North Oracle Rd", "addr:city": "Tucson", "addr:state": "AZ", "addr:postcode": "85705", "name": "Tucson Mall", "phone": "(520) 365-3355", "brand": "Windsor"}, "geometry": {"type": "Point", "coordinates": [-110.9739, 32.2885]}},
{"type": "Feature", "id": "52haMGR05PVjwnae3yK2ZdTbeks=", "properties": {"ref": "45621968947", "@spider": "windsor", "addr:full": "447 Great Mall Dr", "addr:city": "Milpitas", "addr:state": "CA", "addr:postcode": "95035", "name": "Great Mall of the Bay Area", "phone": "(408) 599-5009", "brand": "Windsor"}, "geometry": {"type": "Point", "coordinates": [-121.8976, 37.4159]}},
{"type": "Feature", "id": "h-7ZSPDR-Wrq14jEuz1wEYynaBE=", "properties": {"ref": "45622657075", "@spider": "windsor", "addr:full": "1233 W. Rancho Vista Blvd", "addr:city": "Palmdale", "addr:state": "CA", "addr:postcode": "93551", "name": "Antelope Valley Mall", "phone": "(661) 544-1417", "brand": "Windsor"}, "geometry": {"type": "Point", "coordinates": [-118.15, 34.6042]}},
{"type": "Feature", "id": "egAUWkZxg0gU3HUY9y6oJ-EPZA0=", "properties": {"ref": "45618561075", "@spider": "windsor", "addr:full": "200 Baychester Ave", "addr:city": "Bronx", "addr:state": "NY", "addr:postcode": "10475", "name": "The Mall At Bay Plaza", "phone": "(718) 618-4227", "brand": "Windsor"}, "geometry": {"type": "Point", "coordinates": [-73.8274, 40.8636]}},
{"type": "Feature", "id": "xYAeXXnTXnBg-oHEBoZu7w-22Xs=", "properties": {"ref": "45623836723", "@spider": "windsor", "addr:full": "2655 Richmond Ave", "addr:city": "Staten Island", "addr:state": "NY", "addr:postcode": "10314", "name": "Staten Island Mall", "phone": "(347) 983-9640", "brand": "Windsor"}, "geometry": {"type": "Point", "coordinates": [-74.1659, 40.5824]}},
{"type": "Feature", "id": "01O5-U0YNz0A77odgYNFIKlA6nU=", "properties": {"ref": "45624492083", "@spider": "windsor", "addr:full": "3525 W. Carson St", "addr:city": "Torrance", "addr:state": "CA", "addr:postcode": "90503", "name": "Torrance Del Amo Fashion Center", "phone": "(424) 271-2218", "brand": "Windsor"}, "geometry": {"type": "Point", "coordinates": [-118.3483, 33.8335]}},
{"type": "Feature", "id": "EhwuAgWM3Z91TrwdwHoP8R6j86E=", "properties": {"ref": "45623476275", "@spider": "windsor", "addr:full": "925 Blossom Hill Rd", "addr:city": "San Jose", "addr:state": "CA", "addr:postcode": "95123", "name": "San Jose Westfield Oakridge", "phone": "(669) 200-1554", "brand": "Windsor"}, "geometry": {"type": "Point", "coordinates": [-121.8624, 37.2515]}},
{"type": "Feature", "id": "6peez5rCpa7FblUY27t9gQRvDQk=", "properties": {"ref": "45620035635", "@spider": "windsor", "addr:full": "645 E. Shaw Ave", "addr:city": "Fresno", "addr:state": "CA", "addr:postcode": "93710", "name": "Fresno Fashion Fair", "phone": "(559) 241-8767", "brand": "Windsor"}, "geometry": {"type": "Point", "coordinates": [-119.776, 36.8066]}},
{"type": "Feature", "id": "f_JDVsu4R5vo-_mIl_xDXoC4Rpk=", "properties": {"ref": "45622886451", "@spider": "windsor", "addr:full": "40820 Winchester Rd", "addr:city": "Temecula", "addr:state": "CA", "addr:postcode": "92591", "name": "Promenade Temecula", "phone": "(951) 297-7481", "brand": "Windsor"}, "geometry": {"type": "Point", "coordinates": [-117.1542, 33.5248]}},
{"type": "Feature", "id": "UURsTyqcbcYaiWu1JLDsoT5T2NE=", "properties": {"ref": "45618004019", "@spider": "windsor", "addr:full": "400 S. Baldwin Ave", "addr:city": "Arcadia", "addr:state": "CA", "addr:postcode": "91007", "name": "Arcadia Westfield Santa Anita", "phone": "(626) 445-2227", "brand": "Windsor"}, "geometry": {"type": "Point", "coordinates": [-118.051, 34.1349]}},
{"type": "Feature", "id": "2_frB2D3QWSiQMubM8t9xd6dhU4=", "properties": {"ref": "45625212979", "@spider": "windsor", "addr:full": "2043 Westminster Mall", "addr:city": "Westminster", "addr:state": "CA", "addr:postcode": "92683", "name": "Westminster Mall", "phone": "(657) 206-4388", "brand": "Windsor"}, "geometry": {"type": "Point", "coordinates": [-118.0089, 33.7459]}},
{"type": "Feature", "id": "Jr8xAwDuQnNP6SFu4n74inJE9aM=", "properties": {"ref": "45618298931", "@spider": "windsor", "addr:full": "1701 Sunrise Hwy", "addr:city": "Bay Shore", "addr:state": "NY", "addr:postcode": "11706", "name": "Bay Shore Westfield South Shore", "phone": "(631) 629-8897", "brand": "Windsor"}, "geometry": {"type": "Point", "coordinates": [-73.2465, 40.7401]}},
{"type": "Feature", "id": "2b1lz18Ikebm-tDeDDuET3szbz4=", "properties": {"ref": "45624295475", "@spider": "windsor", "addr:full": "13920 City Center Dr", "addr:city": "Chino Hills", "addr:state": "CA", "addr:postcode": "91709", "name": "The Shoppes At Chino Hills", "phone": "(909) 203-1159", "brand": "Windsor"}, "geometry": {"type": "Point", "coordinates": [-117.7313, 34.0005]}},
{"type": "Feature", "id": "7_bso8ONlMvQnBGKxTOnLqnmpqc=", "properties": {"ref": "45621608499", "@spider": "windsor", "addr:full": "1 Sunrise Mall", "addr:city": "Massapequa", "addr:state": "NY", "addr:postcode": "11758", "name": "Massapequa Westfield Sunrise Mall", "phone": "(516) 665-0498", "brand": "Windsor"}, "geometry": {"type": "Point", "coordinates": [-73.4347, 40.6826]}},
{"type": "Feature", "id": "MnkMsnT31UURkn73gg4kSPAUEHk=", "properties": {"ref": "45622296627", "@spider": "windsor", "addr:full": "3929 McCain Blvd", "addr:city": "North Little Rock", "addr:state": "AR", "addr:postcode": "72116", "name": "McCain Mall", "phone": "(501) 588-4710", "brand": "Windsor"}, "geometry": {"type": "Point", "coordinates": [-92.2255, 34.7919]}},
{"type": "Feature", "id": "GZ7SzfPkjhf9zllyJn76ls6y6bM=", "properties": {"ref": "45621575731", "@spider": "windsor", "addr:full": "194 Buckland Hills Dr", "addr:city": "Manchester", "addr:state": "CT", "addr:postcode": "06042", "name": "The Shoppes At Buckland Hills", "phone": "(860) 967-3608", "brand": "Windsor"}, "geometry": {"type": "Point", "coordinates": [-72.5459, 41.8069]}},
{"type": "Feature", "id": "W9zS6t96ZKznxTUz8n5Ns_a49ek=", "properties": {"ref": "45623083059", "@spider": "windsor", "addr:full": "1200 E. County Line Rd", "addr:city": "Ridgeland", "addr:state": "MS", "addr:postcode": "39157", "name": "Ridgeland Northpark", "phone": "(601) 326-1190", "brand": "Windsor"}, "geometry": {"type": "Point", "coordinates": [-90.1291, 32.403]}},
{"type": "Feature", "id": "c5s8whxx0jbpSSZv8Oc6oNFLTpY=", "properties": {"ref": "45621641267", "@spider": "windsor", "addr:full": "4465 Poplar Ave", "addr:city": "Memphis", "addr:state": "TN", "addr:postcode": "38117", "name": "Memphis Oak Court Mall", "phone": "(901) 244-3449", "brand": "Windsor"}, "geometry": {"type": "Point", "coordinates": [-89.9034, 35.1124]}},
{"type": "Feature", "id": "Fc8JM37sK2Sx8x1SlSoZyq0DcFk=", "properties": {"ref": "45621674035", "@spider": "windsor", "addr:full": "2760 N Germantown Parkway", "addr:city": "Memphis", "addr:state": "TN", "addr:postcode": "38133", "name": "Memphis Wolfchase Galleria", "phone": "(901) 562-1555", "brand": "Windsor"}, "geometry": {"type": "Point", "coordinates": [-89.8036, 35.2054]}},
{"type": "Feature", "id": "8n4IZDzNa6ZBW7exwkX7wpQWR1k=", "properties": {"ref": "45623312435", "@spider": "windsor", "addr:full": "99 Rockingham Park Blvd", "addr:city": "Salem", "addr:state": "NH", "addr:postcode": "03079", "name": "The Mall At Rockingham Park", "phone": "(603) 685-4882", "brand": "Windsor"}, "geometry": {"type": "Point", "coordinates": [-71.23192, 42.7673]}},
{"type": "Feature", "id": "8uFz7Z4M3ZiYIw0TQaF4wN_zJwQ=", "properties": {"ref": "45620199475", "@spider": "windsor", "addr:full": "3700 Rivertown Parkway  SW", "addr:city": "Grandville", "addr:state": "MI", "addr:postcode": "49418", "name": "Grandville Rivertown Crossing", "phone": "(616) 389-0623", "brand": "Windsor"}, "geometry": {"type": "Point", "coordinates": [-85.7561, 42.8794]}},
{"type": "Feature", "id": "Gp8FTb00Q_HQquLmK5yRkjGUWXs=", "properties": {"ref": "45622329395", "@spider": "windsor", "addr:full": "7501 W. Cermak Rd", "addr:city": "North Riverside", "addr:state": "IL", "addr:postcode": "60546", "name": "North Riverside Park Mall", "phone": "(708) 586-5827", "brand": "Windsor"}, "geometry": {"type": "Point", "coordinates": [-87.8214, 41.8374]}},
{"type": "Feature", "id": "Z2ihox1YABZai-2P6EAGgVSGHQY=", "properties": {"ref": "45621706803", "@spider": "windsor", "addr:full": "7850 Mentor Ave", "addr:city": "Mentor", "addr:state": "OH", "addr:postcode": "44060", "name": "Mentor Great Lakes Mall", "phone": "(440) 290-4540", "brand": "Windsor"}, "geometry": {"type": "Point", "coordinates": [-81.3613, 41.6572]}},
{"type": "Feature", "id": "4j6yuua3Oe7JgXy-Nig2CYSNGd0=", "properties": {"ref": "45620625459", "@spider": "windsor", "addr:full": "5085 Westheimer Rd", "addr:city": "Houston", "addr:state": "TX", "addr:postcode": "77056", "name": "The Galleria", "phone": "(713) 999-0404", "brand": "Windsor"}, "geometry": {"type": "Point", "coordinates": [-95.4645, 29.7383]}},
{"type": "Feature", "id": "qx0KsLFnB6rkF3TVvsL-c2d6Kak=", "properties": {"ref": "45623279667", "@spider": "windsor", "addr:full": "1600 Mid Rivers Mall", "addr:city": "Saint Peters", "addr:state": "MO", "addr:postcode": "63376", "name": "Saint Peters Mid Rivers Mall", "phone": "(314) 274-6662", "brand": "Windsor"}, "geometry": {"type": "Point", "coordinates": [-90.616, 38.7961]}},
{"type": "Feature", "id": "y_Yd-j7e4DJ8Hs4j469ud-cFM2U=", "properties": {"ref": "45625376819", "@spider": "windsor", "addr:full": "380 Woodbridge Center Dr", "addr:city": "Woodbridge", "addr:state": "NJ", "addr:postcode": "07095", "name": "Woodbridge Center", "phone": "(732) 510-6006", "brand": "Windsor"}, "geometry": {"type": "Point", "coordinates": [-74.3015, 40.5547]}},
{"type": "Feature", "id": "aDF7tQeafPZZAYrdnZRstxYz5H0=", "properties": {"ref": "45624000563", "@spider": "windsor", "addr:full": "7922 Citrus Park Towne Center", "addr:city": "Tampa", "addr:state": "FL", "addr:postcode": "33625", "name": "Tampa Citrus Park Mall", "phone": "(813) 448-7323", "brand": "Windsor"}, "geometry": {"type": "Point", "coordinates": [-82.5768, 28.0683]}},
{"type": "Feature", "id": "INtJriZXPybysJmTjwlInadlDzI=", "properties": {"ref": "45623607347", "@spider": "windsor", "addr:full": "F113 Woodfield Mall", "addr:city": "Schaumburg", "addr:state": "IL", "addr:postcode": "60173", "name": "Schaumburg Woodfield Mall", "phone": "(847) 592-9021", "brand": "Windsor"}, "geometry": {"type": "Point", "coordinates": [-88.0372, 42.0455]}},
{"type": "Feature", "id": "Jp4nANp0-HI_SGyzMCOflwznm2c=", "properties": {"ref": "45618921523", "@spider": "windsor", "addr:full": "27001 Us Hwy 19 N", "addr:city": "Clearwater", "addr:state": "FL", "addr:postcode": "33761", "name": "Clearwater Countryside Mall", "phone": "(727) 324-4547", "brand": "Windsor"}, "geometry": {"type": "Point", "coordinates": [-82.7343, 28.0174]}},
{"type": "Feature", "id": "5hyXH9ubSJ3IiaK-Mg_pghcrp5M=", "properties": {"ref": "45621149747", "@spider": "windsor", "addr:full": "3320 Brunswick Pike", "addr:city": "Lawrenceville", "addr:state": "NJ", "addr:postcode": "08648", "name": "Lawrenceville Quaker Bridge Mall", "phone": "(609) 281-8787", "brand": "Windsor"}, "geometry": {"type": "Point", "coordinates": [-74.6813, 40.2907]}},
{"type": "Feature", "id": "zJQMK9g8OsG9FQhXoJocVTXINLU=", "properties": {"ref": "45622722611", "@spider": "windsor", "addr:full": "11401 Pines Blvd", "addr:city": "Pembroke Pines", "addr:state": "FL", "addr:postcode": "33026", "name": "Pembroke Lakes Mall", "phone": "(954) 613-2009", "brand": "Windsor"}, "geometry": {"type": "Point", "coordinates": [-80.3046, 26.0106]}},
{"type": "Feature", "id": "3M4hQKyZSRitGskpSZYGnGqDHyw=", "properties": {"ref": "45623017523", "@spider": "windsor", "addr:full": "12468 North Mainstreet", "addr:city": "Rancho Cucamonga", "addr:state": "CA", "addr:postcode": "91739", "name": "Rancho Cucamonga Victoria Gardens", "phone": "(909) 527-7902", "brand": "Windsor"}, "geometry": {"type": "Point", "coordinates": [-117.532908, 34.113086]}},
{"type": "Feature", "id": "af93tXHsunZA7AF3gpQehe0YqFQ=", "properties": {"ref": "45622558771", "@spider": "windsor", "addr:full": "8001 S Orange Blossom Trail", "addr:city": "Orlando", "addr:state": "FL", "addr:postcode": "32809", "name": "The Florida Mall", "phone": "(407) 777-2557", "brand": "Windsor"}, "geometry": {"type": "Point", "coordinates": [-81.3988, 28.4554]}},
{"type": "Feature", "id": "5C4IuUSC0ceDQTrOPU2Qd0NiOrw=", "properties": {"ref": "45621346355", "@spider": "windsor", "addr:full": "239 Los Cerritos Center", "addr:city": "Cerritos", "addr:state": "CA", "addr:postcode": "90703", "name": "Los Cerritos Center", "phone": "(562) 924-6998", "brand": "Windsor"}, "geometry": {"type": "Point", "coordinates": [-118.0948, 33.8629]}},
{"type": "Feature", "id": "nMSFPanCaCEKRnkx5Iv3DaJ8cSc=", "properties": {"ref": "45622362163", "@spider": "windsor", "addr:full": "9301 Tampa Ave", "addr:city": "Northridge", "addr:state": "CA", "addr:postcode": "91324", "name": "Northridge Fashion Center", "phone": "(818) 885-0281", "brand": "Windsor"}, "geometry": {"type": "Point", "coordinates": [-118.5557, 34.2408]}},
{"type": "Feature", "id": "PKawb0Ot6EJdzvupRxssKpI_WzU=", "properties": {"ref": "45619249203", "@spider": "windsor", "addr:full": "1 Sun Valley Mall", "addr:city": "Concord", "addr:state": "CA", "addr:postcode": "94520", "name": "Concord Sunvalley Shopping Center", "phone": "(925) 326-6060", "brand": "Windsor"}, "geometry": {"type": "Point", "coordinates": [-122.0607, 37.9676]}},
{"type": "Feature", "id": "a0iNvbTqa6n_lWRl2PJyY95w4ag=", "properties": {"ref": "45623902259", "@spider": "windsor", "addr:full": "116 Southpark Center", "addr:city": "Strongsville", "addr:state": "OH", "addr:postcode": "44136", "name": "Strongsville Southpark Mall", "phone": "(440) 508-4099", "brand": "Windsor"}, "geometry": {"type": "Point", "coordinates": [-81.817, 41.3102]}},
{"type": "Feature", "id": "wjrYQeIsfUKP4mQY85YAqpAkeYw=", "properties": {"ref": "45619511347", "@spider": "windsor", "addr:full": "6700 Douglas Blvd", "addr:city": "Douglasville", "addr:state": "GA", "addr:postcode": "30135", "name": "Douglasville Arbor Place Mall", "phone": "(678) 831-8165", "brand": "Windsor"}, "geometry": {"type": "Point", "coordinates": [-84.7459, 33.7277]}},
{"type": "Feature", "id": "5TSbKoBWeqc-AmSXi74R0X3bQgo=", "properties": {"ref": "45624066099", "@spider": "windsor", "addr:full": "250 Westshore Plz", "addr:city": "Tampa", "addr:state": "FL", "addr:postcode": "33609", "name": "Tampa Westshore Plaza", "phone": "(813) 444-9964", "brand": "Windsor"}, "geometry": {"type": "Point", "coordinates": [-82.527414, 27.946111]}},
{"type": "Feature", "id": "MTEFKz2tnEtgYUDOAAaeIyU4syg=", "properties": {"ref": "45624164403", "@spider": "windsor", "addr:full": "10300 W. Forest Hill Blvd", "addr:city": "Wellington", "addr:state": "FL", "addr:postcode": "33414", "name": "The Mall At Wellington Green", "phone": "(561) 444-0030", "brand": "Windsor"}, "geometry": {"type": "Point", "coordinates": [-80.2088, 26.6511]}},
{"type": "Feature", "id": "fxOayblI_F0EfgzkQuxJuSXz2zM=", "properties": {"ref": "45621379123", "@spider": "windsor", "addr:full": "3340 Mall Loop Dr", "addr:city": "Joliet", "addr:state": "IL", "addr:postcode": "60431", "name": "Louis Joliet Mall", "phone": "(815) 207-7431", "brand": "Windsor"}, "geometry": {"type": "Point", "coordinates": [-88.1656, 41.5763]}},
{"type": "Feature", "id": "wbt8lfjKjQO_BL6RzIpgB1-Uqws=", "properties": {"ref": "45622394931", "@spider": "windsor", "addr:full": "27500 Novi Rd", "addr:city": "Novi", "addr:state": "MI", "addr:postcode": "48377", "name": "Twelve Oaks Mall", "phone": "(248) 876-4482", "brand": "Windsor"}, "geometry": {"type": "Point", "coordinates": [-83.4705, 42.4926]}},
{"type": "Feature", "id": "4E1VpYiblxMEUjGDkQLdnCMkyiE=", "properties": {"ref": "45622001715", "@spider": "windsor", "addr:full": "5057 Montclair Plaza Lane", "addr:city": "Montclair", "addr:state": "CA", "addr:postcode": "91763", "name": "Montclair Plaza", "phone": "(909)621-2210", "brand": "Windsor"}, "geometry": {"type": "Point", "coordinates": [-117.6923, 34.0898]}},
{"type": "Feature", "id": "lcacEO7nZL058vpBzDUujiq1XE0=", "properties": {"ref": "45624393779", "@spider": "windsor", "addr:full": "222 W. Hillcrest Dr", "addr:city": "Thousand Oaks", "addr:state": "CA", "addr:postcode": "91360", "name": "The Oaks", "phone": "(805) 852-7364", "brand": "Windsor"}, "geometry": {"type": "Point", "coordinates": [-118.888, 34.1839]}},
{"type": "Feature", "id": "D42jEcoPUz59a1dn4IdRCyBHSwc=", "properties": {"ref": "45618102323", "@spider": "windsor", "addr:full": "4400 Ashford Dunwoody Rd NE", "addr:city": "Atlanta", "addr:state": "GA", "addr:postcode": "30346", "name": "Atlanta Perimeter Mall", "phone": "(770) 766-5744", "brand": "Windsor"}, "geometry": {"type": "Point", "coordinates": [-84.34, 33.9233]}},
{"type": "Feature", "id": "wbaZcdCjY68gCju6PwzGR0rOxa4=", "properties": {"ref": "45621772339", "@spider": "windsor", "addr:full": "2063 Town East Mall", "addr:city": "Mesquite", "addr:state": "TX", "addr:postcode": "75150", "name": "Mesquite Town East Mall", "phone": "(972) 453-1259", "brand": "Windsor"}, "geometry": {"type": "Point", "coordinates": [-96.6307, 32.8154]}},
{"type": "Feature", "id": "PfHl31AHT_yxTDwGNzmt0qA3SHM=", "properties": {"ref": "45620592691", "@spider": "windsor", "addr:full": "50 Holyoke St", "addr:city": "Holyoke", "addr:state": "MA", "addr:postcode": "01040", "name": "Holyoke Mall At Ingleside", "phone": "(413) 561-0290", "brand": "Windsor"}, "geometry": {"type": "Point", "coordinates": [-72.6413, 42.1672]}},
{"type": "Feature", "id": "zoFK32F_7jdrR_jayMT6JyvCxME=", "properties": {"ref": "45618692147", "@spider": "windsor", "addr:full": "6600 Topanga Canyon Blvd", "addr:city": "Canoga Park", "addr:state": "CA", "addr:postcode": "91303", "name": "Canoga Park Westfield Topanga & The Village", "phone": "(818) 992-0129", "brand": "Windsor"}, "geometry": {"type": "Point", "coordinates": [-118.6043, 34.1901]}},
{"type": "Feature", "id": "ybOjnAKai0_oWdZww_ddLSBw9DE=", "properties": {"ref": "45625049139", "@spider": "windsor", "addr:full": "72840 Highway 111", "addr:city": "Palm Desert", "addr:state": "CA", "addr:postcode": "92260", "name": "Westfield Palm Desert", "phone": "(760) 340-6038", "brand": "Windsor"}, "geometry": {"type": "Point", "coordinates": [-116.3935, 33.7237]}}]}