{"type":"FeatureCollection","features":[{"type": "Feature", "id": "RIyhSiVHqaavHoWwEgLeUGV2i9c=", "properties": {"ref": "Bakerview Square", "@spider": "woods_coffee", "addr:full": "428 W. Bakerview Rd.", "addr:city": "Bellingham", "addr:state": "WA", "addr:postcode": "98226", "addr:country": "USA", "name": "Bakerview Square", "phone": "(360)738-7742", "website": "https://woodscoffee.com/locations/bellingham/bakerview-square/", "opening_hours": "Mo-Sa 5:30-18:00; Su 6:30-18:00", "brand": "Woods Coffee", "brand:wikidata": "Q8033255"}},
{"type": "Feature", "id": "3qtUc6Grs2DijuAbFvdiSfkw9eM=", "properties": {"ref": "Barkley Village", "@spider": "woods_coffee", "addr:full": "3008 Cinema Place", "addr:city": "Bellingham", "addr:state": "WA", "addr:postcode": "98226", "addr:country": "USA", "name": "Barkley Village", "phone": "(360)933-1695", "website": "https://woodscoffee.com/locations/bellingham/barkley-village/", "opening_hours": "Mo-Su 5:30-18:00", "brand": "Woods Coffee", "brand:wikidata": "Q8033255"}},
{"type": "Feature", "id": "m8riNazc8Kio1hPCuzkG7MT7LRY=", "properties": {"ref": "Bellevue Square", "@spider": "woods_coffee", "addr:full": "2002 Bellevue Square", "addr:city": "Bellevue", "addr:state": "WA", "addr:postcode": "98004", "addr:country": "USA", "name": "Bellevue Square", "phone": "(425)429-7276", "website": "https://woodscoffee.com/locations/bellevue/bellevue-square/", "opening_hours": "Mo-Sa 8:00-21:00; Su 9:00-19:00", "brand": "Woods Coffee", "brand:wikidata": "Q8033255"}},
{"type": "Feature", "id": "-wbJX90tyB6RsYSIAwbkH2zngAI=", "properties": {"ref": "Bender Plaza", "@spider": "woods_coffee", "addr:full": "8874 Bender Rd.", "addr:city": "Lynden", "addr:state": "WA", "addr:postcode": "98264", "addr:country": "USA", "name": "Bender Plaza", "phone": "(360)354-0900", "website": "https://woodscoffee.com/locations/lynden/bender-plaza/", "opening_hours": "Mo-Fr 5:30-18:00; Sa-Su 6:00-18:00", "brand": "Woods Coffee", "brand:wikidata": "Q8033255"}},
{"type": "Feature", "id": "H0IZGOIT7Z8tzR-ua8gJgFvtjU4=", "properties": {"ref": "Birch Bay Square", "@spider": "woods_coffee", "addr:full": "8130 Birch Bay Square St.", "addr:city": "Blaine", "addr:state": "WA", "addr:postcode": "98230", "addr:country": "USA", "name": "Birch Bay Square", "phone": "(360)393-4761", "website": "https://woodscoffee.com/locations/blaine/birch-bay-square/", "opening_hours": "Mo-Fr 5:00-18:00; Sa-Su 5:30-18:00", "brand": "Woods Coffee", "brand:wikidata": "Q8033255"}},
{"type": "Feature", "id": "sONXZ5k7lBzGpUF1NsZ92X15HAg=", "properties": {"ref": "Boulevard Park", "@spider": "woods_coffee", "addr:full": "470 Bayview Dr.", "addr:city": "Bellingham", "addr:state": "WA", "addr:postcode": "98225", "addr:country": "USA", "name": "Boulevard Park", "phone": "(360)738-4771", "website": "https://woodscoffee.com/locations/bellingham/boulevard-park/", "opening_hours": "Mo-Su 7:00-18:00", "brand": "Woods Coffee", "brand:wikidata": "Q8033255"}},
{"type": "Feature", "id": "DLLTeISM4AB9UbEehIfceCHrc9U=", "properties": {"ref": "College Way", "@spider": "woods_coffee", "addr:full": "1626 Freeway Dr. Mou", "addr:city": "Mt. Vernon", "addr:state": "WA", "addr:postcode": "98273", "addr:country": "USA", "name": "College Way", "phone": "(360)419-5908", "website": "https://woodscoffee.com/locations/mount-vernon/college-way/", "opening_hours": "Mo-Fr 4:30-18:00; Sa-Su 5:30-18:00", "brand": "Woods Coffee", "brand:wikidata": "Q8033255"}},
{"type": "Feature", "id": "LdiP7YV0iHEGiSKMv3Rn01KnhCs=", "properties": {"ref": "Edmonds", "@spider": "woods_coffee", "addr:full": "22019 Highway 99 Suite #100", "addr:city": "Edmonds", "addr:state": "WA", "addr:postcode": "98026", "addr:country": "USA", "name": "Edmonds", "phone": "(425)977-0258", "website": "https://woodscoffee.com/locations/edmonds/edmonds", "opening_hours": "Mo-Fr 5:00-18:00; Sa-Su 6:00-18:00", "brand": "Woods Coffee", "brand:wikidata": "Q8033255"}},
{"type": "Feature", "id": "EeZec47Pyt-N5CYuoPqPuu7UAVM=", "properties": {"ref": "Fairway Center", "@spider": "woods_coffee", "addr:full": "1758 Front St.", "addr:city": "Lynden", "addr:state": "WA", "addr:postcode": "98264", "addr:country": "USA", "name": "Fairway Center", "phone": "(360)354-2100", "website": "https://woodscoffee.com/locations/lynden/fairway-center/", "opening_hours": "Mo-Fr 5:30-20:00; Sa-Su 6:00-20:00", "brand": "Woods Coffee", "brand:wikidata": "Q8033255"}},
{"type": "Feature", "id": "XnwzrIrKsUNjt4a-NgZ0co1DjGA=", "properties": {"ref": "Ferndale Station", "@spider": "woods_coffee", "addr:full": "1867 Main St.", "addr:city": "Ferndale", "addr:state": "WA", "addr:postcode": "98248", "addr:country": "USA", "name": "Ferndale Station", "phone": "(360)778-3128", "website": "https://woodscoffee.com/locations/ferndale/ferndale-station/", "opening_hours": "Mo-Sa 5:00-19:00; Su 6:00-18:00", "brand": "Woods Coffee", "brand:wikidata": "Q8033255"}},
{"type": "Feature", "id": "e_-GpXh0pBKOSD9mgB8Elp4L_lw=", "properties": {"ref": "George Hopper", "@spider": "woods_coffee", "addr:full": "1779 S. Burlington Blvd.", "addr:city": "Burlington", "addr:state": "WA", "addr:postcode": "98233", "addr:country": "USA", "name": "George Hopper", "phone": "(360)419-4564", "website": "https://woodscoffee.com/locations/burlington/george-hopper/", "opening_hours": "Mo-Su 6:00-18:00", "brand": "Woods Coffee", "brand:wikidata": "Q8033255"}},
{"type": "Feature", "id": "ukXfbaXaG_h5BzZVCj3-GqTg7iQ=", "properties": {"ref": "Hotel 116", "@spider": "woods_coffee", "addr:full": "625 116th Ave. NE", "addr:city": "Bellevue", "addr:state": "WA", "addr:postcode": "98004", "addr:country": "USA", "name": "Hotel 116", "phone": "(425)800-4426", "website": "https://woodscoffee.com/locations/bellevue/hotel-116/", "opening_hours": "Mo-Fr 4:30-20:00; Sa-Su 6:00-20:00", "brand": "Woods Coffee", "brand:wikidata": "Q8033255"}},
{"type": "Feature", "id": "zCkh4hqLBAf7-xgIda1gj1mPqCs=", "properties": {"ref": "King Street", "@spider": "woods_coffee", "addr:full": "1901 King St.", "addr:city": "Bellingham", "addr:state": "WA", "addr:postcode": "98225", "addr:country": "USA", "name": "King Street", "phone": "(360)738-3260", "website": "https://woodscoffee.com/locations/bellingham/king-street/", "opening_hours": "Mo-Fr 5:00-17:00; Sa-Su 6:00-17:00", "brand": "Woods Coffee", "brand:wikidata": "Q8033255"}},
{"type": "Feature", "id": "UrY_RQfpwwfyxzraWGBckjPOc0k=", "properties": {"ref": "Lakeside-Bothell", "@spider": "woods_coffee", "addr:full": "24118 Bothell Everett Hwy Suite 200", "addr:city": "Bothell", "addr:state": "WA", "addr:postcode": "98021", "addr:country": "USA", "name": "Lakeside-Bothell", "phone": "(425)217-2802", "website": "https://woodscoffee.com/locations/bothell/lakeside-bothell", "opening_hours": "Mo-Fr 5:00-18:00; Sa-Su 6:00-18:00", "brand": "Woods Coffee", "brand:wikidata": "Q8033255"}},
{"type": "Feature", "id": "BiOgQOGv_7agTRKYGkIlRWwRGSI=", "properties": {"ref": "Lakeway", "@spider": "woods_coffee", "addr:full": "813 Lakeway Dr.", "addr:city": "Bellingham", "addr:state": "WA", "addr:postcode": "98229", "addr:country": "USA", "name": "Lakeway", "phone": "(360)325-7837", "website": "https://woodscoffee.com/locations/bellingham/lakeway/", "opening_hours": "Mo-Sa 4:30-20:00; Su 5:30-19:00", "brand": "Woods Coffee", "brand:wikidata": "Q8033255"}},
{"type": "Feature", "id": "rrjJ0i_yEfL0yp74EcSSKS1QNlc=", "properties": {"ref": "Lincoln Square", "@spider": "woods_coffee", "addr:full": "700 Bellevue Way NE #140", "addr:city": "Bellevue", "addr:state": "WA", "addr:postcode": "98004", "addr:country": "USA", "name": "Lincoln Square", "phone": "(425)279-8860", "website": "https://woodscoffee.com/locations/bellevue/lincoln-square/", "opening_hours": "Mo-We 7:30-15:00; Th-Fr 7:30-21:00; Sa 8:00-21:00; Su 9:00-19:00", "brand": "Woods Coffee", "brand:wikidata": "Q8033255"}},
{"type": "Feature", "id": "VTvWte8LbsE0LaGL8D4zuWNm6Tc=", "properties": {"ref": "Meridian", "@spider": "woods_coffee", "addr:full": "102 W. Stuart Rd.", "addr:city": "Bellingham", "addr:state": "WA", "addr:postcode": "98226", "addr:country": "USA", "name": "Meridian", "phone": "(360)733-9570", "website": "https://woodscoffee.com/locations/bellingham/meridian/", "opening_hours": "Mo-Fr 5:30-19:00; Sa 6:00-19:00; Su 6:00-18:00", "brand": "Woods Coffee", "brand:wikidata": "Q8033255"}},
{"type": "Feature", "id": "9jGZMEpai6rsE_XDrIn3ZC8jv8I=", "properties": {"ref": "Railroad", "@spider": "woods_coffee", "addr:full": "1135 Railroad Ave.", "addr:city": "Bellingham", "addr:state": "WA", "addr:postcode": "98225", "addr:country": "USA", "name": "Railroad", "phone": "(360)306-8291", "website": "https://woodscoffee.com/locations/bellingham/railroad/", "opening_hours": "Mo-Su 6:30-17:00", "brand": "Woods Coffee", "brand:wikidata": "Q8033255"}}]}