{"type":"FeatureCollection","features":[{"type": "Feature", "id": "gMYFKfXyNxFwGud2bDsq-ZQNQGc=", "properties": {"ref": "19979", "@spider": "wyndham", "addr:full": "Provincial Route 6, 1.7 km ", "addr:city": "Almafuerte", "addr:postcode": "5854", "addr:country": "AR", "name": "Howard Johnson by Wyndham Piedras Moras", "phone": "+54-3571-500333", "website": "https://www.wyndhamhotels.com/hojo/almafuerte-argentina/howard-johnson-piedras-moras/overview", "brand": "Hojo"}, "geometry": {"type": "Point", "coordinates": [-64.254349, -32.184849]}},
{"type": "Feature", "id": "sg4LvoXBZ5fWTn58Y56Ix9l20Qs=", "properties": {"ref": "51070", "@spider": "wyndham", "addr:full": "Av Las Heras 2161 ", "addr:city": "Buenos Aires", "addr:postcode": "01127", "addr:country": "AR", "name": "Dazzler by Wyndham Buenos Aires Recoleta", "phone": "+54-112-0585556", "website": "https://www.wyndhamhotels.com/dazzler/buenos-aires-argentina/dazzler-recoleta/overview", "brand": "Fenn"}, "geometry": {"type": "Point", "coordinates": [-58.39551, -34.58872]}},
{"type": "Feature", "id": "WW6XqwhvTjJfVDGhIhCvQUU8lYU=", "properties": {"ref": "51073", "@spider": "wyndham", "addr:full": "San Martin 780 ", "addr:city": "Buenos Aires", "addr:postcode": "01004", "addr:country": "AR", "name": "Esplendor by Wyndham Buenos Aires", "phone": "+54-11-52568800", "website": "https://www.wyndhamhotels.com/esplendor/buenos-aires-argentina/hotel-esplendor-buenos-aires/overview", "brand": "Fenn"}, "geometry": {"type": "Point", "coordinates": [-58.37432, -34.598675]}},
{"type": "Feature", "id": "7erdbzXYy7qO3luap-kktwH0BZE=", "properties": {"ref": "51082", "@spider": "wyndham", "addr:full": "Sinclair 2929 ", "addr:city": "Buenos Aires", "addr:postcode": "C1425FRA", "addr:country": "AR", "name": "Dazzler by Wyndham Buenos Aires Polo", "phone": "+54-11-70915100", "website": "https://www.wyndhamhotels.com/dazzler/buenos-aires-argentina/dazzler-polo-hotel-buenos-aires/overview", "brand": "Fenn"}, "geometry": {"type": "Point", "coordinates": [-58.423941, -34.576161]}},
{"type": "Feature", "id": "c1qg5rQtg25kbqz4t4NsVV_yqGI=", "properties": {"ref": "51081", "@spider": "wyndham", "addr:full": "Humboldt 1650 ", "addr:city": "Buenos Aires", "addr:postcode": "01414", "addr:country": "AR", "name": "Dazzler by Wyndham Buenos Aires Palermo", "phone": "+54-114-7771100", "website": "https://www.wyndhamhotels.com/dazzler/buenos-aires-argentina/dazzler-palermo-buenos-aires/overview", "brand": "Fenn"}, "geometry": {"type": "Point", "coordinates": [-58.43586, -34.58521]}},
{"type": "Feature", "id": "2mgyTyK1ecMWWVSNoLX4vCRXp8o=", "properties": {"ref": "56598", "@spider": "wyndham", "addr:full": "Avenida San Martin 6101 ", "addr:city": "Buenos Aires", "addr:postcode": "01419", "addr:country": "AR", "name": "Days Inn by Wyndham Devoto", "phone": "+54-11-21502590", "website": "https://www.wyndhamhotels.com/days-inn/buenos-aires-argentina/days-inn-devoto/overview", "brand": "Days Inn"}, "geometry": {"type": "Point", "coordinates": [-58.501743, -34.594918]}},
{"type": "Feature", "id": "MgbjMwqW5c5l4PPyIZykraPa4iw=", "properties": {"ref": "50542", "@spider": "wyndham", "addr:full": "Lima 653 ", "addr:city": "Buenos Aires", "addr:postcode": "C1073AAM", "addr:country": "AR", "name": "Howard Johnson Plaza by Wyndham Buenos Aires", "phone": "+54-0810-1224656", "website": "https://www.wyndhamhotels.com/hojo/buenos-aires-argentina/howard-johnson-plaza-buenos-aires/overview", "brand": "Hojo"}, "geometry": {"type": "Point", "coordinates": [-58.38165, -34.61592]}},
{"type": "Feature", "id": "VH32HPbw52oBKV3jvjyEUShm-ZU=", "properties": {"ref": "15428", "@spider": "wyndham", "addr:full": "680 2nd Street Southeast ", "addr:city": "Drumheller", "addr:state": "AB", "addr:postcode": "T0J 0Y0", "addr:country": "CA", "name": "Ramada by Wyndham Drumheller Hotel & Suites", "phone": "+1-403-823-2028", "website": "https://www.wyndhamhotels.com/ramada/drumheller-alberta/ramada-inn-and-suites-drumheller-ab/overview", "brand": "Ramada"}, "geometry": {"type": "Point", "coordinates": [-112.703687, 51.458419]}},
{"type": "Feature", "id": "XQ3sSURlovCJa3cIM1luREosDXg=", "properties": {"ref": "55327", "@spider": "wyndham", "addr:full": "Avenida Rivadavia 947 ", "addr:city": "Buenos Aires", "addr:postcode": "C 1002 AAH", "addr:country": "AR", "name": "Esplendor by Wyndham Buenos Aires Tango", "phone": "+54-11-41216700", "website": "https://www.wyndhamhotels.com/esplendor/buenos-aires-argentina/esplendor-buenos-aires-tango/overview", "brand": "Fenn"}, "geometry": {"type": "Point", "coordinates": [-58.379876, -34.60817]}},
{"type": "Feature", "id": "jrVQ3v50bAYvBZlFEyxRkpVN8gc=", "properties": {"ref": "51080", "@spider": "wyndham", "addr:full": "Eduardo Schiaffino 2189 ", "addr:city": "Buenos Aires", "addr:postcode": "01129", "addr:country": "AR", "name": "Esplendor by Wyndham Buenos Aires Plaza Francia", "phone": "+54-4114-8049094", "website": "https://www.wyndhamhotels.com/esplendor/buenos-aires-argentina/esplendor-buenos-aires-plaza-francia/overview", "brand": "Fenn"}, "geometry": {"type": "Point", "coordinates": [-58.388815, -34.584358]}},
{"type": "Feature", "id": "8J-EAneQpvJNQ5fWbyLm4om_YCw=", "properties": {"ref": "54446", "@spider": "wyndham", "addr:full": "Paraguay 857 ", "addr:city": "Buenos Aires", "addr:postcode": "C1057AAK", "addr:country": "AR", "name": "Ramada by Wyndham Buenos Aires Centro", "phone": "+54-11-43138271", "website": "https://www.wyndhamhotels.com/ramada/buenos-aires-argentina/ramada-by-wyndham-buenos-aires-centro/overview", "brand": "Ramada"}, "geometry": {"type": "Point", "coordinates": [-58.379206, -34.597635]}},
{"type": "Feature", "id": "9ZVmptiRxj2YlKqld895urlIKwQ=", "properties": {"ref": "51069", "@spider": "wyndham", "addr:full": "Maipu 856 ", "addr:city": "Buenos Aires", "addr:postcode": "C1006CL", "addr:country": "AR", "name": "Dazzler by Wyndham Buenos Aires Maipu", "phone": "+54-115-2794050", "website": "https://www.wyndhamhotels.com/dazzler/buenos-aires-argentina/dazzler-maipu/overview", "brand": "Fenn"}, "geometry": {"type": "Point", "coordinates": [-58.37704, -34.598172]}},
{"type": "Feature", "id": "lZzFyB4OXsJ0NXQ_E9EM-os4TfE=", "properties": {"ref": "53519", "@spider": "wyndham", "addr:full": "Jean Jaure 896 ", "addr:city": "Buenos Aires", "addr:postcode": "01215", "addr:country": "AR", "name": "Howard Johnson by Wyndham Hotel Abasto", "phone": "+54-011-52925100", "website": "https://www.wyndhamhotels.com/hojo/buenos-aires-argentina/howard-johnson-hotel-abasto/overview", "brand": "Hojo"}, "geometry": {"type": "Point", "coordinates": [-58.409641, -34.59968]}},
{"type": "Feature", "id": "09crSNOt6TqOEM6uFgvfVqbz26Y=", "properties": {"ref": "51068", "@spider": "wyndham", "addr:full": "San Martin 920 Capital Federal", "addr:city": "Buenos Aires", "addr:postcode": "01004", "addr:country": "AR", "name": "Dazzler by Wyndham Buenos Aires San Martin", "phone": "+54-11-52567700", "website": "https://www.wyndhamhotels.com/dazzler/buenos-aires-argentina/dazzler-san-martin/overview", "brand": "Fenn"}, "geometry": {"type": "Point", "coordinates": [-58.37373, -34.596794]}},
{"type": "Feature", "id": "ZonLEZ7CjdAy_LjFPZI4SUW5AYc=", "properties": {"ref": "19490", "@spider": "wyndham", "addr:full": "198 Av Velez Sarfiel ", "addr:city": "Alta Gracia", "addr:postcode": "X5186JDD", "addr:country": "AR", "name": "Howard Johnson by Wyndham Sierras Hotel and Casino", "phone": "+54-354-7433894", "website": "https://www.wyndhamhotels.com/hojo/alta-gracia-argentina/howard-johnson-sierras-hotel-and-casino/overview", "brand": "Hojo"}, "geometry": {"type": "Point", "coordinates": [-64.439578, -31.653628]}},
{"type": "Feature", "id": "j_DYNxl74OyszSbPhDiMDsMVSrU=", "properties": {"ref": "48003", "@spider": "wyndham", "addr:full": "Bernardo De Irigoyen 432 ", "addr:city": "Buenos Aires", "addr:postcode": "01072", "addr:country": "AR", "name": "Howard Johnson by Wyndham 9 De Julio Avenue", "phone": "+54-541-152229000", "website": "https://www.wyndhamhotels.com/hojo/buenos-aires-argentina/howard-johnson-9-de-julio-avenue/overview", "brand": "Hojo"}, "geometry": {"type": "Point", "coordinates": [-58.380283, -34.613449]}},
{"type": "Feature", "id": "2h3HQrt-btA7dWbB3VkKwz4HTWA=", "properties": {"ref": "39490", "@spider": "wyndham", "addr:full": "26 Strathmoor Drive ", "addr:city": "Sherwood Park", "addr:state": "AB", "addr:postcode": "T8H 2B6", "addr:country": "CA", "name": "Super 8 by Wyndham Sherwood Park/Edmonton Area", "phone": "+1-780-464-1000", "website": "https://www.wyndhamhotels.com/super-8/sherwood-park-alberta/super-8-sherwood-park-edmonton-area/overview", "brand": "Super8"}, "geometry": {"type": "Point", "coordinates": [-113.321574, 53.565772]}},
{"type": "Feature", "id": "vMkzT41vPnn9IaMFwvwT0QQEGA8=", "properties": {"ref": "45953", "@spider": "wyndham", "addr:full": "Niceto Vega 5832 ", "addr:city": "Buenos Aires", "addr:postcode": "01414", "addr:country": "AR", "name": "Howard Johnson by Wyndham Inn Palermo", "phone": "+54-911-21887000", "website": "https://www.wyndhamhotels.com/hojo/buenos-aires-argentina/howard-johnson-inn-palermo/overview", "brand": "Hojo"}, "geometry": {"type": "Point", "coordinates": [-58.442116, -34.584959]}},
{"type": "Feature", "id": "hySSAGDnGnHC7NAX3NkIH7hXnzk=", "properties": {"ref": "07185", "@spider": "wyndham", "addr:full": "2649 Highway 97 North ", "addr:city": "Kelowna", "addr:state": "BC", "addr:postcode": "V1X 4J6", "addr:country": "CA", "name": "Days Inn by Wyndham Kelowna", "phone": "+1-250-868-3297", "website": "https://www.wyndhamhotels.com/days-inn/kelowna-british-columbia/days-inn-kelowna/overview", "brand": "Days Inn"}, "geometry": {"type": "Point", "coordinates": [-119.415503, 49.894204]}},
{"type": "Feature", "id": "A0O7ZruCVPo-Vflpkgkbgl25BuI=", "properties": {"ref": "54078", "@spider": "wyndham", "addr:full": "1821 Sumas Way ", "addr:city": "Abbotsford", "addr:state": "BC", "addr:postcode": "V2S 4L5", "addr:country": "CA", "name": "Travelodge by Wyndham Abbotsford Bakerview", "phone": "+1-604-859-1341", "website": "https://www.wyndhamhotels.com/travelodge/abbotsford-british-columbia/travelodge-abbotsford-bakerview/overview", "brand": "Travelodge"}, "geometry": {"type": "Point", "coordinates": [-122.26767, 49.0353]}},
{"type": "Feature", "id": "r3ZVcq-Zr0HaGTXx4BwBxP7aYr0=", "properties": {"ref": "54132", "@spider": "wyndham", "addr:full": "240 St Matthews Avenue ", "addr:city": "Spruce Grove", "addr:state": "AB", "addr:postcode": "T7X 3B4", "addr:country": "CA", "name": "Super 8 by Wyndham Spruce Grove", "phone": "+1-780-851-1681", "website": "https://www.wyndhamhotels.com/super-8/spruce-grove-alberta/super-8-spruce-grove/overview", "brand": "Super8"}, "geometry": {"type": "Point", "coordinates": [-113.9, 53.54]}},
{"type": "Feature", "id": "PAvsJUbTzOnS7lr8J3tkb5cS9RI=", "properties": {"ref": "06636", "@spider": "wyndham", "addr:full": "31 Broadway Blvd ", "addr:city": "Sherwood Park", "addr:state": "AB", "addr:postcode": "T8H 2A2", "addr:country": "CA", "name": "Ramada by Wyndham Sherwood Park", "phone": "+1-780-467-6727", "website": "https://www.wyndhamhotels.com/ramada/sherwood-park-alberta/ramada-edmonton-east-sherwood-park/overview", "brand": "Ramada"}, "geometry": {"type": "Point", "coordinates": [-113.318031, 53.544796]}},
{"type": "Feature", "id": "NnKMrIV_Ol-KUiGr3RL36-XfIrQ=", "properties": {"ref": "54929", "@spider": "wyndham", "addr:full": "5420 49th Avenue ", "addr:city": "Whitecourt", "addr:state": "AB", "addr:postcode": "T7S1P3", "addr:country": "CA", "name": "Ramada by Wyndham Whitecourt", "phone": "+1-780-833-2726", "website": "https://www.wyndhamhotels.com/ramada/whitecourt-alberta/ramada-whitecourt/overview", "brand": "Ramada"}, "geometry": {"type": "Point", "coordinates": [-115.696006, 54.138984]}},
{"type": "Feature", "id": "lxxx-n_ihDppB5lrumMijjVR4XU=", "properties": {"ref": "19996", "@spider": "wyndham", "addr:full": "26 Duke Street ", "addr:city": "Campbellton", "addr:state": "NB", "addr:postcode": "E3N 2K3", "addr:country": "CA", "name": "Super 8 by Wyndham Campbellton NB", "phone": "+1-506-753-8080", "website": "https://www.wyndhamhotels.com/super-8/campbellton-new-brunswick/super-8-campbellton-nb/overview", "brand": "Super8"}, "geometry": {"type": "Point", "coordinates": [-66.680161, 48.002697]}},
{"type": "Feature", "id": "uTc0-H2W2f9dFJZ4G6VUSK5wOPk=", "properties": {"ref": "04465", "@spider": "wyndham", "addr:full": "160 Stewart Blvd ", "addr:city": "Brockville", "addr:state": "ON", "addr:postcode": "K6V 4W6", "addr:country": "CA", "name": "Days Inn by Wyndham Brockville", "phone": "+1-613-704-1335", "website": "https://www.wyndhamhotels.com/days-inn/brockville-ontario/days-inn-brockville/overview", "brand": "Days Inn"}, "geometry": {"type": "Point", "coordinates": [-75.699076, 44.59873]}},
{"type": "Feature", "id": "Fu49OeLq0y5wQMtvrxmnRev1Wxg=", "properties": {"ref": "11309", "@spider": "wyndham", "addr:full": "718 Lakeshore Drive ", "addr:city": "North Bay", "addr:state": "ON", "addr:postcode": "P1A 2G4", "addr:country": "CA", "name": "Travelodge by Wyndham North Bay", "phone": "+1-705-980-0264", "website": "https://www.wyndhamhotels.com/travelodge/north-bay-ontario/travelodge-north-bay/overview", "brand": "Travelodge"}, "geometry": {"type": "Point", "coordinates": [-79.4354, 46.265589]}},
{"type": "Feature", "id": "OKMlE1_HUD-y78QKFVqoC1_sAFY=", "properties": {"ref": "50844", "@spider": "wyndham", "addr:full": "1515 3E Avenue ", "addr:city": "Val-d Or", "addr:state": "QC", "addr:postcode": "J9P 4N5", "addr:country": "CA", "name": "Microtel Inn & Suites by Wyndham Val-d Or", "phone": "+1-819-825-4444", "website": "https://www.wyndhamhotels.com/microtel/val-d-or-quebec/microtel-inn-and-suites-val-d-or/overview", "brand": "Microtel Inn"}, "geometry": {"type": "Point", "coordinates": [-77.808643, 48.101579]}},
{"type": "Feature", "id": "XwymNVVmVqihZMJn6NwTrZX-A10=", "properties": {"ref": "53520", "@spider": "wyndham", "addr:full": "NO. 555 West Road  East Hilloc ", "addr:city": "LanZhou", "addr:postcode": "730000", "addr:country": "CN", "name": "Wyndham LanZhou HaiYue", "phone": "+86-931-8855555", "website": "https://www.wyndhamhotels.com/wyndham/lanzhou-china/wyndham-lanzhou-haiyue/overview", "brand": "Wyndham"}, "geometry": {"type": "Point", "coordinates": [103.85, 36.05]}},
{"type": "Feature", "id": "uIH3yYJ2y_Haex4ZEIA2tHkm5Ag=", "properties": {"ref": "47446", "@spider": "wyndham", "addr:full": "Northern Part of Hiang He St ", "addr:city": "Kaifeng", "addr:postcode": "475004", "addr:country": "CN", "name": "Super 8 by Wyndham Kaifeng Huang He Lu", "phone": "+86-400-1840018", "website": "https://www.wyndhamhotels.com/super-8/kaifeng-china/super-8-kaifeng-huang-he-lu/overview", "brand": "Super8"}, "geometry": {"type": "Point", "coordinates": [114.330103, 34.81427]}},
{"type": "Feature", "id": "rHi7VYa9OfzyXeZEhbTR9-7Dj7w=", "properties": {"ref": "50036", "@spider": "wyndham", "addr:full": "229-233 Nanqu Grdn Community Jingkai District Sichuan.", "addr:city": "Mianyang", "addr:postcode": "621000", "addr:country": "CN", "name": "Super 8 by Wyndham Mianyang Nanjiao Airport Chuan Yin", "phone": "+86-400-1840018", "website": "https://www.wyndhamhotels.com/super-8/mianyang-china/super-8-hotel-mianyang-nanjiao-airport-chuan-yin/overview", "brand": "Super8"}, "geometry": {"type": "Point", "coordinates": [104.756505, 31.431401]}},
{"type": "Feature", "id": "QrRFE3dRobX0sjb9dh65avcdgVM=", "properties": {"ref": "55808", "@spider": "wyndham", "addr:full": "Chuanshihu Avenue Lianjie Town", "addr:city": "Neijiang City", "addr:postcode": "642469", "addr:country": "CN", "name": "Howard Johnson by Wyndham Lake Serenity Hotel Neijiang", "phone": "+86-832-8831888", "website": "https://www.wyndhamhotels.com/hojo/neijiang-city-china/howard-johnson-lake%20serenity-hotel-neijiang/overview", "brand": "Hojo"}, "geometry": {"type": "Point", "coordinates": [104.4802, 29.70948]}},
{"type": "Feature", "id": "RHEFXlbjF-Z4F_Q2GSacn7WfUlM=", "properties": {"ref": "49631", "@spider": "wyndham", "addr:full": "DaAn Road, High Tech Industrial Development Zone", "addr:city": "Liuyang", "addr:postcode": "410323", "addr:country": "CN", "name": "Ramada Plaza by Wyndham Changsha East", "phone": "+86-0731-81889999", "website": "https://www.wyndhamhotels.com/ramada/liuyang-china/ramada-plaza-changsha-east/overview", "brand": "Ramada"}, "geometry": {"type": "Point", "coordinates": [113.629189, 28.144081]}},
{"type": "Feature", "id": "4sozo_eeoTNvaxV9RKMzdCMd-3M=", "properties": {"ref": "47055", "@spider": "wyndham", "addr:full": "Wang Zhuang Road Lanshan District", "addr:city": "Linyi", "addr:postcode": "276000", "addr:country": "CN", "name": "Super 8 by Wyndham Linyi Bus Terminal", "phone": "+86-400-1840018", "website": "https://www.wyndhamhotels.com/super-8/linyi-china/super-8-linyi-bus-terminal/overview", "brand": "Super8"}, "geometry": {"type": "Point", "coordinates": [118.312165, 35.105129]}},
{"type": "Feature", "id": "2Ec_dvHbhtuTMg7OwP1-KhHWSUk=", "properties": {"ref": "49461", "@spider": "wyndham", "addr:full": "Xiangyan Road, Nanjing Lukou International Arprt Jiangning", "addr:city": "Nanjing", "addr:postcode": "211113", "addr:country": "CN", "name": "Ramada by Wyndham Nanjing", "phone": "+86-25-52482888", "website": "https://www.wyndhamhotels.com/ramada/nanjing-china/ramada-nanjing/overview", "brand": "Ramada"}, "geometry": {"type": "Point", "coordinates": [118.738024, 32.051071]}},
{"type": "Feature", "id": "PTpKS26sktcNkG1s-1zseO-YEsw=", "properties": {"ref": "50655", "@spider": "wyndham", "addr:full": "Intersection of Xuehai Road and Nanhu Nan Road", "addr:city": "Mengzi", "addr:postcode": "661199", "addr:country": "CN", "name": "Ramada by Wyndham Mengzi Suites", "phone": "+86-873-8853888", "website": "https://www.wyndhamhotels.com/ramada/mengzi-china/ramada-mengzi-suites/overview", "brand": "Ramada"}, "geometry": {"type": "Point", "coordinates": [103.40187, 23.35954]}},
{"type": "Feature", "id": "RO-7q8y8epA-cqU3t5odablQEHk=", "properties": {"ref": "45907", "@spider": "wyndham", "addr:full": "46 of Jie Fang Road Baixia District", "addr:city": "Nanjing", "addr:country": "CN", "name": "Super 8 by Wyndham Nanjing Jie Fang Lu", "phone": "+86-400-1840018", "website": "https://www.wyndhamhotels.com/super-8/nanjing-china/super-8-hotel-nanjing-jie-fang-lu/overview", "brand": "Super8"}, "geometry": {"type": "Point", "coordinates": [118.81613, 32.040404]}},
{"type": "Feature", "id": "FfqeGU0OUHFRoa5dyTe1UxTqTZw=", "properties": {"ref": "45604", "@spider": "wyndham", "addr:full": "Han Dong Avenue Complex Building 2", "addr:city": "Putian", "addr:postcode": "351111", "addr:country": "CN", "name": "Super 8 by Wyndham Putian Hanjiang Shang Ye Cheng", "phone": "+86-4001-840018", "website": "https://www.wyndhamhotels.com/super-8/putian-china/super-8-hotel-putian-hanjiang-shang-ye-cheng/overview", "brand": "Super8"}, "geometry": {"type": "Point", "coordinates": [119.100466, 25.460034]}},
{"type": "Feature", "id": "bIGz3BdLRI6Z9QhRm9eG2kIdPz4=", "properties": {"ref": "46624", "@spider": "wyndham", "addr:full": "Bld 4 Lin Mei Garden Yimin St Anxi County", "addr:city": "Quanzhou", "addr:country": "CN", "name": "Super 8 by Wyndham Quanzhou An Xi Long Hu", "phone": "+86-400-1840018", "website": "https://www.wyndhamhotels.com/super-8/quanzhou-china/super-8-quanzhou-an-xi-long-hu/overview", "brand": "Super8"}, "geometry": {"type": "Point", "coordinates": [118.580521, 24.91197]}},
{"type": "Feature", "id": "wqEvSzSK2UzRO9RfVvbm6Q3R8-0=", "properties": {"ref": "49889", "@spider": "wyndham", "addr:full": "13 Jianshe East Road Dongchangfu District", "addr:city": "Shandong Province", "addr:postcode": "252002", "addr:country": "CN", "name": "Super 8 by Wyndham Liaocheng Jian She Dong Lu", "phone": "+86-4001-40018", "website": "https://www.wyndhamhotels.com/super-8/shandong-province-china/super-8-liaocheng-jian-she-dong-lu/overview", "brand": "Super8"}, "geometry": {"type": "Point", "coordinates": [116.011891, 36.479017]}},
{"type": "Feature", "id": "to7lUTYqMj8HXLqOBFxq2kD2T1g=", "properties": {"ref": "49787", "@spider": "wyndham", "addr:full": "12 Building 68 Qiu 7 Area 1 South Tuan Jie Road", "addr:city": "Qitai", "addr:country": "CN", "name": "Super 8 by Wyndham Qitai Tuan Jie Nan Lu", "phone": "+86-4001-840018", "website": "https://www.wyndhamhotels.com/super-8/qitai-china/super-8-hotel-qitai-tuan-jie-nan-lu/overview", "brand": "Super8"}, "geometry": {"type": "Point", "coordinates": [89.580288, 43.993207]}},
{"type": "Feature", "id": "Hx7ZA6MddscEYLQ36dPZYuttZTY=", "properties": {"ref": "45570", "@spider": "wyndham", "addr:full": "No 326 Changjiang East Road Economic/Tech Development Zone", "addr:city": "Qingdao", "addr:postcode": "266500", "addr:country": "CN", "name": "Super 8 by Wyndham Qingdao Gold Beach Chang Jiang Lu", "phone": "+86-400-1840018", "website": "https://www.wyndhamhotels.com/super-8/qingdao-china/super-8-hotel-qingdao-gold-beach-chang-jiang-lu/overview", "brand": "Super8"}, "geometry": {"type": "Point", "coordinates": [120.232401, 35.970009]}},
{"type": "Feature", "id": "DxaVfMv9ZOqFIaIa4iCqJVgOqR4=", "properties": {"ref": "25418", "@spider": "wyndham", "addr:full": "9 Longbow Avenue Boao Town ", "addr:city": "Qionghai", "addr:postcode": "571434", "addr:country": "CN", "name": "Ramada Hotel & Suites by Wyndham Boao", "phone": "+86-898-62770000", "website": "https://www.wyndhamhotels.com/ramada/qionghai-china/ramada-hotel-and-suites-boao/overview", "brand": "Ramada"}, "geometry": {"type": "Point", "coordinates": [110.462036, 19.24325]}},
{"type": "Feature", "id": "Q4NSAX7UgJr-D68MLu4COzA5fKo=", "properties": {"ref": "46740", "@spider": "wyndham", "addr:full": "391 Hengshan West Rd. Xin Qi Avenue", "addr:city": "Ningbo", "addr:postcode": "315800", "addr:country": "CN", "name": "Super 8 by Wyndham Ningbo Bei Lun Heng Shan Xi Lu", "phone": "+86-400-6038888", "website": "https://www.wyndhamhotels.com/super-8/ningbo-china/super-8-wyndham-ningbo-bei-lun-heng-shan-xi-lu/overview", "brand": "Super8"}, "geometry": {"type": "Point", "coordinates": [121.83015, 29.919826]}},
{"type": "Feature", "id": "jXjJ4ZekpZmvsgSEsKfBYcex8-s=", "properties": {"ref": "49904", "@spider": "wyndham", "addr:full": "Shaoyang Avenue Xinjua South Road", "addr:city": "Shaoyang", "addr:postcode": "4220000", "addr:country": "CN", "name": "Wyndham Grand Plaza Royale Xianglin Shaoyang", "phone": "+86-0739-8888888", "website": "https://www.wyndhamhotels.com/wyndham-grand/shaoyang-china/wyndham-grand-plaza-royale-xianglin-shaoyang/overview", "brand": "Wyndham"}, "geometry": {"type": "Point", "coordinates": [111.530719, 27.239071]}},
{"type": "Feature", "id": "CHeArLCeWC6_KJhU3AW6XdJuJhw=", "properties": {"ref": "47578", "@spider": "wyndham", "addr:full": "No. 118 Minsheng West Road Shandong", "addr:city": "Weifang", "addr:postcode": "261000", "addr:country": "CN", "name": "Ramada Plaza by Wyndham Weifang", "phone": "+86-536-8086666", "website": "https://www.wyndhamhotels.com/ramada/weifang-china/ramada-plaza-weifang/overview", "brand": "Ramada"}, "geometry": {"type": "Point", "coordinates": [119.090508, 36.70248]}},
{"type": "Feature", "id": "0gsGLXNGiXnqYeGjqOOUKSvrgKI=", "properties": {"ref": "49067", "@spider": "wyndham", "addr:full": "No. 3 4 and Lobby on Ground fl Jia Hong Hua Yuan", "addr:city": "Wenzhou", "addr:country": "CN", "name": "Super 8 by Wyndham Wenzhou Xue Yuan Dong Lu", "phone": "+86-0018-40018", "website": "https://www.wyndhamhotels.com/super-8/wenzhou-china/super-8-hotel-wenzhou-xue-yuan-dong-lu/overview", "brand": "Super8"}, "geometry": {"type": "Point", "coordinates": [120.714469, 28.010619]}},
{"type": "Feature", "id": "0E4zAYq-5_VSBvijwJK6NB3xnYU=", "properties": {"ref": "15306", "@spider": "wyndham", "addr:full": "Vaclavske Namesti 820 41 ", "addr:city": "Prague", "addr:postcode": "11000", "addr:country": "CZ", "name": "Ramada by Wyndham Prague City Centre", "phone": "+420-221-454111", "website": "https://www.wyndhamhotels.com/ramada/prague-czech-republic/ramada-prague-city-centre/overview", "brand": "Ramada"}, "geometry": {"type": "Point", "coordinates": [14.428396, 50.081696]}},
{"type": "Feature", "id": "zO8tPSDHmP-W4tCjNaNpMeoM7Oo=", "properties": {"ref": "48606", "@spider": "wyndham", "addr:full": "South Jian She Street Yuzhou Town", "addr:city": "Zhangjiakou", "addr:country": "CN", "name": "Super 8 by Wyndham Zhangjiakou Yu County Jian She Da Jie", "phone": "+86-10-85502288", "website": "https://www.wyndhamhotels.com/super-8/zhangjiakou-china/super-8-hotel-zhangjiakou-yu-county-jian-she-da-jie/overview", "brand": "Super8"}, "geometry": {"type": "Point", "coordinates": [114.597402, 39.84811]}},
{"type": "Feature", "id": "R2PkQwku7-Ez7xJytLymnE-KX94=", "properties": {"ref": "11160", "@spider": "wyndham", "addr:full": "Alemania E5 103 y Av Republica ", "addr:city": "Quito", "addr:postcode": "17-21-409", "addr:country": "EC", "name": "Wyndham Garden Quito", "phone": "+593-2226-5265", "website": "https://www.wyndhamhotels.com/wyndham-garden/quito-ecuador/wyndham-garden-quito/overview", "brand": "Wyndham"}, "geometry": {"type": "Point", "coordinates": [-78.489933, -0.186038]}},
{"type": "Feature", "id": "wTC2Gg2jMWZdWbk9bnDP3wFhu6M=", "properties": {"ref": "48923", "@spider": "wyndham", "addr:full": "Parroquia Tababela SN Via A Yaruqui", "addr:city": "Quito", "addr:postcode": "EC170183", "addr:country": "EC", "name": "Wyndham Quito Airport", "phone": "+593-2395-8000", "website": "https://www.wyndhamhotels.com/wyndham/quito-ecuador/wyndham-quito-airport/overview", "brand": "Wyndham"}, "geometry": {"type": "Point", "coordinates": [-78.359492, -0.132866]}},
{"type": "Feature", "id": "homI8vvDdAaOjTtizYpj2gGHbn8=", "properties": {"ref": "47148", "@spider": "wyndham", "addr:full": "Amsinckstrasse 39 41 ", "addr:city": "Hamburg", "addr:postcode": "20097", "addr:country": "DE", "name": "HYPERION Hamburg", "phone": "+49-40-4142000", "website": "https://www.wyndhamhotels.com/trademark/hamburg-germany/hyperion-hamburg/overview", "brand": "Trademark"}, "geometry": {"type": "Point", "coordinates": [10.01402, 53.54773]}},
{"type": "Feature", "id": "9BzLvevaSKWAX2JzHMD3UXYHg9I=", "properties": {"ref": "54931", "@spider": "wyndham", "addr:full": "Sector La Via Punta Olon ", "addr:city": "MONTANITA", "addr:postcode": "241702", "addr:country": "EC", "name": "Howard Johnson by Wyndham Montanita", "phone": "+593-99-1898542", "website": "https://www.wyndhamhotels.com/hojo/montanita-ecuador/howard-johnson-montanita/overview", "brand": "Hojo"}, "geometry": {"type": "Point", "coordinates": [-80.75766, -1.81861]}},
{"type": "Feature", "id": "_6n_Bbkm83XaqyupJU1UeXChVhA=", "properties": {"ref": "47715", "@spider": "wyndham", "addr:full": "Opernplatz 2 ", "addr:city": "Duisburg", "addr:postcode": "47051", "addr:country": "DE", "name": "Wyndham Duisburger Hof", "phone": "+49-203-30070", "website": "https://www.wyndhamhotels.com/wyndham/duisburg-germany/wyndham-duisburger-hof/overview", "brand": "Wyndham"}, "geometry": {"type": "Point", "coordinates": [6.771369, 51.434438]}},
{"type": "Feature", "id": "ySAv5LLkEentDbduTX_6V7qSJCo=", "properties": {"ref": "50770", "@spider": "wyndham", "addr:full": "Antonstrasse 43 ", "addr:city": "Dresden", "addr:postcode": "01097", "addr:country": "DE", "name": "Super 8 by Wyndham Dresden", "phone": "+49-351-2508880", "website": "https://www.wyndhamhotels.com/super-8/dresden-germany/super-8-by-wyndham-dresden/overview", "brand": "Super8"}, "geometry": {"type": "Point", "coordinates": [13.736615, 51.062757]}},
{"type": "Feature", "id": "OCz1DyGR9dM-flYBdBtcmK_IBbE=", "properties": {"ref": "71219", "@spider": "wyndham", "addr:full": "Wilhelm-Franke-Strasse 90 ", "addr:city": "Dresden", "addr:postcode": "01219", "addr:country": "DE", "name": "Ramada by Wyndham Dresden", "phone": "+49-351-47820", "website": "https://www.wyndhamhotels.com/ramada/dresden-germany/ramada-dresden/overview", "brand": "Ramada"}, "geometry": {"type": "Point", "coordinates": [13.768138, 51.008179]}},
{"type": "Feature", "id": "kXUGgVAUAm8DTadLhvKIlEqe76s=", "properties": {"ref": "15717", "@spider": "wyndham", "addr:full": "Holzhude 2 ", "addr:city": "Hamburg", "addr:postcode": "21029", "addr:country": "DE", "name": "H4 Hamburg-Bergedorf", "phone": "+49-40-725950", "website": "https://www.wyndhamhotels.com/trademark/hamburg-germany/h4-hamburg-bergedorf/overview", "brand": "Trademark"}, "geometry": {"type": "Point", "coordinates": [10.20938, 53.48657]}},
{"type": "Feature", "id": "Mpt3hYnxHEsxKXkYyj7GF_6Tzok=", "properties": {"ref": "47278", "@spider": "wyndham", "addr:full": "Karl Wiechert Allee 68 ", "addr:city": "Hannover", "addr:postcode": "30625", "addr:country": "DE", "name": "Wyndham Hannover Atrium", "phone": "+49-511-54070", "website": "https://www.wyndhamhotels.com/wyndham/hannover-germany/wyndham-hannover-atrium/overview", "brand": "Wyndham"}, "geometry": {"type": "Point", "coordinates": [9.795213, 52.393147]}},
{"type": "Feature", "id": "_GtrUafRpJgg3JzlB_V_EOpNHhY=", "properties": {"ref": "51307", "@spider": "wyndham", "addr:full": "Schlossstrasse 16 ", "addr:city": "Dresden", "addr:postcode": "01067", "addr:country": "DE", "name": "HYPERION Dresden", "phone": "+49-351-501200", "website": "https://www.wyndhamhotels.com/trademark/dresden-germany/hyperion-dresden/overview", "brand": "Trademark"}, "geometry": {"type": "Point", "coordinates": [13.737717, 51.052914]}},
{"type": "Feature", "id": "Gfa13k6j7wVfQbnjFM-qBguPwuc=", "properties": {"ref": "15712", "@spider": "wyndham", "addr:full": "Casteller Strasse 106 ", "addr:city": "Hofheim- Diedenbergen", "addr:postcode": "65719", "addr:country": "DE", "name": "H+ Frankfurt Airport West", "phone": "+49-6192-9500", "website": "https://www.wyndhamhotels.com/trademark/hofheim-diedenbergen-germany/hplus-frankfurt-airport-west/overview", "brand": "Trademark"}, "geometry": {"type": "Point", "coordinates": [8.409841, 50.0578]}},
{"type": "Feature", "id": "0d6myijevKAEVXHoxNO4JyBN2vo=", "properties": {"ref": "47276", "@spider": "wyndham", "addr:full": "Obere Konigsstrasse 2 ", "addr:city": "Kassel", "addr:postcode": "34117", "addr:country": "DE", "name": "Days Inn by Wyndham Kassel Hessenland", "phone": "+49-561-91810", "website": "https://www.wyndhamhotels.com/days-inn/kassel-germany/days-inn-kassel-hessenland/overview", "brand": "Days Inn"}, "geometry": {"type": "Point", "coordinates": [9.491207, 51.311578]}},
{"type": "Feature", "id": "X9RHEe833v3FggsDSHlAj0ITy1c=", "properties": {"ref": "15723", "@spider": "wyndham", "addr:full": "Kreuzstrasse 99 ", "addr:city": "Huerth Koeln", "addr:postcode": "50354", "addr:country": "DE", "name": "H+ Koeln-Huerth", "phone": "+49-22-3394400", "website": "https://www.wyndhamhotels.com/trademark/huerth-koeln-germany/hplus-koeln-huerth/overview", "brand": "Trademark"}, "geometry": {"type": "Point", "coordinates": [6.87315, 50.878723]}},
{"type": "Feature", "id": "7mOvP19N0tyHt7sBHVU1sI3aM0g=", "properties": {"ref": "15721", "@spider": "wyndham", "addr:full": "Baumbachstrasse 2 Stadthalle ", "addr:city": "Kassel", "addr:postcode": "34119", "addr:country": "DE", "name": "H4 Kassel", "phone": "+49-561-78100", "website": "https://www.wyndhamhotels.com/trademark/kassel-germany/h4-kassel/overview", "brand": "Trademark"}, "geometry": {"type": "Point", "coordinates": [9.45973, 51.31687]}},
{"type": "Feature", "id": "B1KCVZxYKyHU8Jei_910VzFU2I8=", "properties": {"ref": "19576", "@spider": "wyndham", "addr:full": "Govind Marg Raja Park ", "addr:city": "Jaipur", "addr:country": "IN", "name": "Ramada by Wyndham Jaipur", "phone": "+91-141-4066666", "website": "https://www.wyndhamhotels.com/ramada/jaipur-india/ramada-jaipur/overview", "brand": "Ramada"}, "geometry": {"type": "Point", "coordinates": [75.818737, 26.9061]}},
{"type": "Feature", "id": "kQm8BKRGsCLumEWNqVPumRMWnJM=", "properties": {"ref": "49966", "@spider": "wyndham", "addr:full": "Jalan Dato Syed Omar ", "addr:city": "Langkawi", "addr:postcode": "07000", "addr:country": "MY", "name": "Ramada by Wyndham Langkawi Marina", "phone": "+60-966-4078", "website": "https://www.wyndhamhotels.com/ramada/langkawi-malaysia/ramada-langkawi-marina/overview", "brand": "Ramada"}, "geometry": {"type": "Point", "coordinates": [99.8517, 6.3035]}},
{"type": "Feature", "id": "xaT0hQSE58HiFf5cVSRpoam5_V0=", "properties": {"ref": "55340", "@spider": "wyndham", "addr:full": "A 188 Marina Cove Resort Perak", "addr:city": "Lumut", "addr:postcode": "32200", "addr:country": "MY", "name": "Days Inn Resort by Wyndham Lumut Marina Cove", "phone": "+60-605-6836666", "website": "https://www.wyndhamhotels.com/days-inn/lumut-malaysia/days-inn-resort-lumut-marina-cove/overview", "brand": "Days Inn"}, "geometry": {"type": "Point", "coordinates": [100.60567, 4.21136]}},
{"type": "Feature", "id": "VT9q5VTMaolxRhjm5bgws-ZgIc0=", "properties": {"ref": "56545", "@spider": "wyndham", "addr:full": "100 Feet Road Near Mahila Police Thana", "addr:city": "Udaipur", "addr:postcode": "313001", "addr:country": "IN", "name": "Howard Johnson by Wyndham Udaipur Roop Nagar", "phone": "+91-294-6613131", "website": "https://www.wyndhamhotels.com/hojo/udaipur-india/howard-johnson-udaipur-roop-nagar/overview", "brand": "Hojo"}, "geometry": {"type": "Point", "coordinates": [73.720082, 24.613746]}},
{"type": "Feature", "id": "YTB5vBthNTSgofCEYOR5PAQsFPg=", "properties": {"ref": "45412", "@spider": "wyndham", "addr:full": "M 2 Riico Industrial Area District Alwar, Rajasthan", "addr:city": "Shahjahanpur", "addr:postcode": "301706", "addr:country": "IN", "name": "Ramada by Wyndham Neemrana", "phone": "+91-1494-677777", "website": "https://www.wyndhamhotels.com/ramada/shahjahanpur-india/ramada-neemrana/overview", "brand": "Ramada"}, "geometry": {"type": "Point", "coordinates": [76.46, 28.005]}},
{"type": "Feature", "id": "VgIYqxpmNboap9YxQs84EmBOnZA=", "properties": {"ref": "53630", "@spider": "wyndham", "addr:full": "356 Shuxiang Ave, Yanjiang ", "addr:city": "Ziyang", "addr:country": "CN", "name": "Howard Johnson by Wyndham New District Plaza Ziyang", "phone": "+86-282-6166666", "website": "https://www.wyndhamhotels.com/hojo/ziyang-china/howard-johnson-new-district-plaza-ziyang/overview", "brand": "Hojo"}, "geometry": {"type": "Point", "coordinates": [104.401187, 30.032025]}},
{"type": "Feature", "id": "CbJHPsGEQ3mO-fsYDIq3LY6W5eY=", "properties": {"ref": "49758", "@spider": "wyndham", "addr:full": "China Coal Group Tower Shanghai Rd. and Jiangsu Rd", "addr:city": "Xuzhou", "addr:postcode": "221000", "addr:country": "CN", "name": "Super 8 by Wyndham Xuzhou Pei County Datun Town Shang Hai Lu", "phone": "+86-10-85502233", "website": "https://www.wyndhamhotels.com/super-8/xuzhou-china/super-8-hotel-xuzhou-pei-county-datun-town-shanghai-lu/overview", "brand": "Super8"}, "geometry": {"type": "Point", "coordinates": [117.180328, 34.248058]}},
{"type": "Feature", "id": "YG5QaNu3L_yeUkQdRUEC4GiBqY0=", "properties": {"ref": "50280", "@spider": "wyndham", "addr:full": "No.1 Yintan Road Wencheng Town", "addr:city": "Wenchang", "addr:postcode": "571339", "addr:country": "CN", "name": "Wyndham Grand Plaza Royale Wenchang", "phone": "+860-898-63599999", "website": "https://www.wyndhamhotels.com/wyndham-grand/wenchang-china/wyndham-grand-plaza-royale-wenchang/overview", "brand": "Wyndham"}, "geometry": {"type": "Point", "coordinates": [110.751979, 19.612242]}},
{"type": "Feature", "id": "7RLA_KA2ivt-KX7uVQU6GWng2rk=", "properties": {"ref": "32899", "@spider": "wyndham", "addr:full": "72 Shuangta West Street ", "addr:city": "Taiyuan", "addr:country": "CN", "name": "Days Hotel by Wyndham Lu'an Taiyuan", "phone": "+86-351-5693333", "website": "https://www.wyndhamhotels.com/days-inn/taiyuan-china/days-hotel-lu-an-taiyuan/overview", "brand": "Days Inn"}, "geometry": {"type": "Point", "coordinates": [112.549522, 37.881409]}},
{"type": "Feature", "id": "bn6lUbW530zlCbMPMzrcuvgcLgo=", "properties": {"ref": "49754", "@spider": "wyndham", "addr:full": "1599 Suzhan Road Gusu District", "addr:city": "Suzhou", "addr:postcode": "215000", "addr:country": "CN", "name": "Super 8 by Wyndham Suzhou Railway Station North Square", "phone": "+86-400-1840018", "website": "https://www.wyndhamhotels.com/super-8/suzhou-china/super-8-hotel-suzhou-railway-station-north-square/overview", "brand": "Super8"}, "geometry": {"type": "Point", "coordinates": [120.610823, 31.336315]}},
{"type": "Feature", "id": "SzkwiUsM_W96rZuhHx7K-piSZIE=", "properties": {"ref": "42174", "@spider": "wyndham", "addr:full": "No 1989 Huaxiang Road Minhang District", "addr:city": "Shanghai", "addr:postcode": "201107", "addr:country": "CN", "name": "Wyndham Shanghai Hongqiao", "phone": "+86-21-52278888", "website": "https://www.wyndhamhotels.com/wyndham/shanghai-china/wyndham-shanghai-hongqiao/overview", "brand": "Wyndham"}, "geometry": {"type": "Point", "coordinates": [121.303292, 31.199866]}},
{"type": "Feature", "id": "MEHtgK-388bWdsHnMKP3jBkrXfg=", "properties": {"ref": "49654", "@spider": "wyndham", "addr:full": "128  Zhong Xin Road Jiuting Town", "addr:city": "Shanghai", "addr:country": "CN", "name": "Super 8 by Wyndham Shanghai Hongqiao Hub Jiuting Center Road", "phone": "+86-10-85502288", "website": "https://www.wyndhamhotels.com/super-8/shanghai-china/super-8-hotel-shanghai-hongqiao-hub-jiuting-zhong-xin-lu/overview", "brand": "Super8"}, "geometry": {"type": "Point", "coordinates": [121.329167, 31.125628]}},
{"type": "Feature", "id": "e1Z9uTd-p-Elftt3BxOCUXIAm30=", "properties": {"ref": "45555", "@spider": "wyndham", "addr:full": "Wen Xian Road Chengxiang District", "addr:city": "Putian", "addr:postcode": "351100", "addr:country": "CN", "name": "Super 8 by Wyndham Putian Tian Wei", "phone": "+86-400-1840018", "website": "https://www.wyndhamhotels.com/super-8/putian-china/super-8-putian-tian-wei/overview", "brand": "Super8"}, "geometry": {"type": "Point", "coordinates": [119.011331, 25.439535]}},
{"type": "Feature", "id": "9tSVknTqZLVEB3aNV6EseQJMneY=", "properties": {"ref": "42291", "@spider": "wyndham", "addr:full": "8 Jiaocheng South Road Jiaocheng District", "addr:city": "Ningde", "addr:postcode": "352100", "addr:country": "CN", "name": "Super 8 by Wyndham Fujian Ningde", "phone": "+86-4001-840018", "website": "https://www.wyndhamhotels.com/super-8/ningde-china/super-8-hotel-fujian-ningde/overview", "brand": "Super8"}, "geometry": {"type": "Point", "coordinates": [119.532098, 26.663309]}},
{"type": "Feature", "id": "qe7tPcE7mar2fZAkDsWzo5DK3hQ=", "properties": {"ref": "45934", "@spider": "wyndham", "addr:full": "99 Haoxi Rd Shangdechengbang ", "addr:city": "Nantong", "addr:country": "CN", "name": "Days Inn by Wyndham Qi Xiu", "phone": "+86-0513-80982222", "website": "https://www.wyndhamhotels.com/days-inn/nantong-china/days-inn-qi-xiu/overview", "brand": "Days Inn"}, "geometry": {"type": "Point", "coordinates": [120.839783, 32.015667]}},
{"type": "Feature", "id": "0NdxXGtM5yaCweAvwzv2yT7YjUo=", "properties": {"ref": "53510", "@spider": "wyndham", "addr:full": "98 Zhuxi Road,Qingxiu District Nanning, Guangxi Zhuang", "addr:city": "Nanning", "addr:postcode": "530022", "addr:country": "CN", "name": "Howard Johnson by Wyndham Caexpo Plaza Nanning", "phone": "+86-771-6706666", "website": "https://www.wyndhamhotels.com/hojo/nanning-china/howard-johnson-caexpo-plaza-nanning/overview", "brand": "Hojo"}, "geometry": {"type": "Point", "coordinates": [108.302725, 22.832567]}},
{"type": "Feature", "id": "nOdxECG-wu7aUy4qWBdLM51nuHY=", "properties": {"ref": "51162", "@spider": "wyndham", "addr:full": "No.113 FuQian Road ", "addr:city": "Nanning Binyang", "addr:postcode": "530400", "addr:country": "CN", "name": "Ramada Plaza by Wyndham Nanning Binyang", "phone": "+86-0771-6789999", "website": "https://www.wyndhamhotels.com/ramada/nanning-binyang-china/ramada-plaza-nanning-binyang/overview", "brand": "Ramada"}, "geometry": {"type": "Point", "coordinates": [108.842441, 23.224869]}},
{"type": "Feature", "id": "Y05oT1dfhLuql4PYe02tJxxrwHI=", "properties": {"ref": "51362", "@spider": "wyndham", "addr:full": "No 1 Wolonghu Avenue Lishui District", "addr:city": "Nanjing", "addr:postcode": "211200", "addr:country": "CN", "name": "Wyndham Grand Plaza Royale Resort Nanjing", "phone": "+86-25-69781888", "website": "https://www.wyndhamhotels.com/wyndham-grand/nanjing-china/wyndham-grand-plaza-royale-resort-nanjing/overview", "brand": "Wyndham"}, "geometry": {"type": "Point", "coordinates": [119.0512, 37.724816]}},
{"type": "Feature", "id": "pW308OR-5MkYyq2rwZd-VbH_c7M=", "properties": {"ref": "55045", "@spider": "wyndham", "addr:full": "No.35 Building Xindi Lingkou Road Honggutan Distric", "addr:city": "Nanchang", "addr:postcode": "330000", "addr:country": "CN", "name": "Wyndham Garden Nanchang Honggutan", "phone": "+86-791-82319999", "website": "https://www.wyndhamhotels.com/wyndham-garden/nanchang-china/wyndham-garden-nanchang-honggutan/overview", "brand": "Wyndham"}, "geometry": {"type": "Point", "coordinates": [116.034971, 28.699522]}},
{"type": "Feature", "id": "xTAbrSxqjq8Uo8IrRjyRSkZ70xs=", "properties": {"ref": "51629", "@spider": "wyndham", "addr:full": "38 Tangquan East Rd Tangshan Town Jiangning District", "addr:city": "Nanjing", "addr:postcode": "212426", "addr:country": "CN", "name": "Super 8 by Wyndham Nanjing Tangshan Town Tang Quan East Road", "phone": "+86-105-9348309", "website": "https://www.wyndhamhotels.com/super-8/nanjing-china/super-8-hotel-nanjing-tangshan-town-tang-quan-east-road/overview", "brand": "Super8"}, "geometry": {"type": "Point", "coordinates": [119.075661, 32.064247]}},
{"type": "Feature", "id": "wjtracxLnf2DpZFDfSibzFUocM0=", "properties": {"ref": "50438", "@spider": "wyndham", "addr:full": "1 Jiangbin East Rd Honglai Town", "addr:city": "Nan an", "addr:postcode": "362331", "addr:country": "CN", "name": "Super 8 by Wyndham Quanzhou Nan'an Hong Lai Da Qiao", "phone": "+86-400-1840018", "website": "https://www.wyndhamhotels.com/super-8/nan-an-china/super-8-hotel-quanzhou-nanan-hong-lai-da-qiao/overview", "brand": "Super8"}, "geometry": {"type": "Point", "coordinates": [118.528404, 25.077922]}},
{"type": "Feature", "id": "cz13EsAibcCCHa1XGXPtToc2jqM=", "properties": {"ref": "53671", "@spider": "wyndham", "addr:full": "88 Yuexiu Road Jiangning District", "addr:city": "Nanjing", "addr:postcode": "211113", "addr:country": "CN", "name": "Wyndham Garden Nanjing Airport", "phone": "+86-25-52262688", "website": "https://www.wyndhamhotels.com/wyndham-garden/nanjing-china/wyndham-garden-nanjing-airport/overview", "brand": "Wyndham"}, "geometry": {"type": "Point", "coordinates": [118.868186, 31.768128]}},
{"type": "Feature", "id": "cGww2Np6yFQf2mhtz2Wbl_QLvgE=", "properties": {"ref": "33080", "@spider": "wyndham", "addr:full": "412 Zhongshan East Road ", "addr:city": "Nanjing", "addr:postcode": "210002", "addr:country": "CN", "name": "Super 8 by Wyndham Nanjing Shun Tian Presidential Palace", "phone": "+86-400-1840018", "website": "https://www.wyndhamhotels.com/super-8/nanjing-china/super-8-hotel-nanjing-shun-tian-presidential-palace/overview", "brand": "Super8"}, "geometry": {"type": "Point", "coordinates": [118.806496, 32.046151]}},
{"type": "Feature", "id": "imqX3BwuMa7eDu8MJ0InwFdSkF8=", "properties": {"ref": "46625", "@spider": "wyndham", "addr:full": "81 Tai Ping Men Street ", "addr:city": "Nanjing", "addr:postcode": "210016", "addr:country": "CN", "name": "Super 8 by Wyndham Nanjing Tai Ping Men", "phone": "+86-4001-840018", "website": "https://www.wyndhamhotels.com/super-8/nanjing-china/super-8-hotel-nanjing-tai-ping-men/overview", "brand": "Super8"}, "geometry": {"type": "Point", "coordinates": [118.817031, 32.063519]}},
{"type": "Feature", "id": "DPruGY0Wi-YbcX3xA7aElED-8-M=", "properties": {"ref": "46774", "@spider": "wyndham", "addr:full": "No. 99 of Yu Lan Road Floor 2, Area C3", "addr:city": "Nanjing", "addr:postcode": "210012", "addr:country": "CN", "name": "Super 8 by Wyndham Nanjing South Railway Station Yu Lan Lu", "phone": "+86-4001-840018", "website": "https://www.wyndhamhotels.com/super-8/nanjing-china/super8-hotel-nanjing-south-railway-station-yu-lan-lu/overview", "brand": "Super8"}, "geometry": {"type": "Point", "coordinates": [118.79463, 31.994046]}},
{"type": "Feature", "id": "9wnXs5_A9RbzU2-bbetzlKa_9jM=", "properties": {"ref": "16334", "@spider": "wyndham", "addr:full": "No 2 Wan Da Xing Cheng ", "addr:city": "Nanchang", "addr:postcode": "330038", "addr:country": "CN", "name": "Super 8 by Wyndham Nanchang Wan Da Xing Cheng", "phone": "+86-4001-840018", "website": "https://www.wyndhamhotels.com/super-8/nanchang-china/super-8-hotel-nanchang-wan-da-xing-cheng/overview", "brand": "Super8"}, "geometry": {"type": "Point", "coordinates": [115.858662, 28.674907]}},
{"type": "Feature", "id": "hcaU88nFTvlwSOImBoIGriavcew=", "properties": {"ref": "22962", "@spider": "wyndham", "addr:full": "Jiang Nan Bing Fang Street Meijiang District", "addr:city": "Meizhou", "addr:postcode": "514021", "addr:country": "CN", "name": "Ramada by Wyndham Meizhou", "phone": "+86-753-2323888", "website": "https://www.wyndhamhotels.com/ramada/meizhou-china/ramada-meizhou/overview", "brand": "Ramada"}, "geometry": {"type": "Point", "coordinates": [116.104083, 24.3233]}},
{"type": "Feature", "id": "ftHDK0wXFOnNjfxOVYbcDByj26U=", "properties": {"ref": "49263", "@spider": "wyndham", "addr:full": "10 Bin Jian Road Fucheng District", "addr:city": "Mianyang", "addr:country": "CN", "name": "Super 8 by Wyndham Mianyang Wu Yi Guang Chang", "phone": "+86-400-1840018", "website": "https://www.wyndhamhotels.com/super-8/mianyang-china/super-8-hotel-mianyang-wu-yi-guang-chang/overview", "brand": "Super8"}, "geometry": {"type": "Point", "coordinates": [104.751978, 31.484454]}},
{"type": "Feature", "id": "NGzsM-5iiwX6XoyUFcsl5hwhDmc=", "properties": {"ref": "47374", "@spider": "wyndham", "addr:full": "6 South of Ci Er Village Fl 3 Lobby Mei Da Plaza", "addr:city": "Beijing", "addr:postcode": "101111", "addr:country": "CN", "name": "Super 8 by Wyndham Beijing Ci Qu", "phone": "+86-4001-840018", "website": "https://www.wyndhamhotels.com/super-8/beijing-china/super-8-hotel-beijing-ci-qu/overview", "brand": "Super8"}, "geometry": {"type": "Point", "coordinates": [116.577494, 39.808445]}},
{"type": "Feature", "id": "eYNFCYDkfmP0B2FQUhLF0SH9rho=", "properties": {"ref": "48601", "@spider": "wyndham", "addr:full": "28 Courtyard South Shi Li Ju Chaoyang District", "addr:city": "Beijing", "addr:country": "CN", "name": "Super 8 by Wyndham Beijing ChaoYangGongYuan DongFengNanLu", "phone": "+86-10-85502288", "website": "https://www.wyndhamhotels.com/super-8/beijing-china/super-8-beijing-chaoyanggongyuan-dongfengnanlu/overview", "brand": "Super8"}, "geometry": {"type": "Point", "coordinates": [116.38765, 39.90657]}},
{"type": "Feature", "id": "7hkR3ki5J6PZZvDkDg8y3SzpHjg=", "properties": {"ref": "51529", "@spider": "wyndham", "addr:full": "Wenhua Avenue, Guanyin Temple ", "addr:city": "Beijing", "addr:postcode": "100023", "addr:country": "CN", "name": "Super 8 by Wyndham Beijing Chaoyang Happy Valley WangSiYing", "phone": "+86-400-6038888", "website": "https://www.wyndhamhotels.com/super-8/beijing-china/super-8-hotel-beijing-chaoyang-happy-valley-wang-si-ying/overview", "brand": "Super8"}, "geometry": {"type": "Point", "coordinates": [116.53769, 39.877485]}},
{"type": "Feature", "id": "WCEl4UK_09R8JXCibTrhSXMxtdk=", "properties": {"ref": "47790", "@spider": "wyndham", "addr:full": "4 Jiu Zhong Road Courtyard 12, Jiugong Town", "addr:city": "Beijing", "addr:country": "CN", "name": "Super 8 by Wyndham Beijing Daxing Jiugong Jiu Zhong Lu", "phone": "+86-10-85502288", "website": "https://www.wyndhamhotels.com/super-8/beijing-china/super-8-beijing-daxing-jiugong-jiu-zhong-lu/overview", "brand": "Super8"}, "geometry": {"type": "Point", "coordinates": [116.45982, 39.809698]}},
{"type": "Feature", "id": "CDBivfMsfAvumQOV8PXxdJyvcwA=", "properties": {"ref": "15965", "@spider": "wyndham", "addr:full": "137 Dongsi Wutiao ", "addr:city": "Beijing", "addr:postcode": "100010", "addr:country": "CN", "name": "Super 8 by Wyndham Beijing Dong Si", "phone": "+86-4001-840018", "website": "https://www.wyndhamhotels.com/super-8/beijing-china/super-8-beijing-dong-si/overview", "brand": "Super8"}, "geometry": {"type": "Point", "coordinates": [116.42464, 39.935186]}},
{"type": "Feature", "id": "KLwnwTBGz-JyT8rD6qHZSV_PaxM=", "properties": {"ref": "48346", "@spider": "wyndham", "addr:full": "Lobby on 1st F3-F4 Building 10,Long Yue Yua", "addr:city": "Beijing", "addr:country": "CN", "name": "Super 8 by Wyndham Beijing Changping HuiLongGuan Wenhua Rd.", "phone": "+86-108-55502288", "website": "https://www.wyndhamhotels.com/super-8/beijing-china/super-8-hotel-beijing-changping-huilongguan-wen-hua-dong-lu/overview", "brand": "Super8"}, "geometry": {"type": "Point", "coordinates": [116.324959, 40.084474]}},
{"type": "Feature", "id": "aezuKS_0GYyCxyuiTybkEtMy-v8=", "properties": {"ref": "43131", "@spider": "wyndham", "addr:full": "26 XiHuan Road Changping Town", "addr:city": "Beijing", "addr:postcode": "102299", "addr:country": "CN", "name": "Super 8 by Wyndham Beijing Chang Ping Xi Guan", "phone": "+86-4001-840018", "website": "https://www.wyndhamhotels.com/super-8/beijing-china/super-8-hotel-beijing-chang-ping-xi-guan/overview", "brand": "Super8"}, "geometry": {"type": "Point", "coordinates": [116.233892, 40.228972]}},
{"type": "Feature", "id": "Z9NhJ4e-epX2LTcPv0LYuWO5zGc=", "properties": {"ref": "47600", "@spider": "wyndham", "addr:full": "137 Cheng Shou Si Road Chaoyang District", "addr:city": "Beijing", "addr:postcode": "100078", "addr:country": "CN", "name": "Super 8 by Wyndham Beijing Cheng Shou Si Lu", "phone": "+86-40-01840018", "website": "https://www.wyndhamhotels.com/super-8/beijing-china/super-8-hotel-beijing-cheng-shou-si-lu/overview", "brand": "Super8"}, "geometry": {"type": "Point", "coordinates": [116.38765, 39.90657]}},
{"type": "Feature", "id": "HvXcHGi5EK3QWaoswQcuID7jpG4=", "properties": {"ref": "47219", "@spider": "wyndham", "addr:full": "No. A8 of Xing Long Village Chaoyang District", "addr:city": "Beijing", "addr:country": "CN", "name": "Super 8 by Wyndham Beijing Chao Yang Lu Xing Long", "phone": "+86-4001-840018", "website": "https://www.wyndhamhotels.com/super-8/beijing-china/super-8-hotel-beijing-chao-yang-lu-xing-long/overview", "brand": "Super8"}, "geometry": {"type": "Point", "coordinates": [116.460793, 39.919056]}},
{"type": "Feature", "id": "QC-3XFF1dXsymCrlljGI0K1qiOg=", "properties": {"ref": "46771", "@spider": "wyndham", "addr:full": "36 of East Gu Lou Street Changping Town", "addr:city": "Beijing", "addr:postcode": "102200", "addr:country": "CN", "name": "Super 8 by Wyndham Beijing Changping Gu Lou Dong Jie", "phone": "+86-4001-840018", "website": "https://www.wyndhamhotels.com/super-8/beijing-china/super8-hotel-beijing-changping-gu-lou-dong-jie/overview", "brand": "Super8"}, "geometry": {"type": "Point", "coordinates": [116.243302, 40.230054]}},
{"type": "Feature", "id": "QyCtGQgODctTTpNRNUG8Ev1XS5E=", "properties": {"ref": "47602", "@spider": "wyndham", "addr:full": "18 of South Xi Si Street, Xicheng District", "addr:city": "Beijing", "addr:postcode": "100034", "addr:country": "CN", "name": "Super 8 by Wyndham Beijing Bei Hai Park West Gate", "phone": "+86-4001-840018", "website": "https://www.wyndhamhotels.com/super-8/beijing-china/super-8-hotel-beijing-bei-hai-park-west-gate/overview", "brand": "Super8"}, "geometry": {"type": "Point", "coordinates": [116.38765, 39.90657]}},
{"type": "Feature", "id": "fKLX9v9sRObEgcb3euQ8108r9hQ=", "properties": {"ref": "51462", "@spider": "wyndham", "addr:full": "14 of Nanren Li Rd Liqiao Village", "addr:city": "Beijing", "addr:country": "CN", "name": "Super 8 by Wyndham Beijing Capital Airport Liqiao", "phone": "+86-400-6038888", "website": "https://www.wyndhamhotels.com/super-8/beijing-china/super-8-hotel-beijing-capital-airport-liqiao/overview", "brand": "Super8"}, "geometry": {"type": "Point", "coordinates": [116.682108, 40.041659]}},
{"type": "Feature", "id": "FX5_6B-Pg2hSSK7MXhpHX1FCDKU=", "properties": {"ref": "46214", "@spider": "wyndham", "addr:full": "East Cao Qiao Road Fengtai District", "addr:city": "Beijing", "addr:postcode": "100067", "addr:country": "CN", "name": "Super 8 by Wyndham Beijing Cao Qiao Station", "phone": "+86-400-1840018", "website": "https://www.wyndhamhotels.com/super-8/beijing-china/super-8-hotel-beijing-cao-qiao-station/overview", "brand": "Super8"}, "geometry": {"type": "Point", "coordinates": [116.366415, 39.852393]}},
{"type": "Feature", "id": "JIwwGSfa3F3qCq54F-axak8-Gj4=", "properties": {"ref": "53475", "@spider": "wyndham", "addr:full": "1 Fude Rd Ku Liushu Houshayu Town Shunyi District", "addr:city": "Beijing", "addr:postcode": "101318", "addr:country": "CN", "name": "Super 8 by Wyndham Beijing Capital Airport Hou Sha Yu Sub", "phone": "+86-400-6038888", "website": "https://www.wyndhamhotels.com/super-8/beijing-china/super-8-hotel-beijing-capital-airport-hou-sha-yu-subway-station/overview", "brand": "Super8"}, "geometry": {"type": "Point", "coordinates": [116.576294, 40.121029]}},
{"type": "Feature", "id": "lGasI_X71TGtqUNAITbDPL9CyJE=", "properties": {"ref": "02764", "@spider": "wyndham", "addr:full": "1700 West Victoria Street ", "addr:city": "Revelstoke", "addr:state": "BC", "addr:postcode": "V0E 2S0", "addr:country": "CA", "name": "Super 8 by Wyndham Revelstoke BC", "phone": "+1-250-984-7039", "website": "https://www.wyndhamhotels.com/super-8/revelstoke-british-columbia/super-8-revelstoke-bc/overview", "brand": "Super8"}, "geometry": {"type": "Point", "coordinates": [-118.212944, 51.008317]}},
{"type": "Feature", "id": "khnpD2TUH8F_JS7lHznJWvT9FtU=", "properties": {"ref": "50492", "@spider": "wyndham", "addr:full": "1750 Trans Canada Highway ", "addr:city": "Revelstoke", "addr:state": "BC", "addr:postcode": "V0E 2S0", "addr:country": "CA", "name": "Ramada by Wyndham Revelstoke", "phone": "+1-250-837-4741", "website": "https://www.wyndhamhotels.com/ramada/revelstoke-british-columbia/ramada-revelstoke/overview", "brand": "Ramada"}, "geometry": {"type": "Point", "coordinates": [-118.208575, 51.010011]}},
{"type": "Feature", "id": "dNLhWRx9Bip7An29fsuv_wlCx-U=", "properties": {"ref": "07840", "@spider": "wyndham", "addr:full": "1050 Eckhardt Ave. West ", "addr:city": "Penticton", "addr:state": "BC", "addr:postcode": "V2A 2C3", "addr:country": "CA", "name": "Ramada by Wyndham Penticton Hotel & Suites", "phone": "+1-250-492-8926", "website": "https://www.wyndhamhotels.com/ramada/penticton-british-columbia/ramada-inn-and-suites-penticton/overview", "brand": "Ramada"}, "geometry": {"type": "Point", "coordinates": [-119.61245, 49.494548]}},
{"type": "Feature", "id": "ZhW52cAoNQqPruErcBO_v9X6GUc=", "properties": {"ref": "13544", "@spider": "wyndham", "addr:full": "2010 Valhalla Rd ", "addr:city": "Quesnel", "addr:state": "BC", "addr:postcode": "V2J 4C1", "addr:country": "CA", "name": "Super 8 by Wyndham Quesnel BC", "phone": "+1-250-747-1111", "website": "https://www.wyndhamhotels.com/super-8/quesnel-british-columbia/super-8-quesnel-bc/overview", "brand": "Super8"}, "geometry": {"type": "Point", "coordinates": [-122.453066, 52.980562]}},
{"type": "Feature", "id": "3BZCl7mzETZusH5HwtFy4nEskjQ=", "properties": {"ref": "27413", "@spider": "wyndham", "addr:full": "301 Wright Street ", "addr:city": "Revelstoke", "addr:state": "BC", "addr:postcode": "V0E 2S0", "addr:country": "CA", "name": "Days Inn & Suites by Wyndham Revelstoke", "phone": "+1-250-984-7028", "website": "https://www.wyndhamhotels.com/days-inn/revelstoke-british-columbia/days-inn-and-suites-revelstoke/overview", "brand": "Days Inn"}, "geometry": {"type": "Point", "coordinates": [-118.21242, 51.007545]}},
{"type": "Feature", "id": "15jiB-Hmr1AX9qZ_7PKb-T4bzmw=", "properties": {"ref": "14038", "@spider": "wyndham", "addr:full": "1458 7th Avenue ", "addr:city": "Prince George", "addr:state": "BC", "addr:postcode": "V2L3P2", "addr:country": "CA", "name": "Travelodge by Wyndham Prince George", "phone": "+1-250-563-0666", "website": "https://www.wyndhamhotels.com/travelodge/prince-george-british-columbia/travelodge-prince-george/overview", "brand": "Travelodge"}, "geometry": {"type": "Point", "coordinates": [-122.750947, 53.914604]}},
{"type": "Feature", "id": "COlzOAxxerxcZ298yFedQcRY-DM=", "properties": {"ref": "11725", "@spider": "wyndham", "addr:full": "524 Front Street ", "addr:city": "Quesnel", "addr:state": "BC", "addr:postcode": "V2J 2K6", "addr:country": "CA", "name": "Travelodge by Wyndham Quesnel", "phone": "+1-250-992-7071", "website": "https://www.wyndhamhotels.com/travelodge/quesnel-british-columbia/travelodge-by-wyndham-quesnel/overview", "brand": "Travelodge"}, "geometry": {"type": "Point", "coordinates": [-122.498678, 52.980885]}},
{"type": "Feature", "id": "a8qLVGl-Tqd4yjLMO9rZ94ulE68=", "properties": {"ref": "12428", "@spider": "wyndham", "addr:full": "383 St Laurent Avenue ", "addr:city": "Quesnel", "addr:state": "BC", "addr:postcode": "V2J 2E1", "addr:country": "CA", "name": "Ramada by Wyndham Quesnel", "phone": "+1-250-992-5575", "website": "https://www.wyndhamhotels.com/ramada/quesnel-british-columbia/ramada-quesnel/overview", "brand": "Ramada"}, "geometry": {"type": "Point", "coordinates": [-122.494323, 52.979149]}},
{"type": "Feature", "id": "ZA3dq8fGfeGz3ef_ipQWBL1Gb9Y=", "properties": {"ref": "49704", "@spider": "wyndham", "addr:full": "1151  Commercial Crescent ", "addr:city": "Prince George", "addr:state": "BC", "addr:postcode": "V2M 6W6", "addr:country": "CA", "name": "Super 8 by Wyndham Prince George", "phone": "+1-250-980-3946", "website": "https://www.wyndhamhotels.com/super-8/prince-george-british-columbia/super-8-prince-george/overview", "brand": "Super8"}, "geometry": {"type": "Point", "coordinates": [-122.7841, 53.91482]}},
{"type": "Feature", "id": "GsoV3Id2gbpxFxSmD1YMBDHygc8=", "properties": {"ref": "12749", "@spider": "wyndham", "addr:full": "152 Riverside Drive ", "addr:city": "Penticton", "addr:state": "BC", "addr:postcode": "V2A 5Y4", "addr:country": "CA", "name": "Days Inn by Wyndham Penticton Conference Centre", "phone": "+1-250-980-3952", "website": "https://www.wyndhamhotels.com/days-inn/penticton-british-columbia/days-inn-by-wyndham-penticton-conference-centre/overview", "brand": "Days Inn"}, "geometry": {"type": "Point", "coordinates": [-119.6145, 49.4981]}},
{"type": "Feature", "id": "584uQL8rwD8Efkw-facElOV3uEI=", "properties": {"ref": "09676", "@spider": "wyndham", "addr:full": "2060 Marine Drive ", "addr:city": "North Vancouver", "addr:state": "BC", "addr:postcode": "V7P 1V7", "addr:country": "CA", "name": "Travelodge by Wyndham Vancouver Lions Gate", "phone": "+1-604-985-5311", "website": "https://www.wyndhamhotels.com/travelodge/north-vancouver-british-columbia/travelodge-vancouver-lions-gate/overview", "brand": "Travelodge"}, "geometry": {"type": "Point", "coordinates": [-123.123467, 49.324663]}},
{"type": "Feature", "id": "4o16Qwtw-fRk8Q9H7GFDKV9LP5A=", "properties": {"ref": "12613", "@spider": "wyndham", "addr:full": "424 West Island Highway ", "addr:city": "Parksville", "addr:state": "BC", "addr:postcode": "V9P 1K8", "addr:country": "CA", "name": "Travelodge by Wyndham Parksville", "phone": "+1-250-248-2232", "website": "https://www.wyndhamhotels.com/travelodge/parksville-british-columbia/travelodge-parksville/overview", "brand": "Travelodge"}, "geometry": {"type": "Point", "coordinates": [-124.324639, 49.323636]}},
{"type": "Feature", "id": "CvMDK9SiQMngx1esA74yp7NxO0U=", "properties": {"ref": "21053", "@spider": "wyndham", "addr:full": "9130 Main St ", "addr:city": "Osoyoos", "addr:state": "BC", "addr:postcode": "V0H 1V2", "addr:country": "CA", "name": "Super 8 by Wyndham Osoyoos", "phone": "+1-250-495-2633", "website": "https://www.wyndhamhotels.com/super-8/osoyoos-british-columbia/super-8-osoyoos/overview", "brand": "Super8"}, "geometry": {"type": "Point", "coordinates": [-119.473743, 49.034675]}},
{"type": "Feature", "id": "MkVeVslr5HS8iEQ_9xpOD4d5As8=", "properties": {"ref": "04797", "@spider": "wyndham", "addr:full": "809 Island Highway South ", "addr:city": "Nanaimo", "addr:state": "BC", "addr:postcode": "V9R 6Z2", "addr:country": "CA", "name": "Days Inn by Wyndham Nanaimo", "phone": "+1-250-980-3925", "website": "https://www.wyndhamhotels.com/days-inn/nanaimo-british-columbia/days-inn-nanaimo/overview", "brand": "Days Inn"}, "geometry": {"type": "Point", "coordinates": [-123.933367, 49.147503]}},
{"type": "Feature", "id": "SBeKD-jES7qafByLON5OmHZHIN0=", "properties": {"ref": "14611", "@spider": "wyndham", "addr:full": "3571 Voght Street ", "addr:city": "Merritt", "addr:state": "BC", "addr:postcode": "V1K1C5", "addr:country": "CA", "name": "Ramada Limited Merritt", "phone": "+1-250-378-3567", "website": "https://www.wyndhamhotels.com/ramada/merritt-british-columbia/ramada-limited-merritt/overview", "brand": "Ramada"}, "geometry": {"type": "Point", "coordinates": [-120.765239, 50.123102]}},
{"type": "Feature", "id": "92MVo4edsfvDHNpS2btY5xb3Gvk=", "properties": {"ref": "08770", "@spider": "wyndham", "addr:full": "96 Terminal Avenue North ", "addr:city": "Nanaimo", "addr:state": "BC", "addr:postcode": "V9S 4J2", "addr:country": "CA", "name": "Travelodge by Wyndham Nanaimo", "phone": "+1-250-754-6355", "website": "https://www.wyndhamhotels.com/travelodge/nanaimo-british-columbia/travelodge-nanaimo/overview", "brand": "Travelodge"}, "geometry": {"type": "Point", "coordinates": [-123.942662, 49.172393]}},
{"type": "Feature", "id": "maQllCze4UBkYGLdBpcrUKptaDI=", "properties": {"ref": "15550", "@spider": "wyndham", "addr:full": "315 Rosehill Street ", "addr:city": "Nanaimo", "addr:state": "BC", "addr:postcode": "V9S 1E3", "addr:country": "CA", "name": "Ramada by Wyndham Nanaimo", "phone": "+1-250-716-2009", "website": "https://www.wyndhamhotels.com/ramada/nanaimo-british-columbia/ramada-nanaimo/overview", "brand": "Ramada"}, "geometry": {"type": "Point", "coordinates": [-123.946978, 49.176102]}},
{"type": "Feature", "id": "ahAdsW5KnYr0a00EhFdT4dv7FGc=", "properties": {"ref": "11719", "@spider": "wyndham", "addr:full": "21653 Fraser Highway ", "addr:city": "Langley", "addr:state": "BC", "addr:postcode": "V3A-4H1", "addr:country": "CA", "name": "Travelodge by Wyndham Langley", "phone": "+1-604-533-4431", "website": "https://www.wyndhamhotels.com/travelodge/langley-british-columbia/travelodge-langley-city/overview", "brand": "Travelodge"}, "geometry": {"type": "Point", "coordinates": [-122.623012, 49.095577]}},
{"type": "Feature", "id": "wIG-GLJAk4au581aNFsWtwbfM7E=", "properties": {"ref": "15200", "@spider": "wyndham", "addr:full": "9564 Highway 97 North ", "addr:city": "Lake Country", "addr:state": "BC", "addr:postcode": "V4V 1T7", "addr:country": "CA", "name": "Super 8 by Wyndham Lake Country/Winfield Area", "phone": "+1-250-766-5244", "website": "https://www.wyndhamhotels.com/super-8/lake-country-british-columbia/super-8-lake-country-winfield-area/overview", "brand": "Super8"}, "geometry": {"type": "Point", "coordinates": [-119.406806, 50.021024]}},
{"type": "Feature", "id": "WYCBAf510Wgw2tc1JYlOBpXKkII=", "properties": {"ref": "48615", "@spider": "wyndham", "addr:full": "635 Dadook Avenue ", "addr:city": "Kitimat", "addr:state": "BC", "addr:postcode": "V8C 2G7", "addr:country": "CA", "name": "Microtel Inn & Suites by Wyndham Kitimat", "phone": "+1-778-655-3494", "website": "https://www.wyndhamhotels.com/microtel/kitimat-british-columbia/microtel-kitimat-bc/overview", "brand": "Microtel Inn"}, "geometry": {"type": "Point", "coordinates": [-128.668686, 54.056881]}},
{"type": "Feature", "id": "0B5VcPEDv6wRB-XbeEjRoC4B4fM=", "properties": {"ref": "54949", "@spider": "wyndham", "addr:full": "868 NW Frontage Rd ", "addr:city": "McBride", "addr:state": "BC", "addr:postcode": "V0J 2E0", "addr:country": "CA", "name": "Travelodge by Wyndham McBride", "phone": "+1-250-569-0001", "website": "https://www.wyndhamhotels.com/travelodge/mcbride-british-columbia/travelodge-mcbride/overview", "brand": "Travelodge"}, "geometry": {"type": "Point", "coordinates": [-120.16378, 53.30566]}},
{"type": "Feature", "id": "YmjdL9MafELZ-noavlguzH4P_MU=", "properties": {"ref": "15153", "@spider": "wyndham", "addr:full": "20250 Logan Avenue ", "addr:city": "Langley", "addr:state": "BC", "addr:postcode": "V3A 4L6", "addr:country": "CA", "name": "Days Inn & Suites by Wyndham Langley", "phone": "+1-604-539-0100", "website": "https://www.wyndhamhotels.com/days-inn/langley-british-columbia/days-inn-and-suites-langley/overview", "brand": "Days Inn"}, "geometry": {"type": "Point", "coordinates": [-122.660301, 49.1086]}},
{"type": "Feature", "id": "HszRzipV1lG-_qkBvFLUIWe5iAs=", "properties": {"ref": "50992", "@spider": "wyndham", "addr:full": "12570 Trans Canada Highway ", "addr:city": "Ladysmith", "addr:state": "BC", "addr:postcode": "V9G 1M5", "addr:country": "CA", "name": "Microtel Inn & Suites by Wyndham Oyster Bay", "phone": "+1-866-759-9739", "website": "https://www.wyndhamhotels.com/microtel/ladysmith-british-columbia/microtel-inn-and-suites-by-wyndham-oyster-bay/overview", "brand": "Microtel Inn"}, "geometry": {"type": "Point", "coordinates": [-123.850868, 49.014071]}},
{"type": "Feature", "id": "HD8-2v95juJHT-BZ0MdMjWvrk6U=", "properties": {"ref": "07839", "@spider": "wyndham", "addr:full": "2170 Harvey Avenue ", "addr:city": "Kelowna", "addr:state": "BC", "addr:postcode": "V1Y 6G8", "addr:country": "CA", "name": "Ramada by Wyndham Kelowna Hotel & Conference Center", "phone": "+1-250-860-9711", "website": "https://www.wyndhamhotels.com/ramada/kelowna-british-columbia/ramada-kelowna-hotel-and-conference-centre/overview", "brand": "Ramada"}, "geometry": {"type": "Point", "coordinates": [-119.43828, 49.88191]}},
{"type": "Feature", "id": "sXQphkUZ1U8gFHoVfWt76sJr7e4=", "properties": {"ref": "08487", "@spider": "wyndham", "addr:full": "2592 Highway 97 North ", "addr:city": "Kelowna", "addr:state": "BC", "addr:postcode": "V1X 4J4", "addr:country": "CA", "name": "Super 8 by Wyndham Kelowna BC", "phone": "+1-250-762-8222", "website": "https://www.wyndhamhotels.com/super-8/kelowna-british-columbia/super-8-kelowna-bc/overview", "brand": "Super8"}, "geometry": {"type": "Point", "coordinates": [-119.417664, 49.892488]}},
{"type": "Feature", "id": "cLF04q9NacLLoSkVcv6WvebHid8=", "properties": {"ref": "11722", "@spider": "wyndham", "addr:full": "1225 Rogers Way ", "addr:city": "Kamloops", "addr:state": "BC", "addr:postcode": "V1S 1R9", "addr:country": "CA", "name": "Travelodge by Wyndham Kamloops Mountview", "phone": "+1-250-374-4788", "website": "https://www.wyndhamhotels.com/travelodge/kamloops-british-columbia/travelodge-by-wyndham-kamloops-mountview/overview", "brand": "Travelodge"}, "geometry": {"type": "Point", "coordinates": [-120.37076, 50.651222]}},
{"type": "Feature", "id": "U218XtNlIq_6l5Dcv7LQoDBLNHw=", "properties": {"ref": "07036", "@spider": "wyndham", "addr:full": "430 Columbia Street ", "addr:city": "Kamloops", "addr:state": "BC", "addr:postcode": "V2C 2J5", "addr:country": "CA", "name": "Travelodge by Wyndham Kamloops", "phone": "+1-250-372-8202", "website": "https://www.wyndhamhotels.com/travelodge/kamloops-british-columbia/travelodge-kamloops/overview", "brand": "Travelodge"}, "geometry": {"type": "Point", "coordinates": [-120.331163, 50.671407]}},
{"type": "Feature", "id": "IQTiKqgqpVuCfn09Ft33J5ej1QM=", "properties": {"ref": "48214", "@spider": "wyndham", "addr:full": "1180 Rogers Way ", "addr:city": "Kamloops", "addr:state": "BC", "addr:postcode": "V1S 1N5", "addr:country": "CA", "name": "Wingate by Wyndham Kamloops", "phone": "+1-778-471-7706", "website": "https://www.wyndhamhotels.com/wingate/kamloops-british-columbia/wingate-by-wyndham-kamloops/overview", "brand": "Wingate Hotels"}, "geometry": {"type": "Point", "coordinates": [-120.368486, 50.651522]}},
{"type": "Feature", "id": "x1lCw2D2UOjhF0wB-FpIP_Yd3_c=", "properties": {"ref": "52151", "@spider": "wyndham", "addr:full": "365 Mills Rd. ", "addr:city": "Kelowna", "addr:state": "BC", "addr:postcode": "V1X 4G9", "addr:country": "CA", "name": "Microtel Inn & Suites by Wyndham Kelowna", "phone": "+1-778-760-0077", "website": "https://www.wyndhamhotels.com/microtel/kelowna-british-columbia/microtel_kelowna/overview", "brand": "Microtel Inn"}, "geometry": {"type": "Point", "coordinates": [-119.416221, 49.892654]}},
{"type": "Feature", "id": "kAOQtfjBbE7ErJM7M_CtfcjOM_U=", "properties": {"ref": "03366", "@spider": "wyndham", "addr:full": "1521 Hugh Allan Drive ", "addr:city": "Kamloops", "addr:state": "BC", "addr:postcode": "V1S 1P4", "addr:country": "CA", "name": "Super 8 by Wyndham Kamloops On The Hill", "phone": "+1-250-980-3944", "website": "https://www.wyndhamhotels.com/super-8/kamloops-british-columbia/super-8-kamloops-on-the-hill/overview", "brand": "Super8"}, "geometry": {"type": "Point", "coordinates": [-120.380601, 50.652013]}},
{"type": "Feature", "id": "M2HuJ5V8jkG1-HqbROpENXwRv1k=", "properties": {"ref": "09854", "@spider": "wyndham", "addr:full": "555 West Columbia Street ", "addr:city": "Kamloops", "addr:state": "BC", "addr:postcode": "V2C 1K7", "addr:country": "CA", "name": "Ramada by Wyndham Kamloops", "phone": "+1-250-374-0358", "website": "https://www.wyndhamhotels.com/ramada/kamloops-british-columbia/ramada-kamloops/overview", "brand": "Ramada"}, "geometry": {"type": "Point", "coordinates": [-120.351731, 50.67315]}},
{"type": "Feature", "id": "uAT9CorDOIm8LFEywgoyKLVLw3o=", "properties": {"ref": "54052", "@spider": "wyndham", "addr:full": "405 Victoria Street ", "addr:city": "Kamloops", "addr:state": "BC", "addr:postcode": "V2C 2A9", "addr:country": "CA", "name": "The Plaza Hotel, Trademark Collection by Wyndham", "phone": "+1-250-800-4898", "website": "https://www.wyndhamhotels.com/trademark/kamloops-british-columbia/the-plaza-hotel-trademark-collection-by-wyndham/overview", "brand": "Trademark"}, "geometry": {"type": "Point", "coordinates": [-120.33902, 50.67661]}},
{"type": "Feature", "id": "oh8-Ftf4uj4gpOXRbVoi8PbD9EQ=", "properties": {"ref": "15986", "@spider": "wyndham", "addr:full": "530 Columbia Street ", "addr:city": "Kamloops", "addr:state": "BC", "addr:postcode": "V2C 2V1", "addr:country": "CA", "name": "Howard Johnson by Wyndham Downtown Kamloops", "phone": "+1-250-372-7761", "website": "https://www.wyndhamhotels.com/hojo/kamloops-british-columbia/howard-johnson-downtown-kamloops/overview", "brand": "Hojo"}, "geometry": {"type": "Point", "coordinates": [-120.328809, 50.671398]}},
{"type": "Feature", "id": "NBZHn9Lj6i4Hc67SgrJTbuVCYj8=", "properties": {"ref": "45289", "@spider": "wyndham", "addr:full": "350 Old Hope Princeton Way ", "addr:city": "Hope", "addr:state": "BC", "addr:postcode": "V0X 1L0", "addr:country": "CA", "name": "Travelodge by Wyndham Hope", "phone": "+1-604-869-9951", "website": "https://www.wyndhamhotels.com/travelodge/hope-british-columbia/travelodge-hope/overview", "brand": "Travelodge"}, "geometry": {"type": "Point", "coordinates": [-121.437029, 49.375015]}},
{"type": "Feature", "id": "zhBiDaLyFITiM9rD-cdYWm7mNfM=", "properties": {"ref": "46704", "@spider": "wyndham", "addr:full": "1200-12th Street North ", "addr:city": "Golden", "addr:state": "BC", "addr:postcode": "V0A 1H2", "addr:country": "CA", "name": "Travelodge by Wyndham Golden Sportsman Lodge", "phone": "+1-250-800-4932", "website": "https://www.wyndhamhotels.com/travelodge/golden-british-columbia/travelodge-golden-sportsman-lodge/overview", "brand": "Travelodge"}, "geometry": {"type": "Point", "coordinates": [-116.97374, 51.312897]}},
{"type": "Feature", "id": "dDUi4qBRbUaQhUC5fVaNhXQrufI=", "properties": {"ref": "13145", "@spider": "wyndham", "addr:full": "2459 Trans Canada Hwy East Frontage Road", "addr:city": "Kamloops", "addr:state": "BC", "addr:postcode": "V2C 4A9", "addr:country": "CA", "name": "Super 8 by Wyndham Kamloops East", "phone": "+1-250-374-2488", "website": "https://www.wyndhamhotels.com/super-8/kamloops-british-columbia/super-8-kamloops-east/overview", "brand": "Super8"}, "geometry": {"type": "Point", "coordinates": [-120.248451, 50.67617]}},
{"type": "Feature", "id": "YeUNaTscmN4r-OMqTM8dVI24bzU=", "properties": {"ref": "46231", "@spider": "wyndham", "addr:full": "1855 Rogers Place ", "addr:city": "Kamloops", "addr:state": "BC", "addr:postcode": "V1S 1T7", "addr:country": "CA", "name": "Days Inn by Wyndham Kamloops BC", "phone": "+1-250-314-9889", "website": "https://www.wyndhamhotels.com/days-inn/kamloops-british-columbia/days-inn-kamloops-bc/overview", "brand": "Days Inn"}, "geometry": {"type": "Point", "coordinates": [-120.368615, 50.652034]}},
{"type": "Feature", "id": "EAPpfli1MYm8y2K06gdODe67PYs=", "properties": {"ref": "35866", "@spider": "wyndham", "addr:full": "4704 42nd Avenue ", "addr:city": "Innisfail", "addr:state": "AB", "addr:postcode": "T4G 1P6", "addr:country": "CA", "name": "Super 8 by Wyndham Innisfail", "phone": "+1-403-879-2461", "website": "https://www.wyndhamhotels.com/super-8/innisfail-alberta/super-8-innisfail/overview", "brand": "Super8"}, "geometry": {"type": "Point", "coordinates": [-113.936612, 52.024772]}},
{"type": "Feature", "id": "JyvTxxuGJ82f2H_zLNEzDjtEh3E=", "properties": {"ref": "56197", "@spider": "wyndham", "addr:full": "5402 Highway 2A ", "addr:city": "Lacombe", "addr:state": "AB", "addr:postcode": "T4L 1A9", "addr:country": "CA", "name": "Travelodge by Wyndham Lacombe", "phone": "+1-403-782-7826", "website": "https://www.wyndhamhotels.com/travelodge/lacombe-alberta/travelodge-lacombe/overview", "brand": "Travelodge"}, "geometry": {"type": "Point", "coordinates": [-113.721759, 52.468779]}},
{"type": "Feature", "id": "BlK-Rkrmqi_vgfJQKxmq9e0VVNg=", "properties": {"ref": "51295", "@spider": "wyndham", "addr:full": "8116 Sparrow Crescent ", "addr:city": "Leduc", "addr:state": "AB", "addr:postcode": "T9E 8B7", "addr:country": "CA", "name": "Days Inn & Suites by Wyndham Edmonton Airport", "phone": "+1-780-986-1760", "website": "https://www.wyndhamhotels.com/days-inn/leduc-alberta/days-inn-and-suites-edmonton-airport/overview", "brand": "Days Inn"}, "geometry": {"type": "Point", "coordinates": [-113.54596, 53.30341]}},
{"type": "Feature", "id": "fAhRLXccDnY2Ndxh5sU900zJ8MY=", "properties": {"ref": "26273", "@spider": "wyndham", "addr:full": "9305 100 Street ", "addr:city": "Lac La Biche", "addr:state": "AB", "addr:postcode": "T0A 2C0", "addr:country": "CA", "name": "Ramada by Wyndham Lac La Biche", "phone": "+1-780-623-2250", "website": "https://www.wyndhamhotels.com/ramada/lac-la-biche-alberta/ramada-lac-la-biche/overview", "brand": "Ramada"}, "geometry": {"type": "Point", "coordinates": [-111.9697, 54.7573]}},
{"type": "Feature", "id": "TVGnT8TwzItwZ3PpcQBPmlAr10A=", "properties": {"ref": "15429", "@spider": "wyndham", "addr:full": "1512 13th Avenue Southeast ", "addr:city": "High River", "addr:state": "AB", "addr:postcode": "T1V 2B1", "addr:country": "CA", "name": "Ramada by Wyndham High River", "phone": "+1-403-603-3183", "website": "https://www.wyndhamhotels.com/ramada/high-river-alberta/ramada-high-river/overview", "brand": "Ramada"}, "geometry": {"type": "Point", "coordinates": [-113.843514, 50.5707]}},
{"type": "Feature", "id": "H4k0HrsZtMS-7CDmqzTpkT9MFvs=", "properties": {"ref": "14345", "@spider": "wyndham", "addr:full": "358 Smith Street ", "addr:city": "Hinton", "addr:state": "AB", "addr:postcode": "T7V 2A1", "addr:country": "CA", "name": "Days Inn by Wyndham Hinton", "phone": "+1-780-817-1960", "website": "https://www.wyndhamhotels.com/days-inn/hinton-alberta/days-inn-hinton-jasper/overview", "brand": "Days Inn"}, "geometry": {"type": "Point", "coordinates": [-117.559513, 53.404881]}},
{"type": "Feature", "id": "Q8jHZt8NxlyHZQefK-KM0j0jfw0=", "properties": {"ref": "45092", "@spider": "wyndham", "addr:full": "10101 96 Street ", "addr:city": "High Level", "addr:state": "AB", "addr:postcode": "T0H 1Z0", "addr:country": "CA", "name": "Days Inn by Wyndham, High Level", "phone": "+1-587-743-0112", "website": "https://www.wyndhamhotels.com/days-inn/high-level-alberta/days-inn-high-level/overview", "brand": "Days Inn"}, "geometry": {"type": "Point", "coordinates": [-117.127216, 58.515303]}},
{"type": "Feature", "id": "zCpIAUxIYJ2dgyToprwY-E4evAk=", "properties": {"ref": "50371", "@spider": "wyndham", "addr:full": "5010-40 Avenue ", "addr:city": "Innisfail", "addr:state": "AB", "addr:postcode": "T4G 1Z1", "addr:country": "CA", "name": "Days Inn by Wyndham Innisfail", "phone": "+1-403-227-4405", "website": "https://www.wyndhamhotels.com/days-inn/innisfail-alberta/days-inn-innisfail/overview", "brand": "Days Inn"}, "geometry": {"type": "Point", "coordinates": [-113.93124, 52.02819]}},
{"type": "Feature", "id": "xvE6eiPZYs1uip1sfHjtbxYikc8=", "properties": {"ref": "11005", "@spider": "wyndham", "addr:full": "284 Smith Street ", "addr:city": "Hinton", "addr:state": "AB", "addr:postcode": "T7V2A1", "addr:country": "CA", "name": "Super 8 by Wyndham Hinton", "phone": "+1-780-900-8049", "website": "https://www.wyndhamhotels.com/super-8/hinton-alberta/super-8-hinton/overview", "brand": "Super8"}, "geometry": {"type": "Point", "coordinates": [-117.561504, 53.403772]}},
{"type": "Feature", "id": "tq622polfdz0x67JOianBY5OLV8=", "properties": {"ref": "13464", "@spider": "wyndham", "addr:full": "9502 114 Avenue ", "addr:city": "High Level", "addr:state": "AB", "addr:postcode": "TOH 1Z0", "addr:country": "CA", "name": "Super 8 by Wyndham High Level AB", "phone": "+1-780-851-1507", "website": "https://www.wyndhamhotels.com/super-8/high-level-alberta/super-8-high-level-ab/overview", "brand": "Super8"}, "geometry": {"type": "Point", "coordinates": [-117.146197, 58.5034]}},
{"type": "Feature", "id": "WVdSsJM3BjpGjIX3VswuHI0KzHk=", "properties": {"ref": "39910", "@spider": "wyndham", "addr:full": "4125 - 52nd Avenue ", "addr:city": "High Prairie", "addr:state": "AB", "addr:postcode": "T0G 1E0", "addr:country": "CA", "name": "Days Inn by Wyndham High Prairie", "phone": "+1-780-523-3050", "website": "https://www.wyndhamhotels.com/days-inn/high-prairie-alberta/days-inn-high-prairie/overview", "brand": "Days Inn"}, "geometry": {"type": "Point", "coordinates": [-116.487313, 55.432785]}},
{"type": "Feature", "id": "LvRvuc5lt6m8MBfeyJqGWtf8RcE=", "properties": {"ref": "47331", "@spider": "wyndham", "addr:full": "4701 50th Ave ", "addr:city": "Grassland", "addr:state": "AB", "addr:postcode": "T0A 1V0", "addr:country": "CA", "name": "Ramada by Wyndham Grassland", "phone": "+1-780-628-1747", "website": "https://www.wyndhamhotels.com/ramada/grassland-alberta/ramada-grassland/overview", "brand": "Ramada"}, "geometry": {"type": "Point", "coordinates": [-112.68631, 54.819378]}},
{"type": "Feature", "id": "FdIRj-eO8jk2kRm78Uunl5J_wzU=", "properties": {"ref": "24994", "@spider": "wyndham", "addr:full": "10218  162 Avenue ", "addr:city": "Grande Prairie", "addr:state": "AB", "addr:postcode": "T8V 0P2", "addr:country": "CA", "name": "Days Inn by Wyndham Grande Prairie", "phone": "+1-780-532-2773", "website": "https://www.wyndhamhotels.com/days-inn/grande-prairie-alberta/days-inn-grande-prairie/overview", "brand": "Days Inn"}, "geometry": {"type": "Point", "coordinates": [-118.811216, 55.227408]}},
{"type": "Feature", "id": "mWNtbhfZjxwggnj9rpZN_GZCPMg=", "properties": {"ref": "50290", "@spider": "wyndham", "addr:full": "4745 49th Street ", "addr:city": "Hardisty", "addr:state": "AB", "addr:postcode": "T0B 1V0", "addr:country": "CA", "name": "Super 8 by Wyndham Hardisty", "phone": "+1-780-888-2550", "website": "https://www.wyndhamhotels.com/super-8/hardisty-alberta/super-8-hardisty/overview", "brand": "Super8"}, "geometry": {"type": "Point", "coordinates": [-111.303656, 52.675005]}},
{"type": "Feature", "id": "_2DFtqas4RpiKIMHVjaQhwKezK8=", "properties": {"ref": "08613", "@spider": "wyndham", "addr:full": "10050 116th Avenue ", "addr:city": "Grande Prairie", "addr:state": "AB", "addr:postcode": "T8V 4K5", "addr:country": "CA", "name": "Super 8 by Wyndham Grande Prairie", "phone": "+1-780-532-8288", "website": "https://www.wyndhamhotels.com/super-8/grande-prairie-alberta/super-8-grande-prairie/overview", "brand": "Super8"}, "geometry": {"type": "Point", "coordinates": [-118.7967, 55.1866]}},
{"type": "Feature", "id": "ppv_3ivkp6TXraf4FU8tNC0CLyc=", "properties": {"ref": "46189", "@spider": "wyndham", "addr:full": "206 Highway Avenue ", "addr:city": "Fox Creek", "addr:state": "AB", "addr:postcode": "T0H 1P0", "addr:country": "CA", "name": "Super 8 by Wyndham Fox Creek", "phone": "+1-780-622-8333", "website": "https://www.wyndhamhotels.com/super-8/fox-creek-alberta/super-8-fox-creek/overview", "brand": "Super8"}, "geometry": {"type": "Point", "coordinates": [-116.795097, 54.390709]}},
{"type": "Feature", "id": "eXFH8YaRlq09gLJ9IOfbN58aHRk=", "properties": {"ref": "46029", "@spider": "wyndham", "addr:full": "317 Sakitawaw Trail ", "addr:city": "Fort McMurray", "addr:state": "AB", "addr:postcode": "T9H 5E7", "addr:country": "CA", "name": "Microtel Inn & Suites by Wyndham Fort McMurray", "phone": "+1-587-452-0533", "website": "https://www.wyndhamhotels.com/microtel/fort-mcmurray-alberta/microtel-inn-and-suites-by-wyndham-fort-mcmurray/overview", "brand": "Microtel Inn"}, "geometry": {"type": "Point", "coordinates": [-111.353957, 56.684717]}},
{"type": "Feature", "id": "KbpGQguCW4GZvp5esVt_-FdJLVI=", "properties": {"ref": "12840", "@spider": "wyndham", "addr:full": "1601 13th Avenue ", "addr:city": "High River", "addr:state": "AB", "addr:postcode": "T1V 2B1", "addr:country": "CA", "name": "Super 8 by Wyndham High River AB", "phone": "+1-403-652-4448", "website": "https://www.wyndhamhotels.com/super-8/high-river-alberta/super-8-high-river-ab/overview", "brand": "Super8"}, "geometry": {"type": "Point", "coordinates": [-113.84363, 50.5721]}},
{"type": "Feature", "id": "H9HlDDG5gsZOyufVHRWEv3GVBnA=", "properties": {"ref": "55755", "@spider": "wyndham", "addr:full": "8530 Franklin Avenue ", "addr:city": "Fort McMurray", "addr:state": "AB", "addr:postcode": "T9H2J3", "addr:country": "CA", "name": "Baymont by Wyndham Fort McMurray", "phone": "+1-587-674-0542", "website": "https://www.wyndhamhotels.com/baymont/fort-mcmurray-alberta/baymont-fort-mcmurray/overview", "brand": "Baymont Inns"}, "geometry": {"type": "Point", "coordinates": [-111.35679, 56.71874]}},
{"type": "Feature", "id": "pu5CC7UXHpjVWSN8nIv055Ashz0=", "properties": {"ref": "49835", "@spider": "wyndham", "addr:full": "149 Woodley Drive ", "addr:city": "Hinton", "addr:state": "AB", "addr:postcode": "T7V 0A7", "addr:country": "CA", "name": "Ramada by Wyndham Hinton", "phone": "+1-866-419-8406", "website": "https://www.wyndhamhotels.com/ramada/hinton-alberta/ramada-hinton/overview", "brand": "Ramada"}, "geometry": {"type": "Point", "coordinates": [-117.62737, 53.38184]}},
{"type": "Feature", "id": "GF9oFWE2cCB87dBw08OmX_UM9Tw=", "properties": {"ref": "52158", "@spider": "wyndham", "addr:full": "230 Parent Way ", "addr:city": "Fort McMurray", "addr:state": "AB", "addr:postcode": "T9H 5E6", "addr:country": "CA", "name": "Super 8 by Wyndham Fort McMurray", "phone": "+1-780-743-8000", "website": "https://www.wyndhamhotels.com/super-8/fort-mcmurray-alberta/super8-fort-mcmurray/overview", "brand": "Super8"}, "geometry": {"type": "Point", "coordinates": [-111.35093, 56.68335]}},
{"type": "Feature", "id": "w7U4BwhduSKv4FtJEjK5nofti2A=", "properties": {"ref": "15217", "@spider": "wyndham", "addr:full": "8750 84th Street ", "addr:city": "Fort Saskatchewan", "addr:state": "AB", "addr:postcode": "T8L 4R5", "addr:country": "CA", "name": "Super 8 by Wyndham Fort Saskatchewan", "phone": "+1-780-998-2898", "website": "https://www.wyndhamhotels.com/super-8/fort-saskatchewan-alberta/super-8-fort-saskatchewan/overview", "brand": "Super8"}, "geometry": {"type": "Point", "coordinates": [-113.234809, 53.685275]}},
{"type": "Feature", "id": "awXFtoSBp3Od4rf0Y9T3UKWGD7o=", "properties": {"ref": "23353", "@spider": "wyndham", "addr:full": "5220 2nd Avenue ", "addr:city": "Edson", "addr:state": "AB", "addr:postcode": "T7E 1X5", "addr:country": "CA", "name": "Super 8 by Wyndham Edson", "phone": "+1-780-723-7373", "website": "https://www.wyndhamhotels.com/super-8/edson-alberta/super-8-edson/overview", "brand": "Super8"}, "geometry": {"type": "Point", "coordinates": [-116.436048, 53.579841]}},
{"type": "Feature", "id": "LfUa2bC8O2O8kJlDTs0B5NxBYKc=", "properties": {"ref": "55760", "@spider": "wyndham", "addr:full": "5018 1st Avenue ", "addr:city": "Edson", "addr:state": "AB", "addr:postcode": "T7E 1S9", "addr:country": "CA", "name": "Baymont by Wyndham Edson", "phone": "+1-844-494-5429", "website": "https://www.wyndhamhotels.com/baymont/edson-alberta/baymont-edson/overview", "brand": "Baymont Inns"}, "geometry": {"type": "Point", "coordinates": [-116.43343, 53.5832]}},
{"type": "Feature", "id": "BQF28yJj5_KsMkVuf2wa7BCUVCM=", "properties": {"ref": "52103", "@spider": "wyndham", "addr:full": "8102 Fraser Ave ", "addr:city": "Fort McMurray", "addr:state": "AB", "addr:postcode": "T9H0G1", "addr:country": "CA", "name": "Ramada by Wyndham Fort McMurray", "phone": "+1-780-749-0261", "website": "https://www.wyndhamhotels.com/ramada/fort-mcmurray-alberta/ramada-fort-mcmurray/overview", "brand": "Ramada"}, "geometry": {"type": "Point", "coordinates": [-111.345267, 56.716043]}},
{"type": "Feature", "id": "vqYwnpnnY6oms9JM8RYpjd6xOsU=", "properties": {"ref": "09759", "@spider": "wyndham", "addr:full": "3414 118th Ave ", "addr:city": "Edmonton", "addr:state": "AB", "addr:postcode": "T5W 0Z4", "addr:country": "CA", "name": "Travelodge by Wyndham Edmonton East", "phone": "+1-780-474-0456", "website": "https://www.wyndhamhotels.com/travelodge/edmonton-alberta/travelodge-edmonton-east/overview", "brand": "Travelodge"}, "geometry": {"type": "Point", "coordinates": [-113.395311, 53.570661]}},
{"type": "Feature", "id": "b-794JCHw-CmSGE_5FqFWZ3OGn4=", "properties": {"ref": "54878", "@spider": "wyndham", "addr:full": "5142 2nd Avenue ", "addr:city": "Edson", "addr:state": "AB", "addr:postcode": "T7E 1V9", "addr:country": "CA", "name": "Travelodge by Wyndham Edson", "phone": "+1-877-723-5591", "website": "https://www.wyndhamhotels.com/travelodge/edson-alberta/travelodge-edson/overview", "brand": "Travelodge"}, "geometry": {"type": "Point", "coordinates": [-116.43438, 53.58042]}},
{"type": "Feature", "id": "NghGTFCwIJh9NZp-wditAb_oyXo=", "properties": {"ref": "46229", "@spider": "wyndham", "addr:full": "4536 2nd Avenue ", "addr:city": "Edson", "addr:state": "AB", "addr:postcode": "T7E 1C3", "addr:country": "CA", "name": "Ramada by Wyndham Edson", "phone": "+1-780-723-9797", "website": "https://www.wyndhamhotels.com/ramada/edson-alberta/ramada-edson/overview", "brand": "Ramada"}, "geometry": {"type": "Point", "coordinates": [-116.419807, 53.584709]}},
{"type": "Feature", "id": "LCOrsHvKbLDBgJZzxuVFonUzLl8=", "properties": {"ref": "11020", "@spider": "wyndham", "addr:full": "18220 100th Avenue ", "addr:city": "Edmonton", "addr:state": "AB", "addr:postcode": "T5S 2V2", "addr:country": "CA", "name": "Wingate by Wyndham Edmonton West", "phone": "+1-780-443-1000", "website": "https://www.wyndhamhotels.com/wingate/edmonton-alberta/wingate-by-wyndham-edmonton-west/overview", "brand": "Wingate Hotels"}, "geometry": {"type": "Point", "coordinates": [-113.636493, 53.537579]}},
{"type": "Feature", "id": "ZvQSkuSBY_U0YMKxIRgt2puXM1g=", "properties": {"ref": "09799", "@spider": "wyndham", "addr:full": "18320 Stony Plain Road ", "addr:city": "Edmonton", "addr:state": "AB", "addr:postcode": "T5S 1A7", "addr:country": "CA", "name": "Travelodge by Wyndham Edmonton West", "phone": "+1-780-800-7183", "website": "https://www.wyndhamhotels.com/travelodge/edmonton-alberta/travelodge-edmonton-west/overview", "brand": "Travelodge"}, "geometry": {"type": "Point", "coordinates": [-113.638322, 53.541585]}}]}