{"type":"FeatureCollection","features":[{"type": "Feature", "id": "VWuf-4UikuzVtZuaaXfHGwLlPjM=", "properties": {"ref": "3830", "@spider": "xfinity", "addr:full": "1451 Dr Edward Hillard Drive", "addr:city": "Tuscaloosa", "addr:state": "AL", "addr:postcode": "35401", "addr:country": "US", "name": "Xfinity Store by Comcast", "website": "https://www.xfinity.com/local/al/tuscaloosa/1451-dr-edward-hillard-drive.html?geo=32.3182314,-86.902298", "opening_hours": "Mo 12:00-17:00; Tu-Su 10:00-19:00", "brand": "Xfinity"}, "geometry": {"type": "Point", "coordinates": [-87.52745940795194, 33.19845007766653]}},
{"type": "Feature", "id": "iGbNYAFR0ld9ciy3I812LA2SCew=", "properties": {"ref": "4049", "@spider": "xfinity", "addr:full": "15305 W 119th Street", "addr:city": "Olathe", "addr:state": "KS", "addr:postcode": "66062", "addr:country": "US", "name": "Xfinity Store by Comcast", "website": "https://www.xfinity.com/local/ks/olathe/15305-w-119th-street.html?geo=37.8073856,-94.35628360000001", "opening_hours": "Mo 11:00-18:00; Tu-Su 10:00-20:00", "brand": "Xfinity"}, "geometry": {"type": "Point", "coordinates": [-94.76194629999999, 38.910146]}},
{"type": "Feature", "id": "GowdPJWZfznQ7AddrLTulPCbSig=", "properties": {"ref": "3717", "@spider": "xfinity", "addr:full": "18701 East 39th Street South, Suite B", "addr:city": "Independence", "addr:state": "MO", "addr:postcode": "64057", "addr:country": "US", "name": "Xfinity Store by Comcast", "website": "https://www.xfinity.com/local/mo/independence/18701-east-39th-street-south--suite-b.html?geo=37.8073856,-94.35628360000001", "opening_hours": "Mo 11:00-18:00; Tu-Su 10:00-20:00", "brand": "Xfinity"}, "geometry": {"type": "Point", "coordinates": [-94.3608486, 39.0475432]}},
{"type": "Feature", "id": "M4gmLg5OW3AIu9gomp_T0YWmPlw=", "properties": {"ref": "4108", "@spider": "xfinity", "addr:full": "850 Herndon Ave", "addr:city": "Clovis", "addr:state": "CA", "addr:postcode": "93612", "addr:country": "US", "name": "Xfinity Store by Comcast Branded Partner", "website": "https://www.xfinity.com/local/ca/clovis/850-herndon-ave.html?geo=36.778261,-119.4179324", "opening_hours": "Mo 11:00-18:00; Tu-Su 10:00-20:00", "brand": "Xfinity"}, "geometry": {"type": "Point", "coordinates": [-119.698458, 36.8364187]}},
{"type": "Feature", "id": "HShoQXbsRDg8eEInE2YeHgiyhZA=", "properties": {"ref": "4073", "@spider": "xfinity", "addr:full": "4952 East Kings Canyon Road, 102", "addr:city": "Fresno", "addr:state": "CA", "addr:postcode": "93727", "addr:country": "US", "name": "Xfinity Store by Comcast Branded Partner", "website": "https://www.xfinity.com/local/ca/fresno/4952-east-kings-canyon-road--102.html?geo=36.778261,-119.4179324", "opening_hours": "Mo 11:00-18:00; Tu-Su 10:00-20:00", "brand": "Xfinity"}, "geometry": {"type": "Point", "coordinates": [-119.729969, 36.735582]}},
{"type": "Feature", "id": "sHyJnEdSD419DBQBzejo0zcBGfY=", "properties": {"ref": "4064", "@spider": "xfinity", "addr:full": "467 E Shaw Avenue", "addr:city": "Fresno", "addr:state": "CA", "addr:postcode": "93710", "addr:country": "US", "name": "Xfinity Store by Comcast", "website": "https://www.xfinity.com/local/ca/fresno/467-e-shaw-avenue.html?geo=36.778261,-119.4179324", "opening_hours": "Mo 11:00-18:00; Tu-Su 10:00-20:00", "brand": "Xfinity"}, "geometry": {"type": "Point", "coordinates": [-119.7798216, 36.8079819]}},
{"type": "Feature", "id": "OQKNFPhyEFezpYAxyzm4hbyddW8=", "properties": {"ref": "3678", "@spider": "xfinity", "addr:full": "35 E Via La Plata", "addr:city": "Fresno", "addr:state": "CA", "addr:postcode": "93720", "addr:country": "US", "name": "Xfinity Store by Comcast", "website": "https://www.xfinity.com/local/ca/fresno/35-e-via-la-plata.html?geo=36.778261,-119.4179324", "opening_hours": "Mo 11:00-18:00; Tu-Su 10:00-20:00", "brand": "Xfinity"}, "geometry": {"type": "Point", "coordinates": [-119.7897417, 36.8482578]}},
{"type": "Feature", "id": "gm5Nm5IS22rzcjavuPn3MJqmvg0=", "properties": {"ref": "4136", "@spider": "xfinity", "addr:full": "4462 W. Shaw Avenue", "addr:city": "Fresno", "addr:state": "CA", "addr:postcode": "93722", "addr:country": "US", "name": "Xfinity Store by Comcast Branded Partner", "website": "https://www.xfinity.com/local/ca/fresno/4462-w--shaw-avenue.html?geo=36.778261,-119.4179324", "opening_hours": "Mo 11:00-18:00; Tu-Su 10:00-20:00", "brand": "Xfinity"}, "geometry": {"type": "Point", "coordinates": [-119.87178256721205, 36.81013752103494]}},
{"type": "Feature", "id": "kZMLG8FZpA1BbWP5Fhz1bqZ7-do=", "properties": {"ref": "3946", "@spider": "xfinity", "addr:full": "4147 S Mooney Blvd", "addr:city": "Visalia", "addr:state": "CA", "addr:postcode": "93277", "addr:country": "US", "name": "Xfinity Store by Comcast", "website": "https://www.xfinity.com/local/ca/visalia/4147-s-mooney-blvd.html?geo=36.778261,-119.4179324", "opening_hours": "Mo 11:00-18:00; Tu-Su 10:00-20:00", "brand": "Xfinity"}, "geometry": {"type": "Point", "coordinates": [-119.31692271649888, 36.29302716511226]}},
{"type": "Feature", "id": "Wj_GtA8f55pyrotLKFwrNs-EyEA=", "properties": {"ref": "4113", "@spider": "xfinity", "addr:full": "208 N 12th Avenue", "addr:city": "Hanford", "addr:state": "CA", "addr:postcode": "93230", "addr:country": "US", "name": "Xfinity Store by Comcast Branded Partner", "website": "https://www.xfinity.com/local/ca/hanford/208-n-12th-avenue.html?geo=36.778261,-119.4179324", "opening_hours": "Mo 11:00-18:00; Tu-Su 10:00-20:00", "brand": "Xfinity"}, "geometry": {"type": "Point", "coordinates": [-119.674107, 36.325224]}},
{"type": "Feature", "id": "wQgbpxXOUIdUKLK1U1V7dzD-9dU=", "properties": {"ref": "2167", "@spider": "xfinity", "addr:full": "1717 Miles Court", "addr:city": "Merced", "addr:state": "CA", "addr:postcode": "95348", "addr:country": "US", "name": "Comcast Service Center", "website": "https://www.xfinity.com/local/ca/merced/1717-miles-court.html?geo=36.778261,-119.4179324", "opening_hours": "Mo-Sa 9:00-18:00", "brand": "Xfinity"}, "geometry": {"type": "Point", "coordinates": [-120.506877, 37.311305]}},
{"type": "Feature", "id": "cLCOJN3m1WQ7Uf1oBDH29Z_rWsc=", "properties": {"ref": "1692", "@spider": "xfinity", "addr:full": "115 West G St, Suite A", "addr:city": "Los Banos", "addr:state": "CA", "addr:postcode": "93635", "addr:country": "US", "name": "Comcast Service Center", "website": "https://www.xfinity.com/local/ca/los-banos/115-west-g-st--suite-a.html?geo=36.778261,-119.4179324", "opening_hours": "Mo-Fr 9:00-17:00", "brand": "Xfinity"}, "geometry": {"type": "Point", "coordinates": [-120.856174, 37.067603]}},
{"type": "Feature", "id": "WmD6mjfHaVpfkYI8T0N5hMQlnHg=", "properties": {"ref": "1116", "@spider": "xfinity", "addr:full": "1905 Scenic Hwy", "addr:city": "Snellville", "addr:state": "GA", "addr:postcode": "30078", "addr:country": "US", "name": "Xfinity Store by Comcast", "website": "https://www.xfinity.com/local/ga/snellville/1905-scenic-hwy.html?geo=33.9487431,-83.3877361", "opening_hours": "Mo 12:00-17:00; Tu-Su 10:00-19:00", "brand": "Xfinity"}, "geometry": {"type": "Point", "coordinates": [-84.0144614, 33.8782162]}},
{"type": "Feature", "id": "3uyOP-ng85-DFTIInr_m2jrBL98=", "properties": {"ref": "3984", "@spider": "xfinity", "addr:full": "1895 Highway 20 SE", "addr:city": "Conyers", "addr:state": "GA", "addr:postcode": "30013", "addr:country": "US", "name": "Xfinity Store by Comcast Branded Partner", "website": "https://www.xfinity.com/local/ga/conyers/1895-highway-20-se.html?geo=33.9487431,-83.3877361", "opening_hours": "Mo 12:00-17:00; Tu-Su 9:00-19:00", "brand": "Xfinity"}, "geometry": {"type": "Point", "coordinates": [-84.0150714, 33.6395554]}},
{"type": "Feature", "id": "Mj8AyENCL7A97XKrp4ukBph9kMU=", "properties": {"ref": "3982", "@spider": "xfinity", "addr:full": "8200 Mall Parkway", "addr:city": "Lithonia", "addr:state": "GA", "addr:postcode": "30038", "addr:country": "US", "name": "Xfinity Store by Comcast Branded Partner", "website": "https://www.xfinity.com/local/ga/lithonia/8200-mall-parkway.html?geo=33.9487431,-83.3877361", "opening_hours": "Mo 12:00-17:00; Tu-Su 9:00-19:00", "brand": "Xfinity"}, "geometry": {"type": "Point", "coordinates": [-84.08705239999999, 33.6920164]}},
{"type": "Feature", "id": "7eQhs0-9hvqX-hm_Qc-Dze-sk-I=", "properties": {"ref": "3970", "@spider": "xfinity", "addr:full": "2235 Market Place Blvd", "addr:city": "Cumming", "addr:state": "GA", "addr:postcode": "30041", "addr:country": "US", "name": "Xfinity Store by Comcast Branded Partner", "website": "https://www.xfinity.com/local/ga/cumming/2235-market-place-blvd.html?geo=33.9487431,-83.3877361", "opening_hours": "Mo 12:00-17:00; Tu-Su 10:00-19:00", "brand": "Xfinity"}, "geometry": {"type": "Point", "coordinates": [-84.1281912, 34.1936325]}},
{"type": "Feature", "id": "-ni2T90a4XKTGq17kax95-FXvl8=", "properties": {"ref": "4133", "@spider": "xfinity", "addr:full": "5222 Peachtree Parkway", "addr:city": "Peachtree Corners", "addr:state": "GA", "addr:postcode": "30092", "addr:country": "US", "name": "Xfinity Store by Comcast", "website": "https://www.xfinity.com/local/ga/peachtree-corners/5222-peachtree-parkway.html?geo=33.9487431,-83.3877361", "opening_hours": "Mo 12:00-17:00; Tu-Su 10:00-19:00", "brand": "Xfinity"}, "geometry": {"type": "Point", "coordinates": [-84.21558069999999, 33.9798256]}},
{"type": "Feature", "id": "bifeCW4G24xHlDhemTFahzNpqgs=", "properties": {"ref": "3932", "@spider": "xfinity", "addr:full": "1575 Church Street", "addr:city": "Decatur", "addr:state": "GA", "addr:postcode": "30033", "addr:country": "US", "name": "Xfinity Store by Comcast", "website": "https://www.xfinity.com/local/ga/decatur/1575-church-street.html?geo=33.9487431,-83.3877361", "opening_hours": "Mo 12:00-17:00; Tu-Su 11:00-19:00", "brand": "Xfinity"}, "geometry": {"type": "Point", "coordinates": [-84.2836288693115, 33.79359788794424]}},
{"type": "Feature", "id": "naGZS_lO4QJZ93DgcyxiWYGsqXI=", "properties": {"ref": "1096", "@spider": "xfinity", "addr:full": "7561 North Point Pkwy Suite 900", "addr:city": "Alpharetta", "addr:state": "GA", "addr:postcode": "30022", "addr:country": "US", "name": "Xfinity Store by Comcast", "website": "https://www.xfinity.com/local/ga/alpharetta/7561-north-point-pkwy-suite-900.html?geo=33.9487431,-83.3877361", "opening_hours": "Mo 12:00-17:00; Tu-Su 10:00-19:00", "brand": "Xfinity"}, "geometry": {"type": "Point", "coordinates": [-84.30577754974365, 34.04210442217166]}},
{"type": "Feature", "id": "d05ITHrTW8QFm__isY_HPIM9eqQ=", "properties": {"ref": "3723", "@spider": "xfinity", "addr:full": "3637 Peachtree Rd", "addr:city": "Atlanta", "addr:state": "GA", "addr:postcode": "30319", "addr:country": "US", "name": "Xfinity Store by Comcast", "website": "https://www.xfinity.com/local/ga/atlanta/3637-peachtree-rd.html?geo=33.9487431,-83.3877361", "opening_hours": "Mo 12:00-17:00; Tu-Su 10:00-19:00", "brand": "Xfinity"}, "geometry": {"type": "Point", "coordinates": [-84.35820567605744, 33.853268131724406]}},
{"type": "Feature", "id": "Ti0JnINGcN1vVYNEmTlNNNF9DQc=", "properties": {"ref": "4045", "@spider": "xfinity", "addr:full": "6255 Roswell Rd", "addr:city": "Atlanta", "addr:state": "GA", "addr:postcode": "30328", "addr:country": "US", "name": "Xfinity Store by Comcast", "website": "https://www.xfinity.com/local/ga/atlanta/6255-roswell-rd.html?geo=33.9487431,-83.3877361", "opening_hours": "Mo 12:00-17:00; Tu-Su 10:00-19:00", "brand": "Xfinity"}, "geometry": {"type": "Point", "coordinates": [-84.37816244047546, 33.92586457913762]}},
{"type": "Feature", "id": "X3EdWfUI6LK9CEEpBOaG0M2j4pI=", "properties": {"ref": "1111", "@spider": "xfinity", "addr:full": "699 Ponce de Leon", "addr:city": "Atlanta", "addr:state": "GA", "addr:postcode": "30308", "addr:country": "US", "name": "Xfinity Store by Comcast", "website": "https://www.xfinity.com/local/ga/atlanta/699-ponce-de-leon.html?geo=33.9487431,-83.3877361", "opening_hours": "Mo 12:00-17:00; Tu-Su 11:00-19:00", "brand": "Xfinity"}, "geometry": {"type": "Point", "coordinates": [-84.3639987, 33.7730721]}},
{"type": "Feature", "id": "ADMBMoXBsgF7C-aQTh2HNi_DbVU=", "properties": {"ref": "4033", "@spider": "xfinity", "addr:full": "4475 Roswell Road", "addr:city": "Marietta", "addr:state": "GA", "addr:postcode": "30062", "addr:country": "US", "name": "Xfinity Store by Comcast", "website": "https://www.xfinity.com/local/ga/marietta/4475-roswell-road.html?geo=33.9487431,-83.3877361", "opening_hours": "Mo 12:00-17:00; Tu-Su 10:00-19:00", "brand": "Xfinity"}, "geometry": {"type": "Point", "coordinates": [-84.42358153264503, 33.988095109505984]}},
{"type": "Feature", "id": "R6zvAaoEUHe8UHGVhvDLj4jfc94=", "properties": {"ref": "3997", "@spider": "xfinity", "addr:full": "1851 Mt. Zion Road", "addr:city": "Morrow", "addr:state": "GA", "addr:postcode": "30260", "addr:country": "US", "name": "Xfinity Store by Comcast Branded Partner", "website": "https://www.xfinity.com/local/ga/morrow/1851-mt--zion-road.html?geo=33.9487431,-83.3877361", "opening_hours": "Mo 12:00-17:00; Tu-Su 10:00-19:00", "brand": "Xfinity"}, "geometry": {"type": "Point", "coordinates": [-84.3318197, 33.5686249]}},
{"type": "Feature", "id": "uEqX0Pqdluizl7qm7aJbP6HRnik=", "properties": {"ref": "3863", "@spider": "xfinity", "addr:full": "945 Battery Ave SE", "addr:city": "Atlanta", "addr:state": "GA", "addr:postcode": "30339", "addr:country": "US", "name": "Xfinity Store by Comcast", "website": "https://www.xfinity.com/local/ga/atlanta/945-battery-ave-se.html?geo=33.9487431,-83.3877361", "opening_hours": "Mo 12:00-17:00; Tu-Su 10:00-19:00", "brand": "Xfinity"}, "geometry": {"type": "Point", "coordinates": [-84.47179052209013, 33.886912112866646]}},
{"type": "Feature", "id": "R6w3av0haSUtiKz8e6WBmFUXy0k=", "properties": {"ref": "4190", "@spider": "xfinity", "addr:full": "289 Ridgewalk Pkwy", "addr:city": "Woodstock", "addr:state": "GA", "addr:postcode": "30188", "addr:country": "US", "name": "Xfinity Store by Comcast Branded Partner", "website": "https://www.xfinity.com/local/ga/woodstock/289-ridgewalk-pkwy.html?geo=33.9487431,-83.3877361", "opening_hours": "Mo 12:00-17:00; Tu-Su 9:00-19:00", "brand": "Xfinity"}, "geometry": {"type": "Point", "coordinates": [-84.51924195463103, 34.119631779631895]}},
{"type": "Feature", "id": "dzd_Rr2oruyhZN1YqLxmr5QGO5E=", "properties": {"ref": "726", "@spider": "xfinity", "addr:full": "3620 Camp Creek Parkway, Suite 200", "addr:city": "Atlanta", "addr:state": "GA", "addr:postcode": "30331", "addr:country": "US", "name": "Xfinity Store by Comcast", "website": "https://www.xfinity.com/local/ga/atlanta/3620-camp-creek-parkway--suite-200.html?geo=33.9487431,-83.3877361", "opening_hours": "Mo 12:00-17:00; Tu-Su 11:00-19:00", "brand": "Xfinity"}, "geometry": {"type": "Point", "coordinates": [-84.50704208526746, 33.654997244824656]}},
{"type": "Feature", "id": "Pz05St-fTdBSow3z39DMztQZPiE=", "properties": {"ref": "3931", "@spider": "xfinity", "addr:full": "96A Pavilion Pkwy", "addr:city": "Fayetteville", "addr:state": "GA", "addr:postcode": "30214", "addr:country": "US", "name": "Xfinity Store by Comcast", "website": "https://www.xfinity.com/local/ga/fayetteville/96a-pavilion-pkwy.html?geo=33.9487431,-83.3877361", "opening_hours": "Mo 12:00-17:00; Tu-Su 10:00-19:00", "brand": "Xfinity"}, "geometry": {"type": "Point", "coordinates": [-84.43724267853891, 33.47961785891089]}},
{"type": "Feature", "id": "hHjCbBhArZIV5pW-WUVI2_C87nQ=", "properties": {"ref": "3973", "@spider": "xfinity", "addr:full": "1985 Cobb Parkway NW", "addr:city": "Kennesaw", "addr:state": "GA", "addr:postcode": "30152", "addr:country": "US", "name": "Xfinity Store by Comcast Branded Partner", "website": "https://www.xfinity.com/local/ga/kennesaw/1985-cobb-parkway-nw.html?geo=33.9487431,-83.3877361", "opening_hours": "Mo 12:00-17:00; Tu-Su 9:00-19:00", "brand": "Xfinity"}, "geometry": {"type": "Point", "coordinates": [-84.59156861397776, 33.99998665181074]}},
{"type": "Feature", "id": "DGEXX-xPs88UfcN6HR8qwnujTJM=", "properties": {"ref": "4051", "@spider": "xfinity", "addr:full": "3878 Austell Road SW", "addr:city": "Marietta", "addr:state": "GA", "addr:postcode": "30008", "addr:country": "US", "name": "Xfinity Store by Comcast Branded Partner", "website": "https://www.xfinity.com/local/ga/marietta/3878-austell-road-sw.html?geo=33.9487431,-83.3877361", "opening_hours": "Mo 12:00-17:00; Tu-Su 9:00-19:00", "brand": "Xfinity"}, "geometry": {"type": "Point", "coordinates": [-84.6001509, 33.8590896]}},
{"type": "Feature", "id": "kx2tpKvXQVjlRisuM0YimeRtf8Q=", "properties": {"ref": "3802", "@spider": "xfinity", "addr:full": "3410 Cobb Pkwy", "addr:city": "Acworth", "addr:state": "GA", "addr:postcode": "30101", "addr:country": "US", "name": "Xfinity Store by Comcast", "website": "https://www.xfinity.com/local/ga/acworth/3410-cobb-pkwy.html?geo=33.9487431,-83.3877361", "opening_hours": "Mo 12:00-17:00; Tu-Su 10:00-19:00", "brand": "Xfinity"}, "geometry": {"type": "Point", "coordinates": [-84.68728988115484, 34.03782342578033]}},
{"type": "Feature", "id": "-l2-W1UdGUoEiJLasH8eDiTF3HU=", "properties": {"ref": "4158", "@spider": "xfinity", "addr:full": "5140 Jimmy Lee Smith Pkwy", "addr:city": "Hiram", "addr:state": "GA", "addr:postcode": "30141", "addr:country": "US", "name": "Xfinity Store by Comcast Branded Partner", "website": "https://www.xfinity.com/local/ga/hiram/5140-jimmy-lee-smith-pkwy.html?geo=33.9487431,-83.3877361", "opening_hours": "Mo 12:00-17:00; Tu-Su 9:00-19:00", "brand": "Xfinity"}, "geometry": {"type": "Point", "coordinates": [-84.74382790203892, 33.8873158683172]}},
{"type": "Feature", "id": "v0RBS0xmVHFxNu3KkuHtUFCs1_8=", "properties": {"ref": "3801", "@spider": "xfinity", "addr:full": "920 Wolcott Street", "addr:city": "Waterbury", "addr:state": "CT", "addr:postcode": "06705", "addr:country": "US", "name": "Xfinity Store by Comcast", "website": "https://www.xfinity.com/local/ct/waterbury/920-wolcott-street.html?geo=41.6032207,-73.087749", "opening_hours": "Mo 11:00-17:00; Tu-Su 10:00-18:00", "brand": "Xfinity"}, "geometry": {"type": "Point", "coordinates": [-73.00735104968548, 41.56467032719977]}},
{"type": "Feature", "id": "BxbN0SHC9hmhDjdp36n_QpSxvvo=", "properties": {"ref": "4227", "@spider": "xfinity", "addr:full": "248-C New Britain Avenue", "addr:city": "Plainville", "addr:state": "CT", "addr:postcode": "06062", "addr:country": "US", "name": "Xfinity Store by Comcast", "website": "https://www.xfinity.com/local/ct/plainville/248-c-new-britain-avenue.html?geo=41.6032207,-73.087749", "opening_hours": "Mo 11:00-17:00; Tu-Su 9:00-19:00", "brand": "Xfinity"}, "geometry": {"type": "Point", "coordinates": [-72.8425554, 41.6753066]}},
{"type": "Feature", "id": "JONEz0dfdeUxr8mPxZrIo7bXvkM=", "properties": {"ref": "4250", "@spider": "xfinity", "addr:full": "500 Westfarms Mall", "addr:city": "Farmington", "addr:state": "CT", "addr:postcode": "06032", "addr:country": "US", "name": "Xfinity Store by Comcast Branded Partner", "website": "https://www.xfinity.com/local/ct/farmington/500-westfarms-mall.html?geo=41.6032207,-73.087749", "opening_hours": "Mo 11:00-18:00; Tu-Su 10:00-21:00", "brand": "Xfinity"}, "geometry": {"type": "Point", "coordinates": [-72.76296881108419, 41.72315591934209]}},
{"type": "Feature", "id": "3fGVRy3i-3dErXbizjQh_KpFe3g=", "properties": {"ref": "1133", "@spider": "xfinity", "addr:full": "1253 New Britain Ave", "addr:city": "West Hartford", "addr:state": "CT", "addr:postcode": "06110", "addr:country": "US", "name": "Xfinity Store by Comcast", "website": "https://www.xfinity.com/local/ct/west-hartford/1253-new-britain-ave.html?geo=41.6032207,-73.087749", "opening_hours": "Mo 11:00-17:00; Tu-Su 10:00-18:00", "brand": "Xfinity"}, "geometry": {"type": "Point", "coordinates": [-72.7440299, 41.7312874]}},
{"type": "Feature", "id": "CFTovcx0HDUoeFXSOqarDOnSZHA=", "properties": {"ref": "3739", "@spider": "xfinity", "addr:full": "300 Universal Drive North", "addr:city": "North Haven", "addr:state": "CT", "addr:postcode": "06473", "addr:country": "US", "name": "Xfinity Store by Comcast", "website": "https://www.xfinity.com/local/ct/north-haven/300-universal-drive-north.html?geo=41.6032207,-73.087749", "opening_hours": "Mo 11:00-17:00; Tu-Su 10:00-18:00", "brand": "Xfinity"}, "geometry": {"type": "Point", "coordinates": [-72.8729469, 41.3529372]}},
{"type": "Feature", "id": "xDXeyvRyaznWM-V7Lt-IlnuqYyI=", "properties": {"ref": "3882", "@spider": "xfinity", "addr:full": "814 Washington St.", "addr:city": "Middletown", "addr:state": "CT", "addr:postcode": "06457", "addr:country": "US", "name": "Xfinity Store by Comcast", "website": "https://www.xfinity.com/local/ct/middletown/814-washington-st.html?geo=41.6032207,-73.087749", "opening_hours": "Mo 11:00-17:00; Tu-Su 10:00-18:00", "brand": "Xfinity"}, "geometry": {"type": "Point", "coordinates": [-72.68037825396726, 41.55634588629607]}},
{"type": "Feature", "id": "UbO9gVtUUQYVgHkdsEIZXefxbkA=", "properties": {"ref": "3704", "@spider": "xfinity", "addr:full": "15 Backus Avenue", "addr:city": "Danbury", "addr:state": "CT", "addr:postcode": "06810", "addr:country": "US", "name": "Xfinity Store by Comcast", "website": "https://www.xfinity.com/local/ct/danbury/15-backus-avenue.html?geo=41.6032207,-73.087749", "opening_hours": "Mo 11:00-17:00; Tu-Su 10:00-18:00", "brand": "Xfinity"}, "geometry": {"type": "Point", "coordinates": [-73.48872422580942, 41.376041445257776]}},
{"type": "Feature", "id": "irX_e9evaVPh4NRFgn2sOSN-D04=", "properties": {"ref": "3951", "@spider": "xfinity", "addr:full": "50 Holyoke St", "addr:city": "Holyoke", "addr:state": "MA", "addr:postcode": "01040", "addr:country": "US", "name": "Xfinity Store by Comcast", "website": "https://www.xfinity.com/local/ma/holyoke/50-holyoke-st.html?geo=41.6032207,-73.087749", "opening_hours": "Mo 11:00-18:00; Tu-Su 10:00-19:00", "brand": "Xfinity"}, "geometry": {"type": "Point", "coordinates": [-72.6413228134918, 42.16767876018865]}},
{"type": "Feature", "id": "q1m8VX83ewY4pk9vLuWH_n_HLSw=", "properties": {"ref": "3784", "@spider": "xfinity", "addr:full": "1083 Boston Road", "addr:city": "Springfield", "addr:state": "MA", "addr:postcode": "01119", "addr:country": "US", "name": "Xfinity Store by Comcast", "website": "https://www.xfinity.com/local/ma/springfield/1083-boston-road.html?geo=41.6032207,-73.087749", "opening_hours": "Mo 11:00-17:00; Tu-Su 10:00-18:00", "brand": "Xfinity"}, "geometry": {"type": "Point", "coordinates": [-72.5068303, 42.1376868]}},
{"type": "Feature", "id": "NMxiJILVtic8I_CGaanlBgQ5Yws=", "properties": {"ref": "3749", "@spider": "xfinity", "addr:full": "220 Ct-12", "addr:city": "Groton", "addr:state": "CT", "addr:postcode": "06340", "addr:country": "US", "name": "Xfinity Store by Comcast", "website": "https://www.xfinity.com/local/ct/groton/220-ct-12.html?geo=41.6032207,-73.087749", "opening_hours": "Mo 11:00-17:00; Tu-Su 9:00-18:00", "brand": "Xfinity"}, "geometry": {"type": "Point", "coordinates": [-72.0686041, 41.3690187]}},
{"type": "Feature", "id": "aCeZR3XTd4YwSzCf_Sb0wktInQk=", "properties": {"ref": "3917", "@spider": "xfinity", "addr:full": "30 Mall Drive West", "addr:city": "Jersey City", "addr:state": "NJ", "addr:postcode": "07310", "addr:country": "US", "name": "Xfinity Store by Comcast", "website": "https://www.xfinity.com/local/nj/jersey-city/30-mall-drive-west.html?geo=41.6032207,-73.087749", "opening_hours": "Mo 12:00-18:00; Tu-Fr 11:00-19:00; Sa-Su 10:00-20:00", "brand": "Xfinity"}, "geometry": {"type": "Point", "coordinates": [-74.037865, 40.727327]}},
{"type": "Feature", "id": "wNh25eWsPKoDIrExyi1Kbir09EA=", "properties": {"ref": "3775", "@spider": "xfinity", "addr:full": "495 Prospect Ave", "addr:city": "West Orange", "addr:state": "NJ", "addr:postcode": "07052", "addr:country": "US", "name": "Xfinity Store by Comcast", "website": "https://www.xfinity.com/local/nj/west-orange/495-prospect-ave.html?geo=41.6032207,-73.087749", "opening_hours": "Mo 11:00-17:00; Tu 9:00-19:00; We-Fr 10:00-19:00; Sa-Su 9:00-19:00", "brand": "Xfinity"}, "geometry": {"type": "Point", "coordinates": [-74.2558182, 40.7929464]}},
{"type": "Feature", "id": "1bbK6ZFyVaI3D9F2g2LSALrKiKM=", "properties": {"ref": "3823", "@spider": "xfinity", "addr:full": "2345 US Highway 22", "addr:city": "Union", "addr:state": "NJ", "addr:postcode": "07083", "addr:country": "US", "name": "Xfinity Store by Comcast", "website": "https://www.xfinity.com/local/nj/union/2345-us-highway-22.html?geo=41.6032207,-73.087749", "opening_hours": "Mo 11:00-17:00; Tu 9:00-19:00; We-Fr 10:00-19:00; Sa-Su 9:00-19:00", "brand": "Xfinity"}, "geometry": {"type": "Point", "coordinates": [-74.2946722, 40.6903769]}},
{"type": "Feature", "id": "xVmBnC6f3brJar-XOxOqh8Dz7LQ=", "properties": {"ref": "4028", "@spider": "xfinity", "addr:full": "245 Hartford Ave", "addr:city": "Bellingham", "addr:state": "MA", "addr:postcode": "02019", "addr:country": "US", "name": "Xfinity Store by Comcast", "website": "https://www.xfinity.com/local/ma/bellingham/245-hartford-ave.html?geo=41.6032207,-73.087749", "opening_hours": "Mo 11:00-16:00; Tu-Su 9:00-19:00", "brand": "Xfinity"}, "geometry": {"type": "Point", "coordinates": [-71.4614477, 42.1146654]}},
{"type": "Feature", "id": "iBlvu1c9qBnGAl6GQKCm9K3Pe-c=", "properties": {"ref": "4148", "@spider": "xfinity", "addr:full": "975 Merriam Ave", "addr:city": "Leominster", "addr:state": "MA", "addr:postcode": "01453", "addr:country": "US", "name": "Xfinity Store by Comcast Branded Partner", "website": "https://www.xfinity.com/local/ma/leominster/975-merriam-ave.html?geo=41.6032207,-73.087749", "opening_hours": "Mo 10:00-17:00; Tu-Sa 9:00-19:00; Su 9:00-20:00", "brand": "Xfinity"}, "geometry": {"type": "Point", "coordinates": [-71.77919793414985, 42.55411033945023]}},
{"type": "Feature", "id": "rs7-NTwnH0QAt3tMLjR-XwR96hg=", "properties": {"ref": "4009", "@spider": "xfinity", "addr:full": "899 Saint George Ave", "addr:city": "Woodbridge", "addr:state": "NJ", "addr:postcode": "07095", "addr:country": "US", "name": "Xfinity Store by Comcast", "website": "https://www.xfinity.com/local/nj/woodbridge/899-saint-george-ave.html?geo=41.6032207,-73.087749", "opening_hours": "Mo 11:00-17:00; Tu 9:00-19:00; We-Fr 10:00-19:00; Sa-Su 9:00-19:00", "brand": "Xfinity"}, "geometry": {"type": "Point", "coordinates": [-74.2938082, 40.5696049]}},
{"type": "Feature", "id": "EOCPOlD-4LSlOyJCHEe68FU5j_A=", "properties": {"ref": "4224", "@spider": "xfinity", "addr:full": "400 Cochituate Road", "addr:city": "Framingham", "addr:state": "MA", "addr:postcode": "01701", "addr:country": "US", "name": "Xfinity Store by Comcast", "website": "https://www.xfinity.com/local/ma/framingham/400-cochituate-road.html?geo=41.6032207,-73.087749", "opening_hours": "Mo 11:00-16:00; Tu-Su 9:00-19:00", "brand": "Xfinity"}, "geometry": {"type": "Point", "coordinates": [-71.3973174, 42.3060217]}},
{"type": "Feature", "id": "fXvIQj_QaeUz2zItag5hy6bPfi0=", "properties": {"ref": "3845", "@spider": "xfinity", "addr:full": "1580 N DuPont Hwy", "addr:city": "Dover", "addr:state": "DE", "addr:postcode": "19901", "addr:country": "US", "name": "Xfinity Store by Comcast", "website": "https://www.xfinity.com/local/de/dover/1580-n-dupont-hwy.html?geo=38.9108325,-75.52766989999999", "opening_hours": "Mo 12:00-17:00; Tu-Sa 10:00-19:00; Su 10:00-18:00", "brand": "Xfinity"}, "geometry": {"type": "Point", "coordinates": [-75.5522565, 39.1945814]}},
{"type": "Feature", "id": "vf1mDJ8QJIEQNS5f1ou3Ei2NCrI=", "properties": {"ref": "1549", "@spider": "xfinity", "addr:full": "17601 Coastal Hwy", "addr:city": "Lewes", "addr:state": "DE", "addr:postcode": "19958", "addr:country": "US", "name": "Comcast Service Center", "website": "https://www.xfinity.com/local/de/lewes/17601-coastal-hwy.html?geo=38.9108325,-75.52766989999999", "opening_hours": "Mo-Sa 10:30-18:00", "brand": "Xfinity"}, "geometry": {"type": "Point", "coordinates": [-75.1704857, 38.7491933]}},
{"type": "Feature", "id": "gSSkb4jicBmRPduwQdx46NTivEM=", "properties": {"ref": "2507", "@spider": "xfinity", "addr:full": "280 School St", "addr:city": "Mansfield", "addr:state": "MA", "addr:postcode": "02048", "addr:country": "US", "name": "Xfinity Store by Comcast", "website": "https://www.xfinity.com/local/ma/mansfield/280-school-st.html?geo=41.6032207,-73.087749", "opening_hours": "Mo 11:00-16:00; Tu-Su 9:00-19:00", "brand": "Xfinity"}, "geometry": {"type": "Point", "coordinates": [-71.2273889, 42.0110038]}},
{"type": "Feature", "id": "IbqxTUyONQKobohpepW1Tnz6piA=", "properties": {"ref": "4304", "@spider": "xfinity", "addr:full": "2618 N Salisbury Blvd", "addr:city": "Salisbury", "addr:state": "MD", "addr:postcode": "21801", "addr:country": "US", "name": "Xfinity Store by Comcast Branded Partner", "website": "https://www.xfinity.com/local/md/salisbury/2618-n-salisbury-blvd.html?geo=38.9108325,-75.52766989999999", "opening_hours": "Mo 11:00-18:00; Tu-Su 10:00-20:00", "brand": "Xfinity"}, "geometry": {"type": "Point", "coordinates": [-75.56850164338992, 38.41290693286508]}},
{"type": "Feature", "id": "bpsq6j06UPAawM7P-kzBtI1DT70=", "properties": {"ref": "176", "@spider": "xfinity", "addr:full": "1500 Route 47", "addr:city": "Rio Grande", "addr:state": "NJ", "addr:postcode": "08242", "addr:country": "US", "name": "Xfinity Store by Comcast", "website": "https://www.xfinity.com/local/nj/rio-grande/1500-route-47.html?geo=38.9108325,-75.52766989999999", "opening_hours": "Mo 11:00-17:00; Tu 9:00-19:00; We-Fr 10:00-19:00; Sa-Su 9:00-19:00", "brand": "Xfinity"}, "geometry": {"type": "Point", "coordinates": [-74.870054, 39.013278]}},
{"type": "Feature", "id": "DhJsLRCTCnZdy3kMM16JwviyTMQ=", "properties": {"ref": "37", "@spider": "xfinity", "addr:full": "6465 Hobbs Rd", "addr:city": "Salisbury", "addr:state": "MD", "addr:postcode": "21804", "addr:country": "US", "name": "Comcast Service Center", "website": "https://www.xfinity.com/local/md/salisbury/6465-hobbs-rd.html?geo=38.9108325,-75.52766989999999", "opening_hours": "Mo-Sa 10:30-18:00", "brand": "Xfinity"}, "geometry": {"type": "Point", "coordinates": [-75.52745, 38.369964]}},
{"type": "Feature", "id": "rN-LfNrpBs3XhkT7kdOCHGxMVvw=", "properties": {"ref": "305", "@spider": "xfinity", "addr:full": "8301 Coastal Highway", "addr:city": "Ocean City", "addr:state": "MD", "addr:postcode": "21842", "addr:country": "US", "name": "Xfinity Store by Comcast", "website": "https://www.xfinity.com/local/md/ocean-city/8301-coastal-highway.html?geo=38.9108325,-75.52766989999999", "opening_hours": "Mo-Sa 10:00-18:00", "brand": "Xfinity"}, "geometry": {"type": "Point", "coordinates": [-75.061192, 38.402063]}},
{"type": "Feature", "id": "_tEWFOnW1MEd7fZk1kUo8bx6SCU=", "properties": {"ref": "3877", "@spider": "xfinity", "addr:full": "2160 North 2nd Street", "addr:city": "Millville", "addr:state": "NJ", "addr:postcode": "08332", "addr:country": "US", "name": "Xfinity Store by Comcast", "website": "https://www.xfinity.com/local/nj/millville/2160-north-2nd-street.html?geo=38.9108325,-75.52766989999999", "opening_hours": "Mo 11:00-17:00; Tu 9:00-19:00; We-Fr 10:00-19:00; Sa-Su 9:00-19:00", "brand": "Xfinity"}, "geometry": {"type": "Point", "coordinates": [-75.0421454, 39.4233796]}},
{"type": "Feature", "id": "z4uHWLQ5coq-Fxvg7r5TH7Q654A=", "properties": {"ref": "3927", "@spider": "xfinity", "addr:full": "132 Christiana Mall", "addr:city": "Newark", "addr:state": "DE", "addr:postcode": "19702", "addr:country": "US", "name": "Xfinity Store by Comcast", "website": "https://www.xfinity.com/local/de/newark/132-christiana-mall.html?geo=38.9108325,-75.52766989999999", "opening_hours": "Mo 11:00-18:00; Tu-Su 10:00-20:00", "brand": "Xfinity"}, "geometry": {"type": "Point", "coordinates": [-75.6526902, 39.6790018]}},
{"type": "Feature", "id": "lpC8z-KnBqn_EJUj2Ysby_2PAs4=", "properties": {"ref": "1979", "@spider": "xfinity", "addr:full": "30 N Parke St", "addr:city": "Aberdeen", "addr:state": "MD", "addr:postcode": "21001", "addr:country": "US", "name": "Comcast Service Center", "website": "https://www.xfinity.com/local/md/aberdeen/30-n-parke-st.html?geo=38.9108325,-75.52766989999999", "opening_hours": "Mo-Fr 10:30-18:00", "brand": "Xfinity"}, "geometry": {"type": "Point", "coordinates": [-76.16515551896515, 39.51106041053018]}},
{"type": "Feature", "id": "froiFVxK6YJTz7jet2EQ2GXb6f4=", "properties": {"ref": "3968", "@spider": "xfinity", "addr:full": "2077 Somerville Road", "addr:city": "Annapolis", "addr:state": "MD", "addr:postcode": "21401", "addr:country": "US", "name": "Xfinity Store by Comcast", "website": "https://www.xfinity.com/local/md/annapolis/2077-somerville-road.html?geo=38.9108325,-75.52766989999999", "opening_hours": "Mo 12:00-17:00; Tu-Sa 10:00-19:00; Su 10:00-18:00", "brand": "Xfinity"}, "geometry": {"type": "Point", "coordinates": [-76.539712, 38.983022]}},
{"type": "Feature", "id": "uve95zrbm0T8s7oqXnsdxXCSAgM=", "properties": {"ref": "4141", "@spider": "xfinity", "addr:full": "8153 Honeygo Blvd", "addr:city": "Nottingham", "addr:state": "MD", "addr:postcode": "21236", "addr:country": "US", "name": "Xfinity Store by Comcast", "website": "https://www.xfinity.com/local/md/nottingham/8153-honeygo-blvd.html?geo=38.9108325,-75.52766989999999", "opening_hours": "Mo 12:00-17:00; Tu-Sa 10:00-19:00; Su 10:00-18:00", "brand": "Xfinity"}, "geometry": {"type": "Point", "coordinates": [-76.46315375828381, 39.371336931073195]}},
{"type": "Feature", "id": "4eKQeVcHfIeaMYEtTm4_vCVN1qY=", "properties": {"ref": "3810", "@spider": "xfinity", "addr:full": "500 Consumer Square", "addr:city": "Mays Landing", "addr:state": "NJ", "addr:postcode": "08330", "addr:country": "US", "name": "Xfinity Store by Comcast", "website": "https://www.xfinity.com/local/nj/mays-landing/500-consumer-square.html?geo=38.9108325,-75.52766989999999", "opening_hours": "Mo 11:00-17:00; Tu 9:00-19:00; We-Fr 10:00-19:00; Sa-Su 9:00-19:00", "brand": "Xfinity"}, "geometry": {"type": "Point", "coordinates": [-74.6319026, 39.4525895]}},
{"type": "Feature", "id": "lry6drxheWY6h3LhN1NIFnu_DTc=", "properties": {"ref": "4215", "@spider": "xfinity", "addr:full": "3814 Boston Street", "addr:city": "Baltimore", "addr:state": "MD", "addr:postcode": "21224", "addr:country": "US", "name": "Xfinity Store by Comcast", "website": "https://www.xfinity.com/local/md/baltimore/3814-boston-street.html?geo=38.9108325,-75.52766989999999", "opening_hours": "Mo 12:00-17:00; Tu-Sa 10:00-19:00; Su 10:00-18:00", "brand": "Xfinity"}, "geometry": {"type": "Point", "coordinates": [-76.5638645431847, 39.27737074708638]}},
{"type": "Feature", "id": "ox2VDZttbn1P2SiR6IKYgCuXY9E=", "properties": {"ref": "3885", "@spider": "xfinity", "addr:full": "3841 Rte 42", "addr:city": "Turnersville", "addr:state": "NJ", "addr:postcode": "08012", "addr:country": "US", "name": "Xfinity Store by Comcast", "website": "https://www.xfinity.com/local/nj/turnersville/3841-rte-42.html?geo=38.9108325,-75.52766989999999", "opening_hours": "Mo 11:00-17:00; Tu 9:00-19:00; We-Fr 10:00-19:00; Sa-Su 9:00-19:00", "brand": "Xfinity"}, "geometry": {"type": "Point", "coordinates": [-75.03789, 39.73384]}},
{"type": "Feature", "id": "xyLPHww8eceIfn8csE-uy6iVoa4=", "properties": {"ref": "2308", "@spider": "xfinity", "addr:full": "5601 Concord Pike", "addr:city": "Wilmington", "addr:state": "DE", "addr:postcode": "19803", "addr:country": "US", "name": "Xfinity Store by Comcast", "website": "https://www.xfinity.com/local/de/wilmington/5601-concord-pike.html?geo=38.9108325,-75.52766989999999", "opening_hours": "Mo 11:00-17:00; Tu 9:00-19:00; We-Fr 10:00-19:00; Sa-Su 9:00-19:00", "brand": "Xfinity"}, "geometry": {"type": "Point", "coordinates": [-75.5423228, 39.8340317]}},
{"type": "Feature", "id": "hlYbf9fb_er47X6adV6pu3Q7n0Y=", "properties": {"ref": "338", "@spider": "xfinity", "addr:full": "2614 Kenhill Drive", "addr:city": "Bowie", "addr:state": "MD", "addr:postcode": "20715", "addr:country": "US", "name": "Comcast Service Center", "website": "https://www.xfinity.com/local/md/bowie/2614-kenhill-drive.html?geo=38.9108325,-75.52766989999999", "opening_hours": "Mo 8:30-13:00; Tu 14:00-17:00; We 8:30-13:00; Th 14:00-17:00; Fr 8:30-13:00; Sa 14:00-17:00; Su 8:30-13:00", "brand": "Xfinity"}, "geometry": {"type": "Point", "coordinates": [-76.741299, 38.961172]}},
{"type": "Feature", "id": "CtV2hr4Sq5BizjY30mfYDf1-yRE=", "properties": {"ref": "3883", "@spider": "xfinity", "addr:full": "733 W 40th Street", "addr:city": "Baltimore", "addr:state": "MD", "addr:postcode": "21211", "addr:country": "US", "name": "Xfinity Store by Comcast", "website": "https://www.xfinity.com/local/md/baltimore/733-w-40th-street.html?geo=38.9108325,-75.52766989999999", "opening_hours": "Mo 12:00-17:00; Tu-Sa 10:00-19:00; Su 10:00-18:00", "brand": "Xfinity"}, "geometry": {"type": "Point", "coordinates": [-76.63132578134537, 39.335950853602135]}},
{"type": "Feature", "id": "7pbAcE3eAD1Ia-devnrZenLErso=", "properties": {"ref": "4117", "@spider": "xfinity", "addr:full": "1750 Deptford Center Road", "addr:city": "Deptford", "addr:state": "NJ", "addr:postcode": "08096", "addr:country": "US", "name": "Xfinity Store by Comcast", "website": "https://www.xfinity.com/local/nj/deptford/1750-deptford-center-road.html?geo=38.9108325,-75.52766989999999", "opening_hours": "Mo 11:00-17:00; Tu-Su 10:00-20:00", "brand": "Xfinity"}, "geometry": {"type": "Point", "coordinates": [-75.09817642392228, 39.829645007283126]}},
{"type": "Feature", "id": "6fauRYfGNyhxp3AuHXnJWrbS148=", "properties": {"ref": "3824", "@spider": "xfinity", "addr:full": "10432 Campus Way South", "addr:city": "Largo", "addr:state": "MD", "addr:postcode": "20774", "addr:country": "US", "name": "Xfinity Store by Comcast", "website": "https://www.xfinity.com/local/md/largo/10432-campus-way-south.html?geo=38.9108325,-75.52766989999999", "opening_hours": "Mo 12:00-17:00; Tu-Sa 10:00-19:00; Su 10:00-18:00", "brand": "Xfinity"}, "geometry": {"type": "Point", "coordinates": [-76.8234229972379, 38.89482920868432]}},
{"type": "Feature", "id": "WrTnsM-selt_MYKEvpd5X5zjAIw=", "properties": {"ref": "3756", "@spider": "xfinity", "addr:full": "7351 Assateague Drive", "addr:city": "Jessup", "addr:state": "MD", "addr:postcode": "20794", "addr:country": "US", "name": "Xfinity Store by Comcast", "website": "https://www.xfinity.com/local/md/jessup/7351-assateague-drive.html?geo=38.9108325,-75.52766989999999", "opening_hours": "Mo 12:00-17:00; Tu-Sa 10:00-19:00; Su 10:00-18:00", "brand": "Xfinity"}, "geometry": {"type": "Point", "coordinates": [-76.78507016112212, 39.16923500491483]}},
{"type": "Feature", "id": "D7-qZ6YHq8op36GM-G5AYpKLQRY=", "properties": {"ref": "290", "@spider": "xfinity", "addr:full": "1050 Kacey Dr", "addr:city": "Hinesville", "addr:state": "GA", "addr:postcode": "31313", "addr:country": "US", "name": "Xfinity Store by Comcast", "website": "https://www.xfinity.com/local/ga/hinesville/1050-kacey-dr.html?geo=32.1656221,-82.9000751", "opening_hours": "Mo 12:00-17:00; Tu-Su 10:00-19:00", "brand": "Xfinity"}, "geometry": {"type": "Point", "coordinates": [-81.603959, 31.812329]}},
{"type": "Feature", "id": "9ipJ9I1WTMVFSc5kGwNqtUK5whM=", "properties": {"ref": "2139", "@spider": "xfinity", "addr:full": "3010 Herring Ave", "addr:city": "Sebring", "addr:state": "FL", "addr:postcode": "33870", "addr:country": "US", "name": "Comcast Service Center", "website": "https://www.xfinity.com/local/fl/sebring/3010-herring-ave.html?geo=27.6648274,-81.5157535", "opening_hours": "Mo-Fr 8:30-17:00", "brand": "Xfinity"}, "geometry": {"type": "Point", "coordinates": [-81.4953920246262, 27.542878390287314]}},
{"type": "Feature", "id": "SIUEsEyvPD3XcP477hLl804g5wE=", "properties": {"ref": "4153", "@spider": "xfinity", "addr:full": "1940 Tamiami Trail", "addr:city": "Port Charlotte", "addr:state": "FL", "addr:postcode": "33948", "addr:country": "US", "name": "Xfinity Store by Comcast", "website": "https://www.xfinity.com/local/fl/port-charlotte/1940-tamiami-trail.html?geo=27.6648274,-81.5157535", "opening_hours": "Mo 12:00-17:00; Tu-Su 10:00-19:00", "brand": "Xfinity"}, "geometry": {"type": "Point", "coordinates": [-82.12998734358597, 27.005219118040028]}},
{"type": "Feature", "id": "OBK-wtujguGuCBN1Ehi-ZUIAThw=", "properties": {"ref": "3809", "@spider": "xfinity", "addr:full": "5231 University Parkway", "addr:city": "Bradenton", "addr:state": "FL", "addr:postcode": "34201", "addr:country": "US", "name": "Xfinity Store by Comcast", "website": "https://www.xfinity.com/local/fl/bradenton/5231-university-parkway.html?geo=27.6648274,-81.5157535", "opening_hours": "Mo 12:00-17:00; Tu-Su 10:00-19:00", "brand": "Xfinity"}, "geometry": {"type": "Point", "coordinates": [-82.46586594295694, 27.38888893218468]}},
{"type": "Feature", "id": "BjziognZ2KEXYAi490tz0ksq2lM=", "properties": {"ref": "4018", "@spider": "xfinity", "addr:full": "5840 20th Street", "addr:city": "Vero Beach", "addr:state": "FL", "addr:postcode": "32966", "addr:country": "US", "name": "Xfinity Store by Comcast", "website": "https://www.xfinity.com/local/fl/vero-beach/5840-20th-street.html?geo=27.6648274,-81.5157535", "opening_hours": "Mo 12:00-17:00; Tu-Su 10:00-19:00", "brand": "Xfinity"}, "geometry": {"type": "Point", "coordinates": [-80.4486138, 27.6406698]}},
{"type": "Feature", "id": "JKPyTIKkgDvLPS9Yam_Y3q79JQY=", "properties": {"ref": "3843", "@spider": "xfinity", "addr:full": "1617 U.S. Hwy 41 By-Pass S", "addr:city": "Venice", "addr:state": "FL", "addr:postcode": "34293", "addr:country": "US", "name": "Xfinity Store by Comcast", "website": "https://www.xfinity.com/local/fl/venice/1617-u-s--hwy-41-by-pass-s.html?geo=27.6648274,-81.5157535", "opening_hours": "Mo 12:00-17:00; Tu-Su 10:00-19:00", "brand": "Xfinity"}, "geometry": {"type": "Point", "coordinates": [-82.42448852270184, 27.077156808832203]}},
{"type": "Feature", "id": "v8tDls69X8TW8XV1WYph4CLcOC4=", "properties": {"ref": "3804", "@spider": "xfinity", "addr:full": "8061 Dani Drive, Suite 120", "addr:city": "Ft. Myers", "addr:state": "FL", "addr:postcode": "33966", "addr:country": "US", "name": "Xfinity Store by Comcast", "website": "https://www.xfinity.com/local/fl/ft--myers/8061-dani-drive--suite-120.html?geo=27.6648274,-81.5157535", "opening_hours": "Mo 12:00-17:00; Tu-Su 10:00-19:00", "brand": "Xfinity"}, "geometry": {"type": "Point", "coordinates": [-81.8105639, 26.6084712]}},
{"type": "Feature", "id": "CNJGwBcrlR90Qg5qHXbIPZfY5Dk=", "properties": {"ref": "3912", "@spider": "xfinity", "addr:full": "311 SW Pine Island Road", "addr:city": "Cape Coral", "addr:state": "FL", "addr:postcode": "33991", "addr:country": "US", "name": "Xfinity Store by Comcast", "website": "https://www.xfinity.com/local/fl/cape-coral/311-sw-pine-island-road.html?geo=27.6648274,-81.5157535", "opening_hours": "Mo 12:00-17:00; Tu-Su 10:00-19:00", "brand": "Xfinity"}, "geometry": {"type": "Point", "coordinates": [-81.98081523168001, 26.650069679962503]}},
{"type": "Feature", "id": "cPuTtNefJ8kO9fxXxHJbaC_sDN8=", "properties": {"ref": "2694", "@spider": "xfinity", "addr:full": "261 SW Port St Lucie Blvd", "addr:city": "Port St. Lucie", "addr:state": "FL", "addr:postcode": "34984", "addr:country": "US", "name": "Comcast Service Center", "website": "https://www.xfinity.com/local/fl/port-st--lucie/261-sw-port-st-lucie-blvd.html?geo=27.6648274,-81.5157535", "opening_hours": "Mo-Fr 8:00-18:00; Sa 9:00-13:00", "brand": "Xfinity"}, "geometry": {"type": "Point", "coordinates": [-80.35412, 27.2753675]}},
{"type": "Feature", "id": "br7ii63chfpiwbKvwbLjA84xhA4=", "properties": {"ref": "4015", "@spider": "xfinity", "addr:full": "2830 NW Federal Highway", "addr:city": "Stuart", "addr:state": "FL", "addr:postcode": "34994", "addr:country": "US", "name": "Xfinity Store by Comcast", "website": "https://www.xfinity.com/local/fl/stuart/2830-nw-federal-highway.html?geo=27.6648274,-81.5157535", "opening_hours": "Mo 12:00-17:00; Tu-Su 10:00-19:00", "brand": "Xfinity"}, "geometry": {"type": "Point", "coordinates": [-80.2706145, 27.2394187]}},
{"type": "Feature", "id": "V7bWAwvbAKdlXGPSxmC6pNrEVZI=", "properties": {"ref": "252", "@spider": "xfinity", "addr:full": "8130 CR-44 Leg A", "addr:city": "Leesburg", "addr:state": "FL", "addr:postcode": "34788", "addr:country": "US", "name": "Comcast Service Center", "website": "https://www.xfinity.com/local/fl/leesburg/8130-cr-44-leg-a.html?geo=27.6648274,-81.5157535", "opening_hours": "Mo-Fr 9:00-17:00", "brand": "Xfinity"}, "geometry": {"type": "Point", "coordinates": [-81.82119026146226, 28.832558739944265]}},
{"type": "Feature", "id": "Ro3NA-2d7LXBipBf-_027G0Qn2c=", "properties": {"ref": "3899", "@spider": "xfinity", "addr:full": "23181 Village Shops Way", "addr:city": "Estero", "addr:state": "FL", "addr:postcode": "33928", "addr:country": "US", "name": "Xfinity Store by Comcast", "website": "https://www.xfinity.com/local/fl/estero/23181-village-shops-way.html?geo=27.6648274,-81.5157535", "opening_hours": "Mo 12:00-17:00; Tu-Su 10:00-19:00", "brand": "Xfinity"}, "geometry": {"type": "Point", "coordinates": [-81.80807483068844, 26.40087341480876]}},
{"type": "Feature", "id": "tA5x7e_yyagfGJAjIiZuimvNd5Y=", "properties": {"ref": "3902", "@spider": "xfinity", "addr:full": "870 North US Highway 27", "addr:city": "Lady Lake", "addr:state": "FL", "addr:postcode": "32159", "addr:country": "US", "name": "Xfinity Store by Comcast", "website": "https://www.xfinity.com/local/fl/lady-lake/870-north-us-highway-27.html?geo=27.6648274,-81.5157535", "opening_hours": "Mo 12:00-17:00; Tu-Su 10:00-19:00", "brand": "Xfinity"}, "geometry": {"type": "Point", "coordinates": [-81.9364661, 28.9334448]}},
{"type": "Feature", "id": "DGjjrtCWJUwRHJ1Hp9EQgoLl8qM=", "properties": {"ref": "3735", "@spider": "xfinity", "addr:full": "10600 Tamiami Trail, Suite 604", "addr:city": "Naples", "addr:state": "FL", "addr:postcode": "34108", "addr:country": "US", "name": "Xfinity Store by Comcast", "website": "https://www.xfinity.com/local/fl/naples/10600-tamiami-trail--suite-604.html?geo=27.6648274,-81.5157535", "opening_hours": "Mo 12:00-17:00; Tu-Su 10:00-19:00", "brand": "Xfinity"}, "geometry": {"type": "Point", "coordinates": [-81.80051453411579, 26.26795314094271]}},
{"type": "Feature", "id": "B6vCoIx7EC3NDd8vmV3f826cabk=", "properties": {"ref": "1308", "@spider": "xfinity", "addr:full": "426 W Washington St", "addr:city": "East Peoria", "addr:state": "IL", "addr:postcode": "61611", "addr:country": "US", "name": "Xfinity Store by Comcast", "website": "https://www.xfinity.com/local/il/east-peoria/426-w-washington-st.html?geo=40.6331249,-89.3985283", "opening_hours": "Mo 11:00-17:00; Tu-Su 10:00-20:00", "brand": "Xfinity"}, "geometry": {"type": "Point", "coordinates": [-89.58482034847945, 40.67114251903016]}},
{"type": "Feature", "id": "pmehl350Yhu2FcGtDVk7C9PvQqI=", "properties": {"ref": "4170", "@spider": "xfinity", "addr:full": "5038 N Big Hollow Road", "addr:city": "Peoria", "addr:state": "IL", "addr:postcode": "61615", "addr:country": "US", "name": "Xfinity Store by Comcast", "website": "https://www.xfinity.com/local/il/peoria/5038-n-big-hollow-road.html?geo=40.6331249,-89.3985283", "opening_hours": "Mo 11:00-17:00; Tu-Su 10:00-20:00", "brand": "Xfinity"}, "geometry": {"type": "Point", "coordinates": [-89.63419426845078, 40.74995427760452]}},
{"type": "Feature", "id": "Az7TK2MJx0L8ozo3LC8TYIWDLhM=", "properties": {"ref": "3964", "@spider": "xfinity", "addr:full": "303 Veterans Pkwy", "addr:city": "Normal", "addr:state": "IL", "addr:postcode": "61761", "addr:country": "US", "name": "Xfinity Store by Comcast", "website": "https://www.xfinity.com/local/il/normal/303-veterans-pkwy.html?geo=40.6331249,-89.3985283", "opening_hours": "Mo 11:00-17:00; Tu-Su 10:00-20:00", "brand": "Xfinity"}, "geometry": {"type": "Point", "coordinates": [-88.95617550013884, 40.507051375554624]}},
{"type": "Feature", "id": "RgEtCFePnJhZXEpFYMn6ibjBqns=", "properties": {"ref": "3896", "@spider": "xfinity", "addr:full": "108 E Barnett Av", "addr:city": "Forsyth", "addr:state": "IL", "addr:postcode": "62535", "addr:country": "US", "name": "Xfinity Store by Comcast", "website": "https://www.xfinity.com/local/il/forsyth/108-e-barnett-av.html?geo=40.6331249,-89.3985283", "opening_hours": "Mo 11:00-17:00; Tu-Su 10:00-20:00", "brand": "Xfinity"}, "geometry": {"type": "Point", "coordinates": [-88.95480570552257, 39.91799505715685]}},
{"type": "Feature", "id": "pY1DzzjePOjRdI_f9TvB7i6Y5lk=", "properties": {"ref": "3895", "@spider": "xfinity", "addr:full": "3405 S Freedom Dr", "addr:city": "Springfield", "addr:state": "IL", "addr:postcode": "62704", "addr:country": "US", "name": "Xfinity Store by Comcast", "website": "https://www.xfinity.com/local/il/springfield/3405-s-freedom-dr.html?geo=40.6331249,-89.3985283", "opening_hours": "Mo 12:00-17:00; Tu-Su 10:00-20:00", "brand": "Xfinity"}, "geometry": {"type": "Point", "coordinates": [-89.71013766567611, 39.75156807368395]}},
{"type": "Feature", "id": "CUoWacDq1O4C1QMtueUwQ8pB-OI=", "properties": {"ref": "3939", "@spider": "xfinity", "addr:full": "2000 N Neil St", "addr:city": "Champaign", "addr:state": "IL", "addr:postcode": "61820", "addr:country": "US", "name": "Xfinity Store by Comcast", "website": "https://www.xfinity.com/local/il/champaign/2000-n-neil-st.html?geo=40.6331249,-89.3985283", "opening_hours": "Mo 11:00-17:00; Tu-Su 10:00-20:00", "brand": "Xfinity"}, "geometry": {"type": "Point", "coordinates": [-88.24220977546311, 40.14174321428486]}},
{"type": "Feature", "id": "sPBHrAQRcTc9a3PPLZrGEQaZI0U=", "properties": {"ref": "4223", "@spider": "xfinity", "addr:full": "1690 N State Route 50", "addr:city": "Bourbonnais", "addr:state": "IL", "addr:postcode": "60914", "addr:country": "US", "name": "Xfinity Store by Comcast Branded Partner", "website": "https://www.xfinity.com/local/il/bourbonnais/1690-n-state-route-50.html?geo=40.6331249,-89.3985283", "opening_hours": "Mo-Fr 10:00-18:00", "brand": "Xfinity"}, "geometry": {"type": "Point", "coordinates": [-87.85067348343239, 41.176853498445446]}},
{"type": "Feature", "id": "615vlYKGKHXOtyMrkiEOBGnieQ8=", "properties": {"ref": "3841", "@spider": "xfinity", "addr:full": "2802 Plainfield Rd", "addr:city": "Joliet", "addr:state": "IL", "addr:postcode": "60435", "addr:country": "US", "name": "Xfinity Store by Comcast", "website": "https://www.xfinity.com/local/il/joliet/2802-plainfield-rd.html?geo=40.6331249,-89.3985283", "opening_hours": "Mo 11:00-17:00; Tu-Su 10:00-20:00", "brand": "Xfinity"}, "geometry": {"type": "Point", "coordinates": [-88.15828301719664, 41.576381922188396]}},
{"type": "Feature", "id": "KAz-EdxUXhSPl6uJSOB2aBD834M=", "properties": {"ref": "3913", "@spider": "xfinity", "addr:full": "2565 Sycamore Rd", "addr:city": "Dekalb", "addr:state": "IL", "addr:postcode": "60115", "addr:country": "US", "name": "Xfinity Store by Comcast Branded Partner", "website": "https://www.xfinity.com/local/il/dekalb/2565-sycamore-rd.html?geo=40.6331249,-89.3985283", "opening_hours": "Mo 12:00-17:00; Tu-Su 10:00-19:00", "brand": "Xfinity"}, "geometry": {"type": "Point", "coordinates": [-88.72298803191188, 41.95577094387676]}},
{"type": "Feature", "id": "rU9uu7tEMgQifv_gTAevuQcZuD0=", "properties": {"ref": "4221", "@spider": "xfinity", "addr:full": "2727 W 75th Street", "addr:city": "Naperville", "addr:state": "IL", "addr:postcode": "60540", "addr:country": "US", "name": "Xfinity Store by Comcast", "website": "https://www.xfinity.com/local/il/naperville/2727-w-75th-street.html?geo=40.6331249,-89.3985283", "opening_hours": "Mo 11:00-17:00; Tu-Su 10:00-20:00", "brand": "Xfinity"}, "geometry": {"type": "Point", "coordinates": [-88.20085576672687, 41.74786709325978]}},
{"type": "Feature", "id": "h1IJrEkPKW75asv9Qbx-Wqj1css=", "properties": {"ref": "3770", "@spider": "xfinity", "addr:full": "1122 West Boughton Road", "addr:city": "Bolingbrook", "addr:state": "IL", "addr:postcode": "60440", "addr:country": "US", "name": "Xfinity Store by Comcast", "website": "https://www.xfinity.com/local/il/bolingbrook/1122-west-boughton-road.html?geo=40.6331249,-89.3985283", "opening_hours": "Mo 11:00-17:00; Tu-Su 10:00-20:00", "brand": "Xfinity"}, "geometry": {"type": "Point", "coordinates": [-88.11897771104506, 41.705434478031584]}},
{"type": "Feature", "id": "XUu0a2fnbeUWnUU9e6cxoCiG5eE=", "properties": {"ref": "4208", "@spider": "xfinity", "addr:full": "1363 S. Reed Road", "addr:city": "Kokomo", "addr:state": "IN", "addr:postcode": "46902", "addr:country": "US", "name": "Xfinity Store by Comcast", "website": "https://www.xfinity.com/local/in/kokomo/1363-s--reed-road.html?geo=40.2671941,-86.1349019", "opening_hours": "Mo 12:00-17:00; Tu-Su 9:00-19:00", "brand": "Xfinity"}, "geometry": {"type": "Point", "coordinates": [-86.10924504944522, 40.47257544737321]}},
{"type": "Feature", "id": "mO9YUqV7e4TnPYAF8sHgOGUXsFw=", "properties": {"ref": "3745", "@spider": "xfinity", "addr:full": "4225 East 82nd Street", "addr:city": "Indianapolis", "addr:state": "IN", "addr:postcode": "46250", "addr:country": "US", "name": "Xfinity Store by Comcast", "website": "https://www.xfinity.com/local/in/indianapolis/4225-east-82nd-street.html?geo=40.2671941,-86.1349019", "opening_hours": "Mo 12:00-17:00; Tu-Su 9:00-19:00", "brand": "Xfinity"}, "geometry": {"type": "Point", "coordinates": [-86.0953249, 39.906218]}},
{"type": "Feature", "id": "es_-gTMCbvZuPGpABJia-m6tzqM=", "properties": {"ref": "4134", "@spider": "xfinity", "addr:full": "6010 W 86th Street", "addr:city": "Indianapolis", "addr:state": "IN", "addr:postcode": "46278", "addr:country": "US", "name": "Xfinity Store by Comcast", "website": "https://www.xfinity.com/local/in/indianapolis/6010-w-86th-street.html?geo=40.2671941,-86.1349019", "opening_hours": "Mo 12:00-17:00; Tu-Su 9:00-19:00", "brand": "Xfinity"}, "geometry": {"type": "Point", "coordinates": [-86.26680650934179, 39.912826193365376]}},
{"type": "Feature", "id": "V-Heex1fC903Ms-9Jo_LxA4pANI=", "properties": {"ref": "4139", "@spider": "xfinity", "addr:full": "4672 S. Scatterfield Rd", "addr:city": "Anderson", "addr:state": "IN", "addr:postcode": "46013", "addr:country": "US", "name": "Xfinity Store by Comcast Branded Partner", "website": "https://www.xfinity.com/local/in/anderson/4672-s--scatterfield-rd.html?geo=40.2671941,-86.1349019", "opening_hours": "Mo 12:00-17:00; Tu-Su 11:00-18:00", "brand": "Xfinity"}, "geometry": {"type": "Point", "coordinates": [-85.65216802453689, 40.066974010290714]}},
{"type": "Feature", "id": "X7_u_cgnaX7TLLqVKQK7e0kby1Q=", "properties": {"ref": "4214", "@spider": "xfinity", "addr:full": "9773 E US Hwy 36", "addr:city": "Avon", "addr:state": "IN", "addr:postcode": "46123", "addr:country": "US", "name": "Xfinity Store by Comcast Branded Partner", "website": "https://www.xfinity.com/local/in/avon/9773-e-us-hwy-36.html?geo=40.2671941,-86.1349019", "opening_hours": "Mo-Sa 11:00-18:00", "brand": "Xfinity"}, "geometry": {"type": "Point", "coordinates": [-86.34996072807503, 39.76300856763602]}},
{"type": "Feature", "id": "c4hIkDMvwg5QQ4yV3uqfHXFRkBc=", "properties": {"ref": "3924", "@spider": "xfinity", "addr:full": "3465 South St", "addr:city": "Lafayette", "addr:state": "IN", "addr:postcode": "47905", "addr:country": "US", "name": "Xfinity Store by Comcast", "website": "https://www.xfinity.com/local/in/lafayette/3465-south-st.html?geo=40.2671941,-86.1349019", "opening_hours": "Mo 12:00-17:00; Tu-Su 9:00-19:00", "brand": "Xfinity"}, "geometry": {"type": "Point", "coordinates": [-86.85316303797373, 40.4169726945096]}},
{"type": "Feature", "id": "hqiAwFAvfQ4lfrIrfXO0iGn9Sh8=", "properties": {"ref": "4200", "@spider": "xfinity", "addr:full": "244 W McGalliard Road", "addr:city": "Muncie", "addr:state": "IN", "addr:postcode": "47303", "addr:country": "US", "name": "Xfinity Store by Comcast Branded Partner", "website": "https://www.xfinity.com/local/in/muncie/244-w-mcgalliard-road.html?geo=40.2671941,-86.1349019", "opening_hours": "Mo 12:00-17:00; Tu-Su 11:00-18:00", "brand": "Xfinity"}, "geometry": {"type": "Point", "coordinates": [-85.38850464675394, 40.219706186620904]}},
{"type": "Feature", "id": "meSp9TohbMzVy586bQ6NJU587L4=", "properties": {"ref": "69", "@spider": "xfinity", "addr:full": "997 East County Line Road", "addr:city": "Greenwood", "addr:state": "IN", "addr:postcode": "46143", "addr:country": "US", "name": "Xfinity Store by Comcast", "website": "https://www.xfinity.com/local/in/greenwood/997-east-county-line-road.html?geo=40.2671941,-86.1349019", "opening_hours": "Mo 12:00-17:00; Tu-Su 9:00-19:00", "brand": "Xfinity"}, "geometry": {"type": "Point", "coordinates": [-86.08479746694383, 39.63471295555614]}},
{"type": "Feature", "id": "p1jYdg7qSC9EyWQisd_Izj0f3Ig=", "properties": {"ref": "4184", "@spider": "xfinity", "addr:full": "3051 Columbus Center", "addr:city": "Columbus", "addr:state": "IN", "addr:postcode": "47203", "addr:country": "US", "name": "Xfinity Store by Comcast Branded Partner", "website": "https://www.xfinity.com/local/in/columbus/3051-columbus-center.html?geo=40.2671941,-86.1349019", "opening_hours": "Mo 12:00-17:00; Tu-Su 10:00-19:00", "brand": "Xfinity"}, "geometry": {"type": "Point", "coordinates": [-85.88751529999999, 39.2211417]}},
{"type": "Feature", "id": "XAy5gvwRwQscw2Yv2nU-aJ5rzGU=", "properties": {"ref": "4042", "@spider": "xfinity", "addr:full": "4545 Illinois Road", "addr:city": "Fort Wayne", "addr:state": "IN", "addr:postcode": "46804", "addr:country": "US", "name": "Xfinity Store by Comcast", "website": "https://www.xfinity.com/local/in/fort-wayne/4545-illinois-road.html?geo=40.2671941,-86.1349019", "opening_hours": "Mo 12:00-17:00; Tu-Su 9:00-19:00", "brand": "Xfinity"}, "geometry": {"type": "Point", "coordinates": [-85.20020910000001, 41.0740004]}},
{"type": "Feature", "id": "MiddMsMy7uOvjzmkeniPrgRy64E=", "properties": {"ref": "4106", "@spider": "xfinity", "addr:full": "4706 National Road E", "addr:city": "Richmond", "addr:state": "IN", "addr:postcode": "47374", "addr:country": "US", "name": "Xfinity Store by Comcast Branded Partner", "website": "https://www.xfinity.com/local/in/richmond/4706-national-road-e.html?geo=40.2671941,-86.1349019", "opening_hours": "Mo 12:00-17:00; Tu-Su 10:00-19:00", "brand": "Xfinity"}, "geometry": {"type": "Point", "coordinates": [-84.83652467796567, 39.83161205636607]}},
{"type": "Feature", "id": "qET9stJUdjFvGtM3ewkO0uS17AY=", "properties": {"ref": "4112", "@spider": "xfinity", "addr:full": "407 W. Coliseum Blvd", "addr:city": "Fort Wayne", "addr:state": "IN", "addr:postcode": "46805", "addr:country": "US", "name": "Xfinity Store by Comcast", "website": "https://www.xfinity.com/local/in/fort-wayne/407-w--coliseum-blvd.html?geo=40.2671941,-86.1349019", "opening_hours": "Mo 12:00-17:00; Tu-Su 9:00-19:00", "brand": "Xfinity"}, "geometry": {"type": "Point", "coordinates": [-85.145499, 41.117431]}},
{"type": "Feature", "id": "81WCXytfkvZJ5nEZrbCNgl_wj2Q=", "properties": {"ref": "3853", "@spider": "xfinity", "addr:full": "1285 S. College Mall Rd.", "addr:city": "Bloomington", "addr:state": "IN", "addr:postcode": "47401", "addr:country": "US", "name": "Xfinity Store by Comcast", "website": "https://www.xfinity.com/local/in/bloomington/1285-s--college-mall-rd.html?geo=40.2671941,-86.1349019", "opening_hours": "Mo 12:00-17:00; Tu-Su 9:00-19:00", "brand": "Xfinity"}, "geometry": {"type": "Point", "coordinates": [-86.4973252, 39.1524848]}},
{"type": "Feature", "id": "IBFZNj_H8qomzCdZ7AoihaP4tjQ=", "properties": {"ref": "3909", "@spider": "xfinity", "addr:full": "2710 Laporte Ave", "addr:city": "Valparaiso", "addr:state": "IN", "addr:postcode": "46383", "addr:country": "US", "name": "Xfinity Store by Comcast Branded Partner", "website": "https://www.xfinity.com/local/in/valparaiso/2710-laporte-ave.html?geo=40.2671941,-86.1349019", "opening_hours": "Mo 12:00-17:00; Tu-Su 10:00-19:00", "brand": "Xfinity"}, "geometry": {"type": "Point", "coordinates": [-87.0276653595072, 41.46804727429908]}},
{"type": "Feature", "id": "6OZQJqwpW6KsRHSa61U3_OzXufg=", "properties": {"ref": "3919", "@spider": "xfinity", "addr:full": "6440 Grand Avenue", "addr:city": "Gurnee", "addr:state": "IL", "addr:postcode": "60031", "addr:country": "US", "name": "Xfinity Store by Comcast", "website": "https://www.xfinity.com/local/il/gurnee/6440-grand-avenue.html?geo=43.0584327,-88.4063783", "opening_hours": "Mo 11:00-17:00; Tu-Su 10:00-20:00", "brand": "Xfinity"}, "geometry": {"type": "Point", "coordinates": [-87.96234551779098, 42.38594957541058]}},
{"type": "Feature", "id": "ISLEE72EGnZFTU3aypxfns0fMMk=", "properties": {"ref": "3803", "@spider": "xfinity", "addr:full": "5890 Northwest Highway", "addr:city": "Crystal Lake", "addr:state": "IL", "addr:postcode": "60014", "addr:country": "US", "name": "Xfinity Store by Comcast", "website": "https://www.xfinity.com/local/il/crystal-lake/5890-northwest-highway.html?geo=43.0584327,-88.4063783", "opening_hours": "Mo 11:00-17:00; Tu-Su 10:00-20:00", "brand": "Xfinity"}, "geometry": {"type": "Point", "coordinates": [-88.31517979502678, 42.227796399324276]}},
{"type": "Feature", "id": "3Yh3gBg6bvhGtaLaGwjAuK4v35U=", "properties": {"ref": "3800", "@spider": "xfinity", "addr:full": "701 N Milwaukee Ave, Suite 288", "addr:city": "Vernon Hills", "addr:state": "IL", "addr:postcode": "60061", "addr:country": "US", "name": "Xfinity Store by Comcast", "website": "https://www.xfinity.com/local/il/vernon-hills/701-n-milwaukee-ave--suite-288.html?geo=43.0584327,-88.4063783", "opening_hours": "Mo 11:00-17:00; Tu-Su 10:00-20:00", "brand": "Xfinity"}, "geometry": {"type": "Point", "coordinates": [-87.94127651101034, 42.239006500726305]}},
{"type": "Feature", "id": "6JNB6TKpl1GGnuf9Em1rAmS0Y8M=", "properties": {"ref": "4010", "@spider": "xfinity", "addr:full": "6244 Mulford Village Drive", "addr:city": "Rockford", "addr:state": "IL", "addr:postcode": "61107", "addr:country": "US", "name": "Xfinity Store by Comcast", "website": "https://www.xfinity.com/local/il/rockford/6244-mulford-village-drive.html?geo=43.0584327,-88.4063783", "opening_hours": "Mo 11:00-17:00; Tu-Su 10:00-20:00", "brand": "Xfinity"}, "geometry": {"type": "Point", "coordinates": [-88.99516336592603, 42.26808124604205]}},
{"type": "Feature", "id": "EyIpyMFjxIXURB6UpGfx0TOu9rQ=", "properties": {"ref": "4078", "@spider": "xfinity", "addr:full": "2104 S Randall Road", "addr:city": "Algonquin", "addr:state": "IL", "addr:postcode": "60102", "addr:country": "US", "name": "Xfinity Store by Comcast", "website": "https://www.xfinity.com/local/il/algonquin/2104-s-randall-road.html?geo=43.0584327,-88.4063783", "opening_hours": "Mo 11:00-17:00; Tu-Su 10:00-20:00", "brand": "Xfinity"}, "geometry": {"type": "Point", "coordinates": [-88.33936298404407, 42.147676204763094]}},
{"type": "Feature", "id": "2WDya5SG6iwjRBWUpJ4m5AB2OGA=", "properties": {"ref": "3922", "@spider": "xfinity", "addr:full": "20291 N Rand Rd", "addr:city": "Kildeer", "addr:state": "IL", "addr:postcode": "60074", "addr:country": "US", "name": "Xfinity Store by Comcast Branded Partner", "website": "https://www.xfinity.com/local/il/kildeer/20291-n-rand-rd.html?geo=43.0584327,-88.4063783", "opening_hours": "Mo-Th 10:00-19:00; Fr 11:00-15:00", "brand": "Xfinity"}, "geometry": {"type": "Point", "coordinates": [-88.04467971289591, 42.15949559667457]}},
{"type": "Feature", "id": "KbwXIKLdPlSpc2vfmHBhqu7fYAo=", "properties": {"ref": "3881", "@spider": "xfinity", "addr:full": "324 E Rand Rd", "addr:city": "Arlington Heights", "addr:state": "IL", "addr:postcode": "60004", "addr:country": "US", "name": "Xfinity Store by Comcast", "website": "https://www.xfinity.com/local/il/arlington-heights/324-e-rand-rd.html?geo=43.0584327,-88.4063783", "opening_hours": "Mo 11:00-17:00; Tu-Su 10:00-20:00", "brand": "Xfinity"}, "geometry": {"type": "Point", "coordinates": [-87.97868069140166, 42.113044912319566]}},
{"type": "Feature", "id": "PxSkQnQbB65qjSUdLj5l7X-3SYw=", "properties": {"ref": "3720", "@spider": "xfinity", "addr:full": "1229 E Golf Rd", "addr:city": "Schaumburg", "addr:state": "IL", "addr:postcode": "60173", "addr:country": "US", "name": "Xfinity Store by Comcast", "website": "https://www.xfinity.com/local/il/schaumburg/1229-e-golf-rd.html?geo=43.0584327,-88.4063783", "opening_hours": "Mo 11:00-17:00; Tu-Su 10:00-20:00", "brand": "Xfinity"}, "geometry": {"type": "Point", "coordinates": [-88.04978831597329, 42.04880881968379]}},
{"type": "Feature", "id": "VD2Lq6zNSBrkvIcBLVBimb1nbSU=", "properties": {"ref": "3921", "@spider": "xfinity", "addr:full": "2840 Patriot Boulevard", "addr:city": "Glenview", "addr:state": "IL", "addr:postcode": "60026", "addr:country": "US", "name": "Xfinity Store by Comcast Branded Partner", "website": "https://www.xfinity.com/local/il/glenview/2840-patriot-boulevard.html?geo=43.0584327,-88.4063783", "opening_hours": "Mo-Th 11:00-18:00; Fr 11:00-15:00", "brand": "Xfinity"}, "geometry": {"type": "Point", "coordinates": [-87.8237746337469, 42.107358767772425]}},
{"type": "Feature", "id": "PWhb88AaZ6Bzi6qkqoOxIRB6lvI=", "properties": {"ref": "3724", "@spider": "xfinity", "addr:full": "7927 Golf Rd", "addr:city": "Morton Grove", "addr:state": "IL", "addr:postcode": "60053", "addr:country": "US", "name": "Xfinity Store by Comcast", "website": "https://www.xfinity.com/local/il/morton-grove/7927-golf-rd.html?geo=43.0584327,-88.4063783", "opening_hours": "Mo 11:00-17:00; Tu-Su 10:00-20:00", "brand": "Xfinity"}, "geometry": {"type": "Point", "coordinates": [-87.8234913, 42.0539175]}},
{"type": "Feature", "id": "tmV8Mr-CkNBVD2qfT-tRkDgvxcM=", "properties": {"ref": "4007", "@spider": "xfinity", "addr:full": "152 S Gary Ave", "addr:city": "Bloomingdale", "addr:state": "IL", "addr:postcode": "60108", "addr:country": "US", "name": "Xfinity Store by Comcast", "website": "https://www.xfinity.com/local/il/bloomingdale/152-s-gary-ave.html?geo=43.0584327,-88.4063783", "opening_hours": "Mo 11:00-17:00; Tu-Su 10:00-20:00", "brand": "Xfinity"}, "geometry": {"type": "Point", "coordinates": [-88.12236279937099, 41.95081675017306]}},
{"type": "Feature", "id": "W2uLfuO3dWqdNtgLVg66Lqf2W-I=", "properties": {"ref": "3971", "@spider": "xfinity", "addr:full": "1608 Sherman Ave", "addr:city": "Evanston", "addr:state": "IL", "addr:postcode": "60201", "addr:country": "US", "name": "Xfinity Store by Comcast Branded Partner", "website": "https://www.xfinity.com/local/il/evanston/1608-sherman-ave.html?geo=43.0584327,-88.4063783", "opening_hours": "Mo-Fr 11:00-19:00", "brand": "Xfinity"}, "geometry": {"type": "Point", "coordinates": [-87.6821841, 42.0473578]}},
{"type": "Feature", "id": "GY9GOoW1URY-fR43dm8yLxY2ZTM=", "properties": {"ref": "77", "@spider": "xfinity", "addr:full": "1614 Washington St", "addr:city": "Manitowoc", "addr:state": "WI", "addr:postcode": "54220", "addr:country": "US", "name": "Comcast Service Center", "website": "https://www.xfinity.com/local/wi/manitowoc/1614-washington-st.html?geo=43.0584327,-88.4063783", "opening_hours": "Mo-Fr 10:00-18:00", "brand": "Xfinity"}, "geometry": {"type": "Point", "coordinates": [-87.669947, 44.089184]}},
{"type": "Feature", "id": "ma5KKMuYdStumv9edZR4rftzKeg=", "properties": {"ref": "3953", "@spider": "xfinity", "addr:full": "4270 N Harlem", "addr:city": "Norridge", "addr:state": "IL", "addr:postcode": "60706", "addr:country": "US", "name": "Xfinity Store by Comcast", "website": "https://www.xfinity.com/local/il/norridge/4270-n-harlem.html?geo=43.0584327,-88.4063783", "opening_hours": "Mo 11:00-17:00; Tu-Su 10:00-20:00", "brand": "Xfinity"}, "geometry": {"type": "Point", "coordinates": [-87.80872184601782, 41.95794904441501]}},
{"type": "Feature", "id": "Bw3Hxxljl8mpK95DKePGgM2qzms=", "properties": {"ref": "3790", "@spider": "xfinity", "addr:full": "57 S Randall Rd", "addr:city": "Batavia", "addr:state": "IL", "addr:postcode": "60510", "addr:country": "US", "name": "Xfinity Store by Comcast", "website": "https://www.xfinity.com/local/il/batavia/57-s-randall-rd.html?geo=43.0584327,-88.4063783", "opening_hours": "Mo 11:00-17:00; Tu-Su 10:00-20:00", "brand": "Xfinity"}, "geometry": {"type": "Point", "coordinates": [-88.3425126, 41.8489784]}},
{"type": "Feature", "id": "cWskkTxdQIssTpmE2BGbMTksXs8=", "properties": {"ref": "4121", "@spider": "xfinity", "addr:full": "4401 N. Clarendon Road", "addr:city": "Chicago", "addr:state": "IL", "addr:postcode": "60640", "addr:country": "US", "name": "Xfinity Store by Comcast Branded Partner", "website": "https://www.xfinity.com/local/il/chicago/4401-n--clarendon-road.html?geo=43.0584327,-88.4063783", "opening_hours": "Mo 12:00-17:00; Tu-Su 10:00-19:00", "brand": "Xfinity"}, "geometry": {"type": "Point", "coordinates": [-87.64962818673237, 41.96190016081909]}},
{"type": "Feature", "id": "44DgFaCtrwzFIpq3Rhba2grycmQ=", "properties": {"ref": "3833", "@spider": "xfinity", "addr:full": "3128 N Ashland Ave", "addr:city": "Chicago", "addr:state": "IL", "addr:postcode": "60657", "addr:country": "US", "name": "Xfinity Store by Comcast", "website": "https://www.xfinity.com/local/il/chicago/3128-n-ashland-ave.html?geo=43.0584327,-88.4063783", "opening_hours": "Mo 11:00-17:00; Tu-Su 10:00-20:00", "brand": "Xfinity"}, "geometry": {"type": "Point", "coordinates": [-87.66908024970283, 41.938979337345884]}},
{"type": "Feature", "id": "2pDlnH7_cG67yuFoZ3hjLiRkGwE=", "properties": {"ref": "4050", "@spider": "xfinity", "addr:full": "1705 N Dixie Hwy", "addr:city": "Elizabethtown", "addr:state": "KY", "addr:postcode": "42701", "addr:country": "US", "name": "Xfinity Store by Comcast", "website": "https://www.xfinity.com/local/ky/elizabethtown/1705-n-dixie-hwy.html?geo=37.8393332,-84.2700179", "opening_hours": "Mo 12:00-17:00; Tu-Su 9:00-19:00", "brand": "Xfinity"}, "geometry": {"type": "Point", "coordinates": [-85.8843605, 37.7337398]}},
{"type": "Feature", "id": "Z50D2kcO5nIdTbZ1lWIqsEnXRjk=", "properties": {"ref": "1305", "@spider": "xfinity", "addr:full": "3041 Butterfield Rd", "addr:city": "Oak Brook", "addr:state": "IL", "addr:postcode": "60523", "addr:country": "US", "name": "Xfinity Store by Comcast", "website": "https://www.xfinity.com/local/il/oak-brook/3041-butterfield-rd.html?geo=43.0584327,-88.4063783", "opening_hours": "Mo 11:00-17:00; Tu-Su 10:00-20:00", "brand": "Xfinity"}, "geometry": {"type": "Point", "coordinates": [-87.9935596263546, 41.84006219395204]}},
{"type": "Feature", "id": "I9a4HimCE-3V3rMHZ8QwbLY7A0k=", "properties": {"ref": "786", "@spider": "xfinity", "addr:full": "1255 W North Ave", "addr:city": "Chicago", "addr:state": "IL", "addr:postcode": "60642", "addr:country": "US", "name": "Xfinity Store by Comcast", "website": "https://www.xfinity.com/local/il/chicago/1255-w-north-ave.html?geo=43.0584327,-88.4063783", "opening_hours": "Mo 11:00-17:00; Tu-Su 10:00-20:00", "brand": "Xfinity"}, "geometry": {"type": "Point", "coordinates": [-87.65924276686478, 41.91038635312443]}},
{"type": "Feature", "id": "xcxDbR16mlmRAOVYwzKhXARWZ2o=", "properties": {"ref": "4008", "@spider": "xfinity", "addr:full": "755 State Route 18 (Brunswick Square Mall)", "addr:city": "East Brunswick", "addr:state": "NJ", "addr:postcode": "08816", "addr:country": "US", "name": "Xfinity Store by Comcast", "website": "https://www.xfinity.com/local/nj/east-brunswick/755-state-route-18--brunswick-square-mall.html?geo=40.7573972,-73.97035570000001", "opening_hours": "Mo-Fr 11:00-19:00; Sa-Su 10:00-20:00", "brand": "Xfinity"}, "geometry": {"type": "Point", "coordinates": [-74.38168, 40.4233306]}},
{"type": "Feature", "id": "6CIFdgXXiiRj3PXOxqI-ge7rfqg=", "properties": {"ref": "4029", "@spider": "xfinity", "addr:full": "310 State Route 36", "addr:city": "West Long Branch", "addr:state": "NJ", "addr:postcode": "07764", "addr:country": "US", "name": "Xfinity Store by Comcast", "website": "https://www.xfinity.com/local/nj/west-long-branch/310-state-route-36.html?geo=40.7573972,-73.97035570000001", "opening_hours": "Mo 11:00-17:00; Tu 9:00-19:00; We-Fr 10:00-19:00; Sa-Su 9:00-19:00", "brand": "Xfinity"}, "geometry": {"type": "Point", "coordinates": [-74.0348095, 40.2917957]}},
{"type": "Feature", "id": "4jJNXT1411uVU_SzG1HeiifcGVw=", "properties": {"ref": "2851", "@spider": "xfinity", "addr:full": "279 Amwell Road", "addr:city": "Hillsborough", "addr:state": "NJ", "addr:postcode": "08844", "addr:country": "US", "name": "Comcast Service Center", "website": "https://www.xfinity.com/local/nj/hillsborough/279-amwell-road.html?geo=40.7573972,-73.97035570000001", "opening_hours": "Mo-Sa 9:30-18:00", "brand": "Xfinity"}, "geometry": {"type": "Point", "coordinates": [-74.6130362, 40.4977723]}},
{"type": "Feature", "id": "_GwS5kA6nAiuTE-o33ooiIvuUVs=", "properties": {"ref": "3818", "@spider": "xfinity", "addr:full": "3371 US-1", "addr:city": "Lawrenceville", "addr:state": "NJ", "addr:postcode": "08648", "addr:country": "US", "name": "Xfinity Store by Comcast", "website": "https://www.xfinity.com/local/nj/lawrenceville/3371-us-1.html?geo=40.7573972,-73.97035570000001", "opening_hours": "Mo 11:00-17:00; Tu 9:00-19:00; We-Fr 10:00-19:00; Sa-Su 9:00-19:00", "brand": "Xfinity"}, "geometry": {"type": "Point", "coordinates": [-74.6837984, 40.2986156]}},
{"type": "Feature", "id": "4YH_laDI6oim8F_lVeQcHetW6No=", "properties": {"ref": "150", "@spider": "xfinity", "addr:full": "155 Port Murray Rd", "addr:city": "Port Murray", "addr:state": "NJ", "addr:postcode": "07865", "addr:country": "US", "name": "Xfinity Store by Comcast", "website": "https://www.xfinity.com/local/nj/port-murray/155-port-murray-rd.html?geo=40.7573972,-73.97035570000001", "opening_hours": "Mo-Sa 10:00-18:00", "brand": "Xfinity"}, "geometry": {"type": "Point", "coordinates": [-74.91678, 40.780893]}},
{"type": "Feature", "id": "stl1hfiVATuK52iL2cmXHZRbUBM=", "properties": {"ref": "3791", "@spider": "xfinity", "addr:full": "1256 Hooper Avenue", "addr:city": "Toms River", "addr:state": "NJ", "addr:postcode": "08753", "addr:country": "US", "name": "Xfinity Store by Comcast", "website": "https://www.xfinity.com/local/nj/toms-river/1256-hooper-avenue.html?geo=40.7573972,-73.97035570000001", "opening_hours": "Mo 11:00-17:00; Tu 9:00-19:00; We-Fr 10:00-19:00; Sa-Su 9:00-19:00", "brand": "Xfinity"}, "geometry": {"type": "Point", "coordinates": [-74.1808569431305, 39.98383263859471]}},
{"type": "Feature", "id": "9RMG3VkwTuPTJFWBXgylDpnFj_w=", "properties": {"ref": "4063", "@spider": "xfinity", "addr:full": "502 N. Oxford Valley Road", "addr:city": "Langhorne", "addr:state": "PA", "addr:postcode": "19047", "addr:country": "US", "name": "Xfinity Store by Comcast", "website": "https://www.xfinity.com/local/pa/langhorne/502-n--oxford-valley-road.html?geo=40.7573972,-73.97035570000001", "opening_hours": "Mo 11:00-17:00; Tu 9:00-19:00; We-Fr 10:00-19:00; Sa-Su 9:00-19:00", "brand": "Xfinity"}, "geometry": {"type": "Point", "coordinates": [-74.8692764, 40.1877936]}},
{"type": "Feature", "id": "Wqg2uWQrfjqZZgDqj1RmwQ9RBsw=", "properties": {"ref": "4251", "@spider": "xfinity", "addr:full": "1817 Mount Holly Road", "addr:city": "Burlington Township", "addr:state": "NJ", "addr:postcode": "08016", "addr:country": "US", "name": "Xfinity Store by Comcast Branded Partner", "website": "https://www.xfinity.com/local/nj/burlington-township/1817-mount-holly-road.html?geo=40.7573972,-73.97035570000001", "opening_hours": "Mo 12:00-17:00; Tu-Su 10:00-19:00", "brand": "Xfinity"}, "geometry": {"type": "Point", "coordinates": [-74.84162600401156, 40.05246979708625]}},
{"type": "Feature", "id": "HlfhO9f6f0ttM1t4brCUo1cT6JY=", "properties": {"ref": "4122", "@spider": "xfinity", "addr:full": "9171 D Roosevelt Blvd", "addr:city": "Philadelphia", "addr:state": "PA", "addr:postcode": "19114", "addr:country": "US", "name": "Xfinity Store by Comcast", "website": "https://www.xfinity.com/local/pa/philadelphia/9171-d-roosevelt-blvd.html?geo=40.7573972,-73.97035570000001", "opening_hours": "Mo 11:00-17:00; Tu 9:00-19:00; We-Fr 10:00-19:00; Sa-Su 9:00-19:00", "brand": "Xfinity"}, "geometry": {"type": "Point", "coordinates": [-75.03184408322993, 40.075641063200614]}},
{"type": "Feature", "id": "z3_MUTlSdaku4rf6B1iWHt1bGZo=", "properties": {"ref": "3730", "@spider": "xfinity", "addr:full": "42 Centerton RD Ste H-1", "addr:city": "Mt. Laurel", "addr:state": "NJ", "addr:postcode": "08054", "addr:country": "US", "name": "Xfinity Store by Comcast", "website": "https://www.xfinity.com/local/nj/mt--laurel/42-centerton-rd-ste-h-1.html?geo=40.7573972,-73.97035570000001", "opening_hours": "Mo 11:00-17:00; Tu 9:00-19:00; We-Fr 10:00-19:00; Sa-Su 9:00-19:00", "brand": "Xfinity"}, "geometry": {"type": "Point", "coordinates": [-74.9118332, 39.9693082]}},
{"type": "Feature", "id": "QDpY3hSHwINLKIhMmp6NHHb8fSU=", "properties": {"ref": "3805", "@spider": "xfinity", "addr:full": "2510 West Moreland Road", "addr:city": "Willow Grove", "addr:state": "PA", "addr:postcode": "19090", "addr:country": "US", "name": "Xfinity Store by Comcast", "website": "https://www.xfinity.com/local/pa/willow-grove/2510-west-moreland-road.html?geo=40.7573972,-73.97035570000001", "opening_hours": "Mo 11:00-17:00; Tu 9:00-19:00; We-Fr 10:00-19:00; Sa-Su 9:00-19:00", "brand": "Xfinity"}, "geometry": {"type": "Point", "coordinates": [-75.1209712, 40.1423767]}},
{"type": "Feature", "id": "VucQPXsWAO284rcUEj-L6Nu6yZk=", "properties": {"ref": "4036", "@spider": "xfinity", "addr:full": "451 Martin Truex Jr Blvd", "addr:city": "Manahawkin", "addr:state": "NJ", "addr:postcode": "08050", "addr:country": "US", "name": "Xfinity Store by Comcast", "website": "https://www.xfinity.com/local/nj/manahawkin/451-martin-truex-jr-blvd.html?geo=40.7573972,-73.97035570000001", "opening_hours": "Mo 11:00-17:00; Tu 9:00-19:00; We-Fr 10:00-19:00; Sa-Su 9:00-19:00", "brand": "Xfinity"}, "geometry": {"type": "Point", "coordinates": [-74.2756101, 39.7040625]}},
{"type": "Feature", "id": "S7O4Kpj3b-pcMcj-2aOtr1sNDB8=", "properties": {"ref": "3947", "@spider": "xfinity", "addr:full": "782 Bethlehem Pike", "addr:city": "North Wales", "addr:state": "PA", "addr:postcode": "19454", "addr:country": "US", "name": "Xfinity Store by Comcast", "website": "https://www.xfinity.com/local/pa/north-wales/782-bethlehem-pike.html?geo=40.7573972,-73.97035570000001", "opening_hours": "Mo 11:00-17:00; Tu 9:00-19:00; We-Fr 10:00-19:00; Sa-Su 9:00-19:00", "brand": "Xfinity"}, "geometry": {"type": "Point", "coordinates": [-75.2441688, 40.2394498]}},
{"type": "Feature", "id": "GZHtJ9Nxnn0cn1WimWKIiSwrPyU=", "properties": {"ref": "4016", "@spider": "xfinity", "addr:full": "216 Chippewa Town Center", "addr:city": "Beaver Falls", "addr:state": "PA", "addr:postcode": "15010", "addr:country": "US", "name": "Xfinity Store by Comcast Branded Partner", "website": "https://www.xfinity.com/local/pa/beaver-falls/216-chippewa-town-center.html?geo=41.44053419999999,-81.7032339", "opening_hours": "Mo 12:00-17:00; Tu-Su 10:00-19:00", "brand": "Xfinity"}, "geometry": {"type": "Point", "coordinates": [-80.3818946, 40.7813458]}},
{"type": "Feature", "id": "Y_2EJSQNrKmfweT77X-tmdXWWNc=", "properties": {"ref": "3806", "@spider": "xfinity", "addr:full": "3907 Woodward Ave", "addr:city": "Detroit", "addr:state": "MI", "addr:postcode": "48201", "addr:country": "US", "name": "Xfinity Store by Comcast", "website": "https://www.xfinity.com/local/mi/detroit/3907-woodward-ave.html?geo=41.44053419999999,-81.7032339", "opening_hours": "Mo-Fr 10:00-18:00; Sa 10:00-13:00", "brand": "Xfinity"}, "geometry": {"type": "Point", "coordinates": [-83.05983063254644, 42.34964889556501]}},
{"type": "Feature", "id": "MjHcRnJVoZaexpQaIo2QH3WJw7s=", "properties": {"ref": "3944", "@spider": "xfinity", "addr:full": "27701 Harper Ave", "addr:city": "Saint Clair Shores", "addr:state": "MI", "addr:postcode": "48081", "addr:country": "US", "name": "Xfinity Store by Comcast", "website": "https://www.xfinity.com/local/mi/saint-clair-shores/27701-harper-ave.html?geo=41.44053419999999,-81.7032339", "opening_hours": "Mo 12:00-17:00; Tu-Su 9:00-19:00", "brand": "Xfinity"}, "geometry": {"type": "Point", "coordinates": [-82.897944, 42.496348]}},
{"type": "Feature", "id": "UMbAfLX1WStJKeiEYDZLXme57II=", "properties": {"ref": "4066", "@spider": "xfinity", "addr:full": "23620 Eureka Road", "addr:city": "Taylor", "addr:state": "MI", "addr:postcode": "48180", "addr:country": "US", "name": "Xfinity Store by Comcast", "website": "https://www.xfinity.com/local/mi/taylor/23620-eureka-road.html?geo=41.44053419999999,-81.7032339", "opening_hours": "Mo 12:00-17:00; Tu-Su 9:00-19:00", "brand": "Xfinity"}, "geometry": {"type": "Point", "coordinates": [-83.2632287, 42.19815819999999]}},
{"type": "Feature", "id": "HBi4dsIZ1pBUCttqMcy3Kk7Q-XA=", "properties": {"ref": "4085", "@spider": "xfinity", "addr:full": "26350 Eastgate Blvd", "addr:city": "Roseville", "addr:state": "MI", "addr:postcode": "48066", "addr:country": "US", "name": "Xfinity Store by Comcast Branded Partner", "website": "https://www.xfinity.com/local/mi/roseville/26350-eastgate-blvd.html?geo=41.44053419999999,-81.7032339", "opening_hours": "Mo 12:00-17:00; Tu-Su 10:00-19:00", "brand": "Xfinity"}, "geometry": {"type": "Point", "coordinates": [-82.939795, 42.4903691]}},
{"type": "Feature", "id": "qoZZV3VW11G_-vi1yCrLnPxrV0M=", "properties": {"ref": "3967", "@spider": "xfinity", "addr:full": "18900 Michigan Avenue", "addr:city": "Dearborn", "addr:state": "MI", "addr:postcode": "48126", "addr:country": "US", "name": "Xfinity Store by Comcast", "website": "https://www.xfinity.com/local/mi/dearborn/18900-michigan-avenue.html?geo=41.44053419999999,-81.7032339", "opening_hours": "Mo 12:00-17:00; Tu-Su 9:00-19:00", "brand": "Xfinity"}, "geometry": {"type": "Point", "coordinates": [-83.2237479, 42.3181785]}},
{"type": "Feature", "id": "jQKKvavY5wzhL1Pc94tvRk4FL2s=", "properties": {"ref": "3860", "@spider": "xfinity", "addr:full": "4555 Van Buren Street", "addr:city": "Riverdale Park", "addr:state": "MD", "addr:postcode": "20737", "addr:country": "US", "name": "Xfinity Store by Comcast", "website": "https://www.xfinity.com/local/md/riverdale-park/4555-van-buren-street.html?geo=39.0457549,-76.64127119999999", "opening_hours": "Mo 12:00-17:00; Tu-Sa 10:00-19:00; Su 10:00-18:00", "brand": "Xfinity"}, "geometry": {"type": "Point", "coordinates": [-76.93639354779542, 38.96941263078896]}},
{"type": "Feature", "id": "KbWvQKkhd76rHClnkZxRgNIoi_o=", "properties": {"ref": "3867", "@spider": "xfinity", "addr:full": "715 7th St NW", "addr:city": "Washington", "addr:state": "DC", "addr:postcode": "20001", "addr:country": "US", "name": "Xfinity Store by Comcast", "website": "https://www.xfinity.com/local/dc/washington/715-7th-st-nw.html?geo=39.0457549,-76.64127119999999", "opening_hours": "Mo-We 10:00-18:00; Th-Fr 10:00-19:00; Sa 10:00-18:00", "brand": "Xfinity"}, "geometry": {"type": "Point", "coordinates": [-77.0217022, 38.8992659]}},
{"type": "Feature", "id": "DrX7S2z82_5AlGSFRTFczn0yjCo=", "properties": {"ref": "3782", "@spider": "xfinity", "addr:full": "13529 Connecticut Ave", "addr:city": "Silver Spring", "addr:state": "MD", "addr:postcode": "20906", "addr:country": "US", "name": "Xfinity Store by Comcast", "website": "https://www.xfinity.com/local/md/silver-spring/13529-connecticut-ave.html?geo=39.0457549,-76.64127119999999", "opening_hours": "Mo 12:00-17:00; Tu-Sa 11:00-19:00; Su 10:00-18:00", "brand": "Xfinity"}, "geometry": {"type": "Point", "coordinates": [-77.0797924, 39.0772893]}},
{"type": "Feature", "id": "7Ff38H9y371zQhzDBW-ni8MSn14=", "properties": {"ref": "3837", "@spider": "xfinity", "addr:full": "1515 N Courthouse Road", "addr:city": "Arlington", "addr:state": "VA", "addr:postcode": "22201", "addr:country": "US", "name": "Xfinity Store by Comcast", "website": "https://www.xfinity.com/local/va/arlington/1515-n-courthouse-road.html?geo=39.0457549,-76.64127119999999", "opening_hours": "Mo 12:00-17:00; Tu-Sa 11:00-19:00; Su 10:00-18:00", "brand": "Xfinity"}, "geometry": {"type": "Point", "coordinates": [-77.0837653, 38.891318]}},
{"type": "Feature", "id": "Xq0r_AWvJErDqDPNYc8wtvbjE7Y=", "properties": {"ref": "3850", "@spider": "xfinity", "addr:full": "10132 Reisterstown Road", "addr:city": "Owings Mills", "addr:state": "MD", "addr:postcode": "21117", "addr:country": "US", "name": "Xfinity Store by Comcast", "website": "https://www.xfinity.com/local/md/owings-mills/10132-reisterstown-road.html?geo=39.0457549,-76.64127119999999", "opening_hours": "Mo 12:00-17:00; Tu-Sa 10:00-19:00; Su 10:00-18:00", "brand": "Xfinity"}, "geometry": {"type": "Point", "coordinates": [-76.772355, 39.413254]}},
{"type": "Feature", "id": "ocn0f1SqzfLID_pZDjh3w80VD1Q=", "properties": {"ref": "3869", "@spider": "xfinity", "addr:full": "2371 Eisenhower Ave", "addr:city": "Alexandria", "addr:state": "VA", "addr:postcode": "22314", "addr:country": "US", "name": "Xfinity Store by Comcast", "website": "https://www.xfinity.com/local/va/alexandria/2371-eisenhower-ave.html?geo=39.0457549,-76.64127119999999", "opening_hours": "Mo 12:00-17:00; Tu-Sa 11:00-19:00; Su 10:00-18:00", "brand": "Xfinity"}, "geometry": {"type": "Point", "coordinates": [-77.06953972578049, 38.801308539631925]}},
{"type": "Feature", "id": "9CHWeuQEW1ZCs79NuNmm4NA6PQA=", "properties": {"ref": "4023", "@spider": "xfinity", "addr:full": "31 Grand Corner Ave", "addr:city": "Gaithersburg", "addr:state": "MD", "addr:postcode": "20878", "addr:country": "US", "name": "Xfinity Store by Comcast", "website": "https://www.xfinity.com/local/md/gaithersburg/31-grand-corner-ave.html?geo=39.0457549,-76.64127119999999", "opening_hours": "Mo 12:00-17:00; Tu-Sa 10:00-19:00; Su 10:00-18:00", "brand": "Xfinity"}, "geometry": {"type": "Point", "coordinates": [-77.2033397, 39.118465]}},
{"type": "Feature", "id": "wsjlA1bJnIXFwTKk5hpuv1LcR9A=", "properties": {"ref": "4187", "@spider": "xfinity", "addr:full": "2954 Festival Way", "addr:city": "Waldorf", "addr:state": "MD", "addr:postcode": "20601", "addr:country": "US", "name": "Xfinity Store by Comcast Branded Partner", "website": "https://www.xfinity.com/local/md/waldorf/2954-festival-way.html?geo=39.0457549,-76.64127119999999", "opening_hours": "Mo 12:00-18:00; Tu-Sa 10:00-20:00; Su 10:00-19:00", "brand": "Xfinity"}, "geometry": {"type": "Point", "coordinates": [-76.90929437179435, 38.628554695388786]}},
{"type": "Feature", "id": "RbJVLQXs3DT6hKffCspoDlrAUY0=", "properties": {"ref": "4127", "@spider": "xfinity", "addr:full": "2254 B Hunters Woods Plaza", "addr:city": "Reston", "addr:state": "VA", "addr:postcode": "20191", "addr:country": "US", "name": "Xfinity Store by Comcast", "website": "https://www.xfinity.com/local/va/reston/2254-b-hunters-woods-plaza.html?geo=39.0457549,-76.64127119999999", "opening_hours": "Mo 12:00-17:00; Tu-Su 10:30-18:00", "brand": "Xfinity"}, "geometry": {"type": "Point", "coordinates": [-77.3615586, 38.9364521]}},
{"type": "Feature", "id": "dqs0_Br32BDj2bOofHWPkNfJpyU=", "properties": {"ref": "3875", "@spider": "xfinity", "addr:full": "20453 Exchange St", "addr:city": "Ashburn", "addr:state": "VA", "addr:postcode": "20147", "addr:country": "US", "name": "Xfinity Store by Comcast", "website": "https://www.xfinity.com/local/va/ashburn/20453-exchange-st.html?geo=39.0457549,-76.64127119999999", "opening_hours": "Mo 12:00-17:00; Tu-Sa 10:00-19:00; Su 10:00-18:00", "brand": "Xfinity"}, "geometry": {"type": "Point", "coordinates": [-77.4538272, 39.0502615]}},
{"type": "Feature", "id": "3sJAdCzo9GSS7dtwbs5NRCzrpnA=", "properties": {"ref": "4195", "@spider": "xfinity", "addr:full": "15101 Potomac Town Place", "addr:city": "Woodbridge", "addr:state": "VA", "addr:postcode": "22191", "addr:country": "US", "name": "Xfinity Store by Comcast", "website": "https://www.xfinity.com/local/va/woodbridge/15101-potomac-town-place.html?geo=39.0457549,-76.64127119999999", "opening_hours": "Mo 12:00-17:00; Tu-Sa 10:00-19:00; Su 10:00-18:00", "brand": "Xfinity"}, "geometry": {"type": "Point", "coordinates": [-77.28721801708491, 38.628161210938934]}},
{"type": "Feature", "id": "qddkDK3zzCSySnq6t4fB4QKMigo=", "properties": {"ref": "3755", "@spider": "xfinity", "addr:full": "1700 Kingfisher Drive", "addr:city": "Frederick", "addr:state": "MD", "addr:postcode": "21701", "addr:country": "US", "name": "Xfinity Store by Comcast", "website": "https://www.xfinity.com/local/md/frederick/1700-kingfisher-drive.html?geo=39.0457549,-76.64127119999999", "opening_hours": "Mo 12:00-17:00; Tu-Sa 10:00-19:00; Su 10:00-18:00", "brand": "Xfinity"}, "geometry": {"type": "Point", "coordinates": [-77.383173, 39.4483447]}},
{"type": "Feature", "id": "5l6xDlzAnMHFbT_ircFLaqUvQIY=", "properties": {"ref": "3969", "@spider": "xfinity", "addr:full": "2866 Chapel Hill Road", "addr:city": "Douglasville", "addr:state": "GA", "addr:postcode": "30135", "addr:country": "US", "name": "Xfinity Store by Comcast Branded Partner", "website": "https://www.xfinity.com/local/ga/douglasville/2866-chapel-hill-road.html?geo=33.6934728,-84.34986769999999", "opening_hours": "Mo 12:00-17:00; Tu-Su 9:00-19:00", "brand": "Xfinity"}, "geometry": {"type": "Point", "coordinates": [-84.7348619, 33.72824889999999]}},
{"type": "Feature", "id": "14VwQlcxXasdZtX_voRMptIMUUA=", "properties": {"ref": "2509", "@spider": "xfinity", "addr:full": "62 2nd Ave", "addr:city": "Burlington", "addr:state": "MA", "addr:postcode": "01803", "addr:country": "US", "name": "Xfinity Store by Comcast", "website": "https://www.xfinity.com/local/ma/burlington/62-2nd-ave.html?geo=42.4072107,-71.3824374", "opening_hours": "Mo 11:00-16:00; Tu-Su 9:00-19:00", "brand": "Xfinity"}, "geometry": {"type": "Point", "coordinates": [-71.2242599, 42.4868433]}},
{"type": "Feature", "id": "TmQ-TEFWK2w8c6NpHBSGPmFIwSE=", "properties": {"ref": "1025", "@spider": "xfinity", "addr:full": "6B Corner Stone Square", "addr:city": "Westford", "addr:state": "MA", "addr:postcode": "01886", "addr:country": "US", "name": "Xfinity Store by Comcast", "website": "https://www.xfinity.com/local/ma/westford/6b-corner-stone-square.html?geo=42.4072107,-71.3824374", "opening_hours": "Mo 11:00-16:00; Tu-Su 9:00-19:00", "brand": "Xfinity"}, "geometry": {"type": "Point", "coordinates": [-71.4262229, 42.5656474]}},
{"type": "Feature", "id": "k1g13oZzGJKe1jvduN4UYzGqh24=", "properties": {"ref": "3916", "@spider": "xfinity", "addr:full": "186 Alewife Brook Pky", "addr:city": "Cambridge", "addr:state": "MA", "addr:postcode": "02138", "addr:country": "US", "name": "Xfinity Store by Comcast", "website": "https://www.xfinity.com/local/ma/cambridge/186-alewife-brook-pky.html?geo=42.4072107,-71.3824374", "opening_hours": "Mo 11:00-16:00; Tu-Su 9:00-19:00", "brand": "Xfinity"}, "geometry": {"type": "Point", "coordinates": [-71.1409126, 42.3901964]}},
{"type": "Feature", "id": "4-QIvo1L5Ft-wUmVK8r9SZibuvs=", "properties": {"ref": "3861", "@spider": "xfinity", "addr:full": "1316 Commonwealth Ave", "addr:city": "Allston", "addr:state": "MA", "addr:postcode": "02134", "addr:country": "US", "name": "Xfinity Store by Comcast", "website": "https://www.xfinity.com/local/ma/allston/1316-commonwealth-ave.html?geo=42.4072107,-71.3824374", "opening_hours": "Mo 11:00-16:00; Tu-Su 9:00-19:00", "brand": "Xfinity"}, "geometry": {"type": "Point", "coordinates": [-71.13434388301357, 42.34829406506543]}},
{"type": "Feature", "id": "0TCQiQoDz4NQRyUUpt1bMnXnKCk=", "properties": {"ref": "3849", "@spider": "xfinity", "addr:full": "199 Plain Street", "addr:city": "Lowell", "addr:state": "MA", "addr:postcode": "01852", "addr:country": "US", "name": "Xfinity Store by Comcast", "website": "https://www.xfinity.com/local/ma/lowell/199-plain-street.html?geo=42.4072107,-71.3824374", "opening_hours": "Mo 11:00-16:00; Tu-Su 9:00-19:00", "brand": "Xfinity"}, "geometry": {"type": "Point", "coordinates": [-71.3189715, 42.6222952]}},
{"type": "Feature", "id": "lIaBNkY_--THZQ58yjXAigE6wHw=", "properties": {"ref": "3935", "@spider": "xfinity", "addr:full": "133 Middlesex Ave", "addr:city": "Somerville", "addr:state": "MA", "addr:postcode": "02145", "addr:country": "US", "name": "Xfinity Store by Comcast", "website": "https://www.xfinity.com/local/ma/somerville/133-middlesex-ave.html?geo=42.4072107,-71.3824374", "opening_hours": "Mo 11:00-16:00; Tu-Su 9:00-19:00", "brand": "Xfinity"}, "geometry": {"type": "Point", "coordinates": [-71.0825562, 42.3956365]}},
{"type": "Feature", "id": "jfIYZS27Qh-aWpL3Q0Fi6F7VQcI=", "properties": {"ref": "1040", "@spider": "xfinity", "addr:full": "4640 Washington St", "addr:city": "Roslindale", "addr:state": "MA", "addr:postcode": "02131", "addr:country": "US", "name": "Comcast Service Center", "website": "https://www.xfinity.com/local/ma/roslindale/4640-washington-st.html?geo=42.4072107,-71.3824374", "opening_hours": "Mo-Fr 10:00-18:00", "brand": "Xfinity"}, "geometry": {"type": "Point", "coordinates": [-71.139805, 42.2748354]}},
{"type": "Feature", "id": "v-kEUSmA4cBEtGD-rAAQ8Be4jl8=", "properties": {"ref": "4225", "@spider": "xfinity", "addr:full": "300 Commercial Street", "addr:city": "Malden", "addr:state": "MA", "addr:postcode": "02148", "addr:country": "US", "name": "Comcast Service Center", "website": "https://www.xfinity.com/local/ma/malden/300-commercial-street.html?geo=42.4072107,-71.3824374", "opening_hours": "Mo-Fr 10:00-18:00", "brand": "Xfinity"}, "geometry": {"type": "Point", "coordinates": [-71.0747424546077, 42.417219229629026]}},
{"type": "Feature", "id": "Qh-5oTVqF6btUbC_juiv48uRy1U=", "properties": {"ref": "3950", "@spider": "xfinity", "addr:full": "212 Legacy Place", "addr:city": "Dedham", "addr:state": "MA", "addr:postcode": "02026", "addr:country": "US", "name": "Xfinity Store by Comcast", "website": "https://www.xfinity.com/local/ma/dedham/212-legacy-place.html?geo=42.4072107,-71.3824374", "opening_hours": "Mo 11:00-18:00; Tu-Su 9:00-20:00", "brand": "Xfinity"}, "geometry": {"type": "Point", "coordinates": [-71.1763343, 42.2308325]}},
{"type": "Feature", "id": "PjKzh2obpbG5lv9j_iYJrhhxDws=", "properties": {"ref": "3677", "@spider": "xfinity", "addr:full": "950 Hyde Park Ave", "addr:city": "Hyde Park", "addr:state": "MA", "addr:postcode": "02136", "addr:country": "US", "name": "Comcast Service Center", "website": "https://www.xfinity.com/local/ma/hyde-park/950-hyde-park-ave.html?geo=42.4072107,-71.3824374", "opening_hours": "Mo-Fr 10:00-18:00", "brand": "Xfinity"}, "geometry": {"type": "Point", "coordinates": [-71.120491, 42.26699]}},
{"type": "Feature", "id": "Dg6CD1_Rod4zzlikzq4UOeh-xKs=", "properties": {"ref": "4111", "@spider": "xfinity", "addr:full": "286 Blue Hill Ave", "addr:city": "Roxbury", "addr:state": "MA", "addr:postcode": "02119", "addr:country": "US", "name": "Xfinity Store by Comcast Branded Partner", "website": "https://www.xfinity.com/local/ma/roxbury/286-blue-hill-ave.html?geo=42.4072107,-71.3824374", "opening_hours": "Mo 10:00-17:00; Tu-Sa 9:00-19:00; Su 9:00-20:00", "brand": "Xfinity"}, "geometry": {"type": "Point", "coordinates": [-71.07852920907234, 42.31487190272092]}},
{"type": "Feature", "id": "kA3Ep1sMHTUDX0-EnMg-F5fX8hY=", "properties": {"ref": "4186", "@spider": "xfinity", "addr:full": "350 Washington Street", "addr:city": "Boston", "addr:state": "MA", "addr:postcode": "02108", "addr:country": "US", "name": "Xfinity Store by Comcast", "website": "https://www.xfinity.com/local/ma/boston/350-washington-street.html?geo=42.4072107,-71.3824374", "opening_hours": "Mo 11:00-16:00; Tu-Su 9:00-19:00", "brand": "Xfinity"}, "geometry": {"type": "Point", "coordinates": [-71.0589754, 42.3564376]}},
{"type": "Feature", "id": "lVYM8XeETA0NaXUEXiEoZ5IWCw8=", "properties": {"ref": "1036", "@spider": "xfinity", "addr:full": "17 Stoughton St", "addr:city": "Dorchester", "addr:state": "MA", "addr:postcode": "02125", "addr:country": "US", "name": "Comcast Service Center", "website": "https://www.xfinity.com/local/ma/dorchester/17-stoughton-st.html?geo=42.4072107,-71.3824374", "opening_hours": "Mo-Fr 10:00-18:00", "brand": "Xfinity"}, "geometry": {"type": "Point", "coordinates": [-71.064655, 42.316721]}},
{"type": "Feature", "id": "4KFVjw77jNVRWTFWzOOV2BLn71Y=", "properties": {"ref": "3989", "@spider": "xfinity", "addr:full": "235 Border Street", "addr:city": "East Boston", "addr:state": "MA", "addr:postcode": "02128", "addr:country": "US", "name": "Xfinity Store by Comcast Branded Partner", "website": "https://www.xfinity.com/local/ma/east-boston/235-border-street.html?geo=42.4072107,-71.3824374", "opening_hours": "Mo 10:00-17:00; Tu-Sa 9:00-19:00; Su 9:00-20:00", "brand": "Xfinity"}, "geometry": {"type": "Point", "coordinates": [-71.039503, 42.376187]}},
{"type": "Feature", "id": "1sa9P97Wa2ZY3cLEIeZQ92tG9VI=", "properties": {"ref": "4230", "@spider": "xfinity", "addr:full": "366A Broadway", "addr:city": "Saugus", "addr:state": "MA", "addr:postcode": "01906", "addr:country": "US", "name": "Xfinity Store by Comcast Branded Partner", "website": "https://www.xfinity.com/local/ma/saugus/366a-broadway.html?geo=42.4072107,-71.3824374", "opening_hours": "Mo 10:00-17:00; Tu-Sa 9:00-19:00; Su 9:00-20:00", "brand": "Xfinity"}, "geometry": {"type": "Point", "coordinates": [-71.0188985, 42.4837547]}},
{"type": "Feature", "id": "NSoElwakz00UUOoh5WvdzaQebj8=", "properties": {"ref": "1121", "@spider": "xfinity", "addr:full": "219 Daniel Webster Highway", "addr:city": "Nashua", "addr:state": "NH", "addr:postcode": "03060", "addr:country": "US", "name": "Xfinity Store by Comcast", "website": "https://www.xfinity.com/local/nh/nashua/219-daniel-webster-highway.html?geo=42.4072107,-71.3824374", "opening_hours": "Mo 11:00-16:00; Tu-Su 9:00-19:00", "brand": "Xfinity"}, "geometry": {"type": "Point", "coordinates": [-71.4429244, 42.7127781]}},
{"type": "Feature", "id": "XS1uM-WX9jrqjEqjB2hCJVqK3FE=", "properties": {"ref": "3750", "@spider": "xfinity", "addr:full": "139 Endicott Street", "addr:city": "Danvers", "addr:state": "MA", "addr:postcode": "01923", "addr:country": "US", "name": "Xfinity Store by Comcast", "website": "https://www.xfinity.com/local/ma/danvers/139-endicott-street.html?geo=42.4072107,-71.3824374", "opening_hours": "Mo 11:00-16:00; Tu-Su 9:00-19:00", "brand": "Xfinity"}, "geometry": {"type": "Point", "coordinates": [-70.93333987522783, 42.551851104659676]}},
{"type": "Feature", "id": "EjlGAEskT2OhA55gh6lsu3cpVww=", "properties": {"ref": "1123", "@spider": "xfinity", "addr:full": "54 Regional Drive", "addr:city": "Concord", "addr:state": "NH", "addr:postcode": "03301", "addr:country": "US", "name": "Comcast Service Center", "website": "https://www.xfinity.com/local/nh/concord/54-regional-drive.html?geo=43.1938516,-71.5723953", "opening_hours": "Mo-Fr 9:00-17:00; Sa 9:00-13:00", "brand": "Xfinity"}, "geometry": {"type": "Point", "coordinates": [-71.4951787, 43.2112083]}},
{"type": "Feature", "id": "iFCj3COeCElEPyB2jxm4vfqPGXw=", "properties": {"ref": "3937", "@spider": "xfinity", "addr:full": "1500 S Willow Street", "addr:city": "Manchester", "addr:state": "NH", "addr:postcode": "03103", "addr:country": "US", "name": "Xfinity Store by Comcast", "website": "https://www.xfinity.com/local/nh/manchester/1500-s-willow-street.html?geo=43.1938516,-71.5723953", "opening_hours": "Mo 11:00-18:00; Tu-Su 9:00-20:00", "brand": "Xfinity"}, "geometry": {"type": "Point", "coordinates": [-71.43225487010335, 42.95559998083388]}},
{"type": "Feature", "id": "IJlpgICGD0_QcvOp-sq0aISsU0Y=", "properties": {"ref": "4249", "@spider": "xfinity", "addr:full": "1458 Lakeshore Road", "addr:city": "Gilford", "addr:state": "NH", "addr:postcode": "03249", "addr:country": "US", "name": "Xfinity Store by Comcast", "website": "https://www.xfinity.com/local/nh/gilford/1458-lakeshore-road.html?geo=43.1938516,-71.5723953", "opening_hours": "Mo-Fr 9:00-17:00", "brand": "Xfinity"}, "geometry": {"type": "Point", "coordinates": [-71.43899367686424, 43.56682579049338]}},
{"type": "Feature", "id": "sgDzlNCD5sy3-g_U4cssuuBHzVQ=", "properties": {"ref": "4242", "@spider": "xfinity", "addr:full": "57 Central St", "addr:city": "Salem", "addr:state": "NH", "addr:postcode": "03079", "addr:country": "US", "name": "Xfinity Store by Comcast Branded Partner", "website": "https://www.xfinity.com/local/nh/salem/57-central-st.html?geo=43.1938516,-71.5723953", "opening_hours": "Mo 10:00-17:00; Tu-Sa 9:00-19:00; Su 9:00-20:00", "brand": "Xfinity"}, "geometry": {"type": "Point", "coordinates": [-71.2294388944601, 42.77779314134646]}},
{"type": "Feature", "id": "uu40-hOX417gZffQ5vqM7nhhQ0M=", "properties": {"ref": "3928", "@spider": "xfinity", "addr:full": "861 Central Ave", "addr:city": "Dover", "addr:state": "NH", "addr:postcode": "03820", "addr:country": "US", "name": "Xfinity Store by Comcast Branded Partner", "website": "https://www.xfinity.com/local/nh/dover/861-central-ave.html?geo=43.1938516,-71.5723953", "opening_hours": "Mo 10:00-17:00; Tu-Sa 9:00-19:00; Su 9:00-20:00", "brand": "Xfinity"}, "geometry": {"type": "Point", "coordinates": [-70.8805322478504, 43.218558591865076]}},
{"type": "Feature", "id": "pwXB3-K3ZGAvEhI7ukhTlTBxIs8=", "properties": {"ref": "3846", "@spider": "xfinity", "addr:full": "70 Pleasant Valley Street", "addr:city": "Methuen", "addr:state": "MA", "addr:postcode": "01844", "addr:country": "US", "name": "Xfinity Store by Comcast", "website": "https://www.xfinity.com/local/ma/methuen/70-pleasant-valley-street.html?geo=43.1938516,-71.5723953", "opening_hours": "Mo 11:00-16:00; Tu-Su 9:00-19:00", "brand": "Xfinity"}, "geometry": {"type": "Point", "coordinates": [-71.1664228, 42.7423953]}},
{"type": "Feature", "id": "EkpzdvVGpVmDVgApmcI0PGwMpWE=", "properties": {"ref": "3923", "@spider": "xfinity", "addr:full": "700 Lafayette Rd", "addr:city": "Seabrook", "addr:state": "NH", "addr:postcode": "03874", "addr:country": "US", "name": "Xfinity Store by Comcast Branded Partner", "website": "https://www.xfinity.com/local/nh/seabrook/700-lafayette-rd.html?geo=43.1938516,-71.5723953", "opening_hours": "Mo 10:00-17:00; Tu-Sa 9:00-19:00; Su 9:00-20:00", "brand": "Xfinity"}, "geometry": {"type": "Point", "coordinates": [-70.8677424, 42.8947093]}},
{"type": "Feature", "id": "_vlpDMalc7I_LPa2YZvmLOVyqHw=", "properties": {"ref": "1120", "@spider": "xfinity", "addr:full": "180 Greenleaf Avenue", "addr:city": "Portsmouth", "addr:state": "NH", "addr:postcode": "03801", "addr:country": "US", "name": "Comcast Service Center", "website": "https://www.xfinity.com/local/nh/portsmouth/180-greenleaf-avenue.html?geo=43.1938516,-71.5723953", "opening_hours": "Mo-Fr 9:00-17:00; Sa 9:00-13:00", "brand": "Xfinity"}, "geometry": {"type": "Point", "coordinates": [-70.773188, 43.05714]}},
{"type": "Feature", "id": "t4ux3DG7wjW0fZpCTuVE4DOROYo=", "properties": {"ref": "4174", "@spider": "xfinity", "addr:full": "200 S Main Street", "addr:city": "West Lebanon", "addr:state": "NH", "addr:postcode": "03784", "addr:country": "US", "name": "Xfinity Store by Comcast Branded Partner", "website": "https://www.xfinity.com/local/nh/west-lebanon/200-s-main-street.html?geo=43.1938516,-71.5723953", "opening_hours": "Mo 10:00-17:00; Tu-Sa 9:00-19:00; Su 9:00-20:00", "brand": "Xfinity"}, "geometry": {"type": "Point", "coordinates": [-72.3197379, 43.6335332]}},
{"type": "Feature", "id": "T_uI0Nck-gpG5JcQbgkWUMN0Vvg=", "properties": {"ref": "3699", "@spider": "xfinity", "addr:full": "4800 Cutler Ave NE", "addr:city": "Albuquerque", "addr:state": "NM", "addr:postcode": "87110", "addr:country": "US", "name": "Xfinity Store by Comcast", "website": "https://www.xfinity.com/local/nm/albuquerque/4800-cutler-ave-ne.html?geo=34.5199402,-105.8700901", "opening_hours": "Mo 11:00-17:00; Tu-Su 10:00-20:00", "brand": "Xfinity"}, "geometry": {"type": "Point", "coordinates": [-106.5911592, 35.1052452]}},
{"type": "Feature", "id": "1zGq-UJmCxyjlLv1FqCp7_9vO7w=", "properties": {"ref": "4155", "@spider": "xfinity", "addr:full": "10131 Coors Blvd NW", "addr:city": "Albuquerque", "addr:state": "NM", "addr:postcode": "87114", "addr:country": "US", "name": "Xfinity Store by Comcast", "website": "https://www.xfinity.com/local/nm/albuquerque/10131-coors-blvd-nw.html?geo=34.5199402,-105.8700901", "opening_hours": "Mo 11:00-17:00; Tu-Su 10:00-18:00", "brand": "Xfinity"}, "geometry": {"type": "Point", "coordinates": [-106.6514739, 35.2009124]}},
{"type": "Feature", "id": "LtiXR5Z4Lxi-frp8qSwgskbrX8c=", "properties": {"ref": "3998", "@spider": "xfinity", "addr:full": "3517 Zafarano Drive", "addr:city": "Santa Fe", "addr:state": "NM", "addr:postcode": "87507", "addr:country": "US", "name": "Xfinity Store by Comcast", "website": "https://www.xfinity.com/local/nm/santa-fe/3517-zafarano-drive.html?geo=34.5199402,-105.8700901", "opening_hours": "Mo 11:00-17:00; Tu-Su 10:00-18:00", "brand": "Xfinity"}, "geometry": {"type": "Point", "coordinates": [-106.011057, 35.6423812]}},
{"type": "Feature", "id": "euVKCiO_cqXIHVMKOqxmPWj7kuQ=", "properties": {"ref": "4198", "@spider": "xfinity", "addr:full": "2530 Hot Springs Blvd", "addr:city": "Las Vegas", "addr:state": "NM", "addr:postcode": "87701", "addr:country": "US", "name": "Xfinity Store by Comcast", "website": "https://www.xfinity.com/local/nm/las-vegas/2530-hot-springs-blvd.html?geo=34.5199402,-105.8700901", "opening_hours": "Mo 12:00-18:00; Tu 10:00-16:00", "brand": "Xfinity"}, "geometry": {"type": "Point", "coordinates": [-105.23322757137585, 35.59933124156303]}},
{"type": "Feature", "id": "gVLvQSPPF4YSUIVLCTzb97HUkvc=", "properties": {"ref": "3827", "@spider": "xfinity", "addr:full": "941 Haddonfield Road", "addr:city": "Cherry Hill", "addr:state": "NJ", "addr:postcode": "08002", "addr:country": "US", "name": "Xfinity Store by Comcast", "website": "https://www.xfinity.com/local/nj/cherry-hill/941-haddonfield-road.html?geo=40.0583238,-74.4056612", "opening_hours": "Mo 11:00-17:00; Tu 9:00-19:00; We-Fr 10:00-19:00; Sa-Su 9:00-19:00", "brand": "Xfinity"}, "geometry": {"type": "Point", "coordinates": [-75.034218, 39.9249831]}},
{"type": "Feature", "id": "OYnTWnBv7Tg71bYDspjtWCLxZwQ=", "properties": {"ref": "3972", "@spider": "xfinity", "addr:full": "4640 Roosevelt Blvd", "addr:city": "Philadelphia", "addr:state": "PA", "addr:postcode": "19124", "addr:country": "US", "name": "Xfinity Store by Comcast", "website": "https://www.xfinity.com/local/pa/philadelphia/4640-roosevelt-blvd.html?geo=40.0583238,-74.4056612", "opening_hours": "Mo 11:00-17:00; Tu 9:00-19:00; We-Fr 10:00-19:00; Sa-Su 9:00-19:00", "brand": "Xfinity"}, "geometry": {"type": "Point", "coordinates": [-75.0996488, 40.0295972]}},
{"type": "Feature", "id": "y-vSQ9ikBD6AAh1Tv88EWB1fP58=", "properties": {"ref": "3952", "@spider": "xfinity", "addr:full": "1429 Walnut Street", "addr:city": "Philadelphia", "addr:state": "PA", "addr:postcode": "19102", "addr:country": "US", "name": "Xfinity Store by Comcast", "website": "https://www.xfinity.com/local/pa/philadelphia/1429-walnut-street.html?geo=40.0583238,-74.4056612", "opening_hours": "Mo 11:00-17:00; Tu 9:00-19:00; We-Fr 10:00-19:00; Sa-Su 9:00-19:00", "brand": "Xfinity"}, "geometry": {"type": "Point", "coordinates": [-75.1656039, 39.9496052]}},
{"type": "Feature", "id": "lY_9FjY-h9yRrjqBnYOKSYiDFM0=", "properties": {"ref": "3940", "@spider": "xfinity", "addr:full": "4504B City Ave", "addr:city": "Philadelphia", "addr:state": "PA", "addr:postcode": "19131", "addr:country": "US", "name": "Xfinity Store by Comcast", "website": "https://www.xfinity.com/local/pa/philadelphia/4504b-city-ave.html?geo=40.0583238,-74.4056612", "opening_hours": "Mo 11:00-17:00; Tu 9:00-19:00; We-Fr 10:00-19:00; Sa-Su 9:00-19:00", "brand": "Xfinity"}, "geometry": {"type": "Point", "coordinates": [-75.2218699, 40.0030267]}},
{"type": "Feature", "id": "GP7B7swIH9YQiqwt914KJKRIP1A=", "properties": {"ref": "3873", "@spider": "xfinity", "addr:full": "158 Holt Garrison Pkway", "addr:city": "Danville", "addr:state": "VA", "addr:postcode": "24540", "addr:country": "US", "name": "Xfinity Store by Comcast", "website": "https://www.xfinity.com/local/va/danville/158-holt-garrison-pkway.html?geo=35.7595731,-79.01929969999999", "opening_hours": "Mo 12:00-17:00; Tu-Su 10:00-18:00", "brand": "Xfinity"}, "geometry": {"type": "Point", "coordinates": [-79.41670381349189, 36.60004417376801]}},
{"type": "Feature", "id": "cjGM66TVmLFroxAwol4Qcp7fOX0=", "properties": {"ref": "2601", "@spider": "xfinity", "addr:full": "390 Commonwealth Blvd", "addr:city": "Martinsville", "addr:state": "VA", "addr:postcode": "24112", "addr:country": "US", "name": "Comcast Service Center", "website": "https://www.xfinity.com/local/va/martinsville/390-commonwealth-blvd.html?geo=35.7595731,-79.01929969999999", "opening_hours": "Mo-Fr 8:30-17:30", "brand": "Xfinity"}, "geometry": {"type": "Point", "coordinates": [-79.892534, 36.69772]}},
{"type": "Feature", "id": "FVpyR6frfp4Wm-smDGK2MgLJqMU=", "properties": {"ref": "3759", "@spider": "xfinity", "addr:full": "521 North Thompson Lane", "addr:city": "Murfreesboro", "addr:state": "TN", "addr:postcode": "37129", "addr:country": "US", "name": "Xfinity Store by Comcast", "website": "https://www.xfinity.com/local/tn/murfreesboro/521-north-thompson-lane.html?geo=35.5174913,-86.5804473", "opening_hours": "Mo 12:00-17:00; Tu-Su 10:00-19:00", "brand": "Xfinity"}, "geometry": {"type": "Point", "coordinates": [-86.4314644, 35.8562573]}},
{"type": "Feature", "id": "MC6yFHnkI4L9MZGI8bMp1UqFu2s=", "properties": {"ref": "1113", "@spider": "xfinity", "addr:full": "7090 Bakers Bridge Ave", "addr:city": "Franklin", "addr:state": "TN", "addr:postcode": "37067", "addr:country": "US", "name": "Xfinity Store by Comcast", "website": "https://www.xfinity.com/local/tn/franklin/7090-bakers-bridge-ave.html?geo=35.5174913,-86.5804473", "opening_hours": "Mo 12:00-17:00; Tu-Su 10:00-19:00", "brand": "Xfinity"}, "geometry": {"type": "Point", "coordinates": [-86.8145157, 35.9622624]}},
{"type": "Feature", "id": "-gQInuQg7PGHCQRnmeP28gZlFUM=", "properties": {"ref": "3740", "@spider": "xfinity", "addr:full": "2400 Franklin Pike", "addr:city": "Nashville", "addr:state": "TN", "addr:postcode": "37204", "addr:country": "US", "name": "Xfinity Store by Comcast", "website": "https://www.xfinity.com/local/tn/nashville/2400-franklin-pike.html?geo=35.5174913,-86.5804473", "opening_hours": "Mo 12:00-17:00; Tu-Su 10:00-19:00", "brand": "Xfinity"}, "geometry": {"type": "Point", "coordinates": [-86.7764637, 36.1259186]}},
{"type": "Feature", "id": "CosKLAY4tOPretXxWz0HhYZh8pg=", "properties": {"ref": "3901", "@spider": "xfinity", "addr:full": "7614 Highway 70 S", "addr:city": "Nashville", "addr:state": "TN", "addr:postcode": "37221", "addr:country": "US", "name": "Xfinity Store by Comcast", "website": "https://www.xfinity.com/local/tn/nashville/7614-highway-70-s.html?geo=35.5174913,-86.5804473", "opening_hours": "Mo 12:00-17:00; Tu-Su 9:00-19:00", "brand": "Xfinity"}, "geometry": {"type": "Point", "coordinates": [-86.94817852592189, 36.07947453385422]}},
{"type": "Feature", "id": "j45-FzRVq1OScpQyW6tc6U21zaA=", "properties": {"ref": "3936", "@spider": "xfinity", "addr:full": "5522 Old Hickory Blvd", "addr:city": "Hermitage", "addr:state": "TN", "addr:postcode": "37076", "addr:country": "US", "name": "Xfinity Store by Comcast", "website": "https://www.xfinity.com/local/tn/hermitage/5522-old-hickory-blvd.html?geo=35.5174913,-86.5804473", "opening_hours": "Mo 12:00-17:00; Tu-Su 9:00-19:00", "brand": "Xfinity"}, "geometry": {"type": "Point", "coordinates": [-86.60600984075789, 36.182723813096075]}},
{"type": "Feature", "id": "C8QlPDHL_7KYrq_nM12ieZ30XY4=", "properties": {"ref": "3874", "@spider": "xfinity", "addr:full": "217 Indian Lake Blvd", "addr:city": "Hendersonville", "addr:state": "TN", "addr:postcode": "37075", "addr:country": "US", "name": "Xfinity Store by Comcast", "website": "https://www.xfinity.com/local/tn/hendersonville/217-indian-lake-blvd.html?geo=35.5174913,-86.5804473", "opening_hours": "Mo 12:00-17:00; Tu-Su 10:00-19:00", "brand": "Xfinity"}, "geometry": {"type": "Point", "coordinates": [-86.601603, 36.321613]}},
{"type": "Feature", "id": "CsVhyDiK7-YKLyz7IhKy_WCisNs=", "properties": {"ref": "3891", "@spider": "xfinity", "addr:full": "320 The Bridge St", "addr:city": "Huntsville", "addr:state": "AL", "addr:postcode": "35806", "addr:country": "US", "name": "Xfinity Store by Comcast", "website": "https://www.xfinity.com/local/al/huntsville/320-the-bridge-st.html?geo=35.5174913,-86.5804473", "opening_hours": "Mo 12:00-17:00; Tu-Su 10:00-19:00", "brand": "Xfinity"}, "geometry": {"type": "Point", "coordinates": [-86.6730451, 34.7162179]}},
{"type": "Feature", "id": "r-JCrVAAnqRn7eOKMs5E6vE8w4E=", "properties": {"ref": "4241", "@spider": "xfinity", "addr:full": "396 Cox Creek Pkwy", "addr:city": "Florence", "addr:state": "AL", "addr:postcode": "35630", "addr:country": "US", "name": "Xfinity Store by Comcast Branded Partner", "website": "https://www.xfinity.com/local/al/florence/396-cox-creek-pkwy.html?geo=35.5174913,-86.5804473", "opening_hours": "Mo 12:00-17:00; Tu-Su 10:00-19:00", "brand": "Xfinity"}, "geometry": {"type": "Point", "coordinates": [-87.63791608901951, 34.84238202822999]}},
{"type": "Feature", "id": "pXi3ADn0-WJPFi2QTW_RlR5DbJY=", "properties": {"ref": "4154", "@spider": "xfinity", "addr:full": "5550 TN-153", "addr:city": "Hixson", "addr:state": "TN", "addr:postcode": "37343", "addr:country": "US", "name": "Xfinity Store by Comcast Branded Partner", "website": "https://www.xfinity.com/local/tn/hixson/5550-tn-153.html?geo=35.5174913,-86.5804473", "opening_hours": "Mo 12:00-17:00; Tu-Su 9:00-19:00", "brand": "Xfinity"}, "geometry": {"type": "Point", "coordinates": [-85.24855541226984, 35.14777294658355]}},
{"type": "Feature", "id": "wxfvq4-gqgLNMUIBdazMtLY_QhY=", "properties": {"ref": "3906", "@spider": "xfinity", "addr:full": "1926 Gunbarrel Rd", "addr:city": "Chattanooga", "addr:state": "TN", "addr:postcode": "37421", "addr:country": "US", "name": "Xfinity Store by Comcast", "website": "https://www.xfinity.com/local/tn/chattanooga/1926-gunbarrel-rd.html?geo=35.5174913,-86.5804473", "opening_hours": "Mo 12:00-17:00; Tu-Su 10:00-19:00", "brand": "Xfinity"}, "geometry": {"type": "Point", "coordinates": [-85.1552606, 35.0291184]}},
{"type": "Feature", "id": "7I8O7nbJP7gWELzqeutp36OCOiA=", "properties": {"ref": "3991", "@spider": "xfinity", "addr:full": "923 14th Street", "addr:city": "Fort Campbell", "addr:state": "KY", "addr:postcode": "42223", "addr:country": "US", "name": "Xfinity Store by Comcast", "website": "https://www.xfinity.com/local/ky/fort-campbell/923-14th-street.html?geo=35.5174913,-86.5804473", "opening_hours": "Mo-Fr 10:00-19:00", "brand": "Xfinity"}, "geometry": {"type": "Point", "coordinates": [-87.43899119999999, 36.6303358]}},
{"type": "Feature", "id": "OrRHzgX9_8r8CZzrX4GvoR_VL-U=", "properties": {"ref": "3914", "@spider": "xfinity", "addr:full": "1952 East Third St", "addr:city": "Williamsport", "addr:state": "PA", "addr:postcode": "17701", "addr:country": "US", "name": "Xfinity Store by Comcast", "website": "https://www.xfinity.com/local/pa/williamsport/1952-east-third-st.html?geo=41.2033216,-77.1945247", "opening_hours": "Mo 12:00-17:00; Tu-Su 10:00-19:00", "brand": "Xfinity"}, "geometry": {"type": "Point", "coordinates": [-76.9615881, 41.2480771]}},
{"type": "Feature", "id": "TIxgndRvexU_oYC2JZuEIFGzo-k=", "properties": {"ref": "4054", "@spider": "xfinity", "addr:full": "1801 N. Atherton Street", "addr:city": "State College", "addr:state": "PA", "addr:postcode": "16803", "addr:country": "US", "name": "Xfinity Store by Comcast", "website": "https://www.xfinity.com/local/pa/state-college/1801-n--atherton-street.html?geo=41.2033216,-77.1945247", "opening_hours": "Mo 12:00-17:00; Tu-Su 9:00-19:00", "brand": "Xfinity"}, "geometry": {"type": "Point", "coordinates": [-77.90181539999999, 40.809053]}},
{"type": "Feature", "id": "W8OfBykp3HbUUsPkTEsHTyX4dY8=", "properties": {"ref": "3836", "@spider": "xfinity", "addr:full": "5094 Jonestown Road", "addr:city": "Harrisburg", "addr:state": "PA", "addr:postcode": "17112", "addr:country": "US", "name": "Xfinity Store by Comcast", "website": "https://www.xfinity.com/local/pa/harrisburg/5094-jonestown-road.html?geo=41.2033216,-77.1945247", "opening_hours": "Mo 12:00-17:00; Tu-Su 9:00-19:00", "brand": "Xfinity"}, "geometry": {"type": "Point", "coordinates": [-76.80462245795252, 40.31284841536586]}},
{"type": "Feature", "id": "u_OqjdfjzhvH80_xfBX8sMrjcpA=", "properties": {"ref": "4156", "@spider": "xfinity", "addr:full": "6444 Carlisle Pike", "addr:city": "Mechanicsburg", "addr:state": "PA", "addr:postcode": "17050", "addr:country": "US", "name": "Xfinity Store by Comcast", "website": "https://www.xfinity.com/local/pa/mechanicsburg/6444-carlisle-pike.html?geo=41.2033216,-77.1945247", "opening_hours": "Mo 12:00-17:00; Tu-Su 10:00-19:00", "brand": "Xfinity"}, "geometry": {"type": "Point", "coordinates": [-77.01184034065949, 40.24809906704935]}},
{"type": "Feature", "id": "qyWPcgus4HY8bL6rD-3gGw5yrN4=", "properties": {"ref": "4238", "@spider": "xfinity", "addr:full": "264 Westminster Drive", "addr:city": "Carlisle", "addr:state": "PA", "addr:postcode": "17013", "addr:country": "US", "name": "Xfinity Store by Comcast Branded Partner", "website": "https://www.xfinity.com/local/pa/carlisle/264-westminster-drive.html?geo=41.2033216,-77.1945247", "opening_hours": "Mo 12:00-17:00; Tu-Su 10:00-19:00", "brand": "Xfinity"}, "geometry": {"type": "Point", "coordinates": [-77.1556726, 40.197543]}},
{"type": "Feature", "id": "i_RlRsVZDEx3WcF3asdmeGdOnm0=", "properties": {"ref": "4206", "@spider": "xfinity", "addr:full": "1154 Mae Street", "addr:city": "Hummelstown", "addr:state": "PA", "addr:postcode": "17036", "addr:country": "US", "name": "Xfinity Store by Comcast Branded Partner", "website": "https://www.xfinity.com/local/pa/hummelstown/1154-mae-street.html?geo=41.2033216,-77.1945247", "opening_hours": "Mo 12:00-17:00; Tu-Su 10:00-18:00", "brand": "Xfinity"}, "geometry": {"type": "Point", "coordinates": [-76.6871098, 40.2692318]}},
{"type": "Feature", "id": "rofO_en8RueHdh9V6lRdr3q7-1w=", "properties": {"ref": "4179", "@spider": "xfinity", "addr:full": "1150 HWY 315", "addr:city": "Plains Township", "addr:state": "PA", "addr:postcode": "18702", "addr:country": "US", "name": "Xfinity Store by Comcast Branded Partner", "website": "https://www.xfinity.com/local/pa/plains-township/1150-hwy-315.html?geo=41.2033216,-77.1945247", "opening_hours": "Mo 12:00-17:00; Tu-Su 10:00-19:00", "brand": "Xfinity"}, "geometry": {"type": "Point", "coordinates": [-75.8211669, 41.2591934]}},
{"type": "Feature", "id": "au92IpPtXVdNPWCRTuICV3JY8Xw=", "properties": {"ref": "4180", "@spider": "xfinity", "addr:full": "1790 Quentin Road", "addr:city": "Lebanon", "addr:state": "PA", "addr:postcode": "17042", "addr:country": "US", "name": "Xfinity Store by Comcast Branded Partner", "website": "https://www.xfinity.com/local/pa/lebanon/1790-quentin-road.html?geo=41.2033216,-77.1945247", "opening_hours": "Mo 12:00-17:00; Tu-Su 10:00-19:00", "brand": "Xfinity"}, "geometry": {"type": "Point", "coordinates": [-76.4236526, 40.3109397]}},
{"type": "Feature", "id": "srn1pAQqMcma5Qu4HPxQOR8aPPA=", "properties": {"ref": "2510", "@spider": "xfinity", "addr:full": "1128 Commerce Blvd", "addr:city": "Dickson City", "addr:state": "PA", "addr:postcode": "18519", "addr:country": "US", "name": "Xfinity Store by Comcast", "website": "https://www.xfinity.com/local/pa/dickson-city/1128-commerce-blvd.html?geo=41.2033216,-77.1945247", "opening_hours": "Mo 12:00-17:00; Tu-Su 10:00-19:00", "brand": "Xfinity"}, "geometry": {"type": "Point", "coordinates": [-75.63999295229223, 41.46697381323695]}},
{"type": "Feature", "id": "wQYJ5yMhRbfMbKrxF3A4fmPFHGU=", "properties": {"ref": "3773", "@spider": "xfinity", "addr:full": "2777 Papermill Road", "addr:city": "Wyomissing", "addr:state": "PA", "addr:postcode": "19610", "addr:country": "US", "name": "Xfinity Store by Comcast", "website": "https://www.xfinity.com/local/pa/wyomissing/2777-papermill-road.html?geo=41.2033216,-77.1945247", "opening_hours": "Mo 12:00-17:00; Tu-Su 9:00-19:00", "brand": "Xfinity"}, "geometry": {"type": "Point", "coordinates": [-75.984876, 40.360458]}},
{"type": "Feature", "id": "LuWQlzuX4zs8GBYRJdzVLOPsrcU=", "properties": {"ref": "3753", "@spider": "xfinity", "addr:full": "2801 East Market Street", "addr:city": "York", "addr:state": "PA", "addr:postcode": "17402", "addr:country": "US", "name": "Xfinity Store by Comcast", "website": "https://www.xfinity.com/local/pa/york/2801-east-market-street.html?geo=41.2033216,-77.1945247", "opening_hours": "Mo 12:00-17:00; Tu-Su 10:00-19:00", "brand": "Xfinity"}, "geometry": {"type": "Point", "coordinates": [-76.6723022, 39.9791364]}},
{"type": "Feature", "id": "tLeqqlvRk2I0Ky_LI3luGIIJLFg=", "properties": {"ref": "3988", "@spider": "xfinity", "addr:full": "935 Norland Ave", "addr:city": "Chambersburg", "addr:state": "PA", "addr:postcode": "17201", "addr:country": "US", "name": "Xfinity Store by Comcast", "website": "https://www.xfinity.com/local/pa/chambersburg/935-norland-ave.html?geo=41.2033216,-77.1945247", "opening_hours": "Mo 12:00-17:00; Tu-Su 10:00-19:00", "brand": "Xfinity"}, "geometry": {"type": "Point", "coordinates": [-77.6291246, 39.9421611]}},
{"type": "Feature", "id": "E8GpOBJsCwnNzznmjI7fh6DUaAU=", "properties": {"ref": "4040", "@spider": "xfinity", "addr:full": "1571 Fruitville Pike", "addr:city": "Lancaster", "addr:state": "PA", "addr:postcode": "17601", "addr:country": "US", "name": "Xfinity Store by Comcast", "website": "https://www.xfinity.com/local/pa/lancaster/1571-fruitville-pike.html?geo=41.2033216,-77.1945247", "opening_hours": "Mo 12:00-17:00; Tu-Su 10:00-19:00", "brand": "Xfinity"}, "geometry": {"type": "Point", "coordinates": [-76.3138624, 40.066672]}},
{"type": "Feature", "id": "UyYBnkYFlnKIqI2af5A_PfvMLnk=", "properties": {"ref": "4210", "@spider": "xfinity", "addr:full": "1150 Carlisle Street", "addr:city": "Hanover", "addr:state": "PA", "addr:postcode": "17331", "addr:country": "US", "name": "Xfinity Store by Comcast Branded Partner", "website": "https://www.xfinity.com/local/pa/hanover/1150-carlisle-street.html?geo=41.2033216,-77.1945247", "opening_hours": "Mo 12:00-17:00; Tu-Su 10:00-19:00", "brand": "Xfinity"}, "geometry": {"type": "Point", "coordinates": [-76.9989897007668, 39.821407664637114]}},
{"type": "Feature", "id": "k-ZmRf2xQHLXe93pzDJdgQbY714=", "properties": {"ref": "3763", "@spider": "xfinity", "addr:full": "222 Robert C Daniel Jr Parkway", "addr:city": "Augusta", "addr:state": "GA", "addr:postcode": "30909", "addr:country": "US", "name": "Xfinity Store by Comcast", "website": "https://www.xfinity.com/local/ga/augusta/222-robert-c-daniel-jr-parkway.html?geo=33.836081,-81.1637245", "opening_hours": "Mo 12:00-17:00; Tu-Su 10:00-19:00", "brand": "Xfinity"}, "geometry": {"type": "Point", "coordinates": [-82.0783493, 33.4902393]}},
{"type": "Feature", "id": "HJqcALL4ezjZg4-CDnS-oc_qkSo=", "properties": {"ref": "4048", "@spider": "xfinity", "addr:full": "529 Mullins Colony Dr.", "addr:city": "Evans", "addr:state": "GA", "addr:postcode": "30809", "addr:country": "US", "name": "Xfinity Store by Comcast", "website": "https://www.xfinity.com/local/ga/evans/529-mullins-colony-dr.html?geo=33.836081,-81.1637245", "opening_hours": "Mo 12:00-17:00; Tu-Su 10:00-19:00", "brand": "Xfinity"}, "geometry": {"type": "Point", "coordinates": [-82.1213989, 33.5279972]}},
{"type": "Feature", "id": "VX4nBnh2QrUTOQ4-s0P9dn0Yt1U=", "properties": {"ref": "3766", "@spider": "xfinity", "addr:full": "5037 International Boulevard", "addr:city": "North Charleston", "addr:state": "SC", "addr:postcode": "29418", "addr:country": "US", "name": "Xfinity Store by Comcast", "website": "https://www.xfinity.com/local/sc/north-charleston/5037-international-boulevard.html?geo=33.836081,-81.1637245", "opening_hours": "Mo 12:00-17:00; Tu-Su 10:00-19:00", "brand": "Xfinity"}, "geometry": {"type": "Point", "coordinates": [-80.01550745218992, 32.86619359629976]}},
{"type": "Feature", "id": "kCs-4NPTQuaRsVB_z4Vk2qRHeSw=", "properties": {"ref": "4235", "@spider": "xfinity", "addr:full": "1850 Sam Rittenberg Blvd", "addr:city": "Charleston", "addr:state": "SC", "addr:postcode": "29407", "addr:country": "US", "name": "Xfinity Store by Comcast", "website": "https://www.xfinity.com/local/sc/charleston/1850-sam-rittenberg-blvd.html?geo=33.836081,-81.1637245", "opening_hours": "Mo 12:00-17:00; Tu-Su 10:00-19:00", "brand": "Xfinity"}, "geometry": {"type": "Point", "coordinates": [-80.02086835216117, 32.79997071263298]}},
{"type": "Feature", "id": "jHQgDUr_n_YOggXB_lHJxKKwp5Q=", "properties": {"ref": "750", "@spider": "xfinity", "addr:full": "800 Warren St", "addr:city": "Fall River", "addr:state": "MA", "addr:postcode": "02721", "addr:country": "US", "name": "Comcast Service Center", "website": "https://www.xfinity.com/local/ma/fall-river/800-warren-st.html?geo=41.5800945,-71.4774291", "opening_hours": "Mo-Fr 9:00-18:00; Sa 9:00-13:00", "brand": "Xfinity"}, "geometry": {"type": "Point", "coordinates": [-71.1445498, 41.6863966]}},
{"type": "Feature", "id": "IIt3OF1Kf7oSveKgwnk4AAf3DnY=", "properties": {"ref": "1117", "@spider": "xfinity", "addr:full": "630 Mt Pleasant St", "addr:city": "New Bedford", "addr:state": "MA", "addr:postcode": "02745", "addr:country": "US", "name": "Xfinity Store by Comcast", "website": "https://www.xfinity.com/local/ma/new-bedford/630-mt-pleasant-st.html?geo=41.5800945,-71.4774291", "opening_hours": "Mo-Sa 9:00-18:00", "brand": "Xfinity"}, "geometry": {"type": "Point", "coordinates": [-70.943097, 41.668837]}},
{"type": "Feature", "id": "Qg6YUTiyxwW_-nRgTC75J3H9TIA=", "properties": {"ref": "3785", "@spider": "xfinity", "addr:full": "600 South St W", "addr:city": "Raynham", "addr:state": "MA", "addr:postcode": "02767", "addr:country": "US", "name": "Xfinity Store by Comcast", "website": "https://www.xfinity.com/local/ma/raynham/600-south-st-w.html?geo=41.5800945,-71.4774291", "opening_hours": "Mo 11:00-16:00; Tu-Su 9:00-19:00", "brand": "Xfinity"}, "geometry": {"type": "Point", "coordinates": [-71.044919, 41.9041422]}},
{"type": "Feature", "id": "jkGWog_c-tRmAp76jwmDjLjqa0U=", "properties": {"ref": "3862", "@spider": "xfinity", "addr:full": "200 Westgate Drive", "addr:city": "Brockton", "addr:state": "MA", "addr:postcode": "02301", "addr:country": "US", "name": "Xfinity Store by Comcast", "website": "https://www.xfinity.com/local/ma/brockton/200-westgate-drive.html?geo=41.5800945,-71.4774291", "opening_hours": "Mo 11:00-16:00; Tu-Su 9:00-19:00", "brand": "Xfinity"}, "geometry": {"type": "Point", "coordinates": [-71.05269849300385, 42.09425384800343]}},
{"type": "Feature", "id": "WN8W6OnWCw9d92FF9Hg0KWUqrd8=", "properties": {"ref": "2503", "@spider": "xfinity", "addr:full": "205 Worcester Court, Unit A-7", "addr:city": "Falmouth", "addr:state": "MA", "addr:postcode": "02540", "addr:country": "US", "name": "Comcast Service Center", "website": "https://www.xfinity.com/local/ma/falmouth/205-worcester-court--unit-a-7.html?geo=41.5800945,-71.4774291", "opening_hours": "Mo-Fr 9:00-17:00", "brand": "Xfinity"}, "geometry": {"type": "Point", "coordinates": [-70.59707, 41.559339]}},
{"type": "Feature", "id": "DVmE-y7NZCUQdJIBBSZCiEQ2X6Y=", "properties": {"ref": "3866", "@spider": "xfinity", "addr:full": "104  Colony Place Rd", "addr:city": "Plymouth", "addr:state": "MA", "addr:postcode": "02360", "addr:country": "US", "name": "Xfinity Store by Comcast", "website": "https://www.xfinity.com/local/ma/plymouth/104--colony-place-rd.html?geo=41.5800945,-71.4774291", "opening_hours": "Mo 11:00-16:00; Tu-Su 9:00-19:00", "brand": "Xfinity"}, "geometry": {"type": "Point", "coordinates": [-70.7146463, 41.9549115]}},
{"type": "Feature", "id": "IwP1uTf31cklBOp054e7FDvXTEs=", "properties": {"ref": "2827", "@spider": "xfinity", "addr:full": "19 East Line Rd", "addr:city": "Edgartown", "addr:state": "MA", "addr:postcode": "02539", "addr:country": "US", "name": "Xfinity Store by Comcast", "website": "https://www.xfinity.com/local/ma/edgartown/19-east-line-rd.html?geo=41.5800945,-71.4774291", "opening_hours": "Mo-Fr 9:00-17:00", "brand": "Xfinity"}, "geometry": {"type": "Point", "coordinates": [-70.602863, 41.393151]}},
{"type": "Feature", "id": "hjYWlWtwzDmYSU38AplLWSREVC0=", "properties": {"ref": "4031", "@spider": "xfinity", "addr:full": "106 Main Street", "addr:city": "Weymouth", "addr:state": "MA", "addr:postcode": "02188", "addr:country": "US", "name": "Xfinity Store by Comcast Branded Partner", "website": "https://www.xfinity.com/local/ma/weymouth/106-main-street.html?geo=41.5800945,-71.4774291", "opening_hours": "Mo 10:00-17:00; Tu-Sa 9:00-19:00; Su 9:00-20:00", "brand": "Xfinity"}, "geometry": {"type": "Point", "coordinates": [-70.9544132, 42.2038707]}},
{"type": "Feature", "id": "dHytYloBDpMPdUwcgKvwhKWr5cw=", "properties": {"ref": "3653", "@spider": "xfinity", "addr:full": "290 Route 130, Unit 7", "addr:city": "Sandwich", "addr:state": "MA", "addr:postcode": "02563", "addr:country": "US", "name": "Xfinity Store by Comcast", "website": "https://www.xfinity.com/local/ma/sandwich/290-route-130--unit-7.html?geo=41.5800945,-71.4774291", "opening_hours": "Mo-Fr 9:00-17:00", "brand": "Xfinity"}, "geometry": {"type": "Point", "coordinates": [-70.4895121, 41.7136546]}},
{"type": "Feature", "id": "1I70NrstO0neEgiYymtAp8eS-Dc=", "properties": {"ref": "3681", "@spider": "xfinity", "addr:full": "740 Venture Drive", "addr:city": "Morgantown", "addr:state": "WV", "addr:postcode": "26508", "addr:country": "US", "name": "Xfinity Store by Comcast", "website": "https://www.xfinity.com/local/wv/morgantown/740-venture-drive.html?geo=38.5976262,-80.4549026", "opening_hours": "Mo 12:00-17:00; Tu-Su 10:00-19:00", "brand": "Xfinity"}, "geometry": {"type": "Point", "coordinates": [-79.894773, 39.648952]}},
{"type": "Feature", "id": "9bCgfaSfq6nH7wN7ADW5WMIjR6M=", "properties": {"ref": "4152", "@spider": "xfinity", "addr:full": "1546 E Market Street", "addr:city": "Harrisonburg", "addr:state": "VA", "addr:postcode": "22801", "addr:country": "US", "name": "Xfinity Store by Comcast Branded Partner", "website": "https://www.xfinity.com/local/va/harrisonburg/1546-e-market-street.html?geo=38.5976262,-80.4549026", "opening_hours": "Mo 11:00-18:00; Tu-Su 10:00-20:00", "brand": "Xfinity"}, "geometry": {"type": "Point", "coordinates": [-78.84717739999999, 38.4350446]}},
{"type": "Feature", "id": "LLGPUvVQnr8D8v60gayGIUCNxb4=", "properties": {"ref": "4247", "@spider": "xfinity", "addr:full": "2475 North Franklin Place", "addr:city": "Christiansburg", "addr:state": "VA", "addr:postcode": "24073", "addr:country": "US", "name": "Xfinity Store by Comcast Branded Partner", "website": "https://www.xfinity.com/local/va/christiansburg/2475-north-franklin-place.html?geo=38.5976262,-80.4549026", "opening_hours": "Mo 11:00-18:00; Tu-Su 10:00-20:00", "brand": "Xfinity"}, "geometry": {"type": "Point", "coordinates": [-80.42269653067112, 37.16323862504325]}},
{"type": "Feature", "id": "cK25gTQj_iI0_J_PJOUklMZy1Vw=", "properties": {"ref": "4228", "@spider": "xfinity", "addr:full": "129 Market Street", "addr:city": "Williston", "addr:state": "VT", "addr:postcode": "05495", "addr:country": "US", "name": "Xfinity Store by Comcast", "website": "https://www.xfinity.com/local/vt/williston/129-market-street.html?geo=44.5588028,-72.57784149999999", "opening_hours": "Mo 11:00-17:00; Tu-Su 10:00-18:00", "brand": "Xfinity"}, "geometry": {"type": "Point", "coordinates": [-73.1085022, 44.4489503]}},
{"type": "Feature", "id": "yHhVXZkPTf4VgUznKRW7R_oOw3Y=", "properties": {"ref": "2497", "@spider": "xfinity", "addr:full": "299 North Main Street", "addr:city": "Rutland", "addr:state": "VT", "addr:postcode": "05701", "addr:country": "US", "name": "Xfinity Store by Comcast", "website": "https://www.xfinity.com/local/vt/rutland/299-north-main-street.html?geo=44.5588028,-72.57784149999999", "opening_hours": "Mo 11:00-17:00; Tu-Su 9:00-19:00", "brand": "Xfinity"}, "geometry": {"type": "Point", "coordinates": [-72.9769121, 43.6305398]}},
{"type": "Feature", "id": "QN0v0f2xX6_OYisFgqXlloIMd0E=", "properties": {"ref": "1967", "@spider": "xfinity", "addr:full": "8900 161st Ave NE, Suite 125", "addr:city": "Redmond", "addr:state": "WA", "addr:postcode": "98052", "addr:country": "US", "name": "Xfinity Store by Comcast", "website": "https://www.xfinity.com/local/wa/redmond/8900-161st-ave-ne--suite-125.html?geo=47.7510741,-120.7401385", "opening_hours": "Mo 11:00-18:00; Tu-Su 10:00-20:00", "brand": "Xfinity"}, "geometry": {"type": "Point", "coordinates": [-122.1232469, 47.681737]}},
{"type": "Feature", "id": "VED-tzKBqasv4AMh5ExHFZBaVTo=", "properties": {"ref": "4082", "@spider": "xfinity", "addr:full": "13930 NE 178th Place", "addr:city": "Woodinville", "addr:state": "WA", "addr:postcode": "98072", "addr:country": "US", "name": "Xfinity Store by Comcast Branded Partner", "website": "https://www.xfinity.com/local/wa/woodinville/13930-ne-178th-place.html?geo=47.7510741,-120.7401385", "opening_hours": "Mo 11:00-18:00; Tu-Su 10:00-20:00", "brand": "Xfinity"}, "geometry": {"type": "Point", "coordinates": [-122.1537018, 47.75837019999999]}},
{"type": "Feature", "id": "FATIRrxB0kW46LSixNBuK0FAiXE=", "properties": {"ref": "4166", "@spider": "xfinity", "addr:full": "12632 Totem Lake Blvd NE", "addr:city": "Kirkland", "addr:state": "WA", "addr:postcode": "98034", "addr:country": "US", "name": "Xfinity Store by Comcast Branded Partner", "website": "https://www.xfinity.com/local/wa/kirkland/12632-totem-lake-blvd-ne.html?geo=47.7510741,-120.7401385", "opening_hours": "Mo 11:00-18:00; Tu-Su 10:00-20:00", "brand": "Xfinity"}, "geometry": {"type": "Point", "coordinates": [-122.18168574704848, 47.713178898881274]}},
{"type": "Feature", "id": "F7lKDrNIWbc-tugT9kpwfQidmCk=", "properties": {"ref": "3687", "@spider": "xfinity", "addr:full": "3630 Factoria Blvd SE", "addr:city": "Bellevue", "addr:state": "WA", "addr:postcode": "98006", "addr:country": "US", "name": "Xfinity Store by Comcast", "website": "https://www.xfinity.com/local/wa/bellevue/3630-factoria-blvd-se.html?geo=47.7510741,-120.7401385", "opening_hours": "Mo 11:00-18:00; Tu-Su 10:00-20:00", "brand": "Xfinity"}, "geometry": {"type": "Point", "coordinates": [-122.1675439, 47.5777914]}},
{"type": "Feature", "id": "Xxe7dccyiXV7y-IQyapEg5g79n4=", "properties": {"ref": "4012", "@spider": "xfinity", "addr:full": "408 Bellevue Square", "addr:city": "Bellevue", "addr:state": "WA", "addr:postcode": "98004", "addr:country": "US", "name": "Xfinity Store by Comcast", "website": "https://www.xfinity.com/local/wa/bellevue/408-bellevue-square.html?geo=47.7510741,-120.7401385", "opening_hours": "Mo 11:00-19:00; Tu-Su 10:00-21:00", "brand": "Xfinity"}, "geometry": {"type": "Point", "coordinates": [-122.2019862, 47.6154061]}},
{"type": "Feature", "id": "fKwGwiEPrSrqere1GWpYIJlt1U0=", "properties": {"ref": "3764", "@spider": "xfinity", "addr:full": "7725 Evergreen Way Suite I-2", "addr:city": "Everett", "addr:state": "WA", "addr:postcode": "98203", "addr:country": "US", "name": "Xfinity Store by Comcast", "website": "https://www.xfinity.com/local/wa/everett/7725-evergreen-way-suite-i-2.html?geo=47.7510741,-120.7401385", "opening_hours": "Mo 11:00-18:00; Tu-Su 10:00-20:00", "brand": "Xfinity"}, "geometry": {"type": "Point", "coordinates": [-122.2217893, 47.9282418]}},
{"type": "Feature", "id": "lIr2e2b4_H4AUiuQuxSZENK01Pk=", "properties": {"ref": "3757", "@spider": "xfinity", "addr:full": "3105 Alderwood Mall Boulevard, Suite Q", "addr:city": "Lynnwood", "addr:state": "WA", "addr:postcode": "98036", "addr:country": "US", "name": "Xfinity Store by Comcast", "website": "https://www.xfinity.com/local/wa/lynnwood/3105-alderwood-mall-boulevard--suite-q.html?geo=47.7510741,-120.7401385", "opening_hours": "Mo 11:00-18:00; Tu-Su 10:00-20:00", "brand": "Xfinity"}, "geometry": {"type": "Point", "coordinates": [-122.2748109, 47.824643]}},
{"type": "Feature", "id": "EABbzCUiOWtZgOYmhpV5o0HhISE=", "properties": {"ref": "4069", "@spider": "xfinity", "addr:full": "26125 104th Ave SE", "addr:city": "Kent", "addr:state": "WA", "addr:postcode": "98030", "addr:country": "US", "name": "Xfinity Store by Comcast Branded Partner", "website": "https://www.xfinity.com/local/wa/kent/26125-104th-ave-se.html?geo=47.7510741,-120.7401385", "opening_hours": "Mo 11:00-18:00; Tu-Su 10:00-20:00", "brand": "Xfinity"}, "geometry": {"type": "Point", "coordinates": [-122.20493667, 47.36716]}},
{"type": "Feature", "id": "RmYpgWzMQL3SARyAM_kFbChrh0M=", "properties": {"ref": "3787", "@spider": "xfinity", "addr:full": "391 Strander Blvd", "addr:city": "Tukwila", "addr:state": "WA", "addr:postcode": "98188", "addr:country": "US", "name": "Xfinity Store by Comcast", "website": "https://www.xfinity.com/local/wa/tukwila/391-strander-blvd.html?geo=47.7510741,-120.7401385", "opening_hours": "Mo 11:00-18:00; Tu-Su 10:00-20:00", "brand": "Xfinity"}, "geometry": {"type": "Point", "coordinates": [-122.2547838, 47.4554491]}},
{"type": "Feature", "id": "3eBI_HtI-nbLjLjq4CoeqgUC5UQ=", "properties": {"ref": "3934", "@spider": "xfinity", "addr:full": "401 NE Northgate Way", "addr:city": "Seattle", "addr:state": "WA", "addr:postcode": "98125", "addr:country": "US", "name": "Xfinity Store by Comcast", "website": "https://www.xfinity.com/local/wa/seattle/401-ne-northgate-way.html?geo=47.7510741,-120.7401385", "opening_hours": "Mo 12:00-18:00; Tu-Su 11:00-19:00", "brand": "Xfinity"}, "geometry": {"type": "Point", "coordinates": [-122.3251579, 47.7048008]}},
{"type": "Feature", "id": "qnKhAgOmX-QwyvBIOuonPonyWMc=", "properties": {"ref": "3783", "@spider": "xfinity", "addr:full": "2202 Westlake Ave", "addr:city": "Seattle", "addr:state": "WA", "addr:postcode": "98121", "addr:country": "US", "name": "Xfinity Store by Comcast", "website": "https://www.xfinity.com/local/wa/seattle/2202-westlake-ave.html?geo=47.7510741,-120.7401385", "opening_hours": "Mo 11:00-18:00; Tu-Su 9:00-19:00", "brand": "Xfinity"}, "geometry": {"type": "Point", "coordinates": [-122.3381359, 47.6179481]}},
{"type": "Feature", "id": "zQcIdB_MOFU2OzOt26xPpnw7r9s=", "properties": {"ref": "4077", "@spider": "xfinity", "addr:full": "4609 14th Ave NW", "addr:city": "Seattle", "addr:state": "WA", "addr:postcode": "98107", "addr:country": "US", "name": "Xfinity Store by Comcast Branded Partner", "website": "https://www.xfinity.com/local/wa/seattle/4609-14th-ave-nw.html?geo=47.7510741,-120.7401385", "opening_hours": "Mo 11:00-18:00; Tu-Su 10:00-19:00", "brand": "Xfinity"}, "geometry": {"type": "Point", "coordinates": [-122.37381938766212, 47.662316737417534]}},
{"type": "Feature", "id": "5xaWlfja3jb9syKzxc5l6s9Ug7c=", "properties": {"ref": "850", "@spider": "xfinity", "addr:full": "1186 Outlet Collection Drive SW", "addr:city": "Auburn", "addr:state": "WA", "addr:postcode": "98001", "addr:country": "US", "name": "Xfinity Store by Comcast", "website": "https://www.xfinity.com/local/wa/auburn/1186-outlet-collection-drive-sw.html?geo=47.7510741,-120.7401385", "opening_hours": "Mo 11:00-18:00; Tu-Su 10:00-20:00", "brand": "Xfinity"}, "geometry": {"type": "Point", "coordinates": [-122.24079686011885, 47.29702012255118]}},
{"type": "Feature", "id": "4A383YOBoHn96uPr43gcp2r8sYE=", "properties": {"ref": "2425", "@spider": "xfinity", "addr:full": "31423 Pacific Highway South", "addr:city": "Federal Way", "addr:state": "WA", "addr:postcode": "98003", "addr:country": "US", "name": "Xfinity Store by Comcast", "website": "https://www.xfinity.com/local/wa/federal-way/31423-pacific-highway-south.html?geo=47.7510741,-120.7401385", "opening_hours": "Mo 11:00-18:00; Tu-Su 10:00-20:00", "brand": "Xfinity"}, "geometry": {"type": "Point", "coordinates": [-122.3138483, 47.3199853]}},
{"type": "Feature", "id": "Gmu6NLHL711Hz1ExFj1iekvrs7I=", "properties": {"ref": "3686", "@spider": "xfinity", "addr:full": "5614 176th St E", "addr:city": "Puyallup", "addr:state": "WA", "addr:postcode": "98375", "addr:country": "US", "name": "Xfinity Store by Comcast", "website": "https://www.xfinity.com/local/wa/puyallup/5614-176th-st-e.html?geo=47.7510741,-120.7401385", "opening_hours": "Mo 11:00-18:00; Tu-Su 10:00-20:00", "brand": "Xfinity"}, "geometry": {"type": "Point", "coordinates": [-122.3539008, 47.0960816]}},
{"type": "Feature", "id": "b7TDwt8lhjg_cIO0rH05sh3LgeM=", "properties": {"ref": "4301", "@spider": "xfinity", "addr:full": "4301 South Steel Street", "addr:city": "Tacoma", "addr:state": "WA", "addr:postcode": "98409", "addr:country": "US", "name": "Xfinity Store by Comcast", "website": "https://www.xfinity.com/local/wa/tacoma/4301-south-steel-street.html?geo=47.7510741,-120.7401385", "opening_hours": "Mo 11:00-18:00; Tu-Su 10:00-20:00", "brand": "Xfinity"}, "geometry": {"type": "Point", "coordinates": [-122.46714471712431, 47.21811656559175]}},
{"type": "Feature", "id": "H_TOPFe9UnDjyRSj3DvTHSI80Zw=", "properties": {"ref": "3979", "@spider": "xfinity", "addr:full": "11467 Pacific Crest Place NW", "addr:city": "Silverdale", "addr:state": "WA", "addr:postcode": "98383", "addr:country": "US", "name": "Xfinity Store by Comcast", "website": "https://www.xfinity.com/local/wa/silverdale/11467-pacific-crest-place-nw.html?geo=47.7510741,-120.7401385", "opening_hours": "Mo 11:00-18:00; Tu-Su 10:00-20:00", "brand": "Xfinity"}, "geometry": {"type": "Point", "coordinates": [-122.6959364, 47.6639768]}},
{"type": "Feature", "id": "VEc8LUPR4u-4YuvHxN5vWpgrZ7I=", "properties": {"ref": "4131", "@spider": "xfinity", "addr:full": "5216 Point Fosdick Dr", "addr:city": "Gig Harbor", "addr:state": "WA", "addr:postcode": "98335", "addr:country": "US", "name": "Xfinity Store by Comcast Branded Partner", "website": "https://www.xfinity.com/local/wa/gig-harbor/5216-point-fosdick-dr.html?geo=47.7510741,-120.7401385", "opening_hours": "Mo 11:00-18:00; Tu-Su 10:00-20:00", "brand": "Xfinity"}, "geometry": {"type": "Point", "coordinates": [-122.5794643, 47.30576929999999]}},
{"type": "Feature", "id": "WkwF5gqFXZpKhTyg3ZWb0Zed9HQ=", "properties": {"ref": "3897", "@spider": "xfinity", "addr:full": "30 S Halsted St", "addr:city": "Chicago", "addr:state": "IL", "addr:postcode": "60661", "addr:country": "US", "name": "Xfinity Store by Comcast", "website": "https://www.xfinity.com/local/il/chicago/30-s-halsted-st.html?geo=41.8791029,-87.63594359999999", "opening_hours": "Mo 11:00-17:00; Tu-Su 10:00-20:00", "brand": "Xfinity"}, "geometry": {"type": "Point", "coordinates": [-87.64768, 41.880855]}},
{"type": "Feature", "id": "E1yRPqlJ-jHLFYTcImTjh7atszU=", "properties": {"ref": "3781", "@spider": "xfinity", "addr:full": "901 W Weed St", "addr:city": "Chicago", "addr:state": "IL", "addr:postcode": "60642", "addr:country": "US", "name": "Studio Xfinity", "website": "https://www.xfinity.com/local/il/chicago/901-w-weed-st.html?geo=41.8791029,-87.63594359999999", "opening_hours": "Mo 11:00-17:00; Tu-Su 10:00-20:00", "brand": "Xfinity"}, "geometry": {"type": "Point", "coordinates": [-87.65183015276125, 41.9096100117391]}},
{"type": "Feature", "id": "uZW6823OS5BwcE3Y1y2B733nq9M=", "properties": {"ref": "4217", "@spider": "xfinity", "addr:full": "3145 S Ashland Ave", "addr:city": "Chicago", "addr:state": "IL", "addr:postcode": "60608", "addr:country": "US", "name": "Xfinity Store by Comcast", "website": "https://www.xfinity.com/local/il/chicago/3145-s-ashland-ave.html?geo=41.8791029,-87.63594359999999", "opening_hours": "Mo 11:00-17:00; Tu-Su 10:00-19:00", "brand": "Xfinity"}, "geometry": {"type": "Point", "coordinates": [-87.66380624450251, 41.83648875276228]}},
{"type": "Feature", "id": "M19D9dV-C45Uui5F4tQkJkbqXQU=", "properties": {"ref": "3886", "@spider": "xfinity", "addr:full": "1322 E 53rd St.", "addr:city": "Chicago", "addr:state": "IL", "addr:postcode": "60615", "addr:country": "US", "name": "Xfinity Store by Comcast", "website": "https://www.xfinity.com/local/il/chicago/1322-e-53rd-st.html?geo=41.8791029,-87.63594359999999", "opening_hours": "Mo 11:00-17:00; Tu-Su 10:00-20:00", "brand": "Xfinity"}, "geometry": {"type": "Point", "coordinates": [-87.5940958171793, 41.7997526765862]}},
{"type": "Feature", "id": "vjBM39tVkf-MR9NzlmGcRchxRyw=", "properties": {"ref": "4046", "@spider": "xfinity", "addr:full": "2942 South Cicero", "addr:city": "Cicero", "addr:state": "IL", "addr:postcode": "60804", "addr:country": "US", "name": "Xfinity Store by Comcast Branded Partner", "website": "https://www.xfinity.com/local/il/cicero/2942-south-cicero.html?geo=41.8791029,-87.63594359999999", "opening_hours": "Mo 12:00-17:00; Tu-Su 10:00-19:00", "brand": "Xfinity"}, "geometry": {"type": "Point", "coordinates": [-87.74448980934176, 41.83877600928454]}},
{"type": "Feature", "id": "4nI4wzpJurgXke9Jcf80Fe1weEU=", "properties": {"ref": "3948", "@spider": "xfinity", "addr:full": "7040 W Cermak Road", "addr:city": "Berwyn", "addr:state": "IL", "addr:postcode": "60402", "addr:country": "US", "name": "Xfinity Store by Comcast", "website": "https://www.xfinity.com/local/il/berwyn/7040-w-cermak-road.html?geo=41.8791029,-87.63594359999999", "opening_hours": "Mo 11:00-17:00; Tu-Su 10:00-20:00", "brand": "Xfinity"}, "geometry": {"type": "Point", "coordinates": [-87.8006210785389, 41.85079337318748]}},
{"type": "Feature", "id": "A9zeDxhKF37VjnoD3dQbxOGOYCc=", "properties": {"ref": "4005", "@spider": "xfinity", "addr:full": "9524 S Western Avenue", "addr:city": "Evergreen Park", "addr:state": "IL", "addr:postcode": "60805", "addr:country": "US", "name": "Xfinity Store by Comcast Branded Partner", "website": "https://www.xfinity.com/local/il/evergreen-park/9524-s-western-avenue.html?geo=41.8791029,-87.63594359999999", "opening_hours": "Mo 0:00-17:00; Tu-Su 10:00-19:00", "brand": "Xfinity"}, "geometry": {"type": "Point", "coordinates": [-87.6834506, 41.7195947]}},
{"type": "Feature", "id": "b0ODyslhKFilqzXVIhMvzFfiBek=", "properties": {"ref": "4058", "@spider": "xfinity", "addr:full": "11702 S. Marshfield Ave", "addr:city": "Chicago", "addr:state": "IL", "addr:postcode": "60643", "addr:country": "US", "name": "Xfinity Store by Comcast", "website": "https://www.xfinity.com/local/il/chicago/11702-s--marshfield-ave.html?geo=41.8791029,-87.63594359999999", "opening_hours": "Mo 11:00-17:00; Tu-Su 10:00-20:00", "brand": "Xfinity"}, "geometry": {"type": "Point", "coordinates": [-87.6640506, 41.680656]}},
{"type": "Feature", "id": "Df3Pt8Clhqxofej_ZZU-XE0ZjB8=", "properties": {"ref": "3821", "@spider": "xfinity", "addr:full": "14225 S 95th Ave", "addr:city": "Orland Park", "addr:state": "IL", "addr:postcode": "60462", "addr:country": "US", "name": "Xfinity Store by Comcast", "website": "https://www.xfinity.com/local/il/orland-park/14225-s-95th-ave.html?geo=41.8791029,-87.63594359999999", "opening_hours": "Mo 11:00-17:00; Tu-Su 10:00-20:00", "brand": "Xfinity"}, "geometry": {"type": "Point", "coordinates": [-87.85093486686478, 41.63230500711969]}},
{"type": "Feature", "id": "ud850ntYpR3TGgIV9Dp72feh9Uo=", "properties": {"ref": "3954", "@spider": "xfinity", "addr:full": "15935 Harlem Ave", "addr:city": "Tinley Park", "addr:state": "IL", "addr:postcode": "60477", "addr:country": "US", "name": "Xfinity Store by Comcast Branded Partner", "website": "https://www.xfinity.com/local/il/tinley-park/15935-harlem-ave.html?geo=41.8791029,-87.63594359999999", "opening_hours": "Mo 12:00-17:00; Tu-Su 10:00-19:00", "brand": "Xfinity"}, "geometry": {"type": "Point", "coordinates": [-87.7928372, 41.6003974]}},
{"type": "Feature", "id": "LKrF3YpO9Jzv0jAeCl7lKTue6rU=", "properties": {"ref": "4004", "@spider": "xfinity", "addr:full": "1918 165th Street", "addr:city": "Hammond", "addr:state": "IN", "addr:postcode": "46320", "addr:country": "US", "name": "Xfinity Store by Comcast Branded Partner", "website": "https://www.xfinity.com/local/in/hammond/1918-165th-street.html?geo=41.8791029,-87.63594359999999", "opening_hours": "Mo 12:00-17:00; Tu-Su 10:00-19:00", "brand": "Xfinity"}, "geometry": {"type": "Point", "coordinates": [-87.482521, 41.5953063]}},
{"type": "Feature", "id": "gUUIqgyY5qbp4hSCQLVSyZs18Gw=", "properties": {"ref": "4204", "@spider": "xfinity", "addr:full": "17741 South Halsted", "addr:city": "Homewood", "addr:state": "IL", "addr:postcode": "60430", "addr:country": "US", "name": "Xfinity Store by Comcast", "website": "https://www.xfinity.com/local/il/homewood/17741-south-halsted.html?geo=41.8791029,-87.63594359999999", "opening_hours": "Mo 11:00-17:00; Tu-Su 10:00-20:00", "brand": "Xfinity"}, "geometry": {"type": "Point", "coordinates": [-87.63406831327522, 41.56711043978194]}}]}