{"type":"FeatureCollection","features":[{"type": "Feature", "id": "o4g779YNVG0KUSc9LfPx2awU10w=", "properties": {"ref": "1239", "@spider": "xl_parts", "addr:full": "15500 Hempstead Highway, Houston, TX, 77040", "name": "1 - Hempstead Hwy 1", "phone": "713-983-1000", "website": "https://www.xlparts.com/en/locations", "brand": "XL Parts"}, "geometry": {"type": "Point", "coordinates": [-95.5567763, 29.8705704]}},
{"type": "Feature", "id": "Yzku7dperU7dPeCMDfrLCpExl5Y=", "properties": {"ref": "1240", "@spider": "xl_parts", "addr:full": "707 West Cavalcade Street, Houston, TX, 77009", "name": "2 - Cavalcade 2", "phone": "713-868-4061", "website": "https://www.xlparts.com/en/locations", "brand": "XL Parts"}, "geometry": {"type": "Point", "coordinates": [-95.3799566, 29.803207]}},
{"type": "Feature", "id": "PUt_7XyWsrm7gK8_T5oNTx2JazM=", "properties": {"ref": "1241", "@spider": "xl_parts", "addr:full": "1118 Farm to Market 1960 Road West, Houston, TX, 77090", "name": "3 - FM 1960 W 3", "phone": "281-350-9922", "website": "https://www.xlparts.com/en/locations", "brand": "XL Parts"}, "geometry": {"type": "Point", "coordinates": [-95.448155, 30.0156027]}},
{"type": "Feature", "id": "H74fYi0ljeeqYc0rYUeY1p6gslM=", "properties": {"ref": "1242", "@spider": "xl_parts", "addr:full": "3000 Crawford Street, Houston, TX, 77004", "name": "4 - Crawford 4", "phone": "713-868-4061", "website": "https://www.xlparts.com/en/locations", "brand": "XL Parts"}, "geometry": {"type": "Point", "coordinates": [-95.371453, 29.739593]}},
{"type": "Feature", "id": "0JABqTOdeBmNRwM0FACLiEubuvY=", "properties": {"ref": "1243", "@spider": "xl_parts", "addr:full": "12650 Goar Road, Houston, TX, 77077", "name": "5 - Goar RD 5", "phone": "713-983-1300", "website": "https://www.xlparts.com/en/locations", "brand": "XL Parts"}, "geometry": {"type": "Point", "coordinates": [-95.607235, 29.755212]}},
{"type": "Feature", "id": "HTlARVCU4JzmywiK-3RHHacgobA=", "properties": {"ref": "1244", "@spider": "xl_parts", "addr:full": "11500 South Main Street, Houston, TX, 77025", "name": "6 - S.Main HOU 6", "phone": "713-541-9101", "website": "https://www.xlparts.com/en/locations", "brand": "XL Parts"}, "geometry": {"type": "Point", "coordinates": [-95.43993026, 29.66463642]}},
{"type": "Feature", "id": "v-pxgBTfCe4mQSFm8zPSGe4b5sU=", "properties": {"ref": "1245", "@spider": "xl_parts", "addr:full": "5627 Star Lane, Houston, TX, 77057", "name": "7 - Star Lane 7", "phone": "713-541-9101", "website": "https://www.xlparts.com/en/locations", "brand": "XL Parts"}, "geometry": {"type": "Point", "coordinates": [-95.4782728, 29.7273518]}},
{"type": "Feature", "id": "o4xU86iU3w2BXHTMz0pRirw0kcs=", "properties": {"ref": "1246", "@spider": "xl_parts", "addr:full": "7225 Wynnwood Lane, Houston, TX, 77008", "name": "8 - Wynnwood 8", "phone": "713-868-4061", "website": "https://www.xlparts.com/en/locations", "brand": "XL Parts"}, "geometry": {"type": "Point", "coordinates": [-95.446203, 29.79302]}},
{"type": "Feature", "id": "KIskzH5uhvon3-ZaFiypA_OaelM=", "properties": {"ref": "1247", "@spider": "xl_parts", "addr:full": "1714 FM 1960, Humble, TX, 77338", "name": "9 - Humble City 9", "phone": "281-548-3313", "website": "https://www.xlparts.com/en/locations", "brand": "XL Parts"}, "geometry": {"type": "Point", "coordinates": [-95.24753407, 30.00089462]}},
{"type": "Feature", "id": "tKLO5guOdfeh2qP5P5i6C-lwZ6o=", "properties": {"ref": "1248", "@spider": "xl_parts", "addr:full": "9530 Wilcrest Drive, Houston, TX, 77099", "name": "10 - Wilcrest 10", "phone": "713-541-9101", "website": "https://www.xlparts.com/en/locations", "brand": "XL Parts"}, "geometry": {"type": "Point", "coordinates": [-95.5710167, 29.6755697]}},
{"type": "Feature", "id": "y54bzwCQscxX459UkHwL9-_rprM=", "properties": {"ref": "1249", "@spider": "xl_parts", "addr:full": "7800 Park Place Boulevard, Houston, TX, 77087", "name": "11 - Park Place 11", "phone": "713-473-9101", "website": "https://www.xlparts.com/en/locations", "brand": "XL Parts"}, "geometry": {"type": "Point", "coordinates": [-95.283298, 29.6851651]}},
{"type": "Feature", "id": "t51xjXE4TQ9asJtacDT-HwSCE5A=", "properties": {"ref": "1250", "@spider": "xl_parts", "addr:full": "10502 Grant Road, Houston, TX, 77070", "name": "12 - Grant Rd 12", "phone": "713-983-1000", "website": "https://www.xlparts.com/en/locations", "brand": "XL Parts"}, "geometry": {"type": "Point", "coordinates": [-95.576964, 29.9677563]}},
{"type": "Feature", "id": "zVlwaGP0dVb1v5Oot-pwjZzl4Cw=", "properties": {"ref": "1252", "@spider": "xl_parts", "addr:full": "1926 South Richey Street, Pasadena, TX, 77502", "name": "14 - S.Richey Pasadena 14", "phone": "713-473-9101", "website": "https://www.xlparts.com/en/locations", "brand": "XL Parts"}, "geometry": {"type": "Point", "coordinates": [-95.2246484, 29.6837086]}},
{"type": "Feature", "id": "B3B53AQDL4J5Z3NwCjnMwplWKsU=", "properties": {"ref": "1253", "@spider": "xl_parts", "addr:full": "7503 Hillcroft Street, Houston, TX, 77081", "name": "15 - Hillcroft 15", "phone": "713-777-5035", "website": "https://www.xlparts.com/en/locations", "brand": "XL Parts"}, "geometry": {"type": "Point", "coordinates": [-95.492293, 29.69716]}},
{"type": "Feature", "id": "q2XKPyqATn22R6BTSJF6YJ1fDKo=", "properties": {"ref": "1254", "@spider": "xl_parts", "addr:full": "7600 Airline Drive, Houston, TX, 77037", "name": "16 - Airline 16", "phone": "281-445-9109", "website": "https://www.xlparts.com/en/locations", "brand": "XL Parts"}, "geometry": {"type": "Point", "coordinates": [-95.384283, 29.871725]}},
{"type": "Feature", "id": "B3V34z9OKQMADhI1wS0gYRmBMoE=", "properties": {"ref": "1255", "@spider": "xl_parts", "addr:full": "4335 South Main Street, Stafford, TX, 77477", "name": "17 - S.Main Stafford 17", "phone": "713-541-9101", "website": "https://www.xlparts.com/en/locations", "brand": "XL Parts"}, "geometry": {"type": "Point", "coordinates": [-95.5796778, 29.6252511]}},
{"type": "Feature", "id": "VutgGdzAM_S-en0JSs_n7-GbMFI=", "properties": {"ref": "1256", "@spider": "xl_parts", "addr:full": "21426 Spring West Drive, Spring, TX, 77388", "name": "18 - Spring Cypress 18", "phone": "281-350-9922", "website": "https://www.xlparts.com/en/locations", "brand": "XL Parts"}, "geometry": {"type": "Point", "coordinates": [-95.446304, 30.072228]}},
{"type": "Feature", "id": "ihp2DnLSEHxIiMRLiPq7eYr6yd8=", "properties": {"ref": "1257", "@spider": "xl_parts", "addr:full": "1211 Price Plaza Drive, Katy, TX, 77449", "name": "19 - Price Plaza Katy 19", "phone": "713-983-1300", "website": "https://www.xlparts.com/en/locations", "brand": "XL Parts"}, "geometry": {"type": "Point", "coordinates": [-95.726778, 29.788302]}},
{"type": "Feature", "id": "kIDwvwku25tI2jP4AUh3zJUr1uY=", "properties": {"ref": "1258", "@spider": "xl_parts", "addr:full": "100 South 1st Street, Conroe, TX, 77301", "name": "20 - Conroe City 20", "phone": "281-350-9922", "website": "https://www.xlparts.com/en/locations", "brand": "XL Parts"}, "geometry": {"type": "Point", "coordinates": [-95.4540748, 30.3099592]}},
{"type": "Feature", "id": "bbuTb-63yjc-YsLs-vVNV2BfNL8=", "properties": {"ref": "1259", "@spider": "xl_parts", "addr:full": "2505 Max Rd., Pearland, TX, 77581", "name": "21 - Pearland 21", "phone": "713-473-9101", "website": "https://www.xlparts.com/en/locations", "brand": "XL Parts"}, "geometry": {"type": "Point", "coordinates": [-95.33306, 29.56393]}},
{"type": "Feature", "id": "KOTSZ59bz4B2C6ZqtTRlD1Y0dP0=", "properties": {"ref": "1260", "@spider": "xl_parts", "addr:full": "1649 Gessner Drive, Houston, TX, 77080", "name": "22 - Gessner 22", "phone": "713-983-1300", "website": "https://www.xlparts.com/en/locations", "brand": "XL Parts"}, "geometry": {"type": "Point", "coordinates": [-95.545368, 29.801819]}},
{"type": "Feature", "id": "WyHt_TU1KHMzK1PWszjksZg3olk=", "properties": {"ref": "1261", "@spider": "xl_parts", "addr:full": "17323 Stuebner Airline Road, Spring, TX, 77379", "name": "23 - Stuebner Airline 23", "phone": "281-350-9922", "website": "https://www.xlparts.com/en/locations", "brand": "XL Parts"}, "geometry": {"type": "Point", "coordinates": [-95.530658, 30.026508]}},
{"type": "Feature", "id": "PEMvONzw8TxEnGs3xUgUcHM57Sg=", "properties": {"ref": "1262", "@spider": "xl_parts", "addr:full": "14315 Lee Road, Houston, TX, 77032", "name": "24 - Hedgecroft 24", "phone": "281-350-9922", "website": "https://www.xlparts.com/en/locations", "brand": "XL Parts"}, "geometry": {"type": "Point", "coordinates": [-95.3034537, 29.9263595]}},
{"type": "Feature", "id": "HJmKOBHATXAxyq2jKf18po8ZC0Y=", "properties": {"ref": "1263", "@spider": "xl_parts", "addr:full": "617 Uvalde Road, Houston, TX, 77015", "name": "25 - Uvalde 25", "phone": "713-473-9101", "website": "https://www.xlparts.com/en/locations", "brand": "XL Parts"}, "geometry": {"type": "Point", "coordinates": [-95.1865646, 29.7857065]}},
{"type": "Feature", "id": "crBtlv3BYOIv_jLniaWYqyiHOVE=", "properties": {"ref": "1264", "@spider": "xl_parts", "addr:full": "1219 South Street, Pasadena, TX, 77503", "name": "26 - Morgans Auto 26", "phone": "713-473-9101", "website": "https://www.xlparts.com/en/locations", "brand": "XL Parts"}, "geometry": {"type": "Point", "coordinates": [-95.1709826, 29.6925632]}},
{"type": "Feature", "id": "Cpwu-NmXBZ4JolebgCpwGRR3dtE=", "properties": {"ref": "1265", "@spider": "xl_parts", "addr:full": "3636 North Main Street, Baytown, TX, 77521", "name": "27 - Baytown City N.Main 27", "phone": "713-868-4061", "website": "https://www.xlparts.com/en/locations", "brand": "XL Parts"}, "geometry": {"type": "Point", "coordinates": [-94.9641298, 29.7853296]}},
{"type": "Feature", "id": "yZGu3LxXs5rpW58x5QqLlODDN6I=", "properties": {"ref": "1266", "@spider": "xl_parts", "addr:full": "1315 Market Street, Richmond, TX, 77469", "name": "28 - Richmond 28", "phone": "713-541-9101", "website": "https://www.xlparts.com/en/locations", "brand": "XL Parts"}, "geometry": {"type": "Point", "coordinates": [-95.7625319, 29.556754]}},
{"type": "Feature", "id": "ZkRtsRse1bLthSc92vrVxs5ibaA=", "properties": {"ref": "1267", "@spider": "xl_parts", "addr:full": "6136 Highway 6 North, Houston, TX, 77084", "name": "29 - Copperfield 29", "phone": "713-983-1300", "website": "https://www.xlparts.com/en/locations", "brand": "XL Parts"}, "geometry": {"type": "Point", "coordinates": [-95.6451696, 29.868623]}},
{"type": "Feature", "id": "0EaPjaEWSNnWsiqie1y_AhSldMw=", "properties": {"ref": "1268", "@spider": "xl_parts", "addr:full": "1520 Live Oak Street, Webster, TX, 77598", "name": "30 - Webster City 30", "phone": "713-473-9101", "website": "https://www.xlparts.com/en/locations", "brand": "XL Parts"}, "geometry": {"type": "Point", "coordinates": [-95.130519, 29.54427]}},
{"type": "Feature", "id": "9j20v9jg4I6bfb5zm8VCZqRlGlg=", "properties": {"ref": "1269", "@spider": "xl_parts", "addr:full": "14303 Auto Park Way, Houston, TX, 77083", "name": "31 - Auto Parkway 31", "phone": "713-541-9101", "website": "https://www.xlparts.com/en/locations", "brand": "XL Parts"}, "geometry": {"type": "Point", "coordinates": [-95.638349, 29.687493]}},
{"type": "Feature", "id": "LQSOqO-7gcbSfeobALJT54tbltw=", "properties": {"ref": "1270", "@spider": "xl_parts", "addr:full": "715 East Main Street, Tomball, TX, 77375", "name": "32 - Tomball City 32", "phone": "281-350-9922", "website": "https://www.xlparts.com/en/locations", "brand": "XL Parts"}, "geometry": {"type": "Point", "coordinates": [-95.605856, 30.1010562]}},
{"type": "Feature", "id": "iY38GcavW1jVo2NAIGvndzjtERo=", "properties": {"ref": "1271", "@spider": "xl_parts", "addr:full": "2105 North Wayside Drive, Houston, TX, 77020", "name": "33 - N. Wayside 33", "phone": "713-868-4061", "website": "https://www.xlparts.com/en/locations", "brand": "XL Parts"}, "geometry": {"type": "Point", "coordinates": [-95.292052, 29.78394]}},
{"type": "Feature", "id": "x81a2oxWwmKsIJftruZf4C-wnAY=", "properties": {"ref": "1272", "@spider": "xl_parts", "addr:full": "23328 Fm 1314 Road, Porter, TX, 77365", "name": "34 - Porter City 34", "phone": "281-548-3313", "website": "https://www.xlparts.com/en/locations", "brand": "XL Parts"}, "geometry": {"type": "Point", "coordinates": [-95.261942, 30.108632]}},
{"type": "Feature", "id": "eVuWoRXMMlZIAwWbqgbxZuJKCfE=", "properties": {"ref": "1273", "@spider": "xl_parts", "addr:full": "19525 Pinehurst Trail Dr., Humble, TX, 77346", "name": "35 - Humble 35", "phone": "281-548-3313", "website": "https://www.xlparts.com/en/locations", "brand": "XL Parts"}, "geometry": {"type": "Point", "coordinates": [-95.1551, 30.004018278777]}},
{"type": "Feature", "id": "3ATYR0nySk0bt59b6uKZ0CopWTc=", "properties": {"ref": "1274", "@spider": "xl_parts", "addr:full": "13919 Cypress North Houston Rd, Cypress, TX, 77429", "name": "36 - Cypress City 36", "phone": "713-983-1300", "website": "https://www.xlparts.com/en/locations", "brand": "XL Parts"}, "geometry": {"type": "Point", "coordinates": [-95.63276231, 29.94700777]}},
{"type": "Feature", "id": "L9kpYvnyuQ6FfThXgG82oVBCV9w=", "properties": {"ref": "1275", "@spider": "xl_parts", "addr:full": "6302 West Rd, Houston, TX, 77086", "name": "37 - HWY 249 37", "phone": "713-983-1300", "website": "https://www.xlparts.com/en/locations", "brand": "XL Parts"}, "geometry": {"type": "Point", "coordinates": [-95.4821596, 29.9132379]}},
{"type": "Feature", "id": "X3SUbbpb2-FwC7x6IPZpl9QVhY8=", "properties": {"ref": "1276", "@spider": "xl_parts", "addr:full": "10830 Kingspoint Road, Houston, TX, 77075", "name": "38 - Kingspoint 38", "phone": "713-473-9101", "website": "https://www.xlparts.com/en/locations", "brand": "XL Parts"}, "geometry": {"type": "Point", "coordinates": [-95.2276897, 29.619934]}},
{"type": "Feature", "id": "6ZqsyJR1TsXPoGIduPpUtPu0dCw=", "properties": {"ref": "1277", "@spider": "xl_parts", "addr:full": "33003 Tamina Road, Magnolia, TX, 77354", "name": "39 - Magnolia City 39", "phone": "281-350-9922", "website": "https://www.xlparts.com/en/locations", "brand": "XL Parts"}, "geometry": {"type": "Point", "coordinates": [-95.5846569, 30.2188781]}},
{"type": "Feature", "id": "jLf7N7BiJJp5oNgnuRnmgqZDKCo=", "properties": {"ref": "1278", "@spider": "xl_parts", "addr:full": "12130 Antoine Drive, Houston, TX, 77066", "name": "40 - Antoine Dr 40", "phone": "281-350-9922", "website": "https://www.xlparts.com/en/locations", "brand": "XL Parts"}, "geometry": {"type": "Point", "coordinates": [-95.4809366, 29.9585537]}},
{"type": "Feature", "id": "WIcywLGT1jfCzKODnOWK_typkMs=", "properties": {"ref": "1279", "@spider": "xl_parts", "addr:full": "8225 Jensen Drive, Houston, TX, 77093", "name": "41 - Jensen Dr 41", "phone": "281-445-9109", "website": "https://www.xlparts.com/en/locations", "brand": "XL Parts"}, "geometry": {"type": "Point", "coordinates": [-95.343104, 29.834662]}},
{"type": "Feature", "id": "ewbk2EQMmioJDpQP5nvLyyjBMbE=", "properties": {"ref": "1280", "@spider": "xl_parts", "addr:full": "1657 Cartwright Road, Missouri City, TX, 77489", "name": "42 - Missouri City 42", "phone": "713-541-9101", "website": "https://www.xlparts.com/en/locations", "brand": "XL Parts"}, "geometry": {"type": "Point", "coordinates": [-95.5274856, 29.5835156]}},
{"type": "Feature", "id": "peOZox_h-qItONj13f_O7et6Ot8=", "properties": {"ref": "1281", "@spider": "xl_parts", "addr:full": "27223 Highway Blvd, Katy, TX, 77494", "name": "43 - Hwy Blvd Katy 43", "phone": "713-983-1300", "website": "https://www.xlparts.com/en/locations", "brand": "XL Parts"}, "geometry": {"type": "Point", "coordinates": [-95.842218, 29.785123]}},
{"type": "Feature", "id": "d7lzr4LsbHtHDgOgaBHy6uC6CFs=", "properties": {"ref": "1282", "@spider": "xl_parts", "addr:full": "5221 W Orem, Houston, TX, 77045", "name": "44 - W Orem Dr 44", "phone": "713-541-9101", "website": "https://www.xlparts.com/en/locations", "brand": "XL Parts"}, "geometry": {"type": "Point", "coordinates": [-95.45929, 29.62722]}},
{"type": "Feature", "id": "dILrd6z1sjuTKLQ4uGHZhEf5i3Q=", "properties": {"ref": "1283", "@spider": "xl_parts", "addr:full": "21932 Bellaire Blvd, Richmond, TX, 77407", "name": "45 - Bellaire Blvd 45", "phone": "713-983-1000", "website": "https://www.xlparts.com/en/locations", "brand": "XL Parts"}, "geometry": {"type": "Point", "coordinates": [-95.76145, 29.692623]}},
{"type": "Feature", "id": "p8NrX2XZz2GQ-5c41_tHnZ0TM48=", "properties": {"ref": "1284", "@spider": "xl_parts", "addr:full": "26797 Hanna Rd, Oak Ridge North, TX, 77385", "name": "46- Woodlands City 46", "phone": "281-350-9922", "website": "https://www.xlparts.com/en/locations", "brand": "XL Parts"}, "geometry": {"type": "Point", "coordinates": [-95.4368191, 30.1547753]}},
{"type": "Feature", "id": "epA8VFNZ_BMeiRIo-7DtGu7gdWE=", "properties": {"ref": "1285", "@spider": "xl_parts", "addr:full": "9406 Westpark Dr, Houston, TX, 77063", "name": "47- Westpark 47", "phone": "713-473-9101", "website": "https://www.xlparts.com/en/locations", "brand": "XL Parts"}, "geometry": {"type": "Point", "coordinates": [-95.527643, 29.721093]}},
{"type": "Feature", "id": "JUVrghJeKtH3cTKofqpvI7Fpk3Y=", "properties": {"ref": "1286", "@spider": "xl_parts", "addr:full": "951 FM 646 East, League City, TX, 77573", "name": "48- East FM646 48", "phone": "713-473-9101", "website": "https://www.xlparts.com/en/locations", "brand": "XL Parts"}, "geometry": {"type": "Point", "coordinates": [-95.061874849125, 29.485007671385]}},
{"type": "Feature", "id": "ZlfjjBCVe4wT_D3J1kZjDJhKapc=", "properties": {"ref": "1289", "@spider": "xl_parts", "addr:full": "15480 HEMPSTEAD RD, HOUSTON, TX, 77040", "name": "80 - Houston DSW 80", "phone": "713-983-1200", "website": "https://www.xlparts.com/en/locations", "brand": "XL Parts"}, "geometry": {"type": "Point", "coordinates": [-95.55755, 29.87115]}},
{"type": "Feature", "id": "zZ5BmQc2NRWz6dNp7PAtlG9u_sU=", "properties": {"ref": "1294", "@spider": "xl_parts", "addr:full": "15701 Northwest Freeway, Houston, TX, 77040", "name": "99 - Houston DC 99", "website": "https://www.xlparts.com/en/locations", "brand": "XL Parts"}, "geometry": {"type": "Point", "coordinates": [-95.555567, 29.871575]}},
{"type": "Feature", "id": "DtHK8-FY6Hq-EqdG4TtiSSvdcAQ=", "properties": {"ref": "1295", "@spider": "xl_parts", "addr:full": "2527 Willowbrook Road, Dallas, TX, 75220", "name": "101 - Willowbrook 101", "phone": "214-420-4000", "website": "https://www.xlparts.com/en/locations", "brand": "XL Parts"}, "geometry": {"type": "Point", "coordinates": [-96.887123, 32.862664]}},
{"type": "Feature", "id": "giC2x1-OxEyVV9ymOmiudZhw_Nc=", "properties": {"ref": "1296", "@spider": "xl_parts", "addr:full": "2424 West Commerce Street, Dallas, TX, 75212", "name": "102 - W. Commerce 102", "phone": "214-420-4000", "website": "https://www.xlparts.com/en/locations", "brand": "XL Parts"}, "geometry": {"type": "Point", "coordinates": [-96.861326, 32.772035]}},
{"type": "Feature", "id": "J4thHyei6LXyBD1_wCk57WzdYEY=", "properties": {"ref": "1297", "@spider": "xl_parts", "addr:full": "507 Bennett Lane, Lewisville, TX, 75057", "name": "103 - Lewisville 103", "phone": "214-420-4000", "website": "https://www.xlparts.com/en/locations", "brand": "XL Parts"}, "geometry": {"type": "Point", "coordinates": [-96.984528, 33.027921]}},
{"type": "Feature", "id": "w4dFxA95AFUxTC8-k2dSli-Vsv0=", "properties": {"ref": "1298", "@spider": "xl_parts", "addr:full": "2441 West Walnut Street, Garland, TX, 75040", "name": "104 - Garland 104", "phone": "214-420-4000", "website": "https://www.xlparts.com/en/locations", "brand": "XL Parts"}, "geometry": {"type": "Point", "coordinates": [-96.6647246, 32.9179206]}},
{"type": "Feature", "id": "MgtDWTkV8va0vNyIAb73dL6MinA=", "properties": {"ref": "1299", "@spider": "xl_parts", "addr:full": "1401 Capital Ave, Unit A, Plano, TX, 75074", "name": "105 - Plano TX 105", "phone": "214-420-4000", "website": "https://www.xlparts.com/en/locations", "brand": "XL Parts"}, "geometry": {"type": "Point", "coordinates": [-96.693737, 33.011203]}},
{"type": "Feature", "id": "t7KiAt2zUwjpDB-aouthJwqKavQ=", "properties": {"ref": "1300", "@spider": "xl_parts", "addr:full": "2532 Westwood Avenue, Mesquite, TX, 75150", "name": "106 - Westwood 106", "phone": "214-420-4000", "website": "https://www.xlparts.com/en/locations", "brand": "XL Parts"}, "geometry": {"type": "Point", "coordinates": [-96.621729, 32.797219]}},
{"type": "Feature", "id": "T7Pn5IFAQiVp-v-56P86P9m1-kE=", "properties": {"ref": "1301", "@spider": "xl_parts", "addr:full": "430 East Main Street, Grand Prairie, TX, 75050", "name": "107 - Grand Prairie 107", "phone": "214-420-4000", "website": "https://www.xlparts.com/en/locations", "brand": "XL Parts"}, "geometry": {"type": "Point", "coordinates": [-96.99853, 32.746124]}},
{"type": "Feature", "id": "Hme7eJpuTLGmGMEjzTVWr8Bpc20=", "properties": {"ref": "1302", "@spider": "xl_parts", "addr:full": "433 East Pioneer Drive #100, Irving, TX, 75061", "name": "108 - Irving 108", "phone": "214-420-4000", "website": "https://www.xlparts.com/en/locations", "brand": "XL Parts"}, "geometry": {"type": "Point", "coordinates": [-96.9412642, 32.8180412]}},
{"type": "Feature", "id": "axpgYqXPnj4r-SbiqI4k6Eanf08=", "properties": {"ref": "1303", "@spider": "xl_parts", "addr:full": "1325 Whitlock Lane, Suite 205, Carrollton, TX, 75006", "name": "109 - N Broadway 109", "phone": "214-420-4000", "website": "https://www.xlparts.com/en/locations", "brand": "XL Parts"}, "geometry": {"type": "Point", "coordinates": [-96.9122514, 32.9678817]}},
{"type": "Feature", "id": "jCARdByqsq8ONK3LBYlNWS701Hw=", "properties": {"ref": "1304", "@spider": "xl_parts", "addr:full": "1210 Duncan Street, Denton, TX, 76205", "name": "110 - Denton 110", "phone": "214-420-4000", "website": "https://www.xlparts.com/en/locations", "brand": "XL Parts"}, "geometry": {"type": "Point", "coordinates": [-97.123702, 33.201617]}},
{"type": "Feature", "id": "U0aBQ231wV3bf5Q8qEk4gOKIPTI=", "properties": {"ref": "1305", "@spider": "xl_parts", "addr:full": "1100 Harrison Ave, Arlington, TX, 76011", "name": "111 - Harrison Ave 111", "phone": "817-924-0099", "website": "https://www.xlparts.com/en/locations", "brand": "XL Parts"}, "geometry": {"type": "Point", "coordinates": [-97.0937019, 32.737571]}},
{"type": "Feature", "id": "wvB1UqNzEg4W-MBd3CM7CYIq-Js=", "properties": {"ref": "1306", "@spider": "xl_parts", "addr:full": "2750 Northaven Road, Dallas, TX, 75229", "name": "112 - Northaven Rd 112", "phone": "214-420-4000", "website": "https://www.xlparts.com/en/locations", "brand": "XL Parts"}, "geometry": {"type": "Point", "coordinates": [-96.886319518089, 32.903524092838]}},
{"type": "Feature", "id": "NYYUD_-nlJp1pEWcCiFWPSDvpCQ=", "properties": {"ref": "1307", "@spider": "xl_parts", "addr:full": "16508 West Grove Dr, Addison, TX, 75001", "name": "113 - Westgrove 113", "phone": "214-420-4000", "website": "https://www.xlparts.com/en/locations", "brand": "XL Parts"}, "geometry": {"type": "Point", "coordinates": [-96.837995, 32.9768229]}},
{"type": "Feature", "id": "dSV5oiFrrf0OMqB7dCWD2uflFr0=", "properties": {"ref": "1308", "@spider": "xl_parts", "addr:full": "8836 Lake June Road, Dallas, TX, 75217", "name": "114 - Lake June Rd 114", "phone": "214.398.8303", "website": "https://www.xlparts.com/en/locations", "brand": "XL Parts"}, "geometry": {"type": "Point", "coordinates": [-96.6670005, 32.7335741]}},
{"type": "Feature", "id": "Qc9_2cAQwl1TPEC258qakZVqxc4=", "properties": {"ref": "1309", "@spider": "xl_parts", "addr:full": "204 W Page Ave, Dallas, TX, 75208", "name": "115 - W Page 115", "phone": "214-420-4000", "website": "https://www.xlparts.com/en/locations", "brand": "XL Parts"}, "geometry": {"type": "Point", "coordinates": [-96.8251116, 32.7398339]}},
{"type": "Feature", "id": "glUAj7IMvFm4aUiBoTR_oB750HA=", "properties": {"ref": "1310", "@spider": "xl_parts", "addr:full": "610 N Main St, Duncanville, TX, 75116", "name": "116 - N Main 116", "phone": "214-391-1106", "website": "https://www.xlparts.com/en/locations", "brand": "XL Parts"}, "geometry": {"type": "Point", "coordinates": [-96.9068967, 32.6580436]}},
{"type": "Feature", "id": "Gt2PqwjhJFre-NWkretLjN4XDfs=", "properties": {"ref": "1311", "@spider": "xl_parts", "addr:full": "12609 Perimeter Dr, Dallas, TX, 75228", "name": "117- Perimeter 117", "phone": "214-420-4000", "website": "https://www.xlparts.com/en/locations", "brand": "XL Parts"}, "geometry": {"type": "Point", "coordinates": [-96.663575, 32.8618926]}},
{"type": "Feature", "id": "acor6A3f5bPE1bGj6-N3U-U3ifs=", "properties": {"ref": "1312", "@spider": "xl_parts", "addr:full": "301 Hilltop Ave, Richardson, TX, 75081", "name": "118 - Hilltop Ave 118", "phone": "214-420-4000", "website": "https://www.xlparts.com/en/locations", "brand": "XL Parts"}, "geometry": {"type": "Point", "coordinates": [-96.7237585, 32.9593066]}},
{"type": "Feature", "id": "DoPmP25PJsU0h_zPNiDv8RkFdBQ=", "properties": {"ref": "1313", "@spider": "xl_parts", "addr:full": "1830 W Virginia St, McKinney, TX, 75069", "name": "119 - W Virginia 119", "phone": "214-420-4000", "website": "https://www.xlparts.com/en/locations", "brand": "XL Parts"}, "geometry": {"type": "Point", "coordinates": [-96.6358249, 33.1987128]}},
{"type": "Feature", "id": "_p4Fa-BfSko6kFETX42o3jtlg-U=", "properties": {"ref": "1314", "@spider": "xl_parts", "addr:full": "5139 Lawnview Ave, Dallas, TX, 75227", "name": "120 - Lawnview Ave 120", "phone": "214-420-4000", "website": "https://www.xlparts.com/en/locations", "brand": "XL Parts"}, "geometry": {"type": "Point", "coordinates": [-96.7257253, 32.7900563]}},
{"type": "Feature", "id": "l7_mRWtPN0TkecpDOzhcT4JDeCU=", "properties": {"ref": "1315", "@spider": "xl_parts", "addr:full": "4900 Preston Rd, Frisco, TX, 75034", "name": "121 - Preston RD 121", "phone": "214-420-4000", "website": "https://www.xlparts.com/en/locations", "brand": "XL Parts"}, "geometry": {"type": "Point", "coordinates": [-96.80329176, 33.11573863]}},
{"type": "Feature", "id": "3iqZK2pzX6Gq5bjqCHqIpscxl54=", "properties": {"ref": "1316", "@spider": "xl_parts", "addr:full": "4930 Gordon Smith Dr, Rowlett, TX, 75088", "name": "122 - Gordon S. 122", "phone": "214.398.8303", "website": "https://www.xlparts.com/en/locations", "brand": "XL Parts"}, "geometry": {"type": "Point", "coordinates": [-96.58132437, 32.9044948]}},
{"type": "Feature", "id": "EhWyC4o-Sz8r3iLpPgzMtzc48jY=", "properties": {"ref": "1317", "@spider": "xl_parts", "addr:full": "2424 Cullen St, Fort Worth, TX, 76107", "name": "150 - Midway RD 150", "phone": "817-701-2531", "website": "https://www.xlparts.com/en/locations", "brand": "XL Parts"}, "geometry": {"type": "Point", "coordinates": [-97.3512319, 32.7617356]}},
{"type": "Feature", "id": "wNHsA4vIpJLjcmWwIEb5VepemWY=", "properties": {"ref": "1318", "@spider": "xl_parts", "addr:full": "3906 Hemphill St, Fort Worth, TX, 76110", "name": "151 - Hemphill St 151", "phone": "817-924-0099", "website": "https://www.xlparts.com/en/locations", "brand": "XL Parts"}, "geometry": {"type": "Point", "coordinates": [-97.33237088, 32.69098048]}},
{"type": "Feature", "id": "kg4qFmFJeFWFcJl-RhNEKZvLkAo=", "properties": {"ref": "1319", "@spider": "xl_parts", "addr:full": "2310 Superior Drive, Pantego, TX, 76013", "name": "152 - Pantego 152", "phone": "817-924-0099", "website": "https://www.xlparts.com/en/locations", "brand": "XL Parts"}, "geometry": {"type": "Point", "coordinates": [-97.145523, 32.707726]}},
{"type": "Feature", "id": "TnBSqRTkEt8477nmLmJom39d_Jg=", "properties": {"ref": "1320", "@spider": "xl_parts", "addr:full": "320 West Pipeline Road, Hurst, TX, 76053", "name": "153 - Hurst 153", "phone": "817-924-0099", "website": "https://www.xlparts.com/en/locations", "brand": "XL Parts"}, "geometry": {"type": "Point", "coordinates": [-97.1737165, 32.8240284]}},
{"type": "Feature", "id": "R4G29RtUnLz3wpo1OtPZMhN-d-0=", "properties": {"ref": "1321", "@spider": "xl_parts", "addr:full": "3200 Curtis Drive, Fort Worth, TX, 76116", "name": "154 - Curtis DR 154", "phone": "817-924-0099", "website": "https://www.xlparts.com/en/locations", "brand": "XL Parts"}, "geometry": {"type": "Point", "coordinates": [-97.4494854, 32.7252571]}},
{"type": "Feature", "id": "mCUtPwvtUSU67dVKyrgOxOkGQVk=", "properties": {"ref": "1322", "@spider": "xl_parts", "addr:full": "325 North Beach Street, Fort Worth, TX, 76111", "name": "155 - Beach St 155", "phone": "817-924-0099", "website": "https://www.xlparts.com/en/locations", "brand": "XL Parts"}, "geometry": {"type": "Point", "coordinates": [-97.2875736, 32.7682585]}},
{"type": "Feature", "id": "QoPSAOv_26rW5KuOLZ23EZxkTL8=", "properties": {"ref": "1323", "@spider": "xl_parts", "addr:full": "1613 North Crowley Road, Crowley, TX, 76036", "name": "156 - North Crowley 156", "phone": "817-924-0099", "website": "https://www.xlparts.com/en/locations", "brand": "XL Parts"}, "geometry": {"type": "Point", "coordinates": [-97.3510153, 32.588521]}},
{"type": "Feature", "id": "kvgxUtFS_v0hWmYKl0cZ2UvIuwg=", "properties": {"ref": "1324", "@spider": "xl_parts", "addr:full": "6400 Wuliger Way, North Richland Hills, TX, 76180", "name": "157 - Wugliger Way 157", "phone": "817-924-0099", "website": "https://www.xlparts.com/en/locations", "brand": "XL Parts"}, "geometry": {"type": "Point", "coordinates": [-97.2446512, 32.8501197]}},
{"type": "Feature", "id": "L0nRAsO7JU-WuT880Wedj7Petuk=", "properties": {"ref": "1325", "@spider": "xl_parts", "addr:full": "1118 W Harris Rd, Arlington, TX, 76001", "name": "158 - W Harris Rd 158", "phone": "817-924-0099", "website": "https://www.xlparts.com/en/locations", "brand": "XL Parts"}, "geometry": {"type": "Point", "coordinates": [-97.132181, 32.626138]}},
{"type": "Feature", "id": "o7UTDKa7lDB1LiMTtqXr3sR4OWQ=", "properties": {"ref": "1326", "@spider": "xl_parts", "addr:full": "1943 Golden Heights Rd, Fort Worth, TX, 76177", "name": "159 - Golden Heights 159", "phone": "817-924-0099", "website": "https://www.xlparts.com/en/locations", "brand": "XL Parts"}, "geometry": {"type": "Point", "coordinates": [-97.3305113, 32.9312771]}},
{"type": "Feature", "id": "ONbmtl7othGcR5ihbkiZ5EiF7ik=", "properties": {"ref": "1327", "@spider": "xl_parts", "addr:full": "2527 Willowbrook Rd., Dallas, TX, 75220", "name": "180 - Dallas DSW 180", "phone": "817-924-0099", "website": "https://www.xlparts.com/en/locations", "brand": "XL Parts"}, "geometry": {"type": "Point", "coordinates": [-96.88713, 32.86266]}},
{"type": "Feature", "id": "c4BFv-z-unE-veO_tyUU5FYfBFk=", "properties": {"ref": "1332", "@spider": "xl_parts", "addr:full": "2527 Willowbrook Rd, Dallas, TX, 75220", "name": "199 - Dallas DC 199", "phone": "817-924-0099", "website": "https://www.xlparts.com/en/locations", "brand": "XL Parts"}, "geometry": {"type": "Point", "coordinates": [-96.88713, 32.86266015]}},
{"type": "Feature", "id": "rinzuw2ZN4V2yp7kfNWEE3hoWgE=", "properties": {"ref": "1333", "@spider": "xl_parts", "addr:full": "4345 Southwest 23rd Street, Oklahoma City, OK, 73108", "name": "201 - SW 23RD 201", "phone": "405-236-1234", "website": "https://www.xlparts.com/en/locations", "brand": "XL Parts"}, "geometry": {"type": "Point", "coordinates": [-97.597249, 35.442036]}},
{"type": "Feature", "id": "mfrumc-DFdji0qKdRYihWPd-WU8=", "properties": {"ref": "1334", "@spider": "xl_parts", "addr:full": "1200 South Air Depot Boulevard, Midwest City, OK, 73110", "name": "202 - Midwest City 202", "phone": "405-236-1234", "website": "https://www.xlparts.com/en/locations", "brand": "XL Parts"}, "geometry": {"type": "Point", "coordinates": [-97.406073, 35.4524409]}},
{"type": "Feature", "id": "UOg5tprV6ALxcqxiFSPYsgB0JjY=", "properties": {"ref": "1335", "@spider": "xl_parts", "addr:full": "625 Enterprise Drive, Edmond, OK, 73013", "name": "203 - Edmond 203", "phone": "405-236-1234", "website": "https://www.xlparts.com/en/locations", "brand": "XL Parts"}, "geometry": {"type": "Point", "coordinates": [-97.493005, 35.632261]}},
{"type": "Feature", "id": "JUMF9-Pmc_2jh_IzxHgyQV1eKfQ=", "properties": {"ref": "1336", "@spider": "xl_parts", "addr:full": "3826 N Maney St, Oklahoma City, OK, 73112", "name": "204 - N Maney 204", "phone": "405-236-1234", "website": "https://www.xlparts.com/en/locations", "brand": "XL Parts"}, "geometry": {"type": "Point", "coordinates": [-97.5939296, 35.5095126]}},
{"type": "Feature", "id": "k94Ie3qCEym0XhOes3fs2o9dqFE=", "properties": {"ref": "1337", "@spider": "xl_parts", "addr:full": "813 SE 83rd St, Oklahoma City, OK, 73149", "name": "205 - SE 83RD 205", "phone": "405-236-1234", "website": "https://www.xlparts.com/en/locations", "brand": "XL Parts"}, "geometry": {"type": "Point", "coordinates": [-97.49707357, 35.38311582]}},
{"type": "Feature", "id": "-qGvR5tKsz6ST40BrTWAUvxVguw=", "properties": {"ref": "1338", "@spider": "xl_parts", "addr:full": "4740 S 83rd E Ave, Tulsa, OK, 74145", "name": "206 - Tulsa City 206", "phone": "918-984-6584", "website": "https://www.xlparts.com/en/locations", "brand": "XL Parts"}, "geometry": {"type": "Point", "coordinates": [-95.8836793, 36.0958307]}},
{"type": "Feature", "id": "JUZ0S2BMjjo6OQiyM22KM89yvUI=", "properties": {"ref": "1339", "@spider": "xl_parts", "addr:full": "4345 Southwest 23rd Street, Oklahoma City, OK, 73108", "name": "280 - Oklahoma City DSW 280", "website": "https://www.xlparts.com/en/locations", "brand": "XL Parts"}, "geometry": {"type": "Point", "coordinates": [-97.597249, 35.442036]}},
{"type": "Feature", "id": "W89QijlcqU42T0CTsc_CzRdS13U=", "properties": {"ref": "1343", "@spider": "xl_parts", "addr:full": "4345 Southwest 23rd Street, Oklahoma City, OK, 73108", "name": "299 - Oklahoma City DC 299", "website": "https://www.xlparts.com/en/locations", "brand": "XL Parts"}, "geometry": {"type": "Point", "coordinates": [-97.597249, 35.442036]}},
{"type": "Feature", "id": "-mo32KjRLR4nbfILC6nF4ACM3tY=", "properties": {"ref": "1344", "@spider": "xl_parts", "addr:full": "2831 Monterrey Boulevard, Baton Rouge, LA, 70814", "name": "301 - Baton Rouge 301", "phone": "225-636-2365", "website": "https://www.xlparts.com/en/locations", "brand": "XL Parts"}, "geometry": {"type": "Point", "coordinates": [-91.0836882, 30.4742869]}},
{"type": "Feature", "id": "ysOrjdE1nRhv1RpLRVqYV4xRgJk=", "properties": {"ref": "1345", "@spider": "xl_parts", "addr:full": "11301 Industriplex Blvd #100, Baton Rouge, LA, 70809", "name": "302 - Industriplex 302", "phone": "225-636-2365", "website": "https://www.xlparts.com/en/locations", "brand": "XL Parts"}, "geometry": {"type": "Point", "coordinates": [-91.0558404, 30.3880608]}},
{"type": "Feature", "id": "KJf31JAF75Hc7MBpHuP23a6KbEU=", "properties": {"ref": "1346", "@spider": "xl_parts", "addr:full": "12444 LA-44, Gonzales, LA , 70737", "name": "303 - Hwy 44 303", "phone": "225-644-8476", "website": "https://www.xlparts.com/en/locations", "brand": "XL Parts"}, "geometry": {"type": "Point", "coordinates": [-90.920068, 30.252236]}},
{"type": "Feature", "id": "1WHdY-JxzUmgk5yxbdZ2WIZa_ro=", "properties": {"ref": "1347", "@spider": "xl_parts", "addr:full": "1715 Corbin Rd, Hammond, LA, 70403", "name": "304- Corbin Rd 304", "phone": "985-345-1521", "website": "https://www.xlparts.com/en/locations", "brand": "XL Parts"}, "geometry": {"type": "Point", "coordinates": [-90.478574, 30.497381]}},
{"type": "Feature", "id": "a9m7JCQZpO4BjyZZVkMey6QWLZ8=", "properties": {"ref": "1348", "@spider": "xl_parts", "addr:full": "301 S Loop St, Lafayette, LA, 70506", "name": "305- Lafayette 305", "phone": "337-237-6515", "website": "https://www.xlparts.com/en/locations", "brand": "XL Parts"}, "geometry": {"type": "Point", "coordinates": [-92.0349384, 30.2343621]}},
{"type": "Feature", "id": "-MWnlV-10Ar84pa5MorJlSyTgV8=", "properties": {"ref": "1349", "@spider": "xl_parts", "addr:full": "544 S Hollywood Rd, Houma, LA, 70360", "name": "306- N Hollywood Rd 306", "phone": "985-853-1739", "website": "https://www.xlparts.com/en/locations", "brand": "XL Parts"}, "geometry": {"type": "Point", "coordinates": [-90.7616545, 29.595247]}},
{"type": "Feature", "id": "tYsGsSp2BQEjGLfiWJkM8zCwHxw=", "properties": {"ref": "1352", "@spider": "xl_parts", "addr:full": "12444 LA-44, Gonzales, LA , 70737", "name": "380 - Louisiana DSW 380", "phone": "7139831200", "website": "https://www.xlparts.com/en/locations", "brand": "XL Parts"}, "geometry": {"type": "Point", "coordinates": [-90.919715173172, 30.252355305123]}},
{"type": "Feature", "id": "OsYyG7zYYOhHzZaIJDMhSMkwcwI=", "properties": {"ref": "1355", "@spider": "xl_parts", "addr:full": "12444 LA-44, Gonzales, LA , 70737", "name": "399 - Louisiana DC 399", "website": "https://www.xlparts.com/en/locations", "brand": "XL Parts"}, "geometry": {"type": "Point", "coordinates": [-91.0836882, 30.4742869]}},
{"type": "Feature", "id": "PAtbkj5yJoGHmMVtVC8K6unf8Us=", "properties": {"ref": "1356", "@spider": "xl_parts", "addr:full": "4737 Broom St, San Antonio, TX, 78217", "name": "401- Broom 401", "phone": "210-590-4040", "website": "https://www.xlparts.com/en/locations", "brand": "XL Parts"}, "geometry": {"type": "Point", "coordinates": [-98.3976929, 29.5271356]}},
{"type": "Feature", "id": "wHg3YNHJ0gmuMjwThh6yEnHEctk=", "properties": {"ref": "1357", "@spider": "xl_parts", "addr:full": "716 S Frio St, San Antonio, TX, 78207", "name": "402- S Frio 402", "phone": "210-225-3657", "website": "https://www.xlparts.com/en/locations", "brand": "XL Parts"}, "geometry": {"type": "Point", "coordinates": [-98.5043996, 29.4189351]}},
{"type": "Feature", "id": "KmKFLLFtUbLKXni4NFfcANzydFo=", "properties": {"ref": "1358", "@spider": "xl_parts", "addr:full": "5411 Jackwood Dr, San Antonio, TX, 78238", "name": "403- Jackwood 403", "phone": "210-523-7477", "website": "https://www.xlparts.com/en/locations", "brand": "XL Parts"}, "geometry": {"type": "Point", "coordinates": [-98.6017823, 29.4853838]}},
{"type": "Feature", "id": "UMokIQ7Rn76_h67yVONPzFNK0XI=", "properties": {"ref": "1359", "@spider": "xl_parts", "addr:full": "1518 Mid Cities Dr, Pharr, TX, 78577", "name": "404- Pharr City 404", "phone": "956-781-8983", "website": "https://www.xlparts.com/en/locations", "brand": "XL Parts"}, "geometry": {"type": "Point", "coordinates": [-98.1976912, 26.212935]}},
{"type": "Feature", "id": "5VKgYU4oOB3iQMpknhWyQySZL4o=", "properties": {"ref": "1360", "@spider": "xl_parts", "addr:full": "215 West Rhapsody Drive, San Antonio, TX, 78216", "name": "405- Rhapsody 405", "phone": "210-530-9863", "website": "https://www.xlparts.com/en/locations", "brand": "XL Parts"}, "geometry": {"type": "Point", "coordinates": [-98.4975159, 29.5469805]}},
{"type": "Feature", "id": "ciy4s7FXTKvdJpjLUSrc3oWCS7M=", "properties": {"ref": "1361", "@spider": "xl_parts", "addr:full": "2502 E Southcross, San Antonio, TX, 78223", "name": "406- Southcross 406", "phone": "210-533-8103", "website": "https://www.xlparts.com/en/locations", "brand": "XL Parts"}, "geometry": {"type": "Point", "coordinates": [-98.4544557, 29.3749918]}},
{"type": "Feature", "id": "b0NESVHIuMFK2p1foMJYG7Z3edg=", "properties": {"ref": "1362", "@spider": "xl_parts", "addr:full": "5005 West Ave. Suite 1100, San Antonio, TX, 78213", "name": "407- West Ave. 407", "phone": "210-697-5863", "website": "https://www.xlparts.com/en/locations", "brand": "XL Parts"}, "geometry": {"type": "Point", "coordinates": [-98.526027326531, 29.511756326531]}},
{"type": "Feature", "id": "KToKDqdFyaemJ8uwET7Foni969o=", "properties": {"ref": "1363", "@spider": "xl_parts", "addr:full": "154 S Business Ih 35, New Braunfels, TX, 78130", "name": "408- New Braunfels City 408", "phone": "830-609-4500", "website": "https://www.xlparts.com/en/locations", "brand": "XL Parts"}, "geometry": {"type": "Point", "coordinates": [-98.1135466, 29.6939657]}},
{"type": "Feature", "id": "BM-v-qgsd9gSMG3KUGeAFx8Dhb4=", "properties": {"ref": "1364", "@spider": "xl_parts", "addr:full": "5311 Country Club Dr, Victoria, TX, 77904", "name": "409- Victoria City 409", "phone": "361-573-4395", "website": "https://www.xlparts.com/en/locations", "brand": "XL Parts"}, "geometry": {"type": "Point", "coordinates": [-97.0026985, 28.8442818]}},
{"type": "Feature", "id": "tfOWmSvQnKr4Ad9yqv8sqsKbnQg=", "properties": {"ref": "1366", "@spider": "xl_parts", "addr:full": "1605 E Hillside Rd, Laredo, TX, 78041", "name": "411- Laredo City 411", "phone": "956-726-6977", "website": "https://www.xlparts.com/en/locations", "brand": "XL Parts"}, "geometry": {"type": "Point", "coordinates": [-99.474585, 27.543967]}},
{"type": "Feature", "id": "nw1EMU5t0up9DosNylGlGU1eaH4=", "properties": {"ref": "1368", "@spider": "xl_parts", "addr:full": "1101 Pat Booker Rd, Universal City, TX, 78148", "name": "413- Universal City 413", "phone": "210-658-7111", "website": "https://www.xlparts.com/en/locations", "brand": "XL Parts"}, "geometry": {"type": "Point", "coordinates": [-98.296548, 29.549761]}},
{"type": "Feature", "id": "1RCDXQOBLmc5ONuqmm5LrZAzsAE=", "properties": {"ref": "1369", "@spider": "xl_parts", "addr:full": "346 S Main St, Boerne, TX, 78006", "name": "414- Boerne City 414", "phone": "830-249-3201", "website": "https://www.xlparts.com/en/locations", "brand": "XL Parts"}, "geometry": {"type": "Point", "coordinates": [-98.7305752, 29.7907995]}},
{"type": "Feature", "id": "bP_pYs5v508Jt6QnXmbU9-yBFmc=", "properties": {"ref": "1370", "@spider": "xl_parts", "addr:full": "10475 Doheny Rd, Helotes, TX, 78023", "name": "415- Helotes 415", "phone": "210-654-4944", "website": "https://www.xlparts.com/en/locations", "brand": "XL Parts"}, "geometry": {"type": "Point", "coordinates": [-98.7123406, 29.5403728]}},
{"type": "Feature", "id": "tkTxUASWMYxBawnlzsRIBEPiMb8=", "properties": {"ref": "1371", "@spider": "xl_parts", "addr:full": "729 S Colorado St, Lockhart, TX, 78644", "name": "416- Lockhart City 416", "phone": "512-398-2270", "website": "https://www.xlparts.com/en/locations", "brand": "XL Parts"}, "geometry": {"type": "Point", "coordinates": [-97.6693507, 29.8775381]}},
{"type": "Feature", "id": "WL5UWW1zGi2G3M1dfwY9NWvJB7w=", "properties": {"ref": "1375", "@spider": "xl_parts", "addr:full": "4737 Broom St, San Antonio, TX, 78217", "name": "480 - San Antonio DSW 480", "website": "https://www.xlparts.com/en/locations", "brand": "XL Parts"}, "geometry": {"type": "Point", "coordinates": [-98.3976929, 29.5271356]}},
{"type": "Feature", "id": "U8SvMV5n_33II4agm0s7XhLGuzA=", "properties": {"ref": "1379", "@spider": "xl_parts", "addr:full": "4737 Broom St, San Antonio, TX, 78217", "name": "499- San Antonio DC 499", "website": "https://www.xlparts.com/en/locations", "brand": "XL Parts"}, "geometry": {"type": "Point", "coordinates": [-98.3976929, 29.5271356]}},
{"type": "Feature", "id": "i5YsaNaCbCJMce8aR8dGMhuXcxg=", "properties": {"ref": "2749", "@spider": "xl_parts", "addr:full": "6623 S. Zarzamora Suite 112, San Antonio, TX, 78211", "name": "412- Zarzamora 412", "phone": "210-924-1320", "website": "https://www.xlparts.com/en/locations", "brand": "XL Parts"}, "geometry": {"type": "Point", "coordinates": [-98.53460389229, 29.362694231663]}},
{"type": "Feature", "id": "VIY-Qkzfuz1m7Cf8QjM4EAnm0OQ=", "properties": {"ref": "202982", "@spider": "xl_parts", "addr:full": "4400 Zenith Street, Metairie, LA , 70001", "name": "307- Zenith 307", "phone": "985-853-1739", "website": "https://www.xlparts.com/en/locations", "brand": "XL Parts"}, "geometry": {"type": "Point", "coordinates": [-90.1795711, 29.9946196]}},
{"type": "Feature", "id": "vow1A8sQG-bD6q2XqwbtSgaUJ7E=", "properties": {"ref": "203184", "@spider": "xl_parts", "addr:full": "2702 N Sheridan Road, Tulsa, OK, 74115", "name": "207- N Sheridan RD 207", "phone": "405-236-1234", "website": "https://www.xlparts.com/en/locations", "brand": "XL Parts"}, "geometry": {"type": "Point", "coordinates": [-95.90564, 36.193]}},
{"type": "Feature", "id": "iBU48qPdk-SOlmmmU4cFVUB4KWU=", "properties": {"ref": "203812", "@spider": "xl_parts", "addr:full": "5105 Cardinal Dr, Beaumont, TX, 77705", "name": "51- Beaumont 51", "phone": " 713-473-9101", "website": "https://www.xlparts.com/en/locations", "brand": "XL Parts"}, "geometry": {"type": "Point", "coordinates": [-94.13681, 30.04349]}},
{"type": "Feature", "id": "uD1uOd9Fbcktv2M3SuHk6B-zr2o=", "properties": {"ref": "203872", "@spider": "xl_parts", "addr:full": "2404 N. Texas Ave., Bryan , TX, 77803", "name": "49- College Station 49", "phone": "713-983-1000", "website": "https://www.xlparts.com/en/locations", "brand": "XL Parts"}, "geometry": {"type": "Point", "coordinates": [-96.37962, 30.69336]}},
{"type": "Feature", "id": "ZyNaWgLifOVLOfu6p7ll0z4SXAc=", "properties": {"ref": "205405", "@spider": "xl_parts", "addr:full": "15480 Hempstead Highway, Houston, TX, 77040", "name": "81 - Houston DSW 81", "phone": "713-983-1200", "website": "https://www.xlparts.com/en/locations", "brand": "XL Parts"}, "geometry": {"type": "Point", "coordinates": [-95.55755, 29.87115]}},
{"type": "Feature", "id": "3S4rpavIqvJAJ_RotqHXpYZ65w0=", "properties": {"ref": "205495", "@spider": "xl_parts", "addr:full": "15480 Hempstead Highway, Houston, TX, 77040", "name": "82- Houston DSW 82", "phone": "713-983-1200", "website": "https://www.xlparts.com/en/locations", "brand": "XL Parts"}, "geometry": {"type": "Point", "coordinates": [-95.55755, 29.87115]}},
{"type": "Feature", "id": "6sFldShKXmtbWbtbgPhMzaciDq8=", "properties": {"ref": "205970", "@spider": "xl_parts", "addr:full": "15480 Hempstead Highway, Houston, TX, 77040", "name": "83- Houston DSW 83", "phone": "713-983-1200", "website": "https://www.xlparts.com/en/locations", "brand": "XL Parts"}, "geometry": {"type": "Point", "coordinates": [-95.55755, 29.87115]}},
{"type": "Feature", "id": "eZ12jXynVYbBMiCI0lcNCZ-Amqo=", "properties": {"ref": "205971", "@spider": "xl_parts", "addr:full": "15480 Hempstead Highway, Houston, TX, 77040", "name": "84- Houston DSW 84", "phone": "713-983-1200", "website": "https://www.xlparts.com/en/locations", "brand": "XL Parts"}, "geometry": {"type": "Point", "coordinates": [-95.55755, 29.87115]}},
{"type": "Feature", "id": "A16dntizYUqQvLR9QBqOiFDZb90=", "properties": {"ref": "205972", "@spider": "xl_parts", "addr:full": "2527 Willowbrook Rd., Dallas, TX, 75220", "name": "181-Dallas DSW 181", "phone": "972-233-9251", "website": "https://www.xlparts.com/en/locations", "brand": "XL Parts"}, "geometry": {"type": "Point", "coordinates": [-96.88713, 32.86266]}},
{"type": "Feature", "id": "kleKbM4MZ1l7U7iS2Ny9yQNcjeQ=", "properties": {"ref": "205973", "@spider": "xl_parts", "addr:full": "2527 Willowbrook Rd., Dallas, TX, 75220", "name": "182--Dallas DSW 182", "phone": "972-233-9251", "website": "https://www.xlparts.com/en/locations", "brand": "XL Parts"}, "geometry": {"type": "Point", "coordinates": [-96.88713, 32.86266]}},
{"type": "Feature", "id": "ckqIHH7k_ByPOaTThIloF4GeVIA=", "properties": {"ref": "206054", "@spider": "xl_parts", "addr:full": "9324 Neils Thompson Dr Suite 101, Austin, TX, 78758", "name": "502 - Austin 502", "phone": "512-398-2447", "website": "https://www.xlparts.com/en/locations", "brand": "XL Parts"}, "geometry": {"type": "Point", "coordinates": [-97.733936267039, 30.3819718732]}},
{"type": "Feature", "id": "J5uOWm2lu2_sDIt9GdNB1DRK040=", "properties": {"ref": "206134", "@spider": "xl_parts", "addr:full": "630 AVENUE K, Grand Prairie, TX, 75050", "name": "190-Dallas DSW  190", "phone": "972-647-4242", "website": "https://www.xlparts.com/en/locations", "brand": "XL Parts"}, "geometry": {"type": "Point", "coordinates": [-97.05933, 32.77332]}},
{"type": "Feature", "id": "loxqllUktoWS7IyVz4v9nETaNrU=", "properties": {"ref": "206149", "@spider": "xl_parts", "addr:full": "630 AVENUE K, Grand Prairie, TX, 75050", "name": "191- Dallas DSW  191", "phone": "972-647-4242", "website": "https://www.xlparts.com/en/locations", "brand": "XL Parts"}, "geometry": {"type": "Point", "coordinates": [-97.05933, 32.77332]}},
{"type": "Feature", "id": "zUTw1S6MBnbQzw6ayp8dEgKW-WU=", "properties": {"ref": "206150", "@spider": "xl_parts", "addr:full": "325 N BEACH ST, FT WORTH, TX, 76111", "name": "192-FT.WORTH DSW 192", "phone": "817-335-6942", "website": "https://www.xlparts.com/en/locations", "brand": "XL Parts"}, "geometry": {"type": "Point", "coordinates": [-97.28863, 32.76805]}},
{"type": "Feature", "id": "Hj87yKc4licsKyp0C-iIsRn7OG4=", "properties": {"ref": "206165", "@spider": "xl_parts", "addr:full": "325 N. Beach St., FT WORTH, TX, 76111", "name": "193- FT.WORTH DSW 193", "phone": "817-335-6942", "website": "https://www.xlparts.com/en/locations", "brand": "XL Parts"}, "geometry": {"type": "Point", "coordinates": [-97.28863, 32.76805]}},
{"type": "Feature", "id": "Llux26HDq-CXovh-swXKJwEGWrY=", "properties": {"ref": "206166", "@spider": "xl_parts", "addr:full": "630 AVENUE K, Grand Prairie, TX, 75050", "name": "194- Dallas DSW 194", "phone": "972-647-4242", "website": "https://www.xlparts.com/en/locations", "brand": "XL Parts"}, "geometry": {"type": "Point", "coordinates": [-97.05933, 32.77332]}},
{"type": "Feature", "id": "HN2XKi7P1-dNXxaev50KtvIeaTE=", "properties": {"ref": "206167", "@spider": "xl_parts", "addr:full": "325 N BEACH ST, FT WORTH, TX, 76111", "name": "195- FT.Worth DSW 195", "phone": "817-335-6942", "website": "https://www.xlparts.com/en/locations", "brand": "XL Parts"}, "geometry": {"type": "Point", "coordinates": [-97.28863, 32.76805]}},
{"type": "Feature", "id": "jhC2Jt46jsr4JdnTbvakBkVJu6c=", "properties": {"ref": "206168", "@spider": "xl_parts", "addr:full": "4345 Southwest 23rd Street, Oklahoma City, OK, 73108", "name": "281-Oklahoma City DSW 281", "phone": "405-236-1203", "website": "https://www.xlparts.com/en/locations", "brand": "XL Parts"}, "geometry": {"type": "Point", "coordinates": [-97.597249, 35.442036]}},
{"type": "Feature", "id": "y_AWtplcm0lwja5aYsFmOABjK8A=", "properties": {"ref": "206169", "@spider": "xl_parts", "addr:full": "12444 Hwy 44, Gonzales, LA , 70737", "name": "381 - Louisiana DSW 381", "website": "https://www.xlparts.com/en/locations", "brand": "XL Parts"}, "geometry": {"type": "Point", "coordinates": [-91.0836882, 30.4742869]}},
{"type": "Feature", "id": "y0C0BoqPCc9ntO-DDuEUR1rb5qM=", "properties": {"ref": "206170", "@spider": "xl_parts", "addr:full": "12444 Hwy 44, Gonzalez, LA , 70737", "name": "382 - Louisiana DSW 382", "website": "https://www.xlparts.com/en/locations", "brand": "XL Parts"}, "geometry": {"type": "Point", "coordinates": [-90.91995, 30.2523]}},
{"type": "Feature", "id": "k83osfYS4PbjbSGA24exyMAGJds=", "properties": {"ref": "206172", "@spider": "xl_parts", "addr:full": "4737 Broom St, San Antonio, TX, 78217", "name": "481San Antonio DSW 481", "website": "https://www.xlparts.com/en/locations", "brand": "XL Parts"}, "geometry": {"type": "Point", "coordinates": [-98.3976929, 29.5271356]}},
{"type": "Feature", "id": "Y439dPPyV05juzcablrufypnc54=", "properties": {"ref": "206173", "@spider": "xl_parts", "addr:full": "4737 Broom St, San Antonio, San Antonio , TX, 78217", "name": "482-  San Antonio DSW 482", "phone": "7139831000", "website": "https://www.xlparts.com/en/locations", "brand": "XL Parts"}, "geometry": {"type": "Point", "coordinates": [-98.3976928998, 29.5271356]}},
{"type": "Feature", "id": "3DJSf8T7kw02ZquK0sl4PFj_N9c=", "properties": {"ref": "206174", "@spider": "xl_parts", "addr:full": "15701 NorthWest Fwy, Houston, TX, 77040", "name": "484-San Antonio DSW 484", "website": "https://www.xlparts.com/en/locations", "brand": "XL Parts"}, "geometry": {"type": "Point", "coordinates": [-95.555567, 29.871575]}}]}